{
"type": "FeatureCollection",
"features": [
	{"geometry":{"coordinates":[12.395707,51.345351],"type":"Point"},"properties":{"osm_id":"266201564","tag":{"amenity":"recycling","recycling:glass":"yes","recycling:glass_bottles":"yes","recycling_type":"container"}},"type":"Feature"},
	{"geometry":{"coordinates":[12.4761,51.358627],"type":"Point"},"properties":{"osm_id":"332213640","tag":{"amenity":"recycling","recycling:paper":"yes"}},"type":"Feature"},
	{"geometry":{"coordinates":[12.4722,51.36011],"type":"Point"},"properties":{"osm_id":"332214646","tag":{"amenity":"recycling","recycling:glass":"yes"}},"type":"Feature"},
	{"geometry":{"coordinates":[12.474815,51.357718],"type":"Point"},"properties":{"osm_id":"332313102","tag":{"amenity":"recycling","location":"overground","recycling:batteries":"no","recycling:clothes":"no","recycling:glass":"yes","recycling:paper":"yes","recycling_type":"container"}},"type":"Feature"},
	{"geometry":{"coordinates":[12.473256,51.357193],"type":"Point"},"properties":{"osm_id":"332313103","tag":{"amenity":"recycling","recycling:batteries":"no","recycling:clothes":"no","recycling:glass":"yes","recycling:paper":"yes"}},"type":"Feature"},
	{"geometry":{"coordinates":[12.443589,51.380824],"type":"Point"},"properties":{"osm_id":"355352846","tag":{"amenity":"recycling","mapillary":"J8gP_CS3CX1_LaptgtYkSw","recycling_type":"container","survey:date":"2017-10-26"}},"type":"Feature"},
	{"geometry":{"coordinates":[12.420975,51.358493],"type":"Point"},"properties":{"osm_id":"501578493","tag":{"amenity":"recycling","recycling:clothes":"yes","recycling:glass":"yes","recycling_type":"container"}},"type":"Feature"},
	{"geometry":{"coordinates":[12.430568,51.35079],"type":"Point"},"properties":{"osm_id":"680014663","tag":{"amenity":"recycling","recycling:glass":"yes","recycling:glass_bottles":"yes","recycling_type":"container"}},"type":"Feature"},
	{"geometry":{"coordinates":[12.414823,51.359348],"type":"Point"},"properties":{"osm_id":"1002055153","tag":{"amenity":"waste_basket","bin":"yes"}},"type":"Feature"},
	{"geometry":{"coordinates":[12.457411,51.383061],"type":"Point"},"properties":{"osm_id":"1117122050","tag":{"amenity":"recycling","recycling:glass_bottles":"yes","recycling_type":"container"}},"type":"Feature"},
	{"geometry":{"coordinates":[12.412748,51.357026],"type":"Point"},"properties":{"osm_id":"1486465370","tag":{"amenity":"recycling","recycling:glass":"no","recycling:glass_bottles":"yes","recycling_type":"container"}},"type":"Feature"},
	{"geometry":{"coordinates":[12.41142,51.357427],"type":"Point"},"properties":{"osm_id":"1486465379","tag":{"amenity":"recycling","recycling:clothes":"yes","recycling_type":"container"}},"type":"Feature"},
	{"geometry":{"coordinates":[12.407263,51.358102],"type":"Point"},"properties":{"osm_id":"1533182389","tag":{"amenity":"recycling","recycling:glass":"yes","recycling:glass_bottles":"yes","recycling_type":"container"}},"type":"Feature"},
	{"geometry":{"coordinates":[12.40374,51.363685],"type":"Point"},"properties":{"osm_id":"1537275864","tag":{"amenity":"recycling","recycling:clothes":"yes","recycling:glass":"yes","recycling_type":"container"}},"type":"Feature"},
	{"geometry":{"coordinates":[12.410951,51.346981],"type":"Point"},"properties":{"name":"Buntmetallhandel John","osm_id":"1644232911","tag":{"amenity":"recycling","recycling:scrap_metal":"yes","recycling_type":"centre"}},"type":"Feature"},
	{"geometry":{"coordinates":[12.402663,51.376261],"type":"Point"},"properties":{"osm_id":"1650386524","tag":{"amenity":"recycling","recycling:glass":"yes","recycling_type":"container"}},"type":"Feature"},
	{"geometry":{"coordinates":[12.40439,51.344676],"type":"Point"},"properties":{"osm_id":"1790099914","tag":{"amenity":"recycling","recycling:clothes":"yes","recycling:shoes":"yes","recycling_type":"container"}},"type":"Feature"},
	{"geometry":{"coordinates":[12.413699,51.346974],"type":"Point"},"properties":{"osm_id":"2130571699","tag":{"amenity":"recycling","recycling:glass":"yes","recycling_type":"container"}},"type":"Feature"},
	{"geometry":{"coordinates":[12.39585,51.363374],"type":"Point"},"properties":{"osm_id":"2453231337","tag":{"amenity":"recycling","recycling:glass_bottles":"yes","recycling_type":"container"}},"type":"Feature"},
	{"geometry":{"coordinates":[12.436155,51.349323],"type":"Point"},"properties":{"osm_id":"2468044993","tag":{"amenity":"recycling","recycling:glass":"yes","recycling_type":"container"}},"type":"Feature"},
	{"geometry":{"coordinates":[12.436135,51.349291],"type":"Point"},"properties":{"osm_id":"2468044998","tag":{"amenity":"recycling","recycling:glass":"yes","recycling_type":"container"}},"type":"Feature"},
	{"geometry":{"coordinates":[12.436146,51.349306],"type":"Point"},"properties":{"osm_id":"2468045001","tag":{"amenity":"recycling","recycling:glass":"yes","recycling_type":"container"}},"type":"Feature"},
	{"geometry":{"coordinates":[12.449202,51.345488],"type":"Point"},"properties":{"osm_id":"2486904151","tag":{"amenity":"recycling","recycling:clothes":"yes","recycling:shoes":"yes","recycling_type":"container"}},"type":"Feature"},
	{"geometry":{"coordinates":[12.403092,51.34549],"type":"Point"},"properties":{"osm_id":"2772763520","tag":{"amenity":"waste_basket"}},"type":"Feature"},
	{"geometry":{"coordinates":[12.402676,51.345516],"type":"Point"},"properties":{"osm_id":"2772763524","tag":{"amenity":"waste_basket"}},"type":"Feature"},
	{"geometry":{"coordinates":[12.402396,51.345519],"type":"Point"},"properties":{"osm_id":"2772763533","tag":{"amenity":"waste_basket"}},"type":"Feature"},
	{"geometry":{"coordinates":[12.403938,51.345542],"type":"Point"},"properties":{"osm_id":"2772763539","tag":{"amenity":"recycling","recycling:clothes":"yes","recycling_type":"container"}},"type":"Feature"},
	{"geometry":{"coordinates":[12.40091,51.363828],"type":"Point"},"properties":{"osm_id":"3098446437","tag":{"amenity":"waste_basket"}},"type":"Feature"},
	{"geometry":{"coordinates":[12.432482,51.363388],"type":"Point"},"properties":{"name":"Wertstoffhof","osm_id":"3150325638","tag":{"addr:city":"Leipzig","addr:country":"DE","addr:housenumber":"16","addr:postcode":"04347","addr:street":"St\u00c3\u00b6hrerstra\u00c3\u009fe","amenity":"recycling","building":"yes","opening_hours":"Tu-Fr 10:00-13:30,14:00-18:00; Sa 08:00-12:00","recycling:batteries":"yes","recycling:cans":"yes","recycling:clothes":"yes","recycling:glass":"yes","recycling:paper":"yes","recycling:scrap_metal":"yes","recycling_type":"centre"}},"type":"Feature"},
	{"geometry":{"coordinates":[12.430098,51.348891],"type":"Point"},"properties":{"osm_id":"3186250780","tag":{"amenity":"recycling","recycling:glass":"yes","recycling:glass_bottles":"yes","recycling_type":"container"}},"type":"Feature"},
	{"geometry":{"coordinates":[12.42836,51.346182],"type":"Point"},"properties":{"osm_id":"3186250782","tag":{"amenity":"recycling","opening_hours":"Mo-Sa 07:00-13:00, Mo-Sa 15:00-20:00; PH off","operator":"Abfall-Logistik Leipzig GmbH","phone":"+49 800 3413411","recycling:glass":"yes","recycling:glass_bottles":"yes","recycling_type":"container"}},"type":"Feature"},
	{"geometry":{"coordinates":[12.428459,51.346014],"type":"Point"},"properties":{"osm_id":"3186250788","tag":{"amenity":"recycling","recycling:clothes":"yes","recycling_type":"container"}},"type":"Feature"},
	{"geometry":{"coordinates":[12.473861,51.35848],"type":"Point"},"properties":{"osm_id":"3256031143","tag":{"amenity":"recycling","location":"overground","recycling:clothes":"no","recycling_type":"container"}},"type":"Feature"},
	{"geometry":{"coordinates":[12.480415,51.348593],"type":"Point"},"properties":{"osm_id":"3368532435","tag":{"amenity":"recycling","recycling:clothes":"yes","recycling:glass":"yes","recycling:glass_bottles":"yes","recycling_type":"container"}},"type":"Feature"},
	{"geometry":{"coordinates":[12.446268,51.34738],"type":"Point"},"properties":{"osm_id":"3370112913","tag":{"amenity":"recycling","recycling:glass":"yes","recycling:glass_bottles":"yes","recycling_type":"container"}},"type":"Feature"},
	{"geometry":{"coordinates":[12.45957,51.352901],"type":"Point"},"properties":{"osm_id":"3370677640","tag":{"amenity":"recycling","recycling:glass":"yes","recycling:glass_bottles":"yes","recycling_type":"container"}},"type":"Feature"},
	{"geometry":{"coordinates":[12.46186,51.353909],"type":"Point"},"properties":{"osm_id":"3370899756","tag":{"amenity":"recycling","recycling:glass":"yes","recycling:glass_bottles":"yes","recycling_type":"container"}},"type":"Feature"},
	{"geometry":{"coordinates":[12.460484,51.354992],"type":"Point"},"properties":{"osm_id":"3371534002","tag":{"amenity":"recycling","recycling:clothes":"yes","recycling:glass":"yes","recycling:glass_bottles":"yes","recycling_type":"container"}},"type":"Feature"},
	{"geometry":{"coordinates":[12.459719,51.356253],"type":"Point"},"properties":{"osm_id":"3381786109","tag":{"amenity":"recycling","recycling:glass":"yes","recycling:glass_bottles":"yes","recycling_type":"container"}},"type":"Feature"},
	{"geometry":{"coordinates":[12.428894,51.381175],"type":"Point"},"properties":{"osm_id":"3388323550","tag":{"amenity":"recycling","recycling:glass":"yes","recycling:glass_bottles":"yes","recycling_type":"container"}},"type":"Feature"},
	{"geometry":{"coordinates":[12.439222,51.346952],"type":"Point"},"properties":{"osm_id":"3393067293","tag":{"amenity":"recycling","recycling:glass":"yes","recycling:glass_bottles":"yes","recycling_type":"container"}},"type":"Feature"},
	{"geometry":{"coordinates":[12.440297,51.35072],"type":"Point"},"properties":{"osm_id":"3394348240","ref":"18917","tag":{"amenity":"recycling","operator":"Heilsarmee","phone":"+493412518880","recycling:glass":"yes","recycling:glass_bottles":"yes","recycling_type":"container","website":"https://www.heilsarmee.de/leipzig"}},"type":"Feature"},
	{"geometry":{"coordinates":[12.40014,51.344471],"type":"Point"},"properties":{"osm_id":"3732207437","tag":{"amenity":"recycling","recycling:clothes":"yes","recycling_type":"container"}},"type":"Feature"},
	{"geometry":{"coordinates":[12.41745,51.356745],"type":"Point"},"properties":{"osm_id":"3802650375","tag":{"amenity":"recycling"}},"type":"Feature"},
	{"geometry":{"coordinates":[12.459707,51.369175],"type":"Point"},"properties":{"osm_id":"3883995855","tag":{"amenity":"waste_basket","operator":"DB Station&Service AG"}},"type":"Feature"},
	{"geometry":{"coordinates":[12.419784,51.380215],"type":"Point"},"properties":{"osm_id":"3997994954","tag":{"amenity":"recycling","recycling:glass":"yes","recycling:glass_bottles":"yes","recycling_type":"container"}},"type":"Feature"},
	{"geometry":{"coordinates":[12.433038,51.378349],"type":"Point"},"properties":{"osm_id":"4003391773","tag":{"amenity":"recycling","recycling:clothes":"yes","recycling_type":"container"}},"type":"Feature"},
	{"geometry":{"coordinates":[12.458416,51.382052],"type":"Point"},"properties":{"osm_id":"4064248032","tag":{"amenity":"waste_basket"}},"type":"Feature"},
	{"geometry":{"coordinates":[12.416203,51.369339],"type":"Point"},"properties":{"osm_id":"4141672155","tag":{"amenity":"waste_basket"}},"type":"Feature"},
	{"geometry":{"coordinates":[12.416595,51.36932],"type":"Point"},"properties":{"osm_id":"4141672165","tag":{"amenity":"waste_basket"}},"type":"Feature"},
	{"geometry":{"coordinates":[12.406628,51.37937],"type":"Point"},"properties":{"name":"Glascontainer","osm_id":"4442233370","tag":{"amenity":"waste_disposal"}},"type":"Feature"},
	{"geometry":{"coordinates":[12.42364,51.353611],"type":"Point"},"properties":{"osm_id":"4811520376","tag":{"amenity":"waste_basket"}},"type":"Feature"},
	{"geometry":{"coordinates":[12.43046,51.353942],"type":"Point"},"properties":{"osm_id":"4811538505","tag":{"amenity":"waste_basket"}},"type":"Feature"},
	{"geometry":{"coordinates":[12.430736,51.353953],"type":"Point"},"properties":{"osm_id":"4811538507","tag":{"amenity":"waste_basket"}},"type":"Feature"},
	{"geometry":{"coordinates":[12.4761,51.35886],"type":"Point"},"properties":{"osm_id":"4943765865","tag":{"amenity":"waste_basket"}},"type":"Feature"},
	{"geometry":{"coordinates":[12.475973,51.358774],"type":"Point"},"properties":{"osm_id":"4958235366","tag":{"amenity":"waste_basket"}},"type":"Feature"},
	{"geometry":{"coordinates":[12.45755,51.356627],"type":"Point"},"properties":{"osm_id":"5037510079","tag":{"amenity":"waste_disposal"}},"type":"Feature"},
	{"geometry":{"coordinates":[12.451188,51.352125],"type":"Point"},"properties":{"osm_id":"5065025150","tag":{"access":"private","amenity":"waste_disposal"}},"type":"Feature"},
	{"geometry":{"coordinates":[12.451387,51.352434],"type":"Point"},"properties":{"osm_id":"5065025151","tag":{"access":"private","amenity":"waste_disposal"}},"type":"Feature"},
	{"geometry":{"coordinates":[12.45246,51.352798],"type":"Point"},"properties":{"osm_id":"5065025153","tag":{"access":"private","amenity":"waste_disposal"}},"type":"Feature"},
	{"geometry":{"coordinates":[12.452753,51.352717],"type":"Point"},"properties":{"osm_id":"5065025154","tag":{"access":"private","amenity":"waste_disposal"}},"type":"Feature"},
	{"geometry":{"coordinates":[12.453162,51.352585],"type":"Point"},"properties":{"osm_id":"5065025176","tag":{"access":"private","amenity":"waste_disposal"}},"type":"Feature"},
	{"geometry":{"coordinates":[12.453261,51.352771],"type":"Point"},"properties":{"osm_id":"5065025177","tag":{"access":"private","amenity":"waste_disposal"}},"type":"Feature"},
	{"geometry":{"coordinates":[12.45334,51.352763],"type":"Point"},"properties":{"osm_id":"5065025178","tag":{"amenity":"recycling","operator":"Die Johanniter","recycling:clothes":"yes","recycling_type":"container"}},"type":"Feature"},
	{"geometry":{"coordinates":[12.450106,51.352588],"type":"Point"},"properties":{"osm_id":"5065025204","tag":{"access":"private","amenity":"waste_disposal"}},"type":"Feature"},
	{"geometry":{"coordinates":[12.453478,51.352499],"type":"Point"},"properties":{"osm_id":"5065025207","tag":{"access":"private","amenity":"waste_disposal"}},"type":"Feature"},
	{"geometry":{"coordinates":[12.453206,51.352548],"type":"Point"},"properties":{"osm_id":"5065025216","tag":{"amenity":"recycling","fax":"+493765525420","operator":"Grimm Kleidersammlung","phone":"+493765305525","recycling:clothes":"yes","recycling:shoes":"yes","recycling_type":"container","website":"http://www.grimm-euro-trucking.de"}},"type":"Feature"},
	{"geometry":{"coordinates":[12.454165,51.351741],"type":"Point"},"properties":{"barrier":"gate","osm_id":"5066484084"},"type":"Feature"},
	{"geometry":{"coordinates":[12.454808,51.352445],"type":"Point"},"properties":{"osm_id":"5066484103","tag":{"access":"private","amenity":"waste_disposal"}},"type":"Feature"},
	{"geometry":{"coordinates":[12.469413,51.356702],"type":"Point"},"properties":{"osm_id":"5066484251","tag":{"access":"private","amenity":"waste_disposal"}},"type":"Feature"},
	{"geometry":{"coordinates":[12.428389,51.346182],"type":"Point"},"properties":{"osm_id":"5069434255","tag":{"amenity":"recycling","capacity":"2","location":"overground","operator":"Stadtreinigung Leipzig","phone":"+493416571111","recycling:clothes":"yes","recycling_type":"container","website":"https://www.stadtreinigung-leipzig.de/"}},"type":"Feature"},
	{"geometry":{"coordinates":[12.430173,51.348657],"type":"Point"},"properties":{"osm_id":"5069434455","tag":{"amenity":"recycling","fax":"+49 3765526420","location":"overground","operator":"Grimm Kleidersammlung","phone":"+49 3765305525","recycling:clothes":"yes","recycling_type":"container","website":"http://www.grimm-euro-trucking.de"}},"type":"Feature"},
	{"geometry":{"coordinates":[12.430587,51.350897],"type":"Point"},"properties":{"osm_id":"5069434456","tag":{"amenity":"recycling","location":"overground","operator":"Stadtreinigung Leipzig","phone":"+493416571111","recycling:clothes":"yes","recycling_type":"container","website":"https://www.stadtreinigung-leipzig.de/"}},"type":"Feature"},
	{"geometry":{"coordinates":[12.44025,51.350725],"type":"Point"},"properties":{"osm_id":"5069986945","tag":{"access":"private","amenity":"waste_disposal"}},"type":"Feature"},
	{"geometry":{"coordinates":[12.43359,51.350033],"type":"Point"},"properties":{"osm_id":"5069986975","tag":{"access":"private","amenity":"waste_disposal"}},"type":"Feature"},
	{"geometry":{"coordinates":[12.433553,51.349785],"type":"Point"},"properties":{"osm_id":"5069986978","tag":{"access":"private","amenity":"waste_disposal"}},"type":"Feature"},
	{"geometry":{"coordinates":[12.430102,51.350517],"type":"Point"},"properties":{"osm_id":"5070131030","tag":{"access":"private","amenity":"waste_disposal"}},"type":"Feature"},
	{"geometry":{"coordinates":[12.43013,51.350205],"type":"Point"},"properties":{"osm_id":"5070131031","tag":{"access":"private","amenity":"waste_disposal"}},"type":"Feature"},
	{"geometry":{"coordinates":[12.430111,51.349792],"type":"Point"},"properties":{"osm_id":"5070131032","tag":{"access":"private","amenity":"waste_disposal"}},"type":"Feature"},
	{"geometry":{"coordinates":[12.430094,51.349434],"type":"Point"},"properties":{"osm_id":"5070131033","tag":{"access":"private","amenity":"waste_disposal"}},"type":"Feature"},
	{"geometry":{"coordinates":[12.430078,51.348299],"type":"Point"},"properties":{"osm_id":"5070131034","tag":{"access":"private","amenity":"waste_disposal"}},"type":"Feature"},
	{"geometry":{"coordinates":[12.430052,51.347889],"type":"Point"},"properties":{"osm_id":"5070131035","tag":{"access":"private","amenity":"waste_disposal"}},"type":"Feature"},
	{"geometry":{"coordinates":[12.428674,51.347324],"type":"Point"},"properties":{"osm_id":"5070131036","tag":{"access":"private","amenity":"waste_disposal"}},"type":"Feature"},
	{"geometry":{"coordinates":[12.433219,51.354921],"type":"Point"},"properties":{"osm_id":"5072541254","tag":{"amenity":"waste_disposal"}},"type":"Feature"},
	{"geometry":{"coordinates":[12.458434,51.357674],"type":"Point"},"properties":{"osm_id":"5073250495","tag":{"amenity":"recycling","fax":"+493765525420","operator":"Grimm Kleidersammlung","phone":"+493765305525","recycling:clothes":"yes","recycling_type":"container","website":"http://www.grimm-euro-trucking.de/"}},"type":"Feature"},
	{"geometry":{"coordinates":[12.458258,51.357966],"type":"Point"},"properties":{"osm_id":"5075512101","tag":{"access":"permissive","amenity":"waste_disposal"}},"type":"Feature"},
	{"geometry":{"coordinates":[12.458482,51.357606],"type":"Point"},"properties":{"osm_id":"5075512109","tag":{"access":"private","amenity":"waste_disposal"}},"type":"Feature"},
	{"geometry":{"coordinates":[12.457702,51.357829],"type":"Point"},"properties":{"osm_id":"5075512627","tag":{"access":"permissive","amenity":"waste_disposal"}},"type":"Feature"},
	{"geometry":{"coordinates":[12.458611,51.357675],"type":"Point"},"properties":{"osm_id":"5075512651","tag":{"access":"private","amenity":"waste_disposal"}},"type":"Feature"},
	{"geometry":{"coordinates":[12.457736,51.357828],"type":"Point"},"properties":{"osm_id":"5075512676","tag":{"amenity":"waste_basket","support":"fence"}},"type":"Feature"},
	{"geometry":{"coordinates":[12.457456,51.355738],"type":"Point"},"properties":{"osm_id":"5075644118","tag":{"access":"private","amenity":"waste_disposal"}},"type":"Feature"},
	{"geometry":{"coordinates":[12.456181,51.354259],"type":"Point"},"properties":{"osm_id":"5075644253","tag":{"access":"private","amenity":"waste_disposal"}},"type":"Feature"},
	{"geometry":{"coordinates":[12.441474,51.349538],"type":"Point"},"properties":{"osm_id":"5081537433","tag":{"amenity":"recycling","recycling:clothes":"yes","recycling_type":"container"}},"type":"Feature"},
	{"geometry":{"coordinates":[12.452446,51.351384],"type":"Point"},"properties":{"osm_id":"5084498815","tag":{"amenity":"recycling","operator":"Stadtreinigung Leipzig","recycling:clothes":"yes","recycling_type":"container"}},"type":"Feature"},
	{"geometry":{"coordinates":[12.453939,51.352071],"type":"Point"},"properties":{"osm_id":"5084498816","tag":{"amenity":"waste_basket"}},"type":"Feature"},
	{"geometry":{"coordinates":[12.452882,51.351087],"type":"Point"},"properties":{"osm_id":"5084498817","tag":{"access":"private","amenity":"waste_disposal"}},"type":"Feature"},
	{"geometry":{"coordinates":[12.426879,51.352249],"type":"Point"},"properties":{"osm_id":"5097617926","tag":{"amenity":"waste_basket"}},"type":"Feature"},
	{"geometry":{"coordinates":[12.446241,51.34738],"type":"Point"},"properties":{"osm_id":"5098434885","tag":{"amenity":"recycling","operator":"Stadtreinigung Leipzig","recycling:clothes":"yes","recycling_type":"container"}},"type":"Feature"},
	{"geometry":{"coordinates":[12.457843,51.359774],"type":"Point"},"properties":{"osm_id":"5108554829","tag":{"amenity":"waste_basket"}},"type":"Feature"},
	{"geometry":{"coordinates":[12.458127,51.359999],"type":"Point"},"properties":{"osm_id":"5108554833","tag":{"amenity":"waste_basket"}},"type":"Feature"},
	{"geometry":{"coordinates":[12.458165,51.359795],"type":"Point"},"properties":{"osm_id":"5108554836","tag":{"amenity":"waste_basket"}},"type":"Feature"},
	{"geometry":{"coordinates":[12.459137,51.35948],"type":"Point"},"properties":{"osm_id":"5108554840","tag":{"amenity":"waste_basket"}},"type":"Feature"},
	{"geometry":{"coordinates":[12.46002,51.359028],"type":"Point"},"properties":{"osm_id":"5108554843","tag":{"amenity":"waste_basket"}},"type":"Feature"},
	{"geometry":{"coordinates":[12.459943,51.358669],"type":"Point"},"properties":{"osm_id":"5108554878","tag":{"access":"private","amenity":"waste_basket"}},"type":"Feature"},
	{"geometry":{"coordinates":[12.457374,51.358907],"type":"Point"},"properties":{"osm_id":"5108554881","tag":{"amenity":"waste_basket"}},"type":"Feature"},
	{"geometry":{"coordinates":[12.457432,51.358991],"type":"Point"},"properties":{"osm_id":"5108554884","tag":{"amenity":"waste_basket"}},"type":"Feature"},
	{"geometry":{"coordinates":[12.454406,51.357386],"type":"Point"},"properties":{"osm_id":"5108555322","tag":{"amenity":"waste_basket"}},"type":"Feature"},
	{"geometry":{"coordinates":[12.454006,51.356717],"type":"Point"},"properties":{"osm_id":"5108555323","tag":{"amenity":"waste_basket"}},"type":"Feature"},
	{"geometry":{"coordinates":[12.455746,51.357705],"type":"Point"},"properties":{"osm_id":"5108555324","tag":{"amenity":"waste_basket"}},"type":"Feature"},
	{"geometry":{"coordinates":[12.455899,51.357227],"type":"Point"},"properties":{"osm_id":"5108555327","tag":{"amenity":"waste_basket"}},"type":"Feature"},
	{"geometry":{"coordinates":[12.455602,51.35651],"type":"Point"},"properties":{"osm_id":"5108555328","tag":{"amenity":"waste_basket"}},"type":"Feature"},
	{"geometry":{"coordinates":[12.455533,51.353457],"type":"Point"},"properties":{"osm_id":"5113749474","tag":{"amenity":"waste_basket"}},"type":"Feature"},
	{"geometry":{"coordinates":[12.45566,51.353458],"type":"Point"},"properties":{"osm_id":"5113749475","tag":{"amenity":"waste_basket"}},"type":"Feature"},
	{"geometry":{"coordinates":[12.406664,51.356399],"type":"Point"},"properties":{"name":"Altkleider Container","osm_id":"5119879919","tag":{"amenity":"recycling","recycling:cans":"no","recycling:clothes":"yes","recycling:glass":"no","recycling:glass_bottles":"no","recycling:paper":"no","recycling:plastic":"no","recycling_type":"container","wheelchair":"no"}},"type":"Feature"},
	{"geometry":{"coordinates":[12.420472,51.35394],"type":"Point"},"properties":{"osm_id":"5241747000","tag":{"amenity":"recycling","recycling:clothes":"yes","recycling:glass_bottles":"yes","recycling:shoes":"yes","recycling_type":"container"}},"type":"Feature"},
	{"geometry":{"coordinates":[12.463551,51.382763],"type":"Point"},"properties":{"osm_id":"5298002315","tag":{"amenity":"waste_basket"}},"type":"Feature"},
	{"geometry":{"coordinates":[12.46373,51.382522],"type":"Point"},"properties":{"osm_id":"5298002316","tag":{"amenity":"waste_basket"}},"type":"Feature"},
	{"geometry":{"coordinates":[12.398016,51.396732],"type":"Point"},"properties":{"osm_id":"5323531467","tag":{"amenity":"waste_basket"}},"type":"Feature"},
	{"geometry":{"coordinates":[12.397348,51.396788],"type":"Point"},"properties":{"osm_id":"5323531468","tag":{"amenity":"waste_basket"}},"type":"Feature"},
	{"geometry":{"coordinates":[12.396538,51.396859],"type":"Point"},"properties":{"osm_id":"5323531469","tag":{"amenity":"waste_basket"}},"type":"Feature"},
	{"geometry":{"coordinates":[12.398167,51.397433],"type":"Point"},"properties":{"osm_id":"5323531470","tag":{"amenity":"waste_basket"}},"type":"Feature"},
	{"geometry":{"coordinates":[12.397369,51.397501],"type":"Point"},"properties":{"osm_id":"5323531471","tag":{"amenity":"waste_basket"}},"type":"Feature"},
	{"geometry":{"coordinates":[12.396973,51.397535],"type":"Point"},"properties":{"osm_id":"5323531472","tag":{"amenity":"waste_basket"}},"type":"Feature"},
	{"geometry":{"coordinates":[12.458805,51.352307],"type":"Point"},"properties":{"osm_id":"5474884045","tag":{"amenity":"waste_basket"}},"type":"Feature"},
	{"geometry":{"coordinates":[12.458813,51.352012],"type":"Point"},"properties":{"osm_id":"5474894463","tag":{"amenity":"waste_basket"}},"type":"Feature"},
	{"geometry":{"coordinates":[12.444221,51.346198],"type":"Point"},"properties":{"osm_id":"5480680797","tag":{"amenity":"waste_basket"}},"type":"Feature"},
	{"geometry":{"coordinates":[12.44489,51.3462],"type":"Point"},"properties":{"osm_id":"5480760440","tag":{"amenity":"waste_basket"}},"type":"Feature"},
	{"geometry":{"coordinates":[12.444578,51.346203],"type":"Point"},"properties":{"osm_id":"5480778604","tag":{"amenity":"waste_basket"}},"type":"Feature"},
	{"geometry":{"coordinates":[12.40667,51.351254],"type":"Point"},"properties":{"osm_id":"5554497021","tag":{"amenity":"waste_basket"}},"type":"Feature"},
	{"geometry":{"coordinates":[12.411408,51.354167],"type":"Point"},"properties":{"osm_id":"5554497221","tag":{"amenity":"waste_basket"}},"type":"Feature"},
	{"geometry":{"coordinates":[12.419391,51.353152],"type":"Point"},"properties":{"osm_id":"5589899438","tag":{"amenity":"waste_basket"}},"type":"Feature"},
	{"geometry":{"coordinates":[12.427513,51.354438],"type":"Point"},"properties":{"osm_id":"5632233783","tag":{"amenity":"waste_basket"}},"type":"Feature"},
	{"geometry":{"coordinates":[12.424855,51.353855],"type":"Point"},"properties":{"osm_id":"5632243374","tag":{"amenity":"waste_basket"}},"type":"Feature"},
	{"geometry":{"coordinates":[12.424969,51.35381],"type":"Point"},"properties":{"osm_id":"5632243375","tag":{"amenity":"waste_basket"}},"type":"Feature"},
	{"geometry":{"coordinates":[12.40642,51.35306],"type":"Point"},"properties":{"osm_id":"5632411557","tag":{"amenity":"waste_basket"}},"type":"Feature"},
	{"geometry":{"coordinates":[12.427305,51.353122],"type":"Point"},"properties":{"osm_id":"5634473036","tag":{"amenity":"waste_disposal","private":"yes"}},"type":"Feature"},
	{"geometry":{"coordinates":[12.430034,51.355796],"type":"Point"},"properties":{"barrier":"gate","osm_id":"5634569248"},"type":"Feature"},
	{"geometry":{"coordinates":[12.420246,51.358397],"type":"Point"},"properties":{"osm_id":"5639165528","tag":{"amenity":"waste_basket","waste":"dog_excrement"}},"type":"Feature"},
	{"geometry":{"coordinates":[12.420657,51.358378],"type":"Point"},"properties":{"osm_id":"5639165529","tag":{"amenity":"waste_basket","waste":"dog_excrement"}},"type":"Feature"},
	{"geometry":{"coordinates":[12.420243,51.358066],"type":"Point"},"properties":{"osm_id":"5639165530","tag":{"amenity":"waste_basket","waste":"dog_excrement"}},"type":"Feature"},
	{"geometry":{"coordinates":[12.432769,51.37681],"type":"Point"},"properties":{"osm_id":"5724145279","tag":{"amenity":"recycling","recycling:glass":"yes","recycling_type":"container"}},"type":"Feature"},
	{"geometry":{"coordinates":[12.412715,51.363506],"type":"Point"},"properties":{"osm_id":"5792060731","tag":{"amenity":"waste_basket"}},"type":"Feature"},
	{"geometry":{"coordinates":[12.412498,51.363312],"type":"Point"},"properties":{"osm_id":"5792060736","tag":{"amenity":"waste_basket"}},"type":"Feature"},
	{"geometry":{"coordinates":[12.412814,51.363319],"type":"Point"},"properties":{"osm_id":"5792060740","tag":{"amenity":"waste_basket"}},"type":"Feature"},
	{"geometry":{"coordinates":[12.412308,51.363365],"type":"Point"},"properties":{"osm_id":"5792060749","tag":{"amenity":"waste_basket"}},"type":"Feature"},
	{"geometry":{"coordinates":[12.412155,51.363407],"type":"Point"},"properties":{"osm_id":"5792060750","tag":{"amenity":"waste_basket"}},"type":"Feature"},
	{"geometry":{"coordinates":[12.411889,51.363481],"type":"Point"},"properties":{"osm_id":"5792060751","tag":{"amenity":"waste_basket"}},"type":"Feature"},
	{"geometry":{"coordinates":[12.411879,51.362976],"type":"Point"},"properties":{"osm_id":"5792060890","tag":{"amenity":"waste_basket"}},"type":"Feature"},
	{"geometry":{"coordinates":[12.411979,51.36295],"type":"Point"},"properties":{"osm_id":"5792060891","tag":{"amenity":"waste_basket"}},"type":"Feature"},
	{"geometry":{"coordinates":[12.411175,51.362529],"type":"Point"},"properties":{"osm_id":"5792061106","tag":{"amenity":"waste_basket"}},"type":"Feature"},
	{"geometry":{"coordinates":[12.41163,51.362459],"type":"Point"},"properties":{"osm_id":"5792061107","tag":{"amenity":"waste_basket"}},"type":"Feature"},
	{"geometry":{"coordinates":[12.402394,51.354863],"type":"Point"},"properties":{"osm_id":"6159893777","tag":{"amenity":"waste_basket"}},"type":"Feature"},
	{"geometry":{"coordinates":[12.40252,51.354575],"type":"Point"},"properties":{"osm_id":"6159893778","tag":{"amenity":"waste_basket"}},"type":"Feature"},
	{"geometry":{"coordinates":[12.40295,51.354661],"type":"Point"},"properties":{"osm_id":"6159893779","tag":{"amenity":"waste_basket"}},"type":"Feature"},
	{"geometry":{"coordinates":[12.397365,51.375374],"type":"Point"},"properties":{"osm_id":"6386176539","tag":{"amenity":"waste_basket"}},"type":"Feature"},
	{"geometry":{"coordinates":[12.403635,51.352873],"type":"Point"},"properties":{"osm_id":"6486843592","tag":{"amenity":"waste_basket"}},"type":"Feature"},
	{"geometry":{"coordinates":[12.401566,51.380101],"type":"Point"},"properties":{"osm_id":"6535857609","tag":{"amenity":"recycling","recycling_type":"container"}},"type":"Feature"},
	{"geometry":{"coordinates":[12.400554,51.38086],"type":"Point"},"properties":{"osm_id":"6535857610","tag":{"amenity":"recycling","recycling_type":"container"}},"type":"Feature"},
	{"geometry":{"coordinates":[12.401478,51.379197],"type":"Point"},"properties":{"osm_id":"6535857634","tag":{"amenity":"recycling","recycling_type":"container"}},"type":"Feature"},
	{"geometry":{"coordinates":[12.400233,51.379054],"type":"Point"},"properties":{"osm_id":"6535857662","tag":{"amenity":"recycling","recycling_type":"container"}},"type":"Feature"},
	{"geometry":{"coordinates":[12.400535,51.379942],"type":"Point"},"properties":{"osm_id":"6535931787","tag":{"amenity":"recycling","recycling_type":"container"}},"type":"Feature"},
	{"geometry":{"coordinates":[12.401239,51.381039],"type":"Point"},"properties":{"osm_id":"6535931808","tag":{"amenity":"recycling","recycling_type":"container"}},"type":"Feature"},
	{"geometry":{"coordinates":[12.401251,51.378142],"type":"Point"},"properties":{"osm_id":"6535931884","tag":{"amenity":"recycling","recycling_type":"container"}},"type":"Feature"},
	{"geometry":{"coordinates":[12.419387,51.383778],"type":"Point"},"properties":{"osm_id":"6543305380","tag":{"amenity":"recycling","recycling_type":"container"}},"type":"Feature"},
	{"geometry":{"coordinates":[12.419344,51.385079],"type":"Point"},"properties":{"osm_id":"6543305381","tag":{"amenity":"recycling","recycling_type":"container"}},"type":"Feature"},
	{"geometry":{"coordinates":[12.419714,51.382355],"type":"Point"},"properties":{"osm_id":"6543379967","tag":{"amenity":"recycling","recycling_type":"container"}},"type":"Feature"},
	{"geometry":{"coordinates":[12.418382,51.382317],"type":"Point"},"properties":{"osm_id":"6543379968","tag":{"amenity":"recycling","recycling_type":"container"}},"type":"Feature"},
	{"geometry":{"coordinates":[12.417581,51.383104],"type":"Point"},"properties":{"osm_id":"6543379984","tag":{"amenity":"recycling","recycling_type":"container"}},"type":"Feature"},
	{"geometry":{"coordinates":[12.418718,51.382047],"type":"Point"},"properties":{"osm_id":"6543417030","tag":{"amenity":"recycling","recycling_type":"container"}},"type":"Feature"},
	{"geometry":{"coordinates":[12.419318,51.380153],"type":"Point"},"properties":{"osm_id":"6543417031","tag":{"amenity":"recycling","recycling_type":"container"}},"type":"Feature"},
	{"geometry":{"coordinates":[12.417834,51.383894],"type":"Point"},"properties":{"osm_id":"6543441453","tag":{"amenity":"recycling","recycling_type":"container"}},"type":"Feature"},
	{"geometry":{"coordinates":[12.416766,51.381786],"type":"Point"},"properties":{"osm_id":"6543494083","tag":{"amenity":"recycling","recycling_type":"container"}},"type":"Feature"},
	{"geometry":{"coordinates":[12.415385,51.3794],"type":"Point"},"properties":{"osm_id":"6543529270","tag":{"amenity":"recycling","recycling_type":"container"}},"type":"Feature"},
	{"geometry":{"coordinates":[12.415256,51.379648],"type":"Point"},"properties":{"osm_id":"6543529271","tag":{"amenity":"recycling","recycling_type":"container"}},"type":"Feature"},
	{"geometry":{"coordinates":[12.449539,51.349861],"type":"Point"},"properties":{"osm_id":"6562922117","tag":{"amenity":"waste_basket"}},"type":"Feature"},
	{"geometry":{"coordinates":[12.448194,51.349199],"type":"Point"},"properties":{"osm_id":"6562922125","tag":{"amenity":"waste_basket"}},"type":"Feature"},
	{"geometry":{"coordinates":[12.419958,51.378533],"type":"Point"},"properties":{"osm_id":"6563954511","tag":{"amenity":"recycling","recycling_type":"container"}},"type":"Feature"},
	{"geometry":{"coordinates":[12.415787,51.377712],"type":"Point"},"properties":{"osm_id":"6563985958","tag":{"amenity":"recycling","recycling_type":"container"}},"type":"Feature"},
	{"geometry":{"coordinates":[12.432339,51.375708],"type":"Point"},"properties":{"osm_id":"6570483693","tag":{"amenity":"recycling","recycling_type":"container"}},"type":"Feature"},
	{"geometry":{"coordinates":[12.433309,51.376607],"type":"Point"},"properties":{"osm_id":"6570483705","tag":{"amenity":"recycling","recycling_type":"container"}},"type":"Feature"},
	{"geometry":{"coordinates":[12.432843,51.375149],"type":"Point"},"properties":{"osm_id":"6570483747","tag":{"amenity":"recycling","recycling_type":"container"}},"type":"Feature"},
	{"geometry":{"coordinates":[12.434643,51.375426],"type":"Point"},"properties":{"osm_id":"6570486792","tag":{"amenity":"recycling","recycling_type":"container"}},"type":"Feature"},
	{"geometry":{"coordinates":[12.431597,51.373717],"type":"Point"},"properties":{"osm_id":"6570507365","tag":{"amenity":"recycling","recycling_type":"container"}},"type":"Feature"},
	{"geometry":{"coordinates":[12.432354,51.374812],"type":"Point"},"properties":{"osm_id":"6570507375","tag":{"amenity":"recycling","recycling_type":"container"}},"type":"Feature"},
	{"geometry":{"coordinates":[12.432852,51.374855],"type":"Point"},"properties":{"osm_id":"6570561173","tag":{"amenity":"recycling","recycling_type":"container"}},"type":"Feature"},
	{"geometry":{"coordinates":[12.431159,51.379551],"type":"Point"},"properties":{"osm_id":"6600199323","tag":{"amenity":"recycling","recycling_type":"container"}},"type":"Feature"},
	{"geometry":{"coordinates":[12.430083,51.379642],"type":"Point"},"properties":{"osm_id":"6600199331","tag":{"amenity":"recycling","recycling_type":"container"}},"type":"Feature"},
	{"geometry":{"coordinates":[12.430485,51.380175],"type":"Point"},"properties":{"osm_id":"6600199339","tag":{"amenity":"recycling","recycling_type":"container"}},"type":"Feature"},
	{"geometry":{"coordinates":[12.412964,51.373801],"type":"Point"},"properties":{"osm_id":"7140423514","tag":{"amenity":"waste_basket","waste":"trash"}},"type":"Feature"},
	{"geometry":{"coordinates":[12.412252,51.373867],"type":"Point"},"properties":{"osm_id":"7140423519","tag":{"amenity":"waste_basket","waste":"trash"}},"type":"Feature"},
	{"geometry":{"coordinates":[12.406055,51.352481],"type":"Point"},"properties":{"osm_id":"7590429774","tag":{"amenity":"recycling","brand":"Stadtreinigung Leipzig","operator":"Stadtreinigung Leipzig","recycling:clothes":"yes","recycling:shoes":"yes","recycling_type":"container"}},"type":"Feature"},
	{"geometry":{"coordinates":[12.417206,51.351384],"type":"Point"},"properties":{"osm_id":"7722099264","tag":{"amenity":"recycling","recycling:glass":"yes","recycling_type":"container"}},"type":"Feature"},
	{"geometry":{"coordinates":[12.406986,51.351236],"type":"Point"},"properties":{"osm_id":"7722115164","tag":{"amenity":"recycling","recycling:clothes":"yes","recycling:glass":"yes","recycling_type":"container"}},"type":"Feature"},
	{"geometry":{"coordinates":[12.415639,51.356245],"type":"Point"},"properties":{"osm_id":"7726149944","tag":{"amenity":"waste_basket"}},"type":"Feature"}
]
}
