{
"type": "FeatureCollection",
"features": [
	{"geometry":{"coordinates":[12.397043,51.277373],"type":"Point"},"properties":{"osm_id":"3269250453","tag":{"amenity":"recycling","recycling:glass":"yes","recycling_type":"container"}},"type":"Feature"},
	{"geometry":{"coordinates":[12.394344,51.280165],"type":"Point"},"properties":{"osm_id":"3272384275","tag":{"access":"private","amenity":"recycling","recycling:glass":"yes","recycling:paper":"yes","recycling_type":"container"}},"type":"Feature"},
	{"geometry":{"coordinates":[12.427682,51.25989],"type":"Point"},"properties":{"osm_id":"3273051428","tag":{"amenity":"waste_basket"}},"type":"Feature"},
	{"geometry":{"coordinates":[12.428548,51.259017],"type":"Point"},"properties":{"osm_id":"3273166206","tag":{"amenity":"waste_basket"}},"type":"Feature"},
	{"geometry":{"coordinates":[12.424513,51.25648],"type":"Point"},"properties":{"osm_id":"3273166248","tag":{"amenity":"waste_basket"}},"type":"Feature"},
	{"geometry":{"coordinates":[12.425933,51.256284],"type":"Point"},"properties":{"osm_id":"3273166367","tag":{"amenity":"waste_basket"}},"type":"Feature"},
	{"geometry":{"coordinates":[12.469931,51.244835],"type":"Point"},"properties":{"osm_id":"3273296361","tag":{"amenity":"waste_basket"}},"type":"Feature"},
	{"geometry":{"coordinates":[12.470085,51.244609],"type":"Point"},"properties":{"osm_id":"3273296362","tag":{"amenity":"waste_basket"}},"type":"Feature"},
	{"geometry":{"coordinates":[12.451528,51.255169],"type":"Point"},"properties":{"osm_id":"4065741347","tag":{"amenity":"recycling"}},"type":"Feature"},
	{"geometry":{"coordinates":[12.428271,51.277021],"type":"Point"},"properties":{"osm_id":"4072392153","tag":{"amenity":"recycling","recycling_type":"container"}},"type":"Feature"},
	{"geometry":{"coordinates":[12.427676,51.279098],"type":"Point"},"properties":{"osm_id":"4072392161","tag":{"amenity":"waste_basket"}},"type":"Feature"},
	{"geometry":{"coordinates":[12.428001,51.278099],"type":"Point"},"properties":{"osm_id":"4072392167","tag":{"amenity":"waste_basket"}},"type":"Feature"},
	{"geometry":{"coordinates":[12.474558,51.278834],"type":"Point"},"properties":{"osm_id":"4179471799","tag":{"amenity":"recycling","recycling:clothes":"yes","recycling:glass":"yes","recycling_type":"container"}},"type":"Feature"},
	{"geometry":{"coordinates":[12.400865,51.278082],"type":"Point"},"properties":{"osm_id":"4219978056","tag":{"amenity":"waste_basket"}},"type":"Feature"},
	{"geometry":{"coordinates":[12.45561,51.28482],"type":"Point"},"properties":{"osm_id":"4334101812","tag":{"amenity":"waste_basket"}},"type":"Feature"},
	{"geometry":{"coordinates":[12.466925,51.277877],"type":"Point"},"properties":{"osm_id":"4564004983","tag":{"amenity":"recycling","recycling_type":"container"}},"type":"Feature"},
	{"geometry":{"coordinates":[12.407528,51.278935],"type":"Point"},"properties":{"osm_id":"5111064155","tag":{"amenity":"waste_basket"}},"type":"Feature"},
	{"geometry":{"coordinates":[12.415159,51.27822],"type":"Point"},"properties":{"osm_id":"5111064156","tag":{"amenity":"waste_basket"}},"type":"Feature"},
	{"geometry":{"coordinates":[12.39839,51.271189],"type":"Point"},"properties":{"osm_id":"5454609250","tag":{"amenity":"waste_basket"}},"type":"Feature"},
	{"geometry":{"coordinates":[12.403874,51.270628],"type":"Point"},"properties":{"name":"Geopfad Stele 1","osm_id":"5457603522","tag":{"amenity":"waste_basket","board_type":"geology","description":"Altsteinzeitliche Funde aus Markkleeberg","information":"board","tourism":"information"}},"type":"Feature"},
	{"geometry":{"coordinates":[12.403581,51.270578],"type":"Point"},"properties":{"osm_id":"5457603526","tag":{"amenity":"waste_basket"}},"type":"Feature"},
	{"geometry":{"coordinates":[12.401279,51.270472],"type":"Point"},"properties":{"osm_id":"5457603527","tag":{"amenity":"waste_basket"}},"type":"Feature"},
	{"geometry":{"coordinates":[12.413677,51.269374],"type":"Point"},"properties":{"osm_id":"6635588839","tag":{"amenity":"waste_basket"}},"type":"Feature"},
	{"geometry":{"coordinates":[12.462496,51.257795],"type":"Point"},"properties":{"name":"Parentin","osm_id":"7192785732","tag":{"addr:city":"Gro\u00c3\u009fp\u00c3\u00b6sna","addr:housenumber":"6","addr:postcode":"04463","addr:street":"Sestewitzer Stra\u00c3\u009fe","amenity":"recycling","building":"commercial","opening_hours":"Mo-Fr 07:00-17:00","operator":"Parentin GmbH","operator:type":"private","recycling:green_waste":"yes","recycling:scrap_metal":"yes","recycling:waste":"yes","recycling:wood":"yes","recycling_type":"centre","trade":"yes"}},"type":"Feature"},
	{"geometry":{"coordinates":[12.445398,51.255736],"type":"Point"},"properties":{"osm_id":"7707227444","tag":{"amenity":"recycling","recycling:clothes":"yes","recycling:glass_bottles":"yes","recycling_type":"container"}},"type":"Feature"}
]
}
