{
"type": "FeatureCollection",
"features": [
	{"geometry":{"coordinates":[12.468204,51.218702],"type":"Point"},"properties":{"osm_id":"546597182","tag":{"amenity":"recycling","mapillary":"9_glH4V9K5OcdNQ_0KXhGg","recycling:glass_bottles":"yes","recycling_type":"container","survey:date":"2019-05-23"}},"type":"Feature"},
	{"geometry":{"coordinates":[12.411193,51.195485],"type":"Point"},"properties":{"osm_id":"695875766","tag":{"amenity":"recycling","recycling:glass":"yes"}},"type":"Feature"},
	{"geometry":{"coordinates":[12.470074,51.190864],"type":"Point"},"properties":{"osm_id":"905694122","tag":{"amenity":"recycling","recycling:glass_bottles":"yes","recycling_type":"container"}},"type":"Feature"},
	{"geometry":{"coordinates":[12.410134,51.203395],"type":"Point"},"properties":{"osm_id":"2608091084","tag":{"amenity":"recycling","recycling:glass":"yes"}},"type":"Feature"},
	{"geometry":{"coordinates":[12.465741,51.193049],"type":"Point"},"properties":{"osm_id":"3387443794","tag":{"amenity":"recycling","recycling:clothes":"yes","recycling:glass_bottles":"yes","recycling_type":"container"}},"type":"Feature"},
	{"geometry":{"coordinates":[12.467287,51.228925],"type":"Point"},"properties":{"osm_id":"4121862332","tag":{"amenity":"waste_basket"}},"type":"Feature"},
	{"geometry":{"coordinates":[12.456902,51.221327],"type":"Point"},"properties":{"osm_id":"5526126420","tag":{"amenity":"waste_basket"}},"type":"Feature"},
	{"geometry":{"coordinates":[12.407824,51.181885],"type":"Point"},"properties":{"osm_id":"5837121603","tag":{"amenity":"waste_basket"}},"type":"Feature"},
	{"geometry":{"coordinates":[12.423446,51.195355],"type":"Point"},"properties":{"osm_id":"6715139895","tag":{"amenity":"recycling"}},"type":"Feature"},
	{"geometry":{"coordinates":[12.467243,51.192896],"type":"Point"},"properties":{"osm_id":"7704957120","tag":{"amenity":"recycling","recycling:clothes":"yes","recycling_type":"container"}},"type":"Feature"}
]
}
