{
"type": "FeatureCollection",
"features": [
	{"geometry":{"coordinates":[12.403499,50.820142],"type":"Point"},"properties":{"osm_id":"568109501","tag":{"amenity":"recycling","recycling:clothes":"yes","recycling:glass_bottles":"yes","recycling:shoes":"yes","recycling_type":"container"}},"type":"Feature"},
	{"geometry":{"coordinates":[12.406307,50.806819],"type":"Point"},"properties":{"osm_id":"575071883","tag":{"amenity":"recycling","opening_hours":"24/7","recycling:clothes":"yes","recycling:glass":"yes","recycling_type":"container","wheelchair":"yes"}},"type":"Feature"},
	{"geometry":{"coordinates":[12.434812,50.795196],"type":"Point"},"properties":{"osm_id":"2773771181","tag":{"amenity":"recycling"}},"type":"Feature"},
	{"geometry":{"coordinates":[12.429083,50.83569],"type":"Point"},"properties":{"osm_id":"5521178828","tag":{"amenity":"recycling","recycling:clothes":"yes"}},"type":"Feature"},
	{"geometry":{"coordinates":[12.429835,50.846148],"type":"Point"},"properties":{"osm_id":"7973111147","tag":{"amenity":"waste_basket","colour":"green","material":"plastic","waste":"mixed"}},"type":"Feature"},
	{"geometry":{"coordinates":[12.400709,50.812141],"type":"Point"},"properties":{"osm_id":"8660034811","tag":{"amenity":"waste_disposal","waste":"trash"}},"type":"Feature"}
]
}
