{
"type": "FeatureCollection",
"features": [
	{"geometry":{"coordinates":[12.40175,47.510626],"type":"Point"},"properties":{"name":"Dog-Station","osm_id":"328557157","tag":{"amenity":"waste_basket","description":"Support service calls +4353526900300","name:de":"Hundekot","operator":"Marktgemeinde St. Johann in Tirol","waste":"dog_excrement"}},"type":"Feature"},
	{"geometry":{"coordinates":[12.396422,47.514517],"type":"Point"},"properties":{"name":"Dog-Station","osm_id":"1385781760","tag":{"amenity":"waste_basket","description":"Support service calls +4353526900300","name:de":"Hundekot","operator":"Marktgemeinde St. Johann in Tirol","waste":"dog_excrement"}},"type":"Feature"},
	{"geometry":{"coordinates":[12.440145,47.515081],"type":"Point"},"properties":{"name":"Dog-Station","osm_id":"1385794588","tag":{"amenity":"waste_basket","description":"Support service calls +4353526900300","name:de":"Hundekot","operator":"Marktgemeinde St. Johann in Tirol","waste":"dog_excrement"}},"type":"Feature"},
	{"geometry":{"coordinates":[12.462329,47.509572],"type":"Point"},"properties":{"name":"Dog-Station","osm_id":"3623843012","tag":{"amenity":"waste_basket","description":"Support service calls +4353526900300","name:de":"Hundekot","operator":"Marktgemeinde St. Johann in Tirol","waste":"dog_excrement"}},"type":"Feature"},
	{"geometry":{"coordinates":[12.457262,47.512765],"type":"Point"},"properties":{"name":"Dog-Station","osm_id":"3715209429","tag":{"amenity":"waste_basket","description":"Support service calls +4353526900300","name:de":"Hundekot","operator":"Marktgemeinde St. Johann in Tirol","waste":"dog_excrement"}},"type":"Feature"},
	{"geometry":{"coordinates":[12.437247,47.504629],"type":"Point"},"properties":{"name":"Dog-Station","osm_id":"3715250549","tag":{"amenity":"waste_basket","description":"Hundekot Sammelgef\u00c3\u00a4\u00c3\u009f 50","name:de":"Hundekot","waste":"dog_excrement"}},"type":"Feature"},
	{"geometry":{"coordinates":[12.42724,47.516044],"type":"Point"},"properties":{"osm_id":"4436265274","tag":{"amenity":"waste_basket","description":"Support service calls +4353526900300","operator":"Marktgemeinde St. Johann in Tirol"}},"type":"Feature"},
	{"geometry":{"coordinates":[12.419919,47.515985],"type":"Point"},"properties":{"osm_id":"4446045264","tag":{"amenity":"waste_basket","description":"Support service calls +4353526900300","operator":"Marktgemeinde St. Johann in Tirol"}},"type":"Feature"},
	{"geometry":{"coordinates":[12.420214,47.515813],"type":"Point"},"properties":{"osm_id":"4446045266","tag":{"amenity":"waste_basket","description":"Support service calls +4353526900300","operator":"Marktgemeinde St. Johann in Tirol"}},"type":"Feature"},
	{"geometry":{"coordinates":[12.428298,47.484542],"type":"Point"},"properties":{"name":"Dog-Station","osm_id":"4938478265","tag":{"amenity":"waste_basket","description":"Hundekot Sammelgef\u00c3\u00a4\u00c3\u009f","name:de":"Hundekot","operator":"Harschbichlh\u00c3\u00bctte","waste":"dog_excrement"}},"type":"Feature"},
	{"geometry":{"coordinates":[12.425519,47.495265],"type":"Point"},"properties":{"name":"Dog-Station","osm_id":"4938478270","tag":{"amenity":"waste_basket","description":"Hundekot Sammelgef\u00c3\u00a4\u00c3\u009f","name:de":"Hundekot","waste":"dog_excrement"}},"type":"Feature"},
	{"geometry":{"coordinates":[12.443412,47.496147],"type":"Point"},"properties":{"osm_id":"5079432597","tag":{"amenity":"waste_basket"}},"type":"Feature"},
	{"geometry":{"coordinates":[12.455042,47.511214],"type":"Point"},"properties":{"name":"Dog-Station","osm_id":"5443098002","tag":{"amenity":"waste_basket","description":"Support service calls +4353526900300","name:de":"Hundekot","operator":"Marktgemeinde St. Johann in Tirol","waste":"dog_excrement"}},"type":"Feature"},
	{"geometry":{"coordinates":[12.42715,47.516145],"type":"Point"},"properties":{"name":"Dog-Station","osm_id":"5687818644","tag":{"amenity":"waste_basket","description":"Support service calls +4353526900300","name:de":"Hundekot","operator":"Marktgemeinde St. Johann in Tirol","waste":"dog_excrement"}},"type":"Feature"},
	{"geometry":{"coordinates":[12.415906,47.515251],"type":"Point"},"properties":{"osm_id":"5687842121","tag":{"amenity":"waste_basket","description":"Support service calls +4353526900300","operator":"Marktgemeinde St. Johann in Tirol","waste":"dog_excrement"}},"type":"Feature"},
	{"geometry":{"coordinates":[12.419364,47.516315],"type":"Point"},"properties":{"osm_id":"7261089906","tag":{"amenity":"waste_basket","description":"Support service calls +4353526900300","operator":"Marktgemeinde St. Johann in Tirol","waste":"dog_excrement"}},"type":"Feature"},
	{"geometry":{"coordinates":[12.436399,47.502926],"type":"Point"},"properties":{"name":"Dog-Station","osm_id":"7261863745","tag":{"amenity":"waste_basket","description":"Support service calls +4353526900300","name:de":"Hundekot","operator":"Marktgemeinde St. Johann in Tirol","waste":"dog_excrement"}},"type":"Feature"},
	{"geometry":{"coordinates":[12.460202,47.515925],"type":"Point"},"properties":{"name":"Dog-Station","osm_id":"7261863748","tag":{"amenity":"waste_basket","description":"Support service calls +4353526900300","name:de":"Hundekot","operator":"Marktgemeinde St. Johann in Tirol","waste":"dog_excrement"}},"type":"Feature"},
	{"geometry":{"coordinates":[12.445731,47.511072],"type":"Point"},"properties":{"name":"Dog-Station","osm_id":"7261863750","tag":{"amenity":"waste_basket","description":"Support service calls +4353526900300","name:de":"Hundekot","operator":"Marktgemeinde St. Johann in Tirol","waste":"dog_excrement"}},"type":"Feature"},
	{"geometry":{"coordinates":[12.446438,47.515122],"type":"Point"},"properties":{"name":"Dog-Station","osm_id":"7261863751","tag":{"amenity":"waste_basket","description":"Support service calls +4353526900300","name:de":"Hundekot","operator":"Marktgemeinde St. Johann in Tirol","waste":"dog_excrement"}},"type":"Feature"},
	{"geometry":{"coordinates":[12.419315,47.512808],"type":"Point"},"properties":{"name":"Dog-Station","osm_id":"7261863752","tag":{"amenity":"waste_basket","description":"Support service calls +4353526900300","name:de":"Hundekot","operator":"Marktgemeinde St. Johann in Tirol","waste":"dog_excrement"}},"type":"Feature"},
	{"geometry":{"coordinates":[12.408288,47.514759],"type":"Point"},"properties":{"name":"Dog-Station","osm_id":"7261863753","tag":{"amenity":"waste_basket","description":"Support service calls +4353526900300","name:de":"Hundekot","operator":"Marktgemeinde St. Johann in Tirol","waste":"dog_excrement"}},"type":"Feature"},
	{"geometry":{"coordinates":[12.424529,47.495576],"type":"Point"},"properties":{"osm_id":"7554182972","tag":{"amenity":"waste_basket","description":"Support service calls +4353526900300","operator":"Marktgemeinde St. Johann in Tirol","waste":"dog_excrement"}},"type":"Feature"},
	{"geometry":{"coordinates":[12.430501,47.510026],"type":"Point"},"properties":{"osm_id":"7899625396","tag":{"amenity":"waste_basket","waste":"trash"}},"type":"Feature"},
	{"geometry":{"coordinates":[12.437409,47.503829],"type":"Point"},"properties":{"osm_id":"7899786618","tag":{"amenity":"waste_basket","waste":"trash"}},"type":"Feature"}
]
}
