{
"type": "FeatureCollection",
"features": [
	{"geometry":{"coordinates":[12.412001,47.346928],"type":"Point"},"properties":{"name":"Abfallzentrum Jochberg","osm_id":"3578423195","tag":{"addr:city":"Jochberg","addr:country":"AT","addr:housenumber":"19","addr:postcode":"6373","addr:street":"Pass-Thurn-Stra\u00dfe","amenity":"recycling","collection_times":"Mo-Fr 08:00-12:00,13:00-17:00; Sa[1] 08:00-12:00","phone":"+435355 5100","recycling_type":"centre","website":"https://www.kitzbuehel.at/system/web/gemeindebetrieb.aspx?bezirkonr=0&detailonr=135187&menuonr=218979692"}},"type":"Feature"},
	{"geometry":{"coordinates":[12.419251,47.380038],"type":"Point"},"properties":{"osm_id":"5864244784","tag":{"amenity":"waste_basket"}},"type":"Feature"},
	{"geometry":{"coordinates":[12.418735,47.381539],"type":"Point"},"properties":{"osm_id":"5864245099","tag":{"amenity":"waste_basket"}},"type":"Feature"},
	{"geometry":{"coordinates":[12.41921,47.379838],"type":"Point"},"properties":{"osm_id":"5864245100","tag":{"amenity":"waste_basket"}},"type":"Feature"}
]
}
