{
"type": "FeatureCollection",
"lastupdate": "2020-07-31T00:00:00Z",
"features": [
	{"geometry":{"coordinates":[12.44515,43.124596],"type":"Point"},"properties":{"name":"Isola Ecologica Ponte Felcino","osm_id":"2681712198","tag":{"amenity":"recycling"}},"type":"Feature"},
	{"geometry":{"coordinates":[12.400931,43.11518],"type":"Point"},"properties":{"osm_id":"2941305530","tag":{"amenity":"recycling","recycling:glass":"yes","recycling:paper":"yes"}},"type":"Feature"},
	{"geometry":{"coordinates":[12.450543,43.089836],"type":"Point"},"properties":{"osm_id":"3777952835","tag":{"amenity":"recycling","recycling:paper":"yes","recycling_type":"container"}},"type":"Feature"},
	{"geometry":{"coordinates":[12.44991,43.090165],"type":"Point"},"properties":{"osm_id":"3777954067","tag":{"amenity":"recycling","recycling:paper":"yes","recycling_type":"container"}},"type":"Feature"},
	{"geometry":{"coordinates":[12.39881,43.115487],"type":"Point"},"properties":{"name":"trash bin","osm_id":"5337337817","tag":{"amenity":"waste_basket"}},"type":"Feature"},
	{"geometry":{"coordinates":[12.394001,43.113869],"type":"Point"},"properties":{"osm_id":"6236817300","tag":{"amenity":"waste_basket","waste":"trash"}},"type":"Feature"},
	{"geometry":{"coordinates":[12.392812,43.110815],"type":"Point"},"properties":{"osm_id":"6237865875","tag":{"amenity":"waste_basket","waste":"trash"}},"type":"Feature"},
	{"geometry":{"coordinates":[12.468327,43.088999],"type":"Point"},"properties":{"osm_id":"7095294889","tag":{"amenity":"waste_basket"}},"type":"Feature"}
]
}
