{
"type": "FeatureCollection",
"features": [
	{"geometry":{"coordinates":[12.478963,41.828175],"type":"Point"},"properties":{"osm_id":"1926250610","tag":{"amenity":"recycling","recycling_type":"container"}},"type":"Feature"},
	{"geometry":{"coordinates":[12.467152,41.830135],"type":"Point"},"properties":{"osm_id":"5648370745","tag":{"amenity":"waste_basket","waste":"trash"}},"type":"Feature"},
	{"geometry":{"coordinates":[12.466136,41.831523],"type":"Point"},"properties":{"osm_id":"5648370746","tag":{"amenity":"waste_basket","waste":"trash"}},"type":"Feature"},
	{"geometry":{"coordinates":[12.465566,41.831957],"type":"Point"},"properties":{"osm_id":"5769076528","tag":{"amenity":"recycling","recycling:glass_bottles":"yes","recycling_type":"container"}},"type":"Feature"},
	{"geometry":{"coordinates":[12.465904,41.831155],"type":"Point"},"properties":{"osm_id":"5769076529","tag":{"amenity":"recycling","recycling:glass_bottles":"yes","recycling_type":"container"}},"type":"Feature"},
	{"geometry":{"coordinates":[12.466997,41.833262],"type":"Point"},"properties":{"osm_id":"5769076530","tag":{"amenity":"recycling","recycling:glass_bottles":"yes","recycling_type":"container"}},"type":"Feature"},
	{"geometry":{"coordinates":[12.465915,41.832694],"type":"Point"},"properties":{"osm_id":"5769076531","tag":{"amenity":"recycling","recycling:glass_bottles":"yes","recycling_type":"container"}},"type":"Feature"},
	{"geometry":{"coordinates":[12.467839,41.832539],"type":"Point"},"properties":{"osm_id":"5777636260","tag":{"amenity":"recycling","recycling:glass_bottles":"yes","recycling_type":"container"}},"type":"Feature"},
	{"geometry":{"coordinates":[12.465201,41.830618],"type":"Point"},"properties":{"osm_id":"5777636261","tag":{"amenity":"recycling","recycling:glass_bottles":"yes","recycling_type":"container"}},"type":"Feature"},
	{"geometry":{"coordinates":[12.468239,41.8356],"type":"Point"},"properties":{"osm_id":"5846238183","tag":{"amenity":"recycling","recycling:glass_bottles":"yes","recycling_type":"container"}},"type":"Feature"},
	{"geometry":{"coordinates":[12.467817,41.835803],"type":"Point"},"properties":{"osm_id":"5846238184","tag":{"amenity":"recycling","recycling:glass_bottles":"yes","recycling_type":"container"}},"type":"Feature"},
	{"geometry":{"coordinates":[12.457938,41.827316],"type":"Point"},"properties":{"osm_id":"6820559480","tag":{"amenity":"recycling","recycling:clothes":"yes","recycling_type":"container"}},"type":"Feature"},
	{"geometry":{"coordinates":[12.458998,41.828791],"type":"Point"},"properties":{"osm_id":"6820562587","tag":{"amenity":"recycling","recycling:clothes":"yes","recycling_type":"container"}},"type":"Feature"},
	{"geometry":{"coordinates":[12.46011,41.829184],"type":"Point"},"properties":{"osm_id":"6820562590","tag":{"amenity":"recycling","recycling:clothes":"yes","recycling_type":"container"}},"type":"Feature"},
	{"geometry":{"coordinates":[12.459037,41.831242],"type":"Point"},"properties":{"osm_id":"6882248065","tag":{"amenity":"recycling","recycling:clothes":"yes","recycling_type":"container"}},"type":"Feature"},
	{"geometry":{"coordinates":[12.465519,41.828166],"type":"Point"},"properties":{"osm_id":"8195931984","tag":{"amenity":"waste_basket"}},"type":"Feature"},
	{"geometry":{"coordinates":[12.46681,41.826348],"type":"Point"},"properties":{"osm_id":"8195955412","tag":{"amenity":"waste_basket"}},"type":"Feature"},
	{"geometry":{"coordinates":[12.461168,41.830188],"type":"Point"},"properties":{"osm_id":"8195955414","tag":{"amenity":"waste_basket"}},"type":"Feature"},
	{"geometry":{"coordinates":[12.461011,41.829893],"type":"Point"},"properties":{"osm_id":"8195960987","tag":{"amenity":"waste_basket"}},"type":"Feature"},
	{"geometry":{"coordinates":[12.467318,41.826222],"type":"Point"},"properties":{"osm_id":"8195965213","tag":{"amenity":"waste_basket"}},"type":"Feature"},
	{"geometry":{"coordinates":[12.46096,41.829907],"type":"Point"},"properties":{"osm_id":"8195967065","tag":{"amenity":"waste_basket"}},"type":"Feature"},
	{"geometry":{"coordinates":[12.46399,41.828831],"type":"Point"},"properties":{"osm_id":"8195968546","tag":{"amenity":"waste_basket"}},"type":"Feature"},
	{"geometry":{"coordinates":[12.461235,41.830429],"type":"Point"},"properties":{"osm_id":"8195971150","tag":{"amenity":"waste_basket"}},"type":"Feature"},
	{"geometry":{"coordinates":[12.461843,41.829444],"type":"Point"},"properties":{"osm_id":"8195971378","tag":{"amenity":"waste_basket"}},"type":"Feature"},
	{"geometry":{"coordinates":[12.463025,41.829241],"type":"Point"},"properties":{"osm_id":"8195971964","tag":{"amenity":"waste_basket"}},"type":"Feature"},
	{"geometry":{"coordinates":[12.462796,41.82924],"type":"Point"},"properties":{"osm_id":"8195973418","tag":{"amenity":"waste_basket"}},"type":"Feature"},
	{"geometry":{"coordinates":[12.42376,41.796919],"type":"Point"},"properties":{"osm_id":"8592644013","tag":{"amenity":"recycling","recycling:clothes":"yes","recycling_type":"container"}},"type":"Feature"},
	{"geometry":{"coordinates":[12.412055,41.788778],"type":"Point"},"properties":{"osm_id":"8592731102","tag":{"amenity":"recycling","recycling:clothes":"yes","recycling:glass_bottles":"yes","recycling_type":"container"}},"type":"Feature"},
	{"geometry":{"coordinates":[12.439232,41.810109],"type":"Point"},"properties":{"osm_id":"8592735272","tag":{"amenity":"recycling","recycling:clothes":"yes","recycling:glass_bottles":"yes","recycling_type":"container"}},"type":"Feature"},
	{"geometry":{"coordinates":[12.436034,41.79983],"type":"Point"},"properties":{"osm_id":"8592739527","tag":{"amenity":"recycling","recycling:clothes":"yes","recycling_type":"container"}},"type":"Feature"},
	{"geometry":{"coordinates":[12.474203,41.82492],"type":"Point"},"properties":{"osm_id":"9081618923","tag":{"amenity":"recycling","operator":"AMA","recycling:glass":"yes","recycling_type":"container"}},"type":"Feature"},
	{"geometry":{"coordinates":[12.479181,41.824115],"type":"Point"},"properties":{"osm_id":"9081618949","tag":{"amenity":"recycling","recycling:clothes":"yes","recycling_type":"container"}},"type":"Feature"}
]
}
