{
"type": "FeatureCollection",
"features": [
	{"geometry":{"coordinates":[18.131208,59.442629],"type":"Point"},"properties":{"osm_id":"6657183678","tag":{"amenity":"waste_basket","manufacturer":"BigBelly"}},"type":"Feature"},
	{"geometry":{"coordinates":[18.129375,59.442512],"type":"Point"},"properties":{"osm_id":"6676843527","tag":{"amenity":"waste_basket"}},"type":"Feature"},
	{"geometry":{"coordinates":[18.130008,59.442671],"type":"Point"},"properties":{"osm_id":"6676843532","tag":{"amenity":"waste_basket","manufacturer":"BigBelly"}},"type":"Feature"},
	{"geometry":{"coordinates":[18.130829,59.442645],"type":"Point"},"properties":{"osm_id":"6676843534","tag":{"amenity":"waste_basket"}},"type":"Feature"},
	{"geometry":{"coordinates":[18.129499,59.442482],"type":"Point"},"properties":{"osm_id":"6676843536","tag":{"amenity":"waste_basket"}},"type":"Feature"},
	{"geometry":{"coordinates":[18.131341,59.44274],"type":"Point"},"properties":{"osm_id":"6676843538","tag":{"amenity":"waste_basket"}},"type":"Feature"}
]
}
