{
"type": "FeatureCollection",
"features": [
	{"geometry":{"coordinates":[18.143129,59.374492],"type":"Point"},"properties":{"osm_id":"362455605","tag":{"amenity":"recycling","recycling_type":"container"}},"type":"Feature"},
	{"geometry":{"coordinates":[18.177503,59.375228],"type":"Point"},"properties":{"osm_id":"371618358","tag":{"amenity":"recycling","location":"overground","recycling_type":"container"}},"type":"Feature"},
	{"geometry":{"coordinates":[18.186741,59.377752],"type":"Point"},"properties":{"osm_id":"388137421","tag":{"amenity":"recycling","location":"overground","recycling_type":"container"}},"type":"Feature"},
	{"geometry":{"coordinates":[18.114401,59.383034],"type":"Point"},"properties":{"osm_id":"502951107","tag":{"amenity":"recycling","recycling_type":"container"}},"type":"Feature"},
	{"geometry":{"coordinates":[18.123593,59.365116],"type":"Point"},"properties":{"osm_id":"510637993","tag":{"amenity":"recycling","recycling_type":"container"}},"type":"Feature"},
	{"geometry":{"coordinates":[18.172679,59.357964],"type":"Point"},"properties":{"name":"Liding\u00c3\u00b6 stads \u00c3\u00a5tervinningscentral","osm_id":"653459467","tag":{"amenity":"recycling","description":"Very large recycling centre"}},"type":"Feature"},
	{"geometry":{"coordinates":[18.143733,59.373167],"type":"Point"},"properties":{"osm_id":"5909772533","tag":{"amenity":"waste_disposal"}},"type":"Feature"},
	{"geometry":{"coordinates":[18.144225,59.373216],"type":"Point"},"properties":{"osm_id":"5909772534","tag":{"amenity":"waste_basket","waste":"trash"}},"type":"Feature"}
]
}
