{
"type": "FeatureCollection",
"lastupdate": "2020-08-01T00:00:00Z",
"features": [
	{"geometry":{"coordinates":[18.136782,59.258027],"type":"Point"},"properties":{"osm_id":"1652028120","tag":{"amenity":"recycling"}},"type":"Feature"},
	{"geometry":{"coordinates":[18.14153,59.221571],"type":"Point"},"properties":{"osm_id":"2640060228","tag":{"amenity":"recycling"}},"type":"Feature"},
	{"geometry":{"coordinates":[18.115492,59.261326],"type":"Point"},"properties":{"osm_id":"2914670327","tag":{"amenity":"waste_basket"}},"type":"Feature"},
	{"geometry":{"coordinates":[18.114051,59.261604],"type":"Point"},"properties":{"osm_id":"2914670357","tag":{"amenity":"waste_basket"}},"type":"Feature"},
	{"geometry":{"coordinates":[18.177958,59.255043],"type":"Point"},"properties":{"osm_id":"3035848425","tag":{"amenity":"recycling"}},"type":"Feature"},
	{"geometry":{"coordinates":[18.185256,59.261001],"type":"Point"},"properties":{"osm_id":"3059887660","tag":{"amenity":"recycling","location":"overground","recycling:batteries":"yes","recycling_type":"container"}},"type":"Feature"},
	{"geometry":{"coordinates":[18.184458,59.260996],"type":"Point"},"properties":{"osm_id":"3059899214","tag":{"amenity":"waste_basket"}},"type":"Feature"},
	{"geometry":{"coordinates":[18.106851,59.251795],"type":"Point"},"properties":{"osm_id":"3074818360","tag":{"amenity":"recycling"}},"type":"Feature"},
	{"geometry":{"coordinates":[18.134937,59.225697],"type":"Point"},"properties":{"name":"Tr\u00c3\u00a5ngsund/Skog\u00c3\u00a5s SRV \u00c3\u0085VC","osm_id":"4793193221","tag":{"amenity":"recycling","map:url:jpg":"http://www.srvatervinning.se/Global/bilder/Privat/H%c3%a4r%20sl%c3%a4nger%20du%20dina%20sopor/%c3%85VC/situationsbilder/Skog%c3%a5s.jpg","opening_hours":"M\u00e5ndag-torsdag: 13:00-19:00 Fredag-s\u00f6ndag: 09:00-16:00  St\u00e4ngt: Midsommarafton, midsommardagen, julafton, juldagen, ny\u00e5rsafton, ny\u00e5rsdagen.","operator":"SRV","recycling_type":"centre","url:map":"http://www.srvatervinning.se/Global/bilder/Privat/H%c3%a4r%20sl%c3%a4nger%20du%20dina%20sopor/%c3%85VC/Situationskartor%20pdf/Skog%c3%a5s.pdf"}},"type":"Feature"},
	{"geometry":{"coordinates":[18.106167,59.23447],"type":"Point"},"properties":{"osm_id":"5854327618","tag":{"amenity":"recycling","opening_hours":"24/7","recycling:clothes":"yes","recycling_type":"container","website":"http://www.humanbridge.se"}},"type":"Feature"},
	{"geometry":{"coordinates":[18.129722,59.230623],"type":"Point"},"properties":{"osm_id":"7570700539","tag":{"amenity":"recycling","recycling_type":"container"}},"type":"Feature"},
	{"geometry":{"coordinates":[18.106836,59.256001],"type":"Point"},"properties":{"osm_id":"7650621199","tag":{"amenity":"recycling","opening_hours":"24/7","recycling:clothes":"ja","recycling_type":"container"}},"type":"Feature"},
	{"geometry":{"coordinates":[18.106807,59.255937],"type":"Point"},"properties":{"osm_id":"7650621208","tag":{"amenity":"recycling","operator:type":"public","recycling:cardboard":"yes","recycling:glass":"yes","recycling:glass_bottles":"yes","recycling:paper":"yes","recycling:plastic":"yes","recycling:plastic_bottles":"no","recycling:plastic_packaging":"yes","recycling:waste":"no","recycling_type":"centre"}},"type":"Feature"},
	{"geometry":{"coordinates":[18.120408,59.248763],"type":"Point"},"properties":{"osm_id":"7681253926","tag":{"amenity":"recycling","recycling_type":"container"}},"type":"Feature"},
	{"geometry":{"coordinates":[18.115916,59.254306],"type":"Point"},"properties":{"osm_id":"7714598834","tag":{"amenity":"recycling"}},"type":"Feature"}
]
}
