{
"type": "FeatureCollection",
"features": [
	{"geometry":{"coordinates":[18.106723,59.144565],"type":"Point"},"properties":{"name":"\u00c3\u0085VC","osm_id":"414666474","tag":{"addr:country":"SE","addr:housenumber":"23","addr:street":"R\u00c3\u00b6rv\u00c3\u00a4gen","amenity":"recycling","opening_hours":"Mo-Th 13:00-19:00; Fr-Su 09:00-16:00","operator":"srv","url:map":"http://www.srvatervinning.se/Global/bilder/Privat/H%c3%a4r%20sl%c3%a4nger%20du%20dina%20sopor/%c3%85VC/Situationskartor%20pdf/Jordbro.pdf","url:map:png":"http://www.srvatervinning.se/Global/bilder/Privat/H%c3%a4r%20sl%c3%a4nger%20du%20dina%20sopor/%c3%85VC/situationsbilder/Jordbro.jpg"}},"type":"Feature"},
	{"geometry":{"coordinates":[18.162339,59.170631],"type":"Point"},"properties":{"osm_id":"1708960268","tag":{"amenity":"recycling","recycling:glass_bottles":"yes","recycling:paper":"yes","recycling:paper_packaging":"yes","recycling:plastic":"yes","recycling:scrap_metal":"yes","recycling_type":"container"}},"type":"Feature"},
	{"geometry":{"coordinates":[18.178563,59.170964],"type":"Point"},"properties":{"osm_id":"1713515013","tag":{"amenity":"recycling","recycling_type":"container"}},"type":"Feature"},
	{"geometry":{"coordinates":[18.173113,59.172096],"type":"Point"},"properties":{"osm_id":"1714811891","tag":{"amenity":"recycling","recycling_type":"container"}},"type":"Feature"},
	{"geometry":{"coordinates":[18.167655,59.172814],"type":"Point"},"properties":{"osm_id":"1714812217","tag":{"amenity":"recycling"}},"type":"Feature"},
	{"geometry":{"coordinates":[18.189066,59.175713],"type":"Point"},"properties":{"osm_id":"2050555543","tag":{"amenity":"recycling","recycling_type":"container"}},"type":"Feature"},
	{"geometry":{"coordinates":[18.162295,59.166053],"type":"Point"},"properties":{"osm_id":"2485469232","tag":{"amenity":"recycling","location":"overground","recycling_type":"container"}},"type":"Feature"},
	{"geometry":{"coordinates":[18.16659,59.174078],"type":"Point"},"properties":{"osm_id":"2608495890","tag":{"amenity":"recycling","recycling_type":"container"}},"type":"Feature"},
	{"geometry":{"coordinates":[18.140788,59.163616],"type":"Point"},"properties":{"osm_id":"2816481726","tag":{"amenity":"recycling","recycling:batteries":"yes","recycling:cans":"yes","recycling:glass_bottles":"yes","recycling:paper":"yes","recycling:plastic":"no","recycling:plastic_packaging":"yes","recycling_type":"container"}},"type":"Feature"},
	{"geometry":{"coordinates":[18.107261,59.14406],"type":"Point"},"properties":{"osm_id":"2853596933","tag":{"amenity":"waste_basket"}},"type":"Feature"},
	{"geometry":{"coordinates":[18.183907,59.173665],"type":"Point"},"properties":{"osm_id":"3400334738","tag":{"amenity":"recycling","recycling_type":"container"}},"type":"Feature"},
	{"geometry":{"coordinates":[18.113581,59.141566],"type":"Point"},"properties":{"osm_id":"3731111196","tag":{"amenity":"waste_basket"}},"type":"Feature"},
	{"geometry":{"coordinates":[18.113953,59.141636],"type":"Point"},"properties":{"osm_id":"3731111197","tag":{"amenity":"waste_basket"}},"type":"Feature"},
	{"geometry":{"coordinates":[18.141469,59.142662],"type":"Point"},"properties":{"osm_id":"3790523656","tag":{"amenity":"recycling","recycling_type":"container"}},"type":"Feature"},
	{"geometry":{"coordinates":[18.134823,59.145109],"type":"Point"},"properties":{"osm_id":"5743896350","tag":{"amenity":"recycling","recycling_type":"container"}},"type":"Feature"},
	{"geometry":{"coordinates":[18.135614,59.141309],"type":"Point"},"properties":{"osm_id":"5743896351","tag":{"amenity":"recycling","recycling_type":"container"}},"type":"Feature"},
	{"geometry":{"coordinates":[18.146112,59.158109],"type":"Point"},"properties":{"osm_id":"6008458815","tag":{"amenity":"waste_disposal"}},"type":"Feature"}
]
}
