{
"type": "FeatureCollection",
"features": [
	{"geometry":{"coordinates":[18.176744,49.834432],"type":"Point"},"properties":{"osm_id":"500881363","tag":{"amenity":"recycling","recycling:cans":"yes","recycling:cardboard":"yes","recycling:glass":"yes","recycling:glass_bottles":"yes","recycling:paper":"yes","recycling:plastic":"yes","recycling:plastic_bottles":"yes","recycling:plastic_packaging":"yes","recycling_type":"container"}},"type":"Feature"},
	{"geometry":{"coordinates":[18.167494,49.78746],"type":"Point"},"properties":{"osm_id":"574261249","tag":{"amenity":"recycling"}},"type":"Feature"},
	{"geometry":{"coordinates":[18.164206,49.788217],"type":"Point"},"properties":{"osm_id":"924229224","tag":{"amenity":"waste_basket"}},"type":"Feature"},
	{"geometry":{"coordinates":[18.163162,49.78826],"type":"Point"},"properties":{"osm_id":"924229243","tag":{"amenity":"waste_basket"}},"type":"Feature"},
	{"geometry":{"coordinates":[18.163977,49.787904],"type":"Point"},"properties":{"osm_id":"924229246","tag":{"amenity":"waste_basket"}},"type":"Feature"},
	{"geometry":{"coordinates":[18.163851,49.788125],"type":"Point"},"properties":{"osm_id":"924229282","tag":{"amenity":"waste_basket"}},"type":"Feature"},
	{"geometry":{"coordinates":[18.163534,49.788398],"type":"Point"},"properties":{"osm_id":"924229283","tag":{"amenity":"waste_basket"}},"type":"Feature"},
	{"geometry":{"coordinates":[18.114827,49.834953],"type":"Point"},"properties":{"osm_id":"2788868221","tag":{"amenity":"recycling","recycling:glass":"yes","recycling:paper":"yes","recycling:plastic":"yes","recycling_type":"container"}},"type":"Feature"},
	{"geometry":{"coordinates":[18.168496,49.791037],"type":"Point"},"properties":{"osm_id":"2953502534","tag":{"amenity":"recycling"}},"type":"Feature"},
	{"geometry":{"coordinates":[18.162996,49.787881],"type":"Point"},"properties":{"osm_id":"2953502535","tag":{"amenity":"recycling"}},"type":"Feature"},
	{"geometry":{"coordinates":[18.164988,49.784443],"type":"Point"},"properties":{"osm_id":"2953502536","tag":{"amenity":"recycling"}},"type":"Feature"},
	{"geometry":{"coordinates":[18.158692,49.783185],"type":"Point"},"properties":{"osm_id":"2953502537","tag":{"amenity":"recycling"}},"type":"Feature"},
	{"geometry":{"coordinates":[18.154237,49.783531],"type":"Point"},"properties":{"osm_id":"2953502538","tag":{"amenity":"recycling"}},"type":"Feature"},
	{"geometry":{"coordinates":[18.15125,49.785775],"type":"Point"},"properties":{"osm_id":"2953502539","tag":{"amenity":"recycling"}},"type":"Feature"},
	{"geometry":{"coordinates":[18.147331,49.784362],"type":"Point"},"properties":{"osm_id":"2953502540","tag":{"amenity":"recycling"}},"type":"Feature"},
	{"geometry":{"coordinates":[18.158012,49.788653],"type":"Point"},"properties":{"osm_id":"2953502541","tag":{"amenity":"recycling"}},"type":"Feature"},
	{"geometry":{"coordinates":[18.160926,49.789899],"type":"Point"},"properties":{"osm_id":"2953502542","tag":{"amenity":"recycling"}},"type":"Feature"},
	{"geometry":{"coordinates":[18.164854,49.791254],"type":"Point"},"properties":{"osm_id":"2953502543","tag":{"amenity":"recycling"}},"type":"Feature"},
	{"geometry":{"coordinates":[18.185163,49.826195],"type":"Point"},"properties":{"osm_id":"3027306651","tag":{"amenity":"recycling","recycling:plastic":"yes","recycling_type":"container"}},"type":"Feature"},
	{"geometry":{"coordinates":[18.185142,49.826201],"type":"Point"},"properties":{"osm_id":"3027306652","tag":{"amenity":"recycling","recycling:paper":"yes","recycling_type":"container"}},"type":"Feature"},
	{"geometry":{"coordinates":[18.185159,49.826226],"type":"Point"},"properties":{"osm_id":"3027306653","tag":{"amenity":"recycling","recycling:glass":"yes","recycling_type":"container"}},"type":"Feature"},
	{"geometry":{"coordinates":[18.185693,49.827064],"type":"Point"},"properties":{"osm_id":"3027306654","tag":{"amenity":"recycling","recycling:plastic":"yes","recycling_type":"container"}},"type":"Feature"},
	{"geometry":{"coordinates":[18.185661,49.827072],"type":"Point"},"properties":{"osm_id":"3027306655","tag":{"amenity":"recycling","recycling:paper":"yes","recycling_type":"container"}},"type":"Feature"},
	{"geometry":{"coordinates":[18.118656,49.835448],"type":"Point"},"properties":{"osm_id":"3215525052","tag":{"amenity":"recycling","recycling:plastic":"yes","recycling_type":"container"}},"type":"Feature"},
	{"geometry":{"coordinates":[18.118629,49.835449],"type":"Point"},"properties":{"osm_id":"3215525053","tag":{"amenity":"recycling","recycling:batteries":"yes","recycling_type":"container"}},"type":"Feature"},
	{"geometry":{"coordinates":[18.11867,49.835461],"type":"Point"},"properties":{"osm_id":"3215525054","tag":{"amenity":"recycling","recycling:plastic":"yes","recycling_type":"container"}},"type":"Feature"},
	{"geometry":{"coordinates":[18.118621,49.835462],"type":"Point"},"properties":{"osm_id":"3215525055","tag":{"amenity":"recycling","recycling:glass":"yes","recycling_type":"container"}},"type":"Feature"},
	{"geometry":{"coordinates":[18.118628,49.835473],"type":"Point"},"properties":{"osm_id":"3215525057","tag":{"amenity":"recycling","recycling:paper":"yes","recycling_type":"container"}},"type":"Feature"},
	{"geometry":{"coordinates":[18.183689,49.834716],"type":"Point"},"properties":{"osm_id":"3506788860","tag":{"amenity":"waste_disposal"}},"type":"Feature"},
	{"geometry":{"coordinates":[18.183651,49.834732],"type":"Point"},"properties":{"osm_id":"3506788861","tag":{"amenity":"recycling","recycling:glass":"yes"}},"type":"Feature"},
	{"geometry":{"coordinates":[18.183605,49.834746],"type":"Point"},"properties":{"osm_id":"3506788862","tag":{"amenity":"recycling","recycling:paper":"yes"}},"type":"Feature"},
	{"geometry":{"coordinates":[18.183557,49.83477],"type":"Point"},"properties":{"osm_id":"3506788864","tag":{"amenity":"recycling","recycling:plastic":"yes"}},"type":"Feature"},
	{"geometry":{"coordinates":[18.170362,49.82654],"type":"Point"},"properties":{"osm_id":"3985319803","tag":{"amenity":"recycling","recycling:glass":"yes","recycling:paper":"yes","recycling:plastic":"yes","recycling_type":"container"}},"type":"Feature"},
	{"geometry":{"coordinates":[18.16548,49.82762],"type":"Point"},"properties":{"osm_id":"3985319815","tag":{"amenity":"recycling","recycling:glass":"yes","recycling:paper":"yes","recycling:plastic":"yes","recycling_type":"container"}},"type":"Feature"},
	{"geometry":{"coordinates":[18.16603,49.828287],"type":"Point"},"properties":{"osm_id":"3985319826","tag":{"amenity":"recycling","recycling:glass":"yes","recycling:paper":"yes","recycling:plastic":"yes","recycling_type":"container"}},"type":"Feature"},
	{"geometry":{"coordinates":[18.166434,49.829115],"type":"Point"},"properties":{"osm_id":"3985319837","tag":{"amenity":"recycling","recycling:glass":"yes","recycling:paper":"yes","recycling:plastic":"yes","recycling_type":"container"}},"type":"Feature"},
	{"geometry":{"coordinates":[18.165437,49.830046],"type":"Point"},"properties":{"osm_id":"3985319843","tag":{"amenity":"recycling","recycling:glass":"yes","recycling:paper":"yes","recycling:plastic":"yes","recycling_type":"container"}},"type":"Feature"},
	{"geometry":{"coordinates":[18.178587,49.827862],"type":"Point"},"properties":{"osm_id":"3985818336","tag":{"amenity":"recycling","recycling:glass":"yes","recycling:paper":"yes","recycling:plastic":"yes","recycling_type":"container"}},"type":"Feature"},
	{"geometry":{"coordinates":[18.178125,49.828968],"type":"Point"},"properties":{"osm_id":"3985818339","tag":{"amenity":"recycling","recycling:glass":"yes","recycling:paper":"yes","recycling:plastic":"yes","recycling_type":"container"}},"type":"Feature"},
	{"geometry":{"coordinates":[18.177514,49.83519],"type":"Point"},"properties":{"osm_id":"4307820124","tag":{"amenity":"recycling","recycling:cans":"yes","recycling:cardboard":"yes","recycling:glass":"yes","recycling:glass_bottles":"yes","recycling:paper":"yes","recycling:plastic":"yes","recycling:plastic_bottles":"yes","recycling:plastic_packaging":"yes","recycling_type":"container"}},"type":"Feature"},
	{"geometry":{"coordinates":[18.14719,49.830442],"type":"Point"},"properties":{"osm_id":"4324799542","tag":{"amenity":"waste_basket"}},"type":"Feature"},
	{"geometry":{"coordinates":[18.129824,49.836586],"type":"Point"},"properties":{"osm_id":"4324799556","tag":{"amenity":"waste_basket"}},"type":"Feature"},
	{"geometry":{"coordinates":[18.10751,49.827658],"type":"Point"},"properties":{"osm_id":"4324833998","tag":{"amenity":"waste_basket","operator":"Obec V\u00c5\u0099esina"}},"type":"Feature"},
	{"geometry":{"coordinates":[18.176448,49.833413],"type":"Point"},"properties":{"osm_id":"4379523489","tag":{"amenity":"waste_basket","waste":"trash"}},"type":"Feature"},
	{"geometry":{"coordinates":[18.177321,49.835409],"type":"Point"},"properties":{"osm_id":"4438241332","tag":{"amenity":"waste_disposal","waste":"trash"}},"type":"Feature"},
	{"geometry":{"coordinates":[18.177561,49.835793],"type":"Point"},"properties":{"osm_id":"4438241339","tag":{"amenity":"waste_disposal","waste":"trash"}},"type":"Feature"},
	{"geometry":{"coordinates":[18.154672,49.820977],"type":"Point"},"properties":{"osm_id":"4803596744","tag":{"amenity":"recycling","recycling_type":"container"}},"type":"Feature"},
	{"geometry":{"coordinates":[18.131635,49.789483],"type":"Point"},"properties":{"osm_id":"6784552928","tag":{"amenity":"recycling","recycling:glass":"yes","recycling:paper":"yes","recycling:plastic":"yes","recycling_type":"container"}},"type":"Feature"}
]
}
