{
"type": "FeatureCollection",
"features": [
	{"geometry":{"coordinates":[18.137786,49.461131],"type":"Point"},"properties":{"osm_id":"1662938632","tag":{"amenity":"waste_basket"}},"type":"Feature"},
	{"geometry":{"coordinates":[18.14207,49.466709],"type":"Point"},"properties":{"osm_id":"1662938659","tag":{"amenity":"waste_basket"}},"type":"Feature"},
	{"geometry":{"coordinates":[18.143397,49.471809],"type":"Point"},"properties":{"osm_id":"1662938660","tag":{"amenity":"waste_basket"}},"type":"Feature"},
	{"geometry":{"coordinates":[18.142136,49.47705],"type":"Point"},"properties":{"osm_id":"1662938665","tag":{"amenity":"waste_basket"}},"type":"Feature"},
	{"geometry":{"coordinates":[18.142197,49.477117],"type":"Point"},"properties":{"osm_id":"1662938694","tag":{"amenity":"recycling","recycling_type":"container"}},"type":"Feature"},
	{"geometry":{"coordinates":[18.136566,49.461277],"type":"Point"},"properties":{"osm_id":"2032346072","tag":{"amenity":"waste_basket"}},"type":"Feature"},
	{"geometry":{"coordinates":[18.140775,49.467407],"type":"Point"},"properties":{"osm_id":"2048572068","tag":{"amenity":"recycling"}},"type":"Feature"},
	{"geometry":{"coordinates":[18.135271,49.461208],"type":"Point"},"properties":{"osm_id":"2048572085","tag":{"amenity":"recycling"}},"type":"Feature"},
	{"geometry":{"coordinates":[18.139214,49.466236],"type":"Point"},"properties":{"osm_id":"2048572088","tag":{"amenity":"recycling"}},"type":"Feature"},
	{"geometry":{"coordinates":[18.138861,49.458938],"type":"Point"},"properties":{"osm_id":"2048572107","tag":{"amenity":"waste_basket"}},"type":"Feature"},
	{"geometry":{"coordinates":[18.138738,49.462234],"type":"Point"},"properties":{"osm_id":"2048572123","tag":{"amenity":"recycling"}},"type":"Feature"},
	{"geometry":{"coordinates":[18.139251,49.467372],"type":"Point"},"properties":{"osm_id":"2048572125","tag":{"amenity":"recycling","recycling:glass":"yes","recycling:paper":"yes","recycling:plastic":"yes","recycling_type":"container"}},"type":"Feature"},
	{"geometry":{"coordinates":[18.136926,49.462089],"type":"Point"},"properties":{"osm_id":"2048572132","tag":{"amenity":"recycling"}},"type":"Feature"},
	{"geometry":{"coordinates":[18.138602,49.458871],"type":"Point"},"properties":{"osm_id":"2048572134","tag":{"amenity":"waste_basket"}},"type":"Feature"},
	{"geometry":{"coordinates":[18.137583,49.461483],"type":"Point"},"properties":{"osm_id":"2048572137","tag":{"amenity":"waste_basket"}},"type":"Feature"},
	{"geometry":{"coordinates":[18.134159,49.466003],"type":"Point"},"properties":{"osm_id":"2070468058","tag":{"amenity":"recycling"}},"type":"Feature"},
	{"geometry":{"coordinates":[18.144871,49.464697],"type":"Point"},"properties":{"osm_id":"2070735500","tag":{"amenity":"recycling"}},"type":"Feature"},
	{"geometry":{"coordinates":[18.143696,49.470892],"type":"Point"},"properties":{"osm_id":"2435360646","tag":{"amenity":"recycling"}},"type":"Feature"},
	{"geometry":{"coordinates":[18.135747,49.464302],"type":"Point"},"properties":{"osm_id":"2503301091","tag":{"amenity":"recycling"}},"type":"Feature"},
	{"geometry":{"coordinates":[18.132112,49.457008],"type":"Point"},"properties":{"osm_id":"2678294520","tag":{"amenity":"recycling","recycling:clothes":"no","recycling:glass":"yes","recycling:paper":"yes"}},"type":"Feature"},
	{"geometry":{"coordinates":[18.144478,49.456257],"type":"Point"},"properties":{"osm_id":"2678294693","tag":{"amenity":"recycling","recycling:cans":"yes","recycling:clothes":"no","recycling:glass":"yes","recycling:paper":"yes"}},"type":"Feature"},
	{"geometry":{"coordinates":[18.15,49.455071],"type":"Point"},"properties":{"osm_id":"2678302119","tag":{"amenity":"recycling","recycling:glass":"yes","recycling:paper":"yes"}},"type":"Feature"},
	{"geometry":{"coordinates":[18.138907,49.457773],"type":"Point"},"properties":{"osm_id":"2927663412","tag":{"amenity":"recycling","recycling:glass":"yes","recycling:paper":"yes"}},"type":"Feature"},
	{"geometry":{"coordinates":[18.135697,49.462746],"type":"Point"},"properties":{"osm_id":"3054401346","tag":{"amenity":"recycling"}},"type":"Feature"},
	{"geometry":{"coordinates":[18.133142,49.462259],"type":"Point"},"properties":{"osm_id":"3054401348","tag":{"amenity":"recycling"}},"type":"Feature"},
	{"geometry":{"coordinates":[18.133,49.466361],"type":"Point"},"properties":{"osm_id":"3054401350","tag":{"amenity":"recycling"}},"type":"Feature"},
	{"geometry":{"coordinates":[18.140102,49.469086],"type":"Point"},"properties":{"osm_id":"3054401351","tag":{"amenity":"recycling"}},"type":"Feature"},
	{"geometry":{"coordinates":[18.141232,49.480846],"type":"Point"},"properties":{"osm_id":"3054401352","tag":{"amenity":"recycling"}},"type":"Feature"},
	{"geometry":{"coordinates":[18.169811,49.486858],"type":"Point"},"properties":{"osm_id":"3057954164","tag":{"amenity":"recycling","recycling:glass":"yes","recycling:paper":"yes","recycling:plastic":"yes","recycling_type":"container"}},"type":"Feature"},
	{"geometry":{"coordinates":[18.151801,49.465805],"type":"Point"},"properties":{"osm_id":"3280484861","tag":{"amenity":"recycling","recycling:cans":"yes","recycling:clothes":"no","recycling:glass":"yes","recycling:paper":"yes","recycling:plastic":"yes"}},"type":"Feature"},
	{"geometry":{"coordinates":[18.165105,49.467276],"type":"Point"},"properties":{"osm_id":"3545522335","tag":{"amenity":"recycling","recycling_type":"container"}},"type":"Feature"},
	{"geometry":{"coordinates":[18.173774,49.470977],"type":"Point"},"properties":{"osm_id":"3545522336","tag":{"amenity":"recycling","recycling_type":"container"}},"type":"Feature"},
	{"geometry":{"coordinates":[18.169936,49.448599],"type":"Point"},"properties":{"osm_id":"4161551989","tag":{"amenity":"recycling"}},"type":"Feature"},
	{"geometry":{"coordinates":[18.126514,49.465595],"type":"Point"},"properties":{"osm_id":"4190272705","tag":{"amenity":"recycling","operator":"M\u00c4\u009bsto Ro\u00c5\u00benov pod Radho\u00c5\u00a1t\u00c4\u009bm","recycling:electrical_appliances":"yes","recycling:glass":"yes","recycling:paper":"yes","recycling:plastic":"yes"}},"type":"Feature"},
	{"geometry":{"coordinates":[18.125413,49.466068],"type":"Point"},"properties":{"osm_id":"4190272706","tag":{"amenity":"recycling","operator":"M\u00c4\u009bsto Ro\u00c5\u00benov pod Radho\u00c5\u00a1t\u00c4\u009bm","recycling:beverage_cartons":"yes","recycling:glass":"yes","recycling:paper":"yes","recycling:plastic":"yes"}},"type":"Feature"},
	{"geometry":{"coordinates":[18.127271,49.466439],"type":"Point"},"properties":{"osm_id":"4190272707","tag":{"amenity":"recycling","operator":"M\u00c4\u009bsto Ro\u00c5\u00benov pod Radho\u00c5\u00a1t\u00c4\u009bm","recycling:beverage_cartons":"yes","recycling:glass":"yes","recycling:metal":"yes","recycling:paper":"yes","recycling:plastic":"yes"}},"type":"Feature"},
	{"geometry":{"coordinates":[18.127456,49.465638],"type":"Point"},"properties":{"osm_id":"4190272708","tag":{"amenity":"recycling","recycling:beverage_carton":"yes","recycling:clothes":"yes","recycling:glass":"yes","recycling:paper":"yes","recycling:plastic":"yes"}},"type":"Feature"},
	{"geometry":{"coordinates":[18.160975,49.449159],"type":"Point"},"properties":{"osm_id":"4190764520","tag":{"amenity":"recycling","recycling:paper":"yes","recycling:plastic":"yes"}},"type":"Feature"},
	{"geometry":{"coordinates":[18.131524,49.459011],"type":"Point"},"properties":{"osm_id":"4192275686","tag":{"amenity":"recycling"}},"type":"Feature"},
	{"geometry":{"coordinates":[18.133021,49.458797],"type":"Point"},"properties":{"osm_id":"4192275687","tag":{"amenity":"recycling"}},"type":"Feature"},
	{"geometry":{"coordinates":[18.136046,49.458327],"type":"Point"},"properties":{"osm_id":"4192275688","tag":{"amenity":"recycling"}},"type":"Feature"},
	{"geometry":{"coordinates":[18.125669,49.45775],"type":"Point"},"properties":{"osm_id":"4192275789","tag":{"amenity":"recycling"}},"type":"Feature"},
	{"geometry":{"coordinates":[18.131424,49.461866],"type":"Point"},"properties":{"osm_id":"4192275790","tag":{"amenity":"recycling"}},"type":"Feature"},
	{"geometry":{"coordinates":[18.137912,49.463235],"type":"Point"},"properties":{"osm_id":"4192275791","tag":{"amenity":"recycling"}},"type":"Feature"},
	{"geometry":{"coordinates":[18.142628,49.460228],"type":"Point"},"properties":{"osm_id":"4192275792","tag":{"amenity":"recycling"}},"type":"Feature"},
	{"geometry":{"coordinates":[18.14301,49.457371],"type":"Point"},"properties":{"osm_id":"4192275793","tag":{"amenity":"recycling"}},"type":"Feature"},
	{"geometry":{"coordinates":[18.146616,49.458583],"type":"Point"},"properties":{"osm_id":"4192275794","tag":{"amenity":"recycling"}},"type":"Feature"},
	{"geometry":{"coordinates":[18.147665,49.458817],"type":"Point"},"properties":{"osm_id":"4192275795","tag":{"amenity":"recycling"}},"type":"Feature"},
	{"geometry":{"coordinates":[18.14214,49.456085],"type":"Point"},"properties":{"osm_id":"4192275796","tag":{"amenity":"recycling"}},"type":"Feature"},
	{"geometry":{"coordinates":[18.159106,49.451565],"type":"Point"},"properties":{"osm_id":"4192275797","tag":{"amenity":"recycling"}},"type":"Feature"},
	{"geometry":{"coordinates":[18.148587,49.457822],"type":"Point"},"properties":{"osm_id":"4192275798","tag":{"amenity":"recycling"}},"type":"Feature"},
	{"geometry":{"coordinates":[18.132444,49.465481],"type":"Point"},"properties":{"osm_id":"4192275799","tag":{"amenity":"recycling"}},"type":"Feature"},
	{"geometry":{"coordinates":[18.128036,49.464631],"type":"Point"},"properties":{"osm_id":"4192275800","tag":{"amenity":"recycling"}},"type":"Feature"},
	{"geometry":{"coordinates":[18.125719,49.464639],"type":"Point"},"properties":{"osm_id":"4192275801","tag":{"amenity":"recycling"}},"type":"Feature"},
	{"geometry":{"coordinates":[18.137785,49.466356],"type":"Point"},"properties":{"osm_id":"4192275802","tag":{"amenity":"recycling"}},"type":"Feature"},
	{"geometry":{"coordinates":[18.15823,49.466817],"type":"Point"},"properties":{"osm_id":"4192275803","tag":{"amenity":"recycling"}},"type":"Feature"},
	{"geometry":{"coordinates":[18.169195,49.481512],"type":"Point"},"properties":{"osm_id":"4192275804","tag":{"amenity":"recycling"}},"type":"Feature"},
	{"geometry":{"coordinates":[18.154087,49.468879],"type":"Point"},"properties":{"osm_id":"4192276529","tag":{"amenity":"recycling"}},"type":"Feature"},
	{"geometry":{"coordinates":[18.143522,49.468194],"type":"Point"},"properties":{"osm_id":"4192276530","tag":{"amenity":"recycling"}},"type":"Feature"},
	{"geometry":{"coordinates":[18.134014,49.465041],"type":"Point"},"properties":{"osm_id":"4192283949","tag":{"amenity":"recycling"}},"type":"Feature"},
	{"geometry":{"coordinates":[18.139232,49.465833],"type":"Point"},"properties":{"osm_id":"4192283950","tag":{"amenity":"recycling"}},"type":"Feature"},
	{"geometry":{"coordinates":[18.130086,49.459507],"type":"Point"},"properties":{"osm_id":"4192283951","tag":{"amenity":"recycling"}},"type":"Feature"},
	{"geometry":{"coordinates":[18.161934,49.474734],"type":"Point"},"properties":{"osm_id":"4192291472","tag":{"amenity":"recycling"}},"type":"Feature"},
	{"geometry":{"coordinates":[18.130628,49.457937],"type":"Point"},"properties":{"osm_id":"4256083516","tag":{"amenity":"recycling"}},"type":"Feature"},
	{"geometry":{"coordinates":[18.132434,49.466497],"type":"Point"},"properties":{"osm_id":"4405685936","tag":{"amenity":"recycling","recycling:organic":"yes"}},"type":"Feature"},
	{"geometry":{"coordinates":[18.18268,49.463205],"type":"Point"},"properties":{"osm_id":"5156918130","tag":{"amenity":"waste_basket"}},"type":"Feature"},
	{"geometry":{"coordinates":[18.116021,49.461773],"type":"Point"},"properties":{"name":"Sb\u00c4\u009brn\u00c3\u00bd dv\u00c5\u00afr Ro\u00c5\u00benov pod Radho\u00c5\u00a1t\u00c4\u009bm","osm_id":"5174734285","tag":{"amenity":"recycling"}},"type":"Feature"},
	{"geometry":{"coordinates":[18.136043,49.460104],"type":"Point"},"properties":{"osm_id":"5899397779","tag":{"amenity":"waste_basket","level":"0","waste":"trash"}},"type":"Feature"},
	{"geometry":{"coordinates":[18.13575,49.460188],"type":"Point"},"properties":{"osm_id":"5899397780","tag":{"amenity":"waste_basket","level":"0","waste":"trash"}},"type":"Feature"}
]
}
