{
"type": "FeatureCollection",
"lastupdate": "2020-08-01T00:00:00Z",
"features": [
	{"geometry":{"coordinates":[18.17485,47.735017],"type":"Point"},"properties":{"osm_id":"3471788313","tag":{"addr:street":"\"Magt\u00e1r mellett\"","amenity":"recycling","source:date":"2010-09-12","url":"http://turistautak.hu/poi.php?id=2339"}},"type":"Feature"},
	{"geometry":{"coordinates":[18.121133,47.738817],"type":"Point"},"properties":{"osm_id":"3471788315","tag":{"addr:street":"CBA mellett","amenity":"recycling","recycling_type":"container","source:date":"2010-09-12","url":"http://turistautak.hu/poi.php?id=67095"}},"type":"Feature"},
	{"geometry":{"coordinates":[18.132684,47.739762],"type":"Point"},"properties":{"osm_id":"3471788316","tag":{"addr:street":"Csillag ltp-i ABC mellett","amenity":"recycling","description":"Az ABC \u00c9-i oldal\u00e1ban tal\u00e1lhat\u00f3.","recycling_type":"container","source:date":"2010-09-12","url":"http://turistautak.hu/poi.php?id=2376"}},"type":"Feature"},
	{"geometry":{"coordinates":[18.11635,47.743667],"type":"Point"},"properties":{"osm_id":"3471788318","tag":{"addr:street":"SPAR mellett","amenity":"recycling","description":"A SPAR parkol\u00f3 mellett tal\u00e1lhat\u00f3.","recycling_type":"container","source:date":"2010-09-12","url":"http://turistautak.hu/poi.php?id=2366"}},"type":"Feature"},
	{"geometry":{"coordinates":[18.138972,47.745388],"type":"Point"},"properties":{"osm_id":"6851317233","tag":{"amenity":"waste_basket"}},"type":"Feature"}
]
}
