{
"type": "FeatureCollection",
"lastupdate": "2020-08-03T00:00:00Z",
"features": [
	{"geometry":{"coordinates":[18.187723,46.957064],"type":"Point"},"properties":{"osm_id":"2942682560","tag":{"amenity":"recycling"}},"type":"Feature"},
	{"geometry":{"coordinates":[18.164877,46.979725],"type":"Point"},"properties":{"osm_id":"3441443890","tag":{"addr:street":"Zr\u00ednyi \u00fat","amenity":"recycling","source:date":"2012-10-14","url":"http://turistautak.hu/poi.php?id=74353"}},"type":"Feature"},
	{"geometry":{"coordinates":[18.117498,46.93395],"type":"Point"},"properties":{"osm_id":"5809270282","tag":{"amenity":"waste_basket"}},"type":"Feature"},
	{"geometry":{"coordinates":[18.117412,46.93389],"type":"Point"},"properties":{"osm_id":"5809270285","tag":{"amenity":"waste_basket"}},"type":"Feature"},
	{"geometry":{"coordinates":[18.118223,46.933504],"type":"Point"},"properties":{"osm_id":"5809270286","tag":{"amenity":"waste_basket"}},"type":"Feature"},
	{"geometry":{"coordinates":[18.117602,46.934008],"type":"Point"},"properties":{"osm_id":"5809270287","tag":{"amenity":"waste_basket"}},"type":"Feature"},
	{"geometry":{"coordinates":[18.117311,46.933822],"type":"Point"},"properties":{"osm_id":"5809270288","tag":{"amenity":"waste_basket"}},"type":"Feature"},
	{"geometry":{"coordinates":[18.1182,46.934278],"type":"Point"},"properties":{"osm_id":"5809351453","tag":{"amenity":"waste_basket"}},"type":"Feature"},
	{"geometry":{"coordinates":[18.117784,46.934094],"type":"Point"},"properties":{"osm_id":"5809351456","tag":{"amenity":"waste_basket"}},"type":"Feature"},
	{"geometry":{"coordinates":[18.118067,46.934231],"type":"Point"},"properties":{"osm_id":"5809351457","tag":{"amenity":"waste_basket"}},"type":"Feature"},
	{"geometry":{"coordinates":[18.118325,46.9343],"type":"Point"},"properties":{"osm_id":"5809351460","tag":{"amenity":"waste_basket"}},"type":"Feature"},
	{"geometry":{"coordinates":[18.117675,46.93405],"type":"Point"},"properties":{"osm_id":"5809351461","tag":{"amenity":"waste_basket"}},"type":"Feature"},
	{"geometry":{"coordinates":[18.117969,46.934182],"type":"Point"},"properties":{"osm_id":"5809351462","tag":{"amenity":"waste_basket"}},"type":"Feature"},
	{"geometry":{"coordinates":[18.117885,46.934126],"type":"Point"},"properties":{"osm_id":"5809351464","tag":{"amenity":"waste_basket"}},"type":"Feature"},
	{"geometry":{"coordinates":[18.118318,46.934146],"type":"Point"},"properties":{"osm_id":"5810121799","tag":{"amenity":"waste_basket"}},"type":"Feature"},
	{"geometry":{"coordinates":[18.170377,46.978677],"type":"Point"},"properties":{"osm_id":"5862057155","tag":{"amenity":"waste_basket","waste":"trash"}},"type":"Feature"}
]
}
