{
"type": "FeatureCollection",
"features": [
	{"geometry":{"coordinates":[18.136367,46.075952],"type":"Point"},"properties":{"osm_id":"3440813886","tag":{"addr:city":"Cserk\u00c3\u00bat","addr:street":"Pet\u00c5\u0091fi S\u00c3\u00a1ndor utca","amenity":"recycling","description":"Cserk\u00c3\u00bat k\u00c3\u00b6zpontj\u00c3\u00a1ban, a bolt m\u00c3\u00b6g\u00c3\u00b6tti utc\u00c3\u00a1ban tal\u00c3\u00a1lhat\u00c3\u00b3 a pap\u00c3\u00adr, \u00c3\u00bcveg, m\u00c5\u00b1anyag palack \u00c3\u00a9s konzerv szepar\u00c3\u00a1lt gy\u00c5\u00b1jt\u00c3\u00a9s\u00c3\u00a9re alkalmas egys\u00c3\u00a9g.","source:date":"2011-09-08","url":"http://turistautak.hu/poi.php?id=5393"}},"type":"Feature"},
	{"geometry":{"coordinates":[18.186333,46.088285],"type":"Point"},"properties":{"osm_id":"3440860437","tag":{"amenity":"recycling","recycling:glass":"yes","recycling:paper":"yes","recycling:plastic":"yes","recycling_type":"container","source:date":"2011-09-08","url":"http://turistautak.hu/poi.php?id=5360"}},"type":"Feature"},
	{"geometry":{"coordinates":[18.173624,46.07412],"type":"Point"},"properties":{"osm_id":"3440860510","tag":{"amenity":"recycling","source:date":"2011-09-08","url":"http://turistautak.hu/poi.php?id=119298"}},"type":"Feature"},
	{"geometry":{"coordinates":[18.184692,46.086038],"type":"Point"},"properties":{"osm_id":"3440860543","tag":{"amenity":"recycling","description":"Pap\u00c3\u00adr, \u00c3\u00bcveg \u00c3\u00a9s m\u00c5\u00b1anyag gy\u00c5\u00b1jt\u00c3\u00a9s\u00c3\u00a9re alkalmas UFO-k az \u00c3\u0089ger k\u00c3\u00b6z \u00c3\u00a9s a Lajk\u00c3\u00b3 k\u00c3\u00b6z keresztez\u00c5\u0091d\u00c3\u00a9s\u00c3\u00a9ben.","source:date":"2011-09-08","url":"http://turistautak.hu/poi.php?id=16784"}},"type":"Feature"},
	{"geometry":{"coordinates":[18.184684,46.10465],"type":"Point"},"properties":{"osm_id":"5823336409","tag":{"amenity":"waste_basket","waste":"trash"}},"type":"Feature"},
	{"geometry":{"coordinates":[18.1852,46.105292],"type":"Point"},"properties":{"osm_id":"5823336410","tag":{"amenity":"waste_basket","waste":"trash"}},"type":"Feature"},
	{"geometry":{"coordinates":[18.185546,46.105924],"type":"Point"},"properties":{"osm_id":"5823336413","tag":{"amenity":"waste_basket","waste":"trash"}},"type":"Feature"},
	{"geometry":{"coordinates":[18.185452,46.109168],"type":"Point"},"properties":{"osm_id":"5823336418","tag":{"amenity":"waste_basket","waste":"trash"}},"type":"Feature"},
	{"geometry":{"coordinates":[18.186042,46.109868],"type":"Point"},"properties":{"osm_id":"5823336420","tag":{"amenity":"waste_basket","waste":"trash"}},"type":"Feature"},
	{"geometry":{"coordinates":[18.186296,46.110271],"type":"Point"},"properties":{"osm_id":"5823336428","tag":{"amenity":"waste_basket","waste":"trash"}},"type":"Feature"},
	{"geometry":{"coordinates":[18.182863,46.086953],"type":"Point"},"properties":{"osm_id":"6152225468","tag":{"amenity":"waste_basket","waste":"trash"}},"type":"Feature"},
	{"geometry":{"coordinates":[18.182856,46.087198],"type":"Point"},"properties":{"osm_id":"6152225470","tag":{"amenity":"waste_basket","waste":"trash"}},"type":"Feature"},
	{"geometry":{"coordinates":[18.182268,46.08756],"type":"Point"},"properties":{"osm_id":"6152225474","tag":{"amenity":"waste_basket","waste":"trash"}},"type":"Feature"},
	{"geometry":{"coordinates":[18.184841,46.110159],"type":"Point"},"properties":{"osm_id":"6152226488","tag":{"amenity":"waste_basket","waste":"trash"}},"type":"Feature"},
	{"geometry":{"coordinates":[18.184768,46.110194],"type":"Point"},"properties":{"osm_id":"6152226489","tag":{"amenity":"waste_basket","waste":"trash"}},"type":"Feature"},
	{"geometry":{"coordinates":[18.18463,46.110295],"type":"Point"},"properties":{"osm_id":"6152226490","tag":{"amenity":"waste_basket","waste":"trash"}},"type":"Feature"},
	{"geometry":{"coordinates":[18.184258,46.111012],"type":"Point"},"properties":{"osm_id":"6152226493","tag":{"amenity":"waste_basket","waste":"trash"}},"type":"Feature"},
	{"geometry":{"coordinates":[18.184269,46.110915],"type":"Point"},"properties":{"osm_id":"6152226495","tag":{"amenity":"waste_basket","waste":"trash"}},"type":"Feature"},
	{"geometry":{"coordinates":[18.1843,46.110878],"type":"Point"},"properties":{"osm_id":"6152226497","tag":{"amenity":"waste_basket","waste":"trash"}},"type":"Feature"},
	{"geometry":{"coordinates":[18.18431,46.110774],"type":"Point"},"properties":{"osm_id":"6152226499","tag":{"amenity":"waste_basket","waste":"trash"}},"type":"Feature"},
	{"geometry":{"coordinates":[18.184577,46.11043],"type":"Point"},"properties":{"osm_id":"6152226501","tag":{"amenity":"waste_basket","waste":"trash"}},"type":"Feature"},
	{"geometry":{"coordinates":[18.185391,46.111063],"type":"Point"},"properties":{"osm_id":"6152226502","tag":{"amenity":"waste_basket","waste":"trash"}},"type":"Feature"},
	{"geometry":{"coordinates":[18.18502,46.110583],"type":"Point"},"properties":{"osm_id":"6152226504","tag":{"amenity":"waste_basket","waste":"trash"}},"type":"Feature"},
	{"geometry":{"coordinates":[18.185388,46.110249],"type":"Point"},"properties":{"osm_id":"6152226507","tag":{"amenity":"waste_basket","waste":"trash"}},"type":"Feature"},
	{"geometry":{"coordinates":[18.185538,46.110305],"type":"Point"},"properties":{"osm_id":"6152226509","tag":{"amenity":"waste_basket","waste":"trash"}},"type":"Feature"},
	{"geometry":{"coordinates":[18.185842,46.110635],"type":"Point"},"properties":{"osm_id":"6152226516","tag":{"amenity":"waste_basket","waste":"trash"}},"type":"Feature"},
	{"geometry":{"coordinates":[18.185886,46.110871],"type":"Point"},"properties":{"osm_id":"6152226519","tag":{"amenity":"waste_basket","waste":"trash"}},"type":"Feature"},
	{"geometry":{"coordinates":[18.18618,46.111044],"type":"Point"},"properties":{"osm_id":"6152226525","tag":{"amenity":"waste_basket","waste":"trash"}},"type":"Feature"},
	{"geometry":{"coordinates":[18.186221,46.110663],"type":"Point"},"properties":{"osm_id":"6152226531","tag":{"amenity":"waste_basket","waste":"trash"}},"type":"Feature"},
	{"geometry":{"coordinates":[18.18629,46.110931],"type":"Point"},"properties":{"osm_id":"6152226535","tag":{"amenity":"waste_basket","waste":"trash"}},"type":"Feature"},
	{"geometry":{"coordinates":[18.186886,46.110412],"type":"Point"},"properties":{"osm_id":"6277915515","tag":{"amenity":"waste_basket","waste":"trash"}},"type":"Feature"},
	{"geometry":{"coordinates":[18.187489,46.11016],"type":"Point"},"properties":{"osm_id":"6277915517","tag":{"amenity":"waste_basket","waste":"trash"}},"type":"Feature"},
	{"geometry":{"coordinates":[18.187755,46.109931],"type":"Point"},"properties":{"osm_id":"6277915519","tag":{"amenity":"waste_basket","waste":"trash"}},"type":"Feature"},
	{"geometry":{"coordinates":[18.187912,46.109709],"type":"Point"},"properties":{"osm_id":"6277915520","tag":{"amenity":"waste_basket","waste":"trash"}},"type":"Feature"},
	{"geometry":{"coordinates":[18.187999,46.109268],"type":"Point"},"properties":{"osm_id":"6277915522","tag":{"amenity":"waste_basket","waste":"trash"}},"type":"Feature"},
	{"geometry":{"coordinates":[18.188566,46.108562],"type":"Point"},"properties":{"osm_id":"6277915524","tag":{"amenity":"waste_basket","waste":"trash"}},"type":"Feature"},
	{"geometry":{"coordinates":[18.188795,46.108177],"type":"Point"},"properties":{"osm_id":"6277915525","tag":{"amenity":"waste_basket","waste":"trash"}},"type":"Feature"},
	{"geometry":{"coordinates":[18.188892,46.107866],"type":"Point"},"properties":{"osm_id":"6277915527","tag":{"amenity":"waste_basket","waste":"trash"}},"type":"Feature"},
	{"geometry":{"coordinates":[18.189163,46.10757],"type":"Point"},"properties":{"osm_id":"6277915528","tag":{"amenity":"waste_basket","waste":"trash"}},"type":"Feature"},
	{"geometry":{"coordinates":[18.189673,46.106739],"type":"Point"},"properties":{"osm_id":"6277915530","tag":{"amenity":"waste_basket","waste":"trash"}},"type":"Feature"},
	{"geometry":{"coordinates":[18.190429,46.106284],"type":"Point"},"properties":{"osm_id":"6277915532","tag":{"amenity":"waste_basket","waste":"trash"}},"type":"Feature"},
	{"geometry":{"coordinates":[18.192213,46.105974],"type":"Point"},"properties":{"osm_id":"6277915536","tag":{"amenity":"waste_basket","waste":"trash"}},"type":"Feature"},
	{"geometry":{"coordinates":[18.173035,46.088935],"type":"Point"},"properties":{"osm_id":"6579652197","tag":{"amenity":"waste_basket"}},"type":"Feature"},
	{"geometry":{"coordinates":[18.173319,46.089063],"type":"Point"},"properties":{"osm_id":"6579652202","tag":{"amenity":"waste_basket"}},"type":"Feature"},
	{"geometry":{"coordinates":[18.173365,46.089011],"type":"Point"},"properties":{"osm_id":"6579652204","tag":{"amenity":"waste_basket"}},"type":"Feature"},
	{"geometry":{"coordinates":[18.179918,46.107697],"type":"Point"},"properties":{"osm_id":"7411290811","tag":{"amenity":"waste_basket"}},"type":"Feature"},
	{"geometry":{"coordinates":[18.184026,46.105434],"type":"Point"},"properties":{"osm_id":"7411290828","tag":{"amenity":"waste_basket","waste":"trash"}},"type":"Feature"},
	{"geometry":{"coordinates":[18.143661,46.09433],"type":"Point"},"properties":{"osm_id":"7590265263","tag":{"amenity":"waste_basket","waste":"trash"}},"type":"Feature"},
	{"geometry":{"coordinates":[18.160092,46.10222],"type":"Point"},"properties":{"osm_id":"7605758254","tag":{"amenity":"waste_basket","waste":"trash"}},"type":"Feature"}
]
}
