{
"type": "FeatureCollection",
"features": [
	{"geometry":{"coordinates":[18.120865,42.625768],"type":"Point"},"properties":{"osm_id":"1787483389","tag":{"amenity":"waste_basket"}},"type":"Feature"},
	{"geometry":{"coordinates":[18.118649,42.642452],"type":"Point"},"properties":{"osm_id":"3040562780","tag":{"amenity":"recycling"}},"type":"Feature"},
	{"geometry":{"coordinates":[18.110916,42.643251],"type":"Point"},"properties":{"osm_id":"3042753273","tag":{"amenity":"recycling"}},"type":"Feature"},
	{"geometry":{"coordinates":[18.113616,42.641938],"type":"Point"},"properties":{"osm_id":"3042753310","tag":{"amenity":"recycling"}},"type":"Feature"},
	{"geometry":{"coordinates":[18.12517,42.669623],"type":"Point"},"properties":{"osm_id":"3055115340","tag":{"amenity":"waste_disposal"}},"type":"Feature"},
	{"geometry":{"coordinates":[18.126892,42.643239],"type":"Point"},"properties":{"osm_id":"5114949922","tag":{"amenity":"recycling"}},"type":"Feature"},
	{"geometry":{"coordinates":[18.113164,42.642041],"type":"Point"},"properties":{"osm_id":"5766941068","tag":{"amenity":"waste_basket"}},"type":"Feature"},
	{"geometry":{"coordinates":[18.11092,42.641283],"type":"Point"},"properties":{"osm_id":"6396692846","tag":{"amenity":"waste_disposal"}},"type":"Feature"}
]
}
