{
"type": "FeatureCollection",
"features": [
	{"geometry":{"coordinates":[-84.503057,38.036801],"type":"Point"},"properties":{"osm_id":"1630131616","tag":{"amenity":"waste_basket"}},"type":"Feature"},
	{"geometry":{"coordinates":[-84.504839,38.037989],"type":"Point"},"properties":{"osm_id":"2537261727","tag":{"amenity":"waste_basket"}},"type":"Feature"},
	{"geometry":{"coordinates":[-84.498693,38.048987],"type":"Point"},"properties":{"osm_id":"2896398701","tag":{"amenity":"waste_basket"}},"type":"Feature"},
	{"geometry":{"coordinates":[-84.526319,38.020124],"type":"Point"},"properties":{"name":"Lexington Recycling Center","osm_id":"3158011476","tag":{"amenity":"recycling","description":"several dumpsters feeding the Lexington single stream recycling operation","operator":"LFUCG","recycling:cans":"yes","recycling:clothes":"no","recycling:glass":"yes","recycling:paper":"yes","recycling_type":"centre"}},"type":"Feature"},
	{"geometry":{"coordinates":[-84.517049,38.057096],"type":"Point"},"properties":{"name":"LFUCG Recycling Center","osm_id":"3200434458","tag":{"addr:city":"Lexington","addr:housenumber":"360","addr:postcode":"40508","addr:state":"KY","addr:street":"Thompson Road","amenity":"recycling","operator":"Lexington-Fayette Urban County Government","phone":"(859) 425-2480","recycling:cans":"yes","recycling:clothes":"no","recycling:glass":"yes","recycling:paper":"yes","website":"http://www.lexingtonky.gov/index.aspx?page=1720"}},"type":"Feature"},
	{"geometry":{"coordinates":[-84.482545,38.050562],"type":"Point"},"properties":{"name":"Charity Dropbox","osm_id":"3201970397","tag":{"amenity":"recycling","operator":"Salvation Army","recycling:clothes":"yes","recycling_type":"container"}},"type":"Feature"},
	{"geometry":{"coordinates":[-84.499728,38.038539],"type":"Point"},"properties":{"osm_id":"3202629912","tag":{"amenity":"waste_basket","designation":"Trashcan"}},"type":"Feature"},
	{"geometry":{"coordinates":[-84.498336,38.038243],"type":"Point"},"properties":{"osm_id":"3238409061","tag":{"amenity":"waste_basket"}},"type":"Feature"},
	{"geometry":{"coordinates":[-84.499421,38.038171],"type":"Point"},"properties":{"osm_id":"3238409062","tag":{"amenity":"waste_basket"}},"type":"Feature"},
	{"geometry":{"coordinates":[-84.499788,38.037986],"type":"Point"},"properties":{"osm_id":"3238409063","tag":{"amenity":"waste_basket"}},"type":"Feature"},
	{"geometry":{"coordinates":[-84.499853,38.037685],"type":"Point"},"properties":{"osm_id":"3238409064","tag":{"amenity":"waste_basket"}},"type":"Feature"},
	{"geometry":{"coordinates":[-84.504304,38.037945],"type":"Point"},"properties":{"osm_id":"3778876819","tag":{"amenity":"waste_basket","recycling:clothes":"no","recycling_type":"container"}},"type":"Feature"},
	{"geometry":{"coordinates":[-84.503868,38.038597],"type":"Point"},"properties":{"osm_id":"4001121281","tag":{"amenity":"waste_basket"}},"type":"Feature"},
	{"geometry":{"coordinates":[-84.504555,38.038364],"type":"Point"},"properties":{"osm_id":"4001121282","tag":{"amenity":"waste_basket"}},"type":"Feature"},
	{"geometry":{"coordinates":[-84.503814,38.037469],"type":"Point"},"properties":{"osm_id":"4001121283","tag":{"amenity":"waste_basket"}},"type":"Feature"},
	{"geometry":{"coordinates":[-84.503709,38.036427],"type":"Point"},"properties":{"osm_id":"4059100575","tag":{"amenity":"waste_basket"}},"type":"Feature"},
	{"geometry":{"coordinates":[-84.504377,38.038574],"type":"Point"},"properties":{"osm_id":"4059100576","tag":{"amenity":"waste_basket"}},"type":"Feature"},
	{"geometry":{"coordinates":[-84.527805,38.019967],"type":"Point"},"properties":{"osm_id":"5154486763","tag":{"amenity":"waste_basket"}},"type":"Feature"},
	{"geometry":{"coordinates":[-84.49682,38.043505],"type":"Point"},"properties":{"osm_id":"5156127832","tag":{"amenity":"waste_basket"}},"type":"Feature"},
	{"geometry":{"coordinates":[-84.496954,38.043629],"type":"Point"},"properties":{"osm_id":"5156127833","tag":{"amenity":"waste_basket"}},"type":"Feature"},
	{"geometry":{"coordinates":[-84.476073,38.055025],"type":"Point"},"properties":{"osm_id":"5705939475","tag":{"amenity":"waste_disposal"}},"type":"Feature"}
]
}
