{
"type": "FeatureCollection",
"features": [
	{"geometry":{"coordinates":[-84.485796,34.027066],"type":"Point"},"properties":{"highway":"stop","osm_id":"67699326","tag":{"stop":"all"}},"type":"Feature"},
	{"geometry":{"coordinates":[-84.487345,34.083196],"type":"Point"},"properties":{"osm_id":"5715876226","tag":{"access":"private","amenity":"waste_disposal"}},"type":"Feature"},
	{"geometry":{"coordinates":[-84.487759,34.083525],"type":"Point"},"properties":{"osm_id":"5716254875","tag":{"access":"private","amenity":"waste_basket"}},"type":"Feature"},
	{"geometry":{"coordinates":[-84.48547,34.089058],"type":"Point"},"properties":{"osm_id":"5721574434","tag":{"access":"private","amenity":"waste_disposal"}},"type":"Feature"},
	{"geometry":{"coordinates":[-84.486084,34.088904],"type":"Point"},"properties":{"osm_id":"5732999836","tag":{"amenity":"waste_disposal"}},"type":"Feature"},
	{"geometry":{"coordinates":[-84.485003,34.084451],"type":"Point"},"properties":{"osm_id":"6533995120","tag":{"access":"private","amenity":"waste_disposal"}},"type":"Feature"}
]
}
