{
"type": "FeatureCollection",
"features": [
	{"geometry":{"coordinates":[34.797247,32.118887],"type":"Point"},"properties":{"osm_id":"1125976496","tag":{"amenity":"recycling"}},"type":"Feature"},
	{"geometry":{"coordinates":[34.801966,32.120986],"type":"Point"},"properties":{"osm_id":"1125976499","tag":{"amenity":"recycling"}},"type":"Feature"},
	{"geometry":{"coordinates":[34.795512,32.119399],"type":"Point"},"properties":{"osm_id":"1131313735","tag":{"amenity":"recycling"}},"type":"Feature"},
	{"geometry":{"coordinates":[34.802584,32.113239],"type":"Point"},"properties":{"osm_id":"1143996379","tag":{"amenity":"waste_basket"}},"type":"Feature"},
	{"geometry":{"coordinates":[34.802294,32.113242],"type":"Point"},"properties":{"osm_id":"1145237166","tag":{"amenity":"waste_basket"}},"type":"Feature"},
	{"geometry":{"coordinates":[34.802331,32.113241],"type":"Point"},"properties":{"osm_id":"1147881173","tag":{"amenity":"waste_basket"}},"type":"Feature"},
	{"geometry":{"coordinates":[34.804383,32.112101],"type":"Point"},"properties":{"osm_id":"1184266413","tag":{"amenity":"waste_basket"}},"type":"Feature"},
	{"geometry":{"coordinates":[34.78368,32.121119],"type":"Point"},"properties":{"osm_id":"1191433470","tag":{"amenity":"recycling"}},"type":"Feature"},
	{"geometry":{"coordinates":[34.795124,32.158592],"type":"Point"},"properties":{"osm_id":"1191477254","tag":{"amenity":"recycling","recycling:metal":"yes","recycling:plastic_bottles":"yes","recycling_type":"container"}},"type":"Feature"},
	{"geometry":{"coordinates":[34.796162,32.133598],"type":"Point"},"properties":{"osm_id":"1191553753","tag":{"amenity":"recycling"}},"type":"Feature"},
	{"geometry":{"coordinates":[34.794826,32.126911],"type":"Point"},"properties":{"osm_id":"1191621542","tag":{"amenity":"recycling"}},"type":"Feature"},
	{"geometry":{"coordinates":[34.795008,32.128868],"type":"Point"},"properties":{"osm_id":"1191621648","tag":{"amenity":"recycling"}},"type":"Feature"},
	{"geometry":{"coordinates":[34.794412,32.124875],"type":"Point"},"properties":{"osm_id":"1191621744","tag":{"amenity":"recycling"}},"type":"Feature"},
	{"geometry":{"coordinates":[34.792796,32.13154],"type":"Point"},"properties":{"osm_id":"1546447402","tag":{"amenity":"recycling","recycling_type":"container"}},"type":"Feature"},
	{"geometry":{"coordinates":[34.792024,32.130784],"type":"Point"},"properties":{"osm_id":"1556234727","tag":{"amenity":"recycling","recycling:paper":"yes","recycling_type":"container"}},"type":"Feature"},
	{"geometry":{"coordinates":[34.792012,32.130789],"type":"Point"},"properties":{"osm_id":"1556234729","tag":{"amenity":"recycling","recycling:plastic_bottles":"yes","recycling_type":"container"}},"type":"Feature"},
	{"geometry":{"coordinates":[34.777832,32.101474],"type":"Point"},"properties":{"osm_id":"1747121186","tag":{"amenity":"waste_basket"}},"type":"Feature"},
	{"geometry":{"coordinates":[34.792288,32.128871],"type":"Point"},"properties":{"osm_id":"1757673334","tag":{"amenity":"recycling","recycling:plastic_bottles":"yes","recycling_type":"container"}},"type":"Feature"},
	{"geometry":{"coordinates":[34.79229,32.128882],"type":"Point"},"properties":{"osm_id":"1757673335","tag":{"amenity":"recycling","recycling:paper":"yes","recycling_type":"container"}},"type":"Feature"},
	{"geometry":{"coordinates":[34.800745,32.140309],"type":"Point"},"properties":{"osm_id":"1757673383","tag":{"amenity":"waste_basket"}},"type":"Feature"},
	{"geometry":{"coordinates":[34.800779,32.140401],"type":"Point"},"properties":{"osm_id":"1757673385","tag":{"amenity":"waste_basket"}},"type":"Feature"},
	{"geometry":{"coordinates":[34.792628,32.12394],"type":"Point"},"properties":{"osm_id":"1758360050","tag":{"amenity":"recycling","recycling:plastic_bottles":"yes","recycling_type":"container"}},"type":"Feature"},
	{"geometry":{"coordinates":[34.792877,32.125174],"type":"Point"},"properties":{"osm_id":"1758360133","tag":{"amenity":"recycling","recycling:plastic_bottles":"yes","recycling_type":"container"}},"type":"Feature"},
	{"geometry":{"coordinates":[34.803802,32.16998],"type":"Point"},"properties":{"osm_id":"1773906329","tag":{"amenity":"recycling","recycling:plastic_bottles":"yes","recycling_type":"container"}},"type":"Feature"},
	{"geometry":{"coordinates":[34.803826,32.170014],"type":"Point"},"properties":{"osm_id":"1773906330","tag":{"amenity":"recycling","recycling:paper":"yes","recycling_type":"container"}},"type":"Feature"},
	{"geometry":{"coordinates":[34.803383,32.113984],"type":"Point"},"properties":{"osm_id":"4592132560","tag":{"amenity":"waste_basket"}},"type":"Feature"},
	{"geometry":{"coordinates":[34.80121,32.116442],"type":"Point"},"properties":{"osm_id":"6024574391","tag":{"amenity":"waste_basket","waste":"trash"}},"type":"Feature"},
	{"geometry":{"coordinates":[34.792803,32.101452],"type":"Point"},"properties":{"osm_id":"6024604926","tag":{"amenity":"waste_basket","waste":"trash"}},"type":"Feature"},
	{"geometry":{"coordinates":[34.792776,32.101587],"type":"Point"},"properties":{"osm_id":"6024604927","tag":{"amenity":"waste_basket","waste":"trash"}},"type":"Feature"},
	{"geometry":{"coordinates":[34.792366,32.133499],"type":"Point"},"properties":{"osm_id":"6025074601","tag":{"amenity":"waste_basket","waste":"trash"}},"type":"Feature"},
	{"geometry":{"coordinates":[34.793991,32.109181],"type":"Point"},"properties":{"osm_id":"6507169369","tag":{"amenity":"recycling","recycling:paper":"yes","recycling:plastic":"yes","recycling:plastic_bottles":"yes","recycling:plastic_packaging":"yes","recycling_type":"container"}},"type":"Feature"},
	{"geometry":{"coordinates":[34.794059,32.106726],"type":"Point"},"properties":{"osm_id":"6507169381","tag":{"amenity":"waste_basket"}},"type":"Feature"},
	{"geometry":{"coordinates":[34.794116,32.106718],"type":"Point"},"properties":{"osm_id":"6507169382","tag":{"amenity":"recycling","recycling:plastic":"yes","recycling:plastic_bottles":"yes","recycling:plastic_packaging":"yes","recycling_type":"container"}},"type":"Feature"},
	{"geometry":{"coordinates":[34.794384,32.106157],"type":"Point"},"properties":{"osm_id":"6507169384","tag":{"amenity":"recycling","recycling:plastic":"yes","recycling:plastic_bottles":"yes","recycling:plastic_packaging":"yes","recycling_type":"container"}},"type":"Feature"},
	{"geometry":{"coordinates":[34.793414,32.107121],"type":"Point"},"properties":{"osm_id":"6507185288","tag":{"amenity":"recycling","recycling:plastic":"yes","recycling:plastic_bottles":"yes","recycling:plastic_packaging":"yes","recycling_type":"container"}},"type":"Feature"},
	{"geometry":{"coordinates":[34.793288,32.10779],"type":"Point"},"properties":{"osm_id":"6507185289","tag":{"amenity":"recycling","recycling:paper":"yes","recycling:plastic":"yes","recycling:plastic_bottles":"yes","recycling:plastic_packaging":"yes","recycling_type":"container"}},"type":"Feature"},
	{"geometry":{"coordinates":[34.797684,32.113173],"type":"Point"},"properties":{"osm_id":"6927292534","tag":{"amenity":"recycling","recycling:plastic_bottles":"yes","recycling_type":"container"}},"type":"Feature"},
	{"geometry":{"coordinates":[34.803381,32.113396],"type":"Point"},"properties":{"osm_id":"7019057509","tag":{"amenity":"waste_disposal"}},"type":"Feature"},
	{"geometry":{"coordinates":[34.802451,32.113284],"type":"Point"},"properties":{"osm_id":"7026162825","tag":{"amenity":"waste_basket"}},"type":"Feature"},
	{"geometry":{"coordinates":[34.804237,32.117913],"type":"Point"},"properties":{"osm_id":"7028569245","tag":{"amenity":"waste_basket"}},"type":"Feature"},
	{"geometry":{"coordinates":[34.804201,32.113211],"type":"Point"},"properties":{"osm_id":"7037699238","tag":{"amenity":"waste_basket","waste":"trash"}},"type":"Feature"},
	{"geometry":{"coordinates":[34.804093,32.113491],"type":"Point"},"properties":{"osm_id":"7037718372","tag":{"amenity":"waste_basket"}},"type":"Feature"},
	{"geometry":{"coordinates":[34.803984,32.113814],"type":"Point"},"properties":{"osm_id":"7037733258","tag":{"amenity":"waste_basket"}},"type":"Feature"},
	{"geometry":{"coordinates":[34.804326,32.113607],"type":"Point"},"properties":{"osm_id":"7037738796","tag":{"amenity":"waste_basket"}},"type":"Feature"},
	{"geometry":{"coordinates":[34.804098,32.114273],"type":"Point"},"properties":{"osm_id":"7037743001","tag":{"amenity":"waste_basket"}},"type":"Feature"},
	{"geometry":{"coordinates":[34.804127,32.113603],"type":"Point"},"properties":{"osm_id":"7037745787","tag":{"amenity":"waste_basket"}},"type":"Feature"},
	{"geometry":{"coordinates":[34.804217,32.113586],"type":"Point"},"properties":{"osm_id":"7037745788","tag":{"amenity":"waste_basket"}},"type":"Feature"},
	{"geometry":{"coordinates":[34.804101,32.114782],"type":"Point"},"properties":{"osm_id":"7037758297","tag":{"amenity":"waste_basket"}},"type":"Feature"},
	{"geometry":{"coordinates":[34.800806,32.112945],"type":"Point"},"properties":{"osm_id":"7052176748","tag":{"amenity":"waste_basket","waste":"trash"}},"type":"Feature"},
	{"geometry":{"coordinates":[34.80057,32.11302],"type":"Point"},"properties":{"osm_id":"7052176763","tag":{"amenity":"waste_disposal","recycling_type":"plastic bottles"}},"type":"Feature"},
	{"geometry":{"coordinates":[34.803481,32.11305],"type":"Point"},"properties":{"osm_id":"7057850765","tag":{"amenity":"waste_basket"}},"type":"Feature"},
	{"geometry":{"coordinates":[34.803481,32.113057],"type":"Point"},"properties":{"osm_id":"7128806970","tag":{"amenity":"waste_basket"}},"type":"Feature"},
	{"geometry":{"coordinates":[34.803487,32.11306],"type":"Point"},"properties":{"osm_id":"7128806971","tag":{"amenity":"waste_basket"}},"type":"Feature"},
	{"geometry":{"coordinates":[34.803487,32.113055],"type":"Point"},"properties":{"osm_id":"7128806973","tag":{"amenity":"waste_basket"}},"type":"Feature"},
	{"geometry":{"coordinates":[34.8035,32.113108],"type":"Point"},"properties":{"osm_id":"7128806976","tag":{"amenity":"waste_basket"}},"type":"Feature"},
	{"geometry":{"coordinates":[34.803748,32.113108],"type":"Point"},"properties":{"osm_id":"7128806978","tag":{"amenity":"waste_basket"}},"type":"Feature"},
	{"geometry":{"coordinates":[34.803958,32.113157],"type":"Point"},"properties":{"highway":"street_lamp","osm_id":"7128864189","tag":{"amenity":"waste_basket"}},"type":"Feature"},
	{"geometry":{"coordinates":[34.804576,32.113127],"type":"Point"},"properties":{"osm_id":"7128864192","tag":{"amenity":"waste_basket"}},"type":"Feature"},
	{"geometry":{"coordinates":[34.804684,32.111708],"type":"Point"},"properties":{"osm_id":"7137510704","tag":{"amenity":"waste_basket"}},"type":"Feature"},
	{"geometry":{"coordinates":[34.802563,32.111611],"type":"Point"},"properties":{"osm_id":"7137548026","tag":{"amenity":"waste_basket"}},"type":"Feature"},
	{"geometry":{"coordinates":[34.803839,32.112672],"type":"Point"},"properties":{"osm_id":"7142814673","tag":{"amenity":"waste_basket"}},"type":"Feature"},
	{"geometry":{"coordinates":[34.803985,32.113128],"type":"Point"},"properties":{"osm_id":"7404646986","tag":{"amenity":"waste_basket"}},"type":"Feature"},
	{"geometry":{"coordinates":[34.804632,32.113054],"type":"Point"},"properties":{"osm_id":"7415010113","tag":{"amenity":"recycling","colour":"green","recycling_type":"container"}},"type":"Feature"},
	{"geometry":{"coordinates":[34.80265,32.111309],"type":"Point"},"properties":{"osm_id":"7462735147","tag":{"amenity":"waste_basket"}},"type":"Feature"},
	{"geometry":{"coordinates":[34.804637,32.113007],"type":"Point"},"properties":{"osm_id":"7464006625","tag":{"amenity":"waste_basket"}},"type":"Feature"},
	{"geometry":{"coordinates":[34.804461,32.111256],"type":"Point"},"properties":{"osm_id":"7468206482","tag":{"amenity":"waste_basket"}},"type":"Feature"},
	{"geometry":{"coordinates":[34.804635,32.113039],"type":"Point"},"properties":{"osm_id":"7469518028","tag":{"amenity":"waste_basket"}},"type":"Feature"},
	{"geometry":{"coordinates":[34.803049,32.111572],"type":"Point"},"properties":{"osm_id":"7528219181","tag":{"amenity":"waste_basket"}},"type":"Feature"},
	{"geometry":{"coordinates":[34.803178,32.111988],"type":"Point"},"properties":{"osm_id":"7528276688","tag":{"amenity":"waste_basket"}},"type":"Feature"},
	{"geometry":{"coordinates":[34.804588,32.11225],"type":"Point"},"properties":{"osm_id":"7528276691","tag":{"amenity":"waste_basket"}},"type":"Feature"}
]
}
