{
"type": "FeatureCollection",
"features": [
	{"geometry":{"coordinates":[34.770677,32.081408],"type":"Point"},"properties":{"osm_id":"357296952","tag":{"amenity":"recycling","location":"overground","recycling:paper":"yes","recycling:plastic_bottles":"yes","recycling_type":"container"}},"type":"Feature"},
	{"geometry":{"coordinates":[34.77069,32.083084],"type":"Point"},"properties":{"osm_id":"454126720","tag":{"amenity":"recycling","recycling:plastic_bottles":"yes"}},"type":"Feature"},
	{"geometry":{"coordinates":[34.772541,32.083268],"type":"Point"},"properties":{"osm_id":"454925612","tag":{"amenity":"recycling","recycling:plastic_bottles":"yes"}},"type":"Feature"},
	{"geometry":{"coordinates":[34.790457,32.090857],"type":"Point"},"properties":{"osm_id":"469945587","tag":{"amenity":"recycling","recycling:plastic_bottles":"yes"}},"type":"Feature"},
	{"geometry":{"coordinates":[34.802325,32.077914],"type":"Point"},"properties":{"osm_id":"791166681","tag":{"amenity":"recycling","recycling:plastic_bottles":"yes"}},"type":"Feature"},
	{"geometry":{"coordinates":[34.746172,32.033519],"type":"Point"},"properties":{"osm_id":"904998493","tag":{"amenity":"recycling","recycling:plastic_bottles":"yes"}},"type":"Feature"},
	{"geometry":{"coordinates":[34.779772,32.077807],"type":"Point"},"properties":{"osm_id":"1643304616","tag":{"amenity":"recycling","location":"overground","recycling:plastic_bottles":"yes","recycling_type":"container"}},"type":"Feature"},
	{"geometry":{"coordinates":[34.759428,32.028098],"type":"Point"},"properties":{"osm_id":"1716547571","tag":{"amenity":"recycling","recycling:plastic_bottles":"yes","recycling_type":"container"}},"type":"Feature"},
	{"geometry":{"coordinates":[34.759922,32.028541],"type":"Point"},"properties":{"osm_id":"1716547580","tag":{"amenity":"waste_basket"}},"type":"Feature"},
	{"geometry":{"coordinates":[34.751949,32.034127],"type":"Point"},"properties":{"osm_id":"1716547994","tag":{"amenity":"waste_basket"}},"type":"Feature"},
	{"geometry":{"coordinates":[34.75432,32.03595],"type":"Point"},"properties":{"osm_id":"1716548157","tag":{"amenity":"waste_basket"}},"type":"Feature"},
	{"geometry":{"coordinates":[34.751046,32.030715],"type":"Point"},"properties":{"osm_id":"1716729611","tag":{"amenity":"waste_basket"}},"type":"Feature"},
	{"geometry":{"coordinates":[34.741984,32.030864],"type":"Point"},"properties":{"osm_id":"1716729649","tag":{"amenity":"recycling","recycling:plastic_bottles":"yes","recycling_type":"container"}},"type":"Feature"},
	{"geometry":{"coordinates":[34.742378,32.031447],"type":"Point"},"properties":{"osm_id":"1716729848","tag":{"amenity":"waste_basket"}},"type":"Feature"},
	{"geometry":{"coordinates":[34.745323,32.033764],"type":"Point"},"properties":{"osm_id":"1718502652","tag":{"amenity":"recycling","recycling:plastic_bottles":"yes","recycling_type":"container"}},"type":"Feature"},
	{"geometry":{"coordinates":[34.745298,32.03378],"type":"Point"},"properties":{"osm_id":"1718502676","tag":{"amenity":"recycling","recycling:paper":"yes","recycling_type":"container"}},"type":"Feature"},
	{"geometry":{"coordinates":[34.746715,32.041739],"type":"Point"},"properties":{"osm_id":"1718632890","tag":{"amenity":"recycling","recycling_type":"container"}},"type":"Feature"},
	{"geometry":{"coordinates":[34.74625,32.042154],"type":"Point"},"properties":{"osm_id":"1718632908","tag":{"amenity":"waste_basket"}},"type":"Feature"},
	{"geometry":{"coordinates":[34.745612,32.042388],"type":"Point"},"properties":{"osm_id":"1718632911","tag":{"amenity":"waste_basket"}},"type":"Feature"},
	{"geometry":{"coordinates":[34.746095,32.043024],"type":"Point"},"properties":{"osm_id":"1718632927","tag":{"amenity":"waste_basket"}},"type":"Feature"},
	{"geometry":{"coordinates":[34.746348,32.043512],"type":"Point"},"properties":{"osm_id":"1718632940","tag":{"amenity":"waste_basket"}},"type":"Feature"},
	{"geometry":{"coordinates":[34.746353,32.043668],"type":"Point"},"properties":{"osm_id":"1718632949","tag":{"amenity":"waste_basket"}},"type":"Feature"},
	{"geometry":{"coordinates":[34.746795,32.046003],"type":"Point"},"properties":{"osm_id":"1718632962","tag":{"amenity":"waste_basket"}},"type":"Feature"},
	{"geometry":{"coordinates":[34.74659,32.046286],"type":"Point"},"properties":{"osm_id":"1718632988","tag":{"amenity":"waste_basket"}},"type":"Feature"},
	{"geometry":{"coordinates":[34.764768,32.028794],"type":"Point"},"properties":{"osm_id":"1722207499","tag":{"amenity":"recycling","recycling:plastic_bottles":"yes","recycling_type":"container"}},"type":"Feature"},
	{"geometry":{"coordinates":[34.76198,32.028948],"type":"Point"},"properties":{"osm_id":"1722207516","tag":{"amenity":"recycling","recycling:plastic_bottles":"yes","recycling_type":"container"}},"type":"Feature"},
	{"geometry":{"coordinates":[34.755856,32.056253],"type":"Point"},"properties":{"osm_id":"1724608478","tag":{"amenity":"waste_basket"}},"type":"Feature"},
	{"geometry":{"coordinates":[34.755954,32.056336],"type":"Point"},"properties":{"osm_id":"1724608480","tag":{"amenity":"waste_basket"}},"type":"Feature"},
	{"geometry":{"coordinates":[34.756078,32.056436],"type":"Point"},"properties":{"osm_id":"1724608484","tag":{"amenity":"waste_basket"}},"type":"Feature"},
	{"geometry":{"coordinates":[34.75866,32.058342],"type":"Point"},"properties":{"osm_id":"1724608509","tag":{"amenity":"recycling","recycling:plastic_bottles":"yes","recycling_type":"container"}},"type":"Feature"},
	{"geometry":{"coordinates":[34.758002,32.058469],"type":"Point"},"properties":{"osm_id":"1724608514","tag":{"amenity":"waste_basket"}},"type":"Feature"},
	{"geometry":{"coordinates":[34.804391,32.090532],"type":"Point"},"properties":{"osm_id":"3156300745","tag":{"amenity":"waste_basket"}},"type":"Feature"},
	{"geometry":{"coordinates":[34.784107,32.08473],"type":"Point"},"properties":{"name":"Bottle Recycling bin","osm_id":"4224701789","tag":{"addr:city":"\u00d7\u00aa\u00d7\u009c \u00d7\u0090\u00d7\u0091\u00d7\u0099\u00d7\u0091","addr:housenumber":"122","addr:street":"\u00d7\u0090\u00d7\u00a8\u00d7\u009c\u00d7\u0095\u00d7\u0096\u00d7\u0095\u00d7\u00a8\u00d7\u0095\u00d7\u0091","amenity":"recycling","name:en":"Bottle Recycling bin","recycling:plastic_bottles":"yes"}},"type":"Feature"},
	{"geometry":{"coordinates":[34.793794,32.069772],"type":"Point"},"properties":{"name":"Bottle recycling bin","osm_id":"4228586464","tag":{"amenity":"recycling","name:en":"Bottle recycling bin","recycling:batteries":"yes","recycling:plastic_bottles":"yes"}},"type":"Feature"},
	{"geometry":{"coordinates":[34.782514,32.085065],"type":"Point"},"properties":{"name":"Bottle recycling bin","osm_id":"4368623067","tag":{"amenity":"recycling","name:en":"Bottle recycling bin","recycling:batteries":"yes","recycling:plastic_bottles":"yes"}},"type":"Feature"},
	{"geometry":{"coordinates":[34.782207,32.085062],"type":"Point"},"properties":{"name":"clothing recycling bin","osm_id":"4368626143","tag":{"amenity":"recycling","name:en":"clothing recycling bin","recycling:clothes":"yes"}},"type":"Feature"},
	{"geometry":{"coordinates":[34.782025,32.073397],"type":"Point"},"properties":{"osm_id":"4587267118","tag":{"amenity":"recycling","recycling:clothes":"yes","recycling_type":"container"}},"type":"Feature"},
	{"geometry":{"coordinates":[34.770343,32.069603],"type":"Point"},"properties":{"osm_id":"4589543174","tag":{"amenity":"waste_basket"}},"type":"Feature"},
	{"geometry":{"coordinates":[34.776585,32.071611],"type":"Point"},"properties":{"osm_id":"4589543187","tag":{"amenity":"waste_basket"}},"type":"Feature"},
	{"geometry":{"coordinates":[34.780368,32.070193],"type":"Point"},"properties":{"osm_id":"4730188889","tag":{"amenity":"recycling","location":"overground","recycling:plastic_bottles":"yes","recycling_type":"container"}},"type":"Feature"},
	{"geometry":{"coordinates":[34.799761,32.085066],"type":"Point"},"properties":{"osm_id":"5171668471","tag":{"amenity":"waste_basket"}},"type":"Feature"},
	{"geometry":{"coordinates":[34.798482,32.085269],"type":"Point"},"properties":{"osm_id":"5171668473","tag":{"amenity":"waste_basket"}},"type":"Feature"},
	{"geometry":{"coordinates":[34.795613,32.085532],"type":"Point"},"properties":{"osm_id":"5171668474","tag":{"amenity":"waste_basket"}},"type":"Feature"},
	{"geometry":{"coordinates":[34.795526,32.085908],"type":"Point"},"properties":{"osm_id":"5171668476","tag":{"amenity":"waste_basket"}},"type":"Feature"},
	{"geometry":{"coordinates":[34.795624,32.086322],"type":"Point"},"properties":{"osm_id":"5171668478","tag":{"amenity":"waste_basket"}},"type":"Feature"},
	{"geometry":{"coordinates":[34.795698,32.086698],"type":"Point"},"properties":{"osm_id":"5171668484","tag":{"amenity":"waste_basket"}},"type":"Feature"},
	{"geometry":{"coordinates":[34.795766,32.086946],"type":"Point"},"properties":{"osm_id":"5171668486","tag":{"amenity":"waste_basket"}},"type":"Feature"},
	{"geometry":{"coordinates":[34.795812,32.087324],"type":"Point"},"properties":{"osm_id":"5171668488","tag":{"amenity":"waste_basket"}},"type":"Feature"},
	{"geometry":{"coordinates":[34.794723,32.061128],"type":"Point"},"properties":{"osm_id":"5595708459","tag":{"amenity":"recycling","location":"overground","recycling_type":"container"}},"type":"Feature"},
	{"geometry":{"coordinates":[34.772189,32.061786],"type":"Point"},"properties":{"osm_id":"5595708460","tag":{"amenity":"recycling","recycling:cans":"yes","recycling:plastic":"yes","recycling_type":"container"}},"type":"Feature"},
	{"geometry":{"coordinates":[34.79078,32.060108],"type":"Point"},"properties":{"osm_id":"5595708461","tag":{"amenity":"recycling","location":"overground","recycling_type":"container"}},"type":"Feature"},
	{"geometry":{"coordinates":[34.777484,32.062693],"type":"Point"},"properties":{"osm_id":"5597770091","tag":{"amenity":"recycling","recycling:batteries":"yes","recycling:plastic":"no","recycling:plastic_bottles":"yes","recycling:plastic_packaging":"no","recycling_type":"container"}},"type":"Feature"},
	{"geometry":{"coordinates":[34.794736,32.061754],"type":"Point"},"properties":{"osm_id":"5599595131","tag":{"amenity":"recycling","recycling:batteries":"yes","recycling:plastic":"yes","recycling:plastic_bottles":"yes","recycling_type":"container"}},"type":"Feature"},
	{"geometry":{"coordinates":[34.794777,32.063078],"type":"Point"},"properties":{"osm_id":"5599595132","tag":{"amenity":"recycling","recycling:batteries":"yes","recycling:glass_bottles":"yes","recycling:plastic_bottles":"yes","recycling_type":"container"}},"type":"Feature"},
	{"geometry":{"coordinates":[34.794153,32.066816],"type":"Point"},"properties":{"osm_id":"5599608013","tag":{"amenity":"recycling","recycling:batteries":"yes","recycling:plastic":"yes","recycling:plastic_bottles":"yes","recycling_type":"container"}},"type":"Feature"},
	{"geometry":{"coordinates":[34.794438,32.061408],"type":"Point"},"properties":{"osm_id":"5604637270","tag":{"amenity":"waste_basket","wheelchair":"yes"}},"type":"Feature"},
	{"geometry":{"coordinates":[34.794494,32.060955],"type":"Point"},"properties":{"osm_id":"5604641545","tag":{"amenity":"waste_basket"}},"type":"Feature"},
	{"geometry":{"coordinates":[34.794973,32.060884],"type":"Point"},"properties":{"osm_id":"5604641546","tag":{"amenity":"waste_basket"}},"type":"Feature"},
	{"geometry":{"coordinates":[34.785797,32.059445],"type":"Point"},"properties":{"osm_id":"5606097610","tag":{"amenity":"waste_basket"}},"type":"Feature"},
	{"geometry":{"coordinates":[34.783839,32.05944],"type":"Point"},"properties":{"osm_id":"5606107281","tag":{"amenity":"waste_basket"}},"type":"Feature"},
	{"geometry":{"coordinates":[34.787302,32.059618],"type":"Point"},"properties":{"osm_id":"5639963683","tag":{"amenity":"waste_basket"}},"type":"Feature"},
	{"geometry":{"coordinates":[34.788505,32.060211],"type":"Point"},"properties":{"osm_id":"5639971846","tag":{"amenity":"waste_basket"}},"type":"Feature"},
	{"geometry":{"coordinates":[34.788378,32.060226],"type":"Point"},"properties":{"osm_id":"5639971848","tag":{"amenity":"waste_basket"}},"type":"Feature"},
	{"geometry":{"coordinates":[34.789199,32.060159],"type":"Point"},"properties":{"osm_id":"5639971852","tag":{"amenity":"waste_basket"}},"type":"Feature"},
	{"geometry":{"coordinates":[34.788654,32.060169],"type":"Point"},"properties":{"osm_id":"5639971853","tag":{"amenity":"waste_basket"}},"type":"Feature"},
	{"geometry":{"coordinates":[34.786469,32.059448],"type":"Point"},"properties":{"osm_id":"5639973160","tag":{"amenity":"waste_basket"}},"type":"Feature"},
	{"geometry":{"coordinates":[34.786116,32.059441],"type":"Point"},"properties":{"osm_id":"5639979834","tag":{"amenity":"waste_basket"}},"type":"Feature"},
	{"geometry":{"coordinates":[34.770485,32.072117],"type":"Point"},"properties":{"osm_id":"5691133919","tag":{"amenity":"waste_basket","waste":"trash"}},"type":"Feature"},
	{"geometry":{"coordinates":[34.763794,32.065365],"type":"Point"},"properties":{"osm_id":"5773163082","tag":{"amenity":"waste_basket"}},"type":"Feature"},
	{"geometry":{"coordinates":[34.784322,32.095994],"type":"Point"},"properties":{"osm_id":"6024881855","tag":{"amenity":"waste_basket","waste":"trash"}},"type":"Feature"},
	{"geometry":{"coordinates":[34.783437,32.074439],"type":"Point"},"properties":{"osm_id":"6050892581","tag":{"amenity":"recycling","recycling:plastic_bottles":"yes","recycling_type":"container"}},"type":"Feature"},
	{"geometry":{"coordinates":[34.74895,32.049958],"type":"Point"},"properties":{"osm_id":"6153217708","tag":{"amenity":"waste_basket","waste":"trash"}},"type":"Feature"},
	{"geometry":{"coordinates":[34.772473,32.06675],"type":"Point"},"properties":{"osm_id":"6153617183","tag":{"amenity":"waste_basket","waste":"trash"}},"type":"Feature"},
	{"geometry":{"coordinates":[34.7751,32.066892],"type":"Point"},"properties":{"osm_id":"6153617593","tag":{"amenity":"recycling","recycling:plastic":"yes","recycling:plastic_bottles":"yes","recycling:plastic_packaging":"yes","recycling_type":"container"}},"type":"Feature"},
	{"geometry":{"coordinates":[34.775941,32.069456],"type":"Point"},"properties":{"osm_id":"6153617604","tag":{"amenity":"waste_basket","waste":"trash"}},"type":"Feature"},
	{"geometry":{"coordinates":[34.776224,32.070646],"type":"Point"},"properties":{"osm_id":"6153617607","tag":{"amenity":"recycling","recycling:plastic":"yes","recycling:plastic_bottles":"yes","recycling:plastic_packaging":"yes","recycling_type":"container"}},"type":"Feature"},
	{"geometry":{"coordinates":[34.776353,32.070721],"type":"Point"},"properties":{"osm_id":"6153617612","tag":{"amenity":"waste_basket","waste":"trash"}},"type":"Feature"},
	{"geometry":{"coordinates":[34.777042,32.072992],"type":"Point"},"properties":{"osm_id":"6153617621","tag":{"amenity":"recycling","recycling:plastic":"yes","recycling:plastic_bottles":"yes","recycling:plastic_packaging":"yes","recycling_type":"container"}},"type":"Feature"},
	{"geometry":{"coordinates":[34.776557,32.054558],"type":"Point"},"properties":{"osm_id":"6160027240","tag":{"amenity":"recycling","recycling:plastic":"yes","recycling:plastic_bottles":"yes","recycling:plastic_packaging":"yes","recycling_type":"container"}},"type":"Feature"},
	{"geometry":{"coordinates":[34.780067,32.063355],"type":"Point"},"properties":{"osm_id":"6169966352","tag":{"amenity":"waste_basket","waste":"trash"}},"type":"Feature"},
	{"geometry":{"coordinates":[34.779848,32.063231],"type":"Point"},"properties":{"osm_id":"6169966353","tag":{"amenity":"waste_basket","waste":"trash"}},"type":"Feature"},
	{"geometry":{"coordinates":[34.780839,32.063696],"type":"Point"},"properties":{"osm_id":"6169966356","tag":{"amenity":"recycling","recycling:plastic":"yes","recycling:plastic_bottles":"yes","recycling:plastic_packaging":"yes","recycling_type":"container"}},"type":"Feature"},
	{"geometry":{"coordinates":[34.780867,32.064329],"type":"Point"},"properties":{"osm_id":"6169966357","tag":{"amenity":"waste_basket","waste":"trash"}},"type":"Feature"},
	{"geometry":{"coordinates":[34.778974,32.066357],"type":"Point"},"properties":{"osm_id":"6169982263","tag":{"amenity":"recycling","recycling:plastic":"yes","recycling:plastic_bottles":"yes","recycling:plastic_packaging":"yes","recycling_type":"container"}},"type":"Feature"},
	{"geometry":{"coordinates":[34.772734,32.063858],"type":"Point"},"properties":{"osm_id":"6169993785","tag":{"amenity":"waste_basket","waste":"trash"}},"type":"Feature"},
	{"geometry":{"coordinates":[34.772766,32.063766],"type":"Point"},"properties":{"osm_id":"6169993791","tag":{"amenity":"waste_basket","waste":"trash"}},"type":"Feature"},
	{"geometry":{"coordinates":[34.772789,32.06404],"type":"Point"},"properties":{"osm_id":"6169994123","tag":{"amenity":"waste_basket","waste":"trash"}},"type":"Feature"},
	{"geometry":{"coordinates":[34.795807,32.070459],"type":"Point"},"properties":{"osm_id":"6363041427","tag":{"amenity":"recycling","recycling:plastic":"yes","recycling:plastic_bottles":"yes","recycling:plastic_packaging":"yes","recycling_type":"container"}},"type":"Feature"},
	{"geometry":{"coordinates":[34.795382,32.069826],"type":"Point"},"properties":{"osm_id":"6363050279","tag":{"amenity":"waste_basket","waste":"trash"}},"type":"Feature"},
	{"geometry":{"coordinates":[34.794957,32.068756],"type":"Point"},"properties":{"osm_id":"6363063565","tag":{"amenity":"waste_basket","waste":"trash"}},"type":"Feature"},
	{"geometry":{"coordinates":[34.784395,32.047857],"type":"Point"},"properties":{"osm_id":"6455486624","tag":{"amenity":"waste_basket","waste":"trash"}},"type":"Feature"},
	{"geometry":{"coordinates":[34.794105,32.081553],"type":"Point"},"properties":{"osm_id":"6456356685","tag":{"amenity":"waste_basket","waste":"trash"}},"type":"Feature"},
	{"geometry":{"coordinates":[34.774045,32.078162],"type":"Point"},"properties":{"osm_id":"6689078217","tag":{"amenity":"waste_basket","waste":"trash"}},"type":"Feature"},
	{"geometry":{"coordinates":[34.772946,32.067883],"type":"Point"},"properties":{"osm_id":"6735312699","tag":{"amenity":"waste_basket","waste":"trash"}},"type":"Feature"},
	{"geometry":{"coordinates":[34.779123,32.07083],"type":"Point"},"properties":{"osm_id":"6801850950","tag":{"amenity":"recycling","recycling:plastic":"yes","recycling:plastic_bottles":"yes","recycling:plastic_packaging":"yes","recycling_type":"container"}},"type":"Feature"},
	{"geometry":{"coordinates":[34.775894,32.068869],"type":"Point"},"properties":{"osm_id":"6802144583","tag":{"amenity":"waste_basket","waste":"trash"}},"type":"Feature"},
	{"geometry":{"coordinates":[34.776177,32.070046],"type":"Point"},"properties":{"osm_id":"6802214624","tag":{"amenity":"waste_basket","waste":"trash"}},"type":"Feature"},
	{"geometry":{"coordinates":[34.776459,32.071471],"type":"Point"},"properties":{"osm_id":"6802253852","tag":{"amenity":"recycling","recycling:plastic":"yes","recycling:plastic_bottles":"yes","recycling:plastic_packaging":"yes","recycling_type":"container"}},"type":"Feature"},
	{"geometry":{"coordinates":[34.77368,32.081364],"type":"Point"},"properties":{"osm_id":"6802325800","tag":{"amenity":"waste_basket","waste":"trash"}},"type":"Feature"},
	{"geometry":{"coordinates":[34.774192,32.084397],"type":"Point"},"properties":{"osm_id":"6802327340","tag":{"amenity":"waste_basket","waste":"trash"}},"type":"Feature"},
	{"geometry":{"coordinates":[34.774864,32.090339],"type":"Point"},"properties":{"osm_id":"6802385876","tag":{"amenity":"waste_basket","waste":"trash"}},"type":"Feature"},
	{"geometry":{"coordinates":[34.775437,32.089372],"type":"Point"},"properties":{"osm_id":"6802545623","tag":{"amenity":"waste_basket","waste":"trash"}},"type":"Feature"},
	{"geometry":{"coordinates":[34.777561,32.089033],"type":"Point"},"properties":{"osm_id":"6802561831","tag":{"amenity":"waste_basket","waste":"trash"}},"type":"Feature"},
	{"geometry":{"coordinates":[34.784048,32.087732],"type":"Point"},"properties":{"osm_id":"6802588768","tag":{"amenity":"recycling","recycling:plastic":"yes","recycling:plastic_bottles":"yes","recycling:plastic_packaging":"yes","recycling_type":"container"}},"type":"Feature"},
	{"geometry":{"coordinates":[34.770861,32.056792],"type":"Point"},"properties":{"osm_id":"6977476638","tag":{"amenity":"waste_basket","waste":"trash"}},"type":"Feature"},
	{"geometry":{"coordinates":[34.781781,32.071249],"type":"Point"},"properties":{"osm_id":"7037858222","tag":{"amenity":"waste_basket","waste":"trash"}},"type":"Feature"},
	{"geometry":{"coordinates":[34.777922,32.067857],"type":"Point"},"properties":{"osm_id":"7037885302","tag":{"amenity":"waste_basket","waste":"trash"}},"type":"Feature"},
	{"geometry":{"coordinates":[34.79017,32.070007],"type":"Point"},"properties":{"osm_id":"7248297343","tag":{"amenity":"waste_basket"}},"type":"Feature"},
	{"geometry":{"coordinates":[34.782215,32.084349],"type":"Point"},"properties":{"osm_id":"7473993300","tag":{"amenity":"recycling","recycling:plastic_bottles":"yes","recycling_type":"container"}},"type":"Feature"},
	{"geometry":{"coordinates":[34.745639,32.037956],"type":"Point"},"properties":{"osm_id":"7859197443","tag":{"amenity":"waste_basket"}},"type":"Feature"}
]
}
