{
"type": "FeatureCollection",
"features": [
	{"geometry":{"coordinates":[43.462922,56.250986],"type":"Point"},"properties":{"osm_id":"870478966","tag":{"amenity":"recycling","recycling:glass":"yes","recycling:paper":"yes"}},"type":"Feature"},
	{"geometry":{"coordinates":[43.447582,56.248225],"type":"Point"},"properties":{"osm_id":"2060281587","tag":{"amenity":"waste_disposal"}},"type":"Feature"},
	{"geometry":{"coordinates":[43.450281,56.248262],"type":"Point"},"properties":{"osm_id":"2060281603","tag":{"amenity":"waste_disposal"}},"type":"Feature"},
	{"geometry":{"coordinates":[43.431278,56.234672],"type":"Point"},"properties":{"osm_id":"3468149271","tag":{"amenity":"waste_disposal"}},"type":"Feature"},
	{"geometry":{"coordinates":[43.43098,56.236406],"type":"Point"},"properties":{"osm_id":"3566610334","tag":{"amenity":"waste_disposal"}},"type":"Feature"},
	{"geometry":{"coordinates":[43.431537,56.237751],"type":"Point"},"properties":{"osm_id":"3566610335","tag":{"amenity":"waste_disposal"}},"type":"Feature"},
	{"geometry":{"coordinates":[43.437914,56.23697],"type":"Point"},"properties":{"osm_id":"4316863789","tag":{"amenity":"waste_disposal"}},"type":"Feature"},
	{"geometry":{"coordinates":[43.463786,56.253969],"type":"Point"},"properties":{"osm_id":"4723059422","tag":{"amenity":"waste_disposal"}},"type":"Feature"},
	{"geometry":{"coordinates":[43.434918,56.247829],"type":"Point"},"properties":{"osm_id":"4740413958","tag":{"amenity":"waste_disposal"}},"type":"Feature"},
	{"geometry":{"coordinates":[43.422538,56.226441],"type":"Point"},"properties":{"osm_id":"6403563361","tag":{"amenity":"waste_disposal"}},"type":"Feature"},
	{"geometry":{"coordinates":[43.481971,56.231613],"type":"Point"},"properties":{"osm_id":"6551803885","tag":{"amenity":"waste_disposal"}},"type":"Feature"},
	{"geometry":{"coordinates":[43.478864,56.2315],"type":"Point"},"properties":{"osm_id":"6551803904","tag":{"amenity":"waste_disposal"}},"type":"Feature"},
	{"geometry":{"coordinates":[43.476695,56.231107],"type":"Point"},"properties":{"osm_id":"6551803905","tag":{"amenity":"waste_disposal"}},"type":"Feature"},
	{"geometry":{"coordinates":[43.470404,56.229093],"type":"Point"},"properties":{"osm_id":"6551803909","tag":{"amenity":"waste_disposal"}},"type":"Feature"},
	{"geometry":{"coordinates":[43.449855,56.24126],"type":"Point"},"properties":{"osm_id":"7556291937","tag":{"amenity":"waste_disposal","waste":"trash;mixed"}},"type":"Feature"},
	{"geometry":{"coordinates":[43.449991,56.241652],"type":"Point"},"properties":{"osm_id":"7570222393","tag":{"access":"private","amenity":"waste_disposal","waste":"trash;organic"}},"type":"Feature"},
	{"geometry":{"coordinates":[43.450982,56.240305],"type":"Point"},"properties":{"osm_id":"7570222394","tag":{"amenity":"waste_basket","colour":"black","material":"metal","waste":"trash"}},"type":"Feature"},
	{"geometry":{"coordinates":[43.45056,56.240375],"type":"Point"},"properties":{"osm_id":"7570222399","tag":{"amenity":"waste_basket","colour":"black","material":"metal","waste":"trash"}},"type":"Feature"},
	{"geometry":{"coordinates":[43.447852,56.242015],"type":"Point"},"properties":{"osm_id":"7570222456","tag":{"amenity":"waste_disposal"}},"type":"Feature"}
]
}
