{
"type": "FeatureCollection",
"features": [
	{"geometry":{"coordinates":[135.23479,34.728452],"type":"Point"},"properties":{"osm_id":"1924466630","tag":{"amenity":"waste_basket"}},"type":"Feature"},
	{"geometry":{"coordinates":[135.233832,34.727759],"type":"Point"},"properties":{"osm_id":"1924466632","tag":{"amenity":"waste_basket"}},"type":"Feature"},
	{"geometry":{"coordinates":[135.235433,34.728743],"type":"Point"},"properties":{"osm_id":"1924466643","tag":{"amenity":"waste_basket"}},"type":"Feature"},
	{"geometry":{"coordinates":[135.233282,34.729333],"type":"Point"},"properties":{"osm_id":"1924466649","tag":{"amenity":"waste_basket"}},"type":"Feature"},
	{"geometry":{"coordinates":[135.187472,34.717216],"type":"Point"},"properties":{"osm_id":"4535363066","tag":{"amenity":"waste_disposal"}},"type":"Feature"},
	{"geometry":{"coordinates":[135.179957,34.716056],"type":"Point"},"properties":{"osm_id":"4535581582","tag":{"amenity":"waste_disposal"}},"type":"Feature"},
	{"geometry":{"coordinates":[135.261086,34.706035],"type":"Point"},"properties":{"name":"\u00e8\u00a5\u00bf\u00e9\u0083\u00a8\u00e3\u0082\u00b5\u00e3\u0083\u00bc\u00e3\u0083\u0093\u00e3\u0082\u00b9 \u00e7\u00a5\u009e\u00e6\u0088\u00b8\u00e5\u00b7\u00a5\u00e5\u00a0\u00b4","osm_id":"6238990085","tag":{"amenity":"recycling"}},"type":"Feature"}
]
}
