{
"type": "FeatureCollection",
"features": [
	{"geometry":{"coordinates":[30.920448,-0.838765],"type":"Point"},"properties":{"name":"waste pit","osm_id":"6285467271","tag":{"addr:block":"Kankingi B.","addr:district":"Isingiro","addr:settlement":"Nakivale","addr:subcamp":"Juru","addr:village":"Village B","addr:zone":"Kankingi","amenity":"waste_disposal","fee":"no","lit":"unlit","operator:type":"community","source:form":"v_4.0.5","waste":"Rubbish"}},"type":"Feature"},
	{"geometry":{"coordinates":[30.900948,-0.838893],"type":"Point"},"properties":{"name":"hazardous waste","osm_id":"6285467276","tag":{"addr:block":"Kakingi E","addr:district":"Isingiro","addr:settlement":"Nakivale","addr:subcamp":"Juru","addr:village":"Village E","addr:zone":"Kankingi","amenity":"waste_disposal","fee":"no","lit":"unlit","operator":"Windle International Uganda","operator:type":"ngo","source:form":"v_4.0.5","waste":"Hazardous Waste"}},"type":"Feature"},
	{"geometry":{"coordinates":[30.882413,-0.84799],"type":"Point"},"properties":{"name":"waste pit","osm_id":"6285468088","tag":{"addr:block":"Ngarama","addr:district":"Isingiro","addr:settlement":"Nakivale","addr:subcamp":"Juru","addr:village":"Village C","addr:zone":"Ngarama","amenity":"waste_disposal","fee":"no","lit":"unlit","operator:type":"community","source:form":"v_4.0.5","waste":"Rubbish"}},"type":"Feature"},
	{"geometry":{"coordinates":[30.928893,-0.821302],"type":"Point"},"properties":{"name":"waste pit","osm_id":"6285468126","tag":{"addr:block":"Juru D","addr:district":"Isingiro","addr:settlement":"Nakivale","addr:subcamp":"Juru","addr:village":"Village D","addr:zone":"Juru","amenity":"waste_disposal","fee":"no","lit":"unlit","operator:type":"community","source:form":"v_4.0.5","waste":"Rubbish"}},"type":"Feature"},
	{"geometry":{"coordinates":[30.928037,-0.82103],"type":"Point"},"properties":{"name":"waste pit","osm_id":"6285468131","tag":{"addr:block":"Juru C","addr:district":"Isingiro","addr:settlement":"Nakivale","addr:subcamp":"Juru","addr:village":"Village C","addr:zone":"Juru","amenity":"waste_disposal","fee":"no","lit":"unlit","operator:type":"community","source:form":"v_4.0.5","waste":"Rubbish"}},"type":"Feature"},
	{"geometry":{"coordinates":[30.920448,-0.838765],"type":"Point"},"properties":{"name":"Recycable","osm_id":"6288605134","tag":{"addr:block":"Kankingi B","addr:district":"Isingiro","addr:settlement":"Nakivale","addr:subcamp":"Juru","addr:village":"Village B","addr:zone":"Kankingi","amenity":"waste_disposal","fee":"no","lit":"lit","monitored":"yes","monitored_by":"Community","operator:type":"community","start_date":"2019-02-01","waste":"Rubbish"}},"type":"Feature"},
	{"geometry":{"coordinates":[30.900948,-0.838893],"type":"Point"},"properties":{"name":"Incinerator","osm_id":"6288605139","tag":{"addr:block":"Kankingi E","addr:district":"Isingiro","addr:settlement":"Nakivale","addr:subcamp":"Juru","addr:village":"Village E","addr:zone":"Kankingi","amenity":"waste_disposal","fee":"no","lit":"lit","monitored":"yes","monitored_by":"Windle International Uganda","operator":"Windle International Uganda","operator:type":"ngo","start_date":"2017-01-01","waste":"Rubbish"}},"type":"Feature"},
	{"geometry":{"coordinates":[30.882413,-0.84799],"type":"Point"},"properties":{"name":"Waste pit","osm_id":"6288605151","tag":{"addr:block":"Ngarama","addr:district":"Isingiro","addr:settlement":"Nakivale","addr:subcamp":"Juru","addr:village":"Village C","addr:zone":"Ngarama","amenity":"waste_disposal","fee":"no","lit":"lit","monitored":"yes","monitored_by":"Pascal","operator:type":"community","start_date":"2016-02-01","waste":"Rubbish"}},"type":"Feature"},
	{"geometry":{"coordinates":[30.928893,-0.821302],"type":"Point"},"properties":{"name":"Recycable","osm_id":"6288608189","tag":{"addr:block":"Juru D","addr:district":"Isingiro","addr:settlement":"Nakivale","addr:subcamp":"Juru","addr:village":"Village D","addr:zone":"Juru","amenity":"waste_disposal","fee":"no","lit":"lit","monitored":"yes","monitored_by":"Community","operator:type":"community","start_date":"2013-03-01","waste":"Rubbish"}},"type":"Feature"},
	{"geometry":{"coordinates":[30.928037,-0.82103],"type":"Point"},"properties":{"name":"Recycable","osm_id":"6288608194","tag":{"addr:block":"Juru C","addr:district":"Isingiro","addr:settlement":"Nakivale","addr:subcamp":"Juru","addr:village":"Village C","addr:zone":"Juru","amenity":"waste_disposal","fee":"no","lit":"lit","monitored":"yes","monitored_by":"Administration","operator:type":"community","start_date":"2019-02-01","waste":"Rubbish"}},"type":"Feature"}
]
}
