{
"type": "FeatureCollection",
"features": [
	{"geometry":{"coordinates":[-7.720122,40.433948],"type":"Point"},"properties":{"name":"Ecocentro Seia","osm_id":"1870578073","tag":{"amenity":"recycling","recycling_type":"container"}},"type":"Feature"},
	{"geometry":{"coordinates":[-7.705429,40.417522],"type":"Point"},"properties":{"osm_id":"6406839557","tag":{"amenity":"recycling"}},"type":"Feature"},
	{"geometry":{"coordinates":[-7.70057,40.420032],"type":"Point"},"properties":{"osm_id":"6406876969","tag":{"amenity":"recycling"}},"type":"Feature"},
	{"geometry":{"coordinates":[-7.703124,40.421958],"type":"Point"},"properties":{"osm_id":"6406900472","tag":{"amenity":"recycling"}},"type":"Feature"},
	{"geometry":{"coordinates":[-7.702186,40.420469],"type":"Point"},"properties":{"osm_id":"6489531260","tag":{"amenity":"recycling"}},"type":"Feature"},
	{"geometry":{"coordinates":[-7.70717,40.416878],"type":"Point"},"properties":{"osm_id":"6489532663","tag":{"amenity":"recycling"}},"type":"Feature"},
	{"geometry":{"coordinates":[-7.706438,40.413295],"type":"Point"},"properties":{"osm_id":"6489534782","tag":{"amenity":"recycling"}},"type":"Feature"},
	{"geometry":{"coordinates":[-7.700815,40.427478],"type":"Point"},"properties":{"osm_id":"6507444509","tag":{"amenity":"recycling"}},"type":"Feature"},
	{"geometry":{"coordinates":[-7.704206,40.428922],"type":"Point"},"properties":{"osm_id":"6507455240","tag":{"amenity":"recycling"}},"type":"Feature"},
	{"geometry":{"coordinates":[-7.708405,40.417846],"type":"Point"},"properties":{"osm_id":"6527629057","tag":{"amenity":"recycling"}},"type":"Feature"},
	{"geometry":{"coordinates":[-7.704239,40.420157],"type":"Point"},"properties":{"osm_id":"7692382729","tag":{"amenity":"recycling","recycling_type":"underfloor-container"}},"type":"Feature"}
]
}
