{
"type": "FeatureCollection",
"features": [
	{"geometry":{"coordinates":[20.221668,63.840365],"type":"Point"},"properties":{"osm_id":"1301033146","tag":{"amenity":"recycling","recycling:batteries":"yes","recycling:cans":"yes","recycling:clothes":"yes","recycling:paper":"yes"}},"type":"Feature"},
	{"geometry":{"coordinates":[20.302689,63.822967],"type":"Point"},"properties":{"osm_id":"1501047717","tag":{"amenity":"recycling","location":"overground","recycling:clothes":"yes","recycling_type":"container"}},"type":"Feature"},
	{"geometry":{"coordinates":[20.233904,63.836734],"type":"Point"},"properties":{"osm_id":"1544328257","tag":{"amenity":"recycling"}},"type":"Feature"},
	{"geometry":{"coordinates":[20.23282,63.834373],"type":"Point"},"properties":{"osm_id":"1925677817","tag":{"amenity":"recycling","recycling_type":"container"}},"type":"Feature"},
	{"geometry":{"coordinates":[20.268351,63.829962],"type":"Point"},"properties":{"osm_id":"3688283727","tag":{"amenity":"waste_basket"}},"type":"Feature"},
	{"geometry":{"coordinates":[20.236266,63.82833],"type":"Point"},"properties":{"osm_id":"4096265267","tag":{"amenity":"waste_basket","waste":"dog_excrement"}},"type":"Feature"},
	{"geometry":{"coordinates":[20.26372,63.825751],"type":"Point"},"properties":{"osm_id":"4128019245","tag":{"amenity":"waste_basket"}},"type":"Feature"},
	{"geometry":{"coordinates":[20.26414,63.825644],"type":"Point"},"properties":{"osm_id":"4128019443","tag":{"amenity":"waste_basket"}},"type":"Feature"},
	{"geometry":{"coordinates":[20.257652,63.82527],"type":"Point"},"properties":{"osm_id":"4128363300","tag":{"amenity":"waste_basket"}},"type":"Feature"},
	{"geometry":{"coordinates":[20.257753,63.825378],"type":"Point"},"properties":{"osm_id":"4128363302","tag":{"amenity":"waste_basket"}},"type":"Feature"},
	{"geometry":{"coordinates":[20.247592,63.829504],"type":"Point"},"properties":{"osm_id":"4171806720","tag":{"amenity":"waste_basket"}},"type":"Feature"},
	{"geometry":{"coordinates":[20.237949,63.827429],"type":"Point"},"properties":{"osm_id":"4171811778","tag":{"amenity":"waste_basket"}},"type":"Feature"},
	{"geometry":{"coordinates":[20.237994,63.827419],"type":"Point"},"properties":{"osm_id":"4171811779","tag":{"amenity":"waste_basket"}},"type":"Feature"},
	{"geometry":{"coordinates":[20.268294,63.824853],"type":"Point"},"properties":{"osm_id":"4189393935","tag":{"amenity":"waste_basket"}},"type":"Feature"},
	{"geometry":{"coordinates":[20.263561,63.823512],"type":"Point"},"properties":{"osm_id":"4208928791","tag":{"amenity":"waste_basket"}},"type":"Feature"},
	{"geometry":{"coordinates":[20.2973,63.823412],"type":"Point"},"properties":{"osm_id":"4274052984","tag":{"amenity":"waste_basket"}},"type":"Feature"},
	{"geometry":{"coordinates":[20.22896,63.834504],"type":"Point"},"properties":{"osm_id":"4307293232","tag":{"amenity":"waste_basket"}},"type":"Feature"},
	{"geometry":{"coordinates":[20.26173,63.824178],"type":"Point"},"properties":{"osm_id":"4342747467","tag":{"amenity":"waste_basket"}},"type":"Feature"},
	{"geometry":{"coordinates":[20.261897,63.824146],"type":"Point"},"properties":{"osm_id":"4342747469","tag":{"amenity":"waste_basket"}},"type":"Feature"},
	{"geometry":{"coordinates":[20.261797,63.823951],"type":"Point"},"properties":{"osm_id":"4342765090","tag":{"amenity":"waste_basket"}},"type":"Feature"},
	{"geometry":{"coordinates":[20.261513,63.823996],"type":"Point"},"properties":{"osm_id":"4342766594","tag":{"amenity":"waste_basket"}},"type":"Feature"},
	{"geometry":{"coordinates":[20.261035,63.824006],"type":"Point"},"properties":{"osm_id":"4342766601","tag":{"amenity":"waste_basket"}},"type":"Feature"},
	{"geometry":{"coordinates":[20.261792,63.823881],"type":"Point"},"properties":{"osm_id":"4342767770","tag":{"amenity":"waste_basket"}},"type":"Feature"},
	{"geometry":{"coordinates":[20.217649,63.833691],"type":"Point"},"properties":{"osm_id":"4351683608","tag":{"amenity":"waste_disposal","dumpster_diving":"yes"}},"type":"Feature"},
	{"geometry":{"coordinates":[20.263725,63.825749],"type":"Point"},"properties":{"osm_id":"4443383234","tag":{"amenity":"recycling","recycling:cans":"yes","recycling:glass":"yes","recycling:glass_bottles":"yes","recycling_type":"container"}},"type":"Feature"},
	{"geometry":{"coordinates":[20.262336,63.82456],"type":"Point"},"properties":{"osm_id":"4458992491","tag":{"amenity":"waste_basket"}},"type":"Feature"},
	{"geometry":{"coordinates":[20.26201,63.824618],"type":"Point"},"properties":{"osm_id":"4458992492","tag":{"amenity":"waste_basket"}},"type":"Feature"},
	{"geometry":{"coordinates":[20.262728,63.824107],"type":"Point"},"properties":{"osm_id":"4488622887","tag":{"amenity":"waste_basket"}},"type":"Feature"},
	{"geometry":{"coordinates":[20.260826,63.824131],"type":"Point"},"properties":{"osm_id":"4510382582","tag":{"amenity":"waste_basket"}},"type":"Feature"},
	{"geometry":{"coordinates":[20.262505,63.823862],"type":"Point"},"properties":{"osm_id":"4510382793","tag":{"amenity":"waste_basket"}},"type":"Feature"},
	{"geometry":{"coordinates":[20.267718,63.827971],"type":"Point"},"properties":{"osm_id":"4546541754","tag":{"amenity":"waste_basket"}},"type":"Feature"},
	{"geometry":{"coordinates":[20.268293,63.827006],"type":"Point"},"properties":{"osm_id":"4563434947","tag":{"amenity":"recycling","recycling:batteries":"yes","recycling:cds":"yes","recycling:electrical_appliances":"yes","recycling:low_energy_bulbs":"yes","recycling:mobile_phones":"yes","recycling:organic":"no","recycling:rubble":"no","recycling:small_electrical_appliances":"yes","recycling_type":"container"}},"type":"Feature"},
	{"geometry":{"coordinates":[20.28701,63.824079],"type":"Point"},"properties":{"osm_id":"4599947863","tag":{"amenity":"waste_basket","waste":"dog_excrement"}},"type":"Feature"},
	{"geometry":{"coordinates":[20.242563,63.83021],"type":"Point"},"properties":{"osm_id":"4621557490","tag":{"amenity":"waste_basket"}},"type":"Feature"},
	{"geometry":{"coordinates":[20.239794,63.830821],"type":"Point"},"properties":{"osm_id":"4621557491","tag":{"amenity":"waste_basket"}},"type":"Feature"},
	{"geometry":{"coordinates":[20.234636,63.831751],"type":"Point"},"properties":{"osm_id":"4621557509","tag":{"amenity":"waste_basket"}},"type":"Feature"},
	{"geometry":{"coordinates":[20.233929,63.831108],"type":"Point"},"properties":{"osm_id":"4621557514","tag":{"amenity":"waste_basket"}},"type":"Feature"},
	{"geometry":{"coordinates":[20.261802,63.826394],"type":"Point"},"properties":{"osm_id":"4743315551","tag":{"access":"private","amenity":"recycling","dumpster_diving":"yes","recycling:waste":"yes","recycling_type":"container"}},"type":"Feature"},
	{"geometry":{"coordinates":[20.256901,63.822193],"type":"Point"},"properties":{"osm_id":"4887658048","tag":{"amenity":"waste_basket"}},"type":"Feature"},
	{"geometry":{"coordinates":[20.248039,63.830509],"type":"Point"},"properties":{"osm_id":"5473353399","tag":{"amenity":"recycling","recycling_type":"container"}},"type":"Feature"},
	{"geometry":{"coordinates":[20.230998,63.822205],"type":"Point"},"properties":{"osm_id":"5709454840","tag":{"amenity":"recycling","recycling:batteries":"yes","recycling:compost":"no","recycling:computers":"yes","recycling:electrical_items":"yes","recycling:light_bulbs":"yes","recycling:mobile_phones":"yes","recycling_type":"container"}},"type":"Feature"},
	{"geometry":{"coordinates":[20.251725,63.825863],"type":"Point"},"properties":{"osm_id":"5754668608","tag":{"amenity":"waste_basket"}},"type":"Feature"},
	{"geometry":{"coordinates":[20.250578,63.826081],"type":"Point"},"properties":{"osm_id":"5754668612","tag":{"amenity":"waste_basket"}},"type":"Feature"},
	{"geometry":{"coordinates":[20.249727,63.826159],"type":"Point"},"properties":{"osm_id":"5754668613","tag":{"amenity":"waste_basket"}},"type":"Feature"},
	{"geometry":{"coordinates":[20.246146,63.826569],"type":"Point"},"properties":{"osm_id":"5754668616","tag":{"amenity":"waste_basket"}},"type":"Feature"},
	{"geometry":{"coordinates":[20.236394,63.82777],"type":"Point"},"properties":{"osm_id":"5754669425","tag":{"amenity":"waste_basket"}},"type":"Feature"},
	{"geometry":{"coordinates":[20.232506,63.828496],"type":"Point"},"properties":{"osm_id":"5754669431","tag":{"amenity":"waste_basket"}},"type":"Feature"},
	{"geometry":{"coordinates":[20.228422,63.829049],"type":"Point"},"properties":{"osm_id":"5754669435","tag":{"amenity":"waste_basket"}},"type":"Feature"},
	{"geometry":{"coordinates":[20.224455,63.828692],"type":"Point"},"properties":{"osm_id":"5754669443","tag":{"amenity":"waste_basket"}},"type":"Feature"},
	{"geometry":{"coordinates":[20.263355,63.825131],"type":"Point"},"properties":{"osm_id":"5930807133","tag":{"amenity":"waste_basket","waste":"trash"}},"type":"Feature"},
	{"geometry":{"coordinates":[20.240842,63.827072],"type":"Point"},"properties":{"osm_id":"5942700236","tag":{"amenity":"waste_basket"}},"type":"Feature"},
	{"geometry":{"coordinates":[20.267089,63.826203],"type":"Point"},"properties":{"osm_id":"6252474247","tag":{"amenity":"waste_basket"}},"type":"Feature"},
	{"geometry":{"coordinates":[20.266653,63.826272],"type":"Point"},"properties":{"osm_id":"6252474249","tag":{"amenity":"waste_basket"}},"type":"Feature"},
	{"geometry":{"coordinates":[20.268454,63.825965],"type":"Point"},"properties":{"osm_id":"6252474250","tag":{"amenity":"waste_basket"}},"type":"Feature"},
	{"geometry":{"coordinates":[20.255206,63.830237],"type":"Point"},"properties":{"osm_id":"6574310406","tag":{"amenity":"recycling","colour":"white","operator":"El-Kretsen","recycling:batteries":"yes","recycling:cans":"no","recycling:cardboard":"no","recycling:clothes":"no","recycling:electrical_appliances":"yes","recycling:small_appliances":"yes","recycling:waste":"no","recycling_type":"container"}},"type":"Feature"},
	{"geometry":{"coordinates":[20.301746,63.849979],"type":"Point"},"properties":{"osm_id":"6627006481","tag":{"amenity":"recycling","recycling_type":"container"}},"type":"Feature"},
	{"geometry":{"coordinates":[20.299673,63.847787],"type":"Point"},"properties":{"osm_id":"6627011597","tag":{"amenity":"waste_basket"}},"type":"Feature"},
	{"geometry":{"coordinates":[20.270061,63.822504],"type":"Point"},"properties":{"osm_id":"6746444852","tag":{"amenity":"waste_basket"}},"type":"Feature"},
	{"geometry":{"coordinates":[20.29242,63.823619],"type":"Point"},"properties":{"osm_id":"6753468427","tag":{"amenity":"waste_basket"}},"type":"Feature"},
	{"geometry":{"coordinates":[20.28338,63.825033],"type":"Point"},"properties":{"osm_id":"6867223446","tag":{"amenity":"recycling","recycling:clothes":"only"}},"type":"Feature"},
	{"geometry":{"coordinates":[20.260348,63.826381],"type":"Point"},"properties":{"osm_id":"7007733726","tag":{"amenity":"waste_basket"}},"type":"Feature"},
	{"geometry":{"coordinates":[20.24945,63.827918],"type":"Point"},"properties":{"osm_id":"7864227972","tag":{"amenity":"waste_basket"}},"type":"Feature"},
	{"geometry":{"coordinates":[20.248981,63.827543],"type":"Point"},"properties":{"osm_id":"7864556169","tag":{"amenity":"waste_basket"}},"type":"Feature"},
	{"geometry":{"coordinates":[20.256931,63.826867],"type":"Point"},"properties":{"osm_id":"7864557643","tag":{"amenity":"waste_basket"}},"type":"Feature"},
	{"geometry":{"coordinates":[20.256158,63.826998],"type":"Point"},"properties":{"osm_id":"7864619454","tag":{"amenity":"waste_basket"}},"type":"Feature"},
	{"geometry":{"coordinates":[20.258045,63.826707],"type":"Point"},"properties":{"osm_id":"7864666822","tag":{"amenity":"waste_basket"}},"type":"Feature"}
]
}
