{
"type": "FeatureCollection",
"features": [
	{"geometry":{"coordinates":[20.302136,63.796377],"type":"Point"},"properties":{"osm_id":"1062383004","tag":{"amenity":"recycling","recycling_type":"container"}},"type":"Feature"},
	{"geometry":{"coordinates":[20.2911,63.819401],"type":"Point"},"properties":{"osm_id":"1541573124","tag":{"amenity":"recycling"}},"type":"Feature"},
	{"geometry":{"coordinates":[20.291117,63.820589],"type":"Point"},"properties":{"osm_id":"2117694987","tag":{"amenity":"recycling","location":"overground","recycling_type":"container"}},"type":"Feature"},
	{"geometry":{"coordinates":[20.254778,63.820248],"type":"Point"},"properties":{"osm_id":"2117844571","tag":{"amenity":"recycling","wheelchair":"yes"}},"type":"Feature"},
	{"geometry":{"coordinates":[20.297892,63.81248],"type":"Point"},"properties":{"osm_id":"3693641902","tag":{"amenity":"recycling","recycling:batteries":"yes","recycling:clothes":"yes","recycling:glass_bottles":"yes","recycling:plastic":"yes","recycling:plastic_bottles":"yes","recycling_type":"container"}},"type":"Feature"},
	{"geometry":{"coordinates":[20.2947,63.812011],"type":"Point"},"properties":{"highway":"street_lamp","osm_id":"3709725143","tag":{"amenity":"waste_basket"}},"type":"Feature"},
	{"geometry":{"coordinates":[20.294592,63.81231],"type":"Point"},"properties":{"osm_id":"3709725145","tag":{"amenity":"waste_basket","waste":"dog_excrement"}},"type":"Feature"},
	{"geometry":{"coordinates":[20.284484,63.818452],"type":"Point"},"properties":{"osm_id":"3709725149","tag":{"amenity":"waste_basket","waste":"dog_excrement"}},"type":"Feature"},
	{"geometry":{"coordinates":[20.297299,63.818331],"type":"Point"},"properties":{"osm_id":"4096265901","tag":{"amenity":"waste_basket"}},"type":"Feature"},
	{"geometry":{"coordinates":[20.254982,63.80701],"type":"Point"},"properties":{"osm_id":"4118980991","tag":{"amenity":"waste_basket"}},"type":"Feature"},
	{"geometry":{"coordinates":[20.254509,63.806268],"type":"Point"},"properties":{"osm_id":"4119028790","tag":{"amenity":"waste_basket"}},"type":"Feature"},
	{"geometry":{"coordinates":[20.255103,63.807458],"type":"Point"},"properties":{"osm_id":"4119028989","tag":{"amenity":"waste_basket"}},"type":"Feature"},
	{"geometry":{"coordinates":[20.252233,63.808173],"type":"Point"},"properties":{"osm_id":"4119206340","tag":{"amenity":"recycling","recycling:cardboard":"yes","recycling:plastic":"yes","recycling_type":"container"}},"type":"Feature"},
	{"geometry":{"coordinates":[20.296319,63.81755],"type":"Point"},"properties":{"osm_id":"4162916456","tag":{"amenity":"waste_basket"}},"type":"Feature"},
	{"geometry":{"coordinates":[20.253606,63.805678],"type":"Point"},"properties":{"osm_id":"4163126359","tag":{"amenity":"waste_basket"}},"type":"Feature"},
	{"geometry":{"coordinates":[20.253312,63.8047],"type":"Point"},"properties":{"osm_id":"4163126360","tag":{"amenity":"waste_basket"}},"type":"Feature"},
	{"geometry":{"coordinates":[20.295524,63.810013],"type":"Point"},"properties":{"highway":"street_lamp","osm_id":"4191990064","tag":{"amenity":"waste_basket"}},"type":"Feature"},
	{"geometry":{"coordinates":[20.292054,63.814524],"type":"Point"},"properties":{"osm_id":"4246790521","tag":{"amenity":"waste_basket"}},"type":"Feature"},
	{"geometry":{"coordinates":[20.291463,63.815332],"type":"Point"},"properties":{"osm_id":"4246790522","tag":{"amenity":"waste_basket"}},"type":"Feature"},
	{"geometry":{"coordinates":[20.290188,63.81654],"type":"Point"},"properties":{"osm_id":"4246809565","tag":{"amenity":"waste_basket","waste":"dog_excrement"}},"type":"Feature"},
	{"geometry":{"coordinates":[20.289417,63.816376],"type":"Point"},"properties":{"osm_id":"4246838779","tag":{"amenity":"waste_basket"}},"type":"Feature"},
	{"geometry":{"coordinates":[20.286102,63.817774],"type":"Point"},"properties":{"osm_id":"4442499369","tag":{"amenity":"waste_basket"}},"type":"Feature"},
	{"geometry":{"coordinates":[20.300064,63.798922],"type":"Point"},"properties":{"osm_id":"4474950187","tag":{"amenity":"waste_basket"}},"type":"Feature"},
	{"geometry":{"coordinates":[20.287168,63.818947],"type":"Point"},"properties":{"osm_id":"4720321873","tag":{"access":"private","amenity":"recycling","dumpster_diving":"yes","recycling:waste":"yes","recycling_type":"container"}},"type":"Feature"},
	{"geometry":{"coordinates":[20.298125,63.804134],"type":"Point"},"properties":{"highway":"street_lamp","osm_id":"4864782271","tag":{"amenity":"waste_basket"}},"type":"Feature"},
	{"geometry":{"coordinates":[20.298343,63.803132],"type":"Point"},"properties":{"highway":"street_lamp","osm_id":"4864783424","tag":{"amenity":"waste_basket"}},"type":"Feature"},
	{"geometry":{"coordinates":[20.300847,63.797698],"type":"Point"},"properties":{"osm_id":"4865129214","tag":{"amenity":"waste_basket"}},"type":"Feature"},
	{"geometry":{"coordinates":[20.301132,63.798403],"type":"Point"},"properties":{"osm_id":"4865131326","tag":{"amenity":"waste_basket"}},"type":"Feature"},
	{"geometry":{"coordinates":[20.297878,63.815711],"type":"Point"},"properties":{"osm_id":"4868750903","tag":{"amenity":"waste_basket"}},"type":"Feature"},
	{"geometry":{"coordinates":[20.297867,63.815898],"type":"Point"},"properties":{"osm_id":"4868750904","tag":{"amenity":"waste_basket"}},"type":"Feature"},
	{"geometry":{"coordinates":[20.25403,63.806283],"type":"Point"},"properties":{"osm_id":"4951379050","tag":{"amenity":"waste_basket"}},"type":"Feature"},
	{"geometry":{"coordinates":[20.264374,63.818384],"type":"Point"},"properties":{"osm_id":"4980975010","tag":{"amenity":"waste_basket"}},"type":"Feature"},
	{"geometry":{"coordinates":[20.218148,63.821072],"type":"Point"},"properties":{"osm_id":"5709454969","tag":{"amenity":"waste_basket","waste":"dog_excrement"}},"type":"Feature"},
	{"geometry":{"coordinates":[20.288148,63.817458],"type":"Point"},"properties":{"osm_id":"5717932748","tag":{"amenity":"waste_basket"}},"type":"Feature"},
	{"geometry":{"coordinates":[20.272849,63.816207],"type":"Point"},"properties":{"osm_id":"5795643950","tag":{"amenity":"waste_basket"}},"type":"Feature"},
	{"geometry":{"coordinates":[20.274509,63.816679],"type":"Point"},"properties":{"osm_id":"5795643951","tag":{"amenity":"waste_basket"}},"type":"Feature"},
	{"geometry":{"coordinates":[20.301856,63.821001],"type":"Point"},"properties":{"osm_id":"5804087526","tag":{"amenity":"waste_basket"}},"type":"Feature"},
	{"geometry":{"coordinates":[20.296161,63.817549],"type":"Point"},"properties":{"osm_id":"6185464771","tag":{"amenity":"waste_basket"}},"type":"Feature"},
	{"geometry":{"coordinates":[20.296773,63.817491],"type":"Point"},"properties":{"osm_id":"6185464783","tag":{"amenity":"waste_basket"}},"type":"Feature"},
	{"geometry":{"coordinates":[20.296636,63.817653],"type":"Point"},"properties":{"osm_id":"6185470986","tag":{"amenity":"waste_basket"}},"type":"Feature"},
	{"geometry":{"coordinates":[20.25336,63.820248],"type":"Point"},"properties":{"osm_id":"6557323353","tag":{"amenity":"waste_basket"}},"type":"Feature"},
	{"geometry":{"coordinates":[20.253098,63.820355],"type":"Point"},"properties":{"osm_id":"6557323354","tag":{"amenity":"waste_basket"}},"type":"Feature"},
	{"geometry":{"coordinates":[20.253253,63.820085],"type":"Point"},"properties":{"osm_id":"6557748120","tag":{"amenity":"waste_basket"}},"type":"Feature"},
	{"geometry":{"coordinates":[20.254066,63.807709],"type":"Point"},"properties":{"osm_id":"7816285722","tag":{"amenity":"waste_basket"}},"type":"Feature"}
]
}
