{
"type": "FeatureCollection",
"lastupdate": "2020-08-01T00:00:00Z",
"features": [
	{"geometry":{"coordinates":[20.240409,52.232324],"type":"Point"},"properties":{"osm_id":"4230470831","tag":{"amenity":"recycling"}},"type":"Feature"},
	{"geometry":{"coordinates":[20.248035,52.234183],"type":"Point"},"properties":{"osm_id":"4280206123","tag":{"amenity":"recycling"}},"type":"Feature"},
	{"geometry":{"coordinates":[20.242779,52.234312],"type":"Point"},"properties":{"osm_id":"4284662533","tag":{"amenity":"recycling"}},"type":"Feature"},
	{"geometry":{"coordinates":[20.245772,52.234259],"type":"Point"},"properties":{"osm_id":"4286604484","tag":{"amenity":"recycling"}},"type":"Feature"},
	{"geometry":{"coordinates":[20.251578,52.234855],"type":"Point"},"properties":{"osm_id":"4295145959","tag":{"amenity":"recycling"}},"type":"Feature"},
	{"geometry":{"coordinates":[20.254973,52.239027],"type":"Point"},"properties":{"osm_id":"4298895662","tag":{"amenity":"recycling"}},"type":"Feature"},
	{"geometry":{"coordinates":[20.238328,52.230516],"type":"Point"},"properties":{"osm_id":"4376079167","tag":{"addr:city":"Sochaczew","addr:postcode":"96-500","amenity":"recycling"}},"type":"Feature"}
]
}
