{
"type": "FeatureCollection",
"features": [
	{"geometry":{"coordinates":[20.288211,50.645272],"type":"Point"},"properties":{"osm_id":"2756574543","tag":{"amenity":"recycling"}},"type":"Feature"},
	{"geometry":{"coordinates":[20.226885,50.654595],"type":"Point"},"properties":{"osm_id":"3321893561","tag":{"amenity":"waste_disposal"}},"type":"Feature"},
	{"geometry":{"coordinates":[20.302045,50.641835],"type":"Point"},"properties":{"osm_id":"7121879814","tag":{"amenity":"waste_basket","colour":"Szary","material":"concrete","operator":"Zak\u00c5\u0082ad Us\u00c5\u0082ug Komunalnych w J\u00c4\u0099drzejowie","start_date":"2016","waste":"mixed;trash"}},"type":"Feature"},
	{"geometry":{"coordinates":[20.302245,50.641623],"type":"Point"},"properties":{"osm_id":"7152044654","tag":{"amenity":"waste_basket","material":"plastic","operator":"NZOZ Gabinety Medyczne","waste":"recycling"}},"type":"Feature"},
	{"geometry":{"coordinates":[20.227326,50.655508],"type":"Point"},"properties":{"osm_id":"8737075832","tag":{"amenity":"recycling","operator":"Polski Czerwony Krzy\u00c5\u00bc","recycling:clothes":"yes","recycling_type":"container"}},"type":"Feature"}
]
}
