{
"type": "FeatureCollection",
"lastupdate": "2020-08-06T00:00:00Z",
"features": [
	{"geometry":{"coordinates":[20.235646,49.773913],"type":"Point"},"properties":{"name":"Pojemnik na odzie\u00c5\u00bc u\u00c5\u00bcywan\u00c4\u0085 PCK","osm_id":"6564397101","ref":"86817","tag":{"amenity":"recycling","colour":"navajowhite","material":"metal","opening_hours":"24/7","operator":"Polski Czerwony Krzy\u017c","recycling:clothes":"yes","recycling:shoes":"yes","recycling_type":"container"}},"type":"Feature"},
	{"geometry":{"coordinates":[20.235634,49.773905],"type":"Point"},"properties":{"name":"Pojemnik na odzie\u00c5\u00bc u\u00c5\u00bcywan\u00c4\u0085 PCK","osm_id":"6564669889","ref":"7698","tag":{"amenity":"recycling","colour":"navajowhite","material":"metal","opening_hours":"24/7","operator":"Polski Czerwony Krzy\u017c","recycling:clothes":"yes","recycling:shoes":"yes","recycling_type":"container"}},"type":"Feature"},
	{"geometry":{"coordinates":[20.231377,49.771036],"type":"Point"},"properties":{"osm_id":"6684907146","tag":{"amenity":"waste_basket","waste":"trash"}},"type":"Feature"},
	{"geometry":{"coordinates":[20.229255,49.770257],"type":"Point"},"properties":{"osm_id":"6751909643","tag":{"amenity":"waste_basket","waste":"trash"}},"type":"Feature"},
	{"geometry":{"coordinates":[20.240552,49.777195],"type":"Point"},"properties":{"name":"Pojemnik na odzie\u00c5\u00bc u\u00c5\u00bcywan\u00c4\u0085 PCK","osm_id":"6753305286","tag":{"amenity":"recycling","opening_hours":"24/7","recycling:clothes":"yes","recycling:shoes":"yes","recycling_type":"container"}},"type":"Feature"},
	{"geometry":{"coordinates":[20.240109,49.777083],"type":"Point"},"properties":{"osm_id":"6753353989","tag":{"amenity":"waste_basket","waste":"trash"}},"type":"Feature"},
	{"geometry":{"coordinates":[20.279493,49.768601],"type":"Point"},"properties":{"osm_id":"6982652718","tag":{"amenity":"waste_basket","material":"wood","waste":"trash"}},"type":"Feature"},
	{"geometry":{"coordinates":[20.282949,49.741983],"type":"Point"},"properties":{"name":"Pojemnik na odzie\u00c5\u00bc u\u00c5\u00bcywan\u00c4\u0085 PCK","osm_id":"7075873979","ref":"86477","tag":{"amenity":"recycling","colour":"navajowhite","material":"metal","opening_hours":"24/7","operator":"Polski Czerwony Krzy\u017c","recycling:clothes":"yes","recycling:shoes":"yes","recycling_type":"container"}},"type":"Feature"}
]
}
