{
"type": "FeatureCollection",
"features": [
	{"geometry":{"coordinates":[-79.063795,43.10464],"type":"Point"},"properties":{"osm_id":"1885251995","tag":{"amenity":"waste_basket"}},"type":"Feature"},
	{"geometry":{"coordinates":[-79.065775,43.101655],"type":"Point"},"properties":{"osm_id":"1885254119","tag":{"amenity":"waste_basket"}},"type":"Feature"},
	{"geometry":{"coordinates":[-79.068592,43.097401],"type":"Point"},"properties":{"osm_id":"1885259637","tag":{"amenity":"waste_basket"}},"type":"Feature"},
	{"geometry":{"coordinates":[-79.071074,43.095182],"type":"Point"},"properties":{"osm_id":"1885261502","tag":{"amenity":"waste_basket"}},"type":"Feature"},
	{"geometry":{"coordinates":[-79.069315,43.086628],"type":"Point"},"properties":{"osm_id":"2491185567","tag":{"amenity":"waste_basket"}},"type":"Feature"},
	{"geometry":{"coordinates":[-79.07306,43.080645],"type":"Point"},"properties":{"osm_id":"2491197014","tag":{"amenity":"waste_basket"}},"type":"Feature"},
	{"geometry":{"coordinates":[-79.075919,43.087702],"type":"Point"},"properties":{"osm_id":"3522190739","tag":{"amenity":"waste_basket","colour":"black"}},"type":"Feature"},
	{"geometry":{"coordinates":[-79.080331,43.08429],"type":"Point"},"properties":{"osm_id":"3580513503","tag":{"amenity":"waste_basket"}},"type":"Feature"},
	{"geometry":{"coordinates":[-79.080882,43.0846],"type":"Point"},"properties":{"osm_id":"3580513505","tag":{"amenity":"waste_basket","colour":"yellow"}},"type":"Feature"},
	{"geometry":{"coordinates":[-79.080672,43.084627],"type":"Point"},"properties":{"osm_id":"3580513508","tag":{"amenity":"waste_basket","colour":"yellow"}},"type":"Feature"},
	{"geometry":{"coordinates":[-79.074891,43.088517],"type":"Point"},"properties":{"osm_id":"3580519197","tag":{"amenity":"waste_basket","colour":"black"}},"type":"Feature"},
	{"geometry":{"coordinates":[-79.0803,43.084559],"type":"Point"},"properties":{"osm_id":"3580522363","tag":{"amenity":"waste_basket"}},"type":"Feature"},
	{"geometry":{"coordinates":[-79.076556,43.086017],"type":"Point"},"properties":{"osm_id":"3580523707","tag":{"amenity":"waste_basket"}},"type":"Feature"},
	{"geometry":{"coordinates":[-79.078139,43.084027],"type":"Point"},"properties":{"osm_id":"3580532070","tag":{"amenity":"waste_basket","colour":"black"}},"type":"Feature"},
	{"geometry":{"coordinates":[-79.081585,43.079532],"type":"Point"},"properties":{"osm_id":"3580555372","tag":{"amenity":"waste_basket"}},"type":"Feature"},
	{"geometry":{"coordinates":[-79.07719,43.085002],"type":"Point"},"properties":{"osm_id":"4277129382","tag":{"amenity":"waste_basket","colour":"black"}},"type":"Feature"},
	{"geometry":{"coordinates":[-79.081598,43.089506],"type":"Point"},"properties":{"osm_id":"4355037302","tag":{"amenity":"waste_basket"}},"type":"Feature"},
	{"geometry":{"coordinates":[-79.07713,43.092725],"type":"Point"},"properties":{"osm_id":"4355103582","tag":{"amenity":"waste_basket"}},"type":"Feature"},
	{"geometry":{"coordinates":[-79.074018,43.093251],"type":"Point"},"properties":{"osm_id":"4355103585","tag":{"amenity":"waste_basket"}},"type":"Feature"},
	{"geometry":{"coordinates":[-79.082695,43.079424],"type":"Point"},"properties":{"osm_id":"4355220154","tag":{"amenity":"waste_basket"}},"type":"Feature"},
	{"geometry":{"coordinates":[-79.075392,43.091555],"type":"Point"},"properties":{"osm_id":"6522342334","tag":{"amenity":"waste_basket","waste":"trash"}},"type":"Feature"},
	{"geometry":{"coordinates":[-79.071329,43.06972],"type":"Point"},"properties":{"osm_id":"7799281127","tag":{"amenity":"waste_basket"}},"type":"Feature"},
	{"geometry":{"coordinates":[-79.070248,43.069186],"type":"Point"},"properties":{"osm_id":"7799336264","tag":{"amenity":"waste_basket"}},"type":"Feature"}
]
}
