{
"type": "FeatureCollection",
"features": [
	{"geometry":{"coordinates":[-79.054163,35.90817],"type":"Point"},"properties":{"osm_id":"1815048341","tag":{"amenity":"recycling","location":"overground","recycling_type":"container"}},"type":"Feature"},
	{"geometry":{"coordinates":[-79.054184,35.908179],"type":"Point"},"properties":{"osm_id":"1815048342","tag":{"amenity":"waste_basket"}},"type":"Feature"},
	{"geometry":{"coordinates":[-79.054051,35.91272],"type":"Point"},"properties":{"osm_id":"1956714490","tag":{"amenity":"waste_basket"}},"type":"Feature"},
	{"geometry":{"coordinates":[-79.054579,35.913725],"type":"Point"},"properties":{"osm_id":"1956714546","tag":{"amenity":"waste_basket"}},"type":"Feature"},
	{"geometry":{"coordinates":[-79.054067,35.912719],"type":"Point"},"properties":{"osm_id":"1957718969","tag":{"amenity":"recycling","location":"overground","recycling_type":"container"}},"type":"Feature"},
	{"geometry":{"coordinates":[-79.053294,35.911741],"type":"Point"},"properties":{"osm_id":"1967408828","tag":{"amenity":"recycling","location":"overground","recycling_type":"container"}},"type":"Feature"},
	{"geometry":{"coordinates":[-79.094122,35.916166],"type":"Point"},"properties":{"osm_id":"2003859058","tag":{"amenity":"recycling","location":"overground","recycling_type":"container"}},"type":"Feature"},
	{"geometry":{"coordinates":[-79.071627,35.911376],"type":"Point"},"properties":{"osm_id":"2580281013","tag":{"amenity":"recycling","recycling:cardboard":"yes","recycling_type":"container"}},"type":"Feature"},
	{"geometry":{"coordinates":[-79.071237,35.911071],"type":"Point"},"properties":{"osm_id":"2580281014","tag":{"amenity":"recycling","recycling:batteries":"yes","recycling:pla":"yes","recycling_type":"container"}},"type":"Feature"},
	{"geometry":{"coordinates":[-79.072185,35.912178],"type":"Point"},"properties":{"osm_id":"2580978592","tag":{"amenity":"waste_basket"}},"type":"Feature"},
	{"geometry":{"coordinates":[-79.031729,35.960036],"type":"Point"},"properties":{"osm_id":"2664104845","tag":{"amenity":"recycling","location":"overground","recycling:cans":"yes","recycling:clothes":"no","recycling:glass":"yes","recycling:paper":"yes","recycling_type":"container"}},"type":"Feature"},
	{"geometry":{"coordinates":[-79.076304,35.91078],"type":"Point"},"properties":{"osm_id":"2675524621","tag":{"amenity":"recycling","location":"overground","recycling:clothes":"yes","recycling:shoes":"yes","recycling_type":"container"}},"type":"Feature"},
	{"geometry":{"coordinates":[-79.024883,35.937235],"type":"Point"},"properties":{"osm_id":"2675524626","tag":{"amenity":"recycling","recycling:clothes":"yes","recycling_type":"container"}},"type":"Feature"},
	{"geometry":{"coordinates":[-79.070318,35.91068],"type":"Point"},"properties":{"osm_id":"2681997175","tag":{"amenity":"waste_basket"}},"type":"Feature"},
	{"geometry":{"coordinates":[-79.070318,35.910691],"type":"Point"},"properties":{"osm_id":"2681997178","tag":{"amenity":"recycling","recycling:cans":"yes","recycling:glass":"yes","recycling:paper":"yes","recycling_type":"container"}},"type":"Feature"},
	{"geometry":{"coordinates":[-79.070918,35.910897],"type":"Point"},"properties":{"osm_id":"2699917796","tag":{"amenity":"waste_basket"}},"type":"Feature"},
	{"geometry":{"coordinates":[-79.070979,35.91116],"type":"Point"},"properties":{"osm_id":"2699917797","tag":{"amenity":"waste_basket"}},"type":"Feature"},
	{"geometry":{"coordinates":[-79.070854,35.911189],"type":"Point"},"properties":{"osm_id":"2699917798","tag":{"amenity":"waste_basket"}},"type":"Feature"},
	{"geometry":{"coordinates":[-79.071471,35.911473],"type":"Point"},"properties":{"osm_id":"2699917800","tag":{"amenity":"waste_basket"}},"type":"Feature"},
	{"geometry":{"coordinates":[-79.079533,35.91223],"type":"Point"},"properties":{"osm_id":"2776449558","tag":{"amenity":"recycling","location":"overground","recycling:cans":"no","recycling:clothes":"yes","recycling:glass":"no","recycling:paper":"no","recycling_type":"container"}},"type":"Feature"},
	{"geometry":{"coordinates":[-79.07741,35.911194],"type":"Point"},"properties":{"osm_id":"2819103924","tag":{"amenity":"waste_basket"}},"type":"Feature"},
	{"geometry":{"coordinates":[-79.077411,35.9112],"type":"Point"},"properties":{"osm_id":"2819103925","tag":{"amenity":"recycling","location":"overground","recycling:cans":"yes","recycling:glass":"yes","recycling:paper":"yes","recycling_type":"container"}},"type":"Feature"},
	{"geometry":{"coordinates":[-79.071982,35.91091],"type":"Point"},"properties":{"osm_id":"2819555669","tag":{"amenity":"waste_basket"}},"type":"Feature"},
	{"geometry":{"coordinates":[-79.082622,35.896261],"type":"Point"},"properties":{"osm_id":"2867452981","tag":{"amenity":"waste_basket"}},"type":"Feature"},
	{"geometry":{"coordinates":[-79.0713,35.910849],"type":"Point"},"properties":{"osm_id":"2981319974","tag":{"amenity":"waste_basket"}},"type":"Feature"},
	{"geometry":{"coordinates":[-79.052592,35.91064],"type":"Point"},"properties":{"osm_id":"3713261876","tag":{"amenity":"waste_disposal"}},"type":"Feature"},
	{"geometry":{"coordinates":[-79.045826,35.912699],"type":"Point"},"properties":{"osm_id":"3728908161","tag":{"amenity":"waste_disposal"}},"type":"Feature"},
	{"geometry":{"coordinates":[-79.046552,35.909871],"type":"Point"},"properties":{"osm_id":"3999474861","tag":{"amenity":"waste_basket"}},"type":"Feature"},
	{"geometry":{"coordinates":[-79.046859,35.910965],"type":"Point"},"properties":{"osm_id":"3999474878","tag":{"amenity":"waste_basket"}},"type":"Feature"},
	{"geometry":{"coordinates":[-79.047205,35.912207],"type":"Point"},"properties":{"osm_id":"3999474888","tag":{"amenity":"recycling","recycling_type":"container"}},"type":"Feature"},
	{"geometry":{"coordinates":[-79.050131,35.91238],"type":"Point"},"properties":{"osm_id":"3999474893","tag":{"amenity":"waste_basket"}},"type":"Feature"},
	{"geometry":{"coordinates":[-79.049671,35.910052],"type":"Point"},"properties":{"osm_id":"4043188427","tag":{"amenity":"waste_basket"}},"type":"Feature"},
	{"geometry":{"coordinates":[-79.048331,35.91011],"type":"Point"},"properties":{"osm_id":"4043188428","tag":{"amenity":"recycling","recycling_type":"container"}},"type":"Feature"},
	{"geometry":{"coordinates":[-79.048712,35.910145],"type":"Point"},"properties":{"osm_id":"4043188429","tag":{"amenity":"waste_basket"}},"type":"Feature"},
	{"geometry":{"coordinates":[-79.049159,35.91007],"type":"Point"},"properties":{"osm_id":"4147635658","tag":{"amenity":"waste_basket"}},"type":"Feature"},
	{"geometry":{"coordinates":[-79.048334,35.910105],"type":"Point"},"properties":{"osm_id":"4147635660","tag":{"amenity":"waste_basket"}},"type":"Feature"},
	{"geometry":{"coordinates":[-79.04884,35.910102],"type":"Point"},"properties":{"osm_id":"4147635661","tag":{"amenity":"waste_basket","colour":"black","material":"steel","operator":"University of North Carolina at Chapel Hill","waste":"trash"}},"type":"Feature"},
	{"geometry":{"coordinates":[-79.048427,35.910259],"type":"Point"},"properties":{"osm_id":"4147635664","tag":{"amenity":"waste_basket"}},"type":"Feature"},
	{"geometry":{"coordinates":[-79.048747,35.909931],"type":"Point"},"properties":{"osm_id":"4147635665","tag":{"amenity":"waste_basket"}},"type":"Feature"},
	{"geometry":{"coordinates":[-79.050701,35.908488],"type":"Point"},"properties":{"osm_id":"4147783709","tag":{"amenity":"waste_basket"}},"type":"Feature"},
	{"geometry":{"coordinates":[-79.048539,35.910625],"type":"Point"},"properties":{"osm_id":"4147819879","tag":{"amenity":"waste_basket"}},"type":"Feature"},
	{"geometry":{"coordinates":[-79.048346,35.910593],"type":"Point"},"properties":{"osm_id":"4147819881","tag":{"amenity":"waste_basket"}},"type":"Feature"},
	{"geometry":{"coordinates":[-79.048536,35.910215],"type":"Point"},"properties":{"osm_id":"4147819882","tag":{"amenity":"waste_basket"}},"type":"Feature"},
	{"geometry":{"coordinates":[-79.048362,35.910709],"type":"Point"},"properties":{"osm_id":"4147819883","tag":{"amenity":"waste_basket"}},"type":"Feature"},
	{"geometry":{"coordinates":[-79.050072,35.910709],"type":"Point"},"properties":{"osm_id":"4150024857","tag":{"amenity":"waste_basket"}},"type":"Feature"},
	{"geometry":{"coordinates":[-79.05255,35.913221],"type":"Point"},"properties":{"osm_id":"4161901892","tag":{"amenity":"waste_basket"}},"type":"Feature"},
	{"geometry":{"coordinates":[-79.051257,35.911239],"type":"Point"},"properties":{"osm_id":"4161901894","tag":{"amenity":"waste_basket"}},"type":"Feature"},
	{"geometry":{"coordinates":[-79.051847,35.912256],"type":"Point"},"properties":{"osm_id":"4161901899","tag":{"amenity":"waste_basket"}},"type":"Feature"},
	{"geometry":{"coordinates":[-79.051043,35.911056],"type":"Point"},"properties":{"osm_id":"4161909142","tag":{"amenity":"waste_basket"}},"type":"Feature"},
	{"geometry":{"coordinates":[-79.050651,35.910398],"type":"Point"},"properties":{"osm_id":"4161909143","tag":{"amenity":"waste_basket"}},"type":"Feature"},
	{"geometry":{"coordinates":[-79.05058,35.951089],"type":"Point"},"properties":{"osm_id":"5022481664","tag":{"amenity":"waste_basket"}},"type":"Feature"},
	{"geometry":{"coordinates":[-79.055296,35.925461],"type":"Point"},"properties":{"osm_id":"5162123095","tag":{"amenity":"waste_basket"}},"type":"Feature"},
	{"geometry":{"coordinates":[-79.050577,35.951099],"type":"Point"},"properties":{"osm_id":"5348097640","tag":{"amenity":"recycling","recycling:cans":"yes","recycling:glass_bottles":"yes","recycling_type":"container"}},"type":"Feature"},
	{"geometry":{"coordinates":[-79.060981,35.946629],"type":"Point"},"properties":{"osm_id":"5369302970","tag":{"amenity":"waste_disposal"}},"type":"Feature"},
	{"geometry":{"coordinates":[-79.060941,35.94662],"type":"Point"},"properties":{"osm_id":"5369302971","tag":{"amenity":"waste_disposal"}},"type":"Feature"},
	{"geometry":{"coordinates":[-79.061988,35.947896],"type":"Point"},"properties":{"osm_id":"5371470052","tag":{"amenity":"waste_disposal"}},"type":"Feature"},
	{"geometry":{"coordinates":[-79.06196,35.947885],"type":"Point"},"properties":{"osm_id":"5371470053","tag":{"amenity":"waste_disposal"}},"type":"Feature"},
	{"geometry":{"coordinates":[-79.05575,35.91334],"type":"Point"},"properties":{"osm_id":"5371590248","tag":{"amenity":"waste_basket"}},"type":"Feature"},
	{"geometry":{"coordinates":[-79.083049,35.891994],"type":"Point"},"properties":{"osm_id":"5534877587","tag":{"amenity":"waste_basket"}},"type":"Feature"},
	{"geometry":{"coordinates":[-79.05017,35.924036],"type":"Point"},"properties":{"osm_id":"5546334881","tag":{"amenity":"waste_basket","waste":"trash"}},"type":"Feature"},
	{"geometry":{"coordinates":[-79.053617,35.925926],"type":"Point"},"properties":{"osm_id":"5546334883","tag":{"amenity":"waste_basket","waste":"trash"}},"type":"Feature"},
	{"geometry":{"coordinates":[-79.053185,35.92575],"type":"Point"},"properties":{"osm_id":"5546334884","tag":{"amenity":"waste_basket","waste":"trash"}},"type":"Feature"},
	{"geometry":{"coordinates":[-79.050028,35.92389],"type":"Point"},"properties":{"osm_id":"5546334885","tag":{"amenity":"waste_basket","waste":"trash"}},"type":"Feature"},
	{"geometry":{"coordinates":[-79.038348,35.906416],"type":"Point"},"properties":{"osm_id":"5560489787","tag":{"amenity":"waste_basket","waste":"trash"}},"type":"Feature"},
	{"geometry":{"coordinates":[-79.038342,35.906291],"type":"Point"},"properties":{"osm_id":"5560489790","tag":{"amenity":"waste_basket","waste":"trash"}},"type":"Feature"},
	{"geometry":{"coordinates":[-79.038409,35.90642],"type":"Point"},"properties":{"osm_id":"5560489791","tag":{"amenity":"waste_basket","waste":"trash"}},"type":"Feature"},
	{"geometry":{"coordinates":[-79.038426,35.906298],"type":"Point"},"properties":{"osm_id":"5560489796","tag":{"amenity":"waste_basket","waste":"trash"}},"type":"Feature"},
	{"geometry":{"coordinates":[-79.04754,35.912403],"type":"Point"},"properties":{"osm_id":"5587183366","tag":{"amenity":"waste_basket"}},"type":"Feature"},
	{"geometry":{"coordinates":[-79.047196,35.912209],"type":"Point"},"properties":{"osm_id":"5587183367","tag":{"amenity":"waste_basket"}},"type":"Feature"},
	{"geometry":{"coordinates":[-79.047843,35.909751],"type":"Point"},"properties":{"osm_id":"5587183374","tag":{"amenity":"waste_basket"}},"type":"Feature"},
	{"geometry":{"coordinates":[-79.047838,35.909744],"type":"Point"},"properties":{"osm_id":"5587183375","tag":{"amenity":"recycling","recycling_type":"container"}},"type":"Feature"},
	{"geometry":{"coordinates":[-79.044543,35.906481],"type":"Point"},"properties":{"osm_id":"5587183422","tag":{"amenity":"recycling","recycling_type":"bin"}},"type":"Feature"},
	{"geometry":{"coordinates":[-79.044547,35.906488],"type":"Point"},"properties":{"osm_id":"5587183423","tag":{"amenity":"recycling","recycling_type":"bin"}},"type":"Feature"},
	{"geometry":{"coordinates":[-79.044539,35.906474],"type":"Point"},"properties":{"osm_id":"5587183424","tag":{"amenity":"waste_basket"}},"type":"Feature"},
	{"geometry":{"coordinates":[-79.046818,35.903612],"type":"Point"},"properties":{"osm_id":"5587183446","tag":{"amenity":"waste_basket"}},"type":"Feature"},
	{"geometry":{"coordinates":[-79.065202,35.955831],"type":"Point"},"properties":{"osm_id":"5691436577","tag":{"amenity":"waste_basket","waste":"trash"}},"type":"Feature"},
	{"geometry":{"coordinates":[-79.065098,35.955865],"type":"Point"},"properties":{"osm_id":"5691436581","tag":{"amenity":"waste_basket","waste":"trash"}},"type":"Feature"},
	{"geometry":{"coordinates":[-79.063756,35.955062],"type":"Point"},"properties":{"osm_id":"5697636404","tag":{"amenity":"recycling","recycling_type":"container"}},"type":"Feature"},
	{"geometry":{"coordinates":[-79.063157,35.921522],"type":"Point"},"properties":{"osm_id":"5697654744","tag":{"amenity":"recycling","recycling_type":"container"}},"type":"Feature"},
	{"geometry":{"coordinates":[-79.054821,35.908935],"type":"Point"},"properties":{"osm_id":"5904343344","tag":{"amenity":"waste_basket"}},"type":"Feature"},
	{"geometry":{"coordinates":[-79.046439,35.908883],"type":"Point"},"properties":{"osm_id":"6035130605","tag":{"amenity":"waste_basket"}},"type":"Feature"},
	{"geometry":{"coordinates":[-79.053884,35.912297],"type":"Point"},"properties":{"osm_id":"6035133284","tag":{"amenity":"waste_basket"}},"type":"Feature"},
	{"geometry":{"coordinates":[-79.053356,35.905847],"type":"Point"},"properties":{"osm_id":"6035135256","tag":{"amenity":"waste_basket"}},"type":"Feature"},
	{"geometry":{"coordinates":[-79.054313,35.91383],"type":"Point"},"properties":{"osm_id":"6397489305","tag":{"amenity":"waste_basket"}},"type":"Feature"},
	{"geometry":{"coordinates":[-79.031636,35.959892],"type":"Point"},"properties":{"osm_id":"6463306792","tag":{"amenity":"recycling","location":"overground","recycling:corrugated_cardboard":"yes","recycling_type":"container"}},"type":"Feature"},
	{"geometry":{"coordinates":[-79.048578,35.91583],"type":"Point"},"properties":{"osm_id":"6470879630","tag":{"amenity":"waste_basket"}},"type":"Feature"},
	{"geometry":{"coordinates":[-79.01541,35.94709],"type":"Point"},"properties":{"osm_id":"6486855049","tag":{"amenity":"waste_disposal"}},"type":"Feature"},
	{"geometry":{"coordinates":[-79.049362,35.913136],"type":"Point"},"properties":{"osm_id":"6761869968","tag":{"amenity":"waste_disposal"}},"type":"Feature"},
	{"geometry":{"coordinates":[-79.049933,35.91377],"type":"Point"},"properties":{"osm_id":"6761869980","tag":{"amenity":"waste_disposal"}},"type":"Feature"},
	{"geometry":{"coordinates":[-79.047468,35.909682],"type":"Point"},"properties":{"osm_id":"6772356449","tag":{"amenity":"waste_basket"}},"type":"Feature"},
	{"geometry":{"coordinates":[-79.047461,35.909685],"type":"Point"},"properties":{"osm_id":"6772356450","tag":{"amenity":"recycling","recycling_type":"container"}},"type":"Feature"},
	{"geometry":{"coordinates":[-79.047979,35.912501],"type":"Point"},"properties":{"osm_id":"6775504615","tag":{"amenity":"waste_basket"}},"type":"Feature"},
	{"geometry":{"coordinates":[-79.052915,35.909519],"type":"Point"},"properties":{"osm_id":"6777722413","tag":{"amenity":"waste_basket","waste":"trash"}},"type":"Feature"},
	{"geometry":{"coordinates":[-79.052899,35.909526],"type":"Point"},"properties":{"osm_id":"6777722414","tag":{"amenity":"recycling","recycling_type":"container"}},"type":"Feature"},
	{"geometry":{"coordinates":[-79.052907,35.909522],"type":"Point"},"properties":{"osm_id":"6777722415","tag":{"amenity":"recycling","recycling_type":"container"}},"type":"Feature"},
	{"geometry":{"coordinates":[-79.051167,35.913097],"type":"Point"},"properties":{"osm_id":"6778455532","tag":{"amenity":"waste_basket","material":"metal"}},"type":"Feature"},
	{"geometry":{"coordinates":[-79.051163,35.913106],"type":"Point"},"properties":{"osm_id":"6778455533","tag":{"amenity":"recycling","recycling_type":"container"}},"type":"Feature"},
	{"geometry":{"coordinates":[-79.055838,35.913019],"type":"Point"},"properties":{"osm_id":"6779470762","tag":{"amenity":"waste_basket"}},"type":"Feature"},
	{"geometry":{"coordinates":[-79.055845,35.913017],"type":"Point"},"properties":{"osm_id":"6779470763","tag":{"amenity":"recycling","operator":"Town of Chapel Hill","recycling:cans":"yes","recycling:cardboard":"yes","recycling:cartons":"yes","recycling:glass":"yes","recycling:glass_bottles":"yes","recycling:magazines":"yes","recycling:newspaper":"yes","recycling:paper":"yes","recycling:paper_packaging":"yes","recycling:plastic":"yes","recycling:plastic_bottles":"yes","recycling_type":"container"}},"type":"Feature"},
	{"geometry":{"coordinates":[-79.050335,35.909806],"type":"Point"},"properties":{"osm_id":"6793669268","tag":{"amenity":"waste_basket"}},"type":"Feature"},
	{"geometry":{"coordinates":[-79.050319,35.909813],"type":"Point"},"properties":{"osm_id":"6793669269","tag":{"amenity":"recycling","recycling_type":"container"}},"type":"Feature"},
	{"geometry":{"coordinates":[-79.050327,35.909811],"type":"Point"},"properties":{"osm_id":"6793669270","tag":{"amenity":"recycling","recycling_type":"container"}},"type":"Feature"},
	{"geometry":{"coordinates":[-79.048262,35.909542],"type":"Point"},"properties":{"osm_id":"6823097601","tag":{"amenity":"waste_basket"}},"type":"Feature"},
	{"geometry":{"coordinates":[-79.048268,35.909556],"type":"Point"},"properties":{"osm_id":"6823097602","tag":{"amenity":"recycling","recycling_type":"container"}},"type":"Feature"},
	{"geometry":{"coordinates":[-79.048265,35.90955],"type":"Point"},"properties":{"osm_id":"6823097603","tag":{"amenity":"recycling","recycling_type":"container"}},"type":"Feature"},
	{"geometry":{"coordinates":[-79.048847,35.9101],"type":"Point"},"properties":{"osm_id":"6837967262","tag":{"amenity":"recycling","operator":"University of North Carolina at Chapel Hill","recycling_type":"container"}},"type":"Feature"},
	{"geometry":{"coordinates":[-79.063156,35.9215],"type":"Point"},"properties":{"osm_id":"7052878608","tag":{"amenity":"waste_basket"}},"type":"Feature"},
	{"geometry":{"coordinates":[-79.061891,35.910649],"type":"Point"},"properties":{"osm_id":"7618698384","tag":{"amenity":"recycling","recycling_type":"container"}},"type":"Feature"},
	{"geometry":{"coordinates":[-79.061899,35.910647],"type":"Point"},"properties":{"osm_id":"7618728885","tag":{"amenity":"waste_basket"}},"type":"Feature"},
	{"geometry":{"coordinates":[-79.061727,35.910714],"type":"Point"},"properties":{"osm_id":"7618728892","tag":{"amenity":"waste_basket"}},"type":"Feature"},
	{"geometry":{"coordinates":[-79.061253,35.910924],"type":"Point"},"properties":{"osm_id":"7618728894","tag":{"amenity":"waste_basket"}},"type":"Feature"},
	{"geometry":{"coordinates":[-79.061134,35.91097],"type":"Point"},"properties":{"osm_id":"7618728895","tag":{"amenity":"waste_basket"}},"type":"Feature"},
	{"geometry":{"coordinates":[-79.060612,35.911169],"type":"Point"},"properties":{"osm_id":"7618728897","tag":{"amenity":"waste_basket"}},"type":"Feature"},
	{"geometry":{"coordinates":[-79.060783,35.911103],"type":"Point"},"properties":{"osm_id":"7618728899","tag":{"amenity":"waste_basket"}},"type":"Feature"},
	{"geometry":{"coordinates":[-79.060965,35.911032],"type":"Point"},"properties":{"osm_id":"7618728900","tag":{"amenity":"waste_basket"}},"type":"Feature"}
]
}
