{
"type": "FeatureCollection",
"features": [
	{"geometry":{"coordinates":[0.072591,40.053579],"type":"Point"},"properties":{"name":"Quejigo","osm_id":"5262297244","tag":{"genus":"Quercus","leaf_cycle":"semi_evergreen","leaf_type":"broadleaved","name:ca":"Roure de fulla petita","natural":"tree","species":"Quercus faginea"}},"type":"Feature"},
	{"geometry":{"coordinates":[0.072447,40.053701],"type":"Point"},"properties":{"name":"Bandera Espa\u00c3\u00b1ola","osm_id":"5262297245","tag":{"genus":"Lantana","leaf_cycle":"evergreen","leaf_type":"broadleaved","name:ca":"Banderes","natural":"tree","species":"Lantana camara"}},"type":"Feature"},
	{"geometry":{"coordinates":[0.072493,40.053591],"type":"Point"},"properties":{"name":"Ave del Para\u00c3\u00adso","osm_id":"5262297246","tag":{"genus":"Strelitzia","leaf_cycle":"evergreen","leaf_type":"broadleaved","name:ca":"Au del Parad\u00c3\u00ads","natural":"tree","species":"Strelitzia reginae"}},"type":"Feature"},
	{"geometry":{"coordinates":[0.072528,40.053486],"type":"Point"},"properties":{"name":"Encina","osm_id":"5262297247","tag":{"genus":"Quercus","leaf_cycle":"evergreen","leaf_type":"broadleaved","name:ca":"Alzina","natural":"tree","species":"Quercus ilex"}},"type":"Feature"},
	{"geometry":{"coordinates":[0.072814,40.053361],"type":"Point"},"properties":{"name":"Arce Com\u00c3\u00ban","osm_id":"5262297248","tag":{"genus":"Acer","leaf_cycle":"deciduous","leaf_type":"broadleaved","name:ca":"Aur\u00c3\u00b3 Arrugat","natural":"tree","species":"Acer campestre"}},"type":"Feature"},
	{"geometry":{"coordinates":[0.072824,40.053276],"type":"Point"},"properties":{"name":"Chopo de Sim\u00c3\u00b3n","osm_id":"5262297249","tag":{"genus":"Populus","leaf_cycle":"deciduous","leaf_type":"broadleaved","name:ca":"Pollancre Peral","natural":"tree","species":"Populus simonii"}},"type":"Feature"},
	{"geometry":{"coordinates":[0.072793,40.053213],"type":"Point"},"properties":{"name":"\u00c3\u0081rbol pica pica","osm_id":"5262297250","tag":{"genus":"Lagunaria","leaf_cycle":"deciduous","leaf_type":"broadleaved","name:ca":"Arbre pica pica","natural":"tree","species":"Lagunaria patersonii"}},"type":"Feature"},
	{"geometry":{"coordinates":[0.072859,40.053126],"type":"Point"},"properties":{"name":"Granado","osm_id":"5262297251","tag":{"genus":"Punica","leaf_cycle":"deciduous","leaf_type":"broadleaved","name:ca":"Mangraner","natural":"tree","species":"Punica granatum"}},"type":"Feature"},
	{"geometry":{"coordinates":[0.072402,40.052671],"type":"Point"},"properties":{"name":"Washingtonia","osm_id":"5262297252","tag":{"genus":"Washingtonia","leaf_cycle":"evergreen","leaf_type":"broadleaved","name:ca":"Washingtonia","natural":"tree","species":"Washingtonia robusta"}},"type":"Feature"},
	{"geometry":{"coordinates":[0.072508,40.052717],"type":"Point"},"properties":{"name":"Palmito","osm_id":"5262297253","tag":{"genus":"Chamaerops","leaf_cycle":"evergreen","leaf_type":"broadleaved","name:ca":"Margall\u00c3\u00b3","natural":"tree","species":"Chamaerops humilis"}},"type":"Feature"},
	{"geometry":{"coordinates":[0.072385,40.052794],"type":"Point"},"properties":{"name":"Palmera Canaria","osm_id":"5262297254","tag":{"genus":"Phoenix","leaf_cycle":"evergreen","leaf_type":"broadleaved","name:ca":"Palmera de Can\u00c3\u00a0ries","natural":"tree","species":"Phoenix canariensis"}},"type":"Feature"},
	{"geometry":{"coordinates":[0.07268,40.052813],"type":"Point"},"properties":{"name":"Rosa China","osm_id":"5262297255","tag":{"genus":"Hibiscus","leaf_cycle":"evergreen","leaf_type":"broadleaved","name:ca":"Hibisc de la Xina","natural":"tree","species":"Hibiscus rosa-sinensis"}},"type":"Feature"},
	{"geometry":{"coordinates":[0.072706,40.052844],"type":"Point"},"properties":{"name":"Espino de Fuego","osm_id":"5262297256","tag":{"genus":"Pyracantha","leaf_cycle":"evergreen","leaf_type":"broadleaved","name:ca":"Ar\u00c3\u00a7 de Foc","natural":"tree","species":"Pyracantha coccinea"}},"type":"Feature"},
	{"geometry":{"coordinates":[0.072824,40.052834],"type":"Point"},"properties":{"name":"Coco Plumoso","osm_id":"5262297257","tag":{"genus":"Syagrus","leaf_cycle":"evergreen","leaf_type":"broadleaved","name:ca":"Pind\u00c3\u00b3","natural":"tree","species":"Syagrus romanzoffiana"}},"type":"Feature"},
	{"geometry":{"coordinates":[0.073031,40.05272],"type":"Point"},"properties":{"name":"Turbinto","osm_id":"5262297260","tag":{"genus":"Schinus","leaf_cycle":"deciduous","leaf_type":"broadleaved","name:ca":"Pebrer Bord","natural":"tree","species":"Schinus terebinthifolius"}},"type":"Feature"},
	{"geometry":{"coordinates":[0.072833,40.052638],"type":"Point"},"properties":{"name":"Palo Borracho","osm_id":"5262297261","tag":{"genus":"Ceiba speciosa","leaf_cycle":"deciduous","leaf_type":"broadleaved","name:ca":"Arbre de la Llana","natural":"tree","species":"Ceiba speciosa"}},"type":"Feature"},
	{"geometry":{"coordinates":[0.072789,40.052502],"type":"Point"},"properties":{"name":"Jazm\u00c3\u00adn Azul","osm_id":"5262297262","tag":{"genus":"Plumbago auriculata","leaf_cycle":"evergreen","leaf_type":"broadleaved","name:ca":"Gesmil Blau","natural":"tree","species":"Plumbago auriculata"}},"type":"Feature"},
	{"geometry":{"coordinates":[0.072573,40.052405],"type":"Point"},"properties":{"name":"Tipuana","osm_id":"5262297263","tag":{"genus":"Tipuana","leaf_cycle":"semi_deciduous","leaf_type":"broadleaved","name:ca":"Tipuana","natural":"tree","species":"Tipuana tipu"}},"type":"Feature"},
	{"geometry":{"coordinates":[0.072467,40.05246],"type":"Point"},"properties":{"name":"Rosal Paisaj\u00c3\u00adstico","osm_id":"5262297264","tag":{"genus":"Rosa","leaf_cycle":"deciduous","leaf_type":"broadleaved","name:ca":"Roser Paisatg\u00c3\u00adstic","natural":"tree","species":"Rosa \"La Sevillana\""}},"type":"Feature"},
	{"geometry":{"coordinates":[0.072288,40.052623],"type":"Point"},"properties":{"name":"Naranjo Amargo","osm_id":"5262297265","tag":{"genus":"Citrus","leaf_cycle":"evergreen","leaf_type":"broadleaved","name:ca":"Taronger Agre","natural":"tree","species":"Citrus aurantium"}},"type":"Feature"},
	{"geometry":{"coordinates":[0.072286,40.052749],"type":"Point"},"properties":{"name":"Fresno de Hoja Estrecha","osm_id":"5262297266","tag":{"genus":"Fraxinus","leaf_cycle":"deciduous","leaf_type":"broadleaved","name:ca":"Freixe","natural":"tree","species":"Fraxinus angustifolia"}},"type":"Feature"},
	{"geometry":{"coordinates":[0.072219,40.052818],"type":"Point"},"properties":{"name":"Jacaranda","osm_id":"5262297267","tag":{"genus":"Jacaranda","leaf_cycle":"deciduous","leaf_type":"broadleaved","name:ca":"Xicaranda","natural":"tree","species":"Jacaranda mimosifolia"}},"type":"Feature"},
	{"geometry":{"coordinates":[0.072035,40.052873],"type":"Point"},"properties":{"name":"Ciruelo Rojo","osm_id":"5262297268","tag":{"genus":"Prunus","leaf_cycle":"deciduous","leaf_type":"broadleaved","name:ca":"Prunera de Fulla Roja","natural":"tree","species":"Prunus pissardii"}},"type":"Feature"},
	{"geometry":{"coordinates":[0.072018,40.053019],"type":"Point"},"properties":{"name":"Pino de Australia","osm_id":"5262297269","tag":{"genus":"Casuarina","leaf_cycle":"evergreen","leaf_type":"needleleaved","name:ca":"Pi d'Austr\u00c3\u00a0lia","natural":"tree","species":"Casuarina cunninghamiana"}},"type":"Feature"},
	{"geometry":{"coordinates":[0.071822,40.05322],"type":"Point"},"properties":{"name":"Pino de Norfolk","osm_id":"5262297270","tag":{"genus":"Araucaria","leaf_cycle":"evergreen","leaf_type":"needleleaved","name:ca":"Pi de Norfolk","natural":"tree","species":"Araucaria heterophylla"}},"type":"Feature"},
	{"geometry":{"coordinates":[0.07192,40.053366],"type":"Point"},"properties":{"name":"Jazm\u00c3\u00adn Com\u00c3\u00ban","osm_id":"5262297271","tag":{"genus":"Jasminum","leaf_cycle":"evergreen","leaf_type":"broadleaved","name:ca":"Gessam\u00c3\u00ad Com\u00c3\u00ba","natural":"tree","species":"Jasminum officinale"}},"type":"Feature"},
	{"geometry":{"coordinates":[0.068886,40.047137],"type":"Point"},"properties":{"osm_id":"5264675915","tag":{"natural":"tree"}},"type":"Feature"},
	{"geometry":{"coordinates":[0.069353,40.046964],"type":"Point"},"properties":{"osm_id":"5264675916","tag":{"natural":"tree"}},"type":"Feature"},
	{"geometry":{"coordinates":[0.068615,40.046648],"type":"Point"},"properties":{"osm_id":"5264677423","tag":{"natural":"tree"}},"type":"Feature"},
	{"geometry":{"coordinates":[0.052524,40.082637],"type":"Point"},"properties":{"osm_id":"6200442880","tag":{"denotation":"natural_monument","description":"Eucaliptus Monumental","genus":"Eucalyptus","natural":"tree"}},"type":"Feature"},
	{"geometry":{"coordinates":[0.08354,40.057242],"type":"Point"},"properties":{"name":"Palmera Canaria","osm_id":"7858580099","tag":{"genus":"Phoenix","leaf_cycle":"evergreen","leaf_type":"broadleaved","name:ca":"Palmera de Can\u00c3\u00a0ries","natural":"tree","species":"Phoenix canariensis"}},"type":"Feature"},
	{"geometry":{"coordinates":[0.083119,40.057114],"type":"Point"},"properties":{"name":"Pino de Norfolk","osm_id":"7858580100","tag":{"denotation":"urban","genus":"Araucaria","leaf_cycle":"evergreen","leaf_type":"needleleaved","name:ca":"Pi de Norfolk","natural":"tree","species":"Araucaria heterophylla"}},"type":"Feature"},
	{"geometry":{"coordinates":[0.083122,40.056898],"type":"Point"},"properties":{"name":"Palmera datilera","osm_id":"7858580101","tag":{"denotation":"urban","genus":"Phoenix","leaf_cycle":"evergreen","leaf_type":"needleleaved","natural":"tree","species":"Phoenix dactylifera"}},"type":"Feature"},
	{"geometry":{"coordinates":[0.082993,40.05713],"type":"Point"},"properties":{"name":"Pino de Canarias","osm_id":"7858580102","tag":{"denotation":"urban","genus":"Pinus","leaf_cycle":"evergreen","leaf_type":"needleleaved","natural":"tree","species":"Pinus canariensis"}},"type":"Feature"},
	{"geometry":{"coordinates":[0.083001,40.05723],"type":"Point"},"properties":{"name":"Ficus de Villa Elisa","osm_id":"7858580103","tag":{"circumference":"6,92","denotation":"natural_monument","diameter_crown":"2.20","genus":"Ficus","height":"17.10","historic":"memorial","inscription":"Jard\u00c3\u00ad d'en Vicent Navarro Andreu | (Jardiner d'aquesta casa durant 50 anys) | Benic\u00c3\u00a0ssim, Juliol 2004","leaf_cycle":"deciduous","leaf_type":"broadleaved","material":"stone","memorial":"plaque","natural":"tree","species":"Ficus macrophylla","start_date":"1906"}},"type":"Feature"},
	{"geometry":{"coordinates":[0.082904,40.057236],"type":"Point"},"properties":{"name":"Palmera de abanico china","osm_id":"7858580104","tag":{"denotation":"urban","genus":"Livistona","leaf_cycle":"evergreen","leaf_type":"needleleaved","natural":"tree","species":"Livistona chinensis"}},"type":"Feature"},
	{"geometry":{"coordinates":[0.083595,40.057495],"type":"Point"},"properties":{"name":"Pino australiano","osm_id":"7858580107","tag":{"denotation":"urban","genus":"Casuarina","leaf_cycle":"evergreen","leaf_type":"needleleaved","natural":"tree","species":"Casuarina cunninghamiana"}},"type":"Feature"},
	{"geometry":{"coordinates":[0.083708,40.057276],"type":"Point"},"properties":{"name":"Palmera Washingtonia de California","osm_id":"7858580108","tag":{"denotation":"urban","genus":"Washingtonia","leaf_cycle":"evergreen","leaf_type":"needleleaved","natural":"tree","species":"Washingtonia filifera"}},"type":"Feature"}
]
}
