{
"type": "FeatureCollection",
"features": [
	{"geometry":{"coordinates":[150.375865,-33.709776],"type":"Point"},"properties":{"osm_id":"6448989538","tag":{"amenity":"waste_basket"}},"type":"Feature"},
	{"geometry":{"coordinates":[150.331034,-33.712114],"type":"Point"},"properties":{"osm_id":"7887226463","tag":{"amenity":"waste_basket","flickr":"https://www.flickr.com/photos/190060616@N03/50318955533","layer":"0","material":"steel"}},"type":"Feature"},
	{"geometry":{"coordinates":[150.331183,-33.71312],"type":"Point"},"properties":{"osm_id":"7888780179","tag":{"amenity":"waste_basket","material":"steel"}},"type":"Feature"},
	{"geometry":{"coordinates":[150.330682,-33.711993],"type":"Point"},"properties":{"osm_id":"7927731830","tag":{"amenity":"waste_basket","flickr":"https://www.flickr.com/photos/190060616@N03/50318955533","layer":"0","material":"steel"}},"type":"Feature"},
	{"geometry":{"coordinates":[150.329978,-33.711619],"type":"Point"},"properties":{"osm_id":"7927731831","tag":{"amenity":"waste_basket","flickr":"https://www.flickr.com/photos/190060616@N03/50318955533","layer":"0","material":"steel"}},"type":"Feature"},
	{"geometry":{"coordinates":[150.331516,-33.714167],"type":"Point"},"properties":{"osm_id":"7946599303","tag":{"amenity":"waste_basket","material":"metal"}},"type":"Feature"},
	{"geometry":{"coordinates":[150.354794,-33.709656],"type":"Point"},"properties":{"osm_id":"8020566653","tag":{"amenity":"waste_basket"}},"type":"Feature"},
	{"geometry":{"coordinates":[150.311607,-33.713223],"type":"Point"},"properties":{"osm_id":"8326834682","tag":{"amenity":"waste_basket"}},"type":"Feature"},
	{"geometry":{"coordinates":[150.31164,-33.713053],"type":"Point"},"properties":{"osm_id":"8326834683","tag":{"amenity":"waste_basket"}},"type":"Feature"},
	{"geometry":{"coordinates":[150.310508,-33.716268],"type":"Point"},"properties":{"osm_id":"8558905195","tag":{"amenity":"waste_basket"}},"type":"Feature"},
	{"geometry":{"coordinates":[150.328757,-33.715669],"type":"Point"},"properties":{"osm_id":"8763061814","tag":{"amenity":"waste_basket","waste":"trash"}},"type":"Feature"},
	{"geometry":{"coordinates":[150.341444,-33.711831],"type":"Point"},"properties":{"osm_id":"9042709363","tag":{"amenity":"waste_basket","material":"plastic","waste":"trash"}},"type":"Feature"}
]
}
