{
"type": "FeatureCollection",
"features": [
	{"geometry":{"coordinates":[22.730598,63.643922],"type":"Point"},"properties":{"name":"Ekopunkt","osm_id":"388439845","tag":{"amenity":"recycling","fax":"+358 6 781 4529","name:fi":"Ekopiste","name:sv":"Ekopunkt","operator":"Ab Ekorosk Oy","phone":"+358 6 781 4500","recycling:batteries":"yes","recycling:glass":"yes","recycling:newspaper":"yes","recycling:paper":"yes","recycling:scrap_metal":"yes","website":"https://www.ekorosk.fi/"}},"type":"Feature"},
	{"geometry":{"coordinates":[22.7006,63.659111],"type":"Point"},"properties":{"name":"Ekopunkt","osm_id":"389396617","tag":{"amenity":"recycling","fax":"+358 6 781 4529","name:fi":"Ekopiste","name:sv":"Ekopunkt","operator":"Ab Ekorosk Oy","phone":"+358 6 781 4500","recycling:batteries":"yes","recycling:glass":"yes","recycling:newspaper":"yes","recycling:paper":"yes","recycling:scrap_metal":"yes","website":"https://www.ekorosk.fi/"}},"type":"Feature"},
	{"geometry":{"coordinates":[22.684976,63.662485],"type":"Point"},"properties":{"name":"Ekopunkt","osm_id":"390011836","tag":{"amenity":"recycling","fax":"+358 6 781 4529","name:fi":"Ekopiste","name:sv":"Ekopunkt","operator":"Ab Ekorosk Oy","phone":"+358 6 781 4500","recycling:batteries":"yes","recycling:cardboard":"yes","recycling:glass":"yes","recycling:newspaper":"yes","recycling:paper":"yes","recycling:scrap_metal":"yes","website":"https://www.ekorosk.fi/"}},"type":"Feature"},
	{"geometry":{"coordinates":[22.722352,63.65279],"type":"Point"},"properties":{"name":"Ekopunkt","osm_id":"559862915","tag":{"amenity":"recycling","fax":"06-781 4529","name:fi":"Ekopiste","name:sv":"Ekopunkt","phone":"06-781 4500","url":"http://www.ekorosk.fi/"}},"type":"Feature"},
	{"geometry":{"coordinates":[22.733055,63.649318],"type":"Point"},"properties":{"name":"Ekopunkt","osm_id":"2610504283","tag":{"amenity":"recycling","fax":"+358 6 781 4529","name:fi":"Ekopiste","name:sv":"Ekopunkt","operator":"Ab Ekorosk Oy","phone":"+358 6 781 4500","recycling:batteries":"yes","recycling:glass":"yes","recycling:newspaper":"yes","recycling:paper":"yes","recycling:scrap_metal":"yes","website":"https://www.ekorosk.fi/"}},"type":"Feature"}
]
}
