{
"type": "FeatureCollection",
"features": [
	{"geometry":{"coordinates":[22.696023,51.215631],"type":"Point"},"properties":{"osm_id":"3027543193","tag":{"amenity":"recycling"}},"type":"Feature"},
	{"geometry":{"coordinates":[22.700421,51.216285],"type":"Point"},"properties":{"osm_id":"3028855252","tag":{"amenity":"recycling"}},"type":"Feature"},
	{"geometry":{"coordinates":[22.709079,51.213378],"type":"Point"},"properties":{"osm_id":"3048336007","tag":{"amenity":"recycling","recycling_type":"container"}},"type":"Feature"},
	{"geometry":{"coordinates":[22.703432,51.212553],"type":"Point"},"properties":{"osm_id":"3305122668","tag":{"amenity":"recycling"}},"type":"Feature"},
	{"geometry":{"coordinates":[22.702185,51.211184],"type":"Point"},"properties":{"osm_id":"3349032749","tag":{"amenity":"recycling"}},"type":"Feature"},
	{"geometry":{"coordinates":[22.703528,51.21186],"type":"Point"},"properties":{"osm_id":"3349032783","tag":{"amenity":"recycling"}},"type":"Feature"},
	{"geometry":{"coordinates":[22.70031,51.209536],"type":"Point"},"properties":{"osm_id":"3395710450","tag":{"amenity":"recycling"}},"type":"Feature"},
	{"geometry":{"coordinates":[22.693556,51.21431],"type":"Point"},"properties":{"osm_id":"3399013719","tag":{"amenity":"recycling"}},"type":"Feature"},
	{"geometry":{"coordinates":[22.689768,51.213823],"type":"Point"},"properties":{"osm_id":"3401222429","tag":{"amenity":"recycling","location":"overground","recycling_type":"container"}},"type":"Feature"},
	{"geometry":{"coordinates":[22.690872,51.2137],"type":"Point"},"properties":{"osm_id":"3401222793","tag":{"amenity":"recycling"}},"type":"Feature"},
	{"geometry":{"coordinates":[22.695176,51.213401],"type":"Point"},"properties":{"osm_id":"3402908259","tag":{"amenity":"recycling"}},"type":"Feature"},
	{"geometry":{"coordinates":[22.697471,51.213802],"type":"Point"},"properties":{"osm_id":"3404830869","tag":{"amenity":"recycling","location":"overground","recycling_type":"container"}},"type":"Feature"},
	{"geometry":{"coordinates":[22.694341,51.212991],"type":"Point"},"properties":{"osm_id":"3405699628","tag":{"amenity":"recycling"}},"type":"Feature"},
	{"geometry":{"coordinates":[22.700736,51.210128],"type":"Point"},"properties":{"osm_id":"3407968064","tag":{"amenity":"recycling"}},"type":"Feature"},
	{"geometry":{"coordinates":[22.701561,51.210611],"type":"Point"},"properties":{"osm_id":"3407968065","tag":{"amenity":"recycling"}},"type":"Feature"},
	{"geometry":{"coordinates":[22.693051,51.217407],"type":"Point"},"properties":{"osm_id":"3414976568","tag":{"amenity":"recycling"}},"type":"Feature"},
	{"geometry":{"coordinates":[22.696675,51.217345],"type":"Point"},"properties":{"osm_id":"3416298988","tag":{"amenity":"recycling"}},"type":"Feature"},
	{"geometry":{"coordinates":[22.69565,51.217386],"type":"Point"},"properties":{"osm_id":"3416299185","tag":{"amenity":"recycling"}},"type":"Feature"},
	{"geometry":{"coordinates":[22.706898,51.213513],"type":"Point"},"properties":{"osm_id":"3422739041","tag":{"amenity":"recycling"}},"type":"Feature"},
	{"geometry":{"coordinates":[22.705397,51.214499],"type":"Point"},"properties":{"osm_id":"3424207792","tag":{"amenity":"recycling"}},"type":"Feature"},
	{"geometry":{"coordinates":[22.69629,51.214491],"type":"Point"},"properties":{"osm_id":"3427837693","tag":{"amenity":"recycling"}},"type":"Feature"},
	{"geometry":{"coordinates":[22.7026,51.21735],"type":"Point"},"properties":{"osm_id":"3531293684","tag":{"amenity":"recycling"}},"type":"Feature"},
	{"geometry":{"coordinates":[22.696037,51.219145],"type":"Point"},"properties":{"osm_id":"3605800387","tag":{"amenity":"recycling"}},"type":"Feature"},
	{"geometry":{"coordinates":[22.70191,51.216471],"type":"Point"},"properties":{"osm_id":"3611026771","tag":{"amenity":"recycling"}},"type":"Feature"},
	{"geometry":{"coordinates":[22.703604,51.215999],"type":"Point"},"properties":{"osm_id":"3633600534","tag":{"amenity":"recycling"}},"type":"Feature"},
	{"geometry":{"coordinates":[22.706215,51.218816],"type":"Point"},"properties":{"osm_id":"3744523327","tag":{"amenity":"recycling"}},"type":"Feature"},
	{"geometry":{"coordinates":[22.706366,51.218207],"type":"Point"},"properties":{"osm_id":"3746258460","tag":{"amenity":"recycling"}},"type":"Feature"},
	{"geometry":{"coordinates":[22.703161,51.21927],"type":"Point"},"properties":{"osm_id":"3746258516","tag":{"amenity":"recycling"}},"type":"Feature"},
	{"geometry":{"coordinates":[22.70575,51.227822],"type":"Point"},"properties":{"name":"Lubelska Agencja Ochrony \u00c5\u009arodowiska S.A.","osm_id":"4275309491","tag":{"amenity":"recycling","description":"firma odbieraj\u00c4\u0085ca odpady przemys\u00c5\u0082owe oraz wykonuj\u00c4\u0085ca badania czynnik\u00c3\u00b3w szkodliwych na stanowiskach pracy","recycling_type":"centre","website":"https://www.laos.com.pl/"}},"type":"Feature"},
	{"geometry":{"coordinates":[22.697912,51.214723],"type":"Point"},"properties":{"osm_id":"4381349741","tag":{"amenity":"recycling"}},"type":"Feature"},
	{"geometry":{"coordinates":[22.703942,51.208773],"type":"Point"},"properties":{"osm_id":"4386324760","tag":{"amenity":"recycling"}},"type":"Feature"},
	{"geometry":{"coordinates":[22.704721,51.20937],"type":"Point"},"properties":{"osm_id":"4386325027","tag":{"amenity":"recycling"}},"type":"Feature"},
	{"geometry":{"coordinates":[22.705119,51.209282],"type":"Point"},"properties":{"osm_id":"4386325063","tag":{"amenity":"recycling"}},"type":"Feature"},
	{"geometry":{"coordinates":[22.698397,51.219729],"type":"Point"},"properties":{"osm_id":"4716681028","tag":{"amenity":"recycling","recycling_type":"container"}},"type":"Feature"},
	{"geometry":{"coordinates":[22.701326,51.220832],"type":"Point"},"properties":{"osm_id":"4716807053","tag":{"amenity":"recycling","recycling_type":"container"}},"type":"Feature"},
	{"geometry":{"coordinates":[22.69564,51.221889],"type":"Point"},"properties":{"osm_id":"4728064778","tag":{"amenity":"recycling","recycling_type":"container"}},"type":"Feature"},
	{"geometry":{"coordinates":[22.694912,51.217221],"type":"Point"},"properties":{"osm_id":"4736825528","tag":{"amenity":"recycling","recycling_type":"container"}},"type":"Feature"},
	{"geometry":{"coordinates":[22.69699,51.21633],"type":"Point"},"properties":{"osm_id":"4737932551","tag":{"amenity":"recycling","recycling_type":"container"}},"type":"Feature"},
	{"geometry":{"coordinates":[22.694131,51.219505],"type":"Point"},"properties":{"osm_id":"4741786340","tag":{"amenity":"recycling","recycling_type":"container"}},"type":"Feature"},
	{"geometry":{"coordinates":[22.694932,51.220265],"type":"Point"},"properties":{"osm_id":"4741786445","tag":{"amenity":"recycling","recycling_type":"container"}},"type":"Feature"},
	{"geometry":{"coordinates":[22.696367,51.220108],"type":"Point"},"properties":{"osm_id":"4741945770","tag":{"amenity":"recycling","recycling_type":"container"}},"type":"Feature"},
	{"geometry":{"coordinates":[22.701907,51.215104],"type":"Point"},"properties":{"osm_id":"4745202538","tag":{"amenity":"recycling","recycling_type":"container"}},"type":"Feature"},
	{"geometry":{"coordinates":[22.702902,51.214856],"type":"Point"},"properties":{"osm_id":"4745202569","tag":{"amenity":"recycling","recycling_type":"container"}},"type":"Feature"},
	{"geometry":{"coordinates":[22.700743,51.208676],"type":"Point"},"properties":{"osm_id":"4754617925","tag":{"amenity":"recycling","recycling_type":"container"}},"type":"Feature"},
	{"geometry":{"coordinates":[22.705158,51.211322],"type":"Point"},"properties":{"osm_id":"4821523114","tag":{"amenity":"recycling","recycling_type":"container"}},"type":"Feature"},
	{"geometry":{"coordinates":[22.70516,51.211424],"type":"Point"},"properties":{"osm_id":"4821523119","tag":{"amenity":"recycling","recycling_type":"container"}},"type":"Feature"},
	{"geometry":{"coordinates":[22.707606,51.212325],"type":"Point"},"properties":{"osm_id":"4860694498","tag":{"amenity":"recycling","recycling_type":"container"}},"type":"Feature"},
	{"geometry":{"coordinates":[22.69256,51.21022],"type":"Point"},"properties":{"osm_id":"4899899570","tag":{"amenity":"recycling","recycling_type":"container"}},"type":"Feature"},
	{"geometry":{"coordinates":[22.690317,51.211286],"type":"Point"},"properties":{"osm_id":"4902976149","tag":{"amenity":"recycling","recycling_type":"container"}},"type":"Feature"},
	{"geometry":{"coordinates":[22.689742,51.212084],"type":"Point"},"properties":{"osm_id":"4902976256","tag":{"amenity":"recycling","recycling_type":"container"}},"type":"Feature"},
	{"geometry":{"coordinates":[22.70441,51.215888],"type":"Point"},"properties":{"osm_id":"4940188070","tag":{"amenity":"recycling","recycling_type":"container"}},"type":"Feature"},
	{"geometry":{"coordinates":[22.707014,51.218476],"type":"Point"},"properties":{"osm_id":"4940928826","tag":{"amenity":"recycling","recycling_type":"container"}},"type":"Feature"},
	{"geometry":{"coordinates":[22.708313,51.218423],"type":"Point"},"properties":{"osm_id":"4940928883","tag":{"amenity":"recycling","recycling_type":"container"}},"type":"Feature"},
	{"geometry":{"coordinates":[22.699887,51.212158],"type":"Point"},"properties":{"osm_id":"4947194633","tag":{"amenity":"recycling","recycling_type":"container"}},"type":"Feature"},
	{"geometry":{"coordinates":[22.706517,51.210158],"type":"Point"},"properties":{"osm_id":"4959168918","tag":{"amenity":"recycling","recycling_type":"container"}},"type":"Feature"},
	{"geometry":{"coordinates":[22.69792,51.211259],"type":"Point"},"properties":{"osm_id":"5071482481","tag":{"amenity":"recycling","recycling_type":"container"}},"type":"Feature"},
	{"geometry":{"coordinates":[22.686945,51.210598],"type":"Point"},"properties":{"osm_id":"5081999658","tag":{"amenity":"recycling","recycling_type":"container"}},"type":"Feature"},
	{"geometry":{"coordinates":[22.688036,51.210287],"type":"Point"},"properties":{"osm_id":"5082002699","tag":{"amenity":"recycling","recycling_type":"container"}},"type":"Feature"},
	{"geometry":{"coordinates":[22.68851,51.210088],"type":"Point"},"properties":{"osm_id":"5082002718","tag":{"amenity":"recycling","recycling_type":"container"}},"type":"Feature"},
	{"geometry":{"coordinates":[22.70172,51.222552],"type":"Point"},"properties":{"osm_id":"5115902032","tag":{"addr:city":"\u00c5\u009awidnik","addr:housenumber":"14","addr:postcode":"21-040","addr:street":"Targowa","amenity":"recycling","recycling_type":"container"}},"type":"Feature"},
	{"geometry":{"coordinates":[22.707965,51.22021],"type":"Point"},"properties":{"osm_id":"5118405761","tag":{"amenity":"recycling","recycling_type":"container"}},"type":"Feature"},
	{"geometry":{"coordinates":[22.708771,51.219375],"type":"Point"},"properties":{"osm_id":"5120919031","tag":{"amenity":"recycling","recycling_type":"container"}},"type":"Feature"},
	{"geometry":{"coordinates":[22.709182,51.219963],"type":"Point"},"properties":{"osm_id":"5120919056","tag":{"amenity":"recycling","recycling_type":"container"}},"type":"Feature"},
	{"geometry":{"coordinates":[22.703915,51.219715],"type":"Point"},"properties":{"osm_id":"5120919801","tag":{"amenity":"recycling","recycling_type":"container"}},"type":"Feature"},
	{"geometry":{"coordinates":[22.706121,51.220124],"type":"Point"},"properties":{"osm_id":"5129062540","tag":{"amenity":"recycling","recycling_type":"container"}},"type":"Feature"},
	{"geometry":{"coordinates":[22.70497,51.221026],"type":"Point"},"properties":{"osm_id":"5131696536","tag":{"amenity":"recycling","recycling_type":"container"}},"type":"Feature"},
	{"geometry":{"coordinates":[22.702854,51.221339],"type":"Point"},"properties":{"osm_id":"5131696991","tag":{"amenity":"recycling","recycling_type":"container"}},"type":"Feature"},
	{"geometry":{"coordinates":[22.704497,51.220115],"type":"Point"},"properties":{"osm_id":"5133332414","tag":{"amenity":"recycling","recycling_type":"container"}},"type":"Feature"},
	{"geometry":{"coordinates":[22.702408,51.220527],"type":"Point"},"properties":{"osm_id":"5133333208","tag":{"amenity":"recycling","recycling:cardboard":"yes","recycling:glass":"yes","recycling:paper":"yes","recycling:paper_packaging":"yes","recycling:plastic":"yes","recycling:plastic_bottles":"yes","recycling:waste":"yes","recycling_type":"container"}},"type":"Feature"},
	{"geometry":{"coordinates":[22.698464,51.220884],"type":"Point"},"properties":{"osm_id":"5139927079","tag":{"amenity":"recycling","recycling_type":"container"}},"type":"Feature"},
	{"geometry":{"coordinates":[22.702806,51.219907],"type":"Point"},"properties":{"osm_id":"5141331352","tag":{"amenity":"recycling","recycling_type":"container"}},"type":"Feature"},
	{"geometry":{"coordinates":[22.701838,51.220049],"type":"Point"},"properties":{"osm_id":"5141331397","tag":{"amenity":"recycling","recycling_type":"container"}},"type":"Feature"},
	{"geometry":{"coordinates":[22.714255,51.218339],"type":"Point"},"properties":{"osm_id":"5150371389","tag":{"amenity":"recycling","recycling_type":"container"}},"type":"Feature"},
	{"geometry":{"coordinates":[22.714018,51.220158],"type":"Point"},"properties":{"osm_id":"5150371531","tag":{"amenity":"recycling","recycling_type":"container"}},"type":"Feature"},
	{"geometry":{"coordinates":[22.714714,51.219476],"type":"Point"},"properties":{"osm_id":"5150371532","tag":{"amenity":"recycling","recycling_type":"container"}},"type":"Feature"},
	{"geometry":{"coordinates":[22.710374,51.218808],"type":"Point"},"properties":{"osm_id":"5150629047","tag":{"amenity":"recycling","recycling_type":"container"}},"type":"Feature"},
	{"geometry":{"coordinates":[22.71227,51.218977],"type":"Point"},"properties":{"osm_id":"5152031140","tag":{"amenity":"recycling","recycling_type":"container"}},"type":"Feature"},
	{"geometry":{"coordinates":[22.712521,51.215242],"type":"Point"},"properties":{"osm_id":"5152330418","tag":{"amenity":"recycling","recycling_type":"container"}},"type":"Feature"},
	{"geometry":{"coordinates":[22.716382,51.218627],"type":"Point"},"properties":{"osm_id":"5153305765","tag":{"amenity":"recycling","recycling_type":"container"}},"type":"Feature"},
	{"geometry":{"coordinates":[22.715493,51.217644],"type":"Point"},"properties":{"osm_id":"5153305797","tag":{"amenity":"recycling","recycling_type":"container"}},"type":"Feature"},
	{"geometry":{"coordinates":[22.70931,51.21674],"type":"Point"},"properties":{"osm_id":"5153588389","tag":{"amenity":"recycling","recycling_type":"container"}},"type":"Feature"},
	{"geometry":{"coordinates":[22.710363,51.216438],"type":"Point"},"properties":{"osm_id":"5153588672","tag":{"amenity":"recycling","recycling_type":"container"}},"type":"Feature"},
	{"geometry":{"coordinates":[22.714305,51.216511],"type":"Point"},"properties":{"osm_id":"5154190651","tag":{"amenity":"recycling","recycling_type":"container"}},"type":"Feature"},
	{"geometry":{"coordinates":[22.69021,51.199755],"type":"Point"},"properties":{"osm_id":"5288561971","tag":{"amenity":"waste_basket"}},"type":"Feature"},
	{"geometry":{"coordinates":[22.69614,51.220152],"type":"Point"},"properties":{"osm_id":"5308433197","tag":{"amenity":"waste_basket"}},"type":"Feature"},
	{"geometry":{"coordinates":[22.695382,51.220258],"type":"Point"},"properties":{"osm_id":"5308433198","tag":{"amenity":"waste_basket"}},"type":"Feature"},
	{"geometry":{"coordinates":[22.695258,51.220129],"type":"Point"},"properties":{"osm_id":"5308433199","tag":{"amenity":"waste_basket"}},"type":"Feature"},
	{"geometry":{"coordinates":[22.695174,51.219897],"type":"Point"},"properties":{"osm_id":"5308433200","tag":{"amenity":"waste_basket"}},"type":"Feature"},
	{"geometry":{"coordinates":[22.695072,51.219774],"type":"Point"},"properties":{"osm_id":"5308433201","tag":{"amenity":"waste_basket"}},"type":"Feature"},
	{"geometry":{"coordinates":[22.695084,51.219649],"type":"Point"},"properties":{"osm_id":"5308433202","tag":{"amenity":"waste_basket"}},"type":"Feature"},
	{"geometry":{"coordinates":[22.695038,51.21953],"type":"Point"},"properties":{"osm_id":"5308433203","tag":{"amenity":"waste_basket"}},"type":"Feature"},
	{"geometry":{"coordinates":[22.693843,51.218918],"type":"Point"},"properties":{"osm_id":"5308439465","tag":{"amenity":"waste_basket"}},"type":"Feature"},
	{"geometry":{"coordinates":[22.69359,51.218693],"type":"Point"},"properties":{"osm_id":"5311950193","tag":{"amenity":"waste_basket"}},"type":"Feature"},
	{"geometry":{"coordinates":[22.694151,51.218954],"type":"Point"},"properties":{"osm_id":"5311950200","tag":{"amenity":"waste_basket","waste":"dog_excrement"}},"type":"Feature"},
	{"geometry":{"coordinates":[22.693337,51.220422],"type":"Point"},"properties":{"osm_id":"5313672961","tag":{"amenity":"waste_basket"}},"type":"Feature"},
	{"geometry":{"coordinates":[22.693671,51.218953],"type":"Point"},"properties":{"osm_id":"5315501580","tag":{"amenity":"waste_basket"}},"type":"Feature"},
	{"geometry":{"coordinates":[22.693873,51.220033],"type":"Point"},"properties":{"osm_id":"5315501583","tag":{"amenity":"waste_basket"}},"type":"Feature"},
	{"geometry":{"coordinates":[22.693979,51.220138],"type":"Point"},"properties":{"osm_id":"5315501584","tag":{"amenity":"waste_basket"}},"type":"Feature"},
	{"geometry":{"coordinates":[22.707495,51.215948],"type":"Point"},"properties":{"osm_id":"5437868388","tag":{"amenity":"recycling","recycling_type":"container"}},"type":"Feature"},
	{"geometry":{"coordinates":[22.707769,51.216425],"type":"Point"},"properties":{"osm_id":"5440247137","tag":{"amenity":"recycling","recycling_type":"container"}},"type":"Feature"},
	{"geometry":{"coordinates":[22.708903,51.217199],"type":"Point"},"properties":{"osm_id":"5440247357","tag":{"amenity":"recycling","recycling_type":"container"}},"type":"Feature"},
	{"geometry":{"coordinates":[22.707419,51.216999],"type":"Point"},"properties":{"osm_id":"5440247358","tag":{"amenity":"recycling","recycling_type":"container"}},"type":"Feature"},
	{"geometry":{"coordinates":[22.698597,51.221414],"type":"Point"},"properties":{"osm_id":"5443703505","tag":{"amenity":"recycling","recycling_type":"container"}},"type":"Feature"},
	{"geometry":{"coordinates":[22.695947,51.221091],"type":"Point"},"properties":{"osm_id":"5443703621","tag":{"amenity":"recycling","recycling_type":"container"}},"type":"Feature"},
	{"geometry":{"coordinates":[22.696952,51.222078],"type":"Point"},"properties":{"osm_id":"5446322569","tag":{"amenity":"recycling","recycling_type":"container"}},"type":"Feature"},
	{"geometry":{"coordinates":[22.701246,51.218666],"type":"Point"},"properties":{"osm_id":"5459909522","tag":{"amenity":"recycling","recycling_type":"container"}},"type":"Feature"},
	{"geometry":{"coordinates":[22.701577,51.219334],"type":"Point"},"properties":{"osm_id":"5459909548","tag":{"amenity":"recycling","recycling_type":"container"}},"type":"Feature"},
	{"geometry":{"coordinates":[22.701134,51.218342],"type":"Point"},"properties":{"osm_id":"5462524901","tag":{"amenity":"recycling","recycling_type":"container"}},"type":"Feature"},
	{"geometry":{"coordinates":[22.70578,51.216607],"type":"Point"},"properties":{"osm_id":"5462843162","tag":{"amenity":"recycling","recycling_type":"container"}},"type":"Feature"},
	{"geometry":{"coordinates":[22.704368,51.218479],"type":"Point"},"properties":{"osm_id":"5473851551","tag":{"amenity":"recycling","recycling_type":"container"}},"type":"Feature"},
	{"geometry":{"coordinates":[22.702519,51.209268],"type":"Point"},"properties":{"osm_id":"7454738261","tag":{"amenity":"recycling","recycling_type":"centre"}},"type":"Feature"},
	{"geometry":{"coordinates":[22.697363,51.219068],"type":"Point"},"properties":{"osm_id":"7500651186","tag":{"amenity":"recycling","recycling_type":"container"}},"type":"Feature"}
]
}
