{
"type": "FeatureCollection",
"features": [
	{"geometry":{"coordinates":[22.737711,50.562592],"type":"Point"},"properties":{"osm_id":"4299778548","tag":{"amenity":"waste_basket","check_date":"2021-04-02"}},"type":"Feature"},
	{"geometry":{"coordinates":[22.740147,50.565347],"type":"Point"},"properties":{"osm_id":"4299778555","tag":{"amenity":"waste_basket"}},"type":"Feature"},
	{"geometry":{"coordinates":[22.729099,50.56697],"type":"Point"},"properties":{"osm_id":"4351464051","tag":{"amenity":"waste_basket","check_date":"2021-03-28"}},"type":"Feature"},
	{"geometry":{"coordinates":[22.731326,50.554148],"type":"Point"},"properties":{"osm_id":"6455508478","tag":{"amenity":"waste_basket","surface":"wood"}},"type":"Feature"},
	{"geometry":{"coordinates":[22.721375,50.542846],"type":"Point"},"properties":{"osm_id":"8510695094","tag":{"amenity":"waste_basket"}},"type":"Feature"},
	{"geometry":{"coordinates":[22.721548,50.54284],"type":"Point"},"properties":{"osm_id":"8510695096","tag":{"amenity":"waste_basket"}},"type":"Feature"},
	{"geometry":{"coordinates":[22.720901,50.542814],"type":"Point"},"properties":{"osm_id":"8510695097","tag":{"amenity":"waste_basket"}},"type":"Feature"},
	{"geometry":{"coordinates":[22.720817,50.542963],"type":"Point"},"properties":{"osm_id":"8510695098","tag":{"amenity":"waste_basket"}},"type":"Feature"},
	{"geometry":{"coordinates":[22.720402,50.542181],"type":"Point"},"properties":{"osm_id":"8510695099","tag":{"amenity":"waste_basket"}},"type":"Feature"},
	{"geometry":{"coordinates":[22.720522,50.542444],"type":"Point"},"properties":{"osm_id":"8510695100","tag":{"amenity":"waste_basket"}},"type":"Feature"},
	{"geometry":{"coordinates":[22.720895,50.542677],"type":"Point"},"properties":{"osm_id":"8510695101","tag":{"amenity":"waste_basket"}},"type":"Feature"},
	{"geometry":{"coordinates":[22.721025,50.542665],"type":"Point"},"properties":{"osm_id":"8510695102","tag":{"amenity":"waste_basket"}},"type":"Feature"},
	{"geometry":{"coordinates":[22.721259,50.542503],"type":"Point"},"properties":{"osm_id":"8510695103","tag":{"amenity":"waste_basket"}},"type":"Feature"},
	{"geometry":{"coordinates":[22.721011,50.542323],"type":"Point"},"properties":{"osm_id":"8510695104","tag":{"amenity":"waste_basket"}},"type":"Feature"},
	{"geometry":{"coordinates":[22.720532,50.542588],"type":"Point"},"properties":{"osm_id":"8510891256","tag":{"amenity":"recycling","location":"overground","recycling:glass_bottles":"yes","recycling:mixed":"yes","recycling:paper":"yes","recycling:plastic":"yes","recycling_type":"container"}},"type":"Feature"},
	{"geometry":{"coordinates":[22.721571,50.542135],"type":"Point"},"properties":{"osm_id":"8511179847","tag":{"amenity":"waste_basket"}},"type":"Feature"},
	{"geometry":{"coordinates":[22.721664,50.542747],"type":"Point"},"properties":{"osm_id":"8511239982","tag":{"amenity":"recycling","location":"overground","recycling:glass_bottles":"yes","recycling:mixed":"yes","recycling:paper":"yes","recycling:plastic":"yes","recycling_type":"container"}},"type":"Feature"},
	{"geometry":{"coordinates":[22.720422,50.542485],"type":"Point"},"properties":{"osm_id":"8512904744","tag":{"amenity":"waste_basket"}},"type":"Feature"},
	{"geometry":{"coordinates":[22.720527,50.542697],"type":"Point"},"properties":{"osm_id":"8512904745","tag":{"amenity":"waste_basket"}},"type":"Feature"},
	{"geometry":{"coordinates":[22.720651,50.542704],"type":"Point"},"properties":{"osm_id":"8512962441","tag":{"amenity":"waste_basket"}},"type":"Feature"},
	{"geometry":{"coordinates":[22.721279,50.542395],"type":"Point"},"properties":{"osm_id":"8512962442","tag":{"amenity":"waste_basket"}},"type":"Feature"},
	{"geometry":{"coordinates":[22.721352,50.54237],"type":"Point"},"properties":{"osm_id":"8512962443","tag":{"amenity":"waste_basket"}},"type":"Feature"},
	{"geometry":{"coordinates":[22.721772,50.542282],"type":"Point"},"properties":{"osm_id":"8512962444","tag":{"amenity":"waste_basket"}},"type":"Feature"},
	{"geometry":{"coordinates":[22.721873,50.542363],"type":"Point"},"properties":{"osm_id":"8512962445","tag":{"amenity":"waste_basket"}},"type":"Feature"},
	{"geometry":{"coordinates":[22.721491,50.542958],"type":"Point"},"properties":{"osm_id":"8513015142","tag":{"amenity":"waste_basket"}},"type":"Feature"},
	{"geometry":{"coordinates":[22.722269,50.549558],"type":"Point"},"properties":{"osm_id":"8517809540","tag":{"amenity":"recycling","location":"overground","operator":"Green Velo","recycling:glass_bottles":"yes","recycling:green_waste":"yes","recycling:paper":"yes","recycling:plastic":"yes","recycling_type":"container","surface":"wood"}},"type":"Feature"},
	{"geometry":{"coordinates":[22.728962,50.556136],"type":"Point"},"properties":{"osm_id":"8518931508","tag":{"amenity":"waste_basket","surface":"wood"}},"type":"Feature"},
	{"geometry":{"coordinates":[22.72954,50.556307],"type":"Point"},"properties":{"osm_id":"8518931509","tag":{"amenity":"waste_basket","surface":"wood"}},"type":"Feature"},
	{"geometry":{"coordinates":[22.729335,50.556262],"type":"Point"},"properties":{"osm_id":"8518931512","tag":{"amenity":"waste_basket","surface":"wood"}},"type":"Feature"},
	{"geometry":{"coordinates":[22.729742,50.556271],"type":"Point"},"properties":{"osm_id":"8518945418","tag":{"amenity":"waste_basket","surface":"wood"}},"type":"Feature"},
	{"geometry":{"coordinates":[22.73019,50.556103],"type":"Point"},"properties":{"osm_id":"8518945422","tag":{"amenity":"waste_basket","surface":"wood","waste":"dog_excrement"}},"type":"Feature"},
	{"geometry":{"coordinates":[22.730348,50.556044],"type":"Point"},"properties":{"osm_id":"8518945423","tag":{"amenity":"waste_basket","surface":"wood","waste":"trash;cigarettes"}},"type":"Feature"},
	{"geometry":{"coordinates":[22.731274,50.554691],"type":"Point"},"properties":{"osm_id":"8518945435","tag":{"amenity":"waste_basket","surface":"wood"}},"type":"Feature"},
	{"geometry":{"coordinates":[22.731273,50.5545],"type":"Point"},"properties":{"osm_id":"8518945437","tag":{"amenity":"waste_basket","surface":"wood","waste":"cigarettes;trash"}},"type":"Feature"},
	{"geometry":{"coordinates":[22.731245,50.553952],"type":"Point"},"properties":{"osm_id":"8518945442","tag":{"amenity":"waste_basket","surface":"wood"}},"type":"Feature"},
	{"geometry":{"coordinates":[22.731163,50.553756],"type":"Point"},"properties":{"osm_id":"8518945444","tag":{"amenity":"waste_basket","surface":"wood"}},"type":"Feature"},
	{"geometry":{"coordinates":[22.730856,50.553618],"type":"Point"},"properties":{"osm_id":"8518945447","tag":{"amenity":"waste_basket","surface":"wood"}},"type":"Feature"},
	{"geometry":{"coordinates":[22.730534,50.553609],"type":"Point"},"properties":{"osm_id":"8518945449","tag":{"amenity":"waste_basket","surface":"wood"}},"type":"Feature"},
	{"geometry":{"coordinates":[22.73012,50.553614],"type":"Point"},"properties":{"osm_id":"8518945452","tag":{"amenity":"waste_basket","surface":"wood"}},"type":"Feature"},
	{"geometry":{"coordinates":[22.729545,50.553619],"type":"Point"},"properties":{"osm_id":"8518945455","tag":{"amenity":"waste_basket","surface":"wood"}},"type":"Feature"},
	{"geometry":{"coordinates":[22.728853,50.553438],"type":"Point"},"properties":{"osm_id":"8518978824","tag":{"amenity":"waste_basket","surface":"wood"}},"type":"Feature"},
	{"geometry":{"coordinates":[22.728942,50.553436],"type":"Point"},"properties":{"osm_id":"8518978825","tag":{"amenity":"waste_basket","surface":"wood"}},"type":"Feature"},
	{"geometry":{"coordinates":[22.728691,50.553318],"type":"Point"},"properties":{"osm_id":"8518978828","tag":{"amenity":"waste_basket","surface":"wood"}},"type":"Feature"},
	{"geometry":{"coordinates":[22.728775,50.553282],"type":"Point"},"properties":{"osm_id":"8518978829","tag":{"amenity":"waste_basket","surface":"wood"}},"type":"Feature"},
	{"geometry":{"coordinates":[22.728745,50.553174],"type":"Point"},"properties":{"osm_id":"8518978836","tag":{"amenity":"waste_basket","colour":"orange"}},"type":"Feature"},
	{"geometry":{"coordinates":[22.729193,50.553201],"type":"Point"},"properties":{"osm_id":"8518978845","tag":{"amenity":"waste_basket","surface":"wood"}},"type":"Feature"},
	{"geometry":{"coordinates":[22.716246,50.544317],"type":"Point"},"properties":{"osm_id":"8521587802","tag":{"amenity":"waste_basket","material":"wood"}},"type":"Feature"},
	{"geometry":{"coordinates":[22.716108,50.544206],"type":"Point"},"properties":{"osm_id":"8521587803","tag":{"amenity":"waste_basket","material":"wood"}},"type":"Feature"},
	{"geometry":{"coordinates":[22.715723,50.544376],"type":"Point"},"properties":{"osm_id":"8521587805","tag":{"amenity":"waste_basket","material":"wood"}},"type":"Feature"},
	{"geometry":{"coordinates":[22.692945,50.568839],"type":"Point"},"properties":{"osm_id":"8568839190","tag":{"amenity":"waste_basket"}},"type":"Feature"},
	{"geometry":{"coordinates":[22.692793,50.568937],"type":"Point"},"properties":{"osm_id":"8568839195","tag":{"amenity":"waste_basket"}},"type":"Feature"},
	{"geometry":{"coordinates":[22.691712,50.569116],"type":"Point"},"properties":{"osm_id":"8568847523","tag":{"amenity":"waste_basket"}},"type":"Feature"},
	{"geometry":{"coordinates":[22.708407,50.537156],"type":"Point"},"properties":{"name":"Pojemnik na odzie\u00c5\u00bc u\u00c5\u00bcywan\u00c4\u0085","osm_id":"8571884334","ref":"82350","tag":{"amenity":"recycling","operator":"Polski Czerwony Krzy\u00c5\u00bc","recycling:clothes":"yes","recycling_type":"container"}},"type":"Feature"},
	{"geometry":{"coordinates":[22.69994,50.533066],"type":"Point"},"properties":{"name":"Pojemnik na odzie\u00c5\u00bc u\u00c5\u00bcywan\u00c4\u0085","osm_id":"8571903427","ref":"76364","tag":{"amenity":"recycling","operator":"Polski Czerwony Krzy\u00c5\u00bc","recycling:clothes":"yes","recycling_type":"container"}},"type":"Feature"},
	{"geometry":{"coordinates":[22.732472,50.548085],"type":"Point"},"properties":{"osm_id":"8635011567","tag":{"amenity":"waste_basket"}},"type":"Feature"},
	{"geometry":{"coordinates":[22.737724,50.524552],"type":"Point"},"properties":{"osm_id":"8671590476","tag":{"amenity":"waste_basket"}},"type":"Feature"},
	{"geometry":{"coordinates":[22.68632,50.525451],"type":"Point"},"properties":{"osm_id":"8676265259","tag":{"amenity":"waste_basket","waste":"trash"}},"type":"Feature"},
	{"geometry":{"coordinates":[22.695901,50.527824],"type":"Point"},"properties":{"osm_id":"8676267891","tag":{"amenity":"waste_basket","waste":"trash"}},"type":"Feature"},
	{"geometry":{"coordinates":[22.720456,50.543498],"type":"Point"},"properties":{"osm_id":"8680232762","tag":{"amenity":"waste_disposal"}},"type":"Feature"},
	{"geometry":{"coordinates":[22.724884,50.552295],"type":"Point"},"properties":{"name":"Pojemnik na odzie\u00c5\u00bc u\u00c5\u00bcywan\u00c4\u0085","osm_id":"8699408960","ref":"84216","tag":{"amenity":"recycling","operator":"Polski Czerwony Krzy\u00c5\u00bc","recycling:clothes":"yes","recycling_type":"container"}},"type":"Feature"},
	{"geometry":{"coordinates":[22.724888,50.552281],"type":"Point"},"properties":{"name":"Pojemnik na odzie\u00c5\u00bc u\u00c5\u00bcywan\u00c4\u0085","osm_id":"8699408961","ref":"84219","tag":{"amenity":"recycling","operator":"Polski Czerwony Krzy\u00c5\u00bc","recycling:clothes":"yes","recycling_type":"container"}},"type":"Feature"},
	{"geometry":{"coordinates":[22.723158,50.542797],"type":"Point"},"properties":{"osm_id":"8749418749","tag":{"amenity":"waste_basket"}},"type":"Feature"},
	{"geometry":{"coordinates":[22.723093,50.543052],"type":"Point"},"properties":{"osm_id":"8749418750","tag":{"amenity":"waste_basket","waste":"trash"}},"type":"Feature"},
	{"geometry":{"coordinates":[22.723238,50.542973],"type":"Point"},"properties":{"osm_id":"8749418807","tag":{"amenity":"waste_basket","waste":"trash"}},"type":"Feature"},
	{"geometry":{"coordinates":[22.723225,50.543114],"type":"Point"},"properties":{"osm_id":"8749418843","tag":{"amenity":"waste_basket","waste":"trash"}},"type":"Feature"},
	{"geometry":{"coordinates":[22.723032,50.542884],"type":"Point"},"properties":{"osm_id":"8749418844","tag":{"amenity":"waste_basket","waste":"trash"}},"type":"Feature"},
	{"geometry":{"coordinates":[22.723329,50.542843],"type":"Point"},"properties":{"osm_id":"8749418862","tag":{"amenity":"waste_basket","waste":"trash"}},"type":"Feature"},
	{"geometry":{"coordinates":[22.70453,50.533629],"type":"Point"},"properties":{"name":"Pojemnik na odzie\u00c5\u00bc u\u00c5\u00bcywan\u00c4\u0085","osm_id":"8853626875","ref":"20672","tag":{"amenity":"recycling","operator":"Polski Czerwony Krzy\u00c5\u00bc","recycling:clothes":"yes","recycling_type":"container"}},"type":"Feature"},
	{"geometry":{"coordinates":[22.706004,50.533458],"type":"Point"},"properties":{"name":"Pojemnik na odzie\u00c5\u00bc u\u00c5\u00bcywan\u00c4\u0085","osm_id":"8853626884","ref":"76363","tag":{"amenity":"recycling","operator":"Polski Czerwony Krzy\u00c5\u00bc","recycling:clothes":"yes","recycling_type":"container"}},"type":"Feature"},
	{"geometry":{"coordinates":[22.721153,50.54204],"type":"Point"},"properties":{"osm_id":"8952342300","tag":{"amenity":"waste_basket"}},"type":"Feature"},
	{"geometry":{"coordinates":[22.721388,50.542154],"type":"Point"},"properties":{"osm_id":"8952342301","tag":{"amenity":"waste_basket"}},"type":"Feature"},
	{"geometry":{"coordinates":[22.721139,50.542206],"type":"Point"},"properties":{"osm_id":"8952342305","tag":{"amenity":"waste_basket"}},"type":"Feature"},
	{"geometry":{"coordinates":[22.720968,50.543039],"type":"Point"},"properties":{"osm_id":"8952413310","tag":{"amenity":"waste_basket"}},"type":"Feature"},
	{"geometry":{"coordinates":[22.720509,50.54204],"type":"Point"},"properties":{"osm_id":"8952413311","tag":{"amenity":"waste_basket"}},"type":"Feature"},
	{"geometry":{"coordinates":[22.721084,50.541926],"type":"Point"},"properties":{"osm_id":"8952413312","tag":{"amenity":"waste_basket"}},"type":"Feature"},
	{"geometry":{"coordinates":[22.721057,50.542806],"type":"Point"},"properties":{"osm_id":"9007931756","tag":{"amenity":"waste_basket"}},"type":"Feature"},
	{"geometry":{"coordinates":[22.731265,50.554419],"type":"Point"},"properties":{"osm_id":"9120646078","tag":{"amenity":"waste_basket","surface":"wood","waste":"cigarettes;trash"}},"type":"Feature"},
	{"geometry":{"coordinates":[22.731351,50.555146],"type":"Point"},"properties":{"osm_id":"9120646079","tag":{"amenity":"waste_basket","surface":"wood","waste":"trash;cigarettes"}},"type":"Feature"},
	{"geometry":{"coordinates":[22.730944,50.555826],"type":"Point"},"properties":{"osm_id":"9120646080","tag":{"amenity":"waste_basket","surface":"wood","waste":"trash;cigarettes"}},"type":"Feature"},
	{"geometry":{"coordinates":[22.731262,50.554333],"type":"Point"},"properties":{"osm_id":"9120646087","tag":{"amenity":"waste_basket","surface":"wood","waste":"cigarettes;trash"}},"type":"Feature"},
	{"geometry":{"coordinates":[22.731521,50.55557],"type":"Point"},"properties":{"osm_id":"9120646089","tag":{"amenity":"waste_basket","surface":"wood","waste":"trash;cigarettes"}},"type":"Feature"},
	{"geometry":{"coordinates":[22.729772,50.553648],"type":"Point"},"properties":{"osm_id":"9120646092","tag":{"amenity":"waste_basket","surface":"wood","waste":"dog_excrement"}},"type":"Feature"},
	{"geometry":{"coordinates":[22.7266,50.553881],"type":"Point"},"properties":{"osm_id":"9120647604","tag":{"amenity":"waste_basket","surface":"wood"}},"type":"Feature"},
	{"geometry":{"coordinates":[22.727177,50.553637],"type":"Point"},"properties":{"osm_id":"9120647609","tag":{"amenity":"waste_basket","surface":"wood"}},"type":"Feature"},
	{"geometry":{"coordinates":[22.726123,50.554213],"type":"Point"},"properties":{"osm_id":"9120647610","tag":{"amenity":"waste_basket","surface":"wood"}},"type":"Feature"},
	{"geometry":{"coordinates":[22.728586,50.55363],"type":"Point"},"properties":{"osm_id":"9120647611","tag":{"amenity":"waste_basket","surface":"wood"}},"type":"Feature"},
	{"geometry":{"coordinates":[22.727881,50.553629],"type":"Point"},"properties":{"osm_id":"9120647613","tag":{"amenity":"waste_basket","surface":"wood"}},"type":"Feature"},
	{"geometry":{"coordinates":[22.72793,50.556003],"type":"Point"},"properties":{"osm_id":"9122704414","tag":{"amenity":"waste_basket","colour":"green","surface":"wood"}},"type":"Feature"},
	{"geometry":{"coordinates":[22.726296,50.554584],"type":"Point"},"properties":{"osm_id":"9122704415","tag":{"amenity":"waste_basket","surface":"wood","waste":"dog_excrement"}},"type":"Feature"},
	{"geometry":{"coordinates":[22.727316,50.555415],"type":"Point"},"properties":{"osm_id":"9122704416","tag":{"amenity":"waste_basket","surface":"wood"}},"type":"Feature"},
	{"geometry":{"coordinates":[22.728091,50.556134],"type":"Point"},"properties":{"osm_id":"9122713148","tag":{"amenity":"waste_basket","colour":"green","surface":"wood"}},"type":"Feature"},
	{"geometry":{"coordinates":[22.726878,50.555053],"type":"Point"},"properties":{"osm_id":"9122715517","tag":{"amenity":"waste_basket","surface":"wood"}},"type":"Feature"},
	{"geometry":{"coordinates":[22.727748,50.555759],"type":"Point"},"properties":{"osm_id":"9122715518","tag":{"amenity":"waste_basket","surface":"wood"}},"type":"Feature"},
	{"geometry":{"coordinates":[22.726444,50.554696],"type":"Point"},"properties":{"osm_id":"9122715519","tag":{"amenity":"waste_basket","surface":"wood"}},"type":"Feature"},
	{"geometry":{"coordinates":[22.721458,50.542303],"type":"Point"},"properties":{"osm_id":"9142629859","tag":{"amenity":"waste_basket"}},"type":"Feature"},
	{"geometry":{"coordinates":[22.719963,50.534625],"type":"Point"},"properties":{"osm_id":"9153282784","tag":{"amenity":"waste_basket","waste":"trash;cigarettes"}},"type":"Feature"},
	{"geometry":{"coordinates":[22.720123,50.534899],"type":"Point"},"properties":{"osm_id":"9160536748","tag":{"amenity":"waste_basket","waste":"trash;cigarettes"}},"type":"Feature"},
	{"geometry":{"coordinates":[22.720116,50.534769],"type":"Point"},"properties":{"osm_id":"9160536749","tag":{"amenity":"waste_basket","waste":"trash;cigarettes"}},"type":"Feature"},
	{"geometry":{"coordinates":[22.71994,50.534382],"type":"Point"},"properties":{"osm_id":"9160536750","tag":{"amenity":"waste_basket","waste":"trash;cigarettes"}},"type":"Feature"},
	{"geometry":{"coordinates":[22.719711,50.534225],"type":"Point"},"properties":{"osm_id":"9176634658","tag":{"amenity":"waste_basket","waste":"trash;cigarettes"}},"type":"Feature"}
]
}
