{
"type": "FeatureCollection",
"features": [
	{"geometry":{"coordinates":[-113.840863,51.018695],"type":"Point"},"properties":{"osm_id":"5022713144","tag":{"amenity":"waste_basket"}},"type":"Feature"},
	{"geometry":{"coordinates":[-113.820751,51.048681],"type":"Point"},"properties":{"osm_id":"8715450749","tag":{"amenity":"waste_basket","operator":"City of Chestermere","waste":"trash;recycling"}},"type":"Feature"},
	{"geometry":{"coordinates":[-113.821159,51.049006],"type":"Point"},"properties":{"osm_id":"8715450750","tag":{"amenity":"waste_basket","operator":"City of Chestermere","waste":"trash;recycling"}},"type":"Feature"},
	{"geometry":{"coordinates":[-113.82164,51.049193],"type":"Point"},"properties":{"osm_id":"8715450751","tag":{"amenity":"waste_basket","operator":"City of Chestermere","waste":"trash;recycling"}},"type":"Feature"},
	{"geometry":{"coordinates":[-113.821704,51.049408],"type":"Point"},"properties":{"osm_id":"8715450752","tag":{"amenity":"waste_basket","operator":"City of Chestermere","waste":"trash;recycling"}},"type":"Feature"},
	{"geometry":{"coordinates":[-113.821256,51.049802],"type":"Point"},"properties":{"osm_id":"8715450753","tag":{"amenity":"waste_basket","operator":"City of Chestermere","waste":"trash;recycling"}},"type":"Feature"},
	{"geometry":{"coordinates":[-113.827477,51.050699],"type":"Point"},"properties":{"name":"Chestermere Bottle Depot","osm_id":"8821749954","tag":{"addr:housenumber":"260","addr:street":"Marina Drive","addr:unit":"101","amenity":"recycling","building":"yes","opening_hours":"Mo-Sa 09:00-17:3; Su 10:00-16:00","phone":"+1 403 248 1117","recycling:cans":"yes","recycling:glass_bottles":"yes","recycling:plastic_bottles":"yes","recycling_type":"centre","website":"https://www.findadepot.ca/chestermere"}},"type":"Feature"},
	{"geometry":{"coordinates":[-113.818638,51.060904],"type":"Point"},"properties":{"osm_id":"8825738927","tag":{"amenity":"waste_basket","waste":"trash;recycling"}},"type":"Feature"}
]
}
