{
"type": "FeatureCollection",
"features": [
	{"geometry":{"coordinates":[-94.854484,39.074912],"type":"Point"},"properties":{"name":"Hot Ash Bin","osm_id":"841460637","tag":{"amenity":"waste_basket"}},"type":"Feature"},
	{"geometry":{"coordinates":[-94.84959,39.031854],"type":"Point"},"properties":{"osm_id":"8627036718","tag":{"amenity":"waste_disposal"}},"type":"Feature"},
	{"geometry":{"coordinates":[-94.851683,39.030173],"type":"Point"},"properties":{"osm_id":"8759739223","tag":{"amenity":"waste_disposal"}},"type":"Feature"},
	{"geometry":{"coordinates":[-94.850073,39.0309],"type":"Point"},"properties":{"osm_id":"8759739310","tag":{"amenity":"waste_disposal"}},"type":"Feature"},
	{"geometry":{"coordinates":[-94.850495,39.031709],"type":"Point"},"properties":{"osm_id":"8759739365","tag":{"amenity":"waste_disposal"}},"type":"Feature"},
	{"geometry":{"coordinates":[-94.849413,39.030245],"type":"Point"},"properties":{"osm_id":"8759739414","tag":{"amenity":"waste_disposal"}},"type":"Feature"},
	{"geometry":{"coordinates":[-94.851959,39.03168],"type":"Point"},"properties":{"osm_id":"8759787325","tag":{"amenity":"waste_disposal"}},"type":"Feature"},
	{"geometry":{"coordinates":[-94.849016,39.028291],"type":"Point"},"properties":{"osm_id":"8759787447","tag":{"amenity":"waste_disposal"}},"type":"Feature"},
	{"geometry":{"coordinates":[-94.848962,39.028294],"type":"Point"},"properties":{"osm_id":"8759787448","tag":{"amenity":"waste_disposal"}},"type":"Feature"},
	{"geometry":{"coordinates":[-94.850359,39.028328],"type":"Point"},"properties":{"osm_id":"8759787493","tag":{"amenity":"waste_disposal"}},"type":"Feature"},
	{"geometry":{"coordinates":[-94.851563,39.029875],"type":"Point"},"properties":{"osm_id":"8766321647","tag":{"amenity":"waste_disposal"}},"type":"Feature"}
]
}
