{
"type": "FeatureCollection",
"features": [
	{"geometry":{"coordinates":[-1.520612,55.124117],"type":"Point"},"properties":{"osm_id":"418501506","tag":{"amenity":"recycling","recycling:cans":"yes","recycling:glass":"yes"}},"type":"Feature"},
	{"geometry":{"coordinates":[-1.511436,55.126896],"type":"Point"},"properties":{"osm_id":"4321211783","tag":{"amenity":"waste_basket"}},"type":"Feature"},
	{"geometry":{"coordinates":[-1.503072,55.12768],"type":"Point"},"properties":{"osm_id":"4321288502","tag":{"amenity":"waste_basket"}},"type":"Feature"},
	{"geometry":{"coordinates":[-1.502906,55.127687],"type":"Point"},"properties":{"osm_id":"4321288503","tag":{"amenity":"waste_basket"}},"type":"Feature"},
	{"geometry":{"coordinates":[-1.525136,55.118752],"type":"Point"},"properties":{"osm_id":"4325027791","tag":{"amenity":"waste_basket"}},"type":"Feature"},
	{"geometry":{"coordinates":[-1.505159,55.123883],"type":"Point"},"properties":{"osm_id":"5646343299","tag":{"amenity":"waste_basket","waste":"trash"}},"type":"Feature"},
	{"geometry":{"coordinates":[-1.565458,55.124531],"type":"Point"},"properties":{"barrier":"gate","osm_id":"5763802991","tag":{"bicycle":"no","foot":"no","horse":"no","vehicle":"no"}},"type":"Feature"},
	{"geometry":{"coordinates":[-1.563536,55.125854],"type":"Point"},"properties":{"barrier":"gate","osm_id":"5763802992"},"type":"Feature"},
	{"geometry":{"coordinates":[-1.567944,55.089712],"type":"Point"},"properties":{"osm_id":"6173779169","tag":{"amenity":"waste_basket"}},"type":"Feature"},
	{"geometry":{"coordinates":[-1.539202,55.12804],"type":"Point"},"properties":{"osm_id":"6503612506","tag":{"amenity":"waste_basket"}},"type":"Feature"},
	{"geometry":{"coordinates":[-1.507138,55.127123],"type":"Point"},"properties":{"osm_id":"6503612512","tag":{"amenity":"waste_basket"}},"type":"Feature"},
	{"geometry":{"coordinates":[-1.513821,55.120017],"type":"Point"},"properties":{"osm_id":"6738240689","tag":{"amenity":"waste_basket"}},"type":"Feature"}
]
}
