{
"type": "FeatureCollection",
"lastupdate": "2020-08-02T00:00:00Z",
"features": [
	{"geometry":{"coordinates":[-1.504273,54.697498],"type":"Point"},"properties":{"osm_id":"290553880","tag":{"amenity":"waste_basket","waste":"dog_excrement"}},"type":"Feature"},
	{"geometry":{"coordinates":[-1.50698,54.71922],"type":"Point"},"properties":{"osm_id":"369810069","tag":{"amenity":"waste_basket"}},"type":"Feature"},
	{"geometry":{"coordinates":[-1.502834,54.715164],"type":"Point"},"properties":{"osm_id":"369812881","tag":{"amenity":"waste_basket"}},"type":"Feature"},
	{"geometry":{"coordinates":[-1.529997,54.716806],"type":"Point"},"properties":{"osm_id":"410134093","tag":{"amenity":"waste_basket","waste":"dog_excrement"}},"type":"Feature"},
	{"geometry":{"coordinates":[-1.53004,54.717123],"type":"Point"},"properties":{"osm_id":"410134146","tag":{"amenity":"waste_basket"}},"type":"Feature"},
	{"geometry":{"coordinates":[-1.512564,54.677144],"type":"Point"},"properties":{"osm_id":"468237917","tag":{"amenity":"waste_basket"}},"type":"Feature"},
	{"geometry":{"coordinates":[-1.523257,54.67912],"type":"Point"},"properties":{"osm_id":"468751921","tag":{"amenity":"waste_basket","waste":"dog_excrement"}},"type":"Feature"},
	{"geometry":{"coordinates":[-1.521886,54.678826],"type":"Point"},"properties":{"osm_id":"468754510","tag":{"amenity":"waste_basket"}},"type":"Feature"},
	{"geometry":{"coordinates":[-1.566438,54.705626],"type":"Point"},"properties":{"osm_id":"475260695","tag":{"amenity":"waste_basket"}},"type":"Feature"},
	{"geometry":{"coordinates":[-1.538004,54.682534],"type":"Point"},"properties":{"highway":"bus_stop","name":"Mac Joinery","osm_id":"489383138","tag":{"naptan:AtcoCode":"13006763D","naptan:Bearing":"SE","naptan:CommonName":"Mac Joinery","naptan:Indicator":"south east bound","naptan:Landmark":"Landmark not known","naptan:NaptanCode":"durdtama","naptan:Notes":"Opposite 5 Gladstone Terrace- Ferryhill","naptan:Street":"Gladstone Terrace","naptan:verified":"no"}},"type":"Feature"},
	{"geometry":{"coordinates":[-1.53866,54.682556],"type":"Point"},"properties":{"highway":"bus_stop","name":"Mac Joinery","osm_id":"489383142","tag":{"naptan:AtcoCode":"13006763H","naptan:Bearing":"NW","naptan:CommonName":"Mac Joinery","naptan:Indicator":"north west bound","naptan:Landmark":"Landmark not known","naptan:NaptanCode":"durdtamd","naptan:Notes":"NW of 1 Gladstone Terrace- Ferryhill","naptan:Street":"Gladstone Terrace","naptan:verified":"yes"}},"type":"Feature"},
	{"geometry":{"coordinates":[-1.529698,54.715256],"type":"Point"},"properties":{"osm_id":"502175113","tag":{"amenity":"waste_basket","waste":"dog_excrement"}},"type":"Feature"},
	{"geometry":{"coordinates":[-1.499299,54.709649],"type":"Point"},"properties":{"osm_id":"676174132","tag":{"amenity":"waste_basket","waste":"dog_excrement"}},"type":"Feature"},
	{"geometry":{"coordinates":[-1.49995,54.711902],"type":"Point"},"properties":{"osm_id":"676185881","tag":{"amenity":"waste_basket","waste":"dog_excrement"}},"type":"Feature"},
	{"geometry":{"coordinates":[-1.504312,54.711124],"type":"Point"},"properties":{"osm_id":"676193165","tag":{"amenity":"waste_basket","waste":"dog_excrement"}},"type":"Feature"},
	{"geometry":{"coordinates":[-1.508475,54.711167],"type":"Point"},"properties":{"osm_id":"676196547","tag":{"amenity":"waste_basket","waste":"dog_excrement"}},"type":"Feature"},
	{"geometry":{"coordinates":[-1.507101,54.719703],"type":"Point"},"properties":{"osm_id":"693646800","tag":{"amenity":"waste_basket","waste":"dog_excrement"}},"type":"Feature"},
	{"geometry":{"coordinates":[-1.507514,54.720113],"type":"Point"},"properties":{"osm_id":"759630767","tag":{"amenity":"waste_basket"}},"type":"Feature"},
	{"geometry":{"coordinates":[-1.503815,54.716399],"type":"Point"},"properties":{"osm_id":"759682328","tag":{"amenity":"waste_basket"}},"type":"Feature"},
	{"geometry":{"coordinates":[-1.504316,54.716708],"type":"Point"},"properties":{"osm_id":"759688038","tag":{"amenity":"waste_basket"}},"type":"Feature"},
	{"geometry":{"coordinates":[-1.504249,54.716596],"type":"Point"},"properties":{"osm_id":"759689256","tag":{"amenity":"waste_basket"}},"type":"Feature"},
	{"geometry":{"coordinates":[-1.503645,54.715998],"type":"Point"},"properties":{"osm_id":"759697474","tag":{"amenity":"waste_basket"}},"type":"Feature"},
	{"geometry":{"coordinates":[-1.503848,54.716159],"type":"Point"},"properties":{"osm_id":"759703125","tag":{"amenity":"waste_basket"}},"type":"Feature"},
	{"geometry":{"coordinates":[-1.503327,54.715711],"type":"Point"},"properties":{"osm_id":"759717014","tag":{"amenity":"waste_basket"}},"type":"Feature"},
	{"geometry":{"coordinates":[-1.502933,54.716736],"type":"Point"},"properties":{"osm_id":"763469683","tag":{"amenity":"waste_basket"}},"type":"Feature"},
	{"geometry":{"coordinates":[-1.502392,54.715092],"type":"Point"},"properties":{"osm_id":"763484850","tag":{"amenity":"waste_basket"}},"type":"Feature"},
	{"geometry":{"coordinates":[-1.516107,54.724304],"type":"Point"},"properties":{"osm_id":"791339356","tag":{"amenity":"waste_basket"}},"type":"Feature"},
	{"geometry":{"coordinates":[-1.554796,54.689515],"type":"Point"},"properties":{"osm_id":"1311903187","tag":{"amenity":"waste_basket"}},"type":"Feature"},
	{"geometry":{"coordinates":[-1.523191,54.680277],"type":"Point"},"properties":{"osm_id":"1312469772","tag":{"amenity":"waste_basket","waste":"dog_excrement"}},"type":"Feature"},
	{"geometry":{"coordinates":[-1.532799,54.681501],"type":"Point"},"properties":{"osm_id":"1312469910","tag":{"amenity":"waste_basket"}},"type":"Feature"}
]
}
