{
"type": "FeatureCollection",
"features": [
	{"geometry":{"coordinates":[-1.55964,54.551225],"type":"Point"},"properties":{"osm_id":"695144731","tag":{"amenity":"recycling","recycling_type":"centre"}},"type":"Feature"},
	{"geometry":{"coordinates":[-1.54486,54.542],"type":"Point"},"properties":{"osm_id":"697308279","tag":{"amenity":"waste_basket"}},"type":"Feature"},
	{"geometry":{"coordinates":[-1.581331,54.546947],"type":"Point"},"properties":{"osm_id":"3842374433","tag":{"amenity":"waste_basket"}},"type":"Feature"},
	{"geometry":{"coordinates":[-1.581314,54.546719],"type":"Point"},"properties":{"osm_id":"3842374434","tag":{"amenity":"waste_basket"}},"type":"Feature"},
	{"geometry":{"coordinates":[-1.565121,54.536669],"type":"Point"},"properties":{"osm_id":"3842659166","tag":{"amenity":"waste_basket"}},"type":"Feature"},
	{"geometry":{"coordinates":[-1.552556,54.537038],"type":"Point"},"properties":{"osm_id":"3842691557","tag":{"amenity":"waste_basket"}},"type":"Feature"},
	{"geometry":{"coordinates":[-1.55257,54.537362],"type":"Point"},"properties":{"osm_id":"3842691569","tag":{"amenity":"waste_basket"}},"type":"Feature"},
	{"geometry":{"coordinates":[-1.551438,54.539062],"type":"Point"},"properties":{"osm_id":"3842732279","tag":{"amenity":"waste_basket"}},"type":"Feature"},
	{"geometry":{"coordinates":[-1.557657,54.531789],"type":"Point"},"properties":{"osm_id":"3844627909","tag":{"amenity":"waste_basket"}},"type":"Feature"},
	{"geometry":{"coordinates":[-1.557556,54.53186],"type":"Point"},"properties":{"osm_id":"3844627910","tag":{"amenity":"waste_basket"}},"type":"Feature"},
	{"geometry":{"coordinates":[-1.561045,54.531556],"type":"Point"},"properties":{"osm_id":"3844661992","tag":{"amenity":"waste_basket"}},"type":"Feature"},
	{"geometry":{"coordinates":[-1.578701,54.533989],"type":"Point"},"properties":{"osm_id":"3844890703","tag":{"amenity":"waste_basket"}},"type":"Feature"},
	{"geometry":{"coordinates":[-1.578886,54.533989],"type":"Point"},"properties":{"osm_id":"3844890704","tag":{"amenity":"waste_basket"}},"type":"Feature"},
	{"geometry":{"coordinates":[-1.578352,54.533551],"type":"Point"},"properties":{"osm_id":"3844939179","tag":{"amenity":"waste_basket"}},"type":"Feature"},
	{"geometry":{"coordinates":[-1.578586,54.533601],"type":"Point"},"properties":{"osm_id":"3844939181","tag":{"amenity":"waste_basket"}},"type":"Feature"},
	{"geometry":{"coordinates":[-1.581141,54.534067],"type":"Point"},"properties":{"osm_id":"3846385902","tag":{"amenity":"waste_basket"}},"type":"Feature"},
	{"geometry":{"coordinates":[-1.581813,54.534403],"type":"Point"},"properties":{"osm_id":"3846386631","tag":{"amenity":"waste_basket"}},"type":"Feature"},
	{"geometry":{"coordinates":[-1.581604,54.534253],"type":"Point"},"properties":{"osm_id":"3846386633","tag":{"amenity":"waste_basket"}},"type":"Feature"},
	{"geometry":{"coordinates":[-1.553512,54.527539],"type":"Point"},"properties":{"osm_id":"3854366660","tag":{"amenity":"waste_basket"}},"type":"Feature"},
	{"geometry":{"coordinates":[-1.55376,54.527141],"type":"Point"},"properties":{"osm_id":"3854366666","tag":{"amenity":"waste_basket"}},"type":"Feature"},
	{"geometry":{"coordinates":[-1.553698,54.527536],"type":"Point"},"properties":{"osm_id":"3854384591","tag":{"amenity":"waste_basket"}},"type":"Feature"},
	{"geometry":{"coordinates":[-1.554023,54.527043],"type":"Point"},"properties":{"osm_id":"3854389321","tag":{"amenity":"waste_basket"}},"type":"Feature"},
	{"geometry":{"coordinates":[-1.554193,54.526791],"type":"Point"},"properties":{"osm_id":"3854389326","tag":{"amenity":"waste_basket"}},"type":"Feature"},
	{"geometry":{"coordinates":[-1.553732,54.526814],"type":"Point"},"properties":{"osm_id":"3854426850","tag":{"amenity":"waste_basket"}},"type":"Feature"},
	{"geometry":{"coordinates":[-1.552705,54.524996],"type":"Point"},"properties":{"osm_id":"3854427085","tag":{"amenity":"waste_basket"}},"type":"Feature"},
	{"geometry":{"coordinates":[-1.553055,54.525004],"type":"Point"},"properties":{"osm_id":"3854427087","tag":{"amenity":"waste_basket"}},"type":"Feature"},
	{"geometry":{"coordinates":[-1.553639,54.524827],"type":"Point"},"properties":{"osm_id":"3854427093","tag":{"amenity":"waste_basket"}},"type":"Feature"},
	{"geometry":{"coordinates":[-1.553621,54.52447],"type":"Point"},"properties":{"osm_id":"3854436344","tag":{"amenity":"waste_basket"}},"type":"Feature"},
	{"geometry":{"coordinates":[-1.553338,54.524328],"type":"Point"},"properties":{"osm_id":"3854436345","tag":{"amenity":"waste_basket"}},"type":"Feature"},
	{"geometry":{"coordinates":[-1.554749,54.524241],"type":"Point"},"properties":{"osm_id":"3854475474","tag":{"amenity":"waste_basket"}},"type":"Feature"},
	{"geometry":{"coordinates":[-1.554745,54.525027],"type":"Point"},"properties":{"osm_id":"3854484042","tag":{"amenity":"waste_basket"}},"type":"Feature"},
	{"geometry":{"coordinates":[-1.555122,54.525262],"type":"Point"},"properties":{"osm_id":"3854487409","tag":{"amenity":"waste_basket"}},"type":"Feature"},
	{"geometry":{"coordinates":[-1.557463,54.52503],"type":"Point"},"properties":{"osm_id":"3854538256","tag":{"amenity":"waste_basket"}},"type":"Feature"},
	{"geometry":{"coordinates":[-1.557356,54.525393],"type":"Point"},"properties":{"osm_id":"3854540708","tag":{"amenity":"waste_basket"}},"type":"Feature"},
	{"geometry":{"coordinates":[-1.556612,54.526185],"type":"Point"},"properties":{"osm_id":"3854562012","tag":{"amenity":"waste_basket"}},"type":"Feature"},
	{"geometry":{"coordinates":[-1.557806,54.523596],"type":"Point"},"properties":{"osm_id":"3868790101","tag":{"amenity":"waste_basket"}},"type":"Feature"},
	{"geometry":{"coordinates":[-1.55512,54.523578],"type":"Point"},"properties":{"osm_id":"3868906242","tag":{"amenity":"waste_basket"}},"type":"Feature"},
	{"geometry":{"coordinates":[-1.555977,54.523637],"type":"Point"},"properties":{"osm_id":"3868906248","tag":{"amenity":"waste_basket"}},"type":"Feature"},
	{"geometry":{"coordinates":[-1.557026,54.52379],"type":"Point"},"properties":{"osm_id":"3868906256","tag":{"amenity":"waste_basket"}},"type":"Feature"},
	{"geometry":{"coordinates":[-1.557747,54.523759],"type":"Point"},"properties":{"osm_id":"3868975244","tag":{"amenity":"waste_basket"}},"type":"Feature"},
	{"geometry":{"coordinates":[-1.557634,54.52459],"type":"Point"},"properties":{"osm_id":"3869120467","tag":{"amenity":"waste_basket"}},"type":"Feature"},
	{"geometry":{"coordinates":[-1.557613,54.524912],"type":"Point"},"properties":{"osm_id":"3869120468","tag":{"amenity":"waste_basket"}},"type":"Feature"},
	{"geometry":{"coordinates":[-1.557543,54.525279],"type":"Point"},"properties":{"osm_id":"3869120471","tag":{"amenity":"waste_basket"}},"type":"Feature"},
	{"geometry":{"coordinates":[-1.557792,54.526431],"type":"Point"},"properties":{"osm_id":"3869158069","tag":{"amenity":"waste_basket"}},"type":"Feature"},
	{"geometry":{"coordinates":[-1.558664,54.526996],"type":"Point"},"properties":{"osm_id":"3869276401","tag":{"amenity":"waste_basket"}},"type":"Feature"},
	{"geometry":{"coordinates":[-1.557513,54.524912],"type":"Point"},"properties":{"osm_id":"3869332749","tag":{"amenity":"waste_basket"}},"type":"Feature"},
	{"geometry":{"coordinates":[-1.556381,54.523988],"type":"Point"},"properties":{"osm_id":"3869410224","tag":{"amenity":"waste_basket"}},"type":"Feature"},
	{"geometry":{"coordinates":[-1.556007,54.524047],"type":"Point"},"properties":{"osm_id":"3869410226","tag":{"amenity":"waste_basket"}},"type":"Feature"},
	{"geometry":{"coordinates":[-1.557257,54.528824],"type":"Point"},"properties":{"osm_id":"3869428007","tag":{"amenity":"waste_basket"}},"type":"Feature"},
	{"geometry":{"coordinates":[-1.558147,54.528846],"type":"Point"},"properties":{"osm_id":"3869428024","tag":{"amenity":"waste_basket"}},"type":"Feature"},
	{"geometry":{"coordinates":[-1.558119,54.528957],"type":"Point"},"properties":{"osm_id":"3869435343","tag":{"amenity":"waste_basket"}},"type":"Feature"},
	{"geometry":{"coordinates":[-1.559617,54.528954],"type":"Point"},"properties":{"osm_id":"3869435353","tag":{"amenity":"waste_basket"}},"type":"Feature"},
	{"geometry":{"coordinates":[-1.575863,54.521534],"type":"Point"},"properties":{"osm_id":"3869451648","tag":{"amenity":"waste_basket"}},"type":"Feature"},
	{"geometry":{"coordinates":[-1.560442,54.525431],"type":"Point"},"properties":{"osm_id":"3872586053","tag":{"amenity":"waste_basket"}},"type":"Feature"},
	{"geometry":{"coordinates":[-1.559388,54.525403],"type":"Point"},"properties":{"osm_id":"3872589766","tag":{"amenity":"waste_basket"}},"type":"Feature"},
	{"geometry":{"coordinates":[-1.558771,54.525404],"type":"Point"},"properties":{"osm_id":"3872599149","tag":{"amenity":"waste_basket"}},"type":"Feature"},
	{"geometry":{"coordinates":[-1.562456,54.525362],"type":"Point"},"properties":{"osm_id":"3872605148","tag":{"amenity":"waste_basket"}},"type":"Feature"},
	{"geometry":{"coordinates":[-1.561597,54.525444],"type":"Point"},"properties":{"osm_id":"3872619381","tag":{"amenity":"waste_basket"}},"type":"Feature"},
	{"geometry":{"coordinates":[-1.560948,54.525421],"type":"Point"},"properties":{"osm_id":"3872621792","tag":{"amenity":"waste_basket"}},"type":"Feature"},
	{"geometry":{"coordinates":[-1.573522,54.529024],"type":"Point"},"properties":{"osm_id":"3872841744","tag":{"amenity":"waste_basket"}},"type":"Feature"},
	{"geometry":{"coordinates":[-1.548356,54.521144],"type":"Point"},"properties":{"osm_id":"3873171451","tag":{"amenity":"waste_basket"}},"type":"Feature"},
	{"geometry":{"coordinates":[-1.549237,54.521322],"type":"Point"},"properties":{"osm_id":"3873172979","tag":{"amenity":"waste_basket"}},"type":"Feature"},
	{"geometry":{"coordinates":[-1.549548,54.521262],"type":"Point"},"properties":{"osm_id":"3873172980","tag":{"amenity":"waste_basket"}},"type":"Feature"},
	{"geometry":{"coordinates":[-1.550305,54.52134],"type":"Point"},"properties":{"osm_id":"3874362394","tag":{"amenity":"waste_basket"}},"type":"Feature"},
	{"geometry":{"coordinates":[-1.550575,54.521449],"type":"Point"},"properties":{"osm_id":"3874369959","tag":{"amenity":"waste_basket"}},"type":"Feature"},
	{"geometry":{"coordinates":[-1.55123,54.521532],"type":"Point"},"properties":{"osm_id":"3874369977","tag":{"amenity":"waste_basket"}},"type":"Feature"},
	{"geometry":{"coordinates":[-1.54821,54.52445],"type":"Point"},"properties":{"osm_id":"3874395011","tag":{"amenity":"waste_basket"}},"type":"Feature"},
	{"geometry":{"coordinates":[-1.548139,54.524235],"type":"Point"},"properties":{"osm_id":"3874433355","tag":{"amenity":"waste_basket"}},"type":"Feature"},
	{"geometry":{"coordinates":[-1.548202,54.526178],"type":"Point"},"properties":{"osm_id":"3874479800","tag":{"amenity":"waste_basket"}},"type":"Feature"},
	{"geometry":{"coordinates":[-1.548364,54.527611],"type":"Point"},"properties":{"osm_id":"3874539626","tag":{"amenity":"waste_basket"}},"type":"Feature"},
	{"geometry":{"coordinates":[-1.547568,54.52988],"type":"Point"},"properties":{"osm_id":"3874574299","tag":{"amenity":"waste_basket"}},"type":"Feature"},
	{"geometry":{"coordinates":[-1.552409,54.528432],"type":"Point"},"properties":{"osm_id":"3874586293","tag":{"amenity":"waste_basket"}},"type":"Feature"},
	{"geometry":{"coordinates":[-1.552935,54.528856],"type":"Point"},"properties":{"osm_id":"3874612485","tag":{"amenity":"waste_basket"}},"type":"Feature"},
	{"geometry":{"coordinates":[-1.553015,54.529082],"type":"Point"},"properties":{"osm_id":"3874618753","tag":{"amenity":"waste_basket"}},"type":"Feature"},
	{"geometry":{"coordinates":[-1.552439,54.532258],"type":"Point"},"properties":{"osm_id":"3874732397","tag":{"amenity":"waste_basket"}},"type":"Feature"},
	{"geometry":{"coordinates":[-1.551371,54.539358],"type":"Point"},"properties":{"osm_id":"3874778677","tag":{"amenity":"waste_basket"}},"type":"Feature"},
	{"geometry":{"coordinates":[-1.550755,54.540078],"type":"Point"},"properties":{"osm_id":"3876079267","tag":{"amenity":"waste_basket"}},"type":"Feature"},
	{"geometry":{"coordinates":[-1.550538,54.540334],"type":"Point"},"properties":{"osm_id":"3876079278","tag":{"amenity":"waste_basket"}},"type":"Feature"},
	{"geometry":{"coordinates":[-1.549788,54.541186],"type":"Point"},"properties":{"osm_id":"3876079298","tag":{"amenity":"waste_basket"}},"type":"Feature"},
	{"geometry":{"coordinates":[-1.549408,54.541338],"type":"Point"},"properties":{"osm_id":"3876081631","tag":{"amenity":"waste_basket"}},"type":"Feature"},
	{"geometry":{"coordinates":[-1.54954,54.541512],"type":"Point"},"properties":{"osm_id":"3876081641","tag":{"amenity":"waste_basket"}},"type":"Feature"},
	{"geometry":{"coordinates":[-1.549303,54.541894],"type":"Point"},"properties":{"osm_id":"3876081646","tag":{"amenity":"waste_basket"}},"type":"Feature"},
	{"geometry":{"coordinates":[-1.548671,54.543339],"type":"Point"},"properties":{"osm_id":"3876090054","tag":{"amenity":"waste_basket"}},"type":"Feature"},
	{"geometry":{"coordinates":[-1.548168,54.544728],"type":"Point"},"properties":{"osm_id":"3876090867","tag":{"amenity":"waste_basket"}},"type":"Feature"},
	{"geometry":{"coordinates":[-1.548082,54.545067],"type":"Point"},"properties":{"osm_id":"3876097309","tag":{"amenity":"waste_basket"}},"type":"Feature"},
	{"geometry":{"coordinates":[-1.547752,54.545377],"type":"Point"},"properties":{"osm_id":"3876097317","tag":{"amenity":"waste_basket"}},"type":"Feature"},
	{"geometry":{"coordinates":[-1.547985,54.545433],"type":"Point"},"properties":{"osm_id":"3876097318","tag":{"amenity":"waste_basket"}},"type":"Feature"},
	{"geometry":{"coordinates":[-1.547421,54.548027],"type":"Point"},"properties":{"osm_id":"3876139022","tag":{"amenity":"waste_basket"}},"type":"Feature"},
	{"geometry":{"coordinates":[-1.546802,54.550068],"type":"Point"},"properties":{"osm_id":"3876249674","tag":{"amenity":"waste_basket"}},"type":"Feature"},
	{"geometry":{"coordinates":[-1.547089,54.550454],"type":"Point"},"properties":{"osm_id":"3876249697","tag":{"amenity":"waste_basket"}},"type":"Feature"},
	{"geometry":{"coordinates":[-1.544247,54.550594],"type":"Point"},"properties":{"osm_id":"3876262720","tag":{"amenity":"waste_basket"}},"type":"Feature"},
	{"geometry":{"coordinates":[-1.54337,54.550258],"type":"Point"},"properties":{"osm_id":"3876262743","tag":{"amenity":"waste_basket"}},"type":"Feature"},
	{"geometry":{"coordinates":[-1.546414,54.551236],"type":"Point"},"properties":{"osm_id":"3876269263","tag":{"amenity":"waste_basket"}},"type":"Feature"},
	{"geometry":{"coordinates":[-1.547791,54.5523],"type":"Point"},"properties":{"osm_id":"3876288678","tag":{"amenity":"waste_basket"}},"type":"Feature"},
	{"geometry":{"coordinates":[-1.565528,54.521933],"type":"Point"},"properties":{"osm_id":"3881591727","tag":{"amenity":"waste_basket"}},"type":"Feature"},
	{"geometry":{"coordinates":[-1.51793,54.521224],"type":"Point"},"properties":{"osm_id":"3881836120","tag":{"amenity":"waste_basket"}},"type":"Feature"},
	{"geometry":{"coordinates":[-1.543608,54.522112],"type":"Point"},"properties":{"osm_id":"3882081129","tag":{"amenity":"waste_basket"}},"type":"Feature"},
	{"geometry":{"coordinates":[-1.542331,54.523124],"type":"Point"},"properties":{"osm_id":"3882081150","tag":{"amenity":"waste_basket"}},"type":"Feature"},
	{"geometry":{"coordinates":[-1.541817,54.523141],"type":"Point"},"properties":{"osm_id":"3882081771","tag":{"amenity":"waste_basket"}},"type":"Feature"},
	{"geometry":{"coordinates":[-1.540648,54.523206],"type":"Point"},"properties":{"osm_id":"3882094004","tag":{"amenity":"waste_basket"}},"type":"Feature"},
	{"geometry":{"coordinates":[-1.530033,54.522967],"type":"Point"},"properties":{"osm_id":"3883160825","tag":{"amenity":"waste_basket"}},"type":"Feature"},
	{"geometry":{"coordinates":[-1.524797,54.5223],"type":"Point"},"properties":{"osm_id":"3883178004","tag":{"amenity":"waste_basket"}},"type":"Feature"},
	{"geometry":{"coordinates":[-1.524197,54.522245],"type":"Point"},"properties":{"osm_id":"3883178012","tag":{"amenity":"waste_basket"}},"type":"Feature"},
	{"geometry":{"coordinates":[-1.535699,54.533378],"type":"Point"},"properties":{"osm_id":"3883381198","tag":{"amenity":"waste_basket"}},"type":"Feature"},
	{"geometry":{"coordinates":[-1.520496,54.538049],"type":"Point"},"properties":{"osm_id":"3883438915","ref":"DL1 117","tag":{"amenity":"waste_basket"}},"type":"Feature"},
	{"geometry":{"coordinates":[-1.520028,54.537968],"type":"Point"},"properties":{"osm_id":"3883455275","tag":{"amenity":"waste_basket"}},"type":"Feature"},
	{"geometry":{"coordinates":[-1.519335,54.538426],"type":"Point"},"properties":{"osm_id":"3883455294","tag":{"amenity":"waste_basket"}},"type":"Feature"},
	{"geometry":{"coordinates":[-1.5198,54.538261],"type":"Point"},"properties":{"osm_id":"3883455299","tag":{"amenity":"waste_basket"}},"type":"Feature"},
	{"geometry":{"coordinates":[-1.518827,54.538818],"type":"Point"},"properties":{"osm_id":"3883455318","tag":{"amenity":"waste_basket"}},"type":"Feature"},
	{"geometry":{"coordinates":[-1.518623,54.539169],"type":"Point"},"properties":{"osm_id":"3883455320","tag":{"amenity":"waste_basket"}},"type":"Feature"},
	{"geometry":{"coordinates":[-1.524961,54.545881],"type":"Point"},"properties":{"osm_id":"3883504523","tag":{"amenity":"waste_basket"}},"type":"Feature"},
	{"geometry":{"coordinates":[-1.53526,54.545953],"type":"Point"},"properties":{"osm_id":"3883521211","tag":{"amenity":"waste_basket"}},"type":"Feature"},
	{"geometry":{"coordinates":[-1.524746,54.54556],"type":"Point"},"properties":{"osm_id":"3883521213","tag":{"amenity":"waste_basket"}},"type":"Feature"},
	{"geometry":{"coordinates":[-1.535625,54.544021],"type":"Point"},"properties":{"osm_id":"3883521221","tag":{"amenity":"waste_basket"}},"type":"Feature"},
	{"geometry":{"coordinates":[-1.52839,54.543104],"type":"Point"},"properties":{"osm_id":"3883540041","tag":{"amenity":"waste_basket"}},"type":"Feature"},
	{"geometry":{"coordinates":[-1.52821,54.54319],"type":"Point"},"properties":{"osm_id":"3883540042","tag":{"amenity":"waste_basket"}},"type":"Feature"},
	{"geometry":{"coordinates":[-1.559963,54.549894],"type":"Point"},"properties":{"osm_id":"6312368592","tag":{"amenity":"waste_basket","waste":"dog_excrement"}},"type":"Feature"},
	{"geometry":{"coordinates":[-1.553268,54.552135],"type":"Point"},"properties":{"osm_id":"6312368593","tag":{"amenity":"waste_basket","waste":"dog_excrement"}},"type":"Feature"},
	{"geometry":{"coordinates":[-1.556453,54.544159],"type":"Point"},"properties":{"osm_id":"6312368594","tag":{"amenity":"waste_basket","waste":"dog_excrement"}},"type":"Feature"},
	{"geometry":{"coordinates":[-1.557746,54.544718],"type":"Point"},"properties":{"osm_id":"6312368595","tag":{"amenity":"waste_basket","waste":"dog_excrement"}},"type":"Feature"},
	{"geometry":{"coordinates":[-1.554199,54.543343],"type":"Point"},"properties":{"osm_id":"6312368614","tag":{"amenity":"waste_basket","waste":"dog_excrement"}},"type":"Feature"}
]
}
