{
"type": "FeatureCollection",
"features": [
	{"geometry":{"coordinates":[-1.499276,53.650211],"type":"Point"},"properties":{"osm_id":"1231442784","tag":{"amenity":"recycling","recycling_type":"container"}},"type":"Feature"},
	{"geometry":{"coordinates":[-1.524635,53.667548],"type":"Point"},"properties":{"osm_id":"2210120286","tag":{"amenity":"recycling","recycling:cds":"yes","recycling:clothes":"yes","recycling_type":"container"}},"type":"Feature"},
	{"geometry":{"coordinates":[-1.508607,53.680427],"type":"Point"},"properties":{"osm_id":"4076016240","tag":{"amenity":"waste_basket"}},"type":"Feature"},
	{"geometry":{"coordinates":[-1.497712,53.67737],"type":"Point"},"properties":{"osm_id":"4726725668","tag":{"amenity":"recycling","opening_hours:covid19":"same","recycling:cans":"yes","recycling:clothes":"yes","recycling:glass":"yes","recycling:plastic":"yes","recycling:shoes":"yes","recycling_type":"container"}},"type":"Feature"},
	{"geometry":{"coordinates":[-1.499079,53.678022],"type":"Point"},"properties":{"is_in":"Sainsbury's","osm_id":"5671608836","tag":{"amenity":"recycling","recycling:batteries":"yes","recycling_type":"container"}},"type":"Feature"},
	{"geometry":{"coordinates":[-1.500693,53.649462],"type":"Point"},"properties":{"osm_id":"7628680320","tag":{"amenity":"waste_basket"}},"type":"Feature"},
	{"geometry":{"coordinates":[-1.500537,53.649441],"type":"Point"},"properties":{"osm_id":"7628680322","tag":{"amenity":"waste_basket"}},"type":"Feature"},
	{"geometry":{"coordinates":[-1.500428,53.649505],"type":"Point"},"properties":{"osm_id":"7628680323","tag":{"amenity":"waste_basket"}},"type":"Feature"},
	{"geometry":{"coordinates":[-1.500863,53.64959],"type":"Point"},"properties":{"osm_id":"7628680324","tag":{"amenity":"waste_basket"}},"type":"Feature"},
	{"geometry":{"coordinates":[-1.500893,53.649505],"type":"Point"},"properties":{"osm_id":"7628680325","tag":{"amenity":"waste_basket"}},"type":"Feature"},
	{"geometry":{"coordinates":[-1.504041,53.671761],"type":"Point"},"properties":{"osm_id":"7727988284","tag":{"amenity":"waste_basket","collection_times":"U","colour":"Brown","material":"plastic","operator":"Wakefield Council","waste":"general;recycling;dog_excrement"}},"type":"Feature"},
	{"geometry":{"coordinates":[-1.494548,53.675669],"type":"Point"},"properties":{"name":"Pick up Skips","osm_id":"7931620208","tag":{"amenity":"recycling","recycling_type":"centre"}},"type":"Feature"}
]
}
