{
"type": "FeatureCollection",
"features": [
	{"geometry":{"coordinates":[-1.531741,53.586399],"type":"Point"},"properties":{"osm_id":"2642880998","tag":{"amenity":"recycling","recycling_type":"container"}},"type":"Feature"},
	{"geometry":{"coordinates":[-1.548283,53.581911],"type":"Point"},"properties":{"osm_id":"6067189976","tag":{"amenity":"waste_basket","colour":"black","material":"metal"}},"type":"Feature"},
	{"geometry":{"coordinates":[-1.510388,53.562165],"type":"Point"},"properties":{"osm_id":"8022498295","tag":{"amenity":"waste_basket","waste":"dog_excrement"}},"type":"Feature"},
	{"geometry":{"coordinates":[-1.510455,53.563092],"type":"Point"},"properties":{"osm_id":"8022498296","tag":{"amenity":"waste_basket","waste":"dog_excrement"}},"type":"Feature"},
	{"geometry":{"coordinates":[-1.564669,53.543459],"type":"Point"},"properties":{"osm_id":"9064670943","tag":{"amenity":"waste_basket","colour":"grey","material":"plastic","waste":"litter"}},"type":"Feature"},
	{"geometry":{"coordinates":[-1.564736,53.543632],"type":"Point"},"properties":{"osm_id":"9064670944","tag":{"amenity":"recycling","colour":"green","material":"metal","opening_hours":"24/7","operator":"The Salvation Army","recycling:clothes":"yes","recycling:shoes":"yes","recycling_type":"container"}},"type":"Feature"}
]
}
