{
"type": "FeatureCollection",
"features": [
	{"geometry":{"coordinates":[-1.543601,52.57585],"type":"Point"},"properties":{"osm_id":"770258515","tag":{"amenity":"recycling","recycling:cans":"yes","recycling:clothes":"yes","recycling:glass":"yes","recycling:paper":"yes","recycling:scrap_metal":"yes"}},"type":"Feature"},
	{"geometry":{"coordinates":[-1.551265,52.578166],"type":"Point"},"properties":{"osm_id":"771111032","tag":{"amenity":"recycling","recycling:clothes":"yes"}},"type":"Feature"},
	{"geometry":{"coordinates":[-1.54987,52.574372],"type":"Point"},"properties":{"osm_id":"2515723365","tag":{"amenity":"waste_disposal","operator":"Canal and River Trust"}},"type":"Feature"},
	{"geometry":{"coordinates":[-1.494664,52.540672],"type":"Point"},"properties":{"osm_id":"2591597650","tag":{"amenity":"waste_disposal","operator":"Springwood Haven Marina","waste":"trash"}},"type":"Feature"},
	{"geometry":{"coordinates":[-1.494688,52.540681],"type":"Point"},"properties":{"osm_id":"2591597651","tag":{"amenity":"waste_disposal","operator":"Springwood Haven Marina","waste":"chemical_toilet"}},"type":"Feature"},
	{"geometry":{"coordinates":[-1.494711,52.54069],"type":"Point"},"properties":{"osm_id":"2591597652","tag":{"amenity":"waste_disposal","operator":"Springwood Haven Marina","waste":"excrement"}},"type":"Feature"}
]
}
