{
"type": "FeatureCollection",
"features": [
	{"geometry":{"coordinates":[-1.52406,51.6425],"type":"Point"},"properties":{"osm_id":"20916433","tag":{"amenity":"recycling"}},"type":"Feature"},
	{"geometry":{"coordinates":[-1.51258,51.634965],"type":"Point"},"properties":{"name":"Horse & Jockey glass / paper / can recycling","osm_id":"457902351","tag":{"amenity":"recycling"}},"type":"Feature"},
	{"geometry":{"coordinates":[-1.524249,51.642629],"type":"Point"},"properties":{"name":"Stanford Waste Recycling Centre","osm_id":"457904372","tag":{"addr:city":"Stanford in the Vale","addr:postcode":"SN7 8LD","addr:street":"Faringdon Road","amenity":"recycling","opening_hours":"Mo-Su 08:00-17:00","opening_hours:covid19":"same","operator":"W+S","operator:type":"government","recycling:electrical_appliances":"yes","recycling:green_waste":"yes","recycling:scrap_metal":"yes","recycling:small_appliances":"yes","recycling:wood":"yes","recycling_type":"centre"}},"type":"Feature"},
	{"geometry":{"coordinates":[-1.580989,51.660061],"type":"Point"},"properties":{"osm_id":"8742111030","tag":{"amenity":"waste_basket","waste":"dog_excrement"}},"type":"Feature"},
	{"geometry":{"coordinates":[-1.5781,51.657575],"type":"Point"},"properties":{"osm_id":"8742111031","tag":{"amenity":"waste_basket","waste":"dog_excrement"}},"type":"Feature"},
	{"geometry":{"coordinates":[-1.579254,51.655454],"type":"Point"},"properties":{"osm_id":"8742111032","tag":{"amenity":"waste_basket"}},"type":"Feature"}
]
}
