{
"type": "FeatureCollection",
"features": [
	{"geometry":{"coordinates":[-1.525093,50.682557],"type":"Point"},"properties":{"osm_id":"3724427440","tag":{"amenity":"waste_basket"}},"type":"Feature"},
	{"geometry":{"coordinates":[-1.524728,50.682603],"type":"Point"},"properties":{"osm_id":"3724427444","tag":{"amenity":"waste_basket"}},"type":"Feature"},
	{"geometry":{"coordinates":[-1.523399,50.681882],"type":"Point"},"properties":{"osm_id":"5475124090","tag":{"amenity":"recycling","opening_hours":"24/7","operator":"Isle of Wight Council","recycling:books":"yes","recycling:cans":"yes","recycling:clothes":"yes","recycling:glass_bottles":"yes","recycling:shoes":"yes","recycling_type":"container","ref:GB:uprn":"10024247114"}},"type":"Feature"},
	{"geometry":{"coordinates":[-1.53601,50.685194],"type":"Point"},"properties":{"osm_id":"7122372361","tag":{"amenity":"waste_basket","waste":"dog_excrement"}},"type":"Feature"},
	{"geometry":{"coordinates":[-1.500054,50.70416],"type":"Point"},"properties":{"osm_id":"8168507257","tag":{"amenity":"recycling","opening_hours":"24/7","operator":"Isle of Wight Council","recycling:books":"yes","recycling:cans":"yes","recycling:clothes":"yes","recycling:glass_bottles":"yes","recycling:shoes":"yes","recycling_type":"container","ref:GB:uprn":"10024247152"}},"type":"Feature"},
	{"geometry":{"coordinates":[-1.519783,50.681672],"type":"Point"},"properties":{"osm_id":"9054784477","tag":{"amenity":"waste_basket","waste":"trash"}},"type":"Feature"}
]
}
