{
"type": "FeatureCollection",
"features": [
	{"geometry":{"coordinates":[-1.52859,49.63084],"type":"Point"},"properties":{"osm_id":"246901234","tag":{"amenity":"recycling","recycling_type":"container"}},"type":"Feature"},
	{"geometry":{"coordinates":[-1.519565,49.657378],"type":"Point"},"properties":{"osm_id":"2253897359","tag":{"amenity":"recycling","recycling_type":"container"}},"type":"Feature"},
	{"geometry":{"coordinates":[-1.551989,49.654605],"type":"Point"},"properties":{"osm_id":"3105787844","tag":{"amenity":"recycling","recycling:glass_bottles":"yes","recycling_type":"container"}},"type":"Feature"},
	{"geometry":{"coordinates":[-1.550515,49.65447],"type":"Point"},"properties":{"osm_id":"3135120232","tag":{"amenity":"waste_basket"}},"type":"Feature"},
	{"geometry":{"coordinates":[-1.539626,49.653438],"type":"Point"},"properties":{"osm_id":"4452818082","tag":{"amenity":"recycling","recycling:cardboard":"no","recycling:glass_bottles":"yes","recycling_type":"container"}},"type":"Feature"},
	{"geometry":{"coordinates":[-1.563777,49.654291],"type":"Point"},"properties":{"osm_id":"6263484908","tag":{"amenity":"waste_basket"}},"type":"Feature"},
	{"geometry":{"coordinates":[-1.580136,49.640487],"type":"Point"},"properties":{"osm_id":"6638793295","tag":{"amenity":"waste_basket"}},"type":"Feature"},
	{"geometry":{"coordinates":[-1.579823,49.640474],"type":"Point"},"properties":{"osm_id":"6638793296","tag":{"amenity":"waste_basket"}},"type":"Feature"},
	{"geometry":{"coordinates":[-1.580566,49.640475],"type":"Point"},"properties":{"osm_id":"6641464330","tag":{"amenity":"waste_basket"}},"type":"Feature"},
	{"geometry":{"coordinates":[-1.580936,49.643614],"type":"Point"},"properties":{"osm_id":"6647308952","tag":{"amenity":"recycling","colour":"yellow","location":"underground","recycling:cans":"yes","recycling:cardboard":"yes","recycling:paper":"yes","recycling:plastic":"yes","recycling:plastic_bottles":"yes","recycling_type":"container"}},"type":"Feature"},
	{"geometry":{"coordinates":[-1.561051,49.647913],"type":"Point"},"properties":{"name":"D\u00c3\u00a9ch\u00c3\u00a8terie\u00c2\u00a0de\u00c2\u00a0Tourlaville","osm_id":"6960930039","tag":{"amenity":"recycling","operator":"Communaut\u00e9\u00a0d'Agglom\u00e9ration\u00a0du\u00a0Cotentin","phone":"+33 2 33 22 27 25","recycling_type":"centre","ref:FR:SINOE":"4365","start_date":"1989"}},"type":"Feature"}
]
}
