{
"type": "FeatureCollection",
"features": [
	{"geometry":{"coordinates":[-1.515799,48.207948],"type":"Point"},"properties":{"osm_id":"29632071","tag":{"amenity":"recycling","recycling:cans":"no","recycling:clothes":"no","recycling:glass":"yes","recycling:glass_bottles":"yes","recycling:paper":"no","recycling_type":"container"}},"type":"Feature"},
	{"geometry":{"coordinates":[-1.50853,48.210421],"type":"Point"},"properties":{"osm_id":"30795268","tag":{"access":"yes","amenity":"waste_disposal","location":"underground","waste":"recycling;glass;plastic;paper"}},"type":"Feature"},
	{"geometry":{"coordinates":[-1.504363,48.215509],"type":"Point"},"properties":{"osm_id":"32574189","tag":{"amenity":"recycling","recycling:glass":"yes","recycling_type":"container"}},"type":"Feature"},
	{"geometry":{"coordinates":[-1.515099,48.185413],"type":"Point"},"properties":{"osm_id":"34765229","tag":{"amenity":"recycling","location":"underground","recycling:glass":"yes","recycling:glass_bottles":"yes","recycling_type":"container"}},"type":"Feature"},
	{"geometry":{"coordinates":[-1.515185,48.210394],"type":"Point"},"properties":{"osm_id":"203202927","tag":{"amenity":"recycling","recycling:glass":"yes","recycling:glass_bottles":"yes","recycling_type":"container"}},"type":"Feature"},
	{"geometry":{"coordinates":[-1.499041,48.217733],"type":"Point"},"properties":{"osm_id":"246830145","tag":{"amenity":"recycling","recycling:glass_bottles":"yes","recycling_type":"container"}},"type":"Feature"},
	{"geometry":{"coordinates":[-1.57935,48.218934],"type":"Point"},"properties":{"osm_id":"2838787291","tag":{"amenity":"recycling","mapillary":"T1BBGBcFL8ymPTf4MKlpoQ","recycling:glass_bottles":"yes","recycling_type":"container"}},"type":"Feature"},
	{"geometry":{"coordinates":[-1.520315,48.205455],"type":"Point"},"properties":{"osm_id":"3726355249","tag":{"addr:city":"Liffr\u00c3\u00a9","amenity":"recycling","recycling:cans":"no","recycling:clothes":"no","recycling:glass":"yes","recycling:paper":"no","recycling_type":"container"}},"type":"Feature"},
	{"geometry":{"coordinates":[-1.579345,48.218974],"type":"Point"},"properties":{"name":"Le Relais","osm_id":"5016254491","tag":{"amenity":"recycling","mapillary":"T1BBGBcFL8ymPTf4MKlpoQ","operator":"Le Relais","recycling:clothes":"yes","recycling:shoes":"yes","recycling_type":"container"}},"type":"Feature"},
	{"geometry":{"coordinates":[-1.5793,48.218938],"type":"Point"},"properties":{"osm_id":"5016254492","tag":{"amenity":"waste_basket","mapillary":"T1BBGBcFL8ymPTf4MKlpoQ"}},"type":"Feature"},
	{"geometry":{"coordinates":[-1.578406,48.218789],"type":"Point"},"properties":{"osm_id":"5016264120","tag":{"amenity":"waste_basket"}},"type":"Feature"},
	{"geometry":{"coordinates":[-1.581471,48.217899],"type":"Point"},"properties":{"osm_id":"5016330380","tag":{"amenity":"waste_basket"}},"type":"Feature"},
	{"geometry":{"coordinates":[-1.57881,48.218642],"type":"Point"},"properties":{"osm_id":"5016330399","tag":{"amenity":"waste_basket"}},"type":"Feature"},
	{"geometry":{"coordinates":[-1.578639,48.218655],"type":"Point"},"properties":{"osm_id":"5016330400","tag":{"amenity":"waste_basket","waste":"cigarette"}},"type":"Feature"},
	{"geometry":{"coordinates":[-1.578665,48.217549],"type":"Point"},"properties":{"osm_id":"5016330417","tag":{"amenity":"waste_basket","mapillary":"u_u4kZPSliS00MI3ec_kgw"}},"type":"Feature"},
	{"geometry":{"coordinates":[-1.545157,48.188708],"type":"Point"},"properties":{"osm_id":"5832501719","tag":{"amenity":"recycling","recycling_type":"container"}},"type":"Feature"},
	{"geometry":{"coordinates":[-1.516629,48.208527],"type":"Point"},"properties":{"osm_id":"6778458795","tag":{"amenity":"recycling","recycling:glass":"yes","recycling:glass_bottles":"yes","recycling_type":"container"}},"type":"Feature"},
	{"geometry":{"coordinates":[-1.510326,48.205296],"type":"Point"},"properties":{"osm_id":"6778458796","tag":{"amenity":"recycling","recycling:glass":"yes","recycling:glass_bottles":"yes","recycling_type":"container"}},"type":"Feature"},
	{"geometry":{"coordinates":[-1.51397,48.207082],"type":"Point"},"properties":{"osm_id":"7727157379","tag":{"amenity":"waste_basket"}},"type":"Feature"},
	{"geometry":{"coordinates":[-1.579443,48.212719],"type":"Point"},"properties":{"osm_id":"8285735390","tag":{"amenity":"recycling","recycling:glass_bottles":"yes","recycling_type":"container"}},"type":"Feature"},
	{"geometry":{"coordinates":[-1.577771,48.214225],"type":"Point"},"properties":{"osm_id":"8331000638","tag":{"amenity":"waste_basket"}},"type":"Feature"},
	{"geometry":{"coordinates":[-1.576293,48.223263],"type":"Point"},"properties":{"osm_id":"8349512575","tag":{"amenity":"waste_basket"}},"type":"Feature"},
	{"geometry":{"coordinates":[-1.577644,48.213019],"type":"Point"},"properties":{"osm_id":"8567516802","tag":{"amenity":"waste_basket"}},"type":"Feature"},
	{"geometry":{"coordinates":[-1.580192,48.21706],"type":"Point"},"properties":{"osm_id":"8661851020","tag":{"amenity":"waste_basket"}},"type":"Feature"},
	{"geometry":{"coordinates":[-1.508421,48.215857],"type":"Point"},"properties":{"osm_id":"8665392295","tag":{"amenity":"recycling","recycling_type":"container"}},"type":"Feature"},
	{"geometry":{"coordinates":[-1.508404,48.215843],"type":"Point"},"properties":{"osm_id":"8665392296","tag":{"amenity":"recycling","recycling_type":"container"}},"type":"Feature"},
	{"geometry":{"coordinates":[-1.516865,48.205365],"type":"Point"},"properties":{"osm_id":"8730334910","tag":{"amenity":"recycling","recycling_type":"container"}},"type":"Feature"},
	{"geometry":{"coordinates":[-1.51617,48.205578],"type":"Point"},"properties":{"osm_id":"8730334911","tag":{"amenity":"recycling","recycling_type":"container"}},"type":"Feature"},
	{"geometry":{"coordinates":[-1.5055,48.205421],"type":"Point"},"properties":{"osm_id":"8737222342","tag":{"amenity":"recycling","recycling_type":"container"}},"type":"Feature"},
	{"geometry":{"coordinates":[-1.51627,48.210793],"type":"Point"},"properties":{"osm_id":"8740380242","tag":{"amenity":"recycling","operator":"Le Relais","recycling:clothes":"yes","recycling_type":"container"}},"type":"Feature"},
	{"geometry":{"coordinates":[-1.516057,48.209487],"type":"Point"},"properties":{"osm_id":"8740380243","tag":{"amenity":"recycling","operator":"Le Relais","recycling:clothes":"yes","recycling_type":"container"}},"type":"Feature"},
	{"geometry":{"coordinates":[-1.515799,48.207933],"type":"Point"},"properties":{"osm_id":"8740380252","tag":{"amenity":"waste_basket"}},"type":"Feature"},
	{"geometry":{"coordinates":[-1.50841,48.210534],"type":"Point"},"properties":{"osm_id":"8751135944","tag":{"amenity":"recycling","recycling_type":"container"}},"type":"Feature"},
	{"geometry":{"coordinates":[-1.503354,48.206062],"type":"Point"},"properties":{"osm_id":"8751135983","tag":{"amenity":"recycling","recycling_type":"container"}},"type":"Feature"},
	{"geometry":{"coordinates":[-1.502023,48.205639],"type":"Point"},"properties":{"osm_id":"8751135995","tag":{"amenity":"recycling","recycling_type":"container"}},"type":"Feature"},
	{"geometry":{"coordinates":[-1.500561,48.205673],"type":"Point"},"properties":{"osm_id":"8751135999","tag":{"amenity":"recycling","recycling_type":"container"}},"type":"Feature"},
	{"geometry":{"coordinates":[-1.50261,48.206597],"type":"Point"},"properties":{"osm_id":"8751136003","tag":{"amenity":"recycling","recycling_type":"container"}},"type":"Feature"},
	{"geometry":{"coordinates":[-1.503721,48.207515],"type":"Point"},"properties":{"osm_id":"8751136013","tag":{"amenity":"recycling","recycling_type":"container"}},"type":"Feature"},
	{"geometry":{"coordinates":[-1.501892,48.207055],"type":"Point"},"properties":{"osm_id":"8751156924","tag":{"amenity":"recycling","recycling_type":"container"}},"type":"Feature"},
	{"geometry":{"coordinates":[-1.499639,48.206036],"type":"Point"},"properties":{"osm_id":"8751156933","tag":{"amenity":"recycling","recycling_type":"container"}},"type":"Feature"},
	{"geometry":{"coordinates":[-1.50757,48.205554],"type":"Point"},"properties":{"osm_id":"8751156955","tag":{"amenity":"recycling","recycling_type":"container"}},"type":"Feature"},
	{"geometry":{"coordinates":[-1.506516,48.205439],"type":"Point"},"properties":{"osm_id":"8751156956","tag":{"amenity":"recycling","recycling_type":"container"}},"type":"Feature"},
	{"geometry":{"coordinates":[-1.502246,48.216365],"type":"Point"},"properties":{"osm_id":"8751244546","tag":{"amenity":"recycling","recycling_type":"container"}},"type":"Feature"},
	{"geometry":{"coordinates":[-1.500323,48.216555],"type":"Point"},"properties":{"osm_id":"8751244556","tag":{"amenity":"waste_basket"}},"type":"Feature"},
	{"geometry":{"coordinates":[-1.49908,48.21762],"type":"Point"},"properties":{"osm_id":"8751244564","tag":{"amenity":"recycling","recycling_type":"container"}},"type":"Feature"},
	{"geometry":{"coordinates":[-1.517999,48.21059],"type":"Point"},"properties":{"osm_id":"8751284843","tag":{"amenity":"recycling","recycling_type":"container"}},"type":"Feature"}
]
}
