{
"type": "FeatureCollection",
"features": [
	{"geometry":{"coordinates":[-1.548212,47.302274],"type":"Point"},"properties":{"osm_id":"664232652","tag":{"amenity":"recycling","recycling:glass_bottles":"yes","recycling_type":"container","ref:FR:NM":"VE0186"}},"type":"Feature"},
	{"geometry":{"coordinates":[-1.548143,47.304236],"type":"Point"},"properties":{"osm_id":"664232653","tag":{"amenity":"recycling","recycling:glass_bottles":"yes","recycling_type":"container","ref:FR:NM":"VE0193"}},"type":"Feature"},
	{"geometry":{"coordinates":[-1.503963,47.337981],"type":"Point"},"properties":{"osm_id":"1368280380","tag":{"amenity":"recycling","recycling:batteries":"no","recycling:books":"yes","recycling:cans":"yes","recycling:cardboard":"no","recycling:cartons":"yes","recycling:clothes":"no","recycling:electrical_appliances":"no","recycling:glass":"no","recycling:glass_bottles":"yes","recycling:green_waste":"no","recycling:magazines":"yes","recycling:newspaper":"yes","recycling:paper":"yes","recycling:plastic":"yes","recycling:plastic_bottles":"yes","recycling:plastic_packaging":"yes","recycling:scrap_metal":"no","recycling:small_appliances":"no","recycling:waste":"no","recycling:wood":"no","recycling_type":"container"}},"type":"Feature"},
	{"geometry":{"coordinates":[-1.511604,47.331625],"type":"Point"},"properties":{"osm_id":"1368901501","tag":{"amenity":"recycling","recycling:batteries":"no","recycling:books":"yes","recycling:cans":"yes","recycling:cardboard":"no","recycling:cartons":"yes","recycling:clothes":"no","recycling:electrical_appliances":"no","recycling:glass":"yes","recycling:glass_bottles":"yes","recycling:green_waste":"no","recycling:magazines":"yes","recycling:newspaper":"yes","recycling:paper":"yes","recycling:paper_packaging":"yes","recycling:plastic":"yes","recycling:plastic_bottles":"yes","recycling:plastic_packaging":"yes","recycling:scrap_metal":"no","recycling:small_appliances":"no","recycling:waste":"no","recycling:wood":"no","recycling_type":"container"}},"type":"Feature"},
	{"geometry":{"coordinates":[-1.551642,47.299282],"type":"Point"},"properties":{"osm_id":"1671952033","tag":{"amenity":"waste_basket"}},"type":"Feature"},
	{"geometry":{"coordinates":[-1.515837,47.313799],"type":"Point"},"properties":{"osm_id":"3042325311","tag":{"amenity":"recycling"}},"type":"Feature"},
	{"geometry":{"coordinates":[-1.550518,47.29889],"type":"Point"},"properties":{"osm_id":"3407497177","tag":{"amenity":"waste_basket"}},"type":"Feature"},
	{"geometry":{"coordinates":[-1.550714,47.298997],"type":"Point"},"properties":{"osm_id":"3407497178","tag":{"amenity":"waste_basket"}},"type":"Feature"},
	{"geometry":{"coordinates":[-1.550893,47.299023],"type":"Point"},"properties":{"osm_id":"3407497179","tag":{"amenity":"waste_basket"}},"type":"Feature"},
	{"geometry":{"coordinates":[-1.550036,47.299231],"type":"Point"},"properties":{"osm_id":"3407497181","tag":{"amenity":"waste_basket","check_date":"2021-06-16"}},"type":"Feature"},
	{"geometry":{"coordinates":[-1.550289,47.299314],"type":"Point"},"properties":{"osm_id":"3407497182","tag":{"amenity":"waste_basket","check_date":"2021-06-16"}},"type":"Feature"},
	{"geometry":{"coordinates":[-1.548504,47.29937],"type":"Point"},"properties":{"osm_id":"3407497183","tag":{"amenity":"waste_basket"}},"type":"Feature"},
	{"geometry":{"coordinates":[-1.54914,47.299524],"type":"Point"},"properties":{"osm_id":"3407497184","tag":{"amenity":"waste_basket"}},"type":"Feature"},
	{"geometry":{"coordinates":[-1.550211,47.299552],"type":"Point"},"properties":{"osm_id":"3407497185","tag":{"amenity":"waste_basket"}},"type":"Feature"},
	{"geometry":{"coordinates":[-1.552208,47.299981],"type":"Point"},"properties":{"osm_id":"3407497186","tag":{"amenity":"waste_basket"}},"type":"Feature"},
	{"geometry":{"coordinates":[-1.54872,47.300141],"type":"Point"},"properties":{"osm_id":"3407497187","tag":{"amenity":"waste_basket"}},"type":"Feature"},
	{"geometry":{"coordinates":[-1.551953,47.300187],"type":"Point"},"properties":{"osm_id":"3407497188","tag":{"amenity":"waste_basket"}},"type":"Feature"},
	{"geometry":{"coordinates":[-1.551496,47.301014],"type":"Point"},"properties":{"osm_id":"3407497189","tag":{"amenity":"waste_basket"}},"type":"Feature"},
	{"geometry":{"coordinates":[-1.497418,47.303211],"type":"Point"},"properties":{"name":"502","osm_id":"3733514104","tag":{"amenity":"recycling","check_date:recycling":"2021-07-27","recycling:glass":"no","recycling:glass_bottles":"yes","recycling_type":"container","ref:FR:NM":"VE0110"}},"type":"Feature"},
	{"geometry":{"coordinates":[-1.494963,47.297362],"type":"Point"},"properties":{"osm_id":"3836067863","tag":{"amenity":"recycling","location":"underground","recycling:glass_bottles":"yes","recycling_type":"container","ref:FR:NM":"V4074"}},"type":"Feature"},
	{"geometry":{"coordinates":[-1.508116,47.299618],"type":"Point"},"properties":{"osm_id":"3895028380","tag":{"amenity":"recycling","opening_hours":"08:00-22:00","recycling:glass":"yes","recycling:glass_bottles":"yes","recycling_type":"container","ref:FR:NM":"VE0101"}},"type":"Feature"},
	{"geometry":{"coordinates":[-1.505307,47.29721],"type":"Point"},"properties":{"osm_id":"4042040993","tag":{"amenity":"recycling","recycling:glass_bottles":"yes","recycling_type":"container","ref:FR:NM":"VE0100"}},"type":"Feature"},
	{"geometry":{"coordinates":[-1.500886,47.300151],"type":"Point"},"properties":{"osm_id":"4061412395","tag":{"amenity":"waste_basket"}},"type":"Feature"},
	{"geometry":{"coordinates":[-1.498187,47.28125],"type":"Point"},"properties":{"osm_id":"4309378459","tag":{"amenity":"recycling","recycling:glass_bottles":"yes","recycling_type":"container","ref:FR:NM":"VE0095"}},"type":"Feature"},
	{"geometry":{"coordinates":[-1.498221,47.281265],"type":"Point"},"properties":{"osm_id":"4309378460","tag":{"amenity":"recycling","recycling:glass_bottles":"yes","recycling_type":"container","ref:FR:NM":"VE0096"}},"type":"Feature"},
	{"geometry":{"coordinates":[-1.505394,47.28676],"type":"Point"},"properties":{"osm_id":"4309378464","tag":{"amenity":"recycling","recycling:glass_bottles":"yes","recycling_type":"container","ref:FR:NM":"VE0093"}},"type":"Feature"},
	{"geometry":{"coordinates":[-1.494825,47.29368],"type":"Point"},"properties":{"osm_id":"4309378467","tag":{"amenity":"recycling","recycling:glass_bottles":"yes","recycling_type":"container","ref:FR:NM":"VE0086"}},"type":"Feature"},
	{"geometry":{"coordinates":[-1.502228,47.298315],"type":"Point"},"properties":{"osm_id":"4309378471","tag":{"amenity":"recycling","recycling:glass_bottles":"yes","recycling_type":"container","ref:FR:NM":"VE0099"}},"type":"Feature"},
	{"geometry":{"coordinates":[-1.501594,47.299722],"type":"Point"},"properties":{"osm_id":"4309378472","tag":{"amenity":"recycling","recycling:glass_bottles":"yes","recycling_type":"container","ref:FR:NM":"VE0102"}},"type":"Feature"},
	{"geometry":{"coordinates":[-1.495402,47.300105],"type":"Point"},"properties":{"osm_id":"4309378473","tag":{"amenity":"recycling","recycling:glass_bottles":"yes","recycling_type":"container","ref:FR:NM":"VE0122"}},"type":"Feature"},
	{"geometry":{"coordinates":[-1.501721,47.282895],"type":"Point"},"properties":{"osm_id":"4326944600","tag":{"amenity":"recycling","recycling:glass":"no","recycling:glass_bottles":"yes","recycling_type":"container","ref:FR:NM":"VE0097"}},"type":"Feature"},
	{"geometry":{"coordinates":[-1.501575,47.292031],"type":"Point"},"properties":{"osm_id":"4326944601","tag":{"amenity":"recycling","recycling:glass":"no","recycling:glass_bottles":"yes","recycling_type":"container","ref:FR:NM":"VE0125"}},"type":"Feature"},
	{"geometry":{"coordinates":[-1.503563,47.302619],"type":"Point"},"properties":{"osm_id":"4326944611","tag":{"amenity":"recycling","recycling:glass":"no","recycling:glass_bottles":"yes","recycling_type":"container","ref:FR:NM":"VE0124"}},"type":"Feature"},
	{"geometry":{"coordinates":[-1.515352,47.300269],"type":"Point"},"properties":{"osm_id":"4406533087","tag":{"amenity":"waste_basket","check_date":"2021-04-04"}},"type":"Feature"},
	{"geometry":{"coordinates":[-1.522229,47.331665],"type":"Point"},"properties":{"osm_id":"4443270826","tag":{"amenity":"recycling","recycling:glass_bottles":"yes","recycling:paper":"yes","recycling_type":"container"}},"type":"Feature"},
	{"geometry":{"coordinates":[-1.540138,47.30661],"type":"Point"},"properties":{"osm_id":"4872035569","tag":{"amenity":"recycling","recycling:glass_bottles":"yes","recycling_type":"container","ref:FR:NM":"VE0192"}},"type":"Feature"},
	{"geometry":{"coordinates":[-1.522408,47.330074],"type":"Point"},"properties":{"osm_id":"4872041033","tag":{"amenity":"recycling","recycling:glass_bottles":"yes","recycling_type":"container"}},"type":"Feature"},
	{"geometry":{"coordinates":[-1.496319,47.299908],"type":"Point"},"properties":{"osm_id":"5061010318","tag":{"amenity":"waste_basket"}},"type":"Feature"},
	{"geometry":{"coordinates":[-1.497721,47.299769],"type":"Point"},"properties":{"osm_id":"5061010521","tag":{"amenity":"waste_basket"}},"type":"Feature"},
	{"geometry":{"coordinates":[-1.496656,47.301022],"type":"Point"},"properties":{"osm_id":"5061010534","tag":{"amenity":"waste_basket"}},"type":"Feature"},
	{"geometry":{"coordinates":[-1.495461,47.301617],"type":"Point"},"properties":{"osm_id":"5061010540","tag":{"amenity":"waste_basket"}},"type":"Feature"},
	{"geometry":{"coordinates":[-1.494473,47.302355],"type":"Point"},"properties":{"osm_id":"5061010545","tag":{"amenity":"waste_basket"}},"type":"Feature"},
	{"geometry":{"coordinates":[-1.495072,47.300496],"type":"Point"},"properties":{"osm_id":"5061010547","tag":{"amenity":"waste_basket"}},"type":"Feature"},
	{"geometry":{"coordinates":[-1.494579,47.301009],"type":"Point"},"properties":{"osm_id":"5061010567","tag":{"amenity":"waste_basket"}},"type":"Feature"},
	{"geometry":{"coordinates":[-1.494325,47.300971],"type":"Point"},"properties":{"osm_id":"5061010569","tag":{"amenity":"waste_basket"}},"type":"Feature"},
	{"geometry":{"coordinates":[-1.52544,47.3383],"type":"Point"},"properties":{"osm_id":"5777121753","tag":{"amenity":"waste_basket"}},"type":"Feature"},
	{"geometry":{"coordinates":[-1.55378,47.30766],"type":"Point"},"properties":{"name":"Le TransiStore","osm_id":"6553011799","tag":{"amenity":"recycling","charity":"yes","contact:email":"contact@letransistore.org","contact:facebook":"https://www.facebook.com/LeTransiStore","contact:phone":"+33780675336","contact:website":"https://www.letransistore.org","description":"Vous pouvez d\u00c3\u00a9poser ou acheter \u00c3\u00a0 petit prix des v\u00c3\u00aatements, bibelots, meubles, jouets, linge, lampe, livres.","mapillary":"bqZlZbD7wdGJhd5r2O6GSw","office":"association","recycling:bicycles":"yes","recycling:books":"yes","recycling:clothes":"yes","recycling:computers":"yes","recycling:dishes":"yes","recycling:furniture":"yes","recycling:interior_decoration":"yes","recycling:shoes":"yes","recycling:small_electrical_appliances":"yes","recycling:toys":"yes","recycling_type":"centre","ref:FR:SIRET":"82363633700029","second_hand":"only","shop":"second_hand"}},"type":"Feature"},
	{"geometry":{"coordinates":[-1.560255,47.302836],"type":"Point"},"properties":{"osm_id":"6710328222","tag":{"amenity":"recycling","material":"plastic","recycling:glass":"yes","recycling_type":"container"}},"type":"Feature"},
	{"geometry":{"coordinates":[-1.561264,47.308882],"type":"Point"},"properties":{"osm_id":"7201000282","tag":{"amenity":"recycling","recycling_type":"container"}},"type":"Feature"},
	{"geometry":{"coordinates":[-1.55243,47.296683],"type":"Point"},"properties":{"osm_id":"7201024297","tag":{"amenity":"recycling","recycling_type":"container"}},"type":"Feature"},
	{"geometry":{"coordinates":[-1.552111,47.305829],"type":"Point"},"properties":{"osm_id":"7203101658","tag":{"amenity":"recycling","recycling_type":"container"}},"type":"Feature"},
	{"geometry":{"coordinates":[-1.553289,47.289062],"type":"Point"},"properties":{"osm_id":"7203120925","tag":{"amenity":"recycling","recycling_type":"container"}},"type":"Feature"},
	{"geometry":{"coordinates":[-1.537648,47.28121],"type":"Point"},"properties":{"osm_id":"7408651215","tag":{"amenity":"recycling","recycling_type":"container"}},"type":"Feature"},
	{"geometry":{"coordinates":[-1.496173,47.296435],"type":"Point"},"properties":{"osm_id":"7637587791","tag":{"amenity":"waste_basket"}},"type":"Feature"},
	{"geometry":{"coordinates":[-1.527034,47.300415],"type":"Point"},"properties":{"osm_id":"7947843496","tag":{"amenity":"waste_basket","waste":"trash"}},"type":"Feature"},
	{"geometry":{"coordinates":[-1.527204,47.300645],"type":"Point"},"properties":{"osm_id":"7947843497","tag":{"amenity":"waste_basket","waste":"trash"}},"type":"Feature"},
	{"geometry":{"coordinates":[-1.529495,47.299401],"type":"Point"},"properties":{"osm_id":"7947853333","tag":{"amenity":"waste_basket","waste":"trash"}},"type":"Feature"},
	{"geometry":{"coordinates":[-1.528377,47.300874],"type":"Point"},"properties":{"osm_id":"7947853336","tag":{"amenity":"waste_basket","waste":"trash"}},"type":"Feature"},
	{"geometry":{"coordinates":[-1.52894,47.300102],"type":"Point"},"properties":{"osm_id":"7947853340","tag":{"amenity":"waste_basket","waste":"trash"}},"type":"Feature"},
	{"geometry":{"coordinates":[-1.529232,47.299655],"type":"Point"},"properties":{"osm_id":"7947853342","tag":{"amenity":"waste_basket","waste":"trash"}},"type":"Feature"},
	{"geometry":{"coordinates":[-1.529852,47.298975],"type":"Point"},"properties":{"osm_id":"7947875585","tag":{"amenity":"waste_basket"}},"type":"Feature"},
	{"geometry":{"coordinates":[-1.557154,47.279805],"type":"Point"},"properties":{"osm_id":"7988188270","tag":{"amenity":"recycling","operator":"Le Relais","recycling:clothes":"yes","recycling:shoes":"yes","recycling_type":"container"}},"type":"Feature"},
	{"geometry":{"coordinates":[-1.557121,47.279808],"type":"Point"},"properties":{"osm_id":"7988188271","tag":{"amenity":"recycling","recycling:glass_bottles":"yes","recycling_type":"container"}},"type":"Feature"},
	{"geometry":{"coordinates":[-1.517589,47.283178],"type":"Point"},"properties":{"osm_id":"8194100845","tag":{"amenity":"recycling","recycling_type":"container"}},"type":"Feature"},
	{"geometry":{"coordinates":[-1.549565,47.299357],"type":"Point"},"properties":{"osm_id":"8632282318","tag":{"amenity":"waste_basket"}},"type":"Feature"},
	{"geometry":{"coordinates":[-1.549559,47.299068],"type":"Point"},"properties":{"osm_id":"8632282319","tag":{"amenity":"waste_basket"}},"type":"Feature"},
	{"geometry":{"coordinates":[-1.548916,47.29925],"type":"Point"},"properties":{"osm_id":"8632282324","tag":{"amenity":"waste_basket"}},"type":"Feature"},
	{"geometry":{"coordinates":[-1.517036,47.281648],"type":"Point"},"properties":{"osm_id":"8719755692","tag":{"amenity":"waste_basket","operator":"JCDecaux"}},"type":"Feature"},
	{"geometry":{"coordinates":[-1.518196,47.282214],"type":"Point"},"properties":{"osm_id":"8719755706","tag":{"amenity":"waste_basket","operator":"JCDecaux"}},"type":"Feature"},
	{"geometry":{"coordinates":[-1.55532,47.297042],"type":"Point"},"properties":{"osm_id":"8826146115","tag":{"amenity":"waste_basket","colour":"lightgrey","operator":"JCDecaux"}},"type":"Feature"},
	{"geometry":{"coordinates":[-1.551892,47.300787],"type":"Point"},"properties":{"osm_id":"8826180966","tag":{"amenity":"recycling","recycling_type":"container"}},"type":"Feature"},
	{"geometry":{"coordinates":[-1.549822,47.301185],"type":"Point"},"properties":{"osm_id":"8826180971","tag":{"amenity":"waste_basket","colour":"lightgrey","operator":"JCDecaux"}},"type":"Feature"},
	{"geometry":{"coordinates":[-1.556125,47.28972],"type":"Point"},"properties":{"osm_id":"8826187069","tag":{"amenity":"waste_basket","colour":"lighgrey","operator":"JCDecaux"}},"type":"Feature"},
	{"geometry":{"coordinates":[-1.555803,47.289841],"type":"Point"},"properties":{"osm_id":"8826187078","tag":{"amenity":"waste_basket","colour":"lighgrey","operator":"JCDecaux"}},"type":"Feature"},
	{"geometry":{"coordinates":[-1.524547,47.303782],"type":"Point"},"properties":{"name":"Poubelle","osm_id":"9162788196","tag":{"amenity":"waste_basket"}},"type":"Feature"}
]
}
