{
"type": "FeatureCollection",
"features": [
	{"geometry":{"coordinates":[-1.558669,47.159539],"type":"Point"},"properties":{"barrier":"gate","osm_id":"2844842953"},"type":"Feature"},
	{"geometry":{"coordinates":[-1.514582,47.144653],"type":"Point"},"properties":{"osm_id":"3398565013","tag":{"amenity":"waste_basket"}},"type":"Feature"},
	{"geometry":{"coordinates":[-1.529507,47.146967],"type":"Point"},"properties":{"osm_id":"3407496177","tag":{"amenity":"waste_basket"}},"type":"Feature"},
	{"geometry":{"coordinates":[-1.529461,47.147047],"type":"Point"},"properties":{"osm_id":"3407496178","tag":{"amenity":"waste_basket"}},"type":"Feature"},
	{"geometry":{"coordinates":[-1.529834,47.147427],"type":"Point"},"properties":{"osm_id":"3407496179","tag":{"amenity":"waste_basket"}},"type":"Feature"},
	{"geometry":{"coordinates":[-1.529977,47.14754],"type":"Point"},"properties":{"osm_id":"3407496180","tag":{"amenity":"waste_basket"}},"type":"Feature"},
	{"geometry":{"coordinates":[-1.52957,47.147643],"type":"Point"},"properties":{"osm_id":"3407496181","tag":{"amenity":"waste_basket"}},"type":"Feature"},
	{"geometry":{"coordinates":[-1.530356,47.147832],"type":"Point"},"properties":{"osm_id":"3407496182","tag":{"amenity":"waste_basket"}},"type":"Feature"},
	{"geometry":{"coordinates":[-1.530507,47.147948],"type":"Point"},"properties":{"osm_id":"3407496183","tag":{"amenity":"waste_basket"}},"type":"Feature"},
	{"geometry":{"coordinates":[-1.530053,47.148011],"type":"Point"},"properties":{"osm_id":"3407496184","tag":{"amenity":"waste_basket"}},"type":"Feature"},
	{"geometry":{"coordinates":[-1.533478,47.15002],"type":"Point"},"properties":{"osm_id":"3407496185","tag":{"amenity":"waste_basket"}},"type":"Feature"},
	{"geometry":{"coordinates":[-1.53382,47.150507],"type":"Point"},"properties":{"osm_id":"3407496186","tag":{"amenity":"waste_basket"}},"type":"Feature"},
	{"geometry":{"coordinates":[-1.537005,47.118759],"type":"Point"},"properties":{"osm_id":"4352934481","tag":{"amenity":"waste_basket"}},"type":"Feature"},
	{"geometry":{"coordinates":[-1.540306,47.113637],"type":"Point"},"properties":{"osm_id":"4352934754","tag":{"amenity":"recycling","recycling_type":"container"}},"type":"Feature"},
	{"geometry":{"coordinates":[-1.540319,47.113667],"type":"Point"},"properties":{"osm_id":"4352934755","tag":{"amenity":"recycling","recycling_type":"container"}},"type":"Feature"},
	{"geometry":{"coordinates":[-1.516119,47.130536],"type":"Point"},"properties":{"osm_id":"4352935737","tag":{"amenity":"recycling","recycling:glass":"no","recycling:glass_bottles":"yes","recycling_type":"container","ref:FR:NM":"VE0262"}},"type":"Feature"},
	{"geometry":{"coordinates":[-1.532954,47.158106],"type":"Point"},"properties":{"barrier":"gate","osm_id":"5237621356"},"type":"Feature"},
	{"geometry":{"coordinates":[-1.51695,47.117312],"type":"Point"},"properties":{"osm_id":"5263590651","tag":{"amenity":"recycling","recycling:glass_bottles":"yes","recycling:paper":"yes","recycling_type":"container"}},"type":"Feature"},
	{"geometry":{"coordinates":[-1.575439,47.121859],"type":"Point"},"properties":{"osm_id":"5786641084","tag":{"amenity":"recycling","recycling:glass_bottles":"yes","recycling:paper":"yes","recycling_type":"container"}},"type":"Feature"},
	{"geometry":{"coordinates":[-1.559407,47.147583],"type":"Point"},"properties":{"osm_id":"6950620790","tag":{"amenity":"recycling","recycling:glass_bottles":"yes","recycling:paper":"yes","recycling_type":"container"}},"type":"Feature"},
	{"geometry":{"coordinates":[-1.524472,47.147152],"type":"Point"},"properties":{"osm_id":"7185013458","tag":{"amenity":"waste_basket"}},"type":"Feature"},
	{"geometry":{"coordinates":[-1.526017,47.152243],"type":"Point"},"properties":{"osm_id":"7200842456","tag":{"amenity":"recycling","recycling_type":"container"}},"type":"Feature"},
	{"geometry":{"coordinates":[-1.511497,47.150085],"type":"Point"},"properties":{"osm_id":"7200842463","tag":{"amenity":"recycling","recycling_type":"container"}},"type":"Feature"},
	{"geometry":{"coordinates":[-1.506992,47.144726],"type":"Point"},"properties":{"osm_id":"7200842471","tag":{"amenity":"recycling","recycling_type":"container"}},"type":"Feature"},
	{"geometry":{"coordinates":[-1.528817,47.14545],"type":"Point"},"properties":{"osm_id":"7200842474","tag":{"amenity":"recycling","recycling_type":"container"}},"type":"Feature"},
	{"geometry":{"coordinates":[-1.51999,47.135099],"type":"Point"},"properties":{"osm_id":"7415806346","tag":{"amenity":"waste_basket"}},"type":"Feature"}
]
}
