{
"type": "FeatureCollection",
"features": [
	{"geometry":{"coordinates":[-1.506893,46.933084],"type":"Point"},"properties":{"osm_id":"661641847","tag":{"amenity":"recycling"}},"type":"Feature"},
	{"geometry":{"coordinates":[-1.54544,46.976333],"type":"Point"},"properties":{"osm_id":"5275346021","tag":{"amenity":"recycling","recycling:glass_bottles":"yes","recycling_type":"container"}},"type":"Feature"},
	{"geometry":{"coordinates":[-1.510052,46.940526],"type":"Point"},"properties":{"osm_id":"5931457354","tag":{"amenity":"waste_basket"}},"type":"Feature"},
	{"geometry":{"coordinates":[-1.509186,46.940148],"type":"Point"},"properties":{"osm_id":"5931457356","tag":{"amenity":"waste_basket"}},"type":"Feature"},
	{"geometry":{"coordinates":[-1.50912,46.93898],"type":"Point"},"properties":{"osm_id":"5974851826","tag":{"amenity":"recycling"}},"type":"Feature"},
	{"geometry":{"coordinates":[-1.499574,46.942837],"type":"Point"},"properties":{"osm_id":"6238310787","tag":{"amenity":"recycling","recycling:glass":"yes","recycling:paper":"yes","recycling_type":"container"}},"type":"Feature"},
	{"geometry":{"coordinates":[-1.513701,46.935878],"type":"Point"},"properties":{"osm_id":"6238311843","tag":{"amenity":"waste_basket"}},"type":"Feature"},
	{"geometry":{"coordinates":[-1.514949,46.933032],"type":"Point"},"properties":{"osm_id":"6239224881","tag":{"amenity":"waste_basket","waste":"trash"}},"type":"Feature"},
	{"geometry":{"coordinates":[-1.575765,46.968305],"type":"Point"},"properties":{"name":"La Mine au Tri","osm_id":"6680914785","tag":{"amenity":"recycling","charity":"yes","contact:city":"Corcou\u00c3\u00a9-sur-Logne","contact:housenumber":"13","contact:postcode":"44650","contact:street":"rue du 8 mai","contact:website":"http://recyclerielegrenier.org/","image":"http://recyclerielegrenier.org/wp-content/uploads/2017/10/DSCN0283-e1508246391503-2000x1200.jpg","opening_hours":"Mo 14:00-18:00;We 10:00-12:30,14:00-18:00; Fr 14:00-18:45; Sa 10:00-18:45","operator":"Association Le Grenier","recycling:bicycles":"yes","recycling:books":"yes","recycling:clothes":"yes","recycling:computers":"yes","recycling:dishes":"yes","recycling:furniture":"yes","recycling:interior_decoration":"yes","recycling:shoes":"yes","recycling:small_electrical_appliances":"yes","recycling:toys":"yes","recycling_type":"centre","second_hand":"only","shop":"general"}},"type":"Feature"},
	{"geometry":{"coordinates":[-1.509378,46.937938],"type":"Point"},"properties":{"osm_id":"7560144475","tag":{"amenity":"waste_basket","waste":"trash"}},"type":"Feature"}
]
}
