{
"type": "FeatureCollection",
"features": [
	{"geometry":{"coordinates":[-1.523502,43.519659],"type":"Point"},"properties":{"osm_id":"4799195825","tag":{"amenity":"recycling","recycling:beverage_cartons":"yes","recycling:cans":"yes","recycling:cardboard":"yes","recycling:glass_bottles":"yes","recycling:magazines":"yes","recycling:paper":"yes","recycling:paper_packaging":"no","recycling:plastic_bottles":"yes","recycling_type":"container"}},"type":"Feature"},
	{"geometry":{"coordinates":[-1.498458,43.558041],"type":"Point"},"properties":{"osm_id":"4964062122","tag":{"amenity":"waste_basket"}},"type":"Feature"},
	{"geometry":{"coordinates":[-1.498496,43.558533],"type":"Point"},"properties":{"osm_id":"4964062123","tag":{"amenity":"waste_basket"}},"type":"Feature"},
	{"geometry":{"coordinates":[-1.498454,43.558052],"type":"Point"},"properties":{"osm_id":"4964071322","tag":{"amenity":"waste_basket"}},"type":"Feature"},
	{"geometry":{"coordinates":[-1.497334,43.555218],"type":"Point"},"properties":{"osm_id":"4966231921","tag":{"amenity":"waste_basket"}},"type":"Feature"},
	{"geometry":{"coordinates":[-1.494169,43.532956],"type":"Point"},"properties":{"osm_id":"4996776643","tag":{"amenity":"recycling","contact:website":"http://www.sitcom40.fr","operator":"SITCOM - C\u00c3\u00b4te sud des Landes","operator:wikidata":"Q90819597","recycling:batteries":"yes","recycling:beverage_cartons":"yes","recycling:cans":"yes","recycling:glass_bottles":"yes","recycling:paper":"yes","recycling:paper_packaging":"yes","recycling:plastic_bottles":"yes","recycling_type":"container","ref:FR:SITCOM":"PAV-374433"}},"type":"Feature"},
	{"geometry":{"coordinates":[-1.494686,43.557333],"type":"Point"},"properties":{"osm_id":"4996776649","tag":{"access":"customers","amenity":"recycling","contact:website":"http://www.sitcom40.fr","operator":"SITCOM - C\u00c3\u00b4te sud des Landes","operator:wikidata":"Q90819597","recycling:batteries":"yes","recycling:beverage_cartons":"yes","recycling:cans":"yes","recycling:glass_bottles":"yes","recycling:paper":"yes","recycling:paper_packaging":"yes","recycling:plastic_bottles":"yes","recycling_type":"container","ref:FR:SITCOM":"PAV-374650"}},"type":"Feature"},
	{"geometry":{"coordinates":[-1.501827,43.516808],"type":"Point"},"properties":{"osm_id":"5846168472","tag":{"amenity":"recycling","recycling:beverage_cartons":"yes","recycling:cans":"yes","recycling:cardboard":"yes","recycling:glass_bottles":"yes","recycling:magazines":"yes","recycling:paper":"yes","recycling:paper_packaging":"no","recycling:plastic_bottles":"yes","recycling_type":"container"}},"type":"Feature"},
	{"geometry":{"coordinates":[-1.521025,43.53024],"type":"Point"},"properties":{"osm_id":"6488261722","tag":{"amenity":"waste_basket"}},"type":"Feature"},
	{"geometry":{"coordinates":[-1.521017,43.530009],"type":"Point"},"properties":{"osm_id":"6488261723","tag":{"amenity":"waste_basket"}},"type":"Feature"},
	{"geometry":{"coordinates":[-1.521118,43.529845],"type":"Point"},"properties":{"osm_id":"6488261724","tag":{"amenity":"waste_basket"}},"type":"Feature"},
	{"geometry":{"coordinates":[-1.520997,43.530219],"type":"Point"},"properties":{"osm_id":"6488265504","tag":{"amenity":"waste_basket"}},"type":"Feature"},
	{"geometry":{"coordinates":[-1.520801,43.530158],"type":"Point"},"properties":{"osm_id":"6488265505","tag":{"amenity":"waste_basket"}},"type":"Feature"},
	{"geometry":{"coordinates":[-1.520623,43.530105],"type":"Point"},"properties":{"osm_id":"6488265506","tag":{"amenity":"waste_basket"}},"type":"Feature"},
	{"geometry":{"coordinates":[-1.520388,43.530032],"type":"Point"},"properties":{"osm_id":"6488265507","tag":{"amenity":"waste_basket"}},"type":"Feature"},
	{"geometry":{"coordinates":[-1.520143,43.529972],"type":"Point"},"properties":{"osm_id":"6488265508","tag":{"amenity":"waste_basket"}},"type":"Feature"},
	{"geometry":{"coordinates":[-1.519811,43.529937],"type":"Point"},"properties":{"osm_id":"6488265509","tag":{"amenity":"waste_basket"}},"type":"Feature"},
	{"geometry":{"coordinates":[-1.515551,43.525833],"type":"Point"},"properties":{"osm_id":"6788176687","tag":{"amenity":"waste_basket"}},"type":"Feature"},
	{"geometry":{"coordinates":[-1.499703,43.53725],"type":"Point"},"properties":{"osm_id":"7438623203","tag":{"amenity":"recycling","operator":"SITCOM - C\u00c3\u00b4te sud des Landes","operator:wikidata":"Q90819597","recycling:cans":"yes","recycling:glass_bottles":"yes","recycling:paper":"yes","recycling:paper_packaging":"yes","recycling:plastic_bottles":"yes","recycling_type":"container","ref:FR:SITCOM":"PAV-471841"}},"type":"Feature"},
	{"geometry":{"coordinates":[-1.515316,43.525957],"type":"Point"},"properties":{"osm_id":"7591822284","tag":{"amenity":"recycling","recycling:glass_bottles":"yes","recycling_type":"container"}},"type":"Feature"},
	{"geometry":{"coordinates":[-1.515295,43.52596],"type":"Point"},"properties":{"osm_id":"7591830785","tag":{"amenity":"recycling","recycling:beverage_cartons":"yes","recycling:cardboard":"yes","recycling:magazines":"yes","recycling:paper":"yes","recycling:paper_packaging":"no","recycling:plastic_bottles":"yes","recycling_type":"container"}},"type":"Feature"},
	{"geometry":{"coordinates":[-1.51527,43.525962],"type":"Point"},"properties":{"osm_id":"7591830786","tag":{"amenity":"recycling","recycling":"waste","recycling_type":"container"}},"type":"Feature"},
	{"geometry":{"coordinates":[-1.515017,43.526003],"type":"Point"},"properties":{"osm_id":"7591830788","tag":{"amenity":"waste_basket"}},"type":"Feature"},
	{"geometry":{"coordinates":[-1.494685,43.557315],"type":"Point"},"properties":{"osm_id":"7592150297","tag":{"access":"customers","amenity":"waste_disposal","contact:website":"http://www.sitcom40.fr","operator":"SITCOM - C\u00c3\u00b4te sud des Landes","operator:wikidata":"Q90819597","ref:FR:SITCOM":"PAV-374650"}},"type":"Feature"},
	{"geometry":{"coordinates":[-1.494865,43.528855],"type":"Point"},"properties":{"osm_id":"8530243628","tag":{"amenity":"waste_basket"}},"type":"Feature"},
	{"geometry":{"coordinates":[-1.495163,43.528898],"type":"Point"},"properties":{"osm_id":"8530243629","tag":{"amenity":"waste_basket"}},"type":"Feature"},
	{"geometry":{"coordinates":[-1.518119,43.527009],"type":"Point"},"properties":{"osm_id":"8702115717","tag":{"amenity":"waste_basket","operator":"Commune d'Anglet","waste":"trash"}},"type":"Feature"},
	{"geometry":{"coordinates":[-1.520694,43.526997],"type":"Point"},"properties":{"osm_id":"8702115718","tag":{"amenity":"recycling","operator":"Commune d'Anglet","recycling:glass_bottles":"yes","recycling:paper":"yes","recycling:plastic":"yes","recycling_type":"container"}},"type":"Feature"},
	{"geometry":{"coordinates":[-1.518913,43.527123],"type":"Point"},"properties":{"osm_id":"8702115722","tag":{"amenity":"waste_basket","operator":"Commune d'Anglet","waste":"trash"}},"type":"Feature"},
	{"geometry":{"coordinates":[-1.519887,43.527265],"type":"Point"},"properties":{"osm_id":"8702115729","tag":{"amenity":"waste_basket","operator":"Commune d'Anglet","waste":"trash"}},"type":"Feature"},
	{"geometry":{"coordinates":[-1.522016,43.527607],"type":"Point"},"properties":{"osm_id":"8702115735","tag":{"amenity":"waste_basket","operator":"Commune d'Anglet","waste":"trash"}},"type":"Feature"},
	{"geometry":{"coordinates":[-1.522633,43.52731],"type":"Point"},"properties":{"osm_id":"8702115736","tag":{"amenity":"waste_basket","operator":"Commune d'Anglet","waste":"trash"}},"type":"Feature"},
	{"geometry":{"coordinates":[-1.521147,43.52746],"type":"Point"},"properties":{"osm_id":"8702115738","tag":{"amenity":"waste_basket","operator":"Commune d'Anglet","waste":"trash"}},"type":"Feature"},
	{"geometry":{"coordinates":[-1.523189,43.527073],"type":"Point"},"properties":{"osm_id":"8702115745","tag":{"amenity":"waste_basket","operator":"Commune d'Anglet","waste":"trash"}},"type":"Feature"},
	{"geometry":{"coordinates":[-1.522867,43.527117],"type":"Point"},"properties":{"osm_id":"8702115746","tag":{"amenity":"waste_basket","operator":"Commune d'Anglet","waste":"trash"}},"type":"Feature"},
	{"geometry":{"coordinates":[-1.523239,43.526914],"type":"Point"},"properties":{"osm_id":"8702115747","tag":{"amenity":"waste_basket","operator":"Commune d'Anglet","waste":"trash"}},"type":"Feature"},
	{"geometry":{"coordinates":[-1.523246,43.526891],"type":"Point"},"properties":{"osm_id":"8702115748","tag":{"amenity":"waste_basket","operator":"Commune d'Anglet","waste":"trash"}},"type":"Feature"},
	{"geometry":{"coordinates":[-1.523246,43.526689],"type":"Point"},"properties":{"osm_id":"8702115749","tag":{"amenity":"waste_basket","operator":"Commune d'Anglet","waste":"trash"}},"type":"Feature"},
	{"geometry":{"coordinates":[-1.522987,43.526819],"type":"Point"},"properties":{"osm_id":"8702115750","tag":{"amenity":"waste_basket","operator":"Commune d'Anglet","waste":"trash"}},"type":"Feature"},
	{"geometry":{"coordinates":[-1.522793,43.526794],"type":"Point"},"properties":{"osm_id":"8702115751","tag":{"amenity":"waste_basket","operator":"Commune d'Anglet","waste":"trash"}},"type":"Feature"},
	{"geometry":{"coordinates":[-1.522049,43.526139],"type":"Point"},"properties":{"osm_id":"8702115752","tag":{"amenity":"waste_basket","operator":"Commune d'Anglet","waste":"trash"}},"type":"Feature"},
	{"geometry":{"coordinates":[-1.521858,43.526316],"type":"Point"},"properties":{"osm_id":"8702115753","tag":{"amenity":"waste_basket","operator":"Commune d'Anglet","waste":"trash"}},"type":"Feature"},
	{"geometry":{"coordinates":[-1.521313,43.526614],"type":"Point"},"properties":{"osm_id":"8702115754","tag":{"amenity":"waste_basket","operator":"Commune d'Anglet","waste":"trash"}},"type":"Feature"},
	{"geometry":{"coordinates":[-1.522311,43.525949],"type":"Point"},"properties":{"osm_id":"8702115755","tag":{"amenity":"waste_basket","operator":"Commune d'Anglet","waste":"trash"}},"type":"Feature"},
	{"geometry":{"coordinates":[-1.522531,43.526039],"type":"Point"},"properties":{"osm_id":"8702115756","tag":{"amenity":"waste_basket","operator":"Commune d'Anglet","waste":"trash"}},"type":"Feature"},
	{"geometry":{"coordinates":[-1.522651,43.525831],"type":"Point"},"properties":{"osm_id":"8702115758","tag":{"amenity":"waste_basket","operator":"Commune d'Anglet","waste":"trash"}},"type":"Feature"},
	{"geometry":{"coordinates":[-1.52252,43.525588],"type":"Point"},"properties":{"osm_id":"8702115759","tag":{"amenity":"waste_basket","operator":"Commune d'Anglet","waste":"trash"}},"type":"Feature"},
	{"geometry":{"coordinates":[-1.522793,43.525563],"type":"Point"},"properties":{"osm_id":"8702115760","tag":{"amenity":"waste_basket","operator":"Commune d'Anglet","waste":"trash"}},"type":"Feature"},
	{"geometry":{"coordinates":[-1.523246,43.525627],"type":"Point"},"properties":{"osm_id":"8702115761","tag":{"amenity":"waste_basket","operator":"Commune d'Anglet","waste":"trash"}},"type":"Feature"},
	{"geometry":{"coordinates":[-1.523203,43.525822],"type":"Point"},"properties":{"osm_id":"8702115762","tag":{"amenity":"waste_basket","operator":"Commune d'Anglet","waste":"trash"}},"type":"Feature"},
	{"geometry":{"coordinates":[-1.52309,43.52601],"type":"Point"},"properties":{"osm_id":"8702115763","tag":{"amenity":"waste_basket","operator":"Commune d'Anglet","waste":"trash"}},"type":"Feature"},
	{"geometry":{"coordinates":[-1.522927,43.5262],"type":"Point"},"properties":{"osm_id":"8702115764","tag":{"amenity":"waste_basket","operator":"Commune d'Anglet","waste":"trash"}},"type":"Feature"},
	{"geometry":{"coordinates":[-1.523375,43.526341],"type":"Point"},"properties":{"osm_id":"8702115768","tag":{"amenity":"waste_basket","operator":"Commune d'Anglet","waste":"trash"}},"type":"Feature"},
	{"geometry":{"coordinates":[-1.523399,43.52628],"type":"Point"},"properties":{"osm_id":"8702115769","tag":{"amenity":"waste_basket","operator":"Commune d'Anglet","waste":"trash"}},"type":"Feature"},
	{"geometry":{"coordinates":[-1.523467,43.526412],"type":"Point"},"properties":{"osm_id":"8702115770","tag":{"amenity":"waste_basket","operator":"Commune d'Anglet","waste":"trash"}},"type":"Feature"},
	{"geometry":{"coordinates":[-1.523489,43.526388],"type":"Point"},"properties":{"osm_id":"8702115771","tag":{"amenity":"waste_basket","operator":"Commune d'Anglet","waste":"trash"}},"type":"Feature"},
	{"geometry":{"coordinates":[-1.52355,43.525999],"type":"Point"},"properties":{"osm_id":"8702115776","tag":{"amenity":"waste_basket","operator":"Commune d'Anglet","waste":"trash"}},"type":"Feature"},
	{"geometry":{"coordinates":[-1.523603,43.525887],"type":"Point"},"properties":{"osm_id":"8702115777","tag":{"amenity":"waste_basket","operator":"Commune d'Anglet","waste":"trash"}},"type":"Feature"},
	{"geometry":{"coordinates":[-1.524868,43.524183],"type":"Point"},"properties":{"osm_id":"8702115781","tag":{"amenity":"waste_basket","operator":"Commune d'Anglet","waste":"trash"}},"type":"Feature"},
	{"geometry":{"coordinates":[-1.524914,43.524193],"type":"Point"},"properties":{"osm_id":"8702115782","tag":{"access":"yes","amenity":"waste_disposal","operator":"Commune d'Anglet"}},"type":"Feature"},
	{"geometry":{"coordinates":[-1.512118,43.526556],"type":"Point"},"properties":{"osm_id":"8724954090","tag":{"amenity":"waste_basket","waste":"trash"}},"type":"Feature"},
	{"geometry":{"coordinates":[-1.509685,43.525776],"type":"Point"},"properties":{"osm_id":"8724983626","tag":{"amenity":"waste_basket","waste":"trash"}},"type":"Feature"},
	{"geometry":{"coordinates":[-1.509172,43.525557],"type":"Point"},"properties":{"osm_id":"8724983627","tag":{"amenity":"waste_basket","waste":"trash"}},"type":"Feature"},
	{"geometry":{"coordinates":[-1.508713,43.525383],"type":"Point"},"properties":{"osm_id":"8724983628","tag":{"amenity":"waste_basket","waste":"trash"}},"type":"Feature"},
	{"geometry":{"coordinates":[-1.508114,43.525166],"type":"Point"},"properties":{"osm_id":"8724983629","tag":{"amenity":"waste_basket","waste":"trash"}},"type":"Feature"},
	{"geometry":{"coordinates":[-1.507797,43.525061],"type":"Point"},"properties":{"osm_id":"8724983630","tag":{"amenity":"waste_basket","waste":"trash"}},"type":"Feature"},
	{"geometry":{"coordinates":[-1.506996,43.524835],"type":"Point"},"properties":{"osm_id":"8724983631","tag":{"amenity":"waste_basket","waste":"trash"}},"type":"Feature"},
	{"geometry":{"coordinates":[-1.506466,43.524811],"type":"Point"},"properties":{"osm_id":"8724983632","tag":{"amenity":"waste_basket","waste":"trash"}},"type":"Feature"},
	{"geometry":{"coordinates":[-1.506028,43.524793],"type":"Point"},"properties":{"osm_id":"8724983633","tag":{"amenity":"waste_basket","waste":"trash"}},"type":"Feature"},
	{"geometry":{"coordinates":[-1.505504,43.524771],"type":"Point"},"properties":{"osm_id":"8724983634","tag":{"amenity":"waste_basket","waste":"trash"}},"type":"Feature"},
	{"geometry":{"coordinates":[-1.505128,43.52475],"type":"Point"},"properties":{"osm_id":"8724983635","tag":{"amenity":"waste_basket","waste":"trash"}},"type":"Feature"},
	{"geometry":{"coordinates":[-1.504786,43.524735],"type":"Point"},"properties":{"osm_id":"8724983636","tag":{"amenity":"waste_basket","waste":"trash"}},"type":"Feature"},
	{"geometry":{"coordinates":[-1.50435,43.524633],"type":"Point"},"properties":{"osm_id":"8724983637","tag":{"amenity":"waste_basket","waste":"trash"}},"type":"Feature"},
	{"geometry":{"coordinates":[-1.504112,43.524618],"type":"Point"},"properties":{"osm_id":"8724983638","tag":{"amenity":"waste_basket","waste":"trash"}},"type":"Feature"},
	{"geometry":{"coordinates":[-1.504136,43.523769],"type":"Point"},"properties":{"osm_id":"8724983639","tag":{"amenity":"waste_basket","waste":"trash"}},"type":"Feature"},
	{"geometry":{"coordinates":[-1.503004,43.521226],"type":"Point"},"properties":{"osm_id":"8725024393","tag":{"amenity":"waste_basket","waste":"trash"}},"type":"Feature"},
	{"geometry":{"coordinates":[-1.502985,43.520953],"type":"Point"},"properties":{"osm_id":"8725024394","tag":{"amenity":"waste_basket","waste":"trash"}},"type":"Feature"},
	{"geometry":{"coordinates":[-1.508237,43.525037],"type":"Point"},"properties":{"osm_id":"8741841135","tag":{"amenity":"recycling","recycling:glass_bottles":"yes","recycling:paper":"yes","recycling:plastic":"yes","recycling_type":"container"}},"type":"Feature"},
	{"geometry":{"coordinates":[-1.529154,43.516699],"type":"Point"},"properties":{"osm_id":"8745220180","tag":{"amenity":"waste_basket","operator":"Commune d'Anglet","waste":"trash"}},"type":"Feature"},
	{"geometry":{"coordinates":[-1.528956,43.516689],"type":"Point"},"properties":{"osm_id":"8745220181","tag":{"amenity":"waste_basket","operator":"Commune d'Anglet","waste":"trash"}},"type":"Feature"},
	{"geometry":{"coordinates":[-1.528418,43.517712],"type":"Point"},"properties":{"osm_id":"8745220185","tag":{"amenity":"waste_basket","operator":"Commune d'Anglet","waste":"trash"}},"type":"Feature"},
	{"geometry":{"coordinates":[-1.526929,43.519265],"type":"Point"},"properties":{"osm_id":"8745220186","tag":{"amenity":"waste_basket","operator":"Commune d'Anglet","waste":"trash"}},"type":"Feature"},
	{"geometry":{"coordinates":[-1.526716,43.519626],"type":"Point"},"properties":{"osm_id":"8745220188","tag":{"amenity":"waste_basket","operator":"Commune d'Anglet","waste":"trash"}},"type":"Feature"},
	{"geometry":{"coordinates":[-1.526443,43.519623],"type":"Point"},"properties":{"osm_id":"8745220189","tag":{"amenity":"waste_basket","operator":"Commune d'Anglet","waste":"trash"}},"type":"Feature"},
	{"geometry":{"coordinates":[-1.526059,43.519969],"type":"Point"},"properties":{"osm_id":"8745220197","tag":{"amenity":"waste_basket","operator":"Commune d'Anglet","waste":"trash"}},"type":"Feature"},
	{"geometry":{"coordinates":[-1.526011,43.520301],"type":"Point"},"properties":{"osm_id":"8745220202","tag":{"amenity":"waste_basket","operator":"Commune d'Anglet","waste":"trash"}},"type":"Feature"},
	{"geometry":{"coordinates":[-1.525654,43.520273],"type":"Point"},"properties":{"osm_id":"8745220203","tag":{"amenity":"waste_basket","operator":"Commune d'Anglet","waste":"trash"}},"type":"Feature"},
	{"geometry":{"coordinates":[-1.526218,43.520363],"type":"Point"},"properties":{"osm_id":"8745220205","tag":{"amenity":"waste_basket","operator":"Commune d'Anglet","waste":"trash"}},"type":"Feature"},
	{"geometry":{"coordinates":[-1.525164,43.520472],"type":"Point"},"properties":{"osm_id":"8745220208","tag":{"amenity":"waste_basket","operator":"Commune d'Anglet","waste":"trash"}},"type":"Feature"},
	{"geometry":{"coordinates":[-1.526241,43.5205],"type":"Point"},"properties":{"osm_id":"8745220210","tag":{"amenity":"waste_basket","operator":"Commune d'Anglet","waste":"trash"}},"type":"Feature"},
	{"geometry":{"coordinates":[-1.526143,43.520764],"type":"Point"},"properties":{"osm_id":"8745220211","tag":{"amenity":"waste_basket","operator":"Commune d'Anglet","waste":"trash"}},"type":"Feature"},
	{"geometry":{"coordinates":[-1.52594,43.52083],"type":"Point"},"properties":{"osm_id":"8745220212","tag":{"amenity":"waste_basket","operator":"Commune d'Anglet","waste":"trash"}},"type":"Feature"},
	{"geometry":{"coordinates":[-1.526133,43.520989],"type":"Point"},"properties":{"osm_id":"8745220213","tag":{"amenity":"waste_basket","operator":"Commune d'Anglet","waste":"trash"}},"type":"Feature"},
	{"geometry":{"coordinates":[-1.525382,43.520945],"type":"Point"},"properties":{"osm_id":"8745220214","tag":{"amenity":"waste_basket","operator":"Commune d'Anglet","waste":"trash"}},"type":"Feature"},
	{"geometry":{"coordinates":[-1.525041,43.521071],"type":"Point"},"properties":{"osm_id":"8745220215","tag":{"amenity":"waste_basket","operator":"Commune d'Anglet","waste":"trash"}},"type":"Feature"},
	{"geometry":{"coordinates":[-1.525864,43.52153],"type":"Point"},"properties":{"osm_id":"8745220216","tag":{"amenity":"waste_basket","operator":"Commune d'Anglet","waste":"trash"}},"type":"Feature"},
	{"geometry":{"coordinates":[-1.52389,43.522459],"type":"Point"},"properties":{"osm_id":"8745223632","tag":{"amenity":"waste_basket","operator":"Commune d'Anglet","waste":"trash"}},"type":"Feature"},
	{"geometry":{"coordinates":[-1.525224,43.522517],"type":"Point"},"properties":{"osm_id":"8745223636","tag":{"amenity":"waste_basket","operator":"Commune d'Anglet","waste":"trash"}},"type":"Feature"},
	{"geometry":{"coordinates":[-1.524828,43.523605],"type":"Point"},"properties":{"osm_id":"8745223640","tag":{"amenity":"waste_basket","operator":"Commune d'Anglet","waste":"trash"}},"type":"Feature"},
	{"geometry":{"coordinates":[-1.501949,43.520155],"type":"Point"},"properties":{"osm_id":"8772547101","tag":{"amenity":"waste_basket","waste":"trash"}},"type":"Feature"},
	{"geometry":{"coordinates":[-1.501885,43.520074],"type":"Point"},"properties":{"osm_id":"8772547103","tag":{"amenity":"recycling","recycling_type":"container"}},"type":"Feature"},
	{"geometry":{"coordinates":[-1.501794,43.519828],"type":"Point"},"properties":{"osm_id":"8772547104","tag":{"amenity":"waste_basket","waste":"trash"}},"type":"Feature"},
	{"geometry":{"coordinates":[-1.501704,43.519558],"type":"Point"},"properties":{"osm_id":"8772547105","tag":{"amenity":"waste_basket"}},"type":"Feature"},
	{"geometry":{"coordinates":[-1.501636,43.517157],"type":"Point"},"properties":{"osm_id":"8772632040","tag":{"amenity":"waste_basket","waste":"trash"}},"type":"Feature"},
	{"geometry":{"coordinates":[-1.501876,43.516774],"type":"Point"},"properties":{"osm_id":"8772632041","tag":{"amenity":"waste_basket","waste":"trash"}},"type":"Feature"},
	{"geometry":{"coordinates":[-1.502152,43.516764],"type":"Point"},"properties":{"osm_id":"8772632042","tag":{"amenity":"waste_basket","waste":"trash"}},"type":"Feature"},
	{"geometry":{"coordinates":[-1.502309,43.516762],"type":"Point"},"properties":{"osm_id":"8772632044","tag":{"amenity":"waste_basket","waste":"trash"}},"type":"Feature"},
	{"geometry":{"coordinates":[-1.501671,43.518297],"type":"Point"},"properties":{"osm_id":"8772632053","tag":{"amenity":"waste_basket","waste":"trash"}},"type":"Feature"},
	{"geometry":{"coordinates":[-1.498463,43.558029],"type":"Point"},"properties":{"osm_id":"8996157323","tag":{"amenity":"waste_basket"}},"type":"Feature"},
	{"geometry":{"coordinates":[-1.498467,43.558018],"type":"Point"},"properties":{"osm_id":"8996157324","tag":{"amenity":"waste_basket"}},"type":"Feature"},
	{"geometry":{"coordinates":[-1.498746,43.55768],"type":"Point"},"properties":{"osm_id":"8996157325","tag":{"amenity":"waste_basket"}},"type":"Feature"},
	{"geometry":{"coordinates":[-1.498841,43.557564],"type":"Point"},"properties":{"osm_id":"8996157326","tag":{"amenity":"waste_basket"}},"type":"Feature"},
	{"geometry":{"coordinates":[-1.499065,43.557294],"type":"Point"},"properties":{"osm_id":"8996157327","tag":{"amenity":"waste_basket"}},"type":"Feature"},
	{"geometry":{"coordinates":[-1.49917,43.557166],"type":"Point"},"properties":{"osm_id":"8996157328","tag":{"amenity":"waste_basket"}},"type":"Feature"},
	{"geometry":{"coordinates":[-1.499276,43.557047],"type":"Point"},"properties":{"osm_id":"8996157329","tag":{"amenity":"waste_basket"}},"type":"Feature"},
	{"geometry":{"coordinates":[-1.498927,43.557616],"type":"Point"},"properties":{"osm_id":"8996157330","tag":{"amenity":"waste_disposal"}},"type":"Feature"},
	{"geometry":{"coordinates":[-1.498452,43.558013],"type":"Point"},"properties":{"osm_id":"8996157331","tag":{"amenity":"waste_basket"}},"type":"Feature"},
	{"geometry":{"coordinates":[-1.498435,43.558007],"type":"Point"},"properties":{"osm_id":"8996157332","tag":{"amenity":"waste_basket"}},"type":"Feature"},
	{"geometry":{"coordinates":[-1.49842,43.558002],"type":"Point"},"properties":{"osm_id":"8996157333","tag":{"amenity":"waste_basket"}},"type":"Feature"},
	{"geometry":{"coordinates":[-1.498944,43.557593],"type":"Point"},"properties":{"osm_id":"8996157334","tag":{"amenity":"waste_basket"}},"type":"Feature"},
	{"geometry":{"coordinates":[-1.498954,43.557581],"type":"Point"},"properties":{"osm_id":"8996157335","tag":{"amenity":"waste_basket"}},"type":"Feature"},
	{"geometry":{"coordinates":[-1.498644,43.557797],"type":"Point"},"properties":{"osm_id":"8996157336","tag":{"amenity":"waste_basket"}},"type":"Feature"},
	{"geometry":{"coordinates":[-1.498542,43.557908],"type":"Point"},"properties":{"osm_id":"8996157337","tag":{"amenity":"waste_basket"}},"type":"Feature"},
	{"geometry":{"coordinates":[-1.498974,43.557581],"type":"Point"},"properties":{"osm_id":"8996157338","tag":{"amenity":"waste_basket"}},"type":"Feature"},
	{"geometry":{"coordinates":[-1.498988,43.557595],"type":"Point"},"properties":{"osm_id":"8996157339","tag":{"amenity":"waste_basket"}},"type":"Feature"},
	{"geometry":{"coordinates":[-1.499004,43.557609],"type":"Point"},"properties":{"osm_id":"8996157340","tag":{"amenity":"waste_basket"}},"type":"Feature"},
	{"geometry":{"coordinates":[-1.499021,43.557627],"type":"Point"},"properties":{"osm_id":"8996157341","tag":{"amenity":"waste_basket"}},"type":"Feature"}
]
}
