{
"type": "FeatureCollection",
"features": [
	{"geometry":{"coordinates":[6.10286,53.124311],"type":"Point"},"properties":{"osm_id":"6468524685","tag":{"amenity":"waste_basket","waste":"dog_excrement"}},"type":"Feature"},
	{"geometry":{"coordinates":[6.098728,53.126533],"type":"Point"},"properties":{"osm_id":"6468524885","tag":{"amenity":"waste_basket","waste":"dog_excrement"}},"type":"Feature"},
	{"geometry":{"coordinates":[6.09776,53.128291],"type":"Point"},"properties":{"osm_id":"7449186363","tag":{"amenity":"waste_basket","material":"steel","waste":"trash;plastic"}},"type":"Feature"},
	{"geometry":{"coordinates":[6.099917,53.123611],"type":"Point"},"properties":{"osm_id":"7449186364","tag":{"amenity":"waste_basket","waste":"dog_excrement"}},"type":"Feature"},
	{"geometry":{"coordinates":[6.107019,53.121674],"type":"Point"},"properties":{"osm_id":"7449194012","tag":{"amenity":"waste_basket","material":"steel","waste":"mixed"}},"type":"Feature"},
	{"geometry":{"coordinates":[6.094785,53.12656],"type":"Point"},"properties":{"osm_id":"7474302078","tag":{"amenity":"waste_basket","waste":"dog_excrement"}},"type":"Feature"},
	{"geometry":{"coordinates":[6.064968,53.126931],"type":"Point"},"properties":{"osm_id":"7598722544","tag":{"amenity":"waste_disposal"}},"type":"Feature"},
	{"geometry":{"coordinates":[6.137072,53.137018],"type":"Point"},"properties":{"osm_id":"7686935634","tag":{"amenity":"waste_basket","waste":"trash"}},"type":"Feature"}
]
}
