{
"type": "FeatureCollection",
"features": [
	{"geometry":{"coordinates":[6.097807,53.118371],"type":"Point"},"properties":{"osm_id":"3936147780","tag":{"amenity":"recycling","location":"underground","recycling:glass":"yes","recycling:plastic":"yes","recycling_type":"container"}},"type":"Feature"},
	{"geometry":{"coordinates":[6.095981,53.118286],"type":"Point"},"properties":{"osm_id":"4118555418","tag":{"amenity":"recycling","recycling:cans":"no","recycling:glass":"yes","recycling:glass_bottles":"yes","recycling_type":"container"}},"type":"Feature"},
	{"geometry":{"coordinates":[6.094949,53.107365],"type":"Point"},"properties":{"osm_id":"4118555475","tag":{"amenity":"recycling","recycling:glass":"yes","recycling:glass_bottles":"yes","recycling_type":"container"}},"type":"Feature"},
	{"geometry":{"coordinates":[6.112691,53.110217],"type":"Point"},"properties":{"osm_id":"4118556736","tag":{"amenity":"recycling","recycling_type":"container"}},"type":"Feature"},
	{"geometry":{"coordinates":[6.085523,53.118156],"type":"Point"},"properties":{"osm_id":"4165831699","tag":{"amenity":"recycling","recycling_type":"container"}},"type":"Feature"},
	{"geometry":{"coordinates":[6.126414,53.106544],"type":"Point"},"properties":{"osm_id":"5167332422","tag":{"amenity":"waste_basket"}},"type":"Feature"},
	{"geometry":{"coordinates":[6.097327,53.108922],"type":"Point"},"properties":{"osm_id":"5167368626","tag":{"amenity":"waste_basket"}},"type":"Feature"},
	{"geometry":{"coordinates":[6.097002,53.113127],"type":"Point"},"properties":{"osm_id":"5167396121","tag":{"amenity":"waste_basket"}},"type":"Feature"},
	{"geometry":{"coordinates":[6.097116,53.113791],"type":"Point"},"properties":{"osm_id":"5171053220","tag":{"amenity":"recycling","recycling:clothes":"yes","recycling:shoes":"yes","recycling_type":"container"}},"type":"Feature"},
	{"geometry":{"coordinates":[6.141622,53.114331],"type":"Point"},"properties":{"osm_id":"5325401889","tag":{"amenity":"recycling","recycling:clothes":"yes","recycling:textiles":"yes","recycling_type":"container"}},"type":"Feature"},
	{"geometry":{"coordinates":[6.101382,53.10402],"type":"Point"},"properties":{"osm_id":"5431602322","tag":{"amenity":"waste_basket"}},"type":"Feature"},
	{"geometry":{"coordinates":[6.068474,53.102668],"type":"Point"},"properties":{"osm_id":"5730579322","tag":{"amenity":"recycling","recycling:gas_bottles":"yes","recycling_type":"container"}},"type":"Feature"},
	{"geometry":{"coordinates":[6.079566,53.109871],"type":"Point"},"properties":{"osm_id":"5730581508","tag":{"amenity":"recycling","recycling:clothes":"yes","recycling_type":"container"}},"type":"Feature"},
	{"geometry":{"coordinates":[6.073351,53.09961],"type":"Point"},"properties":{"osm_id":"5963682985","tag":{"amenity":"recycling","recycling_type":"container"}},"type":"Feature"},
	{"geometry":{"coordinates":[6.096206,53.117734],"type":"Point"},"properties":{"osm_id":"5964453185","tag":{"amenity":"waste_basket"}},"type":"Feature"},
	{"geometry":{"coordinates":[6.101052,53.104526],"type":"Point"},"properties":{"osm_id":"5978827001","tag":{"amenity":"recycling","recycling_type":"container"}},"type":"Feature"},
	{"geometry":{"coordinates":[6.101079,53.104106],"type":"Point"},"properties":{"osm_id":"5978840885","tag":{"amenity":"waste_basket"}},"type":"Feature"},
	{"geometry":{"coordinates":[6.100997,53.095585],"type":"Point"},"properties":{"osm_id":"6187441585","tag":{"amenity":"recycling","recycling_type":"container"}},"type":"Feature"},
	{"geometry":{"coordinates":[6.100465,53.103497],"type":"Point"},"properties":{"osm_id":"6187860786","tag":{"amenity":"waste_basket"}},"type":"Feature"},
	{"geometry":{"coordinates":[6.100813,53.103255],"type":"Point"},"properties":{"osm_id":"6187862288","tag":{"amenity":"waste_basket"}},"type":"Feature"},
	{"geometry":{"coordinates":[6.126324,53.105211],"type":"Point"},"properties":{"osm_id":"6187880291","tag":{"amenity":"waste_basket"}},"type":"Feature"},
	{"geometry":{"coordinates":[6.114743,53.104027],"type":"Point"},"properties":{"osm_id":"6187880485","tag":{"amenity":"waste_basket"}},"type":"Feature"},
	{"geometry":{"coordinates":[6.094963,53.10729],"type":"Point"},"properties":{"osm_id":"7395601743","tag":{"amenity":"recycling","recycling:cans":"yes","recycling:plastic":"yes","recycling:plastic_bottles":"yes","recycling:plastic_packaging":"yes","recycling_type":"container"}},"type":"Feature"},
	{"geometry":{"coordinates":[6.094958,53.107316],"type":"Point"},"properties":{"osm_id":"7395601745","tag":{"amenity":"recycling","recycling:cans":"yes","recycling:plastic":"yes","recycling:plastic_bottles":"yes","recycling:plastic_packaging":"yes","recycling_type":"container"}},"type":"Feature"},
	{"geometry":{"coordinates":[6.094954,53.10734],"type":"Point"},"properties":{"osm_id":"7395601746","tag":{"amenity":"recycling","recycling:glass":"yes","recycling:glass_bottles":"yes","recycling_type":"container"}},"type":"Feature"},
	{"geometry":{"coordinates":[6.094945,53.107386],"type":"Point"},"properties":{"osm_id":"7395601749","tag":{"amenity":"recycling","recycling:cardboard":"yes","recycling:paper":"yes","recycling_type":"container"}},"type":"Feature"},
	{"geometry":{"coordinates":[6.094941,53.10741],"type":"Point"},"properties":{"osm_id":"7395601750","tag":{"amenity":"recycling","recycling:cardboard":"yes","recycling:paper":"yes","recycling_type":"container"}},"type":"Feature"},
	{"geometry":{"coordinates":[6.094825,53.107919],"type":"Point"},"properties":{"osm_id":"7395601754","tag":{"amenity":"recycling","recycling:glass":"yes","recycling:glass_bottles":"yes","recycling_type":"container"}},"type":"Feature"},
	{"geometry":{"coordinates":[6.105946,53.112767],"type":"Point"},"properties":{"osm_id":"7806075167","tag":{"amenity":"recycling","recycling_type":"centre"}},"type":"Feature"},
	{"geometry":{"coordinates":[6.10678,53.112895],"type":"Point"},"properties":{"osm_id":"7806075168","tag":{"amenity":"recycling","recycling_type":"centre"}},"type":"Feature"}
]
}
