{
"type": "FeatureCollection",
"lastupdate": "2020-08-02T00:00:00Z",
"features": [
	{"geometry":{"coordinates":[6.07187,52.721053],"type":"Point"},"properties":{"osm_id":"3701376273","tag":{"amenity":"recycling","opening_hours":"24/7","recycling:waste":"yes","recycling_type":"container","wheelchair":"yes"}},"type":"Feature"},
	{"geometry":{"coordinates":[6.07187,52.721075],"type":"Point"},"properties":{"osm_id":"3701376274","tag":{"amenity":"recycling","opening_hours":"24/7","recycling:waste":"yes","recycling_type":"container","wheelchair":"yes"}},"type":"Feature"},
	{"geometry":{"coordinates":[6.071869,52.721097],"type":"Point"},"properties":{"osm_id":"3701376278","tag":{"amenity":"recycling","opening_hours":"24/7","recycling:waste":"yes","recycling_type":"container","wheelchair":"yes"}},"type":"Feature"},
	{"geometry":{"coordinates":[6.071869,52.721118],"type":"Point"},"properties":{"osm_id":"3701376281","tag":{"amenity":"recycling","opening_hours":"24/7","recycling:waste":"yes","recycling_type":"container","wheelchair":"yes"}},"type":"Feature"},
	{"geometry":{"coordinates":[6.071868,52.72114],"type":"Point"},"properties":{"osm_id":"3701376282","tag":{"amenity":"recycling","opening_hours":"24/7","recycling:cardboard":"yes","recycling:paper":"yes","recycling_type":"container","wheelchair":"yes"}},"type":"Feature"},
	{"geometry":{"coordinates":[6.071868,52.721162],"type":"Point"},"properties":{"osm_id":"3709808700","tag":{"amenity":"recycling","opening_hours":"24/7","recycling:glass":"yes","recycling_type":"container","wheelchair":"yes"}},"type":"Feature"},
	{"geometry":{"coordinates":[6.090205,52.724645],"type":"Point"},"properties":{"osm_id":"5773938249","tag":{"amenity":"waste_basket"}},"type":"Feature"},
	{"geometry":{"coordinates":[6.090117,52.722756],"type":"Point"},"properties":{"osm_id":"5773938250","tag":{"amenity":"waste_basket"}},"type":"Feature"},
	{"geometry":{"coordinates":[6.090123,52.721606],"type":"Point"},"properties":{"osm_id":"5773938251","tag":{"amenity":"waste_basket"}},"type":"Feature"},
	{"geometry":{"coordinates":[6.0904,52.719447],"type":"Point"},"properties":{"osm_id":"5773938717","tag":{"amenity":"waste_basket"}},"type":"Feature"},
	{"geometry":{"coordinates":[6.08786,52.722706],"type":"Point"},"properties":{"osm_id":"5773941115","tag":{"amenity":"waste_basket"}},"type":"Feature"},
	{"geometry":{"coordinates":[6.09012,52.725995],"type":"Point"},"properties":{"osm_id":"5773941518","tag":{"amenity":"waste_basket"}},"type":"Feature"},
	{"geometry":{"coordinates":[6.081312,52.721858],"type":"Point"},"properties":{"osm_id":"5799146853","tag":{"amenity":"waste_basket"}},"type":"Feature"},
	{"geometry":{"coordinates":[6.079701,52.720796],"type":"Point"},"properties":{"osm_id":"5882276896","tag":{"amenity":"waste_basket"}},"type":"Feature"},
	{"geometry":{"coordinates":[6.088792,52.7187],"type":"Point"},"properties":{"osm_id":"5882281485","tag":{"amenity":"waste_basket"}},"type":"Feature"},
	{"geometry":{"coordinates":[6.084116,52.745571],"type":"Point"},"properties":{"osm_id":"6110265061","tag":{"amenity":"waste_basket"}},"type":"Feature"},
	{"geometry":{"coordinates":[6.085005,52.747897],"type":"Point"},"properties":{"osm_id":"6110269610","tag":{"amenity":"waste_basket"}},"type":"Feature"},
	{"geometry":{"coordinates":[6.089863,52.722427],"type":"Point"},"properties":{"osm_id":"7169728925","tag":{"amenity":"waste_basket","waste":"trash"}},"type":"Feature"},
	{"geometry":{"coordinates":[6.078345,52.749305],"type":"Point"},"properties":{"osm_id":"7208185791","tag":{"amenity":"waste_basket","waste":"trash"}},"type":"Feature"}
]
}
