{
"type": "FeatureCollection",
"features": [
	{"geometry":{"coordinates":[6.129679,52.434372],"type":"Point"},"properties":{"osm_id":"3270408773","tag":{"amenity":"waste_basket","waste":"trash"}},"type":"Feature"},
	{"geometry":{"coordinates":[6.125281,52.441337],"type":"Point"},"properties":{"osm_id":"3270408792","tag":{"amenity":"waste_basket","waste":"trash"}},"type":"Feature"},
	{"geometry":{"coordinates":[6.083378,52.438976],"type":"Point"},"properties":{"osm_id":"3588197147","tag":{"amenity":"waste_basket"}},"type":"Feature"},
	{"geometry":{"coordinates":[6.134067,52.476746],"type":"Point"},"properties":{"osm_id":"3900077814","tag":{"amenity":"waste_basket"}},"type":"Feature"},
	{"geometry":{"coordinates":[6.127753,52.478732],"type":"Point"},"properties":{"osm_id":"3900077819","tag":{"amenity":"waste_basket"}},"type":"Feature"},
	{"geometry":{"coordinates":[6.074569,52.431897],"type":"Point"},"properties":{"osm_id":"4255389333","tag":{"amenity":"waste_basket"}},"type":"Feature"},
	{"geometry":{"coordinates":[6.074047,52.431966],"type":"Point"},"properties":{"osm_id":"4255389335","tag":{"amenity":"waste_basket"}},"type":"Feature"},
	{"geometry":{"coordinates":[6.078686,52.441588],"type":"Point"},"properties":{"osm_id":"4410338079","tag":{"amenity":"waste_basket"}},"type":"Feature"},
	{"geometry":{"coordinates":[6.071574,52.438679],"type":"Point"},"properties":{"osm_id":"4410618893","tag":{"amenity":"waste_basket"}},"type":"Feature"},
	{"geometry":{"coordinates":[6.071304,52.473683],"type":"Point"},"properties":{"osm_id":"4577167465","tag":{"amenity":"waste_basket"}},"type":"Feature"},
	{"geometry":{"coordinates":[6.071544,52.473811],"type":"Point"},"properties":{"osm_id":"4577167466","tag":{"amenity":"waste_basket"}},"type":"Feature"},
	{"geometry":{"coordinates":[6.131455,52.451275],"type":"Point"},"properties":{"osm_id":"4839987386","tag":{"amenity":"waste_basket"}},"type":"Feature"},
	{"geometry":{"coordinates":[6.131541,52.45111],"type":"Point"},"properties":{"osm_id":"4839987387","tag":{"amenity":"waste_basket"}},"type":"Feature"},
	{"geometry":{"coordinates":[6.068014,52.473547],"type":"Point"},"properties":{"osm_id":"5810884753","tag":{"amenity":"waste_basket"}},"type":"Feature"},
	{"geometry":{"coordinates":[6.069975,52.474566],"type":"Point"},"properties":{"osm_id":"7590145530","tag":{"amenity":"waste_basket"}},"type":"Feature"},
	{"geometry":{"coordinates":[6.078307,52.456449],"type":"Point"},"properties":{"name":"Adoptieprullenbak","osm_id":"7647586230","tag":{"amenity":"waste_basket","inscription":"Adoptieprullenbak","website":"https://www.hattem.nl/prullenbak"}},"type":"Feature"},
	{"geometry":{"coordinates":[6.069397,52.432197],"type":"Point"},"properties":{"osm_id":"7655914031","tag":{"amenity":"waste_basket"}},"type":"Feature"},
	{"geometry":{"coordinates":[6.069161,52.43164],"type":"Point"},"properties":{"osm_id":"7655914047","tag":{"amenity":"waste_basket"}},"type":"Feature"},
	{"geometry":{"coordinates":[6.074475,52.431929],"type":"Point"},"properties":{"osm_id":"7655914048","tag":{"amenity":"waste_basket"}},"type":"Feature"},
	{"geometry":{"coordinates":[6.069275,52.432785],"type":"Point"},"properties":{"osm_id":"7655914053","tag":{"amenity":"waste_basket"}},"type":"Feature"},
	{"geometry":{"coordinates":[6.068282,52.432452],"type":"Point"},"properties":{"osm_id":"7655914055","tag":{"amenity":"waste_basket"}},"type":"Feature"},
	{"geometry":{"coordinates":[6.068073,52.47425],"type":"Point"},"properties":{"osm_id":"7850332467","tag":{"amenity":"waste_basket"}},"type":"Feature"},
	{"geometry":{"coordinates":[6.066794,52.474935],"type":"Point"},"properties":{"osm_id":"7850337414","tag":{"amenity":"waste_basket"}},"type":"Feature"},
	{"geometry":{"coordinates":[6.065399,52.475648],"type":"Point"},"properties":{"osm_id":"7850340081","tag":{"amenity":"recycling","recycling:clothes":"yes","recycling:glass":"yes"}},"type":"Feature"},
	{"geometry":{"coordinates":[6.069824,52.475041],"type":"Point"},"properties":{"osm_id":"7850340707","tag":{"amenity":"waste_basket"}},"type":"Feature"},
	{"geometry":{"coordinates":[6.065691,52.475097],"type":"Point"},"properties":{"osm_id":"7850341191","tag":{"amenity":"waste_basket"}},"type":"Feature"},
	{"geometry":{"coordinates":[6.068121,52.474693],"type":"Point"},"properties":{"osm_id":"7850342415","tag":{"amenity":"waste_basket"}},"type":"Feature"},
	{"geometry":{"coordinates":[6.066459,52.474929],"type":"Point"},"properties":{"osm_id":"7850343221","tag":{"amenity":"waste_basket"}},"type":"Feature"},
	{"geometry":{"coordinates":[6.068934,52.474549],"type":"Point"},"properties":{"osm_id":"7850343222","tag":{"amenity":"waste_basket"}},"type":"Feature"},
	{"geometry":{"coordinates":[6.074021,52.432726],"type":"Point"},"properties":{"osm_id":"7934758257","tag":{"amenity":"recycling","recycling:clothes":"yes","recycling:glass_bottles":"yes","recycling_type":"container"}},"type":"Feature"}
]
}
