{
"type": "FeatureCollection",
"features": [
	{"geometry":{"coordinates":[6.135226,52.012815],"type":"Point"},"properties":{"osm_id":"2208500852","tag":{"amenity":"recycling","recycling:glass":"yes","recycling_type":"container"}},"type":"Feature"},
	{"geometry":{"coordinates":[6.125465,52.003113],"type":"Point"},"properties":{"osm_id":"2209148812","tag":{"amenity":"recycling","recycling:plastic":"yes","recycling_type":"container"}},"type":"Feature"},
	{"geometry":{"coordinates":[6.125535,52.003132],"type":"Point"},"properties":{"osm_id":"2209148815","tag":{"amenity":"recycling","recycling:glass":"yes","recycling_type":"container"}},"type":"Feature"},
	{"geometry":{"coordinates":[6.125716,52.046594],"type":"Point"},"properties":{"osm_id":"3343266043","tag":{"amenity":"recycling","recycling:cartons":"yes","recycling:glass":"yes","recycling:plastic":"yes","recycling:waste":"yes","recycling_type":"container"}},"type":"Feature"},
	{"geometry":{"coordinates":[6.101998,52.042974],"type":"Point"},"properties":{"osm_id":"3536616951","tag":{"amenity":"waste_basket"}},"type":"Feature"},
	{"geometry":{"coordinates":[6.101041,52.040989],"type":"Point"},"properties":{"osm_id":"3536702128","tag":{"amenity":"waste_basket"}},"type":"Feature"},
	{"geometry":{"coordinates":[6.103416,52.044093],"type":"Point"},"properties":{"osm_id":"3545133719","tag":{"amenity":"waste_basket"}},"type":"Feature"},
	{"geometry":{"coordinates":[6.080786,52.029556],"type":"Point"},"properties":{"osm_id":"3545205734","tag":{"amenity":"waste_basket"}},"type":"Feature"},
	{"geometry":{"coordinates":[6.090615,52.035622],"type":"Point"},"properties":{"osm_id":"3545205735","tag":{"amenity":"waste_basket"}},"type":"Feature"},
	{"geometry":{"coordinates":[6.090519,52.03066],"type":"Point"},"properties":{"osm_id":"3795630935","tag":{"amenity":"waste_basket"}},"type":"Feature"},
	{"geometry":{"coordinates":[6.142254,52.018397],"type":"Point"},"properties":{"osm_id":"5134804078","tag":{"amenity":"waste_basket"}},"type":"Feature"},
	{"geometry":{"coordinates":[6.141123,52.015046],"type":"Point"},"properties":{"osm_id":"5134924029","tag":{"amenity":"waste_basket"}},"type":"Feature"},
	{"geometry":{"coordinates":[6.140706,52.015297],"type":"Point"},"properties":{"osm_id":"5134924052","tag":{"amenity":"waste_basket"}},"type":"Feature"},
	{"geometry":{"coordinates":[6.105692,52.040846],"type":"Point"},"properties":{"osm_id":"5169231080","tag":{"amenity":"waste_basket"}},"type":"Feature"},
	{"geometry":{"coordinates":[6.103247,52.044943],"type":"Point"},"properties":{"osm_id":"5590025789","tag":{"amenity":"waste_basket"}},"type":"Feature"},
	{"geometry":{"coordinates":[6.103352,52.04503],"type":"Point"},"properties":{"osm_id":"5590025790","tag":{"amenity":"waste_basket"}},"type":"Feature"},
	{"geometry":{"coordinates":[6.103022,52.044796],"type":"Point"},"properties":{"osm_id":"5590025791","tag":{"amenity":"waste_basket"}},"type":"Feature"},
	{"geometry":{"coordinates":[6.103079,52.044764],"type":"Point"},"properties":{"osm_id":"5590025792","tag":{"amenity":"waste_basket"}},"type":"Feature"},
	{"geometry":{"coordinates":[6.102869,52.044671],"type":"Point"},"properties":{"osm_id":"5590025793","tag":{"amenity":"waste_basket"}},"type":"Feature"},
	{"geometry":{"coordinates":[6.102949,52.04465],"type":"Point"},"properties":{"osm_id":"5590025794","tag":{"amenity":"waste_basket"}},"type":"Feature"},
	{"geometry":{"coordinates":[6.111867,52.041795],"type":"Point"},"properties":{"osm_id":"5774039589","tag":{"amenity":"waste_basket"}},"type":"Feature"},
	{"geometry":{"coordinates":[6.135752,52.012261],"type":"Point"},"properties":{"osm_id":"5972418954","tag":{"amenity":"waste_basket"}},"type":"Feature"},
	{"geometry":{"coordinates":[6.135276,52.012533],"type":"Point"},"properties":{"osm_id":"5972418961","tag":{"amenity":"recycling","recycling_type":"container"}},"type":"Feature"},
	{"geometry":{"coordinates":[6.103736,52.046762],"type":"Point"},"properties":{"osm_id":"6804186491","tag":{"amenity":"waste_basket"}},"type":"Feature"},
	{"geometry":{"coordinates":[6.103652,52.046852],"type":"Point"},"properties":{"osm_id":"6804186492","tag":{"amenity":"waste_basket"}},"type":"Feature"},
	{"geometry":{"coordinates":[6.103944,52.046534],"type":"Point"},"properties":{"osm_id":"6804186493","tag":{"amenity":"waste_basket"}},"type":"Feature"},
	{"geometry":{"coordinates":[6.130083,52.016742],"type":"Point"},"properties":{"osm_id":"7295162386","tag":{"amenity":"waste_basket"}},"type":"Feature"},
	{"geometry":{"coordinates":[6.129118,52.017228],"type":"Point"},"properties":{"osm_id":"7295162402","tag":{"amenity":"waste_basket"}},"type":"Feature"},
	{"geometry":{"coordinates":[6.129549,52.017537],"type":"Point"},"properties":{"osm_id":"7295162423","tag":{"amenity":"waste_basket"}},"type":"Feature"},
	{"geometry":{"coordinates":[6.129158,52.017518],"type":"Point"},"properties":{"osm_id":"7295162428","tag":{"amenity":"waste_basket"}},"type":"Feature"},
	{"geometry":{"coordinates":[6.129568,52.017762],"type":"Point"},"properties":{"osm_id":"7295162457","tag":{"amenity":"waste_basket"}},"type":"Feature"},
	{"geometry":{"coordinates":[6.129341,52.017754],"type":"Point"},"properties":{"osm_id":"7295162464","tag":{"amenity":"waste_basket"}},"type":"Feature"},
	{"geometry":{"coordinates":[6.129925,52.012505],"type":"Point"},"properties":{"osm_id":"7296982599","tag":{"amenity":"waste_basket"}},"type":"Feature"},
	{"geometry":{"coordinates":[6.128388,52.014003],"type":"Point"},"properties":{"osm_id":"7296982650","tag":{"amenity":"waste_basket"}},"type":"Feature"},
	{"geometry":{"coordinates":[6.12834,52.01533],"type":"Point"},"properties":{"osm_id":"7299593647","tag":{"amenity":"waste_basket"}},"type":"Feature"},
	{"geometry":{"coordinates":[6.129496,52.015017],"type":"Point"},"properties":{"osm_id":"7299593655","tag":{"amenity":"waste_basket"}},"type":"Feature"},
	{"geometry":{"coordinates":[6.145243,52.006529],"type":"Point"},"properties":{"osm_id":"7303963412","tag":{"amenity":"recycling","direction":"NW","location":"underground","recycling:glass_bottles":"yes","recycling_type":"container"}},"type":"Feature"},
	{"geometry":{"coordinates":[6.145224,52.006515],"type":"Point"},"properties":{"osm_id":"7319673629","tag":{"amenity":"recycling","direction":"NW","location":"underground","recycling:glass_bottles":"yes","recycling_type":"container"}},"type":"Feature"},
	{"geometry":{"coordinates":[6.145192,52.00653],"type":"Point"},"properties":{"osm_id":"7319673630","tag":{"amenity":"recycling","direction":"SE","location":"underground","recycling:paper":"yes","recycling_type":"container"}},"type":"Feature"},
	{"geometry":{"coordinates":[6.145216,52.006546],"type":"Point"},"properties":{"osm_id":"7319673631","tag":{"amenity":"recycling","direction":"SE","location":"underground","recycling:textiles":"yes","recycling_type":"container"}},"type":"Feature"},
	{"geometry":{"coordinates":[6.145236,52.006562],"type":"Point"},"properties":{"osm_id":"7319673632","tag":{"amenity":"recycling","direction":"SE","fee":"yes","location":"underground","operator":"Circulus-Berkel","recycling:waste":"yes","recycling_type":"container"}},"type":"Feature"},
	{"geometry":{"coordinates":[6.149532,52.004272],"type":"Point"},"properties":{"osm_id":"7319673633","tag":{"amenity":"recycling","direction":"SW","fee":"yes","location":"underground","operator":"Circulus-Berkel","recycling:waste":"yes","recycling_type":"container"}},"type":"Feature"},
	{"geometry":{"coordinates":[6.144219,52.005816],"type":"Point"},"properties":{"osm_id":"7319673634","tag":{"amenity":"recycling","direction":"SW","fee":"yes","location":"underground","operator":"Circulus-Berkel","recycling:waste":"yes","recycling_type":"container"}},"type":"Feature"},
	{"geometry":{"coordinates":[6.140186,52.008958],"type":"Point"},"properties":{"osm_id":"7319673635","tag":{"amenity":"recycling","direction":"SSW","fee":"yes","location":"underground","operator":"Circulus-Berkel","recycling:waste":"yes","recycling_type":"container"}},"type":"Feature"},
	{"geometry":{"coordinates":[6.139448,52.007047],"type":"Point"},"properties":{"osm_id":"7319673636","tag":{"amenity":"recycling","direction":"SSE","fee":"yes","location":"underground","operator":"Circulus-Berkel","recycling:waste":"yes","recycling_type":"container"}},"type":"Feature"},
	{"geometry":{"coordinates":[6.141621,52.006338],"type":"Point"},"properties":{"osm_id":"7319673637","tag":{"amenity":"recycling","direction":"SSW","fee":"yes","location":"underground","operator":"Circulus-Berkel","recycling:waste":"yes","recycling_type":"container"}},"type":"Feature"}
]
}
