{
"type": "FeatureCollection",
"features": [
	{"geometry":{"coordinates":[6.117367,51.90521],"type":"Point"},"properties":{"osm_id":"4315552515","tag":{"amenity":"waste_basket"}},"type":"Feature"},
	{"geometry":{"coordinates":[6.117495,51.905225],"type":"Point"},"properties":{"osm_id":"4315552519","tag":{"amenity":"waste_basket"}},"type":"Feature"},
	{"geometry":{"coordinates":[6.079123,51.936975],"type":"Point"},"properties":{"osm_id":"4642461452","tag":{"amenity":"waste_basket"}},"type":"Feature"},
	{"geometry":{"coordinates":[6.133321,51.933633],"type":"Point"},"properties":{"osm_id":"5614882852","tag":{"amenity":"waste_basket"}},"type":"Feature"},
	{"geometry":{"coordinates":[6.1337,51.933597],"type":"Point"},"properties":{"osm_id":"5614882855","tag":{"amenity":"waste_basket"}},"type":"Feature"},
	{"geometry":{"coordinates":[6.072025,51.92313],"type":"Point"},"properties":{"osm_id":"5614910187","tag":{"amenity":"waste_basket"}},"type":"Feature"},
	{"geometry":{"coordinates":[6.072212,51.92322],"type":"Point"},"properties":{"osm_id":"5614910191","tag":{"amenity":"waste_basket"}},"type":"Feature"},
	{"geometry":{"coordinates":[6.071152,51.923494],"type":"Point"},"properties":{"osm_id":"5614910194","tag":{"amenity":"waste_basket"}},"type":"Feature"},
	{"geometry":{"coordinates":[6.071101,51.923357],"type":"Point"},"properties":{"osm_id":"5614910195","tag":{"amenity":"waste_basket"}},"type":"Feature"},
	{"geometry":{"coordinates":[6.07143,51.923276],"type":"Point"},"properties":{"osm_id":"5614910196","tag":{"amenity":"waste_basket"}},"type":"Feature"},
	{"geometry":{"coordinates":[6.072708,51.923219],"type":"Point"},"properties":{"osm_id":"5614910200","tag":{"amenity":"waste_basket"}},"type":"Feature"},
	{"geometry":{"coordinates":[6.072451,51.923023],"type":"Point"},"properties":{"osm_id":"5614910201","tag":{"amenity":"waste_basket"}},"type":"Feature"},
	{"geometry":{"coordinates":[6.145919,51.91918],"type":"Point"},"properties":{"osm_id":"5777708408","tag":{"amenity":"waste_basket"}},"type":"Feature"},
	{"geometry":{"coordinates":[6.080114,51.919322],"type":"Point"},"properties":{"osm_id":"5911958190","tag":{"amenity":"waste_basket"}},"type":"Feature"},
	{"geometry":{"coordinates":[6.080452,51.917122],"type":"Point"},"properties":{"osm_id":"5911958193","tag":{"amenity":"waste_basket"}},"type":"Feature"},
	{"geometry":{"coordinates":[6.094858,51.91026],"type":"Point"},"properties":{"osm_id":"5993225596","tag":{"amenity":"waste_basket","source:position":"extrapolation","waste":"trash"}},"type":"Feature"},
	{"geometry":{"coordinates":[6.075876,51.91402],"type":"Point"},"properties":{"osm_id":"6358828874","tag":{"amenity":"waste_basket"}},"type":"Feature"},
	{"geometry":{"coordinates":[6.112044,51.904638],"type":"Point"},"properties":{"osm_id":"7090897164","tag":{"amenity":"waste_basket","source:position":"extrapolation"}},"type":"Feature"}
]
}
