{
"type": "FeatureCollection",
"features": [
	{"geometry":{"coordinates":[6.136746,51.693783],"type":"Point"},"properties":{"name":"Sch\u00c3\u00b6nmackers","osm_id":"3520491893","tag":{"amenity":"recycling","opening_hours":"Mo-Fr 08:00-17:00;Sa 08:00-13:00","recycling_type":"centre"}},"type":"Feature"},
	{"geometry":{"coordinates":[6.100016,51.707542],"type":"Point"},"properties":{"osm_id":"8721996803","tag":{"amenity":"waste_basket"}},"type":"Feature"},
	{"geometry":{"coordinates":[6.090368,51.712352],"type":"Point"},"properties":{"osm_id":"8722153321","tag":{"amenity":"waste_basket"}},"type":"Feature"},
	{"geometry":{"coordinates":[6.080801,51.710731],"type":"Point"},"properties":{"osm_id":"8722214640","tag":{"amenity":"waste_basket"}},"type":"Feature"},
	{"geometry":{"coordinates":[6.074023,51.714162],"type":"Point"},"properties":{"osm_id":"8722295693","tag":{"amenity":"waste_basket"}},"type":"Feature"},
	{"geometry":{"coordinates":[6.075097,51.714137],"type":"Point"},"properties":{"osm_id":"8722311548","tag":{"amenity":"waste_basket"}},"type":"Feature"},
	{"geometry":{"coordinates":[6.077196,51.714049],"type":"Point"},"properties":{"osm_id":"8722312278","tag":{"amenity":"waste_basket"}},"type":"Feature"}
]
}
