{
"type": "FeatureCollection",
"features": [
	{"geometry":{"coordinates":[6.100768,50.863383],"type":"Point"},"properties":{"osm_id":"171145452","tag":{"amenity":"recycling","recycling:glass_bottles":"yes","recycling_type":"container"}},"type":"Feature"},
	{"geometry":{"coordinates":[6.087959,50.868602],"type":"Point"},"properties":{"osm_id":"189166436","tag":{"amenity":"recycling","recycling:glass_bottles":"yes","recycling_type":"container"}},"type":"Feature"},
	{"geometry":{"coordinates":[6.116891,50.884812],"type":"Point"},"properties":{"osm_id":"220336830","tag":{"amenity":"recycling","recycling:glass_bottles":"yes","recycling_type":"container"}},"type":"Feature"},
	{"geometry":{"coordinates":[6.151862,50.864241],"type":"Point"},"properties":{"osm_id":"223536266","tag":{"amenity":"recycling","recycling:glass_bottles":"yes","recycling_type":"container"}},"type":"Feature"},
	{"geometry":{"coordinates":[6.134402,50.881256],"type":"Point"},"properties":{"osm_id":"229804066","tag":{"amenity":"recycling","recycling:glass_bottles":"yes","recycling_type":"container"}},"type":"Feature"},
	{"geometry":{"coordinates":[6.098919,50.883298],"type":"Point"},"properties":{"osm_id":"244466730","tag":{"amenity":"recycling","recycling_type":"container"}},"type":"Feature"},
	{"geometry":{"coordinates":[6.079886,50.887345],"type":"Point"},"properties":{"osm_id":"247547440","tag":{"amenity":"recycling","recycling_type":"container"}},"type":"Feature"},
	{"geometry":{"coordinates":[6.137273,50.857735],"type":"Point"},"properties":{"osm_id":"512578295","tag":{"amenity":"recycling","recycling:clothes":"yes","recycling:glass_bottles":"yes","recycling:shoes":"yes","recycling_type":"container"}},"type":"Feature"},
	{"geometry":{"coordinates":[6.096163,50.849107],"type":"Point"},"properties":{"osm_id":"614392543","tag":{"amenity":"recycling","recycling:clothes":"yes","recycling:glass":"yes","recycling_type":"container"}},"type":"Feature"},
	{"geometry":{"coordinates":[6.093972,50.881789],"type":"Point"},"properties":{"osm_id":"614412278","tag":{"amenity":"recycling","mapillary":"I7B6vpi828ihErjAdo9JsA","recycling:glass_bottles":"yes","recycling_type":"container","survey:date":"2018-05-17"}},"type":"Feature"},
	{"geometry":{"coordinates":[6.112622,50.884314],"type":"Point"},"properties":{"osm_id":"629048119","tag":{"amenity":"recycling","recycling:glass_bottles":"yes","recycling_type":"container"}},"type":"Feature"},
	{"geometry":{"coordinates":[6.112266,50.898545],"type":"Point"},"properties":{"osm_id":"629048122","tag":{"amenity":"recycling","recycling:glass":"yes"}},"type":"Feature"},
	{"geometry":{"coordinates":[6.116233,50.89845],"type":"Point"},"properties":{"osm_id":"629048124","tag":{"amenity":"recycling","recycling:glass_bottles":"yes","recycling_type":"container"}},"type":"Feature"},
	{"geometry":{"coordinates":[6.111327,50.870592],"type":"Point"},"properties":{"osm_id":"641948279","tag":{"amenity":"recycling","recycling:glass_bottles":"yes","recycling_type":"container"}},"type":"Feature"},
	{"geometry":{"coordinates":[6.138375,50.88149],"type":"Point"},"properties":{"osm_id":"645151904","tag":{"amenity":"recycling","recycling:clothes":"yes","recycling:glass_bottles":"yes","recycling:shoes":"yes","recycling_type":"container"}},"type":"Feature"},
	{"geometry":{"coordinates":[6.119057,50.892545],"type":"Point"},"properties":{"osm_id":"874381371","tag":{"amenity":"recycling","recycling:glass":"yes","recycling_type":"container"}},"type":"Feature"},
	{"geometry":{"coordinates":[6.11849,50.886907],"type":"Point"},"properties":{"osm_id":"874386431","tag":{"amenity":"recycling","recycling:glass":"yes","recycling_type":"container"}},"type":"Feature"},
	{"geometry":{"coordinates":[6.117654,50.866005],"type":"Point"},"properties":{"osm_id":"1311046717","tag":{"amenity":"recycling","recycling:glass":"yes","recycling_type":"container"}},"type":"Feature"},
	{"geometry":{"coordinates":[6.114159,50.853318],"type":"Point"},"properties":{"osm_id":"1458647281","tag":{"amenity":"recycling","recycling:glass_bottles":"yes","recycling_type":"container"}},"type":"Feature"},
	{"geometry":{"coordinates":[6.102475,50.885716],"type":"Point"},"properties":{"osm_id":"3139616046","tag":{"amenity":"recycling","recycling:glass_bottles":"yes","recycling_type":"container"}},"type":"Feature"},
	{"geometry":{"coordinates":[6.104956,50.88316],"type":"Point"},"properties":{"osm_id":"3139617127","tag":{"amenity":"recycling","recycling:batteries":"no","recycling:books":"no","recycling:cans":"no","recycling:cardboard":"no","recycling:cartons":"no","recycling:clothes":"no","recycling:electrical_appliances":"no","recycling:glass":"yes","recycling:glass_bottles":"yes","recycling:green_waste":"no","recycling:magazines":"no","recycling:newspaper":"no","recycling:paper":"no","recycling:paper_packaging":"no","recycling:plastic":"no","recycling:plastic_bottles":"no","recycling:plastic_packaging":"no","recycling:scrap_metal":"no","recycling:small_appliances":"no","recycling:waste":"no","recycling_type":"container"}},"type":"Feature"},
	{"geometry":{"coordinates":[6.151704,50.856775],"type":"Point"},"properties":{"osm_id":"3895023617","tag":{"amenity":"recycling","recycling:clothes":"yes","recycling_type":"container"}},"type":"Feature"},
	{"geometry":{"coordinates":[6.148379,50.858954],"type":"Point"},"properties":{"osm_id":"3896440458","tag":{"amenity":"recycling","check_date:recycling":"2021-08-13","recycling:clothes":"yes","recycling:glass_bottles":"yes","recycling:shoes":"yes","recycling_type":"container"}},"type":"Feature"},
	{"geometry":{"coordinates":[6.151803,50.854135],"type":"Point"},"properties":{"osm_id":"3930696991","tag":{"amenity":"recycling","recycling:glass_bottles":"yes","recycling_type":"container"}},"type":"Feature"},
	{"geometry":{"coordinates":[6.102206,50.874069],"type":"Point"},"properties":{"osm_id":"3935795519","tag":{"amenity":"recycling","recycling:glass_bottles":"yes","recycling:small_electrical_appliances":"yes","recycling_type":"container"}},"type":"Feature"},
	{"geometry":{"coordinates":[6.150864,50.856355],"type":"Point"},"properties":{"osm_id":"3935928221","tag":{"amenity":"recycling","recycling:clothes":"yes","recycling:glass_bottles":"yes","recycling:shoes":"yes","recycling_type":"container"}},"type":"Feature"},
	{"geometry":{"coordinates":[6.071202,50.854861],"type":"Point"},"properties":{"osm_id":"3979559289","tag":{"amenity":"waste_basket"}},"type":"Feature"},
	{"geometry":{"coordinates":[6.069714,50.901717],"type":"Point"},"properties":{"osm_id":"4339405932","tag":{"amenity":"waste_basket"}},"type":"Feature"},
	{"geometry":{"coordinates":[6.118765,50.88747],"type":"Point"},"properties":{"osm_id":"4383574473","tag":{"amenity":"waste_basket"}},"type":"Feature"},
	{"geometry":{"coordinates":[6.072968,50.884903],"type":"Point"},"properties":{"osm_id":"4418459805","tag":{"amenity":"waste_basket"}},"type":"Feature"},
	{"geometry":{"coordinates":[6.068945,50.876502],"type":"Point"},"properties":{"osm_id":"4421600551","tag":{"amenity":"recycling","recycling_type":"container"}},"type":"Feature"},
	{"geometry":{"coordinates":[6.068919,50.876522],"type":"Point"},"properties":{"osm_id":"4421600552","tag":{"amenity":"recycling","recycling:paper":"yes","recycling_type":"container"}},"type":"Feature"},
	{"geometry":{"coordinates":[6.06889,50.876541],"type":"Point"},"properties":{"osm_id":"4421600553","tag":{"amenity":"recycling","recycling:glass_bottles":"yes","recycling_type":"container"}},"type":"Feature"},
	{"geometry":{"coordinates":[6.14961,50.863411],"type":"Point"},"properties":{"osm_id":"4442842623","tag":{"amenity":"waste_basket"}},"type":"Feature"},
	{"geometry":{"coordinates":[6.148614,50.861755],"type":"Point"},"properties":{"osm_id":"4446395224","tag":{"amenity":"waste_basket"}},"type":"Feature"},
	{"geometry":{"coordinates":[6.148257,50.861846],"type":"Point"},"properties":{"osm_id":"4446395225","tag":{"amenity":"waste_basket"}},"type":"Feature"},
	{"geometry":{"coordinates":[6.148023,50.861907],"type":"Point"},"properties":{"osm_id":"4446395228","tag":{"amenity":"waste_basket"}},"type":"Feature"},
	{"geometry":{"coordinates":[6.147792,50.861967],"type":"Point"},"properties":{"osm_id":"4446395230","tag":{"amenity":"waste_basket"}},"type":"Feature"},
	{"geometry":{"coordinates":[6.147533,50.862113],"type":"Point"},"properties":{"osm_id":"4446395232","tag":{"amenity":"waste_basket"}},"type":"Feature"},
	{"geometry":{"coordinates":[6.144497,50.862919],"type":"Point"},"properties":{"osm_id":"4446395238","tag":{"amenity":"waste_basket"}},"type":"Feature"},
	{"geometry":{"coordinates":[6.149812,50.862166],"type":"Point"},"properties":{"osm_id":"4447901520","tag":{"amenity":"waste_basket"}},"type":"Feature"},
	{"geometry":{"coordinates":[6.149788,50.862387],"type":"Point"},"properties":{"osm_id":"4447901523","tag":{"amenity":"waste_basket"}},"type":"Feature"},
	{"geometry":{"coordinates":[6.150059,50.862852],"type":"Point"},"properties":{"osm_id":"4447901527","tag":{"amenity":"waste_basket"}},"type":"Feature"},
	{"geometry":{"coordinates":[6.149877,50.863044],"type":"Point"},"properties":{"osm_id":"4447901531","tag":{"amenity":"waste_basket"}},"type":"Feature"},
	{"geometry":{"coordinates":[6.150397,50.863068],"type":"Point"},"properties":{"osm_id":"4447901532","tag":{"amenity":"waste_basket"}},"type":"Feature"},
	{"geometry":{"coordinates":[6.150431,50.863349],"type":"Point"},"properties":{"osm_id":"4447901534","tag":{"amenity":"waste_basket"}},"type":"Feature"},
	{"geometry":{"coordinates":[6.15065,50.863434],"type":"Point"},"properties":{"osm_id":"4447901536","tag":{"amenity":"waste_basket"}},"type":"Feature"},
	{"geometry":{"coordinates":[6.150877,50.863456],"type":"Point"},"properties":{"osm_id":"4447901537","tag":{"amenity":"waste_basket"}},"type":"Feature"},
	{"geometry":{"coordinates":[6.149689,50.862052],"type":"Point"},"properties":{"osm_id":"4458427928","tag":{"amenity":"waste_basket"}},"type":"Feature"},
	{"geometry":{"coordinates":[6.148615,50.863217],"type":"Point"},"properties":{"osm_id":"4458427938","tag":{"amenity":"waste_basket"}},"type":"Feature"},
	{"geometry":{"coordinates":[6.149792,50.863456],"type":"Point"},"properties":{"osm_id":"4458427941","tag":{"amenity":"waste_basket"}},"type":"Feature"},
	{"geometry":{"coordinates":[6.149107,50.863483],"type":"Point"},"properties":{"osm_id":"4458427942","tag":{"amenity":"waste_basket"}},"type":"Feature"},
	{"geometry":{"coordinates":[6.148559,50.863678],"type":"Point"},"properties":{"osm_id":"4458427947","tag":{"amenity":"waste_basket"}},"type":"Feature"},
	{"geometry":{"coordinates":[6.149567,50.863712],"type":"Point"},"properties":{"osm_id":"4458427949","tag":{"amenity":"waste_basket"}},"type":"Feature"},
	{"geometry":{"coordinates":[6.148772,50.863831],"type":"Point"},"properties":{"osm_id":"4458427954","tag":{"amenity":"waste_basket"}},"type":"Feature"},
	{"geometry":{"coordinates":[6.094368,50.870949],"type":"Point"},"properties":{"osm_id":"4550602643","tag":{"amenity":"waste_basket","check_date":"2021-02-07"}},"type":"Feature"},
	{"geometry":{"coordinates":[6.094687,50.871275],"type":"Point"},"properties":{"osm_id":"4550602649","tag":{"amenity":"waste_basket"}},"type":"Feature"},
	{"geometry":{"coordinates":[6.140696,50.876644],"type":"Point"},"properties":{"osm_id":"4565156987","tag":{"amenity":"recycling","recycling:clothes":"yes","recycling:shoes":"yes","recycling_type":"container"}},"type":"Feature"},
	{"geometry":{"coordinates":[6.100346,50.885197],"type":"Point"},"properties":{"osm_id":"4585069360","tag":{"amenity":"waste_basket"}},"type":"Feature"},
	{"geometry":{"coordinates":[6.101053,50.88543],"type":"Point"},"properties":{"osm_id":"4585069361","tag":{"amenity":"waste_basket"}},"type":"Feature"},
	{"geometry":{"coordinates":[6.101242,50.885469],"type":"Point"},"properties":{"osm_id":"4585069362","tag":{"amenity":"waste_basket"}},"type":"Feature"},
	{"geometry":{"coordinates":[6.06983,50.868835],"type":"Point"},"properties":{"osm_id":"4797759533","tag":{"amenity":"recycling","recycling:cardboard":"yes","recycling:clothes":"yes","recycling:glass":"yes","recycling:green_waste":"yes","recycling:paper":"yes","recycling:shoes":"yes","recycling:waste":"yes","recycling_type":"container"}},"type":"Feature"},
	{"geometry":{"coordinates":[6.131693,50.866248],"type":"Point"},"properties":{"osm_id":"4853823598","tag":{"amenity":"waste_basket"}},"type":"Feature"},
	{"geometry":{"coordinates":[6.140259,50.875603],"type":"Point"},"properties":{"osm_id":"4926686440","tag":{"amenity":"waste_basket"}},"type":"Feature"},
	{"geometry":{"coordinates":[6.152075,50.862284],"type":"Point"},"properties":{"osm_id":"5060481033","tag":{"amenity":"waste_basket"}},"type":"Feature"},
	{"geometry":{"coordinates":[6.150007,50.873283],"type":"Point"},"properties":{"osm_id":"5137239734","tag":{"amenity":"waste_basket"}},"type":"Feature"},
	{"geometry":{"coordinates":[6.065176,50.877738],"type":"Point"},"properties":{"osm_id":"5785663617","tag":{"amenity":"waste_disposal","waste":"trash"}},"type":"Feature"},
	{"geometry":{"coordinates":[6.111797,50.878848],"type":"Point"},"properties":{"osm_id":"6004384606","tag":{"amenity":"waste_basket"}},"type":"Feature"},
	{"geometry":{"coordinates":[6.0675,50.85897],"type":"Point"},"properties":{"osm_id":"6012815336","tag":{"amenity":"recycling","recycling:clothes":"yes","recycling:glass_bottles":"yes","recycling:paper":"yes","recycling_type":"container"}},"type":"Feature"},
	{"geometry":{"coordinates":[6.141342,50.881663],"type":"Point"},"properties":{"osm_id":"6017308859","tag":{"amenity":"waste_basket"}},"type":"Feature"},
	{"geometry":{"coordinates":[6.137814,50.877289],"type":"Point"},"properties":{"osm_id":"6018123588","tag":{"amenity":"recycling","recycling:clothes":"yes","recycling:glass_bottles":"yes","recycling:scrap_metal":"yes","recycling:shoes":"yes","recycling:small_electrical_appliances":"yes","recycling_type":"container"}},"type":"Feature"},
	{"geometry":{"coordinates":[6.151616,50.874644],"type":"Point"},"properties":{"osm_id":"6024560431","tag":{"amenity":"waste_basket"}},"type":"Feature"},
	{"geometry":{"coordinates":[6.152318,50.874439],"type":"Point"},"properties":{"osm_id":"6024560432","tag":{"amenity":"waste_basket"}},"type":"Feature"},
	{"geometry":{"coordinates":[6.149966,50.874085],"type":"Point"},"properties":{"osm_id":"6024560436","tag":{"amenity":"waste_basket"}},"type":"Feature"},
	{"geometry":{"coordinates":[6.134873,50.878766],"type":"Point"},"properties":{"osm_id":"6032181502","tag":{"amenity":"recycling","recycling:clothes":"yes","recycling:glass_bottles":"yes","recycling:shoes":"yes","recycling_type":"container"}},"type":"Feature"},
	{"geometry":{"coordinates":[6.135481,50.867448],"type":"Point"},"properties":{"osm_id":"6032904912","tag":{"amenity":"recycling","recycling:clothes":"yes","recycling:glass_bottles":"yes","recycling:scrap_metal":"yes","recycling:shoes":"yes","recycling:small_electrical_appliances":"yes","recycling_type":"container"}},"type":"Feature"},
	{"geometry":{"coordinates":[6.089653,50.85853],"type":"Point"},"properties":{"osm_id":"7868794995","tag":{"amenity":"waste_basket"}},"type":"Feature"},
	{"geometry":{"coordinates":[6.096699,50.857118],"type":"Point"},"properties":{"osm_id":"7868794996","tag":{"amenity":"waste_basket"}},"type":"Feature"}
]
}
