{
"type": "FeatureCollection",
"features": [
	{"geometry":{"coordinates":[6.139748,49.911003],"type":"Point"},"properties":{"osm_id":"317358226","tag":{"amenity":"recycling","recycling:glass_bottles":"yes","recycling_type":"container"}},"type":"Feature"},
	{"geometry":{"coordinates":[6.070829,49.942599],"type":"Point"},"properties":{"osm_id":"1690925472","tag":{"amenity":"waste_basket"}},"type":"Feature"},
	{"geometry":{"coordinates":[6.071865,49.943181],"type":"Point"},"properties":{"osm_id":"1690925479","tag":{"amenity":"waste_basket"}},"type":"Feature"},
	{"geometry":{"coordinates":[6.068839,49.94585],"type":"Point"},"properties":{"osm_id":"1690925515","tag":{"amenity":"waste_basket"}},"type":"Feature"},
	{"geometry":{"coordinates":[6.066164,49.946381],"type":"Point"},"properties":{"osm_id":"1690925543","tag":{"amenity":"waste_basket"}},"type":"Feature"},
	{"geometry":{"coordinates":[6.081365,49.949375],"type":"Point"},"properties":{"osm_id":"1690925561","tag":{"amenity":"waste_basket"}},"type":"Feature"},
	{"geometry":{"coordinates":[6.08139,49.949545],"type":"Point"},"properties":{"osm_id":"1690925578","tag":{"amenity":"waste_basket"}},"type":"Feature"},
	{"geometry":{"coordinates":[6.097591,49.938314],"type":"Point"},"properties":{"osm_id":"4922349478","tag":{"amenity":"waste_basket"}},"type":"Feature"},
	{"geometry":{"coordinates":[6.073554,49.935682],"type":"Point"},"properties":{"osm_id":"4934322577","tag":{"amenity":"waste_basket"}},"type":"Feature"},
	{"geometry":{"coordinates":[6.075361,49.946359],"type":"Point"},"properties":{"osm_id":"4934322582","tag":{"amenity":"waste_basket"}},"type":"Feature"},
	{"geometry":{"coordinates":[6.151681,49.910991],"type":"Point"},"properties":{"osm_id":"4960097609","tag":{"amenity":"waste_basket"}},"type":"Feature"},
	{"geometry":{"coordinates":[6.085932,49.91804],"type":"Point"},"properties":{"osm_id":"5860787186","tag":{"amenity":"waste_basket","colour":"red","material":"metal"}},"type":"Feature"},
	{"geometry":{"coordinates":[6.085996,49.919014],"type":"Point"},"properties":{"osm_id":"5860788785","tag":{"amenity":"waste_disposal"}},"type":"Feature"},
	{"geometry":{"coordinates":[6.07549,49.925531],"type":"Point"},"properties":{"osm_id":"7080583068","tag":{"amenity":"waste_basket"}},"type":"Feature"},
	{"geometry":{"coordinates":[6.147432,49.947052],"type":"Point"},"properties":{"osm_id":"7701856875","tag":{"amenity":"waste_basket","colour":"green","material":"metal"}},"type":"Feature"},
	{"geometry":{"coordinates":[6.090478,49.899707],"type":"Point"},"properties":{"osm_id":"7706681139","tag":{"amenity":"waste_basket","colour":"maroon","material":"metal"}},"type":"Feature"},
	{"geometry":{"coordinates":[6.090791,49.897429],"type":"Point"},"properties":{"osm_id":"7717635897","tag":{"amenity":"waste_basket","colour":"red","material":"metal"}},"type":"Feature"},
	{"geometry":{"coordinates":[6.090808,49.897429],"type":"Point"},"properties":{"osm_id":"7717635898","tag":{"amenity":"recycling","recycling:glass_bottles":"yes","recycling_type":"container"}},"type":"Feature"},
	{"geometry":{"coordinates":[6.090826,49.897418],"type":"Point"},"properties":{"osm_id":"7717635899","tag":{"amenity":"recycling","recycling:glass_bottles":"yes","recycling_type":"container"}},"type":"Feature"},
	{"geometry":{"coordinates":[6.101676,49.9053],"type":"Point"},"properties":{"osm_id":"7721866829","tag":{"amenity":"waste_basket","colour":"green","material":"metal"}},"type":"Feature"},
	{"geometry":{"coordinates":[6.105249,49.895444],"type":"Point"},"properties":{"osm_id":"7725233061","tag":{"amenity":"waste_basket","colour":"green","material":"metal"}},"type":"Feature"},
	{"geometry":{"coordinates":[6.105414,49.895777],"type":"Point"},"properties":{"osm_id":"7725233063","tag":{"amenity":"waste_basket","colour":"green","material":"metal"}},"type":"Feature"},
	{"geometry":{"coordinates":[6.111603,49.90335],"type":"Point"},"properties":{"osm_id":"7726476683","tag":{"amenity":"waste_basket","colour":"green","material":"plastic"}},"type":"Feature"},
	{"geometry":{"coordinates":[6.087679,49.913371],"type":"Point"},"properties":{"osm_id":"7728980746","tag":{"amenity":"waste_basket","waste":"dog_excrement"}},"type":"Feature"},
	{"geometry":{"coordinates":[6.084713,49.921171],"type":"Point"},"properties":{"osm_id":"7734672774","tag":{"amenity":"waste_basket","colour":"red","material":"metal"}},"type":"Feature"},
	{"geometry":{"coordinates":[6.089948,49.92515],"type":"Point"},"properties":{"osm_id":"7737935401","tag":{"amenity":"waste_basket","colour":"green","material":"metal"}},"type":"Feature"},
	{"geometry":{"coordinates":[6.08995,49.925153],"type":"Point"},"properties":{"osm_id":"7737935402","tag":{"amenity":"waste_basket","colour":"green","material":"metal"}},"type":"Feature"},
	{"geometry":{"coordinates":[6.084853,49.918106],"type":"Point"},"properties":{"osm_id":"7745062615","tag":{"amenity":"waste_basket","material":"metal"}},"type":"Feature"},
	{"geometry":{"coordinates":[6.086154,49.919027],"type":"Point"},"properties":{"osm_id":"7745062627","tag":{"amenity":"waste_basket","colour":"red","material":"metal"}},"type":"Feature"},
	{"geometry":{"coordinates":[6.08583,49.917029],"type":"Point"},"properties":{"osm_id":"7746274353","tag":{"amenity":"waste_basket","colour":"red","material":"metal"}},"type":"Feature"},
	{"geometry":{"coordinates":[6.070923,49.934625],"type":"Point"},"properties":{"osm_id":"7762277163","tag":{"amenity":"waste_basket","colour":"green","material":"plastic"}},"type":"Feature"},
	{"geometry":{"coordinates":[6.069037,49.908048],"type":"Point"},"properties":{"osm_id":"7766457071","tag":{"amenity":"recycling","recycling:glass":"yes","recycling_type":"container"}},"type":"Feature"},
	{"geometry":{"coordinates":[6.131649,49.902657],"type":"Point"},"properties":{"osm_id":"7778326347","tag":{"amenity":"waste_basket","colour":"green","material":"metal"}},"type":"Feature"},
	{"geometry":{"coordinates":[6.084585,49.93845],"type":"Point"},"properties":{"osm_id":"7778755552","tag":{"amenity":"waste_basket","material":"metal"}},"type":"Feature"},
	{"geometry":{"coordinates":[6.082647,49.940208],"type":"Point"},"properties":{"osm_id":"7778869870","tag":{"amenity":"waste_basket","colour":"green","material":"metal"}},"type":"Feature"},
	{"geometry":{"coordinates":[6.082742,49.940301],"type":"Point"},"properties":{"osm_id":"7778869871","tag":{"amenity":"waste_basket","colour":"green","material":"metal"}},"type":"Feature"},
	{"geometry":{"coordinates":[6.080625,49.945891],"type":"Point"},"properties":{"osm_id":"7779192875","tag":{"amenity":"waste_basket","material":"metal"}},"type":"Feature"},
	{"geometry":{"coordinates":[6.08031,49.945921],"type":"Point"},"properties":{"osm_id":"7779192909","tag":{"amenity":"waste_basket","material":"metal"}},"type":"Feature"},
	{"geometry":{"coordinates":[6.079433,49.945689],"type":"Point"},"properties":{"osm_id":"7779256957","tag":{"amenity":"waste_basket","colour":"green","material":"metal"}},"type":"Feature"},
	{"geometry":{"coordinates":[6.081793,49.949334],"type":"Point"},"properties":{"osm_id":"7780317153","tag":{"amenity":"waste_basket","material":"metal"}},"type":"Feature"},
	{"geometry":{"coordinates":[6.081196,49.950192],"type":"Point"},"properties":{"osm_id":"7780440324","tag":{"amenity":"waste_basket","material":"metal"}},"type":"Feature"},
	{"geometry":{"coordinates":[6.080977,49.950121],"type":"Point"},"properties":{"osm_id":"7780440336","tag":{"amenity":"waste_basket","material":"metal"}},"type":"Feature"},
	{"geometry":{"coordinates":[6.083456,49.942198],"type":"Point"},"properties":{"osm_id":"7780519467","tag":{"amenity":"recycling","recycling:glass_bottles":"yes","recycling_type":"container"}},"type":"Feature"},
	{"geometry":{"coordinates":[6.129534,49.948231],"type":"Point"},"properties":{"osm_id":"7792253428","tag":{"amenity":"waste_basket","colour":"blue","material":"metal"}},"type":"Feature"},
	{"geometry":{"coordinates":[6.123557,49.950812],"type":"Point"},"properties":{"osm_id":"7792424276","tag":{"amenity":"waste_basket","colour":"green","material":"metal"}},"type":"Feature"}
]
}
