{
"type": "FeatureCollection",
"features": [
	{"geometry":{"coordinates":[6.103337,49.582377],"type":"Point"},"properties":{"osm_id":"772110039","tag":{"amenity":"waste_basket"}},"type":"Feature"},
	{"geometry":{"coordinates":[6.107634,49.582755],"type":"Point"},"properties":{"osm_id":"772110052","tag":{"amenity":"waste_basket"}},"type":"Feature"},
	{"geometry":{"coordinates":[6.107964,49.608609],"type":"Point"},"properties":{"osm_id":"930005761","tag":{"amenity":"recycling","recycling:clothes":"yes","recycling:glass":"yes","recycling:paper":"yes","recycling_type":"container"}},"type":"Feature"},
	{"geometry":{"coordinates":[6.139487,49.601902],"type":"Point"},"properties":{"osm_id":"937185671","tag":{"amenity":"recycling","mapillary":"hnDHdAnf9c69j3IGCKIUJg","recycling:clothes":"yes","recycling:glass":"yes","recycling:paper":"yes","recycling_type":"container","survey:date":"2018-02-08"}},"type":"Feature"},
	{"geometry":{"coordinates":[6.118112,49.598517],"type":"Point"},"properties":{"osm_id":"937185704","tag":{"amenity":"recycling","mapillary":"si9ru6EjTpU6croBLY3Z-g","recycling:clothes":"yes","recycling:glass_bottles":"yes","recycling:paper":"yes","recycling_type":"container","survey:date":"2017-10-28"}},"type":"Feature"},
	{"geometry":{"coordinates":[6.106584,49.60629],"type":"Point"},"properties":{"osm_id":"956429337","tag":{"amenity":"recycling","location":"overground","recycling:clothes":"yes","recycling:glass":"yes","recycling:paper":"yes","recycling_type":"container"}},"type":"Feature"},
	{"geometry":{"coordinates":[6.112461,49.604365],"type":"Point"},"properties":{"osm_id":"964971826","tag":{"amenity":"recycling","recycling:clothes":"yes","recycling:glass":"yes","recycling:paper":"yes"}},"type":"Feature"},
	{"geometry":{"coordinates":[6.131676,49.598987],"type":"Point"},"properties":{"osm_id":"975721065","tag":{"amenity":"recycling","location":"overground","recycling:clothes":"yes","recycling:glass":"yes","recycling:paper":"yes","recycling_type":"container"}},"type":"Feature"},
	{"geometry":{"coordinates":[6.142529,49.604429],"type":"Point"},"properties":{"osm_id":"1239953565","tag":{"amenity":"waste_basket"}},"type":"Feature"},
	{"geometry":{"coordinates":[6.104841,49.60709],"type":"Point"},"properties":{"osm_id":"1252557164","tag":{"amenity":"waste_basket"}},"type":"Feature"},
	{"geometry":{"coordinates":[6.1065,49.606569],"type":"Point"},"properties":{"osm_id":"1252607709","tag":{"amenity":"waste_basket"}},"type":"Feature"},
	{"geometry":{"coordinates":[6.106594,49.606331],"type":"Point"},"properties":{"osm_id":"1252607710","tag":{"amenity":"waste_basket"}},"type":"Feature"},
	{"geometry":{"coordinates":[6.106758,49.606371],"type":"Point"},"properties":{"osm_id":"1252607714","tag":{"amenity":"waste_basket"}},"type":"Feature"},
	{"geometry":{"coordinates":[6.106719,49.606554],"type":"Point"},"properties":{"osm_id":"1252607717","tag":{"amenity":"waste_basket"}},"type":"Feature"},
	{"geometry":{"coordinates":[6.109288,49.5958],"type":"Point"},"properties":{"osm_id":"1258947328","tag":{"amenity":"waste_basket"}},"type":"Feature"},
	{"geometry":{"coordinates":[6.109304,49.595906],"type":"Point"},"properties":{"osm_id":"1258947335","tag":{"amenity":"waste_basket"}},"type":"Feature"},
	{"geometry":{"coordinates":[6.1094,49.595825],"type":"Point"},"properties":{"osm_id":"1258947368","tag":{"amenity":"waste_basket"}},"type":"Feature"},
	{"geometry":{"coordinates":[6.109393,49.595847],"type":"Point"},"properties":{"osm_id":"1258947398","tag":{"amenity":"recycling","recycling:batteries":"yes","recycling:paper":"yes"}},"type":"Feature"},
	{"geometry":{"coordinates":[6.101775,49.590841],"type":"Point"},"properties":{"osm_id":"1258974866","tag":{"amenity":"waste_basket"}},"type":"Feature"},
	{"geometry":{"coordinates":[6.071667,49.56268],"type":"Point"},"properties":{"osm_id":"1261140577","tag":{"amenity":"waste_basket"}},"type":"Feature"},
	{"geometry":{"coordinates":[6.097439,49.598121],"type":"Point"},"properties":{"osm_id":"1262269390","tag":{"amenity":"waste_basket"}},"type":"Feature"},
	{"geometry":{"coordinates":[6.100392,49.590319],"type":"Point"},"properties":{"osm_id":"1262269397","tag":{"amenity":"waste_basket"}},"type":"Feature"},
	{"geometry":{"coordinates":[6.102273,49.59033],"type":"Point"},"properties":{"osm_id":"1262269410","tag":{"amenity":"waste_basket"}},"type":"Feature"},
	{"geometry":{"coordinates":[6.100494,49.590224],"type":"Point"},"properties":{"osm_id":"1262269412","tag":{"amenity":"waste_basket"}},"type":"Feature"},
	{"geometry":{"coordinates":[6.095643,49.599372],"type":"Point"},"properties":{"osm_id":"1262269428","tag":{"amenity":"waste_basket"}},"type":"Feature"},
	{"geometry":{"coordinates":[6.101473,49.597536],"type":"Point"},"properties":{"osm_id":"1262269430","tag":{"amenity":"waste_basket"}},"type":"Feature"},
	{"geometry":{"coordinates":[6.077598,49.600417],"type":"Point"},"properties":{"osm_id":"1278756091","tag":{"amenity":"waste_basket"}},"type":"Feature"},
	{"geometry":{"coordinates":[6.082592,49.596249],"type":"Point"},"properties":{"osm_id":"1278756098","tag":{"amenity":"waste_basket"}},"type":"Feature"},
	{"geometry":{"coordinates":[6.079403,49.601698],"type":"Point"},"properties":{"osm_id":"1278756101","tag":{"amenity":"waste_basket"}},"type":"Feature"},
	{"geometry":{"coordinates":[6.073889,49.591334],"type":"Point"},"properties":{"osm_id":"1278756105","tag":{"amenity":"waste_basket"}},"type":"Feature"},
	{"geometry":{"coordinates":[6.101249,49.602837],"type":"Point"},"properties":{"osm_id":"1278756107","tag":{"amenity":"waste_basket"}},"type":"Feature"},
	{"geometry":{"coordinates":[6.105224,49.605076],"type":"Point"},"properties":{"osm_id":"1286927103","tag":{"amenity":"waste_basket"}},"type":"Feature"},
	{"geometry":{"coordinates":[6.10172,49.608767],"type":"Point"},"properties":{"osm_id":"1286927104","tag":{"amenity":"waste_basket"}},"type":"Feature"},
	{"geometry":{"coordinates":[6.102756,49.607648],"type":"Point"},"properties":{"osm_id":"1286927107","tag":{"amenity":"waste_basket"}},"type":"Feature"},
	{"geometry":{"coordinates":[6.102089,49.608269],"type":"Point"},"properties":{"osm_id":"1286927109","tag":{"amenity":"waste_basket"}},"type":"Feature"},
	{"geometry":{"coordinates":[6.092884,49.60289],"type":"Point"},"properties":{"osm_id":"1319531744","tag":{"amenity":"recycling","mapillary":"dsg4Zf6qiWUgIFGYN5g8gg","recycling:glass":"yes","recycling:paper":"yes","recycling_type":"container","survey:date":"2017-06-17"}},"type":"Feature"},
	{"geometry":{"coordinates":[6.09404,49.598602],"type":"Point"},"properties":{"osm_id":"1366033899","tag":{"amenity":"waste_basket"}},"type":"Feature"},
	{"geometry":{"coordinates":[6.073572,49.605044],"type":"Point"},"properties":{"osm_id":"1375265366","tag":{"amenity":"waste_basket"}},"type":"Feature"},
	{"geometry":{"coordinates":[6.13897,49.605062],"type":"Point"},"properties":{"osm_id":"1378101963","tag":{"amenity":"waste_basket"}},"type":"Feature"},
	{"geometry":{"coordinates":[6.082524,49.582596],"type":"Point"},"properties":{"osm_id":"1380111844","tag":{"amenity":"waste_basket"}},"type":"Feature"},
	{"geometry":{"coordinates":[6.067748,49.605142],"type":"Point"},"properties":{"osm_id":"1394849794","tag":{"amenity":"waste_basket"}},"type":"Feature"},
	{"geometry":{"coordinates":[6.118103,49.598359],"type":"Point"},"properties":{"osm_id":"1397388350","tag":{"amenity":"waste_basket"}},"type":"Feature"},
	{"geometry":{"coordinates":[6.109675,49.604499],"type":"Point"},"properties":{"osm_id":"1397388378","tag":{"amenity":"waste_basket"}},"type":"Feature"},
	{"geometry":{"coordinates":[6.106064,49.606185],"type":"Point"},"properties":{"osm_id":"1397388405","tag":{"amenity":"waste_basket"}},"type":"Feature"},
	{"geometry":{"coordinates":[6.106334,49.603096],"type":"Point"},"properties":{"osm_id":"1398646123","tag":{"amenity":"waste_basket"}},"type":"Feature"},
	{"geometry":{"coordinates":[6.105492,49.603905],"type":"Point"},"properties":{"osm_id":"1398646132","tag":{"amenity":"waste_basket"}},"type":"Feature"},
	{"geometry":{"coordinates":[6.070036,49.58284],"type":"Point"},"properties":{"osm_id":"1399659331","tag":{"amenity":"waste_basket"}},"type":"Feature"},
	{"geometry":{"coordinates":[6.065514,49.584193],"type":"Point"},"properties":{"osm_id":"1399659354","tag":{"amenity":"waste_basket"}},"type":"Feature"},
	{"geometry":{"coordinates":[6.142368,49.60826],"type":"Point"},"properties":{"osm_id":"1401923719","tag":{"amenity":"waste_basket"}},"type":"Feature"},
	{"geometry":{"coordinates":[6.107504,49.604499],"type":"Point"},"properties":{"osm_id":"1402714404","tag":{"amenity":"waste_basket"}},"type":"Feature"},
	{"geometry":{"coordinates":[6.107552,49.604638],"type":"Point"},"properties":{"osm_id":"1402714406","tag":{"amenity":"waste_basket"}},"type":"Feature"},
	{"geometry":{"coordinates":[6.108913,49.605097],"type":"Point"},"properties":{"osm_id":"1402714407","tag":{"amenity":"waste_basket"}},"type":"Feature"},
	{"geometry":{"coordinates":[6.099311,49.607201],"type":"Point"},"properties":{"osm_id":"1422587087","tag":{"amenity":"waste_basket"}},"type":"Feature"},
	{"geometry":{"coordinates":[6.125496,49.594167],"type":"Point"},"properties":{"osm_id":"1428388501","tag":{"amenity":"waste_basket"}},"type":"Feature"},
	{"geometry":{"coordinates":[6.150791,49.593058],"type":"Point"},"properties":{"osm_id":"1432663715","tag":{"amenity":"recycling","recycling:green_waste":"yes","recycling:magazines":"yes","recycling:newspaper":"yes","recycling:paper":"yes","recycling_type":"container"}},"type":"Feature"},
	{"geometry":{"coordinates":[6.131645,49.5839],"type":"Point"},"properties":{"osm_id":"1437761692","tag":{"amenity":"waste_basket"}},"type":"Feature"},
	{"geometry":{"coordinates":[6.129852,49.586947],"type":"Point"},"properties":{"osm_id":"1437761716","tag":{"amenity":"waste_basket"}},"type":"Feature"},
	{"geometry":{"coordinates":[6.129824,49.58701],"type":"Point"},"properties":{"osm_id":"1437761720","tag":{"amenity":"waste_basket"}},"type":"Feature"},
	{"geometry":{"coordinates":[6.127886,49.590534],"type":"Point"},"properties":{"osm_id":"1437761739","tag":{"amenity":"waste_basket"}},"type":"Feature"},
	{"geometry":{"coordinates":[6.125625,49.591343],"type":"Point"},"properties":{"osm_id":"1437761749","tag":{"amenity":"waste_basket"}},"type":"Feature"},
	{"geometry":{"coordinates":[6.128106,49.591439],"type":"Point"},"properties":{"osm_id":"1437761752","tag":{"amenity":"waste_basket"}},"type":"Feature"},
	{"geometry":{"coordinates":[6.129062,49.592011],"type":"Point"},"properties":{"osm_id":"1437761764","tag":{"amenity":"recycling","recycling:batteries":"yes","recycling:clothes":"yes","recycling_type":"container"}},"type":"Feature"},
	{"geometry":{"coordinates":[6.128282,49.592701],"type":"Point"},"properties":{"osm_id":"1437761779","tag":{"amenity":"waste_basket"}},"type":"Feature"},
	{"geometry":{"coordinates":[6.124718,49.592802],"type":"Point"},"properties":{"osm_id":"1437761780","tag":{"amenity":"waste_basket"}},"type":"Feature"},
	{"geometry":{"coordinates":[6.124813,49.592804],"type":"Point"},"properties":{"osm_id":"1437761781","tag":{"amenity":"waste_basket"}},"type":"Feature"},
	{"geometry":{"coordinates":[6.129187,49.593532],"type":"Point"},"properties":{"osm_id":"1437761816","tag":{"amenity":"waste_basket"}},"type":"Feature"},
	{"geometry":{"coordinates":[6.096926,49.600059],"type":"Point"},"properties":{"osm_id":"1439627959","tag":{"amenity":"waste_basket"}},"type":"Feature"},
	{"geometry":{"coordinates":[6.096794,49.600366],"type":"Point"},"properties":{"osm_id":"1439627977","tag":{"amenity":"waste_basket"}},"type":"Feature"},
	{"geometry":{"coordinates":[6.069367,49.563319],"type":"Point"},"properties":{"osm_id":"1494148049","tag":{"amenity":"waste_basket"}},"type":"Feature"},
	{"geometry":{"coordinates":[6.070208,49.563412],"type":"Point"},"properties":{"osm_id":"1494148051","tag":{"amenity":"waste_basket"}},"type":"Feature"},
	{"geometry":{"coordinates":[6.079561,49.565681],"type":"Point"},"properties":{"osm_id":"1494148055","tag":{"amenity":"waste_basket"}},"type":"Feature"},
	{"geometry":{"coordinates":[6.112579,49.603518],"type":"Point"},"properties":{"osm_id":"1508464441","tag":{"amenity":"waste_basket"}},"type":"Feature"},
	{"geometry":{"coordinates":[6.141587,49.59101],"type":"Point"},"properties":{"osm_id":"1508527192","tag":{"amenity":"waste_basket"}},"type":"Feature"},
	{"geometry":{"coordinates":[6.13879,49.596396],"type":"Point"},"properties":{"osm_id":"1508527243","tag":{"amenity":"waste_basket"}},"type":"Feature"},
	{"geometry":{"coordinates":[6.122418,49.599956],"type":"Point"},"properties":{"osm_id":"1508527265","tag":{"amenity":"waste_basket"}},"type":"Feature"},
	{"geometry":{"coordinates":[6.124527,49.601117],"type":"Point"},"properties":{"osm_id":"1508527269","tag":{"amenity":"waste_basket"}},"type":"Feature"},
	{"geometry":{"coordinates":[6.124768,49.601409],"type":"Point"},"properties":{"osm_id":"1508527274","tag":{"amenity":"waste_basket"}},"type":"Feature"},
	{"geometry":{"coordinates":[6.10627,49.606108],"type":"Point"},"properties":{"osm_id":"1510222692","tag":{"amenity":"waste_basket"}},"type":"Feature"},
	{"geometry":{"coordinates":[6.106243,49.609847],"type":"Point"},"properties":{"osm_id":"1510222744","tag":{"amenity":"waste_basket"}},"type":"Feature"},
	{"geometry":{"coordinates":[6.111768,49.604556],"type":"Point"},"properties":{"osm_id":"1510690081","tag":{"amenity":"waste_basket"}},"type":"Feature"},
	{"geometry":{"coordinates":[6.105975,49.606354],"type":"Point"},"properties":{"osm_id":"1510690083","tag":{"amenity":"waste_basket"}},"type":"Feature"},
	{"geometry":{"coordinates":[6.106178,49.609943],"type":"Point"},"properties":{"osm_id":"1510690102","tag":{"amenity":"waste_basket"}},"type":"Feature"},
	{"geometry":{"coordinates":[6.111939,49.610449],"type":"Point"},"properties":{"osm_id":"1510690111","tag":{"amenity":"waste_basket"}},"type":"Feature"},
	{"geometry":{"coordinates":[6.122701,49.599851],"type":"Point"},"properties":{"osm_id":"1511944357","tag":{"amenity":"waste_basket"}},"type":"Feature"},
	{"geometry":{"coordinates":[6.123382,49.60018],"type":"Point"},"properties":{"osm_id":"1511944364","tag":{"amenity":"recycling","recycling:batteries":"yes","recycling:glass":"yes","recycling:paper":"yes","recycling_type":"container"}},"type":"Feature"},
	{"geometry":{"coordinates":[6.117925,49.600326],"type":"Point"},"properties":{"osm_id":"1511944367","tag":{"amenity":"waste_basket"}},"type":"Feature"},
	{"geometry":{"coordinates":[6.12167,49.600409],"type":"Point"},"properties":{"osm_id":"1511944370","tag":{"amenity":"waste_basket"}},"type":"Feature"},
	{"geometry":{"coordinates":[6.118673,49.601413],"type":"Point"},"properties":{"osm_id":"1511944392","tag":{"amenity":"waste_basket"}},"type":"Feature"},
	{"geometry":{"coordinates":[6.125566,49.601626],"type":"Point"},"properties":{"osm_id":"1511944402","tag":{"amenity":"waste_basket"}},"type":"Feature"},
	{"geometry":{"coordinates":[6.125209,49.602636],"type":"Point"},"properties":{"osm_id":"1511944411","tag":{"amenity":"waste_basket"}},"type":"Feature"},
	{"geometry":{"coordinates":[6.119081,49.603249],"type":"Point"},"properties":{"osm_id":"1511944418","tag":{"amenity":"waste_basket"}},"type":"Feature"},
	{"geometry":{"coordinates":[6.118285,49.603189],"type":"Point"},"properties":{"osm_id":"1511944419","tag":{"amenity":"waste_basket"}},"type":"Feature"},
	{"geometry":{"coordinates":[6.118518,49.60319],"type":"Point"},"properties":{"osm_id":"1511944420","tag":{"amenity":"waste_basket"}},"type":"Feature"},
	{"geometry":{"coordinates":[6.118324,49.603603],"type":"Point"},"properties":{"osm_id":"1511944426","tag":{"amenity":"waste_basket"}},"type":"Feature"},
	{"geometry":{"coordinates":[6.113295,49.603768],"type":"Point"},"properties":{"osm_id":"1511944431","tag":{"amenity":"waste_basket"}},"type":"Feature"},
	{"geometry":{"coordinates":[6.114068,49.605858],"type":"Point"},"properties":{"osm_id":"1511944457","tag":{"amenity":"waste_basket"}},"type":"Feature"},
	{"geometry":{"coordinates":[6.112116,49.609103],"type":"Point"},"properties":{"osm_id":"1512028618","tag":{"amenity":"waste_basket"}},"type":"Feature"},
	{"geometry":{"coordinates":[6.105329,49.610411],"type":"Point"},"properties":{"osm_id":"1514587247","tag":{"amenity":"waste_basket"}},"type":"Feature"},
	{"geometry":{"coordinates":[6.113509,49.606023],"type":"Point"},"properties":{"osm_id":"1517844027","tag":{"amenity":"waste_basket"}},"type":"Feature"},
	{"geometry":{"coordinates":[6.112935,49.606118],"type":"Point"},"properties":{"osm_id":"1517844044","tag":{"amenity":"waste_basket"}},"type":"Feature"},
	{"geometry":{"coordinates":[6.116243,49.606976],"type":"Point"},"properties":{"osm_id":"1517844109","tag":{"amenity":"waste_basket"}},"type":"Feature"},
	{"geometry":{"coordinates":[6.121219,49.607291],"type":"Point"},"properties":{"osm_id":"1517844123","tag":{"amenity":"waste_basket"}},"type":"Feature"},
	{"geometry":{"coordinates":[6.121369,49.607305],"type":"Point"},"properties":{"osm_id":"1517844127","tag":{"amenity":"waste_basket"}},"type":"Feature"},
	{"geometry":{"coordinates":[6.105978,49.601834],"type":"Point"},"properties":{"osm_id":"1698603288","tag":{"amenity":"waste_basket"}},"type":"Feature"},
	{"geometry":{"coordinates":[6.109235,49.602199],"type":"Point"},"properties":{"osm_id":"1698603304","tag":{"amenity":"waste_basket"}},"type":"Feature"},
	{"geometry":{"coordinates":[6.1077,49.602231],"type":"Point"},"properties":{"osm_id":"1698603308","tag":{"amenity":"waste_basket"}},"type":"Feature"},
	{"geometry":{"coordinates":[6.108062,49.603908],"type":"Point"},"properties":{"osm_id":"1698603420","tag":{"amenity":"waste_basket"}},"type":"Feature"},
	{"geometry":{"coordinates":[6.112576,49.604592],"type":"Point"},"properties":{"osm_id":"1698603468","tag":{"amenity":"waste_basket"}},"type":"Feature"},
	{"geometry":{"coordinates":[6.096687,49.600503],"type":"Point"},"properties":{"osm_id":"1698668226","tag":{"amenity":"recycling","recycling:batteries":"yes","recycling:glass":"yes","recycling:paper":"yes","recycling_type":"container"}},"type":"Feature"},
	{"geometry":{"coordinates":[6.090011,49.601284],"type":"Point"},"properties":{"osm_id":"1698668270","tag":{"amenity":"waste_basket"}},"type":"Feature"},
	{"geometry":{"coordinates":[6.089999,49.601349],"type":"Point"},"properties":{"osm_id":"1698668276","tag":{"amenity":"waste_basket"}},"type":"Feature"},
	{"geometry":{"coordinates":[6.090227,49.601349],"type":"Point"},"properties":{"osm_id":"1698668277","tag":{"amenity":"waste_basket"}},"type":"Feature"},
	{"geometry":{"coordinates":[6.085866,49.603457],"type":"Point"},"properties":{"osm_id":"1698668298","tag":{"amenity":"waste_basket"}},"type":"Feature"},
	{"geometry":{"coordinates":[6.085428,49.603477],"type":"Point"},"properties":{"osm_id":"1698668299","tag":{"amenity":"waste_basket"}},"type":"Feature"},
	{"geometry":{"coordinates":[6.084934,49.603506],"type":"Point"},"properties":{"osm_id":"1698668300","tag":{"amenity":"waste_basket"}},"type":"Feature"},
	{"geometry":{"coordinates":[6.094694,49.60376],"type":"Point"},"properties":{"osm_id":"1698668304","tag":{"amenity":"waste_basket"}},"type":"Feature"},
	{"geometry":{"coordinates":[6.094579,49.604698],"type":"Point"},"properties":{"osm_id":"1698668308","tag":{"amenity":"waste_basket"}},"type":"Feature"},
	{"geometry":{"coordinates":[6.100323,49.60555],"type":"Point"},"properties":{"osm_id":"1698668314","tag":{"amenity":"waste_basket"}},"type":"Feature"},
	{"geometry":{"coordinates":[6.093651,49.605686],"type":"Point"},"properties":{"osm_id":"1698668316","tag":{"amenity":"waste_basket"}},"type":"Feature"},
	{"geometry":{"coordinates":[6.091149,49.607123],"type":"Point"},"properties":{"osm_id":"1698668325","tag":{"amenity":"waste_basket"}},"type":"Feature"},
	{"geometry":{"coordinates":[6.097308,49.581701],"type":"Point"},"properties":{"osm_id":"1700390834","tag":{"amenity":"waste_basket"}},"type":"Feature"},
	{"geometry":{"coordinates":[6.093371,49.58868],"type":"Point"},"properties":{"osm_id":"1700391021","tag":{"amenity":"waste_basket"}},"type":"Feature"},
	{"geometry":{"coordinates":[6.101817,49.60797],"type":"Point"},"properties":{"osm_id":"1700391054","tag":{"amenity":"waste_basket"}},"type":"Feature"},
	{"geometry":{"coordinates":[6.101888,49.608045],"type":"Point"},"properties":{"osm_id":"1700391071","tag":{"amenity":"waste_basket"}},"type":"Feature"},
	{"geometry":{"coordinates":[6.10205,49.608061],"type":"Point"},"properties":{"osm_id":"1700391087","tag":{"amenity":"waste_basket"}},"type":"Feature"},
	{"geometry":{"coordinates":[6.10142,49.60812],"type":"Point"},"properties":{"osm_id":"1700391115","tag":{"amenity":"waste_basket"}},"type":"Feature"},
	{"geometry":{"coordinates":[6.108063,49.608605],"type":"Point"},"properties":{"osm_id":"1700391131","tag":{"amenity":"waste_basket"}},"type":"Feature"},
	{"geometry":{"coordinates":[6.108719,49.586599],"type":"Point"},"properties":{"osm_id":"1700639708","tag":{"amenity":"waste_basket"}},"type":"Feature"},
	{"geometry":{"coordinates":[6.080145,49.585544],"type":"Point"},"properties":{"osm_id":"1701005829","tag":{"amenity":"waste_basket"}},"type":"Feature"},
	{"geometry":{"coordinates":[6.084618,49.587122],"type":"Point"},"properties":{"osm_id":"1701005835","tag":{"amenity":"waste_basket"}},"type":"Feature"},
	{"geometry":{"coordinates":[6.094105,49.593404],"type":"Point"},"properties":{"osm_id":"1701005839","tag":{"amenity":"waste_basket"}},"type":"Feature"},
	{"geometry":{"coordinates":[6.096601,49.600573],"type":"Point"},"properties":{"osm_id":"1701005857","tag":{"amenity":"waste_basket"}},"type":"Feature"},
	{"geometry":{"coordinates":[6.096498,49.600117],"type":"Point"},"properties":{"osm_id":"1701654335","tag":{"amenity":"waste_basket"}},"type":"Feature"},
	{"geometry":{"coordinates":[6.096165,49.600145],"type":"Point"},"properties":{"osm_id":"1701654338","tag":{"amenity":"waste_basket"}},"type":"Feature"},
	{"geometry":{"coordinates":[6.095676,49.600352],"type":"Point"},"properties":{"osm_id":"1701654367","tag":{"amenity":"waste_basket"}},"type":"Feature"},
	{"geometry":{"coordinates":[6.094332,49.600564],"type":"Point"},"properties":{"osm_id":"1701654384","tag":{"amenity":"waste_basket"}},"type":"Feature"},
	{"geometry":{"coordinates":[6.093685,49.600676],"type":"Point"},"properties":{"osm_id":"1701654416","tag":{"amenity":"waste_basket"}},"type":"Feature"},
	{"geometry":{"coordinates":[6.072928,49.58173],"type":"Point"},"properties":{"osm_id":"1702796124","tag":{"amenity":"waste_basket"}},"type":"Feature"},
	{"geometry":{"coordinates":[6.067822,49.584727],"type":"Point"},"properties":{"osm_id":"1712499592","tag":{"amenity":"waste_basket"}},"type":"Feature"},
	{"geometry":{"coordinates":[6.10451,49.586997],"type":"Point"},"properties":{"osm_id":"1713200228","tag":{"amenity":"waste_basket"}},"type":"Feature"},
	{"geometry":{"coordinates":[6.105048,49.588847],"type":"Point"},"properties":{"osm_id":"1713200326","tag":{"amenity":"waste_basket"}},"type":"Feature"},
	{"geometry":{"coordinates":[6.106095,49.589175],"type":"Point"},"properties":{"osm_id":"1713200374","tag":{"amenity":"waste_basket"}},"type":"Feature"},
	{"geometry":{"coordinates":[6.107406,49.589402],"type":"Point"},"properties":{"osm_id":"1713200441","tag":{"amenity":"waste_basket"}},"type":"Feature"},
	{"geometry":{"coordinates":[6.107029,49.590092],"type":"Point"},"properties":{"osm_id":"1713200477","tag":{"amenity":"recycling","recycling:batteries":"yes","recycling:clothes":"yes","recycling:glass_bottles":"yes","recycling:paper":"yes","recycling_type":"container"}},"type":"Feature"},
	{"geometry":{"coordinates":[6.106985,49.590207],"type":"Point"},"properties":{"osm_id":"1713200492","tag":{"amenity":"waste_basket"}},"type":"Feature"},
	{"geometry":{"coordinates":[6.151585,49.605127],"type":"Point"},"properties":{"osm_id":"1716482756","tag":{"amenity":"waste_basket"}},"type":"Feature"},
	{"geometry":{"coordinates":[6.148355,49.605948],"type":"Point"},"properties":{"osm_id":"1716482778","tag":{"amenity":"waste_basket"}},"type":"Feature"},
	{"geometry":{"coordinates":[6.147743,49.609156],"type":"Point"},"properties":{"osm_id":"1716482877","tag":{"amenity":"waste_basket"}},"type":"Feature"},
	{"geometry":{"coordinates":[6.139039,49.579054],"type":"Point"},"properties":{"osm_id":"1716739523","tag":{"amenity":"waste_basket"}},"type":"Feature"},
	{"geometry":{"coordinates":[6.139929,49.580293],"type":"Point"},"properties":{"osm_id":"1716739578","tag":{"amenity":"waste_basket"}},"type":"Feature"},
	{"geometry":{"coordinates":[6.140628,49.581989],"type":"Point"},"properties":{"osm_id":"1716739710","tag":{"amenity":"waste_basket"}},"type":"Feature"},
	{"geometry":{"coordinates":[6.144151,49.579124],"type":"Point"},"properties":{"osm_id":"1717056305","tag":{"amenity":"waste_basket"}},"type":"Feature"},
	{"geometry":{"coordinates":[6.14541,49.57122],"type":"Point"},"properties":{"osm_id":"1717565067","tag":{"amenity":"waste_basket"}},"type":"Feature"},
	{"geometry":{"coordinates":[6.102173,49.603257],"type":"Point"},"properties":{"osm_id":"1717755513","tag":{"amenity":"waste_basket"}},"type":"Feature"},
	{"geometry":{"coordinates":[6.103309,49.60376],"type":"Point"},"properties":{"osm_id":"1717755516","tag":{"amenity":"waste_basket"}},"type":"Feature"},
	{"geometry":{"coordinates":[6.10401,49.604065],"type":"Point"},"properties":{"osm_id":"1717755520","tag":{"amenity":"waste_basket"}},"type":"Feature"},
	{"geometry":{"coordinates":[6.112185,49.609453],"type":"Point"},"properties":{"osm_id":"1717863779","tag":{"amenity":"waste_basket"}},"type":"Feature"},
	{"geometry":{"coordinates":[6.11248,49.609456],"type":"Point"},"properties":{"osm_id":"1717863783","tag":{"amenity":"waste_basket"}},"type":"Feature"},
	{"geometry":{"coordinates":[6.112246,49.609542],"type":"Point"},"properties":{"osm_id":"1717863797","tag":{"amenity":"waste_basket"}},"type":"Feature"},
	{"geometry":{"coordinates":[6.132631,49.604948],"type":"Point"},"properties":{"osm_id":"1720649473","tag":{"amenity":"waste_basket"}},"type":"Feature"},
	{"geometry":{"coordinates":[6.133021,49.605201],"type":"Point"},"properties":{"osm_id":"1720649491","tag":{"amenity":"waste_basket"}},"type":"Feature"},
	{"geometry":{"coordinates":[6.132155,49.605461],"type":"Point"},"properties":{"osm_id":"1720649494","tag":{"amenity":"waste_basket"}},"type":"Feature"},
	{"geometry":{"coordinates":[6.136113,49.605959],"type":"Point"},"properties":{"osm_id":"1720649504","tag":{"amenity":"waste_basket"}},"type":"Feature"},
	{"geometry":{"coordinates":[6.094831,49.602445],"type":"Point"},"properties":{"osm_id":"1721583534","tag":{"amenity":"waste_basket"}},"type":"Feature"},
	{"geometry":{"coordinates":[6.094749,49.602601],"type":"Point"},"properties":{"osm_id":"1721583545","tag":{"amenity":"waste_basket"}},"type":"Feature"},
	{"geometry":{"coordinates":[6.094406,49.580492],"type":"Point"},"properties":{"osm_id":"1726316415","tag":{"amenity":"recycling"}},"type":"Feature"},
	{"geometry":{"coordinates":[6.144688,49.60687],"type":"Point"},"properties":{"osm_id":"1734996364","tag":{"amenity":"waste_basket"}},"type":"Feature"},
	{"geometry":{"coordinates":[6.146968,49.607069],"type":"Point"},"properties":{"osm_id":"1734996425","tag":{"amenity":"waste_basket","vending":"parking_tickets"}},"type":"Feature"},
	{"geometry":{"coordinates":[6.145197,49.606078],"type":"Point"},"properties":{"osm_id":"1734996453","tag":{"amenity":"waste_basket"}},"type":"Feature"},
	{"geometry":{"coordinates":[6.144877,49.606796],"type":"Point"},"properties":{"osm_id":"1734996459","tag":{"amenity":"waste_basket"}},"type":"Feature"},
	{"geometry":{"coordinates":[6.148317,49.576255],"type":"Point"},"properties":{"osm_id":"1736387350","tag":{"amenity":"waste_basket"}},"type":"Feature"},
	{"geometry":{"coordinates":[6.140479,49.582353],"type":"Point"},"properties":{"osm_id":"1747616736","tag":{"amenity":"waste_basket"}},"type":"Feature"},
	{"geometry":{"coordinates":[6.140691,49.582686],"type":"Point"},"properties":{"osm_id":"1747616759","tag":{"amenity":"waste_basket"}},"type":"Feature"},
	{"geometry":{"coordinates":[6.142452,49.602539],"type":"Point"},"properties":{"osm_id":"1768825568","tag":{"amenity":"waste_basket"}},"type":"Feature"},
	{"geometry":{"coordinates":[6.142251,49.602184],"type":"Point"},"properties":{"osm_id":"1768825598","tag":{"amenity":"waste_basket"}},"type":"Feature"},
	{"geometry":{"coordinates":[6.142313,49.601995],"type":"Point"},"properties":{"osm_id":"1768825601","tag":{"amenity":"waste_basket"}},"type":"Feature"},
	{"geometry":{"coordinates":[6.142484,49.602242],"type":"Point"},"properties":{"osm_id":"1768825625","tag":{"amenity":"waste_basket"}},"type":"Feature"},
	{"geometry":{"coordinates":[6.142673,49.602527],"type":"Point"},"properties":{"osm_id":"1768825630","tag":{"amenity":"waste_basket"}},"type":"Feature"},
	{"geometry":{"coordinates":[6.14244,49.602202],"type":"Point"},"properties":{"osm_id":"1768825653","tag":{"amenity":"waste_basket"}},"type":"Feature"},
	{"geometry":{"coordinates":[6.09074,49.596191],"type":"Point"},"properties":{"osm_id":"1786331753","tag":{"amenity":"waste_basket"}},"type":"Feature"},
	{"geometry":{"coordinates":[6.106162,49.599243],"type":"Point"},"properties":{"osm_id":"1786331875","tag":{"amenity":"waste_basket"}},"type":"Feature"},
	{"geometry":{"coordinates":[6.10134,49.603169],"type":"Point"},"properties":{"osm_id":"1786331930","tag":{"amenity":"waste_basket"}},"type":"Feature"},
	{"geometry":{"coordinates":[6.100908,49.603607],"type":"Point"},"properties":{"osm_id":"1786331933","tag":{"amenity":"waste_basket"}},"type":"Feature"},
	{"geometry":{"coordinates":[6.114541,49.599126],"type":"Point"},"properties":{"osm_id":"1788525453","tag":{"amenity":"waste_basket"}},"type":"Feature"},
	{"geometry":{"coordinates":[6.11937,49.599318],"type":"Point"},"properties":{"osm_id":"1788525459","tag":{"amenity":"recycling","recycling:batteries":"yes","recycling:glass_bottles":"yes","recycling:paper":"yes","recycling_type":"container"}},"type":"Feature"},
	{"geometry":{"coordinates":[6.125778,49.599919],"type":"Point"},"properties":{"osm_id":"1788525477","tag":{"amenity":"waste_basket"}},"type":"Feature"},
	{"geometry":{"coordinates":[6.133363,49.60454],"type":"Point"},"properties":{"osm_id":"1788525481","tag":{"amenity":"waste_basket"}},"type":"Feature"},
	{"geometry":{"coordinates":[6.106587,49.606186],"type":"Point"},"properties":{"osm_id":"1788525485","tag":{"amenity":"waste_basket"}},"type":"Feature"},
	{"geometry":{"coordinates":[6.127654,49.60929],"type":"Point"},"properties":{"osm_id":"1791722256","tag":{"amenity":"waste_basket"}},"type":"Feature"},
	{"geometry":{"coordinates":[6.128318,49.609434],"type":"Point"},"properties":{"osm_id":"1791722263","tag":{"amenity":"waste_basket"}},"type":"Feature"},
	{"geometry":{"coordinates":[6.110188,49.606439],"type":"Point"},"properties":{"osm_id":"1795007433","tag":{"amenity":"waste_basket"}},"type":"Feature"},
	{"geometry":{"coordinates":[6.113807,49.606658],"type":"Point"},"properties":{"osm_id":"1795007435","tag":{"amenity":"waste_basket"}},"type":"Feature"},
	{"geometry":{"coordinates":[6.113876,49.606831],"type":"Point"},"properties":{"osm_id":"1795007437","tag":{"amenity":"waste_basket"}},"type":"Feature"},
	{"geometry":{"coordinates":[6.122088,49.61011],"type":"Point"},"properties":{"osm_id":"1795007444","tag":{"amenity":"waste_basket"}},"type":"Feature"},
	{"geometry":{"coordinates":[6.073635,49.605511],"type":"Point"},"properties":{"osm_id":"1796180435","tag":{"amenity":"waste_basket"}},"type":"Feature"},
	{"geometry":{"coordinates":[6.07345,49.605821],"type":"Point"},"properties":{"osm_id":"1796180454","tag":{"amenity":"waste_basket"}},"type":"Feature"},
	{"geometry":{"coordinates":[6.071848,49.606425],"type":"Point"},"properties":{"osm_id":"1796180463","tag":{"amenity":"waste_basket"}},"type":"Feature"},
	{"geometry":{"coordinates":[6.094156,49.602637],"type":"Point"},"properties":{"osm_id":"1796898507","tag":{"amenity":"waste_basket"}},"type":"Feature"},
	{"geometry":{"coordinates":[6.093813,49.602695],"type":"Point"},"properties":{"osm_id":"1796898508","tag":{"amenity":"waste_basket"}},"type":"Feature"},
	{"geometry":{"coordinates":[6.092071,49.602811],"type":"Point"},"properties":{"osm_id":"1796898509","tag":{"amenity":"waste_basket"}},"type":"Feature"},
	{"geometry":{"coordinates":[6.11112,49.60522],"type":"Point"},"properties":{"osm_id":"1802821983","tag":{"amenity":"waste_basket"}},"type":"Feature"},
	{"geometry":{"coordinates":[6.110842,49.605529],"type":"Point"},"properties":{"osm_id":"1802821989","tag":{"amenity":"waste_basket"}},"type":"Feature"},
	{"geometry":{"coordinates":[6.102598,49.605935],"type":"Point"},"properties":{"osm_id":"1802822000","tag":{"amenity":"waste_basket"}},"type":"Feature"},
	{"geometry":{"coordinates":[6.105935,49.606152],"type":"Point"},"properties":{"osm_id":"1802822003","tag":{"amenity":"waste_basket"}},"type":"Feature"},
	{"geometry":{"coordinates":[6.101901,49.607489],"type":"Point"},"properties":{"osm_id":"1802822020","tag":{"amenity":"waste_basket"}},"type":"Feature"},
	{"geometry":{"coordinates":[6.129508,49.608273],"type":"Point"},"properties":{"osm_id":"1802822029","tag":{"amenity":"waste_basket"}},"type":"Feature"},
	{"geometry":{"coordinates":[6.125695,49.608343],"type":"Point"},"properties":{"osm_id":"1802822032","tag":{"amenity":"waste_basket"}},"type":"Feature"},
	{"geometry":{"coordinates":[6.104561,49.608667],"type":"Point"},"properties":{"osm_id":"1802822040","tag":{"amenity":"waste_basket"}},"type":"Feature"},
	{"geometry":{"coordinates":[6.129042,49.608676],"type":"Point"},"properties":{"osm_id":"1802822042","tag":{"amenity":"waste_basket"}},"type":"Feature"},
	{"geometry":{"coordinates":[6.12853,49.60875],"type":"Point"},"properties":{"osm_id":"1802822047","tag":{"amenity":"waste_basket"}},"type":"Feature"},
	{"geometry":{"coordinates":[6.115382,49.61029],"type":"Point"},"properties":{"osm_id":"1802822050","tag":{"amenity":"waste_basket"}},"type":"Feature"},
	{"geometry":{"coordinates":[6.138536,49.608083],"type":"Point"},"properties":{"osm_id":"1812353694","tag":{"amenity":"recycling","recycling:glass_bottles":"yes","recycling:paper":"yes","recycling_type":"container"}},"type":"Feature"},
	{"geometry":{"coordinates":[6.13615,49.608105],"type":"Point"},"properties":{"osm_id":"1812353699","tag":{"amenity":"waste_basket"}},"type":"Feature"},
	{"geometry":{"coordinates":[6.135671,49.608392],"type":"Point"},"properties":{"osm_id":"1812353727","tag":{"amenity":"waste_basket"}},"type":"Feature"},
	{"geometry":{"coordinates":[6.113908,49.601473],"type":"Point"},"properties":{"osm_id":"1833670375","tag":{"amenity":"waste_basket"}},"type":"Feature"},
	{"geometry":{"coordinates":[6.118299,49.603744],"type":"Point"},"properties":{"osm_id":"1833670380","tag":{"amenity":"waste_basket"}},"type":"Feature"},
	{"geometry":{"coordinates":[6.11145,49.60487],"type":"Point"},"properties":{"osm_id":"1833670388","tag":{"amenity":"waste_basket"}},"type":"Feature"},
	{"geometry":{"coordinates":[6.110783,49.605687],"type":"Point"},"properties":{"osm_id":"1833670398","tag":{"amenity":"waste_basket"}},"type":"Feature"},
	{"geometry":{"coordinates":[6.109262,49.607366],"type":"Point"},"properties":{"osm_id":"1833670401","tag":{"amenity":"waste_basket"}},"type":"Feature"},
	{"geometry":{"coordinates":[6.094401,49.607747],"type":"Point"},"properties":{"osm_id":"1833670403","tag":{"amenity":"waste_basket"}},"type":"Feature"},
	{"geometry":{"coordinates":[6.10816,49.6084],"type":"Point"},"properties":{"osm_id":"1833670405","tag":{"amenity":"waste_basket"}},"type":"Feature"},
	{"geometry":{"coordinates":[6.107949,49.608588],"type":"Point"},"properties":{"osm_id":"1833670406","tag":{"amenity":"waste_basket"}},"type":"Feature"},
	{"geometry":{"coordinates":[6.094247,49.608665],"type":"Point"},"properties":{"osm_id":"1833670407","tag":{"amenity":"waste_basket"}},"type":"Feature"},
	{"geometry":{"coordinates":[6.095053,49.608866],"type":"Point"},"properties":{"osm_id":"1833670408","tag":{"amenity":"waste_basket"}},"type":"Feature"},
	{"geometry":{"coordinates":[6.096726,49.609207],"type":"Point"},"properties":{"osm_id":"1833670409","tag":{"amenity":"waste_basket"}},"type":"Feature"},
	{"geometry":{"coordinates":[6.142003,49.59406],"type":"Point"},"properties":{"osm_id":"1834725476","tag":{"amenity":"waste_basket"}},"type":"Feature"},
	{"geometry":{"coordinates":[6.141604,49.594584],"type":"Point"},"properties":{"osm_id":"1834725488","tag":{"amenity":"waste_basket"}},"type":"Feature"},
	{"geometry":{"coordinates":[6.073022,49.591739],"type":"Point"},"properties":{"osm_id":"1835405366","tag":{"amenity":"waste_basket"}},"type":"Feature"},
	{"geometry":{"coordinates":[6.072403,49.560904],"type":"Point"},"properties":{"osm_id":"1837778007","tag":{"amenity":"waste_basket"}},"type":"Feature"},
	{"geometry":{"coordinates":[6.069356,49.568741],"type":"Point"},"properties":{"osm_id":"1837778072","tag":{"amenity":"waste_basket"}},"type":"Feature"},
	{"geometry":{"coordinates":[6.071731,49.578677],"type":"Point"},"properties":{"osm_id":"1837778086","tag":{"amenity":"waste_basket"}},"type":"Feature"},
	{"geometry":{"coordinates":[6.082536,49.586228],"type":"Point"},"properties":{"osm_id":"1837778089","tag":{"amenity":"waste_basket"}},"type":"Feature"},
	{"geometry":{"coordinates":[6.10707,49.60651],"type":"Point"},"properties":{"osm_id":"1845423533","tag":{"amenity":"waste_basket"}},"type":"Feature"},
	{"geometry":{"coordinates":[6.107521,49.606792],"type":"Point"},"properties":{"osm_id":"1845423548","tag":{"amenity":"waste_basket"}},"type":"Feature"},
	{"geometry":{"coordinates":[6.090026,49.588538],"type":"Point"},"properties":{"osm_id":"1854582611","tag":{"amenity":"waste_basket"}},"type":"Feature"},
	{"geometry":{"coordinates":[6.135064,49.606034],"type":"Point"},"properties":{"osm_id":"1857090599","tag":{"amenity":"waste_basket"}},"type":"Feature"},
	{"geometry":{"coordinates":[6.133752,49.606247],"type":"Point"},"properties":{"osm_id":"1857090600","tag":{"amenity":"waste_basket"}},"type":"Feature"},
	{"geometry":{"coordinates":[6.136788,49.606647],"type":"Point"},"properties":{"osm_id":"1857090606","tag":{"amenity":"waste_basket"}},"type":"Feature"},
	{"geometry":{"coordinates":[6.13176,49.606932],"type":"Point"},"properties":{"osm_id":"1857090608","tag":{"amenity":"waste_basket"}},"type":"Feature"},
	{"geometry":{"coordinates":[6.096485,49.573299],"type":"Point"},"properties":{"osm_id":"1857275468","tag":{"amenity":"waste_basket"}},"type":"Feature"},
	{"geometry":{"coordinates":[6.117839,49.60924],"type":"Point"},"properties":{"osm_id":"1874627622","tag":{"amenity":"waste_basket"}},"type":"Feature"},
	{"geometry":{"coordinates":[6.094572,49.606897],"type":"Point"},"properties":{"osm_id":"1880977560","tag":{"amenity":"waste_basket"}},"type":"Feature"},
	{"geometry":{"coordinates":[6.127877,49.609915],"type":"Point"},"properties":{"osm_id":"1880981447","tag":{"amenity":"waste_basket"}},"type":"Feature"},
	{"geometry":{"coordinates":[6.127246,49.609978],"type":"Point"},"properties":{"osm_id":"1880981448","tag":{"amenity":"waste_basket"}},"type":"Feature"},
	{"geometry":{"coordinates":[6.10085,49.571361],"type":"Point"},"properties":{"osm_id":"1901886032","tag":{"amenity":"waste_basket"}},"type":"Feature"},
	{"geometry":{"coordinates":[6.095242,49.574958],"type":"Point"},"properties":{"osm_id":"1901886040","tag":{"amenity":"waste_basket"}},"type":"Feature"},
	{"geometry":{"coordinates":[6.09615,49.576656],"type":"Point"},"properties":{"osm_id":"1901886042","tag":{"amenity":"waste_basket"}},"type":"Feature"},
	{"geometry":{"coordinates":[6.132416,49.569034],"type":"Point"},"properties":{"osm_id":"1904271752","tag":{"amenity":"waste_basket"}},"type":"Feature"},
	{"geometry":{"coordinates":[6.107428,49.570978],"type":"Point"},"properties":{"osm_id":"1904271758","tag":{"amenity":"waste_basket"}},"type":"Feature"},
	{"geometry":{"coordinates":[6.107989,49.571155],"type":"Point"},"properties":{"osm_id":"1904271759","tag":{"amenity":"waste_basket"}},"type":"Feature"},
	{"geometry":{"coordinates":[6.108726,49.571381],"type":"Point"},"properties":{"osm_id":"1904271761","tag":{"amenity":"waste_basket"}},"type":"Feature"},
	{"geometry":{"coordinates":[6.137362,49.577814],"type":"Point"},"properties":{"osm_id":"1961052857","tag":{"amenity":"waste_basket"}},"type":"Feature"},
	{"geometry":{"coordinates":[6.125793,49.591108],"type":"Point"},"properties":{"osm_id":"1961091762","tag":{"amenity":"waste_basket"}},"type":"Feature"},
	{"geometry":{"coordinates":[6.125894,49.591156],"type":"Point"},"properties":{"osm_id":"1961091765","tag":{"amenity":"waste_basket"}},"type":"Feature"},
	{"geometry":{"coordinates":[6.114585,49.601182],"type":"Point"},"properties":{"osm_id":"1961168733","tag":{"amenity":"waste_basket"}},"type":"Feature"},
	{"geometry":{"coordinates":[6.114621,49.601337],"type":"Point"},"properties":{"osm_id":"1961168736","tag":{"amenity":"waste_basket"}},"type":"Feature"},
	{"geometry":{"coordinates":[6.115403,49.601559],"type":"Point"},"properties":{"osm_id":"1961168754","tag":{"amenity":"waste_basket"}},"type":"Feature"},
	{"geometry":{"coordinates":[6.116906,49.602327],"type":"Point"},"properties":{"osm_id":"1961168836","tag":{"amenity":"waste_basket"}},"type":"Feature"},
	{"geometry":{"coordinates":[6.11696,49.602506],"type":"Point"},"properties":{"osm_id":"1961168870","tag":{"amenity":"waste_basket"}},"type":"Feature"},
	{"geometry":{"coordinates":[6.118592,49.60299],"type":"Point"},"properties":{"osm_id":"1961168886","tag":{"amenity":"waste_basket"}},"type":"Feature"},
	{"geometry":{"coordinates":[6.108766,49.60415],"type":"Point"},"properties":{"osm_id":"1961168888","tag":{"amenity":"waste_basket"}},"type":"Feature"},
	{"geometry":{"coordinates":[6.143907,49.600139],"type":"Point"},"properties":{"osm_id":"2026249629","tag":{"amenity":"recycling","location":"overground","recycling_type":"container"}},"type":"Feature"},
	{"geometry":{"coordinates":[6.134355,49.600591],"type":"Point"},"properties":{"osm_id":"2195177517","tag":{"amenity":"waste_basket"}},"type":"Feature"},
	{"geometry":{"coordinates":[6.121841,49.591049],"type":"Point"},"properties":{"osm_id":"2261814655","tag":{"amenity":"recycling","recycling:batteries":"yes","recycling:cans":"no","recycling:cardboard":"yes","recycling:cartons":"no","recycling:clothes":"yes","recycling:glass_bottles":"yes","recycling:magazines":"yes","recycling:newspaper":"yes","recycling:paper":"yes","recycling_type":"container"}},"type":"Feature"},
	{"geometry":{"coordinates":[6.125543,49.589827],"type":"Point"},"properties":{"osm_id":"2261860181","tag":{"amenity":"recycling","recycling:batteries":"yes","recycling:cans":"no","recycling:cardboard":"yes","recycling:clothes":"yes","recycling:glass":"yes","recycling:glass_bottles":"yes","recycling:magazines":"yes","recycling:newspaper":"yes","recycling:paper":"yes","recycling_type":"container"}},"type":"Feature"},
	{"geometry":{"coordinates":[6.130312,49.59104],"type":"Point"},"properties":{"osm_id":"2262385828","tag":{"amenity":"recycling","recycling:books":"yes","recycling:cardboard":"yes","recycling:glass_bottles":"yes","recycling:magazines":"yes","recycling:newspaper":"yes","recycling:paper":"yes","recycling_type":"container"}},"type":"Feature"},
	{"geometry":{"coordinates":[6.12116,49.60699],"type":"Point"},"properties":{"osm_id":"2262719385","tag":{"amenity":"recycling","mapillary":"UfIlRR3j8vgJIexPj5sW5A","recycling:clothes":"yes","recycling_type":"container","survey:date":"2017-09-02"}},"type":"Feature"},
	{"geometry":{"coordinates":[6.135611,49.596961],"type":"Point"},"properties":{"osm_id":"2423572541","tag":{"amenity":"recycling","recycling:clothes":"yes","recycling:glass":"yes","recycling:paper":"yes"}},"type":"Feature"},
	{"geometry":{"coordinates":[6.097681,49.598216],"type":"Point"},"properties":{"osm_id":"2459698220","tag":{"amenity":"waste_basket"}},"type":"Feature"},
	{"geometry":{"coordinates":[6.129043,49.605016],"type":"Point"},"properties":{"osm_id":"2994317701","tag":{"amenity":"waste_basket"}},"type":"Feature"},
	{"geometry":{"coordinates":[6.128983,49.605031],"type":"Point"},"properties":{"osm_id":"2994317705","tag":{"amenity":"waste_basket"}},"type":"Feature"},
	{"geometry":{"coordinates":[6.129114,49.605125],"type":"Point"},"properties":{"osm_id":"2994317948","tag":{"amenity":"waste_basket"}},"type":"Feature"},
	{"geometry":{"coordinates":[6.129055,49.60514],"type":"Point"},"properties":{"osm_id":"2994317952","tag":{"amenity":"waste_basket"}},"type":"Feature"},
	{"geometry":{"coordinates":[6.128712,49.605206],"type":"Point"},"properties":{"osm_id":"2994317981","tag":{"amenity":"waste_basket"}},"type":"Feature"},
	{"geometry":{"coordinates":[6.128924,49.605216],"type":"Point"},"properties":{"osm_id":"2994317993","tag":{"amenity":"waste_basket"}},"type":"Feature"},
	{"geometry":{"coordinates":[6.128874,49.605268],"type":"Point"},"properties":{"osm_id":"2994318015","tag":{"amenity":"waste_basket"}},"type":"Feature"},
	{"geometry":{"coordinates":[6.128836,49.605386],"type":"Point"},"properties":{"osm_id":"2994318067","tag":{"amenity":"waste_basket"}},"type":"Feature"},
	{"geometry":{"coordinates":[6.128655,49.605402],"type":"Point"},"properties":{"osm_id":"2994318074","tag":{"amenity":"waste_basket"}},"type":"Feature"},
	{"geometry":{"coordinates":[6.128847,49.605427],"type":"Point"},"properties":{"osm_id":"2994318091","tag":{"amenity":"waste_basket"}},"type":"Feature"},
	{"geometry":{"coordinates":[6.128665,49.605443],"type":"Point"},"properties":{"osm_id":"2994318097","tag":{"amenity":"waste_basket"}},"type":"Feature"},
	{"geometry":{"coordinates":[6.074121,49.567966],"type":"Point"},"properties":{"osm_id":"3004090936","tag":{"amenity":"waste_basket"}},"type":"Feature"},
	{"geometry":{"coordinates":[6.151022,49.609],"type":"Point"},"properties":{"osm_id":"3131037954","tag":{"amenity":"recycling","recycling:clothes":"yes","recycling:glass":"yes","recycling:paper":"yes"}},"type":"Feature"},
	{"geometry":{"coordinates":[6.141923,49.607894],"type":"Point"},"properties":{"osm_id":"3404495389","tag":{"amenity":"recycling","recycling:clothes":"yes","recycling:glass":"yes","recycling:paper":"yes","recycling_type":"container"}},"type":"Feature"},
	{"geometry":{"coordinates":[6.125641,49.589892],"type":"Point"},"properties":{"osm_id":"3660615297","tag":{"amenity":"waste_basket"}},"type":"Feature"},
	{"geometry":{"coordinates":[6.125718,49.589922],"type":"Point"},"properties":{"osm_id":"3660615298","tag":{"amenity":"waste_basket"}},"type":"Feature"},
	{"geometry":{"coordinates":[6.125542,49.589855],"type":"Point"},"properties":{"osm_id":"3660615299","tag":{"amenity":"waste_basket"}},"type":"Feature"},
	{"geometry":{"coordinates":[6.11239,49.607014],"type":"Point"},"properties":{"osm_id":"3665830225","tag":{"amenity":"waste_basket"}},"type":"Feature"},
	{"geometry":{"coordinates":[6.10841,49.609189],"type":"Point"},"properties":{"osm_id":"3778536018","tag":{"amenity":"waste_basket"}},"type":"Feature"},
	{"geometry":{"coordinates":[6.15001,49.571207],"type":"Point"},"properties":{"osm_id":"4709543828","tag":{"amenity":"waste_basket"}},"type":"Feature"},
	{"geometry":{"coordinates":[6.149958,49.56999],"type":"Point"},"properties":{"osm_id":"4709543833","tag":{"amenity":"waste_basket"}},"type":"Feature"},
	{"geometry":{"coordinates":[6.132049,49.560634],"type":"Point"},"properties":{"osm_id":"4709592688","tag":{"amenity":"waste_basket"}},"type":"Feature"},
	{"geometry":{"coordinates":[6.141888,49.563225],"type":"Point"},"properties":{"osm_id":"4709602185","tag":{"amenity":"waste_basket"}},"type":"Feature"},
	{"geometry":{"coordinates":[6.145706,49.562735],"type":"Point"},"properties":{"osm_id":"4709611345","tag":{"amenity":"waste_basket"}},"type":"Feature"},
	{"geometry":{"coordinates":[6.148124,49.563551],"type":"Point"},"properties":{"osm_id":"4709611349","tag":{"amenity":"waste_basket"}},"type":"Feature"},
	{"geometry":{"coordinates":[6.148925,49.564021],"type":"Point"},"properties":{"osm_id":"4709613286","tag":{"amenity":"waste_basket"}},"type":"Feature"},
	{"geometry":{"coordinates":[6.152276,49.567099],"type":"Point"},"properties":{"osm_id":"4709668028","tag":{"amenity":"waste_basket"}},"type":"Feature"},
	{"geometry":{"coordinates":[6.148872,49.585719],"type":"Point"},"properties":{"osm_id":"4710831684","tag":{"amenity":"waste_basket"}},"type":"Feature"},
	{"geometry":{"coordinates":[6.149747,49.586387],"type":"Point"},"properties":{"osm_id":"4710831688","tag":{"amenity":"waste_basket"}},"type":"Feature"},
	{"geometry":{"coordinates":[6.144877,49.575042],"type":"Point"},"properties":{"osm_id":"4774279948","tag":{"amenity":"waste_basket"}},"type":"Feature"},
	{"geometry":{"coordinates":[6.151071,49.57521],"type":"Point"},"properties":{"osm_id":"4774296610","tag":{"amenity":"waste_basket"}},"type":"Feature"},
	{"geometry":{"coordinates":[6.152119,49.564243],"type":"Point"},"properties":{"osm_id":"4813023350","tag":{"amenity":"waste_basket"}},"type":"Feature"},
	{"geometry":{"coordinates":[6.152119,49.564127],"type":"Point"},"properties":{"osm_id":"4813023355","tag":{"amenity":"waste_basket"}},"type":"Feature"},
	{"geometry":{"coordinates":[6.108363,49.567966],"type":"Point"},"properties":{"osm_id":"4813102718","tag":{"amenity":"waste_basket"}},"type":"Feature"},
	{"geometry":{"coordinates":[6.1068,49.563182],"type":"Point"},"properties":{"osm_id":"4813102719","tag":{"amenity":"waste_basket"}},"type":"Feature"},
	{"geometry":{"coordinates":[6.108749,49.567294],"type":"Point"},"properties":{"osm_id":"4813102720","tag":{"amenity":"waste_basket"}},"type":"Feature"},
	{"geometry":{"coordinates":[6.108263,49.566518],"type":"Point"},"properties":{"osm_id":"4813102722","tag":{"amenity":"waste_basket"}},"type":"Feature"},
	{"geometry":{"coordinates":[6.107302,49.564421],"type":"Point"},"properties":{"osm_id":"4813102724","tag":{"amenity":"waste_basket"}},"type":"Feature"},
	{"geometry":{"coordinates":[6.108762,49.566768],"type":"Point"},"properties":{"osm_id":"4813102727","tag":{"amenity":"waste_basket"}},"type":"Feature"},
	{"geometry":{"coordinates":[6.10822,49.569107],"type":"Point"},"properties":{"osm_id":"4813102728","tag":{"amenity":"waste_basket"}},"type":"Feature"},
	{"geometry":{"coordinates":[6.107353,49.564609],"type":"Point"},"properties":{"osm_id":"4813102729","tag":{"amenity":"waste_basket"}},"type":"Feature"},
	{"geometry":{"coordinates":[6.108534,49.56775],"type":"Point"},"properties":{"osm_id":"4813102730","tag":{"amenity":"waste_basket"}},"type":"Feature"},
	{"geometry":{"coordinates":[6.108803,49.567039],"type":"Point"},"properties":{"osm_id":"4813102732","tag":{"amenity":"waste_basket"}},"type":"Feature"},
	{"geometry":{"coordinates":[6.146471,49.571989],"type":"Point"},"properties":{"osm_id":"4885843910","tag":{"amenity":"waste_basket"}},"type":"Feature"},
	{"geometry":{"coordinates":[6.144447,49.583447],"type":"Point"},"properties":{"osm_id":"4885920246","tag":{"amenity":"waste_basket"}},"type":"Feature"},
	{"geometry":{"coordinates":[6.137628,49.579521],"type":"Point"},"properties":{"osm_id":"4885920248","tag":{"amenity":"waste_basket"}},"type":"Feature"},
	{"geometry":{"coordinates":[6.134154,49.609721],"type":"Point"},"properties":{"osm_id":"4923988391","tag":{"amenity":"waste_basket"}},"type":"Feature"},
	{"geometry":{"coordinates":[6.1361,49.606343],"type":"Point"},"properties":{"osm_id":"4924101820","tag":{"amenity":"waste_basket"}},"type":"Feature"},
	{"geometry":{"coordinates":[6.151755,49.563977],"type":"Point"},"properties":{"osm_id":"4999794321","tag":{"amenity":"waste_basket"}},"type":"Feature"},
	{"geometry":{"coordinates":[6.128734,49.60064],"type":"Point"},"properties":{"osm_id":"5005456606","tag":{"amenity":"waste_basket"}},"type":"Feature"},
	{"geometry":{"coordinates":[6.128095,49.600739],"type":"Point"},"properties":{"osm_id":"5005456607","tag":{"amenity":"waste_basket"}},"type":"Feature"},
	{"geometry":{"coordinates":[6.128156,49.600769],"type":"Point"},"properties":{"osm_id":"5005456614","tag":{"amenity":"recycling","recycling:batteries":"yes","recycling:cardboard":"yes","recycling:glass_bottles":"yes","recycling:paper":"yes","recycling_type":"container"}},"type":"Feature"},
	{"geometry":{"coordinates":[6.123942,49.602666],"type":"Point"},"properties":{"osm_id":"5009417646","tag":{"amenity":"waste_basket"}},"type":"Feature"},
	{"geometry":{"coordinates":[6.123492,49.602745],"type":"Point"},"properties":{"osm_id":"5009417705","tag":{"amenity":"waste_basket"}},"type":"Feature"},
	{"geometry":{"coordinates":[6.14296,49.578466],"type":"Point"},"properties":{"osm_id":"5011235194","tag":{"amenity":"waste_basket"}},"type":"Feature"},
	{"geometry":{"coordinates":[6.137035,49.583183],"type":"Point"},"properties":{"osm_id":"5011235460","tag":{"amenity":"waste_basket"}},"type":"Feature"},
	{"geometry":{"coordinates":[6.147953,49.577058],"type":"Point"},"properties":{"osm_id":"5011237948","tag":{"amenity":"waste_basket"}},"type":"Feature"},
	{"geometry":{"coordinates":[6.136669,49.583355],"type":"Point"},"properties":{"osm_id":"5216221350","tag":{"amenity":"waste_basket"}},"type":"Feature"},
	{"geometry":{"coordinates":[6.139678,49.564199],"type":"Point"},"properties":{"osm_id":"5216221351","tag":{"amenity":"waste_basket"}},"type":"Feature"},
	{"geometry":{"coordinates":[6.136434,49.583212],"type":"Point"},"properties":{"osm_id":"5216221353","tag":{"amenity":"waste_basket"}},"type":"Feature"},
	{"geometry":{"coordinates":[6.119782,49.574418],"type":"Point"},"properties":{"osm_id":"5216221354","tag":{"amenity":"waste_basket"}},"type":"Feature"},
	{"geometry":{"coordinates":[6.121438,49.581097],"type":"Point"},"properties":{"osm_id":"5216221355","tag":{"amenity":"waste_basket"}},"type":"Feature"},
	{"geometry":{"coordinates":[6.141027,49.579211],"type":"Point"},"properties":{"osm_id":"5216221356","tag":{"amenity":"waste_basket"}},"type":"Feature"},
	{"geometry":{"coordinates":[6.112231,49.583727],"type":"Point"},"properties":{"osm_id":"5226379774","tag":{"amenity":"waste_basket"}},"type":"Feature"},
	{"geometry":{"coordinates":[6.132103,49.580526],"type":"Point"},"properties":{"osm_id":"5285021774","tag":{"amenity":"waste_basket"}},"type":"Feature"},
	{"geometry":{"coordinates":[6.112883,49.573418],"type":"Point"},"properties":{"osm_id":"5287616908","tag":{"amenity":"waste_basket"}},"type":"Feature"},
	{"geometry":{"coordinates":[6.140501,49.576441],"type":"Point"},"properties":{"osm_id":"5859260807","tag":{"amenity":"waste_basket"}},"type":"Feature"},
	{"geometry":{"coordinates":[6.146917,49.607157],"type":"Point"},"properties":{"osm_id":"6071057921","tag":{"amenity":"recycling","recycling:cardboard":"yes","recycling:glass":"yes","recycling:glass_bottles":"yes","recycling:paper":"yes","recycling_type":"container"}},"type":"Feature"},
	{"geometry":{"coordinates":[6.142083,49.608086],"type":"Point"},"properties":{"osm_id":"6071057922","tag":{"amenity":"recycling","recycling:cardboard":"yes","recycling:glass":"yes","recycling:glass_bottles":"yes","recycling:paper":"yes","recycling_type":"container"}},"type":"Feature"},
	{"geometry":{"coordinates":[6.118087,49.601125],"type":"Point"},"properties":{"osm_id":"6236197923","tag":{"amenity":"waste_basket"}},"type":"Feature"},
	{"geometry":{"coordinates":[6.118171,49.601416],"type":"Point"},"properties":{"osm_id":"6236197924","tag":{"amenity":"waste_basket"}},"type":"Feature"},
	{"geometry":{"coordinates":[6.117861,49.601081],"type":"Point"},"properties":{"osm_id":"6236197925","tag":{"amenity":"waste_basket"}},"type":"Feature"},
	{"geometry":{"coordinates":[6.117732,49.601663],"type":"Point"},"properties":{"osm_id":"6236197926","tag":{"amenity":"waste_basket"}},"type":"Feature"},
	{"geometry":{"coordinates":[6.118003,49.601508],"type":"Point"},"properties":{"osm_id":"6236197927","tag":{"amenity":"waste_basket"}},"type":"Feature"},
	{"geometry":{"coordinates":[6.117615,49.601409],"type":"Point"},"properties":{"osm_id":"6236197928","tag":{"amenity":"waste_basket"}},"type":"Feature"},
	{"geometry":{"coordinates":[6.117473,49.601581],"type":"Point"},"properties":{"osm_id":"6236197929","tag":{"amenity":"waste_basket"}},"type":"Feature"},
	{"geometry":{"coordinates":[6.11739,49.601695],"type":"Point"},"properties":{"osm_id":"6236197930","tag":{"amenity":"waste_basket"}},"type":"Feature"},
	{"geometry":{"coordinates":[6.069454,49.598699],"type":"Point"},"properties":{"osm_id":"6312652560","tag":{"amenity":"waste_basket"}},"type":"Feature"},
	{"geometry":{"coordinates":[6.094679,49.601142],"type":"Point"},"properties":{"osm_id":"6312652562","tag":{"amenity":"waste_basket"}},"type":"Feature"},
	{"geometry":{"coordinates":[6.094973,49.600871],"type":"Point"},"properties":{"osm_id":"6312652563","tag":{"amenity":"waste_basket"}},"type":"Feature"},
	{"geometry":{"coordinates":[6.095239,49.600696],"type":"Point"},"properties":{"osm_id":"6312652564","tag":{"amenity":"waste_basket"}},"type":"Feature"},
	{"geometry":{"coordinates":[6.12822,49.598538],"type":"Point"},"properties":{"osm_id":"6352107718","tag":{"amenity":"waste_basket"}},"type":"Feature"},
	{"geometry":{"coordinates":[6.127856,49.593861],"type":"Point"},"properties":{"osm_id":"6352107720","tag":{"amenity":"waste_basket"}},"type":"Feature"},
	{"geometry":{"coordinates":[6.127512,49.609385],"type":"Point"},"properties":{"osm_id":"6375074200","tag":{"amenity":"waste_basket"}},"type":"Feature"},
	{"geometry":{"coordinates":[6.128602,49.609473],"type":"Point"},"properties":{"osm_id":"6375074201","tag":{"amenity":"waste_basket"}},"type":"Feature"},
	{"geometry":{"coordinates":[6.13547,49.57684],"type":"Point"},"properties":{"osm_id":"6393268082","tag":{"amenity":"waste_basket"}},"type":"Feature"},
	{"geometry":{"coordinates":[6.135328,49.576695],"type":"Point"},"properties":{"osm_id":"6393268083","tag":{"amenity":"waste_basket"}},"type":"Feature"},
	{"geometry":{"coordinates":[6.133475,49.578885],"type":"Point"},"properties":{"osm_id":"6393268084","tag":{"amenity":"waste_basket"}},"type":"Feature"},
	{"geometry":{"coordinates":[6.133874,49.578923],"type":"Point"},"properties":{"osm_id":"6393268286","tag":{"amenity":"waste_basket"}},"type":"Feature"},
	{"geometry":{"coordinates":[6.112542,49.583424],"type":"Point"},"properties":{"osm_id":"6428629385","tag":{"amenity":"waste_basket"}},"type":"Feature"},
	{"geometry":{"coordinates":[6.134946,49.605285],"type":"Point"},"properties":{"osm_id":"6428676744","tag":{"addr:city":"Luxembourg","addr:housenumber":"16","addr:postcode":"2327","addr:street":"Mont\u00c3\u00a9e de la P\u00c3\u00a9trusse","amenity":"waste_basket"}},"type":"Feature"},
	{"geometry":{"coordinates":[6.071914,49.604571],"type":"Point"},"properties":{"osm_id":"6504828543","tag":{"amenity":"waste_basket"}},"type":"Feature"},
	{"geometry":{"coordinates":[6.127629,49.608831],"type":"Point"},"properties":{"osm_id":"6544184816","tag":{"amenity":"waste_basket"}},"type":"Feature"},
	{"geometry":{"coordinates":[6.079383,49.604531],"type":"Point"},"properties":{"osm_id":"6583575337","tag":{"amenity":"waste_basket"}},"type":"Feature"},
	{"geometry":{"coordinates":[6.133873,49.604843],"type":"Point"},"properties":{"osm_id":"6651704218","tag":{"amenity":"waste_basket"}},"type":"Feature"},
	{"geometry":{"coordinates":[6.134493,49.605085],"type":"Point"},"properties":{"osm_id":"6651704219","tag":{"amenity":"waste_basket"}},"type":"Feature"},
	{"geometry":{"coordinates":[6.101728,49.607664],"type":"Point"},"properties":{"osm_id":"6740169686","tag":{"amenity":"waste_basket"}},"type":"Feature"},
	{"geometry":{"coordinates":[6.111449,49.590246],"type":"Point"},"properties":{"osm_id":"6924538390","tag":{"amenity":"waste_basket"}},"type":"Feature"},
	{"geometry":{"coordinates":[6.11312,49.590433],"type":"Point"},"properties":{"osm_id":"6924538392","tag":{"amenity":"waste_basket"}},"type":"Feature"},
	{"geometry":{"coordinates":[6.135016,49.605717],"type":"Point"},"properties":{"osm_id":"7090789655","tag":{"amenity":"waste_basket"}},"type":"Feature"},
	{"geometry":{"coordinates":[6.097297,49.605386],"type":"Point"},"properties":{"osm_id":"7358280041","tag":{"amenity":"waste_basket"}},"type":"Feature"}
]
}
