{
"type": "FeatureCollection",
"features": [
	{"geometry":{"coordinates":[6.136965,49.3725],"type":"Point"},"properties":{"osm_id":"1905070499","tag":{"amenity":"recycling","recycling:glass_bottles":"yes","recycling_type":"container"}},"type":"Feature"},
	{"geometry":{"coordinates":[6.108779,49.357482],"type":"Point"},"properties":{"osm_id":"2072972379","tag":{"entrance":"main"}},"type":"Feature"},
	{"geometry":{"coordinates":[6.132054,49.367432],"type":"Point"},"properties":{"osm_id":"2092930916","tag":{"amenity":"waste_basket"}},"type":"Feature"},
	{"geometry":{"coordinates":[6.140015,49.36497],"type":"Point"},"properties":{"osm_id":"2297322800","tag":{"amenity":"recycling","recycling:glass_bottles":"yes","recycling_type":"container"}},"type":"Feature"},
	{"geometry":{"coordinates":[6.144791,49.365548],"type":"Point"},"properties":{"osm_id":"2299544184","tag":{"amenity":"waste_basket"}},"type":"Feature"},
	{"geometry":{"coordinates":[6.144107,49.363252],"type":"Point"},"properties":{"osm_id":"2300065883","tag":{"amenity":"waste_basket"}},"type":"Feature"},
	{"geometry":{"coordinates":[6.141101,49.364307],"type":"Point"},"properties":{"osm_id":"2300065894","tag":{"amenity":"waste_basket"}},"type":"Feature"},
	{"geometry":{"coordinates":[6.144078,49.365235],"type":"Point"},"properties":{"osm_id":"2300065939","tag":{"amenity":"waste_basket"}},"type":"Feature"},
	{"geometry":{"coordinates":[6.143726,49.365324],"type":"Point"},"properties":{"osm_id":"2300065948","tag":{"amenity":"waste_basket"}},"type":"Feature"},
	{"geometry":{"coordinates":[6.147842,49.366425],"type":"Point"},"properties":{"osm_id":"2300065951","tag":{"amenity":"waste_basket"}},"type":"Feature"},
	{"geometry":{"coordinates":[6.147437,49.366575],"type":"Point"},"properties":{"osm_id":"2300065952","tag":{"amenity":"waste_basket"}},"type":"Feature"},
	{"geometry":{"coordinates":[6.148362,49.366914],"type":"Point"},"properties":{"osm_id":"2300065954","tag":{"amenity":"waste_basket"}},"type":"Feature"},
	{"geometry":{"coordinates":[6.148732,49.367028],"type":"Point"},"properties":{"osm_id":"2300065955","tag":{"amenity":"recycling","recycling:glass_bottles":"yes","recycling_type":"container"}},"type":"Feature"},
	{"geometry":{"coordinates":[6.139538,49.367258],"type":"Point"},"properties":{"osm_id":"2300065959","tag":{"amenity":"waste_basket"}},"type":"Feature"},
	{"geometry":{"coordinates":[6.138611,49.367368],"type":"Point"},"properties":{"osm_id":"2300065961","tag":{"amenity":"recycling","recycling:glass_bottles":"yes","recycling_type":"container"}},"type":"Feature"},
	{"geometry":{"coordinates":[6.140898,49.369585],"type":"Point"},"properties":{"osm_id":"2300065967","tag":{"amenity":"waste_basket","vending":"excrement_bags"}},"type":"Feature"},
	{"geometry":{"coordinates":[6.142535,49.366076],"type":"Point"},"properties":{"osm_id":"2308442619","tag":{"amenity":"waste_disposal"}},"type":"Feature"},
	{"geometry":{"coordinates":[6.138415,49.371646],"type":"Point"},"properties":{"osm_id":"2315472410","tag":{"amenity":"waste_disposal","waste":"trash"}},"type":"Feature"},
	{"geometry":{"coordinates":[6.137113,49.372549],"type":"Point"},"properties":{"osm_id":"2315472411","tag":{"amenity":"waste_basket"}},"type":"Feature"},
	{"geometry":{"coordinates":[6.13692,49.372701],"type":"Point"},"properties":{"osm_id":"2315472413","tag":{"amenity":"waste_basket"}},"type":"Feature"},
	{"geometry":{"coordinates":[6.148693,49.367181],"type":"Point"},"properties":{"osm_id":"2348406254","tag":{"amenity":"waste_basket"}},"type":"Feature"},
	{"geometry":{"coordinates":[6.067096,49.331281],"type":"Point"},"properties":{"osm_id":"2395670243","tag":{"amenity":"waste_basket"}},"type":"Feature"},
	{"geometry":{"coordinates":[6.14865,49.357177],"type":"Point"},"properties":{"osm_id":"5299503734","tag":{"amenity":"recycling","recycling:glass":"yes","recycling_type":"container"}},"type":"Feature"},
	{"geometry":{"coordinates":[6.13116,49.348105],"type":"Point"},"properties":{"osm_id":"7805771003","tag":{"amenity":"waste_basket","waste":"trash"}},"type":"Feature"},
	{"geometry":{"coordinates":[6.14814,49.345752],"type":"Point"},"properties":{"osm_id":"7805771004","tag":{"amenity":"waste_disposal","waste":"trash"}},"type":"Feature"}
]
}
