{
"type": "FeatureCollection",
"lastupdate": "2020-08-03T00:00:00Z",
"features": [
	{"geometry":{"coordinates":[6.130354,49.313371],"type":"Point"},"properties":{"name":"D\u00c3\u00a9ch\u00c3\u00a8terie\u00c2\u00a0de\u00c2\u00a0Florange","osm_id":"1786116572","tag":{"amenity":"recycling","operator":"Communaut\u00e9\u00a0d'Agglom\u00e9ration\u00a0du\u00a0Val\u00a0de\u00a0Fensch","phone":"03\u00a082\u00a058\u00a041\u00a011","recycling_type":"centre","ref:FR:SINOE":"2616","start_date":"1992-05-01"}},"type":"Feature"},
	{"geometry":{"coordinates":[6.091988,49.317604],"type":"Point"},"properties":{"osm_id":"2967492311","tag":{"amenity":"recycling"}},"type":"Feature"},
	{"geometry":{"coordinates":[6.089158,49.319736],"type":"Point"},"properties":{"osm_id":"2987707343","tag":{"amenity":"recycling","recycling:cans":"no","recycling:clothes":"no","recycling:glass_bottles":"yes","recycling:paper":"no","recycling_type":"container"}},"type":"Feature"},
	{"geometry":{"coordinates":[6.089127,49.31969],"type":"Point"},"properties":{"osm_id":"2987707344","tag":{"amenity":"recycling","recycling:cans":"no","recycling:clothes":"yes","recycling:glass":"no","recycling:paper":"no","recycling_type":"container"}},"type":"Feature"},
	{"geometry":{"coordinates":[6.102221,49.318632],"type":"Point"},"properties":{"osm_id":"4573326779","tag":{"amenity":"recycling","recycling:glass_bottles":"yes","recycling_type":"container"}},"type":"Feature"},
	{"geometry":{"coordinates":[6.105028,49.314556],"type":"Point"},"properties":{"osm_id":"4573326785","tag":{"amenity":"recycling","recycling:glass_bottles":"yes","recycling_type":"container"}},"type":"Feature"},
	{"geometry":{"coordinates":[6.098573,49.312845],"type":"Point"},"properties":{"osm_id":"4574062699","tag":{"amenity":"recycling","recycling:glass_bottles":"yes","recycling_type":"container"}},"type":"Feature"},
	{"geometry":{"coordinates":[6.102346,49.3167],"type":"Point"},"properties":{"osm_id":"4576030671","tag":{"amenity":"waste_basket"}},"type":"Feature"},
	{"geometry":{"coordinates":[6.107875,49.314574],"type":"Point"},"properties":{"osm_id":"4578272201","tag":{"amenity":"recycling","recycling:glass_bottles":"yes","recycling_type":"container"}},"type":"Feature"},
	{"geometry":{"coordinates":[6.101109,49.318843],"type":"Point"},"properties":{"osm_id":"4578272207","tag":{"amenity":"waste_basket"}},"type":"Feature"},
	{"geometry":{"coordinates":[6.101236,49.318787],"type":"Point"},"properties":{"osm_id":"4578272208","tag":{"amenity":"waste_basket"}},"type":"Feature"},
	{"geometry":{"coordinates":[6.101414,49.318644],"type":"Point"},"properties":{"osm_id":"4578272209","tag":{"amenity":"waste_basket"}},"type":"Feature"},
	{"geometry":{"coordinates":[6.098149,49.31519],"type":"Point"},"properties":{"osm_id":"7711816799","tag":{"amenity":"waste_basket","waste":"trash"}},"type":"Feature"},
	{"geometry":{"coordinates":[6.099519,49.313115],"type":"Point"},"properties":{"osm_id":"7711816802","tag":{"amenity":"waste_basket","waste":"trash"}},"type":"Feature"},
	{"geometry":{"coordinates":[6.099543,49.313129],"type":"Point"},"properties":{"osm_id":"7711816803","tag":{"amenity":"waste_basket","waste":"dog_excrement"}},"type":"Feature"},
	{"geometry":{"coordinates":[6.102185,49.318669],"type":"Point"},"properties":{"osm_id":"7722199529","tag":{"amenity":"recycling","recycling:clothes":"yes","recycling_type":"container"}},"type":"Feature"},
	{"geometry":{"coordinates":[6.089741,49.319754],"type":"Point"},"properties":{"osm_id":"7722199531","tag":{"amenity":"waste_basket","waste":"trash"}},"type":"Feature"},
	{"geometry":{"coordinates":[6.083687,49.320691],"type":"Point"},"properties":{"osm_id":"7722199540","tag":{"amenity":"waste_basket","waste":"trash"}},"type":"Feature"},
	{"geometry":{"coordinates":[6.106022,49.31318],"type":"Point"},"properties":{"osm_id":"7725400732","tag":{"amenity":"recycling","recycling:glass_bottles":"yes","recycling_type":"container"}},"type":"Feature"},
	{"geometry":{"coordinates":[6.106564,49.314285],"type":"Point"},"properties":{"osm_id":"7725400733","tag":{"amenity":"recycling","recycling:glass_bottles":"yes","recycling_type":"container"}},"type":"Feature"},
	{"geometry":{"coordinates":[6.10566,49.317672],"type":"Point"},"properties":{"osm_id":"7725400734","tag":{"amenity":"recycling","recycling:glass_bottles":"yes","recycling_type":"container"}},"type":"Feature"},
	{"geometry":{"coordinates":[6.101191,49.318175],"type":"Point"},"properties":{"osm_id":"7725400735","tag":{"amenity":"recycling","recycling:glass_bottles":"yes","recycling_type":"container"}},"type":"Feature"},
	{"geometry":{"coordinates":[6.101439,49.318223],"type":"Point"},"properties":{"osm_id":"7725400736","tag":{"amenity":"waste_basket","recycling:waste":"yes"}},"type":"Feature"},
	{"geometry":{"coordinates":[6.103214,49.320885],"type":"Point"},"properties":{"osm_id":"7727313534","tag":{"amenity":"recycling","recycling:glass_bottles":"yes","recycling_type":"container"}},"type":"Feature"},
	{"geometry":{"coordinates":[6.101512,49.319828],"type":"Point"},"properties":{"osm_id":"7727313535","tag":{"amenity":"recycling","recycling:glass_bottles":"yes","recycling_type":"container"}},"type":"Feature"},
	{"geometry":{"coordinates":[6.099799,49.319669],"type":"Point"},"properties":{"osm_id":"7727313536","tag":{"amenity":"recycling","recycling:glass_bottles":"yes","recycling_type":"container"}},"type":"Feature"},
	{"geometry":{"coordinates":[6.093386,49.319562],"type":"Point"},"properties":{"osm_id":"7727313567","tag":{"amenity":"recycling","recycling:glass_bottles":"yes","recycling_type":"container"}},"type":"Feature"},
	{"geometry":{"coordinates":[6.093718,49.318133],"type":"Point"},"properties":{"osm_id":"7727313568","tag":{"amenity":"recycling","recycling:glass_bottles":"yes","recycling_type":"container"}},"type":"Feature"},
	{"geometry":{"coordinates":[6.09372,49.318006],"type":"Point"},"properties":{"osm_id":"7727313569","tag":{"amenity":"recycling","recycling:clothes":"yes","recycling_type":"container"}},"type":"Feature"},
	{"geometry":{"coordinates":[6.09409,49.316527],"type":"Point"},"properties":{"osm_id":"7727313571","tag":{"amenity":"recycling","recycling:glass_bottles":"yes","recycling_type":"container"}},"type":"Feature"},
	{"geometry":{"coordinates":[6.093136,49.315972],"type":"Point"},"properties":{"osm_id":"7727313573","tag":{"amenity":"recycling","recycling:glass_bottles":"yes","recycling_type":"container"}},"type":"Feature"},
	{"geometry":{"coordinates":[6.095602,49.31753],"type":"Point"},"properties":{"osm_id":"7738046245","tag":{"amenity":"waste_basket","waste":"trash"}},"type":"Feature"},
	{"geometry":{"coordinates":[6.097662,49.317966],"type":"Point"},"properties":{"osm_id":"7738046255","tag":{"amenity":"waste_basket","waste":"trash"}},"type":"Feature"},
	{"geometry":{"coordinates":[6.101138,49.318943],"type":"Point"},"properties":{"osm_id":"7751965538","tag":{"amenity":"waste_basket","waste":"trash"}},"type":"Feature"},
	{"geometry":{"coordinates":[6.101713,49.319541],"type":"Point"},"properties":{"osm_id":"7762583418","tag":{"amenity":"waste_basket","waste":"trash"}},"type":"Feature"}
]
}
