{
"type": "FeatureCollection",
"features": [
	{"geometry":{"coordinates":[6.109705,48.927044],"type":"Point"},"properties":{"osm_id":"6985783589","tag":{"amenity":"waste_basket"}},"type":"Feature"},
	{"geometry":{"coordinates":[6.109678,48.9269],"type":"Point"},"properties":{"osm_id":"6985783590","tag":{"amenity":"waste_basket"}},"type":"Feature"},
	{"geometry":{"coordinates":[6.109606,48.926845],"type":"Point"},"properties":{"osm_id":"6985783591","tag":{"amenity":"waste_basket"}},"type":"Feature"},
	{"geometry":{"coordinates":[6.109356,48.926853],"type":"Point"},"properties":{"osm_id":"6985783592","tag":{"amenity":"waste_basket"}},"type":"Feature"},
	{"geometry":{"coordinates":[6.109585,48.926753],"type":"Point"},"properties":{"osm_id":"6985783593","tag":{"amenity":"waste_basket"}},"type":"Feature"},
	{"geometry":{"coordinates":[6.109648,48.92675],"type":"Point"},"properties":{"osm_id":"6985783594","tag":{"amenity":"waste_basket"}},"type":"Feature"},
	{"geometry":{"coordinates":[6.109626,48.926604],"type":"Point"},"properties":{"osm_id":"6985783595","tag":{"amenity":"waste_basket"}},"type":"Feature"},
	{"geometry":{"coordinates":[6.109552,48.926566],"type":"Point"},"properties":{"osm_id":"6985783596","tag":{"amenity":"waste_basket"}},"type":"Feature"},
	{"geometry":{"coordinates":[6.109302,48.926579],"type":"Point"},"properties":{"osm_id":"6985783597","tag":{"amenity":"waste_basket"}},"type":"Feature"},
	{"geometry":{"coordinates":[6.109318,48.926666],"type":"Point"},"properties":{"osm_id":"6985783598","tag":{"amenity":"waste_basket"}},"type":"Feature"},
	{"geometry":{"coordinates":[6.109289,48.926498],"type":"Point"},"properties":{"osm_id":"6985783599","tag":{"amenity":"waste_basket"}},"type":"Feature"},
	{"geometry":{"coordinates":[6.111347,48.927146],"type":"Point"},"properties":{"osm_id":"6985821627","tag":{"amenity":"waste_basket"}},"type":"Feature"},
	{"geometry":{"coordinates":[6.111315,48.927163],"type":"Point"},"properties":{"osm_id":"6985821628","tag":{"amenity":"waste_basket"}},"type":"Feature"},
	{"geometry":{"coordinates":[6.113334,48.926628],"type":"Point"},"properties":{"osm_id":"6985821630","tag":{"amenity":"waste_basket"}},"type":"Feature"},
	{"geometry":{"coordinates":[6.11337,48.92662],"type":"Point"},"properties":{"osm_id":"6985821631","tag":{"amenity":"waste_basket"}},"type":"Feature"},
	{"geometry":{"coordinates":[6.085679,48.930405],"type":"Point"},"properties":{"osm_id":"7100971414","tag":{"amenity":"waste_basket","material":"steel","waste":"trash"}},"type":"Feature"},
	{"geometry":{"coordinates":[6.085847,48.930527],"type":"Point"},"properties":{"osm_id":"7100971416","tag":{"amenity":"waste_basket","material":"steel","waste":"trash"}},"type":"Feature"}
]
}
