{
"type": "FeatureCollection",
"lastupdate": "2020-08-02T00:00:00Z",
"features": [
	{"geometry":{"coordinates":[6.13289,48.761465],"type":"Point"},"properties":{"osm_id":"1458565959","tag":{"amenity":"recycling"}},"type":"Feature"},
	{"geometry":{"coordinates":[6.11846,48.760507],"type":"Point"},"properties":{"osm_id":"1458598631","tag":{"amenity":"recycling"}},"type":"Feature"},
	{"geometry":{"coordinates":[6.145377,48.781172],"type":"Point"},"properties":{"osm_id":"1868781356","tag":{"amenity":"recycling"}},"type":"Feature"},
	{"geometry":{"coordinates":[6.142955,48.762082],"type":"Point"},"properties":{"osm_id":"3175075462","tag":{"amenity":"recycling","recycling:scrap_metal":"yes","recycling_type":"container"}},"type":"Feature"},
	{"geometry":{"coordinates":[6.142855,48.762083],"type":"Point"},"properties":{"osm_id":"3175075463","tag":{"amenity":"recycling","recycling:furniture":"yes","recycling_type":"container"}},"type":"Feature"},
	{"geometry":{"coordinates":[6.142762,48.762087],"type":"Point"},"properties":{"osm_id":"3175075464","tag":{"amenity":"recycling","recycling:furniture":"yes","recycling_type":"container"}},"type":"Feature"},
	{"geometry":{"coordinates":[6.142663,48.76209],"type":"Point"},"properties":{"osm_id":"3175075465","tag":{"amenity":"recycling","recycling_type":"container"}},"type":"Feature"},
	{"geometry":{"coordinates":[6.142574,48.762092],"type":"Point"},"properties":{"osm_id":"3175075466","tag":{"amenity":"recycling","recycling:cardboard":"yes","recycling:paper":"yes","recycling_type":"container"}},"type":"Feature"},
	{"geometry":{"coordinates":[6.143144,48.762136],"type":"Point"},"properties":{"osm_id":"3175075468","tag":{"amenity":"recycling","level":"1","recycling:bicycles":"yes","recycling_type":"container"}},"type":"Feature"},
	{"geometry":{"coordinates":[6.143116,48.762213],"type":"Point"},"properties":{"osm_id":"3175075475","tag":{"amenity":"recycling","level":"1","recycling:batteries":"yes","recycling:electrical_appliances":"yes","recycling:small_appliances":"yes","recycling_type":"container"}},"type":"Feature"},
	{"geometry":{"coordinates":[6.143049,48.762239],"type":"Point"},"properties":{"osm_id":"3175075476","tag":{"amenity":"recycling","recycling_type":"container"}},"type":"Feature"},
	{"geometry":{"coordinates":[6.142953,48.762241],"type":"Point"},"properties":{"osm_id":"3175075477","tag":{"amenity":"recycling","recycling_type":"container"}},"type":"Feature"},
	{"geometry":{"coordinates":[6.142858,48.762246],"type":"Point"},"properties":{"osm_id":"3175075478","tag":{"amenity":"recycling","recycling:green_waste":"yes","recycling_type":"container"}},"type":"Feature"},
	{"geometry":{"coordinates":[6.142769,48.762249],"type":"Point"},"properties":{"osm_id":"3175075479","tag":{"amenity":"recycling","recycling_type":"container"}},"type":"Feature"},
	{"geometry":{"coordinates":[6.142685,48.762253],"type":"Point"},"properties":{"osm_id":"3175075480","tag":{"amenity":"recycling","recycling_type":"container"}},"type":"Feature"},
	{"geometry":{"coordinates":[6.115653,48.76251],"type":"Point"},"properties":{"osm_id":"4215714613","tag":{"amenity":"recycling","recycling:glass":"yes","recycling_type":"container"}},"type":"Feature"},
	{"geometry":{"coordinates":[6.141574,48.753431],"type":"Point"},"properties":{"osm_id":"4236623703","tag":{"amenity":"recycling","recycling:cardboard":"yes","recycling:paper":"yes","recycling_type":"container","wheelchair":"yes"}},"type":"Feature"},
	{"geometry":{"coordinates":[6.141597,48.75344],"type":"Point"},"properties":{"osm_id":"4236623704","tag":{"amenity":"recycling","recycling:waste":"yes","recycling_type":"container","wheelchair":"yes"}},"type":"Feature"},
	{"geometry":{"coordinates":[6.141618,48.753451],"type":"Point"},"properties":{"osm_id":"4236623705","tag":{"amenity":"recycling","recycling:waste":"yes","recycling_type":"container","wheelchair":"yes"}},"type":"Feature"},
	{"geometry":{"coordinates":[6.135555,48.775521],"type":"Point"},"properties":{"osm_id":"5286724157","tag":{"amenity":"waste_basket"}},"type":"Feature"},
	{"geometry":{"coordinates":[6.135582,48.77567],"type":"Point"},"properties":{"osm_id":"5286724158","tag":{"amenity":"waste_basket"}},"type":"Feature"},
	{"geometry":{"coordinates":[6.131822,48.767615],"type":"Point"},"properties":{"osm_id":"5286724160","tag":{"amenity":"waste_basket"}},"type":"Feature"},
	{"geometry":{"coordinates":[6.132551,48.76867],"type":"Point"},"properties":{"osm_id":"5286724168","tag":{"amenity":"waste_basket"}},"type":"Feature"},
	{"geometry":{"coordinates":[6.135567,48.778499],"type":"Point"},"properties":{"osm_id":"5286724185","tag":{"amenity":"waste_basket"}},"type":"Feature"},
	{"geometry":{"coordinates":[6.135537,48.778927],"type":"Point"},"properties":{"osm_id":"5286724187","tag":{"amenity":"waste_basket"}},"type":"Feature"},
	{"geometry":{"coordinates":[6.122458,48.756368],"type":"Point"},"properties":{"osm_id":"7303363870","tag":{"amenity":"waste_basket"}},"type":"Feature"},
	{"geometry":{"coordinates":[6.121719,48.753894],"type":"Point"},"properties":{"osm_id":"7310258114","tag":{"amenity":"waste_basket"}},"type":"Feature"},
	{"geometry":{"coordinates":[6.143047,48.762099],"type":"Point"},"properties":{"osm_id":"7542262458","tag":{"amenity":"recycling","recycling:paint":"yes","recycling_type":"container"}},"type":"Feature"}
]
}
