{
"type": "FeatureCollection",
"features": [
	{"geometry":{"coordinates":[6.131642,48.697462],"type":"Point"},"properties":{"osm_id":"482392887","tag":{"amenity":"recycling","recycling:glass":"yes","recycling_type":"container"}},"type":"Feature"},
	{"geometry":{"coordinates":[6.140725,48.693077],"type":"Point"},"properties":{"osm_id":"1370091637","tag":{"amenity":"recycling","recycling:glass":"yes","recycling_type":"container"}},"type":"Feature"},
	{"geometry":{"coordinates":[6.146954,48.713534],"type":"Point"},"properties":{"barrier":"gate","osm_id":"2168649913","tag":{"motorcar":"yes"}},"type":"Feature"},
	{"geometry":{"coordinates":[6.131619,48.697443],"type":"Point"},"properties":{"osm_id":"2458236416","tag":{"amenity":"recycling","recycling:paper":"yes","recycling_type":"container"}},"type":"Feature"},
	{"geometry":{"coordinates":[6.138291,48.69964],"type":"Point"},"properties":{"osm_id":"2458236418","tag":{"amenity":"recycling","recycling:paper":"yes","recycling_type":"container"}},"type":"Feature"},
	{"geometry":{"coordinates":[6.138265,48.699637],"type":"Point"},"properties":{"osm_id":"2458236419","tag":{"amenity":"recycling","recycling:glass_bottles":"yes","recycling_type":"container"}},"type":"Feature"},
	{"geometry":{"coordinates":[6.132236,48.704501],"type":"Point"},"properties":{"osm_id":"2525815963","tag":{"amenity":"recycling","recycling:paper":"yes","recycling_type":"container"}},"type":"Feature"},
	{"geometry":{"coordinates":[6.132213,48.704502],"type":"Point"},"properties":{"osm_id":"2525815964","tag":{"amenity":"recycling","recycling:glass_bottles":"yes","recycling_type":"container"}},"type":"Feature"},
	{"geometry":{"coordinates":[6.140733,48.693061],"type":"Point"},"properties":{"osm_id":"2528196118","tag":{"amenity":"recycling","recycling:paper":"yes","recycling_type":"container"}},"type":"Feature"},
	{"geometry":{"coordinates":[6.146122,48.696817],"type":"Point"},"properties":{"osm_id":"3639914413","tag":{"amenity":"recycling","recycling:paper":"yes","recycling_type":"container"}},"type":"Feature"},
	{"geometry":{"coordinates":[6.146156,48.696821],"type":"Point"},"properties":{"osm_id":"3639914414","tag":{"amenity":"recycling","recycling:glass":"yes","recycling_type":"container"}},"type":"Feature"},
	{"geometry":{"coordinates":[6.146232,48.694587],"type":"Point"},"properties":{"osm_id":"3644525619","tag":{"amenity":"recycling","recycling:clothes":"yes","recycling:shoes":"yes","recycling_type":"container"}},"type":"Feature"},
	{"geometry":{"coordinates":[6.146253,48.694595],"type":"Point"},"properties":{"osm_id":"3644525621","tag":{"amenity":"recycling","recycling:glass":"yes","recycling_type":"container"}},"type":"Feature"},
	{"geometry":{"coordinates":[6.146277,48.694604],"type":"Point"},"properties":{"osm_id":"3644525622","tag":{"amenity":"recycling","recycling:paper":"yes","recycling_type":"container"}},"type":"Feature"},
	{"geometry":{"coordinates":[6.148271,48.696435],"type":"Point"},"properties":{"osm_id":"3644525625","tag":{"amenity":"recycling","recycling:paper":"yes","recycling_type":"container"}},"type":"Feature"},
	{"geometry":{"coordinates":[6.148248,48.696438],"type":"Point"},"properties":{"osm_id":"3644525626","tag":{"amenity":"recycling","recycling:glass":"yes","recycling_type":"container"}},"type":"Feature"},
	{"geometry":{"coordinates":[6.132049,48.692648],"type":"Point"},"properties":{"osm_id":"4446047000","tag":{"amenity":"recycling","operator":"Le Relais","recycling:clothes":"yes","recycling:shoes":"yes","recycling_type":"container"}},"type":"Feature"},
	{"geometry":{"coordinates":[6.145348,48.713104],"type":"Point"},"properties":{"osm_id":"4707035153","tag":{"amenity":"recycling","recycling:clothes":"yes","recycling:shoes":"yes","recycling_type":"container"}},"type":"Feature"},
	{"geometry":{"coordinates":[6.145368,48.713104],"type":"Point"},"properties":{"osm_id":"4707035154","tag":{"amenity":"recycling","recycling:clothes":"yes","recycling:shoes":"yes","recycling_type":"container"}},"type":"Feature"},
	{"geometry":{"coordinates":[6.145403,48.713102],"type":"Point"},"properties":{"osm_id":"4707035155","tag":{"amenity":"recycling","recycling:paper":"yes","recycling_type":"container"}},"type":"Feature"},
	{"geometry":{"coordinates":[6.145431,48.713105],"type":"Point"},"properties":{"osm_id":"4707035156","tag":{"amenity":"recycling","recycling:glass_bottles":"yes","recycling_type":"container"}},"type":"Feature"},
	{"geometry":{"coordinates":[6.14673,48.701955],"type":"Point"},"properties":{"osm_id":"4707234363","tag":{"amenity":"recycling","recycling:paper":"yes","recycling_type":"container"}},"type":"Feature"},
	{"geometry":{"coordinates":[6.146754,48.701964],"type":"Point"},"properties":{"osm_id":"4707234364","tag":{"amenity":"recycling","recycling:glass_bottles":"yes","recycling_type":"container"}},"type":"Feature"},
	{"geometry":{"coordinates":[6.151071,48.70315],"type":"Point"},"properties":{"osm_id":"4707234420","tag":{"amenity":"waste_basket"}},"type":"Feature"},
	{"geometry":{"coordinates":[6.138311,48.699642],"type":"Point"},"properties":{"osm_id":"4707272226","tag":{"amenity":"recycling","recycling:clothes":"yes","recycling:shoes":"yes","recycling_type":"container"}},"type":"Feature"},
	{"geometry":{"coordinates":[6.150843,48.701038],"type":"Point"},"properties":{"osm_id":"4707361350","tag":{"amenity":"waste_basket"}},"type":"Feature"},
	{"geometry":{"coordinates":[6.148461,48.700598],"type":"Point"},"properties":{"osm_id":"4707361498","tag":{"amenity":"waste_basket"}},"type":"Feature"},
	{"geometry":{"coordinates":[6.145442,48.692598],"type":"Point"},"properties":{"osm_id":"4707467914","tag":{"amenity":"recycling","recycling:glass":"yes","recycling_type":"container"}},"type":"Feature"},
	{"geometry":{"coordinates":[6.145413,48.692606],"type":"Point"},"properties":{"osm_id":"4707467915","tag":{"amenity":"recycling","recycling:paper":"yes","recycling_type":"container"}},"type":"Feature"},
	{"geometry":{"coordinates":[6.138694,48.692062],"type":"Point"},"properties":{"osm_id":"4998379579","tag":{"amenity":"waste_basket"}},"type":"Feature"},
	{"geometry":{"coordinates":[6.147367,48.699674],"type":"Point"},"properties":{"osm_id":"5204940324","tag":{"amenity":"waste_basket"}},"type":"Feature"},
	{"geometry":{"coordinates":[6.135153,48.700724],"type":"Point"},"properties":{"osm_id":"5205777112","tag":{"amenity":"recycling","recycling:glass_bottles":"yes","recycling_type":"container"}},"type":"Feature"},
	{"geometry":{"coordinates":[6.135175,48.700727],"type":"Point"},"properties":{"osm_id":"5205777113","tag":{"amenity":"recycling","recycling:glass_bottles":"yes","recycling_type":"container"}},"type":"Feature"},
	{"geometry":{"coordinates":[6.135208,48.700731],"type":"Point"},"properties":{"osm_id":"5205777114","tag":{"amenity":"recycling","recycling:paper":"yes","recycling_type":"container"}},"type":"Feature"},
	{"geometry":{"coordinates":[6.135235,48.700735],"type":"Point"},"properties":{"osm_id":"5205777115","tag":{"amenity":"recycling","recycling:paper":"yes","recycling_type":"container"}},"type":"Feature"},
	{"geometry":{"coordinates":[6.132258,48.704499],"type":"Point"},"properties":{"osm_id":"5207265968","tag":{"amenity":"recycling","recycling:clothes":"yes","recycling:shoes":"yes","recycling_type":"container"}},"type":"Feature"},
	{"geometry":{"coordinates":[6.132333,48.702348],"type":"Point"},"properties":{"osm_id":"5209164111","tag":{"amenity":"waste_basket"}},"type":"Feature"},
	{"geometry":{"coordinates":[6.128261,48.701553],"type":"Point"},"properties":{"osm_id":"5209164377","tag":{"amenity":"waste_basket"}},"type":"Feature"},
	{"geometry":{"coordinates":[6.125729,48.700791],"type":"Point"},"properties":{"osm_id":"5209258290","tag":{"amenity":"waste_basket"}},"type":"Feature"},
	{"geometry":{"coordinates":[6.125639,48.699854],"type":"Point"},"properties":{"osm_id":"5209258316","tag":{"amenity":"recycling","recycling:paper":"yes","recycling_type":"container"}},"type":"Feature"},
	{"geometry":{"coordinates":[6.125662,48.699859],"type":"Point"},"properties":{"osm_id":"5209258317","tag":{"amenity":"recycling","recycling:glass_bottles":"yes","recycling_type":"container"}},"type":"Feature"},
	{"geometry":{"coordinates":[6.125221,48.697755],"type":"Point"},"properties":{"osm_id":"5209970156","tag":{"amenity":"recycling","recycling:clothes":"yes","recycling:shoes":"yes","recycling_type":"container"}},"type":"Feature"},
	{"geometry":{"coordinates":[6.149559,48.695308],"type":"Point"},"properties":{"osm_id":"5268634685","tag":{"amenity":"recycling","recycling:glass_bottles":"yes","recycling_type":"container"}},"type":"Feature"},
	{"geometry":{"coordinates":[6.14956,48.695322],"type":"Point"},"properties":{"osm_id":"5268634686","tag":{"amenity":"recycling","recycling:paper":"yes","recycling_type":"container"}},"type":"Feature"},
	{"geometry":{"coordinates":[6.151014,48.723669],"type":"Point"},"properties":{"osm_id":"7126773815","tag":{"amenity":"waste_basket"}},"type":"Feature"},
	{"geometry":{"coordinates":[6.149946,48.724806],"type":"Point"},"properties":{"osm_id":"7590207958","tag":{"amenity":"waste_basket"}},"type":"Feature"},
	{"geometry":{"coordinates":[6.150147,48.724739],"type":"Point"},"properties":{"osm_id":"7590207959","tag":{"amenity":"waste_basket"}},"type":"Feature"},
	{"geometry":{"coordinates":[6.151854,48.727806],"type":"Point"},"properties":{"osm_id":"7925798563","tag":{"amenity":"waste_basket"}},"type":"Feature"},
	{"geometry":{"coordinates":[6.150777,48.727239],"type":"Point"},"properties":{"osm_id":"7925798575","tag":{"amenity":"waste_basket"}},"type":"Feature"},
	{"geometry":{"coordinates":[6.151036,48.727229],"type":"Point"},"properties":{"osm_id":"7925798576","tag":{"amenity":"waste_basket"}},"type":"Feature"}
]
}
