{
"type": "FeatureCollection",
"features": [
	{"geometry":{"coordinates":[6.066553,47.226112],"type":"Point"},"properties":{"osm_id":"1468101901","tag":{"amenity":"recycling","recycling:glass":"yes","recycling_type":"container"}},"type":"Feature"},
	{"geometry":{"coordinates":[6.109386,47.231192],"type":"Point"},"properties":{"barrier":"gate","osm_id":"1632853504","tag":{"bicycle":"no","foot":"no"}},"type":"Feature"},
	{"geometry":{"coordinates":[6.113329,47.228628],"type":"Point"},"properties":{"osm_id":"1860390962","tag":{"amenity":"recycling","recycling:clothes":"yes","recycling:glass":"yes"}},"type":"Feature"},
	{"geometry":{"coordinates":[6.116249,47.277409],"type":"Point"},"properties":{"osm_id":"2194646424","tag":{"amenity":"recycling","recycling_type":"container"}},"type":"Feature"},
	{"geometry":{"coordinates":[6.06933,47.228915],"type":"Point"},"properties":{"osm_id":"2307503660","tag":{"amenity":"recycling","recycling:glass":"yes","recycling_type":"container"}},"type":"Feature"},
	{"geometry":{"coordinates":[6.067735,47.274993],"type":"Point"},"properties":{"osm_id":"2581018194","tag":{"amenity":"recycling","recycling:cans":"no","recycling:clothes":"no","recycling:glass":"yes","recycling:paper":"no"}},"type":"Feature"},
	{"geometry":{"coordinates":[6.065271,47.265786],"type":"Point"},"properties":{"osm_id":"3075364528","tag":{"amenity":"recycling","recycling_type":"container"}},"type":"Feature"},
	{"geometry":{"coordinates":[6.114146,47.227556],"type":"Point"},"properties":{"osm_id":"4108451430","tag":{"amenity":"waste_basket"}},"type":"Feature"},
	{"geometry":{"coordinates":[6.117305,47.225113],"type":"Point"},"properties":{"osm_id":"4108451434","tag":{"amenity":"waste_basket"}},"type":"Feature"},
	{"geometry":{"coordinates":[6.117037,47.225125],"type":"Point"},"properties":{"osm_id":"4108470137","tag":{"amenity":"waste_basket"}},"type":"Feature"},
	{"geometry":{"coordinates":[6.118626,47.224747],"type":"Point"},"properties":{"osm_id":"4112357255","tag":{"amenity":"waste_basket"}},"type":"Feature"},
	{"geometry":{"coordinates":[6.123582,47.242394],"type":"Point"},"properties":{"osm_id":"4185797504","tag":{"amenity":"waste_basket"}},"type":"Feature"},
	{"geometry":{"coordinates":[6.065914,47.227144],"type":"Point"},"properties":{"osm_id":"4190002322","tag":{"amenity":"waste_basket"}},"type":"Feature"},
	{"geometry":{"coordinates":[6.114638,47.222117],"type":"Point"},"properties":{"osm_id":"4257802542","tag":{"amenity":"waste_basket"}},"type":"Feature"},
	{"geometry":{"coordinates":[6.114141,47.221736],"type":"Point"},"properties":{"osm_id":"4257806246","tag":{"amenity":"waste_basket"}},"type":"Feature"},
	{"geometry":{"coordinates":[6.122253,47.226539],"type":"Point"},"properties":{"osm_id":"4257818679","tag":{"amenity":"waste_basket"}},"type":"Feature"},
	{"geometry":{"coordinates":[6.117067,47.224026],"type":"Point"},"properties":{"osm_id":"4270537845","tag":{"amenity":"waste_basket"}},"type":"Feature"},
	{"geometry":{"coordinates":[6.109137,47.231055],"type":"Point"},"properties":{"osm_id":"4346493235","tag":{"amenity":"recycling","recycling:glass_bottles":"yes"}},"type":"Feature"},
	{"geometry":{"coordinates":[6.113865,47.226928],"type":"Point"},"properties":{"osm_id":"4346493236","tag":{"amenity":"recycling","recycling:glass":"yes"}},"type":"Feature"},
	{"geometry":{"coordinates":[6.077633,47.235215],"type":"Point"},"properties":{"osm_id":"4422461341","tag":{"amenity":"recycling","recycling:glass":"yes"}},"type":"Feature"},
	{"geometry":{"coordinates":[6.077006,47.234395],"type":"Point"},"properties":{"osm_id":"4422516255","tag":{"amenity":"waste_basket"}},"type":"Feature"},
	{"geometry":{"coordinates":[6.07722,47.2344],"type":"Point"},"properties":{"osm_id":"4422516256","tag":{"amenity":"waste_basket"}},"type":"Feature"},
	{"geometry":{"coordinates":[6.120304,47.225678],"type":"Point"},"properties":{"osm_id":"4432944765","tag":{"amenity":"waste_basket"}},"type":"Feature"},
	{"geometry":{"coordinates":[6.118713,47.22461],"type":"Point"},"properties":{"osm_id":"4432944769","tag":{"amenity":"recycling","recycling:glass":"yes"}},"type":"Feature"},
	{"geometry":{"coordinates":[6.081009,47.235185],"type":"Point"},"properties":{"osm_id":"4914518963","tag":{"amenity":"waste_basket"}},"type":"Feature"},
	{"geometry":{"coordinates":[6.098388,47.24939],"type":"Point"},"properties":{"osm_id":"4993139621","tag":{"amenity":"waste_basket"}},"type":"Feature"},
	{"geometry":{"coordinates":[6.065024,47.239725],"type":"Point"},"properties":{"osm_id":"5118355455","tag":{"amenity":"recycling","recycling_type":"container"}},"type":"Feature"},
	{"geometry":{"coordinates":[6.123726,47.241493],"type":"Point"},"properties":{"osm_id":"5120338338","tag":{"amenity":"recycling","opening_hours":"24/7","recycling:glass_bottles":"yes","recycling_type":"container"}},"type":"Feature"},
	{"geometry":{"coordinates":[6.111061,47.220211],"type":"Point"},"properties":{"osm_id":"5543038181","tag":{"amenity":"recycling","recycling:glass":"yes","recycling_type":"container"}},"type":"Feature"},
	{"geometry":{"coordinates":[6.069498,47.255785],"type":"Point"},"properties":{"osm_id":"5629244733","tag":{"amenity":"recycling","recycling_type":"container"}},"type":"Feature"},
	{"geometry":{"coordinates":[6.123834,47.242347],"type":"Point"},"properties":{"osm_id":"7630019170","tag":{"amenity":"recycling","opening_hours":"24/7","recycling:clothes":"yes","recycling_type":"container"}},"type":"Feature"},
	{"geometry":{"coordinates":[6.123851,47.242354],"type":"Point"},"properties":{"osm_id":"7630020798","tag":{"amenity":"recycling","opening_hours":"24/7","recycling:clothes":"yes","recycling_type":"container"}},"type":"Feature"}
]
}
