{
"type": "FeatureCollection",
"features": [
	{"geometry":{"coordinates":[6.082703,47.104692],"type":"Point"},"properties":{"osm_id":"954704758","tag":{"amenity":"recycling","recycling:batteries":"no","recycling:glass":"yes","recycling:paper":"no","recycling:scrap_metal":"no"}},"type":"Feature"},
	{"geometry":{"coordinates":[6.148438,47.105347],"type":"Point"},"properties":{"osm_id":"3024345469","tag":{"amenity":"waste_basket"}},"type":"Feature"},
	{"geometry":{"coordinates":[6.145961,47.105064],"type":"Point"},"properties":{"osm_id":"4673115842","tag":{"amenity":"waste_disposal"}},"type":"Feature"},
	{"geometry":{"coordinates":[6.136618,47.157352],"type":"Point"},"properties":{"osm_id":"5019782523","tag":{"amenity":"recycling","recycling_type":"container"}},"type":"Feature"},
	{"geometry":{"coordinates":[6.10848,47.154842],"type":"Point"},"properties":{"osm_id":"6572007567","tag":{"amenity":"recycling","recycling_type":"container"}},"type":"Feature"},
	{"geometry":{"coordinates":[6.128513,47.10412],"type":"Point"},"properties":{"name":"D\u00c3\u00a9cheterie d'Ornans","osm_id":"7033629233","tag":{"amenity":"recycling","recycling_type":"centre"}},"type":"Feature"},
	{"geometry":{"coordinates":[6.137961,47.103213],"type":"Point"},"properties":{"osm_id":"7660873931","tag":{"amenity":"waste_disposal","waste":"recycling;trash"}},"type":"Feature"},
	{"geometry":{"coordinates":[6.133969,47.101978],"type":"Point"},"properties":{"osm_id":"7914343802","tag":{"amenity":"recycling","recycling:glass":"yes","recycling_type":"container"}},"type":"Feature"},
	{"geometry":{"coordinates":[6.138698,47.107731],"type":"Point"},"properties":{"osm_id":"7914343803","tag":{"amenity":"recycling","recycling:glass":"yes","recycling_type":"container"}},"type":"Feature"}
]
}
