{
"type": "FeatureCollection",
"features": [
	{"geometry":{"coordinates":[6.131907,46.219851],"type":"Point"},"properties":{"osm_id":"306402133","tag":{"addr:city":"Gen\u00c3\u00a8ve","addr:housenumber":"8","addr:postcode":"1209","addr:street":"Rue Maurice-Braillard","amenity":"recycling","operator":"Ville de Geneve","recycling:cans":"yes","recycling:clothes":"no","recycling:coffee_capsules":"yes","recycling:glass":"no","recycling:glass_bottles":"yes","recycling:paper":"no","recycling:plastic":"yes","recycling:plastic_bottles":"yes","recycling_type":"container","wheelchair":"yes"}},"type":"Feature"},
	{"geometry":{"coordinates":[6.121491,46.227891],"type":"Point"},"properties":{"name":"Point de r\u00c3\u00a9cup\u00c3\u00a9ration du Pommier","osm_id":"460449201","tag":{"amenity":"recycling"}},"type":"Feature"},
	{"geometry":{"coordinates":[6.138613,46.208266],"type":"Point"},"properties":{"osm_id":"474838332","tag":{"addr:city":"Gen\u00c3\u00a8ve","addr:housenumber":"10","addr:street":"Rue Jean-Dassier","amenity":"recycling","operator":"Ville de Geneve","recycling:aerosol_cans":"yes","recycling:aluminium_tins":"yes","recycling:aluminum":"yes","recycling:aluminum_cans":"yes","recycling:batteries":"yes","recycling:books":"no","recycling:cans":"yes","recycling:cardboard":"no","recycling:clothes":"no","recycling:coffee_capsules":"yes","recycling:electrical_appliances":"no","recycling:glass_bottles":"yes","recycling:green_waste":"no","recycling:magazines":"no","recycling:newspaper":"no","recycling:paper":"no","recycling:paper_packaging":"no","recycling:plastic_bottles":"yes","recycling:plastic_packaging":"no","recycling:small_appliances":"no","recycling:waste":"no","recycling:wood":"no","recycling_type":"container"}},"type":"Feature"},
	{"geometry":{"coordinates":[6.102932,46.221805],"type":"Point"},"properties":{"osm_id":"479517555","tag":{"amenity":"recycling"}},"type":"Feature"},
	{"geometry":{"coordinates":[6.123416,46.205089],"type":"Point"},"properties":{"osm_id":"688625846","tag":{"addr:city":"Gen\u00c3\u00a8ve","addr:housenumber":"8","addr:street":"Rue du Contrat-Social","amenity":"recycling","operator":"Ville de Geneve","recycling:aluminium":"yes","recycling:aluminium_cans":"yes","recycling:batteries":"yes","recycling:cans":"yes","recycling:coffee_capsules":"yes","recycling:glass":"yes","recycling:glass_bottles":"yes","recycling:plastic_bottles":"yes","recycling:textiles":"yes"}},"type":"Feature"},
	{"geometry":{"coordinates":[6.080841,46.214033],"type":"Point"},"properties":{"osm_id":"707091114","tag":{"amenity":"recycling","location":"underground","recycling:glass_bottles":"yes","recycling:paper":"yes","recycling:plastic":"no","recycling:plastic_bottles":"yes","recycling:plastic_packaging":"no","recycling_type":"container"}},"type":"Feature"},
	{"geometry":{"coordinates":[6.118672,46.227955],"type":"Point"},"properties":{"osm_id":"769368797","tag":{"amenity":"recycling","recycling:cans":"yes","recycling:clothes":"yes","recycling:glass":"yes","recycling:glass_bottles":"yes","recycling:paper":"yes","recycling:plastic":"yes","recycling_type":"container"}},"type":"Feature"},
	{"geometry":{"coordinates":[6.122607,46.229568],"type":"Point"},"properties":{"osm_id":"769370399","tag":{"amenity":"recycling"}},"type":"Feature"},
	{"geometry":{"coordinates":[6.133433,46.255285],"type":"Point"},"properties":{"name":"ESREC - Ch\u00c3\u00a2nats","osm_id":"771536366","tag":{"amenity":"recycling"}},"type":"Feature"},
	{"geometry":{"coordinates":[6.126913,46.235914],"type":"Point"},"properties":{"osm_id":"794612095","tag":{"amenity":"recycling"}},"type":"Feature"},
	{"geometry":{"coordinates":[6.115589,46.206062],"type":"Point"},"properties":{"osm_id":"795805413","tag":{"addr:city":"Gen\u00c3\u00a8ve","addr:housenumber":"100","addr:street":"Avenue d'A\u00c3\u00afre","amenity":"recycling","operator":"Ville de Geneve","recycling:aluminium":"yes","recycling:aluminium_cans":"yes","recycling:aluminium_tins":"yes","recycling:batteries":"yes","recycling:cans":"yes","recycling:cardboard":"yes","recycling:coffee_capsules":"yes","recycling:glass_bottles":"yes","recycling:organic":"yes","recycling:organic_waste":"yes","recycling:paper":"yes","recycling:paper_bags":"yes","recycling:paper_packaging":"yes","recycling:paper_packing":"yes","recycling:paperboard_packaging":"yes","recycling:papers":"yes","recycling:plastic_bottles":"yes","recycling:textiles":"yes"}},"type":"Feature"},
	{"geometry":{"coordinates":[6.112333,46.228377],"type":"Point"},"properties":{"osm_id":"843970008","tag":{"amenity":"recycling"}},"type":"Feature"},
	{"geometry":{"coordinates":[6.139209,46.243414],"type":"Point"},"properties":{"osm_id":"869984718","tag":{"amenity":"recycling"}},"type":"Feature"},
	{"geometry":{"coordinates":[6.132937,46.210056],"type":"Point"},"properties":{"osm_id":"885411808","tag":{"addr:city":"Geneva","addr:housenumber":"14","addr:street":"Rue de la Poterie","amenity":"recycling","operator":"Ville de Geneve","recycling:aluminium":"yes","recycling:aluminium_cans":"yes","recycling:aluminium_tins":"yes","recycling:batteries":"yes","recycling:cans":"yes","recycling:clothes":"yes","recycling:coffee_capsules":"yes","recycling:glass":"no","recycling:glass_bottles":"yes","recycling:paper":"no","recycling:plastic":"no","recycling:plastic_bottles":"yes","recycling:textiles":"yes","recycling_type":"container"}},"type":"Feature"},
	{"geometry":{"coordinates":[6.140655,46.219862],"type":"Point"},"properties":{"osm_id":"894602220","tag":{"addr:city":"Gen\u00c3\u00a8ve","addr:housenumber":"65","addr:street":"Rue de Montbrillant","amenity":"recycling","operator":"Ville de Geneve","recycling:aerosol_cans":"yes","recycling:aluminium_cans":"yes","recycling:aluminium_tins":"yes","recycling:batteries":"yes","recycling:cans":"yes","recycling:clothes":"no","recycling:coffee_capsules":"yes","recycling:glass_bottles":"yes","recycling:paper":"no","recycling:plastic_bottles":"yes","recycling_type":"container"}},"type":"Feature"},
	{"geometry":{"coordinates":[6.141465,46.237919],"type":"Point"},"properties":{"osm_id":"895640966","tag":{"amenity":"recycling"}},"type":"Feature"},
	{"geometry":{"coordinates":[6.128466,46.219674],"type":"Point"},"properties":{"osm_id":"897047089","tag":{"addr:city":"Gen\u00c3\u00a8ve","addr:housenumber":"3A","addr:postcode":"1209","addr:street":"Rue de Moillebeau","amenity":"recycling","operator":"Ville de Geneve","recycling:aerosol_cans":"yes","recycling:aluminium":"yes","recycling:aluminium_cans":"yes","recycling:aluminium_tins":"yes","recycling:batteries":"yes","recycling:cans":"yes","recycling:clothes":"yes","recycling:coffee_capsules":"yes","recycling:glass":"no","recycling:glass_bottles":"yes","recycling:paper":"no","recycling:plastic":"no","recycling:plastic_bottles":"yes","recycling:scrap_metal":"yes","recycling:shoes":"yes","recycling:waste":"no","recycling_type":"container","wheelchair":"yes"}},"type":"Feature"},
	{"geometry":{"coordinates":[6.128689,46.209296],"type":"Point"},"properties":{"osm_id":"897590820","tag":{"addr:city":"Gen\u00c3\u00a8ve","addr:housenumber":"2","addr:street":"Rue Lamartine","amenity":"recycling","operator":"Ville de Geneve","recycling:aerosol_cans":"yes","recycling:aluminium":"yes","recycling:aluminium_cans":"yes","recycling:aluminium_tins":"yes","recycling:batteries":"yes","recycling:cans":"yes","recycling:glass_bottles":"yes","recycling:plastic_bottles":"yes","recycling:scrap_metal":"yes"}},"type":"Feature"},
	{"geometry":{"coordinates":[6.147234,46.24239],"type":"Point"},"properties":{"osm_id":"936793253","tag":{"amenity":"recycling"}},"type":"Feature"},
	{"geometry":{"coordinates":[6.135261,46.245592],"type":"Point"},"properties":{"osm_id":"942742883","tag":{"amenity":"recycling","recycling_type":"container"}},"type":"Feature"},
	{"geometry":{"coordinates":[6.079287,46.236968],"type":"Point"},"properties":{"osm_id":"946494442","tag":{"amenity":"recycling","location":"underground","recycling_type":"container"}},"type":"Feature"},
	{"geometry":{"coordinates":[6.081743,46.233086],"type":"Point"},"properties":{"osm_id":"966772514","tag":{"amenity":"recycling","location":"underground","recycling_type":"container"}},"type":"Feature"},
	{"geometry":{"coordinates":[6.080513,46.228202],"type":"Point"},"properties":{"osm_id":"966772536","tag":{"amenity":"recycling"}},"type":"Feature"},
	{"geometry":{"coordinates":[6.082176,46.229257],"type":"Point"},"properties":{"osm_id":"966772619","tag":{"amenity":"recycling"}},"type":"Feature"},
	{"geometry":{"coordinates":[6.137848,46.207667],"type":"Point"},"properties":{"osm_id":"1431923452","tag":{"addr:city":"Gen\u00c3\u00a8ve","addr:housenumber":"13","addr:street":"Rue Voltaire","amenity":"recycling","operator":"Ville de Geneve","recycling:aerosol_cans":"yes","recycling:aluminium":"yes","recycling:aluminium_cans":"yes","recycling:aluminium_tins":"yes","recycling:batteries":"yes","recycling:cans":"yes","recycling:glass_bottles":"yes","recycling_type":"container"}},"type":"Feature"},
	{"geometry":{"coordinates":[6.102078,46.25282],"type":"Point"},"properties":{"osm_id":"1443001247","tag":{"amenity":"recycling","recycling:glass":"yes","recycling:paper":"yes","recycling_type":"container"}},"type":"Feature"},
	{"geometry":{"coordinates":[6.090385,46.249634],"type":"Point"},"properties":{"osm_id":"1444814451","tag":{"amenity":"recycling","recycling:cans":"yes","recycling:glass":"yes","recycling:paper":"yes","recycling:scrap_metal":"yes","recycling_type":"container"}},"type":"Feature"},
	{"geometry":{"coordinates":[6.096762,46.253505],"type":"Point"},"properties":{"osm_id":"1444814457","tag":{"amenity":"recycling","recycling:cans":"yes","recycling:clothes":"no","recycling:glass":"yes","recycling:glass_bottles":"yes","recycling:paper":"yes","recycling:plastic":"no","recycling_type":"container"}},"type":"Feature"},
	{"geometry":{"coordinates":[6.126721,46.22466],"type":"Point"},"properties":{"osm_id":"1569855880","tag":{"addr:city":"Gen\u00c3\u00a8ve","addr:housenumber":"8","addr:postcode":"1209","addr:street":"Chemin Mo\u00c3\u00afse-Duboule","amenity":"recycling","operator":"Ville de Geneve","recycling:aluminium":"yes","recycling:batteries":"yes","recycling:cans":"yes","recycling:clothes":"yes","recycling:coffee_cups":"yes","recycling:electrical_appliances":"no","recycling:glass_bottles":"yes","recycling:plastic":"no","recycling:plastic_bottles":"yes","recycling_type":"centre"}},"type":"Feature"},
	{"geometry":{"coordinates":[6.110802,46.217036],"type":"Point"},"properties":{"osm_id":"1789161677","tag":{"amenity":"recycling"}},"type":"Feature"},
	{"geometry":{"coordinates":[6.133173,46.214434],"type":"Point"},"properties":{"osm_id":"1805041368","tag":{"addr:city":"Gen\u00c3\u00a8ve","addr:housenumber":"13","addr:street":"Rue de la Canonni\u00c3\u00a8re","amenity":"recycling","operator":"Ville de Geneve","recycling:aluminium":"yes","recycling:aluminium_cans":"yes","recycling:aluminium_tins":"yes","recycling:batteries":"yes","recycling:cans":"yes","recycling:coffee_capsules":"yes","recycling:glass_bottles":"yes","recycling:shoes":"yes","recycling:textiles":"yes","recycling_type":"container"}},"type":"Feature"},
	{"geometry":{"coordinates":[6.129579,46.213472],"type":"Point"},"properties":{"osm_id":"1805041369","tag":{"addr:city":"Gen\u00c3\u00a8ve","addr:housenumber":"60","addr:street":"Avenue Wendt","amenity":"recycling","operator":"Ville de Geneve","recycling:aluminium":"yes","recycling:aluminium_cans":"yes","recycling:aluminium_tins":"yes","recycling:cans":"yes","recycling:clothes":"yes","recycling:glass_bottles":"yes","recycling:paper":"no","recycling:plastic_bottles":"yes","recycling:shoes":"yes","recycling_type":"container"}},"type":"Feature"},
	{"geometry":{"coordinates":[6.135039,46.213761],"type":"Point"},"properties":{"osm_id":"1805041371","tag":{"addr:city":"Gen\u00c3\u00a8ve","addr:housenumber":"38","addr:street":"Rue Antoine-Carteret","amenity":"recycling","operator":"Ville de Geneve","recycling:aluminium_cans":"yes","recycling:aluminium_tins":"yes","recycling:aluminum":"yes","recycling:batteries":"yes","recycling:cans":"yes","recycling:clothes":"no","recycling:glass":"no","recycling:glass_bottles":"yes","recycling:paper":"no","recycling:plastic":"no","recycling:plastic_bottles":"yes","recycling_type":"container"}},"type":"Feature"},
	{"geometry":{"coordinates":[6.123631,46.233741],"type":"Point"},"properties":{"osm_id":"1826653611","tag":{"addr:city":"Le Grand-Saconnex","amenity":"recycling","recycling_type":"container"}},"type":"Feature"},
	{"geometry":{"coordinates":[6.079352,46.239864],"type":"Point"},"properties":{"osm_id":"1854021765","tag":{"amenity":"recycling","location":"underground","recycling_type":"container"}},"type":"Feature"},
	{"geometry":{"coordinates":[6.076464,46.236092],"type":"Point"},"properties":{"osm_id":"1855030448","tag":{"amenity":"recycling","location":"underground","recycling_type":"container"}},"type":"Feature"},
	{"geometry":{"coordinates":[6.080986,46.236154],"type":"Point"},"properties":{"osm_id":"1855030470","tag":{"amenity":"recycling","location":"underground","recycling_type":"container"}},"type":"Feature"},
	{"geometry":{"coordinates":[6.074981,46.236825],"type":"Point"},"properties":{"osm_id":"1855030683","tag":{"amenity":"recycling","location":"underground","recycling_type":"container"}},"type":"Feature"},
	{"geometry":{"coordinates":[6.079837,46.238701],"type":"Point"},"properties":{"osm_id":"1855030947","tag":{"amenity":"recycling","location":"underground","recycling_type":"container"}},"type":"Feature"},
	{"geometry":{"coordinates":[6.079559,46.239059],"type":"Point"},"properties":{"osm_id":"1855031019","tag":{"amenity":"recycling","location":"underground","recycling_type":"container"}},"type":"Feature"},
	{"geometry":{"coordinates":[6.090665,46.236847],"type":"Point"},"properties":{"osm_id":"1860350342","tag":{"amenity":"recycling"}},"type":"Feature"},
	{"geometry":{"coordinates":[6.087958,46.23815],"type":"Point"},"properties":{"osm_id":"1860350636","tag":{"amenity":"recycling"}},"type":"Feature"},
	{"geometry":{"coordinates":[6.093113,46.235024],"type":"Point"},"properties":{"osm_id":"1860847744","tag":{"amenity":"recycling"}},"type":"Feature"},
	{"geometry":{"coordinates":[6.124245,46.22552],"type":"Point"},"properties":{"osm_id":"1864913132","tag":{"addr:city":"Gen\u00c3\u00a8ve","addr:housenumber":"47A","addr:postcode":"1209","addr:street":"Chemin Mo\u00c3\u00afse-Duboule","amenity":"recycling","operator":"Ville de Geneve","recycling:aluminium":"yes","recycling:batteries":"yes","recycling:cans":"yes","recycling:clothes":"yes","recycling:glass_bottles":"yes","recycling:plastic":"yes","recycling:plastic_bottles":"yes","recycling_type":"container"}},"type":"Feature"},
	{"geometry":{"coordinates":[6.071807,46.227907],"type":"Point"},"properties":{"osm_id":"1871629351","tag":{"amenity":"recycling","location":"underground","recycling_type":"container"}},"type":"Feature"},
	{"geometry":{"coordinates":[6.127407,46.20527],"type":"Point"},"properties":{"osm_id":"1875822395","tag":{"addr:city":"Gen\u00c3\u00a8ve","addr:housenumber":"5","addr:street":"Rue de Mil\u00c3\u00a9ant","amenity":"recycling","operator":"Ville de Geneve","recycling:aluminium":"yes","recycling:aluminium_cans":"yes","recycling:aluminium_tins":"yes","recycling:batteries":"yes","recycling:cans":"yes","recycling:coffee_capsules":"yes","recycling:glass_bottles":"yes","recycling:plastic_bottles":"yes","recycling:textiles":"yes"}},"type":"Feature"},
	{"geometry":{"coordinates":[6.12837,46.20578],"type":"Point"},"properties":{"osm_id":"1895035522","tag":{"addr:city":"Gen\u00c3\u00a8ve","addr:street":"Rue des C\u00c3\u00a8dres","amenity":"recycling","operator":"Ville de Geneve","recycling:aluminium":"yes","recycling:aluminium_cans":"yes","recycling:aluminium_tins":"yes","recycling:batteries":"yes","recycling:cans":"yes","recycling:coffee_capsules":"yes","recycling:glass_bottles":"yes","recycling:plastic_bottles":"yes","recycling:textiles":"yes"}},"type":"Feature"},
	{"geometry":{"coordinates":[6.147025,46.209434],"type":"Point"},"properties":{"osm_id":"1899122622","tag":{"amenity":"recycling"}},"type":"Feature"},
	{"geometry":{"coordinates":[6.130426,46.211565],"type":"Point"},"properties":{"osm_id":"1904935468","tag":{"addr:city":"Gen\u00c3\u00a8ve","addr:housenumber":"11","addr:street":"Rue Faller","amenity":"recycling","operator":"Ville de Geneve","recycling:aluminium":"yes","recycling:aluminium_cans":"yes","recycling:aluminium_tins":"yes","recycling:batteries":"yes","recycling:cans":"yes","recycling:clothes":"no","recycling:coffee_capsules":"yes","recycling:glass_bottles":"yes","recycling:paper":"no","recycling:plastic_bottles":"yes","recycling:textiles":"yes","recycling_type":"container"}},"type":"Feature"},
	{"geometry":{"coordinates":[6.114047,46.196826],"type":"Point"},"properties":{"osm_id":"1906145446","tag":{"amenity":"recycling"}},"type":"Feature"},
	{"geometry":{"coordinates":[6.142927,46.218103],"type":"Point"},"properties":{"osm_id":"1977209651","tag":{"addr:city":"Gen\u00c3\u00a8ve","addr:housenumber":"3A","addr:street":"La Voie-Creuse","amenity":"recycling","operator":"Ville de Geneve","recycling:aerosol_cans":"yes","recycling:aluminium":"yes","recycling:aluminium_cans":"yes","recycling:aluminium_tins":"yes","recycling:batteries":"yes","recycling:cans":"yes","recycling:clothes":"no","recycling:glass_bottles":"yes","recycling:paper":"no","recycling:plastic_bottles":"yes","recycling_type":"container"}},"type":"Feature"},
	{"geometry":{"coordinates":[6.139202,46.217147],"type":"Point"},"properties":{"osm_id":"1981182719","tag":{"addr:city":"Gen\u00c3\u00a8ve","addr:housenumber":"3","addr:street":"Chemin De-Vincy","amenity":"recycling","operator":"Ville de Geneve","recycling:aerosol_cans":"yes","recycling:aluminium":"yes","recycling:aluminium_cans":"yes","recycling:aluminium_tins":"yes","recycling:batteries":"yes","recycling:cans":"yes","recycling:clothes":"yes","recycling:coffee_capsules":"yes","recycling:glass_bottles":"yes","recycling:paper":"no","recycling:plastic_bottles":"yes","recycling:shoes":"yes","recycling:textiles":"yes","recycling_type":"container"}},"type":"Feature"},
	{"geometry":{"coordinates":[6.121209,46.214818],"type":"Point"},"properties":{"osm_id":"1984234508","tag":{"addr:city":"Gen\u00c3\u00a8ve","addr:housenumber":"34","addr:street":"Cit\u00c3\u00a9 Villars","amenity":"recycling","operator":"Ville de Geneve","recycling:aluminium":"yes","recycling:aluminium_cans":"yes","recycling:aluminium_tins":"yes","recycling:batteries":"yes","recycling:cans":"yes","recycling:coffee_capsules":"yes","recycling:glass_bottles":"yes","recycling:plastic_bottles":"yes"}},"type":"Feature"},
	{"geometry":{"coordinates":[6.127694,46.211286],"type":"Point"},"properties":{"osm_id":"1987710468","tag":{"addr:city":"Gen\u00c3\u00a8ve","addr:housenumber":"10","addr:street":"Avenue Soret","amenity":"recycling","operator":"Ville de Geneve","recycling:aerosol_cans":"yes","recycling:aluminium":"yes","recycling:aluminium_cans":"yes","recycling:aluminium_tins":"yes","recycling:batteries":"yes","recycling:cans":"yes","recycling:glass_bottles":"yes"}},"type":"Feature"},
	{"geometry":{"coordinates":[6.13074,46.200876],"type":"Point"},"properties":{"osm_id":"2019971509","tag":{"addr:city":"Gen\u00c3\u00a8ve","addr:housenumber":"6","addr:street":"Boulevard Carl-Vogt","amenity":"recycling","location":"underground","operator":"Ville de Geneve","recycling:aluminium":"yes","recycling:aluminium_cans":"yes","recycling:aluminium_tins":"yes","recycling:batteries":"yes","recycling:cans":"yes","recycling:coffee_capsules":"yes","recycling:glass_bottles":"yes","recycling:plastic_bottles":"yes","recycling:shoes":"yes","recycling:textiles":"yes","recycling_type":"container"}},"type":"Feature"},
	{"geometry":{"coordinates":[6.119699,46.253592],"type":"Point"},"properties":{"osm_id":"2173684775","tag":{"amenity":"recycling","recycling:glass":"yes","recycling_type":"container"}},"type":"Feature"},
	{"geometry":{"coordinates":[6.107528,46.208479],"type":"Point"},"properties":{"osm_id":"2242978759","tag":{"amenity":"recycling"}},"type":"Feature"},
	{"geometry":{"coordinates":[6.115653,46.207782],"type":"Point"},"properties":{"osm_id":"2251256352","tag":{"addr:city":"Gen\u00c3\u00a8ve","addr:housenumber":"1","addr:street":"Chemin des Ouches","amenity":"recycling","operator":"Ville de Geneve","recycling:aluminium":"yes","recycling:aluminium_cans":"yes","recycling:aluminium_tins":"yes","recycling:batteries":"yes","recycling:cans":"yes","recycling:coffee_capsules":"yes","recycling:plastic_bottles":"yes","recycling:textiles":"yes"}},"type":"Feature"},
	{"geometry":{"coordinates":[6.127267,46.20754],"type":"Point"},"properties":{"osm_id":"2267667681","tag":{"addr:city":"Gen\u00c3\u00a8ve","addr:housenumber":"23","addr:street":"Rue des Charmilles","amenity":"recycling","operator":"Ville de Geneve","recycling:aluminium":"yes","recycling:aluminium_cans":"yes","recycling:aluminium_tins":"yes","recycling:batteries":"yes","recycling:cans":"yes","recycling:coffee_capsules":"yes","recycling:glass_bottles":"yes","recycling:plastic_bottles":"yes","recycling:textiles":"yes"}},"type":"Feature"},
	{"geometry":{"coordinates":[6.101069,46.198076],"type":"Point"},"properties":{"osm_id":"2272558405","tag":{"amenity":"recycling"}},"type":"Feature"},
	{"geometry":{"coordinates":[6.127943,46.232155],"type":"Point"},"properties":{"osm_id":"2297682058","tag":{"addr:city":"Le Grand-Saconnex","addr:postcode":"1218","addr:street":"L'Ancienne-Route","amenity":"recycling","material":"steel","recycling:aluminium":"yes","recycling:batteries":"yes","recycling:cans":"yes","recycling:clothes":"yes","recycling:coffee_cups":"yes","recycling:glass":"yes","recycling:glass_bottles":"yes","recycling:paper":"yes","recycling:plastic":"no","recycling:plastic_bottles":"yes","recycling:scrap_metal":"yes","recycling:waste":"no","recycling_type":"container"}},"type":"Feature"},
	{"geometry":{"coordinates":[6.082467,46.237806],"type":"Point"},"properties":{"osm_id":"2302831532","tag":{"amenity":"recycling","location":"underground","recycling_type":"container"}},"type":"Feature"},
	{"geometry":{"coordinates":[6.081035,46.238776],"type":"Point"},"properties":{"osm_id":"2302831533","tag":{"amenity":"recycling","location":"underground","recycling_type":"container"}},"type":"Feature"},
	{"geometry":{"coordinates":[6.125163,46.237684],"type":"Point"},"properties":{"osm_id":"2304266441","tag":{"amenity":"recycling"}},"type":"Feature"},
	{"geometry":{"coordinates":[6.104456,46.224332],"type":"Point"},"properties":{"osm_id":"2314361999","tag":{"amenity":"recycling"}},"type":"Feature"},
	{"geometry":{"coordinates":[6.105418,46.223452],"type":"Point"},"properties":{"osm_id":"2315308279","tag":{"amenity":"recycling"}},"type":"Feature"},
	{"geometry":{"coordinates":[6.105102,46.225601],"type":"Point"},"properties":{"osm_id":"2318924507","tag":{"amenity":"recycling"}},"type":"Feature"},
	{"geometry":{"coordinates":[6.108821,46.225689],"type":"Point"},"properties":{"osm_id":"2318924511","tag":{"amenity":"recycling"}},"type":"Feature"},
	{"geometry":{"coordinates":[6.117137,46.222119],"type":"Point"},"properties":{"osm_id":"2464277986","tag":{"amenity":"recycling","recycling:cans":"yes","recycling:clothes":"yes","recycling:glass":"yes","recycling:glass_bottles":"yes","recycling:paper":"yes","recycling:plastic":"yes","recycling_type":"container"}},"type":"Feature"},
	{"geometry":{"coordinates":[6.114027,46.223431],"type":"Point"},"properties":{"osm_id":"2464277995","tag":{"amenity":"waste_basket"}},"type":"Feature"},
	{"geometry":{"coordinates":[6.111564,46.22528],"type":"Point"},"properties":{"osm_id":"2464278001","tag":{"amenity":"waste_basket"}},"type":"Feature"},
	{"geometry":{"coordinates":[6.142049,46.198269],"type":"Point"},"properties":{"osm_id":"2478420439","tag":{"amenity":"waste_basket"}},"type":"Feature"},
	{"geometry":{"coordinates":[6.14465,46.199874],"type":"Point"},"properties":{"osm_id":"2478420441","tag":{"amenity":"waste_basket"}},"type":"Feature"},
	{"geometry":{"coordinates":[6.069559,46.229261],"type":"Point"},"properties":{"osm_id":"2481123811","tag":{"amenity":"recycling"}},"type":"Feature"},
	{"geometry":{"coordinates":[6.069476,46.230078],"type":"Point"},"properties":{"osm_id":"2481123846","tag":{"amenity":"recycling"}},"type":"Feature"},
	{"geometry":{"coordinates":[6.14986,46.212166],"type":"Point"},"properties":{"osm_id":"2587265446","tag":{"addr:city":"Gen\u00c3\u00a8ve","addr:housenumber":"10","addr:street":"Place de la Navigation","amenity":"recycling","operator":"Ville de Geneve","recycling:aerosol_cans":"yes","recycling:aluminium":"yes","recycling:aluminium_cans":"yes","recycling:aluminium_tins":"yes","recycling:batteries":"yes","recycling:cans":"yes","recycling:coffee_capsules":"yes","recycling:glass_bottles":"yes","recycling:plastic_bottles":"yes"}},"type":"Feature"},
	{"geometry":{"coordinates":[6.146692,46.2158],"type":"Point"},"properties":{"osm_id":"2587283788","tag":{"addr:city":"Gen\u00c3\u00a8ve","addr:housenumber":"52","addr:street":"Rue Rothschild","amenity":"recycling","operator":"Ville de Geneve","recycling:aerosol_cans":"yes","recycling:aluminium":"yes","recycling:aluminium_cans":"yes","recycling:aluminium_tins":"yes","recycling:batteries":"yes","recycling:cans":"yes","recycling:clothes":"no","recycling:glass_bottles":"yes","recycling:paper":"no","recycling:plastic_bottles":"yes","recycling_type":"container"}},"type":"Feature"},
	{"geometry":{"coordinates":[6.146997,46.218823],"type":"Point"},"properties":{"osm_id":"2587286833","tag":{"addr:city":"Gen\u00c3\u00a8ve","amenity":"recycling","recycling:cans":"yes","recycling:cardboard":"yes","recycling:clothes":"no","recycling:glass":"yes","recycling:glass_bottles":"yes","recycling:green_waste":"yes","recycling:magazines":"yes","recycling:newspaper":"yes","recycling:paper":"yes","recycling:paper_packaging":"yes","recycling:plastic":"yes","recycling:plastic_bottles":"yes","recycling:scrap_metal":"yes","recycling:waste":"yes","recycling_type":"container"}},"type":"Feature"},
	{"geometry":{"coordinates":[6.148464,46.21803],"type":"Point"},"properties":{"osm_id":"2587288307","tag":{"addr:city":"Gen\u00c3\u00a8ve","addr:housenumber":"95","addr:street":"Rue de Lausanne","amenity":"recycling","operator":"Ville de Geneve","recycling:aerosol_cans":"yes","recycling:aluminium":"yes","recycling:aluminium_cans":"yes","recycling:aluminium_tins":"yes","recycling:cans":"yes","recycling:glass_bottles":"yes"}},"type":"Feature"},
	{"geometry":{"coordinates":[6.139709,46.216247],"type":"Point"},"properties":{"osm_id":"2587291559","tag":{"addr:city":"Gen\u00c3\u00a8ve","addr:housenumber":"13","addr:street":"Rue Baulacre","amenity":"recycling","operator":"Ville de Geneve","recycling:aluminium":"yes","recycling:aluminium_cans":"yes","recycling:aluminium_tins":"yes","recycling:batteries":"yes","recycling:cans":"yes","recycling:glass_bottles":"yes","recycling:plastic_bottles":"yes"}},"type":"Feature"},
	{"geometry":{"coordinates":[6.13804,46.211932],"type":"Point"},"properties":{"osm_id":"2587293372","tag":{"addr:city":"Gen\u00c3\u00a8ve","addr:housenumber":"43","addr:street":"Rue Louis-Favre","amenity":"recycling","operator":"Ville de Geneve","recycling:aerosol_cans":"yes","recycling:aluminium":"yes","recycling:batteries":"yes","recycling:cans":"yes","recycling:clothes":"no","recycling:glass_bottles":"yes","recycling:paper":"no","recycling:plastic":"no","recycling:shoes":"yes","recycling:textiles":"yes","recycling_type":"container"}},"type":"Feature"},
	{"geometry":{"coordinates":[6.140059,46.195598],"type":"Point"},"properties":{"osm_id":"2589245056","tag":{"addr:city":"Gen\u00c3\u00a8ve","addr:housenumber":"93","addr:street":"Boulevard Carl-Vogt","amenity":"recycling","location":"overground","operator":"Ville de Geneve","recycling:aluminium":"yes","recycling:aluminium_cans":"yes","recycling:aluminium_tins":"yes","recycling:batteries":"yes","recycling:cans":"yes","recycling:clothes":"yes","recycling:glass_bottles":"yes","recycling:shoes":"yes","recycling:textiles":"yes","recycling_type":"container"}},"type":"Feature"},
	{"geometry":{"coordinates":[6.152202,46.24566],"type":"Point"},"properties":{"osm_id":"3590699708","tag":{"amenity":"recycling"}},"type":"Feature"},
	{"geometry":{"coordinates":[6.132407,46.209524],"type":"Point"},"properties":{"osm_id":"3670407670","tag":{"amenity":"waste_basket"}},"type":"Feature"},
	{"geometry":{"coordinates":[6.130387,46.221402],"type":"Point"},"properties":{"osm_id":"3769746348","tag":{"amenity":"waste_basket"}},"type":"Feature"},
	{"geometry":{"coordinates":[6.129886,46.222598],"type":"Point"},"properties":{"osm_id":"3769749394","tag":{"amenity":"waste_basket"}},"type":"Feature"},
	{"geometry":{"coordinates":[6.129854,46.222619],"type":"Point"},"properties":{"osm_id":"3769749395","tag":{"addr:city":"Gen\u00c3\u00a8ve","addr:postcode":"1209","addr:street":"Chemin du Petit-Saconnex","amenity":"recycling","recycling:cans":"no","recycling:clothes":"no","recycling:glass":"no","recycling:glass_bottles":"no","recycling:paper":"yes","recycling:plastic":"no","recycling_type":"container"}},"type":"Feature"},
	{"geometry":{"coordinates":[6.126773,46.231507],"type":"Point"},"properties":{"osm_id":"3769778971","tag":{"amenity":"waste_basket"}},"type":"Feature"},
	{"geometry":{"coordinates":[6.126795,46.231482],"type":"Point"},"properties":{"osm_id":"3769778972","tag":{"amenity":"waste_basket"}},"type":"Feature"},
	{"geometry":{"coordinates":[6.126749,46.231541],"type":"Point"},"properties":{"osm_id":"3769778973","tag":{"amenity":"waste_basket"}},"type":"Feature"},
	{"geometry":{"coordinates":[6.12007,46.228853],"type":"Point"},"properties":{"osm_id":"3790832535","tag":{"addr:city":"Le Grand-Saconnex","amenity":"recycling","level":"-1","operator":"Migros","recycling:cans":"no","recycling:clothes":"no","recycling:glass":"no","recycling:glass_bottles":"no","recycling:paper":"no","recycling:plastic":"yes","recycling_type":"container"}},"type":"Feature"},
	{"geometry":{"coordinates":[6.130877,46.223101],"type":"Point"},"properties":{"osm_id":"3798796159","tag":{"amenity":"waste_basket"}},"type":"Feature"},
	{"geometry":{"coordinates":[6.128295,46.231371],"type":"Point"},"properties":{"osm_id":"3819968077","tag":{"amenity":"waste_basket"}},"type":"Feature"},
	{"geometry":{"coordinates":[6.127574,46.23234],"type":"Point"},"properties":{"osm_id":"3836486739","tag":{"amenity":"waste_basket"}},"type":"Feature"},
	{"geometry":{"coordinates":[6.127969,46.232156],"type":"Point"},"properties":{"osm_id":"3861546766","tag":{"amenity":"waste_basket"}},"type":"Feature"},
	{"geometry":{"coordinates":[6.135063,46.216409],"type":"Point"},"properties":{"osm_id":"3873500005","tag":{"amenity":"waste_basket"}},"type":"Feature"},
	{"geometry":{"coordinates":[6.135471,46.21751],"type":"Point"},"properties":{"osm_id":"3873500006","tag":{"amenity":"waste_basket"}},"type":"Feature"},
	{"geometry":{"coordinates":[6.13093,46.22055],"type":"Point"},"properties":{"osm_id":"3873500009","tag":{"amenity":"waste_basket"}},"type":"Feature"},
	{"geometry":{"coordinates":[6.126406,46.224577],"type":"Point"},"properties":{"osm_id":"3905832777","tag":{"amenity":"waste_basket"}},"type":"Feature"},
	{"geometry":{"coordinates":[6.127079,46.224099],"type":"Point"},"properties":{"osm_id":"3905832778","tag":{"amenity":"waste_basket"}},"type":"Feature"},
	{"geometry":{"coordinates":[6.12707,46.224287],"type":"Point"},"properties":{"osm_id":"3905832779","tag":{"amenity":"waste_basket"}},"type":"Feature"},
	{"geometry":{"coordinates":[6.127525,46.222846],"type":"Point"},"properties":{"osm_id":"3905832780","tag":{"amenity":"waste_basket"}},"type":"Feature"},
	{"geometry":{"coordinates":[6.128522,46.222945],"type":"Point"},"properties":{"osm_id":"3905832781","tag":{"amenity":"waste_basket"}},"type":"Feature"},
	{"geometry":{"coordinates":[6.128526,46.223087],"type":"Point"},"properties":{"osm_id":"3905832782","tag":{"amenity":"waste_basket"}},"type":"Feature"},
	{"geometry":{"coordinates":[6.129661,46.22045],"type":"Point"},"properties":{"osm_id":"3905832783","tag":{"amenity":"waste_basket"}},"type":"Feature"},
	{"geometry":{"coordinates":[6.129136,46.220299],"type":"Point"},"properties":{"osm_id":"3905832784","tag":{"amenity":"waste_basket","wheelchair":"yes"}},"type":"Feature"},
	{"geometry":{"coordinates":[6.126363,46.217692],"type":"Point"},"properties":{"osm_id":"3905832785","tag":{"amenity":"waste_basket"}},"type":"Feature"},
	{"geometry":{"coordinates":[6.12651,46.217841],"type":"Point"},"properties":{"osm_id":"3905832786","tag":{"amenity":"waste_basket"}},"type":"Feature"},
	{"geometry":{"coordinates":[6.130052,46.21355],"type":"Point"},"properties":{"osm_id":"3909034912","tag":{"amenity":"waste_basket"}},"type":"Feature"},
	{"geometry":{"coordinates":[6.130448,46.213247],"type":"Point"},"properties":{"osm_id":"3909034913","tag":{"amenity":"waste_basket"}},"type":"Feature"},
	{"geometry":{"coordinates":[6.123806,46.225776],"type":"Point"},"properties":{"osm_id":"3909034915","tag":{"amenity":"waste_basket"}},"type":"Feature"},
	{"geometry":{"coordinates":[6.123941,46.225921],"type":"Point"},"properties":{"osm_id":"3909034916","tag":{"amenity":"waste_basket"}},"type":"Feature"},
	{"geometry":{"coordinates":[6.126756,46.224668],"type":"Point"},"properties":{"osm_id":"3909034917","tag":{"amenity":"waste_basket"}},"type":"Feature"},
	{"geometry":{"coordinates":[6.126406,46.22465],"type":"Point"},"properties":{"osm_id":"3909034918","tag":{"amenity":"waste_basket"}},"type":"Feature"},
	{"geometry":{"coordinates":[6.12419,46.225536],"type":"Point"},"properties":{"osm_id":"3909034919","tag":{"amenity":"waste_basket"}},"type":"Feature"},
	{"geometry":{"coordinates":[6.134857,46.210389],"type":"Point"},"properties":{"osm_id":"4040351395","tag":{"addr:city":"Gen\u00c3\u00a8ve","addr:housenumber":"25","addr:street":"Rue de la Prairie","amenity":"recycling","operator":"Ville de Geneve","recycling:aluminium":"yes","recycling:aluminium_cans":"yes","recycling:aluminium_tins":"yes","recycling:batteries":"yes","recycling:cans":"yes","recycling:clothes":"no","recycling:coffee_capsules":"yes","recycling:glass_bottles":"yes","recycling:paper":"no","recycling:plastic":"no","recycling:textiles":"yes","recycling_type":"container"}},"type":"Feature"},
	{"geometry":{"coordinates":[6.133535,46.211771],"type":"Point"},"properties":{"osm_id":"4040403895","tag":{"amenity":"waste_basket"}},"type":"Feature"},
	{"geometry":{"coordinates":[6.133223,46.211915],"type":"Point"},"properties":{"osm_id":"4040403896","tag":{"amenity":"waste_basket"}},"type":"Feature"},
	{"geometry":{"coordinates":[6.133659,46.211827],"type":"Point"},"properties":{"osm_id":"4040403897","tag":{"amenity":"waste_basket"}},"type":"Feature"},
	{"geometry":{"coordinates":[6.133242,46.212013],"type":"Point"},"properties":{"osm_id":"4040403898","tag":{"amenity":"waste_basket"}},"type":"Feature"},
	{"geometry":{"coordinates":[6.133338,46.211863],"type":"Point"},"properties":{"osm_id":"4040403899","tag":{"amenity":"waste_basket"}},"type":"Feature"},
	{"geometry":{"coordinates":[6.136931,46.224659],"type":"Point"},"properties":{"osm_id":"4043754497","tag":{"amenity":"waste_basket"}},"type":"Feature"},
	{"geometry":{"coordinates":[6.138432,46.225753],"type":"Point"},"properties":{"osm_id":"4043754498","tag":{"amenity":"waste_basket"}},"type":"Feature"},
	{"geometry":{"coordinates":[6.131106,46.222163],"type":"Point"},"properties":{"osm_id":"4043754500","tag":{"amenity":"waste_basket"}},"type":"Feature"},
	{"geometry":{"coordinates":[6.138195,46.225364],"type":"Point"},"properties":{"osm_id":"4043754502","tag":{"amenity":"waste_basket"}},"type":"Feature"},
	{"geometry":{"coordinates":[6.138343,46.226231],"type":"Point"},"properties":{"osm_id":"4043754503","tag":{"amenity":"waste_basket"}},"type":"Feature"},
	{"geometry":{"coordinates":[6.137754,46.226313],"type":"Point"},"properties":{"osm_id":"4043754506","tag":{"amenity":"waste_basket"}},"type":"Feature"},
	{"geometry":{"coordinates":[6.133401,46.224858],"type":"Point"},"properties":{"osm_id":"4043754511","tag":{"amenity":"waste_basket"}},"type":"Feature"},
	{"geometry":{"coordinates":[6.141829,46.231963],"type":"Point"},"properties":{"osm_id":"4043846036","tag":{"amenity":"waste_basket"}},"type":"Feature"},
	{"geometry":{"coordinates":[6.137872,46.22755],"type":"Point"},"properties":{"osm_id":"4043846037","tag":{"amenity":"waste_basket"}},"type":"Feature"},
	{"geometry":{"coordinates":[6.147489,46.227816],"type":"Point"},"properties":{"osm_id":"4043846039","tag":{"amenity":"waste_basket"}},"type":"Feature"},
	{"geometry":{"coordinates":[6.140124,46.232138],"type":"Point"},"properties":{"osm_id":"4043846045","tag":{"amenity":"waste_basket"}},"type":"Feature"},
	{"geometry":{"coordinates":[6.142371,46.231976],"type":"Point"},"properties":{"osm_id":"4043846049","tag":{"amenity":"waste_basket"}},"type":"Feature"},
	{"geometry":{"coordinates":[6.138776,46.227388],"type":"Point"},"properties":{"osm_id":"4043846050","tag":{"amenity":"waste_basket"}},"type":"Feature"},
	{"geometry":{"coordinates":[6.14561,46.224396],"type":"Point"},"properties":{"osm_id":"4043846051","tag":{"amenity":"waste_basket"}},"type":"Feature"},
	{"geometry":{"coordinates":[6.140335,46.232075],"type":"Point"},"properties":{"osm_id":"4043846058","tag":{"amenity":"waste_basket"}},"type":"Feature"},
	{"geometry":{"coordinates":[6.136853,46.226783],"type":"Point"},"properties":{"osm_id":"4043846059","tag":{"amenity":"waste_basket"}},"type":"Feature"},
	{"geometry":{"coordinates":[6.143401,46.231079],"type":"Point"},"properties":{"osm_id":"4043846066","tag":{"amenity":"waste_basket"}},"type":"Feature"},
	{"geometry":{"coordinates":[6.140742,46.231997],"type":"Point"},"properties":{"osm_id":"4043846070","tag":{"amenity":"waste_basket"}},"type":"Feature"},
	{"geometry":{"coordinates":[6.13779,46.226948],"type":"Point"},"properties":{"osm_id":"4043846071","tag":{"amenity":"waste_basket"}},"type":"Feature"},
	{"geometry":{"coordinates":[6.14272,46.23184],"type":"Point"},"properties":{"osm_id":"4043846074","tag":{"amenity":"waste_basket"}},"type":"Feature"},
	{"geometry":{"coordinates":[6.13949,46.229778],"type":"Point"},"properties":{"osm_id":"4043846075","tag":{"amenity":"waste_basket"}},"type":"Feature"},
	{"geometry":{"coordinates":[6.145757,46.224252],"type":"Point"},"properties":{"osm_id":"4043846076","tag":{"amenity":"waste_basket"}},"type":"Feature"},
	{"geometry":{"coordinates":[6.143516,46.230772],"type":"Point"},"properties":{"osm_id":"4043846078","tag":{"amenity":"waste_basket"}},"type":"Feature"},
	{"geometry":{"coordinates":[6.138361,46.231133],"type":"Point"},"properties":{"osm_id":"4043846079","tag":{"amenity":"recycling","recycling:cans":"no","recycling:clothes":"no","recycling:paper":"yes","recycling:plastic":"no","recycling_type":"container"}},"type":"Feature"},
	{"geometry":{"coordinates":[6.137538,46.22702],"type":"Point"},"properties":{"osm_id":"4043846084","tag":{"amenity":"waste_basket"}},"type":"Feature"},
	{"geometry":{"coordinates":[6.147169,46.227859],"type":"Point"},"properties":{"osm_id":"4043846086","tag":{"amenity":"waste_basket"}},"type":"Feature"},
	{"geometry":{"coordinates":[6.138825,46.22998],"type":"Point"},"properties":{"osm_id":"4043846088","tag":{"amenity":"waste_basket"}},"type":"Feature"},
	{"geometry":{"coordinates":[6.145891,46.224172],"type":"Point"},"properties":{"osm_id":"4043847289","tag":{"amenity":"waste_basket"}},"type":"Feature"},
	{"geometry":{"coordinates":[6.138788,46.232195],"type":"Point"},"properties":{"osm_id":"4043847292","tag":{"amenity":"waste_basket"}},"type":"Feature"},
	{"geometry":{"coordinates":[6.145035,46.223606],"type":"Point"},"properties":{"osm_id":"4043847293","tag":{"amenity":"waste_basket"}},"type":"Feature"},
	{"geometry":{"coordinates":[6.141186,46.23198],"type":"Point"},"properties":{"osm_id":"4043847296","tag":{"amenity":"waste_basket"}},"type":"Feature"},
	{"geometry":{"coordinates":[6.145814,46.224695],"type":"Point"},"properties":{"osm_id":"4043847298","tag":{"amenity":"waste_basket"}},"type":"Feature"},
	{"geometry":{"coordinates":[6.142862,46.231697],"type":"Point"},"properties":{"osm_id":"4043847300","tag":{"amenity":"waste_basket"}},"type":"Feature"},
	{"geometry":{"coordinates":[6.138649,46.230005],"type":"Point"},"properties":{"osm_id":"4043847301","tag":{"amenity":"waste_basket"}},"type":"Feature"},
	{"geometry":{"coordinates":[6.147994,46.227572],"type":"Point"},"properties":{"osm_id":"4043847303","tag":{"amenity":"waste_basket"}},"type":"Feature"},
	{"geometry":{"coordinates":[6.139752,46.232359],"type":"Point"},"properties":{"osm_id":"4043847305","tag":{"amenity":"waste_basket"}},"type":"Feature"},
	{"geometry":{"coordinates":[6.136789,46.226598],"type":"Point"},"properties":{"osm_id":"4043847306","tag":{"amenity":"waste_basket"}},"type":"Feature"},
	{"geometry":{"coordinates":[6.145575,46.225294],"type":"Point"},"properties":{"osm_id":"4043847307","tag":{"amenity":"waste_basket"}},"type":"Feature"},
	{"geometry":{"coordinates":[6.134561,46.220584],"type":"Point"},"properties":{"osm_id":"4043958851","tag":{"amenity":"recycling","recycling:paper":"yes","recycling_type":"container"}},"type":"Feature"},
	{"geometry":{"coordinates":[6.145165,46.223392],"type":"Point"},"properties":{"osm_id":"4043958855","tag":{"amenity":"waste_basket"}},"type":"Feature"},
	{"geometry":{"coordinates":[6.141189,46.223164],"type":"Point"},"properties":{"osm_id":"4043958857","tag":{"amenity":"waste_basket"}},"type":"Feature"},
	{"geometry":{"coordinates":[6.138901,46.221845],"type":"Point"},"properties":{"osm_id":"4043958859","tag":{"amenity":"waste_basket"}},"type":"Feature"},
	{"geometry":{"coordinates":[6.147832,46.223971],"type":"Point"},"properties":{"osm_id":"4043958860","tag":{"amenity":"waste_basket"}},"type":"Feature"},
	{"geometry":{"coordinates":[6.147187,46.223969],"type":"Point"},"properties":{"osm_id":"4043958867","tag":{"amenity":"waste_basket"}},"type":"Feature"},
	{"geometry":{"coordinates":[6.14022,46.22281],"type":"Point"},"properties":{"osm_id":"4043958871","tag":{"amenity":"waste_basket"}},"type":"Feature"},
	{"geometry":{"coordinates":[6.146602,46.223988],"type":"Point"},"properties":{"osm_id":"4043958872","tag":{"amenity":"waste_basket"}},"type":"Feature"},
	{"geometry":{"coordinates":[6.137754,46.221649],"type":"Point"},"properties":{"osm_id":"4043958873","tag":{"amenity":"waste_basket"}},"type":"Feature"},
	{"geometry":{"coordinates":[6.136612,46.220859],"type":"Point"},"properties":{"osm_id":"4043958875","tag":{"amenity":"waste_basket"}},"type":"Feature"},
	{"geometry":{"coordinates":[6.141632,46.222817],"type":"Point"},"properties":{"osm_id":"4043958876","tag":{"amenity":"waste_basket"}},"type":"Feature"},
	{"geometry":{"coordinates":[6.139661,46.222649],"type":"Point"},"properties":{"osm_id":"4043958878","tag":{"amenity":"waste_basket"}},"type":"Feature"},
	{"geometry":{"coordinates":[6.147516,46.224374],"type":"Point"},"properties":{"osm_id":"4043958879","tag":{"amenity":"waste_basket"}},"type":"Feature"},
	{"geometry":{"coordinates":[6.141612,46.223384],"type":"Point"},"properties":{"osm_id":"4043958883","tag":{"amenity":"waste_basket"}},"type":"Feature"},
	{"geometry":{"coordinates":[6.139052,46.22271],"type":"Point"},"properties":{"osm_id":"4043958885","tag":{"amenity":"waste_basket"}},"type":"Feature"},
	{"geometry":{"coordinates":[6.147858,46.224391],"type":"Point"},"properties":{"osm_id":"4043958886","tag":{"amenity":"waste_basket"}},"type":"Feature"},
	{"geometry":{"coordinates":[6.141672,46.223546],"type":"Point"},"properties":{"osm_id":"4043959390","tag":{"amenity":"waste_basket"}},"type":"Feature"},
	{"geometry":{"coordinates":[6.130823,46.221046],"type":"Point"},"properties":{"osm_id":"4043962695","tag":{"amenity":"waste_basket"}},"type":"Feature"},
	{"geometry":{"coordinates":[6.13082,46.220987],"type":"Point"},"properties":{"osm_id":"4043962696","tag":{"amenity":"waste_basket"}},"type":"Feature"},
	{"geometry":{"coordinates":[6.133819,46.220167],"type":"Point"},"properties":{"osm_id":"4043964735","tag":{"amenity":"waste_basket"}},"type":"Feature"},
	{"geometry":{"coordinates":[6.133173,46.220506],"type":"Point"},"properties":{"osm_id":"4043964736","tag":{"amenity":"waste_basket"}},"type":"Feature"},
	{"geometry":{"coordinates":[6.132529,46.220777],"type":"Point"},"properties":{"osm_id":"4043964738","tag":{"amenity":"waste_basket"}},"type":"Feature"},
	{"geometry":{"coordinates":[6.132286,46.220982],"type":"Point"},"properties":{"osm_id":"4043964739","tag":{"amenity":"waste_basket"}},"type":"Feature"},
	{"geometry":{"coordinates":[6.146809,46.228166],"type":"Point"},"properties":{"osm_id":"4044525143","tag":{"amenity":"waste_basket"}},"type":"Feature"},
	{"geometry":{"coordinates":[6.139013,46.222647],"type":"Point"},"properties":{"osm_id":"4044525146","tag":{"amenity":"waste_basket"}},"type":"Feature"},
	{"geometry":{"coordinates":[6.138968,46.222582],"type":"Point"},"properties":{"osm_id":"4044525147","tag":{"amenity":"waste_basket"}},"type":"Feature"},
	{"geometry":{"coordinates":[6.138929,46.222515],"type":"Point"},"properties":{"osm_id":"4044525148","tag":{"amenity":"waste_basket"}},"type":"Feature"},
	{"geometry":{"coordinates":[6.138888,46.222448],"type":"Point"},"properties":{"osm_id":"4044525149","tag":{"amenity":"waste_basket"}},"type":"Feature"},
	{"geometry":{"coordinates":[6.13885,46.222382],"type":"Point"},"properties":{"osm_id":"4044525150","tag":{"amenity":"waste_basket"}},"type":"Feature"},
	{"geometry":{"coordinates":[6.13881,46.222315],"type":"Point"},"properties":{"osm_id":"4044525151","tag":{"amenity":"waste_basket"}},"type":"Feature"},
	{"geometry":{"coordinates":[6.13877,46.222249],"type":"Point"},"properties":{"osm_id":"4044525152","tag":{"amenity":"waste_basket"}},"type":"Feature"},
	{"geometry":{"coordinates":[6.138362,46.222369],"type":"Point"},"properties":{"osm_id":"4044525153","tag":{"amenity":"waste_basket"}},"type":"Feature"},
	{"geometry":{"coordinates":[6.1384,46.222436],"type":"Point"},"properties":{"osm_id":"4044525154","tag":{"amenity":"waste_basket"}},"type":"Feature"},
	{"geometry":{"coordinates":[6.138443,46.222502],"type":"Point"},"properties":{"osm_id":"4044525155","tag":{"amenity":"waste_basket"}},"type":"Feature"},
	{"geometry":{"coordinates":[6.138483,46.222568],"type":"Point"},"properties":{"osm_id":"4044525156","tag":{"amenity":"waste_basket"}},"type":"Feature"},
	{"geometry":{"coordinates":[6.138522,46.222637],"type":"Point"},"properties":{"osm_id":"4044525157","tag":{"amenity":"waste_basket"}},"type":"Feature"},
	{"geometry":{"coordinates":[6.138559,46.222704],"type":"Point"},"properties":{"osm_id":"4044525158","tag":{"amenity":"waste_basket"}},"type":"Feature"},
	{"geometry":{"coordinates":[6.138602,46.222772],"type":"Point"},"properties":{"osm_id":"4044525159","tag":{"amenity":"waste_basket"}},"type":"Feature"},
	{"geometry":{"coordinates":[6.138636,46.22284],"type":"Point"},"properties":{"osm_id":"4044525160","tag":{"amenity":"waste_basket"}},"type":"Feature"},
	{"geometry":{"coordinates":[6.128907,46.219758],"type":"Point"},"properties":{"osm_id":"4047635598","tag":{"amenity":"waste_basket"}},"type":"Feature"},
	{"geometry":{"coordinates":[6.135069,46.213788],"type":"Point"},"properties":{"osm_id":"4047635600","tag":{"amenity":"waste_basket"}},"type":"Feature"},
	{"geometry":{"coordinates":[6.130257,46.21903],"type":"Point"},"properties":{"osm_id":"4047635602","tag":{"amenity":"waste_basket"}},"type":"Feature"},
	{"geometry":{"coordinates":[6.1346,46.211437],"type":"Point"},"properties":{"osm_id":"4047635606","tag":{"amenity":"waste_basket"}},"type":"Feature"},
	{"geometry":{"coordinates":[6.134645,46.211203],"type":"Point"},"properties":{"osm_id":"4047635617","tag":{"amenity":"waste_basket"}},"type":"Feature"},
	{"geometry":{"coordinates":[6.129739,46.219449],"type":"Point"},"properties":{"osm_id":"4047635620","tag":{"amenity":"waste_basket"}},"type":"Feature"},
	{"geometry":{"coordinates":[6.131074,46.216003],"type":"Point"},"properties":{"osm_id":"4047635623","tag":{"amenity":"waste_basket"}},"type":"Feature"},
	{"geometry":{"coordinates":[6.130478,46.218544],"type":"Point"},"properties":{"osm_id":"4047635624","tag":{"amenity":"waste_basket"}},"type":"Feature"},
	{"geometry":{"coordinates":[6.134289,46.214918],"type":"Point"},"properties":{"osm_id":"4047635626","tag":{"amenity":"waste_basket"}},"type":"Feature"},
	{"geometry":{"coordinates":[6.130633,46.218009],"type":"Point"},"properties":{"osm_id":"4047635627","tag":{"amenity":"waste_basket"}},"type":"Feature"},
	{"geometry":{"coordinates":[6.135596,46.214047],"type":"Point"},"properties":{"osm_id":"4047635629","tag":{"amenity":"waste_basket"}},"type":"Feature"},
	{"geometry":{"coordinates":[6.131296,46.217028],"type":"Point"},"properties":{"osm_id":"4047635630","tag":{"amenity":"waste_basket"}},"type":"Feature"},
	{"geometry":{"coordinates":[6.132612,46.209886],"type":"Point"},"properties":{"osm_id":"4047635632","tag":{"amenity":"waste_basket"}},"type":"Feature"},
	{"geometry":{"coordinates":[6.133967,46.212909],"type":"Point"},"properties":{"osm_id":"4047635633","tag":{"amenity":"waste_basket"}},"type":"Feature"},
	{"geometry":{"coordinates":[6.133727,46.21481],"type":"Point"},"properties":{"osm_id":"4047635637","tag":{"amenity":"waste_basket"}},"type":"Feature"},
	{"geometry":{"coordinates":[6.134293,46.210911],"type":"Point"},"properties":{"osm_id":"4047635640","tag":{"amenity":"waste_basket"}},"type":"Feature"},
	{"geometry":{"coordinates":[6.135505,46.213993],"type":"Point"},"properties":{"osm_id":"4047635641","tag":{"amenity":"waste_basket"}},"type":"Feature"},
	{"geometry":{"coordinates":[6.133992,46.214768],"type":"Point"},"properties":{"osm_id":"4047635647","tag":{"amenity":"waste_basket"}},"type":"Feature"},
	{"geometry":{"coordinates":[6.128484,46.219648],"type":"Point"},"properties":{"osm_id":"4047635649","tag":{"amenity":"waste_basket","wheelchair":"yes"}},"type":"Feature"},
	{"geometry":{"coordinates":[6.133476,46.210441],"type":"Point"},"properties":{"osm_id":"4047635650","tag":{"amenity":"waste_basket"}},"type":"Feature"},
	{"geometry":{"coordinates":[6.131153,46.216292],"type":"Point"},"properties":{"osm_id":"4047635651","tag":{"amenity":"waste_basket"}},"type":"Feature"},
	{"geometry":{"coordinates":[6.130596,46.217531],"type":"Point"},"properties":{"osm_id":"4047635658","tag":{"amenity":"waste_basket"}},"type":"Feature"},
	{"geometry":{"coordinates":[6.128479,46.21266],"type":"Point"},"properties":{"osm_id":"4047772327","tag":{"amenity":"waste_basket"}},"type":"Feature"},
	{"geometry":{"coordinates":[6.129645,46.213477],"type":"Point"},"properties":{"osm_id":"4047772331","tag":{"amenity":"waste_basket"}},"type":"Feature"},
	{"geometry":{"coordinates":[6.127627,46.218467],"type":"Point"},"properties":{"osm_id":"4047772334","tag":{"amenity":"waste_basket"}},"type":"Feature"},
	{"geometry":{"coordinates":[6.127638,46.215553],"type":"Point"},"properties":{"osm_id":"4047772337","tag":{"amenity":"waste_basket"}},"type":"Feature"},
	{"geometry":{"coordinates":[6.129252,46.22012],"type":"Point"},"properties":{"osm_id":"4047772338","tag":{"amenity":"waste_basket"}},"type":"Feature"},
	{"geometry":{"coordinates":[6.1276,46.216126],"type":"Point"},"properties":{"osm_id":"4047772340","tag":{"amenity":"waste_basket"}},"type":"Feature"},
	{"geometry":{"coordinates":[6.128767,46.21248],"type":"Point"},"properties":{"osm_id":"4047772345","tag":{"amenity":"waste_basket"}},"type":"Feature"},
	{"geometry":{"coordinates":[6.125788,46.218377],"type":"Point"},"properties":{"osm_id":"4047772346","tag":{"amenity":"waste_basket"}},"type":"Feature"},
	{"geometry":{"coordinates":[6.129198,46.213708],"type":"Point"},"properties":{"osm_id":"4047772347","tag":{"amenity":"waste_basket"}},"type":"Feature"},
	{"geometry":{"coordinates":[6.128942,46.214127],"type":"Point"},"properties":{"osm_id":"4047772349","tag":{"amenity":"waste_basket"}},"type":"Feature"},
	{"geometry":{"coordinates":[6.127609,46.219137],"type":"Point"},"properties":{"osm_id":"4047772350","tag":{"amenity":"waste_basket"}},"type":"Feature"},
	{"geometry":{"coordinates":[6.127275,46.214677],"type":"Point"},"properties":{"osm_id":"4047772351","tag":{"amenity":"waste_basket"}},"type":"Feature"},
	{"geometry":{"coordinates":[6.127649,46.219565],"type":"Point"},"properties":{"osm_id":"4047772352","tag":{"amenity":"waste_basket"}},"type":"Feature"},
	{"geometry":{"coordinates":[6.12734,46.21576],"type":"Point"},"properties":{"osm_id":"4047772354","tag":{"amenity":"waste_basket"}},"type":"Feature"},
	{"geometry":{"coordinates":[6.127647,46.216298],"type":"Point"},"properties":{"osm_id":"4047772357","tag":{"amenity":"waste_basket"}},"type":"Feature"},
	{"geometry":{"coordinates":[6.129964,46.21291],"type":"Point"},"properties":{"osm_id":"4047772358","tag":{"amenity":"waste_basket"}},"type":"Feature"},
	{"geometry":{"coordinates":[6.12789,46.216855],"type":"Point"},"properties":{"osm_id":"4047772359","tag":{"amenity":"waste_basket"}},"type":"Feature"},
	{"geometry":{"coordinates":[6.126888,46.217363],"type":"Point"},"properties":{"osm_id":"4047772361","tag":{"amenity":"waste_basket"}},"type":"Feature"},
	{"geometry":{"coordinates":[6.129584,46.213436],"type":"Point"},"properties":{"osm_id":"4047772362","tag":{"amenity":"waste_basket"}},"type":"Feature"},
	{"geometry":{"coordinates":[6.129417,46.214],"type":"Point"},"properties":{"osm_id":"4047772364","tag":{"amenity":"waste_basket"}},"type":"Feature"},
	{"geometry":{"coordinates":[6.128107,46.214394],"type":"Point"},"properties":{"osm_id":"4047772366","tag":{"amenity":"waste_basket"}},"type":"Feature"},
	{"geometry":{"coordinates":[6.128028,46.215217],"type":"Point"},"properties":{"osm_id":"4047772368","tag":{"amenity":"waste_basket"}},"type":"Feature"},
	{"geometry":{"coordinates":[6.127217,46.216029],"type":"Point"},"properties":{"osm_id":"4047772371","tag":{"amenity":"waste_basket"}},"type":"Feature"},
	{"geometry":{"coordinates":[6.12786,46.216539],"type":"Point"},"properties":{"osm_id":"4047772374","tag":{"amenity":"waste_basket"}},"type":"Feature"},
	{"geometry":{"coordinates":[6.122153,46.219228],"type":"Point"},"properties":{"osm_id":"4050639343","tag":{"amenity":"waste_basket"}},"type":"Feature"},
	{"geometry":{"coordinates":[6.122815,46.219563],"type":"Point"},"properties":{"osm_id":"4050639344","tag":{"amenity":"waste_basket"}},"type":"Feature"},
	{"geometry":{"coordinates":[6.116152,46.217705],"type":"Point"},"properties":{"osm_id":"4050639345","tag":{"amenity":"waste_basket"}},"type":"Feature"},
	{"geometry":{"coordinates":[6.118455,46.215904],"type":"Point"},"properties":{"osm_id":"4050639346","tag":{"amenity":"waste_basket"}},"type":"Feature"},
	{"geometry":{"coordinates":[6.121887,46.218988],"type":"Point"},"properties":{"osm_id":"4050639352","tag":{"addr:city":"Gen\u00c3\u00a8ve","addr:housenumber":"18","addr:street":"Avenue du Bouchet","amenity":"recycling","operator":"Ville de Geneve","recycling:aluminium":"yes","recycling:batteries":"yes","recycling:cans":"yes","recycling:clothes":"no","recycling:coffee_capsules":"yes","recycling:glass_bottles":"yes","recycling:paper":"no","recycling:plastic":"no","recycling:plastic_bottles":"yes","recycling_type":"container"}},"type":"Feature"},
	{"geometry":{"coordinates":[6.122834,46.223333],"type":"Point"},"properties":{"osm_id":"4051481035","tag":{"amenity":"waste_basket"}},"type":"Feature"},
	{"geometry":{"coordinates":[6.120097,46.228885],"type":"Point"},"properties":{"osm_id":"4051481038","tag":{"amenity":"waste_basket"}},"type":"Feature"},
	{"geometry":{"coordinates":[6.122338,46.22187],"type":"Point"},"properties":{"osm_id":"4051481042","tag":{"amenity":"waste_basket"}},"type":"Feature"},
	{"geometry":{"coordinates":[6.117096,46.22213],"type":"Point"},"properties":{"osm_id":"4051481045","tag":{"amenity":"waste_basket"}},"type":"Feature"},
	{"geometry":{"coordinates":[6.122179,46.223358],"type":"Point"},"properties":{"osm_id":"4051481046","tag":{"amenity":"waste_basket"}},"type":"Feature"},
	{"geometry":{"coordinates":[6.118938,46.22288],"type":"Point"},"properties":{"osm_id":"4051481051","tag":{"amenity":"waste_basket"}},"type":"Feature"},
	{"geometry":{"coordinates":[6.127827,46.22285],"type":"Point"},"properties":{"osm_id":"4051481054","tag":{"amenity":"waste_basket"}},"type":"Feature"},
	{"geometry":{"coordinates":[6.120084,46.228988],"type":"Point"},"properties":{"osm_id":"4051481055","tag":{"amenity":"waste_basket"}},"type":"Feature"},
	{"geometry":{"coordinates":[6.123455,46.222319],"type":"Point"},"properties":{"osm_id":"4051481059","tag":{"amenity":"waste_basket"}},"type":"Feature"},
	{"geometry":{"coordinates":[6.117535,46.230464],"type":"Point"},"properties":{"osm_id":"4051481061","tag":{"amenity":"waste_basket"}},"type":"Feature"},
	{"geometry":{"coordinates":[6.126771,46.222843],"type":"Point"},"properties":{"osm_id":"4051481065","tag":{"amenity":"waste_basket"}},"type":"Feature"},
	{"geometry":{"coordinates":[6.122138,46.222584],"type":"Point"},"properties":{"osm_id":"4051481069","tag":{"amenity":"waste_basket"}},"type":"Feature"},
	{"geometry":{"coordinates":[6.128112,46.223308],"type":"Point"},"properties":{"osm_id":"4051481071","tag":{"amenity":"waste_basket"}},"type":"Feature"},
	{"geometry":{"coordinates":[6.118932,46.229559],"type":"Point"},"properties":{"osm_id":"4051481072","tag":{"amenity":"waste_basket"}},"type":"Feature"},
	{"geometry":{"coordinates":[6.113883,46.223379],"type":"Point"},"properties":{"osm_id":"4051481073","tag":{"amenity":"waste_basket"}},"type":"Feature"},
	{"geometry":{"coordinates":[6.117708,46.230661],"type":"Point"},"properties":{"osm_id":"4051481078","tag":{"amenity":"recycling","recycling:cans":"no","recycling:clothes":"yes","recycling:glass":"no","recycling:glass_bottles":"no","recycling:paper":"no","recycling:plastic":"no","recycling_type":"container"}},"type":"Feature"},
	{"geometry":{"coordinates":[6.118205,46.222397],"type":"Point"},"properties":{"osm_id":"4051481079","tag":{"amenity":"waste_basket"}},"type":"Feature"},
	{"geometry":{"coordinates":[6.123538,46.223022],"type":"Point"},"properties":{"osm_id":"4051481080","tag":{"amenity":"waste_basket"}},"type":"Feature"},
	{"geometry":{"coordinates":[6.120207,46.228859],"type":"Point"},"properties":{"osm_id":"4051481083","tag":{"amenity":"waste_basket"}},"type":"Feature"},
	{"geometry":{"coordinates":[6.128398,46.220928],"type":"Point"},"properties":{"osm_id":"4051481086","tag":{"amenity":"waste_basket"}},"type":"Feature"},
	{"geometry":{"coordinates":[6.122533,46.222343],"type":"Point"},"properties":{"osm_id":"4051481087","tag":{"amenity":"waste_basket"}},"type":"Feature"},
	{"geometry":{"coordinates":[6.129822,46.221981],"type":"Point"},"properties":{"osm_id":"4051483489","tag":{"amenity":"waste_basket"}},"type":"Feature"},
	{"geometry":{"coordinates":[6.11833,46.229968],"type":"Point"},"properties":{"osm_id":"4051483490","tag":{"amenity":"waste_basket"}},"type":"Feature"},
	{"geometry":{"coordinates":[6.125559,46.222121],"type":"Point"},"properties":{"osm_id":"4051483494","tag":{"amenity":"waste_basket"}},"type":"Feature"},
	{"geometry":{"coordinates":[6.127265,46.222734],"type":"Point"},"properties":{"osm_id":"4051483500","tag":{"amenity":"waste_basket"}},"type":"Feature"},
	{"geometry":{"coordinates":[6.119681,46.223321],"type":"Point"},"properties":{"osm_id":"4051483503","tag":{"amenity":"waste_basket"}},"type":"Feature"},
	{"geometry":{"coordinates":[6.119807,46.226814],"type":"Point"},"properties":{"osm_id":"4051483506","tag":{"amenity":"waste_basket"}},"type":"Feature"},
	{"geometry":{"coordinates":[6.123413,46.223186],"type":"Point"},"properties":{"osm_id":"4051483509","tag":{"amenity":"waste_basket"}},"type":"Feature"},
	{"geometry":{"coordinates":[6.120202,46.228035],"type":"Point"},"properties":{"osm_id":"4051483512","tag":{"amenity":"waste_basket"}},"type":"Feature"},
	{"geometry":{"coordinates":[6.1198,46.229174],"type":"Point"},"properties":{"osm_id":"4051483518","tag":{"amenity":"waste_basket"}},"type":"Feature"},
	{"geometry":{"coordinates":[6.114266,46.227917],"type":"Point"},"properties":{"osm_id":"4051483530","tag":{"amenity":"waste_basket"}},"type":"Feature"},
	{"geometry":{"coordinates":[6.122422,46.222891],"type":"Point"},"properties":{"osm_id":"4051483533","tag":{"amenity":"waste_basket"}},"type":"Feature"},
	{"geometry":{"coordinates":[6.120189,46.226354],"type":"Point"},"properties":{"osm_id":"4051483534","tag":{"amenity":"waste_basket"}},"type":"Feature"},
	{"geometry":{"coordinates":[6.118466,46.229876],"type":"Point"},"properties":{"osm_id":"4051483536","tag":{"amenity":"waste_basket"}},"type":"Feature"},
	{"geometry":{"coordinates":[6.121378,46.222945],"type":"Point"},"properties":{"osm_id":"4051483538","tag":{"amenity":"waste_basket"}},"type":"Feature"},
	{"geometry":{"coordinates":[6.11932,46.227385],"type":"Point"},"properties":{"osm_id":"4051483541","tag":{"amenity":"waste_basket"}},"type":"Feature"},
	{"geometry":{"coordinates":[6.128313,46.221613],"type":"Point"},"properties":{"osm_id":"4051483550","tag":{"amenity":"waste_basket"}},"type":"Feature"},
	{"geometry":{"coordinates":[6.122988,46.222508],"type":"Point"},"properties":{"osm_id":"4051483551","tag":{"amenity":"waste_basket"}},"type":"Feature"},
	{"geometry":{"coordinates":[6.117999,46.230168],"type":"Point"},"properties":{"osm_id":"4051483553","tag":{"amenity":"waste_basket"}},"type":"Feature"},
	{"geometry":{"coordinates":[6.118863,46.227687],"type":"Point"},"properties":{"osm_id":"4051483558","tag":{"amenity":"waste_basket"}},"type":"Feature"},
	{"geometry":{"coordinates":[6.121815,46.222333],"type":"Point"},"properties":{"osm_id":"4051483561","tag":{"amenity":"waste_basket"}},"type":"Feature"},
	{"geometry":{"coordinates":[6.119942,46.22909],"type":"Point"},"properties":{"osm_id":"4051483564","tag":{"amenity":"waste_basket"}},"type":"Feature"},
	{"geometry":{"coordinates":[6.111606,46.225099],"type":"Point"},"properties":{"osm_id":"4051483565","tag":{"amenity":"waste_basket"}},"type":"Feature"},
	{"geometry":{"coordinates":[6.123708,46.222232],"type":"Point"},"properties":{"osm_id":"4051483568","tag":{"amenity":"waste_basket"}},"type":"Feature"},
	{"geometry":{"coordinates":[6.117685,46.230645],"type":"Point"},"properties":{"osm_id":"4051483570","tag":{"amenity":"waste_basket"}},"type":"Feature"},
	{"geometry":{"coordinates":[6.125871,46.224845],"type":"Point"},"properties":{"osm_id":"4051483573","tag":{"amenity":"waste_basket"}},"type":"Feature"},
	{"geometry":{"coordinates":[6.11938,46.222982],"type":"Point"},"properties":{"osm_id":"4051483577","tag":{"amenity":"waste_basket"}},"type":"Feature"},
	{"geometry":{"coordinates":[6.122281,46.222735],"type":"Point"},"properties":{"osm_id":"4051483578","tag":{"amenity":"waste_basket"}},"type":"Feature"},
	{"geometry":{"coordinates":[6.116484,46.222544],"type":"Point"},"properties":{"osm_id":"4051483582","tag":{"amenity":"waste_basket"}},"type":"Feature"},
	{"geometry":{"coordinates":[6.135136,46.210229],"type":"Point"},"properties":{"osm_id":"4054885963","tag":{"amenity":"waste_basket"}},"type":"Feature"},
	{"geometry":{"coordinates":[6.086095,46.226841],"type":"Point"},"properties":{"osm_id":"4054885965","tag":{"amenity":"waste_basket"}},"type":"Feature"},
	{"geometry":{"coordinates":[6.135037,46.208429],"type":"Point"},"properties":{"osm_id":"4054885966","tag":{"amenity":"waste_basket"}},"type":"Feature"},
	{"geometry":{"coordinates":[6.136888,46.209581],"type":"Point"},"properties":{"osm_id":"4054885970","tag":{"amenity":"waste_basket"}},"type":"Feature"},
	{"geometry":{"coordinates":[6.135313,46.210594],"type":"Point"},"properties":{"osm_id":"4054885973","tag":{"amenity":"waste_basket"}},"type":"Feature"},
	{"geometry":{"coordinates":[6.13781,46.210146],"type":"Point"},"properties":{"osm_id":"4054885974","tag":{"amenity":"waste_basket"}},"type":"Feature"},
	{"geometry":{"coordinates":[6.135156,46.208168],"type":"Point"},"properties":{"osm_id":"4054885976","tag":{"amenity":"waste_basket"}},"type":"Feature"},
	{"geometry":{"coordinates":[6.139083,46.209245],"type":"Point"},"properties":{"osm_id":"4054885977","tag":{"amenity":"waste_basket"}},"type":"Feature"},
	{"geometry":{"coordinates":[6.136899,46.210467],"type":"Point"},"properties":{"osm_id":"4054885981","tag":{"amenity":"waste_basket"}},"type":"Feature"},
	{"geometry":{"coordinates":[6.119674,46.216971],"type":"Point"},"properties":{"osm_id":"4054885982","tag":{"amenity":"waste_basket"}},"type":"Feature"},
	{"geometry":{"coordinates":[6.135118,46.210657],"type":"Point"},"properties":{"osm_id":"4054885983","tag":{"amenity":"waste_basket"}},"type":"Feature"},
	{"geometry":{"coordinates":[6.116261,46.216994],"type":"Point"},"properties":{"osm_id":"4054885985","tag":{"amenity":"waste_basket"}},"type":"Feature"},
	{"geometry":{"coordinates":[6.138609,46.209133],"type":"Point"},"properties":{"osm_id":"4054885987","tag":{"amenity":"waste_basket"}},"type":"Feature"},
	{"geometry":{"coordinates":[6.138273,46.209704],"type":"Point"},"properties":{"osm_id":"4054886294","tag":{"amenity":"waste_basket"}},"type":"Feature"},
	{"geometry":{"coordinates":[6.137743,46.209065],"type":"Point"},"properties":{"osm_id":"4054886297","tag":{"amenity":"waste_basket"}},"type":"Feature"},
	{"geometry":{"coordinates":[6.135786,46.21094],"type":"Point"},"properties":{"osm_id":"4054886298","tag":{"amenity":"waste_basket"}},"type":"Feature"},
	{"geometry":{"coordinates":[6.136624,46.210366],"type":"Point"},"properties":{"osm_id":"4054886310","tag":{"amenity":"waste_basket"}},"type":"Feature"},
	{"geometry":{"coordinates":[6.138914,46.209388],"type":"Point"},"properties":{"osm_id":"4054886313","tag":{"amenity":"waste_basket"}},"type":"Feature"},
	{"geometry":{"coordinates":[6.133299,46.208582],"type":"Point"},"properties":{"osm_id":"4054886315","tag":{"amenity":"waste_basket"}},"type":"Feature"},
	{"geometry":{"coordinates":[6.130019,46.21559],"type":"Point"},"properties":{"osm_id":"4055307600","tag":{"amenity":"waste_basket"}},"type":"Feature"},
	{"geometry":{"coordinates":[6.129127,46.215826],"type":"Point"},"properties":{"osm_id":"4055307602","tag":{"amenity":"waste_basket"}},"type":"Feature"},
	{"geometry":{"coordinates":[6.128155,46.217026],"type":"Point"},"properties":{"osm_id":"4055307606","tag":{"amenity":"waste_basket"}},"type":"Feature"},
	{"geometry":{"coordinates":[6.128942,46.219251],"type":"Point"},"properties":{"osm_id":"4055307610","tag":{"amenity":"waste_basket"}},"type":"Feature"},
	{"geometry":{"coordinates":[6.123886,46.21516],"type":"Point"},"properties":{"osm_id":"4060023021","tag":{"amenity":"waste_basket"}},"type":"Feature"},
	{"geometry":{"coordinates":[6.125776,46.217759],"type":"Point"},"properties":{"osm_id":"4060023024","tag":{"amenity":"waste_basket"}},"type":"Feature"},
	{"geometry":{"coordinates":[6.124822,46.216862],"type":"Point"},"properties":{"osm_id":"4060023029","tag":{"amenity":"waste_basket"}},"type":"Feature"},
	{"geometry":{"coordinates":[6.125525,46.214111],"type":"Point"},"properties":{"osm_id":"4060023030","tag":{"amenity":"waste_basket"}},"type":"Feature"},
	{"geometry":{"coordinates":[6.127854,46.213182],"type":"Point"},"properties":{"osm_id":"4060023031","tag":{"amenity":"waste_basket"}},"type":"Feature"},
	{"geometry":{"coordinates":[6.124474,46.214722],"type":"Point"},"properties":{"osm_id":"4060023034","tag":{"amenity":"waste_basket"}},"type":"Feature"},
	{"geometry":{"coordinates":[6.132082,46.211446],"type":"Point"},"properties":{"osm_id":"4060023036","tag":{"amenity":"waste_basket"}},"type":"Feature"},
	{"geometry":{"coordinates":[6.127362,46.213513],"type":"Point"},"properties":{"osm_id":"4060023039","tag":{"amenity":"waste_basket"}},"type":"Feature"},
	{"geometry":{"coordinates":[6.125527,46.217689],"type":"Point"},"properties":{"osm_id":"4060023045","tag":{"amenity":"waste_basket"}},"type":"Feature"},
	{"geometry":{"coordinates":[6.126159,46.214132],"type":"Point"},"properties":{"osm_id":"4060023047","tag":{"amenity":"waste_basket"}},"type":"Feature"},
	{"geometry":{"coordinates":[6.128247,46.212777],"type":"Point"},"properties":{"osm_id":"4060023048","tag":{"amenity":"waste_basket"}},"type":"Feature"},
	{"geometry":{"coordinates":[6.124722,46.216765],"type":"Point"},"properties":{"osm_id":"4060023050","tag":{"amenity":"waste_basket"}},"type":"Feature"},
	{"geometry":{"coordinates":[6.131389,46.210544],"type":"Point"},"properties":{"osm_id":"4060023053","tag":{"amenity":"waste_basket"}},"type":"Feature"},
	{"geometry":{"coordinates":[6.124823,46.214569],"type":"Point"},"properties":{"osm_id":"4060023055","tag":{"amenity":"waste_basket"}},"type":"Feature"},
	{"geometry":{"coordinates":[6.131675,46.210612],"type":"Point"},"properties":{"osm_id":"4060023057","tag":{"amenity":"waste_basket"}},"type":"Feature"},
	{"geometry":{"coordinates":[6.124252,46.215085],"type":"Point"},"properties":{"osm_id":"4060023059","tag":{"amenity":"waste_basket"}},"type":"Feature"},
	{"geometry":{"coordinates":[6.130423,46.211531],"type":"Point"},"properties":{"osm_id":"4060023061","tag":{"amenity":"waste_basket"}},"type":"Feature"},
	{"geometry":{"coordinates":[6.125228,46.217318],"type":"Point"},"properties":{"osm_id":"4060023062","tag":{"amenity":"waste_basket"}},"type":"Feature"},
	{"geometry":{"coordinates":[6.123996,46.215818],"type":"Point"},"properties":{"osm_id":"4060023067","tag":{"amenity":"waste_basket"}},"type":"Feature"},
	{"geometry":{"coordinates":[6.125364,46.214265],"type":"Point"},"properties":{"osm_id":"4060023076","tag":{"amenity":"waste_basket"}},"type":"Feature"},
	{"geometry":{"coordinates":[6.127791,46.213287],"type":"Point"},"properties":{"osm_id":"4060023077","tag":{"amenity":"waste_basket"}},"type":"Feature"},
	{"geometry":{"coordinates":[6.127404,46.21339],"type":"Point"},"properties":{"osm_id":"4060023081","tag":{"amenity":"waste_basket"}},"type":"Feature"},
	{"geometry":{"coordinates":[6.125024,46.217044],"type":"Point"},"properties":{"osm_id":"4060023083","tag":{"amenity":"waste_basket"}},"type":"Feature"},
	{"geometry":{"coordinates":[6.136983,46.211131],"type":"Point"},"properties":{"osm_id":"4060121990","tag":{"amenity":"waste_basket"}},"type":"Feature"},
	{"geometry":{"coordinates":[6.134879,46.215862],"type":"Point"},"properties":{"osm_id":"4060121993","tag":{"amenity":"waste_basket"}},"type":"Feature"},
	{"geometry":{"coordinates":[6.130787,46.220781],"type":"Point"},"properties":{"osm_id":"4060121994","tag":{"amenity":"waste_basket"}},"type":"Feature"},
	{"geometry":{"coordinates":[6.138172,46.212314],"type":"Point"},"properties":{"osm_id":"4060121995","tag":{"amenity":"waste_basket"}},"type":"Feature"},
	{"geometry":{"coordinates":[6.135702,46.215578],"type":"Point"},"properties":{"osm_id":"4060122001","tag":{"amenity":"waste_basket"}},"type":"Feature"},
	{"geometry":{"coordinates":[6.132904,46.219425],"type":"Point"},"properties":{"osm_id":"4060122002","tag":{"amenity":"waste_basket"}},"type":"Feature"},
	{"geometry":{"coordinates":[6.137778,46.211664],"type":"Point"},"properties":{"osm_id":"4060122003","tag":{"amenity":"waste_basket"}},"type":"Feature"},
	{"geometry":{"coordinates":[6.132049,46.217209],"type":"Point"},"properties":{"osm_id":"4060122006","tag":{"amenity":"waste_basket"}},"type":"Feature"},
	{"geometry":{"coordinates":[6.136967,46.214189],"type":"Point"},"properties":{"osm_id":"4060122013","tag":{"amenity":"waste_basket"}},"type":"Feature"},
	{"geometry":{"coordinates":[6.139009,46.212441],"type":"Point"},"properties":{"osm_id":"4060122015","tag":{"amenity":"waste_basket"}},"type":"Feature"},
	{"geometry":{"coordinates":[6.13538,46.215216],"type":"Point"},"properties":{"osm_id":"4060122017","tag":{"amenity":"waste_basket"}},"type":"Feature"},
	{"geometry":{"coordinates":[6.13792,46.212318],"type":"Point"},"properties":{"osm_id":"4060122019","tag":{"amenity":"waste_basket"}},"type":"Feature"},
	{"geometry":{"coordinates":[6.138018,46.211878],"type":"Point"},"properties":{"osm_id":"4060122023","tag":{"amenity":"waste_basket"}},"type":"Feature"},
	{"geometry":{"coordinates":[6.137063,46.215093],"type":"Point"},"properties":{"osm_id":"4060122025","tag":{"amenity":"waste_basket"}},"type":"Feature"},
	{"geometry":{"coordinates":[6.132695,46.217996],"type":"Point"},"properties":{"osm_id":"4060122026","tag":{"amenity":"waste_basket"}},"type":"Feature"},
	{"geometry":{"coordinates":[6.137164,46.214442],"type":"Point"},"properties":{"osm_id":"4060122029","tag":{"amenity":"waste_basket"}},"type":"Feature"},
	{"geometry":{"coordinates":[6.138622,46.21378],"type":"Point"},"properties":{"osm_id":"4060122032","tag":{"amenity":"waste_basket"}},"type":"Feature"},
	{"geometry":{"coordinates":[6.138844,46.212475],"type":"Point"},"properties":{"osm_id":"4060122036","tag":{"amenity":"waste_basket"}},"type":"Feature"},
	{"geometry":{"coordinates":[6.130496,46.220655],"type":"Point"},"properties":{"osm_id":"4060122039","tag":{"amenity":"waste_basket","wheelchair":"yes"}},"type":"Feature"},
	{"geometry":{"coordinates":[6.138851,46.213949],"type":"Point"},"properties":{"osm_id":"4060122049","tag":{"amenity":"waste_basket"}},"type":"Feature"},
	{"geometry":{"coordinates":[6.132476,46.216515],"type":"Point"},"properties":{"osm_id":"4060122051","tag":{"amenity":"waste_basket"}},"type":"Feature"},
	{"geometry":{"coordinates":[6.12946,46.222644],"type":"Point"},"properties":{"osm_id":"4066928046","tag":{"amenity":"waste_basket"}},"type":"Feature"},
	{"geometry":{"coordinates":[6.126954,46.224656],"type":"Point"},"properties":{"osm_id":"4066928047","tag":{"amenity":"waste_basket"}},"type":"Feature"},
	{"geometry":{"coordinates":[6.133991,46.221969],"type":"Point"},"properties":{"osm_id":"4069952944","tag":{"amenity":"waste_basket"}},"type":"Feature"},
	{"geometry":{"coordinates":[6.141184,46.219159],"type":"Point"},"properties":{"osm_id":"4069952948","tag":{"amenity":"waste_basket"}},"type":"Feature"},
	{"geometry":{"coordinates":[6.142015,46.219666],"type":"Point"},"properties":{"osm_id":"4069952949","tag":{"amenity":"waste_basket"}},"type":"Feature"},
	{"geometry":{"coordinates":[6.142836,46.2205],"type":"Point"},"properties":{"osm_id":"4069952950","tag":{"amenity":"waste_basket"}},"type":"Feature"},
	{"geometry":{"coordinates":[6.147347,46.215676],"type":"Point"},"properties":{"osm_id":"4069952953","tag":{"amenity":"waste_basket"}},"type":"Feature"},
	{"geometry":{"coordinates":[6.140562,46.212107],"type":"Point"},"properties":{"osm_id":"4069952955","tag":{"amenity":"waste_basket"}},"type":"Feature"},
	{"geometry":{"coordinates":[6.133991,46.221235],"type":"Point"},"properties":{"osm_id":"4069952958","tag":{"amenity":"waste_basket"}},"type":"Feature"},
	{"geometry":{"coordinates":[6.141819,46.220436],"type":"Point"},"properties":{"osm_id":"4069952963","tag":{"amenity":"waste_basket"}},"type":"Feature"},
	{"geometry":{"coordinates":[6.143152,46.219832],"type":"Point"},"properties":{"osm_id":"4069952964","tag":{"amenity":"waste_basket"}},"type":"Feature"},
	{"geometry":{"coordinates":[6.1476,46.219642],"type":"Point"},"properties":{"osm_id":"4069952965","tag":{"amenity":"waste_basket"}},"type":"Feature"},
	{"geometry":{"coordinates":[6.13389,46.221161],"type":"Point"},"properties":{"osm_id":"4069952972","tag":{"amenity":"waste_basket"}},"type":"Feature"},
	{"geometry":{"coordinates":[6.138325,46.219421],"type":"Point"},"properties":{"osm_id":"4069952973","tag":{"amenity":"waste_basket"}},"type":"Feature"},
	{"geometry":{"coordinates":[6.141432,46.220382],"type":"Point"},"properties":{"osm_id":"4069952977","tag":{"amenity":"waste_basket"}},"type":"Feature"},
	{"geometry":{"coordinates":[6.142918,46.218136],"type":"Point"},"properties":{"osm_id":"4069952978","tag":{"amenity":"waste_basket"}},"type":"Feature"},
	{"geometry":{"coordinates":[6.14714,46.219118],"type":"Point"},"properties":{"osm_id":"4069952980","tag":{"amenity":"waste_basket"}},"type":"Feature"},
	{"geometry":{"coordinates":[6.146977,46.216601],"type":"Point"},"properties":{"osm_id":"4069952981","tag":{"amenity":"waste_basket"}},"type":"Feature"},
	{"geometry":{"coordinates":[6.145322,46.213144],"type":"Point"},"properties":{"osm_id":"4069952982","tag":{"amenity":"waste_basket"}},"type":"Feature"},
	{"geometry":{"coordinates":[6.132417,46.221071],"type":"Point"},"properties":{"osm_id":"4069952986","tag":{"amenity":"waste_basket"}},"type":"Feature"},
	{"geometry":{"coordinates":[6.13588,46.217175],"type":"Point"},"properties":{"osm_id":"4069952988","tag":{"amenity":"waste_basket"}},"type":"Feature"},
	{"geometry":{"coordinates":[6.139368,46.213911],"type":"Point"},"properties":{"osm_id":"4069953299","tag":{"amenity":"waste_basket"}},"type":"Feature"},
	{"geometry":{"coordinates":[6.137085,46.218474],"type":"Point"},"properties":{"osm_id":"4069953301","tag":{"amenity":"waste_basket"}},"type":"Feature"},
	{"geometry":{"coordinates":[6.139369,46.217036],"type":"Point"},"properties":{"osm_id":"4069953302","tag":{"amenity":"waste_basket"}},"type":"Feature"},
	{"geometry":{"coordinates":[6.139865,46.218289],"type":"Point"},"properties":{"osm_id":"4069953303","tag":{"amenity":"waste_basket"}},"type":"Feature"},
	{"geometry":{"coordinates":[6.141298,46.220049],"type":"Point"},"properties":{"osm_id":"4069953304","tag":{"amenity":"recycling","recycling:cans":"no","recycling:clothes":"yes","recycling:glass":"no","recycling:glass_bottles":"no","recycling:paper":"no","recycling:plastic":"no","recycling_type":"container"}},"type":"Feature"},
	{"geometry":{"coordinates":[6.141839,46.219668],"type":"Point"},"properties":{"osm_id":"4069953305","tag":{"amenity":"waste_basket"}},"type":"Feature"},
	{"geometry":{"coordinates":[6.14538,46.220125],"type":"Point"},"properties":{"osm_id":"4069953306","tag":{"amenity":"waste_basket"}},"type":"Feature"},
	{"geometry":{"coordinates":[6.143806,46.210509],"type":"Point"},"properties":{"osm_id":"4069953310","tag":{"amenity":"waste_basket"}},"type":"Feature"},
	{"geometry":{"coordinates":[6.139759,46.213501],"type":"Point"},"properties":{"osm_id":"4069953312","tag":{"amenity":"waste_basket"}},"type":"Feature"},
	{"geometry":{"coordinates":[6.132283,46.219581],"type":"Point"},"properties":{"osm_id":"4069953313","tag":{"amenity":"waste_basket"}},"type":"Feature"},
	{"geometry":{"coordinates":[6.146301,46.219188],"type":"Point"},"properties":{"osm_id":"4069953321","tag":{"amenity":"waste_basket"}},"type":"Feature"},
	{"geometry":{"coordinates":[6.140427,46.21242],"type":"Point"},"properties":{"osm_id":"4069953325","tag":{"amenity":"waste_basket"}},"type":"Feature"},
	{"geometry":{"coordinates":[6.13267,46.219374],"type":"Point"},"properties":{"osm_id":"4069953327","tag":{"amenity":"recycling","recycling:cans":"no","recycling:clothes":"yes","recycling:glass":"no","recycling:glass_bottles":"no","recycling:paper":"no","recycling:plastic":"yes","recycling_type":"container"}},"type":"Feature"},
	{"geometry":{"coordinates":[6.138056,46.216721],"type":"Point"},"properties":{"osm_id":"4069953330","tag":{"amenity":"recycling","recycling:cans":"no","recycling:clothes":"yes","recycling:glass":"no","recycling:glass_bottles":"no","recycling:paper":"no","recycling:plastic":"no","recycling_type":"container"}},"type":"Feature"},
	{"geometry":{"coordinates":[6.141997,46.219964],"type":"Point"},"properties":{"osm_id":"4069953333","tag":{"amenity":"waste_basket"}},"type":"Feature"},
	{"geometry":{"coordinates":[6.145856,46.219589],"type":"Point"},"properties":{"osm_id":"4069953335","tag":{"amenity":"waste_basket"}},"type":"Feature"},
	{"geometry":{"coordinates":[6.1446,46.211897],"type":"Point"},"properties":{"osm_id":"4069953338","tag":{"amenity":"waste_basket"}},"type":"Feature"},
	{"geometry":{"coordinates":[6.140084,46.212747],"type":"Point"},"properties":{"osm_id":"4069953340","tag":{"amenity":"waste_basket"}},"type":"Feature"},
	{"geometry":{"coordinates":[6.136411,46.217142],"type":"Point"},"properties":{"osm_id":"4069953344","tag":{"amenity":"waste_basket"}},"type":"Feature"},
	{"geometry":{"coordinates":[6.141321,46.220325],"type":"Point"},"properties":{"osm_id":"4069953347","tag":{"amenity":"waste_basket"}},"type":"Feature"},
	{"geometry":{"coordinates":[6.146652,46.215816],"type":"Point"},"properties":{"osm_id":"4069953351","tag":{"amenity":"waste_basket"}},"type":"Feature"},
	{"geometry":{"coordinates":[6.140887,46.212828],"type":"Point"},"properties":{"osm_id":"4069953354","tag":{"amenity":"waste_basket"}},"type":"Feature"},
	{"geometry":{"coordinates":[6.137826,46.214456],"type":"Point"},"properties":{"osm_id":"4069953355","tag":{"amenity":"waste_basket"}},"type":"Feature"},
	{"geometry":{"coordinates":[6.133138,46.221225],"type":"Point"},"properties":{"osm_id":"4069953356","tag":{"amenity":"waste_basket"}},"type":"Feature"},
	{"geometry":{"coordinates":[6.138565,46.21742],"type":"Point"},"properties":{"osm_id":"4069953359","tag":{"amenity":"waste_basket"}},"type":"Feature"},
	{"geometry":{"coordinates":[6.139597,46.218958],"type":"Point"},"properties":{"osm_id":"4069953360","tag":{"amenity":"waste_basket"}},"type":"Feature"},
	{"geometry":{"coordinates":[6.146431,46.219725],"type":"Point"},"properties":{"osm_id":"4069953363","tag":{"amenity":"waste_basket"}},"type":"Feature"},
	{"geometry":{"coordinates":[6.147051,46.218819],"type":"Point"},"properties":{"osm_id":"4069953364","tag":{"amenity":"waste_basket"}},"type":"Feature"},
	{"geometry":{"coordinates":[6.146344,46.214286],"type":"Point"},"properties":{"osm_id":"4069953366","tag":{"amenity":"waste_basket"}},"type":"Feature"},
	{"geometry":{"coordinates":[6.141358,46.211505],"type":"Point"},"properties":{"osm_id":"4069953367","tag":{"amenity":"waste_basket"}},"type":"Feature"},
	{"geometry":{"coordinates":[6.136473,46.21766],"type":"Point"},"properties":{"osm_id":"4069953370","tag":{"amenity":"waste_basket"}},"type":"Feature"},
	{"geometry":{"coordinates":[6.139182,46.217138],"type":"Point"},"properties":{"osm_id":"4069953371","tag":{"amenity":"waste_basket"}},"type":"Feature"},
	{"geometry":{"coordinates":[6.142055,46.219528],"type":"Point"},"properties":{"osm_id":"4069953374","tag":{"amenity":"waste_basket"}},"type":"Feature"},
	{"geometry":{"coordinates":[6.145663,46.220002],"type":"Point"},"properties":{"osm_id":"4069953375","tag":{"amenity":"waste_basket"}},"type":"Feature"},
	{"geometry":{"coordinates":[6.1462,46.214536],"type":"Point"},"properties":{"osm_id":"4069953378","tag":{"amenity":"waste_basket"}},"type":"Feature"},
	{"geometry":{"coordinates":[6.135542,46.220636],"type":"Point"},"properties":{"osm_id":"4069953382","tag":{"amenity":"waste_basket"}},"type":"Feature"},
	{"geometry":{"coordinates":[6.139112,46.21654],"type":"Point"},"properties":{"osm_id":"4069953384","tag":{"amenity":"waste_basket"}},"type":"Feature"},
	{"geometry":{"coordinates":[6.139364,46.21824],"type":"Point"},"properties":{"osm_id":"4069953385","tag":{"amenity":"waste_basket"}},"type":"Feature"},
	{"geometry":{"coordinates":[6.140661,46.219836],"type":"Point"},"properties":{"osm_id":"4069953386","tag":{"amenity":"waste_basket"}},"type":"Feature"},
	{"geometry":{"coordinates":[6.142478,46.220849],"type":"Point"},"properties":{"osm_id":"4069953388","tag":{"amenity":"waste_basket"}},"type":"Feature"},
	{"geometry":{"coordinates":[6.14653,46.219368],"type":"Point"},"properties":{"osm_id":"4069953489","tag":{"amenity":"waste_basket"}},"type":"Feature"},
	{"geometry":{"coordinates":[6.144178,46.210613],"type":"Point"},"properties":{"osm_id":"4069953492","tag":{"amenity":"waste_basket"}},"type":"Feature"},
	{"geometry":{"coordinates":[6.140136,46.212087],"type":"Point"},"properties":{"osm_id":"4069953493","tag":{"amenity":"waste_basket"}},"type":"Feature"},
	{"geometry":{"coordinates":[6.140052,46.213254],"type":"Point"},"properties":{"osm_id":"4069953494","tag":{"amenity":"waste_basket"}},"type":"Feature"},
	{"geometry":{"coordinates":[6.134847,46.22159],"type":"Point"},"properties":{"osm_id":"4069953496","tag":{"amenity":"waste_basket"}},"type":"Feature"},
	{"geometry":{"coordinates":[6.139451,46.218016],"type":"Point"},"properties":{"osm_id":"4069953499","tag":{"amenity":"waste_basket"}},"type":"Feature"},
	{"geometry":{"coordinates":[6.141767,46.21978],"type":"Point"},"properties":{"osm_id":"4069953501","tag":{"amenity":"waste_basket"}},"type":"Feature"},
	{"geometry":{"coordinates":[6.145738,46.219245],"type":"Point"},"properties":{"osm_id":"4069953503","tag":{"amenity":"waste_basket"}},"type":"Feature"},
	{"geometry":{"coordinates":[6.147134,46.215768],"type":"Point"},"properties":{"osm_id":"4069953505","tag":{"amenity":"waste_basket"}},"type":"Feature"},
	{"geometry":{"coordinates":[6.137326,46.214237],"type":"Point"},"properties":{"osm_id":"4069953509","tag":{"amenity":"waste_basket"}},"type":"Feature"},
	{"geometry":{"coordinates":[6.140882,46.218758],"type":"Point"},"properties":{"osm_id":"4069953514","tag":{"amenity":"waste_basket"}},"type":"Feature"},
	{"geometry":{"coordinates":[6.141197,46.220261],"type":"Point"},"properties":{"osm_id":"4069953515","tag":{"amenity":"waste_basket"}},"type":"Feature"},
	{"geometry":{"coordinates":[6.147268,46.218832],"type":"Point"},"properties":{"osm_id":"4069953518","tag":{"amenity":"waste_basket"}},"type":"Feature"},
	{"geometry":{"coordinates":[6.147496,46.216282],"type":"Point"},"properties":{"osm_id":"4069953519","tag":{"amenity":"waste_basket"}},"type":"Feature"},
	{"geometry":{"coordinates":[6.145357,46.212829],"type":"Point"},"properties":{"osm_id":"4069953520","tag":{"amenity":"waste_basket"}},"type":"Feature"},
	{"geometry":{"coordinates":[6.137576,46.214493],"type":"Point"},"properties":{"osm_id":"4069953523","tag":{"amenity":"waste_basket"}},"type":"Feature"},
	{"geometry":{"coordinates":[6.138317,46.219211],"type":"Point"},"properties":{"osm_id":"4069953525","tag":{"amenity":"waste_basket"}},"type":"Feature"},
	{"geometry":{"coordinates":[6.140222,46.218267],"type":"Point"},"properties":{"osm_id":"4069953528","tag":{"amenity":"waste_basket"}},"type":"Feature"},
	{"geometry":{"coordinates":[6.141533,46.220433],"type":"Point"},"properties":{"osm_id":"4069953529","tag":{"amenity":"waste_basket"}},"type":"Feature"},
	{"geometry":{"coordinates":[6.140344,46.212751],"type":"Point"},"properties":{"osm_id":"4069953536","tag":{"amenity":"waste_basket"}},"type":"Feature"},
	{"geometry":{"coordinates":[6.139714,46.217428],"type":"Point"},"properties":{"osm_id":"4069953540","tag":{"amenity":"waste_basket"}},"type":"Feature"},
	{"geometry":{"coordinates":[6.14703,46.218886],"type":"Point"},"properties":{"osm_id":"4069953545","tag":{"amenity":"waste_basket"}},"type":"Feature"},
	{"geometry":{"coordinates":[6.141671,46.211295],"type":"Point"},"properties":{"osm_id":"4069953548","tag":{"amenity":"waste_basket"}},"type":"Feature"},
	{"geometry":{"coordinates":[6.135773,46.220368],"type":"Point"},"properties":{"osm_id":"4069953551","tag":{"amenity":"waste_basket"}},"type":"Feature"},
	{"geometry":{"coordinates":[6.137062,46.218454],"type":"Point"},"properties":{"osm_id":"4069953552","tag":{"addr:city":"Gen\u00c3\u00a8ve","addr:housenumber":"33","addr:street":"Rue de Vermont","amenity":"recycling","operator":"Ville de Geneve","recycling:aerosol_cans":"yes","recycling:aluminium":"yes","recycling:aluminium_cans":"yes","recycling:aluminium_tins":"yes","recycling:batteries":"yes","recycling:cans":"yes","recycling:clothes":"yes","recycling:coffee_capsules":"yes","recycling:glass_bottles":"yes","recycling:paper":"no","recycling:plastic_bottles":"yes","recycling:shoes":"yes","recycling:textiles":"yes","recycling_type":"container"}},"type":"Feature"},
	{"geometry":{"coordinates":[6.139178,46.216434],"type":"Point"},"properties":{"osm_id":"4069953553","tag":{"amenity":"waste_basket"}},"type":"Feature"},
	{"geometry":{"coordinates":[6.139417,46.21834],"type":"Point"},"properties":{"osm_id":"4069953554","tag":{"amenity":"waste_basket"}},"type":"Feature"},
	{"geometry":{"coordinates":[6.14688,46.215047],"type":"Point"},"properties":{"osm_id":"4069953560","tag":{"amenity":"waste_basket"}},"type":"Feature"},
	{"geometry":{"coordinates":[6.144032,46.210446],"type":"Point"},"properties":{"osm_id":"4069953561","tag":{"amenity":"waste_basket"}},"type":"Feature"},
	{"geometry":{"coordinates":[6.113456,46.217976],"type":"Point"},"properties":{"osm_id":"4106131749","tag":{"addr:city":"Gen\u00c3\u00a8ve","addr:housenumber":"27","addr:postcode":"1211","addr:street":"Avenue Louis-Casa\u00c3\u00af","amenity":"recycling","recycling:cans":"yes","recycling:clothes":"no","recycling:glass":"yes","recycling:glass_bottles":"yes","recycling:paper":"yes","recycling:plastic":"yes","recycling_type":"container"}},"type":"Feature"},
	{"geometry":{"coordinates":[6.128795,46.212844],"type":"Point"},"properties":{"osm_id":"4106131750","tag":{"amenity":"waste_basket"}},"type":"Feature"},
	{"geometry":{"coordinates":[6.120013,46.215843],"type":"Point"},"properties":{"osm_id":"4106131751","tag":{"amenity":"waste_basket"}},"type":"Feature"},
	{"geometry":{"coordinates":[6.117513,46.216746],"type":"Point"},"properties":{"osm_id":"4106131753","tag":{"amenity":"waste_basket"}},"type":"Feature"},
	{"geometry":{"coordinates":[6.120258,46.217599],"type":"Point"},"properties":{"osm_id":"4106131756","tag":{"amenity":"waste_basket"}},"type":"Feature"},
	{"geometry":{"coordinates":[6.122223,46.219223],"type":"Point"},"properties":{"osm_id":"4106131760","tag":{"addr:city":"Gen\u00c3\u00a8ve","addr:housenumber":"18","addr:street":"Avenue du Bouchet","amenity":"recycling","operator":"Ville de Geneve","recycling:cans":"no","recycling:clothes":"yes","recycling:glass":"no","recycling:glass_bottles":"no","recycling:paper":"no","recycling:plastic":"no","recycling:shoes":"yes","recycling_type":"container"}},"type":"Feature"},
	{"geometry":{"coordinates":[6.119254,46.21714],"type":"Point"},"properties":{"osm_id":"4106131768","tag":{"amenity":"waste_basket"}},"type":"Feature"},
	{"geometry":{"coordinates":[6.118384,46.216082],"type":"Point"},"properties":{"osm_id":"4106131770","tag":{"amenity":"waste_basket"}},"type":"Feature"},
	{"geometry":{"coordinates":[6.131711,46.225195],"type":"Point"},"properties":{"osm_id":"4197448585","tag":{"addr:city":"Gen\u00c3\u00a8ve","addr:housenumber":"15","addr:postcode":"1209","addr:street":"Avenue De-Bud\u00c3\u00a9","amenity":"recycling","operator":"Ville de Geneve","recycling:aluminium":"yes","recycling:batteries":"yes","recycling:cans":"yes","recycling:clothes":"yes","recycling:glass":"yes","recycling:glass_bottles":"yes","recycling:paper":"no","recycling:plastic":"yes","recycling_type":"container"}},"type":"Feature"},
	{"geometry":{"coordinates":[6.134743,46.222719],"type":"Point"},"properties":{"osm_id":"4197448586","tag":{"addr:city":"Gen\u00c3\u00a8ve","addr:housenumber":"16","addr:postcode":"1209","addr:street":"Chemin de Sous-Bois","amenity":"recycling","operator":"Ville de Geneve","recycling:batteries":"yes","recycling:clothes":"yes","recycling:glass_bottles":"yes"}},"type":"Feature"},
	{"geometry":{"coordinates":[6.134244,46.21551],"type":"Point"},"properties":{"osm_id":"4197470015","tag":{"addr:city":"Gen\u00c3\u00a8ve","addr:housenumber":"10","addr:street":"Rue de Vermont","amenity":"recycling","operator":"Ville de Geneve","recycling:aluminium":"yes","recycling:aluminium_cans":"yes","recycling:aluminium_tins":"yes","recycling:cans":"yes","recycling:glass_bottles":"yes","recycling:plastic_bottles":"yes"}},"type":"Feature"},
	{"geometry":{"coordinates":[6.130154,46.214606],"type":"Point"},"properties":{"osm_id":"4197483725","tag":{"addr:city":"Gen\u00c3\u00a8ve","addr:housenumber":"5","addr:street":"Rue Hoffmann","amenity":"recycling","operator":"Ville de Geneve","recycling:aluminium":"yes","recycling:aluminium_cans":"yes","recycling:aluminium_tins":"yes","recycling:batteries":"yes","recycling:cans":"yes","recycling:glass_bottles":"yes","recycling:plastic_bottles":"yes"}},"type":"Feature"},
	{"geometry":{"coordinates":[6.136618,46.213663],"type":"Point"},"properties":{"osm_id":"4197493354","tag":{"addr:city":"Gen\u00c3\u00a8ve","addr:housenumber":"20","addr:street":"Rue du Grand-Pr\u00c3\u00a9","amenity":"recycling","operator":"Ville de Geneve","recycling:aerosol_cans":"yes","recycling:aluminium":"yes","recycling:aluminium_cans":"yes","recycling:aluminium_tins":"yes","recycling:batteries":"yes","recycling:cans":"yes","recycling:coffee_capsules":"yes","recycling:glass_bottles":"yes","recycling:organic":"yes","recycling:organic_waste":"yes","recycling:plastic_bottles":"yes","recycling:textiles":"yes"}},"type":"Feature"},
	{"geometry":{"coordinates":[6.142683,46.212068],"type":"Point"},"properties":{"osm_id":"4197498369","tag":{"addr:city":"Gen\u00c3\u00a8ve","addr:housenumber":"13","addr:street":"Rue des Gares","amenity":"recycling","location":"underground","operator":"Ville de Geneve","recycling:aerosol_cans":"yes","recycling:aluminium":"yes","recycling:aluminium_cans":"yes","recycling:aluminium_tins":"yes","recycling:batteries":"yes","recycling:cans":"yes","recycling:glass_bottles":"yes","recycling_type":"container"}},"type":"Feature"},
	{"geometry":{"coordinates":[6.140145,46.210319],"type":"Point"},"properties":{"osm_id":"4197498370","tag":{"addr:city":"Gen\u00c3\u00a8ve","addr:housenumber":"15","addr:street":"Rue Cit\u00c3\u00a9-de-la-Corderie","amenity":"recycling","operator":"Ville de Geneve","recycling:aerosol_cans":"yes","recycling:aluminium":"yes","recycling:aluminium_cans":"yes","recycling:aluminium_tins":"yes","recycling:batteries":"yes","recycling:cans":"yes","recycling:glass_bottles":"yes","recycling:plastic_bottles":"yes","recycling:textiles":"yes"}},"type":"Feature"},
	{"geometry":{"coordinates":[6.132214,46.211364],"type":"Point"},"properties":{"osm_id":"4197507139","tag":{"addr:city":"Gen\u00c3\u00a8ve","addr:housenumber":"11","addr:street":"Rue du Colombier","amenity":"recycling","operator":"Ville de Geneve","recycling:aluminium":"yes","recycling:aluminium_cans":"yes","recycling:aluminium_tins":"yes","recycling:batteries":"yes","recycling:cans":"yes","recycling:glass_bottles":"yes"}},"type":"Feature"},
	{"geometry":{"coordinates":[6.125611,46.208345],"type":"Point"},"properties":{"osm_id":"4197510933","tag":{"addr:city":"Gen\u00c3\u00a8ve","addr:housenumber":"87","addr:street":"Rue de Lyon","amenity":"recycling","operator":"Ville de Geneve","recycling:glass_bottles":"yes","recycling:plastic_bottles":"yes"}},"type":"Feature"},
	{"geometry":{"coordinates":[6.120168,46.208873],"type":"Point"},"properties":{"osm_id":"4197510934","tag":{"addr:city":"Gen\u00c3\u00a8ve","addr:housenumber":"61","addr:street":"Promenade de l'Europe","amenity":"recycling","operator":"Ville de Geneve","recycling:glass_bottles":"yes","recycling:plastic_bottles":"yes"}},"type":"Feature"},
	{"geometry":{"coordinates":[6.11689,46.209177],"type":"Point"},"properties":{"osm_id":"4197541160","tag":{"addr:city":"Gen\u00c3\u00a8ve","addr:housenumber":"74","addr:street":"Chemin des Sports","amenity":"recycling","operator":"Ville de Geneve","recycling:aluminium":"yes","recycling:aluminium_cans":"yes","recycling:aluminium_tins":"yes","recycling:batteries":"yes","recycling:cans":"yes","recycling:cardboard":"yes","recycling:coffee_capsules":"yes","recycling:glass_bottles":"yes","recycling:organic":"yes","recycling:organic_waste":"yes","recycling:paper":"yes","recycling:paper_bags":"yes","recycling:paper_packaging":"yes","recycling:paper_packing":"yes","recycling:paperboard_packaging":"yes","recycling:papers":"yes","recycling:plastic_bottles":"yes","recycling:textiles":"yes"}},"type":"Feature"},
	{"geometry":{"coordinates":[6.121944,46.207338],"type":"Point"},"properties":{"osm_id":"4197544740","tag":{"addr:city":"Gen\u00c3\u00a8ve","addr:housenumber":"2","addr:street":"All\u00c3\u00a9e Pic-Pic","amenity":"recycling","operator":"Ville de Geneve","recycling:aluminium":"yes","recycling:aluminium_cans":"yes","recycling:aluminium_tins":"yes","recycling:batteries":"yes","recycling:cans":"yes","recycling:cardboard":"yes","recycling:coffee_capsules":"yes","recycling:glass_bottles":"yes","recycling:newspaper":"yes","recycling:packaging":"yes","recycling:paper":"yes","recycling:paper_packaging":"yes","recycling:plastic_bottles":"yes"}},"type":"Feature"},
	{"geometry":{"coordinates":[6.125655,46.207878],"type":"Point"},"properties":{"osm_id":"4197546862","tag":{"addr:city":"Gen\u00c3\u00a8ve","addr:housenumber":"7","addr:street":"Avenue d'A\u00c3\u00afre","amenity":"recycling","operator":"Ville de Geneve","recycling:aluminium":"yes","recycling:aluminium_cans":"yes","recycling:aluminium_tins":"yes","recycling:batteries":"yes","recycling:cans":"yes","recycling:coffee_capsules":"yes","recycling:plastic_bottles":"yes"}},"type":"Feature"},
	{"geometry":{"coordinates":[6.131392,46.207244],"type":"Point"},"properties":{"osm_id":"4197560589","tag":{"addr:city":"Gen\u00c3\u00a8ve","addr:housenumber":"12","addr:street":"Rue Henri-Fr\u00c3\u00a9d\u00c3\u00a9ric-Amiel","amenity":"recycling","operator":"Ville de Geneve","recycling:aluminium":"yes","recycling:aluminium_cans":"yes","recycling:aluminium_tins":"yes","recycling:batteries":"yes","recycling:cans":"yes","recycling:coffee_capsules":"yes","recycling:glass_bottles":"yes"}},"type":"Feature"},
	{"geometry":{"coordinates":[6.136076,46.20798],"type":"Point"},"properties":{"osm_id":"4197563242","tag":{"addr:city":"Gen\u00c3\u00a8ve","addr:housenumber":"1","addr:street":"Rue de l'Encyclop\u00c3\u00a9die","amenity":"recycling","location":"overground","operator":"Ville de Geneve","recycling:aerosol_cans":"yes","recycling:aluminium":"yes","recycling:aluminium_cans":"yes","recycling:aluminium_tins":"yes","recycling:batteries":"yes","recycling:cans":"yes","recycling:glass_bottles":"yes","recycling:textiles":"yes","recycling_type":"container"}},"type":"Feature"},
	{"geometry":{"coordinates":[6.120477,46.21178],"type":"Point"},"properties":{"osm_id":"4197569393","tag":{"addr:city":"Gen\u00c3\u00a8ve","addr:housenumber":"39","addr:street":"Avenue Soret","amenity":"recycling","recycling:textiles":"yes"}},"type":"Feature"},
	{"geometry":{"coordinates":[6.120907,46.212112],"type":"Point"},"properties":{"osm_id":"4197572035","tag":{"addr:city":"Gen\u00c3\u00a8ve","addr:housenumber":"4C","addr:street":"Rue Edouard-Rod","amenity":"recycling","operator":"Ville de Geneve","recycling:aluminium":"yes","recycling:aluminium_cans":"yes","recycling:aluminium_tins":"yes","recycling:batteries":"yes","recycling:cans":"yes","recycling:cardboard":"yes","recycling:coffee_capsules":"yes","recycling:glass_bottles":"yes","recycling:paper":"yes","recycling:paper_bags":"yes","recycling:paper_packaging":"yes","recycling:paper_packing":"yes","recycling:paperboard_packaging":"yes","recycling:plastic_bottles":"yes"}},"type":"Feature"},
	{"geometry":{"coordinates":[6.124198,46.212694],"type":"Point"},"properties":{"osm_id":"4197578913","tag":{"addr:city":"Gen\u00c3\u00a8ve","addr:housenumber":"32","addr:street":"Avenue Ernest-Pictet","amenity":"recycling","operator":"Ville de Geneve","recycling:aluminium":"yes","recycling:aluminium_cans":"yes","recycling:aluminium_tins":"yes","recycling:batteries":"yes","recycling:cans":"yes","recycling:coffee_capsules":"yes","recycling:glass_bottles":"yes","recycling:textiles":"yes"}},"type":"Feature"},
	{"geometry":{"coordinates":[6.117495,46.205889],"type":"Point"},"properties":{"osm_id":"4197585769","tag":{"addr:city":"Gen\u00c3\u00a8ve","addr:housenumber":"73C","addr:street":"Avenue d'A\u00c3\u00afre","amenity":"recycling","recycling:organic":"yes","recycling:organic_waste":"yes","recycling_type":"container"}},"type":"Feature"},
	{"geometry":{"coordinates":[6.116879,46.205796],"type":"Point"},"properties":{"osm_id":"4197585770","tag":{"addr:city":"Gen\u00c3\u00a8ve","addr:housenumber":"73D","addr:street":"Avenue d'A\u00c3\u00afre","amenity":"recycling","operator":"Ville de Geneve","recycling:organic":"yes","recycling:organic_waste":"yes","recycling_type":"container"}},"type":"Feature"},
	{"geometry":{"coordinates":[6.131986,46.205688],"type":"Point"},"properties":{"osm_id":"4198720577","tag":{"addr:city":"Gen\u00c3\u00a8ve","addr:housenumber":"2","addr:street":"Rue des Charmilles","amenity":"recycling","recycling:aluminium":"yes","recycling:aluminium_cans":"yes","recycling:aluminium_tins":"yes","recycling:batteries":"yes","recycling:cans":"yes","recycling:coffee_capsules":"yes","recycling:glass_bottles":"yes","recycling:plastic_bottles":"yes","recycling:textiles":"yes"}},"type":"Feature"},
	{"geometry":{"coordinates":[6.142111,46.206181],"type":"Point"},"properties":{"osm_id":"4198727828","tag":{"addr:city":"Gen\u00c3\u00a8ve","addr:street":"Rue Vallin","amenity":"recycling","operator":"Ville de Geneve","recycling:aerosol_cans":"yes","recycling:aluminium":"yes","recycling:aluminium_cans":"yes","recycling:aluminium_tins":"yes","recycling:cans":"yes","recycling:glass_bottles":"yes","recycling:plastic_bottles":"yes"}},"type":"Feature"},
	{"geometry":{"coordinates":[6.144278,46.206857],"type":"Point"},"properties":{"osm_id":"4198733704","tag":{"addr:city":"Gen\u00c3\u00a8ve","addr:housenumber":"7","addr:street":"Rue du Cendrier","amenity":"recycling","operator":"Ville de Geneve","recycling:aerosol_cans":"yes","recycling:aluminium":"yes","recycling:aluminium_cans":"yes","recycling:aluminium_tins":"yes","recycling:batteries":"yes","recycling:cans":"yes","recycling:clothes":"yes","recycling:glass_bottles":"yes","recycling:plastic_bottles":"yes","recycling:shoes":"yes","recycling:textiles":"yes"}},"type":"Feature"},
	{"geometry":{"coordinates":[6.134953,46.204704],"type":"Point"},"properties":{"osm_id":"4198734330","tag":{"addr:city":"Gen\u00c3\u00a8ve","addr:housenumber":"24","addr:street":"Quai du Seujet","amenity":"recycling","operator":"Ville de Geneve","recycling:batteries":"yes","recycling:glass_bottles":"yes","recycling_type":"container"}},"type":"Feature"},
	{"geometry":{"coordinates":[6.134404,46.203443],"type":"Point"},"properties":{"osm_id":"4198735486","tag":{"addr:city":"Gen\u00c3\u00a8ve","addr:housenumber":"2","addr:street":"Rue de la Coulouvreni\u00c3\u00a8re","amenity":"recycling","operator":"Ville de Geneve","recycling:aluminium":"yes","recycling:aluminium_cans":"yes","recycling:aluminium_tins":"yes","recycling:batteries":"yes","recycling:cans":"yes","recycling:coffee_capsules":"yes","recycling:glass_bottles":"yes","recycling:plastic_bottles":"yes","recycling:shoes":"yes","recycling:textiles":"yes"}},"type":"Feature"},
	{"geometry":{"coordinates":[6.135545,46.203823],"type":"Point"},"properties":{"osm_id":"4198738209","tag":{"addr:city":"Gen\u00c3\u00a8ve","addr:housenumber":"9","addr:street":"Rue de la Coulouvreni\u00c3\u00a8re","amenity":"recycling","operator":"Ville de Geneve","recycling:glass_bottles":"yes"}},"type":"Feature"},
	{"geometry":{"coordinates":[6.138928,46.20361],"type":"Point"},"properties":{"osm_id":"4198739599","tag":{"addr:city":"Gen\u00c3\u00a8ve","addr:housenumber":"44","addr:street":"Rue de la Coulouvreni\u00c3\u00a8re","amenity":"recycling","recycling:glass_bottles":"yes"}},"type":"Feature"},
	{"geometry":{"coordinates":[6.147922,46.20237],"type":"Point"},"properties":{"osm_id":"4198743190","tag":{"addr:city":"Gen\u00c3\u00a8ve","addr:housenumber":"5","addr:postcode":"1204","addr:street":"Rue de la Madeleine","amenity":"recycling","operator":"Ville de Geneve","recycling:glass_bottles":"yes","recycling_type":"container"}},"type":"Feature"},
	{"geometry":{"coordinates":[6.137645,46.20273],"type":"Point"},"properties":{"osm_id":"4198749667","tag":{"addr:city":"Gen\u00c3\u00a8ve","addr:housenumber":"12","addr:street":"Rue des Rois","amenity":"recycling","operator":"Ville de Geneve","recycling:aluminium":"yes","recycling:aluminium_cans":"yes","recycling:aluminium_tins":"yes","recycling:batteries":"yes","recycling:cans":"yes","recycling:glass_bottles":"yes","recycling:shoes":"yes","recycling:textiles":"yes","recycling_type":"container"}},"type":"Feature"},
	{"geometry":{"coordinates":[6.13525,46.199967],"type":"Point"},"properties":{"osm_id":"4199036598","tag":{"addr:city":"Gen\u00c3\u00a8ve","addr:housenumber":"20","addr:street":"Rue du Village-Suisse","amenity":"recycling","recycling:aluminium":"yes","recycling:aluminium_cans":"yes","recycling:aluminium_tins":"yes","recycling:batteries":"yes","recycling:cans":"yes","recycling:coffee_capsules":"yes","recycling:glass_bottles":"yes","recycling:plastic_bottles":"yes","recycling:shoes":"yes","recycling:textiles":"yes","recycling_type":"container"}},"type":"Feature"},
	{"geometry":{"coordinates":[6.141157,46.199519],"type":"Point"},"properties":{"osm_id":"4199043223","tag":{"addr:city":"Gen\u00c3\u00a8ve","addr:street":"Boulevard Georges-Favon","amenity":"recycling","location":"overground","operator":"Ville de Geneve","recycling:aluminium":"yes","recycling:aluminium_cans":"yes","recycling:aluminium_tins":"yes","recycling:batteries":"yes","recycling:cans":"yes","recycling:glass_bottles":"yes","recycling_type":"container"}},"type":"Feature"},
	{"geometry":{"coordinates":[6.139662,46.197036],"type":"Point"},"properties":{"osm_id":"4199044421","tag":{"addr:city":"Gen\u00c3\u00a8ve","addr:street":"Rue Du-Bois-Melly","amenity":"recycling","location":"underground","operator":"Ville de Geneve","recycling:aluminium":"yes","recycling:aluminium_cans":"yes","recycling:aluminium_tins":"yes","recycling:batteries":"yes","recycling:cans":"yes","recycling:glass_bottles":"yes","recycling:plastic_bottles":"yes","recycling_type":"container"}},"type":"Feature"},
	{"geometry":{"coordinates":[6.147215,46.195802],"type":"Point"},"properties":{"osm_id":"4199060988","tag":{"addr:city":"Gen\u00c3\u00a8ve","addr:housenumber":"10","addr:street":"Rue du Petit-Sal\u00c3\u00a8ve","amenity":"recycling","location":"overground","operator":"Ville de Geneve","recycling:aluminium":"yes","recycling:aluminium_cans":"yes","recycling:aluminium_tins":"yes","recycling:batteries":"yes","recycling:cans":"yes","recycling:glass_bottles":"yes","recycling:shoes":"yes","recycling:textiles":"yes","recycling_type":"container"}},"type":"Feature"},
	{"geometry":{"coordinates":[6.130555,46.195054],"type":"Point"},"properties":{"osm_id":"4199084331","tag":{"addr:city":"Gen\u00c3\u00a8ve","addr:housenumber":"15","addr:street":"Rue Fran\u00c3\u00a7ois-Dussaud","amenity":"recycling","operator":"Ville de Geneve","recycling:aluminium":"yes","recycling:aluminium_cans":"yes","recycling:aluminium_tins":"yes","recycling:batteries":"yes","recycling:cans":"yes","recycling:glass_bottles":"yes"}},"type":"Feature"},
	{"geometry":{"coordinates":[6.134513,46.199034],"type":"Point"},"properties":{"osm_id":"4199093004","tag":{"addr:city":"Gen\u00c3\u00a8ve","addr:housenumber":"34","addr:street":"Rue du Village-Suisse","amenity":"recycling","operator":"Ville de Geneve","recycling:aluminium":"yes","recycling:aluminium_cans":"yes","recycling:aluminium_tins":"yes","recycling:batteries":"yes","recycling:cans":"yes","recycling:glass_bottles":"yes","recycling:shoes":"yes","recycling:textiles":"yes"}},"type":"Feature"},
	{"geometry":{"coordinates":[6.149778,46.214614],"type":"Point"},"properties":{"osm_id":"4199107144","tag":{"addr:city":"Gen\u00c3\u00a8ve","addr:housenumber":"21","addr:street":"Rue Rothschild","amenity":"recycling","operator":"Ville de Geneve","recycling:aluminium":"yes","recycling:aluminium_cans":"yes","recycling:aluminium_tins":"yes","recycling:batteries":"yes","recycling:cans":"yes","recycling:coffee_capsules":"yes","recycling:glass_bottles":"yes","recycling:plastic_bottles":"yes"}},"type":"Feature"},
	{"geometry":{"coordinates":[6.146553,46.211921],"type":"Point"},"properties":{"osm_id":"4199154541","tag":{"addr:city":"Gen\u00c3\u00a8ve","addr:housenumber":"39","addr:street":"Rue de Neuch\u00c3\u00a2tel","amenity":"recycling","operator":"Ville de Geneve","recycling:aerosol_cans":"yes","recycling:aluminium":"yes","recycling:aluminium_cans":"yes","recycling:aluminium_tins":"yes","recycling:batteries":"yes","recycling:cans":"yes","recycling:glass_bottles":"yes","recycling:plastic_bottles":"yes"}},"type":"Feature"},
	{"geometry":{"coordinates":[6.147981,46.208888],"type":"Point"},"properties":{"osm_id":"4199170887","tag":{"addr:city":"Gen\u00c3\u00a8ve","addr:street":"Place des Alpes","amenity":"recycling","operator":"Ville de Geneve","recycling:aerosol_cans":"yes","recycling:aluminium":"yes","recycling:aluminium_cans":"yes","recycling:aluminium_tins":"yes","recycling:batteries":"yes","recycling:cans":"yes","recycling:coffee_capsules":"yes","recycling:glass_bottles":"yes","recycling:plastic_bottles":"yes"}},"type":"Feature"},
	{"geometry":{"coordinates":[6.144096,46.209325],"type":"Point"},"properties":{"osm_id":"4199170888","tag":{"addr:city":"Gen\u00c3\u00a8ve","addr:street":"Square Pradier","amenity":"recycling","operator":"Ville de Geneve","recycling:aerosol_cans":"yes","recycling:aluminium":"yes","recycling:aluminium_cans":"yes","recycling:aluminium_tins":"yes","recycling:batteries":"yes","recycling:cans":"yes","recycling:clothes":"yes","recycling:coffee_capsules":"yes","recycling:glass_bottles":"yes","recycling:plastic_bottles":"yes","recycling:shoes":"yes","recycling:textiles":"yes"}},"type":"Feature"},
	{"geometry":{"coordinates":[6.150831,46.200222],"type":"Point"},"properties":{"osm_id":"4207760818","tag":{"addr:city":"Gen\u00c3\u00a8ve","addr:housenumber":"8","addr:postcode":"1204","addr:street":"Promenade de Saint-Antoine","amenity":"recycling","location":"overground","operator":"Ville de Geneve","recycling:aerosol_cans":"yes","recycling:aluminium":"yes","recycling:aluminium_cans":"yes","recycling:aluminium_tins":"yes","recycling:batteries":"yes","recycling:cans":"yes","recycling:clothes":"yes","recycling:glass_bottles":"yes","recycling:shoes":"yes","recycling:textiles":"yes","recycling_type":"container"}},"type":"Feature"},
	{"geometry":{"coordinates":[6.134941,46.222934],"type":"Point"},"properties":{"osm_id":"4211971595","tag":{"amenity":"recycling"}},"type":"Feature"},
	{"geometry":{"coordinates":[6.125166,46.220893],"type":"Point"},"properties":{"osm_id":"4224205304","tag":{"amenity":"waste_basket"}},"type":"Feature"},
	{"geometry":{"coordinates":[6.125869,46.220726],"type":"Point"},"properties":{"osm_id":"4224205305","tag":{"amenity":"waste_basket","wheelchair":"yes"}},"type":"Feature"},
	{"geometry":{"coordinates":[6.130064,46.221116],"type":"Point"},"properties":{"osm_id":"4224205306","tag":{"amenity":"waste_basket","wheelchair":"yes"}},"type":"Feature"},
	{"geometry":{"coordinates":[6.126828,46.220139],"type":"Point"},"properties":{"osm_id":"4224205308","tag":{"amenity":"waste_basket","wheelchair":"yes"}},"type":"Feature"},
	{"geometry":{"coordinates":[6.122268,46.22413],"type":"Point"},"properties":{"osm_id":"4224205319","tag":{"amenity":"waste_basket"}},"type":"Feature"},
	{"geometry":{"coordinates":[6.125087,46.220385],"type":"Point"},"properties":{"osm_id":"4224205320","tag":{"amenity":"waste_basket","wheelchair":"yes"}},"type":"Feature"},
	{"geometry":{"coordinates":[6.122355,46.223888],"type":"Point"},"properties":{"osm_id":"4224205322","tag":{"amenity":"waste_basket"}},"type":"Feature"},
	{"geometry":{"coordinates":[6.122668,46.223145],"type":"Point"},"properties":{"osm_id":"4224205325","tag":{"amenity":"waste_basket"}},"type":"Feature"},
	{"geometry":{"coordinates":[6.129535,46.225574],"type":"Point"},"properties":{"osm_id":"4224270307","tag":{"amenity":"waste_basket"}},"type":"Feature"},
	{"geometry":{"coordinates":[6.129518,46.225255],"type":"Point"},"properties":{"osm_id":"4224270312","tag":{"amenity":"waste_basket"}},"type":"Feature"},
	{"geometry":{"coordinates":[6.124211,46.225325],"type":"Point"},"properties":{"osm_id":"4224270314","tag":{"amenity":"waste_basket"}},"type":"Feature"},
	{"geometry":{"coordinates":[6.131684,46.225215],"type":"Point"},"properties":{"osm_id":"4224270315","tag":{"amenity":"waste_basket"}},"type":"Feature"},
	{"geometry":{"coordinates":[6.131531,46.225164],"type":"Point"},"properties":{"osm_id":"4224270324","tag":{"amenity":"waste_basket"}},"type":"Feature"},
	{"geometry":{"coordinates":[6.123709,46.22505],"type":"Point"},"properties":{"osm_id":"4224270331","tag":{"amenity":"recycling","recycling:cans":"no","recycling:clothes":"yes","recycling:glass":"no","recycling:glass_bottles":"no","recycling:paper":"no","recycling:plastic":"no","recycling_type":"container"}},"type":"Feature"},
	{"geometry":{"coordinates":[6.123531,46.22504],"type":"Point"},"properties":{"osm_id":"4224270338","tag":{"amenity":"waste_basket"}},"type":"Feature"},
	{"geometry":{"coordinates":[6.130522,46.225474],"type":"Point"},"properties":{"osm_id":"4224270339","tag":{"amenity":"waste_basket"}},"type":"Feature"},
	{"geometry":{"coordinates":[6.126997,46.225293],"type":"Point"},"properties":{"osm_id":"4224270340","tag":{"amenity":"waste_basket"}},"type":"Feature"},
	{"geometry":{"coordinates":[6.125892,46.224136],"type":"Point"},"properties":{"osm_id":"4230238928","tag":{"amenity":"waste_basket"}},"type":"Feature"},
	{"geometry":{"coordinates":[6.126531,46.223007],"type":"Point"},"properties":{"osm_id":"4230238929","tag":{"amenity":"waste_basket"}},"type":"Feature"},
	{"geometry":{"coordinates":[6.128648,46.220663],"type":"Point"},"properties":{"osm_id":"4230238936","tag":{"amenity":"waste_basket"}},"type":"Feature"},
	{"geometry":{"coordinates":[6.127775,46.22178],"type":"Point"},"properties":{"osm_id":"4230238940","tag":{"amenity":"waste_basket"}},"type":"Feature"},
	{"geometry":{"coordinates":[6.12585,46.224101],"type":"Point"},"properties":{"osm_id":"4230238945","tag":{"amenity":"waste_basket"}},"type":"Feature"},
	{"geometry":{"coordinates":[6.08487,46.230914],"type":"Point"},"properties":{"osm_id":"4238031800","tag":{"amenity":"recycling","recycling:cans":"yes","recycling:clothes":"yes","recycling:glass":"yes","recycling:glass_bottles":"yes","recycling:paper":"yes","recycling:plastic":"yes","recycling_type":"container"}},"type":"Feature"},
	{"geometry":{"coordinates":[6.085516,46.226588],"type":"Point"},"properties":{"osm_id":"4244817367","tag":{"amenity":"waste_basket"}},"type":"Feature"},
	{"geometry":{"coordinates":[6.123504,46.237726],"type":"Point"},"properties":{"osm_id":"4248675120","tag":{"amenity":"waste_basket"}},"type":"Feature"},
	{"geometry":{"coordinates":[6.132417,46.210102],"type":"Point"},"properties":{"osm_id":"4253020469","tag":{"amenity":"waste_basket"}},"type":"Feature"},
	{"geometry":{"coordinates":[6.140016,46.221167],"type":"Point"},"properties":{"osm_id":"4333063280","tag":{"amenity":"waste_basket"}},"type":"Feature"},
	{"geometry":{"coordinates":[6.141229,46.221208],"type":"Point"},"properties":{"osm_id":"4333063285","tag":{"amenity":"waste_basket"}},"type":"Feature"},
	{"geometry":{"coordinates":[6.1404,46.221172],"type":"Point"},"properties":{"osm_id":"4333064393","tag":{"amenity":"waste_basket"}},"type":"Feature"},
	{"geometry":{"coordinates":[6.1393,46.221962],"type":"Point"},"properties":{"osm_id":"4333064395","tag":{"amenity":"waste_basket"}},"type":"Feature"},
	{"geometry":{"coordinates":[6.151372,46.2166],"type":"Point"},"properties":{"osm_id":"4333064397","tag":{"amenity":"waste_basket"}},"type":"Feature"},
	{"geometry":{"coordinates":[6.132376,46.210113],"type":"Point"},"properties":{"osm_id":"4337427020","tag":{"amenity":"waste_basket"}},"type":"Feature"},
	{"geometry":{"coordinates":[6.068412,46.223464],"type":"Point"},"properties":{"osm_id":"4344434596","tag":{"amenity":"recycling"}},"type":"Feature"},
	{"geometry":{"coordinates":[6.132224,46.210019],"type":"Point"},"properties":{"osm_id":"4348936755","tag":{"amenity":"waste_basket"}},"type":"Feature"},
	{"geometry":{"coordinates":[6.15012,46.212234],"type":"Point"},"properties":{"osm_id":"4365117233","tag":{"amenity":"recycling"}},"type":"Feature"},
	{"geometry":{"coordinates":[6.134963,46.216023],"type":"Point"},"properties":{"osm_id":"4394209815","tag":{"addr:city":"Gen\u00c3\u00a8ve","addr:street":"Rue de Vermont","amenity":"recycling","recycling:aluminium":"yes","recycling:batteries":"yes","recycling:books":"yes","recycling:cans":"yes","recycling:cardboard":"yes","recycling:clothes":"no","recycling:coffee_capsules":"yes","recycling:coffee_cups":"yes","recycling:glass":"no","recycling:glass_bottles":"yes","recycling:green_waste":"yes","recycling:magazines":"yes","recycling:newspaper":"yes","recycling:organic":"yes","recycling:paper":"yes","recycling:paper_packaging":"yes","recycling:plastic":"no","recycling:plastic_bottles":"yes","recycling:scrap_metal":"yes","recycling:waste":"yes","recycling_type":"container"}},"type":"Feature"},
	{"geometry":{"coordinates":[6.145386,46.208243],"type":"Point"},"properties":{"osm_id":"4394209822","tag":{"amenity":"waste_basket"}},"type":"Feature"},
	{"geometry":{"coordinates":[6.130431,46.221215],"type":"Point"},"properties":{"osm_id":"4509723204","tag":{"amenity":"recycling","recycling:batteries":"no","recycling:cans":"no","recycling:cardboard":"yes","recycling:clothes":"no","recycling:glass":"no","recycling:glass_bottles":"no","recycling:green_waste":"yes","recycling:newspaper":"yes","recycling:organic":"yes","recycling:paper":"yes","recycling:plastic":"no","recycling:plastic_bottles":"no","recycling:scrap_metal":"no","recycling:waste":"yes","recycling_type":"container","wheelchair":"yes"}},"type":"Feature"},
	{"geometry":{"coordinates":[6.075972,46.232796],"type":"Point"},"properties":{"osm_id":"4646667156","tag":{"amenity":"recycling","location":"underground","recycling_type":"container"}},"type":"Feature"},
	{"geometry":{"coordinates":[6.128824,46.212631],"type":"Point"},"properties":{"osm_id":"4720774491","tag":{"amenity":"waste_basket"}},"type":"Feature"},
	{"geometry":{"coordinates":[6.101224,46.249734],"type":"Point"},"properties":{"osm_id":"4876041513","tag":{"amenity":"waste_basket"}},"type":"Feature"},
	{"geometry":{"coordinates":[6.110059,46.230954],"type":"Point"},"properties":{"osm_id":"4890628921","tag":{"amenity":"waste_basket","wheelchair":"yes"}},"type":"Feature"},
	{"geometry":{"coordinates":[6.109813,46.230843],"type":"Point"},"properties":{"osm_id":"4890628922","tag":{"amenity":"waste_basket","wheelchair":"yes"}},"type":"Feature"},
	{"geometry":{"coordinates":[6.109601,46.255695],"type":"Point"},"properties":{"osm_id":"4902580942","tag":{"amenity":"recycling","recycling_type":"container"}},"type":"Feature"},
	{"geometry":{"coordinates":[6.114803,46.254786],"type":"Point"},"properties":{"osm_id":"4902627660","tag":{"amenity":"recycling","recycling:glass_bottles":"yes","recycling:paper":"yes","recycling_type":"container"}},"type":"Feature"},
	{"geometry":{"coordinates":[6.077205,46.234999],"type":"Point"},"properties":{"osm_id":"4913459533","tag":{"amenity":"recycling","recycling_type":"centre"}},"type":"Feature"},
	{"geometry":{"coordinates":[6.078235,46.234246],"type":"Point"},"properties":{"osm_id":"4913475556","tag":{"amenity":"recycling","recycling_type":"centre"}},"type":"Feature"},
	{"geometry":{"coordinates":[6.078715,46.234369],"type":"Point"},"properties":{"osm_id":"4913481430","tag":{"amenity":"recycling","recycling_type":"centre"}},"type":"Feature"},
	{"geometry":{"coordinates":[6.079769,46.235003],"type":"Point"},"properties":{"osm_id":"4913482635","tag":{"amenity":"recycling","recycling_type":"centre"}},"type":"Feature"},
	{"geometry":{"coordinates":[6.077537,46.23589],"type":"Point"},"properties":{"osm_id":"4913486403","tag":{"amenity":"recycling","recycling_type":"centre"}},"type":"Feature"},
	{"geometry":{"coordinates":[6.078242,46.23992],"type":"Point"},"properties":{"osm_id":"5203745198","tag":{"amenity":"recycling","recycling:clothes":"yes","recycling_type":"container"}},"type":"Feature"},
	{"geometry":{"coordinates":[6.07588,46.242885],"type":"Point"},"properties":{"osm_id":"5429050168","tag":{"amenity":"waste_basket"}},"type":"Feature"},
	{"geometry":{"coordinates":[6.100087,46.254935],"type":"Point"},"properties":{"osm_id":"5497043925","tag":{"amenity":"waste_basket"}},"type":"Feature"},
	{"geometry":{"coordinates":[6.140244,46.22721],"type":"Point"},"properties":{"osm_id":"5581896181","tag":{"amenity":"waste_basket","waste":"trash"}},"type":"Feature"},
	{"geometry":{"coordinates":[6.079876,46.247374],"type":"Point"},"properties":{"osm_id":"5794413711","tag":{"amenity":"waste_basket","waste":"trash"}},"type":"Feature"},
	{"geometry":{"coordinates":[6.133443,46.216482],"type":"Point"},"properties":{"osm_id":"5928239135","tag":{"amenity":"waste_basket"}},"type":"Feature"},
	{"geometry":{"coordinates":[6.133116,46.216665],"type":"Point"},"properties":{"osm_id":"5928239137","tag":{"amenity":"waste_basket"}},"type":"Feature"},
	{"geometry":{"coordinates":[6.12812,46.202603],"type":"Point"},"properties":{"osm_id":"5928239142","tag":{"amenity":"recycling","location":"underground","recycling_type":"container"}},"type":"Feature"},
	{"geometry":{"coordinates":[6.128731,46.202658],"type":"Point"},"properties":{"osm_id":"5928239143","tag":{"amenity":"recycling","location":"underground","recycling_type":"container"}},"type":"Feature"},
	{"geometry":{"coordinates":[6.135271,46.204187],"type":"Point"},"properties":{"osm_id":"5928239148","tag":{"amenity":"waste_basket"}},"type":"Feature"},
	{"geometry":{"coordinates":[6.141788,46.204806],"type":"Point"},"properties":{"osm_id":"5928239149","tag":{"amenity":"waste_basket"}},"type":"Feature"},
	{"geometry":{"coordinates":[6.144465,46.205152],"type":"Point"},"properties":{"osm_id":"5928239151","tag":{"amenity":"waste_basket"}},"type":"Feature"},
	{"geometry":{"coordinates":[6.141809,46.204575],"type":"Point"},"properties":{"osm_id":"5928239153","tag":{"amenity":"waste_basket"}},"type":"Feature"},
	{"geometry":{"coordinates":[6.135546,46.215584],"type":"Point"},"properties":{"osm_id":"5928239155","tag":{"amenity":"waste_basket"}},"type":"Feature"},
	{"geometry":{"coordinates":[6.134414,46.216177],"type":"Point"},"properties":{"osm_id":"5928239158","tag":{"amenity":"waste_basket"}},"type":"Feature"},
	{"geometry":{"coordinates":[6.133695,46.216337],"type":"Point"},"properties":{"osm_id":"5928239175","tag":{"amenity":"waste_basket"}},"type":"Feature"},
	{"geometry":{"coordinates":[6.133412,46.216874],"type":"Point"},"properties":{"osm_id":"5928239179","tag":{"amenity":"waste_basket"}},"type":"Feature"},
	{"geometry":{"coordinates":[6.13658,46.215606],"type":"Point"},"properties":{"osm_id":"5928239386","tag":{"amenity":"waste_basket"}},"type":"Feature"},
	{"geometry":{"coordinates":[6.129395,46.202598],"type":"Point"},"properties":{"osm_id":"5928239390","tag":{"amenity":"waste_basket"}},"type":"Feature"},
	{"geometry":{"coordinates":[6.135332,46.204091],"type":"Point"},"properties":{"osm_id":"5928239394","tag":{"amenity":"waste_basket"}},"type":"Feature"},
	{"geometry":{"coordinates":[6.139222,46.204685],"type":"Point"},"properties":{"osm_id":"5928239395","tag":{"amenity":"waste_basket"}},"type":"Feature"},
	{"geometry":{"coordinates":[6.135514,46.215668],"type":"Point"},"properties":{"osm_id":"5928239431","tag":{"amenity":"waste_basket"}},"type":"Feature"},
	{"geometry":{"coordinates":[6.134271,46.216065],"type":"Point"},"properties":{"osm_id":"5928239433","tag":{"amenity":"waste_basket"}},"type":"Feature"},
	{"geometry":{"coordinates":[6.133215,46.216981],"type":"Point"},"properties":{"osm_id":"5928239439","tag":{"amenity":"waste_basket"}},"type":"Feature"},
	{"geometry":{"coordinates":[6.132748,46.217182],"type":"Point"},"properties":{"osm_id":"5928239441","tag":{"amenity":"waste_basket"}},"type":"Feature"},
	{"geometry":{"coordinates":[6.138577,46.204689],"type":"Point"},"properties":{"osm_id":"5928239593","tag":{"amenity":"waste_basket"}},"type":"Feature"},
	{"geometry":{"coordinates":[6.134553,46.215964],"type":"Point"},"properties":{"osm_id":"5928239597","tag":{"amenity":"waste_basket"}},"type":"Feature"},
	{"geometry":{"coordinates":[6.134071,46.216171],"type":"Point"},"properties":{"osm_id":"5928239599","tag":{"amenity":"waste_basket"}},"type":"Feature"},
	{"geometry":{"coordinates":[6.131758,46.215842],"type":"Point"},"properties":{"osm_id":"5928302775","tag":{"amenity":"waste_basket"}},"type":"Feature"},
	{"geometry":{"coordinates":[6.130228,46.214582],"type":"Point"},"properties":{"osm_id":"5928302777","tag":{"amenity":"waste_basket"}},"type":"Feature"},
	{"geometry":{"coordinates":[6.129839,46.213802],"type":"Point"},"properties":{"osm_id":"5928302778","tag":{"amenity":"waste_basket"}},"type":"Feature"},
	{"geometry":{"coordinates":[6.130573,46.213146],"type":"Point"},"properties":{"osm_id":"5928307383","tag":{"amenity":"waste_basket"}},"type":"Feature"},
	{"geometry":{"coordinates":[6.132367,46.216339],"type":"Point"},"properties":{"osm_id":"5928307907","tag":{"amenity":"waste_basket"}},"type":"Feature"},
	{"geometry":{"coordinates":[6.132061,46.216087],"type":"Point"},"properties":{"osm_id":"5928307909","tag":{"amenity":"waste_basket"}},"type":"Feature"},
	{"geometry":{"coordinates":[6.130448,46.21459],"type":"Point"},"properties":{"osm_id":"5928307928","tag":{"amenity":"waste_basket"}},"type":"Feature"},
	{"geometry":{"coordinates":[6.131117,46.212907],"type":"Point"},"properties":{"osm_id":"5928307930","tag":{"amenity":"waste_basket"}},"type":"Feature"},
	{"geometry":{"coordinates":[6.132871,46.212038],"type":"Point"},"properties":{"osm_id":"5928337328","tag":{"amenity":"waste_basket"}},"type":"Feature"},
	{"geometry":{"coordinates":[6.133063,46.212127],"type":"Point"},"properties":{"osm_id":"5928337329","tag":{"amenity":"waste_basket"}},"type":"Feature"},
	{"geometry":{"coordinates":[6.131546,46.212689],"type":"Point"},"properties":{"osm_id":"5928340287","tag":{"amenity":"waste_basket"}},"type":"Feature"},
	{"geometry":{"coordinates":[6.132034,46.212617],"type":"Point"},"properties":{"osm_id":"5928340289","tag":{"amenity":"waste_basket"}},"type":"Feature"},
	{"geometry":{"coordinates":[6.143756,46.199848],"type":"Point"},"properties":{"osm_id":"5933390039","tag":{"amenity":"waste_basket"}},"type":"Feature"},
	{"geometry":{"coordinates":[6.143479,46.199493],"type":"Point"},"properties":{"osm_id":"5933390045","tag":{"amenity":"waste_basket"}},"type":"Feature"},
	{"geometry":{"coordinates":[6.143525,46.200442],"type":"Point"},"properties":{"osm_id":"5933390070","tag":{"amenity":"waste_basket"}},"type":"Feature"},
	{"geometry":{"coordinates":[6.140924,46.219951],"type":"Point"},"properties":{"osm_id":"6005434228","tag":{"amenity":"recycling","recycling:clothes":"yes","recycling:shoes":"yes","recycling_type":"container"}},"type":"Feature"},
	{"geometry":{"coordinates":[6.065784,46.221145],"type":"Point"},"properties":{"osm_id":"6025249289","tag":{"amenity":"waste_basket","waste":"trash"}},"type":"Feature"},
	{"geometry":{"coordinates":[6.139566,46.212689],"type":"Point"},"properties":{"osm_id":"6050567980","tag":{"amenity":"waste_basket"}},"type":"Feature"},
	{"geometry":{"coordinates":[6.139109,46.212413],"type":"Point"},"properties":{"osm_id":"6050568063","tag":{"amenity":"waste_basket"}},"type":"Feature"},
	{"geometry":{"coordinates":[6.139169,46.212833],"type":"Point"},"properties":{"osm_id":"6050572409","tag":{"amenity":"waste_basket"}},"type":"Feature"},
	{"geometry":{"coordinates":[6.139886,46.213164],"type":"Point"},"properties":{"osm_id":"6050576188","tag":{"amenity":"waste_basket"}},"type":"Feature"},
	{"geometry":{"coordinates":[6.139784,46.213006],"type":"Point"},"properties":{"osm_id":"6050576487","tag":{"amenity":"waste_basket"}},"type":"Feature"},
	{"geometry":{"coordinates":[6.139513,46.213046],"type":"Point"},"properties":{"osm_id":"6050578384","tag":{"amenity":"waste_basket"}},"type":"Feature"},
	{"geometry":{"coordinates":[6.069535,46.224755],"type":"Point"},"properties":{"osm_id":"6060869115","tag":{"amenity":"recycling","location":"underground","recycling_type":"container"}},"type":"Feature"},
	{"geometry":{"coordinates":[6.073665,46.225308],"type":"Point"},"properties":{"osm_id":"6060869157","tag":{"amenity":"recycling","location":"underground","recycling_type":"container"}},"type":"Feature"},
	{"geometry":{"coordinates":[6.069862,46.227153],"type":"Point"},"properties":{"osm_id":"6060886744","tag":{"amenity":"recycling","location":"underground","recycling_type":"container"}},"type":"Feature"},
	{"geometry":{"coordinates":[6.071623,46.226263],"type":"Point"},"properties":{"osm_id":"6060888774","tag":{"amenity":"recycling","recycling_type":"container"}},"type":"Feature"},
	{"geometry":{"coordinates":[6.148414,46.2152],"type":"Point"},"properties":{"osm_id":"6071098749","tag":{"amenity":"waste_basket"}},"type":"Feature"},
	{"geometry":{"coordinates":[6.147798,46.216319],"type":"Point"},"properties":{"osm_id":"6071112824","tag":{"amenity":"waste_basket"}},"type":"Feature"},
	{"geometry":{"coordinates":[6.141287,46.214182],"type":"Point"},"properties":{"osm_id":"6071148029","tag":{"amenity":"waste_basket"}},"type":"Feature"},
	{"geometry":{"coordinates":[6.141369,46.213633],"type":"Point"},"properties":{"osm_id":"6071148766","tag":{"amenity":"waste_basket"}},"type":"Feature"},
	{"geometry":{"coordinates":[6.138223,46.214207],"type":"Point"},"properties":{"osm_id":"6071156533","tag":{"amenity":"waste_basket"}},"type":"Feature"},
	{"geometry":{"coordinates":[6.136447,46.213563],"type":"Point"},"properties":{"osm_id":"6071175492","tag":{"amenity":"waste_basket"}},"type":"Feature"},
	{"geometry":{"coordinates":[6.137466,46.212738],"type":"Point"},"properties":{"osm_id":"6071175542","tag":{"amenity":"waste_basket"}},"type":"Feature"},
	{"geometry":{"coordinates":[6.147215,46.215536],"type":"Point"},"properties":{"osm_id":"6104202087","tag":{"amenity":"waste_basket"}},"type":"Feature"},
	{"geometry":{"coordinates":[6.102426,46.25526],"type":"Point"},"properties":{"osm_id":"6186153591","tag":{"amenity":"waste_basket"}},"type":"Feature"},
	{"geometry":{"coordinates":[6.139181,46.21877],"type":"Point"},"properties":{"osm_id":"6298771374","tag":{"amenity":"waste_basket"}},"type":"Feature"},
	{"geometry":{"coordinates":[6.145184,46.205348],"type":"Point"},"properties":{"osm_id":"6317614101","tag":{"amenity":"waste_basket"}},"type":"Feature"},
	{"geometry":{"coordinates":[6.145146,46.205462],"type":"Point"},"properties":{"osm_id":"6317614144","tag":{"amenity":"waste_basket"}},"type":"Feature"},
	{"geometry":{"coordinates":[6.145157,46.205452],"type":"Point"},"properties":{"osm_id":"6317614259","tag":{"amenity":"waste_basket"}},"type":"Feature"},
	{"geometry":{"coordinates":[6.145079,46.205728],"type":"Point"},"properties":{"osm_id":"6317616043","tag":{"amenity":"waste_basket"}},"type":"Feature"},
	{"geometry":{"coordinates":[6.150074,46.204915],"type":"Point"},"properties":{"osm_id":"6366608142","tag":{"amenity":"waste_disposal"}},"type":"Feature"},
	{"geometry":{"coordinates":[6.126807,46.23078],"type":"Point"},"properties":{"osm_id":"6415198933","tag":{"amenity":"waste_basket"}},"type":"Feature"},
	{"geometry":{"coordinates":[6.126773,46.230456],"type":"Point"},"properties":{"osm_id":"6415198935","tag":{"amenity":"waste_basket"}},"type":"Feature"},
	{"geometry":{"coordinates":[6.126548,46.230272],"type":"Point"},"properties":{"osm_id":"6415198936","tag":{"amenity":"waste_basket"}},"type":"Feature"},
	{"geometry":{"coordinates":[6.114374,46.223867],"type":"Point"},"properties":{"osm_id":"6418051052","tag":{"amenity":"waste_basket"}},"type":"Feature"},
	{"geometry":{"coordinates":[6.115187,46.225454],"type":"Point"},"properties":{"osm_id":"6418068776","tag":{"amenity":"waste_basket"}},"type":"Feature"},
	{"geometry":{"coordinates":[6.128772,46.202578],"type":"Point"},"properties":{"osm_id":"6435293638","tag":{"amenity":"waste_basket"}},"type":"Feature"},
	{"geometry":{"coordinates":[6.131749,46.208879],"type":"Point"},"properties":{"osm_id":"6480302021","tag":{"amenity":"waste_basket"}},"type":"Feature"},
	{"geometry":{"coordinates":[6.131386,46.20863],"type":"Point"},"properties":{"osm_id":"6480302022","tag":{"amenity":"waste_basket"}},"type":"Feature"},
	{"geometry":{"coordinates":[6.130733,46.208073],"type":"Point"},"properties":{"osm_id":"6480302024","tag":{"amenity":"waste_basket"}},"type":"Feature"},
	{"geometry":{"coordinates":[6.083849,46.225645],"type":"Point"},"properties":{"osm_id":"6486046419","tag":{"amenity":"waste_basket"}},"type":"Feature"},
	{"geometry":{"coordinates":[6.083326,46.225783],"type":"Point"},"properties":{"osm_id":"6486046420","tag":{"amenity":"waste_basket"}},"type":"Feature"},
	{"geometry":{"coordinates":[6.078002,46.227223],"type":"Point"},"properties":{"osm_id":"6486047796","tag":{"amenity":"waste_basket"}},"type":"Feature"},
	{"geometry":{"coordinates":[6.12363,46.225176],"type":"Point"},"properties":{"osm_id":"6592763732","tag":{"amenity":"recycling","recycling:cans":"no","recycling:clothes":"yes","recycling:glass":"no","recycling:glass_bottles":"no","recycling:paper":"no","recycling:plastic":"no","recycling_type":"container"}},"type":"Feature"},
	{"geometry":{"coordinates":[6.146863,46.252775],"type":"Point"},"properties":{"osm_id":"6695677286","tag":{"amenity":"waste_basket"}},"type":"Feature"},
	{"geometry":{"coordinates":[6.146496,46.252876],"type":"Point"},"properties":{"osm_id":"6695684946","tag":{"amenity":"waste_basket"}},"type":"Feature"},
	{"geometry":{"coordinates":[6.148166,46.253668],"type":"Point"},"properties":{"osm_id":"6695691739","tag":{"amenity":"waste_basket"}},"type":"Feature"},
	{"geometry":{"coordinates":[6.142195,46.211053],"type":"Point"},"properties":{"osm_id":"6698102483","tag":{"amenity":"recycling","recycling:aluminium":"yes","recycling:cans":"yes","recycling:paper":"yes","recycling:plastic_bottles":"yes","recycling_type":"container"}},"type":"Feature"},
	{"geometry":{"coordinates":[6.071839,46.228838],"type":"Point"},"properties":{"osm_id":"6791199972","tag":{"amenity":"recycling","recycling_type":"container"}},"type":"Feature"},
	{"geometry":{"coordinates":[6.07555,46.234427],"type":"Point"},"properties":{"osm_id":"6802980862","tag":{"amenity":"waste_basket"}},"type":"Feature"},
	{"geometry":{"coordinates":[6.075997,46.232026],"type":"Point"},"properties":{"osm_id":"6802982807","tag":{"amenity":"recycling","recycling_type":"container"}},"type":"Feature"},
	{"geometry":{"coordinates":[6.076793,46.231348],"type":"Point"},"properties":{"osm_id":"6802989077","tag":{"amenity":"recycling","recycling_type":"container"}},"type":"Feature"},
	{"geometry":{"coordinates":[6.075146,46.231935],"type":"Point"},"properties":{"osm_id":"6803005379","tag":{"amenity":"waste_basket"}},"type":"Feature"},
	{"geometry":{"coordinates":[6.117999,46.231498],"type":"Point"},"properties":{"osm_id":"6814462290","tag":{"amenity":"waste_basket"}},"type":"Feature"},
	{"geometry":{"coordinates":[6.122015,46.234141],"type":"Point"},"properties":{"osm_id":"6814462292","tag":{"amenity":"waste_basket"}},"type":"Feature"},
	{"geometry":{"coordinates":[6.141987,46.210708],"type":"Point"},"properties":{"osm_id":"6917882563","tag":{"amenity":"recycling","level":"2","opening_hours":"24/7","recycling:PET":"yes","recycling:aluminium":"yes","recycling:paper":"yes","recycling:waste":"yes","recycling_type":"container","wheelchair":"yes"}},"type":"Feature"},
	{"geometry":{"coordinates":[6.142402,46.211088],"type":"Point"},"properties":{"osm_id":"6917882564","tag":{"amenity":"recycling","level":"2","opening_hours":"24/7","recycling:PET":"yes","recycling:aluminium":"yes","recycling:paper":"yes","recycling:waste":"yes","recycling_type":"container","wheelchair":"yes"}},"type":"Feature"},
	{"geometry":{"coordinates":[6.142322,46.21101],"type":"Point"},"properties":{"osm_id":"6917882569","tag":{"amenity":"recycling","level":"2","opening_hours":"24/7","recycling:PET":"yes","recycling:aluminium":"yes","recycling:paper":"yes","recycling:waste":"yes","recycling_type":"container","wheelchair":"yes"}},"type":"Feature"},
	{"geometry":{"coordinates":[6.131134,46.220954],"type":"Point"},"properties":{"osm_id":"7033477785","tag":{"amenity":"waste_basket"}},"type":"Feature"},
	{"geometry":{"coordinates":[6.06533,46.229824],"type":"Point"},"properties":{"name":"Centre de voirie et horticole","osm_id":"7362660785","tag":{"amenity":"recycling","phone":"+41 22 989 17 77","website":"https://www.meyrin.ch/node/1401"}},"type":"Feature"},
	{"geometry":{"coordinates":[6.076492,46.249149],"type":"Point"},"properties":{"osm_id":"7590026877","tag":{"amenity":"recycling","recycling_type":"container"}},"type":"Feature"},
	{"geometry":{"coordinates":[6.080333,46.248485],"type":"Point"},"properties":{"osm_id":"7590026882","tag":{"amenity":"waste_basket"}},"type":"Feature"},
	{"geometry":{"coordinates":[6.077211,46.23351],"type":"Point"},"properties":{"osm_id":"7661707331","tag":{"amenity":"recycling","description":"Habits, composte, poubelles, pet, verre, alu"}},"type":"Feature"}
]
}
