{
"type": "FeatureCollection",
"features": [
	{"geometry":{"coordinates":[6.148127,46.184909],"type":"Point"},"properties":{"osm_id":"301797454","tag":{"amenity":"recycling"}},"type":"Feature"},
	{"geometry":{"coordinates":[6.128856,46.184677],"type":"Point"},"properties":{"highway":"crossing","osm_id":"306928844","tag":{"crossing":"uncontrolled","tactile_paving":"yes"}},"type":"Feature"},
	{"geometry":{"coordinates":[6.130159,46.135423],"type":"Point"},"properties":{"osm_id":"316974393","tag":{"amenity":"recycling","recycling:cans":"yes","recycling:clothes":"yes","recycling:glass":"yes","recycling:glass_bottles":"yes","recycling:paper":"yes","recycling:plastic":"yes","recycling:plastic_bottles":"yes","recycling:shoes":"yes","recycling_type":"container"}},"type":"Feature"},
	{"geometry":{"coordinates":[6.14301,46.141008],"type":"Point"},"properties":{"osm_id":"316974416","tag":{"amenity":"recycling"}},"type":"Feature"},
	{"geometry":{"coordinates":[6.146675,46.185998],"type":"Point"},"properties":{"osm_id":"321317506","tag":{"amenity":"recycling"}},"type":"Feature"},
	{"geometry":{"coordinates":[6.140949,46.14418],"type":"Point"},"properties":{"osm_id":"384251344","tag":{"amenity":"recycling"}},"type":"Feature"},
	{"geometry":{"coordinates":[6.116758,46.172124],"type":"Point"},"properties":{"osm_id":"389299925","tag":{"amenity":"recycling"}},"type":"Feature"},
	{"geometry":{"coordinates":[6.144964,46.193205],"type":"Point"},"properties":{"osm_id":"470699096","tag":{"addr:city":"Gen\u00e8ve","addr:housenumber":"39","addr:street":"Rue Pr\u00e9vost-Martin","amenity":"recycling","operator":"Ville de Geneve","recycling:aerosol_cans":"yes","recycling:aluminium":"yes","recycling:aluminium_cans":"yes","recycling:aluminium_tins":"yes","recycling:batteries":"yes","recycling:cans":"yes","recycling:cardboard":"yes","recycling:clothes":"yes","recycling:coffee_capsules":"yes","recycling:glass":"yes","recycling:glass_bottles":"yes","recycling:green_waste":"yes","recycling:plastic_bottles":"yes","recycling_type":"centre"}},"type":"Feature"},
	{"geometry":{"coordinates":[6.147449,46.193568],"type":"Point"},"properties":{"osm_id":"471558107","tag":{"addr:city":"Gen\u00e8ve","addr:housenumber":"81","addr:street":"Boulevard de la Cluse","amenity":"recycling","operator":"Ville de Geneve","recycling:aluminium_cans":"yes","recycling:compost":"yes","recycling:glass_brown":"yes","recycling:glass_white":"yes","recycling:nespresso_capsule":"yes","recycling:plastic":"yes","recycling_type":"container"}},"type":"Feature"},
	{"geometry":{"coordinates":[6.141335,46.188062],"type":"Point"},"properties":{"osm_id":"479551219","tag":{"amenity":"recycling","location":"underground","recycling_type":"container"}},"type":"Feature"},
	{"geometry":{"coordinates":[6.119372,46.166953],"type":"Point"},"properties":{"osm_id":"556051436","tag":{"amenity":"recycling"}},"type":"Feature"},
	{"geometry":{"coordinates":[6.123284,46.167179],"type":"Point"},"properties":{"osm_id":"556051452","tag":{"amenity":"recycling"}},"type":"Feature"},
	{"geometry":{"coordinates":[6.121942,46.168899],"type":"Point"},"properties":{"osm_id":"556051539","tag":{"amenity":"recycling"}},"type":"Feature"},
	{"geometry":{"coordinates":[6.143031,46.175236],"type":"Point"},"properties":{"name":"Point de recyclage La Tambourine","osm_id":"582817933","tag":{"addr:street":"Rue de La-Tambourine","amenity":"recycling","recycling:batteries":"no","recycling_type":"container"}},"type":"Feature"},
	{"geometry":{"coordinates":[6.120513,46.192335],"type":"Point"},"properties":{"osm_id":"628810742","tag":{"amenity":"recycling"}},"type":"Feature"},
	{"geometry":{"coordinates":[6.117854,46.190683],"type":"Point"},"properties":{"osm_id":"628810767","tag":{"amenity":"recycling"}},"type":"Feature"},
	{"geometry":{"coordinates":[6.119548,46.189903],"type":"Point"},"properties":{"osm_id":"628810770","tag":{"amenity":"recycling","location":"underground","recycling_type":"container"}},"type":"Feature"},
	{"geometry":{"coordinates":[6.11394,46.193686],"type":"Point"},"properties":{"osm_id":"628825655","tag":{"amenity":"recycling"}},"type":"Feature"},
	{"geometry":{"coordinates":[6.113927,46.185676],"type":"Point"},"properties":{"osm_id":"630425357","tag":{"amenity":"recycling"}},"type":"Feature"},
	{"geometry":{"coordinates":[6.109871,46.19177],"type":"Point"},"properties":{"osm_id":"630806100","tag":{"amenity":"recycling","recycling:paper":"yes","recycling:waste":"yes"}},"type":"Feature"},
	{"geometry":{"coordinates":[6.087708,46.182085],"type":"Point"},"properties":{"osm_id":"635040721","tag":{"amenity":"recycling","recycling_type":"centre"}},"type":"Feature"},
	{"geometry":{"coordinates":[6.149088,46.179397],"type":"Point"},"properties":{"osm_id":"640254938","tag":{"amenity":"recycling"}},"type":"Feature"},
	{"geometry":{"coordinates":[6.102977,46.191786],"type":"Point"},"properties":{"osm_id":"653284098","tag":{"amenity":"recycling"}},"type":"Feature"},
	{"geometry":{"coordinates":[6.106761,46.190879],"type":"Point"},"properties":{"osm_id":"653284099","tag":{"amenity":"recycling"}},"type":"Feature"},
	{"geometry":{"coordinates":[6.109633,46.189134],"type":"Point"},"properties":{"osm_id":"653284100","tag":{"amenity":"recycling","recycling_type":"container"}},"type":"Feature"},
	{"geometry":{"coordinates":[6.113548,46.174859],"type":"Point"},"properties":{"osm_id":"801384508","tag":{"amenity":"recycling"}},"type":"Feature"},
	{"geometry":{"coordinates":[6.089806,46.182112],"type":"Point"},"properties":{"osm_id":"908762187","tag":{"amenity":"recycling","recycling:cans":"yes","recycling:glass":"yes","recycling:scrap_metal":"no"}},"type":"Feature"},
	{"geometry":{"coordinates":[6.092356,46.182738],"type":"Point"},"properties":{"osm_id":"908762300","tag":{"amenity":"recycling"}},"type":"Feature"},
	{"geometry":{"coordinates":[6.145319,46.188986],"type":"Point"},"properties":{"osm_id":"956476855","tag":{"addr:city":"Gen\u00e8ve","addr:housenumber":"12","addr:street":"Rue des Peupliers","amenity":"recycling","operator":"Ville de Geneve","recycling:aerosol_cans":"yes","recycling:aluminium":"yes","recycling:aluminium_cans":"yes","recycling:aluminium_tins":"yes","recycling:batteries":"yes","recycling:cans":"yes","recycling:coffee_capsules":"yes","recycling:glass_bottles":"yes","recycling:shoes":"yes","recycling:textiles":"yes"}},"type":"Feature"},
	{"geometry":{"coordinates":[6.11613,46.187297],"type":"Point"},"properties":{"osm_id":"1316539121","tag":{"amenity":"recycling"}},"type":"Feature"},
	{"geometry":{"coordinates":[6.114145,46.191403],"type":"Point"},"properties":{"osm_id":"1317339550","tag":{"amenity":"recycling"}},"type":"Feature"},
	{"geometry":{"coordinates":[6.116172,46.190891],"type":"Point"},"properties":{"osm_id":"1318416197","tag":{"amenity":"recycling"}},"type":"Feature"},
	{"geometry":{"coordinates":[6.117734,46.190425],"type":"Point"},"properties":{"osm_id":"1318416208","tag":{"amenity":"recycling"}},"type":"Feature"},
	{"geometry":{"coordinates":[6.111377,46.188358],"type":"Point"},"properties":{"osm_id":"1318722011","tag":{"amenity":"recycling"}},"type":"Feature"},
	{"geometry":{"coordinates":[6.111628,46.188001],"type":"Point"},"properties":{"osm_id":"1318722013","tag":{"amenity":"recycling"}},"type":"Feature"},
	{"geometry":{"coordinates":[6.126653,46.17505],"type":"Point"},"properties":{"osm_id":"1455716115","tag":{"amenity":"recycling","recycling:glass":"yes","recycling:paper":"yes"}},"type":"Feature"},
	{"geometry":{"coordinates":[6.145474,46.182074],"type":"Point"},"properties":{"osm_id":"1467034397","tag":{"amenity":"recycling"}},"type":"Feature"},
	{"geometry":{"coordinates":[6.149478,46.184868],"type":"Point"},"properties":{"osm_id":"1539667192","tag":{"amenity":"recycling"}},"type":"Feature"},
	{"geometry":{"coordinates":[6.081665,46.178372],"type":"Point"},"properties":{"osm_id":"1878563865","tag":{"amenity":"recycling","location":"underground","recycling_type":"container"}},"type":"Feature"},
	{"geometry":{"coordinates":[6.078174,46.178686],"type":"Point"},"properties":{"osm_id":"1879237945","tag":{"amenity":"recycling"}},"type":"Feature"},
	{"geometry":{"coordinates":[6.119094,46.182197],"type":"Point"},"properties":{"osm_id":"1881602101","tag":{"amenity":"recycling"}},"type":"Feature"},
	{"geometry":{"coordinates":[6.14273,46.191739],"type":"Point"},"properties":{"osm_id":"1912824883","tag":{"addr:city":"Gen\u00e8ve","addr:housenumber":"41","addr:street":"Rue Dancet","amenity":"recycling","location":"underground","operator":"Ville de Geneve","recycling:aerosol_cans":"yes","recycling:aluminium":"yes","recycling:aluminium_cans":"yes","recycling:aluminium_tins":"yes","recycling:batteries":"yes","recycling:cans":"yes","recycling:coffee_capsules":"yes","recycling:glass_bottles":"yes","recycling:plastic_bottles":"yes","recycling:shoes":"yes","recycling:textiles":"yes","recycling_type":"container"}},"type":"Feature"},
	{"geometry":{"coordinates":[6.145268,46.189045],"type":"Point"},"properties":{"osm_id":"1914145406","tag":{"amenity":"recycling"}},"type":"Feature"},
	{"geometry":{"coordinates":[6.123421,46.178438],"type":"Point"},"properties":{"osm_id":"1925423989","tag":{"amenity":"recycling"}},"type":"Feature"},
	{"geometry":{"coordinates":[6.122837,46.180728],"type":"Point"},"properties":{"osm_id":"1925424789","tag":{"amenity":"recycling"}},"type":"Feature"},
	{"geometry":{"coordinates":[6.120113,46.180161],"type":"Point"},"properties":{"osm_id":"1925953572","tag":{"amenity":"recycling"}},"type":"Feature"},
	{"geometry":{"coordinates":[6.136994,46.190147],"type":"Point"},"properties":{"osm_id":"1934421194","tag":{"amenity":"recycling"}},"type":"Feature"},
	{"geometry":{"coordinates":[6.104265,46.179618],"type":"Point"},"properties":{"osm_id":"1938814366","tag":{"amenity":"recycling"}},"type":"Feature"},
	{"geometry":{"coordinates":[6.082031,46.174824],"type":"Point"},"properties":{"osm_id":"1942029034","tag":{"amenity":"recycling"}},"type":"Feature"},
	{"geometry":{"coordinates":[6.131151,46.185451],"type":"Point"},"properties":{"name":"Point de Recyclage Acacias","osm_id":"1960409574","tag":{"amenity":"recycling","name:fr":"Espace de r\u00e9cup\u00e9ration de la Praille","website":"https://www.ge.ch/espaces-recuperation-esrec-points-collecte-communaux/espaces-recuperation-esrec"}},"type":"Feature"},
	{"geometry":{"coordinates":[6.080108,46.145208],"type":"Point"},"properties":{"osm_id":"1960754050","tag":{"amenity":"recycling","recycling_type":"container"}},"type":"Feature"},
	{"geometry":{"coordinates":[6.123985,46.18763],"type":"Point"},"properties":{"osm_id":"2001923079","tag":{"amenity":"recycling","location":"underground","recycling_type":"container"}},"type":"Feature"},
	{"geometry":{"coordinates":[6.10476,46.187848],"type":"Point"},"properties":{"osm_id":"2015826955","tag":{"amenity":"recycling"}},"type":"Feature"},
	{"geometry":{"coordinates":[6.104138,46.187142],"type":"Point"},"properties":{"osm_id":"2016450550","tag":{"amenity":"recycling"}},"type":"Feature"},
	{"geometry":{"coordinates":[6.095979,46.183708],"type":"Point"},"properties":{"osm_id":"2017309701","tag":{"amenity":"recycling","location":"underground","recycling_type":"container"}},"type":"Feature"},
	{"geometry":{"coordinates":[6.097217,46.186719],"type":"Point"},"properties":{"osm_id":"2018920589","tag":{"amenity":"recycling"}},"type":"Feature"},
	{"geometry":{"coordinates":[6.122742,46.174053],"type":"Point"},"properties":{"osm_id":"2023840577","tag":{"amenity":"recycling","recycling:batteries":"yes","recycling:cans":"yes","recycling:cardboard":"yes","recycling:clothes":"yes","recycling:glass":"yes","recycling:glass_bottles":"yes","recycling:green_waste":"yes","recycling:magazines":"yes","recycling:newspaper":"yes","recycling:paper":"yes","recycling:paper_packaging":"yes","recycling:plastic":"yes","recycling:plastic_bottles":"yes","recycling:waste":"yes","recycling_type":"container"}},"type":"Feature"},
	{"geometry":{"coordinates":[6.124268,46.17614],"type":"Point"},"properties":{"name":"Centre de tri Rue du Bachet","osm_id":"2023840755","tag":{"amenity":"recycling","recycling:cans":"yes","recycling:glass":"yes","recycling:paper":"yes"}},"type":"Feature"},
	{"geometry":{"coordinates":[6.120267,46.176068],"type":"Point"},"properties":{"osm_id":"2024708733","tag":{"amenity":"recycling"}},"type":"Feature"},
	{"geometry":{"coordinates":[6.112517,46.171299],"type":"Point"},"properties":{"osm_id":"2037201666","tag":{"amenity":"recycling"}},"type":"Feature"},
	{"geometry":{"coordinates":[6.115548,46.167564],"type":"Point"},"properties":{"osm_id":"2038139961","tag":{"amenity":"recycling","recycling:cans":"yes","recycling:glass":"yes","recycling:paper":"yes"}},"type":"Feature"},
	{"geometry":{"coordinates":[6.136744,46.177141],"type":"Point"},"properties":{"osm_id":"2131156396","tag":{"amenity":"recycling","recycling:batteries":"yes","recycling:cans":"yes","recycling:clothes":"yes","recycling:glass":"yes","recycling:paper":"yes","recycling:scrap_metal":"yes","recycling_type":"container","survey:date":"2013-01-27"}},"type":"Feature"},
	{"geometry":{"coordinates":[6.146512,46.187462],"type":"Point"},"properties":{"osm_id":"2156115533","tag":{"addr:city":"Gen\u00e8ve","addr:housenumber":"26","addr:street":"Rue de la Colline","amenity":"recycling","operator":"Ville de Geneve","recycling:aluminium":"yes","recycling:aluminium_cans":"yes","recycling:aluminium_tins":"yes","recycling:batteries":"yes","recycling:cans":"yes","recycling:clothes":"yes","recycling:coffee_capsules":"yes","recycling:glass_bottles":"yes","recycling:scrap_metal":"no","recycling:shoes":"yes","recycling:textiles":"yes","recycling_type":"container","survey:date":"2013-02-15"}},"type":"Feature"},
	{"geometry":{"coordinates":[6.1422,46.189755],"type":"Point"},"properties":{"osm_id":"2162831566","tag":{"addr:city":"Gen\u00e8ve","addr:housenumber":"9","addr:street":"Rue de la Maladi\u00e8re","amenity":"recycling","operator":"Ville de Geneve","recycling:aluminium":"yes","recycling:aluminium_cans":"yes","recycling:aluminium_tins":"yes","recycling:batteries":"yes","recycling:cans":"yes","recycling:clothes":"yes","recycling:coffee_capsules":"yes","recycling:glass_bottles":"yes","recycling:plastic_bottles":"yes","recycling:scrap_metal":"no","recycling:shoes":"yes","recycling:textiles":"yes","recycling_type":"container","survey:date":"2013-02-19"}},"type":"Feature"},
	{"geometry":{"coordinates":[6.100012,46.188746],"type":"Point"},"properties":{"osm_id":"2269089271","tag":{"amenity":"recycling"}},"type":"Feature"},
	{"geometry":{"coordinates":[6.08965,46.181843],"type":"Point"},"properties":{"osm_id":"2283305758","tag":{"amenity":"recycling"}},"type":"Feature"},
	{"geometry":{"coordinates":[6.14627,46.159535],"type":"Point"},"properties":{"osm_id":"2378449194","tag":{"amenity":"recycling"}},"type":"Feature"},
	{"geometry":{"coordinates":[6.138517,46.193068],"type":"Point"},"properties":{"osm_id":"2589245057","tag":{"addr:city":"Gen\u00e8ve","addr:housenumber":"1","addr:street":"Quai des Vernets","amenity":"recycling","operator":"Ville de Geneve","recycling:aluminium":"yes","recycling:aluminium_cans":"yes","recycling:aluminium_tins":"yes","recycling:batteries":"yes","recycling:cans":"yes","recycling:clothes":"yes","recycling:coffee_capsules":"yes","recycling:glass_bottles":"yes","recycling:plastic_bottles":"yes","recycling:shoes":"yes","recycling:textiles":"yes"}},"type":"Feature"},
	{"geometry":{"coordinates":[6.124206,46.178875],"type":"Point"},"properties":{"osm_id":"2641025275","tag":{"amenity":"waste_basket"}},"type":"Feature"},
	{"geometry":{"coordinates":[6.122459,46.18069],"type":"Point"},"properties":{"osm_id":"2641029880","tag":{"amenity":"waste_basket"}},"type":"Feature"},
	{"geometry":{"coordinates":[6.082095,46.14902],"type":"Point"},"properties":{"osm_id":"2989796549","tag":{"amenity":"recycling","recycling:glass":"yes","recycling:paper":"yes","recycling:scrap_metal":"yes","recycling_type":"container"}},"type":"Feature"},
	{"geometry":{"coordinates":[6.083731,46.148364],"type":"Point"},"properties":{"osm_id":"2995721515","tag":{"amenity":"recycling","recycling_type":"container"}},"type":"Feature"},
	{"geometry":{"coordinates":[6.078294,46.140374],"type":"Point"},"properties":{"osm_id":"3188401705","tag":{"amenity":"recycling"}},"type":"Feature"},
	{"geometry":{"coordinates":[6.079726,46.147317],"type":"Point"},"properties":{"osm_id":"3497085574","tag":{"amenity":"recycling","recycling:glass":"yes","recycling:paper":"yes","recycling:scrap_metal":"yes","recycling_type":"container"}},"type":"Feature"},
	{"geometry":{"coordinates":[6.083036,46.149158],"type":"Point"},"properties":{"osm_id":"3497085732","tag":{"amenity":"recycling","recycling:glass":"yes","recycling:paper":"yes","recycling:scrap_metal":"yes","recycling_type":"container"}},"type":"Feature"},
	{"geometry":{"coordinates":[6.081741,46.149481],"type":"Point"},"properties":{"osm_id":"3497085748","tag":{"amenity":"waste_disposal"}},"type":"Feature"},
	{"geometry":{"coordinates":[6.079379,46.149535],"type":"Point"},"properties":{"osm_id":"3497085750","tag":{"amenity":"waste_disposal"}},"type":"Feature"},
	{"geometry":{"coordinates":[6.080196,46.149676],"type":"Point"},"properties":{"osm_id":"3497085754","tag":{"amenity":"waste_disposal"}},"type":"Feature"},
	{"geometry":{"coordinates":[6.106975,46.191267],"type":"Point"},"properties":{"osm_id":"3535892017","tag":{"amenity":"recycling"}},"type":"Feature"},
	{"geometry":{"coordinates":[6.075906,46.164025],"type":"Point"},"properties":{"osm_id":"4055886409","tag":{"amenity":"waste_basket"}},"type":"Feature"},
	{"geometry":{"coordinates":[6.140033,46.190372],"type":"Point"},"properties":{"osm_id":"4199074093","tag":{"addr:city":"Gen\u00e8ve","addr:housenumber":"11","addr:street":"Quai du Cheval-Blanc","amenity":"recycling","location":"overground","operator":"Ville de Geneve","recycling:glass_bottles":"yes","recycling_type":"container"}},"type":"Feature"},
	{"geometry":{"coordinates":[6.137735,46.191306],"type":"Point"},"properties":{"osm_id":"4199080603","tag":{"addr:city":"Gen\u00e8ve","addr:housenumber":"6","addr:street":"Rue Gustave-Revilliod","amenity":"recycling","operator":"Ville de Geneve","recycling:aluminium":"yes","recycling:aluminium_cans":"yes","recycling:aluminium_tins":"yes","recycling:cans":"yes","recycling:glass_bottles":"yes","recycling:plastic_bottles":"yes"}},"type":"Feature"},
	{"geometry":{"coordinates":[6.128527,46.193907],"type":"Point"},"properties":{"osm_id":"4199081448","tag":{"addr:city":"Gen\u00e8ve","addr:housenumber":"22","addr:street":"Rue Eug\u00e8ne Marziano","amenity":"recycling","operator":"Ville de Geneve","recycling:aluminium":"yes","recycling:aluminium_cans":"yes","recycling:aluminium_tins":"yes","recycling:cans":"yes","recycling:glass_bottles":"yes"}},"type":"Feature"},
	{"geometry":{"coordinates":[6.137524,46.194929],"type":"Point"},"properties":{"osm_id":"4199088010","tag":{"addr:city":"Gen\u00e8ve","addr:street":"Quai Ernest Ansermet","amenity":"recycling","location":"overground","operator":"Ville de Geneve","recycling:aluminium":"yes","recycling:aluminium_cans":"yes","recycling:aluminium_tins":"yes","recycling:batteries":"yes","recycling:cans":"yes","recycling:glass_bottles":"yes","recycling_type":"container"}},"type":"Feature"},
	{"geometry":{"coordinates":[6.106718,46.141214],"type":"Point"},"properties":{"osm_id":"4200146100","tag":{"amenity":"waste_disposal"}},"type":"Feature"},
	{"geometry":{"coordinates":[6.118414,46.182594],"type":"Point"},"properties":{"osm_id":"4459951390","tag":{"amenity":"recycling"}},"type":"Feature"},
	{"geometry":{"coordinates":[6.068755,46.140266],"type":"Point"},"properties":{"osm_id":"4523231585","tag":{"amenity":"recycling","recycling_type":"container"}},"type":"Feature"},
	{"geometry":{"coordinates":[6.084647,46.143645],"type":"Point"},"properties":{"osm_id":"4868586422","tag":{"amenity":"recycling","recycling:glass_bottles":"yes","recycling_type":"container"}},"type":"Feature"},
	{"geometry":{"coordinates":[6.0846,46.143657],"type":"Point"},"properties":{"osm_id":"4868586423","tag":{"amenity":"recycling","recycling:aluminium":"yes","recycling:cans":"yes","recycling:plastic_bottles":"yes","recycling_type":"container"}},"type":"Feature"},
	{"geometry":{"coordinates":[6.084558,46.14366],"type":"Point"},"properties":{"osm_id":"4868586424","tag":{"amenity":"recycling","recycling:magazines":"yes","recycling:newspaper":"yes","recycling:paper":"yes","recycling:paper_packaging":"yes","recycling_type":"container"}},"type":"Feature"},
	{"geometry":{"coordinates":[6.084507,46.143664],"type":"Point"},"properties":{"osm_id":"4868586425","tag":{"amenity":"recycling","recycling:magazines":"yes","recycling:newspaper":"yes","recycling:paper":"yes","recycling:paper_packaging":"yes","recycling_type":"container"}},"type":"Feature"},
	{"geometry":{"coordinates":[6.084431,46.14367],"type":"Point"},"properties":{"osm_id":"4868586426","tag":{"amenity":"recycling","recycling:clothes":"yes","recycling_type":"container"}},"type":"Feature"},
	{"geometry":{"coordinates":[6.081184,46.14469],"type":"Point"},"properties":{"osm_id":"4868586428","tag":{"amenity":"recycling","recycling:glass_bottles":"yes","recycling_type":"container"}},"type":"Feature"},
	{"geometry":{"coordinates":[6.081173,46.144696],"type":"Point"},"properties":{"osm_id":"4868586429","tag":{"amenity":"recycling","recycling:magazines":"yes","recycling:newspaper":"yes","recycling:paper":"yes","recycling:paper_packaging":"yes","recycling_type":"container"}},"type":"Feature"},
	{"geometry":{"coordinates":[6.077676,46.142448],"type":"Point"},"properties":{"osm_id":"4868586445","tag":{"amenity":"recycling","recycling:magazines":"yes","recycling:newspaper":"yes","recycling:paper":"yes","recycling:paper_packaging":"yes","recycling_type":"underfloor-container"}},"type":"Feature"},
	{"geometry":{"coordinates":[6.077647,46.142443],"type":"Point"},"properties":{"osm_id":"4868586446","tag":{"amenity":"recycling","recycling:glass_bottles":"yes","recycling_type":"underfloor-container"}},"type":"Feature"},
	{"geometry":{"coordinates":[6.077617,46.142436],"type":"Point"},"properties":{"osm_id":"4868586447","tag":{"amenity":"recycling","recycling:metal":"yes","recycling:plastic_bottles":"yes","recycling:plastic_packaging":"yes","recycling_type":"container"}},"type":"Feature"},
	{"geometry":{"coordinates":[6.080305,46.181491],"type":"Point"},"properties":{"osm_id":"5287775665","tag":{"amenity":"recycling","recycling_type":"container"}},"type":"Feature"},
	{"geometry":{"coordinates":[6.076005,46.162723],"type":"Point"},"properties":{"osm_id":"5572303625","tag":{"amenity":"waste_basket"}},"type":"Feature"},
	{"geometry":{"coordinates":[6.086624,46.145047],"type":"Point"},"properties":{"osm_id":"5595919695","tag":{"amenity":"recycling","recycling:aluminium":"yes","recycling:cans":"yes","recycling:plastic_bottles":"yes","recycling_type":"container"}},"type":"Feature"},
	{"geometry":{"coordinates":[6.086651,46.145034],"type":"Point"},"properties":{"osm_id":"5595919696","tag":{"amenity":"recycling","recycling:magazines":"yes","recycling:newspapers":"yes","recycling:paper":"yes","recycling_type":"container"}},"type":"Feature"},
	{"geometry":{"coordinates":[6.08667,46.145018],"type":"Point"},"properties":{"osm_id":"5595919697","tag":{"amenity":"recycling","recycling:glass_bottles":"yes","recycling_type":"container"}},"type":"Feature"},
	{"geometry":{"coordinates":[6.085464,46.146402],"type":"Point"},"properties":{"osm_id":"5595919698","tag":{"amenity":"recycling","recycling:glass_bottles":"yes","recycling_type":"container"}},"type":"Feature"},
	{"geometry":{"coordinates":[6.085481,46.146395],"type":"Point"},"properties":{"osm_id":"5595919699","tag":{"amenity":"recycling","recycling:aluminium":"yes","recycling:cans":"yes","recycling:plastic":"yes","recycling:plastic_bottles":"yes","recycling:scrap_metal":"yes","recycling_type":"container"}},"type":"Feature"},
	{"geometry":{"coordinates":[6.085503,46.146386],"type":"Point"},"properties":{"osm_id":"5595919700","tag":{"amenity":"recycling","recycling:magazines":"yes","recycling:newspapers":"yes","recycling:paper":"yes","recycling_type":"container"}},"type":"Feature"},
	{"geometry":{"coordinates":[6.086779,46.147919],"type":"Point"},"properties":{"osm_id":"5595919701","tag":{"amenity":"recycling","recycling:glass_bottles":"yes","recycling_type":"container"}},"type":"Feature"},
	{"geometry":{"coordinates":[6.086805,46.147938],"type":"Point"},"properties":{"osm_id":"5595919702","tag":{"amenity":"recycling","recycling:aluminium":"yes","recycling:cans":"yes","recycling:plastic_bottles":"yes","recycling:scrap_metal":"yes","recycling_type":"container"}},"type":"Feature"},
	{"geometry":{"coordinates":[6.086826,46.14795],"type":"Point"},"properties":{"osm_id":"5595919703","tag":{"amenity":"recycling","recycling:magazines":"yes","recycling:newspapers":"yes","recycling:paper":"yes","recycling_type":"container"}},"type":"Feature"},
	{"geometry":{"coordinates":[6.144516,46.149864],"type":"Point"},"properties":{"osm_id":"5928213977","tag":{"amenity":"waste_basket"}},"type":"Feature"},
	{"geometry":{"coordinates":[6.080143,46.145196],"type":"Point"},"properties":{"osm_id":"6193797965","tag":{"amenity":"recycling","recycling_type":"container"}},"type":"Feature"},
	{"geometry":{"coordinates":[6.080073,46.14522],"type":"Point"},"properties":{"osm_id":"6193797966","tag":{"amenity":"recycling","recycling_type":"container"}},"type":"Feature"},
	{"geometry":{"coordinates":[6.081499,46.144815],"type":"Point"},"properties":{"osm_id":"6193798125","tag":{"amenity":"recycling","recycling:green_waste":"yes","recycling:organic":"yes","recycling_type":"container"}},"type":"Feature"},
	{"geometry":{"coordinates":[6.081473,46.144825],"type":"Point"},"properties":{"osm_id":"6193798126","tag":{"amenity":"recycling","recycling:green_waste":"yes","recycling:organic":"yes","recycling_type":"container"}},"type":"Feature"},
	{"geometry":{"coordinates":[6.081309,46.144263],"type":"Point"},"properties":{"osm_id":"6196837205","tag":{"amenity":"waste_basket"}},"type":"Feature"},
	{"geometry":{"coordinates":[6.081446,46.144726],"type":"Point"},"properties":{"osm_id":"6196837246","tag":{"amenity":"waste_basket"}},"type":"Feature"},
	{"geometry":{"coordinates":[6.081515,46.144906],"type":"Point"},"properties":{"osm_id":"6196837278","tag":{"amenity":"waste_basket"}},"type":"Feature"},
	{"geometry":{"coordinates":[6.081256,46.144911],"type":"Point"},"properties":{"osm_id":"6196837282","tag":{"amenity":"waste_basket"}},"type":"Feature"},
	{"geometry":{"coordinates":[6.081233,46.144802],"type":"Point"},"properties":{"osm_id":"6196837283","tag":{"amenity":"waste_basket"}},"type":"Feature"},
	{"geometry":{"coordinates":[6.080843,46.144488],"type":"Point"},"properties":{"osm_id":"6199706208","tag":{"amenity":"recycling","recycling:paper":"yes","recycling_type":"container"}},"type":"Feature"},
	{"geometry":{"coordinates":[6.080828,46.144467],"type":"Point"},"properties":{"osm_id":"6199706209","tag":{"amenity":"recycling","recycling:metal":"yes","recycling:plastic_bottles":"yes","recycling:plastic_packaging":"yes","recycling_type":"container"}},"type":"Feature"},
	{"geometry":{"coordinates":[6.080854,46.144457],"type":"Point"},"properties":{"osm_id":"6199706210","tag":{"amenity":"recycling","recycling:glass":"yes","recycling_type":"container"}},"type":"Feature"},
	{"geometry":{"coordinates":[6.113113,46.144888],"type":"Point"},"properties":{"osm_id":"6315651385","tag":{"amenity":"waste_basket"}},"type":"Feature"},
	{"geometry":{"coordinates":[6.109044,46.163209],"type":"Point"},"properties":{"osm_id":"6359099292","tag":{"amenity":"waste_basket"}},"type":"Feature"},
	{"geometry":{"coordinates":[6.108609,46.163198],"type":"Point"},"properties":{"osm_id":"6359167592","tag":{"amenity":"waste_basket"}},"type":"Feature"},
	{"geometry":{"coordinates":[6.106511,46.163578],"type":"Point"},"properties":{"osm_id":"6359167593","tag":{"amenity":"waste_basket"}},"type":"Feature"},
	{"geometry":{"coordinates":[6.11899,46.167103],"type":"Point"},"properties":{"osm_id":"6368152387","tag":{"amenity":"waste_disposal"}},"type":"Feature"},
	{"geometry":{"coordinates":[6.117606,46.154684],"type":"Point"},"properties":{"osm_id":"6378722786","tag":{"amenity":"waste_basket"}},"type":"Feature"},
	{"geometry":{"coordinates":[6.13284,46.166777],"type":"Point"},"properties":{"osm_id":"6393819955","tag":{"amenity":"recycling","recycling_type":"container"}},"type":"Feature"},
	{"geometry":{"coordinates":[6.13089,46.165202],"type":"Point"},"properties":{"osm_id":"6393819956","tag":{"amenity":"recycling","recycling_type":"container"}},"type":"Feature"},
	{"geometry":{"coordinates":[6.106069,46.163663],"type":"Point"},"properties":{"osm_id":"6401037385","tag":{"amenity":"waste_basket"}},"type":"Feature"},
	{"geometry":{"coordinates":[6.112747,46.157207],"type":"Point"},"properties":{"osm_id":"6406114499","tag":{"amenity":"waste_basket"}},"type":"Feature"},
	{"geometry":{"coordinates":[6.148374,46.176142],"type":"Point"},"properties":{"osm_id":"6408090608","tag":{"amenity":"recycling","recycling_type":"container"}},"type":"Feature"},
	{"geometry":{"coordinates":[6.117563,46.154526],"type":"Point"},"properties":{"osm_id":"6411218409","tag":{"amenity":"waste_basket"}},"type":"Feature"},
	{"geometry":{"coordinates":[6.119717,46.145127],"type":"Point"},"properties":{"osm_id":"6455400863","tag":{"amenity":"waste_basket"}},"type":"Feature"},
	{"geometry":{"coordinates":[6.129033,46.180057],"type":"Point"},"properties":{"osm_id":"6513398012","tag":{"amenity":"waste_basket"}},"type":"Feature"},
	{"geometry":{"coordinates":[6.114898,46.157837],"type":"Point"},"properties":{"osm_id":"6539968078","tag":{"amenity":"waste_basket"}},"type":"Feature"},
	{"geometry":{"coordinates":[6.124119,46.146162],"type":"Point"},"properties":{"osm_id":"6555687186","tag":{"amenity":"waste_disposal"}},"type":"Feature"},
	{"geometry":{"coordinates":[6.126037,46.14277],"type":"Point"},"properties":{"osm_id":"6555687187","tag":{"amenity":"waste_basket"}},"type":"Feature"},
	{"geometry":{"coordinates":[6.108677,46.16317],"type":"Point"},"properties":{"osm_id":"6568514685","tag":{"amenity":"recycling","colour":"green","covered":"no","indoor":"no","recycling:aluminium":"yes","recycling:batteries":"yes","recycling:cans":"yes","recycling:cartons":"yes","recycling:glass":"yes","recycling:glass_bottles":"yes","recycling:magazines":"yes","recycling:newspaper":"yes","recycling:paper":"yes","recycling:plastic":"yes","recycling:plastic_bottles":"yes","recycling:scrap_metal":"yes","recycling_type":"container"}},"type":"Feature"},
	{"geometry":{"coordinates":[6.136692,46.177921],"type":"Point"},"properties":{"osm_id":"6589754460","tag":{"amenity":"recycling","recycling_type":"container"}},"type":"Feature"},
	{"geometry":{"coordinates":[6.136715,46.177911],"type":"Point"},"properties":{"osm_id":"6589754461","tag":{"amenity":"recycling","recycling_type":"container"}},"type":"Feature"},
	{"geometry":{"coordinates":[6.13673,46.177905],"type":"Point"},"properties":{"osm_id":"6589754462","tag":{"amenity":"recycling","recycling_type":"container"}},"type":"Feature"},
	{"geometry":{"coordinates":[6.136728,46.177938],"type":"Point"},"properties":{"osm_id":"6589754463","tag":{"amenity":"recycling","recycling_type":"container"}},"type":"Feature"},
	{"geometry":{"coordinates":[6.136743,46.177933],"type":"Point"},"properties":{"osm_id":"6589754464","tag":{"amenity":"recycling","recycling_type":"container"}},"type":"Feature"},
	{"geometry":{"coordinates":[6.11293,46.164506],"type":"Point"},"properties":{"osm_id":"6638398985","tag":{"amenity":"waste_basket"}},"type":"Feature"},
	{"geometry":{"coordinates":[6.112334,46.165091],"type":"Point"},"properties":{"osm_id":"6638398986","tag":{"amenity":"waste_basket"}},"type":"Feature"},
	{"geometry":{"coordinates":[6.116276,46.173345],"type":"Point"},"properties":{"osm_id":"6645050185","tag":{"amenity":"waste_basket"}},"type":"Feature"},
	{"geometry":{"coordinates":[6.093613,46.148262],"type":"Point"},"properties":{"osm_id":"6806753030","tag":{"amenity":"recycling","location":"underground","recycling:glass":"no","recycling:glass_bottles":"yes","recycling_type":"container"}},"type":"Feature"},
	{"geometry":{"coordinates":[6.093599,46.148279],"type":"Point"},"properties":{"osm_id":"6806753031","tag":{"amenity":"recycling","location":"underground","recycling:cardboard":"yes","recycling:paper":"yes","recycling_type":"container"}},"type":"Feature"},
	{"geometry":{"coordinates":[6.093586,46.148298],"type":"Point"},"properties":{"osm_id":"6806753032","tag":{"amenity":"recycling","location":"underground","recycling:plastic_bottles":"yes","recycling:plastic_packaging":"yes","recycling_type":"container"}},"type":"Feature"},
	{"geometry":{"coordinates":[6.079041,46.137814],"type":"Point"},"properties":{"osm_id":"7055651207","tag":{"amenity":"recycling","recycling_type":"container"}},"type":"Feature"},
	{"geometry":{"coordinates":[6.06509,46.141047],"type":"Point"},"properties":{"osm_id":"7644020363","tag":{"amenity":"waste_disposal"}},"type":"Feature"}
]
}
