{
"type": "FeatureCollection",
"features": [
	{"geometry":{"coordinates":[6.087931,45.71676],"type":"Point"},"properties":{"osm_id":"1396162703","tag":{"amenity":"recycling","recycling:glass":"yes","recycling:paper":"yes","recycling_type":"container"}},"type":"Feature"},
	{"geometry":{"coordinates":[6.098272,45.735482],"type":"Point"},"properties":{"osm_id":"4569474362","tag":{"amenity":"recycling","recycling:glass":"yes","recycling_type":"container"}},"type":"Feature"},
	{"geometry":{"coordinates":[6.105009,45.718952],"type":"Point"},"properties":{"osm_id":"5815118554","tag":{"amenity":"waste_disposal","operator":"communaut\u00c3\u00a9 de communes du C\u00c5\u0093ur des Bauges"}},"type":"Feature"},
	{"geometry":{"coordinates":[6.095911,45.727711],"type":"Point"},"properties":{"osm_id":"8570751599","tag":{"amenity":"waste_basket"}},"type":"Feature"},
	{"geometry":{"coordinates":[6.095915,45.727781],"type":"Point"},"properties":{"osm_id":"8570751600","tag":{"amenity":"waste_basket"}},"type":"Feature"}
]
}
