{
"type": "FeatureCollection",
"features": [
	{"geometry":{"coordinates":[6.077988,45.157546],"type":"Point"},"properties":{"osm_id":"2643397646","tag":{"amenity":"recycling","recycling:glass":"yes"}},"type":"Feature"},
	{"geometry":{"coordinates":[6.080367,45.157797],"type":"Point"},"properties":{"osm_id":"2643397665","tag":{"amenity":"recycling","recycling:glass":"yes","recycling_type":"container"}},"type":"Feature"},
	{"geometry":{"coordinates":[6.077362,45.158785],"type":"Point"},"properties":{"osm_id":"2643397728","tag":{"amenity":"recycling","recycling:glass":"yes","recycling_type":"container"}},"type":"Feature"},
	{"geometry":{"coordinates":[6.079782,45.154318],"type":"Point"},"properties":{"osm_id":"5235610197","tag":{"addr:city":"Vaujany","amenity":"recycling","operator":"Commune de Vaujany","recycling_type":"centre"}},"type":"Feature"},
	{"geometry":{"coordinates":[6.080846,45.157251],"type":"Point"},"properties":{"osm_id":"7200720898","tag":{"amenity":"recycling","recycling_type":"container"}},"type":"Feature"},
	{"geometry":{"coordinates":[6.078838,45.155814],"type":"Point"},"properties":{"osm_id":"7200720899","tag":{"amenity":"recycling","recycling_type":"container"}},"type":"Feature"}
]
}
