{
"type": "FeatureCollection",
"lastupdate": "2020-08-01T00:00:00Z",
"features": [
	{"geometry":{"coordinates":[23.448868,59.979362],"type":"Point"},"properties":{"osm_id":"2623374096","tag":{"amenity":"recycling","operator":"Rosk'n roll","recycling:cardboard":"yes","recycling:glass":"yes","recycling:metal":"yes","recycling:paper":"yes","recycling:plastic":"yes","recycling_type":"container"}},"type":"Feature"},
	{"geometry":{"coordinates":[23.461998,59.978528],"type":"Point"},"properties":{"osm_id":"5535882579","tag":{"amenity":"recycling","operator":"Rosk'n roll","recycling:cardboard":"yes","recycling:clothes":"yes","recycling:glass":"yes","recycling:metal":"yes","recycling:paper":"yes","recycling:plastic":"yes","recycling_type":"container"}},"type":"Feature"},
	{"geometry":{"coordinates":[23.438217,59.979753],"type":"Point"},"properties":{"osm_id":"5535882580","tag":{"amenity":"recycling","operator":"Rosk'n roll","recycling:cardboard":"yes","recycling:clothes":"yes","recycling:glass":"yes","recycling:metal":"yes","recycling:paper":"yes","recycling_type":"container"}},"type":"Feature"},
	{"geometry":{"coordinates":[23.439754,59.978865],"type":"Point"},"properties":{"osm_id":"5535882583","tag":{"amenity":"recycling","description":"Gas bottles handled by ABC gas station","operator":"Rosk'n roll;ABC","recycling:batteries":"yes","recycling:car_batteries":"yes","recycling:fluorescent_tubes":"yes","recycling:gas_bottles":"yes","recycling:hazardous_waste":"yes","recycling_type":"container"}},"type":"Feature"},
	{"geometry":{"coordinates":[23.426215,59.991832],"type":"Point"},"properties":{"osm_id":"6533976862","tag":{"amenity":"recycling","recycling_type":"container"}},"type":"Feature"}
]
}
