{
"type": "FeatureCollection",
"features": [
	{"geometry":{"coordinates":[23.461438,51.134879],"type":"Point"},"properties":{"name":"Skup z\u00c5\u0082omu","osm_id":"4361884789","tag":{"amenity":"recycling"}},"type":"Feature"},
	{"geometry":{"coordinates":[23.431705,51.142535],"type":"Point"},"properties":{"osm_id":"8421381187","tag":{"amenity":"waste_basket","colour":"green","material":"steel"}},"type":"Feature"},
	{"geometry":{"coordinates":[23.437458,51.145903],"type":"Point"},"properties":{"osm_id":"8421715537","tag":{"amenity":"waste_basket","colour":"black","material":"steel"}},"type":"Feature"},
	{"geometry":{"coordinates":[23.435785,51.143085],"type":"Point"},"properties":{"osm_id":"8574935382","tag":{"amenity":"waste_basket","colour":"yellow","material":"steel"}},"type":"Feature"},
	{"geometry":{"coordinates":[23.437298,51.144455],"type":"Point"},"properties":{"osm_id":"8578699980","tag":{"amenity":"waste_basket","colour":"grren","material":"steel"}},"type":"Feature"},
	{"geometry":{"coordinates":[23.440993,51.142893],"type":"Point"},"properties":{"osm_id":"8585338207","tag":{"amenity":"waste_basket","colour":"yellow","material":"steel"}},"type":"Feature"},
	{"geometry":{"coordinates":[23.441822,51.142831],"type":"Point"},"properties":{"osm_id":"8585354237","tag":{"amenity":"waste_basket","colour":"yellow","material":"steel"}},"type":"Feature"},
	{"geometry":{"coordinates":[23.432066,51.142947],"type":"Point"},"properties":{"osm_id":"8589479204","tag":{"amenity":"waste_basket","colour":"green","material":"steel"}},"type":"Feature"},
	{"geometry":{"coordinates":[23.431782,51.142945],"type":"Point"},"properties":{"osm_id":"8589485097","tag":{"amenity":"waste_basket","colour":"green","material":"steel"}},"type":"Feature"},
	{"geometry":{"coordinates":[23.431611,51.142944],"type":"Point"},"properties":{"osm_id":"8589485100","tag":{"amenity":"waste_basket","colour":"green","material":"steel"}},"type":"Feature"},
	{"geometry":{"coordinates":[23.431736,51.142394],"type":"Point"},"properties":{"osm_id":"8589486165","tag":{"amenity":"waste_basket","colour":"green","material":"steel"}},"type":"Feature"},
	{"geometry":{"coordinates":[23.431397,51.142415],"type":"Point"},"properties":{"osm_id":"8589519413","tag":{"amenity":"waste_basket","colour":"green","material":"steel"}},"type":"Feature"},
	{"geometry":{"coordinates":[23.431565,51.141787],"type":"Point"},"properties":{"osm_id":"8589601200","tag":{"amenity":"waste_basket","colour":"green","material":"steel"}},"type":"Feature"},
	{"geometry":{"coordinates":[23.429794,51.142079],"type":"Point"},"properties":{"osm_id":"8589621611","tag":{"amenity":"waste_basket","colour":"green","material":"steel"}},"type":"Feature"},
	{"geometry":{"coordinates":[23.430424,51.140859],"type":"Point"},"properties":{"osm_id":"8589664086","tag":{"amenity":"waste_basket","colour":"green","material":"steel"}},"type":"Feature"},
	{"geometry":{"coordinates":[23.430526,51.141993],"type":"Point"},"properties":{"osm_id":"8589754621","tag":{"amenity":"waste_basket","colour":"green","material":"steel"}},"type":"Feature"},
	{"geometry":{"coordinates":[23.430614,51.141919],"type":"Point"},"properties":{"osm_id":"8589754622","tag":{"amenity":"waste_basket","colour":"green","material":"steel"}},"type":"Feature"},
	{"geometry":{"coordinates":[23.429707,51.141762],"type":"Point"},"properties":{"osm_id":"8589816618","tag":{"amenity":"waste_basket","colour":"green","material":"steel"}},"type":"Feature"},
	{"geometry":{"coordinates":[23.429743,51.141606],"type":"Point"},"properties":{"osm_id":"8589816621","tag":{"amenity":"waste_basket","colour":"green","material":"steel"}},"type":"Feature"},
	{"geometry":{"coordinates":[23.433965,51.144114],"type":"Point"},"properties":{"osm_id":"8612028695","tag":{"amenity":"waste_basket"}},"type":"Feature"},
	{"geometry":{"coordinates":[23.434008,51.143965],"type":"Point"},"properties":{"osm_id":"8612028697","tag":{"amenity":"waste_basket"}},"type":"Feature"},
	{"geometry":{"coordinates":[23.430268,51.143877],"type":"Point"},"properties":{"osm_id":"8612089620","tag":{"amenity":"waste_basket"}},"type":"Feature"},
	{"geometry":{"coordinates":[23.43139,51.14313],"type":"Point"},"properties":{"osm_id":"8612089632","tag":{"amenity":"waste_basket"}},"type":"Feature"},
	{"geometry":{"coordinates":[23.431865,51.143356],"type":"Point"},"properties":{"osm_id":"8612089676","tag":{"amenity":"waste_basket"}},"type":"Feature"},
	{"geometry":{"coordinates":[23.436747,51.143365],"type":"Point"},"properties":{"osm_id":"8618624234","tag":{"amenity":"waste_basket","colour":"green","material":"steel"}},"type":"Feature"},
	{"geometry":{"coordinates":[23.436684,51.142624],"type":"Point"},"properties":{"osm_id":"8628505169","tag":{"amenity":"waste_basket","colour":"green","material":"steel"}},"type":"Feature"},
	{"geometry":{"coordinates":[23.436576,51.142447],"type":"Point"},"properties":{"osm_id":"8628505170","tag":{"amenity":"waste_basket","colour":"green","material":"steel"}},"type":"Feature"},
	{"geometry":{"coordinates":[23.437495,51.142492],"type":"Point"},"properties":{"osm_id":"8628505172","tag":{"amenity":"waste_basket","colour":"green","material":"wood"}},"type":"Feature"},
	{"geometry":{"coordinates":[23.436608,51.144495],"type":"Point"},"properties":{"osm_id":"8628505179","tag":{"amenity":"waste_basket","colour":"green","material":"steel"}},"type":"Feature"},
	{"geometry":{"coordinates":[23.43604,51.144033],"type":"Point"},"properties":{"osm_id":"8628505180","tag":{"amenity":"waste_basket"}},"type":"Feature"},
	{"geometry":{"coordinates":[23.436683,51.143916],"type":"Point"},"properties":{"osm_id":"8628505181","tag":{"amenity":"waste_basket","colour":"green","material":"metal"}},"type":"Feature"},
	{"geometry":{"coordinates":[23.438247,51.141837],"type":"Point"},"properties":{"osm_id":"8639923329","tag":{"amenity":"waste_basket","colour":"green","material":"steel"}},"type":"Feature"},
	{"geometry":{"coordinates":[23.438311,51.141094],"type":"Point"},"properties":{"osm_id":"8639923337","tag":{"amenity":"waste_basket","colour":"green","material":"steel"}},"type":"Feature"},
	{"geometry":{"coordinates":[23.438513,51.141054],"type":"Point"},"properties":{"osm_id":"8639923338","tag":{"amenity":"waste_basket","colour":"green","material":"steel"}},"type":"Feature"},
	{"geometry":{"coordinates":[23.438695,51.141016],"type":"Point"},"properties":{"osm_id":"8639923339","tag":{"amenity":"waste_basket","colour":"green","material":"steel"}},"type":"Feature"},
	{"geometry":{"coordinates":[23.439107,51.140923],"type":"Point"},"properties":{"osm_id":"8639923342","tag":{"amenity":"waste_basket","colour":"green","material":"steel"}},"type":"Feature"},
	{"geometry":{"coordinates":[23.439309,51.140874],"type":"Point"},"properties":{"osm_id":"8639923350","tag":{"amenity":"waste_basket","colour":"green","material":"steel"}},"type":"Feature"},
	{"geometry":{"coordinates":[23.439485,51.140832],"type":"Point"},"properties":{"osm_id":"8639923351","tag":{"amenity":"waste_basket","colour":"green","material":"steel"}},"type":"Feature"},
	{"geometry":{"coordinates":[23.439693,51.140788],"type":"Point"},"properties":{"osm_id":"8639923352","tag":{"amenity":"waste_basket","colour":"green","material":"steel"}},"type":"Feature"},
	{"geometry":{"coordinates":[23.440076,51.140297],"type":"Point"},"properties":{"osm_id":"8640050145","tag":{"amenity":"waste_basket","colour":"green","material":"steel"}},"type":"Feature"},
	{"geometry":{"coordinates":[23.440147,51.140426],"type":"Point"},"properties":{"osm_id":"8640050146","tag":{"amenity":"waste_basket","colour":"green","material":"steel"}},"type":"Feature"},
	{"geometry":{"coordinates":[23.440209,51.140537],"type":"Point"},"properties":{"osm_id":"8640050147","tag":{"amenity":"waste_basket","colour":"green","material":"steel"}},"type":"Feature"},
	{"geometry":{"coordinates":[23.440037,51.140177],"type":"Point"},"properties":{"osm_id":"8640050148","tag":{"amenity":"waste_basket","colour":"green","material":"steel"}},"type":"Feature"},
	{"geometry":{"coordinates":[23.439844,51.140222],"type":"Point"},"properties":{"osm_id":"8640050149","tag":{"amenity":"waste_basket","colour":"green","material":"steel"}},"type":"Feature"},
	{"geometry":{"coordinates":[23.439651,51.140267],"type":"Point"},"properties":{"osm_id":"8640050150","tag":{"amenity":"waste_basket","colour":"green","material":"steel"}},"type":"Feature"},
	{"geometry":{"coordinates":[23.438855,51.140537],"type":"Point"},"properties":{"osm_id":"8640056549","tag":{"amenity":"waste_basket","colour":"green","material":"steel"}},"type":"Feature"},
	{"geometry":{"coordinates":[23.438645,51.140586],"type":"Point"},"properties":{"osm_id":"8640056550","tag":{"amenity":"waste_basket","colour":"green","material":"steel"}},"type":"Feature"},
	{"geometry":{"coordinates":[23.438432,51.140635],"type":"Point"},"properties":{"osm_id":"8640056551","tag":{"amenity":"waste_basket","colour":"green","material":"steel"}},"type":"Feature"},
	{"geometry":{"coordinates":[23.432319,51.142129],"type":"Point"},"properties":{"osm_id":"8640165969","tag":{"amenity":"waste_basket","colour":"green","material":"steel"}},"type":"Feature"},
	{"geometry":{"coordinates":[23.431986,51.142212],"type":"Point"},"properties":{"osm_id":"8640165970","tag":{"amenity":"waste_basket","colour":"green","material":"steel"}},"type":"Feature"},
	{"geometry":{"coordinates":[23.432069,51.142589],"type":"Point"},"properties":{"osm_id":"8640188924","tag":{"amenity":"waste_basket","colour":"green","material":"steel"}},"type":"Feature"},
	{"geometry":{"coordinates":[23.431657,51.14281],"type":"Point"},"properties":{"osm_id":"8640188929","tag":{"amenity":"waste_basket","colour":"green","material":"steel"}},"type":"Feature"},
	{"geometry":{"coordinates":[23.432296,51.142949],"type":"Point"},"properties":{"osm_id":"8640188932","tag":{"amenity":"waste_basket","colour":"green","material":"steel"}},"type":"Feature"},
	{"geometry":{"coordinates":[23.431255,51.142584],"type":"Point"},"properties":{"osm_id":"8642625921","tag":{"amenity":"waste_basket","colour":"green","material":"steel"}},"type":"Feature"},
	{"geometry":{"coordinates":[23.430926,51.141989],"type":"Point"},"properties":{"osm_id":"8642625936","tag":{"amenity":"waste_basket","colour":"green","material":"steel"}},"type":"Feature"},
	{"geometry":{"coordinates":[23.430717,51.141786],"type":"Point"},"properties":{"osm_id":"8642625938","tag":{"amenity":"waste_basket","colour":"green","material":"steel"}},"type":"Feature"},
	{"geometry":{"coordinates":[23.430633,51.141484],"type":"Point"},"properties":{"osm_id":"8642649149","tag":{"amenity":"waste_basket","colour":"green","material":"steel"}},"type":"Feature"},
	{"geometry":{"coordinates":[23.430709,51.14119],"type":"Point"},"properties":{"osm_id":"8642649150","tag":{"amenity":"waste_basket","colour":"green","material":"steel"}},"type":"Feature"},
	{"geometry":{"coordinates":[23.430506,51.141149],"type":"Point"},"properties":{"osm_id":"8642649151","tag":{"amenity":"waste_basket","colour":"green","material":"steel"}},"type":"Feature"},
	{"geometry":{"coordinates":[23.430027,51.141578],"type":"Point"},"properties":{"osm_id":"8642649152","tag":{"amenity":"waste_basket","colour":"green","material":"steel"}},"type":"Feature"},
	{"geometry":{"coordinates":[23.429767,51.141488],"type":"Point"},"properties":{"osm_id":"8642649153","tag":{"amenity":"waste_basket","colour":"green","material":"steel"}},"type":"Feature"},
	{"geometry":{"coordinates":[23.428773,51.141313],"type":"Point"},"properties":{"osm_id":"8642649156","tag":{"amenity":"waste_basket","colour":"green","material":"steel"}},"type":"Feature"},
	{"geometry":{"coordinates":[23.428752,51.141169],"type":"Point"},"properties":{"osm_id":"8642649157","tag":{"amenity":"waste_basket","colour":"green","material":"steel"}},"type":"Feature"},
	{"geometry":{"coordinates":[23.428733,51.140989],"type":"Point"},"properties":{"osm_id":"8642649158","tag":{"amenity":"waste_basket","colour":"green","material":"steel"}},"type":"Feature"},
	{"geometry":{"coordinates":[23.429969,51.141095],"type":"Point"},"properties":{"osm_id":"8642708072","tag":{"amenity":"waste_basket","colour":"green","material":"steel"}},"type":"Feature"},
	{"geometry":{"coordinates":[23.429924,51.141219],"type":"Point"},"properties":{"osm_id":"8642708073","tag":{"amenity":"waste_basket","colour":"green","material":"steel"}},"type":"Feature"},
	{"geometry":{"coordinates":[23.429883,51.141341],"type":"Point"},"properties":{"osm_id":"8642708075","tag":{"amenity":"waste_basket","colour":"green","material":"steel"}},"type":"Feature"},
	{"geometry":{"coordinates":[23.431239,51.141655],"type":"Point"},"properties":{"osm_id":"8642724165","tag":{"amenity":"waste_basket","colour":"green","material":"steel"}},"type":"Feature"},
	{"geometry":{"coordinates":[23.431723,51.141854],"type":"Point"},"properties":{"osm_id":"8642724167","tag":{"amenity":"waste_basket","colour":"green","material":"steel"}},"type":"Feature"},
	{"geometry":{"coordinates":[23.431107,51.142271],"type":"Point"},"properties":{"osm_id":"8642724168","tag":{"amenity":"waste_basket","colour":"green","material":"steel"}},"type":"Feature"},
	{"geometry":{"coordinates":[23.43214,51.143507],"type":"Point"},"properties":{"osm_id":"8642762517","tag":{"amenity":"waste_basket","colour":"green","material":"steel"}},"type":"Feature"},
	{"geometry":{"coordinates":[23.432073,51.143097],"type":"Point"},"properties":{"osm_id":"8642762518","tag":{"amenity":"waste_basket","colour":"green","material":"steel"}},"type":"Feature"},
	{"geometry":{"coordinates":[23.431152,51.143227],"type":"Point"},"properties":{"osm_id":"8642762520","tag":{"amenity":"waste_basket","colour":"green","material":"steel"}},"type":"Feature"},
	{"geometry":{"coordinates":[23.431086,51.143838],"type":"Point"},"properties":{"osm_id":"8642762521","tag":{"amenity":"waste_basket","colour":"green","material":"steel"}},"type":"Feature"},
	{"geometry":{"coordinates":[23.431036,51.143522],"type":"Point"},"properties":{"osm_id":"8642762522","tag":{"amenity":"waste_basket","colour":"green","material":"steel"}},"type":"Feature"},
	{"geometry":{"coordinates":[23.43025,51.144102],"type":"Point"},"properties":{"osm_id":"8642762523","tag":{"amenity":"waste_basket","colour":"green","material":"steel"}},"type":"Feature"},
	{"geometry":{"coordinates":[23.43045,51.143904],"type":"Point"},"properties":{"osm_id":"8642762526","tag":{"amenity":"waste_basket","colour":"green","material":"steel"}},"type":"Feature"},
	{"geometry":{"coordinates":[23.437069,51.145018],"type":"Point"},"properties":{"osm_id":"8642855802","tag":{"amenity":"waste_basket","colour":"black","material":"steel"}},"type":"Feature"},
	{"geometry":{"coordinates":[23.437301,51.144942],"type":"Point"},"properties":{"osm_id":"8642855805","tag":{"amenity":"waste_basket","colour":"green","material":"steel"}},"type":"Feature"},
	{"geometry":{"coordinates":[23.440048,51.144203],"type":"Point"},"properties":{"osm_id":"8642963533","tag":{"amenity":"waste_basket","colour":"green","material":"steel"}},"type":"Feature"},
	{"geometry":{"coordinates":[23.440335,51.144094],"type":"Point"},"properties":{"osm_id":"8642963534","tag":{"amenity":"waste_basket","colour":"green","material":"steel"}},"type":"Feature"},
	{"geometry":{"coordinates":[23.43602,51.143004],"type":"Point"},"properties":{"osm_id":"8646544935","tag":{"amenity":"waste_basket","colour":"yellow","material":"steel"}},"type":"Feature"},
	{"geometry":{"coordinates":[23.436306,51.142171],"type":"Point"},"properties":{"osm_id":"8646544958","tag":{"amenity":"waste_basket","colour":"green","material":"steel"}},"type":"Feature"},
	{"geometry":{"coordinates":[23.435484,51.142348],"type":"Point"},"properties":{"osm_id":"8646544982","tag":{"amenity":"waste_basket","colour":"green","material":"steel"}},"type":"Feature"},
	{"geometry":{"coordinates":[23.43419,51.143563],"type":"Point"},"properties":{"osm_id":"8646688676","tag":{"amenity":"waste_basket","colour":"yellow","material":"steel"}},"type":"Feature"},
	{"geometry":{"coordinates":[23.434242,51.143439],"type":"Point"},"properties":{"osm_id":"8646688677","tag":{"amenity":"waste_basket","colour":"yellow","material":"steel"}},"type":"Feature"},
	{"geometry":{"coordinates":[23.434298,51.143344],"type":"Point"},"properties":{"osm_id":"8646688680","tag":{"amenity":"waste_basket","colour":"yellow","material":"steel"}},"type":"Feature"},
	{"geometry":{"coordinates":[23.433307,51.143347],"type":"Point"},"properties":{"osm_id":"8646688690","tag":{"amenity":"waste_basket","colour":"yellow","material":"steel"}},"type":"Feature"},
	{"geometry":{"coordinates":[23.433333,51.143447],"type":"Point"},"properties":{"osm_id":"8646688700","tag":{"amenity":"waste_basket","colour":"yellow","material":"steel"}},"type":"Feature"},
	{"geometry":{"coordinates":[23.432605,51.142709],"type":"Point"},"properties":{"osm_id":"8646716968","tag":{"amenity":"waste_basket","colour":"green","material":"steel"}},"type":"Feature"},
	{"geometry":{"coordinates":[23.432627,51.142421],"type":"Point"},"properties":{"osm_id":"8646716970","tag":{"amenity":"waste_basket","colour":"green","material":"steel"}},"type":"Feature"},
	{"geometry":{"coordinates":[23.431905,51.141934],"type":"Point"},"properties":{"osm_id":"8646716972","tag":{"amenity":"waste_basket","colour":"green","material":"steel"}},"type":"Feature"},
	{"geometry":{"coordinates":[23.42949,51.141256],"type":"Point"},"properties":{"osm_id":"8646716974","tag":{"amenity":"waste_basket","colour":"green","material":"steel"}},"type":"Feature"},
	{"geometry":{"coordinates":[23.429051,51.141523],"type":"Point"},"properties":{"osm_id":"8646739084","tag":{"amenity":"waste_basket","colour":"green","material":"steel"}},"type":"Feature"},
	{"geometry":{"coordinates":[23.430118,51.142197],"type":"Point"},"properties":{"osm_id":"8646739085","tag":{"amenity":"waste_basket","colour":"green","material":"steel"}},"type":"Feature"},
	{"geometry":{"coordinates":[23.437555,51.14156],"type":"Point"},"properties":{"osm_id":"8646767952","tag":{"amenity":"waste_basket","colour":"green","material":"steel"}},"type":"Feature"},
	{"geometry":{"coordinates":[23.437933,51.14091],"type":"Point"},"properties":{"osm_id":"8646767953","tag":{"amenity":"waste_basket","colour":"green","material":"steel"}},"type":"Feature"},
	{"geometry":{"coordinates":[23.43919,51.142262],"type":"Point"},"properties":{"osm_id":"8646794604","tag":{"amenity":"waste_basket","colour":"black","material":"plastic"}},"type":"Feature"},
	{"geometry":{"coordinates":[23.441307,51.142506],"type":"Point"},"properties":{"osm_id":"8650387650","tag":{"amenity":"waste_basket","colour":"yellow","material":"steel"}},"type":"Feature"},
	{"geometry":{"coordinates":[23.441717,51.142582],"type":"Point"},"properties":{"osm_id":"8650387661","tag":{"amenity":"waste_basket","colour":"yellow","material":"steel"}},"type":"Feature"},
	{"geometry":{"coordinates":[23.441868,51.14293],"type":"Point"},"properties":{"osm_id":"8650387662","tag":{"amenity":"waste_basket","colour":"yellow","material":"steel"}},"type":"Feature"},
	{"geometry":{"coordinates":[23.442387,51.142681],"type":"Point"},"properties":{"osm_id":"8650387663","tag":{"amenity":"waste_basket","colour":"yellow","material":"steel"}},"type":"Feature"},
	{"geometry":{"coordinates":[23.442811,51.142881],"type":"Point"},"properties":{"osm_id":"8650387668","tag":{"amenity":"waste_basket","colour":"green","material":"steel"}},"type":"Feature"},
	{"geometry":{"coordinates":[23.442438,51.143027],"type":"Point"},"properties":{"osm_id":"8650387677","tag":{"amenity":"waste_basket","colour":"green","material":"steel"}},"type":"Feature"},
	{"geometry":{"coordinates":[23.441593,51.143176],"type":"Point"},"properties":{"osm_id":"8650415075","tag":{"amenity":"waste_basket","colour":"yellow","material":"steel"}},"type":"Feature"},
	{"geometry":{"coordinates":[23.441372,51.143219],"type":"Point"},"properties":{"osm_id":"8650415081","tag":{"amenity":"waste_basket","colour":"yellow","material":"steel"}},"type":"Feature"},
	{"geometry":{"coordinates":[23.442175,51.143201],"type":"Point"},"properties":{"osm_id":"8650415091","tag":{"amenity":"waste_basket","colour":"brown","material":"steel"}},"type":"Feature"},
	{"geometry":{"coordinates":[23.442294,51.143366],"type":"Point"},"properties":{"osm_id":"8650415092","tag":{"amenity":"waste_basket","colour":"brown","material":"steel"}},"type":"Feature"},
	{"geometry":{"coordinates":[23.432927,51.144],"type":"Point"},"properties":{"osm_id":"8714709663","tag":{"amenity":"waste_basket","colour":"green","material":"steel"}},"type":"Feature"},
	{"geometry":{"coordinates":[23.433444,51.144135],"type":"Point"},"properties":{"osm_id":"8714709668","tag":{"amenity":"waste_basket","colour":"green","material":"steel"}},"type":"Feature"},
	{"geometry":{"coordinates":[23.437668,51.144783],"type":"Point"},"properties":{"osm_id":"8714758880","tag":{"amenity":"waste_basket","colour":"green","material":"steel"}},"type":"Feature"},
	{"geometry":{"coordinates":[23.437338,51.143479],"type":"Point"},"properties":{"osm_id":"8714896783","tag":{"amenity":"waste_basket","colour":"green","material":"steel"}},"type":"Feature"},
	{"geometry":{"coordinates":[23.445945,51.14383],"type":"Point"},"properties":{"osm_id":"8721258125","tag":{"amenity":"waste_basket","colour":"grey","material":"plastic"}},"type":"Feature"},
	{"geometry":{"coordinates":[23.437876,51.143525],"type":"Point"},"properties":{"osm_id":"8721575948","tag":{"amenity":"waste_basket","colour":"green","material":"steel"}},"type":"Feature"},
	{"geometry":{"coordinates":[23.438148,51.143949],"type":"Point"},"properties":{"osm_id":"8721575955","tag":{"amenity":"waste_basket","colour":"green","material":"steel"}},"type":"Feature"},
	{"geometry":{"coordinates":[23.438283,51.1441],"type":"Point"},"properties":{"osm_id":"8721575962","tag":{"amenity":"waste_basket","colour":"green","material":"steel"}},"type":"Feature"},
	{"geometry":{"coordinates":[23.43995,51.144607],"type":"Point"},"properties":{"osm_id":"8721575969","tag":{"amenity":"waste_basket","colour":"green","material":"steel"}},"type":"Feature"},
	{"geometry":{"coordinates":[23.43867,51.143559],"type":"Point"},"properties":{"osm_id":"8721575971","tag":{"amenity":"waste_basket","colour":"green","material":"steel"}},"type":"Feature"},
	{"geometry":{"coordinates":[23.441076,51.142621],"type":"Point"},"properties":{"osm_id":"8722860688","tag":{"amenity":"waste_basket","colour":"yellow","material":"steel"}},"type":"Feature"},
	{"geometry":{"coordinates":[23.437167,51.14286],"type":"Point"},"properties":{"osm_id":"8722860706","tag":{"amenity":"waste_basket","colour":"green","material":"steel"}},"type":"Feature"},
	{"geometry":{"coordinates":[23.438018,51.142207],"type":"Point"},"properties":{"osm_id":"8722860711","tag":{"amenity":"waste_basket","colour":"green","material":"steel"}},"type":"Feature"},
	{"geometry":{"coordinates":[23.440252,51.142038],"type":"Point"},"properties":{"osm_id":"8722860712","tag":{"amenity":"waste_basket","colour":"green","material":"steel"}},"type":"Feature"},
	{"geometry":{"coordinates":[23.440307,51.14205],"type":"Point"},"properties":{"osm_id":"8722860713","tag":{"amenity":"waste_basket","colour":"red","material":"steel"}},"type":"Feature"},
	{"geometry":{"coordinates":[23.437804,51.14449],"type":"Point"},"properties":{"osm_id":"8727405899","tag":{"amenity":"waste_basket","colour":"green","material":"steel"}},"type":"Feature"},
	{"geometry":{"coordinates":[23.437578,51.144236],"type":"Point"},"properties":{"osm_id":"8727405902","tag":{"amenity":"waste_basket","colour":"green","material":"steel"}},"type":"Feature"},
	{"geometry":{"coordinates":[23.437307,51.143933],"type":"Point"},"properties":{"osm_id":"8727405907","tag":{"amenity":"waste_basket","colour":"green","material":"steel"}},"type":"Feature"},
	{"geometry":{"coordinates":[23.436749,51.144136],"type":"Point"},"properties":{"osm_id":"8727405909","tag":{"amenity":"waste_basket","colour":"green","material":"steel"}},"type":"Feature"},
	{"geometry":{"coordinates":[23.436693,51.143955],"type":"Point"},"properties":{"osm_id":"8727405911","tag":{"amenity":"waste_basket","colour":"green","material":"steel"}},"type":"Feature"},
	{"geometry":{"coordinates":[23.436704,51.143786],"type":"Point"},"properties":{"osm_id":"8727405912","tag":{"amenity":"waste_basket","colour":"green","material":"steel"}},"type":"Feature"},
	{"geometry":{"coordinates":[23.450004,51.141667],"type":"Point"},"properties":{"osm_id":"8851246455","tag":{"amenity":"waste_basket","colour":"black","material":"steel"}},"type":"Feature"},
	{"geometry":{"coordinates":[23.447312,51.142422],"type":"Point"},"properties":{"osm_id":"9063119145","tag":{"amenity":"waste_basket","colour":"green","material":"steel"}},"type":"Feature"},
	{"geometry":{"coordinates":[23.447202,51.142153],"type":"Point"},"properties":{"osm_id":"9063164426","tag":{"amenity":"waste_basket","colour":"green","material":"steel"}},"type":"Feature"},
	{"geometry":{"coordinates":[23.447843,51.14188],"type":"Point"},"properties":{"osm_id":"9063186990","tag":{"amenity":"waste_basket","colour":"green","material":"steel"}},"type":"Feature"},
	{"geometry":{"coordinates":[23.447809,51.141747],"type":"Point"},"properties":{"osm_id":"9063187001","tag":{"amenity":"waste_basket","colour":"green","material":"steel"}},"type":"Feature"},
	{"geometry":{"coordinates":[23.448016,51.141865],"type":"Point"},"properties":{"osm_id":"9063187003","tag":{"amenity":"waste_basket","colour":"green","material":"steel"}},"type":"Feature"},
	{"geometry":{"coordinates":[23.448134,51.141788],"type":"Point"},"properties":{"osm_id":"9063187007","tag":{"amenity":"waste_basket","colour":"green","material":"steel"}},"type":"Feature"},
	{"geometry":{"coordinates":[23.447052,51.142197],"type":"Point"},"properties":{"osm_id":"9076931622","tag":{"amenity":"waste_basket","colour":"green","material":"steel"}},"type":"Feature"},
	{"geometry":{"coordinates":[23.448431,51.141802],"type":"Point"},"properties":{"osm_id":"9076931638","tag":{"amenity":"waste_basket","colour":"green","material":"steel"}},"type":"Feature"},
	{"geometry":{"coordinates":[23.448523,51.141905],"type":"Point"},"properties":{"osm_id":"9076931639","tag":{"amenity":"waste_basket","colour":"green","material":"steel"}},"type":"Feature"},
	{"geometry":{"coordinates":[23.431026,51.141217],"type":"Point"},"properties":{"osm_id":"9084412011","tag":{"amenity":"waste_basket","colour":"green","material":"steel"}},"type":"Feature"},
	{"geometry":{"coordinates":[23.431595,51.142122],"type":"Point"},"properties":{"osm_id":"9084497096","tag":{"amenity":"waste_basket","colour":"green","material":"steel"}},"type":"Feature"},
	{"geometry":{"coordinates":[23.431463,51.142339],"type":"Point"},"properties":{"osm_id":"9084497105","tag":{"amenity":"waste_basket","colour":"green","material":"steel"}},"type":"Feature"},
	{"geometry":{"coordinates":[23.431968,51.143518],"type":"Point"},"properties":{"osm_id":"9101384273","tag":{"amenity":"waste_basket","colour":"green","material":"steel"}},"type":"Feature"},
	{"geometry":{"coordinates":[23.430324,51.143976],"type":"Point"},"properties":{"osm_id":"9101400517","tag":{"amenity":"waste_basket","colour":"gray","material":"steel","waste":"dog_excrement"}},"type":"Feature"}
]
}
