{
"type": "FeatureCollection",
"features": [
	{"geometry":{"coordinates":[1.990642,49.029536],"type":"Point"},"properties":{"osm_id":"305124280","tag":{"amenity":"recycling","recycling:glass_bottles":"yes","recycling:paper":"yes"}},"type":"Feature"},
	{"geometry":{"coordinates":[1.97654,49.028045],"type":"Point"},"properties":{"osm_id":"305124459","tag":{"amenity":"recycling","recycling:glass_bottles":"yes"}},"type":"Feature"},
	{"geometry":{"coordinates":[2.019129,49.032329],"type":"Point"},"properties":{"osm_id":"781191260","tag":{"amenity":"recycling","location":"overground","recycling_type":"container"}},"type":"Feature"},
	{"geometry":{"coordinates":[1.980941,49.026845],"type":"Point"},"properties":{"osm_id":"1664345441","tag":{"amenity":"recycling","recycling:clothes":"yes","recycling:glass_bottles":"yes","recycling_type":"container"}},"type":"Feature"},
	{"geometry":{"coordinates":[1.985134,49.029571],"type":"Point"},"properties":{"osm_id":"1664345463","tag":{"amenity":"recycling"}},"type":"Feature"},
	{"geometry":{"coordinates":[2.011488,49.008365],"type":"Point"},"properties":{"osm_id":"1751223825","tag":{"amenity":"waste_basket"}},"type":"Feature"},
	{"geometry":{"coordinates":[2.010727,49.00906],"type":"Point"},"properties":{"osm_id":"1751223827","tag":{"amenity":"waste_basket"}},"type":"Feature"},
	{"geometry":{"coordinates":[2.005051,49.013695],"type":"Point"},"properties":{"osm_id":"1751223855","tag":{"amenity":"waste_basket"}},"type":"Feature"},
	{"geometry":{"coordinates":[2.00474,49.0138],"type":"Point"},"properties":{"osm_id":"1751223859","tag":{"amenity":"waste_basket"}},"type":"Feature"},
	{"geometry":{"coordinates":[2.014467,49.014049],"type":"Point"},"properties":{"osm_id":"1751223863","tag":{"amenity":"waste_basket","tourism":"picnic_site"}},"type":"Feature"},
	{"geometry":{"coordinates":[2.010475,49.016226],"type":"Point"},"properties":{"osm_id":"1751223881","tag":{"amenity":"waste_basket"}},"type":"Feature"},
	{"geometry":{"coordinates":[2.002115,49.016231],"type":"Point"},"properties":{"osm_id":"1751223882","tag":{"amenity":"waste_basket"}},"type":"Feature"},
	{"geometry":{"coordinates":[2.00796,49.01764],"type":"Point"},"properties":{"osm_id":"1751223921","tag":{"amenity":"waste_basket","tourism":"picnic_site"}},"type":"Feature"},
	{"geometry":{"coordinates":[2.006053,49.018566],"type":"Point"},"properties":{"osm_id":"1751223930","tag":{"amenity":"waste_basket"}},"type":"Feature"},
	{"geometry":{"coordinates":[2.00545,49.018877],"type":"Point"},"properties":{"osm_id":"1751223945","tag":{"amenity":"waste_basket"}},"type":"Feature"},
	{"geometry":{"coordinates":[2.003865,49.019694],"type":"Point"},"properties":{"osm_id":"1751223951","tag":{"amenity":"waste_basket"}},"type":"Feature"},
	{"geometry":{"coordinates":[2.01741,49.006353],"type":"Point"},"properties":{"osm_id":"1766694103","tag":{"amenity":"waste_basket"}},"type":"Feature"},
	{"geometry":{"coordinates":[2.008444,49.011736],"type":"Point"},"properties":{"osm_id":"1766694111","tag":{"amenity":"waste_basket"}},"type":"Feature"},
	{"geometry":{"coordinates":[2.001331,49.018733],"type":"Point"},"properties":{"osm_id":"1766694165","tag":{"amenity":"waste_basket"}},"type":"Feature"},
	{"geometry":{"coordinates":[2.000716,49.019873],"type":"Point"},"properties":{"osm_id":"1766694190","tag":{"amenity":"waste_basket"}},"type":"Feature"},
	{"geometry":{"coordinates":[2.011345,49.008359],"type":"Point"},"properties":{"osm_id":"1768347320","tag":{"amenity":"waste_basket"}},"type":"Feature"},
	{"geometry":{"coordinates":[2.004225,49.012073],"type":"Point"},"properties":{"osm_id":"1768347328","tag":{"amenity":"waste_basket"}},"type":"Feature"},
	{"geometry":{"coordinates":[2.003802,49.01255],"type":"Point"},"properties":{"osm_id":"1768347331","tag":{"amenity":"waste_basket"}},"type":"Feature"},
	{"geometry":{"coordinates":[2.003782,49.012652],"type":"Point"},"properties":{"osm_id":"1768347334","tag":{"amenity":"waste_basket"}},"type":"Feature"},
	{"geometry":{"coordinates":[2.002995,49.012909],"type":"Point"},"properties":{"osm_id":"1768347339","tag":{"amenity":"waste_basket"}},"type":"Feature"},
	{"geometry":{"coordinates":[2.003114,49.012988],"type":"Point"},"properties":{"osm_id":"1768347341","tag":{"amenity":"waste_basket"}},"type":"Feature"},
	{"geometry":{"coordinates":[2.017391,49.00067],"type":"Point"},"properties":{"osm_id":"1773968163","tag":{"amenity":"waste_basket"}},"type":"Feature"},
	{"geometry":{"coordinates":[2.015519,49.004227],"type":"Point"},"properties":{"osm_id":"1835841204","tag":{"amenity":"waste_basket"}},"type":"Feature"},
	{"geometry":{"coordinates":[2.013532,49.0048],"type":"Point"},"properties":{"osm_id":"1835841224","tag":{"amenity":"waste_basket"}},"type":"Feature"},
	{"geometry":{"coordinates":[2.014357,49.005012],"type":"Point"},"properties":{"osm_id":"1835841275","tag":{"amenity":"waste_basket"}},"type":"Feature"},
	{"geometry":{"coordinates":[2.013601,49.005108],"type":"Point"},"properties":{"osm_id":"1835841279","tag":{"amenity":"waste_basket"}},"type":"Feature"},
	{"geometry":{"coordinates":[2.014531,49.005167],"type":"Point"},"properties":{"osm_id":"1835841303","tag":{"amenity":"waste_basket"}},"type":"Feature"},
	{"geometry":{"coordinates":[2.019591,49.037628],"type":"Point"},"properties":{"osm_id":"2301305743","tag":{"amenity":"waste_basket"}},"type":"Feature"},
	{"geometry":{"coordinates":[2.014523,49.007326],"type":"Point"},"properties":{"osm_id":"2754307254","tag":{"amenity":"recycling","recycling:glass":"yes","recycling_type":"container"}},"type":"Feature"},
	{"geometry":{"coordinates":[1.984076,48.980801],"type":"Point"},"properties":{"osm_id":"2790107154","tag":{"amenity":"waste_basket"}},"type":"Feature"},
	{"geometry":{"coordinates":[1.983837,48.980963],"type":"Point"},"properties":{"osm_id":"2790107158","tag":{"amenity":"waste_basket","shelter":"yes"}},"type":"Feature"},
	{"geometry":{"coordinates":[1.983673,48.981076],"type":"Point"},"properties":{"osm_id":"2790107159","tag":{"amenity":"waste_basket"}},"type":"Feature"},
	{"geometry":{"coordinates":[1.983498,48.981193],"type":"Point"},"properties":{"osm_id":"2790107163","tag":{"amenity":"waste_basket"}},"type":"Feature"},
	{"geometry":{"coordinates":[1.98311,48.981203],"type":"Point"},"properties":{"osm_id":"2790107164","tag":{"amenity":"waste_basket"}},"type":"Feature"},
	{"geometry":{"coordinates":[1.982996,48.981291],"type":"Point"},"properties":{"osm_id":"2790107175","tag":{"amenity":"waste_basket"}},"type":"Feature"},
	{"geometry":{"coordinates":[1.983331,48.981307],"type":"Point"},"properties":{"osm_id":"2790107178","tag":{"amenity":"waste_basket"}},"type":"Feature"},
	{"geometry":{"coordinates":[1.983289,48.981333],"type":"Point"},"properties":{"osm_id":"2790107182","tag":{"amenity":"waste_basket"}},"type":"Feature"},
	{"geometry":{"coordinates":[1.983195,48.98141],"type":"Point"},"properties":{"osm_id":"2790107201","tag":{"amenity":"waste_basket"}},"type":"Feature"},
	{"geometry":{"coordinates":[1.983084,48.98147],"type":"Point"},"properties":{"osm_id":"2790107213","tag":{"amenity":"waste_basket"}},"type":"Feature"},
	{"geometry":{"coordinates":[1.983218,48.981476],"type":"Point"},"properties":{"osm_id":"2790107214","tag":{"amenity":"waste_basket","layer":"-1"}},"type":"Feature"},
	{"geometry":{"coordinates":[1.983002,48.981528],"type":"Point"},"properties":{"osm_id":"2790107230","tag":{"amenity":"waste_basket"}},"type":"Feature"},
	{"geometry":{"coordinates":[1.983357,48.981622],"type":"Point"},"properties":{"osm_id":"2790107233","tag":{"amenity":"waste_basket","layer":"-1"}},"type":"Feature"},
	{"geometry":{"coordinates":[1.955216,48.992267],"type":"Point"},"properties":{"osm_id":"2791770009","tag":{"amenity":"waste_basket"}},"type":"Feature"},
	{"geometry":{"coordinates":[1.955243,48.992361],"type":"Point"},"properties":{"osm_id":"2791770017","tag":{"amenity":"waste_basket"}},"type":"Feature"},
	{"geometry":{"coordinates":[1.95537,48.992378],"type":"Point"},"properties":{"osm_id":"2791770018","tag":{"amenity":"waste_basket"}},"type":"Feature"},
	{"geometry":{"coordinates":[1.956329,48.992414],"type":"Point"},"properties":{"osm_id":"2791770024","tag":{"amenity":"waste_basket"}},"type":"Feature"},
	{"geometry":{"coordinates":[1.955363,48.992421],"type":"Point"},"properties":{"osm_id":"2791770025","tag":{"amenity":"waste_basket"}},"type":"Feature"},
	{"geometry":{"coordinates":[1.956079,48.992462],"type":"Point"},"properties":{"osm_id":"2791770026","tag":{"amenity":"waste_basket"}},"type":"Feature"},
	{"geometry":{"coordinates":[1.955396,48.992493],"type":"Point"},"properties":{"osm_id":"2791770028","tag":{"amenity":"waste_basket"}},"type":"Feature"},
	{"geometry":{"coordinates":[1.955883,48.992515],"type":"Point"},"properties":{"osm_id":"2791770032","tag":{"amenity":"waste_basket"}},"type":"Feature"},
	{"geometry":{"coordinates":[1.955186,48.992695],"type":"Point"},"properties":{"osm_id":"2791770046","tag":{"amenity":"waste_basket"}},"type":"Feature"},
	{"geometry":{"coordinates":[1.954963,48.992761],"type":"Point"},"properties":{"osm_id":"2791770055","tag":{"amenity":"waste_basket"}},"type":"Feature"},
	{"geometry":{"coordinates":[1.954851,48.992784],"type":"Point"},"properties":{"osm_id":"2791770057","tag":{"amenity":"waste_basket"}},"type":"Feature"},
	{"geometry":{"coordinates":[1.954743,48.992811],"type":"Point"},"properties":{"osm_id":"2791770060","tag":{"amenity":"waste_basket"}},"type":"Feature"},
	{"geometry":{"coordinates":[1.954635,48.992837],"type":"Point"},"properties":{"osm_id":"2791770065","tag":{"amenity":"waste_basket"}},"type":"Feature"},
	{"geometry":{"coordinates":[1.954226,48.992927],"type":"Point"},"properties":{"osm_id":"2791770071","tag":{"amenity":"waste_basket"}},"type":"Feature"},
	{"geometry":{"coordinates":[1.963427,49.007005],"type":"Point"},"properties":{"osm_id":"2793352436","tag":{"amenity":"waste_basket"}},"type":"Feature"},
	{"geometry":{"coordinates":[1.963625,49.007007],"type":"Point"},"properties":{"osm_id":"2793352438","tag":{"amenity":"waste_basket"}},"type":"Feature"},
	{"geometry":{"coordinates":[1.963788,49.007009],"type":"Point"},"properties":{"osm_id":"2793352441","tag":{"amenity":"waste_basket"}},"type":"Feature"},
	{"geometry":{"coordinates":[1.963624,49.007068],"type":"Point"},"properties":{"osm_id":"2793352492","tag":{"amenity":"waste_basket"}},"type":"Feature"},
	{"geometry":{"coordinates":[1.963501,49.007092],"type":"Point"},"properties":{"osm_id":"2793352502","tag":{"amenity":"waste_basket"}},"type":"Feature"},
	{"geometry":{"coordinates":[1.963469,49.007102],"type":"Point"},"properties":{"osm_id":"2793352510","tag":{"amenity":"waste_basket"}},"type":"Feature"},
	{"geometry":{"coordinates":[1.963748,49.007162],"type":"Point"},"properties":{"osm_id":"2793352528","tag":{"amenity":"waste_basket"}},"type":"Feature"},
	{"geometry":{"coordinates":[1.963289,49.007177],"type":"Point"},"properties":{"osm_id":"2793352546","tag":{"amenity":"waste_basket"}},"type":"Feature"},
	{"geometry":{"coordinates":[1.963641,49.007201],"type":"Point"},"properties":{"osm_id":"2793352559","tag":{"amenity":"waste_basket"}},"type":"Feature"},
	{"geometry":{"coordinates":[1.963234,49.007202],"type":"Point"},"properties":{"osm_id":"2793352565","tag":{"amenity":"waste_basket"}},"type":"Feature"},
	{"geometry":{"coordinates":[1.96321,49.00721],"type":"Point"},"properties":{"osm_id":"2793352576","tag":{"amenity":"waste_basket"}},"type":"Feature"},
	{"geometry":{"coordinates":[1.963565,49.007228],"type":"Point"},"properties":{"osm_id":"2793352583","tag":{"amenity":"waste_basket"}},"type":"Feature"},
	{"geometry":{"coordinates":[1.963171,49.007222],"type":"Point"},"properties":{"osm_id":"2793352586","tag":{"amenity":"waste_basket"}},"type":"Feature"},
	{"geometry":{"coordinates":[1.963422,49.007245],"type":"Point"},"properties":{"osm_id":"2793352611","tag":{"amenity":"waste_basket"}},"type":"Feature"},
	{"geometry":{"coordinates":[1.963407,49.007255],"type":"Point"},"properties":{"osm_id":"2793352614","tag":{"amenity":"waste_basket"}},"type":"Feature"},
	{"geometry":{"coordinates":[1.963366,49.00727],"type":"Point"},"properties":{"osm_id":"2793352621","tag":{"amenity":"waste_basket"}},"type":"Feature"},
	{"geometry":{"coordinates":[1.963253,49.007319],"type":"Point"},"properties":{"osm_id":"2793352652","tag":{"amenity":"waste_basket"}},"type":"Feature"},
	{"geometry":{"coordinates":[2.005798,48.980934],"type":"Point"},"properties":{"osm_id":"2795315479","tag":{"amenity":"waste_basket"}},"type":"Feature"},
	{"geometry":{"coordinates":[2.006222,48.980953],"type":"Point"},"properties":{"osm_id":"2795315482","tag":{"amenity":"waste_basket"}},"type":"Feature"},
	{"geometry":{"coordinates":[2.00591,48.981],"type":"Point"},"properties":{"osm_id":"2795315488","tag":{"amenity":"waste_basket"}},"type":"Feature"},
	{"geometry":{"coordinates":[2.006171,48.981016],"type":"Point"},"properties":{"osm_id":"2795315489","tag":{"amenity":"waste_basket"}},"type":"Feature"},
	{"geometry":{"coordinates":[2.006144,48.981094],"type":"Point"},"properties":{"osm_id":"2795315495","tag":{"amenity":"waste_basket"}},"type":"Feature"},
	{"geometry":{"coordinates":[2.005853,48.981063],"type":"Point"},"properties":{"osm_id":"2795315499","tag":{"amenity":"waste_basket"}},"type":"Feature"},
	{"geometry":{"coordinates":[2.006167,48.981069],"type":"Point"},"properties":{"osm_id":"2795315500","tag":{"amenity":"waste_basket"}},"type":"Feature"},
	{"geometry":{"coordinates":[2.006123,48.98112],"type":"Point"},"properties":{"osm_id":"2795315504","tag":{"amenity":"waste_basket"}},"type":"Feature"},
	{"geometry":{"coordinates":[2.006098,48.981145],"type":"Point"},"properties":{"osm_id":"2795315507","tag":{"amenity":"waste_basket"}},"type":"Feature"},
	{"geometry":{"coordinates":[2.005599,48.981199],"type":"Point"},"properties":{"osm_id":"2795315511","tag":{"amenity":"waste_basket"}},"type":"Feature"},
	{"geometry":{"coordinates":[2.006018,48.981194],"type":"Point"},"properties":{"osm_id":"2795315512","tag":{"amenity":"waste_basket"}},"type":"Feature"},
	{"geometry":{"coordinates":[2.005548,48.981463],"type":"Point"},"properties":{"osm_id":"2795315536","tag":{"amenity":"waste_basket"}},"type":"Feature"},
	{"geometry":{"coordinates":[2.005676,48.98152],"type":"Point"},"properties":{"osm_id":"2795315539","tag":{"amenity":"waste_basket"}},"type":"Feature"},
	{"geometry":{"coordinates":[2.005626,48.981575],"type":"Point"},"properties":{"osm_id":"2795315541","tag":{"amenity":"waste_basket"}},"type":"Feature"},
	{"geometry":{"coordinates":[2.005333,48.981654],"type":"Point"},"properties":{"osm_id":"2795315554","tag":{"amenity":"waste_basket"}},"type":"Feature"},
	{"geometry":{"coordinates":[2.005253,48.981722],"type":"Point"},"properties":{"osm_id":"2795315560","tag":{"amenity":"waste_basket"}},"type":"Feature"},
	{"geometry":{"coordinates":[2.005125,48.981836],"type":"Point"},"properties":{"osm_id":"2795315561","tag":{"amenity":"waste_basket"}},"type":"Feature"},
	{"geometry":{"coordinates":[1.975133,49.026271],"type":"Point"},"properties":{"osm_id":"2848192895","tag":{"amenity":"recycling","recycling:glass":"yes"}},"type":"Feature"},
	{"geometry":{"coordinates":[1.987741,49.026041],"type":"Point"},"properties":{"osm_id":"3044619387","tag":{"amenity":"waste_basket"}},"type":"Feature"},
	{"geometry":{"coordinates":[2.0041,49.011721],"type":"Point"},"properties":{"osm_id":"3578958379","tag":{"amenity":"waste_basket"}},"type":"Feature"},
	{"geometry":{"coordinates":[2.014485,49.014035],"type":"Point"},"properties":{"osm_id":"3578958388","tag":{"amenity":"waste_basket"}},"type":"Feature"},
	{"geometry":{"coordinates":[2.012749,49.0301],"type":"Point"},"properties":{"osm_id":"6139048968","tag":{"amenity":"waste_disposal"}},"type":"Feature"},
	{"geometry":{"coordinates":[2.006032,48.98144],"type":"Point"},"properties":{"osm_id":"6578227866","tag":{"amenity":"waste_basket"}},"type":"Feature"},
	{"geometry":{"coordinates":[2.000529,48.981274],"type":"Point"},"properties":{"osm_id":"6579862447","tag":{"amenity":"waste_basket"}},"type":"Feature"},
	{"geometry":{"coordinates":[2.000777,48.980998],"type":"Point"},"properties":{"osm_id":"6579862450","tag":{"amenity":"waste_basket"}},"type":"Feature"},
	{"geometry":{"coordinates":[2.001189,48.980914],"type":"Point"},"properties":{"osm_id":"6579862452","tag":{"amenity":"waste_basket"}},"type":"Feature"},
	{"geometry":{"coordinates":[2.000971,48.980758],"type":"Point"},"properties":{"osm_id":"6579862457","tag":{"amenity":"waste_basket"}},"type":"Feature"},
	{"geometry":{"coordinates":[2.000286,48.981902],"type":"Point"},"properties":{"osm_id":"6579874041","tag":{"amenity":"waste_basket"}},"type":"Feature"},
	{"geometry":{"coordinates":[2.000465,48.981485],"type":"Point"},"properties":{"osm_id":"6579874044","tag":{"amenity":"waste_basket"}},"type":"Feature"},
	{"geometry":{"coordinates":[2.005846,48.980269],"type":"Point"},"properties":{"osm_id":"6579896078","tag":{"amenity":"waste_basket"}},"type":"Feature"},
	{"geometry":{"coordinates":[2.014306,48.980425],"type":"Point"},"properties":{"osm_id":"6586836405","tag":{"amenity":"waste_basket"}},"type":"Feature"},
	{"geometry":{"coordinates":[2.005948,48.981286],"type":"Point"},"properties":{"osm_id":"7137263786","tag":{"amenity":"waste_basket"}},"type":"Feature"},
	{"geometry":{"coordinates":[2.005969,48.980961],"type":"Point"},"properties":{"osm_id":"7137287987","tag":{"amenity":"waste_basket"}},"type":"Feature"},
	{"geometry":{"coordinates":[2.006117,48.980838],"type":"Point"},"properties":{"osm_id":"7137290885","tag":{"amenity":"waste_basket"}},"type":"Feature"},
	{"geometry":{"coordinates":[2.000783,49.020513],"type":"Point"},"properties":{"osm_id":"7570164880","tag":{"amenity":"waste_basket"}},"type":"Feature"},
	{"geometry":{"coordinates":[2.00195,49.020696],"type":"Point"},"properties":{"osm_id":"7570164883","tag":{"amenity":"waste_basket"}},"type":"Feature"}
]
}
