{
"type": "FeatureCollection",
"lastupdate": "2020-08-03T00:00:00Z",
"features": [
	{"geometry":{"coordinates":[1.976393,48.826391],"type":"Point"},"properties":{"name":"D\u00c3\u00a9cheterie","osm_id":"1157429100","tag":{"amenity":"recycling","recycling_type":"centre"}},"type":"Feature"},
	{"geometry":{"coordinates":[1.960965,48.829583],"type":"Point"},"properties":{"osm_id":"1817302474","tag":{"amenity":"recycling","operator":"Le Relais","recycling:clothes":"yes","recycling_type":"container"}},"type":"Feature"},
	{"geometry":{"coordinates":[1.946472,48.817397],"type":"Point"},"properties":{"osm_id":"2604332378","tag":{"amenity":"recycling","recycling:glass":"yes","recycling_type":"container"}},"type":"Feature"},
	{"geometry":{"coordinates":[1.987964,48.819875],"type":"Point"},"properties":{"osm_id":"2694322293","tag":{"amenity":"recycling","recycling:cans":"no","recycling:clothes":"no","recycling:glass":"yes","recycling:paper":"no"}},"type":"Feature"},
	{"geometry":{"coordinates":[1.94393,48.818542],"type":"Point"},"properties":{"osm_id":"2709422260","tag":{"amenity":"waste_basket"}},"type":"Feature"},
	{"geometry":{"coordinates":[1.993271,48.823318],"type":"Point"},"properties":{"osm_id":"2795465958","tag":{"amenity":"waste_basket","level":"0"}},"type":"Feature"},
	{"geometry":{"coordinates":[1.993114,48.823445],"type":"Point"},"properties":{"osm_id":"2795466070","tag":{"amenity":"waste_basket","level":"0"}},"type":"Feature"},
	{"geometry":{"coordinates":[1.992975,48.823541],"type":"Point"},"properties":{"osm_id":"2795466087","tag":{"amenity":"waste_basket","level":"0"}},"type":"Feature"},
	{"geometry":{"coordinates":[1.993076,48.823613],"type":"Point"},"properties":{"osm_id":"2795466089","tag":{"amenity":"waste_basket","level":"0"}},"type":"Feature"},
	{"geometry":{"coordinates":[1.992794,48.823651],"type":"Point"},"properties":{"osm_id":"2795466103","tag":{"amenity":"waste_basket","level":"0"}},"type":"Feature"},
	{"geometry":{"coordinates":[1.992872,48.823741],"type":"Point"},"properties":{"osm_id":"2795466114","tag":{"amenity":"waste_basket","level":"0"}},"type":"Feature"},
	{"geometry":{"coordinates":[1.99266,48.823744],"type":"Point"},"properties":{"osm_id":"2795466117","tag":{"amenity":"waste_basket","level":"0"}},"type":"Feature"},
	{"geometry":{"coordinates":[1.993176,48.823783],"type":"Point"},"properties":{"osm_id":"2795466120","tag":{"amenity":"waste_basket","level":"0"}},"type":"Feature"},
	{"geometry":{"coordinates":[1.992931,48.823864],"type":"Point"},"properties":{"osm_id":"2795466128","tag":{"amenity":"waste_basket","level":"0"}},"type":"Feature"},
	{"geometry":{"coordinates":[1.992853,48.823861],"type":"Point"},"properties":{"osm_id":"2795466136","tag":{"amenity":"waste_basket","level":"0"}},"type":"Feature"},
	{"geometry":{"coordinates":[1.992602,48.823913],"type":"Point"},"properties":{"osm_id":"2795466147","tag":{"amenity":"waste_basket","level":"0"}},"type":"Feature"},
	{"geometry":{"coordinates":[1.992804,48.824003],"type":"Point"},"properties":{"osm_id":"2795466160","tag":{"amenity":"waste_basket","level":"0"}},"type":"Feature"},
	{"geometry":{"coordinates":[1.992777,48.824133],"type":"Point"},"properties":{"osm_id":"2795466165","tag":{"amenity":"waste_basket"}},"type":"Feature"},
	{"geometry":{"coordinates":[1.960037,48.830577],"type":"Point"},"properties":{"osm_id":"2797671309","tag":{"amenity":"waste_basket"}},"type":"Feature"},
	{"geometry":{"coordinates":[1.959856,48.830727],"type":"Point"},"properties":{"osm_id":"2797671323","tag":{"amenity":"waste_basket"}},"type":"Feature"},
	{"geometry":{"coordinates":[1.959905,48.830808],"type":"Point"},"properties":{"osm_id":"2797671334","tag":{"amenity":"waste_basket"}},"type":"Feature"},
	{"geometry":{"coordinates":[1.959959,48.831032],"type":"Point"},"properties":{"osm_id":"2797671343","tag":{"amenity":"waste_basket"}},"type":"Feature"},
	{"geometry":{"coordinates":[1.959786,48.831011],"type":"Point"},"properties":{"osm_id":"2797676581","tag":{"amenity":"waste_basket"}},"type":"Feature"},
	{"geometry":{"coordinates":[1.959241,48.831018],"type":"Point"},"properties":{"osm_id":"2797676592","tag":{"amenity":"waste_basket"}},"type":"Feature"},
	{"geometry":{"coordinates":[1.943637,48.831758],"type":"Point"},"properties":{"osm_id":"2833778521","tag":{"amenity":"waste_basket"}},"type":"Feature"},
	{"geometry":{"coordinates":[1.943404,48.831772],"type":"Point"},"properties":{"osm_id":"2833778522","tag":{"amenity":"waste_basket"}},"type":"Feature"},
	{"geometry":{"coordinates":[1.943145,48.831783],"type":"Point"},"properties":{"osm_id":"2833778527","tag":{"amenity":"waste_basket"}},"type":"Feature"},
	{"geometry":{"coordinates":[1.94574,48.831855],"type":"Point"},"properties":{"osm_id":"2833778542","tag":{"amenity":"waste_basket"}},"type":"Feature"},
	{"geometry":{"coordinates":[1.943436,48.831869],"type":"Point"},"properties":{"osm_id":"2833778553","tag":{"amenity":"waste_basket"}},"type":"Feature"},
	{"geometry":{"coordinates":[1.945382,48.831874],"type":"Point"},"properties":{"osm_id":"2833778557","tag":{"amenity":"waste_basket"}},"type":"Feature"},
	{"geometry":{"coordinates":[1.943287,48.831914],"type":"Point"},"properties":{"osm_id":"2833778564","tag":{"amenity":"waste_basket"}},"type":"Feature"},
	{"geometry":{"coordinates":[1.943202,48.831915],"type":"Point"},"properties":{"osm_id":"2833778565","tag":{"amenity":"waste_basket"}},"type":"Feature"},
	{"geometry":{"coordinates":[1.944436,48.831949],"type":"Point"},"properties":{"osm_id":"2833778571","tag":{"amenity":"waste_basket"}},"type":"Feature"},
	{"geometry":{"coordinates":[1.943793,48.831998],"type":"Point"},"properties":{"osm_id":"2833778574","tag":{"amenity":"waste_basket"}},"type":"Feature"},
	{"geometry":{"coordinates":[1.943631,48.832015],"type":"Point"},"properties":{"osm_id":"2833778576","tag":{"amenity":"waste_basket"}},"type":"Feature"},
	{"geometry":{"coordinates":[1.943708,48.832149],"type":"Point"},"properties":{"osm_id":"2833778580","tag":{"amenity":"waste_basket"}},"type":"Feature"},
	{"geometry":{"coordinates":[1.943782,48.83216],"type":"Point"},"properties":{"osm_id":"2833778582","tag":{"amenity":"waste_basket"}},"type":"Feature"},
	{"geometry":{"coordinates":[1.993206,48.823522],"type":"Point"},"properties":{"osm_id":"2865169246","tag":{"amenity":"waste_basket","level":"0"}},"type":"Feature"},
	{"geometry":{"coordinates":[1.980302,48.821875],"type":"Point"},"properties":{"osm_id":"3735032536","tag":{"amenity":"waste_basket"}},"type":"Feature"},
	{"geometry":{"coordinates":[1.947128,48.862985],"type":"Point"},"properties":{"osm_id":"3830089101","tag":{"amenity":"waste_basket"}},"type":"Feature"},
	{"geometry":{"coordinates":[1.959946,48.830824],"type":"Point"},"properties":{"osm_id":"4508525100","tag":{"amenity":"waste_basket"}},"type":"Feature"},
	{"geometry":{"coordinates":[1.959724,48.830826],"type":"Point"},"properties":{"osm_id":"4508525102","tag":{"amenity":"waste_basket"}},"type":"Feature"},
	{"geometry":{"coordinates":[1.997305,48.816126],"type":"Point"},"properties":{"osm_id":"4636660047","tag":{"amenity":"recycling","recycling_type":"container"}},"type":"Feature"},
	{"geometry":{"coordinates":[1.98854,48.818399],"type":"Point"},"properties":{"osm_id":"4680236655","tag":{"amenity":"waste_basket"}},"type":"Feature"},
	{"geometry":{"coordinates":[1.98857,48.818107],"type":"Point"},"properties":{"osm_id":"4680236656","tag":{"amenity":"waste_basket"}},"type":"Feature"},
	{"geometry":{"coordinates":[1.988803,48.818691],"type":"Point"},"properties":{"osm_id":"4680236657","tag":{"amenity":"waste_basket"}},"type":"Feature"},
	{"geometry":{"coordinates":[1.988721,48.818644],"type":"Point"},"properties":{"osm_id":"4680236658","tag":{"amenity":"waste_basket"}},"type":"Feature"},
	{"geometry":{"coordinates":[1.988239,48.81895],"type":"Point"},"properties":{"osm_id":"4680236659","tag":{"amenity":"waste_basket"}},"type":"Feature"},
	{"geometry":{"coordinates":[1.997308,48.816091],"type":"Point"},"properties":{"osm_id":"4683892187","tag":{"amenity":"waste_basket"}},"type":"Feature"},
	{"geometry":{"coordinates":[1.990134,48.81577],"type":"Point"},"properties":{"osm_id":"4689134416","tag":{"amenity":"waste_basket"}},"type":"Feature"},
	{"geometry":{"coordinates":[1.9951,48.814466],"type":"Point"},"properties":{"osm_id":"4724421206","tag":{"amenity":"waste_basket"}},"type":"Feature"},
	{"geometry":{"coordinates":[1.959082,48.830506],"type":"Point"},"properties":{"osm_id":"5043730109","tag":{"amenity":"recycling","recycling:glass_bottles":"yes","recycling_type":"container"}},"type":"Feature"},
	{"geometry":{"coordinates":[1.948533,48.816],"type":"Point"},"properties":{"osm_id":"5139545563","tag":{"amenity":"waste_basket"}},"type":"Feature"},
	{"geometry":{"coordinates":[1.96575,48.829405],"type":"Point"},"properties":{"osm_id":"5227733593","tag":{"amenity":"recycling","recycling:clothes":"yes","recycling_type":"container"}},"type":"Feature"},
	{"geometry":{"coordinates":[1.967146,48.828552],"type":"Point"},"properties":{"osm_id":"5227733595","tag":{"amenity":"recycling","operator":"Le Relais","recycling:clothes":"yes","recycling_type":"container"}},"type":"Feature"},
	{"geometry":{"coordinates":[1.942436,48.832784],"type":"Point"},"properties":{"osm_id":"5856769167","tag":{"amenity":"waste_basket"}},"type":"Feature"},
	{"geometry":{"coordinates":[1.967914,48.826228],"type":"Point"},"properties":{"osm_id":"7569880789","tag":{"amenity":"recycling","recycling:glass":"yes","recycling_type":"container"}},"type":"Feature"},
	{"geometry":{"coordinates":[1.948875,48.826842],"type":"Point"},"properties":{"osm_id":"7569903785","tag":{"amenity":"recycling","recycling:glass":"yes","recycling_type":"container"}},"type":"Feature"},
	{"geometry":{"coordinates":[1.957869,48.822507],"type":"Point"},"properties":{"osm_id":"7569920487","tag":{"amenity":"recycling","recycling:glass":"yes","recycling_type":"container"}},"type":"Feature"}
]
}
