{
"type": "FeatureCollection",
"features": [
	{"geometry":{"coordinates":[1.976454,47.909334],"type":"Point"},"properties":{"osm_id":"1259824455","tag":{"amenity":"recycling","recycling:glass_bottles":"yes"}},"type":"Feature"},
	{"geometry":{"coordinates":[1.942975,47.905381],"type":"Point"},"properties":{"osm_id":"1751763836","tag":{"amenity":"recycling","recycling:glass_bottles":"yes"}},"type":"Feature"},
	{"geometry":{"coordinates":[1.961591,47.904866],"type":"Point"},"properties":{"osm_id":"1791782930","tag":{"amenity":"recycling"}},"type":"Feature"},
	{"geometry":{"coordinates":[1.972867,47.91199],"type":"Point"},"properties":{"osm_id":"1801007082","tag":{"amenity":"recycling","recycling:cans":"yes","recycling:glass_bottles":"yes","recycling:paper":"yes"}},"type":"Feature"},
	{"geometry":{"coordinates":[1.96855,47.913227],"type":"Point"},"properties":{"name":"Poubelle","osm_id":"4825327577","tag":{"amenity":"waste_disposal"}},"type":"Feature"},
	{"geometry":{"coordinates":[1.964628,47.905462],"type":"Point"},"properties":{"osm_id":"5323733821","tag":{"amenity":"recycling"}},"type":"Feature"},
	{"geometry":{"coordinates":[1.952419,47.880848],"type":"Point"},"properties":{"osm_id":"5903578426","tag":{"amenity":"waste_basket"}},"type":"Feature"},
	{"geometry":{"coordinates":[1.957567,47.929922],"type":"Point"},"properties":{"osm_id":"5913274662","tag":{"amenity":"recycling","recycling:glass_bottles":"yes","recycling_type":"container"}},"type":"Feature"},
	{"geometry":{"coordinates":[1.935758,47.887544],"type":"Point"},"properties":{"osm_id":"6005886198","tag":{"amenity":"recycling","recycling:glass_bottles":"yes","recycling_type":"container"}},"type":"Feature"},
	{"geometry":{"coordinates":[1.935696,47.887569],"type":"Point"},"properties":{"osm_id":"6005886199","tag":{"amenity":"waste_basket"}},"type":"Feature"},
	{"geometry":{"coordinates":[1.949575,47.905551],"type":"Point"},"properties":{"osm_id":"6019891373","tag":{"amenity":"waste_basket"}},"type":"Feature"},
	{"geometry":{"coordinates":[1.948928,47.90556],"type":"Point"},"properties":{"osm_id":"6019899409","tag":{"amenity":"waste_basket"}},"type":"Feature"},
	{"geometry":{"coordinates":[1.937886,47.907853],"type":"Point"},"properties":{"osm_id":"6025352838","tag":{"amenity":"waste_basket"}},"type":"Feature"},
	{"geometry":{"coordinates":[1.957254,47.925315],"type":"Point"},"properties":{"osm_id":"6036760305","tag":{"amenity":"waste_basket"}},"type":"Feature"},
	{"geometry":{"coordinates":[1.95668,47.924156],"type":"Point"},"properties":{"osm_id":"6036792653","tag":{"amenity":"waste_basket"}},"type":"Feature"},
	{"geometry":{"coordinates":[1.956479,47.923798],"type":"Point"},"properties":{"osm_id":"6036865638","tag":{"amenity":"waste_basket"}},"type":"Feature"},
	{"geometry":{"coordinates":[1.957405,47.920857],"type":"Point"},"properties":{"osm_id":"6036949086","tag":{"amenity":"waste_basket"}},"type":"Feature"},
	{"geometry":{"coordinates":[1.957413,47.921031],"type":"Point"},"properties":{"osm_id":"6036949088","tag":{"amenity":"waste_basket"}},"type":"Feature"},
	{"geometry":{"coordinates":[1.963221,47.916999],"type":"Point"},"properties":{"osm_id":"6037132190","tag":{"amenity":"waste_basket"}},"type":"Feature"},
	{"geometry":{"coordinates":[1.963123,47.916947],"type":"Point"},"properties":{"osm_id":"6037132192","tag":{"amenity":"waste_basket"}},"type":"Feature"},
	{"geometry":{"coordinates":[1.963999,47.91526],"type":"Point"},"properties":{"osm_id":"6037159248","tag":{"amenity":"waste_basket"}},"type":"Feature"},
	{"geometry":{"coordinates":[1.963958,47.915056],"type":"Point"},"properties":{"osm_id":"6037159250","tag":{"amenity":"waste_basket"}},"type":"Feature"},
	{"geometry":{"coordinates":[1.95878,47.915174],"type":"Point"},"properties":{"osm_id":"6037201409","tag":{"amenity":"waste_basket"}},"type":"Feature"},
	{"geometry":{"coordinates":[1.958132,47.914928],"type":"Point"},"properties":{"osm_id":"6037207071","tag":{"amenity":"waste_basket"}},"type":"Feature"},
	{"geometry":{"coordinates":[1.959096,47.928744],"type":"Point"},"properties":{"osm_id":"6037253969","tag":{"amenity":"waste_basket"}},"type":"Feature"},
	{"geometry":{"coordinates":[1.958987,47.928665],"type":"Point"},"properties":{"osm_id":"6037253970","tag":{"amenity":"waste_basket"}},"type":"Feature"},
	{"geometry":{"coordinates":[1.936841,47.916613],"type":"Point"},"properties":{"osm_id":"6176831094","tag":{"amenity":"waste_basket"}},"type":"Feature"},
	{"geometry":{"coordinates":[1.936824,47.916694],"type":"Point"},"properties":{"osm_id":"6176831095","tag":{"amenity":"waste_basket"}},"type":"Feature"},
	{"geometry":{"coordinates":[1.954921,47.913833],"type":"Point"},"properties":{"osm_id":"6176989735","tag":{"amenity":"waste_basket"}},"type":"Feature"},
	{"geometry":{"coordinates":[1.954969,47.913659],"type":"Point"},"properties":{"osm_id":"6176989737","tag":{"amenity":"waste_basket"}},"type":"Feature"},
	{"geometry":{"coordinates":[1.977471,47.915917],"type":"Point"},"properties":{"osm_id":"6177073758","tag":{"amenity":"waste_basket"}},"type":"Feature"},
	{"geometry":{"coordinates":[1.977649,47.911321],"type":"Point"},"properties":{"osm_id":"6177115218","tag":{"amenity":"waste_basket"}},"type":"Feature"},
	{"geometry":{"coordinates":[1.976575,47.909582],"type":"Point"},"properties":{"osm_id":"6177132936","tag":{"amenity":"waste_basket"}},"type":"Feature"},
	{"geometry":{"coordinates":[1.961815,47.878935],"type":"Point"},"properties":{"osm_id":"6195561728","tag":{"amenity":"waste_basket"}},"type":"Feature"},
	{"geometry":{"coordinates":[1.957019,47.880949],"type":"Point"},"properties":{"osm_id":"6195561729","tag":{"amenity":"waste_basket"}},"type":"Feature"},
	{"geometry":{"coordinates":[1.963606,47.872872],"type":"Point"},"properties":{"osm_id":"6195561730","tag":{"amenity":"waste_basket"}},"type":"Feature"},
	{"geometry":{"coordinates":[1.968035,47.876829],"type":"Point"},"properties":{"osm_id":"6195561731","tag":{"amenity":"waste_basket"}},"type":"Feature"},
	{"geometry":{"coordinates":[1.951749,47.881929],"type":"Point"},"properties":{"osm_id":"6195561760","tag":{"amenity":"waste_basket"}},"type":"Feature"},
	{"geometry":{"coordinates":[1.951482,47.879659],"type":"Point"},"properties":{"osm_id":"6195561761","tag":{"amenity":"waste_basket"}},"type":"Feature"},
	{"geometry":{"coordinates":[1.954256,47.877036],"type":"Point"},"properties":{"osm_id":"6195561762","tag":{"amenity":"waste_basket"}},"type":"Feature"},
	{"geometry":{"coordinates":[1.957926,47.87715],"type":"Point"},"properties":{"osm_id":"6195561763","tag":{"amenity":"waste_basket"}},"type":"Feature"},
	{"geometry":{"coordinates":[1.955896,47.878703],"type":"Point"},"properties":{"osm_id":"6195561764","tag":{"amenity":"waste_basket"}},"type":"Feature"},
	{"geometry":{"coordinates":[1.960793,47.87767],"type":"Point"},"properties":{"osm_id":"6195561766","tag":{"amenity":"waste_basket"}},"type":"Feature"},
	{"geometry":{"coordinates":[1.937557,47.920345],"type":"Point"},"properties":{"osm_id":"6195561775","tag":{"amenity":"waste_basket"}},"type":"Feature"},
	{"geometry":{"coordinates":[1.94279,47.920168],"type":"Point"},"properties":{"osm_id":"6195561776","tag":{"amenity":"waste_basket"}},"type":"Feature"},
	{"geometry":{"coordinates":[1.934518,47.928469],"type":"Point"},"properties":{"osm_id":"6195561777","tag":{"amenity":"waste_basket"}},"type":"Feature"},
	{"geometry":{"coordinates":[1.937697,47.914693],"type":"Point"},"properties":{"osm_id":"6195561778","tag":{"amenity":"waste_basket"}},"type":"Feature"},
	{"geometry":{"coordinates":[1.936958,47.916633],"type":"Point"},"properties":{"osm_id":"6195561779","tag":{"amenity":"waste_basket"}},"type":"Feature"},
	{"geometry":{"coordinates":[1.939613,47.921146],"type":"Point"},"properties":{"osm_id":"6195561795","tag":{"amenity":"waste_basket"}},"type":"Feature"},
	{"geometry":{"coordinates":[1.957587,47.88144],"type":"Point"},"properties":{"osm_id":"6195561805","tag":{"amenity":"waste_basket"}},"type":"Feature"},
	{"geometry":{"coordinates":[1.957803,47.880251],"type":"Point"},"properties":{"osm_id":"6195561806","tag":{"amenity":"waste_basket"}},"type":"Feature"},
	{"geometry":{"coordinates":[1.964603,47.87374],"type":"Point"},"properties":{"osm_id":"6195561807","tag":{"amenity":"waste_basket"}},"type":"Feature"},
	{"geometry":{"coordinates":[1.973797,47.874202],"type":"Point"},"properties":{"osm_id":"6195561808","tag":{"amenity":"waste_basket"}},"type":"Feature"},
	{"geometry":{"coordinates":[1.947763,47.882622],"type":"Point"},"properties":{"osm_id":"6195561809","tag":{"amenity":"waste_basket"}},"type":"Feature"},
	{"geometry":{"coordinates":[1.939869,47.880204],"type":"Point"},"properties":{"osm_id":"6195561810","tag":{"amenity":"waste_basket"}},"type":"Feature"},
	{"geometry":{"coordinates":[1.934012,47.879961],"type":"Point"},"properties":{"osm_id":"6195561811","tag":{"amenity":"waste_basket"}},"type":"Feature"},
	{"geometry":{"coordinates":[1.9637,47.8779],"type":"Point"},"properties":{"osm_id":"6195561830","tag":{"amenity":"waste_basket"}},"type":"Feature"},
	{"geometry":{"coordinates":[1.952017,47.879413],"type":"Point"},"properties":{"osm_id":"6195561831","tag":{"amenity":"waste_basket"}},"type":"Feature"},
	{"geometry":{"coordinates":[1.95572,47.878466],"type":"Point"},"properties":{"osm_id":"6195561832","tag":{"amenity":"waste_basket"}},"type":"Feature"},
	{"geometry":{"coordinates":[1.956533,47.878741],"type":"Point"},"properties":{"osm_id":"6195561833","tag":{"amenity":"waste_basket"}},"type":"Feature"},
	{"geometry":{"coordinates":[1.937443,47.917125],"type":"Point"},"properties":{"osm_id":"6195561875","tag":{"amenity":"waste_basket"}},"type":"Feature"},
	{"geometry":{"coordinates":[1.952612,47.880341],"type":"Point"},"properties":{"osm_id":"6195561891","tag":{"amenity":"waste_basket"}},"type":"Feature"},
	{"geometry":{"coordinates":[1.954575,47.877954],"type":"Point"},"properties":{"osm_id":"6195561892","tag":{"amenity":"waste_basket"}},"type":"Feature"},
	{"geometry":{"coordinates":[1.955342,47.878714],"type":"Point"},"properties":{"osm_id":"6195561893","tag":{"amenity":"waste_basket"}},"type":"Feature"},
	{"geometry":{"coordinates":[1.958012,47.878236],"type":"Point"},"properties":{"osm_id":"6195561894","tag":{"amenity":"waste_basket"}},"type":"Feature"},
	{"geometry":{"coordinates":[1.934974,47.913506],"type":"Point"},"properties":{"osm_id":"6195561906","tag":{"amenity":"waste_basket"}},"type":"Feature"},
	{"geometry":{"coordinates":[1.95097,47.882351],"type":"Point"},"properties":{"osm_id":"6195561928","tag":{"amenity":"waste_basket"}},"type":"Feature"},
	{"geometry":{"coordinates":[1.951228,47.882103],"type":"Point"},"properties":{"osm_id":"6195561929","tag":{"amenity":"waste_basket"}},"type":"Feature"},
	{"geometry":{"coordinates":[1.956654,47.876928],"type":"Point"},"properties":{"osm_id":"6195561930","tag":{"amenity":"waste_basket"}},"type":"Feature"},
	{"geometry":{"coordinates":[1.957331,47.87738],"type":"Point"},"properties":{"osm_id":"6195561931","tag":{"amenity":"waste_basket"}},"type":"Feature"},
	{"geometry":{"coordinates":[1.954786,47.877736],"type":"Point"},"properties":{"osm_id":"6195561932","tag":{"amenity":"waste_basket"}},"type":"Feature"},
	{"geometry":{"coordinates":[1.956048,47.878907],"type":"Point"},"properties":{"osm_id":"6195561933","tag":{"amenity":"waste_basket"}},"type":"Feature"},
	{"geometry":{"coordinates":[1.956748,47.879423],"type":"Point"},"properties":{"osm_id":"6195561934","tag":{"amenity":"waste_basket"}},"type":"Feature"},
	{"geometry":{"coordinates":[1.957797,47.878137],"type":"Point"},"properties":{"osm_id":"6195561935","tag":{"amenity":"waste_basket"}},"type":"Feature"},
	{"geometry":{"coordinates":[1.960592,47.87745],"type":"Point"},"properties":{"osm_id":"6195561937","tag":{"amenity":"waste_basket"}},"type":"Feature"},
	{"geometry":{"coordinates":[1.935443,47.923076],"type":"Point"},"properties":{"osm_id":"6195561948","tag":{"amenity":"waste_basket"}},"type":"Feature"},
	{"geometry":{"coordinates":[1.937975,47.913095],"type":"Point"},"properties":{"osm_id":"6195561949","tag":{"amenity":"waste_basket"}},"type":"Feature"},
	{"geometry":{"coordinates":[1.939391,47.92103],"type":"Point"},"properties":{"osm_id":"6195562003","tag":{"amenity":"waste_basket"}},"type":"Feature"},
	{"geometry":{"coordinates":[1.94284,47.922618],"type":"Point"},"properties":{"osm_id":"6195562004","tag":{"amenity":"waste_basket"}},"type":"Feature"},
	{"geometry":{"coordinates":[1.935599,47.929937],"type":"Point"},"properties":{"osm_id":"6195562008","tag":{"amenity":"waste_basket"}},"type":"Feature"},
	{"geometry":{"coordinates":[1.942834,47.920734],"type":"Point"},"properties":{"osm_id":"6195562009","tag":{"amenity":"waste_basket"}},"type":"Feature"},
	{"geometry":{"coordinates":[1.940919,47.920058],"type":"Point"},"properties":{"osm_id":"6195562010","tag":{"amenity":"waste_basket"}},"type":"Feature"},
	{"geometry":{"coordinates":[1.942202,47.917778],"type":"Point"},"properties":{"osm_id":"6195562011","tag":{"amenity":"waste_basket"}},"type":"Feature"},
	{"geometry":{"coordinates":[1.942395,47.917704],"type":"Point"},"properties":{"osm_id":"6195562012","tag":{"amenity":"waste_basket"}},"type":"Feature"},
	{"geometry":{"coordinates":[1.944995,47.918565],"type":"Point"},"properties":{"osm_id":"6195562013","tag":{"amenity":"waste_basket"}},"type":"Feature"},
	{"geometry":{"coordinates":[1.943604,47.917587],"type":"Point"},"properties":{"osm_id":"6195562014","tag":{"amenity":"waste_basket"}},"type":"Feature"},
	{"geometry":{"coordinates":[1.94129,47.917266],"type":"Point"},"properties":{"osm_id":"6195562018","tag":{"amenity":"waste_basket"}},"type":"Feature"},
	{"geometry":{"coordinates":[1.942637,47.919328],"type":"Point"},"properties":{"osm_id":"6195562229","tag":{"amenity":"waste_basket"}},"type":"Feature"},
	{"geometry":{"coordinates":[1.945037,47.919309],"type":"Point"},"properties":{"osm_id":"6195562230","tag":{"amenity":"waste_basket"}},"type":"Feature"},
	{"geometry":{"coordinates":[1.935241,47.918859],"type":"Point"},"properties":{"osm_id":"6195562231","tag":{"amenity":"waste_basket","waste":"dog_excrement"}},"type":"Feature"},
	{"geometry":{"coordinates":[1.936547,47.916648],"type":"Point"},"properties":{"osm_id":"6195562237","tag":{"amenity":"waste_basket"}},"type":"Feature"},
	{"geometry":{"coordinates":[1.934662,47.915219],"type":"Point"},"properties":{"osm_id":"6195562258","tag":{"amenity":"waste_basket"}},"type":"Feature"},
	{"geometry":{"coordinates":[1.963661,47.877649],"type":"Point"},"properties":{"osm_id":"6195562260","tag":{"amenity":"waste_basket"}},"type":"Feature"},
	{"geometry":{"coordinates":[1.938848,47.885876],"type":"Point"},"properties":{"osm_id":"6195562261","tag":{"amenity":"waste_basket"}},"type":"Feature"},
	{"geometry":{"coordinates":[1.935792,47.887494],"type":"Point"},"properties":{"osm_id":"6195562262","tag":{"amenity":"waste_basket"}},"type":"Feature"},
	{"geometry":{"coordinates":[1.939609,47.921018],"type":"Point"},"properties":{"osm_id":"6195562415","tag":{"amenity":"waste_basket"}},"type":"Feature"},
	{"geometry":{"coordinates":[1.937628,47.917236],"type":"Point"},"properties":{"osm_id":"6195562417","tag":{"amenity":"waste_basket"}},"type":"Feature"},
	{"geometry":{"coordinates":[1.942242,47.917676],"type":"Point"},"properties":{"osm_id":"6195562421","tag":{"amenity":"waste_basket"}},"type":"Feature"},
	{"geometry":{"coordinates":[1.939774,47.918322],"type":"Point"},"properties":{"osm_id":"6195562426","tag":{"amenity":"waste_basket"}},"type":"Feature"},
	{"geometry":{"coordinates":[1.941751,47.922953],"type":"Point"},"properties":{"osm_id":"6195562455","tag":{"amenity":"waste_basket"}},"type":"Feature"},
	{"geometry":{"coordinates":[1.934185,47.914441],"type":"Point"},"properties":{"osm_id":"6195562477","tag":{"amenity":"waste_basket"}},"type":"Feature"},
	{"geometry":{"coordinates":[1.961,47.879333],"type":"Point"},"properties":{"osm_id":"6195562479","tag":{"amenity":"waste_basket"}},"type":"Feature"},
	{"geometry":{"coordinates":[1.958048,47.881258],"type":"Point"},"properties":{"osm_id":"6195562480","tag":{"amenity":"waste_basket"}},"type":"Feature"},
	{"geometry":{"coordinates":[1.993879,47.890479],"type":"Point"},"properties":{"osm_id":"6195562481","tag":{"amenity":"waste_basket"}},"type":"Feature"},
	{"geometry":{"coordinates":[1.96349,47.884294],"type":"Point"},"properties":{"osm_id":"6195562482","tag":{"amenity":"waste_basket"}},"type":"Feature"},
	{"geometry":{"coordinates":[1.965243,47.875897],"type":"Point"},"properties":{"osm_id":"6195562483","tag":{"amenity":"waste_basket"}},"type":"Feature"},
	{"geometry":{"coordinates":[1.965726,47.877668],"type":"Point"},"properties":{"osm_id":"6195562484","tag":{"amenity":"waste_basket"}},"type":"Feature"},
	{"geometry":{"coordinates":[1.934472,47.886396],"type":"Point"},"properties":{"osm_id":"6195562486","tag":{"amenity":"waste_basket"}},"type":"Feature"},
	{"geometry":{"coordinates":[1.941351,47.917902],"type":"Point"},"properties":{"osm_id":"6195562538","tag":{"amenity":"waste_basket"}},"type":"Feature"},
	{"geometry":{"coordinates":[1.942897,47.921172],"type":"Point"},"properties":{"osm_id":"6195562542","tag":{"amenity":"waste_basket"}},"type":"Feature"},
	{"geometry":{"coordinates":[1.94057,47.921159],"type":"Point"},"properties":{"osm_id":"6195562543","tag":{"amenity":"waste_basket"}},"type":"Feature"},
	{"geometry":{"coordinates":[1.943943,47.917371],"type":"Point"},"properties":{"osm_id":"6195562544","tag":{"amenity":"waste_basket"}},"type":"Feature"},
	{"geometry":{"coordinates":[1.939915,47.920292],"type":"Point"},"properties":{"osm_id":"6195562558","tag":{"amenity":"waste_basket"}},"type":"Feature"},
	{"geometry":{"coordinates":[1.934567,47.903907],"type":"Point"},"properties":{"osm_id":"6195562564","tag":{"amenity":"waste_basket"}},"type":"Feature"},
	{"geometry":{"coordinates":[1.957943,47.880479],"type":"Point"},"properties":{"osm_id":"6195562565","tag":{"amenity":"waste_basket"}},"type":"Feature"},
	{"geometry":{"coordinates":[1.995117,47.880886],"type":"Point"},"properties":{"osm_id":"6195562566","tag":{"amenity":"waste_basket"}},"type":"Feature"},
	{"geometry":{"coordinates":[1.962189,47.872328],"type":"Point"},"properties":{"osm_id":"6195562568","tag":{"amenity":"waste_basket"}},"type":"Feature"},
	{"geometry":{"coordinates":[1.965672,47.877026],"type":"Point"},"properties":{"osm_id":"6195562569","tag":{"amenity":"waste_basket"}},"type":"Feature"},
	{"geometry":{"coordinates":[1.946311,47.880107],"type":"Point"},"properties":{"osm_id":"6195562570","tag":{"amenity":"waste_basket"}},"type":"Feature"},
	{"geometry":{"coordinates":[1.939037,47.88306],"type":"Point"},"properties":{"osm_id":"6195562571","tag":{"amenity":"waste_basket"}},"type":"Feature"},
	{"geometry":{"coordinates":[1.935468,47.882863],"type":"Point"},"properties":{"osm_id":"6195562572","tag":{"amenity":"waste_basket"}},"type":"Feature"},
	{"geometry":{"coordinates":[1.934904,47.880244],"type":"Point"},"properties":{"osm_id":"6195562573","tag":{"amenity":"waste_basket"}},"type":"Feature"},
	{"geometry":{"coordinates":[1.933754,47.918371],"type":"Point"},"properties":{"osm_id":"6195562728","tag":{"amenity":"waste_basket"}},"type":"Feature"},
	{"geometry":{"coordinates":[1.937511,47.917905],"type":"Point"},"properties":{"osm_id":"6195562729","tag":{"amenity":"waste_basket"}},"type":"Feature"},
	{"geometry":{"coordinates":[1.941682,47.919373],"type":"Point"},"properties":{"osm_id":"6195562731","tag":{"amenity":"waste_basket"}},"type":"Feature"},
	{"geometry":{"coordinates":[1.942354,47.917805],"type":"Point"},"properties":{"osm_id":"6195562732","tag":{"amenity":"waste_basket"}},"type":"Feature"},
	{"geometry":{"coordinates":[1.94139,47.917493],"type":"Point"},"properties":{"osm_id":"6195562734","tag":{"amenity":"waste_basket"}},"type":"Feature"},
	{"geometry":{"coordinates":[1.93441,47.907529],"type":"Point"},"properties":{"osm_id":"6195562760","tag":{"amenity":"waste_basket"}},"type":"Feature"},
	{"geometry":{"coordinates":[1.936915,47.908819],"type":"Point"},"properties":{"osm_id":"6195562989","tag":{"amenity":"waste_basket"}},"type":"Feature"},
	{"geometry":{"coordinates":[1.933674,47.909718],"type":"Point"},"properties":{"osm_id":"6195563203","tag":{"amenity":"waste_basket"}},"type":"Feature"},
	{"geometry":{"coordinates":[1.937114,47.908667],"type":"Point"},"properties":{"osm_id":"6195563204","tag":{"amenity":"waste_basket"}},"type":"Feature"},
	{"geometry":{"coordinates":[1.937775,47.908726],"type":"Point"},"properties":{"osm_id":"6195563205","tag":{"amenity":"waste_basket"}},"type":"Feature"},
	{"geometry":{"coordinates":[1.935978,47.908937],"type":"Point"},"properties":{"osm_id":"6195563280","tag":{"amenity":"waste_basket"}},"type":"Feature"},
	{"geometry":{"coordinates":[1.937095,47.908776],"type":"Point"},"properties":{"osm_id":"6195563281","tag":{"amenity":"waste_basket"}},"type":"Feature"},
	{"geometry":{"coordinates":[1.937578,47.908526],"type":"Point"},"properties":{"osm_id":"6195563282","tag":{"amenity":"waste_basket"}},"type":"Feature"},
	{"geometry":{"coordinates":[1.936073,47.91372],"type":"Point"},"properties":{"osm_id":"6195563507","tag":{"amenity":"waste_basket"}},"type":"Feature"},
	{"geometry":{"coordinates":[1.934303,47.915026],"type":"Point"},"properties":{"osm_id":"6195563705","tag":{"amenity":"waste_basket"}},"type":"Feature"},
	{"geometry":{"coordinates":[1.938143,47.908446],"type":"Point"},"properties":{"osm_id":"6195563728","tag":{"amenity":"waste_basket"}},"type":"Feature"},
	{"geometry":{"coordinates":[1.934341,47.903774],"type":"Point"},"properties":{"osm_id":"6195563766","tag":{"amenity":"waste_basket"}},"type":"Feature"},
	{"geometry":{"coordinates":[1.937486,47.906631],"type":"Point"},"properties":{"osm_id":"6195563892","tag":{"amenity":"waste_basket"}},"type":"Feature"},
	{"geometry":{"coordinates":[1.934315,47.914441],"type":"Point"},"properties":{"osm_id":"6195563896","tag":{"amenity":"waste_basket"}},"type":"Feature"},
	{"geometry":{"coordinates":[1.933991,47.905346],"type":"Point"},"properties":{"osm_id":"6195563924","tag":{"amenity":"waste_basket"}},"type":"Feature"},
	{"geometry":{"coordinates":[1.97531,47.908679],"type":"Point"},"properties":{"osm_id":"6232331172","tag":{"amenity":"waste_basket"}},"type":"Feature"},
	{"geometry":{"coordinates":[1.966235,47.907969],"type":"Point"},"properties":{"osm_id":"6232477752","tag":{"amenity":"waste_basket"}},"type":"Feature"},
	{"geometry":{"coordinates":[1.966209,47.907971],"type":"Point"},"properties":{"osm_id":"6232477753","tag":{"amenity":"recycling","recycling:glass_bottles":"yes","recycling_type":"container"}},"type":"Feature"},
	{"geometry":{"coordinates":[1.965235,47.90786],"type":"Point"},"properties":{"osm_id":"6232477755","tag":{"amenity":"waste_basket"}},"type":"Feature"},
	{"geometry":{"coordinates":[1.965053,47.907743],"type":"Point"},"properties":{"osm_id":"6232496273","tag":{"amenity":"waste_basket"}},"type":"Feature"},
	{"geometry":{"coordinates":[1.958573,47.906931],"type":"Point"},"properties":{"osm_id":"6232628341","tag":{"amenity":"waste_basket"}},"type":"Feature"},
	{"geometry":{"coordinates":[1.958904,47.90708],"type":"Point"},"properties":{"osm_id":"6232630025","tag":{"amenity":"waste_basket"}},"type":"Feature"},
	{"geometry":{"coordinates":[1.945508,47.905179],"type":"Point"},"properties":{"osm_id":"6232805207","tag":{"amenity":"waste_basket"}},"type":"Feature"},
	{"geometry":{"coordinates":[1.934143,47.903957],"type":"Point"},"properties":{"osm_id":"6789169381","tag":{"amenity":"recycling","recycling:glass_bottles":"yes","recycling_type":"container"}},"type":"Feature"},
	{"geometry":{"coordinates":[1.967101,47.912793],"type":"Point"},"properties":{"osm_id":"6985066974","tag":{"amenity":"waste_basket"}},"type":"Feature"},
	{"geometry":{"coordinates":[1.97014,47.913105],"type":"Point"},"properties":{"osm_id":"6985078340","tag":{"amenity":"recycling","recycling:glass":"yes","recycling:glass_bottles":"yes","recycling_type":"container"}},"type":"Feature"},
	{"geometry":{"coordinates":[1.970145,47.913081],"type":"Point"},"properties":{"osm_id":"6985078341","tag":{"amenity":"waste_basket"}},"type":"Feature"},
	{"geometry":{"coordinates":[1.96997,47.910009],"type":"Point"},"properties":{"osm_id":"6985228503","tag":{"amenity":"waste_basket"}},"type":"Feature"},
	{"geometry":{"coordinates":[1.971888,47.908269],"type":"Point"},"properties":{"osm_id":"6985231783","tag":{"amenity":"waste_basket"}},"type":"Feature"},
	{"geometry":{"coordinates":[1.941741,47.906347],"type":"Point"},"properties":{"osm_id":"7012054480","tag":{"amenity":"waste_basket"}},"type":"Feature"},
	{"geometry":{"coordinates":[1.942108,47.907483],"type":"Point"},"properties":{"osm_id":"7012067893","tag":{"amenity":"waste_basket"}},"type":"Feature"},
	{"geometry":{"coordinates":[1.950979,47.907905],"type":"Point"},"properties":{"osm_id":"7012249725","tag":{"amenity":"waste_basket"}},"type":"Feature"},
	{"geometry":{"coordinates":[1.950902,47.907641],"type":"Point"},"properties":{"osm_id":"7012249726","tag":{"amenity":"waste_basket"}},"type":"Feature"},
	{"geometry":{"coordinates":[1.950813,47.907773],"type":"Point"},"properties":{"osm_id":"7012249727","tag":{"amenity":"waste_basket"}},"type":"Feature"},
	{"geometry":{"coordinates":[1.95071,47.906603],"type":"Point"},"properties":{"osm_id":"7012249751","tag":{"amenity":"waste_basket"}},"type":"Feature"},
	{"geometry":{"coordinates":[1.950191,47.906328],"type":"Point"},"properties":{"osm_id":"7012249753","tag":{"amenity":"waste_basket"}},"type":"Feature"},
	{"geometry":{"coordinates":[1.949514,47.906264],"type":"Point"},"properties":{"osm_id":"7012249757","tag":{"amenity":"waste_basket"}},"type":"Feature"},
	{"geometry":{"coordinates":[1.948486,47.906582],"type":"Point"},"properties":{"osm_id":"7012249759","tag":{"amenity":"waste_basket"}},"type":"Feature"},
	{"geometry":{"coordinates":[2.008157,47.919273],"type":"Point"},"properties":{"osm_id":"7057623225","tag":{"amenity":"waste_basket"}},"type":"Feature"},
	{"geometry":{"coordinates":[2.008476,47.923532],"type":"Point"},"properties":{"osm_id":"7057717849","tag":{"amenity":"recycling","recycling_type":"container"}},"type":"Feature"},
	{"geometry":{"coordinates":[1.996581,47.914156],"type":"Point"},"properties":{"osm_id":"7057756811","tag":{"amenity":"waste_basket"}},"type":"Feature"},
	{"geometry":{"coordinates":[1.983503,47.910272],"type":"Point"},"properties":{"osm_id":"7057788233","tag":{"amenity":"recycling","recycling_type":"container"}},"type":"Feature"},
	{"geometry":{"coordinates":[1.992139,47.910646],"type":"Point"},"properties":{"osm_id":"7057791246","tag":{"amenity":"waste_basket"}},"type":"Feature"},
	{"geometry":{"coordinates":[1.991743,47.910666],"type":"Point"},"properties":{"osm_id":"7057797097","tag":{"amenity":"waste_basket"}},"type":"Feature"},
	{"geometry":{"coordinates":[1.939874,47.920674],"type":"Point"},"properties":{"osm_id":"7067141584","tag":{"amenity":"waste_basket"}},"type":"Feature"},
	{"geometry":{"coordinates":[1.939742,47.920833],"type":"Point"},"properties":{"osm_id":"7067179686","tag":{"amenity":"waste_basket"}},"type":"Feature"},
	{"geometry":{"coordinates":[1.939189,47.921138],"type":"Point"},"properties":{"osm_id":"7067179696","tag":{"amenity":"recycling","recycling:glass":"yes","recycling:glass_bottles":"yes","recycling_type":"container"}},"type":"Feature"},
	{"geometry":{"coordinates":[1.939178,47.921156],"type":"Point"},"properties":{"osm_id":"7067179697","tag":{"amenity":"waste_basket"}},"type":"Feature"},
	{"geometry":{"coordinates":[1.993962,47.889668],"type":"Point"},"properties":{"osm_id":"7067337148","tag":{"amenity":"recycling","recycling_type":"container"}},"type":"Feature"},
	{"geometry":{"coordinates":[1.993932,47.889634],"type":"Point"},"properties":{"osm_id":"7067337149","tag":{"amenity":"waste_basket"}},"type":"Feature"},
	{"geometry":{"coordinates":[1.958853,47.909239],"type":"Point"},"properties":{"osm_id":"7298897859","tag":{"amenity":"waste_basket"}},"type":"Feature"},
	{"geometry":{"coordinates":[1.971491,47.90835],"type":"Point"},"properties":{"osm_id":"7409839245","tag":{"amenity":"waste_basket"}},"type":"Feature"},
	{"geometry":{"coordinates":[1.935544,47.929817],"type":"Point"},"properties":{"osm_id":"7416782641","tag":{"amenity":"recycling","recycling:glass":"yes","recycling:glass_bottles":"yes","recycling_type":"container"}},"type":"Feature"},
	{"geometry":{"coordinates":[1.935519,47.929788],"type":"Point"},"properties":{"osm_id":"7416782642","tag":{"amenity":"recycling","recycling:clothes":"yes","recycling_type":"container"}},"type":"Feature"},
	{"geometry":{"coordinates":[1.934707,47.930164],"type":"Point"},"properties":{"osm_id":"7416804131","tag":{"amenity":"waste_basket"}},"type":"Feature"},
	{"geometry":{"coordinates":[1.95822,47.908369],"type":"Point"},"properties":{"osm_id":"7559674342","tag":{"amenity":"waste_basket"}},"type":"Feature"},
	{"geometry":{"coordinates":[1.965033,47.919661],"type":"Point"},"properties":{"osm_id":"7570881041","tag":{"amenity":"waste_basket"}},"type":"Feature"},
	{"geometry":{"coordinates":[1.978207,47.913978],"type":"Point"},"properties":{"osm_id":"7572957858","tag":{"amenity":"waste_basket"}},"type":"Feature"},
	{"geometry":{"coordinates":[1.994284,47.890277],"type":"Point"},"properties":{"osm_id":"7747075457","tag":{"amenity":"waste_basket"}},"type":"Feature"},
	{"geometry":{"coordinates":[1.969107,47.912246],"type":"Point"},"properties":{"osm_id":"7925020621","tag":{"amenity":"waste_basket"}},"type":"Feature"}
]
}
