{
"type": "FeatureCollection",
"lastupdate": "2020-07-31T00:00:00Z",
"features": [
	{"geometry":{"coordinates":[1.971553,44.220226],"type":"Point"},"properties":{"osm_id":"3198750623","tag":{"amenity":"recycling","recycling:glass_bottles":"yes","recycling_type":"container"}},"type":"Feature"},
	{"geometry":{"coordinates":[1.98254,44.220796],"type":"Point"},"properties":{"osm_id":"5713217858","tag":{"amenity":"waste_basket","material":"metal"}},"type":"Feature"},
	{"geometry":{"coordinates":[1.982041,44.220442],"type":"Point"},"properties":{"osm_id":"5713217878","tag":{"amenity":"waste_basket"}},"type":"Feature"},
	{"geometry":{"coordinates":[1.981511,44.220658],"type":"Point"},"properties":{"osm_id":"5713217879","tag":{"amenity":"waste_basket"}},"type":"Feature"},
	{"geometry":{"coordinates":[1.978689,44.219895],"type":"Point"},"properties":{"osm_id":"5713217886","tag":{"amenity":"waste_basket"}},"type":"Feature"},
	{"geometry":{"coordinates":[1.976872,44.219285],"type":"Point"},"properties":{"osm_id":"5713217897","tag":{"amenity":"waste_basket","material":"metal","support":"wall_mounted"}},"type":"Feature"},
	{"geometry":{"coordinates":[1.972542,44.217723],"type":"Point"},"properties":{"osm_id":"5713219334","tag":{"amenity":"waste_basket","support":"wall_mounted"}},"type":"Feature"}
]
}
