{
"type": "FeatureCollection",
"features": [
	{"geometry":{"coordinates":[1.956873,43.319422],"type":"Point"},"properties":{"osm_id":"993131059","tag":{"amenity":"waste_basket"}},"type":"Feature"},
	{"geometry":{"coordinates":[1.956691,43.321494],"type":"Point"},"properties":{"osm_id":"993131292","tag":{"amenity":"recycling","recycling:green_waste":"yes"}},"type":"Feature"},
	{"geometry":{"coordinates":[1.95385,43.304194],"type":"Point"},"properties":{"name":"Ferriol","osm_id":"1234843367","tag":{"amenity":"recycling","recycling:aluminium":"yes","recycling:scrap_metal":"yes","recycling:sheet_metal":"yes","recycling_type":"centre"}},"type":"Feature"},
	{"geometry":{"coordinates":[1.998321,43.285571],"type":"Point"},"properties":{"osm_id":"1350811734","tag":{"amenity":"waste_disposal"}},"type":"Feature"},
	{"geometry":{"coordinates":[1.958085,43.262624],"type":"Point"},"properties":{"osm_id":"1350811761","tag":{"amenity":"waste_disposal"}},"type":"Feature"},
	{"geometry":{"coordinates":[1.953263,43.317943],"type":"Point"},"properties":{"osm_id":"1357454714","tag":{"amenity":"waste_basket"}},"type":"Feature"},
	{"geometry":{"coordinates":[1.953206,43.317895],"type":"Point"},"properties":{"osm_id":"1357454715","tag":{"amenity":"recycling","location":"overground","recycling:glass_bottles":"yes","recycling_type":"container"}},"type":"Feature"},
	{"geometry":{"coordinates":[1.958322,43.304655],"type":"Point"},"properties":{"osm_id":"2111434381","tag":{"amenity":"recycling","recycling:glass_bottles":"yes","recycling_type":"container"}},"type":"Feature"},
	{"geometry":{"coordinates":[1.95087,43.312741],"type":"Point"},"properties":{"osm_id":"2112590703","tag":{"amenity":"recycling","recycling:glass_bottles":"yes","recycling_type":"container"}},"type":"Feature"},
	{"geometry":{"coordinates":[1.951599,43.315622],"type":"Point"},"properties":{"osm_id":"5257752424","tag":{"amenity":"waste_basket"}},"type":"Feature"},
	{"geometry":{"coordinates":[1.975628,43.32037],"type":"Point"},"properties":{"osm_id":"7565483130","tag":{"amenity":"recycling","recycling:glass_bottles":"yes","recycling_type":"container"}},"type":"Feature"},
	{"geometry":{"coordinates":[1.943707,43.304602],"type":"Point"},"properties":{"osm_id":"8866870791","tag":{"amenity":"waste_basket"}},"type":"Feature"},
	{"geometry":{"coordinates":[1.941474,43.304898],"type":"Point"},"properties":{"osm_id":"8866870792","tag":{"amenity":"waste_basket"}},"type":"Feature"},
	{"geometry":{"coordinates":[1.942712,43.305917],"type":"Point"},"properties":{"osm_id":"8866870793","tag":{"amenity":"waste_basket"}},"type":"Feature"},
	{"geometry":{"coordinates":[1.941403,43.30468],"type":"Point"},"properties":{"osm_id":"8888800026","tag":{"amenity":"waste_basket"}},"type":"Feature"},
	{"geometry":{"coordinates":[1.942524,43.304275],"type":"Point"},"properties":{"osm_id":"8888800027","tag":{"amenity":"waste_basket"}},"type":"Feature"},
	{"geometry":{"coordinates":[1.941562,43.306266],"type":"Point"},"properties":{"osm_id":"8888800028","tag":{"amenity":"waste_basket"}},"type":"Feature"},
	{"geometry":{"coordinates":[1.939674,43.305133],"type":"Point"},"properties":{"osm_id":"8888800105","tag":{"amenity":"waste_basket"}},"type":"Feature"},
	{"geometry":{"coordinates":[1.940249,43.305404],"type":"Point"},"properties":{"osm_id":"8888800106","tag":{"amenity":"waste_basket"}},"type":"Feature"},
	{"geometry":{"coordinates":[1.993722,43.276545],"type":"Point"},"properties":{"osm_id":"9035436525","tag":{"amenity":"waste_basket"}},"type":"Feature"},
	{"geometry":{"coordinates":[1.992581,43.277186],"type":"Point"},"properties":{"osm_id":"9035436533","tag":{"amenity":"waste_basket"}},"type":"Feature"}
]
}
