{
"type": "FeatureCollection",
"lastupdate": "2020-08-01T00:00:00Z",
"features": [
	{"geometry":{"coordinates":[1.963697,41.414443],"type":"Point"},"properties":{"osm_id":"1493652256","tag":{"amenity":"recycling"}},"type":"Feature"},
	{"geometry":{"coordinates":[1.977776,41.408593],"type":"Point"},"properties":{"osm_id":"1875682580","tag":{"amenity":"waste_basket"}},"type":"Feature"},
	{"geometry":{"coordinates":[1.977998,41.408616],"type":"Point"},"properties":{"osm_id":"1875682583","tag":{"amenity":"waste_basket"}},"type":"Feature"},
	{"geometry":{"coordinates":[1.976722,41.409006],"type":"Point"},"properties":{"osm_id":"1875682616","tag":{"amenity":"waste_basket"}},"type":"Feature"},
	{"geometry":{"coordinates":[1.975799,41.409055],"type":"Point"},"properties":{"osm_id":"1875682619","tag":{"amenity":"waste_basket"}},"type":"Feature"},
	{"geometry":{"coordinates":[1.968337,41.410457],"type":"Point"},"properties":{"osm_id":"1875755914","tag":{"amenity":"waste_basket"}},"type":"Feature"},
	{"geometry":{"coordinates":[1.969523,41.41055],"type":"Point"},"properties":{"osm_id":"1875755919","tag":{"amenity":"waste_basket"}},"type":"Feature"},
	{"geometry":{"coordinates":[1.970403,41.410579],"type":"Point"},"properties":{"osm_id":"1875755923","tag":{"amenity":"waste_basket"}},"type":"Feature"},
	{"geometry":{"coordinates":[1.967495,41.411007],"type":"Point"},"properties":{"osm_id":"1875755957","tag":{"amenity":"waste_basket"}},"type":"Feature"},
	{"geometry":{"coordinates":[1.970558,41.413239],"type":"Point"},"properties":{"osm_id":"1879417788","tag":{"amenity":"waste_basket"}},"type":"Feature"},
	{"geometry":{"coordinates":[1.970292,41.413532],"type":"Point"},"properties":{"osm_id":"1879417793","tag":{"amenity":"waste_basket"}},"type":"Feature"},
	{"geometry":{"coordinates":[1.970019,41.413681],"type":"Point"},"properties":{"osm_id":"1879417799","tag":{"amenity":"waste_basket"}},"type":"Feature"},
	{"geometry":{"coordinates":[1.970046,41.413843],"type":"Point"},"properties":{"osm_id":"1879417810","tag":{"amenity":"waste_basket"}},"type":"Feature"},
	{"geometry":{"coordinates":[1.970126,41.414364],"type":"Point"},"properties":{"osm_id":"1879417817","tag":{"amenity":"waste_basket"}},"type":"Feature"},
	{"geometry":{"coordinates":[1.969443,41.414721],"type":"Point"},"properties":{"osm_id":"1879417818","tag":{"amenity":"waste_basket"}},"type":"Feature"},
	{"geometry":{"coordinates":[1.969974,41.415097],"type":"Point"},"properties":{"osm_id":"1879417827","tag":{"amenity":"waste_basket"}},"type":"Feature"},
	{"geometry":{"coordinates":[1.966818,41.416722],"type":"Point"},"properties":{"osm_id":"1879417897","tag":{"amenity":"waste_basket"}},"type":"Feature"},
	{"geometry":{"coordinates":[1.968219,41.416735],"type":"Point"},"properties":{"osm_id":"1879417914","tag":{"amenity":"waste_basket"}},"type":"Feature"},
	{"geometry":{"coordinates":[1.968252,41.416822],"type":"Point"},"properties":{"osm_id":"1879417924","tag":{"amenity":"waste_basket"}},"type":"Feature"},
	{"geometry":{"coordinates":[1.969164,41.416908],"type":"Point"},"properties":{"osm_id":"1879417949","tag":{"amenity":"waste_basket"}},"type":"Feature"},
	{"geometry":{"coordinates":[1.969856,41.417584],"type":"Point"},"properties":{"osm_id":"1879417979","tag":{"amenity":"waste_basket"}},"type":"Feature"},
	{"geometry":{"coordinates":[1.972413,41.417923],"type":"Point"},"properties":{"osm_id":"1879417991","tag":{"amenity":"waste_basket"}},"type":"Feature"},
	{"geometry":{"coordinates":[1.971994,41.405697],"type":"Point"},"properties":{"osm_id":"1880491659","tag":{"amenity":"waste_basket"}},"type":"Feature"},
	{"geometry":{"coordinates":[1.971216,41.410552],"type":"Point"},"properties":{"osm_id":"1887917149","tag":{"amenity":"waste_basket"}},"type":"Feature"},
	{"geometry":{"coordinates":[2.006993,41.398669],"type":"Point"},"properties":{"osm_id":"1905755191","tag":{"amenity":"recycling","recycling_type":"container"}},"type":"Feature"},
	{"geometry":{"coordinates":[2.006673,41.399016],"type":"Point"},"properties":{"osm_id":"1905755193","tag":{"amenity":"recycling","recycling:glass_bottles":"yes","recycling:organic":"yes","recycling:paper":"yes","recycling:plastic":"yes","recycling:waste":"yes","recycling_type":"container"}},"type":"Feature"},
	{"geometry":{"coordinates":[2.00743,41.399162],"type":"Point"},"properties":{"osm_id":"1905755197","tag":{"amenity":"recycling","recycling:glass_bottles":"yes","recycling:organic":"yes","recycling:paper":"yes","recycling:plastic":"yes","recycling:waste":"yes","recycling_type":"container"}},"type":"Feature"},
	{"geometry":{"coordinates":[2.005896,41.399811],"type":"Point"},"properties":{"osm_id":"1905758290","tag":{"amenity":"recycling","recycling_type":"container"}},"type":"Feature"},
	{"geometry":{"coordinates":[2.007513,41.397886],"type":"Point"},"properties":{"osm_id":"1905760492","tag":{"amenity":"recycling","recycling_type":"container"}},"type":"Feature"},
	{"geometry":{"coordinates":[2.003205,41.38511],"type":"Point"},"properties":{"barrier":"gate","osm_id":"1918279720"},"type":"Feature"},
	{"geometry":{"coordinates":[2.009267,41.394115],"type":"Point"},"properties":{"osm_id":"1920106194","tag":{"amenity":"recycling","recycling_type":"container"}},"type":"Feature"},
	{"geometry":{"coordinates":[2.007328,41.380478],"type":"Point"},"properties":{"osm_id":"1925897963","tag":{"amenity":"recycling","recycling_type":"container"}},"type":"Feature"},
	{"geometry":{"coordinates":[2.008841,41.379911],"type":"Point"},"properties":{"osm_id":"1925897967","tag":{"amenity":"recycling","recycling_type":"container"}},"type":"Feature"},
	{"geometry":{"coordinates":[2.012022,41.380285],"type":"Point"},"properties":{"osm_id":"1925897970","tag":{"amenity":"recycling","recycling_type":"container"}},"type":"Feature"},
	{"geometry":{"coordinates":[2.005754,41.388385],"type":"Point"},"properties":{"osm_id":"1925996152","tag":{"amenity":"recycling","recycling_type":"container"}},"type":"Feature"},
	{"geometry":{"coordinates":[1.994662,41.377789],"type":"Point"},"properties":{"osm_id":"1927108234","tag":{"amenity":"recycling","recycling_type":"container"}},"type":"Feature"},
	{"geometry":{"coordinates":[2.007417,41.397529],"type":"Point"},"properties":{"osm_id":"1932195093","tag":{"amenity":"recycling","recycling:clothes":"yes","recycling:glass_bottles":"yes","recycling:organic":"yes","recycling:paper":"yes","recycling:plastic":"yes","recycling:waste":"yes","recycling_type":"container"}},"type":"Feature"},
	{"geometry":{"coordinates":[2.007027,41.397394],"type":"Point"},"properties":{"osm_id":"1932195095","tag":{"amenity":"recycling","recycling:glass_bottles":"yes","recycling_type":"container"}},"type":"Feature"},
	{"geometry":{"coordinates":[2.007955,41.396787],"type":"Point"},"properties":{"osm_id":"1932195096","tag":{"amenity":"recycling","recycling_type":"container"}},"type":"Feature"},
	{"geometry":{"coordinates":[2.009698,41.395966],"type":"Point"},"properties":{"osm_id":"1932195097","tag":{"amenity":"recycling","recycling_type":"container"}},"type":"Feature"},
	{"geometry":{"coordinates":[2.00876,41.397346],"type":"Point"},"properties":{"osm_id":"1932195099","tag":{"amenity":"recycling","recycling_type":"container"}},"type":"Feature"},
	{"geometry":{"coordinates":[1.997857,41.399972],"type":"Point"},"properties":{"osm_id":"1932195103","tag":{"amenity":"recycling","recycling_type":"container"}},"type":"Feature"},
	{"geometry":{"coordinates":[2.007027,41.396435],"type":"Point"},"properties":{"osm_id":"1932203073","tag":{"amenity":"recycling","recycling_type":"container"}},"type":"Feature"},
	{"geometry":{"coordinates":[2.010735,41.394895],"type":"Point"},"properties":{"osm_id":"1956765354","tag":{"amenity":"recycling","recycling_type":"container"}},"type":"Feature"},
	{"geometry":{"coordinates":[1.99821,41.397777],"type":"Point"},"properties":{"osm_id":"1968214666","tag":{"amenity":"recycling","recycling_type":"container"}},"type":"Feature"},
	{"geometry":{"coordinates":[2.000143,41.396826],"type":"Point"},"properties":{"osm_id":"1968214668","tag":{"amenity":"recycling","recycling_type":"container"}},"type":"Feature"},
	{"geometry":{"coordinates":[2.001399,41.387819],"type":"Point"},"properties":{"osm_id":"1971896579","tag":{"amenity":"recycling","recycling_type":"container"}},"type":"Feature"},
	{"geometry":{"coordinates":[2.001722,41.393779],"type":"Point"},"properties":{"osm_id":"2001323882","tag":{"amenity":"recycling","recycling_type":"container"}},"type":"Feature"},
	{"geometry":{"coordinates":[2.008989,41.393212],"type":"Point"},"properties":{"osm_id":"2001360924","tag":{"amenity":"recycling","recycling_type":"container"}},"type":"Feature"},
	{"geometry":{"coordinates":[2.009007,41.392616],"type":"Point"},"properties":{"osm_id":"2001360932","tag":{"amenity":"recycling","recycling_type":"container"}},"type":"Feature"},
	{"geometry":{"coordinates":[2.00707,41.394807],"type":"Point"},"properties":{"osm_id":"2001419982","tag":{"amenity":"recycling","recycling_type":"container"}},"type":"Feature"},
	{"geometry":{"coordinates":[2.002277,41.389132],"type":"Point"},"properties":{"osm_id":"2001520555","tag":{"amenity":"recycling","recycling_type":"container"}},"type":"Feature"},
	{"geometry":{"coordinates":[2.005826,41.389323],"type":"Point"},"properties":{"osm_id":"2001524820","tag":{"amenity":"recycling","recycling_type":"container"}},"type":"Feature"},
	{"geometry":{"coordinates":[2.005138,41.391303],"type":"Point"},"properties":{"osm_id":"2012237460","tag":{"amenity":"recycling","recycling_type":"container"}},"type":"Feature"},
	{"geometry":{"coordinates":[1.999462,41.396212],"type":"Point"},"properties":{"osm_id":"2012380181","tag":{"amenity":"waste_basket"}},"type":"Feature"},
	{"geometry":{"coordinates":[1.99957,41.395858],"type":"Point"},"properties":{"osm_id":"2012380186","tag":{"amenity":"waste_basket"}},"type":"Feature"},
	{"geometry":{"coordinates":[1.999454,41.395653],"type":"Point"},"properties":{"osm_id":"2012380190","tag":{"amenity":"waste_basket"}},"type":"Feature"},
	{"geometry":{"coordinates":[1.999521,41.395736],"type":"Point"},"properties":{"osm_id":"2012380192","tag":{"amenity":"waste_basket"}},"type":"Feature"},
	{"geometry":{"coordinates":[1.999562,41.395868],"type":"Point"},"properties":{"osm_id":"2012380200","tag":{"amenity":"waste_basket"}},"type":"Feature"},
	{"geometry":{"coordinates":[1.999398,41.395587],"type":"Point"},"properties":{"osm_id":"2012380207","tag":{"amenity":"waste_basket"}},"type":"Feature"},
	{"geometry":{"coordinates":[1.999615,41.399249],"type":"Point"},"properties":{"osm_id":"2012393473","tag":{"amenity":"recycling","recycling_type":"container"}},"type":"Feature"},
	{"geometry":{"coordinates":[1.999873,41.399458],"type":"Point"},"properties":{"osm_id":"2012393479","tag":{"amenity":"recycling","recycling_type":"container"}},"type":"Feature"},
	{"geometry":{"coordinates":[1.999505,41.399029],"type":"Point"},"properties":{"osm_id":"2012393482","tag":{"amenity":"recycling","recycling_type":"container"}},"type":"Feature"},
	{"geometry":{"coordinates":[2.001216,41.398357],"type":"Point"},"properties":{"osm_id":"2012393483","tag":{"amenity":"recycling","recycling_type":"container"}},"type":"Feature"},
	{"geometry":{"coordinates":[2.001238,41.400383],"type":"Point"},"properties":{"osm_id":"2012393484","tag":{"amenity":"recycling","recycling_type":"container"}},"type":"Feature"},
	{"geometry":{"coordinates":[1.998849,41.399671],"type":"Point"},"properties":{"osm_id":"2014940973","tag":{"amenity":"recycling","recycling_type":"container"}},"type":"Feature"},
	{"geometry":{"coordinates":[1.999756,41.400729],"type":"Point"},"properties":{"osm_id":"2014940975","tag":{"amenity":"recycling","recycling_type":"container"}},"type":"Feature"},
	{"geometry":{"coordinates":[2.004561,41.397328],"type":"Point"},"properties":{"osm_id":"2015030962","tag":{"amenity":"recycling","recycling_type":"container"}},"type":"Feature"},
	{"geometry":{"coordinates":[2.0033,41.39794],"type":"Point"},"properties":{"osm_id":"2015030963","tag":{"amenity":"recycling","recycling_type":"container"}},"type":"Feature"},
	{"geometry":{"coordinates":[2.003289,41.39699],"type":"Point"},"properties":{"osm_id":"2015030964","tag":{"amenity":"recycling","recycling_type":"container"}},"type":"Feature"},
	{"geometry":{"coordinates":[2.004856,41.398193],"type":"Point"},"properties":{"osm_id":"2015030967","tag":{"amenity":"recycling","recycling_type":"container"}},"type":"Feature"},
	{"geometry":{"coordinates":[2.003646,41.398559],"type":"Point"},"properties":{"osm_id":"2015038274","tag":{"amenity":"recycling","recycling_type":"container"}},"type":"Feature"},
	{"geometry":{"coordinates":[2.00263,41.400251],"type":"Point"},"properties":{"osm_id":"2015038284","tag":{"amenity":"recycling","recycling_type":"container"}},"type":"Feature"},
	{"geometry":{"coordinates":[2.001457,41.400032],"type":"Point"},"properties":{"osm_id":"2015039285","tag":{"amenity":"recycling","recycling_type":"container"}},"type":"Feature"},
	{"geometry":{"coordinates":[2.007661,41.395594],"type":"Point"},"properties":{"osm_id":"2015047952","tag":{"amenity":"recycling","recycling_type":"container"}},"type":"Feature"},
	{"geometry":{"coordinates":[2.007391,41.394034],"type":"Point"},"properties":{"osm_id":"2015047966","tag":{"amenity":"recycling","recycling_type":"container"}},"type":"Feature"},
	{"geometry":{"coordinates":[2.003598,41.393674],"type":"Point"},"properties":{"osm_id":"2015057878","tag":{"amenity":"recycling","recycling_type":"container"}},"type":"Feature"},
	{"geometry":{"coordinates":[2.005618,41.393843],"type":"Point"},"properties":{"osm_id":"2015057879","tag":{"amenity":"recycling","recycling_type":"container"}},"type":"Feature"},
	{"geometry":{"coordinates":[2.006516,41.390706],"type":"Point"},"properties":{"osm_id":"2015090164","tag":{"amenity":"recycling","recycling_type":"container"}},"type":"Feature"},
	{"geometry":{"coordinates":[2.006264,41.390762],"type":"Point"},"properties":{"osm_id":"2015090165","tag":{"amenity":"recycling","recycling_type":"container"}},"type":"Feature"},
	{"geometry":{"coordinates":[1.999884,41.378619],"type":"Point"},"properties":{"osm_id":"2016278607","tag":{"amenity":"recycling","recycling_type":"container"}},"type":"Feature"},
	{"geometry":{"coordinates":[2.003229,41.384252],"type":"Point"},"properties":{"osm_id":"2022881930","tag":{"amenity":"waste_basket"}},"type":"Feature"},
	{"geometry":{"coordinates":[2.013165,41.390169],"type":"Point"},"properties":{"osm_id":"2677931999","tag":{"amenity":"recycling","recycling:cartons":"yes","recycling:glass_bottles":"yes","recycling:green_waste":"yes","recycling:newspaper":"yes","recycling:paper":"yes","recycling:paper_packaging":"yes","recycling:plastic_bottles":"yes","recycling:plastic_packaging":"yes","recycling:waste":"yes","recycling_type":"container"}},"type":"Feature"},
	{"geometry":{"coordinates":[2.007137,41.401486],"type":"Point"},"properties":{"osm_id":"2765815550","tag":{"amenity":"recycling","recycling_type":"container"}},"type":"Feature"},
	{"geometry":{"coordinates":[2.014955,41.386713],"type":"Point"},"properties":{"osm_id":"2765815556","tag":{"amenity":"recycling","recycling_type":"container"}},"type":"Feature"},
	{"geometry":{"coordinates":[2.01326,41.38766],"type":"Point"},"properties":{"osm_id":"2765815561","tag":{"amenity":"recycling","recycling_type":"container"}},"type":"Feature"},
	{"geometry":{"coordinates":[2.011576,41.395158],"type":"Point"},"properties":{"osm_id":"2765815582","tag":{"amenity":"recycling","recycling_type":"container"}},"type":"Feature"},
	{"geometry":{"coordinates":[2.012437,41.393351],"type":"Point"},"properties":{"osm_id":"2765815583","tag":{"amenity":"recycling","recycling_type":"container"}},"type":"Feature"},
	{"geometry":{"coordinates":[2.014464,41.387868],"type":"Point"},"properties":{"osm_id":"2765815586","tag":{"amenity":"recycling","recycling_type":"container"}},"type":"Feature"},
	{"geometry":{"coordinates":[2.007898,41.400564],"type":"Point"},"properties":{"osm_id":"2765815588","tag":{"amenity":"recycling","recycling_type":"container"}},"type":"Feature"},
	{"geometry":{"coordinates":[2.008902,41.399603],"type":"Point"},"properties":{"osm_id":"2765815589","tag":{"amenity":"recycling","recycling_type":"container"}},"type":"Feature"},
	{"geometry":{"coordinates":[2.013641,41.388803],"type":"Point"},"properties":{"osm_id":"2765815598","tag":{"amenity":"recycling","recycling_type":"container"}},"type":"Feature"},
	{"geometry":{"coordinates":[2.01083,41.396206],"type":"Point"},"properties":{"osm_id":"2765815611","tag":{"amenity":"recycling","recycling_type":"container"}},"type":"Feature"},
	{"geometry":{"coordinates":[1.998756,41.392589],"type":"Point"},"properties":{"osm_id":"2850184194","tag":{"amenity":"recycling","recycling_type":"container"}},"type":"Feature"},
	{"geometry":{"coordinates":[1.998842,41.39088],"type":"Point"},"properties":{"osm_id":"2850222565","tag":{"amenity":"recycling","recycling_type":"container"}},"type":"Feature"},
	{"geometry":{"coordinates":[1.998912,41.390389],"type":"Point"},"properties":{"osm_id":"2850222567","tag":{"amenity":"recycling","recycling_type":"container"}},"type":"Feature"},
	{"geometry":{"coordinates":[1.995987,41.395628],"type":"Point"},"properties":{"osm_id":"2850289057","tag":{"amenity":"recycling","recycling_type":"container"}},"type":"Feature"},
	{"geometry":{"coordinates":[1.9909,41.393032],"type":"Point"},"properties":{"osm_id":"2850289075","tag":{"amenity":"recycling","recycling_type":"container"}},"type":"Feature"},
	{"geometry":{"coordinates":[1.997484,41.390517],"type":"Point"},"properties":{"osm_id":"2850289080","tag":{"amenity":"recycling","recycling_type":"container"}},"type":"Feature"},
	{"geometry":{"coordinates":[1.994975,41.392357],"type":"Point"},"properties":{"osm_id":"2850289092","tag":{"amenity":"recycling","recycling_type":"container"}},"type":"Feature"},
	{"geometry":{"coordinates":[1.985012,41.380824],"type":"Point"},"properties":{"osm_id":"2869361070","tag":{"amenity":"recycling","recycling_type":"container"}},"type":"Feature"},
	{"geometry":{"coordinates":[1.995685,41.381198],"type":"Point"},"properties":{"osm_id":"2869361078","tag":{"amenity":"recycling","recycling_type":"container"}},"type":"Feature"},
	{"geometry":{"coordinates":[1.994963,41.38145],"type":"Point"},"properties":{"osm_id":"2869361081","tag":{"amenity":"recycling","recycling_type":"container"}},"type":"Feature"},
	{"geometry":{"coordinates":[1.994327,41.380343],"type":"Point"},"properties":{"osm_id":"2869361085","tag":{"amenity":"recycling","recycling_type":"container"}},"type":"Feature"},
	{"geometry":{"coordinates":[1.990811,41.380224],"type":"Point"},"properties":{"osm_id":"2869361086","tag":{"amenity":"recycling","recycling_type":"container"}},"type":"Feature"},
	{"geometry":{"coordinates":[1.990232,41.379542],"type":"Point"},"properties":{"osm_id":"2869361097","tag":{"amenity":"recycling","recycling_type":"container"}},"type":"Feature"},
	{"geometry":{"coordinates":[2.003128,41.378053],"type":"Point"},"properties":{"osm_id":"2869390496","tag":{"amenity":"recycling","recycling_type":"container"}},"type":"Feature"},
	{"geometry":{"coordinates":[1.999414,41.4044],"type":"Point"},"properties":{"osm_id":"2870022402","tag":{"amenity":"recycling","recycling_type":"container"}},"type":"Feature"},
	{"geometry":{"coordinates":[2.002804,41.392388],"type":"Point"},"properties":{"osm_id":"2890051650","tag":{"amenity":"recycling","recycling_type":"container"}},"type":"Feature"},
	{"geometry":{"coordinates":[2.002324,41.396801],"type":"Point"},"properties":{"osm_id":"2890051652","tag":{"amenity":"recycling","recycling_type":"container"}},"type":"Feature"},
	{"geometry":{"coordinates":[2.004102,41.390648],"type":"Point"},"properties":{"osm_id":"2890051653","tag":{"amenity":"recycling","recycling_type":"container"}},"type":"Feature"},
	{"geometry":{"coordinates":[1.999352,41.393628],"type":"Point"},"properties":{"osm_id":"2890051658","tag":{"amenity":"recycling","recycling_type":"container"}},"type":"Feature"},
	{"geometry":{"coordinates":[2.00539,41.392875],"type":"Point"},"properties":{"osm_id":"2892026042","tag":{"amenity":"recycling","recycling_type":"container"}},"type":"Feature"},
	{"geometry":{"coordinates":[2.006933,41.393453],"type":"Point"},"properties":{"osm_id":"2892026043","tag":{"amenity":"recycling","recycling_type":"container"}},"type":"Feature"},
	{"geometry":{"coordinates":[2.006519,41.391756],"type":"Point"},"properties":{"osm_id":"2892026044","tag":{"amenity":"recycling","recycling_type":"container"}},"type":"Feature"},
	{"geometry":{"coordinates":[2.00969,41.388251],"type":"Point"},"properties":{"osm_id":"2892048726","tag":{"amenity":"recycling","recycling_type":"container"}},"type":"Feature"},
	{"geometry":{"coordinates":[2.009325,41.388679],"type":"Point"},"properties":{"osm_id":"2892048727","tag":{"amenity":"recycling","recycling_type":"container"}},"type":"Feature"},
	{"geometry":{"coordinates":[2.006715,41.393688],"type":"Point"},"properties":{"osm_id":"2892048730","tag":{"amenity":"recycling","recycling_type":"container"}},"type":"Feature"},
	{"geometry":{"coordinates":[2.0105,41.387885],"type":"Point"},"properties":{"osm_id":"2892048733","tag":{"amenity":"recycling","recycling_type":"container"}},"type":"Feature"},
	{"geometry":{"coordinates":[2.008542,41.389003],"type":"Point"},"properties":{"osm_id":"2892048735","tag":{"amenity":"recycling","recycling_type":"container"}},"type":"Feature"},
	{"geometry":{"coordinates":[2.011003,41.386715],"type":"Point"},"properties":{"osm_id":"2892099657","tag":{"amenity":"recycling","recycling_type":"container"}},"type":"Feature"},
	{"geometry":{"coordinates":[2.009729,41.387031],"type":"Point"},"properties":{"osm_id":"2892103041","tag":{"amenity":"recycling","recycling_type":"container"}},"type":"Feature"},
	{"geometry":{"coordinates":[2.008953,41.39844],"type":"Point"},"properties":{"osm_id":"2894449793","tag":{"amenity":"recycling","recycling_type":"container"}},"type":"Feature"},
	{"geometry":{"coordinates":[2.005944,41.39013],"type":"Point"},"properties":{"osm_id":"2895202026","tag":{"amenity":"recycling","recycling_type":"container"}},"type":"Feature"},
	{"geometry":{"coordinates":[2.001966,41.39135],"type":"Point"},"properties":{"osm_id":"2895202029","tag":{"amenity":"recycling","recycling_type":"container"}},"type":"Feature"},
	{"geometry":{"coordinates":[1.999334,41.392952],"type":"Point"},"properties":{"osm_id":"2896356097","tag":{"amenity":"recycling","recycling_type":"container"}},"type":"Feature"},
	{"geometry":{"coordinates":[2.00075,41.39267],"type":"Point"},"properties":{"osm_id":"2896356402","tag":{"amenity":"recycling","recycling_type":"container"}},"type":"Feature"},
	{"geometry":{"coordinates":[2.001754,41.392727],"type":"Point"},"properties":{"osm_id":"2896356403","tag":{"amenity":"recycling","recycling_type":"container"}},"type":"Feature"},
	{"geometry":{"coordinates":[1.998834,41.400013],"type":"Point"},"properties":{"osm_id":"2899978123","tag":{"amenity":"recycling","recycling_type":"container"}},"type":"Feature"},
	{"geometry":{"coordinates":[1.996986,41.399697],"type":"Point"},"properties":{"osm_id":"2899978128","tag":{"amenity":"recycling","recycling_type":"container"}},"type":"Feature"},
	{"geometry":{"coordinates":[2.000412,41.40126],"type":"Point"},"properties":{"osm_id":"2899978134","tag":{"amenity":"recycling","recycling_type":"container"}},"type":"Feature"},
	{"geometry":{"coordinates":[2.001042,41.388994],"type":"Point"},"properties":{"osm_id":"2900425740","tag":{"amenity":"recycling","recycling_type":"container"}},"type":"Feature"},
	{"geometry":{"coordinates":[2.003021,41.387016],"type":"Point"},"properties":{"osm_id":"2900443188","tag":{"amenity":"recycling","recycling_type":"container"}},"type":"Feature"},
	{"geometry":{"coordinates":[2.004572,41.386851],"type":"Point"},"properties":{"osm_id":"2900447803","tag":{"amenity":"recycling","recycling_type":"container"}},"type":"Feature"},
	{"geometry":{"coordinates":[2.000425,41.38772],"type":"Point"},"properties":{"osm_id":"2900447813","tag":{"amenity":"recycling","recycling_type":"container"}},"type":"Feature"},
	{"geometry":{"coordinates":[2.001569,41.381271],"type":"Point"},"properties":{"osm_id":"2904912361","tag":{"amenity":"recycling","recycling_type":"container"}},"type":"Feature"},
	{"geometry":{"coordinates":[1.990645,41.393586],"type":"Point"},"properties":{"osm_id":"2907424635","tag":{"amenity":"recycling","recycling_type":"container"}},"type":"Feature"},
	{"geometry":{"coordinates":[2.011425,41.390421],"type":"Point"},"properties":{"osm_id":"2910119029","tag":{"amenity":"recycling","recycling_type":"container"}},"type":"Feature"},
	{"geometry":{"coordinates":[2.012551,41.391259],"type":"Point"},"properties":{"osm_id":"2918049146","tag":{"amenity":"recycling","recycling_type":"container"}},"type":"Feature"},
	{"geometry":{"coordinates":[2.007091,41.399693],"type":"Point"},"properties":{"osm_id":"2961903291","tag":{"amenity":"recycling","recycling_type":"container"}},"type":"Feature"},
	{"geometry":{"coordinates":[2.008196,41.398159],"type":"Point"},"properties":{"osm_id":"2991311804","tag":{"amenity":"recycling","recycling_type":"container"}},"type":"Feature"},
	{"geometry":{"coordinates":[1.965736,41.413215],"type":"Point"},"properties":{"osm_id":"3062508302","tag":{"amenity":"waste_basket"}},"type":"Feature"},
	{"geometry":{"coordinates":[1.970277,41.411826],"type":"Point"},"properties":{"osm_id":"3064399725","tag":{"amenity":"waste_basket"}},"type":"Feature"},
	{"geometry":{"coordinates":[1.970139,41.411872],"type":"Point"},"properties":{"osm_id":"3064399726","tag":{"amenity":"waste_basket"}},"type":"Feature"},
	{"geometry":{"coordinates":[1.970295,41.411986],"type":"Point"},"properties":{"osm_id":"3064399729","tag":{"amenity":"waste_basket"}},"type":"Feature"},
	{"geometry":{"coordinates":[2.005102,41.398978],"type":"Point"},"properties":{"osm_id":"3123833029","tag":{"amenity":"recycling","recycling:cans":"yes","recycling:glass_bottles":"yes","recycling:paper":"yes","recycling:plastic":"yes","recycling_type":"container"}},"type":"Feature"},
	{"geometry":{"coordinates":[2.003049,41.388223],"type":"Point"},"properties":{"osm_id":"3153528626","tag":{"amenity":"recycling","recycling_type":"container"}},"type":"Feature"},
	{"geometry":{"coordinates":[2.005005,41.378714],"type":"Point"},"properties":{"osm_id":"3156143461","tag":{"addr:city":"Santa Coloma de Cervell\u00f3","addr:housenumber":"50","addr:postcode":"08690","addr:street":"Carrer Bonavista","amenity":"recycling","operator":"Ajuntament de Santa Coloma de Cervell\u00f3","recycling:cans":"no","recycling:clothes":"no","recycling:glass":"no","recycling:paper":"no","recycling_type":"container"}},"type":"Feature"},
	{"geometry":{"coordinates":[2.007993,41.378005],"type":"Point"},"properties":{"osm_id":"3156181634","tag":{"addr:city":"Santa Coloma de Cervell\u00f3","addr:housenumber":"32","addr:postcode":"08690","addr:street":"Carrer Bonavista","amenity":"recycling","operator":"Ajuntament de Santa Coloma de Cervell\u00f3","recycling:cans":"no","recycling:clothes":"no","recycling:glass":"no","recycling:green_waste":"S\u00ed (1)","recycling:paper":"no","recycling_type":"container"}},"type":"Feature"},
	{"geometry":{"coordinates":[2.009902,41.377834],"type":"Point"},"properties":{"osm_id":"3156190577","tag":{"addr:city":"Santa Coloma de Cervell\u00f3","addr:housenumber":"22","addr:postcode":"08690","addr:street":"Carrer Bonavista","amenity":"recycling","operator":"Ajuntament de Santa Coloma de Cervell\u00f3","recycling:cans":"no","recycling:clothes":"no","recycling:glass":"no","recycling:green_waste":"S\u00ed (1)","recycling:paper":"no","recycling_type":"container"}},"type":"Feature"},
	{"geometry":{"coordinates":[2.011698,41.378556],"type":"Point"},"properties":{"name":"Contenidors de reciclatge","osm_id":"3156197149","tag":{"addr:city":"Santa Coloma de Cervell\u00f3","addr:housenumber":"12","addr:postcode":"08690","addr:street":"Avinguda de les Flors","amenity":"recycling","operator":"Ajuntament de Santa Coloma de Cervell\u00f3","recycling:cans":"yes","recycling:clothes":"no","recycling:glass_bottles":"yes","recycling:paper":"yes","recycling:plastic":"yes","recycling:plastic:capacity":"1"}},"type":"Feature"},
	{"geometry":{"coordinates":[2.011237,41.37762],"type":"Point"},"properties":{"osm_id":"3156198042","tag":{"addr:city":"Santa Coloma de Cervell\u00f3","addr:housenumber":"14","addr:postcode":"08690","addr:street":"Carrer Bonavista","amenity":"recycling","operator":"Ajuntament de Santa Coloma de Cervell\u00f3","recycling:cans":"no","recycling:clothes":"no","recycling:glass":"no","recycling:green_waste":"S\u00ed (1)","recycling:paper":"no","recycling_type":"container"}},"type":"Feature"},
	{"geometry":{"coordinates":[2.011857,41.378506],"type":"Point"},"properties":{"osm_id":"3156201652","tag":{"addr:city":"Santa Coloma de Cervell\u00f3","addr:housenumber":"5","addr:postcode":"08690","addr:street":"Avinguda de les Flors","amenity":"recycling","operator":"Ajuntament de Santa Coloma de Cervell\u00f3","recycling:cans":"no","recycling:clothes":"no","recycling:glass":"no","recycling:green_waste":"S\u00ed (1)","recycling:paper":"no","recycling_type":"container"}},"type":"Feature"},
	{"geometry":{"coordinates":[2.007958,41.379217],"type":"Point"},"properties":{"name":"Contenidors de reciclatge","osm_id":"3156211188","tag":{"addr:city":"Santa Coloma de Cervell\u00f3","addr:housenumber":"30","addr:postcode":"08690","addr:street":"Avinguda de les Flors","amenity":"recycling","operator":"Ajuntament de Santa Coloma de Cervell\u00f3","recycling:cans":"no","recycling:clothes":"no","recycling:glass":"no","recycling:green_waste":"S\u00ed (2)","recycling:paper":"no"}},"type":"Feature"},
	{"geometry":{"coordinates":[2.00969,41.378517],"type":"Point"},"properties":{"osm_id":"3156211271","tag":{"addr:city":"Santa Coloma de Cervell\u00f3","addr:housenumber":"30","addr:postcode":"08690","addr:street":"Avinguda de les Flors","amenity":"recycling","operator":"Ajuntament de Santa Coloma de Cervell\u00f3","recycling:cans":"no","recycling:clothes":"no","recycling:glass":"no","recycling:green_waste":"S\u00ed (1)","recycling:paper":"no","recycling_type":"container"}},"type":"Feature"},
	{"geometry":{"coordinates":[2.006103,41.389791],"type":"Point"},"properties":{"osm_id":"3161180553","tag":{"amenity":"waste_basket"}},"type":"Feature"},
	{"geometry":{"coordinates":[2.007479,41.389406],"type":"Point"},"properties":{"osm_id":"3161190058","tag":{"amenity":"recycling","recycling_type":"container"}},"type":"Feature"},
	{"geometry":{"coordinates":[2.007472,41.400233],"type":"Point"},"properties":{"osm_id":"3190184404","tag":{"amenity":"recycling","recycling_type":"container"}},"type":"Feature"},
	{"geometry":{"coordinates":[2.007506,41.39288],"type":"Point"},"properties":{"osm_id":"3222268654","tag":{"amenity":"recycling","recycling_type":"container"}},"type":"Feature"},
	{"geometry":{"coordinates":[2.000866,41.392006],"type":"Point"},"properties":{"osm_id":"3314144346","tag":{"amenity":"recycling","recycling_type":"container"}},"type":"Feature"},
	{"geometry":{"coordinates":[1.958628,41.399551],"type":"Point"},"properties":{"osm_id":"3348631113","tag":{"amenity":"recycling","recycling:glass_bottles":"yes","recycling:paper":"yes"}},"type":"Feature"},
	{"geometry":{"coordinates":[2.005465,41.40076],"type":"Point"},"properties":{"osm_id":"3376824587","tag":{"amenity":"recycling","recycling_type":"container"}},"type":"Feature"},
	{"geometry":{"coordinates":[2.009361,41.380916],"type":"Point"},"properties":{"osm_id":"3437796068","tag":{"amenity":"recycling","recycling_type":"container"}},"type":"Feature"},
	{"geometry":{"coordinates":[2.006676,41.399474],"type":"Point"},"properties":{"osm_id":"3809229405","tag":{"amenity":"waste_basket"}},"type":"Feature"},
	{"geometry":{"coordinates":[2.006517,41.399554],"type":"Point"},"properties":{"osm_id":"3809229407","tag":{"amenity":"waste_basket"}},"type":"Feature"},
	{"geometry":{"coordinates":[2.006901,41.399571],"type":"Point"},"properties":{"osm_id":"3809229409","tag":{"amenity":"waste_basket"}},"type":"Feature"},
	{"geometry":{"coordinates":[2.006636,41.399635],"type":"Point"},"properties":{"osm_id":"3809229411","tag":{"amenity":"waste_basket"}},"type":"Feature"},
	{"geometry":{"coordinates":[2.007,41.399701],"type":"Point"},"properties":{"osm_id":"3809229413","tag":{"amenity":"waste_basket"}},"type":"Feature"},
	{"geometry":{"coordinates":[2.011175,41.423182],"type":"Point"},"properties":{"name":"Planta de Triatge de Molins de Rei","osm_id":"3992140656","tag":{"amenity":"recycling","recycling_type":"centre"}},"type":"Feature"},
	{"geometry":{"coordinates":[2.009854,41.397059],"type":"Point"},"properties":{"osm_id":"4427534504","tag":{"amenity":"waste_basket"}},"type":"Feature"},
	{"geometry":{"coordinates":[2.010207,41.397175],"type":"Point"},"properties":{"osm_id":"4427534535","tag":{"amenity":"waste_basket"}},"type":"Feature"},
	{"geometry":{"coordinates":[2.009596,41.397248],"type":"Point"},"properties":{"osm_id":"4427534542","tag":{"amenity":"waste_basket"}},"type":"Feature"},
	{"geometry":{"coordinates":[2.0098,41.397335],"type":"Point"},"properties":{"osm_id":"4427534559","tag":{"amenity":"waste_basket"}},"type":"Feature"},
	{"geometry":{"coordinates":[2.009899,41.397514],"type":"Point"},"properties":{"osm_id":"4427534561","tag":{"amenity":"waste_basket"}},"type":"Feature"},
	{"geometry":{"coordinates":[2.00931,41.397872],"type":"Point"},"properties":{"osm_id":"4427534747","tag":{"amenity":"waste_basket"}},"type":"Feature"},
	{"geometry":{"coordinates":[2.009639,41.398033],"type":"Point"},"properties":{"osm_id":"4427534773","tag":{"amenity":"waste_basket"}},"type":"Feature"},
	{"geometry":{"coordinates":[2.009679,41.396969],"type":"Point"},"properties":{"osm_id":"4427613759","tag":{"amenity":"waste_basket"}},"type":"Feature"},
	{"geometry":{"coordinates":[2.009747,41.397157],"type":"Point"},"properties":{"osm_id":"4427613769","tag":{"amenity":"waste_basket"}},"type":"Feature"},
	{"geometry":{"coordinates":[2.009813,41.39785],"type":"Point"},"properties":{"osm_id":"4427613787","tag":{"amenity":"waste_basket"}},"type":"Feature"},
	{"geometry":{"coordinates":[2.010144,41.390773],"type":"Point"},"properties":{"osm_id":"6505786868","tag":{"amenity":"recycling","recycling_type":"container"}},"type":"Feature"},
	{"geometry":{"coordinates":[1.96973,41.414573],"type":"Point"},"properties":{"osm_id":"7129527086","tag":{"amenity":"waste_basket"}},"type":"Feature"}
]
}
