{
"type": "FeatureCollection",
"features": [
	{"geometry":{"coordinates":[2.007847,41.361304],"type":"Point"},"properties":{"osm_id":"3156223257","tag":{"addr:city":"Santa Coloma de Cervell\u00c3\u00b3","addr:housenumber":"6 - 10","addr:postcode":"08690","addr:street":"Carrer Antoni Gaud\u00c3\u00ad","amenity":"recycling","operator":"Ajuntament de Santa Coloma de Cervell\u00c3\u00b3","recycling:cans":"yes","recycling:cardboard":"yes","recycling:clothes":"yes","recycling:glass_bottles":"yes","recycling:green_waste":"S\u00c3\u00ad (2)","recycling:paper":"yes","recycling:plastic":"yes","recycling:plastic:capacity":"1","recycling_type":"container"}},"type":"Feature"},
	{"geometry":{"coordinates":[2.005001,41.361428],"type":"Point"},"properties":{"osm_id":"3156223865","tag":{"addr:city":"Santa Coloma de Cervell\u00c3\u00b3","addr:housenumber":"1","addr:postcode":"08690","addr:street":"Carrer Joan Bardina","amenity":"recycling","operator":"Ajuntament de Santa Coloma de Cervell\u00c3\u00b3","recycling:cans":"no","recycling:clothes":"no","recycling:glass":"no","recycling:green_waste":"S\u00c3\u00ad (1)","recycling:paper":"no","recycling_type":"container"}},"type":"Feature"},
	{"geometry":{"coordinates":[2.006199,41.360456],"type":"Point"},"properties":{"osm_id":"3156249374","tag":{"addr:city":"Santa Coloma de Cervell\u00c3\u00b3","addr:housenumber":"5","addr:postcode":"08690","addr:street":"carrer Pablo Picasso","amenity":"recycling","operator":"Ajuntament de Santa Coloma de Cervell\u00c3\u00b3","recycling:cans":"no","recycling:clothes":"no","recycling:glass":"no","recycling:green_waste":"S\u00c3\u00ad (1)","recycling:paper":"no","recycling_type":"container"}},"type":"Feature"},
	{"geometry":{"coordinates":[2.005848,41.359777],"type":"Point"},"properties":{"osm_id":"3156255703","tag":{"addr:city":"Santa Coloma de Cervell\u00c3\u00b3","addr:housenumber":"38","addr:postcode":"08690","addr:street":"avinguda Comte Ramon Berenguer","amenity":"recycling","operator":"Ajuntament de Santa Coloma de Cervell\u00c3\u00b3","recycling:cans":"yes","recycling:clothes":"no","recycling:glass_bottles":"yes","recycling:paper":"yes","recycling:plastic":"yes","recycling:plastic:capacity":"1","recycling_type":"container"}},"type":"Feature"},
	{"geometry":{"coordinates":[2.004859,41.359112],"type":"Point"},"properties":{"osm_id":"3156255704","tag":{"addr:city":"Santa Coloma de Cervell\u00c3\u00b3","addr:housenumber":"48","addr:postcode":"08690","addr:street":"avinguda Comte Ramon Berenguer","amenity":"recycling","operator":"Ajuntament de Santa Coloma de Cervell\u00c3\u00b3","recycling:cans":"no","recycling:clothes":"no","recycling:glass":"no","recycling:green_waste":"S\u00c3\u00ad (1)","recycling:paper":"no","recycling_type":"container"}},"type":"Feature"},
	{"geometry":{"coordinates":[2.00566,41.358605],"type":"Point"},"properties":{"osm_id":"3156257720","tag":{"addr:city":"Santa Coloma de Cervell\u00c3\u00b3","addr:housenumber":"53","addr:postcode":"08690","addr:street":"avinguda Comte Ramon Berenguer","amenity":"recycling","operator":"Ajuntament de Santa Coloma de Cervell\u00c3\u00b3","recycling:cans":"no","recycling:clothes":"no","recycling:glass":"no","recycling:paper":"no","recycling_type":"container"}},"type":"Feature"},
	{"geometry":{"coordinates":[2.006721,41.358102],"type":"Point"},"properties":{"osm_id":"3156261272","tag":{"addr:city":"Santa Coloma de Cervell\u00c3\u00b3","addr:housenumber":"69","addr:postcode":"08690","addr:street":"avinguda Comte Ramon Berenguer","amenity":"recycling","operator":"Ajuntament de Santa Coloma de Cervell\u00c3\u00b3","recycling:cans":"no","recycling:clothes":"no","recycling:glass":"no","recycling:green_waste":"S\u00c3\u00ad (1)","recycling:paper":"no","recycling_type":"container"}},"type":"Feature"},
	{"geometry":{"coordinates":[2.004317,41.362634],"type":"Point"},"properties":{"osm_id":"3156266020","tag":{"addr:city":"Santa Coloma de Cervell\u00c3\u00b3","addr:housenumber":"49","addr:postcode":"08690","addr:street":"carrer Apel\u00c2\u00b7les Mestres","amenity":"recycling","operator":"Ajuntament de Santa Coloma de Cervell\u00c3\u00b3","recycling:cans":"no","recycling:clothes":"no","recycling:glass":"no","recycling:green_waste":"S\u00c3\u00ad (1)","recycling:paper":"no","recycling_type":"container"}},"type":"Feature"},
	{"geometry":{"coordinates":[2.001729,41.360298],"type":"Point"},"properties":{"osm_id":"3156266502","tag":{"addr:city":"Santa Coloma de Cervell\u00c3\u00b3","addr:housenumber":"156","addr:postcode":"08690","addr:street":"avinguda Comte Ramon Berenguer","amenity":"recycling","operator":"Ajuntament de Santa Coloma de Cervell\u00c3\u00b3","recycling:cans":"yes","recycling:cardboard":"yes","recycling:clothes":"no","recycling:glass_bottles":"yes","recycling:green_waste":"S\u00c3\u00ad (1)","recycling:paper":"yes","recycling:plastic":"yes","recycling:plastic:capacity":"1","recycling_type":"container"}},"type":"Feature"},
	{"geometry":{"coordinates":[1.999738,41.362216],"type":"Point"},"properties":{"osm_id":"3156274537","tag":{"addr:city":"Santa Coloma de Cervell\u00c3\u00b3","addr:housenumber":"161","addr:postcode":"08690","addr:street":"avinguda Comte Ramon Berenguer","amenity":"recycling","operator":"Ajuntament de Santa Coloma de Cervell\u00c3\u00b3","recycling:cans":"yes","recycling:clothes":"no","recycling:glass_bottles":"yes","recycling:green_waste":"S\u00c3\u00ad (2)","recycling:paper":"yes","recycling:plastic":"yes","recycling:plastic:capacity":"1","recycling_type":"container"}},"type":"Feature"},
	{"geometry":{"coordinates":[2.003836,41.363418],"type":"Point"},"properties":{"osm_id":"3156281309","tag":{"addr:city":"Santa Coloma de Cervell\u00c3\u00b3","addr:housenumber":"39","addr:postcode":"08690","addr:street":"Carrer de Joaquim Ruyra","amenity":"recycling","operator":"Ajuntament de Santa Coloma de Cervell\u00c3\u00b3","recycling:cans":"no","recycling:clothes":"no","recycling:glass":"no","recycling:green_waste":"S\u00c3\u00ad (1)","recycling:paper":"no","recycling_type":"container"}},"type":"Feature"},
	{"geometry":{"coordinates":[2.00072,41.36339],"type":"Point"},"properties":{"osm_id":"3156284913","tag":{"addr:city":"Santa Coloma de Cervell\u00c3\u00b3","addr:housenumber":"8","addr:postcode":"08690","addr:street":"Carrer de Joaquim Ruyra","amenity":"recycling","operator":"Ajuntament de Santa Coloma de Cervell\u00c3\u00b3","recycling:cans":"no","recycling:clothes":"no","recycling:glass":"no","recycling:green_waste":"S\u00c3\u00ad (1)","recycling:paper":"no","recycling_type":"container"}},"type":"Feature"},
	{"geometry":{"coordinates":[1.996806,41.362121],"type":"Point"},"properties":{"osm_id":"3156288424","tag":{"addr:city":"Torrelles de Llobregat","addr:postcode":"08629","addr:street":"Carrer Montpedr\u00c3\u00b3s","amenity":"recycling","operator":"Ajuntament de Torrelles de Llobregat","recycling:cans":"yes","recycling:clothes":"no","recycling:glass_bottles":"yes","recycling:paper":"yes","recycling_type":"container"}},"type":"Feature"},
	{"geometry":{"coordinates":[2.001997,41.35899],"type":"Point"},"properties":{"osm_id":"3156297701","tag":{"addr:city":"Santa Coloma de Cervell\u00c3\u00b3","addr:housenumber":"9","addr:postcode":"08690","addr:street":"carrer LLobregat","amenity":"recycling","operator":"Ajuntament de Santa Coloma de Cervell\u00c3\u00b3","recycling:cans":"no","recycling:clothes":"no","recycling:glass":"no","recycling:green_waste":"S\u00c3\u00ad (1)","recycling:paper":"no","recycling_type":"container"}},"type":"Feature"},
	{"geometry":{"coordinates":[2.004905,41.357335],"type":"Point"},"properties":{"osm_id":"3156297702","tag":{"addr:city":"Santa Coloma de Cervell\u00c3\u00b3","addr:housenumber":"25","addr:postcode":"08690","addr:street":"carrer Mir\u00c3\u00b3","amenity":"recycling","operator":"Ajuntament de Santa Coloma de Cervell\u00c3\u00b3","recycling:cans":"yes","recycling:cardboard":"yes","recycling:clothes":"no","recycling:glass_bottles":"yes","recycling:green_waste":"S\u00c3\u00ad (1)","recycling:paper":"yes","recycling:plastic":"yes","recycling:plastic:capacity":"1","recycling_type":"container"}},"type":"Feature"},
	{"geometry":{"coordinates":[2.018842,41.372972],"type":"Point"},"properties":{"osm_id":"3159305148","tag":{"addr:city":"Santa coloma de Cervell\u00c3\u00b3","addr:housenumber":"64","addr:postcode":"08690","addr:street":"Carrer Doctor Barraquer","amenity":"recycling","operator":"Ajuntament de Santa Coloma de Cervell\u00c3\u00b3","recycling:cans":"yes","recycling:cardboard":"yes","recycling:clothes":"no","recycling:glass_bottles":"yes","recycling:green_waste":"S\u00c3\u00ad (1)","recycling:paper":"yes","recycling:plastic":"yes","recycling:plastic:capacity":"1","recycling_type":"container"}},"type":"Feature"},
	{"geometry":{"coordinates":[2.018268,41.372178],"type":"Point"},"properties":{"osm_id":"3159312377","tag":{"addr:city":"Santa coloma de Cervell\u00c3\u00b3","addr:housenumber":"58","addr:postcode":"08690","addr:street":"Carrer Doctor Barraquer","amenity":"recycling","operator":"Ajuntament de Santa Coloma de Cervell\u00c3\u00b3","recycling:cans":"no","recycling:clothes":"no","recycling:glass":"no","recycling:green_waste":"S\u00c3\u00ad (1)","recycling:paper":"no","recycling_type":"container"}},"type":"Feature"},
	{"geometry":{"coordinates":[2.01747,41.371152],"type":"Point"},"properties":{"osm_id":"3159314772","tag":{"addr:city":"Santa Coloma de Cervell\u00c3\u00b3","addr:housenumber":"24","addr:postcode":"08690","addr:street":"Carrer Doctor Barraquer","amenity":"recycling","operator":"Ajuntament de Santa Coloma de Cervell\u00c3\u00b3","recycling:cans":"yes","recycling:cardboard":"yes","recycling:clothes":"no","recycling:glass_bottles":"yes","recycling:green_waste":"S\u00c3\u00ad (2)","recycling:paper":"yes","recycling:plastic":"yes","recycling:plastic:capacity":"1","recycling_type":"container"}},"type":"Feature"},
	{"geometry":{"coordinates":[2.016589,41.370153],"type":"Point"},"properties":{"osm_id":"3159329702","tag":{"addr:city":"Santa Coloma de Cervell\u00c3\u00b3","addr:housenumber":"2","addr:postcode":"08690","addr:street":"Carrer Doctor Barraquer","amenity":"recycling","operator":"Ajuntament de Santa Coloma de Cervell\u00c3\u00b3","recycling:cans":"no","recycling:clothes":"no","recycling:glass":"no","recycling:green_waste":"S\u00c3\u00ad (1)","recycling:paper":"no","recycling_type":"container"}},"type":"Feature"},
	{"geometry":{"coordinates":[2.017886,41.370739],"type":"Point"},"properties":{"osm_id":"3159334200","tag":{"addr:city":"Santa Coloma de Cervell\u00c3\u00b3","addr:housenumber":"31","addr:postcode":"08690","addr:street":"Avinguda Can Lluch","amenity":"recycling","operator":"Ajuntament de Santa Coloma de Cervell\u00c3\u00b3","recycling:cans":"no","recycling:clothes":"no","recycling:glass":"no","recycling:paper":"no","recycling_type":"container"}},"type":"Feature"},
	{"geometry":{"coordinates":[2.017509,41.370053],"type":"Point"},"properties":{"osm_id":"3159334341","tag":{"addr:city":"Santa Coloma de Cervell\u00c3\u00b3","addr:housenumber":"17","addr:postcode":"08690","addr:street":"Avinguda Can Lluch","amenity":"recycling","operator":"Ajuntament de Santa Coloma de Cervell\u00c3\u00b3","recycling:cans":"no","recycling:clothes":"no","recycling:glass":"no","recycling:green_waste":"S\u00c3\u00ad (1)","recycling:paper":"no","recycling_type":"container"}},"type":"Feature"},
	{"geometry":{"coordinates":[2.016676,41.3695],"type":"Point"},"properties":{"osm_id":"3159340564","tag":{"addr:city":"Santa Coloma de Cervell\u00c3\u00b3","addr:postcode":"08690","addr:street":"Avinguda de l'Onze de Setembre","amenity":"recycling","operator":"Ajuntament de Santa Coloma de Cervell\u00c3\u00b3","recycling:cans":"yes","recycling:cardboard":"yes","recycling:clothes":"yes","recycling:glass_bottles":"yes","recycling:green_waste":"S\u00c3\u00ad (2)","recycling:paper":"yes","recycling:plastic":"yes","recycling:plastic:capacity":"1","recycling_type":"container"}},"type":"Feature"},
	{"geometry":{"coordinates":[2.018652,41.369787],"type":"Point"},"properties":{"osm_id":"3159348307","tag":{"addr:city":"Santa Coloma de Cervell\u00c3\u00b3","addr:housenumber":"28","addr:postcode":"08690","addr:street":"Carrer Joan XXIII","amenity":"recycling","operator":"Ajuntament de Santa Coloma de Cervell\u00c3\u00b3","recycling:cans":"yes","recycling:cardboard":"yes","recycling:clothes":"no","recycling:glass_bottles":"yes","recycling:green_waste":"S\u00c3\u00ad (1)","recycling:paper":"yes","recycling:plastic":"yes","recycling:plastic:capacity":"1","recycling_type":"container"}},"type":"Feature"},
	{"geometry":{"coordinates":[2.019514,41.369465],"type":"Point"},"properties":{"osm_id":"3159351089","tag":{"addr:city":"Santa Coloma de Cervell\u00c3\u00b3","addr:housenumber":"26","addr:postcode":"08690","addr:street":"Carrer Joan XXIII","amenity":"recycling","operator":"Ajuntament de Santa Coloma de Cervell\u00c3\u00b3","recycling:cans":"no","recycling:clothes":"no","recycling:glass":"no","recycling:green_waste":"S\u00c3\u00ad (1)","recycling:paper":"no","recycling_type":"container"}},"type":"Feature"},
	{"geometry":{"coordinates":[2.018966,41.370429],"type":"Point"},"properties":{"osm_id":"3159361378","tag":{"addr:city":"Santa Coloma de Cervell\u00c3\u00b3","addr:housenumber":"13","addr:postcode":"08690","addr:street":"Carrer Oriol Martorell","amenity":"recycling","operator":"Ajuntament de Santa Coloma de Cervell\u00c3\u00b3","recycling:cans":"yes","recycling:cardboard":"yes","recycling:clothes":"no","recycling:glass_bottles":"yes","recycling:green_waste":"S\u00c3\u00ad (1)","recycling:paper":"yes","recycling:plastic":"yes","recycling:plastic:capacity":"2","recycling_type":"container"}},"type":"Feature"},
	{"geometry":{"coordinates":[2.020322,41.36978],"type":"Point"},"properties":{"osm_id":"3159362286","tag":{"addr:city":"Santa Coloma de Cervell\u00c3\u00b3","addr:housenumber":"1","addr:postcode":"08690","addr:street":"Carrer Oriol Martorell","amenity":"recycling","operator":"Ajuntament de Santa Coloma de Cervell\u00c3\u00b3","recycling:cans":"yes","recycling:cardboard":"yes","recycling:clothes":"yes","recycling:glass_bottles":"yes","recycling:green_waste":"S\u00c3\u00ad (2)","recycling:paper":"yes","recycling:plastic":"yes","recycling:plastic:capacity":"2","recycling_type":"container"}},"type":"Feature"},
	{"geometry":{"coordinates":[2.020474,41.371359],"type":"Point"},"properties":{"osm_id":"3159374280","tag":{"addr:city":"Santa Coloma de Cervell\u00c3\u00b3","addr:postcode":"08690","addr:street":"Avinguda la Pau","amenity":"recycling","operator":"Ajuntament de Santa Coloma de Cervell\u00c3\u00b3","recycling:cans":"yes","recycling:cardboard":"yes","recycling:clothes":"no","recycling:glass_bottles":"yes","recycling:green_waste":"S\u00c3\u00ad (1)","recycling:paper":"yes","recycling:plastic":"yes","recycling:plastic:capacity":"1","recycling_type":"container"}},"type":"Feature"},
	{"geometry":{"coordinates":[2.020869,41.370852],"type":"Point"},"properties":{"osm_id":"3159381362","tag":{"addr:city":"Santa Coloma de Cervell\u00c3\u00b3","addr:housenumber":"8","addr:postcode":"08690","addr:street":"Avinguda la Pau","amenity":"recycling","operator":"Ajuntament de Santa Coloma de Cervell\u00c3\u00b3","recycling:cans":"no","recycling:clothes":"no","recycling:glass":"no","recycling:green_waste":"S\u00c3\u00ad (1)","recycling:paper":"no","recycling_type":"container"}},"type":"Feature"},
	{"geometry":{"coordinates":[2.021168,41.3703],"type":"Point"},"properties":{"osm_id":"3159388276","tag":{"addr:city":"Santa Coloma de Cervell\u00c3\u00b3","addr:housenumber":"4","addr:postcode":"08690","addr:street":"Avinguda la Pau","amenity":"recycling","operator":"Ajuntament de Santa Coloma de Cervell\u00c3\u00b3","recycling:cans":"yes","recycling:cardboard":"yes","recycling:clothes":"no","recycling:glass_bottles":"yes","recycling:green_waste":"S\u00c3\u00ad (1)","recycling:paper":"yes","recycling:plastic":"yes","recycling:plastic:capacity":"1","recycling_type":"container"}},"type":"Feature"},
	{"geometry":{"coordinates":[2.018784,41.368952],"type":"Point"},"properties":{"osm_id":"3159391526","tag":{"addr:city":"Santa Coloma de Cervell\u00c3\u00b3","addr:housenumber":"16","addr:postcode":"08690","addr:street":"Avinguda Pa\u00c3\u00afsos Catalans","amenity":"recycling","operator":"Ajuntament de Santa Coloma de Cervell\u00c3\u00b3","recycling:cans":"yes","recycling:cardboard":"yes","recycling:clothes":"no","recycling:glass_bottles":"yes","recycling:green_waste":"S\u00c3\u00ad (1)","recycling:paper":"yes","recycling:plastic":"yes","recycling:plastic:capacity":"1","recycling_type":"container"}},"type":"Feature"},
	{"geometry":{"coordinates":[2.017509,41.368627],"type":"Point"},"properties":{"osm_id":"3159397705","tag":{"addr:city":"Santa Coloma de Cervell\u00c3\u00b3","addr:postcode":"08690","addr:street":"Avinguda Pa\u00c3\u00afsos Catalans","amenity":"recycling","operator":"Ajuntament de Santa Coloma de Cervell\u00c3\u00b3","recycling:cans":"no","recycling:clothes":"no","recycling:glass":"no","recycling:green_waste":"S\u00c3\u00ad (1)","recycling:paper":"no","recycling_type":"container"}},"type":"Feature"},
	{"geometry":{"coordinates":[2.015819,41.368418],"type":"Point"},"properties":{"osm_id":"3159415662","tag":{"addr:city":"Santa Coloma de Cervell\u00c3\u00b3","addr:housenumber":"21","addr:postcode":"08690","addr:street":"Avinguda Pau Casals","amenity":"recycling","operator":"Ajuntament de Santa Coloma de Cervell\u00c3\u00b3","recycling:cans":"yes","recycling:cardboard":"yes","recycling:clothes":"no","recycling:glass_bottles":"yes","recycling:green_waste":"S\u00c3\u00ad (1)","recycling:paper":"yes","recycling:plastic":"yes","recycling:plastic:capacity":"1","recycling_type":"container"}},"type":"Feature"},
	{"geometry":{"coordinates":[2.01572,41.367713],"type":"Point"},"properties":{"osm_id":"3159457141","tag":{"addr:city":"Santa Coloma de Cervell\u00c3\u00b3","addr:housenumber":"4","addr:postcode":"08690","addr:street":"Pl. Constituci\u00c3\u00b3","amenity":"recycling","operator":"Ajuntament de Santa Coloma de Cervell\u00c3\u00b3","recycling:cans":"no","recycling:clothes":"no","recycling:glass":"no","recycling:green_waste":"S\u00c3\u00ad (2)","recycling:paper":"no","recycling_type":"container"}},"type":"Feature"},
	{"geometry":{"coordinates":[2.015722,41.367742],"type":"Point"},"properties":{"osm_id":"3159460922","tag":{"addr:city":"Santa Coloma de Cervell\u00c3\u00b3","addr:postcode":"08690","addr:street":"Pl. Constituci\u00c3\u00b3","amenity":"recycling","operator":"Ajuntament de Santa Coloma de Cervell\u00c3\u00b3","recycling:cans":"yes","recycling:clothes":"yes","recycling:glass_bottles":"yes","recycling:paper":"yes","recycling:plastic":"yes","recycling:plastic:capacity":"1","recycling_type":"container"}},"type":"Feature"},
	{"geometry":{"coordinates":[2.015928,41.367588],"type":"Point"},"properties":{"osm_id":"3159468859","tag":{"addr:city":"Santa Coloma de Cervell\u00c3\u00b3","addr:postcode":"08690","addr:street":"Carrer Agust\u00c3\u00ad Pere Pons","amenity":"recycling","operator":"Ajuntament de Santa Coloma de Cervell\u00c3\u00b3","recycling:cans":"yes","recycling:cardboard":"yes","recycling:clothes":"no","recycling:glass_bottles":"yes","recycling:green_waste":"S\u00c3\u00ad (1)","recycling:paper":"yes","recycling_type":"centre"}},"type":"Feature"},
	{"geometry":{"coordinates":[2.015121,41.366706],"type":"Point"},"properties":{"osm_id":"3159478401","tag":{"addr:city":"Santa Coloma de Cervell\u00c3\u00b3","addr:postcode":"08690","addr:street":"Carrer de l' Esgl\u00c3\u00a8sia","amenity":"recycling","operator":"Ajuntament de Santa Coloma de Cervell\u00c3\u00b3","recycling:cans":"no","recycling:clothes":"yes","recycling:glass":"no","recycling:paper":"yes","recycling_type":"container"}},"type":"Feature"},
	{"geometry":{"coordinates":[2.014162,41.366019],"type":"Point"},"properties":{"osm_id":"3159486064","tag":{"addr:city":"Santa Coloma de Cervell\u00c3\u00b3","addr:postcode":"08690","addr:street":"Carrer Font Vella","amenity":"recycling","operator":"Ajuntament de Santa Coloma de Cervell\u00c3\u00b3","recycling:cans":"yes","recycling:cardboard":"yes","recycling:clothes":"no","recycling:glass_bottles":"yes","recycling:green_waste":"S\u00c3\u00ad (1)","recycling:paper":"yes","recycling:plastic":"yes","recycling:plastic:capacity":"1","recycling_type":"container"}},"type":"Feature"},
	{"geometry":{"coordinates":[2.017468,41.367475],"type":"Point"},"properties":{"osm_id":"3159488869","tag":{"addr:city":"Santa Coloma de Cervell\u00c3\u00b3","addr:postcode":"08690","addr:street":"Avinguda Baix Llobregat","amenity":"recycling","operator":"Ajuntament de Santa Coloma de Cervell\u00c3\u00b3","recycling:cans":"yes","recycling:cardboard":"yes","recycling:clothes":"no","recycling:glass_bottles":"yes","recycling:green_waste":"S\u00c3\u00ad (2)","recycling:paper":"yes","recycling:plastic":"yes","recycling:plastic:capacity":"1","recycling_type":"container"}},"type":"Feature"},
	{"geometry":{"coordinates":[2.018194,41.367386],"type":"Point"},"properties":{"osm_id":"3159524461","tag":{"addr:city":"Santa Coloma de Cervell\u00c3\u00b3","addr:housenumber":"14","addr:postcode":"08690","addr:street":"Avinguda Baix Llobregat","amenity":"recycling","operator":"Ajuntament de Santa Coloma de Cervell\u00c3\u00b3","recycling:cans":"no","recycling:clothes":"no","recycling:glass":"no","recycling:green_waste":"S\u00c3\u00ad (1)","recycling:paper":"no","recycling_type":"container"}},"type":"Feature"},
	{"geometry":{"coordinates":[2.017854,41.3681],"type":"Point"},"properties":{"osm_id":"3159525310","tag":{"addr:city":"Santa Coloma de Cervell\u00c3\u00b3","addr:housenumber":"16","addr:postcode":"08690","addr:street":"Avinguda Santa Coloma","amenity":"recycling","operator":"Ajuntament de Santa Coloma de Cervell\u00c3\u00b3","recycling:cans":"yes","recycling:cardboard":"yes","recycling:clothes":"yes","recycling:glass_bottles":"yes","recycling:green_waste":"S\u00c3\u00ad (2)","recycling:paper":"yes","recycling:plastic":"yes","recycling:plastic:capacity":"1","recycling_type":"container"}},"type":"Feature"},
	{"geometry":{"coordinates":[2.019338,41.368191],"type":"Point"},"properties":{"osm_id":"3159531113","tag":{"addr:city":"Santa Coloma de Cervell\u00c3\u00b3","addr:housenumber":"7","addr:postcode":"08690","addr:street":"Avinguda Santa Coloma","amenity":"recycling","operator":"Ajuntament de Santa Coloma de Cervell\u00c3\u00b3","recycling:cans":"yes","recycling:clothes":"no","recycling:glass_bottles":"yes","recycling:paper":"yes","recycling:plastic":"yes","recycling:plastic:capacity":"2","recycling_type":"container"}},"type":"Feature"},
	{"geometry":{"coordinates":[2.019275,41.368089],"type":"Point"},"properties":{"osm_id":"3159536266","tag":{"addr:city":"Santa Coloma de Cervell\u00c3\u00b3","addr:housenumber":"36","addr:postcode":"08690","addr:street":"Avinguda Santa Coloma","amenity":"recycling","operator":"Ajuntament de Santa Coloma de Cervell\u00c3\u00b3","recycling:cans":"no","recycling:clothes":"no","recycling:glass":"no","recycling:green_waste":"S\u00c3\u00ad (2)","recycling:paper":"no","recycling_type":"container"}},"type":"Feature"},
	{"geometry":{"coordinates":[2.020004,41.368163],"type":"Point"},"properties":{"osm_id":"3159567967","tag":{"addr:city":"Santa Coloma de Cervell\u00c3\u00b3","addr:housenumber":"46","addr:postcode":"08690","addr:street":"Avinguda Santa Coloma","amenity":"recycling","operator":"Ajuntament de Santa Coloma de Cervell\u00c3\u00b3","recycling:cans":"no","recycling:clothes":"no","recycling:glass":"no","recycling:green_waste":"S\u00c3\u00ad (2)","recycling:paper":"no","recycling_type":"container"}},"type":"Feature"},
	{"geometry":{"coordinates":[2.020213,41.367327],"type":"Point"},"properties":{"osm_id":"3159577431","tag":{"addr:city":"Santa Coloma de Cervell\u00c3\u00b3","addr:housenumber":"42","addr:postcode":"08690","addr:street":"Avinguda Baix Llobregat","amenity":"recycling","operator":"Ajuntament de Santa Coloma de Cervell\u00c3\u00b3","recycling:cans":"no","recycling:clothes":"no","recycling:glass":"no","recycling:green_waste":"S\u00c3\u00ad (2)","recycling:paper":"no","recycling_type":"container"}},"type":"Feature"},
	{"geometry":{"coordinates":[2.020945,41.36831],"type":"Point"},"properties":{"osm_id":"3159585992","tag":{"addr:city":"Santa Coloma de Cervell\u00c3\u00b3","addr:housenumber":"64","addr:postcode":"08690","addr:street":"Avinguda Santa Coloma","amenity":"recycling","operator":"Ajuntament de Santa Coloma de Cervell\u00c3\u00b3","recycling:cans":"no","recycling:clothes":"no","recycling:glass":"no","recycling:green_waste":"S\u00c3\u00ad (2)","recycling:paper":"no","recycling_type":"container"}},"type":"Feature"},
	{"geometry":{"coordinates":[2.021222,41.368331],"type":"Point"},"properties":{"osm_id":"3159594602","tag":{"addr:city":"Santa Coloma de Cervell\u00c3\u00b3","addr:housenumber":"68","addr:postcode":"08690","addr:street":"Avinguda Santa Coloma","amenity":"recycling","operator":"Ajuntament de Santa Coloma de Cervell\u00c3\u00b3","recycling:cans":"no","recycling:clothes":"no","recycling:glass":"no","recycling:green_waste":"S\u00c3\u00ad (1)","recycling:paper":"no","recycling_type":"container"}},"type":"Feature"},
	{"geometry":{"coordinates":[2.014917,41.367599],"type":"Point"},"properties":{"osm_id":"3159807711","tag":{"addr:city":"Santa Coloma de Cervell\u00c3\u00b3","addr:housenumber":"19","addr:postcode":"08690","addr:street":"Carrer Pare Pere Boronat","amenity":"recycling","operator":"Ajuntament de Santa Coloma de Cervell\u00c3\u00b3","recycling:cans":"no","recycling:clothes":"no","recycling:glass":"no","recycling:green_waste":"S\u00c3\u00ad (1)","recycling:paper":"no","recycling_type":"container"}},"type":"Feature"},
	{"geometry":{"coordinates":[2.01473,41.368127],"type":"Point"},"properties":{"osm_id":"3159813693","tag":{"addr:city":"Santa Coloma de Cervell\u00c3\u00b3","addr:housenumber":"27","addr:postcode":"08690","addr:street":"Carrer Pare Pere Boronat","amenity":"recycling","operator":"Ajuntament de Santa Coloma de Cervell\u00c3\u00b3","recycling:cans":"no","recycling:clothes":"no","recycling:glass":"no","recycling:green_waste":"S\u00c3\u00ad (1)","recycling:paper":"no","recycling_type":"container"}},"type":"Feature"},
	{"geometry":{"coordinates":[2.015233,41.36921],"type":"Point"},"properties":{"osm_id":"3159825424","tag":{"addr:city":"Santa Coloma de Cervell\u00c3\u00b3","addr:housenumber":"47","addr:postcode":"08690","addr:street":"carrer Bosc","amenity":"recycling","operator":"Ajuntament de Santa Coloma de Cervell\u00c3\u00b3","recycling:cans":"yes","recycling:cardboard":"yes","recycling:clothes":"no","recycling:glass_bottles":"yes","recycling:green_waste":"S\u00c3\u00ad (1)","recycling:paper":"yes","recycling:plastic":"yes","recycling:plastic:capacity":"1","recycling_type":"container"}},"type":"Feature"},
	{"geometry":{"coordinates":[2.014377,41.368441],"type":"Point"},"properties":{"osm_id":"3159841698","tag":{"addr:city":"Santa Coloma de Cervell\u00c3\u00b3","addr:housenumber":"40","addr:postcode":"08690","addr:street":"carrer Bosc","amenity":"recycling","operator":"Ajuntament de Santa Coloma de Cervell\u00c3\u00b3","recycling:cans":"no","recycling:clothes":"no","recycling:glass":"no","recycling:green_waste":"S\u00c3\u00ad (1)","recycling:paper":"no","recycling_type":"container"}},"type":"Feature"},
	{"geometry":{"coordinates":[2.014164,41.36796],"type":"Point"},"properties":{"osm_id":"3159848001","tag":{"addr:city":"Santa Coloma de Cervell\u00c3\u00b3","addr:postcode":"08690","addr:street":"Pl Catalunya","amenity":"recycling","operator":"Ajuntament de Santa Coloma de Cervell\u00c3\u00b3","recycling:cans":"yes","recycling:clothes":"no","recycling:glass_bottles":"yes","recycling:paper":"yes","recycling:plastic":"yes","recycling:plastic:capacity":"1","recycling_type":"container"}},"type":"Feature"},
	{"geometry":{"coordinates":[2.013718,41.366863],"type":"Point"},"properties":{"osm_id":"3159851558","tag":{"addr:city":"Santa Coloma de Cervell\u00c3\u00b3","addr:housenumber":"10","addr:postcode":"08690","addr:street":"carrer Bosc","amenity":"recycling","operator":"Ajuntament de Santa Coloma de Cervell\u00c3\u00b3","recycling:cans":"no","recycling:clothes":"no","recycling:glass":"no","recycling:green_waste":"S\u00c3\u00ad (1)","recycling:paper":"no","recycling_type":"container"}},"type":"Feature"},
	{"geometry":{"coordinates":[2.014238,41.366774],"type":"Point"},"properties":{"osm_id":"3159856242","tag":{"addr:city":"Santa Coloma de Cervell\u00c3\u00b3","addr:housenumber":"8","addr:postcode":"08690","addr:street":"carrer \u00c3\u0080ngel Guimer\u00c3\u00a0","amenity":"recycling","operator":"Ajuntament de Santa Coloma de Cervell\u00c3\u00b3","recycling:cans":"no","recycling:clothes":"no","recycling:glass":"no","recycling:green_waste":"S\u00c3\u00ad (1)","recycling:paper":"no","recycling_type":"container"}},"type":"Feature"},
	{"geometry":{"coordinates":[2.013328,41.36799],"type":"Point"},"properties":{"osm_id":"3159869450","tag":{"addr:city":"Santa Coloma de Cervell\u00c3\u00b3","addr:housenumber":"8","addr:postcode":"08690","addr:street":"carrer Montpedr\u00c3\u00b3s","amenity":"recycling","operator":"Ajuntament de Santa Coloma de Cervell\u00c3\u00b3","recycling:cans":"no","recycling:clothes":"no","recycling:glass":"no","recycling:green_waste":"S\u00c3\u00ad (1)","recycling:paper":"no","recycling_type":"container"}},"type":"Feature"},
	{"geometry":{"coordinates":[2.011605,41.369349],"type":"Point"},"properties":{"osm_id":"3159880106","tag":{"addr:city":"Santa Coloma de Cervell\u00c3\u00b3","addr:housenumber":"19","addr:postcode":"08690","addr:street":"Carrer Pirineus","amenity":"recycling","operator":"Ajuntament de Santa Coloma de Cervell\u00c3\u00b3","recycling:cans":"no","recycling:clothes":"no","recycling:glass":"no","recycling:green_waste":"S\u00c3\u00ad (1)","recycling:paper":"no","recycling_type":"container"}},"type":"Feature"},
	{"geometry":{"coordinates":[2.013049,41.36918],"type":"Point"},"properties":{"osm_id":"3159889510","tag":{"addr:city":"Santa Coloma de Cervell\u00c3\u00b3","addr:housenumber":"1","addr:postcode":"08690","addr:street":"Carrer Cad\u00c3\u00ad","amenity":"recycling","operator":"Ajuntament de Santa Coloma de Cervell\u00c3\u00b3","recycling:cans":"no","recycling:clothes":"no","recycling:glass":"no","recycling:green_waste":"S\u00c3\u00ad (1)","recycling:paper":"no","recycling_type":"container"}},"type":"Feature"},
	{"geometry":{"coordinates":[2.011121,41.367262],"type":"Point"},"properties":{"osm_id":"3161400945","tag":{"addr:city":"Santa Coloma de Cervell\u00c3\u00b3","addr:housenumber":"36","addr:postcode":"08690","addr:street":"Carrer Pins","amenity":"recycling","operator":"Ajuntament de Santa Coloma de Cervell\u00c3\u00b3","recycling:cans":"no","recycling:clothes":"no","recycling:glass":"no","recycling:green_waste":"S\u00c3\u00ad (1)","recycling:paper":"no","recycling_type":"container"}},"type":"Feature"},
	{"geometry":{"coordinates":[2.011475,41.366817],"type":"Point"},"properties":{"osm_id":"3161433876","tag":{"addr:city":"Santa Coloma de Cervell\u00c3\u00b3","addr:housenumber":"1","addr:postcode":"08690","addr:street":"Carrer del Clavell","amenity":"recycling","operator":"Ajuntament de Santa Coloma de Cervell\u00c3\u00b3","recycling:cans":"no","recycling:clothes":"no","recycling:glass":"no","recycling:green_waste":"S\u00c3\u00ad (1)","recycling:paper":"no","recycling_type":"container"}},"type":"Feature"},
	{"geometry":{"coordinates":[2.012129,41.366414],"type":"Point"},"properties":{"osm_id":"3161452326","tag":{"addr:city":"Santa Coloma de Cervell\u00c3\u00b3","addr:housenumber":"7","addr:postcode":"08690","addr:street":"Carrerde la Magnolia","amenity":"recycling","operator":"Ajuntament de Santa Coloma de Cervell\u00c3\u00b3","recycling:cans":"no","recycling:glass":"no","recycling:green_waste":"S\u00c3\u00ad (1)","recycling:paper":"no","recycling_type":"container"}},"type":"Feature"},
	{"geometry":{"coordinates":[2.012478,41.366156],"type":"Point"},"properties":{"osm_id":"3161459177","tag":{"addr:city":"Santa Coloma de Cervell\u00c3\u00b3","addr:housenumber":"42","addr:postcode":"08690","addr:street":"Carrer Sant Roc","amenity":"recycling","operator":"Ajuntament de Santa Coloma de Cervell\u00c3\u00b3","recycling:cans":"yes","recycling:cardboard":"yes","recycling:clothes":"yes","recycling:glass_bottles":"yes","recycling:green_waste":"S\u00c3\u00ad (2)","recycling:paper":"yes","recycling:plastic":"yes","recycling:plastic:capacity":"1","recycling_type":"container"}},"type":"Feature"},
	{"geometry":{"coordinates":[2.012691,41.365056],"type":"Point"},"properties":{"osm_id":"3161468218","tag":{"addr:city":"Santa Coloma de Cervell\u00c3\u00b3","addr:postcode":"08690","addr:street":"Carrer Esquirol","amenity":"recycling","operator":"Ajuntament de Santa Coloma de Cervell\u00c3\u00b3","recycling:cans":"no","recycling:clothes":"no","recycling:glass":"no","recycling:paper":"yes","recycling_type":"container"}},"type":"Feature"},
	{"geometry":{"coordinates":[2.011131,41.36407],"type":"Point"},"properties":{"osm_id":"3161472802","tag":{"addr:city":"Santa Coloma de Cervell\u00c3\u00b3","addr:postcode":"08690","addr:street":"Avinguda Cirerers","amenity":"recycling","operator":"Ajuntament de Santa Coloma de Cervell\u00c3\u00b3","recycling:cans":"yes","recycling:cardboard":"yes","recycling:clothes":"no","recycling:glass_bottles":"yes","recycling:green_waste":"S\u00c3\u00ad (2)","recycling:paper":"yes","recycling:plastic":"yes","recycling:plastic:capacity":"1","recycling_type":"container"}},"type":"Feature"},
	{"geometry":{"coordinates":[2.010333,41.364015],"type":"Point"},"properties":{"osm_id":"3161476155","tag":{"addr:city":"Santa Coloma de Cervell\u00c3\u00b3","addr:postcode":"08690","addr:street":"Avinguda Cirerers","amenity":"recycling","operator":"Ajuntament de Santa Coloma de Cervell\u00c3\u00b3","recycling:cans":"no","recycling:clothes":"no","recycling:glass":"no","recycling:green_waste":"S\u00c3\u00ad (1)","recycling:paper":"no","recycling_type":"container"}},"type":"Feature"},
	{"geometry":{"coordinates":[2.009609,41.363515],"type":"Point"},"properties":{"osm_id":"3161476375","tag":{"addr:city":"Santa Coloma de Cervell\u00c3\u00b3","addr:postcode":"08690","addr:street":"Carrer D\u00c3\u00a0lia","amenity":"recycling","operator":"Ajuntament de Santa Coloma de Cervell\u00c3\u00b3","recycling:cans":"yes","recycling:cardboard":"yes","recycling:clothes":"no","recycling:glass_bottles":"yes","recycling:green_waste":"S\u00c3\u00ad (1)","recycling:paper":"yes","recycling:plastic":"yes","recycling:plastic:capacity":"1","recycling_type":"container"}},"type":"Feature"},
	{"geometry":{"coordinates":[2.009295,41.365185],"type":"Point"},"properties":{"osm_id":"3161488377","tag":{"addr:city":"Santa Coloma de Cervell\u00c3\u00b3","addr:housenumber":"35","addr:postcode":"08690","addr:street":"Carrer Esp\u00c3\u00adgol","amenity":"recycling","operator":"Ajuntament de Santa Coloma de Cervell\u00c3\u00b3","recycling:cans":"yes","recycling:clothes":"no","recycling:glass_bottles":"yes","recycling:paper":"yes","recycling:plastic":"yes","recycling:plastic:capacity":"1","recycling_type":"container"}},"type":"Feature"},
	{"geometry":{"coordinates":[2.007514,41.365307],"type":"Point"},"properties":{"osm_id":"3161488570","tag":{"addr:city":"Santa Coloma de Cervell\u00c3\u00b3","addr:housenumber":"10","addr:postcode":"08690","addr:street":"Carrer Orenetes","amenity":"recycling","operator":"Ajuntament de Santa Coloma de Cervell\u00c3\u00b3","recycling:cans":"no","recycling:clothes":"no","recycling:glass":"no","recycling:paper":"no","recycling_type":"container"}},"type":"Feature"},
	{"geometry":{"coordinates":[2.007243,41.364323],"type":"Point"},"properties":{"osm_id":"3161489723","tag":{"addr:city":"Santa Coloma de Cervell\u00c3\u00b3","addr:housenumber":"20","addr:postcode":"08690","addr:street":"Carrer Orenetes","amenity":"recycling","operator":"Ajuntament de Santa Coloma de Cervell\u00c3\u00b3","recycling:cans":"no","recycling:clothes":"no","recycling:glass":"no","recycling:green_waste":"S\u00c3\u00ad (2)","recycling:paper":"no","recycling_type":"container"}},"type":"Feature"},
	{"geometry":{"coordinates":[2.006216,41.364638],"type":"Point"},"properties":{"osm_id":"3161495640","tag":{"addr:city":"Santa Coloma de Cervell\u00c3\u00b3","addr:housenumber":"49","addr:postcode":"08690","addr:street":"Carrer Ginesta","amenity":"recycling","operator":"Ajuntament de Santa Coloma de Cervell\u00c3\u00b3","recycling:cans":"no","recycling:clothes":"no","recycling:glass":"no","recycling:green_waste":"S\u00c3\u00ad (1)","recycling:paper":"no","recycling_type":"container"}},"type":"Feature"},
	{"geometry":{"coordinates":[2.012884,41.365163],"type":"Point"},"properties":{"osm_id":"3162847138","tag":{"addr:city":"Santa Coloma de Cervell\u00c3\u00b3","addr:housenumber":"7","addr:postcode":"08690","addr:street":"Cam\u00c3\u00ad de Can Via","amenity":"recycling","operator":"Ajuntament de Santa Coloma de Cervell\u00c3\u00b3","recycling:cans":"no","recycling:clothes":"no","recycling:glass":"no","recycling:green_waste":"S\u00c3\u00ad (1)","recycling:paper":"no","recycling_type":"container"}},"type":"Feature"},
	{"geometry":{"coordinates":[2.012426,41.369428],"type":"Point"},"properties":{"osm_id":"3255517865","tag":{"addr:city":"Santa Coloma de Cervell\u00c3\u00b3","addr:housenumber":"8","addr:postcode":"08690","addr:street":"Carrer Pirineus","amenity":"recycling","operator":"Ajuntament de Santa Coloma de Cervell\u00c3\u00b3","recycling:cans":"no","recycling:clothes":"no","recycling:glass":"no","recycling:green_waste":"S\u00c3\u00ad (1)","recycling:paper":"no","recycling_type":"container"}},"type":"Feature"},
	{"geometry":{"coordinates":[2.019888,41.36935],"type":"Point"},"properties":{"osm_id":"4608373823","tag":{"amenity":"recycling","recycling_type":"container"}},"type":"Feature"},
	{"geometry":{"coordinates":[2.010804,41.337966],"type":"Point"},"properties":{"osm_id":"5079602607","tag":{"amenity":"waste_basket"}},"type":"Feature"},
	{"geometry":{"coordinates":[2.019251,41.345493],"type":"Point"},"properties":{"osm_id":"5089646108","tag":{"amenity":"recycling","recycling:glass_bottles":"yes","recycling_type":"container"}},"type":"Feature"},
	{"geometry":{"coordinates":[2.019205,41.345477],"type":"Point"},"properties":{"osm_id":"5089646109","tag":{"amenity":"recycling","recycling:cardboard":"yes","recycling:paper":"yes","recycling_type":"container"}},"type":"Feature"},
	{"geometry":{"coordinates":[2.01931,41.345511],"type":"Point"},"properties":{"osm_id":"5089646110","tag":{"amenity":"recycling","recycling:waste":"yes","recycling_type":"container"}},"type":"Feature"},
	{"geometry":{"coordinates":[2.019292,41.34551],"type":"Point"},"properties":{"osm_id":"5089646111","tag":{"amenity":"recycling","recycling:PET":"yes","recycling:cans":"yes","recycling:plastic_bottles":"yes","recycling:plastic_packaging":"yes","recycling_type":"container"}},"type":"Feature"},
	{"geometry":{"coordinates":[1.995613,41.339567],"type":"Point"},"properties":{"osm_id":"6358784218","tag":{"amenity":"recycling","recycling:cans":"yes","recycling:cardboard":"yes","recycling:glass_bottles":"yes","recycling:green_waste":"yes","recycling:paper":"yes","recycling:plastic":"yes","recycling:plastic_packaging":"yes","recycling:waste":"yes","recycling_type":"container"}},"type":"Feature"}
]
}
