{
"type": "FeatureCollection",
"features": [
	{"geometry":{"coordinates":[1.971526,41.28907],"type":"Point"},"properties":{"name":"Deixalleria de Castelldefells","osm_id":"629859580","tag":{"amenity":"recycling"}},"type":"Feature"},
	{"geometry":{"coordinates":[2.006622,41.30882],"type":"Point"},"properties":{"osm_id":"2083990764","tag":{"amenity":"recycling"}},"type":"Feature"},
	{"geometry":{"coordinates":[1.98492,41.265577],"type":"Point"},"properties":{"osm_id":"3822743922","tag":{"amenity":"recycling","recycling:glass_bottles":"yes"}},"type":"Feature"},
	{"geometry":{"coordinates":[1.959658,41.266388],"type":"Point"},"properties":{"osm_id":"6501527866","tag":{"amenity":"recycling","recycling:glass_bottles":"yes","recycling:paper":"yes","recycling_type":"container"}},"type":"Feature"},
	{"geometry":{"coordinates":[1.957072,41.266755],"type":"Point"},"properties":{"osm_id":"6501527868","tag":{"amenity":"recycling","recycling:clothes":"yes"}},"type":"Feature"},
	{"geometry":{"coordinates":[1.990517,41.275736],"type":"Point"},"properties":{"osm_id":"7190742400","tag":{"amenity":"waste_basket","waste":"trash"}},"type":"Feature"},
	{"geometry":{"coordinates":[1.990121,41.275804],"type":"Point"},"properties":{"osm_id":"7193070077","tag":{"amenity":"waste_basket","waste":"trash"}},"type":"Feature"},
	{"geometry":{"coordinates":[1.988872,41.275525],"type":"Point"},"properties":{"osm_id":"7193705572","tag":{"amenity":"waste_disposal"}},"type":"Feature"},
	{"geometry":{"coordinates":[1.988735,41.275408],"type":"Point"},"properties":{"osm_id":"7193705576","tag":{"amenity":"recycling","recycling:cardboard":"yes","recycling:glass_bottles":"yes","recycling:green_waste":"yes","recycling:paper":"yes","recycling:plastic_bottles":"yes","recycling:plastic_packaging":"yes","recycling_type":"container","wheelchair":"yes"}},"type":"Feature"},
	{"geometry":{"coordinates":[1.989867,41.275321],"type":"Point"},"properties":{"osm_id":"7206553571","tag":{"amenity":"waste_basket","waste":"trash"}},"type":"Feature"},
	{"geometry":{"coordinates":[1.989753,41.275282],"type":"Point"},"properties":{"osm_id":"7206553576","tag":{"amenity":"waste_basket","waste":"trash"}},"type":"Feature"},
	{"geometry":{"coordinates":[1.989828,41.275274],"type":"Point"},"properties":{"osm_id":"7206553577","tag":{"amenity":"waste_basket","waste":"trash"}},"type":"Feature"},
	{"geometry":{"coordinates":[1.984952,41.275115],"type":"Point"},"properties":{"osm_id":"7206972221","tag":{"amenity":"waste_basket","material":"metal","waste":"trash"}},"type":"Feature"},
	{"geometry":{"coordinates":[1.985034,41.274902],"type":"Point"},"properties":{"osm_id":"7206972222","tag":{"amenity":"waste_basket","material":"metal","waste":"trash"}},"type":"Feature"},
	{"geometry":{"coordinates":[1.984985,41.275196],"type":"Point"},"properties":{"osm_id":"7206972223","tag":{"amenity":"waste_basket","material":"metal","waste":"trash"}},"type":"Feature"},
	{"geometry":{"coordinates":[1.98603,41.274757],"type":"Point"},"properties":{"osm_id":"7206972249","tag":{"amenity":"recycling","recycling:glass_bottles":"yes","recycling_type":"container"}},"type":"Feature"},
	{"geometry":{"coordinates":[1.986107,41.274779],"type":"Point"},"properties":{"osm_id":"7206972250","tag":{"amenity":"recycling","recycling:cans":"yes","recycling:plastic_bottles":"yes","recycling_type":"container"}},"type":"Feature"},
	{"geometry":{"coordinates":[1.986171,41.274795],"type":"Point"},"properties":{"osm_id":"7206972251","tag":{"amenity":"recycling","recycling:beverage_cartons":"yes","recycling:cartons":"yes","recycling:newspaper":"yes","recycling:paper":"yes","recycling:paper_packaging":"yes","recycling_type":"container"}},"type":"Feature"},
	{"geometry":{"coordinates":[1.986244,41.27481],"type":"Point"},"properties":{"osm_id":"7206972252","tag":{"amenity":"recycling","recycling:green_waste":"yes","recycling_type":"container"}},"type":"Feature"},
	{"geometry":{"coordinates":[1.987674,41.275806],"type":"Point"},"properties":{"osm_id":"7206972280","tag":{"amenity":"waste_basket"}},"type":"Feature"},
	{"geometry":{"coordinates":[1.985659,41.275903],"type":"Point"},"properties":{"osm_id":"7207135790","tag":{"amenity":"recycling","recycling:cardboard":"yes","recycling:cartons":"yes","recycling:paper":"yes","recycling:paper_packaging":"yes","recycling_type":"container"}},"type":"Feature"},
	{"geometry":{"coordinates":[1.985672,41.275906],"type":"Point"},"properties":{"osm_id":"7207135791","tag":{"amenity":"recycling","recycling:cans":"yes","recycling:plastic_bottles":"yes","recycling:plastic_packaging":"yes","recycling_type":"container"}},"type":"Feature"},
	{"geometry":{"coordinates":[1.985687,41.27591],"type":"Point"},"properties":{"osm_id":"7207135792","tag":{"amenity":"recycling","recycling:green_waste":"yes","recycling_type":"container"}},"type":"Feature"},
	{"geometry":{"coordinates":[1.9857,41.275915],"type":"Point"},"properties":{"osm_id":"7207135793","tag":{"amenity":"recycling","recycling:glass_bottles":"yes","recycling_type":"container"}},"type":"Feature"},
	{"geometry":{"coordinates":[1.98587,41.275277],"type":"Point"},"properties":{"osm_id":"7227586611","tag":{"amenity":"waste_basket","waste":"trash"}},"type":"Feature"},
	{"geometry":{"coordinates":[1.986063,41.275186],"type":"Point"},"properties":{"osm_id":"7227586613","tag":{"amenity":"waste_basket","waste":"trash"}},"type":"Feature"},
	{"geometry":{"coordinates":[1.985922,41.275158],"type":"Point"},"properties":{"osm_id":"7227586619","tag":{"amenity":"waste_basket","waste":"trash"}},"type":"Feature"},
	{"geometry":{"coordinates":[1.985977,41.275038],"type":"Point"},"properties":{"osm_id":"7227586621","tag":{"amenity":"waste_basket","waste":"trash"}},"type":"Feature"},
	{"geometry":{"coordinates":[1.985141,41.275256],"type":"Point"},"properties":{"osm_id":"7227586622","tag":{"amenity":"waste_basket","waste":"trash"}},"type":"Feature"},
	{"geometry":{"coordinates":[1.985628,41.275431],"type":"Point"},"properties":{"osm_id":"7227586625","tag":{"amenity":"recycling","recycling:batteries":"yes","recycling_type":"container","wheelchair":"yes"}},"type":"Feature"},
	{"geometry":{"coordinates":[1.986483,41.274957],"type":"Point"},"properties":{"osm_id":"7227586637","tag":{"amenity":"waste_basket","waste":"trash"}},"type":"Feature"},
	{"geometry":{"coordinates":[1.986013,41.275309],"type":"Point"},"properties":{"osm_id":"7227586639","tag":{"amenity":"waste_basket","waste":"trash"}},"type":"Feature"},
	{"geometry":{"coordinates":[1.987211,41.275144],"type":"Point"},"properties":{"osm_id":"7227586641","tag":{"amenity":"waste_basket","waste":"trash"}},"type":"Feature"},
	{"geometry":{"coordinates":[1.98746,41.27522],"type":"Point"},"properties":{"osm_id":"7227586642","tag":{"amenity":"waste_basket","waste":"trash"}},"type":"Feature"},
	{"geometry":{"coordinates":[1.985646,41.275362],"type":"Point"},"properties":{"osm_id":"7227586645","tag":{"amenity":"waste_basket","waste":"trash"}},"type":"Feature"},
	{"geometry":{"coordinates":[1.986115,41.275073],"type":"Point"},"properties":{"osm_id":"7227586647","tag":{"amenity":"waste_basket","waste":"trash"}},"type":"Feature"},
	{"geometry":{"coordinates":[1.984318,41.274782],"type":"Point"},"properties":{"osm_id":"7227747374","tag":{"amenity":"waste_basket","waste":"trash"}},"type":"Feature"},
	{"geometry":{"coordinates":[1.984506,41.274427],"type":"Point"},"properties":{"osm_id":"7227747376","tag":{"amenity":"waste_disposal"}},"type":"Feature"},
	{"geometry":{"coordinates":[1.984514,41.274429],"type":"Point"},"properties":{"osm_id":"7227747379","tag":{"amenity":"waste_disposal"}},"type":"Feature"},
	{"geometry":{"coordinates":[1.984522,41.274431],"type":"Point"},"properties":{"osm_id":"7227747381","tag":{"amenity":"recycling","recycling:green_waste":"yes","recycling_type":"container"}},"type":"Feature"},
	{"geometry":{"coordinates":[2.014783,41.265724],"type":"Point"},"properties":{"osm_id":"7640298062","tag":{"amenity":"waste_basket"}},"type":"Feature"},
	{"geometry":{"coordinates":[2.019871,41.266209],"type":"Point"},"properties":{"osm_id":"7640690493","tag":{"amenity":"waste_basket"}},"type":"Feature"},
	{"geometry":{"coordinates":[2.005038,41.265324],"type":"Point"},"properties":{"osm_id":"7671313369","tag":{"amenity":"waste_basket"}},"type":"Feature"},
	{"geometry":{"coordinates":[2.006804,41.265321],"type":"Point"},"properties":{"osm_id":"7671313371","tag":{"amenity":"waste_basket"}},"type":"Feature"},
	{"geometry":{"coordinates":[2.018142,41.266034],"type":"Point"},"properties":{"osm_id":"7671313374","tag":{"amenity":"waste_basket"}},"type":"Feature"},
	{"geometry":{"coordinates":[2.017407,41.265996],"type":"Point"},"properties":{"osm_id":"7671313384","tag":{"amenity":"waste_basket"}},"type":"Feature"},
	{"geometry":{"coordinates":[2.008145,41.265516],"type":"Point"},"properties":{"osm_id":"7671319888","tag":{"amenity":"waste_basket"}},"type":"Feature"},
	{"geometry":{"coordinates":[2.012755,41.265597],"type":"Point"},"properties":{"osm_id":"7671319893","tag":{"amenity":"waste_basket"}},"type":"Feature"},
	{"geometry":{"coordinates":[2.01057,41.265415],"type":"Point"},"properties":{"osm_id":"7671319895","tag":{"amenity":"waste_basket"}},"type":"Feature"},
	{"geometry":{"coordinates":[2.005879,41.265297],"type":"Point"},"properties":{"osm_id":"7671319899","tag":{"amenity":"waste_basket"}},"type":"Feature"},
	{"geometry":{"coordinates":[2.009318,41.26538],"type":"Point"},"properties":{"osm_id":"7671319900","tag":{"amenity":"waste_basket"}},"type":"Feature"}
]
}
