{
"type": "FeatureCollection",
"features": [
	{"geometry":{"coordinates":[-73.228259,-39.832609],"type":"Point"},"properties":{"name":"Parque Krahmer","osm_id":"1117691309","tag":{"amenity":"recycling","recycling:glass_bottles":"yes","recycling_type":"container"}},"type":"Feature"},
	{"geometry":{"coordinates":[-73.24539,-39.839976],"type":"Point"},"properties":{"osm_id":"1361051270","tag":{"amenity":"recycling","recycling:cartons":"yes","recycling:glass":"yes","recycling:glass_bottles":"yes","recycling:plastic":"yes","recycling:plastic_bottles":"yes","recycling:plastic_packaging":"yes","recycling_type":"container"}},"type":"Feature"},
	{"geometry":{"coordinates":[-73.247612,-39.805884],"type":"Point"},"properties":{"osm_id":"1361156599","tag":{"amenity":"recycling"}},"type":"Feature"},
	{"geometry":{"coordinates":[-73.253512,-39.804457],"type":"Point"},"properties":{"name":"Reciclaje","osm_id":"1374014797","tag":{"amenity":"recycling"}},"type":"Feature"},
	{"geometry":{"coordinates":[-73.251443,-39.808872],"type":"Point"},"properties":{"osm_id":"1375328994","tag":{"amenity":"waste_basket"}},"type":"Feature"},
	{"geometry":{"coordinates":[-73.251197,-39.808248],"type":"Point"},"properties":{"osm_id":"1375328996","tag":{"amenity":"waste_basket"}},"type":"Feature"},
	{"geometry":{"coordinates":[-73.250788,-39.83332],"type":"Point"},"properties":{"osm_id":"1389015956","tag":{"amenity":"recycling","recycling:batteries":"no","recycling:books":"yes","recycling:cartons":"yes","recycling:glass":"yes","recycling:glass_bottles":"yes","recycling:newspaper":"yes","recycling:paper":"yes","recycling:plastic":"yes","recycling:plastic_bottles":"yes","recycling:plastic_packaging":"yes","recycling:waste":"no","recycling:wood":"no","recycling_type":"container"}},"type":"Feature"},
	{"geometry":{"coordinates":[-73.250959,-39.83191],"type":"Point"},"properties":{"osm_id":"1395217688","tag":{"amenity":"recycling","recycling:cartons":"yes","recycling:glass_bottles":"yes","recycling:magazines":"yes","recycling:newspaper":"yes","recycling:paper":"yes","recycling:paper_packaging":"yes","recycling:plastic":"yes","recycling:plastic_bottles":"yes","recycling:plastic_packaging":"yes","recycling:scrap_metal":"yes"}},"type":"Feature"},
	{"geometry":{"coordinates":[-73.253749,-39.805252],"type":"Point"},"properties":{"name":"Reciclaje","osm_id":"1428414922","tag":{"amenity":"recycling"}},"type":"Feature"},
	{"geometry":{"coordinates":[-73.25306,-39.804017],"type":"Point"},"properties":{"name":"Reciclaje","osm_id":"1428419241","tag":{"amenity":"recycling"}},"type":"Feature"},
	{"geometry":{"coordinates":[-73.251536,-39.806414],"type":"Point"},"properties":{"name":"Reciclaje","osm_id":"1446314115","tag":{"amenity":"recycling","recycling:books":"yes","recycling:cartons":"yes","recycling:glass":"yes","recycling:glass_bottles":"yes","recycling:magazines":"yes","recycling:newspaper":"yes","recycling:paper":"yes","recycling:paper_packaging":"yes","recycling_type":"container"}},"type":"Feature"},
	{"geometry":{"coordinates":[-73.252841,-39.804538],"type":"Point"},"properties":{"osm_id":"1909961664","tag":{"amenity":"recycling"}},"type":"Feature"},
	{"geometry":{"coordinates":[-73.249462,-39.805734],"type":"Point"},"properties":{"osm_id":"2797808858","tag":{"amenity":"recycling"}},"type":"Feature"},
	{"geometry":{"coordinates":[-73.256819,-39.81039],"type":"Point"},"properties":{"name":"Contenedores","osm_id":"3658972610","tag":{"amenity":"recycling"}},"type":"Feature"},
	{"geometry":{"coordinates":[-73.251475,-39.803839],"type":"Point"},"properties":{"osm_id":"4289637120","tag":{"amenity":"waste_disposal"}},"type":"Feature"},
	{"geometry":{"coordinates":[-73.251979,-39.807021],"type":"Point"},"properties":{"osm_id":"4315055596","tag":{"amenity":"recycling"}},"type":"Feature"},
	{"geometry":{"coordinates":[-73.230108,-39.818126],"type":"Point"},"properties":{"osm_id":"4328646102","tag":{"amenity":"waste_basket"}},"type":"Feature"},
	{"geometry":{"coordinates":[-73.245356,-39.813417],"type":"Point"},"properties":{"osm_id":"4330188811","tag":{"amenity":"waste_basket"}},"type":"Feature"},
	{"geometry":{"coordinates":[-73.219344,-39.812942],"type":"Point"},"properties":{"osm_id":"4331449541","tag":{"amenity":"waste_basket"}},"type":"Feature"},
	{"geometry":{"coordinates":[-73.219465,-39.812914],"type":"Point"},"properties":{"osm_id":"4331452031","tag":{"amenity":"waste_basket"}},"type":"Feature"},
	{"geometry":{"coordinates":[-73.218336,-39.814022],"type":"Point"},"properties":{"osm_id":"4331483612","tag":{"amenity":"waste_basket"}},"type":"Feature"},
	{"geometry":{"coordinates":[-73.217764,-39.812699],"type":"Point"},"properties":{"osm_id":"4331497361","tag":{"amenity":"waste_basket"}},"type":"Feature"},
	{"geometry":{"coordinates":[-73.243302,-39.816695],"type":"Point"},"properties":{"osm_id":"4337927893","tag":{"addr:city":"Valdivia","addr:street":"Esmeralda","amenity":"recycling","recycling:glass":"yes","recycling:glass_bottles":"yes"}},"type":"Feature"},
	{"geometry":{"coordinates":[-73.242617,-39.813467],"type":"Point"},"properties":{"osm_id":"4341887104","tag":{"amenity":"waste_basket"}},"type":"Feature"},
	{"geometry":{"coordinates":[-73.243964,-39.813289],"type":"Point"},"properties":{"osm_id":"4341889898","tag":{"amenity":"waste_basket"}},"type":"Feature"},
	{"geometry":{"coordinates":[-73.246135,-39.813494],"type":"Point"},"properties":{"osm_id":"4341892970","tag":{"amenity":"waste_basket"}},"type":"Feature"},
	{"geometry":{"coordinates":[-73.251758,-39.805729],"type":"Point"},"properties":{"osm_id":"4341897214","tag":{"amenity":"waste_basket"}},"type":"Feature"},
	{"geometry":{"coordinates":[-73.245938,-39.813755],"type":"Point"},"properties":{"osm_id":"4343814296","tag":{"amenity":"waste_basket"}},"type":"Feature"},
	{"geometry":{"coordinates":[-73.23592,-39.827485],"type":"Point"},"properties":{"osm_id":"4354484351","tag":{"addr:city":"Valdivia","addr:street":"Avenida Pedro Montt","amenity":"waste_disposal"}},"type":"Feature"},
	{"geometry":{"coordinates":[-73.235994,-39.82741],"type":"Point"},"properties":{"osm_id":"4354484575","tag":{"addr:city":"Valdivia","addr:street":"Avenida Pedro Montt","amenity":"waste_disposal"}},"type":"Feature"},
	{"geometry":{"coordinates":[-73.250222,-39.812068],"type":"Point"},"properties":{"osm_id":"4419329644","tag":{"amenity":"waste_basket"}},"type":"Feature"},
	{"geometry":{"coordinates":[-73.246026,-39.814758],"type":"Point"},"properties":{"osm_id":"4729252391","tag":{"amenity":"waste_disposal"}},"type":"Feature"},
	{"geometry":{"coordinates":[-73.250946,-39.81358],"type":"Point"},"properties":{"osm_id":"5182199643","tag":{"amenity":"recycling","recycling_type":"container"}},"type":"Feature"},
	{"geometry":{"coordinates":[-73.254703,-39.806235],"type":"Point"},"properties":{"osm_id":"5468030820","tag":{"amenity":"waste_basket"}},"type":"Feature"},
	{"geometry":{"coordinates":[-73.24871,-39.806444],"type":"Point"},"properties":{"osm_id":"5468133294","tag":{"amenity":"recycling","recycling_type":"container"}},"type":"Feature"},
	{"geometry":{"coordinates":[-73.252941,-39.805218],"type":"Point"},"properties":{"osm_id":"5526347515","tag":{"amenity":"recycling","recycling_type":"container"}},"type":"Feature"},
	{"geometry":{"coordinates":[-73.251639,-39.80462],"type":"Point"},"properties":{"osm_id":"5531616780","tag":{"amenity":"waste_basket"}},"type":"Feature"},
	{"geometry":{"coordinates":[-73.255699,-39.809799],"type":"Point"},"properties":{"osm_id":"5550826993","tag":{"amenity":"waste_basket"}},"type":"Feature"},
	{"geometry":{"coordinates":[-73.252615,-39.811392],"type":"Point"},"properties":{"osm_id":"5584959334","tag":{"amenity":"waste_basket"}},"type":"Feature"},
	{"geometry":{"coordinates":[-73.250851,-39.811273],"type":"Point"},"properties":{"osm_id":"5584975791","tag":{"amenity":"waste_disposal"}},"type":"Feature"},
	{"geometry":{"coordinates":[-73.262936,-39.80807],"type":"Point"},"properties":{"osm_id":"5702395893","tag":{"addr:city":"Valdivia","addr:street":"Avenida Los Raul\u00c3\u00ades","amenity":"recycling","recycling:glass":"yes","recycling_type":"container"}},"type":"Feature"},
	{"geometry":{"coordinates":[-73.262599,-39.807959],"type":"Point"},"properties":{"osm_id":"5702452094","tag":{"amenity":"waste_basket"}},"type":"Feature"},
	{"geometry":{"coordinates":[-73.262398,-39.808157],"type":"Point"},"properties":{"osm_id":"5702467506","tag":{"addr:city":"Valdivia","addr:street":"Avenida Los Raul\u00c3\u00ades","amenity":"waste_basket"}},"type":"Feature"},
	{"geometry":{"coordinates":[-73.262754,-39.808062],"type":"Point"},"properties":{"osm_id":"5702551242","tag":{"addr:city":"Valdivia","addr:street":"Avenida Los Raul\u00c3\u00ades","amenity":"waste_basket"}},"type":"Feature"},
	{"geometry":{"coordinates":[-73.246316,-39.80666],"type":"Point"},"properties":{"osm_id":"6110204384","tag":{"amenity":"recycling","recycling_type":"container"}},"type":"Feature"},
	{"geometry":{"coordinates":[-73.244318,-39.826317],"type":"Point"},"properties":{"osm_id":"6119572439","tag":{"amenity":"waste_basket"}},"type":"Feature"},
	{"geometry":{"coordinates":[-73.244339,-39.826129],"type":"Point"},"properties":{"osm_id":"6119572440","tag":{"amenity":"waste_basket"}},"type":"Feature"},
	{"geometry":{"coordinates":[-73.246887,-39.813039],"type":"Point"},"properties":{"osm_id":"6124388297","tag":{"amenity":"waste_basket"}},"type":"Feature"},
	{"geometry":{"coordinates":[-73.246882,-39.816267],"type":"Point"},"properties":{"osm_id":"6431719819","tag":{"amenity":"waste_basket"}},"type":"Feature"},
	{"geometry":{"coordinates":[-73.244904,-39.825135],"type":"Point"},"properties":{"osm_id":"6502713211","tag":{"amenity":"recycling","recycling_type":"container"}},"type":"Feature"},
	{"geometry":{"coordinates":[-73.240845,-39.810212],"type":"Point"},"properties":{"osm_id":"6767349112","tag":{"amenity":"waste_basket"}},"type":"Feature"},
	{"geometry":{"coordinates":[-73.241608,-39.809864],"type":"Point"},"properties":{"osm_id":"6767350633","tag":{"amenity":"waste_basket"}},"type":"Feature"},
	{"geometry":{"coordinates":[-73.238117,-39.814419],"type":"Point"},"properties":{"osm_id":"6837345178","tag":{"amenity":"waste_basket"}},"type":"Feature"},
	{"geometry":{"coordinates":[-73.237812,-39.814421],"type":"Point"},"properties":{"osm_id":"6837417541","tag":{"amenity":"waste_basket"}},"type":"Feature"},
	{"geometry":{"coordinates":[-73.230382,-39.833654],"type":"Point"},"properties":{"osm_id":"7208708285","tag":{"amenity":"waste_basket"}},"type":"Feature"},
	{"geometry":{"coordinates":[-73.216285,-39.809132],"type":"Point"},"properties":{"osm_id":"7215501379","tag":{"amenity":"waste_basket"}},"type":"Feature"},
	{"geometry":{"coordinates":[-73.216853,-39.809124],"type":"Point"},"properties":{"osm_id":"7215515031","tag":{"amenity":"waste_basket"}},"type":"Feature"},
	{"geometry":{"coordinates":[-73.223439,-39.811096],"type":"Point"},"properties":{"osm_id":"7229489557","tag":{"amenity":"waste_basket"}},"type":"Feature"},
	{"geometry":{"coordinates":[-73.223332,-39.81111],"type":"Point"},"properties":{"osm_id":"7229489578","tag":{"amenity":"waste_basket"}},"type":"Feature"},
	{"geometry":{"coordinates":[-73.223194,-39.810983],"type":"Point"},"properties":{"osm_id":"7229495099","tag":{"amenity":"waste_basket"}},"type":"Feature"},
	{"geometry":{"coordinates":[-73.223246,-39.810872],"type":"Point"},"properties":{"osm_id":"7229527731","tag":{"amenity":"waste_basket"}},"type":"Feature"},
	{"geometry":{"coordinates":[-73.222909,-39.80807],"type":"Point"},"properties":{"osm_id":"7232081142","tag":{"amenity":"waste_basket"}},"type":"Feature"},
	{"geometry":{"coordinates":[-73.22195,-39.807374],"type":"Point"},"properties":{"osm_id":"7232917594","tag":{"amenity":"waste_basket"}},"type":"Feature"},
	{"geometry":{"coordinates":[-73.216251,-39.808941],"type":"Point"},"properties":{"osm_id":"7237013765","tag":{"amenity":"waste_basket"}},"type":"Feature"},
	{"geometry":{"coordinates":[-73.248908,-39.81785],"type":"Point"},"properties":{"osm_id":"7237385115","tag":{"amenity":"waste_basket"}},"type":"Feature"},
	{"geometry":{"coordinates":[-73.247502,-39.821073],"type":"Point"},"properties":{"osm_id":"7248988631","tag":{"amenity":"waste_basket"}},"type":"Feature"},
	{"geometry":{"coordinates":[-73.247744,-39.820664],"type":"Point"},"properties":{"osm_id":"7249176745","tag":{"amenity":"waste_basket"}},"type":"Feature"},
	{"geometry":{"coordinates":[-73.24783,-39.820492],"type":"Point"},"properties":{"osm_id":"7249176752","tag":{"amenity":"waste_basket"}},"type":"Feature"},
	{"geometry":{"coordinates":[-73.248091,-39.82818],"type":"Point"},"properties":{"osm_id":"7253931758","tag":{"amenity":"waste_basket"}},"type":"Feature"},
	{"geometry":{"coordinates":[-73.214719,-39.825332],"type":"Point"},"properties":{"osm_id":"7282717896","tag":{"amenity":"waste_disposal"}},"type":"Feature"},
	{"geometry":{"coordinates":[-73.235841,-39.836789],"type":"Point"},"properties":{"osm_id":"7282718349","tag":{"amenity":"waste_basket"}},"type":"Feature"},
	{"geometry":{"coordinates":[-73.2328,-39.835108],"type":"Point"},"properties":{"osm_id":"7283172637","tag":{"amenity":"waste_basket"}},"type":"Feature"},
	{"geometry":{"coordinates":[-73.239792,-39.826247],"type":"Point"},"properties":{"osm_id":"7314470919","tag":{"amenity":"waste_basket"}},"type":"Feature"},
	{"geometry":{"coordinates":[-73.240078,-39.829054],"type":"Point"},"properties":{"osm_id":"7314470930","tag":{"amenity":"waste_basket"}},"type":"Feature"},
	{"geometry":{"coordinates":[-73.240277,-39.828888],"type":"Point"},"properties":{"osm_id":"7314470955","tag":{"amenity":"waste_basket"}},"type":"Feature"},
	{"geometry":{"coordinates":[-73.23837,-39.833517],"type":"Point"},"properties":{"osm_id":"7315787117","tag":{"amenity":"recycling","recycling:glass":"yes","recycling_type":"container"}},"type":"Feature"},
	{"geometry":{"coordinates":[-73.238388,-39.8335],"type":"Point"},"properties":{"osm_id":"7315787136","tag":{"amenity":"recycling","recycling:glass_bottles":"yes","recycling_type":"container"}},"type":"Feature"},
	{"geometry":{"coordinates":[-73.256047,-39.811177],"type":"Point"},"properties":{"osm_id":"7472643208","tag":{"amenity":"waste_basket"}},"type":"Feature"},
	{"geometry":{"coordinates":[-73.255886,-39.811128],"type":"Point"},"properties":{"osm_id":"7472643209","tag":{"amenity":"waste_basket"}},"type":"Feature"},
	{"geometry":{"coordinates":[-73.221753,-39.835903],"type":"Point"},"properties":{"osm_id":"7572065645","tag":{"amenity":"waste_basket"}},"type":"Feature"},
	{"geometry":{"coordinates":[-73.221546,-39.835887],"type":"Point"},"properties":{"osm_id":"7572065646","tag":{"amenity":"waste_basket"}},"type":"Feature"},
	{"geometry":{"coordinates":[-73.232157,-39.830615],"type":"Point"},"properties":{"osm_id":"7722399693","tag":{"amenity":"waste_basket"}},"type":"Feature"},
	{"geometry":{"coordinates":[-73.231912,-39.830431],"type":"Point"},"properties":{"osm_id":"7722399694","tag":{"amenity":"waste_basket"}},"type":"Feature"},
	{"geometry":{"coordinates":[-73.232628,-39.830529],"type":"Point"},"properties":{"osm_id":"7722645620","tag":{"amenity":"waste_basket"}},"type":"Feature"},
	{"geometry":{"coordinates":[-73.232339,-39.830573],"type":"Point"},"properties":{"osm_id":"7722645628","tag":{"amenity":"waste_basket"}},"type":"Feature"},
	{"geometry":{"coordinates":[-73.232082,-39.830449],"type":"Point"},"properties":{"osm_id":"7722645629","tag":{"amenity":"waste_basket"}},"type":"Feature"},
	{"geometry":{"coordinates":[-73.23327,-39.832836],"type":"Point"},"properties":{"osm_id":"7727961943","tag":{"amenity":"waste_basket"}},"type":"Feature"},
	{"geometry":{"coordinates":[-73.245893,-39.814061],"type":"Point"},"properties":{"osm_id":"7906045025","tag":{"amenity":"waste_basket"}},"type":"Feature"},
	{"geometry":{"coordinates":[-73.245986,-39.814001],"type":"Point"},"properties":{"osm_id":"7906045032","tag":{"amenity":"waste_basket"}},"type":"Feature"},
	{"geometry":{"coordinates":[-73.247038,-39.840673],"type":"Point"},"properties":{"osm_id":"7928662995","tag":{"amenity":"waste_basket"}},"type":"Feature"},
	{"geometry":{"coordinates":[-73.246824,-39.840115],"type":"Point"},"properties":{"osm_id":"7930250706","tag":{"amenity":"waste_basket"}},"type":"Feature"},
	{"geometry":{"coordinates":[-73.246953,-39.840348],"type":"Point"},"properties":{"osm_id":"7932664320","tag":{"amenity":"waste_basket"}},"type":"Feature"},
	{"geometry":{"coordinates":[-73.237534,-39.812315],"type":"Point"},"properties":{"osm_id":"7938831944","tag":{"amenity":"waste_basket"}},"type":"Feature"},
	{"geometry":{"coordinates":[-73.238246,-39.811768],"type":"Point"},"properties":{"osm_id":"7938831961","tag":{"amenity":"waste_basket"}},"type":"Feature"},
	{"geometry":{"coordinates":[-73.238992,-39.811303],"type":"Point"},"properties":{"osm_id":"7938831976","tag":{"amenity":"waste_basket"}},"type":"Feature"}
]
}
