{
"type": "FeatureCollection",
"features": [
	{"geometry":{"coordinates":[77.498964,12.924437],"type":"Point"},"properties":{"osm_id":"5537805493","tag":{"amenity":"waste_basket"}},"type":"Feature"},
	{"geometry":{"coordinates":[77.498987,12.92442],"type":"Point"},"properties":{"osm_id":"5537805494","tag":{"amenity":"waste_basket"}},"type":"Feature"},
	{"geometry":{"coordinates":[77.500774,12.923404],"type":"Point"},"properties":{"osm_id":"6209418792","tag":{"amenity":"waste_basket"}},"type":"Feature"},
	{"geometry":{"coordinates":[77.500724,12.923413],"type":"Point"},"properties":{"osm_id":"6209418793","tag":{"amenity":"waste_basket"}},"type":"Feature"},
	{"geometry":{"coordinates":[77.500269,12.923858],"type":"Point"},"properties":{"osm_id":"6216470854","tag":{"amenity":"waste_basket","level":"1"}},"type":"Feature"},
	{"geometry":{"coordinates":[77.499794,12.923691],"type":"Point"},"properties":{"osm_id":"6298470507","tag":{"amenity":"waste_basket"}},"type":"Feature"},
	{"geometry":{"coordinates":[77.50003,12.924118],"type":"Point"},"properties":{"osm_id":"6298470508","tag":{"amenity":"waste_basket"}},"type":"Feature"},
	{"geometry":{"coordinates":[77.498989,12.923641],"type":"Point"},"properties":{"osm_id":"9199245462","tag":{"amenity":"waste_basket"}},"type":"Feature"}
]
}
