{
"type": "FeatureCollection",
"lastupdate": "2020-08-06T00:00:00Z",
"features": [
	{"geometry":{"coordinates":[145.115849,-37.710252],"type":"Point"},"properties":{"osm_id":"1502373844","tag":{"amenity":"waste_basket"}},"type":"Feature"},
	{"geometry":{"coordinates":[145.115754,-37.710432],"type":"Point"},"properties":{"osm_id":"1502373855","tag":{"amenity":"waste_basket"}},"type":"Feature"},
	{"geometry":{"coordinates":[145.12093,-37.717462],"type":"Point"},"properties":{"osm_id":"1502373920","tag":{"amenity":"waste_basket"}},"type":"Feature"},
	{"geometry":{"coordinates":[145.119639,-37.709355],"type":"Point"},"properties":{"osm_id":"1618953698","tag":{"amenity":"waste_basket"}},"type":"Feature"},
	{"geometry":{"coordinates":[145.12188,-37.716834],"type":"Point"},"properties":{"name":"Boots for all","osm_id":"1865230209","tag":{"amenity":"recycling","description":"clothing, linen, sporting equipment & sporting apparel","email":"info@bootsforall.org.au","operator":"Boots for all","phone":"+61-414696034","recycling:clothes":"yes","recycling_type":"container","website":"https://www.bootsforall.org.au/"}},"type":"Feature"},
	{"geometry":{"coordinates":[145.113426,-37.718118],"type":"Point"},"properties":{"name":"Boots for all","osm_id":"1865230210","tag":{"amenity":"recycling","description":"clothing, linen, sporting equipment & sporting apparel","email":"info@bootsforall.org.au","operator":"Boots for all","phone":"+61-414696034","recycling:clothes":"yes","recycling_type":"container","website":"https://www.bootsforall.org.au/"}},"type":"Feature"},
	{"geometry":{"coordinates":[145.122397,-37.71688],"type":"Point"},"properties":{"name":"Deafness Foundation","osm_id":"1865230211","tag":{"amenity":"recycling","description":"Donation Bin","operator":"Deafness Foundation Victoria","phone":"+61-401380369","recycling:clothes":"yes","recycling_type":"container"}},"type":"Feature"},
	{"geometry":{"coordinates":[145.122392,-37.716904],"type":"Point"},"properties":{"name":"Paravin","osm_id":"1865230212","tag":{"amenity":"recycling","description":"Donation Bin","operator":"Paraplegic Quadriplegic Association of WA Inc.","phone":"+61-3-93579683","recycling:clothes":"yes","recycling_type":"container"}},"type":"Feature"},
	{"geometry":{"coordinates":[145.12062,-37.715308],"type":"Point"},"properties":{"name":"Southern Cross Recycling","osm_id":"2522828788","tag":{"amenity":"recycling","description":"donation bin: quality clothing, shoes, accessories, mobile phones and household bric-a-brac","operator":"Southern Cross Recycling","phone":"+61-1300687261","recycling:clothes":"yes","recycling_type":"container","website":"https://www.bootsforall.org.au/"}},"type":"Feature"},
	{"geometry":{"coordinates":[145.120618,-37.71532],"type":"Point"},"properties":{"name":"Southern Cross Recycling","osm_id":"2522828789","tag":{"amenity":"recycling","description":"donation bin: quality clothing, shoes, accessories, mobile phones and household bric-a-brac","operator":"Southern Cross Recycling","phone":"+61-1300687261","recycling:clothes":"yes","recycling_type":"container","website":"https://www.bootsforall.org.au/"}},"type":"Feature"},
	{"geometry":{"coordinates":[145.175704,-37.705032],"type":"Point"},"properties":{"osm_id":"2813221962","tag":{"amenity":"waste_basket"}},"type":"Feature"},
	{"geometry":{"coordinates":[145.108237,-37.700426],"type":"Point"},"properties":{"osm_id":"3007963334","tag":{"amenity":"waste_basket"}},"type":"Feature"},
	{"geometry":{"coordinates":[145.125081,-37.71669],"type":"Point"},"properties":{"osm_id":"6487196131","tag":{"amenity":"waste_basket","waste":"trash"}},"type":"Feature"}
]
}
