{
"type": "FeatureCollection",
"features": [
	{"geometry":{"coordinates":[145.151453,-37.950079],"type":"Point"},"properties":{"osm_id":"4041048219","tag":{"amenity":"waste_basket"}},"type":"Feature"},
	{"geometry":{"coordinates":[145.133589,-37.9841],"type":"Point"},"properties":{"osm_id":"4064509751","tag":{"amenity":"waste_basket"}},"type":"Feature"},
	{"geometry":{"coordinates":[145.143781,-37.958655],"type":"Point"},"properties":{"osm_id":"4792495527","tag":{"amenity":"waste_basket"}},"type":"Feature"},
	{"geometry":{"coordinates":[145.156236,-37.930561],"type":"Point"},"properties":{"osm_id":"5127953787","tag":{"amenity":"waste_basket"}},"type":"Feature"},
	{"geometry":{"coordinates":[145.14303,-37.962089],"type":"Point"},"properties":{"osm_id":"5187993671","tag":{"amenity":"waste_basket"}},"type":"Feature"},
	{"geometry":{"coordinates":[145.152796,-37.950265],"type":"Point"},"properties":{"osm_id":"5195471030","tag":{"amenity":"waste_basket"}},"type":"Feature"},
	{"geometry":{"coordinates":[145.152542,-37.951485],"type":"Point"},"properties":{"osm_id":"5195526325","tag":{"amenity":"waste_basket"}},"type":"Feature"},
	{"geometry":{"coordinates":[145.152684,-37.950715],"type":"Point"},"properties":{"osm_id":"5195526347","tag":{"amenity":"waste_basket"}},"type":"Feature"},
	{"geometry":{"coordinates":[145.15241,-37.950794],"type":"Point"},"properties":{"osm_id":"5195526348","tag":{"amenity":"waste_basket"}},"type":"Feature"},
	{"geometry":{"coordinates":[145.15251,-37.950311],"type":"Point"},"properties":{"osm_id":"5195563404","tag":{"amenity":"waste_basket"}},"type":"Feature"},
	{"geometry":{"coordinates":[145.153713,-37.94974],"type":"Point"},"properties":{"osm_id":"5197565826","tag":{"amenity":"recycling","recycling:clothes":"yes"}},"type":"Feature"},
	{"geometry":{"coordinates":[145.15237,-37.951008],"type":"Point"},"properties":{"osm_id":"5203746954","tag":{"amenity":"waste_basket"}},"type":"Feature"},
	{"geometry":{"coordinates":[145.150557,-37.949386],"type":"Point"},"properties":{"osm_id":"5203746968","tag":{"amenity":"waste_basket"}},"type":"Feature"},
	{"geometry":{"coordinates":[145.151806,-37.948464],"type":"Point"},"properties":{"osm_id":"5203746981","tag":{"amenity":"recycling"}},"type":"Feature"},
	{"geometry":{"coordinates":[145.153355,-37.946833],"type":"Point"},"properties":{"osm_id":"5211674441","tag":{"amenity":"waste_basket"}},"type":"Feature"},
	{"geometry":{"coordinates":[145.152012,-37.952907],"type":"Point"},"properties":{"osm_id":"5213706366","tag":{"amenity":"waste_basket"}},"type":"Feature"},
	{"geometry":{"coordinates":[145.151407,-37.951765],"type":"Point"},"properties":{"osm_id":"5213706376","tag":{"amenity":"waste_basket"}},"type":"Feature"},
	{"geometry":{"coordinates":[145.15118,-37.951921],"type":"Point"},"properties":{"osm_id":"5213706399","tag":{"amenity":"waste_basket"}},"type":"Feature"},
	{"geometry":{"coordinates":[145.151089,-37.952085],"type":"Point"},"properties":{"osm_id":"5213706403","tag":{"amenity":"waste_basket"}},"type":"Feature"},
	{"geometry":{"coordinates":[145.151824,-37.953837],"type":"Point"},"properties":{"osm_id":"5213706412","tag":{"amenity":"waste_basket"}},"type":"Feature"},
	{"geometry":{"coordinates":[145.152155,-37.952131],"type":"Point"},"properties":{"osm_id":"5213706413","tag":{"amenity":"waste_basket"}},"type":"Feature"},
	{"geometry":{"coordinates":[145.15176,-37.954226],"type":"Point"},"properties":{"osm_id":"5213706418","tag":{"amenity":"waste_basket"}},"type":"Feature"},
	{"geometry":{"coordinates":[145.151699,-37.956916],"type":"Point"},"properties":{"osm_id":"5213728808","tag":{"amenity":"waste_basket"}},"type":"Feature"},
	{"geometry":{"coordinates":[145.152181,-37.95683],"type":"Point"},"properties":{"osm_id":"5213729223","tag":{"amenity":"waste_basket"}},"type":"Feature"},
	{"geometry":{"coordinates":[145.152029,-37.954316],"type":"Point"},"properties":{"osm_id":"5213866031","tag":{"amenity":"waste_basket"}},"type":"Feature"},
	{"geometry":{"coordinates":[145.152094,-37.953945],"type":"Point"},"properties":{"osm_id":"5213866033","tag":{"amenity":"waste_basket"}},"type":"Feature"},
	{"geometry":{"coordinates":[145.151633,-37.954275],"type":"Point"},"properties":{"osm_id":"5213866038","tag":{"amenity":"waste_basket"}},"type":"Feature"},
	{"geometry":{"coordinates":[145.151822,-37.955828],"type":"Point"},"properties":{"osm_id":"5213866039","tag":{"amenity":"waste_basket"}},"type":"Feature"},
	{"geometry":{"coordinates":[145.176196,-37.967758],"type":"Point"},"properties":{"osm_id":"5215342616","tag":{"amenity":"waste_basket"}},"type":"Feature"},
	{"geometry":{"coordinates":[145.174404,-37.966033],"type":"Point"},"properties":{"osm_id":"5215344425","tag":{"amenity":"waste_basket"}},"type":"Feature"},
	{"geometry":{"coordinates":[145.174996,-37.966453],"type":"Point"},"properties":{"osm_id":"5215344437","tag":{"amenity":"waste_basket"}},"type":"Feature"},
	{"geometry":{"coordinates":[145.175851,-37.968264],"type":"Point"},"properties":{"osm_id":"5215344446","tag":{"amenity":"waste_basket"}},"type":"Feature"},
	{"geometry":{"coordinates":[145.175922,-37.967185],"type":"Point"},"properties":{"osm_id":"5215344458","tag":{"amenity":"waste_basket"}},"type":"Feature"},
	{"geometry":{"coordinates":[145.174017,-37.965743],"type":"Point"},"properties":{"osm_id":"5215344479","tag":{"amenity":"waste_basket"}},"type":"Feature"},
	{"geometry":{"coordinates":[145.175765,-37.966808],"type":"Point"},"properties":{"osm_id":"5216136809","tag":{"amenity":"waste_basket"}},"type":"Feature"},
	{"geometry":{"coordinates":[145.177127,-37.968125],"type":"Point"},"properties":{"osm_id":"5216136972","tag":{"amenity":"waste_basket"}},"type":"Feature"},
	{"geometry":{"coordinates":[145.148788,-37.971683],"type":"Point"},"properties":{"osm_id":"5241950720","tag":{"amenity":"waste_basket"}},"type":"Feature"},
	{"geometry":{"coordinates":[145.148857,-37.971315],"type":"Point"},"properties":{"osm_id":"5241952621","tag":{"amenity":"waste_basket"}},"type":"Feature"},
	{"geometry":{"coordinates":[145.148758,-37.971858],"type":"Point"},"properties":{"osm_id":"5241952628","tag":{"amenity":"waste_basket"}},"type":"Feature"},
	{"geometry":{"coordinates":[145.120178,-37.928532],"type":"Point"},"properties":{"osm_id":"5242014105","tag":{"amenity":"recycling"}},"type":"Feature"},
	{"geometry":{"coordinates":[145.119217,-37.928389],"type":"Point"},"properties":{"osm_id":"5242024751","tag":{"amenity":"waste_basket"}},"type":"Feature"},
	{"geometry":{"coordinates":[145.119462,-37.927067],"type":"Point"},"properties":{"osm_id":"5242024767","tag":{"amenity":"waste_basket"}},"type":"Feature"},
	{"geometry":{"coordinates":[145.119358,-37.92752],"type":"Point"},"properties":{"osm_id":"5242024806","tag":{"amenity":"waste_basket"}},"type":"Feature"},
	{"geometry":{"coordinates":[145.119302,-37.927991],"type":"Point"},"properties":{"osm_id":"5242024820","tag":{"amenity":"waste_basket"}},"type":"Feature"},
	{"geometry":{"coordinates":[145.118657,-37.926871],"type":"Point"},"properties":{"osm_id":"5242064487","tag":{"amenity":"waste_basket"}},"type":"Feature"},
	{"geometry":{"coordinates":[145.176696,-37.966278],"type":"Point"},"properties":{"osm_id":"5245261417","tag":{"amenity":"waste_basket"}},"type":"Feature"},
	{"geometry":{"coordinates":[145.176737,-37.966035],"type":"Point"},"properties":{"osm_id":"5245261418","tag":{"amenity":"waste_basket"}},"type":"Feature"},
	{"geometry":{"coordinates":[145.17672,-37.966441],"type":"Point"},"properties":{"osm_id":"5245261726","tag":{"amenity":"waste_basket"}},"type":"Feature"},
	{"geometry":{"coordinates":[145.150682,-37.961359],"type":"Point"},"properties":{"osm_id":"5250056711","tag":{"amenity":"waste_basket"}},"type":"Feature"},
	{"geometry":{"coordinates":[145.151167,-37.950434],"type":"Point"},"properties":{"osm_id":"5298771628","tag":{"amenity":"waste_basket"}},"type":"Feature"},
	{"geometry":{"coordinates":[145.151344,-37.950541],"type":"Point"},"properties":{"osm_id":"5298771630","tag":{"amenity":"waste_basket"}},"type":"Feature"},
	{"geometry":{"coordinates":[145.151075,-37.951006],"type":"Point"},"properties":{"osm_id":"5298771631","tag":{"amenity":"waste_basket"}},"type":"Feature"},
	{"geometry":{"coordinates":[145.155917,-37.931293],"type":"Point"},"properties":{"osm_id":"5301567474","tag":{"amenity":"recycling"}},"type":"Feature"},
	{"geometry":{"coordinates":[145.140566,-37.967394],"type":"Point"},"properties":{"osm_id":"5397378667","tag":{"amenity":"waste_basket"}},"type":"Feature"},
	{"geometry":{"coordinates":[145.150999,-37.950534],"type":"Point"},"properties":{"osm_id":"5402564821","tag":{"amenity":"waste_basket"}},"type":"Feature"},
	{"geometry":{"coordinates":[145.151708,-37.951129],"type":"Point"},"properties":{"osm_id":"5826283678","tag":{"amenity":"waste_basket"}},"type":"Feature"},
	{"geometry":{"coordinates":[145.192969,-37.978608],"type":"Point"},"properties":{"osm_id":"5830917679","tag":{"amenity":"waste_basket"}},"type":"Feature"},
	{"geometry":{"coordinates":[145.108745,-37.934176],"type":"Point"},"properties":{"osm_id":"5860020433","tag":{"amenity":"waste_basket"}},"type":"Feature"},
	{"geometry":{"coordinates":[145.110376,-37.933151],"type":"Point"},"properties":{"osm_id":"5860020475","tag":{"amenity":"waste_basket"}},"type":"Feature"},
	{"geometry":{"coordinates":[145.155951,-37.942203],"type":"Point"},"properties":{"osm_id":"5963317139","tag":{"amenity":"waste_basket"}},"type":"Feature"},
	{"geometry":{"coordinates":[145.150268,-37.949508],"type":"Point"},"properties":{"osm_id":"5963317143","tag":{"amenity":"waste_basket"}},"type":"Feature"},
	{"geometry":{"coordinates":[145.154203,-37.942745],"type":"Point"},"properties":{"osm_id":"5963317162","tag":{"amenity":"waste_basket"}},"type":"Feature"},
	{"geometry":{"coordinates":[145.154306,-37.94192],"type":"Point"},"properties":{"osm_id":"5963317164","tag":{"amenity":"waste_basket"}},"type":"Feature"},
	{"geometry":{"coordinates":[145.152881,-37.947279],"type":"Point"},"properties":{"osm_id":"5963317165","tag":{"amenity":"waste_basket"}},"type":"Feature"},
	{"geometry":{"coordinates":[145.151941,-37.953284],"type":"Point"},"properties":{"osm_id":"5968554374","tag":{"amenity":"waste_basket"}},"type":"Feature"},
	{"geometry":{"coordinates":[145.152232,-37.953215],"type":"Point"},"properties":{"osm_id":"5968554378","tag":{"amenity":"waste_basket"}},"type":"Feature"},
	{"geometry":{"coordinates":[145.126895,-37.93587],"type":"Point"},"properties":{"osm_id":"5970881602","tag":{"amenity":"waste_basket"}},"type":"Feature"},
	{"geometry":{"coordinates":[145.160264,-37.945709],"type":"Point"},"properties":{"osm_id":"6004368477","tag":{"amenity":"waste_basket"}},"type":"Feature"},
	{"geometry":{"coordinates":[145.162252,-37.942062],"type":"Point"},"properties":{"osm_id":"6004368488","tag":{"amenity":"waste_basket"}},"type":"Feature"},
	{"geometry":{"coordinates":[145.160668,-37.94562],"type":"Point"},"properties":{"osm_id":"6004368497","tag":{"amenity":"waste_basket"}},"type":"Feature"},
	{"geometry":{"coordinates":[145.168307,-37.934725],"type":"Point"},"properties":{"osm_id":"6016770186","tag":{"amenity":"waste_basket"}},"type":"Feature"},
	{"geometry":{"coordinates":[145.16917,-37.93483],"type":"Point"},"properties":{"osm_id":"6016770193","tag":{"amenity":"waste_basket"}},"type":"Feature"},
	{"geometry":{"coordinates":[145.168885,-37.934762],"type":"Point"},"properties":{"osm_id":"6016770195","tag":{"amenity":"waste_basket"}},"type":"Feature"},
	{"geometry":{"coordinates":[145.168441,-37.934732],"type":"Point"},"properties":{"osm_id":"6016770200","tag":{"amenity":"waste_basket"}},"type":"Feature"},
	{"geometry":{"coordinates":[145.152238,-37.951756],"type":"Point"},"properties":{"osm_id":"6018879580","tag":{"amenity":"waste_basket"}},"type":"Feature"},
	{"geometry":{"coordinates":[145.151612,-37.949626],"type":"Point"},"properties":{"osm_id":"6018879987","tag":{"amenity":"waste_basket"}},"type":"Feature"},
	{"geometry":{"coordinates":[145.15145,-37.948777],"type":"Point"},"properties":{"osm_id":"6018880000","tag":{"amenity":"waste_basket"}},"type":"Feature"},
	{"geometry":{"coordinates":[145.151646,-37.949473],"type":"Point"},"properties":{"osm_id":"6018880034","tag":{"amenity":"waste_basket"}},"type":"Feature"},
	{"geometry":{"coordinates":[145.151369,-37.949691],"type":"Point"},"properties":{"osm_id":"6018880074","tag":{"amenity":"waste_basket"}},"type":"Feature"},
	{"geometry":{"coordinates":[145.151386,-37.949405],"type":"Point"},"properties":{"osm_id":"6018880080","tag":{"amenity":"waste_basket"}},"type":"Feature"},
	{"geometry":{"coordinates":[145.152666,-37.948804],"type":"Point"},"properties":{"osm_id":"6026718537","tag":{"amenity":"waste_basket"}},"type":"Feature"},
	{"geometry":{"coordinates":[145.155901,-37.931041],"type":"Point"},"properties":{"osm_id":"6035939958","tag":{"amenity":"waste_basket"}},"type":"Feature"},
	{"geometry":{"coordinates":[145.155506,-37.931441],"type":"Point"},"properties":{"osm_id":"6035939969","tag":{"amenity":"waste_basket"}},"type":"Feature"},
	{"geometry":{"coordinates":[145.156774,-37.934606],"type":"Point"},"properties":{"osm_id":"6036003841","tag":{"amenity":"waste_basket"}},"type":"Feature"},
	{"geometry":{"coordinates":[145.157185,-37.934591],"type":"Point"},"properties":{"osm_id":"6036003845","tag":{"amenity":"waste_basket"}},"type":"Feature"},
	{"geometry":{"coordinates":[145.155904,-37.933776],"type":"Point"},"properties":{"osm_id":"6036003846","tag":{"amenity":"waste_basket"}},"type":"Feature"},
	{"geometry":{"coordinates":[145.156494,-37.934581],"type":"Point"},"properties":{"osm_id":"6036003848","tag":{"amenity":"waste_basket"}},"type":"Feature"},
	{"geometry":{"coordinates":[145.156848,-37.934618],"type":"Point"},"properties":{"osm_id":"6036003849","tag":{"amenity":"waste_basket"}},"type":"Feature"},
	{"geometry":{"coordinates":[145.157058,-37.934645],"type":"Point"},"properties":{"osm_id":"6036003850","tag":{"amenity":"waste_basket"}},"type":"Feature"},
	{"geometry":{"coordinates":[145.15741,-37.934301],"type":"Point"},"properties":{"osm_id":"6036003852","tag":{"amenity":"waste_basket"}},"type":"Feature"},
	{"geometry":{"coordinates":[145.156667,-37.934595],"type":"Point"},"properties":{"osm_id":"6036003856","tag":{"amenity":"waste_basket"}},"type":"Feature"},
	{"geometry":{"coordinates":[145.117782,-37.927784],"type":"Point"},"properties":{"osm_id":"6040867161","tag":{"amenity":"waste_basket"}},"type":"Feature"},
	{"geometry":{"coordinates":[145.117751,-37.927507],"type":"Point"},"properties":{"osm_id":"6040867162","tag":{"amenity":"waste_basket"}},"type":"Feature"},
	{"geometry":{"coordinates":[145.119174,-37.927257],"type":"Point"},"properties":{"osm_id":"6040888105","tag":{"amenity":"waste_basket"}},"type":"Feature"},
	{"geometry":{"coordinates":[145.151276,-37.95089],"type":"Point"},"properties":{"osm_id":"6041031009","tag":{"amenity":"waste_basket"}},"type":"Feature"},
	{"geometry":{"coordinates":[145.15198,-37.95279],"type":"Point"},"properties":{"name":"Used Syringes","osm_id":"6041031010","tag":{"amenity":"recycling","recycling_type":"container"}},"type":"Feature"},
	{"geometry":{"coordinates":[145.151096,-37.951626],"type":"Point"},"properties":{"osm_id":"6041031017","tag":{"amenity":"waste_basket"}},"type":"Feature"},
	{"geometry":{"coordinates":[145.152991,-37.949051],"type":"Point"},"properties":{"osm_id":"6069578293","tag":{"amenity":"waste_basket"}},"type":"Feature"},
	{"geometry":{"coordinates":[145.153,-37.948809],"type":"Point"},"properties":{"osm_id":"6069578294","tag":{"amenity":"waste_basket"}},"type":"Feature"},
	{"geometry":{"coordinates":[145.153017,-37.94919],"type":"Point"},"properties":{"osm_id":"6069578295","tag":{"amenity":"waste_basket"}},"type":"Feature"},
	{"geometry":{"coordinates":[145.186524,-37.96669],"type":"Point"},"properties":{"osm_id":"6150788320","tag":{"amenity":"waste_basket"}},"type":"Feature"},
	{"geometry":{"coordinates":[145.186706,-37.966708],"type":"Point"},"properties":{"osm_id":"6150788322","tag":{"amenity":"waste_basket"}},"type":"Feature"},
	{"geometry":{"coordinates":[145.132262,-37.946036],"type":"Point"},"properties":{"osm_id":"6659483753","tag":{"amenity":"waste_basket"}},"type":"Feature"},
	{"geometry":{"coordinates":[145.131817,-37.945446],"type":"Point"},"properties":{"osm_id":"6659483754","tag":{"amenity":"waste_basket"}},"type":"Feature"},
	{"geometry":{"coordinates":[145.108916,-37.933035],"type":"Point"},"properties":{"osm_id":"6663156617","tag":{"amenity":"waste_basket"}},"type":"Feature"},
	{"geometry":{"coordinates":[145.108371,-37.936113],"type":"Point"},"properties":{"osm_id":"6663156620","tag":{"amenity":"waste_basket"}},"type":"Feature"},
	{"geometry":{"coordinates":[145.147671,-37.948085],"type":"Point"},"properties":{"osm_id":"7209736836","tag":{"amenity":"waste_basket"}},"type":"Feature"},
	{"geometry":{"coordinates":[145.169081,-37.980331],"type":"Point"},"properties":{"osm_id":"9147194318","tag":{"amenity":"waste_basket","material":"metal","survey:date":"2021-10-05"}},"type":"Feature"},
	{"geometry":{"coordinates":[145.169064,-37.980308],"type":"Point"},"properties":{"osm_id":"9147194318","tag":{"amenity":"waste_basket","material":"metal","survey:date":"2021-10-05"}},"type":"Feature"}
]
}
