{
"type": "FeatureCollection",
"features": [
	{"geometry":{"coordinates":[-76.513297,44.263964],"type":"Point"},"properties":{"name":"Kingston and Area Recycling Centre","osm_id":"33775164","tag":{"amenity":"recycling","loc_name":"KARC","operator":"City of Kingston","recycling:batteries":"yes","recycling:cans":"yes","recycling:glass":"yes","recycling:paper":"yes","recycling_type":"centre"}},"type":"Feature"},
	{"geometry":{"coordinates":[-76.513589,44.259999],"type":"Point"},"properties":{"name":"Kimco","osm_id":"33980788","tag":{"amenity":"recycling","recycling_type":"centre"}},"type":"Feature"},
	{"geometry":{"coordinates":[-76.496242,44.222611],"type":"Point"},"properties":{"osm_id":"443536592","tag":{"amenity":"waste_basket"}},"type":"Feature"},
	{"geometry":{"coordinates":[-76.497356,44.222524],"type":"Point"},"properties":{"osm_id":"443536593","tag":{"amenity":"waste_basket"}},"type":"Feature"},
	{"geometry":{"coordinates":[-76.499869,44.222322],"type":"Point"},"properties":{"osm_id":"443536601","tag":{"amenity":"waste_basket"}},"type":"Feature"},
	{"geometry":{"coordinates":[-76.501181,44.222232],"type":"Point"},"properties":{"osm_id":"443536602","tag":{"amenity":"waste_basket"}},"type":"Feature"},
	{"geometry":{"coordinates":[-76.495422,44.22269],"type":"Point"},"properties":{"osm_id":"443536965","tag":{"amenity":"waste_basket"}},"type":"Feature"},
	{"geometry":{"coordinates":[-76.534018,44.231952],"type":"Point"},"properties":{"osm_id":"447529680","tag":{"amenity":"waste_basket"}},"type":"Feature"},
	{"geometry":{"coordinates":[-76.535141,44.231935],"type":"Point"},"properties":{"osm_id":"447529737","tag":{"amenity":"waste_basket"}},"type":"Feature"},
	{"geometry":{"coordinates":[-76.48887,44.222401],"type":"Point"},"properties":{"osm_id":"454733691","tag":{"amenity":"recycling","colour":"blue","description":"large blue recycling container","recycling_type":"container"}},"type":"Feature"},
	{"geometry":{"coordinates":[-76.488979,44.222322],"type":"Point"},"properties":{"osm_id":"454733692","tag":{"amenity":"waste_basket"}},"type":"Feature"},
	{"geometry":{"coordinates":[-76.48026,44.229044],"type":"Point"},"properties":{"osm_id":"456701123","tag":{"amenity":"recycling","recycling_type":"container"}},"type":"Feature"},
	{"geometry":{"coordinates":[-76.479831,44.228858],"type":"Point"},"properties":{"osm_id":"456701124","tag":{"amenity":"recycling","recycling_type":"container"}},"type":"Feature"},
	{"geometry":{"coordinates":[-76.506006,44.255819],"type":"Point"},"properties":{"osm_id":"459415420","tag":{"amenity":"waste_basket"}},"type":"Feature"},
	{"geometry":{"coordinates":[-76.499601,44.256369],"type":"Point"},"properties":{"osm_id":"459415423","tag":{"amenity":"waste_basket"}},"type":"Feature"},
	{"geometry":{"coordinates":[-76.488092,44.225004],"type":"Point"},"properties":{"osm_id":"465189911","tag":{"amenity":"waste_basket"}},"type":"Feature"},
	{"geometry":{"coordinates":[-76.486958,44.224921],"type":"Point"},"properties":{"osm_id":"465189913","tag":{"amenity":"waste_basket"}},"type":"Feature"},
	{"geometry":{"coordinates":[-76.489971,44.224871],"type":"Point"},"properties":{"osm_id":"465189920","tag":{"amenity":"waste_basket"}},"type":"Feature"},
	{"geometry":{"coordinates":[-76.546712,44.239301],"type":"Point"},"properties":{"osm_id":"469662409","tag":{"amenity":"waste_basket"}},"type":"Feature"},
	{"geometry":{"coordinates":[-76.54483,44.238699],"type":"Point"},"properties":{"osm_id":"469662423","tag":{"amenity":"waste_basket"}},"type":"Feature"},
	{"geometry":{"coordinates":[-76.496122,44.250252],"type":"Point"},"properties":{"osm_id":"476295220","tag":{"amenity":"waste_basket"}},"type":"Feature"},
	{"geometry":{"coordinates":[-76.505096,44.234068],"type":"Point"},"properties":{"osm_id":"697192257","tag":{"amenity":"waste_basket"}},"type":"Feature"},
	{"geometry":{"coordinates":[-76.48891,44.232664],"type":"Point"},"properties":{"osm_id":"796568129","tag":{"amenity":"waste_basket"}},"type":"Feature"},
	{"geometry":{"coordinates":[-76.493052,44.231396],"type":"Point"},"properties":{"osm_id":"796627063","tag":{"amenity":"waste_basket"}},"type":"Feature"},
	{"geometry":{"coordinates":[-76.489354,44.231764],"type":"Point"},"properties":{"osm_id":"796642264","tag":{"amenity":"waste_basket"}},"type":"Feature"},
	{"geometry":{"coordinates":[-76.482192,44.23144],"type":"Point"},"properties":{"osm_id":"796669090","tag":{"amenity":"waste_basket"}},"type":"Feature"},
	{"geometry":{"coordinates":[-76.482181,44.231615],"type":"Point"},"properties":{"osm_id":"796669093","tag":{"amenity":"waste_basket"}},"type":"Feature"},
	{"geometry":{"coordinates":[-76.484326,44.231933],"type":"Point"},"properties":{"osm_id":"796680008","tag":{"amenity":"waste_basket"}},"type":"Feature"},
	{"geometry":{"coordinates":[-76.488243,44.227336],"type":"Point"},"properties":{"osm_id":"927575277","tag":{"amenity":"waste_basket"}},"type":"Feature"},
	{"geometry":{"coordinates":[-76.480906,44.228047],"type":"Point"},"properties":{"osm_id":"927576251","tag":{"amenity":"waste_basket"}},"type":"Feature"},
	{"geometry":{"coordinates":[-76.492885,44.22839],"type":"Point"},"properties":{"osm_id":"927578949","tag":{"amenity":"waste_basket"}},"type":"Feature"},
	{"geometry":{"coordinates":[-76.492312,44.227802],"type":"Point"},"properties":{"osm_id":"927578960","tag":{"amenity":"waste_basket"}},"type":"Feature"},
	{"geometry":{"coordinates":[-76.494225,44.227984],"type":"Point"},"properties":{"osm_id":"927579788","tag":{"amenity":"waste_basket"}},"type":"Feature"},
	{"geometry":{"coordinates":[-76.490393,44.227273],"type":"Point"},"properties":{"osm_id":"927600430","tag":{"amenity":"waste_basket"}},"type":"Feature"},
	{"geometry":{"coordinates":[-76.50483,44.249778],"type":"Point"},"properties":{"osm_id":"1090209327","tag":{"amenity":"waste_basket"}},"type":"Feature"},
	{"geometry":{"coordinates":[-76.491489,44.233043],"type":"Point"},"properties":{"osm_id":"1573136593","tag":{"amenity":"waste_basket"}},"type":"Feature"},
	{"geometry":{"coordinates":[-76.488232,44.236517],"type":"Point"},"properties":{"osm_id":"3179908197","tag":{"amenity":"waste_basket"}},"type":"Feature"},
	{"geometry":{"coordinates":[-76.487764,44.235087],"type":"Point"},"properties":{"osm_id":"3179912127","tag":{"amenity":"waste_basket"}},"type":"Feature"},
	{"geometry":{"coordinates":[-76.487119,44.23236],"type":"Point"},"properties":{"osm_id":"3179929152","tag":{"amenity":"waste_basket"}},"type":"Feature"},
	{"geometry":{"coordinates":[-76.50867,44.232716],"type":"Point"},"properties":{"osm_id":"3187667125","tag":{"amenity":"waste_basket","colour":"black"}},"type":"Feature"},
	{"geometry":{"coordinates":[-76.506991,44.23279],"type":"Point"},"properties":{"osm_id":"3654509132","tag":{"amenity":"waste_basket","colour":"black"}},"type":"Feature"},
	{"geometry":{"coordinates":[-76.49674,44.265849],"type":"Point"},"properties":{"osm_id":"3655964732","tag":{"amenity":"waste_basket","colour":"brown"}},"type":"Feature"},
	{"geometry":{"coordinates":[-76.499905,44.227315],"type":"Point"},"properties":{"osm_id":"3657820248","tag":{"amenity":"waste_basket"}},"type":"Feature"},
	{"geometry":{"coordinates":[-76.52072,44.220646],"type":"Point"},"properties":{"osm_id":"3661063128","tag":{"amenity":"waste_basket"}},"type":"Feature"},
	{"geometry":{"coordinates":[-76.520179,44.222679],"type":"Point"},"properties":{"osm_id":"3661063487","tag":{"amenity":"waste_basket","colour":"black"}},"type":"Feature"},
	{"geometry":{"coordinates":[-76.526434,44.223822],"type":"Point"},"properties":{"osm_id":"3661064447","tag":{"amenity":"waste_basket","colour":"black"}},"type":"Feature"},
	{"geometry":{"coordinates":[-76.526452,44.223832],"type":"Point"},"properties":{"osm_id":"3661064448","tag":{"amenity":"recycling","colour":"blue","recycling_type":"container"}},"type":"Feature"},
	{"geometry":{"coordinates":[-76.487326,44.232388],"type":"Point"},"properties":{"osm_id":"3669613086","tag":{"amenity":"waste_basket","colour":"black","sidewalk_orientation":"between"}},"type":"Feature"},
	{"geometry":{"coordinates":[-76.516086,44.22119],"type":"Point"},"properties":{"osm_id":"3674302137","tag":{"amenity":"waste_basket","colour":"black","sidewalk_orientation":"away"}},"type":"Feature"},
	{"geometry":{"coordinates":[-76.495933,44.234476],"type":"Point"},"properties":{"osm_id":"3675204630","tag":{"amenity":"waste_basket","colour":"blue","operator":"Mac's"}},"type":"Feature"},
	{"geometry":{"coordinates":[-76.479016,44.2331],"type":"Point"},"properties":{"osm_id":"3764728443","tag":{"amenity":"waste_basket","colour":"black"}},"type":"Feature"},
	{"geometry":{"coordinates":[-76.481712,44.232476],"type":"Point"},"properties":{"osm_id":"4876865239","tag":{"amenity":"waste_basket","colour":"black"}},"type":"Feature"},
	{"geometry":{"coordinates":[-76.479714,44.230087],"type":"Point"},"properties":{"osm_id":"4969121813","tag":{"amenity":"waste_basket"}},"type":"Feature"},
	{"geometry":{"coordinates":[-76.481335,44.230398],"type":"Point"},"properties":{"osm_id":"4969121814","tag":{"amenity":"waste_basket"}},"type":"Feature"},
	{"geometry":{"coordinates":[-76.481325,44.230508],"type":"Point"},"properties":{"osm_id":"4969122729","tag":{"amenity":"waste_basket"}},"type":"Feature"},
	{"geometry":{"coordinates":[-76.51637,44.244039],"type":"Point"},"properties":{"osm_id":"6175330422","tag":{"amenity":"waste_basket","colour":"black"}},"type":"Feature"},
	{"geometry":{"coordinates":[-76.500941,44.223987],"type":"Point"},"properties":{"osm_id":"7877024111","tag":{"amenity":"waste_disposal"}},"type":"Feature"}
]
}
