{
"type": "FeatureCollection",
"features": [
	{"geometry":{"coordinates":[-76.532225,3.374974],"type":"Point"},"properties":{"osm_id":"5494994960","tag":{"amenity":"waste_disposal"}},"type":"Feature"},
	{"geometry":{"coordinates":[-76.532832,3.374968],"type":"Point"},"properties":{"osm_id":"5494994962","tag":{"addr:city":"Cali","addr:postcode":"760001","addr:street":"Sendero Ciclov\u00eda - univalle","amenity":"waste_disposal","description":"Recipiente met\u00e1lico con capacidad para la disposici\u00f3n de residuos s\u00f3lidos (pl\u00e1sticos, papel, aluminio, alimentos, entre otros)","level":"1"}},"type":"Feature"},
	{"geometry":{"coordinates":[-76.533317,3.37515],"type":"Point"},"properties":{"osm_id":"5494994968","tag":{"addr:city":"Cali","addr:postcode":"760001","addr:street":"Sendero Ciclov\u00eda","amenity":"waste_disposal","description":"Recipiente en acero inoxidable que permite la disposici\u00f3n de diversos tipos de residuos s\u00f3lidos generados por la comunidad estudiantil, visitantes, trabajadores que permanecen en el interior del campus universitario. Se observa la combinaci\u00f3n de residuos"}},"type":"Feature"},
	{"geometry":{"coordinates":[-76.53343,3.374861],"type":"Point"},"properties":{"osm_id":"5494994969","tag":{"addr:city":"Cali","addr:postcode":"760001","addr:street":"Entrada Peatonal - Avenida Pasoancho.","amenity":"waste_disposal","description":"Contenedores de disposici\u00f3n temporal de residuos s\u00f3lidos suministrados por la empresa Promoambiental"}},"type":"Feature"},
	{"geometry":{"coordinates":[-76.533525,3.375116],"type":"Point"},"properties":{"osm_id":"5494994975","tag":{"addr:city":"Cali","addr:postcode":"760001","addr:street":"Entrada Peatonal - Avenida Pasoancho.","amenity":"recycling","building":"yes","description":"La caja azul es la empresa responsable del mantenimiento de las instalaciones de disposici\u00f3n, al igual que el transporte de los residuos de medicamentos viejos, vencidos, deteriorados que son dispuestos por comunidad estudiantil, trabajadores, visitantes","operator":"Universidad del Valle","recycling:waste":"yes","recycling_type":"centre"}},"type":"Feature"},
	{"geometry":{"coordinates":[-76.534166,3.374713],"type":"Point"},"properties":{"osm_id":"5496869953","tag":{"addr:city":"Cali","addr:postcode":"760001","addr:street":"Entrada Peatonal - Avenida Pasoancho.","amenity":"waste_disposal","description":"Recipiente construido en acero inoxidable siendo un material resistente a los cambios clim\u00e1ticos para la disposici\u00f3n temporal de los residuos generados por la comunidad estudiantil, trabajadores y visitantes al interior del campus universitario."}},"type":"Feature"}
]
}
