{
"type": "FeatureCollection",
"features": [
	{"geometry":{"coordinates":[48.542988,54.338114],"type":"Point"},"properties":{"osm_id":"1925991344","tag":{"amenity":"waste_disposal"}},"type":"Feature"},
	{"geometry":{"coordinates":[48.545447,54.339811],"type":"Point"},"properties":{"osm_id":"3992126167","tag":{"amenity":"waste_disposal"}},"type":"Feature"},
	{"geometry":{"coordinates":[48.548637,54.340022],"type":"Point"},"properties":{"osm_id":"3992126174","tag":{"amenity":"waste_disposal"}},"type":"Feature"},
	{"geometry":{"coordinates":[48.534708,54.336975],"type":"Point"},"properties":{"osm_id":"4005741925","tag":{"amenity":"waste_disposal"}},"type":"Feature"},
	{"geometry":{"coordinates":[48.548338,54.346938],"type":"Point"},"properties":{"osm_id":"4086713490","tag":{"amenity":"waste_basket"}},"type":"Feature"},
	{"geometry":{"coordinates":[48.548321,54.347064],"type":"Point"},"properties":{"osm_id":"4086713491","tag":{"amenity":"waste_basket"}},"type":"Feature"},
	{"geometry":{"coordinates":[48.550062,54.33847],"type":"Point"},"properties":{"osm_id":"4090192853","tag":{"amenity":"waste_disposal"}},"type":"Feature"},
	{"geometry":{"coordinates":[48.563948,54.359177],"type":"Point"},"properties":{"osm_id":"4090195091","tag":{"amenity":"waste_basket"}},"type":"Feature"},
	{"geometry":{"coordinates":[48.557323,54.328759],"type":"Point"},"properties":{"osm_id":"4239666840","tag":{"amenity":"waste_disposal"}},"type":"Feature"},
	{"geometry":{"coordinates":[48.539112,54.332934],"type":"Point"},"properties":{"osm_id":"4255352006","tag":{"amenity":"waste_disposal"}},"type":"Feature"},
	{"geometry":{"coordinates":[48.544435,54.332961],"type":"Point"},"properties":{"osm_id":"4255352007","tag":{"amenity":"waste_disposal"}},"type":"Feature"},
	{"geometry":{"coordinates":[48.548492,54.342519],"type":"Point"},"properties":{"osm_id":"6139459220","tag":{"amenity":"waste_disposal","collection_times":"\u00d0\u0092\u00d1\u008b\u00d1\u0085\u00d0\u00be\u00d0\u00b4\u00d0\u00bd\u00d1\u008b\u00d0\u00b5"}},"type":"Feature"}
]
}
