{
"type": "FeatureCollection",
"lastupdate": "2020-08-04T00:00:00Z",
"features": [
	{"geometry":{"coordinates":[-73.60012,45.561747],"type":"Point"},"properties":{"osm_id":"782564073","tag":{"amenity":"waste_basket"}},"type":"Feature"},
	{"geometry":{"coordinates":[-73.589541,45.570335],"type":"Point"},"properties":{"osm_id":"821345354","tag":{"amenity":"waste_basket"}},"type":"Feature"},
	{"geometry":{"coordinates":[-73.589256,45.543202],"type":"Point"},"properties":{"osm_id":"1302759531","tag":{"amenity":"waste_basket"}},"type":"Feature"},
	{"geometry":{"coordinates":[-73.58749,45.545258],"type":"Point"},"properties":{"osm_id":"1302773423","tag":{"amenity":"waste_basket"}},"type":"Feature"},
	{"geometry":{"coordinates":[-73.579134,45.560477],"type":"Point"},"properties":{"osm_id":"1391182400","tag":{"amenity":"waste_basket"}},"type":"Feature"},
	{"geometry":{"coordinates":[-73.585586,45.5238],"type":"Point"},"properties":{"osm_id":"1563179992","tag":{"amenity":"waste_basket"}},"type":"Feature"},
	{"geometry":{"coordinates":[-73.593213,45.526998],"type":"Point"},"properties":{"osm_id":"1743948553","tag":{"amenity":"waste_basket"}},"type":"Feature"},
	{"geometry":{"coordinates":[-73.569791,45.541853],"type":"Point"},"properties":{"name":"Insertech","osm_id":"2683768242","tag":{"addr:city":"Montr\u00e9al","addr:housenumber":"4820","addr:postcode":"H1Y 3J8","addr:province":"QC","addr:street":"Rue Molson","amenity":"recycling","opening_hours":"Mo-We 10:00-18:00; Th-Fr 10:00-19:00; Sa 10:00-17:00; Su off; Dec 24 10:00-15:00; Dec 25-26 off; Dec 31 off; Jan 1 off; Jan 2 13:00-19:00","phone":"+1-514-596-2842","recycling:computers":"yes","recycling_type":"centre","repair":"yes","second_hand":"yes","shop":"computer","website":"https://www.insertech.ca/"}},"type":"Feature"},
	{"geometry":{"coordinates":[-73.624467,45.530225],"type":"Point"},"properties":{"osm_id":"3087959613","tag":{"amenity":"waste_basket"}},"type":"Feature"},
	{"geometry":{"coordinates":[-73.597272,45.554606],"type":"Point"},"properties":{"osm_id":"4306410284","tag":{"amenity":"waste_basket"}},"type":"Feature"},
	{"geometry":{"coordinates":[-73.597205,45.554873],"type":"Point"},"properties":{"osm_id":"4306410294","tag":{"amenity":"waste_basket"}},"type":"Feature"},
	{"geometry":{"coordinates":[-73.564567,45.543097],"type":"Point"},"properties":{"osm_id":"4356635709","tag":{"amenity":"waste_basket"}},"type":"Feature"},
	{"geometry":{"coordinates":[-73.574205,45.529881],"type":"Point"},"properties":{"osm_id":"4422400291","tag":{"amenity":"waste_basket"}},"type":"Feature"},
	{"geometry":{"coordinates":[-73.574506,45.532803],"type":"Point"},"properties":{"osm_id":"4422400295","tag":{"amenity":"waste_basket"}},"type":"Feature"},
	{"geometry":{"coordinates":[-73.576395,45.530889],"type":"Point"},"properties":{"osm_id":"4422452189","tag":{"amenity":"waste_basket"}},"type":"Feature"},
	{"geometry":{"coordinates":[-73.644066,45.570172],"type":"Point"},"properties":{"osm_id":"4466015911","tag":{"amenity":"waste_basket"}},"type":"Feature"},
	{"geometry":{"coordinates":[-73.610587,45.575189],"type":"Point"},"properties":{"osm_id":"4466280098","tag":{"amenity":"waste_basket"}},"type":"Feature"},
	{"geometry":{"coordinates":[-73.58623,45.546382],"type":"Point"},"properties":{"osm_id":"4476198686","tag":{"amenity":"waste_basket"}},"type":"Feature"},
	{"geometry":{"coordinates":[-73.586344,45.5467],"type":"Point"},"properties":{"osm_id":"4476198687","tag":{"amenity":"waste_basket"}},"type":"Feature"},
	{"geometry":{"coordinates":[-73.649699,45.553231],"type":"Point"},"properties":{"name":"Waste basket","osm_id":"4735958083","tag":{"amenity":"waste_basket"}},"type":"Feature"},
	{"geometry":{"coordinates":[-73.565394,45.522884],"type":"Point"},"properties":{"osm_id":"4851799971","tag":{"amenity":"waste_basket"}},"type":"Feature"},
	{"geometry":{"coordinates":[-73.565296,45.522949],"type":"Point"},"properties":{"osm_id":"4851876109","tag":{"amenity":"waste_basket"}},"type":"Feature"},
	{"geometry":{"coordinates":[-73.564605,45.522007],"type":"Point"},"properties":{"osm_id":"4851876111","tag":{"amenity":"waste_basket"}},"type":"Feature"},
	{"geometry":{"coordinates":[-73.564911,45.525446],"type":"Point"},"properties":{"osm_id":"5119558121","tag":{"addr:city":"Montr\u00e9al","addr:street":"sherbrooke","amenity":"recycling","location":"overground","recycling_type":"container"}},"type":"Feature"},
	{"geometry":{"coordinates":[-73.567981,45.528888],"type":"Point"},"properties":{"osm_id":"5546158238","tag":{"amenity":"recycling"}},"type":"Feature"},
	{"geometry":{"coordinates":[-73.618455,45.558198],"type":"Point"},"properties":{"name":"Centre de tri des mati\u00c3\u00a8res recyclables de Montr\u00c3\u00a9al","osm_id":"5576257192","tag":{"amenity":"recycling","recycling_type":"centre"}},"type":"Feature"},
	{"geometry":{"coordinates":[-73.592134,45.533862],"type":"Point"},"properties":{"osm_id":"6762609354","tag":{"amenity":"waste_basket"}},"type":"Feature"},
	{"geometry":{"coordinates":[-73.592175,45.53375],"type":"Point"},"properties":{"osm_id":"6762609355","tag":{"amenity":"waste_basket"}},"type":"Feature"},
	{"geometry":{"coordinates":[-73.593451,45.533669],"type":"Point"},"properties":{"osm_id":"6762611086","tag":{"amenity":"waste_basket"}},"type":"Feature"},
	{"geometry":{"coordinates":[-73.586022,45.532816],"type":"Point"},"properties":{"osm_id":"6767192058","tag":{"amenity":"waste_basket"}},"type":"Feature"},
	{"geometry":{"coordinates":[-73.586388,45.532995],"type":"Point"},"properties":{"osm_id":"6767192059","tag":{"amenity":"waste_basket"}},"type":"Feature"}
]
}
