{
"type": "FeatureCollection",
"features": [
	{"geometry":{"coordinates":[-73.59574,45.478425],"type":"Point"},"properties":{"osm_id":"412406195","tag":{"amenity":"recycling","recycling_type":"container"}},"type":"Feature"},
	{"geometry":{"coordinates":[-73.61428,45.514195],"type":"Point"},"properties":{"osm_id":"819027158","tag":{"amenity":"waste_basket"}},"type":"Feature"},
	{"geometry":{"coordinates":[-73.613671,45.514985],"type":"Point"},"properties":{"osm_id":"819027165","tag":{"amenity":"waste_basket"}},"type":"Feature"},
	{"geometry":{"coordinates":[-73.614497,45.5145],"type":"Point"},"properties":{"osm_id":"819027216","tag":{"amenity":"waste_basket"}},"type":"Feature"},
	{"geometry":{"coordinates":[-73.615315,45.514648],"type":"Point"},"properties":{"osm_id":"819027243","tag":{"amenity":"waste_basket"}},"type":"Feature"},
	{"geometry":{"coordinates":[-73.616188,45.514419],"type":"Point"},"properties":{"osm_id":"819027244","tag":{"amenity":"waste_basket"}},"type":"Feature"},
	{"geometry":{"coordinates":[-73.614972,45.515079],"type":"Point"},"properties":{"osm_id":"819027252","tag":{"amenity":"waste_basket"}},"type":"Feature"},
	{"geometry":{"coordinates":[-73.615164,45.5153],"type":"Point"},"properties":{"osm_id":"819027254","tag":{"amenity":"waste_basket"}},"type":"Feature"},
	{"geometry":{"coordinates":[-73.616383,45.521027],"type":"Point"},"properties":{"osm_id":"821375129","tag":{"amenity":"waste_basket"}},"type":"Feature"},
	{"geometry":{"coordinates":[-73.615891,45.520829],"type":"Point"},"properties":{"osm_id":"821375130","tag":{"amenity":"waste_basket"}},"type":"Feature"},
	{"geometry":{"coordinates":[-73.616157,45.520935],"type":"Point"},"properties":{"osm_id":"821375134","tag":{"amenity":"waste_basket"}},"type":"Feature"},
	{"geometry":{"coordinates":[-73.61581,45.520959],"type":"Point"},"properties":{"osm_id":"821375136","tag":{"amenity":"waste_basket"}},"type":"Feature"},
	{"geometry":{"coordinates":[-73.615635,45.521153],"type":"Point"},"properties":{"osm_id":"821375143","tag":{"amenity":"waste_basket"}},"type":"Feature"},
	{"geometry":{"coordinates":[-73.6107,45.520563],"type":"Point"},"properties":{"osm_id":"821375153","tag":{"amenity":"waste_basket"}},"type":"Feature"},
	{"geometry":{"coordinates":[-73.581767,45.518173],"type":"Point"},"properties":{"osm_id":"867716164","tag":{"amenity":"waste_basket"}},"type":"Feature"},
	{"geometry":{"coordinates":[-73.612668,45.521654],"type":"Point"},"properties":{"osm_id":"876644241","tag":{"amenity":"waste_basket"}},"type":"Feature"},
	{"geometry":{"coordinates":[-73.592752,45.504833],"type":"Point"},"properties":{"osm_id":"895754781","tag":{"amenity":"waste_basket"}},"type":"Feature"},
	{"geometry":{"coordinates":[-73.591517,45.50687],"type":"Point"},"properties":{"osm_id":"895754796","tag":{"amenity":"waste_basket"}},"type":"Feature"},
	{"geometry":{"coordinates":[-73.587174,45.507288],"type":"Point"},"properties":{"osm_id":"895754799","tag":{"amenity":"waste_basket"}},"type":"Feature"},
	{"geometry":{"coordinates":[-73.587615,45.507811],"type":"Point"},"properties":{"osm_id":"895754802","tag":{"amenity":"waste_basket"}},"type":"Feature"},
	{"geometry":{"coordinates":[-73.588001,45.50919],"type":"Point"},"properties":{"osm_id":"895754811","tag":{"amenity":"waste_basket"}},"type":"Feature"},
	{"geometry":{"coordinates":[-73.604506,45.492883],"type":"Point"},"properties":{"osm_id":"962190126","tag":{"amenity":"waste_basket"}},"type":"Feature"},
	{"geometry":{"coordinates":[-73.604695,45.492],"type":"Point"},"properties":{"osm_id":"962190179","tag":{"amenity":"waste_basket"}},"type":"Feature"},
	{"geometry":{"coordinates":[-73.592536,45.48406],"type":"Point"},"properties":{"osm_id":"1071758095","tag":{"amenity":"waste_basket"}},"type":"Feature"},
	{"geometry":{"coordinates":[-73.575469,45.482612],"type":"Point"},"properties":{"osm_id":"1643704304","tag":{"amenity":"waste_basket"}},"type":"Feature"},
	{"geometry":{"coordinates":[-73.574467,45.483299],"type":"Point"},"properties":{"osm_id":"1643704307","tag":{"amenity":"waste_basket"}},"type":"Feature"},
	{"geometry":{"coordinates":[-73.625651,45.507996],"type":"Point"},"properties":{"osm_id":"2097081727","tag":{"amenity":"recycling","recycling:clothes":"yes","recycling_type":"container"}},"type":"Feature"},
	{"geometry":{"coordinates":[-73.604955,45.518947],"type":"Point"},"properties":{"osm_id":"2291004422","tag":{"amenity":"waste_basket"}},"type":"Feature"},
	{"geometry":{"coordinates":[-73.605261,45.518298],"type":"Point"},"properties":{"osm_id":"2291004425","tag":{"amenity":"waste_basket"}},"type":"Feature"},
	{"geometry":{"coordinates":[-73.603342,45.518226],"type":"Point"},"properties":{"osm_id":"2291005011","tag":{"amenity":"waste_basket"}},"type":"Feature"},
	{"geometry":{"coordinates":[-73.604342,45.517055],"type":"Point"},"properties":{"osm_id":"2291005012","tag":{"amenity":"waste_basket"}},"type":"Feature"},
	{"geometry":{"coordinates":[-73.604748,45.517671],"type":"Point"},"properties":{"osm_id":"2291005013","tag":{"amenity":"waste_basket"}},"type":"Feature"},
	{"geometry":{"coordinates":[-73.604661,45.517933],"type":"Point"},"properties":{"osm_id":"2291005015","tag":{"amenity":"waste_basket"}},"type":"Feature"},
	{"geometry":{"coordinates":[-73.604314,45.518244],"type":"Point"},"properties":{"osm_id":"2291005016","tag":{"amenity":"waste_basket"}},"type":"Feature"},
	{"geometry":{"coordinates":[-73.605342,45.517502],"type":"Point"},"properties":{"osm_id":"2291005017","tag":{"amenity":"waste_basket"}},"type":"Feature"},
	{"geometry":{"coordinates":[-73.604554,45.518106],"type":"Point"},"properties":{"osm_id":"2291005018","tag":{"amenity":"waste_basket"}},"type":"Feature"},
	{"geometry":{"coordinates":[-73.604491,45.517573],"type":"Point"},"properties":{"osm_id":"2291005019","tag":{"amenity":"waste_basket"}},"type":"Feature"},
	{"geometry":{"coordinates":[-73.60435,45.517667],"type":"Point"},"properties":{"osm_id":"2291005020","tag":{"amenity":"waste_basket"}},"type":"Feature"},
	{"geometry":{"coordinates":[-73.62673,45.510535],"type":"Point"},"properties":{"osm_id":"2379217271","tag":{"amenity":"waste_basket"}},"type":"Feature"},
	{"geometry":{"coordinates":[-73.62838,45.508604],"type":"Point"},"properties":{"osm_id":"2379217328","tag":{"amenity":"waste_basket"}},"type":"Feature"},
	{"geometry":{"coordinates":[-73.627745,45.509403],"type":"Point"},"properties":{"osm_id":"2379217392","tag":{"amenity":"waste_basket"}},"type":"Feature"},
	{"geometry":{"coordinates":[-73.627983,45.509279],"type":"Point"},"properties":{"osm_id":"2379217436","tag":{"amenity":"waste_basket"}},"type":"Feature"},
	{"geometry":{"coordinates":[-73.566729,45.464731],"type":"Point"},"properties":{"osm_id":"2484187933","tag":{"addr:city":"Montr\u00c3\u00a9al","addr:street":"Rue Wellington","amenity":"waste_basket"}},"type":"Feature"},
	{"geometry":{"coordinates":[-73.62148,45.47691],"type":"Point"},"properties":{"osm_id":"2484397931","tag":{"amenity":"waste_basket"}},"type":"Feature"},
	{"geometry":{"coordinates":[-73.564869,45.510451],"type":"Point"},"properties":{"osm_id":"2494171007","tag":{"amenity":"waste_basket"}},"type":"Feature"},
	{"geometry":{"coordinates":[-73.564885,45.510458],"type":"Point"},"properties":{"osm_id":"2494171009","tag":{"amenity":"waste_basket"}},"type":"Feature"},
	{"geometry":{"coordinates":[-73.565154,45.510582],"type":"Point"},"properties":{"osm_id":"2494171011","tag":{"amenity":"waste_basket"}},"type":"Feature"},
	{"geometry":{"coordinates":[-73.567301,45.460283],"type":"Point"},"properties":{"osm_id":"2495444608","tag":{"amenity":"waste_basket"}},"type":"Feature"},
	{"geometry":{"coordinates":[-73.567253,45.461106],"type":"Point"},"properties":{"osm_id":"2495461946","tag":{"amenity":"waste_basket"}},"type":"Feature"},
	{"geometry":{"coordinates":[-73.567113,45.460883],"type":"Point"},"properties":{"osm_id":"2495461949","tag":{"amenity":"waste_basket"}},"type":"Feature"},
	{"geometry":{"coordinates":[-73.56701,45.463582],"type":"Point"},"properties":{"osm_id":"2496694755","tag":{"amenity":"waste_basket"}},"type":"Feature"},
	{"geometry":{"coordinates":[-73.564832,45.508811],"type":"Point"},"properties":{"osm_id":"2501572927","tag":{"amenity":"waste_basket"}},"type":"Feature"},
	{"geometry":{"coordinates":[-73.564682,45.50873],"type":"Point"},"properties":{"osm_id":"2501573215","tag":{"amenity":"waste_basket"}},"type":"Feature"},
	{"geometry":{"coordinates":[-73.564904,45.50883],"type":"Point"},"properties":{"osm_id":"2501573776","tag":{"amenity":"waste_basket"}},"type":"Feature"},
	{"geometry":{"coordinates":[-73.564953,45.508732],"type":"Point"},"properties":{"osm_id":"2501573958","tag":{"amenity":"waste_basket"}},"type":"Feature"},
	{"geometry":{"coordinates":[-73.623304,45.496706],"type":"Point"},"properties":{"osm_id":"2510915550","tag":{"amenity":"waste_basket"}},"type":"Feature"},
	{"geometry":{"coordinates":[-73.583739,45.489235],"type":"Point"},"properties":{"osm_id":"2519449693","tag":{"amenity":"waste_basket"}},"type":"Feature"},
	{"geometry":{"coordinates":[-73.571575,45.51508],"type":"Point"},"properties":{"osm_id":"2666398360","tag":{"amenity":"waste_basket"}},"type":"Feature"},
	{"geometry":{"coordinates":[-73.572314,45.514338],"type":"Point"},"properties":{"osm_id":"2666398361","tag":{"amenity":"waste_basket"}},"type":"Feature"},
	{"geometry":{"coordinates":[-73.565712,45.514738],"type":"Point"},"properties":{"osm_id":"2838713102","tag":{"amenity":"waste_basket"}},"type":"Feature"},
	{"geometry":{"coordinates":[-73.603018,45.483976],"type":"Point"},"properties":{"osm_id":"2880786001","tag":{"amenity":"waste_basket"}},"type":"Feature"},
	{"geometry":{"coordinates":[-73.567219,45.461749],"type":"Point"},"properties":{"osm_id":"2925377061","tag":{"amenity":"waste_basket"}},"type":"Feature"},
	{"geometry":{"coordinates":[-73.566982,45.461798],"type":"Point"},"properties":{"osm_id":"2925377063","tag":{"amenity":"waste_basket"}},"type":"Feature"},
	{"geometry":{"coordinates":[-73.567207,45.462034],"type":"Point"},"properties":{"osm_id":"2925377066","tag":{"amenity":"waste_basket"}},"type":"Feature"},
	{"geometry":{"coordinates":[-73.573738,45.495412],"type":"Point"},"properties":{"osm_id":"4030794086","tag":{"amenity":"waste_basket"}},"type":"Feature"},
	{"geometry":{"coordinates":[-73.57295,45.495743],"type":"Point"},"properties":{"osm_id":"4030795311","tag":{"amenity":"waste_basket"}},"type":"Feature"},
	{"geometry":{"coordinates":[-73.577373,45.496915],"type":"Point"},"properties":{"osm_id":"4034097006","tag":{"amenity":"waste_basket"}},"type":"Feature"},
	{"geometry":{"coordinates":[-73.574174,45.480399],"type":"Point"},"properties":{"osm_id":"4297237090","tag":{"amenity":"waste_basket"}},"type":"Feature"},
	{"geometry":{"coordinates":[-73.585348,45.477702],"type":"Point"},"properties":{"osm_id":"4297303889","tag":{"amenity":"waste_basket"}},"type":"Feature"},
	{"geometry":{"coordinates":[-73.584453,45.477745],"type":"Point"},"properties":{"osm_id":"4297303989","tag":{"amenity":"waste_basket"}},"type":"Feature"},
	{"geometry":{"coordinates":[-73.573734,45.480908],"type":"Point"},"properties":{"osm_id":"4309975994","tag":{"amenity":"waste_basket"}},"type":"Feature"},
	{"geometry":{"coordinates":[-73.573635,45.480406],"type":"Point"},"properties":{"osm_id":"4309976292","tag":{"amenity":"waste_basket"}},"type":"Feature"},
	{"geometry":{"coordinates":[-73.565924,45.471718],"type":"Point"},"properties":{"osm_id":"4313672289","tag":{"amenity":"waste_basket"}},"type":"Feature"},
	{"geometry":{"coordinates":[-73.574961,45.503955],"type":"Point"},"properties":{"osm_id":"4346227591","tag":{"amenity":"waste_basket","waste":"trash"}},"type":"Feature"},
	{"geometry":{"coordinates":[-73.575002,45.503917],"type":"Point"},"properties":{"osm_id":"4346227592","tag":{"amenity":"waste_basket","waste":"trash"}},"type":"Feature"},
	{"geometry":{"coordinates":[-73.58034,45.489384],"type":"Point"},"properties":{"osm_id":"4382759492","tag":{"amenity":"waste_basket"}},"type":"Feature"},
	{"geometry":{"coordinates":[-73.598241,45.498052],"type":"Point"},"properties":{"osm_id":"4467385306","tag":{"amenity":"waste_basket"}},"type":"Feature"},
	{"geometry":{"coordinates":[-73.593441,45.515793],"type":"Point"},"properties":{"osm_id":"4511432807","tag":{"amenity":"waste_basket"}},"type":"Feature"},
	{"geometry":{"coordinates":[-73.651721,45.48771],"type":"Point"},"properties":{"osm_id":"4705343999","tag":{"amenity":"waste_basket"}},"type":"Feature"},
	{"geometry":{"coordinates":[-73.575074,45.465756],"type":"Point"},"properties":{"osm_id":"4936227958","tag":{"amenity":"waste_basket"}},"type":"Feature"},
	{"geometry":{"coordinates":[-73.574916,45.466023],"type":"Point"},"properties":{"osm_id":"4936227975","tag":{"amenity":"waste_basket"}},"type":"Feature"},
	{"geometry":{"coordinates":[-73.574596,45.466483],"type":"Point"},"properties":{"osm_id":"4936227977","tag":{"amenity":"waste_basket"}},"type":"Feature"},
	{"geometry":{"coordinates":[-73.570698,45.470558],"type":"Point"},"properties":{"osm_id":"4939170970","tag":{"amenity":"waste_basket"}},"type":"Feature"},
	{"geometry":{"coordinates":[-73.618786,45.519162],"type":"Point"},"properties":{"osm_id":"5667815327","tag":{"amenity":"waste_basket"}},"type":"Feature"},
	{"geometry":{"coordinates":[-73.619416,45.518485],"type":"Point"},"properties":{"osm_id":"5667815328","tag":{"amenity":"waste_basket"}},"type":"Feature"},
	{"geometry":{"coordinates":[-73.616683,45.518627],"type":"Point"},"properties":{"osm_id":"5667815336","tag":{"amenity":"waste_basket"}},"type":"Feature"},
	{"geometry":{"coordinates":[-73.616498,45.518821],"type":"Point"},"properties":{"osm_id":"5667815338","tag":{"amenity":"waste_basket"}},"type":"Feature"},
	{"geometry":{"coordinates":[-73.641201,45.51399],"type":"Point"},"properties":{"osm_id":"5699985930","tag":{"amenity":"waste_disposal"}},"type":"Feature"},
	{"geometry":{"coordinates":[-73.592005,45.510258],"type":"Point"},"properties":{"osm_id":"5766572271","tag":{"amenity":"waste_basket"}},"type":"Feature"},
	{"geometry":{"coordinates":[-73.592074,45.510288],"type":"Point"},"properties":{"osm_id":"5766572272","tag":{"amenity":"waste_basket"}},"type":"Feature"},
	{"geometry":{"coordinates":[-73.592144,45.510326],"type":"Point"},"properties":{"osm_id":"5766572273","tag":{"amenity":"waste_basket"}},"type":"Feature"},
	{"geometry":{"coordinates":[-73.591709,45.510095],"type":"Point"},"properties":{"osm_id":"5766572274","tag":{"amenity":"waste_basket","waste":"trash"}},"type":"Feature"},
	{"geometry":{"coordinates":[-73.59171,45.502692],"type":"Point"},"properties":{"name":"Poubelle","osm_id":"5823625506","tag":{"amenity":"recycling"}},"type":"Feature"},
	{"geometry":{"coordinates":[-73.578786,45.499833],"type":"Point"},"properties":{"osm_id":"6013057896","tag":{"amenity":"waste_basket"}},"type":"Feature"},
	{"geometry":{"coordinates":[-73.578495,45.499697],"type":"Point"},"properties":{"osm_id":"6013058215","tag":{"amenity":"waste_basket"}},"type":"Feature"},
	{"geometry":{"coordinates":[-73.576906,45.498889],"type":"Point"},"properties":{"osm_id":"6013059881","tag":{"amenity":"waste_basket"}},"type":"Feature"},
	{"geometry":{"coordinates":[-73.576716,45.498798],"type":"Point"},"properties":{"osm_id":"6013059882","tag":{"amenity":"waste_basket"}},"type":"Feature"},
	{"geometry":{"coordinates":[-73.596956,45.521352],"type":"Point"},"properties":{"osm_id":"6016531380","tag":{"amenity":"waste_basket"}},"type":"Feature"},
	{"geometry":{"coordinates":[-73.571683,45.497526],"type":"Point"},"properties":{"osm_id":"6026218112","tag":{"amenity":"waste_basket"}},"type":"Feature"},
	{"geometry":{"coordinates":[-73.574284,45.498773],"type":"Point"},"properties":{"osm_id":"6026247713","tag":{"amenity":"waste_basket"}},"type":"Feature"},
	{"geometry":{"coordinates":[-73.575031,45.498028],"type":"Point"},"properties":{"osm_id":"6026247716","tag":{"amenity":"waste_basket"}},"type":"Feature"},
	{"geometry":{"coordinates":[-73.574259,45.498522],"type":"Point"},"properties":{"osm_id":"6026247732","tag":{"amenity":"waste_basket"}},"type":"Feature"},
	{"geometry":{"coordinates":[-73.574844,45.497935],"type":"Point"},"properties":{"osm_id":"6026247733","tag":{"amenity":"waste_basket"}},"type":"Feature"},
	{"geometry":{"coordinates":[-73.574448,45.498616],"type":"Point"},"properties":{"osm_id":"6026247745","tag":{"amenity":"waste_basket"}},"type":"Feature"},
	{"geometry":{"coordinates":[-73.574058,45.498722],"type":"Point"},"properties":{"osm_id":"6026247748","tag":{"amenity":"waste_basket"}},"type":"Feature"},
	{"geometry":{"coordinates":[-73.586274,45.505771],"type":"Point"},"properties":{"osm_id":"7169582181","tag":{"amenity":"waste_basket"}},"type":"Feature"},
	{"geometry":{"coordinates":[-73.574694,45.515391],"type":"Point"},"properties":{"osm_id":"7216203721","tag":{"amenity":"waste_basket"}},"type":"Feature"},
	{"geometry":{"coordinates":[-73.564608,45.489527],"type":"Point"},"properties":{"osm_id":"7817913330","tag":{"amenity":"waste_basket"}},"type":"Feature"}
]
}
