{
"type": "FeatureCollection",
"features": [
	{"geometry":{"coordinates":[-73.623097,45.415134],"type":"Point"},"properties":{"osm_id":"842904334","tag":{"amenity":"waste_basket"}},"type":"Feature"},
	{"geometry":{"coordinates":[-73.62262,45.415131],"type":"Point"},"properties":{"osm_id":"842904345","tag":{"amenity":"waste_basket"}},"type":"Feature"},
	{"geometry":{"coordinates":[-73.622951,45.415129],"type":"Point"},"properties":{"osm_id":"842904360","tag":{"amenity":"waste_basket"}},"type":"Feature"},
	{"geometry":{"coordinates":[-73.622757,45.415131],"type":"Point"},"properties":{"osm_id":"842904363","tag":{"amenity":"waste_basket"}},"type":"Feature"},
	{"geometry":{"coordinates":[-73.56746,45.458571],"type":"Point"},"properties":{"osm_id":"2495389942","tag":{"amenity":"waste_basket"}},"type":"Feature"},
	{"geometry":{"coordinates":[-73.567364,45.458201],"type":"Point"},"properties":{"osm_id":"2495389955","tag":{"amenity":"waste_basket"}},"type":"Feature"},
	{"geometry":{"coordinates":[-73.5672,45.459909],"type":"Point"},"properties":{"osm_id":"2495444611","tag":{"amenity":"waste_basket"}},"type":"Feature"},
	{"geometry":{"coordinates":[-73.595596,45.423281],"type":"Point"},"properties":{"osm_id":"2500204835","tag":{"amenity":"waste_basket"}},"type":"Feature"},
	{"geometry":{"coordinates":[-73.593972,45.424459],"type":"Point"},"properties":{"osm_id":"2500204871","tag":{"amenity":"waste_basket"}},"type":"Feature"},
	{"geometry":{"coordinates":[-73.592286,45.425542],"type":"Point"},"properties":{"osm_id":"2500204915","tag":{"amenity":"waste_basket"}},"type":"Feature"},
	{"geometry":{"coordinates":[-73.591518,45.426089],"type":"Point"},"properties":{"osm_id":"2500204929","tag":{"amenity":"waste_basket"}},"type":"Feature"},
	{"geometry":{"coordinates":[-73.590809,45.426747],"type":"Point"},"properties":{"osm_id":"2500204988","tag":{"amenity":"waste_basket"}},"type":"Feature"},
	{"geometry":{"coordinates":[-73.589847,45.427378],"type":"Point"},"properties":{"osm_id":"2500205013","tag":{"amenity":"waste_basket"}},"type":"Feature"},
	{"geometry":{"coordinates":[-73.59002,45.427842],"type":"Point"},"properties":{"osm_id":"2500205024","tag":{"amenity":"waste_basket"}},"type":"Feature"},
	{"geometry":{"coordinates":[-73.58912,45.42816],"type":"Point"},"properties":{"osm_id":"2500205035","tag":{"amenity":"waste_basket"}},"type":"Feature"},
	{"geometry":{"coordinates":[-73.567504,45.456579],"type":"Point"},"properties":{"osm_id":"2960394784","tag":{"amenity":"waste_basket"}},"type":"Feature"},
	{"geometry":{"coordinates":[-73.599816,45.440088],"type":"Point"},"properties":{"osm_id":"3007325142","tag":{"amenity":"waste_basket"}},"type":"Feature"},
	{"geometry":{"coordinates":[-73.608905,45.442014],"type":"Point"},"properties":{"osm_id":"3007762122","tag":{"amenity":"waste_basket"}},"type":"Feature"},
	{"geometry":{"coordinates":[-73.608914,45.442014],"type":"Point"},"properties":{"osm_id":"3007762123","tag":{"amenity":"recycling","recycling:cans":"yes","recycling:glass":"yes","recycling:paper":"yes","recycling_type":"container"}},"type":"Feature"},
	{"geometry":{"coordinates":[-73.60942,45.441681],"type":"Point"},"properties":{"osm_id":"3007762124","tag":{"amenity":"waste_basket","waste":"ash"}},"type":"Feature"},
	{"geometry":{"coordinates":[-73.609989,45.441814],"type":"Point"},"properties":{"osm_id":"3007762125","tag":{"amenity":"waste_basket"}},"type":"Feature"},
	{"geometry":{"coordinates":[-73.609973,45.441815],"type":"Point"},"properties":{"osm_id":"3007762126","tag":{"amenity":"recycling","recycling:cans":"yes","recycling:glass":"yes","recycling:paper":"yes","recycling_type":"container"}},"type":"Feature"},
	{"geometry":{"coordinates":[-73.611086,45.441987],"type":"Point"},"properties":{"osm_id":"3007770992","tag":{"amenity":"waste_basket"}},"type":"Feature"},
	{"geometry":{"coordinates":[-73.611075,45.441987],"type":"Point"},"properties":{"osm_id":"3007770993","tag":{"amenity":"recycling","recycling:cans":"yes","recycling:glass":"yes","recycling:paper":"yes","recycling_type":"container"}},"type":"Feature"},
	{"geometry":{"coordinates":[-73.610124,45.441455],"type":"Point"},"properties":{"osm_id":"3007770996","tag":{"amenity":"waste_basket","waste":"ash"}},"type":"Feature"},
	{"geometry":{"coordinates":[-73.611071,45.439603],"type":"Point"},"properties":{"osm_id":"3007773197","tag":{"amenity":"waste_basket"}},"type":"Feature"},
	{"geometry":{"coordinates":[-73.611117,45.439602],"type":"Point"},"properties":{"osm_id":"3007773198","tag":{"amenity":"recycling","recycling:cans":"yes","recycling:glass":"yes","recycling:paper":"yes","recycling_type":"container"}},"type":"Feature"},
	{"geometry":{"coordinates":[-73.611196,45.439379],"type":"Point"},"properties":{"osm_id":"3007782696","tag":{"amenity":"waste_basket"}},"type":"Feature"},
	{"geometry":{"coordinates":[-73.608411,45.440608],"type":"Point"},"properties":{"osm_id":"3007876999","tag":{"amenity":"waste_basket"}},"type":"Feature"},
	{"geometry":{"coordinates":[-73.60839,45.440605],"type":"Point"},"properties":{"osm_id":"3007877000","tag":{"amenity":"recycling","recycling:cans":"yes","recycling:glass":"yes","recycling:paper":"yes","recycling_type":"container"}},"type":"Feature"},
	{"geometry":{"coordinates":[-73.608372,45.440487],"type":"Point"},"properties":{"osm_id":"3007877001","tag":{"amenity":"waste_basket","waste":"ash"}},"type":"Feature"},
	{"geometry":{"coordinates":[-73.607823,45.440349],"type":"Point"},"properties":{"osm_id":"3007888753","tag":{"amenity":"waste_basket"}},"type":"Feature"},
	{"geometry":{"coordinates":[-73.607815,45.440346],"type":"Point"},"properties":{"osm_id":"3007888754","tag":{"amenity":"recycling","recycling:cans":"yes","recycling:glass":"yes","recycling:paper":"yes","recycling_type":"container"}},"type":"Feature"},
	{"geometry":{"coordinates":[-73.609677,45.44028],"type":"Point"},"properties":{"osm_id":"3007907723","tag":{"amenity":"waste_basket"}},"type":"Feature"},
	{"geometry":{"coordinates":[-73.609703,45.440283],"type":"Point"},"properties":{"osm_id":"3007907724","tag":{"amenity":"recycling","recycling:cans":"yes","recycling:glass":"yes","recycling:paper":"yes","recycling_type":"container"}},"type":"Feature"},
	{"geometry":{"coordinates":[-73.6094,45.441675],"type":"Point"},"properties":{"osm_id":"3007918638","tag":{"amenity":"recycling","recycling:cans":"yes","recycling:glass":"yes","recycling:paper":"yes","recycling_type":"container"}},"type":"Feature"},
	{"geometry":{"coordinates":[-73.608919,45.44165],"type":"Point"},"properties":{"osm_id":"3007923463","tag":{"amenity":"waste_basket"}},"type":"Feature"},
	{"geometry":{"coordinates":[-73.608897,45.44165],"type":"Point"},"properties":{"osm_id":"3007923464","tag":{"amenity":"recycling","recycling:cans":"yes","recycling:glass":"yes","recycling:paper":"yes","recycling_type":"container"}},"type":"Feature"},
	{"geometry":{"coordinates":[-73.607176,45.43983],"type":"Point"},"properties":{"osm_id":"3007951235","tag":{"amenity":"waste_basket"}},"type":"Feature"},
	{"geometry":{"coordinates":[-73.59956,45.442431],"type":"Point"},"properties":{"osm_id":"3007964033","tag":{"amenity":"waste_basket"}},"type":"Feature"},
	{"geometry":{"coordinates":[-73.59943,45.441154],"type":"Point"},"properties":{"osm_id":"3007964034","tag":{"amenity":"waste_basket"}},"type":"Feature"},
	{"geometry":{"coordinates":[-73.59731,45.442942],"type":"Point"},"properties":{"osm_id":"3007964133","tag":{"amenity":"waste_basket"}},"type":"Feature"},
	{"geometry":{"coordinates":[-73.607436,45.44009],"type":"Point"},"properties":{"osm_id":"3007964136","tag":{"amenity":"waste_basket"}},"type":"Feature"},
	{"geometry":{"coordinates":[-73.602221,45.439147],"type":"Point"},"properties":{"osm_id":"3007964934","tag":{"amenity":"waste_basket"}},"type":"Feature"},
	{"geometry":{"coordinates":[-73.595144,45.444288],"type":"Point"},"properties":{"osm_id":"3010606850","tag":{"amenity":"waste_basket"}},"type":"Feature"},
	{"geometry":{"coordinates":[-73.605154,45.444393],"type":"Point"},"properties":{"osm_id":"3010606856","tag":{"amenity":"waste_basket"}},"type":"Feature"},
	{"geometry":{"coordinates":[-73.596286,45.444594],"type":"Point"},"properties":{"osm_id":"3010606860","tag":{"amenity":"waste_basket"}},"type":"Feature"},
	{"geometry":{"coordinates":[-73.603886,45.444919],"type":"Point"},"properties":{"osm_id":"3010606864","tag":{"amenity":"waste_basket"}},"type":"Feature"},
	{"geometry":{"coordinates":[-73.609198,45.444346],"type":"Point"},"properties":{"osm_id":"3010606873","tag":{"amenity":"waste_basket"}},"type":"Feature"},
	{"geometry":{"coordinates":[-73.604781,45.445536],"type":"Point"},"properties":{"osm_id":"3010606898","tag":{"amenity":"waste_basket"}},"type":"Feature"},
	{"geometry":{"coordinates":[-73.60783,45.444041],"type":"Point"},"properties":{"osm_id":"3010606907","tag":{"amenity":"waste_basket"}},"type":"Feature"},
	{"geometry":{"coordinates":[-73.601708,45.443219],"type":"Point"},"properties":{"osm_id":"3010606908","tag":{"amenity":"waste_basket"}},"type":"Feature"},
	{"geometry":{"coordinates":[-73.597286,45.44552],"type":"Point"},"properties":{"osm_id":"3010706207","tag":{"amenity":"waste_basket"}},"type":"Feature"},
	{"geometry":{"coordinates":[-73.596392,45.44499],"type":"Point"},"properties":{"osm_id":"3010706212","tag":{"amenity":"waste_basket"}},"type":"Feature"},
	{"geometry":{"coordinates":[-73.59943,45.44577],"type":"Point"},"properties":{"osm_id":"3010706221","tag":{"amenity":"waste_basket"}},"type":"Feature"},
	{"geometry":{"coordinates":[-73.598936,45.445622],"type":"Point"},"properties":{"osm_id":"3010706224","tag":{"amenity":"waste_basket"}},"type":"Feature"},
	{"geometry":{"coordinates":[-73.5959,45.445198],"type":"Point"},"properties":{"osm_id":"3010706225","tag":{"amenity":"waste_basket"}},"type":"Feature"},
	{"geometry":{"coordinates":[-73.597949,45.445183],"type":"Point"},"properties":{"osm_id":"3010706226","tag":{"amenity":"waste_basket"}},"type":"Feature"},
	{"geometry":{"coordinates":[-73.597116,45.445454],"type":"Point"},"properties":{"osm_id":"3010706227","tag":{"amenity":"waste_basket"}},"type":"Feature"},
	{"geometry":{"coordinates":[-73.597804,45.444557],"type":"Point"},"properties":{"osm_id":"3010706230","tag":{"amenity":"waste_basket"}},"type":"Feature"},
	{"geometry":{"coordinates":[-73.599197,45.445968],"type":"Point"},"properties":{"osm_id":"3010706231","tag":{"amenity":"waste_basket"}},"type":"Feature"},
	{"geometry":{"coordinates":[-73.603486,45.446069],"type":"Point"},"properties":{"osm_id":"3011726833","tag":{"amenity":"waste_basket"}},"type":"Feature"},
	{"geometry":{"coordinates":[-73.603563,45.445998],"type":"Point"},"properties":{"osm_id":"3011726835","tag":{"amenity":"waste_basket"}},"type":"Feature"},
	{"geometry":{"coordinates":[-73.60361,45.445979],"type":"Point"},"properties":{"osm_id":"3011726836","tag":{"amenity":"waste_basket"}},"type":"Feature"},
	{"geometry":{"coordinates":[-73.59515,45.444291],"type":"Point"},"properties":{"osm_id":"3011782274","tag":{"amenity":"recycling","recycling:cans":"yes","recycling:glass":"yes","recycling:paper":"yes","recycling_type":"container"}},"type":"Feature"},
	{"geometry":{"coordinates":[-73.597806,45.444556],"type":"Point"},"properties":{"osm_id":"3011782283","tag":{"amenity":"recycling","recycling:cans":"yes","recycling:glass":"yes","recycling:paper":"yes","recycling_type":"container"}},"type":"Feature"},
	{"geometry":{"coordinates":[-73.596294,45.444592],"type":"Point"},"properties":{"osm_id":"3011782285","tag":{"amenity":"recycling","recycling:cans":"yes","recycling:glass":"yes","recycling:paper":"yes","recycling_type":"container"}},"type":"Feature"},
	{"geometry":{"coordinates":[-73.597952,45.44518],"type":"Point"},"properties":{"osm_id":"3011782297","tag":{"amenity":"recycling","recycling:cans":"yes","recycling:glass":"yes","recycling:paper":"yes","recycling_type":"container"}},"type":"Feature"},
	{"geometry":{"coordinates":[-73.598931,45.445614],"type":"Point"},"properties":{"osm_id":"3011782313","tag":{"amenity":"recycling","recycling:cans":"yes","recycling:glass":"yes","recycling:paper":"yes","recycling_type":"container"}},"type":"Feature"},
	{"geometry":{"coordinates":[-73.599197,45.445965],"type":"Point"},"properties":{"osm_id":"3011782330","tag":{"amenity":"recycling","recycling:cans":"yes","recycling:glass":"yes","recycling:paper":"yes","recycling_type":"container"}},"type":"Feature"},
	{"geometry":{"coordinates":[-73.60435,45.454532],"type":"Point"},"properties":{"osm_id":"4266811992","tag":{"amenity":"waste_basket"}},"type":"Feature"},
	{"geometry":{"coordinates":[-73.603904,45.454818],"type":"Point"},"properties":{"osm_id":"4266835891","tag":{"amenity":"waste_basket"}},"type":"Feature"},
	{"geometry":{"coordinates":[-73.60398,45.455873],"type":"Point"},"properties":{"osm_id":"4266841489","tag":{"amenity":"waste_basket"}},"type":"Feature"},
	{"geometry":{"coordinates":[-73.605705,45.454558],"type":"Point"},"properties":{"osm_id":"4266841589","tag":{"amenity":"waste_basket"}},"type":"Feature"},
	{"geometry":{"coordinates":[-73.604395,45.45469],"type":"Point"},"properties":{"osm_id":"4266847892","tag":{"amenity":"waste_basket"}},"type":"Feature"},
	{"geometry":{"coordinates":[-73.604314,45.456792],"type":"Point"},"properties":{"osm_id":"4266852508","tag":{"amenity":"waste_basket"}},"type":"Feature"},
	{"geometry":{"coordinates":[-73.603741,45.455052],"type":"Point"},"properties":{"osm_id":"4266858992","tag":{"amenity":"waste_basket"}},"type":"Feature"},
	{"geometry":{"coordinates":[-73.603583,45.45526],"type":"Point"},"properties":{"osm_id":"4266881290","tag":{"amenity":"waste_basket"}},"type":"Feature"},
	{"geometry":{"coordinates":[-73.604171,45.456754],"type":"Point"},"properties":{"osm_id":"4266882791","tag":{"amenity":"waste_basket"}},"type":"Feature"},
	{"geometry":{"coordinates":[-73.603977,45.456042],"type":"Point"},"properties":{"osm_id":"4266885194","tag":{"amenity":"waste_basket"}},"type":"Feature"},
	{"geometry":{"coordinates":[-73.604311,45.45632],"type":"Point"},"properties":{"osm_id":"4266908394","tag":{"amenity":"waste_basket"}},"type":"Feature"},
	{"geometry":{"coordinates":[-73.605025,45.457679],"type":"Point"},"properties":{"osm_id":"4266931593","tag":{"amenity":"waste_basket"}},"type":"Feature"},
	{"geometry":{"coordinates":[-73.604298,45.457153],"type":"Point"},"properties":{"osm_id":"4266931600","tag":{"amenity":"waste_basket"}},"type":"Feature"},
	{"geometry":{"coordinates":[-73.605472,45.456624],"type":"Point"},"properties":{"osm_id":"4267006791","tag":{"amenity":"waste_basket"}},"type":"Feature"},
	{"geometry":{"coordinates":[-73.605143,45.456606],"type":"Point"},"properties":{"osm_id":"4267014790","tag":{"amenity":"waste_basket"}},"type":"Feature"},
	{"geometry":{"coordinates":[-73.605522,45.455553],"type":"Point"},"properties":{"osm_id":"4267035489","tag":{"amenity":"waste_basket"}},"type":"Feature"},
	{"geometry":{"coordinates":[-73.564552,45.455262],"type":"Point"},"properties":{"osm_id":"4318714894","tag":{"amenity":"waste_basket"}},"type":"Feature"},
	{"geometry":{"coordinates":[-73.580714,45.454763],"type":"Point"},"properties":{"osm_id":"5853706610","tag":{"amenity":"waste_basket"}},"type":"Feature"},
	{"geometry":{"coordinates":[-73.604691,45.39916],"type":"Point"},"properties":{"osm_id":"7252989403","tag":{"entrance":"main"}},"type":"Feature"}
]
}
