{
"type": "FeatureCollection",
"features": [
	{"geometry":{"coordinates":[-73.641621,43.310687],"type":"Point"},"properties":{"osm_id":"6548617942","tag":{"amenity":"waste_disposal"}},"type":"Feature"},
	{"geometry":{"coordinates":[-73.585559,43.299316],"type":"Point"},"properties":{"osm_id":"6562183198","tag":{"access":"private","amenity":"waste_disposal"}},"type":"Feature"},
	{"geometry":{"coordinates":[-73.644289,43.309805],"type":"Point"},"properties":{"osm_id":"6842442818","tag":{"amenity":"waste_basket","colour":"black","material":"metal"}},"type":"Feature"},
	{"geometry":{"coordinates":[-73.645052,43.310253],"type":"Point"},"properties":{"osm_id":"6842442835","tag":{"amenity":"waste_basket","colour":"black","material":"metal"}},"type":"Feature"},
	{"geometry":{"coordinates":[-73.645177,43.310348],"type":"Point"},"properties":{"osm_id":"6842442840","tag":{"amenity":"waste_basket"}},"type":"Feature"},
	{"geometry":{"coordinates":[-73.645983,43.310824],"type":"Point"},"properties":{"osm_id":"6842442853","tag":{"amenity":"waste_basket","colour":"black","material":"metal"}},"type":"Feature"},
	{"geometry":{"coordinates":[-73.649743,43.311753],"type":"Point"},"properties":{"osm_id":"6842567911","tag":{"access":"private","amenity":"waste_disposal"}},"type":"Feature"},
	{"geometry":{"coordinates":[-73.649194,43.311845],"type":"Point"},"properties":{"osm_id":"6842567916","tag":{"amenity":"waste_basket"}},"type":"Feature"},
	{"geometry":{"coordinates":[-73.645815,43.312365],"type":"Point"},"properties":{"osm_id":"6862023453","tag":{"access":"private","amenity":"waste_disposal"}},"type":"Feature"},
	{"geometry":{"coordinates":[-73.636191,43.295993],"type":"Point"},"properties":{"osm_id":"7165127425","tag":{"amenity":"waste_basket"}},"type":"Feature"},
	{"geometry":{"coordinates":[-73.639151,43.317952],"type":"Point"},"properties":{"osm_id":"7415652480","tag":{"access":"private","amenity":"waste_disposal","waste":"trash"}},"type":"Feature"}
]
}
