{
"type": "FeatureCollection",
"features": [
	{"geometry":{"coordinates":[-111.932816,33.480802],"type":"Point"},"properties":{"osm_id":"4455885498","tag":{"amenity":"waste_disposal"}},"type":"Feature"},
	{"geometry":{"coordinates":[-111.932081,33.481064],"type":"Point"},"properties":{"osm_id":"4455885499","tag":{"amenity":"waste_disposal"}},"type":"Feature"},
	{"geometry":{"coordinates":[-111.918454,33.481314],"type":"Point"},"properties":{"osm_id":"4455885546","tag":{"amenity":"waste_disposal"}},"type":"Feature"},
	{"geometry":{"coordinates":[-111.926602,33.454335],"type":"Point"},"properties":{"osm_id":"4825953759","tag":{"amenity":"waste_basket"}},"type":"Feature"},
	{"geometry":{"coordinates":[-111.926243,33.454606],"type":"Point"},"properties":{"osm_id":"4825953761","tag":{"amenity":"waste_basket"}},"type":"Feature"},
	{"geometry":{"coordinates":[-111.935214,33.455008],"type":"Point"},"properties":{"osm_id":"4825953786","tag":{"amenity":"waste_basket"}},"type":"Feature"},
	{"geometry":{"coordinates":[-111.935021,33.454974],"type":"Point"},"properties":{"osm_id":"4825953787","tag":{"amenity":"waste_basket"}},"type":"Feature"},
	{"geometry":{"coordinates":[-111.904043,33.459904],"type":"Point"},"properties":{"osm_id":"5222400206","tag":{"amenity":"waste_basket"}},"type":"Feature"},
	{"geometry":{"coordinates":[-111.906135,33.460678],"type":"Point"},"properties":{"osm_id":"5562454423","tag":{"amenity":"waste_basket"}},"type":"Feature"},
	{"geometry":{"coordinates":[-111.907715,33.460055],"type":"Point"},"properties":{"osm_id":"5562454425","tag":{"amenity":"waste_basket"}},"type":"Feature"},
	{"geometry":{"coordinates":[-111.905925,33.460675],"type":"Point"},"properties":{"osm_id":"5562454428","tag":{"amenity":"waste_basket"}},"type":"Feature"},
	{"geometry":{"coordinates":[-111.969589,33.504532],"type":"Point"},"properties":{"osm_id":"5609649351","tag":{"amenity":"waste_basket"}},"type":"Feature"},
	{"geometry":{"coordinates":[-111.942636,33.501905],"type":"Point"},"properties":{"osm_id":"5613531805","tag":{"amenity":"waste_basket"}},"type":"Feature"},
	{"geometry":{"coordinates":[-111.943812,33.502182],"type":"Point"},"properties":{"osm_id":"5613531810","tag":{"amenity":"waste_basket"}},"type":"Feature"},
	{"geometry":{"coordinates":[-111.938409,33.50223],"type":"Point"},"properties":{"osm_id":"5613532128","tag":{"amenity":"waste_basket"}},"type":"Feature"},
	{"geometry":{"coordinates":[-111.935237,33.502278],"type":"Point"},"properties":{"osm_id":"5613532141","tag":{"amenity":"waste_basket"}},"type":"Feature"},
	{"geometry":{"coordinates":[-111.927087,33.502437],"type":"Point"},"properties":{"osm_id":"5613532151","tag":{"amenity":"waste_basket"}},"type":"Feature"},
	{"geometry":{"coordinates":[-111.926328,33.501829],"type":"Point"},"properties":{"osm_id":"5613532168","tag":{"amenity":"waste_basket"}},"type":"Feature"},
	{"geometry":{"coordinates":[-111.917632,33.501488],"type":"Point"},"properties":{"osm_id":"5613532194","tag":{"amenity":"waste_basket"}},"type":"Feature"},
	{"geometry":{"coordinates":[-111.917109,33.50232],"type":"Point"},"properties":{"osm_id":"5613532208","tag":{"amenity":"waste_basket"}},"type":"Feature"},
	{"geometry":{"coordinates":[-111.913003,33.502274],"type":"Point"},"properties":{"osm_id":"5613532213","tag":{"amenity":"waste_basket"}},"type":"Feature"},
	{"geometry":{"coordinates":[-111.909711,33.502251],"type":"Point"},"properties":{"osm_id":"5613532219","tag":{"amenity":"waste_basket"}},"type":"Feature"},
	{"geometry":{"coordinates":[-111.908551,33.502426],"type":"Point"},"properties":{"osm_id":"5647383340","tag":{"amenity":"waste_basket"}},"type":"Feature"},
	{"geometry":{"coordinates":[-111.909091,33.501336],"type":"Point"},"properties":{"osm_id":"5647383348","tag":{"amenity":"waste_basket"}},"type":"Feature"},
	{"geometry":{"coordinates":[-111.927086,33.502436],"type":"Point"},"properties":{"osm_id":"5647383386","tag":{"amenity":"waste_basket"}},"type":"Feature"},
	{"geometry":{"coordinates":[-111.930844,33.501703],"type":"Point"},"properties":{"osm_id":"5647383392","tag":{"amenity":"waste_basket"}},"type":"Feature"},
	{"geometry":{"coordinates":[-111.934035,33.501969],"type":"Point"},"properties":{"osm_id":"5647383415","tag":{"amenity":"waste_basket"}},"type":"Feature"},
	{"geometry":{"coordinates":[-111.951615,33.501829],"type":"Point"},"properties":{"osm_id":"5647383527","tag":{"amenity":"waste_basket"}},"type":"Feature"},
	{"geometry":{"coordinates":[-111.952572,33.50204],"type":"Point"},"properties":{"osm_id":"5647383535","tag":{"amenity":"waste_basket"}},"type":"Feature"},
	{"geometry":{"coordinates":[-111.961481,33.451112],"type":"Point"},"properties":{"osm_id":"5686730942","tag":{"amenity":"waste_basket"}},"type":"Feature"},
	{"geometry":{"coordinates":[-111.960351,33.450913],"type":"Point"},"properties":{"osm_id":"5686730949","tag":{"amenity":"waste_basket"}},"type":"Feature"},
	{"geometry":{"coordinates":[-111.957879,33.450895],"type":"Point"},"properties":{"osm_id":"5686730952","tag":{"amenity":"waste_basket"}},"type":"Feature"},
	{"geometry":{"coordinates":[-111.956538,33.451078],"type":"Point"},"properties":{"osm_id":"5686730962","tag":{"amenity":"waste_basket"}},"type":"Feature"},
	{"geometry":{"coordinates":[-111.952202,33.490677],"type":"Point"},"properties":{"osm_id":"5780794333","tag":{"amenity":"waste_basket"}},"type":"Feature"},
	{"geometry":{"coordinates":[-111.961388,33.489048],"type":"Point"},"properties":{"osm_id":"5780794339","tag":{"amenity":"waste_basket"}},"type":"Feature"},
	{"geometry":{"coordinates":[-111.959958,33.488953],"type":"Point"},"properties":{"osm_id":"5780794345","tag":{"amenity":"waste_basket"}},"type":"Feature"},
	{"geometry":{"coordinates":[-111.930048,33.494679],"type":"Point"},"properties":{"osm_id":"5784280285","tag":{"amenity":"waste_basket"}},"type":"Feature"},
	{"geometry":{"coordinates":[-111.934309,33.494597],"type":"Point"},"properties":{"osm_id":"5784280317","tag":{"amenity":"waste_basket"}},"type":"Feature"},
	{"geometry":{"coordinates":[-111.934962,33.494718],"type":"Point"},"properties":{"osm_id":"5784280318","tag":{"amenity":"waste_basket"}},"type":"Feature"},
	{"geometry":{"coordinates":[-111.909087,33.494415],"type":"Point"},"properties":{"osm_id":"5787323968","tag":{"amenity":"waste_basket"}},"type":"Feature"},
	{"geometry":{"coordinates":[-111.908654,33.495252],"type":"Point"},"properties":{"osm_id":"5787323975","tag":{"amenity":"waste_basket"}},"type":"Feature"},
	{"geometry":{"coordinates":[-111.909478,33.495032],"type":"Point"},"properties":{"osm_id":"5787323983","tag":{"amenity":"waste_basket"}},"type":"Feature"},
	{"geometry":{"coordinates":[-111.908408,33.494707],"type":"Point"},"properties":{"osm_id":"5787323987","tag":{"amenity":"waste_basket"}},"type":"Feature"},
	{"geometry":{"coordinates":[-111.913457,33.495035],"type":"Point"},"properties":{"osm_id":"5787324004","tag":{"amenity":"waste_basket"}},"type":"Feature"},
	{"geometry":{"coordinates":[-111.912784,33.494762],"type":"Point"},"properties":{"osm_id":"5787324014","tag":{"amenity":"waste_basket"}},"type":"Feature"},
	{"geometry":{"coordinates":[-111.917362,33.495316],"type":"Point"},"properties":{"osm_id":"5787324051","tag":{"amenity":"waste_basket"}},"type":"Feature"},
	{"geometry":{"coordinates":[-111.916556,33.494763],"type":"Point"},"properties":{"osm_id":"5787324153","tag":{"amenity":"waste_basket"}},"type":"Feature"},
	{"geometry":{"coordinates":[-111.918446,33.495067],"type":"Point"},"properties":{"osm_id":"5787324162","tag":{"amenity":"waste_basket"}},"type":"Feature"},
	{"geometry":{"coordinates":[-111.92232,33.495099],"type":"Point"},"properties":{"osm_id":"5787324176","tag":{"amenity":"waste_basket"}},"type":"Feature"},
	{"geometry":{"coordinates":[-111.921272,33.494794],"type":"Point"},"properties":{"osm_id":"5787324189","tag":{"amenity":"waste_basket"}},"type":"Feature"},
	{"geometry":{"coordinates":[-111.926003,33.495456],"type":"Point"},"properties":{"osm_id":"5787324203","tag":{"amenity":"waste_basket"}},"type":"Feature"},
	{"geometry":{"coordinates":[-111.926659,33.495092],"type":"Point"},"properties":{"osm_id":"5787324213","tag":{"amenity":"waste_basket"}},"type":"Feature"},
	{"geometry":{"coordinates":[-111.925342,33.49482],"type":"Point"},"properties":{"osm_id":"5787324220","tag":{"amenity":"waste_basket"}},"type":"Feature"},
	{"geometry":{"coordinates":[-111.904311,33.494732],"type":"Point"},"properties":{"osm_id":"5792435328","tag":{"amenity":"waste_basket"}},"type":"Feature"},
	{"geometry":{"coordinates":[-111.905076,33.494996],"type":"Point"},"properties":{"osm_id":"5792435337","tag":{"amenity":"waste_basket"}},"type":"Feature"},
	{"geometry":{"coordinates":[-111.900419,33.464349],"type":"Point"},"properties":{"osm_id":"5832101645","tag":{"amenity":"waste_basket"}},"type":"Feature"},
	{"geometry":{"coordinates":[-111.910147,33.465633],"type":"Point"},"properties":{"osm_id":"6020044878","tag":{"amenity":"waste_basket"}},"type":"Feature"},
	{"geometry":{"coordinates":[-111.892115,33.459178],"type":"Point"},"properties":{"osm_id":"6034152701","tag":{"amenity":"waste_basket"}},"type":"Feature"},
	{"geometry":{"coordinates":[-111.892143,33.455329],"type":"Point"},"properties":{"osm_id":"6034152708","tag":{"amenity":"waste_basket"}},"type":"Feature"},
	{"geometry":{"coordinates":[-111.961592,33.44553],"type":"Point"},"properties":{"osm_id":"6110914695","tag":{"amenity":"waste_basket"}},"type":"Feature"},
	{"geometry":{"coordinates":[-111.960386,33.445005],"type":"Point"},"properties":{"osm_id":"6110914707","tag":{"amenity":"waste_basket"}},"type":"Feature"},
	{"geometry":{"coordinates":[-111.955789,33.442883],"type":"Point"},"properties":{"osm_id":"6110914713","tag":{"amenity":"waste_basket"}},"type":"Feature"},
	{"geometry":{"coordinates":[-111.957518,33.442321],"type":"Point"},"properties":{"osm_id":"6110914719","tag":{"amenity":"waste_basket"}},"type":"Feature"},
	{"geometry":{"coordinates":[-111.956733,33.4431],"type":"Point"},"properties":{"osm_id":"6110914722","tag":{"amenity":"waste_basket"}},"type":"Feature"},
	{"geometry":{"coordinates":[-111.955258,33.444282],"type":"Point"},"properties":{"osm_id":"6110914729","tag":{"amenity":"waste_basket"}},"type":"Feature"},
	{"geometry":{"coordinates":[-111.969747,33.446464],"type":"Point"},"properties":{"osm_id":"6111084555","tag":{"amenity":"waste_basket"}},"type":"Feature"},
	{"geometry":{"coordinates":[-111.966481,33.446098],"type":"Point"},"properties":{"osm_id":"6111084562","tag":{"amenity":"waste_basket"}},"type":"Feature"},
	{"geometry":{"coordinates":[-111.965814,33.445718],"type":"Point"},"properties":{"osm_id":"6111084565","tag":{"amenity":"waste_basket"}},"type":"Feature"},
	{"geometry":{"coordinates":[-111.911773,33.447383],"type":"Point"},"properties":{"osm_id":"6375206765","tag":{"amenity":"waste_disposal"}},"type":"Feature"},
	{"geometry":{"coordinates":[-111.931525,33.466571],"type":"Point"},"properties":{"osm_id":"6583330374","tag":{"amenity":"waste_disposal"}},"type":"Feature"},
	{"geometry":{"coordinates":[-111.935436,33.465856],"type":"Point"},"properties":{"osm_id":"6583417091","tag":{"amenity":"waste_disposal"}},"type":"Feature"},
	{"geometry":{"coordinates":[-111.915725,33.458011],"type":"Point"},"properties":{"osm_id":"6583587554","tag":{"amenity":"waste_disposal"}},"type":"Feature"},
	{"geometry":{"coordinates":[-111.920067,33.46375],"type":"Point"},"properties":{"osm_id":"6715033505","tag":{"amenity":"waste_disposal"}},"type":"Feature"},
	{"geometry":{"coordinates":[-111.920696,33.463718],"type":"Point"},"properties":{"osm_id":"6715033506","tag":{"amenity":"waste_disposal"}},"type":"Feature"},
	{"geometry":{"coordinates":[-111.921758,33.463208],"type":"Point"},"properties":{"osm_id":"6715033513","tag":{"amenity":"waste_disposal"}},"type":"Feature"},
	{"geometry":{"coordinates":[-111.921127,33.463244],"type":"Point"},"properties":{"osm_id":"6715033514","tag":{"amenity":"waste_disposal"}},"type":"Feature"},
	{"geometry":{"coordinates":[-111.921765,33.462332],"type":"Point"},"properties":{"osm_id":"6715033517","tag":{"amenity":"waste_disposal"}},"type":"Feature"},
	{"geometry":{"coordinates":[-111.92051,33.462469],"type":"Point"},"properties":{"osm_id":"6715033524","tag":{"amenity":"waste_disposal"}},"type":"Feature"},
	{"geometry":{"coordinates":[-111.918259,33.463769],"type":"Point"},"properties":{"osm_id":"6715033528","tag":{"amenity":"waste_disposal"}},"type":"Feature"},
	{"geometry":{"coordinates":[-111.918218,33.463792],"type":"Point"},"properties":{"osm_id":"6715033529","tag":{"amenity":"waste_disposal"}},"type":"Feature"},
	{"geometry":{"coordinates":[-111.918469,33.464763],"type":"Point"},"properties":{"osm_id":"6715033530","tag":{"amenity":"waste_disposal"}},"type":"Feature"},
	{"geometry":{"coordinates":[-111.918418,33.46473],"type":"Point"},"properties":{"osm_id":"6715033531","tag":{"amenity":"waste_disposal"}},"type":"Feature"},
	{"geometry":{"coordinates":[-111.918201,33.465148],"type":"Point"},"properties":{"osm_id":"6715033532","tag":{"amenity":"waste_disposal"}},"type":"Feature"},
	{"geometry":{"coordinates":[-111.92042,33.4649],"type":"Point"},"properties":{"osm_id":"6715033538","tag":{"amenity":"waste_disposal"}},"type":"Feature"},
	{"geometry":{"coordinates":[-111.921114,33.464959],"type":"Point"},"properties":{"osm_id":"6715033539","tag":{"amenity":"waste_disposal"}},"type":"Feature"},
	{"geometry":{"coordinates":[-111.921081,33.464918],"type":"Point"},"properties":{"osm_id":"6715033540","tag":{"amenity":"waste_disposal"}},"type":"Feature"},
	{"geometry":{"coordinates":[-111.919146,33.463743],"type":"Point"},"properties":{"osm_id":"6715033543","tag":{"amenity":"waste_disposal"}},"type":"Feature"},
	{"geometry":{"coordinates":[-111.916993,33.466302],"type":"Point"},"properties":{"osm_id":"6715033544","tag":{"amenity":"waste_disposal"}},"type":"Feature"},
	{"geometry":{"coordinates":[-111.925542,33.451756],"type":"Point"},"properties":{"osm_id":"6715033546","tag":{"amenity":"waste_disposal"}},"type":"Feature"},
	{"geometry":{"coordinates":[-111.925637,33.451458],"type":"Point"},"properties":{"osm_id":"6715033547","tag":{"amenity":"waste_disposal"}},"type":"Feature"},
	{"geometry":{"coordinates":[-111.927905,33.45018],"type":"Point"},"properties":{"osm_id":"6715033549","tag":{"amenity":"waste_disposal"}},"type":"Feature"},
	{"geometry":{"coordinates":[-111.927546,33.450169],"type":"Point"},"properties":{"osm_id":"6715033550","tag":{"amenity":"waste_disposal"}},"type":"Feature"},
	{"geometry":{"coordinates":[-111.927895,33.449559],"type":"Point"},"properties":{"osm_id":"6715033551","tag":{"amenity":"waste_disposal"}},"type":"Feature"},
	{"geometry":{"coordinates":[-111.928473,33.450045],"type":"Point"},"properties":{"osm_id":"6715033552","tag":{"amenity":"waste_disposal"}},"type":"Feature"},
	{"geometry":{"coordinates":[-111.927446,33.450863],"type":"Point"},"properties":{"osm_id":"6715033553","tag":{"amenity":"waste_disposal"}},"type":"Feature"},
	{"geometry":{"coordinates":[-111.926877,33.458021],"type":"Point"},"properties":{"osm_id":"6715047904","tag":{"amenity":"waste_disposal"}},"type":"Feature"},
	{"geometry":{"coordinates":[-111.936602,33.466503],"type":"Point"},"properties":{"osm_id":"6715047925","tag":{"amenity":"waste_disposal"}},"type":"Feature"},
	{"geometry":{"coordinates":[-111.936628,33.466145],"type":"Point"},"properties":{"osm_id":"6715047926","tag":{"amenity":"waste_disposal"}},"type":"Feature"},
	{"geometry":{"coordinates":[-111.936592,33.466126],"type":"Point"},"properties":{"osm_id":"6715047927","tag":{"amenity":"waste_disposal"}},"type":"Feature"},
	{"geometry":{"coordinates":[-111.916235,33.459922],"type":"Point"},"properties":{"osm_id":"6715047928","tag":{"amenity":"waste_disposal"}},"type":"Feature"},
	{"geometry":{"coordinates":[-111.916851,33.46],"type":"Point"},"properties":{"osm_id":"6715047929","tag":{"amenity":"waste_disposal"}},"type":"Feature"},
	{"geometry":{"coordinates":[-111.917177,33.458939],"type":"Point"},"properties":{"osm_id":"6715047930","tag":{"amenity":"waste_disposal"}},"type":"Feature"},
	{"geometry":{"coordinates":[-111.916101,33.459018],"type":"Point"},"properties":{"osm_id":"6715047931","tag":{"amenity":"waste_disposal"}},"type":"Feature"},
	{"geometry":{"coordinates":[-111.925275,33.47381],"type":"Point"},"properties":{"osm_id":"6717767706","tag":{"amenity":"waste_disposal"}},"type":"Feature"},
	{"geometry":{"coordinates":[-111.926842,33.473454],"type":"Point"},"properties":{"osm_id":"6717767720","tag":{"amenity":"waste_disposal"}},"type":"Feature"},
	{"geometry":{"coordinates":[-111.927135,33.473474],"type":"Point"},"properties":{"osm_id":"6717767721","tag":{"amenity":"waste_disposal"}},"type":"Feature"},
	{"geometry":{"coordinates":[-111.90826,33.480058],"type":"Point"},"properties":{"osm_id":"6717767755","tag":{"amenity":"waste_disposal"}},"type":"Feature"},
	{"geometry":{"coordinates":[-111.899728,33.49552],"type":"Point"},"properties":{"osm_id":"6717767768","tag":{"amenity":"waste_disposal"}},"type":"Feature"},
	{"geometry":{"coordinates":[-111.899684,33.495516],"type":"Point"},"properties":{"osm_id":"6717767769","tag":{"amenity":"waste_disposal"}},"type":"Feature"},
	{"geometry":{"coordinates":[-111.899967,33.465274],"type":"Point"},"properties":{"osm_id":"6717818296","tag":{"amenity":"waste_disposal"}},"type":"Feature"},
	{"geometry":{"coordinates":[-111.899726,33.465237],"type":"Point"},"properties":{"osm_id":"6717818297","tag":{"amenity":"waste_disposal"}},"type":"Feature"},
	{"geometry":{"coordinates":[-111.933357,33.466536],"type":"Point"},"properties":{"osm_id":"6718588196","tag":{"amenity":"waste_disposal"}},"type":"Feature"},
	{"geometry":{"coordinates":[-111.925835,33.481114],"type":"Point"},"properties":{"osm_id":"6718588199","tag":{"amenity":"waste_disposal"}},"type":"Feature"},
	{"geometry":{"coordinates":[-111.929873,33.482626],"type":"Point"},"properties":{"osm_id":"6739846144","tag":{"amenity":"waste_disposal"}},"type":"Feature"},
	{"geometry":{"coordinates":[-111.929785,33.482618],"type":"Point"},"properties":{"osm_id":"6739846145","tag":{"amenity":"waste_disposal"}},"type":"Feature"},
	{"geometry":{"coordinates":[-111.92858,33.482636],"type":"Point"},"properties":{"osm_id":"6739846146","tag":{"amenity":"waste_disposal"}},"type":"Feature"},
	{"geometry":{"coordinates":[-111.928539,33.482639],"type":"Point"},"properties":{"osm_id":"6739846147","tag":{"amenity":"waste_disposal"}},"type":"Feature"},
	{"geometry":{"coordinates":[-111.928502,33.481396],"type":"Point"},"properties":{"osm_id":"6739846148","tag":{"amenity":"waste_disposal"}},"type":"Feature"},
	{"geometry":{"coordinates":[-111.928499,33.481461],"type":"Point"},"properties":{"osm_id":"6739846149","tag":{"amenity":"waste_disposal"}},"type":"Feature"},
	{"geometry":{"coordinates":[-111.928493,33.481534],"type":"Point"},"properties":{"osm_id":"6739846150","tag":{"amenity":"waste_disposal"}},"type":"Feature"},
	{"geometry":{"coordinates":[-111.929191,33.480892],"type":"Point"},"properties":{"osm_id":"6739846151","tag":{"amenity":"waste_disposal"}},"type":"Feature"},
	{"geometry":{"coordinates":[-111.929193,33.480863],"type":"Point"},"properties":{"osm_id":"6739846152","tag":{"amenity":"waste_disposal"}},"type":"Feature"},
	{"geometry":{"coordinates":[-111.92995,33.4808],"type":"Point"},"properties":{"osm_id":"6739846153","tag":{"amenity":"waste_disposal"}},"type":"Feature"},
	{"geometry":{"coordinates":[-111.929986,33.480802],"type":"Point"},"properties":{"osm_id":"6739846154","tag":{"amenity":"waste_disposal"}},"type":"Feature"},
	{"geometry":{"coordinates":[-111.929848,33.481958],"type":"Point"},"properties":{"osm_id":"6739846155","tag":{"amenity":"waste_disposal"}},"type":"Feature"},
	{"geometry":{"coordinates":[-111.929853,33.482026],"type":"Point"},"properties":{"osm_id":"6739846156","tag":{"amenity":"waste_disposal"}},"type":"Feature"},
	{"geometry":{"coordinates":[-111.93311,33.482056],"type":"Point"},"properties":{"osm_id":"6739846160","tag":{"amenity":"waste_disposal"}},"type":"Feature"},
	{"geometry":{"coordinates":[-111.933184,33.482012],"type":"Point"},"properties":{"osm_id":"6739846161","tag":{"amenity":"waste_disposal"}},"type":"Feature"},
	{"geometry":{"coordinates":[-111.933115,33.481434],"type":"Point"},"properties":{"osm_id":"6739846162","tag":{"amenity":"waste_disposal"}},"type":"Feature"},
	{"geometry":{"coordinates":[-111.935311,33.479487],"type":"Point"},"properties":{"osm_id":"6739846167","tag":{"amenity":"waste_disposal"}},"type":"Feature"},
	{"geometry":{"coordinates":[-111.925544,33.484983],"type":"Point"},"properties":{"osm_id":"6739846177","tag":{"amenity":"waste_disposal"}},"type":"Feature"},
	{"geometry":{"coordinates":[-111.926624,33.446321],"type":"Point"},"properties":{"osm_id":"6793228683","tag":{"amenity":"waste_basket"}},"type":"Feature"},
	{"geometry":{"coordinates":[-111.926279,33.447155],"type":"Point"},"properties":{"osm_id":"6793228684","tag":{"amenity":"waste_basket"}},"type":"Feature"},
	{"geometry":{"coordinates":[-111.929024,33.496187],"type":"Point"},"properties":{"osm_id":"6827659489","tag":{"amenity":"waste_basket"}},"type":"Feature"},
	{"geometry":{"coordinates":[-111.929546,33.497635],"type":"Point"},"properties":{"osm_id":"6827659526","tag":{"amenity":"waste_basket"}},"type":"Feature"},
	{"geometry":{"coordinates":[-111.917229,33.454464],"type":"Point"},"properties":{"osm_id":"6940372494","tag":{"amenity":"waste_disposal"}},"type":"Feature"},
	{"geometry":{"coordinates":[-111.91721,33.454492],"type":"Point"},"properties":{"osm_id":"6940372495","tag":{"amenity":"waste_disposal"}},"type":"Feature"},
	{"geometry":{"coordinates":[-111.917226,33.452738],"type":"Point"},"properties":{"osm_id":"6940372496","tag":{"amenity":"waste_disposal"}},"type":"Feature"},
	{"geometry":{"coordinates":[-111.91644,33.452738],"type":"Point"},"properties":{"osm_id":"6940372497","tag":{"amenity":"waste_disposal"}},"type":"Feature"},
	{"geometry":{"coordinates":[-111.916518,33.454488],"type":"Point"},"properties":{"osm_id":"6940372498","tag":{"amenity":"waste_disposal"}},"type":"Feature"},
	{"geometry":{"coordinates":[-111.91648,33.454491],"type":"Point"},"properties":{"osm_id":"6940372499","tag":{"amenity":"waste_disposal"}},"type":"Feature"},
	{"geometry":{"coordinates":[-111.919819,33.463002],"type":"Point"},"properties":{"osm_id":"6940372508","tag":{"amenity":"waste_disposal"}},"type":"Feature"},
	{"geometry":{"coordinates":[-111.916369,33.462754],"type":"Point"},"properties":{"osm_id":"6940372509","tag":{"amenity":"waste_disposal"}},"type":"Feature"},
	{"geometry":{"coordinates":[-111.917071,33.46432],"type":"Point"},"properties":{"osm_id":"6940372510","tag":{"amenity":"waste_disposal"}},"type":"Feature"},
	{"geometry":{"coordinates":[-111.966026,33.452194],"type":"Point"},"properties":{"osm_id":"6958768818","tag":{"amenity":"waste_disposal"}},"type":"Feature"},
	{"geometry":{"coordinates":[-111.966006,33.452163],"type":"Point"},"properties":{"osm_id":"6958768819","tag":{"amenity":"waste_disposal"}},"type":"Feature"},
	{"geometry":{"coordinates":[-111.971006,33.45593],"type":"Point"},"properties":{"osm_id":"7590833880","tag":{"amenity":"waste_disposal"}},"type":"Feature"},
	{"geometry":{"coordinates":[-111.970807,33.455662],"type":"Point"},"properties":{"osm_id":"7590833881","tag":{"amenity":"waste_disposal"}},"type":"Feature"},
	{"geometry":{"coordinates":[-111.970496,33.47352],"type":"Point"},"properties":{"osm_id":"7590844648","tag":{"amenity":"waste_disposal"}},"type":"Feature"},
	{"geometry":{"coordinates":[-111.970498,33.473488],"type":"Point"},"properties":{"osm_id":"7590844649","tag":{"amenity":"waste_disposal"}},"type":"Feature"},
	{"geometry":{"coordinates":[-111.967826,33.478399],"type":"Point"},"properties":{"osm_id":"7590844654","tag":{"amenity":"waste_disposal"}},"type":"Feature"},
	{"geometry":{"coordinates":[-111.968418,33.479196],"type":"Point"},"properties":{"osm_id":"7590844655","tag":{"amenity":"waste_disposal"}},"type":"Feature"},
	{"geometry":{"coordinates":[-111.967447,33.479649],"type":"Point"},"properties":{"osm_id":"7590844656","tag":{"amenity":"waste_disposal"}},"type":"Feature"},
	{"geometry":{"coordinates":[-111.968891,33.478975],"type":"Point"},"properties":{"osm_id":"7590844662","tag":{"amenity":"waste_disposal"}},"type":"Feature"},
	{"geometry":{"coordinates":[-111.970963,33.457236],"type":"Point"},"properties":{"osm_id":"7590844667","tag":{"amenity":"waste_disposal"}},"type":"Feature"},
	{"geometry":{"coordinates":[-111.971057,33.458304],"type":"Point"},"properties":{"osm_id":"7590844668","tag":{"amenity":"waste_disposal"}},"type":"Feature"},
	{"geometry":{"coordinates":[-111.970957,33.458809],"type":"Point"},"properties":{"osm_id":"7590844669","tag":{"amenity":"waste_disposal"}},"type":"Feature"}
]
}
