{
"type": "FeatureCollection",
"features": [
	{"geometry":{"coordinates":[-111.906593,33.314735],"type":"Point"},"properties":{"osm_id":"3781382599","tag":{"amenity":"waste_basket"}},"type":"Feature"},
	{"geometry":{"coordinates":[-111.909769,33.306345],"type":"Point"},"properties":{"osm_id":"4485009688","tag":{"amenity":"waste_basket","waste":"dog_excrement"}},"type":"Feature"},
	{"geometry":{"coordinates":[-111.91006,33.305819],"type":"Point"},"properties":{"osm_id":"4485934151","tag":{"amenity":"waste_basket"}},"type":"Feature"},
	{"geometry":{"coordinates":[-111.909651,33.306501],"type":"Point"},"properties":{"osm_id":"4485940263","tag":{"amenity":"waste_disposal"}},"type":"Feature"},
	{"geometry":{"coordinates":[-111.928415,33.306011],"type":"Point"},"properties":{"osm_id":"4663688384","tag":{"amenity":"waste_basket"}},"type":"Feature"},
	{"geometry":{"coordinates":[-111.932183,33.319797],"type":"Point"},"properties":{"osm_id":"5825314760","tag":{"amenity":"waste_basket"}},"type":"Feature"},
	{"geometry":{"coordinates":[-111.964066,33.320051],"type":"Point"},"properties":{"osm_id":"5923419716","tag":{"amenity":"waste_basket"}},"type":"Feature"},
	{"geometry":{"coordinates":[-111.928371,33.319305],"type":"Point"},"properties":{"osm_id":"6251553637","tag":{"amenity":"waste_basket"}},"type":"Feature"},
	{"geometry":{"coordinates":[-111.918776,33.308977],"type":"Point"},"properties":{"osm_id":"6370604173","tag":{"amenity":"waste_basket"}},"type":"Feature"},
	{"geometry":{"coordinates":[-111.918721,33.309377],"type":"Point"},"properties":{"osm_id":"6370604177","tag":{"amenity":"waste_basket"}},"type":"Feature"},
	{"geometry":{"coordinates":[-111.918717,33.308446],"type":"Point"},"properties":{"osm_id":"6370604182","tag":{"amenity":"waste_basket"}},"type":"Feature"},
	{"geometry":{"coordinates":[-111.918972,33.308255],"type":"Point"},"properties":{"osm_id":"6372598694","tag":{"amenity":"waste_basket"}},"type":"Feature"},
	{"geometry":{"coordinates":[-111.918968,33.308151],"type":"Point"},"properties":{"osm_id":"6372598697","tag":{"amenity":"waste_basket"}},"type":"Feature"},
	{"geometry":{"coordinates":[-111.918996,33.308222],"type":"Point"},"properties":{"osm_id":"6372598698","tag":{"amenity":"waste_basket"}},"type":"Feature"},
	{"geometry":{"coordinates":[-111.91916,33.309332],"type":"Point"},"properties":{"osm_id":"6383827583","tag":{"amenity":"waste_basket"}},"type":"Feature"},
	{"geometry":{"coordinates":[-111.919577,33.309361],"type":"Point"},"properties":{"osm_id":"6383827785","tag":{"amenity":"waste_basket"}},"type":"Feature"},
	{"geometry":{"coordinates":[-111.9189,33.308078],"type":"Point"},"properties":{"osm_id":"6383827787","tag":{"amenity":"waste_basket"}},"type":"Feature"},
	{"geometry":{"coordinates":[-111.918592,33.31215],"type":"Point"},"properties":{"osm_id":"6385579276","tag":{"amenity":"waste_basket"}},"type":"Feature"},
	{"geometry":{"coordinates":[-111.918612,33.310342],"type":"Point"},"properties":{"osm_id":"6385579277","tag":{"amenity":"waste_basket"}},"type":"Feature"},
	{"geometry":{"coordinates":[-111.918976,33.310253],"type":"Point"},"properties":{"osm_id":"6385579278","tag":{"amenity":"waste_basket"}},"type":"Feature"},
	{"geometry":{"coordinates":[-111.960871,33.321081],"type":"Point"},"properties":{"osm_id":"6387319905","tag":{"amenity":"waste_disposal"}},"type":"Feature"},
	{"geometry":{"coordinates":[-111.962193,33.321111],"type":"Point"},"properties":{"osm_id":"6387319906","tag":{"amenity":"waste_disposal"}},"type":"Feature"},
	{"geometry":{"coordinates":[-111.919134,33.3135],"type":"Point"},"properties":{"osm_id":"6396676138","tag":{"amenity":"waste_basket"}},"type":"Feature"},
	{"geometry":{"coordinates":[-111.91925,33.312758],"type":"Point"},"properties":{"osm_id":"6400895421","tag":{"amenity":"waste_basket"}},"type":"Feature"},
	{"geometry":{"coordinates":[-111.919103,33.31329],"type":"Point"},"properties":{"osm_id":"6400895430","tag":{"amenity":"waste_basket"}},"type":"Feature"},
	{"geometry":{"coordinates":[-111.918601,33.310847],"type":"Point"},"properties":{"osm_id":"6412144572","tag":{"amenity":"waste_basket"}},"type":"Feature"},
	{"geometry":{"coordinates":[-111.918588,33.312508],"type":"Point"},"properties":{"osm_id":"6412144573","tag":{"amenity":"waste_basket"}},"type":"Feature"},
	{"geometry":{"coordinates":[-111.91963,33.313929],"type":"Point"},"properties":{"osm_id":"6414509357","tag":{"amenity":"waste_basket"}},"type":"Feature"},
	{"geometry":{"coordinates":[-111.919788,33.314125],"type":"Point"},"properties":{"osm_id":"6417035810","tag":{"amenity":"waste_basket"}},"type":"Feature"},
	{"geometry":{"coordinates":[-111.920015,33.314041],"type":"Point"},"properties":{"osm_id":"6417035813","tag":{"amenity":"waste_basket"}},"type":"Feature"},
	{"geometry":{"coordinates":[-111.920174,33.313918],"type":"Point"},"properties":{"osm_id":"6423408636","tag":{"amenity":"waste_basket"}},"type":"Feature"},
	{"geometry":{"coordinates":[-111.920195,33.313737],"type":"Point"},"properties":{"osm_id":"6438696538","tag":{"amenity":"waste_basket"}},"type":"Feature"},
	{"geometry":{"coordinates":[-111.921329,33.314765],"type":"Point"},"properties":{"osm_id":"6440765158","tag":{"amenity":"waste_basket"}},"type":"Feature"},
	{"geometry":{"coordinates":[-111.921102,33.314564],"type":"Point"},"properties":{"osm_id":"6440765159","tag":{"amenity":"waste_basket"}},"type":"Feature"},
	{"geometry":{"coordinates":[-111.919822,33.310875],"type":"Point"},"properties":{"osm_id":"6442888170","tag":{"amenity":"waste_basket"}},"type":"Feature"},
	{"geometry":{"coordinates":[-111.919722,33.3104],"type":"Point"},"properties":{"osm_id":"6442888171","tag":{"amenity":"waste_basket"}},"type":"Feature"},
	{"geometry":{"coordinates":[-111.919287,33.311935],"type":"Point"},"properties":{"osm_id":"6445708403","tag":{"amenity":"waste_basket"}},"type":"Feature"},
	{"geometry":{"coordinates":[-111.91969,33.311482],"type":"Point"},"properties":{"osm_id":"6445708404","tag":{"amenity":"waste_basket"}},"type":"Feature"},
	{"geometry":{"coordinates":[-111.919819,33.31205],"type":"Point"},"properties":{"osm_id":"6445708405","tag":{"amenity":"waste_basket"}},"type":"Feature"},
	{"geometry":{"coordinates":[-111.91976,33.312052],"type":"Point"},"properties":{"osm_id":"6445708406","tag":{"amenity":"waste_basket"}},"type":"Feature"},
	{"geometry":{"coordinates":[-111.919741,33.310152],"type":"Point"},"properties":{"osm_id":"6448374446","tag":{"amenity":"waste_basket"}},"type":"Feature"},
	{"geometry":{"coordinates":[-111.920759,33.311961],"type":"Point"},"properties":{"osm_id":"6465166813","tag":{"amenity":"waste_basket"}},"type":"Feature"},
	{"geometry":{"coordinates":[-111.919909,33.312512],"type":"Point"},"properties":{"osm_id":"6465166818","tag":{"amenity":"waste_basket"}},"type":"Feature"},
	{"geometry":{"coordinates":[-111.920513,33.312221],"type":"Point"},"properties":{"osm_id":"6473226280","tag":{"amenity":"waste_basket"}},"type":"Feature"},
	{"geometry":{"coordinates":[-111.920908,33.312976],"type":"Point"},"properties":{"osm_id":"6513304595","tag":{"amenity":"waste_basket"}},"type":"Feature"},
	{"geometry":{"coordinates":[-111.921324,33.312977],"type":"Point"},"properties":{"osm_id":"6513304599","tag":{"amenity":"waste_basket"}},"type":"Feature"},
	{"geometry":{"coordinates":[-111.921094,33.312981],"type":"Point"},"properties":{"osm_id":"6513304604","tag":{"amenity":"waste_basket"}},"type":"Feature"},
	{"geometry":{"coordinates":[-111.919908,33.313541],"type":"Point"},"properties":{"osm_id":"6528832186","tag":{"amenity":"waste_basket"}},"type":"Feature"},
	{"geometry":{"coordinates":[-111.920059,33.313322],"type":"Point"},"properties":{"osm_id":"6558053007","tag":{"amenity":"waste_basket"}},"type":"Feature"},
	{"geometry":{"coordinates":[-111.92013,33.312892],"type":"Point"},"properties":{"osm_id":"6561217888","tag":{"amenity":"waste_basket"}},"type":"Feature"},
	{"geometry":{"coordinates":[-111.920166,33.313248],"type":"Point"},"properties":{"osm_id":"6578713818","tag":{"amenity":"waste_basket"}},"type":"Feature"},
	{"geometry":{"coordinates":[-111.922176,33.312613],"type":"Point"},"properties":{"osm_id":"6694792199","tag":{"amenity":"waste_basket"}},"type":"Feature"},
	{"geometry":{"coordinates":[-111.920438,33.311875],"type":"Point"},"properties":{"osm_id":"6712227290","tag":{"amenity":"waste_disposal"}},"type":"Feature"},
	{"geometry":{"coordinates":[-111.920692,33.313837],"type":"Point"},"properties":{"osm_id":"6753586733","tag":{"amenity":"waste_basket"}},"type":"Feature"},
	{"geometry":{"coordinates":[-111.945564,33.301455],"type":"Point"},"properties":{"osm_id":"6787308717","tag":{"amenity":"waste_basket"}},"type":"Feature"},
	{"geometry":{"coordinates":[-111.945567,33.296674],"type":"Point"},"properties":{"osm_id":"6787308733","tag":{"amenity":"waste_basket"}},"type":"Feature"},
	{"geometry":{"coordinates":[-111.920721,33.312162],"type":"Point"},"properties":{"osm_id":"6806138271","tag":{"amenity":"waste_basket"}},"type":"Feature"},
	{"geometry":{"coordinates":[-111.919632,33.312157],"type":"Point"},"properties":{"osm_id":"6823332687","tag":{"amenity":"waste_basket"}},"type":"Feature"},
	{"geometry":{"coordinates":[-111.922359,33.305833],"type":"Point"},"properties":{"osm_id":"6840787279","tag":{"amenity":"waste_basket","waste":"dog_excrement"}},"type":"Feature"},
	{"geometry":{"coordinates":[-111.921294,33.305833],"type":"Point"},"properties":{"osm_id":"6840787284","tag":{"amenity":"waste_basket","waste":"dog_excrement"}},"type":"Feature"},
	{"geometry":{"coordinates":[-111.922733,33.312758],"type":"Point"},"properties":{"osm_id":"6853677746","tag":{"amenity":"waste_basket"}},"type":"Feature"},
	{"geometry":{"coordinates":[-111.922928,33.312847],"type":"Point"},"properties":{"osm_id":"6853677756","tag":{"amenity":"waste_basket"}},"type":"Feature"},
	{"geometry":{"coordinates":[-111.921279,33.31159],"type":"Point"},"properties":{"osm_id":"6860917989","tag":{"amenity":"waste_basket"}},"type":"Feature"},
	{"geometry":{"coordinates":[-111.923004,33.312634],"type":"Point"},"properties":{"osm_id":"6864016420","tag":{"amenity":"waste_basket"}},"type":"Feature"},
	{"geometry":{"coordinates":[-111.923811,33.307008],"type":"Point"},"properties":{"osm_id":"6873369338","tag":{"amenity":"waste_basket","waste":"dog_excrement"}},"type":"Feature"},
	{"geometry":{"coordinates":[-111.920301,33.308906],"type":"Point"},"properties":{"osm_id":"6951904430","tag":{"amenity":"waste_basket","waste":"dog_excrement"}},"type":"Feature"},
	{"geometry":{"coordinates":[-111.923962,33.307577],"type":"Point"},"properties":{"osm_id":"7011251800","tag":{"amenity":"waste_basket","waste":"dog_excrement"}},"type":"Feature"},
	{"geometry":{"coordinates":[-111.923377,33.305303],"type":"Point"},"properties":{"osm_id":"7105122396","tag":{"amenity":"waste_basket"}},"type":"Feature"},
	{"geometry":{"coordinates":[-111.911666,33.305596],"type":"Point"},"properties":{"osm_id":"7122827069","tag":{"amenity":"waste_basket"}},"type":"Feature"},
	{"geometry":{"coordinates":[-111.925329,33.309072],"type":"Point"},"properties":{"osm_id":"7133554313","tag":{"amenity":"waste_basket","waste":"dog_excrement"}},"type":"Feature"},
	{"geometry":{"coordinates":[-111.918034,33.312992],"type":"Point"},"properties":{"osm_id":"7142999862","tag":{"amenity":"waste_basket"}},"type":"Feature"},
	{"geometry":{"coordinates":[-111.928915,33.317475],"type":"Point"},"properties":{"osm_id":"7183213757","tag":{"access":"private","amenity":"waste_disposal"}},"type":"Feature"},
	{"geometry":{"coordinates":[-111.923627,33.343671],"type":"Point"},"properties":{"osm_id":"7183213760","tag":{"amenity":"waste_disposal"}},"type":"Feature"},
	{"geometry":{"coordinates":[-111.923595,33.343672],"type":"Point"},"properties":{"osm_id":"7183213761","tag":{"amenity":"waste_disposal"}},"type":"Feature"},
	{"geometry":{"coordinates":[-111.925565,33.321601],"type":"Point"},"properties":{"osm_id":"7183626353","tag":{"access":"private","amenity":"waste_disposal"}},"type":"Feature"},
	{"geometry":{"coordinates":[-111.925391,33.321692],"type":"Point"},"properties":{"osm_id":"7183626354","tag":{"access":"private","amenity":"waste_disposal"}},"type":"Feature"},
	{"geometry":{"coordinates":[-111.925371,33.321717],"type":"Point"},"properties":{"osm_id":"7183626355","tag":{"access":"private","amenity":"waste_disposal"}},"type":"Feature"},
	{"geometry":{"coordinates":[-111.925537,33.32161],"type":"Point"},"properties":{"osm_id":"7183626356","tag":{"access":"private","amenity":"waste_disposal"}},"type":"Feature"},
	{"geometry":{"coordinates":[-111.926824,33.320264],"type":"Point"},"properties":{"osm_id":"7183626357","tag":{"access":"private","amenity":"waste_disposal"}},"type":"Feature"},
	{"geometry":{"coordinates":[-111.92682,33.320294],"type":"Point"},"properties":{"osm_id":"7183626358","tag":{"access":"private","amenity":"waste_disposal"}},"type":"Feature"},
	{"geometry":{"coordinates":[-111.927293,33.319208],"type":"Point"},"properties":{"osm_id":"7183626363","tag":{"amenity":"waste_disposal"}},"type":"Feature"},
	{"geometry":{"coordinates":[-111.926658,33.31934],"type":"Point"},"properties":{"osm_id":"7183626364","tag":{"amenity":"waste_disposal"}},"type":"Feature"},
	{"geometry":{"coordinates":[-111.925579,33.319118],"type":"Point"},"properties":{"osm_id":"7183626370","tag":{"access":"private","amenity":"waste_disposal"}},"type":"Feature"},
	{"geometry":{"coordinates":[-111.927597,33.317718],"type":"Point"},"properties":{"osm_id":"7183626371","tag":{"amenity":"waste_disposal"}},"type":"Feature"},
	{"geometry":{"coordinates":[-111.928971,33.318893],"type":"Point"},"properties":{"osm_id":"7183626372","tag":{"access":"private","amenity":"waste_disposal"}},"type":"Feature"},
	{"geometry":{"coordinates":[-111.930195,33.318855],"type":"Point"},"properties":{"osm_id":"7183626373","tag":{"access":"private","amenity":"waste_disposal"}},"type":"Feature"},
	{"geometry":{"coordinates":[-111.93018,33.318877],"type":"Point"},"properties":{"osm_id":"7183626374","tag":{"access":"private","amenity":"waste_disposal"}},"type":"Feature"},
	{"geometry":{"coordinates":[-111.930125,33.317188],"type":"Point"},"properties":{"osm_id":"7183626375","tag":{"access":"private","amenity":"waste_disposal"}},"type":"Feature"},
	{"geometry":{"coordinates":[-111.928949,33.316524],"type":"Point"},"properties":{"osm_id":"7183626376","tag":{"access":"private","amenity":"waste_disposal"}},"type":"Feature"},
	{"geometry":{"coordinates":[-111.945388,33.310285],"type":"Point"},"properties":{"osm_id":"7183655624","tag":{"amenity":"waste_disposal"}},"type":"Feature"},
	{"geometry":{"coordinates":[-111.947294,33.310677],"type":"Point"},"properties":{"osm_id":"7183655627","tag":{"amenity":"waste_disposal"}},"type":"Feature"},
	{"geometry":{"coordinates":[-111.949152,33.307936],"type":"Point"},"properties":{"osm_id":"7183655648","tag":{"amenity":"waste_disposal"}},"type":"Feature"},
	{"geometry":{"coordinates":[-111.93733,33.311229],"type":"Point"},"properties":{"osm_id":"7183655686","tag":{"amenity":"waste_disposal"}},"type":"Feature"},
	{"geometry":{"coordinates":[-111.941609,33.309307],"type":"Point"},"properties":{"osm_id":"7183655696","tag":{"amenity":"waste_disposal"}},"type":"Feature"},
	{"geometry":{"coordinates":[-111.947386,33.312475],"type":"Point"},"properties":{"osm_id":"7183655700","tag":{"amenity":"waste_disposal"}},"type":"Feature"},
	{"geometry":{"coordinates":[-111.946344,33.31254],"type":"Point"},"properties":{"osm_id":"7183655701","tag":{"amenity":"waste_disposal"}},"type":"Feature"},
	{"geometry":{"coordinates":[-111.948221,33.31246],"type":"Point"},"properties":{"osm_id":"7183655702","tag":{"amenity":"waste_disposal"}},"type":"Feature"},
	{"geometry":{"coordinates":[-111.902593,33.305126],"type":"Point"},"properties":{"osm_id":"7183711188","tag":{"amenity":"waste_disposal"}},"type":"Feature"},
	{"geometry":{"coordinates":[-111.904361,33.304897],"type":"Point"},"properties":{"osm_id":"7183711189","tag":{"access":"private","amenity":"waste_disposal"}},"type":"Feature"},
	{"geometry":{"coordinates":[-111.927982,33.308151],"type":"Point"},"properties":{"osm_id":"7211922079","tag":{"amenity":"waste_basket","waste":"dog_excrement"}},"type":"Feature"},
	{"geometry":{"coordinates":[-111.910611,33.305276],"type":"Point"},"properties":{"osm_id":"7223093638","tag":{"amenity":"waste_basket"}},"type":"Feature"},
	{"geometry":{"coordinates":[-111.929847,33.356357],"type":"Point"},"properties":{"osm_id":"7265060679","tag":{"amenity":"waste_disposal"}},"type":"Feature"},
	{"geometry":{"coordinates":[-111.916423,33.317661],"type":"Point"},"properties":{"osm_id":"7282385075","tag":{"amenity":"waste_basket","waste":"dog_excrement"}},"type":"Feature"},
	{"geometry":{"coordinates":[-111.890108,33.286648],"type":"Point"},"properties":{"osm_id":"7295052482","tag":{"amenity":"waste_disposal"}},"type":"Feature"},
	{"geometry":{"coordinates":[-111.890735,33.28779],"type":"Point"},"properties":{"osm_id":"7295057998","tag":{"amenity":"waste_disposal"}},"type":"Feature"},
	{"geometry":{"coordinates":[-111.890771,33.2878],"type":"Point"},"properties":{"osm_id":"7295057999","tag":{"amenity":"waste_disposal"}},"type":"Feature"},
	{"geometry":{"coordinates":[-111.893457,33.290286],"type":"Point"},"properties":{"osm_id":"7295058000","tag":{"amenity":"waste_disposal"}},"type":"Feature"},
	{"geometry":{"coordinates":[-111.893427,33.290268],"type":"Point"},"properties":{"osm_id":"7295058001","tag":{"amenity":"waste_disposal"}},"type":"Feature"},
	{"geometry":{"coordinates":[-111.890038,33.289582],"type":"Point"},"properties":{"osm_id":"7295058014","tag":{"amenity":"waste_disposal"}},"type":"Feature"},
	{"geometry":{"coordinates":[-111.890233,33.319141],"type":"Point"},"properties":{"osm_id":"7295073616","tag":{"amenity":"waste_disposal"}},"type":"Feature"},
	{"geometry":{"coordinates":[-111.890218,33.319178],"type":"Point"},"properties":{"osm_id":"7295073617","tag":{"amenity":"waste_disposal"}},"type":"Feature"},
	{"geometry":{"coordinates":[-111.890206,33.319252],"type":"Point"},"properties":{"osm_id":"7295073618","tag":{"amenity":"waste_disposal"}},"type":"Feature"},
	{"geometry":{"coordinates":[-111.891357,33.318435],"type":"Point"},"properties":{"osm_id":"7295073619","tag":{"amenity":"waste_disposal"}},"type":"Feature"},
	{"geometry":{"coordinates":[-111.891276,33.318435],"type":"Point"},"properties":{"osm_id":"7295073620","tag":{"amenity":"waste_disposal"}},"type":"Feature"},
	{"geometry":{"coordinates":[-111.892706,33.320022],"type":"Point"},"properties":{"osm_id":"7295073643","tag":{"amenity":"waste_disposal"}},"type":"Feature"},
	{"geometry":{"coordinates":[-111.897258,33.294494],"type":"Point"},"properties":{"osm_id":"7295078939","tag":{"amenity":"waste_disposal"}},"type":"Feature"},
	{"geometry":{"coordinates":[-111.897239,33.294522],"type":"Point"},"properties":{"osm_id":"7295078940","tag":{"amenity":"waste_disposal"}},"type":"Feature"},
	{"geometry":{"coordinates":[-111.896408,33.295599],"type":"Point"},"properties":{"osm_id":"7295078941","tag":{"amenity":"waste_disposal"}},"type":"Feature"},
	{"geometry":{"coordinates":[-111.896378,33.295623],"type":"Point"},"properties":{"osm_id":"7295078942","tag":{"amenity":"waste_disposal"}},"type":"Feature"},
	{"geometry":{"coordinates":[-111.895432,33.294563],"type":"Point"},"properties":{"osm_id":"7295078943","tag":{"amenity":"waste_disposal"}},"type":"Feature"},
	{"geometry":{"coordinates":[-111.895393,33.294567],"type":"Point"},"properties":{"osm_id":"7295078944","tag":{"amenity":"waste_disposal"}},"type":"Feature"},
	{"geometry":{"coordinates":[-111.90182,33.296968],"type":"Point"},"properties":{"osm_id":"7295078990","tag":{"amenity":"waste_disposal"}},"type":"Feature"},
	{"geometry":{"coordinates":[-111.901911,33.29943],"type":"Point"},"properties":{"osm_id":"7295078991","tag":{"amenity":"waste_disposal"}},"type":"Feature"},
	{"geometry":{"coordinates":[-111.901536,33.304379],"type":"Point"},"properties":{"osm_id":"7295078992","tag":{"amenity":"waste_disposal"}},"type":"Feature"},
	{"geometry":{"coordinates":[-111.89891,33.30445],"type":"Point"},"properties":{"osm_id":"7295078993","tag":{"amenity":"waste_disposal"}},"type":"Feature"},
	{"geometry":{"coordinates":[-111.896637,33.304498],"type":"Point"},"properties":{"osm_id":"7295078994","tag":{"amenity":"waste_disposal"}},"type":"Feature"},
	{"geometry":{"coordinates":[-111.895869,33.306478],"type":"Point"},"properties":{"osm_id":"7295078995","tag":{"amenity":"waste_disposal"}},"type":"Feature"},
	{"geometry":{"coordinates":[-111.911027,33.309296],"type":"Point"},"properties":{"osm_id":"7626349637","tag":{"amenity":"waste_basket"}},"type":"Feature"},
	{"geometry":{"coordinates":[-111.910996,33.306008],"type":"Point"},"properties":{"osm_id":"7637976573","tag":{"amenity":"waste_basket"}},"type":"Feature"},
	{"geometry":{"coordinates":[-111.919786,33.317415],"type":"Point"},"properties":{"osm_id":"7853593654","tag":{"amenity":"waste_basket","waste":"dog_excrement"}},"type":"Feature"},
	{"geometry":{"coordinates":[-111.919797,33.316928],"type":"Point"},"properties":{"osm_id":"7853593664","tag":{"amenity":"waste_basket"}},"type":"Feature"},
	{"geometry":{"coordinates":[-111.926387,33.306282],"type":"Point"},"properties":{"osm_id":"7855731100","tag":{"amenity":"waste_disposal"}},"type":"Feature"},
	{"geometry":{"coordinates":[-111.925452,33.306383],"type":"Point"},"properties":{"osm_id":"7855731101","tag":{"amenity":"waste_disposal"}},"type":"Feature"},
	{"geometry":{"coordinates":[-111.92541,33.306369],"type":"Point"},"properties":{"osm_id":"7855731102","tag":{"amenity":"waste_disposal"}},"type":"Feature"},
	{"geometry":{"coordinates":[-111.927231,33.307367],"type":"Point"},"properties":{"osm_id":"7855731103","tag":{"amenity":"waste_disposal"}},"type":"Feature"},
	{"geometry":{"coordinates":[-111.925622,33.307347],"type":"Point"},"properties":{"osm_id":"7855731104","tag":{"amenity":"waste_disposal"}},"type":"Feature"},
	{"geometry":{"coordinates":[-111.927229,33.307397],"type":"Point"},"properties":{"osm_id":"7855731105","tag":{"amenity":"waste_disposal"}},"type":"Feature"},
	{"geometry":{"coordinates":[-111.951884,33.320249],"type":"Point"},"properties":{"osm_id":"7919705934","tag":{"amenity":"waste_basket"}},"type":"Feature"}
]
}
