{
"type": "FeatureCollection",
"lastupdate": "2020-08-03T00:00:00Z",
"features": [
	{"geometry":{"coordinates":[-9.547963,51.526947],"type":"Point"},"properties":{"osm_id":"2885070919","tag":{"amenity":"waste_basket"}},"type":"Feature"},
	{"geometry":{"coordinates":[-9.547856,51.526878],"type":"Point"},"properties":{"osm_id":"2885070920","tag":{"amenity":"waste_basket"}},"type":"Feature"},
	{"geometry":{"coordinates":[-9.546029,51.526994],"type":"Point"},"properties":{"osm_id":"2887532530","tag":{"amenity":"waste_basket"}},"type":"Feature"},
	{"geometry":{"coordinates":[-9.544252,51.520985],"type":"Point"},"properties":{"osm_id":"2925921002","tag":{"amenity":"waste_basket"}},"type":"Feature"},
	{"geometry":{"coordinates":[-9.545646,51.526906],"type":"Point"},"properties":{"osm_id":"2925921302","tag":{"amenity":"waste_basket"}},"type":"Feature"},
	{"geometry":{"coordinates":[-9.496007,51.548047],"type":"Point"},"properties":{"osm_id":"3214368563","tag":{"amenity":"waste_basket","designation":"Cork County Council Derryconnery Civic Amenity Site"}},"type":"Feature"}
]
}
