{
"type": "FeatureCollection",
"features": [
	{"geometry":{"coordinates":[-9.546428,7.043002],"type":"Point"},"properties":{"osm_id":"5039101510","tag":{"addr:city":"Gbarnga","addr:street":"Gbarnga - Monrovia Highway","amenity":"waste_disposal","fee":"no","waste":"trash"}},"type":"Feature"},
	{"geometry":{"coordinates":[-9.554318,7.039001],"type":"Point"},"properties":{"osm_id":"5039102025","tag":{"addr:city":"Gbarnga","addr:street":"Gbarnga - Monrovia Highway","amenity":"waste_basket","fee":"no","waste":"trash"}},"type":"Feature"},
	{"geometry":{"coordinates":[-9.542106,7.041769],"type":"Point"},"properties":{"osm_id":"5039102039","tag":{"addr:city":"Gbarnga","addr:street":"Gbarnga - Monrovia Highway","amenity":"waste_disposal","fee":"no","toilets:access":"permissive","toilets:disposal":"flush","toilets:handwashing":"no"}},"type":"Feature"},
	{"geometry":{"coordinates":[-9.541873,7.043226],"type":"Point"},"properties":{"osm_id":"5039102043","tag":{"addr:city":"Gbarnga","addr:street":"Gbarnga - Monrovia Highway","amenity":"waste_disposal","fee":"no","toilets:access":"permissive","toilets:disposal":"flush","toilets:handwashing":"no"}},"type":"Feature"},
	{"geometry":{"coordinates":[-9.542369,7.046924],"type":"Point"},"properties":{"osm_id":"5039102053","tag":{"addr:city":"Gbarnga","addr:street":"Gbarnga - Monrovia Highway","amenity":"waste_disposal","fee":"no","toilets:access":"permissive","toilets:disposal":"flush","toilets:handwashing":"no"}},"type":"Feature"},
	{"geometry":{"coordinates":[-9.542764,7.047757],"type":"Point"},"properties":{"osm_id":"5039102056","tag":{"addr:city":"Gbarnga","addr:street":"Gbarnga - Monrovia Highway","amenity":"waste_disposal","fee":"no","toilets:access":"permissive","toilets:disposal":"flush","toilets:handwashing":"no"}},"type":"Feature"},
	{"geometry":{"coordinates":[-9.542701,7.048061],"type":"Point"},"properties":{"osm_id":"5039102057","tag":{"addr:city":"Gbarnga","addr:street":"Gbarnga - Monrovia Highway","amenity":"waste_disposal","fee":"no","toilets:access":"permissive","toilets:disposal":"flush","toilets:handwashing":"no"}},"type":"Feature"},
	{"geometry":{"coordinates":[-9.544501,7.043972],"type":"Point"},"properties":{"osm_id":"5039102068","tag":{"addr:city":"Gbarnga","addr:street":"Gbarnga - Monrovia Highway","amenity":"waste_disposal","fee":"no","toilets:access":"permissive","toilets:disposal":"flush","toilets:handwashing":"no"}},"type":"Feature"},
	{"geometry":{"coordinates":[-9.545853,7.042545],"type":"Point"},"properties":{"osm_id":"5039102070","tag":{"addr:city":"Gbarnga","addr:street":"Gbarnga - Monrovia Highway","amenity":"waste_disposal","fee":"no","toilets:access":"permissive","toilets:disposal":"flush","toilets:handwashing":"no"}},"type":"Feature"},
	{"geometry":{"coordinates":[-9.552663,7.046755],"type":"Point"},"properties":{"osm_id":"5039102075","tag":{"addr:city":"Gbarnga","addr:street":"Gbarnga - Monrovia high way","amenity":"waste_basket","toilets:disposal":"bucket"}},"type":"Feature"},
	{"geometry":{"coordinates":[-9.555262,7.04163],"type":"Point"},"properties":{"osm_id":"5039102078","tag":{"addr:city":"Gbarnga","addr:street":"Gbarnga - Monrovia high way","amenity":"waste_basket","fee":"no","toilets:disposal":"bucket"}},"type":"Feature"},
	{"geometry":{"coordinates":[-9.554312,7.041461],"type":"Point"},"properties":{"osm_id":"5039102082","tag":{"addr:city":"Gbarnga","addr:street":"Gbarnga - Monrovia high way","amenity":"waste_basket","toilets:disposal":"bucket"}},"type":"Feature"},
	{"geometry":{"coordinates":[-9.548245,7.037977],"type":"Point"},"properties":{"osm_id":"5039102099","tag":{"addr:city":"Gbarnga","addr:street":"Gbarnga - Monrovia Highway","amenity":"waste_disposal","fee":"no","toilets:access":"permissive","toilets:disposal":"flush","toilets:handwashing":"no"}},"type":"Feature"},
	{"geometry":{"coordinates":[-9.565623,7.013822],"type":"Point"},"properties":{"osm_id":"5040011240","tag":{"addr:city":"Gbarnga","amenity":"waste_disposal"}},"type":"Feature"},
	{"geometry":{"coordinates":[-9.56671,7.014413],"type":"Point"},"properties":{"osm_id":"5040011249","tag":{"addr:city":"Gbarnga","amenity":"waste_disposal","fee":"no","waste":"Mixed waste"}},"type":"Feature"},
	{"geometry":{"coordinates":[-9.568244,7.01387],"type":"Point"},"properties":{"osm_id":"5040011264","tag":{"addr:city":"Gbarnga","amenity":"waste_disposal","waste":"mixe"}},"type":"Feature"},
	{"geometry":{"coordinates":[-9.567493,7.01486],"type":"Point"},"properties":{"osm_id":"5040011267","tag":{"addr:city":"Gbarnga","amenity":"waste_disposal","waste":"mixe"}},"type":"Feature"},
	{"geometry":{"coordinates":[-9.568394,7.014455],"type":"Point"},"properties":{"osm_id":"5040011271","tag":{"addr:city":"Gbarnga","amenity":"waste_disposal","waste":"mixe"}},"type":"Feature"},
	{"geometry":{"coordinates":[-9.568909,7.015052],"type":"Point"},"properties":{"osm_id":"5040011274","tag":{"addr:city":"Gbarnga","amenity":"waste_disposal","waste":"mixe"}},"type":"Feature"},
	{"geometry":{"coordinates":[-9.568457,7.016546],"type":"Point"},"properties":{"osm_id":"5040011307","tag":{"addr:city":"Gbarnga","amenity":"waste_disposal","waste":"mixe"}},"type":"Feature"},
	{"geometry":{"coordinates":[-9.568279,7.01641],"type":"Point"},"properties":{"osm_id":"5040011310","tag":{"addr:city":"Gbarnga","amenity":"waste_disposal","waste":"mixe"}},"type":"Feature"},
	{"geometry":{"coordinates":[-9.542817,7.047748],"type":"Point"},"properties":{"osm_id":"5108580434","tag":{"addr:city":"Gbarnga","addr:street":"Gbarnga - Monrovia Highway","amenity":"waste_disposal","fee":"no","toilets:access":"permissive","toilets:disposal":"flush","toilets:handwashing":"no"}},"type":"Feature"}
]
}
