{
"type": "FeatureCollection",
"features": [
	{"geometry":{"coordinates":[-9.563399,7.010869],"type":"Point"},"properties":{"osm_id":"5035965100","tag":{"addr:city":"Gbarnga","addr:street":"S G kollie","amenity":"waste_disposal"}},"type":"Feature"},
	{"geometry":{"coordinates":[-9.563303,7.010768],"type":"Point"},"properties":{"osm_id":"5035965101","tag":{"addr:city":"Gbarnga","addr:street":"S G kollie","amenity":"waste_disposal"}},"type":"Feature"},
	{"geometry":{"coordinates":[-9.562661,7.010275],"type":"Point"},"properties":{"osm_id":"5035965107","tag":{"addr:city":"Gbarnga","addr:street":"S G kollie","amenity":"waste_disposal"}},"type":"Feature"},
	{"geometry":{"coordinates":[-9.563051,7.01076],"type":"Point"},"properties":{"osm_id":"5035965112","tag":{"addr:city":"Gbarnga","addr:street":"S G kollie","amenity":"waste_disposal"}},"type":"Feature"},
	{"geometry":{"coordinates":[-9.563803,7.011177],"type":"Point"},"properties":{"osm_id":"5035965454","tag":{"addr:city":"Gbarnga","amenity":"waste_disposal","fee":"no","waste":"Mixed"}},"type":"Feature"},
	{"geometry":{"coordinates":[-9.567959,7.012638],"type":"Point"},"properties":{"osm_id":"5037126603","tag":{"addr:city":"Gbarnga","amenity":"waste_disposal","fee":"no","waste":"Mixed"}},"type":"Feature"},
	{"geometry":{"coordinates":[-9.566089,7.011185],"type":"Point"},"properties":{"osm_id":"5037126610","tag":{"addr:city":"Gbarnga","amenity":"waste_disposal","fee":"no","waste":"mixed"}},"type":"Feature"},
	{"geometry":{"coordinates":[-9.565283,7.010569],"type":"Point"},"properties":{"osm_id":"5037126642","tag":{"addr:city":"Gbarnga","amenity":"waste_disposal","waste":"mixe"}},"type":"Feature"},
	{"geometry":{"coordinates":[-9.567718,7.012856],"type":"Point"},"properties":{"osm_id":"5037126673","tag":{"addr:city":"Gbarnga","amenity":"waste_disposal"}},"type":"Feature"},
	{"geometry":{"coordinates":[-9.569437,7.012823],"type":"Point"},"properties":{"osm_id":"5040011222","tag":{"addr:city":"Gbarnga","amenity":"waste_disposal"}},"type":"Feature"},
	{"geometry":{"coordinates":[-9.565817,7.011538],"type":"Point"},"properties":{"osm_id":"5040011255","tag":{"addr:city":"Gbarnga","amenity":"waste_disposal"}},"type":"Feature"},
	{"geometry":{"coordinates":[-9.565174,7.011791],"type":"Point"},"properties":{"osm_id":"5040011260","tag":{"addr:city":"Gbarnga","amenity":"waste_disposal"}},"type":"Feature"},
	{"geometry":{"coordinates":[-9.567544,7.013313],"type":"Point"},"properties":{"osm_id":"5040011522","tag":{"addr:city":"Gbarnga","amenity":"waste_disposal","toilets:access":"permissive","toilets:handwashing":"no"}},"type":"Feature"},
	{"geometry":{"coordinates":[-9.565909,7.012589],"type":"Point"},"properties":{"osm_id":"5040011526","tag":{"addr:city":"Gbarnga","amenity":"waste_disposal"}},"type":"Feature"},
	{"geometry":{"coordinates":[-9.569553,7.013497],"type":"Point"},"properties":{"osm_id":"5040011542","tag":{"addr:city":"Gbarnga","amenity":"waste_disposal","fee":"no","waste":"Mixed"}},"type":"Feature"},
	{"geometry":{"coordinates":[-9.566732,7.012885],"type":"Point"},"properties":{"osm_id":"5040011560","tag":{"addr:city":"Gbarnga","amenity":"waste_disposal","fee":"no","waste":"Mixed"}},"type":"Feature"},
	{"geometry":{"coordinates":[-9.565974,7.012496],"type":"Point"},"properties":{"osm_id":"5040011562","tag":{"addr:city":"Gbarnga","amenity":"waste_disposal","fee":"no","waste":"Mixed"}},"type":"Feature"},
	{"geometry":{"coordinates":[-9.565776,7.012911],"type":"Point"},"properties":{"osm_id":"5040011564","tag":{"addr:city":"Gbarnga","amenity":"waste_disposal","fee":"no","waste":"Mixed"}},"type":"Feature"},
	{"geometry":{"coordinates":[-9.565787,7.012295],"type":"Point"},"properties":{"osm_id":"5040011568","tag":{"addr:city":"Gbarnga","amenity":"waste_disposal","fee":"no","waste":"Mixed"}},"type":"Feature"},
	{"geometry":{"coordinates":[-9.573823,6.987512],"type":"Point"},"properties":{"osm_id":"5041962694","tag":{"addr:city":"Gbarnga","addr:street":"Gbarnga - Monrovia Highway","amenity":"waste_disposal"}},"type":"Feature"},
	{"geometry":{"coordinates":[-9.53035,6.935075],"type":"Point"},"properties":{"osm_id":"5071758510","tag":{"addr:city":"Gbarnga","amenity":"waste_disposal","waste":"trash"}},"type":"Feature"},
	{"geometry":{"coordinates":[-9.530272,6.93529],"type":"Point"},"properties":{"osm_id":"5071758512","tag":{"addr:city":"Gbarnga","amenity":"waste_disposal","waste":"trash"}},"type":"Feature"},
	{"geometry":{"coordinates":[-9.530489,6.935735],"type":"Point"},"properties":{"osm_id":"5071758513","tag":{"addr:city":"Gbarnga","amenity":"waste_disposal","waste":"trash"}},"type":"Feature"},
	{"geometry":{"coordinates":[-9.529855,6.936301],"type":"Point"},"properties":{"osm_id":"5071758515","tag":{"addr:city":"Gbarnga","amenity":"waste_disposal","waste":"trash"}},"type":"Feature"},
	{"geometry":{"coordinates":[-9.530457,6.936374],"type":"Point"},"properties":{"osm_id":"5071758517","tag":{"addr:city":"Gbarnga","amenity":"waste_disposal","waste":"trash"}},"type":"Feature"},
	{"geometry":{"coordinates":[-9.541659,6.943267],"type":"Point"},"properties":{"osm_id":"5071758518","tag":{"addr:city":"Gbarnga","amenity":"waste_disposal","waste":"trash"}},"type":"Feature"},
	{"geometry":{"coordinates":[-9.541561,6.94892],"type":"Point"},"properties":{"osm_id":"5071758520","tag":{"addr:city":"Gbarnga","amenity":"waste_disposal","waste":"trash"}},"type":"Feature"},
	{"geometry":{"coordinates":[-9.541883,6.949367],"type":"Point"},"properties":{"osm_id":"5071758621","tag":{"addr:city":"Gbarnga","amenity":"waste_disposal","waste":"trash"}},"type":"Feature"},
	{"geometry":{"coordinates":[-9.541947,6.949559],"type":"Point"},"properties":{"osm_id":"5071758622","tag":{"addr:city":"Gbarnga","amenity":"waste_disposal","waste":"trash"}},"type":"Feature"},
	{"geometry":{"coordinates":[-9.543167,6.950133],"type":"Point"},"properties":{"osm_id":"5071758623","tag":{"addr:city":"Gbarnga","amenity":"waste_disposal","waste":"trash"}},"type":"Feature"},
	{"geometry":{"coordinates":[-9.544261,6.959797],"type":"Point"},"properties":{"osm_id":"5071758626","tag":{"addr:city":"Gbarnga","amenity":"waste_disposal","waste":"trash"}},"type":"Feature"},
	{"geometry":{"coordinates":[-9.544463,6.960199],"type":"Point"},"properties":{"osm_id":"5071758627","tag":{"addr:city":"Gbarnga","amenity":"waste_disposal","waste":"trash"}},"type":"Feature"},
	{"geometry":{"coordinates":[-9.554387,6.969931],"type":"Point"},"properties":{"osm_id":"5071758629","tag":{"addr:city":"Gbarnga","amenity":"waste_disposal","waste":"trash"}},"type":"Feature"},
	{"geometry":{"coordinates":[-9.554614,6.970242],"type":"Point"},"properties":{"osm_id":"5071758630","tag":{"addr:city":"Gbarnga","amenity":"waste_disposal","waste":"trash"}},"type":"Feature"},
	{"geometry":{"coordinates":[-9.552983,6.97],"type":"Point"},"properties":{"osm_id":"5071758634","tag":{"addr:city":"Gbarnga","amenity":"waste_disposal","waste":"trash"}},"type":"Feature"},
	{"geometry":{"coordinates":[-9.49459,7.004467],"type":"Point"},"properties":{"osm_id":"6174114857","tag":{"addr:city":"Gbarnga","amenity":"waste_basket","category":"community_bin","dump:official":"no","fee":"no","waste":"trash"}},"type":"Feature"},
	{"geometry":{"coordinates":[-9.493881,7.004877],"type":"Point"},"properties":{"osm_id":"6174114878","tag":{"addr:city":"Gbarnga","amenity":"waste_disposal","category":"community_bin","dump:official":"no","fee":"no","waste":"trash"}},"type":"Feature"}
]
}
