{
"type": "FeatureCollection",
"features": [
	{"geometry":{"coordinates":[-8.55312,42.873427],"type":"Point"},"properties":{"osm_id":"1234021061","tag":{"addr:city":"Santiago de Compostela","addr:street":"Avenida de Rosal\u00c3\u00ada de Castro","amenity":"recycling","recycling:cans":"yes","recycling:glass":"yes","recycling:paper":"yes"}},"type":"Feature"},
	{"geometry":{"coordinates":[-8.54967,42.870426],"type":"Point"},"properties":{"osm_id":"1234021079","tag":{"amenity":"recycling","recycling:cans":"yes","recycling:glass":"yes","recycling:paper":"yes","recycling_type":"container"}},"type":"Feature"},
	{"geometry":{"coordinates":[-8.551578,42.871945],"type":"Point"},"properties":{"osm_id":"1234021089","tag":{"amenity":"recycling","recycling:cans":"yes","recycling:glass":"yes","recycling:paper":"yes","recycling_type":"container"}},"type":"Feature"},
	{"geometry":{"coordinates":[-8.546887,42.872374],"type":"Point"},"properties":{"osm_id":"1234021143","tag":{"amenity":"recycling","recycling:cans":"yes","recycling:glass_bottles":"yes","recycling:paper":"yes"}},"type":"Feature"},
	{"geometry":{"coordinates":[-8.54362,42.874413],"type":"Point"},"properties":{"osm_id":"1234021174","tag":{"amenity":"recycling","recycling:cans":"yes","recycling:glass":"yes","recycling:paper":"yes","recycling_type":"container"}},"type":"Feature"},
	{"geometry":{"coordinates":[-8.550282,42.871052],"type":"Point"},"properties":{"osm_id":"1234021240","tag":{"amenity":"recycling","recycling:cans":"yes","recycling:clothes":"no","recycling:glass":"yes","recycling:paper":"yes","recycling_type":"container"}},"type":"Feature"},
	{"geometry":{"coordinates":[-8.548743,42.870014],"type":"Point"},"properties":{"osm_id":"1234021270","tag":{"amenity":"recycling","recycling:cans":"yes","recycling:glass_bottles":"yes","recycling:paper":"yes","recycling_type":"container"}},"type":"Feature"},
	{"geometry":{"coordinates":[-8.554372,42.863426],"type":"Point"},"properties":{"osm_id":"1272211205","tag":{"amenity":"recycling","recycling:cans":"yes","recycling:glass":"yes","recycling:paper":"yes","recycling_type":"container"}},"type":"Feature"},
	{"geometry":{"coordinates":[-8.551166,42.874243],"type":"Point"},"properties":{"osm_id":"1588440799","tag":{"amenity":"recycling","location":"underground","recycling_type":"container"}},"type":"Feature"},
	{"geometry":{"coordinates":[-8.550377,42.874784],"type":"Point"},"properties":{"osm_id":"1588444184","tag":{"amenity":"recycling","location":"underground","recycling_type":"container"}},"type":"Feature"},
	{"geometry":{"coordinates":[-8.549667,42.875156],"type":"Point"},"properties":{"osm_id":"1636702731","tag":{"amenity":"recycling","location":"underground","recycling_type":"container"}},"type":"Feature"},
	{"geometry":{"coordinates":[-8.550908,42.873104],"type":"Point"},"properties":{"osm_id":"1751430767","tag":{"amenity":"recycling"}},"type":"Feature"},
	{"geometry":{"coordinates":[-8.548822,42.873384],"type":"Point"},"properties":{"osm_id":"1765309463","tag":{"amenity":"recycling","location":"underground","recycling_type":"container"}},"type":"Feature"},
	{"geometry":{"coordinates":[-8.546659,42.870613],"type":"Point"},"properties":{"osm_id":"1765314942","tag":{"amenity":"recycling","recycling:cans":"yes","recycling:glass_bottles":"yes","recycling:paper":"yes","recycling_type":"container"}},"type":"Feature"},
	{"geometry":{"coordinates":[-8.547663,42.875322],"type":"Point"},"properties":{"osm_id":"1769967537","tag":{"amenity":"recycling","recycling_type":"container"}},"type":"Feature"},
	{"geometry":{"coordinates":[-8.558179,42.869517],"type":"Point"},"properties":{"osm_id":"1775995769","tag":{"amenity":"recycling","description":"glass, paper, Green waste and plastic","location":"overground","recycling_type":"container"}},"type":"Feature"},
	{"geometry":{"coordinates":[-8.549187,42.87226],"type":"Point"},"properties":{"osm_id":"1780483305","tag":{"amenity":"recycling","location":"underground","recycling_type":"container"}},"type":"Feature"},
	{"geometry":{"coordinates":[-8.581652,42.851887],"type":"Point"},"properties":{"name":"Punto Limpo","osm_id":"2298592961","tag":{"amenity":"recycling","recycling:batteries":"yes","recycling:electrical_appliances":"yes","recycling:glass_bottles":"yes","recycling:small_appliances":"yes"}},"type":"Feature"},
	{"geometry":{"coordinates":[-8.533068,42.869514],"type":"Point"},"properties":{"osm_id":"2417827711","tag":{"amenity":"recycling","recycling:batteries":"no","recycling:cans":"yes","recycling:glass":"yes","recycling:paper":"yes"}},"type":"Feature"},
	{"geometry":{"coordinates":[-8.534959,42.871372],"type":"Point"},"properties":{"osm_id":"2417827713","tag":{"amenity":"recycling","recycling:cans":"yes","recycling:glass":"yes","recycling:paper":"yes","recycling_type":"container"}},"type":"Feature"},
	{"geometry":{"coordinates":[-8.536162,42.872457],"type":"Point"},"properties":{"osm_id":"2417827714","tag":{"amenity":"recycling","recycling:cans":"yes","recycling:glass":"yes","recycling:paper":"yes","recycling_type":"container"}},"type":"Feature"},
	{"geometry":{"coordinates":[-8.544228,42.875151],"type":"Point"},"properties":{"osm_id":"2422767693","tag":{"amenity":"recycling","recycling:cans":"yes","recycling:clothes":"yes","recycling:glass":"yes","recycling:paper":"yes","recycling_type":"container"}},"type":"Feature"},
	{"geometry":{"coordinates":[-8.529118,42.819241],"type":"Point"},"properties":{"osm_id":"2437381168","tag":{"amenity":"waste_disposal"}},"type":"Feature"},
	{"geometry":{"coordinates":[-8.545974,42.867855],"type":"Point"},"properties":{"osm_id":"2445868984","tag":{"amenity":"recycling","recycling:cans":"yes","recycling:glass":"yes","recycling:paper":"yes","recycling_type":"container"}},"type":"Feature"},
	{"geometry":{"coordinates":[-8.546018,42.867868],"type":"Point"},"properties":{"osm_id":"2445868985","tag":{"amenity":"waste_disposal"}},"type":"Feature"},
	{"geometry":{"coordinates":[-8.548775,42.870034],"type":"Point"},"properties":{"osm_id":"2445868991","tag":{"amenity":"waste_disposal"}},"type":"Feature"},
	{"geometry":{"coordinates":[-8.549629,42.870406],"type":"Point"},"properties":{"osm_id":"2445868997","tag":{"amenity":"waste_disposal"}},"type":"Feature"},
	{"geometry":{"coordinates":[-8.550264,42.871035],"type":"Point"},"properties":{"osm_id":"2445869003","tag":{"amenity":"waste_disposal"}},"type":"Feature"},
	{"geometry":{"coordinates":[-8.551545,42.87192],"type":"Point"},"properties":{"osm_id":"2445869012","tag":{"amenity":"waste_disposal"}},"type":"Feature"},
	{"geometry":{"coordinates":[-8.555006,42.862769],"type":"Point"},"properties":{"osm_id":"2461530920","tag":{"amenity":"waste_disposal"}},"type":"Feature"},
	{"geometry":{"coordinates":[-8.554342,42.863451],"type":"Point"},"properties":{"osm_id":"2461530921","tag":{"amenity":"waste_disposal"}},"type":"Feature"},
	{"geometry":{"coordinates":[-8.527807,42.822725],"type":"Point"},"properties":{"osm_id":"2469203329","tag":{"amenity":"waste_disposal"}},"type":"Feature"},
	{"geometry":{"coordinates":[-8.53673,42.822603],"type":"Point"},"properties":{"osm_id":"2469203856","tag":{"amenity":"waste_disposal"}},"type":"Feature"},
	{"geometry":{"coordinates":[-8.527164,42.825195],"type":"Point"},"properties":{"osm_id":"2469888738","tag":{"amenity":"waste_disposal"}},"type":"Feature"},
	{"geometry":{"coordinates":[-8.532997,42.817865],"type":"Point"},"properties":{"osm_id":"2472723012","tag":{"amenity":"waste_disposal"}},"type":"Feature"},
	{"geometry":{"coordinates":[-8.554995,42.862764],"type":"Point"},"properties":{"osm_id":"2516540435","tag":{"amenity":"recycling","recycling:clothes":"yes","recycling_type":"container"}},"type":"Feature"},
	{"geometry":{"coordinates":[-8.552259,42.870747],"type":"Point"},"properties":{"osm_id":"2516540436","tag":{"amenity":"recycling","recycling:batteries":"no","recycling:cans":"yes","recycling:clothes":"no","recycling:glass":"yes","recycling:paper":"yes","recycling_type":"container"}},"type":"Feature"},
	{"geometry":{"coordinates":[-8.552255,42.870779],"type":"Point"},"properties":{"osm_id":"2516540437","tag":{"amenity":"waste_disposal"}},"type":"Feature"},
	{"geometry":{"coordinates":[-8.555852,42.872564],"type":"Point"},"properties":{"osm_id":"2516540804","tag":{"amenity":"recycling","recycling:cans":"yes","recycling:glass":"yes","recycling:paper":"yes","recycling_type":"container"}},"type":"Feature"},
	{"geometry":{"coordinates":[-8.554142,42.865431],"type":"Point"},"properties":{"osm_id":"2524415498","tag":{"amenity":"waste_disposal"}},"type":"Feature"},
	{"geometry":{"coordinates":[-8.554118,42.865453],"type":"Point"},"properties":{"osm_id":"2524415499","tag":{"amenity":"recycling","recycling:cans":"yes","recycling:glass":"yes","recycling:paper":"yes","recycling_type":"container"}},"type":"Feature"},
	{"geometry":{"coordinates":[-8.55421,42.867405],"type":"Point"},"properties":{"osm_id":"2524415500","tag":{"amenity":"waste_disposal"}},"type":"Feature"},
	{"geometry":{"coordinates":[-8.554185,42.86743],"type":"Point"},"properties":{"osm_id":"2524415501","tag":{"amenity":"recycling","recycling:cans":"yes","recycling:glass":"yes","recycling:paper":"yes","recycling_type":"container"}},"type":"Feature"},
	{"geometry":{"coordinates":[-8.554765,42.868295],"type":"Point"},"properties":{"osm_id":"2524879469","tag":{"amenity":"recycling","recycling:glass":"yes","recycling_type":"container"}},"type":"Feature"},
	{"geometry":{"coordinates":[-8.555663,42.868311],"type":"Point"},"properties":{"osm_id":"2524879470","tag":{"amenity":"waste_disposal"}},"type":"Feature"},
	{"geometry":{"coordinates":[-8.555646,42.868328],"type":"Point"},"properties":{"osm_id":"2524879471","tag":{"amenity":"recycling","recycling:cans":"yes","recycling_type":"container"}},"type":"Feature"},
	{"geometry":{"coordinates":[-8.554901,42.86764],"type":"Point"},"properties":{"osm_id":"2527838038","tag":{"amenity":"waste_disposal"}},"type":"Feature"},
	{"geometry":{"coordinates":[-8.554887,42.867661],"type":"Point"},"properties":{"osm_id":"2527838039","tag":{"amenity":"recycling","recycling:cans":"yes","recycling_type":"container"}},"type":"Feature"},
	{"geometry":{"coordinates":[-8.554547,42.868444],"type":"Point"},"properties":{"osm_id":"2527838041","tag":{"amenity":"waste_disposal"}},"type":"Feature"},
	{"geometry":{"coordinates":[-8.554544,42.868459],"type":"Point"},"properties":{"osm_id":"2527838043","tag":{"amenity":"recycling","recycling:paper":"yes","recycling_type":"container"}},"type":"Feature"},
	{"geometry":{"coordinates":[-8.55443,42.869056],"type":"Point"},"properties":{"osm_id":"2527838047","tag":{"amenity":"waste_disposal"}},"type":"Feature"},
	{"geometry":{"coordinates":[-8.554427,42.869081],"type":"Point"},"properties":{"osm_id":"2527838049","tag":{"amenity":"recycling","recycling:cans":"yes","recycling_type":"container"}},"type":"Feature"},
	{"geometry":{"coordinates":[-8.553558,42.870835],"type":"Point"},"properties":{"osm_id":"2657742624","tag":{"amenity":"waste_disposal"}},"type":"Feature"},
	{"geometry":{"coordinates":[-8.553533,42.870858],"type":"Point"},"properties":{"osm_id":"2657742644","tag":{"amenity":"recycling","recycling:cans":"yes","recycling:glass":"yes","recycling:paper":"yes","recycling_type":"container"}},"type":"Feature"},
	{"geometry":{"coordinates":[-8.562663,42.870594],"type":"Point"},"properties":{"osm_id":"2681962688","tag":{"amenity":"recycling","recycling:cans":"yes","recycling:clothes":"no","recycling:glass":"yes","recycling:paper":"yes"}},"type":"Feature"},
	{"geometry":{"coordinates":[-8.533935,42.864643],"type":"Point"},"properties":{"osm_id":"3476250605","tag":{"amenity":"recycling","recycling:cans":"yes"}},"type":"Feature"},
	{"geometry":{"coordinates":[-8.536942,42.869106],"type":"Point"},"properties":{"osm_id":"3566013261","tag":{"amenity":"recycling","recycling:cans":"yes","recycling:glass":"yes","recycling:paper":"yes"}},"type":"Feature"},
	{"geometry":{"coordinates":[-8.553436,42.869546],"type":"Point"},"properties":{"osm_id":"3715745322","tag":{"addr:city":"Santiago de Compostela","addr:postcode":"15706","addr:street":"Avenida de Vilagarc\u00c3\u00ada","amenity":"recycling","location":"overground","recycling:cans":"yes","recycling:clothes":"no","recycling:glass_bottles":"yes","recycling:paper":"yes","recycling_type":"container"}},"type":"Feature"},
	{"geometry":{"coordinates":[-8.554548,42.870497],"type":"Point"},"properties":{"osm_id":"3776985907","tag":{"amenity":"recycling","recycling:batteries":"yes","recycling_type":"container"}},"type":"Feature"},
	{"geometry":{"coordinates":[-8.558009,42.873817],"type":"Point"},"properties":{"osm_id":"3827337803","tag":{"amenity":"recycling"}},"type":"Feature"},
	{"geometry":{"coordinates":[-8.546372,42.875705],"type":"Point"},"properties":{"osm_id":"4038863463","tag":{"amenity":"recycling"}},"type":"Feature"},
	{"geometry":{"coordinates":[-8.54612,42.875328],"type":"Point"},"properties":{"osm_id":"4038863464","tag":{"amenity":"recycling","location":"underground","recycling_type":"container"}},"type":"Feature"},
	{"geometry":{"coordinates":[-8.552291,42.873652],"type":"Point"},"properties":{"osm_id":"4234712292","tag":{"amenity":"waste_basket"}},"type":"Feature"},
	{"geometry":{"coordinates":[-8.552012,42.872591],"type":"Point"},"properties":{"osm_id":"4235182814","tag":{"amenity":"waste_disposal","waste":"organic"}},"type":"Feature"},
	{"geometry":{"coordinates":[-8.552288,42.873366],"type":"Point"},"properties":{"osm_id":"4236712746","tag":{"amenity":"waste_disposal","waste":"organic"}},"type":"Feature"},
	{"geometry":{"coordinates":[-8.552014,42.872346],"type":"Point"},"properties":{"osm_id":"4284374491","tag":{"amenity":"waste_basket"}},"type":"Feature"},
	{"geometry":{"coordinates":[-8.551347,42.873321],"type":"Point"},"properties":{"osm_id":"4284572713","tag":{"amenity":"recycling","mapillary":"KmQ6WIm9zukUaAbTYE1byg","recycling:aluminium":"yes","recycling:beverage_cartons":"yes","recycling:cans":"yes","recycling:plastic":"yes","recycling_type":"container","survey:date":"2017-11-09"}},"type":"Feature"},
	{"geometry":{"coordinates":[-8.551365,42.873348],"type":"Point"},"properties":{"osm_id":"4284572714","tag":{"amenity":"waste_disposal"}},"type":"Feature"},
	{"geometry":{"coordinates":[-8.551355,42.873333],"type":"Point"},"properties":{"osm_id":"4284572716","tag":{"amenity":"waste_disposal"}},"type":"Feature"},
	{"geometry":{"coordinates":[-8.557119,42.871231],"type":"Point"},"properties":{"osm_id":"4286630650","tag":{"amenity":"waste_basket"}},"type":"Feature"},
	{"geometry":{"coordinates":[-8.556942,42.871317],"type":"Point"},"properties":{"osm_id":"4286657942","tag":{"amenity":"recycling","recycling:cardboard":"yes","recycling:cartons":"yes","recycling:newspaper":"yes","recycling:paper":"yes","recycling:paper_packaging":"yes","recycling_type":"container"}},"type":"Feature"},
	{"geometry":{"coordinates":[-8.55191,42.872679],"type":"Point"},"properties":{"osm_id":"4301363749","tag":{"amenity":"recycling","recycling:glass":"yes","recycling_type":"container"}},"type":"Feature"},
	{"geometry":{"coordinates":[-8.552055,42.872929],"type":"Point"},"properties":{"osm_id":"4302942357","tag":{"amenity":"waste_disposal"}},"type":"Feature"},
	{"geometry":{"coordinates":[-8.552041,42.872884],"type":"Point"},"properties":{"osm_id":"4302942359","tag":{"amenity":"recycling","recycling:aluminium":"yes","recycling:beverage_cartons":"yes","recycling:cans":"yes","recycling:plastic":"yes","recycling_type":"container"}},"type":"Feature"},
	{"geometry":{"coordinates":[-8.552048,42.872908],"type":"Point"},"properties":{"osm_id":"4302942360","tag":{"amenity":"waste_disposal"}},"type":"Feature"},
	{"geometry":{"coordinates":[-8.552725,42.875017],"type":"Point"},"properties":{"osm_id":"4302986875","tag":{"amenity":"waste_basket"}},"type":"Feature"},
	{"geometry":{"coordinates":[-8.552741,42.874966],"type":"Point"},"properties":{"osm_id":"4302986881","tag":{"amenity":"waste_basket"}},"type":"Feature"},
	{"geometry":{"coordinates":[-8.552341,42.875076],"type":"Point"},"properties":{"osm_id":"4303021517","tag":{"amenity":"waste_disposal"}},"type":"Feature"},
	{"geometry":{"coordinates":[-8.552318,42.875091],"type":"Point"},"properties":{"osm_id":"4303021518","tag":{"amenity":"recycling","recycling:beverage_cartons":"yes","recycling:cans":"yes","recycling:plastic":"yes","recycling_type":"container"}},"type":"Feature"},
	{"geometry":{"coordinates":[-8.552352,42.875069],"type":"Point"},"properties":{"osm_id":"4303021519","tag":{"amenity":"waste_disposal"}},"type":"Feature"},
	{"geometry":{"coordinates":[-8.552329,42.875084],"type":"Point"},"properties":{"osm_id":"4303021520","tag":{"amenity":"recycling","recycling:cartons":"yes","recycling:paper":"yes","recycling_type":"container"}},"type":"Feature"},
	{"geometry":{"coordinates":[-8.550099,42.87368],"type":"Point"},"properties":{"osm_id":"4586099969","tag":{"amenity":"recycling","recycling_type":"container"}},"type":"Feature"},
	{"geometry":{"coordinates":[-8.558187,42.871919],"type":"Point"},"properties":{"osm_id":"4790879289","tag":{"amenity":"recycling","recycling:glass":"yes","recycling:paper":"yes","recycling:plastic":"yes","recycling_type":"container"}},"type":"Feature"},
	{"geometry":{"coordinates":[-8.574893,42.869603],"type":"Point"},"properties":{"osm_id":"4790879290","tag":{"amenity":"recycling","recycling:glass":"yes","recycling:paper":"yes","recycling:plastic":"yes","recycling_type":"container"}},"type":"Feature"},
	{"geometry":{"coordinates":[-8.568873,42.870404],"type":"Point"},"properties":{"osm_id":"4790879291","tag":{"amenity":"recycling","recycling:plastic":"yes","recycling_type":"container"}},"type":"Feature"},
	{"geometry":{"coordinates":[-8.564324,42.822007],"type":"Point"},"properties":{"osm_id":"5091363975","tag":{"amenity":"waste_disposal"}},"type":"Feature"},
	{"geometry":{"coordinates":[-8.537679,42.870781],"type":"Point"},"properties":{"osm_id":"5122064602","tag":{"amenity":"waste_basket"}},"type":"Feature"},
	{"geometry":{"coordinates":[-8.554609,42.869015],"type":"Point"},"properties":{"osm_id":"5488558929","tag":{"amenity":"waste_basket"}},"type":"Feature"},
	{"geometry":{"coordinates":[-8.535413,42.859769],"type":"Point"},"properties":{"osm_id":"6332064071","tag":{"amenity":"waste_basket","waste":"trash"}},"type":"Feature"},
	{"geometry":{"coordinates":[-8.535017,42.858025],"type":"Point"},"properties":{"osm_id":"6341460117","tag":{"amenity":"waste_disposal","waste":"Contenedor basura"}},"type":"Feature"},
	{"geometry":{"coordinates":[-8.536713,42.822603],"type":"Point"},"properties":{"osm_id":"6661091386","tag":{"amenity":"waste_disposal"}},"type":"Feature"},
	{"geometry":{"coordinates":[-8.536689,42.822605],"type":"Point"},"properties":{"osm_id":"6661091387","tag":{"amenity":"recycling","recycling:glass":"yes","recycling_type":"container"}},"type":"Feature"},
	{"geometry":{"coordinates":[-8.536749,42.822602],"type":"Point"},"properties":{"osm_id":"6661091388","tag":{"amenity":"recycling","recycling:cans":"yes","recycling:glass_bottles":"yes","recycling:plastic":"yes","recycling:plastic_bottles":"yes","recycling:plastic_packaging":"yes","recycling_type":"container"}},"type":"Feature"},
	{"geometry":{"coordinates":[-8.527793,42.822738],"type":"Point"},"properties":{"osm_id":"6661091389","tag":{"amenity":"recycling","recycling:cans":"yes","recycling:glass_bottles":"yes","recycling:plastic":"yes","recycling:plastic_bottles":"yes","recycling:plastic_packaging":"yes","recycling_type":"container"}},"type":"Feature"},
	{"geometry":{"coordinates":[-8.577218,42.845612],"type":"Point"},"properties":{"name":"contenedores","osm_id":"6750063720","tag":{"amenity":"recycling"}},"type":"Feature"}
]
}
