{
"type": "FeatureCollection",
"features": [
	{"geometry":{"coordinates":[-8.578992,41.765906],"type":"Point"},"properties":{"osm_id":"1493568346","tag":{"amenity":"recycling","recycling_type":"container"}},"type":"Feature"},
	{"geometry":{"coordinates":[-8.560003,41.734227],"type":"Point"},"properties":{"osm_id":"2681386627","tag":{"amenity":"recycling"}},"type":"Feature"},
	{"geometry":{"coordinates":[-8.586797,41.764394],"type":"Point"},"properties":{"osm_id":"2756734288","tag":{"amenity":"recycling","recycling_type":"container"}},"type":"Feature"},
	{"geometry":{"coordinates":[-8.591751,41.765985],"type":"Point"},"properties":{"name":"Ecoponto","osm_id":"3023014833","tag":{"amenity":"recycling","recycling_type":"container"}},"type":"Feature"},
	{"geometry":{"coordinates":[-8.596398,41.755816],"type":"Point"},"properties":{"name":"Ecoponto","osm_id":"3435243655","tag":{"amenity":"recycling"}},"type":"Feature"},
	{"geometry":{"coordinates":[-8.538137,41.719693],"type":"Point"},"properties":{"name":"Ecoponto","osm_id":"3446932289","tag":{"amenity":"recycling"}},"type":"Feature"},
	{"geometry":{"coordinates":[-8.593993,41.770131],"type":"Point"},"properties":{"name":"Ecoponto","osm_id":"3467701044","tag":{"amenity":"recycling","recycling_type":"container"}},"type":"Feature"},
	{"geometry":{"coordinates":[-8.576936,41.761065],"type":"Point"},"properties":{"name":"Ecoponto","osm_id":"5183782170","tag":{"amenity":"recycling","mapillary":"otOVPf8nePQLxhcIKx6vzQ","recycling_type":"container","survey:date":"2018-03-18"}},"type":"Feature"}
]
}
