{
"type": "FeatureCollection",
"features": [
	{"geometry":{"coordinates":[-8.539687,41.409774],"type":"Point"},"properties":{"osm_id":"2587264990","tag":{"amenity":"recycling","recycling:clothes":"yes","recycling:glass":"yes","recycling:paper":"yes","recycling:plastic":"yes","recycling_type":"container"}},"type":"Feature"},
	{"geometry":{"coordinates":[-8.589845,41.420155],"type":"Point"},"properties":{"osm_id":"2666941598","tag":{"amenity":"recycling","image":"https://storage12.openstreetcam.org/files/photo/2019/8/21/lth/1948197_1_769ea_2.jpg","recycling_type":"container","survey:date":"2019-08-21"}},"type":"Feature"},
	{"geometry":{"coordinates":[-8.582088,41.418125],"type":"Point"},"properties":{"osm_id":"2728897247","tag":{"amenity":"recycling"}},"type":"Feature"},
	{"geometry":{"coordinates":[-8.536125,41.387376],"type":"Point"},"properties":{"osm_id":"3281393709","tag":{"amenity":"recycling","recycling:cans":"yes","recycling:glass":"yes","recycling:paper":"yes"}},"type":"Feature"},
	{"geometry":{"coordinates":[-8.531744,41.389044],"type":"Point"},"properties":{"osm_id":"3282199886","tag":{"amenity":"recycling","mapillary":"qW8WLj2j0vd6-6RgaUDWHw","recycling:cans":"yes","recycling:glass":"yes","recycling:paper":"yes","recycling_type":"container","survey:date":"2020-01-21"}},"type":"Feature"},
	{"geometry":{"coordinates":[-8.58935,41.42502],"type":"Point"},"properties":{"osm_id":"3397060816","tag":{"amenity":"recycling"}},"type":"Feature"},
	{"geometry":{"coordinates":[-8.533967,41.423546],"type":"Point"},"properties":{"name":"Ecoponto","osm_id":"3457915928","tag":{"amenity":"recycling"}},"type":"Feature"},
	{"geometry":{"coordinates":[-8.534162,41.416368],"type":"Point"},"properties":{"name":"Ecoponto","osm_id":"3459095444","tag":{"amenity":"recycling"}},"type":"Feature"},
	{"geometry":{"coordinates":[-8.534896,41.431371],"type":"Point"},"properties":{"name":"Ecoponto","osm_id":"3784400885","tag":{"amenity":"recycling","recycling_type":"container"}},"type":"Feature"},
	{"geometry":{"coordinates":[-8.550347,41.431157],"type":"Point"},"properties":{"name":"Ecoponto","osm_id":"3893383410","tag":{"amenity":"recycling"}},"type":"Feature"},
	{"geometry":{"coordinates":[-8.557689,41.419762],"type":"Point"},"properties":{"name":"Ecoponto","osm_id":"3893383559","tag":{"amenity":"recycling"}},"type":"Feature"},
	{"geometry":{"coordinates":[-8.535189,41.400606],"type":"Point"},"properties":{"name":"Ecoponto","osm_id":"4053481764","tag":{"amenity":"recycling","recycling_type":"container"}},"type":"Feature"},
	{"geometry":{"coordinates":[-8.603021,41.438429],"type":"Point"},"properties":{"name":"Ecoponto","osm_id":"4107345516","tag":{"amenity":"recycling"}},"type":"Feature"},
	{"geometry":{"coordinates":[-8.530115,41.42086],"type":"Point"},"properties":{"osm_id":"4108445128","tag":{"amenity":"recycling","recycling:glass":"yes","recycling_type":"container"}},"type":"Feature"},
	{"geometry":{"coordinates":[-8.541721,41.43951],"type":"Point"},"properties":{"osm_id":"8749974625","tag":{"amenity":"recycling","opening_hours":"24/7","opening_hours:covid19":"same","operator":"Resinorte","recycling:cans":"yes","recycling:cardboard":"yes","recycling:glass_bottles":"yes","recycling:paper":"yes","recycling:plastic":"yes","recycling:plastic_bottles":"yes","recycling_type":"container"}},"type":"Feature"},
	{"geometry":{"coordinates":[-8.543518,41.442351],"type":"Point"},"properties":{"osm_id":"8865162594","tag":{"amenity":"recycling","opening_hours":"24/7","recycling:cans":"yes","recycling:cardboard":"yes","recycling:glass":"yes","recycling:glass_bottles":"yes","recycling:paper":"yes","recycling:plastic_bottles":"yes","recycling:plastic_packaging":"yes","recycling_type":"container"}},"type":"Feature"}
]
}
