{
"type": "FeatureCollection",
"lastupdate": "2020-08-01T00:00:00Z",
"features": [
	{"geometry":{"coordinates":[-8.548878,40.541322],"type":"Point"},"properties":{"osm_id":"2052926719","tag":{"amenity":"recycling","recycling:cans":"yes","recycling:cartons":"yes","recycling:glass":"yes","recycling:glass_bottles":"yes","recycling:magazines":"yes","recycling:newspaper":"yes","recycling:paper":"yes","recycling:plastic":"yes","recycling:plastic_bottles":"yes","recycling:plastic_packaging":"yes","recycling:scrap_metal":"yes","recycling_type":"container"}},"type":"Feature"},
	{"geometry":{"coordinates":[-8.565419,40.527362],"type":"Point"},"properties":{"osm_id":"2902719208","tag":{"amenity":"recycling"}},"type":"Feature"},
	{"geometry":{"coordinates":[-8.563345,40.524302],"type":"Point"},"properties":{"osm_id":"2902719307","tag":{"amenity":"waste_basket"}},"type":"Feature"},
	{"geometry":{"coordinates":[-8.528278,40.56872],"type":"Point"},"properties":{"osm_id":"5915915768","tag":{"addr:city":"Fermentelos","addr:street":"Rua do Passadouro","amenity":"recycling","operator":"ERSUC","recycling:cans":"yes","recycling:glass":"yes","recycling:paper":"yes","recycling:plastic":"yes","recycling_type":"container"}},"type":"Feature"}
]
}
