{
"type": "FeatureCollection",
"lastupdate": "2020-08-02T00:00:00Z",
"features": [
	{"geometry":{"coordinates":[-8.596351,37.129976],"type":"Point"},"properties":{"osm_id":"1706986070","tag":{"amenity":"recycling","location":"underground","recycling_type":"container"}},"type":"Feature"},
	{"geometry":{"coordinates":[-8.53288,37.13965],"type":"Point"},"properties":{"osm_id":"2573647122","tag":{"amenity":"recycling"}},"type":"Feature"},
	{"geometry":{"coordinates":[-8.53284,37.139643],"type":"Point"},"properties":{"osm_id":"2573647129","tag":{"amenity":"recycling"}},"type":"Feature"},
	{"geometry":{"coordinates":[-8.532874,37.139629],"type":"Point"},"properties":{"osm_id":"2573647130","tag":{"amenity":"recycling"}},"type":"Feature"},
	{"geometry":{"coordinates":[-8.532818,37.13967],"type":"Point"},"properties":{"osm_id":"2573647136","tag":{"amenity":"recycling"}},"type":"Feature"},
	{"geometry":{"coordinates":[-8.532827,37.139657],"type":"Point"},"properties":{"osm_id":"2573647137","tag":{"amenity":"recycling"}},"type":"Feature"},
	{"geometry":{"coordinates":[-8.557363,37.124403],"type":"Point"},"properties":{"name":"ilha ecol\u00c3\u00b3gica","osm_id":"3005110128","tag":{"amenity":"recycling","recycling:cans":"yes","recycling:clothes":"yes","recycling:glass":"yes","recycling:paper":"yes"}},"type":"Feature"},
	{"geometry":{"coordinates":[-8.558717,37.120494],"type":"Point"},"properties":{"name":"Ilha Ecol\u00c3\u00b3gica","osm_id":"3690634293","tag":{"amenity":"recycling"}},"type":"Feature"},
	{"geometry":{"coordinates":[-8.558802,37.123782],"type":"Point"},"properties":{"name":"ilha ecol\u00c3\u00b3gica 327","osm_id":"3694319202","tag":{"amenity":"recycling","recycling:cans":"yes","recycling:glass":"yes","recycling:paper":"yes"}},"type":"Feature"},
	{"geometry":{"coordinates":[-8.582307,37.128595],"type":"Point"},"properties":{"osm_id":"4268279191","tag":{"addr:city":"Alvor","addr:street":"Estrada de Alvor","amenity":"recycling"}},"type":"Feature"},
	{"geometry":{"coordinates":[-8.596078,37.12638],"type":"Point"},"properties":{"osm_id":"4730972008","tag":{"amenity":"waste_basket"}},"type":"Feature"},
	{"geometry":{"coordinates":[-8.604735,37.124462],"type":"Point"},"properties":{"osm_id":"4734744182","tag":{"amenity":"waste_basket"}},"type":"Feature"},
	{"geometry":{"coordinates":[-8.603131,37.124414],"type":"Point"},"properties":{"osm_id":"4734744187","tag":{"amenity":"waste_basket"}},"type":"Feature"},
	{"geometry":{"coordinates":[-8.597829,37.122938],"type":"Point"},"properties":{"osm_id":"4734744191","tag":{"amenity":"waste_basket"}},"type":"Feature"},
	{"geometry":{"coordinates":[-8.597757,37.123644],"type":"Point"},"properties":{"osm_id":"4734744202","tag":{"amenity":"waste_basket"}},"type":"Feature"},
	{"geometry":{"coordinates":[-8.598309,37.123725],"type":"Point"},"properties":{"osm_id":"4734744204","tag":{"amenity":"waste_basket"}},"type":"Feature"},
	{"geometry":{"coordinates":[-8.599625,37.124218],"type":"Point"},"properties":{"osm_id":"4734744205","tag":{"amenity":"waste_basket"}},"type":"Feature"},
	{"geometry":{"coordinates":[-8.597799,37.125234],"type":"Point"},"properties":{"osm_id":"4734744210","tag":{"amenity":"waste_basket"}},"type":"Feature"},
	{"geometry":{"coordinates":[-8.597437,37.125693],"type":"Point"},"properties":{"osm_id":"4734744217","tag":{"amenity":"waste_basket"}},"type":"Feature"},
	{"geometry":{"coordinates":[-8.596768,37.126063],"type":"Point"},"properties":{"osm_id":"4734744220","tag":{"amenity":"waste_basket"}},"type":"Feature"},
	{"geometry":{"coordinates":[-8.612601,37.123327],"type":"Point"},"properties":{"osm_id":"4734770048","tag":{"amenity":"waste_basket"}},"type":"Feature"},
	{"geometry":{"coordinates":[-8.611143,37.122901],"type":"Point"},"properties":{"osm_id":"4734770052","tag":{"amenity":"waste_basket"}},"type":"Feature"},
	{"geometry":{"coordinates":[-8.610296,37.123617],"type":"Point"},"properties":{"osm_id":"4734770055","tag":{"amenity":"waste_basket"}},"type":"Feature"},
	{"geometry":{"coordinates":[-8.607714,37.124208],"type":"Point"},"properties":{"osm_id":"4734770060","tag":{"amenity":"waste_basket"}},"type":"Feature"},
	{"geometry":{"coordinates":[-8.606529,37.124052],"type":"Point"},"properties":{"osm_id":"4734770063","tag":{"amenity":"waste_basket"}},"type":"Feature"},
	{"geometry":{"coordinates":[-8.605194,37.124039],"type":"Point"},"properties":{"osm_id":"4734770066","tag":{"amenity":"waste_basket"}},"type":"Feature"},
	{"geometry":{"coordinates":[-8.602591,37.125588],"type":"Point"},"properties":{"osm_id":"4734798971","tag":{"amenity":"waste_basket"}},"type":"Feature"},
	{"geometry":{"coordinates":[-8.602281,37.126325],"type":"Point"},"properties":{"osm_id":"4734798973","tag":{"amenity":"waste_basket"}},"type":"Feature"},
	{"geometry":{"coordinates":[-8.603971,37.126139],"type":"Point"},"properties":{"osm_id":"4734798982","tag":{"amenity":"waste_basket"}},"type":"Feature"},
	{"geometry":{"coordinates":[-8.605247,37.12643],"type":"Point"},"properties":{"osm_id":"4734798984","tag":{"amenity":"waste_basket"}},"type":"Feature"},
	{"geometry":{"coordinates":[-8.60634,37.126355],"type":"Point"},"properties":{"osm_id":"4734798986","tag":{"amenity":"waste_basket"}},"type":"Feature"},
	{"geometry":{"coordinates":[-8.607854,37.126207],"type":"Point"},"properties":{"osm_id":"4734798987","tag":{"amenity":"waste_basket"}},"type":"Feature"},
	{"geometry":{"coordinates":[-8.607677,37.126164],"type":"Point"},"properties":{"osm_id":"4734798990","tag":{"amenity":"waste_basket"}},"type":"Feature"},
	{"geometry":{"coordinates":[-8.608048,37.125314],"type":"Point"},"properties":{"osm_id":"4734798995","tag":{"amenity":"waste_basket"}},"type":"Feature"},
	{"geometry":{"coordinates":[-8.541501,37.148407],"type":"Point"},"properties":{"osm_id":"5810736654","tag":{"amenity":"waste_basket"}},"type":"Feature"},
	{"geometry":{"coordinates":[-8.540064,37.128545],"type":"Point"},"properties":{"osm_id":"7086364869","tag":{"amenity":"recycling","operator":"ALGAR","recycling:glass":"yes","recycling:paper":"yes","recycling:plastic":"yes","recycling:waste":"yes","recycling_type":"container"}},"type":"Feature"},
	{"geometry":{"coordinates":[-8.539796,37.130634],"type":"Point"},"properties":{"osm_id":"7086364875","tag":{"amenity":"recycling","recycling:glass":"yes","recycling:paper":"yes","recycling:plastic":"yes","recycling:waste":"yes","recycling_type":"container"}},"type":"Feature"},
	{"geometry":{"coordinates":[-8.538782,37.131732],"type":"Point"},"properties":{"osm_id":"7086364882","tag":{"amenity":"recycling","recycling:glass":"yes","recycling:paper":"yes","recycling:plastic":"yes","recycling:waste":"yes","recycling_type":"container"}},"type":"Feature"},
	{"geometry":{"coordinates":[-8.537128,37.129179],"type":"Point"},"properties":{"osm_id":"7086426045","tag":{"amenity":"recycling","recycling:glass":"yes","recycling:paper":"yes","recycling:plastic":"yes","recycling:waste":"yes","recycling_type":"container"}},"type":"Feature"},
	{"geometry":{"coordinates":[-8.535734,37.129308],"type":"Point"},"properties":{"osm_id":"7086426046","tag":{"amenity":"recycling","recycling:glass":"yes","recycling:paper":"yes","recycling:plastic":"yes","recycling:waste":"yes","recycling_type":"container"}},"type":"Feature"},
	{"geometry":{"coordinates":[-8.535125,37.130732],"type":"Point"},"properties":{"osm_id":"7086426047","tag":{"amenity":"recycling","recycling:glass":"yes","recycling:paper":"yes","recycling:plastic":"yes","recycling:waste":"yes","recycling_type":"container"}},"type":"Feature"},
	{"geometry":{"coordinates":[-8.537279,37.131707],"type":"Point"},"properties":{"osm_id":"7086426056","tag":{"amenity":"recycling","recycling:glass":"yes","recycling:paper":"yes","recycling:plastic":"yes","recycling:waste":"yes","recycling_type":"container"}},"type":"Feature"},
	{"geometry":{"coordinates":[-8.535599,37.135845],"type":"Point"},"properties":{"osm_id":"7086481595","tag":{"amenity":"recycling","recycling:glass":"yes","recycling:paper":"yes","recycling:plastic":"yes","recycling:waste":"yes","recycling_type":"container"}},"type":"Feature"},
	{"geometry":{"coordinates":[-8.540004,37.127348],"type":"Point"},"properties":{"osm_id":"7090557259","tag":{"amenity":"recycling","recycling:glass":"yes","recycling:paper":"yes","recycling:plastic":"yes","recycling:waste":"yes","recycling_type":"container"}},"type":"Feature"},
	{"geometry":{"coordinates":[-8.541744,37.137061],"type":"Point"},"properties":{"osm_id":"7090575283","tag":{"amenity":"recycling","recycling:glass":"yes","recycling:paper":"yes","recycling:plastic":"yes","recycling:waste":"yes","recycling_type":"container"}},"type":"Feature"},
	{"geometry":{"coordinates":[-8.54205,37.135355],"type":"Point"},"properties":{"osm_id":"7090634003","tag":{"amenity":"recycling","recycling:glass":"yes","recycling:paper":"yes","recycling:plastic":"yes","recycling:waste":"yes","recycling_type":"container"}},"type":"Feature"},
	{"geometry":{"coordinates":[-8.54201,37.13425],"type":"Point"},"properties":{"osm_id":"7090634263","tag":{"amenity":"recycling","recycling:glass":"yes","recycling:paper":"yes","recycling:plastic":"yes","recycling:waste":"yes","recycling_type":"container"}},"type":"Feature"},
	{"geometry":{"coordinates":[-8.542499,37.136591],"type":"Point"},"properties":{"osm_id":"7090638503","tag":{"amenity":"recycling","recycling:glass":"yes","recycling:oils":"yes","recycling:paper":"yes","recycling:plastic":"yes","recycling:waste":"yes","recycling_type":"container"}},"type":"Feature"},
	{"geometry":{"coordinates":[-8.540164,37.137052],"type":"Point"},"properties":{"osm_id":"7090652201","tag":{"amenity":"recycling","recycling:glass":"yes","recycling:paper":"yes","recycling:plastic":"yes","recycling:waste":"yes","recycling_type":"container"}},"type":"Feature"},
	{"geometry":{"coordinates":[-8.534616,37.137848],"type":"Point"},"properties":{"osm_id":"7091741379","tag":{"amenity":"recycling","recycling:glass":"yes","recycling:paper":"yes","recycling:plastic":"yes","recycling:waste":"yes","recycling_type":"container"}},"type":"Feature"},
	{"geometry":{"coordinates":[-8.533478,37.138616],"type":"Point"},"properties":{"osm_id":"7091824597","tag":{"amenity":"recycling","recycling:glass":"yes","recycling:oils":"yes","recycling:paper":"yes","recycling:plastic":"yes","recycling:waste":"yes","recycling_type":"container"}},"type":"Feature"},
	{"geometry":{"coordinates":[-8.534882,37.143475],"type":"Point"},"properties":{"osm_id":"7091838399","tag":{"amenity":"recycling","recycling:glass":"yes","recycling:paper":"yes","recycling:plastic":"yes","recycling:waste":"yes","recycling_type":"container"}},"type":"Feature"},
	{"geometry":{"coordinates":[-8.537383,37.144071],"type":"Point"},"properties":{"osm_id":"7761381566","tag":{"amenity":"recycling","recycling_type":"container"}},"type":"Feature"},
	{"geometry":{"coordinates":[-8.538139,37.1428],"type":"Point"},"properties":{"osm_id":"7761381567","tag":{"amenity":"recycling","recycling_type":"container"}},"type":"Feature"},
	{"geometry":{"coordinates":[-8.534948,37.141538],"type":"Point"},"properties":{"osm_id":"7761381568","tag":{"amenity":"recycling","recycling_type":"container"}},"type":"Feature"}
]
}
