{
"type": "FeatureCollection",
"lastupdate": "2020-08-04T00:00:00Z",
"features": [
	{"geometry":{"coordinates":[-123.510861,48.860356],"type":"Point"},"properties":{"name":"Island Return It","osm_id":"1044303984","tag":{"addr:housenumber":"370","addr:postcode":"V8K 2V7","addr:street":"Lower Ganges Road","amenity":"recycling","description":"More than a bottle depot.","opening_hours":"Tu-Sa 09:30-16:30","phone":"+1-250-537-8784","recycling:cans":"yes","recycling:glass_bottles":"yes","recycling:plastic_bottles":"yes","recycling_type":"container","website":"https://www.islandreturnit.com/"}},"type":"Feature"},
	{"geometry":{"coordinates":[-123.500454,48.84824],"type":"Point"},"properties":{"name":"Salt Spring Metal Recycling","osm_id":"3638072401","tag":{"amenity":"recycling","recycling_type":"centre"}},"type":"Feature"},
	{"geometry":{"coordinates":[-123.516552,48.852259],"type":"Point"},"properties":{"name":"Salt Spring Recycling","osm_id":"3638082680","tag":{"amenity":"recycling","recycling:cans":"yes","recycling:glass":"yes","recycling:paper":"yes","recycling:scrap_metal":"yes","recycling_type":"centre"}},"type":"Feature"}
]
}
