{
"type": "FeatureCollection",
"features": [
	{"geometry":{"coordinates":[43.041828,44.049176],"type":"Point"},"properties":{"osm_id":"1157190132","tag":{"amenity":"recycling","location":"overground","recycling_type":"container"}},"type":"Feature"},
	{"geometry":{"coordinates":[43.043397,44.049192],"type":"Point"},"properties":{"osm_id":"1157190136","tag":{"amenity":"recycling"}},"type":"Feature"},
	{"geometry":{"coordinates":[43.040486,44.048487],"type":"Point"},"properties":{"osm_id":"1157191567","tag":{"amenity":"recycling","recycling_type":"container"}},"type":"Feature"},
	{"geometry":{"coordinates":[43.041451,44.05278],"type":"Point"},"properties":{"osm_id":"4464688393","tag":{"amenity":"recycling","recycling_type":"container"}},"type":"Feature"},
	{"geometry":{"coordinates":[43.027491,44.027371],"type":"Point"},"properties":{"osm_id":"4502011174","tag":{"amenity":"recycling","recycling_type":"container"}},"type":"Feature"},
	{"geometry":{"coordinates":[43.027372,44.025688],"type":"Point"},"properties":{"osm_id":"4502149860","tag":{"amenity":"recycling","recycling_type":"container"}},"type":"Feature"},
	{"geometry":{"coordinates":[43.064353,44.025177],"type":"Point"},"properties":{"osm_id":"4614116485","tag":{"amenity":"recycling","recycling_type":"container"}},"type":"Feature"},
	{"geometry":{"coordinates":[43.064689,44.026863],"type":"Point"},"properties":{"osm_id":"4615677031","tag":{"amenity":"recycling","recycling_type":"container"}},"type":"Feature"},
	{"geometry":{"coordinates":[43.030691,44.026446],"type":"Point"},"properties":{"osm_id":"4801499209","tag":{"amenity":"recycling","recycling_type":"container"}},"type":"Feature"},
	{"geometry":{"coordinates":[43.050797,44.039633],"type":"Point"},"properties":{"osm_id":"4853955442","tag":{"amenity":"waste_disposal"}},"type":"Feature"},
	{"geometry":{"coordinates":[43.045523,44.024942],"type":"Point"},"properties":{"osm_id":"4872014607","tag":{"amenity":"recycling","recycling_type":"container"}},"type":"Feature"},
	{"geometry":{"coordinates":[43.065127,44.04685],"type":"Point"},"properties":{"osm_id":"4994459021","tag":{"amenity":"waste_disposal"}},"type":"Feature"},
	{"geometry":{"coordinates":[43.063462,44.055743],"type":"Point"},"properties":{"osm_id":"4999031424","tag":{"amenity":"waste_basket"}},"type":"Feature"},
	{"geometry":{"coordinates":[43.063509,44.057217],"type":"Point"},"properties":{"osm_id":"4999040322","tag":{"amenity":"waste_basket"}},"type":"Feature"},
	{"geometry":{"coordinates":[43.063491,44.056501],"type":"Point"},"properties":{"osm_id":"4999040323","tag":{"amenity":"waste_basket"}},"type":"Feature"},
	{"geometry":{"coordinates":[43.063485,44.055146],"type":"Point"},"properties":{"osm_id":"4999040325","tag":{"amenity":"waste_basket"}},"type":"Feature"},
	{"geometry":{"coordinates":[43.063396,44.054466],"type":"Point"},"properties":{"osm_id":"4999040326","tag":{"amenity":"waste_basket"}},"type":"Feature"},
	{"geometry":{"coordinates":[43.064711,44.050948],"type":"Point"},"properties":{"osm_id":"4999040426","tag":{"amenity":"waste_basket"}},"type":"Feature"},
	{"geometry":{"coordinates":[43.064709,44.050918],"type":"Point"},"properties":{"osm_id":"4999040427","tag":{"amenity":"waste_basket"}},"type":"Feature"},
	{"geometry":{"coordinates":[43.060365,44.05005],"type":"Point"},"properties":{"osm_id":"5019556530","tag":{"amenity":"waste_disposal"}},"type":"Feature"},
	{"geometry":{"coordinates":[43.064077,44.048793],"type":"Point"},"properties":{"osm_id":"5019760123","tag":{"amenity":"waste_disposal"}},"type":"Feature"},
	{"geometry":{"coordinates":[43.056507,44.054677],"type":"Point"},"properties":{"osm_id":"5020083121","tag":{"amenity":"waste_disposal"}},"type":"Feature"},
	{"geometry":{"coordinates":[43.056279,44.054452],"type":"Point"},"properties":{"osm_id":"5020083122","tag":{"amenity":"waste_disposal"}},"type":"Feature"},
	{"geometry":{"coordinates":[43.065228,44.037311],"type":"Point"},"properties":{"osm_id":"5104638524","tag":{"amenity":"waste_disposal"}},"type":"Feature"},
	{"geometry":{"coordinates":[43.059695,44.049476],"type":"Point"},"properties":{"osm_id":"5105365721","tag":{"amenity":"waste_disposal"}},"type":"Feature"},
	{"geometry":{"coordinates":[43.044396,44.04932],"type":"Point"},"properties":{"osm_id":"5116874950","tag":{"amenity":"waste_disposal"}},"type":"Feature"},
	{"geometry":{"coordinates":[43.066202,44.051014],"type":"Point"},"properties":{"osm_id":"5772242053","tag":{"amenity":"waste_basket"}},"type":"Feature"},
	{"geometry":{"coordinates":[43.064228,44.059294],"type":"Point"},"properties":{"osm_id":"6691275816","tag":{"access":"yes","amenity":"waste_disposal"}},"type":"Feature"},
	{"geometry":{"coordinates":[43.06515,44.060169],"type":"Point"},"properties":{"osm_id":"6691275817","tag":{"access":"yes","amenity":"waste_disposal"}},"type":"Feature"},
	{"geometry":{"coordinates":[43.064021,44.059342],"type":"Point"},"properties":{"osm_id":"6721859816","tag":{"amenity":"waste_disposal"}},"type":"Feature"},
	{"geometry":{"coordinates":[43.061127,44.052896],"type":"Point"},"properties":{"osm_id":"6761180085","tag":{"amenity":"waste_disposal"}},"type":"Feature"},
	{"geometry":{"coordinates":[43.043415,44.049972],"type":"Point"},"properties":{"osm_id":"6774514385","tag":{"amenity":"waste_disposal"}},"type":"Feature"},
	{"geometry":{"coordinates":[43.06398,44.055887],"type":"Point"},"properties":{"osm_id":"6812610619","tag":{"amenity":"waste_basket","waste":"trash"}},"type":"Feature"},
	{"geometry":{"coordinates":[43.062403,44.051489],"type":"Point"},"properties":{"osm_id":"6819379866","tag":{"amenity":"waste_disposal"}},"type":"Feature"},
	{"geometry":{"coordinates":[43.041793,44.051972],"type":"Point"},"properties":{"name":"\u00d0\u009c\u00d1\u0083\u00d1\u0081\u00d0\u00be\u00d1\u0080\u00d0\u00bd\u00d1\u008b\u00d0\u00b5 \u00d0\u00b1\u00d0\u00b0\u00d0\u00ba\u00d0\u00b8","osm_id":"7028150633","tag":{"amenity":"waste_disposal"}},"type":"Feature"},
	{"geometry":{"coordinates":[43.019413,44.045304],"type":"Point"},"properties":{"osm_id":"7760316585","tag":{"amenity":"recycling"}},"type":"Feature"}
]
}
