{
"type": "FeatureCollection",
"features": [
	{"geometry":{"coordinates":[-40.246164,-15.256344],"type":"Point"},"properties":{"osm_id":"1171393318","tag":{"amenity":"recycling","operator":"Itair\u00c3\u00b3","phone":"77-3261.3534","recycling:cans":"yes","recycling:paper":"yes","recycling:scrap_metal":"yes","recycling_type":"container"}},"type":"Feature"},
	{"geometry":{"coordinates":[-40.242494,-15.244208],"type":"Point"},"properties":{"osm_id":"1171393328","tag":{"amenity":"recycling","recycling:cans":"yes","recycling:paper":"yes","recycling:scrap_metal":"yes","recycling_type":"container"}},"type":"Feature"},
	{"geometry":{"coordinates":[-40.242611,-15.253622],"type":"Point"},"properties":{"osm_id":"1819658114","tag":{"amenity":"recycling","recycling:cans":"yes","recycling:paper":"yes","recycling:scrap_metal":"yes","recycling_type":"container"}},"type":"Feature"},
	{"geometry":{"coordinates":[-40.220939,-15.254279],"type":"Point"},"properties":{"name":"Itair\u00c3\u00b3 Cooperativa de Catadores","osm_id":"2349384999","tag":{"amenity":"recycling","building":"yes","recycling:cans":"yes","recycling:paper":"yes","recycling:scrap_metal":"yes","recycling_type":"centre"}},"type":"Feature"},
	{"geometry":{"coordinates":[-40.243765,-15.256783],"type":"Point"},"properties":{"osm_id":"3065016001","tag":{"amenity":"recycling","operator":"Itair\u00c3\u00b3","recycling:cans":"yes","recycling:paper":"yes","recycling_type":"container"}},"type":"Feature"},
	{"geometry":{"coordinates":[-40.25232,-15.240805],"type":"Point"},"properties":{"osm_id":"3686163249","tag":{"amenity":"recycling","operator":"Itair\u00c3\u00b3","recycling:cans":"yes","recycling:paper":"yes","recycling:plastic":"yes","recycling:scrap_metal":"yes","recycling_type":"container"}},"type":"Feature"},
	{"geometry":{"coordinates":[-40.252298,-15.240835],"type":"Point"},"properties":{"osm_id":"3686163250","tag":{"amenity":"recycling","operator":"Itair\u00c3\u00b3","recycling:cans":"yes","recycling:paper":"yes","recycling:plastic":"yes","recycling:scrap_metal":"yes","recycling_type":"container"}},"type":"Feature"},
	{"geometry":{"coordinates":[-40.246544,-15.242997],"type":"Point"},"properties":{"name":"Chico Ferro Velho","osm_id":"3686235176","tag":{"amenity":"recycling","recycling:batteries":"yes","recycling:cans":"yes","recycling:scrap_metal":"yes","recycling_type":"centre"}},"type":"Feature"}
]
}
