{
"type": "FeatureCollection",
"features": [
	{"geometry":{"coordinates":[-0.086957,52.180512],"type":"Point"},"properties":{"osm_id":"111497916","tag":{"amenity":"recycling"}},"type":"Feature"},
	{"geometry":{"coordinates":[-0.067995,52.212238],"type":"Point"},"properties":{"osm_id":"1999651858","tag":{"amenity":"waste_basket"}},"type":"Feature"},
	{"geometry":{"coordinates":[-0.066426,52.212353],"type":"Point"},"properties":{"osm_id":"1999651871","tag":{"amenity":"waste_basket","natural":"tree"}},"type":"Feature"},
	{"geometry":{"coordinates":[-0.005113,52.16346],"type":"Point"},"properties":{"osm_id":"7553634857","tag":{"amenity":"recycling","operator":"TerraCycle","recycling_type":"bin"}},"type":"Feature"},
	{"geometry":{"coordinates":[-0.009163,52.183609],"type":"Point"},"properties":{"osm_id":"8549666583","tag":{"amenity":"waste_basket"}},"type":"Feature"},
	{"geometry":{"coordinates":[-0.012356,52.187426],"type":"Point"},"properties":{"osm_id":"8579807195","tag":{"amenity":"waste_basket"}},"type":"Feature"},
	{"geometry":{"coordinates":[-0.014568,52.184252],"type":"Point"},"properties":{"osm_id":"8595087372","tag":{"amenity":"waste_basket"}},"type":"Feature"},
	{"geometry":{"coordinates":[-0.014146,52.185094],"type":"Point"},"properties":{"osm_id":"8595087373","tag":{"amenity":"waste_basket"}},"type":"Feature"},
	{"geometry":{"coordinates":[-0.024636,52.207697],"type":"Point"},"properties":{"osm_id":"8632132478","tag":{"amenity":"waste_basket"}},"type":"Feature"},
	{"geometry":{"coordinates":[-0.024755,52.207555],"type":"Point"},"properties":{"osm_id":"8632132486","tag":{"amenity":"waste_basket","waste":"dog_excrement"}},"type":"Feature"},
	{"geometry":{"coordinates":[-0.023365,52.206517],"type":"Point"},"properties":{"osm_id":"8632139090","tag":{"amenity":"waste_basket","waste":"dog_excrement"}},"type":"Feature"},
	{"geometry":{"coordinates":[-0.02226,52.210045],"type":"Point"},"properties":{"osm_id":"8632139241","tag":{"amenity":"waste_basket","waste":"dog_excrement"}},"type":"Feature"},
	{"geometry":{"coordinates":[-0.010098,52.183158],"type":"Point"},"properties":{"osm_id":"8791386561","tag":{"amenity":"waste_basket"}},"type":"Feature"}
]
}
