{
"type": "FeatureCollection",
"features": [
	{"geometry":{"coordinates":[-0.076164,51.651214],"type":"Point"},"properties":{"osm_id":"269597959","tag":{"amenity":"recycling","location":"overground","recycling_type":"container"}},"type":"Feature"},
	{"geometry":{"coordinates":[-0.077589,51.662988],"type":"Point"},"properties":{"osm_id":"269598086","tag":{"amenity":"recycling"}},"type":"Feature"},
	{"geometry":{"coordinates":[-0.065687,51.669757],"type":"Point"},"properties":{"osm_id":"269598242","tag":{"amenity":"recycling"}},"type":"Feature"},
	{"geometry":{"coordinates":[-0.087861,51.65871],"type":"Point"},"properties":{"osm_id":"271146372","tag":{"amenity":"recycling"}},"type":"Feature"},
	{"geometry":{"coordinates":[-0.06991,51.640598],"type":"Point"},"properties":{"osm_id":"1638242357","tag":{"amenity":"waste_basket"}},"type":"Feature"},
	{"geometry":{"coordinates":[-0.078518,51.641228],"type":"Point"},"properties":{"osm_id":"1638242491","tag":{"amenity":"waste_basket"}},"type":"Feature"},
	{"geometry":{"coordinates":[-0.078787,51.64139],"type":"Point"},"properties":{"osm_id":"1638242504","tag":{"amenity":"waste_basket"}},"type":"Feature"},
	{"geometry":{"coordinates":[-0.082694,51.650666],"type":"Point"},"properties":{"osm_id":"1639435034","tag":{"amenity":"waste_basket"}},"type":"Feature"},
	{"geometry":{"coordinates":[-0.08205,51.651381],"type":"Point"},"properties":{"osm_id":"1639435046","tag":{"amenity":"waste_basket"}},"type":"Feature"},
	{"geometry":{"coordinates":[-0.086282,51.643482],"type":"Point"},"properties":{"osm_id":"1647882985","tag":{"amenity":"waste_basket","waste_basket":"dog_waste"}},"type":"Feature"},
	{"geometry":{"coordinates":[-0.084075,51.648443],"type":"Point"},"properties":{"osm_id":"1647882995","tag":{"amenity":"waste_basket"}},"type":"Feature"},
	{"geometry":{"coordinates":[-0.083942,51.649264],"type":"Point"},"properties":{"osm_id":"1647883003","tag":{"amenity":"waste_basket"}},"type":"Feature"},
	{"geometry":{"coordinates":[-0.083774,51.649734],"type":"Point"},"properties":{"osm_id":"1647883005","tag":{"amenity":"waste_basket"}},"type":"Feature"},
	{"geometry":{"coordinates":[-0.083749,51.649831],"type":"Point"},"properties":{"osm_id":"1647883007","tag":{"amenity":"waste_basket","waste_basket":"dog_waste"}},"type":"Feature"},
	{"geometry":{"coordinates":[-0.051727,51.660121],"type":"Point"},"properties":{"osm_id":"1909608949","tag":{"amenity":"recycling","recycling_type":"container"}},"type":"Feature"},
	{"geometry":{"coordinates":[-0.049368,51.628595],"type":"Point"},"properties":{"osm_id":"1948278854","tag":{"amenity":"recycling","recycling:cans":"yes","recycling:cardboard":"yes","recycling:cartons":"yes","recycling:glass_bottles":"yes","recycling:newspaper":"yes","recycling:paper":"yes","recycling:plastic_bottles":"yes"}},"type":"Feature"},
	{"geometry":{"coordinates":[-0.013863,51.66702],"type":"Point"},"properties":{"osm_id":"2374298631","tag":{"amenity":"waste_basket","waste":"dog"}},"type":"Feature"},
	{"geometry":{"coordinates":[-0.013874,51.66709],"type":"Point"},"properties":{"osm_id":"2374298632","tag":{"amenity":"waste_basket"}},"type":"Feature"},
	{"geometry":{"coordinates":[-0.010917,51.666592],"type":"Point"},"properties":{"osm_id":"2374333683","tag":{"amenity":"waste_basket","waste":"dog"}},"type":"Feature"},
	{"geometry":{"coordinates":[-0.041572,51.668077],"type":"Point"},"properties":{"osm_id":"2428494052","tag":{"addr:street":"Hertford Road","amenity":"waste_basket"}},"type":"Feature"},
	{"geometry":{"coordinates":[-0.0868,51.619999],"type":"Point"},"properties":{"osm_id":"2431206576","tag":{"amenity":"waste_basket","waste":"dog"}},"type":"Feature"},
	{"geometry":{"coordinates":[-0.086727,51.619993],"type":"Point"},"properties":{"osm_id":"2431206577","tag":{"amenity":"waste_basket"}},"type":"Feature"},
	{"geometry":{"coordinates":[-0.087128,51.619467],"type":"Point"},"properties":{"osm_id":"2431235653","tag":{"amenity":"waste_basket","waste":"dog"}},"type":"Feature"},
	{"geometry":{"coordinates":[-0.087015,51.619674],"type":"Point"},"properties":{"osm_id":"2431488364","tag":{"amenity":"waste_basket","waste":"dog"}},"type":"Feature"},
	{"geometry":{"coordinates":[-0.087626,51.619678],"type":"Point"},"properties":{"osm_id":"2431488365","tag":{"amenity":"waste_basket"}},"type":"Feature"},
	{"geometry":{"coordinates":[-0.070351,51.618044],"type":"Point"},"properties":{"osm_id":"2455711102","tag":{"amenity":"waste_basket"}},"type":"Feature"},
	{"geometry":{"coordinates":[-0.056824,51.636156],"type":"Point"},"properties":{"osm_id":"2471605074","tag":{"amenity":"waste_basket"}},"type":"Feature"},
	{"geometry":{"coordinates":[-0.058948,51.636397],"type":"Point"},"properties":{"osm_id":"2471608101","tag":{"amenity":"waste_basket"}},"type":"Feature"},
	{"geometry":{"coordinates":[-0.059495,51.636357],"type":"Point"},"properties":{"osm_id":"2471608103","tag":{"amenity":"waste_basket"}},"type":"Feature"},
	{"geometry":{"coordinates":[-0.060603,51.636997],"type":"Point"},"properties":{"osm_id":"2471611444","tag":{"amenity":"waste_basket"}},"type":"Feature"},
	{"geometry":{"coordinates":[-0.060289,51.636947],"type":"Point"},"properties":{"osm_id":"2471611445","tag":{"amenity":"waste_basket"}},"type":"Feature"},
	{"geometry":{"coordinates":[-0.061313,51.636502],"type":"Point"},"properties":{"osm_id":"2471616555","tag":{"amenity":"waste_basket","waste":"dog"}},"type":"Feature"},
	{"geometry":{"coordinates":[-0.060846,51.635134],"type":"Point"},"properties":{"osm_id":"2471619142","tag":{"amenity":"waste_basket"}},"type":"Feature"},
	{"geometry":{"coordinates":[-0.061732,51.635373],"type":"Point"},"properties":{"osm_id":"2471619147","tag":{"amenity":"waste_basket"}},"type":"Feature"},
	{"geometry":{"coordinates":[-0.062296,51.634111],"type":"Point"},"properties":{"osm_id":"2471624958","tag":{"amenity":"waste_basket","waste":"dog"}},"type":"Feature"},
	{"geometry":{"coordinates":[-0.060968,51.633979],"type":"Point"},"properties":{"osm_id":"2471624965","tag":{"amenity":"waste_basket"}},"type":"Feature"},
	{"geometry":{"coordinates":[-0.058444,51.632474],"type":"Point"},"properties":{"osm_id":"2471632659","tag":{"amenity":"waste_basket"}},"type":"Feature"},
	{"geometry":{"coordinates":[-0.061947,51.632601],"type":"Point"},"properties":{"osm_id":"2471632660","tag":{"amenity":"waste_basket"}},"type":"Feature"},
	{"geometry":{"coordinates":[-0.056847,51.634008],"type":"Point"},"properties":{"osm_id":"2471635592","tag":{"amenity":"waste_basket"}},"type":"Feature"},
	{"geometry":{"coordinates":[-0.056597,51.634889],"type":"Point"},"properties":{"osm_id":"2471637228","tag":{"amenity":"waste_basket"}},"type":"Feature"},
	{"geometry":{"coordinates":[-0.043069,51.645618],"type":"Point"},"properties":{"osm_id":"2985001347","tag":{"amenity":"waste_basket"}},"type":"Feature"},
	{"geometry":{"coordinates":[-0.041717,51.645399],"type":"Point"},"properties":{"osm_id":"2985001348","tag":{"amenity":"waste_basket"}},"type":"Feature"},
	{"geometry":{"coordinates":[-0.087129,51.668842],"type":"Point"},"properties":{"osm_id":"3021028676","tag":{"amenity":"waste_basket"}},"type":"Feature"},
	{"geometry":{"coordinates":[-0.085573,51.669744],"type":"Point"},"properties":{"osm_id":"3021028975","tag":{"amenity":"waste_basket"}},"type":"Feature"},
	{"geometry":{"coordinates":[-0.08418,51.670702],"type":"Point"},"properties":{"osm_id":"3021029185","tag":{"amenity":"waste_basket"}},"type":"Feature"},
	{"geometry":{"coordinates":[-0.056305,51.636079],"type":"Point"},"properties":{"osm_id":"3097653398","tag":{"amenity":"waste_basket","waste":"dog"}},"type":"Feature"},
	{"geometry":{"coordinates":[-0.056361,51.63551],"type":"Point"},"properties":{"osm_id":"3097653416","tag":{"amenity":"waste_basket","waterway":"dog"}},"type":"Feature"},
	{"geometry":{"coordinates":[-0.061305,51.636532],"type":"Point"},"properties":{"osm_id":"3097699377","tag":{"amenity":"waste_basket","waste":"dog"}},"type":"Feature"},
	{"geometry":{"coordinates":[-0.059609,51.636931],"type":"Point"},"properties":{"osm_id":"3097704711","tag":{"amenity":"waste_basket","waste":"dog"}},"type":"Feature"},
	{"geometry":{"coordinates":[-0.059309,51.636306],"type":"Point"},"properties":{"osm_id":"3097727191","tag":{"amenity":"waste_basket"}},"type":"Feature"},
	{"geometry":{"coordinates":[-0.059116,51.636372],"type":"Point"},"properties":{"osm_id":"3097727192","tag":{"amenity":"waste_basket"}},"type":"Feature"},
	{"geometry":{"coordinates":[-0.057399,51.63564],"type":"Point"},"properties":{"osm_id":"3097743880","tag":{"amenity":"waste_basket"}},"type":"Feature"},
	{"geometry":{"coordinates":[-0.058751,51.636126],"type":"Point"},"properties":{"osm_id":"3097743881","tag":{"amenity":"waste_basket"}},"type":"Feature"},
	{"geometry":{"coordinates":[-0.057378,51.636186],"type":"Point"},"properties":{"osm_id":"3097743884","tag":{"amenity":"waste_basket"}},"type":"Feature"},
	{"geometry":{"coordinates":[-0.058022,51.636439],"type":"Point"},"properties":{"osm_id":"3097743885","tag":{"amenity":"waste_basket"}},"type":"Feature"},
	{"geometry":{"coordinates":[-0.05815,51.636332],"type":"Point"},"properties":{"osm_id":"3097743888","tag":{"amenity":"waste_basket"}},"type":"Feature"},
	{"geometry":{"coordinates":[-0.057828,51.637038],"type":"Point"},"properties":{"osm_id":"3097749229","tag":{"amenity":"waste_basket"}},"type":"Feature"},
	{"geometry":{"coordinates":[-0.059631,51.634548],"type":"Point"},"properties":{"osm_id":"3097763168","tag":{"amenity":"waste_basket"}},"type":"Feature"},
	{"geometry":{"coordinates":[-0.058472,51.633882],"type":"Point"},"properties":{"osm_id":"3097763176","tag":{"amenity":"waste_basket"}},"type":"Feature"},
	{"geometry":{"coordinates":[-0.05755,51.633855],"type":"Point"},"properties":{"osm_id":"3097788492","tag":{"amenity":"waste_basket"}},"type":"Feature"},
	{"geometry":{"coordinates":[-0.062378,51.634068],"type":"Point"},"properties":{"osm_id":"3097794540","tag":{"amenity":"waste_basket","waste":"dog"}},"type":"Feature"},
	{"geometry":{"coordinates":[-0.058545,51.632395],"type":"Point"},"properties":{"osm_id":"3097831826","tag":{"amenity":"waste_basket"}},"type":"Feature"},
	{"geometry":{"coordinates":[-0.062249,51.63263],"type":"Point"},"properties":{"osm_id":"3097844346","tag":{"amenity":"waste_basket"}},"type":"Feature"},
	{"geometry":{"coordinates":[-0.08461,51.650097],"type":"Point"},"properties":{"osm_id":"3098884060","tag":{"amenity":"waste_basket","waste":"dog"}},"type":"Feature"},
	{"geometry":{"coordinates":[-0.083669,51.649899],"type":"Point"},"properties":{"osm_id":"3098905083","tag":{"amenity":"waste_basket"}},"type":"Feature"},
	{"geometry":{"coordinates":[-0.084833,51.650106],"type":"Point"},"properties":{"osm_id":"3098912730","tag":{"amenity":"waste_basket"}},"type":"Feature"},
	{"geometry":{"coordinates":[-0.087019,51.651187],"type":"Point"},"properties":{"osm_id":"3098992403","tag":{"amenity":"waste_basket"}},"type":"Feature"},
	{"geometry":{"coordinates":[-0.087255,51.65096],"type":"Point"},"properties":{"osm_id":"3099031647","tag":{"amenity":"waste_basket"}},"type":"Feature"},
	{"geometry":{"coordinates":[-0.087778,51.650552],"type":"Point"},"properties":{"osm_id":"3099048589","tag":{"amenity":"waste_basket","waste":"dog"}},"type":"Feature"},
	{"geometry":{"coordinates":[-0.085613,51.648952],"type":"Point"},"properties":{"osm_id":"3099104763","tag":{"amenity":"waste_basket"}},"type":"Feature"},
	{"geometry":{"coordinates":[-0.085525,51.649155],"type":"Point"},"properties":{"osm_id":"3099104772","tag":{"amenity":"waste_basket"}},"type":"Feature"},
	{"geometry":{"coordinates":[-0.085525,51.649062],"type":"Point"},"properties":{"osm_id":"3099104785","tag":{"amenity":"waste_basket","waste":"dog"}},"type":"Feature"},
	{"geometry":{"coordinates":[-0.086137,51.648769],"type":"Point"},"properties":{"osm_id":"3099114489","tag":{"amenity":"waste_basket"}},"type":"Feature"},
	{"geometry":{"coordinates":[-0.086872,51.649047],"type":"Point"},"properties":{"osm_id":"3099114501","tag":{"amenity":"waste_basket"}},"type":"Feature"},
	{"geometry":{"coordinates":[-0.087802,51.65024],"type":"Point"},"properties":{"osm_id":"3099137320","tag":{"amenity":"waste_basket"}},"type":"Feature"},
	{"geometry":{"coordinates":[-0.087751,51.649568],"type":"Point"},"properties":{"osm_id":"3099140860","tag":{"amenity":"waste_basket"}},"type":"Feature"},
	{"geometry":{"coordinates":[-0.086136,51.649969],"type":"Point"},"properties":{"osm_id":"3099140861","tag":{"amenity":"waste_basket"}},"type":"Feature"},
	{"geometry":{"coordinates":[-0.083985,51.648666],"type":"Point"},"properties":{"osm_id":"3099193753","tag":{"amenity":"waste_basket"}},"type":"Feature"},
	{"geometry":{"coordinates":[-0.0842,51.648213],"type":"Point"},"properties":{"osm_id":"3099196669","tag":{"amenity":"waste_basket"}},"type":"Feature"},
	{"geometry":{"coordinates":[-0.087105,51.648182],"type":"Point"},"properties":{"osm_id":"3099204555","tag":{"amenity":"waste_basket"}},"type":"Feature"},
	{"geometry":{"coordinates":[-0.084243,51.648197],"type":"Point"},"properties":{"osm_id":"3107705563","tag":{"amenity":"waste_basket"}},"type":"Feature"},
	{"geometry":{"coordinates":[-0.084028,51.648589],"type":"Point"},"properties":{"osm_id":"3107705565","tag":{"amenity":"waste_basket"}},"type":"Feature"},
	{"geometry":{"coordinates":[-0.085707,51.648257],"type":"Point"},"properties":{"osm_id":"3107719116","tag":{"amenity":"waste_basket"}},"type":"Feature"},
	{"geometry":{"coordinates":[-0.085262,51.648298],"type":"Point"},"properties":{"osm_id":"3107719118","tag":{"amenity":"waste_basket"}},"type":"Feature"},
	{"geometry":{"coordinates":[-0.083846,51.647817],"type":"Point"},"properties":{"osm_id":"3107723602","tag":{"amenity":"waste_basket"}},"type":"Feature"},
	{"geometry":{"coordinates":[-0.08052,51.643963],"type":"Point"},"properties":{"osm_id":"3107770912","tag":{"amenity":"waste_basket","waste":"dog"}},"type":"Feature"},
	{"geometry":{"coordinates":[-0.07861,51.644082],"type":"Point"},"properties":{"osm_id":"3107810121","tag":{"amenity":"waste_basket"}},"type":"Feature"},
	{"geometry":{"coordinates":[-0.061203,51.640049],"type":"Point"},"properties":{"osm_id":"3108004854","tag":{"amenity":"waste_basket","waste":"dog"}},"type":"Feature"},
	{"geometry":{"coordinates":[-0.048115,51.646622],"type":"Point"},"properties":{"osm_id":"3135983022","tag":{"amenity":"recycling"}},"type":"Feature"},
	{"geometry":{"coordinates":[-0.046211,51.644782],"type":"Point"},"properties":{"osm_id":"3137378843","tag":{"amenity":"waste_basket"}},"type":"Feature"},
	{"geometry":{"coordinates":[-0.04507,51.644411],"type":"Point"},"properties":{"osm_id":"3137391467","tag":{"amenity":"waste_basket"}},"type":"Feature"},
	{"geometry":{"coordinates":[-0.044684,51.644376],"type":"Point"},"properties":{"osm_id":"3137391469","tag":{"amenity":"waste_basket","waste":"dog"}},"type":"Feature"},
	{"geometry":{"coordinates":[-0.045439,51.644448],"type":"Point"},"properties":{"osm_id":"3137391470","tag":{"amenity":"waste_basket"}},"type":"Feature"},
	{"geometry":{"coordinates":[-0.044228,51.644324],"type":"Point"},"properties":{"osm_id":"3137391473","tag":{"amenity":"waste_basket"}},"type":"Feature"},
	{"geometry":{"coordinates":[-0.043926,51.644292],"type":"Point"},"properties":{"osm_id":"3137407402","tag":{"amenity":"waste_basket"}},"type":"Feature"},
	{"geometry":{"coordinates":[-0.042607,51.644196],"type":"Point"},"properties":{"osm_id":"3137407403","tag":{"amenity":"waste_basket","waste":"dog"}},"type":"Feature"},
	{"geometry":{"coordinates":[-0.043935,51.645834],"type":"Point"},"properties":{"osm_id":"3137506959","tag":{"amenity":"waste_basket","waste":"dog"}},"type":"Feature"},
	{"geometry":{"coordinates":[-0.04692,51.646023],"type":"Point"},"properties":{"osm_id":"3137506961","tag":{"amenity":"waste_basket"}},"type":"Feature"},
	{"geometry":{"coordinates":[-0.04697,51.646199],"type":"Point"},"properties":{"osm_id":"3137506962","tag":{"amenity":"waste_basket"}},"type":"Feature"},
	{"geometry":{"coordinates":[-0.046947,51.646143],"type":"Point"},"properties":{"osm_id":"3137506969","tag":{"amenity":"waste_basket"}},"type":"Feature"},
	{"geometry":{"coordinates":[-0.004619,51.672068],"type":"Point"},"properties":{"osm_id":"3331086377","tag":{"amenity":"waste_basket","waste":"dog"}},"type":"Feature"},
	{"geometry":{"coordinates":[-0.076915,51.633455],"type":"Point"},"properties":{"osm_id":"3385122563","tag":{"amenity":"waste_basket","waste":"dog"}},"type":"Feature"},
	{"geometry":{"coordinates":[-0.07677,51.633812],"type":"Point"},"properties":{"osm_id":"3385122576","tag":{"amenity":"waste_basket"}},"type":"Feature"},
	{"geometry":{"coordinates":[-0.075177,51.633885],"type":"Point"},"properties":{"osm_id":"3385135617","tag":{"amenity":"waste_basket","waste":"dog"}},"type":"Feature"},
	{"geometry":{"coordinates":[-0.075274,51.633908],"type":"Point"},"properties":{"osm_id":"3385135620","tag":{"amenity":"waste_basket"}},"type":"Feature"},
	{"geometry":{"coordinates":[-0.04078,51.654975],"type":"Point"},"properties":{"osm_id":"3407147223","tag":{"amenity":"waste_basket","waste":"dog"}},"type":"Feature"},
	{"geometry":{"coordinates":[-0.041267,51.654136],"type":"Point"},"properties":{"osm_id":"3407149498","tag":{"amenity":"waste_basket","waste":"dog"}},"type":"Feature"},
	{"geometry":{"coordinates":[-0.042919,51.654313],"type":"Point"},"properties":{"osm_id":"3407149501","tag":{"amenity":"waste_basket"}},"type":"Feature"},
	{"geometry":{"coordinates":[-0.044259,51.654467],"type":"Point"},"properties":{"osm_id":"3407149505","tag":{"amenity":"waste_basket"}},"type":"Feature"},
	{"geometry":{"coordinates":[-0.04315,51.654337],"type":"Point"},"properties":{"osm_id":"3407149506","tag":{"amenity":"waste_basket","waste":"dog"}},"type":"Feature"},
	{"geometry":{"coordinates":[-0.046166,51.654677],"type":"Point"},"properties":{"osm_id":"3407149520","tag":{"amenity":"waste_basket","waste":"dog"}},"type":"Feature"},
	{"geometry":{"coordinates":[-0.046319,51.654694],"type":"Point"},"properties":{"osm_id":"3407149521","tag":{"amenity":"waste_basket"}},"type":"Feature"},
	{"geometry":{"coordinates":[-0.047008,51.654117],"type":"Point"},"properties":{"osm_id":"3407162167","tag":{"amenity":"waste_basket"}},"type":"Feature"},
	{"geometry":{"coordinates":[-0.04633,51.653953],"type":"Point"},"properties":{"osm_id":"3407164777","tag":{"amenity":"waste_basket"}},"type":"Feature"},
	{"geometry":{"coordinates":[-0.042598,51.653414],"type":"Point"},"properties":{"osm_id":"3407176326","tag":{"amenity":"waste_basket"}},"type":"Feature"},
	{"geometry":{"coordinates":[-0.03298,51.665459],"type":"Point"},"properties":{"osm_id":"3455518777","tag":{"amenity":"waste_basket","waste":"dog"}},"type":"Feature"},
	{"geometry":{"coordinates":[-0.069139,51.669517],"type":"Point"},"properties":{"osm_id":"3456565934","tag":{"amenity":"waste_basket"}},"type":"Feature"},
	{"geometry":{"coordinates":[-0.035816,51.656711],"type":"Point"},"properties":{"osm_id":"3578243097","tag":{"amenity":"waste_basket"}},"type":"Feature"},
	{"geometry":{"coordinates":[-0.033372,51.653725],"type":"Point"},"properties":{"osm_id":"3578251220","tag":{"amenity":"waste_basket"}},"type":"Feature"},
	{"geometry":{"coordinates":[-0.029596,51.655539],"type":"Point"},"properties":{"osm_id":"3579139988","tag":{"amenity":"waste_basket"}},"type":"Feature"},
	{"geometry":{"coordinates":[-0.030088,51.654838],"type":"Point"},"properties":{"name":"Greater London Waste Disposal","osm_id":"3579139990","tag":{"addr:housenumber":"31","addr:street":"Jute Lane","amenity":"waste_disposal"}},"type":"Feature"},
	{"geometry":{"coordinates":[-0.00843,51.626193],"type":"Point"},"properties":{"osm_id":"3711870523","tag":{"amenity":"waste_basket"}},"type":"Feature"},
	{"geometry":{"coordinates":[-0.008114,51.626592],"type":"Point"},"properties":{"osm_id":"3711872126","tag":{"amenity":"waste_basket"}},"type":"Feature"},
	{"geometry":{"coordinates":[-0.008594,51.625737],"type":"Point"},"properties":{"osm_id":"3711885759","tag":{"amenity":"waste_basket"}},"type":"Feature"},
	{"geometry":{"coordinates":[-0.008401,51.625961],"type":"Point"},"properties":{"osm_id":"3711885761","tag":{"amenity":"waste_basket"}},"type":"Feature"},
	{"geometry":{"coordinates":[-0.008733,51.625523],"type":"Point"},"properties":{"osm_id":"3711885763","tag":{"amenity":"waste_basket"}},"type":"Feature"},
	{"geometry":{"coordinates":[-0.008647,51.625077],"type":"Point"},"properties":{"osm_id":"3711889131","tag":{"amenity":"waste_basket"}},"type":"Feature"},
	{"geometry":{"coordinates":[-0.010149,51.625239],"type":"Point"},"properties":{"osm_id":"3711889133","tag":{"amenity":"waste_basket"}},"type":"Feature"},
	{"geometry":{"coordinates":[-0.010901,51.625222],"type":"Point"},"properties":{"osm_id":"3711894232","tag":{"amenity":"waste_basket"}},"type":"Feature"},
	{"geometry":{"coordinates":[-0.010224,51.625231],"type":"Point"},"properties":{"osm_id":"3711894238","tag":{"amenity":"waste_basket"}},"type":"Feature"},
	{"geometry":{"coordinates":[-0.010782,51.62519],"type":"Point"},"properties":{"osm_id":"3711894241","tag":{"amenity":"waste_basket"}},"type":"Feature"},
	{"geometry":{"coordinates":[-0.011083,51.62537],"type":"Point"},"properties":{"osm_id":"3711894242","tag":{"amenity":"waste_basket"}},"type":"Feature"},
	{"geometry":{"coordinates":[-0.011619,51.625544],"type":"Point"},"properties":{"osm_id":"3711898369","tag":{"amenity":"waste_basket"}},"type":"Feature"},
	{"geometry":{"coordinates":[-0.011752,51.625602],"type":"Point"},"properties":{"osm_id":"3711898370","tag":{"amenity":"waste_basket"}},"type":"Feature"},
	{"geometry":{"coordinates":[-0.012671,51.625843],"type":"Point"},"properties":{"osm_id":"3711903427","tag":{"amenity":"waste_basket"}},"type":"Feature"},
	{"geometry":{"coordinates":[-0.013575,51.627395],"type":"Point"},"properties":{"osm_id":"3711917591","tag":{"amenity":"waste_basket"}},"type":"Feature"},
	{"geometry":{"coordinates":[-0.012502,51.626919],"type":"Point"},"properties":{"osm_id":"3711917604","tag":{"amenity":"waste_basket"}},"type":"Feature"},
	{"geometry":{"coordinates":[-0.013776,51.6274],"type":"Point"},"properties":{"osm_id":"3711918898","tag":{"amenity":"waste_basket"}},"type":"Feature"},
	{"geometry":{"coordinates":[-0.046489,51.67208],"type":"Point"},"properties":{"osm_id":"3733189103","tag":{"amenity":"waste_basket"}},"type":"Feature"},
	{"geometry":{"coordinates":[-0.085777,51.649029],"type":"Point"},"properties":{"osm_id":"3861325775","tag":{"amenity":"waste_basket","waste":"dog"}},"type":"Feature"},
	{"geometry":{"coordinates":[-0.086281,51.652069],"type":"Point"},"properties":{"osm_id":"3861390308","tag":{"amenity":"waste_basket"}},"type":"Feature"},
	{"geometry":{"coordinates":[-0.086383,51.652109],"type":"Point"},"properties":{"osm_id":"3861390315","tag":{"amenity":"waste_basket"}},"type":"Feature"},
	{"geometry":{"coordinates":[-0.086002,51.652194],"type":"Point"},"properties":{"osm_id":"3861390323","tag":{"amenity":"waste_basket"}},"type":"Feature"},
	{"geometry":{"coordinates":[-0.087738,51.654184],"type":"Point"},"properties":{"osm_id":"3861406429","tag":{"amenity":"waste_basket"}},"type":"Feature"},
	{"geometry":{"coordinates":[-0.087767,51.653354],"type":"Point"},"properties":{"osm_id":"3861406431","tag":{"amenity":"waste_basket"}},"type":"Feature"},
	{"geometry":{"coordinates":[-0.08778,51.653729],"type":"Point"},"properties":{"osm_id":"3861406436","tag":{"amenity":"waste_basket"}},"type":"Feature"},
	{"geometry":{"coordinates":[-0.087587,51.653802],"type":"Point"},"properties":{"osm_id":"3861406442","tag":{"amenity":"waste_basket"}},"type":"Feature"},
	{"geometry":{"coordinates":[-0.087856,51.654083],"type":"Point"},"properties":{"osm_id":"3861406444","tag":{"amenity":"waste_basket"}},"type":"Feature"},
	{"geometry":{"coordinates":[-0.087199,51.653173],"type":"Point"},"properties":{"osm_id":"3861406454","tag":{"amenity":"waste_basket"}},"type":"Feature"},
	{"geometry":{"coordinates":[-0.087172,51.655937],"type":"Point"},"properties":{"osm_id":"3861440012","tag":{"amenity":"waste_basket"}},"type":"Feature"},
	{"geometry":{"coordinates":[-0.045303,51.628501],"type":"Point"},"properties":{"osm_id":"4035666491","tag":{"amenity":"waste_basket","waste":"dog_excrement"}},"type":"Feature"},
	{"geometry":{"coordinates":[-0.012252,51.670521],"type":"Point"},"properties":{"osm_id":"4039745614","tag":{"amenity":"waste_basket","waste":"dog_excrement"}},"type":"Feature"},
	{"geometry":{"coordinates":[-0.012191,51.670456],"type":"Point"},"properties":{"osm_id":"4039745619","tag":{"amenity":"waste_basket"}},"type":"Feature"},
	{"geometry":{"coordinates":[-0.011078,51.670739],"type":"Point"},"properties":{"osm_id":"4039760721","tag":{"amenity":"waste_basket","waste":"dog_excrement"}},"type":"Feature"},
	{"geometry":{"coordinates":[-0.055441,51.665277],"type":"Point"},"properties":{"osm_id":"4150834801","tag":{"amenity":"waste_basket","waste":"dog_excrement"}},"type":"Feature"},
	{"geometry":{"coordinates":[-0.079529,51.652201],"type":"Point"},"properties":{"osm_id":"4179385739","tag":{"amenity":"waste_basket"}},"type":"Feature"},
	{"geometry":{"coordinates":[-0.039638,51.671986],"type":"Point"},"properties":{"osm_id":"4293640940","tag":{"amenity":"waste_basket"}},"type":"Feature"},
	{"geometry":{"coordinates":[-0.039721,51.671861],"type":"Point"},"properties":{"osm_id":"4293661232","tag":{"amenity":"waste_basket"}},"type":"Feature"},
	{"geometry":{"coordinates":[-0.039651,51.672048],"type":"Point"},"properties":{"osm_id":"4293681218","tag":{"amenity":"waste_basket"}},"type":"Feature"},
	{"geometry":{"coordinates":[-0.04471,51.645207],"type":"Point"},"properties":{"osm_id":"4344989347","tag":{"amenity":"waste_basket"}},"type":"Feature"},
	{"geometry":{"coordinates":[-0.071132,51.632873],"type":"Point"},"properties":{"osm_id":"4345151989","tag":{"amenity":"waste_basket","waste":"dog_excrement"}},"type":"Feature"},
	{"geometry":{"coordinates":[-0.070998,51.632343],"type":"Point"},"properties":{"osm_id":"4345151991","tag":{"amenity":"waste_basket"}},"type":"Feature"},
	{"geometry":{"coordinates":[-0.070885,51.63203],"type":"Point"},"properties":{"osm_id":"4345151999","tag":{"amenity":"waste_basket"}},"type":"Feature"},
	{"geometry":{"coordinates":[-0.067055,51.62939],"type":"Point"},"properties":{"osm_id":"4345155659","tag":{"amenity":"waste_basket","waste":"dog_excrement"}},"type":"Feature"},
	{"geometry":{"coordinates":[-0.07014,51.632373],"type":"Point"},"properties":{"osm_id":"4345155667","tag":{"amenity":"waste_basket","waste":"dog_excrement"}},"type":"Feature"},
	{"geometry":{"coordinates":[-0.067023,51.620068],"type":"Point"},"properties":{"osm_id":"4347011503","tag":{"amenity":"waste_basket"}},"type":"Feature"},
	{"geometry":{"coordinates":[-0.06669,51.620162],"type":"Point"},"properties":{"osm_id":"4347011504","tag":{"amenity":"waste_basket"}},"type":"Feature"},
	{"geometry":{"coordinates":[-0.071476,51.619829],"type":"Point"},"properties":{"osm_id":"4347028110","tag":{"amenity":"waste_basket"}},"type":"Feature"},
	{"geometry":{"coordinates":[-0.068622,51.620245],"type":"Point"},"properties":{"osm_id":"4347028144","tag":{"amenity":"waste_basket"}},"type":"Feature"},
	{"geometry":{"coordinates":[-0.063118,51.639902],"type":"Point"},"properties":{"osm_id":"4464927891","tag":{"amenity":"waste_basket"}},"type":"Feature"},
	{"geometry":{"coordinates":[-0.040157,51.652075],"type":"Point"},"properties":{"osm_id":"6258534813","tag":{"amenity":"waste_basket"}},"type":"Feature"},
	{"geometry":{"coordinates":[-0.039825,51.653229],"type":"Point"},"properties":{"osm_id":"6258534827","tag":{"amenity":"waste_basket"}},"type":"Feature"},
	{"geometry":{"coordinates":[-0.045855,51.644824],"type":"Point"},"properties":{"osm_id":"6261096577","tag":{"amenity":"waste_basket","waste":"trash"}},"type":"Feature"},
	{"geometry":{"coordinates":[-0.044353,51.645523],"type":"Point"},"properties":{"osm_id":"6261100745","tag":{"amenity":"waste_basket"}},"type":"Feature"},
	{"geometry":{"coordinates":[-0.015698,51.66584],"type":"Point"},"properties":{"osm_id":"6367691170","tag":{"amenity":"waste_basket"}},"type":"Feature"},
	{"geometry":{"coordinates":[-0.014316,51.666264],"type":"Point"},"properties":{"osm_id":"6367691181","tag":{"amenity":"waste_basket"}},"type":"Feature"},
	{"geometry":{"coordinates":[-0.009959,51.671112],"type":"Point"},"properties":{"osm_id":"6367693022","tag":{"amenity":"waste_basket"}},"type":"Feature"},
	{"geometry":{"coordinates":[-0.019186,51.670562],"type":"Point"},"properties":{"osm_id":"7888076816","tag":{"amenity":"waste_basket"}},"type":"Feature"},
	{"geometry":{"coordinates":[-0.023797,51.667434],"type":"Point"},"properties":{"osm_id":"7888156948","tag":{"amenity":"waste_basket","waste":"dog_excrement"}},"type":"Feature"},
	{"geometry":{"coordinates":[-0.021539,51.668512],"type":"Point"},"properties":{"osm_id":"7888156950","tag":{"amenity":"waste_basket","waste":"dog_excrement"}},"type":"Feature"},
	{"geometry":{"coordinates":[-0.016539,51.667921],"type":"Point"},"properties":{"osm_id":"7898767507","tag":{"amenity":"waste_basket"}},"type":"Feature"},
	{"geometry":{"coordinates":[-0.016535,51.668115],"type":"Point"},"properties":{"osm_id":"7898767508","tag":{"amenity":"waste_basket"}},"type":"Feature"},
	{"geometry":{"coordinates":[-0.013196,51.669004],"type":"Point"},"properties":{"osm_id":"7899594541","tag":{"amenity":"waste_basket","waste":"dog_excrement"}},"type":"Feature"},
	{"geometry":{"coordinates":[-0.01728,51.667599],"type":"Point"},"properties":{"osm_id":"7899594542","tag":{"amenity":"waste_basket","waste":"dog_excrement"}},"type":"Feature"}
]
}
