{
"type": "FeatureCollection",
"features": [
	{"geometry":{"coordinates":[-0.019032,51.604184],"type":"Point"},"properties":{"osm_id":"251492818","tag":{"amenity":"recycling"}},"type":"Feature"},
	{"geometry":{"coordinates":[-0.074278,51.565341],"type":"Point"},"properties":{"osm_id":"369859308","tag":{"amenity":"waste_basket"}},"type":"Feature"},
	{"geometry":{"coordinates":[-0.073157,51.565293],"type":"Point"},"properties":{"osm_id":"369859334","tag":{"amenity":"waste_basket"}},"type":"Feature"},
	{"geometry":{"coordinates":[-0.073732,51.565487],"type":"Point"},"properties":{"osm_id":"369859335","tag":{"amenity":"waste_basket"}},"type":"Feature"},
	{"geometry":{"coordinates":[-0.073064,51.564922],"type":"Point"},"properties":{"osm_id":"369859337","tag":{"amenity":"waste_basket"}},"type":"Feature"},
	{"geometry":{"coordinates":[-0.073071,51.564811],"type":"Point"},"properties":{"osm_id":"369859338","tag":{"amenity":"waste_basket"}},"type":"Feature"},
	{"geometry":{"coordinates":[-0.073041,51.564272],"type":"Point"},"properties":{"osm_id":"369859339","tag":{"amenity":"waste_basket"}},"type":"Feature"},
	{"geometry":{"coordinates":[-0.073214,51.564779],"type":"Point"},"properties":{"osm_id":"374237923","tag":{"amenity":"waste_basket"}},"type":"Feature"},
	{"geometry":{"coordinates":[-0.073206,51.564644],"type":"Point"},"properties":{"osm_id":"374237943","tag":{"amenity":"waste_basket"}},"type":"Feature"},
	{"geometry":{"coordinates":[-0.073248,51.564111],"type":"Point"},"properties":{"osm_id":"374238049","tag":{"amenity":"waste_basket"}},"type":"Feature"},
	{"geometry":{"coordinates":[-0.07029,51.590088],"type":"Point"},"properties":{"osm_id":"529116431","tag":{"amenity":"recycling"}},"type":"Feature"},
	{"geometry":{"coordinates":[-0.065242,51.5706],"type":"Point"},"properties":{"osm_id":"619179964","tag":{"amenity":"recycling"}},"type":"Feature"},
	{"geometry":{"coordinates":[-0.064641,51.570294],"type":"Point"},"properties":{"osm_id":"686461751","tag":{"amenity":"recycling"}},"type":"Feature"},
	{"geometry":{"coordinates":[-0.064102,51.570017],"type":"Point"},"properties":{"osm_id":"686461752","tag":{"amenity":"recycling"}},"type":"Feature"},
	{"geometry":{"coordinates":[-0.072823,51.567539],"type":"Point"},"properties":{"osm_id":"687487629","tag":{"amenity":"recycling"}},"type":"Feature"},
	{"geometry":{"coordinates":[-0.061664,51.593669],"type":"Point"},"properties":{"name":"Recycling and Reuse Centre","osm_id":"1372629000","tag":{"amenity":"recycling","recycling:batteries":"yes","recycling:books":"yes","recycling:cans":"yes","recycling:cardboard":"yes","recycling:cartons":"yes","recycling:clothes":"yes","recycling:electrical_appliances":"yes","recycling:glass_bottles":"yes","recycling:green_waste":"yes","recycling:magazines":"yes","recycling:newspaper":"yes","recycling:paper":"yes","recycling:plastic_bottles":"yes","recycling:scrap_metal":"yes","recycling:small_appliances":"yes","recycling:waste":"yes","recycling:wood":"yes","recycling_type":"centre"}},"type":"Feature"},
	{"geometry":{"coordinates":[-0.003731,51.591902],"type":"Point"},"properties":{"osm_id":"1465227291","tag":{"amenity":"waste_basket"}},"type":"Feature"},
	{"geometry":{"coordinates":[-0.019058,51.594643],"type":"Point"},"properties":{"osm_id":"2257821081","tag":{"amenity":"waste_basket"}},"type":"Feature"},
	{"geometry":{"coordinates":[-0.018444,51.595405],"type":"Point"},"properties":{"osm_id":"2276518492","tag":{"amenity":"waste_basket"}},"type":"Feature"},
	{"geometry":{"coordinates":[-0.038414,51.573293],"type":"Point"},"properties":{"barrier":"gate","osm_id":"2375320901"},"type":"Feature"},
	{"geometry":{"coordinates":[-0.086504,51.617466],"type":"Point"},"properties":{"osm_id":"2431297954","tag":{"amenity":"waste_basket"}},"type":"Feature"},
	{"geometry":{"coordinates":[-0.085321,51.616536],"type":"Point"},"properties":{"osm_id":"2431351159","tag":{"amenity":"waste_basket"}},"type":"Feature"},
	{"geometry":{"coordinates":[-0.084475,51.616535],"type":"Point"},"properties":{"osm_id":"2431379060","tag":{"amenity":"waste_basket"}},"type":"Feature"},
	{"geometry":{"coordinates":[-0.086476,51.617782],"type":"Point"},"properties":{"osm_id":"2431430574","tag":{"amenity":"waste_basket"}},"type":"Feature"},
	{"geometry":{"coordinates":[-0.087818,51.615658],"type":"Point"},"properties":{"osm_id":"2431543687","tag":{"amenity":"waste_basket"}},"type":"Feature"},
	{"geometry":{"coordinates":[-0.067728,51.615784],"type":"Point"},"properties":{"osm_id":"2455473859","tag":{"amenity":"waste_basket","waste":"dog"}},"type":"Feature"},
	{"geometry":{"coordinates":[-0.067814,51.615806],"type":"Point"},"properties":{"osm_id":"2455473860","tag":{"amenity":"waste_basket"}},"type":"Feature"},
	{"geometry":{"coordinates":[-0.069547,51.615331],"type":"Point"},"properties":{"osm_id":"2455484947","tag":{"amenity":"waste_basket"}},"type":"Feature"},
	{"geometry":{"coordinates":[-0.069898,51.616847],"type":"Point"},"properties":{"osm_id":"2455484955","tag":{"amenity":"waste_basket","waste":"dog"}},"type":"Feature"},
	{"geometry":{"coordinates":[-0.070016,51.616839],"type":"Point"},"properties":{"osm_id":"2455484957","tag":{"amenity":"waste_basket"}},"type":"Feature"},
	{"geometry":{"coordinates":[-0.069474,51.616449],"type":"Point"},"properties":{"osm_id":"2455484958","tag":{"amenity":"waste_basket"}},"type":"Feature"},
	{"geometry":{"coordinates":[-0.069761,51.61531],"type":"Point"},"properties":{"osm_id":"2455500040","tag":{"amenity":"waste_basket"}},"type":"Feature"},
	{"geometry":{"coordinates":[-0.07015,51.615786],"type":"Point"},"properties":{"osm_id":"2455592262","tag":{"amenity":"waste_basket"}},"type":"Feature"},
	{"geometry":{"coordinates":[-0.069311,51.616102],"type":"Point"},"properties":{"osm_id":"2455687238","tag":{"amenity":"waste_basket"}},"type":"Feature"},
	{"geometry":{"coordinates":[-0.071712,51.617963],"type":"Point"},"properties":{"osm_id":"2455713245","tag":{"amenity":"waste_basket","waste":"dog"}},"type":"Feature"},
	{"geometry":{"coordinates":[-0.07268,51.615909],"type":"Point"},"properties":{"osm_id":"2455733058","tag":{"amenity":"waste_basket"}},"type":"Feature"},
	{"geometry":{"coordinates":[-0.072536,51.615782],"type":"Point"},"properties":{"osm_id":"2455733063","tag":{"amenity":"waste_basket","waste":"dog"}},"type":"Feature"},
	{"geometry":{"coordinates":[-0.010746,51.583123],"type":"Point"},"properties":{"osm_id":"2579751126","tag":{"amenity":"recycling"}},"type":"Feature"},
	{"geometry":{"coordinates":[-0.000289,51.587275],"type":"Point"},"properties":{"osm_id":"3098979585","tag":{"amenity":"waste_basket"}},"type":"Feature"},
	{"geometry":{"coordinates":[-0.05174,51.597101],"type":"Point"},"properties":{"osm_id":"3146267534","tag":{"amenity":"waste_basket","waste":"dog"}},"type":"Feature"},
	{"geometry":{"coordinates":[-0.050051,51.597792],"type":"Point"},"properties":{"name":"Stonebridge Rubbish Disposal","osm_id":"3146283022","tag":{"access":"customers","amenity":"waste_disposal","centralkey":"crt_watermate","operator":"Canal and River Trust","waste":"trash","waterway":"waste_disposal"}},"type":"Feature"},
	{"geometry":{"coordinates":[-0.058926,51.573069],"type":"Point"},"properties":{"osm_id":"3585980606","tag":{"amenity":"recycling","recycling_type":"container"}},"type":"Feature"},
	{"geometry":{"coordinates":[-0.041499,51.602453],"type":"Point"},"properties":{"osm_id":"3590263233","tag":{"amenity":"waste_basket","waste":"dog"}},"type":"Feature"},
	{"geometry":{"coordinates":[-0.041236,51.599817],"type":"Point"},"properties":{"osm_id":"3590314186","tag":{"amenity":"waste_basket","waste":"dog"}},"type":"Feature"},
	{"geometry":{"coordinates":[-0.018213,51.594594],"type":"Point"},"properties":{"osm_id":"3618367779","tag":{"amenity":"waste_basket"}},"type":"Feature"},
	{"geometry":{"coordinates":[-0.020991,51.593952],"type":"Point"},"properties":{"osm_id":"3618383674","tag":{"amenity":"waste_basket"}},"type":"Feature"},
	{"geometry":{"coordinates":[-0.021144,51.594354],"type":"Point"},"properties":{"osm_id":"3618383684","tag":{"amenity":"waste_basket"}},"type":"Feature"},
	{"geometry":{"coordinates":[-0.021012,51.592384],"type":"Point"},"properties":{"osm_id":"3618383689","tag":{"amenity":"waste_basket"}},"type":"Feature"},
	{"geometry":{"coordinates":[-0.021651,51.594059],"type":"Point"},"properties":{"osm_id":"3618395225","tag":{"amenity":"waste_basket"}},"type":"Feature"},
	{"geometry":{"coordinates":[-0.054529,51.602338],"type":"Point"},"properties":{"osm_id":"3627090764","tag":{"amenity":"waste_basket"}},"type":"Feature"},
	{"geometry":{"coordinates":[-0.041788,51.602774],"type":"Point"},"properties":{"osm_id":"3627167660","tag":{"amenity":"waste_basket","waste":"dog"}},"type":"Feature"},
	{"geometry":{"coordinates":[-0.053108,51.593062],"type":"Point"},"properties":{"osm_id":"3627174094","tag":{"amenity":"waste_basket"}},"type":"Feature"},
	{"geometry":{"coordinates":[-0.054653,51.587879],"type":"Point"},"properties":{"osm_id":"3627199261","tag":{"amenity":"waste_basket"}},"type":"Feature"},
	{"geometry":{"coordinates":[-0.053054,51.587723],"type":"Point"},"properties":{"osm_id":"3627211251","tag":{"amenity":"waste_basket"}},"type":"Feature"},
	{"geometry":{"coordinates":[-0.020655,51.591268],"type":"Point"},"properties":{"osm_id":"3654867973","tag":{"amenity":"waste_basket"}},"type":"Feature"},
	{"geometry":{"coordinates":[-0.021608,51.591276],"type":"Point"},"properties":{"osm_id":"3654867986","tag":{"amenity":"waste_basket"}},"type":"Feature"},
	{"geometry":{"coordinates":[-0.022112,51.593051],"type":"Point"},"properties":{"osm_id":"3654888798","tag":{"amenity":"waste_basket"}},"type":"Feature"},
	{"geometry":{"coordinates":[-0.021806,51.591716],"type":"Point"},"properties":{"osm_id":"3654888830","tag":{"amenity":"waste_basket"}},"type":"Feature"},
	{"geometry":{"coordinates":[-0.021027,51.593203],"type":"Point"},"properties":{"osm_id":"3654888836","tag":{"amenity":"waste_basket"}},"type":"Feature"},
	{"geometry":{"coordinates":[-0.021883,51.591717],"type":"Point"},"properties":{"osm_id":"3654888839","tag":{"amenity":"waste_basket"}},"type":"Feature"},
	{"geometry":{"coordinates":[-0.019571,51.592837],"type":"Point"},"properties":{"osm_id":"3654908738","tag":{"amenity":"waste_basket"}},"type":"Feature"},
	{"geometry":{"coordinates":[-0.021114,51.594888],"type":"Point"},"properties":{"osm_id":"3654920628","tag":{"amenity":"waste_basket"}},"type":"Feature"},
	{"geometry":{"coordinates":[-0.021337,51.595595],"type":"Point"},"properties":{"osm_id":"3654920639","tag":{"amenity":"waste_basket"}},"type":"Feature"},
	{"geometry":{"coordinates":[-0.061176,51.591121],"type":"Point"},"properties":{"osm_id":"3664970900","tag":{"amenity":"waste_basket","waste":"dog"}},"type":"Feature"},
	{"geometry":{"coordinates":[-0.061408,51.590778],"type":"Point"},"properties":{"name":"Restore Community Projects","osm_id":"3664971035","tag":{"addr:housenumber":"18","addr:street":"Ashley Road","amenity":"recycling","website":"http://www.restorecommunityprojects.org/"}},"type":"Feature"},
	{"geometry":{"coordinates":[-0.060757,51.593389],"type":"Point"},"properties":{"osm_id":"3664977908","tag":{"amenity":"waste_basket","waste":"dog"}},"type":"Feature"},
	{"geometry":{"coordinates":[-0.079796,51.564796],"type":"Point"},"properties":{"osm_id":"3785290406","tag":{"amenity":"waste_basket"}},"type":"Feature"},
	{"geometry":{"coordinates":[-0.078071,51.564439],"type":"Point"},"properties":{"osm_id":"3785290408","tag":{"amenity":"waste_basket"}},"type":"Feature"},
	{"geometry":{"coordinates":[-0.078219,51.564033],"type":"Point"},"properties":{"osm_id":"3785331905","tag":{"amenity":"waste_basket"}},"type":"Feature"},
	{"geometry":{"coordinates":[-0.086461,51.563606],"type":"Point"},"properties":{"osm_id":"3785442490","tag":{"amenity":"waste_basket"}},"type":"Feature"},
	{"geometry":{"coordinates":[-0.086791,51.563748],"type":"Point"},"properties":{"osm_id":"3785442509","tag":{"amenity":"waste_basket"}},"type":"Feature"},
	{"geometry":{"coordinates":[-0.087419,51.569078],"type":"Point"},"properties":{"osm_id":"3811567156","tag":{"amenity":"recycling"}},"type":"Feature"},
	{"geometry":{"coordinates":[-0.022378,51.593898],"type":"Point"},"properties":{"osm_id":"3836544929","tag":{"amenity":"waste_basket"}},"type":"Feature"},
	{"geometry":{"coordinates":[-0.022749,51.595205],"type":"Point"},"properties":{"osm_id":"3836544930","tag":{"amenity":"waste_basket"}},"type":"Feature"},
	{"geometry":{"coordinates":[-0.019972,51.596241],"type":"Point"},"properties":{"osm_id":"3836544931","tag":{"amenity":"waste_basket"}},"type":"Feature"},
	{"geometry":{"coordinates":[-0.021529,51.596341],"type":"Point"},"properties":{"osm_id":"3836544932","tag":{"amenity":"waste_basket"}},"type":"Feature"},
	{"geometry":{"coordinates":[-0.037548,51.596855],"type":"Point"},"properties":{"osm_id":"3954111110","tag":{"amenity":"waste_basket"}},"type":"Feature"},
	{"geometry":{"coordinates":[-0.038259,51.597624],"type":"Point"},"properties":{"osm_id":"3954111113","tag":{"amenity":"waste_basket"}},"type":"Feature"},
	{"geometry":{"coordinates":[-0.038509,51.598033],"type":"Point"},"properties":{"osm_id":"3954111122","tag":{"amenity":"waste_basket"}},"type":"Feature"},
	{"geometry":{"coordinates":[-0.068101,51.615444],"type":"Point"},"properties":{"osm_id":"3954129051","tag":{"amenity":"waste_basket"}},"type":"Feature"},
	{"geometry":{"coordinates":[-0.071725,51.615162],"type":"Point"},"properties":{"osm_id":"3954156191","tag":{"amenity":"waste_basket"}},"type":"Feature"},
	{"geometry":{"coordinates":[-0.072154,51.617144],"type":"Point"},"properties":{"osm_id":"3954156206","tag":{"amenity":"waste_basket"}},"type":"Feature"},
	{"geometry":{"coordinates":[-0.07055,51.61501],"type":"Point"},"properties":{"osm_id":"3954156230","tag":{"amenity":"waste_basket"}},"type":"Feature"},
	{"geometry":{"coordinates":[-0.071942,51.617547],"type":"Point"},"properties":{"osm_id":"3954156238","tag":{"amenity":"waste_basket","waste":"dog"}},"type":"Feature"},
	{"geometry":{"coordinates":[-0.071811,51.617379],"type":"Point"},"properties":{"osm_id":"3954156242","tag":{"amenity":"waste_basket"}},"type":"Feature"},
	{"geometry":{"coordinates":[-0.071465,51.615077],"type":"Point"},"properties":{"osm_id":"3954156244","tag":{"amenity":"waste_basket"}},"type":"Feature"},
	{"geometry":{"coordinates":[-0.069869,51.616781],"type":"Point"},"properties":{"osm_id":"3954187946","tag":{"amenity":"waste_basket"}},"type":"Feature"},
	{"geometry":{"coordinates":[-0.069845,51.58323],"type":"Point"},"properties":{"osm_id":"4003408117","tag":{"amenity":"waste_basket"}},"type":"Feature"},
	{"geometry":{"coordinates":[-0.069501,51.583157],"type":"Point"},"properties":{"osm_id":"4003408119","tag":{"amenity":"waste_basket","waste":"dog_excrement"}},"type":"Feature"},
	{"geometry":{"coordinates":[-0.071476,51.583897],"type":"Point"},"properties":{"osm_id":"4003408123","tag":{"amenity":"waste_basket"}},"type":"Feature"},
	{"geometry":{"coordinates":[-0.070308,51.583889],"type":"Point"},"properties":{"osm_id":"4003408126","tag":{"amenity":"waste_basket"}},"type":"Feature"},
	{"geometry":{"coordinates":[-0.07124,51.583923],"type":"Point"},"properties":{"osm_id":"4003408128","tag":{"amenity":"waste_basket"}},"type":"Feature"},
	{"geometry":{"coordinates":[-0.062941,51.591073],"type":"Point"},"properties":{"osm_id":"4007442640","tag":{"amenity":"waste_basket"}},"type":"Feature"},
	{"geometry":{"coordinates":[-0.029443,51.601692],"type":"Point"},"properties":{"osm_id":"4090413044","tag":{"amenity":"waste_basket"}},"type":"Feature"},
	{"geometry":{"coordinates":[-0.027479,51.601263],"type":"Point"},"properties":{"osm_id":"4151750744","tag":{"amenity":"waste_basket"}},"type":"Feature"},
	{"geometry":{"coordinates":[-0.037503,51.596754],"type":"Point"},"properties":{"osm_id":"4166128891","tag":{"amenity":"waste_basket"}},"type":"Feature"},
	{"geometry":{"coordinates":[-0.036653,51.597222],"type":"Point"},"properties":{"osm_id":"4166128894","tag":{"amenity":"waste_basket"}},"type":"Feature"},
	{"geometry":{"coordinates":[-0.038024,51.597244],"type":"Point"},"properties":{"osm_id":"4166128895","tag":{"amenity":"waste_basket"}},"type":"Feature"},
	{"geometry":{"coordinates":[-0.036703,51.59743],"type":"Point"},"properties":{"osm_id":"4166128898","tag":{"amenity":"waste_basket"}},"type":"Feature"},
	{"geometry":{"coordinates":[-0.036909,51.597815],"type":"Point"},"properties":{"osm_id":"4166128900","tag":{"amenity":"waste_basket"}},"type":"Feature"},
	{"geometry":{"coordinates":[-0.037175,51.598009],"type":"Point"},"properties":{"osm_id":"4166128901","tag":{"amenity":"waste_basket"}},"type":"Feature"},
	{"geometry":{"coordinates":[-0.037675,51.597998],"type":"Point"},"properties":{"osm_id":"4166128903","tag":{"amenity":"waste_basket"}},"type":"Feature"},
	{"geometry":{"coordinates":[-0.038528,51.598113],"type":"Point"},"properties":{"osm_id":"4166128904","tag":{"amenity":"waste_basket"}},"type":"Feature"},
	{"geometry":{"coordinates":[-0.03736,51.598329],"type":"Point"},"properties":{"osm_id":"4166128906","tag":{"amenity":"waste_basket"}},"type":"Feature"},
	{"geometry":{"coordinates":[-0.064437,51.579536],"type":"Point"},"properties":{"osm_id":"4184098091","tag":{"amenity":"waste_basket"}},"type":"Feature"},
	{"geometry":{"coordinates":[-0.064499,51.57957],"type":"Point"},"properties":{"osm_id":"4184117297","tag":{"amenity":"waste_basket","waste":"dog_excrement"}},"type":"Feature"},
	{"geometry":{"coordinates":[-0.065184,51.581052],"type":"Point"},"properties":{"osm_id":"4184117300","tag":{"amenity":"waste_basket","waste":"dog_excrement"}},"type":"Feature"},
	{"geometry":{"coordinates":[-0.064966,51.581185],"type":"Point"},"properties":{"osm_id":"4184117303","tag":{"amenity":"recycling"}},"type":"Feature"},
	{"geometry":{"coordinates":[-0.064554,51.57959],"type":"Point"},"properties":{"osm_id":"4184117307","tag":{"amenity":"waste_basket"}},"type":"Feature"},
	{"geometry":{"coordinates":[-0.065044,51.581291],"type":"Point"},"properties":{"osm_id":"4184117309","tag":{"amenity":"waste_basket"}},"type":"Feature"},
	{"geometry":{"coordinates":[-0.064829,51.580243],"type":"Point"},"properties":{"osm_id":"4184117315","tag":{"amenity":"waste_basket"}},"type":"Feature"},
	{"geometry":{"coordinates":[-0.065264,51.58108],"type":"Point"},"properties":{"osm_id":"4184117325","tag":{"amenity":"waste_basket"}},"type":"Feature"},
	{"geometry":{"coordinates":[-0.063088,51.581575],"type":"Point"},"properties":{"osm_id":"4184150331","tag":{"amenity":"waste_basket"}},"type":"Feature"},
	{"geometry":{"coordinates":[-0.062015,51.581897],"type":"Point"},"properties":{"osm_id":"4184171009","tag":{"amenity":"waste_basket"}},"type":"Feature"},
	{"geometry":{"coordinates":[-0.060306,51.581608],"type":"Point"},"properties":{"osm_id":"4184217431","tag":{"amenity":"waste_basket"}},"type":"Feature"},
	{"geometry":{"coordinates":[-0.061768,51.581195],"type":"Point"},"properties":{"osm_id":"4184234079","tag":{"amenity":"waste_basket"}},"type":"Feature"},
	{"geometry":{"coordinates":[-0.061027,51.58123],"type":"Point"},"properties":{"osm_id":"4184234087","tag":{"amenity":"waste_basket"}},"type":"Feature"},
	{"geometry":{"coordinates":[-0.061055,51.581158],"type":"Point"},"properties":{"osm_id":"4184234088","tag":{"amenity":"waste_basket","waste":"dog_excrement"}},"type":"Feature"},
	{"geometry":{"coordinates":[-0.061873,51.580715],"type":"Point"},"properties":{"osm_id":"4184236689","tag":{"amenity":"waste_basket","waste":"dog_excrement"}},"type":"Feature"},
	{"geometry":{"coordinates":[-0.062474,51.579932],"type":"Point"},"properties":{"osm_id":"4184243511","tag":{"amenity":"waste_basket","waste":"dog_excrement"}},"type":"Feature"},
	{"geometry":{"coordinates":[-0.06311,51.579757],"type":"Point"},"properties":{"osm_id":"4184243516","tag":{"amenity":"waste_basket","waste":"dog_excrement"}},"type":"Feature"},
	{"geometry":{"coordinates":[-0.062399,51.579997],"type":"Point"},"properties":{"osm_id":"4184243523","tag":{"amenity":"waste_basket"}},"type":"Feature"},
	{"geometry":{"coordinates":[-0.064135,51.581295],"type":"Point"},"properties":{"osm_id":"4184243527","tag":{"amenity":"waste_basket"}},"type":"Feature"},
	{"geometry":{"coordinates":[-0.062439,51.581488],"type":"Point"},"properties":{"osm_id":"4184243528","tag":{"amenity":"waste_basket"}},"type":"Feature"},
	{"geometry":{"coordinates":[-0.057279,51.583537],"type":"Point"},"properties":{"osm_id":"4184278226","tag":{"amenity":"waste_basket","waste":"dog_excrement"}},"type":"Feature"},
	{"geometry":{"coordinates":[-0.056887,51.587143],"type":"Point"},"properties":{"osm_id":"4184299015","tag":{"amenity":"waste_basket"}},"type":"Feature"},
	{"geometry":{"coordinates":[-0.056656,51.585873],"type":"Point"},"properties":{"osm_id":"4184299018","tag":{"amenity":"waste_basket"}},"type":"Feature"},
	{"geometry":{"coordinates":[-0.056699,51.586588],"type":"Point"},"properties":{"osm_id":"4184299024","tag":{"amenity":"waste_basket"}},"type":"Feature"},
	{"geometry":{"coordinates":[-0.036349,51.566465],"type":"Point"},"properties":{"osm_id":"4193801125","tag":{"amenity":"waste_basket"}},"type":"Feature"},
	{"geometry":{"coordinates":[-0.036199,51.566514],"type":"Point"},"properties":{"osm_id":"4193832745","tag":{"amenity":"waste_basket"}},"type":"Feature"},
	{"geometry":{"coordinates":[-0.036607,51.566774],"type":"Point"},"properties":{"osm_id":"4193858219","tag":{"amenity":"waste_basket"}},"type":"Feature"},
	{"geometry":{"coordinates":[-0.036736,51.5668],"type":"Point"},"properties":{"osm_id":"4193858268","tag":{"amenity":"waste_basket"}},"type":"Feature"},
	{"geometry":{"coordinates":[-0.02811,51.563691],"type":"Point"},"properties":{"osm_id":"4195904337","tag":{"amenity":"recycling"}},"type":"Feature"},
	{"geometry":{"coordinates":[-0.02605,51.564186],"type":"Point"},"properties":{"osm_id":"4195904343","tag":{"amenity":"recycling"}},"type":"Feature"},
	{"geometry":{"coordinates":[-0.026308,51.564939],"type":"Point"},"properties":{"osm_id":"4195904350","tag":{"amenity":"recycling"}},"type":"Feature"},
	{"geometry":{"coordinates":[-0.004507,51.590309],"type":"Point"},"properties":{"osm_id":"4212508184","tag":{"amenity":"waste_basket"}},"type":"Feature"},
	{"geometry":{"coordinates":[-0.004369,51.589506],"type":"Point"},"properties":{"osm_id":"4212538810","tag":{"amenity":"waste_basket"}},"type":"Feature"},
	{"geometry":{"coordinates":[-0.004249,51.589867],"type":"Point"},"properties":{"osm_id":"4212538812","tag":{"amenity":"waste_basket"}},"type":"Feature"},
	{"geometry":{"coordinates":[-0.004833,51.591158],"type":"Point"},"properties":{"osm_id":"4212538815","tag":{"amenity":"waste_basket"}},"type":"Feature"},
	{"geometry":{"coordinates":[-0.004188,51.588329],"type":"Point"},"properties":{"osm_id":"4215514516","tag":{"amenity":"waste_basket"}},"type":"Feature"},
	{"geometry":{"coordinates":[-0.003921,51.588093],"type":"Point"},"properties":{"osm_id":"4215529432","tag":{"amenity":"waste_basket"}},"type":"Feature"},
	{"geometry":{"coordinates":[-0.002951,51.586675],"type":"Point"},"properties":{"osm_id":"4215689223","tag":{"amenity":"waste_basket"}},"type":"Feature"},
	{"geometry":{"coordinates":[-0.003755,51.587323],"type":"Point"},"properties":{"osm_id":"4215689227","tag":{"amenity":"waste_basket"}},"type":"Feature"},
	{"geometry":{"coordinates":[-0.036053,51.587695],"type":"Point"},"properties":{"osm_id":"4225633184","tag":{"amenity":"waste_basket"}},"type":"Feature"},
	{"geometry":{"coordinates":[-0.033243,51.580971],"type":"Point"},"properties":{"osm_id":"4239016689","tag":{"amenity":"waste_basket"}},"type":"Feature"},
	{"geometry":{"coordinates":[-0.033199,51.581184],"type":"Point"},"properties":{"osm_id":"4239016691","tag":{"amenity":"waste_basket"}},"type":"Feature"},
	{"geometry":{"coordinates":[-0.033538,51.581358],"type":"Point"},"properties":{"osm_id":"4239016692","tag":{"amenity":"waste_basket"}},"type":"Feature"},
	{"geometry":{"coordinates":[-0.033989,51.581525],"type":"Point"},"properties":{"osm_id":"4239016693","tag":{"amenity":"waste_basket"}},"type":"Feature"},
	{"geometry":{"coordinates":[-0.031851,51.581832],"type":"Point"},"properties":{"osm_id":"4239016700","tag":{"amenity":"waste_basket"}},"type":"Feature"},
	{"geometry":{"coordinates":[-0.031158,51.582075],"type":"Point"},"properties":{"osm_id":"4239016706","tag":{"amenity":"waste_basket"}},"type":"Feature"},
	{"geometry":{"coordinates":[-0.029283,51.582574],"type":"Point"},"properties":{"osm_id":"4239016708","tag":{"amenity":"waste_basket"}},"type":"Feature"},
	{"geometry":{"coordinates":[-0.02802,51.582826],"type":"Point"},"properties":{"osm_id":"4239016710","tag":{"amenity":"waste_basket"}},"type":"Feature"},
	{"geometry":{"coordinates":[-0.027948,51.582923],"type":"Point"},"properties":{"osm_id":"4239016711","tag":{"amenity":"waste_basket"}},"type":"Feature"},
	{"geometry":{"coordinates":[-0.028385,51.58342],"type":"Point"},"properties":{"osm_id":"4239016719","tag":{"amenity":"waste_basket"}},"type":"Feature"},
	{"geometry":{"coordinates":[-0.025965,51.583563],"type":"Point"},"properties":{"osm_id":"4239016720","tag":{"amenity":"waste_basket"}},"type":"Feature"},
	{"geometry":{"coordinates":[-0.028576,51.583642],"type":"Point"},"properties":{"osm_id":"4239016721","tag":{"amenity":"waste_basket"}},"type":"Feature"},
	{"geometry":{"coordinates":[-0.025036,51.58394],"type":"Point"},"properties":{"osm_id":"4239016725","tag":{"amenity":"waste_basket"}},"type":"Feature"},
	{"geometry":{"coordinates":[-0.022921,51.584343],"type":"Point"},"properties":{"osm_id":"4239016732","tag":{"amenity":"waste_basket"}},"type":"Feature"},
	{"geometry":{"coordinates":[-0.021021,51.584542],"type":"Point"},"properties":{"osm_id":"4239016737","tag":{"amenity":"waste_basket"}},"type":"Feature"},
	{"geometry":{"coordinates":[-0.020311,51.584694],"type":"Point"},"properties":{"osm_id":"4239016739","tag":{"amenity":"waste_basket"}},"type":"Feature"},
	{"geometry":{"coordinates":[-0.020061,51.584731],"type":"Point"},"properties":{"osm_id":"4239016740","tag":{"amenity":"waste_basket"}},"type":"Feature"},
	{"geometry":{"coordinates":[-0.01965,51.58476],"type":"Point"},"properties":{"osm_id":"4239016742","tag":{"amenity":"waste_basket"}},"type":"Feature"},
	{"geometry":{"coordinates":[-0.022332,51.596175],"type":"Point"},"properties":{"osm_id":"4249940901","tag":{"amenity":"waste_basket"}},"type":"Feature"},
	{"geometry":{"coordinates":[-0.030041,51.57803],"type":"Point"},"properties":{"osm_id":"4341770635","tag":{"amenity":"recycling","recycling:clothes":"yes"}},"type":"Feature"},
	{"geometry":{"coordinates":[-0.024499,51.570678],"type":"Point"},"properties":{"osm_id":"4341783916","tag":{"amenity":"waste_basket","waste":"trash"}},"type":"Feature"},
	{"geometry":{"coordinates":[-0.022507,51.571389],"type":"Point"},"properties":{"osm_id":"4341783918","tag":{"amenity":"waste_basket","waste":"trash"}},"type":"Feature"},
	{"geometry":{"coordinates":[-0.027809,51.572909],"type":"Point"},"properties":{"osm_id":"4341783919","tag":{"amenity":"waste_basket"}},"type":"Feature"},
	{"geometry":{"coordinates":[-0.009502,51.573887],"type":"Point"},"properties":{"osm_id":"4341813718","tag":{"amenity":"waste_basket"}},"type":"Feature"},
	{"geometry":{"coordinates":[-0.014496,51.574254],"type":"Point"},"properties":{"osm_id":"4341813723","tag":{"amenity":"waste_basket"}},"type":"Feature"},
	{"geometry":{"coordinates":[-0.010616,51.574317],"type":"Point"},"properties":{"osm_id":"4341813730","tag":{"amenity":"waste_basket"}},"type":"Feature"},
	{"geometry":{"coordinates":[-0.072591,51.615978],"type":"Point"},"properties":{"osm_id":"4347044541","tag":{"amenity":"waste_basket"}},"type":"Feature"},
	{"geometry":{"coordinates":[-0.069437,51.616378],"type":"Point"},"properties":{"osm_id":"4347044542","tag":{"amenity":"waste_basket"}},"type":"Feature"},
	{"geometry":{"coordinates":[-0.070102,51.616205],"type":"Point"},"properties":{"osm_id":"4347044543","tag":{"amenity":"waste_basket"}},"type":"Feature"},
	{"geometry":{"coordinates":[-0.071811,51.61618],"type":"Point"},"properties":{"osm_id":"4347044548","tag":{"amenity":"waste_basket"}},"type":"Feature"},
	{"geometry":{"coordinates":[-0.009785,51.592856],"type":"Point"},"properties":{"osm_id":"4379709348","tag":{"amenity":"waste_basket"}},"type":"Feature"},
	{"geometry":{"coordinates":[-0.013733,51.592642],"type":"Point"},"properties":{"osm_id":"4379756717","tag":{"amenity":"waste_basket"}},"type":"Feature"},
	{"geometry":{"coordinates":[-0.020717,51.591837],"type":"Point"},"properties":{"osm_id":"4409756528","tag":{"amenity":"waste_basket"}},"type":"Feature"},
	{"geometry":{"coordinates":[-0.019647,51.594578],"type":"Point"},"properties":{"osm_id":"4409767299","tag":{"amenity":"waste_basket"}},"type":"Feature"},
	{"geometry":{"coordinates":[-0.020943,51.592216],"type":"Point"},"properties":{"osm_id":"4409767305","tag":{"amenity":"waste_basket"}},"type":"Feature"},
	{"geometry":{"coordinates":[-0.010423,51.572064],"type":"Point"},"properties":{"osm_id":"4411711452","tag":{"amenity":"waste_basket"}},"type":"Feature"},
	{"geometry":{"coordinates":[-0.010582,51.572205],"type":"Point"},"properties":{"osm_id":"4411711456","tag":{"amenity":"waste_basket"}},"type":"Feature"},
	{"geometry":{"coordinates":[-0.01076,51.572343],"type":"Point"},"properties":{"osm_id":"4411711459","tag":{"amenity":"waste_basket"}},"type":"Feature"},
	{"geometry":{"coordinates":[-0.062061,51.58164],"type":"Point"},"properties":{"osm_id":"4411761978","tag":{"amenity":"waste_basket"}},"type":"Feature"},
	{"geometry":{"coordinates":[-0.027327,51.56379],"type":"Point"},"properties":{"osm_id":"4415411279","tag":{"amenity":"waste_basket"}},"type":"Feature"},
	{"geometry":{"coordinates":[-0.023961,51.564125],"type":"Point"},"properties":{"osm_id":"4416883906","tag":{"amenity":"waste_basket"}},"type":"Feature"},
	{"geometry":{"coordinates":[-0.02397,51.564485],"type":"Point"},"properties":{"osm_id":"4416883911","tag":{"amenity":"waste_basket"}},"type":"Feature"},
	{"geometry":{"coordinates":[-0.023849,51.564513],"type":"Point"},"properties":{"osm_id":"4416883912","tag":{"amenity":"waste_basket"}},"type":"Feature"},
	{"geometry":{"coordinates":[-0.013219,51.574976],"type":"Point"},"properties":{"osm_id":"4421068401","tag":{"amenity":"waste_basket"}},"type":"Feature"},
	{"geometry":{"coordinates":[-0.011617,51.576433],"type":"Point"},"properties":{"osm_id":"4496330275","tag":{"amenity":"waste_basket"}},"type":"Feature"},
	{"geometry":{"coordinates":[-0.014204,51.575811],"type":"Point"},"properties":{"osm_id":"4496395391","tag":{"amenity":"waste_basket"}},"type":"Feature"},
	{"geometry":{"coordinates":[-0.015687,51.576499],"type":"Point"},"properties":{"osm_id":"4496395394","tag":{"amenity":"waste_basket"}},"type":"Feature"},
	{"geometry":{"coordinates":[-0.015836,51.576665],"type":"Point"},"properties":{"osm_id":"4496395395","tag":{"amenity":"waste_basket"}},"type":"Feature"},
	{"geometry":{"coordinates":[-0.014283,51.575978],"type":"Point"},"properties":{"osm_id":"4496395396","tag":{"amenity":"waste_basket"}},"type":"Feature"},
	{"geometry":{"coordinates":[-0.01481,51.576198],"type":"Point"},"properties":{"osm_id":"4496395397","tag":{"amenity":"waste_basket"}},"type":"Feature"},
	{"geometry":{"coordinates":[-0.015514,51.576566],"type":"Point"},"properties":{"osm_id":"4496395398","tag":{"amenity":"waste_basket"}},"type":"Feature"},
	{"geometry":{"coordinates":[-0.011713,51.576165],"type":"Point"},"properties":{"osm_id":"4505733503","tag":{"amenity":"waste_basket"}},"type":"Feature"},
	{"geometry":{"coordinates":[-0.011624,51.574606],"type":"Point"},"properties":{"osm_id":"4510987294","tag":{"amenity":"waste_basket"}},"type":"Feature"},
	{"geometry":{"coordinates":[-0.011542,51.574722],"type":"Point"},"properties":{"osm_id":"4512011524","tag":{"amenity":"waste_basket"}},"type":"Feature"},
	{"geometry":{"coordinates":[-0.012171,51.575003],"type":"Point"},"properties":{"osm_id":"4512011526","tag":{"amenity":"waste_basket"}},"type":"Feature"},
	{"geometry":{"coordinates":[-0.013837,51.572348],"type":"Point"},"properties":{"osm_id":"4524356362","tag":{"amenity":"waste_basket"}},"type":"Feature"},
	{"geometry":{"coordinates":[-0.014289,51.572584],"type":"Point"},"properties":{"osm_id":"4524356363","tag":{"amenity":"waste_basket"}},"type":"Feature"},
	{"geometry":{"coordinates":[-0.014567,51.572468],"type":"Point"},"properties":{"osm_id":"4524356364","tag":{"amenity":"waste_basket"}},"type":"Feature"},
	{"geometry":{"coordinates":[-0.015724,51.601403],"type":"Point"},"properties":{"osm_id":"4530802154","tag":{"amenity":"waste_basket"}},"type":"Feature"},
	{"geometry":{"coordinates":[-0.004978,51.600986],"type":"Point"},"properties":{"osm_id":"4535268501","tag":{"amenity":"waste_basket"}},"type":"Feature"},
	{"geometry":{"coordinates":[-0.005312,51.600799],"type":"Point"},"properties":{"osm_id":"4535268502","tag":{"amenity":"waste_basket"}},"type":"Feature"},
	{"geometry":{"coordinates":[-0.007673,51.600741],"type":"Point"},"properties":{"osm_id":"4535268503","tag":{"amenity":"waste_basket"}},"type":"Feature"},
	{"geometry":{"coordinates":[-0.001302,51.598289],"type":"Point"},"properties":{"osm_id":"4537948724","tag":{"amenity":"waste_basket"}},"type":"Feature"},
	{"geometry":{"coordinates":[-0.009992,51.577034],"type":"Point"},"properties":{"osm_id":"4549825226","tag":{"amenity":"waste_basket"}},"type":"Feature"},
	{"geometry":{"coordinates":[-0.016882,51.594036],"type":"Point"},"properties":{"osm_id":"4551793791","tag":{"amenity":"waste_basket"}},"type":"Feature"},
	{"geometry":{"coordinates":[-0.017155,51.593966],"type":"Point"},"properties":{"osm_id":"4551793792","tag":{"amenity":"waste_basket"}},"type":"Feature"},
	{"geometry":{"coordinates":[-0.012341,51.582708],"type":"Point"},"properties":{"osm_id":"4558769041","tag":{"amenity":"waste_basket"}},"type":"Feature"},
	{"geometry":{"coordinates":[-0.012302,51.582618],"type":"Point"},"properties":{"osm_id":"4558769042","tag":{"amenity":"waste_basket"}},"type":"Feature"},
	{"geometry":{"coordinates":[-0.012252,51.582527],"type":"Point"},"properties":{"osm_id":"4558769043","tag":{"amenity":"waste_basket"}},"type":"Feature"},
	{"geometry":{"coordinates":[-0.013608,51.582183],"type":"Point"},"properties":{"osm_id":"4558769048","tag":{"amenity":"waste_basket"}},"type":"Feature"},
	{"geometry":{"coordinates":[-0.013526,51.591647],"type":"Point"},"properties":{"osm_id":"4568349067","tag":{"amenity":"waste_basket"}},"type":"Feature"},
	{"geometry":{"coordinates":[-0.012407,51.592588],"type":"Point"},"properties":{"osm_id":"4568349068","tag":{"amenity":"waste_basket"}},"type":"Feature"},
	{"geometry":{"coordinates":[-0.021219,51.593371],"type":"Point"},"properties":{"osm_id":"4572940498","tag":{"amenity":"waste_basket"}},"type":"Feature"},
	{"geometry":{"coordinates":[-0.021215,51.593283],"type":"Point"},"properties":{"osm_id":"4572940499","tag":{"amenity":"waste_basket"}},"type":"Feature"},
	{"geometry":{"coordinates":[-0.019955,51.592748],"type":"Point"},"properties":{"osm_id":"4572940528","tag":{"amenity":"waste_basket"}},"type":"Feature"},
	{"geometry":{"coordinates":[-0.021056,51.594544],"type":"Point"},"properties":{"osm_id":"4573356092","tag":{"amenity":"waste_basket"}},"type":"Feature"},
	{"geometry":{"coordinates":[-0.016534,51.604082],"type":"Point"},"properties":{"osm_id":"4575677104","tag":{"amenity":"waste_basket"}},"type":"Feature"},
	{"geometry":{"coordinates":[-0.019392,51.604388],"type":"Point"},"properties":{"osm_id":"4575686569","tag":{"amenity":"waste_basket"}},"type":"Feature"},
	{"geometry":{"coordinates":[-0.015877,51.59963],"type":"Point"},"properties":{"osm_id":"4575746858","tag":{"amenity":"waste_basket"}},"type":"Feature"},
	{"geometry":{"coordinates":[-0.034343,51.584231],"type":"Point"},"properties":{"osm_id":"4578051915","tag":{"amenity":"waste_basket"}},"type":"Feature"},
	{"geometry":{"coordinates":[-0.018418,51.59033],"type":"Point"},"properties":{"osm_id":"4585068970","tag":{"amenity":"waste_basket"}},"type":"Feature"},
	{"geometry":{"coordinates":[-0.019433,51.590755],"type":"Point"},"properties":{"osm_id":"4585068983","tag":{"amenity":"waste_basket"}},"type":"Feature"},
	{"geometry":{"coordinates":[-0.019144,51.589157],"type":"Point"},"properties":{"osm_id":"4585121565","tag":{"amenity":"waste_basket"}},"type":"Feature"},
	{"geometry":{"coordinates":[-0.018677,51.589475],"type":"Point"},"properties":{"osm_id":"4585121573","tag":{"amenity":"waste_basket"}},"type":"Feature"},
	{"geometry":{"coordinates":[-0.018528,51.590498],"type":"Point"},"properties":{"osm_id":"4585121575","tag":{"amenity":"waste_basket"}},"type":"Feature"},
	{"geometry":{"coordinates":[-0.020452,51.58665],"type":"Point"},"properties":{"osm_id":"4585147092","tag":{"amenity":"waste_basket"}},"type":"Feature"},
	{"geometry":{"coordinates":[-0.020858,51.587566],"type":"Point"},"properties":{"osm_id":"4585147093","tag":{"amenity":"waste_basket"}},"type":"Feature"},
	{"geometry":{"coordinates":[-0.018673,51.585136],"type":"Point"},"properties":{"osm_id":"4585619538","tag":{"amenity":"waste_basket"}},"type":"Feature"},
	{"geometry":{"coordinates":[-0.019205,51.585028],"type":"Point"},"properties":{"osm_id":"4585619540","tag":{"amenity":"waste_basket"}},"type":"Feature"},
	{"geometry":{"coordinates":[-0.019678,51.584914],"type":"Point"},"properties":{"osm_id":"4585619541","tag":{"amenity":"waste_basket"}},"type":"Feature"},
	{"geometry":{"coordinates":[-0.019475,51.585413],"type":"Point"},"properties":{"osm_id":"4585619544","tag":{"amenity":"waste_basket"}},"type":"Feature"},
	{"geometry":{"coordinates":[-0.019718,51.585457],"type":"Point"},"properties":{"osm_id":"4585619545","tag":{"amenity":"waste_basket"}},"type":"Feature"},
	{"geometry":{"coordinates":[-0.019664,51.586268],"type":"Point"},"properties":{"osm_id":"4585619548","tag":{"amenity":"waste_basket"}},"type":"Feature"},
	{"geometry":{"coordinates":[-0.008875,51.574302],"type":"Point"},"properties":{"osm_id":"4588992260","tag":{"amenity":"waste_basket"}},"type":"Feature"},
	{"geometry":{"coordinates":[-0.004639,51.577053],"type":"Point"},"properties":{"osm_id":"4588992261","tag":{"amenity":"waste_basket"}},"type":"Feature"},
	{"geometry":{"coordinates":[-0.024626,51.608348],"type":"Point"},"properties":{"osm_id":"4601764291","tag":{"amenity":"waste_basket"}},"type":"Feature"},
	{"geometry":{"coordinates":[-0.003983,51.600257],"type":"Point"},"properties":{"osm_id":"4607696232","tag":{"amenity":"waste_basket"}},"type":"Feature"},
	{"geometry":{"coordinates":[-0.002384,51.604454],"type":"Point"},"properties":{"osm_id":"4617144522","tag":{"amenity":"waste_basket"}},"type":"Feature"},
	{"geometry":{"coordinates":[-0.001101,51.604187],"type":"Point"},"properties":{"osm_id":"4617144523","tag":{"amenity":"waste_basket"}},"type":"Feature"},
	{"geometry":{"coordinates":[-0.001534,51.606685],"type":"Point"},"properties":{"osm_id":"4626792753","tag":{"amenity":"waste_basket"}},"type":"Feature"},
	{"geometry":{"coordinates":[-0.0014,51.606673],"type":"Point"},"properties":{"osm_id":"4633135422","tag":{"amenity":"waste_basket"}},"type":"Feature"},
	{"geometry":{"coordinates":[-0.001166,51.607556],"type":"Point"},"properties":{"osm_id":"4636818548","tag":{"amenity":"waste_basket"}},"type":"Feature"},
	{"geometry":{"coordinates":[-0.004645,51.608203],"type":"Point"},"properties":{"osm_id":"4646604473","tag":{"amenity":"waste_basket"}},"type":"Feature"},
	{"geometry":{"coordinates":[-0.071395,51.617958],"type":"Point"},"properties":{"osm_id":"4651015812","tag":{"amenity":"waste_basket","waste":"dog_excrement"}},"type":"Feature"},
	{"geometry":{"coordinates":[-0.021667,51.592096],"type":"Point"},"properties":{"osm_id":"4672377152","tag":{"amenity":"waste_basket"}},"type":"Feature"},
	{"geometry":{"coordinates":[-0.021999,51.592758],"type":"Point"},"properties":{"osm_id":"4672377160","tag":{"amenity":"waste_basket"}},"type":"Feature"},
	{"geometry":{"coordinates":[-0.007179,51.606235],"type":"Point"},"properties":{"osm_id":"4693271682","tag":{"amenity":"waste_basket"}},"type":"Feature"},
	{"geometry":{"coordinates":[-0.071561,51.617014],"type":"Point"},"properties":{"osm_id":"4703071634","tag":{"amenity":"waste_basket"}},"type":"Feature"},
	{"geometry":{"coordinates":[-0.021138,51.591462],"type":"Point"},"properties":{"osm_id":"5188823313","tag":{"amenity":"waste_basket"}},"type":"Feature"},
	{"geometry":{"coordinates":[-0.052995,51.586718],"type":"Point"},"properties":{"osm_id":"5222870163","tag":{"amenity":"recycling"}},"type":"Feature"},
	{"geometry":{"coordinates":[-0.052988,51.586725],"type":"Point"},"properties":{"osm_id":"5222870164","tag":{"amenity":"waste_basket"}},"type":"Feature"},
	{"geometry":{"coordinates":[-0.052708,51.575864],"type":"Point"},"properties":{"osm_id":"5223041449","tag":{"amenity":"recycling"}},"type":"Feature"},
	{"geometry":{"coordinates":[-0.020351,51.569348],"type":"Point"},"properties":{"osm_id":"5571958328","tag":{"amenity":"waste_basket"}},"type":"Feature"},
	{"geometry":{"coordinates":[-0.020247,51.569328],"type":"Point"},"properties":{"osm_id":"5571958329","tag":{"amenity":"waste_basket"}},"type":"Feature"},
	{"geometry":{"coordinates":[-0.020246,51.56917],"type":"Point"},"properties":{"osm_id":"5571958331","tag":{"amenity":"waste_basket"}},"type":"Feature"},
	{"geometry":{"coordinates":[-0.020421,51.569222],"type":"Point"},"properties":{"osm_id":"5571958333","tag":{"amenity":"waste_basket"}},"type":"Feature"},
	{"geometry":{"coordinates":[-0.023143,51.570455],"type":"Point"},"properties":{"osm_id":"5572108795","tag":{"amenity":"waste_basket"}},"type":"Feature"},
	{"geometry":{"coordinates":[-0.023132,51.570575],"type":"Point"},"properties":{"osm_id":"5572108797","tag":{"amenity":"waste_basket"}},"type":"Feature"},
	{"geometry":{"coordinates":[-0.023299,51.570675],"type":"Point"},"properties":{"osm_id":"5572108800","tag":{"amenity":"waste_basket"}},"type":"Feature"},
	{"geometry":{"coordinates":[-0.020326,51.569377],"type":"Point"},"properties":{"osm_id":"5589433209","tag":{"amenity":"waste_basket"}},"type":"Feature"},
	{"geometry":{"coordinates":[-0.020516,51.569375],"type":"Point"},"properties":{"osm_id":"5589433210","tag":{"amenity":"waste_basket"}},"type":"Feature"},
	{"geometry":{"coordinates":[-0.023933,51.563898],"type":"Point"},"properties":{"osm_id":"5714699792","tag":{"amenity":"recycling"}},"type":"Feature"},
	{"geometry":{"coordinates":[-0.026272,51.565211],"type":"Point"},"properties":{"osm_id":"5714699804","tag":{"amenity":"recycling"}},"type":"Feature"},
	{"geometry":{"coordinates":[-0.026672,51.565865],"type":"Point"},"properties":{"osm_id":"5714699806","tag":{"amenity":"recycling"}},"type":"Feature"},
	{"geometry":{"coordinates":[-0.02575,51.564355],"type":"Point"},"properties":{"osm_id":"5714699807","tag":{"amenity":"waste_basket"}},"type":"Feature"},
	{"geometry":{"coordinates":[-0.039513,51.570764],"type":"Point"},"properties":{"osm_id":"5780570697","tag":{"amenity":"waste_basket"}},"type":"Feature"},
	{"geometry":{"coordinates":[-0.01406,51.589974],"type":"Point"},"properties":{"osm_id":"6221794043","tag":{"amenity":"waste_basket"}},"type":"Feature"},
	{"geometry":{"coordinates":[-0.03152,51.568126],"type":"Point"},"properties":{"osm_id":"6423538751","tag":{"amenity":"waste_basket","waste":"trash"}},"type":"Feature"},
	{"geometry":{"coordinates":[-0.031573,51.56817],"type":"Point"},"properties":{"osm_id":"6423538752","tag":{"amenity":"waste_basket","waste":"trash"}},"type":"Feature"},
	{"geometry":{"coordinates":[-0.032156,51.567894],"type":"Point"},"properties":{"osm_id":"6423538781","tag":{"amenity":"waste_basket","waste":"trash"}},"type":"Feature"},
	{"geometry":{"coordinates":[-0.033194,51.567501],"type":"Point"},"properties":{"osm_id":"6423542099","tag":{"amenity":"waste_basket","waste":"trash"}},"type":"Feature"},
	{"geometry":{"coordinates":[-0.021153,51.571867],"type":"Point"},"properties":{"osm_id":"6427869135","tag":{"amenity":"waste_basket","waste":"trash"}},"type":"Feature"},
	{"geometry":{"coordinates":[-0.021173,51.571862],"type":"Point"},"properties":{"osm_id":"6427869136","tag":{"amenity":"waste_basket","waste":"trash"}},"type":"Feature"},
	{"geometry":{"coordinates":[-0.049793,51.610787],"type":"Point"},"properties":{"osm_id":"6522594707","tag":{"amenity":"waste_basket"}},"type":"Feature"},
	{"geometry":{"coordinates":[-0.050086,51.610852],"type":"Point"},"properties":{"osm_id":"6522594712","tag":{"amenity":"waste_basket"}},"type":"Feature"},
	{"geometry":{"coordinates":[-0.050408,51.609746],"type":"Point"},"properties":{"osm_id":"6522611857","tag":{"amenity":"waste_basket"}},"type":"Feature"},
	{"geometry":{"coordinates":[-0.050281,51.609692],"type":"Point"},"properties":{"osm_id":"6522611859","tag":{"amenity":"waste_basket"}},"type":"Feature"},
	{"geometry":{"coordinates":[-0.050569,51.610059],"type":"Point"},"properties":{"osm_id":"6522634083","tag":{"amenity":"waste_basket"}},"type":"Feature"},
	{"geometry":{"coordinates":[-0.041086,51.564041],"type":"Point"},"properties":{"osm_id":"7880163441","tag":{"amenity":"waste_basket"}},"type":"Feature"},
	{"geometry":{"coordinates":[-0.015162,51.567965],"type":"Point"},"properties":{"osm_id":"7891075560","tag":{"amenity":"waste_basket"}},"type":"Feature"},
	{"geometry":{"coordinates":[-0.053943,51.589253],"type":"Point"},"properties":{"osm_id":"7921491902","tag":{"amenity":"waste_basket"}},"type":"Feature"},
	{"geometry":{"coordinates":[-0.053253,51.587398],"type":"Point"},"properties":{"osm_id":"7921491905","tag":{"amenity":"waste_basket"}},"type":"Feature"},
	{"geometry":{"coordinates":[-0.053179,51.588279],"type":"Point"},"properties":{"osm_id":"7921491907","tag":{"amenity":"waste_basket"}},"type":"Feature"}
]
}
