{
"type": "FeatureCollection",
"features": [
	{"geometry":{"coordinates":[-0.007122,50.876762],"type":"Point"},"properties":{"osm_id":"5482956500","tag":{"amenity":"waste_basket","waste":"dog_excrement"}},"type":"Feature"},
	{"geometry":{"coordinates":[-0.012679,50.879328],"type":"Point"},"properties":{"osm_id":"5492277882","tag":{"amenity":"waste_basket","waste":"dog_excrement"}},"type":"Feature"},
	{"geometry":{"coordinates":[-0.085351,50.865903],"type":"Point"},"properties":{"osm_id":"5908438312","tag":{"amenity":"waste_basket"}},"type":"Feature"},
	{"geometry":{"coordinates":[-0.079213,50.867779],"type":"Point"},"properties":{"barrier":"gate","osm_id":"7667949512"},"type":"Feature"},
	{"geometry":{"coordinates":[-0.086383,50.86531],"type":"Point"},"properties":{"osm_id":"7776324532","tag":{"amenity":"waste_basket"}},"type":"Feature"},
	{"geometry":{"coordinates":[-0.086199,50.864976],"type":"Point"},"properties":{"osm_id":"7807015282","tag":{"amenity":"waste_disposal"}},"type":"Feature"},
	{"geometry":{"coordinates":[-0.087437,50.864593],"type":"Point"},"properties":{"osm_id":"7807015283","tag":{"amenity":"waste_basket"}},"type":"Feature"},
	{"geometry":{"coordinates":[-0.085948,50.864554],"type":"Point"},"properties":{"osm_id":"7810560419","tag":{"amenity":"waste_basket"}},"type":"Feature"},
	{"geometry":{"coordinates":[-0.086352,50.864813],"type":"Point"},"properties":{"osm_id":"7810560420","tag":{"amenity":"waste_basket"}},"type":"Feature"},
	{"geometry":{"coordinates":[-0.086727,50.865893],"type":"Point"},"properties":{"osm_id":"7810560438","tag":{"amenity":"waste_disposal"}},"type":"Feature"},
	{"geometry":{"coordinates":[-0.086528,50.86781],"type":"Point"},"properties":{"osm_id":"7942371302","tag":{"amenity":"waste_basket"}},"type":"Feature"},
	{"geometry":{"coordinates":[-0.086627,50.868103],"type":"Point"},"properties":{"osm_id":"7942371305","tag":{"amenity":"waste_basket"}},"type":"Feature"},
	{"geometry":{"coordinates":[-0.086738,50.868542],"type":"Point"},"properties":{"osm_id":"7942371333","tag":{"amenity":"waste_basket"}},"type":"Feature"},
	{"geometry":{"coordinates":[-0.086829,50.86884],"type":"Point"},"properties":{"osm_id":"7942371335","tag":{"amenity":"waste_basket"}},"type":"Feature"},
	{"geometry":{"coordinates":[-0.086895,50.869861],"type":"Point"},"properties":{"osm_id":"7942371351","tag":{"amenity":"waste_basket"}},"type":"Feature"}
]
}
