{
"type": "FeatureCollection",
"features": [
	{"geometry":{"coordinates":[-0.019339,49.037803],"type":"Point"},"properties":{"osm_id":"3617866952","tag":{"amenity":"recycling","recycling_type":"container"}},"type":"Feature"},
	{"geometry":{"coordinates":[-0.087412,49.034196],"type":"Point"},"properties":{"osm_id":"5502201197","tag":{"amenity":"recycling","recycling_type":"container"}},"type":"Feature"},
	{"geometry":{"coordinates":[-0.03678,49.014947],"type":"Point"},"properties":{"osm_id":"6819601945","tag":{"amenity":"recycling","recycling:glass":"yes","recycling_type":"container"}},"type":"Feature"},
	{"geometry":{"coordinates":[-0.036764,49.01496],"type":"Point"},"properties":{"osm_id":"6819601946","tag":{"amenity":"recycling","recycling:paper":"yes","recycling_type":"container"}},"type":"Feature"},
	{"geometry":{"coordinates":[-0.03267,49.019171],"type":"Point"},"properties":{"osm_id":"7433884946","tag":{"amenity":"waste_basket"}},"type":"Feature"},
	{"geometry":{"coordinates":[-0.040541,49.022843],"type":"Point"},"properties":{"osm_id":"7447090704","tag":{"amenity":"recycling"}},"type":"Feature"},
	{"geometry":{"coordinates":[-0.044416,49.019352],"type":"Point"},"properties":{"name":"Tony Recup","osm_id":"7447112057","tag":{"amenity":"recycling","description":"Ferrailleur r\u00e9cup\u00e8re aussi \u00e9lectrom\u00e9nager usag\u00e9","phone":"+33 0 623847303","recycling:electrical_appliances":"yes","recycling:scrap_metal":"yes","recycling:small_appliances":"yes","recycling_type":"centre"}},"type":"Feature"}
]
}
