{
"type": "FeatureCollection",
"features": [
	{"geometry":{"coordinates":[-0.013732,48.128816],"type":"Point"},"properties":{"barrier":"gate","osm_id":"3148849960"},"type":"Feature"},
	{"geometry":{"coordinates":[-0.018954,48.122591],"type":"Point"},"properties":{"name":"Tri s\u00c3\u00a9lectif","osm_id":"3798498901","tag":{"amenity":"recycling","recycling:cans":"yes","recycling:glass_bottles":"yes","recycling:magazines":"yes","recycling:newspaper":"yes","recycling:plastic":"yes","recycling_type":"container"}},"type":"Feature"},
	{"geometry":{"coordinates":[-0.001036,48.156963],"type":"Point"},"properties":{"osm_id":"4446573303","tag":{"amenity":"recycling","recycling_type":"container"}},"type":"Feature"},
	{"geometry":{"coordinates":[-0.015252,48.125169],"type":"Point"},"properties":{"name":"Tri s\u00c3\u00a9lectif","osm_id":"4530256179","tag":{"addr:city":"Conlie","addr:postcode":"72240","addr:street":"Rue de Sainte-Sabine","amenity":"recycling","recycling:cans":"yes","recycling:glass":"yes","recycling:glass_bottles":"yes","recycling:paper":"yes","recycling:plastic":"yes","recycling:plastic_bottles":"yes","recycling_type":"container"}},"type":"Feature"},
	{"geometry":{"coordinates":[-0.015307,48.121554],"type":"Point"},"properties":{"osm_id":"6258715639","tag":{"addr:city":"Conlie","addr:postcode":"72240","addr:street":"All\u00c3\u00a9e Marie-Louise Souty","amenity":"recycling","recycling:cans":"yes","recycling:glass_bottles":"yes","recycling:paper":"yes","recycling:plastic_bottles":"yes","recycling_type":"container"}},"type":"Feature"},
	{"geometry":{"coordinates":[-0.072214,48.10823],"type":"Point"},"properties":{"osm_id":"6260721538","tag":{"amenity":"recycling","recycling_type":"container"}},"type":"Feature"},
	{"geometry":{"coordinates":[-0.082229,48.107804],"type":"Point"},"properties":{"osm_id":"6260721539","tag":{"amenity":"recycling","recycling_type":"container"}},"type":"Feature"},
	{"geometry":{"coordinates":[-0.083531,48.107681],"type":"Point"},"properties":{"osm_id":"6260721540","tag":{"amenity":"recycling","recycling_type":"container"}},"type":"Feature"},
	{"geometry":{"coordinates":[-0.034974,48.111122],"type":"Point"},"properties":{"osm_id":"6260721541","tag":{"amenity":"recycling","recycling_type":"container"}},"type":"Feature"},
	{"geometry":{"coordinates":[-0.019015,48.118947],"type":"Point"},"properties":{"osm_id":"6260721545","tag":{"amenity":"recycling","recycling_type":"container"}},"type":"Feature"}
]
}
