{
"type": "FeatureCollection",
"features": [
	{"geometry":{"coordinates":[-0.082391,48.06072],"type":"Point"},"properties":{"osm_id":"6260438788","tag":{"addr:city":"Ruill\u00c3\u00a9-en-Champagne","addr:postcode":"72240","amenity":"waste_disposal"}},"type":"Feature"},
	{"geometry":{"coordinates":[-0.081867,48.060352],"type":"Point"},"properties":{"osm_id":"6260438789","tag":{"addr:city":"Ruill\u00c3\u00a9-en-Champagne","addr:postcode":"72240","amenity":"recycling","recycling:cans":"yes","recycling:glass_bottles":"yes","recycling:paper":"yes","recycling:plastic_bottles":"yes","recycling_type":"container"}},"type":"Feature"},
	{"geometry":{"coordinates":[-0.052126,48.070376],"type":"Point"},"properties":{"osm_id":"6260438790","tag":{"addr:city":"Bernay-Neuvy-en-Champagne","addr:postcode":"72240","amenity":"recycling","recycling:cans":"yes","recycling:glass_bottles":"yes","recycling:paper":"yes","recycling:plastic_bottles":"yes","recycling_type":"container"}},"type":"Feature"},
	{"geometry":{"coordinates":[-0.032699,48.081021],"type":"Point"},"properties":{"osm_id":"6260438791","tag":{"addr:city":"Bernay-Neuvy-en-Champagne","addr:postcode":"72240","amenity":"recycling","recycling:cans":"yes","recycling:glass_bottles":"yes","recycling:paper":"yes","recycling:plastic_bottles":"yes","recycling_type":"container"}},"type":"Feature"},
	{"geometry":{"coordinates":[-0.007712,48.055152],"type":"Point"},"properties":{"osm_id":"6260438792","tag":{"addr:city":"Bernay-Neuvy-en-Champagne","addr:postcode":"72240","amenity":"recycling","recycling:cans":"yes","recycling:glass_bottles":"yes","recycling:paper":"yes","recycling:plastic_bottles":"yes","recycling_type":"container"}},"type":"Feature"},
	{"geometry":{"coordinates":[-0.001535,48.104235],"type":"Point"},"properties":{"osm_id":"6260721542","tag":{"amenity":"recycling","recycling_type":"container"}},"type":"Feature"},
	{"geometry":{"coordinates":[-0.082471,48.060767],"type":"Point"},"properties":{"osm_id":"9044867595","tag":{"amenity":"recycling","description":"Verre, papier, emballage"}},"type":"Feature"}
]
}
