{
"type": "FeatureCollection",
"features": [
	{"geometry":{"coordinates":[-0.057715,45.603548],"type":"Point"},"properties":{"osm_id":"7197531603","tag":{"amenity":"recycling","location":"underground","operator":"Calitom","recycling_type":"container"}},"type":"Feature"},
	{"geometry":{"coordinates":[-0.072535,45.609008],"type":"Point"},"properties":{"osm_id":"7197531604","tag":{"amenity":"waste_disposal","recycling:aerosol_cans":"yes","recycling:aluminium":"yes","recycling:bags":"yes","recycling:books":"yes","recycling:cans":"yes","recycling:cardboard":"yes","recycling:cartons":"yes","recycling:coffee_capsules":"yes","recycling:cooking_oil":"yes","recycling:paper":"yes","recycling:plastic":"yes"}},"type":"Feature"},
	{"geometry":{"coordinates":[-0.072542,45.609007],"type":"Point"},"properties":{"osm_id":"7197531605","tag":{"amenity":"waste_disposal"}},"type":"Feature"},
	{"geometry":{"coordinates":[-0.071851,45.608884],"type":"Point"},"properties":{"osm_id":"7197531606","tag":{"amenity":"waste_disposal"}},"type":"Feature"},
	{"geometry":{"coordinates":[-0.071864,45.608889],"type":"Point"},"properties":{"osm_id":"7197531607","tag":{"amenity":"waste_disposal"}},"type":"Feature"},
	{"geometry":{"coordinates":[-0.071875,45.608894],"type":"Point"},"properties":{"osm_id":"7197531608","tag":{"amenity":"waste_disposal"}},"type":"Feature"},
	{"geometry":{"coordinates":[-0.071887,45.608899],"type":"Point"},"properties":{"osm_id":"7197531609","tag":{"amenity":"waste_disposal"}},"type":"Feature"},
	{"geometry":{"coordinates":[-0.000361,45.638528],"type":"Point"},"properties":{"osm_id":"7685418599","tag":{"amenity":"waste_basket"}},"type":"Feature"},
	{"geometry":{"coordinates":[-0.052913,45.599857],"type":"Point"},"properties":{"osm_id":"7702438043","tag":{"amenity":"waste_basket"}},"type":"Feature"},
	{"geometry":{"coordinates":[-0.05027,45.596242],"type":"Point"},"properties":{"osm_id":"7760797373","tag":{"amenity":"waste_basket"}},"type":"Feature"},
	{"geometry":{"coordinates":[-0.05394,45.598504],"type":"Point"},"properties":{"osm_id":"7765296274","tag":{"amenity":"waste_basket"}},"type":"Feature"},
	{"geometry":{"coordinates":[-0.054736,45.600044],"type":"Point"},"properties":{"osm_id":"7768096676","tag":{"amenity":"waste_basket"}},"type":"Feature"},
	{"geometry":{"coordinates":[-0.05574,45.60234],"type":"Point"},"properties":{"osm_id":"7816359912","tag":{"amenity":"waste_basket"}},"type":"Feature"},
	{"geometry":{"coordinates":[-0.052305,45.601647],"type":"Point"},"properties":{"osm_id":"7817729955","tag":{"amenity":"waste_basket"}},"type":"Feature"},
	{"geometry":{"coordinates":[-0.044579,45.598487],"type":"Point"},"properties":{"osm_id":"7817812708","tag":{"amenity":"waste_basket"}},"type":"Feature"},
	{"geometry":{"coordinates":[-0.056179,45.607363],"type":"Point"},"properties":{"osm_id":"7818040381","tag":{"amenity":"waste_basket"}},"type":"Feature"},
	{"geometry":{"coordinates":[-0.057562,45.603715],"type":"Point"},"properties":{"osm_id":"7824324176","tag":{"amenity":"recycling","brand":"Le Relais","charity":"yes","recycling:clothes":"yes","recycling:shoes":"yes","recycling_type":"container","website":"https://www.lerelais.org/"}},"type":"Feature"},
	{"geometry":{"coordinates":[-0.048129,45.588318],"type":"Point"},"properties":{"osm_id":"7824350397","tag":{"amenity":"recycling","brand":"Le Soleil est la Terre","charity":"yes","recycling:clothes":"yes","recycling:shoes":"yes","recycling_type":"container","website":"https://www.lerelais.org/"}},"type":"Feature"},
	{"geometry":{"coordinates":[-0.048121,45.588304],"type":"Point"},"properties":{"osm_id":"7824350398","tag":{"amenity":"recycling","brand":"Le Soleil est la Terre","charity":"yes","recycling:clothes":"yes","recycling:shoes":"yes","recycling_type":"container","website":"https://www.lerelais.org/"}},"type":"Feature"},
	{"geometry":{"coordinates":[-0.053123,45.599946],"type":"Point"},"properties":{"osm_id":"7832995861","tag":{"amenity":"waste_basket"}},"type":"Feature"},
	{"geometry":{"coordinates":[-0.051906,45.599145],"type":"Point"},"properties":{"osm_id":"7836074890","tag":{"amenity":"waste_basket"}},"type":"Feature"},
	{"geometry":{"coordinates":[-0.05067,45.598908],"type":"Point"},"properties":{"osm_id":"7836074925","tag":{"amenity":"recycling","brand":"Le Relais","charity":"yes","recycling:clothes":"yes","recycling:shoes":"yes","recycling_type":"container","website":"https://www.lerelais.org/"}},"type":"Feature"},
	{"geometry":{"coordinates":[-0.056568,45.59802],"type":"Point"},"properties":{"osm_id":"7879223966","tag":{"amenity":"recycling","brand":"Le Soleil est la Terre","charity":"yes","contact:mobile":"+336 34 64 74 33","recycling:clothes":"yes","recycling:shoes":"yes","recycling_type":"container","website":"http://lesoleilestlaterre.over-blog.com/"}},"type":"Feature"},
	{"geometry":{"coordinates":[-0.056554,45.598016],"type":"Point"},"properties":{"osm_id":"7879223967","tag":{"amenity":"recycling","brand":"Le Soleil est la Terre","charity":"yes","contact:mobile":"+336 34 64 74 33","recycling:clothes":"yes","recycling:shoes":"yes","recycling_type":"container","website":"http://lesoleilestlaterre.over-blog.com/"}},"type":"Feature"},
	{"geometry":{"coordinates":[-0.054764,45.597318],"type":"Point"},"properties":{"osm_id":"7879909935","tag":{"amenity":"waste_basket"}},"type":"Feature"},
	{"geometry":{"coordinates":[-0.053761,45.597207],"type":"Point"},"properties":{"osm_id":"7879909938","tag":{"amenity":"recycling","brand":"Calitom","description":"Composteur de quartier","recycling:garden_waste":"yes","recycling:green_waste":"yes","recycling:organic":"yes","recycling_type":"container","website":"https://www.calitom.com/fr"}},"type":"Feature"},
	{"geometry":{"coordinates":[-0.05403,45.597534],"type":"Point"},"properties":{"osm_id":"7879909941","tag":{"amenity":"waste_basket"}},"type":"Feature"},
	{"geometry":{"coordinates":[-0.054214,45.597748],"type":"Point"},"properties":{"osm_id":"7879909942","tag":{"amenity":"waste_basket"}},"type":"Feature"},
	{"geometry":{"coordinates":[-0.054368,45.600031],"type":"Point"},"properties":{"osm_id":"7883985810","tag":{"amenity":"waste_basket"}},"type":"Feature"},
	{"geometry":{"coordinates":[-0.056238,45.599522],"type":"Point"},"properties":{"osm_id":"7886743066","tag":{"amenity":"waste_basket"}},"type":"Feature"},
	{"geometry":{"coordinates":[-0.055268,45.596843],"type":"Point"},"properties":{"osm_id":"7888064781","tag":{"amenity":"recycling","charity":"yes","recycling:clothes":"yes","recycling:shoes":"yes","recycling_type":"container"}},"type":"Feature"}
]
}
