{
"type": "FeatureCollection",
"features": [
	{"geometry":{"coordinates":[-0.038011,43.099286],"type":"Point"},"properties":{"osm_id":"3053521950","tag":{"amenity":"waste_basket"}},"type":"Feature"},
	{"geometry":{"coordinates":[-0.060276,43.098563],"type":"Point"},"properties":{"osm_id":"3053523756","tag":{"amenity":"waste_basket"}},"type":"Feature"},
	{"geometry":{"coordinates":[-0.060868,43.099935],"type":"Point"},"properties":{"osm_id":"3053523757","tag":{"amenity":"waste_basket"}},"type":"Feature"},
	{"geometry":{"coordinates":[-0.061015,43.100145],"type":"Point"},"properties":{"osm_id":"3053523758","tag":{"amenity":"waste_basket"}},"type":"Feature"},
	{"geometry":{"coordinates":[-0.038229,43.098978],"type":"Point"},"properties":{"osm_id":"3053524319","tag":{"amenity":"waste_basket"}},"type":"Feature"},
	{"geometry":{"coordinates":[-0.062168,43.090633],"type":"Point"},"properties":{"osm_id":"4813216265","tag":{"amenity":"waste_basket"}},"type":"Feature"},
	{"geometry":{"coordinates":[-0.063718,43.090578],"type":"Point"},"properties":{"osm_id":"4813263066","tag":{"amenity":"waste_basket"}},"type":"Feature"},
	{"geometry":{"coordinates":[-0.061021,43.09552],"type":"Point"},"properties":{"osm_id":"4813263094","tag":{"amenity":"waste_basket"}},"type":"Feature"},
	{"geometry":{"coordinates":[-0.061266,43.095942],"type":"Point"},"properties":{"osm_id":"4813263096","tag":{"amenity":"waste_basket"}},"type":"Feature"},
	{"geometry":{"coordinates":[-0.060659,43.096044],"type":"Point"},"properties":{"osm_id":"4813263097","tag":{"amenity":"waste_basket"}},"type":"Feature"},
	{"geometry":{"coordinates":[-0.061516,43.096212],"type":"Point"},"properties":{"osm_id":"4813263098","tag":{"amenity":"waste_basket"}},"type":"Feature"},
	{"geometry":{"coordinates":[-0.057714,43.095621],"type":"Point"},"properties":{"osm_id":"4813530495","tag":{"amenity":"waste_basket"}},"type":"Feature"},
	{"geometry":{"coordinates":[-0.05769,43.096355],"type":"Point"},"properties":{"osm_id":"4813530497","tag":{"amenity":"waste_basket"}},"type":"Feature"},
	{"geometry":{"coordinates":[-0.058023,43.096349],"type":"Point"},"properties":{"osm_id":"4813530499","tag":{"amenity":"waste_basket"}},"type":"Feature"},
	{"geometry":{"coordinates":[-0.058562,43.095849],"type":"Point"},"properties":{"osm_id":"4813530501","tag":{"amenity":"waste_basket"}},"type":"Feature"},
	{"geometry":{"coordinates":[-0.059278,43.095489],"type":"Point"},"properties":{"osm_id":"4813530503","tag":{"amenity":"waste_basket"}},"type":"Feature"},
	{"geometry":{"coordinates":[-0.059415,43.095649],"type":"Point"},"properties":{"osm_id":"4813530504","tag":{"amenity":"waste_basket"}},"type":"Feature"},
	{"geometry":{"coordinates":[-0.059637,43.095803],"type":"Point"},"properties":{"osm_id":"4813530507","tag":{"amenity":"waste_basket"}},"type":"Feature"},
	{"geometry":{"coordinates":[-0.059676,43.095793],"type":"Point"},"properties":{"osm_id":"4813530508","tag":{"amenity":"waste_basket"}},"type":"Feature"},
	{"geometry":{"coordinates":[-0.05964,43.095354],"type":"Point"},"properties":{"osm_id":"4813530509","tag":{"amenity":"waste_basket"}},"type":"Feature"},
	{"geometry":{"coordinates":[-0.06061,43.095134],"type":"Point"},"properties":{"osm_id":"4813530510","tag":{"amenity":"waste_basket"}},"type":"Feature"},
	{"geometry":{"coordinates":[-0.050251,43.091039],"type":"Point"},"properties":{"osm_id":"6930486821","tag":{"amenity":"recycling","colour":"black","recycling:glass_bottles":"yes","recycling:paper":"yes","recycling:paper_packaging":"yes","recycling:plastic":"yes","recycling:plastic_bottles":"yes","recycling:plastic_packaging":"yes","recycling:waste":"yes","recycling_type":"container"}},"type":"Feature"},
	{"geometry":{"coordinates":[-0.051116,43.091663],"type":"Point"},"properties":{"osm_id":"6931559572","tag":{"amenity":"recycling","recycling:glass_bottles":"yes","recycling:paper":"yes","recycling:plastic":"yes","recycling:plastic_bottles":"yes","recycling:plastic_packaging":"yes","recycling_type":"container"}},"type":"Feature"},
	{"geometry":{"coordinates":[-0.051063,43.091692],"type":"Point"},"properties":{"name":"Borne Le Relais","osm_id":"6931559573","tag":{"amenity":"recycling","description":"Borne de r\u00c3\u00a9cup\u00c3\u00a9ration de v\u00c3\u00aatements Le Relais","fee":"no","opening_hours":"24/7","operator":"Le Relais","phone":"+33 5 62 09 84 37","recycling_type":"container"}},"type":"Feature"},
	{"geometry":{"coordinates":[-0.049142,43.092601],"type":"Point"},"properties":{"osm_id":"6931949548","tag":{"amenity":"recycling","colour":"darkgreen","operator":"Ville de Lourdes / SYMAT","recycling:glass_bottles":"yes","recycling_type":"container"}},"type":"Feature"},
	{"geometry":{"coordinates":[-0.049006,43.09266],"type":"Point"},"properties":{"osm_id":"6931949549","tag":{"amenity":"waste_basket","colour":"darkgreen","material":"steel","waste":"ALL"}},"type":"Feature"},
	{"geometry":{"coordinates":[-0.048811,43.092889],"type":"Point"},"properties":{"osm_id":"6931949550","tag":{"amenity":"waste_basket","colour":"darkgreen","material":"steel","waste":"all"}},"type":"Feature"},
	{"geometry":{"coordinates":[-0.048775,43.09309],"type":"Point"},"properties":{"osm_id":"6931949551","tag":{"amenity":"recycling","description":"Conteneurs pour d\u00c3\u00a9chets","operator":"Symat","recycling:glass_bottles":"yes","recycling:paper":"yes","recycling:plastic":"yes","recycling_type":"container"}},"type":"Feature"},
	{"geometry":{"coordinates":[-0.050328,43.090591],"type":"Point"},"properties":{"osm_id":"6931949552","tag":{"amenity":"recycling","operator":"Symat/Ville de Lourdes","recycling_type":"container"}},"type":"Feature"}
]
}
