{
"type": "FeatureCollection",
"features": [
	{"geometry":{"coordinates":[-0.06293,40.001686],"type":"Point"},"properties":{"name":"Ecoparque Castell\u00c3\u00b3n","osm_id":"269764607","tag":{"amenity":"recycling","opening_hours":"Mo-Sa 09:00-14:00,15:30-18:00; Su 09:00-14:00","phone":"+34 964 730115","recycling_type":"centre"}},"type":"Feature"},
	{"geometry":{"coordinates":[-0.036234,39.994852],"type":"Point"},"properties":{"osm_id":"322081505","tag":{"amenity":"recycling","recycling:cans":"yes","recycling:glass_bottles":"yes","recycling:paper":"yes","recycling_type":"container"}},"type":"Feature"},
	{"geometry":{"coordinates":[-0.036397,39.991193],"type":"Point"},"properties":{"osm_id":"1316459076","tag":{"amenity":"recycling","recycling:cans":"yes","recycling:glass_bottles":"yes","recycling:paper":"yes","recycling_type":"container"}},"type":"Feature"},
	{"geometry":{"coordinates":[-0.033796,39.984554],"type":"Point"},"properties":{"osm_id":"2026922288","tag":{"amenity":"waste_basket"}},"type":"Feature"},
	{"geometry":{"coordinates":[-0.034421,39.984784],"type":"Point"},"properties":{"osm_id":"2026926959","tag":{"amenity":"recycling","recycling:glass_bottles":"yes","recycling:paper":"yes","recycling:plastic":"yes","recycling_type":"container"}},"type":"Feature"},
	{"geometry":{"coordinates":[-0.043163,39.987687],"type":"Point"},"properties":{"osm_id":"2469140694","tag":{"amenity":"waste_basket"}},"type":"Feature"},
	{"geometry":{"coordinates":[-0.0431,39.98791],"type":"Point"},"properties":{"osm_id":"2469141443","tag":{"amenity":"waste_basket"}},"type":"Feature"},
	{"geometry":{"coordinates":[-0.038591,39.989194],"type":"Point"},"properties":{"osm_id":"2484983701","tag":{"amenity":"waste_basket"}},"type":"Feature"},
	{"geometry":{"coordinates":[-0.038872,39.989297],"type":"Point"},"properties":{"osm_id":"2484983755","tag":{"amenity":"waste_basket"}},"type":"Feature"},
	{"geometry":{"coordinates":[-0.038358,39.989329],"type":"Point"},"properties":{"osm_id":"2484983783","tag":{"amenity":"waste_disposal"}},"type":"Feature"},
	{"geometry":{"coordinates":[-0.038445,39.989362],"type":"Point"},"properties":{"osm_id":"2484983818","tag":{"amenity":"recycling","colour":"blue","recycling:cardboard":"yes","recycling:paper":"yes","recycling_type":"container"}},"type":"Feature"},
	{"geometry":{"coordinates":[-0.038436,39.989378],"type":"Point"},"properties":{"osm_id":"2484983826","tag":{"amenity":"recycling","colour":"lime","recycling:glass_bottles":"yes","recycling_type":"container"}},"type":"Feature"},
	{"geometry":{"coordinates":[-0.038426,39.989395],"type":"Point"},"properties":{"osm_id":"2484983849","tag":{"amenity":"recycling","colour":"yellow","recycling:cans":"yes","recycling:cartons":"yes","recycling:plastic_bottles":"yes","recycling_type":"container"}},"type":"Feature"},
	{"geometry":{"coordinates":[-0.038817,39.989486],"type":"Point"},"properties":{"osm_id":"2484983903","tag":{"amenity":"waste_disposal"}},"type":"Feature"},
	{"geometry":{"coordinates":[-0.0335,39.991983],"type":"Point"},"properties":{"name":"Miniecoparque","osm_id":"3209676057","tag":{"amenity":"recycling","recycling:batteries":"yes","recycling:cds":"yes","recycling:low_energy_bulbs":"yes","recycling:mobile_phone_chargers":"yes","recycling:mobile_phones":"yes","recycling:pens":"yes","recycling:printer_cartridges":"yes","recycling_type":"container"}},"type":"Feature"},
	{"geometry":{"coordinates":[-0.030228,39.988631],"type":"Point"},"properties":{"name":"Miniecoparque","osm_id":"3209691912","tag":{"amenity":"recycling","recycling:batteries":"yes","recycling:cds":"yes","recycling:low_energy_bulbs":"yes","recycling:mobile_phone_chargers":"yes","recycling:mobile_phones":"yes","recycling:pens":"yes","recycling:printer_cartridges":"yes","recycling_type":"container"}},"type":"Feature"},
	{"geometry":{"coordinates":[-0.039776,39.987134],"type":"Point"},"properties":{"name":"Miniecoparque","osm_id":"3209692838","tag":{"amenity":"recycling","recycling:batteries":"yes","recycling:cds":"yes","recycling:low_energy_bulbs":"yes","recycling:mobile_phone_chargers":"yes","recycling:mobile_phones":"yes","recycling:pens":"yes","recycling:printer_cartridges":"yes","recycling_type":"container"}},"type":"Feature"},
	{"geometry":{"coordinates":[-0.027406,39.99246],"type":"Point"},"properties":{"osm_id":"3513615940","tag":{"amenity":"waste_basket"}},"type":"Feature"},
	{"geometry":{"coordinates":[-0.027581,39.992474],"type":"Point"},"properties":{"osm_id":"3513615943","tag":{"amenity":"waste_basket"}},"type":"Feature"},
	{"geometry":{"coordinates":[-0.027697,39.992487],"type":"Point"},"properties":{"osm_id":"3513615947","tag":{"amenity":"waste_basket"}},"type":"Feature"},
	{"geometry":{"coordinates":[-0.027817,39.992501],"type":"Point"},"properties":{"osm_id":"3513615951","tag":{"amenity":"waste_basket"}},"type":"Feature"},
	{"geometry":{"coordinates":[-0.027305,39.992792],"type":"Point"},"properties":{"osm_id":"3513616824","tag":{"amenity":"waste_basket"}},"type":"Feature"},
	{"geometry":{"coordinates":[-0.025974,39.993025],"type":"Point"},"properties":{"osm_id":"3513616870","tag":{"amenity":"waste_basket"}},"type":"Feature"},
	{"geometry":{"coordinates":[-0.023653,39.991428],"type":"Point"},"properties":{"osm_id":"3523491421","tag":{"amenity":"waste_basket"}},"type":"Feature"},
	{"geometry":{"coordinates":[-0.025225,39.991502],"type":"Point"},"properties":{"osm_id":"3523491424","tag":{"amenity":"waste_basket"}},"type":"Feature"},
	{"geometry":{"coordinates":[-0.024676,39.991715],"type":"Point"},"properties":{"osm_id":"3523491437","tag":{"amenity":"waste_basket"}},"type":"Feature"},
	{"geometry":{"coordinates":[-0.024973,39.991844],"type":"Point"},"properties":{"osm_id":"3523491438","tag":{"amenity":"waste_basket"}},"type":"Feature"},
	{"geometry":{"coordinates":[-0.023118,39.991928],"type":"Point"},"properties":{"osm_id":"3523491439","tag":{"amenity":"waste_basket"}},"type":"Feature"},
	{"geometry":{"coordinates":[-0.025099,39.992149],"type":"Point"},"properties":{"osm_id":"3523491445","tag":{"amenity":"waste_basket"}},"type":"Feature"},
	{"geometry":{"coordinates":[-0.023109,39.992193],"type":"Point"},"properties":{"osm_id":"3523491446","tag":{"amenity":"waste_basket"}},"type":"Feature"},
	{"geometry":{"coordinates":[-0.024263,39.992389],"type":"Point"},"properties":{"osm_id":"3523491448","tag":{"amenity":"waste_basket"}},"type":"Feature"},
	{"geometry":{"coordinates":[-0.024684,39.992404],"type":"Point"},"properties":{"osm_id":"3523491449","tag":{"amenity":"waste_basket"}},"type":"Feature"},
	{"geometry":{"coordinates":[-0.025655,39.99247],"type":"Point"},"properties":{"osm_id":"3523491450","tag":{"amenity":"waste_basket"}},"type":"Feature"},
	{"geometry":{"coordinates":[-0.025452,39.992481],"type":"Point"},"properties":{"osm_id":"3523491451","tag":{"amenity":"waste_basket"}},"type":"Feature"},
	{"geometry":{"coordinates":[-0.025695,39.992646],"type":"Point"},"properties":{"osm_id":"3523491454","tag":{"amenity":"waste_basket"}},"type":"Feature"},
	{"geometry":{"coordinates":[-0.025688,39.99275],"type":"Point"},"properties":{"osm_id":"3523491457","tag":{"amenity":"waste_basket"}},"type":"Feature"},
	{"geometry":{"coordinates":[-0.025472,39.992766],"type":"Point"},"properties":{"osm_id":"3523491458","tag":{"amenity":"waste_basket"}},"type":"Feature"},
	{"geometry":{"coordinates":[-0.025074,39.9933],"type":"Point"},"properties":{"osm_id":"3523492103","tag":{"amenity":"waste_basket"}},"type":"Feature"},
	{"geometry":{"coordinates":[-0.025491,39.993703],"type":"Point"},"properties":{"osm_id":"3523492128","tag":{"amenity":"waste_basket"}},"type":"Feature"},
	{"geometry":{"coordinates":[-0.037492,39.994896],"type":"Point"},"properties":{"highway":"street_lamp","osm_id":"3605715504","tag":{"amenity":"waste_basket"}},"type":"Feature"},
	{"geometry":{"coordinates":[-0.037372,39.994897],"type":"Point"},"properties":{"highway":"street_lamp","osm_id":"3605756264","tag":{"amenity":"waste_basket"}},"type":"Feature"},
	{"geometry":{"coordinates":[-0.037586,39.994707],"type":"Point"},"properties":{"osm_id":"3606795597","tag":{"amenity":"recycling","recycling:clothes":"yes","recycling_type":"container"}},"type":"Feature"},
	{"geometry":{"coordinates":[-0.043997,39.979502],"type":"Point"},"properties":{"osm_id":"4047460859","tag":{"amenity":"waste_disposal"}},"type":"Feature"},
	{"geometry":{"coordinates":[-0.044787,39.979711],"type":"Point"},"properties":{"osm_id":"4047460860","tag":{"amenity":"waste_disposal"}},"type":"Feature"},
	{"geometry":{"coordinates":[-0.044622,39.979725],"type":"Point"},"properties":{"osm_id":"4047460861","tag":{"amenity":"waste_disposal"}},"type":"Feature"},
	{"geometry":{"coordinates":[-0.045292,39.979852],"type":"Point"},"properties":{"osm_id":"4047460862","tag":{"amenity":"waste_disposal"}},"type":"Feature"},
	{"geometry":{"coordinates":[-0.045563,39.980117],"type":"Point"},"properties":{"osm_id":"4047460863","tag":{"amenity":"waste_disposal"}},"type":"Feature"},
	{"geometry":{"coordinates":[-0.047784,39.980185],"type":"Point"},"properties":{"osm_id":"4047460864","tag":{"amenity":"waste_disposal"}},"type":"Feature"},
	{"geometry":{"coordinates":[-0.046269,39.980201],"type":"Point"},"properties":{"osm_id":"4047460865","tag":{"amenity":"waste_disposal"}},"type":"Feature"},
	{"geometry":{"coordinates":[-0.045936,39.980236],"type":"Point"},"properties":{"osm_id":"4047460866","tag":{"amenity":"waste_disposal"}},"type":"Feature"},
	{"geometry":{"coordinates":[-0.046566,39.980275],"type":"Point"},"properties":{"osm_id":"4047460867","tag":{"amenity":"waste_disposal"}},"type":"Feature"},
	{"geometry":{"coordinates":[-0.046612,39.980474],"type":"Point"},"properties":{"osm_id":"4047460868","tag":{"amenity":"waste_disposal"}},"type":"Feature"},
	{"geometry":{"coordinates":[-0.047392,39.980596],"type":"Point"},"properties":{"osm_id":"4047460869","tag":{"amenity":"waste_disposal"}},"type":"Feature"},
	{"geometry":{"coordinates":[-0.047518,39.980616],"type":"Point"},"properties":{"osm_id":"4047460870","tag":{"amenity":"waste_disposal"}},"type":"Feature"},
	{"geometry":{"coordinates":[-0.047178,39.980676],"type":"Point"},"properties":{"osm_id":"4047460871","tag":{"amenity":"waste_disposal"}},"type":"Feature"},
	{"geometry":{"coordinates":[-0.047816,39.980729],"type":"Point"},"properties":{"osm_id":"4047460872","tag":{"amenity":"waste_disposal"}},"type":"Feature"},
	{"geometry":{"coordinates":[-0.048275,39.980758],"type":"Point"},"properties":{"osm_id":"4047460873","tag":{"amenity":"waste_disposal"}},"type":"Feature"},
	{"geometry":{"coordinates":[-0.048371,39.980807],"type":"Point"},"properties":{"osm_id":"4047460874","tag":{"amenity":"waste_disposal"}},"type":"Feature"},
	{"geometry":{"coordinates":[-0.047628,39.980824],"type":"Point"},"properties":{"osm_id":"4047460875","tag":{"amenity":"waste_disposal"}},"type":"Feature"},
	{"geometry":{"coordinates":[-0.048269,39.980961],"type":"Point"},"properties":{"osm_id":"4047460876","tag":{"amenity":"waste_disposal"}},"type":"Feature"},
	{"geometry":{"coordinates":[-0.048025,39.980982],"type":"Point"},"properties":{"osm_id":"4047460877","tag":{"amenity":"waste_disposal"}},"type":"Feature"},
	{"geometry":{"coordinates":[-0.048811,39.981059],"type":"Point"},"properties":{"osm_id":"4047460878","tag":{"amenity":"waste_disposal"}},"type":"Feature"},
	{"geometry":{"coordinates":[-0.048602,39.98109],"type":"Point"},"properties":{"osm_id":"4047460879","tag":{"amenity":"waste_disposal"}},"type":"Feature"},
	{"geometry":{"coordinates":[-0.048862,39.981199],"type":"Point"},"properties":{"osm_id":"4047460880","tag":{"amenity":"waste_disposal"}},"type":"Feature"},
	{"geometry":{"coordinates":[-0.049278,39.981203],"type":"Point"},"properties":{"osm_id":"4047460881","tag":{"amenity":"waste_disposal"}},"type":"Feature"},
	{"geometry":{"coordinates":[-0.049527,39.981302],"type":"Point"},"properties":{"osm_id":"4047460882","tag":{"amenity":"waste_disposal"}},"type":"Feature"},
	{"geometry":{"coordinates":[-0.049629,39.981462],"type":"Point"},"properties":{"osm_id":"4047460883","tag":{"amenity":"waste_disposal"}},"type":"Feature"},
	{"geometry":{"coordinates":[-0.04657,39.98025],"type":"Point"},"properties":{"osm_id":"4047468207","tag":{"amenity":"recycling","recycling:cans":"yes","recycling:cardboard":"yes","recycling:glass_bottles":"yes","recycling:paper":"yes","recycling:plastic":"yes","recycling:plastic_bottles":"no","recycling_type":"container"}},"type":"Feature"},
	{"geometry":{"coordinates":[-0.04748,39.980604],"type":"Point"},"properties":{"osm_id":"4047468208","tag":{"amenity":"recycling","recycling:cans":"yes","recycling:cardboard":"yes","recycling:glass_bottles":"yes","recycling:paper":"yes","recycling:plastic":"yes","recycling:plastic_bottles":"no","recycling_type":"container"}},"type":"Feature"},
	{"geometry":{"coordinates":[-0.048249,39.980987],"type":"Point"},"properties":{"osm_id":"4047468209","tag":{"amenity":"recycling","recycling:cans":"yes","recycling:cardboard":"yes","recycling:glass_bottles":"yes","recycling:paper":"yes","recycling:plastic":"yes","recycling:plastic_bottles":"no","recycling_type":"container"}},"type":"Feature"},
	{"geometry":{"coordinates":[-0.029774,39.997237],"type":"Point"},"properties":{"osm_id":"5978020482","tag":{"amenity":"recycling","recycling:glass_bottles":"yes","recycling:paper":"yes","recycling:plastic":"yes","recycling_type":"container"}},"type":"Feature"},
	{"geometry":{"coordinates":[-0.029879,39.995748],"type":"Point"},"properties":{"osm_id":"5978022489","tag":{"amenity":"recycling","recycling:glass_bottles":"yes","recycling:paper":"yes","recycling:plastic":"yes","recycling_type":"container"}},"type":"Feature"},
	{"geometry":{"coordinates":[-0.072307,39.980224],"type":"Point"},"properties":{"osm_id":"6052715815","tag":{"amenity":"recycling","recycling:glass_bottles":"yes","recycling:paper":"yes","recycling:plastic":"yes","recycling_type":"container"}},"type":"Feature"},
	{"geometry":{"coordinates":[-0.037782,39.985562],"type":"Point"},"properties":{"osm_id":"7643730646","tag":{"amenity":"recycling","recycling:cooking_oil":"yes","recycling_type":"container"}},"type":"Feature"},
	{"geometry":{"coordinates":[-0.037338,39.985475],"type":"Point"},"properties":{"osm_id":"7643730648","tag":{"amenity":"recycling","recycling:cooking_oil":"yes","recycling_type":"container"}},"type":"Feature"}
]
}
