{
"type": "FeatureCollection",
"features": [
	{"geometry":{"coordinates":[-0.030878,5.688971],"type":"Point"},"properties":{"osm_id":"2585614689","tag":{"amenity":"waste_disposal"}},"type":"Feature"},
	{"geometry":{"coordinates":[-0.025812,5.692004],"type":"Point"},"properties":{"osm_id":"2585614727","tag":{"amenity":"waste_disposal"}},"type":"Feature"},
	{"geometry":{"coordinates":[-0.013943,5.682965],"type":"Point"},"properties":{"name":"Coliba Collection Point","osm_id":"6286104455","tag":{"amenity":"recycling","opening_hours":"24/7","operator":"Coliba","recycling:plastic":"yes","recycling:plastic_bottles":"yes","recycling:plastic_packaging":"yes","recycling_type":"centre"}},"type":"Feature"},
	{"geometry":{"coordinates":[-0.02488,5.683756],"type":"Point"},"properties":{"name":"Coliba Collection Point","osm_id":"6286105435","tag":{"amenity":"recycling","opening_hours":"24/7","operator":"Coliba","recycling:plastic":"yes","recycling:plastic_bottles":"yes","recycling:plastic_packaging":"yes","recycling_type":"centre"}},"type":"Feature"},
	{"geometry":{"coordinates":[-0.003755,5.63771],"type":"Point"},"properties":{"name":"Coliba Collection Point","osm_id":"6286127964","tag":{"amenity":"recycling","opening_hours":"24/7","operator":"Coliba","recycling:plastic":"yes","recycling:plastic_bottles":"yes","recycling:plastic_packaging":"yes","recycling_type":"centre"}},"type":"Feature"},
	{"geometry":{"coordinates":[-0.033039,5.688626],"type":"Point"},"properties":{"name":"SESA collection point","osm_id":"6766479902","tag":{"amenity":"recycling","operator":"SESA Recycling","recycling:cans":"yes","recycling:plastic_bottles":"yes","recycling:plastic_packaging":"yes","recycling_type":"container"}},"type":"Feature"}
]
}
