{
"type": "FeatureCollection",
"features": [
	{"geometry":{"coordinates":[-0.199557,54.076312],"type":"Point"},"properties":{"osm_id":"1242311474","tag":{"amenity":"waste_basket"}},"type":"Feature"},
	{"geometry":{"coordinates":[-0.199784,54.076028],"type":"Point"},"properties":{"osm_id":"1242311477","tag":{"amenity":"waste_basket"}},"type":"Feature"},
	{"geometry":{"coordinates":[-0.200003,54.075745],"type":"Point"},"properties":{"osm_id":"1242311492","tag":{"amenity":"waste_basket"}},"type":"Feature"},
	{"geometry":{"coordinates":[-0.199669,54.076174],"type":"Point"},"properties":{"osm_id":"1242311494","tag":{"amenity":"waste_basket"}},"type":"Feature"},
	{"geometry":{"coordinates":[-0.199893,54.075888],"type":"Point"},"properties":{"osm_id":"1242311496","tag":{"amenity":"waste_basket"}},"type":"Feature"},
	{"geometry":{"coordinates":[-0.189526,54.081789],"type":"Point"},"properties":{"osm_id":"3192157664","tag":{"amenity":"waste_basket"}},"type":"Feature"},
	{"geometry":{"coordinates":[-0.1939,54.080733],"type":"Point"},"properties":{"osm_id":"3241281403","tag":{"amenity":"waste_basket"}},"type":"Feature"},
	{"geometry":{"coordinates":[-0.193978,54.080738],"type":"Point"},"properties":{"osm_id":"3241281404","tag":{"amenity":"waste_basket"}},"type":"Feature"},
	{"geometry":{"coordinates":[-0.194109,54.080969],"type":"Point"},"properties":{"osm_id":"3241281439","tag":{"amenity":"waste_basket"}},"type":"Feature"},
	{"geometry":{"coordinates":[-0.211187,54.08399],"type":"Point"},"properties":{"osm_id":"5612002952","tag":{"amenity":"recycling","recycling":"clothing","recycling_type":"container"}},"type":"Feature"},
	{"geometry":{"coordinates":[-0.197826,54.090118],"type":"Point"},"properties":{"osm_id":"6228631300","tag":{"amenity":"recycling"}},"type":"Feature"},
	{"geometry":{"coordinates":[-0.187039,54.084354],"type":"Point"},"properties":{"osm_id":"6254297523","tag":{"amenity":"waste_basket"}},"type":"Feature"},
	{"geometry":{"coordinates":[-0.196948,54.084748],"type":"Point"},"properties":{"osm_id":"7895429047","tag":{"amenity":"recycling","operator":"Tesco","recycling:clothes":"yes","recycling:glass_bottles":"yes","recycling_type":"container"}},"type":"Feature"}
]
}
