{
"type": "FeatureCollection",
"features": [
	{"geometry":{"coordinates":[-0.262806,52.542388],"type":"Point"},"properties":{"osm_id":"482714646","tag":{"amenity":"recycling"}},"type":"Feature"},
	{"geometry":{"coordinates":[-0.245228,52.569252],"type":"Point"},"properties":{"osm_id":"4575119123","tag":{"amenity":"recycling","recycling:clothes":"yes","recycling:shoes":"yes","recycling_type":"container"}},"type":"Feature"},
	{"geometry":{"coordinates":[-0.236115,52.560378],"type":"Point"},"properties":{"osm_id":"5633371457","tag":{"amenity":"waste_basket"}},"type":"Feature"},
	{"geometry":{"coordinates":[-0.236009,52.559586],"type":"Point"},"properties":{"osm_id":"5633371458","tag":{"amenity":"waste_basket","waste":"dog_excrement"}},"type":"Feature"},
	{"geometry":{"coordinates":[-0.234525,52.561596],"type":"Point"},"properties":{"osm_id":"5633371459","tag":{"amenity":"waste_basket"}},"type":"Feature"},
	{"geometry":{"coordinates":[-0.230741,52.558538],"type":"Point"},"properties":{"osm_id":"5633371467","tag":{"amenity":"waste_basket"}},"type":"Feature"},
	{"geometry":{"coordinates":[-0.230235,52.561262],"type":"Point"},"properties":{"osm_id":"5633371469","tag":{"amenity":"waste_basket"}},"type":"Feature"},
	{"geometry":{"coordinates":[-0.239747,52.557771],"type":"Point"},"properties":{"osm_id":"5633373741","tag":{"amenity":"waste_basket"}},"type":"Feature"},
	{"geometry":{"coordinates":[-0.240457,52.557755],"type":"Point"},"properties":{"osm_id":"5633373743","tag":{"amenity":"waste_basket"}},"type":"Feature"},
	{"geometry":{"coordinates":[-0.224623,52.555985],"type":"Point"},"properties":{"osm_id":"5636006549","tag":{"amenity":"waste_basket","waste":"dog_excrement"}},"type":"Feature"},
	{"geometry":{"coordinates":[-0.218486,52.553128],"type":"Point"},"properties":{"osm_id":"5636006550","tag":{"amenity":"waste_basket"}},"type":"Feature"},
	{"geometry":{"coordinates":[-0.211906,52.549989],"type":"Point"},"properties":{"osm_id":"5636006554","tag":{"amenity":"waste_basket"}},"type":"Feature"},
	{"geometry":{"coordinates":[-0.236003,52.557815],"type":"Point"},"properties":{"osm_id":"5731793866","tag":{"amenity":"waste_basket"}},"type":"Feature"},
	{"geometry":{"coordinates":[-0.236285,52.557741],"type":"Point"},"properties":{"osm_id":"5731793879","tag":{"amenity":"waste_basket"}},"type":"Feature"},
	{"geometry":{"coordinates":[-0.237951,52.557752],"type":"Point"},"properties":{"osm_id":"5731793881","tag":{"amenity":"waste_basket"}},"type":"Feature"},
	{"geometry":{"coordinates":[-0.240523,52.557997],"type":"Point"},"properties":{"osm_id":"5731793901","tag":{"amenity":"waste_basket","waste":"dog_excrement"}},"type":"Feature"},
	{"geometry":{"coordinates":[-0.239708,52.559421],"type":"Point"},"properties":{"osm_id":"5731793904","tag":{"amenity":"waste_basket"}},"type":"Feature"},
	{"geometry":{"coordinates":[-0.241318,52.560925],"type":"Point"},"properties":{"osm_id":"5731793905","tag":{"amenity":"waste_basket"}},"type":"Feature"},
	{"geometry":{"coordinates":[-0.241567,52.561479],"type":"Point"},"properties":{"osm_id":"5731793906","tag":{"amenity":"waste_basket","waste":"dog_excrement"}},"type":"Feature"},
	{"geometry":{"coordinates":[-0.242001,52.563117],"type":"Point"},"properties":{"osm_id":"5731793911","tag":{"amenity":"waste_basket"}},"type":"Feature"},
	{"geometry":{"coordinates":[-0.242084,52.563455],"type":"Point"},"properties":{"osm_id":"5731793917","tag":{"amenity":"waste_basket"}},"type":"Feature"},
	{"geometry":{"coordinates":[-0.242749,52.564412],"type":"Point"},"properties":{"osm_id":"5731793954","tag":{"amenity":"waste_basket"}},"type":"Feature"},
	{"geometry":{"coordinates":[-0.242421,52.564264],"type":"Point"},"properties":{"osm_id":"5731793955","tag":{"amenity":"waste_basket"}},"type":"Feature"},
	{"geometry":{"coordinates":[-0.242033,52.565565],"type":"Point"},"properties":{"osm_id":"5731793962","tag":{"amenity":"waste_basket"}},"type":"Feature"},
	{"geometry":{"coordinates":[-0.245501,52.565733],"type":"Point"},"properties":{"osm_id":"5865999535","tag":{"amenity":"waste_basket"}},"type":"Feature"},
	{"geometry":{"coordinates":[-0.243054,52.571402],"type":"Point"},"properties":{"osm_id":"5917136470","tag":{"amenity":"waste_basket"}},"type":"Feature"},
	{"geometry":{"coordinates":[-0.258759,52.562681],"type":"Point"},"properties":{"osm_id":"5917138434","tag":{"amenity":"waste_basket"}},"type":"Feature"},
	{"geometry":{"coordinates":[-0.259003,52.562541],"type":"Point"},"properties":{"osm_id":"5917138435","tag":{"amenity":"waste_basket"}},"type":"Feature"},
	{"geometry":{"coordinates":[-0.251273,52.565367],"type":"Point"},"properties":{"osm_id":"6073079059","tag":{"amenity":"waste_basket"}},"type":"Feature"},
	{"geometry":{"coordinates":[-0.243061,52.570321],"type":"Point"},"properties":{"osm_id":"6121336011","tag":{"amenity":"waste_basket"}},"type":"Feature"},
	{"geometry":{"coordinates":[-0.24336,52.570091],"type":"Point"},"properties":{"osm_id":"6121336012","tag":{"amenity":"waste_basket"}},"type":"Feature"},
	{"geometry":{"coordinates":[-0.246532,52.574166],"type":"Point"},"properties":{"osm_id":"6121336013","tag":{"amenity":"waste_basket"}},"type":"Feature"},
	{"geometry":{"coordinates":[-0.246405,52.574647],"type":"Point"},"properties":{"osm_id":"6121336014","tag":{"amenity":"waste_basket"}},"type":"Feature"},
	{"geometry":{"coordinates":[-0.247506,52.573496],"type":"Point"},"properties":{"osm_id":"6135466362","tag":{"amenity":"waste_basket"}},"type":"Feature"},
	{"geometry":{"coordinates":[-0.242173,52.569761],"type":"Point"},"properties":{"osm_id":"6160143299","tag":{"amenity":"waste_basket"}},"type":"Feature"},
	{"geometry":{"coordinates":[-0.263166,52.53976],"type":"Point"},"properties":{"osm_id":"6186879800","tag":{"amenity":"waste_basket"}},"type":"Feature"},
	{"geometry":{"coordinates":[-0.240764,52.574034],"type":"Point"},"properties":{"osm_id":"6188209217","tag":{"amenity":"waste_basket"}},"type":"Feature"},
	{"geometry":{"coordinates":[-0.24241,52.572876],"type":"Point"},"properties":{"osm_id":"6193531285","tag":{"amenity":"waste_basket"}},"type":"Feature"},
	{"geometry":{"coordinates":[-0.242418,52.572836],"type":"Point"},"properties":{"osm_id":"6193531286","tag":{"amenity":"waste_basket"}},"type":"Feature"},
	{"geometry":{"coordinates":[-0.239014,52.574691],"type":"Point"},"properties":{"osm_id":"6193565201","tag":{"amenity":"waste_basket"}},"type":"Feature"},
	{"geometry":{"coordinates":[-0.241721,52.574989],"type":"Point"},"properties":{"osm_id":"6193659016","tag":{"amenity":"waste_basket"}},"type":"Feature"},
	{"geometry":{"coordinates":[-0.239348,52.574508],"type":"Point"},"properties":{"osm_id":"6205363454","tag":{"amenity":"waste_basket"}},"type":"Feature"},
	{"geometry":{"coordinates":[-0.239468,52.574549],"type":"Point"},"properties":{"osm_id":"6205363455","tag":{"amenity":"waste_basket"}},"type":"Feature"},
	{"geometry":{"coordinates":[-0.238923,52.574635],"type":"Point"},"properties":{"osm_id":"6205363456","tag":{"amenity":"waste_basket"}},"type":"Feature"},
	{"geometry":{"coordinates":[-0.23896,52.574586],"type":"Point"},"properties":{"osm_id":"6205363457","tag":{"amenity":"waste_basket"}},"type":"Feature"},
	{"geometry":{"coordinates":[-0.242359,52.572967],"type":"Point"},"properties":{"osm_id":"6205363465","tag":{"amenity":"waste_basket"}},"type":"Feature"},
	{"geometry":{"coordinates":[-0.240628,52.574146],"type":"Point"},"properties":{"osm_id":"6205363477","tag":{"amenity":"waste_basket"}},"type":"Feature"},
	{"geometry":{"coordinates":[-0.242763,52.570107],"type":"Point"},"properties":{"osm_id":"6286494593","tag":{"amenity":"waste_basket"}},"type":"Feature"},
	{"geometry":{"coordinates":[-0.262843,52.541139],"type":"Point"},"properties":{"osm_id":"6301099097","tag":{"amenity":"recycling","recycling:batteries":"yes","recycling:light_bulbs":"yes","recycling_type":"container"}},"type":"Feature"},
	{"geometry":{"coordinates":[-0.241633,52.574776],"type":"Point"},"properties":{"osm_id":"6328440726","tag":{"amenity":"waste_basket","waste":"trash"}},"type":"Feature"},
	{"geometry":{"coordinates":[-0.261982,52.55117],"type":"Point"},"properties":{"osm_id":"6419215237","tag":{"amenity":"waste_basket","waste":"trash"}},"type":"Feature"},
	{"geometry":{"coordinates":[-0.246444,52.574988],"type":"Point"},"properties":{"osm_id":"6423603222","tag":{"amenity":"waste_basket","waste":"trash"}},"type":"Feature"},
	{"geometry":{"coordinates":[-0.232732,52.584526],"type":"Point"},"properties":{"osm_id":"6560952908","tag":{"amenity":"waste_basket"}},"type":"Feature"},
	{"geometry":{"coordinates":[-0.254843,52.569049],"type":"Point"},"properties":{"highway":"street_lamp","osm_id":"6560952972","tag":{"amenity":"waste_basket"}},"type":"Feature"},
	{"geometry":{"coordinates":[-0.24942,52.55846],"type":"Point"},"properties":{"osm_id":"6560952980","tag":{"amenity":"waste_basket"}},"type":"Feature"},
	{"geometry":{"coordinates":[-0.249969,52.557767],"type":"Point"},"properties":{"osm_id":"6560952981","tag":{"amenity":"waste_basket"}},"type":"Feature"},
	{"geometry":{"coordinates":[-0.242248,52.571777],"type":"Point"},"properties":{"osm_id":"6562995250","tag":{"amenity":"waste_basket"}},"type":"Feature"},
	{"geometry":{"coordinates":[-0.242302,52.571039],"type":"Point"},"properties":{"osm_id":"6562995251","tag":{"amenity":"waste_basket"}},"type":"Feature"},
	{"geometry":{"coordinates":[-0.24231,52.570729],"type":"Point"},"properties":{"osm_id":"6562995256","tag":{"amenity":"waste_basket"}},"type":"Feature"},
	{"geometry":{"coordinates":[-0.242168,52.569913],"type":"Point"},"properties":{"osm_id":"6562995257","tag":{"amenity":"waste_basket"}},"type":"Feature"},
	{"geometry":{"coordinates":[-0.242176,52.572152],"type":"Point"},"properties":{"osm_id":"6562995260","tag":{"amenity":"waste_basket"}},"type":"Feature"},
	{"geometry":{"coordinates":[-0.242682,52.572448],"type":"Point"},"properties":{"osm_id":"6562995262","tag":{"amenity":"waste_basket"}},"type":"Feature"},
	{"geometry":{"coordinates":[-0.242788,52.572672],"type":"Point"},"properties":{"osm_id":"6562995263","tag":{"amenity":"waste_basket"}},"type":"Feature"},
	{"geometry":{"coordinates":[-0.243697,52.572865],"type":"Point"},"properties":{"osm_id":"6562995269","tag":{"amenity":"waste_basket"}},"type":"Feature"},
	{"geometry":{"coordinates":[-0.243209,52.572459],"type":"Point"},"properties":{"osm_id":"6562995271","tag":{"amenity":"waste_basket"}},"type":"Feature"},
	{"geometry":{"coordinates":[-0.207516,52.574678],"type":"Point"},"properties":{"name":"Peterborough Household Recycling Centre","osm_id":"7170704689","tag":{"amenity":"recycling","recycling_type":"centre"}},"type":"Feature"},
	{"geometry":{"coordinates":[-0.252734,52.54282],"type":"Point"},"properties":{"osm_id":"7752780348","tag":{"amenity":"waste_basket"}},"type":"Feature"}
]
}
