{
"type": "FeatureCollection",
"features": [
	{"geometry":{"coordinates":[-0.20578,51.707066],"type":"Point"},"properties":{"name":"Potters Bar Household Waste Recycling Centre","osm_id":"16146555","tag":{"addr:postcode":"EN6 3JN","addr:street":"Cranborne Road","amenity":"recycling","opening_hours":"Mo-Su 08:00-16:00","recycling:aluminium":"yes","recycling:batteries":"yes","recycling:beverage_cartons":"yes","recycling:books":"yes","recycling:cans":"yes","recycling:cardboard":"yes","recycling:cartons":"yes","recycling:chipboard":"yes","recycling:clothes":"yes","recycling:cooking_oil":"yes","recycling:cork":"yes","recycling:engine_oil":"yes","recycling:flat_glass":"yes","recycling:foil":"yes","recycling:fridge_and_freezer":"yes","recycling:garden_waste":"yes","recycling:glass_bottles":"yes","recycling:green_waste":"yes","recycling:magazines":"yes","recycling:newspaper":"yes","recycling:paper":"yes","recycling:paper_packaging":"yes","recycling:plasterboard":"yes","recycling:plastic":"yes","recycling:plastic_bottles":"yes","recycling:polyester":"yes","recycling:scrap_metal":"yes","recycling:sheet_metal":"yes","recycling:shoes":"yes","recycling:small_appliances":"yes","recycling:tv_monitor":"yes","recycling:tyres":"yes","recycling:waste":"yes","recycling:waste_oil":"yes","recycling:white_goods":"yes","recycling:wood":"yes","website":"https://www.hertsmere.gov.uk/environmentplanning/recyclingandwaste/recycling/householdwastedisposalsites.jsp"}},"type":"Feature"},
	{"geometry":{"coordinates":[-0.187799,51.682057],"type":"Point"},"properties":{"name":"Duke of York Garden Centre","osm_id":"1544600871","tag":{"amenity":"recycling","recycling:clothes":"yes","recycling:shoes":"yes"}},"type":"Feature"},
	{"geometry":{"coordinates":[-0.222359,51.686526],"type":"Point"},"properties":{"osm_id":"8833910365","tag":{"amenity":"waste_basket","waste":"dog_excrement"}},"type":"Feature"},
	{"geometry":{"coordinates":[-0.177856,51.6918],"type":"Point"},"properties":{"osm_id":"8937074527","tag":{"amenity":"waste_basket"}},"type":"Feature"},
	{"geometry":{"coordinates":[-0.176332,51.695591],"type":"Point"},"properties":{"osm_id":"8939009438","tag":{"amenity":"waste_basket"}},"type":"Feature"},
	{"geometry":{"coordinates":[-0.176269,51.69537],"type":"Point"},"properties":{"osm_id":"8939009441","tag":{"amenity":"waste_basket"}},"type":"Feature"},
	{"geometry":{"coordinates":[-0.182153,51.692907],"type":"Point"},"properties":{"osm_id":"8939242662","tag":{"amenity":"waste_basket"}},"type":"Feature"},
	{"geometry":{"coordinates":[-0.193289,51.695128],"type":"Point"},"properties":{"osm_id":"8940057828","tag":{"amenity":"waste_basket"}},"type":"Feature"},
	{"geometry":{"coordinates":[-0.19246,51.696545],"type":"Point"},"properties":{"osm_id":"8942725635","tag":{"amenity":"waste_basket"}},"type":"Feature"},
	{"geometry":{"coordinates":[-0.191928,51.697129],"type":"Point"},"properties":{"osm_id":"8942725661","tag":{"amenity":"waste_basket"}},"type":"Feature"},
	{"geometry":{"coordinates":[-0.182532,51.703532],"type":"Point"},"properties":{"osm_id":"8986742181","tag":{"amenity":"waste_basket"}},"type":"Feature"},
	{"geometry":{"coordinates":[-0.197796,51.69154],"type":"Point"},"properties":{"osm_id":"8991499796","tag":{"amenity":"waste_basket"}},"type":"Feature"},
	{"geometry":{"coordinates":[-0.178206,51.693202],"type":"Point"},"properties":{"osm_id":"9021486052","tag":{"amenity":"waste_basket"}},"type":"Feature"},
	{"geometry":{"coordinates":[-0.179562,51.69241],"type":"Point"},"properties":{"osm_id":"9022924624","tag":{"amenity":"waste_basket"}},"type":"Feature"},
	{"geometry":{"coordinates":[-0.178872,51.692486],"type":"Point"},"properties":{"osm_id":"9022924659","tag":{"amenity":"waste_basket"}},"type":"Feature"},
	{"geometry":{"coordinates":[-0.178295,51.688657],"type":"Point"},"properties":{"osm_id":"9023905805","tag":{"amenity":"waste_basket"}},"type":"Feature"},
	{"geometry":{"coordinates":[-0.177955,51.687601],"type":"Point"},"properties":{"osm_id":"9023919926","tag":{"amenity":"waste_basket"}},"type":"Feature"},
	{"geometry":{"coordinates":[-0.193729,51.695309],"type":"Point"},"properties":{"osm_id":"9024051379","tag":{"amenity":"waste_basket"}},"type":"Feature"},
	{"geometry":{"coordinates":[-0.193801,51.695092],"type":"Point"},"properties":{"osm_id":"9024051390","tag":{"amenity":"waste_basket"}},"type":"Feature"},
	{"geometry":{"coordinates":[-0.193449,51.69492],"type":"Point"},"properties":{"osm_id":"9024051391","tag":{"amenity":"waste_basket"}},"type":"Feature"},
	{"geometry":{"coordinates":[-0.176937,51.695454],"type":"Point"},"properties":{"osm_id":"9025575983","tag":{"amenity":"waste_basket"}},"type":"Feature"},
	{"geometry":{"coordinates":[-0.192928,51.697929],"type":"Point"},"properties":{"osm_id":"9036385291","tag":{"amenity":"waste_basket"}},"type":"Feature"},
	{"geometry":{"coordinates":[-0.189019,51.700852],"type":"Point"},"properties":{"osm_id":"9038114083","tag":{"amenity":"waste_basket"}},"type":"Feature"}
]
}
