{
"type": "FeatureCollection",
"features": [
	{"geometry":{"coordinates":[-0.239902,51.615099],"type":"Point"},"properties":{"osm_id":"249573139","tag":{"amenity":"recycling"}},"type":"Feature"},
	{"geometry":{"coordinates":[-0.240915,51.5778],"type":"Point"},"properties":{"osm_id":"419881067","tag":{"amenity":"recycling"}},"type":"Feature"},
	{"geometry":{"coordinates":[-0.217174,51.575218],"type":"Point"},"properties":{"osm_id":"769140119","tag":{"amenity":"recycling"}},"type":"Feature"},
	{"geometry":{"coordinates":[-0.185009,51.617944],"type":"Point"},"properties":{"osm_id":"930490150","tag":{"amenity":"recycling"}},"type":"Feature"},
	{"geometry":{"coordinates":[-0.262969,51.60026],"type":"Point"},"properties":{"osm_id":"3780184374","tag":{"amenity":"waste_basket"}},"type":"Feature"},
	{"geometry":{"coordinates":[-0.262814,51.600707],"type":"Point"},"properties":{"osm_id":"3780184382","tag":{"amenity":"waste_basket"}},"type":"Feature"},
	{"geometry":{"coordinates":[-0.261271,51.600432],"type":"Point"},"properties":{"osm_id":"3780188057","tag":{"amenity":"waste_basket"}},"type":"Feature"},
	{"geometry":{"coordinates":[-0.261397,51.600907],"type":"Point"},"properties":{"osm_id":"3780188070","tag":{"amenity":"waste_basket"}},"type":"Feature"},
	{"geometry":{"coordinates":[-0.261419,51.60096],"type":"Point"},"properties":{"osm_id":"3780188072","tag":{"amenity":"waste_basket","waste":"dog"}},"type":"Feature"},
	{"geometry":{"coordinates":[-0.260747,51.599848],"type":"Point"},"properties":{"osm_id":"3780189247","tag":{"amenity":"waste_basket"}},"type":"Feature"},
	{"geometry":{"coordinates":[-0.260082,51.599285],"type":"Point"},"properties":{"osm_id":"3780189248","tag":{"amenity":"waste_basket"}},"type":"Feature"},
	{"geometry":{"coordinates":[-0.261397,51.60024],"type":"Point"},"properties":{"osm_id":"3780189252","tag":{"amenity":"waste_basket"}},"type":"Feature"},
	{"geometry":{"coordinates":[-0.260003,51.599294],"type":"Point"},"properties":{"osm_id":"3780189253","tag":{"amenity":"waste_basket","waste":"dog"}},"type":"Feature"},
	{"geometry":{"coordinates":[-0.262293,51.599944],"type":"Point"},"properties":{"osm_id":"3780196369","tag":{"amenity":"waste_basket","waste":"dog"}},"type":"Feature"},
	{"geometry":{"coordinates":[-0.262256,51.59996],"type":"Point"},"properties":{"osm_id":"3780196376","tag":{"amenity":"waste_basket"}},"type":"Feature"},
	{"geometry":{"coordinates":[-0.258286,51.597668],"type":"Point"},"properties":{"osm_id":"3780202516","tag":{"amenity":"waste_basket"}},"type":"Feature"},
	{"geometry":{"coordinates":[-0.258458,51.598534],"type":"Point"},"properties":{"osm_id":"3780202517","tag":{"amenity":"waste_basket"}},"type":"Feature"},
	{"geometry":{"coordinates":[-0.258082,51.598079],"type":"Point"},"properties":{"osm_id":"3780202521","tag":{"amenity":"waste_basket","waste":"dog"}},"type":"Feature"},
	{"geometry":{"coordinates":[-0.258329,51.599787],"type":"Point"},"properties":{"osm_id":"3780202524","tag":{"amenity":"waste_basket","waste":"dog"}},"type":"Feature"},
	{"geometry":{"coordinates":[-0.258356,51.599855],"type":"Point"},"properties":{"osm_id":"3780202525","tag":{"amenity":"waste_basket"}},"type":"Feature"},
	{"geometry":{"coordinates":[-0.259203,51.597351],"type":"Point"},"properties":{"osm_id":"3780202527","tag":{"amenity":"waste_basket","waste":"dog"}},"type":"Feature"},
	{"geometry":{"coordinates":[-0.259153,51.597279],"type":"Point"},"properties":{"osm_id":"3780202530","tag":{"amenity":"waste_basket"}},"type":"Feature"},
	{"geometry":{"coordinates":[-0.257943,51.596108],"type":"Point"},"properties":{"osm_id":"3780209861","tag":{"amenity":"waste_basket"}},"type":"Feature"},
	{"geometry":{"coordinates":[-0.257868,51.596185],"type":"Point"},"properties":{"osm_id":"3780209864","tag":{"amenity":"waste_basket","waste":"dog"}},"type":"Feature"},
	{"geometry":{"coordinates":[-0.255132,51.597188],"type":"Point"},"properties":{"osm_id":"3780214995","tag":{"amenity":"waste_basket","waste":"dog"}},"type":"Feature"},
	{"geometry":{"coordinates":[-0.255518,51.598947],"type":"Point"},"properties":{"osm_id":"3780806266","tag":{"amenity":"waste_basket","waste":"dog"}},"type":"Feature"},
	{"geometry":{"coordinates":[-0.255561,51.598974],"type":"Point"},"properties":{"osm_id":"3780806268","tag":{"amenity":"waste_basket"}},"type":"Feature"},
	{"geometry":{"coordinates":[-0.184101,51.567994],"type":"Point"},"properties":{"osm_id":"4077383124","tag":{"amenity":"waste_basket"}},"type":"Feature"},
	{"geometry":{"coordinates":[-0.185421,51.567961],"type":"Point"},"properties":{"osm_id":"4077387333","tag":{"amenity":"waste_basket"}},"type":"Feature"},
	{"geometry":{"coordinates":[-0.18894,51.568003],"type":"Point"},"properties":{"osm_id":"4077401377","tag":{"amenity":"waste_basket"}},"type":"Feature"},
	{"geometry":{"coordinates":[-0.188298,51.567705],"type":"Point"},"properties":{"osm_id":"4077404832","tag":{"amenity":"waste_basket"}},"type":"Feature"},
	{"geometry":{"coordinates":[-0.192498,51.568333],"type":"Point"},"properties":{"osm_id":"4077414199","tag":{"amenity":"waste_basket"}},"type":"Feature"},
	{"geometry":{"coordinates":[-0.19255,51.567602],"type":"Point"},"properties":{"osm_id":"4077414208","tag":{"amenity":"waste_basket"}},"type":"Feature"},
	{"geometry":{"coordinates":[-0.192595,51.56813],"type":"Point"},"properties":{"osm_id":"4077414216","tag":{"amenity":"waste_basket"}},"type":"Feature"},
	{"geometry":{"coordinates":[-0.192524,51.567528],"type":"Point"},"properties":{"osm_id":"4077414224","tag":{"amenity":"waste_basket"}},"type":"Feature"},
	{"geometry":{"coordinates":[-0.191867,51.568368],"type":"Point"},"properties":{"osm_id":"4077414243","tag":{"amenity":"waste_basket"}},"type":"Feature"},
	{"geometry":{"coordinates":[-0.238776,51.57663],"type":"Point"},"properties":{"osm_id":"4344934935","tag":{"amenity":"waste_basket"}},"type":"Feature"},
	{"geometry":{"coordinates":[-0.240902,51.578841],"type":"Point"},"properties":{"osm_id":"4347080467","tag":{"amenity":"waste_basket"}},"type":"Feature"},
	{"geometry":{"coordinates":[-0.209886,51.608549],"type":"Point"},"properties":{"osm_id":"4381517474","tag":{"amenity":"recycling","recycling_type":"container"}},"type":"Feature"},
	{"geometry":{"coordinates":[-0.193618,51.611674],"type":"Point"},"properties":{"osm_id":"4455826734","tag":{"amenity":"waste_basket"}},"type":"Feature"},
	{"geometry":{"coordinates":[-0.19342,51.611754],"type":"Point"},"properties":{"osm_id":"4455826735","tag":{"amenity":"waste_basket"}},"type":"Feature"},
	{"geometry":{"coordinates":[-0.192566,51.612063],"type":"Point"},"properties":{"osm_id":"4455826736","tag":{"amenity":"waste_basket"}},"type":"Feature"},
	{"geometry":{"coordinates":[-0.193701,51.611707],"type":"Point"},"properties":{"osm_id":"4455826745","tag":{"amenity":"waste_basket","waste":"dog_excrement"}},"type":"Feature"},
	{"geometry":{"coordinates":[-0.190324,51.613632],"type":"Point"},"properties":{"osm_id":"4455826753","tag":{"amenity":"waste_basket"}},"type":"Feature"},
	{"geometry":{"coordinates":[-0.190826,51.612815],"type":"Point"},"properties":{"osm_id":"4455826758","tag":{"amenity":"waste_basket"}},"type":"Feature"},
	{"geometry":{"coordinates":[-0.189938,51.614116],"type":"Point"},"properties":{"osm_id":"4455826761","tag":{"amenity":"waste_basket"}},"type":"Feature"},
	{"geometry":{"coordinates":[-0.189729,51.614632],"type":"Point"},"properties":{"osm_id":"4455826763","tag":{"amenity":"waste_basket","waste":"dog_excrement"}},"type":"Feature"},
	{"geometry":{"coordinates":[-0.189815,51.614499],"type":"Point"},"properties":{"osm_id":"4455826764","tag":{"amenity":"waste_basket"}},"type":"Feature"},
	{"geometry":{"coordinates":[-0.248444,51.6132],"type":"Point"},"properties":{"osm_id":"4579937319","tag":{"amenity":"recycling","recycling:cans":"yes","recycling:cardboard":"yes","recycling:paper":"yes","recycling:plastic":"yes","recycling_type":"container","wheelchair":"no"}},"type":"Feature"},
	{"geometry":{"coordinates":[-0.18489,51.603599],"type":"Point"},"properties":{"osm_id":"4994649538","tag":{"amenity":"waste_basket"}},"type":"Feature"},
	{"geometry":{"coordinates":[-0.184388,51.603916],"type":"Point"},"properties":{"osm_id":"4994649539","tag":{"amenity":"waste_basket","waste":"dog_excrement"}},"type":"Feature"},
	{"geometry":{"coordinates":[-0.192341,51.6011],"type":"Point"},"properties":{"osm_id":"5061630781","tag":{"amenity":"waste_basket"}},"type":"Feature"},
	{"geometry":{"coordinates":[-0.245038,51.615135],"type":"Point"},"properties":{"osm_id":"5749904147","tag":{"amenity":"waste_basket","waste":"trash"}},"type":"Feature"},
	{"geometry":{"coordinates":[-0.248007,51.614286],"type":"Point"},"properties":{"osm_id":"5762034722","tag":{"amenity":"waste_basket","waste":"trash"}},"type":"Feature"},
	{"geometry":{"coordinates":[-0.186204,51.565033],"type":"Point"},"properties":{"osm_id":"5975658285","tag":{"amenity":"waste_basket"}},"type":"Feature"},
	{"geometry":{"coordinates":[-0.200027,51.59082],"type":"Point"},"properties":{"osm_id":"6052905798","tag":{"amenity":"waste_basket","waste":"trash"}},"type":"Feature"},
	{"geometry":{"coordinates":[-0.238474,51.613359],"type":"Point"},"properties":{"osm_id":"6223203429","tag":{"amenity":"waste_basket"}},"type":"Feature"},
	{"geometry":{"coordinates":[-0.237777,51.613676],"type":"Point"},"properties":{"osm_id":"6223203431","tag":{"amenity":"waste_basket"}},"type":"Feature"},
	{"geometry":{"coordinates":[-0.239649,51.615634],"type":"Point"},"properties":{"osm_id":"6223263734","tag":{"amenity":"waste_basket"}},"type":"Feature"}
]
}
