{
"type": "FeatureCollection",
"features": [
	{"geometry":{"coordinates":[-0.176671,51.520487],"type":"Point"},"properties":{"osm_id":"34578728","tag":{"amenity":"recycling"}},"type":"Feature"},
	{"geometry":{"coordinates":[-0.25166,51.545781],"type":"Point"},"properties":{"osm_id":"304464939","tag":{"amenity":"recycling"}},"type":"Feature"},
	{"geometry":{"coordinates":[-0.260218,51.534728],"type":"Point"},"properties":{"osm_id":"304652747","tag":{"amenity":"recycling"}},"type":"Feature"},
	{"geometry":{"coordinates":[-0.212819,51.513197],"type":"Point"},"properties":{"osm_id":"419776463","tag":{"amenity":"recycling","location":"overground","recycling_type":"container"}},"type":"Feature"},
	{"geometry":{"coordinates":[-0.198164,51.518615],"type":"Point"},"properties":{"osm_id":"511660784","tag":{"amenity":"recycling"}},"type":"Feature"},
	{"geometry":{"coordinates":[-0.196134,51.518267],"type":"Point"},"properties":{"osm_id":"511703522","tag":{"amenity":"recycling"}},"type":"Feature"},
	{"geometry":{"coordinates":[-0.181506,51.517746],"type":"Point"},"properties":{"osm_id":"521651713","tag":{"amenity":"waste_basket"}},"type":"Feature"},
	{"geometry":{"coordinates":[-0.186408,51.517587],"type":"Point"},"properties":{"osm_id":"521681526","tag":{"amenity":"recycling"}},"type":"Feature"},
	{"geometry":{"coordinates":[-0.18898,51.517866],"type":"Point"},"properties":{"osm_id":"521715912","tag":{"amenity":"waste_basket"}},"type":"Feature"},
	{"geometry":{"coordinates":[-0.188825,51.517762],"type":"Point"},"properties":{"osm_id":"521715917","tag":{"amenity":"waste_basket"}},"type":"Feature"},
	{"geometry":{"coordinates":[-0.179256,51.541398],"type":"Point"},"properties":{"osm_id":"709208361","tag":{"amenity":"recycling"}},"type":"Feature"},
	{"geometry":{"coordinates":[-0.20369,51.547668],"type":"Point"},"properties":{"osm_id":"737790008","tag":{"amenity":"recycling"}},"type":"Feature"},
	{"geometry":{"coordinates":[-0.246879,51.522295],"type":"Point"},"properties":{"osm_id":"934845738","tag":{"amenity":"waste_basket"}},"type":"Feature"},
	{"geometry":{"coordinates":[-0.245249,51.52275],"type":"Point"},"properties":{"osm_id":"934845739","tag":{"amenity":"waste_basket"}},"type":"Feature"},
	{"geometry":{"coordinates":[-0.237433,51.524408],"type":"Point"},"properties":{"osm_id":"934845740","tag":{"amenity":"waste_basket"}},"type":"Feature"},
	{"geometry":{"coordinates":[-0.246061,51.522525],"type":"Point"},"properties":{"osm_id":"934845741","tag":{"amenity":"waste_basket"}},"type":"Feature"},
	{"geometry":{"coordinates":[-0.240574,51.52366],"type":"Point"},"properties":{"osm_id":"934845744","tag":{"amenity":"waste_basket"}},"type":"Feature"},
	{"geometry":{"coordinates":[-0.19007,51.513573],"type":"Point"},"properties":{"osm_id":"1116225153","tag":{"amenity":"recycling"}},"type":"Feature"},
	{"geometry":{"coordinates":[-0.183015,51.546992],"type":"Point"},"properties":{"osm_id":"1230932184","tag":{"amenity":"recycling"}},"type":"Feature"},
	{"geometry":{"coordinates":[-0.187585,51.539797],"type":"Point"},"properties":{"osm_id":"1343327806","tag":{"amenity":"recycling","recycling:clothes":"yes","recycling:shoes":"yes","recycling_type":"container"}},"type":"Feature"},
	{"geometry":{"coordinates":[-0.185843,51.51386],"type":"Point"},"properties":{"osm_id":"1356415184","tag":{"amenity":"recycling"}},"type":"Feature"},
	{"geometry":{"coordinates":[-0.186156,51.524061],"type":"Point"},"properties":{"osm_id":"1374549032","tag":{"amenity":"recycling","recycling:cans":"yes","recycling:cardboard":"yes","recycling:glass":"yes","recycling:paper":"yes","recycling:plastic":"yes","recycling:waste":"yes","recycling_type":"container"}},"type":"Feature"},
	{"geometry":{"coordinates":[-0.187049,51.523201],"type":"Point"},"properties":{"osm_id":"1374549466","tag":{"amenity":"recycling","recycling:cans":"yes","recycling:cardboard":"yes","recycling:glass":"yes","recycling:paper":"yes","recycling:plastic":"yes","recycling:waste":"yes","recycling_type":"container"}},"type":"Feature"},
	{"geometry":{"coordinates":[-0.183931,51.523184],"type":"Point"},"properties":{"osm_id":"1374555353","tag":{"amenity":"recycling","recycling:cans":"yes","recycling:cardboard":"yes","recycling:clothes":"yes","recycling:glass":"yes","recycling:paper":"yes","recycling:plastic":"yes","recycling:shoes":"yes","recycling:small_appliances":"yes","recycling:waste":"yes","recycling_type":"container"}},"type":"Feature"},
	{"geometry":{"coordinates":[-0.197919,51.540197],"type":"Point"},"properties":{"osm_id":"1619545977","tag":{"amenity":"recycling"}},"type":"Feature"},
	{"geometry":{"coordinates":[-0.192232,51.5518],"type":"Point"},"properties":{"osm_id":"1671272862","tag":{"amenity":"recycling"}},"type":"Feature"},
	{"geometry":{"coordinates":[-0.185231,51.524421],"type":"Point"},"properties":{"osm_id":"1675544143","tag":{"amenity":"waste_basket"}},"type":"Feature"},
	{"geometry":{"coordinates":[-0.191325,51.52756],"type":"Point"},"properties":{"osm_id":"1687078418","tag":{"amenity":"waste_basket"}},"type":"Feature"},
	{"geometry":{"coordinates":[-0.192666,51.526953],"type":"Point"},"properties":{"osm_id":"1687504715","tag":{"amenity":"recycling","recycling:cans":"yes","recycling:cardboard":"yes","recycling:glass":"yes","recycling:paper":"yes","recycling:plastic":"yes","recycling:waste":"yes","recycling_type":"container"}},"type":"Feature"},
	{"geometry":{"coordinates":[-0.193524,51.529404],"type":"Point"},"properties":{"osm_id":"1687546259","tag":{"amenity":"recycling","recycling:cans":"yes","recycling:cardboard":"yes","recycling:glass":"yes","recycling:paper":"yes","recycling:plastic":"yes","recycling:waste":"yes","recycling_type":"container"}},"type":"Feature"},
	{"geometry":{"coordinates":[-0.189855,51.527595],"type":"Point"},"properties":{"osm_id":"1688516450","tag":{"amenity":"waste_basket"}},"type":"Feature"},
	{"geometry":{"coordinates":[-0.201934,51.523269],"type":"Point"},"properties":{"osm_id":"1896476884","tag":{"amenity":"recycling","recycling:cans":"yes","recycling:cardboard":"yes","recycling:glass":"yes","recycling:plastic":"yes","recycling:waste":"yes","recycling_type":"container"}},"type":"Feature"},
	{"geometry":{"coordinates":[-0.179675,51.519325],"type":"Point"},"properties":{"osm_id":"2364619728","tag":{"amenity":"waste_basket"}},"type":"Feature"},
	{"geometry":{"coordinates":[-0.19638,51.5447],"type":"Point"},"properties":{"osm_id":"2472549091","tag":{"amenity":"waste_basket"}},"type":"Feature"},
	{"geometry":{"coordinates":[-0.199409,51.544872],"type":"Point"},"properties":{"osm_id":"2473260308","tag":{"amenity":"recycling"}},"type":"Feature"},
	{"geometry":{"coordinates":[-0.18904,51.545153],"type":"Point"},"properties":{"osm_id":"2473889958","tag":{"amenity":"waste_basket"}},"type":"Feature"},
	{"geometry":{"coordinates":[-0.186812,51.53993],"type":"Point"},"properties":{"osm_id":"2474278426","tag":{"amenity":"waste_basket"}},"type":"Feature"},
	{"geometry":{"coordinates":[-0.184582,51.540401],"type":"Point"},"properties":{"osm_id":"2474278567","tag":{"amenity":"recycling"}},"type":"Feature"},
	{"geometry":{"coordinates":[-0.183995,51.54054],"type":"Point"},"properties":{"osm_id":"2474278600","tag":{"amenity":"recycling"}},"type":"Feature"},
	{"geometry":{"coordinates":[-0.181924,51.541051],"type":"Point"},"properties":{"osm_id":"2474278688","tag":{"amenity":"recycling"}},"type":"Feature"},
	{"geometry":{"coordinates":[-0.181512,51.541164],"type":"Point"},"properties":{"osm_id":"2474278698","tag":{"amenity":"recycling"}},"type":"Feature"},
	{"geometry":{"coordinates":[-0.181206,51.541242],"type":"Point"},"properties":{"osm_id":"2474278706","tag":{"amenity":"recycling"}},"type":"Feature"},
	{"geometry":{"coordinates":[-0.18079,51.541349],"type":"Point"},"properties":{"osm_id":"2474278716","tag":{"amenity":"recycling"}},"type":"Feature"},
	{"geometry":{"coordinates":[-0.180693,51.54192],"type":"Point"},"properties":{"osm_id":"2475841118","tag":{"amenity":"waste_basket"}},"type":"Feature"},
	{"geometry":{"coordinates":[-0.180023,51.545517],"type":"Point"},"properties":{"osm_id":"2475842024","tag":{"amenity":"waste_basket"}},"type":"Feature"},
	{"geometry":{"coordinates":[-0.192489,51.544321],"type":"Point"},"properties":{"osm_id":"2478729071","tag":{"amenity":"waste_basket","check_date":"2020-03-31"}},"type":"Feature"},
	{"geometry":{"coordinates":[-0.192565,51.537345],"type":"Point"},"properties":{"osm_id":"2525475603","tag":{"amenity":"waste_basket"}},"type":"Feature"},
	{"geometry":{"coordinates":[-0.191811,51.528731],"type":"Point"},"properties":{"osm_id":"2532779184","tag":{"amenity":"waste_basket"}},"type":"Feature"},
	{"geometry":{"coordinates":[-0.191934,51.528607],"type":"Point"},"properties":{"osm_id":"2532779188","tag":{"amenity":"waste_basket","check_date":"2020-06-01"}},"type":"Feature"},
	{"geometry":{"coordinates":[-0.191249,51.529444],"type":"Point"},"properties":{"osm_id":"2532779373","tag":{"amenity":"waste_basket","check_date":"2020-04-25"}},"type":"Feature"},
	{"geometry":{"coordinates":[-0.189223,51.529627],"type":"Point"},"properties":{"osm_id":"2532779408","tag":{"amenity":"waste_basket","check_date":"2020-05-29"}},"type":"Feature"},
	{"geometry":{"coordinates":[-0.189225,51.529633],"type":"Point"},"properties":{"osm_id":"2532779411","tag":{"amenity":"recycling"}},"type":"Feature"},
	{"geometry":{"coordinates":[-0.18936,51.529649],"type":"Point"},"properties":{"osm_id":"2532779416","tag":{"amenity":"waste_basket"}},"type":"Feature"},
	{"geometry":{"coordinates":[-0.189313,51.529677],"type":"Point"},"properties":{"osm_id":"2532779427","tag":{"amenity":"waste_basket"}},"type":"Feature"},
	{"geometry":{"coordinates":[-0.191097,51.530645],"type":"Point"},"properties":{"osm_id":"2532779611","tag":{"amenity":"waste_basket","check_date":"2020-02-02"}},"type":"Feature"},
	{"geometry":{"coordinates":[-0.191093,51.53066],"type":"Point"},"properties":{"osm_id":"2532779615","tag":{"amenity":"recycling","recycling_type":"container"}},"type":"Feature"},
	{"geometry":{"coordinates":[-0.191095,51.532088],"type":"Point"},"properties":{"osm_id":"2532779997","tag":{"amenity":"recycling"}},"type":"Feature"},
	{"geometry":{"coordinates":[-0.221589,51.537474],"type":"Point"},"properties":{"osm_id":"2619954406","tag":{"amenity":"recycling"}},"type":"Feature"},
	{"geometry":{"coordinates":[-0.19278,51.544507],"type":"Point"},"properties":{"osm_id":"2647994421","tag":{"amenity":"waste_basket"}},"type":"Feature"},
	{"geometry":{"coordinates":[-0.187352,51.533535],"type":"Point"},"properties":{"osm_id":"2824528146","tag":{"amenity":"waste_basket"}},"type":"Feature"},
	{"geometry":{"coordinates":[-0.187355,51.533678],"type":"Point"},"properties":{"osm_id":"2824528147","tag":{"amenity":"waste_basket","check_date":"2019-11-17"}},"type":"Feature"},
	{"geometry":{"coordinates":[-0.189137,51.534666],"type":"Point"},"properties":{"osm_id":"2824528166","tag":{"amenity":"waste_basket"}},"type":"Feature"},
	{"geometry":{"coordinates":[-0.196017,51.534828],"type":"Point"},"properties":{"osm_id":"3501250673","tag":{"amenity":"waste_disposal"}},"type":"Feature"},
	{"geometry":{"coordinates":[-0.199326,51.534058],"type":"Point"},"properties":{"osm_id":"3522707156","tag":{"amenity":"waste_disposal","check_date":"2019-11-29"}},"type":"Feature"},
	{"geometry":{"coordinates":[-0.204501,51.534121],"type":"Point"},"properties":{"osm_id":"3522707160","tag":{"amenity":"waste_basket","recycling":"yes"}},"type":"Feature"},
	{"geometry":{"coordinates":[-0.204563,51.534243],"type":"Point"},"properties":{"osm_id":"3522707172","tag":{"amenity":"waste_basket","recycling":"yes"}},"type":"Feature"},
	{"geometry":{"coordinates":[-0.198655,51.534271],"type":"Point"},"properties":{"osm_id":"3522707177","tag":{"amenity":"waste_disposal","check_date":"2019-11-29"}},"type":"Feature"},
	{"geometry":{"coordinates":[-0.177488,51.521124],"type":"Point"},"properties":{"osm_id":"3581338021","tag":{"amenity":"waste_basket"}},"type":"Feature"},
	{"geometry":{"coordinates":[-0.197742,51.511013],"type":"Point"},"properties":{"osm_id":"3621014616","tag":{"amenity":"waste_basket"}},"type":"Feature"},
	{"geometry":{"coordinates":[-0.176045,51.514928],"type":"Point"},"properties":{"osm_id":"3624951698","tag":{"amenity":"waste_basket"}},"type":"Feature"},
	{"geometry":{"coordinates":[-0.181088,51.517723],"type":"Point"},"properties":{"osm_id":"3624951699","tag":{"amenity":"waste_basket"}},"type":"Feature"},
	{"geometry":{"coordinates":[-0.203057,51.513495],"type":"Point"},"properties":{"osm_id":"3625977868","tag":{"amenity":"waste_basket"}},"type":"Feature"},
	{"geometry":{"coordinates":[-0.202878,51.513559],"type":"Point"},"properties":{"osm_id":"3625978283","tag":{"amenity":"waste_basket"}},"type":"Feature"},
	{"geometry":{"coordinates":[-0.206883,51.518368],"type":"Point"},"properties":{"barrier":"gate","osm_id":"3634330620"},"type":"Feature"},
	{"geometry":{"coordinates":[-0.1907,51.533685],"type":"Point"},"properties":{"osm_id":"3638910432","tag":{"amenity":"waste_basket","check_date":"2019-10-12"}},"type":"Feature"},
	{"geometry":{"coordinates":[-0.191554,51.533792],"type":"Point"},"properties":{"osm_id":"3638910452","tag":{"amenity":"waste_basket","check_date":"2019-10-12"}},"type":"Feature"},
	{"geometry":{"coordinates":[-0.191623,51.533828],"type":"Point"},"properties":{"osm_id":"3638910458","tag":{"amenity":"recycling","recycling:cans":"yes","recycling:cardboard":"yes","recycling:clothes":"yes","recycling:electrical_appliances":"yes","recycling:glass_bottles":"yes","recycling:paper":"yes","recycling:plastic_bottles":"yes","recycling:plastic_packaging":"yes","recycling:shoes":"yes","recycling_type":"container"}},"type":"Feature"},
	{"geometry":{"coordinates":[-0.191046,51.533928],"type":"Point"},"properties":{"osm_id":"3638910469","tag":{"amenity":"waste_basket","check_date":"2019-10-12"}},"type":"Feature"},
	{"geometry":{"coordinates":[-0.20007,51.532881],"type":"Point"},"properties":{"osm_id":"3642452328","tag":{"amenity":"waste_disposal"}},"type":"Feature"},
	{"geometry":{"coordinates":[-0.187851,51.532554],"type":"Point"},"properties":{"osm_id":"3651150194","tag":{"amenity":"waste_basket"}},"type":"Feature"},
	{"geometry":{"coordinates":[-0.185872,51.5299],"type":"Point"},"properties":{"osm_id":"3654503937","tag":{"amenity":"recycling"}},"type":"Feature"},
	{"geometry":{"coordinates":[-0.185794,51.529943],"type":"Point"},"properties":{"osm_id":"3654503946","tag":{"amenity":"recycling"}},"type":"Feature"},
	{"geometry":{"coordinates":[-0.188483,51.528911],"type":"Point"},"properties":{"osm_id":"3654531275","tag":{"amenity":"recycling","recycling:cans":"yes","recycling:cardboard":"yes","recycling:glass":"yes","recycling:paper":"yes","recycling:plastic":"yes","recycling:waste":"yes","recycling_type":"container"}},"type":"Feature"},
	{"geometry":{"coordinates":[-0.19457,51.527833],"type":"Point"},"properties":{"osm_id":"3654594757","tag":{"amenity":"recycling","recycling:cans":"yes","recycling:cardboard":"yes","recycling:glass":"yes","recycling:paper":"yes","recycling:plastic":"yes","recycling:waste":"yes","recycling_type":"container"}},"type":"Feature"},
	{"geometry":{"coordinates":[-0.203843,51.532822],"type":"Point"},"properties":{"osm_id":"3658174718","tag":{"amenity":"recycling"}},"type":"Feature"},
	{"geometry":{"coordinates":[-0.188182,51.530113],"type":"Point"},"properties":{"osm_id":"3663817137","tag":{"amenity":"recycling"}},"type":"Feature"},
	{"geometry":{"coordinates":[-0.189267,51.508936],"type":"Point"},"properties":{"osm_id":"3679071805","tag":{"amenity":"waste_basket"}},"type":"Feature"},
	{"geometry":{"coordinates":[-0.189353,51.509197],"type":"Point"},"properties":{"osm_id":"3679071809","tag":{"amenity":"waste_basket"}},"type":"Feature"},
	{"geometry":{"coordinates":[-0.187583,51.509744],"type":"Point"},"properties":{"osm_id":"3679158372","tag":{"amenity":"waste_basket"}},"type":"Feature"},
	{"geometry":{"coordinates":[-0.187315,51.509184],"type":"Point"},"properties":{"osm_id":"3679158386","tag":{"amenity":"waste_basket"}},"type":"Feature"},
	{"geometry":{"coordinates":[-0.187615,51.509858],"type":"Point"},"properties":{"osm_id":"3679163779","tag":{"amenity":"waste_basket","waste":"dog"}},"type":"Feature"},
	{"geometry":{"coordinates":[-0.185661,51.510024],"type":"Point"},"properties":{"osm_id":"3679165090","tag":{"amenity":"waste_basket"}},"type":"Feature"},
	{"geometry":{"coordinates":[-0.183633,51.510201],"type":"Point"},"properties":{"osm_id":"3679165092","tag":{"amenity":"waste_basket"}},"type":"Feature"},
	{"geometry":{"coordinates":[-0.183577,51.510211],"type":"Point"},"properties":{"osm_id":"3679165093","tag":{"amenity":"waste_basket","waste_type":"dog_excrement"}},"type":"Feature"},
	{"geometry":{"coordinates":[-0.182378,51.531735],"type":"Point"},"properties":{"osm_id":"3697316596","tag":{"amenity":"waste_basket"}},"type":"Feature"},
	{"geometry":{"coordinates":[-0.185627,51.534385],"type":"Point"},"properties":{"osm_id":"3697658923","tag":{"amenity":"waste_basket"}},"type":"Feature"},
	{"geometry":{"coordinates":[-0.185955,51.534228],"type":"Point"},"properties":{"osm_id":"3697658924","tag":{"amenity":"waste_basket"}},"type":"Feature"},
	{"geometry":{"coordinates":[-0.176982,51.532029],"type":"Point"},"properties":{"osm_id":"3699042341","tag":{"amenity":"waste_basket"}},"type":"Feature"},
	{"geometry":{"coordinates":[-0.182121,51.535997],"type":"Point"},"properties":{"osm_id":"3699087400","tag":{"amenity":"waste_basket"}},"type":"Feature"},
	{"geometry":{"coordinates":[-0.178937,51.537388],"type":"Point"},"properties":{"osm_id":"3699133615","tag":{"amenity":"waste_basket"}},"type":"Feature"},
	{"geometry":{"coordinates":[-0.183002,51.536731],"type":"Point"},"properties":{"osm_id":"3699220339","tag":{"amenity":"waste_basket"}},"type":"Feature"},
	{"geometry":{"coordinates":[-0.182975,51.536877],"type":"Point"},"properties":{"osm_id":"3699236802","tag":{"amenity":"waste_basket"}},"type":"Feature"},
	{"geometry":{"coordinates":[-0.178554,51.539038],"type":"Point"},"properties":{"osm_id":"3699659750","tag":{"amenity":"waste_basket"}},"type":"Feature"},
	{"geometry":{"coordinates":[-0.183767,51.537552],"type":"Point"},"properties":{"osm_id":"3699660661","tag":{"amenity":"recycling","recycling:cans":"yes","recycling:glass":"yes","recycling:paper":"yes","recycling:plastic":"yes","recycling:small_appliances":"yes"}},"type":"Feature"},
	{"geometry":{"coordinates":[-0.178468,51.535377],"type":"Point"},"properties":{"osm_id":"3700152931","tag":{"amenity":"waste_basket"}},"type":"Feature"},
	{"geometry":{"coordinates":[-0.180327,51.534794],"type":"Point"},"properties":{"osm_id":"3700195947","tag":{"amenity":"waste_basket"}},"type":"Feature"},
	{"geometry":{"coordinates":[-0.180542,51.534643],"type":"Point"},"properties":{"osm_id":"3700195948","tag":{"amenity":"waste_basket"}},"type":"Feature"},
	{"geometry":{"coordinates":[-0.176291,51.535994],"type":"Point"},"properties":{"osm_id":"3700249440","tag":{"amenity":"waste_basket"}},"type":"Feature"},
	{"geometry":{"coordinates":[-0.177578,51.530043],"type":"Point"},"properties":{"osm_id":"3701713714","tag":{"amenity":"waste_basket"}},"type":"Feature"},
	{"geometry":{"coordinates":[-0.177017,51.531572],"type":"Point"},"properties":{"osm_id":"3701715767","tag":{"amenity":"waste_basket"}},"type":"Feature"},
	{"geometry":{"coordinates":[-0.179123,51.531674],"type":"Point"},"properties":{"osm_id":"3701936408","tag":{"amenity":"waste_basket"}},"type":"Feature"},
	{"geometry":{"coordinates":[-0.17966,51.530692],"type":"Point"},"properties":{"osm_id":"3701999483","tag":{"amenity":"waste_basket"}},"type":"Feature"},
	{"geometry":{"coordinates":[-0.181916,51.53298],"type":"Point"},"properties":{"osm_id":"3702048258","tag":{"amenity":"waste_basket"}},"type":"Feature"},
	{"geometry":{"coordinates":[-0.182324,51.533129],"type":"Point"},"properties":{"osm_id":"3702048263","tag":{"amenity":"waste_basket"}},"type":"Feature"},
	{"geometry":{"coordinates":[-0.18282,51.532987],"type":"Point"},"properties":{"osm_id":"3702048272","tag":{"amenity":"waste_basket"}},"type":"Feature"},
	{"geometry":{"coordinates":[-0.179677,51.534069],"type":"Point"},"properties":{"osm_id":"3702087265","tag":{"amenity":"waste_basket"}},"type":"Feature"},
	{"geometry":{"coordinates":[-0.18587,51.535441],"type":"Point"},"properties":{"osm_id":"3702095161","tag":{"amenity":"waste_basket"}},"type":"Feature"},
	{"geometry":{"coordinates":[-0.182246,51.538873],"type":"Point"},"properties":{"osm_id":"3702102778","tag":{"amenity":"recycling","recycling:cans":"yes","recycling:glass":"yes","recycling:paper":"yes","recycling:plastic":"yes","recycling_type":"container"}},"type":"Feature"},
	{"geometry":{"coordinates":[-0.177941,51.539775],"type":"Point"},"properties":{"osm_id":"3702122881","tag":{"amenity":"waste_basket"}},"type":"Feature"},
	{"geometry":{"coordinates":[-0.177874,51.539793],"type":"Point"},"properties":{"osm_id":"3702122882","tag":{"amenity":"recycling","recycling:cans":"yes","recycling:glass":"yes","recycling:paper":"yes","recycling:shoes":"yes"}},"type":"Feature"},
	{"geometry":{"coordinates":[-0.181154,51.530248],"type":"Point"},"properties":{"osm_id":"3710548183","tag":{"amenity":"waste_basket"}},"type":"Feature"},
	{"geometry":{"coordinates":[-0.17593,51.539494],"type":"Point"},"properties":{"osm_id":"3717724289","tag":{"amenity":"recycling","recycling:clothes":"yes","recycling:shoes":"yes"}},"type":"Feature"},
	{"geometry":{"coordinates":[-0.207492,51.528608],"type":"Point"},"properties":{"osm_id":"3725994865","tag":{"amenity":"recycling"}},"type":"Feature"},
	{"geometry":{"coordinates":[-0.208734,51.528733],"type":"Point"},"properties":{"osm_id":"3725994952","tag":{"amenity":"waste_basket"}},"type":"Feature"},
	{"geometry":{"coordinates":[-0.207743,51.530298],"type":"Point"},"properties":{"osm_id":"3725995590","tag":{"amenity":"waste_basket"}},"type":"Feature"},
	{"geometry":{"coordinates":[-0.203112,51.531166],"type":"Point"},"properties":{"osm_id":"3868135085","tag":{"amenity":"recycling"}},"type":"Feature"},
	{"geometry":{"coordinates":[-0.20239,51.528797],"type":"Point"},"properties":{"osm_id":"4002694989","tag":{"amenity":"recycling"}},"type":"Feature"},
	{"geometry":{"coordinates":[-0.201496,51.533879],"type":"Point"},"properties":{"osm_id":"4189302699","tag":{"amenity":"recycling","recycling_type":"container"}},"type":"Feature"},
	{"geometry":{"coordinates":[-0.201084,51.53344],"type":"Point"},"properties":{"osm_id":"4252446011","tag":{"amenity":"waste_basket","waste":"recycling"}},"type":"Feature"},
	{"geometry":{"coordinates":[-0.201412,51.533531],"type":"Point"},"properties":{"osm_id":"4252446012","tag":{"amenity":"recycling","recycling_type":"container"}},"type":"Feature"},
	{"geometry":{"coordinates":[-0.201041,51.533726],"type":"Point"},"properties":{"osm_id":"4252446014","tag":{"amenity":"waste_basket","waste":"recycling"}},"type":"Feature"},
	{"geometry":{"coordinates":[-0.201773,51.524218],"type":"Point"},"properties":{"osm_id":"4333954777","tag":{"amenity":"recycling"}},"type":"Feature"},
	{"geometry":{"coordinates":[-0.201632,51.52431],"type":"Point"},"properties":{"osm_id":"4333954781","tag":{"amenity":"waste_basket"}},"type":"Feature"},
	{"geometry":{"coordinates":[-0.202491,51.5247],"type":"Point"},"properties":{"osm_id":"4333956592","tag":{"amenity":"waste_basket"}},"type":"Feature"},
	{"geometry":{"coordinates":[-0.2029,51.524787],"type":"Point"},"properties":{"osm_id":"4333956595","tag":{"amenity":"waste_basket"}},"type":"Feature"},
	{"geometry":{"coordinates":[-0.189437,51.50963],"type":"Point"},"properties":{"osm_id":"4339560140","tag":{"amenity":"recycling","location":"overground","recycling_type":"container"}},"type":"Feature"},
	{"geometry":{"coordinates":[-0.18948,51.509634],"type":"Point"},"properties":{"osm_id":"4339560148","tag":{"amenity":"waste_basket"}},"type":"Feature"},
	{"geometry":{"coordinates":[-0.189455,51.509636],"type":"Point"},"properties":{"osm_id":"4339560157","tag":{"amenity":"waste_basket","waste":"dog_excrement"}},"type":"Feature"},
	{"geometry":{"coordinates":[-0.203277,51.525115],"type":"Point"},"properties":{"osm_id":"4344089133","tag":{"amenity":"waste_basket","check_date":"2020-05-17"}},"type":"Feature"},
	{"geometry":{"coordinates":[-0.216867,51.530959],"type":"Point"},"properties":{"osm_id":"4355810483","tag":{"amenity":"waste_basket"}},"type":"Feature"},
	{"geometry":{"coordinates":[-0.215837,51.531254],"type":"Point"},"properties":{"osm_id":"4355811112","tag":{"amenity":"waste_basket"}},"type":"Feature"},
	{"geometry":{"coordinates":[-0.204777,51.532883],"type":"Point"},"properties":{"osm_id":"4356148689","tag":{"amenity":"waste_basket"}},"type":"Feature"},
	{"geometry":{"coordinates":[-0.21847,51.533457],"type":"Point"},"properties":{"osm_id":"4366433033","tag":{"amenity":"waste_basket"}},"type":"Feature"},
	{"geometry":{"coordinates":[-0.218926,51.533543],"type":"Point"},"properties":{"osm_id":"4366433050","tag":{"amenity":"waste_basket"}},"type":"Feature"},
	{"geometry":{"coordinates":[-0.219714,51.53446],"type":"Point"},"properties":{"osm_id":"4560492244","tag":{"amenity":"waste_basket"}},"type":"Feature"},
	{"geometry":{"coordinates":[-0.220189,51.535354],"type":"Point"},"properties":{"osm_id":"4560492375","tag":{"amenity":"waste_basket"}},"type":"Feature"},
	{"geometry":{"coordinates":[-0.187662,51.522326],"type":"Point"},"properties":{"osm_id":"4561653703","tag":{"amenity":"recycling","recycling:cans":"yes","recycling:cardboard":"yes","recycling:glass":"yes","recycling:paper":"yes","recycling:plastic":"yes","recycling_type":"container"}},"type":"Feature"},
	{"geometry":{"coordinates":[-0.187753,51.520992],"type":"Point"},"properties":{"osm_id":"4561653756","tag":{"amenity":"recycling","recycling:cans":"yes","recycling:cardboard":"yes","recycling:glass":"yes","recycling:paper":"yes","recycling:plastic":"yes","recycling_type":"container"}},"type":"Feature"},
	{"geometry":{"coordinates":[-0.185554,51.519794],"type":"Point"},"properties":{"osm_id":"4561653789","tag":{"amenity":"waste_basket","check_date":"2020-06-01"}},"type":"Feature"},
	{"geometry":{"coordinates":[-0.191801,51.526771],"type":"Point"},"properties":{"osm_id":"4589516848","tag":{"amenity":"recycling"}},"type":"Feature"},
	{"geometry":{"coordinates":[-0.197368,51.524965],"type":"Point"},"properties":{"osm_id":"4590625407","tag":{"amenity":"waste_basket"}},"type":"Feature"},
	{"geometry":{"coordinates":[-0.197301,51.524952],"type":"Point"},"properties":{"osm_id":"4590625408","tag":{"amenity":"recycling","recycling:cans":"yes","recycling:cardboard":"yes","recycling:glass":"yes","recycling:paper":"yes","recycling:plastic":"yes","recycling:waste":"yes","recycling_type":"container"}},"type":"Feature"},
	{"geometry":{"coordinates":[-0.197701,51.527648],"type":"Point"},"properties":{"osm_id":"4592770324","tag":{"amenity":"recycling","recycling:cans":"yes","recycling:cardboard":"yes","recycling:glass":"yes","recycling:paper":"yes","recycling:plastic":"yes","recycling:waste":"yes","recycling_type":"container"}},"type":"Feature"},
	{"geometry":{"coordinates":[-0.197413,51.527969],"type":"Point"},"properties":{"osm_id":"4592770339","tag":{"amenity":"waste_basket","last_check":"2020-03-09"}},"type":"Feature"},
	{"geometry":{"coordinates":[-0.206369,51.530014],"type":"Point"},"properties":{"osm_id":"4608137816","tag":{"amenity":"recycling"}},"type":"Feature"},
	{"geometry":{"coordinates":[-0.201608,51.545112],"type":"Point"},"properties":{"osm_id":"4677251369","tag":{"amenity":"waste_basket"}},"type":"Feature"},
	{"geometry":{"coordinates":[-0.201261,51.544773],"type":"Point"},"properties":{"osm_id":"4677251398","tag":{"amenity":"waste_basket","check_date":"2020-06-24"}},"type":"Feature"},
	{"geometry":{"coordinates":[-0.190353,51.546452],"type":"Point"},"properties":{"osm_id":"4677251730","tag":{"amenity":"waste_basket"}},"type":"Feature"},
	{"geometry":{"coordinates":[-0.179352,51.542877],"type":"Point"},"properties":{"osm_id":"4677251794","tag":{"amenity":"waste_basket"}},"type":"Feature"},
	{"geometry":{"coordinates":[-0.19137,51.545865],"type":"Point"},"properties":{"osm_id":"4678229622","tag":{"amenity":"waste_basket"}},"type":"Feature"},
	{"geometry":{"coordinates":[-0.206838,51.53063],"type":"Point"},"properties":{"osm_id":"4678382538","tag":{"amenity":"waste_basket"}},"type":"Feature"},
	{"geometry":{"coordinates":[-0.20803,51.532414],"type":"Point"},"properties":{"osm_id":"4678382581","tag":{"amenity":"recycling"}},"type":"Feature"},
	{"geometry":{"coordinates":[-0.207964,51.531262],"type":"Point"},"properties":{"osm_id":"4678383358","tag":{"amenity":"recycling"}},"type":"Feature"},
	{"geometry":{"coordinates":[-0.225762,51.533432],"type":"Point"},"properties":{"osm_id":"4711582287","tag":{"amenity":"recycling"}},"type":"Feature"},
	{"geometry":{"coordinates":[-0.228354,51.530826],"type":"Point"},"properties":{"osm_id":"4725632553","tag":{"amenity":"recycling","recycling_type":"container"}},"type":"Feature"},
	{"geometry":{"coordinates":[-0.228812,51.530579],"type":"Point"},"properties":{"osm_id":"4725632765","tag":{"amenity":"waste_basket"}},"type":"Feature"},
	{"geometry":{"coordinates":[-0.227852,51.530265],"type":"Point"},"properties":{"osm_id":"4726481983","tag":{"amenity":"waste_basket"}},"type":"Feature"},
	{"geometry":{"coordinates":[-0.22675,51.530326],"type":"Point"},"properties":{"osm_id":"4726481984","tag":{"amenity":"waste_basket"}},"type":"Feature"},
	{"geometry":{"coordinates":[-0.227286,51.530381],"type":"Point"},"properties":{"osm_id":"4726481985","tag":{"amenity":"waste_basket"}},"type":"Feature"},
	{"geometry":{"coordinates":[-0.181682,51.528297],"type":"Point"},"properties":{"osm_id":"4729447988","tag":{"amenity":"recycling","recycling_type":"container"}},"type":"Feature"},
	{"geometry":{"coordinates":[-0.187243,51.51561],"type":"Point"},"properties":{"osm_id":"4807918373","tag":{"amenity":"recycling","recycling:cans":"yes","recycling:cardboard":"yes","recycling:clothes":"yes","recycling:glass_bottles":"yes","recycling_type":"container"}},"type":"Feature"},
	{"geometry":{"coordinates":[-0.197375,51.517778],"type":"Point"},"properties":{"osm_id":"4860740921","tag":{"amenity":"waste_disposal","operator":"First address in uk"}},"type":"Feature"},
	{"geometry":{"coordinates":[-0.181975,51.534984],"type":"Point"},"properties":{"osm_id":"5337345894","tag":{"amenity":"waste_basket"}},"type":"Feature"},
	{"geometry":{"coordinates":[-0.184718,51.530627],"type":"Point"},"properties":{"osm_id":"5337347123","tag":{"amenity":"recycling","opening_hours":"08:00-20:00","recycling:cans":"yes","recycling:cardboard":"yes","recycling:clothes":"yes","recycling:glass":"yes","recycling:glass_bottles":"yes","recycling:paper":"yes","recycling:plastic_bottles":"yes","recycling:shoes":"yes","recycling:small_appliances":"yes","recycling_type":"centre"}},"type":"Feature"},
	{"geometry":{"coordinates":[-0.18538,51.530118],"type":"Point"},"properties":{"osm_id":"5337347124","tag":{"amenity":"waste_basket"}},"type":"Feature"},
	{"geometry":{"coordinates":[-0.250402,51.559666],"type":"Point"},"properties":{"osm_id":"6019922883","tag":{"amenity":"waste_basket"}},"type":"Feature"},
	{"geometry":{"coordinates":[-0.250222,51.559593],"type":"Point"},"properties":{"osm_id":"6019922884","tag":{"amenity":"waste_basket"}},"type":"Feature"},
	{"geometry":{"coordinates":[-0.226986,51.516439],"type":"Point"},"properties":{"osm_id":"6110620094","tag":{"amenity":"waste_basket"}},"type":"Feature"},
	{"geometry":{"coordinates":[-0.263122,51.549508],"type":"Point"},"properties":{"osm_id":"6282975993","tag":{"amenity":"waste_basket"}},"type":"Feature"},
	{"geometry":{"coordinates":[-0.184558,51.521382],"type":"Point"},"properties":{"name":"Little Venice Rubbish Disposal","osm_id":"6633187882","tag":{"access":"customers","amenity":"waste_disposal","centralkey":"crt_watermate","operator":"Canal and River Trust","waste":"trash","waterway":"waste_disposal"}},"type":"Feature"},
	{"geometry":{"coordinates":[-0.191755,51.5338],"type":"Point"},"properties":{"osm_id":"6873201593","tag":{"amenity":"waste_basket"}},"type":"Feature"},
	{"geometry":{"coordinates":[-0.191119,51.53071],"type":"Point"},"properties":{"osm_id":"7179779576","tag":{"amenity":"waste_basket"}},"type":"Feature"},
	{"geometry":{"coordinates":[-0.180538,51.541885],"type":"Point"},"properties":{"osm_id":"7408944823","tag":{"amenity":"waste_basket"}},"type":"Feature"},
	{"geometry":{"coordinates":[-0.181128,51.539311],"type":"Point"},"properties":{"osm_id":"7408944825","tag":{"amenity":"waste_basket"}},"type":"Feature"},
	{"geometry":{"coordinates":[-0.193415,51.529421],"type":"Point"},"properties":{"osm_id":"7447112059","tag":{"amenity":"waste_basket"}},"type":"Feature"},
	{"geometry":{"coordinates":[-0.193311,51.529495],"type":"Point"},"properties":{"osm_id":"7447112060","tag":{"amenity":"waste_basket"}},"type":"Feature"},
	{"geometry":{"coordinates":[-0.191279,51.529316],"type":"Point"},"properties":{"osm_id":"7579876298","tag":{"amenity":"waste_basket"}},"type":"Feature"},
	{"geometry":{"coordinates":[-0.191528,51.529029],"type":"Point"},"properties":{"osm_id":"7579876299","tag":{"amenity":"waste_basket"}},"type":"Feature"},
	{"geometry":{"coordinates":[-0.191982,51.528562],"type":"Point"},"properties":{"osm_id":"7579876300","tag":{"amenity":"waste_basket"}},"type":"Feature"},
	{"geometry":{"coordinates":[-0.233843,51.513568],"type":"Point"},"properties":{"osm_id":"7736050887","tag":{"amenity":"recycling","recycling:shoes":"yes","recycling_type":"container"}},"type":"Feature"},
	{"geometry":{"coordinates":[-0.178865,51.520284],"type":"Point"},"properties":{"osm_id":"7849203022","tag":{"amenity":"waste_basket"}},"type":"Feature"}
]
}
