{
"type": "FeatureCollection",
"features": [
	{"geometry":{"coordinates":[-0.234575,51.495182],"type":"Point"},"properties":{"osm_id":"257481540","tag":{"amenity":"recycling"}},"type":"Feature"},
	{"geometry":{"coordinates":[-0.205559,51.501824],"type":"Point"},"properties":{"osm_id":"260753120","tag":{"amenity":"recycling"}},"type":"Feature"},
	{"geometry":{"coordinates":[-0.191486,51.462495],"type":"Point"},"properties":{"name":"Western Riverside","osm_id":"272460354","tag":{"amenity":"recycling","description":"This is a recycling centre. It has large drive-thru bins where you can throw stuff away that's too big to fit in your bin at home.","recycling_type":"centre"}},"type":"Feature"},
	{"geometry":{"coordinates":[-0.223531,51.497402],"type":"Point"},"properties":{"osm_id":"279090868","tag":{"amenity":"recycling"}},"type":"Feature"},
	{"geometry":{"coordinates":[-0.222414,51.471211],"type":"Point"},"properties":{"osm_id":"298851665","tag":{"amenity":"recycling"}},"type":"Feature"},
	{"geometry":{"coordinates":[-0.257416,51.492498],"type":"Point"},"properties":{"osm_id":"524291085","tag":{"amenity":"recycling","location":"overground","recycling_type":"container"}},"type":"Feature"},
	{"geometry":{"coordinates":[-0.244791,51.494829],"type":"Point"},"properties":{"osm_id":"624125423","tag":{"amenity":"recycling"}},"type":"Feature"},
	{"geometry":{"coordinates":[-0.197207,51.480825],"type":"Point"},"properties":{"osm_id":"771818067","tag":{"amenity":"recycling","recycling:cans":"yes","recycling:glass":"yes","recycling:paper":"yes"}},"type":"Feature"},
	{"geometry":{"coordinates":[-0.215938,51.464826],"type":"Point"},"properties":{"osm_id":"1271393021","tag":{"amenity":"recycling","recycling:beverage_cartons":"yes","recycling:cans":"yes","recycling:cardboard":"yes","recycling:cartons":"yes","recycling:glass_bottles":"yes","recycling:magazines":"yes","recycling:newspaper":"yes","recycling:paper":"yes","recycling:paper_packaging":"yes","recycling:plastic_bottles":"yes"}},"type":"Feature"},
	{"geometry":{"coordinates":[-0.215481,51.494081],"type":"Point"},"properties":{"osm_id":"1273700302","tag":{"amenity":"recycling","recycling:clothes":"yes"}},"type":"Feature"},
	{"geometry":{"coordinates":[-0.186325,51.473762],"type":"Point"},"properties":{"osm_id":"1345228512","tag":{"amenity":"recycling","recycling_type":"container"}},"type":"Feature"},
	{"geometry":{"coordinates":[-0.200695,51.47585],"type":"Point"},"properties":{"osm_id":"1346761196","tag":{"amenity":"recycling"}},"type":"Feature"},
	{"geometry":{"coordinates":[-0.187926,51.46077],"type":"Point"},"properties":{"osm_id":"1357208306","tag":{"amenity":"recycling","recycling:newspaper":"yes","recycling:paper":"yes"}},"type":"Feature"},
	{"geometry":{"coordinates":[-0.179522,51.491852],"type":"Point"},"properties":{"osm_id":"1360414534","tag":{"amenity":"waste_disposal","waste_disposal":"commercial"}},"type":"Feature"},
	{"geometry":{"coordinates":[-0.204655,51.484395],"type":"Point"},"properties":{"osm_id":"1643714466","tag":{"amenity":"recycling"}},"type":"Feature"},
	{"geometry":{"coordinates":[-0.19423,51.487841],"type":"Point"},"properties":{"osm_id":"1795157363","tag":{"amenity":"recycling"}},"type":"Feature"},
	{"geometry":{"coordinates":[-0.175782,51.493396],"type":"Point"},"properties":{"osm_id":"2104376754","tag":{"amenity":"waste_basket"}},"type":"Feature"},
	{"geometry":{"coordinates":[-0.217189,51.462387],"type":"Point"},"properties":{"osm_id":"2892571556","tag":{"amenity":"waste_basket"}},"type":"Feature"},
	{"geometry":{"coordinates":[-0.215594,51.466844],"type":"Point"},"properties":{"osm_id":"3456414326","tag":{"amenity":"waste_basket"}},"type":"Feature"},
	{"geometry":{"coordinates":[-0.200827,51.475319],"type":"Point"},"properties":{"osm_id":"3668994592","tag":{"amenity":"recycling","recycling:paper":"yes","recycling_type":"container"}},"type":"Feature"},
	{"geometry":{"coordinates":[-0.188699,51.507587],"type":"Point"},"properties":{"osm_id":"3679071343","tag":{"amenity":"waste_basket"}},"type":"Feature"},
	{"geometry":{"coordinates":[-0.188418,51.507088],"type":"Point"},"properties":{"osm_id":"3679071345","tag":{"amenity":"waste_basket"}},"type":"Feature"},
	{"geometry":{"coordinates":[-0.187326,51.505784],"type":"Point"},"properties":{"osm_id":"3679100876","tag":{"amenity":"waste_basket"}},"type":"Feature"},
	{"geometry":{"coordinates":[-0.187808,51.505744],"type":"Point"},"properties":{"osm_id":"3679100892","tag":{"amenity":"waste_basket"}},"type":"Feature"},
	{"geometry":{"coordinates":[-0.186467,51.504389],"type":"Point"},"properties":{"osm_id":"3679105051","tag":{"amenity":"waste_basket"}},"type":"Feature"},
	{"geometry":{"coordinates":[-0.187862,51.503327],"type":"Point"},"properties":{"osm_id":"3679105052","tag":{"amenity":"waste_basket"}},"type":"Feature"},
	{"geometry":{"coordinates":[-0.187701,51.504195],"type":"Point"},"properties":{"osm_id":"3679105053","tag":{"amenity":"waste_basket"}},"type":"Feature"},
	{"geometry":{"coordinates":[-0.187089,51.504275],"type":"Point"},"properties":{"osm_id":"3679105059","tag":{"amenity":"waste_basket"}},"type":"Feature"},
	{"geometry":{"coordinates":[-0.186757,51.504322],"type":"Point"},"properties":{"osm_id":"3679105061","tag":{"amenity":"waste_basket"}},"type":"Feature"},
	{"geometry":{"coordinates":[-0.187379,51.504248],"type":"Point"},"properties":{"osm_id":"3679105062","tag":{"amenity":"waste_basket"}},"type":"Feature"},
	{"geometry":{"coordinates":[-0.187849,51.503296],"type":"Point"},"properties":{"osm_id":"3679105065","tag":{"amenity":"waste_basket","waste_type":"dog_excrement"}},"type":"Feature"},
	{"geometry":{"coordinates":[-0.187272,51.502679],"type":"Point"},"properties":{"osm_id":"3679106060","tag":{"amenity":"waste_basket"}},"type":"Feature"},
	{"geometry":{"coordinates":[-0.186659,51.507122],"type":"Point"},"properties":{"osm_id":"3679158369","tag":{"amenity":"waste_basket"}},"type":"Feature"},
	{"geometry":{"coordinates":[-0.187116,51.508225],"type":"Point"},"properties":{"osm_id":"3679158374","tag":{"amenity":"waste_basket"}},"type":"Feature"},
	{"geometry":{"coordinates":[-0.187119,51.508244],"type":"Point"},"properties":{"osm_id":"3679158377","tag":{"amenity":"waste_basket","waste_type":"dog_excrement"}},"type":"Feature"},
	{"geometry":{"coordinates":[-0.18665,51.507086],"type":"Point"},"properties":{"osm_id":"3679158380","tag":{"amenity":"waste_basket","waste_type":"dog_excrement"}},"type":"Feature"},
	{"geometry":{"coordinates":[-0.191384,51.471903],"type":"Point"},"properties":{"osm_id":"4239550347","tag":{"amenity":"waste_basket"}},"type":"Feature"},
	{"geometry":{"coordinates":[-0.191621,51.472408],"type":"Point"},"properties":{"osm_id":"4239550989","tag":{"amenity":"waste_basket"}},"type":"Feature"},
	{"geometry":{"coordinates":[-0.178718,51.459954],"type":"Point"},"properties":{"osm_id":"4253428823","tag":{"amenity":"recycling","operator":"Traid","recycling":"clothes"}},"type":"Feature"},
	{"geometry":{"coordinates":[-0.232541,51.500769],"type":"Point"},"properties":{"osm_id":"4258409845","tag":{"amenity":"recycling","recycling:clothes":"yes","recycling_type":"container"}},"type":"Feature"},
	{"geometry":{"coordinates":[-0.1779,51.465956],"type":"Point"},"properties":{"name":"Traid","osm_id":"4308455148","tag":{"amenity":"recycling","recycling:clothes":"yes"}},"type":"Feature"},
	{"geometry":{"coordinates":[-0.175965,51.460508],"type":"Point"},"properties":{"osm_id":"4317238530","tag":{"amenity":"waste_basket"}},"type":"Feature"},
	{"geometry":{"coordinates":[-0.186178,51.506058],"type":"Point"},"properties":{"osm_id":"4339572370","tag":{"amenity":"waste_basket"}},"type":"Feature"},
	{"geometry":{"coordinates":[-0.178002,51.505337],"type":"Point"},"properties":{"osm_id":"4339572388","tag":{"amenity":"waste_basket"}},"type":"Feature"},
	{"geometry":{"coordinates":[-0.17797,51.504462],"type":"Point"},"properties":{"osm_id":"4339579992","tag":{"amenity":"waste_basket"}},"type":"Feature"},
	{"geometry":{"coordinates":[-0.186693,51.50706],"type":"Point"},"properties":{"osm_id":"4339580002","tag":{"amenity":"waste_basket","waste":"dog_excrement"}},"type":"Feature"},
	{"geometry":{"coordinates":[-0.18666,51.507026],"type":"Point"},"properties":{"osm_id":"4339580009","tag":{"amenity":"waste_basket"}},"type":"Feature"},
	{"geometry":{"coordinates":[-0.178549,51.502752],"type":"Point"},"properties":{"osm_id":"4339593725","tag":{"amenity":"waste_basket"}},"type":"Feature"},
	{"geometry":{"coordinates":[-0.180753,51.502837],"type":"Point"},"properties":{"osm_id":"4339611209","tag":{"amenity":"waste_basket"}},"type":"Feature"},
	{"geometry":{"coordinates":[-0.184429,51.502064],"type":"Point"},"properties":{"osm_id":"4339615248","tag":{"amenity":"waste_basket"}},"type":"Feature"},
	{"geometry":{"coordinates":[-0.184809,51.502969],"type":"Point"},"properties":{"osm_id":"4339617176","tag":{"amenity":"waste_basket","waste":"dog_excrement"}},"type":"Feature"},
	{"geometry":{"coordinates":[-0.184852,51.502976],"type":"Point"},"properties":{"osm_id":"4339617183","tag":{"amenity":"waste_basket"}},"type":"Feature"},
	{"geometry":{"coordinates":[-0.184283,51.463258],"type":"Point"},"properties":{"osm_id":"4418144419","tag":{"amenity":"waste_basket"}},"type":"Feature"},
	{"geometry":{"coordinates":[-0.176369,51.464094],"type":"Point"},"properties":{"osm_id":"4547105935","tag":{"amenity":"recycling","recycling:clothes":"yes","recycling_type":"container"}},"type":"Feature"},
	{"geometry":{"coordinates":[-0.245183,51.465322],"type":"Point"},"properties":{"osm_id":"4821408053","tag":{"amenity":"waste_basket"}},"type":"Feature"},
	{"geometry":{"coordinates":[-0.178158,51.459964],"type":"Point"},"properties":{"osm_id":"5059882587","tag":{"amenity":"waste_basket"}},"type":"Feature"},
	{"geometry":{"coordinates":[-0.178934,51.457562],"type":"Point"},"properties":{"osm_id":"5062877021","tag":{"amenity":"waste_basket"}},"type":"Feature"},
	{"geometry":{"coordinates":[-0.179176,51.457901],"type":"Point"},"properties":{"osm_id":"5062877023","tag":{"amenity":"waste_basket"}},"type":"Feature"},
	{"geometry":{"coordinates":[-0.207541,51.492578],"type":"Point"},"properties":{"name":"Shoes and clothes","osm_id":"5164012623","tag":{"amenity":"recycling","name:es":"Zapatos y ropa"}},"type":"Feature"},
	{"geometry":{"coordinates":[-0.222715,51.479421],"type":"Point"},"properties":{"osm_id":"5497922762","tag":{"amenity":"waste_basket"}},"type":"Feature"},
	{"geometry":{"coordinates":[-0.204069,51.505823],"type":"Point"},"properties":{"osm_id":"5542800576","tag":{"amenity":"waste_basket"}},"type":"Feature"},
	{"geometry":{"coordinates":[-0.241696,51.489929],"type":"Point"},"properties":{"osm_id":"5655838503","tag":{"amenity":"waste_basket"}},"type":"Feature"},
	{"geometry":{"coordinates":[-0.241529,51.489934],"type":"Point"},"properties":{"osm_id":"5655838504","tag":{"amenity":"waste_basket"}},"type":"Feature"},
	{"geometry":{"coordinates":[-0.240903,51.490094],"type":"Point"},"properties":{"osm_id":"5655838505","tag":{"amenity":"waste_basket"}},"type":"Feature"},
	{"geometry":{"coordinates":[-0.240552,51.490123],"type":"Point"},"properties":{"osm_id":"5655838506","tag":{"amenity":"waste_basket"}},"type":"Feature"},
	{"geometry":{"coordinates":[-0.240477,51.490162],"type":"Point"},"properties":{"osm_id":"5655838507","tag":{"amenity":"waste_basket"}},"type":"Feature"},
	{"geometry":{"coordinates":[-0.188615,51.487817],"type":"Point"},"properties":{"osm_id":"5659386851","tag":{"amenity":"recycling","location":"overground","recycling_type":"container"}},"type":"Feature"},
	{"geometry":{"coordinates":[-0.184576,51.484434],"type":"Point"},"properties":{"osm_id":"5659386852","tag":{"amenity":"waste_basket"}},"type":"Feature"},
	{"geometry":{"coordinates":[-0.186537,51.468454],"type":"Point"},"properties":{"osm_id":"5659388142","tag":{"amenity":"waste_basket"}},"type":"Feature"},
	{"geometry":{"coordinates":[-0.184111,51.472525],"type":"Point"},"properties":{"osm_id":"5659388975","tag":{"amenity":"waste_basket"}},"type":"Feature"},
	{"geometry":{"coordinates":[-0.234184,51.492634],"type":"Point"},"properties":{"name":"Recycling bank","osm_id":"5923934460","tag":{"amenity":"recycling","description":"Small electronic appliances, shoes, clothes"}},"type":"Feature"},
	{"geometry":{"coordinates":[-0.190645,51.468369],"type":"Point"},"properties":{"osm_id":"6239933636","tag":{"amenity":"waste_basket"}},"type":"Feature"},
	{"geometry":{"coordinates":[-0.191379,51.471291],"type":"Point"},"properties":{"osm_id":"6239949652","tag":{"amenity":"waste_basket"}},"type":"Feature"},
	{"geometry":{"coordinates":[-0.186216,51.463498],"type":"Point"},"properties":{"osm_id":"6294978232","tag":{"amenity":"waste_basket"}},"type":"Feature"},
	{"geometry":{"coordinates":[-0.248933,51.47893],"type":"Point"},"properties":{"osm_id":"6537377011","tag":{"amenity":"waste_basket"}},"type":"Feature"},
	{"geometry":{"coordinates":[-0.178199,51.455479],"type":"Point"},"properties":{"osm_id":"6593405596","tag":{"amenity":"waste_basket"}},"type":"Feature"},
	{"geometry":{"coordinates":[-0.178149,51.455684],"type":"Point"},"properties":{"osm_id":"6593405597","tag":{"amenity":"waste_basket"}},"type":"Feature"},
	{"geometry":{"coordinates":[-0.186334,51.482977],"type":"Point"},"properties":{"osm_id":"6742510126","tag":{"amenity":"waste_basket"}},"type":"Feature"},
	{"geometry":{"coordinates":[-0.187938,51.483499],"type":"Point"},"properties":{"osm_id":"6742510127","tag":{"amenity":"waste_basket"}},"type":"Feature"},
	{"geometry":{"coordinates":[-0.188471,51.483338],"type":"Point"},"properties":{"osm_id":"6742510129","tag":{"amenity":"waste_basket"}},"type":"Feature"},
	{"geometry":{"coordinates":[-0.186296,51.482583],"type":"Point"},"properties":{"osm_id":"6742510130","tag":{"amenity":"recycling","recycling:clothes":"yes","recycling_type":"container"}},"type":"Feature"},
	{"geometry":{"coordinates":[-0.186946,51.483369],"type":"Point"},"properties":{"osm_id":"6742510131","tag":{"amenity":"waste_basket","waste":"dog_excrement"}},"type":"Feature"},
	{"geometry":{"coordinates":[-0.18688,51.483325],"type":"Point"},"properties":{"osm_id":"6742510132","tag":{"amenity":"waste_basket"}},"type":"Feature"},
	{"geometry":{"coordinates":[-0.186451,51.481701],"type":"Point"},"properties":{"osm_id":"6742518885","tag":{"amenity":"waste_basket"}},"type":"Feature"},
	{"geometry":{"coordinates":[-0.185421,51.481145],"type":"Point"},"properties":{"osm_id":"6742518886","tag":{"amenity":"waste_basket","waste":"dog_excrement"}},"type":"Feature"},
	{"geometry":{"coordinates":[-0.195334,51.477879],"type":"Point"},"properties":{"osm_id":"6744402821","tag":{"amenity":"waste_basket"}},"type":"Feature"},
	{"geometry":{"coordinates":[-0.195818,51.478487],"type":"Point"},"properties":{"osm_id":"6744402822","tag":{"amenity":"waste_basket"}},"type":"Feature"},
	{"geometry":{"coordinates":[-0.195643,51.479191],"type":"Point"},"properties":{"osm_id":"6744402823","tag":{"amenity":"waste_basket"}},"type":"Feature"},
	{"geometry":{"coordinates":[-0.177125,51.501934],"type":"Point"},"properties":{"osm_id":"6775011295","tag":{"amenity":"waste_basket"}},"type":"Feature"},
	{"geometry":{"coordinates":[-0.178436,51.499471],"type":"Point"},"properties":{"osm_id":"6775070985","tag":{"amenity":"waste_basket"}},"type":"Feature"},
	{"geometry":{"coordinates":[-0.218274,51.470855],"type":"Point"},"properties":{"osm_id":"6797054466","tag":{"amenity":"waste_basket"}},"type":"Feature"},
	{"geometry":{"coordinates":[-0.218884,51.472565],"type":"Point"},"properties":{"osm_id":"6797054467","tag":{"amenity":"waste_basket"}},"type":"Feature"},
	{"geometry":{"coordinates":[-0.217659,51.470976],"type":"Point"},"properties":{"osm_id":"6797054471","tag":{"amenity":"waste_basket"}},"type":"Feature"},
	{"geometry":{"coordinates":[-0.219181,51.471761],"type":"Point"},"properties":{"osm_id":"6797054472","tag":{"amenity":"waste_basket"}},"type":"Feature"},
	{"geometry":{"coordinates":[-0.217733,51.471218],"type":"Point"},"properties":{"osm_id":"6797054477","tag":{"amenity":"waste_basket"}},"type":"Feature"},
	{"geometry":{"coordinates":[-0.218223,51.471854],"type":"Point"},"properties":{"osm_id":"6797054478","tag":{"amenity":"waste_basket"}},"type":"Feature"},
	{"geometry":{"coordinates":[-0.185803,51.481397],"type":"Point"},"properties":{"osm_id":"6877400135","tag":{"amenity":"waste_basket","waste":"dog_excrement"}},"type":"Feature"},
	{"geometry":{"coordinates":[-0.186701,51.48166],"type":"Point"},"properties":{"osm_id":"6877400136","tag":{"amenity":"waste_basket","waste":"dog_excrement"}},"type":"Feature"},
	{"geometry":{"coordinates":[-0.184893,51.480827],"type":"Point"},"properties":{"osm_id":"6877400137","tag":{"amenity":"waste_basket","waste":"dog_excrement"}},"type":"Feature"},
	{"geometry":{"coordinates":[-0.199815,51.456819],"type":"Point"},"properties":{"osm_id":"6959468313","tag":{"amenity":"waste_basket"}},"type":"Feature"},
	{"geometry":{"coordinates":[-0.21028,51.477646],"type":"Point"},"properties":{"osm_id":"7500724758","tag":{"amenity":"waste_basket","description":"Waste bin."}},"type":"Feature"},
	{"geometry":{"coordinates":[-0.214796,51.505113],"type":"Point"},"properties":{"osm_id":"7736050385","tag":{"amenity":"waste_disposal"}},"type":"Feature"},
	{"geometry":{"coordinates":[-0.194522,51.50151],"type":"Point"},"properties":{"osm_id":"7849533085","tag":{"amenity":"waste_basket"}},"type":"Feature"},
	{"geometry":{"coordinates":[-0.176167,51.482626],"type":"Point"},"properties":{"osm_id":"7855108881","tag":{"amenity":"recycling","recycling:aluminium":"yes","recycling:beverage_cartons":"yes","recycling:books":"yes","recycling:cans":"yes","recycling:cardboard":"yes","recycling:cartons":"yes","recycling:glass":"yes","recycling:glass_bottles":"yes","recycling:magazines":"yes","recycling:newspaper":"yes","recycling:paper":"yes","recycling:paper_packaging":"yes","recycling:plastic":"yes","recycling:plastic_bottles":"yes","recycling:scrap_metal":"yes","recycling:wood":"yes","recycling_type":"container"}},"type":"Feature"},
	{"geometry":{"coordinates":[-0.181116,51.494099],"type":"Point"},"properties":{"barrier":"gate","osm_id":"7874291120"},"type":"Feature"},
	{"geometry":{"coordinates":[-0.19626,51.490429],"type":"Point"},"properties":{"osm_id":"7939368579","tag":{"amenity":"waste_basket"}},"type":"Feature"}
]
}
