{
"type": "FeatureCollection",
"features": [
	{"geometry":{"coordinates":[-0.204659,51.238833],"type":"Point"},"properties":{"osm_id":"26839978","tag":{"amenity":"recycling","recycling:cans":"yes","recycling:glass":"yes","recycling:paper":"yes","recycling:plastic_bottles":"yes","recycling_type":"container"}},"type":"Feature"},
	{"geometry":{"coordinates":[-0.208811,51.237024],"type":"Point"},"properties":{"osm_id":"26839979","tag":{"amenity":"recycling"}},"type":"Feature"},
	{"geometry":{"coordinates":[-0.176503,51.239684],"type":"Point"},"properties":{"osm_id":"327776544","tag":{"amenity":"recycling","recycling:batteries":"no","recycling:books":"yes","recycling:cans":"yes","recycling:clothes":"yes","recycling:glass":"yes","recycling:music":"yes","recycling:paper":"yes","recycling:scrap_metal":"no","recycling:shoes":"yes"}},"type":"Feature"},
	{"geometry":{"coordinates":[-0.241349,51.283808],"type":"Point"},"properties":{"osm_id":"465610353","tag":{"amenity":"recycling"}},"type":"Feature"},
	{"geometry":{"coordinates":[-0.210428,51.239355],"type":"Point"},"properties":{"osm_id":"1175237009","tag":{"amenity":"recycling"}},"type":"Feature"},
	{"geometry":{"coordinates":[-0.205765,51.235448],"type":"Point"},"properties":{"osm_id":"1176178861","tag":{"amenity":"recycling"}},"type":"Feature"},
	{"geometry":{"coordinates":[-0.198671,51.238804],"type":"Point"},"properties":{"osm_id":"1177278794","tag":{"amenity":"waste_basket"}},"type":"Feature"},
	{"geometry":{"coordinates":[-0.201831,51.238665],"type":"Point"},"properties":{"osm_id":"1177310377","tag":{"amenity":"waste_basket"}},"type":"Feature"},
	{"geometry":{"coordinates":[-0.205916,51.237675],"type":"Point"},"properties":{"osm_id":"1204144767","tag":{"amenity":"waste_basket"}},"type":"Feature"},
	{"geometry":{"coordinates":[-0.181704,51.237461],"type":"Point"},"properties":{"osm_id":"1217681244","tag":{"amenity":"waste_basket"}},"type":"Feature"},
	{"geometry":{"coordinates":[-0.205702,51.239963],"type":"Point"},"properties":{"osm_id":"1222405147","tag":{"amenity":"waste_basket"}},"type":"Feature"},
	{"geometry":{"coordinates":[-0.241697,51.28451],"type":"Point"},"properties":{"osm_id":"1510057045","tag":{"amenity":"waste_basket"}},"type":"Feature"},
	{"geometry":{"coordinates":[-0.241756,51.284576],"type":"Point"},"properties":{"osm_id":"1510057062","tag":{"amenity":"waste_basket"}},"type":"Feature"},
	{"geometry":{"coordinates":[-0.207123,51.238242],"type":"Point"},"properties":{"osm_id":"1516324444","tag":{"amenity":"waste_basket"}},"type":"Feature"},
	{"geometry":{"coordinates":[-0.207944,51.239051],"type":"Point"},"properties":{"osm_id":"1516324446","tag":{"amenity":"waste_basket"}},"type":"Feature"},
	{"geometry":{"coordinates":[-0.20504,51.243159],"type":"Point"},"properties":{"osm_id":"1516324447","tag":{"amenity":"waste_basket"}},"type":"Feature"},
	{"geometry":{"coordinates":[-0.179229,51.23623],"type":"Point"},"properties":{"osm_id":"1521116170","tag":{"amenity":"waste_basket"}},"type":"Feature"},
	{"geometry":{"coordinates":[-0.251488,51.244162],"type":"Point"},"properties":{"osm_id":"1525355836","tag":{"amenity":"waste_basket"}},"type":"Feature"},
	{"geometry":{"coordinates":[-0.207282,51.266474],"type":"Point"},"properties":{"osm_id":"1599434044","tag":{"amenity":"recycling"}},"type":"Feature"},
	{"geometry":{"coordinates":[-0.211429,51.269559],"type":"Point"},"properties":{"osm_id":"1603801777","tag":{"amenity":"waste_basket"}},"type":"Feature"},
	{"geometry":{"coordinates":[-0.189864,51.237025],"type":"Point"},"properties":{"osm_id":"1677667074","tag":{"amenity":"waste_basket"}},"type":"Feature"},
	{"geometry":{"coordinates":[-0.193553,51.237311],"type":"Point"},"properties":{"osm_id":"1677667100","tag":{"amenity":"waste_basket"}},"type":"Feature"},
	{"geometry":{"coordinates":[-0.241652,51.284438],"type":"Point"},"properties":{"osm_id":"3964398165","tag":{"amenity":"waste_basket"}},"type":"Feature"},
	{"geometry":{"coordinates":[-0.186757,51.243517],"type":"Point"},"properties":{"osm_id":"4499211425","tag":{"amenity":"waste_basket"}},"type":"Feature"},
	{"geometry":{"coordinates":[-0.213441,51.264684],"type":"Point"},"properties":{"osm_id":"5036280381","tag":{"amenity":"waste_basket"}},"type":"Feature"},
	{"geometry":{"coordinates":[-0.236736,51.235395],"type":"Point"},"properties":{"osm_id":"6306747971","tag":{"amenity":"waste_basket"}},"type":"Feature"},
	{"geometry":{"coordinates":[-0.185813,51.288161],"type":"Point"},"properties":{"osm_id":"6927815490","tag":{"amenity":"waste_basket"}},"type":"Feature"},
	{"geometry":{"coordinates":[-0.197934,51.257363],"type":"Point"},"properties":{"osm_id":"7041933068","tag":{"amenity":"waste_basket"}},"type":"Feature"}
]
}
