{
"type": "FeatureCollection",
"features": [
	{"geometry":{"coordinates":[-0.256478,44.535524],"type":"Point"},"properties":{"osm_id":"557808200","tag":{"amenity":"recycling","recycling:cans":"yes","recycling:cartons":"yes","recycling:glass_bottles":"yes","recycling:paper":"yes","recycling:plastic_bottles":"yes","recycling_type":"container","website":"http://sictomsudgironde.fr/"}},"type":"Feature"},
	{"geometry":{"coordinates":[-0.253368,44.550615],"type":"Point"},"properties":{"osm_id":"564310169","tag":{"amenity":"recycling","recycling:cans":"yes","recycling:cartons":"yes","recycling:glass_bottles":"yes","recycling:paper":"yes","recycling:plastic_bottles":"yes","recycling_type":"container","website":"http://www.ussgetom.fr/gestion-des-dechets/19-les-dechets-recyclables.html"}},"type":"Feature"},
	{"geometry":{"coordinates":[-0.260706,44.578913],"type":"Point"},"properties":{"osm_id":"666129456","tag":{"amenity":"recycling"}},"type":"Feature"},
	{"geometry":{"coordinates":[-0.232586,44.5509],"type":"Point"},"properties":{"osm_id":"666147365","tag":{"amenity":"recycling"}},"type":"Feature"},
	{"geometry":{"coordinates":[-0.23334,44.58908],"type":"Point"},"properties":{"osm_id":"1236296118","tag":{"amenity":"recycling"}},"type":"Feature"},
	{"geometry":{"coordinates":[-0.255076,44.546763],"type":"Point"},"properties":{"osm_id":"1340065266","tag":{"amenity":"recycling","recycling:cans":"yes","recycling:cartons":"yes","recycling:glass_bottles":"yes","recycling:paper":"yes","recycling:plastic_bottles":"yes","recycling_type":"container","website":"http://sictomsudgironde.fr/"}},"type":"Feature"},
	{"geometry":{"coordinates":[-0.238302,44.543473],"type":"Point"},"properties":{"osm_id":"1340065268","tag":{"amenity":"recycling","recycling:cans":"yes","recycling:cartons":"yes","recycling:glass_bottles":"yes","recycling:paper":"yes","recycling:plastic_bottles":"yes","recycling_type":"container","website":"http://sictomsudgironde.fr/"}},"type":"Feature"},
	{"geometry":{"coordinates":[-0.193012,44.570462],"type":"Point"},"properties":{"osm_id":"1776960614","tag":{"amenity":"waste_basket"}},"type":"Feature"},
	{"geometry":{"coordinates":[-0.249715,44.547509],"type":"Point"},"properties":{"osm_id":"2011151114","tag":{"amenity":"recycling","recycling:cans":"yes","recycling:cartons":"yes","recycling:glass_bottles":"yes","recycling:paper":"yes","recycling:plastic_bottles":"yes","recycling_type":"container","website":"http://sictomsudgironde.fr/"}},"type":"Feature"},
	{"geometry":{"coordinates":[-0.226742,44.565318],"type":"Point"},"properties":{"osm_id":"2141581848","tag":{"amenity":"waste_basket"}},"type":"Feature"},
	{"geometry":{"coordinates":[-0.227225,44.565025],"type":"Point"},"properties":{"osm_id":"2141671795","tag":{"amenity":"waste_basket"}},"type":"Feature"},
	{"geometry":{"coordinates":[-0.227476,44.565325],"type":"Point"},"properties":{"osm_id":"2144352879","tag":{"amenity":"waste_basket"}},"type":"Feature"},
	{"geometry":{"coordinates":[-0.229425,44.563745],"type":"Point"},"properties":{"osm_id":"2160934151","tag":{"amenity":"waste_basket"}},"type":"Feature"},
	{"geometry":{"coordinates":[-0.227596,44.563431],"type":"Point"},"properties":{"osm_id":"2161168202","tag":{"amenity":"waste_basket"}},"type":"Feature"},
	{"geometry":{"coordinates":[-0.227876,44.563743],"type":"Point"},"properties":{"osm_id":"2161168211","tag":{"amenity":"waste_basket"}},"type":"Feature"},
	{"geometry":{"coordinates":[-0.224482,44.565094],"type":"Point"},"properties":{"osm_id":"2161540277","tag":{"amenity":"waste_basket"}},"type":"Feature"},
	{"geometry":{"coordinates":[-0.228585,44.563925],"type":"Point"},"properties":{"osm_id":"2161737407","tag":{"amenity":"waste_basket"}},"type":"Feature"},
	{"geometry":{"coordinates":[-0.224931,44.566048],"type":"Point"},"properties":{"osm_id":"2161737496","tag":{"amenity":"waste_basket"}},"type":"Feature"},
	{"geometry":{"coordinates":[-0.226016,44.563673],"type":"Point"},"properties":{"osm_id":"2162423718","tag":{"amenity":"waste_basket"}},"type":"Feature"},
	{"geometry":{"coordinates":[-0.227904,44.56324],"type":"Point"},"properties":{"osm_id":"2162458992","tag":{"amenity":"waste_basket"}},"type":"Feature"},
	{"geometry":{"coordinates":[-0.230606,44.562055],"type":"Point"},"properties":{"osm_id":"2178161523","tag":{"amenity":"waste_basket"}},"type":"Feature"},
	{"geometry":{"coordinates":[-0.225346,44.563847],"type":"Point"},"properties":{"osm_id":"2179551225","tag":{"amenity":"waste_basket"}},"type":"Feature"},
	{"geometry":{"coordinates":[-0.226008,44.564049],"type":"Point"},"properties":{"osm_id":"2179551226","tag":{"amenity":"waste_basket"}},"type":"Feature"},
	{"geometry":{"coordinates":[-0.22484,44.572096],"type":"Point"},"properties":{"osm_id":"2268298744","tag":{"amenity":"recycling","recycling:glass":"yes","recycling:paper":"yes"}},"type":"Feature"},
	{"geometry":{"coordinates":[-0.212507,44.585891],"type":"Point"},"properties":{"osm_id":"2268403995","tag":{"amenity":"waste_basket"}},"type":"Feature"},
	{"geometry":{"coordinates":[-0.191393,44.571154],"type":"Point"},"properties":{"osm_id":"2317669874","tag":{"amenity":"waste_basket"}},"type":"Feature"},
	{"geometry":{"coordinates":[-0.251176,44.589157],"type":"Point"},"properties":{"name":"Seconde vie du jeu - CVLV","osm_id":"4063416289","tag":{"addr:city":"Verdelais","addr:housenumber":"9","addr:postcode":"33490","addr:street":"la mouliatte","amenity":"recycling","facebook":"https://www.facebook.com/Ludoth%C3%A8que-Eph%C3%A9m%C3%A8re-1564458267214182/?fref=ts","operator":"Ludoth\u00c3\u00a8que \u00c3\u00a9ph\u00c3\u00a9m\u00c3\u00a8re","phone":"+33 5 56 76 78 83","recycling:cans":"no","recycling:clothes":"yes","recycling:glass":"no","recycling:glass_bottles":"no","recycling:paper":"no","recycling:plastic":"no","recycling:toys":"yes","recycling_type":"container","social_facility:for":"child"}},"type":"Feature"},
	{"geometry":{"coordinates":[-0.253099,44.589215],"type":"Point"},"properties":{"name":"Seconde vie du jeu - ALSH Bertric","osm_id":"4063427600","tag":{"amenity":"recycling","facebook":"https://www.facebook.com/Ludoth%C3%A8que-Eph%C3%A9m%C3%A8re-1564458267214182/?fref=ts","operator":"Ludoth\u00c3\u00a8que \u00c3\u00a9ph\u00c3\u00a9m\u00c3\u00a8re","phone":"+33 5 56 76 78 83","recycling:cans":"no","recycling:clothes":"yes","recycling:glass":"no","recycling:glass_bottles":"no","recycling:paper":"no","recycling:plastic":"no","recycling:toys":"yes","recycling_type":"container"}},"type":"Feature"},
	{"geometry":{"coordinates":[-0.260126,44.578914],"type":"Point"},"properties":{"name":"Seconde Vie du Jeu - APS/NAP Saint-Maixant","osm_id":"4063440678","tag":{"addr:city":"Saint-Maixant","addr:postcode":"33490","addr:street":"Route de Gascogne","amenity":"recycling","facebook":"https://www.facebook.com/Ludoth%C3%A8que-Eph%C3%A9m%C3%A8re-1564458267214182/?fref","operator":"Ludoth\u00c3\u00a8que \u00c3\u00a9ph\u00c3\u00a9m\u00c3\u00a8re","phone":"+33 5 56 76 78 83","recycling:cans":"no","recycling:clothes":"yes","recycling:glass":"no","recycling:glass_bottles":"no","recycling:paper":"no","recycling:plastic":"no","recycling:toys":"yes","recycling_type":"container"}},"type":"Feature"},
	{"geometry":{"coordinates":[-0.22831,44.56643],"type":"Point"},"properties":{"osm_id":"4063445353","tag":{"addr:city":"Saint-Macaire","addr:postcode":"33490","addr:street":"Rue de Verdun","amenity":"recycling","facebook":"https://www.facebook.com/Ludoth%C3%A8que-Eph%C3%A9m%C3%A8re-1564458267214182/?fref","operator":"Ludoth\u00c3\u00a8que \u00c3\u00a9ph\u00c3\u00a9m\u00c3\u00a8re","phone":"+33 5 56 76 78 83","recycling:cans":"no","recycling:clothes":"yes","recycling:glass":"no","recycling:glass_bottles":"no","recycling:paper":"no","recycling:plastic":"no","recycling:toys":"yes","recycling_type":"container"}},"type":"Feature"},
	{"geometry":{"coordinates":[-0.250139,44.588621],"type":"Point"},"properties":{"name":"Seconde vie du jeu - APS/NAP Verdelais","osm_id":"4063451772","tag":{"amenity":"recycling","facebook":"https://www.facebook.com/Ludoth%C3%A8que-Eph%C3%A9m%C3%A8re-1564458267214182/?fref=ts","operator":"Ludoth\u00c3\u00a8que \u00c3\u00a9ph\u00c3\u00a9m\u00c3\u00a8re","phone":"+33 5 56 76 78 83","recycling:cans":"no","recycling:clothes":"yes","recycling:glass":"no","recycling:glass_bottles":"no","recycling:paper":"no","recycling:plastic":"no","recycling:toys":"yes","recycling_type":"container"}},"type":"Feature"},
	{"geometry":{"coordinates":[-0.239277,44.541248],"type":"Point"},"properties":{"osm_id":"4063474091","tag":{"amenity":"recycling","facebook":"https://www.facebook.com/Ludoth%C3%A8que-Eph%C3%A9m%C3%A8re-1564458267214182/?fref=ts","operator":"Ludoth\u00c3\u00a8que \u00c3\u00a9ph\u00c3\u00a9m\u00c3\u00a8re","phone":"+33 5 56 76 78 83","recycling:cans":"no","recycling:clothes":"no","recycling:glass":"no","recycling:glass_bottles":"no","recycling:paper":"no","recycling:plastic":"no","recycling:toys":"yes","recycling_type":"container"}},"type":"Feature"},
	{"geometry":{"coordinates":[-0.256267,44.545456],"type":"Point"},"properties":{"osm_id":"4557787584","tag":{"amenity":"recycling","recycling:clothes":"yes","recycling:shoes":"yes","website":"http://www.lerelais.org/"}},"type":"Feature"},
	{"geometry":{"coordinates":[-0.242114,44.544345],"type":"Point"},"properties":{"osm_id":"4557787585","tag":{"amenity":"recycling","recycling:clothes":"yes","recycling:shoes":"yes","website":"http://www.lerelais.org/"}},"type":"Feature"},
	{"geometry":{"coordinates":[-0.250163,44.552444],"type":"Point"},"properties":{"osm_id":"4575712165","tag":{"amenity":"recycling","recycling:cans":"yes","recycling:cartons":"yes","recycling:glass_bottles":"yes","recycling:paper":"yes","recycling:plastic_bottles":"yes","recycling_type":"container","website":"http://sictomsudgironde.fr/"}},"type":"Feature"},
	{"geometry":{"coordinates":[-0.243336,44.556057],"type":"Point"},"properties":{"osm_id":"4575712166","tag":{"amenity":"recycling","recycling:cans":"yes","recycling:cartons":"yes","recycling:glass_bottles":"yes","recycling:paper":"yes","recycling:plastic_bottles":"yes","recycling_type":"container","website":"http://sictomsudgironde.fr/"}},"type":"Feature"},
	{"geometry":{"coordinates":[-0.260549,44.556055],"type":"Point"},"properties":{"osm_id":"4591355978","tag":{"amenity":"recycling","recycling:cans":"yes","recycling:cartons":"yes","recycling:glass_bottles":"yes","recycling:paper":"yes","recycling:plastic_bottles":"yes","recycling_type":"container","website":"http://sictomsudgironde.fr/"}},"type":"Feature"},
	{"geometry":{"coordinates":[-0.260584,44.556134],"type":"Point"},"properties":{"osm_id":"4591355979","tag":{"amenity":"recycling","recycling:clothes":"yes","recycling:shoes":"yes","recycling_type":"container","website":"http://www.lerelais.org/"}},"type":"Feature"},
	{"geometry":{"coordinates":[-0.254305,44.553065],"type":"Point"},"properties":{"osm_id":"4630672664","tag":{"amenity":"recycling","recycling:cans":"yes","recycling:cartons":"yes","recycling:glass_bottles":"yes","recycling:paper":"yes","recycling:plastic_bottles":"yes","website":"http://www.ussgetom.fr/gestion-des-dechets/19-les-dechets-recyclables.html"}},"type":"Feature"},
	{"geometry":{"coordinates":[-0.246304,44.552953],"type":"Point"},"properties":{"osm_id":"4673338431","tag":{"amenity":"waste_basket"}},"type":"Feature"},
	{"geometry":{"coordinates":[-0.246035,44.553031],"type":"Point"},"properties":{"osm_id":"4673338432","tag":{"amenity":"waste_basket"}},"type":"Feature"},
	{"geometry":{"coordinates":[-0.253178,44.542314],"type":"Point"},"properties":{"osm_id":"4675162383","tag":{"amenity":"recycling","recycling:cans":"yes","recycling:cartons":"yes","recycling:glass_bottles":"yes","recycling:paper":"yes","recycling:plastic_bottles":"yes","recycling_type":"container","website":"http://sictomsudgironde.fr/"}},"type":"Feature"},
	{"geometry":{"coordinates":[-0.258984,44.549383],"type":"Point"},"properties":{"osm_id":"4692681895","tag":{"amenity":"recycling","recycling:cans":"yes","recycling:cartons":"yes","recycling:glass_bottles":"yes","recycling:paper":"yes","recycling:plastic_bottles":"yes","recycling_type":"container","website":"http://sictomsudgironde.fr/"}},"type":"Feature"},
	{"geometry":{"coordinates":[-0.260557,44.552709],"type":"Point"},"properties":{"osm_id":"4693491509","tag":{"amenity":"recycling","recycling:cans":"yes","recycling:cartons":"yes","recycling:glass_bottles":"yes","recycling:paper":"yes","recycling:plastic_bottles":"yes","recycling_type":"container","website":"http://www.ussgetom.fr/gestion-des-dechets/19-les-dechets-recyclables.html"}},"type":"Feature"},
	{"geometry":{"coordinates":[-0.248924,44.554563],"type":"Point"},"properties":{"osm_id":"4705844124","tag":{"amenity":"waste_basket"}},"type":"Feature"},
	{"geometry":{"coordinates":[-0.244013,44.556209],"type":"Point"},"properties":{"osm_id":"4883183421","tag":{"amenity":"waste_basket"}},"type":"Feature"},
	{"geometry":{"coordinates":[-0.244612,44.55405],"type":"Point"},"properties":{"osm_id":"5051107961","tag":{"amenity":"waste_basket"}},"type":"Feature"},
	{"geometry":{"coordinates":[-0.24426,44.554269],"type":"Point"},"properties":{"osm_id":"5051107963","tag":{"amenity":"waste_basket"}},"type":"Feature"},
	{"geometry":{"coordinates":[-0.245908,44.552837],"type":"Point"},"properties":{"osm_id":"5051107965","tag":{"amenity":"waste_basket"}},"type":"Feature"},
	{"geometry":{"coordinates":[-0.245826,44.552976],"type":"Point"},"properties":{"osm_id":"5051107966","tag":{"amenity":"waste_basket"}},"type":"Feature"},
	{"geometry":{"coordinates":[-0.241769,44.551341],"type":"Point"},"properties":{"osm_id":"5055899922","tag":{"amenity":"recycling","recycling:cans":"yes","recycling:cartons":"yes","recycling:glass_bottles":"yes","recycling:paper":"yes","recycling:plastic_bottles":"yes","recycling_type":"container","website":"http://www.ussgetom.fr/gestion-des-dechets/19-les-dechets-recyclables.html"}},"type":"Feature"},
	{"geometry":{"coordinates":[-0.255552,44.544877],"type":"Point"},"properties":{"osm_id":"5056599129","tag":{"amenity":"recycling","recycling:batteries":"yes","recycling:bottle_tops":"no","recycling:light_bulbs":"yes","recycling_type":"container"}},"type":"Feature"},
	{"geometry":{"coordinates":[-0.240824,44.55659],"type":"Point"},"properties":{"osm_id":"5066904446","tag":{"amenity":"waste_basket","start_date":"2018-04"}},"type":"Feature"},
	{"geometry":{"coordinates":[-0.241109,44.555373],"type":"Point"},"properties":{"osm_id":"5066904453","tag":{"amenity":"waste_basket"}},"type":"Feature"},
	{"geometry":{"coordinates":[-0.240018,44.556686],"type":"Point"},"properties":{"osm_id":"5066904513","tag":{"amenity":"waste_basket"}},"type":"Feature"},
	{"geometry":{"coordinates":[-0.254145,44.543966],"type":"Point"},"properties":{"osm_id":"5071757169","tag":{"amenity":"recycling","recycling:batteries":"yes","recycling:low_energy_bulbs":"yes","recycling:printer_inkjet_cartridges":"yes","recycling:small_appliances":"yes","recycling_type":"container","website":"https://www.eco-systemes.fr; http://www.recylum.com"}},"type":"Feature"},
	{"geometry":{"coordinates":[-0.242347,44.555492],"type":"Point"},"properties":{"osm_id":"5151751077","tag":{"amenity":"waste_basket"}},"type":"Feature"},
	{"geometry":{"coordinates":[-0.243246,44.555799],"type":"Point"},"properties":{"osm_id":"5151751088","tag":{"amenity":"waste_basket"}},"type":"Feature"},
	{"geometry":{"coordinates":[-0.241497,44.55548],"type":"Point"},"properties":{"osm_id":"5151751089","tag":{"amenity":"waste_basket"}},"type":"Feature"},
	{"geometry":{"coordinates":[-0.243534,44.556292],"type":"Point"},"properties":{"osm_id":"5151775623","tag":{"amenity":"waste_basket"}},"type":"Feature"},
	{"geometry":{"coordinates":[-0.243266,44.556332],"type":"Point"},"properties":{"osm_id":"5151775624","tag":{"amenity":"waste_basket"}},"type":"Feature"},
	{"geometry":{"coordinates":[-0.242773,44.556206],"type":"Point"},"properties":{"osm_id":"5151849889","tag":{"amenity":"waste_basket"}},"type":"Feature"},
	{"geometry":{"coordinates":[-0.250355,44.547998],"type":"Point"},"properties":{"osm_id":"5206952387","tag":{"amenity":"waste_basket"}},"type":"Feature"},
	{"geometry":{"coordinates":[-0.250675,44.548093],"type":"Point"},"properties":{"osm_id":"5206952388","tag":{"amenity":"waste_basket"}},"type":"Feature"},
	{"geometry":{"coordinates":[-0.250206,44.547666],"type":"Point"},"properties":{"osm_id":"5206952389","tag":{"amenity":"waste_basket"}},"type":"Feature"},
	{"geometry":{"coordinates":[-0.250856,44.547852],"type":"Point"},"properties":{"osm_id":"5206952390","tag":{"amenity":"waste_basket"}},"type":"Feature"},
	{"geometry":{"coordinates":[-0.250934,44.547954],"type":"Point"},"properties":{"osm_id":"5206952391","tag":{"amenity":"waste_basket"}},"type":"Feature"},
	{"geometry":{"coordinates":[-0.250526,44.54826],"type":"Point"},"properties":{"osm_id":"5266821768","tag":{"amenity":"waste_basket"}},"type":"Feature"},
	{"geometry":{"coordinates":[-0.258003,44.539035],"type":"Point"},"properties":{"osm_id":"5318586030","tag":{"amenity":"recycling","recycling:cans":"yes","recycling:cartons":"yes","recycling:glass_bottles":"yes","recycling:paper":"yes","recycling:plastic_bottles":"yes","recycling_type":"container","website":"http://sictomsudgironde.fr/"}},"type":"Feature"},
	{"geometry":{"coordinates":[-0.244409,44.556198],"type":"Point"},"properties":{"osm_id":"5554772118","tag":{"amenity":"waste_basket"}},"type":"Feature"},
	{"geometry":{"coordinates":[-0.256407,44.552408],"type":"Point"},"properties":{"osm_id":"5802244377","tag":{"amenity":"recycling","recycling:cans":"yes","recycling:cartons":"yes","recycling:glass_bottles":"yes","recycling:paper":"yes","recycling:plastic_bottles":"yes","recycling_type":"container","website":"http://sictomsudgironde.fr/"}},"type":"Feature"},
	{"geometry":{"coordinates":[-0.243294,44.563284],"type":"Point"},"properties":{"osm_id":"6047273966","tag":{"amenity":"recycling","recycling:cans":"yes","recycling:cartons":"yes","recycling:glass_bottles":"yes","recycling:paper":"yes","recycling:plastic_bottles":"yes","recycling_type":"container","website":"http://sictomsudgironde.fr/"}},"type":"Feature"},
	{"geometry":{"coordinates":[-0.257217,44.560788],"type":"Point"},"properties":{"osm_id":"6071782630","tag":{"amenity":"recycling","recycling:cans":"yes","recycling:cartons":"yes","recycling:glass_bottles":"yes","recycling:paper":"yes","recycling:plastic_bottles":"yes","recycling_type":"container","website":"http://sictomsudgironde.fr/"}},"type":"Feature"},
	{"geometry":{"coordinates":[-0.181071,44.554873],"type":"Point"},"properties":{"osm_id":"6289847122","tag":{"amenity":"recycling","recycling:cans":"yes","recycling:cartons":"yes","recycling:glass_bottles":"yes","recycling:paper":"yes","recycling:plastic_bottles":"yes","recycling_type":"container","website":"http://sictomsudgironde.fr/"}},"type":"Feature"},
	{"geometry":{"coordinates":[-0.25454,44.575178],"type":"Point"},"properties":{"osm_id":"6354797703","tag":{"amenity":"recycling","recycling:cans":"yes","recycling:cartons":"yes","recycling:glass_bottles":"yes","recycling:paper":"yes","recycling:plastic_bottles":"yes","recycling_type":"container","website":"http://sictomsudgironde.fr/"}},"type":"Feature"},
	{"geometry":{"coordinates":[-0.217923,44.569129],"type":"Point"},"properties":{"osm_id":"7061049263","tag":{"amenity":"recycling","recycling:cans":"yes","recycling:cartons":"yes","recycling:glass_bottles":"yes","recycling:paper":"yes","recycling:plastic_bottles":"yes","recycling_type":"container","website":"http://sictomsudgironde.fr/"}},"type":"Feature"},
	{"geometry":{"coordinates":[-0.243388,44.563281],"type":"Point"},"properties":{"osm_id":"7061049264","tag":{"amenity":"recycling","recycling:clothes":"yes","recycling:shoes":"yes","recycling_type":"container","website":"http://www.lerelais.org/"}},"type":"Feature"}
]
}
