{
"type": "FeatureCollection",
"features": [
	{"geometry":{"coordinates":[-0.220115,44.435543],"type":"Point"},"properties":{"osm_id":"4548533225","tag":{"amenity":"recycling","recycling:cans":"yes","recycling:cartons":"yes","recycling:glass_bottles":"yes","recycling:paper":"yes","recycling:plastic_bottles":"yes","recycling_type":"container","website":"http://sictomsudgironde.fr/"}},"type":"Feature"},
	{"geometry":{"coordinates":[-0.216129,44.431452],"type":"Point"},"properties":{"osm_id":"4548533226","tag":{"amenity":"recycling","recycling:cans":"yes","recycling:cartons":"yes","recycling:glass_bottles":"yes","recycling:paper":"yes","recycling:plastic_bottles":"yes","recycling_type":"container","website":"http://sictomsudgironde.fr/"}},"type":"Feature"},
	{"geometry":{"coordinates":[-0.215781,44.433284],"type":"Point"},"properties":{"osm_id":"5227088897","tag":{"amenity":"waste_basket"}},"type":"Feature"},
	{"geometry":{"coordinates":[-0.215972,44.433052],"type":"Point"},"properties":{"osm_id":"5227088898","tag":{"amenity":"waste_basket"}},"type":"Feature"},
	{"geometry":{"coordinates":[-0.21615,44.432835],"type":"Point"},"properties":{"osm_id":"5227088899","tag":{"amenity":"waste_basket"}},"type":"Feature"},
	{"geometry":{"coordinates":[-0.216322,44.432626],"type":"Point"},"properties":{"osm_id":"5227088900","tag":{"amenity":"waste_basket"}},"type":"Feature"},
	{"geometry":{"coordinates":[-0.215507,44.433176],"type":"Point"},"properties":{"osm_id":"5227088907","tag":{"amenity":"waste_basket"}},"type":"Feature"},
	{"geometry":{"coordinates":[-0.2157,44.432944],"type":"Point"},"properties":{"osm_id":"5227088908","tag":{"amenity":"waste_basket"}},"type":"Feature"},
	{"geometry":{"coordinates":[-0.21588,44.432727],"type":"Point"},"properties":{"osm_id":"5227088909","tag":{"amenity":"waste_basket"}},"type":"Feature"},
	{"geometry":{"coordinates":[-0.216056,44.432515],"type":"Point"},"properties":{"osm_id":"5227088910","tag":{"amenity":"waste_basket"}},"type":"Feature"},
	{"geometry":{"coordinates":[-0.206836,44.432546],"type":"Point"},"properties":{"osm_id":"5629297703","tag":{"amenity":"recycling","recycling:cans":"yes","recycling:cartons":"yes","recycling:glass_bottles":"yes","recycling:paper":"yes","recycling:plastic_bottles":"yes","recycling_type":"container","website":"http://sictomsudgironde.fr/"}},"type":"Feature"},
	{"geometry":{"coordinates":[-0.217818,44.434472],"type":"Point"},"properties":{"osm_id":"5630996296","tag":{"amenity":"recycling","recycling:cans":"yes","recycling:cartons":"yes","recycling:glass_bottles":"yes","recycling:paper":"yes","recycling:plastic_bottles":"yes","recycling_type":"container","website":"http://sictomsudgironde.fr/"}},"type":"Feature"},
	{"geometry":{"coordinates":[-0.216,44.428252],"type":"Point"},"properties":{"osm_id":"5630998078","tag":{"amenity":"recycling","recycling:cans":"yes","recycling:cartons":"yes","recycling:glass_bottles":"yes","recycling:paper":"yes","recycling:plastic_bottles":"yes","recycling_type":"container","website":"http://www.ussgetom.fr/gestion-des-dechets/19-les-dechets-recyclables.html"}},"type":"Feature"},
	{"geometry":{"coordinates":[-0.213577,44.429765],"type":"Point"},"properties":{"osm_id":"5678554915","tag":{"amenity":"waste_basket"}},"type":"Feature"},
	{"geometry":{"coordinates":[-0.213761,44.429903],"type":"Point"},"properties":{"osm_id":"5678554916","tag":{"amenity":"waste_basket"}},"type":"Feature"},
	{"geometry":{"coordinates":[-0.213277,44.430153],"type":"Point"},"properties":{"osm_id":"5678561662","tag":{"amenity":"recycling","recycling:glass_bottles":"yes","recycling_type":"container"}},"type":"Feature"},
	{"geometry":{"coordinates":[-0.213265,44.430169],"type":"Point"},"properties":{"osm_id":"5678561663","tag":{"amenity":"recycling","recycling:cardboard":"yes","recycling:cartons":"yes","recycling:magazines":"yes","recycling:newspaper":"yes","recycling:paper":"yes","recycling:paper_packaging":"yes","recycling_type":"container"}},"type":"Feature"},
	{"geometry":{"coordinates":[-0.213254,44.430189],"type":"Point"},"properties":{"osm_id":"5678561664","tag":{"amenity":"recycling","recycling:aluminium":"yes","recycling:cans":"yes","recycling:plastic":"yes","recycling:plastic_bottles":"yes","recycling_type":"container"}},"type":"Feature"},
	{"geometry":{"coordinates":[-0.207103,44.431315],"type":"Point"},"properties":{"osm_id":"5678595607","tag":{"amenity":"waste_basket"}},"type":"Feature"}
]
}
