{
"type": "FeatureCollection",
"features": [
	{"geometry":{"coordinates":[-0.207245,42.958696],"type":"Point"},"properties":{"osm_id":"1309383792","tag":{"amenity":"recycling"}},"type":"Feature"},
	{"geometry":{"coordinates":[-0.204938,42.958503],"type":"Point"},"properties":{"name":"aire de camping-car d'Arrens-Marsous","osm_id":"1309385116","tag":{"addr:city":"Arrens-Marsous","addr:postcode":"65400","amenity":"waste_disposal","power_supply":"yes","sanitary_dump_station":"yes","tourism":"caravan_site"}},"type":"Feature"},
	{"geometry":{"coordinates":[-0.207505,42.958519],"type":"Point"},"properties":{"osm_id":"8306510821","tag":{"access":"yes","amenity":"waste_disposal","fee":"no","operator":"Villes de Arrens-Marsous"}},"type":"Feature"},
	{"geometry":{"coordinates":[-0.194924,42.973109],"type":"Point"},"properties":{"osm_id":"8994335433","tag":{"amenity":"recycling","recycling:glass_bottles":"yes","recycling:paper_packaging":"yes","recycling:plastic_packaging":"yes","recycling_type":"container"}},"type":"Feature"}
]
}
