{
"type": "FeatureCollection",
"features": [
	{"geometry":{"coordinates":[-0.185293,38.968613],"type":"Point"},"properties":{"osm_id":"2473536154","tag":{"amenity":"recycling","recycling_type":"container"}},"type":"Feature"},
	{"geometry":{"coordinates":[-0.182258,38.96906],"type":"Point"},"properties":{"osm_id":"2473536171","tag":{"amenity":"recycling","recycling_type":"container"}},"type":"Feature"},
	{"geometry":{"coordinates":[-0.182698,38.966241],"type":"Point"},"properties":{"osm_id":"2507312711","tag":{"amenity":"recycling","recycling_type":"container"}},"type":"Feature"},
	{"geometry":{"coordinates":[-0.182449,38.967735],"type":"Point"},"properties":{"osm_id":"2507345503","tag":{"amenity":"recycling","recycling_type":"container"}},"type":"Feature"},
	{"geometry":{"coordinates":[-0.182675,38.965555],"type":"Point"},"properties":{"osm_id":"4300378288","tag":{"amenity":"recycling","location":"underground","recycling_type":"container"}},"type":"Feature"},
	{"geometry":{"coordinates":[-0.180154,38.96931],"type":"Point"},"properties":{"osm_id":"4977866628","tag":{"amenity":"waste_disposal"}},"type":"Feature"}
]
}
