{
"type": "FeatureCollection",
"features": [
	{"geometry":{"coordinates":[-0.246574,5.616831],"type":"Point"},"properties":{"osm_id":"6277014901","tag":{"addr:city":"Accra","addr:street":"Apetuple Avenue","addr:suburb":"Akweteyman","amenity":"waste_basket","waste":"organic;trash;plastic"}},"type":"Feature"},
	{"geometry":{"coordinates":[-0.242589,5.61637],"type":"Point"},"properties":{"osm_id":"6277014902","tag":{"addr:city":"Accra","addr:community":"Transformer","addr:street":"Ofori Tibo Avenue","addr:suburb":"Akweteyman","amenity":"waste_basket","operator":"Zoom Lion","waste":"organic;trash;plastic"}},"type":"Feature"},
	{"geometry":{"coordinates":[-0.2426,5.616306],"type":"Point"},"properties":{"osm_id":"6277014905","tag":{"addr:city":"Accra","addr:community":"Transformer","addr:street":"Ofori Tibo Avenue","addr:suburb":"Akweteyman","amenity":"waste_basket","operator":"Zoom Lion","waste":"organic;trash;plastic"}},"type":"Feature"},
	{"geometry":{"coordinates":[-0.242471,5.616541],"type":"Point"},"properties":{"osm_id":"6277014910","tag":{"addr:city":"Accra","addr:community":"Transformer","addr:street":"Ofori Tibo Avenue","addr:suburb":"Akweteyman","amenity":"waste_basket","fee":"no","operator":"Zoom Lion","waste":"organic;trash;plastic"}},"type":"Feature"},
	{"geometry":{"coordinates":[-0.239101,5.618454],"type":"Point"},"properties":{"osm_id":"6279110351","tag":{"addr:city":"Accra","addr:community":"New Achimota","addr:street":"Spring Avenue","addr:suburb":"Akweteyman","amenity":"waste_basket","fee":"yes","waste":"organic;trash;plastic"}},"type":"Feature"},
	{"geometry":{"coordinates":[-0.240476,5.616626],"type":"Point"},"properties":{"osm_id":"6279110352","tag":{"addr:city":"Accra","addr:community":"New Achimota","addr:suburb":"Akweteyman","amenity":"waste_basket","fee":"no","waste":"trash"}},"type":"Feature"},
	{"geometry":{"coordinates":[-0.179988,5.648287],"type":"Point"},"properties":{"osm_id":"6800147112","tag":{"amenity":"waste_basket"}},"type":"Feature"},
	{"geometry":{"coordinates":[-0.182438,5.651342],"type":"Point"},"properties":{"osm_id":"6828943361","tag":{"amenity":"waste_basket"}},"type":"Feature"},
	{"geometry":{"coordinates":[-0.238824,5.617914],"type":"Point"},"properties":{"osm_id":"6830701371","tag":{"amenity":"waste_basket"}},"type":"Feature"},
	{"geometry":{"coordinates":[-0.238823,5.617908],"type":"Point"},"properties":{"osm_id":"6830701372","tag":{"amenity":"waste_basket"}},"type":"Feature"},
	{"geometry":{"coordinates":[-0.194718,5.617167],"type":"Point"},"properties":{"osm_id":"6838287884","tag":{"amenity":"waste_basket"}},"type":"Feature"},
	{"geometry":{"coordinates":[-0.179622,5.648887],"type":"Point"},"properties":{"osm_id":"6838322027","tag":{"amenity":"waste_basket"}},"type":"Feature"},
	{"geometry":{"coordinates":[-0.177051,5.66645],"type":"Point"},"properties":{"osm_id":"6838324759","tag":{"amenity":"waste_basket"}},"type":"Feature"},
	{"geometry":{"coordinates":[-0.193852,5.61745],"type":"Point"},"properties":{"osm_id":"6838340630","tag":{"amenity":"waste_basket"}},"type":"Feature"},
	{"geometry":{"coordinates":[-0.194486,5.617247],"type":"Point"},"properties":{"osm_id":"6838346486","tag":{"amenity":"waste_basket"}},"type":"Feature"},
	{"geometry":{"coordinates":[-0.212535,5.653536],"type":"Point"},"properties":{"name":"SESA Collection Point - Beulah Methodist Church","osm_id":"7171452915","tag":{"amenity":"recycling","operator":"SESA Recycling","recycling:plastic_bottles":"yes","recycling_type":"container","website":"https://www.sesa-recycling.com"}},"type":"Feature"},
	{"geometry":{"coordinates":[-0.261934,5.623399],"type":"Point"},"properties":{"name":"SESA Collection Point","osm_id":"7171471584","tag":{"amenity":"recycling","operator":"SESA Recycling","recycling:aluminium":"yes","recycling:cans":"yes","recycling:plastic":"yes","recycling:plastic_bottles":"yes","recycling:plastic_packaging":"yes","recycling_type":"container","website":"https://www.sesa-recycling.com"}},"type":"Feature"}
]
}
