{
"type": "FeatureCollection",
"features": [
	{"geometry":{"coordinates":[-0.217718,5.543858],"type":"Point"},"properties":{"osm_id":"4411520096","tag":{"amenity":"waste_basket"}},"type":"Feature"},
	{"geometry":{"coordinates":[-0.228968,5.549655],"type":"Point"},"properties":{"name":"Agbogbloshie E-waste Recycling Centre(EPA)","osm_id":"4530629790","tag":{"amenity":"recycling","name:en":"Agbogbloshie E-waste Recycling Centre(EPA)","recycling:batteries":"yes","recycling:electrical_appliances":"yes","recycling:small_appliances":"yes","recycling:waste":"yes","recycling_type":"centre"}},"type":"Feature"},
	{"geometry":{"coordinates":[-0.197881,5.596686],"type":"Point"},"properties":{"osm_id":"6115652668","tag":{"amenity":"waste_disposal"}},"type":"Feature"},
	{"geometry":{"coordinates":[-0.244306,5.614738],"type":"Point"},"properties":{"osm_id":"6277014881","tag":{"addr:city":"Accra","addr:community":"Container","addr:street":"Tackie Yaoboi Street","addr:suburb":"Akweteyman","amenity":"waste_basket","operator":"Alliance Waste","waste":"organic;trash;plastic"}},"type":"Feature"},
	{"geometry":{"coordinates":[-0.24421,5.614943],"type":"Point"},"properties":{"osm_id":"6277014882","tag":{"addr:city":"Accra","addr:community":"Container","addr:street":"Tackie Yaoboi Street","addr:suburb":"Akweteyman","amenity":"waste_basket","operator":"Alliance Waste","waste":"organic;trash;plastic"}},"type":"Feature"},
	{"geometry":{"coordinates":[-0.242912,5.615495],"type":"Point"},"properties":{"osm_id":"6277014900","tag":{"addr:city":"Accra","addr:community":"Akweteyman","addr:street":"Ofori Tibo Avenue","addr:suburb":"Nii Boi Town","amenity":"waste_basket","operator":"Zoom Lion","waste":"organic;trash;plastic"}},"type":"Feature"},
	{"geometry":{"coordinates":[-0.242997,5.615377],"type":"Point"},"properties":{"osm_id":"6277014903","tag":{"addr:city":"Accra","addr:community":"Akweteyman","addr:street":"Ofori Tibo Avenue","addr:suburb":"Nii Boi Town","amenity":"waste_basket","operator":"Zoom Lion","waste":"organic;trash;plastic"}},"type":"Feature"},
	{"geometry":{"coordinates":[-0.242831,5.615653],"type":"Point"},"properties":{"osm_id":"6277014904","tag":{"addr:city":"Accra","addr:community":"Akweteyman","addr:street":"Ofori Tibo Avenue","addr:suburb":"Nii Boi Town","amenity":"waste_basket","operator":"Zoom Lion","waste":"organic;trash;plastic"}},"type":"Feature"},
	{"geometry":{"coordinates":[-0.244215,5.615071],"type":"Point"},"properties":{"osm_id":"6277014906","tag":{"addr:city":"Accra","addr:community":"Container","addr:street":"Tackie Yaoboi Street","addr:suburb":"Akweteyman","amenity":"waste_basket","operator":"Alliance Waste","waste":"organic;trash;plastic"}},"type":"Feature"},
	{"geometry":{"coordinates":[-0.244424,5.614737],"type":"Point"},"properties":{"osm_id":"6277014907","tag":{"addr:city":"Accra","addr:community":"Container","addr:street":"Tackie Yaoboi Street","addr:suburb":"Akweteyman","amenity":"waste_basket","operator":"Alliance Waste","waste":"organic;trash;plastic"}},"type":"Feature"},
	{"geometry":{"coordinates":[-0.244821,5.615399],"type":"Point"},"properties":{"osm_id":"6277014908","tag":{"addr:city":"Accra","addr:community":"Akweteyman","addr:street":"Naa Ayorkor Street","addr:suburb":"Nii Boi Town","amenity":"waste_basket","operator":"Alliance Waste","waste":"organic;trash;plastic"}},"type":"Feature"},
	{"geometry":{"coordinates":[-0.244317,5.614889],"type":"Point"},"properties":{"osm_id":"6277014909","tag":{"addr:city":"Accra","addr:community":"Container","addr:street":"Tackie Yaoboi Street","addr:suburb":"Akweteyman","amenity":"waste_basket","operator":"Alliance Waste","waste":"organic;trash;plastic"}},"type":"Feature"},
	{"geometry":{"coordinates":[-0.235529,5.611405],"type":"Point"},"properties":{"osm_id":"6283465060","tag":{"addr:city":"Accra","addr:suburb":"Akweteyman","amenity":"waste_basket","fee":"no","operator":"Alliance Waste","waste":"trash"}},"type":"Feature"},
	{"geometry":{"coordinates":[-0.237829,5.613174],"type":"Point"},"properties":{"osm_id":"6283465063","tag":{"addr:city":"Accra","addr:street":"Kwashie Bezrot Street","addr:suburb":"Akweteyman","amenity":"waste_basket","waste":"plastic;organic;trash"}},"type":"Feature"},
	{"geometry":{"coordinates":[-0.233281,5.59813],"type":"Point"},"properties":{"name":"Coliba Collection Point","osm_id":"6285916218","tag":{"amenity":"recycling","opening_hours":"24/7","operator":"Coliba","recycling:batteries":"no","recycling:cans":"no","recycling:glass":"no","recycling:glass_bottles":"no","recycling:plastic":"yes","recycling:plastic_bottles":"yes","recycling:plastic_packaging":"yes","recycling:scrap_metal":"no","recycling:waste":"no","recycling_type":"centre"}},"type":"Feature"},
	{"geometry":{"coordinates":[-0.247304,5.606101],"type":"Point"},"properties":{"name":"Coliba Collection Point","osm_id":"6285922678","tag":{"amenity":"recycling","opening_hours":"24/7","operator":"Coliba","recycling:plastic":"yes","recycling:plastic_bottles":"yes","recycling:plastic_packaging":"yes","recycling_type":"centre"}},"type":"Feature"},
	{"geometry":{"coordinates":[-0.226417,5.608755],"type":"Point"},"properties":{"name":"Coliba Collection Point","osm_id":"6285925170","tag":{"amenity":"recycling","opening_hours":"24/7","operator":"Coliba","recycling:plastic":"yes","recycling:plastic_bottles":"yes","recycling:plastic_packaging":"yes","recycling_type":"centre"}},"type":"Feature"},
	{"geometry":{"coordinates":[-0.227907,5.576717],"type":"Point"},"properties":{"name":"Coliba Collection Point","osm_id":"6285933319","tag":{"amenity":"recycling","opening_hours":"24/7","operator":"Coliba","recycling:plastic":"yes","recycling:plastic_bottles":"yes","recycling:plastic_packaging":"yes","recycling_type":"centre"}},"type":"Feature"},
	{"geometry":{"coordinates":[-0.240142,5.556949],"type":"Point"},"properties":{"name":"Coliba Collection Point","osm_id":"6285945482","tag":{"amenity":"recycling","opening_hours":"24/7","operator":"Coliba","recycling:plastic":"yes","recycling:plastic_bottles":"yes","recycling:plastic_packaging":"yes","recycling_type":"centre"}},"type":"Feature"},
	{"geometry":{"coordinates":[-0.216852,5.580925],"type":"Point"},"properties":{"name":"Coliba Collection Point","osm_id":"6285986681","tag":{"amenity":"recycling","opening_hours":"24/7","operator":"Coliba","recycling:plastic":"yes","recycling:plastic_bottles":"yes","recycling:plastic_packaging":"yes","recycling_type":"centre"}},"type":"Feature"},
	{"geometry":{"coordinates":[-0.203719,5.556102],"type":"Point"},"properties":{"name":"Coliba Collection Point","osm_id":"6286031481","tag":{"amenity":"recycling","opening_hours":"24/7","operator":"Coliba","recycling:plastic":"yes","recycling:plastic_bottles":"yes","recycling:plastic_packaging":"yes","recycling_type":"centre"}},"type":"Feature"},
	{"geometry":{"coordinates":[-0.181303,5.565233],"type":"Point"},"properties":{"name":"Coliba Collection Point","osm_id":"6286042228","tag":{"amenity":"recycling","opening_hours":"24/7","operator":"Coliba","recycling:plastic":"yes","recycling:plastic_bottles":"yes","recycling:plastic_packaging":"yes","recycling_type":"centre"}},"type":"Feature"},
	{"geometry":{"coordinates":[-0.180904,5.591898],"type":"Point"},"properties":{"name":"Coliba Collection Point","osm_id":"6286081415","tag":{"amenity":"recycling","opening_hours":"24/7","operator":"Coliba","recycling:plastic":"yes","recycling:plastic_bottles":"yes","recycling:plastic_packaging":"yes","recycling_type":"centre"}},"type":"Feature"},
	{"geometry":{"coordinates":[-0.214582,5.565469],"type":"Point"},"properties":{"name":"Coliba Collection Point","osm_id":"6286086408","tag":{"amenity":"recycling","opening_hours":"24/7","operator":"Coliba","recycling:plastic":"yes","recycling:plastic_bottles":"yes","recycling:plastic_packaging":"yes","recycling_type":"centre"}},"type":"Feature"},
	{"geometry":{"coordinates":[-0.207869,5.565274],"type":"Point"},"properties":{"name":"Coliba Collection Point","osm_id":"6286090912","tag":{"amenity":"recycling","opening_hours":"24/7","operator":"Coliba","recycling:plastic":"yes","recycling:plastic_bottles":"yes","recycling:plastic_packaging":"yes","recycling_type":"centre"}},"type":"Feature"},
	{"geometry":{"coordinates":[-0.254236,5.576788],"type":"Point"},"properties":{"name":"Coliba Collection Point","osm_id":"6286092861","tag":{"amenity":"recycling","opening_hours":"24/7","operator":"Coliba","recycling:plastic":"yes","recycling:plastic_bottles":"yes","recycling:plastic_packaging":"yes","recycling_type":"centre"}},"type":"Feature"},
	{"geometry":{"coordinates":[-0.2426,5.611224],"type":"Point"},"properties":{"osm_id":"6290813214","tag":{"addr:city":"Accra","addr:community":"Nii Boi Town","addr:street":"Tana Drive","addr:suburb":"Akweteyman","amenity":"waste_basket","fee":"no","operator":"Alliance Waste","waste":"trash;plastic"}},"type":"Feature"},
	{"geometry":{"coordinates":[-0.242505,5.611434],"type":"Point"},"properties":{"osm_id":"6290813215","tag":{"addr:city":"Accra","addr:community":"Akweteyman","addr:suburb":"Akweteyman","amenity":"waste_basket","fee":"no","operator":"Alliance Waste","waste":"trash"}},"type":"Feature"},
	{"geometry":{"coordinates":[-0.242538,5.609894],"type":"Point"},"properties":{"osm_id":"6290813216","tag":{"addr:city":"Accra","addr:community":"Nii Boi Town","addr:street":"Onyaa Kwashie Avenue","addr:suburb":"Akweteyman","amenity":"waste_basket","fee":"no","operator":"Alliance Waste","waste":"trash"}},"type":"Feature"},
	{"geometry":{"coordinates":[-0.190506,5.588035],"type":"Point"},"properties":{"osm_id":"6629555672","tag":{"amenity":"waste_disposal"}},"type":"Feature"},
	{"geometry":{"coordinates":[-0.259254,5.602155],"type":"Point"},"properties":{"osm_id":"6822093828","tag":{"amenity":"waste_basket"}},"type":"Feature"},
	{"geometry":{"coordinates":[-0.226021,5.612733],"type":"Point"},"properties":{"osm_id":"6838313858","tag":{"amenity":"waste_basket"}},"type":"Feature"},
	{"geometry":{"coordinates":[-0.259553,5.601641],"type":"Point"},"properties":{"osm_id":"6838333377","tag":{"amenity":"waste_basket"}},"type":"Feature"},
	{"geometry":{"coordinates":[-0.222806,5.613679],"type":"Point"},"properties":{"osm_id":"6838336304","tag":{"amenity":"waste_basket"}},"type":"Feature"},
	{"geometry":{"coordinates":[-0.235259,5.610443],"type":"Point"},"properties":{"osm_id":"6841385278","tag":{"amenity":"waste_basket"}},"type":"Feature"},
	{"geometry":{"coordinates":[-0.235244,5.61045],"type":"Point"},"properties":{"osm_id":"6841397592","tag":{"amenity":"waste_basket"}},"type":"Feature"},
	{"geometry":{"coordinates":[-0.195425,5.578201],"type":"Point"},"properties":{"osm_id":"6879652863","tag":{"amenity":"waste_basket"}},"type":"Feature"},
	{"geometry":{"coordinates":[-0.196341,5.577162],"type":"Point"},"properties":{"osm_id":"6896197088","tag":{"amenity":"waste_basket"}},"type":"Feature"},
	{"geometry":{"coordinates":[-0.195881,5.578287],"type":"Point"},"properties":{"osm_id":"6899890681","tag":{"amenity":"waste_basket"}},"type":"Feature"},
	{"geometry":{"coordinates":[-0.196093,5.577494],"type":"Point"},"properties":{"osm_id":"6901268097","tag":{"amenity":"waste_basket"}},"type":"Feature"},
	{"geometry":{"coordinates":[-0.196354,5.577149],"type":"Point"},"properties":{"osm_id":"6906904311","tag":{"amenity":"waste_basket"}},"type":"Feature"},
	{"geometry":{"coordinates":[-0.196368,5.577161],"type":"Point"},"properties":{"osm_id":"6907928640","tag":{"amenity":"waste_basket"}},"type":"Feature"},
	{"geometry":{"coordinates":[-0.195633,5.577314],"type":"Point"},"properties":{"osm_id":"6911624755","tag":{"amenity":"waste_basket"}},"type":"Feature"},
	{"geometry":{"coordinates":[-0.195432,5.578013],"type":"Point"},"properties":{"osm_id":"6914023792","tag":{"amenity":"waste_basket"}},"type":"Feature"},
	{"geometry":{"coordinates":[-0.195791,5.577211],"type":"Point"},"properties":{"osm_id":"6917228490","tag":{"amenity":"waste_basket"}},"type":"Feature"},
	{"geometry":{"coordinates":[-0.195968,5.57797],"type":"Point"},"properties":{"osm_id":"6920216836","tag":{"amenity":"waste_basket"}},"type":"Feature"},
	{"geometry":{"coordinates":[-0.195706,5.577182],"type":"Point"},"properties":{"osm_id":"6923647103","tag":{"amenity":"waste_basket"}},"type":"Feature"},
	{"geometry":{"coordinates":[-0.195971,5.578001],"type":"Point"},"properties":{"osm_id":"6926098344","tag":{"amenity":"waste_basket"}},"type":"Feature"},
	{"geometry":{"coordinates":[-0.195869,5.577978],"type":"Point"},"properties":{"osm_id":"6935778660","tag":{"amenity":"waste_basket"}},"type":"Feature"},
	{"geometry":{"coordinates":[-0.195989,5.577986],"type":"Point"},"properties":{"osm_id":"6936669887","tag":{"amenity":"waste_basket"}},"type":"Feature"},
	{"geometry":{"coordinates":[-0.195875,5.578004],"type":"Point"},"properties":{"osm_id":"6936678410","tag":{"amenity":"waste_basket"}},"type":"Feature"},
	{"geometry":{"coordinates":[-0.195841,5.578074],"type":"Point"},"properties":{"osm_id":"6936694552","tag":{"amenity":"waste_basket"}},"type":"Feature"},
	{"geometry":{"coordinates":[-0.198406,5.583769],"type":"Point"},"properties":{"osm_id":"6958422882","tag":{"addr:city":"Accra","addr:community":"Nima","addr:suburb":"Borla","amenity":"waste_disposal","waste":"trash"}},"type":"Feature"},
	{"geometry":{"coordinates":[-0.198365,5.583964],"type":"Point"},"properties":{"osm_id":"6958422890","tag":{"addr:city":"Accra","addr:community":"Nima","addr:street":"Chief Tanko Street","addr:suburb":"Borla","amenity":"waste_disposal","waste":"trash"}},"type":"Feature"},
	{"geometry":{"coordinates":[-0.198848,5.583686],"type":"Point"},"properties":{"osm_id":"6958422893","tag":{"addr:city":"Accra","addr:community":"Nima","addr:street":"Mallam Murtala","addr:suburb":"Borla","amenity":"waste_disposal","waste":"trash"}},"type":"Feature"},
	{"geometry":{"coordinates":[-0.198946,5.582178],"type":"Point"},"properties":{"osm_id":"6958422896","tag":{"addr:city":"Accra","addr:community":"Nima","addr:street":"Yahaya Seidu Street","addr:suburb":"Borla","amenity":"waste_basket","fee":"no","waste":"trash"}},"type":"Feature"},
	{"geometry":{"coordinates":[-0.198655,5.583654],"type":"Point"},"properties":{"osm_id":"6958422904","tag":{"addr:city":"Accra","addr:community":"Nima","addr:suburb":"Borla","amenity":"waste_disposal","waste":"trash"}},"type":"Feature"},
	{"geometry":{"coordinates":[-0.199165,5.582822],"type":"Point"},"properties":{"osm_id":"6958422905","tag":{"addr:city":"Accra","addr:community":"Nima","addr:street":"Chief Ali Kabo Street","addr:suburb":"Borla","amenity":"waste_basket","fee":"no","waste":"trash"}},"type":"Feature"},
	{"geometry":{"coordinates":[-0.198685,5.582692],"type":"Point"},"properties":{"osm_id":"6958422916","tag":{"addr:city":"Accra","addr:community":"Nima","addr:suburb":"Borla","amenity":"waste_basket","waste":"trash"}},"type":"Feature"},
	{"geometry":{"coordinates":[-0.198456,5.582615],"type":"Point"},"properties":{"osm_id":"6958422926","tag":{"addr:city":"Accra","addr:community":"Nima","addr:suburb":"Borla","amenity":"waste_basket","waste":"trash"}},"type":"Feature"},
	{"geometry":{"coordinates":[-0.198526,5.582629],"type":"Point"},"properties":{"osm_id":"6958422928","tag":{"addr:city":"Accra","addr:community":"Nima","addr:suburb":"Borla","amenity":"waste_basket","waste":"trash"}},"type":"Feature"},
	{"geometry":{"coordinates":[-0.198473,5.582602],"type":"Point"},"properties":{"osm_id":"6958422930","tag":{"addr:city":"Accra","addr:community":"Nima","addr:suburb":"Borla","amenity":"waste_basket","fee":"no","waste":"trash"}},"type":"Feature"},
	{"geometry":{"coordinates":[-0.198395,5.583639],"type":"Point"},"properties":{"osm_id":"6958422931","tag":{"addr:city":"Accra","addr:community":"Nima","addr:suburb":"Borla","amenity":"waste_disposal","waste":"trash"}},"type":"Feature"},
	{"geometry":{"coordinates":[-0.198559,5.582351],"type":"Point"},"properties":{"osm_id":"6958422937","tag":{"addr:city":"Accra","addr:community":"Nima","addr:suburb":"Borla","amenity":"waste_basket","waste":"trash"}},"type":"Feature"},
	{"geometry":{"coordinates":[-0.199103,5.582226],"type":"Point"},"properties":{"osm_id":"6958422942","tag":{"addr:city":"Accra","addr:community":"Nima","addr:street":"Yahaya Seidu Street","addr:suburb":"Borla","amenity":"waste_basket","fee":"no","waste":"trash"}},"type":"Feature"},
	{"geometry":{"coordinates":[-0.199451,5.582337],"type":"Point"},"properties":{"osm_id":"6958422949","tag":{"addr:city":"Accra","addr:community":"Nima","addr:street":"Yahaya Seidu Street","addr:suburb":"Borla","amenity":"waste_basket","waste":"trash"}},"type":"Feature"},
	{"geometry":{"coordinates":[-0.198441,5.582832],"type":"Point"},"properties":{"osm_id":"6958422960","tag":{"addr:city":"Accra","addr:community":"Nima","addr:suburb":"Borla","amenity":"waste_disposal","waste":"trash"}},"type":"Feature"},
	{"geometry":{"coordinates":[-0.198784,5.582426],"type":"Point"},"properties":{"osm_id":"6958422963","tag":{"addr:city":"Accra","addr:community":"Nima","addr:suburb":"Borla","amenity":"waste_basket","waste":"trash"}},"type":"Feature"},
	{"geometry":{"coordinates":[-0.199139,5.582859],"type":"Point"},"properties":{"osm_id":"6958422970","tag":{"addr:city":"Accra","addr:community":"Nima","addr:street":"Chief Ali Kabo Street","addr:suburb":"Borla","amenity":"waste_basket","waste":"trash"}},"type":"Feature"},
	{"geometry":{"coordinates":[-0.198663,5.582101],"type":"Point"},"properties":{"osm_id":"6958422971","tag":{"addr:city":"Accra","addr:community":"Nima","addr:street":"Yahaya Seidu Street","addr:suburb":"Borla","amenity":"waste_basket","fee":"no","waste":"trash"}},"type":"Feature"},
	{"geometry":{"coordinates":[-0.199328,5.582905],"type":"Point"},"properties":{"osm_id":"6958422973","tag":{"addr:city":"Accra","addr:community":"Nima","addr:street":"Tef Ali Rado Street","addr:suburb":"Borla","amenity":"waste_disposal","waste":"trash"}},"type":"Feature"},
	{"geometry":{"coordinates":[-0.19873,5.582708],"type":"Point"},"properties":{"osm_id":"6958422992","tag":{"addr:city":"Accra","addr:community":"Nima","addr:suburb":"Borla","amenity":"waste_disposal","waste":"trash"}},"type":"Feature"},
	{"geometry":{"coordinates":[-0.198355,5.582567],"type":"Point"},"properties":{"osm_id":"6958422993","tag":{"addr:city":"Accra","addr:community":"Nima","addr:suburb":"Borla","amenity":"waste_basket","waste":"trash"}},"type":"Feature"},
	{"geometry":{"coordinates":[-0.19857,5.582644],"type":"Point"},"properties":{"osm_id":"6958423003","tag":{"addr:city":"Accra","addr:community":"Nima","addr:suburb":"Borla","amenity":"waste_basket","waste":"trash"}},"type":"Feature"},
	{"geometry":{"coordinates":[-0.198515,5.583622],"type":"Point"},"properties":{"osm_id":"6958423007","tag":{"addr:city":"Accra","addr:community":"Nima","addr:street":"Mallam Murtala Street","addr:suburb":"Borla","amenity":"waste_basket","fee":"no","waste":"trash"}},"type":"Feature"},
	{"geometry":{"coordinates":[-0.198956,5.583704],"type":"Point"},"properties":{"osm_id":"6958423010","tag":{"addr:city":"Accra","addr:community":"Nima","addr:suburb":"Borla","amenity":"waste_basket","fee":"no","waste":"trash"}},"type":"Feature"},
	{"geometry":{"coordinates":[-0.199257,5.582273],"type":"Point"},"properties":{"osm_id":"6958423012","tag":{"addr:city":"Accra","addr:community":"Nima","addr:street":"Yahaya Seidu Street","addr:suburb":"Borla","amenity":"waste_basket","fee":"no","waste":"trash"}},"type":"Feature"},
	{"geometry":{"coordinates":[-0.199474,5.581178],"type":"Point"},"properties":{"osm_id":"6960812125","tag":{"addr:city":"Accra","addr:community":"Nima","amenity":"waste_disposal","waste":"trash"}},"type":"Feature"},
	{"geometry":{"coordinates":[-0.199599,5.580899],"type":"Point"},"properties":{"osm_id":"6960812127","tag":{"addr:city":"Accra","addr:community":"Nima","amenity":"waste_basket","fee":"no","waste":"organic"}},"type":"Feature"},
	{"geometry":{"coordinates":[-0.199292,5.581068],"type":"Point"},"properties":{"osm_id":"6960812130","tag":{"addr:city":"Accra","addr:community":"Nima","amenity":"waste_disposal","waste":"trash"}},"type":"Feature"},
	{"geometry":{"coordinates":[-0.199416,5.581402],"type":"Point"},"properties":{"osm_id":"6960812150","tag":{"addr:city":"Accra","addr:community":"Nima","amenity":"waste_disposal","waste":"trash"}},"type":"Feature"},
	{"geometry":{"coordinates":[-0.200179,5.58107],"type":"Point"},"properties":{"osm_id":"6960812162","tag":{"addr:city":"Accra","addr:community":"Nima","amenity":"waste_disposal","waste":"trash"}},"type":"Feature"},
	{"geometry":{"coordinates":[-0.199733,5.581396],"type":"Point"},"properties":{"osm_id":"6960812179","tag":{"addr:city":"Accra","addr:community":"Nima","amenity":"waste_disposal","waste":"trash"}},"type":"Feature"},
	{"geometry":{"coordinates":[-0.199578,5.581166],"type":"Point"},"properties":{"osm_id":"6960841485","tag":{"addr:city":"Accra","addr:community":"Nima","amenity":"waste_basket","fee":"no","waste":"trash"}},"type":"Feature"},
	{"geometry":{"coordinates":[-0.200151,5.581294],"type":"Point"},"properties":{"osm_id":"6960841490","tag":{"addr:city":"Accra","addr:community":"Nima","amenity":"waste_basket","waste":"trash"}},"type":"Feature"},
	{"geometry":{"coordinates":[-0.199803,5.581198],"type":"Point"},"properties":{"osm_id":"6960841493","tag":{"addr:city":"Accra","addr:community":"Nima","amenity":"waste_basket","fee":"no","waste":"trash"}},"type":"Feature"},
	{"geometry":{"coordinates":[-0.20109,5.581631],"type":"Point"},"properties":{"osm_id":"6960841497","tag":{"addr:city":"Accra","addr:community":"Nima","amenity":"waste_disposal","waste":"trash"}},"type":"Feature"},
	{"geometry":{"coordinates":[-0.199287,5.581283],"type":"Point"},"properties":{"osm_id":"6960841498","tag":{"addr:city":"Accra","amenity":"waste_disposal","waste":"trash"}},"type":"Feature"},
	{"geometry":{"coordinates":[-0.199833,5.580985],"type":"Point"},"properties":{"osm_id":"6960841506","tag":{"addr:city":"Accra","addr:community":"Nima","addr:street":"Reverend Dogbe Street","amenity":"waste_disposal","waste":"trash"}},"type":"Feature"},
	{"geometry":{"coordinates":[-0.199582,5.58096],"type":"Point"},"properties":{"osm_id":"6960841514","tag":{"addr:city":"Accra","addr:community":"Nima","amenity":"waste_basket","fee":"no","waste":"plastic"}},"type":"Feature"},
	{"geometry":{"coordinates":[-0.199471,5.581326],"type":"Point"},"properties":{"osm_id":"6960841515","tag":{"addr:city":"Accra","addr:community":"Nima","amenity":"waste_disposal","waste":"trash"}},"type":"Feature"},
	{"geometry":{"coordinates":[-0.201422,5.58187],"type":"Point"},"properties":{"osm_id":"6960841519","tag":{"addr:city":"Accra","addr:community":"Nima","amenity":"waste_disposal","operator":"Zoomlion Ghana Limited","waste":"trash"}},"type":"Feature"},
	{"geometry":{"coordinates":[-0.19977,5.581178],"type":"Point"},"properties":{"osm_id":"6960841520","tag":{"addr:city":"Accra","addr:community":"Nima","amenity":"waste_disposal","waste":"trash"}},"type":"Feature"},
	{"geometry":{"coordinates":[-0.199535,5.581049],"type":"Point"},"properties":{"osm_id":"6960841528","tag":{"addr:city":"Accra","addr:community":"Nima","amenity":"waste_basket","fee":"no","waste":"trash"}},"type":"Feature"},
	{"geometry":{"coordinates":[-0.199675,5.581518],"type":"Point"},"properties":{"osm_id":"6960841530","tag":{"addr:city":"Accra","addr:community":"Nima","amenity":"waste_basket","fee":"no","waste":"trash"}},"type":"Feature"},
	{"geometry":{"coordinates":[-0.201391,5.582031],"type":"Point"},"properties":{"osm_id":"6960841531","tag":{"addr:city":"Accra","addr:community":"Nima","amenity":"waste_basket","waste":"trash"}},"type":"Feature"},
	{"geometry":{"coordinates":[-0.199917,5.581516],"type":"Point"},"properties":{"osm_id":"6960841534","tag":{"addr:city":"Accra","addr:community":"Nima","amenity":"waste_disposal","waste":"trash"}},"type":"Feature"},
	{"geometry":{"coordinates":[-0.258366,5.578979],"type":"Point"},"properties":{"osm_id":"6966636852","tag":{"amenity":"waste_basket"}},"type":"Feature"},
	{"geometry":{"coordinates":[-0.203777,5.589861],"type":"Point"},"properties":{"osm_id":"6970189772","tag":{"addr:city":"Accra","addr:community":"Nima","addr:street":"Briahema Gyemila Crescent","addr:suburb":"Kotobabi Police Station","amenity":"waste_basket","operator":"Alliance Waste","waste":"trash"}},"type":"Feature"},
	{"geometry":{"coordinates":[-0.203825,5.588987],"type":"Point"},"properties":{"osm_id":"6970189785","tag":{"addr:city":"Accra","addr:community":"Nima","addr:street":"Briahema Gyemila Crescent","addr:suburb":"Kotobabi","amenity":"waste_disposal","fee":"no","operator":"Aliance","waste":"trash"}},"type":"Feature"},
	{"geometry":{"coordinates":[-0.203762,5.589473],"type":"Point"},"properties":{"osm_id":"6970189805","tag":{"addr:city":"Accra","addr:community":"Nima","addr:street":"Briahema Gyemila Crescent","addr:suburb":"Kotobabi Police Station","amenity":"waste_basket","operator":"Alliance Waste","waste":"trash"}},"type":"Feature"},
	{"geometry":{"coordinates":[-0.199224,5.582202],"type":"Point"},"properties":{"osm_id":"6975048645","tag":{"addr:city":"Accra","addr:community":"Nima","addr:street":"Yahaya Seidu Street","addr:suburb":"Nima Post Office","amenity":"waste_disposal","colour":"yellow","material":"plastic","toilets:disposal":"bucket","waste":"trash"}},"type":"Feature"},
	{"geometry":{"coordinates":[-0.20276,5.589576],"type":"Point"},"properties":{"osm_id":"6975312189","tag":{"addr:city":"Accra","addr:community":"Nima","addr:street":"Briahema Gyemila Crescent","addr:suburb":"Kotobabi Police Station","amenity":"waste_basket","operator":"Alliance Waste","waste":"trash"}},"type":"Feature"},
	{"geometry":{"coordinates":[-0.202685,5.588974],"type":"Point"},"properties":{"osm_id":"6975312196","tag":{"addr:city":"Accra","addr:community":"Nima","amenity":"waste_disposal","waste":"trash"}},"type":"Feature"},
	{"geometry":{"coordinates":[-0.202904,5.589388],"type":"Point"},"properties":{"osm_id":"6975312200","tag":{"access":"permissive","addr:city":"Accra","addr:community":"Nima","addr:street":"Brahemia Gyemila Crescent","addr:suburb":"Christ Evangelical Mission","amenity":"waste_basket","fee":"no","operator":"Alliance Waste","toilets:handwashing":"no","waste":"trash"}},"type":"Feature"},
	{"geometry":{"coordinates":[-0.202174,5.588609],"type":"Point"},"properties":{"osm_id":"6975312207","tag":{"addr:city":"Accra","addr:community":"Nima","amenity":"waste_basket","waste":"trash"}},"type":"Feature"},
	{"geometry":{"coordinates":[-0.201828,5.582673],"type":"Point"},"properties":{"osm_id":"6975713555","tag":{"addr:city":"Accra","addr:community":"Nima","addr:street":"Yahaya Seidu Street","addr:suburb":"Kusuntu Line","amenity":"waste_disposal","city":"Accra","waste":"trash"}},"type":"Feature"},
	{"geometry":{"coordinates":[-0.200737,5.582031],"type":"Point"},"properties":{"osm_id":"6975713556","tag":{"addr:city":"Accra","addr:community":"Nima","addr:street":"Alhaji Mayaki Street","addr:suburb":"Kusuntu Line","amenity":"waste_disposal","city":"Accra","waste":"trash"}},"type":"Feature"},
	{"geometry":{"coordinates":[-0.20182,5.582739],"type":"Point"},"properties":{"osm_id":"6975713557","tag":{"addr:city":"Accra","addr:community":"Nima","addr:street":"Yahaya Seidu Street","addr:suburb":"Kusuntu Line","amenity":"waste_disposal","city":"Accra","waste":"trash"}},"type":"Feature"},
	{"geometry":{"coordinates":[-0.200919,5.582148],"type":"Point"},"properties":{"osm_id":"6975713565","tag":{"addr:city":"Accra","addr:community":"Nima","addr:street":"Alhaji Mayaki Street","addr:suburb":"Kusuntu Line","amenity":"waste_basket","city":"Accra","waste":"trash"}},"type":"Feature"},
	{"geometry":{"coordinates":[-0.200844,5.582415],"type":"Point"},"properties":{"osm_id":"6975713573","tag":{"addr:city":"Accra","addr:community":"Nima","addr:street":"Yahaya Seidu Street","addr:suburb":"Kusuntu Line","amenity":"waste_disposal","city":"Accra","waste":"trash"}},"type":"Feature"},
	{"geometry":{"coordinates":[-0.20107,5.582408],"type":"Point"},"properties":{"osm_id":"6975713576","tag":{"addr:city":"Accra","addr:community":"Nima","addr:street":"Alhaji Mayaki Street","addr:suburb":"Kusuntu Line","amenity":"waste_basket","city":"Accra","fee":"no","waste":"trash"}},"type":"Feature"},
	{"geometry":{"coordinates":[-0.201927,5.582351],"type":"Point"},"properties":{"osm_id":"6975713578","tag":{"addr:city":"Accra","addr:community":"Nima","addr:street":"Alhaji Mayaki Street","addr:suburb":"Kusuntu Line","amenity":"waste_disposal","city":"Accra","waste":"trash"}},"type":"Feature"},
	{"geometry":{"coordinates":[-0.201573,5.582245],"type":"Point"},"properties":{"osm_id":"6975725686","tag":{"addr:city":"Accra","addr:community":"Nima","addr:street":"Alhaji Mayaki Street","addr:suburb":"Kusuntu Line","amenity":"waste_basket","city":"Accra","fee":"no","waste":"trash"}},"type":"Feature"},
	{"geometry":{"coordinates":[-0.202063,5.582054],"type":"Point"},"properties":{"osm_id":"6976560788","tag":{"addr:city":"Accra","addr:community":"Nima","addr:suburb":"Kusuntu Lane","amenity":"waste_disposal","waste":"trash"}},"type":"Feature"},
	{"geometry":{"coordinates":[-0.202239,5.581711],"type":"Point"},"properties":{"osm_id":"6976560789","tag":{"addr:city":"Accra","addr:community":"Nima","addr:street":"Reverend Dogbe Street","addr:suburb":"Kusuntu Lane","amenity":"waste_disposal","waste":"trash"}},"type":"Feature"},
	{"geometry":{"coordinates":[-0.201767,5.582212],"type":"Point"},"properties":{"osm_id":"6976560790","tag":{"addr:city":"Accra","addr:community":"Nima","addr:street":"Oshieye Street","addr:suburb":"Kusuntu Lane","amenity":"waste_disposal","waste":"organic"}},"type":"Feature"},
	{"geometry":{"coordinates":[-0.202015,5.581598],"type":"Point"},"properties":{"osm_id":"6976560791","tag":{"addr:city":"Accra","addr:community":"Nima","addr:street":"Reverend Dogbe Street","addr:suburb":"Kusuntu Lane","amenity":"waste_basket","fee":"no","waste":"organic"}},"type":"Feature"},
	{"geometry":{"coordinates":[-0.202559,5.581935],"type":"Point"},"properties":{"osm_id":"6976560793","tag":{"addr:city":"Accra","addr:community":"Nima","addr:suburb":"Kusuntu Lane","amenity":"waste_basket","fee":"no","waste":"organic"}},"type":"Feature"},
	{"geometry":{"coordinates":[-0.203146,5.582214],"type":"Point"},"properties":{"osm_id":"6976560805","tag":{"addr:city":"Accra","addr:community":"Nima","addr:street":"Oshieye Street","addr:suburb":"Kusuntu Lane","amenity":"waste_basket","fee":"no","waste":"trash"}},"type":"Feature"},
	{"geometry":{"coordinates":[-0.201871,5.581567],"type":"Point"},"properties":{"osm_id":"6976560807","tag":{"addr:city":"Accra","addr:community":"Nima","addr:street":"Reverend Dogbe Street","addr:suburb":"Kusuntu Lane","amenity":"waste_basket","fee":"no","waste":"trash"}},"type":"Feature"},
	{"geometry":{"coordinates":[-0.20181,5.581558],"type":"Point"},"properties":{"osm_id":"6976560811","tag":{"addr:city":"Accra","addr:community":"Nima","addr:street":"Reverend Dogbe Street","addr:suburb":"Kusuntu Lane","amenity":"waste_basket","waste":"trash"}},"type":"Feature"},
	{"geometry":{"coordinates":[-0.201654,5.582176],"type":"Point"},"properties":{"osm_id":"6976560812","tag":{"addr:city":"Accra","addr:community":"Nima","addr:street":"Oshieye Street","addr:suburb":"Kusuntu Lane","amenity":"waste_basket","fee":"no","waste":"trash"}},"type":"Feature"},
	{"geometry":{"coordinates":[-0.202941,5.582347],"type":"Point"},"properties":{"osm_id":"6976560814","tag":{"addr:city":"Accra","addr:community":"Nima","addr:street":"Oshieye Street","addr:suburb":"Kusuntu Lane","amenity":"waste_basket","fee":"no","waste":"trash"}},"type":"Feature"},
	{"geometry":{"coordinates":[-0.203065,5.582266],"type":"Point"},"properties":{"osm_id":"6976560823","tag":{"addr:city":"Accra","addr:community":"Nima","addr:street":"Oshieye Street","addr:suburb":"Kusuntu Lane","amenity":"waste_disposal","waste":"trash"}},"type":"Feature"},
	{"geometry":{"coordinates":[-0.202665,5.582371],"type":"Point"},"properties":{"osm_id":"6976560825","tag":{"addr:city":"Accra","addr:community":"Nima","addr:street":"Oshieye Street","addr:suburb":"Kusuntu Lane","amenity":"waste_basket","fee":"no","waste":"plastic"}},"type":"Feature"},
	{"geometry":{"coordinates":[-0.201462,5.582139],"type":"Point"},"properties":{"osm_id":"6976560830","tag":{"addr:city":"Accra","addr:community":"Nima","addr:street":"Oshieye Street","addr:suburb":"Kusuntu Lane","amenity":"waste_basket","waste":"trash"}},"type":"Feature"},
	{"geometry":{"coordinates":[-0.203021,5.582334],"type":"Point"},"properties":{"osm_id":"6976560831","tag":{"addr:city":"Accra","addr:community":"Nima","addr:street":"Oshieye Street","addr:suburb":"Kusuntu Lane","amenity":"waste_basket","fee":"no","waste":"plastic"}},"type":"Feature"},
	{"geometry":{"coordinates":[-0.203238,5.581909],"type":"Point"},"properties":{"osm_id":"6976560833","tag":{"addr:city":"Accra","addr:community":"Nima","addr:street":"Reverend Dogbe Street","addr:suburb":"Commandos","amenity":"waste_disposal","waste":"trash"}},"type":"Feature"},
	{"geometry":{"coordinates":[-0.201717,5.581554],"type":"Point"},"properties":{"osm_id":"6976560837","tag":{"addr:city":"Accra","addr:community":"Nima","addr:street":"Reverend Dogbe Street","addr:suburb":"Kusuntu Lane","amenity":"waste_basket","fee":"no","waste":"trash"}},"type":"Feature"},
	{"geometry":{"coordinates":[-0.200801,5.579415],"type":"Point"},"properties":{"osm_id":"6976820669","tag":{"addr:city":"Accra","addr:community":"Nima","addr:street":"Samba Close","addr:suburb":"Free Pipe","amenity":"waste_basket","waste":"trash"}},"type":"Feature"},
	{"geometry":{"coordinates":[-0.201858,5.579433],"type":"Point"},"properties":{"osm_id":"6976820677","tag":{"addr:city":"Accra","addr:community":"Nima","addr:suburb":"Alafia","amenity":"waste_basket","fee":"yes","waste":"trash"}},"type":"Feature"},
	{"geometry":{"coordinates":[-0.201101,5.579393],"type":"Point"},"properties":{"osm_id":"6976820678","tag":{"addr:city":"Accra","addr:community":"Nima","addr:street":"Samba Close","addr:suburb":"Free Pipe","amenity":"waste_basket","waste":"trash"}},"type":"Feature"},
	{"geometry":{"coordinates":[-0.200876,5.579447],"type":"Point"},"properties":{"osm_id":"6976854388","tag":{"addr:city":"Accra","addr:community":"Nima","addr:street":"Samba Close","addr:suburb":"Free Pipe","amenity":"waste_disposal","waste":"trash"}},"type":"Feature"},
	{"geometry":{"coordinates":[-0.201835,5.579458],"type":"Point"},"properties":{"osm_id":"6976854389","tag":{"addr:city":"Accra","addr:community":"Nima","addr:suburb":"Alafia","amenity":"waste_basket","waste":"trash"}},"type":"Feature"},
	{"geometry":{"coordinates":[-0.20182,5.579426],"type":"Point"},"properties":{"osm_id":"6976854414","tag":{"addr:city":"Accra","addr:community":"Nima","addr:suburb":"Alafia","amenity":"waste_basket","waste":"trash"}},"type":"Feature"},
	{"geometry":{"coordinates":[-0.202078,5.579415],"type":"Point"},"properties":{"osm_id":"6976854418","tag":{"addr:city":"Accra","addr:community":"Nima","addr:suburb":"Alafia","amenity":"waste_basket","toilets:disposal":"bucket","waste":"trash"}},"type":"Feature"},
	{"geometry":{"coordinates":[-0.196663,5.583986],"type":"Point"},"properties":{"osm_id":"6976958378","tag":{"addr:city":"Accra","addr:community":"Nima","addr:suburb":"441","amenity":"waste_basket","waste":"trash"}},"type":"Feature"},
	{"geometry":{"coordinates":[-0.196413,5.584038],"type":"Point"},"properties":{"osm_id":"6976961586","tag":{"addr:city":"Accra","addr:community":"Nima","addr:suburb":"441","amenity":"waste_basket","waste":"trash"}},"type":"Feature"},
	{"geometry":{"coordinates":[-0.196735,5.583622],"type":"Point"},"properties":{"osm_id":"6976961594","tag":{"addr:city":"Accra","addr:community":"Nima","amenity":"waste_basket","waste":"trash"}},"type":"Feature"},
	{"geometry":{"coordinates":[-0.19888,5.585576],"type":"Point"},"properties":{"osm_id":"6981127542","tag":{"addr:city":"Accra","addr:community":"Nima","addr:street":"Islamic Research Street","addr:suburb":"Research","amenity":"waste_disposal","waste":"trash"}},"type":"Feature"},
	{"geometry":{"coordinates":[-0.198846,5.585092],"type":"Point"},"properties":{"osm_id":"6981127545","tag":{"addr:city":"Accra","addr:community":"Nima","addr:street":"Mallam Kamka Street","addr:suburb":"Research","amenity":"waste_basket","fee":"no","waste":"trash"}},"type":"Feature"},
	{"geometry":{"coordinates":[-0.199086,5.585695],"type":"Point"},"properties":{"osm_id":"6981127553","tag":{"addr:city":"Accra","addr:community":"Nima","addr:suburb":"Research","amenity":"waste_basket","fee":"no","waste":"trash"}},"type":"Feature"},
	{"geometry":{"coordinates":[-0.19872,5.585544],"type":"Point"},"properties":{"osm_id":"6981127564","tag":{"addr:city":"Accra","addr:community":"Nima","addr:street":"Islamic Research Street","addr:suburb":"Research","amenity":"waste_basket","fee":"no","waste":"trash"}},"type":"Feature"},
	{"geometry":{"coordinates":[-0.198741,5.5858],"type":"Point"},"properties":{"osm_id":"6981127567","tag":{"addr:city":"Accra","addr:community":"Nima","addr:street":"Islamic Research Street","addr:suburb":"Research","amenity":"waste_disposal","waste":"trash"}},"type":"Feature"},
	{"geometry":{"coordinates":[-0.199237,5.585853],"type":"Point"},"properties":{"osm_id":"6981127571","tag":{"addr:city":"Accra","addr:community":"Nima","addr:suburb":"Research","amenity":"waste_basket","fee":"no","waste":"trash"}},"type":"Feature"},
	{"geometry":{"coordinates":[-0.198666,5.585555],"type":"Point"},"properties":{"osm_id":"6981127574","tag":{"addr:city":"Accra","addr:community":"Nima","addr:street":"Islamic Research Street","addr:suburb":"Research","amenity":"waste_disposal","waste":"trash"}},"type":"Feature"},
	{"geometry":{"coordinates":[-0.198571,5.584547],"type":"Point"},"properties":{"osm_id":"6983620493","tag":{"addr:city":"Accra","addr:community":"Nima","addr:suburb":"Research","amenity":"waste_disposal","waste":"trash"}},"type":"Feature"},
	{"geometry":{"coordinates":[-0.198965,5.584286],"type":"Point"},"properties":{"osm_id":"6983620495","tag":{"addr:city":"Accra","addr:community":"Nima","addr:street":"Chief Tanko Street","addr:suburb":"Research","amenity":"waste_disposal","waste":"trash"}},"type":"Feature"},
	{"geometry":{"coordinates":[-0.200039,5.584134],"type":"Point"},"properties":{"osm_id":"6983620498","tag":{"addr:city":"Accra","addr:community":"Nima","addr:suburb":"German Base","amenity":"waste_disposal","waste":"trash"}},"type":"Feature"},
	{"geometry":{"coordinates":[-0.199696,5.584231],"type":"Point"},"properties":{"osm_id":"6983620499","tag":{"addr:city":"Accra","addr:community":"Nima","addr:suburb":"German Base","amenity":"waste_disposal","waste":"trash"}},"type":"Feature"},
	{"geometry":{"coordinates":[-0.199653,5.58443],"type":"Point"},"properties":{"osm_id":"6983620504","tag":{"addr:city":"Accra","addr:community":"Nima","addr:suburb":"German Base","amenity":"waste_basket","waste":"trash"}},"type":"Feature"},
	{"geometry":{"coordinates":[-0.199203,5.583793],"type":"Point"},"properties":{"osm_id":"6983620506","tag":{"addr:city":"Accra","addr:community":"Nima","addr:suburb":"German Base","amenity":"waste_basket","fee":"no","waste":"trash"}},"type":"Feature"},
	{"geometry":{"coordinates":[-0.199774,5.585058],"type":"Point"},"properties":{"osm_id":"6983620507","tag":{"addr:city":"Accra","addr:community":"Nima","addr:suburb":"Research","amenity":"waste_disposal","waste":"trash"}},"type":"Feature"},
	{"geometry":{"coordinates":[-0.199632,5.584011],"type":"Point"},"properties":{"osm_id":"6983620515","tag":{"addr:city":"Accra","addr:community":"Nima","addr:suburb":"German Base","amenity":"waste_disposal","waste":"organic"}},"type":"Feature"},
	{"geometry":{"coordinates":[-0.199113,5.584898],"type":"Point"},"properties":{"osm_id":"6983620517","tag":{"addr:city":"Accra","addr:community":"Nima","addr:suburb":"Research","amenity":"waste_disposal","waste":"trash"}},"type":"Feature"},
	{"geometry":{"coordinates":[-0.199485,5.583984],"type":"Point"},"properties":{"osm_id":"6983620520","tag":{"addr:city":"Accra","addr:community":"Nima","addr:suburb":"German Base","amenity":"waste_basket","fee":"no","waste":"trash"}},"type":"Feature"},
	{"geometry":{"coordinates":[-0.199248,5.584805],"type":"Point"},"properties":{"osm_id":"6983620526","tag":{"addr:city":"Accra","addr:community":"Nima","addr:suburb":"Research","amenity":"waste_disposal","waste":"trash"}},"type":"Feature"},
	{"geometry":{"coordinates":[-0.199858,5.584915],"type":"Point"},"properties":{"osm_id":"6983620530","tag":{"addr:city":"Accra","addr:community":"Nima","addr:suburb":"Research","amenity":"waste_basket","waste":"trash"}},"type":"Feature"},
	{"geometry":{"coordinates":[-0.198966,5.585053],"type":"Point"},"properties":{"osm_id":"6983620532","tag":{"addr:city":"Accra","addr:community":"Nima","addr:suburb":"Research","amenity":"waste_disposal","waste":"trash"}},"type":"Feature"},
	{"geometry":{"coordinates":[-0.199183,5.583934],"type":"Point"},"properties":{"osm_id":"6983620533","tag":{"addr:city":"Accra","addr:community":"Nima","addr:suburb":"German Base","amenity":"waste_basket","waste":"trash"}},"type":"Feature"},
	{"geometry":{"coordinates":[-0.198765,5.584599],"type":"Point"},"properties":{"osm_id":"6983620539","tag":{"addr:city":"Accra","addr:community":"Nima","addr:suburb":"Research","amenity":"waste_disposal","waste":"trash"}},"type":"Feature"},
	{"geometry":{"coordinates":[-0.19932,5.584829],"type":"Point"},"properties":{"osm_id":"6983620542","tag":{"addr:city":"Accra","addr:community":"Nima","addr:suburb":"Research","amenity":"waste_basket","fee":"no","waste":"trash"}},"type":"Feature"},
	{"geometry":{"coordinates":[-0.199192,5.584316],"type":"Point"},"properties":{"osm_id":"6983620545","tag":{"addr:city":"Accra","addr:community":"Nima","addr:suburb":"German Base","amenity":"waste_basket","fee":"no","waste":"trash"}},"type":"Feature"},
	{"geometry":{"coordinates":[-0.19975,5.584466],"type":"Point"},"properties":{"osm_id":"6983620549","tag":{"addr:city":"Accra","addr:community":"Nima","addr:suburb":"German Base","amenity":"waste_basket","fee":"no","waste":"trash"}},"type":"Feature"},
	{"geometry":{"coordinates":[-0.199246,5.583932],"type":"Point"},"properties":{"osm_id":"6983620550","tag":{"addr:city":"Accra","addr:community":"Nima","addr:suburb":"German Base","amenity":"waste_basket","fee":"no","waste":"trash"}},"type":"Feature"},
	{"geometry":{"coordinates":[-0.199276,5.583793],"type":"Point"},"properties":{"osm_id":"6983620551","tag":{"addr:city":"Accra","addr:community":"Nima","addr:suburb":"German Base","amenity":"waste_disposal","waste":"trash"}},"type":"Feature"},
	{"geometry":{"coordinates":[-0.199277,5.58453],"type":"Point"},"properties":{"osm_id":"6983620552","tag":{"addr:city":"Accra","addr:community":"Nima","addr:suburb":"Research","amenity":"waste_basket","fee":"no","waste":"trash"}},"type":"Feature"},
	{"geometry":{"coordinates":[-0.199707,5.584839],"type":"Point"},"properties":{"osm_id":"6983620558","tag":{"addr:city":"Accra","addr:community":"Nima","addr:suburb":"Research","amenity":"waste_basket","fee":"no","waste":"trash"}},"type":"Feature"},
	{"geometry":{"coordinates":[-0.206219,5.586078],"type":"Point"},"properties":{"osm_id":"6983626703","tag":{"access":"customers","addr:city":"Accra","addr:community":"Nima","addr:street":"Ajakroba Street","addr:suburb":"New Town","amenity":"waste_basket","fee":"no","toilets:disposal":"bucket","toilets:handwashing":"no","waste":"organic"}},"type":"Feature"},
	{"geometry":{"coordinates":[-0.20041,5.581037],"type":"Point"},"properties":{"osm_id":"6983629784","tag":{"addr:city":"Accra","addr:community":"Nima","addr:street":"Reverend Dogbe Street","addr:suburb":"Nima Market","amenity":"waste_disposal","waste":"trash"}},"type":"Feature"},
	{"geometry":{"coordinates":[-0.200458,5.580472],"type":"Point"},"properties":{"osm_id":"6983629790","tag":{"addr:city":"Accra","addr:community":"Nima","addr:suburb":"Nima Market","amenity":"waste_disposal","fee":"no","waste":"plastic"}},"type":"Feature"},
	{"geometry":{"coordinates":[-0.200413,5.580764],"type":"Point"},"properties":{"osm_id":"6983629799","tag":{"addr:city":"Accra","addr:community":"Nima","addr:street":"Reverend Dogbe Street","addr:suburb":"Nima Market","amenity":"waste_basket","waste":"trash"}},"type":"Feature"},
	{"geometry":{"coordinates":[-0.199857,5.580408],"type":"Point"},"properties":{"osm_id":"6983629802","tag":{"addr:city":"Accra","addr:community":"Nima","addr:suburb":"Nima Market","amenity":"waste_basket","waste":"trash"}},"type":"Feature"},
	{"geometry":{"coordinates":[-0.201166,5.579778],"type":"Point"},"properties":{"osm_id":"6983629828","tag":{"addr:city":"Accra","addr:community":"Nima","addr:street":"Samba Close","addr:suburb":"Nima Market","amenity":"waste_disposal","waste":"trash"}},"type":"Feature"},
	{"geometry":{"coordinates":[-0.202885,5.583301],"type":"Point"},"properties":{"osm_id":"6983705219","tag":{"addr:city":"Accra","addr:community":"Nima","addr:street":"Yahaya Seidu Street","addr:suburb":"Nima Downside","amenity":"waste_disposal","waste":"trash"}},"type":"Feature"},
	{"geometry":{"coordinates":[-0.203,5.583173],"type":"Point"},"properties":{"osm_id":"6983705222","tag":{"addr:city":"Accra","addr:community":"Nima","addr:street":"Edward Akufo Addo Street","addr:suburb":"Nima Downside","amenity":"waste_disposal","waste":"trash"}},"type":"Feature"},
	{"geometry":{"coordinates":[-0.203451,5.58233],"type":"Point"},"properties":{"osm_id":"6983705235","tag":{"addr:city":"Accra","addr:community":"Nima","addr:suburb":"Kusuntu Line","amenity":"waste_disposal","waste":"plastic"}},"type":"Feature"},
	{"geometry":{"coordinates":[-0.202228,5.582533],"type":"Point"},"properties":{"osm_id":"6983705238","tag":{"addr:city":"Accra","addr:community":"Nima","addr:suburb":"Kusuntu Line","amenity":"waste_disposal","waste":"plastic"}},"type":"Feature"},
	{"geometry":{"coordinates":[-0.203032,5.582758],"type":"Point"},"properties":{"osm_id":"6983705240","tag":{"addr:city":"Accra","addr:community":"Nima","addr:suburb":"Nima Downside","amenity":"waste_disposal","waste":"trash"}},"type":"Feature"},
	{"geometry":{"coordinates":[-0.202571,5.583035],"type":"Point"},"properties":{"osm_id":"6983705242","tag":{"addr:city":"Accra","addr:community":"Nima","addr:suburb":"Nima Downside","amenity":"waste_disposal","waste":"trash"}},"type":"Feature"},
	{"geometry":{"coordinates":[-0.202539,5.582672],"type":"Point"},"properties":{"osm_id":"6983705244","tag":{"addr:city":"Accra","addr:community":"Nima","addr:suburb":"Kusuntu Line","amenity":"waste_disposal","waste":"plastic"}},"type":"Feature"},
	{"geometry":{"coordinates":[-0.202145,5.582893],"type":"Point"},"properties":{"osm_id":"6983705250","tag":{"addr:city":"Accra","addr:community":"Nima","addr:suburb":"Nima Downside","amenity":"waste_basket","waste":"trash"}},"type":"Feature"},
	{"geometry":{"coordinates":[-0.20314,5.583095],"type":"Point"},"properties":{"osm_id":"6983705255","tag":{"addr:city":"Accra","addr:community":"Nima","addr:street":"Edward Akufo Addo Street","addr:suburb":"Nima Downside","amenity":"waste_basket","waste":"trash"}},"type":"Feature"},
	{"geometry":{"coordinates":[-0.202707,5.582733],"type":"Point"},"properties":{"osm_id":"6983705259","tag":{"addr:city":"Accra","addr:community":"Nima","addr:suburb":"Nima Downside","amenity":"waste_disposal","waste":"trash"}},"type":"Feature"},
	{"geometry":{"coordinates":[-0.202271,5.582661],"type":"Point"},"properties":{"osm_id":"6983705260","tag":{"addr:city":"Accra","addr:community":"Nima","addr:suburb":"Kusuntu Line","amenity":"waste_disposal","waste":"trash"}},"type":"Feature"},
	{"geometry":{"coordinates":[-0.202403,5.582947],"type":"Point"},"properties":{"osm_id":"6983705267","tag":{"addr:city":"Accra","addr:community":"Nima","addr:suburb":"Nima Downside","amenity":"waste_disposal","waste":"trash"}},"type":"Feature"},
	{"geometry":{"coordinates":[-0.203387,5.582309],"type":"Point"},"properties":{"osm_id":"6983705269","tag":{"addr:city":"Accra","addr:community":"Nima","addr:suburb":"Kusuntu Line","amenity":"waste_disposal","waste":"trash"}},"type":"Feature"},
	{"geometry":{"coordinates":[-0.193642,5.589726],"type":"Point"},"properties":{"osm_id":"6983737370","tag":{"addr:city":"Accra","addr:community":"Nima","addr:street":"Baba Alhamdu Street","addr:suburb":"15 Bob","amenity":"waste_disposal","waste":"trash"}},"type":"Feature"},
	{"geometry":{"coordinates":[-0.195806,5.58926],"type":"Point"},"properties":{"osm_id":"6983737371","tag":{"addr:city":"Accra","addr:community":"Nima","addr:street":"Baba Alhamdu Street","addr:suburb":"Hamburg","amenity":"waste_disposal","toilets:disposal":"bucket","waste":"trash"}},"type":"Feature"},
	{"geometry":{"coordinates":[-0.193334,5.589527],"type":"Point"},"properties":{"osm_id":"6983737372","tag":{"addr:city":"Accra","addr:community":"Nima","addr:suburb":"15 Bob","amenity":"waste_disposal","waste":"trash"}},"type":"Feature"},
	{"geometry":{"coordinates":[-0.193803,5.589493],"type":"Point"},"properties":{"osm_id":"6983737378","tag":{"addr:city":"Accra","addr:community":"Nima","addr:street":"Baba Alhamdu Street","addr:suburb":"15 Bob","amenity":"waste_basket","waste":"trash"}},"type":"Feature"},
	{"geometry":{"coordinates":[-0.195801,5.589367],"type":"Point"},"properties":{"osm_id":"6983737381","tag":{"addr:city":"Accra","addr:community":"Nima","addr:street":"Baba Alhamdu Street","addr:suburb":"Hamburg","amenity":"waste_disposal","toilets:disposal":"bucket","waste":"trash"}},"type":"Feature"},
	{"geometry":{"coordinates":[-0.200222,5.587733],"type":"Point"},"properties":{"osm_id":"6984356701","tag":{"addr:city":"Accra","addr:community":"Nima","amenity":"waste_basket","waste":"trash"}},"type":"Feature"},
	{"geometry":{"coordinates":[-0.201048,5.588715],"type":"Point"},"properties":{"osm_id":"6984356702","tag":{"addr:city":"Accra","addr:community":"Nima","addr:street":"Alajo High Street","amenity":"waste_basket","waste":"trash"}},"type":"Feature"},
	{"geometry":{"coordinates":[-0.201058,5.588609],"type":"Point"},"properties":{"osm_id":"6984356710","tag":{"addr:city":"Accra","addr:community":"Nima","addr:street":"Alajo High Street","amenity":"waste_basket","waste":"trash"}},"type":"Feature"},
	{"geometry":{"coordinates":[-0.200751,5.587899],"type":"Point"},"properties":{"osm_id":"6984356719","tag":{"addr:city":"Accra","addr:community":"Nima","addr:suburb":"Accra Newtown","amenity":"waste_disposal","waste":"trash"}},"type":"Feature"},
	{"geometry":{"coordinates":[-0.200157,5.588085],"type":"Point"},"properties":{"osm_id":"6984356724","tag":{"addr:city":"Accra","addr:community":"Nima","addr:street":"Alajo High Street","amenity":"waste_disposal","waste":"trash"}},"type":"Feature"},
	{"geometry":{"coordinates":[-0.201275,5.588283],"type":"Point"},"properties":{"osm_id":"6984356731","tag":{"addr:city":"Accra","addr:community":"Nima","amenity":"waste_disposal","waste":"trash"}},"type":"Feature"},
	{"geometry":{"coordinates":[-0.200308,5.587861],"type":"Point"},"properties":{"osm_id":"6984356732","tag":{"addr:city":"Accra","addr:community":"Nima","addr:street":"Alajo High Street","addr:suburb":"Accra Newtown","amenity":"waste_disposal","waste":"trash"}},"type":"Feature"},
	{"geometry":{"coordinates":[-0.201277,5.58825],"type":"Point"},"properties":{"osm_id":"6984356736","tag":{"addr:city":"Accra","addr:community":"Nima","addr:suburb":"Accra Newtown","amenity":"waste_disposal","waste":"trash"}},"type":"Feature"},
	{"geometry":{"coordinates":[-0.200381,5.588251],"type":"Point"},"properties":{"osm_id":"6984356741","tag":{"addr:city":"Accra","addr:community":"Nima","addr:street":"Alajo High Street","amenity":"waste_disposal","waste":"trash"}},"type":"Feature"},
	{"geometry":{"coordinates":[-0.200533,5.588406],"type":"Point"},"properties":{"osm_id":"6984356742","tag":{"addr:city":"Accra","addr:community":"Nima","addr:street":"Alajo High Street","addr:suburb":"Accra Newtown","amenity":"recycling","recycling:waste":"yes","recycling_type":"container","waste":"trash"}},"type":"Feature"},
	{"geometry":{"coordinates":[-0.20079,5.587872],"type":"Point"},"properties":{"osm_id":"6984356743","tag":{"addr:city":"Accra","addr:community":"Nima","amenity":"waste_basket","fee":"no","waste":"trash"}},"type":"Feature"},
	{"geometry":{"coordinates":[-0.200565,5.587007],"type":"Point"},"properties":{"osm_id":"6984356748","tag":{"addr:city":"Accra","addr:community":"Nima","amenity":"recycling","recycling:waste":"yes","recycling_type":"container","waste":"e-waste"}},"type":"Feature"},
	{"geometry":{"coordinates":[-0.200458,5.587423],"type":"Point"},"properties":{"osm_id":"6984356756","tag":{"addr:city":"Accra","addr:community":"Nima","amenity":"waste_basket","waste":"trash"}},"type":"Feature"},
	{"geometry":{"coordinates":[-0.200511,5.587146],"type":"Point"},"properties":{"osm_id":"6984356759","tag":{"addr:city":"Accra","addr:community":"Nima","amenity":"recycling","recycling:waste":"yes","recycling_type":"container","waste":"trash"}},"type":"Feature"},
	{"geometry":{"coordinates":[-0.206648,5.584508],"type":"Point"},"properties":{"osm_id":"6984515188","tag":{"addr:city":"Accra","addr:community":"Nima","addr:street":"Ajakroba Street","addr:suburb":"Timber Market","amenity":"waste_disposal","operator":"Zoomlion","waste":"trash"}},"type":"Feature"},
	{"geometry":{"coordinates":[-0.201883,5.580742],"type":"Point"},"properties":{"osm_id":"6984618019","tag":{"addr:city":"Accra","addr:community":"Nima","addr:suburb":"Kusuntu Lane","amenity":"waste_basket","waste":"trash"}},"type":"Feature"},
	{"geometry":{"coordinates":[-0.202668,5.579671],"type":"Point"},"properties":{"osm_id":"6984618028","tag":{"addr:city":"Accra","addr:community":"Nima","addr:street":"Oku Street","amenity":"waste_disposal","waste":"trash"}},"type":"Feature"},
	{"geometry":{"coordinates":[-0.202832,5.580721],"type":"Point"},"properties":{"osm_id":"6984618029","tag":{"addr:city":"Accra","addr:community":"Nima","addr:suburb":"Nima","amenity":"waste_disposal","fee":"no","waste":"trash"}},"type":"Feature"},
	{"geometry":{"coordinates":[-0.203354,5.581081],"type":"Point"},"properties":{"osm_id":"6984618068","tag":{"addr:city":"Accra","addr:community":"Nima","addr:street":"Edward Akufo Addo Street","amenity":"waste_disposal","waste":"trash"}},"type":"Feature"},
	{"geometry":{"coordinates":[-0.202087,5.579449],"type":"Point"},"properties":{"osm_id":"6984618084","tag":{"addr:city":"Accra","addr:community":"Nima","addr:street":"Oku Street","amenity":"waste_basket","toilets:disposal":"bucket","waste":"trash"}},"type":"Feature"},
	{"geometry":{"coordinates":[-0.202732,5.580045],"type":"Point"},"properties":{"osm_id":"6984620616","tag":{"addr:city":"Accra","addr:community":"Nima","addr:street":"Oku Street","amenity":"waste_disposal","waste":"trash"}},"type":"Feature"},
	{"geometry":{"coordinates":[-0.203174,5.57932],"type":"Point"},"properties":{"osm_id":"6985230144","tag":{"addr:city":"Accra","addr:community":"Nima","addr:street":"Mallam Kamaludeen Street","amenity":"waste_disposal","waste":"trash"}},"type":"Feature"},
	{"geometry":{"coordinates":[-0.202782,5.579602],"type":"Point"},"properties":{"osm_id":"6985230150","tag":{"addr:city":"Accra","addr:community":"Nima","amenity":"waste_basket","waste":"trash"}},"type":"Feature"},
	{"geometry":{"coordinates":[-0.202915,5.579393],"type":"Point"},"properties":{"osm_id":"6985230152","tag":{"addr:city":"Accra","addr:community":"Nima","amenity":"waste_basket","waste":"trash"}},"type":"Feature"},
	{"geometry":{"coordinates":[-0.203556,5.57943],"type":"Point"},"properties":{"osm_id":"6985230157","tag":{"addr:city":"Accra","addr:community":"Nima","amenity":"waste_basket","waste":"trash"}},"type":"Feature"},
	{"geometry":{"coordinates":[-0.20229,5.579134],"type":"Point"},"properties":{"osm_id":"6985230159","tag":{"addr:city":"Accra","addr:community":"Nima","amenity":"waste_basket","fee":"no","waste":"trash"}},"type":"Feature"},
	{"geometry":{"coordinates":[-0.202131,5.578614],"type":"Point"},"properties":{"osm_id":"6985230174","tag":{"addr:city":"Accra","addr:community":"Nima","addr:suburb":"Alafia","amenity":"waste_disposal","waste":"organic"}},"type":"Feature"},
	{"geometry":{"coordinates":[-0.20314,5.579735],"type":"Point"},"properties":{"osm_id":"6985230191","tag":{"addr:city":"Accra","addr:community":"Nima","amenity":"waste_basket","waste":"trash"}},"type":"Feature"},
	{"geometry":{"coordinates":[-0.203784,5.579821],"type":"Point"},"properties":{"osm_id":"6985230193","tag":{"addr:city":"Accra","addr:community":"Nima","amenity":"waste_disposal","waste":"trash"}},"type":"Feature"},
	{"geometry":{"coordinates":[-0.202251,5.57918],"type":"Point"},"properties":{"osm_id":"6985230195","tag":{"addr:city":"Accra","addr:community":"Nima","amenity":"waste_disposal","fee":"no","waste":"trash"}},"type":"Feature"},
	{"geometry":{"coordinates":[-0.201667,5.578364],"type":"Point"},"properties":{"osm_id":"6985230198","tag":{"addr:city":"Accra","addr:community":"Nima","addr:street":"Mallam Kamaludeen Street","amenity":"waste_disposal","operator":"Zoom Lion","waste":"trash"}},"type":"Feature"},
	{"geometry":{"coordinates":[-0.202539,5.579522],"type":"Point"},"properties":{"osm_id":"6985230202","tag":{"addr:city":"Accra","addr:community":"Nima","addr:suburb":"Alafia","amenity":"waste_disposal","waste":"trash"}},"type":"Feature"},
	{"geometry":{"coordinates":[-0.196727,5.588188],"type":"Point"},"properties":{"osm_id":"6985350568","tag":{"addr:city":"Accra","addr:community":"Nima","addr:street":"Oku Street","addr:suburb":"Gutter","amenity":"waste_basket","waste":"trash"}},"type":"Feature"},
	{"geometry":{"coordinates":[-0.197352,5.587626],"type":"Point"},"properties":{"osm_id":"6985350580","tag":{"addr:city":"Accra","addr:community":"Nima","amenity":"waste_disposal","fee":"no","waste":"trash"}},"type":"Feature"},
	{"geometry":{"coordinates":[-0.218278,5.569009],"type":"Point"},"properties":{"osm_id":"6985492481","tag":{"amenity":"waste_basket"}},"type":"Feature"},
	{"geometry":{"coordinates":[-0.199921,5.583622],"type":"Point"},"properties":{"osm_id":"6985774552","tag":{"addr:city":"Accra","addr:community":"Nima","amenity":"waste_disposal","waste":"trash"}},"type":"Feature"},
	{"geometry":{"coordinates":[-0.199417,5.582757],"type":"Point"},"properties":{"osm_id":"6985774553","tag":{"addr:city":"Accra","addr:community":"Nima","amenity":"waste_disposal","waste":"trash"}},"type":"Feature"},
	{"geometry":{"coordinates":[-0.199803,5.58296],"type":"Point"},"properties":{"osm_id":"6985774556","tag":{"addr:city":"Accra","addr:community":"Nima","amenity":"waste_basket","fee":"no","waste":"trash"}},"type":"Feature"},
	{"geometry":{"coordinates":[-0.200326,5.583086],"type":"Point"},"properties":{"osm_id":"6985774557","tag":{"addr:city":"Accra","addr:community":"Nima","amenity":"waste_disposal","waste":"trash"}},"type":"Feature"},
	{"geometry":{"coordinates":[-0.199546,5.58259],"type":"Point"},"properties":{"osm_id":"6985774558","tag":{"addr:city":"Accra","addr:community":"Nima","amenity":"waste_disposal","waste":"trash"}},"type":"Feature"},
	{"geometry":{"coordinates":[-0.200189,5.583077],"type":"Point"},"properties":{"osm_id":"6985774559","tag":{"addr:city":"Accra","addr:community":"Nima","amenity":"waste_disposal","waste":"trash"}},"type":"Feature"},
	{"geometry":{"coordinates":[-0.199546,5.582939],"type":"Point"},"properties":{"osm_id":"6985774563","tag":{"addr:city":"Accra","addr:community":"Nima","amenity":"waste_disposal","waste":"trash"}},"type":"Feature"},
	{"geometry":{"coordinates":[-0.199756,5.583837],"type":"Point"},"properties":{"osm_id":"6985774567","tag":{"addr:city":"Accra","addr:community":"Nima","amenity":"waste_basket","fee":"no","waste":"trash"}},"type":"Feature"},
	{"geometry":{"coordinates":[-0.199387,5.583738],"type":"Point"},"properties":{"osm_id":"6985774578","tag":{"addr:city":"Accra","addr:community":"Nima","amenity":"waste_basket","fee":"no","waste":"trash"}},"type":"Feature"},
	{"geometry":{"coordinates":[-0.200522,5.582714],"type":"Point"},"properties":{"osm_id":"6985774579","tag":{"addr:city":"Accra","addr:community":"Nima","amenity":"waste_disposal","waste":"plastic"}},"type":"Feature"},
	{"geometry":{"coordinates":[-0.200456,5.583009],"type":"Point"},"properties":{"osm_id":"6985774582","tag":{"addr:city":"Accra","addr:community":"Nima","amenity":"waste_disposal","waste":"trash"}},"type":"Feature"},
	{"geometry":{"coordinates":[-0.19984,5.583662],"type":"Point"},"properties":{"osm_id":"6985794386","tag":{"addr:city":"Accra","addr:community":"Nima","amenity":"waste_disposal","waste":"trash"}},"type":"Feature"},
	{"geometry":{"coordinates":[-0.200372,5.582852],"type":"Point"},"properties":{"osm_id":"6985794387","tag":{"addr:city":"Accra","addr:community":"Nima","amenity":"waste_disposal","waste":"trash"}},"type":"Feature"},
	{"geometry":{"coordinates":[-0.200168,5.583291],"type":"Point"},"properties":{"osm_id":"6985794388","tag":{"addr:city":"Accra","addr:community":"Nima","amenity":"waste_disposal","waste":"trash"}},"type":"Feature"},
	{"geometry":{"coordinates":[-0.199454,5.582899],"type":"Point"},"properties":{"osm_id":"6985794390","tag":{"addr:city":"Accra","addr:community":"Nima","amenity":"waste_basket","fee":"no","waste":"trash"}},"type":"Feature"},
	{"geometry":{"coordinates":[-0.200512,5.582778],"type":"Point"},"properties":{"osm_id":"6985794391","tag":{"addr:city":"Accra","addr:community":"Nima","amenity":"waste_disposal","waste":"trash"}},"type":"Feature"},
	{"geometry":{"coordinates":[-0.200136,5.582522],"type":"Point"},"properties":{"osm_id":"6985794394","tag":{"addr:city":"Accra","addr:community":"Nima","amenity":"waste_disposal","waste":"trash"}},"type":"Feature"},
	{"geometry":{"coordinates":[-0.199921,5.582565],"type":"Point"},"properties":{"osm_id":"6985794398","tag":{"addr:city":"Accra","addr:community":"Nima","amenity":"waste_disposal","waste":"trash"}},"type":"Feature"},
	{"geometry":{"coordinates":[-0.207202,5.587005],"type":"Point"},"properties":{"name":"Alliance Waste","osm_id":"6985982789","tag":{"access":"yes","addr:city":"Accra","addr:community":"Nima","addr:suburb":"Agbajena","amenity":"waste_disposal","fee":"no","waste":"trash"}},"type":"Feature"},
	{"geometry":{"coordinates":[-0.206637,5.586975],"type":"Point"},"properties":{"osm_id":"6985982811","tag":{"addr:city":"Accra","addr:community":"Nima","addr:street":"Odoitso street","addr:suburb":"Agbajena","amenity":"waste_disposal","waste":"plastic"}},"type":"Feature"},
	{"geometry":{"coordinates":[-0.207056,5.587028],"type":"Point"},"properties":{"osm_id":"6985982816","tag":{"addr:city":"Accra","addr:community":"Nima","addr:suburb":"Agbajena","amenity":"waste_basket","waste":"trash"}},"type":"Feature"},
	{"geometry":{"coordinates":[-0.20712,5.586911],"type":"Point"},"properties":{"name":"Alliance Waste","osm_id":"6985982819","tag":{"addr:city":"Accra","addr:community":"Nima","addr:suburb":"Agbajena","amenity":"waste_disposal","fee":"no","waste":"trash"}},"type":"Feature"},
	{"geometry":{"coordinates":[-0.206627,5.586996],"type":"Point"},"properties":{"osm_id":"6985982826","tag":{"addr:city":"Accra","addr:community":"Nima","addr:street":"Odoitso street","addr:suburb":"Agbajena","amenity":"waste_disposal","waste":"trash"}},"type":"Feature"},
	{"geometry":{"coordinates":[-0.20682,5.586879],"type":"Point"},"properties":{"osm_id":"6985982864","tag":{"addr:city":"Accra","addr:community":"Nima","addr:street":"Odoitso street","addr:suburb":"Agbajena","amenity":"waste_basket","waste":"trash"}},"type":"Feature"},
	{"geometry":{"coordinates":[-0.205919,5.587936],"type":"Point"},"properties":{"osm_id":"6987742136","tag":{"access":"permissive","addr:city":"Accra","addr:community":"Nima","addr:street":"Obaakrowa Close","addr:suburb":"Agbajena","amenity":"waste_basket","building:material":"cement_block;metal;wood","fee":"no","waste":"trash"}},"type":"Feature"},
	{"geometry":{"coordinates":[-0.205064,5.587725],"type":"Point"},"properties":{"osm_id":"6987742137","tag":{"addr:city":"Accra","addr:community":"Nima","addr:street":"Obaakrowa Close","amenity":"waste_basket","building:material":"cement_block;metal;wood","operator":"Alliance Waste","waste":"trash"}},"type":"Feature"},
	{"geometry":{"coordinates":[-0.205032,5.587755],"type":"Point"},"properties":{"osm_id":"6987742152","tag":{"addr:city":"Accra","addr:community":"Nima","addr:street":"Obaakrowa Close","amenity":"waste_basket","building:material":"cement_block;metal;wood","waste":"trash"}},"type":"Feature"},
	{"geometry":{"coordinates":[-0.207094,5.588292],"type":"Point"},"properties":{"osm_id":"6987742158","tag":{"addr:city":"Accra","addr:community":"Nima","addr:street":"Obaakrowa Close","amenity":"recycling","building:material":"cement_block;metal;wood","recycling:plastic":"yes","recycling_type":"centre"}},"type":"Feature"},
	{"geometry":{"coordinates":[-0.206865,5.588188],"type":"Point"},"properties":{"osm_id":"6987742160","tag":{"addr:city":"Accra","addr:community":"Nima","addr:street":"Obaakrowa Close","amenity":"waste_disposal","building:material":"cement_block;metal;wood","operator":"Alliance Waste"}},"type":"Feature"},
	{"geometry":{"coordinates":[-0.204408,5.588621],"type":"Point"},"properties":{"osm_id":"6987742165","tag":{"addr:city":"Accra","addr:community":"Nima","amenity":"recycling","building:material":"cement_block;metal;wood","fee":"no","recycling:plastic":"yes","recycling:waste":"yes","recycling_type":"centre","waste":"plastic"}},"type":"Feature"},
	{"geometry":{"coordinates":[-0.200801,5.582949],"type":"Point"},"properties":{"osm_id":"6992328550","tag":{"addr:city":"Accra","addr:community":"Nima","amenity":"waste_disposal","waste":"trash"}},"type":"Feature"},
	{"geometry":{"coordinates":[-0.201885,5.582979],"type":"Point"},"properties":{"osm_id":"6992328557","tag":{"addr:city":"Accra","addr:community":"Nima","addr:street":"Yahaya Seidu Street","amenity":"waste_basket","fee":"no","waste":"trash"}},"type":"Feature"},
	{"geometry":{"coordinates":[-0.20137,5.583099],"type":"Point"},"properties":{"osm_id":"6992328559","tag":{"addr:city":"Accra","addr:community":"Nima","amenity":"waste_disposal","waste":"trash"}},"type":"Feature"},
	{"geometry":{"coordinates":[-0.201522,5.584031],"type":"Point"},"properties":{"osm_id":"6992328561","tag":{"addr:city":"Accra","addr:community":"Nima","amenity":"waste_disposal","waste":"trash"}},"type":"Feature"},
	{"geometry":{"coordinates":[-0.202239,5.583611],"type":"Point"},"properties":{"osm_id":"6992328563","tag":{"addr:city":"Accra","addr:community":"Nima","amenity":"waste_disposal","waste":"trash"}},"type":"Feature"},
	{"geometry":{"coordinates":[-0.201942,5.583079],"type":"Point"},"properties":{"osm_id":"6992328566","tag":{"addr:city":"Accra","addr:community":"Nima","amenity":"waste_basket","fee":"no","waste":"trash"}},"type":"Feature"},
	{"geometry":{"coordinates":[-0.202099,5.584668],"type":"Point"},"properties":{"osm_id":"6992328578","tag":{"addr:city":"Accra","addr:community":"Nima","amenity":"waste_disposal","waste":"trash"}},"type":"Feature"},
	{"geometry":{"coordinates":[-0.202166,5.584475],"type":"Point"},"properties":{"osm_id":"6992328690","tag":{"addr:city":"Accra","addr:community":"Nima","amenity":"waste_disposal","waste":"trash"}},"type":"Feature"},
	{"geometry":{"coordinates":[-0.201745,5.584092],"type":"Point"},"properties":{"osm_id":"6992328691","tag":{"addr:city":"Accra","addr:community":"Nima","amenity":"waste_disposal","waste":"trash"}},"type":"Feature"},
	{"geometry":{"coordinates":[-0.202035,5.583643],"type":"Point"},"properties":{"osm_id":"6992328695","tag":{"addr:city":"Accra","addr:community":"Nima","amenity":"waste_disposal","waste":"trash"}},"type":"Feature"},
	{"geometry":{"coordinates":[-0.201842,5.583643],"type":"Point"},"properties":{"osm_id":"6992328701","tag":{"addr:city":"Accra","addr:community":"Nima","amenity":"waste_disposal","waste":"trash"}},"type":"Feature"},
	{"geometry":{"coordinates":[-0.202196,5.583067],"type":"Point"},"properties":{"osm_id":"6992328726","tag":{"addr:city":"Accra","addr:community":"Nima","amenity":"waste_disposal","waste":"trash"}},"type":"Feature"},
	{"geometry":{"coordinates":[-0.202257,5.583863],"type":"Point"},"properties":{"osm_id":"6992328728","tag":{"addr:city":"Accra","addr:community":"Nima","amenity":"waste_basket","fee":"no","waste":"trash"}},"type":"Feature"},
	{"geometry":{"coordinates":[-0.202118,5.584139],"type":"Point"},"properties":{"osm_id":"6992328730","tag":{"addr:city":"Accra","addr:community":"Nima","amenity":"waste_basket","fee":"no","waste":"trash"}},"type":"Feature"},
	{"geometry":{"coordinates":[-0.201649,5.583836],"type":"Point"},"properties":{"osm_id":"6992328736","tag":{"addr:city":"Accra","addr:community":"Nima","amenity":"waste_disposal","waste":"trash"}},"type":"Feature"},
	{"geometry":{"coordinates":[-0.202569,5.5831],"type":"Point"},"properties":{"osm_id":"6992328746","tag":{"addr:city":"Accra","addr:community":"Nima","addr:street":"Yahaya Seidu Street","amenity":"waste_basket","fee":"no","waste":"trash"}},"type":"Feature"},
	{"geometry":{"coordinates":[-0.20157,5.583364],"type":"Point"},"properties":{"osm_id":"6992328751","tag":{"addr:city":"Accra","addr:community":"Nima","amenity":"waste_basket","fee":"no","waste":"trash"}},"type":"Feature"},
	{"geometry":{"coordinates":[-0.201756,5.584063],"type":"Point"},"properties":{"osm_id":"6992328757","tag":{"addr:city":"Accra","addr:community":"Nima","amenity":"waste_basket","fee":"no","waste":"trash"}},"type":"Feature"},
	{"geometry":{"coordinates":[-0.202826,5.583477],"type":"Point"},"properties":{"osm_id":"6992328761","tag":{"addr:city":"Accra","addr:community":"Nima","amenity":"waste_disposal","waste":"trash"}},"type":"Feature"},
	{"geometry":{"coordinates":[-0.202701,5.583706],"type":"Point"},"properties":{"osm_id":"6992328762","tag":{"addr:city":"Accra","addr:community":"Nima","addr:street":"Edward Akufo Addo Street","amenity":"waste_basket","fee":"no","waste":"trash"}},"type":"Feature"},
	{"geometry":{"coordinates":[-0.201992,5.58359],"type":"Point"},"properties":{"osm_id":"6992328767","tag":{"addr:city":"Accra","addr:community":"Nima","amenity":"waste_disposal","waste":"trash"}},"type":"Feature"},
	{"geometry":{"coordinates":[-0.205647,5.585827],"type":"Point"},"properties":{"osm_id":"6992679661","tag":{"addr:city":"Accra","addr:community":"Nima","addr:suburb":"Chicago","amenity":"waste_basket","waste":"trash"}},"type":"Feature"},
	{"geometry":{"coordinates":[-0.20565,5.585362],"type":"Point"},"properties":{"osm_id":"6992679667","tag":{"addr:city":"Accra","addr:community":"Nima","amenity":"waste_disposal","fee":"no","waste":"trash"}},"type":"Feature"},
	{"geometry":{"coordinates":[-0.206219,5.585533],"type":"Point"},"properties":{"osm_id":"6992679669","tag":{"addr:city":"Accra","addr:community":"Nima","amenity":"waste_basket","fee":"no","waste":"trash"}},"type":"Feature"},
	{"geometry":{"coordinates":[-0.205781,5.58585],"type":"Point"},"properties":{"osm_id":"6992679672","tag":{"addr:city":"Accra","addr:community":"Nima","addr:suburb":"Chicago","amenity":"waste_basket","waste":"trash"}},"type":"Feature"},
	{"geometry":{"coordinates":[-0.205477,5.585864],"type":"Point"},"properties":{"osm_id":"6992679675","tag":{"addr:city":"Accra","addr:community":"Nima","addr:suburb":"Chicago","amenity":"waste_basket","waste":"trash"}},"type":"Feature"},
	{"geometry":{"coordinates":[-0.205394,5.58576],"type":"Point"},"properties":{"osm_id":"6992704988","tag":{"addr:city":"Accra","addr:community":"Nima","addr:suburb":"Chicago","amenity":"waste_basket","waste":"trash"}},"type":"Feature"},
	{"geometry":{"coordinates":[-0.205891,5.585947],"type":"Point"},"properties":{"osm_id":"6992704990","tag":{"addr:city":"Accra","addr:community":"Nima","addr:suburb":"Chicago","amenity":"waste_basket","fee":"no","waste":"trash"}},"type":"Feature"},
	{"geometry":{"coordinates":[-0.205321,5.586307],"type":"Point"},"properties":{"osm_id":"6992705000","tag":{"addr:city":"Accra","addr:community":"Nima","addr:street":"Odoitso Street","amenity":"waste_disposal","fee":"no","waste":"trash"}},"type":"Feature"},
	{"geometry":{"coordinates":[-0.204942,5.585256],"type":"Point"},"properties":{"osm_id":"6992705002","tag":{"addr:city":"Accra","addr:community":"Nima","amenity":"waste_basket","waste":"trash"}},"type":"Feature"},
	{"geometry":{"coordinates":[-0.206028,5.58598],"type":"Point"},"properties":{"osm_id":"6992705004","tag":{"addr:city":"Accra","addr:community":"Nima","addr:suburb":"Chicago","amenity":"waste_basket","waste":"trash"}},"type":"Feature"},
	{"geometry":{"coordinates":[-0.204964,5.585661],"type":"Point"},"properties":{"osm_id":"6992705006","tag":{"addr:city":"Accra","addr:community":"Nima","addr:suburb":"Chicago","amenity":"waste_basket","waste":"trash"}},"type":"Feature"},
	{"geometry":{"coordinates":[-0.205339,5.58575],"type":"Point"},"properties":{"osm_id":"6992705007","tag":{"addr:city":"Accra","addr:community":"Nima","addr:suburb":"Chicago","amenity":"waste_basket","waste":"trash"}},"type":"Feature"},
	{"geometry":{"coordinates":[-0.205114,5.585875],"type":"Point"},"properties":{"osm_id":"6992705008","tag":{"addr:city":"Accra","addr:community":"Nima","addr:street":"Ajakroba Close","addr:suburb":"Chicago","amenity":"waste_basket","waste":"trash"}},"type":"Feature"},
	{"geometry":{"coordinates":[-0.204724,5.585801],"type":"Point"},"properties":{"osm_id":"6992705017","tag":{"addr:city":"Accra","addr:community":"Nima","addr:street":"Ajakroba Close","addr:suburb":"Chicago","amenity":"waste_disposal","waste":"trash"}},"type":"Feature"},
	{"geometry":{"coordinates":[-0.205897,5.585352],"type":"Point"},"properties":{"osm_id":"6992705025","tag":{"addr:city":"Accra","addr:community":"Nima","amenity":"waste_basket","fee":"no","waste":"trash"}},"type":"Feature"},
	{"geometry":{"coordinates":[-0.204749,5.585234],"type":"Point"},"properties":{"osm_id":"6992705030","tag":{"addr:city":"Accra","addr:community":"Nima","amenity":"waste_disposal","fee":"no","waste":"plastic"}},"type":"Feature"},
	{"geometry":{"coordinates":[-0.205972,5.585928],"type":"Point"},"properties":{"osm_id":"6992705031","tag":{"addr:city":"Accra","addr:community":"Nima","amenity":"waste_basket","fee":"no","waste":"trash"}},"type":"Feature"},
	{"geometry":{"coordinates":[-0.20505,5.585693],"type":"Point"},"properties":{"osm_id":"6992705034","tag":{"addr:city":"Accra","addr:community":"Nima","addr:street":"Ajakroba Close","addr:suburb":"Chicago","amenity":"waste_basket","waste":"trash"}},"type":"Feature"},
	{"geometry":{"coordinates":[-0.20491,5.586163],"type":"Point"},"properties":{"osm_id":"6992705036","tag":{"addr:city":"Accra","addr:community":"Nima","addr:street":"Odoitso Street","amenity":"waste_basket","fee":"no","waste":"trash"}},"type":"Feature"},
	{"geometry":{"coordinates":[-0.197239,5.580814],"type":"Point"},"properties":{"osm_id":"6993719819","tag":{"addr:community":"Nima","amenity":"waste_basket","waste":"trash"}},"type":"Feature"},
	{"geometry":{"coordinates":[-0.196373,5.580832],"type":"Point"},"properties":{"osm_id":"6993719821","tag":{"addr:city":"Accra","addr:community":"Nima","amenity":"waste_basket","waste":"trash"}},"type":"Feature"},
	{"geometry":{"coordinates":[-0.197603,5.580162],"type":"Point"},"properties":{"osm_id":"6993719822","tag":{"addr:city":"Accra","addr:community":"Nima","addr:street":"Mallam Futa Street","amenity":"waste_basket","waste":"trash"}},"type":"Feature"},
	{"geometry":{"coordinates":[-0.197278,5.580722],"type":"Point"},"properties":{"osm_id":"6993719823","tag":{"addr:city":"Accra","addr:community":"Nima","amenity":"waste_basket","waste":"trash"}},"type":"Feature"},
	{"geometry":{"coordinates":[-0.196874,5.58092],"type":"Point"},"properties":{"osm_id":"6993719824","tag":{"addr:city":"Accra","addr:community":"Nima","amenity":"waste_basket","waste":"trash"}},"type":"Feature"},
	{"geometry":{"coordinates":[-0.20579,5.582971],"type":"Point"},"properties":{"osm_id":"7002879530","tag":{"addr:city":"Accra","addr:community":"Nima","addr:street":"Chief Chamba Street","addr:suburb":"New Town","amenity":"waste_disposal","waste":"trash"}},"type":"Feature"},
	{"geometry":{"coordinates":[-0.206841,5.583035],"type":"Point"},"properties":{"osm_id":"7002879548","tag":{"addr:city":"Accra","addr:community":"Nima","addr:suburb":"New Town","amenity":"waste_disposal","waste":"trash"}},"type":"Feature"},
	{"geometry":{"coordinates":[-0.205692,5.58291],"type":"Point"},"properties":{"osm_id":"7002879563","tag":{"addr:city":"Accra","addr:community":"Nima","addr:street":"Chief Chamba Street","addr:suburb":"New Town","amenity":"waste_disposal","waste":"trash"}},"type":"Feature"},
	{"geometry":{"coordinates":[-0.254874,5.576386],"type":"Point"},"properties":{"osm_id":"7006751354","tag":{"amenity":"waste_basket"}},"type":"Feature"},
	{"geometry":{"coordinates":[-0.200532,5.582253],"type":"Point"},"properties":{"osm_id":"7007698644","tag":{"addr:city":"Accra","addr:community":"Nima","addr:suburb":"Nima Post Office","amenity":"waste_disposal","waste":"trash"}},"type":"Feature"},
	{"geometry":{"coordinates":[-0.199589,5.581807],"type":"Point"},"properties":{"osm_id":"7007698650","tag":{"addr:city":"Accra","addr:community":"Nima","addr:street":"Alhaji Mayaki Street","addr:suburb":"Nima Post Office","amenity":"waste_disposal","waste":"trash"}},"type":"Feature"},
	{"geometry":{"coordinates":[-0.199997,5.582109],"type":"Point"},"properties":{"osm_id":"7007698652","tag":{"addr:city":"Accra","addr:community":"Nima","addr:suburb":"Nima Post Office","amenity":"waste_disposal","waste":"trash"}},"type":"Feature"},
	{"geometry":{"coordinates":[-0.20005,5.581913],"type":"Point"},"properties":{"osm_id":"7007698654","tag":{"addr:city":"Accra","addr:community":"Nima","addr:street":"Alhaji Mayaki Street","addr:suburb":"Nima Post Office","amenity":"waste_disposal","waste":"trash"}},"type":"Feature"},
	{"geometry":{"coordinates":[-0.200317,5.581892],"type":"Point"},"properties":{"osm_id":"7007698657","tag":{"addr:city":"Accra","addr:community":"Nima","addr:street":"Alhaji Mayaki Street","addr:suburb":"Nima Post Office","amenity":"waste_basket","fee":"no","waste":"trash"}},"type":"Feature"},
	{"geometry":{"coordinates":[-0.199545,5.581929],"type":"Point"},"properties":{"osm_id":"7007698666","tag":{"addr:city":"Accra","addr:community":"Nima","addr:suburb":"Nima Post Office","amenity":"waste_disposal","waste":"trash"}},"type":"Feature"},
	{"geometry":{"coordinates":[-0.200071,5.582127],"type":"Point"},"properties":{"osm_id":"7007698667","tag":{"addr:city":"Accra","addr:community":"Nima","addr:suburb":"Nima Post Office","amenity":"waste_disposal","waste":"trash"}},"type":"Feature"},
	{"geometry":{"coordinates":[-0.199524,5.582137],"type":"Point"},"properties":{"osm_id":"7007698668","tag":{"access":"customers","addr:city":"Accra","addr:community":"Nima","addr:suburb":"Nima Post Office","amenity":"waste_basket","fee":"no","waste":"trash"}},"type":"Feature"},
	{"geometry":{"coordinates":[-0.200006,5.582075],"type":"Point"},"properties":{"osm_id":"7007698676","tag":{"addr:city":"Accra","addr:community":"Nima","addr:suburb":"Nima Post Office","amenity":"waste_basket","fee":"no","waste":"trash"}},"type":"Feature"},
	{"geometry":{"coordinates":[-0.199802,5.581768],"type":"Point"},"properties":{"osm_id":"7007698679","tag":{"addr:city":"Accra","addr:community":"Nima","addr:street":"Alhaji Mayaki Street","addr:suburb":"Nima Post Office","amenity":"waste_disposal","waste":"trash"}},"type":"Feature"},
	{"geometry":{"coordinates":[-0.200404,5.582212],"type":"Point"},"properties":{"osm_id":"7007698680","tag":{"addr:city":"Accra","addr:community":"Nima","addr:suburb":"Nima Post Office","amenity":"waste_basket","waste":"trash"}},"type":"Feature"},
	{"geometry":{"coordinates":[-0.201294,5.585256],"type":"Point"},"properties":{"osm_id":"7012078809","tag":{"addr:city":"Accra","addr:community":"Nima","addr:suburb":"Methodist Down","amenity":"waste_disposal","waste":"trash"}},"type":"Feature"},
	{"geometry":{"coordinates":[-0.201006,5.584907],"type":"Point"},"properties":{"osm_id":"7012078811","tag":{"addr:city":"Accra","addr:community":"Nima","addr:suburb":"German Base","amenity":"waste_basket","fee":"no","waste":"trash"}},"type":"Feature"},
	{"geometry":{"coordinates":[-0.201316,5.585181],"type":"Point"},"properties":{"osm_id":"7012078812","tag":{"addr:city":"Accra","addr:community":"Nima","addr:suburb":"Methodist Down","amenity":"waste_disposal","waste":"trash"}},"type":"Feature"},
	{"geometry":{"coordinates":[-0.201006,5.585094],"type":"Point"},"properties":{"osm_id":"7012078817","tag":{"addr:city":"Accra","addr:community":"Nima","addr:suburb":"German Base","amenity":"waste_basket","fee":"no"}},"type":"Feature"},
	{"geometry":{"coordinates":[-0.201164,5.584979],"type":"Point"},"properties":{"osm_id":"7012078831","tag":{"addr:city":"Accra","addr:community":"Nima","addr:suburb":"German Base","amenity":"waste_basket","fee":"no","waste":"trash"}},"type":"Feature"},
	{"geometry":{"coordinates":[-0.201016,5.585168],"type":"Point"},"properties":{"osm_id":"7012078833","tag":{"addr:city":"Accra","addr:community":"Nima","addr:suburb":"Methodist Down","amenity":"waste_disposal","waste":"organic"}},"type":"Feature"},
	{"geometry":{"coordinates":[-0.200565,5.584722],"type":"Point"},"properties":{"osm_id":"7012078836","tag":{"addr:city":"Accra","addr:community":"Nima","addr:suburb":"German Base","amenity":"waste_disposal","waste":"trash"}},"type":"Feature"},
	{"geometry":{"coordinates":[-0.200179,5.585256],"type":"Point"},"properties":{"osm_id":"7012078837","tag":{"addr:city":"Accra","addr:community":"Nima","addr:street":"Mallam Kamka Street","addr:suburb":"Mallam Sani","amenity":"waste_disposal","waste":"trash"}},"type":"Feature"},
	{"geometry":{"coordinates":[-0.201227,5.585219],"type":"Point"},"properties":{"osm_id":"7012078839","tag":{"addr:city":"Accra","addr:community":"Nima","addr:suburb":"Methodist Down","amenity":"waste_disposal","waste":"trash"}},"type":"Feature"},
	{"geometry":{"coordinates":[-0.200488,5.584178],"type":"Point"},"properties":{"osm_id":"7012078844","tag":{"addr:city":"Accra","addr:community":"Nima","addr:street":"Mallam Murtala Street","addr:suburb":"German Base","amenity":"waste_basket","fee":"no","waste":"trash"}},"type":"Feature"},
	{"geometry":{"coordinates":[-0.200254,5.585128],"type":"Point"},"properties":{"osm_id":"7012078845","tag":{"addr:city":"Accra","addr:community":"Nima","addr:street":"Mallam Kamka Street","addr:suburb":"Mallam Sani","amenity":"waste_disposal","waste":"trash"}},"type":"Feature"},
	{"geometry":{"coordinates":[-0.200468,5.58532],"type":"Point"},"properties":{"osm_id":"7012078848","tag":{"addr:city":"Accra","addr:community":"Nima","addr:street":"Mallam Kamka Street","addr:suburb":"Mallam Sani","amenity":"waste_disposal","waste":"trash"}},"type":"Feature"},
	{"geometry":{"coordinates":[-0.200026,5.585156],"type":"Point"},"properties":{"osm_id":"7012078849","tag":{"addr:city":"Accra","addr:community":"Nima","addr:street":"Mallam Kamka Street","addr:suburb":"Mallam Sani","amenity":"waste_basket","fee":"no","waste":"plastic"}},"type":"Feature"},
	{"geometry":{"coordinates":[-0.201135,5.584533],"type":"Point"},"properties":{"osm_id":"7012078853","tag":{"addr:city":"Accra","addr:community":"Nima","addr:suburb":"German Base","amenity":"waste_disposal","waste":"trash"}},"type":"Feature"},
	{"geometry":{"coordinates":[-0.200651,5.584754],"type":"Point"},"properties":{"osm_id":"7012078855","tag":{"addr:city":"Accra","addr:community":"Nima","addr:suburb":"German Base","amenity":"waste_disposal","waste":"trash"}},"type":"Feature"},
	{"geometry":{"coordinates":[-0.200345,5.584793],"type":"Point"},"properties":{"osm_id":"7012078866","tag":{"addr:city":"Accra","addr:community":"Nima","addr:suburb":"Mallam Sani","amenity":"waste_disposal","fee":"no","waste":"trash"}},"type":"Feature"},
	{"geometry":{"coordinates":[-0.201316,5.584612],"type":"Point"},"properties":{"osm_id":"7012078868","tag":{"addr:city":"Accra","addr:community":"Nima","addr:suburb":"German Base","amenity":"waste_basket","waste":"trash"}},"type":"Feature"},
	{"geometry":{"coordinates":[-0.20049,5.585245],"type":"Point"},"properties":{"osm_id":"7012078871","tag":{"addr:city":"Accra","addr:community":"Nima","addr:street":"Mallam Kamka Street","addr:suburb":"Mallam Sani","amenity":"waste_disposal","waste":"trash"}},"type":"Feature"},
	{"geometry":{"coordinates":[-0.200115,5.584836],"type":"Point"},"properties":{"osm_id":"7012078872","tag":{"addr:city":"Accra","addr:community":"Nima","addr:suburb":"Mallam Sani","amenity":"waste_basket","fee":"no","waste":"trash"}},"type":"Feature"},
	{"geometry":{"coordinates":[-0.200143,5.584807],"type":"Point"},"properties":{"osm_id":"7012078881","tag":{"addr:city":"Accra","addr:community":"Nima","addr:suburb":"Mallam Sani","amenity":"waste_basket","fee":"no","waste":"trash"}},"type":"Feature"},
	{"geometry":{"coordinates":[-0.200431,5.584507],"type":"Point"},"properties":{"osm_id":"7012078885","tag":{"addr:city":"Accra","addr:community":"Nima","addr:suburb":"German Base","amenity":"waste_basket","fee":"no","waste":"trash"}},"type":"Feature"},
	{"geometry":{"coordinates":[-0.200976,5.585003],"type":"Point"},"properties":{"osm_id":"7012078886","tag":{"addr:city":"Accra","addr:community":"Nima","addr:suburb":"German Base","amenity":"waste_basket","fee":"no","waste":"trash"}},"type":"Feature"},
	{"geometry":{"coordinates":[-0.200057,5.585065],"type":"Point"},"properties":{"osm_id":"7012078893","tag":{"addr:city":"Accra","addr:community":"Nima","addr:street":"Mallam Kamka Street","addr:suburb":"Mallam Sani","amenity":"waste_basket","fee":"no","waste":"trash"}},"type":"Feature"},
	{"geometry":{"coordinates":[-0.201509,5.58564],"type":"Point"},"properties":{"osm_id":"7012078896","tag":{"addr:city":"Accra","addr:community":"Nima","addr:street":"Edward Akufo Addo Street","addr:suburb":"Methodist Down","amenity":"waste_disposal","waste":"trash"}},"type":"Feature"},
	{"geometry":{"coordinates":[-0.201445,5.585491],"type":"Point"},"properties":{"osm_id":"7012078897","tag":{"addr:city":"Accra","addr:community":"Nima","addr:street":"Edward Akufo Addo Street","addr:suburb":"Methodist Down","amenity":"waste_disposal","waste":"trash"}},"type":"Feature"},
	{"geometry":{"coordinates":[-0.206959,5.582501],"type":"Point"},"properties":{"osm_id":"7015145717","tag":{"addr:city":"Accra","addr:community":"Nima","amenity":"waste_disposal","waste":"trash"}},"type":"Feature"},
	{"geometry":{"coordinates":[-0.205543,5.581946],"type":"Point"},"properties":{"osm_id":"7015145724","tag":{"addr:city":"Accra","addr:community":"Nima","amenity":"waste_disposal","waste":"trash"}},"type":"Feature"},
	{"geometry":{"coordinates":[-0.205447,5.581924],"type":"Point"},"properties":{"osm_id":"7015145726","tag":{"addr:city":"Accra","addr:community":"Nima","amenity":"waste_disposal","waste":"trash"}},"type":"Feature"},
	{"geometry":{"coordinates":[-0.206391,5.582607],"type":"Point"},"properties":{"osm_id":"7015145727","tag":{"addr:city":"Accra","addr:community":"Nima","amenity":"waste_disposal","waste":"trash"}},"type":"Feature"},
	{"geometry":{"coordinates":[-0.204577,5.580771],"type":"Point"},"properties":{"osm_id":"7015145740","tag":{"addr:city":"Accra","addr:community":"Nima","amenity":"waste_disposal","waste":"trash"}},"type":"Feature"},
	{"geometry":{"coordinates":[-0.206873,5.582126],"type":"Point"},"properties":{"osm_id":"7015145745","tag":{"addr:city":"Accra","addr:community":"Nima","amenity":"waste_disposal","waste":"trash"}},"type":"Feature"},
	{"geometry":{"coordinates":[-0.206037,5.58218],"type":"Point"},"properties":{"osm_id":"7015145751","tag":{"addr:city":"Accra","addr:community":"Nima","amenity":"waste_disposal","waste":"trash"}},"type":"Feature"},
	{"geometry":{"coordinates":[-0.206627,5.581871],"type":"Point"},"properties":{"osm_id":"7015145753","tag":{"addr:city":"Accra","addr:community":"Nima","amenity":"waste_disposal","waste":"trash"}},"type":"Feature"},
	{"geometry":{"coordinates":[-0.205715,5.581412],"type":"Point"},"properties":{"osm_id":"7015145758","tag":{"addr:city":"Accra","addr:community":"Nima","amenity":"waste_disposal","waste":"trash"}},"type":"Feature"},
	{"geometry":{"coordinates":[-0.207828,5.583334],"type":"Point"},"properties":{"osm_id":"7015538748","tag":{"access":"yes","addr:city":"Accra","addr:community":"Nima","addr:street":"Odonko Street","amenity":"waste_disposal","waste":"trash"}},"type":"Feature"},
	{"geometry":{"coordinates":[-0.205719,5.581289],"type":"Point"},"properties":{"osm_id":"7016366334","tag":{"addr:city":"Accra","addr:community":"Nima","amenity":"waste_disposal","waste":"trash"}},"type":"Feature"},
	{"geometry":{"coordinates":[-0.205902,5.581123],"type":"Point"},"properties":{"osm_id":"7016366335","tag":{"addr:city":"Accra","addr:community":"Nima","addr:suburb":"Angola","amenity":"waste_basket","fee":"no","waste":"trash"}},"type":"Feature"},
	{"geometry":{"coordinates":[-0.206476,5.581369],"type":"Point"},"properties":{"osm_id":"7016366343","tag":{"addr:city":"Accra","addr:community":"Nima","amenity":"waste_disposal","waste":"trash"}},"type":"Feature"},
	{"geometry":{"coordinates":[-0.204894,5.580831],"type":"Point"},"properties":{"osm_id":"7016366345","tag":{"addr:city":"Accra","addr:community":"Nima","addr:suburb":"Angola","amenity":"waste_basket","fee":"no","waste":"trash"}},"type":"Feature"},
	{"geometry":{"coordinates":[-0.206463,5.5813],"type":"Point"},"properties":{"osm_id":"7016366348","tag":{"addr:city":"Accra","addr:community":"Nima","amenity":"waste_disposal","waste":"trash"}},"type":"Feature"},
	{"geometry":{"coordinates":[-0.205371,5.581091],"type":"Point"},"properties":{"osm_id":"7016366354","tag":{"addr:city":"Accra","addr:community":"Nima","amenity":"waste_disposal","waste":"trash"}},"type":"Feature"},
	{"geometry":{"coordinates":[-0.206807,5.581186],"type":"Point"},"properties":{"osm_id":"7016366355","tag":{"addr:city":"Accra","addr:community":"Nima","amenity":"waste_basket","fee":"no","waste":"trash"}},"type":"Feature"},
	{"geometry":{"coordinates":[-0.205853,5.581348],"type":"Point"},"properties":{"osm_id":"7016366361","tag":{"addr:city":"Accra","addr:community":"Nima","amenity":"waste_disposal","waste":"trash"}},"type":"Feature"},
	{"geometry":{"coordinates":[-0.206667,5.58111],"type":"Point"},"properties":{"osm_id":"7016366377","tag":{"addr:city":"Accra","addr:community":"Nima","amenity":"waste_basket","fee":"no","waste":"trash"}},"type":"Feature"},
	{"geometry":{"coordinates":[-0.206756,5.581148],"type":"Point"},"properties":{"osm_id":"7016366379","tag":{"addr:city":"Accra","addr:community":"Nima","amenity":"waste_basket","fee":"no","waste":"trash"}},"type":"Feature"},
	{"geometry":{"coordinates":[-0.206605,5.581094],"type":"Point"},"properties":{"osm_id":"7016371086","tag":{"addr:city":"Accra","addr:community":"Nima","amenity":"waste_disposal","waste":"trash"}},"type":"Feature"},
	{"geometry":{"coordinates":[-0.20534,5.580424],"type":"Point"},"properties":{"osm_id":"7016371088","tag":{"addr:city":"Accra","addr:community":"Nima","amenity":"waste_basket","fee":"no","waste":"trash"}},"type":"Feature"},
	{"geometry":{"coordinates":[-0.204702,5.580729],"type":"Point"},"properties":{"osm_id":"7016371092","tag":{"addr:city":"Accra","addr:community":"Nima","addr:suburb":"Angola","amenity":"waste_basket","fee":"no","waste":"trash"}},"type":"Feature"},
	{"geometry":{"coordinates":[-0.2052,5.580996],"type":"Point"},"properties":{"osm_id":"7016371093","tag":{"addr:city":"Accra","addr:community":"Nima","addr:suburb":"Angola","amenity":"waste_basket","fee":"no","waste":"trash"}},"type":"Feature"},
	{"geometry":{"coordinates":[-0.206911,5.581271],"type":"Point"},"properties":{"osm_id":"7016371097","tag":{"addr:city":"Accra","addr:community":"Nima","amenity":"waste_disposal","waste":"trash"}},"type":"Feature"},
	{"geometry":{"coordinates":[-0.20594,5.581402],"type":"Point"},"properties":{"osm_id":"7016371102","tag":{"addr:city":"Accra","addr:community":"Nima","addr:suburb":"Angola","amenity":"waste_basket","fee":"no","waste":"trash"}},"type":"Feature"},
	{"geometry":{"coordinates":[-0.20682,5.581198],"type":"Point"},"properties":{"osm_id":"7016371103","tag":{"addr:city":"Accra","addr:community":"Nima","amenity":"waste_disposal","waste":"trash"}},"type":"Feature"},
	{"geometry":{"coordinates":[-0.203902,5.580493],"type":"Point"},"properties":{"osm_id":"7017660087","tag":{"addr:city":"Accra","addr:community":"Nima","addr:street":"Edward Akuffo Addo Street","addr:suburb":"Commandos","amenity":"waste_disposal","waste":"trash"}},"type":"Feature"},
	{"geometry":{"coordinates":[-0.203931,5.581275],"type":"Point"},"properties":{"osm_id":"7017660089","tag":{"addr:city":"Accra","addr:community":"Nima","addr:street":"Edward Akuffo Addo Street","addr:suburb":"Commandos","amenity":"waste_disposal","waste":"plastic"}},"type":"Feature"},
	{"geometry":{"coordinates":[-0.203912,5.580728],"type":"Point"},"properties":{"osm_id":"7017660093","tag":{"addr:city":"Accra","addr:community":"Nima","addr:suburb":"Commandos","amenity":"waste_disposal","waste":"trash"}},"type":"Feature"},
	{"geometry":{"coordinates":[-0.2039,5.580034],"type":"Point"},"properties":{"osm_id":"7017660094","tag":{"addr:city":"Accra","addr:community":"Nima","addr:suburb":"Commandos","amenity":"waste_disposal","waste":"trash"}},"type":"Feature"},
	{"geometry":{"coordinates":[-0.204243,5.58097],"type":"Point"},"properties":{"osm_id":"7017660095","tag":{"addr:city":"Accra","addr:community":"Nima","addr:suburb":"Commandos","amenity":"waste_basket","fee":"no","waste":"trash"}},"type":"Feature"},
	{"geometry":{"coordinates":[-0.204502,5.580525],"type":"Point"},"properties":{"osm_id":"7017660098","tag":{"addr:city":"Accra","addr:community":"Nima","addr:suburb":"Commandos","amenity":"waste_disposal","waste":"trash"}},"type":"Feature"},
	{"geometry":{"coordinates":[-0.203966,5.580461],"type":"Point"},"properties":{"osm_id":"7017660101","tag":{"addr:city":"Accra","addr:community":"Nima","addr:suburb":"Commandos","amenity":"waste_disposal","waste":"trash"}},"type":"Feature"},
	{"geometry":{"coordinates":[-0.20423,5.58064],"type":"Point"},"properties":{"osm_id":"7017660102","tag":{"addr:city":"Accra","addr:community":"Nima","addr:suburb":"Commandos","amenity":"waste_basket","fee":"no","waste":"trash"}},"type":"Feature"},
	{"geometry":{"coordinates":[-0.203882,5.580108],"type":"Point"},"properties":{"osm_id":"7017660105","tag":{"addr:city":"Accra","addr:community":"Nima","addr:suburb":"Commandos","amenity":"waste_disposal","waste":"trash"}},"type":"Feature"},
	{"geometry":{"coordinates":[-0.204116,5.58097],"type":"Point"},"properties":{"osm_id":"7017660107","tag":{"addr:city":"Accra","addr:community":"Nima","addr:suburb":"Commandos","amenity":"waste_basket","fee":"no","waste":"trash"}},"type":"Feature"},
	{"geometry":{"coordinates":[-0.204243,5.580818],"type":"Point"},"properties":{"osm_id":"7017660109","tag":{"addr:city":"Accra","addr:community":"Nima","addr:suburb":"Commandos","amenity":"waste_basket","fee":"no","waste":"trash"}},"type":"Feature"},
	{"geometry":{"coordinates":[-0.203912,5.580782],"type":"Point"},"properties":{"osm_id":"7017660114","tag":{"addr:city":"Accra","addr:community":"Nima","addr:suburb":"Commandos","amenity":"waste_disposal","waste":"trash"}},"type":"Feature"},
	{"geometry":{"coordinates":[-0.204481,5.581871],"type":"Point"},"properties":{"osm_id":"7017660117","tag":{"addr:city":"Accra","addr:community":"Nima","addr:suburb":"Commandos","amenity":"waste_disposal","waste":"trash"}},"type":"Feature"},
	{"geometry":{"coordinates":[-0.204196,5.580538],"type":"Point"},"properties":{"osm_id":"7017660118","tag":{"addr:city":"Accra","addr:community":"Nima","addr:suburb":"Commandos","amenity":"waste_disposal"}},"type":"Feature"},
	{"geometry":{"coordinates":[-0.204201,5.580228],"type":"Point"},"properties":{"osm_id":"7017660119","tag":{"addr:city":"Accra","addr:community":"Nima","addr:suburb":"Commandos","amenity":"waste_disposal","waste":"trash"}},"type":"Feature"},
	{"geometry":{"coordinates":[-0.203944,5.580461],"type":"Point"},"properties":{"osm_id":"7017660121","tag":{"addr:city":"Accra","addr:community":"Nima","addr:suburb":"Commandos","amenity":"waste_disposal","waste":"trash"}},"type":"Feature"},
	{"geometry":{"coordinates":[-0.204218,5.580526],"type":"Point"},"properties":{"osm_id":"7017660125","tag":{"addr:city":"Accra","addr:community":"Nima","addr:suburb":"Commandos","amenity":"waste_basket","fee":"no","waste":"trash"}},"type":"Feature"},
	{"geometry":{"coordinates":[-0.203934,5.581305],"type":"Point"},"properties":{"osm_id":"7017660127","tag":{"addr:city":"Accra","addr:community":"Nima","addr:suburb":"Commandos","amenity":"waste_disposal","waste":"trash"}},"type":"Feature"},
	{"geometry":{"coordinates":[-0.204502,5.580621],"type":"Point"},"properties":{"osm_id":"7017660128","tag":{"addr:city":"Accra","addr:community":"Nima","addr:suburb":"Commandos","amenity":"waste_disposal","waste":"trash"}},"type":"Feature"},
	{"geometry":{"coordinates":[-0.20423,5.580437],"type":"Point"},"properties":{"osm_id":"7017660131","tag":{"addr:city":"Accra","addr:community":"Nima","addr:suburb":"Commandos","amenity":"waste_basket","fee":"no","waste":"trash"}},"type":"Feature"},
	{"geometry":{"coordinates":[-0.200132,5.585802],"type":"Point"},"properties":{"osm_id":"7017759802","tag":{"addr:city":"Accra","addr:community":"Nima","amenity":"waste_disposal","waste":"trash"}},"type":"Feature"},
	{"geometry":{"coordinates":[-0.201305,5.585822],"type":"Point"},"properties":{"osm_id":"7017759804","tag":{"addr:city":"Accra","addr:community":"Nima","amenity":"waste_disposal","waste":"trash"}},"type":"Feature"},
	{"geometry":{"coordinates":[-0.199578,5.585822],"type":"Point"},"properties":{"osm_id":"7017759813","tag":{"addr:city":"Accra","addr:community":"Nima","amenity":"waste_disposal","waste":"trash"}},"type":"Feature"},
	{"geometry":{"coordinates":[-0.200543,5.58564],"type":"Point"},"properties":{"osm_id":"7017759818","tag":{"addr:city":"Accra","addr:community":"Nima","amenity":"waste_disposal","waste":"trash"}},"type":"Feature"},
	{"geometry":{"coordinates":[-0.200111,5.586713],"type":"Point"},"properties":{"osm_id":"7017759819","tag":{"addr:city":"Accra","addr:community":"Nima","amenity":"waste_basket","fee":"no","waste":"trash"}},"type":"Feature"},
	{"geometry":{"coordinates":[-0.19987,5.585765],"type":"Point"},"properties":{"osm_id":"7017759827","tag":{"addr:city":"Accra","addr:community":"Nima","amenity":"waste_disposal","waste":"trash"}},"type":"Feature"},
	{"geometry":{"coordinates":[-0.201273,5.585918],"type":"Point"},"properties":{"osm_id":"7017759831","tag":{"addr:city":"Accra","addr:community":"Nima","amenity":"waste_basket","fee":"no","waste":"trash"}},"type":"Feature"},
	{"geometry":{"coordinates":[-0.200681,5.586211],"type":"Point"},"properties":{"osm_id":"7017759836","tag":{"access":"permissive","addr:city":"Accra","addr:community":"Nima","amenity":"waste_basket","fee":"no","waste":"trash"}},"type":"Feature"},
	{"geometry":{"coordinates":[-0.200164,5.586626],"type":"Point"},"properties":{"osm_id":"7017759841","tag":{"addr:city":"Accra","addr:community":"Nima","amenity":"waste_disposal","waste":"trash"}},"type":"Feature"},
	{"geometry":{"coordinates":[-0.200962,5.585651],"type":"Point"},"properties":{"osm_id":"7017759847","tag":{"addr:city":"Accra","addr:community":"Nima","amenity":"waste_disposal","waste":"trash"}},"type":"Feature"},
	{"geometry":{"coordinates":[-0.200758,5.586057],"type":"Point"},"properties":{"osm_id":"7017759849","tag":{"addr:city":"Accra","addr:community":"Nima","amenity":"waste_disposal","waste":"trash"}},"type":"Feature"},
	{"geometry":{"coordinates":[-0.200856,5.585731],"type":"Point"},"properties":{"osm_id":"7017759856","tag":{"addr:city":"Accra","addr:community":"Nima","amenity":"waste_disposal","waste":"trash"}},"type":"Feature"},
	{"geometry":{"coordinates":[-0.200406,5.585922],"type":"Point"},"properties":{"osm_id":"7017759859","tag":{"addr:city":"Accra","addr:community":"Nima","amenity":"waste_disposal","waste":"trash"}},"type":"Feature"},
	{"geometry":{"coordinates":[-0.197196,5.589068],"type":"Point"},"properties":{"osm_id":"7017939411","tag":{"addr:city":"Accra","addr:community":"Nima","addr:street":"Hospital Drive","addr:suburb":"Gutter","amenity":"waste_disposal","toilets:disposal":"bucket","waste":"trash"}},"type":"Feature"},
	{"geometry":{"coordinates":[-0.197124,5.588719],"type":"Point"},"properties":{"osm_id":"7017939412","tag":{"addr:city":"Accra","addr:community":"Nima","addr:suburb":"Gutter","amenity":"waste_disposal","toilets:disposal":"bucket","waste":"trash"}},"type":"Feature"},
	{"geometry":{"coordinates":[-0.198414,5.588864],"type":"Point"},"properties":{"osm_id":"7017939413","tag":{"addr:city":"Accra","addr:community":"Nima","addr:suburb":"Gutter","amenity":"waste_basket","waste":"trash"}},"type":"Feature"},
	{"geometry":{"coordinates":[-0.199063,5.588096],"type":"Point"},"properties":{"osm_id":"7017939420","tag":{"addr:city":"Accra","addr:community":"Nima","addr:suburb":"Gutter","amenity":"waste_disposal","waste":"trash"}},"type":"Feature"},
	{"geometry":{"coordinates":[-0.198375,5.588959],"type":"Point"},"properties":{"osm_id":"7017939422","tag":{"addr:city":"Accra","addr:community":"Nima","addr:suburb":"Gutter","amenity":"waste_basket","waste":"trash"}},"type":"Feature"},
	{"geometry":{"coordinates":[-0.198408,5.588502],"type":"Point"},"properties":{"osm_id":"7017939424","tag":{"addr:city":"Accra","addr:community":"Nima","addr:suburb":"Gutter","amenity":"waste_disposal","waste":"trash"}},"type":"Feature"},
	{"geometry":{"coordinates":[-0.199331,5.588267],"type":"Point"},"properties":{"osm_id":"7017939426","tag":{"addr:city":"Accra","addr:community":"Nima","addr:suburb":"Gutter","amenity":"waste_disposal","waste":"trash"}},"type":"Feature"},
	{"geometry":{"coordinates":[-0.199691,5.588005],"type":"Point"},"properties":{"osm_id":"7017939427","tag":{"addr:city":"Accra","addr:community":"Nima","addr:suburb":"Gutter","amenity":"waste_basket","waste":"trash"}},"type":"Feature"},
	{"geometry":{"coordinates":[-0.197818,5.588918],"type":"Point"},"properties":{"osm_id":"7017939428","tag":{"addr:city":"Accra","addr:community":"Nima","addr:suburb":"Gutter","amenity":"waste_disposal","toilets:disposal":"bucket","waste":"trash"}},"type":"Feature"},
	{"geometry":{"coordinates":[-0.20411,5.58214],"type":"Point"},"properties":{"osm_id":"7018073717","tag":{"access":"customers","addr:city":"Accra","addr:community":"Nima","addr:street":"Edward Akufo Addo Street","addr:suburb":"Akotex","amenity":"waste_basket","waste":"trash"}},"type":"Feature"},
	{"geometry":{"coordinates":[-0.204773,5.582389],"type":"Point"},"properties":{"osm_id":"7018073719","tag":{"addr:city":"Accra","addr:community":"Nima","addr:suburb":"Akotex","amenity":"waste_disposal"}},"type":"Feature"},
	{"geometry":{"coordinates":[-0.205404,5.581978],"type":"Point"},"properties":{"osm_id":"7018073726","tag":{"addr:city":"Accra","addr:community":"Nima","amenity":"waste_disposal","waste":"trash"}},"type":"Feature"},
	{"geometry":{"coordinates":[-0.206302,5.585293],"type":"Point"},"properties":{"osm_id":"7018080878","tag":{"addr:city":"Accra","addr:community":"Nima","addr:suburb":"New Town","amenity":"waste_basket","waste":"trash"}},"type":"Feature"},
	{"geometry":{"coordinates":[-0.205843,5.584017],"type":"Point"},"properties":{"osm_id":"7018082795","tag":{"addr:city":"Accra","addr:community":"Nima","addr:suburb":"New Town","amenity":"waste_basket","toilets:disposal":"pitlatrine","toilets:handwashing":"no","waste":"trash"}},"type":"Feature"},
	{"geometry":{"coordinates":[-0.205737,5.583702],"type":"Point"},"properties":{"osm_id":"7018082806","tag":{"addr:city":"Accra","addr:community":"Nima","addr:suburb":"New Town","amenity":"waste_disposal","waste":"plastic"}},"type":"Feature"},
	{"geometry":{"coordinates":[-0.199299,5.587786],"type":"Point"},"properties":{"osm_id":"7018230617","tag":{"addr:city":"Accra","addr:community":"Nima","addr:street":"Edward Akuffo Addo Street","addr:suburb":"Berlin Bridge","amenity":"waste_disposal","waste":"trash"}},"type":"Feature"},
	{"geometry":{"coordinates":[-0.198747,5.587024],"type":"Point"},"properties":{"osm_id":"7018230621","tag":{"addr:city":"Accra","addr:suburb":"Bronx","amenity":"waste_disposal","waste":"trash"}},"type":"Feature"},
	{"geometry":{"coordinates":[-0.198612,5.586249],"type":"Point"},"properties":{"osm_id":"7018230639","tag":{"addr:city":"Accra","addr:community":"Nima","addr:street":"Islamic Research Street","addr:suburb":"Bronx","amenity":"waste_disposal","waste":"trash"}},"type":"Feature"},
	{"geometry":{"coordinates":[-0.199324,5.586654],"type":"Point"},"properties":{"osm_id":"7018230642","tag":{"addr:city":"Accra","addr:community":"Nima","addr:suburb":"Bronx","amenity":"waste_basket","fee":"no","waste":"trash"}},"type":"Feature"},
	{"geometry":{"coordinates":[-0.198489,5.586897],"type":"Point"},"properties":{"osm_id":"7018230643","tag":{"addr:city":"Accra","addr:community":"Nima","addr:street":"Islamic Research Street","addr:suburb":"Bronx","amenity":"waste_basket","fee":"no","waste":"trash"}},"type":"Feature"},
	{"geometry":{"coordinates":[-0.198602,5.587242],"type":"Point"},"properties":{"osm_id":"7018230646","tag":{"addr:city":"Accra","addr:community":"Nima","addr:street":"Islamic Research Street","addr:suburb":"Berlin Bridge","amenity":"waste_disposal","waste":"trash"}},"type":"Feature"},
	{"geometry":{"coordinates":[-0.198993,5.586725],"type":"Point"},"properties":{"osm_id":"7018230647","tag":{"addr:city":"Accra","addr:community":"Nima","addr:suburb":"Bronx","amenity":"waste_basket","fee":"no","waste":"trash"}},"type":"Feature"},
	{"geometry":{"coordinates":[-0.199481,5.587007],"type":"Point"},"properties":{"osm_id":"7018230651","tag":{"addr:city":"Accra","addr:community":"Nima","addr:suburb":"Bronx","amenity":"waste_basket","fee":"no","waste":"trash"}},"type":"Feature"},
	{"geometry":{"coordinates":[-0.198408,5.586484],"type":"Point"},"properties":{"osm_id":"7018230652","tag":{"addr:city":"Accra","addr:community":"Nima","addr:street":"Islamic Research Street","addr:suburb":"Bronx","amenity":"waste_basket","fee":"no","waste":"trash"}},"type":"Feature"},
	{"geometry":{"coordinates":[-0.19946,5.587017],"type":"Point"},"properties":{"osm_id":"7018230654","tag":{"addr:city":"Accra","addr:community":"Nima","addr:suburb":"Bronx","amenity":"waste_disposal","waste":"trash"}},"type":"Feature"},
	{"geometry":{"coordinates":[-0.199256,5.587146],"type":"Point"},"properties":{"osm_id":"7018230659","tag":{"addr:city":"Accra","addr:community":"Nima","addr:suburb":"Berlin Bridge","amenity":"waste_basket","fee":"no","waste":"trash"}},"type":"Feature"},
	{"geometry":{"coordinates":[-0.198446,5.586654],"type":"Point"},"properties":{"osm_id":"7018230660","tag":{"addr:city":"Accra","addr:community":"Nima","addr:street":"Islamic Research Street","addr:suburb":"Bronx","amenity":"waste_basket","fee":"no","waste":"trash"}},"type":"Feature"},
	{"geometry":{"coordinates":[-0.198623,5.587519],"type":"Point"},"properties":{"osm_id":"7018230662","tag":{"addr:city":"Accra","addr:community":"Nima","addr:street":"Islamic Research Street","addr:suburb":"Berlin Bridge","amenity":"waste_disposal","waste":"trash"}},"type":"Feature"},
	{"geometry":{"coordinates":[-0.198945,5.587242],"type":"Point"},"properties":{"osm_id":"7018230663","tag":{"addr:city":"Accra","addr:community":"Nima","addr:suburb":"Berlin Bridge","amenity":"waste_disposal","waste":"trash"}},"type":"Feature"},
	{"geometry":{"coordinates":[-0.19858,5.586057],"type":"Point"},"properties":{"osm_id":"7018230665","tag":{"addr:city":"Accra","addr:community":"Nima","addr:street":"Islamic Research Street","addr:suburb":"Bronx","amenity":"waste_disposal","waste":"trash"}},"type":"Feature"},
	{"geometry":{"coordinates":[-0.198487,5.586399],"type":"Point"},"properties":{"osm_id":"7018230672","tag":{"addr:city":"Accra","addr:community":"Nima","addr:street":"Islamic Research Street","addr:suburb":"Bronx","amenity":"waste_disposal","waste":"trash"}},"type":"Feature"},
	{"geometry":{"coordinates":[-0.199235,5.58705],"type":"Point"},"properties":{"osm_id":"7018230675","tag":{"addr:city":"Accra","addr:community":"Nima","addr:suburb":"Bronx","amenity":"waste_disposal","waste":"trash"}},"type":"Feature"},
	{"geometry":{"coordinates":[-0.198709,5.587872],"type":"Point"},"properties":{"osm_id":"7018230676","tag":{"addr:city":"Accra","addr:community":"Nima","addr:street":"Islamic Research Street","addr:suburb":"Berlin Bridge","amenity":"waste_disposal","waste":"trash"}},"type":"Feature"},
	{"geometry":{"coordinates":[-0.198475,5.586811],"type":"Point"},"properties":{"osm_id":"7018230689","tag":{"addr:city":"Accra","addr:community":"Nima","addr:street":"Islamic Research Street","addr:suburb":"Bronx","amenity":"waste_basket","fee":"no","waste":"trash"}},"type":"Feature"},
	{"geometry":{"coordinates":[-0.199007,5.586668],"type":"Point"},"properties":{"osm_id":"7018230691","tag":{"addr:city":"Accra","addr:community":"Nima","addr:suburb":"Bronx","amenity":"waste_basket","fee":"no","waste":"trash"}},"type":"Feature"},
	{"geometry":{"coordinates":[-0.199953,5.58705],"type":"Point"},"properties":{"osm_id":"7018230696","tag":{"addr:city":"Accra","addr:community":"Nima","addr:suburb":"Berlin Bridge","amenity":"waste_disposal","waste":"trash"}},"type":"Feature"},
	{"geometry":{"coordinates":[-0.206483,5.590701],"type":"Point"},"properties":{"osm_id":"7018299918","tag":{"addr:city":"Accra","addr:community":"Nima","addr:street":"New Town Road","addr:suburb":"New Town","amenity":"waste_disposal","waste":"trash"}},"type":"Feature"},
	{"geometry":{"coordinates":[-0.205182,5.591246],"type":"Point"},"properties":{"osm_id":"7018299939","tag":{"addr:city":"Accra","addr:community":"Nima","addr:suburb":"New Town","amenity":"waste_basket","fee":"no","waste":"trash"}},"type":"Feature"},
	{"geometry":{"coordinates":[-0.204899,5.591887],"type":"Point"},"properties":{"osm_id":"7018299950","tag":{"addr:city":"Accra","addr:community":"Nima","addr:street":"Alajo High Street","addr:suburb":"New Town","amenity":"waste_basket","waste":"trash"}},"type":"Feature"},
	{"geometry":{"coordinates":[-0.206122,5.591096],"type":"Point"},"properties":{"osm_id":"7018299951","tag":{"addr:city":"Accra","addr:community":"Nima","addr:street":"New Town Road","addr:suburb":"New Town","amenity":"waste_basket","waste":"trash"}},"type":"Feature"},
	{"geometry":{"coordinates":[-0.205415,5.590024],"type":"Point"},"properties":{"osm_id":"7018299972","tag":{"addr:city":"Accra","addr:community":"Nima","addr:street":"Asafoianye Amarkai Street","addr:suburb":"New Town","amenity":"waste_disposal","waste":"trash"}},"type":"Feature"},
	{"geometry":{"coordinates":[-0.205897,5.58705],"type":"Point"},"properties":{"osm_id":"7018307156","tag":{"addr:city":"Accra","addr:community":"Nima","addr:suburb":"Afio","amenity":"waste_basket","fee":"no","waste":"trash"}},"type":"Feature"},
	{"geometry":{"coordinates":[-0.205468,5.586441],"type":"Point"},"properties":{"osm_id":"7018307157","tag":{"addr:city":"Accra","addr:community":"Nima","addr:street":"Odoitso Street","addr:suburb":"Afio","amenity":"waste_disposal","fee":"no","waste":"trash"}},"type":"Feature"},
	{"geometry":{"coordinates":[-0.204964,5.58753],"type":"Point"},"properties":{"osm_id":"7018307160","tag":{"addr:city":"Accra","addr:community":"Nima","addr:street":"Obaakrowa Close","addr:suburb":"Agbajena","amenity":"waste_basket","waste":"organic"}},"type":"Feature"},
	{"geometry":{"coordinates":[-0.205897,5.587349],"type":"Point"},"properties":{"osm_id":"7018307163","tag":{"addr:city":"Accra","addr:community":"Nima","addr:suburb":"Afio","amenity":"waste_basket","fee":"no","waste":"trash"}},"type":"Feature"},
	{"geometry":{"coordinates":[-0.205843,5.587263],"type":"Point"},"properties":{"osm_id":"7018307165","tag":{"addr:city":"Accra","addr:community":"Nima","addr:suburb":"Afio","amenity":"waste_disposal","fee":"no","waste":"trash"}},"type":"Feature"},
	{"geometry":{"coordinates":[-0.20535,5.587648],"type":"Point"},"properties":{"osm_id":"7018307176","tag":{"addr:city":"Accra","addr:community":"Nima","addr:street":"Obaakrowa Close","addr:suburb":"Afio","amenity":"waste_disposal","fee":"no","waste":"trash"}},"type":"Feature"},
	{"geometry":{"coordinates":[-0.205854,5.586558],"type":"Point"},"properties":{"osm_id":"7018331785","tag":{"addr:city":"Accra","addr:community":"Nima","addr:street":"Odoitso Street","addr:suburb":"Afio","amenity":"waste_basket","fee":"no","waste":"trash"}},"type":"Feature"},
	{"geometry":{"coordinates":[-0.201767,5.587231],"type":"Point"},"properties":{"osm_id":"7018339228","tag":{"addr:city":"Accra","addr:community":"Nima","addr:suburb":"New Town","amenity":"waste_basket","waste":"trash"}},"type":"Feature"},
	{"geometry":{"coordinates":[-0.20255,5.586313],"type":"Point"},"properties":{"osm_id":"7018339240","tag":{"addr:city":"Accra","addr:community":"Nima","addr:suburb":"New Town","amenity":"waste_disposal","waste":"trash"}},"type":"Feature"},
	{"geometry":{"coordinates":[-0.20197,5.587188],"type":"Point"},"properties":{"osm_id":"7018339241","tag":{"addr:city":"Accra","addr:community":"Nima","addr:suburb":"New Town","amenity":"waste_disposal","waste":"trash"}},"type":"Feature"},
	{"geometry":{"coordinates":[-0.201123,5.586761],"type":"Point"},"properties":{"osm_id":"7018339256","tag":{"addr:city":"Accra","addr:community":"Nima","addr:street":"Edward Akuffo Addo Street","addr:suburb":"New Town","amenity":"waste_disposal","waste":"trash"}},"type":"Feature"},
	{"geometry":{"coordinates":[-0.2027,5.58627],"type":"Point"},"properties":{"osm_id":"7018339257","tag":{"addr:city":"Accra","addr:community":"Nima","addr:suburb":"New Town","amenity":"waste_basket","waste":"trash"}},"type":"Feature"},
	{"geometry":{"coordinates":[-0.201123,5.586964],"type":"Point"},"properties":{"osm_id":"7018339265","tag":{"addr:city":"Accra","addr:community":"Nima","addr:suburb":"New Town","amenity":"waste_basket","waste":"trash"}},"type":"Feature"},
	{"geometry":{"coordinates":[-0.202013,5.586687],"type":"Point"},"properties":{"osm_id":"7018339266","tag":{"addr:city":"Accra","addr:community":"Nima","addr:suburb":"New Town","amenity":"waste_disposal","waste":"trash"}},"type":"Feature"},
	{"geometry":{"coordinates":[-0.201402,5.586665],"type":"Point"},"properties":{"osm_id":"7018339271","tag":{"addr:city":"Accra","addr:community":"Nima","addr:suburb":"New Town","amenity":"waste_basket","waste":"trash"}},"type":"Feature"},
	{"geometry":{"coordinates":[-0.201734,5.587648],"type":"Point"},"properties":{"osm_id":"7018339275","tag":{"addr:city":"Accra","addr:community":"Nima","addr:suburb":"New Town","amenity":"waste_disposal","waste":"trash"}},"type":"Feature"},
	{"geometry":{"coordinates":[-0.202603,5.586388],"type":"Point"},"properties":{"osm_id":"7018339281","tag":{"addr:city":"Accra","addr:community":"Nima","addr:suburb":"New Town","amenity":"waste_basket","waste":"trash"}},"type":"Feature"},
	{"geometry":{"coordinates":[-0.201284,5.587156],"type":"Point"},"properties":{"osm_id":"7018339284","tag":{"addr:city":"Accra","addr:community":"Nima","addr:suburb":"New Town","amenity":"waste_basket","waste":"trash"}},"type":"Feature"},
	{"geometry":{"coordinates":[-0.201273,5.587284],"type":"Point"},"properties":{"osm_id":"7018353491","tag":{"addr:city":"Accra","addr:community":"Nima","addr:suburb":"New Town","amenity":"waste_basket","waste":"trash"}},"type":"Feature"},
	{"geometry":{"coordinates":[-0.203759,5.587375],"type":"Point"},"properties":{"osm_id":"7018364091","tag":{"addr:city":"Accra","addr:community":"Nima","addr:street":"Obaakrowa Close","addr:suburb":"Agbajena Down","amenity":"waste_disposal","waste":"trash"}},"type":"Feature"},
	{"geometry":{"coordinates":[-0.203494,5.587349],"type":"Point"},"properties":{"osm_id":"7018364093","tag":{"addr:city":"Accra","addr:community":"Nima","addr:street":"Obaakrowa Close","addr:suburb":"Agbajena Down","amenity":"waste_basket","waste":"trash"}},"type":"Feature"},
	{"geometry":{"coordinates":[-0.204535,5.586516],"type":"Point"},"properties":{"osm_id":"7018364094","tag":{"addr:city":"Accra","addr:community":"Nima","addr:street":"Odoitso Street","addr:suburb":"Agbajena Down","amenity":"waste_basket","waste":"trash"}},"type":"Feature"},
	{"geometry":{"coordinates":[-0.203151,5.587199],"type":"Point"},"properties":{"osm_id":"7018364097","tag":{"addr:city":"Accra","addr:community":"Nima","addr:street":"Obaakrowa Close","addr:suburb":"Agbajena Down","amenity":"waste_basket","waste":"trash"}},"type":"Feature"},
	{"geometry":{"coordinates":[-0.203613,5.586428],"type":"Point"},"properties":{"osm_id":"7018364102","tag":{"addr:city":"Accra","addr:community":"Nima","addr:suburb":"Agbajena Down","amenity":"waste_basket","fee":"no","waste":"trash"}},"type":"Feature"},
	{"geometry":{"coordinates":[-0.203819,5.586336],"type":"Point"},"properties":{"osm_id":"7018364105","tag":{"addr:city":"Accra","addr:community":"Nima","addr:street":"Odoitso Street","addr:suburb":"Agbajena Down","amenity":"waste_disposal","waste":"trash"}},"type":"Feature"},
	{"geometry":{"coordinates":[-0.203526,5.586366],"type":"Point"},"properties":{"osm_id":"7018364106","tag":{"addr:city":"Accra","addr:community":"Nima","addr:suburb":"Agbajena Down","amenity":"waste_basket","waste":"trash"}},"type":"Feature"},
	{"geometry":{"coordinates":[-0.202915,5.58627],"type":"Point"},"properties":{"osm_id":"7018364111","tag":{"addr:city":"Accra","addr:community":"Nima","addr:suburb":"Agbajena Down","amenity":"waste_disposal","waste":"trash"}},"type":"Feature"},
	{"geometry":{"coordinates":[-0.203569,5.586078],"type":"Point"},"properties":{"osm_id":"7018364120","tag":{"addr:city":"Accra","addr:community":"Nima","addr:street":"Odoitso Street","addr:suburb":"Agbajena Down","amenity":"waste_basket","waste":"trash"}},"type":"Feature"},
	{"geometry":{"coordinates":[-0.2027,5.586398],"type":"Point"},"properties":{"osm_id":"7018364123","tag":{"addr:city":"Accra","addr:community":"Nima","addr:suburb":"Agbajena Down","amenity":"waste_basket","fee":"no","waste":"trash"}},"type":"Feature"},
	{"geometry":{"coordinates":[-0.20359,5.586697],"type":"Point"},"properties":{"osm_id":"7018364124","tag":{"addr:city":"Accra","addr:community":"Nima","addr:suburb":"Agbajena Down","amenity":"waste_basket","waste":"trash"}},"type":"Feature"},
	{"geometry":{"coordinates":[-0.203623,5.586131],"type":"Point"},"properties":{"osm_id":"7018364127","tag":{"addr:city":"Accra","addr:community":"Nima","addr:street":"Odoitso Street","addr:suburb":"Agbajena Down","amenity":"waste_basket","waste":"trash"}},"type":"Feature"},
	{"geometry":{"coordinates":[-0.202957,5.583996],"type":"Point"},"properties":{"osm_id":"7018743829","tag":{"addr:city":"Accra","addr:community":"Nima","addr:suburb":"Accra Newtown","amenity":"waste_disposal","waste":"trash"}},"type":"Feature"},
	{"geometry":{"coordinates":[-0.203767,5.583726],"type":"Point"},"properties":{"osm_id":"7018743830","tag":{"addr:city":"Accra","addr:community":"Nima","amenity":"waste_disposal","waste":"trash"}},"type":"Feature"},
	{"geometry":{"coordinates":[-0.202829,5.583932],"type":"Point"},"properties":{"osm_id":"7018743832","tag":{"addr:city":"Accra","addr:community":"Nima","amenity":"waste_basket","waste":"trash"}},"type":"Feature"},
	{"geometry":{"coordinates":[-0.203548,5.58469],"type":"Point"},"properties":{"osm_id":"7018743833","tag":{"addr:city":"Accra","addr:community":"Nima","amenity":"waste_disposal","fee":"no","waste":"trash"}},"type":"Feature"},
	{"geometry":{"coordinates":[-0.203676,5.584006],"type":"Point"},"properties":{"osm_id":"7018743836","tag":{"addr:city":"Accra","addr:community":"Nima","amenity":"waste_disposal","fee":"no","waste":"plastic"}},"type":"Feature"},
	{"geometry":{"coordinates":[-0.203917,5.583843],"type":"Point"},"properties":{"osm_id":"7018743837","tag":{"addr:city":"Accra","addr:community":"Nima","amenity":"waste_disposal","waste":"trash"}},"type":"Feature"},
	{"geometry":{"coordinates":[-0.203225,5.58326],"type":"Point"},"properties":{"osm_id":"7018743838","tag":{"addr:city":"Accra","addr:community":"Nima","addr:street":"Oku Street","amenity":"waste_disposal","waste":"trash"}},"type":"Feature"},
	{"geometry":{"coordinates":[-0.203376,5.583099],"type":"Point"},"properties":{"osm_id":"7018743839","tag":{"addr:city":"Accra","addr:community":"Nima","addr:street":"Oku Street","amenity":"waste_disposal","waste":"trash"}},"type":"Feature"},
	{"geometry":{"coordinates":[-0.20329,5.583528],"type":"Point"},"properties":{"osm_id":"7018743840","tag":{"addr:city":"Accra","addr:community":"Nima","amenity":"waste_disposal","waste":"trash"}},"type":"Feature"},
	{"geometry":{"coordinates":[-0.203975,5.583875],"type":"Point"},"properties":{"osm_id":"7018743841","tag":{"addr:city":"Accra","addr:community":"Nima","amenity":"waste_disposal","waste":"trash"}},"type":"Feature"},
	{"geometry":{"coordinates":[-0.203557,5.584682],"type":"Point"},"properties":{"osm_id":"7018743842","tag":{"addr:city":"Accra","addr:community":"Nima","amenity":"waste_disposal","fee":"no","waste":"trash"}},"type":"Feature"},
	{"geometry":{"coordinates":[-0.203578,5.584113],"type":"Point"},"properties":{"osm_id":"7018743843","tag":{"addr:city":"Accra","addr:community":"Nima","addr:suburb":"Accra Newtown","amenity":"waste_basket","waste":"trash"}},"type":"Feature"},
	{"geometry":{"coordinates":[-0.203164,5.584165],"type":"Point"},"properties":{"osm_id":"7018743847","tag":{"addr:city":"Accra","addr:community":"Nima","addr:suburb":"Accra Newtown","amenity":"waste_disposal","waste":"trash"}},"type":"Feature"},
	{"geometry":{"coordinates":[-0.203372,5.583953],"type":"Point"},"properties":{"osm_id":"7018743848","tag":{"addr:city":"Accra","addr:community":"Nima","addr:suburb":"Accra Newtown","amenity":"waste_disposal","waste":"trash"}},"type":"Feature"},
	{"geometry":{"coordinates":[-0.203839,5.583774],"type":"Point"},"properties":{"osm_id":"7018743850","tag":{"addr:city":"Accra","addr:community":"Nima","amenity":"waste_disposal","waste":"trash"}},"type":"Feature"},
	{"geometry":{"coordinates":[-0.203731,5.58375],"type":"Point"},"properties":{"osm_id":"7018743851","tag":{"addr:city":"Accra","addr:community":"Nima","amenity":"waste_disposal","waste":"trash"}},"type":"Feature"},
	{"geometry":{"coordinates":[-0.203141,5.584116],"type":"Point"},"properties":{"osm_id":"7018743853","tag":{"addr:city":"Accra","addr:community":"Nima","amenity":"waste_basket","waste":"trash"}},"type":"Feature"},
	{"geometry":{"coordinates":[-0.203887,5.584342],"type":"Point"},"properties":{"osm_id":"7018743854","tag":{"addr:city":"Accra","addr:community":"Nima","addr:suburb":"Accra Newtown","amenity":"waste_disposal","waste":"trash"}},"type":"Feature"},
	{"geometry":{"coordinates":[-0.202797,5.583953],"type":"Point"},"properties":{"osm_id":"7018743855","tag":{"addr:city":"Accra","addr:community":"Nima","addr:street":"Oku Street","amenity":"waste_disposal","fee":"no","waste":"trash"}},"type":"Feature"},
	{"geometry":{"coordinates":[-0.207002,5.589014],"type":"Point"},"properties":{"osm_id":"7019452298","tag":{"addr:city":"Accra","addr:community":"Nima","addr:street":"NewTown Road","addr:suburb":"Sweet Apple","amenity":"waste_disposal","waste":"trash"}},"type":"Feature"},
	{"geometry":{"coordinates":[-0.205457,5.58989],"type":"Point"},"properties":{"osm_id":"7019452299","tag":{"addr:city":"Accra","addr:community":"Nima","addr:street":"NewTown Road","addr:suburb":"Sweet Apple","amenity":"waste_basket","waste":"trash"}},"type":"Feature"},
	{"geometry":{"coordinates":[-0.207013,5.589751],"type":"Point"},"properties":{"osm_id":"7019452301","tag":{"access":"permissive","addr:city":"Accra","addr:community":"Nima","addr:street":"NewTown Road","addr:suburb":"Sweet Apple","amenity":"waste_disposal","fee":"no","waste":"trash"}},"type":"Feature"},
	{"geometry":{"coordinates":[-0.206412,5.590466],"type":"Point"},"properties":{"osm_id":"7019452318","tag":{"addr:street":"NewTown Road","addr:suburb":"Sweet Apple","amenity":"waste_disposal","waste":"trash"}},"type":"Feature"},
	{"geometry":{"coordinates":[-0.206251,5.589473],"type":"Point"},"properties":{"osm_id":"7019452320","tag":{"addr:city":"Accra","addr:community":"Nima","addr:street":"NewTown Road","addr:suburb":"Sweet Apple","amenity":"waste_disposal","waste":"trash"}},"type":"Feature"},
	{"geometry":{"coordinates":[-0.206316,5.589078],"type":"Point"},"properties":{"osm_id":"7019452357","tag":{"addr:city":"Accra","addr:community":"Nima","addr:street":"NewTown Road","addr:suburb":"Sweet Apple","amenity":"waste_basket","waste":"trash"}},"type":"Feature"},
	{"geometry":{"coordinates":[-0.203633,5.587498],"type":"Point"},"properties":{"osm_id":"7019713057","tag":{"addr:city":"Accra","addr:community":"Nima","addr:street":"Obaakrowa Close","addr:suburb":"New Town","amenity":"waste_basket","waste":"trash"}},"type":"Feature"},
	{"geometry":{"coordinates":[-0.202056,5.587808],"type":"Point"},"properties":{"osm_id":"7019713067","tag":{"addr:city":"Accra","addr:community":"Nima","addr:street":"Obaakrowa Close","addr:suburb":"Nima Downside","amenity":"waste_basket","waste":"trash"}},"type":"Feature"},
	{"geometry":{"coordinates":[-0.202206,5.587135],"type":"Point"},"properties":{"osm_id":"7019713078","tag":{"addr:city":"Accra","addr:community":"Nima","addr:street":"Obaakrowa Close","addr:suburb":"Nima Downside","amenity":"waste_disposal","waste":"trash"}},"type":"Feature"},
	{"geometry":{"coordinates":[-0.203515,5.58506],"type":"Point"},"properties":{"osm_id":"7020608819","tag":{"addr:city":"Accra","addr:community":"Nima","addr:suburb":"Chicago","amenity":"waste_disposal","waste":"trash"}},"type":"Feature"},
	{"geometry":{"coordinates":[-0.204341,5.584893],"type":"Point"},"properties":{"osm_id":"7020608820","tag":{"addr:city":"Accra","addr:community":"Nima","amenity":"waste_disposal","fee":"no","waste":"plastic"}},"type":"Feature"},
	{"geometry":{"coordinates":[-0.204331,5.584989],"type":"Point"},"properties":{"osm_id":"7020608826","tag":{"addr:city":"Accra","addr:community":"Nima","addr:suburb":"Chicago","amenity":"waste_disposal","waste":"trash"}},"type":"Feature"},
	{"geometry":{"coordinates":[-0.203863,5.585749],"type":"Point"},"properties":{"osm_id":"7020608832","tag":{"addr:city":"Accra","addr:community":"Nima","addr:street":"Odoitso street","addr:suburb":"Chicago","amenity":"waste_disposal","waste":"trash"}},"type":"Feature"},
	{"geometry":{"coordinates":[-0.204481,5.584647],"type":"Point"},"properties":{"osm_id":"7020608839","tag":{"addr:city":"Accra","addr:community":"Nima","amenity":"waste_disposal","fee":"no","waste":"trash"}},"type":"Feature"},
	{"geometry":{"coordinates":[-0.2033,5.585515],"type":"Point"},"properties":{"osm_id":"7020608851","tag":{"addr:city":"Accra","addr:community":"Nima","addr:street":"Odoitso Street","addr:suburb":"Chicago","amenity":"waste_disposal","waste":"trash"}},"type":"Feature"},
	{"geometry":{"coordinates":[-0.194943,5.587178],"type":"Point"},"properties":{"osm_id":"7020673160","tag":{"addr:city":"Accra","addr:community":"Nima","addr:suburb":"441","amenity":"waste_disposal","waste":"trash"}},"type":"Feature"},
	{"geometry":{"coordinates":[-0.202754,5.584925],"type":"Point"},"properties":{"osm_id":"7020739655","tag":{"addr:city":"Accra","addr:community":"Nima","addr:street":"Edward Akuffo Addo Street","amenity":"waste_disposal","waste":"plastic"}},"type":"Feature"},
	{"geometry":{"coordinates":[-0.202131,5.585138],"type":"Point"},"properties":{"osm_id":"7020739657","tag":{"addr:city":"Accra","addr:community":"Nima","addr:street":"Edward Akuffo Addo Street","addr:suburb":"New Town","amenity":"waste_basket","waste":"trash"}},"type":"Feature"},
	{"geometry":{"coordinates":[-0.201992,5.585384],"type":"Point"},"properties":{"osm_id":"7020739659","tag":{"addr:city":"Accra","addr:community":"Nima","addr:street":"Edward Akuffo Addo Street","addr:suburb":"New Town","amenity":"waste_basket","waste":"trash"}},"type":"Feature"},
	{"geometry":{"coordinates":[-0.202069,5.585577],"type":"Point"},"properties":{"osm_id":"7020739660","tag":{"addr:city":"Accra","addr:community":"Nima","addr:street":"Edward Akuffo Addo Street","addr:suburb":"New Town","amenity":"waste_basket","waste":"trash"}},"type":"Feature"},
	{"geometry":{"coordinates":[-0.203167,5.584441],"type":"Point"},"properties":{"osm_id":"7020739664","tag":{"addr:city":"Accra","addr:community":"Nima","amenity":"waste_disposal","fee":"no","waste":"plastic"}},"type":"Feature"},
	{"geometry":{"coordinates":[-0.202389,5.584433],"type":"Point"},"properties":{"osm_id":"7020739666","tag":{"addr:city":"Accra","addr:community":"Nima","addr:street":"Edward Akuffo Addo Street","addr:suburb":"New Town","amenity":"waste_basket","waste":"trash"}},"type":"Feature"},
	{"geometry":{"coordinates":[-0.202678,5.585213],"type":"Point"},"properties":{"osm_id":"7020739669","tag":{"addr:city":"Accra","addr:community":"Nima","amenity":"waste_basket","fee":"no","waste":"trash"}},"type":"Feature"},
	{"geometry":{"coordinates":[-0.202657,5.584722],"type":"Point"},"properties":{"osm_id":"7020739672","tag":{"addr:city":"Accra","addr:community":"Nima","addr:street":"Edward Akuffo Addo Street","amenity":"waste_disposal","waste":"trash"}},"type":"Feature"},
	{"geometry":{"coordinates":[-0.202341,5.584685],"type":"Point"},"properties":{"osm_id":"7020739673","tag":{"addr:city":"Accra","addr:community":"Nima","addr:street":"Edward Akuffo Addo Street","addr:suburb":"New Town","amenity":"waste_basket","waste":"trash"}},"type":"Feature"},
	{"geometry":{"coordinates":[-0.202292,5.584797],"type":"Point"},"properties":{"osm_id":"7020739676","tag":{"addr:city":"Accra","addr:community":"Nima","addr:street":"Edward Akuffo Addo Street","addr:suburb":"New Town","amenity":"waste_basket","waste":"trash"}},"type":"Feature"},
	{"geometry":{"coordinates":[-0.202003,5.58537],"type":"Point"},"properties":{"osm_id":"7020739677","tag":{"addr:city":"Accra","addr:community":"Nima","addr:street":"Edward Akuffo Addo Street","amenity":"waste_disposal","waste":"trash"}},"type":"Feature"},
	{"geometry":{"coordinates":[-0.202089,5.585313],"type":"Point"},"properties":{"osm_id":"7020739679","tag":{"addr:city":"Accra","addr:community":"Nima","addr:street":"Edward Akuffo Addo Street","amenity":"waste_disposal","waste":"trash"}},"type":"Feature"},
	{"geometry":{"coordinates":[-0.202786,5.584594],"type":"Point"},"properties":{"osm_id":"7020739680","tag":{"addr:city":"Accra","addr:community":"Nima","addr:street":"Edward Akuffo Addo Street","amenity":"waste_disposal","waste":"trash"}},"type":"Feature"},
	{"geometry":{"coordinates":[-0.202499,5.584911],"type":"Point"},"properties":{"osm_id":"7020751686","tag":{"addr:city":"Accra","addr:community":"Nima","addr:street":"Edward Akuffo Addo Street","amenity":"waste_basket","waste":"trash"}},"type":"Feature"},
	{"geometry":{"coordinates":[-0.2027,5.585031],"type":"Point"},"properties":{"osm_id":"7020751689","tag":{"addr:city":"Accra","addr:community":"Nima","amenity":"waste_disposal","waste":"trash"}},"type":"Feature"},
	{"geometry":{"coordinates":[-0.202173,5.584865],"type":"Point"},"properties":{"osm_id":"7020751692","tag":{"addr:city":"Accra","addr:community":"Nima","addr:street":"Edward Akuffo Addo Street","addr:suburb":"New Town","amenity":"waste_disposal","waste":"trash"}},"type":"Feature"},
	{"geometry":{"coordinates":[-0.202593,5.58407],"type":"Point"},"properties":{"osm_id":"7020751693","tag":{"addr:city":"Accra","addr:community":"Nima","addr:street":"Edward Akuffo Addo Street","addr:suburb":"New Town","amenity":"waste_basket","waste":"trash"}},"type":"Feature"},
	{"geometry":{"coordinates":[-0.202757,5.585241],"type":"Point"},"properties":{"osm_id":"7020751696","tag":{"addr:city":"Accra","addr:community":"Nima","amenity":"waste_disposal","fee":"no","waste":"trash"}},"type":"Feature"},
	{"geometry":{"coordinates":[-0.20261,5.584792],"type":"Point"},"properties":{"osm_id":"7020751697","tag":{"addr:city":"Accra","addr:community":"Nima","addr:street":"Edward Akuffo Addo Street","amenity":"waste_basket","fee":"no","waste":"trash"}},"type":"Feature"},
	{"geometry":{"coordinates":[-0.202725,5.585176],"type":"Point"},"properties":{"osm_id":"7020751698","tag":{"addr:city":"Accra","addr:community":"Nima","amenity":"waste_disposal","fee":"no","waste":"plastic"}},"type":"Feature"},
	{"geometry":{"coordinates":[-0.20204,5.585287],"type":"Point"},"properties":{"osm_id":"7020751699","tag":{"addr:city":"Accra","addr:community":"Nima","addr:street":"Edward Akuffo Addo Street","amenity":"waste_basket","fee":"no","waste":"trash"}},"type":"Feature"},
	{"geometry":{"coordinates":[-0.263389,5.580088],"type":"Point"},"properties":{"osm_id":"7039485976","tag":{"amenity":"waste_basket"}},"type":"Feature"},
	{"geometry":{"coordinates":[-0.258055,5.578202],"type":"Point"},"properties":{"osm_id":"7040746953","tag":{"amenity":"waste_basket"}},"type":"Feature"},
	{"geometry":{"coordinates":[-0.194859,5.584855],"type":"Point"},"properties":{"osm_id":"7064161674","tag":{"addr:city":"Accra","addr:community":"Nima","addr:suburb":"441","amenity":"waste_basket","waste":"trash"}},"type":"Feature"},
	{"geometry":{"coordinates":[-0.190448,5.592463],"type":"Point"},"properties":{"osm_id":"7064180198","tag":{"addr:city":"Accra","addr:community":"Nima","addr:street":"Baba Alihandu","addr:suburb":"Kawukudi","amenity":"waste_disposal","waste":"trash"}},"type":"Feature"},
	{"geometry":{"coordinates":[-0.190727,5.591032],"type":"Point"},"properties":{"osm_id":"7064180200","tag":{"addr:city":"Accra","addr:community":"Nima","addr:street":"Hilla Limann Highway","addr:suburb":"Nafiu","amenity":"waste_disposal","waste":"trash"}},"type":"Feature"},
	{"geometry":{"coordinates":[-0.191444,5.591595],"type":"Point"},"properties":{"osm_id":"7064180201","tag":{"addr:city":"Accra","addr:community":"Nima","addr:suburb":"Alihandu","amenity":"waste_basket","waste":"trash"}},"type":"Feature"},
	{"geometry":{"coordinates":[-0.190056,5.592479],"type":"Point"},"properties":{"osm_id":"7064180202","tag":{"addr:city":"Accra","addr:community":"Nima","addr:suburb":"Kawukudi","amenity":"waste_basket","waste":"trash"}},"type":"Feature"},
	{"geometry":{"coordinates":[-0.190426,5.592346],"type":"Point"},"properties":{"osm_id":"7064180203","tag":{"addr:city":"Accra","addr:community":"Nima","addr:suburb":"Kawukudi","amenity":"waste_disposal","waste":"trash"}},"type":"Feature"},
	{"geometry":{"coordinates":[-0.189953,5.592315],"type":"Point"},"properties":{"osm_id":"7064180205","tag":{"addr:city":"Accra","addr:community":"Nima","addr:street":"Hilla Limann Highway","addr:suburb":"Kawukudi","amenity":"waste_disposal","waste":"trash"}},"type":"Feature"},
	{"geometry":{"coordinates":[-0.191516,5.591595],"type":"Point"},"properties":{"osm_id":"7064180209","tag":{"addr:city":"Accra","addr:community":"Nima","addr:street":"Baba Alihandu","addr:suburb":"Alihandu","amenity":"waste_disposal","waste":"trash"}},"type":"Feature"},
	{"geometry":{"coordinates":[-0.190415,5.592431],"type":"Point"},"properties":{"osm_id":"7064180210","tag":{"addr:city":"Accra","addr:community":"Nima","addr:street":"Baba Alihandu","addr:suburb":"Kawukudi","amenity":"waste_disposal","waste":"trash"}},"type":"Feature"},
	{"geometry":{"coordinates":[-0.190812,5.590968],"type":"Point"},"properties":{"osm_id":"7064180211","tag":{"addr:city":"Accra","addr:community":"Nima","addr:suburb":"Nafiu","amenity":"waste_basket","waste":"trash"}},"type":"Feature"},
	{"geometry":{"coordinates":[-0.199696,5.576425],"type":"Point"},"properties":{"osm_id":"7064180214","tag":{"addr:city":"Accra","addr:community":"Nima","addr:suburb":"Nima","amenity":"recycling","recycling:waste":"yes","recycling_type":"container","waste":"organic"}},"type":"Feature"},
	{"geometry":{"coordinates":[-0.19961,5.577781],"type":"Point"},"properties":{"osm_id":"7064180216","tag":{"addr:city":"Accra","addr:community":"Nima","amenity":"waste_basket","waste":"trash"}},"type":"Feature"},
	{"geometry":{"coordinates":[-0.200356,5.577759],"type":"Point"},"properties":{"osm_id":"7064180218","tag":{"addr:city":"Accra","addr:community":"Nima","addr:suburb":"Nima","amenity":"waste_disposal","waste":"organic"}},"type":"Feature"},
	{"geometry":{"coordinates":[-0.199782,5.577012],"type":"Point"},"properties":{"osm_id":"7064180219","tag":{"addr:city":"Accra","addr:community":"Nima","addr:suburb":"Nima","amenity":"waste_disposal","waste":"e-waste"}},"type":"Feature"},
	{"geometry":{"coordinates":[-0.200125,5.575282],"type":"Point"},"properties":{"osm_id":"7064180238","tag":{"addr:city":"Accra","addr:community":"Nima","amenity":"waste_disposal","waste":"trash"}},"type":"Feature"},
	{"geometry":{"coordinates":[-0.199975,5.575475],"type":"Point"},"properties":{"osm_id":"7064180239","tag":{"addr:city":"Accra","addr:community":"Nima","amenity":"waste_basket","waste":"trash"}},"type":"Feature"},
	{"geometry":{"coordinates":[-0.20034,5.575194],"type":"Point"},"properties":{"osm_id":"7064180240","tag":{"addr:city":"Accra","addr:community":"Nima","amenity":"waste_disposal","waste":"trash"}},"type":"Feature"},
	{"geometry":{"coordinates":[-0.200393,5.573456],"type":"Point"},"properties":{"osm_id":"7064180241","tag":{"addr:city":"Accra","addr:community":"Nima","addr:suburb":"Nina Police Station","amenity":"waste_basket","waste":"trash"}},"type":"Feature"},
	{"geometry":{"coordinates":[-0.200352,5.575321],"type":"Point"},"properties":{"osm_id":"7064180242","tag":{"addr:city":"Accra","addr:community":"Nima","amenity":"waste_disposal","toilets:disposal":"bucket","waste":"trash"}},"type":"Feature"},
	{"geometry":{"coordinates":[-0.199989,5.573554],"type":"Point"},"properties":{"osm_id":"7064180248","tag":{"addr:city":"Accra","addr:community":"Nima","amenity":"waste_basket","waste":"trash"}},"type":"Feature"},
	{"geometry":{"coordinates":[-0.200586,5.574524],"type":"Point"},"properties":{"osm_id":"7064180249","tag":{"addr:city":"Accra","addr:community":"Nima","amenity":"waste_basket","waste":"trash"}},"type":"Feature"},
	{"geometry":{"coordinates":[-0.199862,5.573802],"type":"Point"},"properties":{"osm_id":"7064180250","tag":{"addr:city":"Accra","addr:community":"Nima","addr:suburb":"Police Station","amenity":"waste_disposal","waste":"trash"}},"type":"Feature"},
	{"geometry":{"coordinates":[-0.200629,5.574428],"type":"Point"},"properties":{"osm_id":"7064180255","tag":{"addr:city":"Accra","addr:community":"Nima","amenity":"waste_basket","waste":"organic"}},"type":"Feature"},
	{"geometry":{"coordinates":[-0.196627,5.579479],"type":"Point"},"properties":{"osm_id":"7064180257","tag":{"addr:community":"Nima","amenity":"waste_basket","waste":"trash"}},"type":"Feature"},
	{"geometry":{"coordinates":[-0.198541,5.576568],"type":"Point"},"properties":{"osm_id":"7064180258","tag":{"addr:city":"Accra","addr:community":"Nima","amenity":"waste_basket","waste":"trash"}},"type":"Feature"},
	{"geometry":{"coordinates":[-0.199031,5.575453],"type":"Point"},"properties":{"osm_id":"7064180259","tag":{"addr:city":"Accra","addr:community":"Nima","addr:street":"Adenkum street","addr:suburb":"Nima","amenity":"waste_disposal","waste":"organic"}},"type":"Feature"},
	{"geometry":{"coordinates":[-0.198714,5.5753],"type":"Point"},"properties":{"osm_id":"7064180261","tag":{"addr:city":"Accra","addr:community":"Nima","amenity":"waste_disposal","waste":"trash"}},"type":"Feature"},
	{"geometry":{"coordinates":[-0.199438,5.577952],"type":"Point"},"properties":{"osm_id":"7064180266","tag":{"addr:city":"Accra","addr:community":"Nima","amenity":"waste_basket","waste":"trash"}},"type":"Feature"},
	{"geometry":{"coordinates":[-0.199063,5.578475],"type":"Point"},"properties":{"osm_id":"7064180275","tag":{"addr:city":"Accra","addr:community":"Nima","amenity":"waste_disposal","waste":"trash"}},"type":"Feature"},
	{"geometry":{"coordinates":[-0.196858,5.578483],"type":"Point"},"properties":{"osm_id":"7064180276","tag":{"addr:city":"Accra","addr:community":"Nima","amenity":"waste_basket","waste":"trash"}},"type":"Feature"},
	{"geometry":{"coordinates":[-0.197285,5.577183],"type":"Point"},"properties":{"osm_id":"7064180277","tag":{"access":"permissive","addr:city":"Accra","addr:community":"Nima","addr:suburb":"Kanda","amenity":"waste_basket","waste":"trash"}},"type":"Feature"},
	{"geometry":{"coordinates":[-0.197271,5.578229],"type":"Point"},"properties":{"osm_id":"7064180278","tag":{"addr:city":"Accra","addr:community":"Nima","amenity":"waste_disposal","waste":"trash"}},"type":"Feature"},
	{"geometry":{"coordinates":[-0.197808,5.57903],"type":"Point"},"properties":{"osm_id":"7064180283","tag":{"addr:city":"Accra","addr:community":"Nima","amenity":"waste_disposal","waste":"trash"}},"type":"Feature"},
	{"geometry":{"coordinates":[-0.198591,5.578475],"type":"Point"},"properties":{"osm_id":"7064180284","tag":{"addr:city":"Accra","addr:community":"Nima","amenity":"waste_disposal","waste":"trash"}},"type":"Feature"},
	{"geometry":{"coordinates":[-0.196971,5.578166],"type":"Point"},"properties":{"osm_id":"7064180285","tag":{"addr:city":"Accra","addr:community":"Nima","amenity":"waste_disposal","waste":"organic"}},"type":"Feature"},
	{"geometry":{"coordinates":[-0.196778,5.578774],"type":"Point"},"properties":{"osm_id":"7064180286","tag":{"addr:city":"Accra","addr:community":"Nima","amenity":"waste_disposal","waste":"trash"}},"type":"Feature"},
	{"geometry":{"coordinates":[-0.196445,5.578304],"type":"Point"},"properties":{"osm_id":"7064180288","tag":{"addr:city":"Accra","addr:community":"Nima","amenity":"waste_disposal","waste":"trash"}},"type":"Feature"},
	{"geometry":{"coordinates":[-0.196532,5.578777],"type":"Point"},"properties":{"osm_id":"7064180291","tag":{"addr:city":"Accra","addr:community":"Nima","amenity":"waste_disposal","waste":"trash"}},"type":"Feature"},
	{"geometry":{"coordinates":[-0.197207,5.57698],"type":"Point"},"properties":{"osm_id":"7064180292","tag":{"addr:city":"Accra","addr:community":"Nima","amenity":"waste_disposal","waste":"trash"}},"type":"Feature"},
	{"geometry":{"coordinates":[-0.197078,5.577025],"type":"Point"},"properties":{"osm_id":"7064180293","tag":{"addr:city":"Accra","addr:community":"Nima","addr:suburb":"kanda high way","amenity":"waste_basket","waste":"trash"}},"type":"Feature"},
	{"geometry":{"coordinates":[-0.197067,5.578101],"type":"Point"},"properties":{"osm_id":"7064180297","tag":{"addr:city":"Accra","addr:community":"Nima","amenity":"waste_basket","waste":"organic"}},"type":"Feature"},
	{"geometry":{"coordinates":[-0.198644,5.577653],"type":"Point"},"properties":{"osm_id":"7064180298","tag":{"addr:city":"Accra","addr:community":"Nima","amenity":"waste_basket","waste":"trash"}},"type":"Feature"},
	{"geometry":{"coordinates":[-0.197668,5.578507],"type":"Point"},"properties":{"osm_id":"7064180299","tag":{"addr:city":"Accra","addr:community":"Nima","amenity":"waste_basket","waste":"trash"}},"type":"Feature"},
	{"geometry":{"coordinates":[-0.196649,5.577931],"type":"Point"},"properties":{"osm_id":"7064180300","tag":{"addr:city":"Accra","addr:community":"Nima","amenity":"waste_disposal","waste":"trash"}},"type":"Feature"},
	{"geometry":{"coordinates":[-0.19732,5.576664],"type":"Point"},"properties":{"osm_id":"7064180302","tag":{"access":"yes","addr:city":"Accra","addr:community":"Nima","addr:suburb":"Kanda","amenity":"waste_basket","toilets:handwashing":"no","waste":"trash"}},"type":"Feature"},
	{"geometry":{"coordinates":[-0.19667,5.578796],"type":"Point"},"properties":{"osm_id":"7064180303","tag":{"addr:city":"Accra","addr:community":"Nima","amenity":"waste_basket","waste":"trash"}},"type":"Feature"},
	{"geometry":{"coordinates":[-0.197078,5.578144],"type":"Point"},"properties":{"osm_id":"7064180305","tag":{"addr:city":"Accra","addr:community":"Nima","addr:street":"Off Kandace Highway","addr:suburb":"Kanda","amenity":"waste_disposal","waste":"trash"}},"type":"Feature"},
	{"geometry":{"coordinates":[-0.197196,5.577162],"type":"Point"},"properties":{"osm_id":"7064180306","tag":{"addr:city":"Accra","addr:community":"Nima","amenity":"waste_disposal","waste":"trash"}},"type":"Feature"},
	{"geometry":{"coordinates":[-0.198225,5.582305],"type":"Point"},"properties":{"osm_id":"7064180309","tag":{"addr:city":"Accra","addr:community":"Nima","amenity":"waste_basket","fee":"no","waste":"trash"}},"type":"Feature"},
	{"geometry":{"coordinates":[-0.196059,5.58831],"type":"Point"},"properties":{"osm_id":"7064180317","tag":{"addr:city":"Accra","addr:community":"Nima","addr:suburb":"Gutter","amenity":"waste_disposal","waste":"trash"}},"type":"Feature"},
	{"geometry":{"coordinates":[-0.192186,5.591],"type":"Point"},"properties":{"osm_id":"7064180325","tag":{"addr:city":"Accra","addr:community":"Nima","addr:suburb":"Alihandu","amenity":"waste_basket","waste":"trash"}},"type":"Feature"},
	{"geometry":{"coordinates":[-0.192808,5.590167],"type":"Point"},"properties":{"osm_id":"7064180326","tag":{"addr:city":"Accra","addr:community":"Nima","addr:suburb":"Baba Alihandu","amenity":"waste_disposal","waste":"trash"}},"type":"Feature"},
	{"geometry":{"coordinates":[-0.193642,5.589719],"type":"Point"},"properties":{"osm_id":"7064180332","tag":{"addr:city":"Accra","addr:community":"Nima","addr:street":"Baba Alihandu","addr:suburb":"Ladidi","amenity":"waste_disposal","waste":"trash"}},"type":"Feature"},
	{"geometry":{"coordinates":[-0.195801,5.58926],"type":"Point"},"properties":{"osm_id":"7064180333","tag":{"addr:city":"Accra","addr:community":"Nima","amenity":"waste_disposal","toilets:disposal":"bucket","waste":"trash"}},"type":"Feature"},
	{"geometry":{"coordinates":[-0.193334,5.589527],"type":"Point"},"properties":{"osm_id":"7064180334","tag":{"addr:city":"Accra","addr:community":"Nima","addr:suburb":"Gutter","amenity":"waste_disposal","waste":"trash"}},"type":"Feature"},
	{"geometry":{"coordinates":[-0.193803,5.589493],"type":"Point"},"properties":{"osm_id":"7064180341","tag":{"addr:city":"Accra","addr:community":"Nima","addr:suburb":"Ladidi","amenity":"waste_basket","waste":"trash"}},"type":"Feature"},
	{"geometry":{"coordinates":[-0.231112,5.562168],"type":"Point"},"properties":{"osm_id":"7089766479","tag":{"amenity":"waste_basket"}},"type":"Feature"},
	{"geometry":{"coordinates":[-0.250337,5.611805],"type":"Point"},"properties":{"osm_id":"7619451028","tag":{"amenity":"waste_disposal"}},"type":"Feature"}
]
}
