{
"type": "FeatureCollection",
"features": [
	{"geometry":{"coordinates":[25.091475,60.473954],"type":"Point"},"properties":{"osm_id":"298102000","tag":{"amenity":"waste_basket"}},"type":"Feature"},
	{"geometry":{"coordinates":[25.100754,60.476516],"type":"Point"},"properties":{"osm_id":"373450177","tag":{"amenity":"recycling","location":"underground","recycling:glass":"yes","recycling:paper":"yes","recycling:scrap_metal":"yes","recycling_type":"container"}},"type":"Feature"},
	{"geometry":{"coordinates":[25.105204,60.480014],"type":"Point"},"properties":{"osm_id":"469877892","tag":{"amenity":"recycling"}},"type":"Feature"},
	{"geometry":{"coordinates":[25.096115,60.472939],"type":"Point"},"properties":{"osm_id":"746671272","tag":{"amenity":"waste_basket"}},"type":"Feature"},
	{"geometry":{"coordinates":[25.101321,60.466703],"type":"Point"},"properties":{"osm_id":"746671274","tag":{"amenity":"waste_basket"}},"type":"Feature"},
	{"geometry":{"coordinates":[25.095667,60.473178],"type":"Point"},"properties":{"osm_id":"746671276","tag":{"amenity":"waste_basket"}},"type":"Feature"},
	{"geometry":{"coordinates":[25.097272,60.472219],"type":"Point"},"properties":{"osm_id":"746671277","tag":{"amenity":"waste_basket"}},"type":"Feature"},
	{"geometry":{"coordinates":[25.095876,60.473159],"type":"Point"},"properties":{"osm_id":"746671279","tag":{"amenity":"waste_basket"}},"type":"Feature"},
	{"geometry":{"coordinates":[25.096568,60.472719],"type":"Point"},"properties":{"osm_id":"746671280","tag":{"amenity":"waste_basket"}},"type":"Feature"},
	{"geometry":{"coordinates":[25.100354,60.47288],"type":"Point"},"properties":{"osm_id":"746671281","tag":{"amenity":"waste_basket"}},"type":"Feature"},
	{"geometry":{"coordinates":[25.10571,60.469804],"type":"Point"},"properties":{"osm_id":"746732087","tag":{"amenity":"waste_basket"}},"type":"Feature"},
	{"geometry":{"coordinates":[25.100464,60.470043],"type":"Point"},"properties":{"osm_id":"746732091","tag":{"amenity":"waste_basket"}},"type":"Feature"},
	{"geometry":{"coordinates":[25.104189,60.470656],"type":"Point"},"properties":{"osm_id":"746732093","tag":{"amenity":"waste_basket"}},"type":"Feature"},
	{"geometry":{"coordinates":[25.100776,60.47119],"type":"Point"},"properties":{"osm_id":"746732094","tag":{"amenity":"waste_basket"}},"type":"Feature"},
	{"geometry":{"coordinates":[25.095655,60.47353],"type":"Point"},"properties":{"osm_id":"746732115","tag":{"amenity":"waste_basket"}},"type":"Feature"},
	{"geometry":{"coordinates":[25.104881,60.470303],"type":"Point"},"properties":{"osm_id":"746732116","tag":{"amenity":"waste_basket"}},"type":"Feature"},
	{"geometry":{"coordinates":[25.095502,60.473619],"type":"Point"},"properties":{"osm_id":"747372665","tag":{"amenity":"waste_basket"}},"type":"Feature"},
	{"geometry":{"coordinates":[25.097774,60.46948],"type":"Point"},"properties":{"osm_id":"747372674","tag":{"amenity":"waste_basket"}},"type":"Feature"},
	{"geometry":{"coordinates":[25.0949,60.468088],"type":"Point"},"properties":{"osm_id":"751909660","tag":{"amenity":"waste_basket"}},"type":"Feature"},
	{"geometry":{"coordinates":[25.107197,60.46486],"type":"Point"},"properties":{"osm_id":"761576183","tag":{"amenity":"waste_basket"}},"type":"Feature"},
	{"geometry":{"coordinates":[25.103379,60.473304],"type":"Point"},"properties":{"osm_id":"761576187","tag":{"amenity":"waste_basket"}},"type":"Feature"},
	{"geometry":{"coordinates":[25.110324,60.465559],"type":"Point"},"properties":{"osm_id":"761576188","tag":{"amenity":"waste_basket"}},"type":"Feature"},
	{"geometry":{"coordinates":[25.104769,60.473335],"type":"Point"},"properties":{"osm_id":"761576189","tag":{"amenity":"waste_basket"}},"type":"Feature"},
	{"geometry":{"coordinates":[25.109365,60.463034],"type":"Point"},"properties":{"osm_id":"763543759","tag":{"amenity":"waste_basket"}},"type":"Feature"},
	{"geometry":{"coordinates":[25.109965,60.464733],"type":"Point"},"properties":{"osm_id":"763543763","tag":{"amenity":"waste_basket"}},"type":"Feature"},
	{"geometry":{"coordinates":[25.106257,60.460705],"type":"Point"},"properties":{"osm_id":"764607369","tag":{"amenity":"waste_basket"}},"type":"Feature"},
	{"geometry":{"coordinates":[25.097923,60.47819],"type":"Point"},"properties":{"osm_id":"765298084","tag":{"amenity":"waste_basket"}},"type":"Feature"},
	{"geometry":{"coordinates":[25.099591,60.476497],"type":"Point"},"properties":{"osm_id":"765298086","tag":{"amenity":"waste_basket"}},"type":"Feature"},
	{"geometry":{"coordinates":[25.100722,60.476975],"type":"Point"},"properties":{"osm_id":"765298105","tag":{"amenity":"waste_basket"}},"type":"Feature"},
	{"geometry":{"coordinates":[25.09169,60.472715],"type":"Point"},"properties":{"osm_id":"773245687","tag":{"amenity":"waste_basket"}},"type":"Feature"},
	{"geometry":{"coordinates":[25.100369,60.462328],"type":"Point"},"properties":{"osm_id":"774947329","tag":{"amenity":"waste_basket"}},"type":"Feature"},
	{"geometry":{"coordinates":[25.100091,60.474787],"type":"Point"},"properties":{"osm_id":"775299941","tag":{"amenity":"waste_basket"}},"type":"Feature"},
	{"geometry":{"coordinates":[25.102799,60.476163],"type":"Point"},"properties":{"osm_id":"775299956","tag":{"amenity":"waste_basket"}},"type":"Feature"},
	{"geometry":{"coordinates":[25.066556,60.492663],"type":"Point"},"properties":{"osm_id":"814939661","tag":{"amenity":"recycling"}},"type":"Feature"},
	{"geometry":{"coordinates":[25.08872,60.493086],"type":"Point"},"properties":{"name":"glass recycle","osm_id":"1646503716","tag":{"amenity":"recycling","recycling:batteries":"no","recycling:books":"no","recycling:glass":"yes","recycling:glass_bottles":"yes","recycling_type":"container"}},"type":"Feature"},
	{"geometry":{"coordinates":[25.086273,60.47922],"type":"Point"},"properties":{"osm_id":"1689009428","tag":{"amenity":"recycling","recycling:glass":"yes","recycling:scrap_metal":"yes"}},"type":"Feature"},
	{"geometry":{"coordinates":[25.091685,60.473879],"type":"Point"},"properties":{"osm_id":"1792161175","tag":{"amenity":"waste_basket"}},"type":"Feature"},
	{"geometry":{"coordinates":[25.090851,60.474341],"type":"Point"},"properties":{"osm_id":"1792161176","tag":{"amenity":"waste_basket"}},"type":"Feature"},
	{"geometry":{"coordinates":[25.081231,60.480588],"type":"Point"},"properties":{"osm_id":"1792161177","tag":{"amenity":"waste_basket"}},"type":"Feature"},
	{"geometry":{"coordinates":[25.079878,60.495289],"type":"Point"},"properties":{"osm_id":"1809558281","tag":{"amenity":"recycling","recycling:paper":"yes"}},"type":"Feature"},
	{"geometry":{"coordinates":[25.066487,60.487513],"type":"Point"},"properties":{"osm_id":"6277221320","tag":{"amenity":"recycling","recycling:cardboard":"yes","recycling:clothes":"yes","recycling:glass":"yes","recycling:paper":"yes","recycling:plastic":"yes","recycling:scrap_metal":"yes","recycling_type":"container"}},"type":"Feature"},
	{"geometry":{"coordinates":[25.094175,60.470604],"type":"Point"},"properties":{"name":"Pointti kierr\u00c3\u00a4tystori","osm_id":"7450525374","tag":{"amenity":"recycling","operator":"Ammattiopisto Spesia","recycling_type":"centre"}},"type":"Feature"},
	{"geometry":{"coordinates":[25.085148,60.465768],"type":"Point"},"properties":{"osm_id":"7612507517","tag":{"amenity":"waste_basket"}},"type":"Feature"},
	{"geometry":{"coordinates":[25.085007,60.465788],"type":"Point"},"properties":{"osm_id":"7612507518","tag":{"amenity":"waste_basket"}},"type":"Feature"},
	{"geometry":{"coordinates":[25.084836,60.465977],"type":"Point"},"properties":{"osm_id":"7612507519","tag":{"amenity":"waste_basket"}},"type":"Feature"},
	{"geometry":{"coordinates":[25.084918,60.465995],"type":"Point"},"properties":{"osm_id":"7612507520","tag":{"amenity":"waste_basket"}},"type":"Feature"},
	{"geometry":{"coordinates":[25.084084,60.46593],"type":"Point"},"properties":{"osm_id":"7612507521","tag":{"amenity":"waste_basket"}},"type":"Feature"},
	{"geometry":{"coordinates":[25.083871,60.465993],"type":"Point"},"properties":{"osm_id":"7612507522","tag":{"amenity":"waste_basket"}},"type":"Feature"}
]
}
