{
"type": "FeatureCollection",
"features": [
	{"geometry":{"coordinates":[25.070046,60.43832],"type":"Point"},"properties":{"osm_id":"293202133","tag":{"amenity":"recycling","recycling:glass":"yes","recycling:metal":"yes","recycling:paper":"yes"}},"type":"Feature"},
	{"geometry":{"coordinates":[25.079666,60.453787],"type":"Point"},"properties":{"osm_id":"419020649","tag":{"amenity":"waste_basket"}},"type":"Feature"},
	{"geometry":{"coordinates":[25.078504,60.4542],"type":"Point"},"properties":{"osm_id":"419030045","tag":{"amenity":"waste_basket"}},"type":"Feature"},
	{"geometry":{"coordinates":[25.049646,60.414626],"type":"Point"},"properties":{"osm_id":"849916836","tag":{"amenity":"recycling","operator":"UFF","recycling:clothes":"yes"}},"type":"Feature"},
	{"geometry":{"coordinates":[25.049499,60.414536],"type":"Point"},"properties":{"osm_id":"849917044","tag":{"amenity":"recycling"}},"type":"Feature"},
	{"geometry":{"coordinates":[25.049571,60.414583],"type":"Point"},"properties":{"osm_id":"849917448","tag":{"amenity":"waste_basket"}},"type":"Feature"},
	{"geometry":{"coordinates":[25.086391,60.416104],"type":"Point"},"properties":{"osm_id":"1577485091","tag":{"amenity":"recycling"}},"type":"Feature"},
	{"geometry":{"coordinates":[25.115421,60.422395],"type":"Point"},"properties":{"osm_id":"1792077825","tag":{"amenity":"waste_basket"}},"type":"Feature"},
	{"geometry":{"coordinates":[25.134808,60.414322],"type":"Point"},"properties":{"osm_id":"7683030683","tag":{"amenity":"recycling","recycling_type":"container"}},"type":"Feature"}
]
}
