{
"type": "FeatureCollection",
"features": [
	{"geometry":{"coordinates":[25.083426,60.378477],"type":"Point"},"properties":{"osm_id":"257524833","tag":{"amenity":"recycling","location":"overground","recycling:cans":"yes","recycling:clothes":"yes","recycling:glass_bottles":"yes","recycling:paper":"yes","recycling:plastic":"yes","recycling:scrap_metal":"yes","recycling:shoes":"yes","recycling_type":"container"}},"type":"Feature"},
	{"geometry":{"coordinates":[25.086468,60.389234],"type":"Point"},"properties":{"osm_id":"266694837","tag":{"amenity":"recycling","location":"underground","recycling:paper":"yes","recycling_type":"container"}},"type":"Feature"},
	{"geometry":{"coordinates":[25.106115,60.37175],"type":"Point"},"properties":{"is_in":"Kerava","name":"Keravan pienkierr\u00c3\u00a4tysasema","osm_id":"337943951","tag":{"addr:city":"Kerava","addr:country":"FI","addr:housenumber":"59","addr:postcode":"04260","addr:street":"Karhuntassuntie","amenity":"recycling","fee":"yes","opening_hours":"We 06:00-21:00; Sa 09:00-16:00","operator":"Lassila&Tikanoja","recycling:cables":"yes","recycling:cans":"yes","recycling:cardboard":"yes","recycling:clothes":"yes","recycling:glass":"yes","recycling:paper":"yes","recycling:plastic":"yes","recycling:scrap_metal":"yes","recycling:tyres":"yes","recycling:wood":"yes","url":"http://www.lassila-tikanoja.fi/fi/PalvelutJaTuotteet/Palvelukokonaisuudet/Yksityisasiakkaat/Sivut/Pienkierratysasemat.aspx"}},"type":"Feature"},
	{"geometry":{"coordinates":[25.048862,60.405732],"type":"Point"},"properties":{"osm_id":"439690901","tag":{"addr:city":"Tuusula","addr:country":"FI","addr:postcode":"04310","addr:street":"Saviriihenaukio","amenity":"recycling","recycling:paper":"yes"}},"type":"Feature"},
	{"geometry":{"coordinates":[25.088462,60.382818],"type":"Point"},"properties":{"osm_id":"559765189","tag":{"amenity":"recycling","location":"overground","recycling:clothes":"yes","recycling:paper":"yes","recycling:shoes":"yes","recycling_type":"container"}},"type":"Feature"},
	{"geometry":{"coordinates":[25.072131,60.408661],"type":"Point"},"properties":{"osm_id":"684045657","tag":{"amenity":"recycling","recycling:paper":"yes"}},"type":"Feature"},
	{"geometry":{"coordinates":[25.095819,60.410627],"type":"Point"},"properties":{"osm_id":"702778324","tag":{"amenity":"recycling","recycling:glass":"yes","recycling:paper":"yes","recycling:scrap_metal":"yes"}},"type":"Feature"},
	{"geometry":{"coordinates":[25.093447,60.402246],"type":"Point"},"properties":{"osm_id":"741423959","tag":{"amenity":"recycling","location":"overground","operator":"UFF","recycling:clothes":"yes","recycling_type":"container"}},"type":"Feature"},
	{"geometry":{"coordinates":[25.098393,60.403717],"type":"Point"},"properties":{"osm_id":"741455076","tag":{"amenity":"waste_basket"}},"type":"Feature"},
	{"geometry":{"coordinates":[25.09868,60.403718],"type":"Point"},"properties":{"osm_id":"741455137","tag":{"amenity":"waste_basket"}},"type":"Feature"},
	{"geometry":{"coordinates":[25.103769,60.413724],"type":"Point"},"properties":{"osm_id":"765059363","tag":{"amenity":"waste_basket"}},"type":"Feature"},
	{"geometry":{"coordinates":[25.069221,60.372456],"type":"Point"},"properties":{"is_in":"Tuusula, Finland","osm_id":"798286119","tag":{"addr:city":"Tuusula","addr:country":"FI","addr:street":"V\u00c3\u00a4h\u00c3\u00a4muorintie","amenity":"recycling","contact:phone":"+358 400 704465","operator":"Ker\u00c3\u00a4yspaperi Pitk\u00c3\u00a4nen Ky"}},"type":"Feature"},
	{"geometry":{"coordinates":[25.112224,60.395271],"type":"Point"},"properties":{"osm_id":"804214653","tag":{"amenity":"recycling","location":"overground","recycling:glass":"yes","recycling:paper":"yes","recycling:scrap_metal":"yes","recycling_type":"container"}},"type":"Feature"},
	{"geometry":{"coordinates":[25.102969,60.402077],"type":"Point"},"properties":{"osm_id":"832467456","tag":{"amenity":"waste_basket"}},"type":"Feature"},
	{"geometry":{"coordinates":[25.103319,60.402136],"type":"Point"},"properties":{"osm_id":"832467821","tag":{"amenity":"waste_basket"}},"type":"Feature"},
	{"geometry":{"coordinates":[25.102835,60.402347],"type":"Point"},"properties":{"osm_id":"832468182","tag":{"amenity":"waste_basket"}},"type":"Feature"},
	{"geometry":{"coordinates":[25.102743,60.402521],"type":"Point"},"properties":{"osm_id":"832474649","tag":{"amenity":"waste_basket"}},"type":"Feature"},
	{"geometry":{"coordinates":[25.102441,60.402151],"type":"Point"},"properties":{"osm_id":"832476242","tag":{"amenity":"waste_basket"}},"type":"Feature"},
	{"geometry":{"coordinates":[25.102951,60.40242],"type":"Point"},"properties":{"osm_id":"832481338","tag":{"amenity":"waste_basket"}},"type":"Feature"},
	{"geometry":{"coordinates":[25.101203,60.402504],"type":"Point"},"properties":{"osm_id":"832483090","tag":{"amenity":"recycling","location":"underground","recycling_type":"container"}},"type":"Feature"},
	{"geometry":{"coordinates":[25.088645,60.399277],"type":"Point"},"properties":{"osm_id":"942065778","tag":{"amenity":"recycling","operator":"Kiertokapula Oy","recycling:glass":"yes","recycling:paper":"yes","recycling:scrap_metal":"yes"}},"type":"Feature"},
	{"geometry":{"coordinates":[25.088677,60.399257],"type":"Point"},"properties":{"osm_id":"942065779","tag":{"amenity":"waste_basket"}},"type":"Feature"},
	{"geometry":{"coordinates":[25.102852,60.399351],"type":"Point"},"properties":{"osm_id":"943128055","tag":{"amenity":"waste_basket"}},"type":"Feature"},
	{"geometry":{"coordinates":[25.102741,60.399351],"type":"Point"},"properties":{"osm_id":"943128057","tag":{"addr:housenumber":"2","addr:postcode":"04200","addr:street":"Nikonkatu","amenity":"recycling","operator":"Kiertokapula Oy","recycling:glass":"yes","recycling:paper":"yes","recycling:scrap_metal":"yes"}},"type":"Feature"},
	{"geometry":{"coordinates":[25.097541,60.40447],"type":"Point"},"properties":{"osm_id":"943128059","tag":{"amenity":"recycling","operator":"Paperinkerays Oy","recycling:cardboard":"yes","recycling:paper":"yes"}},"type":"Feature"},
	{"geometry":{"coordinates":[25.097579,60.404507],"type":"Point"},"properties":{"osm_id":"943128060","tag":{"amenity":"recycling","operator":"UFF","recycling:clothes":"yes"}},"type":"Feature"},
	{"geometry":{"coordinates":[25.112262,60.395299],"type":"Point"},"properties":{"osm_id":"1321567551","tag":{"amenity":"waste_basket"}},"type":"Feature"},
	{"geometry":{"coordinates":[25.109836,60.403334],"type":"Point"},"properties":{"osm_id":"1322242237","tag":{"addr:city":"Kerava","addr:country":"FI","addr:housenumber":"2","addr:postcode":"04250","addr:street":"Lintulammenkatu","amenity":"recycling","operator":"UFF","recycling:clothes":"yes"}},"type":"Feature"},
	{"geometry":{"coordinates":[25.089681,60.409344],"type":"Point"},"properties":{"osm_id":"1324714107","tag":{"amenity":"recycling","recycling:glass":"yes","recycling:paper":"yes","recycling:scrap_metal":"yes"}},"type":"Feature"},
	{"geometry":{"coordinates":[25.082576,60.412623],"type":"Point"},"properties":{"osm_id":"1325217019","tag":{"amenity":"recycling","location":"overground","recycling:glass":"no","recycling:glass_bottles":"yes","recycling:paper":"yes","recycling:scrap_metal":"yes","recycling_type":"container"}},"type":"Feature"},
	{"geometry":{"coordinates":[25.05629,60.382506],"type":"Point"},"properties":{"name":"Lassila & Tikanoja Ongelmaj\u00c3\u00a4tehuolto","osm_id":"1337693856","tag":{"amenity":"recycling"}},"type":"Feature"},
	{"geometry":{"coordinates":[25.089142,60.393936],"type":"Point"},"properties":{"osm_id":"1434180842","tag":{"amenity":"waste_basket","check_date":"2021-06-17"}},"type":"Feature"},
	{"geometry":{"coordinates":[25.088714,60.392369],"type":"Point"},"properties":{"osm_id":"1434180846","tag":{"amenity":"waste_basket","check_date":"2021-04-07"}},"type":"Feature"},
	{"geometry":{"coordinates":[25.090686,60.396223],"type":"Point"},"properties":{"osm_id":"2327871998","tag":{"amenity":"waste_basket"}},"type":"Feature"},
	{"geometry":{"coordinates":[25.090593,60.396401],"type":"Point"},"properties":{"osm_id":"2327872000","tag":{"amenity":"waste_basket"}},"type":"Feature"},
	{"geometry":{"coordinates":[25.074276,60.396583],"type":"Point"},"properties":{"osm_id":"2714681662","tag":{"amenity":"recycling","recycling:paper":"yes"}},"type":"Feature"},
	{"geometry":{"coordinates":[25.096166,60.39218],"type":"Point"},"properties":{"osm_id":"7629839823","tag":{"amenity":"waste_basket"}},"type":"Feature"},
	{"geometry":{"coordinates":[25.098316,60.392965],"type":"Point"},"properties":{"osm_id":"7629839829","tag":{"amenity":"recycling","indoor":"no","opening_hours":"24/7","operator":"Rinki","recycling:cardboard":"yes","recycling:glass":"yes","recycling:plastic":"yes","recycling_type":"container"}},"type":"Feature"},
	{"geometry":{"coordinates":[25.1012,60.412456],"type":"Point"},"properties":{"osm_id":"8284247877","tag":{"amenity":"waste_basket"}},"type":"Feature"},
	{"geometry":{"coordinates":[25.096975,60.413498],"type":"Point"},"properties":{"osm_id":"8284250037","tag":{"amenity":"waste_basket"}},"type":"Feature"},
	{"geometry":{"coordinates":[25.09696,60.413553],"type":"Point"},"properties":{"osm_id":"8284250038","tag":{"amenity":"waste_basket"}},"type":"Feature"},
	{"geometry":{"coordinates":[25.097622,60.413421],"type":"Point"},"properties":{"osm_id":"8585008454","tag":{"amenity":"recycling","private":"residents","recycling:green_waste":"yes","waste":"trash;mixed;glass;plastic;organic;metal"}},"type":"Feature"}
]
}
