{
"type": "FeatureCollection",
"features": [
	{"geometry":{"coordinates":[25.113238,60.347471],"type":"Point"},"properties":{"osm_id":"334370015","tag":{"addr:city":"Vantaa","addr:country":"FI","addr:housenumber":"18","addr:postcode":"01480","addr:street":"Sorvatie","amenity":"recycling","operator":"HSY","recycling:paper":"yes"}},"type":"Feature"},
	{"geometry":{"coordinates":[25.098425,60.343963],"type":"Point"},"properties":{"name":"Hy\u00c3\u00b6tyj\u00c3\u00a4tteen ker\u00c3\u00a4ys, Mikkola","osm_id":"336371256","tag":{"addr:city":"Vantaa","addr:country":"FI","addr:postcode":"01480","addr:street":"Venuksenkuja","amenity":"recycling","name:fi":"Alueker\u00c3\u00a4yspiste, Mikkola","name:sv":"Regional insamlingsplats, Mikkola","operator":"HSY","recycling:batteries":"no","recycling:cans":"yes","recycling:cardboard":"yes","recycling:clothes":"yes","recycling:glass":"yes","recycling:paper":"yes","recycling:plastic_bags":"yes","recycling:scrap_metal":"yes","recycling_type":"container"}},"type":"Feature"},
	{"geometry":{"coordinates":[25.100966,60.344662],"type":"Point"},"properties":{"osm_id":"339204863","tag":{"addr:city":"Vantaa","addr:country":"FI","addr:postcode":"01480","addr:street":"Vuohipolku","amenity":"recycling","operator":"HSY","recycling:paper":"yes"}},"type":"Feature"},
	{"geometry":{"coordinates":[25.08528,60.352906],"type":"Point"},"properties":{"osm_id":"339696223","tag":{"addr:city":"Vantaa","addr:country":"FI","addr:postcode":"01450","addr:street":"Lehtolantie","amenity":"recycling","operator":"YTV","recycling:paper":"yes"}},"type":"Feature"},
	{"geometry":{"coordinates":[25.073569,60.330871],"type":"Point"},"properties":{"name":"Alueker\u00c3\u00a4yspiste, Rekola","osm_id":"340480657","tag":{"addr:city":"Vantaa","addr:country":"FI","addr:housenumber":"53-55","addr:postcode":"01400","addr:street":"Rekolantie","amenity":"recycling","name:fi":"Alueker\u00c3\u00a4yspiste, Rekola","name:sv":"Regional insamlingsplats, R\u00c3\u00a4ckhals","operator":"HSY","recycling:batteries":"no","recycling:cans":"yes","recycling:clothes":"yes","recycling:glass":"yes","recycling:paper":"yes","recycling:plastic_bags":"yes","recycling:scrap_metal":"yes"}},"type":"Feature"},
	{"geometry":{"coordinates":[25.100309,60.344],"type":"Point"},"properties":{"osm_id":"341314437","tag":{"addr:city":"Vantaa","addr:country":"FI","addr:housenumber":"4","addr:postcode":"01480","addr:street":"Venuksenkuja","amenity":"recycling","operator":"HSY","recycling:batteries":"yes","recycling:engine_oil":"yes","recycling:lead":"yes","recycling:mercury":"yes","recycling:paint":"yes"}},"type":"Feature"},
	{"geometry":{"coordinates":[25.118092,60.345158],"type":"Point"},"properties":{"osm_id":"343409383","tag":{"addr:city":"Vantaa","addr:country":"FI","addr:housenumber":"2","addr:postcode":"01480","addr:street":"Sorvatie","amenity":"recycling","operator":"HSY","recycling:paper":"yes"}},"type":"Feature"},
	{"geometry":{"coordinates":[25.092546,60.350475],"type":"Point"},"properties":{"osm_id":"344784828","tag":{"addr:city":"Vantaa","addr:country":"FI","addr:housenumber":"13","addr:postcode":"01450","addr:street":"Majavatie","amenity":"recycling","operator":"HSY","recycling:paper":"yes","recycling_type":"container"}},"type":"Feature"},
	{"geometry":{"coordinates":[25.082598,60.346712],"type":"Point"},"properties":{"osm_id":"357225322","tag":{"addr:city":"Vantaa","addr:country":"FI","addr:street":"Minkkitie","amenity":"recycling","operator":"HSY","recycling:batteries":"yes","recycling:engine_oil":"yes","recycling:lead":"yes","recycling:mercury":"yes","recycling:paint":"yes","recycling_type":"container"}},"type":"Feature"},
	{"geometry":{"coordinates":[25.074237,60.348528],"type":"Point"},"properties":{"osm_id":"370495469","tag":{"amenity":"recycling","operator":"YTV","recycling:cardboard":"yes","recycling:paper":"yes"}},"type":"Feature"},
	{"geometry":{"coordinates":[25.131714,60.33725],"type":"Point"},"properties":{"osm_id":"374125318","tag":{"addr:city":"Vantaa","addr:country":"FI","addr:housenumber":"14","addr:postcode":"01490","addr:street":"Muurahaisenreitti","amenity":"recycling","operator":"YTV","recycling:cans":"no","recycling:clothes":"no","recycling:glass":"no","recycling:glass_bottles":"no","recycling:paper":"yes","recycling:plastic":"no","recycling_type":"container"}},"type":"Feature"},
	{"geometry":{"coordinates":[25.08998,60.345791],"type":"Point"},"properties":{"osm_id":"382954948","tag":{"amenity":"recycling","operator":"UFF;HSY","recycling:clothes":"yes","recycling:glass":"yes","recycling:paper":"no","recycling_type":"container"}},"type":"Feature"},
	{"geometry":{"coordinates":[25.125228,60.336052],"type":"Point"},"properties":{"osm_id":"389079910","tag":{"amenity":"recycling","operator":"YTV","recycling:paper":"yes"}},"type":"Feature"},
	{"geometry":{"coordinates":[25.097311,60.359391],"type":"Point"},"properties":{"osm_id":"391295996","tag":{"addr:city":"Vantaa","addr:country":"FI","addr:housenumber":"1","addr:postcode":"01450","addr:street":"Peuratie","amenity":"recycling","operator":"HSY","recycling:paper":"yes","recycling_type":"container"}},"type":"Feature"},
	{"geometry":{"coordinates":[25.078317,60.349857],"type":"Point"},"properties":{"osm_id":"409163816","tag":{"addr:city":"Vantaa","addr:country":"FI","addr:housenumber":"4","addr:postcode":"01450","addr:street":"Minkkikuja","amenity":"recycling","operator":"UFF","recycling:clothes":"yes"}},"type":"Feature"},
	{"geometry":{"coordinates":[25.078135,60.342361],"type":"Point"},"properties":{"osm_id":"409816807","tag":{"amenity":"recycling","operator":"HSY","recycling:paper":"yes","recycling_type":"container"}},"type":"Feature"},
	{"geometry":{"coordinates":[25.07996,60.329738],"type":"Point"},"properties":{"osm_id":"409832229","tag":{"amenity":"recycling","operator":"YTV","recycling:paper":"yes"}},"type":"Feature"},
	{"geometry":{"coordinates":[25.119172,60.344603],"type":"Point"},"properties":{"osm_id":"412560649","tag":{"amenity":"recycling","operator":"YTV","recycling:paper":"yes"}},"type":"Feature"},
	{"geometry":{"coordinates":[25.106138,60.359946],"type":"Point"},"properties":{"highway":"bus_stop","name":"Harmaahylkeentie","osm_id":"412972275","ref":"V8403","tag":{"amenity":"waste_basket","name:fi":"Harmaahylkeentie","name:sv":"Gr\u00c3\u00a5s\u00c3\u00a4lsv\u00c3\u00a4gen","shelter":"no","website":"http://aikataulut.reittiopas.fi/pysakit/fi/4840203.html"}},"type":"Feature"},
	{"geometry":{"coordinates":[25.127727,60.350693],"type":"Point"},"properties":{"osm_id":"414713835","tag":{"amenity":"recycling","recycling:cardboard":"yes","recycling:paper":"yes"}},"type":"Feature"},
	{"geometry":{"coordinates":[25.090407,60.356229],"type":"Point"},"properties":{"osm_id":"416049036","tag":{"addr:city":"Vantaa","addr:country":"FI","addr:postcode":"01450","addr:street":"Villisiantie","amenity":"recycling","operator":"HSY","recycling:paper":"yes","recycling_type":"container"}},"type":"Feature"},
	{"geometry":{"coordinates":[25.079614,60.358342],"type":"Point"},"properties":{"name":"Alueker\u00c3\u00a4yspiste, Korso-Lepp\u00c3\u00a4korpi","osm_id":"416049049","tag":{"addr:city":"Vantaa","addr:country":"FI","addr:postcode":"01450","addr:street":"Urpiaisentie","amenity":"recycling","name:fi":"Alueker\u00c3\u00a4yspiste, Korso-Lepp\u00c3\u00a4korpi","name:sv":"Regional insamlingsplats, Korso-Alk\u00c3\u00a4rr","operator":"HSY","recycling:batteries":"no","recycling:cans":"yes","recycling:cardboard":"yes","recycling:clothes":"yes","recycling:glass":"yes","recycling:paper":"yes","recycling:plastic_bags":"yes","recycling:scrap_metal":"yes"}},"type":"Feature"},
	{"geometry":{"coordinates":[25.133285,60.345072],"type":"Point"},"properties":{"osm_id":"416855375","tag":{"addr:city":"Vantaa","addr:country":"FI","addr:housenumber":"27","addr:postcode":"01490","addr:street":"Perhotie","amenity":"recycling","operator":"YTV;UFF","recycling:clothes":"yes","recycling:paper":"yes"}},"type":"Feature"},
	{"geometry":{"coordinates":[25.098008,60.35848],"type":"Point"},"properties":{"osm_id":"416973902","tag":{"addr:city":"Vantaa","addr:country":"FI","addr:housenumber":"6","addr:postcode":"01450","addr:street":"Peuratie","amenity":"recycling","operator":"Paperinker\u00c3\u00a4ys Oy","recycling:paper":"yes","recycling_type":"container"}},"type":"Feature"},
	{"geometry":{"coordinates":[25.092158,60.352816],"type":"Point"},"properties":{"osm_id":"429158725","tag":{"addr:city":"Vantaa","addr:country":"FI","addr:housenumber":"2a","addr:postcode":"01450","addr:street":"Majavatie","amenity":"recycling","operator":"Paperinker\u00c3\u00a4ys Oy","recycling:paper":"yes","recycling_type":"container"}},"type":"Feature"},
	{"geometry":{"coordinates":[25.096533,60.341104],"type":"Point"},"properties":{"osm_id":"432505518","tag":{"addr:city":"Vantaa","addr:country":"FI","addr:housenumber":"4","addr:postcode":"01480","addr:street":"Venuksentie","amenity":"recycling","operator":"HSY","recycling:glass":"yes","recycling_type":"container"}},"type":"Feature"},
	{"geometry":{"coordinates":[25.105179,60.359759],"type":"Point"},"properties":{"osm_id":"432509589","tag":{"amenity":"recycling","operator":"HSY; Paperinker\u00c3\u00a4ys Oy","recycling:paper":"yes","recycling_type":"container"}},"type":"Feature"},
	{"geometry":{"coordinates":[25.08377,60.34131],"type":"Point"},"properties":{"osm_id":"433031412","tag":{"amenity":"recycling","operator":"HSY","recycling:paper":"yes","recycling_type":"container"}},"type":"Feature"},
	{"geometry":{"coordinates":[25.083184,60.34553],"type":"Point"},"properties":{"osm_id":"443443217","tag":{"addr:city":"Vantaa","addr:country":"FI","addr:postcode":"01450","addr:street":"Siriuksenpolku","amenity":"recycling","operator":"Paperinker\u00c3\u00a4ys Oy","recycling:paper":"yes","recycling_type":"container"}},"type":"Feature"},
	{"geometry":{"coordinates":[25.10444,60.359993],"type":"Point"},"properties":{"highway":"bus_stop","name":"Harmaahylkeentie","osm_id":"448618995","ref":"V8419","tag":{"addr:city":"Vantaa","addr:country":"FI","addr:street":"Lepp\u00c3\u00a4korventie","amenity":"waste_basket","name:fi":"Harmaahylkeentie","name:sv":"Gr\u00c3\u00a5s\u00c3\u00a4lsv\u00c3\u00a4gen","shelter":"yes","website":"http://aikataulut.reittiopas.fi/pysakit/fi/4840219.html"}},"type":"Feature"},
	{"geometry":{"coordinates":[25.091313,60.360769],"type":"Point"},"properties":{"osm_id":"448619067","tag":{"addr:city":"Vantaa","addr:country":"FI","addr:postcode":"01450","addr:street":"Kontiotie","amenity":"recycling","operator":"YTV","recycling:glass":"yes","recycling:paper":"yes"}},"type":"Feature"},
	{"geometry":{"coordinates":[25.094186,60.362497],"type":"Point"},"properties":{"osm_id":"448619072","tag":{"addr:city":"Vantaa","addr:country":"FI","addr:postcode":"01450","addr:street":"Kontiotie","amenity":"recycling","operator":"HSY","recycling:paper":"yes"}},"type":"Feature"},
	{"geometry":{"coordinates":[25.049669,60.355148],"type":"Point"},"properties":{"osm_id":"466194391","tag":{"addr:city":"Vantaa","addr:country":"FI","addr:housenumber":"2","addr:postcode":"01450","addr:street":"Riskil\u00c3\u00a4kuja","amenity":"recycling","operator":"YTV","recycling:paper":"yes"}},"type":"Feature"},
	{"geometry":{"coordinates":[25.049605,60.354601],"type":"Point"},"properties":{"osm_id":"466194395","tag":{"addr:city":"Vantaa","addr:country":"FI","addr:housenumber":"2 A","addr:postcode":"01450","addr:street":"Riskil\u00c3\u00a4kuja","amenity":"recycling","operator":"UFF;YTV","recycling:clothes":"yes","recycling:glass":"yes"}},"type":"Feature"},
	{"geometry":{"coordinates":[25.086942,60.360831],"type":"Point"},"properties":{"name":"Paperinker\u00c3\u00a4ys, K\u00c3\u00a4rpp\u00c3\u00a4puisto","osm_id":"622380559","tag":{"addr:city":"Vantaa","addr:country":"FI","addr:postcode":"01450","addr:street":"J\u00c3\u00a4n\u00c3\u00b6tie","amenity":"recycling","name:en":"Paper collection, K\u00c3\u00a4rpp\u00c3\u00a4puisto","name:fi":"Paperinker\u00c3\u00a4ys, K\u00c3\u00a4rpp\u00c3\u00a4puisto","name:sv":"Papperinsamling, Hermelinparken","operator":"HSY","recycling:paper":"yes"}},"type":"Feature"},
	{"geometry":{"coordinates":[25.054062,60.336695],"type":"Point"},"properties":{"osm_id":"647087628","tag":{"amenity":"waste_basket"}},"type":"Feature"},
	{"geometry":{"coordinates":[25.096191,60.346592],"type":"Point"},"properties":{"osm_id":"649115339","tag":{"addr:city":"Vantaa","addr:country":"FI","addr:postcode":"01480","addr:street":"Kauriintie","amenity":"recycling","operator":"HSY","recycling:paper":"yes","recycling_type":"container"}},"type":"Feature"},
	{"geometry":{"coordinates":[25.116242,60.343497],"type":"Point"},"properties":{"osm_id":"704685384","tag":{"addr:city":"Vantaa","addr:country":"FI","addr:postcode":"01480","addr:street":"Kotilokuja","amenity":"recycling","location":"overground","operator":"HSY","recycling:paper":"yes","recycling_type":"container"}},"type":"Feature"},
	{"geometry":{"coordinates":[25.057005,60.358052],"type":"Point"},"properties":{"osm_id":"799345177","tag":{"addr:city":"Vantaa","addr:country":"FI","addr:housenumber":"16","addr:postcode":"01450","addr:street":"Lehmustontie","amenity":"recycling","recycling:paper":"yes"}},"type":"Feature"},
	{"geometry":{"coordinates":[25.118322,60.365612],"type":"Point"},"properties":{"osm_id":"843917704","tag":{"amenity":"waste_basket"}},"type":"Feature"},
	{"geometry":{"coordinates":[25.081791,60.338983],"type":"Point"},"properties":{"osm_id":"1310990204","tag":{"addr:city":"Vantaa","addr:country":"FI","addr:postcode":"01400","addr:street":"Tervahaudantie","amenity":"recycling","operator":"HSY","recycling:paper":"yes","recycling_type":"container"}},"type":"Feature"},
	{"geometry":{"coordinates":[25.129214,60.358648],"type":"Point"},"properties":{"osm_id":"1510258107","tag":{"amenity":"recycling","operator":"HSL","recycling:paper":"yes"}},"type":"Feature"},
	{"geometry":{"coordinates":[25.118093,60.345163],"type":"Point"},"properties":{"osm_id":"1542387442","tag":{"amenity":"recycling"}},"type":"Feature"},
	{"geometry":{"coordinates":[25.134528,60.35723],"type":"Point"},"properties":{"osm_id":"1579610209","tag":{"addr:city":"Vantaa","addr:country":"FI","addr:postcode":"01490","addr:street":"Pitk\u00c3\u00a4siima","amenity":"recycling","operator":"HSL","recycling:paper":"yes"}},"type":"Feature"},
	{"geometry":{"coordinates":[25.057912,60.346677],"type":"Point"},"properties":{"osm_id":"1588581594","tag":{"addr:city":"Vantaa","addr:country":"FI","addr:postcode":"01450","addr:street":"Kulorastaantie","amenity":"recycling","operator":"HSY","recycling:paper":"yes"}},"type":"Feature"},
	{"geometry":{"coordinates":[25.133721,60.345954],"type":"Point"},"properties":{"osm_id":"2600009055","tag":{"amenity":"recycling","recycling:cans":"yes","recycling:cardboard":"yes","recycling:clothes":"no","recycling:glass":"yes","recycling:paper":"yes","recycling:plastic":"yes"}},"type":"Feature"},
	{"geometry":{"coordinates":[25.075952,60.353232],"type":"Point"},"properties":{"name":"Vaateker\u00c3\u00a4ys","osm_id":"5922925511","tag":{"amenity":"recycling","description":"Clothes","recycling:clothes":"yes","recycling_type":"container"}},"type":"Feature"},
	{"geometry":{"coordinates":[25.096013,60.327812],"type":"Point"},"properties":{"osm_id":"7701718138","tag":{"amenity":"recycling","recycling:clothes":"yes","recycling_type":"container"}},"type":"Feature"}
]
}
