{
"type": "FeatureCollection",
"features": [
	{"geometry":{"coordinates":[25.055303,60.322846],"type":"Point"},"properties":{"name":"Alueker\u00c3\u00a4yspiste, Koivukyl\u00c3\u00a4","osm_id":"356766830","tag":{"amenity":"recycling","name:fi":"Alueker\u00c3\u00a4yspiste, Koivukyl\u00c3\u00a4","name:sv":"Regional insamlingsplats, Bj\u00c3\u00b6rkby","operator":"HSY","recycling:batteries":"no","recycling:cans":"yes","recycling:cardboard":"yes","recycling:clothes":"yes","recycling:glass":"yes","recycling:paper":"yes","recycling:plastic_bags":"yes","recycling:scrap_metal":"yes"}},"type":"Feature"},
	{"geometry":{"coordinates":[25.067025,60.295286],"type":"Point"},"properties":{"highway":"bus_stop","name":"Kunnaantie","osm_id":"426926219","ref":"V6698","tag":{"amenity":"waste_basket","name:fi":"Kunnaantie","name:sv":"Stenkullav\u00c3\u00a4gen","shelter":"yes","waste_basket":"yes"}},"type":"Feature"},
	{"geometry":{"coordinates":[25.068561,60.294999],"type":"Point"},"properties":{"osm_id":"429425652","tag":{"addr:city":"Vantaa","addr:country":"FI","addr:street":"Kunnaantie","amenity":"recycling","recycling:paper":"yes"}},"type":"Feature"},
	{"geometry":{"coordinates":[25.053764,60.298957],"type":"Point"},"properties":{"name":"Alueker\u00c3\u00a4yspiste, Jokiniemi","osm_id":"519229132","tag":{"addr:city":"Vantaa","addr:country":"FI","addr:housenumber":"49","addr:postcode":"01370","addr:street":"Valkoisenl\u00c3\u00a4hteentie","amenity":"recycling","name:fi":"Alueker\u00c3\u00a4yspiste, Jokiniemi","name:sv":"Regional insamlingsplats, \u00c3\u0085n\u00c3\u00a4s","operator":"HSY","recycling:batteries":"no","recycling:cans":"yes","recycling:cardboard":"yes","recycling:clothes":"yes","recycling:glass":"yes","recycling:paper":"yes","recycling:plastic_bags":"yes"}},"type":"Feature"},
	{"geometry":{"coordinates":[25.057502,60.299838],"type":"Point"},"properties":{"osm_id":"519687266","tag":{"amenity":"recycling","recycling:paper":"yes"}},"type":"Feature"},
	{"geometry":{"coordinates":[25.062594,60.324189],"type":"Point"},"properties":{"name":"Alueker\u00c3\u00a4yspiste, Rautkallio","osm_id":"564307470","tag":{"amenity":"recycling","name:fi":"Alueker\u00c3\u00a4yspiste, Rautkallio","name:sv":"Regional insamlingsplats, Rautberg","operator":"HSY","recycling:batteries":"no","recycling:cans":"yes","recycling:clothes":"yes","recycling:glass":"yes","recycling:paper":"yes","recycling:plastic_bags":"yes"}},"type":"Feature"},
	{"geometry":{"coordinates":[25.051255,60.284807],"type":"Point"},"properties":{"osm_id":"613509771","tag":{"amenity":"waste_basket"}},"type":"Feature"},
	{"geometry":{"coordinates":[25.114957,60.307517],"type":"Point"},"properties":{"osm_id":"736019844","tag":{"amenity":"recycling","recycling:paper":"yes"}},"type":"Feature"},
	{"geometry":{"coordinates":[25.049562,60.318819],"type":"Point"},"properties":{"osm_id":"775809004","tag":{"addr:city":"Vantaa","addr:country":"FI","addr:postcode":"01360","addr:street":"Jalavatie","amenity":"recycling","operator":"HSY","recycling:paper":"yes"}},"type":"Feature"},
	{"geometry":{"coordinates":[25.102755,60.297768],"type":"Point"},"properties":{"osm_id":"832867297","tag":{"amenity":"recycling","location":"overground","operator":"Paperinker\u00c3\u00a4ys Oy","recycling:cartons":"yes","recycling:glass":"yes","recycling:glass_bottles":"yes","recycling:paper":"yes","recycling:plastic":"yes","recycling_type":"container"}},"type":"Feature"},
	{"geometry":{"coordinates":[25.050662,60.29856],"type":"Point"},"properties":{"osm_id":"946038918","tag":{"addr:city":"Vantaa","addr:country":"FI","addr:housenumber":"53","addr:postcode":"01370","addr:street":"Valkoisenl\u00c3\u00a4hteentie","amenity":"recycling","operator":"UFF","recycling:clothes":"yes","recycling_type":"container"}},"type":"Feature"},
	{"geometry":{"coordinates":[25.067035,60.30247],"type":"Point"},"properties":{"osm_id":"996815518","tag":{"addr:city":"Vantaa","addr:country":"FI","addr:housenumber":"19","addr:postcode":"01370","addr:street":"Hanab\u00c3\u00b6len rantatie","amenity":"recycling","recycling:paper":"yes"}},"type":"Feature"},
	{"geometry":{"coordinates":[25.123614,60.286757],"type":"Point"},"properties":{"osm_id":"1591491707","tag":{"amenity":"recycling","recycling:clothes":"yes"}},"type":"Feature"},
	{"geometry":{"coordinates":[25.123532,60.286794],"type":"Point"},"properties":{"osm_id":"1591491714","tag":{"amenity":"waste_basket"}},"type":"Feature"},
	{"geometry":{"coordinates":[25.084618,60.323501],"type":"Point"},"properties":{"osm_id":"1656115458","tag":{"amenity":"recycling"}},"type":"Feature"},
	{"geometry":{"coordinates":[25.061298,60.31969],"type":"Point"},"properties":{"osm_id":"2343276231","tag":{"amenity":"waste_basket"}},"type":"Feature"},
	{"geometry":{"coordinates":[25.098714,60.299172],"type":"Point"},"properties":{"name":"Suez Finland","osm_id":"4207817190","tag":{"amenity":"recycling","phone":"0105400","website":"https://www.sita.fi/"}},"type":"Feature"},
	{"geometry":{"coordinates":[25.082719,60.289582],"type":"Point"},"properties":{"osm_id":"6627749485","tag":{"amenity":"recycling","recycling:cans":"yes","recycling:glass_bottles":"yes","recycling:green_waste":"yes","recycling:paper":"yes","recycling:plastic":"yes","recycling:scrap_metal":"yes","recycling_type":"container"}},"type":"Feature"},
	{"geometry":{"coordinates":[25.090577,60.291478],"type":"Point"},"properties":{"osm_id":"6627793517","tag":{"amenity":"waste_basket"}},"type":"Feature"},
	{"geometry":{"coordinates":[25.091034,60.292133],"type":"Point"},"properties":{"osm_id":"6627796206","tag":{"amenity":"waste_basket"}},"type":"Feature"},
	{"geometry":{"coordinates":[25.08476,60.289335],"type":"Point"},"properties":{"osm_id":"6627856385","tag":{"amenity":"recycling","recycling_type":"container"}},"type":"Feature"},
	{"geometry":{"coordinates":[25.091722,60.289031],"type":"Point"},"properties":{"osm_id":"6627856587","tag":{"amenity":"recycling"}},"type":"Feature"},
	{"geometry":{"coordinates":[25.090459,60.289042],"type":"Point"},"properties":{"osm_id":"6627856689","tag":{"amenity":"waste_basket"}},"type":"Feature"},
	{"geometry":{"coordinates":[25.085703,60.288957],"type":"Point"},"properties":{"osm_id":"6627856785","tag":{"amenity":"waste_basket"}},"type":"Feature"},
	{"geometry":{"coordinates":[25.085764,60.288317],"type":"Point"},"properties":{"osm_id":"6627856885","tag":{"amenity":"waste_basket"}},"type":"Feature"},
	{"geometry":{"coordinates":[25.089673,60.28891],"type":"Point"},"properties":{"osm_id":"6627856887","tag":{"amenity":"recycling"}},"type":"Feature"},
	{"geometry":{"coordinates":[25.092227,60.289036],"type":"Point"},"properties":{"osm_id":"6627856890","tag":{"amenity":"waste_basket"}},"type":"Feature"},
	{"geometry":{"coordinates":[25.091167,60.290947],"type":"Point"},"properties":{"osm_id":"6627924085","tag":{"amenity":"waste_basket"}},"type":"Feature"},
	{"geometry":{"coordinates":[25.090803,60.291651],"type":"Point"},"properties":{"osm_id":"6627924086","tag":{"amenity":"waste_basket"}},"type":"Feature"},
	{"geometry":{"coordinates":[25.089592,60.292588],"type":"Point"},"properties":{"osm_id":"6628670297","tag":{"amenity":"waste_basket"}},"type":"Feature"},
	{"geometry":{"coordinates":[25.08737,60.292573],"type":"Point"},"properties":{"osm_id":"6628670298","tag":{"amenity":"waste_basket"}},"type":"Feature"},
	{"geometry":{"coordinates":[25.085368,60.293585],"type":"Point"},"properties":{"osm_id":"6628670299","tag":{"amenity":"waste_basket"}},"type":"Feature"},
	{"geometry":{"coordinates":[25.085933,60.292218],"type":"Point"},"properties":{"osm_id":"6628670301","tag":{"amenity":"recycling"}},"type":"Feature"},
	{"geometry":{"coordinates":[25.091163,60.293171],"type":"Point"},"properties":{"osm_id":"6628671518","tag":{"amenity":"waste_basket"}},"type":"Feature"},
	{"geometry":{"coordinates":[25.087776,60.292044],"type":"Point"},"properties":{"osm_id":"6628671525","tag":{"amenity":"recycling"}},"type":"Feature"},
	{"geometry":{"coordinates":[25.087304,60.292427],"type":"Point"},"properties":{"osm_id":"6628671529","tag":{"amenity":"waste_basket"}},"type":"Feature"},
	{"geometry":{"coordinates":[25.08647,60.29334],"type":"Point"},"properties":{"osm_id":"6628671530","tag":{"amenity":"recycling"}},"type":"Feature"},
	{"geometry":{"coordinates":[25.083561,60.290273],"type":"Point"},"properties":{"osm_id":"6628671534","tag":{"amenity":"waste_basket"}},"type":"Feature"},
	{"geometry":{"coordinates":[25.092093,60.293136],"type":"Point"},"properties":{"osm_id":"6628702296","tag":{"amenity":"waste_basket"}},"type":"Feature"},
	{"geometry":{"coordinates":[25.088546,60.291578],"type":"Point"},"properties":{"osm_id":"6628702624","tag":{"amenity":"waste_basket"}},"type":"Feature"},
	{"geometry":{"coordinates":[25.084457,60.291627],"type":"Point"},"properties":{"osm_id":"6628702625","tag":{"amenity":"waste_basket"}},"type":"Feature"},
	{"geometry":{"coordinates":[25.084857,60.291404],"type":"Point"},"properties":{"osm_id":"6628702626","tag":{"amenity":"waste_basket"}},"type":"Feature"},
	{"geometry":{"coordinates":[25.090586,60.293302],"type":"Point"},"properties":{"osm_id":"6628706985","tag":{"amenity":"recycling"}},"type":"Feature"},
	{"geometry":{"coordinates":[25.089792,60.293048],"type":"Point"},"properties":{"osm_id":"6628706986","tag":{"amenity":"waste_basket"}},"type":"Feature"},
	{"geometry":{"coordinates":[25.083392,60.292094],"type":"Point"},"properties":{"osm_id":"6743033986","tag":{"amenity":"waste_basket"}},"type":"Feature"},
	{"geometry":{"coordinates":[25.081862,60.292529],"type":"Point"},"properties":{"osm_id":"6743033988","tag":{"amenity":"waste_basket"}},"type":"Feature"},
	{"geometry":{"coordinates":[25.077998,60.288981],"type":"Point"},"properties":{"osm_id":"6743033990","tag":{"amenity":"waste_basket"}},"type":"Feature"},
	{"geometry":{"coordinates":[25.078063,60.28897],"type":"Point"},"properties":{"osm_id":"6743033991","tag":{"amenity":"waste_basket"}},"type":"Feature"},
	{"geometry":{"coordinates":[25.081108,60.292523],"type":"Point"},"properties":{"osm_id":"6743068187","tag":{"amenity":"waste_basket"}},"type":"Feature"},
	{"geometry":{"coordinates":[25.080606,60.288402],"type":"Point"},"properties":{"osm_id":"6790470173","tag":{"amenity":"recycling","recycling_type":"container"}},"type":"Feature"},
	{"geometry":{"coordinates":[25.079086,60.289227],"type":"Point"},"properties":{"osm_id":"6790470174","tag":{"amenity":"recycling","recycling_type":"container"}},"type":"Feature"},
	{"geometry":{"coordinates":[25.080291,60.289661],"type":"Point"},"properties":{"osm_id":"6790470176","tag":{"amenity":"recycling","recycling_type":"container"}},"type":"Feature"},
	{"geometry":{"coordinates":[25.080197,60.288804],"type":"Point"},"properties":{"osm_id":"6790472690","tag":{"amenity":"waste_basket"}},"type":"Feature"},
	{"geometry":{"coordinates":[25.080777,60.2912],"type":"Point"},"properties":{"osm_id":"6817645051","tag":{"amenity":"recycling","recycling_type":"container"}},"type":"Feature"},
	{"geometry":{"coordinates":[25.0796,60.290711],"type":"Point"},"properties":{"osm_id":"6817645052","tag":{"amenity":"recycling","recycling_type":"container"}},"type":"Feature"},
	{"geometry":{"coordinates":[25.079247,60.288903],"type":"Point"},"properties":{"osm_id":"6817654087","tag":{"amenity":"waste_basket"}},"type":"Feature"},
	{"geometry":{"coordinates":[25.061721,60.291028],"type":"Point"},"properties":{"osm_id":"7427193379","tag":{"amenity":"waste_basket","waste":"dog_excrement"}},"type":"Feature"},
	{"geometry":{"coordinates":[25.062817,60.291273],"type":"Point"},"properties":{"osm_id":"7427193380","tag":{"amenity":"waste_basket","waste":"dog_excrement"}},"type":"Feature"}
]
}
