{
"type": "FeatureCollection",
"features": [
	{"geometry":{"coordinates":[25.085569,60.211996],"type":"Point"},"properties":{"osm_id":"51493351","tag":{"amenity":"recycling","recycling:cartons":"yes","recycling:clothes":"yes","recycling:glass":"yes","recycling:metal":"yes","recycling:paper":"yes","recycling:plastic_packaging":"yes","recycling_type":"container"}},"type":"Feature"},
	{"geometry":{"coordinates":[25.063291,60.227291],"type":"Point"},"properties":{"osm_id":"57842825","tag":{"amenity":"recycling"}},"type":"Feature"},
	{"geometry":{"coordinates":[25.058254,60.22342],"type":"Point"},"properties":{"osm_id":"57844616","tag":{"amenity":"recycling","recycling:cardboard":"yes"}},"type":"Feature"},
	{"geometry":{"coordinates":[25.082689,60.237475],"type":"Point"},"properties":{"osm_id":"89124735","tag":{"amenity":"recycling","recycling:clothes":"yes","recycling:glass":"yes"}},"type":"Feature"},
	{"geometry":{"coordinates":[25.050031,60.220176],"type":"Point"},"properties":{"osm_id":"146526140","tag":{"amenity":"recycling","recycling:paper":"yes","recycling_type":"container"}},"type":"Feature"},
	{"geometry":{"coordinates":[25.059619,60.203324],"type":"Point"},"properties":{"osm_id":"158684478","tag":{"amenity":"recycling","recycling:clothes":"yes","recycling:glass":"yes","recycling:metal":"yes"}},"type":"Feature"},
	{"geometry":{"coordinates":[25.054236,60.196447],"type":"Point"},"properties":{"osm_id":"247416818","tag":{"amenity":"recycling","location":"underground","recycling:batteries":"yes","recycling:cardboard":"yes","recycling:clothes":"yes","recycling:glass":"yes","recycling:paper":"yes","recycling_type":"container"}},"type":"Feature"},
	{"geometry":{"coordinates":[25.103419,60.218835],"type":"Point"},"properties":{"osm_id":"286591772","tag":{"amenity":"recycling","recycling:glass":"yes","recycling_type":"container"}},"type":"Feature"},
	{"geometry":{"coordinates":[25.061312,60.202025],"type":"Point"},"properties":{"osm_id":"405709630","tag":{"amenity":"recycling","recycling:paper":"yes"}},"type":"Feature"},
	{"geometry":{"coordinates":[25.103947,60.218764],"type":"Point"},"properties":{"osm_id":"415459489","tag":{"amenity":"recycling","recycling:cardboard":"yes","recycling:paper":"yes","recycling_type":"container"}},"type":"Feature"},
	{"geometry":{"coordinates":[25.107046,60.220844],"type":"Point"},"properties":{"osm_id":"415464887","tag":{"amenity":"recycling","location":"overground","recycling:paper":"yes","recycling_type":"container"}},"type":"Feature"},
	{"geometry":{"coordinates":[25.095341,60.217015],"type":"Point"},"properties":{"osm_id":"415531035","tag":{"amenity":"recycling","recycling:paper":"yes"}},"type":"Feature"},
	{"geometry":{"coordinates":[25.077555,60.204125],"type":"Point"},"properties":{"osm_id":"427970334","tag":{"amenity":"recycling","recycling:paper":"yes"}},"type":"Feature"},
	{"geometry":{"coordinates":[25.088481,60.203935],"type":"Point"},"properties":{"osm_id":"427970356","tag":{"amenity":"recycling","recycling:paper":"yes"}},"type":"Feature"},
	{"geometry":{"coordinates":[25.096337,60.203098],"type":"Point"},"properties":{"osm_id":"427970358","tag":{"amenity":"recycling","recycling:paper":"yes"}},"type":"Feature"},
	{"geometry":{"coordinates":[25.072105,60.228245],"type":"Point"},"properties":{"osm_id":"429774789","tag":{"amenity":"recycling","recycling:clothes":"yes","recycling_type":"container"}},"type":"Feature"},
	{"geometry":{"coordinates":[25.079827,60.212698],"type":"Point"},"properties":{"osm_id":"447086498","tag":{"amenity":"recycling","recycling:glass":"yes"}},"type":"Feature"},
	{"geometry":{"coordinates":[25.089245,60.238367],"type":"Point"},"properties":{"osm_id":"459144750","tag":{"amenity":"recycling","location":"overground","recycling:paper":"yes","recycling_type":"container"}},"type":"Feature"},
	{"geometry":{"coordinates":[25.128054,60.215316],"type":"Point"},"properties":{"osm_id":"459914427","tag":{"amenity":"waste_basket"}},"type":"Feature"},
	{"geometry":{"coordinates":[25.111802,60.215186],"type":"Point"},"properties":{"osm_id":"461989341","tag":{"amenity":"waste_basket"}},"type":"Feature"},
	{"geometry":{"coordinates":[25.113901,60.218585],"type":"Point"},"properties":{"osm_id":"461989352","tag":{"amenity":"recycling","recycling:paper":"yes"}},"type":"Feature"},
	{"geometry":{"coordinates":[25.096124,60.216469],"type":"Point"},"properties":{"osm_id":"475299938","tag":{"amenity":"waste_basket","guidepost":"destination","traffic_sign":"FI:645[It\u00c3\u00a4keskus][1];FI:645[Mellunm\u00c3\u00a4ki][2,5];FI:645","traffic_sign:2":"FI:424"}},"type":"Feature"},
	{"geometry":{"coordinates":[25.049939,60.220069],"type":"Point"},"properties":{"osm_id":"478599800","tag":{"amenity":"waste_basket"}},"type":"Feature"},
	{"geometry":{"coordinates":[25.065634,60.196224],"type":"Point"},"properties":{"osm_id":"478860726","tag":{"amenity":"waste_basket"}},"type":"Feature"},
	{"geometry":{"coordinates":[25.061468,60.198241],"type":"Point"},"properties":{"osm_id":"478860731","tag":{"amenity":"waste_basket"}},"type":"Feature"},
	{"geometry":{"coordinates":[25.127138,60.233336],"type":"Point"},"properties":{"osm_id":"479803414","tag":{"amenity":"recycling","location":"overground","recycling:clothes":"yes","recycling_type":"container"}},"type":"Feature"},
	{"geometry":{"coordinates":[25.117028,60.238349],"type":"Point"},"properties":{"osm_id":"479803416","tag":{"amenity":"recycling","location":"overground","recycling:paper":"yes","recycling_type":"container"}},"type":"Feature"},
	{"geometry":{"coordinates":[25.098251,60.225019],"type":"Point"},"properties":{"osm_id":"480461915","tag":{"amenity":"recycling","recycling:paper":"yes","recycling_type":"container"}},"type":"Feature"},
	{"geometry":{"coordinates":[25.102894,60.227301],"type":"Point"},"properties":{"osm_id":"480461917","tag":{"amenity":"recycling","recycling:clothes":"yes","recycling:paper":"yes","recycling_type":"container"}},"type":"Feature"},
	{"geometry":{"coordinates":[25.133546,60.221916],"type":"Point"},"properties":{"osm_id":"483703880","tag":{"amenity":"recycling","recycling:cardboard":"yes","recycling:paper":"yes"}},"type":"Feature"},
	{"geometry":{"coordinates":[25.08277,60.213678],"type":"Point"},"properties":{"osm_id":"493756130","tag":{"amenity":"recycling","recycling:cardboard":"yes","recycling:clothes":"yes"}},"type":"Feature"},
	{"geometry":{"coordinates":[25.067485,60.233246],"type":"Point"},"properties":{"osm_id":"504321183","tag":{"amenity":"waste_basket"}},"type":"Feature"},
	{"geometry":{"coordinates":[25.123342,60.216153],"type":"Point"},"properties":{"osm_id":"568123178","tag":{"amenity":"waste_basket"}},"type":"Feature"},
	{"geometry":{"coordinates":[25.126928,60.209777],"type":"Point"},"properties":{"osm_id":"576244162","tag":{"amenity":"recycling","recycling:paper":"yes"}},"type":"Feature"},
	{"geometry":{"coordinates":[25.124921,60.202601],"type":"Point"},"properties":{"osm_id":"592515510","tag":{"amenity":"waste_basket"}},"type":"Feature"},
	{"geometry":{"coordinates":[25.134458,60.215788],"type":"Point"},"properties":{"osm_id":"601608066","tag":{"amenity":"recycling","recycling:paper":"yes"}},"type":"Feature"},
	{"geometry":{"coordinates":[25.133397,60.213666],"type":"Point"},"properties":{"osm_id":"602205004","tag":{"amenity":"recycling","recycling:batteries":"yes","recycling:cans":"yes","recycling:clothes":"no","recycling:glass":"yes","recycling:paper":"yes"}},"type":"Feature"},
	{"geometry":{"coordinates":[25.116345,60.215839],"type":"Point"},"properties":{"osm_id":"635899729","tag":{"amenity":"recycling","recycling:paper":"yes"}},"type":"Feature"},
	{"geometry":{"coordinates":[25.090722,60.215683],"type":"Point"},"properties":{"osm_id":"660129429","tag":{"amenity":"waste_basket"}},"type":"Feature"},
	{"geometry":{"coordinates":[25.116023,60.229153],"type":"Point"},"properties":{"osm_id":"660579431","tag":{"amenity":"recycling","recycling:paper":"yes"}},"type":"Feature"},
	{"geometry":{"coordinates":[25.082016,60.20937],"type":"Point"},"properties":{"osm_id":"662835024","tag":{"amenity":"waste_basket"}},"type":"Feature"},
	{"geometry":{"coordinates":[25.095996,60.212416],"type":"Point"},"properties":{"osm_id":"664687858","tag":{"amenity":"recycling","recycling:clothes":"yes","recycling:glass":"yes","recycling_type":"container"}},"type":"Feature"},
	{"geometry":{"coordinates":[25.096165,60.212749],"type":"Point"},"properties":{"osm_id":"664687863","tag":{"amenity":"waste_basket"}},"type":"Feature"},
	{"geometry":{"coordinates":[25.09619,60.212727],"type":"Point"},"properties":{"osm_id":"664687864","tag":{"amenity":"waste_basket"}},"type":"Feature"},
	{"geometry":{"coordinates":[25.096094,60.212708],"type":"Point"},"properties":{"osm_id":"664687865","tag":{"amenity":"waste_basket"}},"type":"Feature"},
	{"geometry":{"coordinates":[25.116144,60.229341],"type":"Point"},"properties":{"osm_id":"668202547","tag":{"amenity":"waste_basket"}},"type":"Feature"},
	{"geometry":{"coordinates":[25.118065,60.232951],"type":"Point"},"properties":{"osm_id":"672130124","tag":{"amenity":"recycling","location":"overground","recycling:paper":"yes","recycling_type":"container"}},"type":"Feature"},
	{"geometry":{"coordinates":[25.121908,60.228254],"type":"Point"},"properties":{"osm_id":"697075359","tag":{"amenity":"waste_basket"}},"type":"Feature"},
	{"geometry":{"coordinates":[25.121191,60.229053],"type":"Point"},"properties":{"osm_id":"697075360","tag":{"amenity":"waste_basket"}},"type":"Feature"},
	{"geometry":{"coordinates":[25.119048,60.234597],"type":"Point"},"properties":{"osm_id":"700329468","tag":{"amenity":"waste_basket"}},"type":"Feature"},
	{"geometry":{"coordinates":[25.106876,60.218872],"type":"Point"},"properties":{"osm_id":"751952585","tag":{"amenity":"recycling","recycling:batteries":"no","recycling:clothes":"yes","recycling:paper":"yes","recycling:scrap_metal":"no"}},"type":"Feature"},
	{"geometry":{"coordinates":[25.050882,60.202394],"type":"Point"},"properties":{"osm_id":"804696942","tag":{"amenity":"waste_basket"}},"type":"Feature"},
	{"geometry":{"coordinates":[25.130593,60.20883],"type":"Point"},"properties":{"osm_id":"941779773","tag":{"amenity":"waste_basket"}},"type":"Feature"},
	{"geometry":{"coordinates":[25.06833,60.231206],"type":"Point"},"properties":{"osm_id":"974159286","tag":{"amenity":"waste_basket"}},"type":"Feature"},
	{"geometry":{"coordinates":[25.10979,60.238639],"type":"Point"},"properties":{"osm_id":"1112761876","tag":{"amenity":"waste_basket"}},"type":"Feature"},
	{"geometry":{"coordinates":[25.10952,60.238648],"type":"Point"},"properties":{"osm_id":"1112761880","tag":{"amenity":"waste_basket"}},"type":"Feature"},
	{"geometry":{"coordinates":[25.109394,60.238728],"type":"Point"},"properties":{"osm_id":"1112761928","tag":{"amenity":"waste_basket"}},"type":"Feature"},
	{"geometry":{"coordinates":[25.110007,60.23863],"type":"Point"},"properties":{"osm_id":"1112762305","tag":{"amenity":"waste_basket"}},"type":"Feature"},
	{"geometry":{"coordinates":[25.109494,60.23831],"type":"Point"},"properties":{"osm_id":"1112762346","tag":{"amenity":"waste_basket"}},"type":"Feature"},
	{"geometry":{"coordinates":[25.110032,60.238171],"type":"Point"},"properties":{"osm_id":"1112762424","tag":{"amenity":"waste_basket"}},"type":"Feature"},
	{"geometry":{"coordinates":[25.122147,60.205418],"type":"Point"},"properties":{"highway":"street_lamp","osm_id":"1272499419","tag":{"amenity":"waste_basket","guidepost":"destination","traffic_sign":"FI:645[Vuosaaren keskusta 1]","traffic_sign:2":"FI:645[It\u00c3\u00a4keskus 2,5]","traffic_sign:3":"FI:645[Metro]"}},"type":"Feature"},
	{"geometry":{"coordinates":[25.123089,60.204485],"type":"Point"},"properties":{"highway":"street_lamp","osm_id":"1274820905","tag":{"amenity":"waste_basket","guidepost":"destination"}},"type":"Feature"},
	{"geometry":{"coordinates":[25.061209,60.210213],"type":"Point"},"properties":{"osm_id":"1320226014","tag":{"amenity":"waste_basket"}},"type":"Feature"},
	{"geometry":{"coordinates":[25.087074,60.207831],"type":"Point"},"properties":{"osm_id":"1350767003","tag":{"amenity":"waste_basket"}},"type":"Feature"},
	{"geometry":{"coordinates":[25.073473,60.207028],"type":"Point"},"properties":{"osm_id":"1423877084","tag":{"amenity":"waste_basket"}},"type":"Feature"},
	{"geometry":{"coordinates":[25.102925,60.210309],"type":"Point"},"properties":{"osm_id":"1438668002","tag":{"amenity":"waste_basket"}},"type":"Feature"},
	{"geometry":{"coordinates":[25.127756,60.20136],"type":"Point"},"properties":{"highway":"street_lamp","osm_id":"1568476240","tag":{"amenity":"waste_basket"}},"type":"Feature"},
	{"geometry":{"coordinates":[25.119729,60.201601],"type":"Point"},"properties":{"highway":"street_lamp","osm_id":"1568476313","tag":{"amenity":"waste_basket"}},"type":"Feature"},
	{"geometry":{"coordinates":[25.119761,60.203564],"type":"Point"},"properties":{"highway":"street_lamp","osm_id":"1568476754","tag":{"amenity":"waste_basket"}},"type":"Feature"},
	{"geometry":{"coordinates":[25.119743,60.204843],"type":"Point"},"properties":{"highway":"street_lamp","osm_id":"1568477143","tag":{"amenity":"waste_basket"}},"type":"Feature"},
	{"geometry":{"coordinates":[25.120631,60.203488],"type":"Point"},"properties":{"highway":"street_lamp","osm_id":"1575419282","tag":{"amenity":"waste_basket"}},"type":"Feature"},
	{"geometry":{"coordinates":[25.133142,60.206454],"type":"Point"},"properties":{"highway":"street_lamp","osm_id":"1581524612","tag":{"amenity":"waste_basket","traffic_sign":"FI:425"}},"type":"Feature"},
	{"geometry":{"coordinates":[25.126564,60.235712],"type":"Point"},"properties":{"highway":"street_lamp","osm_id":"1709428980","tag":{"amenity":"waste_basket"}},"type":"Feature"},
	{"geometry":{"coordinates":[25.087226,60.236122],"type":"Point"},"properties":{"highway":"street_lamp","osm_id":"1709429019","tag":{"amenity":"waste_basket","waste":"syringes"}},"type":"Feature"},
	{"geometry":{"coordinates":[25.122157,60.236801],"type":"Point"},"properties":{"highway":"street_lamp","osm_id":"1709429094","tag":{"amenity":"waste_basket"}},"type":"Feature"},
	{"geometry":{"coordinates":[25.051228,60.236662],"type":"Point"},"properties":{"osm_id":"1897444313","tag":{"entrance":"main"}},"type":"Feature"},
	{"geometry":{"coordinates":[25.072687,60.227623],"type":"Point"},"properties":{"osm_id":"1942600806","tag":{"amenity":"recycling","recycling:glass":"yes"}},"type":"Feature"},
	{"geometry":{"coordinates":[25.06136,60.202034],"type":"Point"},"properties":{"osm_id":"2245241164","tag":{"amenity":"waste_basket"}},"type":"Feature"},
	{"geometry":{"coordinates":[25.118563,60.236825],"type":"Point"},"properties":{"highway":"street_lamp","osm_id":"2268461751","tag":{"amenity":"waste_basket"}},"type":"Feature"},
	{"geometry":{"coordinates":[25.126846,60.235902],"type":"Point"},"properties":{"osm_id":"2268636515","tag":{"amenity":"recycling"}},"type":"Feature"},
	{"geometry":{"coordinates":[25.134238,60.214235],"type":"Point"},"properties":{"osm_id":"2275837342","tag":{"amenity":"recycling"}},"type":"Feature"},
	{"geometry":{"coordinates":[25.126983,60.201093],"type":"Point"},"properties":{"osm_id":"2275921619","tag":{"amenity":"waste_basket"}},"type":"Feature"},
	{"geometry":{"coordinates":[25.084656,60.203445],"type":"Point"},"properties":{"osm_id":"2290184960","tag":{"amenity":"waste_basket","traffic_sign":"FI:pelastustie","traffic_sign:2":"FI:871[Kissankellontie 2-4]"}},"type":"Feature"},
	{"geometry":{"coordinates":[25.120388,60.203213],"type":"Point"},"properties":{"highway":"street_lamp","osm_id":"2312646202","tag":{"amenity":"waste_basket","traffic_sign":"FI:423"}},"type":"Feature"},
	{"geometry":{"coordinates":[25.066618,60.200939],"type":"Point"},"properties":{"osm_id":"2314349145","tag":{"amenity":"waste_basket","traffic_sign":"FI:312"}},"type":"Feature"},
	{"geometry":{"coordinates":[25.067879,60.200492],"type":"Point"},"properties":{"highway":"street_lamp","osm_id":"2407721684","tag":{"amenity":"waste_basket"}},"type":"Feature"},
	{"geometry":{"coordinates":[25.072189,60.19909],"type":"Point"},"properties":{"highway":"street_lamp","osm_id":"2407723045","tag":{"amenity":"waste_basket"}},"type":"Feature"},
	{"geometry":{"coordinates":[25.073106,60.198672],"type":"Point"},"properties":{"highway":"street_lamp","osm_id":"2407723138","tag":{"amenity":"waste_basket"}},"type":"Feature"},
	{"geometry":{"coordinates":[25.073809,60.19878],"type":"Point"},"properties":{"highway":"street_lamp","osm_id":"2407754967","tag":{"amenity":"waste_basket"}},"type":"Feature"},
	{"geometry":{"coordinates":[25.089431,60.217161],"type":"Point"},"properties":{"osm_id":"2409102095","tag":{"amenity":"waste_basket","traffic_sign":"FI:511"}},"type":"Feature"},
	{"geometry":{"coordinates":[25.13273,60.215382],"type":"Point"},"properties":{"osm_id":"2409711863","tag":{"amenity":"waste_basket","traffic_sign":"FI:312"}},"type":"Feature"},
	{"geometry":{"coordinates":[25.095018,60.237876],"type":"Point"},"properties":{"highway":"street_lamp","osm_id":"2409739603","tag":{"amenity":"waste_basket","lamp_type":"sodium","traffic_sign":"FI:521","traffic_sign:2":"square","traffic_sign:3":"rectangle"}},"type":"Feature"},
	{"geometry":{"coordinates":[25.102562,60.234148],"type":"Point"},"properties":{"osm_id":"2410873525","tag":{"amenity":"waste_basket","traffic_sign":"FI:423"}},"type":"Feature"},
	{"geometry":{"coordinates":[25.097784,60.23821],"type":"Point"},"properties":{"highway":"street_lamp","osm_id":"2411855355","tag":{"amenity":"waste_basket","colour":"green","lamp_type":"sodium","material":"metal","waste":"trash"}},"type":"Feature"},
	{"geometry":{"coordinates":[25.054872,60.237991],"type":"Point"},"properties":{"osm_id":"2425354007","tag":{"amenity":"waste_basket"}},"type":"Feature"},
	{"geometry":{"coordinates":[25.083636,60.22121],"type":"Point"},"properties":{"osm_id":"2425872608","tag":{"amenity":"waste_basket"}},"type":"Feature"},
	{"geometry":{"coordinates":[25.106662,60.220688],"type":"Point"},"properties":{"osm_id":"2429012212","tag":{"amenity":"waste_basket","traffic_sign":"FI:423"}},"type":"Feature"},
	{"geometry":{"coordinates":[25.093327,60.223347],"type":"Point"},"properties":{"osm_id":"2429012280","tag":{"amenity":"recycling","recycling:paper":"yes"}},"type":"Feature"},
	{"geometry":{"coordinates":[25.112662,60.222387],"type":"Point"},"properties":{"osm_id":"2477461123","tag":{"amenity":"waste_basket","traffic_sign":"FI:312"}},"type":"Feature"},
	{"geometry":{"coordinates":[25.059107,60.200328],"type":"Point"},"properties":{"osm_id":"2498841712","tag":{"amenity":"waste_basket"}},"type":"Feature"},
	{"geometry":{"coordinates":[25.10711,60.239253],"type":"Point"},"properties":{"osm_id":"2500581997","tag":{"amenity":"waste_basket"}},"type":"Feature"},
	{"geometry":{"coordinates":[25.083199,60.213507],"type":"Point"},"properties":{"osm_id":"2578660703","tag":{"amenity":"waste_basket","traffic_sign":"FI:531"}},"type":"Feature"},
	{"geometry":{"coordinates":[25.092386,60.213798],"type":"Point"},"properties":{"osm_id":"2601399780","tag":{"amenity":"waste_basket"}},"type":"Feature"},
	{"geometry":{"coordinates":[25.0831,60.21377],"type":"Point"},"properties":{"osm_id":"3469739355","tag":{"amenity":"recycling"}},"type":"Feature"},
	{"geometry":{"coordinates":[25.130584,60.216098],"type":"Point"},"properties":{"osm_id":"3534094988","tag":{"amenity":"waste_basket","traffic_sign":"FI:312","traffic_sign:2":"FI:871[Samma p\u00c3\u00a5 svenska]","traffic_sign:3":"FI:872","traffic_sign:4":"FI:871[Pelastustie]"}},"type":"Feature"},
	{"geometry":{"coordinates":[25.131521,60.216229],"type":"Point"},"properties":{"osm_id":"3534094991","tag":{"amenity":"waste_basket","traffic_sign":"FI:312","traffic_sign:2":"FI:871[Samma p\u00c3\u00a5 svenska]","traffic_sign:3":"FI:872","traffic_sign:4":"FI:871[Pelastustie]"}},"type":"Feature"},
	{"geometry":{"coordinates":[25.058454,60.198753],"type":"Point"},"properties":{"osm_id":"3565361398","tag":{"amenity":"waste_basket"}},"type":"Feature"},
	{"geometry":{"coordinates":[25.134519,60.200225],"type":"Point"},"properties":{"osm_id":"3787950558","tag":{"amenity":"waste_basket"}},"type":"Feature"},
	{"geometry":{"coordinates":[25.134587,60.200593],"type":"Point"},"properties":{"highway":"street_lamp","osm_id":"3787950559","tag":{"amenity":"waste_basket"}},"type":"Feature"},
	{"geometry":{"coordinates":[25.134341,60.200122],"type":"Point"},"properties":{"osm_id":"3787950560","tag":{"amenity":"waste_basket"}},"type":"Feature"},
	{"geometry":{"coordinates":[25.134099,60.20033],"type":"Point"},"properties":{"osm_id":"3788788353","tag":{"amenity":"waste_basket"}},"type":"Feature"},
	{"geometry":{"coordinates":[25.136002,60.200211],"type":"Point"},"properties":{"osm_id":"3788788354","tag":{"amenity":"waste_basket"}},"type":"Feature"},
	{"geometry":{"coordinates":[25.133265,60.20128],"type":"Point"},"properties":{"osm_id":"3788788355","tag":{"amenity":"waste_basket"}},"type":"Feature"},
	{"geometry":{"coordinates":[25.132397,60.200574],"type":"Point"},"properties":{"osm_id":"3797791614","tag":{"amenity":"waste_basket"}},"type":"Feature"},
	{"geometry":{"coordinates":[25.132193,60.200078],"type":"Point"},"properties":{"osm_id":"3797791615","tag":{"amenity":"waste_basket"}},"type":"Feature"},
	{"geometry":{"coordinates":[25.132212,60.200228],"type":"Point"},"properties":{"osm_id":"3797791616","tag":{"amenity":"waste_basket"}},"type":"Feature"},
	{"geometry":{"coordinates":[25.132242,60.200384],"type":"Point"},"properties":{"osm_id":"3797791617","tag":{"amenity":"waste_basket"}},"type":"Feature"},
	{"geometry":{"coordinates":[25.132145,60.199731],"type":"Point"},"properties":{"osm_id":"3797791618","tag":{"amenity":"waste_basket"}},"type":"Feature"},
	{"geometry":{"coordinates":[25.129354,60.202619],"type":"Point"},"properties":{"osm_id":"3807186648","tag":{"amenity":"waste_basket"}},"type":"Feature"},
	{"geometry":{"coordinates":[25.130776,60.199385],"type":"Point"},"properties":{"osm_id":"3837833393","tag":{"amenity":"waste_basket"}},"type":"Feature"},
	{"geometry":{"coordinates":[25.120758,60.212629],"type":"Point"},"properties":{"osm_id":"4571986283","tag":{"amenity":"waste_basket"}},"type":"Feature"},
	{"geometry":{"coordinates":[25.123389,60.209832],"type":"Point"},"properties":{"osm_id":"4581665531","tag":{"amenity":"waste_basket"}},"type":"Feature"},
	{"geometry":{"coordinates":[25.103628,60.214697],"type":"Point"},"properties":{"osm_id":"4663150318","tag":{"amenity":"recycling","recycling:cartons":"yes","recycling:clothes":"yes","recycling:glass":"yes","recycling:paper":"yes","recycling:scrap_metal":"yes","recycling_type":"container"}},"type":"Feature"},
	{"geometry":{"coordinates":[25.118425,60.216771],"type":"Point"},"properties":{"osm_id":"5048002438","tag":{"amenity":"waste_basket"}},"type":"Feature"},
	{"geometry":{"coordinates":[25.051459,60.199282],"type":"Point"},"properties":{"osm_id":"5134751822","tag":{"amenity":"waste_basket"}},"type":"Feature"},
	{"geometry":{"coordinates":[25.051806,60.198563],"type":"Point"},"properties":{"osm_id":"5134799821","tag":{"amenity":"waste_basket"}},"type":"Feature"},
	{"geometry":{"coordinates":[25.05163,60.198747],"type":"Point"},"properties":{"osm_id":"5134799826","tag":{"amenity":"waste_basket"}},"type":"Feature"},
	{"geometry":{"coordinates":[25.052338,60.198763],"type":"Point"},"properties":{"osm_id":"5134799924","tag":{"amenity":"waste_basket"}},"type":"Feature"},
	{"geometry":{"coordinates":[25.133628,60.202485],"type":"Point"},"properties":{"osm_id":"5308130939","tag":{"amenity":"waste_basket"}},"type":"Feature"},
	{"geometry":{"coordinates":[25.124223,60.206533],"type":"Point"},"properties":{"osm_id":"5322170501","tag":{"amenity":"waste_basket"}},"type":"Feature"},
	{"geometry":{"coordinates":[25.083662,60.21006],"type":"Point"},"properties":{"osm_id":"5867518772","tag":{"amenity":"recycling","recycling:cardboard":"yes","recycling:clothes":"yes","recycling:glass":"yes","recycling:metal":"yes","recycling:paper":"yes","recycling:plastic":"yes","recycling_type":"container"}},"type":"Feature"},
	{"geometry":{"coordinates":[25.076757,60.208207],"type":"Point"},"properties":{"osm_id":"5867519189","tag":{"amenity":"waste_basket"}},"type":"Feature"},
	{"geometry":{"coordinates":[25.085903,60.210152],"type":"Point"},"properties":{"osm_id":"5876209516","tag":{"amenity":"recycling","level":"1","recycling:batteries":"yes","recycling:light_bulbs":"yes","recycling:small_appliances":"yes","recycling_type":"container"}},"type":"Feature"},
	{"geometry":{"coordinates":[25.060099,60.197566],"type":"Point"},"properties":{"osm_id":"6680053286","tag":{"amenity":"waste_disposal"}},"type":"Feature"},
	{"geometry":{"coordinates":[25.133386,60.202494],"type":"Point"},"properties":{"highway":"street_lamp","osm_id":"6698836806","tag":{"amenity":"waste_basket"}},"type":"Feature"},
	{"geometry":{"coordinates":[25.120641,60.202762],"type":"Point"},"properties":{"highway":"street_lamp","osm_id":"6698889658","tag":{"amenity":"waste_basket"}},"type":"Feature"},
	{"geometry":{"coordinates":[25.120048,60.205926],"type":"Point"},"properties":{"osm_id":"6698889659","tag":{"amenity":"waste_basket"}},"type":"Feature"},
	{"geometry":{"coordinates":[25.120021,60.201994],"type":"Point"},"properties":{"osm_id":"6698889669","tag":{"amenity":"waste_basket"}},"type":"Feature"},
	{"geometry":{"coordinates":[25.119463,60.203881],"type":"Point"},"properties":{"osm_id":"6698889672","tag":{"amenity":"waste_basket"}},"type":"Feature"},
	{"geometry":{"coordinates":[25.119995,60.205931],"type":"Point"},"properties":{"osm_id":"6698889674","tag":{"amenity":"waste_basket"}},"type":"Feature"},
	{"geometry":{"coordinates":[25.125053,60.206092],"type":"Point"},"properties":{"osm_id":"6698951823","tag":{"amenity":"waste_basket"}},"type":"Feature"},
	{"geometry":{"coordinates":[25.129988,60.206361],"type":"Point"},"properties":{"highway":"street_lamp","osm_id":"6698951836","tag":{"amenity":"waste_basket"}},"type":"Feature"},
	{"geometry":{"coordinates":[25.127563,60.20571],"type":"Point"},"properties":{"highway":"street_lamp","osm_id":"6698951850","tag":{"amenity":"waste_basket"}},"type":"Feature"},
	{"geometry":{"coordinates":[25.127533,60.19759],"type":"Point"},"properties":{"osm_id":"6742451966","tag":{"amenity":"waste_basket"}},"type":"Feature"},
	{"geometry":{"coordinates":[25.116316,60.206542],"type":"Point"},"properties":{"osm_id":"7044433160","tag":{"amenity":"waste_basket"}},"type":"Feature"},
	{"geometry":{"coordinates":[25.083123,60.238165],"type":"Point"},"properties":{"osm_id":"7058576456","tag":{"amenity":"recycling","recycling:cardboard":"yes","recycling:cartons":"yes","recycling:glass_bottles":"yes","recycling:metal":"yes","recycling:paper":"yes","recycling:plastic_packaging":"yes","recycling_type":"container"}},"type":"Feature"},
	{"geometry":{"coordinates":[25.098863,60.238219],"type":"Point"},"properties":{"highway":"street_lamp","osm_id":"7070276995","tag":{"amenity":"waste_basket"}},"type":"Feature"},
	{"geometry":{"coordinates":[25.099255,60.238274],"type":"Point"},"properties":{"highway":"street_lamp","osm_id":"7070276996","tag":{"amenity":"waste_basket"}},"type":"Feature"},
	{"geometry":{"coordinates":[25.100381,60.238175],"type":"Point"},"properties":{"osm_id":"7072141338","tag":{"amenity":"recycling","operator":"UFF","operator:wikidata":"Q11899315","recycling:clothes":"yes","recycling_type":"container"}},"type":"Feature"},
	{"geometry":{"coordinates":[25.09981,60.238363],"type":"Point"},"properties":{"highway":"street_lamp","osm_id":"7072838040","tag":{"amenity":"waste_basket"}},"type":"Feature"},
	{"geometry":{"coordinates":[25.098068,60.237782],"type":"Point"},"properties":{"highway":"street_lamp","osm_id":"7075527510","tag":{"amenity":"waste_basket","lamp_type":"sodium"}},"type":"Feature"},
	{"geometry":{"coordinates":[25.099651,60.237702],"type":"Point"},"properties":{"highway":"street_lamp","osm_id":"7075571164","tag":{"amenity":"waste_basket","lamp_type":"sodium"}},"type":"Feature"},
	{"geometry":{"coordinates":[25.10005,60.234832],"type":"Point"},"properties":{"osm_id":"7077995699","tag":{"amenity":"recycling","operator":"Suomen ker\u00c3\u00a4yspaperin tuottajayhdistys","recycling:paper":"yes","recycling_type":"container"}},"type":"Feature"},
	{"geometry":{"coordinates":[25.082401,60.238221],"type":"Point"},"properties":{"highway":"street_lamp","osm_id":"7102191719","tag":{"amenity":"waste_basket"}},"type":"Feature"},
	{"geometry":{"coordinates":[25.08338,60.238141],"type":"Point"},"properties":{"osm_id":"7102195262","tag":{"amenity":"recycling","operator":"UFF","operator:wikidata":"Q11899315","recycling:clothes":"yes","recycling_type":"container"}},"type":"Feature"},
	{"geometry":{"coordinates":[25.10239,60.23629],"type":"Point"},"properties":{"osm_id":"7105194672","tag":{"amenity":"waste_basket"}},"type":"Feature"},
	{"geometry":{"coordinates":[25.10214,60.219916],"type":"Point"},"properties":{"osm_id":"7107083047","tag":{"amenity":"waste_basket"}},"type":"Feature"},
	{"geometry":{"coordinates":[25.118582,60.204597],"type":"Point"},"properties":{"osm_id":"7243256085","tag":{"amenity":"recycling","recycling_type":"container"}},"type":"Feature"},
	{"geometry":{"coordinates":[25.085819,60.236752],"type":"Point"},"properties":{"highway":"street_lamp","osm_id":"7398572198","tag":{"amenity":"waste_basket","waste":"syringes"}},"type":"Feature"},
	{"geometry":{"coordinates":[25.062752,60.233143],"type":"Point"},"properties":{"osm_id":"7407668525","tag":{"amenity":"recycling","operator":"UFF","operator:wikidata":"Q11899315","recycling:clothes":"yes","recycling_type":"container"}},"type":"Feature"},
	{"geometry":{"coordinates":[25.05855,60.237384],"type":"Point"},"properties":{"osm_id":"7425382131","tag":{"access":"yes","amenity":"waste_basket"}},"type":"Feature"},
	{"geometry":{"coordinates":[25.057643,60.234986],"type":"Point"},"properties":{"osm_id":"7425382133","tag":{"amenity":"waste_basket"}},"type":"Feature"},
	{"geometry":{"coordinates":[25.112834,60.231498],"type":"Point"},"properties":{"osm_id":"7431069211","tag":{"amenity":"waste_basket"}},"type":"Feature"},
	{"geometry":{"coordinates":[25.111215,60.231905],"type":"Point"},"properties":{"osm_id":"7431069212","tag":{"amenity":"waste_basket"}},"type":"Feature"},
	{"geometry":{"coordinates":[25.057456,60.239693],"type":"Point"},"properties":{"osm_id":"7438222719","tag":{"amenity":"waste_basket"}},"type":"Feature"},
	{"geometry":{"coordinates":[25.113518,60.197444],"type":"Point"},"properties":{"osm_id":"7500048782","tag":{"amenity":"waste_basket","colour":"green","material":"metal","waste":"trash"}},"type":"Feature"},
	{"geometry":{"coordinates":[25.078101,60.23825],"type":"Point"},"properties":{"osm_id":"7508725796","tag":{"amenity":"waste_basket"}},"type":"Feature"},
	{"geometry":{"coordinates":[25.086225,60.236845],"type":"Point"},"properties":{"osm_id":"7508725803","tag":{"amenity":"waste_basket"}},"type":"Feature"},
	{"geometry":{"coordinates":[25.087323,60.23715],"type":"Point"},"properties":{"osm_id":"7508725804","tag":{"amenity":"waste_basket"}},"type":"Feature"},
	{"geometry":{"coordinates":[25.089912,60.23785],"type":"Point"},"properties":{"highway":"street_lamp","osm_id":"7508725809","tag":{"amenity":"waste_basket"}},"type":"Feature"},
	{"geometry":{"coordinates":[25.084041,60.207644],"type":"Point"},"properties":{"osm_id":"7606643712","tag":{"amenity":"waste_basket","material":"metal"}},"type":"Feature"}
]
}
