{
"type": "FeatureCollection",
"features": [
	{"geometry":{"coordinates":[25.054169,60.190051],"type":"Point"},"properties":{"osm_id":"408775472","tag":{"amenity":"recycling","recycling:batteries":"yes","recycling:cardboard":"yes","recycling:clothes":"yes","recycling:glass":"yes","recycling:paper":"yes"}},"type":"Feature"},
	{"geometry":{"coordinates":[25.049826,60.195099],"type":"Point"},"properties":{"osm_id":"442441954","tag":{"amenity":"waste_basket"}},"type":"Feature"},
	{"geometry":{"coordinates":[25.129282,60.181499],"type":"Point"},"properties":{"osm_id":"442841569","tag":{"amenity":"waste_disposal"}},"type":"Feature"},
	{"geometry":{"coordinates":[25.063149,60.176633],"type":"Point"},"properties":{"osm_id":"462371513","tag":{"amenity":"waste_basket"}},"type":"Feature"},
	{"geometry":{"coordinates":[25.072231,60.194275],"type":"Point"},"properties":{"osm_id":"465314132","tag":{"amenity":"waste_basket"}},"type":"Feature"},
	{"geometry":{"coordinates":[25.080429,60.167669],"type":"Point"},"properties":{"osm_id":"473868268","tag":{"amenity":"recycling","recycling:paper":"yes"}},"type":"Feature"},
	{"geometry":{"coordinates":[25.055283,60.165116],"type":"Point"},"properties":{"osm_id":"478482665","tag":{"amenity":"recycling","recycling:paper":"yes","recycling_type":"container"}},"type":"Feature"},
	{"geometry":{"coordinates":[25.06259,60.193],"type":"Point"},"properties":{"osm_id":"478860554","tag":{"amenity":"waste_basket"}},"type":"Feature"},
	{"geometry":{"coordinates":[25.058798,60.193181],"type":"Point"},"properties":{"osm_id":"478860558","tag":{"amenity":"waste_basket"}},"type":"Feature"},
	{"geometry":{"coordinates":[25.058661,60.193487],"type":"Point"},"properties":{"osm_id":"478860563","tag":{"amenity":"waste_basket"}},"type":"Feature"},
	{"geometry":{"coordinates":[25.061696,60.193843],"type":"Point"},"properties":{"osm_id":"478860662","tag":{"amenity":"waste_basket"}},"type":"Feature"},
	{"geometry":{"coordinates":[25.06327,60.19551],"type":"Point"},"properties":{"osm_id":"478860667","tag":{"amenity":"waste_basket"}},"type":"Feature"},
	{"geometry":{"coordinates":[25.064813,60.1959],"type":"Point"},"properties":{"osm_id":"478860703","tag":{"amenity":"waste_basket"}},"type":"Feature"},
	{"geometry":{"coordinates":[25.066107,60.196122],"type":"Point"},"properties":{"osm_id":"478860714","tag":{"amenity":"waste_basket"}},"type":"Feature"},
	{"geometry":{"coordinates":[25.068234,60.195294],"type":"Point"},"properties":{"osm_id":"478860717","tag":{"amenity":"waste_basket"}},"type":"Feature"},
	{"geometry":{"coordinates":[25.060283,60.193584],"type":"Point"},"properties":{"osm_id":"479148094","tag":{"amenity":"waste_basket"}},"type":"Feature"},
	{"geometry":{"coordinates":[25.054465,60.166291],"type":"Point"},"properties":{"osm_id":"623040018","tag":{"amenity":"recycling","recycling:cardboard":"yes","recycling:glass":"yes","recycling:paper":"yes","recycling_type":"container"}},"type":"Feature"},
	{"geometry":{"coordinates":[25.061184,60.191261],"type":"Point"},"properties":{"osm_id":"648660305","tag":{"amenity":"recycling"}},"type":"Feature"},
	{"geometry":{"coordinates":[25.056599,60.194376],"type":"Point"},"properties":{"osm_id":"665893771","tag":{"amenity":"waste_basket"}},"type":"Feature"},
	{"geometry":{"coordinates":[25.056136,60.172993],"type":"Point"},"properties":{"osm_id":"892544970","tag":{"amenity":"recycling","recycling:paper":"yes"}},"type":"Feature"},
	{"geometry":{"coordinates":[25.063307,60.163105],"type":"Point"},"properties":{"osm_id":"903426658","tag":{"amenity":"recycling","recycling:paper":"yes","recycling_type":"container"}},"type":"Feature"},
	{"geometry":{"coordinates":[25.059586,60.17814],"type":"Point"},"properties":{"highway":"street_lamp","osm_id":"2916398304","tag":{"amenity":"waste_basket","traffic_sign":"FI:521","traffic_sign:2":"FI:521c[\\]"}},"type":"Feature"},
	{"geometry":{"coordinates":[25.058489,60.181598],"type":"Point"},"properties":{"osm_id":"2916398380","tag":{"amenity":"waste_basket","traffic_sign":"FI:511"}},"type":"Feature"},
	{"geometry":{"coordinates":[25.057885,60.182477],"type":"Point"},"properties":{"osm_id":"2916398386","tag":{"amenity":"waste_basket"}},"type":"Feature"},
	{"geometry":{"coordinates":[25.05792,60.182946],"type":"Point"},"properties":{"osm_id":"2916398388","tag":{"amenity":"waste_basket"}},"type":"Feature"},
	{"geometry":{"coordinates":[25.05049,60.193479],"type":"Point"},"properties":{"highway":"street_lamp","osm_id":"5643798905","tag":{"amenity":"waste_basket"}},"type":"Feature"},
	{"geometry":{"coordinates":[25.052524,60.179063],"type":"Point"},"properties":{"osm_id":"5956325188","tag":{"amenity":"waste_basket"}},"type":"Feature"},
	{"geometry":{"coordinates":[25.1139,60.195142],"type":"Point"},"properties":{"osm_id":"6742451964","tag":{"amenity":"waste_basket"}},"type":"Feature"},
	{"geometry":{"coordinates":[25.063012,60.165068],"type":"Point"},"properties":{"osm_id":"7687714951","tag":{"amenity":"waste_disposal","operator":"Helsingin kaupunki","waste":"toilet"}},"type":"Feature"}
]
}
