{
"type": "FeatureCollection",
"features": [
	{"geometry":{"coordinates":[25.080983,59.365628],"type":"Point"},"properties":{"osm_id":"2420177375","tag":{"amenity":"waste_basket"}},"type":"Feature"},
	{"geometry":{"coordinates":[25.082425,59.363961],"type":"Point"},"properties":{"osm_id":"2875787965","tag":{"amenity":"waste_disposal"}},"type":"Feature"},
	{"geometry":{"coordinates":[25.080229,59.364649],"type":"Point"},"properties":{"osm_id":"2875787966","tag":{"amenity":"waste_disposal"}},"type":"Feature"},
	{"geometry":{"coordinates":[25.082249,59.364738],"type":"Point"},"properties":{"osm_id":"2875787967","tag":{"amenity":"waste_disposal"}},"type":"Feature"},
	{"geometry":{"coordinates":[25.082279,59.364741],"type":"Point"},"properties":{"osm_id":"2875787968","tag":{"amenity":"waste_disposal"}},"type":"Feature"},
	{"geometry":{"coordinates":[25.082193,59.364829],"type":"Point"},"properties":{"osm_id":"2875787970","tag":{"amenity":"waste_disposal"}},"type":"Feature"},
	{"geometry":{"coordinates":[25.08222,59.364832],"type":"Point"},"properties":{"osm_id":"2875787971","tag":{"amenity":"waste_disposal"}},"type":"Feature"},
	{"geometry":{"coordinates":[25.081145,59.364917],"type":"Point"},"properties":{"osm_id":"2875787972","tag":{"amenity":"waste_disposal"}},"type":"Feature"},
	{"geometry":{"coordinates":[25.081188,59.364931],"type":"Point"},"properties":{"osm_id":"2875787973","tag":{"amenity":"waste_disposal"}},"type":"Feature"},
	{"geometry":{"coordinates":[25.079694,59.365475],"type":"Point"},"properties":{"osm_id":"2875815108","tag":{"amenity":"waste_disposal"}},"type":"Feature"},
	{"geometry":{"coordinates":[25.079695,59.365503],"type":"Point"},"properties":{"osm_id":"2875815110","tag":{"amenity":"waste_disposal"}},"type":"Feature"},
	{"geometry":{"coordinates":[25.079688,59.365528],"type":"Point"},"properties":{"osm_id":"2875815111","tag":{"amenity":"waste_disposal"}},"type":"Feature"},
	{"geometry":{"coordinates":[25.079693,59.365552],"type":"Point"},"properties":{"osm_id":"2875815114","tag":{"amenity":"waste_disposal"}},"type":"Feature"},
	{"geometry":{"coordinates":[25.080368,59.366005],"type":"Point"},"properties":{"osm_id":"2875815190","tag":{"amenity":"waste_basket"}},"type":"Feature"},
	{"geometry":{"coordinates":[25.079483,59.369019],"type":"Point"},"properties":{"osm_id":"2875815239","tag":{"amenity":"waste_basket"}},"type":"Feature"},
	{"geometry":{"coordinates":[25.078164,59.370715],"type":"Point"},"properties":{"osm_id":"2875815240","tag":{"amenity":"waste_basket"}},"type":"Feature"},
	{"geometry":{"coordinates":[25.078301,59.372003],"type":"Point"},"properties":{"osm_id":"2875815241","tag":{"amenity":"waste_basket"}},"type":"Feature"},
	{"geometry":{"coordinates":[25.079702,59.372034],"type":"Point"},"properties":{"osm_id":"2875815242","tag":{"amenity":"waste_basket"}},"type":"Feature"},
	{"geometry":{"coordinates":[25.078017,59.370628],"type":"Point"},"properties":{"name":"Taarapunkt","osm_id":"3731723606","tag":{"amenity":"recycling","opening_hours":"09:00-22:00","recycling:aluminium_cans":"yes","recycling:glass_bottles":"yes","recycling:plastic_bottles":"yes","recycling_type":"centre","wheelchair":"yes"}},"type":"Feature"},
	{"geometry":{"coordinates":[25.069282,59.360886],"type":"Point"},"properties":{"osm_id":"5662764816","tag":{"access":"private","amenity":"waste_disposal"}},"type":"Feature"},
	{"geometry":{"coordinates":[25.069288,59.360884],"type":"Point"},"properties":{"osm_id":"5710330190","tag":{"access":"private","amenity":"waste_disposal"}},"type":"Feature"},
	{"geometry":{"coordinates":[25.069295,59.360881],"type":"Point"},"properties":{"osm_id":"5710330191","tag":{"access":"private","amenity":"waste_disposal"}},"type":"Feature"}
]
}
