{
"type": "FeatureCollection",
"features": [
	{"geometry":{"coordinates":[-114.005613,51.259642],"type":"Point"},"properties":{"osm_id":"1312466245","tag":{"amenity":"recycling","recycling:cans":"yes","recycling:clothes":"yes","recycling:glass":"yes","recycling:paper":"yes","recycling:scrap_metal":"yes","recycling_type":"container"}},"type":"Feature"},
	{"geometry":{"coordinates":[-114.026658,51.274486],"type":"Point"},"properties":{"osm_id":"6197312299","tag":{"amenity":"waste_basket"}},"type":"Feature"},
	{"geometry":{"coordinates":[-114.026463,51.275443],"type":"Point"},"properties":{"osm_id":"6197312306","tag":{"amenity":"waste_basket"}},"type":"Feature"},
	{"geometry":{"coordinates":[-114.026842,51.272949],"type":"Point"},"properties":{"osm_id":"6197312340","tag":{"amenity":"waste_basket"}},"type":"Feature"},
	{"geometry":{"coordinates":[-114.025916,51.273746],"type":"Point"},"properties":{"osm_id":"6226583828","tag":{"amenity":"waste_basket"}},"type":"Feature"},
	{"geometry":{"coordinates":[-114.030725,51.272668],"type":"Point"},"properties":{"osm_id":"6228747944","tag":{"amenity":"waste_basket"}},"type":"Feature"},
	{"geometry":{"coordinates":[-114.02994,51.272711],"type":"Point"},"properties":{"osm_id":"6228747951","tag":{"amenity":"waste_basket"}},"type":"Feature"},
	{"geometry":{"coordinates":[-114.030179,51.272793],"type":"Point"},"properties":{"osm_id":"6228749997","tag":{"amenity":"waste_basket"}},"type":"Feature"},
	{"geometry":{"coordinates":[-114.022132,51.27994],"type":"Point"},"properties":{"osm_id":"6371429271","tag":{"amenity":"waste_basket"}},"type":"Feature"},
	{"geometry":{"coordinates":[-114.020398,51.275018],"type":"Point"},"properties":{"osm_id":"6384602062","tag":{"amenity":"waste_basket"}},"type":"Feature"},
	{"geometry":{"coordinates":[-114.026736,51.273811],"type":"Point"},"properties":{"osm_id":"6405187709","tag":{"amenity":"waste_basket"}},"type":"Feature"},
	{"geometry":{"coordinates":[-114.024875,51.268891],"type":"Point"},"properties":{"osm_id":"7451078522","tag":{"amenity":"waste_basket","waste":"trash"}},"type":"Feature"},
	{"geometry":{"coordinates":[-114.004035,51.258584],"type":"Point"},"properties":{"osm_id":"7593861216","tag":{"access":"customers","door":"sliding","entrance":"exit"}},"type":"Feature"},
	{"geometry":{"coordinates":[-114.003921,51.258585],"type":"Point"},"properties":{"osm_id":"7593861217","tag":{"access":"customers","door":"sliding","entrance":"yes"}},"type":"Feature"},
	{"geometry":{"coordinates":[-114.002525,51.261699],"type":"Point"},"properties":{"osm_id":"7610724146","tag":{"amenity":"waste_basket","waste":"trash"}},"type":"Feature"},
	{"geometry":{"coordinates":[-114.048402,51.288435],"type":"Point"},"properties":{"osm_id":"7618283976","tag":{"amenity":"waste_basket","waste":"trash"}},"type":"Feature"},
	{"geometry":{"coordinates":[-114.048233,51.271456],"type":"Point"},"properties":{"osm_id":"7618284010","tag":{"amenity":"waste_basket","waste":"trash"}},"type":"Feature"},
	{"geometry":{"coordinates":[-114.011862,51.278037],"type":"Point"},"properties":{"osm_id":"7872979012","tag":{"amenity":"waste_basket","waste":"trash"}},"type":"Feature"},
	{"geometry":{"coordinates":[-114.016929,51.262543],"type":"Point"},"properties":{"osm_id":"7873027965","tag":{"amenity":"waste_basket","waste":"trash"}},"type":"Feature"},
	{"geometry":{"coordinates":[-114.01679,51.263305],"type":"Point"},"properties":{"osm_id":"7873027966","tag":{"amenity":"waste_basket","waste":"trash"}},"type":"Feature"}
]
}
