{
"type": "FeatureCollection",
"features": [
	{"geometry":{"coordinates":[-114.07163,51.127332],"type":"Point"},"properties":{"name":"Beddington Recycling Depot","osm_id":"296032483","tag":{"amenity":"recycling","recycling:batteries":"no","recycling:clothes":"yes","recycling:glass":"yes"}},"type":"Feature"},
	{"geometry":{"coordinates":[-114.06959,51.158919],"type":"Point"},"properties":{"name":"Country Hills Recycling Depot","osm_id":"296596829","tag":{"amenity":"recycling"}},"type":"Feature"},
	{"geometry":{"coordinates":[-114.072436,51.142575],"type":"Point"},"properties":{"name":"Beddington Heights Bottle Depot","osm_id":"309277933","tag":{"amenity":"recycling"}},"type":"Feature"},
	{"geometry":{"coordinates":[-114.054507,51.146908],"type":"Point"},"properties":{"osm_id":"4404411389","tag":{"amenity":"waste_basket"}},"type":"Feature"},
	{"geometry":{"coordinates":[-114.060122,51.14746],"type":"Point"},"properties":{"osm_id":"4404411390","tag":{"amenity":"waste_basket"}},"type":"Feature"},
	{"geometry":{"coordinates":[-114.05754,51.144194],"type":"Point"},"properties":{"osm_id":"4404431920","tag":{"amenity":"waste_basket"}},"type":"Feature"},
	{"geometry":{"coordinates":[-114.046289,51.144216],"type":"Point"},"properties":{"osm_id":"4472992588","tag":{"amenity":"waste_basket"}},"type":"Feature"},
	{"geometry":{"coordinates":[-114.081609,51.138803],"type":"Point"},"properties":{"osm_id":"4820961778","tag":{"amenity":"waste_basket"}},"type":"Feature"},
	{"geometry":{"coordinates":[-114.074313,51.170442],"type":"Point"},"properties":{"osm_id":"6638491246","tag":{"amenity":"waste_basket"}},"type":"Feature"},
	{"geometry":{"coordinates":[-114.076139,51.144547],"type":"Point"},"properties":{"osm_id":"6899454342","tag":{"amenity":"waste_basket"}},"type":"Feature"},
	{"geometry":{"coordinates":[-114.043475,51.147812],"type":"Point"},"properties":{"osm_id":"7391243959","tag":{"amenity":"recycling","recycling_type":"container"}},"type":"Feature"},
	{"geometry":{"coordinates":[-114.044354,51.150061],"type":"Point"},"properties":{"osm_id":"7391248698","tag":{"amenity":"waste_basket"}},"type":"Feature"},
	{"geometry":{"coordinates":[-114.044368,51.150057],"type":"Point"},"properties":{"osm_id":"7391248699","tag":{"amenity":"recycling","recycling_type":"container"}},"type":"Feature"},
	{"geometry":{"coordinates":[-114.043591,51.146601],"type":"Point"},"properties":{"osm_id":"7391284510","tag":{"amenity":"waste_basket"}},"type":"Feature"},
	{"geometry":{"coordinates":[-114.042966,51.148396],"type":"Point"},"properties":{"osm_id":"7391284523","tag":{"amenity":"waste_basket"}},"type":"Feature"},
	{"geometry":{"coordinates":[-114.04992,51.144803],"type":"Point"},"properties":{"osm_id":"7391446765","tag":{"amenity":"waste_basket","waste":"trash"}},"type":"Feature"}
]
}
