{
"type": "FeatureCollection",
"lastupdate": "2020-08-05T00:00:00Z",
"features": [
	{"geometry":{"coordinates":[-114.015394,50.984121],"type":"Point"},"properties":{"osm_id":"471275258","tag":{"amenity":"recycling"}},"type":"Feature"},
	{"geometry":{"coordinates":[-114.043649,50.986882],"type":"Point"},"properties":{"name":"Deerfoot Meadows Depot","osm_id":"1379435650","tag":{"amenity":"recycling"}},"type":"Feature"},
	{"geometry":{"coordinates":[-114.062755,50.997952],"type":"Point"},"properties":{"name":"Chinook Bottle Depot","osm_id":"1630912258","tag":{"amenity":"recycling","recycling_type":"centre"}},"type":"Feature"},
	{"geometry":{"coordinates":[-114.060187,50.978452],"type":"Point"},"properties":{"name":"City of Calgary","osm_id":"2273046969","tag":{"amenity":"recycling","recycling:cans":"yes","recycling:clothes":"yes","recycling:glass":"yes","recycling:glass_bottles":"yes","recycling:paper":"yes","recycling:plastic":"yes","recycling_type":"centre"}},"type":"Feature"},
	{"geometry":{"coordinates":[-114.021144,50.961103],"type":"Point"},"properties":{"osm_id":"2758764818","tag":{"amenity":"waste_basket"}},"type":"Feature"},
	{"geometry":{"coordinates":[-114.02491,50.97012],"type":"Point"},"properties":{"osm_id":"2781864411","tag":{"amenity":"waste_basket"}},"type":"Feature"},
	{"geometry":{"coordinates":[-114.020676,50.964863],"type":"Point"},"properties":{"osm_id":"2887981101","tag":{"amenity":"waste_basket"}},"type":"Feature"},
	{"geometry":{"coordinates":[-114.027493,50.969156],"type":"Point"},"properties":{"osm_id":"3534309602","tag":{"amenity":"waste_basket"}},"type":"Feature"},
	{"geometry":{"coordinates":[-114.030143,50.969637],"type":"Point"},"properties":{"osm_id":"4449420401","tag":{"amenity":"waste_basket"}},"type":"Feature"},
	{"geometry":{"coordinates":[-114.016548,50.969952],"type":"Point"},"properties":{"osm_id":"4475269708","tag":{"amenity":"waste_basket"}},"type":"Feature"},
	{"geometry":{"coordinates":[-114.002538,50.973395],"type":"Point"},"properties":{"osm_id":"4475310618","tag":{"amenity":"waste_basket"}},"type":"Feature"},
	{"geometry":{"coordinates":[-114.025625,50.978262],"type":"Point"},"properties":{"osm_id":"4475423766","tag":{"amenity":"waste_basket"}},"type":"Feature"},
	{"geometry":{"coordinates":[-114.001932,50.962094],"type":"Point"},"properties":{"osm_id":"4589582281","tag":{"amenity":"waste_basket"}},"type":"Feature"},
	{"geometry":{"coordinates":[-114.07399,50.977611],"type":"Point"},"properties":{"name":"Trail Bottle Depot","osm_id":"4768546879","tag":{"amenity":"recycling"}},"type":"Feature"},
	{"geometry":{"coordinates":[-114.06949,50.968457],"type":"Point"},"properties":{"osm_id":"4800015400","tag":{"amenity":"recycling","operator":"City of Calgary","recycling:cans":"yes","recycling:clothes":"yes","recycling:glass":"yes","recycling:glass_bottles":"yes","recycling:paper":"yes","recycling:plastic":"yes","recycling_type":"centre"}},"type":"Feature"},
	{"geometry":{"coordinates":[-114.045243,50.960417],"type":"Point"},"properties":{"name":"Moms Canada","osm_id":"4995514813","tag":{"amenity":"recycling","recycling:clothes":"yes","website":"http://www.momscanada.com"}},"type":"Feature"},
	{"geometry":{"coordinates":[-114.081568,50.988775],"type":"Point"},"properties":{"osm_id":"5194252493","tag":{"amenity":"waste_basket"}},"type":"Feature"},
	{"geometry":{"coordinates":[-114.013689,50.958486],"type":"Point"},"properties":{"osm_id":"5581273193","tag":{"amenity":"waste_basket"}},"type":"Feature"}
]
}
