{
"type": "FeatureCollection",
"features": [
	{"geometry":{"coordinates":[-113.994472,50.95208],"type":"Point"},"properties":{"osm_id":"675134841","tag":{"amenity":"recycling"}},"type":"Feature"},
	{"geometry":{"coordinates":[-114.028836,50.931317],"type":"Point"},"properties":{"name":"Deer Valley Recycling","osm_id":"1799398333","tag":{"amenity":"recycling","recycling_type":"container"}},"type":"Feature"},
	{"geometry":{"coordinates":[-114.043358,50.936058],"type":"Point"},"properties":{"osm_id":"1877091262","tag":{"amenity":"waste_basket"}},"type":"Feature"},
	{"geometry":{"coordinates":[-114.018962,50.909689],"type":"Point"},"properties":{"osm_id":"1928167587","tag":{"amenity":"waste_basket"}},"type":"Feature"},
	{"geometry":{"coordinates":[-114.018858,50.909577],"type":"Point"},"properties":{"osm_id":"1928168905","tag":{"amenity":"recycling"}},"type":"Feature"},
	{"geometry":{"coordinates":[-114.055224,50.914555],"type":"Point"},"properties":{"osm_id":"1938043761","tag":{"amenity":"waste_basket"}},"type":"Feature"},
	{"geometry":{"coordinates":[-114.043084,50.937118],"type":"Point"},"properties":{"osm_id":"2245792281","tag":{"amenity":"waste_basket"}},"type":"Feature"},
	{"geometry":{"coordinates":[-114.017873,50.956521],"type":"Point"},"properties":{"osm_id":"2756697164","tag":{"amenity":"waste_basket"}},"type":"Feature"},
	{"geometry":{"coordinates":[-114.020147,50.95594],"type":"Point"},"properties":{"osm_id":"2756725238","tag":{"amenity":"waste_basket"}},"type":"Feature"},
	{"geometry":{"coordinates":[-114.040419,50.932172],"type":"Point"},"properties":{"osm_id":"2884606901","tag":{"amenity":"waste_basket"}},"type":"Feature"},
	{"geometry":{"coordinates":[-114.01081,50.934823],"type":"Point"},"properties":{"osm_id":"4274763769","tag":{"amenity":"waste_basket"}},"type":"Feature"},
	{"geometry":{"coordinates":[-114.032666,50.947562],"type":"Point"},"properties":{"osm_id":"4446913409","tag":{"amenity":"waste_basket"}},"type":"Feature"},
	{"geometry":{"coordinates":[-114.055924,50.914889],"type":"Point"},"properties":{"osm_id":"4450960668","tag":{"amenity":"waste_basket"}},"type":"Feature"},
	{"geometry":{"coordinates":[-114.068412,50.916409],"type":"Point"},"properties":{"name":"Fish Creek Bottle Depot","osm_id":"4753694402","tag":{"amenity":"recycling"}},"type":"Feature"},
	{"geometry":{"coordinates":[-114.073103,50.928973],"type":"Point"},"properties":{"osm_id":"4855767137","tag":{"amenity":"waste_basket"}},"type":"Feature"},
	{"geometry":{"coordinates":[-114.078849,50.949974],"type":"Point"},"properties":{"osm_id":"5899987404","tag":{"amenity":"waste_basket"}},"type":"Feature"},
	{"geometry":{"coordinates":[-114.028745,50.948169],"type":"Point"},"properties":{"osm_id":"6997148385","tag":{"amenity":"waste_basket","colour":"Black","material":"steel","waste":"trash"}},"type":"Feature"}
]
}
