{
"type": "FeatureCollection",
"features": [
	{"geometry":{"coordinates":[134.203449,35.156211],"type":"Point"},"properties":{"osm_id":"5835897057","tag":{"addr:city":"\u00e5\u00a5\u0088\u00e7\u00be\u00a9\u00e7\u0094\u00ba","addr:county":"\u00e5\u008b\u009d\u00e7\u0094\u00b0\u00e9\u0083\u00a1","addr:postcode":"7081307","addr:province":"\u00e5\u00b2\u00a1\u00e5\u00b1\u00b1\u00e7\u009c\u008c","addr:quarter":"\u00e9\u00ab\u0098\u00e5\u0086\u0086","denotation":"religious","leaf_cycle":"deciduous","leaf_type":"broadleaved","name:en":"Great Ginkgo of Bodaiji Temple","name:ja":"\u00e8\u008f\u00a9\u00e6\u008f\u0090\u00e5\u00af\u00ba\u00e3\u0081\u00ae\u00e5\u00a4\u00a7\u00e3\u0082\u00a4\u00e3\u0083\u0081\u00e3\u0083\u00a7\u00e3\u0082\u00a6","name:ja-Hira":"\u00e3\u0081\u00bc\u00e3\u0081\u00a0\u00e3\u0081\u0084\u00e3\u0081\u0098\u00e3\u0081\u00ae\u00e3\u0081\u008a\u00e3\u0081\u008a\u00e3\u0081\u0084\u00e3\u0081\u00a1\u00e3\u0082\u0087\u00e3\u0081\u0086","natural":"tree","website":"http://www.town.nagi.okayama.jp/library/siseki/siseki32.html","website_1":"http://www.town.nagi.okayama.jp/kankou/kankou_spot/shizen/bodaiji_ichou.html"}},"type":"Feature"},
	{"geometry":{"coordinates":[134.203433,35.154873],"type":"Point"},"properties":{"osm_id":"5835913686","tag":{"addr:city":"\u00e5\u00a5\u0088\u00e7\u00be\u00a9\u00e7\u0094\u00ba","addr:county":"\u00e5\u008b\u009d\u00e7\u0094\u00b0\u00e9\u0083\u00a1","addr:postcode":"7081307","addr:province":"\u00e5\u00b2\u00a1\u00e5\u00b1\u00b1\u00e7\u009c\u008c","addr:quarter":"\u00e9\u00ab\u0098\u00e5\u0086\u0086","denotation":"single","leaf_cycle":"deciduous","leaf_type":"broadleaved","name:en":"Wild Japanese Pear of Bodaiji Temple","name:ja":"\u00e8\u008f\u00a9\u00e6\u008f\u0090\u00e5\u00af\u00ba\u00e3\u0081\u00ae\u00e5\u00b1\u00b1\u00e6\u00a2\u00a8","name:ja-Hira":"\u00e3\u0081\u00bc\u00e3\u0081\u00a0\u00e3\u0081\u0084\u00e3\u0081\u0098\u00e3\u0081\u00ae\u00e3\u0082\u0084\u00e3\u0081\u00be\u00e3\u0081\u00aa\u00e3\u0081\u0097","natural":"tree","website":"http://www.town.nagi.okayama.jp/library/siseki/siseki39.html"}},"type":"Feature"},
	{"geometry":{"coordinates":[134.203191,35.156223],"type":"Point"},"properties":{"osm_id":"5880206185","tag":{"addr:city":"\u00e5\u00a5\u0088\u00e7\u00be\u00a9\u00e7\u0094\u00ba","addr:county":"\u00e5\u008b\u009d\u00e7\u0094\u00b0\u00e9\u0083\u00a1","addr:postcode":"7081307","addr:province":"\u00e5\u00b2\u00a1\u00e5\u00b1\u00b1\u00e7\u009c\u008c","addr:quarter":"\u00e9\u00ab\u0098\u00e5\u0086\u0086","denotation":"natural_monument","leaf_cycle":"evergreen","leaf_type":"needleleaved","name:en":"Broadleaf Cedar of Bodaiji Temple","name:ja":"\u00e8\u008f\u00a9\u00e6\u008f\u0090\u00e5\u00af\u00ba\u00e3\u0081\u00ae\u00e5\u00ba\u0083\u00e8\u0091\u0089\u00e6\u009d\u0089","name:ja-Hira":"\u00e3\u0081\u00bc\u00e3\u0081\u00a0\u00e3\u0081\u0084\u00e3\u0081\u0098\u00e3\u0081\u00ae\u00e3\u0081\u0093\u00e3\u0081\u0086\u00e3\u0082\u0088\u00e3\u0081\u0086\u00e3\u0081\u0096\u00e3\u0082\u0093","natural":"tree","website":"http://www.town.nagi.okayama.jp/library/siseki/siseki38.html"}},"type":"Feature"}
]
}
