{
"type": "FeatureCollection",
"features": [
	{"geometry":{"coordinates":[-116.628707,51.849794],"type":"Point"},"properties":{"osm_id":"3594257562","tag":{"amenity":"waste_basket"}},"type":"Feature"},
	{"geometry":{"coordinates":[-116.6209,51.840659],"type":"Point"},"properties":{"osm_id":"4194144019","tag":{"amenity":"recycling"}},"type":"Feature"},
	{"geometry":{"coordinates":[-116.621864,51.841371],"type":"Point"},"properties":{"osm_id":"4194144020","tag":{"amenity":"recycling"}},"type":"Feature"},
	{"geometry":{"coordinates":[-116.622561,51.843021],"type":"Point"},"properties":{"osm_id":"4194144021","tag":{"amenity":"recycling"}},"type":"Feature"},
	{"geometry":{"coordinates":[-116.622542,51.843351],"type":"Point"},"properties":{"osm_id":"4194144022","tag":{"amenity":"recycling","recycling_type":"container"}},"type":"Feature"},
	{"geometry":{"coordinates":[-116.623271,51.84356],"type":"Point"},"properties":{"osm_id":"4194144023","tag":{"amenity":"recycling"}},"type":"Feature"},
	{"geometry":{"coordinates":[-116.621369,51.842892],"type":"Point"},"properties":{"osm_id":"4194144024","tag":{"amenity":"recycling"}},"type":"Feature"}
]
}
