{
"type": "FeatureCollection",
"features": [
	{"geometry":{"coordinates":[5.364244,52.157883],"type":"Point"},"properties":{"name":"glasbak","osm_id":"457561847","tag":{"amenity":"recycling","recycling_type":"container"}},"type":"Feature"},
	{"geometry":{"coordinates":[5.365765,52.160048],"type":"Point"},"properties":{"osm_id":"465500822","tag":{"amenity":"recycling","recycling:glass":"yes","recycling:plastic":"yes","recycling_type":"container"}},"type":"Feature"},
	{"geometry":{"coordinates":[5.392729,52.150655],"type":"Point"},"properties":{"osm_id":"1158264091","tag":{"amenity":"recycling","recycling:clothes":"yes","recycling:glass_bottles":"yes","recycling:plastic":"yes","recycling_type":"container"}},"type":"Feature"},
	{"geometry":{"coordinates":[5.375338,52.158149],"type":"Point"},"properties":{"osm_id":"1315422715","tag":{"amenity":"recycling","recycling_type":"container"}},"type":"Feature"},
	{"geometry":{"coordinates":[5.437435,52.109243],"type":"Point"},"properties":{"osm_id":"1394177403","tag":{"amenity":"waste_basket"}},"type":"Feature"},
	{"geometry":{"coordinates":[5.440986,52.114717],"type":"Point"},"properties":{"osm_id":"1394177426","tag":{"amenity":"waste_basket"}},"type":"Feature"},
	{"geometry":{"coordinates":[5.43047,52.146224],"type":"Point"},"properties":{"osm_id":"1394177794","tag":{"amenity":"waste_basket"}},"type":"Feature"},
	{"geometry":{"coordinates":[5.399647,52.146761],"type":"Point"},"properties":{"osm_id":"1394177799","tag":{"amenity":"waste_basket"}},"type":"Feature"},
	{"geometry":{"coordinates":[5.423819,52.147215],"type":"Point"},"properties":{"osm_id":"1394177813","tag":{"amenity":"waste_basket"}},"type":"Feature"},
	{"geometry":{"coordinates":[5.430534,52.141062],"type":"Point"},"properties":{"osm_id":"1656121298","tag":{"amenity":"recycling","recycling:clothes":"yes","recycling:glass_bottles":"no","recycling_type":"container"}},"type":"Feature"},
	{"geometry":{"coordinates":[5.427173,52.137777],"type":"Point"},"properties":{"osm_id":"1671334388","tag":{"amenity":"recycling","recycling:glass_bottles":"yes","recycling:plastic":"yes","recycling_type":"container"}},"type":"Feature"},
	{"geometry":{"coordinates":[5.427911,52.131289],"type":"Point"},"properties":{"osm_id":"1671334390","tag":{"amenity":"recycling","recycling:glass_bottles":"yes","recycling_type":"container"}},"type":"Feature"},
	{"geometry":{"coordinates":[5.427301,52.13732],"type":"Point"},"properties":{"osm_id":"1671334401","tag":{"amenity":"recycling","recycling:glass_bottles":"yes","recycling_type":"container"}},"type":"Feature"},
	{"geometry":{"coordinates":[5.426301,52.13407],"type":"Point"},"properties":{"osm_id":"1671334408","tag":{"amenity":"recycling","recycling:glass_bottles":"yes","recycling_type":"container"}},"type":"Feature"},
	{"geometry":{"coordinates":[5.424823,52.14557],"type":"Point"},"properties":{"osm_id":"1671334410","tag":{"amenity":"recycling","recycling:glass_bottles":"yes","recycling_type":"container"}},"type":"Feature"},
	{"geometry":{"coordinates":[5.426773,52.12836],"type":"Point"},"properties":{"osm_id":"1671352422","tag":{"amenity":"recycling","recycling:glass_bottles":"yes","recycling_type":"container"}},"type":"Feature"},
	{"geometry":{"coordinates":[5.426513,52.128683],"type":"Point"},"properties":{"osm_id":"1671352424","tag":{"amenity":"recycling","recycling:clothes":"yes","recycling:glass_bottles":"yes","recycling_type":"container"}},"type":"Feature"},
	{"geometry":{"coordinates":[5.412684,52.150287],"type":"Point"},"properties":{"osm_id":"1671374648","tag":{"amenity":"recycling","recycling:glass_bottles":"yes","recycling:paper":"yes","recycling:plastic":"yes","recycling_type":"container"}},"type":"Feature"},
	{"geometry":{"coordinates":[5.405344,52.148193],"type":"Point"},"properties":{"osm_id":"1708980511","tag":{"amenity":"recycling","recycling:glass_bottles":"yes","recycling:paper":"yes","recycling:plastic":"yes","recycling_type":"container"}},"type":"Feature"},
	{"geometry":{"coordinates":[5.430777,52.143836],"type":"Point"},"properties":{"osm_id":"1712941886","tag":{"amenity":"recycling","recycling:glass":"yes","recycling_type":"container"}},"type":"Feature"},
	{"geometry":{"coordinates":[5.413184,52.157091],"type":"Point"},"properties":{"osm_id":"1712969245","tag":{"amenity":"recycling","recycling:clothes":"yes","recycling:glass_bottles":"yes","recycling:plastic":"yes","recycling_type":"container"}},"type":"Feature"},
	{"geometry":{"coordinates":[5.410939,52.160338],"type":"Point"},"properties":{"osm_id":"1712979124","tag":{"amenity":"recycling","recycling:paper":"yes","recycling:plastic":"yes","recycling_type":"container"}},"type":"Feature"},
	{"geometry":{"coordinates":[5.40867,52.155633],"type":"Point"},"properties":{"osm_id":"1712979140","tag":{"amenity":"recycling","recycling:glass_bottles":"yes","recycling:paper":"yes","recycling:plastic":"yes","recycling_type":"container"}},"type":"Feature"},
	{"geometry":{"coordinates":[5.399385,52.142557],"type":"Point"},"properties":{"osm_id":"1733007227","tag":{"amenity":"recycling","recycling:glass":"yes","recycling:plastic":"yes","recycling_type":"container"}},"type":"Feature"},
	{"geometry":{"coordinates":[5.404792,52.152102],"type":"Point"},"properties":{"osm_id":"1763709510","tag":{"amenity":"recycling","recycling:paper":"yes","recycling_type":"container"}},"type":"Feature"},
	{"geometry":{"coordinates":[5.408851,52.119348],"type":"Point"},"properties":{"osm_id":"1766112597","tag":{"amenity":"recycling","recycling:clothes":"yes","recycling:glass":"yes","recycling:paper":"yes","recycling:plastic":"yes","recycling_type":"container"}},"type":"Feature"},
	{"geometry":{"coordinates":[5.435021,52.132318],"type":"Point"},"properties":{"osm_id":"1797327031","tag":{"amenity":"recycling","recycling:glass":"yes","recycling_type":"container"}},"type":"Feature"},
	{"geometry":{"coordinates":[5.434984,52.132152],"type":"Point"},"properties":{"osm_id":"1797327033","tag":{"amenity":"recycling","recycling:clothes":"yes","recycling_type":"container"}},"type":"Feature"},
	{"geometry":{"coordinates":[5.435492,52.140184],"type":"Point"},"properties":{"osm_id":"1815999426","tag":{"amenity":"recycling","recycling:glass":"yes","recycling_type":"container"}},"type":"Feature"},
	{"geometry":{"coordinates":[5.431533,52.140649],"type":"Point"},"properties":{"osm_id":"1815999437","tag":{"amenity":"recycling","recycling:glass":"yes","recycling_type":"container"}},"type":"Feature"},
	{"geometry":{"coordinates":[5.438193,52.134673],"type":"Point"},"properties":{"osm_id":"1822571959","tag":{"amenity":"recycling","recycling:glass":"yes","recycling:plastic":"yes","recycling_type":"container"}},"type":"Feature"},
	{"geometry":{"coordinates":[5.443043,52.138061],"type":"Point"},"properties":{"name":"Glas container 702","osm_id":"1822571960","tag":{"amenity":"recycling","recycling:glass_bottles":"yes","recycling:glass_brown":"yes","recycling:glass_clear":"yes","recycling:glass_green":"yes","recycling:glass_jars":"yes","recycling:glass_white":"yes","recycling_type":"container"}},"type":"Feature"},
	{"geometry":{"coordinates":[5.443471,52.132075],"type":"Point"},"properties":{"osm_id":"1822571961","tag":{"amenity":"recycling","recycling:glass":"yes","recycling_type":"container"}},"type":"Feature"},
	{"geometry":{"coordinates":[5.419816,52.128754],"type":"Point"},"properties":{"osm_id":"1825222308","tag":{"amenity":"recycling","recycling:glass":"yes","recycling_type":"container"}},"type":"Feature"},
	{"geometry":{"coordinates":[5.386184,52.153607],"type":"Point"},"properties":{"osm_id":"1826634312","tag":{"amenity":"waste_disposal"}},"type":"Feature"},
	{"geometry":{"coordinates":[5.395361,52.157182],"type":"Point"},"properties":{"osm_id":"1826634333","tag":{"amenity":"waste_disposal"}},"type":"Feature"},
	{"geometry":{"coordinates":[5.39526,52.157523],"type":"Point"},"properties":{"osm_id":"1826634348","tag":{"amenity":"waste_disposal"}},"type":"Feature"},
	{"geometry":{"coordinates":[5.426081,52.128823],"type":"Point"},"properties":{"osm_id":"1827332971","tag":{"amenity":"recycling","recycling:clothes":"yes","recycling:glass":"yes","recycling_type":"container"}},"type":"Feature"},
	{"geometry":{"coordinates":[5.384243,52.149037],"type":"Point"},"properties":{"osm_id":"1918477026","tag":{"amenity":"recycling","recycling:plastic":"yes","recycling_type":"container"}},"type":"Feature"},
	{"geometry":{"coordinates":[5.386517,52.15232],"type":"Point"},"properties":{"osm_id":"1976421132","tag":{"amenity":"recycling","recycling:glass_bottles":"yes","recycling:paper":"yes","recycling:plastic":"yes","recycling_type":"container"}},"type":"Feature"},
	{"geometry":{"coordinates":[5.378532,52.149972],"type":"Point"},"properties":{"osm_id":"1976427921","tag":{"amenity":"recycling","recycling:clothes":"yes","recycling:glass":"yes","recycling:paper":"yes","recycling_type":"container"}},"type":"Feature"},
	{"geometry":{"coordinates":[5.377164,52.157469],"type":"Point"},"properties":{"osm_id":"2338884938","tag":{"amenity":"waste_basket"}},"type":"Feature"},
	{"geometry":{"coordinates":[5.384398,52.154013],"type":"Point"},"properties":{"osm_id":"2362418429","tag":{"amenity":"recycling","recycling:glass_bottles":"yes","recycling_type":"container"}},"type":"Feature"},
	{"geometry":{"coordinates":[5.411942,52.150887],"type":"Point"},"properties":{"barrier":"bollard","osm_id":"3476421639","tag":{"amenity":"waste_basket"}},"type":"Feature"},
	{"geometry":{"coordinates":[5.440451,52.130099],"type":"Point"},"properties":{"osm_id":"3509188265","tag":{"amenity":"waste_basket"}},"type":"Feature"},
	{"geometry":{"coordinates":[5.44198,52.128235],"type":"Point"},"properties":{"osm_id":"3510892148","tag":{"amenity":"waste_basket"}},"type":"Feature"},
	{"geometry":{"coordinates":[5.440494,52.133461],"type":"Point"},"properties":{"osm_id":"3510892155","tag":{"amenity":"waste_basket"}},"type":"Feature"},
	{"geometry":{"coordinates":[5.445474,52.127519],"type":"Point"},"properties":{"osm_id":"3510892161","tag":{"amenity":"waste_basket"}},"type":"Feature"},
	{"geometry":{"coordinates":[5.440715,52.128241],"type":"Point"},"properties":{"osm_id":"3512476021","tag":{"amenity":"waste_basket"}},"type":"Feature"},
	{"geometry":{"coordinates":[5.438401,52.126771],"type":"Point"},"properties":{"osm_id":"3514061606","tag":{"amenity":"waste_basket"}},"type":"Feature"},
	{"geometry":{"coordinates":[5.435262,52.126818],"type":"Point"},"properties":{"osm_id":"3514071989","tag":{"amenity":"waste_basket"}},"type":"Feature"},
	{"geometry":{"coordinates":[5.434324,52.129459],"type":"Point"},"properties":{"osm_id":"3515405204","tag":{"amenity":"waste_basket"}},"type":"Feature"},
	{"geometry":{"coordinates":[5.444702,52.133819],"type":"Point"},"properties":{"osm_id":"3518729972","tag":{"amenity":"waste_basket"}},"type":"Feature"},
	{"geometry":{"coordinates":[5.444817,52.129139],"type":"Point"},"properties":{"osm_id":"3519730647","tag":{"amenity":"waste_basket"}},"type":"Feature"},
	{"geometry":{"coordinates":[5.441803,52.125552],"type":"Point"},"properties":{"osm_id":"3541152116","tag":{"amenity":"waste_basket"}},"type":"Feature"},
	{"geometry":{"coordinates":[5.443476,52.132352],"type":"Point"},"properties":{"osm_id":"3642069917","tag":{"amenity":"recycling","recycling_type":"container"}},"type":"Feature"},
	{"geometry":{"coordinates":[5.442308,52.135195],"type":"Point"},"properties":{"osm_id":"3643109438","tag":{"amenity":"waste_basket"}},"type":"Feature"},
	{"geometry":{"coordinates":[5.445717,52.13502],"type":"Point"},"properties":{"osm_id":"3643109440","tag":{"amenity":"waste_basket"}},"type":"Feature"},
	{"geometry":{"coordinates":[5.443679,52.13118],"type":"Point"},"properties":{"osm_id":"3643109441","tag":{"amenity":"waste_basket"}},"type":"Feature"},
	{"geometry":{"coordinates":[5.43735,52.12864],"type":"Point"},"properties":{"osm_id":"3646198051","tag":{"amenity":"waste_basket"}},"type":"Feature"},
	{"geometry":{"coordinates":[5.447564,52.135091],"type":"Point"},"properties":{"osm_id":"3740934740","tag":{"amenity":"waste_basket"}},"type":"Feature"},
	{"geometry":{"coordinates":[5.4414,52.137339],"type":"Point"},"properties":{"osm_id":"3742843506","tag":{"amenity":"waste_basket"}},"type":"Feature"},
	{"geometry":{"coordinates":[5.395108,52.150611],"type":"Point"},"properties":{"osm_id":"3822389816","tag":{"amenity":"waste_basket"}},"type":"Feature"},
	{"geometry":{"coordinates":[5.395577,52.155608],"type":"Point"},"properties":{"osm_id":"3822453951","tag":{"amenity":"waste_basket"}},"type":"Feature"},
	{"geometry":{"coordinates":[5.399338,52.147817],"type":"Point"},"properties":{"osm_id":"3822488498","tag":{"amenity":"waste_basket"}},"type":"Feature"},
	{"geometry":{"coordinates":[5.412775,52.143154],"type":"Point"},"properties":{"name":"De Spieghel","osm_id":"3993388518","tag":{"addr:city":"Leusden","addr:housenumber":"2","addr:postcode":"3833AH","addr:street":"Spieghelweg","amenity":"recycling","recycling:batteries":"yes","recycling:clothes":"yes","recycling:electrical_appliances":"yes","recycling:glass":"yes","recycling:glass_bottles":"yes","recycling:green_waste":"yes","recycling:paper":"yes","recycling:plastic":"yes","recycling:scrap_metal":"yes","recycling:wood":"yes","recycling_type":"centre","source:date":"2016-02-07","website":"https://www.openingstijden.com/o3478469/afvalbrengpunt-gemeente-leusden-spieghelweg-2-leusden/"}},"type":"Feature"},
	{"geometry":{"coordinates":[5.412624,52.142631],"type":"Point"},"properties":{"name":"SUEZ","osm_id":"3993390111","tag":{"addr:city":"Leusden","addr:housenumber":"4","addr:postcode":"3833AH","addr:street":"Spieghelweg","amenity":"recycling","old_name":"Sita","recycling_type":"centre","source:date":"2016-02-07","website":"http://www.sita.nl/"}},"type":"Feature"},
	{"geometry":{"coordinates":[5.390441,52.144863],"type":"Point"},"properties":{"osm_id":"4069653030","tag":{"amenity":"waste_basket"}},"type":"Feature"},
	{"geometry":{"coordinates":[5.418797,52.153854],"type":"Point"},"properties":{"osm_id":"4069689382","tag":{"amenity":"waste_basket"}},"type":"Feature"},
	{"geometry":{"coordinates":[5.44127,52.114971],"type":"Point"},"properties":{"osm_id":"4159005389","tag":{"amenity":"waste_basket"}},"type":"Feature"},
	{"geometry":{"coordinates":[5.44625,52.127974],"type":"Point"},"properties":{"osm_id":"4247909851","tag":{"amenity":"waste_basket"}},"type":"Feature"},
	{"geometry":{"coordinates":[5.446722,52.127675],"type":"Point"},"properties":{"osm_id":"4247909852","tag":{"amenity":"waste_basket"}},"type":"Feature"},
	{"geometry":{"coordinates":[5.446234,52.123295],"type":"Point"},"properties":{"osm_id":"4391389999","tag":{"amenity":"waste_basket"}},"type":"Feature"},
	{"geometry":{"coordinates":[5.441287,52.140516],"type":"Point"},"properties":{"name":"Tuingroendepot 916","osm_id":"4530499028","tag":{"amenity":"recycling","recycling:garden_waste":"yes","recycling_type":"container"}},"type":"Feature"},
	{"geometry":{"coordinates":[5.431069,52.145546],"type":"Point"},"properties":{"osm_id":"4538208414","tag":{"amenity":"recycling","recycling:green_waste":"yes","recycling_type":"container"}},"type":"Feature"},
	{"geometry":{"coordinates":[5.389799,52.157036],"type":"Point"},"properties":{"osm_id":"4880299510","tag":{"amenity":"waste_basket"}},"type":"Feature"},
	{"geometry":{"coordinates":[5.436427,52.129479],"type":"Point"},"properties":{"osm_id":"5049323936","tag":{"amenity":"recycling","recycling_type":"container"}},"type":"Feature"},
	{"geometry":{"coordinates":[5.443976,52.126758],"type":"Point"},"properties":{"osm_id":"5168899127","tag":{"amenity":"waste_disposal"}},"type":"Feature"},
	{"geometry":{"coordinates":[5.443688,52.126455],"type":"Point"},"properties":{"osm_id":"5168899324","tag":{"amenity":"waste_basket"}},"type":"Feature"},
	{"geometry":{"coordinates":[5.434217,52.127648],"type":"Point"},"properties":{"osm_id":"5263258270","tag":{"amenity":"recycling","recycling_type":"container"}},"type":"Feature"},
	{"geometry":{"coordinates":[5.434406,52.128819],"type":"Point"},"properties":{"osm_id":"5263258271","tag":{"amenity":"waste_basket"}},"type":"Feature"},
	{"geometry":{"coordinates":[5.440885,52.126493],"type":"Point"},"properties":{"osm_id":"5263266822","tag":{"amenity":"recycling","recycling_type":"container"}},"type":"Feature"},
	{"geometry":{"coordinates":[5.427469,52.137892],"type":"Point"},"properties":{"osm_id":"5285414809","tag":{"amenity":"recycling","recycling_type":"container"}},"type":"Feature"},
	{"geometry":{"coordinates":[5.398608,52.14547],"type":"Point"},"properties":{"osm_id":"5462503261","tag":{"amenity":"waste_basket"}},"type":"Feature"},
	{"geometry":{"coordinates":[5.399391,52.145396],"type":"Point"},"properties":{"osm_id":"5462503262","tag":{"amenity":"waste_basket"}},"type":"Feature"},
	{"geometry":{"coordinates":[5.399889,52.143391],"type":"Point"},"properties":{"osm_id":"5462503275","tag":{"amenity":"waste_basket"}},"type":"Feature"},
	{"geometry":{"coordinates":[5.37404,52.153608],"type":"Point"},"properties":{"osm_id":"5552892454","tag":{"amenity":"waste_basket","layer":"1"}},"type":"Feature"},
	{"geometry":{"coordinates":[5.374029,52.153713],"type":"Point"},"properties":{"osm_id":"5552892457","tag":{"amenity":"waste_basket","layer":"1"}},"type":"Feature"},
	{"geometry":{"coordinates":[5.374006,52.153948],"type":"Point"},"properties":{"osm_id":"5552892459","tag":{"amenity":"waste_basket","layer":"1"}},"type":"Feature"},
	{"geometry":{"coordinates":[5.374017,52.153841],"type":"Point"},"properties":{"osm_id":"5552892460","tag":{"amenity":"waste_basket","layer":"1"}},"type":"Feature"},
	{"geometry":{"coordinates":[5.373999,52.154028],"type":"Point"},"properties":{"osm_id":"5552892461","tag":{"amenity":"waste_basket","layer":"1"}},"type":"Feature"},
	{"geometry":{"coordinates":[5.373989,52.154161],"type":"Point"},"properties":{"osm_id":"5552892463","tag":{"amenity":"waste_basket","layer":"1"}},"type":"Feature"},
	{"geometry":{"coordinates":[5.440551,52.132218],"type":"Point"},"properties":{"osm_id":"5589839360","tag":{"amenity":"recycling","recycling_type":"container"}},"type":"Feature"},
	{"geometry":{"coordinates":[5.432091,52.136377],"type":"Point"},"properties":{"osm_id":"5589839361","tag":{"amenity":"recycling","recycling:waste":"yes","recycling_type":"container"}},"type":"Feature"},
	{"geometry":{"coordinates":[5.440827,52.135706],"type":"Point"},"properties":{"osm_id":"5589839362","tag":{"amenity":"waste_basket"}},"type":"Feature"},
	{"geometry":{"coordinates":[5.445929,52.136071],"type":"Point"},"properties":{"name":"Restafval container 87","osm_id":"5701444165","ref":"87","tag":{"amenity":"recycling","covered":"no","indoor":"no","recycling:waste":"yes","recycling_type":"container"}},"type":"Feature"},
	{"geometry":{"coordinates":[5.444065,52.137171],"type":"Point"},"properties":{"name":"PMD container 510","osm_id":"6126651134","tag":{"amenity":"recycling","recycling:cans":"yes","recycling:clothes":"no","recycling:glass":"no","recycling:glass_bottles":"no","recycling:paper":"no","recycling:plastic":"yes","recycling:plastic_bottles":"yes","recycling:plastic_packaging":"yes","recycling_type":"container"}},"type":"Feature"},
	{"geometry":{"coordinates":[5.443225,52.137894],"type":"Point"},"properties":{"name":"Tuingroendepot 920","osm_id":"6126651136","tag":{"amenity":"recycling","recycling:green_waste":"yes","recycling:organic":"yes","recycling:wood":"yes","recycling_type":"container"}},"type":"Feature"},
	{"geometry":{"coordinates":[5.443206,52.137867],"type":"Point"},"properties":{"name":"Restafval container 104","osm_id":"6126651139","tag":{"amenity":"recycling","recycling:general_waste":"yes","recycling_type":"container"}},"type":"Feature"},
	{"geometry":{"coordinates":[5.441377,52.140611],"type":"Point"},"properties":{"name":"Restafval container 107","osm_id":"6128513717","ref":"107","tag":{"amenity":"recycling","covered":"no","indoor":"no","recycling:general_waste":"yes","recycling:waste":"yes","recycling_type":"container"}},"type":"Feature"},
	{"geometry":{"coordinates":[5.441422,52.14064],"type":"Point"},"properties":{"name":"Textiel container","osm_id":"6347607457","tag":{"amenity":"recycling","covered":"no","indoor":"no","recycling:clothes":"yes","recycling_type":"container"}},"type":"Feature"},
	{"geometry":{"coordinates":[5.441398,52.140623],"type":"Point"},"properties":{"name":"Papier container 607","osm_id":"6347607458","ref":"607","tag":{"amenity":"recycling","covered":"no","indoor":"no","recycling:cardboard":"yes","recycling:paper":"yes","recycling_type":"container"}},"type":"Feature"},
	{"geometry":{"coordinates":[5.441317,52.14057],"type":"Point"},"properties":{"name":"PMD container 519","osm_id":"6347607459","ref":"519","tag":{"amenity":"recycling","covered":"no","indoor":"no","recycling:cans":"yes","recycling:glass":"no","recycling:plastic_bottles":"yes","recycling:plastic_packaging":"yes","recycling:pmd":"yes","recycling_type":"container"}},"type":"Feature"},
	{"geometry":{"coordinates":[5.441357,52.140599],"type":"Point"},"properties":{"name":"Glas container 736","osm_id":"6347607460","tag":{"amenity":"recycling","recycling:glass_bottles":"yes","recycling:glass_brown":"yes","recycling:glass_clear":"yes","recycling:glass_green":"yes","recycling:glass_jars":"yes","recycling:glass_white":"yes","recycling_type":"container"}},"type":"Feature"},
	{"geometry":{"coordinates":[5.441336,52.140584],"type":"Point"},"properties":{"name":"Glas container 735","osm_id":"6347607461","ref":"735","tag":{"amenity":"recycling","covered":"no","indoor":"no","recycling:glass_bottles":"yes","recycling:glass_brown":"yes","recycling:glass_clear":"yes","recycling:glass_green":"yes","recycling:glass_jars":"yes","recycling:glass_white":"yes","recycling_type":"container"}},"type":"Feature"},
	{"geometry":{"coordinates":[5.441138,52.138606],"type":"Point"},"properties":{"name":"GFT container 300","osm_id":"6347804723","tag":{"amenity":"recycling","recycling:green_waste":"yes","recycling_type":"container"}},"type":"Feature"},
	{"geometry":{"coordinates":[5.441157,52.138597],"type":"Point"},"properties":{"name":"Restafval container 1","osm_id":"6347804724","tag":{"amenity":"recycling","recycling:general_waste":"yes","recycling_type":"container"}},"type":"Feature"},
	{"geometry":{"coordinates":[5.44066,52.13789],"type":"Point"},"properties":{"osm_id":"6347804725","tag":{"amenity":"waste_basket"}},"type":"Feature"},
	{"geometry":{"coordinates":[5.438631,52.139145],"type":"Point"},"properties":{"osm_id":"6347804726","tag":{"amenity":"waste_basket"}},"type":"Feature"},
	{"geometry":{"coordinates":[5.443096,52.13813],"type":"Point"},"properties":{"osm_id":"6347804727","tag":{"amenity":"waste_basket"}},"type":"Feature"},
	{"geometry":{"coordinates":[5.441523,52.139992],"type":"Point"},"properties":{"osm_id":"6496196735","tag":{"amenity":"waste_basket"}},"type":"Feature"},
	{"geometry":{"coordinates":[5.402457,52.121829],"type":"Point"},"properties":{"osm_id":"6749047426","tag":{"amenity":"waste_basket","waste":"trash"}},"type":"Feature"},
	{"geometry":{"coordinates":[5.436803,52.141889],"type":"Point"},"properties":{"name":"Restafval container 76","osm_id":"6845533546","ref":"76","tag":{"amenity":"recycling","recycling:waste":"yes","recycling_type":"container"}},"type":"Feature"},
	{"geometry":{"coordinates":[5.428199,52.131152],"type":"Point"},"properties":{"osm_id":"7198432666","tag":{"amenity":"recycling","recycling:glass_bottles":"yes","recycling_type":"container"}},"type":"Feature"},
	{"geometry":{"coordinates":[5.43769,52.140556],"type":"Point"},"properties":{"name":"GFT container 353","osm_id":"7416526347","tag":{"amenity":"recycling","recycling:green_waste":"yes","recycling_type":"container"}},"type":"Feature"},
	{"geometry":{"coordinates":[5.437665,52.140558],"type":"Point"},"properties":{"name":"Restafval container 57","osm_id":"7416526348","tag":{"amenity":"recycling","covered":"no","indoor":"no","recycling:waste":"yes","recycling_type":"container"}},"type":"Feature"},
	{"geometry":{"coordinates":[5.437405,52.140859],"type":"Point"},"properties":{"osm_id":"7446986784","tag":{"amenity":"waste_basket"}},"type":"Feature"},
	{"geometry":{"coordinates":[5.437864,52.139538],"type":"Point"},"properties":{"name":"PMD container 527","osm_id":"7447047442","tag":{"amenity":"recycling","recycling:glass":"no","recycling:glass_bottles":"no","recycling:paper":"no","recycling:plastic_bottles":"yes","recycling:plastic_packaging":"yes","recycling_type":"container"}},"type":"Feature"},
	{"geometry":{"coordinates":[5.437885,52.139558],"type":"Point"},"properties":{"name":"GFT container 354","osm_id":"7447047443","tag":{"amenity":"recycling","recycling:green_waste":"yes","recycling_type":"container"}},"type":"Feature"},
	{"geometry":{"coordinates":[5.44017,52.140942],"type":"Point"},"properties":{"osm_id":"7447094193","tag":{"amenity":"waste_basket"}},"type":"Feature"},
	{"geometry":{"coordinates":[5.439368,52.140432],"type":"Point"},"properties":{"osm_id":"7447105491","tag":{"amenity":"waste_basket"}},"type":"Feature"},
	{"geometry":{"coordinates":[5.440817,52.140755],"type":"Point"},"properties":{"osm_id":"7447107988","tag":{"amenity":"waste_basket"}},"type":"Feature"},
	{"geometry":{"coordinates":[5.439005,52.142145],"type":"Point"},"properties":{"osm_id":"7447121953","tag":{"amenity":"waste_basket"}},"type":"Feature"},
	{"geometry":{"coordinates":[5.437104,52.13941],"type":"Point"},"properties":{"name":"Tuingroendepot 915","osm_id":"7532586245","tag":{"amenity":"recycling","recycling:green_waste":"yes","recycling_type":"container"}},"type":"Feature"},
	{"geometry":{"coordinates":[5.447426,52.137786],"type":"Point"},"properties":{"name":"Tuingroendepot 938","osm_id":"7532586246","tag":{"amenity":"recycling","recycling:green_waste":"yes","recycling_type":"container"}},"type":"Feature"},
	{"geometry":{"coordinates":[5.446867,52.13779],"type":"Point"},"properties":{"name":"Tuingroendepot 917","osm_id":"7532586247","tag":{"amenity":"recycling","recycling:green_waste":"yes","recycling_type":"container"}},"type":"Feature"},
	{"geometry":{"coordinates":[5.446653,52.13785],"type":"Point"},"properties":{"name":"Restafval container 105","osm_id":"7532586248","ref":"105","tag":{"amenity":"recycling","covered":"no","indoor":"no","recycling:waste":"yes","recycling_type":"container"}},"type":"Feature"},
	{"geometry":{"coordinates":[5.447459,52.137856],"type":"Point"},"properties":{"name":"Glas container 737","osm_id":"7532586249","ref":"737","tag":{"amenity":"recycling","recycling:cans":"no","recycling:cardboard":"no","recycling:clothes":"no","recycling:glass":"yes","recycling:glass_bottles":"yes","recycling:paper":"no","recycling:plastic":"no","recycling:plastic_bottles":"no","recycling:plastic_packaging":"no","recycling_type":"container"}},"type":"Feature"},
	{"geometry":{"coordinates":[5.447476,52.137841],"type":"Point"},"properties":{"name":"Glas container 738","osm_id":"7532586250","ref":"738","tag":{"amenity":"recycling","covered":"no","indoor":"no","recycling:cans":"no","recycling:cardboard":"no","recycling:clothes":"no","recycling:glass":"yes","recycling:glass_bottles":"yes","recycling:paper":"no","recycling:plastic":"no","recycling:plastic_bottles":"no","recycling:plastic_packaging":"no","recycling_type":"container"}},"type":"Feature"},
	{"geometry":{"coordinates":[5.447514,52.137815],"type":"Point"},"properties":{"name":"PMD container 518","osm_id":"7532586251","ref":"518","tag":{"amenity":"recycling","covered":"no","indoor":"no","recycling:cans":"yes","recycling:clothes":"no","recycling:glass":"no","recycling:glass_bottles":"no","recycling:paper":"no","recycling:plastic":"yes","recycling:plastic_bottles":"yes","recycling:plastic_packaging":"yes","recycling_type":"container"}},"type":"Feature"},
	{"geometry":{"coordinates":[5.444069,52.137154],"type":"Point"},"properties":{"name":"GFT container 348","osm_id":"7532586252","tag":{"amenity":"recycling","recycling:green_waste":"yes","recycling_type":"container"}},"type":"Feature"},
	{"geometry":{"coordinates":[5.447532,52.137799],"type":"Point"},"properties":{"name":"Papier container 608","osm_id":"7532586253","tag":{"amenity":"recycling","recycling:cans":"no","recycling:clothes":"no","recycling:glass":"no","recycling:glass_bottles":"no","recycling:paper":"yes","recycling:plastic":"no","recycling:plastic_bottles":"no","recycling:plastic_packaging":"no","recycling_type":"container"}},"type":"Feature"},
	{"geometry":{"coordinates":[5.441445,52.136454],"type":"Point"},"properties":{"name":"Restafval container 86","osm_id":"7532586254","ref":"86","tag":{"amenity":"recycling","covered":"no","indoor":"no","recycling_type":"container"}},"type":"Feature"},
	{"geometry":{"coordinates":[5.447565,52.137789],"type":"Point"},"properties":{"name":"Restafval container 106","osm_id":"7532586255","ref":"106","tag":{"amenity":"recycling","covered":"no","indoor":"no","recycling:waste":"yes","recycling_type":"container"}},"type":"Feature"},
	{"geometry":{"coordinates":[5.436772,52.141901],"type":"Point"},"properties":{"name":"GFT container 361","osm_id":"7532586256","tag":{"amenity":"recycling","recycling:green_waste":"yes","recycling_type":"container"}},"type":"Feature"},
	{"geometry":{"coordinates":[5.43883,52.140751],"type":"Point"},"properties":{"osm_id":"7700742931","tag":{"amenity":"waste_basket"}},"type":"Feature"},
	{"geometry":{"coordinates":[5.406936,52.159913],"type":"Point"},"properties":{"osm_id":"7807388285","tag":{"amenity":"waste_basket"}},"type":"Feature"},
	{"geometry":{"coordinates":[5.407457,52.160345],"type":"Point"},"properties":{"osm_id":"7809015286","tag":{"amenity":"waste_basket"}},"type":"Feature"},
	{"geometry":{"coordinates":[5.407038,52.159606],"type":"Point"},"properties":{"osm_id":"7809382387","tag":{"amenity":"waste_basket"}},"type":"Feature"},
	{"geometry":{"coordinates":[5.407825,52.159674],"type":"Point"},"properties":{"osm_id":"7811991589","tag":{"amenity":"waste_basket"}},"type":"Feature"},
	{"geometry":{"coordinates":[5.407478,52.159625],"type":"Point"},"properties":{"osm_id":"7812732185","tag":{"access":"private","amenity":"waste_disposal"}},"type":"Feature"},
	{"geometry":{"coordinates":[5.407519,52.159806],"type":"Point"},"properties":{"osm_id":"7813623309","tag":{"amenity":"recycling","recycling:paper":"yes","recycling_type":"container"}},"type":"Feature"},
	{"geometry":{"coordinates":[5.405272,52.160427],"type":"Point"},"properties":{"osm_id":"7817188398","tag":{"amenity":"waste_basket"}},"type":"Feature"},
	{"geometry":{"coordinates":[5.405367,52.160392],"type":"Point"},"properties":{"osm_id":"7817188399","tag":{"amenity":"waste_basket"}},"type":"Feature"},
	{"geometry":{"coordinates":[5.380912,52.143937],"type":"Point"},"properties":{"osm_id":"7853210074","tag":{"amenity":"recycling","recycling_type":"centre"}},"type":"Feature"},
	{"geometry":{"coordinates":[5.402851,52.159938],"type":"Point"},"properties":{"osm_id":"7867179989","tag":{"amenity":"recycling","recycling:clothes":"yes","recycling_type":"container"}},"type":"Feature"}
]
}
