{
"type": "FeatureCollection",
"features": [
	{"geometry":{"coordinates":[5.435922,51.512306],"type":"Point"},"properties":{"osm_id":"977895277","tag":{"amenity":"waste_basket","waste":"trash"}},"type":"Feature"},
	{"geometry":{"coordinates":[5.397486,51.512805],"type":"Point"},"properties":{"osm_id":"2720623892","tag":{"addr:city":"Best","addr:housenumber":"2A","addr:postcode":"5683KE","addr:street":"Den Ekker","amenity":"recycling","recycling:glass":"yes","recycling:glass_bottles":"yes","recycling_type":"container","source:date":"2014-02-11"}},"type":"Feature"},
	{"geometry":{"coordinates":[5.424486,51.549102],"type":"Point"},"properties":{"osm_id":"6255667214","tag":{"amenity":"waste_basket"}},"type":"Feature"},
	{"geometry":{"coordinates":[5.436108,51.544587],"type":"Point"},"properties":{"osm_id":"6255672581","tag":{"amenity":"waste_basket"}},"type":"Feature"},
	{"geometry":{"coordinates":[5.425482,51.516541],"type":"Point"},"properties":{"osm_id":"6255703611","tag":{"amenity":"waste_basket"}},"type":"Feature"},
	{"geometry":{"coordinates":[5.394135,51.512481],"type":"Point"},"properties":{"osm_id":"6268703492","tag":{"amenity":"waste_basket"}},"type":"Feature"},
	{"geometry":{"coordinates":[5.394043,51.512371],"type":"Point"},"properties":{"osm_id":"6268703504","tag":{"amenity":"waste_basket"}},"type":"Feature"},
	{"geometry":{"coordinates":[5.368394,51.531496],"type":"Point"},"properties":{"osm_id":"6271980782","tag":{"amenity":"waste_basket"}},"type":"Feature"},
	{"geometry":{"coordinates":[5.377474,51.521464],"type":"Point"},"properties":{"osm_id":"6286430003","tag":{"amenity":"waste_basket"}},"type":"Feature"},
	{"geometry":{"coordinates":[5.393723,51.531146],"type":"Point"},"properties":{"osm_id":"6352754274","tag":{"amenity":"waste_basket"}},"type":"Feature"},
	{"geometry":{"coordinates":[5.413273,51.513971],"type":"Point"},"properties":{"osm_id":"6352754379","tag":{"amenity":"waste_basket"}},"type":"Feature"},
	{"geometry":{"coordinates":[5.393765,51.538625],"type":"Point"},"properties":{"osm_id":"6352754380","tag":{"amenity":"waste_basket"}},"type":"Feature"},
	{"geometry":{"coordinates":[5.393657,51.541029],"type":"Point"},"properties":{"osm_id":"6352754445","tag":{"amenity":"waste_basket"}},"type":"Feature"},
	{"geometry":{"coordinates":[5.383921,51.561776],"type":"Point"},"properties":{"osm_id":"6373100407","tag":{"amenity":"waste_basket"}},"type":"Feature"},
	{"geometry":{"coordinates":[5.38094,51.509151],"type":"Point"},"properties":{"osm_id":"6565500385","tag":{"amenity":"waste_basket"}},"type":"Feature"},
	{"geometry":{"coordinates":[5.436487,51.514907],"type":"Point"},"properties":{"osm_id":"7380301891","tag":{"amenity":"waste_basket","waste":"trash"}},"type":"Feature"},
	{"geometry":{"coordinates":[5.441725,51.542851],"type":"Point"},"properties":{"osm_id":"7380301893","tag":{"amenity":"waste_basket","waste":"trash"}},"type":"Feature"},
	{"geometry":{"coordinates":[5.44206,51.514795],"type":"Point"},"properties":{"osm_id":"7380301894","tag":{"amenity":"waste_basket","waste":"trash"}},"type":"Feature"},
	{"geometry":{"coordinates":[5.427412,51.517021],"type":"Point"},"properties":{"osm_id":"7380301899","tag":{"amenity":"waste_basket","waste":"trash"}},"type":"Feature"},
	{"geometry":{"coordinates":[5.428678,51.515288],"type":"Point"},"properties":{"osm_id":"7380301908","tag":{"amenity":"waste_basket","waste":"trash"}},"type":"Feature"},
	{"geometry":{"coordinates":[5.447275,51.551362],"type":"Point"},"properties":{"osm_id":"7389921117","tag":{"amenity":"waste_basket"}},"type":"Feature"},
	{"geometry":{"coordinates":[5.433976,51.515086],"type":"Point"},"properties":{"osm_id":"7390322938","tag":{"amenity":"waste_basket"}},"type":"Feature"},
	{"geometry":{"coordinates":[5.435371,51.512313],"type":"Point"},"properties":{"osm_id":"7394641370","tag":{"amenity":"waste_basket","waste":"trash"}},"type":"Feature"},
	{"geometry":{"coordinates":[5.436555,51.511856],"type":"Point"},"properties":{"osm_id":"7394641379","tag":{"amenity":"waste_basket","waste":"trash"}},"type":"Feature"},
	{"geometry":{"coordinates":[5.436634,51.512125],"type":"Point"},"properties":{"osm_id":"7394641381","tag":{"amenity":"waste_basket","waste":"trash"}},"type":"Feature"},
	{"geometry":{"coordinates":[5.434746,51.512372],"type":"Point"},"properties":{"osm_id":"7395600896","tag":{"amenity":"waste_basket"}},"type":"Feature"},
	{"geometry":{"coordinates":[5.399644,51.509245],"type":"Point"},"properties":{"osm_id":"7399127325","tag":{"amenity":"recycling","location":"underground","recycling_type":"container"}},"type":"Feature"},
	{"geometry":{"coordinates":[5.399661,51.509224],"type":"Point"},"properties":{"osm_id":"7399127326","tag":{"amenity":"recycling","location":"underground","recycling_type":"container"}},"type":"Feature"},
	{"geometry":{"coordinates":[5.39466,51.511115],"type":"Point"},"properties":{"osm_id":"7399127334","tag":{"amenity":"recycling","location":"underground","recycling:glass_brown":"yes","recycling:glass_clear":"yes","recycling:glass_green":"yes","recycling_type":"container"}},"type":"Feature"},
	{"geometry":{"coordinates":[5.394645,51.511109],"type":"Point"},"properties":{"osm_id":"7399127335","tag":{"amenity":"recycling","location":"underground","recycling:glass_brown":"yes","recycling:glass_clear":"yes","recycling:glass_green":"yes","recycling_type":"container"}},"type":"Feature"},
	{"geometry":{"coordinates":[5.394164,51.511033],"type":"Point"},"properties":{"osm_id":"7399127336","tag":{"amenity":"recycling","location":"underground","recycling_type":"container"}},"type":"Feature"},
	{"geometry":{"coordinates":[5.39418,51.511017],"type":"Point"},"properties":{"osm_id":"7399127337","tag":{"amenity":"recycling","location":"underground","recycling_type":"container"}},"type":"Feature"},
	{"geometry":{"coordinates":[5.425746,51.51536],"type":"Point"},"properties":{"osm_id":"7419273782","tag":{"amenity":"waste_basket","waste":"trash"}},"type":"Feature"},
	{"geometry":{"coordinates":[5.434269,51.511693],"type":"Point"},"properties":{"osm_id":"7419279385","tag":{"amenity":"waste_basket","waste":"trash"}},"type":"Feature"},
	{"geometry":{"coordinates":[5.417572,51.509546],"type":"Point"},"properties":{"osm_id":"7419279386","tag":{"amenity":"waste_basket","waste":"trash"}},"type":"Feature"},
	{"geometry":{"coordinates":[5.4339,51.512602],"type":"Point"},"properties":{"osm_id":"7419957350","tag":{"amenity":"waste_basket"}},"type":"Feature"},
	{"geometry":{"coordinates":[5.433771,51.51269],"type":"Point"},"properties":{"osm_id":"7419957351","tag":{"amenity":"waste_basket"}},"type":"Feature"},
	{"geometry":{"coordinates":[5.433733,51.512513],"type":"Point"},"properties":{"osm_id":"7419957352","tag":{"amenity":"waste_basket"}},"type":"Feature"},
	{"geometry":{"coordinates":[5.433444,51.512561],"type":"Point"},"properties":{"osm_id":"7419957353","tag":{"amenity":"waste_basket"}},"type":"Feature"},
	{"geometry":{"coordinates":[5.397511,51.544263],"type":"Point"},"properties":{"osm_id":"7463281305","tag":{"amenity":"waste_basket","waste":"trash"}},"type":"Feature"},
	{"geometry":{"coordinates":[5.384505,51.547492],"type":"Point"},"properties":{"osm_id":"7463281307","tag":{"amenity":"waste_basket","waste":"trash"}},"type":"Feature"}
]
}
