{
"type": "FeatureCollection",
"features": [
	{"geometry":{"coordinates":[5.440653,51.488019],"type":"Point"},"properties":{"osm_id":"92613978","tag":{"amenity":"recycling","recycling:glass_bottles":"yes","recycling_type":"container"}},"type":"Feature"},
	{"geometry":{"coordinates":[5.42864,51.479301],"type":"Point"},"properties":{"osm_id":"3594111954","tag":{"amenity":"recycling","description":"Glasbak","recycling:glass_bottles":"yes","recycling_type":"container"}},"type":"Feature"},
	{"geometry":{"coordinates":[5.428675,51.479342],"type":"Point"},"properties":{"osm_id":"3594111955","tag":{"amenity":"recycling","description":"Plastic bak","recycling:cans":"yes","recycling:plastic":"yes","recycling_type":"container"}},"type":"Feature"},
	{"geometry":{"coordinates":[5.3706,51.499536],"type":"Point"},"properties":{"osm_id":"5404050921","tag":{"amenity":"waste_basket","waste":"dog_excrement"}},"type":"Feature"},
	{"geometry":{"coordinates":[5.374089,51.501245],"type":"Point"},"properties":{"osm_id":"5404073676","tag":{"amenity":"recycling","recycling:clothes":"yes","recycling_type":"container"}},"type":"Feature"},
	{"geometry":{"coordinates":[5.372982,51.501656],"type":"Point"},"properties":{"osm_id":"5409557765","tag":{"amenity":"recycling","recycling:glass":"yes","recycling:glass_bottles":"yes","recycling_type":"container"}},"type":"Feature"},
	{"geometry":{"coordinates":[5.373025,51.501651],"type":"Point"},"properties":{"osm_id":"5409557766","tag":{"amenity":"recycling","recycling:clothes":"yes","recycling:shoes":"yes","recycling_type":"container"}},"type":"Feature"},
	{"geometry":{"coordinates":[5.447563,51.4868],"type":"Point"},"properties":{"osm_id":"5659936444","tag":{"amenity":"waste_basket"}},"type":"Feature"},
	{"geometry":{"coordinates":[5.447322,51.486919],"type":"Point"},"properties":{"osm_id":"5659936446","tag":{"amenity":"waste_basket"}},"type":"Feature"},
	{"geometry":{"coordinates":[5.444566,51.48039],"type":"Point"},"properties":{"osm_id":"5851231507","tag":{"amenity":"waste_basket"}},"type":"Feature"},
	{"geometry":{"coordinates":[5.372821,51.500762],"type":"Point"},"properties":{"osm_id":"5855835588","tag":{"amenity":"waste_basket"}},"type":"Feature"},
	{"geometry":{"coordinates":[5.445813,51.454387],"type":"Point"},"properties":{"osm_id":"5904317489","tag":{"amenity":"waste_basket"}},"type":"Feature"},
	{"geometry":{"coordinates":[5.448072,51.456205],"type":"Point"},"properties":{"osm_id":"5904342863","tag":{"amenity":"waste_basket"}},"type":"Feature"},
	{"geometry":{"coordinates":[5.3945,51.496972],"type":"Point"},"properties":{"osm_id":"6090324107","tag":{"amenity":"recycling","recycling:glass":"yes","recycling:glass_bottles":"yes","recycling_type":"container"}},"type":"Feature"},
	{"geometry":{"coordinates":[5.395255,51.497495],"type":"Point"},"properties":{"osm_id":"6090324108","tag":{"amenity":"recycling","recycling:clothes":"yes","recycling:shoes":"yes","recycling_type":"container"}},"type":"Feature"},
	{"geometry":{"coordinates":[5.389414,51.49552],"type":"Point"},"properties":{"osm_id":"6155449209","tag":{"amenity":"waste_basket","collection_times":"Tu; Fr","waste":"dog_excrement"}},"type":"Feature"},
	{"geometry":{"coordinates":[5.37924,51.502555],"type":"Point"},"properties":{"osm_id":"6155449214","tag":{"amenity":"waste_basket","collection_times":"Tu; Fr","waste":"dog_excrement"}},"type":"Feature"},
	{"geometry":{"coordinates":[5.385841,51.503625],"type":"Point"},"properties":{"osm_id":"6155449219","tag":{"amenity":"waste_basket","waste":"dog_excrement"}},"type":"Feature"},
	{"geometry":{"coordinates":[5.366527,51.50299],"type":"Point"},"properties":{"osm_id":"6155449224","tag":{"amenity":"waste_basket","collection_times":"Tu; Fr","waste":"dog_excrement"}},"type":"Feature"},
	{"geometry":{"coordinates":[5.389399,51.499731],"type":"Point"},"properties":{"osm_id":"6237703190","tag":{"amenity":"waste_basket","waste":"dog_excrement"}},"type":"Feature"},
	{"geometry":{"coordinates":[5.379796,51.496519],"type":"Point"},"properties":{"osm_id":"6237720734","tag":{"amenity":"waste_basket","waste":"dog_excrement"}},"type":"Feature"},
	{"geometry":{"coordinates":[5.377231,51.494573],"type":"Point"},"properties":{"osm_id":"6271978734","tag":{"amenity":"waste_basket"}},"type":"Feature"},
	{"geometry":{"coordinates":[5.380636,51.494189],"type":"Point"},"properties":{"osm_id":"6271980667","tag":{"amenity":"waste_basket"}},"type":"Feature"},
	{"geometry":{"coordinates":[5.361679,51.503236],"type":"Point"},"properties":{"osm_id":"6271980669","tag":{"amenity":"waste_basket"}},"type":"Feature"},
	{"geometry":{"coordinates":[5.39268,51.471798],"type":"Point"},"properties":{"osm_id":"6271980776","tag":{"amenity":"waste_basket"}},"type":"Feature"},
	{"geometry":{"coordinates":[5.370856,51.495924],"type":"Point"},"properties":{"osm_id":"6271980779","tag":{"amenity":"waste_basket"}},"type":"Feature"},
	{"geometry":{"coordinates":[5.387127,51.493229],"type":"Point"},"properties":{"osm_id":"6271980888","tag":{"amenity":"waste_basket"}},"type":"Feature"},
	{"geometry":{"coordinates":[5.367863,51.495782],"type":"Point"},"properties":{"osm_id":"6373100409","tag":{"amenity":"waste_basket"}},"type":"Feature"},
	{"geometry":{"coordinates":[5.419103,51.502783],"type":"Point"},"properties":{"osm_id":"6398443415","tag":{"amenity":"waste_basket"}},"type":"Feature"},
	{"geometry":{"coordinates":[5.435082,51.480873],"type":"Point"},"properties":{"osm_id":"6439649433","tag":{"amenity":"waste_basket"}},"type":"Feature"},
	{"geometry":{"coordinates":[5.428521,51.500832],"type":"Point"},"properties":{"osm_id":"6512073506","tag":{"amenity":"waste_basket","waste":"trash"}},"type":"Feature"},
	{"geometry":{"coordinates":[5.430123,51.499294],"type":"Point"},"properties":{"osm_id":"6512073511","tag":{"amenity":"waste_basket","waste":"trash"}},"type":"Feature"},
	{"geometry":{"coordinates":[5.398115,51.492429],"type":"Point"},"properties":{"osm_id":"7065809046","tag":{"amenity":"recycling","recycling:glass":"yes","recycling_type":"container"}},"type":"Feature"},
	{"geometry":{"coordinates":[5.417912,51.506939],"type":"Point"},"properties":{"osm_id":"7160880636","tag":{"amenity":"waste_basket","material":"metal","waste":"trash"}},"type":"Feature"},
	{"geometry":{"coordinates":[5.42986,51.504131],"type":"Point"},"properties":{"osm_id":"7394641365","tag":{"amenity":"waste_basket","waste":"trash"}},"type":"Feature"},
	{"geometry":{"coordinates":[5.419603,51.508521],"type":"Point"},"properties":{"osm_id":"7419273776","tag":{"amenity":"waste_basket","waste":"trash"}},"type":"Feature"},
	{"geometry":{"coordinates":[5.412959,51.482205],"type":"Point"},"properties":{"name":"Milieustraat Acht","osm_id":"7735955768","tag":{"addr:housenumber":"41","addr:street":"Achtseweg-Noord","amenity":"recycling","operator":"Cure","recycling_type":"centre"}},"type":"Feature"}
]
}
