{
"type": "FeatureCollection",
"features": [
	{"geometry":{"coordinates":[5.448604,51.433728],"type":"Point"},"properties":{"name":"Milieustraat Lodewijkstraat","osm_id":"441693405","tag":{"amenity":"recycling","recycling:batteries":"yes","recycling:electrical_appliances":"yes","recycling:glass":"yes","recycling:green_waste":"yes","recycling:paper":"yes","recycling:scrap_metal":"yes","recycling:small_appliances":"yes","recycling:waste":"yes","recycling:wood":"yes","recycling_type":"centre"}},"type":"Feature"},
	{"geometry":{"coordinates":[5.440822,51.439276],"type":"Point"},"properties":{"osm_id":"515993895","tag":{"amenity":"recycling","recycling:clothes":"yes","recycling:glass_bottles":"yes","recycling:plastic":"yes","recycling_type":"container"}},"type":"Feature"},
	{"geometry":{"coordinates":[5.429158,51.436513],"type":"Point"},"properties":{"osm_id":"515993904","tag":{"amenity":"recycling","recycling:clothes":"yes","recycling:glass":"no","recycling:glass_bottles":"yes","recycling:plastic":"yes","recycling_type":"container"}},"type":"Feature"},
	{"geometry":{"coordinates":[5.368071,51.432351],"type":"Point"},"properties":{"name":"Kringloop Innamepunt","osm_id":"1406166640","tag":{"amenity":"recycling","recycling:batteries":"yes","recycling:cans":"yes","recycling:clothes":"yes","recycling:glass":"yes","recycling:paper":"yes","recycling:scrap_metal":"yes","recycling_type":"container"}},"type":"Feature"},
	{"geometry":{"coordinates":[5.393478,51.427222],"type":"Point"},"properties":{"osm_id":"1406183241","tag":{"amenity":"recycling","recycling:glass":"yes","recycling_type":"container"}},"type":"Feature"},
	{"geometry":{"coordinates":[5.393474,51.42725],"type":"Point"},"properties":{"osm_id":"1406183246","tag":{"amenity":"recycling","recycling:clothes":"yes","recycling_type":"container"}},"type":"Feature"},
	{"geometry":{"coordinates":[5.409246,51.441575],"type":"Point"},"properties":{"osm_id":"2308198533","tag":{"amenity":"recycling","recycling:clothes":"yes","recycling:glass_bottles":"yes","recycling:plastic":"yes","recycling_type":"underfloor-container"}},"type":"Feature"},
	{"geometry":{"coordinates":[5.368349,51.432358],"type":"Point"},"properties":{"name":"Milieustraat Veldhoven","osm_id":"2829900386","tag":{"addr:city":"Veldhoven","addr:housenumber":"2409","addr:postcode":"5507TM","addr:street":"Habraken","amenity":"recycling","recycling:batteries":"yes","recycling:cans":"yes","recycling:clothes":"yes","recycling:glass":"yes","recycling:paper":"yes","recycling:scrap_metal":"yes","recycling_type":"centre","source:date":"2014-03-24"}},"type":"Feature"},
	{"geometry":{"coordinates":[5.408634,51.418487],"type":"Point"},"properties":{"osm_id":"3498528122","tag":{"amenity":"recycling","recycling:cans":"no","recycling:clothes":"no","recycling:glass":"yes","recycling:paper":"no","recycling_type":"container"}},"type":"Feature"},
	{"geometry":{"coordinates":[5.442642,51.42788],"type":"Point"},"properties":{"name":"Innamepunt Het Goed","osm_id":"3641398013","tag":{"amenity":"recycling","recycling:books":"yes","recycling:clothes":"yes","recycling:electrical_appliances":"yes","recycling:small_appliances":"yes","recycling_type":"centre"}},"type":"Feature"},
	{"geometry":{"coordinates":[5.433602,51.442025],"type":"Point"},"properties":{"osm_id":"5863625198","tag":{"amenity":"waste_basket"}},"type":"Feature"},
	{"geometry":{"coordinates":[5.433571,51.442059],"type":"Point"},"properties":{"osm_id":"5863625199","tag":{"amenity":"recycling","recycling:clothes":"yes","recycling:glass":"yes","recycling:plastic":"yes","recycling_type":"container"}},"type":"Feature"},
	{"geometry":{"coordinates":[5.43374,51.441927],"type":"Point"},"properties":{"osm_id":"5863625200","tag":{"amenity":"waste_basket"}},"type":"Feature"},
	{"geometry":{"coordinates":[5.433253,51.441996],"type":"Point"},"properties":{"osm_id":"5863625238","tag":{"amenity":"waste_basket"}},"type":"Feature"},
	{"geometry":{"coordinates":[5.433422,51.441812],"type":"Point"},"properties":{"osm_id":"5863625239","tag":{"amenity":"waste_basket"}},"type":"Feature"},
	{"geometry":{"coordinates":[5.438803,51.418253],"type":"Point"},"properties":{"osm_id":"6190483909","tag":{"amenity":"recycling","recycling:glass_bottles":"yes","recycling_type":"container"}},"type":"Feature"},
	{"geometry":{"coordinates":[5.41346,51.447573],"type":"Point"},"properties":{"osm_id":"6255756101","tag":{"amenity":"waste_basket"}},"type":"Feature"},
	{"geometry":{"coordinates":[5.4126,51.446108],"type":"Point"},"properties":{"osm_id":"6255756495","tag":{"amenity":"waste_basket"}},"type":"Feature"},
	{"geometry":{"coordinates":[5.426847,51.424885],"type":"Point"},"properties":{"osm_id":"6255772755","tag":{"amenity":"waste_basket"}},"type":"Feature"},
	{"geometry":{"coordinates":[5.438446,51.418691],"type":"Point"},"properties":{"osm_id":"6284019291","tag":{"amenity":"waste_basket"}},"type":"Feature"},
	{"geometry":{"coordinates":[5.437912,51.419534],"type":"Point"},"properties":{"osm_id":"6284084383","tag":{"amenity":"waste_basket"}},"type":"Feature"},
	{"geometry":{"coordinates":[5.442372,51.421096],"type":"Point"},"properties":{"osm_id":"6284131258","tag":{"amenity":"waste_basket"}},"type":"Feature"},
	{"geometry":{"coordinates":[5.446795,51.425231],"type":"Point"},"properties":{"osm_id":"6284131259","tag":{"amenity":"waste_basket"}},"type":"Feature"},
	{"geometry":{"coordinates":[5.43828,51.419041],"type":"Point"},"properties":{"osm_id":"6284132639","tag":{"amenity":"waste_basket"}},"type":"Feature"},
	{"geometry":{"coordinates":[5.446892,51.424721],"type":"Point"},"properties":{"osm_id":"6284132640","tag":{"amenity":"waste_basket"}},"type":"Feature"},
	{"geometry":{"coordinates":[5.446789,51.425699],"type":"Point"},"properties":{"osm_id":"6284133385","tag":{"amenity":"waste_basket"}},"type":"Feature"},
	{"geometry":{"coordinates":[5.371031,51.421539],"type":"Point"},"properties":{"osm_id":"6286429351","tag":{"amenity":"waste_basket"}},"type":"Feature"},
	{"geometry":{"coordinates":[5.413013,51.441785],"type":"Point"},"properties":{"osm_id":"6286429861","tag":{"amenity":"waste_basket","inscription":"Hondenpoep"}},"type":"Feature"},
	{"geometry":{"coordinates":[5.412429,51.445366],"type":"Point"},"properties":{"osm_id":"6286430683","tag":{"amenity":"waste_basket"}},"type":"Feature"},
	{"geometry":{"coordinates":[5.370839,51.421752],"type":"Point"},"properties":{"osm_id":"6286430940","tag":{"amenity":"waste_basket","information":"Hondenpoep"}},"type":"Feature"},
	{"geometry":{"coordinates":[5.368081,51.424189],"type":"Point"},"properties":{"osm_id":"6286431164","tag":{"amenity":"waste_basket","information":"Hondenpoep"}},"type":"Feature"},
	{"geometry":{"coordinates":[5.368161,51.423917],"type":"Point"},"properties":{"osm_id":"6286431166","tag":{"amenity":"waste_basket"}},"type":"Feature"},
	{"geometry":{"coordinates":[5.370425,51.421681],"type":"Point"},"properties":{"osm_id":"6286431167","tag":{"amenity":"waste_basket"}},"type":"Feature"},
	{"geometry":{"coordinates":[5.37073,51.421633],"type":"Point"},"properties":{"osm_id":"6286431168","tag":{"amenity":"waste_basket"}},"type":"Feature"},
	{"geometry":{"coordinates":[5.361373,51.445001],"type":"Point"},"properties":{"osm_id":"6286431196","tag":{"amenity":"waste_basket"}},"type":"Feature"},
	{"geometry":{"coordinates":[5.371123,51.421044],"type":"Point"},"properties":{"osm_id":"6286431199","tag":{"amenity":"waste_basket"}},"type":"Feature"},
	{"geometry":{"coordinates":[5.437624,51.411438],"type":"Point"},"properties":{"osm_id":"6345091034","tag":{"amenity":"waste_basket"}},"type":"Feature"},
	{"geometry":{"coordinates":[5.441687,51.412983],"type":"Point"},"properties":{"osm_id":"6345093536","tag":{"amenity":"waste_basket"}},"type":"Feature"},
	{"geometry":{"coordinates":[5.438104,51.411999],"type":"Point"},"properties":{"osm_id":"6345093537","tag":{"amenity":"waste_basket"}},"type":"Feature"},
	{"geometry":{"coordinates":[5.431375,51.416768],"type":"Point"},"properties":{"osm_id":"6345093538","tag":{"amenity":"waste_basket"}},"type":"Feature"},
	{"geometry":{"coordinates":[5.438344,51.419683],"type":"Point"},"properties":{"osm_id":"6357826868","tag":{"amenity":"waste_basket"}},"type":"Feature"},
	{"geometry":{"coordinates":[5.438673,51.418724],"type":"Point"},"properties":{"osm_id":"6357832618","tag":{"amenity":"waste_basket"}},"type":"Feature"},
	{"geometry":{"coordinates":[5.396648,51.446299],"type":"Point"},"properties":{"osm_id":"6519047791","tag":{"amenity":"waste_basket"}},"type":"Feature"},
	{"geometry":{"coordinates":[5.369356,51.422257],"type":"Point"},"properties":{"osm_id":"6544768823","tag":{"amenity":"waste_basket"}},"type":"Feature"},
	{"geometry":{"coordinates":[5.368536,51.422416],"type":"Point"},"properties":{"osm_id":"6544771588","tag":{"amenity":"waste_basket"}},"type":"Feature"},
	{"geometry":{"coordinates":[5.445213,51.423929],"type":"Point"},"properties":{"osm_id":"6553155964","tag":{"amenity":"waste_basket"}},"type":"Feature"},
	{"geometry":{"coordinates":[5.445544,51.423782],"type":"Point"},"properties":{"osm_id":"6553162135","tag":{"amenity":"waste_basket"}},"type":"Feature"},
	{"geometry":{"coordinates":[5.446654,51.426033],"type":"Point"},"properties":{"osm_id":"6553169477","tag":{"amenity":"waste_basket"}},"type":"Feature"},
	{"geometry":{"coordinates":[5.446687,51.426375],"type":"Point"},"properties":{"osm_id":"6553190726","tag":{"amenity":"waste_basket"}},"type":"Feature"},
	{"geometry":{"coordinates":[5.446301,51.423792],"type":"Point"},"properties":{"osm_id":"6553202417","tag":{"amenity":"waste_basket"}},"type":"Feature"},
	{"geometry":{"coordinates":[5.445579,51.424059],"type":"Point"},"properties":{"osm_id":"6553210233","tag":{"amenity":"waste_basket"}},"type":"Feature"},
	{"geometry":{"coordinates":[5.448247,51.425517],"type":"Point"},"properties":{"osm_id":"6553210676","tag":{"amenity":"waste_basket"}},"type":"Feature"},
	{"geometry":{"coordinates":[5.448241,51.424735],"type":"Point"},"properties":{"osm_id":"6553216476","tag":{"amenity":"waste_basket"}},"type":"Feature"},
	{"geometry":{"coordinates":[5.446819,51.426349],"type":"Point"},"properties":{"osm_id":"6553219260","tag":{"amenity":"waste_basket"}},"type":"Feature"},
	{"geometry":{"coordinates":[5.445639,51.421266],"type":"Point"},"properties":{"osm_id":"6553222012","tag":{"amenity":"waste_basket"}},"type":"Feature"},
	{"geometry":{"coordinates":[5.447203,51.426121],"type":"Point"},"properties":{"osm_id":"6553222972","tag":{"amenity":"waste_basket"}},"type":"Feature"},
	{"geometry":{"coordinates":[5.446007,51.424753],"type":"Point"},"properties":{"osm_id":"6553222973","tag":{"amenity":"waste_basket"}},"type":"Feature"},
	{"geometry":{"coordinates":[5.445677,51.423894],"type":"Point"},"properties":{"osm_id":"6553223081","tag":{"amenity":"waste_basket"}},"type":"Feature"},
	{"geometry":{"coordinates":[5.44649,51.426068],"type":"Point"},"properties":{"osm_id":"6553227031","tag":{"amenity":"waste_basket"}},"type":"Feature"},
	{"geometry":{"coordinates":[5.446305,51.424634],"type":"Point"},"properties":{"osm_id":"6553228022","tag":{"amenity":"waste_basket"}},"type":"Feature"},
	{"geometry":{"coordinates":[5.445175,51.421542],"type":"Point"},"properties":{"osm_id":"6553231661","tag":{"amenity":"waste_basket"}},"type":"Feature"},
	{"geometry":{"coordinates":[5.446172,51.425178],"type":"Point"},"properties":{"osm_id":"6553233564","tag":{"amenity":"waste_basket"}},"type":"Feature"},
	{"geometry":{"coordinates":[5.445803,51.424067],"type":"Point"},"properties":{"osm_id":"6553234885","tag":{"amenity":"waste_basket"}},"type":"Feature"},
	{"geometry":{"coordinates":[5.382502,51.403392],"type":"Point"},"properties":{"osm_id":"6847986537","tag":{"amenity":"waste_basket"}},"type":"Feature"},
	{"geometry":{"coordinates":[5.381259,51.403117],"type":"Point"},"properties":{"osm_id":"6847986553","tag":{"amenity":"waste_basket"}},"type":"Feature"},
	{"geometry":{"coordinates":[5.3831,51.40351],"type":"Point"},"properties":{"osm_id":"6847986558","tag":{"amenity":"waste_basket"}},"type":"Feature"},
	{"geometry":{"coordinates":[5.381871,51.403257],"type":"Point"},"properties":{"osm_id":"6847986572","tag":{"amenity":"waste_basket"}},"type":"Feature"},
	{"geometry":{"coordinates":[5.382828,51.403455],"type":"Point"},"properties":{"osm_id":"6847986578","tag":{"amenity":"waste_basket"}},"type":"Feature"},
	{"geometry":{"coordinates":[5.381518,51.403176],"type":"Point"},"properties":{"osm_id":"6847986579","tag":{"amenity":"waste_basket"}},"type":"Feature"},
	{"geometry":{"coordinates":[5.404832,51.406766],"type":"Point"},"properties":{"osm_id":"7333621976","tag":{"amenity":"waste_basket"}},"type":"Feature"},
	{"geometry":{"coordinates":[5.393064,51.432916],"type":"Point"},"properties":{"osm_id":"7931841264","tag":{"amenity":"recycling","recycling_type":"container"}},"type":"Feature"},
	{"geometry":{"coordinates":[5.393064,51.432899],"type":"Point"},"properties":{"osm_id":"7931841265","tag":{"amenity":"recycling","recycling_type":"container"}},"type":"Feature"},
	{"geometry":{"coordinates":[5.393064,51.432878],"type":"Point"},"properties":{"osm_id":"7931841266","tag":{"amenity":"recycling","recycling_type":"container"}},"type":"Feature"}
]
}
