{
"type": "FeatureCollection",
"features": [
	{"geometry":{"coordinates":[5.384826,51.359442],"type":"Point"},"properties":{"osm_id":"6264341867","tag":{"amenity":"waste_basket"}},"type":"Feature"},
	{"geometry":{"coordinates":[5.384957,51.355976],"type":"Point"},"properties":{"osm_id":"6264341868","tag":{"amenity":"waste_basket"}},"type":"Feature"},
	{"geometry":{"coordinates":[5.385608,51.352997],"type":"Point"},"properties":{"osm_id":"6264341869","tag":{"amenity":"waste_basket","information":"Hondenpoep"}},"type":"Feature"},
	{"geometry":{"coordinates":[5.387856,51.347628],"type":"Point"},"properties":{"osm_id":"6264341871","tag":{"amenity":"waste_basket"}},"type":"Feature"},
	{"geometry":{"coordinates":[5.389704,51.365847],"type":"Point"},"properties":{"osm_id":"6264345628","tag":{"amenity":"waste_basket"}},"type":"Feature"},
	{"geometry":{"coordinates":[5.386117,51.352329],"type":"Point"},"properties":{"osm_id":"6264345631","tag":{"amenity":"waste_basket"}},"type":"Feature"},
	{"geometry":{"coordinates":[5.38594,51.349304],"type":"Point"},"properties":{"osm_id":"6264345632","tag":{"amenity":"waste_basket","information":"Hondenpoep"}},"type":"Feature"},
	{"geometry":{"coordinates":[5.396846,51.370772],"type":"Point"},"properties":{"osm_id":"6264348906","tag":{"amenity":"waste_basket"}},"type":"Feature"},
	{"geometry":{"coordinates":[5.397073,51.371329],"type":"Point"},"properties":{"osm_id":"6264348907","tag":{"amenity":"waste_basket"}},"type":"Feature"},
	{"geometry":{"coordinates":[5.430157,51.38219],"type":"Point"},"properties":{"osm_id":"6264349449","tag":{"amenity":"waste_basket"}},"type":"Feature"},
	{"geometry":{"coordinates":[5.385033,51.355964],"type":"Point"},"properties":{"osm_id":"6264349454","tag":{"amenity":"waste_basket","information":"Hondenpoep"}},"type":"Feature"},
	{"geometry":{"coordinates":[5.38557,51.352936],"type":"Point"},"properties":{"osm_id":"6264349455","tag":{"amenity":"waste_basket"}},"type":"Feature"},
	{"geometry":{"coordinates":[5.443563,51.386337],"type":"Point"},"properties":{"osm_id":"6268029138","tag":{"amenity":"waste_basket"}},"type":"Feature"},
	{"geometry":{"coordinates":[5.444022,51.386371],"type":"Point"},"properties":{"osm_id":"6268029704","tag":{"amenity":"waste_basket"}},"type":"Feature"},
	{"geometry":{"coordinates":[5.399749,51.395111],"type":"Point"},"properties":{"osm_id":"6276853954","tag":{"amenity":"waste_basket"}},"type":"Feature"},
	{"geometry":{"coordinates":[5.383333,51.383098],"type":"Point"},"properties":{"osm_id":"6276853955","tag":{"amenity":"waste_basket"}},"type":"Feature"},
	{"geometry":{"coordinates":[5.3993,51.394919],"type":"Point"},"properties":{"osm_id":"6276854528","tag":{"amenity":"waste_basket"}},"type":"Feature"},
	{"geometry":{"coordinates":[5.414557,51.384454],"type":"Point"},"properties":{"osm_id":"6368370798","tag":{"amenity":"waste_basket"}},"type":"Feature"},
	{"geometry":{"coordinates":[5.416949,51.395285],"type":"Point"},"properties":{"osm_id":"6368372880","tag":{"amenity":"waste_basket"}},"type":"Feature"},
	{"geometry":{"coordinates":[5.414478,51.384328],"type":"Point"},"properties":{"osm_id":"6368372883","tag":{"amenity":"waste_basket"}},"type":"Feature"},
	{"geometry":{"coordinates":[5.412567,51.345892],"type":"Point"},"properties":{"osm_id":"6368375387","tag":{"amenity":"waste_basket"}},"type":"Feature"},
	{"geometry":{"coordinates":[5.404141,51.34969],"type":"Point"},"properties":{"osm_id":"6385830493","tag":{"amenity":"waste_basket"}},"type":"Feature"},
	{"geometry":{"coordinates":[5.375578,51.361754],"type":"Point"},"properties":{"osm_id":"6469875317","tag":{"amenity":"waste_basket"}},"type":"Feature"},
	{"geometry":{"coordinates":[5.442865,51.397526],"type":"Point"},"properties":{"osm_id":"7027169757","tag":{"amenity":"waste_basket","waste":"trash"}},"type":"Feature"},
	{"geometry":{"coordinates":[5.443898,51.396569],"type":"Point"},"properties":{"osm_id":"7027169778","tag":{"amenity":"waste_basket","waste":"trash"}},"type":"Feature"},
	{"geometry":{"coordinates":[5.447942,51.396677],"type":"Point"},"properties":{"osm_id":"7027169781","tag":{"amenity":"waste_basket","waste":"trash"}},"type":"Feature"},
	{"geometry":{"coordinates":[5.445202,51.395537],"type":"Point"},"properties":{"osm_id":"7027171893","tag":{"amenity":"waste_basket","waste":"trash"}},"type":"Feature"},
	{"geometry":{"coordinates":[5.445773,51.395731],"type":"Point"},"properties":{"osm_id":"7027171895","tag":{"amenity":"waste_basket","waste":"trash"}},"type":"Feature"},
	{"geometry":{"coordinates":[5.447797,51.396604],"type":"Point"},"properties":{"osm_id":"7027171898","tag":{"amenity":"waste_basket","waste":"trash"}},"type":"Feature"},
	{"geometry":{"coordinates":[5.381598,51.352594],"type":"Point"},"properties":{"osm_id":"7605885109","tag":{"amenity":"waste_basket"}},"type":"Feature"},
	{"geometry":{"coordinates":[5.374653,51.345181],"type":"Point"},"properties":{"osm_id":"7605891297","tag":{"amenity":"waste_basket"}},"type":"Feature"}
]
}
