{
"type": "FeatureCollection",
"features": [
	{"geometry":{"coordinates":[5.374364,51.125968],"type":"Point"},"properties":{"name":"Kledingdepot","osm_id":"497026125","tag":{"amenity":"recycling","operator":"Wereld-Missiehulp VZW","recycling:clothes":"yes"}},"type":"Feature"},
	{"geometry":{"coordinates":[5.369684,51.13476],"type":"Point"},"properties":{"name":"Kledingdepot","osm_id":"497026176","tag":{"amenity":"recycling","operator":"Wereld-Missiehulp VZW","recycling:clothes":"yes"}},"type":"Feature"},
	{"geometry":{"coordinates":[5.36246,51.124316],"type":"Point"},"properties":{"name":"Kledingdepot","osm_id":"505074668","tag":{"amenity":"recycling","operator":"Wereld-Missiehulp VZW","recycling:clothes":"yes"}},"type":"Feature"},
	{"geometry":{"coordinates":[5.378709,51.154848],"type":"Point"},"properties":{"osm_id":"871355047","tag":{"amenity":"recycling"}},"type":"Feature"},
	{"geometry":{"coordinates":[5.391249,51.153312],"type":"Point"},"properties":{"osm_id":"871355200","tag":{"amenity":"recycling"}},"type":"Feature"},
	{"geometry":{"coordinates":[5.373126,51.158578],"type":"Point"},"properties":{"osm_id":"3002225606","tag":{"amenity":"waste_basket"}},"type":"Feature"},
	{"geometry":{"coordinates":[5.377492,51.154143],"type":"Point"},"properties":{"osm_id":"3029567611","tag":{"amenity":"waste_basket"}},"type":"Feature"},
	{"geometry":{"coordinates":[5.38692,51.14876],"type":"Point"},"properties":{"osm_id":"3071079962","tag":{"amenity":"waste_basket"}},"type":"Feature"},
	{"geometry":{"coordinates":[5.386766,51.149076],"type":"Point"},"properties":{"osm_id":"3071079970","tag":{"amenity":"waste_basket"}},"type":"Feature"},
	{"geometry":{"coordinates":[5.395595,51.154205],"type":"Point"},"properties":{"osm_id":"3071079980","tag":{"amenity":"waste_basket"}},"type":"Feature"},
	{"geometry":{"coordinates":[5.376916,51.125056],"type":"Point"},"properties":{"osm_id":"4665251495","tag":{"amenity":"waste_basket"}},"type":"Feature"},
	{"geometry":{"coordinates":[5.376869,51.125187],"type":"Point"},"properties":{"osm_id":"4665253832","tag":{"amenity":"waste_basket"}},"type":"Feature"},
	{"geometry":{"coordinates":[5.378609,51.125342],"type":"Point"},"properties":{"osm_id":"4666767778","tag":{"amenity":"waste_basket"}},"type":"Feature"},
	{"geometry":{"coordinates":[5.418984,51.13673],"type":"Point"},"properties":{"osm_id":"4712114834","tag":{"amenity":"waste_basket"}},"type":"Feature"},
	{"geometry":{"coordinates":[5.445542,51.134449],"type":"Point"},"properties":{"osm_id":"5162874122","tag":{"amenity":"waste_basket"}},"type":"Feature"},
	{"geometry":{"coordinates":[5.436236,51.153359],"type":"Point"},"properties":{"osm_id":"5171067564","tag":{"amenity":"waste_basket"}},"type":"Feature"},
	{"geometry":{"coordinates":[5.443473,51.135115],"type":"Point"},"properties":{"osm_id":"5171069223","tag":{"amenity":"waste_basket"}},"type":"Feature"},
	{"geometry":{"coordinates":[5.412799,51.153414],"type":"Point"},"properties":{"osm_id":"5174479289","tag":{"amenity":"waste_basket"}},"type":"Feature"},
	{"geometry":{"coordinates":[5.434119,51.134449],"type":"Point"},"properties":{"osm_id":"5176169978","tag":{"amenity":"waste_basket"}},"type":"Feature"},
	{"geometry":{"coordinates":[5.436121,51.135002],"type":"Point"},"properties":{"osm_id":"5176170017","tag":{"amenity":"waste_basket"}},"type":"Feature"},
	{"geometry":{"coordinates":[5.434144,51.138418],"type":"Point"},"properties":{"osm_id":"5176170428","tag":{"amenity":"waste_basket"}},"type":"Feature"},
	{"geometry":{"coordinates":[5.435632,51.13177],"type":"Point"},"properties":{"osm_id":"5178020104","tag":{"amenity":"waste_basket"}},"type":"Feature"},
	{"geometry":{"coordinates":[5.435647,51.132018],"type":"Point"},"properties":{"osm_id":"5178020321","tag":{"amenity":"waste_basket"}},"type":"Feature"},
	{"geometry":{"coordinates":[5.449027,51.131499],"type":"Point"},"properties":{"osm_id":"5185932930","tag":{"amenity":"waste_basket"}},"type":"Feature"},
	{"geometry":{"coordinates":[5.449004,51.131493],"type":"Point"},"properties":{"osm_id":"5185932931","tag":{"amenity":"recycling","operator":"Vlaams Inzamel Centrum Textiel","recycling:clothes":"yes","recycling_type":"container"}},"type":"Feature"},
	{"geometry":{"coordinates":[5.413486,51.136871],"type":"Point"},"properties":{"osm_id":"5252056479","tag":{"amenity":"recycling","recycling_type":"container"}},"type":"Feature"},
	{"geometry":{"coordinates":[5.379468,51.128927],"type":"Point"},"properties":{"osm_id":"5269935809","tag":{"amenity":"waste_basket"}},"type":"Feature"},
	{"geometry":{"coordinates":[5.364777,51.124555],"type":"Point"},"properties":{"osm_id":"5269998154","tag":{"amenity":"waste_basket"}},"type":"Feature"},
	{"geometry":{"coordinates":[5.365064,51.124301],"type":"Point"},"properties":{"osm_id":"5269998157","tag":{"amenity":"waste_basket"}},"type":"Feature"},
	{"geometry":{"coordinates":[5.362622,51.125214],"type":"Point"},"properties":{"osm_id":"5269998184","tag":{"amenity":"waste_basket"}},"type":"Feature"},
	{"geometry":{"coordinates":[5.413712,51.136902],"type":"Point"},"properties":{"osm_id":"5270859850","tag":{"amenity":"waste_basket"}},"type":"Feature"},
	{"geometry":{"coordinates":[5.361996,51.144512],"type":"Point"},"properties":{"osm_id":"5299434888","tag":{"amenity":"recycling","recycling:glass":"yes","recycling_type":"container"}},"type":"Feature"},
	{"geometry":{"coordinates":[5.361967,51.144507],"type":"Point"},"properties":{"osm_id":"5299434889","tag":{"amenity":"recycling","recycling:glass":"yes","recycling_type":"container"}},"type":"Feature"},
	{"geometry":{"coordinates":[5.361941,51.144499],"type":"Point"},"properties":{"osm_id":"5299434890","tag":{"amenity":"recycling","recycling_type":"container"}},"type":"Feature"},
	{"geometry":{"coordinates":[5.406278,51.144747],"type":"Point"},"properties":{"osm_id":"5542691205","tag":{"amenity":"waste_basket"}},"type":"Feature"},
	{"geometry":{"coordinates":[5.380065,51.138914],"type":"Point"},"properties":{"osm_id":"7023867718","tag":{"amenity":"waste_basket"}},"type":"Feature"},
	{"geometry":{"coordinates":[5.380324,51.138385],"type":"Point"},"properties":{"osm_id":"7023867719","tag":{"amenity":"waste_basket"}},"type":"Feature"}
]
}
