{
"type": "FeatureCollection",
"features": [
	{"geometry":{"coordinates":[5.377538,51.120091],"type":"Point"},"properties":{"name":"Kledingdepot","osm_id":"497026126","tag":{"amenity":"recycling","operator":"Wereld-Missiehulp VZW","recycling:clothes":"yes","recycling_type":"container"}},"type":"Feature"},
	{"geometry":{"coordinates":[5.380276,51.118272],"type":"Point"},"properties":{"name":"Glascontainer","osm_id":"497026171","tag":{"amenity":"recycling","recycling:glass":"yes"}},"type":"Feature"},
	{"geometry":{"coordinates":[5.365258,51.120117],"type":"Point"},"properties":{"name":"Kledingdepot","osm_id":"505074661","tag":{"amenity":"recycling","operator":"Vlaams Inzamel Centrum Textiel, Hoge Mauw 679, 2370 Arendonk","recycling:clothes":"yes"}},"type":"Feature"},
	{"geometry":{"coordinates":[5.363071,51.123912],"type":"Point"},"properties":{"osm_id":"505074666","tag":{"amenity":"recycling","recycling:glass":"yes"}},"type":"Feature"},
	{"geometry":{"coordinates":[5.363126,51.123917],"type":"Point"},"properties":{"osm_id":"505074667","tag":{"amenity":"recycling","recycling:glass":"yes"}},"type":"Feature"},
	{"geometry":{"coordinates":[5.364086,51.117207],"type":"Point"},"properties":{"name":"Kledingdepot","osm_id":"505252768","tag":{"amenity":"recycling","operator":"Wereld-Missiehulp VZW","recycling:clothes":"yes"}},"type":"Feature"},
	{"geometry":{"coordinates":[5.366802,51.107185],"type":"Point"},"properties":{"name":"Glascontainer","osm_id":"614670914","tag":{"amenity":"recycling","recycling:cans":"yes","recycling:glass":"yes"}},"type":"Feature"},
	{"geometry":{"coordinates":[5.427887,51.072762],"type":"Point"},"properties":{"osm_id":"2501968841","tag":{"amenity":"waste_basket"}},"type":"Feature"},
	{"geometry":{"coordinates":[5.401788,51.123919],"type":"Point"},"properties":{"osm_id":"4712114848","tag":{"amenity":"waste_basket"}},"type":"Feature"},
	{"geometry":{"coordinates":[5.444664,51.072161],"type":"Point"},"properties":{"osm_id":"4919841475","tag":{"amenity":"waste_basket"}},"type":"Feature"},
	{"geometry":{"coordinates":[5.406141,51.119618],"type":"Point"},"properties":{"osm_id":"5270859847","tag":{"amenity":"waste_basket"}},"type":"Feature"},
	{"geometry":{"coordinates":[5.408559,51.122241],"type":"Point"},"properties":{"osm_id":"5270859848","tag":{"amenity":"waste_basket"}},"type":"Feature"}
]
}
