{
"type": "FeatureCollection",
"features": [
	{"geometry":{"coordinates":[5.39772,50.850687],"type":"Point"},"properties":{"osm_id":"2726061069","tag":{"amenity":"waste_basket"}},"type":"Feature"},
	{"geometry":{"coordinates":[5.390774,50.893608],"type":"Point"},"properties":{"osm_id":"3454600595","tag":{"amenity":"recycling","recycling:glass_bottles":"yes","recycling_type":"container"}},"type":"Feature"},
	{"geometry":{"coordinates":[5.36609,50.848318],"type":"Point"},"properties":{"osm_id":"4328000703","tag":{"amenity":"waste_basket"}},"type":"Feature"},
	{"geometry":{"coordinates":[5.424313,50.864478],"type":"Point"},"properties":{"osm_id":"4724637998","tag":{"amenity":"waste_basket"}},"type":"Feature"},
	{"geometry":{"coordinates":[5.437441,50.869034],"type":"Point"},"properties":{"osm_id":"4724638007","tag":{"amenity":"waste_basket"}},"type":"Feature"},
	{"geometry":{"coordinates":[5.391643,50.856498],"type":"Point"},"properties":{"osm_id":"5189186501","tag":{"amenity":"recycling","recycling:glass":"yes","recycling_type":"container"}},"type":"Feature"},
	{"geometry":{"coordinates":[5.391584,50.856526],"type":"Point"},"properties":{"osm_id":"5189186502","tag":{"amenity":"recycling","recycling:clothes":"yes","recycling_type":"container"}},"type":"Feature"},
	{"geometry":{"coordinates":[5.391595,50.856517],"type":"Point"},"properties":{"osm_id":"5189186503","tag":{"amenity":"recycling","recycling:clothes":"yes","recycling_type":"container"}},"type":"Feature"},
	{"geometry":{"coordinates":[5.391658,50.856493],"type":"Point"},"properties":{"osm_id":"5189186504","tag":{"amenity":"recycling","recycling:glass":"yes","recycling_type":"container"}},"type":"Feature"},
	{"geometry":{"coordinates":[5.388856,50.860466],"type":"Point"},"properties":{"osm_id":"5189192159","tag":{"amenity":"recycling","recycling:glass":"yes","recycling_type":"container"}},"type":"Feature"},
	{"geometry":{"coordinates":[5.384405,50.860491],"type":"Point"},"properties":{"osm_id":"5189192160","tag":{"amenity":"recycling","recycling:clothes":"yes","recycling_type":"container"}},"type":"Feature"},
	{"geometry":{"coordinates":[5.388877,50.860456],"type":"Point"},"properties":{"osm_id":"5189192161","tag":{"amenity":"recycling","recycling_type":"container"}},"type":"Feature"},
	{"geometry":{"coordinates":[5.406892,50.866504],"type":"Point"},"properties":{"osm_id":"5189225236","tag":{"amenity":"waste_basket"}},"type":"Feature"},
	{"geometry":{"coordinates":[5.395758,50.859307],"type":"Point"},"properties":{"osm_id":"5189225240","tag":{"amenity":"waste_basket"}},"type":"Feature"},
	{"geometry":{"coordinates":[5.419708,50.853282],"type":"Point"},"properties":{"osm_id":"5968964229","tag":{"addr:city":"Wintershoven","addr:postcode":"3722","addr:street":"Stationsstraat","amenity":"waste_basket"}},"type":"Feature"},
	{"geometry":{"coordinates":[5.435485,50.88329],"type":"Point"},"properties":{"osm_id":"6781315082","tag":{"amenity":"waste_basket"}},"type":"Feature"},
	{"geometry":{"coordinates":[5.367462,50.852784],"type":"Point"},"properties":{"osm_id":"6781329278","tag":{"amenity":"waste_basket"}},"type":"Feature"},
	{"geometry":{"coordinates":[5.409022,50.877519],"type":"Point"},"properties":{"osm_id":"6781400237","tag":{"amenity":"waste_basket"}},"type":"Feature"}
]
}
