{
"type": "FeatureCollection",
"features": [
	{"geometry":{"coordinates":[5.382893,50.791053],"type":"Point"},"properties":{"osm_id":"2183036290","tag":{"amenity":"waste_basket","check_date":"2021-04-09"}},"type":"Feature"},
	{"geometry":{"coordinates":[5.376842,50.771383],"type":"Point"},"properties":{"osm_id":"2732810690","tag":{"amenity":"waste_basket"}},"type":"Feature"},
	{"geometry":{"coordinates":[5.442311,50.747132],"type":"Point"},"properties":{"osm_id":"2807491022","tag":{"amenity":"waste_basket"}},"type":"Feature"},
	{"geometry":{"coordinates":[5.413568,50.743501],"type":"Point"},"properties":{"osm_id":"2836907120","tag":{"amenity":"waste_basket"}},"type":"Feature"},
	{"geometry":{"coordinates":[5.417247,50.745636],"type":"Point"},"properties":{"osm_id":"2836907126","tag":{"amenity":"waste_basket"}},"type":"Feature"},
	{"geometry":{"coordinates":[5.404987,50.762262],"type":"Point"},"properties":{"osm_id":"2836907146","tag":{"amenity":"waste_basket"}},"type":"Feature"},
	{"geometry":{"coordinates":[5.423959,50.744688],"type":"Point"},"properties":{"osm_id":"2884342224","tag":{"amenity":"waste_basket"}},"type":"Feature"},
	{"geometry":{"coordinates":[5.423237,50.787164],"type":"Point"},"properties":{"osm_id":"4074241200","tag":{"amenity":"recycling","operator":"Vlaams Inzamel Centrum Textiel","recycling:clothes":"yes","recycling:shoes":"yes","recycling_type":"container"}},"type":"Feature"},
	{"geometry":{"coordinates":[5.443254,50.764755],"type":"Point"},"properties":{"osm_id":"6500622063","tag":{"amenity":"waste_basket"}},"type":"Feature"},
	{"geometry":{"coordinates":[5.442941,50.737836],"type":"Point"},"properties":{"osm_id":"7098774186","tag":{"amenity":"waste_basket"}},"type":"Feature"},
	{"geometry":{"coordinates":[5.406853,50.737186],"type":"Point"},"properties":{"osm_id":"7098774263","tag":{"amenity":"waste_basket"}},"type":"Feature"},
	{"geometry":{"coordinates":[5.41269,50.745942],"type":"Point"},"properties":{"osm_id":"7098774301","tag":{"amenity":"waste_basket"}},"type":"Feature"},
	{"geometry":{"coordinates":[5.368553,50.792013],"type":"Point"},"properties":{"osm_id":"7256089624","tag":{"amenity":"waste_basket"}},"type":"Feature"},
	{"geometry":{"coordinates":[5.444184,50.752693],"type":"Point"},"properties":{"osm_id":"7779177085","tag":{"amenity":"waste_basket"}},"type":"Feature"},
	{"geometry":{"coordinates":[5.425242,50.78293],"type":"Point"},"properties":{"osm_id":"7995587035","tag":{"amenity":"waste_basket"}},"type":"Feature"},
	{"geometry":{"coordinates":[5.402979,50.772276],"type":"Point"},"properties":{"osm_id":"7995587078","tag":{"amenity":"waste_basket"}},"type":"Feature"},
	{"geometry":{"coordinates":[5.379147,50.760761],"type":"Point"},"properties":{"osm_id":"7995628889","tag":{"amenity":"waste_basket"}},"type":"Feature"},
	{"geometry":{"coordinates":[5.363494,50.758923],"type":"Point"},"properties":{"osm_id":"8121551386","tag":{"amenity":"waste_basket"}},"type":"Feature"},
	{"geometry":{"coordinates":[5.361631,50.757954],"type":"Point"},"properties":{"osm_id":"8121551387","tag":{"amenity":"waste_basket"}},"type":"Feature"},
	{"geometry":{"coordinates":[5.367626,50.760556],"type":"Point"},"properties":{"osm_id":"8121570741","tag":{"amenity":"waste_basket"}},"type":"Feature"},
	{"geometry":{"coordinates":[5.446959,50.785887],"type":"Point"},"properties":{"osm_id":"8420734934","tag":{"amenity":"waste_basket"}},"type":"Feature"},
	{"geometry":{"coordinates":[5.441984,50.787971],"type":"Point"},"properties":{"osm_id":"8420734973","tag":{"amenity":"waste_basket"}},"type":"Feature"},
	{"geometry":{"coordinates":[5.449097,50.78717],"type":"Point"},"properties":{"osm_id":"8420734985","tag":{"amenity":"waste_basket"}},"type":"Feature"},
	{"geometry":{"coordinates":[5.447706,50.787312],"type":"Point"},"properties":{"osm_id":"8420734986","tag":{"amenity":"waste_basket"}},"type":"Feature"},
	{"geometry":{"coordinates":[5.446343,50.787483],"type":"Point"},"properties":{"osm_id":"8420734987","tag":{"amenity":"waste_basket"}},"type":"Feature"},
	{"geometry":{"coordinates":[5.44535,50.786733],"type":"Point"},"properties":{"osm_id":"8420734988","tag":{"amenity":"waste_basket"}},"type":"Feature"},
	{"geometry":{"coordinates":[5.373295,50.763473],"type":"Point"},"properties":{"osm_id":"8651678189","tag":{"amenity":"waste_basket"}},"type":"Feature"},
	{"geometry":{"coordinates":[5.363652,50.759251],"type":"Point"},"properties":{"osm_id":"8651699292","tag":{"amenity":"waste_basket"}},"type":"Feature"},
	{"geometry":{"coordinates":[5.431946,50.77777],"type":"Point"},"properties":{"osm_id":"8763957795","tag":{"amenity":"waste_basket","colour":"yellow;grey","material":"plastic","operator":"Gemeente Tongeren","waste":"trash"}},"type":"Feature"},
	{"geometry":{"coordinates":[5.431832,50.778013],"type":"Point"},"properties":{"osm_id":"8763980440","tag":{"amenity":"waste_basket","colour":"yellow;grey","material":"plastic","operator":"Stad Tongeren","waste":"trash"}},"type":"Feature"},
	{"geometry":{"coordinates":[5.433927,50.77997],"type":"Point"},"properties":{"osm_id":"8763997972","tag":{"amenity":"waste_basket","colour":"green","material":"plastic","operator":"PIBO","waste":"trash"}},"type":"Feature"},
	{"geometry":{"coordinates":[5.444818,50.778907],"type":"Point"},"properties":{"osm_id":"8770115320","tag":{"amenity":"waste_basket","colour":"green","material":"plastic","operator":"Stad Tongeren","waste":"trash"}},"type":"Feature"},
	{"geometry":{"coordinates":[5.448621,50.773424],"type":"Point"},"properties":{"osm_id":"8770150627","tag":{"amenity":"recycling","level":"-1","recycling:glass_bottles":"yes","recycling_type":"container"}},"type":"Feature"},
	{"geometry":{"coordinates":[5.448534,50.773328],"type":"Point"},"properties":{"osm_id":"8770155057","tag":{"amenity":"waste_basket","colour":"green","material":"plastic","operator":"Stad Tongeren","waste":"trash"}},"type":"Feature"},
	{"geometry":{"coordinates":[5.448633,50.773447],"type":"Point"},"properties":{"osm_id":"8770162098","tag":{"amenity":"recycling","level":"-1","recycling:drink_cartons":"yes","recycling:metal_packaging":"yes","recycling:plastic":"yes","recycling:plastic_bottles":"yes","recycling_type":"container"}},"type":"Feature"},
	{"geometry":{"coordinates":[5.448645,50.773468],"type":"Point"},"properties":{"osm_id":"8770192776","tag":{"amenity":"recycling","description":"Restafval","level":"-1","recycling:trash":"yes","recycling_type":"container"}},"type":"Feature"},
	{"geometry":{"coordinates":[5.447121,50.77338],"type":"Point"},"properties":{"osm_id":"8770192849","tag":{"amenity":"waste_basket","colour":"yellow;grey","material":"plastic","waste":"trash"}},"type":"Feature"},
	{"geometry":{"coordinates":[5.397291,50.791515],"type":"Point"},"properties":{"osm_id":"8773862687","tag":{"amenity":"waste_basket","colour":"green","material":"plastic","operator":"Stad Borgloon","waste":"trash"}},"type":"Feature"}
]
}
