{
"type": "FeatureCollection",
"lastupdate": "2020-08-06T00:00:00Z",
"features": [
	{"geometry":{"coordinates":[5.426248,50.725686],"type":"Point"},"properties":{"osm_id":"2832740618","tag":{"amenity":"recycling","recycling:clothes":"no","recycling:glass":"yes"}},"type":"Feature"},
	{"geometry":{"coordinates":[5.426278,50.725712],"type":"Point"},"properties":{"osm_id":"2832740619","tag":{"amenity":"recycling","recycling:clothes":"yes"}},"type":"Feature"},
	{"geometry":{"coordinates":[5.393468,50.724015],"type":"Point"},"properties":{"osm_id":"4077016441","tag":{"amenity":"recycling","recycling:clothes":"yes","recycling:glass":"yes","recycling_type":"container"}},"type":"Feature"},
	{"geometry":{"coordinates":[5.397322,50.715751],"type":"Point"},"properties":{"osm_id":"4077032277","tag":{"amenity":"recycling","recycling:clothes":"yes","recycling_type":"container"}},"type":"Feature"},
	{"geometry":{"coordinates":[5.405256,50.70469],"type":"Point"},"properties":{"osm_id":"7096549466","tag":{"amenity":"recycling","operator":"Terre","recycling:clothes":"yes","recycling_type":"container"}},"type":"Feature"},
	{"geometry":{"coordinates":[5.426721,50.726124],"type":"Point"},"properties":{"osm_id":"7098754572","tag":{"amenity":"waste_basket"}},"type":"Feature"},
	{"geometry":{"coordinates":[5.439825,50.729732],"type":"Point"},"properties":{"osm_id":"7098754582","tag":{"amenity":"waste_basket"}},"type":"Feature"},
	{"geometry":{"coordinates":[5.438807,50.732061],"type":"Point"},"properties":{"osm_id":"7098754584","tag":{"amenity":"waste_basket"}},"type":"Feature"},
	{"geometry":{"coordinates":[5.438705,50.733674],"type":"Point"},"properties":{"osm_id":"7098774185","tag":{"amenity":"waste_basket"}},"type":"Feature"}
]
}
