{
"type": "FeatureCollection",
"features": [
	{"geometry":{"coordinates":[5.447323,50.314661],"type":"Point"},"properties":{"osm_id":"3731636754","tag":{"amenity":"waste_basket"}},"type":"Feature"},
	{"geometry":{"coordinates":[5.424623,50.344068],"type":"Point"},"properties":{"osm_id":"4067034513","tag":{"amenity":"recycling","recycling:glass_bottles":"yes","recycling_type":"container"}},"type":"Feature"},
	{"geometry":{"coordinates":[5.424596,50.344079],"type":"Point"},"properties":{"osm_id":"4067034514","tag":{"amenity":"recycling","recycling:glass_bottles":"yes","recycling_type":"container"}},"type":"Feature"},
	{"geometry":{"coordinates":[5.431632,50.32215],"type":"Point"},"properties":{"osm_id":"4069999292","tag":{"amenity":"waste_basket"}},"type":"Feature"},
	{"geometry":{"coordinates":[5.444617,50.331884],"type":"Point"},"properties":{"osm_id":"4070174770","tag":{"amenity":"waste_basket"}},"type":"Feature"},
	{"geometry":{"coordinates":[5.40336,50.304409],"type":"Point"},"properties":{"osm_id":"4686728333","tag":{"amenity":"waste_basket"}},"type":"Feature"},
	{"geometry":{"coordinates":[5.400649,50.306078],"type":"Point"},"properties":{"osm_id":"4686728337","tag":{"amenity":"waste_basket"}},"type":"Feature"},
	{"geometry":{"coordinates":[5.374566,50.316775],"type":"Point"},"properties":{"osm_id":"5480638901","tag":{"amenity":"waste_basket"}},"type":"Feature"},
	{"geometry":{"coordinates":[5.39095,50.323536],"type":"Point"},"properties":{"osm_id":"5480638910","tag":{"amenity":"waste_basket"}},"type":"Feature"},
	{"geometry":{"coordinates":[5.441995,50.333896],"type":"Point"},"properties":{"osm_id":"5560039508","tag":{"amenity":"waste_basket"}},"type":"Feature"},
	{"geometry":{"coordinates":[5.403366,50.312514],"type":"Point"},"properties":{"osm_id":"5566866932","tag":{"amenity":"waste_basket"}},"type":"Feature"},
	{"geometry":{"coordinates":[5.411713,50.329236],"type":"Point"},"properties":{"osm_id":"7199811403","tag":{"amenity":"recycling","opening_hours":"24/7","operator":"IDELUX-Environnement","recycling:glass_bottles":"yes","recycling_type":"container"}},"type":"Feature"},
	{"geometry":{"coordinates":[5.43631,50.33451],"type":"Point"},"properties":{"osm_id":"7510346299","tag":{"amenity":"recycling","opening_hours":"24/7","operator":"IDELUX-Environnement","recycling:glass_bottles":"yes","recycling_type":"container"}},"type":"Feature"},
	{"geometry":{"coordinates":[5.420941,50.295974],"type":"Point"},"properties":{"osm_id":"7514057116","tag":{"amenity":"recycling","opening_hours":"24/7","operator":"IDELUX-Environnement","recycling:glass_bottles":"yes","recycling_type":"container"}},"type":"Feature"},
	{"geometry":{"coordinates":[5.403443,50.31254],"type":"Point"},"properties":{"osm_id":"7514057123","tag":{"amenity":"recycling","opening_hours":"24/7","operator":"IDELUX-Environnement","recycling:glass_bottles":"yes","recycling_type":"container"}},"type":"Feature"}
]
}
