{
"type": "FeatureCollection",
"features": [
	{"geometry":{"coordinates":[5.431128,49.83953],"type":"Point"},"properties":{"osm_id":"5039859315","tag":{"amenity":"waste_basket"}},"type":"Feature"},
	{"geometry":{"coordinates":[5.430695,49.839293],"type":"Point"},"properties":{"osm_id":"5039859316","tag":{"amenity":"waste_basket"}},"type":"Feature"},
	{"geometry":{"coordinates":[5.43975,49.839673],"type":"Point"},"properties":{"osm_id":"5169674786","tag":{"amenity":"recycling","operator":"Terre ASBL","recycling:clothes":"yes","recycling_type":"container"}},"type":"Feature"},
	{"geometry":{"coordinates":[5.43387,49.842716],"type":"Point"},"properties":{"osm_id":"7514027514","tag":{"amenity":"recycling","opening_hours":"24/7","operator":"IDELUX-Environnement","recycling:glass_bottles":"yes","recycling_type":"container"}},"type":"Feature"},
	{"geometry":{"coordinates":[5.44548,49.848196],"type":"Point"},"properties":{"osm_id":"7514027515","tag":{"amenity":"recycling","opening_hours":"24/7","operator":"IDELUX-Environnement","recycling:glass_bottles":"yes","recycling_type":"container"}},"type":"Feature"},
	{"geometry":{"coordinates":[5.432634,49.839977],"type":"Point"},"properties":{"osm_id":"7514027521","tag":{"amenity":"recycling","opening_hours":"24/7","operator":"IDELUX-Environnement","recycling:glass_bottles":"yes","recycling_type":"container"}},"type":"Feature"},
	{"geometry":{"coordinates":[5.440316,49.840392],"type":"Point"},"properties":{"osm_id":"7514027528","tag":{"amenity":"recycling","opening_hours":"24/7","operator":"IDELUX-Environnement","recycling:glass_bottles":"yes","recycling_type":"container"}},"type":"Feature"},
	{"geometry":{"coordinates":[5.374044,49.844991],"type":"Point"},"properties":{"osm_id":"7514027529","tag":{"amenity":"recycling","opening_hours":"24/7","operator":"IDELUX-Environnement","recycling:glass_bottles":"yes","recycling_type":"container"}},"type":"Feature"}
]
}
