{
"type": "FeatureCollection",
"features": [
	{"geometry":{"coordinates":[5.443113,45.022244],"type":"Point"},"properties":{"name":"Poubelles de trie et m\u00c3\u00a9nag\u00c3\u00a8re","osm_id":"7867704775","tag":{"amenity":"recycling"}},"type":"Feature"},
	{"geometry":{"coordinates":[5.416104,44.96744],"type":"Point"},"properties":{"osm_id":"8663909616","tag":{"amenity":"waste_disposal"}},"type":"Feature"},
	{"geometry":{"coordinates":[5.416114,44.967423],"type":"Point"},"properties":{"osm_id":"8663938717","tag":{"amenity":"waste_disposal"}},"type":"Feature"},
	{"geometry":{"coordinates":[5.416129,44.967439],"type":"Point"},"properties":{"osm_id":"8663938718","tag":{"amenity":"waste_disposal"}},"type":"Feature"},
	{"geometry":{"coordinates":[5.415199,44.967721],"type":"Point"},"properties":{"osm_id":"8663938719","tag":{"amenity":"waste_disposal"}},"type":"Feature"},
	{"geometry":{"coordinates":[5.415169,44.967716],"type":"Point"},"properties":{"osm_id":"8663938720","tag":{"amenity":"waste_disposal"}},"type":"Feature"},
	{"geometry":{"coordinates":[5.415138,44.967713],"type":"Point"},"properties":{"osm_id":"8663938721","tag":{"amenity":"waste_disposal"}},"type":"Feature"},
	{"geometry":{"coordinates":[5.415143,44.96773],"type":"Point"},"properties":{"osm_id":"8663938722","tag":{"amenity":"waste_disposal"}},"type":"Feature"}
]
}
