{
"type": "FeatureCollection",
"lastupdate": "2020-08-01T00:00:00Z",
"features": [
	{"geometry":{"coordinates":[5.445063,43.883301],"type":"Point"},"properties":{"osm_id":"2894391108","tag":{"amenity":"recycling","recycling_type":"container"}},"type":"Feature"},
	{"geometry":{"coordinates":[5.375048,43.86842],"type":"Point"},"properties":{"osm_id":"2897951695","tag":{"amenity":"recycling","recycling_type":"container"}},"type":"Feature"},
	{"geometry":{"coordinates":[5.406284,43.876936],"type":"Point"},"properties":{"osm_id":"4360073892","tag":{"amenity":"recycling","recycling:glass_bottles":"yes","recycling_type":"container"}},"type":"Feature"},
	{"geometry":{"coordinates":[5.374692,43.897196],"type":"Point"},"properties":{"osm_id":"4994165471","tag":{"amenity":"waste_basket","maintenance":"needs_repair"}},"type":"Feature"},
	{"geometry":{"coordinates":[5.37616,43.895148],"type":"Point"},"properties":{"osm_id":"4994181731","tag":{"amenity":"waste_basket"}},"type":"Feature"},
	{"geometry":{"coordinates":[5.374016,43.896006],"type":"Point"},"properties":{"osm_id":"5042333666","tag":{"amenity":"waste_basket"}},"type":"Feature"},
	{"geometry":{"coordinates":[5.397079,43.873847],"type":"Point"},"properties":{"osm_id":"5293524423","tag":{"amenity":"recycling"}},"type":"Feature"},
	{"geometry":{"coordinates":[5.378006,43.891801],"type":"Point"},"properties":{"osm_id":"6715300102","tag":{"amenity":"waste_basket"}},"type":"Feature"},
	{"geometry":{"coordinates":[5.377807,43.891535],"type":"Point"},"properties":{"osm_id":"6715305159","tag":{"amenity":"waste_basket"}},"type":"Feature"}
]
}
