{
"type": "FeatureCollection",
"features": [
	{"geometry":{"coordinates":[9.976692,59.398709],"type":"Point"},"properties":{"barrier":"gate","osm_id":"4769358557"},"type":"Feature"},
	{"geometry":{"coordinates":[9.973987,59.397941],"type":"Point"},"properties":{"osm_id":"5555207349","tag":{"amenity":"recycling","description":"R\u00c3\u00b8de Kors Lardal","recycling:clothes":"yes","recycling_type":"container","ref:sortere":"21030"}},"type":"Feature"},
	{"geometry":{"coordinates":[9.9726,59.398579],"type":"Point"},"properties":{"osm_id":"5555207624","tag":{"amenity":"recycling","description":"Statoil Svarstad","recycling:clothes":"yes","recycling_type":"container","ref:sortere":"20981"}},"type":"Feature"},
	{"geometry":{"coordinates":[9.977158,59.398842],"type":"Point"},"properties":{"osm_id":"6007720293","tag":{"amenity":"recycling","recycling_type":"container"}},"type":"Feature"},
	{"geometry":{"coordinates":[9.977246,59.398797],"type":"Point"},"properties":{"osm_id":"6007720294","tag":{"amenity":"recycling","recycling_type":"container"}},"type":"Feature"},
	{"geometry":{"coordinates":[9.977293,59.398778],"type":"Point"},"properties":{"osm_id":"6007720295","tag":{"amenity":"recycling","recycling_type":"container"}},"type":"Feature"},
	{"geometry":{"coordinates":[9.97734,59.398759],"type":"Point"},"properties":{"osm_id":"6007720296","tag":{"amenity":"recycling","recycling_type":"container"}},"type":"Feature"},
	{"geometry":{"coordinates":[9.977387,59.39874],"type":"Point"},"properties":{"osm_id":"6007720297","tag":{"amenity":"recycling","recycling_type":"container"}},"type":"Feature"},
	{"geometry":{"coordinates":[9.977435,59.398721],"type":"Point"},"properties":{"osm_id":"6007720298","tag":{"amenity":"recycling","recycling_type":"container"}},"type":"Feature"},
	{"geometry":{"coordinates":[9.977482,59.398702],"type":"Point"},"properties":{"osm_id":"6007720299","tag":{"amenity":"recycling","recycling_type":"container"}},"type":"Feature"},
	{"geometry":{"coordinates":[9.977199,59.398816],"type":"Point"},"properties":{"osm_id":"6007720300","tag":{"amenity":"recycling","recycling_type":"container"}},"type":"Feature"},
	{"geometry":{"coordinates":[9.966581,59.40029],"type":"Point"},"properties":{"osm_id":"6565987123","tag":{"amenity":"waste_basket"}},"type":"Feature"},
	{"geometry":{"coordinates":[9.966466,59.399887],"type":"Point"},"properties":{"osm_id":"6565987124","tag":{"amenity":"waste_basket"}},"type":"Feature"},
	{"geometry":{"coordinates":[9.966382,59.399596],"type":"Point"},"properties":{"osm_id":"6565987125","tag":{"amenity":"waste_basket"}},"type":"Feature"},
	{"geometry":{"coordinates":[9.966212,59.399313],"type":"Point"},"properties":{"osm_id":"6565987126","tag":{"amenity":"waste_basket"}},"type":"Feature"},
	{"geometry":{"coordinates":[9.965649,59.399087],"type":"Point"},"properties":{"osm_id":"6565987127","tag":{"amenity":"waste_basket"}},"type":"Feature"},
	{"geometry":{"coordinates":[9.965003,59.39927],"type":"Point"},"properties":{"osm_id":"6565987128","tag":{"amenity":"waste_basket"}},"type":"Feature"},
	{"geometry":{"coordinates":[9.965067,59.399499],"type":"Point"},"properties":{"osm_id":"6565987129","tag":{"amenity":"waste_basket"}},"type":"Feature"},
	{"geometry":{"coordinates":[9.96513,59.399727],"type":"Point"},"properties":{"osm_id":"6565987130","tag":{"amenity":"waste_basket"}},"type":"Feature"},
	{"geometry":{"coordinates":[9.965275,59.400247],"type":"Point"},"properties":{"osm_id":"6565987131","tag":{"amenity":"waste_basket"}},"type":"Feature"}
]
}
