{
"type": "FeatureCollection",
"features": [
	{"geometry":{"coordinates":[9.993391,54.682639],"type":"Point"},"properties":{"osm_id":"291884051","tag":{"amenity":"recycling","recycling:glass":"yes","recycling_type":"container"}},"type":"Feature"},
	{"geometry":{"coordinates":[9.986957,54.719705],"type":"Point"},"properties":{"osm_id":"296414183","tag":{"amenity":"recycling","recycling:glass":"yes","recycling_type":"container"}},"type":"Feature"},
	{"geometry":{"coordinates":[9.988515,54.683991],"type":"Point"},"properties":{"osm_id":"1250660099","tag":{"amenity":"waste_basket"}},"type":"Feature"},
	{"geometry":{"coordinates":[9.988406,54.684645],"type":"Point"},"properties":{"osm_id":"1250660118","tag":{"amenity":"waste_basket"}},"type":"Feature"},
	{"geometry":{"coordinates":[10.000149,54.700479],"type":"Point"},"properties":{"osm_id":"1976414693","tag":{"amenity":"recycling","recycling_type":"container"}},"type":"Feature"},
	{"geometry":{"coordinates":[9.935599,54.704461],"type":"Point"},"properties":{"osm_id":"3221864235","tag":{"amenity":"waste_basket"}},"type":"Feature"},
	{"geometry":{"coordinates":[9.968648,54.724416],"type":"Point"},"properties":{"osm_id":"6795796877","tag":{"amenity":"waste_basket"}},"type":"Feature"},
	{"geometry":{"coordinates":[9.972094,54.723747],"type":"Point"},"properties":{"osm_id":"6795796878","tag":{"amenity":"waste_basket"}},"type":"Feature"},
	{"geometry":{"coordinates":[9.976195,54.72212],"type":"Point"},"properties":{"osm_id":"6795796881","tag":{"amenity":"waste_basket"}},"type":"Feature"},
	{"geometry":{"coordinates":[9.976663,54.722947],"type":"Point"},"properties":{"osm_id":"6795796882","tag":{"amenity":"waste_basket"}},"type":"Feature"},
	{"geometry":{"coordinates":[9.986077,54.7196],"type":"Point"},"properties":{"osm_id":"7827232300","tag":{"amenity":"waste_basket"}},"type":"Feature"},
	{"geometry":{"coordinates":[9.991681,54.715088],"type":"Point"},"properties":{"osm_id":"7827232307","tag":{"amenity":"waste_basket"}},"type":"Feature"},
	{"geometry":{"coordinates":[9.979473,54.713989],"type":"Point"},"properties":{"osm_id":"7827232311","tag":{"amenity":"waste_basket"}},"type":"Feature"},
	{"geometry":{"coordinates":[9.998261,54.705102],"type":"Point"},"properties":{"osm_id":"7828912643","tag":{"amenity":"waste_basket"}},"type":"Feature"},
	{"geometry":{"coordinates":[9.997119,54.702436],"type":"Point"},"properties":{"osm_id":"7828912646","tag":{"amenity":"waste_basket"}},"type":"Feature"},
	{"geometry":{"coordinates":[9.996074,54.701381],"type":"Point"},"properties":{"osm_id":"7828912648","tag":{"amenity":"waste_basket"}},"type":"Feature"},
	{"geometry":{"coordinates":[9.99455,54.700277],"type":"Point"},"properties":{"osm_id":"7828912649","tag":{"amenity":"waste_basket"}},"type":"Feature"},
	{"geometry":{"coordinates":[9.99305,54.699003],"type":"Point"},"properties":{"osm_id":"7828912650","tag":{"amenity":"waste_basket"}},"type":"Feature"},
	{"geometry":{"coordinates":[10.0041,54.694828],"type":"Point"},"properties":{"osm_id":"7828912692","tag":{"amenity":"waste_basket"}},"type":"Feature"},
	{"geometry":{"coordinates":[10.010528,54.70353],"type":"Point"},"properties":{"osm_id":"7828912719","tag":{"amenity":"waste_basket"}},"type":"Feature"},
	{"geometry":{"coordinates":[9.993006,54.714842],"type":"Point"},"properties":{"osm_id":"7828912762","tag":{"amenity":"waste_basket"}},"type":"Feature"},
	{"geometry":{"coordinates":[9.991677,54.71568],"type":"Point"},"properties":{"osm_id":"7828912774","tag":{"amenity":"waste_basket"}},"type":"Feature"},
	{"geometry":{"coordinates":[9.990041,54.715875],"type":"Point"},"properties":{"osm_id":"7828912775","tag":{"amenity":"recycling","recycling:cans":"yes","recycling:glass":"yes","recycling:glass_bottles":"yes","recycling:plastic":"yes","recycling:plastic_bottles":"yes","recycling:plastic_packaging":"yes","recycling_type":"container"}},"type":"Feature"},
	{"geometry":{"coordinates":[9.988232,54.718663],"type":"Point"},"properties":{"osm_id":"7831440606","tag":{"amenity":"waste_basket"}},"type":"Feature"},
	{"geometry":{"coordinates":[9.988763,54.71794],"type":"Point"},"properties":{"osm_id":"7831440608","tag":{"amenity":"waste_basket"}},"type":"Feature"},
	{"geometry":{"coordinates":[9.989192,54.717407],"type":"Point"},"properties":{"osm_id":"7831440609","tag":{"amenity":"waste_basket"}},"type":"Feature"},
	{"geometry":{"coordinates":[9.98932,54.717252],"type":"Point"},"properties":{"osm_id":"7831440610","tag":{"amenity":"waste_basket"}},"type":"Feature"},
	{"geometry":{"coordinates":[9.973522,54.721717],"type":"Point"},"properties":{"osm_id":"7831669228","tag":{"amenity":"waste_basket"}},"type":"Feature"},
	{"geometry":{"coordinates":[9.984866,54.724097],"type":"Point"},"properties":{"osm_id":"7831669247","tag":{"amenity":"waste_basket","waste":"cigaret_buds"}},"type":"Feature"},
	{"geometry":{"coordinates":[9.984884,54.724069],"type":"Point"},"properties":{"osm_id":"7831669248","tag":{"amenity":"waste_basket"}},"type":"Feature"},
	{"geometry":{"coordinates":[9.984932,54.723985],"type":"Point"},"properties":{"osm_id":"7831669250","tag":{"amenity":"waste_basket"}},"type":"Feature"},
	{"geometry":{"coordinates":[9.985182,54.72363],"type":"Point"},"properties":{"osm_id":"7831669252","tag":{"amenity":"waste_basket"}},"type":"Feature"},
	{"geometry":{"coordinates":[9.985608,54.723005],"type":"Point"},"properties":{"osm_id":"7831669255","tag":{"amenity":"waste_basket"}},"type":"Feature"},
	{"geometry":{"coordinates":[9.986165,54.722173],"type":"Point"},"properties":{"osm_id":"7831669270","tag":{"amenity":"waste_basket","waste":"cigaret_buds"}},"type":"Feature"},
	{"geometry":{"coordinates":[9.986151,54.722198],"type":"Point"},"properties":{"osm_id":"7831669271","tag":{"amenity":"waste_basket"}},"type":"Feature"},
	{"geometry":{"coordinates":[9.986508,54.721621],"type":"Point"},"properties":{"osm_id":"7831669276","tag":{"amenity":"waste_basket"}},"type":"Feature"},
	{"geometry":{"coordinates":[9.986926,54.721004],"type":"Point"},"properties":{"osm_id":"7831669277","tag":{"amenity":"waste_basket"}},"type":"Feature"},
	{"geometry":{"coordinates":[9.987431,54.720004],"type":"Point"},"properties":{"osm_id":"7831669281","tag":{"amenity":"waste_basket"}},"type":"Feature"},
	{"geometry":{"coordinates":[9.987744,54.719439],"type":"Point"},"properties":{"osm_id":"7831669282","tag":{"amenity":"waste_basket"}},"type":"Feature"},
	{"geometry":{"coordinates":[9.987778,54.719387],"type":"Point"},"properties":{"osm_id":"7831669283","tag":{"amenity":"waste_basket"}},"type":"Feature"},
	{"geometry":{"coordinates":[9.984494,54.724559],"type":"Point"},"properties":{"osm_id":"7833194496","tag":{"amenity":"waste_basket"}},"type":"Feature"}
]
}
