{
"type": "FeatureCollection",
"features": [
	{"geometry":{"coordinates":[9.948128,53.749724],"type":"Point"},"properties":{"osm_id":"324334195","tag":{"amenity":"recycling","recycling:clothes":"yes","recycling:glass_bottles":"yes","recycling:paper":"yes","recycling_type":"container"}},"type":"Feature"},
	{"geometry":{"coordinates":[9.940212,53.756705],"type":"Point"},"properties":{"osm_id":"436110014","tag":{"amenity":"recycling","recycling:clothes":"yes","recycling:glass_bottles":"yes","recycling:paper":"yes","recycling_type":"container"}},"type":"Feature"},
	{"geometry":{"coordinates":[9.973688,53.774568],"type":"Point"},"properties":{"osm_id":"494838567","tag":{"amenity":"recycling","recycling:clothes":"yes","recycling:glass_bottles":"yes","recycling:paper":"no","recycling_type":"container"}},"type":"Feature"},
	{"geometry":{"coordinates":[9.993067,53.790948],"type":"Point"},"properties":{"osm_id":"655228955","tag":{"amenity":"recycling","recycling:clothes":"yes","recycling:glass_bottles":"no","recycling:paper":"no","recycling_type":"container"}},"type":"Feature"},
	{"geometry":{"coordinates":[9.988556,53.759814],"type":"Point"},"properties":{"osm_id":"916886147","tag":{"amenity":"waste_basket"}},"type":"Feature"},
	{"geometry":{"coordinates":[9.994309,53.764569],"type":"Point"},"properties":{"osm_id":"942698905","tag":{"amenity":"waste_basket"}},"type":"Feature"},
	{"geometry":{"coordinates":[9.993724,53.764366],"type":"Point"},"properties":{"osm_id":"942698918","tag":{"amenity":"waste_basket"}},"type":"Feature"},
	{"geometry":{"coordinates":[9.992773,53.76377],"type":"Point"},"properties":{"osm_id":"957134511","tag":{"amenity":"waste_basket"}},"type":"Feature"},
	{"geometry":{"coordinates":[9.989549,53.758609],"type":"Point"},"properties":{"osm_id":"1295049698","tag":{"amenity":"waste_basket"}},"type":"Feature"},
	{"geometry":{"coordinates":[10.000077,53.791928],"type":"Point"},"properties":{"osm_id":"1647178342","tag":{"amenity":"waste_basket"}},"type":"Feature"},
	{"geometry":{"coordinates":[10.014647,53.78865],"type":"Point"},"properties":{"osm_id":"1656211634","tag":{"amenity":"recycling","recycling:clothes":"yes","recycling:glass_bottles":"yes","recycling:paper":"no","recycling_type":"container"}},"type":"Feature"},
	{"geometry":{"coordinates":[10.006259,53.79328],"type":"Point"},"properties":{"osm_id":"1670146246","tag":{"amenity":"waste_basket"}},"type":"Feature"},
	{"geometry":{"coordinates":[10.015143,53.787865],"type":"Point"},"properties":{"osm_id":"1690514851","tag":{"amenity":"waste_basket"}},"type":"Feature"},
	{"geometry":{"coordinates":[9.989048,53.789936],"type":"Point"},"properties":{"osm_id":"1702570882","tag":{"amenity":"waste_basket"}},"type":"Feature"},
	{"geometry":{"coordinates":[9.989262,53.78861],"type":"Point"},"properties":{"osm_id":"1702592480","tag":{"amenity":"waste_basket"}},"type":"Feature"},
	{"geometry":{"coordinates":[9.989117,53.787857],"type":"Point"},"properties":{"osm_id":"1702592483","tag":{"amenity":"waste_basket"}},"type":"Feature"},
	{"geometry":{"coordinates":[9.984025,53.785272],"type":"Point"},"properties":{"osm_id":"1702592485","tag":{"amenity":"waste_basket"}},"type":"Feature"},
	{"geometry":{"coordinates":[10.015107,53.789767],"type":"Point"},"properties":{"osm_id":"1709145202","tag":{"amenity":"waste_basket"}},"type":"Feature"},
	{"geometry":{"coordinates":[9.998865,53.792241],"type":"Point"},"properties":{"osm_id":"1709145216","tag":{"amenity":"recycling","recycling:clothes":"yes","recycling_type":"container"}},"type":"Feature"},
	{"geometry":{"coordinates":[10.014644,53.791749],"type":"Point"},"properties":{"osm_id":"1734468625","tag":{"amenity":"waste_basket"}},"type":"Feature"},
	{"geometry":{"coordinates":[10.014926,53.789816],"type":"Point"},"properties":{"osm_id":"1734513929","tag":{"amenity":"waste_basket"}},"type":"Feature"},
	{"geometry":{"coordinates":[10.013233,53.789958],"type":"Point"},"properties":{"osm_id":"1734513937","tag":{"amenity":"waste_basket"}},"type":"Feature"},
	{"geometry":{"coordinates":[10.01033,53.790423],"type":"Point"},"properties":{"osm_id":"1734513946","tag":{"amenity":"waste_basket"}},"type":"Feature"},
	{"geometry":{"coordinates":[10.008215,53.790721],"type":"Point"},"properties":{"osm_id":"1734513967","tag":{"amenity":"waste_basket"}},"type":"Feature"},
	{"geometry":{"coordinates":[10.006209,53.790943],"type":"Point"},"properties":{"osm_id":"1734513989","tag":{"amenity":"waste_basket"}},"type":"Feature"},
	{"geometry":{"coordinates":[9.994545,53.797309],"type":"Point"},"properties":{"osm_id":"1734514048","tag":{"amenity":"waste_basket"}},"type":"Feature"},
	{"geometry":{"coordinates":[9.994501,53.798162],"type":"Point"},"properties":{"osm_id":"1734514063","tag":{"amenity":"waste_basket"}},"type":"Feature"},
	{"geometry":{"coordinates":[9.985412,53.785256],"type":"Point"},"properties":{"osm_id":"1736456321","tag":{"amenity":"waste_basket"}},"type":"Feature"},
	{"geometry":{"coordinates":[9.983573,53.785212],"type":"Point"},"properties":{"osm_id":"1736456331","tag":{"amenity":"waste_basket"}},"type":"Feature"},
	{"geometry":{"coordinates":[9.982219,53.785255],"type":"Point"},"properties":{"osm_id":"1736456359","tag":{"amenity":"waste_basket"}},"type":"Feature"},
	{"geometry":{"coordinates":[9.981755,53.784999],"type":"Point"},"properties":{"osm_id":"1736456365","tag":{"amenity":"waste_basket"}},"type":"Feature"},
	{"geometry":{"coordinates":[9.979653,53.783899],"type":"Point"},"properties":{"osm_id":"1736456401","tag":{"amenity":"waste_basket"}},"type":"Feature"},
	{"geometry":{"coordinates":[9.978153,53.784253],"type":"Point"},"properties":{"osm_id":"1736456409","tag":{"amenity":"waste_basket"}},"type":"Feature"},
	{"geometry":{"coordinates":[9.975937,53.786487],"type":"Point"},"properties":{"osm_id":"1736456412","tag":{"amenity":"waste_basket"}},"type":"Feature"},
	{"geometry":{"coordinates":[9.977617,53.789109],"type":"Point"},"properties":{"osm_id":"1736456414","tag":{"amenity":"waste_basket"}},"type":"Feature"},
	{"geometry":{"coordinates":[9.981684,53.78261],"type":"Point"},"properties":{"osm_id":"1736456423","tag":{"amenity":"waste_basket"}},"type":"Feature"},
	{"geometry":{"coordinates":[9.984573,53.782274],"type":"Point"},"properties":{"osm_id":"1736456425","tag":{"amenity":"waste_basket"}},"type":"Feature"},
	{"geometry":{"coordinates":[9.984516,53.782716],"type":"Point"},"properties":{"osm_id":"1736456430","tag":{"amenity":"waste_basket"}},"type":"Feature"},
	{"geometry":{"coordinates":[9.985365,53.783524],"type":"Point"},"properties":{"osm_id":"1736456443","tag":{"amenity":"waste_basket"}},"type":"Feature"},
	{"geometry":{"coordinates":[9.97761,53.789757],"type":"Point"},"properties":{"osm_id":"1736469610","tag":{"amenity":"recycling","location":"overground","operator":"Deutsches Rotes Kreuz","recycling:clothes":"yes","recycling_type":"container"}},"type":"Feature"},
	{"geometry":{"coordinates":[9.977872,53.789693],"type":"Point"},"properties":{"osm_id":"1736469635","tag":{"amenity":"waste_basket"}},"type":"Feature"},
	{"geometry":{"coordinates":[9.989055,53.781937],"type":"Point"},"properties":{"osm_id":"1745157030","tag":{"amenity":"waste_basket"}},"type":"Feature"},
	{"geometry":{"coordinates":[9.991021,53.782307],"type":"Point"},"properties":{"osm_id":"1745157032","tag":{"amenity":"waste_basket"}},"type":"Feature"},
	{"geometry":{"coordinates":[9.992358,53.78697],"type":"Point"},"properties":{"osm_id":"1745274348","tag":{"amenity":"waste_basket"}},"type":"Feature"},
	{"geometry":{"coordinates":[9.99268,53.787863],"type":"Point"},"properties":{"osm_id":"1745274354","tag":{"amenity":"waste_basket"}},"type":"Feature"},
	{"geometry":{"coordinates":[9.99465,53.790855],"type":"Point"},"properties":{"osm_id":"1756383471","tag":{"amenity":"waste_basket"}},"type":"Feature"},
	{"geometry":{"coordinates":[9.992482,53.787726],"type":"Point"},"properties":{"osm_id":"1765348254","tag":{"amenity":"waste_basket"}},"type":"Feature"},
	{"geometry":{"coordinates":[9.98261,53.793866],"type":"Point"},"properties":{"osm_id":"1783793852","tag":{"amenity":"waste_basket"}},"type":"Feature"},
	{"geometry":{"coordinates":[9.994046,53.795247],"type":"Point"},"properties":{"osm_id":"2219438940","tag":{"amenity":"waste_basket"}},"type":"Feature"},
	{"geometry":{"coordinates":[9.993416,53.79545],"type":"Point"},"properties":{"osm_id":"2219438961","tag":{"amenity":"waste_basket"}},"type":"Feature"},
	{"geometry":{"coordinates":[9.995908,53.793437],"type":"Point"},"properties":{"osm_id":"2244432166","tag":{"amenity":"waste_basket"}},"type":"Feature"},
	{"geometry":{"coordinates":[10.006945,53.790857],"type":"Point"},"properties":{"highway":"street_lamp","osm_id":"2258664621","tag":{"amenity":"waste_basket"}},"type":"Feature"},
	{"geometry":{"coordinates":[10.006455,53.787246],"type":"Point"},"properties":{"osm_id":"2320593628","tag":{"amenity":"recycling","operator":"Deutsches Rotes Kreuz","recycling:clothes":"yes","recycling_type":"container"}},"type":"Feature"},
	{"geometry":{"coordinates":[10.005323,53.787486],"type":"Point"},"properties":{"osm_id":"2320593648","tag":{"amenity":"recycling","recycling:clothes":"yes","recycling:shoes":"yes","recycling_type":"container"}},"type":"Feature"},
	{"geometry":{"coordinates":[9.993824,53.757377],"type":"Point"},"properties":{"osm_id":"2356312639","tag":{"amenity":"waste_basket"}},"type":"Feature"},
	{"geometry":{"coordinates":[9.991471,53.758239],"type":"Point"},"properties":{"osm_id":"2356312643","tag":{"amenity":"waste_basket"}},"type":"Feature"},
	{"geometry":{"coordinates":[9.974475,53.754968],"type":"Point"},"properties":{"osm_id":"2391502570","tag":{"amenity":"waste_basket"}},"type":"Feature"},
	{"geometry":{"coordinates":[10.005198,53.787345],"type":"Point"},"properties":{"osm_id":"2611031014","tag":{"amenity":"waste_basket"}},"type":"Feature"},
	{"geometry":{"coordinates":[10.011448,53.794076],"type":"Point"},"properties":{"osm_id":"2635430257","tag":{"amenity":"recycling","recycling:clothes":"yes","recycling_type":"container"}},"type":"Feature"},
	{"geometry":{"coordinates":[10.000634,53.787593],"type":"Point"},"properties":{"osm_id":"2650760681","tag":{"amenity":"waste_basket"}},"type":"Feature"},
	{"geometry":{"coordinates":[9.985303,53.775292],"type":"Point"},"properties":{"osm_id":"2696285565","tag":{"amenity":"waste_basket"}},"type":"Feature"},
	{"geometry":{"coordinates":[9.978628,53.754871],"type":"Point"},"properties":{"osm_id":"2701130937","tag":{"amenity":"recycling","recycling:clothes":"yes","recycling_type":"container"}},"type":"Feature"},
	{"geometry":{"coordinates":[9.992393,53.793211],"type":"Point"},"properties":{"osm_id":"2767923021","tag":{"amenity":"waste_basket"}},"type":"Feature"},
	{"geometry":{"coordinates":[9.990568,53.793338],"type":"Point"},"properties":{"osm_id":"2767923022","tag":{"amenity":"waste_basket"}},"type":"Feature"},
	{"geometry":{"coordinates":[9.990112,53.793497],"type":"Point"},"properties":{"osm_id":"2767923023","tag":{"amenity":"waste_basket"}},"type":"Feature"},
	{"geometry":{"coordinates":[9.998608,53.753725],"type":"Point"},"properties":{"osm_id":"2934751159","tag":{"amenity":"recycling","recycling:clothes":"yes","recycling:paper":"no","recycling_type":"container"}},"type":"Feature"},
	{"geometry":{"coordinates":[9.96715,53.795726],"type":"Point"},"properties":{"osm_id":"3002273693","tag":{"amenity":"waste_basket"}},"type":"Feature"},
	{"geometry":{"coordinates":[9.99303,53.796306],"type":"Point"},"properties":{"osm_id":"3032177939","tag":{"amenity":"waste_basket"}},"type":"Feature"},
	{"geometry":{"coordinates":[9.993386,53.796496],"type":"Point"},"properties":{"osm_id":"3032177942","tag":{"amenity":"waste_basket"}},"type":"Feature"},
	{"geometry":{"coordinates":[10.006794,53.755831],"type":"Point"},"properties":{"osm_id":"3089428602","tag":{"amenity":"waste_basket"}},"type":"Feature"},
	{"geometry":{"coordinates":[9.990863,53.754346],"type":"Point"},"properties":{"osm_id":"3223919899","tag":{"amenity":"waste_basket"}},"type":"Feature"},
	{"geometry":{"coordinates":[9.975556,53.784541],"type":"Point"},"properties":{"osm_id":"3607934687","tag":{"amenity":"recycling","recycling:clothes":"yes","recycling:glass_bottles":"yes","recycling:paper":"no","recycling_type":"container"}},"type":"Feature"},
	{"geometry":{"coordinates":[9.975475,53.767085],"type":"Point"},"properties":{"osm_id":"3942076510","tag":{"amenity":"recycling","recycling:clothes":"yes","recycling_type":"container"}},"type":"Feature"},
	{"geometry":{"coordinates":[9.982668,53.796912],"type":"Point"},"properties":{"osm_id":"4029925336","tag":{"amenity":"waste_basket"}},"type":"Feature"},
	{"geometry":{"coordinates":[9.979632,53.800435],"type":"Point"},"properties":{"osm_id":"4818397982","tag":{"amenity":"recycling","recycling:clothes":"yes","recycling_type":"container"}},"type":"Feature"},
	{"geometry":{"coordinates":[10.002798,53.792352],"type":"Point"},"properties":{"osm_id":"4934082207","tag":{"amenity":"waste_basket"}},"type":"Feature"},
	{"geometry":{"coordinates":[9.990959,53.791113],"type":"Point"},"properties":{"osm_id":"4945669956","tag":{"amenity":"waste_basket"}},"type":"Feature"},
	{"geometry":{"coordinates":[9.990794,53.791545],"type":"Point"},"properties":{"osm_id":"4945669960","tag":{"amenity":"waste_basket"}},"type":"Feature"},
	{"geometry":{"coordinates":[9.990751,53.791777],"type":"Point"},"properties":{"osm_id":"4945669961","tag":{"amenity":"waste_basket"}},"type":"Feature"},
	{"geometry":{"coordinates":[9.987372,53.798496],"type":"Point"},"properties":{"osm_id":"4945669981","tag":{"amenity":"waste_basket"}},"type":"Feature"},
	{"geometry":{"coordinates":[9.972839,53.755827],"type":"Point"},"properties":{"osm_id":"4971226822","tag":{"amenity":"waste_basket"}},"type":"Feature"},
	{"geometry":{"coordinates":[10.014934,53.756721],"type":"Point"},"properties":{"osm_id":"5060917972","tag":{"amenity":"waste_basket"}},"type":"Feature"},
	{"geometry":{"coordinates":[10.016145,53.759027],"type":"Point"},"properties":{"osm_id":"5060917977","tag":{"amenity":"waste_basket"}},"type":"Feature"},
	{"geometry":{"coordinates":[9.992863,53.764083],"type":"Point"},"properties":{"osm_id":"5150728042","tag":{"amenity":"waste_basket"}},"type":"Feature"},
	{"geometry":{"coordinates":[10.007541,53.784364],"type":"Point"},"properties":{"osm_id":"5195062554","tag":{"amenity":"waste_basket"}},"type":"Feature"},
	{"geometry":{"coordinates":[10.00487,53.789817],"type":"Point"},"properties":{"osm_id":"5343304433","tag":{"amenity":"recycling","opening_hours":"24/7","operator":"Wege-Zweckverband der Gemeinden des Kreises Segeberg","recycling:clothes":"yes","recycling_type":"container"}},"type":"Feature"},
	{"geometry":{"coordinates":[10.004267,53.789019],"type":"Point"},"properties":{"osm_id":"6227440413","tag":{"amenity":"waste_basket"}},"type":"Feature"},
	{"geometry":{"coordinates":[9.982257,53.79214],"type":"Point"},"properties":{"osm_id":"6294000167","tag":{"amenity":"recycling","recycling:clothes":"yes","recycling_type":"container"}},"type":"Feature"},
	{"geometry":{"coordinates":[10.006256,53.791014],"type":"Point"},"properties":{"osm_id":"6294000171","tag":{"amenity":"waste_basket"}},"type":"Feature"},
	{"geometry":{"coordinates":[9.982925,53.798683],"type":"Point"},"properties":{"osm_id":"6294099149","tag":{"amenity":"waste_basket"}},"type":"Feature"},
	{"geometry":{"coordinates":[9.982691,53.797833],"type":"Point"},"properties":{"osm_id":"6294099152","tag":{"amenity":"waste_basket"}},"type":"Feature"},
	{"geometry":{"coordinates":[10.009441,53.796196],"type":"Point"},"properties":{"osm_id":"6408969654","tag":{"amenity":"waste_basket"}},"type":"Feature"},
	{"geometry":{"coordinates":[10.004216,53.796432],"type":"Point"},"properties":{"osm_id":"6408969655","tag":{"amenity":"waste_basket"}},"type":"Feature"},
	{"geometry":{"coordinates":[9.99993,53.796568],"type":"Point"},"properties":{"osm_id":"6408969657","tag":{"amenity":"waste_basket"}},"type":"Feature"},
	{"geometry":{"coordinates":[9.984005,53.780197],"type":"Point"},"properties":{"osm_id":"6431716561","tag":{"amenity":"waste_basket"}},"type":"Feature"},
	{"geometry":{"coordinates":[9.984594,53.779426],"type":"Point"},"properties":{"osm_id":"6431716563","tag":{"amenity":"waste_basket"}},"type":"Feature"},
	{"geometry":{"coordinates":[9.986664,53.77449],"type":"Point"},"properties":{"osm_id":"6431716564","tag":{"amenity":"waste_basket"}},"type":"Feature"},
	{"geometry":{"coordinates":[9.985403,53.771869],"type":"Point"},"properties":{"osm_id":"6431716566","tag":{"amenity":"waste_basket"}},"type":"Feature"},
	{"geometry":{"coordinates":[9.982739,53.771344],"type":"Point"},"properties":{"osm_id":"6431716568","tag":{"amenity":"waste_basket"}},"type":"Feature"},
	{"geometry":{"coordinates":[9.990252,53.763895],"type":"Point"},"properties":{"osm_id":"6441426280","tag":{"amenity":"waste_basket"}},"type":"Feature"},
	{"geometry":{"coordinates":[10.000965,53.784988],"type":"Point"},"properties":{"osm_id":"6441437382","tag":{"amenity":"waste_basket"}},"type":"Feature"},
	{"geometry":{"coordinates":[9.941722,53.760683],"type":"Point"},"properties":{"osm_id":"6441596658","tag":{"amenity":"waste_basket"}},"type":"Feature"},
	{"geometry":{"coordinates":[9.976203,53.784324],"type":"Point"},"properties":{"osm_id":"6482954889","tag":{"amenity":"waste_basket"}},"type":"Feature"},
	{"geometry":{"coordinates":[9.973816,53.78456],"type":"Point"},"properties":{"osm_id":"6482954899","tag":{"amenity":"waste_basket"}},"type":"Feature"},
	{"geometry":{"coordinates":[9.972064,53.784173],"type":"Point"},"properties":{"osm_id":"6482954900","tag":{"amenity":"waste_basket"}},"type":"Feature"},
	{"geometry":{"coordinates":[9.96917,53.785762],"type":"Point"},"properties":{"osm_id":"6482954904","tag":{"amenity":"waste_basket"}},"type":"Feature"},
	{"geometry":{"coordinates":[9.970232,53.785628],"type":"Point"},"properties":{"osm_id":"6482954905","tag":{"amenity":"waste_basket"}},"type":"Feature"},
	{"geometry":{"coordinates":[9.968536,53.786464],"type":"Point"},"properties":{"osm_id":"6482954907","tag":{"amenity":"waste_basket"}},"type":"Feature"},
	{"geometry":{"coordinates":[9.969143,53.787754],"type":"Point"},"properties":{"osm_id":"6482954909","tag":{"amenity":"waste_basket"}},"type":"Feature"},
	{"geometry":{"coordinates":[9.974716,53.78582],"type":"Point"},"properties":{"osm_id":"6513787485","tag":{"amenity":"waste_basket"}},"type":"Feature"},
	{"geometry":{"coordinates":[9.969693,53.788242],"type":"Point"},"properties":{"osm_id":"6513787486","tag":{"amenity":"waste_basket"}},"type":"Feature"},
	{"geometry":{"coordinates":[9.98665,53.782797],"type":"Point"},"properties":{"osm_id":"6563268585","tag":{"amenity":"waste_basket"}},"type":"Feature"},
	{"geometry":{"coordinates":[9.95529,53.749859],"type":"Point"},"properties":{"osm_id":"6577461716","tag":{"amenity":"waste_basket"}},"type":"Feature"},
	{"geometry":{"coordinates":[9.954077,53.751577],"type":"Point"},"properties":{"osm_id":"6577461717","tag":{"amenity":"waste_basket"}},"type":"Feature"},
	{"geometry":{"coordinates":[9.952833,53.753272],"type":"Point"},"properties":{"osm_id":"6577461718","tag":{"amenity":"waste_basket"}},"type":"Feature"},
	{"geometry":{"coordinates":[9.95154,53.755036],"type":"Point"},"properties":{"osm_id":"6577461719","tag":{"amenity":"waste_basket"}},"type":"Feature"},
	{"geometry":{"coordinates":[9.995044,53.797719],"type":"Point"},"properties":{"osm_id":"6793871211","tag":{"amenity":"waste_basket"}},"type":"Feature"},
	{"geometry":{"coordinates":[9.995966,53.796277],"type":"Point"},"properties":{"osm_id":"6793871214","tag":{"amenity":"waste_basket"}},"type":"Feature"},
	{"geometry":{"coordinates":[9.972713,53.796221],"type":"Point"},"properties":{"osm_id":"6821031076","tag":{"amenity":"waste_basket"}},"type":"Feature"},
	{"geometry":{"coordinates":[9.997171,53.761432],"type":"Point"},"properties":{"osm_id":"6938348893","tag":{"amenity":"waste_basket"}},"type":"Feature"},
	{"geometry":{"coordinates":[9.986549,53.756083],"type":"Point"},"properties":{"osm_id":"6939580174","tag":{"amenity":"waste_basket"}},"type":"Feature"},
	{"geometry":{"coordinates":[9.98095,53.774249],"type":"Point"},"properties":{"osm_id":"6984524655","tag":{"amenity":"waste_basket"}},"type":"Feature"},
	{"geometry":{"coordinates":[9.980672,53.774291],"type":"Point"},"properties":{"osm_id":"7003967558","tag":{"amenity":"waste_basket"}},"type":"Feature"},
	{"geometry":{"coordinates":[9.982649,53.774237],"type":"Point"},"properties":{"osm_id":"7003967559","tag":{"amenity":"waste_basket"}},"type":"Feature"},
	{"geometry":{"coordinates":[9.983539,53.774637],"type":"Point"},"properties":{"osm_id":"7003967560","tag":{"amenity":"waste_basket"}},"type":"Feature"},
	{"geometry":{"coordinates":[9.979442,53.77397],"type":"Point"},"properties":{"osm_id":"7003967561","tag":{"amenity":"waste_basket"}},"type":"Feature"},
	{"geometry":{"coordinates":[9.977791,53.795054],"type":"Point"},"properties":{"osm_id":"7011892495","tag":{"amenity":"waste_basket"}},"type":"Feature"},
	{"geometry":{"coordinates":[9.973836,53.774191],"type":"Point"},"properties":{"osm_id":"7058557641","tag":{"amenity":"waste_basket"}},"type":"Feature"},
	{"geometry":{"coordinates":[9.973463,53.774057],"type":"Point"},"properties":{"osm_id":"7058557643","tag":{"amenity":"waste_basket"}},"type":"Feature"},
	{"geometry":{"coordinates":[9.949264,53.75496],"type":"Point"},"properties":{"osm_id":"7070453553","tag":{"amenity":"waste_basket"}},"type":"Feature"},
	{"geometry":{"coordinates":[9.989177,53.757664],"type":"Point"},"properties":{"osm_id":"7070515409","tag":{"amenity":"waste_basket"}},"type":"Feature"},
	{"geometry":{"coordinates":[9.993468,53.79092],"type":"Point"},"properties":{"osm_id":"7120055151","tag":{"amenity":"recycling","recycling:glass_bottles":"yes","recycling_type":"container"}},"type":"Feature"},
	{"geometry":{"coordinates":[9.965196,53.792985],"type":"Point"},"properties":{"osm_id":"7139769093","tag":{"amenity":"waste_basket"}},"type":"Feature"},
	{"geometry":{"coordinates":[9.968325,53.790194],"type":"Point"},"properties":{"osm_id":"7139769095","tag":{"amenity":"waste_basket"}},"type":"Feature"},
	{"geometry":{"coordinates":[9.996079,53.762155],"type":"Point"},"properties":{"osm_id":"7175629774","tag":{"amenity":"waste_basket"}},"type":"Feature"},
	{"geometry":{"coordinates":[10.013421,53.758428],"type":"Point"},"properties":{"osm_id":"7231127833","tag":{"amenity":"waste_basket"}},"type":"Feature"},
	{"geometry":{"coordinates":[10.011418,53.758906],"type":"Point"},"properties":{"osm_id":"7231127835","tag":{"amenity":"waste_basket"}},"type":"Feature"},
	{"geometry":{"coordinates":[10.008966,53.762357],"type":"Point"},"properties":{"osm_id":"7231127837","tag":{"amenity":"waste_basket"}},"type":"Feature"},
	{"geometry":{"coordinates":[10.008721,53.761471],"type":"Point"},"properties":{"osm_id":"7231127844","tag":{"amenity":"waste_basket"}},"type":"Feature"},
	{"geometry":{"coordinates":[10.005988,53.764014],"type":"Point"},"properties":{"osm_id":"7231127850","tag":{"amenity":"waste_basket"}},"type":"Feature"},
	{"geometry":{"coordinates":[10.007292,53.766183],"type":"Point"},"properties":{"osm_id":"7231127851","tag":{"amenity":"waste_basket"}},"type":"Feature"},
	{"geometry":{"coordinates":[10.008037,53.769173],"type":"Point"},"properties":{"osm_id":"7231127855","tag":{"amenity":"waste_basket"}},"type":"Feature"},
	{"geometry":{"coordinates":[9.982023,53.784981],"type":"Point"},"properties":{"osm_id":"7315010144","tag":{"amenity":"waste_basket"}},"type":"Feature"},
	{"geometry":{"coordinates":[10.002872,53.752219],"type":"Point"},"properties":{"osm_id":"7476903456","tag":{"amenity":"waste_basket"}},"type":"Feature"},
	{"geometry":{"coordinates":[9.982459,53.777362],"type":"Point"},"properties":{"osm_id":"7503377694","tag":{"amenity":"waste_basket"}},"type":"Feature"},
	{"geometry":{"coordinates":[9.98444,53.770885],"type":"Point"},"properties":{"osm_id":"7656857473","tag":{"amenity":"recycling","operator":"Deutsches Rotes Kreuz","recycling:clothes":"yes","recycling_type":"container"}},"type":"Feature"}
]
}
