{
"type": "FeatureCollection",
"features": [
	{"geometry":{"coordinates":[10.007746,53.708394],"type":"Point"},"properties":{"osm_id":"251001822","tag":{"amenity":"recycling","check_date":"2020-01-25","recycling:clothes":"yes","recycling:glass_bottles":"yes","recycling:paper":"yes","recycling:small_appliances":"yes","recycling:small_electrical_appliances":"yes","recycling_type":"container","wheelchair":"limited"}},"type":"Feature"},
	{"geometry":{"coordinates":[10.00742,53.703503],"type":"Point"},"properties":{"osm_id":"251113722","tag":{"amenity":"recycling","recycling:glass_bottles":"yes","recycling:paper":"yes","recycling_type":"container"}},"type":"Feature"},
	{"geometry":{"coordinates":[9.9561,53.748217],"type":"Point"},"properties":{"osm_id":"277451570","tag":{"amenity":"recycling","recycling:clothes":"yes","recycling:glass_bottles":"yes","recycling:paper":"yes","recycling_type":"container"}},"type":"Feature"},
	{"geometry":{"coordinates":[9.969429,53.7466],"type":"Point"},"properties":{"osm_id":"280039217","tag":{"amenity":"recycling","recycling:glass_bottles":"yes","recycling:paper":"yes","recycling_type":"container"}},"type":"Feature"},
	{"geometry":{"coordinates":[9.980687,53.707648],"type":"Point"},"properties":{"osm_id":"317434373","tag":{"amenity":"recycling","recycling:clothes":"yes","recycling:glass_bottles":"yes","recycling:paper":"yes","recycling_type":"container"}},"type":"Feature"},
	{"geometry":{"coordinates":[9.991851,53.705359],"type":"Point"},"properties":{"osm_id":"317602369","tag":{"amenity":"recycling","recycling:clothes":"yes","recycling:paper":"yes","recycling_type":"container"}},"type":"Feature"},
	{"geometry":{"coordinates":[10.014165,53.72404],"type":"Point"},"properties":{"osm_id":"317787460","tag":{"amenity":"recycling","check_date":"2020-08-30","recycling:clothes":"yes","recycling:glass_bottles":"yes","recycling:paper":"yes","recycling:small_appliances":"yes","recycling:small_electrical_appliances":"yes","recycling_type":"container"}},"type":"Feature"},
	{"geometry":{"coordinates":[10.01134,53.748703],"type":"Point"},"properties":{"osm_id":"443651389","tag":{"amenity":"recycling","recycling:clothes":"yes","recycling:glass_bottles":"yes","recycling:paper":"no","recycling_type":"container"}},"type":"Feature"},
	{"geometry":{"coordinates":[10.004514,53.724783],"type":"Point"},"properties":{"osm_id":"732095397","tag":{"amenity":"recycling","recycling_type":"container"}},"type":"Feature"},
	{"geometry":{"coordinates":[9.938556,53.742498],"type":"Point"},"properties":{"osm_id":"957134505","tag":{"amenity":"recycling","recycling:clothes":"yes","recycling:glass_bottles":"yes","recycling:paper":"yes","recycling_type":"container"}},"type":"Feature"},
	{"geometry":{"coordinates":[10.018125,53.713411],"type":"Point"},"properties":{"osm_id":"1354677944","tag":{"amenity":"waste_basket","waste":"trash"}},"type":"Feature"},
	{"geometry":{"coordinates":[9.939355,53.717116],"type":"Point"},"properties":{"osm_id":"1570125390","tag":{"amenity":"recycling","recycling:cartons":"yes","recycling:glass":"yes","recycling:glass_bottles":"yes","recycling_type":"container"}},"type":"Feature"},
	{"geometry":{"coordinates":[9.937812,53.715718],"type":"Point"},"properties":{"osm_id":"1573040945","tag":{"amenity":"recycling","recycling:cardboard":"yes","recycling:cartons":"yes","recycling:glass":"yes","recycling_type":"container"}},"type":"Feature"},
	{"geometry":{"coordinates":[10.007037,53.703131],"type":"Point"},"properties":{"osm_id":"1618252374","tag":{"amenity":"recycling","recycling:clothes":"yes","recycling_type":"container"}},"type":"Feature"},
	{"geometry":{"coordinates":[9.98978,53.713707],"type":"Point"},"properties":{"osm_id":"1678891354","tag":{"amenity":"waste_basket"}},"type":"Feature"},
	{"geometry":{"coordinates":[9.989224,53.713906],"type":"Point"},"properties":{"osm_id":"1681579589","tag":{"amenity":"recycling","recycling:clothes":"yes","recycling:glass_bottles":"yes","recycling:paper":"yes","recycling_type":"container"}},"type":"Feature"},
	{"geometry":{"coordinates":[9.969304,53.710622],"type":"Point"},"properties":{"osm_id":"1728068662","tag":{"amenity":"waste_basket"}},"type":"Feature"},
	{"geometry":{"coordinates":[9.971708,53.715809],"type":"Point"},"properties":{"osm_id":"1743083264","tag":{"amenity":"waste_basket"}},"type":"Feature"},
	{"geometry":{"coordinates":[9.935434,53.731002],"type":"Point"},"properties":{"osm_id":"1851711787","tag":{"amenity":"waste_basket"}},"type":"Feature"},
	{"geometry":{"coordinates":[9.942519,53.734491],"type":"Point"},"properties":{"osm_id":"1851711793","tag":{"amenity":"waste_basket"}},"type":"Feature"},
	{"geometry":{"coordinates":[9.960362,53.722356],"type":"Point"},"properties":{"osm_id":"1857893162","tag":{"amenity":"waste_basket"}},"type":"Feature"},
	{"geometry":{"coordinates":[9.950167,53.725126],"type":"Point"},"properties":{"osm_id":"1857893171","tag":{"amenity":"waste_basket"}},"type":"Feature"},
	{"geometry":{"coordinates":[9.99709,53.734883],"type":"Point"},"properties":{"osm_id":"1870041843","tag":{"amenity":"recycling","recycling:clothes":"yes","recycling:glass_bottles":"yes","recycling:paper":"yes","recycling_type":"container"}},"type":"Feature"},
	{"geometry":{"coordinates":[9.942344,53.742761],"type":"Point"},"properties":{"osm_id":"2363326453","tag":{"amenity":"waste_basket"}},"type":"Feature"},
	{"geometry":{"coordinates":[9.953642,53.743855],"type":"Point"},"properties":{"osm_id":"2391502562","tag":{"amenity":"waste_basket"}},"type":"Feature"},
	{"geometry":{"coordinates":[9.970222,53.744807],"type":"Point"},"properties":{"osm_id":"2391502567","tag":{"amenity":"waste_basket"}},"type":"Feature"},
	{"geometry":{"coordinates":[9.996328,53.73367],"type":"Point"},"properties":{"osm_id":"3211647136","tag":{"amenity":"recycling","recycling:clothes":"yes","recycling_type":"container"}},"type":"Feature"},
	{"geometry":{"coordinates":[9.989317,53.735197],"type":"Point"},"properties":{"osm_id":"3442849529","tag":{"amenity":"waste_basket"}},"type":"Feature"},
	{"geometry":{"coordinates":[9.97983,53.702837],"type":"Point"},"properties":{"osm_id":"3482237541","tag":{"amenity":"recycling","recycling:glass_bottles":"yes","recycling_type":"container"}},"type":"Feature"},
	{"geometry":{"coordinates":[9.991407,53.697704],"type":"Point"},"properties":{"osm_id":"3641144037","tag":{"amenity":"waste_basket"}},"type":"Feature"},
	{"geometry":{"coordinates":[9.991856,53.698409],"type":"Point"},"properties":{"osm_id":"3641144039","tag":{"amenity":"waste_basket"}},"type":"Feature"},
	{"geometry":{"coordinates":[9.99306,53.702601],"type":"Point"},"properties":{"osm_id":"3641144044","tag":{"amenity":"waste_basket"}},"type":"Feature"},
	{"geometry":{"coordinates":[9.975672,53.709742],"type":"Point"},"properties":{"osm_id":"3641144046","tag":{"amenity":"waste_basket"}},"type":"Feature"},
	{"geometry":{"coordinates":[9.992475,53.710305],"type":"Point"},"properties":{"osm_id":"3641144049","tag":{"amenity":"waste_basket"}},"type":"Feature"},
	{"geometry":{"coordinates":[9.99231,53.713835],"type":"Point"},"properties":{"osm_id":"3869526476","tag":{"amenity":"waste_basket"}},"type":"Feature"},
	{"geometry":{"coordinates":[9.991877,53.716604],"type":"Point"},"properties":{"osm_id":"3869526492","tag":{"amenity":"waste_basket"}},"type":"Feature"},
	{"geometry":{"coordinates":[9.967154,53.724138],"type":"Point"},"properties":{"osm_id":"3914878476","tag":{"amenity":"waste_basket","operator":"Betriebsamt Stadt Norderstedt","phone":"+49-40-53595800","website":"https://www.norderstedt.de/abfall"}},"type":"Feature"},
	{"geometry":{"coordinates":[9.971974,53.72855],"type":"Point"},"properties":{"osm_id":"3914878486","tag":{"amenity":"waste_basket"}},"type":"Feature"},
	{"geometry":{"coordinates":[9.975419,53.729585],"type":"Point"},"properties":{"osm_id":"3914878508","tag":{"amenity":"waste_basket"}},"type":"Feature"},
	{"geometry":{"coordinates":[10.019467,53.717508],"type":"Point"},"properties":{"osm_id":"4072449506","tag":{"amenity":"waste_basket"}},"type":"Feature"},
	{"geometry":{"coordinates":[10.019195,53.715842],"type":"Point"},"properties":{"osm_id":"4072449509","tag":{"amenity":"waste_basket"}},"type":"Feature"},
	{"geometry":{"coordinates":[10.014365,53.714698],"type":"Point"},"properties":{"osm_id":"4072449510","tag":{"amenity":"waste_basket"}},"type":"Feature"},
	{"geometry":{"coordinates":[10.015214,53.71331],"type":"Point"},"properties":{"osm_id":"4072449511","tag":{"amenity":"waste_basket"}},"type":"Feature"},
	{"geometry":{"coordinates":[9.993584,53.729754],"type":"Point"},"properties":{"osm_id":"4770705948","tag":{"amenity":"recycling","check_date":"2020-08-30","recycling:clothes":"yes","recycling:glass_bottles":"yes","recycling:paper":"yes","recycling:small_appliances":"yes","recycling:small_electrical_appliances":"yes","recycling_type":"container"}},"type":"Feature"},
	{"geometry":{"coordinates":[9.993031,53.700301],"type":"Point"},"properties":{"osm_id":"5516953213","tag":{"amenity":"waste_basket"}},"type":"Feature"},
	{"geometry":{"coordinates":[9.992996,53.703654],"type":"Point"},"properties":{"osm_id":"5516953216","tag":{"amenity":"waste_basket"}},"type":"Feature"},
	{"geometry":{"coordinates":[9.992168,53.705232],"type":"Point"},"properties":{"osm_id":"6025236718","tag":{"amenity":"recycling","recycling:glass_bottles":"yes","recycling_type":"container"}},"type":"Feature"},
	{"geometry":{"coordinates":[9.962806,53.719591],"type":"Point"},"properties":{"osm_id":"6374280255","tag":{"amenity":"waste_basket","operator":"Betriebsamt Stadt Norderstedt","phone":"+49-40-53595800","website":"https://www.norderstedt.de/abfall"}},"type":"Feature"},
	{"geometry":{"coordinates":[9.965714,53.715445],"type":"Point"},"properties":{"osm_id":"6374331082","tag":{"amenity":"waste_basket","operator":"Betriebsamt Stadt Norderstedt","phone":"+49-40-53595800","website":"https://www.norderstedt.de/abfall"}},"type":"Feature"},
	{"geometry":{"coordinates":[9.971646,53.714403],"type":"Point"},"properties":{"osm_id":"6374343322","tag":{"amenity":"waste_basket","operator":"Betriebsamt Stadt Norderstedt","phone":"+49-40-53595800","website":"https://www.norderstedt.de/abfall"}},"type":"Feature"},
	{"geometry":{"coordinates":[9.992141,53.7068],"type":"Point"},"properties":{"osm_id":"6438997461","tag":{"amenity":"waste_basket","waste":"trash"}},"type":"Feature"},
	{"geometry":{"coordinates":[9.979127,53.725042],"type":"Point"},"properties":{"osm_id":"6441506236","tag":{"amenity":"waste_basket"}},"type":"Feature"},
	{"geometry":{"coordinates":[10.01599,53.71374],"type":"Point"},"properties":{"osm_id":"6441553153","tag":{"amenity":"waste_basket","check_date":"2019-05-01","waste":"trash"}},"type":"Feature"},
	{"geometry":{"coordinates":[9.936517,53.722093],"type":"Point"},"properties":{"osm_id":"6734651977","tag":{"amenity":"waste_basket"}},"type":"Feature"},
	{"geometry":{"coordinates":[9.992178,53.70571],"type":"Point"},"properties":{"osm_id":"6790049957","tag":{"amenity":"waste_basket"}},"type":"Feature"},
	{"geometry":{"coordinates":[9.990413,53.70721],"type":"Point"},"properties":{"osm_id":"6811520911","tag":{"amenity":"waste_basket"}},"type":"Feature"},
	{"geometry":{"coordinates":[10.014781,53.739657],"type":"Point"},"properties":{"osm_id":"6916775132","tag":{"amenity":"waste_basket"}},"type":"Feature"},
	{"geometry":{"coordinates":[10.015429,53.736674],"type":"Point"},"properties":{"osm_id":"6916775136","tag":{"amenity":"waste_basket"}},"type":"Feature"},
	{"geometry":{"coordinates":[10.016647,53.732262],"type":"Point"},"properties":{"osm_id":"6916775139","tag":{"amenity":"waste_basket"}},"type":"Feature"},
	{"geometry":{"coordinates":[9.958389,53.733737],"type":"Point"},"properties":{"osm_id":"6940144501","tag":{"amenity":"waste_basket"}},"type":"Feature"},
	{"geometry":{"coordinates":[9.959092,53.739908],"type":"Point"},"properties":{"osm_id":"6940144506","tag":{"amenity":"waste_basket"}},"type":"Feature"},
	{"geometry":{"coordinates":[9.973816,53.711106],"type":"Point"},"properties":{"osm_id":"6955555528","tag":{"amenity":"waste_basket"}},"type":"Feature"},
	{"geometry":{"coordinates":[10.01417,53.716066],"type":"Point"},"properties":{"osm_id":"6960618503","tag":{"amenity":"waste_basket"}},"type":"Feature"},
	{"geometry":{"coordinates":[10.014386,53.700047],"type":"Point"},"properties":{"osm_id":"7018771226","tag":{"amenity":"waste_basket"}},"type":"Feature"},
	{"geometry":{"coordinates":[9.973432,53.719865],"type":"Point"},"properties":{"osm_id":"7504044985","tag":{"amenity":"waste_basket"}},"type":"Feature"},
	{"geometry":{"coordinates":[10.019161,53.714956],"type":"Point"},"properties":{"osm_id":"7519125023","tag":{"amenity":"waste_basket"}},"type":"Feature"},
	{"geometry":{"coordinates":[10.00678,53.728027],"type":"Point"},"properties":{"osm_id":"7741671440","tag":{"amenity":"waste_basket"}},"type":"Feature"},
	{"geometry":{"coordinates":[10.006096,53.726808],"type":"Point"},"properties":{"osm_id":"7741671442","tag":{"amenity":"waste_basket"}},"type":"Feature"},
	{"geometry":{"coordinates":[10.007201,53.728604],"type":"Point"},"properties":{"osm_id":"7741671444","tag":{"amenity":"waste_basket"}},"type":"Feature"},
	{"geometry":{"coordinates":[9.972665,53.699185],"type":"Point"},"properties":{"osm_id":"7838073475","tag":{"amenity":"waste_basket"}},"type":"Feature"},
	{"geometry":{"coordinates":[9.996101,53.743118],"type":"Point"},"properties":{"osm_id":"7946044608","tag":{"amenity":"waste_basket"}},"type":"Feature"}
]
}
