{
"type": "FeatureCollection",
"features": [
	{"geometry":{"coordinates":[9.997595,53.674701],"type":"Point"},"properties":{"osm_id":"290982717","tag":{"amenity":"recycling","recycling:paper":"yes","recycling_type":"container"}},"type":"Feature"},
	{"geometry":{"coordinates":[9.997965,53.655045],"type":"Point"},"properties":{"osm_id":"291551261","tag":{"amenity":"recycling","recycling:glass_bottles":"yes","recycling:paper":"yes","recycling_type":"container"}},"type":"Feature"},
	{"geometry":{"coordinates":[9.999898,53.680447],"type":"Point"},"properties":{"osm_id":"292023050","tag":{"amenity":"recycling","recycling:clothes":"yes","recycling_type":"container"}},"type":"Feature"},
	{"geometry":{"coordinates":[9.990182,53.685666],"type":"Point"},"properties":{"osm_id":"361379728","tag":{"amenity":"recycling","operator":"Betriebsamt Norderstedt","recycling:clothes":"yes","recycling:glass_bottles":"yes","recycling:paper":"yes","recycling:shoes":"yes","recycling_type":"container"}},"type":"Feature"},
	{"geometry":{"coordinates":[9.988622,53.676027],"type":"Point"},"properties":{"osm_id":"369566895","tag":{"amenity":"recycling","recycling:glass_bottles":"yes","recycling:paper":"yes","recycling_type":"container"}},"type":"Feature"},
	{"geometry":{"coordinates":[10.000888,53.67714],"type":"Point"},"properties":{"osm_id":"412364060","tag":{"amenity":"recycling","recycling:glass_bottles":"yes","recycling:paper":"yes","recycling_type":"container"}},"type":"Feature"},
	{"geometry":{"coordinates":[10.013209,53.646602],"type":"Point"},"properties":{"osm_id":"490531851","tag":{"amenity":"recycling","recycling:glass_bottles":"yes","recycling:paper":"yes","recycling_type":"container"}},"type":"Feature"},
	{"geometry":{"coordinates":[9.995919,53.647976],"type":"Point"},"properties":{"osm_id":"538161004","tag":{"amenity":"recycling","recycling:glass_bottles":"yes","recycling:paper":"yes","recycling_type":"container"}},"type":"Feature"},
	{"geometry":{"coordinates":[10.017278,53.68415],"type":"Point"},"properties":{"osm_id":"1322603422","ref":"Segeberger Chaussee 108","tag":{"amenity":"recycling","recycling:clothes":"yes","recycling:glass_bottles":"yes","recycling:paper":"yes","recycling_type":"container"}},"type":"Feature"},
	{"geometry":{"coordinates":[9.996303,53.667217],"type":"Point"},"properties":{"osm_id":"1385103157","tag":{"amenity":"waste_basket"}},"type":"Feature"},
	{"geometry":{"coordinates":[10.01872,53.676277],"type":"Point"},"properties":{"osm_id":"1771454536","tag":{"amenity":"recycling","recycling_type":"container"}},"type":"Feature"},
	{"geometry":{"coordinates":[10.015099,53.659059],"type":"Point"},"properties":{"osm_id":"2046253745","tag":{"amenity":"recycling","recycling:paper":"yes","recycling_type":"container"}},"type":"Feature"},
	{"geometry":{"coordinates":[10.018649,53.674649],"type":"Point"},"properties":{"osm_id":"2166541332","tag":{"amenity":"waste_basket"}},"type":"Feature"},
	{"geometry":{"coordinates":[10.014964,53.653233],"type":"Point"},"properties":{"osm_id":"2400307855","tag":{"amenity":"recycling","recycling:clothes":"yes","recycling_type":"container"}},"type":"Feature"},
	{"geometry":{"coordinates":[10.011377,53.667312],"type":"Point"},"properties":{"osm_id":"2836753113","tag":{"amenity":"recycling","recycling:glass_bottles":"yes","recycling:paper":"yes","recycling_type":"container"}},"type":"Feature"},
	{"geometry":{"coordinates":[9.93964,53.668049],"type":"Point"},"properties":{"osm_id":"3001807127","tag":{"amenity":"waste_basket"}},"type":"Feature"},
	{"geometry":{"coordinates":[9.939981,53.668056],"type":"Point"},"properties":{"osm_id":"3001807129","tag":{"amenity":"waste_basket"}},"type":"Feature"},
	{"geometry":{"coordinates":[10.001662,53.651431],"type":"Point"},"properties":{"osm_id":"3213290154","tag":{"amenity":"recycling","check_date":"2020-02-15","operator":"Stadtreinigung Hamburg","recycling:clothes":"yes","recycling:glass_bottles":"yes","recycling:paper":"yes","recycling:small_appliances":"yes","recycling:small_electrical_appliances":"yes","recycling_type":"container"}},"type":"Feature"},
	{"geometry":{"coordinates":[10.016412,53.6611],"type":"Point"},"properties":{"osm_id":"3213290155","tag":{"amenity":"recycling","check_date":"2020-02-15","operator":"Stadtreinigung Hamburg","recycling:clothes":"yes","recycling:glass_bottles":"yes","recycling:paper":"yes","recycling:small_appliances":"yes","recycling:small_electrical_appliances":"yes","recycling_type":"container"}},"type":"Feature"},
	{"geometry":{"coordinates":[9.987082,53.671927],"type":"Point"},"properties":{"osm_id":"3402877591","tag":{"amenity":"recycling","recycling:clothes":"yes","recycling:glass_bottles":"yes","recycling_type":"container"}},"type":"Feature"},
	{"geometry":{"coordinates":[9.991678,53.673776],"type":"Point"},"properties":{"osm_id":"3402877793","tag":{"amenity":"recycling","recycling:glass_bottles":"yes","recycling_type":"container"}},"type":"Feature"},
	{"geometry":{"coordinates":[9.98582,53.687967],"type":"Point"},"properties":{"osm_id":"3482239428","tag":{"amenity":"recycling","check_date":"2020-01-25","operator":"Betriebsamt Norderstedt","recycling:clothes":"yes","recycling:glass_bottles":"yes","recycling:paper":"yes","recycling:shoes":"yes","recycling:small_appliances":"yes","recycling:small_electrical_appliances":"yes","recycling_type":"container"}},"type":"Feature"},
	{"geometry":{"coordinates":[9.985746,53.687488],"type":"Point"},"properties":{"osm_id":"3641144016","tag":{"amenity":"waste_basket"}},"type":"Feature"},
	{"geometry":{"coordinates":[9.98564,53.688957],"type":"Point"},"properties":{"osm_id":"3641144017","tag":{"amenity":"waste_basket"}},"type":"Feature"},
	{"geometry":{"coordinates":[9.985388,53.689875],"type":"Point"},"properties":{"osm_id":"3641144021","tag":{"amenity":"waste_basket"}},"type":"Feature"},
	{"geometry":{"coordinates":[9.985575,53.691168],"type":"Point"},"properties":{"osm_id":"3641144022","tag":{"amenity":"waste_basket"}},"type":"Feature"},
	{"geometry":{"coordinates":[9.986511,53.692864],"type":"Point"},"properties":{"osm_id":"3641144024","tag":{"amenity":"waste_basket"}},"type":"Feature"},
	{"geometry":{"coordinates":[9.968534,53.693287],"type":"Point"},"properties":{"osm_id":"3641144027","tag":{"amenity":"waste_basket"}},"type":"Feature"},
	{"geometry":{"coordinates":[9.988022,53.694359],"type":"Point"},"properties":{"osm_id":"3641144028","tag":{"amenity":"waste_basket"}},"type":"Feature"},
	{"geometry":{"coordinates":[9.989595,53.695996],"type":"Point"},"properties":{"osm_id":"3641144031","tag":{"amenity":"waste_basket"}},"type":"Feature"},
	{"geometry":{"coordinates":[9.989664,53.696474],"type":"Point"},"properties":{"osm_id":"3641144034","tag":{"amenity":"waste_basket"}},"type":"Feature"},
	{"geometry":{"coordinates":[9.990455,53.696584],"type":"Point"},"properties":{"osm_id":"3641144035","tag":{"amenity":"waste_basket"}},"type":"Feature"},
	{"geometry":{"coordinates":[9.998032,53.685448],"type":"Point"},"properties":{"osm_id":"3647255654","tag":{"amenity":"recycling","recycling:clothes":"yes","recycling:glass_bottles":"yes","recycling:paper":"yes","recycling_type":"container"}},"type":"Feature"},
	{"geometry":{"coordinates":[9.990921,53.686462],"type":"Point"},"properties":{"osm_id":"3647255658","tag":{"amenity":"waste_basket"}},"type":"Feature"},
	{"geometry":{"coordinates":[9.99332,53.686545],"type":"Point"},"properties":{"osm_id":"3647255662","tag":{"amenity":"waste_basket"}},"type":"Feature"},
	{"geometry":{"coordinates":[9.993977,53.686548],"type":"Point"},"properties":{"osm_id":"3647255663","tag":{"amenity":"waste_basket"}},"type":"Feature"},
	{"geometry":{"coordinates":[9.996997,53.688606],"type":"Point"},"properties":{"osm_id":"3647255665","tag":{"amenity":"waste_basket"}},"type":"Feature"},
	{"geometry":{"coordinates":[9.999523,53.681093],"type":"Point"},"properties":{"osm_id":"3942090538","tag":{"amenity":"waste_basket"}},"type":"Feature"},
	{"geometry":{"coordinates":[9.999441,53.681287],"type":"Point"},"properties":{"osm_id":"3942090543","tag":{"amenity":"waste_basket"}},"type":"Feature"},
	{"geometry":{"coordinates":[9.999569,53.681529],"type":"Point"},"properties":{"osm_id":"3942110724","tag":{"amenity":"waste_basket"}},"type":"Feature"},
	{"geometry":{"coordinates":[9.999612,53.681714],"type":"Point"},"properties":{"osm_id":"3942110736","tag":{"amenity":"waste_basket"}},"type":"Feature"},
	{"geometry":{"coordinates":[9.939667,53.671435],"type":"Point"},"properties":{"osm_id":"3974325240","tag":{"amenity":"waste_basket"}},"type":"Feature"},
	{"geometry":{"coordinates":[9.987917,53.682131],"type":"Point"},"properties":{"osm_id":"4021365905","tag":{"amenity":"waste_disposal"}},"type":"Feature"},
	{"geometry":{"coordinates":[10.017491,53.660804],"type":"Point"},"properties":{"osm_id":"4159619499","tag":{"amenity":"waste_basket","level":"1"}},"type":"Feature"},
	{"geometry":{"coordinates":[10.017474,53.660751],"type":"Point"},"properties":{"osm_id":"4159619501","tag":{"amenity":"waste_basket","level":"1"}},"type":"Feature"},
	{"geometry":{"coordinates":[9.989095,53.688508],"type":"Point"},"properties":{"osm_id":"4453228186","tag":{"amenity":"waste_basket"}},"type":"Feature"},
	{"geometry":{"coordinates":[9.98879,53.687568],"type":"Point"},"properties":{"osm_id":"4453230044","tag":{"amenity":"waste_basket"}},"type":"Feature"},
	{"geometry":{"coordinates":[9.988575,53.68701],"type":"Point"},"properties":{"osm_id":"4453235358","tag":{"amenity":"waste_basket"}},"type":"Feature"},
	{"geometry":{"coordinates":[9.988787,53.685474],"type":"Point"},"properties":{"osm_id":"4453239643","tag":{"amenity":"waste_basket"}},"type":"Feature"},
	{"geometry":{"coordinates":[9.988185,53.684793],"type":"Point"},"properties":{"osm_id":"4453248205","tag":{"amenity":"waste_basket"}},"type":"Feature"},
	{"geometry":{"coordinates":[9.988008,53.684552],"type":"Point"},"properties":{"osm_id":"4453248207","tag":{"amenity":"waste_basket"}},"type":"Feature"},
	{"geometry":{"coordinates":[9.987849,53.68417],"type":"Point"},"properties":{"osm_id":"4453250668","tag":{"amenity":"waste_basket"}},"type":"Feature"},
	{"geometry":{"coordinates":[9.987901,53.683417],"type":"Point"},"properties":{"osm_id":"4453251232","tag":{"amenity":"waste_basket"}},"type":"Feature"},
	{"geometry":{"coordinates":[9.988206,53.683148],"type":"Point"},"properties":{"osm_id":"4453254004","tag":{"amenity":"waste_basket"}},"type":"Feature"},
	{"geometry":{"coordinates":[9.989169,53.681958],"type":"Point"},"properties":{"osm_id":"4453259688","tag":{"amenity":"waste_basket"}},"type":"Feature"},
	{"geometry":{"coordinates":[9.986913,53.686052],"type":"Point"},"properties":{"osm_id":"4453295837","tag":{"amenity":"waste_basket"}},"type":"Feature"},
	{"geometry":{"coordinates":[9.986944,53.686154],"type":"Point"},"properties":{"osm_id":"4453295839","tag":{"amenity":"waste_basket"}},"type":"Feature"},
	{"geometry":{"coordinates":[9.979336,53.676637],"type":"Point"},"properties":{"osm_id":"4584407654","tag":{"amenity":"recycling","recycling:glass_bottles":"yes","recycling_type":"container"}},"type":"Feature"},
	{"geometry":{"coordinates":[9.975605,53.67796],"type":"Point"},"properties":{"osm_id":"4584407655","tag":{"amenity":"recycling","recycling:clothes":"yes","recycling:glass_bottles":"yes","recycling:paper":"yes","recycling_type":"container"}},"type":"Feature"},
	{"geometry":{"coordinates":[9.972057,53.660908],"type":"Point"},"properties":{"osm_id":"4723044774","tag":{"amenity":"waste_basket"}},"type":"Feature"},
	{"geometry":{"coordinates":[9.970671,53.660654],"type":"Point"},"properties":{"osm_id":"4723044775","tag":{"amenity":"waste_basket"}},"type":"Feature"},
	{"geometry":{"coordinates":[9.96968,53.668692],"type":"Point"},"properties":{"osm_id":"5509572158","tag":{"amenity":"waste_basket"}},"type":"Feature"},
	{"geometry":{"coordinates":[9.988286,53.685621],"type":"Point"},"properties":{"osm_id":"5517087513","tag":{"amenity":"waste_basket"}},"type":"Feature"},
	{"geometry":{"coordinates":[9.985741,53.687325],"type":"Point"},"properties":{"osm_id":"5517087520","tag":{"amenity":"waste_basket"}},"type":"Feature"},
	{"geometry":{"coordinates":[10.007634,53.651692],"type":"Point"},"properties":{"osm_id":"5942919686","tag":{"amenity":"waste_basket"}},"type":"Feature"},
	{"geometry":{"coordinates":[10.006898,53.652074],"type":"Point"},"properties":{"osm_id":"5942920926","tag":{"amenity":"waste_basket"}},"type":"Feature"},
	{"geometry":{"coordinates":[10.004092,53.649516],"type":"Point"},"properties":{"osm_id":"5948658753","tag":{"amenity":"waste_basket"}},"type":"Feature"},
	{"geometry":{"coordinates":[10.0162,53.649649],"type":"Point"},"properties":{"osm_id":"5969078011","tag":{"amenity":"waste_basket"}},"type":"Feature"},
	{"geometry":{"coordinates":[10.016932,53.649662],"type":"Point"},"properties":{"osm_id":"5969078012","tag":{"amenity":"waste_basket"}},"type":"Feature"},
	{"geometry":{"coordinates":[10.012713,53.64663],"type":"Point"},"properties":{"osm_id":"5969181052","tag":{"amenity":"waste_basket"}},"type":"Feature"},
	{"geometry":{"coordinates":[9.987622,53.681437],"type":"Point"},"properties":{"osm_id":"6162026520","tag":{"amenity":"waste_basket"}},"type":"Feature"},
	{"geometry":{"coordinates":[10.016758,53.649728],"type":"Point"},"properties":{"osm_id":"6397144193","tag":{"amenity":"waste_basket"}},"type":"Feature"},
	{"geometry":{"coordinates":[9.997523,53.675912],"type":"Point"},"properties":{"osm_id":"6414511664","tag":{"amenity":"waste_basket"}},"type":"Feature"},
	{"geometry":{"coordinates":[10.011819,53.685759],"type":"Point"},"properties":{"osm_id":"6589959668","tag":{"amenity":"waste_basket"}},"type":"Feature"},
	{"geometry":{"coordinates":[10.016172,53.686716],"type":"Point"},"properties":{"osm_id":"6589959680","tag":{"amenity":"waste_basket"}},"type":"Feature"},
	{"geometry":{"coordinates":[10.014831,53.686478],"type":"Point"},"properties":{"osm_id":"6590022288","tag":{"amenity":"waste_basket"}},"type":"Feature"},
	{"geometry":{"coordinates":[10.012591,53.649943],"type":"Point"},"properties":{"osm_id":"7084165663","tag":{"amenity":"waste_basket","colour":"black","material":"metal"}},"type":"Feature"},
	{"geometry":{"coordinates":[10.012776,53.649946],"type":"Point"},"properties":{"osm_id":"7084165666","tag":{"amenity":"waste_basket","colour":"black","material":"metal"}},"type":"Feature"},
	{"geometry":{"coordinates":[10.008681,53.668179],"type":"Point"},"properties":{"osm_id":"7089154579","tag":{"amenity":"waste_basket"}},"type":"Feature"},
	{"geometry":{"coordinates":[10.009095,53.668426],"type":"Point"},"properties":{"osm_id":"7089154581","tag":{"amenity":"waste_basket"}},"type":"Feature"},
	{"geometry":{"coordinates":[10.010265,53.669352],"type":"Point"},"properties":{"osm_id":"7089174585","tag":{"amenity":"waste_basket"}},"type":"Feature"},
	{"geometry":{"coordinates":[10.007591,53.668738],"type":"Point"},"properties":{"osm_id":"7089174588","tag":{"amenity":"waste_basket"}},"type":"Feature"},
	{"geometry":{"coordinates":[10.007989,53.669023],"type":"Point"},"properties":{"osm_id":"7089174590","tag":{"amenity":"waste_basket"}},"type":"Feature"},
	{"geometry":{"coordinates":[10.005081,53.669138],"type":"Point"},"properties":{"osm_id":"7089174591","tag":{"amenity":"waste_basket"}},"type":"Feature"},
	{"geometry":{"coordinates":[10.002188,53.66888],"type":"Point"},"properties":{"osm_id":"7089274875","tag":{"amenity":"waste_basket"}},"type":"Feature"},
	{"geometry":{"coordinates":[10.002518,53.668018],"type":"Point"},"properties":{"osm_id":"7089274877","tag":{"amenity":"waste_basket"}},"type":"Feature"},
	{"geometry":{"coordinates":[10.001242,53.668629],"type":"Point"},"properties":{"osm_id":"7089274880","tag":{"amenity":"waste_basket"}},"type":"Feature"},
	{"geometry":{"coordinates":[10.003896,53.669121],"type":"Point"},"properties":{"osm_id":"7089277637","tag":{"amenity":"waste_basket"}},"type":"Feature"},
	{"geometry":{"coordinates":[10.003383,53.668838],"type":"Point"},"properties":{"osm_id":"7089277639","tag":{"amenity":"waste_basket"}},"type":"Feature"},
	{"geometry":{"coordinates":[9.999143,53.669214],"type":"Point"},"properties":{"osm_id":"7089313111","tag":{"amenity":"waste_basket"}},"type":"Feature"},
	{"geometry":{"coordinates":[9.999123,53.66977],"type":"Point"},"properties":{"osm_id":"7089314581","tag":{"amenity":"waste_basket"}},"type":"Feature"},
	{"geometry":{"coordinates":[9.999839,53.672252],"type":"Point"},"properties":{"osm_id":"7089460862","tag":{"amenity":"waste_basket"}},"type":"Feature"},
	{"geometry":{"coordinates":[9.999811,53.672125],"type":"Point"},"properties":{"osm_id":"7089460865","tag":{"amenity":"waste_basket"}},"type":"Feature"},
	{"geometry":{"coordinates":[9.999679,53.67224],"type":"Point"},"properties":{"osm_id":"7089460867","tag":{"amenity":"waste_basket"}},"type":"Feature"},
	{"geometry":{"coordinates":[10.000934,53.672121],"type":"Point"},"properties":{"osm_id":"7089572788","tag":{"amenity":"waste_basket"}},"type":"Feature"},
	{"geometry":{"coordinates":[10.006058,53.672315],"type":"Point"},"properties":{"osm_id":"7089604762","tag":{"amenity":"waste_basket"}},"type":"Feature"},
	{"geometry":{"coordinates":[10.006287,53.672321],"type":"Point"},"properties":{"osm_id":"7089604764","tag":{"amenity":"waste_basket"}},"type":"Feature"},
	{"geometry":{"coordinates":[10.00554,53.672463],"type":"Point"},"properties":{"osm_id":"7089604766","tag":{"amenity":"waste_basket"}},"type":"Feature"},
	{"geometry":{"coordinates":[10.00539,53.672206],"type":"Point"},"properties":{"osm_id":"7089604767","tag":{"amenity":"waste_basket"}},"type":"Feature"},
	{"geometry":{"coordinates":[10.003096,53.671546],"type":"Point"},"properties":{"osm_id":"7089632971","tag":{"amenity":"waste_basket"}},"type":"Feature"},
	{"geometry":{"coordinates":[10.002771,53.670526],"type":"Point"},"properties":{"osm_id":"7089632973","tag":{"amenity":"waste_basket"}},"type":"Feature"},
	{"geometry":{"coordinates":[10.00262,53.669542],"type":"Point"},"properties":{"osm_id":"7089660620","tag":{"amenity":"waste_basket"}},"type":"Feature"},
	{"geometry":{"coordinates":[10.017291,53.661044],"type":"Point"},"properties":{"osm_id":"7094038176","tag":{"amenity":"waste_basket"}},"type":"Feature"},
	{"geometry":{"coordinates":[9.98508,53.684425],"type":"Point"},"properties":{"osm_id":"7250319241","tag":{"amenity":"waste_basket","covered":"yes"}},"type":"Feature"},
	{"geometry":{"coordinates":[9.985093,53.684324],"type":"Point"},"properties":{"osm_id":"7250319243","tag":{"amenity":"waste_basket","covered":"yes"}},"type":"Feature"},
	{"geometry":{"coordinates":[9.996533,53.659328],"type":"Point"},"properties":{"osm_id":"7906566062","tag":{"amenity":"recycling","recycling:glass_bottles":"yes","recycling:paper":"yes","recycling_type":"container"}},"type":"Feature"}
]
}
