{
"type": "FeatureCollection",
"features": [
	{"geometry":{"coordinates":[9.971192,53.460223],"type":"Point"},"properties":{"osm_id":"31255112","tag":{"amenity":"recycling","recycling:glass_bottles":"yes","recycling:paper":"yes","recycling_type":"container"}},"type":"Feature"},
	{"geometry":{"coordinates":[9.955959,53.459174],"type":"Point"},"properties":{"osm_id":"255122688","tag":{"amenity":"recycling","check_date":"2020-02-02","recycling:clothes":"yes","recycling:glass_bottles":"yes","recycling:paper":"yes","recycling:small_appliances":"yes","recycling:small_electrical_appliances":"yes","recycling_type":"container"}},"type":"Feature"},
	{"geometry":{"coordinates":[9.936895,53.449884],"type":"Point"},"properties":{"osm_id":"276830641","tag":{"amenity":"recycling","opening_hours":"24/7","opening_hours:covid19":"24/7","operator":"Stadtreinigung Hamburg","recycling:glass_bottles":"yes","recycling:paper":"yes","recycling_type":"container"}},"type":"Feature"},
	{"geometry":{"coordinates":[9.945928,53.447964],"type":"Point"},"properties":{"osm_id":"276830740","tag":{"amenity":"recycling","recycling:glass_bottles":"yes","recycling:paper":"yes","recycling:plastic":"yes","recycling_type":"container"}},"type":"Feature"},
	{"geometry":{"coordinates":[9.955907,53.443362],"type":"Point"},"properties":{"osm_id":"303997478","tag":{"amenity":"recycling","check_date":"2020-02-02","operator":"Stadtreinigung Hamburg","recycling:clothes":"yes","recycling:glass_bottles":"yes","recycling:paper":"yes","recycling:small_appliances":"yes","recycling:small_electrical_appliances":"yes","recycling_type":"container"}},"type":"Feature"},
	{"geometry":{"coordinates":[10.010584,53.462915],"type":"Point"},"properties":{"osm_id":"305529400","tag":{"amenity":"recycling","recycling:glass_bottles":"yes","recycling:paper":"yes","recycling_type":"container"}},"type":"Feature"},
	{"geometry":{"coordinates":[9.969964,53.456333],"type":"Point"},"properties":{"osm_id":"308905086","tag":{"amenity":"recycling","recycling:glass_bottles":"yes","recycling:paper":"yes","recycling_type":"container"}},"type":"Feature"},
	{"geometry":{"coordinates":[9.989823,53.439508],"type":"Point"},"properties":{"osm_id":"323157061","tag":{"amenity":"recycling","check_date":"2020-02-02","operator":"Stadtreinigung Hamburg","recycling:clothes":"yes","recycling:glass_bottles":"yes","recycling:paper":"yes","recycling:small_appliances":"yes","recycling:small_electrical_appliances":"yes","recycling_type":"container"}},"type":"Feature"},
	{"geometry":{"coordinates":[9.986555,53.445157],"type":"Point"},"properties":{"osm_id":"323159882","tag":{"amenity":"recycling","recycling:paper":"yes","recycling_type":"container"}},"type":"Feature"},
	{"geometry":{"coordinates":[9.999763,53.444056],"type":"Point"},"properties":{"osm_id":"323159892","tag":{"amenity":"recycling","recycling:clothes":"no","recycling:glass_bottles":"yes","recycling:paper":"yes","recycling_type":"container"}},"type":"Feature"},
	{"geometry":{"coordinates":[9.992216,53.440568],"type":"Point"},"properties":{"osm_id":"323159898","tag":{"amenity":"recycling","recycling:clothes":"yes","recycling:glass_bottles":"yes","recycling:paper":"yes","recycling_type":"container"}},"type":"Feature"},
	{"geometry":{"coordinates":[9.963136,53.469249],"type":"Point"},"properties":{"osm_id":"370010068","tag":{"amenity":"recycling","operator":"Stadtreiniung Hamburg","recycling:glass_bottles":"yes","recycling:paper":"yes","recycling_type":"container"}},"type":"Feature"},
	{"geometry":{"coordinates":[9.979648,53.461927],"type":"Point"},"properties":{"osm_id":"393842954","tag":{"amenity":"recycling","recycling:glass_bottles":"yes","recycling:paper":"yes","recycling_type":"container"}},"type":"Feature"},
	{"geometry":{"coordinates":[9.938156,53.442994],"type":"Point"},"properties":{"osm_id":"537254388","tag":{"amenity":"recycling","recycling:glass_bottles":"yes","recycling:paper":"yes","recycling_type":"container"}},"type":"Feature"},
	{"geometry":{"coordinates":[9.943902,53.448132],"type":"Point"},"properties":{"osm_id":"537960822","tag":{"amenity":"recycling","operator":"Stadtreinigung Hamburg","recycling:glass_bottles":"yes","recycling_type":"container"}},"type":"Feature"},
	{"geometry":{"coordinates":[10.010914,53.483399],"type":"Point"},"properties":{"osm_id":"647786427","tag":{"amenity":"recycling","recycling:glass_bottles":"yes","recycling:paper":"yes","recycling_type":"container"}},"type":"Feature"},
	{"geometry":{"coordinates":[9.959919,53.440006],"type":"Point"},"properties":{"osm_id":"848284700","tag":{"amenity":"recycling","recycling:clothes":"yes","recycling:glass_bottles":"yes","recycling:paper":"yes","recycling_type":"container"}},"type":"Feature"},
	{"geometry":{"coordinates":[9.957026,53.454447],"type":"Point"},"properties":{"osm_id":"1002581945","tag":{"amenity":"recycling","check_date:recycling":"2020-09-19","recycling:glass_bottles":"yes","recycling:paper":"yes","recycling_type":"container"}},"type":"Feature"},
	{"geometry":{"coordinates":[9.94974,53.454811],"type":"Point"},"properties":{"osm_id":"1002596029","tag":{"amenity":"recycling","recycling:glass_bottles":"yes","recycling:paper":"yes","recycling_type":"container"}},"type":"Feature"},
	{"geometry":{"coordinates":[10.018711,53.479326],"type":"Point"},"properties":{"osm_id":"1307554045","tag":{"amenity":"recycling","recycling:glass_bottles":"yes","recycling:paper":"yes","recycling_type":"container"}},"type":"Feature"},
	{"geometry":{"coordinates":[9.967463,53.465802],"type":"Point"},"properties":{"osm_id":"1656097066","tag":{"amenity":"recycling","check_date":"2020-02-02","operator":"Stadtreinigung Hamburg","recycling:clothes":"yes","recycling:glass_bottles":"yes","recycling:paper":"yes","recycling:shoes":"yes","recycling:small_appliances":"yes","recycling:small_electrical_appliances":"yes","recycling_type":"container"}},"type":"Feature"},
	{"geometry":{"coordinates":[9.959215,53.46492],"type":"Point"},"properties":{"osm_id":"1656097081","tag":{"amenity":"recycling","opening_hours":"Mo-Fr 07:00-19:00; PH closed","operator":"Stadtreinigung Hamburg","recycling:cardboard":"yes","recycling:glass_bottles":"yes","recycling:paper":"yes","recycling_type":"container"}},"type":"Feature"},
	{"geometry":{"coordinates":[9.979803,53.453325],"type":"Point"},"properties":{"osm_id":"1657562159","tag":{"amenity":"recycling","check_date":"2020-02-02","operator":"Stadtreinigung Hamburg","recycling:clothes":"yes","recycling:glass_bottles":"yes","recycling:paper":"yes","recycling:small_appliances":"yes","recycling:small_electrical_appliances":"yes","recycling_type":"container"}},"type":"Feature"},
	{"geometry":{"coordinates":[9.971807,53.451993],"type":"Point"},"properties":{"osm_id":"1802783484","tag":{"amenity":"recycling","recycling:paper":"yes","recycling_type":"container"}},"type":"Feature"},
	{"geometry":{"coordinates":[9.972301,53.451705],"type":"Point"},"properties":{"osm_id":"1802783485","tag":{"amenity":"recycling","recycling:glass_bottles":"yes","recycling:paper":"yes","recycling_type":"container"}},"type":"Feature"},
	{"geometry":{"coordinates":[9.984298,53.466303],"type":"Point"},"properties":{"osm_id":"2001289219","tag":{"amenity":"recycling","recycling:glass_bottles":"yes","recycling:paper":"yes","recycling_type":"container"}},"type":"Feature"},
	{"geometry":{"coordinates":[9.990307,53.487807],"type":"Point"},"properties":{"osm_id":"2351612750","tag":{"amenity":"recycling","recycling:paper":"yes","recycling_type":"container"}},"type":"Feature"},
	{"geometry":{"coordinates":[9.990274,53.487926],"type":"Point"},"properties":{"osm_id":"2351612753","tag":{"amenity":"recycling","recycling:glass_bottles":"yes","recycling_type":"container"}},"type":"Feature"},
	{"geometry":{"coordinates":[10.013681,53.485532],"type":"Point"},"properties":{"osm_id":"2411686416","tag":{"amenity":"recycling","recycling:paper":"yes","recycling_type":"container"}},"type":"Feature"},
	{"geometry":{"coordinates":[9.989693,53.437045],"type":"Point"},"properties":{"osm_id":"2560587698","tag":{"amenity":"recycling","recycling:clothes":"yes","recycling:glass_bottles":"yes","recycling:paper":"yes","recycling_type":"container"}},"type":"Feature"},
	{"geometry":{"coordinates":[9.959943,53.440621],"type":"Point"},"properties":{"osm_id":"2614091340","tag":{"amenity":"recycling","recycling:clothes":"yes","recycling_type":"container"}},"type":"Feature"},
	{"geometry":{"coordinates":[10.003635,53.441666],"type":"Point"},"properties":{"osm_id":"2747523178","tag":{"amenity":"recycling","recycling:cans":"no","recycling:glass_bottles":"yes","recycling:paper":"yes","recycling_type":"container"}},"type":"Feature"},
	{"geometry":{"coordinates":[9.983581,53.454464],"type":"Point"},"properties":{"osm_id":"2758631801","tag":{"amenity":"waste_basket"}},"type":"Feature"},
	{"geometry":{"coordinates":[9.942884,53.45812],"type":"Point"},"properties":{"osm_id":"2952095937","tag":{"amenity":"recycling","operator":"Stadtreinigung Hamburg","recycling:glass_bottles":"yes","recycling:paper":"yes","recycling_type":"container"}},"type":"Feature"},
	{"geometry":{"coordinates":[9.955398,53.450139],"type":"Point"},"properties":{"osm_id":"3211658069","tag":{"amenity":"recycling","check_date":"2020-02-02","recycling:clothes":"yes","recycling:glass_bottles":"yes","recycling:paper":"yes","recycling:small_appliances":"yes","recycling:small_electrical_appliances":"yes","recycling_type":"container"}},"type":"Feature"},
	{"geometry":{"coordinates":[10.015771,53.4849],"type":"Point"},"properties":{"osm_id":"3365827054","tag":{"amenity":"recycling","recycling:glass_bottles":"yes","recycling:paper":"yes","recycling_type":"container"}},"type":"Feature"},
	{"geometry":{"coordinates":[9.977328,53.456233],"type":"Point"},"properties":{"osm_id":"3561092841","tag":{"amenity":"recycling","recycling:glass_bottles":"yes","recycling_type":"container"}},"type":"Feature"},
	{"geometry":{"coordinates":[9.932295,53.471787],"type":"Point"},"properties":{"osm_id":"3561092858","tag":{"amenity":"recycling","recycling:glass_bottles":"yes","recycling:paper":"yes","recycling_type":"container"}},"type":"Feature"},
	{"geometry":{"coordinates":[9.969029,53.442651],"type":"Point"},"properties":{"osm_id":"3567220231","tag":{"amenity":"recycling","recycling:glass_bottles":"yes","recycling:paper":"yes","recycling_type":"container"}},"type":"Feature"},
	{"geometry":{"coordinates":[10.017614,53.48538],"type":"Point"},"properties":{"osm_id":"4031015366","tag":{"amenity":"recycling","recycling:paper":"yes","recycling_type":"container"}},"type":"Feature"},
	{"geometry":{"coordinates":[9.941506,53.455418],"type":"Point"},"properties":{"osm_id":"4147838511","tag":{"amenity":"recycling","recycling:glass_bottles":"yes","recycling:paper":"yes","recycling_type":"container"}},"type":"Feature"},
	{"geometry":{"coordinates":[9.998471,53.45657],"type":"Point"},"properties":{"osm_id":"4381283083","tag":{"amenity":"recycling","recycling:glass_bottles":"yes","recycling:paper":"yes","recycling_type":"container"}},"type":"Feature"},
	{"geometry":{"coordinates":[10.00173,53.449765],"type":"Point"},"properties":{"barrier":"gate","osm_id":"5733829988"},"type":"Feature"},
	{"geometry":{"coordinates":[10.005442,53.452819],"type":"Point"},"properties":{"barrier":"gate","osm_id":"5733829989"},"type":"Feature"},
	{"geometry":{"coordinates":[10.000111,53.46021],"type":"Point"},"properties":{"barrier":"gate","osm_id":"5747011747"},"type":"Feature"},
	{"geometry":{"coordinates":[10.000491,53.460125],"type":"Point"},"properties":{"barrier":"gate","osm_id":"5747011794"},"type":"Feature"},
	{"geometry":{"coordinates":[9.937591,53.465888],"type":"Point"},"properties":{"osm_id":"5757183621","tag":{"amenity":"waste_basket"}},"type":"Feature"},
	{"geometry":{"coordinates":[9.957235,53.464324],"type":"Point"},"properties":{"osm_id":"6125528595","tag":{"amenity":"recycling","opening_hours":"24/7","operator":"Malteser Hilfsdienst e.V.","recycling:clothes":"yes","recycling:shoes":"yes","recycling_type":"container","wheelchair":"limited"}},"type":"Feature"},
	{"geometry":{"coordinates":[9.95604,53.464023],"type":"Point"},"properties":{"osm_id":"6279368751","tag":{"amenity":"waste_basket","waste":"trash"}},"type":"Feature"},
	{"geometry":{"coordinates":[9.962922,53.46527],"type":"Point"},"properties":{"osm_id":"6279368753","tag":{"amenity":"waste_basket","waste":"trash"}},"type":"Feature"},
	{"geometry":{"coordinates":[9.962554,53.465159],"type":"Point"},"properties":{"osm_id":"6279368761","tag":{"amenity":"waste_basket","waste":"trash"}},"type":"Feature"},
	{"geometry":{"coordinates":[9.968538,53.45689],"type":"Point"},"properties":{"osm_id":"6333803990","tag":{"amenity":"waste_basket","waste":"trash"}},"type":"Feature"},
	{"geometry":{"coordinates":[9.983939,53.452834],"type":"Point"},"properties":{"osm_id":"6461327865","tag":{"amenity":"waste_basket","waste":"trash"}},"type":"Feature"},
	{"geometry":{"coordinates":[9.967863,53.454891],"type":"Point"},"properties":{"osm_id":"6490585586","tag":{"amenity":"waste_basket"}},"type":"Feature"},
	{"geometry":{"coordinates":[9.969035,53.455344],"type":"Point"},"properties":{"osm_id":"6490585685","tag":{"amenity":"waste_basket"}},"type":"Feature"},
	{"geometry":{"coordinates":[9.967261,53.454478],"type":"Point"},"properties":{"osm_id":"6490585686","tag":{"amenity":"waste_basket"}},"type":"Feature"},
	{"geometry":{"coordinates":[9.963222,53.453656],"type":"Point"},"properties":{"osm_id":"6490586186","tag":{"amenity":"waste_basket"}},"type":"Feature"},
	{"geometry":{"coordinates":[9.963181,53.45328],"type":"Point"},"properties":{"osm_id":"6490586187","tag":{"amenity":"waste_basket"}},"type":"Feature"},
	{"geometry":{"coordinates":[9.961327,53.451876],"type":"Point"},"properties":{"osm_id":"6490700985","tag":{"amenity":"waste_basket"}},"type":"Feature"},
	{"geometry":{"coordinates":[9.97456,53.456324],"type":"Point"},"properties":{"osm_id":"6503559885","tag":{"amenity":"waste_basket"}},"type":"Feature"},
	{"geometry":{"coordinates":[9.975528,53.456485],"type":"Point"},"properties":{"osm_id":"6503560285","tag":{"amenity":"waste_basket"}},"type":"Feature"},
	{"geometry":{"coordinates":[9.974603,53.455856],"type":"Point"},"properties":{"osm_id":"6503560287","tag":{"amenity":"waste_basket"}},"type":"Feature"},
	{"geometry":{"coordinates":[9.972001,53.46041],"type":"Point"},"properties":{"osm_id":"6542222449","tag":{"amenity":"recycling","opening_hours":"24/7","recycling:clothes":"yes","recycling:shoes":"yes","recycling_type":"container","wheelchair":"no"}},"type":"Feature"},
	{"geometry":{"coordinates":[9.97556,53.448845],"type":"Point"},"properties":{"osm_id":"6549692439","tag":{"amenity":"waste_basket"}},"type":"Feature"},
	{"geometry":{"coordinates":[9.974537,53.449409],"type":"Point"},"properties":{"osm_id":"6549692458","tag":{"amenity":"waste_basket"}},"type":"Feature"},
	{"geometry":{"coordinates":[9.9737,53.450143],"type":"Point"},"properties":{"osm_id":"6549692472","tag":{"amenity":"waste_basket"}},"type":"Feature"},
	{"geometry":{"coordinates":[9.973969,53.449087],"type":"Point"},"properties":{"osm_id":"6549692476","tag":{"amenity":"waste_basket"}},"type":"Feature"},
	{"geometry":{"coordinates":[9.97534,53.448666],"type":"Point"},"properties":{"osm_id":"6549695286","tag":{"amenity":"waste_basket"}},"type":"Feature"},
	{"geometry":{"coordinates":[9.966132,53.462429],"type":"Point"},"properties":{"osm_id":"6570672435","tag":{"amenity":"recycling","opening_hours":"24/7","operator":"SAGA","recycling:clothes":"yes","recycling:shoes":"yes","recycling_type":"container"}},"type":"Feature"},
	{"geometry":{"coordinates":[9.960582,53.458173],"type":"Point"},"properties":{"osm_id":"6573306093","tag":{"amenity":"recycling","opening_hours":"24/7","operator":"Deutsche Entwicklungshilfe f\u00c3\u00bcr soziales Wohnungs- und Siedlungswesen e.V.","recycling:clothes":"yes","recycling:shoes":"yes","recycling_type":"container"}},"type":"Feature"},
	{"geometry":{"coordinates":[9.966957,53.457349],"type":"Point"},"properties":{"osm_id":"6573306162","tag":{"amenity":"recycling","opening_hours":"24/7","operator":"ZAZ - Zero Textilrecycling","recycling:clothes":"yes","recycling:shoes":"yes","recycling_type":"container","wheelchair":"no"}},"type":"Feature"},
	{"geometry":{"coordinates":[9.961193,53.45906],"type":"Point"},"properties":{"osm_id":"6631139342","tag":{"amenity":"waste_basket","material":"steel"}},"type":"Feature"},
	{"geometry":{"coordinates":[9.961123,53.458919],"type":"Point"},"properties":{"osm_id":"6631139343","tag":{"amenity":"waste_basket","material":"steel"}},"type":"Feature"},
	{"geometry":{"coordinates":[9.967792,53.468249],"type":"Point"},"properties":{"osm_id":"6651740362","tag":{"amenity":"recycling","opening_hours":"24/7","operator":"Falke Recycling","recycling:clothes":"yes","recycling:shoes":"yes","recycling_type":"container","wheelchair":"no"}},"type":"Feature"},
	{"geometry":{"coordinates":[9.95786,53.464645],"type":"Point"},"properties":{"osm_id":"6679947949","tag":{"amenity":"recycling","opening_hours":"24/7","operator":"Malteser Hilfsdienst e.V.","recycling:clothes":"yes","recycling:shoes":"yes","recycling_type":"container"}},"type":"Feature"},
	{"geometry":{"coordinates":[9.953218,53.469179],"type":"Point"},"properties":{"osm_id":"6680661251","tag":{"amenity":"recycling","opening_hours":"24/7","recycling:clothes":"yes","recycling:shoes":"yes","recycling_type":"container","wheelchair":"no"}},"type":"Feature"},
	{"geometry":{"coordinates":[9.954613,53.466271],"type":"Point"},"properties":{"osm_id":"6684844987","tag":{"amenity":"recycling","opening_hours":"24/7","operator":"DRK Landesverband Hamburg e.V.","recycling:clothes":"yes","recycling:shoes":"yes","recycling_type":"container","wheelchair":"no"}},"type":"Feature"},
	{"geometry":{"coordinates":[9.951878,53.470431],"type":"Point"},"properties":{"osm_id":"6685247189","tag":{"amenity":"recycling","opening_hours":"24/7","recycling:clothes":"yes","recycling:shoes":"yes","recycling_type":"container"}},"type":"Feature"},
	{"geometry":{"coordinates":[9.947079,53.470709],"type":"Point"},"properties":{"osm_id":"6793520809","tag":{"amenity":"recycling","recycling:clothes":"yes","recycling:shoes":"yes","recycling_type":"container","wheelchair":"no"}},"type":"Feature"},
	{"geometry":{"coordinates":[9.953824,53.470697],"type":"Point"},"properties":{"osm_id":"6793520834","tag":{"amenity":"recycling","opening_hours":"07:00-19:00","recycling:clothes":"yes","recycling:shoes":"yes","recycling_type":"container","wheelchair":"no"}},"type":"Feature"},
	{"geometry":{"coordinates":[9.958656,53.470274],"type":"Point"},"properties":{"osm_id":"6793520872","ref":"515","tag":{"amenity":"recycling","operator":"Falke Recycling","recycling:clothes":"yes","recycling:shoes":"yes","recycling_type":"container","wheelchair":"no"}},"type":"Feature"},
	{"geometry":{"coordinates":[9.990529,53.456149],"type":"Point"},"properties":{"osm_id":"7291338577","tag":{"amenity":"waste_basket"}},"type":"Feature"},
	{"geometry":{"coordinates":[9.933117,53.471018],"type":"Point"},"properties":{"osm_id":"7332940941","tag":{"amenity":"recycling","colour":"green","recycling:clothes":"yes","recycling:shoes":"yes","recycling_type":"container","wheelchair":"no"}},"type":"Feature"},
	{"geometry":{"coordinates":[9.938668,53.467961],"type":"Point"},"properties":{"osm_id":"7332946200","tag":{"amenity":"waste_basket","colour":"red","waste":"trash"}},"type":"Feature"},
	{"geometry":{"coordinates":[9.944878,53.466305],"type":"Point"},"properties":{"osm_id":"7332946260","tag":{"amenity":"waste_basket","colour":"red","waste":"trash"}},"type":"Feature"},
	{"geometry":{"coordinates":[9.943557,53.461364],"type":"Point"},"properties":{"osm_id":"7338565035","tag":{"amenity":"recycling","count":"2","operator":"Volz GmbH","recycling:clothes":"yes","recycling:shoes":"yes","recycling_type":"container","wheelchair":"no"}},"type":"Feature"},
	{"geometry":{"coordinates":[9.960438,53.461898],"type":"Point"},"properties":{"osm_id":"7366785181","tag":{"amenity":"waste_basket"}},"type":"Feature"},
	{"geometry":{"coordinates":[9.943672,53.460612],"type":"Point"},"properties":{"osm_id":"7366933588","tag":{"amenity":"recycling","recycling:clothes":"yes","recycling:shoes":"yes","recycling_type":"container","wheelchair":"no"}},"type":"Feature"},
	{"geometry":{"coordinates":[9.944198,53.459621],"type":"Point"},"properties":{"osm_id":"7366933595","tag":{"amenity":"waste_basket","colour":"red"}},"type":"Feature"},
	{"geometry":{"coordinates":[9.945182,53.456656],"type":"Point"},"properties":{"osm_id":"7366933623","tag":{"amenity":"waste_basket","colour":"red"}},"type":"Feature"},
	{"geometry":{"coordinates":[9.934719,53.454708],"type":"Point"},"properties":{"osm_id":"7369227472","tag":{"amenity":"waste_basket","colour":"red"}},"type":"Feature"},
	{"geometry":{"coordinates":[9.935475,53.454907],"type":"Point"},"properties":{"osm_id":"7369227475","tag":{"amenity":"recycling","recycling:clothes":"yes","recycling:shoes":"yes","recycling_type":"container","wheelchair":"no"}},"type":"Feature"},
	{"geometry":{"coordinates":[9.961598,53.463743],"type":"Point"},"properties":{"osm_id":"7617828195","tag":{"amenity":"waste_basket"}},"type":"Feature"},
	{"geometry":{"coordinates":[9.991473,53.456674],"type":"Point"},"properties":{"osm_id":"7620589897","tag":{"amenity":"waste_basket"}},"type":"Feature"},
	{"geometry":{"coordinates":[9.979617,53.464202],"type":"Point"},"properties":{"osm_id":"7623197796","tag":{"amenity":"recycling","recycling:clothes":"yes","recycling:shoes":"yes","recycling_type":"container","wheelchair":"no"}},"type":"Feature"},
	{"geometry":{"coordinates":[9.973203,53.452681],"type":"Point"},"properties":{"osm_id":"7627132717","tag":{"amenity":"recycling","recycling:clothes":"yes","recycling:shoes":"yes","recycling_type":"container","wheelchair":"no"}},"type":"Feature"},
	{"geometry":{"coordinates":[9.967211,53.455914],"type":"Point"},"properties":{"osm_id":"7640022896","tag":{"amenity":"waste_basket","material":"steel","waste":"trash;mixed"}},"type":"Feature"},
	{"geometry":{"coordinates":[10.004029,53.475493],"type":"Point"},"properties":{"osm_id":"7728094720","tag":{"amenity":"waste_basket","waste":"trash"}},"type":"Feature"},
	{"geometry":{"coordinates":[9.953453,53.455719],"type":"Point"},"properties":{"osm_id":"7731911769","tag":{"amenity":"recycling","operator":"SAGA","recycling:clothes":"yes","recycling:shoes":"yes","recycling_type":"container"}},"type":"Feature"},
	{"geometry":{"coordinates":[9.941383,53.452176],"type":"Point"},"properties":{"osm_id":"7733306545","tag":{"amenity":"recycling","opening_hours":"24/7","operator":"ZAZ - Zero Textilrecycling","recycling:clothes":"yes","recycling:shoes":"yes","recycling_type":"container","wheelchair":"no"}},"type":"Feature"},
	{"geometry":{"coordinates":[9.988221,53.439091],"type":"Point"},"properties":{"osm_id":"7791895591","tag":{"amenity":"recycling","recycling:clothes":"yes","recycling_type":"container"}},"type":"Feature"},
	{"geometry":{"coordinates":[9.960873,53.460871],"type":"Point"},"properties":{"osm_id":"7820609619","tag":{"amenity":"waste_basket","colour":"red","material":"steel","waste":"trash"}},"type":"Feature"},
	{"geometry":{"coordinates":[9.960533,53.460613],"type":"Point"},"properties":{"osm_id":"7820609627","tag":{"amenity":"waste_basket","colour":"red","material":"steel","waste":"trash"}},"type":"Feature"},
	{"geometry":{"coordinates":[9.960059,53.460454],"type":"Point"},"properties":{"osm_id":"7820609628","tag":{"amenity":"waste_basket","colour":"red","material":"steel","waste":"trash"}},"type":"Feature"},
	{"geometry":{"coordinates":[9.959622,53.460283],"type":"Point"},"properties":{"osm_id":"7820609629","tag":{"amenity":"waste_basket","colour":"red","material":"steel","waste":"trash"}},"type":"Feature"},
	{"geometry":{"coordinates":[9.959159,53.460043],"type":"Point"},"properties":{"osm_id":"7820609630","tag":{"amenity":"waste_basket","colour":"red","material":"steel","waste":"trash"}},"type":"Feature"},
	{"geometry":{"coordinates":[9.96115,53.458231],"type":"Point"},"properties":{"osm_id":"7829639373","tag":{"amenity":"waste_basket","material":"steel","waste":"trash"}},"type":"Feature"},
	{"geometry":{"coordinates":[9.961306,53.458266],"type":"Point"},"properties":{"osm_id":"7829639374","tag":{"amenity":"waste_basket","material":"steel","waste":"trash"}},"type":"Feature"},
	{"geometry":{"coordinates":[9.976926,53.462985],"type":"Point"},"properties":{"osm_id":"7840435310","tag":{"amenity":"waste_basket","waste":"trash"}},"type":"Feature"},
	{"geometry":{"coordinates":[9.97311,53.46365],"type":"Point"},"properties":{"osm_id":"7840435323","tag":{"amenity":"waste_basket","waste":"trash"}},"type":"Feature"},
	{"geometry":{"coordinates":[9.979163,53.462029],"type":"Point"},"properties":{"osm_id":"7900069181","tag":{"amenity":"waste_basket","colour":"red","waste":"trash"}},"type":"Feature"},
	{"geometry":{"coordinates":[9.973766,53.451023],"type":"Point"},"properties":{"osm_id":"7929083018","tag":{"amenity":"waste_basket"}},"type":"Feature"}
]
}
