{
"type": "FeatureCollection",
"features": [
	{"geometry":{"coordinates":[9.945406,53.379111],"type":"Point"},"properties":{"osm_id":"1100582697","tag":{"amenity":"recycling","description":"Abgabe von Gr\u00c3\u00bcnabf\u00c3\u00a4lle","recycling:green_waste":"yes","recycling:wood":"yes"}},"type":"Feature"},
	{"geometry":{"coordinates":[9.998857,53.36041],"type":"Point"},"properties":{"osm_id":"1212201574","tag":{"amenity":"waste_basket"}},"type":"Feature"},
	{"geometry":{"coordinates":[10.005426,53.359045],"type":"Point"},"properties":{"osm_id":"1212201648","tag":{"amenity":"waste_basket"}},"type":"Feature"},
	{"geometry":{"coordinates":[9.980201,53.334981],"type":"Point"},"properties":{"osm_id":"2364508165","tag":{"amenity":"recycling","recycling:clothes":"yes","recycling:glass_bottles":"yes","recycling_type":"container"}},"type":"Feature"},
	{"geometry":{"coordinates":[9.982278,53.364676],"type":"Point"},"properties":{"osm_id":"2451012191","tag":{"amenity":"recycling","check_date":"2017-05-07","recycling:glass_bottles":"yes","recycling_type":"container"}},"type":"Feature"},
	{"geometry":{"coordinates":[9.971356,53.373087],"type":"Point"},"properties":{"osm_id":"2451868327","tag":{"amenity":"recycling","check_date":"2018-06-03","recycling:glass_bottles":"yes","recycling_type":"container"}},"type":"Feature"},
	{"geometry":{"coordinates":[9.974951,53.339589],"type":"Point"},"properties":{"osm_id":"3219563942","tag":{"amenity":"recycling","recycling:clothes":"yes","recycling:glass_bottles":"yes","recycling_type":"container"}},"type":"Feature"},
	{"geometry":{"coordinates":[9.992803,53.3716],"type":"Point"},"properties":{"osm_id":"3225233044","tag":{"amenity":"recycling","recycling:glass_bottles":"yes","recycling_type":"container"}},"type":"Feature"},
	{"geometry":{"coordinates":[10.015574,53.375642],"type":"Point"},"properties":{"osm_id":"3467669493","tag":{"amenity":"waste_basket"}},"type":"Feature"},
	{"geometry":{"coordinates":[9.9523,53.38223],"type":"Point"},"properties":{"name":"Otto D\u00c3\u00b6rner","osm_id":"4907651924","tag":{"amenity":"recycling","phone":"+49 4105 61060"}},"type":"Feature"},
	{"geometry":{"coordinates":[9.986164,53.347333],"type":"Point"},"properties":{"osm_id":"5693938448","tag":{"amenity":"recycling","recycling:glass_bottles":"yes","recycling_type":"container"}},"type":"Feature"},
	{"geometry":{"coordinates":[9.968732,53.34119],"type":"Point"},"properties":{"osm_id":"6170693140","tag":{"amenity":"waste_basket"}},"type":"Feature"},
	{"geometry":{"coordinates":[9.967207,53.341176],"type":"Point"},"properties":{"osm_id":"6170693145","tag":{"amenity":"waste_basket"}},"type":"Feature"},
	{"geometry":{"coordinates":[9.968303,53.34128],"type":"Point"},"properties":{"osm_id":"6170693150","tag":{"amenity":"waste_basket"}},"type":"Feature"},
	{"geometry":{"coordinates":[9.969591,53.341287],"type":"Point"},"properties":{"osm_id":"6171373240","tag":{"amenity":"waste_basket"}},"type":"Feature"}
]
}
