{
"type": "FeatureCollection",
"features": [
	{"geometry":{"coordinates":[10.0033,51.704805],"type":"Point"},"properties":{"osm_id":"1478301867","tag":{"amenity":"waste_basket"}},"type":"Feature"},
	{"geometry":{"coordinates":[9.984539,51.690317],"type":"Point"},"properties":{"osm_id":"1495234707","tag":{"amenity":"recycling","recycling:clothes":"yes","recycling_type":"container"}},"type":"Feature"},
	{"geometry":{"coordinates":[9.992219,51.705759],"type":"Point"},"properties":{"osm_id":"1495234963","tag":{"amenity":"recycling","recycling:clothes":"yes","recycling_type":"container"}},"type":"Feature"},
	{"geometry":{"coordinates":[9.991576,51.693694],"type":"Point"},"properties":{"name":"Kreisabfallwirtschaft","osm_id":"3513605867","tag":{"addr:city":"Northeim","addr:housenumber":"22","addr:postcode":"37154","addr:street":"Matthias-Gr\u00c3\u00bcnewald-Stra\u00c3\u009fe","amenity":"recycling","operator":"Landkreis Northeim","recycling_type":"centre"}},"type":"Feature"},
	{"geometry":{"coordinates":[9.996632,51.705105],"type":"Point"},"properties":{"osm_id":"6914113838","tag":{"amenity":"waste_basket","survey:date":"2019-10-23"}},"type":"Feature"},
	{"geometry":{"coordinates":[9.999452,51.705323],"type":"Point"},"properties":{"osm_id":"6914113842","tag":{"amenity":"waste_basket","survey:date":"2019-10-23"}},"type":"Feature"},
	{"geometry":{"coordinates":[9.994665,51.705184],"type":"Point"},"properties":{"osm_id":"6914113866","tag":{"amenity":"waste_basket","survey:date":"2019-10-23"}},"type":"Feature"},
	{"geometry":{"coordinates":[10.001601,51.705753],"type":"Point"},"properties":{"osm_id":"6917958367","tag":{"amenity":"waste_basket","survey:date":"2019-10-23"}},"type":"Feature"},
	{"geometry":{"coordinates":[10.001537,51.705803],"type":"Point"},"properties":{"osm_id":"6917958370","tag":{"amenity":"waste_basket","survey:date":"2019-10-23"}},"type":"Feature"},
	{"geometry":{"coordinates":[10.001071,51.705728],"type":"Point"},"properties":{"osm_id":"6917958375","tag":{"amenity":"waste_basket","survey:date":"2019-10-23"}},"type":"Feature"},
	{"geometry":{"coordinates":[10.000756,51.705663],"type":"Point"},"properties":{"osm_id":"6917958376","tag":{"amenity":"waste_basket","survey:date":"2019-10-23"}},"type":"Feature"},
	{"geometry":{"coordinates":[9.995116,51.70999],"type":"Point"},"properties":{"osm_id":"6918887725","tag":{"amenity":"recycling","operator":"DGW Textil","recycling:clothes":"yes","recycling:shoes":"yes","recycling_type":"container","survey:date":"2019-10-23"}},"type":"Feature"},
	{"geometry":{"coordinates":[9.987197,51.703823],"type":"Point"},"properties":{"osm_id":"7108303492","tag":{"amenity":"waste_basket","operator":"DB Station&Service AG"}},"type":"Feature"},
	{"geometry":{"coordinates":[9.987457,51.703875],"type":"Point"},"properties":{"osm_id":"7108303493","tag":{"amenity":"waste_basket","operator":"DB Station&Service AG"}},"type":"Feature"},
	{"geometry":{"coordinates":[9.958005,51.72325],"type":"Point"},"properties":{"osm_id":"7830054711","tag":{"amenity":"waste_basket"}},"type":"Feature"}
]
}
