{
"type": "FeatureCollection",
"features": [
	{"geometry":{"coordinates":[9.932367,51.566185],"type":"Point"},"properties":{"osm_id":"310608760","ref":"Am Weendespring (Freibad Weende)","tag":{"amenity":"recycling","opening_hours":"Mo-Sa 07:00-13:00,15:00-19:00; PH off","operator":"GEB","recycling:clothes":"yes","recycling:glass_bottles":"yes","recycling:paper":"no","recycling:shoes":"yes","recycling_type":"container","survey:date":"2015-04-06"}},"type":"Feature"},
	{"geometry":{"coordinates":[9.934024,51.566955],"type":"Point"},"properties":{"osm_id":"310608795","ref":"Ernst-Fahlbusch-Stra\u00c3\u009fe","tag":{"amenity":"recycling","opening_hours":"Mo-Sa 07:00-13:00,15:00-19:00; PH off","operator":"GEB","recycling:clothes":"yes","recycling:glass_bottles":"yes","recycling:paper":"no","recycling:shoes":"yes","recycling_type":"container"}},"type":"Feature"},
	{"geometry":{"coordinates":[9.934017,51.575319],"type":"Point"},"properties":{"osm_id":"310608824","ref":"Heinrich-Albert-Zachari\u00c3\u00a4-Bogen","tag":{"amenity":"recycling","opening_hours":"Mo-Sa 07:00-19:00; PH off","operator":"GEB","recycling:clothes":"yes","recycling:glass_bottles":"yes","recycling:paper":"no","recycling:shoes":"yes","recycling_type":"container","survey:date":"2019-01-14"}},"type":"Feature"},
	{"geometry":{"coordinates":[9.933381,51.569174],"type":"Point"},"properties":{"osm_id":"310608846","ref":"James-Franck-Ring","tag":{"amenity":"recycling","opening_hours":"Mo-Sa 07:00-13:00,15:00-19:00; PH off","operator":"GEB","recycling:clothes":"no","recycling:glass_bottles":"yes","recycling:paper":"no","recycling_type":"container","survey:date":"2016-02-13"}},"type":"Feature"},
	{"geometry":{"coordinates":[9.936252,51.572245],"type":"Point"},"properties":{"osm_id":"310608850","ref":"Ludwig-Prandtl-Stra\u00c3\u009fe","tag":{"amenity":"recycling","opening_hours":"Mo-Sa 07:00-13:00,15:00-19:00; PH off","operator":"GEB","recycling:batteries":"no","recycling:books":"no","recycling:cans":"no","recycling:cardboard":"no","recycling:cartons":"no","recycling:clothes":"yes","recycling:glass_bottles":"yes","recycling:green_waste":"no","recycling:magazines":"no","recycling:newspaper":"no","recycling:paper":"no","recycling:paper_packaging":"no","recycling:plastic":"no","recycling:plastic_bottles":"no","recycling:plastic_packaging":"no","recycling:shoes":"yes","recycling:waste":"no","recycling:wood":"no","recycling_type":"container","survey:date":"2014-10-26"}},"type":"Feature"},
	{"geometry":{"coordinates":[9.938189,51.564833],"type":"Point"},"properties":{"osm_id":"310608893","ref":"Otto-Lauffer-Stra\u00c3\u009fe","tag":{"amenity":"recycling","operator":"GEB","recycling:clothes":"yes","recycling:glass_bottles":"yes","recycling:paper":"no","recycling:shoes":"yes","recycling_type":"container","survey:date":"2016-01-18"}},"type":"Feature"},
	{"geometry":{"coordinates":[9.94469,51.563974],"type":"Point"},"properties":{"osm_id":"310608897","ref":"Stumpfe Eiche, Nord","tag":{"amenity":"recycling","opening_hours":"Mo-Sa 07:00-13:00,15:00-19:00; PH off","operator":"GEB","recycling:clothes":"yes","recycling:glass_bottles":"yes","recycling:paper":"no","recycling:shoes":"yes","recycling_type":"container","survey:date":"2015-02-05"}},"type":"Feature"},
	{"geometry":{"coordinates":[9.982539,51.565352],"type":"Point"},"properties":{"osm_id":"310609082","ref":"Senderstra\u00c3\u009fe","tag":{"amenity":"recycling","operator":"GEB","recycling:clothes":"yes","recycling:glass":"no","recycling:glass_bottles":"yes","recycling:paper":"no","recycling:shoes":"yes","recycling_type":"container","survey:date":"2019-10-06"}},"type":"Feature"},
	{"geometry":{"coordinates":[9.934792,51.572042],"type":"Point"},"properties":{"osm_id":"360764329","tag":{"amenity":"waste_basket","survey:date":"2014-02-09"}},"type":"Feature"},
	{"geometry":{"coordinates":[9.957694,51.59359],"type":"Point"},"properties":{"osm_id":"1452413316","ref":"240;266;282","tag":{"amenity":"recycling","operator":"Fehr","recycling:glass":"no","recycling:glass_bottles":"yes","recycling_type":"container","survey:date":"2019-10-25"}},"type":"Feature"},
	{"geometry":{"coordinates":[9.937952,51.571562],"type":"Point"},"properties":{"osm_id":"2516519730","tag":{"amenity":"waste_basket","survey:date":"2014-02-09"}},"type":"Feature"},
	{"geometry":{"coordinates":[9.938216,51.571753],"type":"Point"},"properties":{"osm_id":"2516519750","tag":{"amenity":"waste_basket","survey:date":"2014-02-09"}},"type":"Feature"},
	{"geometry":{"coordinates":[9.944706,51.564777],"type":"Point"},"properties":{"osm_id":"2625177280","tag":{"amenity":"waste_basket","survey:date":"2014-10-26"}},"type":"Feature"},
	{"geometry":{"coordinates":[9.936742,51.568655],"type":"Point"},"properties":{"osm_id":"2663528584","tag":{"amenity":"waste_basket","survey:date":"2014-02-09"}},"type":"Feature"},
	{"geometry":{"coordinates":[9.936224,51.568752],"type":"Point"},"properties":{"osm_id":"2663528604","tag":{"amenity":"waste_basket","survey:date":"2014-02-09"}},"type":"Feature"},
	{"geometry":{"coordinates":[9.935894,51.569017],"type":"Point"},"properties":{"osm_id":"2663528618","tag":{"amenity":"waste_basket","survey:date":"2014-02-09"}},"type":"Feature"},
	{"geometry":{"coordinates":[9.93517,51.569402],"type":"Point"},"properties":{"osm_id":"2663561808","tag":{"amenity":"waste_basket","survey:date":"2014-02-09"}},"type":"Feature"},
	{"geometry":{"coordinates":[9.933862,51.570391],"type":"Point"},"properties":{"osm_id":"2663561811","tag":{"amenity":"waste_basket","survey:date":"2014-02-09"}},"type":"Feature"},
	{"geometry":{"coordinates":[9.933735,51.571049],"type":"Point"},"properties":{"osm_id":"2663561820","tag":{"amenity":"waste_basket","survey:date":"2014-02-09"}},"type":"Feature"},
	{"geometry":{"coordinates":[9.934664,51.572489],"type":"Point"},"properties":{"osm_id":"2663561862","tag":{"amenity":"waste_basket","survey:date":"2014-02-09"}},"type":"Feature"},
	{"geometry":{"coordinates":[9.93611,51.572515],"type":"Point"},"properties":{"osm_id":"2663561864","tag":{"amenity":"waste_basket","survey:date":"2014-02-09"}},"type":"Feature"},
	{"geometry":{"coordinates":[9.934997,51.573541],"type":"Point"},"properties":{"osm_id":"2663561871","tag":{"amenity":"waste_basket","survey:date":"2014-02-09"}},"type":"Feature"},
	{"geometry":{"coordinates":[9.934548,51.575625],"type":"Point"},"properties":{"osm_id":"2663704109","tag":{"amenity":"waste_basket","survey:date":"2015-02-05"}},"type":"Feature"},
	{"geometry":{"coordinates":[9.933982,51.575696],"type":"Point"},"properties":{"osm_id":"2663704112","tag":{"amenity":"waste_basket","survey:date":"2014-02-09"}},"type":"Feature"},
	{"geometry":{"coordinates":[9.931659,51.565051],"type":"Point"},"properties":{"osm_id":"2664192964","tag":{"amenity":"waste_basket","survey:date":"2019-12-30"}},"type":"Feature"},
	{"geometry":{"coordinates":[9.934096,51.56633],"type":"Point"},"properties":{"osm_id":"2664192982","tag":{"amenity":"waste_basket","survey:date":"2015-12-17"}},"type":"Feature"},
	{"geometry":{"coordinates":[9.934213,51.566576],"type":"Point"},"properties":{"osm_id":"2664192992","tag":{"amenity":"waste_basket","survey:date":"2015-02-05"}},"type":"Feature"},
	{"geometry":{"coordinates":[9.933854,51.568903],"type":"Point"},"properties":{"osm_id":"2664193029","tag":{"amenity":"waste_basket","survey:date":"2015-12-17"}},"type":"Feature"},
	{"geometry":{"coordinates":[9.93403,51.5689],"type":"Point"},"properties":{"osm_id":"2664193033","tag":{"amenity":"waste_basket","survey:date":"2015-02-05"}},"type":"Feature"},
	{"geometry":{"coordinates":[9.936022,51.569353],"type":"Point"},"properties":{"osm_id":"2664193040","tag":{"amenity":"waste_basket","survey:date":"2014-02-09"}},"type":"Feature"},
	{"geometry":{"coordinates":[9.936325,51.569766],"type":"Point"},"properties":{"osm_id":"2664193055","tag":{"amenity":"waste_basket","survey:date":"2014-02-09"}},"type":"Feature"},
	{"geometry":{"coordinates":[9.937659,51.570965],"type":"Point"},"properties":{"osm_id":"2664193079","tag":{"amenity":"waste_basket","survey:date":"2015-02-05"}},"type":"Feature"},
	{"geometry":{"coordinates":[9.937967,51.57149],"type":"Point"},"properties":{"osm_id":"2664193113","ref":"Max-Born-Ring","tag":{"amenity":"recycling","opening_hours":"Mo-Sa 07:00-13:00,15:00-19:00; PH off","operator":"GEB","recycling:batteries":"no","recycling:books":"no","recycling:cans":"no","recycling:cardboard":"no","recycling:cartons":"no","recycling:clothes":"yes","recycling:glass_bottles":"yes","recycling:green_waste":"no","recycling:magazines":"no","recycling:newspaper":"no","recycling:paper":"no","recycling:paper_packaging":"no","recycling:plastic":"no","recycling:plastic_bottles":"no","recycling:plastic_packaging":"no","recycling:shoes":"yes","recycling:waste":"no","recycling:wood":"no","recycling_type":"container","survey:date":"2015-02-05"}},"type":"Feature"},
	{"geometry":{"coordinates":[9.937919,51.573649],"type":"Point"},"properties":{"osm_id":"2664193155","tag":{"amenity":"waste_basket","survey:date":"2015-02-05"}},"type":"Feature"},
	{"geometry":{"coordinates":[9.937131,51.573902],"type":"Point"},"properties":{"osm_id":"2664193158","tag":{"amenity":"waste_basket","survey:date":"2015-02-05"}},"type":"Feature"},
	{"geometry":{"coordinates":[9.935212,51.574062],"type":"Point"},"properties":{"osm_id":"2664193164","tag":{"amenity":"waste_basket","survey:date":"2015-02-05"}},"type":"Feature"},
	{"geometry":{"coordinates":[9.93441,51.564281],"type":"Point"},"properties":{"osm_id":"2667222874","tag":{"amenity":"waste_basket","survey:date":"2014-02-11"}},"type":"Feature"},
	{"geometry":{"coordinates":[9.933078,51.566108],"type":"Point"},"properties":{"osm_id":"2667222877","tag":{"amenity":"waste_basket","survey:date":"2014-02-11"}},"type":"Feature"},
	{"geometry":{"coordinates":[9.933773,51.569337],"type":"Point"},"properties":{"osm_id":"2667222879","tag":{"amenity":"waste_basket","survey:date":"2014-02-11"}},"type":"Feature"},
	{"geometry":{"coordinates":[9.933256,51.569407],"type":"Point"},"properties":{"osm_id":"2667222882","tag":{"amenity":"waste_basket","survey:date":"2014-02-11"}},"type":"Feature"},
	{"geometry":{"coordinates":[9.932553,51.568483],"type":"Point"},"properties":{"osm_id":"2667839349","tag":{"amenity":"waste_basket","survey:date":"2014-02-11"}},"type":"Feature"},
	{"geometry":{"coordinates":[9.933824,51.568512],"type":"Point"},"properties":{"osm_id":"2667839350","tag":{"amenity":"waste_basket","survey:date":"2014-02-11"}},"type":"Feature"},
	{"geometry":{"coordinates":[9.940439,51.57591],"type":"Point"},"properties":{"osm_id":"2669308206","tag":{"amenity":"waste_basket","material":"metal","survey:date":"2020-07-21"}},"type":"Feature"},
	{"geometry":{"coordinates":[9.940283,51.573766],"type":"Point"},"properties":{"osm_id":"2675549672","tag":{"amenity":"waste_basket","survey:date":"2014-02-16"}},"type":"Feature"},
	{"geometry":{"coordinates":[9.932393,51.572542],"type":"Point"},"properties":{"osm_id":"2675639284","tag":{"amenity":"waste_basket","survey:date":"2014-02-16"}},"type":"Feature"},
	{"geometry":{"coordinates":[9.931851,51.572795],"type":"Point"},"properties":{"osm_id":"2675639293","tag":{"amenity":"waste_basket","survey:date":"2014-02-16"}},"type":"Feature"},
	{"geometry":{"coordinates":[9.931733,51.572919],"type":"Point"},"properties":{"osm_id":"2675639304","tag":{"amenity":"waste_basket","survey:date":"2014-02-16"}},"type":"Feature"},
	{"geometry":{"coordinates":[9.937711,51.566635],"type":"Point"},"properties":{"osm_id":"2680913730","tag":{"amenity":"waste_basket","survey:date":"2014-02-19"}},"type":"Feature"},
	{"geometry":{"coordinates":[9.938277,51.566666],"type":"Point"},"properties":{"osm_id":"2680913732","tag":{"amenity":"waste_basket","survey:date":"2014-02-19"}},"type":"Feature"},
	{"geometry":{"coordinates":[9.939816,51.566941],"type":"Point"},"properties":{"osm_id":"2686982686","tag":{"amenity":"waste_basket","survey:date":"2014-02-23"}},"type":"Feature"},
	{"geometry":{"coordinates":[9.936313,51.571524],"type":"Point"},"properties":{"osm_id":"2686982764","tag":{"amenity":"waste_basket","survey:date":"2014-02-23"}},"type":"Feature"},
	{"geometry":{"coordinates":[9.937449,51.571641],"type":"Point"},"properties":{"osm_id":"2686982775","tag":{"amenity":"waste_basket","survey:date":"2014-02-23"}},"type":"Feature"},
	{"geometry":{"coordinates":[9.934047,51.574978],"type":"Point"},"properties":{"osm_id":"3148259716","tag":{"amenity":"waste_basket","survey:date":"2014-10-24"}},"type":"Feature"},
	{"geometry":{"coordinates":[9.949011,51.567114],"type":"Point"},"properties":{"osm_id":"3151516613","tag":{"amenity":"waste_basket","survey:date":"2014-10-26"}},"type":"Feature"},
	{"geometry":{"coordinates":[9.946111,51.570155],"type":"Point"},"properties":{"osm_id":"3151608968","tag":{"amenity":"waste_basket","survey:date":"2014-10-26"}},"type":"Feature"},
	{"geometry":{"coordinates":[9.946276,51.571005],"type":"Point"},"properties":{"osm_id":"3151609031","tag":{"amenity":"waste_basket","survey:date":"2014-10-26"}},"type":"Feature"},
	{"geometry":{"coordinates":[9.946359,51.571435],"type":"Point"},"properties":{"osm_id":"3151609039","tag":{"amenity":"waste_basket","survey:date":"2014-10-26"}},"type":"Feature"},
	{"geometry":{"coordinates":[9.946625,51.572608],"type":"Point"},"properties":{"osm_id":"3151609051","tag":{"amenity":"waste_basket","survey:date":"2014-10-26"}},"type":"Feature"},
	{"geometry":{"coordinates":[9.935072,51.569629],"type":"Point"},"properties":{"osm_id":"3156259796","tag":{"amenity":"waste_basket","survey:date":"2014-10-29"}},"type":"Feature"},
	{"geometry":{"coordinates":[9.936241,51.570974],"type":"Point"},"properties":{"osm_id":"3156259799","tag":{"amenity":"waste_basket","material":"metal","survey:date":"2020-03-25"}},"type":"Feature"},
	{"geometry":{"coordinates":[9.95263,51.575563],"type":"Point"},"properties":{"osm_id":"3254427420","tag":{"amenity":"waste_basket"}},"type":"Feature"},
	{"geometry":{"coordinates":[9.934941,51.597085],"type":"Point"},"properties":{"osm_id":"3333724881","tag":{"amenity":"waste_basket","survey:date":"2020-07-21"}},"type":"Feature"},
	{"geometry":{"coordinates":[9.935137,51.597158],"type":"Point"},"properties":{"osm_id":"3333724885","tag":{"amenity":"waste_basket","survey:date":"2020-07-21"}},"type":"Feature"},
	{"geometry":{"coordinates":[9.942689,51.600326],"type":"Point"},"properties":{"osm_id":"3333755365","tag":{"amenity":"waste_basket","survey:date":"2015-02-05"}},"type":"Feature"},
	{"geometry":{"coordinates":[9.960463,51.595435],"type":"Point"},"properties":{"osm_id":"3333904359","tag":{"amenity":"waste_basket","survey:date":"2015-02-05"}},"type":"Feature"},
	{"geometry":{"coordinates":[9.950503,51.599313],"type":"Point"},"properties":{"osm_id":"3333905101","tag":{"amenity":"waste_basket","survey:date":"2019-10-03"}},"type":"Feature"},
	{"geometry":{"coordinates":[9.96079,51.595345],"type":"Point"},"properties":{"osm_id":"3333932156","tag":{"amenity":"waste_basket","survey:date":"2015-02-05"}},"type":"Feature"},
	{"geometry":{"coordinates":[9.950142,51.592386],"type":"Point"},"properties":{"osm_id":"3333942554","tag":{"amenity":"waste_basket","survey:date":"2020-07-21"}},"type":"Feature"},
	{"geometry":{"coordinates":[9.939542,51.59018],"type":"Point"},"properties":{"osm_id":"3334871570","tag":{"amenity":"waste_basket","survey:date":"2015-02-05"}},"type":"Feature"},
	{"geometry":{"coordinates":[9.939759,51.590507],"type":"Point"},"properties":{"osm_id":"3334871572","tag":{"amenity":"waste_basket","survey:date":"2015-02-05"}},"type":"Feature"},
	{"geometry":{"coordinates":[9.935327,51.584152],"type":"Point"},"properties":{"osm_id":"3334924077","tag":{"amenity":"waste_basket","survey:date":"2015-02-05"}},"type":"Feature"},
	{"geometry":{"coordinates":[9.933887,51.586042],"type":"Point"},"properties":{"osm_id":"3334924396","tag":{"amenity":"waste_basket","survey:date":"2015-02-05"}},"type":"Feature"},
	{"geometry":{"coordinates":[9.936742,51.587569],"type":"Point"},"properties":{"osm_id":"3334924406","tag":{"amenity":"waste_basket","survey:date":"2015-02-05"}},"type":"Feature"},
	{"geometry":{"coordinates":[9.936957,51.587735],"type":"Point"},"properties":{"osm_id":"3334924408","tag":{"amenity":"waste_basket","survey:date":"2015-02-05"}},"type":"Feature"},
	{"geometry":{"coordinates":[9.94423,51.563955],"type":"Point"},"properties":{"osm_id":"3336582169","tag":{"amenity":"waste_basket","survey:date":"2016-01-18"}},"type":"Feature"},
	{"geometry":{"coordinates":[9.987339,51.563422],"type":"Point"},"properties":{"osm_id":"3337802857","tag":{"amenity":"waste_basket","survey:date":"2015-02-06"}},"type":"Feature"},
	{"geometry":{"coordinates":[9.988602,51.563761],"type":"Point"},"properties":{"osm_id":"3337802870","tag":{"amenity":"waste_basket","survey:date":"2015-02-06"}},"type":"Feature"},
	{"geometry":{"coordinates":[9.934267,51.584447],"type":"Point"},"properties":{"osm_id":"3388417510","tag":{"amenity":"waste_basket","survey:date":"2015-03-07"}},"type":"Feature"},
	{"geometry":{"coordinates":[9.949155,51.568905],"type":"Point"},"properties":{"osm_id":"3607798022","tag":{"amenity":"waste_basket","survey:date":"2015-06-20"}},"type":"Feature"},
	{"geometry":{"coordinates":[9.934942,51.586273],"type":"Point"},"properties":{"osm_id":"3677476839","tag":{"amenity":"waste_basket","survey:date":"2015-07-31"}},"type":"Feature"},
	{"geometry":{"coordinates":[9.936688,51.587009],"type":"Point"},"properties":{"osm_id":"3677476906","tag":{"amenity":"waste_basket","survey:date":"2015-07-31"}},"type":"Feature"},
	{"geometry":{"coordinates":[9.93977,51.585554],"type":"Point"},"properties":{"osm_id":"3677514906","tag":{"amenity":"waste_basket","survey:date":"2015-07-31"}},"type":"Feature"},
	{"geometry":{"coordinates":[9.938046,51.584852],"type":"Point"},"properties":{"osm_id":"3677576914","tag":{"amenity":"waste_basket","survey:date":"2015-07-31"}},"type":"Feature"},
	{"geometry":{"coordinates":[9.942811,51.59262],"type":"Point"},"properties":{"osm_id":"3677578047","tag":{"amenity":"waste_basket","survey:date":"2015-07-31"}},"type":"Feature"},
	{"geometry":{"coordinates":[9.942794,51.592885],"type":"Point"},"properties":{"osm_id":"3677578049","tag":{"amenity":"waste_basket","survey:date":"2015-07-31"}},"type":"Feature"},
	{"geometry":{"coordinates":[9.942988,51.592939],"type":"Point"},"properties":{"osm_id":"3677581434","tag":{"amenity":"waste_basket","survey:date":"2015-07-31"}},"type":"Feature"},
	{"geometry":{"coordinates":[9.943168,51.592997],"type":"Point"},"properties":{"osm_id":"3677581440","tag":{"amenity":"waste_basket","survey:date":"2015-07-31"}},"type":"Feature"},
	{"geometry":{"coordinates":[9.937037,51.570483],"type":"Point"},"properties":{"osm_id":"3896798095","tag":{"amenity":"waste_basket","material":"metal","survey:date":"2020-03-25"}},"type":"Feature"},
	{"geometry":{"coordinates":[9.933867,51.574023],"type":"Point"},"properties":{"osm_id":"3896798124","tag":{"amenity":"waste_basket","survey:date":"2015-12-17"}},"type":"Feature"},
	{"geometry":{"coordinates":[9.933364,51.614952],"type":"Point"},"properties":{"osm_id":"4007219520","tag":{"amenity":"waste_basket","traffic_sign":"DE:260;DE:1026-36"}},"type":"Feature"},
	{"geometry":{"coordinates":[9.940216,51.57218],"type":"Point"},"properties":{"osm_id":"4086728273","tag":{"amenity":"waste_basket"}},"type":"Feature"},
	{"geometry":{"coordinates":[9.935649,51.616981],"type":"Point"},"properties":{"osm_id":"4907663529","tag":{"amenity":"waste_basket","survey:date":"2017-06-06"}},"type":"Feature"},
	{"geometry":{"coordinates":[9.935893,51.617113],"type":"Point"},"properties":{"osm_id":"4907663536","tag":{"amenity":"waste_basket","survey:date":"2017-06-06"}},"type":"Feature"},
	{"geometry":{"coordinates":[9.934503,51.586583],"type":"Point"},"properties":{"osm_id":"4907910826","tag":{"amenity":"waste_basket","survey:date":"2017-06-06"}},"type":"Feature"},
	{"geometry":{"coordinates":[9.93776,51.58791],"type":"Point"},"properties":{"osm_id":"4907954897","tag":{"amenity":"recycling","operator":"Fehr","recycling:glass_bottles":"yes","recycling_type":"container","survey:date":"2017-06-06"}},"type":"Feature"},
	{"geometry":{"coordinates":[9.932698,51.58645],"type":"Point"},"properties":{"osm_id":"4907955125","tag":{"amenity":"waste_basket","survey:date":"2017-06-06"}},"type":"Feature"},
	{"geometry":{"coordinates":[9.937048,51.572258],"type":"Point"},"properties":{"osm_id":"4909709513","tag":{"amenity":"waste_basket","survey:date":"2017-06-11"}},"type":"Feature"},
	{"geometry":{"coordinates":[9.97936,51.565923],"type":"Point"},"properties":{"osm_id":"4935348614","tag":{"amenity":"waste_basket","survey:date":"2017-06-24"}},"type":"Feature"},
	{"geometry":{"coordinates":[9.987837,51.565997],"type":"Point"},"properties":{"osm_id":"4935657387","tag":{"amenity":"waste_basket","survey:date":"2017-06-24"}},"type":"Feature"},
	{"geometry":{"coordinates":[9.987812,51.565844],"type":"Point"},"properties":{"osm_id":"4935657388","tag":{"amenity":"waste_basket","survey:date":"2017-06-24"}},"type":"Feature"},
	{"geometry":{"coordinates":[9.955712,51.565711],"type":"Point"},"properties":{"osm_id":"4941942951","tag":{"amenity":"waste_basket","survey:date":"2017-06-23"}},"type":"Feature"},
	{"geometry":{"coordinates":[9.93877,51.566948],"type":"Point"},"properties":{"osm_id":"5002206974","tag":{"amenity":"waste_basket","survey:date":"2017-07-29"}},"type":"Feature"},
	{"geometry":{"coordinates":[9.937237,51.565396],"type":"Point"},"properties":{"osm_id":"5002206982","tag":{"amenity":"waste_basket","survey:date":"2017-07-29"}},"type":"Feature"},
	{"geometry":{"coordinates":[9.937162,51.56438],"type":"Point"},"properties":{"osm_id":"5002206985","tag":{"amenity":"waste_basket","survey:date":"2016-05-26"}},"type":"Feature"},
	{"geometry":{"coordinates":[9.939358,51.564411],"type":"Point"},"properties":{"osm_id":"5002986800","tag":{"amenity":"waste_basket"}},"type":"Feature"},
	{"geometry":{"coordinates":[9.956126,51.593168],"type":"Point"},"properties":{"osm_id":"5522813306","tag":{"amenity":"waste_basket"}},"type":"Feature"},
	{"geometry":{"coordinates":[9.934263,51.585849],"type":"Point"},"properties":{"osm_id":"5746327678","tag":{"amenity":"recycling","recycling:glass_bottles":"yes","recycling_type":"container"}},"type":"Feature"},
	{"geometry":{"coordinates":[9.934246,51.585869],"type":"Point"},"properties":{"osm_id":"5746327679","tag":{"amenity":"recycling","recycling:glass_bottles":"yes","recycling_type":"container"}},"type":"Feature"},
	{"geometry":{"coordinates":[9.93778,51.587927],"type":"Point"},"properties":{"osm_id":"5746327680","tag":{"amenity":"recycling","recycling:glass_bottles":"yes","recycling_type":"container"}},"type":"Feature"},
	{"geometry":{"coordinates":[9.937804,51.587944],"type":"Point"},"properties":{"osm_id":"5746327681","tag":{"amenity":"recycling","recycling:glass_bottles":"yes","recycling_type":"container"}},"type":"Feature"},
	{"geometry":{"coordinates":[9.93383,51.576352],"type":"Point"},"properties":{"osm_id":"6208053151","tag":{"amenity":"waste_basket","survey:date":"2019-01-14"}},"type":"Feature"},
	{"geometry":{"coordinates":[9.93388,51.578065],"type":"Point"},"properties":{"osm_id":"6208053184","tag":{"amenity":"recycling","operator":"Parkfriedhof Weende","recycling:green_waste":"yes","recycling_type":"container","survey:date":"2019-01-14"}},"type":"Feature"},
	{"geometry":{"coordinates":[9.93437,51.577902],"type":"Point"},"properties":{"osm_id":"6208054985","tag":{"amenity":"recycling","operator":"Parkfriedhof Weende","recycling:green_waste":"yes","recycling_type":"container","survey:date":"2019-01-14"}},"type":"Feature"},
	{"geometry":{"coordinates":[9.934936,51.578618],"type":"Point"},"properties":{"osm_id":"6208054988","tag":{"amenity":"recycling","operator":"Parkfriedhof Weende","recycling:green_waste":"yes","recycling_type":"container","survey:date":"2019-01-14"}},"type":"Feature"},
	{"geometry":{"coordinates":[9.935776,51.579417],"type":"Point"},"properties":{"osm_id":"6208054989","tag":{"amenity":"recycling","operator":"Parkfriedhof Weende","recycling:green_waste":"yes","recycling_type":"container","survey:date":"2019-01-14"}},"type":"Feature"},
	{"geometry":{"coordinates":[9.933061,51.578204],"type":"Point"},"properties":{"osm_id":"6208054992","tag":{"amenity":"recycling","operator":"Parkfriedhof Weende","recycling:green_waste":"yes","recycling_type":"container","survey:date":"2019-01-14"}},"type":"Feature"},
	{"geometry":{"coordinates":[9.987055,51.61325],"type":"Point"},"properties":{"osm_id":"6762177750","tag":{"amenity":"waste_basket","survey:date":"2019-08-31"}},"type":"Feature"},
	{"geometry":{"coordinates":[9.991681,51.60645],"type":"Point"},"properties":{"osm_id":"6762177825","tag":{"amenity":"waste_basket","survey:date":"2019-08-31"}},"type":"Feature"},
	{"geometry":{"coordinates":[9.989616,51.607218],"type":"Point"},"properties":{"osm_id":"6762177838","tag":{"amenity":"waste_basket","survey:date":"2019-08-31"}},"type":"Feature"},
	{"geometry":{"coordinates":[9.957907,51.597492],"type":"Point"},"properties":{"osm_id":"6919315831","tag":{"amenity":"waste_basket","survey:date":"2019-10-26"}},"type":"Feature"},
	{"geometry":{"coordinates":[9.957277,51.597384],"type":"Point"},"properties":{"osm_id":"6919315832","tag":{"amenity":"waste_basket","survey:date":"2019-10-26"}},"type":"Feature"},
	{"geometry":{"coordinates":[9.95788,51.597161],"type":"Point"},"properties":{"osm_id":"6919319928","tag":{"amenity":"waste_basket","survey:date":"2019-10-26"}},"type":"Feature"},
	{"geometry":{"coordinates":[9.954476,51.596413],"type":"Point"},"properties":{"osm_id":"6919319959","tag":{"amenity":"waste_basket","survey:date":"2019-10-26"}},"type":"Feature"},
	{"geometry":{"coordinates":[9.957089,51.595621],"type":"Point"},"properties":{"osm_id":"6919319961","tag":{"amenity":"waste_basket","survey:date":"2019-10-26"}},"type":"Feature"},
	{"geometry":{"coordinates":[9.952315,51.59579],"type":"Point"},"properties":{"osm_id":"6919320187","tag":{"amenity":"waste_basket","survey:date":"2019-10-26"}},"type":"Feature"},
	{"geometry":{"coordinates":[9.95594,51.594166],"type":"Point"},"properties":{"osm_id":"6919320225","tag":{"amenity":"waste_basket","survey:date":"2019-10-25"}},"type":"Feature"},
	{"geometry":{"coordinates":[9.960843,51.595321],"type":"Point"},"properties":{"osm_id":"6919320259","tag":{"amenity":"waste_basket","survey:date":"2019-10-25"}},"type":"Feature"},
	{"geometry":{"coordinates":[9.961172,51.596225],"type":"Point"},"properties":{"osm_id":"6919320363","tag":{"amenity":"waste_basket","survey:date":"2019-10-25"}},"type":"Feature"},
	{"geometry":{"coordinates":[9.959085,51.593792],"type":"Point"},"properties":{"osm_id":"6919320473","tag":{"amenity":"waste_basket","survey:date":"2019-10-25"}},"type":"Feature"},
	{"geometry":{"coordinates":[9.953532,51.595279],"type":"Point"},"properties":{"osm_id":"6919320529","tag":{"amenity":"waste_basket","survey:date":"2019-10-25"}},"type":"Feature"},
	{"geometry":{"coordinates":[9.955694,51.596059],"type":"Point"},"properties":{"osm_id":"6943067389","tag":{"amenity":"waste_basket","survey:date":"2019-10-26"}},"type":"Feature"},
	{"geometry":{"coordinates":[9.955589,51.596226],"type":"Point"},"properties":{"osm_id":"6943067392","tag":{"amenity":"waste_basket","survey:date":"2019-10-26"}},"type":"Feature"},
	{"geometry":{"coordinates":[9.932232,51.572085],"type":"Point"},"properties":{"osm_id":"7059757385","tag":{"amenity":"recycling"}},"type":"Feature"},
	{"geometry":{"coordinates":[9.934006,51.588425],"type":"Point"},"properties":{"osm_id":"7066247690","tag":{"amenity":"waste_basket","survey:date":"2019-12-10"}},"type":"Feature"},
	{"geometry":{"coordinates":[9.990817,51.575715],"type":"Point"},"properties":{"osm_id":"7304625361","tag":{"amenity":"waste_basket","survey:date":"2020-03-17"}},"type":"Feature"},
	{"geometry":{"coordinates":[9.979676,51.56589],"type":"Point"},"properties":{"osm_id":"7323393719","tag":{"amenity":"waste_basket","material":"metal","survey:date":"2020-03-23"}},"type":"Feature"},
	{"geometry":{"coordinates":[9.936204,51.57129],"type":"Point"},"properties":{"osm_id":"7330156242","tag":{"amenity":"waste_basket","material":"metal","survey:date":"2020-03-25"}},"type":"Feature"},
	{"geometry":{"coordinates":[9.946058,51.569769],"type":"Point"},"properties":{"osm_id":"7360089050","tag":{"amenity":"waste_basket"}},"type":"Feature"},
	{"geometry":{"coordinates":[9.935182,51.582507],"type":"Point"},"properties":{"osm_id":"7564246103","tag":{"amenity":"waste_basket","material":"metal","survey:date":"2020-05-27"}},"type":"Feature"},
	{"geometry":{"coordinates":[9.949752,51.592341],"type":"Point"},"properties":{"osm_id":"7735147522","tag":{"amenity":"waste_basket","material":"metal","survey:date":"2020-07-21"}},"type":"Feature"},
	{"geometry":{"coordinates":[9.931997,51.592372],"type":"Point"},"properties":{"osm_id":"7735209307","tag":{"amenity":"waste_basket","material":"metal","survey:date":"2020-07-21"}},"type":"Feature"},
	{"geometry":{"coordinates":[9.943435,51.613372],"type":"Point"},"properties":{"osm_id":"7903455563","tag":{"amenity":"waste_basket","material":"metal","survey:date":"2020-09-13"}},"type":"Feature"},
	{"geometry":{"coordinates":[9.989301,51.599278],"type":"Point"},"properties":{"osm_id":"7923741564","tag":{"amenity":"waste_basket","material":"metal","survey:date":"2020-09-16"}},"type":"Feature"}
]
}
