{
"type": "FeatureCollection",
"features": [
	{"geometry":{"coordinates":[9.944863,51.470596],"type":"Point"},"properties":{"osm_id":"224272014","tag":{"amenity":"waste_basket","survey:date":"2014-11-07"}},"type":"Feature"},
	{"geometry":{"coordinates":[10.008751,51.493592],"type":"Point"},"properties":{"osm_id":"281470563","ref":"002;037","tag":{"amenity":"recycling","opening_hours":"Mo-Sa 07:00-19:00; PH off","operator":"Fehr","recycling:glass":"no","recycling:glass_bottles":"yes","recycling_type":"container","survey:date":"2020-08-15"}},"type":"Feature"},
	{"geometry":{"coordinates":[9.976501,51.484354],"type":"Point"},"properties":{"osm_id":"283300957","ref":"407;062","tag":{"amenity":"recycling","location":"overground","opening_hours":"Mo-Sa 07:00-19:00; PH off","operator":"Fehr","recycling:glass":"no","recycling:glass_bottles":"yes","recycling_type":"container","survey:date":"2020-06-07"}},"type":"Feature"},
	{"geometry":{"coordinates":[9.981341,51.472708],"type":"Point"},"properties":{"osm_id":"284529857","ref":"099","tag":{"amenity":"recycling","opening_hours":"Mo-Sa 07:00-19:00; PH off","operator":"Fehr","recycling:glass":"no","recycling:glass_bottles":"yes","recycling_type":"container","survey:date":"2021-09-07"}},"type":"Feature"},
	{"geometry":{"coordinates":[9.963376,51.508076],"type":"Point"},"properties":{"osm_id":"310608747","ref":"Am Kalten Born, Ost","tag":{"amenity":"recycling","operator":"GEB","recycling:clothes":"yes","recycling:glass_bottles":"yes","recycling:paper":"no","recycling:shoes":"yes","recycling_type":"container"}},"type":"Feature"},
	{"geometry":{"coordinates":[9.961154,51.507984],"type":"Point"},"properties":{"osm_id":"310608749","ref":"Am Kalten Born, West","tag":{"amenity":"recycling","opening_hours":"Mo-Sa 07:00-19:00; PH off","operator":"GEB","recycling:clothes":"no","recycling:glass_bottles":"yes","recycling:paper":"no","recycling_type":"container"}},"type":"Feature"},
	{"geometry":{"coordinates":[9.951859,51.507434],"type":"Point"},"properties":{"osm_id":"310608756","ref":"Am Rischen","tag":{"amenity":"recycling","opening_hours":"Mo-Sa 09:00-19:00; PH off","operator":"GEB","recycling:clothes":"yes","recycling:glass":"no","recycling:glass_bottles":"yes","recycling:paper":"no","recycling:shoes":"yes","recycling_type":"container","survey:date":"2018-12-19"}},"type":"Feature"},
	{"geometry":{"coordinates":[9.933217,51.458784],"type":"Point"},"properties":{"osm_id":"584808198","ref":"152","tag":{"amenity":"recycling","opening_hours":"Mo-Sa 07:00-19:00; PH off","operator":"Fehr","recycling:glass":"no","recycling:glass_bottles":"yes","recycling_type":"container","survey:date":"2020-05-20"}},"type":"Feature"},
	{"geometry":{"coordinates":[9.94471,51.470769],"type":"Point"},"properties":{"osm_id":"3173588327","tag":{"amenity":"waste_basket","survey:date":"2014-11-07"}},"type":"Feature"},
	{"geometry":{"coordinates":[9.945107,51.470888],"type":"Point"},"properties":{"osm_id":"3173588330","tag":{"amenity":"waste_basket","survey:date":"2014-11-07"}},"type":"Feature"},
	{"geometry":{"coordinates":[9.944496,51.470918],"type":"Point"},"properties":{"osm_id":"3173588331","tag":{"amenity":"waste_basket","survey:date":"2014-11-07"}},"type":"Feature"},
	{"geometry":{"coordinates":[9.945475,51.471115],"type":"Point"},"properties":{"osm_id":"3173588335","tag":{"amenity":"waste_basket","survey:date":"2014-11-07"}},"type":"Feature"},
	{"geometry":{"coordinates":[9.945374,51.471249],"type":"Point"},"properties":{"osm_id":"3173588338","tag":{"amenity":"waste_basket","survey:date":"2014-11-07"}},"type":"Feature"},
	{"geometry":{"coordinates":[9.946021,51.47152],"type":"Point"},"properties":{"osm_id":"3173588345","tag":{"amenity":"waste_basket","survey:date":"2014-11-07"}},"type":"Feature"},
	{"geometry":{"coordinates":[9.948513,51.471585],"type":"Point"},"properties":{"osm_id":"3173588349","tag":{"amenity":"waste_basket","survey:date":"2014-11-07"}},"type":"Feature"},
	{"geometry":{"coordinates":[9.945553,51.471587],"type":"Point"},"properties":{"osm_id":"3173588350","tag":{"amenity":"waste_basket","survey:date":"2014-11-07"}},"type":"Feature"},
	{"geometry":{"coordinates":[9.947694,51.471677],"type":"Point"},"properties":{"osm_id":"3173588352","tag":{"amenity":"waste_basket","survey:date":"2014-11-07"}},"type":"Feature"},
	{"geometry":{"coordinates":[9.945847,51.47169],"type":"Point"},"properties":{"osm_id":"3173588354","tag":{"amenity":"waste_basket","survey:date":"2014-11-07"}},"type":"Feature"},
	{"geometry":{"coordinates":[9.947081,51.471759],"type":"Point"},"properties":{"osm_id":"3173588356","tag":{"amenity":"waste_basket","survey:date":"2014-11-07"}},"type":"Feature"},
	{"geometry":{"coordinates":[9.946038,51.471803],"type":"Point"},"properties":{"osm_id":"3173588357","tag":{"amenity":"waste_basket","survey:date":"2014-11-07"}},"type":"Feature"},
	{"geometry":{"coordinates":[9.946053,51.471812],"type":"Point"},"properties":{"osm_id":"3173588358","tag":{"amenity":"waste_basket","survey:date":"2014-11-07"}},"type":"Feature"},
	{"geometry":{"coordinates":[9.946683,51.471908],"type":"Point"},"properties":{"osm_id":"3173588763","tag":{"amenity":"waste_basket","survey:date":"2014-11-07"}},"type":"Feature"},
	{"geometry":{"coordinates":[9.946388,51.472104],"type":"Point"},"properties":{"osm_id":"3173588772","tag":{"amenity":"waste_basket","survey:date":"2014-11-07"}},"type":"Feature"},
	{"geometry":{"coordinates":[9.946399,51.472105],"type":"Point"},"properties":{"osm_id":"3173588773","tag":{"amenity":"waste_basket","survey:date":"2014-11-07"}},"type":"Feature"},
	{"geometry":{"coordinates":[9.946523,51.472206],"type":"Point"},"properties":{"osm_id":"3173588777","tag":{"amenity":"waste_basket","survey:date":"2014-11-07"}},"type":"Feature"},
	{"geometry":{"coordinates":[9.946537,51.472211],"type":"Point"},"properties":{"osm_id":"3173588778","tag":{"amenity":"waste_basket","survey:date":"2014-11-07"}},"type":"Feature"},
	{"geometry":{"coordinates":[9.946341,51.472277],"type":"Point"},"properties":{"osm_id":"3173588780","tag":{"amenity":"waste_basket","survey:date":"2021-09-07","waste":"ash"}},"type":"Feature"},
	{"geometry":{"coordinates":[9.946356,51.472282],"type":"Point"},"properties":{"osm_id":"3173588781","tag":{"amenity":"waste_basket","survey:date":"2014-11-07"}},"type":"Feature"},
	{"geometry":{"coordinates":[9.945576,51.472297],"type":"Point"},"properties":{"osm_id":"3173588782","tag":{"amenity":"waste_basket","survey:date":"2014-11-07"}},"type":"Feature"},
	{"geometry":{"coordinates":[9.946089,51.472441],"type":"Point"},"properties":{"osm_id":"3173588786","tag":{"amenity":"waste_basket","survey:date":"2014-11-07"}},"type":"Feature"},
	{"geometry":{"coordinates":[9.946568,51.472617],"type":"Point"},"properties":{"osm_id":"3173588787","tag":{"amenity":"waste_basket","survey:date":"2014-11-07"}},"type":"Feature"},
	{"geometry":{"coordinates":[9.941499,51.468829],"type":"Point"},"properties":{"osm_id":"3173637986","tag":{"amenity":"waste_basket","survey:date":"2018-07-20"}},"type":"Feature"},
	{"geometry":{"coordinates":[9.945871,51.469522],"type":"Point"},"properties":{"osm_id":"3173638000","tag":{"amenity":"waste_basket","survey:date":"2014-11-07"}},"type":"Feature"},
	{"geometry":{"coordinates":[9.946387,51.469554],"type":"Point"},"properties":{"osm_id":"3173638001","tag":{"amenity":"waste_basket","survey:date":"2014-11-07"}},"type":"Feature"},
	{"geometry":{"coordinates":[9.946842,51.469629],"type":"Point"},"properties":{"osm_id":"3173638005","tag":{"amenity":"waste_basket","survey:date":"2014-11-07"}},"type":"Feature"},
	{"geometry":{"coordinates":[9.9368,51.498112],"type":"Point"},"properties":{"osm_id":"3308009325","tag":{"amenity":"waste_basket","colour":"#008000","material":"metal","survey:date":"2020-05-20"}},"type":"Feature"},
	{"geometry":{"coordinates":[9.943775,51.474239],"type":"Point"},"properties":{"osm_id":"3308281962","tag":{"amenity":"waste_basket","survey:date":"2015-05-14"}},"type":"Feature"},
	{"geometry":{"coordinates":[9.959096,51.507612],"type":"Point"},"properties":{"osm_id":"3340261491","tag":{"amenity":"waste_basket","survey:date":"2015-10-18"}},"type":"Feature"},
	{"geometry":{"coordinates":[9.963628,51.507963],"type":"Point"},"properties":{"osm_id":"3340261492","tag":{"amenity":"waste_basket","survey:date":"2018-11-27"}},"type":"Feature"},
	{"geometry":{"coordinates":[9.964015,51.50805],"type":"Point"},"properties":{"osm_id":"3340263197","tag":{"amenity":"waste_basket","survey:date":"2018-11-27"}},"type":"Feature"},
	{"geometry":{"coordinates":[9.958712,51.508485],"type":"Point"},"properties":{"osm_id":"3340263206","tag":{"amenity":"waste_basket","survey:date":"2015-10-18"}},"type":"Feature"},
	{"geometry":{"coordinates":[9.933335,51.460241],"type":"Point"},"properties":{"osm_id":"3378390953","tag":{"amenity":"waste_basket","colour":"#008000","material":"metal","survey:date":"2020-05-20"}},"type":"Feature"},
	{"geometry":{"coordinates":[9.944133,51.470426],"type":"Point"},"properties":{"osm_id":"3378430631","tag":{"amenity":"waste_basket","survey:date":"2015-02-28"}},"type":"Feature"},
	{"geometry":{"coordinates":[10.005881,51.496071],"type":"Point"},"properties":{"osm_id":"3389417427","tag":{"amenity":"waste_basket","survey:date":"2018-05-12"}},"type":"Feature"},
	{"geometry":{"coordinates":[10.005944,51.496204],"type":"Point"},"properties":{"osm_id":"3389417433","tag":{"amenity":"waste_basket","survey:date":"2018-05-12"}},"type":"Feature"},
	{"geometry":{"coordinates":[10.005922,51.496206],"type":"Point"},"properties":{"osm_id":"3389428978","tag":{"amenity":"waste_basket","survey:date":"2018-05-12"}},"type":"Feature"},
	{"geometry":{"coordinates":[10.009268,51.49396],"type":"Point"},"properties":{"osm_id":"3389452039","tag":{"amenity":"waste_basket","material":"metal","survey:date":"2020-08-15"}},"type":"Feature"},
	{"geometry":{"coordinates":[10.010117,51.494086],"type":"Point"},"properties":{"osm_id":"3389452040","tag":{"amenity":"waste_basket","material":"metal","survey:date":"2020-08-15"}},"type":"Feature"},
	{"geometry":{"coordinates":[9.943671,51.508542],"type":"Point"},"properties":{"osm_id":"3468429175","tag":{"amenity":"waste_basket","check_date":"2021-06-19"}},"type":"Feature"},
	{"geometry":{"coordinates":[9.959176,51.507537],"type":"Point"},"properties":{"osm_id":"3791855447","tag":{"amenity":"waste_basket","survey:date":"2015-10-18"}},"type":"Feature"},
	{"geometry":{"coordinates":[9.951558,51.455294],"type":"Point"},"properties":{"osm_id":"3922237562","tag":{"amenity":"waste_basket","material":"metal","survey:date":"2020-07-29"}},"type":"Feature"},
	{"geometry":{"coordinates":[9.978439,51.468375],"type":"Point"},"properties":{"osm_id":"3922237694","tag":{"amenity":"recycling","operator":"Humana","recycling:clothes":"yes","recycling:shoes":"yes","recycling_type":"container","survey:date":"2020-08-05"}},"type":"Feature"},
	{"geometry":{"coordinates":[9.95508,51.454591],"type":"Point"},"properties":{"osm_id":"3922257929","tag":{"amenity":"waste_basket","survey:date":"2020-07-29"}},"type":"Feature"},
	{"geometry":{"coordinates":[10.008937,51.494522],"type":"Point"},"properties":{"osm_id":"4442632390","tag":{"amenity":"waste_basket"}},"type":"Feature"},
	{"geometry":{"coordinates":[10.004068,51.500877],"type":"Point"},"properties":{"osm_id":"4442632391","ref":"004;011","tag":{"amenity":"recycling","opening_hours":"Mo-Sa 07:00-19:00; PH off","operator":"Fehr","recycling:glass":"no","recycling:glass_bottles":"yes","recycling_type":"container","survey:date":"2020-08-15"}},"type":"Feature"},
	{"geometry":{"coordinates":[10.0033,51.49922],"type":"Point"},"properties":{"osm_id":"4442632589","tag":{"amenity":"waste_basket","survey:date":"2018-05-12"}},"type":"Feature"},
	{"geometry":{"coordinates":[9.966069,51.505469],"type":"Point"},"properties":{"osm_id":"4465152361","tag":{"amenity":"waste_basket"}},"type":"Feature"},
	{"geometry":{"coordinates":[9.955648,51.50846],"type":"Point"},"properties":{"osm_id":"4721291195","tag":{"amenity":"waste_basket","survey:date":"2018-12-05"}},"type":"Feature"},
	{"geometry":{"coordinates":[9.983663,51.490725],"type":"Point"},"properties":{"osm_id":"5493647552","tag":{"amenity":"waste_basket","survey:date":"2020-06-07"}},"type":"Feature"},
	{"geometry":{"coordinates":[9.98141,51.489668],"type":"Point"},"properties":{"osm_id":"5493647614","tag":{"amenity":"waste_basket","check_date":"2021-08-14"}},"type":"Feature"},
	{"geometry":{"coordinates":[9.978482,51.484708],"type":"Point"},"properties":{"osm_id":"5506810993","tag":{"amenity":"waste_basket","survey:date":"2018-03-08"}},"type":"Feature"},
	{"geometry":{"coordinates":[9.977684,51.485517],"type":"Point"},"properties":{"osm_id":"5506811004","tag":{"amenity":"waste_basket","survey:date":"2018-03-08"}},"type":"Feature"},
	{"geometry":{"coordinates":[10.005819,51.496081],"type":"Point"},"properties":{"osm_id":"5614052962","tag":{"amenity":"waste_basket","survey:date":"2018-05-12"}},"type":"Feature"},
	{"geometry":{"coordinates":[10.003994,51.500875],"type":"Point"},"properties":{"osm_id":"5633236977","tag":{"amenity":"recycling","operator":"Humana","recycling:clothes":"yes","recycling:shoes":"yes","recycling_type":"container","survey:date":"2020-08-15"}},"type":"Feature"},
	{"geometry":{"coordinates":[10.008521,51.492672],"type":"Point"},"properties":{"osm_id":"5681802717","tag":{"amenity":"recycling","operator":"FWS Altkleidercontainerservice","recycling:clothes":"yes","recycling:shoes":"yes","recycling_type":"container","survey:date":"2018-05-12"}},"type":"Feature"},
	{"geometry":{"coordinates":[9.985555,51.488692],"type":"Point"},"properties":{"osm_id":"5700752125","tag":{"amenity":"recycling","operator":"Landkreis G\u00c3\u00b6ttingen","recycling:clothes":"yes","recycling:shoes":"yes","recycling_type":"container","survey:date":"2018-06-17"}},"type":"Feature"},
	{"geometry":{"coordinates":[9.98469,51.489479],"type":"Point"},"properties":{"osm_id":"5700752141","tag":{"amenity":"waste_basket","material":"metal","survey:date":"2020-06-07"}},"type":"Feature"},
	{"geometry":{"coordinates":[9.98444,51.489452],"type":"Point"},"properties":{"osm_id":"5700752161","tag":{"amenity":"waste_basket","material":"metal","survey:date":"2020-06-07"}},"type":"Feature"},
	{"geometry":{"coordinates":[9.984522,51.48929],"type":"Point"},"properties":{"osm_id":"5700752162","tag":{"amenity":"waste_basket","material":"metal","survey:date":"2020-06-07"}},"type":"Feature"},
	{"geometry":{"coordinates":[9.982715,51.487694],"type":"Point"},"properties":{"osm_id":"5700752249","tag":{"amenity":"waste_basket","survey:date":"2018-06-17"}},"type":"Feature"},
	{"geometry":{"coordinates":[9.977896,51.486628],"type":"Point"},"properties":{"osm_id":"5705245143","tag":{"amenity":"waste_basket","survey:date":"2018-06-17"}},"type":"Feature"},
	{"geometry":{"coordinates":[9.981459,51.46762],"type":"Point"},"properties":{"osm_id":"5732342550","tag":{"amenity":"waste_basket","survey:date":"2018-06-27"}},"type":"Feature"},
	{"geometry":{"coordinates":[9.981567,51.467407],"type":"Point"},"properties":{"osm_id":"5732342563","tag":{"amenity":"waste_basket","check_date":"2021-10-02"}},"type":"Feature"},
	{"geometry":{"coordinates":[9.987557,51.467768],"type":"Point"},"properties":{"osm_id":"5732347536","tag":{"amenity":"waste_basket","survey:date":"2018-06-27"}},"type":"Feature"},
	{"geometry":{"coordinates":[9.983485,51.487706],"type":"Point"},"properties":{"osm_id":"5732426222","tag":{"amenity":"waste_basket","survey:date":"2018-06-27"}},"type":"Feature"},
	{"geometry":{"coordinates":[9.983672,51.487753],"type":"Point"},"properties":{"osm_id":"5732426223","tag":{"amenity":"waste_basket","survey:date":"2018-06-27"}},"type":"Feature"},
	{"geometry":{"coordinates":[9.983683,51.487692],"type":"Point"},"properties":{"osm_id":"5732426224","tag":{"amenity":"waste_basket","survey:date":"2018-06-27"}},"type":"Feature"},
	{"geometry":{"coordinates":[9.966203,51.506952],"type":"Point"},"properties":{"osm_id":"6095569926","tag":{"amenity":"waste_basket","survey:date":"2018-11-27"}},"type":"Feature"},
	{"geometry":{"coordinates":[9.960462,51.508049],"type":"Point"},"properties":{"osm_id":"6095569942","tag":{"amenity":"waste_basket","survey:date":"2018-11-27"}},"type":"Feature"},
	{"geometry":{"coordinates":[9.950474,51.507626],"type":"Point"},"properties":{"osm_id":"6119825055","tag":{"amenity":"waste_basket","survey:date":"2018-12-05"}},"type":"Feature"},
	{"geometry":{"coordinates":[9.947378,51.507993],"type":"Point"},"properties":{"osm_id":"6122106869","tag":{"amenity":"waste_basket","survey:date":"2018-12-06"}},"type":"Feature"},
	{"geometry":{"coordinates":[10.005337,51.497112],"type":"Point"},"properties":{"osm_id":"6773112082","tag":{"amenity":"waste_basket","survey:date":"2019-09-04"}},"type":"Feature"},
	{"geometry":{"coordinates":[9.936301,51.463081],"type":"Point"},"properties":{"osm_id":"7542523802","tag":{"amenity":"waste_basket","survey:date":"2020-05-20"}},"type":"Feature"},
	{"geometry":{"coordinates":[9.947433,51.455217],"type":"Point"},"properties":{"osm_id":"7544880293","tag":{"amenity":"waste_basket","material":"metal","survey:date":"2020-07-29"}},"type":"Feature"},
	{"geometry":{"coordinates":[9.97604,51.484163],"type":"Point"},"properties":{"osm_id":"7603059100","tag":{"amenity":"waste_basket","material":"metal","survey:date":"2020-06-07"}},"type":"Feature"},
	{"geometry":{"coordinates":[9.976394,51.484448],"type":"Point"},"properties":{"osm_id":"7603059102","tag":{"amenity":"recycling","opening_hours":"Mo-Su,PH 09:00-18:00","operator":"Humana","recycling:clothes":"yes","recycling:shoes":"yes","recycling_type":"container","survey:date":"2020-06-07"}},"type":"Feature"},
	{"geometry":{"coordinates":[9.947614,51.45539],"type":"Point"},"properties":{"osm_id":"7769159495","tag":{"amenity":"recycling","operator":"Darbo Recycling","recycling:clothes":"yes","recycling:shoes":"yes","recycling_type":"container","survey:date":"2020-07-29"}},"type":"Feature"},
	{"geometry":{"coordinates":[9.947662,51.455276],"type":"Point"},"properties":{"osm_id":"7769159496","ref":"009;044","tag":{"amenity":"recycling","opening_hours":"Mo-Sa 07:00-19:00; PH off","operator":"Fehr","recycling:glass":"no","recycling:glass_bottles":"yes","recycling_type":"container","survey:date":"2020-07-29"}},"type":"Feature"},
	{"geometry":{"coordinates":[9.978459,51.46834],"type":"Point"},"properties":{"osm_id":"7799361053","ref":"095","tag":{"amenity":"recycling","opening_hours":"Mo-Sa 07:00-19:00; PH off","operator":"Fehr","recycling:glass":"no","recycling:glass_bottles":"yes","recycling_type":"container","survey:date":"2020-08-05"}},"type":"Feature"},
	{"geometry":{"coordinates":[10.001958,51.489384],"type":"Point"},"properties":{"osm_id":"8461488033","tag":{"amenity":"waste_basket"}},"type":"Feature"},
	{"geometry":{"coordinates":[9.944774,51.473886],"type":"Point"},"properties":{"osm_id":"8716628639","tag":{"amenity":"waste_basket","waste":"trash"}},"type":"Feature"},
	{"geometry":{"coordinates":[9.959412,51.508577],"type":"Point"},"properties":{"osm_id":"8812870709","tag":{"amenity":"waste_basket","material":"metal","survey:date":"2021-06-07"}},"type":"Feature"},
	{"geometry":{"coordinates":[9.952542,51.508393],"type":"Point"},"properties":{"osm_id":"8812875031","tag":{"amenity":"waste_basket","material":"metal","survey:date":"2021-06-07"}},"type":"Feature"},
	{"geometry":{"coordinates":[9.950345,51.498512],"type":"Point"},"properties":{"osm_id":"8944858638","tag":{"amenity":"waste_basket","material":"metal","survey:date":"2021-07-23"}},"type":"Feature"},
	{"geometry":{"coordinates":[9.980678,51.46975],"type":"Point"},"properties":{"osm_id":"9072274763","tag":{"amenity":"waste_basket","material":"metal","survey:date":"2021-09-07"}},"type":"Feature"},
	{"geometry":{"coordinates":[9.981341,51.472708],"type":"Point"},"properties":{"osm_id":"9072274767","ref":"099","tag":{"amenity":"recycling","opening_hours":"Mo-Sa 07:00-19:00; PH off","operator":"Fehr","recycling:glass":"no","recycling:glass_bottles":"yes","recycling_type":"container","survey:date":"2021-09-07"}},"type":"Feature"},
	{"geometry":{"coordinates":[9.946331,51.47163],"type":"Point"},"properties":{"osm_id":"9080582704","tag":{"amenity":"waste_basket","survey:date":"2021-09-09","waste":"ash"}},"type":"Feature"}
]
}
