{
"type": "FeatureCollection",
"features": [
	{"geometry":{"coordinates":[9.93851,51.434167],"type":"Point"},"properties":{"osm_id":"139801504","ref":"313;362","tag":{"amenity":"recycling","opening_hours":"Mo-Sa 07:00-19:00; PH off","operator":"Fehr","recycling:glass":"no","recycling:glass_bottles":"yes","recycling_type":"container","survey:date":"2020-07-29"}},"type":"Feature"},
	{"geometry":{"coordinates":[9.970329,51.409146],"type":"Point"},"properties":{"osm_id":"937147766","tag":{"amenity":"recycling","recycling:glass":"yes"}},"type":"Feature"},
	{"geometry":{"coordinates":[9.962277,51.438895],"type":"Point"},"properties":{"osm_id":"1680588325","tag":{"amenity":"waste_basket"}},"type":"Feature"},
	{"geometry":{"coordinates":[9.937736,51.439987],"type":"Point"},"properties":{"osm_id":"3922290821","tag":{"amenity":"waste_basket","material":"metal","survey:date":"2020-07-29"}},"type":"Feature"},
	{"geometry":{"coordinates":[9.934106,51.406078],"type":"Point"},"properties":{"osm_id":"4236515203","tag":{"amenity":"waste_basket","survey:date":"2016-05-08"}},"type":"Feature"},
	{"geometry":{"coordinates":[10.00533,51.428454],"type":"Point"},"properties":{"osm_id":"7734946037","tag":{"amenity":"waste_basket","material":"metal","survey:date":"2020-07-18"}},"type":"Feature"},
	{"geometry":{"coordinates":[10.004775,51.428702],"type":"Point"},"properties":{"osm_id":"7734946092","ref":"158","tag":{"amenity":"recycling","opening_hours":"Mo-Sa 07:00-19:00; PH off","operator":"Fehr","recycling:glass":"no","recycling:glass_bottles":"yes","recycling_type":"container","survey:date":"2020-07-18"}},"type":"Feature"},
	{"geometry":{"coordinates":[10.004968,51.428856],"type":"Point"},"properties":{"osm_id":"7734946093","tag":{"amenity":"waste_basket","survey:date":"2020-07-18"}},"type":"Feature"},
	{"geometry":{"coordinates":[10.005609,51.42892],"type":"Point"},"properties":{"osm_id":"7734946105","tag":{"amenity":"waste_basket","survey:date":"2020-07-18"}},"type":"Feature"},
	{"geometry":{"coordinates":[9.982068,51.42492],"type":"Point"},"properties":{"osm_id":"7735098125","ref":"169","tag":{"amenity":"recycling","opening_hours":"Mo-Sa 07:00-19:00; PH off","operator":"Fehr","recycling:glass":"no","recycling:glass_bottles":"yes","recycling_type":"container","survey:date":"2020-07-18"}},"type":"Feature"},
	{"geometry":{"coordinates":[9.982539,51.425133],"type":"Point"},"properties":{"osm_id":"7735098141","tag":{"amenity":"waste_basket","survey:date":"2020-07-18"}},"type":"Feature"},
	{"geometry":{"coordinates":[9.93496,51.437519],"type":"Point"},"properties":{"osm_id":"7762757066","tag":{"amenity":"waste_basket","survey:date":"2020-07-26"}},"type":"Feature"},
	{"geometry":{"coordinates":[9.931642,51.437827],"type":"Point"},"properties":{"osm_id":"7762884996","ref":"175;193","tag":{"amenity":"recycling","opening_hours":"Mo-Sa 07:00-19:00; PH off","operator":"Fehr","recycling:glass":"no","recycling:glass_bottles":"yes","recycling_type":"container","survey:date":"2020-07-26"}},"type":"Feature"},
	{"geometry":{"coordinates":[9.932415,51.437242],"type":"Point"},"properties":{"osm_id":"7762885012","tag":{"amenity":"waste_basket","material":"metal","support":"wall","survey:date":"2020-07-26"}},"type":"Feature"},
	{"geometry":{"coordinates":[9.934795,51.4349],"type":"Point"},"properties":{"osm_id":"7765731425","tag":{"amenity":"waste_basket","material":"metal","survey:date":"2020-07-26"}},"type":"Feature"},
	{"geometry":{"coordinates":[9.934794,51.435003],"type":"Point"},"properties":{"osm_id":"7765731429","tag":{"amenity":"waste_basket","material":"metal","survey:date":"2020-07-26"}},"type":"Feature"},
	{"geometry":{"coordinates":[9.934767,51.435306],"type":"Point"},"properties":{"osm_id":"7765731438","tag":{"amenity":"waste_basket","survey:date":"2020-07-26"}},"type":"Feature"},
	{"geometry":{"coordinates":[9.934437,51.436687],"type":"Point"},"properties":{"osm_id":"7765731439","tag":{"amenity":"waste_basket","material":"metal","survey:date":"2020-07-26"}},"type":"Feature"},
	{"geometry":{"coordinates":[9.936929,51.441849],"type":"Point"},"properties":{"osm_id":"7765753815","tag":{"amenity":"waste_basket","material":"metal","survey:date":"2020-07-26"}},"type":"Feature"},
	{"geometry":{"coordinates":[9.933749,51.430276],"type":"Point"},"properties":{"osm_id":"7768170570","tag":{"amenity":"waste_basket","material":"metal","survey:date":"2020-07-29"}},"type":"Feature"},
	{"geometry":{"coordinates":[9.933057,51.430738],"type":"Point"},"properties":{"osm_id":"7768199003","tag":{"amenity":"waste_basket","material":"metal","survey:date":"2020-07-29"}},"type":"Feature"},
	{"geometry":{"coordinates":[9.933726,51.430438],"type":"Point"},"properties":{"osm_id":"7768199049","tag":{"amenity":"waste_basket","material":"metal","survey:date":"2020-07-29"}},"type":"Feature"},
	{"geometry":{"coordinates":[9.937927,51.438672],"type":"Point"},"properties":{"osm_id":"7770273271","tag":{"amenity":"waste_basket","survey:date":"2020-07-29"}},"type":"Feature"},
	{"geometry":{"coordinates":[9.938764,51.433719],"type":"Point"},"properties":{"osm_id":"7770398326","tag":{"amenity":"waste_basket","material":"metal","survey:date":"2020-07-29"}},"type":"Feature"},
	{"geometry":{"coordinates":[9.938491,51.434192],"type":"Point"},"properties":{"osm_id":"7770440919","tag":{"amenity":"recycling","operator":"Eurocycle GmbH","recycling:clothes":"yes","recycling:shoes":"yes","recycling_type":"container","survey:date":"2020-07-29"}},"type":"Feature"},
	{"geometry":{"coordinates":[9.937255,51.433435],"type":"Point"},"properties":{"osm_id":"7771403048","tag":{"amenity":"waste_basket","material":"metal","survey:date":"2020-07-30"}},"type":"Feature"},
	{"geometry":{"coordinates":[9.937361,51.433754],"type":"Point"},"properties":{"osm_id":"7771403049","tag":{"amenity":"waste_basket","material":"metal","survey:date":"2020-07-30"}},"type":"Feature"},
	{"geometry":{"coordinates":[9.934135,51.435451],"type":"Point"},"properties":{"osm_id":"7771403099","tag":{"amenity":"waste_basket","material":"metal","survey:date":"2020-07-30"}},"type":"Feature"},
	{"geometry":{"coordinates":[9.933833,51.435506],"type":"Point"},"properties":{"osm_id":"7771403100","tag":{"amenity":"waste_basket","material":"metal","survey:date":"2020-07-30"}},"type":"Feature"},
	{"geometry":{"coordinates":[9.933654,51.43509],"type":"Point"},"properties":{"osm_id":"7771403101","tag":{"amenity":"waste_basket","survey:date":"2020-07-30"}},"type":"Feature"},
	{"geometry":{"coordinates":[9.96523,51.440459],"type":"Point"},"properties":{"osm_id":"8274796906","tag":{"amenity":"waste_basket"}},"type":"Feature"}
]
}
