{
"type": "FeatureCollection",
"features": [
	{"geometry":{"coordinates":[9.953124,49.791409],"type":"Point"},"properties":{"osm_id":"248100750","tag":{"amenity":"recycling","location":"overground","recycling:clothes":"yes","recycling:glass_bottles":"yes","recycling:shoes":"yes","recycling_type":"container"}},"type":"Feature"},
	{"geometry":{"coordinates":[9.94893,49.781357],"type":"Point"},"properties":{"osm_id":"248303473","tag":{"amenity":"recycling","location":"overground","recycling:glass_bottles":"yes","recycling_type":"container"}},"type":"Feature"},
	{"geometry":{"coordinates":[10.019135,49.792888],"type":"Point"},"properties":{"osm_id":"260418343","tag":{"amenity":"recycling","location":"overground","recycling_type":"container"}},"type":"Feature"},
	{"geometry":{"coordinates":[10.016493,49.7893],"type":"Point"},"properties":{"osm_id":"261022539","tag":{"amenity":"recycling","mapillary":"n8u7alKlRO57BrSLzFp_fA","recycling:glass_bottles":"yes","recycling_type":"container","survey:date":"2019-04-10"}},"type":"Feature"},
	{"geometry":{"coordinates":[9.942666,49.786924],"type":"Point"},"properties":{"osm_id":"285878116","tag":{"amenity":"recycling","location":"underground","recycling:clothes":"yes","recycling:glass_bottles":"yes","recycling:shoes":"yes","recycling_type":"container"}},"type":"Feature"},
	{"geometry":{"coordinates":[9.97021,49.823412],"type":"Point"},"properties":{"osm_id":"308727525","tag":{"amenity":"recycling"}},"type":"Feature"},
	{"geometry":{"coordinates":[9.952213,49.796431],"type":"Point"},"properties":{"osm_id":"309170819","tag":{"amenity":"recycling","recycling:glass":"yes","recycling:glass_bottles":"yes","recycling_type":"container"}},"type":"Feature"},
	{"geometry":{"coordinates":[9.940495,49.804206],"type":"Point"},"properties":{"osm_id":"309170865","tag":{"amenity":"recycling","recycling:glass":"yes"}},"type":"Feature"},
	{"geometry":{"coordinates":[9.935322,49.797713],"type":"Point"},"properties":{"osm_id":"311912031","tag":{"amenity":"recycling","recycling:batteries":"no","recycling:cans":"no","recycling:clothes":"no","recycling:glass":"yes","recycling:glass_bottles":"yes","recycling:green_waste":"no","recycling:magazines":"no","recycling:paper":"no","recycling_type":"container"}},"type":"Feature"},
	{"geometry":{"coordinates":[9.937756,49.795478],"type":"Point"},"properties":{"osm_id":"311912032","tag":{"amenity":"recycling","recycling:clothes":"yes","recycling_type":"container"}},"type":"Feature"},
	{"geometry":{"coordinates":[9.977643,49.80274],"type":"Point"},"properties":{"osm_id":"312079843","tag":{"amenity":"recycling","recycling_type":"container"}},"type":"Feature"},
	{"geometry":{"coordinates":[9.945687,49.804548],"type":"Point"},"properties":{"osm_id":"312874275","tag":{"amenity":"recycling","mapillary":"oVktbjYSzguBCyyUwWYfwA","recycling:glass":"yes","recycling:waste":"yes","recycling_type":"container","survey:date":"2018-05-28"}},"type":"Feature"},
	{"geometry":{"coordinates":[9.952783,49.802659],"type":"Point"},"properties":{"osm_id":"312881991","tag":{"amenity":"recycling","recycling:clothes":"yes","recycling:glass":"yes"}},"type":"Feature"},
	{"geometry":{"coordinates":[9.944665,49.8022],"type":"Point"},"properties":{"osm_id":"312927432","tag":{"amenity":"recycling","location":"overground","recycling:glass":"yes","recycling_type":"container"}},"type":"Feature"},
	{"geometry":{"coordinates":[9.999617,49.786573],"type":"Point"},"properties":{"osm_id":"312968551","tag":{"amenity":"recycling","mapillary":"zoFuwuRGt7GSLjpItA9hgg","recycling:glass_bottles":"yes","recycling_type":"container","survey:date":"2018-07-12"}},"type":"Feature"},
	{"geometry":{"coordinates":[9.93392,49.792343],"type":"Point"},"properties":{"osm_id":"313110325","tag":{"amenity":"recycling","recycling:glass":"yes","recycling_type":"container"}},"type":"Feature"},
	{"geometry":{"coordinates":[9.935665,49.794431],"type":"Point"},"properties":{"osm_id":"313110842","tag":{"amenity":"recycling","recycling:glass":"yes","recycling_type":"container"}},"type":"Feature"},
	{"geometry":{"coordinates":[9.962093,49.811325],"type":"Point"},"properties":{"osm_id":"316529463","tag":{"amenity":"recycling","mapillary":"4grMkoEczWASFsLxeEcwxg","recycling:clothes":"yes","recycling_type":"container","survey:date":"2018-07-19"}},"type":"Feature"},
	{"geometry":{"coordinates":[9.961832,49.81074],"type":"Point"},"properties":{"osm_id":"316555255","tag":{"amenity":"recycling","mapillary":"xtQRLiB6jwnCGKO3HNCoqQ","recycling:glass":"no","recycling:glass_bottles":"yes","recycling_type":"container","survey:date":"2018-07-19"}},"type":"Feature"},
	{"geometry":{"coordinates":[9.956546,49.806561],"type":"Point"},"properties":{"osm_id":"316555323","tag":{"amenity":"recycling","location":"overground","mapillary":"eco9-YtPonG67d4RcqfKMQ","recycling:glass":"no","recycling:glass_bottles":"yes","recycling_type":"container","survey:date":"2019-08-26"}},"type":"Feature"},
	{"geometry":{"coordinates":[9.961684,49.81353],"type":"Point"},"properties":{"osm_id":"316910927","tag":{"amenity":"recycling","recycling:shoes":"yes","recycling_type":"container"}},"type":"Feature"},
	{"geometry":{"coordinates":[9.960948,49.804115],"type":"Point"},"properties":{"osm_id":"317112163","tag":{"amenity":"recycling","recycling:glass":"yes","recycling_type":"container"}},"type":"Feature"},
	{"geometry":{"coordinates":[9.966424,49.813349],"type":"Point"},"properties":{"osm_id":"317347579","tag":{"amenity":"recycling","recycling:clothes":"yes","recycling:glass":"yes"}},"type":"Feature"},
	{"geometry":{"coordinates":[9.959622,49.804782],"type":"Point"},"properties":{"osm_id":"317351157","tag":{"amenity":"recycling","mapillary":"tOptBGg5hDFwoQXHlATvZQ","recycling:glass":"no","recycling:glass_bottles":"yes","recycling_type":"container","survey:date":"2018-07-09"}},"type":"Feature"},
	{"geometry":{"coordinates":[9.965024,49.806049],"type":"Point"},"properties":{"osm_id":"317351162","tag":{"amenity":"recycling","mapillary":"lJKZjapEc4HI4EoLOtbjEw","recycling:clothes":"yes","recycling:glass":"no","recycling:glass_bottles":"yes","recycling_type":"container","survey:date":"2018-07-11"}},"type":"Feature"},
	{"geometry":{"coordinates":[9.964307,49.819438],"type":"Point"},"properties":{"osm_id":"338513068","tag":{"amenity":"recycling","mapillary":"c8oRT4pvKjTPgi9zPqos3w","recycling:clothes":"yes","recycling:glass":"no","recycling:glass_bottles":"yes","recycling_type":"container","survey:date":"2018-07-16"}},"type":"Feature"},
	{"geometry":{"coordinates":[9.946407,49.786746],"type":"Point"},"properties":{"osm_id":"344126413","tag":{"amenity":"recycling","location":"underground","recycling:clothes":"yes","recycling:glass_bottles":"yes","recycling:shoes":"yes","recycling_type":"container"}},"type":"Feature"},
	{"geometry":{"coordinates":[9.95011,49.794088],"type":"Point"},"properties":{"osm_id":"344126414","tag":{"amenity":"recycling","location":"overground","recycling:batteries":"no","recycling:cans":"no","recycling:clothes":"no","recycling:glass":"yes","recycling:paper":"no","recycling:scrap_metal":"no","recycling_type":"container"}},"type":"Feature"},
	{"geometry":{"coordinates":[9.946399,49.794822],"type":"Point"},"properties":{"osm_id":"344126417","tag":{"amenity":"recycling","recycling:glass":"yes","recycling_type":"container"}},"type":"Feature"},
	{"geometry":{"coordinates":[9.955039,49.820055],"type":"Point"},"properties":{"osm_id":"360849594","tag":{"amenity":"recycling"}},"type":"Feature"},
	{"geometry":{"coordinates":[9.93647,49.782775],"type":"Point"},"properties":{"osm_id":"367057563","tag":{"amenity":"recycling","mapillary":"RMAjTQgl7gfBKUG1If5skA","recycling:glass_bottles":"yes","recycling_type":"container","survey:date":"2018-04-28"}},"type":"Feature"},
	{"geometry":{"coordinates":[9.954388,49.801333],"type":"Point"},"properties":{"osm_id":"382399552","tag":{"amenity":"recycling","recycling:glass":"yes","recycling_type":"container"}},"type":"Feature"},
	{"geometry":{"coordinates":[9.958593,49.803596],"type":"Point"},"properties":{"osm_id":"382399701","tag":{"amenity":"recycling","recycling:glass":"yes","recycling:paper":"yes","recycling:scrap_metal":"yes"}},"type":"Feature"},
	{"geometry":{"coordinates":[9.995144,49.791391],"type":"Point"},"properties":{"osm_id":"387416571","tag":{"addr:housenumber":"24","addr:street":"Gattingerstra\u00c3\u009fe","amenity":"recycling","recycling:batteries":"yes","recycling:cans":"yes","recycling:clothes":"yes","recycling:glass":"yes","recycling:paper":"yes","recycling:scrap_metal":"yes","recycling_type":"centre"}},"type":"Feature"},
	{"geometry":{"coordinates":[9.978486,49.807121],"type":"Point"},"properties":{"osm_id":"388651455","tag":{"amenity":"recycling","recycling:clothes":"yes","recycling:shoes":"yes","recycling_type":"container"}},"type":"Feature"},
	{"geometry":{"coordinates":[9.977156,49.813193],"type":"Point"},"properties":{"osm_id":"388651459","tag":{"amenity":"recycling"}},"type":"Feature"},
	{"geometry":{"coordinates":[9.980976,49.813725],"type":"Point"},"properties":{"osm_id":"388651461","tag":{"amenity":"recycling","location":"overground","recycling_type":"container"}},"type":"Feature"},
	{"geometry":{"coordinates":[9.985229,49.81139],"type":"Point"},"properties":{"osm_id":"388651462","tag":{"amenity":"recycling","location":"overground","recycling_type":"container"}},"type":"Feature"},
	{"geometry":{"coordinates":[9.96654,49.784757],"type":"Point"},"properties":{"osm_id":"416009352","tag":{"amenity":"recycling","location":"overground","recycling:glass_bottles":"yes","recycling_type":"container"}},"type":"Feature"},
	{"geometry":{"coordinates":[10.005161,49.791245],"type":"Point"},"properties":{"barrier":"gate","osm_id":"429324537"},"type":"Feature"},
	{"geometry":{"coordinates":[9.932308,49.78528],"type":"Point"},"properties":{"osm_id":"429341473","tag":{"amenity":"recycling","location":"overground","mapillary":"LM5MuXw1uCNN0iHq7TBadA","recycling:clothes":"yes","recycling:glass":"no","recycling:glass_bottles":"yes","recycling_type":"container","survey:date":"2018-04-29"}},"type":"Feature"},
	{"geometry":{"coordinates":[10.006689,49.832578],"type":"Point"},"properties":{"osm_id":"528002333","tag":{"amenity":"recycling","recycling:clothes":"yes","recycling_type":"container"}},"type":"Feature"},
	{"geometry":{"coordinates":[9.949371,49.801726],"type":"Point"},"properties":{"osm_id":"632724871","tag":{"amenity":"waste_basket"}},"type":"Feature"},
	{"geometry":{"coordinates":[9.93191,49.795059],"type":"Point"},"properties":{"osm_id":"658812488","tag":{"amenity":"waste_basket"}},"type":"Feature"},
	{"geometry":{"coordinates":[9.934852,49.800992],"type":"Point"},"properties":{"osm_id":"680499021","tag":{"amenity":"waste_basket"}},"type":"Feature"},
	{"geometry":{"coordinates":[9.996214,49.790133],"type":"Point"},"properties":{"osm_id":"696986924","tag":{"amenity":"recycling","recycling:green_waste":"yes","recycling_type":"centre"}},"type":"Feature"},
	{"geometry":{"coordinates":[9.961724,49.793383],"type":"Point"},"properties":{"osm_id":"697032064","tag":{"amenity":"recycling","opening_hours":"Mo-Sa 07:00-19:00","recycling:glass_bottles":"yes","recycling_type":"container"}},"type":"Feature"},
	{"geometry":{"coordinates":[9.96231,49.793382],"type":"Point"},"properties":{"osm_id":"701281159","tag":{"amenity":"recycling","opening_hours":"Mo-Sa 07:00-19:00","recycling:glass_bottles":"yes","recycling_type":"container"}},"type":"Feature"},
	{"geometry":{"coordinates":[9.933846,49.798499],"type":"Point"},"properties":{"osm_id":"731596963","tag":{"amenity":"waste_basket"}},"type":"Feature"},
	{"geometry":{"coordinates":[9.945624,49.804015],"type":"Point"},"properties":{"osm_id":"763619057","tag":{"amenity":"waste_basket"}},"type":"Feature"},
	{"geometry":{"coordinates":[9.945644,49.804502],"type":"Point"},"properties":{"osm_id":"764521701","tag":{"amenity":"waste_basket"}},"type":"Feature"},
	{"geometry":{"coordinates":[9.950906,49.804407],"type":"Point"},"properties":{"osm_id":"764521702","tag":{"amenity":"waste_basket"}},"type":"Feature"},
	{"geometry":{"coordinates":[9.934078,49.798725],"type":"Point"},"properties":{"osm_id":"796478659","tag":{"amenity":"waste_basket"}},"type":"Feature"},
	{"geometry":{"coordinates":[9.934009,49.798744],"type":"Point"},"properties":{"osm_id":"796478723","tag":{"amenity":"waste_basket"}},"type":"Feature"},
	{"geometry":{"coordinates":[9.933717,49.798004],"type":"Point"},"properties":{"osm_id":"796478870","tag":{"amenity":"waste_basket"}},"type":"Feature"},
	{"geometry":{"coordinates":[9.934177,49.799069],"type":"Point"},"properties":{"osm_id":"796478896","tag":{"amenity":"waste_basket"}},"type":"Feature"},
	{"geometry":{"coordinates":[9.934216,49.79896],"type":"Point"},"properties":{"osm_id":"796478931","tag":{"amenity":"waste_basket"}},"type":"Feature"},
	{"geometry":{"coordinates":[9.934681,49.796128],"type":"Point"},"properties":{"osm_id":"800907867","tag":{"amenity":"waste_basket"}},"type":"Feature"},
	{"geometry":{"coordinates":[9.948729,49.790232],"type":"Point"},"properties":{"osm_id":"832498843","tag":{"amenity":"recycling","recycling:clothes":"yes","recycling:glass":"yes","recycling_type":"container"}},"type":"Feature"},
	{"geometry":{"coordinates":[9.948464,49.790914],"type":"Point"},"properties":{"osm_id":"832498856","tag":{"amenity":"waste_basket"}},"type":"Feature"},
	{"geometry":{"coordinates":[9.948699,49.791003],"type":"Point"},"properties":{"osm_id":"832498897","tag":{"amenity":"waste_basket"}},"type":"Feature"},
	{"geometry":{"coordinates":[9.94844,49.791193],"type":"Point"},"properties":{"osm_id":"832499012","tag":{"amenity":"waste_basket"}},"type":"Feature"},
	{"geometry":{"coordinates":[9.94573,49.789567],"type":"Point"},"properties":{"osm_id":"832499060","tag":{"amenity":"recycling","recycling:clothes":"yes","recycling:glass":"no","recycling:glass_bottles":"yes","recycling_type":"container"}},"type":"Feature"},
	{"geometry":{"coordinates":[9.948632,49.79114],"type":"Point"},"properties":{"osm_id":"832499064","tag":{"amenity":"waste_basket"}},"type":"Feature"},
	{"geometry":{"coordinates":[9.959287,49.796302],"type":"Point"},"properties":{"osm_id":"865301829","tag":{"amenity":"recycling","location":"overground","recycling:batteries":"no","recycling:cans":"no","recycling:clothes":"yes","recycling:glass_bottles":"yes","recycling:paper":"no","recycling:scrap_metal":"no","recycling_type":"container"}},"type":"Feature"},
	{"geometry":{"coordinates":[9.955331,49.784666],"type":"Point"},"properties":{"osm_id":"910523772","tag":{"amenity":"waste_basket"}},"type":"Feature"},
	{"geometry":{"coordinates":[9.956377,49.783208],"type":"Point"},"properties":{"osm_id":"910524535","tag":{"amenity":"waste_basket"}},"type":"Feature"},
	{"geometry":{"coordinates":[9.978003,49.80063],"type":"Point"},"properties":{"osm_id":"996566796","tag":{"amenity":"recycling","recycling:glass":"yes","recycling_type":"container"}},"type":"Feature"},
	{"geometry":{"coordinates":[9.942581,49.799193],"type":"Point"},"properties":{"osm_id":"999313077","tag":{"amenity":"waste_basket"}},"type":"Feature"},
	{"geometry":{"coordinates":[9.941844,49.799257],"type":"Point"},"properties":{"osm_id":"999313113","tag":{"amenity":"waste_basket"}},"type":"Feature"},
	{"geometry":{"coordinates":[9.932786,49.788921],"type":"Point"},"properties":{"osm_id":"1018280964","tag":{"amenity":"recycling","recycling:glass":"yes","recycling_type":"container"}},"type":"Feature"},
	{"geometry":{"coordinates":[9.958028,49.793006],"type":"Point"},"properties":{"osm_id":"1068243406","tag":{"amenity":"recycling","mapillary":"11pus5S_Zcm7MtgAnPFj8w","opening_hours":"Mo-Sa 07:00-19:00","recycling:glass":"no","recycling:glass_bottles":"yes","recycling_type":"container","survey:date":"2018-06-21"}},"type":"Feature"},
	{"geometry":{"coordinates":[9.954035,49.784936],"type":"Point"},"properties":{"osm_id":"1278183306","tag":{"amenity":"waste_basket"}},"type":"Feature"},
	{"geometry":{"coordinates":[9.953952,49.784966],"type":"Point"},"properties":{"osm_id":"1278183314","tag":{"amenity":"waste_basket"}},"type":"Feature"},
	{"geometry":{"coordinates":[9.953691,49.784746],"type":"Point"},"properties":{"osm_id":"1278183338","tag":{"amenity":"waste_basket"}},"type":"Feature"},
	{"geometry":{"coordinates":[9.959935,49.817785],"type":"Point"},"properties":{"osm_id":"1408920217","tag":{"amenity":"waste_basket"}},"type":"Feature"},
	{"geometry":{"coordinates":[9.974316,49.784772],"type":"Point"},"properties":{"osm_id":"1489882922","tag":{"amenity":"recycling","recycling:glass":"yes","recycling:glass_bottles":"yes","recycling_type":"container"}},"type":"Feature"},
	{"geometry":{"coordinates":[9.935902,49.79476],"type":"Point"},"properties":{"osm_id":"1507394026","tag":{"amenity":"waste_basket"}},"type":"Feature"},
	{"geometry":{"coordinates":[9.951948,49.802361],"type":"Point"},"properties":{"osm_id":"1949606892","tag":{"amenity":"waste_basket"}},"type":"Feature"},
	{"geometry":{"coordinates":[9.944009,49.790863],"type":"Point"},"properties":{"osm_id":"2268627730","tag":{"amenity":"waste_basket"}},"type":"Feature"},
	{"geometry":{"coordinates":[9.959873,49.785901],"type":"Point"},"properties":{"osm_id":"2268673090","tag":{"amenity":"waste_basket"}},"type":"Feature"},
	{"geometry":{"coordinates":[9.948076,49.79374],"type":"Point"},"properties":{"osm_id":"2274826183","tag":{"amenity":"waste_basket"}},"type":"Feature"},
	{"geometry":{"coordinates":[9.97208,49.81212],"type":"Point"},"properties":{"osm_id":"2284642997","tag":{"amenity":"recycling","mapillary":"LSdLlqtKMfDTByQecLQ1mQ","recycling:clothes":"yes","recycling:glass":"yes","recycling:glass_bottles":"yes","recycling:paper":"no","recycling_type":"container","survey:date":"2018-07-11"}},"type":"Feature"},
	{"geometry":{"coordinates":[9.975214,49.786142],"type":"Point"},"properties":{"osm_id":"2289209507","tag":{"amenity":"waste_basket"}},"type":"Feature"},
	{"geometry":{"coordinates":[9.992134,49.794578],"type":"Point"},"properties":{"barrier":"gate","osm_id":"2303575494"},"type":"Feature"},
	{"geometry":{"coordinates":[9.939965,49.798966],"type":"Point"},"properties":{"osm_id":"2428562871","tag":{"amenity":"recycling","recycling:glass_bottles":"yes","recycling_type":"container"}},"type":"Feature"},
	{"geometry":{"coordinates":[9.935462,49.799803],"type":"Point"},"properties":{"osm_id":"2428562875","tag":{"amenity":"waste_basket"}},"type":"Feature"},
	{"geometry":{"coordinates":[9.972452,49.793512],"type":"Point"},"properties":{"osm_id":"2505303661","tag":{"amenity":"waste_basket"}},"type":"Feature"},
	{"geometry":{"coordinates":[9.963094,49.792766],"type":"Point"},"properties":{"osm_id":"2732028499","tag":{"amenity":"waste_basket"}},"type":"Feature"},
	{"geometry":{"coordinates":[9.959594,49.792979],"type":"Point"},"properties":{"osm_id":"2750762242","tag":{"amenity":"waste_basket"}},"type":"Feature"},
	{"geometry":{"coordinates":[9.960243,49.793015],"type":"Point"},"properties":{"osm_id":"2750762244","tag":{"amenity":"waste_basket"}},"type":"Feature"},
	{"geometry":{"coordinates":[9.961759,49.793362],"type":"Point"},"properties":{"osm_id":"2750762275","tag":{"amenity":"waste_basket"}},"type":"Feature"},
	{"geometry":{"coordinates":[9.959658,49.79396],"type":"Point"},"properties":{"osm_id":"2750762307","tag":{"amenity":"waste_basket"}},"type":"Feature"},
	{"geometry":{"coordinates":[9.97851,49.807135],"type":"Point"},"properties":{"osm_id":"3201667340","tag":{"amenity":"recycling","opening_hours":"Mo-Sa 07:00-19:00; PH off","operator":"Sita Ost GmbH","recycling:glass_bottles":"yes","recycling_type":"container"}},"type":"Feature"},
	{"geometry":{"coordinates":[9.950729,49.799461],"type":"Point"},"properties":{"osm_id":"3562327454","tag":{"amenity":"recycling","recycling:clothes":"yes","recycling_type":"container"}},"type":"Feature"},
	{"geometry":{"coordinates":[9.950636,49.799419],"type":"Point"},"properties":{"osm_id":"3562327455","tag":{"amenity":"recycling","recycling:glass":"yes","recycling:glass_bottles":"yes","recycling_type":"container"}},"type":"Feature"},
	{"geometry":{"coordinates":[9.943939,49.797657],"type":"Point"},"properties":{"osm_id":"3562329734","tag":{"amenity":"recycling","recycling:glass":"yes","recycling:glass_bottles":"yes","recycling_type":"container"}},"type":"Feature"},
	{"geometry":{"coordinates":[9.996861,49.827118],"type":"Point"},"properties":{"osm_id":"3745249823","tag":{"amenity":"recycling","recycling:clothes":"yes","recycling_type":"container"}},"type":"Feature"},
	{"geometry":{"coordinates":[9.979928,49.814882],"type":"Point"},"properties":{"osm_id":"3745296714","tag":{"amenity":"waste_basket","lit":"yes"}},"type":"Feature"},
	{"geometry":{"coordinates":[9.979745,49.814976],"type":"Point"},"properties":{"osm_id":"3745296720","tag":{"amenity":"waste_basket"}},"type":"Feature"},
	{"geometry":{"coordinates":[9.979569,49.815051],"type":"Point"},"properties":{"osm_id":"3745296721","tag":{"amenity":"waste_basket"}},"type":"Feature"},
	{"geometry":{"coordinates":[9.979386,49.815138],"type":"Point"},"properties":{"osm_id":"3745296723","tag":{"amenity":"waste_basket"}},"type":"Feature"},
	{"geometry":{"coordinates":[9.979364,49.814335],"type":"Point"},"properties":{"osm_id":"3745404170","tag":{"amenity":"recycling","recycling:clothes":"yes","recycling_type":"container"}},"type":"Feature"},
	{"geometry":{"coordinates":[9.981483,49.815772],"type":"Point"},"properties":{"osm_id":"3745404177","tag":{"amenity":"recycling","recycling:clothes":"yes","recycling:shoes":"yes","recycling_type":"container"}},"type":"Feature"},
	{"geometry":{"coordinates":[9.934252,49.786477],"type":"Point"},"properties":{"osm_id":"3831454401","tag":{"amenity":"recycling","recycling:glass_bottles":"yes","recycling_type":"container"}},"type":"Feature"},
	{"geometry":{"coordinates":[9.982939,49.785076],"type":"Point"},"properties":{"osm_id":"3903124592","tag":{"amenity":"recycling","recycling_type":"container"}},"type":"Feature"},
	{"geometry":{"coordinates":[9.935552,49.801338],"type":"Point"},"properties":{"osm_id":"3914964184","tag":{"amenity":"waste_basket"}},"type":"Feature"},
	{"geometry":{"coordinates":[9.935472,49.801236],"type":"Point"},"properties":{"osm_id":"3914964228","tag":{"amenity":"waste_basket"}},"type":"Feature"},
	{"geometry":{"coordinates":[9.934758,49.799798],"type":"Point"},"properties":{"osm_id":"3914964230","tag":{"amenity":"waste_basket"}},"type":"Feature"},
	{"geometry":{"coordinates":[9.934868,49.800238],"type":"Point"},"properties":{"osm_id":"3914964427","tag":{"amenity":"waste_basket"}},"type":"Feature"},
	{"geometry":{"coordinates":[9.9323,49.785123],"type":"Point"},"properties":{"osm_id":"3979848734","tag":{"amenity":"recycling","opening_hours":"24/7","recycling:shoes":"yes","recycling_type":"container"}},"type":"Feature"},
	{"geometry":{"coordinates":[9.963448,49.790079],"type":"Point"},"properties":{"osm_id":"4269103078","tag":{"amenity":"recycling","recycling:glass":"yes","recycling_type":"container"}},"type":"Feature"},
	{"geometry":{"coordinates":[9.977541,49.806457],"type":"Point"},"properties":{"osm_id":"4470266299","tag":{"amenity":"waste_disposal"}},"type":"Feature"},
	{"geometry":{"coordinates":[9.944786,49.789064],"type":"Point"},"properties":{"osm_id":"4519160220","tag":{"amenity":"recycling","recycling:clothes":"yes","recycling_type":"container"}},"type":"Feature"},
	{"geometry":{"coordinates":[9.944797,49.789073],"type":"Point"},"properties":{"osm_id":"4519160222","tag":{"amenity":"recycling","recycling:glass_bottles":"yes","recycling_type":"container"}},"type":"Feature"},
	{"geometry":{"coordinates":[9.971465,49.791296],"type":"Point"},"properties":{"osm_id":"4642449284","tag":{"amenity":"recycling","recycling:glass":"yes","recycling_type":"container"}},"type":"Feature"},
	{"geometry":{"coordinates":[9.931714,49.798269],"type":"Point"},"properties":{"osm_id":"4815329122","tag":{"amenity":"waste_basket"}},"type":"Feature"},
	{"geometry":{"coordinates":[9.931669,49.798672],"type":"Point"},"properties":{"osm_id":"4815329166","tag":{"amenity":"waste_basket"}},"type":"Feature"},
	{"geometry":{"coordinates":[9.951187,49.787064],"type":"Point"},"properties":{"osm_id":"4832659559","tag":{"amenity":"recycling","recycling:glass":"yes","recycling_type":"container"}},"type":"Feature"},
	{"geometry":{"coordinates":[9.932852,49.790985],"type":"Point"},"properties":{"osm_id":"4876112127","tag":{"amenity":"waste_basket"}},"type":"Feature"},
	{"geometry":{"coordinates":[9.932419,49.79064],"type":"Point"},"properties":{"osm_id":"4876112128","tag":{"amenity":"waste_basket"}},"type":"Feature"},
	{"geometry":{"coordinates":[9.932427,49.79063],"type":"Point"},"properties":{"osm_id":"4876112129","tag":{"amenity":"waste_basket"}},"type":"Feature"},
	{"geometry":{"coordinates":[9.932881,49.790616],"type":"Point"},"properties":{"osm_id":"4876112130","tag":{"amenity":"waste_basket"}},"type":"Feature"},
	{"geometry":{"coordinates":[9.941348,49.801965],"type":"Point"},"properties":{"osm_id":"5271938146","tag":{"amenity":"recycling","recycling:glass":"yes","recycling_type":"container"}},"type":"Feature"},
	{"geometry":{"coordinates":[10.019262,49.827387],"type":"Point"},"properties":{"osm_id":"6680632342","tag":{"amenity":"waste_basket"}},"type":"Feature"},
	{"geometry":{"coordinates":[10.01439,49.827006],"type":"Point"},"properties":{"osm_id":"6680632343","tag":{"amenity":"waste_basket"}},"type":"Feature"},
	{"geometry":{"coordinates":[10.007305,49.824684],"type":"Point"},"properties":{"osm_id":"6680632344","tag":{"amenity":"waste_basket"}},"type":"Feature"},
	{"geometry":{"coordinates":[10.004474,49.829411],"type":"Point"},"properties":{"osm_id":"6780170331","tag":{"amenity":"recycling","recycling:clothes":"yes","recycling_type":"container"}},"type":"Feature"},
	{"geometry":{"coordinates":[10.006374,49.826287],"type":"Point"},"properties":{"osm_id":"6780170332","tag":{"amenity":"recycling","recycling:clothes":"yes","recycling:glass_bottles":"yes","recycling_type":"container"}},"type":"Feature"},
	{"geometry":{"coordinates":[10.007427,49.830827],"type":"Point"},"properties":{"osm_id":"6780170333","tag":{"amenity":"waste_basket"}},"type":"Feature"},
	{"geometry":{"coordinates":[10.007188,49.82986],"type":"Point"},"properties":{"osm_id":"6780170335","tag":{"amenity":"waste_basket"}},"type":"Feature"},
	{"geometry":{"coordinates":[9.93363,49.786962],"type":"Point"},"properties":{"osm_id":"6784867876","tag":{"amenity":"waste_basket"}},"type":"Feature"},
	{"geometry":{"coordinates":[9.952084,49.802428],"type":"Point"},"properties":{"osm_id":"6801526646","tag":{"amenity":"recycling","contact:phone":"+49 8001889966","contact:website":"https://www.suez-deutschland.de","opening_hours":"07:00-19:00","operator":"suez","recycling:glass_bottles":"yes","recycling_type":"container"}},"type":"Feature"},
	{"geometry":{"coordinates":[9.952112,49.80242],"type":"Point"},"properties":{"osm_id":"6801537739","tag":{"amenity":"recycling","contact:email":"bdkj@bistum-wuerzburg.de","contact:fax":"+49 931 38663129","contact:phone":"+49 931 38663141","contact:website":"https://www.bdkj-wuerzburg.de/","opening_hours":"24/7","operator":"BDKJ-Di\u00c3\u00b6zesanverband W\u00c3\u00bcrzburg","recycling:clothes":"yes","recycling:shoes":"yes","recycling_type":"container"}},"type":"Feature"},
	{"geometry":{"coordinates":[9.995354,49.8155],"type":"Point"},"properties":{"osm_id":"6853965308","tag":{"amenity":"waste_basket","waste":"trash"}},"type":"Feature"},
	{"geometry":{"coordinates":[9.998022,49.816929],"type":"Point"},"properties":{"osm_id":"6853965312","tag":{"amenity":"waste_basket","waste":"trash"}},"type":"Feature"},
	{"geometry":{"coordinates":[10.006698,49.823248],"type":"Point"},"properties":{"osm_id":"6860966989","tag":{"amenity":"waste_basket","waste":"dog_excrement"}},"type":"Feature"},
	{"geometry":{"coordinates":[10.006341,49.82161],"type":"Point"},"properties":{"osm_id":"6874156982","tag":{"amenity":"waste_basket","waste":"trash"}},"type":"Feature"},
	{"geometry":{"coordinates":[9.99723,49.833129],"type":"Point"},"properties":{"osm_id":"6877462681","tag":{"amenity":"waste_basket","waste":"dog_excrement"}},"type":"Feature"},
	{"geometry":{"coordinates":[10.008315,49.833677],"type":"Point"},"properties":{"osm_id":"6880993954","tag":{"amenity":"waste_basket","waste":"dog_excrement"}},"type":"Feature"},
	{"geometry":{"coordinates":[10.01217,49.832718],"type":"Point"},"properties":{"osm_id":"6880993958","tag":{"amenity":"waste_basket","waste":"dog_excrement"}},"type":"Feature"},
	{"geometry":{"coordinates":[10.011583,49.830378],"type":"Point"},"properties":{"osm_id":"6880993962","tag":{"amenity":"recycling","recycling:clothes":"yes","recycling:glass_bottles":"yes","recycling:shoes":"yes","recycling_type":"centre"}},"type":"Feature"},
	{"geometry":{"coordinates":[9.992427,49.814698],"type":"Point"},"properties":{"osm_id":"6885533151","tag":{"amenity":"waste_basket","waste":"trash"}},"type":"Feature"},
	{"geometry":{"coordinates":[9.99109,49.814209],"type":"Point"},"properties":{"osm_id":"6885533153","tag":{"amenity":"waste_basket","waste":"dog_excrement"}},"type":"Feature"},
	{"geometry":{"coordinates":[10.008145,49.821819],"type":"Point"},"properties":{"osm_id":"6885613221","tag":{"amenity":"waste_basket","waste":"trash"}},"type":"Feature"},
	{"geometry":{"coordinates":[10.014489,49.828536],"type":"Point"},"properties":{"osm_id":"6902350982","tag":{"amenity":"waste_basket","waste":"dog_excrement"}},"type":"Feature"},
	{"geometry":{"coordinates":[9.969424,49.792055],"type":"Point"},"properties":{"osm_id":"6919952317","tag":{"amenity":"waste_basket"}},"type":"Feature"},
	{"geometry":{"coordinates":[9.932557,49.786628],"type":"Point"},"properties":{"osm_id":"6934535470","tag":{"amenity":"waste_basket"}},"type":"Feature"},
	{"geometry":{"coordinates":[9.938982,49.78889],"type":"Point"},"properties":{"osm_id":"6935206813","tag":{"amenity":"waste_basket"}},"type":"Feature"},
	{"geometry":{"coordinates":[9.947174,49.788819],"type":"Point"},"properties":{"osm_id":"6935230640","tag":{"amenity":"recycling","contact:phone":"+49 177 2577665","operator":"Containerdienst 33 Gr\u00c3\u00bcn - Tex","recycling:shoes":"yes","recycling_type":"container"}},"type":"Feature"},
	{"geometry":{"coordinates":[9.949859,49.787625],"type":"Point"},"properties":{"osm_id":"6935744593","tag":{"amenity":"recycling","contact:phone":"+49 177 2577665","operator":"Containerdienst 33 Gr\u00c3\u00bcn - Tex","recycling:shoes":"yes","recycling_type":"container"}},"type":"Feature"},
	{"geometry":{"coordinates":[10.015099,49.833172],"type":"Point"},"properties":{"osm_id":"7273910266","tag":{"amenity":"waste_basket","waste":"trash"}},"type":"Feature"},
	{"geometry":{"coordinates":[9.939231,49.788628],"type":"Point"},"properties":{"osm_id":"7683204075","tag":{"amenity":"waste_basket","material":"steel","waste":"trash"}},"type":"Feature"},
	{"geometry":{"coordinates":[9.938583,49.788239],"type":"Point"},"properties":{"osm_id":"7683207964","tag":{"amenity":"waste_basket","material":"steel","waste":"trash"}},"type":"Feature"},
	{"geometry":{"coordinates":[9.937075,49.788352],"type":"Point"},"properties":{"osm_id":"7683207967","tag":{"amenity":"waste_basket","material":"steel","waste":"trash"}},"type":"Feature"},
	{"geometry":{"coordinates":[9.943715,49.794406],"type":"Point"},"properties":{"osm_id":"7685221246","tag":{"amenity":"waste_basket","material":"steel","waste":"trash"}},"type":"Feature"},
	{"geometry":{"coordinates":[9.941937,49.791092],"type":"Point"},"properties":{"osm_id":"7695622206","tag":{"amenity":"waste_basket","material":"steel","waste":"trash"}},"type":"Feature"},
	{"geometry":{"coordinates":[9.941768,49.789539],"type":"Point"},"properties":{"osm_id":"7695702070","tag":{"amenity":"waste_basket","material":"steel","waste":"trash"}},"type":"Feature"},
	{"geometry":{"coordinates":[9.941735,49.789529],"type":"Point"},"properties":{"osm_id":"7695702073","tag":{"amenity":"waste_basket","material":"steel","waste":"trash"}},"type":"Feature"},
	{"geometry":{"coordinates":[9.940578,49.789404],"type":"Point"},"properties":{"osm_id":"7695702080","tag":{"amenity":"waste_basket","material":"steel","waste":"trash"}},"type":"Feature"},
	{"geometry":{"coordinates":[9.937018,49.787632],"type":"Point"},"properties":{"osm_id":"7695719285","tag":{"amenity":"waste_basket","material":"steel","waste":"trash"}},"type":"Feature"},
	{"geometry":{"coordinates":[9.937134,49.787183],"type":"Point"},"properties":{"osm_id":"7695719289","tag":{"amenity":"waste_basket","material":"steel","waste":"trash"}},"type":"Feature"},
	{"geometry":{"coordinates":[9.936123,49.787833],"type":"Point"},"properties":{"osm_id":"7695719295","tag":{"amenity":"waste_basket","material":"steel","waste":"trash"}},"type":"Feature"},
	{"geometry":{"coordinates":[9.934402,49.786442],"type":"Point"},"properties":{"osm_id":"7695719298","tag":{"amenity":"waste_basket","waste":"trash"}},"type":"Feature"},
	{"geometry":{"coordinates":[9.934056,49.78644],"type":"Point"},"properties":{"osm_id":"7695719299","tag":{"amenity":"waste_basket","material":"steel","waste":"trash"}},"type":"Feature"},
	{"geometry":{"coordinates":[9.932506,49.786138],"type":"Point"},"properties":{"osm_id":"7695719305","tag":{"amenity":"waste_basket","material":"steel","waste":"trash"}},"type":"Feature"},
	{"geometry":{"coordinates":[9.932172,49.786484],"type":"Point"},"properties":{"osm_id":"7695719310","tag":{"amenity":"waste_basket","material":"steel","waste":"trash"}},"type":"Feature"},
	{"geometry":{"coordinates":[9.932424,49.786547],"type":"Point"},"properties":{"osm_id":"7695719314","tag":{"amenity":"waste_basket","material":"steel","waste":"trash"}},"type":"Feature"},
	{"geometry":{"coordinates":[9.932763,49.786619],"type":"Point"},"properties":{"osm_id":"7695719316","tag":{"amenity":"waste_basket","material":"steel","waste":"trash"}},"type":"Feature"},
	{"geometry":{"coordinates":[9.9332,49.786756],"type":"Point"},"properties":{"osm_id":"7695719317","tag":{"amenity":"waste_basket","material":"steel","waste":"trash"}},"type":"Feature"},
	{"geometry":{"coordinates":[9.934312,49.78709],"type":"Point"},"properties":{"osm_id":"7695719320","tag":{"amenity":"waste_basket","material":"steel","waste":"trash"}},"type":"Feature"},
	{"geometry":{"coordinates":[9.935416,49.787563],"type":"Point"},"properties":{"osm_id":"7695719322","tag":{"amenity":"waste_basket","material":"steel","waste":"trash"}},"type":"Feature"},
	{"geometry":{"coordinates":[9.97432,49.790402],"type":"Point"},"properties":{"osm_id":"7941669766","tag":{"amenity":"waste_basket"}},"type":"Feature"},
	{"geometry":{"coordinates":[9.990211,49.803127],"type":"Point"},"properties":{"osm_id":"7947914152","tag":{"amenity":"recycling","recycling:glass_bottles":"yes","recycling_type":"container"}},"type":"Feature"}
]
}
