{
"type": "FeatureCollection",
"features": [
	{"geometry":{"coordinates":[9.982889,49.755877],"type":"Point"},"properties":{"barrier":"gate","osm_id":"32975664"},"type":"Feature"},
	{"geometry":{"coordinates":[10.016565,49.752527],"type":"Point"},"properties":{"osm_id":"240204208","tag":{"amenity":"recycling","recycling:glass_bottles":"yes","recycling_type":"container"}},"type":"Feature"},
	{"geometry":{"coordinates":[9.946629,49.769752],"type":"Point"},"properties":{"osm_id":"247376501","tag":{"amenity":"recycling","recycling:glass_bottles":"yes","recycling_type":"container"}},"type":"Feature"},
	{"geometry":{"coordinates":[9.944305,49.780416],"type":"Point"},"properties":{"osm_id":"248303474","tag":{"amenity":"recycling","location":"overground","recycling:clothes":"yes","recycling:glass_bottles":"yes","recycling:shoes":"yes","recycling_type":"container"}},"type":"Feature"},
	{"geometry":{"coordinates":[9.942426,49.772141],"type":"Point"},"properties":{"osm_id":"273504358","tag":{"amenity":"recycling","contact:phone":"+49 800 1889966","mapillary":"jA4HQ3Dhq9AvIir6YPeZKw","opening_hours":"Mo-Sa 07:00-19:00;Su, PH off","operator":"suez","recycling:glass_bottles":"yes","recycling_type":"container","survey:date":"2018-06-19"}},"type":"Feature"},
	{"geometry":{"coordinates":[9.949751,49.764884],"type":"Point"},"properties":{"osm_id":"281031323","tag":{"amenity":"recycling","location":"overground","mapillary":"Q1KPaHVsy8aOVCRth683vw","recycling:glass":"no","recycling:glass_bottles":"yes","recycling_type":"container","survey:date":"2018-07-04"}},"type":"Feature"},
	{"geometry":{"coordinates":[9.952689,49.761492],"type":"Point"},"properties":{"osm_id":"281185997","tag":{"amenity":"recycling","mapillary":"ebKXL1bqMzqHmwJfyhIDAQ","recycling:glass":"no","recycling:glass_bottles":"yes","recycling_type":"container","survey:date":"2018-07-04"}},"type":"Feature"},
	{"geometry":{"coordinates":[9.949002,49.761381],"type":"Point"},"properties":{"osm_id":"281186028","tag":{"amenity":"recycling","contact:phone":"+49 800 1889966","contact:website":"https://www.suez-deutschland.de","location":"overground","opening_hours":"Mo-Sa 07:00-19:00; Su, PH off","operator":"suez","recycling:glass_bottles":"yes","recycling_type":"container"}},"type":"Feature"},
	{"geometry":{"coordinates":[9.942026,49.75887],"type":"Point"},"properties":{"osm_id":"287700849","tag":{"amenity":"recycling","location":"overground","recycling:glass":"yes","recycling_type":"container"}},"type":"Feature"},
	{"geometry":{"coordinates":[9.941981,49.758851],"type":"Point"},"properties":{"osm_id":"287700851","tag":{"amenity":"recycling","location":"overground","recycling:clothes":"yes","recycling_type":"container"}},"type":"Feature"},
	{"geometry":{"coordinates":[9.935962,49.776255],"type":"Point"},"properties":{"osm_id":"287764879","tag":{"amenity":"recycling","mapillary":"41Q9OtbwzV7fe9Hf26g0vA","recycling:glass":"no","recycling:glass_bottles":"yes","recycling_type":"container","survey:date":"2018-04-29"}},"type":"Feature"},
	{"geometry":{"coordinates":[9.935868,49.776475],"type":"Point"},"properties":{"osm_id":"287764880","tag":{"amenity":"recycling","mapillary":"bK4m8SQQ_4iB5SFSS6eyiw","recycling:clothes":"yes","recycling:shoes":"yes","recycling_type":"container","survey:date":"2018-04-29"}},"type":"Feature"},
	{"geometry":{"coordinates":[9.940959,49.776716],"type":"Point"},"properties":{"osm_id":"287764881","tag":{"amenity":"recycling","location":"overground","recycling:glass":"yes","recycling_type":"container"}},"type":"Feature"},
	{"geometry":{"coordinates":[9.963731,49.780658],"type":"Point"},"properties":{"osm_id":"290155674","tag":{"amenity":"recycling","recycling:glass":"no","recycling:glass_bottles":"yes","recycling_type":"container"}},"type":"Feature"},
	{"geometry":{"coordinates":[9.955366,49.778362],"type":"Point"},"properties":{"osm_id":"290200012","tag":{"amenity":"recycling","mapillary":"HltTsBPxaCDRFmQztG1HGA","recycling:clothes":"yes","recycling:glass":"no","recycling:glass_bottles":"yes","recycling_type":"container","survey:date":"2018-06-15"}},"type":"Feature"},
	{"geometry":{"coordinates":[9.966805,49.725004],"type":"Point"},"properties":{"osm_id":"304630858","tag":{"amenity":"recycling","recycling:glass_bottles":"yes","recycling_type":"container"}},"type":"Feature"},
	{"geometry":{"coordinates":[9.956618,49.735566],"type":"Point"},"properties":{"osm_id":"304638339","tag":{"amenity":"recycling","contact:phone":"+49 800 1889966","contact:website":"https://www.suez-deutschland.de","opening_hours":"Mo-Sa 07:00-19:00","operator":"suez","recycling:glass_bottles":"yes","recycling_type":"container"}},"type":"Feature"},
	{"geometry":{"coordinates":[9.962841,49.739692],"type":"Point"},"properties":{"osm_id":"304648582","tag":{"amenity":"recycling","contact:phone":"+49 800 1889966","contact:website":"https://www.suez-deutschland.de/","opening_hours":"Mo-Sa 07:00-19:00; Su,PH off","operator":"suez","recycling:glass_bottles":"yes","recycling_type":"container"}},"type":"Feature"},
	{"geometry":{"coordinates":[9.933422,49.764161],"type":"Point"},"properties":{"osm_id":"361522399","tag":{"amenity":"recycling","location":"overground","recycling:glass_bottles":"yes","recycling_type":"container"}},"type":"Feature"},
	{"geometry":{"coordinates":[9.932996,49.763802],"type":"Point"},"properties":{"osm_id":"361522401","tag":{"amenity":"recycling","location":"overground","recycling:clothes":"yes","recycling:shoes":"yes","recycling_type":"container"}},"type":"Feature"},
	{"geometry":{"coordinates":[9.962322,49.729683],"type":"Point"},"properties":{"name":"Wertstoffhof Edith-Stein-Str. 7","osm_id":"412265123","tag":{"amenity":"recycling","recycling:batteries":"yes","recycling:books":"yes","recycling:cans":"yes","recycling:cardboard":"yes","recycling:cartons":"yes","recycling:clothes":"yes","recycling:electrical_appliances":"yes","recycling:glass":"yes","recycling:glass_bottles":"yes","recycling:green_waste":"yes","recycling:magazines":"yes","recycling:newspaper":"yes","recycling:paper":"yes","recycling:paper_packaging":"yes","recycling:plastic":"yes","recycling:plastic_bottles":"yes","recycling:plastic_packaging":"yes","recycling:scrap_metal":"yes","recycling:small_appliances":"yes","recycling:waste":"yes","recycling:wood":"yes","recycling_type":"centre"}},"type":"Feature"},
	{"geometry":{"coordinates":[9.940137,49.769242],"type":"Point"},"properties":{"osm_id":"418861152","tag":{"amenity":"recycling","recycling:glass_bottles":"yes","recycling_type":"container"}},"type":"Feature"},
	{"geometry":{"coordinates":[9.989148,49.776437],"type":"Point"},"properties":{"osm_id":"482845938","tag":{"amenity":"recycling","mapillary":"2Vy6mClQJ7ruWY7SQKzt4g","recycling:clothes":"yes","recycling:glass_bottles":"yes","recycling:shoes":"yes","recycling_type":"container","survey:date":"2018-07-10"}},"type":"Feature"},
	{"geometry":{"coordinates":[9.960577,49.77637],"type":"Point"},"properties":{"osm_id":"677595351","tag":{"amenity":"recycling","mapillary":"rDDrHUpB1O7UVcGUTVNLbg","opening_hours":"Mo-Sa 07:00-19:00","recycling:glass_bottles":"yes","recycling_type":"container","survey:date":"2018-06-15"}},"type":"Feature"},
	{"geometry":{"coordinates":[9.95457,49.774979],"type":"Point"},"properties":{"osm_id":"677595352","tag":{"amenity":"recycling","recycling:shoes":"yes","recycling_type":"container"}},"type":"Feature"},
	{"geometry":{"coordinates":[9.957362,49.775337],"type":"Point"},"properties":{"osm_id":"688005023","tag":{"amenity":"recycling","mapillary":"BzJayMgKUKWtoVd-LbNlVw","recycling:glass_bottles":"yes","recycling:shoes":"yes","recycling_type":"container","survey:date":"2018-06-15"}},"type":"Feature"},
	{"geometry":{"coordinates":[9.954447,49.771544],"type":"Point"},"properties":{"osm_id":"688005067","tag":{"amenity":"waste_basket"}},"type":"Feature"},
	{"geometry":{"coordinates":[9.953619,49.772908],"type":"Point"},"properties":{"osm_id":"688005087","tag":{"amenity":"waste_basket"}},"type":"Feature"},
	{"geometry":{"coordinates":[9.953613,49.773407],"type":"Point"},"properties":{"osm_id":"688005114","tag":{"amenity":"waste_basket"}},"type":"Feature"},
	{"geometry":{"coordinates":[9.954271,49.771677],"type":"Point"},"properties":{"osm_id":"688005133","tag":{"amenity":"waste_basket"}},"type":"Feature"},
	{"geometry":{"coordinates":[9.941953,49.762514],"type":"Point"},"properties":{"osm_id":"778438960","tag":{"amenity":"recycling","mapillary":"KNWbGx3EZKkqKHn-Zv1jHA","recycling:clothes":"yes","recycling:glass_bottles":"yes","recycling:shoes":"yes","recycling_type":"container","survey:date":"2018-06-26"}},"type":"Feature"},
	{"geometry":{"coordinates":[9.957542,49.745455],"type":"Point"},"properties":{"osm_id":"811101759","tag":{"amenity":"waste_basket"}},"type":"Feature"},
	{"geometry":{"coordinates":[9.953311,49.749555],"type":"Point"},"properties":{"osm_id":"811519460","tag":{"amenity":"waste_basket"}},"type":"Feature"},
	{"geometry":{"coordinates":[9.961978,49.747894],"type":"Point"},"properties":{"osm_id":"811653863","tag":{"amenity":"waste_basket"}},"type":"Feature"},
	{"geometry":{"coordinates":[9.962407,49.74676],"type":"Point"},"properties":{"osm_id":"811653909","tag":{"amenity":"waste_basket"}},"type":"Feature"},
	{"geometry":{"coordinates":[9.963629,49.74842],"type":"Point"},"properties":{"osm_id":"811654019","tag":{"amenity":"waste_basket"}},"type":"Feature"},
	{"geometry":{"coordinates":[9.963758,49.748311],"type":"Point"},"properties":{"osm_id":"811654051","tag":{"amenity":"waste_basket"}},"type":"Feature"},
	{"geometry":{"coordinates":[9.963515,49.743396],"type":"Point"},"properties":{"osm_id":"811780575","tag":{"amenity":"waste_basket"}},"type":"Feature"},
	{"geometry":{"coordinates":[9.962142,49.741604],"type":"Point"},"properties":{"osm_id":"811780713","tag":{"amenity":"recycling","contact:phone":"+49 800 1889966","contact:website":"https://www.suez-deutschland.de/","opening_hours":"Mo-Sa 07:00-19:00; PH,Su off","operator":"suez","recycling:glass_bottles":"yes","recycling_type":"container"}},"type":"Feature"},
	{"geometry":{"coordinates":[9.952661,49.735223],"type":"Point"},"properties":{"osm_id":"811821740","tag":{"amenity":"waste_basket"}},"type":"Feature"},
	{"geometry":{"coordinates":[9.952911,49.735102],"type":"Point"},"properties":{"osm_id":"811821790","tag":{"amenity":"waste_basket"}},"type":"Feature"},
	{"geometry":{"coordinates":[9.960075,49.738723],"type":"Point"},"properties":{"osm_id":"820860670","tag":{"amenity":"recycling","contact:phone":"+49 800 1889966","opening_hours":"Mo-Sa 07:00-19:00; Su, PH off","operator":"suez","recycling:glass_bottles":"yes","recycling_type":"container"}},"type":"Feature"},
	{"geometry":{"coordinates":[9.97005,49.754226],"type":"Point"},"properties":{"osm_id":"844625339","tag":{"amenity":"waste_basket"}},"type":"Feature"},
	{"geometry":{"coordinates":[9.972577,49.755841],"type":"Point"},"properties":{"osm_id":"844625380","tag":{"amenity":"waste_basket"}},"type":"Feature"},
	{"geometry":{"coordinates":[9.934909,49.779477],"type":"Point"},"properties":{"osm_id":"986679896","tag":{"amenity":"recycling","mapillary":"bHuasgSEO-Cpeij2SR_fGw","recycling:glass":"no","recycling:glass_bottles":"yes","recycling_type":"container","survey:date":"2018-04-28"}},"type":"Feature"},
	{"geometry":{"coordinates":[9.936331,49.778016],"type":"Point"},"properties":{"osm_id":"993609948","tag":{"amenity":"recycling","mapillary":"ZsJY0QemcZFfa0PFQwp_Wg","recycling:glass":"no","recycling:glass_bottles":"yes","recycling_type":"container","survey:date":"2018-04-29"}},"type":"Feature"},
	{"geometry":{"coordinates":[9.939681,49.774815],"type":"Point"},"properties":{"osm_id":"993609952","tag":{"amenity":"recycling","location":"overground","recycling:glass":"yes","recycling_type":"container"}},"type":"Feature"},
	{"geometry":{"coordinates":[9.953331,49.771474],"type":"Point"},"properties":{"osm_id":"1318465591","tag":{"amenity":"waste_basket"}},"type":"Feature"},
	{"geometry":{"coordinates":[9.995857,49.780725],"type":"Point"},"properties":{"osm_id":"1657827569","tag":{"amenity":"waste_basket"}},"type":"Feature"},
	{"geometry":{"coordinates":[9.937533,49.774767],"type":"Point"},"properties":{"osm_id":"1692162268","tag":{"amenity":"recycling","mapillary":"Kpv-ZbXyty-Z5doJdUOUfA","recycling:glass":"no","recycling:glass_bottles":"yes","recycling_type":"container","survey:date":"2018-04-29"}},"type":"Feature"},
	{"geometry":{"coordinates":[9.958316,49.738026],"type":"Point"},"properties":{"osm_id":"1710330331","tag":{"amenity":"recycling","recycling:shoes":"yes","recycling_type":"container"}},"type":"Feature"},
	{"geometry":{"coordinates":[9.958324,49.738028],"type":"Point"},"properties":{"osm_id":"1710330337","tag":{"amenity":"recycling","recycling:clothes":"yes","recycling:shoes":"yes","recycling_type":"container"}},"type":"Feature"},
	{"geometry":{"coordinates":[9.956394,49.738479],"type":"Point"},"properties":{"osm_id":"1714329930","tag":{"amenity":"recycling","contact:phone":"+49 800 1889966","contact:website":"https://www.suez-deutschland.de","opening_hours":"Mo-Sa 07:00-19:00","operator":"suez","recycling:glass_bottles":"yes","recycling_type":"container"}},"type":"Feature"},
	{"geometry":{"coordinates":[9.957072,49.741531],"type":"Point"},"properties":{"osm_id":"1722405611","tag":{"amenity":"waste_basket"}},"type":"Feature"},
	{"geometry":{"coordinates":[9.956924,49.741607],"type":"Point"},"properties":{"osm_id":"1722405674","tag":{"amenity":"waste_basket"}},"type":"Feature"},
	{"geometry":{"coordinates":[9.957207,49.741636],"type":"Point"},"properties":{"osm_id":"1722405675","tag":{"amenity":"waste_basket"}},"type":"Feature"},
	{"geometry":{"coordinates":[9.956769,49.741655],"type":"Point"},"properties":{"osm_id":"1722405677","tag":{"amenity":"waste_basket"}},"type":"Feature"},
	{"geometry":{"coordinates":[9.960525,49.738844],"type":"Point"},"properties":{"osm_id":"1725041242","tag":{"amenity":"waste_basket"}},"type":"Feature"},
	{"geometry":{"coordinates":[9.960402,49.738912],"type":"Point"},"properties":{"osm_id":"1725041268","tag":{"amenity":"waste_basket"}},"type":"Feature"},
	{"geometry":{"coordinates":[9.959241,49.737466],"type":"Point"},"properties":{"osm_id":"1734637590","tag":{"amenity":"recycling","contact:email":"info@arche-wuerzburg.de","contact:phone":"+49 931 600640","operator":"Arche, Moskauer Ring 1, 97084 W\u00c3\u00bcrzburg","recycling:clothes":"yes","recycling:shoes":"yes","recycling_type":"container"}},"type":"Feature"},
	{"geometry":{"coordinates":[9.963199,49.7377],"type":"Point"},"properties":{"osm_id":"1747011283","tag":{"amenity":"recycling","recycling:clothes":"yes","recycling_type":"container"}},"type":"Feature"},
	{"geometry":{"coordinates":[9.970651,49.725117],"type":"Point"},"properties":{"osm_id":"1960338063","tag":{"amenity":"recycling","recycling:glass_bottles":"yes","recycling_type":"container"}},"type":"Feature"},
	{"geometry":{"coordinates":[9.99203,49.730907],"type":"Point"},"properties":{"barrier":"entrance","osm_id":"3259530535"},"type":"Feature"},
	{"geometry":{"coordinates":[9.992228,49.731255],"type":"Point"},"properties":{"barrier":"entrance","osm_id":"3259530536"},"type":"Feature"},
	{"geometry":{"coordinates":[9.980589,49.761144],"type":"Point"},"properties":{"osm_id":"3665641479","tag":{"amenity":"recycling","recycling:green_waste":"yes"}},"type":"Feature"},
	{"geometry":{"coordinates":[9.982499,49.755669],"type":"Point"},"properties":{"osm_id":"3728161654","tag":{"amenity":"recycling","recycling:clothes":"yes","recycling_type":"container"}},"type":"Feature"},
	{"geometry":{"coordinates":[9.982522,49.755677],"type":"Point"},"properties":{"osm_id":"3728161655","tag":{"amenity":"recycling","recycling:glass_bottles":"yes","recycling_type":"container"}},"type":"Feature"},
	{"geometry":{"coordinates":[9.996036,49.724606],"type":"Point"},"properties":{"osm_id":"3734103967","tag":{"amenity":"recycling","recycling:clothes":"yes","recycling_type":"container"}},"type":"Feature"},
	{"geometry":{"coordinates":[9.996059,49.724614],"type":"Point"},"properties":{"osm_id":"3734103968","tag":{"amenity":"recycling","recycling:glass_bottles":"yes","recycling_type":"container"}},"type":"Feature"},
	{"geometry":{"coordinates":[9.979593,49.759089],"type":"Point"},"properties":{"osm_id":"3742713800","tag":{"amenity":"waste_basket"}},"type":"Feature"},
	{"geometry":{"coordinates":[9.961238,49.755315],"type":"Point"},"properties":{"osm_id":"3820824483","tag":{"amenity":"waste_disposal"}},"type":"Feature"},
	{"geometry":{"coordinates":[9.961222,49.755328],"type":"Point"},"properties":{"osm_id":"3820824484","tag":{"amenity":"waste_disposal"}},"type":"Feature"},
	{"geometry":{"coordinates":[9.961206,49.755341],"type":"Point"},"properties":{"osm_id":"3820824486","tag":{"amenity":"waste_disposal"}},"type":"Feature"},
	{"geometry":{"coordinates":[9.96119,49.755354],"type":"Point"},"properties":{"osm_id":"3820824488","tag":{"amenity":"waste_disposal"}},"type":"Feature"},
	{"geometry":{"coordinates":[9.961174,49.755366],"type":"Point"},"properties":{"osm_id":"3820824489","tag":{"amenity":"waste_disposal"}},"type":"Feature"},
	{"geometry":{"coordinates":[9.960793,49.75559],"type":"Point"},"properties":{"osm_id":"3820824499","tag":{"amenity":"waste_disposal"}},"type":"Feature"},
	{"geometry":{"coordinates":[9.960479,49.755714],"type":"Point"},"properties":{"osm_id":"3820824516","tag":{"amenity":"waste_disposal"}},"type":"Feature"},
	{"geometry":{"coordinates":[9.960008,49.755841],"type":"Point"},"properties":{"osm_id":"3820824526","tag":{"amenity":"waste_disposal"}},"type":"Feature"},
	{"geometry":{"coordinates":[9.959753,49.755879],"type":"Point"},"properties":{"osm_id":"3820824529","tag":{"amenity":"waste_disposal"}},"type":"Feature"},
	{"geometry":{"coordinates":[9.959536,49.755895],"type":"Point"},"properties":{"osm_id":"3820824531","tag":{"amenity":"waste_disposal"}},"type":"Feature"},
	{"geometry":{"coordinates":[9.938794,49.774183],"type":"Point"},"properties":{"osm_id":"4614322598","tag":{"amenity":"waste_basket"}},"type":"Feature"},
	{"geometry":{"coordinates":[9.959677,49.738244],"type":"Point"},"properties":{"osm_id":"4779304625","tag":{"amenity":"waste_basket"}},"type":"Feature"},
	{"geometry":{"coordinates":[9.963045,49.751871],"type":"Point"},"properties":{"osm_id":"4890172530","tag":{"amenity":"waste_basket"}},"type":"Feature"},
	{"geometry":{"coordinates":[9.987,49.777233],"type":"Point"},"properties":{"osm_id":"5080975411","tag":{"amenity":"recycling","recycling:glass":"yes","recycling_type":"container"}},"type":"Feature"},
	{"geometry":{"coordinates":[9.966682,49.740674],"type":"Point"},"properties":{"osm_id":"5119234484","tag":{"amenity":"waste_basket"}},"type":"Feature"},
	{"geometry":{"coordinates":[9.947897,49.762897],"type":"Point"},"properties":{"osm_id":"6278286958","tag":{"amenity":"waste_basket"}},"type":"Feature"},
	{"geometry":{"coordinates":[10.01541,49.725335],"type":"Point"},"properties":{"osm_id":"6563294138","tag":{"amenity":"waste_basket"}},"type":"Feature"},
	{"geometry":{"coordinates":[9.962086,49.741608],"type":"Point"},"properties":{"osm_id":"6792089282","tag":{"amenity":"recycling","contact:phone":"+49 152 15161659","opening_hours":"24/7","operator":"Triglav GmbH Bahnhofstr. 141, 86438 Kissing","recycling:clothes":"yes","recycling:shoes":"yes","recycling_type":"container"}},"type":"Feature"},
	{"geometry":{"coordinates":[9.94015,49.769242],"type":"Point"},"properties":{"osm_id":"6881440688","tag":{"amenity":"recycling","contact:phone":"+49 152 10445325","recycling:clothes":"yes","recycling:shoes":"yes","recycling_type":"container"}},"type":"Feature"},
	{"geometry":{"coordinates":[9.96288,49.739685],"type":"Point"},"properties":{"osm_id":"6944389034","tag":{"amenity":"recycling","contact:email":"info@fws.de","contact:fax":"+49 421 342079","contact:phone":"+49 421 346250","contact:website":"http://www.fws.de","operator":"FWS","recycling:clothes":"yes","recycling:shoes":"yes","recycling_type":"container"}},"type":"Feature"},
	{"geometry":{"coordinates":[9.961229,49.739925],"type":"Point"},"properties":{"osm_id":"6944391691","tag":{"amenity":"recycling","recycling:clothes":"yes","recycling:shoes":"yes","recycling_type":"container"}},"type":"Feature"},
	{"geometry":{"coordinates":[9.956538,49.747024],"type":"Point"},"properties":{"osm_id":"6950782800","ref":"7834","tag":{"amenity":"recycling","contact:fax":"+49 7131 899339","contact:phone":"+49 5341 18874999","location":"overground","operator":"Thomas Doll GmbH","recycling:clothes":"yes","recycling:shoes":"yes","recycling_type":"container"}},"type":"Feature"},
	{"geometry":{"coordinates":[9.954036,49.778043],"type":"Point"},"properties":{"osm_id":"6976909934","tag":{"amenity":"recycling","contact:phone":"+49 177 2577665","operator":"33 GR\u00c3\u009cN - Tex","recycling:clothes":"yes","recycling:shoes":"yes","recycling_type":"container"}},"type":"Feature"},
	{"geometry":{"coordinates":[9.955074,49.74799],"type":"Point"},"properties":{"osm_id":"6989596902","tag":{"amenity":"recycling","contact:phone":"+49 152 15161659","opening_hours":"24/7","operator":"Triglav GmbH, Bahnhofstr. 141, 86438 Kissing","recycling:clothes":"yes","recycling:shoes":"yes","recycling_type":"container"}},"type":"Feature"},
	{"geometry":{"coordinates":[9.955077,49.748002],"type":"Point"},"properties":{"osm_id":"6989608954","tag":{"amenity":"recycling","recycling:shoes":"yes","recycling_type":"container"}},"type":"Feature"},
	{"geometry":{"coordinates":[9.955072,49.747976],"type":"Point"},"properties":{"osm_id":"6989610258","tag":{"amenity":"recycling","contact:phone":"+49 800 1889966","contact:website":"https://www.suez-deutschland.de","opening_hours":"Mo-Sa 07:00-19:00","operator":"suez","recycling:glass_bottles":"yes","recycling_type":"container"}},"type":"Feature"},
	{"geometry":{"coordinates":[9.963585,49.745078],"type":"Point"},"properties":{"osm_id":"6989618615","tag":{"amenity":"waste_basket"}},"type":"Feature"},
	{"geometry":{"coordinates":[9.956134,49.777958],"type":"Point"},"properties":{"osm_id":"6995753736","tag":{"amenity":"waste_basket"}},"type":"Feature"},
	{"geometry":{"coordinates":[9.956594,49.735562],"type":"Point"},"properties":{"osm_id":"7025904356","tag":{"amenity":"recycling","contact:email":"info@fws.de","contact:fax":"+49 421 342079","contact:phone":"+49 421 346250","contact:website":"http://www.fws.de","operator":"FWS","recycling:clothes":"yes","recycling:shoes":"yes","recycling_type":"container"}},"type":"Feature"},
	{"geometry":{"coordinates":[9.956394,49.738469],"type":"Point"},"properties":{"osm_id":"7025913736","tag":{"amenity":"recycling","recycling:shoes":"yes","recycling_type":"container"}},"type":"Feature"},
	{"geometry":{"coordinates":[9.956393,49.738456],"type":"Point"},"properties":{"osm_id":"7025917468","tag":{"amenity":"recycling","contact:email":"info@kvwuerzburg.brk.de","contact:fax":"+49 931 883109","contact:phone":"+49 931 800080","contact:website":"https://www.kvwuerzburg.brk.de/","oper":"Bayerisches Rotes Kreuz Kreisverband W\u00c3\u00bcrzburg","recycling:clothes":"yes","recycling:shoes":"yes","recycling_type":"container"}},"type":"Feature"},
	{"geometry":{"coordinates":[9.955039,49.748282],"type":"Point"},"properties":{"osm_id":"7049416455","tag":{"amenity":"recycling","capacity":"2","recycling:clothes":"yes","recycling:shoes":"yes","recycling_type":"container"}},"type":"Feature"},
	{"geometry":{"coordinates":[9.960254,49.749902],"type":"Point"},"properties":{"osm_id":"7049438282","tag":{"amenity":"recycling","contact:phone":"+49 800 1889966","contact:website":"https://www.suez-deutschland.de","opening_hours":"Mo-Sa 07:00-19:00","operator":"suez","recycling:glass_bottles":"yes","recycling_type":"container"}},"type":"Feature"},
	{"geometry":{"coordinates":[9.960184,49.749804],"type":"Point"},"properties":{"osm_id":"7061511701","tag":{"amenity":"recycling","capacity":"2","contact:email":"info@fws.de","contact:fax":"+49 421 342079","contact:phone":"+49 421 346250","contact:website":"http://www.fws.de/","operator":"FWS","recycling:clothes":"yes","recycling:shoes":"yes","recycling_type":"container"}},"type":"Feature"},
	{"geometry":{"coordinates":[9.960168,49.7498],"type":"Point"},"properties":{"osm_id":"7061511702","tag":{"amenity":"recycling","recycling:shoes":"yes","recycling_type":"container"}},"type":"Feature"},
	{"geometry":{"coordinates":[9.948989,49.761384],"type":"Point"},"properties":{"osm_id":"7072807675","tag":{"amenity":"recycling","contact:email":"info@fws.de","contact:fax":"+49 421 342079","contact:phone":"+49 421 346250","contact:website":"http://www.fws.de","operator":"FWS","recycling:clothes":"yes","recycling:shoes":"yes","recycling_type":"container"}},"type":"Feature"},
	{"geometry":{"coordinates":[9.960068,49.738736],"type":"Point"},"properties":{"osm_id":"7128339799","tag":{"amenity":"recycling","recycling:shoes":"yes","recycling_type":"container"}},"type":"Feature"},
	{"geometry":{"coordinates":[9.960078,49.738732],"type":"Point"},"properties":{"osm_id":"7128352368","tag":{"amenity":"recycling","recycling:clothes":"yes","recycling:shoes":"yes","recycling_type":"container"}},"type":"Feature"},
	{"geometry":{"coordinates":[9.942416,49.772158],"type":"Point"},"properties":{"osm_id":"7152152782","tag":{"amenity":"recycling","recycling:clothes":"yes","recycling:shoes":"yes","recycling_type":"container"}},"type":"Feature"},
	{"geometry":{"coordinates":[9.96433,49.780484],"type":"Point"},"properties":{"osm_id":"7175461123","tag":{"amenity":"recycling","capacity":"2","contact:phone":"+49 177 2577665","operator":"33 Gr\u00c3\u00bcn - Tex","recycling:clothes":"yes","recycling:shoes":"yes","recycling_type":"container"}},"type":"Feature"},
	{"geometry":{"coordinates":[9.956943,49.748487],"type":"Point"},"properties":{"osm_id":"7496978118","tag":{"amenity":"waste_basket","material":"metal"}},"type":"Feature"},
	{"geometry":{"coordinates":[9.956888,49.748687],"type":"Point"},"properties":{"osm_id":"7496978119","tag":{"amenity":"waste_basket","material":"metal"}},"type":"Feature"},
	{"geometry":{"coordinates":[9.957486,49.747176],"type":"Point"},"properties":{"osm_id":"7500712455","tag":{"amenity":"waste_basket","material":"metal"}},"type":"Feature"},
	{"geometry":{"coordinates":[9.957824,49.747045],"type":"Point"},"properties":{"osm_id":"7500712456","tag":{"amenity":"waste_basket","material":"metal"}},"type":"Feature"},
	{"geometry":{"coordinates":[9.95718,49.747848],"type":"Point"},"properties":{"osm_id":"7500712463","tag":{"amenity":"waste_basket","material":"metal"}},"type":"Feature"},
	{"geometry":{"coordinates":[9.95771,49.748693],"type":"Point"},"properties":{"osm_id":"7500712464","tag":{"amenity":"waste_basket","material":"metal"}},"type":"Feature"},
	{"geometry":{"coordinates":[9.983082,49.779395],"type":"Point"},"properties":{"osm_id":"7615606286","tag":{"amenity":"waste_basket","waste":"trash"}},"type":"Feature"},
	{"geometry":{"coordinates":[9.987416,49.731672],"type":"Point"},"properties":{"osm_id":"7884529801","tag":{"amenity":"waste_disposal"}},"type":"Feature"},
	{"geometry":{"coordinates":[9.983769,49.778207],"type":"Point"},"properties":{"osm_id":"7938601975","tag":{"amenity":"waste_basket"}},"type":"Feature"},
	{"geometry":{"coordinates":[9.982442,49.777869],"type":"Point"},"properties":{"highway":"street_lamp","osm_id":"7938602044","tag":{"amenity":"waste_basket","lamp_mount":"pole"}},"type":"Feature"}
]
}
