{
"type": "FeatureCollection",
"features": [
	{"geometry":{"coordinates":[9.94111,48.851512],"type":"Point"},"properties":{"osm_id":"333729931","tag":{"amenity":"recycling","recycling:cans":"yes","recycling:glass_bottles":"yes","recycling:scrap_metal":"yes"}},"type":"Feature"},
	{"geometry":{"coordinates":[9.939317,48.852235],"type":"Point"},"properties":{"osm_id":"370444289","tag":{"amenity":"recycling","recycling:cans":"yes","recycling:glass_bottles":"yes","recycling:scrap_metal":"yes"}},"type":"Feature"},
	{"geometry":{"coordinates":[9.97056,48.823191],"type":"Point"},"properties":{"osm_id":"1678280751","tag":{"amenity":"recycling","recycling:cans":"yes","recycling:glass_bottles":"yes"}},"type":"Feature"},
	{"geometry":{"coordinates":[9.986301,48.830744],"type":"Point"},"properties":{"name":"Deponie Ellert Anmeldung","osm_id":"2266050897","tag":{"addr:city":"Essingen","addr:housenumber":"1","addr:postcode":"73457","addr:street":"Ellertstra\u00c3\u009fe","amenity":"recycling","opening_hours":"Mo-Fr 07:30-16:30; Sa 08:00-11:30","phone":"+49 7171 18000","recycling:cans":"yes","recycling:clothes":"yes","recycling:glass":"yes","recycling:paper":"yes","recycling_type":"centre"}},"type":"Feature"},
	{"geometry":{"coordinates":[9.939308,48.812714],"type":"Point"},"properties":{"osm_id":"3909379906","tag":{"amenity":"waste_basket"}},"type":"Feature"},
	{"geometry":{"coordinates":[9.967135,48.817178],"type":"Point"},"properties":{"osm_id":"4096290015","tag":{"amenity":"waste_basket"}},"type":"Feature"},
	{"geometry":{"coordinates":[9.953737,48.823685],"type":"Point"},"properties":{"osm_id":"5085941568","tag":{"amenity":"recycling","recycling_type":"container"}},"type":"Feature"},
	{"geometry":{"coordinates":[9.960377,48.825222],"type":"Point"},"properties":{"osm_id":"5085945327","tag":{"amenity":"recycling","recycling:glass_bottles":"yes","recycling_type":"container"}},"type":"Feature"},
	{"geometry":{"coordinates":[9.966005,48.827004],"type":"Point"},"properties":{"osm_id":"5085948586","tag":{"amenity":"recycling","recycling:clothes":"yes","recycling:glass_bottles":"yes","recycling_type":"container"}},"type":"Feature"},
	{"geometry":{"coordinates":[9.969831,48.823534],"type":"Point"},"properties":{"name":"GOA","osm_id":"5085950838","tag":{"addr:city":"M\u00c3\u00b6gglingen","addr:housenumber":"2","addr:postcode":"73563","addr:street":"Im Wert","amenity":"recycling","recycling_type":"centre"}},"type":"Feature"},
	{"geometry":{"coordinates":[9.965311,48.819666],"type":"Point"},"properties":{"osm_id":"5085969906","tag":{"amenity":"recycling","recycling:clothes":"yes","recycling:glass_bottles":"yes","recycling:shoes":"yes","recycling_type":"container"}},"type":"Feature"},
	{"geometry":{"coordinates":[9.971483,48.822953],"type":"Point"},"properties":{"name":"GOA","osm_id":"6684048557","tag":{"addr:city":"M\u00c3\u00b6gglingen","addr:housenumber":"10","addr:postcode":"73563","addr:street":"Im Wert","amenity":"recycling","recycling_type":"centre"}},"type":"Feature"},
	{"geometry":{"coordinates":[9.958652,48.824561],"type":"Point"},"properties":{"osm_id":"7578981935","tag":{"amenity":"recycling","recycling:clothes":"yes"}},"type":"Feature"},
	{"geometry":{"coordinates":[9.935067,48.821967],"type":"Point"},"properties":{"osm_id":"7578983322","tag":{"amenity":"waste_basket"}},"type":"Feature"},
	{"geometry":{"coordinates":[9.96191,48.820377],"type":"Point"},"properties":{"osm_id":"7727426352","tag":{"amenity":"waste_basket"}},"type":"Feature"},
	{"geometry":{"coordinates":[9.961606,48.815357],"type":"Point"},"properties":{"osm_id":"7727447428","tag":{"amenity":"waste_basket"}},"type":"Feature"}
]
}
