{
"type": "FeatureCollection",
"features": [
	{"geometry":{"coordinates":[9.949534,48.390913],"type":"Point"},"properties":{"osm_id":"280278599","tag":{"amenity":"recycling","location":"overground","recycling:clothes":"yes","recycling:glass_bottles":"yes","recycling_type":"container"}},"type":"Feature"},
	{"geometry":{"coordinates":[9.947859,48.388007],"type":"Point"},"properties":{"osm_id":"280278601","tag":{"amenity":"recycling","location":"overground","recycling:clothes":"yes","recycling:glass_bottles":"yes","recycling_type":"container"}},"type":"Feature"},
	{"geometry":{"coordinates":[9.976985,48.35344],"type":"Point"},"properties":{"osm_id":"287363266","tag":{"amenity":"recycling","recycling:clothes":"yes","recycling:glass_bottles":"yes","recycling_type":"container"}},"type":"Feature"},
	{"geometry":{"coordinates":[9.967139,48.391662],"type":"Point"},"properties":{"osm_id":"287370873","tag":{"amenity":"recycling","recycling:clothes":"yes","recycling:glass_bottles":"yes","recycling_type":"container"}},"type":"Feature"},
	{"geometry":{"coordinates":[9.948427,48.380302],"type":"Point"},"properties":{"osm_id":"302310742","tag":{"amenity":"recycling","location":"overground","recycling:glass":"yes","recycling:glass_bottles":"yes","recycling:paper":"yes","recycling_type":"container"}},"type":"Feature"},
	{"geometry":{"coordinates":[9.942004,48.398392],"type":"Point"},"properties":{"osm_id":"303157702","tag":{"amenity":"recycling","operator":"Faircollect","recycling:clothes":"yes","recycling:shoes":"yes","recycling_type":"container"}},"type":"Feature"},
	{"geometry":{"coordinates":[10.014032,48.368502],"type":"Point"},"properties":{"osm_id":"308069648","ref":"Hengstweg","tag":{"amenity":"recycling","recycling:glass_bottles":"yes","recycling:paper":"yes","recycling_type":"container"}},"type":"Feature"},
	{"geometry":{"coordinates":[9.976267,48.360337],"type":"Point"},"properties":{"osm_id":"322100882","tag":{"amenity":"recycling","location":"overground","operator":"EBU / Striebel Textil","recycling:clothes":"yes","recycling_type":"container"}},"type":"Feature"},
	{"geometry":{"coordinates":[10.001888,48.39259],"type":"Point"},"properties":{"osm_id":"367067208","ref":"Bahnhofstra\u00c3\u009fe (Beim Parkhaus)","tag":{"amenity":"recycling","opening_hours":"Mo-Sa 07:00-19:00","recycling:glass":"yes","recycling:paper":"yes","recycling_type":"container","wheelchair":"yes"}},"type":"Feature"},
	{"geometry":{"coordinates":[9.965596,48.39143],"type":"Point"},"properties":{"osm_id":"450574007","tag":{"amenity":"recycling","location":"overground","recycling:clothes":"yes","recycling:glass_bottles":"yes","recycling:shoes":"yes","recycling_type":"container"}},"type":"Feature"},
	{"geometry":{"coordinates":[9.973554,48.35424],"type":"Point"},"properties":{"osm_id":"457397870","tag":{"amenity":"recycling","location":"overground","recycling:glass_bottles":"yes","recycling_type":"container"}},"type":"Feature"},
	{"geometry":{"coordinates":[9.972184,48.354773],"type":"Point"},"properties":{"osm_id":"471962039","tag":{"amenity":"recycling","location":"overground","recycling:glass_bottles":"yes","recycling_type":"container"}},"type":"Feature"},
	{"geometry":{"coordinates":[9.978802,48.351017],"type":"Point"},"properties":{"osm_id":"474749638","tag":{"amenity":"recycling","location":"overground","recycling:clothes":"yes","recycling:glass_bottles":"yes","recycling:paper":"yes","recycling:shoes":"yes","recycling_type":"container"}},"type":"Feature"},
	{"geometry":{"coordinates":[9.970734,48.349224],"type":"Point"},"properties":{"osm_id":"528733024","tag":{"amenity":"recycling","location":"overground","recycling:clothes":"yes","recycling:glass_bottles":"yes","recycling_type":"container"}},"type":"Feature"},
	{"geometry":{"coordinates":[9.97323,48.350611],"type":"Point"},"properties":{"osm_id":"528734019","tag":{"amenity":"recycling","recycling:clothes":"yes","recycling:glass_bottles":"yes","recycling:shoes":"yes","recycling_type":"container"}},"type":"Feature"},
	{"geometry":{"coordinates":[9.960228,48.385644],"type":"Point"},"properties":{"osm_id":"533635531","tag":{"amenity":"recycling","location":"overground","recycling:clothes":"yes","recycling:glass":"no","recycling:glass_bottles":"yes","recycling_type":"container"}},"type":"Feature"},
	{"geometry":{"coordinates":[9.955548,48.391987],"type":"Point"},"properties":{"osm_id":"663729462","tag":{"amenity":"recycling","mapillary":"ifz4rWt6LQ-DdAAZgGJMdg","recycling:clothes":"yes","recycling:glass_bottles":"yes","recycling_type":"container","survey:date":"2017-02-14"}},"type":"Feature"},
	{"geometry":{"coordinates":[9.991141,48.388822],"type":"Point"},"properties":{"osm_id":"746891284","ref":"Schlie\u00c3\u009fhausallee - Neu-Ulm-West","tag":{"amenity":"recycling","recycling:glass":"yes","recycling:paper":"yes"}},"type":"Feature"},
	{"geometry":{"coordinates":[10.006011,48.398304],"type":"Point"},"properties":{"osm_id":"747156879","ref":"Augsburger-/Paulstra\u00c3\u009fe","tag":{"amenity":"recycling","location":"overground","mapillary":"MbxJhFSeFyi8A_EpIJS8zA","opening_hours":"Mo-Sa 07:00-20:00","recycling:glass":"no","recycling:glass_bottles":"yes","recycling:paper":"yes","recycling_type":"container","survey:date":"2018-06-14"}},"type":"Feature"},
	{"geometry":{"coordinates":[10.010845,48.399463],"type":"Point"},"properties":{"osm_id":"748478183","ref":"Kantstra\u00c3\u009fe - Hallenbad","tag":{"amenity":"recycling","location":"overground","opening_hours":"Mo-Fr 07:00-20:00","recycling:glass":"yes","recycling:paper":"yes","recycling_type":"container"}},"type":"Feature"},
	{"geometry":{"coordinates":[9.987596,48.397528],"type":"Point"},"properties":{"osm_id":"804426581","tag":{"amenity":"recycling","location":"underground","recycling:glass_bottles":"yes","recycling_type":"container"}},"type":"Feature"},
	{"geometry":{"coordinates":[10.010368,48.387873],"type":"Point"},"properties":{"osm_id":"804973740","ref":"Riedstra\u00c3\u009fe","tag":{"amenity":"recycling","opening_hours":"Mo-Fr 07:00-20:00","recycling:glass_bottles":"yes","recycling:paper":"yes","recycling_type":"container"}},"type":"Feature"},
	{"geometry":{"coordinates":[10.004228,48.38836],"type":"Point"},"properties":{"osm_id":"804973756","ref":"Steubenstra\u00c3\u009fe","tag":{"amenity":"recycling","opening_hours":"Mo-Sa 07:00-20:00","recycling:glass_bottles":"yes","recycling:paper":"yes","recycling_type":"container"}},"type":"Feature"},
	{"geometry":{"coordinates":[10.014854,48.391607],"type":"Point"},"properties":{"osm_id":"938564379","ref":"Nelsonallee","tag":{"amenity":"recycling","opening_hours":"Mo-Fr 07:00-20:00","recycling:glass_bottles":"yes","recycling:paper":"yes","recycling_type":"container"}},"type":"Feature"},
	{"geometry":{"coordinates":[10.011089,48.37205],"type":"Point"},"properties":{"osm_id":"1073073950","ref":"Danziger Stra\u00c3\u009fe","tag":{"amenity":"recycling","recycling:glass_bottles":"yes","recycling:paper":"yes","recycling_type":"container"}},"type":"Feature"},
	{"geometry":{"coordinates":[9.968799,48.395703],"type":"Point"},"properties":{"osm_id":"1088855579","tag":{"amenity":"recycling","recycling:glass":"yes","recycling_type":"container"}},"type":"Feature"},
	{"geometry":{"coordinates":[10.012579,48.385868],"type":"Point"},"properties":{"osm_id":"1221896283","ref":"Bradleystra\u00c3\u009fe","tag":{"amenity":"recycling","opening_hours":"Mo-Fr 07:00-20:00","recycling:glass_bottles":"yes","recycling:paper":"yes","recycling_type":"container"}},"type":"Feature"},
	{"geometry":{"coordinates":[9.973281,48.352718],"type":"Point"},"properties":{"osm_id":"1459270782","tag":{"amenity":"recycling","recycling:clothes":"yes","recycling:glass_bottles":"yes","recycling:shoes":"yes","recycling_type":"container"}},"type":"Feature"},
	{"geometry":{"coordinates":[9.95251,48.390032],"type":"Point"},"properties":{"name":"H\u00c3\u00a4ckselplatz Hasensteige","osm_id":"1510383135","tag":{"amenity":"recycling","operator":"Entsorgungsbetriebe Stadt Ulm (EBU)","recycling:wood":"yes","recycling_type":"centre"}},"type":"Feature"},
	{"geometry":{"coordinates":[9.981399,48.396878],"type":"Point"},"properties":{"osm_id":"1694903065","tag":{"amenity":"recycling","recycling:clothes":"yes","recycling:glass_bottles":"yes","recycling_type":"container"}},"type":"Feature"},
	{"geometry":{"coordinates":[9.976425,48.385139],"type":"Point"},"properties":{"name":"H\u00c3\u00a4ckselplatz Verl\u00c3\u00a4ngerung St.-Barbarastra\u00c3\u009fe (Parkplatz KGA)","osm_id":"1747604447","tag":{"amenity":"recycling","landuse":"landfill","operator":"Entsorgungsbetriebe Stadt Ulm (EBU)","recycling:green_waste":"yes","recycling:wood":"yes","recycling_type":"centre"}},"type":"Feature"},
	{"geometry":{"coordinates":[9.960704,48.377739],"type":"Point"},"properties":{"name":"H\u00c3\u00a4ckselplatz Illerstra\u00c3\u009fe - Parkplatz Richtung Erbach (Bew\u00c3\u00a4hrungsheim)","osm_id":"1747617929","tag":{"amenity":"recycling","operator":"Entsorgungsbetriebe Stadt Ulm (EBU)","recycling:green_waste":"yes","recycling:wood":"yes","recycling_type":"centre"}},"type":"Feature"},
	{"geometry":{"coordinates":[9.970272,48.382918],"type":"Point"},"properties":{"name":"H\u00c3\u00a4ckselplatz Unterer Kuhberg","osm_id":"1747622255","tag":{"amenity":"recycling","landuse":"landfill","operator":"Entsorgungsbetriebe Stadt Ulm (EBU)","recycling:green_waste":"yes","recycling:wood":"yes","recycling_type":"centre"}},"type":"Feature"},
	{"geometry":{"coordinates":[9.978032,48.397254],"type":"Point"},"properties":{"osm_id":"1981979582","tag":{"amenity":"recycling","check_date":"2021-08-26","recycling:glass_bottles":"yes","recycling_type":"container"}},"type":"Feature"},
	{"geometry":{"coordinates":[9.978055,48.397324],"type":"Point"},"properties":{"osm_id":"1981979603","tag":{"amenity":"recycling","operator":"EBU","recycling:clothes":"yes","recycling_type":"container"}},"type":"Feature"},
	{"geometry":{"coordinates":[9.948074,48.39652],"type":"Point"},"properties":{"osm_id":"1987718948","tag":{"amenity":"recycling","recycling:glass":"no","recycling:glass_bottles":"yes","recycling_type":"container"}},"type":"Feature"},
	{"geometry":{"coordinates":[9.964333,48.385031],"type":"Point"},"properties":{"osm_id":"2015893769","tag":{"amenity":"recycling","recycling:clothes":"yes","recycling:glass_bottles":"yes","recycling_type":"container"}},"type":"Feature"},
	{"geometry":{"coordinates":[9.968804,48.393012],"type":"Point"},"properties":{"osm_id":"2131431795","tag":{"amenity":"recycling","check_date:recycling":"2021-02-09","recycling:paper":"yes","recycling_type":"container"}},"type":"Feature"},
	{"geometry":{"coordinates":[9.974732,48.391947],"type":"Point"},"properties":{"osm_id":"2131431803","tag":{"amenity":"recycling","recycling:glass":"yes","recycling_type":"container"}},"type":"Feature"},
	{"geometry":{"coordinates":[9.966501,48.392821],"type":"Point"},"properties":{"osm_id":"2131447576","tag":{"amenity":"recycling","recycling:clothes":"yes","recycling_type":"container"}},"type":"Feature"},
	{"geometry":{"coordinates":[10.000972,48.39893],"type":"Point"},"properties":{"osm_id":"2180513425","tag":{"amenity":"recycling","location":"overground","mapillary":"QrKVZ9AcHAD2ZPxsrKtkqQ","recycling:glass":"no","recycling:glass_bottles":"yes","recycling_type":"container","survey:date":"2017-11-22"}},"type":"Feature"},
	{"geometry":{"coordinates":[9.999812,48.39847],"type":"Point"},"properties":{"osm_id":"2195077513","tag":{"amenity":"recycling","location":"overground","recycling:clothes":"yes","recycling:glass":"yes","recycling_type":"container"}},"type":"Feature"},
	{"geometry":{"coordinates":[9.980089,48.392891],"type":"Point"},"properties":{"osm_id":"2205746421","tag":{"amenity":"recycling","location":"overground","recycling:clothes":"yes","recycling:glass_bottles":"yes","recycling_type":"container"}},"type":"Feature"},
	{"geometry":{"coordinates":[9.938251,48.37031],"type":"Point"},"properties":{"osm_id":"2210478965","tag":{"amenity":"recycling","recycling:clothes":"yes","recycling:glass":"yes"}},"type":"Feature"},
	{"geometry":{"coordinates":[9.971001,48.358587],"type":"Point"},"properties":{"osm_id":"2291081576","tag":{"amenity":"waste_basket","check_date":"2021-01-04"}},"type":"Feature"},
	{"geometry":{"coordinates":[9.971204,48.358522],"type":"Point"},"properties":{"osm_id":"2291081581","tag":{"amenity":"waste_basket","check_date":"2021-01-04"}},"type":"Feature"},
	{"geometry":{"coordinates":[9.956277,48.366804],"type":"Point"},"properties":{"osm_id":"2332423901","tag":{"amenity":"recycling","recycling:glass":"yes"}},"type":"Feature"},
	{"geometry":{"coordinates":[9.970986,48.356646],"type":"Point"},"properties":{"barrier":"gate","osm_id":"2333199995"},"type":"Feature"},
	{"geometry":{"coordinates":[9.971454,48.356538],"type":"Point"},"properties":{"barrier":"gate","osm_id":"2333200052"},"type":"Feature"},
	{"geometry":{"coordinates":[9.970374,48.359097],"type":"Point"},"properties":{"osm_id":"2333215500","tag":{"amenity":"recycling","check_date:recycling":"2020-10-12","recycling:glass_bottles":"yes","recycling_type":"container"}},"type":"Feature"},
	{"geometry":{"coordinates":[9.970443,48.356581],"type":"Point"},"properties":{"barrier":"gate","osm_id":"2333215527"},"type":"Feature"},
	{"geometry":{"coordinates":[9.970058,48.354781],"type":"Point"},"properties":{"osm_id":"2459926926","tag":{"amenity":"waste_basket","check_date":"2021-03-02"}},"type":"Feature"},
	{"geometry":{"coordinates":[9.969953,48.356029],"type":"Point"},"properties":{"osm_id":"2459926962","tag":{"amenity":"waste_basket","check_date":"2021-03-02"}},"type":"Feature"},
	{"geometry":{"coordinates":[9.975281,48.354893],"type":"Point"},"properties":{"osm_id":"2468112819","tag":{"amenity":"recycling","location":"overground","recycling:glass_bottles":"yes","recycling_type":"container"}},"type":"Feature"},
	{"geometry":{"coordinates":[9.952342,48.398124],"type":"Point"},"properties":{"osm_id":"2484262405","tag":{"amenity":"recycling","opening_hours":"Mo-Sa 07:00-20:00","recycling:clothes":"yes","recycling:glass_bottles":"yes","recycling_type":"container"}},"type":"Feature"},
	{"geometry":{"coordinates":[9.95047,48.379204],"type":"Point"},"properties":{"osm_id":"2503333340","tag":{"amenity":"recycling","location":"overground","recycling:clothes":"yes","recycling:glass":"yes","recycling:glass_bottles":"yes","recycling_type":"container"}},"type":"Feature"},
	{"geometry":{"coordinates":[9.974307,48.395349],"type":"Point"},"properties":{"name":"Kirchengemeinde St. Elisabeth","osm_id":"2538956122","ref":"37/1","tag":{"amenity":"recycling","recycling:paper":"yes","recycling_type":"container"}},"type":"Feature"},
	{"geometry":{"coordinates":[9.961682,48.386803],"type":"Point"},"properties":{"osm_id":"2549356970","tag":{"amenity":"recycling","check_date":"2021-07-17","recycling:paper":"yes","recycling_type":"container"}},"type":"Feature"},
	{"geometry":{"coordinates":[9.970487,48.358298],"type":"Point"},"properties":{"osm_id":"2670925384","tag":{"amenity":"waste_basket","check_date":"2021-01-12"}},"type":"Feature"},
	{"geometry":{"coordinates":[9.972473,48.353223],"type":"Point"},"properties":{"osm_id":"2719995702","tag":{"amenity":"waste_basket"}},"type":"Feature"},
	{"geometry":{"coordinates":[9.973123,48.352493],"type":"Point"},"properties":{"osm_id":"2719996509","tag":{"amenity":"waste_basket","check_date":"2021-05-04"}},"type":"Feature"},
	{"geometry":{"coordinates":[9.987981,48.362797],"type":"Point"},"properties":{"osm_id":"2738194504","tag":{"amenity":"recycling","location":"overground","recycling:clothes":"yes","recycling:glass":"yes","recycling_type":"container"}},"type":"Feature"},
	{"geometry":{"coordinates":[9.980074,48.358709],"type":"Point"},"properties":{"osm_id":"2845157404","tag":{"amenity":"recycling","location":"overground","recycling:glass_bottles":"yes","recycling_type":"container"}},"type":"Feature"},
	{"geometry":{"coordinates":[9.969904,48.349304],"type":"Point"},"properties":{"osm_id":"2916556525","tag":{"amenity":"waste_basket"}},"type":"Feature"},
	{"geometry":{"coordinates":[9.972929,48.350191],"type":"Point"},"properties":{"osm_id":"2916556529","tag":{"amenity":"waste_basket"}},"type":"Feature"},
	{"geometry":{"coordinates":[9.969006,48.349284],"type":"Point"},"properties":{"osm_id":"2916563675","tag":{"amenity":"waste_basket","check_date":"2021-06-28"}},"type":"Feature"},
	{"geometry":{"coordinates":[9.975923,48.395999],"type":"Point"},"properties":{"osm_id":"2919858783","tag":{"amenity":"recycling","location":"overground","recycling:glass":"yes","recycling_type":"container"}},"type":"Feature"},
	{"geometry":{"coordinates":[10.011744,48.373594],"type":"Point"},"properties":{"osm_id":"2969270207","tag":{"amenity":"waste_basket"}},"type":"Feature"},
	{"geometry":{"coordinates":[10.011969,48.373845],"type":"Point"},"properties":{"osm_id":"2969270228","tag":{"amenity":"waste_basket"}},"type":"Feature"},
	{"geometry":{"coordinates":[10.011838,48.374543],"type":"Point"},"properties":{"osm_id":"2969270258","tag":{"amenity":"waste_basket"}},"type":"Feature"},
	{"geometry":{"coordinates":[10.005033,48.365205],"type":"Point"},"properties":{"osm_id":"3167523468","tag":{"amenity":"recycling","recycling:clothes":"yes","recycling:glass":"yes","recycling:paper":"yes","recycling_type":"container"}},"type":"Feature"},
	{"geometry":{"coordinates":[9.961622,48.386791],"type":"Point"},"properties":{"osm_id":"3191972946","tag":{"amenity":"recycling","operator":"Di\u00c3\u00b6zese Rottenburg-Stuttgart","recycling:clothes":"yes","recycling_type":"container"}},"type":"Feature"},
	{"geometry":{"coordinates":[9.963049,48.387355],"type":"Point"},"properties":{"osm_id":"3191972951","tag":{"amenity":"recycling","recycling:clothes":"yes","recycling:glass_bottles":"yes","recycling_type":"container"}},"type":"Feature"},
	{"geometry":{"coordinates":[9.988818,48.397167],"type":"Point"},"properties":{"osm_id":"3221748261","tag":{"amenity":"waste_basket"}},"type":"Feature"},
	{"geometry":{"coordinates":[10.011821,48.375247],"type":"Point"},"properties":{"osm_id":"3234425428","tag":{"amenity":"waste_basket"}},"type":"Feature"},
	{"geometry":{"coordinates":[9.970369,48.346661],"type":"Point"},"properties":{"osm_id":"3447455420","tag":{"amenity":"waste_basket"}},"type":"Feature"},
	{"geometry":{"coordinates":[9.972445,48.346443],"type":"Point"},"properties":{"osm_id":"3447455421","tag":{"amenity":"recycling","check_date:recycling":"2021-06-29","recycling:glass_bottles":"yes","recycling_type":"container"}},"type":"Feature"},
	{"geometry":{"coordinates":[9.971032,48.346641],"type":"Point"},"properties":{"osm_id":"3447455425","tag":{"amenity":"waste_basket"}},"type":"Feature"},
	{"geometry":{"coordinates":[9.969111,48.346983],"type":"Point"},"properties":{"osm_id":"3447455432","tag":{"amenity":"waste_basket"}},"type":"Feature"},
	{"geometry":{"coordinates":[9.967513,48.347816],"type":"Point"},"properties":{"osm_id":"3545484193","tag":{"amenity":"recycling","location":"overground","recycling:glass_bottles":"yes","recycling_type":"container"}},"type":"Feature"},
	{"geometry":{"coordinates":[9.9645,48.389134],"type":"Point"},"properties":{"osm_id":"3721927058","tag":{"amenity":"waste_basket","check_date":"2021-01-16"}},"type":"Feature"},
	{"geometry":{"coordinates":[9.943553,48.341664],"type":"Point"},"properties":{"osm_id":"3729908725","tag":{"amenity":"recycling","recycling:clothes":"yes","recycling:shoes":"yes","recycling_type":"container"}},"type":"Feature"},
	{"geometry":{"coordinates":[9.963982,48.393921],"type":"Point"},"properties":{"osm_id":"3731391122","tag":{"addr:city":"Ulm","addr:country":"DE","addr:postcode":"89077","addr:street":"Magirusstra\u00c3\u009fe","amenity":"recycling","recycling:clothes":"yes","recycling:glass":"yes","recycling:glass_bottles":"yes","recycling_type":"container"}},"type":"Feature"},
	{"geometry":{"coordinates":[9.96577,48.390308],"type":"Point"},"properties":{"osm_id":"3930590831","tag":{"amenity":"waste_basket"}},"type":"Feature"},
	{"geometry":{"coordinates":[9.969038,48.355003],"type":"Point"},"properties":{"barrier":"gate","osm_id":"4077396193"},"type":"Feature"},
	{"geometry":{"coordinates":[9.969376,48.355083],"type":"Point"},"properties":{"barrier":"gate","osm_id":"4077396197"},"type":"Feature"},
	{"geometry":{"coordinates":[9.956087,48.387531],"type":"Point"},"properties":{"osm_id":"4083330180","tag":{"amenity":"waste_basket","check_date":"2021-02-02"}},"type":"Feature"},
	{"geometry":{"coordinates":[9.947765,48.382105],"type":"Point"},"properties":{"osm_id":"4085442997","tag":{"amenity":"waste_basket","check_date":"2020-12-29"}},"type":"Feature"},
	{"geometry":{"coordinates":[9.974279,48.350449],"type":"Point"},"properties":{"osm_id":"4143247795","tag":{"amenity":"recycling","recycling:clothes":"yes","recycling_type":"container"}},"type":"Feature"},
	{"geometry":{"coordinates":[9.944479,48.399931],"type":"Point"},"properties":{"osm_id":"4163642484","tag":{"amenity":"waste_basket"}},"type":"Feature"},
	{"geometry":{"coordinates":[9.978765,48.349563],"type":"Point"},"properties":{"osm_id":"4166369706","tag":{"amenity":"waste_basket"}},"type":"Feature"},
	{"geometry":{"coordinates":[9.980165,48.349686],"type":"Point"},"properties":{"osm_id":"4166369707","tag":{"amenity":"waste_basket"}},"type":"Feature"},
	{"geometry":{"coordinates":[9.977785,48.347851],"type":"Point"},"properties":{"osm_id":"4166369712","tag":{"amenity":"waste_basket"}},"type":"Feature"},
	{"geometry":{"coordinates":[9.969447,48.355015],"type":"Point"},"properties":{"osm_id":"4177202292","tag":{"amenity":"recycling","recycling:clothes":"yes","recycling:glass_bottles":"yes","recycling_type":"container"}},"type":"Feature"},
	{"geometry":{"coordinates":[9.964491,48.398714],"type":"Point"},"properties":{"osm_id":"4184086595","tag":{"amenity":"waste_basket"}},"type":"Feature"},
	{"geometry":{"coordinates":[10.007668,48.382058],"type":"Point"},"properties":{"osm_id":"4193316239","tag":{"amenity":"waste_basket"}},"type":"Feature"},
	{"geometry":{"coordinates":[10.009933,48.382789],"type":"Point"},"properties":{"osm_id":"4193341891","tag":{"amenity":"waste_basket"}},"type":"Feature"},
	{"geometry":{"coordinates":[10.011094,48.383768],"type":"Point"},"properties":{"osm_id":"4193689009","tag":{"amenity":"waste_basket"}},"type":"Feature"},
	{"geometry":{"coordinates":[10.010003,48.380816],"type":"Point"},"properties":{"osm_id":"4193724529","tag":{"amenity":"waste_basket"}},"type":"Feature"},
	{"geometry":{"coordinates":[9.948003,48.387973],"type":"Point"},"properties":{"osm_id":"4238382738","tag":{"amenity":"waste_basket"}},"type":"Feature"},
	{"geometry":{"coordinates":[9.93952,48.380314],"type":"Point"},"properties":{"osm_id":"4264077463","tag":{"amenity":"waste_basket","check_date":"2020-12-29"}},"type":"Feature"},
	{"geometry":{"coordinates":[9.974111,48.345921],"type":"Point"},"properties":{"osm_id":"4363550891","tag":{"amenity":"waste_basket"}},"type":"Feature"},
	{"geometry":{"coordinates":[10.013318,48.381886],"type":"Point"},"properties":{"osm_id":"4366131391","tag":{"amenity":"waste_basket"}},"type":"Feature"},
	{"geometry":{"coordinates":[10.013199,48.382552],"type":"Point"},"properties":{"osm_id":"4366131392","tag":{"amenity":"waste_basket"}},"type":"Feature"},
	{"geometry":{"coordinates":[10.012993,48.382188],"type":"Point"},"properties":{"osm_id":"4366237994","tag":{"amenity":"waste_basket"}},"type":"Feature"},
	{"geometry":{"coordinates":[9.972967,48.346445],"type":"Point"},"properties":{"osm_id":"4370157089","tag":{"amenity":"waste_basket"}},"type":"Feature"},
	{"geometry":{"coordinates":[10.004955,48.392925],"type":"Point"},"properties":{"osm_id":"4370894494","tag":{"amenity":"waste_basket","level":"-1"}},"type":"Feature"},
	{"geometry":{"coordinates":[10.004807,48.393036],"type":"Point"},"properties":{"osm_id":"4370894495","tag":{"amenity":"waste_basket","level":"-1"}},"type":"Feature"},
	{"geometry":{"coordinates":[10.008141,48.380087],"type":"Point"},"properties":{"osm_id":"4377520325","tag":{"amenity":"waste_basket"}},"type":"Feature"},
	{"geometry":{"coordinates":[10.008993,48.380178],"type":"Point"},"properties":{"osm_id":"4377520326","tag":{"amenity":"waste_basket"}},"type":"Feature"},
	{"geometry":{"coordinates":[10.011174,48.380862],"type":"Point"},"properties":{"osm_id":"4379090696","tag":{"amenity":"waste_basket"}},"type":"Feature"},
	{"geometry":{"coordinates":[10.010059,48.380684],"type":"Point"},"properties":{"osm_id":"4379090702","tag":{"amenity":"waste_basket"}},"type":"Feature"},
	{"geometry":{"coordinates":[10.012357,48.380809],"type":"Point"},"properties":{"osm_id":"4379090731","tag":{"amenity":"waste_basket"}},"type":"Feature"},
	{"geometry":{"coordinates":[10.018894,48.383928],"type":"Point"},"properties":{"osm_id":"4379221035","tag":{"amenity":"recycling","recycling:glass_bottles":"yes","recycling:paper":"yes","recycling_type":"container"}},"type":"Feature"},
	{"geometry":{"coordinates":[10.006519,48.379474],"type":"Point"},"properties":{"osm_id":"4389925688","tag":{"amenity":"waste_basket","check_date":"2021-01-22"}},"type":"Feature"},
	{"geometry":{"coordinates":[9.959426,48.39978],"type":"Point"},"properties":{"osm_id":"4530453678","tag":{"amenity":"waste_basket"}},"type":"Feature"},
	{"geometry":{"coordinates":[9.960322,48.399121],"type":"Point"},"properties":{"osm_id":"4530453679","tag":{"amenity":"waste_basket"}},"type":"Feature"},
	{"geometry":{"coordinates":[9.961056,48.39891],"type":"Point"},"properties":{"osm_id":"4530453680","tag":{"amenity":"waste_basket"}},"type":"Feature"},
	{"geometry":{"coordinates":[9.962799,48.39897],"type":"Point"},"properties":{"osm_id":"4530453682","tag":{"amenity":"waste_basket"}},"type":"Feature"},
	{"geometry":{"coordinates":[9.965412,48.398336],"type":"Point"},"properties":{"osm_id":"4530453683","tag":{"amenity":"waste_basket"}},"type":"Feature"},
	{"geometry":{"coordinates":[9.967532,48.39845],"type":"Point"},"properties":{"osm_id":"4530453685","tag":{"amenity":"waste_basket"}},"type":"Feature"},
	{"geometry":{"coordinates":[9.968029,48.398814],"type":"Point"},"properties":{"osm_id":"4530453686","tag":{"amenity":"waste_basket"}},"type":"Feature"},
	{"geometry":{"coordinates":[9.969242,48.399083],"type":"Point"},"properties":{"osm_id":"4530453687","tag":{"amenity":"waste_basket"}},"type":"Feature"},
	{"geometry":{"coordinates":[9.970965,48.399538],"type":"Point"},"properties":{"osm_id":"4530453789","tag":{"amenity":"waste_basket"}},"type":"Feature"},
	{"geometry":{"coordinates":[9.953443,48.396975],"type":"Point"},"properties":{"osm_id":"4534490432","tag":{"amenity":"waste_basket"}},"type":"Feature"},
	{"geometry":{"coordinates":[9.955066,48.39576],"type":"Point"},"properties":{"osm_id":"4534490434","tag":{"amenity":"waste_basket"}},"type":"Feature"},
	{"geometry":{"coordinates":[9.964842,48.392355],"type":"Point"},"properties":{"osm_id":"4534490450","tag":{"amenity":"waste_basket"}},"type":"Feature"},
	{"geometry":{"coordinates":[9.971034,48.398197],"type":"Point"},"properties":{"osm_id":"4537391255","tag":{"amenity":"waste_basket","check_date":"2020-12-24"}},"type":"Feature"},
	{"geometry":{"coordinates":[9.96995,48.398567],"type":"Point"},"properties":{"osm_id":"4537391256","tag":{"amenity":"waste_basket"}},"type":"Feature"},
	{"geometry":{"coordinates":[9.983401,48.398607],"type":"Point"},"properties":{"osm_id":"4541700881","tag":{"amenity":"waste_basket","level":"0"}},"type":"Feature"},
	{"geometry":{"coordinates":[9.987218,48.398508],"type":"Point"},"properties":{"osm_id":"4541700884","tag":{"amenity":"waste_basket","check_date":"2021-03-23"}},"type":"Feature"},
	{"geometry":{"coordinates":[9.986234,48.397705],"type":"Point"},"properties":{"osm_id":"4541701493","tag":{"amenity":"waste_basket"}},"type":"Feature"},
	{"geometry":{"coordinates":[9.988262,48.397638],"type":"Point"},"properties":{"osm_id":"4541701499","tag":{"amenity":"waste_basket"}},"type":"Feature"},
	{"geometry":{"coordinates":[9.989175,48.397367],"type":"Point"},"properties":{"osm_id":"4541701500","tag":{"amenity":"waste_basket"}},"type":"Feature"},
	{"geometry":{"coordinates":[9.989078,48.39756],"type":"Point"},"properties":{"osm_id":"4541701501","tag":{"amenity":"waste_basket"}},"type":"Feature"},
	{"geometry":{"coordinates":[10.001461,48.398503],"type":"Point"},"properties":{"osm_id":"4541701506","tag":{"amenity":"waste_basket"}},"type":"Feature"},
	{"geometry":{"coordinates":[10.005084,48.399957],"type":"Point"},"properties":{"osm_id":"4541701511","tag":{"amenity":"waste_basket","check_date":"2021-01-23"}},"type":"Feature"},
	{"geometry":{"coordinates":[9.985815,48.399319],"type":"Point"},"properties":{"osm_id":"4548257027","tag":{"amenity":"waste_basket"}},"type":"Feature"},
	{"geometry":{"coordinates":[9.989587,48.40001],"type":"Point"},"properties":{"osm_id":"4548757913","tag":{"amenity":"waste_basket"}},"type":"Feature"},
	{"geometry":{"coordinates":[9.990325,48.399617],"type":"Point"},"properties":{"osm_id":"4548811547","tag":{"amenity":"waste_basket"}},"type":"Feature"},
	{"geometry":{"coordinates":[9.991166,48.396369],"type":"Point"},"properties":{"osm_id":"4558583390","tag":{"amenity":"recycling","check_date:recycling":"2021-06-18","recycling:glass_bottles":"yes","recycling_type":"container"}},"type":"Feature"},
	{"geometry":{"coordinates":[9.943582,48.387622],"type":"Point"},"properties":{"osm_id":"4641484037","tag":{"amenity":"waste_basket"}},"type":"Feature"},
	{"geometry":{"coordinates":[9.939257,48.387417],"type":"Point"},"properties":{"osm_id":"4663768642","tag":{"amenity":"waste_basket"}},"type":"Feature"},
	{"geometry":{"coordinates":[9.954198,48.396136],"type":"Point"},"properties":{"osm_id":"4663768647","tag":{"amenity":"waste_basket"}},"type":"Feature"},
	{"geometry":{"coordinates":[9.951638,48.397436],"type":"Point"},"properties":{"osm_id":"4663768649","tag":{"amenity":"waste_basket"}},"type":"Feature"},
	{"geometry":{"coordinates":[9.951414,48.397436],"type":"Point"},"properties":{"osm_id":"4663768650","tag":{"amenity":"waste_basket"}},"type":"Feature"},
	{"geometry":{"coordinates":[9.946023,48.399153],"type":"Point"},"properties":{"osm_id":"4663768669","tag":{"amenity":"waste_basket"}},"type":"Feature"},
	{"geometry":{"coordinates":[9.971837,48.398314],"type":"Point"},"properties":{"osm_id":"4664999874","tag":{"amenity":"waste_basket"}},"type":"Feature"},
	{"geometry":{"coordinates":[9.972848,48.398568],"type":"Point"},"properties":{"osm_id":"4664999877","tag":{"amenity":"waste_basket"}},"type":"Feature"},
	{"geometry":{"coordinates":[9.973933,48.398478],"type":"Point"},"properties":{"osm_id":"4664999879","tag":{"amenity":"waste_basket"}},"type":"Feature"},
	{"geometry":{"coordinates":[9.974173,48.39858],"type":"Point"},"properties":{"osm_id":"4664999880","tag":{"amenity":"waste_basket"}},"type":"Feature"},
	{"geometry":{"coordinates":[9.978799,48.392791],"type":"Point"},"properties":{"osm_id":"4664999886","tag":{"amenity":"waste_basket"}},"type":"Feature"},
	{"geometry":{"coordinates":[9.97918,48.392975],"type":"Point"},"properties":{"osm_id":"4665000191","tag":{"amenity":"waste_basket"}},"type":"Feature"},
	{"geometry":{"coordinates":[9.980767,48.391699],"type":"Point"},"properties":{"osm_id":"4665000193","tag":{"amenity":"waste_basket"}},"type":"Feature"},
	{"geometry":{"coordinates":[9.981943,48.39162],"type":"Point"},"properties":{"osm_id":"4665000206","tag":{"amenity":"waste_basket"}},"type":"Feature"},
	{"geometry":{"coordinates":[9.982751,48.391748],"type":"Point"},"properties":{"osm_id":"4665000207","tag":{"amenity":"waste_basket"}},"type":"Feature"},
	{"geometry":{"coordinates":[9.982734,48.391433],"type":"Point"},"properties":{"osm_id":"4665000212","tag":{"amenity":"waste_basket"}},"type":"Feature"},
	{"geometry":{"coordinates":[9.983314,48.391095],"type":"Point"},"properties":{"osm_id":"4665000216","tag":{"amenity":"waste_basket"}},"type":"Feature"},
	{"geometry":{"coordinates":[9.984554,48.390174],"type":"Point"},"properties":{"osm_id":"4665000217","tag":{"amenity":"waste_basket"}},"type":"Feature"},
	{"geometry":{"coordinates":[9.977762,48.383964],"type":"Point"},"properties":{"osm_id":"4665000224","tag":{"amenity":"waste_basket"}},"type":"Feature"},
	{"geometry":{"coordinates":[9.937146,48.363102],"type":"Point"},"properties":{"osm_id":"4665000239","tag":{"amenity":"waste_basket"}},"type":"Feature"},
	{"geometry":{"coordinates":[9.936752,48.363026],"type":"Point"},"properties":{"osm_id":"4665000240","tag":{"amenity":"waste_basket"}},"type":"Feature"},
	{"geometry":{"coordinates":[9.971315,48.352244],"type":"Point"},"properties":{"osm_id":"4665119743","tag":{"amenity":"recycling","operator":"EBU","recycling:clothes":"yes","recycling_type":"container"}},"type":"Feature"},
	{"geometry":{"coordinates":[9.97127,48.352216],"type":"Point"},"properties":{"osm_id":"4665119769","tag":{"amenity":"recycling","recycling:glass_bottles":"yes","recycling_type":"container"}},"type":"Feature"},
	{"geometry":{"coordinates":[9.955523,48.391885],"type":"Point"},"properties":{"osm_id":"4685608625","tag":{"amenity":"recycling","recycling:glass":"no","recycling:glass_bottles":"yes","recycling_type":"container"}},"type":"Feature"},
	{"geometry":{"coordinates":[9.955527,48.391799],"type":"Point"},"properties":{"osm_id":"4685608627","tag":{"amenity":"waste_basket"}},"type":"Feature"},
	{"geometry":{"coordinates":[9.954613,48.395626],"type":"Point"},"properties":{"osm_id":"4685608629","tag":{"amenity":"waste_basket"}},"type":"Feature"},
	{"geometry":{"coordinates":[9.973619,48.360122],"type":"Point"},"properties":{"osm_id":"4686587905","tag":{"amenity":"waste_basket","check_date":"2021-02-23"}},"type":"Feature"},
	{"geometry":{"coordinates":[9.97073,48.359026],"type":"Point"},"properties":{"osm_id":"4686587909","tag":{"amenity":"waste_basket","check_date":"2021-02-23"}},"type":"Feature"},
	{"geometry":{"coordinates":[9.968874,48.360274],"type":"Point"},"properties":{"osm_id":"4686587911","tag":{"amenity":"waste_basket","check_date":"2021-03-01"}},"type":"Feature"},
	{"geometry":{"coordinates":[9.955305,48.377737],"type":"Point"},"properties":{"osm_id":"4686587926","tag":{"amenity":"waste_basket"}},"type":"Feature"},
	{"geometry":{"coordinates":[9.955198,48.378266],"type":"Point"},"properties":{"osm_id":"4686587928","tag":{"amenity":"waste_basket","check_date":"2021-07-18"}},"type":"Feature"},
	{"geometry":{"coordinates":[9.955019,48.378935],"type":"Point"},"properties":{"osm_id":"4686587930","tag":{"amenity":"waste_basket","check_date":"2021-07-18"}},"type":"Feature"},
	{"geometry":{"coordinates":[9.955499,48.380705],"type":"Point"},"properties":{"osm_id":"4686587933","tag":{"amenity":"waste_basket"}},"type":"Feature"},
	{"geometry":{"coordinates":[9.955579,48.381292],"type":"Point"},"properties":{"osm_id":"4686587934","tag":{"amenity":"waste_basket"}},"type":"Feature"},
	{"geometry":{"coordinates":[9.955662,48.385499],"type":"Point"},"properties":{"osm_id":"4686587948","tag":{"amenity":"waste_basket"}},"type":"Feature"},
	{"geometry":{"coordinates":[9.985385,48.363482],"type":"Point"},"properties":{"osm_id":"4687049282","tag":{"amenity":"waste_basket","check_date":"2021-05-10"}},"type":"Feature"},
	{"geometry":{"coordinates":[9.98476,48.363445],"type":"Point"},"properties":{"osm_id":"4687049284","tag":{"amenity":"waste_basket","check_date":"2021-05-10"}},"type":"Feature"},
	{"geometry":{"coordinates":[9.978178,48.362131],"type":"Point"},"properties":{"osm_id":"4687049692","tag":{"amenity":"waste_basket","check_date":"2021-03-08"}},"type":"Feature"},
	{"geometry":{"coordinates":[9.977201,48.362404],"type":"Point"},"properties":{"osm_id":"4687049698","tag":{"amenity":"waste_basket","check_date":"2021-03-08"}},"type":"Feature"},
	{"geometry":{"coordinates":[9.984543,48.395846],"type":"Point"},"properties":{"osm_id":"4688578256","tag":{"amenity":"waste_basket","check_date":"2021-03-01"}},"type":"Feature"},
	{"geometry":{"coordinates":[9.986198,48.394837],"type":"Point"},"properties":{"osm_id":"4688578273","tag":{"amenity":"waste_basket"}},"type":"Feature"},
	{"geometry":{"coordinates":[9.986717,48.394721],"type":"Point"},"properties":{"osm_id":"4688578274","tag":{"amenity":"waste_basket"}},"type":"Feature"},
	{"geometry":{"coordinates":[9.987478,48.394203],"type":"Point"},"properties":{"osm_id":"4688578276","tag":{"amenity":"waste_basket"}},"type":"Feature"},
	{"geometry":{"coordinates":[9.986578,48.390993],"type":"Point"},"properties":{"osm_id":"4688578283","tag":{"amenity":"waste_basket"}},"type":"Feature"},
	{"geometry":{"coordinates":[9.987317,48.38985],"type":"Point"},"properties":{"osm_id":"4688578989","tag":{"amenity":"waste_basket"}},"type":"Feature"},
	{"geometry":{"coordinates":[9.962729,48.381171],"type":"Point"},"properties":{"osm_id":"4690318927","tag":{"amenity":"waste_basket"}},"type":"Feature"},
	{"geometry":{"coordinates":[10.000532,48.397876],"type":"Point"},"properties":{"osm_id":"4690652274","tag":{"amenity":"waste_basket"}},"type":"Feature"},
	{"geometry":{"coordinates":[9.998744,48.397018],"type":"Point"},"properties":{"osm_id":"4690652275","tag":{"amenity":"waste_basket"}},"type":"Feature"},
	{"geometry":{"coordinates":[9.998414,48.396876],"type":"Point"},"properties":{"osm_id":"4690652277","tag":{"amenity":"waste_basket"}},"type":"Feature"},
	{"geometry":{"coordinates":[9.997418,48.396445],"type":"Point"},"properties":{"osm_id":"4690652278","tag":{"amenity":"waste_basket"}},"type":"Feature"},
	{"geometry":{"coordinates":[9.994448,48.395747],"type":"Point"},"properties":{"osm_id":"4690652286","tag":{"amenity":"waste_basket"}},"type":"Feature"},
	{"geometry":{"coordinates":[9.994158,48.39584],"type":"Point"},"properties":{"osm_id":"4690652288","tag":{"amenity":"waste_basket"}},"type":"Feature"},
	{"geometry":{"coordinates":[9.992749,48.39561],"type":"Point"},"properties":{"osm_id":"4690652489","tag":{"amenity":"waste_basket"}},"type":"Feature"},
	{"geometry":{"coordinates":[9.992558,48.395564],"type":"Point"},"properties":{"osm_id":"4690652490","tag":{"amenity":"waste_basket"}},"type":"Feature"},
	{"geometry":{"coordinates":[9.993892,48.39584],"type":"Point"},"properties":{"osm_id":"4690652492","tag":{"amenity":"waste_basket"}},"type":"Feature"},
	{"geometry":{"coordinates":[9.99205,48.395125],"type":"Point"},"properties":{"osm_id":"4690652494","tag":{"amenity":"waste_basket"}},"type":"Feature"},
	{"geometry":{"coordinates":[9.993584,48.395587],"type":"Point"},"properties":{"osm_id":"4690652496","tag":{"amenity":"waste_basket"}},"type":"Feature"},
	{"geometry":{"coordinates":[9.990407,48.394685],"type":"Point"},"properties":{"osm_id":"4690652497","tag":{"amenity":"waste_basket"}},"type":"Feature"},
	{"geometry":{"coordinates":[9.980978,48.387128],"type":"Point"},"properties":{"osm_id":"4690652501","tag":{"amenity":"waste_basket"}},"type":"Feature"},
	{"geometry":{"coordinates":[9.979663,48.386456],"type":"Point"},"properties":{"osm_id":"4690652504","tag":{"amenity":"waste_basket"}},"type":"Feature"},
	{"geometry":{"coordinates":[9.97703,48.385376],"type":"Point"},"properties":{"osm_id":"4690652508","tag":{"amenity":"waste_basket"}},"type":"Feature"},
	{"geometry":{"coordinates":[9.973899,48.383506],"type":"Point"},"properties":{"osm_id":"4690652513","tag":{"amenity":"waste_basket"}},"type":"Feature"},
	{"geometry":{"coordinates":[9.98325,48.353622],"type":"Point"},"properties":{"osm_id":"4771101615","tag":{"amenity":"recycling","location":"overground","recycling:clothes":"yes","recycling:glass_bottles":"yes","recycling_type":"container"}},"type":"Feature"},
	{"geometry":{"coordinates":[9.987258,48.394695],"type":"Point"},"properties":{"osm_id":"4799339522","tag":{"amenity":"waste_basket"}},"type":"Feature"},
	{"geometry":{"coordinates":[9.974165,48.361462],"type":"Point"},"properties":{"osm_id":"4806590722","tag":{"amenity":"recycling","recycling:clothes":"yes","recycling:glass_bottles":"yes","recycling:paper":"yes","recycling_type":"container"}},"type":"Feature"},
	{"geometry":{"coordinates":[9.986212,48.39826],"type":"Point"},"properties":{"osm_id":"4897714402","tag":{"amenity":"waste_basket"}},"type":"Feature"},
	{"geometry":{"coordinates":[9.988691,48.398309],"type":"Point"},"properties":{"osm_id":"4897714404","tag":{"amenity":"waste_basket"}},"type":"Feature"},
	{"geometry":{"coordinates":[9.986212,48.398486],"type":"Point"},"properties":{"osm_id":"4897714406","tag":{"amenity":"waste_basket"}},"type":"Feature"},
	{"geometry":{"coordinates":[9.983548,48.39954],"type":"Point"},"properties":{"osm_id":"4897714407","tag":{"amenity":"waste_basket"}},"type":"Feature"},
	{"geometry":{"coordinates":[9.988409,48.398383],"type":"Point"},"properties":{"osm_id":"4897714408","tag":{"amenity":"waste_basket"}},"type":"Feature"},
	{"geometry":{"coordinates":[9.986057,48.398567],"type":"Point"},"properties":{"osm_id":"4897714410","tag":{"amenity":"waste_basket"}},"type":"Feature"},
	{"geometry":{"coordinates":[9.98822,48.398295],"type":"Point"},"properties":{"osm_id":"4897714412","tag":{"amenity":"waste_basket"}},"type":"Feature"},
	{"geometry":{"coordinates":[9.983,48.399333],"type":"Point"},"properties":{"osm_id":"4897714413","tag":{"amenity":"waste_basket"}},"type":"Feature"},
	{"geometry":{"coordinates":[9.985286,48.398917],"type":"Point"},"properties":{"osm_id":"4897714417","tag":{"amenity":"waste_basket"}},"type":"Feature"},
	{"geometry":{"coordinates":[9.988008,48.39843],"type":"Point"},"properties":{"osm_id":"4897714419","tag":{"amenity":"waste_basket"}},"type":"Feature"},
	{"geometry":{"coordinates":[9.987838,48.398314],"type":"Point"},"properties":{"osm_id":"4897715322","tag":{"amenity":"waste_basket"}},"type":"Feature"},
	{"geometry":{"coordinates":[9.987479,48.398294],"type":"Point"},"properties":{"osm_id":"4897715325","tag":{"amenity":"waste_basket"}},"type":"Feature"},
	{"geometry":{"coordinates":[9.984951,48.399],"type":"Point"},"properties":{"osm_id":"4897715326","tag":{"amenity":"waste_basket"}},"type":"Feature"},
	{"geometry":{"coordinates":[9.987128,48.398178],"type":"Point"},"properties":{"osm_id":"4897715328","tag":{"amenity":"waste_basket"}},"type":"Feature"},
	{"geometry":{"coordinates":[9.986842,48.398275],"type":"Point"},"properties":{"osm_id":"4897715332","tag":{"amenity":"waste_basket"}},"type":"Feature"},
	{"geometry":{"coordinates":[9.996043,48.398324],"type":"Point"},"properties":{"osm_id":"4898032750","tag":{"amenity":"waste_basket"}},"type":"Feature"},
	{"geometry":{"coordinates":[9.993235,48.397428],"type":"Point"},"properties":{"osm_id":"4898032751","tag":{"amenity":"waste_basket"}},"type":"Feature"},
	{"geometry":{"coordinates":[9.993766,48.396841],"type":"Point"},"properties":{"osm_id":"4898032752","tag":{"amenity":"waste_basket"}},"type":"Feature"},
	{"geometry":{"coordinates":[9.993693,48.396673],"type":"Point"},"properties":{"osm_id":"4898032753","tag":{"amenity":"waste_basket"}},"type":"Feature"},
	{"geometry":{"coordinates":[9.995127,48.397566],"type":"Point"},"properties":{"osm_id":"4898032758","tag":{"amenity":"waste_basket"}},"type":"Feature"},
	{"geometry":{"coordinates":[9.99407,48.397624],"type":"Point"},"properties":{"osm_id":"4898032759","tag":{"amenity":"waste_basket"}},"type":"Feature"},
	{"geometry":{"coordinates":[9.993233,48.396548],"type":"Point"},"properties":{"osm_id":"4898032761","tag":{"amenity":"waste_basket"}},"type":"Feature"},
	{"geometry":{"coordinates":[9.994415,48.397638],"type":"Point"},"properties":{"osm_id":"4898032766","tag":{"amenity":"waste_basket"}},"type":"Feature"},
	{"geometry":{"coordinates":[9.992963,48.397377],"type":"Point"},"properties":{"osm_id":"4898032767","tag":{"amenity":"waste_basket"}},"type":"Feature"},
	{"geometry":{"coordinates":[9.993552,48.397119],"type":"Point"},"properties":{"osm_id":"4898032768","tag":{"amenity":"waste_basket"}},"type":"Feature"},
	{"geometry":{"coordinates":[9.992941,48.396675],"type":"Point"},"properties":{"osm_id":"4898032770","tag":{"amenity":"waste_basket"}},"type":"Feature"},
	{"geometry":{"coordinates":[9.983079,48.398353],"type":"Point"},"properties":{"osm_id":"4898356794","tag":{"amenity":"waste_basket"}},"type":"Feature"},
	{"geometry":{"coordinates":[9.982769,48.399301],"type":"Point"},"properties":{"osm_id":"4898356795","tag":{"amenity":"waste_basket"}},"type":"Feature"},
	{"geometry":{"coordinates":[9.983046,48.398914],"type":"Point"},"properties":{"osm_id":"4898356799","tag":{"amenity":"waste_basket","level":"0","waste":"trash"}},"type":"Feature"},
	{"geometry":{"coordinates":[9.989046,48.398323],"type":"Point"},"properties":{"osm_id":"4916994191","tag":{"amenity":"waste_basket"}},"type":"Feature"},
	{"geometry":{"coordinates":[9.990019,48.398174],"type":"Point"},"properties":{"osm_id":"4916994192","tag":{"amenity":"waste_basket"}},"type":"Feature"},
	{"geometry":{"coordinates":[9.983635,48.399337],"type":"Point"},"properties":{"osm_id":"4916994193","tag":{"amenity":"waste_basket"}},"type":"Feature"},
	{"geometry":{"coordinates":[9.985172,48.398964],"type":"Point"},"properties":{"osm_id":"4916994195","tag":{"amenity":"waste_basket"}},"type":"Feature"},
	{"geometry":{"coordinates":[9.988874,48.398405],"type":"Point"},"properties":{"osm_id":"4916994196","tag":{"amenity":"waste_basket"}},"type":"Feature"},
	{"geometry":{"coordinates":[9.989718,48.398289],"type":"Point"},"properties":{"osm_id":"4916994197","tag":{"amenity":"waste_basket"}},"type":"Feature"},
	{"geometry":{"coordinates":[9.986608,48.398379],"type":"Point"},"properties":{"osm_id":"4916994201","tag":{"amenity":"waste_basket"}},"type":"Feature"},
	{"geometry":{"coordinates":[9.98954,48.398423],"type":"Point"},"properties":{"osm_id":"4916994202","tag":{"amenity":"waste_basket"}},"type":"Feature"},
	{"geometry":{"coordinates":[9.990151,48.398281],"type":"Point"},"properties":{"osm_id":"4916994203","tag":{"amenity":"waste_basket"}},"type":"Feature"},
	{"geometry":{"coordinates":[9.983618,48.399516],"type":"Point"},"properties":{"osm_id":"4916994204","tag":{"amenity":"waste_basket"}},"type":"Feature"},
	{"geometry":{"coordinates":[9.986463,48.39845],"type":"Point"},"properties":{"osm_id":"4916994205","tag":{"amenity":"waste_basket"}},"type":"Feature"},
	{"geometry":{"coordinates":[9.99105,48.396875],"type":"Point"},"properties":{"osm_id":"4918607129","tag":{"amenity":"waste_basket"}},"type":"Feature"},
	{"geometry":{"coordinates":[9.988772,48.396449],"type":"Point"},"properties":{"osm_id":"4935048946","tag":{"amenity":"waste_basket"}},"type":"Feature"},
	{"geometry":{"coordinates":[10.004947,48.393121],"type":"Point"},"properties":{"osm_id":"4976111650","tag":{"amenity":"waste_basket","level":"-1"}},"type":"Feature"},
	{"geometry":{"coordinates":[10.005099,48.393015],"type":"Point"},"properties":{"osm_id":"4976111660","tag":{"amenity":"waste_basket","level":"-1"}},"type":"Feature"},
	{"geometry":{"coordinates":[9.993458,48.3955],"type":"Point"},"properties":{"osm_id":"5041439093","tag":{"amenity":"waste_basket"}},"type":"Feature"},
	{"geometry":{"coordinates":[9.973098,48.351216],"type":"Point"},"properties":{"osm_id":"5139155057","tag":{"amenity":"waste_basket"}},"type":"Feature"},
	{"geometry":{"coordinates":[9.989662,48.388515],"type":"Point"},"properties":{"osm_id":"5149872058","tag":{"amenity":"waste_basket"}},"type":"Feature"},
	{"geometry":{"coordinates":[9.974683,48.360665],"type":"Point"},"properties":{"osm_id":"5178165491","tag":{"amenity":"recycling","recycling:glass_bottles":"yes","recycling_type":"container"}},"type":"Feature"},
	{"geometry":{"coordinates":[9.99414,48.394745],"type":"Point"},"properties":{"osm_id":"5193008669","tag":{"amenity":"waste_basket"}},"type":"Feature"},
	{"geometry":{"coordinates":[9.992856,48.39434],"type":"Point"},"properties":{"osm_id":"5193008674","tag":{"amenity":"waste_basket"}},"type":"Feature"},
	{"geometry":{"coordinates":[9.991946,48.394083],"type":"Point"},"properties":{"osm_id":"5193008683","tag":{"amenity":"waste_basket"}},"type":"Feature"},
	{"geometry":{"coordinates":[9.990721,48.393811],"type":"Point"},"properties":{"osm_id":"5193008689","tag":{"amenity":"waste_basket"}},"type":"Feature"},
	{"geometry":{"coordinates":[9.974382,48.350496],"type":"Point"},"properties":{"osm_id":"5262291010","tag":{"access":"private","amenity":"waste_disposal"}},"type":"Feature"},
	{"geometry":{"coordinates":[9.974472,48.350492],"type":"Point"},"properties":{"osm_id":"5262291011","tag":{"access":"private","amenity":"waste_disposal"}},"type":"Feature"},
	{"geometry":{"coordinates":[9.970106,48.348983],"type":"Point"},"properties":{"osm_id":"5301068433","tag":{"amenity":"recycling","recycling:paper":"yes"}},"type":"Feature"},
	{"geometry":{"coordinates":[9.974698,48.360665],"type":"Point"},"properties":{"osm_id":"5316391439","tag":{"amenity":"recycling","operator":"EBU / Striebel Textil","recycling:clothes":"yes","recycling:shoes":"yes","recycling_type":"container"}},"type":"Feature"},
	{"geometry":{"coordinates":[9.952332,48.398101],"type":"Point"},"properties":{"osm_id":"5607157855","tag":{"amenity":"recycling","recycling:clothes":"yes","recycling_type":"container"}},"type":"Feature"},
	{"geometry":{"coordinates":[9.959858,48.395342],"type":"Point"},"properties":{"osm_id":"5607476352","tag":{"amenity":"waste_basket"}},"type":"Feature"},
	{"geometry":{"coordinates":[10.010771,48.393566],"type":"Point"},"properties":{"osm_id":"5665833444","tag":{"amenity":"waste_basket"}},"type":"Feature"},
	{"geometry":{"coordinates":[9.979705,48.392713],"type":"Point"},"properties":{"osm_id":"6100265298","tag":{"amenity":"waste_basket"}},"type":"Feature"},
	{"geometry":{"coordinates":[9.980022,48.393388],"type":"Point"},"properties":{"osm_id":"6100265320","tag":{"amenity":"waste_basket"}},"type":"Feature"},
	{"geometry":{"coordinates":[9.980036,48.39352],"type":"Point"},"properties":{"osm_id":"6100265323","tag":{"amenity":"waste_basket"}},"type":"Feature"},
	{"geometry":{"coordinates":[9.962574,48.384145],"type":"Point"},"properties":{"osm_id":"6100796919","tag":{"amenity":"waste_basket"}},"type":"Feature"},
	{"geometry":{"coordinates":[9.957419,48.384966],"type":"Point"},"properties":{"osm_id":"6101941708","tag":{"amenity":"waste_basket"}},"type":"Feature"},
	{"geometry":{"coordinates":[9.955686,48.383998],"type":"Point"},"properties":{"osm_id":"6102773272","tag":{"amenity":"waste_basket"}},"type":"Feature"},
	{"geometry":{"coordinates":[9.956204,48.383777],"type":"Point"},"properties":{"osm_id":"6102773280","tag":{"amenity":"waste_basket"}},"type":"Feature"},
	{"geometry":{"coordinates":[9.960218,48.384483],"type":"Point"},"properties":{"osm_id":"6103491525","tag":{"amenity":"waste_basket"}},"type":"Feature"},
	{"geometry":{"coordinates":[9.967135,48.392885],"type":"Point"},"properties":{"osm_id":"6106652347","tag":{"amenity":"waste_basket"}},"type":"Feature"},
	{"geometry":{"coordinates":[9.977601,48.356283],"type":"Point"},"properties":{"osm_id":"6249191172","tag":{"amenity":"waste_basket","waste":"trash"}},"type":"Feature"},
	{"geometry":{"coordinates":[9.978421,48.356676],"type":"Point"},"properties":{"osm_id":"6249203882","tag":{"amenity":"waste_basket","waste":"trash"}},"type":"Feature"},
	{"geometry":{"coordinates":[9.990736,48.39873],"type":"Point"},"properties":{"osm_id":"6277527502","tag":{"amenity":"waste_basket"}},"type":"Feature"},
	{"geometry":{"coordinates":[9.990997,48.39943],"type":"Point"},"properties":{"osm_id":"6277527505","tag":{"amenity":"waste_basket"}},"type":"Feature"},
	{"geometry":{"coordinates":[9.991093,48.396127],"type":"Point"},"properties":{"osm_id":"6277527508","tag":{"amenity":"waste_basket"}},"type":"Feature"},
	{"geometry":{"coordinates":[9.990715,48.398661],"type":"Point"},"properties":{"osm_id":"6277527511","tag":{"amenity":"waste_basket"}},"type":"Feature"},
	{"geometry":{"coordinates":[9.990926,48.398837],"type":"Point"},"properties":{"osm_id":"6277527514","tag":{"amenity":"waste_basket"}},"type":"Feature"},
	{"geometry":{"coordinates":[9.990242,48.397931],"type":"Point"},"properties":{"osm_id":"6277527519","tag":{"amenity":"waste_basket"}},"type":"Feature"},
	{"geometry":{"coordinates":[9.990631,48.398486],"type":"Point"},"properties":{"osm_id":"6277527521","tag":{"amenity":"waste_basket"}},"type":"Feature"},
	{"geometry":{"coordinates":[9.99081,48.398789],"type":"Point"},"properties":{"osm_id":"6277527525","tag":{"amenity":"waste_basket"}},"type":"Feature"},
	{"geometry":{"coordinates":[9.987431,48.39815],"type":"Point"},"properties":{"osm_id":"6280573182","tag":{"amenity":"waste_basket"}},"type":"Feature"},
	{"geometry":{"coordinates":[9.985199,48.399024],"type":"Point"},"properties":{"osm_id":"6281937474","tag":{"amenity":"waste_basket"}},"type":"Feature"},
	{"geometry":{"coordinates":[9.985919,48.398119],"type":"Point"},"properties":{"osm_id":"6281939385","tag":{"amenity":"waste_basket"}},"type":"Feature"},
	{"geometry":{"coordinates":[9.993727,48.398449],"type":"Point"},"properties":{"osm_id":"6282612936","tag":{"amenity":"waste_basket"}},"type":"Feature"},
	{"geometry":{"coordinates":[9.993623,48.39776],"type":"Point"},"properties":{"osm_id":"6282612948","tag":{"amenity":"waste_basket"}},"type":"Feature"},
	{"geometry":{"coordinates":[9.993669,48.399599],"type":"Point"},"properties":{"osm_id":"6282612954","tag":{"amenity":"waste_basket"}},"type":"Feature"},
	{"geometry":{"coordinates":[9.992407,48.3969],"type":"Point"},"properties":{"osm_id":"6282612958","tag":{"amenity":"waste_basket"}},"type":"Feature"},
	{"geometry":{"coordinates":[9.993788,48.399107],"type":"Point"},"properties":{"osm_id":"6282612964","tag":{"amenity":"waste_basket"}},"type":"Feature"},
	{"geometry":{"coordinates":[9.99409,48.399101],"type":"Point"},"properties":{"osm_id":"6284081982","tag":{"amenity":"waste_basket"}},"type":"Feature"},
	{"geometry":{"coordinates":[9.994474,48.399923],"type":"Point"},"properties":{"osm_id":"6284082189","tag":{"amenity":"waste_basket"}},"type":"Feature"},
	{"geometry":{"coordinates":[9.995312,48.399686],"type":"Point"},"properties":{"osm_id":"6284082193","tag":{"amenity":"waste_basket"}},"type":"Feature"},
	{"geometry":{"coordinates":[9.996806,48.399591],"type":"Point"},"properties":{"osm_id":"6284082196","tag":{"amenity":"waste_basket"}},"type":"Feature"},
	{"geometry":{"coordinates":[9.995059,48.399077],"type":"Point"},"properties":{"osm_id":"6284082206","tag":{"amenity":"waste_basket"}},"type":"Feature"},
	{"geometry":{"coordinates":[9.994907,48.398731],"type":"Point"},"properties":{"osm_id":"6284082210","tag":{"amenity":"waste_basket"}},"type":"Feature"},
	{"geometry":{"coordinates":[9.994601,48.399093],"type":"Point"},"properties":{"osm_id":"6284082212","tag":{"amenity":"waste_basket"}},"type":"Feature"},
	{"geometry":{"coordinates":[9.995944,48.398941],"type":"Point"},"properties":{"osm_id":"6284082217","tag":{"amenity":"waste_basket"}},"type":"Feature"},
	{"geometry":{"coordinates":[9.992649,48.397458],"type":"Point"},"properties":{"osm_id":"6284095713","tag":{"amenity":"waste_basket"}},"type":"Feature"},
	{"geometry":{"coordinates":[9.990717,48.396444],"type":"Point"},"properties":{"osm_id":"6284095715","tag":{"amenity":"waste_basket"}},"type":"Feature"},
	{"geometry":{"coordinates":[9.994039,48.398256],"type":"Point"},"properties":{"osm_id":"6284095716","tag":{"amenity":"waste_basket"}},"type":"Feature"},
	{"geometry":{"coordinates":[9.992532,48.397508],"type":"Point"},"properties":{"osm_id":"6284095717","tag":{"amenity":"waste_basket"}},"type":"Feature"},
	{"geometry":{"coordinates":[9.991835,48.397194],"type":"Point"},"properties":{"osm_id":"6284095718","tag":{"amenity":"waste_basket"}},"type":"Feature"},
	{"geometry":{"coordinates":[9.990778,48.396537],"type":"Point"},"properties":{"osm_id":"6284095722","tag":{"amenity":"waste_basket"}},"type":"Feature"},
	{"geometry":{"coordinates":[9.948474,48.362035],"type":"Point"},"properties":{"osm_id":"6284704280","tag":{"amenity":"recycling","recycling:glass_bottles":"yes","recycling_type":"container"}},"type":"Feature"},
	{"geometry":{"coordinates":[9.991437,48.397408],"type":"Point"},"properties":{"osm_id":"6285635728","tag":{"amenity":"waste_basket"}},"type":"Feature"},
	{"geometry":{"coordinates":[9.994979,48.396286],"type":"Point"},"properties":{"osm_id":"6295227271","tag":{"amenity":"waste_basket"}},"type":"Feature"},
	{"geometry":{"coordinates":[10.010637,48.380731],"type":"Point"},"properties":{"osm_id":"6301049726","tag":{"amenity":"waste_basket"}},"type":"Feature"},
	{"geometry":{"coordinates":[9.985463,48.397449],"type":"Point"},"properties":{"osm_id":"6301345233","tag":{"amenity":"waste_basket"}},"type":"Feature"},
	{"geometry":{"coordinates":[9.988376,48.397505],"type":"Point"},"properties":{"osm_id":"6301345236","tag":{"amenity":"waste_basket"}},"type":"Feature"},
	{"geometry":{"coordinates":[9.994227,48.395889],"type":"Point"},"properties":{"osm_id":"6301478953","tag":{"amenity":"waste_basket"}},"type":"Feature"},
	{"geometry":{"coordinates":[9.997159,48.394446],"type":"Point"},"properties":{"osm_id":"6301478956","tag":{"amenity":"waste_basket"}},"type":"Feature"},
	{"geometry":{"coordinates":[9.991301,48.395981],"type":"Point"},"properties":{"osm_id":"6301478958","tag":{"amenity":"waste_basket"}},"type":"Feature"},
	{"geometry":{"coordinates":[9.989497,48.397003],"type":"Point"},"properties":{"osm_id":"6301478962","tag":{"amenity":"waste_basket"}},"type":"Feature"},
	{"geometry":{"coordinates":[9.988703,48.397542],"type":"Point"},"properties":{"osm_id":"6301478964","tag":{"amenity":"waste_basket"}},"type":"Feature"},
	{"geometry":{"coordinates":[9.993838,48.39596],"type":"Point"},"properties":{"osm_id":"6301478965","tag":{"amenity":"waste_basket"}},"type":"Feature"},
	{"geometry":{"coordinates":[9.992018,48.398973],"type":"Point"},"properties":{"osm_id":"6308039992","tag":{"amenity":"waste_basket"}},"type":"Feature"},
	{"geometry":{"coordinates":[9.992098,48.398972],"type":"Point"},"properties":{"osm_id":"6308039994","tag":{"amenity":"recycling","check_date:recycling":"2021-06-19","recycling:glass_bottles":"yes","recycling_type":"container"}},"type":"Feature"},
	{"geometry":{"coordinates":[10.000377,48.397898],"type":"Point"},"properties":{"osm_id":"6308075626","tag":{"amenity":"waste_basket"}},"type":"Feature"},
	{"geometry":{"coordinates":[9.992359,48.39556],"type":"Point"},"properties":{"osm_id":"6308075631","tag":{"amenity":"waste_basket"}},"type":"Feature"},
	{"geometry":{"coordinates":[10.005305,48.399996],"type":"Point"},"properties":{"osm_id":"6308075647","tag":{"amenity":"waste_basket"}},"type":"Feature"},
	{"geometry":{"coordinates":[9.999651,48.397809],"type":"Point"},"properties":{"osm_id":"6308075648","tag":{"amenity":"waste_basket"}},"type":"Feature"},
	{"geometry":{"coordinates":[9.998212,48.397639],"type":"Point"},"properties":{"osm_id":"6308075650","tag":{"amenity":"waste_basket"}},"type":"Feature"},
	{"geometry":{"coordinates":[10.002902,48.39909],"type":"Point"},"properties":{"osm_id":"6308075651","tag":{"amenity":"waste_basket"}},"type":"Feature"},
	{"geometry":{"coordinates":[9.995912,48.396496],"type":"Point"},"properties":{"osm_id":"6308075656","tag":{"amenity":"waste_basket"}},"type":"Feature"},
	{"geometry":{"coordinates":[10.011803,48.380654],"type":"Point"},"properties":{"osm_id":"6308226972","tag":{"amenity":"waste_basket"}},"type":"Feature"},
	{"geometry":{"coordinates":[10.01031,48.38021],"type":"Point"},"properties":{"osm_id":"6308864855","tag":{"amenity":"waste_basket"}},"type":"Feature"},
	{"geometry":{"coordinates":[10.010753,48.38037],"type":"Point"},"properties":{"osm_id":"6308864860","tag":{"amenity":"waste_basket"}},"type":"Feature"},
	{"geometry":{"coordinates":[10.011311,48.380429],"type":"Point"},"properties":{"osm_id":"6308864861","tag":{"amenity":"waste_basket"}},"type":"Feature"},
	{"geometry":{"coordinates":[10.011966,48.380519],"type":"Point"},"properties":{"osm_id":"6308864863","tag":{"amenity":"waste_basket"}},"type":"Feature"},
	{"geometry":{"coordinates":[9.990428,48.360934],"type":"Point"},"properties":{"osm_id":"6324087550","tag":{"amenity":"waste_basket"}},"type":"Feature"},
	{"geometry":{"coordinates":[10.008511,48.37863],"type":"Point"},"properties":{"osm_id":"6325227085","tag":{"amenity":"recycling","recycling:clothes":"yes","recycling:shoes":"yes","recycling_type":"container"}},"type":"Feature"},
	{"geometry":{"coordinates":[9.983056,48.398683],"type":"Point"},"properties":{"osm_id":"6326942116","tag":{"amenity":"waste_basket"}},"type":"Feature"},
	{"geometry":{"coordinates":[9.982798,48.398627],"type":"Point"},"properties":{"osm_id":"6326942117","tag":{"amenity":"waste_basket"}},"type":"Feature"},
	{"geometry":{"coordinates":[9.983879,48.39645],"type":"Point"},"properties":{"osm_id":"6340583079","tag":{"amenity":"waste_basket"}},"type":"Feature"},
	{"geometry":{"coordinates":[9.947852,48.398516],"type":"Point"},"properties":{"osm_id":"6398713864","tag":{"amenity":"waste_basket"}},"type":"Feature"},
	{"geometry":{"coordinates":[9.952045,48.397893],"type":"Point"},"properties":{"osm_id":"6398713865","tag":{"amenity":"waste_basket"}},"type":"Feature"},
	{"geometry":{"coordinates":[9.954678,48.395708],"type":"Point"},"properties":{"osm_id":"6398713869","tag":{"amenity":"waste_basket"}},"type":"Feature"},
	{"geometry":{"coordinates":[9.948683,48.398394],"type":"Point"},"properties":{"osm_id":"6398713871","tag":{"amenity":"waste_basket"}},"type":"Feature"},
	{"geometry":{"coordinates":[9.954712,48.395851],"type":"Point"},"properties":{"osm_id":"6398713877","tag":{"amenity":"waste_basket"}},"type":"Feature"},
	{"geometry":{"coordinates":[9.95071,48.397743],"type":"Point"},"properties":{"osm_id":"6398713878","tag":{"amenity":"waste_basket"}},"type":"Feature"},
	{"geometry":{"coordinates":[9.952214,48.397408],"type":"Point"},"properties":{"osm_id":"6398713881","tag":{"amenity":"waste_basket"}},"type":"Feature"},
	{"geometry":{"coordinates":[9.954644,48.39575],"type":"Point"},"properties":{"osm_id":"6398713883","tag":{"amenity":"waste_basket"}},"type":"Feature"},
	{"geometry":{"coordinates":[9.950014,48.397844],"type":"Point"},"properties":{"osm_id":"6398715185","tag":{"amenity":"waste_basket"}},"type":"Feature"},
	{"geometry":{"coordinates":[9.99363,48.398052],"type":"Point"},"properties":{"osm_id":"6422638001","tag":{"amenity":"waste_basket"}},"type":"Feature"},
	{"geometry":{"coordinates":[9.992024,48.397242],"type":"Point"},"properties":{"osm_id":"6422638003","tag":{"amenity":"waste_basket"}},"type":"Feature"},
	{"geometry":{"coordinates":[9.990227,48.395213],"type":"Point"},"properties":{"osm_id":"6429050256","tag":{"amenity":"waste_basket"}},"type":"Feature"},
	{"geometry":{"coordinates":[9.960879,48.396955],"type":"Point"},"properties":{"osm_id":"6434138114","tag":{"amenity":"recycling","recycling:clothes":"yes","recycling:glass_bottles":"yes","recycling:shoes":"yes","recycling_type":"container"}},"type":"Feature"},
	{"geometry":{"coordinates":[9.990395,48.360717],"type":"Point"},"properties":{"osm_id":"6459498907","tag":{"amenity":"waste_basket"}},"type":"Feature"},
	{"geometry":{"coordinates":[9.990152,48.361049],"type":"Point"},"properties":{"osm_id":"6459528882","tag":{"amenity":"waste_basket"}},"type":"Feature"},
	{"geometry":{"coordinates":[9.989968,48.361308],"type":"Point"},"properties":{"osm_id":"6459528883","tag":{"amenity":"waste_basket"}},"type":"Feature"},
	{"geometry":{"coordinates":[9.989524,48.361256],"type":"Point"},"properties":{"osm_id":"6459539357","tag":{"amenity":"waste_basket"}},"type":"Feature"},
	{"geometry":{"coordinates":[9.967505,48.382706],"type":"Point"},"properties":{"osm_id":"6491218914","tag":{"amenity":"waste_basket"}},"type":"Feature"},
	{"geometry":{"coordinates":[9.967559,48.383087],"type":"Point"},"properties":{"osm_id":"6491218916","tag":{"amenity":"waste_basket"}},"type":"Feature"},
	{"geometry":{"coordinates":[9.968135,48.383674],"type":"Point"},"properties":{"osm_id":"6491218921","tag":{"amenity":"waste_basket"}},"type":"Feature"},
	{"geometry":{"coordinates":[9.969254,48.386885],"type":"Point"},"properties":{"osm_id":"6491218957","tag":{"amenity":"waste_basket"}},"type":"Feature"},
	{"geometry":{"coordinates":[9.991273,48.392164],"type":"Point"},"properties":{"osm_id":"6563387705","ref":"Edwin-Scharff-Haus (Parkplatz)","tag":{"amenity":"recycling","opening_hours":"Mo-Sa 07:00-20:00","recycling:glass":"yes","recycling:paper":"yes","recycling_type":"container","wheelchair":"no"}},"type":"Feature"},
	{"geometry":{"coordinates":[9.96114,48.394434],"type":"Point"},"properties":{"osm_id":"6757431178","tag":{"amenity":"waste_basket"}},"type":"Feature"},
	{"geometry":{"coordinates":[9.980849,48.394631],"type":"Point"},"properties":{"osm_id":"6757433877","tag":{"amenity":"waste_basket"}},"type":"Feature"},
	{"geometry":{"coordinates":[9.981104,48.394669],"type":"Point"},"properties":{"osm_id":"6757433880","tag":{"amenity":"waste_basket"}},"type":"Feature"},
	{"geometry":{"coordinates":[9.981248,48.394696],"type":"Point"},"properties":{"osm_id":"6757433882","tag":{"amenity":"waste_basket"}},"type":"Feature"},
	{"geometry":{"coordinates":[9.981154,48.395059],"type":"Point"},"properties":{"osm_id":"6757433884","tag":{"amenity":"waste_basket"}},"type":"Feature"},
	{"geometry":{"coordinates":[9.980713,48.394734],"type":"Point"},"properties":{"osm_id":"6757496886","tag":{"amenity":"waste_basket"}},"type":"Feature"},
	{"geometry":{"coordinates":[9.981291,48.394751],"type":"Point"},"properties":{"osm_id":"6757496887","tag":{"amenity":"waste_basket"}},"type":"Feature"},
	{"geometry":{"coordinates":[9.98117,48.394756],"type":"Point"},"properties":{"osm_id":"6757496889","tag":{"amenity":"waste_basket"}},"type":"Feature"},
	{"geometry":{"coordinates":[9.987002,48.395206],"type":"Point"},"properties":{"osm_id":"6763758646","tag":{"amenity":"waste_basket"}},"type":"Feature"},
	{"geometry":{"coordinates":[9.970383,48.388322],"type":"Point"},"properties":{"osm_id":"6875258676","tag":{"amenity":"waste_basket"}},"type":"Feature"},
	{"geometry":{"coordinates":[9.96976,48.388278],"type":"Point"},"properties":{"osm_id":"6875322051","tag":{"amenity":"waste_basket"}},"type":"Feature"},
	{"geometry":{"coordinates":[9.95772,48.390167],"type":"Point"},"properties":{"osm_id":"7006541523","tag":{"amenity":"waste_basket"}},"type":"Feature"},
	{"geometry":{"coordinates":[9.979237,48.392268],"type":"Point"},"properties":{"osm_id":"7172149213","tag":{"amenity":"waste_basket"}},"type":"Feature"},
	{"geometry":{"coordinates":[9.944141,48.393589],"type":"Point"},"properties":{"osm_id":"7450471508","tag":{"amenity":"waste_basket"}},"type":"Feature"},
	{"geometry":{"coordinates":[9.983327,48.392708],"type":"Point"},"properties":{"osm_id":"7464082085","tag":{"amenity":"recycling","recycling:glass_bottles":"yes","recycling_type":"container"}},"type":"Feature"},
	{"geometry":{"coordinates":[9.949339,48.389254],"type":"Point"},"properties":{"osm_id":"7650754417","tag":{"amenity":"waste_basket"}},"type":"Feature"},
	{"geometry":{"coordinates":[10.008868,48.362012],"type":"Point"},"properties":{"osm_id":"7678510038","tag":{"amenity":"waste_basket"}},"type":"Feature"},
	{"geometry":{"coordinates":[9.99174,48.369807],"type":"Point"},"properties":{"osm_id":"7678510040","tag":{"amenity":"waste_basket"}},"type":"Feature"},
	{"geometry":{"coordinates":[9.935157,48.374757],"type":"Point"},"properties":{"osm_id":"7816091091","tag":{"amenity":"waste_basket"}},"type":"Feature"},
	{"geometry":{"coordinates":[9.97094,48.397924],"type":"Point"},"properties":{"osm_id":"8024631402","tag":{"amenity":"recycling","covered":"no","indoor":"no","recycling:glass_bottles":"yes","recycling_type":"container"}},"type":"Feature"},
	{"geometry":{"coordinates":[9.982657,48.399811],"type":"Point"},"properties":{"osm_id":"8094806770","tag":{"amenity":"waste_basket","level":"0","waste":"trash"}},"type":"Feature"},
	{"geometry":{"coordinates":[9.982666,48.399599],"type":"Point"},"properties":{"osm_id":"8094806776","tag":{"amenity":"waste_basket","level":"0","waste":"trash"}},"type":"Feature"},
	{"geometry":{"coordinates":[9.982714,48.399017],"type":"Point"},"properties":{"osm_id":"8094806786","tag":{"amenity":"waste_basket","level":"0","waste":"trash"}},"type":"Feature"},
	{"geometry":{"coordinates":[9.983045,48.398838],"type":"Point"},"properties":{"osm_id":"8094806788","tag":{"amenity":"waste_basket","level":"0","waste":"trash"}},"type":"Feature"},
	{"geometry":{"coordinates":[9.982665,48.397667],"type":"Point"},"properties":{"osm_id":"8094806796","tag":{"amenity":"waste_basket","level":"0","waste":"trash"}},"type":"Feature"},
	{"geometry":{"coordinates":[9.982882,48.397808],"type":"Point"},"properties":{"osm_id":"8094806797","tag":{"amenity":"waste_basket","level":"0","waste":"trash"}},"type":"Feature"},
	{"geometry":{"coordinates":[9.982799,48.398116],"type":"Point"},"properties":{"osm_id":"8094806798","tag":{"amenity":"waste_basket","level":"0","waste":"trash"}},"type":"Feature"},
	{"geometry":{"coordinates":[9.985816,48.397881],"type":"Point"},"properties":{"osm_id":"8165659681","tag":{"amenity":"waste_basket"}},"type":"Feature"},
	{"geometry":{"coordinates":[9.985962,48.397702],"type":"Point"},"properties":{"osm_id":"8165659687","tag":{"amenity":"waste_basket"}},"type":"Feature"},
	{"geometry":{"coordinates":[9.987321,48.399526],"type":"Point"},"properties":{"osm_id":"8165688747","tag":{"amenity":"waste_basket"}},"type":"Feature"},
	{"geometry":{"coordinates":[10.003342,48.376457],"type":"Point"},"properties":{"osm_id":"8357320577","tag":{"amenity":"waste_disposal","waste":"trash;organic"}},"type":"Feature"},
	{"geometry":{"coordinates":[10.017534,48.395731],"type":"Point"},"properties":{"osm_id":"8425104568","tag":{"amenity":"recycling","operator":"Aktion Hoffnung","recycling:clothes":"yes","recycling_type":"container"}},"type":"Feature"},
	{"geometry":{"coordinates":[9.984022,48.397148],"type":"Point"},"properties":{"osm_id":"8589240841","tag":{"amenity":"waste_basket"}},"type":"Feature"},
	{"geometry":{"coordinates":[9.984,48.397499],"type":"Point"},"properties":{"osm_id":"8589240842","tag":{"amenity":"waste_basket"}},"type":"Feature"},
	{"geometry":{"coordinates":[9.984005,48.397429],"type":"Point"},"properties":{"osm_id":"8589240843","tag":{"amenity":"waste_basket"}},"type":"Feature"},
	{"geometry":{"coordinates":[9.984011,48.397358],"type":"Point"},"properties":{"osm_id":"8589240844","tag":{"amenity":"waste_basket"}},"type":"Feature"},
	{"geometry":{"coordinates":[9.984016,48.397289],"type":"Point"},"properties":{"osm_id":"8589240845","tag":{"amenity":"waste_basket"}},"type":"Feature"},
	{"geometry":{"coordinates":[9.984017,48.397217],"type":"Point"},"properties":{"osm_id":"8589240846","tag":{"amenity":"waste_basket"}},"type":"Feature"},
	{"geometry":{"coordinates":[9.979608,48.394819],"type":"Point"},"properties":{"osm_id":"8615809810","tag":{"amenity":"waste_basket"}},"type":"Feature"},
	{"geometry":{"coordinates":[9.978777,48.395004],"type":"Point"},"properties":{"osm_id":"8615809814","tag":{"amenity":"waste_basket"}},"type":"Feature"},
	{"geometry":{"coordinates":[9.97798,48.395343],"type":"Point"},"properties":{"osm_id":"8615809815","tag":{"amenity":"waste_basket"}},"type":"Feature"},
	{"geometry":{"coordinates":[9.98519,48.396908],"type":"Point"},"properties":{"osm_id":"8617925018","tag":{"amenity":"waste_basket"}},"type":"Feature"},
	{"geometry":{"coordinates":[9.99719,48.396414],"type":"Point"},"properties":{"osm_id":"8712733739","tag":{"amenity":"waste_basket"}},"type":"Feature"},
	{"geometry":{"coordinates":[9.997387,48.396643],"type":"Point"},"properties":{"osm_id":"8712733745","tag":{"amenity":"waste_basket"}},"type":"Feature"},
	{"geometry":{"coordinates":[9.99834,48.396915],"type":"Point"},"properties":{"osm_id":"8712733751","tag":{"amenity":"waste_basket"}},"type":"Feature"},
	{"geometry":{"coordinates":[10.003416,48.399183],"type":"Point"},"properties":{"osm_id":"8712733753","tag":{"amenity":"waste_basket"}},"type":"Feature"},
	{"geometry":{"coordinates":[9.997203,48.396464],"type":"Point"},"properties":{"osm_id":"8712733774","tag":{"amenity":"waste_basket"}},"type":"Feature"},
	{"geometry":{"coordinates":[9.997734,48.396791],"type":"Point"},"properties":{"osm_id":"8712733780","tag":{"amenity":"waste_basket"}},"type":"Feature"},
	{"geometry":{"coordinates":[9.997924,48.396869],"type":"Point"},"properties":{"osm_id":"8712733783","tag":{"amenity":"waste_basket"}},"type":"Feature"},
	{"geometry":{"coordinates":[9.984777,48.396101],"type":"Point"},"properties":{"osm_id":"8712815501","tag":{"amenity":"waste_basket"}},"type":"Feature"},
	{"geometry":{"coordinates":[9.984987,48.395325],"type":"Point"},"properties":{"osm_id":"8712815505","tag":{"amenity":"waste_basket"}},"type":"Feature"},
	{"geometry":{"coordinates":[9.984152,48.39596],"type":"Point"},"properties":{"osm_id":"8712815508","tag":{"amenity":"waste_basket"}},"type":"Feature"},
	{"geometry":{"coordinates":[9.978064,48.399821],"type":"Point"},"properties":{"osm_id":"8712865815","tag":{"amenity":"waste_basket"}},"type":"Feature"},
	{"geometry":{"coordinates":[9.983582,48.397246],"type":"Point"},"properties":{"osm_id":"8712896125","tag":{"amenity":"waste_basket"}},"type":"Feature"},
	{"geometry":{"coordinates":[9.968294,48.383839],"type":"Point"},"properties":{"osm_id":"8721240121","tag":{"amenity":"waste_basket"}},"type":"Feature"},
	{"geometry":{"coordinates":[9.999158,48.399465],"type":"Point"},"properties":{"osm_id":"8755827470","tag":{"amenity":"waste_basket"}},"type":"Feature"},
	{"geometry":{"coordinates":[9.998363,48.399596],"type":"Point"},"properties":{"osm_id":"8755827478","tag":{"amenity":"waste_basket"}},"type":"Feature"},
	{"geometry":{"coordinates":[10.000538,48.399563],"type":"Point"},"properties":{"osm_id":"8755827479","tag":{"amenity":"waste_basket"}},"type":"Feature"},
	{"geometry":{"coordinates":[9.992825,48.397142],"type":"Point"},"properties":{"osm_id":"8756179771","tag":{"amenity":"waste_basket"}},"type":"Feature"},
	{"geometry":{"coordinates":[9.993961,48.39722],"type":"Point"},"properties":{"osm_id":"8756179811","tag":{"amenity":"waste_basket"}},"type":"Feature"},
	{"geometry":{"coordinates":[9.970402,48.39892],"type":"Point"},"properties":{"osm_id":"8776944980","tag":{"amenity":"waste_basket"}},"type":"Feature"},
	{"geometry":{"coordinates":[9.971783,48.399435],"type":"Point"},"properties":{"osm_id":"8776944991","tag":{"amenity":"waste_basket"}},"type":"Feature"},
	{"geometry":{"coordinates":[9.970506,48.398991],"type":"Point"},"properties":{"osm_id":"8776944995","tag":{"amenity":"waste_basket"}},"type":"Feature"},
	{"geometry":{"coordinates":[9.96715,48.382384],"type":"Point"},"properties":{"osm_id":"8777153992","tag":{"amenity":"waste_basket"}},"type":"Feature"},
	{"geometry":{"coordinates":[9.961798,48.38096],"type":"Point"},"properties":{"osm_id":"8777153995","tag":{"amenity":"waste_basket"}},"type":"Feature"},
	{"geometry":{"coordinates":[10.000903,48.399154],"type":"Point"},"properties":{"osm_id":"8786343513","tag":{"amenity":"waste_basket"}},"type":"Feature"},
	{"geometry":{"coordinates":[9.998134,48.398486],"type":"Point"},"properties":{"osm_id":"8786343515","tag":{"amenity":"waste_basket"}},"type":"Feature"},
	{"geometry":{"coordinates":[10.000597,48.398273],"type":"Point"},"properties":{"osm_id":"8786347526","tag":{"amenity":"waste_basket"}},"type":"Feature"},
	{"geometry":{"coordinates":[9.998054,48.397734],"type":"Point"},"properties":{"osm_id":"8786347537","tag":{"amenity":"waste_basket"}},"type":"Feature"},
	{"geometry":{"coordinates":[10.001067,48.398727],"type":"Point"},"properties":{"osm_id":"8786347556","tag":{"amenity":"waste_basket"}},"type":"Feature"},
	{"geometry":{"coordinates":[10.000091,48.397585],"type":"Point"},"properties":{"osm_id":"8786347561","tag":{"amenity":"waste_basket"}},"type":"Feature"},
	{"geometry":{"coordinates":[9.995194,48.399558],"type":"Point"},"properties":{"osm_id":"8789685972","tag":{"amenity":"waste_basket"}},"type":"Feature"},
	{"geometry":{"coordinates":[9.992915,48.393249],"type":"Point"},"properties":{"osm_id":"8856626787","tag":{"amenity":"waste_basket"}},"type":"Feature"},
	{"geometry":{"coordinates":[9.991132,48.399501],"type":"Point"},"properties":{"osm_id":"8870613157","tag":{"amenity":"waste_basket"}},"type":"Feature"}
]
}
