{
"type": "FeatureCollection",
"features": [
	{"geometry":{"coordinates":[-112.30634,33.639636],"type":"Point"},"properties":{"osm_id":"5825830108","tag":{"amenity":"waste_disposal"}},"type":"Feature"},
	{"geometry":{"coordinates":[-112.251917,33.638806],"type":"Point"},"properties":{"osm_id":"5828307986","tag":{"amenity":"waste_disposal"}},"type":"Feature"},
	{"geometry":{"coordinates":[-112.240386,33.610672],"type":"Point"},"properties":{"osm_id":"6013766972","tag":{"amenity":"waste_disposal"}},"type":"Feature"},
	{"geometry":{"coordinates":[-112.239803,33.610711],"type":"Point"},"properties":{"osm_id":"6013766973","tag":{"amenity":"waste_disposal"}},"type":"Feature"},
	{"geometry":{"coordinates":[-112.239589,33.610719],"type":"Point"},"properties":{"osm_id":"6013766974","tag":{"amenity":"waste_disposal"}},"type":"Feature"},
	{"geometry":{"coordinates":[-112.238746,33.610727],"type":"Point"},"properties":{"osm_id":"6013766975","tag":{"amenity":"waste_disposal"}},"type":"Feature"},
	{"geometry":{"coordinates":[-112.241573,33.610707],"type":"Point"},"properties":{"osm_id":"6013766977","tag":{"amenity":"waste_disposal"}},"type":"Feature"},
	{"geometry":{"coordinates":[-112.241055,33.611568],"type":"Point"},"properties":{"osm_id":"6013766978","tag":{"amenity":"waste_disposal"}},"type":"Feature"},
	{"geometry":{"coordinates":[-112.240059,33.611581],"type":"Point"},"properties":{"osm_id":"6013766979","tag":{"amenity":"waste_disposal"}},"type":"Feature"},
	{"geometry":{"coordinates":[-112.240015,33.611603],"type":"Point"},"properties":{"osm_id":"6013766980","tag":{"amenity":"waste_disposal"}},"type":"Feature"},
	{"geometry":{"coordinates":[-112.23913,33.611591],"type":"Point"},"properties":{"osm_id":"6013766981","tag":{"amenity":"waste_disposal"}},"type":"Feature"},
	{"geometry":{"coordinates":[-112.239683,33.611635],"type":"Point"},"properties":{"osm_id":"6013766982","tag":{"amenity":"waste_disposal"}},"type":"Feature"},
	{"geometry":{"coordinates":[-112.238771,33.611629],"type":"Point"},"properties":{"osm_id":"6013766983","tag":{"amenity":"waste_disposal"}},"type":"Feature"},
	{"geometry":{"coordinates":[-112.238512,33.611541],"type":"Point"},"properties":{"osm_id":"6013766984","tag":{"amenity":"waste_disposal"}},"type":"Feature"},
	{"geometry":{"coordinates":[-112.28628,33.60392],"type":"Point"},"properties":{"osm_id":"6186905333","tag":{"amenity":"waste_basket"}},"type":"Feature"},
	{"geometry":{"coordinates":[-112.239747,33.613903],"type":"Point"},"properties":{"osm_id":"6379918192","tag":{"amenity":"waste_disposal"}},"type":"Feature"},
	{"geometry":{"coordinates":[-112.239735,33.613867],"type":"Point"},"properties":{"osm_id":"6379918193","tag":{"amenity":"waste_disposal"}},"type":"Feature"},
	{"geometry":{"coordinates":[-112.239449,33.614498],"type":"Point"},"properties":{"osm_id":"6379918194","tag":{"amenity":"waste_disposal"}},"type":"Feature"},
	{"geometry":{"coordinates":[-112.239454,33.614549],"type":"Point"},"properties":{"osm_id":"6379918195","tag":{"amenity":"waste_disposal"}},"type":"Feature"},
	{"geometry":{"coordinates":[-112.239033,33.615178],"type":"Point"},"properties":{"osm_id":"6379918197","tag":{"amenity":"waste_disposal"}},"type":"Feature"},
	{"geometry":{"coordinates":[-112.238988,33.615199],"type":"Point"},"properties":{"osm_id":"6379918198","tag":{"amenity":"waste_disposal"}},"type":"Feature"},
	{"geometry":{"coordinates":[-112.238733,33.616863],"type":"Point"},"properties":{"osm_id":"6379918199","tag":{"amenity":"waste_disposal"}},"type":"Feature"},
	{"geometry":{"coordinates":[-112.238731,33.616917],"type":"Point"},"properties":{"osm_id":"6379918200","tag":{"amenity":"waste_disposal"}},"type":"Feature"},
	{"geometry":{"coordinates":[-112.239616,33.626271],"type":"Point"},"properties":{"osm_id":"6379918207","tag":{"amenity":"waste_disposal"}},"type":"Feature"},
	{"geometry":{"coordinates":[-112.239233,33.627353],"type":"Point"},"properties":{"osm_id":"6379918208","tag":{"amenity":"waste_disposal"}},"type":"Feature"},
	{"geometry":{"coordinates":[-112.237616,33.625902],"type":"Point"},"properties":{"osm_id":"6802608267","tag":{"amenity":"waste_basket"}},"type":"Feature"},
	{"geometry":{"coordinates":[-112.237551,33.630008],"type":"Point"},"properties":{"osm_id":"6802608273","tag":{"amenity":"waste_basket"}},"type":"Feature"},
	{"geometry":{"coordinates":[-112.237209,33.629979],"type":"Point"},"properties":{"osm_id":"6802608282","tag":{"amenity":"waste_basket"}},"type":"Feature"},
	{"geometry":{"coordinates":[-112.237235,33.62593],"type":"Point"},"properties":{"osm_id":"6802617891","tag":{"amenity":"waste_basket"}},"type":"Feature"},
	{"geometry":{"coordinates":[-112.238872,33.60175],"type":"Point"},"properties":{"osm_id":"6802763960","tag":{"amenity":"waste_basket"}},"type":"Feature"},
	{"geometry":{"coordinates":[-112.239045,33.601775],"type":"Point"},"properties":{"osm_id":"6802763972","tag":{"amenity":"waste_basket"}},"type":"Feature"},
	{"geometry":{"coordinates":[-112.237914,33.602511],"type":"Point"},"properties":{"osm_id":"6802771588","tag":{"amenity":"waste_basket"}},"type":"Feature"},
	{"geometry":{"coordinates":[-112.238664,33.602595],"type":"Point"},"properties":{"osm_id":"6802771590","tag":{"amenity":"waste_basket"}},"type":"Feature"},
	{"geometry":{"coordinates":[-112.238996,33.60091],"type":"Point"},"properties":{"osm_id":"6802771592","tag":{"amenity":"waste_basket"}},"type":"Feature"},
	{"geometry":{"coordinates":[-112.239217,33.601156],"type":"Point"},"properties":{"osm_id":"6802771595","tag":{"amenity":"waste_basket"}},"type":"Feature"},
	{"geometry":{"coordinates":[-112.239137,33.601409],"type":"Point"},"properties":{"osm_id":"6802771596","tag":{"amenity":"waste_basket"}},"type":"Feature"},
	{"geometry":{"coordinates":[-112.236804,33.584468],"type":"Point"},"properties":{"osm_id":"6861954061","tag":{"amenity":"waste_disposal"}},"type":"Feature"},
	{"geometry":{"coordinates":[-112.244169,33.585353],"type":"Point"},"properties":{"osm_id":"6861954066","tag":{"amenity":"waste_disposal"}},"type":"Feature"},
	{"geometry":{"coordinates":[-112.255813,33.607735],"type":"Point"},"properties":{"osm_id":"6865925096","tag":{"amenity":"waste_disposal"}},"type":"Feature"},
	{"geometry":{"coordinates":[-112.255833,33.607754],"type":"Point"},"properties":{"osm_id":"6865925097","tag":{"amenity":"waste_disposal"}},"type":"Feature"},
	{"geometry":{"coordinates":[-112.253235,33.60896],"type":"Point"},"properties":{"osm_id":"6865925098","tag":{"amenity":"waste_disposal"}},"type":"Feature"},
	{"geometry":{"coordinates":[-112.253234,33.608925],"type":"Point"},"properties":{"osm_id":"6865925099","tag":{"amenity":"waste_disposal"}},"type":"Feature"},
	{"geometry":{"coordinates":[-112.256074,33.607445],"type":"Point"},"properties":{"osm_id":"6865925100","tag":{"amenity":"waste_disposal"}},"type":"Feature"},
	{"geometry":{"coordinates":[-112.256105,33.607446],"type":"Point"},"properties":{"osm_id":"6865925101","tag":{"amenity":"waste_disposal"}},"type":"Feature"},
	{"geometry":{"coordinates":[-112.256491,33.608942],"type":"Point"},"properties":{"osm_id":"6865925102","tag":{"amenity":"waste_disposal"}},"type":"Feature"},
	{"geometry":{"coordinates":[-112.256472,33.608965],"type":"Point"},"properties":{"osm_id":"6865925103","tag":{"amenity":"waste_disposal"}},"type":"Feature"},
	{"geometry":{"coordinates":[-112.25523,33.608985],"type":"Point"},"properties":{"osm_id":"6865925104","tag":{"amenity":"waste_disposal"}},"type":"Feature"},
	{"geometry":{"coordinates":[-112.255571,33.609004],"type":"Point"},"properties":{"osm_id":"6865925105","tag":{"amenity":"waste_disposal"}},"type":"Feature"},
	{"geometry":{"coordinates":[-112.255557,33.609022],"type":"Point"},"properties":{"osm_id":"6865925106","tag":{"amenity":"waste_disposal"}},"type":"Feature"},
	{"geometry":{"coordinates":[-112.25719,33.607414],"type":"Point"},"properties":{"osm_id":"6865925113","tag":{"amenity":"waste_disposal"}},"type":"Feature"},
	{"geometry":{"coordinates":[-112.257225,33.607414],"type":"Point"},"properties":{"osm_id":"6865925114","tag":{"amenity":"waste_disposal"}},"type":"Feature"},
	{"geometry":{"coordinates":[-112.252121,33.607248],"type":"Point"},"properties":{"osm_id":"6865925115","tag":{"amenity":"waste_disposal"}},"type":"Feature"},
	{"geometry":{"coordinates":[-112.252121,33.607207],"type":"Point"},"properties":{"osm_id":"6865925116","tag":{"amenity":"waste_disposal"}},"type":"Feature"},
	{"geometry":{"coordinates":[-112.251769,33.608038],"type":"Point"},"properties":{"osm_id":"6865925117","tag":{"amenity":"waste_disposal"}},"type":"Feature"},
	{"geometry":{"coordinates":[-112.250949,33.608797],"type":"Point"},"properties":{"osm_id":"6865925120","tag":{"amenity":"waste_disposal"}},"type":"Feature"},
	{"geometry":{"coordinates":[-112.250846,33.606449],"type":"Point"},"properties":{"osm_id":"6865925122","tag":{"amenity":"waste_disposal"}},"type":"Feature"},
	{"geometry":{"coordinates":[-112.250817,33.606414],"type":"Point"},"properties":{"osm_id":"6865925123","tag":{"amenity":"waste_disposal"}},"type":"Feature"},
	{"geometry":{"coordinates":[-112.250586,33.606462],"type":"Point"},"properties":{"osm_id":"6865925124","tag":{"amenity":"waste_disposal"}},"type":"Feature"},
	{"geometry":{"coordinates":[-112.252949,33.606127],"type":"Point"},"properties":{"osm_id":"6865925131","tag":{"amenity":"waste_disposal"}},"type":"Feature"},
	{"geometry":{"coordinates":[-112.253445,33.605163],"type":"Point"},"properties":{"osm_id":"6865925132","tag":{"amenity":"waste_disposal"}},"type":"Feature"},
	{"geometry":{"coordinates":[-112.252181,33.60518],"type":"Point"},"properties":{"osm_id":"6865925134","tag":{"amenity":"waste_disposal"}},"type":"Feature"},
	{"geometry":{"coordinates":[-112.250902,33.60617],"type":"Point"},"properties":{"osm_id":"6865925136","tag":{"amenity":"waste_disposal"}},"type":"Feature"},
	{"geometry":{"coordinates":[-112.251409,33.60603],"type":"Point"},"properties":{"osm_id":"6865925137","tag":{"amenity":"waste_disposal"}},"type":"Feature"},
	{"geometry":{"coordinates":[-112.250438,33.606763],"type":"Point"},"properties":{"osm_id":"6865925138","tag":{"amenity":"waste_disposal"}},"type":"Feature"},
	{"geometry":{"coordinates":[-112.250424,33.607689],"type":"Point"},"properties":{"osm_id":"6865925142","tag":{"amenity":"waste_disposal"}},"type":"Feature"},
	{"geometry":{"coordinates":[-112.248673,33.607962],"type":"Point"},"properties":{"osm_id":"6865925144","tag":{"amenity":"waste_disposal"}},"type":"Feature"},
	{"geometry":{"coordinates":[-112.250156,33.608736],"type":"Point"},"properties":{"osm_id":"6865925149","tag":{"amenity":"waste_disposal"}},"type":"Feature"},
	{"geometry":{"coordinates":[-112.249354,33.608865],"type":"Point"},"properties":{"osm_id":"6865925154","tag":{"amenity":"waste_disposal"}},"type":"Feature"},
	{"geometry":{"coordinates":[-112.248036,33.610718],"type":"Point"},"properties":{"osm_id":"6865925168","tag":{"amenity":"waste_disposal"}},"type":"Feature"},
	{"geometry":{"coordinates":[-112.247949,33.610719],"type":"Point"},"properties":{"osm_id":"6865925169","tag":{"amenity":"waste_disposal"}},"type":"Feature"},
	{"geometry":{"coordinates":[-112.248643,33.611908],"type":"Point"},"properties":{"osm_id":"6865928600","tag":{"amenity":"waste_disposal"}},"type":"Feature"},
	{"geometry":{"coordinates":[-112.247816,33.612127],"type":"Point"},"properties":{"osm_id":"6865928601","tag":{"amenity":"waste_disposal"}},"type":"Feature"},
	{"geometry":{"coordinates":[-112.247781,33.612129],"type":"Point"},"properties":{"osm_id":"6865928602","tag":{"amenity":"waste_disposal"}},"type":"Feature"},
	{"geometry":{"coordinates":[-112.25335,33.610001],"type":"Point"},"properties":{"osm_id":"6865928616","tag":{"amenity":"waste_disposal"}},"type":"Feature"},
	{"geometry":{"coordinates":[-112.254375,33.60998],"type":"Point"},"properties":{"osm_id":"6865928617","tag":{"amenity":"waste_disposal"}},"type":"Feature"},
	{"geometry":{"coordinates":[-112.253258,33.611203],"type":"Point"},"properties":{"osm_id":"6865928618","tag":{"amenity":"waste_disposal"}},"type":"Feature"},
	{"geometry":{"coordinates":[-112.246217,33.610568],"type":"Point"},"properties":{"osm_id":"6865928648","tag":{"amenity":"waste_disposal"}},"type":"Feature"},
	{"geometry":{"coordinates":[-112.246028,33.581431],"type":"Point"},"properties":{"osm_id":"6865928682","tag":{"amenity":"waste_disposal"}},"type":"Feature"},
	{"geometry":{"coordinates":[-112.236604,33.609411],"type":"Point"},"properties":{"osm_id":"6915117119","tag":{"amenity":"waste_disposal"}},"type":"Feature"},
	{"geometry":{"coordinates":[-112.237136,33.60903],"type":"Point"},"properties":{"osm_id":"6915117120","tag":{"amenity":"waste_disposal"}},"type":"Feature"},
	{"geometry":{"coordinates":[-112.262077,33.608376],"type":"Point"},"properties":{"osm_id":"6915117170","tag":{"amenity":"waste_disposal"}},"type":"Feature"},
	{"geometry":{"coordinates":[-112.2607,33.601989],"type":"Point"},"properties":{"osm_id":"6915117171","tag":{"amenity":"waste_disposal"}},"type":"Feature"},
	{"geometry":{"coordinates":[-112.260662,33.601978],"type":"Point"},"properties":{"osm_id":"6915117172","tag":{"amenity":"waste_disposal"}},"type":"Feature"},
	{"geometry":{"coordinates":[-112.269127,33.608534],"type":"Point"},"properties":{"osm_id":"6915117191","tag":{"amenity":"waste_disposal"}},"type":"Feature"},
	{"geometry":{"coordinates":[-112.269073,33.608544],"type":"Point"},"properties":{"osm_id":"6915117192","tag":{"amenity":"waste_disposal"}},"type":"Feature"},
	{"geometry":{"coordinates":[-112.268225,33.609925],"type":"Point"},"properties":{"osm_id":"6915117196","tag":{"amenity":"waste_disposal"}},"type":"Feature"},
	{"geometry":{"coordinates":[-112.237001,33.609385],"type":"Point"},"properties":{"osm_id":"6915117228","tag":{"amenity":"waste_disposal"}},"type":"Feature"},
	{"geometry":{"coordinates":[-112.236912,33.581462],"type":"Point"},"properties":{"osm_id":"7144594756","tag":{"amenity":"waste_disposal"}},"type":"Feature"},
	{"geometry":{"coordinates":[-112.281867,33.599754],"type":"Point"},"properties":{"osm_id":"7144594769","tag":{"amenity":"waste_disposal"}},"type":"Feature"},
	{"geometry":{"coordinates":[-112.287275,33.601517],"type":"Point"},"properties":{"osm_id":"7144594772","tag":{"amenity":"waste_disposal"}},"type":"Feature"},
	{"geometry":{"coordinates":[-112.287245,33.601504],"type":"Point"},"properties":{"osm_id":"7144594773","tag":{"amenity":"waste_disposal"}},"type":"Feature"},
	{"geometry":{"coordinates":[-112.302923,33.605556],"type":"Point"},"properties":{"osm_id":"7144594779","tag":{"amenity":"waste_disposal"}},"type":"Feature"},
	{"geometry":{"coordinates":[-112.282163,33.605514],"type":"Point"},"properties":{"osm_id":"7147445278","tag":{"amenity":"waste_disposal"}},"type":"Feature"},
	{"geometry":{"coordinates":[-112.280634,33.603506],"type":"Point"},"properties":{"osm_id":"7147445281","tag":{"amenity":"waste_disposal"}},"type":"Feature"},
	{"geometry":{"coordinates":[-112.299301,33.604737],"type":"Point"},"properties":{"osm_id":"7150339755","tag":{"amenity":"waste_disposal"}},"type":"Feature"},
	{"geometry":{"coordinates":[-112.289547,33.601917],"type":"Point"},"properties":{"osm_id":"7150339764","tag":{"amenity":"waste_disposal"}},"type":"Feature"},
	{"geometry":{"coordinates":[-112.238575,33.633466],"type":"Point"},"properties":{"osm_id":"7235787428","tag":{"amenity":"waste_disposal"}},"type":"Feature"},
	{"geometry":{"coordinates":[-112.238541,33.63346],"type":"Point"},"properties":{"osm_id":"7235787429","tag":{"amenity":"waste_disposal"}},"type":"Feature"},
	{"geometry":{"coordinates":[-112.290563,33.60519],"type":"Point"},"properties":{"osm_id":"7276215522","tag":{"amenity":"waste_disposal"}},"type":"Feature"},
	{"geometry":{"coordinates":[-112.268269,33.581935],"type":"Point"},"properties":{"osm_id":"7344976980","tag":{"amenity":"waste_disposal"}},"type":"Feature"},
	{"geometry":{"coordinates":[-112.26828,33.581903],"type":"Point"},"properties":{"osm_id":"7344976981","tag":{"amenity":"waste_disposal"}},"type":"Feature"},
	{"geometry":{"coordinates":[-112.26983,33.581687],"type":"Point"},"properties":{"osm_id":"7344976982","tag":{"amenity":"waste_disposal"}},"type":"Feature"},
	{"geometry":{"coordinates":[-112.269856,33.581652],"type":"Point"},"properties":{"osm_id":"7344976983","tag":{"amenity":"waste_disposal"}},"type":"Feature"},
	{"geometry":{"coordinates":[-112.298549,33.611331],"type":"Point"},"properties":{"osm_id":"7550336316","tag":{"amenity":"waste_disposal"}},"type":"Feature"},
	{"geometry":{"coordinates":[-112.299432,33.606018],"type":"Point"},"properties":{"osm_id":"7752324761","tag":{"amenity":"waste_disposal"}},"type":"Feature"},
	{"geometry":{"coordinates":[-112.300317,33.606286],"type":"Point"},"properties":{"osm_id":"7752324762","tag":{"amenity":"waste_disposal"}},"type":"Feature"},
	{"geometry":{"coordinates":[-112.301067,33.606515],"type":"Point"},"properties":{"osm_id":"7752324763","tag":{"amenity":"waste_disposal"}},"type":"Feature"},
	{"geometry":{"coordinates":[-112.300697,33.607812],"type":"Point"},"properties":{"osm_id":"7752324764","tag":{"amenity":"waste_disposal"}},"type":"Feature"},
	{"geometry":{"coordinates":[-112.302061,33.607964],"type":"Point"},"properties":{"osm_id":"7752324765","tag":{"amenity":"waste_disposal"}},"type":"Feature"},
	{"geometry":{"coordinates":[-112.302697,33.607613],"type":"Point"},"properties":{"osm_id":"7752324766","tag":{"amenity":"waste_disposal"}},"type":"Feature"},
	{"geometry":{"coordinates":[-112.30268,33.607075],"type":"Point"},"properties":{"osm_id":"7752324771","tag":{"amenity":"waste_disposal"}},"type":"Feature"},
	{"geometry":{"coordinates":[-112.26956,33.638678],"type":"Point"},"properties":{"osm_id":"7752544502","tag":{"amenity":"waste_disposal"}},"type":"Feature"},
	{"geometry":{"coordinates":[-112.239535,33.624382],"type":"Point"},"properties":{"osm_id":"7808573049","tag":{"amenity":"waste_disposal"}},"type":"Feature"},
	{"geometry":{"coordinates":[-112.238136,33.627967],"type":"Point"},"properties":{"osm_id":"7808573051","tag":{"amenity":"waste_disposal"}},"type":"Feature"},
	{"geometry":{"coordinates":[-112.239363,33.628148],"type":"Point"},"properties":{"osm_id":"7808573052","tag":{"amenity":"waste_disposal"}},"type":"Feature"},
	{"geometry":{"coordinates":[-112.23946,33.62815],"type":"Point"},"properties":{"osm_id":"7808573053","tag":{"amenity":"waste_disposal"}},"type":"Feature"},
	{"geometry":{"coordinates":[-112.237651,33.635443],"type":"Point"},"properties":{"osm_id":"7808573054","tag":{"amenity":"waste_disposal"}},"type":"Feature"},
	{"geometry":{"coordinates":[-112.237696,33.635456],"type":"Point"},"properties":{"osm_id":"7808573055","tag":{"amenity":"waste_disposal"}},"type":"Feature"},
	{"geometry":{"coordinates":[-112.237814,33.63559],"type":"Point"},"properties":{"osm_id":"7808573056","tag":{"amenity":"waste_disposal"}},"type":"Feature"},
	{"geometry":{"coordinates":[-112.237816,33.635563],"type":"Point"},"properties":{"osm_id":"7808573057","tag":{"amenity":"waste_disposal"}},"type":"Feature"},
	{"geometry":{"coordinates":[-112.238245,33.634339],"type":"Point"},"properties":{"osm_id":"7808573058","tag":{"amenity":"waste_disposal"}},"type":"Feature"},
	{"geometry":{"coordinates":[-112.238256,33.634311],"type":"Point"},"properties":{"osm_id":"7808573059","tag":{"amenity":"waste_disposal"}},"type":"Feature"},
	{"geometry":{"coordinates":[-112.238314,33.63423],"type":"Point"},"properties":{"osm_id":"7808573060","tag":{"amenity":"waste_disposal"}},"type":"Feature"},
	{"geometry":{"coordinates":[-112.238323,33.634203],"type":"Point"},"properties":{"osm_id":"7808573061","tag":{"amenity":"waste_disposal"}},"type":"Feature"},
	{"geometry":{"coordinates":[-112.322896,33.607759],"type":"Point"},"properties":{"osm_id":"7905530466","tag":{"amenity":"waste_disposal"}},"type":"Feature"},
	{"geometry":{"coordinates":[-112.322892,33.607022],"type":"Point"},"properties":{"osm_id":"7905530467","tag":{"amenity":"waste_disposal"}},"type":"Feature"},
	{"geometry":{"coordinates":[-112.322048,33.607179],"type":"Point"},"properties":{"osm_id":"7905530468","tag":{"amenity":"waste_disposal"}},"type":"Feature"},
	{"geometry":{"coordinates":[-112.322026,33.608071],"type":"Point"},"properties":{"osm_id":"7905530469","tag":{"amenity":"waste_disposal"}},"type":"Feature"},
	{"geometry":{"coordinates":[-112.322032,33.608562],"type":"Point"},"properties":{"osm_id":"7905530470","tag":{"amenity":"waste_disposal"}},"type":"Feature"},
	{"geometry":{"coordinates":[-112.323361,33.608312],"type":"Point"},"properties":{"osm_id":"7905530471","tag":{"amenity":"waste_disposal"}},"type":"Feature"},
	{"geometry":{"coordinates":[-112.323713,33.607858],"type":"Point"},"properties":{"osm_id":"7905711503","tag":{"amenity":"waste_disposal"}},"type":"Feature"},
	{"geometry":{"coordinates":[-112.32374,33.607836],"type":"Point"},"properties":{"osm_id":"7905711504","tag":{"amenity":"waste_disposal"}},"type":"Feature"},
	{"geometry":{"coordinates":[-112.320718,33.609298],"type":"Point"},"properties":{"osm_id":"7905711537","tag":{"amenity":"waste_disposal"}},"type":"Feature"}
]
}
