{
"type": "FeatureCollection",
"features": [
	{"geometry":{"coordinates":[141.008174,38.284973],"type":"Point"},"properties":{"name":"\u00e4\u00b8\u0087\u00e4\u00bb\u00a3","osm_id":"4931781523","tag":{"amenity":"recycling","branch":"\u00e5\u00a4\u009a\u00e8\u00b3\u0080\u00e5\u009f\u008e\u00e5\u00ba\u0097"}},"type":"Feature"},
	{"geometry":{"coordinates":[140.979063,38.327899],"type":"Point"},"properties":{"osm_id":"8282290318","tag":{"amenity":"waste_disposal"}},"type":"Feature"},
	{"geometry":{"coordinates":[140.98311,38.32862],"type":"Point"},"properties":{"osm_id":"8282324717","tag":{"amenity":"waste_disposal"}},"type":"Feature"},
	{"geometry":{"coordinates":[140.977738,38.328877],"type":"Point"},"properties":{"osm_id":"8282704128","tag":{"amenity":"waste_disposal"}},"type":"Feature"},
	{"geometry":{"coordinates":[140.9778,38.327643],"type":"Point"},"properties":{"osm_id":"8282704130","tag":{"amenity":"waste_disposal"}},"type":"Feature"},
	{"geometry":{"coordinates":[140.981748,38.330855],"type":"Point"},"properties":{"osm_id":"8282704323","tag":{"amenity":"waste_disposal"}},"type":"Feature"},
	{"geometry":{"coordinates":[140.982268,38.330944],"type":"Point"},"properties":{"osm_id":"8282704426","tag":{"amenity":"waste_disposal"}},"type":"Feature"},
	{"geometry":{"coordinates":[140.978404,38.327441],"type":"Point"},"properties":{"osm_id":"8282704430","tag":{"amenity":"waste_disposal"}},"type":"Feature"},
	{"geometry":{"coordinates":[140.983687,38.330529],"type":"Point"},"properties":{"osm_id":"8282704432","tag":{"amenity":"waste_disposal"}},"type":"Feature"},
	{"geometry":{"coordinates":[140.982784,38.331664],"type":"Point"},"properties":{"osm_id":"8282704433","tag":{"amenity":"waste_disposal"}},"type":"Feature"},
	{"geometry":{"coordinates":[140.979255,38.329851],"type":"Point"},"properties":{"osm_id":"8282704519","tag":{"amenity":"waste_disposal"}},"type":"Feature"},
	{"geometry":{"coordinates":[140.982652,38.332336],"type":"Point"},"properties":{"osm_id":"8282704521","tag":{"amenity":"waste_disposal"}},"type":"Feature"},
	{"geometry":{"coordinates":[140.981208,38.333296],"type":"Point"},"properties":{"osm_id":"8282704522","tag":{"amenity":"waste_disposal"}},"type":"Feature"},
	{"geometry":{"coordinates":[140.980235,38.330252],"type":"Point"},"properties":{"osm_id":"8282704620","tag":{"amenity":"waste_disposal"}},"type":"Feature"},
	{"geometry":{"coordinates":[140.98764,38.336277],"type":"Point"},"properties":{"osm_id":"8282713017","tag":{"amenity":"waste_disposal"}},"type":"Feature"},
	{"geometry":{"coordinates":[140.98099,38.31368],"type":"Point"},"properties":{"osm_id":"8283017420","tag":{"amenity":"waste_disposal"}},"type":"Feature"},
	{"geometry":{"coordinates":[140.981658,38.327185],"type":"Point"},"properties":{"osm_id":"8283018220","tag":{"amenity":"waste_disposal"}},"type":"Feature"},
	{"geometry":{"coordinates":[140.982525,38.319735],"type":"Point"},"properties":{"osm_id":"8283114317","tag":{"amenity":"waste_disposal"}},"type":"Feature"},
	{"geometry":{"coordinates":[140.97859,38.312889],"type":"Point"},"properties":{"osm_id":"8283115117","tag":{"amenity":"waste_disposal"}},"type":"Feature"},
	{"geometry":{"coordinates":[140.995867,38.319896],"type":"Point"},"properties":{"osm_id":"8293213524","tag":{"amenity":"waste_disposal"}},"type":"Feature"},
	{"geometry":{"coordinates":[140.994433,38.319196],"type":"Point"},"properties":{"osm_id":"8293214028","tag":{"amenity":"waste_disposal"}},"type":"Feature"},
	{"geometry":{"coordinates":[140.991931,38.320427],"type":"Point"},"properties":{"osm_id":"8293214029","tag":{"amenity":"waste_disposal"}},"type":"Feature"},
	{"geometry":{"coordinates":[140.996754,38.323717],"type":"Point"},"properties":{"osm_id":"8293214031","tag":{"amenity":"waste_disposal"}},"type":"Feature"},
	{"geometry":{"coordinates":[140.993972,38.323357],"type":"Point"},"properties":{"osm_id":"8293214530","tag":{"amenity":"waste_disposal"}},"type":"Feature"},
	{"geometry":{"coordinates":[140.993205,38.318982],"type":"Point"},"properties":{"osm_id":"8293214821","tag":{"amenity":"waste_disposal"}},"type":"Feature"},
	{"geometry":{"coordinates":[140.995069,38.32192],"type":"Point"},"properties":{"osm_id":"8295253517","tag":{"amenity":"waste_disposal"}},"type":"Feature"},
	{"geometry":{"coordinates":[140.995505,38.322292],"type":"Point"},"properties":{"osm_id":"8295264817","tag":{"amenity":"waste_disposal"}},"type":"Feature"},
	{"geometry":{"coordinates":[140.987858,38.326505],"type":"Point"},"properties":{"osm_id":"8295266718","tag":{"amenity":"waste_disposal"}},"type":"Feature"},
	{"geometry":{"coordinates":[140.988151,38.328102],"type":"Point"},"properties":{"osm_id":"8295270318","tag":{"amenity":"waste_disposal"}},"type":"Feature"},
	{"geometry":{"coordinates":[140.986482,38.324792],"type":"Point"},"properties":{"osm_id":"8295281817","tag":{"amenity":"waste_disposal"}},"type":"Feature"},
	{"geometry":{"coordinates":[140.976855,38.337557],"type":"Point"},"properties":{"osm_id":"8295607318","tag":{"amenity":"waste_disposal"}},"type":"Feature"},
	{"geometry":{"coordinates":[140.976971,38.338252],"type":"Point"},"properties":{"osm_id":"8295609217","tag":{"amenity":"waste_disposal"}},"type":"Feature"},
	{"geometry":{"coordinates":[140.977186,38.339037],"type":"Point"},"properties":{"osm_id":"8295609218","tag":{"amenity":"waste_disposal"}},"type":"Feature"},
	{"geometry":{"coordinates":[140.977743,38.338035],"type":"Point"},"properties":{"osm_id":"8296456319","tag":{"amenity":"waste_disposal"}},"type":"Feature"},
	{"geometry":{"coordinates":[140.976743,38.339689],"type":"Point"},"properties":{"osm_id":"8296456717","tag":{"amenity":"waste_disposal"}},"type":"Feature"},
	{"geometry":{"coordinates":[141.042037,38.315375],"type":"Point"},"properties":{"name":"\u00e3\u0088\u00b1\u00e9\u009d\u0092\u00e5\u008d\u0097\u00e5\u0095\u0086\u00e4\u00ba\u008b \u00e4\u00bb\u0099\u00e5\u008f\u00b0\u00e6\u0094\u00af\u00e5\u00ba\u0097 \u00e5\u00a1\u00a9\u00e7\u00ab\u0088\u00e5\u00b7\u00a5\u00e5\u00a0\u00b4","osm_id":"9121908591","tag":{"amenity":"recycling","building":"industrial","opening_hours":"Mo-Sa 07:00-17:00; Sa[2,4] off; PH off","opening_hours:covid19":"same","operator":"\u00e3\u0088\u00b1\u00e9\u009d\u0092\u00e5\u008d\u0097\u00e5\u0095\u0086\u00e4\u00ba\u008b","operator:type":"business","recycling:car_batteries":"yes","recycling:cars":"yes","recycling:metal_waste":"yes","recycling:plastic":"yes","recycling:tires":"yes","recycling_type":"centre"}},"type":"Feature"}
]
}
