{
"type": "FeatureCollection",
"lastupdate": "2020-08-06T00:00:00Z",
"features": [
	{"geometry":{"coordinates":[140.765828,36.97134],"type":"Point"},"properties":{"name":"\u00e3\u0081\u0084\u00e3\u0082\u008f\u00e3\u0081\u008d\u00e5\u00b8\u0082\u00e3\u0082\u00af\u00e3\u0083\u00aa\u00e3\u0083\u00b3\u00e3\u0083\u0094\u00e3\u0083\u00bc\u00e3\u0081\u00ae\u00e4\u00b8\u0098","osm_id":"6878172093","tag":{"addr:full":"\u798f\u5cf6\u770c\u3044\u308f\u304d\u5e02\u5c71\u7530\u753a\u5bb6\u30ce\u524d31","addr:postcode":"9748241","amenity":"recycling","name:ja":"\u3044\u308f\u304d\u5e02\u30af\u30ea\u30f3\u30d4\u30fc\u306e\u4e18","name:ja_rm":"\u3044\u308f\u304d\u3057\u304f\u308a\u3093\u3074\u30fc\u306e\u304a\u304b","operator":"\u3044\u308f\u304d\u5e02","recycling_type":"centre"}},"type":"Feature"},
	{"geometry":{"coordinates":[140.766024,36.971407],"type":"Point"},"properties":{"name":"\u00e3\u0081\u0084\u00e3\u0082\u008f\u00e3\u0081\u008d\u00e5\u00b8\u0082\u00e5\u00b1\u00b1\u00e7\u0094\u00b0\u00e7\u00b2\u0097\u00e5\u00a4\u00a7\u00e3\u0081\u0094\u00e3\u0081\u00bf\u00e5\u0087\u00a6\u00e7\u0090\u0086\u00e6\u0096\u00bd\u00e8\u00a8\u00ad","osm_id":"6878172096","tag":{"addr:full":"\u798f\u5cf6\u770c\u3044\u308f\u304d\u5e02\u5c71\u7530\u753a\u5bb6\u30ce\u524d31\uff08\u30af\u30ea\u30f3\u30d4\u30fc\u306e\u4e18\u5730\u5185\uff09","addr:postcode":"9748241","amenity":"recycling","name:ja":"\u3044\u308f\u304d\u5e02\u5c71\u7530\u7c97\u5927\u3054\u307f\u51e6\u7406\u65bd\u8a2d","name:ja_rm":"\u3044\u308f\u304d\u3057\u3084\u307e\u3060\u305d\u3060\u3044\u3054\u307f\u3057\u3087\u308a\u3057\u305b\u3064","operator":"\u3044\u308f\u304d\u5e02","recycling_type":"centre"}},"type":"Feature"}
]
}
