{
"type": "FeatureCollection",
"features": [
	{"geometry":{"coordinates":[-6.228712,53.422368],"type":"Point"},"properties":{"osm_id":"388514961","tag":{"amenity":"recycling","recycling:cans":"yes","recycling:glass":"yes"}},"type":"Feature"},
	{"geometry":{"coordinates":[-6.18702,53.422917],"type":"Point"},"properties":{"osm_id":"388523662","tag":{"amenity":"recycling","recycling:cans":"yes"}},"type":"Feature"},
	{"geometry":{"coordinates":[-6.174241,53.409246],"type":"Point"},"properties":{"osm_id":"388540789","tag":{"amenity":"recycling","recycling:cans":"yes","recycling:clothes":"yes","recycling:glass":"yes","recycling_type":"container"}},"type":"Feature"},
	{"geometry":{"coordinates":[-6.179224,53.408754],"type":"Point"},"properties":{"osm_id":"388540800","tag":{"amenity":"recycling","recycling:cans":"yes","recycling:glass":"yes"}},"type":"Feature"},
	{"geometry":{"coordinates":[-6.183773,53.410704],"type":"Point"},"properties":{"osm_id":"388540820","tag":{"amenity":"recycling","recycling:cans":"yes","recycling:glass":"yes"}},"type":"Feature"},
	{"geometry":{"coordinates":[-6.153441,53.39268],"type":"Point"},"properties":{"osm_id":"388541010","tag":{"amenity":"recycling","recycling:cans":"yes","recycling_type":"container"}},"type":"Feature"},
	{"geometry":{"coordinates":[-6.161548,53.402021],"type":"Point"},"properties":{"osm_id":"689404009","tag":{"amenity":"recycling"}},"type":"Feature"},
	{"geometry":{"coordinates":[-6.202079,53.390807],"type":"Point"},"properties":{"osm_id":"1521661183","tag":{"addr:city":"Dublin","addr:postal_district":"D05","addr:street":"Oscar Traynor Road","amenity":"recycling","location":"overground","recycling_type":"container"}},"type":"Feature"},
	{"geometry":{"coordinates":[-6.154285,53.38545],"type":"Point"},"properties":{"name":"Bottle Bank","osm_id":"2080833060","tag":{"amenity":"recycling","location":"overground","recycling_type":"container"}},"type":"Feature"},
	{"geometry":{"coordinates":[-6.181819,53.389134],"type":"Point"},"properties":{"osm_id":"2716323110","tag":{"amenity":"recycling","recycling:glass_bottles":"yes"}},"type":"Feature"},
	{"geometry":{"coordinates":[-6.193034,53.390524],"type":"Point"},"properties":{"osm_id":"5054927856","tag":{"amenity":"recycling","recycling_type":"container"}},"type":"Feature"},
	{"geometry":{"coordinates":[-6.195201,53.389148],"type":"Point"},"properties":{"osm_id":"5120211062","tag":{"amenity":"waste_basket"}},"type":"Feature"},
	{"geometry":{"coordinates":[-6.213569,53.395249],"type":"Point"},"properties":{"osm_id":"5121083499","tag":{"amenity":"waste_basket"}},"type":"Feature"},
	{"geometry":{"coordinates":[-6.213665,53.395257],"type":"Point"},"properties":{"osm_id":"5121083500","tag":{"amenity":"waste_basket"}},"type":"Feature"},
	{"geometry":{"coordinates":[-6.213726,53.395118],"type":"Point"},"properties":{"osm_id":"5121083501","tag":{"amenity":"waste_basket"}},"type":"Feature"},
	{"geometry":{"coordinates":[-6.238486,53.387814],"type":"Point"},"properties":{"osm_id":"5419488344","tag":{"amenity":"waste_basket"}},"type":"Feature"},
	{"geometry":{"coordinates":[-6.236982,53.387974],"type":"Point"},"properties":{"osm_id":"5419543439","tag":{"amenity":"waste_basket"}},"type":"Feature"},
	{"geometry":{"coordinates":[-6.23379,53.385922],"type":"Point"},"properties":{"osm_id":"5419543444","tag":{"amenity":"waste_basket"}},"type":"Feature"},
	{"geometry":{"coordinates":[-6.233984,53.385903],"type":"Point"},"properties":{"osm_id":"5419543445","tag":{"amenity":"waste_basket"}},"type":"Feature"},
	{"geometry":{"coordinates":[-6.229751,53.385766],"type":"Point"},"properties":{"osm_id":"5421162065","tag":{"amenity":"waste_basket"}},"type":"Feature"},
	{"geometry":{"coordinates":[-6.22876,53.386252],"type":"Point"},"properties":{"osm_id":"5421162066","tag":{"amenity":"waste_basket"}},"type":"Feature"},
	{"geometry":{"coordinates":[-6.224878,53.389897],"type":"Point"},"properties":{"osm_id":"5421470514","tag":{"amenity":"waste_basket"}},"type":"Feature"},
	{"geometry":{"coordinates":[-6.226753,53.385549],"type":"Point"},"properties":{"osm_id":"5421540162","tag":{"amenity":"waste_basket"}},"type":"Feature"},
	{"geometry":{"coordinates":[-6.22652,53.38552],"type":"Point"},"properties":{"osm_id":"5421540163","tag":{"amenity":"waste_basket"}},"type":"Feature"},
	{"geometry":{"coordinates":[-6.225999,53.385344],"type":"Point"},"properties":{"osm_id":"5421540178","tag":{"amenity":"waste_basket"}},"type":"Feature"},
	{"geometry":{"coordinates":[-6.219671,53.384472],"type":"Point"},"properties":{"osm_id":"5421629412","tag":{"amenity":"waste_basket"}},"type":"Feature"},
	{"geometry":{"coordinates":[-6.223485,53.384988],"type":"Point"},"properties":{"osm_id":"5421629414","tag":{"amenity":"waste_basket"}},"type":"Feature"},
	{"geometry":{"coordinates":[-6.216066,53.38409],"type":"Point"},"properties":{"osm_id":"5421644214","tag":{"amenity":"waste_basket"}},"type":"Feature"},
	{"geometry":{"coordinates":[-6.214493,53.383943],"type":"Point"},"properties":{"osm_id":"5421670740","tag":{"amenity":"waste_basket"}},"type":"Feature"},
	{"geometry":{"coordinates":[-6.178991,53.410666],"type":"Point"},"properties":{"osm_id":"5536326450","tag":{"amenity":"waste_basket"}},"type":"Feature"},
	{"geometry":{"coordinates":[-6.240117,53.404021],"type":"Point"},"properties":{"osm_id":"5543946991","tag":{"amenity":"waste_basket"}},"type":"Feature"},
	{"geometry":{"coordinates":[-6.206684,53.393526],"type":"Point"},"properties":{"osm_id":"5563467663","tag":{"amenity":"waste_basket"}},"type":"Feature"},
	{"geometry":{"coordinates":[-6.211292,53.395083],"type":"Point"},"properties":{"osm_id":"5564589447","tag":{"amenity":"waste_basket"}},"type":"Feature"},
	{"geometry":{"coordinates":[-6.229948,53.395264],"type":"Point"},"properties":{"osm_id":"5564682010","tag":{"amenity":"waste_basket"}},"type":"Feature"},
	{"geometry":{"coordinates":[-6.229664,53.395128],"type":"Point"},"properties":{"osm_id":"5564682333","tag":{"amenity":"waste_basket"}},"type":"Feature"},
	{"geometry":{"coordinates":[-6.19996,53.394909],"type":"Point"},"properties":{"osm_id":"5564726544","tag":{"amenity":"waste_basket"}},"type":"Feature"},
	{"geometry":{"coordinates":[-6.19998,53.395084],"type":"Point"},"properties":{"osm_id":"5564726546","tag":{"amenity":"waste_basket"}},"type":"Feature"},
	{"geometry":{"coordinates":[-6.2149,53.390245],"type":"Point"},"properties":{"osm_id":"5564874679","tag":{"amenity":"waste_basket"}},"type":"Feature"},
	{"geometry":{"coordinates":[-6.214908,53.391576],"type":"Point"},"properties":{"osm_id":"5564874690","tag":{"amenity":"waste_basket"}},"type":"Feature"},
	{"geometry":{"coordinates":[-6.214572,53.393624],"type":"Point"},"properties":{"osm_id":"5564874696","tag":{"amenity":"waste_basket"}},"type":"Feature"},
	{"geometry":{"coordinates":[-6.21616,53.385594],"type":"Point"},"properties":{"osm_id":"5564901349","tag":{"amenity":"waste_basket"}},"type":"Feature"},
	{"geometry":{"coordinates":[-6.216246,53.385207],"type":"Point"},"properties":{"osm_id":"5564901351","tag":{"amenity":"waste_basket"}},"type":"Feature"},
	{"geometry":{"coordinates":[-6.216125,53.384896],"type":"Point"},"properties":{"osm_id":"5564901353","tag":{"amenity":"waste_basket"}},"type":"Feature"},
	{"geometry":{"coordinates":[-6.193179,53.384533],"type":"Point"},"properties":{"osm_id":"5564939271","tag":{"amenity":"waste_basket","waste":"dog_excrement"}},"type":"Feature"},
	{"geometry":{"coordinates":[-6.191178,53.390279],"type":"Point"},"properties":{"osm_id":"5564939274","tag":{"amenity":"waste_basket"}},"type":"Feature"},
	{"geometry":{"coordinates":[-6.209829,53.393564],"type":"Point"},"properties":{"osm_id":"5565524239","tag":{"amenity":"waste_basket"}},"type":"Feature"},
	{"geometry":{"coordinates":[-6.202844,53.391152],"type":"Point"},"properties":{"osm_id":"5579678635","tag":{"amenity":"waste_basket"}},"type":"Feature"},
	{"geometry":{"coordinates":[-6.182881,53.390757],"type":"Point"},"properties":{"osm_id":"5579701436","tag":{"amenity":"waste_basket"}},"type":"Feature"},
	{"geometry":{"coordinates":[-6.196445,53.388887],"type":"Point"},"properties":{"osm_id":"5579705537","tag":{"amenity":"waste_basket"}},"type":"Feature"},
	{"geometry":{"coordinates":[-6.161824,53.398123],"type":"Point"},"properties":{"osm_id":"5586723953","tag":{"amenity":"waste_basket"}},"type":"Feature"},
	{"geometry":{"coordinates":[-6.161754,53.397603],"type":"Point"},"properties":{"osm_id":"5586723954","tag":{"amenity":"waste_basket"}},"type":"Feature"},
	{"geometry":{"coordinates":[-6.174714,53.385832],"type":"Point"},"properties":{"osm_id":"5591294308","tag":{"amenity":"waste_basket"}},"type":"Feature"},
	{"geometry":{"coordinates":[-6.171103,53.388997],"type":"Point"},"properties":{"osm_id":"5591294315","tag":{"amenity":"waste_basket"}},"type":"Feature"},
	{"geometry":{"coordinates":[-6.170423,53.389412],"type":"Point"},"properties":{"osm_id":"5591294316","tag":{"amenity":"waste_basket"}},"type":"Feature"},
	{"geometry":{"coordinates":[-6.169801,53.389791],"type":"Point"},"properties":{"osm_id":"5591294317","tag":{"amenity":"waste_basket"}},"type":"Feature"},
	{"geometry":{"coordinates":[-6.215275,53.395743],"type":"Point"},"properties":{"osm_id":"5597750305","tag":{"amenity":"waste_basket"}},"type":"Feature"},
	{"geometry":{"coordinates":[-6.229873,53.424499],"type":"Point"},"properties":{"osm_id":"5673606973","tag":{"amenity":"waste_basket"}},"type":"Feature"},
	{"geometry":{"coordinates":[-6.22909,53.425957],"type":"Point"},"properties":{"osm_id":"5673606975","tag":{"amenity":"waste_basket"}},"type":"Feature"},
	{"geometry":{"coordinates":[-6.214459,53.386927],"type":"Point"},"properties":{"osm_id":"6035570278","ref":"WMS 2306","tag":{"amenity":"waste_basket"}},"type":"Feature"},
	{"geometry":{"coordinates":[-6.219082,53.392707],"type":"Point"},"properties":{"osm_id":"6043059811","tag":{"amenity":"waste_basket"}},"type":"Feature"},
	{"geometry":{"coordinates":[-6.224162,53.390235],"type":"Point"},"properties":{"osm_id":"6043059813","tag":{"amenity":"waste_basket"}},"type":"Feature"},
	{"geometry":{"coordinates":[-6.227948,53.397543],"type":"Point"},"properties":{"osm_id":"6043090844","tag":{"amenity":"recycling","recycling:glass":"yes","recycling_type":"container"}},"type":"Feature"},
	{"geometry":{"coordinates":[-6.236794,53.384284],"type":"Point"},"properties":{"osm_id":"6045270665","tag":{"amenity":"waste_basket"}},"type":"Feature"},
	{"geometry":{"coordinates":[-6.229274,53.397689],"type":"Point"},"properties":{"osm_id":"6050277224","tag":{"amenity":"waste_basket"}},"type":"Feature"},
	{"geometry":{"coordinates":[-6.153769,53.402582],"type":"Point"},"properties":{"osm_id":"6077789679","tag":{"amenity":"waste_basket"}},"type":"Feature"},
	{"geometry":{"coordinates":[-6.157332,53.402923],"type":"Point"},"properties":{"osm_id":"6077829870","tag":{"amenity":"waste_basket"}},"type":"Feature"},
	{"geometry":{"coordinates":[-6.15683,53.402959],"type":"Point"},"properties":{"osm_id":"6077829872","tag":{"amenity":"waste_basket"}},"type":"Feature"},
	{"geometry":{"coordinates":[-6.162454,53.402986],"type":"Point"},"properties":{"osm_id":"6078215529","tag":{"amenity":"waste_basket","waste":"dog_excrement"}},"type":"Feature"},
	{"geometry":{"coordinates":[-6.178321,53.408812],"type":"Point"},"properties":{"osm_id":"6078317697","tag":{"amenity":"waste_basket"}},"type":"Feature"},
	{"geometry":{"coordinates":[-6.163729,53.390906],"type":"Point"},"properties":{"osm_id":"6532144419","tag":{"amenity":"waste_basket","material":"metal"}},"type":"Feature"},
	{"geometry":{"coordinates":[-6.166802,53.390997],"type":"Point"},"properties":{"osm_id":"6532144420","tag":{"amenity":"waste_basket","material":"metal"}},"type":"Feature"},
	{"geometry":{"coordinates":[-6.192114,53.390078],"type":"Point"},"properties":{"osm_id":"6532144421","tag":{"amenity":"waste_basket","material":"metal"}},"type":"Feature"},
	{"geometry":{"coordinates":[-6.230136,53.429555],"type":"Point"},"properties":{"osm_id":"7650581042","tag":{"amenity":"waste_basket"}},"type":"Feature"}
]
}
