{
"type": "FeatureCollection",
"features": [
	{"geometry":{"coordinates":[151.057052,-33.835553],"type":"Point"},"properties":{"osm_id":"1883482618","tag":{"amenity":"waste_basket"}},"type":"Feature"},
	{"geometry":{"coordinates":[151.080927,-33.84632],"type":"Point"},"properties":{"osm_id":"4242639777","tag":{"amenity":"waste_basket"}},"type":"Feature"},
	{"geometry":{"coordinates":[151.076595,-33.849179],"type":"Point"},"properties":{"osm_id":"4242639778","tag":{"amenity":"waste_basket"}},"type":"Feature"},
	{"geometry":{"coordinates":[151.061993,-33.825237],"type":"Point"},"properties":{"osm_id":"4322632818","tag":{"amenity":"waste_basket"}},"type":"Feature"},
	{"geometry":{"coordinates":[151.05958,-33.825366],"type":"Point"},"properties":{"osm_id":"4322632821","tag":{"amenity":"waste_basket"}},"type":"Feature"},
	{"geometry":{"coordinates":[151.059052,-33.82555],"type":"Point"},"properties":{"osm_id":"4322632859","tag":{"amenity":"waste_basket"}},"type":"Feature"},
	{"geometry":{"coordinates":[151.059909,-33.825736],"type":"Point"},"properties":{"osm_id":"4322632872","tag":{"amenity":"waste_basket"}},"type":"Feature"},
	{"geometry":{"coordinates":[151.057697,-33.82584],"type":"Point"},"properties":{"osm_id":"4322632891","tag":{"amenity":"waste_basket"}},"type":"Feature"},
	{"geometry":{"coordinates":[151.060628,-33.825947],"type":"Point"},"properties":{"osm_id":"4322632908","tag":{"amenity":"waste_basket"}},"type":"Feature"},
	{"geometry":{"coordinates":[151.061923,-33.826113],"type":"Point"},"properties":{"osm_id":"4322632912","tag":{"amenity":"waste_basket"}},"type":"Feature"},
	{"geometry":{"coordinates":[151.061214,-33.826079],"type":"Point"},"properties":{"osm_id":"4322632913","tag":{"amenity":"waste_basket"}},"type":"Feature"},
	{"geometry":{"coordinates":[151.05917,-33.82741],"type":"Point"},"properties":{"osm_id":"4322632923","tag":{"amenity":"waste_disposal"}},"type":"Feature"},
	{"geometry":{"coordinates":[151.062514,-33.84189],"type":"Point"},"properties":{"osm_id":"5203689825","tag":{"amenity":"waste_basket","source:position":"LPI Imagery"}},"type":"Feature"},
	{"geometry":{"coordinates":[151.073335,-33.83713],"type":"Point"},"properties":{"osm_id":"5203966148","tag":{"amenity":"waste_basket"}},"type":"Feature"},
	{"geometry":{"coordinates":[151.021565,-33.867459],"type":"Point"},"properties":{"osm_id":"6300751755","tag":{"amenity":"waste_basket"}},"type":"Feature"},
	{"geometry":{"coordinates":[151.01739,-33.862665],"type":"Point"},"properties":{"osm_id":"6300781268","tag":{"amenity":"waste_basket"}},"type":"Feature"},
	{"geometry":{"coordinates":[151.020898,-33.850238],"type":"Point"},"properties":{"osm_id":"6632908941","tag":{"amenity":"waste_basket"}},"type":"Feature"},
	{"geometry":{"coordinates":[151.071212,-33.86524],"type":"Point"},"properties":{"osm_id":"6888047691","tag":{"amenity":"recycling","recycling:clothes":"yes","recycling_type":"bin"}},"type":"Feature"},
	{"geometry":{"coordinates":[151.07071,-33.867272],"type":"Point"},"properties":{"osm_id":"6888047692","tag":{"amenity":"recycling","recycling:clothes":"yes","recycling_type":"bin"}},"type":"Feature"},
	{"geometry":{"coordinates":[151.082304,-33.865209],"type":"Point"},"properties":{"osm_id":"7087897902","tag":{"amenity":"waste_basket"}},"type":"Feature"},
	{"geometry":{"coordinates":[151.016446,-33.801942],"type":"Point"},"properties":{"osm_id":"7325214054","tag":{"amenity":"waste_basket","waste":"dog_excrement"}},"type":"Feature"},
	{"geometry":{"coordinates":[151.016244,-33.802114],"type":"Point"},"properties":{"osm_id":"7325214055","tag":{"amenity":"waste_basket","waste":"dog_excrement"}},"type":"Feature"},
	{"geometry":{"coordinates":[151.015827,-33.803428],"type":"Point"},"properties":{"osm_id":"7325214056","tag":{"amenity":"waste_basket","waste":"dog_excrement"}},"type":"Feature"},
	{"geometry":{"coordinates":[151.058935,-33.826975],"type":"Point"},"properties":{"osm_id":"7539537792","tag":{"amenity":"waste_basket"}},"type":"Feature"},
	{"geometry":{"coordinates":[151.058657,-33.826771],"type":"Point"},"properties":{"osm_id":"7539537793","tag":{"amenity":"waste_basket"}},"type":"Feature"},
	{"geometry":{"coordinates":[151.057821,-33.826317],"type":"Point"},"properties":{"osm_id":"7539537798","tag":{"amenity":"waste_basket"}},"type":"Feature"},
	{"geometry":{"coordinates":[151.058822,-33.826202],"type":"Point"},"properties":{"osm_id":"7861642969","tag":{"amenity":"waste_disposal"}},"type":"Feature"},
	{"geometry":{"coordinates":[151.061105,-33.826941],"type":"Point"},"properties":{"osm_id":"7861642991","tag":{"amenity":"waste_basket"}},"type":"Feature"},
	{"geometry":{"coordinates":[151.066519,-33.836505],"type":"Point"},"properties":{"osm_id":"7875416315","tag":{"amenity":"waste_disposal"}},"type":"Feature"},
	{"geometry":{"coordinates":[151.06676,-33.836395],"type":"Point"},"properties":{"osm_id":"7875416316","tag":{"amenity":"waste_disposal"}},"type":"Feature"},
	{"geometry":{"coordinates":[151.066932,-33.836733],"type":"Point"},"properties":{"osm_id":"7875416394","tag":{"amenity":"waste_disposal"}},"type":"Feature"},
	{"geometry":{"coordinates":[151.066765,-33.836821],"type":"Point"},"properties":{"osm_id":"7875416395","tag":{"amenity":"waste_disposal"}},"type":"Feature"},
	{"geometry":{"coordinates":[151.076628,-33.849865],"type":"Point"},"properties":{"osm_id":"7890415400","tag":{"amenity":"waste_basket"}},"type":"Feature"}
]
}
