{
"type": "FeatureCollection",
"lastupdate": "2020-07-31T00:00:00Z",
"features": [
	{"geometry":{"coordinates":[151.050388,-34.018494],"type":"Point"},"properties":{"osm_id":"1330381358","tag":{"amenity":"waste_basket","source:location":"nearmap"}},"type":"Feature"},
	{"geometry":{"coordinates":[151.010222,-34.071615],"type":"Point"},"properties":{"osm_id":"3606339704","tag":{"amenity":"waste_basket"}},"type":"Feature"},
	{"geometry":{"coordinates":[151.010685,-34.071679],"type":"Point"},"properties":{"osm_id":"3606339705","tag":{"amenity":"waste_basket"}},"type":"Feature"},
	{"geometry":{"coordinates":[151.071079,-34.034921],"type":"Point"},"properties":{"osm_id":"5265361613","tag":{"amenity":"waste_basket"}},"type":"Feature"},
	{"geometry":{"coordinates":[151.05683,-34.031058],"type":"Point"},"properties":{"name":"Plus Milk Bar","osm_id":"5267145688","tag":{"addr:city":"Sutherland","addr:housenumber":"25","addr:postcode":"2232","addr:street":"East Parade","amenity":"recycling","recycling:drink_bottles":"yes","recycling:glass_bottles":"yes","recycling:plastic":"yes","recycling:return_and_earn":"yes","recycling_type":"container","website":"https://returnandearn.org.au/"}},"type":"Feature"},
	{"geometry":{"coordinates":[151.057003,-34.037124],"type":"Point"},"properties":{"osm_id":"5634045026","tag":{"amenity":"recycling","operator":"Return and Earn","recycling:beer_bottles":"yes","recycling:soft_drink_bottles":"yes","recycling:soft_drink_cans":"yes","recycling_type":"container","website":"https://returnandearn.org.au/"}},"type":"Feature"},
	{"geometry":{"coordinates":[151.069,-34.037833],"type":"Point"},"properties":{"osm_id":"7016096496","tag":{"amenity":"waste_basket"}},"type":"Feature"},
	{"geometry":{"coordinates":[151.050583,-34.017888],"type":"Point"},"properties":{"osm_id":"7450956307","tag":{"amenity":"waste_basket"}},"type":"Feature"}
]
}
