{
"type": "FeatureCollection",
"features": [
	{"geometry":{"coordinates":[8.049606,52.267987],"type":"Point"},"properties":{"osm_id":"267355962","tag":{"amenity":"recycling","recycling:clothes":"yes","recycling:glass":"yes","recycling_type":"container"}},"type":"Feature"},
	{"geometry":{"coordinates":[8.056064,52.25275],"type":"Point"},"properties":{"osm_id":"379378214","tag":{"amenity":"recycling","recycling:clothes":"yes","recycling:glass":"yes","recycling_type":"centre"}},"type":"Feature"},
	{"geometry":{"coordinates":[8.050474,52.254607],"type":"Point"},"properties":{"osm_id":"401565251","tag":{"amenity":"recycling","recycling:clothes":"yes","recycling:glass":"yes","recycling_type":"container"}},"type":"Feature"},
	{"geometry":{"coordinates":[8.014603,52.265433],"type":"Point"},"properties":{"osm_id":"441952262","tag":{"amenity":"recycling","recycling:clothes":"yes","recycling:glass_bottles":"yes","recycling_type":"container"}},"type":"Feature"},
	{"geometry":{"coordinates":[8.022881,52.262578],"type":"Point"},"properties":{"osm_id":"461624551","tag":{"amenity":"recycling","recycling:glass_bottles":"yes","recycling_type":"container"}},"type":"Feature"},
	{"geometry":{"coordinates":[8.043513,52.263473],"type":"Point"},"properties":{"osm_id":"493384352","tag":{"amenity":"recycling","recycling:clothes":"yes","recycling:glass":"yes","recycling_type":"container"}},"type":"Feature"},
	{"geometry":{"coordinates":[8.085293,52.257453],"type":"Point"},"properties":{"osm_id":"933292584","tag":{"amenity":"recycling","opening_hours":"Mo-Sa 07:00-20:00; PH off","operator":"Stadt Osnabr\u00c3\u00bcck","recycling:glass_bottles":"yes","recycling_type":"container"}},"type":"Feature"},
	{"geometry":{"coordinates":[8.065237,52.262592],"type":"Point"},"properties":{"osm_id":"933292599","tag":{"amenity":"recycling","recycling:glass_bottles":"yes","recycling_type":"container"}},"type":"Feature"},
	{"geometry":{"coordinates":[8.079058,52.258658],"type":"Point"},"properties":{"osm_id":"933292643","tag":{"amenity":"recycling","opening_hours":"Mo-Sa 07:00-20:00; PH off","recycling:clothes":"yes","recycling:glass_bottles":"yes","recycling_type":"container"}},"type":"Feature"},
	{"geometry":{"coordinates":[8.065087,52.245855],"type":"Point"},"properties":{"osm_id":"943448098","tag":{"amenity":"recycling","recycling:glass":"yes","recycling_type":"container"}},"type":"Feature"},
	{"geometry":{"coordinates":[8.045294,52.254886],"type":"Point"},"properties":{"osm_id":"1016598692","tag":{"amenity":"recycling","recycling:clothes":"yes","recycling_type":"container"}},"type":"Feature"},
	{"geometry":{"coordinates":[8.042498,52.256211],"type":"Point"},"properties":{"osm_id":"1016598759","tag":{"amenity":"recycling","recycling:glass":"yes","recycling_type":"container"}},"type":"Feature"},
	{"geometry":{"coordinates":[8.067888,52.265607],"type":"Point"},"properties":{"osm_id":"1025426946","tag":{"amenity":"recycling","recycling:glass":"yes","recycling_type":"container"}},"type":"Feature"},
	{"geometry":{"coordinates":[8.07148,52.255197],"type":"Point"},"properties":{"osm_id":"1033540069","tag":{"amenity":"recycling","recycling:glass":"yes","recycling_type":"container"}},"type":"Feature"},
	{"geometry":{"coordinates":[8.066602,52.255576],"type":"Point"},"properties":{"osm_id":"1033540090","tag":{"amenity":"recycling","recycling:glass":"yes","recycling_type":"container"}},"type":"Feature"},
	{"geometry":{"coordinates":[8.02476,52.265328],"type":"Point"},"properties":{"osm_id":"1036521775","tag":{"amenity":"recycling","colour":"brown, white, green","material":"glass","recycling:glass_bottles":"yes","recycling_type":"container"}},"type":"Feature"},
	{"geometry":{"coordinates":[8.061587,52.266105],"type":"Point"},"properties":{"osm_id":"1154991906","tag":{"amenity":"recycling","recycling:clothes":"yes","recycling:glass":"yes","recycling_type":"container"}},"type":"Feature"},
	{"geometry":{"coordinates":[8.045275,52.267605],"type":"Point"},"properties":{"osm_id":"1165763431","tag":{"amenity":"recycling","recycling:glass":"yes","recycling:paper":"yes","recycling_type":"container"}},"type":"Feature"},
	{"geometry":{"coordinates":[8.054686,52.261788],"type":"Point"},"properties":{"osm_id":"1577946222","tag":{"amenity":"recycling","recycling:glass_bottles":"yes","recycling_type":"container"}},"type":"Feature"},
	{"geometry":{"coordinates":[8.057246,52.262993],"type":"Point"},"properties":{"osm_id":"1716047298","tag":{"amenity":"waste_basket"}},"type":"Feature"},
	{"geometry":{"coordinates":[8.059608,52.256199],"type":"Point"},"properties":{"osm_id":"1717808081","tag":{"amenity":"waste_basket"}},"type":"Feature"},
	{"geometry":{"coordinates":[8.05945,52.256209],"type":"Point"},"properties":{"osm_id":"1717808147","tag":{"amenity":"waste_basket"}},"type":"Feature"},
	{"geometry":{"coordinates":[8.072179,52.249914],"type":"Point"},"properties":{"osm_id":"1720487157","tag":{"amenity":"waste_basket"}},"type":"Feature"},
	{"geometry":{"coordinates":[8.072238,52.250109],"type":"Point"},"properties":{"osm_id":"1720487229","tag":{"amenity":"waste_basket"}},"type":"Feature"},
	{"geometry":{"coordinates":[8.07199,52.250135],"type":"Point"},"properties":{"osm_id":"1720487241","tag":{"amenity":"waste_basket"}},"type":"Feature"},
	{"geometry":{"coordinates":[8.070683,52.25015],"type":"Point"},"properties":{"osm_id":"1720487249","tag":{"amenity":"waste_basket","layer":"1"}},"type":"Feature"},
	{"geometry":{"coordinates":[8.071169,52.250151],"type":"Point"},"properties":{"osm_id":"1720487254","tag":{"amenity":"waste_basket"}},"type":"Feature"},
	{"geometry":{"coordinates":[8.071169,52.250229],"type":"Point"},"properties":{"osm_id":"1720487264","tag":{"amenity":"waste_basket"}},"type":"Feature"},
	{"geometry":{"coordinates":[8.070142,52.250293],"type":"Point"},"properties":{"osm_id":"1720487268","tag":{"amenity":"waste_basket"}},"type":"Feature"},
	{"geometry":{"coordinates":[8.070777,52.250316],"type":"Point"},"properties":{"osm_id":"1720487273","tag":{"amenity":"waste_basket"}},"type":"Feature"},
	{"geometry":{"coordinates":[8.069493,52.250426],"type":"Point"},"properties":{"osm_id":"1720487283","tag":{"amenity":"waste_basket"}},"type":"Feature"},
	{"geometry":{"coordinates":[8.070355,52.250716],"type":"Point"},"properties":{"osm_id":"1720487284","tag":{"amenity":"waste_basket"}},"type":"Feature"},
	{"geometry":{"coordinates":[8.070996,52.25079],"type":"Point"},"properties":{"osm_id":"1720487290","tag":{"amenity":"waste_basket"}},"type":"Feature"},
	{"geometry":{"coordinates":[8.07036,52.25082],"type":"Point"},"properties":{"osm_id":"1720487294","tag":{"amenity":"waste_basket"}},"type":"Feature"},
	{"geometry":{"coordinates":[8.070398,52.250879],"type":"Point"},"properties":{"osm_id":"1720487301","tag":{"amenity":"waste_basket"}},"type":"Feature"},
	{"geometry":{"coordinates":[8.070709,52.250926],"type":"Point"},"properties":{"osm_id":"1720487320","tag":{"amenity":"waste_basket"}},"type":"Feature"},
	{"geometry":{"coordinates":[8.070604,52.250928],"type":"Point"},"properties":{"osm_id":"1720487321","tag":{"amenity":"waste_basket"}},"type":"Feature"},
	{"geometry":{"coordinates":[8.070268,52.251315],"type":"Point"},"properties":{"osm_id":"1720487329","tag":{"amenity":"waste_basket"}},"type":"Feature"},
	{"geometry":{"coordinates":[8.070057,52.251317],"type":"Point"},"properties":{"osm_id":"1720487330","tag":{"amenity":"waste_basket"}},"type":"Feature"},
	{"geometry":{"coordinates":[8.069418,52.25134],"type":"Point"},"properties":{"osm_id":"1720487332","tag":{"amenity":"waste_basket"}},"type":"Feature"},
	{"geometry":{"coordinates":[8.069476,52.251358],"type":"Point"},"properties":{"osm_id":"1720487334","tag":{"amenity":"waste_basket"}},"type":"Feature"},
	{"geometry":{"coordinates":[8.067014,52.257339],"type":"Point"},"properties":{"osm_id":"1739490484","tag":{"amenity":"waste_basket"}},"type":"Feature"},
	{"geometry":{"coordinates":[8.00579,52.245138],"type":"Point"},"properties":{"osm_id":"1763572580","tag":{"amenity":"recycling","recycling:glass":"yes","recycling_type":"container"}},"type":"Feature"},
	{"geometry":{"coordinates":[8.02893,52.231343],"type":"Point"},"properties":{"osm_id":"2141495705","tag":{"amenity":"recycling","recycling_type":"container"}},"type":"Feature"},
	{"geometry":{"coordinates":[8.070289,52.24953],"type":"Point"},"properties":{"osm_id":"3020757419","tag":{"amenity":"waste_basket"}},"type":"Feature"},
	{"geometry":{"coordinates":[8.073822,52.249581],"type":"Point"},"properties":{"osm_id":"3020757424","tag":{"amenity":"waste_basket"}},"type":"Feature"},
	{"geometry":{"coordinates":[8.074582,52.248512],"type":"Point"},"properties":{"osm_id":"3022939817","tag":{"amenity":"waste_basket"}},"type":"Feature"},
	{"geometry":{"coordinates":[8.075179,52.247514],"type":"Point"},"properties":{"osm_id":"3024806613","tag":{"amenity":"waste_basket"}},"type":"Feature"},
	{"geometry":{"coordinates":[8.074885,52.247568],"type":"Point"},"properties":{"osm_id":"3024806614","tag":{"amenity":"waste_basket"}},"type":"Feature"},
	{"geometry":{"coordinates":[8.075116,52.247754],"type":"Point"},"properties":{"osm_id":"3024806615","tag":{"amenity":"waste_basket"}},"type":"Feature"},
	{"geometry":{"coordinates":[8.076182,52.24928],"type":"Point"},"properties":{"osm_id":"3025086277","tag":{"amenity":"waste_basket"}},"type":"Feature"},
	{"geometry":{"coordinates":[8.074368,52.249802],"type":"Point"},"properties":{"osm_id":"3025521039","tag":{"amenity":"waste_basket"}},"type":"Feature"},
	{"geometry":{"coordinates":[8.07297,52.250517],"type":"Point"},"properties":{"osm_id":"3027612997","tag":{"amenity":"waste_basket"}},"type":"Feature"},
	{"geometry":{"coordinates":[8.07353,52.250666],"type":"Point"},"properties":{"osm_id":"3027713848","tag":{"amenity":"waste_basket"}},"type":"Feature"},
	{"geometry":{"coordinates":[8.042314,52.243169],"type":"Point"},"properties":{"osm_id":"3244617679","tag":{"amenity":"recycling","recycling:clothes":"yes","recycling:glass":"yes","recycling_type":"container"}},"type":"Feature"},
	{"geometry":{"coordinates":[8.038292,52.258904],"type":"Point"},"properties":{"osm_id":"4180886635","tag":{"amenity":"recycling","recycling:glass_bottles":"yes","recycling_type":"container"}},"type":"Feature"},
	{"geometry":{"coordinates":[8.075097,52.2616],"type":"Point"},"properties":{"osm_id":"4320969832","tag":{"amenity":"recycling","opening_hours":"Mo-Fr 07:00-20:00; PH off","recycling:glass_bottles":"yes","recycling_type":"container"}},"type":"Feature"},
	{"geometry":{"coordinates":[8.064743,52.260634],"type":"Point"},"properties":{"osm_id":"4320969854","tag":{"amenity":"recycling","recycling:clothes":"yes","recycling_type":"container"}},"type":"Feature"},
	{"geometry":{"coordinates":[8.069964,52.262285],"type":"Point"},"properties":{"osm_id":"4323350327","tag":{"amenity":"recycling","recycling:shoes":"yes","recycling_type":"container"}},"type":"Feature"},
	{"geometry":{"coordinates":[8.065466,52.260435],"type":"Point"},"properties":{"osm_id":"4325274574","tag":{"amenity":"recycling","recycling:clothes":"yes","recycling:shoes":"yes","recycling_type":"container"}},"type":"Feature"},
	{"geometry":{"coordinates":[8.064926,52.265073],"type":"Point"},"properties":{"osm_id":"4362439433","tag":{"amenity":"recycling","recycling:clothes":"yes","recycling_type":"container"}},"type":"Feature"},
	{"geometry":{"coordinates":[8.0614,52.263464],"type":"Point"},"properties":{"osm_id":"4522791319","tag":{"amenity":"recycling","opening_hours":"Mo-Sa 07:00-20:00","recycling:clothes":"yes","recycling:glass":"yes","recycling:glass_bottles":"yes","recycling_type":"container"}},"type":"Feature"},
	{"geometry":{"coordinates":[8.060264,52.258447],"type":"Point"},"properties":{"osm_id":"4562180662","tag":{"amenity":"waste_basket"}},"type":"Feature"},
	{"geometry":{"coordinates":[8.077215,52.254263],"type":"Point"},"properties":{"osm_id":"4581562904","tag":{"amenity":"waste_basket"}},"type":"Feature"},
	{"geometry":{"coordinates":[8.085309,52.257474],"type":"Point"},"properties":{"osm_id":"4691773021","tag":{"amenity":"recycling","operator":"Deutsche Rote Kreuz","recycling:clothes":"yes","recycling_type":"container"}},"type":"Feature"},
	{"geometry":{"coordinates":[8.060834,52.256125],"type":"Point"},"properties":{"osm_id":"4708649068","tag":{"amenity":"waste_basket"}},"type":"Feature"},
	{"geometry":{"coordinates":[8.060555,52.256316],"type":"Point"},"properties":{"osm_id":"4708649069","tag":{"amenity":"waste_basket"}},"type":"Feature"},
	{"geometry":{"coordinates":[8.060741,52.256832],"type":"Point"},"properties":{"osm_id":"4708649071","tag":{"amenity":"waste_basket"}},"type":"Feature"},
	{"geometry":{"coordinates":[8.060552,52.257632],"type":"Point"},"properties":{"osm_id":"4708649073","tag":{"amenity":"waste_basket"}},"type":"Feature"},
	{"geometry":{"coordinates":[8.05999,52.25785],"type":"Point"},"properties":{"osm_id":"4708649075","tag":{"amenity":"waste_basket"}},"type":"Feature"},
	{"geometry":{"coordinates":[8.060249,52.25909],"type":"Point"},"properties":{"osm_id":"4708649084","tag":{"amenity":"waste_basket"}},"type":"Feature"},
	{"geometry":{"coordinates":[8.064632,52.263036],"type":"Point"},"properties":{"osm_id":"4745567581","tag":{"amenity":"waste_basket"}},"type":"Feature"},
	{"geometry":{"coordinates":[8.064458,52.263005],"type":"Point"},"properties":{"osm_id":"4745567582","tag":{"amenity":"waste_basket"}},"type":"Feature"},
	{"geometry":{"coordinates":[8.073862,52.252506],"type":"Point"},"properties":{"osm_id":"4784606336","tag":{"amenity":"waste_basket"}},"type":"Feature"},
	{"geometry":{"coordinates":[8.080027,52.233811],"type":"Point"},"properties":{"osm_id":"4811891801","tag":{"amenity":"waste_basket"}},"type":"Feature"},
	{"geometry":{"coordinates":[8.073498,52.248228],"type":"Point"},"properties":{"osm_id":"5069308180","tag":{"amenity":"waste_basket"}},"type":"Feature"},
	{"geometry":{"coordinates":[8.07382,52.2472],"type":"Point"},"properties":{"osm_id":"5069308830","tag":{"amenity":"waste_basket"}},"type":"Feature"},
	{"geometry":{"coordinates":[8.07263,52.247825],"type":"Point"},"properties":{"osm_id":"5069308889","tag":{"amenity":"waste_basket"}},"type":"Feature"},
	{"geometry":{"coordinates":[8.047478,52.260051],"type":"Point"},"properties":{"osm_id":"5887034019","tag":{"amenity":"waste_basket"}},"type":"Feature"},
	{"geometry":{"coordinates":[8.036271,52.26432],"type":"Point"},"properties":{"osm_id":"5887073180","tag":{"amenity":"waste_basket"}},"type":"Feature"},
	{"geometry":{"coordinates":[8.036666,52.264385],"type":"Point"},"properties":{"osm_id":"5887073183","tag":{"amenity":"waste_basket"}},"type":"Feature"},
	{"geometry":{"coordinates":[8.027934,52.238151],"type":"Point"},"properties":{"osm_id":"5964210479","tag":{"amenity":"waste_basket"}},"type":"Feature"},
	{"geometry":{"coordinates":[8.028208,52.237935],"type":"Point"},"properties":{"osm_id":"5964210480","tag":{"amenity":"waste_basket"}},"type":"Feature"},
	{"geometry":{"coordinates":[8.021148,52.237557],"type":"Point"},"properties":{"osm_id":"5975873331","tag":{"amenity":"waste_basket"}},"type":"Feature"},
	{"geometry":{"coordinates":[8.007385,52.247437],"type":"Point"},"properties":{"osm_id":"6002609980","tag":{"amenity":"waste_basket"}},"type":"Feature"},
	{"geometry":{"coordinates":[8.050864,52.237301],"type":"Point"},"properties":{"osm_id":"6017800416","tag":{"amenity":"waste_basket"}},"type":"Feature"},
	{"geometry":{"coordinates":[8.0199,52.22723],"type":"Point"},"properties":{"osm_id":"6029845396","tag":{"amenity":"waste_basket"}},"type":"Feature"},
	{"geometry":{"coordinates":[8.004316,52.26567],"type":"Point"},"properties":{"osm_id":"6050897817","tag":{"addr:city":"Osnabr\u00c3\u00bcck","addr:postcode":"49078","amenity":"recycling","recycling:glass_bottles":"yes","recycling_type":"container"}},"type":"Feature"},
	{"geometry":{"coordinates":[8.031344,52.267096],"type":"Point"},"properties":{"osm_id":"6238298868","tag":{"amenity":"recycling","recycling:clothes":"yes","recycling_type":"container"}},"type":"Feature"},
	{"geometry":{"coordinates":[8.066637,52.255666],"type":"Point"},"properties":{"name":"Gartenabfallplatz Hanns-Braun Stra\u00c3\u009fe","osm_id":"7385485470","tag":{"amenity":"recycling","opening_hours":"Mar-Nov Tu, Th 12:00-18:00; Mar-Nov Sa 11:00-17:00; Dec 1-Dec 20 Sa 9:00-15:00; PH closed","recycling:garden_waste":"yes","recycling:green_waste":"yes","recycling_type":"centre"}},"type":"Feature"},
	{"geometry":{"coordinates":[8.019425,52.261925],"type":"Point"},"properties":{"osm_id":"7389616745","tag":{"addr:city":"Osnabr\u00c3\u00bcck","addr:postcode":"49080","addr:street":"Quellwiese","amenity":"recycling","opening_hours":"24/7","recycling:clothes":"yes","recycling:glass":"yes","recycling:glass_bottles":"yes","recycling_type":"container","wheelchair":"yes"}},"type":"Feature"},
	{"geometry":{"coordinates":[8.04624,52.257006],"type":"Point"},"properties":{"osm_id":"7555521152","tag":{"amenity":"waste_basket","material":"steel","waste":"trash"}},"type":"Feature"},
	{"geometry":{"coordinates":[8.046601,52.257329],"type":"Point"},"properties":{"osm_id":"7555521154","tag":{"amenity":"waste_basket","material":"steel","waste":"trash"}},"type":"Feature"},
	{"geometry":{"coordinates":[8.042547,52.256316],"type":"Point"},"properties":{"osm_id":"7628454689","tag":{"amenity":"recycling","recycling:clothes":"yes","recycling_type":"container"}},"type":"Feature"}
]
}
