{
"type": "FeatureCollection",
"features": [
	{"geometry":{"coordinates":[8.059813,52.198674],"type":"Point"},"properties":{"osm_id":"322781444","tag":{"amenity":"recycling","recycling:glass":"yes","recycling_type":"container"}},"type":"Feature"},
	{"geometry":{"coordinates":[8.059691,52.160844],"type":"Point"},"properties":{"osm_id":"517989503","tag":{"amenity":"recycling","recycling:glass":"yes","recycling_type":"container"}},"type":"Feature"},
	{"geometry":{"coordinates":[8.055723,52.201385],"type":"Point"},"properties":{"osm_id":"899665335","tag":{"amenity":"recycling","recycling:glass":"yes","recycling_type":"container"}},"type":"Feature"},
	{"geometry":{"coordinates":[8.050076,52.162241],"type":"Point"},"properties":{"osm_id":"931732145","tag":{"amenity":"recycling","recycling:glass":"yes","recycling_type":"container"}},"type":"Feature"},
	{"geometry":{"coordinates":[8.067644,52.196942],"type":"Point"},"properties":{"osm_id":"2049017580","tag":{"amenity":"recycling","recycling:clothes":"yes","recycling_type":"container"}},"type":"Feature"},
	{"geometry":{"coordinates":[8.067252,52.197877],"type":"Point"},"properties":{"osm_id":"2049017614","tag":{"amenity":"recycling","recycling:glass":"yes","recycling_type":"container"}},"type":"Feature"},
	{"geometry":{"coordinates":[8.06137,52.201019],"type":"Point"},"properties":{"osm_id":"2085889748","tag":{"amenity":"waste_basket"}},"type":"Feature"},
	{"geometry":{"coordinates":[8.059988,52.20131],"type":"Point"},"properties":{"osm_id":"2085889750","tag":{"amenity":"waste_basket"}},"type":"Feature"},
	{"geometry":{"coordinates":[8.058007,52.20261],"type":"Point"},"properties":{"osm_id":"2085889755","tag":{"amenity":"recycling","recycling:clothes":"yes","recycling_type":"container"}},"type":"Feature"},
	{"geometry":{"coordinates":[8.064167,52.207773],"type":"Point"},"properties":{"osm_id":"2087274335","tag":{"amenity":"recycling","recycling:clothes":"yes","recycling_type":"container"}},"type":"Feature"},
	{"geometry":{"coordinates":[8.068214,52.190675],"type":"Point"},"properties":{"osm_id":"2097291376","tag":{"amenity":"recycling","recycling:glass":"yes","recycling_type":"container"}},"type":"Feature"},
	{"geometry":{"coordinates":[8.061934,52.193607],"type":"Point"},"properties":{"osm_id":"2109016184","tag":{"amenity":"recycling","recycling:glass":"yes","recycling_type":"container"}},"type":"Feature"},
	{"geometry":{"coordinates":[8.066698,52.194595],"type":"Point"},"properties":{"osm_id":"2109016192","tag":{"amenity":"waste_basket"}},"type":"Feature"},
	{"geometry":{"coordinates":[8.072946,52.19623],"type":"Point"},"properties":{"osm_id":"2149242778","tag":{"amenity":"recycling","recycling:glass":"yes","recycling_type":"container"}},"type":"Feature"},
	{"geometry":{"coordinates":[8.068361,52.206081],"type":"Point"},"properties":{"osm_id":"2149242938","tag":{"amenity":"recycling","recycling:glass":"yes","recycling:paper":"no","recycling_type":"container"}},"type":"Feature"},
	{"geometry":{"coordinates":[8.068706,52.206487],"type":"Point"},"properties":{"osm_id":"2149242939","tag":{"amenity":"recycling","recycling:clothes":"yes","recycling_type":"container"}},"type":"Feature"},
	{"geometry":{"coordinates":[8.06663,52.207479],"type":"Point"},"properties":{"osm_id":"2149242943","tag":{"amenity":"recycling","recycling:clothes":"yes","recycling:glass":"yes","recycling_type":"container"}},"type":"Feature"},
	{"geometry":{"coordinates":[8.066052,52.207523],"type":"Point"},"properties":{"osm_id":"2149242944","tag":{"amenity":"recycling","operator":"Kolpingwerk","recycling:clothes":"yes","recycling_type":"container"}},"type":"Feature"},
	{"geometry":{"coordinates":[8.048656,52.200274],"type":"Point"},"properties":{"osm_id":"2183603315","tag":{"amenity":"recycling","recycling_type":"container"}},"type":"Feature"},
	{"geometry":{"coordinates":[8.065237,52.197992],"type":"Point"},"properties":{"osm_id":"2639816012","tag":{"addr:city":"Georgsmarienh\u00c3\u00bctte","addr:postcode":"49124","amenity":"waste_basket"}},"type":"Feature"},
	{"geometry":{"coordinates":[8.031269,52.205998],"type":"Point"},"properties":{"osm_id":"2815230307","tag":{"amenity":"recycling","recycling:glass":"yes","recycling_type":"container"}},"type":"Feature"},
	{"geometry":{"coordinates":[8.035907,52.208065],"type":"Point"},"properties":{"osm_id":"2828868970","tag":{"amenity":"recycling","recycling:glass":"yes","recycling_type":"container"}},"type":"Feature"},
	{"geometry":{"coordinates":[8.040364,52.194738],"type":"Point"},"properties":{"osm_id":"7765732849","tag":{"amenity":"waste_basket"}},"type":"Feature"}
]
}
