{
"type": "FeatureCollection",
"features": [
	{"geometry":{"coordinates":[8.036121,51.836334],"type":"Point"},"properties":{"osm_id":"1821989907","tag":{"amenity":"waste_basket"}},"type":"Feature"},
	{"geometry":{"coordinates":[8.020743,51.852426],"type":"Point"},"properties":{"name":"Recyclinghof","osm_id":"2043568474","tag":{"amenity":"recycling","opening_hours":"Mo-Fr 08:00-17:00; Sa 08:00-12:00","operator":"Abfallwirtschaftsgesellschaft des Kreises Warendorf mbH","recycling_type":"centre"}},"type":"Feature"},
	{"geometry":{"coordinates":[8.032005,51.879892],"type":"Point"},"properties":{"osm_id":"2349565297","tag":{"amenity":"recycling","recycling:glass":"yes"}},"type":"Feature"},
	{"geometry":{"coordinates":[8.024024,51.836836],"type":"Point"},"properties":{"osm_id":"3089312766","tag":{"amenity":"recycling","mapillary":"Sg-JQwgGBLh4LgKP7hrqQw","recycling:glass":"yes","recycling_type":"container","survey:date":"2016-07-30"}},"type":"Feature"},
	{"geometry":{"coordinates":[8.032873,51.841418],"type":"Point"},"properties":{"osm_id":"3604936665","tag":{"amenity":"waste_disposal"}},"type":"Feature"},
	{"geometry":{"coordinates":[8.032659,51.841478],"type":"Point"},"properties":{"osm_id":"3604936670","tag":{"amenity":"waste_disposal"}},"type":"Feature"},
	{"geometry":{"coordinates":[8.033032,51.841482],"type":"Point"},"properties":{"osm_id":"3604936671","tag":{"amenity":"waste_disposal"}},"type":"Feature"},
	{"geometry":{"coordinates":[8.032498,51.84159],"type":"Point"},"properties":{"osm_id":"3604936692","tag":{"amenity":"waste_disposal"}},"type":"Feature"},
	{"geometry":{"coordinates":[8.032762,51.841795],"type":"Point"},"properties":{"osm_id":"3604936715","tag":{"amenity":"waste_disposal"}},"type":"Feature"},
	{"geometry":{"coordinates":[8.041514,51.881715],"type":"Point"},"properties":{"osm_id":"3681886542","tag":{"amenity":"waste_basket"}},"type":"Feature"},
	{"geometry":{"coordinates":[8.029437,51.838778],"type":"Point"},"properties":{"osm_id":"4504933656","tag":{"amenity":"waste_basket"}},"type":"Feature"},
	{"geometry":{"coordinates":[8.029075,51.839028],"type":"Point"},"properties":{"osm_id":"4504933663","tag":{"amenity":"waste_basket"}},"type":"Feature"},
	{"geometry":{"coordinates":[8.02893,51.83923],"type":"Point"},"properties":{"osm_id":"4504933680","tag":{"amenity":"waste_disposal"}},"type":"Feature"},
	{"geometry":{"coordinates":[8.028965,51.839198],"type":"Point"},"properties":{"osm_id":"4504933681","tag":{"amenity":"recycling","recycling_type":"container"}},"type":"Feature"},
	{"geometry":{"coordinates":[8.030145,51.838753],"type":"Point"},"properties":{"osm_id":"4504934189","tag":{"amenity":"waste_basket"}},"type":"Feature"}
]
}
