{
"type": "FeatureCollection",
"features": [
	{"geometry":{"coordinates":[8.021889,51.764692],"type":"Point"},"properties":{"name":"getrennte Abfalleimer","osm_id":"4929925556","tag":{"amenity":"waste_basket"}},"type":"Feature"},
	{"geometry":{"coordinates":[8.037218,51.774316],"type":"Point"},"properties":{"osm_id":"5024539060","tag":{"amenity":"recycling","recycling:glass_bottles":"yes","recycling_type":"container"}},"type":"Feature"},
	{"geometry":{"coordinates":[8.05179,51.746213],"type":"Point"},"properties":{"osm_id":"5026562138","tag":{"amenity":"recycling","recycling:clothes":"yes","recycling_type":"container"}},"type":"Feature"},
	{"geometry":{"coordinates":[8.028876,51.749706],"type":"Point"},"properties":{"osm_id":"7149619277","tag":{"amenity":"recycling","recycling:glass":"yes","recycling_type":"container"}},"type":"Feature"},
	{"geometry":{"coordinates":[8.045651,51.755457],"type":"Point"},"properties":{"osm_id":"7872352578","tag":{"amenity":"recycling","recycling:glass_bottles":"yes","recycling_type":"container"}},"type":"Feature"},
	{"geometry":{"coordinates":[8.014302,51.781125],"type":"Point"},"properties":{"osm_id":"8042292536","tag":{"amenity":"recycling","recycling:glass":"yes","recycling_type":"container"}},"type":"Feature"},
	{"geometry":{"coordinates":[8.052579,51.764474],"type":"Point"},"properties":{"osm_id":"8640523356","tag":{"amenity":"recycling","operator":"DRK","recycling:clothes":"yes","recycling_type":"container"}},"type":"Feature"},
	{"geometry":{"coordinates":[8.040111,51.766689],"type":"Point"},"properties":{"osm_id":"9074339077","tag":{"amenity":"recycling","recycling:clothes":"yes","recycling_type":"container"}},"type":"Feature"}
]
}
