{
"type": "FeatureCollection",
"features": [
	{"geometry":{"coordinates":[8.003732,51.043288],"type":"Point"},"properties":{"osm_id":"6799029399","tag":{"amenity":"waste_basket"}},"type":"Feature"},
	{"geometry":{"coordinates":[7.999603,51.042273],"type":"Point"},"properties":{"osm_id":"6799032516","tag":{"amenity":"waste_basket"}},"type":"Feature"},
	{"geometry":{"coordinates":[8.002002,51.043258],"type":"Point"},"properties":{"osm_id":"6799032536","tag":{"amenity":"waste_basket"}},"type":"Feature"},
	{"geometry":{"coordinates":[8.002557,51.042483],"type":"Point"},"properties":{"osm_id":"6799032546","tag":{"amenity":"waste_basket"}},"type":"Feature"},
	{"geometry":{"coordinates":[8.002426,51.033187],"type":"Point"},"properties":{"osm_id":"6812766872","tag":{"amenity":"waste_basket"}},"type":"Feature"},
	{"geometry":{"coordinates":[8.003781,51.042266],"type":"Point"},"properties":{"osm_id":"6818179500","tag":{"amenity":"waste_basket","waste":"cigarettes"}},"type":"Feature"},
	{"geometry":{"coordinates":[8.003277,51.041268],"type":"Point"},"properties":{"osm_id":"6818179510","tag":{"amenity":"waste_basket"}},"type":"Feature"},
	{"geometry":{"coordinates":[8.003313,51.041063],"type":"Point"},"properties":{"osm_id":"6818179511","tag":{"amenity":"recycling","collection_times":"Mo-Sa 07:00-19:00; Su,PH off","recycling:glass":"yes","recycling_type":"container"}},"type":"Feature"},
	{"geometry":{"coordinates":[8.002252,51.039869],"type":"Point"},"properties":{"osm_id":"6818179514","tag":{"amenity":"waste_basket"}},"type":"Feature"}
]
}
