{
"type": "FeatureCollection",
"features": [
	{"geometry":{"coordinates":[8.027922,50.905975],"type":"Point"},"properties":{"osm_id":"112253610","tag":{"amenity":"recycling","recycling:glass_bottles":"yes","recycling:paper":"yes","recycling_type":"container"}},"type":"Feature"},
	{"geometry":{"coordinates":[8.023347,50.906442],"type":"Point"},"properties":{"osm_id":"262829139","tag":{"amenity":"recycling","recycling:clothes":"yes","recycling:glass_bottles":"yes","recycling_type":"container"}},"type":"Feature"},
	{"geometry":{"coordinates":[8.031837,50.90378],"type":"Point"},"properties":{"osm_id":"266645534","tag":{"amenity":"recycling","recycling:glass":"no","recycling:glass_bottles":"yes","recycling_type":"container"}},"type":"Feature"},
	{"geometry":{"coordinates":[8.000153,50.909884],"type":"Point"},"properties":{"osm_id":"300127757","tag":{"amenity":"recycling","location":"overground","recycling_type":"container"}},"type":"Feature"},
	{"geometry":{"coordinates":[8.023428,50.910828],"type":"Point"},"properties":{"osm_id":"302642302","tag":{"amenity":"recycling","location":"overground","recycling:paper":"yes","recycling_type":"container"}},"type":"Feature"},
	{"geometry":{"coordinates":[8.026533,50.911636],"type":"Point"},"properties":{"osm_id":"303549946","tag":{"amenity":"recycling","recycling:glass":"no","recycling:glass_bottles":"yes","recycling:paper":"yes","recycling_type":"container"}},"type":"Feature"},
	{"geometry":{"coordinates":[8.00838,50.907013],"type":"Point"},"properties":{"osm_id":"309729262","tag":{"amenity":"recycling"}},"type":"Feature"},
	{"geometry":{"coordinates":[8.085731,50.94455],"type":"Point"},"properties":{"osm_id":"310840506","tag":{"amenity":"recycling","recycling:glass_bottles":"yes","recycling_type":"container"}},"type":"Feature"},
	{"geometry":{"coordinates":[7.998667,50.95778],"type":"Point"},"properties":{"osm_id":"312468683","tag":{"amenity":"recycling"}},"type":"Feature"},
	{"geometry":{"coordinates":[8.017772,50.926251],"type":"Point"},"properties":{"osm_id":"312477912","tag":{"amenity":"recycling"}},"type":"Feature"},
	{"geometry":{"coordinates":[8.004284,50.915628],"type":"Point"},"properties":{"osm_id":"381141290","tag":{"amenity":"recycling","location":"overground","recycling:glass":"no","recycling:glass_bottles":"yes","recycling:paper":"yes","recycling_type":"container"}},"type":"Feature"},
	{"geometry":{"coordinates":[8.001385,50.916872],"type":"Point"},"properties":{"osm_id":"381141295","tag":{"amenity":"recycling","location":"overground","recycling:glass":"no","recycling:glass_bottles":"yes","recycling:paper":"yes","recycling_type":"container"}},"type":"Feature"},
	{"geometry":{"coordinates":[8.009496,50.917671],"type":"Point"},"properties":{"osm_id":"381335376","tag":{"amenity":"recycling","location":"overground","recycling:glass":"no","recycling:glass_bottles":"yes","recycling:paper":"yes","recycling_type":"container"}},"type":"Feature"},
	{"geometry":{"coordinates":[8.008793,50.92334],"type":"Point"},"properties":{"osm_id":"382385329","tag":{"amenity":"recycling","recycling:clothes":"no","recycling:glass":"yes","recycling:paper":"yes"}},"type":"Feature"},
	{"geometry":{"coordinates":[8.004658,50.919737],"type":"Point"},"properties":{"osm_id":"382405868","tag":{"amenity":"recycling","location":"overground","recycling:glass":"no","recycling:glass_bottles":"yes","recycling:paper":"yes","recycling_type":"container"}},"type":"Feature"},
	{"geometry":{"coordinates":[8.012753,50.927959],"type":"Point"},"properties":{"osm_id":"416934452","tag":{"amenity":"recycling","recycling:glass":"yes","recycling:paper":"yes"}},"type":"Feature"},
	{"geometry":{"coordinates":[8.014474,50.930841],"type":"Point"},"properties":{"osm_id":"417019406","tag":{"amenity":"recycling","operator":"Remondis","recycling:glass":"yes","recycling:paper":"yes","recycling_type":"container"}},"type":"Feature"},
	{"geometry":{"coordinates":[8.016382,50.936898],"type":"Point"},"properties":{"osm_id":"417019452","tag":{"amenity":"recycling","recycling:glass":"yes","recycling:paper":"yes","recycling_type":"container"}},"type":"Feature"},
	{"geometry":{"coordinates":[8.01825,50.934248],"type":"Point"},"properties":{"osm_id":"417061134","tag":{"amenity":"recycling","recycling:glass":"yes","recycling:paper":"yes"}},"type":"Feature"},
	{"geometry":{"coordinates":[8.029237,50.916143],"type":"Point"},"properties":{"barrier":"gate","osm_id":"423022876","tag":{"access":"private"}},"type":"Feature"},
	{"geometry":{"coordinates":[8.018585,50.903776],"type":"Point"},"properties":{"osm_id":"433724211","tag":{"amenity":"recycling","location":"overground","recycling:glass_bottles":"yes","recycling_type":"container"}},"type":"Feature"},
	{"geometry":{"coordinates":[8.03572,50.927048],"type":"Point"},"properties":{"osm_id":"434340724","tag":{"amenity":"recycling","recycling:clothes":"yes","recycling:glass":"yes","recycling:paper":"yes","recycling_type":"container"}},"type":"Feature"},
	{"geometry":{"coordinates":[8.000439,50.91674],"type":"Point"},"properties":{"osm_id":"618766356","tag":{"amenity":"recycling","recycling:clothes":"yes"}},"type":"Feature"},
	{"geometry":{"coordinates":[8.013473,50.909595],"type":"Point"},"properties":{"osm_id":"970664414","tag":{"amenity":"waste_basket"}},"type":"Feature"},
	{"geometry":{"coordinates":[8.004153,50.912477],"type":"Point"},"properties":{"osm_id":"1267381701","tag":{"amenity":"recycling","location":"overground","recycling:clothes":"yes","recycling_type":"container"}},"type":"Feature"},
	{"geometry":{"coordinates":[8.011496,50.913876],"type":"Point"},"properties":{"osm_id":"1269209179","tag":{"amenity":"waste_basket"}},"type":"Feature"},
	{"geometry":{"coordinates":[8.00463,50.919743],"type":"Point"},"properties":{"osm_id":"1280530288","tag":{"amenity":"waste_basket"}},"type":"Feature"},
	{"geometry":{"coordinates":[8.02912,50.916435],"type":"Point"},"properties":{"barrier":"gate","osm_id":"1720817299","tag":{"access":"private"}},"type":"Feature"},
	{"geometry":{"coordinates":[8.032768,50.904111],"type":"Point"},"properties":{"osm_id":"1823311307","tag":{"amenity":"recycling","recycling:glass":"yes","recycling:paper":"yes","recycling_type":"container"}},"type":"Feature"},
	{"geometry":{"coordinates":[8.005319,50.935589],"type":"Point"},"properties":{"osm_id":"1951308539","tag":{"amenity":"recycling","recycling:clothes":"yes","recycling_type":"container"}},"type":"Feature"},
	{"geometry":{"coordinates":[8.005446,50.93645],"type":"Point"},"properties":{"osm_id":"1951308544","tag":{"amenity":"recycling","recycling:glass":"yes","recycling:paper":"yes","recycling_type":"container"}},"type":"Feature"},
	{"geometry":{"coordinates":[8.001286,50.940022],"type":"Point"},"properties":{"osm_id":"2020424443","tag":{"amenity":"recycling","recycling:clothes":"yes","recycling:glass":"yes","recycling:paper":"yes","recycling_type":"container"}},"type":"Feature"},
	{"geometry":{"coordinates":[8.02813,50.90759],"type":"Point"},"properties":{"osm_id":"2188539388","tag":{"amenity":"waste_basket"}},"type":"Feature"},
	{"geometry":{"coordinates":[8.028034,50.907603],"type":"Point"},"properties":{"osm_id":"2188539389","tag":{"amenity":"waste_basket"}},"type":"Feature"},
	{"geometry":{"coordinates":[8.029013,50.909011],"type":"Point"},"properties":{"osm_id":"2188539394","tag":{"amenity":"waste_basket"}},"type":"Feature"},
	{"geometry":{"coordinates":[8.029681,50.904985],"type":"Point"},"properties":{"osm_id":"2219692820","tag":{"amenity":"waste_basket"}},"type":"Feature"},
	{"geometry":{"coordinates":[8.055044,50.94683],"type":"Point"},"properties":{"osm_id":"2325293651","tag":{"amenity":"recycling","recycling:clothes":"yes","recycling:glass_bottles":"yes","recycling_type":"container"}},"type":"Feature"},
	{"geometry":{"coordinates":[7.998955,50.907474],"type":"Point"},"properties":{"osm_id":"2935845601","tag":{"amenity":"recycling","recycling:glass":"yes"}},"type":"Feature"},
	{"geometry":{"coordinates":[8.002902,50.947539],"type":"Point"},"properties":{"osm_id":"2984251589","tag":{"amenity":"recycling"}},"type":"Feature"},
	{"geometry":{"coordinates":[7.999271,50.919984],"type":"Point"},"properties":{"osm_id":"3372416536","tag":{"amenity":"waste_basket"}},"type":"Feature"},
	{"geometry":{"coordinates":[8.000041,50.91931],"type":"Point"},"properties":{"osm_id":"3579093754","tag":{"amenity":"recycling","recycling:clothes":"yes","recycling:glass":"yes","recycling:paper":"yes","recycling:shoes":"yes","recycling_type":"container"}},"type":"Feature"},
	{"geometry":{"coordinates":[8.024723,50.912567],"type":"Point"},"properties":{"name":"Kleiderladen Refugees Welcome Siegen","osm_id":"3740022239","tag":{"amenity":"recycling","operator":"Refugees Welcome Siegen e.V.","recycling:clothes":"yes","recycling:glass":"no","recycling:glass_bottles":"no","recycling:paper":"no","recycling:scrap_metal":"no","recycling_type":"centre"}},"type":"Feature"},
	{"geometry":{"coordinates":[8.034895,50.92768],"type":"Point"},"properties":{"osm_id":"4423979597","tag":{"amenity":"recycling","operator":"Humana","recycling:clothes":"yes","recycling:shoes":"yes","recycling_type":"container"}},"type":"Feature"},
	{"geometry":{"coordinates":[8.014409,50.930882],"type":"Point"},"properties":{"osm_id":"4423979641","tag":{"amenity":"recycling","operator":"Deutsches Rotes Kreuz","recycling:clothes":"yes","recycling:shoes":"yes","recycling_type":"container"}},"type":"Feature"},
	{"geometry":{"coordinates":[8.014159,50.931253],"type":"Point"},"properties":{"osm_id":"4423979655","tag":{"amenity":"waste_basket"}},"type":"Feature"},
	{"geometry":{"coordinates":[8.014237,50.931272],"type":"Point"},"properties":{"osm_id":"4423979658","tag":{"amenity":"waste_basket"}},"type":"Feature"},
	{"geometry":{"coordinates":[8.012056,50.933519],"type":"Point"},"properties":{"osm_id":"4423979670","tag":{"amenity":"waste_basket"}},"type":"Feature"},
	{"geometry":{"coordinates":[8.013375,50.933595],"type":"Point"},"properties":{"osm_id":"4423979673","tag":{"amenity":"waste_basket"}},"type":"Feature"},
	{"geometry":{"coordinates":[8.009619,50.934161],"type":"Point"},"properties":{"osm_id":"4423979674","tag":{"amenity":"waste_basket"}},"type":"Feature"},
	{"geometry":{"coordinates":[8.011615,50.934605],"type":"Point"},"properties":{"osm_id":"4423979676","tag":{"amenity":"waste_basket"}},"type":"Feature"},
	{"geometry":{"coordinates":[8.005002,50.934664],"type":"Point"},"properties":{"osm_id":"4423979679","tag":{"amenity":"waste_basket"}},"type":"Feature"},
	{"geometry":{"coordinates":[8.004639,50.935207],"type":"Point"},"properties":{"osm_id":"4423979682","tag":{"amenity":"waste_basket"}},"type":"Feature"},
	{"geometry":{"coordinates":[8.018214,50.93813],"type":"Point"},"properties":{"osm_id":"4767502265","tag":{"amenity":"waste_basket"}},"type":"Feature"},
	{"geometry":{"coordinates":[8.017967,50.938151],"type":"Point"},"properties":{"osm_id":"4767502266","tag":{"amenity":"waste_basket"}},"type":"Feature"},
	{"geometry":{"coordinates":[8.04971,50.912845],"type":"Point"},"properties":{"osm_id":"5548654161","tag":{"amenity":"recycling","capacity":"2","opening_hours":"24/7","operator":"Deutsches Rotes Kreuz","recycling:clothes":"yes","recycling_type":"container"}},"type":"Feature"},
	{"geometry":{"coordinates":[8.04995,50.912876],"type":"Point"},"properties":{"osm_id":"5548654165","tag":{"amenity":"waste_basket","waste":"trash"}},"type":"Feature"},
	{"geometry":{"coordinates":[8.007888,50.914733],"type":"Point"},"properties":{"osm_id":"7185465259","tag":{"amenity":"recycling","recycling:glass":"yes","recycling:paper":"yes","recycling_type":"underfloor-container"}},"type":"Feature"},
	{"geometry":{"coordinates":[8.023375,50.903144],"type":"Point"},"properties":{"osm_id":"7617766142","tag":{"amenity":"recycling","location":"overground","recycling:glass_bottles":"yes","recycling:paper":"yes","recycling_type":"container"}},"type":"Feature"},
	{"geometry":{"coordinates":[8.008223,50.92049],"type":"Point"},"properties":{"osm_id":"7667659489","tag":{"amenity":"waste_basket"}},"type":"Feature"}
]
}
