{
"type": "FeatureCollection",
"features": [
	{"geometry":{"coordinates":[8.06787,50.390698],"type":"Point"},"properties":{"osm_id":"736440603","tag":{"amenity":"recycling","recycling:clothes":"yes","recycling:glass_bottles":"yes","recycling_type":"container"}},"type":"Feature"},
	{"geometry":{"coordinates":[8.072737,50.39298],"type":"Point"},"properties":{"osm_id":"4135699058","tag":{"amenity":"waste_basket"}},"type":"Feature"},
	{"geometry":{"coordinates":[8.049565,50.384655],"type":"Point"},"properties":{"osm_id":"4247977804","tag":{"amenity":"recycling","recycling:glass":"yes","recycling:glass_bottles":"yes","recycling_type":"container"}},"type":"Feature"},
	{"geometry":{"coordinates":[8.06349,50.394104],"type":"Point"},"properties":{"osm_id":"4596105564","tag":{"amenity":"recycling","recycling:batteries":"no","recycling:clothes":"yes","recycling:glass":"yes","recycling_type":"container"}},"type":"Feature"},
	{"geometry":{"coordinates":[8.061413,50.391338],"type":"Point"},"properties":{"osm_id":"4684989739","tag":{"amenity":"waste_basket"}},"type":"Feature"},
	{"geometry":{"coordinates":[8.06139,50.39135],"type":"Point"},"properties":{"osm_id":"4684989740","tag":{"amenity":"recycling","recycling:glass_bottles":"yes","recycling_type":"container"}},"type":"Feature"},
	{"geometry":{"coordinates":[8.05299,50.386753],"type":"Point"},"properties":{"osm_id":"4869673785","tag":{"amenity":"waste_basket"}},"type":"Feature"},
	{"geometry":{"coordinates":[8.059203,50.392625],"type":"Point"},"properties":{"osm_id":"4873528520","tag":{"amenity":"waste_basket"}},"type":"Feature"},
	{"geometry":{"coordinates":[8.076703,50.39757],"type":"Point"},"properties":{"osm_id":"4891521521","tag":{"amenity":"recycling","recycling:clothes":"yes","recycling:glass_bottles":"yes","recycling_type":"container"}},"type":"Feature"},
	{"geometry":{"coordinates":[8.073032,50.396349],"type":"Point"},"properties":{"osm_id":"4891521522","tag":{"amenity":"recycling","opening_hours":"Mo-Sa 07:00-20:00","recycling:clothes":"yes","recycling:glass_bottles":"yes","recycling_type":"container"}},"type":"Feature"},
	{"geometry":{"coordinates":[8.035375,50.359567],"type":"Point"},"properties":{"osm_id":"4892361091","tag":{"amenity":"waste_basket"}},"type":"Feature"},
	{"geometry":{"coordinates":[8.066111,50.388861],"type":"Point"},"properties":{"osm_id":"4895551232","tag":{"amenity":"waste_basket"}},"type":"Feature"},
	{"geometry":{"coordinates":[8.064756,50.387947],"type":"Point"},"properties":{"osm_id":"4963814468","tag":{"amenity":"waste_basket"}},"type":"Feature"},
	{"geometry":{"coordinates":[8.031837,50.360098],"type":"Point"},"properties":{"osm_id":"4968589842","tag":{"amenity":"waste_basket"}},"type":"Feature"},
	{"geometry":{"coordinates":[8.066765,50.387725],"type":"Point"},"properties":{"osm_id":"4977488961","tag":{"amenity":"waste_basket"}},"type":"Feature"},
	{"geometry":{"coordinates":[8.025502,50.362545],"type":"Point"},"properties":{"osm_id":"4988563006","tag":{"amenity":"waste_basket"}},"type":"Feature"},
	{"geometry":{"coordinates":[8.024193,50.366586],"type":"Point"},"properties":{"osm_id":"4988573531","tag":{"amenity":"waste_basket"}},"type":"Feature"},
	{"geometry":{"coordinates":[8.068522,50.395568],"type":"Point"},"properties":{"osm_id":"5004916072","tag":{"amenity":"recycling","recycling:clothes":"yes","recycling:shoes":"yes","recycling_type":"container"}},"type":"Feature"},
	{"geometry":{"coordinates":[8.0659,50.389178],"type":"Point"},"properties":{"osm_id":"5016390098","tag":{"amenity":"waste_basket"}},"type":"Feature"},
	{"geometry":{"coordinates":[8.065837,50.391932],"type":"Point"},"properties":{"osm_id":"5016390104","tag":{"amenity":"waste_basket"}},"type":"Feature"},
	{"geometry":{"coordinates":[8.073507,50.387957],"type":"Point"},"properties":{"osm_id":"5103279865","tag":{"amenity":"waste_basket"}},"type":"Feature"},
	{"geometry":{"coordinates":[8.073347,50.387879],"type":"Point"},"properties":{"osm_id":"5103279867","tag":{"amenity":"waste_basket"}},"type":"Feature"},
	{"geometry":{"coordinates":[8.083963,50.392803],"type":"Point"},"properties":{"osm_id":"5168894075","tag":{"amenity":"waste_basket"}},"type":"Feature"},
	{"geometry":{"coordinates":[8.064114,50.390285],"type":"Point"},"properties":{"osm_id":"5194317784","tag":{"amenity":"waste_basket"}},"type":"Feature"},
	{"geometry":{"coordinates":[8.061599,50.393062],"type":"Point"},"properties":{"osm_id":"5194317789","tag":{"amenity":"waste_basket"}},"type":"Feature"},
	{"geometry":{"coordinates":[8.063309,50.392113],"type":"Point"},"properties":{"osm_id":"5194317791","tag":{"amenity":"waste_basket"}},"type":"Feature"},
	{"geometry":{"coordinates":[8.063907,50.39185],"type":"Point"},"properties":{"osm_id":"5194317794","tag":{"amenity":"waste_basket"}},"type":"Feature"},
	{"geometry":{"coordinates":[8.0667,50.385915],"type":"Point"},"properties":{"osm_id":"5216385727","tag":{"amenity":"waste_basket"}},"type":"Feature"},
	{"geometry":{"coordinates":[8.070983,50.380731],"type":"Point"},"properties":{"osm_id":"5228626555","tag":{"amenity":"recycling","opening_hours":"Mo-Sa 07:00-13:00, 15:00-20:00; PH off","recycling:glass_bottles":"yes","recycling_type":"container"}},"type":"Feature"},
	{"geometry":{"coordinates":[8.068954,50.387505],"type":"Point"},"properties":{"osm_id":"5230715222","tag":{"amenity":"recycling","opening_hours":"Mo-Sa 07:00-20:00; PH off","recycling:glass_bottles":"yes","recycling_type":"container"}},"type":"Feature"},
	{"geometry":{"coordinates":[8.058524,50.396988],"type":"Point"},"properties":{"osm_id":"5236318675","tag":{"amenity":"recycling","recycling:glass_bottles":"yes","recycling_type":"container"}},"type":"Feature"},
	{"geometry":{"coordinates":[8.063243,50.374778],"type":"Point"},"properties":{"osm_id":"5242774484","tag":{"amenity":"recycling","recycling:glass_bottles":"yes","recycling_type":"container"}},"type":"Feature"},
	{"geometry":{"coordinates":[8.068628,50.39575],"type":"Point"},"properties":{"osm_id":"5331685454","tag":{"amenity":"waste_basket"}},"type":"Feature"},
	{"geometry":{"coordinates":[8.065211,50.384115],"type":"Point"},"properties":{"osm_id":"5356677744","tag":{"amenity":"waste_basket"}},"type":"Feature"},
	{"geometry":{"coordinates":[8.068633,50.384607],"type":"Point"},"properties":{"osm_id":"5356677746","tag":{"amenity":"waste_basket"}},"type":"Feature"},
	{"geometry":{"coordinates":[8.065177,50.389213],"type":"Point"},"properties":{"osm_id":"5455122853","tag":{"amenity":"waste_basket"}},"type":"Feature"},
	{"geometry":{"coordinates":[8.06441,50.38715],"type":"Point"},"properties":{"osm_id":"5455122858","tag":{"amenity":"waste_basket"}},"type":"Feature"},
	{"geometry":{"coordinates":[8.06131,50.386769],"type":"Point"},"properties":{"osm_id":"5455122865","tag":{"amenity":"waste_basket"}},"type":"Feature"},
	{"geometry":{"coordinates":[8.061426,50.386861],"type":"Point"},"properties":{"osm_id":"5455122868","tag":{"amenity":"waste_basket"}},"type":"Feature"},
	{"geometry":{"coordinates":[8.061548,50.386768],"type":"Point"},"properties":{"osm_id":"5455122870","tag":{"amenity":"waste_basket"}},"type":"Feature"},
	{"geometry":{"coordinates":[8.060882,50.386854],"type":"Point"},"properties":{"osm_id":"5455122878","tag":{"amenity":"waste_basket"}},"type":"Feature"},
	{"geometry":{"coordinates":[8.063349,50.389025],"type":"Point"},"properties":{"osm_id":"5455122881","tag":{"amenity":"waste_basket"}},"type":"Feature"},
	{"geometry":{"coordinates":[8.065216,50.386958],"type":"Point"},"properties":{"osm_id":"5455122884","tag":{"amenity":"waste_basket"}},"type":"Feature"},
	{"geometry":{"coordinates":[8.071621,50.383763],"type":"Point"},"properties":{"osm_id":"5632792972","tag":{"amenity":"waste_basket"}},"type":"Feature"},
	{"geometry":{"coordinates":[8.076895,50.380487],"type":"Point"},"properties":{"osm_id":"5632792984","tag":{"amenity":"waste_basket"}},"type":"Feature"},
	{"geometry":{"coordinates":[8.077193,50.382633],"type":"Point"},"properties":{"osm_id":"5632792988","tag":{"amenity":"waste_basket"}},"type":"Feature"},
	{"geometry":{"coordinates":[8.010156,50.374813],"type":"Point"},"properties":{"osm_id":"5732158175","tag":{"amenity":"waste_basket"}},"type":"Feature"},
	{"geometry":{"coordinates":[8.016872,50.380284],"type":"Point"},"properties":{"osm_id":"5732158195","tag":{"amenity":"waste_basket"}},"type":"Feature"},
	{"geometry":{"coordinates":[8.01727,50.380928],"type":"Point"},"properties":{"osm_id":"5732158197","tag":{"amenity":"waste_basket"}},"type":"Feature"},
	{"geometry":{"coordinates":[8.003557,50.380668],"type":"Point"},"properties":{"osm_id":"5732372084","tag":{"amenity":"recycling","recycling:glass_bottles":"yes","recycling_type":"container"}},"type":"Feature"},
	{"geometry":{"coordinates":[8.071478,50.388082],"type":"Point"},"properties":{"osm_id":"5808554274","tag":{"amenity":"waste_basket"}},"type":"Feature"},
	{"geometry":{"coordinates":[8.070045,50.388265],"type":"Point"},"properties":{"osm_id":"5808554280","tag":{"amenity":"waste_basket"}},"type":"Feature"},
	{"geometry":{"coordinates":[8.071049,50.388171],"type":"Point"},"properties":{"osm_id":"5808554281","tag":{"amenity":"waste_basket"}},"type":"Feature"},
	{"geometry":{"coordinates":[8.066408,50.389439],"type":"Point"},"properties":{"osm_id":"5808567421","tag":{"amenity":"waste_basket"}},"type":"Feature"},
	{"geometry":{"coordinates":[8.066158,50.389591],"type":"Point"},"properties":{"osm_id":"5808567423","tag":{"amenity":"waste_basket"}},"type":"Feature"},
	{"geometry":{"coordinates":[8.064367,50.380132],"type":"Point"},"properties":{"osm_id":"6223200349","tag":{"amenity":"waste_basket"}},"type":"Feature"},
	{"geometry":{"coordinates":[8.064351,50.38015],"type":"Point"},"properties":{"osm_id":"6223200350","tag":{"amenity":"recycling","recycling:clothes":"yes","recycling:glass_bottles":"yes","recycling:shoes":"yes","recycling_type":"container"}},"type":"Feature"},
	{"geometry":{"coordinates":[8.078563,50.389226],"type":"Point"},"properties":{"osm_id":"6297697300","tag":{"amenity":"waste_basket"}},"type":"Feature"},
	{"geometry":{"coordinates":[8.065304,50.385349],"type":"Point"},"properties":{"osm_id":"6343312981","tag":{"amenity":"waste_basket"}},"type":"Feature"},
	{"geometry":{"coordinates":[8.006003,50.37286],"type":"Point"},"properties":{"osm_id":"6913118037","tag":{"amenity":"recycling","recycling:glass_bottles":"yes","recycling_type":"container"}},"type":"Feature"},
	{"geometry":{"coordinates":[8.047632,50.385899],"type":"Point"},"properties":{"osm_id":"7856254034","tag":{"amenity":"waste_basket","colour":"black","covered":"no","indoor":"no","material":"plastic","operator":"Stadt Limburg a. d. Lahn","waste":"trash"}},"type":"Feature"},
	{"geometry":{"coordinates":[8.048364,50.385811],"type":"Point"},"properties":{"osm_id":"7856272295","tag":{"amenity":"waste_basket","indoor":"no","material":"wood","operator":"Stadt Limburg a. d. Lahn","waste":"trash"}},"type":"Feature"},
	{"geometry":{"coordinates":[8.043546,50.387597],"type":"Point"},"properties":{"osm_id":"7856291362","tag":{"amenity":"waste_basket","covered":"no","indoor":"no","material":"wood","operator":"Stadt Limburg a. d. Lahn","waste":"trash"}},"type":"Feature"},
	{"geometry":{"coordinates":[8.048213,50.385969],"type":"Point"},"properties":{"osm_id":"7856293248","tag":{"amenity":"waste_basket","operator":"Stadt Limburg a. d. Lahn","waste":"dog_excrement"}},"type":"Feature"},
	{"geometry":{"coordinates":[8.0482,50.385983],"type":"Point"},"properties":{"osm_id":"7856293250","tag":{"amenity":"waste_basket","colour":"black","covered":"no","indoor":"no","material":"plastic","operator":"Stadt Limburg a. d. Lahn","waste":"trash"}},"type":"Feature"}
]
}
