{
"type": "FeatureCollection",
"features": [
	{"geometry":{"coordinates":[8.020518,50.03125],"type":"Point"},"properties":{"osm_id":"2357792411","tag":{"amenity":"waste_basket","url":"http://wiki.openstreetmap.org/wiki/File:DSC00038.jpg"}},"type":"Feature"},
	{"geometry":{"coordinates":[8.082572,50.04009],"type":"Point"},"properties":{"osm_id":"2683980279","tag":{"amenity":"recycling","recycling:clothes":"yes","recycling:glass_bottles":"yes","recycling_type":"container"}},"type":"Feature"},
	{"geometry":{"coordinates":[8.078958,50.037889],"type":"Point"},"properties":{"osm_id":"2727378493","tag":{"amenity":"recycling","recycling:clothes":"yes","recycling:glass_bottles":"yes","recycling_type":"container"}},"type":"Feature"},
	{"geometry":{"coordinates":[8.051415,50.020108],"type":"Point"},"properties":{"osm_id":"4248030092","tag":{"amenity":"waste_basket"}},"type":"Feature"},
	{"geometry":{"coordinates":[8.037672,50.026932],"type":"Point"},"properties":{"osm_id":"4313258928","tag":{"amenity":"recycling"}},"type":"Feature"},
	{"geometry":{"coordinates":[8.032289,50.024749],"type":"Point"},"properties":{"osm_id":"4485562238","tag":{"amenity":"waste_basket"}},"type":"Feature"},
	{"geometry":{"coordinates":[8.084839,50.048873],"type":"Point"},"properties":{"osm_id":"5064278215","tag":{"amenity":"waste_basket"}},"type":"Feature"},
	{"geometry":{"coordinates":[8.084336,50.048965],"type":"Point"},"properties":{"osm_id":"5064278216","tag":{"amenity":"waste_basket"}},"type":"Feature"},
	{"geometry":{"coordinates":[8.049353,50.024202],"type":"Point"},"properties":{"osm_id":"5248591038","tag":{"amenity":"recycling","recycling:garden_waste":"yes"}},"type":"Feature"}
]
}
