{
"type": "FeatureCollection",
"features": [
	{"geometry":{"coordinates":[8.032478,49.970134],"type":"Point"},"properties":{"osm_id":"292487237","tag":{"amenity":"recycling","recycling:clothes":"yes","recycling:glass":"yes","recycling_type":"container"}},"type":"Feature"},
	{"geometry":{"coordinates":[8.025519,49.971488],"type":"Point"},"properties":{"osm_id":"292487271","tag":{"amenity":"recycling","recycling:clothes":"yes","recycling_type":"container"}},"type":"Feature"},
	{"geometry":{"coordinates":[8.033109,49.974285],"type":"Point"},"properties":{"osm_id":"292519619","tag":{"amenity":"recycling","recycling:clothes":"yes","recycling_type":"container"}},"type":"Feature"},
	{"geometry":{"coordinates":[8.035849,49.97891],"type":"Point"},"properties":{"osm_id":"292519674","tag":{"amenity":"recycling","recycling:clothes":"no","recycling:glass_bottles":"yes","recycling_type":"container"}},"type":"Feature"},
	{"geometry":{"coordinates":[8.007795,49.996874],"type":"Point"},"properties":{"osm_id":"298541551","tag":{"amenity":"recycling","contact:website":"http://wiki.openstreetmap.org/wiki/File:DSC00065.jpg","recycling:clothes":"yes","recycling:glass_bottles":"yes","recycling_type":"container"}},"type":"Feature"},
	{"geometry":{"coordinates":[8.008925,50.003608],"type":"Point"},"properties":{"osm_id":"299168118","tag":{"amenity":"recycling","recycling:glass_bottles":"yes","recycling_type":"container"}},"type":"Feature"},
	{"geometry":{"coordinates":[8.001577,49.9958],"type":"Point"},"properties":{"osm_id":"299592645","tag":{"amenity":"recycling","recycling:glass_bottles":"yes","recycling_type":"container"}},"type":"Feature"},
	{"geometry":{"coordinates":[8.060372,49.971841],"type":"Point"},"properties":{"osm_id":"300310594","tag":{"amenity":"recycling","recycling:clothes":"yes","recycling:glass_bottles":"yes","recycling_type":"container"}},"type":"Feature"},
	{"geometry":{"coordinates":[8.034396,49.972949],"type":"Point"},"properties":{"osm_id":"310860864","tag":{"amenity":"recycling","recycling:clothes":"yes","recycling:shoes":"yes","recycling_type":"container"}},"type":"Feature"},
	{"geometry":{"coordinates":[8.026062,49.972663],"type":"Point"},"properties":{"osm_id":"311194083","tag":{"amenity":"recycling","recycling:glass":"yes","recycling_type":"container"}},"type":"Feature"},
	{"geometry":{"coordinates":[8.018991,49.955702],"type":"Point"},"properties":{"osm_id":"360033510","tag":{"amenity":"recycling","recycling:glass_bottles":"yes","recycling_type":"container"}},"type":"Feature"},
	{"geometry":{"coordinates":[8.018254,49.989087],"type":"Point"},"properties":{"osm_id":"440018749","tag":{"amenity":"recycling","recycling:glass":"yes","recycling_type":"container"}},"type":"Feature"},
	{"geometry":{"coordinates":[8.011546,49.951356],"type":"Point"},"properties":{"osm_id":"608594578","tag":{"amenity":"recycling","opening_hours":"Mo-Sa 07:00-19:00;PH,Su off","recycling:glass_bottles":"yes","recycling_type":"container"}},"type":"Feature"},
	{"geometry":{"coordinates":[8.05936,49.965598],"type":"Point"},"properties":{"osm_id":"660631857","ref":"Altes Gymnasium","tag":{"amenity":"recycling","recycling_type":"container"}},"type":"Feature"},
	{"geometry":{"coordinates":[8.063518,49.968825],"type":"Point"},"properties":{"osm_id":"660631876","ref":"Rotweinstra\u00c3\u009fe","tag":{"amenity":"recycling","recycling_type":"container"}},"type":"Feature"},
	{"geometry":{"coordinates":[8.036601,49.989743],"type":"Point"},"properties":{"osm_id":"731580506","tag":{"amenity":"recycling","recycling:clothes":"yes","recycling:glass":"yes","recycling:glass_bottles":"yes","recycling_type":"container"}},"type":"Feature"},
	{"geometry":{"coordinates":[8.004727,50.001906],"type":"Point"},"properties":{"osm_id":"828167685","tag":{"amenity":"recycling","recycling:glass_bottles":"yes","recycling_type":"container"}},"type":"Feature"},
	{"geometry":{"coordinates":[8.011851,49.960021],"type":"Point"},"properties":{"osm_id":"831192898","tag":{"amenity":"recycling"}},"type":"Feature"},
	{"geometry":{"coordinates":[8.024893,49.970669],"type":"Point"},"properties":{"osm_id":"964725245","tag":{"amenity":"waste_basket"}},"type":"Feature"},
	{"geometry":{"coordinates":[8.025341,49.97092],"type":"Point"},"properties":{"osm_id":"964744613","tag":{"amenity":"waste_basket"}},"type":"Feature"},
	{"geometry":{"coordinates":[8.025889,49.971255],"type":"Point"},"properties":{"osm_id":"964744672","tag":{"amenity":"waste_basket"}},"type":"Feature"},
	{"geometry":{"coordinates":[8.02282,49.972397],"type":"Point"},"properties":{"osm_id":"964931180","tag":{"amenity":"waste_basket"}},"type":"Feature"},
	{"geometry":{"coordinates":[8.026001,49.971448],"type":"Point"},"properties":{"osm_id":"964931203","tag":{"amenity":"waste_basket"}},"type":"Feature"},
	{"geometry":{"coordinates":[8.024171,49.971295],"type":"Point"},"properties":{"osm_id":"1086300133","tag":{"amenity":"waste_basket"}},"type":"Feature"},
	{"geometry":{"coordinates":[8.028485,49.96826],"type":"Point"},"properties":{"osm_id":"1086300387","tag":{"amenity":"waste_basket"}},"type":"Feature"},
	{"geometry":{"coordinates":[8.02178,49.967533],"type":"Point"},"properties":{"osm_id":"2019596525","tag":{"amenity":"recycling","recycling:glass":"yes","recycling:glass_bottles":"yes","recycling_type":"container"}},"type":"Feature"},
	{"geometry":{"coordinates":[8.022411,49.966048],"type":"Point"},"properties":{"osm_id":"2019720262","tag":{"amenity":"waste_basket"}},"type":"Feature"},
	{"geometry":{"coordinates":[8.04899,49.98297],"type":"Point"},"properties":{"barrier":"gate","osm_id":"2295834882","tag":{"bicycle":"yes","foot":"yes"}},"type":"Feature"},
	{"geometry":{"coordinates":[8.014494,49.999933],"type":"Point"},"properties":{"osm_id":"2357792379","tag":{"amenity":"recycling","recycling:glass_bottles":"yes","recycling_type":"container","website":"https://wiki.openstreetmap.org/wiki/File:DSC00054.jpg"}},"type":"Feature"},
	{"geometry":{"coordinates":[8.021997,49.992769],"type":"Point"},"properties":{"osm_id":"2375569158","tag":{"amenity":"waste_basket"}},"type":"Feature"},
	{"geometry":{"coordinates":[8.059296,49.98145],"type":"Point"},"properties":{"osm_id":"2396622871","tag":{"amenity":"recycling","recycling:clothes":"yes","recycling:glass":"yes","recycling_type":"container"}},"type":"Feature"},
	{"geometry":{"coordinates":[8.068743,49.979498],"type":"Point"},"properties":{"osm_id":"2402610789","tag":{"amenity":"recycling","location":"underground","recycling:glass":"yes","recycling_type":"container"}},"type":"Feature"},
	{"geometry":{"coordinates":[8.02241,49.992863],"type":"Point"},"properties":{"osm_id":"2403406743","tag":{"amenity":"waste_basket"}},"type":"Feature"},
	{"geometry":{"coordinates":[8.021884,49.992881],"type":"Point"},"properties":{"osm_id":"2403406747","tag":{"amenity":"waste_basket"}},"type":"Feature"},
	{"geometry":{"coordinates":[8.022519,49.992888],"type":"Point"},"properties":{"osm_id":"2403406748","tag":{"amenity":"waste_basket"}},"type":"Feature"},
	{"geometry":{"coordinates":[8.022513,49.992955],"type":"Point"},"properties":{"osm_id":"2403406751","tag":{"amenity":"waste_basket"}},"type":"Feature"},
	{"geometry":{"coordinates":[8.022474,49.993038],"type":"Point"},"properties":{"osm_id":"2403406754","tag":{"amenity":"waste_basket"}},"type":"Feature"},
	{"geometry":{"coordinates":[8.033926,49.97401],"type":"Point"},"properties":{"osm_id":"2421069315","tag":{"amenity":"waste_basket"}},"type":"Feature"},
	{"geometry":{"coordinates":[8.033943,49.97364],"type":"Point"},"properties":{"osm_id":"2423343713","tag":{"amenity":"waste_basket"}},"type":"Feature"},
	{"geometry":{"coordinates":[8.02523,49.992949],"type":"Point"},"properties":{"osm_id":"2429460791","tag":{"amenity":"waste_basket"}},"type":"Feature"},
	{"geometry":{"coordinates":[8.025505,49.992956],"type":"Point"},"properties":{"osm_id":"2429460792","tag":{"amenity":"waste_basket"}},"type":"Feature"},
	{"geometry":{"coordinates":[8.02507,49.99298],"type":"Point"},"properties":{"osm_id":"2429460793","tag":{"amenity":"waste_basket"}},"type":"Feature"},
	{"geometry":{"coordinates":[8.022968,49.993925],"type":"Point"},"properties":{"osm_id":"2429460799","tag":{"amenity":"waste_basket"}},"type":"Feature"},
	{"geometry":{"coordinates":[8.023723,49.994369],"type":"Point"},"properties":{"osm_id":"2429460802","tag":{"amenity":"waste_basket"}},"type":"Feature"},
	{"geometry":{"coordinates":[8.024661,49.995059],"type":"Point"},"properties":{"osm_id":"2429460808","tag":{"amenity":"waste_basket"}},"type":"Feature"},
	{"geometry":{"coordinates":[8.025334,49.995445],"type":"Point"},"properties":{"osm_id":"2429460812","tag":{"amenity":"waste_basket"}},"type":"Feature"},
	{"geometry":{"coordinates":[8.026579,49.99552],"type":"Point"},"properties":{"osm_id":"2429460814","tag":{"amenity":"waste_basket"}},"type":"Feature"},
	{"geometry":{"coordinates":[8.027195,49.99631],"type":"Point"},"properties":{"osm_id":"2429460820","tag":{"amenity":"waste_basket"}},"type":"Feature"},
	{"geometry":{"coordinates":[8.028433,49.996663],"type":"Point"},"properties":{"osm_id":"2429460824","tag":{"amenity":"waste_basket"}},"type":"Feature"},
	{"geometry":{"coordinates":[8.033992,49.997268],"type":"Point"},"properties":{"osm_id":"2429460829","tag":{"amenity":"waste_basket"}},"type":"Feature"},
	{"geometry":{"coordinates":[8.033979,49.997328],"type":"Point"},"properties":{"osm_id":"2429460832","tag":{"amenity":"waste_basket"}},"type":"Feature"},
	{"geometry":{"coordinates":[8.033626,49.998182],"type":"Point"},"properties":{"osm_id":"2429460837","tag":{"amenity":"waste_basket"}},"type":"Feature"},
	{"geometry":{"coordinates":[8.026263,49.988418],"type":"Point"},"properties":{"osm_id":"2434919392","tag":{"amenity":"waste_basket"}},"type":"Feature"},
	{"geometry":{"coordinates":[8.025098,49.989673],"type":"Point"},"properties":{"osm_id":"2451381138","tag":{"amenity":"waste_basket"}},"type":"Feature"},
	{"geometry":{"coordinates":[8.029126,49.992254],"type":"Point"},"properties":{"osm_id":"2451381164","tag":{"amenity":"waste_basket"}},"type":"Feature"},
	{"geometry":{"coordinates":[8.08145,49.981931],"type":"Point"},"properties":{"osm_id":"2452740332","tag":{"amenity":"waste_basket"}},"type":"Feature"},
	{"geometry":{"coordinates":[8.07694,49.982101],"type":"Point"},"properties":{"osm_id":"2452830168","tag":{"amenity":"waste_basket"}},"type":"Feature"},
	{"geometry":{"coordinates":[8.051018,49.977827],"type":"Point"},"properties":{"osm_id":"2460359363","tag":{"amenity":"waste_basket"}},"type":"Feature"},
	{"geometry":{"coordinates":[8.050987,49.977912],"type":"Point"},"properties":{"osm_id":"2460359367","tag":{"amenity":"waste_basket"}},"type":"Feature"},
	{"geometry":{"coordinates":[8.019802,49.991668],"type":"Point"},"properties":{"osm_id":"2500911199","tag":{"amenity":"recycling","recycling:glass":"yes","recycling_type":"container"}},"type":"Feature"},
	{"geometry":{"coordinates":[8.053914,49.975088],"type":"Point"},"properties":{"osm_id":"2501680602","tag":{"amenity":"waste_basket"}},"type":"Feature"},
	{"geometry":{"coordinates":[8.054121,49.975155],"type":"Point"},"properties":{"osm_id":"2501680604","tag":{"amenity":"waste_basket"}},"type":"Feature"},
	{"geometry":{"coordinates":[8.053811,49.975252],"type":"Point"},"properties":{"osm_id":"2501680607","tag":{"amenity":"waste_basket"}},"type":"Feature"},
	{"geometry":{"coordinates":[8.053988,49.975309],"type":"Point"},"properties":{"osm_id":"2501680609","tag":{"amenity":"waste_basket"}},"type":"Feature"},
	{"geometry":{"coordinates":[8.053703,49.975376],"type":"Point"},"properties":{"osm_id":"2501680611","tag":{"amenity":"waste_basket"}},"type":"Feature"},
	{"geometry":{"coordinates":[8.053902,49.975429],"type":"Point"},"properties":{"osm_id":"2501680613","tag":{"amenity":"waste_basket"}},"type":"Feature"},
	{"geometry":{"coordinates":[8.053589,49.9755],"type":"Point"},"properties":{"osm_id":"2501680615","tag":{"amenity":"waste_basket"}},"type":"Feature"},
	{"geometry":{"coordinates":[8.053801,49.975556],"type":"Point"},"properties":{"osm_id":"2501680617","tag":{"amenity":"waste_basket"}},"type":"Feature"},
	{"geometry":{"coordinates":[8.0535,49.975618],"type":"Point"},"properties":{"osm_id":"2501680619","tag":{"amenity":"waste_basket"}},"type":"Feature"},
	{"geometry":{"coordinates":[8.053699,49.975688],"type":"Point"},"properties":{"osm_id":"2501680622","tag":{"amenity":"waste_basket"}},"type":"Feature"},
	{"geometry":{"coordinates":[8.062066,49.977598],"type":"Point"},"properties":{"osm_id":"2503586163","tag":{"amenity":"waste_basket"}},"type":"Feature"},
	{"geometry":{"coordinates":[8.075942,49.981975],"type":"Point"},"properties":{"osm_id":"2503658951","tag":{"amenity":"recycling","recycling:glass":"yes","recycling_type":"container"}},"type":"Feature"},
	{"geometry":{"coordinates":[8.07426,49.984214],"type":"Point"},"properties":{"osm_id":"2503658952","tag":{"amenity":"waste_basket"}},"type":"Feature"},
	{"geometry":{"coordinates":[8.074025,49.984541],"type":"Point"},"properties":{"osm_id":"2503658953","tag":{"amenity":"recycling","location":"underground","opening_hours":"Mo-Fr 07:00-19:00","recycling:glass":"yes","recycling:glass_bottles":"yes","recycling_type":"container"}},"type":"Feature"},
	{"geometry":{"coordinates":[8.076362,49.982548],"type":"Point"},"properties":{"osm_id":"2503682837","tag":{"amenity":"waste_basket"}},"type":"Feature"},
	{"geometry":{"coordinates":[8.06882,49.977623],"type":"Point"},"properties":{"osm_id":"2504051293","tag":{"amenity":"waste_basket"}},"type":"Feature"},
	{"geometry":{"coordinates":[8.056108,49.97532],"type":"Point"},"properties":{"osm_id":"2504935597","tag":{"amenity":"waste_basket"}},"type":"Feature"},
	{"geometry":{"coordinates":[8.069679,49.976292],"type":"Point"},"properties":{"osm_id":"2518389107","tag":{"amenity":"recycling","recycling:glass":"yes","recycling_type":"container"}},"type":"Feature"},
	{"geometry":{"coordinates":[8.026505,49.992813],"type":"Point"},"properties":{"osm_id":"2528537391","tag":{"amenity":"recycling","recycling:clothes":"yes","recycling_type":"container"}},"type":"Feature"},
	{"geometry":{"coordinates":[8.060463,49.984839],"type":"Point"},"properties":{"osm_id":"2532288381","tag":{"amenity":"waste_basket"}},"type":"Feature"},
	{"geometry":{"coordinates":[8.056521,49.984569],"type":"Point"},"properties":{"osm_id":"2532288384","tag":{"amenity":"waste_basket"}},"type":"Feature"},
	{"geometry":{"coordinates":[8.067374,49.975542],"type":"Point"},"properties":{"osm_id":"2536340449","tag":{"amenity":"waste_basket"}},"type":"Feature"},
	{"geometry":{"coordinates":[8.054657,49.973936],"type":"Point"},"properties":{"osm_id":"2537654406","tag":{"amenity":"waste_basket"}},"type":"Feature"},
	{"geometry":{"coordinates":[8.060854,49.966692],"type":"Point"},"properties":{"osm_id":"2541024586","tag":{"amenity":"waste_basket"}},"type":"Feature"},
	{"geometry":{"coordinates":[8.069499,49.97648],"type":"Point"},"properties":{"osm_id":"2568866713","tag":{"amenity":"recycling","recycling:clothes":"yes","recycling_type":"container"}},"type":"Feature"},
	{"geometry":{"coordinates":[8.078484,49.979896],"type":"Point"},"properties":{"osm_id":"2599794650","tag":{"amenity":"recycling","recycling:clothes":"yes","recycling:glass":"yes","recycling_type":"container"}},"type":"Feature"},
	{"geometry":{"coordinates":[8.071722,49.97693],"type":"Point"},"properties":{"osm_id":"2601169815","tag":{"amenity":"waste_basket"}},"type":"Feature"},
	{"geometry":{"coordinates":[8.073344,49.978377],"type":"Point"},"properties":{"osm_id":"2837729213","tag":{"amenity":"waste_basket"}},"type":"Feature"},
	{"geometry":{"coordinates":[8.073086,49.97857],"type":"Point"},"properties":{"osm_id":"2837729235","tag":{"amenity":"waste_basket"}},"type":"Feature"},
	{"geometry":{"coordinates":[8.071165,49.978645],"type":"Point"},"properties":{"osm_id":"2837729241","tag":{"amenity":"waste_basket"}},"type":"Feature"},
	{"geometry":{"coordinates":[8.072684,49.97872],"type":"Point"},"properties":{"osm_id":"2837729252","tag":{"amenity":"waste_basket"}},"type":"Feature"},
	{"geometry":{"coordinates":[8.068219,49.98027],"type":"Point"},"properties":{"osm_id":"3065253471","tag":{"amenity":"waste_basket"}},"type":"Feature"},
	{"geometry":{"coordinates":[8.032928,49.992353],"type":"Point"},"properties":{"osm_id":"4089918755","tag":{"amenity":"waste_basket"}},"type":"Feature"},
	{"geometry":{"coordinates":[8.032448,49.99253],"type":"Point"},"properties":{"osm_id":"4089918757","tag":{"amenity":"waste_basket"}},"type":"Feature"},
	{"geometry":{"coordinates":[8.044632,49.966437],"type":"Point"},"properties":{"osm_id":"4167591525","tag":{"amenity":"waste_basket"}},"type":"Feature"},
	{"geometry":{"coordinates":[8.044198,49.966445],"type":"Point"},"properties":{"osm_id":"4167591530","tag":{"amenity":"waste_basket"}},"type":"Feature"},
	{"geometry":{"coordinates":[8.043708,49.966446],"type":"Point"},"properties":{"osm_id":"4167591531","tag":{"amenity":"waste_basket"}},"type":"Feature"},
	{"geometry":{"coordinates":[8.045928,49.966461],"type":"Point"},"properties":{"osm_id":"4167591541","tag":{"amenity":"waste_basket"}},"type":"Feature"},
	{"geometry":{"coordinates":[8.042699,49.966473],"type":"Point"},"properties":{"osm_id":"4167591552","tag":{"amenity":"waste_basket"}},"type":"Feature"},
	{"geometry":{"coordinates":[8.04233,49.966519],"type":"Point"},"properties":{"osm_id":"4167591581","tag":{"amenity":"waste_basket"}},"type":"Feature"},
	{"geometry":{"coordinates":[8.020769,49.993925],"type":"Point"},"properties":{"osm_id":"4693337131","tag":{"amenity":"waste_basket"}},"type":"Feature"},
	{"geometry":{"coordinates":[8.021035,49.994032],"type":"Point"},"properties":{"osm_id":"4693337132","tag":{"amenity":"waste_basket"}},"type":"Feature"},
	{"geometry":{"coordinates":[8.071533,49.979221],"type":"Point"},"properties":{"osm_id":"5143794952","tag":{"amenity":"waste_basket"}},"type":"Feature"},
	{"geometry":{"coordinates":[8.072187,49.978277],"type":"Point"},"properties":{"osm_id":"5143794962","tag":{"amenity":"waste_basket"}},"type":"Feature"},
	{"geometry":{"coordinates":[8.071495,49.976976],"type":"Point"},"properties":{"osm_id":"5143794971","tag":{"amenity":"waste_basket"}},"type":"Feature"},
	{"geometry":{"coordinates":[8.071988,49.986038],"type":"Point"},"properties":{"osm_id":"5715854912","tag":{"addr:street":"Ost-West-Umfahrung","amenity":"recycling","location":"underground","recycling:glass":"yes","recycling:glass_bottles":"yes","recycling_type":"container"}},"type":"Feature"},
	{"geometry":{"coordinates":[8.06,49.979171],"type":"Point"},"properties":{"osm_id":"5827801728","tag":{"amenity":"recycling","recycling:clothes":"yes","recycling:glass_bottles":"yes","recycling_type":"container"}},"type":"Feature"}
]
}
