{
"type": "FeatureCollection",
"features": [
	{"geometry":{"coordinates":[8.015459,49.562215],"type":"Point"},"properties":{"osm_id":"5068356849","tag":{"amenity":"waste_basket"}},"type":"Feature"},
	{"geometry":{"coordinates":[8.01523,49.562235],"type":"Point"},"properties":{"osm_id":"5068356850","tag":{"amenity":"waste_basket"}},"type":"Feature"},
	{"geometry":{"coordinates":[8.014894,49.562802],"type":"Point"},"properties":{"osm_id":"5068356851","tag":{"amenity":"waste_basket"}},"type":"Feature"},
	{"geometry":{"coordinates":[8.017216,49.56306],"type":"Point"},"properties":{"osm_id":"5068356852","tag":{"amenity":"waste_basket"}},"type":"Feature"},
	{"geometry":{"coordinates":[8.01755,49.563198],"type":"Point"},"properties":{"osm_id":"5068356853","tag":{"amenity":"waste_basket"}},"type":"Feature"},
	{"geometry":{"coordinates":[8.013539,49.561619],"type":"Point"},"properties":{"osm_id":"5497751058","tag":{"amenity":"waste_basket"}},"type":"Feature"},
	{"geometry":{"coordinates":[8.063412,49.560132],"type":"Point"},"properties":{"osm_id":"5515567149","tag":{"amenity":"waste_basket"}},"type":"Feature"},
	{"geometry":{"coordinates":[8.069021,49.559481],"type":"Point"},"properties":{"osm_id":"5515569277","tag":{"amenity":"waste_basket"}},"type":"Feature"},
	{"geometry":{"coordinates":[8.058294,49.559507],"type":"Point"},"properties":{"osm_id":"5515571128","tag":{"amenity":"recycling"}},"type":"Feature"},
	{"geometry":{"coordinates":[8.058607,49.557932],"type":"Point"},"properties":{"osm_id":"5515571129","tag":{"amenity":"recycling"}},"type":"Feature"},
	{"geometry":{"coordinates":[8.019479,49.561743],"type":"Point"},"properties":{"osm_id":"5577945957","tag":{"amenity":"waste_basket","collection_times":"Freitag"}},"type":"Feature"},
	{"geometry":{"coordinates":[8.012134,49.560129],"type":"Point"},"properties":{"osm_id":"5577945958","tag":{"amenity":"waste_basket","collection_times":"Freitag"}},"type":"Feature"},
	{"geometry":{"coordinates":[8.010364,49.560144],"type":"Point"},"properties":{"osm_id":"5577945959","tag":{"amenity":"waste_basket","collection_times":"Freitag"}},"type":"Feature"}
]
}
