{
"type": "FeatureCollection",
"features": [
	{"geometry":{"coordinates":[8.073533,48.628041],"type":"Point"},"properties":{"osm_id":"470062655","tag":{"amenity":"recycling","recycling:cans":"yes","recycling:clothes":"yes","recycling:glass":"yes","recycling:paper":"yes"}},"type":"Feature"},
	{"geometry":{"coordinates":[8.073418,48.628041],"type":"Point"},"properties":{"osm_id":"470062658","tag":{"amenity":"recycling","recycling:cans":"yes","recycling:clothes":"yes","recycling:glass":"yes","recycling:paper":"yes"}},"type":"Feature"},
	{"geometry":{"coordinates":[8.084198,48.619072],"type":"Point"},"properties":{"osm_id":"665173730","tag":{"amenity":"recycling","recycling:glass":"yes","recycling_type":"container"}},"type":"Feature"},
	{"geometry":{"coordinates":[8.063656,48.596152],"type":"Point"},"properties":{"osm_id":"671638361","tag":{"amenity":"recycling","recycling:glass":"yes","recycling_type":"container"}},"type":"Feature"},
	{"geometry":{"coordinates":[8.006319,48.584077],"type":"Point"},"properties":{"osm_id":"672117432","tag":{"amenity":"recycling","recycling_type":"container"}},"type":"Feature"},
	{"geometry":{"coordinates":[8.080023,48.613635],"type":"Point"},"properties":{"osm_id":"681441599","tag":{"amenity":"recycling","location":"overground","recycling:glass":"yes","recycling_type":"container"}},"type":"Feature"},
	{"geometry":{"coordinates":[8.073131,48.624187],"type":"Point"},"properties":{"osm_id":"697015422","tag":{"amenity":"recycling","recycling:clothes":"yes","recycling_type":"container"}},"type":"Feature"},
	{"geometry":{"coordinates":[8.068048,48.625574],"type":"Point"},"properties":{"osm_id":"697015444","tag":{"amenity":"waste_basket"}},"type":"Feature"},
	{"geometry":{"coordinates":[8.069052,48.626314],"type":"Point"},"properties":{"osm_id":"697015480","tag":{"amenity":"waste_basket"}},"type":"Feature"},
	{"geometry":{"coordinates":[8.069129,48.626298],"type":"Point"},"properties":{"osm_id":"697015482","tag":{"amenity":"waste_basket"}},"type":"Feature"},
	{"geometry":{"coordinates":[8.069327,48.626444],"type":"Point"},"properties":{"osm_id":"697015495","tag":{"amenity":"waste_basket"}},"type":"Feature"},
	{"geometry":{"coordinates":[8.071389,48.62675],"type":"Point"},"properties":{"osm_id":"697015538","tag":{"amenity":"waste_basket"}},"type":"Feature"},
	{"geometry":{"coordinates":[8.074176,48.625898],"type":"Point"},"properties":{"osm_id":"697015562","tag":{"amenity":"recycling","recycling:clothes":"no","recycling:glass":"yes","recycling:shoes":"yes","recycling_type":"container"}},"type":"Feature"},
	{"geometry":{"coordinates":[8.078772,48.62117],"type":"Point"},"properties":{"osm_id":"699894977","tag":{"amenity":"recycling","recycling:clothes":"yes","recycling:glass":"yes"}},"type":"Feature"},
	{"geometry":{"coordinates":[8.052405,48.622154],"type":"Point"},"properties":{"osm_id":"1309260531","tag":{"amenity":"recycling","recycling:glass":"yes","recycling_type":"container"}},"type":"Feature"},
	{"geometry":{"coordinates":[8.080757,48.625057],"type":"Point"},"properties":{"osm_id":"2085568074","tag":{"amenity":"recycling","recycling:clothes":"yes","recycling:glass":"yes","recycling_type":"container"}},"type":"Feature"},
	{"geometry":{"coordinates":[8.085851,48.628422],"type":"Point"},"properties":{"osm_id":"2110842550","tag":{"amenity":"recycling","recycling:batteries":"yes","recycling:cans":"yes","recycling:glass":"yes","recycling:paper":"yes","recycling:scrap_metal":"yes","recycling_type":"container"}},"type":"Feature"},
	{"geometry":{"coordinates":[8.075655,48.62663],"type":"Point"},"properties":{"osm_id":"2465809839","tag":{"amenity":"recycling","recycling:clothes":"yes","recycling_type":"container"}},"type":"Feature"},
	{"geometry":{"coordinates":[8.083799,48.625335],"type":"Point"},"properties":{"osm_id":"2521062311","tag":{"amenity":"waste_basket"}},"type":"Feature"},
	{"geometry":{"coordinates":[8.079178,48.614255],"type":"Point"},"properties":{"osm_id":"2935948280","tag":{"amenity":"waste_basket"}},"type":"Feature"},
	{"geometry":{"coordinates":[8.077775,48.62886],"type":"Point"},"properties":{"osm_id":"3267600553","tag":{"amenity":"recycling","location":"overground","recycling:clothes":"yes","recycling:glass":"no","recycling:glass_bottles":"yes","recycling_type":"container"}},"type":"Feature"},
	{"geometry":{"coordinates":[8.046484,48.580398],"type":"Point"},"properties":{"osm_id":"3408954763","tag":{"amenity":"recycling","recycling:clothes":"yes","recycling:glass":"yes"}},"type":"Feature"},
	{"geometry":{"coordinates":[8.009468,48.591464],"type":"Point"},"properties":{"osm_id":"4063084908","tag":{"amenity":"recycling","capacity":"2","lastcheck":"2016-03-16","operator":"Deutsches Rotes Kreuz","recycling:clothes":"yes","recycling_type":"container"}},"type":"Feature"},
	{"geometry":{"coordinates":[8.009499,48.591489],"type":"Point"},"properties":{"osm_id":"4063084909","tag":{"amenity":"recycling","lastcheck":"2016-03-16","recycling:glass":"yes","recycling_type":"container"}},"type":"Feature"},
	{"geometry":{"coordinates":[8.01689,48.591889],"type":"Point"},"properties":{"osm_id":"4063084910","tag":{"amenity":"recycling","lastcheck":"2016-03-16","recycling:glass":"yes","recycling_type":"container"}},"type":"Feature"},
	{"geometry":{"coordinates":[8.016795,48.591935],"type":"Point"},"properties":{"osm_id":"4063084911","tag":{"amenity":"recycling","capacity":"3","lastcheck":"2016-03-16","operator":"Deutsches Rotes Kreuz","recycling:clothes":"yes","recycling_type":"container"}},"type":"Feature"},
	{"geometry":{"coordinates":[8.018692,48.591532],"type":"Point"},"properties":{"osm_id":"4089464252","tag":{"amenity":"recycling","lastcheck":"2016-04-01","operator":"CityGreenPoint","recycling:clothes":"yes","recycling_type":"container"}},"type":"Feature"},
	{"geometry":{"coordinates":[8.013354,48.589432],"type":"Point"},"properties":{"osm_id":"4686805049","tag":{"amenity":"recycling","recycling:glass":"yes","recycling_type":"container"}},"type":"Feature"},
	{"geometry":{"coordinates":[8.010574,48.586082],"type":"Point"},"properties":{"osm_id":"4881305424","tag":{"amenity":"waste_basket"}},"type":"Feature"},
	{"geometry":{"coordinates":[8.075529,48.629887],"type":"Point"},"properties":{"osm_id":"5498256614","tag":{"amenity":"waste_basket"}},"type":"Feature"},
	{"geometry":{"coordinates":[8.078495,48.617778],"type":"Point"},"properties":{"osm_id":"5498256616","tag":{"amenity":"waste_basket","waste":"dog_excrement"}},"type":"Feature"},
	{"geometry":{"coordinates":[8.072783,48.629642],"type":"Point"},"properties":{"osm_id":"5505575858","tag":{"amenity":"recycling","recycling:glass":"yes","recycling_type":"container"}},"type":"Feature"},
	{"geometry":{"coordinates":[8.072733,48.629755],"type":"Point"},"properties":{"osm_id":"5505575859","tag":{"amenity":"waste_basket"}},"type":"Feature"},
	{"geometry":{"coordinates":[8.07311,48.629794],"type":"Point"},"properties":{"osm_id":"5505575861","tag":{"amenity":"waste_basket"}},"type":"Feature"},
	{"geometry":{"coordinates":[8.071914,48.62889],"type":"Point"},"properties":{"osm_id":"5505620622","tag":{"amenity":"waste_basket"}},"type":"Feature"},
	{"geometry":{"coordinates":[8.07105,48.629232],"type":"Point"},"properties":{"osm_id":"5505620625","tag":{"amenity":"waste_basket"}},"type":"Feature"},
	{"geometry":{"coordinates":[8.071137,48.629196],"type":"Point"},"properties":{"osm_id":"5505620626","tag":{"amenity":"waste_basket"}},"type":"Feature"},
	{"geometry":{"coordinates":[8.072931,48.628898],"type":"Point"},"properties":{"osm_id":"5505627824","tag":{"amenity":"waste_basket"}},"type":"Feature"},
	{"geometry":{"coordinates":[8.071724,48.628627],"type":"Point"},"properties":{"osm_id":"5505627828","tag":{"amenity":"waste_basket"}},"type":"Feature"},
	{"geometry":{"coordinates":[8.071414,48.629308],"type":"Point"},"properties":{"osm_id":"5505627831","tag":{"amenity":"waste_basket"}},"type":"Feature"},
	{"geometry":{"coordinates":[8.071165,48.629037],"type":"Point"},"properties":{"osm_id":"5505627832","tag":{"amenity":"waste_basket"}},"type":"Feature"},
	{"geometry":{"coordinates":[8.071386,48.629763],"type":"Point"},"properties":{"osm_id":"5505627835","tag":{"amenity":"waste_basket"}},"type":"Feature"},
	{"geometry":{"coordinates":[8.071384,48.629483],"type":"Point"},"properties":{"osm_id":"5505627836","tag":{"amenity":"waste_basket"}},"type":"Feature"},
	{"geometry":{"coordinates":[8.073148,48.629691],"type":"Point"},"properties":{"osm_id":"5505666221","tag":{"amenity":"waste_basket"}},"type":"Feature"},
	{"geometry":{"coordinates":[8.07135,48.629633],"type":"Point"},"properties":{"osm_id":"5505666224","tag":{"amenity":"waste_basket"}},"type":"Feature"},
	{"geometry":{"coordinates":[8.071494,48.629147],"type":"Point"},"properties":{"osm_id":"5505666521","tag":{"amenity":"waste_basket"}},"type":"Feature"},
	{"geometry":{"coordinates":[8.071423,48.629157],"type":"Point"},"properties":{"osm_id":"5505666522","tag":{"amenity":"waste_basket"}},"type":"Feature"},
	{"geometry":{"coordinates":[8.077257,48.631416],"type":"Point"},"properties":{"osm_id":"5541825164","tag":{"amenity":"waste_basket"}},"type":"Feature"},
	{"geometry":{"coordinates":[8.06551,48.598263],"type":"Point"},"properties":{"osm_id":"6488150748","tag":{"amenity":"waste_basket"}},"type":"Feature"},
	{"geometry":{"coordinates":[8.013783,48.583524],"type":"Point"},"properties":{"osm_id":"7086941791","tag":{"amenity":"waste_basket","waste":"trash"}},"type":"Feature"},
	{"geometry":{"coordinates":[8.068507,48.630348],"type":"Point"},"properties":{"osm_id":"7414595623","tag":{"amenity":"recycling","recycling:clothes":"yes","recycling_type":"container"}},"type":"Feature"},
	{"geometry":{"coordinates":[8.058157,48.624737],"type":"Point"},"properties":{"osm_id":"7418769611","tag":{"amenity":"waste_basket"}},"type":"Feature"},
	{"geometry":{"coordinates":[8.058079,48.624648],"type":"Point"},"properties":{"osm_id":"7418769636","tag":{"amenity":"waste_basket"}},"type":"Feature"},
	{"geometry":{"coordinates":[8.059683,48.623574],"type":"Point"},"properties":{"osm_id":"7418769640","tag":{"amenity":"waste_basket"}},"type":"Feature"},
	{"geometry":{"coordinates":[8.068175,48.6261],"type":"Point"},"properties":{"osm_id":"7418769656","tag":{"amenity":"waste_basket"}},"type":"Feature"},
	{"geometry":{"coordinates":[8.060781,48.626743],"type":"Point"},"properties":{"osm_id":"7431415129","tag":{"amenity":"recycling","recycling:glass":"yes","recycling_type":"container"}},"type":"Feature"},
	{"geometry":{"coordinates":[8.085233,48.618992],"type":"Point"},"properties":{"osm_id":"7431415159","tag":{"amenity":"recycling","mapillary":"q6gSxaXr2WPxzkvueQPZ8Q","recycling:glass":"yes","recycling_type":"container"}},"type":"Feature"},
	{"geometry":{"coordinates":[8.07465,48.628606],"type":"Point"},"properties":{"osm_id":"7553605363","tag":{"amenity":"waste_basket","material":"metal"}},"type":"Feature"},
	{"geometry":{"coordinates":[8.068216,48.625447],"type":"Point"},"properties":{"osm_id":"7947309615","tag":{"amenity":"waste_basket","waste":"trash"}},"type":"Feature"}
]
}
