{
"type": "FeatureCollection",
"lastupdate": "2020-08-04T00:00:00Z",
"features": [
	{"geometry":{"coordinates":[8.021859,47.503124],"type":"Point"},"properties":{"osm_id":"1735525351","tag":{"amenity":"recycling","opening_hours":"Mo-Fr 08:00-16:45; Sa 08:00-16:00","recycling:cans":"yes","recycling:glass_bottles":"yes","recycling_type":"container"}},"type":"Feature"},
	{"geometry":{"coordinates":[8.03389,47.50011],"type":"Point"},"properties":{"name":"RE-Center","osm_id":"1985601973","tag":{"amenity":"recycling","phone":"+41 62 865 66 99","recycling_type":"centre","website":"http://www.deinmuell.ch/entsorgen/2-recycling-center-frick"}},"type":"Feature"},
	{"geometry":{"coordinates":[8.015206,47.502921],"type":"Point"},"properties":{"osm_id":"4640537607","tag":{"amenity":"recycling","opening_hours":"Mo-Sa 07:00-12:00, 13:00-21:00","recycling:cans":"yes","recycling:glass_bottles":"yes","recycling_type":"container"}},"type":"Feature"},
	{"geometry":{"coordinates":[8.068006,47.498123],"type":"Point"},"properties":{"name":"Waser AG","osm_id":"4883841285","tag":{"amenity":"recycling","operator":"Waser AG","recycling_type":"centre"}},"type":"Feature"},
	{"geometry":{"coordinates":[8.066504,47.498444],"type":"Point"},"properties":{"name":"Kleidersammlung","osm_id":"4883841286","tag":{"amenity":"recycling","recycling_type":"container"}},"type":"Feature"},
	{"geometry":{"coordinates":[8.014131,47.506599],"type":"Point"},"properties":{"osm_id":"5343760179","tag":{"amenity":"recycling","recycling:clothes":"yes","recycling_type":"container"}},"type":"Feature"},
	{"geometry":{"coordinates":[8.012456,47.506454],"type":"Point"},"properties":{"osm_id":"5343760180","tag":{"amenity":"recycling","recycling:clothes":"yes","recycling_type":"container"}},"type":"Feature"},
	{"geometry":{"coordinates":[8.014752,47.513884],"type":"Point"},"properties":{"barrier":"gate","osm_id":"7161305904"},"type":"Feature"},
	{"geometry":{"coordinates":[8.01529,47.506334],"type":"Point"},"properties":{"osm_id":"7172792629","tag":{"amenity":"waste_basket","waste":"dog_excrement"}},"type":"Feature"},
	{"geometry":{"coordinates":[8.013829,47.500931],"type":"Point"},"properties":{"osm_id":"7172792630","tag":{"amenity":"waste_basket","waste":"trash"}},"type":"Feature"},
	{"geometry":{"coordinates":[8.016253,47.505372],"type":"Point"},"properties":{"osm_id":"7172954007","tag":{"amenity":"waste_basket","waste":"trash"}},"type":"Feature"},
	{"geometry":{"coordinates":[8.019359,47.506944],"type":"Point"},"properties":{"osm_id":"7174274102","tag":{"amenity":"waste_basket","waste":"dog_excrement"}},"type":"Feature"},
	{"geometry":{"coordinates":[8.019404,47.50699],"type":"Point"},"properties":{"osm_id":"7174274103","tag":{"amenity":"waste_basket","waste":"trash"}},"type":"Feature"},
	{"geometry":{"coordinates":[8.018637,47.508346],"type":"Point"},"properties":{"osm_id":"7174274105","tag":{"amenity":"waste_basket","waste":"trash"}},"type":"Feature"},
	{"geometry":{"coordinates":[8.019289,47.503152],"type":"Point"},"properties":{"osm_id":"7179869606","tag":{"amenity":"waste_basket","waste":"trash"}},"type":"Feature"},
	{"geometry":{"coordinates":[8.019147,47.512302],"type":"Point"},"properties":{"osm_id":"7179869619","tag":{"amenity":"waste_basket","waste":"trash"}},"type":"Feature"},
	{"geometry":{"coordinates":[8.018969,47.514564],"type":"Point"},"properties":{"osm_id":"7179869620","tag":{"amenity":"waste_basket","waste":"dog_excrement"}},"type":"Feature"},
	{"geometry":{"coordinates":[8.019365,47.514572],"type":"Point"},"properties":{"osm_id":"7179869627","tag":{"amenity":"waste_basket","waste":"dog_excrement"}},"type":"Feature"},
	{"geometry":{"coordinates":[8.029945,47.505658],"type":"Point"},"properties":{"osm_id":"7191352667","tag":{"amenity":"waste_basket","waste":"dog_excrement"}},"type":"Feature"},
	{"geometry":{"coordinates":[8.058648,47.516739],"type":"Point"},"properties":{"osm_id":"7568751513","tag":{"amenity":"recycling","recycling_type":"centre"}},"type":"Feature"}
]
}
