{
"type": "FeatureCollection",
"features": [
	{"geometry":{"coordinates":[24.415011,60.984121],"type":"Point"},"properties":{"name":"UFF","osm_id":"807889345","tag":{"amenity":"recycling","recycling:clothes":"yes"}},"type":"Feature"},
	{"geometry":{"coordinates":[24.430265,60.99597],"type":"Point"},"properties":{"osm_id":"3447137892","tag":{"amenity":"recycling","recycling:clothes":"yes","recycling:glass":"yes","recycling:paper":"yes"}},"type":"Feature"},
	{"geometry":{"coordinates":[24.42206,60.984487],"type":"Point"},"properties":{"osm_id":"3463496449","tag":{"amenity":"waste_basket"}},"type":"Feature"},
	{"geometry":{"coordinates":[24.414613,60.996548],"type":"Point"},"properties":{"osm_id":"3464077972","tag":{"amenity":"waste_basket"}},"type":"Feature"},
	{"geometry":{"coordinates":[24.414207,60.995653],"type":"Point"},"properties":{"osm_id":"3464116028","tag":{"amenity":"waste_basket"}},"type":"Feature"},
	{"geometry":{"coordinates":[24.420547,60.993636],"type":"Point"},"properties":{"osm_id":"3469012727","tag":{"amenity":"waste_basket"}},"type":"Feature"},
	{"geometry":{"coordinates":[24.419412,60.994614],"type":"Point"},"properties":{"osm_id":"3469012733","tag":{"amenity":"waste_basket"}},"type":"Feature"},
	{"geometry":{"coordinates":[24.406365,61.004883],"type":"Point"},"properties":{"osm_id":"3506662981","tag":{"amenity":"waste_basket"}},"type":"Feature"},
	{"geometry":{"coordinates":[24.386839,60.985653],"type":"Point"},"properties":{"osm_id":"4374530628","tag":{"amenity":"recycling","recycling_type":"container"}},"type":"Feature"},
	{"geometry":{"coordinates":[24.420226,60.99272],"type":"Point"},"properties":{"osm_id":"6549184936","tag":{"amenity":"waste_basket"}},"type":"Feature"},
	{"geometry":{"coordinates":[24.419725,60.992543],"type":"Point"},"properties":{"osm_id":"6549184937","tag":{"amenity":"waste_basket"}},"type":"Feature"},
	{"geometry":{"coordinates":[24.419466,60.992674],"type":"Point"},"properties":{"osm_id":"6549184938","tag":{"amenity":"waste_basket"}},"type":"Feature"},
	{"geometry":{"coordinates":[24.419121,60.992558],"type":"Point"},"properties":{"osm_id":"6549184942","tag":{"amenity":"waste_basket"}},"type":"Feature"},
	{"geometry":{"coordinates":[24.420682,60.992598],"type":"Point"},"properties":{"osm_id":"6549184946","tag":{"amenity":"waste_basket"}},"type":"Feature"},
	{"geometry":{"coordinates":[24.421986,60.992843],"type":"Point"},"properties":{"osm_id":"6550213079","tag":{"amenity":"waste_basket"}},"type":"Feature"},
	{"geometry":{"coordinates":[24.421745,60.992873],"type":"Point"},"properties":{"osm_id":"6550213080","tag":{"amenity":"waste_basket"}},"type":"Feature"},
	{"geometry":{"coordinates":[24.42145,60.993333],"type":"Point"},"properties":{"osm_id":"6550213081","tag":{"amenity":"waste_basket"}},"type":"Feature"},
	{"geometry":{"coordinates":[24.421787,60.993373],"type":"Point"},"properties":{"osm_id":"6550213082","tag":{"amenity":"waste_basket"}},"type":"Feature"},
	{"geometry":{"coordinates":[24.418782,60.992703],"type":"Point"},"properties":{"osm_id":"6550224721","tag":{"amenity":"waste_basket"}},"type":"Feature"},
	{"geometry":{"coordinates":[24.416535,61.006397],"type":"Point"},"properties":{"osm_id":"6733432893","tag":{"amenity":"recycling","recycling:electrical_appliances":"yes","recycling:small_appliances":"yes","recycling_type":"centre"}},"type":"Feature"},
	{"geometry":{"coordinates":[24.43139,61.004636],"type":"Point"},"properties":{"osm_id":"7380406555","tag":{"amenity":"waste_basket"}},"type":"Feature"},
	{"geometry":{"coordinates":[24.431308,61.004712],"type":"Point"},"properties":{"osm_id":"7380406556","tag":{"amenity":"waste_basket"}},"type":"Feature"},
	{"geometry":{"coordinates":[24.431065,61.004331],"type":"Point"},"properties":{"osm_id":"7380406557","tag":{"amenity":"waste_basket"}},"type":"Feature"},
	{"geometry":{"coordinates":[24.421438,60.992871],"type":"Point"},"properties":{"osm_id":"7684816826","tag":{"amenity":"waste_basket"}},"type":"Feature"},
	{"geometry":{"coordinates":[24.377608,60.975499],"type":"Point"},"properties":{"osm_id":"7801614686","tag":{"amenity":"recycling","recycling_type":"container"}},"type":"Feature"}
]
}
