{
"type": "FeatureCollection",
"features": [
	{"geometry":{"coordinates":[-40.264865,-15.258924],"type":"Point"},"properties":{"osm_id":"1606967787","tag":{"amenity":"recycling","recycling:cans":"yes","recycling:paper":"yes","recycling:scrap_metal":"yes","recycling_type":"container"}},"type":"Feature"},
	{"geometry":{"coordinates":[-40.262209,-15.25359],"type":"Point"},"properties":{"osm_id":"3065016000","tag":{"amenity":"recycling","operator":"Itair\u00c3\u00b3","recycling:cans":"yes","recycling:paper":"yes","recycling_type":"container"}},"type":"Feature"},
	{"geometry":{"coordinates":[-40.264151,-15.249492],"type":"Point"},"properties":{"osm_id":"3163139397","tag":{"amenity":"recycling","operator":"Itair\u00c3\u00b3","recycling:cans":"yes","recycling:paper":"yes","recycling_type":"container"}},"type":"Feature"},
	{"geometry":{"coordinates":[-40.263481,-15.249972],"type":"Point"},"properties":{"osm_id":"3713683095","tag":{"amenity":"recycling","operator":"Itair\u00c3\u00b3","recycling:cans":"yes","recycling:paper":"yes","recycling_type":"container"}},"type":"Feature"},
	{"geometry":{"coordinates":[-40.275452,-15.248725],"type":"Point"},"properties":{"osm_id":"7854326982","tag":{"amenity":"recycling","opening_hours":"Mo-Sa 07:00-21:00; Su 07:00-18:00","operator":"Assa\u00c3\u00ad-pilhas usadas","recycling:batteries":"yes","recycling_type":"container","wheelchair":"yes"}},"type":"Feature"}
]
}
