{
"type": "FeatureCollection",
"features": [
	{"geometry":{"coordinates":[-40.265066,-20.262664],"type":"Point"},"properties":{"osm_id":"995665975","tag":{"amenity":"recycling"}},"type":"Feature"},
	{"geometry":{"coordinates":[-40.305444,-20.293586],"type":"Point"},"properties":{"name":"Associa\u00c3\u00a7\u00c3\u00a3o dos Catadores de Materiais Recicl\u00c3\u00a1veis da Ilha de Vit\u00c3\u00b3ria","osm_id":"5230609626","tag":{"addr:street":"Rua Arlindo Sodr\u00c3\u00a9","amenity":"recycling","recycling_type":"centre","short_name":"AMARIV"}},"type":"Feature"},
	{"geometry":{"coordinates":[-40.295984,-20.300627],"type":"Point"},"properties":{"osm_id":"7028556865","tag":{"amenity":"waste_basket","waste":"trash"}},"type":"Feature"},
	{"geometry":{"coordinates":[-40.282874,-20.275306],"type":"Point"},"properties":{"osm_id":"7028556866","tag":{"amenity":"waste_basket","waste":"trash"}},"type":"Feature"},
	{"geometry":{"coordinates":[-40.294244,-20.295252],"type":"Point"},"properties":{"osm_id":"7028556867","tag":{"amenity":"waste_basket","waste":"trash"}},"type":"Feature"},
	{"geometry":{"coordinates":[-40.285441,-20.277617],"type":"Point"},"properties":{"osm_id":"7028556868","tag":{"amenity":"waste_basket","waste":"trash"}},"type":"Feature"},
	{"geometry":{"coordinates":[-40.286424,-20.278545],"type":"Point"},"properties":{"osm_id":"7028556869","tag":{"amenity":"waste_basket","waste":"trash"}},"type":"Feature"},
	{"geometry":{"coordinates":[-40.287733,-20.280077],"type":"Point"},"properties":{"osm_id":"7028556870","tag":{"amenity":"waste_basket","waste":"trash"}},"type":"Feature"},
	{"geometry":{"coordinates":[-40.288741,-20.281983],"type":"Point"},"properties":{"osm_id":"7028556871","tag":{"amenity":"waste_basket","waste":"trash"}},"type":"Feature"},
	{"geometry":{"coordinates":[-40.290807,-20.28501],"type":"Point"},"properties":{"osm_id":"7028556872","tag":{"amenity":"waste_basket","waste":"trash"}},"type":"Feature"},
	{"geometry":{"coordinates":[-40.289362,-20.282837],"type":"Point"},"properties":{"osm_id":"7028556873","tag":{"amenity":"waste_basket","waste":"trash"}},"type":"Feature"},
	{"geometry":{"coordinates":[-40.290308,-20.283829],"type":"Point"},"properties":{"osm_id":"7028556874","tag":{"amenity":"waste_basket","waste":"trash"}},"type":"Feature"},
	{"geometry":{"coordinates":[-40.289786,-20.282945],"type":"Point"},"properties":{"osm_id":"7028556875","tag":{"amenity":"waste_basket","waste":"trash"}},"type":"Feature"},
	{"geometry":{"coordinates":[-40.289475,-20.28242],"type":"Point"},"properties":{"osm_id":"7028556876","tag":{"amenity":"waste_basket","waste":"trash"}},"type":"Feature"},
	{"geometry":{"coordinates":[-40.287407,-20.279543],"type":"Point"},"properties":{"osm_id":"7028556877","tag":{"amenity":"waste_basket","waste":"trash"}},"type":"Feature"},
	{"geometry":{"coordinates":[-40.301988,-20.269106],"type":"Point"},"properties":{"osm_id":"7028556883","tag":{"amenity":"waste_basket","waste":"trash"}},"type":"Feature"},
	{"geometry":{"coordinates":[-40.291656,-20.270158],"type":"Point"},"properties":{"osm_id":"7028556884","tag":{"amenity":"waste_basket","waste":"trash"}},"type":"Feature"},
	{"geometry":{"coordinates":[-40.300352,-20.267539],"type":"Point"},"properties":{"osm_id":"7028566570","tag":{"amenity":"waste_basket","waste":"trash"}},"type":"Feature"},
	{"geometry":{"coordinates":[-40.300585,-20.267595],"type":"Point"},"properties":{"osm_id":"7028566571","tag":{"amenity":"waste_basket","waste":"trash"}},"type":"Feature"},
	{"geometry":{"coordinates":[-40.300465,-20.267519],"type":"Point"},"properties":{"osm_id":"7028566572","tag":{"amenity":"waste_basket","waste":"trash"}},"type":"Feature"},
	{"geometry":{"coordinates":[-40.300383,-20.267691],"type":"Point"},"properties":{"osm_id":"7028566573","tag":{"amenity":"waste_basket","waste":"trash"}},"type":"Feature"},
	{"geometry":{"coordinates":[-40.306568,-20.301227],"type":"Point"},"properties":{"osm_id":"7028566577","tag":{"amenity":"waste_basket","waste":"trash"}},"type":"Feature"},
	{"geometry":{"coordinates":[-40.2993,-20.265796],"type":"Point"},"properties":{"osm_id":"7028576985","tag":{"amenity":"waste_basket","waste":"trash"}},"type":"Feature"},
	{"geometry":{"coordinates":[-40.298398,-20.302749],"type":"Point"},"properties":{"osm_id":"7028577001","tag":{"amenity":"waste_basket","waste":"trash"}},"type":"Feature"},
	{"geometry":{"coordinates":[-40.299259,-20.302222],"type":"Point"},"properties":{"osm_id":"7028577002","tag":{"amenity":"waste_basket","waste":"trash"}},"type":"Feature"},
	{"geometry":{"coordinates":[-40.29996,-20.301793],"type":"Point"},"properties":{"osm_id":"7028577007","tag":{"amenity":"waste_basket","waste":"trash"}},"type":"Feature"},
	{"geometry":{"coordinates":[-40.298269,-20.30317],"type":"Point"},"properties":{"osm_id":"7028577012","tag":{"amenity":"waste_basket","waste":"trash"}},"type":"Feature"},
	{"geometry":{"coordinates":[-40.299038,-20.302344],"type":"Point"},"properties":{"osm_id":"7028577018","tag":{"amenity":"waste_basket","waste":"trash"}},"type":"Feature"},
	{"geometry":{"coordinates":[-40.30042,-20.302169],"type":"Point"},"properties":{"osm_id":"7028577019","tag":{"amenity":"waste_basket","waste":"trash"}},"type":"Feature"},
	{"geometry":{"coordinates":[-40.296089,-20.272014],"type":"Point"},"properties":{"osm_id":"7028577020","tag":{"amenity":"waste_basket","waste":"trash"}},"type":"Feature"},
	{"geometry":{"coordinates":[-40.298096,-20.270273],"type":"Point"},"properties":{"osm_id":"7028577021","tag":{"amenity":"waste_basket","waste":"trash"}},"type":"Feature"},
	{"geometry":{"coordinates":[-40.297739,-20.269715],"type":"Point"},"properties":{"osm_id":"7028577022","tag":{"amenity":"waste_basket","waste":"trash"}},"type":"Feature"},
	{"geometry":{"coordinates":[-40.292673,-20.272826],"type":"Point"},"properties":{"osm_id":"7028577023","tag":{"amenity":"waste_basket","waste":"trash"}},"type":"Feature"},
	{"geometry":{"coordinates":[-40.293314,-20.272944],"type":"Point"},"properties":{"osm_id":"7028577024","tag":{"amenity":"waste_basket","waste":"trash"}},"type":"Feature"},
	{"geometry":{"coordinates":[-40.295553,-20.272353],"type":"Point"},"properties":{"osm_id":"7028577025","tag":{"amenity":"waste_basket","waste":"trash"}},"type":"Feature"},
	{"geometry":{"coordinates":[-40.297237,-20.271881],"type":"Point"},"properties":{"osm_id":"7028577026","tag":{"amenity":"waste_basket","waste":"trash"}},"type":"Feature"},
	{"geometry":{"coordinates":[-40.296866,-20.270599],"type":"Point"},"properties":{"osm_id":"7028577027","tag":{"amenity":"waste_basket","waste":"trash"}},"type":"Feature"},
	{"geometry":{"coordinates":[-40.295381,-20.279404],"type":"Point"},"properties":{"osm_id":"7028577028","tag":{"amenity":"waste_basket","waste":"trash"}},"type":"Feature"},
	{"geometry":{"coordinates":[-40.293851,-20.274334],"type":"Point"},"properties":{"osm_id":"7028577029","tag":{"amenity":"waste_basket","waste":"trash"}},"type":"Feature"},
	{"geometry":{"coordinates":[-40.295382,-20.279609],"type":"Point"},"properties":{"osm_id":"7028577030","tag":{"amenity":"waste_basket","waste":"trash"}},"type":"Feature"},
	{"geometry":{"coordinates":[-40.295167,-20.279444],"type":"Point"},"properties":{"osm_id":"7028577031","tag":{"amenity":"waste_basket","waste":"trash"}},"type":"Feature"},
	{"geometry":{"coordinates":[-40.297823,-20.271262],"type":"Point"},"properties":{"osm_id":"7028577032","tag":{"amenity":"waste_basket","waste":"trash"}},"type":"Feature"},
	{"geometry":{"coordinates":[-40.297143,-20.269562],"type":"Point"},"properties":{"osm_id":"7028577033","tag":{"amenity":"waste_basket","waste":"trash"}},"type":"Feature"},
	{"geometry":{"coordinates":[-40.29418,-20.27421],"type":"Point"},"properties":{"osm_id":"7028577034","tag":{"amenity":"waste_basket","waste":"trash"}},"type":"Feature"},
	{"geometry":{"coordinates":[-40.292906,-20.272876],"type":"Point"},"properties":{"osm_id":"7028577035","tag":{"amenity":"waste_basket","waste":"trash"}},"type":"Feature"},
	{"geometry":{"coordinates":[-40.299562,-20.300912],"type":"Point"},"properties":{"osm_id":"7028577037","tag":{"amenity":"waste_basket","waste":"trash"}},"type":"Feature"},
	{"geometry":{"coordinates":[-40.294549,-20.29828],"type":"Point"},"properties":{"osm_id":"7028577040","tag":{"amenity":"waste_basket","waste":"trash"}},"type":"Feature"},
	{"geometry":{"coordinates":[-40.291991,-20.272517],"type":"Point"},"properties":{"osm_id":"7028577041","tag":{"amenity":"waste_basket","waste":"trash"}},"type":"Feature"},
	{"geometry":{"coordinates":[-40.291701,-20.297062],"type":"Point"},"properties":{"osm_id":"7028577043","tag":{"amenity":"waste_basket","waste":"trash"}},"type":"Feature"},
	{"geometry":{"coordinates":[-40.307819,-20.295875],"type":"Point"},"properties":{"osm_id":"7028577044","tag":{"amenity":"waste_basket","waste":"trash"}},"type":"Feature"},
	{"geometry":{"coordinates":[-40.307904,-20.295571],"type":"Point"},"properties":{"osm_id":"7028577045","tag":{"amenity":"waste_basket","waste":"trash"}},"type":"Feature"},
	{"geometry":{"coordinates":[-40.294625,-20.278862],"type":"Point"},"properties":{"osm_id":"7028577046","tag":{"amenity":"waste_basket","waste":"trash"}},"type":"Feature"},
	{"geometry":{"coordinates":[-40.295654,-20.279803],"type":"Point"},"properties":{"osm_id":"7028577047","tag":{"amenity":"waste_basket","waste":"trash"}},"type":"Feature"},
	{"geometry":{"coordinates":[-40.294654,-20.277936],"type":"Point"},"properties":{"osm_id":"7028577048","tag":{"amenity":"waste_basket","waste":"trash"}},"type":"Feature"},
	{"geometry":{"coordinates":[-40.294382,-20.277325],"type":"Point"},"properties":{"osm_id":"7028577049","tag":{"amenity":"waste_basket","waste":"trash"}},"type":"Feature"},
	{"geometry":{"coordinates":[-40.294057,-20.27499],"type":"Point"},"properties":{"osm_id":"7028577050","tag":{"amenity":"waste_basket","waste":"trash"}},"type":"Feature"},
	{"geometry":{"coordinates":[-40.291624,-20.255118],"type":"Point"},"properties":{"osm_id":"7028577051","tag":{"amenity":"waste_basket","waste":"trash"}},"type":"Feature"},
	{"geometry":{"coordinates":[-40.291854,-20.25492],"type":"Point"},"properties":{"osm_id":"7028577052","tag":{"amenity":"waste_basket","waste":"trash"}},"type":"Feature"},
	{"geometry":{"coordinates":[-40.292663,-20.254503],"type":"Point"},"properties":{"osm_id":"7028577053","tag":{"amenity":"waste_basket","waste":"trash"}},"type":"Feature"},
	{"geometry":{"coordinates":[-40.293347,-20.254229],"type":"Point"},"properties":{"osm_id":"7028577054","tag":{"amenity":"waste_basket","waste":"trash"}},"type":"Feature"},
	{"geometry":{"coordinates":[-40.295333,-20.254988],"type":"Point"},"properties":{"osm_id":"7028577055","tag":{"amenity":"waste_basket","waste":"trash"}},"type":"Feature"},
	{"geometry":{"coordinates":[-40.29625,-20.270043],"type":"Point"},"properties":{"osm_id":"7028577056","tag":{"amenity":"waste_basket","waste":"trash"}},"type":"Feature"},
	{"geometry":{"coordinates":[-40.30765,-20.295551],"type":"Point"},"properties":{"osm_id":"7028577057","tag":{"amenity":"waste_basket","waste":"trash"}},"type":"Feature"},
	{"geometry":{"coordinates":[-40.307951,-20.295273],"type":"Point"},"properties":{"osm_id":"7028577058","tag":{"amenity":"waste_basket","waste":"trash"}},"type":"Feature"},
	{"geometry":{"coordinates":[-40.307757,-20.295351],"type":"Point"},"properties":{"osm_id":"7028577059","tag":{"amenity":"waste_basket","waste":"trash"}},"type":"Feature"},
	{"geometry":{"coordinates":[-40.296611,-20.269517],"type":"Point"},"properties":{"osm_id":"7028577060","tag":{"amenity":"waste_basket","waste":"trash"}},"type":"Feature"},
	{"geometry":{"coordinates":[-40.29351,-20.270329],"type":"Point"},"properties":{"osm_id":"7028577061","tag":{"amenity":"waste_basket","waste":"trash"}},"type":"Feature"},
	{"geometry":{"coordinates":[-40.298386,-20.268398],"type":"Point"},"properties":{"osm_id":"7028577062","tag":{"amenity":"waste_basket","waste":"trash"}},"type":"Feature"},
	{"geometry":{"coordinates":[-40.295622,-20.270853],"type":"Point"},"properties":{"osm_id":"7028577063","tag":{"amenity":"waste_basket","waste":"trash"}},"type":"Feature"},
	{"geometry":{"coordinates":[-40.296359,-20.269738],"type":"Point"},"properties":{"osm_id":"7028577064","tag":{"amenity":"waste_basket","waste":"trash"}},"type":"Feature"},
	{"geometry":{"coordinates":[-40.291959,-20.270046],"type":"Point"},"properties":{"osm_id":"7028577065","tag":{"amenity":"waste_basket","waste":"trash"}},"type":"Feature"},
	{"geometry":{"coordinates":[-40.295245,-20.270724],"type":"Point"},"properties":{"osm_id":"7028577066","tag":{"amenity":"waste_basket","waste":"trash"}},"type":"Feature"},
	{"geometry":{"coordinates":[-40.307669,-20.295803],"type":"Point"},"properties":{"osm_id":"7028577069","tag":{"amenity":"waste_basket","waste":"trash"}},"type":"Feature"},
	{"geometry":{"coordinates":[-40.307944,-20.295756],"type":"Point"},"properties":{"osm_id":"7028577070","tag":{"amenity":"waste_basket","waste":"trash"}},"type":"Feature"},
	{"geometry":{"coordinates":[-40.30792,-20.29545],"type":"Point"},"properties":{"osm_id":"7028577071","tag":{"amenity":"waste_basket","waste":"trash"}},"type":"Feature"},
	{"geometry":{"coordinates":[-40.299197,-20.265331],"type":"Point"},"properties":{"osm_id":"7028577072","tag":{"amenity":"waste_basket","waste":"trash"}},"type":"Feature"},
	{"geometry":{"coordinates":[-40.301423,-20.259353],"type":"Point"},"properties":{"osm_id":"7028577073","tag":{"amenity":"waste_basket","waste":"trash"}},"type":"Feature"},
	{"geometry":{"coordinates":[-40.301303,-20.260104],"type":"Point"},"properties":{"osm_id":"7028577074","tag":{"amenity":"waste_basket","waste":"trash"}},"type":"Feature"},
	{"geometry":{"coordinates":[-40.300811,-20.260029],"type":"Point"},"properties":{"osm_id":"7028577075","tag":{"amenity":"waste_basket","waste":"trash"}},"type":"Feature"},
	{"geometry":{"coordinates":[-40.297766,-20.259572],"type":"Point"},"properties":{"osm_id":"7028577076","tag":{"amenity":"waste_basket","waste":"trash"}},"type":"Feature"},
	{"geometry":{"coordinates":[-40.299286,-20.259827],"type":"Point"},"properties":{"osm_id":"7028577077","tag":{"amenity":"waste_basket","waste":"trash"}},"type":"Feature"},
	{"geometry":{"coordinates":[-40.301355,-20.259294],"type":"Point"},"properties":{"osm_id":"7028577078","tag":{"amenity":"waste_basket","waste":"trash"}},"type":"Feature"},
	{"geometry":{"coordinates":[-40.299928,-20.266313],"type":"Point"},"properties":{"osm_id":"7028577079","tag":{"amenity":"waste_basket","waste":"trash"}},"type":"Feature"},
	{"geometry":{"coordinates":[-40.314043,-20.288787],"type":"Point"},"properties":{"osm_id":"7028577087","tag":{"amenity":"waste_basket","waste":"trash"}},"type":"Feature"},
	{"geometry":{"coordinates":[-40.31423,-20.285137],"type":"Point"},"properties":{"osm_id":"7028577088","tag":{"amenity":"waste_basket","waste":"trash"}},"type":"Feature"},
	{"geometry":{"coordinates":[-40.314119,-20.285081],"type":"Point"},"properties":{"osm_id":"7028577089","tag":{"amenity":"waste_basket","waste":"trash"}},"type":"Feature"},
	{"geometry":{"coordinates":[-40.311644,-20.292244],"type":"Point"},"properties":{"osm_id":"7028577090","tag":{"amenity":"waste_basket","waste":"trash"}},"type":"Feature"},
	{"geometry":{"coordinates":[-40.310069,-20.290595],"type":"Point"},"properties":{"osm_id":"7028577091","tag":{"amenity":"waste_basket","waste":"trash"}},"type":"Feature"},
	{"geometry":{"coordinates":[-40.313754,-20.290464],"type":"Point"},"properties":{"osm_id":"7028577092","tag":{"amenity":"waste_basket","waste":"trash"}},"type":"Feature"},
	{"geometry":{"coordinates":[-40.313251,-20.291126],"type":"Point"},"properties":{"osm_id":"7028577093","tag":{"amenity":"waste_basket","waste":"trash"}},"type":"Feature"},
	{"geometry":{"coordinates":[-40.310063,-20.292439],"type":"Point"},"properties":{"osm_id":"7028577094","tag":{"amenity":"waste_basket","waste":"trash"}},"type":"Feature"},
	{"geometry":{"coordinates":[-40.313607,-20.286368],"type":"Point"},"properties":{"osm_id":"7028577095","tag":{"amenity":"waste_basket","waste":"trash"}},"type":"Feature"},
	{"geometry":{"coordinates":[-40.313516,-20.287004],"type":"Point"},"properties":{"osm_id":"7028577096","tag":{"amenity":"waste_basket","waste":"trash"}},"type":"Feature"},
	{"geometry":{"coordinates":[-40.314182,-20.288737],"type":"Point"},"properties":{"osm_id":"7028577097","tag":{"amenity":"waste_basket","waste":"trash"}},"type":"Feature"},
	{"geometry":{"coordinates":[-40.312132,-20.292074],"type":"Point"},"properties":{"osm_id":"7028577098","tag":{"amenity":"waste_basket","waste":"trash"}},"type":"Feature"},
	{"geometry":{"coordinates":[-40.313808,-20.29015],"type":"Point"},"properties":{"osm_id":"7028577099","tag":{"amenity":"waste_basket","waste":"trash"}},"type":"Feature"},
	{"geometry":{"coordinates":[-40.320267,-20.273775],"type":"Point"},"properties":{"osm_id":"7028577100","tag":{"amenity":"waste_basket","waste":"trash"}},"type":"Feature"},
	{"geometry":{"coordinates":[-40.320763,-20.271633],"type":"Point"},"properties":{"osm_id":"7028577101","tag":{"amenity":"waste_basket","waste":"trash"}},"type":"Feature"},
	{"geometry":{"coordinates":[-40.320101,-20.27413],"type":"Point"},"properties":{"osm_id":"7028577102","tag":{"amenity":"waste_basket","waste":"trash"}},"type":"Feature"},
	{"geometry":{"coordinates":[-40.328496,-20.278598],"type":"Point"},"properties":{"osm_id":"7028577103","tag":{"amenity":"waste_basket","waste":"trash"}},"type":"Feature"},
	{"geometry":{"coordinates":[-40.318082,-20.278732],"type":"Point"},"properties":{"osm_id":"7028577104","tag":{"amenity":"waste_basket","waste":"trash"}},"type":"Feature"},
	{"geometry":{"coordinates":[-40.317232,-20.279003],"type":"Point"},"properties":{"osm_id":"7028577105","tag":{"amenity":"waste_basket","waste":"trash"}},"type":"Feature"},
	{"geometry":{"coordinates":[-40.325526,-20.274754],"type":"Point"},"properties":{"osm_id":"7028577106","tag":{"amenity":"waste_basket","waste":"trash"}},"type":"Feature"},
	{"geometry":{"coordinates":[-40.325238,-20.276552],"type":"Point"},"properties":{"osm_id":"7028577107","tag":{"amenity":"waste_basket","waste":"trash"}},"type":"Feature"},
	{"geometry":{"coordinates":[-40.325542,-20.275797],"type":"Point"},"properties":{"osm_id":"7028577108","tag":{"amenity":"waste_basket","waste":"trash"}},"type":"Feature"},
	{"geometry":{"coordinates":[-40.324174,-20.273198],"type":"Point"},"properties":{"osm_id":"7028577109","tag":{"amenity":"waste_basket","waste":"trash"}},"type":"Feature"},
	{"geometry":{"coordinates":[-40.313775,-20.285946],"type":"Point"},"properties":{"osm_id":"7028577110","tag":{"amenity":"waste_basket","waste":"trash"}},"type":"Feature"},
	{"geometry":{"coordinates":[-40.324929,-20.274119],"type":"Point"},"properties":{"osm_id":"7028577111","tag":{"amenity":"waste_basket","waste":"trash"}},"type":"Feature"},
	{"geometry":{"coordinates":[-40.314199,-20.287872],"type":"Point"},"properties":{"osm_id":"7028577112","tag":{"amenity":"waste_basket","waste":"trash"}},"type":"Feature"},
	{"geometry":{"coordinates":[-40.32245,-20.273006],"type":"Point"},"properties":{"osm_id":"7028577113","tag":{"amenity":"waste_basket","waste":"trash"}},"type":"Feature"},
	{"geometry":{"coordinates":[-40.328782,-20.279047],"type":"Point"},"properties":{"osm_id":"7028577115","tag":{"amenity":"waste_basket","waste":"trash"}},"type":"Feature"},
	{"geometry":{"coordinates":[-40.325297,-20.274638],"type":"Point"},"properties":{"osm_id":"7028577117","tag":{"amenity":"waste_basket","waste":"trash"}},"type":"Feature"},
	{"geometry":{"coordinates":[-40.322749,-20.302467],"type":"Point"},"properties":{"osm_id":"7028577121","tag":{"amenity":"waste_basket","waste":"trash"}},"type":"Feature"},
	{"geometry":{"coordinates":[-40.322356,-20.301048],"type":"Point"},"properties":{"osm_id":"7028577122","tag":{"amenity":"waste_basket","waste":"trash"}},"type":"Feature"},
	{"geometry":{"coordinates":[-40.317211,-20.297105],"type":"Point"},"properties":{"osm_id":"7028577123","tag":{"amenity":"waste_basket","waste":"trash"}},"type":"Feature"},
	{"geometry":{"coordinates":[-40.317101,-20.297715],"type":"Point"},"properties":{"osm_id":"7028577124","tag":{"amenity":"waste_basket","waste":"trash"}},"type":"Feature"},
	{"geometry":{"coordinates":[-40.317195,-20.297491],"type":"Point"},"properties":{"osm_id":"7028577125","tag":{"amenity":"waste_basket","waste":"trash"}},"type":"Feature"},
	{"geometry":{"coordinates":[-40.322588,-20.301483],"type":"Point"},"properties":{"osm_id":"7028577126","tag":{"amenity":"waste_basket","waste":"trash"}},"type":"Feature"},
	{"geometry":{"coordinates":[-40.315152,-20.296424],"type":"Point"},"properties":{"osm_id":"7028577129","tag":{"amenity":"waste_basket","waste":"trash"}},"type":"Feature"},
	{"geometry":{"coordinates":[-40.29951,-20.270627],"type":"Point"},"properties":{"osm_id":"7028577142","tag":{"amenity":"waste_basket","waste":"trash"}},"type":"Feature"},
	{"geometry":{"coordinates":[-40.299524,-20.271065],"type":"Point"},"properties":{"osm_id":"7028577143","tag":{"amenity":"waste_basket","waste":"trash"}},"type":"Feature"},
	{"geometry":{"coordinates":[-40.315071,-20.303356],"type":"Point"},"properties":{"osm_id":"7028577144","tag":{"amenity":"waste_basket","waste":"trash"}},"type":"Feature"},
	{"geometry":{"coordinates":[-40.299336,-20.27155],"type":"Point"},"properties":{"osm_id":"7028577145","tag":{"amenity":"waste_basket","waste":"trash"}},"type":"Feature"},
	{"geometry":{"coordinates":[-40.315355,-20.302856],"type":"Point"},"properties":{"osm_id":"7028577146","tag":{"amenity":"waste_basket","waste":"trash"}},"type":"Feature"},
	{"geometry":{"coordinates":[-40.299719,-20.271267],"type":"Point"},"properties":{"osm_id":"7028577147","tag":{"amenity":"waste_basket","waste":"trash"}},"type":"Feature"},
	{"geometry":{"coordinates":[-40.316743,-20.300939],"type":"Point"},"properties":{"osm_id":"7028577148","tag":{"amenity":"waste_basket","waste":"trash"}},"type":"Feature"},
	{"geometry":{"coordinates":[-40.300961,-20.268966],"type":"Point"},"properties":{"osm_id":"7028577153","tag":{"amenity":"waste_basket","waste":"trash"}},"type":"Feature"},
	{"geometry":{"coordinates":[-40.301071,-20.269045],"type":"Point"},"properties":{"osm_id":"7028577154","tag":{"amenity":"waste_basket","waste":"trash"}},"type":"Feature"},
	{"geometry":{"coordinates":[-40.315331,-20.302521],"type":"Point"},"properties":{"osm_id":"7028577156","tag":{"amenity":"waste_basket","waste":"trash"}},"type":"Feature"},
	{"geometry":{"coordinates":[-40.315784,-20.302911],"type":"Point"},"properties":{"osm_id":"7028577158","tag":{"amenity":"waste_basket","waste":"trash"}},"type":"Feature"},
	{"geometry":{"coordinates":[-40.301494,-20.270316],"type":"Point"},"properties":{"osm_id":"7028577159","tag":{"amenity":"waste_basket","waste":"trash"}},"type":"Feature"},
	{"geometry":{"coordinates":[-40.327744,-20.278479],"type":"Point"},"properties":{"osm_id":"7028577161","tag":{"amenity":"waste_basket","waste":"trash"}},"type":"Feature"},
	{"geometry":{"coordinates":[-40.328818,-20.279122],"type":"Point"},"properties":{"osm_id":"7028577166","tag":{"amenity":"waste_basket","waste":"trash"}},"type":"Feature"},
	{"geometry":{"coordinates":[-40.316283,-20.301495],"type":"Point"},"properties":{"osm_id":"7028577167","tag":{"amenity":"waste_basket","waste":"trash"}},"type":"Feature"},
	{"geometry":{"coordinates":[-40.316703,-20.300752],"type":"Point"},"properties":{"osm_id":"7028577168","tag":{"amenity":"waste_basket","waste":"trash"}},"type":"Feature"},
	{"geometry":{"coordinates":[-40.317665,-20.302236],"type":"Point"},"properties":{"osm_id":"7028577169","tag":{"amenity":"waste_basket","waste":"trash"}},"type":"Feature"},
	{"geometry":{"coordinates":[-40.317266,-20.301883],"type":"Point"},"properties":{"osm_id":"7028577170","tag":{"amenity":"waste_basket","waste":"trash"}},"type":"Feature"},
	{"geometry":{"coordinates":[-40.328372,-20.278401],"type":"Point"},"properties":{"osm_id":"7028577171","tag":{"amenity":"waste_basket","waste":"trash"}},"type":"Feature"},
	{"geometry":{"coordinates":[-40.327397,-20.278324],"type":"Point"},"properties":{"osm_id":"7028577172","tag":{"amenity":"waste_basket","waste":"trash"}},"type":"Feature"},
	{"geometry":{"coordinates":[-40.325758,-20.277753],"type":"Point"},"properties":{"osm_id":"7028577174","tag":{"amenity":"waste_basket","waste":"trash"}},"type":"Feature"},
	{"geometry":{"coordinates":[-40.326923,-20.278123],"type":"Point"},"properties":{"osm_id":"7028577175","tag":{"amenity":"waste_basket","waste":"trash"}},"type":"Feature"},
	{"geometry":{"coordinates":[-40.325149,-20.276369],"type":"Point"},"properties":{"osm_id":"7028577178","tag":{"amenity":"waste_basket","waste":"trash"}},"type":"Feature"},
	{"geometry":{"coordinates":[-40.32244,-20.301149],"type":"Point"},"properties":{"osm_id":"7028577179","tag":{"amenity":"waste_basket","waste":"trash"}},"type":"Feature"},
	{"geometry":{"coordinates":[-40.321595,-20.300501],"type":"Point"},"properties":{"osm_id":"7028577180","tag":{"amenity":"waste_basket","waste":"trash"}},"type":"Feature"},
	{"geometry":{"coordinates":[-40.320863,-20.299618],"type":"Point"},"properties":{"osm_id":"7028577181","tag":{"amenity":"waste_basket","waste":"trash"}},"type":"Feature"},
	{"geometry":{"coordinates":[-40.321013,-20.299747],"type":"Point"},"properties":{"osm_id":"7028577182","tag":{"amenity":"waste_basket","waste":"trash"}},"type":"Feature"},
	{"geometry":{"coordinates":[-40.319805,-20.298089],"type":"Point"},"properties":{"osm_id":"7028577183","tag":{"amenity":"waste_basket","waste":"trash"}},"type":"Feature"},
	{"geometry":{"coordinates":[-40.318688,-20.297296],"type":"Point"},"properties":{"osm_id":"7028577184","tag":{"amenity":"waste_basket","waste":"trash"}},"type":"Feature"},
	{"geometry":{"coordinates":[-40.316159,-20.29685],"type":"Point"},"properties":{"osm_id":"7028577185","tag":{"amenity":"waste_basket","waste":"trash"}},"type":"Feature"},
	{"geometry":{"coordinates":[-40.317647,-20.296923],"type":"Point"},"properties":{"osm_id":"7028577186","tag":{"amenity":"waste_basket","waste":"trash"}},"type":"Feature"},
	{"geometry":{"coordinates":[-40.314788,-20.296198],"type":"Point"},"properties":{"osm_id":"7028577196","tag":{"amenity":"waste_basket","waste":"trash"}},"type":"Feature"},
	{"geometry":{"coordinates":[-40.314423,-20.296041],"type":"Point"},"properties":{"osm_id":"7028577197","tag":{"amenity":"waste_basket","waste":"trash"}},"type":"Feature"},
	{"geometry":{"coordinates":[-40.315454,-20.296588],"type":"Point"},"properties":{"osm_id":"7028577198","tag":{"amenity":"waste_basket","waste":"trash"}},"type":"Feature"},
	{"geometry":{"coordinates":[-40.31268,-20.295192],"type":"Point"},"properties":{"osm_id":"7028577199","tag":{"amenity":"waste_basket","waste":"trash"}},"type":"Feature"},
	{"geometry":{"coordinates":[-40.311192,-20.294382],"type":"Point"},"properties":{"osm_id":"7028577200","tag":{"amenity":"waste_basket","waste":"trash"}},"type":"Feature"},
	{"geometry":{"coordinates":[-40.31102,-20.294466],"type":"Point"},"properties":{"osm_id":"7028577201","tag":{"amenity":"waste_basket","waste":"trash"}},"type":"Feature"},
	{"geometry":{"coordinates":[-40.31008,-20.293626],"type":"Point"},"properties":{"osm_id":"7028577202","tag":{"amenity":"waste_basket","waste":"trash"}},"type":"Feature"},
	{"geometry":{"coordinates":[-40.309258,-20.293034],"type":"Point"},"properties":{"osm_id":"7028577203","tag":{"amenity":"waste_basket","waste":"trash"}},"type":"Feature"},
	{"geometry":{"coordinates":[-40.308893,-20.292691],"type":"Point"},"properties":{"osm_id":"7028577204","tag":{"amenity":"waste_basket","waste":"trash"}},"type":"Feature"},
	{"geometry":{"coordinates":[-40.307804,-20.292417],"type":"Point"},"properties":{"osm_id":"7028577205","tag":{"amenity":"waste_basket","waste":"trash"}},"type":"Feature"},
	{"geometry":{"coordinates":[-40.307134,-20.292272],"type":"Point"},"properties":{"osm_id":"7028577206","tag":{"amenity":"waste_basket","waste":"trash"}},"type":"Feature"},
	{"geometry":{"coordinates":[-40.303607,-20.291318],"type":"Point"},"properties":{"osm_id":"7028577207","tag":{"amenity":"waste_basket","waste":"trash"}},"type":"Feature"},
	{"geometry":{"coordinates":[-40.305932,-20.291916],"type":"Point"},"properties":{"osm_id":"7028577208","tag":{"amenity":"waste_basket","waste":"trash"}},"type":"Feature"},
	{"geometry":{"coordinates":[-40.316789,-20.2971],"type":"Point"},"properties":{"osm_id":"7028577209","tag":{"amenity":"waste_basket","waste":"trash"}},"type":"Feature"},
	{"geometry":{"coordinates":[-40.315761,-20.296627],"type":"Point"},"properties":{"osm_id":"7028577210","tag":{"amenity":"waste_basket","waste":"trash"}},"type":"Feature"},
	{"geometry":{"coordinates":[-40.31486,-20.296268],"type":"Point"},"properties":{"osm_id":"7028577211","tag":{"amenity":"waste_basket","waste":"trash"}},"type":"Feature"},
	{"geometry":{"coordinates":[-40.313454,-20.295244],"type":"Point"},"properties":{"osm_id":"7028577212","tag":{"amenity":"waste_basket","waste":"trash"}},"type":"Feature"},
	{"geometry":{"coordinates":[-40.312377,-20.294848],"type":"Point"},"properties":{"osm_id":"7028577213","tag":{"amenity":"waste_basket","waste":"trash"}},"type":"Feature"},
	{"geometry":{"coordinates":[-40.309929,-20.293419],"type":"Point"},"properties":{"osm_id":"7028577214","tag":{"amenity":"waste_basket","waste":"trash"}},"type":"Feature"},
	{"geometry":{"coordinates":[-40.30972,-20.293263],"type":"Point"},"properties":{"osm_id":"7028577215","tag":{"amenity":"waste_basket","waste":"trash"}},"type":"Feature"},
	{"geometry":{"coordinates":[-40.309328,-20.292895],"type":"Point"},"properties":{"osm_id":"7028577216","tag":{"amenity":"waste_basket","waste":"trash"}},"type":"Feature"},
	{"geometry":{"coordinates":[-40.306935,-20.29221],"type":"Point"},"properties":{"osm_id":"7028577217","tag":{"amenity":"waste_basket","waste":"trash"}},"type":"Feature"},
	{"geometry":{"coordinates":[-40.316839,-20.297225],"type":"Point"},"properties":{"osm_id":"7028577218","tag":{"amenity":"waste_basket","waste":"trash"}},"type":"Feature"},
	{"geometry":{"coordinates":[-40.317227,-20.297205],"type":"Point"},"properties":{"osm_id":"7028577219","tag":{"amenity":"waste_basket","waste":"trash"}},"type":"Feature"},
	{"geometry":{"coordinates":[-40.315167,-20.298555],"type":"Point"},"properties":{"osm_id":"7028577220","tag":{"amenity":"waste_basket","waste":"trash"}},"type":"Feature"},
	{"geometry":{"coordinates":[-40.292111,-20.303344],"type":"Point"},"properties":{"osm_id":"7028577228","tag":{"amenity":"waste_basket","waste":"trash"}},"type":"Feature"},
	{"geometry":{"coordinates":[-40.290222,-20.290872],"type":"Point"},"properties":{"osm_id":"7028577232","tag":{"amenity":"waste_basket","waste":"trash"}},"type":"Feature"},
	{"geometry":{"coordinates":[-40.289737,-20.283482],"type":"Point"},"properties":{"osm_id":"7028577233","tag":{"amenity":"waste_basket","waste":"trash"}},"type":"Feature"},
	{"geometry":{"coordinates":[-40.29033,-20.290403],"type":"Point"},"properties":{"osm_id":"7028577234","tag":{"amenity":"waste_basket","waste":"trash"}},"type":"Feature"},
	{"geometry":{"coordinates":[-40.290579,-20.285078],"type":"Point"},"properties":{"osm_id":"7028577235","tag":{"amenity":"waste_basket","waste":"trash"}},"type":"Feature"},
	{"geometry":{"coordinates":[-40.287324,-20.292358],"type":"Point"},"properties":{"osm_id":"7028577236","tag":{"amenity":"waste_basket","waste":"trash"}},"type":"Feature"},
	{"geometry":{"coordinates":[-40.291137,-20.29528],"type":"Point"},"properties":{"osm_id":"7028577237","tag":{"amenity":"waste_basket","waste":"trash"}},"type":"Feature"},
	{"geometry":{"coordinates":[-40.292314,-20.296926],"type":"Point"},"properties":{"osm_id":"7028577238","tag":{"amenity":"waste_basket","waste":"trash"}},"type":"Feature"},
	{"geometry":{"coordinates":[-40.295477,-20.300775],"type":"Point"},"properties":{"osm_id":"7028577242","tag":{"amenity":"waste_basket","waste":"trash"}},"type":"Feature"},
	{"geometry":{"coordinates":[-40.295359,-20.301055],"type":"Point"},"properties":{"osm_id":"7028577243","tag":{"amenity":"waste_basket","waste":"trash"}},"type":"Feature"},
	{"geometry":{"coordinates":[-40.294611,-20.299796],"type":"Point"},"properties":{"osm_id":"7028577244","tag":{"amenity":"waste_basket","waste":"trash"}},"type":"Feature"},
	{"geometry":{"coordinates":[-40.294434,-20.298419],"type":"Point"},"properties":{"osm_id":"7028577245","tag":{"amenity":"waste_basket","waste":"trash"}},"type":"Feature"},
	{"geometry":{"coordinates":[-40.29858,-20.301864],"type":"Point"},"properties":{"osm_id":"7028577246","tag":{"amenity":"waste_basket","waste":"trash"}},"type":"Feature"},
	{"geometry":{"coordinates":[-40.298858,-20.3003],"type":"Point"},"properties":{"osm_id":"7028577247","tag":{"amenity":"waste_basket","waste":"trash"}},"type":"Feature"},
	{"geometry":{"coordinates":[-40.290117,-20.291344],"type":"Point"},"properties":{"osm_id":"7028577248","tag":{"amenity":"waste_basket","waste":"trash"}},"type":"Feature"},
	{"geometry":{"coordinates":[-40.2897,-20.292175],"type":"Point"},"properties":{"osm_id":"7028577249","tag":{"amenity":"waste_basket","waste":"trash"}},"type":"Feature"},
	{"geometry":{"coordinates":[-40.290014,-20.291484],"type":"Point"},"properties":{"osm_id":"7028577250","tag":{"amenity":"waste_basket","waste":"trash"}},"type":"Feature"},
	{"geometry":{"coordinates":[-40.289589,-20.292363],"type":"Point"},"properties":{"osm_id":"7028577251","tag":{"amenity":"waste_basket","waste":"trash"}},"type":"Feature"},
	{"geometry":{"coordinates":[-40.28623,-20.292057],"type":"Point"},"properties":{"osm_id":"7028577252","tag":{"amenity":"waste_basket","waste":"trash"}},"type":"Feature"},
	{"geometry":{"coordinates":[-40.291152,-20.28729],"type":"Point"},"properties":{"osm_id":"7028577253","tag":{"amenity":"waste_basket","waste":"trash"}},"type":"Feature"},
	{"geometry":{"coordinates":[-40.291087,-20.288466],"type":"Point"},"properties":{"osm_id":"7028577254","tag":{"amenity":"waste_basket","waste":"trash"}},"type":"Feature"},
	{"geometry":{"coordinates":[-40.288905,-20.293087],"type":"Point"},"properties":{"osm_id":"7028577255","tag":{"amenity":"waste_basket","waste":"trash"}},"type":"Feature"},
	{"geometry":{"coordinates":[-40.288025,-20.29266],"type":"Point"},"properties":{"osm_id":"7028577256","tag":{"amenity":"waste_basket","waste":"trash"}},"type":"Feature"},
	{"geometry":{"coordinates":[-40.291175,-20.287838],"type":"Point"},"properties":{"osm_id":"7028577257","tag":{"amenity":"waste_basket","waste":"trash"}},"type":"Feature"},
	{"geometry":{"coordinates":[-40.290714,-20.290024],"type":"Point"},"properties":{"osm_id":"7028577258","tag":{"amenity":"waste_basket","waste":"trash"}},"type":"Feature"},
	{"geometry":{"coordinates":[-40.290299,-20.291637],"type":"Point"},"properties":{"osm_id":"7028577259","tag":{"amenity":"waste_basket","waste":"trash"}},"type":"Feature"},
	{"geometry":{"coordinates":[-40.289941,-20.291678],"type":"Point"},"properties":{"osm_id":"7028577260","tag":{"amenity":"waste_basket","waste":"trash"}},"type":"Feature"},
	{"geometry":{"coordinates":[-40.286969,-20.292199],"type":"Point"},"properties":{"osm_id":"7028577261","tag":{"amenity":"waste_basket","waste":"trash"}},"type":"Feature"},
	{"geometry":{"coordinates":[-40.29024,-20.28439],"type":"Point"},"properties":{"osm_id":"7028577262","tag":{"amenity":"waste_basket","waste":"trash"}},"type":"Feature"},
	{"geometry":{"coordinates":[-40.269791,-20.267159],"type":"Point"},"properties":{"osm_id":"7028577264","tag":{"amenity":"waste_basket","waste":"trash"}},"type":"Feature"},
	{"geometry":{"coordinates":[-40.291068,-20.286363],"type":"Point"},"properties":{"osm_id":"7028577265","tag":{"amenity":"waste_basket","waste":"trash"}},"type":"Feature"},
	{"geometry":{"coordinates":[-40.292108,-20.302825],"type":"Point"},"properties":{"osm_id":"7028577266","tag":{"amenity":"waste_basket","waste":"trash"}},"type":"Feature"},
	{"geometry":{"coordinates":[-40.292102,-20.303146],"type":"Point"},"properties":{"osm_id":"7028577267","tag":{"amenity":"waste_basket","waste":"trash"}},"type":"Feature"},
	{"geometry":{"coordinates":[-40.290976,-20.285691],"type":"Point"},"properties":{"osm_id":"7028577268","tag":{"amenity":"waste_basket","waste":"trash"}},"type":"Feature"},
	{"geometry":{"coordinates":[-40.292454,-20.299528],"type":"Point"},"properties":{"osm_id":"7028577269","tag":{"amenity":"waste_basket","waste":"trash"}},"type":"Feature"},
	{"geometry":{"coordinates":[-40.29235,-20.298984],"type":"Point"},"properties":{"osm_id":"7028577270","tag":{"amenity":"waste_basket","waste":"trash"}},"type":"Feature"},
	{"geometry":{"coordinates":[-40.292228,-20.298468],"type":"Point"},"properties":{"osm_id":"7028577271","tag":{"amenity":"waste_basket","waste":"trash"}},"type":"Feature"},
	{"geometry":{"coordinates":[-40.332303,-20.28446],"type":"Point"},"properties":{"osm_id":"7028577336","tag":{"amenity":"waste_basket","waste":"trash"}},"type":"Feature"},
	{"geometry":{"coordinates":[-40.332683,-20.283442],"type":"Point"},"properties":{"osm_id":"7028577337","tag":{"amenity":"waste_basket","waste":"trash"}},"type":"Feature"},
	{"geometry":{"coordinates":[-40.330085,-20.284123],"type":"Point"},"properties":{"osm_id":"7028577338","tag":{"amenity":"waste_basket","waste":"trash"}},"type":"Feature"},
	{"geometry":{"coordinates":[-40.332155,-20.284376],"type":"Point"},"properties":{"osm_id":"7028577339","tag":{"amenity":"waste_basket","waste":"trash"}},"type":"Feature"},
	{"geometry":{"coordinates":[-40.333996,-20.281881],"type":"Point"},"properties":{"osm_id":"7028577340","tag":{"amenity":"waste_basket","waste":"trash"}},"type":"Feature"},
	{"geometry":{"coordinates":[-40.335619,-20.282015],"type":"Point"},"properties":{"osm_id":"7028577341","tag":{"amenity":"waste_basket","waste":"trash"}},"type":"Feature"},
	{"geometry":{"coordinates":[-40.335435,-20.283173],"type":"Point"},"properties":{"osm_id":"7028577342","tag":{"amenity":"waste_basket","waste":"trash"}},"type":"Feature"},
	{"geometry":{"coordinates":[-40.335306,-20.282001],"type":"Point"},"properties":{"osm_id":"7028577343","tag":{"amenity":"waste_basket","waste":"trash"}},"type":"Feature"},
	{"geometry":{"coordinates":[-40.335579,-20.285185],"type":"Point"},"properties":{"osm_id":"7028577344","tag":{"amenity":"waste_basket","waste":"trash"}},"type":"Feature"},
	{"geometry":{"coordinates":[-40.291581,-20.275514],"type":"Point"},"properties":{"osm_id":"7028577345","tag":{"amenity":"waste_basket","waste":"trash"}},"type":"Feature"},
	{"geometry":{"coordinates":[-40.293019,-20.274042],"type":"Point"},"properties":{"osm_id":"7028577346","tag":{"amenity":"waste_basket","waste":"trash"}},"type":"Feature"},
	{"geometry":{"coordinates":[-40.292318,-20.274768],"type":"Point"},"properties":{"osm_id":"7028577347","tag":{"amenity":"waste_basket","waste":"trash"}},"type":"Feature"},
	{"geometry":{"coordinates":[-40.291014,-20.277508],"type":"Point"},"properties":{"osm_id":"7028577348","tag":{"amenity":"waste_basket","waste":"trash"}},"type":"Feature"},
	{"geometry":{"coordinates":[-40.291689,-20.27685],"type":"Point"},"properties":{"osm_id":"7028577349","tag":{"amenity":"waste_basket","waste":"trash"}},"type":"Feature"},
	{"geometry":{"coordinates":[-40.291392,-20.277872],"type":"Point"},"properties":{"osm_id":"7028577350","tag":{"amenity":"waste_basket","waste":"trash"}},"type":"Feature"},
	{"geometry":{"coordinates":[-40.291546,-20.277206],"type":"Point"},"properties":{"osm_id":"7028577351","tag":{"amenity":"waste_basket","waste":"trash"}},"type":"Feature"},
	{"geometry":{"coordinates":[-40.292054,-20.277123],"type":"Point"},"properties":{"osm_id":"7028577352","tag":{"amenity":"waste_basket","waste":"trash"}},"type":"Feature"},
	{"geometry":{"coordinates":[-40.28801,-20.277494],"type":"Point"},"properties":{"osm_id":"7028577353","tag":{"amenity":"waste_basket","waste":"trash"}},"type":"Feature"},
	{"geometry":{"coordinates":[-40.288287,-20.277901],"type":"Point"},"properties":{"osm_id":"7028577354","tag":{"amenity":"waste_basket","waste":"trash"}},"type":"Feature"},
	{"geometry":{"coordinates":[-40.289753,-20.279049],"type":"Point"},"properties":{"osm_id":"7028577355","tag":{"amenity":"waste_basket","waste":"trash"}},"type":"Feature"},
	{"geometry":{"coordinates":[-40.288057,-20.277627],"type":"Point"},"properties":{"osm_id":"7028577356","tag":{"amenity":"waste_basket","waste":"trash"}},"type":"Feature"},
	{"geometry":{"coordinates":[-40.287348,-20.278357],"type":"Point"},"properties":{"osm_id":"7028577357","tag":{"amenity":"waste_basket","waste":"trash"}},"type":"Feature"},
	{"geometry":{"coordinates":[-40.290564,-20.278401],"type":"Point"},"properties":{"osm_id":"7028577358","tag":{"amenity":"waste_basket","waste":"trash"}},"type":"Feature"},
	{"geometry":{"coordinates":[-40.290422,-20.278547],"type":"Point"},"properties":{"osm_id":"7028577359","tag":{"amenity":"waste_basket","waste":"trash"}},"type":"Feature"},
	{"geometry":{"coordinates":[-40.289782,-20.279229],"type":"Point"},"properties":{"osm_id":"7028577360","tag":{"amenity":"waste_basket","waste":"trash"}},"type":"Feature"},
	{"geometry":{"coordinates":[-40.288665,-20.280411],"type":"Point"},"properties":{"osm_id":"7028577361","tag":{"amenity":"waste_basket","waste":"trash"}},"type":"Feature"},
	{"geometry":{"coordinates":[-40.288868,-20.280001],"type":"Point"},"properties":{"osm_id":"7028577362","tag":{"amenity":"waste_basket","waste":"trash"}},"type":"Feature"},
	{"geometry":{"coordinates":[-40.289036,-20.279836],"type":"Point"},"properties":{"osm_id":"7028577363","tag":{"amenity":"waste_basket","waste":"trash"}},"type":"Feature"},
	{"geometry":{"coordinates":[-40.289383,-20.279462],"type":"Point"},"properties":{"osm_id":"7028577364","tag":{"amenity":"waste_basket","waste":"trash"}},"type":"Feature"},
	{"geometry":{"coordinates":[-40.289622,-20.279228],"type":"Point"},"properties":{"osm_id":"7028577365","tag":{"amenity":"waste_basket","waste":"trash"}},"type":"Feature"},
	{"geometry":{"coordinates":[-40.336821,-20.287515],"type":"Point"},"properties":{"osm_id":"7028577366","tag":{"amenity":"waste_basket","waste":"trash"}},"type":"Feature"},
	{"geometry":{"coordinates":[-40.336341,-20.287055],"type":"Point"},"properties":{"osm_id":"7028577371","tag":{"amenity":"waste_basket","waste":"trash"}},"type":"Feature"},
	{"geometry":{"coordinates":[-40.341649,-20.292169],"type":"Point"},"properties":{"osm_id":"7028577372","tag":{"amenity":"waste_basket","waste":"trash"}},"type":"Feature"},
	{"geometry":{"coordinates":[-40.335059,-20.284211],"type":"Point"},"properties":{"osm_id":"7028577374","tag":{"amenity":"waste_basket","waste":"trash"}},"type":"Feature"},
	{"geometry":{"coordinates":[-40.335456,-20.286289],"type":"Point"},"properties":{"osm_id":"7028577375","tag":{"amenity":"waste_basket","waste":"trash"}},"type":"Feature"},
	{"geometry":{"coordinates":[-40.336172,-20.286901],"type":"Point"},"properties":{"osm_id":"7028577376","tag":{"amenity":"waste_basket","waste":"trash"}},"type":"Feature"},
	{"geometry":{"coordinates":[-40.341476,-20.292195],"type":"Point"},"properties":{"osm_id":"7028577377","tag":{"amenity":"waste_basket","waste":"trash"}},"type":"Feature"},
	{"geometry":{"coordinates":[-40.341167,-20.295628],"type":"Point"},"properties":{"osm_id":"7028577378","tag":{"amenity":"waste_basket","waste":"trash"}},"type":"Feature"},
	{"geometry":{"coordinates":[-40.335314,-20.283787],"type":"Point"},"properties":{"osm_id":"7028577379","tag":{"amenity":"waste_basket","waste":"trash"}},"type":"Feature"},
	{"geometry":{"coordinates":[-40.337199,-20.288543],"type":"Point"},"properties":{"osm_id":"7028577380","tag":{"amenity":"waste_basket","waste":"trash"}},"type":"Feature"},
	{"geometry":{"coordinates":[-40.32675,-20.278184],"type":"Point"},"properties":{"osm_id":"7028577381","tag":{"amenity":"waste_basket","waste":"trash"}},"type":"Feature"},
	{"geometry":{"coordinates":[-40.329169,-20.280026],"type":"Point"},"properties":{"osm_id":"7028577382","tag":{"amenity":"waste_basket","waste":"trash"}},"type":"Feature"},
	{"geometry":{"coordinates":[-40.329032,-20.282121],"type":"Point"},"properties":{"osm_id":"7028577383","tag":{"amenity":"waste_basket","waste":"trash"}},"type":"Feature"},
	{"geometry":{"coordinates":[-40.329059,-20.281949],"type":"Point"},"properties":{"osm_id":"7028577384","tag":{"amenity":"waste_basket","waste":"trash"}},"type":"Feature"},
	{"geometry":{"coordinates":[-40.331772,-20.284685],"type":"Point"},"properties":{"osm_id":"7028577385","tag":{"amenity":"waste_basket","waste":"trash"}},"type":"Feature"},
	{"geometry":{"coordinates":[-40.329127,-20.282318],"type":"Point"},"properties":{"osm_id":"7028577386","tag":{"amenity":"waste_basket","waste":"trash"}},"type":"Feature"},
	{"geometry":{"coordinates":[-40.330708,-20.284494],"type":"Point"},"properties":{"osm_id":"7028577387","tag":{"amenity":"waste_basket","waste":"trash"}},"type":"Feature"},
	{"geometry":{"coordinates":[-40.329071,-20.281451],"type":"Point"},"properties":{"osm_id":"7028577388","tag":{"amenity":"waste_basket","waste":"trash"}},"type":"Feature"},
	{"geometry":{"coordinates":[-40.315659,-20.300556],"type":"Point"},"properties":{"osm_id":"7028577419","tag":{"amenity":"waste_basket","waste":"trash"}},"type":"Feature"},
	{"geometry":{"coordinates":[-40.316019,-20.299622],"type":"Point"},"properties":{"osm_id":"7028577421","tag":{"amenity":"waste_basket","waste":"trash"}},"type":"Feature"},
	{"geometry":{"coordinates":[-40.314837,-20.302247],"type":"Point"},"properties":{"osm_id":"7028577422","tag":{"amenity":"waste_basket","waste":"trash"}},"type":"Feature"},
	{"geometry":{"coordinates":[-40.314857,-20.302443],"type":"Point"},"properties":{"osm_id":"7028577423","tag":{"amenity":"waste_basket","waste":"trash"}},"type":"Feature"},
	{"geometry":{"coordinates":[-40.323863,-20.298576],"type":"Point"},"properties":{"osm_id":"7028577424","tag":{"amenity":"waste_basket","waste":"trash"}},"type":"Feature"},
	{"geometry":{"coordinates":[-40.316849,-20.297434],"type":"Point"},"properties":{"osm_id":"7028577425","tag":{"amenity":"waste_basket","waste":"trash"}},"type":"Feature"},
	{"geometry":{"coordinates":[-40.315495,-20.300818],"type":"Point"},"properties":{"osm_id":"7028577426","tag":{"amenity":"waste_basket","waste":"trash"}},"type":"Feature"},
	{"geometry":{"coordinates":[-40.300986,-20.286138],"type":"Point"},"properties":{"osm_id":"7028577434","tag":{"amenity":"waste_basket","waste":"trash"}},"type":"Feature"},
	{"geometry":{"coordinates":[-40.300906,-20.286251],"type":"Point"},"properties":{"osm_id":"7028577436","tag":{"amenity":"waste_basket","waste":"trash"}},"type":"Feature"},
	{"geometry":{"coordinates":[-40.301012,-20.286014],"type":"Point"},"properties":{"osm_id":"7028577437","tag":{"amenity":"waste_basket","waste":"trash"}},"type":"Feature"},
	{"geometry":{"coordinates":[-40.299588,-20.286219],"type":"Point"},"properties":{"osm_id":"7028577438","tag":{"amenity":"waste_basket","waste":"trash"}},"type":"Feature"},
	{"geometry":{"coordinates":[-40.299139,-20.286008],"type":"Point"},"properties":{"osm_id":"7028577439","tag":{"amenity":"waste_basket","waste":"trash"}},"type":"Feature"},
	{"geometry":{"coordinates":[-40.294457,-20.282986],"type":"Point"},"properties":{"osm_id":"7028577444","tag":{"amenity":"waste_basket","waste":"trash"}},"type":"Feature"},
	{"geometry":{"coordinates":[-40.294692,-20.28467],"type":"Point"},"properties":{"osm_id":"7028577446","tag":{"amenity":"waste_basket","waste":"trash"}},"type":"Feature"},
	{"geometry":{"coordinates":[-40.298865,-20.281867],"type":"Point"},"properties":{"osm_id":"7028577447","tag":{"amenity":"waste_basket","waste":"trash"}},"type":"Feature"},
	{"geometry":{"coordinates":[-40.298562,-20.281789],"type":"Point"},"properties":{"osm_id":"7028577448","tag":{"amenity":"waste_basket","waste":"trash"}},"type":"Feature"},
	{"geometry":{"coordinates":[-40.29887,-20.282086],"type":"Point"},"properties":{"osm_id":"7028577449","tag":{"amenity":"waste_basket","waste":"trash"}},"type":"Feature"},
	{"geometry":{"coordinates":[-40.294367,-20.282516],"type":"Point"},"properties":{"osm_id":"7028577450","tag":{"amenity":"waste_basket","waste":"trash"}},"type":"Feature"},
	{"geometry":{"coordinates":[-40.293882,-20.282147],"type":"Point"},"properties":{"osm_id":"7028577451","tag":{"amenity":"waste_basket","waste":"trash"}},"type":"Feature"},
	{"geometry":{"coordinates":[-40.293798,-20.282655],"type":"Point"},"properties":{"osm_id":"7028577452","tag":{"amenity":"waste_basket","waste":"trash"}},"type":"Feature"},
	{"geometry":{"coordinates":[-40.294272,-20.282436],"type":"Point"},"properties":{"osm_id":"7028577453","tag":{"amenity":"waste_basket","waste":"trash"}},"type":"Feature"},
	{"geometry":{"coordinates":[-40.31575,-20.300276],"type":"Point"},"properties":{"osm_id":"7028577455","tag":{"amenity":"waste_basket","waste":"trash"}},"type":"Feature"},
	{"geometry":{"coordinates":[-40.298527,-20.281894],"type":"Point"},"properties":{"osm_id":"7028577458","tag":{"amenity":"waste_basket","waste":"trash"}},"type":"Feature"},
	{"geometry":{"coordinates":[-40.293954,-20.282629],"type":"Point"},"properties":{"osm_id":"7028577459","tag":{"amenity":"waste_basket","waste":"trash"}},"type":"Feature"},
	{"geometry":{"coordinates":[-40.298919,-20.281649],"type":"Point"},"properties":{"osm_id":"7028577462","tag":{"amenity":"waste_basket","waste":"trash"}},"type":"Feature"},
	{"geometry":{"coordinates":[-40.294116,-20.282248],"type":"Point"},"properties":{"osm_id":"7028577463","tag":{"amenity":"waste_basket","waste":"trash"}},"type":"Feature"},
	{"geometry":{"coordinates":[-40.294868,-20.286583],"type":"Point"},"properties":{"osm_id":"7028577468","tag":{"amenity":"waste_basket","waste":"trash"}},"type":"Feature"},
	{"geometry":{"coordinates":[-40.294665,-20.286829],"type":"Point"},"properties":{"osm_id":"7028577471","tag":{"amenity":"waste_basket","waste":"trash"}},"type":"Feature"},
	{"geometry":{"coordinates":[-40.29466,-20.286596],"type":"Point"},"properties":{"osm_id":"7028577472","tag":{"amenity":"waste_basket","waste":"trash"}},"type":"Feature"},
	{"geometry":{"coordinates":[-40.299292,-20.286329],"type":"Point"},"properties":{"osm_id":"7028577479","tag":{"amenity":"waste_basket","waste":"trash"}},"type":"Feature"},
	{"geometry":{"coordinates":[-40.29858,-20.286192],"type":"Point"},"properties":{"osm_id":"7028577480","tag":{"amenity":"waste_basket","waste":"trash"}},"type":"Feature"},
	{"geometry":{"coordinates":[-40.314433,-20.303214],"type":"Point"},"properties":{"osm_id":"7028577486","tag":{"amenity":"waste_basket","waste":"trash"}},"type":"Feature"},
	{"geometry":{"coordinates":[-40.264081,-20.264798],"type":"Point"},"properties":{"osm_id":"7028577500","tag":{"amenity":"waste_basket","waste":"trash"}},"type":"Feature"},
	{"geometry":{"coordinates":[-40.272974,-20.268894],"type":"Point"},"properties":{"osm_id":"7028577501","tag":{"amenity":"waste_basket","waste":"trash"}},"type":"Feature"},
	{"geometry":{"coordinates":[-40.269154,-20.266479],"type":"Point"},"properties":{"osm_id":"7028577502","tag":{"amenity":"waste_basket","waste":"trash"}},"type":"Feature"},
	{"geometry":{"coordinates":[-40.278587,-20.272254],"type":"Point"},"properties":{"osm_id":"7028577503","tag":{"amenity":"waste_basket","waste":"trash"}},"type":"Feature"},
	{"geometry":{"coordinates":[-40.270372,-20.267441],"type":"Point"},"properties":{"osm_id":"7028577504","tag":{"amenity":"waste_basket","waste":"trash"}},"type":"Feature"},
	{"geometry":{"coordinates":[-40.270674,-20.267597],"type":"Point"},"properties":{"osm_id":"7028577505","tag":{"amenity":"waste_basket","waste":"trash"}},"type":"Feature"},
	{"geometry":{"coordinates":[-40.265202,-20.265138],"type":"Point"},"properties":{"osm_id":"7028577506","tag":{"amenity":"waste_basket","waste":"trash"}},"type":"Feature"},
	{"geometry":{"coordinates":[-40.265798,-20.265301],"type":"Point"},"properties":{"osm_id":"7028577507","tag":{"amenity":"waste_basket","waste":"trash"}},"type":"Feature"},
	{"geometry":{"coordinates":[-40.26862,-20.266263],"type":"Point"},"properties":{"osm_id":"7028577508","tag":{"amenity":"waste_basket","waste":"trash"}},"type":"Feature"},
	{"geometry":{"coordinates":[-40.268413,-20.266549],"type":"Point"},"properties":{"osm_id":"7028577509","tag":{"amenity":"waste_basket","waste":"trash"}},"type":"Feature"},
	{"geometry":{"coordinates":[-40.277645,-20.27161],"type":"Point"},"properties":{"osm_id":"7028577510","tag":{"amenity":"waste_basket","waste":"trash"}},"type":"Feature"},
	{"geometry":{"coordinates":[-40.277273,-20.271457],"type":"Point"},"properties":{"osm_id":"7028577511","tag":{"amenity":"waste_basket","waste":"trash"}},"type":"Feature"},
	{"geometry":{"coordinates":[-40.266911,-20.265634],"type":"Point"},"properties":{"osm_id":"7028577512","tag":{"amenity":"waste_basket","waste":"trash"}},"type":"Feature"},
	{"geometry":{"coordinates":[-40.270081,-20.266867],"type":"Point"},"properties":{"osm_id":"7028577513","tag":{"amenity":"waste_basket","waste":"trash"}},"type":"Feature"},
	{"geometry":{"coordinates":[-40.275698,-20.27038],"type":"Point"},"properties":{"osm_id":"7028577514","tag":{"amenity":"waste_basket","waste":"trash"}},"type":"Feature"},
	{"geometry":{"coordinates":[-40.276558,-20.270984],"type":"Point"},"properties":{"osm_id":"7028577515","tag":{"amenity":"waste_basket","waste":"trash"}},"type":"Feature"},
	{"geometry":{"coordinates":[-40.278191,-20.27191],"type":"Point"},"properties":{"osm_id":"7028577516","tag":{"amenity":"waste_basket","waste":"trash"}},"type":"Feature"},
	{"geometry":{"coordinates":[-40.279256,-20.272648],"type":"Point"},"properties":{"osm_id":"7028577517","tag":{"amenity":"waste_basket","waste":"trash"}},"type":"Feature"},
	{"geometry":{"coordinates":[-40.283471,-20.275837],"type":"Point"},"properties":{"osm_id":"7028577518","tag":{"amenity":"waste_basket","waste":"trash"}},"type":"Feature"},
	{"geometry":{"coordinates":[-40.27732,-20.270975],"type":"Point"},"properties":{"osm_id":"7028577519","tag":{"amenity":"waste_basket","waste":"trash"}},"type":"Feature"},
	{"geometry":{"coordinates":[-40.280755,-20.273682],"type":"Point"},"properties":{"osm_id":"7028577520","tag":{"amenity":"waste_basket","waste":"trash"}},"type":"Feature"},
	{"geometry":{"coordinates":[-40.290434,-20.296342],"type":"Point"},"properties":{"osm_id":"7028577522","tag":{"amenity":"waste_basket","waste":"trash"}},"type":"Feature"},
	{"geometry":{"coordinates":[-40.290826,-20.301746],"type":"Point"},"properties":{"osm_id":"7028577527","tag":{"amenity":"waste_basket","waste":"trash"}},"type":"Feature"},
	{"geometry":{"coordinates":[-40.289074,-20.302844],"type":"Point"},"properties":{"osm_id":"7028577528","tag":{"amenity":"waste_basket","waste":"trash"}},"type":"Feature"},
	{"geometry":{"coordinates":[-40.291433,-20.302939],"type":"Point"},"properties":{"osm_id":"7028577529","tag":{"amenity":"waste_basket","waste":"trash"}},"type":"Feature"},
	{"geometry":{"coordinates":[-40.290916,-20.301281],"type":"Point"},"properties":{"osm_id":"7028577532","tag":{"amenity":"waste_basket","waste":"trash"}},"type":"Feature"},
	{"geometry":{"coordinates":[-40.291089,-20.299549],"type":"Point"},"properties":{"osm_id":"7028577533","tag":{"amenity":"waste_basket","waste":"trash"}},"type":"Feature"},
	{"geometry":{"coordinates":[-40.290634,-20.302306],"type":"Point"},"properties":{"osm_id":"7028577534","tag":{"amenity":"waste_basket","waste":"trash"}},"type":"Feature"},
	{"geometry":{"coordinates":[-40.29098,-20.299096],"type":"Point"},"properties":{"osm_id":"7028577535","tag":{"amenity":"waste_basket","waste":"trash"}},"type":"Feature"},
	{"geometry":{"coordinates":[-40.291217,-20.300547],"type":"Point"},"properties":{"osm_id":"7028577536","tag":{"amenity":"waste_basket","waste":"trash"}},"type":"Feature"},
	{"geometry":{"coordinates":[-40.291146,-20.300708],"type":"Point"},"properties":{"osm_id":"7028577537","tag":{"amenity":"waste_basket","waste":"trash"}},"type":"Feature"},
	{"geometry":{"coordinates":[-40.290866,-20.301573],"type":"Point"},"properties":{"osm_id":"7028577538","tag":{"amenity":"waste_basket","waste":"trash"}},"type":"Feature"},
	{"geometry":{"coordinates":[-40.291325,-20.298855],"type":"Point"},"properties":{"osm_id":"7028577543","tag":{"amenity":"waste_basket","waste":"trash"}},"type":"Feature"},
	{"geometry":{"coordinates":[-40.291715,-20.299245],"type":"Point"},"properties":{"osm_id":"7028577544","tag":{"amenity":"waste_basket","waste":"trash"}},"type":"Feature"},
	{"geometry":{"coordinates":[-40.291802,-20.300962],"type":"Point"},"properties":{"osm_id":"7028577545","tag":{"amenity":"waste_basket","waste":"trash"}},"type":"Feature"},
	{"geometry":{"coordinates":[-40.291764,-20.300317],"type":"Point"},"properties":{"osm_id":"7028577546","tag":{"amenity":"waste_basket","waste":"trash"}},"type":"Feature"},
	{"geometry":{"coordinates":[-40.291714,-20.30047],"type":"Point"},"properties":{"osm_id":"7028577547","tag":{"amenity":"waste_basket","waste":"trash"}},"type":"Feature"},
	{"geometry":{"coordinates":[-40.301367,-20.271899],"type":"Point"},"properties":{"osm_id":"7028577550","tag":{"amenity":"waste_basket","waste":"trash"}},"type":"Feature"},
	{"geometry":{"coordinates":[-40.301498,-20.271925],"type":"Point"},"properties":{"osm_id":"7028577551","tag":{"amenity":"waste_basket","waste":"trash"}},"type":"Feature"},
	{"geometry":{"coordinates":[-40.301426,-20.271916],"type":"Point"},"properties":{"osm_id":"7028577552","tag":{"amenity":"waste_basket","waste":"trash"}},"type":"Feature"},
	{"geometry":{"coordinates":[-40.301342,-20.271893],"type":"Point"},"properties":{"osm_id":"7028577553","tag":{"amenity":"waste_basket","waste":"trash"}},"type":"Feature"},
	{"geometry":{"coordinates":[-40.263498,-20.26493],"type":"Point"},"properties":{"osm_id":"7028577703","tag":{"amenity":"waste_basket","waste":"trash"}},"type":"Feature"},
	{"geometry":{"coordinates":[-40.259858,-20.264122],"type":"Point"},"properties":{"osm_id":"7028577704","tag":{"amenity":"waste_basket","waste":"trash"}},"type":"Feature"},
	{"geometry":{"coordinates":[-40.262579,-20.264657],"type":"Point"},"properties":{"osm_id":"7028577705","tag":{"amenity":"waste_basket","waste":"trash"}},"type":"Feature"},
	{"geometry":{"coordinates":[-40.264972,-20.265483],"type":"Point"},"properties":{"osm_id":"7028577706","tag":{"amenity":"waste_basket","waste":"trash"}},"type":"Feature"},
	{"geometry":{"coordinates":[-40.266857,-20.265954],"type":"Point"},"properties":{"osm_id":"7028577707","tag":{"amenity":"waste_basket","waste":"trash"}},"type":"Feature"},
	{"geometry":{"coordinates":[-40.267887,-20.26629],"type":"Point"},"properties":{"osm_id":"7028577708","tag":{"amenity":"waste_basket","waste":"trash"}},"type":"Feature"},
	{"geometry":{"coordinates":[-40.269514,-20.267024],"type":"Point"},"properties":{"osm_id":"7028577709","tag":{"amenity":"waste_basket","waste":"trash"}},"type":"Feature"},
	{"geometry":{"coordinates":[-40.271632,-20.268059],"type":"Point"},"properties":{"osm_id":"7028577710","tag":{"amenity":"waste_basket","waste":"trash"}},"type":"Feature"},
	{"geometry":{"coordinates":[-40.282261,-20.274368],"type":"Point"},"properties":{"osm_id":"7028577711","tag":{"amenity":"waste_basket","waste":"trash"}},"type":"Feature"},
	{"geometry":{"coordinates":[-40.282191,-20.274578],"type":"Point"},"properties":{"osm_id":"7028577712","tag":{"amenity":"waste_basket","waste":"trash"}},"type":"Feature"},
	{"geometry":{"coordinates":[-40.28386,-20.276107],"type":"Point"},"properties":{"osm_id":"7028577713","tag":{"amenity":"waste_basket","waste":"trash"}},"type":"Feature"},
	{"geometry":{"coordinates":[-40.270181,-20.267337],"type":"Point"},"properties":{"osm_id":"7028577714","tag":{"amenity":"waste_basket","waste":"trash"}},"type":"Feature"},
	{"geometry":{"coordinates":[-40.28217,-20.274762],"type":"Point"},"properties":{"osm_id":"7028577715","tag":{"amenity":"waste_basket","waste":"trash"}},"type":"Feature"},
	{"geometry":{"coordinates":[-40.291378,-20.300848],"type":"Point"},"properties":{"osm_id":"7028577716","tag":{"amenity":"waste_basket","waste":"trash"}},"type":"Feature"},
	{"geometry":{"coordinates":[-40.290807,-20.302772],"type":"Point"},"properties":{"osm_id":"7028577717","tag":{"amenity":"waste_basket","waste":"trash"}},"type":"Feature"},
	{"geometry":{"coordinates":[-40.291081,-20.302509],"type":"Point"},"properties":{"osm_id":"7028577718","tag":{"amenity":"waste_basket","waste":"trash"}},"type":"Feature"},
	{"geometry":{"coordinates":[-40.291537,-20.300951],"type":"Point"},"properties":{"osm_id":"7028577719","tag":{"amenity":"waste_basket","waste":"trash"}},"type":"Feature"},
	{"geometry":{"coordinates":[-40.291468,-20.300958],"type":"Point"},"properties":{"osm_id":"7028577720","tag":{"amenity":"waste_basket","waste":"trash"}},"type":"Feature"},
	{"geometry":{"coordinates":[-40.291968,-20.29898],"type":"Point"},"properties":{"osm_id":"7028577721","tag":{"amenity":"waste_basket","waste":"trash"}},"type":"Feature"},
	{"geometry":{"coordinates":[-40.291497,-20.29931],"type":"Point"},"properties":{"osm_id":"7028577722","tag":{"amenity":"waste_basket","waste":"trash"}},"type":"Feature"},
	{"geometry":{"coordinates":[-40.291281,-20.300863],"type":"Point"},"properties":{"osm_id":"7028577730","tag":{"amenity":"waste_basket","waste":"trash"}},"type":"Feature"},
	{"geometry":{"coordinates":[-40.287281,-20.279401],"type":"Point"},"properties":{"osm_id":"7028577731","tag":{"amenity":"waste_basket","waste":"trash"}},"type":"Feature"},
	{"geometry":{"coordinates":[-40.287634,-20.279919],"type":"Point"},"properties":{"osm_id":"7028577732","tag":{"amenity":"waste_basket","waste":"trash"}},"type":"Feature"},
	{"geometry":{"coordinates":[-40.288813,-20.281318],"type":"Point"},"properties":{"osm_id":"7028577733","tag":{"amenity":"waste_basket","waste":"trash"}},"type":"Feature"},
	{"geometry":{"coordinates":[-40.288895,-20.281445],"type":"Point"},"properties":{"osm_id":"7028577734","tag":{"amenity":"waste_basket","waste":"trash"}},"type":"Feature"},
	{"geometry":{"coordinates":[-40.282982,-20.274942],"type":"Point"},"properties":{"osm_id":"7028577735","tag":{"amenity":"waste_basket","waste":"trash"}},"type":"Feature"},
	{"geometry":{"coordinates":[-40.285088,-20.27678],"type":"Point"},"properties":{"osm_id":"7028577736","tag":{"amenity":"waste_basket","waste":"trash"}},"type":"Feature"},
	{"geometry":{"coordinates":[-40.290783,-20.296412],"type":"Point"},"properties":{"osm_id":"7028577737","tag":{"amenity":"waste_basket","waste":"trash"}},"type":"Feature"},
	{"geometry":{"coordinates":[-40.291527,-20.297455],"type":"Point"},"properties":{"osm_id":"7028577738","tag":{"amenity":"waste_basket","waste":"trash"}},"type":"Feature"},
	{"geometry":{"coordinates":[-40.289647,-20.295464],"type":"Point"},"properties":{"osm_id":"7028577739","tag":{"amenity":"waste_basket","waste":"trash"}},"type":"Feature"},
	{"geometry":{"coordinates":[-40.290104,-20.295504],"type":"Point"},"properties":{"osm_id":"7028577740","tag":{"amenity":"waste_basket","waste":"trash"}},"type":"Feature"},
	{"geometry":{"coordinates":[-40.290026,-20.295884],"type":"Point"},"properties":{"osm_id":"7028577741","tag":{"amenity":"waste_basket","waste":"trash"}},"type":"Feature"},
	{"geometry":{"coordinates":[-40.29215,-20.301282],"type":"Point"},"properties":{"osm_id":"7028577742","tag":{"amenity":"waste_basket","waste":"trash"}},"type":"Feature"},
	{"geometry":{"coordinates":[-40.292421,-20.300092],"type":"Point"},"properties":{"osm_id":"7028577743","tag":{"amenity":"waste_basket","waste":"trash"}},"type":"Feature"},
	{"geometry":{"coordinates":[-40.302045,-20.292701],"type":"Point"},"properties":{"osm_id":"7028577744","tag":{"amenity":"waste_basket","waste":"trash"}},"type":"Feature"},
	{"geometry":{"coordinates":[-40.301903,-20.290874],"type":"Point"},"properties":{"osm_id":"7028577745","tag":{"amenity":"waste_basket","waste":"trash"}},"type":"Feature"},
	{"geometry":{"coordinates":[-40.303129,-20.289988],"type":"Point"},"properties":{"osm_id":"7028577746","tag":{"amenity":"waste_basket","waste":"trash"}},"type":"Feature"},
	{"geometry":{"coordinates":[-40.302631,-20.291268],"type":"Point"},"properties":{"osm_id":"7028577747","tag":{"amenity":"waste_basket","waste":"trash"}},"type":"Feature"},
	{"geometry":{"coordinates":[-40.304004,-20.287434],"type":"Point"},"properties":{"osm_id":"7028577748","tag":{"amenity":"waste_basket","waste":"trash"}},"type":"Feature"},
	{"geometry":{"coordinates":[-40.298198,-20.302173],"type":"Point"},"properties":{"osm_id":"7028577753","tag":{"amenity":"waste_basket","waste":"trash"}},"type":"Feature"},
	{"geometry":{"coordinates":[-40.301538,-20.294573],"type":"Point"},"properties":{"osm_id":"7028577754","tag":{"amenity":"waste_basket","waste":"trash"}},"type":"Feature"},
	{"geometry":{"coordinates":[-40.302139,-20.293089],"type":"Point"},"properties":{"osm_id":"7028577755","tag":{"amenity":"waste_basket","waste":"trash"}},"type":"Feature"},
	{"geometry":{"coordinates":[-40.302846,-20.291331],"type":"Point"},"properties":{"osm_id":"7028577756","tag":{"amenity":"waste_basket","waste":"trash"}},"type":"Feature"},
	{"geometry":{"coordinates":[-40.30358,-20.28957],"type":"Point"},"properties":{"osm_id":"7028577757","tag":{"amenity":"waste_basket","waste":"trash"}},"type":"Feature"},
	{"geometry":{"coordinates":[-40.303807,-20.288928],"type":"Point"},"properties":{"osm_id":"7028577758","tag":{"amenity":"waste_basket","waste":"trash"}},"type":"Feature"},
	{"geometry":{"coordinates":[-40.300433,-20.296624],"type":"Point"},"properties":{"osm_id":"7028577759","tag":{"amenity":"waste_basket","waste":"trash"}},"type":"Feature"},
	{"geometry":{"coordinates":[-40.298636,-20.300997],"type":"Point"},"properties":{"osm_id":"7028577760","tag":{"amenity":"waste_basket","waste":"trash"}},"type":"Feature"},
	{"geometry":{"coordinates":[-40.30141,-20.294245],"type":"Point"},"properties":{"osm_id":"7028577761","tag":{"amenity":"waste_basket","waste":"trash"}},"type":"Feature"},
	{"geometry":{"coordinates":[-40.301072,-20.295069],"type":"Point"},"properties":{"osm_id":"7028577762","tag":{"amenity":"waste_basket","waste":"trash"}},"type":"Feature"},
	{"geometry":{"coordinates":[-40.291321,-20.295256],"type":"Point"},"properties":{"osm_id":"7028577763","tag":{"amenity":"waste_basket","waste":"trash"}},"type":"Feature"},
	{"geometry":{"coordinates":[-40.298718,-20.299799],"type":"Point"},"properties":{"osm_id":"7028577764","tag":{"amenity":"waste_basket","waste":"trash"}},"type":"Feature"},
	{"geometry":{"coordinates":[-40.294297,-20.29864],"type":"Point"},"properties":{"osm_id":"7028577765","tag":{"amenity":"waste_basket","waste":"trash"}},"type":"Feature"},
	{"geometry":{"coordinates":[-40.293648,-20.298857],"type":"Point"},"properties":{"osm_id":"7028577766","tag":{"amenity":"waste_basket","waste":"trash"}},"type":"Feature"},
	{"geometry":{"coordinates":[-40.292938,-20.297496],"type":"Point"},"properties":{"osm_id":"7028577767","tag":{"amenity":"waste_basket","waste":"trash"}},"type":"Feature"},
	{"geometry":{"coordinates":[-40.292086,-20.296606],"type":"Point"},"properties":{"osm_id":"7028577768","tag":{"amenity":"waste_basket","waste":"trash"}},"type":"Feature"},
	{"geometry":{"coordinates":[-40.296818,-20.297134],"type":"Point"},"properties":{"osm_id":"7028577769","tag":{"amenity":"waste_basket","waste":"trash"}},"type":"Feature"},
	{"geometry":{"coordinates":[-40.294937,-20.30056],"type":"Point"},"properties":{"osm_id":"7028577771","tag":{"amenity":"waste_basket","waste":"trash"}},"type":"Feature"},
	{"geometry":{"coordinates":[-40.293232,-20.2979],"type":"Point"},"properties":{"osm_id":"7028577772","tag":{"amenity":"waste_basket","waste":"trash"}},"type":"Feature"},
	{"geometry":{"coordinates":[-40.289006,-20.281646],"type":"Point"},"properties":{"osm_id":"7028577776","tag":{"amenity":"waste_basket","waste":"trash"}},"type":"Feature"},
	{"geometry":{"coordinates":[-40.287878,-20.280447],"type":"Point"},"properties":{"osm_id":"7028577777","tag":{"amenity":"waste_basket","waste":"trash"}},"type":"Feature"},
	{"geometry":{"coordinates":[-40.287909,-20.279775],"type":"Point"},"properties":{"osm_id":"7028577778","tag":{"amenity":"waste_basket","waste":"trash"}},"type":"Feature"},
	{"geometry":{"coordinates":[-40.287108,-20.278804],"type":"Point"},"properties":{"osm_id":"7028577779","tag":{"amenity":"waste_basket","waste":"trash"}},"type":"Feature"},
	{"geometry":{"coordinates":[-40.285954,-20.277919],"type":"Point"},"properties":{"osm_id":"7028577780","tag":{"amenity":"waste_basket","waste":"trash"}},"type":"Feature"},
	{"geometry":{"coordinates":[-40.287017,-20.279177],"type":"Point"},"properties":{"osm_id":"7028577781","tag":{"amenity":"waste_basket","waste":"trash"}},"type":"Feature"},
	{"geometry":{"coordinates":[-40.286368,-20.278011],"type":"Point"},"properties":{"osm_id":"7028577783","tag":{"amenity":"waste_basket","waste":"trash"}},"type":"Feature"},
	{"geometry":{"coordinates":[-40.287917,-20.280373],"type":"Point"},"properties":{"osm_id":"7028577784","tag":{"amenity":"waste_basket","waste":"trash"}},"type":"Feature"},
	{"geometry":{"coordinates":[-40.285451,-20.277095],"type":"Point"},"properties":{"osm_id":"7028577785","tag":{"amenity":"waste_basket","waste":"trash"}},"type":"Feature"},
	{"geometry":{"coordinates":[-40.299167,-20.300339],"type":"Point"},"properties":{"osm_id":"7028577786","tag":{"amenity":"waste_basket","waste":"trash"}},"type":"Feature"},
	{"geometry":{"coordinates":[-40.294737,-20.295396],"type":"Point"},"properties":{"osm_id":"7028577787","tag":{"amenity":"waste_basket","waste":"trash"}},"type":"Feature"},
	{"geometry":{"coordinates":[-40.301107,-20.295642],"type":"Point"},"properties":{"osm_id":"7028577788","tag":{"amenity":"waste_basket","waste":"trash"}},"type":"Feature"},
	{"geometry":{"coordinates":[-40.294992,-20.295306],"type":"Point"},"properties":{"osm_id":"7028577789","tag":{"amenity":"waste_basket","waste":"trash"}},"type":"Feature"},
	{"geometry":{"coordinates":[-40.295997,-20.295983],"type":"Point"},"properties":{"osm_id":"7028577790","tag":{"amenity":"waste_basket","waste":"trash"}},"type":"Feature"},
	{"geometry":{"coordinates":[-40.29756,-20.298139],"type":"Point"},"properties":{"osm_id":"7028577791","tag":{"amenity":"waste_basket","waste":"trash"}},"type":"Feature"},
	{"geometry":{"coordinates":[-40.296348,-20.296491],"type":"Point"},"properties":{"osm_id":"7028577792","tag":{"amenity":"waste_basket","waste":"trash"}},"type":"Feature"},
	{"geometry":{"coordinates":[-40.300142,-20.297957],"type":"Point"},"properties":{"osm_id":"7028577793","tag":{"amenity":"waste_basket","waste":"trash"}},"type":"Feature"},
	{"geometry":{"coordinates":[-40.298141,-20.298982],"type":"Point"},"properties":{"osm_id":"7028577794","tag":{"amenity":"waste_basket","waste":"trash"}},"type":"Feature"},
	{"geometry":{"coordinates":[-40.29482,-20.29604],"type":"Point"},"properties":{"osm_id":"7028577795","tag":{"amenity":"waste_basket","waste":"trash"}},"type":"Feature"},
	{"geometry":{"coordinates":[-40.296717,-20.2987],"type":"Point"},"properties":{"osm_id":"7028577796","tag":{"amenity":"waste_basket","waste":"trash"}},"type":"Feature"},
	{"geometry":{"coordinates":[-40.297272,-20.299496],"type":"Point"},"properties":{"osm_id":"7028577797","tag":{"amenity":"waste_basket","waste":"trash"}},"type":"Feature"},
	{"geometry":{"coordinates":[-40.293021,-20.295841],"type":"Point"},"properties":{"osm_id":"7028577798","tag":{"amenity":"waste_basket","waste":"trash"}},"type":"Feature"},
	{"geometry":{"coordinates":[-40.29885,-20.29998],"type":"Point"},"properties":{"osm_id":"7028577799","tag":{"amenity":"waste_basket","waste":"trash"}},"type":"Feature"},
	{"geometry":{"coordinates":[-40.296003,-20.297684],"type":"Point"},"properties":{"osm_id":"7028577800","tag":{"amenity":"waste_basket","waste":"trash"}},"type":"Feature"},
	{"geometry":{"coordinates":[-40.297705,-20.300064],"type":"Point"},"properties":{"osm_id":"7028577801","tag":{"amenity":"waste_basket","waste":"trash"}},"type":"Feature"},
	{"geometry":{"coordinates":[-40.294846,-20.298386],"type":"Point"},"properties":{"osm_id":"7028577803","tag":{"amenity":"waste_basket","waste":"trash"}},"type":"Feature"},
	{"geometry":{"coordinates":[-40.294293,-20.297906],"type":"Point"},"properties":{"osm_id":"7028577804","tag":{"amenity":"waste_basket","waste":"trash"}},"type":"Feature"},
	{"geometry":{"coordinates":[-40.294664,-20.298155],"type":"Point"},"properties":{"osm_id":"7028577805","tag":{"amenity":"waste_basket","waste":"trash"}},"type":"Feature"},
	{"geometry":{"coordinates":[-40.292588,-20.295554],"type":"Point"},"properties":{"osm_id":"7028577806","tag":{"amenity":"waste_basket","waste":"trash"}},"type":"Feature"},
	{"geometry":{"coordinates":[-40.294665,-20.295861],"type":"Point"},"properties":{"osm_id":"7028577807","tag":{"amenity":"waste_basket","waste":"trash"}},"type":"Feature"},
	{"geometry":{"coordinates":[-40.297756,-20.302772],"type":"Point"},"properties":{"osm_id":"7028577808","tag":{"amenity":"waste_basket","waste":"trash"}},"type":"Feature"},
	{"geometry":{"coordinates":[-40.29589,-20.300155],"type":"Point"},"properties":{"osm_id":"7028577809","tag":{"amenity":"waste_basket","waste":"trash"}},"type":"Feature"},
	{"geometry":{"coordinates":[-40.296798,-20.301111],"type":"Point"},"properties":{"osm_id":"7028577810","tag":{"amenity":"waste_basket","waste":"trash"}},"type":"Feature"},
	{"geometry":{"coordinates":[-40.293294,-20.294335],"type":"Point"},"properties":{"osm_id":"7028577811","tag":{"amenity":"waste_basket","waste":"trash"}},"type":"Feature"},
	{"geometry":{"coordinates":[-40.294703,-20.298502],"type":"Point"},"properties":{"osm_id":"7028577812","tag":{"amenity":"waste_basket","waste":"trash"}},"type":"Feature"},
	{"geometry":{"coordinates":[-40.297685,-20.302658],"type":"Point"},"properties":{"osm_id":"7028577813","tag":{"amenity":"waste_basket","waste":"trash"}},"type":"Feature"},
	{"geometry":{"coordinates":[-40.293745,-20.294991],"type":"Point"},"properties":{"osm_id":"7028577814","tag":{"amenity":"waste_basket","waste":"trash"}},"type":"Feature"},
	{"geometry":{"coordinates":[-40.297861,-20.300683],"type":"Point"},"properties":{"osm_id":"7028577815","tag":{"amenity":"waste_basket","waste":"trash"}},"type":"Feature"},
	{"geometry":{"coordinates":[-40.298134,-20.301111],"type":"Point"},"properties":{"osm_id":"7028577816","tag":{"amenity":"waste_basket","waste":"trash"}},"type":"Feature"},
	{"geometry":{"coordinates":[-40.294813,-20.296487],"type":"Point"},"properties":{"osm_id":"7028577817","tag":{"amenity":"waste_basket","waste":"trash"}},"type":"Feature"},
	{"geometry":{"coordinates":[-40.297873,-20.300286],"type":"Point"},"properties":{"osm_id":"7028577818","tag":{"amenity":"waste_basket","waste":"trash"}},"type":"Feature"},
	{"geometry":{"coordinates":[-40.297033,-20.299535],"type":"Point"},"properties":{"osm_id":"7028577819","tag":{"amenity":"waste_basket","waste":"trash"}},"type":"Feature"},
	{"geometry":{"coordinates":[-40.296147,-20.298285],"type":"Point"},"properties":{"osm_id":"7028577820","tag":{"amenity":"waste_basket","waste":"trash"}},"type":"Feature"},
	{"geometry":{"coordinates":[-40.295562,-20.297491],"type":"Point"},"properties":{"osm_id":"7028577821","tag":{"amenity":"waste_basket","waste":"trash"}},"type":"Feature"},
	{"geometry":{"coordinates":[-40.29379,-20.294384],"type":"Point"},"properties":{"osm_id":"7028577822","tag":{"amenity":"waste_basket","waste":"trash"}},"type":"Feature"},
	{"geometry":{"coordinates":[-40.293499,-20.294219],"type":"Point"},"properties":{"osm_id":"7028577823","tag":{"amenity":"waste_basket","waste":"trash"}},"type":"Feature"},
	{"geometry":{"coordinates":[-40.292579,-20.295522],"type":"Point"},"properties":{"osm_id":"7028577824","tag":{"amenity":"waste_basket","waste":"trash"}},"type":"Feature"},
	{"geometry":{"coordinates":[-40.292842,-20.295592],"type":"Point"},"properties":{"osm_id":"7028577825","tag":{"amenity":"waste_basket","waste":"trash"}},"type":"Feature"},
	{"geometry":{"coordinates":[-40.292522,-20.295446],"type":"Point"},"properties":{"osm_id":"7028577826","tag":{"amenity":"waste_basket","waste":"trash"}},"type":"Feature"},
	{"geometry":{"coordinates":[-40.29558,-20.299389],"type":"Point"},"properties":{"osm_id":"7028577827","tag":{"amenity":"waste_basket","waste":"trash"}},"type":"Feature"},
	{"geometry":{"coordinates":[-40.297013,-20.30171],"type":"Point"},"properties":{"osm_id":"7028577828","tag":{"amenity":"waste_basket","waste":"trash"}},"type":"Feature"},
	{"geometry":{"coordinates":[-40.293779,-20.297201],"type":"Point"},"properties":{"osm_id":"7028577829","tag":{"amenity":"waste_basket","waste":"trash"}},"type":"Feature"},
	{"geometry":{"coordinates":[-40.296733,-20.30133],"type":"Point"},"properties":{"osm_id":"7028577830","tag":{"amenity":"waste_basket","waste":"trash"}},"type":"Feature"},
	{"geometry":{"coordinates":[-40.293215,-20.296431],"type":"Point"},"properties":{"osm_id":"7028577831","tag":{"amenity":"waste_basket","waste":"trash"}},"type":"Feature"},
	{"geometry":{"coordinates":[-40.292668,-20.295358],"type":"Point"},"properties":{"osm_id":"7028577832","tag":{"amenity":"waste_basket","waste":"trash"}},"type":"Feature"},
	{"geometry":{"coordinates":[-40.29562,-20.299448],"type":"Point"},"properties":{"osm_id":"7028577833","tag":{"amenity":"waste_basket","waste":"trash"}},"type":"Feature"},
	{"geometry":{"coordinates":[-40.291603,-20.29594],"type":"Point"},"properties":{"osm_id":"7028577834","tag":{"amenity":"waste_basket","waste":"trash"}},"type":"Feature"},
	{"geometry":{"coordinates":[-40.291557,-20.295586],"type":"Point"},"properties":{"osm_id":"7028577835","tag":{"amenity":"waste_basket","waste":"trash"}},"type":"Feature"},
	{"geometry":{"coordinates":[-40.340893,-20.291907],"type":"Point"},"properties":{"osm_id":"7028577994","tag":{"amenity":"waste_basket","waste":"trash"}},"type":"Feature"},
	{"geometry":{"coordinates":[-40.331061,-20.284669],"type":"Point"},"properties":{"osm_id":"7028577995","tag":{"amenity":"waste_basket","waste":"trash"}},"type":"Feature"},
	{"geometry":{"coordinates":[-40.298165,-20.265535],"type":"Point"},"properties":{"osm_id":"7028578005","tag":{"amenity":"waste_basket","waste":"trash"}},"type":"Feature"},
	{"geometry":{"coordinates":[-40.297011,-20.264235],"type":"Point"},"properties":{"osm_id":"7028578006","tag":{"amenity":"waste_basket","waste":"trash"}},"type":"Feature"},
	{"geometry":{"coordinates":[-40.2974,-20.257443],"type":"Point"},"properties":{"osm_id":"7028578007","tag":{"amenity":"waste_basket","waste":"trash"}},"type":"Feature"},
	{"geometry":{"coordinates":[-40.296581,-20.255496],"type":"Point"},"properties":{"osm_id":"7028578008","tag":{"amenity":"waste_basket","waste":"trash"}},"type":"Feature"},
	{"geometry":{"coordinates":[-40.297652,-20.255734],"type":"Point"},"properties":{"osm_id":"7028578009","tag":{"amenity":"waste_basket","waste":"trash"}},"type":"Feature"},
	{"geometry":{"coordinates":[-40.299106,-20.255759],"type":"Point"},"properties":{"osm_id":"7028578010","tag":{"amenity":"waste_basket","waste":"trash"}},"type":"Feature"},
	{"geometry":{"coordinates":[-40.29967,-20.256467],"type":"Point"},"properties":{"osm_id":"7028578011","tag":{"amenity":"waste_basket","waste":"trash"}},"type":"Feature"},
	{"geometry":{"coordinates":[-40.299479,-20.257428],"type":"Point"},"properties":{"osm_id":"7028578013","tag":{"amenity":"waste_basket","waste":"trash"}},"type":"Feature"},
	{"geometry":{"coordinates":[-40.299187,-20.25885],"type":"Point"},"properties":{"osm_id":"7028578014","tag":{"amenity":"waste_basket","waste":"trash"}},"type":"Feature"},
	{"geometry":{"coordinates":[-40.302238,-20.260205],"type":"Point"},"properties":{"osm_id":"7028578015","tag":{"amenity":"waste_basket","waste":"trash"}},"type":"Feature"},
	{"geometry":{"coordinates":[-40.300687,-20.260013],"type":"Point"},"properties":{"osm_id":"7028578016","tag":{"amenity":"waste_basket","waste":"trash"}},"type":"Feature"},
	{"geometry":{"coordinates":[-40.297252,-20.259788],"type":"Point"},"properties":{"osm_id":"7028578017","tag":{"amenity":"waste_basket","waste":"trash"}},"type":"Feature"},
	{"geometry":{"coordinates":[-40.29929,-20.259756],"type":"Point"},"properties":{"osm_id":"7028578018","tag":{"amenity":"waste_basket","waste":"trash"}},"type":"Feature"},
	{"geometry":{"coordinates":[-40.299196,-20.259739],"type":"Point"},"properties":{"osm_id":"7028578019","tag":{"amenity":"waste_basket","waste":"trash"}},"type":"Feature"},
	{"geometry":{"coordinates":[-40.299125,-20.259731],"type":"Point"},"properties":{"osm_id":"7028578020","tag":{"amenity":"waste_basket","waste":"trash"}},"type":"Feature"},
	{"geometry":{"coordinates":[-40.299702,-20.259808],"type":"Point"},"properties":{"osm_id":"7028578021","tag":{"amenity":"waste_basket","waste":"trash"}},"type":"Feature"},
	{"geometry":{"coordinates":[-40.319029,-20.267378],"type":"Point"},"properties":{"osm_id":"7028578022","tag":{"amenity":"waste_basket","waste":"trash"}},"type":"Feature"},
	{"geometry":{"coordinates":[-40.318943,-20.268863],"type":"Point"},"properties":{"osm_id":"7028578023","tag":{"amenity":"waste_basket","waste":"trash"}},"type":"Feature"},
	{"geometry":{"coordinates":[-40.319029,-20.269782],"type":"Point"},"properties":{"osm_id":"7028578024","tag":{"amenity":"waste_basket","waste":"trash"}},"type":"Feature"},
	{"geometry":{"coordinates":[-40.298899,-20.263357],"type":"Point"},"properties":{"osm_id":"7028578028","tag":{"amenity":"waste_basket","waste":"trash"}},"type":"Feature"},
	{"geometry":{"coordinates":[-40.338264,-20.281262],"type":"Point"},"properties":{"osm_id":"7028578054","tag":{"amenity":"waste_basket","waste":"trash"}},"type":"Feature"},
	{"geometry":{"coordinates":[-40.337843,-20.280976],"type":"Point"},"properties":{"osm_id":"7028578055","tag":{"amenity":"waste_basket","waste":"trash"}},"type":"Feature"},
	{"geometry":{"coordinates":[-40.337602,-20.280739],"type":"Point"},"properties":{"osm_id":"7028578056","tag":{"amenity":"waste_basket","waste":"trash"}},"type":"Feature"},
	{"geometry":{"coordinates":[-40.337478,-20.280568],"type":"Point"},"properties":{"osm_id":"7028578057","tag":{"amenity":"waste_basket","waste":"trash"}},"type":"Feature"},
	{"geometry":{"coordinates":[-40.337411,-20.280376],"type":"Point"},"properties":{"osm_id":"7028578058","tag":{"amenity":"waste_basket","waste":"trash"}},"type":"Feature"},
	{"geometry":{"coordinates":[-40.333281,-20.277463],"type":"Point"},"properties":{"osm_id":"7028578059","tag":{"amenity":"waste_basket","waste":"trash"}},"type":"Feature"},
	{"geometry":{"coordinates":[-40.333271,-20.277403],"type":"Point"},"properties":{"osm_id":"7028578060","tag":{"amenity":"waste_basket","waste":"trash"}},"type":"Feature"},
	{"geometry":{"coordinates":[-40.333346,-20.277466],"type":"Point"},"properties":{"osm_id":"7028578061","tag":{"amenity":"waste_basket","waste":"trash"}},"type":"Feature"},
	{"geometry":{"coordinates":[-40.333328,-20.277426],"type":"Point"},"properties":{"osm_id":"7028578062","tag":{"amenity":"waste_basket","waste":"trash"}},"type":"Feature"},
	{"geometry":{"coordinates":[-40.333327,-20.277519],"type":"Point"},"properties":{"osm_id":"7028578063","tag":{"amenity":"waste_basket","waste":"trash"}},"type":"Feature"},
	{"geometry":{"coordinates":[-40.336721,-20.27809],"type":"Point"},"properties":{"osm_id":"7028578064","tag":{"amenity":"waste_basket","waste":"trash"}},"type":"Feature"},
	{"geometry":{"coordinates":[-40.336716,-20.278154],"type":"Point"},"properties":{"osm_id":"7028578065","tag":{"amenity":"waste_basket","waste":"trash"}},"type":"Feature"},
	{"geometry":{"coordinates":[-40.337144,-20.277216],"type":"Point"},"properties":{"osm_id":"7028578066","tag":{"amenity":"waste_basket","waste":"trash"}},"type":"Feature"},
	{"geometry":{"coordinates":[-40.337135,-20.277211],"type":"Point"},"properties":{"osm_id":"7028578067","tag":{"amenity":"waste_basket","waste":"trash"}},"type":"Feature"},
	{"geometry":{"coordinates":[-40.337154,-20.277201],"type":"Point"},"properties":{"osm_id":"7028578068","tag":{"amenity":"waste_basket","waste":"trash"}},"type":"Feature"},
	{"geometry":{"coordinates":[-40.271269,-20.260007],"type":"Point"},"properties":{"osm_id":"7028578099","tag":{"amenity":"waste_basket","waste":"trash"}},"type":"Feature"},
	{"geometry":{"coordinates":[-40.26744,-20.257299],"type":"Point"},"properties":{"osm_id":"7028578100","tag":{"amenity":"waste_basket","waste":"trash"}},"type":"Feature"},
	{"geometry":{"coordinates":[-40.293813,-20.273163],"type":"Point"},"properties":{"osm_id":"7028578101","tag":{"amenity":"waste_basket","waste":"trash"}},"type":"Feature"},
	{"geometry":{"coordinates":[-40.291084,-20.276197],"type":"Point"},"properties":{"osm_id":"7028578102","tag":{"amenity":"waste_basket","waste":"trash"}},"type":"Feature"},
	{"geometry":{"coordinates":[-40.292317,-20.273121],"type":"Point"},"properties":{"osm_id":"7028578103","tag":{"amenity":"waste_basket","waste":"trash"}},"type":"Feature"},
	{"geometry":{"coordinates":[-40.287428,-20.276366],"type":"Point"},"properties":{"osm_id":"7028578104","tag":{"amenity":"waste_basket","waste":"trash"}},"type":"Feature"},
	{"geometry":{"coordinates":[-40.286938,-20.273469],"type":"Point"},"properties":{"osm_id":"7028578105","tag":{"amenity":"waste_basket","waste":"trash"}},"type":"Feature"},
	{"geometry":{"coordinates":[-40.287447,-20.273083],"type":"Point"},"properties":{"osm_id":"7028578106","tag":{"amenity":"waste_basket","waste":"trash"}},"type":"Feature"},
	{"geometry":{"coordinates":[-40.288325,-20.272163],"type":"Point"},"properties":{"osm_id":"7028578107","tag":{"amenity":"waste_basket","waste":"trash"}},"type":"Feature"},
	{"geometry":{"coordinates":[-40.289152,-20.274531],"type":"Point"},"properties":{"osm_id":"7028578108","tag":{"amenity":"waste_basket","waste":"trash"}},"type":"Feature"},
	{"geometry":{"coordinates":[-40.290051,-20.273636],"type":"Point"},"properties":{"osm_id":"7028578109","tag":{"amenity":"waste_basket","waste":"trash"}},"type":"Feature"},
	{"geometry":{"coordinates":[-40.294107,-20.284691],"type":"Point"},"properties":{"osm_id":"7028578110","tag":{"amenity":"waste_basket","waste":"trash"}},"type":"Feature"},
	{"geometry":{"coordinates":[-40.298486,-20.281588],"type":"Point"},"properties":{"osm_id":"7028578111","tag":{"amenity":"waste_basket","waste":"trash"}},"type":"Feature"},
	{"geometry":{"coordinates":[-40.295523,-20.261397],"type":"Point"},"properties":{"osm_id":"7028578116","tag":{"amenity":"waste_basket","waste":"trash"}},"type":"Feature"},
	{"geometry":{"coordinates":[-40.29536,-20.261508],"type":"Point"},"properties":{"osm_id":"7028578117","tag":{"amenity":"waste_basket","waste":"trash"}},"type":"Feature"},
	{"geometry":{"coordinates":[-40.295538,-20.261701],"type":"Point"},"properties":{"osm_id":"7028578118","tag":{"amenity":"waste_basket","waste":"trash"}},"type":"Feature"},
	{"geometry":{"coordinates":[-40.295663,-20.26163],"type":"Point"},"properties":{"osm_id":"7028578119","tag":{"amenity":"waste_basket","waste":"trash"}},"type":"Feature"},
	{"geometry":{"coordinates":[-40.296395,-20.292094],"type":"Point"},"properties":{"osm_id":"7028578132","tag":{"amenity":"waste_basket","waste":"trash"}},"type":"Feature"},
	{"geometry":{"coordinates":[-40.292008,-20.299167],"type":"Point"},"properties":{"osm_id":"7028578133","tag":{"amenity":"waste_basket","waste":"trash"}},"type":"Feature"},
	{"geometry":{"coordinates":[-40.291715,-20.300814],"type":"Point"},"properties":{"osm_id":"7028578134","tag":{"amenity":"waste_basket","waste":"trash"}},"type":"Feature"},
	{"geometry":{"coordinates":[-40.291611,-20.302079],"type":"Point"},"properties":{"osm_id":"7028578135","tag":{"amenity":"waste_basket","waste":"trash"}},"type":"Feature"},
	{"geometry":{"coordinates":[-40.267669,-20.255275],"type":"Point"},"properties":{"osm_id":"7028578143","tag":{"amenity":"waste_basket","waste":"trash"}},"type":"Feature"},
	{"geometry":{"coordinates":[-40.31534,-20.301459],"type":"Point"},"properties":{"osm_id":"7028578160","tag":{"amenity":"waste_basket","waste":"trash"}},"type":"Feature"},
	{"geometry":{"coordinates":[-40.315843,-20.300031],"type":"Point"},"properties":{"osm_id":"7028578161","tag":{"amenity":"waste_basket","waste":"trash"}},"type":"Feature"},
	{"geometry":{"coordinates":[-40.312049,-20.288205],"type":"Point"},"properties":{"osm_id":"7028578175","tag":{"amenity":"waste_basket","waste":"trash"}},"type":"Feature"},
	{"geometry":{"coordinates":[-40.312168,-20.286612],"type":"Point"},"properties":{"osm_id":"7028578176","tag":{"amenity":"waste_basket","waste":"trash"}},"type":"Feature"},
	{"geometry":{"coordinates":[-40.310195,-20.2866],"type":"Point"},"properties":{"osm_id":"7028578177","tag":{"amenity":"waste_basket","waste":"trash"}},"type":"Feature"},
	{"geometry":{"coordinates":[-40.310498,-20.286657],"type":"Point"},"properties":{"osm_id":"7028578178","tag":{"amenity":"waste_basket","waste":"trash"}},"type":"Feature"},
	{"geometry":{"coordinates":[-40.311948,-20.285124],"type":"Point"},"properties":{"osm_id":"7028578179","tag":{"amenity":"waste_basket","waste":"trash"}},"type":"Feature"},
	{"geometry":{"coordinates":[-40.309481,-20.285521],"type":"Point"},"properties":{"osm_id":"7028578180","tag":{"amenity":"waste_basket","waste":"trash"}},"type":"Feature"},
	{"geometry":{"coordinates":[-40.308984,-20.285734],"type":"Point"},"properties":{"osm_id":"7028578181","tag":{"amenity":"waste_basket","waste":"trash"}},"type":"Feature"},
	{"geometry":{"coordinates":[-40.30681,-20.298359],"type":"Point"},"properties":{"osm_id":"7028578182","tag":{"amenity":"waste_basket","waste":"trash"}},"type":"Feature"},
	{"geometry":{"coordinates":[-40.306947,-20.297569],"type":"Point"},"properties":{"osm_id":"7028578183","tag":{"amenity":"waste_basket","waste":"trash"}},"type":"Feature"},
	{"geometry":{"coordinates":[-40.307368,-20.296279],"type":"Point"},"properties":{"osm_id":"7028578184","tag":{"amenity":"waste_basket","waste":"trash"}},"type":"Feature"},
	{"geometry":{"coordinates":[-40.317048,-20.297925],"type":"Point"},"properties":{"osm_id":"7028578185","tag":{"amenity":"waste_basket","waste":"trash"}},"type":"Feature"},
	{"geometry":{"coordinates":[-40.31705,-20.297907],"type":"Point"},"properties":{"osm_id":"7028578186","tag":{"amenity":"waste_basket","waste":"trash"}},"type":"Feature"},
	{"geometry":{"coordinates":[-40.317161,-20.297557],"type":"Point"},"properties":{"osm_id":"7028578187","tag":{"amenity":"waste_basket","waste":"trash"}},"type":"Feature"},
	{"geometry":{"coordinates":[-40.317369,-20.297303],"type":"Point"},"properties":{"osm_id":"7028578188","tag":{"amenity":"waste_basket","waste":"trash"}},"type":"Feature"},
	{"geometry":{"coordinates":[-40.316947,-20.297259],"type":"Point"},"properties":{"osm_id":"7028578189","tag":{"amenity":"waste_basket","waste":"trash"}},"type":"Feature"},
	{"geometry":{"coordinates":[-40.314777,-20.302375],"type":"Point"},"properties":{"osm_id":"7028578190","tag":{"amenity":"waste_basket","waste":"trash"}},"type":"Feature"},
	{"geometry":{"coordinates":[-40.262396,-20.259161],"type":"Point"},"properties":{"osm_id":"7028578195","tag":{"amenity":"waste_basket","waste":"trash"}},"type":"Feature"},
	{"geometry":{"coordinates":[-40.262378,-20.261061],"type":"Point"},"properties":{"osm_id":"7028578196","tag":{"amenity":"waste_basket","waste":"trash"}},"type":"Feature"},
	{"geometry":{"coordinates":[-40.262186,-20.263287],"type":"Point"},"properties":{"osm_id":"7028578197","tag":{"amenity":"waste_basket","waste":"trash"}},"type":"Feature"},
	{"geometry":{"coordinates":[-40.261778,-20.260323],"type":"Point"},"properties":{"osm_id":"7028578198","tag":{"amenity":"waste_basket","waste":"trash"}},"type":"Feature"},
	{"geometry":{"coordinates":[-40.261877,-20.258008],"type":"Point"},"properties":{"osm_id":"7028578199","tag":{"amenity":"waste_basket","waste":"trash"}},"type":"Feature"},
	{"geometry":{"coordinates":[-40.265469,-20.258685],"type":"Point"},"properties":{"osm_id":"7028578200","tag":{"amenity":"waste_basket","waste":"trash"}},"type":"Feature"},
	{"geometry":{"coordinates":[-40.271773,-20.251638],"type":"Point"},"properties":{"osm_id":"7028578201","tag":{"amenity":"waste_basket","waste":"trash"}},"type":"Feature"},
	{"geometry":{"coordinates":[-40.272634,-20.248386],"type":"Point"},"properties":{"osm_id":"7028578202","tag":{"amenity":"waste_basket","waste":"trash"}},"type":"Feature"},
	{"geometry":{"coordinates":[-40.271907,-20.249932],"type":"Point"},"properties":{"osm_id":"7028578203","tag":{"amenity":"waste_basket","waste":"trash"}},"type":"Feature"},
	{"geometry":{"coordinates":[-40.272311,-20.249167],"type":"Point"},"properties":{"osm_id":"7028578204","tag":{"amenity":"waste_basket","waste":"trash"}},"type":"Feature"},
	{"geometry":{"coordinates":[-40.271629,-20.251451],"type":"Point"},"properties":{"osm_id":"7028578205","tag":{"amenity":"waste_basket","waste":"trash"}},"type":"Feature"},
	{"geometry":{"coordinates":[-40.26364,-20.262459],"type":"Point"},"properties":{"osm_id":"7028578206","tag":{"amenity":"waste_basket","waste":"trash"}},"type":"Feature"},
	{"geometry":{"coordinates":[-40.263807,-20.260714],"type":"Point"},"properties":{"osm_id":"7028578207","tag":{"amenity":"waste_basket","waste":"trash"}},"type":"Feature"},
	{"geometry":{"coordinates":[-40.264583,-20.259454],"type":"Point"},"properties":{"osm_id":"7028578208","tag":{"amenity":"waste_basket","waste":"trash"}},"type":"Feature"},
	{"geometry":{"coordinates":[-40.263872,-20.259735],"type":"Point"},"properties":{"osm_id":"7028578209","tag":{"amenity":"waste_basket","waste":"trash"}},"type":"Feature"},
	{"geometry":{"coordinates":[-40.263549,-20.264083],"type":"Point"},"properties":{"osm_id":"7028578210","tag":{"amenity":"waste_basket","waste":"trash"}},"type":"Feature"},
	{"geometry":{"coordinates":[-40.264027,-20.255258],"type":"Point"},"properties":{"osm_id":"7028578211","tag":{"amenity":"waste_basket","waste":"trash"}},"type":"Feature"},
	{"geometry":{"coordinates":[-40.297193,-20.265858],"type":"Point"},"properties":{"osm_id":"7028578212","tag":{"amenity":"waste_basket","waste":"trash"}},"type":"Feature"},
	{"geometry":{"coordinates":[-40.296227,-20.268279],"type":"Point"},"properties":{"osm_id":"7028578213","tag":{"amenity":"waste_basket","waste":"trash"}},"type":"Feature"},
	{"geometry":{"coordinates":[-40.296294,-20.267629],"type":"Point"},"properties":{"osm_id":"7028578214","tag":{"amenity":"waste_basket","waste":"trash"}},"type":"Feature"},
	{"geometry":{"coordinates":[-40.293049,-20.270996],"type":"Point"},"properties":{"osm_id":"7028578215","tag":{"amenity":"waste_basket","waste":"trash"}},"type":"Feature"},
	{"geometry":{"coordinates":[-40.292808,-20.27023],"type":"Point"},"properties":{"osm_id":"7028578216","tag":{"amenity":"waste_basket","waste":"trash"}},"type":"Feature"},
	{"geometry":{"coordinates":[-40.263633,-20.263945],"type":"Point"},"properties":{"osm_id":"7028578217","tag":{"amenity":"waste_basket","waste":"trash"}},"type":"Feature"},
	{"geometry":{"coordinates":[-40.259976,-20.261018],"type":"Point"},"properties":{"osm_id":"7028578218","tag":{"amenity":"waste_basket","waste":"trash"}},"type":"Feature"},
	{"geometry":{"coordinates":[-40.261088,-20.261008],"type":"Point"},"properties":{"osm_id":"7028578219","tag":{"amenity":"waste_basket","waste":"trash"}},"type":"Feature"},
	{"geometry":{"coordinates":[-40.266576,-20.261256],"type":"Point"},"properties":{"osm_id":"7028578220","tag":{"amenity":"waste_basket","waste":"trash"}},"type":"Feature"},
	{"geometry":{"coordinates":[-40.264861,-20.261187],"type":"Point"},"properties":{"osm_id":"7028578221","tag":{"amenity":"waste_basket","waste":"trash"}},"type":"Feature"},
	{"geometry":{"coordinates":[-40.26427,-20.261166],"type":"Point"},"properties":{"osm_id":"7028578222","tag":{"amenity":"waste_basket","waste":"trash"}},"type":"Feature"},
	{"geometry":{"coordinates":[-40.263779,-20.264973],"type":"Point"},"properties":{"osm_id":"7028578241","tag":{"amenity":"waste_basket","waste":"trash"}},"type":"Feature"},
	{"geometry":{"coordinates":[-40.279843,-20.273063],"type":"Point"},"properties":{"osm_id":"7028578242","tag":{"amenity":"waste_basket","waste":"trash"}},"type":"Feature"},
	{"geometry":{"coordinates":[-40.286951,-20.279137],"type":"Point"},"properties":{"osm_id":"7028578243","tag":{"amenity":"waste_basket","waste":"trash"}},"type":"Feature"},
	{"geometry":{"coordinates":[-40.290161,-20.284267],"type":"Point"},"properties":{"osm_id":"7028578244","tag":{"amenity":"waste_basket","waste":"trash"}},"type":"Feature"},
	{"geometry":{"coordinates":[-40.290802,-20.286891],"type":"Point"},"properties":{"osm_id":"7028578245","tag":{"amenity":"waste_basket","waste":"trash"}},"type":"Feature"},
	{"geometry":{"coordinates":[-40.290463,-20.289928],"type":"Point"},"properties":{"osm_id":"7028578246","tag":{"amenity":"waste_basket","waste":"trash"}},"type":"Feature"},
	{"geometry":{"coordinates":[-40.289328,-20.29245],"type":"Point"},"properties":{"osm_id":"7028578247","tag":{"amenity":"waste_basket","waste":"trash"}},"type":"Feature"},
	{"geometry":{"coordinates":[-40.324059,-20.271681],"type":"Point"},"properties":{"osm_id":"7028578264","tag":{"amenity":"waste_basket","waste":"trash"}},"type":"Feature"},
	{"geometry":{"coordinates":[-40.323132,-20.271776],"type":"Point"},"properties":{"osm_id":"7028578265","tag":{"amenity":"waste_basket","waste":"trash"}},"type":"Feature"},
	{"geometry":{"coordinates":[-40.322169,-20.271324],"type":"Point"},"properties":{"osm_id":"7028578266","tag":{"amenity":"waste_basket","waste":"trash"}},"type":"Feature"},
	{"geometry":{"coordinates":[-40.332277,-20.27695],"type":"Point"},"properties":{"osm_id":"7028578267","tag":{"amenity":"waste_basket","waste":"trash"}},"type":"Feature"},
	{"geometry":{"coordinates":[-40.329156,-20.277353],"type":"Point"},"properties":{"osm_id":"7028578268","tag":{"amenity":"waste_basket","waste":"trash"}},"type":"Feature"},
	{"geometry":{"coordinates":[-40.327529,-20.272248],"type":"Point"},"properties":{"osm_id":"7028578269","tag":{"amenity":"waste_basket","waste":"trash"}},"type":"Feature"},
	{"geometry":{"coordinates":[-40.327224,-20.27184],"type":"Point"},"properties":{"osm_id":"7028578270","tag":{"amenity":"waste_basket","waste":"trash"}},"type":"Feature"},
	{"geometry":{"coordinates":[-40.326686,-20.271294],"type":"Point"},"properties":{"osm_id":"7028578271","tag":{"amenity":"waste_basket","waste":"trash"}},"type":"Feature"},
	{"geometry":{"coordinates":[-40.328012,-20.272735],"type":"Point"},"properties":{"osm_id":"7028578272","tag":{"amenity":"waste_basket","waste":"trash"}},"type":"Feature"},
	{"geometry":{"coordinates":[-40.327564,-20.272111],"type":"Point"},"properties":{"osm_id":"7028578273","tag":{"amenity":"waste_basket","waste":"trash"}},"type":"Feature"},
	{"geometry":{"coordinates":[-40.327385,-20.272001],"type":"Point"},"properties":{"osm_id":"7028578274","tag":{"amenity":"waste_basket","waste":"trash"}},"type":"Feature"},
	{"geometry":{"coordinates":[-40.297079,-20.262988],"type":"Point"},"properties":{"osm_id":"7028578275","tag":{"amenity":"waste_basket","waste":"trash"}},"type":"Feature"},
	{"geometry":{"coordinates":[-40.297119,-20.261991],"type":"Point"},"properties":{"osm_id":"7028578276","tag":{"amenity":"waste_basket","waste":"trash"}},"type":"Feature"},
	{"geometry":{"coordinates":[-40.297441,-20.260057],"type":"Point"},"properties":{"osm_id":"7028578277","tag":{"amenity":"waste_basket","waste":"trash"}},"type":"Feature"},
	{"geometry":{"coordinates":[-40.297184,-20.260744],"type":"Point"},"properties":{"osm_id":"7028578278","tag":{"amenity":"waste_basket","waste":"trash"}},"type":"Feature"},
	{"geometry":{"coordinates":[-40.297491,-20.258545],"type":"Point"},"properties":{"osm_id":"7028578279","tag":{"amenity":"waste_basket","waste":"trash"}},"type":"Feature"},
	{"geometry":{"coordinates":[-40.297337,-20.258027],"type":"Point"},"properties":{"osm_id":"7028578280","tag":{"amenity":"waste_basket","waste":"trash"}},"type":"Feature"},
	{"geometry":{"coordinates":[-40.297525,-20.256156],"type":"Point"},"properties":{"osm_id":"7028578281","tag":{"amenity":"waste_basket","waste":"trash"}},"type":"Feature"},
	{"geometry":{"coordinates":[-40.297652,-20.256038],"type":"Point"},"properties":{"osm_id":"7028578282","tag":{"amenity":"waste_basket","waste":"trash"}},"type":"Feature"},
	{"geometry":{"coordinates":[-40.299891,-20.255777],"type":"Point"},"properties":{"osm_id":"7028578283","tag":{"amenity":"waste_basket","waste":"trash"}},"type":"Feature"},
	{"geometry":{"coordinates":[-40.29919,-20.259845],"type":"Point"},"properties":{"osm_id":"7028578284","tag":{"amenity":"waste_basket","waste":"trash"}},"type":"Feature"},
	{"geometry":{"coordinates":[-40.299044,-20.261229],"type":"Point"},"properties":{"osm_id":"7028578285","tag":{"amenity":"waste_basket","waste":"trash"}},"type":"Feature"},
	{"geometry":{"coordinates":[-40.298843,-20.263801],"type":"Point"},"properties":{"osm_id":"7028578286","tag":{"amenity":"waste_basket","waste":"trash"}},"type":"Feature"},
	{"geometry":{"coordinates":[-40.297447,-20.284763],"type":"Point"},"properties":{"osm_id":"7028578287","tag":{"amenity":"waste_basket","waste":"trash"}},"type":"Feature"},
	{"geometry":{"coordinates":[-40.297606,-20.285822],"type":"Point"},"properties":{"osm_id":"7028578288","tag":{"amenity":"waste_basket","waste":"trash"}},"type":"Feature"},
	{"geometry":{"coordinates":[-40.299405,-20.286497],"type":"Point"},"properties":{"osm_id":"7028578289","tag":{"amenity":"waste_basket","waste":"trash"}},"type":"Feature"},
	{"geometry":{"coordinates":[-40.294465,-20.28698],"type":"Point"},"properties":{"osm_id":"7028578290","tag":{"amenity":"waste_basket","waste":"trash"}},"type":"Feature"},
	{"geometry":{"coordinates":[-40.294268,-20.282244],"type":"Point"},"properties":{"osm_id":"7028578291","tag":{"amenity":"waste_basket","waste":"trash"}},"type":"Feature"},
	{"geometry":{"coordinates":[-40.293795,-20.282388],"type":"Point"},"properties":{"osm_id":"7028578292","tag":{"amenity":"waste_basket","waste":"trash"}},"type":"Feature"},
	{"geometry":{"coordinates":[-40.293865,-20.283031],"type":"Point"},"properties":{"osm_id":"7028578293","tag":{"amenity":"waste_basket","waste":"trash"}},"type":"Feature"},
	{"geometry":{"coordinates":[-40.294103,-20.282696],"type":"Point"},"properties":{"osm_id":"7028578294","tag":{"amenity":"waste_basket","waste":"trash"}},"type":"Feature"},
	{"geometry":{"coordinates":[-40.317385,-20.275032],"type":"Point"},"properties":{"osm_id":"7028578295","tag":{"amenity":"waste_basket","waste":"trash"}},"type":"Feature"},
	{"geometry":{"coordinates":[-40.288317,-20.277126],"type":"Point"},"properties":{"osm_id":"7028578296","tag":{"amenity":"waste_basket","waste":"trash"}},"type":"Feature"},
	{"geometry":{"coordinates":[-40.28972,-20.272419],"type":"Point"},"properties":{"osm_id":"7028578297","tag":{"amenity":"waste_basket","waste":"trash"}},"type":"Feature"},
	{"geometry":{"coordinates":[-40.289204,-20.271965],"type":"Point"},"properties":{"osm_id":"7028578298","tag":{"amenity":"waste_basket","waste":"trash"}},"type":"Feature"},
	{"geometry":{"coordinates":[-40.289398,-20.272778],"type":"Point"},"properties":{"osm_id":"7028578299","tag":{"amenity":"waste_basket","waste":"trash"}},"type":"Feature"},
	{"geometry":{"coordinates":[-40.285315,-20.275419],"type":"Point"},"properties":{"osm_id":"7028578300","tag":{"amenity":"waste_basket","waste":"trash"}},"type":"Feature"},
	{"geometry":{"coordinates":[-40.286607,-20.27554],"type":"Point"},"properties":{"osm_id":"7028578301","tag":{"amenity":"waste_basket","waste":"trash"}},"type":"Feature"},
	{"geometry":{"coordinates":[-40.286066,-20.276094],"type":"Point"},"properties":{"osm_id":"7028578302","tag":{"amenity":"waste_basket","waste":"trash"}},"type":"Feature"},
	{"geometry":{"coordinates":[-40.291434,-20.27571],"type":"Point"},"properties":{"osm_id":"7028578303","tag":{"amenity":"waste_basket","waste":"trash"}},"type":"Feature"},
	{"geometry":{"coordinates":[-40.29404,-20.274842],"type":"Point"},"properties":{"osm_id":"7028578304","tag":{"amenity":"waste_basket","waste":"trash"}},"type":"Feature"},
	{"geometry":{"coordinates":[-40.29389,-20.273639],"type":"Point"},"properties":{"osm_id":"7028578305","tag":{"amenity":"waste_basket","waste":"trash"}},"type":"Feature"},
	{"geometry":{"coordinates":[-40.29397,-20.273195],"type":"Point"},"properties":{"osm_id":"7028578306","tag":{"amenity":"waste_basket","waste":"trash"}},"type":"Feature"},
	{"geometry":{"coordinates":[-40.29413,-20.273077],"type":"Point"},"properties":{"osm_id":"7028578307","tag":{"amenity":"waste_basket","waste":"trash"}},"type":"Feature"},
	{"geometry":{"coordinates":[-40.291101,-20.272335],"type":"Point"},"properties":{"osm_id":"7028578308","tag":{"amenity":"waste_basket","waste":"trash"}},"type":"Feature"},
	{"geometry":{"coordinates":[-40.299484,-20.25578],"type":"Point"},"properties":{"osm_id":"7028578309","tag":{"amenity":"waste_basket","waste":"trash"}},"type":"Feature"},
	{"geometry":{"coordinates":[-40.298309,-20.25575],"type":"Point"},"properties":{"osm_id":"7028578310","tag":{"amenity":"waste_basket","waste":"trash"}},"type":"Feature"},
	{"geometry":{"coordinates":[-40.297114,-20.255703],"type":"Point"},"properties":{"osm_id":"7028578311","tag":{"amenity":"waste_basket","waste":"trash"}},"type":"Feature"},
	{"geometry":{"coordinates":[-40.295856,-20.255179],"type":"Point"},"properties":{"osm_id":"7028578312","tag":{"amenity":"waste_basket","waste":"trash"}},"type":"Feature"},
	{"geometry":{"coordinates":[-40.293955,-20.25446],"type":"Point"},"properties":{"osm_id":"7028578313","tag":{"amenity":"waste_basket","waste":"trash"}},"type":"Feature"},
	{"geometry":{"coordinates":[-40.293348,-20.254141],"type":"Point"},"properties":{"osm_id":"7028578314","tag":{"amenity":"waste_basket","waste":"trash"}},"type":"Feature"},
	{"geometry":{"coordinates":[-40.317274,-20.275691],"type":"Point"},"properties":{"osm_id":"7028578359","tag":{"amenity":"waste_basket","waste":"trash"}},"type":"Feature"},
	{"geometry":{"coordinates":[-40.297949,-20.302707],"type":"Point"},"properties":{"osm_id":"7028578361","tag":{"amenity":"waste_basket","waste":"trash"}},"type":"Feature"},
	{"geometry":{"coordinates":[-40.297454,-20.302302],"type":"Point"},"properties":{"osm_id":"7028578362","tag":{"amenity":"waste_basket","waste":"trash"}},"type":"Feature"},
	{"geometry":{"coordinates":[-40.296928,-20.301578],"type":"Point"},"properties":{"osm_id":"7028578363","tag":{"amenity":"waste_basket","waste":"trash"}},"type":"Feature"},
	{"geometry":{"coordinates":[-40.296967,-20.301337],"type":"Point"},"properties":{"osm_id":"7028578364","tag":{"amenity":"waste_basket","waste":"trash"}},"type":"Feature"},
	{"geometry":{"coordinates":[-40.296193,-20.300531],"type":"Point"},"properties":{"osm_id":"7028578365","tag":{"amenity":"waste_basket","waste":"trash"}},"type":"Feature"},
	{"geometry":{"coordinates":[-40.296204,-20.300273],"type":"Point"},"properties":{"osm_id":"7028578366","tag":{"amenity":"waste_basket","waste":"trash"}},"type":"Feature"},
	{"geometry":{"coordinates":[-40.294616,-20.29806],"type":"Point"},"properties":{"osm_id":"7028578367","tag":{"amenity":"waste_basket","waste":"trash"}},"type":"Feature"},
	{"geometry":{"coordinates":[-40.295543,-20.29935],"type":"Point"},"properties":{"osm_id":"7028578368","tag":{"amenity":"waste_basket","waste":"trash"}},"type":"Feature"},
	{"geometry":{"coordinates":[-40.293074,-20.296175],"type":"Point"},"properties":{"osm_id":"7028578372","tag":{"amenity":"waste_basket","waste":"trash"}},"type":"Feature"},
	{"geometry":{"coordinates":[-40.292418,-20.295048],"type":"Point"},"properties":{"osm_id":"7028578375","tag":{"amenity":"waste_basket","waste":"trash"}},"type":"Feature"},
	{"geometry":{"coordinates":[-40.291446,-20.293963],"type":"Point"},"properties":{"osm_id":"7028578377","tag":{"amenity":"waste_basket","waste":"trash"}},"type":"Feature"}
]
}
