{
"type": "FeatureCollection",
"features": [
	{"geometry":{"coordinates":[-40.289044,-20.313218],"type":"Point"},"properties":{"name":"Eco Ponto","osm_id":"3198772691","tag":{"amenity":"recycling","operator":"Revertec","recycling:batteries":"yes","recycling:cans":"no","recycling:cds":"yes","recycling:chipboard":"yes","recycling:clothes":"no","recycling:computers":"yes","recycling:electrical_items":"yes","recycling:glass":"no","recycling:mobile_phones":"yes","recycling:paper":"no","recycling:plastic":"no","recycling:plastic_bags":"no","recycling:plastic_bottles":"no","recycling:plastic_packaging":"no","recycling:polyester":"no","recycling:printer_cartridges":"no","recycling:printer_inkjet_cartridges":"no","recycling:printer_toner_cartridges":"no","recycling:tv_monitor":"yes","recycling:white_goods":"no"}},"type":"Feature"},
	{"geometry":{"coordinates":[-40.295393,-20.343518],"type":"Point"},"properties":{"name":"Alceu Valen\u00c3\u00a7a","osm_id":"6403141185","tag":{"amenity":"recycling"}},"type":"Feature"},
	{"geometry":{"coordinates":[-40.340178,-20.319924],"type":"Point"},"properties":{"osm_id":"7028556879","tag":{"amenity":"waste_basket","waste":"trash"}},"type":"Feature"},
	{"geometry":{"coordinates":[-40.335371,-20.317994],"type":"Point"},"properties":{"osm_id":"7028556881","tag":{"amenity":"waste_basket","waste":"trash"}},"type":"Feature"},
	{"geometry":{"coordinates":[-40.34029,-20.319952],"type":"Point"},"properties":{"osm_id":"7028556882","tag":{"amenity":"waste_basket","waste":"trash"}},"type":"Feature"},
	{"geometry":{"coordinates":[-40.338683,-20.321683],"type":"Point"},"properties":{"osm_id":"7028566559","tag":{"amenity":"waste_basket","waste":"trash"}},"type":"Feature"},
	{"geometry":{"coordinates":[-40.339246,-20.321925],"type":"Point"},"properties":{"osm_id":"7028566561","tag":{"amenity":"waste_basket","waste":"trash"}},"type":"Feature"},
	{"geometry":{"coordinates":[-40.338941,-20.321791],"type":"Point"},"properties":{"osm_id":"7028566562","tag":{"amenity":"waste_basket","waste":"trash"}},"type":"Feature"},
	{"geometry":{"coordinates":[-40.339037,-20.321977],"type":"Point"},"properties":{"osm_id":"7028566563","tag":{"amenity":"waste_basket","waste":"trash"}},"type":"Feature"},
	{"geometry":{"coordinates":[-40.338226,-20.321507],"type":"Point"},"properties":{"osm_id":"7028566564","tag":{"amenity":"waste_basket","waste":"trash"}},"type":"Feature"},
	{"geometry":{"coordinates":[-40.331767,-20.319186],"type":"Point"},"properties":{"osm_id":"7028566565","tag":{"amenity":"waste_basket","waste":"trash"}},"type":"Feature"},
	{"geometry":{"coordinates":[-40.329738,-20.318488],"type":"Point"},"properties":{"osm_id":"7028566566","tag":{"amenity":"waste_basket","waste":"trash"}},"type":"Feature"},
	{"geometry":{"coordinates":[-40.32988,-20.318377],"type":"Point"},"properties":{"osm_id":"7028566567","tag":{"amenity":"waste_basket","waste":"trash"}},"type":"Feature"},
	{"geometry":{"coordinates":[-40.330643,-20.318758],"type":"Point"},"properties":{"osm_id":"7028566568","tag":{"amenity":"waste_basket","waste":"trash"}},"type":"Feature"},
	{"geometry":{"coordinates":[-40.331344,-20.318907],"type":"Point"},"properties":{"osm_id":"7028566569","tag":{"amenity":"waste_basket","waste":"trash"}},"type":"Feature"},
	{"geometry":{"coordinates":[-40.332912,-20.320251],"type":"Point"},"properties":{"osm_id":"7028566574","tag":{"amenity":"waste_basket","waste":"trash"}},"type":"Feature"},
	{"geometry":{"coordinates":[-40.332211,-20.320085],"type":"Point"},"properties":{"osm_id":"7028566575","tag":{"amenity":"waste_basket","waste":"trash"}},"type":"Feature"},
	{"geometry":{"coordinates":[-40.332249,-20.319888],"type":"Point"},"properties":{"osm_id":"7028566576","tag":{"amenity":"waste_basket","waste":"trash"}},"type":"Feature"},
	{"geometry":{"coordinates":[-40.331273,-20.319697],"type":"Point"},"properties":{"osm_id":"7028566578","tag":{"amenity":"waste_basket","waste":"trash"}},"type":"Feature"},
	{"geometry":{"coordinates":[-40.330345,-20.319587],"type":"Point"},"properties":{"osm_id":"7028566579","tag":{"amenity":"waste_basket","waste":"trash"}},"type":"Feature"},
	{"geometry":{"coordinates":[-40.33115,-20.319869],"type":"Point"},"properties":{"osm_id":"7028566580","tag":{"amenity":"waste_basket","waste":"trash"}},"type":"Feature"},
	{"geometry":{"coordinates":[-40.330603,-20.319803],"type":"Point"},"properties":{"osm_id":"7028566581","tag":{"amenity":"waste_basket","waste":"trash"}},"type":"Feature"},
	{"geometry":{"coordinates":[-40.330226,-20.319735],"type":"Point"},"properties":{"osm_id":"7028566582","tag":{"amenity":"waste_basket","waste":"trash"}},"type":"Feature"},
	{"geometry":{"coordinates":[-40.329904,-20.31954],"type":"Point"},"properties":{"osm_id":"7028566583","tag":{"amenity":"waste_basket","waste":"trash"}},"type":"Feature"},
	{"geometry":{"coordinates":[-40.294966,-20.314238],"type":"Point"},"properties":{"osm_id":"7028566584","tag":{"amenity":"waste_basket","waste":"trash"}},"type":"Feature"},
	{"geometry":{"coordinates":[-40.293024,-20.314331],"type":"Point"},"properties":{"osm_id":"7028576986","tag":{"amenity":"waste_basket","waste":"trash"}},"type":"Feature"},
	{"geometry":{"coordinates":[-40.293726,-20.314293],"type":"Point"},"properties":{"osm_id":"7028576987","tag":{"amenity":"waste_basket","waste":"trash"}},"type":"Feature"},
	{"geometry":{"coordinates":[-40.293644,-20.314582],"type":"Point"},"properties":{"osm_id":"7028576988","tag":{"amenity":"waste_basket","waste":"trash"}},"type":"Feature"},
	{"geometry":{"coordinates":[-40.294473,-20.31407],"type":"Point"},"properties":{"osm_id":"7028576989","tag":{"amenity":"waste_basket","waste":"trash"}},"type":"Feature"},
	{"geometry":{"coordinates":[-40.293204,-20.308103],"type":"Point"},"properties":{"osm_id":"7028576990","tag":{"amenity":"waste_basket","waste":"trash"}},"type":"Feature"},
	{"geometry":{"coordinates":[-40.293957,-20.314998],"type":"Point"},"properties":{"osm_id":"7028576991","tag":{"amenity":"waste_basket","waste":"trash"}},"type":"Feature"},
	{"geometry":{"coordinates":[-40.294082,-20.308631],"type":"Point"},"properties":{"osm_id":"7028576992","tag":{"amenity":"waste_basket","waste":"trash"}},"type":"Feature"},
	{"geometry":{"coordinates":[-40.292453,-20.309904],"type":"Point"},"properties":{"osm_id":"7028576993","tag":{"amenity":"waste_basket","waste":"trash"}},"type":"Feature"},
	{"geometry":{"coordinates":[-40.291939,-20.31067],"type":"Point"},"properties":{"osm_id":"7028576994","tag":{"amenity":"waste_basket","waste":"trash"}},"type":"Feature"},
	{"geometry":{"coordinates":[-40.294255,-20.309115],"type":"Point"},"properties":{"osm_id":"7028576995","tag":{"amenity":"waste_basket","waste":"trash"}},"type":"Feature"},
	{"geometry":{"coordinates":[-40.293265,-20.307956],"type":"Point"},"properties":{"osm_id":"7028576996","tag":{"amenity":"waste_basket","waste":"trash"}},"type":"Feature"},
	{"geometry":{"coordinates":[-40.291299,-20.311688],"type":"Point"},"properties":{"osm_id":"7028576997","tag":{"amenity":"waste_basket","waste":"trash"}},"type":"Feature"},
	{"geometry":{"coordinates":[-40.291557,-20.310529],"type":"Point"},"properties":{"osm_id":"7028576998","tag":{"amenity":"waste_basket","waste":"trash"}},"type":"Feature"},
	{"geometry":{"coordinates":[-40.292323,-20.31199],"type":"Point"},"properties":{"osm_id":"7028576999","tag":{"amenity":"waste_basket","waste":"trash"}},"type":"Feature"},
	{"geometry":{"coordinates":[-40.290535,-20.311411],"type":"Point"},"properties":{"osm_id":"7028577000","tag":{"amenity":"waste_basket","waste":"trash"}},"type":"Feature"},
	{"geometry":{"coordinates":[-40.299889,-20.303465],"type":"Point"},"properties":{"osm_id":"7028577003","tag":{"amenity":"waste_basket","waste":"trash"}},"type":"Feature"},
	{"geometry":{"coordinates":[-40.301731,-20.305686],"type":"Point"},"properties":{"osm_id":"7028577004","tag":{"amenity":"waste_basket","waste":"trash"}},"type":"Feature"},
	{"geometry":{"coordinates":[-40.300592,-20.304455],"type":"Point"},"properties":{"osm_id":"7028577005","tag":{"amenity":"waste_basket","waste":"trash"}},"type":"Feature"},
	{"geometry":{"coordinates":[-40.30281,-20.30578],"type":"Point"},"properties":{"osm_id":"7028577006","tag":{"amenity":"waste_basket","waste":"trash"}},"type":"Feature"},
	{"geometry":{"coordinates":[-40.302111,-20.304508],"type":"Point"},"properties":{"osm_id":"7028577008","tag":{"amenity":"waste_basket","waste":"trash"}},"type":"Feature"},
	{"geometry":{"coordinates":[-40.297832,-20.304615],"type":"Point"},"properties":{"osm_id":"7028577009","tag":{"amenity":"waste_basket","waste":"trash"}},"type":"Feature"},
	{"geometry":{"coordinates":[-40.301128,-20.303469],"type":"Point"},"properties":{"osm_id":"7028577010","tag":{"amenity":"waste_basket","waste":"trash"}},"type":"Feature"},
	{"geometry":{"coordinates":[-40.299512,-20.304879],"type":"Point"},"properties":{"osm_id":"7028577011","tag":{"amenity":"waste_basket","waste":"trash"}},"type":"Feature"},
	{"geometry":{"coordinates":[-40.298921,-20.303742],"type":"Point"},"properties":{"osm_id":"7028577013","tag":{"amenity":"waste_basket","waste":"trash"}},"type":"Feature"},
	{"geometry":{"coordinates":[-40.297491,-20.304862],"type":"Point"},"properties":{"osm_id":"7028577014","tag":{"amenity":"waste_basket","waste":"trash"}},"type":"Feature"},
	{"geometry":{"coordinates":[-40.298258,-20.305702],"type":"Point"},"properties":{"osm_id":"7028577015","tag":{"amenity":"waste_basket","waste":"trash"}},"type":"Feature"},
	{"geometry":{"coordinates":[-40.298009,-20.304344],"type":"Point"},"properties":{"osm_id":"7028577016","tag":{"amenity":"waste_basket","waste":"trash"}},"type":"Feature"},
	{"geometry":{"coordinates":[-40.298573,-20.303899],"type":"Point"},"properties":{"osm_id":"7028577017","tag":{"amenity":"waste_basket","waste":"trash"}},"type":"Feature"},
	{"geometry":{"coordinates":[-40.309766,-20.304269],"type":"Point"},"properties":{"osm_id":"7028577036","tag":{"amenity":"waste_basket","waste":"trash"}},"type":"Feature"},
	{"geometry":{"coordinates":[-40.322676,-20.313615],"type":"Point"},"properties":{"osm_id":"7028577038","tag":{"amenity":"waste_basket","waste":"trash"}},"type":"Feature"},
	{"geometry":{"coordinates":[-40.322668,-20.313175],"type":"Point"},"properties":{"osm_id":"7028577039","tag":{"amenity":"waste_basket","waste":"trash"}},"type":"Feature"},
	{"geometry":{"coordinates":[-40.304588,-20.305183],"type":"Point"},"properties":{"osm_id":"7028577042","tag":{"amenity":"waste_basket","waste":"trash"}},"type":"Feature"},
	{"geometry":{"coordinates":[-40.30459,-20.305228],"type":"Point"},"properties":{"osm_id":"7028577067","tag":{"amenity":"waste_basket","waste":"trash"}},"type":"Feature"},
	{"geometry":{"coordinates":[-40.304523,-20.305068],"type":"Point"},"properties":{"osm_id":"7028577068","tag":{"amenity":"waste_basket","waste":"trash"}},"type":"Feature"},
	{"geometry":{"coordinates":[-40.319348,-20.313024],"type":"Point"},"properties":{"osm_id":"7028577080","tag":{"amenity":"waste_basket","waste":"trash"}},"type":"Feature"},
	{"geometry":{"coordinates":[-40.319672,-20.310857],"type":"Point"},"properties":{"osm_id":"7028577081","tag":{"amenity":"waste_basket","waste":"trash"}},"type":"Feature"},
	{"geometry":{"coordinates":[-40.319086,-20.311559],"type":"Point"},"properties":{"osm_id":"7028577082","tag":{"amenity":"waste_basket","waste":"trash"}},"type":"Feature"},
	{"geometry":{"coordinates":[-40.320777,-20.309848],"type":"Point"},"properties":{"osm_id":"7028577083","tag":{"amenity":"waste_basket","waste":"trash"}},"type":"Feature"},
	{"geometry":{"coordinates":[-40.319795,-20.310098],"type":"Point"},"properties":{"osm_id":"7028577084","tag":{"amenity":"waste_basket","waste":"trash"}},"type":"Feature"},
	{"geometry":{"coordinates":[-40.318928,-20.314561],"type":"Point"},"properties":{"osm_id":"7028577085","tag":{"amenity":"waste_basket","waste":"trash"}},"type":"Feature"},
	{"geometry":{"coordinates":[-40.31929,-20.313369],"type":"Point"},"properties":{"osm_id":"7028577086","tag":{"amenity":"waste_basket","waste":"trash"}},"type":"Feature"},
	{"geometry":{"coordinates":[-40.319724,-20.316062],"type":"Point"},"properties":{"osm_id":"7028577114","tag":{"amenity":"waste_basket","waste":"trash"}},"type":"Feature"},
	{"geometry":{"coordinates":[-40.320112,-20.313998],"type":"Point"},"properties":{"osm_id":"7028577116","tag":{"amenity":"waste_basket","waste":"trash"}},"type":"Feature"},
	{"geometry":{"coordinates":[-40.323123,-20.306022],"type":"Point"},"properties":{"osm_id":"7028577118","tag":{"amenity":"waste_basket","waste":"trash"}},"type":"Feature"},
	{"geometry":{"coordinates":[-40.323749,-20.305689],"type":"Point"},"properties":{"osm_id":"7028577119","tag":{"amenity":"waste_basket","waste":"trash"}},"type":"Feature"},
	{"geometry":{"coordinates":[-40.323938,-20.305536],"type":"Point"},"properties":{"osm_id":"7028577120","tag":{"amenity":"waste_basket","waste":"trash"}},"type":"Feature"},
	{"geometry":{"coordinates":[-40.320629,-20.312243],"type":"Point"},"properties":{"osm_id":"7028577127","tag":{"amenity":"waste_basket","waste":"trash"}},"type":"Feature"},
	{"geometry":{"coordinates":[-40.320339,-20.311825],"type":"Point"},"properties":{"osm_id":"7028577128","tag":{"amenity":"waste_basket","waste":"trash"}},"type":"Feature"},
	{"geometry":{"coordinates":[-40.320573,-20.311212],"type":"Point"},"properties":{"osm_id":"7028577130","tag":{"amenity":"waste_basket","waste":"trash"}},"type":"Feature"},
	{"geometry":{"coordinates":[-40.320689,-20.310361],"type":"Point"},"properties":{"osm_id":"7028577131","tag":{"amenity":"waste_basket","waste":"trash"}},"type":"Feature"},
	{"geometry":{"coordinates":[-40.320981,-20.308732],"type":"Point"},"properties":{"osm_id":"7028577132","tag":{"amenity":"waste_basket","waste":"trash"}},"type":"Feature"},
	{"geometry":{"coordinates":[-40.320217,-20.314227],"type":"Point"},"properties":{"osm_id":"7028577133","tag":{"amenity":"waste_basket","waste":"trash"}},"type":"Feature"},
	{"geometry":{"coordinates":[-40.320281,-20.313904],"type":"Point"},"properties":{"osm_id":"7028577134","tag":{"amenity":"waste_basket","waste":"trash"}},"type":"Feature"},
	{"geometry":{"coordinates":[-40.32105,-20.313817],"type":"Point"},"properties":{"osm_id":"7028577135","tag":{"amenity":"waste_basket","waste":"trash"}},"type":"Feature"},
	{"geometry":{"coordinates":[-40.320302,-20.312738],"type":"Point"},"properties":{"osm_id":"7028577136","tag":{"amenity":"waste_basket","waste":"trash"}},"type":"Feature"},
	{"geometry":{"coordinates":[-40.320713,-20.311127],"type":"Point"},"properties":{"osm_id":"7028577137","tag":{"amenity":"waste_basket","waste":"trash"}},"type":"Feature"},
	{"geometry":{"coordinates":[-40.314718,-20.304736],"type":"Point"},"properties":{"osm_id":"7028577138","tag":{"amenity":"waste_basket","waste":"trash"}},"type":"Feature"},
	{"geometry":{"coordinates":[-40.314973,-20.304239],"type":"Point"},"properties":{"osm_id":"7028577139","tag":{"amenity":"waste_basket","waste":"trash"}},"type":"Feature"},
	{"geometry":{"coordinates":[-40.315087,-20.303502],"type":"Point"},"properties":{"osm_id":"7028577140","tag":{"amenity":"waste_basket","waste":"trash"}},"type":"Feature"},
	{"geometry":{"coordinates":[-40.314938,-20.304686],"type":"Point"},"properties":{"osm_id":"7028577141","tag":{"amenity":"waste_basket","waste":"trash"}},"type":"Feature"},
	{"geometry":{"coordinates":[-40.320627,-20.308188],"type":"Point"},"properties":{"osm_id":"7028577149","tag":{"amenity":"waste_basket","waste":"trash"}},"type":"Feature"},
	{"geometry":{"coordinates":[-40.319712,-20.31075],"type":"Point"},"properties":{"osm_id":"7028577150","tag":{"amenity":"waste_basket","waste":"trash"}},"type":"Feature"},
	{"geometry":{"coordinates":[-40.320037,-20.30861],"type":"Point"},"properties":{"osm_id":"7028577151","tag":{"amenity":"waste_basket","waste":"trash"}},"type":"Feature"},
	{"geometry":{"coordinates":[-40.319809,-20.308658],"type":"Point"},"properties":{"osm_id":"7028577152","tag":{"amenity":"waste_basket","waste":"trash"}},"type":"Feature"},
	{"geometry":{"coordinates":[-40.314495,-20.3089],"type":"Point"},"properties":{"osm_id":"7028577155","tag":{"amenity":"waste_basket","waste":"trash"}},"type":"Feature"},
	{"geometry":{"coordinates":[-40.318718,-20.315836],"type":"Point"},"properties":{"osm_id":"7028577157","tag":{"amenity":"waste_basket","waste":"trash"}},"type":"Feature"},
	{"geometry":{"coordinates":[-40.318913,-20.315558],"type":"Point"},"properties":{"osm_id":"7028577160","tag":{"amenity":"waste_basket","waste":"trash"}},"type":"Feature"},
	{"geometry":{"coordinates":[-40.319081,-20.314742],"type":"Point"},"properties":{"osm_id":"7028577162","tag":{"amenity":"waste_basket","waste":"trash"}},"type":"Feature"},
	{"geometry":{"coordinates":[-40.318745,-20.316495],"type":"Point"},"properties":{"osm_id":"7028577163","tag":{"amenity":"waste_basket","waste":"trash"}},"type":"Feature"},
	{"geometry":{"coordinates":[-40.31901,-20.314948],"type":"Point"},"properties":{"osm_id":"7028577164","tag":{"amenity":"waste_basket","waste":"trash"}},"type":"Feature"},
	{"geometry":{"coordinates":[-40.319502,-20.311982],"type":"Point"},"properties":{"osm_id":"7028577165","tag":{"amenity":"waste_basket","waste":"trash"}},"type":"Feature"},
	{"geometry":{"coordinates":[-40.315311,-20.304449],"type":"Point"},"properties":{"osm_id":"7028577173","tag":{"amenity":"waste_basket","waste":"trash"}},"type":"Feature"},
	{"geometry":{"coordinates":[-40.323282,-20.304405],"type":"Point"},"properties":{"osm_id":"7028577176","tag":{"amenity":"waste_basket","waste":"trash"}},"type":"Feature"},
	{"geometry":{"coordinates":[-40.323204,-20.305997],"type":"Point"},"properties":{"osm_id":"7028577177","tag":{"amenity":"waste_basket","waste":"trash"}},"type":"Feature"},
	{"geometry":{"coordinates":[-40.321046,-20.308215],"type":"Point"},"properties":{"osm_id":"7028577187","tag":{"amenity":"waste_basket","waste":"trash"}},"type":"Feature"},
	{"geometry":{"coordinates":[-40.319879,-20.316044],"type":"Point"},"properties":{"osm_id":"7028577188","tag":{"amenity":"waste_basket","waste":"trash"}},"type":"Feature"},
	{"geometry":{"coordinates":[-40.321828,-20.30664],"type":"Point"},"properties":{"osm_id":"7028577189","tag":{"amenity":"waste_basket","waste":"trash"}},"type":"Feature"},
	{"geometry":{"coordinates":[-40.319601,-20.316782],"type":"Point"},"properties":{"osm_id":"7028577190","tag":{"amenity":"waste_basket","waste":"trash"}},"type":"Feature"},
	{"geometry":{"coordinates":[-40.323629,-20.304808],"type":"Point"},"properties":{"osm_id":"7028577191","tag":{"amenity":"waste_basket","waste":"trash"}},"type":"Feature"},
	{"geometry":{"coordinates":[-40.320807,-20.310677],"type":"Point"},"properties":{"osm_id":"7028577192","tag":{"amenity":"waste_basket","waste":"trash"}},"type":"Feature"},
	{"geometry":{"coordinates":[-40.320771,-20.309952],"type":"Point"},"properties":{"osm_id":"7028577193","tag":{"amenity":"waste_basket","waste":"trash"}},"type":"Feature"},
	{"geometry":{"coordinates":[-40.320984,-20.30974],"type":"Point"},"properties":{"osm_id":"7028577194","tag":{"amenity":"waste_basket","waste":"trash"}},"type":"Feature"},
	{"geometry":{"coordinates":[-40.321384,-20.307364],"type":"Point"},"properties":{"osm_id":"7028577195","tag":{"amenity":"waste_basket","waste":"trash"}},"type":"Feature"},
	{"geometry":{"coordinates":[-40.312213,-20.315919],"type":"Point"},"properties":{"osm_id":"7028577221","tag":{"amenity":"waste_basket","waste":"trash"}},"type":"Feature"},
	{"geometry":{"coordinates":[-40.308621,-20.315394],"type":"Point"},"properties":{"osm_id":"7028577222","tag":{"amenity":"waste_basket","waste":"trash"}},"type":"Feature"},
	{"geometry":{"coordinates":[-40.312818,-20.316012],"type":"Point"},"properties":{"osm_id":"7028577223","tag":{"amenity":"waste_basket","waste":"trash"}},"type":"Feature"},
	{"geometry":{"coordinates":[-40.309663,-20.315703],"type":"Point"},"properties":{"osm_id":"7028577224","tag":{"amenity":"waste_basket","waste":"trash"}},"type":"Feature"},
	{"geometry":{"coordinates":[-40.308773,-20.31231],"type":"Point"},"properties":{"osm_id":"7028577225","tag":{"amenity":"waste_basket","waste":"trash"}},"type":"Feature"},
	{"geometry":{"coordinates":[-40.308009,-20.31339],"type":"Point"},"properties":{"osm_id":"7028577226","tag":{"amenity":"waste_basket","waste":"trash"}},"type":"Feature"},
	{"geometry":{"coordinates":[-40.294011,-20.30535],"type":"Point"},"properties":{"osm_id":"7028577227","tag":{"amenity":"waste_basket","waste":"trash"}},"type":"Feature"},
	{"geometry":{"coordinates":[-40.296133,-20.309562],"type":"Point"},"properties":{"osm_id":"7028577229","tag":{"amenity":"waste_basket","waste":"trash"}},"type":"Feature"},
	{"geometry":{"coordinates":[-40.292942,-20.304604],"type":"Point"},"properties":{"osm_id":"7028577230","tag":{"amenity":"waste_basket","waste":"trash"}},"type":"Feature"},
	{"geometry":{"coordinates":[-40.293501,-20.305403],"type":"Point"},"properties":{"osm_id":"7028577231","tag":{"amenity":"waste_basket","waste":"trash"}},"type":"Feature"},
	{"geometry":{"coordinates":[-40.295356,-20.309626],"type":"Point"},"properties":{"osm_id":"7028577239","tag":{"amenity":"waste_basket","waste":"trash"}},"type":"Feature"},
	{"geometry":{"coordinates":[-40.295837,-20.307877],"type":"Point"},"properties":{"osm_id":"7028577240","tag":{"amenity":"waste_basket","waste":"trash"}},"type":"Feature"},
	{"geometry":{"coordinates":[-40.295644,-20.308325],"type":"Point"},"properties":{"osm_id":"7028577241","tag":{"amenity":"waste_basket","waste":"trash"}},"type":"Feature"},
	{"geometry":{"coordinates":[-40.292378,-20.303859],"type":"Point"},"properties":{"osm_id":"7028577263","tag":{"amenity":"waste_basket","waste":"trash"}},"type":"Feature"},
	{"geometry":{"coordinates":[-40.308043,-20.313201],"type":"Point"},"properties":{"osm_id":"7028577272","tag":{"amenity":"waste_basket","waste":"trash"}},"type":"Feature"},
	{"geometry":{"coordinates":[-40.308336,-20.312337],"type":"Point"},"properties":{"osm_id":"7028577273","tag":{"amenity":"waste_basket","waste":"trash"}},"type":"Feature"},
	{"geometry":{"coordinates":[-40.306734,-20.315063],"type":"Point"},"properties":{"osm_id":"7028577274","tag":{"amenity":"waste_basket","waste":"trash"}},"type":"Feature"},
	{"geometry":{"coordinates":[-40.306266,-20.315792],"type":"Point"},"properties":{"osm_id":"7028577275","tag":{"amenity":"waste_basket","waste":"trash"}},"type":"Feature"},
	{"geometry":{"coordinates":[-40.306975,-20.314967],"type":"Point"},"properties":{"osm_id":"7028577276","tag":{"amenity":"waste_basket","waste":"trash"}},"type":"Feature"},
	{"geometry":{"coordinates":[-40.306519,-20.31533],"type":"Point"},"properties":{"osm_id":"7028577277","tag":{"amenity":"waste_basket","waste":"trash"}},"type":"Feature"},
	{"geometry":{"coordinates":[-40.306946,-20.311195],"type":"Point"},"properties":{"osm_id":"7028577278","tag":{"amenity":"waste_basket","waste":"trash"}},"type":"Feature"},
	{"geometry":{"coordinates":[-40.307716,-20.311157],"type":"Point"},"properties":{"osm_id":"7028577279","tag":{"amenity":"waste_basket","waste":"trash"}},"type":"Feature"},
	{"geometry":{"coordinates":[-40.306677,-20.311226],"type":"Point"},"properties":{"osm_id":"7028577280","tag":{"amenity":"waste_basket","waste":"trash"}},"type":"Feature"},
	{"geometry":{"coordinates":[-40.306922,-20.311054],"type":"Point"},"properties":{"osm_id":"7028577281","tag":{"amenity":"waste_basket","waste":"trash"}},"type":"Feature"},
	{"geometry":{"coordinates":[-40.305163,-20.311815],"type":"Point"},"properties":{"osm_id":"7028577282","tag":{"amenity":"waste_basket","waste":"trash"}},"type":"Feature"},
	{"geometry":{"coordinates":[-40.311609,-20.315824],"type":"Point"},"properties":{"osm_id":"7028577283","tag":{"amenity":"waste_basket","waste":"trash"}},"type":"Feature"},
	{"geometry":{"coordinates":[-40.306286,-20.311765],"type":"Point"},"properties":{"osm_id":"7028577284","tag":{"amenity":"waste_basket","waste":"trash"}},"type":"Feature"},
	{"geometry":{"coordinates":[-40.306041,-20.311639],"type":"Point"},"properties":{"osm_id":"7028577285","tag":{"amenity":"waste_basket","waste":"trash"}},"type":"Feature"},
	{"geometry":{"coordinates":[-40.30819,-20.312334],"type":"Point"},"properties":{"osm_id":"7028577286","tag":{"amenity":"waste_basket","waste":"trash"}},"type":"Feature"},
	{"geometry":{"coordinates":[-40.308365,-20.311277],"type":"Point"},"properties":{"osm_id":"7028577287","tag":{"amenity":"waste_basket","waste":"trash"}},"type":"Feature"},
	{"geometry":{"coordinates":[-40.308379,-20.311143],"type":"Point"},"properties":{"osm_id":"7028577288","tag":{"amenity":"waste_basket","waste":"trash"}},"type":"Feature"},
	{"geometry":{"coordinates":[-40.305606,-20.311611],"type":"Point"},"properties":{"osm_id":"7028577289","tag":{"amenity":"waste_basket","waste":"trash"}},"type":"Feature"},
	{"geometry":{"coordinates":[-40.305602,-20.311455],"type":"Point"},"properties":{"osm_id":"7028577290","tag":{"amenity":"waste_basket","waste":"trash"}},"type":"Feature"},
	{"geometry":{"coordinates":[-40.308553,-20.311151],"type":"Point"},"properties":{"osm_id":"7028577291","tag":{"amenity":"waste_basket","waste":"trash"}},"type":"Feature"},
	{"geometry":{"coordinates":[-40.305942,-20.311395],"type":"Point"},"properties":{"osm_id":"7028577292","tag":{"amenity":"waste_basket","waste":"trash"}},"type":"Feature"},
	{"geometry":{"coordinates":[-40.305978,-20.31154],"type":"Point"},"properties":{"osm_id":"7028577293","tag":{"amenity":"waste_basket","waste":"trash"}},"type":"Feature"},
	{"geometry":{"coordinates":[-40.305736,-20.311604],"type":"Point"},"properties":{"osm_id":"7028577294","tag":{"amenity":"waste_basket","waste":"trash"}},"type":"Feature"},
	{"geometry":{"coordinates":[-40.307611,-20.31219],"type":"Point"},"properties":{"osm_id":"7028577295","tag":{"amenity":"waste_basket","waste":"trash"}},"type":"Feature"},
	{"geometry":{"coordinates":[-40.305242,-20.315468],"type":"Point"},"properties":{"osm_id":"7028577296","tag":{"amenity":"waste_basket","waste":"trash"}},"type":"Feature"},
	{"geometry":{"coordinates":[-40.304419,-20.314982],"type":"Point"},"properties":{"osm_id":"7028577297","tag":{"amenity":"waste_basket","waste":"trash"}},"type":"Feature"},
	{"geometry":{"coordinates":[-40.305697,-20.31451],"type":"Point"},"properties":{"osm_id":"7028577298","tag":{"amenity":"waste_basket","waste":"trash"}},"type":"Feature"},
	{"geometry":{"coordinates":[-40.303531,-20.314621],"type":"Point"},"properties":{"osm_id":"7028577299","tag":{"amenity":"waste_basket","waste":"trash"}},"type":"Feature"},
	{"geometry":{"coordinates":[-40.309332,-20.316986],"type":"Point"},"properties":{"osm_id":"7028577300","tag":{"amenity":"waste_basket","waste":"trash"}},"type":"Feature"},
	{"geometry":{"coordinates":[-40.309973,-20.317309],"type":"Point"},"properties":{"osm_id":"7028577301","tag":{"amenity":"waste_basket","waste":"trash"}},"type":"Feature"},
	{"geometry":{"coordinates":[-40.304662,-20.314934],"type":"Point"},"properties":{"osm_id":"7028577302","tag":{"amenity":"waste_basket","waste":"trash"}},"type":"Feature"},
	{"geometry":{"coordinates":[-40.305317,-20.315766],"type":"Point"},"properties":{"osm_id":"7028577303","tag":{"amenity":"waste_basket","waste":"trash"}},"type":"Feature"},
	{"geometry":{"coordinates":[-40.310038,-20.317236],"type":"Point"},"properties":{"osm_id":"7028577304","tag":{"amenity":"waste_basket","waste":"trash"}},"type":"Feature"},
	{"geometry":{"coordinates":[-40.309715,-20.317098],"type":"Point"},"properties":{"osm_id":"7028577305","tag":{"amenity":"waste_basket","waste":"trash"}},"type":"Feature"},
	{"geometry":{"coordinates":[-40.305587,-20.315284],"type":"Point"},"properties":{"osm_id":"7028577306","tag":{"amenity":"waste_basket","waste":"trash"}},"type":"Feature"},
	{"geometry":{"coordinates":[-40.30554,-20.315002],"type":"Point"},"properties":{"osm_id":"7028577307","tag":{"amenity":"waste_basket","waste":"trash"}},"type":"Feature"},
	{"geometry":{"coordinates":[-40.306026,-20.314437],"type":"Point"},"properties":{"osm_id":"7028577308","tag":{"amenity":"waste_basket","waste":"trash"}},"type":"Feature"},
	{"geometry":{"coordinates":[-40.309304,-20.31609],"type":"Point"},"properties":{"osm_id":"7028577309","tag":{"amenity":"waste_basket","waste":"trash"}},"type":"Feature"},
	{"geometry":{"coordinates":[-40.307286,-20.314302],"type":"Point"},"properties":{"osm_id":"7028577310","tag":{"amenity":"waste_basket","waste":"trash"}},"type":"Feature"},
	{"geometry":{"coordinates":[-40.309674,-20.313572],"type":"Point"},"properties":{"osm_id":"7028577311","tag":{"amenity":"waste_basket","waste":"trash"}},"type":"Feature"},
	{"geometry":{"coordinates":[-40.309637,-20.315392],"type":"Point"},"properties":{"osm_id":"7028577312","tag":{"amenity":"waste_basket","waste":"trash"}},"type":"Feature"},
	{"geometry":{"coordinates":[-40.309676,-20.315205],"type":"Point"},"properties":{"osm_id":"7028577313","tag":{"amenity":"waste_basket","waste":"trash"}},"type":"Feature"},
	{"geometry":{"coordinates":[-40.309709,-20.314906],"type":"Point"},"properties":{"osm_id":"7028577314","tag":{"amenity":"waste_basket","waste":"trash"}},"type":"Feature"},
	{"geometry":{"coordinates":[-40.304996,-20.312951],"type":"Point"},"properties":{"osm_id":"7028577315","tag":{"amenity":"waste_basket","waste":"trash"}},"type":"Feature"},
	{"geometry":{"coordinates":[-40.30769,-20.314228],"type":"Point"},"properties":{"osm_id":"7028577316","tag":{"amenity":"waste_basket","waste":"trash"}},"type":"Feature"},
	{"geometry":{"coordinates":[-40.304585,-20.312918],"type":"Point"},"properties":{"osm_id":"7028577317","tag":{"amenity":"waste_basket","waste":"trash"}},"type":"Feature"},
	{"geometry":{"coordinates":[-40.310318,-20.311411],"type":"Point"},"properties":{"osm_id":"7028577318","tag":{"amenity":"waste_basket","waste":"trash"}},"type":"Feature"},
	{"geometry":{"coordinates":[-40.310078,-20.311382],"type":"Point"},"properties":{"osm_id":"7028577319","tag":{"amenity":"waste_basket","waste":"trash"}},"type":"Feature"},
	{"geometry":{"coordinates":[-40.310062,-20.312592],"type":"Point"},"properties":{"osm_id":"7028577320","tag":{"amenity":"waste_basket","waste":"trash"}},"type":"Feature"},
	{"geometry":{"coordinates":[-40.309908,-20.312619],"type":"Point"},"properties":{"osm_id":"7028577321","tag":{"amenity":"waste_basket","waste":"trash"}},"type":"Feature"},
	{"geometry":{"coordinates":[-40.307719,-20.312192],"type":"Point"},"properties":{"osm_id":"7028577322","tag":{"amenity":"waste_basket","waste":"trash"}},"type":"Feature"},
	{"geometry":{"coordinates":[-40.30715,-20.314242],"type":"Point"},"properties":{"osm_id":"7028577323","tag":{"amenity":"waste_basket","waste":"trash"}},"type":"Feature"},
	{"geometry":{"coordinates":[-40.313855,-20.315382],"type":"Point"},"properties":{"osm_id":"7028577324","tag":{"amenity":"waste_basket","waste":"trash"}},"type":"Feature"},
	{"geometry":{"coordinates":[-40.309479,-20.314853],"type":"Point"},"properties":{"osm_id":"7028577325","tag":{"amenity":"waste_basket","waste":"trash"}},"type":"Feature"},
	{"geometry":{"coordinates":[-40.311699,-20.312796],"type":"Point"},"properties":{"osm_id":"7028577326","tag":{"amenity":"waste_basket","waste":"trash"}},"type":"Feature"},
	{"geometry":{"coordinates":[-40.31186,-20.311626],"type":"Point"},"properties":{"osm_id":"7028577327","tag":{"amenity":"waste_basket","waste":"trash"}},"type":"Feature"},
	{"geometry":{"coordinates":[-40.312065,-20.311632],"type":"Point"},"properties":{"osm_id":"7028577328","tag":{"amenity":"waste_basket","waste":"trash"}},"type":"Feature"},
	{"geometry":{"coordinates":[-40.311032,-20.311501],"type":"Point"},"properties":{"osm_id":"7028577329","tag":{"amenity":"waste_basket","waste":"trash"}},"type":"Feature"},
	{"geometry":{"coordinates":[-40.302315,-20.312435],"type":"Point"},"properties":{"osm_id":"7028577330","tag":{"amenity":"waste_basket","waste":"trash"}},"type":"Feature"},
	{"geometry":{"coordinates":[-40.301992,-20.314606],"type":"Point"},"properties":{"osm_id":"7028577331","tag":{"amenity":"waste_basket","waste":"trash"}},"type":"Feature"},
	{"geometry":{"coordinates":[-40.30241,-20.31447],"type":"Point"},"properties":{"osm_id":"7028577332","tag":{"amenity":"waste_basket","waste":"trash"}},"type":"Feature"},
	{"geometry":{"coordinates":[-40.305844,-20.312648],"type":"Point"},"properties":{"osm_id":"7028577333","tag":{"amenity":"waste_basket","waste":"trash"}},"type":"Feature"},
	{"geometry":{"coordinates":[-40.302444,-20.314659],"type":"Point"},"properties":{"osm_id":"7028577334","tag":{"amenity":"waste_basket","waste":"trash"}},"type":"Feature"},
	{"geometry":{"coordinates":[-40.303181,-20.314569],"type":"Point"},"properties":{"osm_id":"7028577335","tag":{"amenity":"waste_basket","waste":"trash"}},"type":"Feature"},
	{"geometry":{"coordinates":[-40.314394,-20.303911],"type":"Point"},"properties":{"osm_id":"7028577427","tag":{"amenity":"waste_basket","waste":"trash"}},"type":"Feature"},
	{"geometry":{"coordinates":[-40.314371,-20.304344],"type":"Point"},"properties":{"osm_id":"7028577428","tag":{"amenity":"waste_basket","waste":"trash"}},"type":"Feature"},
	{"geometry":{"coordinates":[-40.301929,-20.315239],"type":"Point"},"properties":{"osm_id":"7028577435","tag":{"amenity":"waste_basket","waste":"trash"}},"type":"Feature"},
	{"geometry":{"coordinates":[-40.302132,-20.313431],"type":"Point"},"properties":{"osm_id":"7028577440","tag":{"amenity":"waste_basket","waste":"trash"}},"type":"Feature"},
	{"geometry":{"coordinates":[-40.302464,-20.311136],"type":"Point"},"properties":{"osm_id":"7028577441","tag":{"amenity":"waste_basket","waste":"trash"}},"type":"Feature"},
	{"geometry":{"coordinates":[-40.30054,-20.314105],"type":"Point"},"properties":{"osm_id":"7028577442","tag":{"amenity":"waste_basket","waste":"trash"}},"type":"Feature"},
	{"geometry":{"coordinates":[-40.302008,-20.314429],"type":"Point"},"properties":{"osm_id":"7028577443","tag":{"amenity":"waste_basket","waste":"trash"}},"type":"Feature"},
	{"geometry":{"coordinates":[-40.296339,-20.316308],"type":"Point"},"properties":{"osm_id":"7028577445","tag":{"amenity":"waste_basket","waste":"trash"}},"type":"Feature"},
	{"geometry":{"coordinates":[-40.298561,-20.316673],"type":"Point"},"properties":{"osm_id":"7028577454","tag":{"amenity":"waste_basket","waste":"trash"}},"type":"Feature"},
	{"geometry":{"coordinates":[-40.304757,-20.316],"type":"Point"},"properties":{"osm_id":"7028577456","tag":{"amenity":"waste_basket","waste":"trash"}},"type":"Feature"},
	{"geometry":{"coordinates":[-40.306139,-20.316324],"type":"Point"},"properties":{"osm_id":"7028577457","tag":{"amenity":"waste_basket","waste":"trash"}},"type":"Feature"},
	{"geometry":{"coordinates":[-40.300941,-20.315766],"type":"Point"},"properties":{"osm_id":"7028577460","tag":{"amenity":"waste_basket","waste":"trash"}},"type":"Feature"},
	{"geometry":{"coordinates":[-40.303222,-20.315434],"type":"Point"},"properties":{"osm_id":"7028577461","tag":{"amenity":"waste_basket","waste":"trash"}},"type":"Feature"},
	{"geometry":{"coordinates":[-40.303052,-20.307007],"type":"Point"},"properties":{"osm_id":"7028577464","tag":{"amenity":"waste_basket","waste":"trash"}},"type":"Feature"},
	{"geometry":{"coordinates":[-40.303424,-20.304343],"type":"Point"},"properties":{"osm_id":"7028577465","tag":{"amenity":"waste_basket","waste":"trash"}},"type":"Feature"},
	{"geometry":{"coordinates":[-40.302732,-20.307646],"type":"Point"},"properties":{"osm_id":"7028577466","tag":{"amenity":"waste_basket","waste":"trash"}},"type":"Feature"},
	{"geometry":{"coordinates":[-40.296503,-20.31349],"type":"Point"},"properties":{"osm_id":"7028577467","tag":{"amenity":"waste_basket","waste":"trash"}},"type":"Feature"},
	{"geometry":{"coordinates":[-40.302902,-20.306384],"type":"Point"},"properties":{"osm_id":"7028577469","tag":{"amenity":"waste_basket","waste":"trash"}},"type":"Feature"},
	{"geometry":{"coordinates":[-40.296005,-20.313238],"type":"Point"},"properties":{"osm_id":"7028577470","tag":{"amenity":"waste_basket","waste":"trash"}},"type":"Feature"},
	{"geometry":{"coordinates":[-40.302594,-20.30833],"type":"Point"},"properties":{"osm_id":"7028577473","tag":{"amenity":"waste_basket","waste":"trash"}},"type":"Feature"},
	{"geometry":{"coordinates":[-40.302335,-20.310261],"type":"Point"},"properties":{"osm_id":"7028577474","tag":{"amenity":"waste_basket","waste":"trash"}},"type":"Feature"},
	{"geometry":{"coordinates":[-40.301026,-20.309971],"type":"Point"},"properties":{"osm_id":"7028577475","tag":{"amenity":"waste_basket","waste":"trash"}},"type":"Feature"},
	{"geometry":{"coordinates":[-40.302141,-20.311763],"type":"Point"},"properties":{"osm_id":"7028577476","tag":{"amenity":"waste_basket","waste":"trash"}},"type":"Feature"},
	{"geometry":{"coordinates":[-40.301994,-20.312753],"type":"Point"},"properties":{"osm_id":"7028577477","tag":{"amenity":"waste_basket","waste":"trash"}},"type":"Feature"},
	{"geometry":{"coordinates":[-40.302166,-20.313288],"type":"Point"},"properties":{"osm_id":"7028577478","tag":{"amenity":"waste_basket","waste":"trash"}},"type":"Feature"},
	{"geometry":{"coordinates":[-40.314375,-20.309327],"type":"Point"},"properties":{"osm_id":"7028577481","tag":{"amenity":"waste_basket","waste":"trash"}},"type":"Feature"},
	{"geometry":{"coordinates":[-40.314502,-20.309047],"type":"Point"},"properties":{"osm_id":"7028577482","tag":{"amenity":"waste_basket","waste":"trash"}},"type":"Feature"},
	{"geometry":{"coordinates":[-40.314531,-20.310626],"type":"Point"},"properties":{"osm_id":"7028577483","tag":{"amenity":"waste_basket","waste":"trash"}},"type":"Feature"},
	{"geometry":{"coordinates":[-40.314389,-20.310371],"type":"Point"},"properties":{"osm_id":"7028577484","tag":{"amenity":"waste_basket","waste":"trash"}},"type":"Feature"},
	{"geometry":{"coordinates":[-40.314514,-20.31023],"type":"Point"},"properties":{"osm_id":"7028577485","tag":{"amenity":"waste_basket","waste":"trash"}},"type":"Feature"},
	{"geometry":{"coordinates":[-40.314418,-20.30521],"type":"Point"},"properties":{"osm_id":"7028577487","tag":{"amenity":"waste_basket","waste":"trash"}},"type":"Feature"},
	{"geometry":{"coordinates":[-40.31431,-20.305166],"type":"Point"},"properties":{"osm_id":"7028577488","tag":{"amenity":"waste_basket","waste":"trash"}},"type":"Feature"},
	{"geometry":{"coordinates":[-40.314263,-20.30421],"type":"Point"},"properties":{"osm_id":"7028577490","tag":{"amenity":"waste_basket","waste":"trash"}},"type":"Feature"},
	{"geometry":{"coordinates":[-40.314301,-20.306206],"type":"Point"},"properties":{"osm_id":"7028577495","tag":{"amenity":"waste_basket","waste":"trash"}},"type":"Feature"},
	{"geometry":{"coordinates":[-40.314432,-20.306672],"type":"Point"},"properties":{"osm_id":"7028577496","tag":{"amenity":"waste_basket","waste":"trash"}},"type":"Feature"},
	{"geometry":{"coordinates":[-40.314309,-20.30718],"type":"Point"},"properties":{"osm_id":"7028577497","tag":{"amenity":"waste_basket","waste":"trash"}},"type":"Feature"},
	{"geometry":{"coordinates":[-40.314339,-20.307799],"type":"Point"},"properties":{"osm_id":"7028577498","tag":{"amenity":"waste_basket","waste":"trash"}},"type":"Feature"},
	{"geometry":{"coordinates":[-40.314447,-20.307794],"type":"Point"},"properties":{"osm_id":"7028577499","tag":{"amenity":"waste_basket","waste":"trash"}},"type":"Feature"},
	{"geometry":{"coordinates":[-40.290463,-20.308622],"type":"Point"},"properties":{"osm_id":"7028577521","tag":{"amenity":"waste_basket","waste":"trash"}},"type":"Feature"},
	{"geometry":{"coordinates":[-40.291937,-20.305613],"type":"Point"},"properties":{"osm_id":"7028577523","tag":{"amenity":"waste_basket","waste":"trash"}},"type":"Feature"},
	{"geometry":{"coordinates":[-40.291341,-20.305694],"type":"Point"},"properties":{"osm_id":"7028577524","tag":{"amenity":"waste_basket","waste":"trash"}},"type":"Feature"},
	{"geometry":{"coordinates":[-40.291419,-20.307747],"type":"Point"},"properties":{"osm_id":"7028577525","tag":{"amenity":"waste_basket","waste":"trash"}},"type":"Feature"},
	{"geometry":{"coordinates":[-40.291385,-20.307303],"type":"Point"},"properties":{"osm_id":"7028577526","tag":{"amenity":"waste_basket","waste":"trash"}},"type":"Feature"},
	{"geometry":{"coordinates":[-40.291183,-20.306219],"type":"Point"},"properties":{"osm_id":"7028577530","tag":{"amenity":"waste_basket","waste":"trash"}},"type":"Feature"},
	{"geometry":{"coordinates":[-40.291098,-20.306595],"type":"Point"},"properties":{"osm_id":"7028577531","tag":{"amenity":"waste_basket","waste":"trash"}},"type":"Feature"},
	{"geometry":{"coordinates":[-40.291084,-20.306839],"type":"Point"},"properties":{"osm_id":"7028577539","tag":{"amenity":"waste_basket","waste":"trash"}},"type":"Feature"},
	{"geometry":{"coordinates":[-40.290934,-20.307172],"type":"Point"},"properties":{"osm_id":"7028577540","tag":{"amenity":"waste_basket","waste":"trash"}},"type":"Feature"},
	{"geometry":{"coordinates":[-40.290756,-20.307517],"type":"Point"},"properties":{"osm_id":"7028577541","tag":{"amenity":"waste_basket","waste":"trash"}},"type":"Feature"},
	{"geometry":{"coordinates":[-40.290469,-20.308029],"type":"Point"},"properties":{"osm_id":"7028577542","tag":{"amenity":"waste_basket","waste":"trash"}},"type":"Feature"},
	{"geometry":{"coordinates":[-40.29295,-20.316287],"type":"Point"},"properties":{"osm_id":"7028577548","tag":{"amenity":"waste_basket","waste":"trash"}},"type":"Feature"},
	{"geometry":{"coordinates":[-40.29709,-20.316366],"type":"Point"},"properties":{"osm_id":"7028577549","tag":{"amenity":"waste_basket","waste":"trash"}},"type":"Feature"},
	{"geometry":{"coordinates":[-40.294763,-20.317681],"type":"Point"},"properties":{"osm_id":"7028577554","tag":{"amenity":"waste_basket","waste":"trash"}},"type":"Feature"},
	{"geometry":{"coordinates":[-40.294337,-20.317275],"type":"Point"},"properties":{"osm_id":"7028577555","tag":{"amenity":"waste_basket","waste":"trash"}},"type":"Feature"},
	{"geometry":{"coordinates":[-40.295067,-20.316395],"type":"Point"},"properties":{"osm_id":"7028577556","tag":{"amenity":"waste_basket","waste":"trash"}},"type":"Feature"},
	{"geometry":{"coordinates":[-40.294204,-20.316374],"type":"Point"},"properties":{"osm_id":"7028577557","tag":{"amenity":"waste_basket","waste":"trash"}},"type":"Feature"},
	{"geometry":{"coordinates":[-40.290202,-20.313944],"type":"Point"},"properties":{"osm_id":"7028577558","tag":{"amenity":"waste_basket","waste":"trash"}},"type":"Feature"},
	{"geometry":{"coordinates":[-40.28994,-20.313734],"type":"Point"},"properties":{"osm_id":"7028577559","tag":{"amenity":"waste_basket","waste":"trash"}},"type":"Feature"},
	{"geometry":{"coordinates":[-40.337721,-20.316702],"type":"Point"},"properties":{"osm_id":"7028577561","tag":{"amenity":"waste_basket","waste":"trash"}},"type":"Feature"},
	{"geometry":{"coordinates":[-40.336813,-20.320076],"type":"Point"},"properties":{"osm_id":"7028577562","tag":{"amenity":"waste_basket","waste":"trash"}},"type":"Feature"},
	{"geometry":{"coordinates":[-40.306289,-20.317726],"type":"Point"},"properties":{"osm_id":"7028577563","tag":{"amenity":"waste_basket","waste":"trash"}},"type":"Feature"},
	{"geometry":{"coordinates":[-40.306967,-20.318192],"type":"Point"},"properties":{"osm_id":"7028577564","tag":{"amenity":"waste_basket","waste":"trash"}},"type":"Feature"},
	{"geometry":{"coordinates":[-40.308241,-20.31818],"type":"Point"},"properties":{"osm_id":"7028577565","tag":{"amenity":"waste_basket","waste":"trash"}},"type":"Feature"},
	{"geometry":{"coordinates":[-40.301869,-20.315544],"type":"Point"},"properties":{"osm_id":"7028577566","tag":{"amenity":"waste_basket","waste":"trash"}},"type":"Feature"},
	{"geometry":{"coordinates":[-40.30301,-20.315628],"type":"Point"},"properties":{"osm_id":"7028577567","tag":{"amenity":"waste_basket","waste":"trash"}},"type":"Feature"},
	{"geometry":{"coordinates":[-40.322522,-20.318376],"type":"Point"},"properties":{"osm_id":"7028577568","tag":{"amenity":"waste_basket","waste":"trash"}},"type":"Feature"},
	{"geometry":{"coordinates":[-40.334596,-20.321339],"type":"Point"},"properties":{"osm_id":"7028577569","tag":{"amenity":"waste_basket","waste":"trash"}},"type":"Feature"},
	{"geometry":{"coordinates":[-40.321513,-20.318044],"type":"Point"},"properties":{"osm_id":"7028577570","tag":{"amenity":"waste_basket","waste":"trash"}},"type":"Feature"},
	{"geometry":{"coordinates":[-40.319646,-20.317724],"type":"Point"},"properties":{"osm_id":"7028577571","tag":{"amenity":"waste_basket","waste":"trash"}},"type":"Feature"},
	{"geometry":{"coordinates":[-40.317921,-20.31743],"type":"Point"},"properties":{"osm_id":"7028577572","tag":{"amenity":"waste_basket","waste":"trash"}},"type":"Feature"},
	{"geometry":{"coordinates":[-40.317812,-20.317266],"type":"Point"},"properties":{"osm_id":"7028577573","tag":{"amenity":"waste_basket","waste":"trash"}},"type":"Feature"},
	{"geometry":{"coordinates":[-40.318048,-20.317711],"type":"Point"},"properties":{"osm_id":"7028577574","tag":{"amenity":"waste_basket","waste":"trash"}},"type":"Feature"},
	{"geometry":{"coordinates":[-40.331646,-20.32099],"type":"Point"},"properties":{"osm_id":"7028577575","tag":{"amenity":"waste_basket","waste":"trash"}},"type":"Feature"},
	{"geometry":{"coordinates":[-40.331343,-20.320938],"type":"Point"},"properties":{"osm_id":"7028577576","tag":{"amenity":"waste_basket","waste":"trash"}},"type":"Feature"},
	{"geometry":{"coordinates":[-40.332191,-20.321062],"type":"Point"},"properties":{"osm_id":"7028577577","tag":{"amenity":"waste_basket","waste":"trash"}},"type":"Feature"},
	{"geometry":{"coordinates":[-40.309364,-20.31814],"type":"Point"},"properties":{"osm_id":"7028577578","tag":{"amenity":"waste_basket","waste":"trash"}},"type":"Feature"},
	{"geometry":{"coordinates":[-40.309902,-20.318093],"type":"Point"},"properties":{"osm_id":"7028577579","tag":{"amenity":"waste_basket","waste":"trash"}},"type":"Feature"},
	{"geometry":{"coordinates":[-40.310641,-20.317909],"type":"Point"},"properties":{"osm_id":"7028577580","tag":{"amenity":"waste_basket","waste":"trash"}},"type":"Feature"},
	{"geometry":{"coordinates":[-40.305406,-20.317171],"type":"Point"},"properties":{"osm_id":"7028577581","tag":{"amenity":"waste_basket","waste":"trash"}},"type":"Feature"},
	{"geometry":{"coordinates":[-40.305033,-20.316794],"type":"Point"},"properties":{"osm_id":"7028577582","tag":{"amenity":"waste_basket","waste":"trash"}},"type":"Feature"},
	{"geometry":{"coordinates":[-40.311674,-20.317142],"type":"Point"},"properties":{"osm_id":"7028577583","tag":{"amenity":"waste_basket","waste":"trash"}},"type":"Feature"},
	{"geometry":{"coordinates":[-40.313437,-20.316544],"type":"Point"},"properties":{"osm_id":"7028577584","tag":{"amenity":"waste_basket","waste":"trash"}},"type":"Feature"},
	{"geometry":{"coordinates":[-40.313364,-20.316734],"type":"Point"},"properties":{"osm_id":"7028577585","tag":{"amenity":"waste_basket","waste":"trash"}},"type":"Feature"},
	{"geometry":{"coordinates":[-40.313849,-20.316778],"type":"Point"},"properties":{"osm_id":"7028577586","tag":{"amenity":"waste_basket","waste":"trash"}},"type":"Feature"},
	{"geometry":{"coordinates":[-40.316046,-20.317109],"type":"Point"},"properties":{"osm_id":"7028577587","tag":{"amenity":"waste_basket","waste":"trash"}},"type":"Feature"},
	{"geometry":{"coordinates":[-40.300122,-20.310646],"type":"Point"},"properties":{"osm_id":"7028577588","tag":{"amenity":"waste_basket","waste":"trash"}},"type":"Feature"},
	{"geometry":{"coordinates":[-40.297617,-20.310506],"type":"Point"},"properties":{"osm_id":"7028577589","tag":{"amenity":"waste_basket","waste":"trash"}},"type":"Feature"},
	{"geometry":{"coordinates":[-40.302086,-20.311158],"type":"Point"},"properties":{"osm_id":"7028577590","tag":{"amenity":"waste_basket","waste":"trash"}},"type":"Feature"},
	{"geometry":{"coordinates":[-40.299815,-20.310821],"type":"Point"},"properties":{"osm_id":"7028577591","tag":{"amenity":"waste_basket","waste":"trash"}},"type":"Feature"},
	{"geometry":{"coordinates":[-40.302475,-20.311451],"type":"Point"},"properties":{"osm_id":"7028577592","tag":{"amenity":"waste_basket","waste":"trash"}},"type":"Feature"},
	{"geometry":{"coordinates":[-40.303045,-20.311552],"type":"Point"},"properties":{"osm_id":"7028577593","tag":{"amenity":"waste_basket","waste":"trash"}},"type":"Feature"},
	{"geometry":{"coordinates":[-40.296784,-20.310547],"type":"Point"},"properties":{"osm_id":"7028577594","tag":{"amenity":"waste_basket","waste":"trash"}},"type":"Feature"},
	{"geometry":{"coordinates":[-40.296635,-20.309859],"type":"Point"},"properties":{"osm_id":"7028577595","tag":{"amenity":"waste_basket","waste":"trash"}},"type":"Feature"},
	{"geometry":{"coordinates":[-40.307713,-20.30991],"type":"Point"},"properties":{"osm_id":"7028577596","tag":{"amenity":"waste_basket","waste":"trash"}},"type":"Feature"},
	{"geometry":{"coordinates":[-40.296888,-20.310692],"type":"Point"},"properties":{"osm_id":"7028577597","tag":{"amenity":"waste_basket","waste":"trash"}},"type":"Feature"},
	{"geometry":{"coordinates":[-40.302191,-20.311416],"type":"Point"},"properties":{"osm_id":"7028577598","tag":{"amenity":"waste_basket","waste":"trash"}},"type":"Feature"},
	{"geometry":{"coordinates":[-40.316652,-20.311206],"type":"Point"},"properties":{"osm_id":"7028577599","tag":{"amenity":"waste_basket","waste":"trash"}},"type":"Feature"},
	{"geometry":{"coordinates":[-40.319447,-20.311365],"type":"Point"},"properties":{"osm_id":"7028577600","tag":{"amenity":"waste_basket","waste":"trash"}},"type":"Feature"},
	{"geometry":{"coordinates":[-40.323548,-20.316601],"type":"Point"},"properties":{"osm_id":"7028577601","tag":{"amenity":"waste_basket","waste":"trash"}},"type":"Feature"},
	{"geometry":{"coordinates":[-40.322304,-20.314923],"type":"Point"},"properties":{"osm_id":"7028577602","tag":{"amenity":"waste_basket","waste":"trash"}},"type":"Feature"},
	{"geometry":{"coordinates":[-40.323231,-20.316192],"type":"Point"},"properties":{"osm_id":"7028577603","tag":{"amenity":"waste_basket","waste":"trash"}},"type":"Feature"},
	{"geometry":{"coordinates":[-40.319258,-20.311574],"type":"Point"},"properties":{"osm_id":"7028577604","tag":{"amenity":"waste_basket","waste":"trash"}},"type":"Feature"},
	{"geometry":{"coordinates":[-40.319701,-20.311414],"type":"Point"},"properties":{"osm_id":"7028577605","tag":{"amenity":"waste_basket","waste":"trash"}},"type":"Feature"},
	{"geometry":{"coordinates":[-40.300523,-20.310925],"type":"Point"},"properties":{"osm_id":"7028577606","tag":{"amenity":"waste_basket","waste":"trash"}},"type":"Feature"},
	{"geometry":{"coordinates":[-40.304033,-20.311421],"type":"Point"},"properties":{"osm_id":"7028577607","tag":{"amenity":"waste_basket","waste":"trash"}},"type":"Feature"},
	{"geometry":{"coordinates":[-40.324074,-20.317327],"type":"Point"},"properties":{"osm_id":"7028577608","tag":{"amenity":"waste_basket","waste":"trash"}},"type":"Feature"},
	{"geometry":{"coordinates":[-40.3245,-20.3179],"type":"Point"},"properties":{"osm_id":"7028577609","tag":{"amenity":"waste_basket","waste":"trash"}},"type":"Feature"},
	{"geometry":{"coordinates":[-40.313859,-20.310787],"type":"Point"},"properties":{"osm_id":"7028577610","tag":{"amenity":"waste_basket","waste":"trash"}},"type":"Feature"},
	{"geometry":{"coordinates":[-40.316996,-20.311259],"type":"Point"},"properties":{"osm_id":"7028577611","tag":{"amenity":"waste_basket","waste":"trash"}},"type":"Feature"},
	{"geometry":{"coordinates":[-40.286921,-20.309551],"type":"Point"},"properties":{"osm_id":"7028577612","tag":{"amenity":"waste_basket","waste":"trash"}},"type":"Feature"},
	{"geometry":{"coordinates":[-40.320603,-20.312027],"type":"Point"},"properties":{"osm_id":"7028577613","tag":{"amenity":"waste_basket","waste":"trash"}},"type":"Feature"},
	{"geometry":{"coordinates":[-40.312894,-20.310434],"type":"Point"},"properties":{"osm_id":"7028577614","tag":{"amenity":"waste_basket","waste":"trash"}},"type":"Feature"},
	{"geometry":{"coordinates":[-40.320109,-20.312027],"type":"Point"},"properties":{"osm_id":"7028577615","tag":{"amenity":"waste_basket","waste":"trash"}},"type":"Feature"},
	{"geometry":{"coordinates":[-40.321729,-20.313756],"type":"Point"},"properties":{"osm_id":"7028577616","tag":{"amenity":"waste_basket","waste":"trash"}},"type":"Feature"},
	{"geometry":{"coordinates":[-40.32101,-20.313217],"type":"Point"},"properties":{"osm_id":"7028577617","tag":{"amenity":"waste_basket","waste":"trash"}},"type":"Feature"},
	{"geometry":{"coordinates":[-40.321812,-20.314288],"type":"Point"},"properties":{"osm_id":"7028577618","tag":{"amenity":"waste_basket","waste":"trash"}},"type":"Feature"},
	{"geometry":{"coordinates":[-40.322996,-20.31546],"type":"Point"},"properties":{"osm_id":"7028577619","tag":{"amenity":"waste_basket","waste":"trash"}},"type":"Feature"},
	{"geometry":{"coordinates":[-40.322579,-20.314887],"type":"Point"},"properties":{"osm_id":"7028577620","tag":{"amenity":"waste_basket","waste":"trash"}},"type":"Feature"},
	{"geometry":{"coordinates":[-40.323502,-20.316137],"type":"Point"},"properties":{"osm_id":"7028577621","tag":{"amenity":"waste_basket","waste":"trash"}},"type":"Feature"},
	{"geometry":{"coordinates":[-40.32592,-20.319898],"type":"Point"},"properties":{"osm_id":"7028577622","tag":{"amenity":"waste_basket","waste":"trash"}},"type":"Feature"},
	{"geometry":{"coordinates":[-40.324394,-20.317327],"type":"Point"},"properties":{"osm_id":"7028577623","tag":{"amenity":"waste_basket","waste":"trash"}},"type":"Feature"},
	{"geometry":{"coordinates":[-40.315988,-20.311102],"type":"Point"},"properties":{"osm_id":"7028577624","tag":{"amenity":"waste_basket","waste":"trash"}},"type":"Feature"},
	{"geometry":{"coordinates":[-40.298834,-20.310681],"type":"Point"},"properties":{"osm_id":"7028577625","tag":{"amenity":"waste_basket","waste":"trash"}},"type":"Feature"},
	{"geometry":{"coordinates":[-40.328503,-20.320226],"type":"Point"},"properties":{"osm_id":"7028577626","tag":{"amenity":"waste_basket","waste":"trash"}},"type":"Feature"},
	{"geometry":{"coordinates":[-40.316458,-20.311187],"type":"Point"},"properties":{"osm_id":"7028577627","tag":{"amenity":"waste_basket","waste":"trash"}},"type":"Feature"},
	{"geometry":{"coordinates":[-40.309062,-20.31011],"type":"Point"},"properties":{"osm_id":"7028577628","tag":{"amenity":"waste_basket","waste":"trash"}},"type":"Feature"},
	{"geometry":{"coordinates":[-40.305898,-20.310405],"type":"Point"},"properties":{"osm_id":"7028577629","tag":{"amenity":"waste_basket","waste":"trash"}},"type":"Feature"},
	{"geometry":{"coordinates":[-40.314398,-20.310523],"type":"Point"},"properties":{"osm_id":"7028577630","tag":{"amenity":"waste_basket","waste":"trash"}},"type":"Feature"},
	{"geometry":{"coordinates":[-40.313317,-20.310491],"type":"Point"},"properties":{"osm_id":"7028577631","tag":{"amenity":"waste_basket","waste":"trash"}},"type":"Feature"},
	{"geometry":{"coordinates":[-40.295357,-20.30898],"type":"Point"},"properties":{"osm_id":"7028577632","tag":{"amenity":"waste_basket","waste":"trash"}},"type":"Feature"},
	{"geometry":{"coordinates":[-40.309546,-20.309941],"type":"Point"},"properties":{"osm_id":"7028577633","tag":{"amenity":"waste_basket","waste":"trash"}},"type":"Feature"},
	{"geometry":{"coordinates":[-40.310913,-20.310155],"type":"Point"},"properties":{"osm_id":"7028577634","tag":{"amenity":"waste_basket","waste":"trash"}},"type":"Feature"},
	{"geometry":{"coordinates":[-40.303424,-20.31163],"type":"Point"},"properties":{"osm_id":"7028577635","tag":{"amenity":"waste_basket","waste":"trash"}},"type":"Feature"},
	{"geometry":{"coordinates":[-40.305409,-20.310498],"type":"Point"},"properties":{"osm_id":"7028577636","tag":{"amenity":"waste_basket","waste":"trash"}},"type":"Feature"},
	{"geometry":{"coordinates":[-40.298209,-20.310834],"type":"Point"},"properties":{"osm_id":"7028577637","tag":{"amenity":"waste_basket","waste":"trash"}},"type":"Feature"},
	{"geometry":{"coordinates":[-40.29894,-20.311013],"type":"Point"},"properties":{"osm_id":"7028577638","tag":{"amenity":"waste_basket","waste":"trash"}},"type":"Feature"},
	{"geometry":{"coordinates":[-40.320155,-20.318232],"type":"Point"},"properties":{"osm_id":"7028577639","tag":{"amenity":"waste_basket","waste":"trash"}},"type":"Feature"},
	{"geometry":{"coordinates":[-40.320978,-20.318222],"type":"Point"},"properties":{"osm_id":"7028577640","tag":{"amenity":"waste_basket","waste":"trash"}},"type":"Feature"},
	{"geometry":{"coordinates":[-40.29874,-20.310943],"type":"Point"},"properties":{"osm_id":"7028577641","tag":{"amenity":"waste_basket","waste":"trash"}},"type":"Feature"},
	{"geometry":{"coordinates":[-40.29886,-20.311073],"type":"Point"},"properties":{"osm_id":"7028577642","tag":{"amenity":"waste_basket","waste":"trash"}},"type":"Feature"},
	{"geometry":{"coordinates":[-40.302855,-20.311543],"type":"Point"},"properties":{"osm_id":"7028577643","tag":{"amenity":"waste_basket","waste":"trash"}},"type":"Feature"},
	{"geometry":{"coordinates":[-40.321484,-20.313849],"type":"Point"},"properties":{"osm_id":"7028577644","tag":{"amenity":"waste_basket","waste":"trash"}},"type":"Feature"},
	{"geometry":{"coordinates":[-40.307296,-20.309945],"type":"Point"},"properties":{"osm_id":"7028577645","tag":{"amenity":"waste_basket","waste":"trash"}},"type":"Feature"},
	{"geometry":{"coordinates":[-40.305672,-20.310204],"type":"Point"},"properties":{"osm_id":"7028577646","tag":{"amenity":"waste_basket","waste":"trash"}},"type":"Feature"},
	{"geometry":{"coordinates":[-40.313715,-20.316766],"type":"Point"},"properties":{"osm_id":"7028577647","tag":{"amenity":"waste_basket","waste":"trash"}},"type":"Feature"},
	{"geometry":{"coordinates":[-40.317475,-20.317632],"type":"Point"},"properties":{"osm_id":"7028577648","tag":{"amenity":"waste_basket","waste":"trash"}},"type":"Feature"},
	{"geometry":{"coordinates":[-40.312582,-20.317106],"type":"Point"},"properties":{"osm_id":"7028577649","tag":{"amenity":"waste_basket","waste":"trash"}},"type":"Feature"},
	{"geometry":{"coordinates":[-40.310012,-20.318337],"type":"Point"},"properties":{"osm_id":"7028577650","tag":{"amenity":"waste_basket","waste":"trash"}},"type":"Feature"},
	{"geometry":{"coordinates":[-40.308453,-20.318424],"type":"Point"},"properties":{"osm_id":"7028577651","tag":{"amenity":"waste_basket","waste":"trash"}},"type":"Feature"},
	{"geometry":{"coordinates":[-40.322065,-20.318524],"type":"Point"},"properties":{"osm_id":"7028577652","tag":{"amenity":"waste_basket","waste":"trash"}},"type":"Feature"},
	{"geometry":{"coordinates":[-40.324965,-20.320677],"type":"Point"},"properties":{"osm_id":"7028577653","tag":{"amenity":"waste_basket","waste":"trash"}},"type":"Feature"},
	{"geometry":{"coordinates":[-40.322971,-20.318914],"type":"Point"},"properties":{"osm_id":"7028577654","tag":{"amenity":"waste_basket","waste":"trash"}},"type":"Feature"},
	{"geometry":{"coordinates":[-40.322412,-20.31871],"type":"Point"},"properties":{"osm_id":"7028577655","tag":{"amenity":"waste_basket","waste":"trash"}},"type":"Feature"},
	{"geometry":{"coordinates":[-40.289565,-20.309328],"type":"Point"},"properties":{"osm_id":"7028577656","tag":{"amenity":"waste_basket","waste":"trash"}},"type":"Feature"},
	{"geometry":{"coordinates":[-40.285417,-20.310789],"type":"Point"},"properties":{"osm_id":"7028577657","tag":{"amenity":"waste_basket","waste":"trash"}},"type":"Feature"},
	{"geometry":{"coordinates":[-40.289113,-20.312248],"type":"Point"},"properties":{"osm_id":"7028577658","tag":{"amenity":"waste_basket","waste":"trash"}},"type":"Feature"},
	{"geometry":{"coordinates":[-40.286395,-20.309775],"type":"Point"},"properties":{"osm_id":"7028577659","tag":{"amenity":"waste_basket","waste":"trash"}},"type":"Feature"},
	{"geometry":{"coordinates":[-40.315614,-20.311055],"type":"Point"},"properties":{"osm_id":"7028577660","tag":{"amenity":"waste_basket","waste":"trash"}},"type":"Feature"},
	{"geometry":{"coordinates":[-40.31452,-20.310919],"type":"Point"},"properties":{"osm_id":"7028577661","tag":{"amenity":"waste_basket","waste":"trash"}},"type":"Feature"},
	{"geometry":{"coordinates":[-40.318859,-20.311511],"type":"Point"},"properties":{"osm_id":"7028577662","tag":{"amenity":"waste_basket","waste":"trash"}},"type":"Feature"},
	{"geometry":{"coordinates":[-40.289359,-20.312268],"type":"Point"},"properties":{"osm_id":"7028577663","tag":{"amenity":"waste_basket","waste":"trash"}},"type":"Feature"},
	{"geometry":{"coordinates":[-40.289077,-20.312113],"type":"Point"},"properties":{"osm_id":"7028577664","tag":{"amenity":"waste_basket","waste":"trash"}},"type":"Feature"},
	{"geometry":{"coordinates":[-40.289623,-20.312278],"type":"Point"},"properties":{"osm_id":"7028577665","tag":{"amenity":"waste_basket","waste":"trash"}},"type":"Feature"},
	{"geometry":{"coordinates":[-40.288596,-20.309584],"type":"Point"},"properties":{"osm_id":"7028577666","tag":{"amenity":"waste_basket","waste":"trash"}},"type":"Feature"},
	{"geometry":{"coordinates":[-40.289078,-20.309516],"type":"Point"},"properties":{"osm_id":"7028577667","tag":{"amenity":"waste_basket","waste":"trash"}},"type":"Feature"},
	{"geometry":{"coordinates":[-40.287471,-20.310075],"type":"Point"},"properties":{"osm_id":"7028577668","tag":{"amenity":"waste_basket","waste":"trash"}},"type":"Feature"},
	{"geometry":{"coordinates":[-40.286324,-20.313098],"type":"Point"},"properties":{"osm_id":"7028577669","tag":{"amenity":"waste_basket","waste":"trash"}},"type":"Feature"},
	{"geometry":{"coordinates":[-40.287053,-20.309504],"type":"Point"},"properties":{"osm_id":"7028577670","tag":{"amenity":"waste_basket","waste":"trash"}},"type":"Feature"},
	{"geometry":{"coordinates":[-40.286783,-20.309584],"type":"Point"},"properties":{"osm_id":"7028577671","tag":{"amenity":"waste_basket","waste":"trash"}},"type":"Feature"},
	{"geometry":{"coordinates":[-40.285364,-20.310329],"type":"Point"},"properties":{"osm_id":"7028577672","tag":{"amenity":"waste_basket","waste":"trash"}},"type":"Feature"},
	{"geometry":{"coordinates":[-40.289648,-20.309646],"type":"Point"},"properties":{"osm_id":"7028577673","tag":{"amenity":"waste_basket","waste":"trash"}},"type":"Feature"},
	{"geometry":{"coordinates":[-40.286492,-20.309718],"type":"Point"},"properties":{"osm_id":"7028577674","tag":{"amenity":"waste_basket","waste":"trash"}},"type":"Feature"},
	{"geometry":{"coordinates":[-40.288723,-20.31457],"type":"Point"},"properties":{"osm_id":"7028577675","tag":{"amenity":"waste_basket","waste":"trash"}},"type":"Feature"},
	{"geometry":{"coordinates":[-40.28928,-20.312115],"type":"Point"},"properties":{"osm_id":"7028577676","tag":{"amenity":"waste_basket","waste":"trash"}},"type":"Feature"},
	{"geometry":{"coordinates":[-40.291849,-20.307493],"type":"Point"},"properties":{"osm_id":"7028577677","tag":{"amenity":"waste_basket","waste":"trash"}},"type":"Feature"},
	{"geometry":{"coordinates":[-40.290896,-20.308667],"type":"Point"},"properties":{"osm_id":"7028577678","tag":{"amenity":"waste_basket","waste":"trash"}},"type":"Feature"},
	{"geometry":{"coordinates":[-40.290323,-20.310147],"type":"Point"},"properties":{"osm_id":"7028577679","tag":{"amenity":"waste_basket","waste":"trash"}},"type":"Feature"},
	{"geometry":{"coordinates":[-40.291262,-20.308089],"type":"Point"},"properties":{"osm_id":"7028577680","tag":{"amenity":"waste_basket","waste":"trash"}},"type":"Feature"},
	{"geometry":{"coordinates":[-40.289485,-20.311163],"type":"Point"},"properties":{"osm_id":"7028577681","tag":{"amenity":"waste_basket","waste":"trash"}},"type":"Feature"},
	{"geometry":{"coordinates":[-40.31354,-20.310747],"type":"Point"},"properties":{"osm_id":"7028577682","tag":{"amenity":"waste_basket","waste":"trash"}},"type":"Feature"},
	{"geometry":{"coordinates":[-40.313624,-20.310754],"type":"Point"},"properties":{"osm_id":"7028577683","tag":{"amenity":"waste_basket","waste":"trash"}},"type":"Feature"},
	{"geometry":{"coordinates":[-40.290659,-20.314373],"type":"Point"},"properties":{"osm_id":"7028577684","tag":{"amenity":"waste_basket","waste":"trash"}},"type":"Feature"},
	{"geometry":{"coordinates":[-40.295203,-20.316742],"type":"Point"},"properties":{"osm_id":"7028577685","tag":{"amenity":"waste_basket","waste":"trash"}},"type":"Feature"},
	{"geometry":{"coordinates":[-40.289364,-20.314295],"type":"Point"},"properties":{"osm_id":"7028577686","tag":{"amenity":"waste_basket","waste":"trash"}},"type":"Feature"},
	{"geometry":{"coordinates":[-40.295577,-20.316028],"type":"Point"},"properties":{"osm_id":"7028577687","tag":{"amenity":"waste_basket","waste":"trash"}},"type":"Feature"},
	{"geometry":{"coordinates":[-40.295595,-20.317125],"type":"Point"},"properties":{"osm_id":"7028577688","tag":{"amenity":"waste_basket","waste":"trash"}},"type":"Feature"},
	{"geometry":{"coordinates":[-40.292317,-20.316046],"type":"Point"},"properties":{"osm_id":"7028577689","tag":{"amenity":"waste_basket","waste":"trash"}},"type":"Feature"},
	{"geometry":{"coordinates":[-40.294371,-20.315962],"type":"Point"},"properties":{"osm_id":"7028577690","tag":{"amenity":"waste_basket","waste":"trash"}},"type":"Feature"},
	{"geometry":{"coordinates":[-40.298024,-20.316],"type":"Point"},"properties":{"osm_id":"7028577691","tag":{"amenity":"waste_basket","waste":"trash"}},"type":"Feature"},
	{"geometry":{"coordinates":[-40.293477,-20.316026],"type":"Point"},"properties":{"osm_id":"7028577692","tag":{"amenity":"waste_basket","waste":"trash"}},"type":"Feature"},
	{"geometry":{"coordinates":[-40.293197,-20.316026],"type":"Point"},"properties":{"osm_id":"7028577693","tag":{"amenity":"waste_basket","waste":"trash"}},"type":"Feature"},
	{"geometry":{"coordinates":[-40.294107,-20.317872],"type":"Point"},"properties":{"osm_id":"7028577694","tag":{"amenity":"waste_basket","waste":"trash"}},"type":"Feature"},
	{"geometry":{"coordinates":[-40.290423,-20.313375],"type":"Point"},"properties":{"osm_id":"7028577695","tag":{"amenity":"waste_basket","waste":"trash"}},"type":"Feature"},
	{"geometry":{"coordinates":[-40.298651,-20.316235],"type":"Point"},"properties":{"osm_id":"7028577696","tag":{"amenity":"waste_basket","waste":"trash"}},"type":"Feature"},
	{"geometry":{"coordinates":[-40.297122,-20.316014],"type":"Point"},"properties":{"osm_id":"7028577697","tag":{"amenity":"waste_basket","waste":"trash"}},"type":"Feature"},
	{"geometry":{"coordinates":[-40.295004,-20.317442],"type":"Point"},"properties":{"osm_id":"7028577698","tag":{"amenity":"waste_basket","waste":"trash"}},"type":"Feature"},
	{"geometry":{"coordinates":[-40.294373,-20.316827],"type":"Point"},"properties":{"osm_id":"7028577699","tag":{"amenity":"waste_basket","waste":"trash"}},"type":"Feature"},
	{"geometry":{"coordinates":[-40.298384,-20.316785],"type":"Point"},"properties":{"osm_id":"7028577700","tag":{"amenity":"waste_basket","waste":"trash"}},"type":"Feature"},
	{"geometry":{"coordinates":[-40.298637,-20.317093],"type":"Point"},"properties":{"osm_id":"7028577701","tag":{"amenity":"waste_basket","waste":"trash"}},"type":"Feature"},
	{"geometry":{"coordinates":[-40.298936,-20.316248],"type":"Point"},"properties":{"osm_id":"7028577702","tag":{"amenity":"waste_basket","waste":"trash"}},"type":"Feature"},
	{"geometry":{"coordinates":[-40.294208,-20.315989],"type":"Point"},"properties":{"osm_id":"7028577723","tag":{"amenity":"waste_basket","waste":"trash"}},"type":"Feature"},
	{"geometry":{"coordinates":[-40.29592,-20.316351],"type":"Point"},"properties":{"osm_id":"7028577724","tag":{"amenity":"waste_basket","waste":"trash"}},"type":"Feature"},
	{"geometry":{"coordinates":[-40.297731,-20.31634],"type":"Point"},"properties":{"osm_id":"7028577725","tag":{"amenity":"waste_basket","waste":"trash"}},"type":"Feature"},
	{"geometry":{"coordinates":[-40.298655,-20.316842],"type":"Point"},"properties":{"osm_id":"7028577726","tag":{"amenity":"waste_basket","waste":"trash"}},"type":"Feature"},
	{"geometry":{"coordinates":[-40.298484,-20.316159],"type":"Point"},"properties":{"osm_id":"7028577727","tag":{"amenity":"waste_basket","waste":"trash"}},"type":"Feature"},
	{"geometry":{"coordinates":[-40.308493,-20.309809],"type":"Point"},"properties":{"osm_id":"7028577728","tag":{"amenity":"waste_basket","waste":"trash"}},"type":"Feature"},
	{"geometry":{"coordinates":[-40.299142,-20.316616],"type":"Point"},"properties":{"osm_id":"7028577729","tag":{"amenity":"waste_basket","waste":"trash"}},"type":"Feature"},
	{"geometry":{"coordinates":[-40.29683,-20.305438],"type":"Point"},"properties":{"osm_id":"7028577749","tag":{"amenity":"waste_basket","waste":"trash"}},"type":"Feature"},
	{"geometry":{"coordinates":[-40.297235,-20.304412],"type":"Point"},"properties":{"osm_id":"7028577750","tag":{"amenity":"waste_basket","waste":"trash"}},"type":"Feature"},
	{"geometry":{"coordinates":[-40.296711,-20.305188],"type":"Point"},"properties":{"osm_id":"7028577751","tag":{"amenity":"waste_basket","waste":"trash"}},"type":"Feature"},
	{"geometry":{"coordinates":[-40.297643,-20.303449],"type":"Point"},"properties":{"osm_id":"7028577752","tag":{"amenity":"waste_basket","waste":"trash"}},"type":"Feature"},
	{"geometry":{"coordinates":[-40.296056,-20.307967],"type":"Point"},"properties":{"osm_id":"7028577770","tag":{"amenity":"waste_basket","waste":"trash"}},"type":"Feature"},
	{"geometry":{"coordinates":[-40.295002,-20.307505],"type":"Point"},"properties":{"osm_id":"7028577773","tag":{"amenity":"waste_basket","waste":"trash"}},"type":"Feature"},
	{"geometry":{"coordinates":[-40.296588,-20.306627],"type":"Point"},"properties":{"osm_id":"7028577774","tag":{"amenity":"waste_basket","waste":"trash"}},"type":"Feature"},
	{"geometry":{"coordinates":[-40.297222,-20.305109],"type":"Point"},"properties":{"osm_id":"7028577775","tag":{"amenity":"waste_basket","waste":"trash"}},"type":"Feature"},
	{"geometry":{"coordinates":[-40.297109,-20.305362],"type":"Point"},"properties":{"osm_id":"7028577782","tag":{"amenity":"waste_basket","waste":"trash"}},"type":"Feature"},
	{"geometry":{"coordinates":[-40.298918,-20.304075],"type":"Point"},"properties":{"osm_id":"7028577802","tag":{"amenity":"waste_basket","waste":"trash"}},"type":"Feature"},
	{"geometry":{"coordinates":[-40.341067,-20.318976],"type":"Point"},"properties":{"osm_id":"7028577840","tag":{"amenity":"waste_basket","waste":"trash"}},"type":"Feature"},
	{"geometry":{"coordinates":[-40.341484,-20.31855],"type":"Point"},"properties":{"osm_id":"7028577841","tag":{"amenity":"waste_basket","waste":"trash"}},"type":"Feature"},
	{"geometry":{"coordinates":[-40.340607,-20.321176],"type":"Point"},"properties":{"osm_id":"7028577843","tag":{"amenity":"waste_basket","waste":"trash"}},"type":"Feature"},
	{"geometry":{"coordinates":[-40.34114,-20.318016],"type":"Point"},"properties":{"osm_id":"7028577844","tag":{"amenity":"waste_basket","waste":"trash"}},"type":"Feature"},
	{"geometry":{"coordinates":[-40.341119,-20.320165],"type":"Point"},"properties":{"osm_id":"7028577845","tag":{"amenity":"waste_basket","waste":"trash"}},"type":"Feature"},
	{"geometry":{"coordinates":[-40.341168,-20.319951],"type":"Point"},"properties":{"osm_id":"7028577847","tag":{"amenity":"waste_basket","waste":"trash"}},"type":"Feature"},
	{"geometry":{"coordinates":[-40.340275,-20.320452],"type":"Point"},"properties":{"osm_id":"7028577848","tag":{"amenity":"waste_basket","waste":"trash"}},"type":"Feature"},
	{"geometry":{"coordinates":[-40.340741,-20.321287],"type":"Point"},"properties":{"osm_id":"7028577849","tag":{"amenity":"waste_basket","waste":"trash"}},"type":"Feature"},
	{"geometry":{"coordinates":[-40.341209,-20.320458],"type":"Point"},"properties":{"osm_id":"7028577851","tag":{"amenity":"waste_basket","waste":"trash"}},"type":"Feature"},
	{"geometry":{"coordinates":[-40.340645,-20.321473],"type":"Point"},"properties":{"osm_id":"7028577852","tag":{"amenity":"waste_basket","waste":"trash"}},"type":"Feature"},
	{"geometry":{"coordinates":[-40.337949,-20.320885],"type":"Point"},"properties":{"osm_id":"7028577854","tag":{"amenity":"waste_basket","waste":"trash"}},"type":"Feature"},
	{"geometry":{"coordinates":[-40.338552,-20.321463],"type":"Point"},"properties":{"osm_id":"7028577855","tag":{"amenity":"waste_basket","waste":"trash"}},"type":"Feature"},
	{"geometry":{"coordinates":[-40.341262,-20.320901],"type":"Point"},"properties":{"osm_id":"7028577868","tag":{"amenity":"waste_basket","waste":"trash"}},"type":"Feature"},
	{"geometry":{"coordinates":[-40.337465,-20.320522],"type":"Point"},"properties":{"osm_id":"7028577872","tag":{"amenity":"waste_basket","waste":"trash"}},"type":"Feature"},
	{"geometry":{"coordinates":[-40.334668,-20.31947],"type":"Point"},"properties":{"osm_id":"7028577873","tag":{"amenity":"waste_basket","waste":"trash"}},"type":"Feature"},
	{"geometry":{"coordinates":[-40.336951,-20.320618],"type":"Point"},"properties":{"osm_id":"7028577874","tag":{"amenity":"waste_basket","waste":"trash"}},"type":"Feature"},
	{"geometry":{"coordinates":[-40.33493,-20.319685],"type":"Point"},"properties":{"osm_id":"7028577875","tag":{"amenity":"waste_basket","waste":"trash"}},"type":"Feature"},
	{"geometry":{"coordinates":[-40.338258,-20.321258],"type":"Point"},"properties":{"osm_id":"7028577876","tag":{"amenity":"waste_basket","waste":"trash"}},"type":"Feature"},
	{"geometry":{"coordinates":[-40.338579,-20.320087],"type":"Point"},"properties":{"osm_id":"7028577877","tag":{"amenity":"waste_basket","waste":"trash"}},"type":"Feature"},
	{"geometry":{"coordinates":[-40.337816,-20.32023],"type":"Point"},"properties":{"osm_id":"7028577878","tag":{"amenity":"waste_basket","waste":"trash"}},"type":"Feature"},
	{"geometry":{"coordinates":[-40.339121,-20.319174],"type":"Point"},"properties":{"osm_id":"7028577879","tag":{"amenity":"waste_basket","waste":"trash"}},"type":"Feature"},
	{"geometry":{"coordinates":[-40.33852,-20.319062],"type":"Point"},"properties":{"osm_id":"7028577880","tag":{"amenity":"waste_basket","waste":"trash"}},"type":"Feature"},
	{"geometry":{"coordinates":[-40.33682,-20.318555],"type":"Point"},"properties":{"osm_id":"7028577881","tag":{"amenity":"waste_basket","waste":"trash"}},"type":"Feature"},
	{"geometry":{"coordinates":[-40.33553,-20.319733],"type":"Point"},"properties":{"osm_id":"7028577882","tag":{"amenity":"waste_basket","waste":"trash"}},"type":"Feature"},
	{"geometry":{"coordinates":[-40.335728,-20.319046],"type":"Point"},"properties":{"osm_id":"7028577883","tag":{"amenity":"waste_basket","waste":"trash"}},"type":"Feature"},
	{"geometry":{"coordinates":[-40.335035,-20.319993],"type":"Point"},"properties":{"osm_id":"7028577884","tag":{"amenity":"waste_basket","waste":"trash"}},"type":"Feature"},
	{"geometry":{"coordinates":[-40.335676,-20.319777],"type":"Point"},"properties":{"osm_id":"7028577885","tag":{"amenity":"waste_basket","waste":"trash"}},"type":"Feature"},
	{"geometry":{"coordinates":[-40.335513,-20.319599],"type":"Point"},"properties":{"osm_id":"7028577886","tag":{"amenity":"waste_basket","waste":"trash"}},"type":"Feature"},
	{"geometry":{"coordinates":[-40.335561,-20.319816],"type":"Point"},"properties":{"osm_id":"7028577887","tag":{"amenity":"waste_basket","waste":"trash"}},"type":"Feature"},
	{"geometry":{"coordinates":[-40.335397,-20.319911],"type":"Point"},"properties":{"osm_id":"7028577888","tag":{"amenity":"waste_basket","waste":"trash"}},"type":"Feature"},
	{"geometry":{"coordinates":[-40.335351,-20.320079],"type":"Point"},"properties":{"osm_id":"7028577889","tag":{"amenity":"waste_basket","waste":"trash"}},"type":"Feature"},
	{"geometry":{"coordinates":[-40.335654,-20.319959],"type":"Point"},"properties":{"osm_id":"7028577890","tag":{"amenity":"waste_basket","waste":"trash"}},"type":"Feature"},
	{"geometry":{"coordinates":[-40.335479,-20.320036],"type":"Point"},"properties":{"osm_id":"7028577891","tag":{"amenity":"waste_basket","waste":"trash"}},"type":"Feature"},
	{"geometry":{"coordinates":[-40.337501,-20.319915],"type":"Point"},"properties":{"osm_id":"7028577892","tag":{"amenity":"waste_basket","waste":"trash"}},"type":"Feature"},
	{"geometry":{"coordinates":[-40.336766,-20.319713],"type":"Point"},"properties":{"osm_id":"7028577893","tag":{"amenity":"waste_basket","waste":"trash"}},"type":"Feature"},
	{"geometry":{"coordinates":[-40.338077,-20.320449],"type":"Point"},"properties":{"osm_id":"7028577894","tag":{"amenity":"waste_basket","waste":"trash"}},"type":"Feature"},
	{"geometry":{"coordinates":[-40.336665,-20.319074],"type":"Point"},"properties":{"osm_id":"7028577895","tag":{"amenity":"waste_basket","waste":"trash"}},"type":"Feature"},
	{"geometry":{"coordinates":[-40.336062,-20.319505],"type":"Point"},"properties":{"osm_id":"7028577896","tag":{"amenity":"waste_basket","waste":"trash"}},"type":"Feature"},
	{"geometry":{"coordinates":[-40.337187,-20.318854],"type":"Point"},"properties":{"osm_id":"7028577897","tag":{"amenity":"waste_basket","waste":"trash"}},"type":"Feature"},
	{"geometry":{"coordinates":[-40.336469,-20.318673],"type":"Point"},"properties":{"osm_id":"7028577898","tag":{"amenity":"waste_basket","waste":"trash"}},"type":"Feature"},
	{"geometry":{"coordinates":[-40.336686,-20.317237],"type":"Point"},"properties":{"osm_id":"7028577899","tag":{"amenity":"waste_basket","waste":"trash"}},"type":"Feature"},
	{"geometry":{"coordinates":[-40.337174,-20.318615],"type":"Point"},"properties":{"osm_id":"7028577900","tag":{"amenity":"waste_basket","waste":"trash"}},"type":"Feature"},
	{"geometry":{"coordinates":[-40.336499,-20.317726],"type":"Point"},"properties":{"osm_id":"7028577901","tag":{"amenity":"waste_basket","waste":"trash"}},"type":"Feature"},
	{"geometry":{"coordinates":[-40.336055,-20.318254],"type":"Point"},"properties":{"osm_id":"7028577902","tag":{"amenity":"waste_basket","waste":"trash"}},"type":"Feature"},
	{"geometry":{"coordinates":[-40.335856,-20.318528],"type":"Point"},"properties":{"osm_id":"7028577903","tag":{"amenity":"waste_basket","waste":"trash"}},"type":"Feature"},
	{"geometry":{"coordinates":[-40.335875,-20.318681],"type":"Point"},"properties":{"osm_id":"7028577904","tag":{"amenity":"waste_basket","waste":"trash"}},"type":"Feature"},
	{"geometry":{"coordinates":[-40.336352,-20.318756],"type":"Point"},"properties":{"osm_id":"7028577905","tag":{"amenity":"waste_basket","waste":"trash"}},"type":"Feature"},
	{"geometry":{"coordinates":[-40.337061,-20.317758],"type":"Point"},"properties":{"osm_id":"7028577906","tag":{"amenity":"waste_basket","waste":"trash"}},"type":"Feature"},
	{"geometry":{"coordinates":[-40.336742,-20.318059],"type":"Point"},"properties":{"osm_id":"7028577907","tag":{"amenity":"waste_basket","waste":"trash"}},"type":"Feature"},
	{"geometry":{"coordinates":[-40.337281,-20.317412],"type":"Point"},"properties":{"osm_id":"7028577908","tag":{"amenity":"waste_basket","waste":"trash"}},"type":"Feature"},
	{"geometry":{"coordinates":[-40.337566,-20.319602],"type":"Point"},"properties":{"osm_id":"7028577909","tag":{"amenity":"waste_basket","waste":"trash"}},"type":"Feature"},
	{"geometry":{"coordinates":[-40.338334,-20.320048],"type":"Point"},"properties":{"osm_id":"7028577910","tag":{"amenity":"waste_basket","waste":"trash"}},"type":"Feature"},
	{"geometry":{"coordinates":[-40.338242,-20.320391],"type":"Point"},"properties":{"osm_id":"7028577911","tag":{"amenity":"waste_basket","waste":"trash"}},"type":"Feature"},
	{"geometry":{"coordinates":[-40.338534,-20.320747],"type":"Point"},"properties":{"osm_id":"7028577912","tag":{"amenity":"waste_basket","waste":"trash"}},"type":"Feature"},
	{"geometry":{"coordinates":[-40.336999,-20.32155],"type":"Point"},"properties":{"osm_id":"7028577913","tag":{"amenity":"waste_basket","waste":"trash"}},"type":"Feature"},
	{"geometry":{"coordinates":[-40.336439,-20.321337],"type":"Point"},"properties":{"osm_id":"7028577914","tag":{"amenity":"waste_basket","waste":"trash"}},"type":"Feature"},
	{"geometry":{"coordinates":[-40.333633,-20.320554],"type":"Point"},"properties":{"osm_id":"7028577915","tag":{"amenity":"waste_basket","waste":"trash"}},"type":"Feature"},
	{"geometry":{"coordinates":[-40.335845,-20.321121],"type":"Point"},"properties":{"osm_id":"7028577916","tag":{"amenity":"waste_basket","waste":"trash"}},"type":"Feature"},
	{"geometry":{"coordinates":[-40.334695,-20.320983],"type":"Point"},"properties":{"osm_id":"7028577917","tag":{"amenity":"waste_basket","waste":"trash"}},"type":"Feature"},
	{"geometry":{"coordinates":[-40.335167,-20.320902],"type":"Point"},"properties":{"osm_id":"7028577918","tag":{"amenity":"waste_basket","waste":"trash"}},"type":"Feature"},
	{"geometry":{"coordinates":[-40.332408,-20.320109],"type":"Point"},"properties":{"osm_id":"7028577919","tag":{"amenity":"waste_basket","waste":"trash"}},"type":"Feature"},
	{"geometry":{"coordinates":[-40.334478,-20.320857],"type":"Point"},"properties":{"osm_id":"7028577920","tag":{"amenity":"waste_basket","waste":"trash"}},"type":"Feature"},
	{"geometry":{"coordinates":[-40.333989,-20.320685],"type":"Point"},"properties":{"osm_id":"7028577921","tag":{"amenity":"waste_basket","waste":"trash"}},"type":"Feature"},
	{"geometry":{"coordinates":[-40.333901,-20.320642],"type":"Point"},"properties":{"osm_id":"7028577922","tag":{"amenity":"waste_basket","waste":"trash"}},"type":"Feature"},
	{"geometry":{"coordinates":[-40.333952,-20.320461],"type":"Point"},"properties":{"osm_id":"7028577923","tag":{"amenity":"waste_basket","waste":"trash"}},"type":"Feature"},
	{"geometry":{"coordinates":[-40.333119,-20.320113],"type":"Point"},"properties":{"osm_id":"7028577924","tag":{"amenity":"waste_basket","waste":"trash"}},"type":"Feature"},
	{"geometry":{"coordinates":[-40.329437,-20.320204],"type":"Point"},"properties":{"osm_id":"7028577925","tag":{"amenity":"waste_basket","waste":"trash"}},"type":"Feature"},
	{"geometry":{"coordinates":[-40.331645,-20.319762],"type":"Point"},"properties":{"osm_id":"7028577926","tag":{"amenity":"waste_basket","waste":"trash"}},"type":"Feature"},
	{"geometry":{"coordinates":[-40.336579,-20.321579],"type":"Point"},"properties":{"osm_id":"7028577927","tag":{"amenity":"waste_basket","waste":"trash"}},"type":"Feature"},
	{"geometry":{"coordinates":[-40.330488,-20.319592],"type":"Point"},"properties":{"osm_id":"7028577928","tag":{"amenity":"waste_basket","waste":"trash"}},"type":"Feature"},
	{"geometry":{"coordinates":[-40.330389,-20.319781],"type":"Point"},"properties":{"osm_id":"7028577929","tag":{"amenity":"waste_basket","waste":"trash"}},"type":"Feature"},
	{"geometry":{"coordinates":[-40.330688,-20.319805],"type":"Point"},"properties":{"osm_id":"7028577930","tag":{"amenity":"waste_basket","waste":"trash"}},"type":"Feature"},
	{"geometry":{"coordinates":[-40.336722,-20.321626],"type":"Point"},"properties":{"osm_id":"7028577931","tag":{"amenity":"waste_basket","waste":"trash"}},"type":"Feature"},
	{"geometry":{"coordinates":[-40.33693,-20.321703],"type":"Point"},"properties":{"osm_id":"7028577932","tag":{"amenity":"waste_basket","waste":"trash"}},"type":"Feature"},
	{"geometry":{"coordinates":[-40.336318,-20.321477],"type":"Point"},"properties":{"osm_id":"7028577933","tag":{"amenity":"waste_basket","waste":"trash"}},"type":"Feature"},
	{"geometry":{"coordinates":[-40.336272,-20.32147],"type":"Point"},"properties":{"osm_id":"7028577934","tag":{"amenity":"waste_basket","waste":"trash"}},"type":"Feature"},
	{"geometry":{"coordinates":[-40.332805,-20.320029],"type":"Point"},"properties":{"osm_id":"7028577935","tag":{"amenity":"waste_basket","waste":"trash"}},"type":"Feature"},
	{"geometry":{"coordinates":[-40.332628,-20.320142],"type":"Point"},"properties":{"osm_id":"7028577936","tag":{"amenity":"waste_basket","waste":"trash"}},"type":"Feature"},
	{"geometry":{"coordinates":[-40.331851,-20.320003],"type":"Point"},"properties":{"osm_id":"7028577937","tag":{"amenity":"waste_basket","waste":"trash"}},"type":"Feature"},
	{"geometry":{"coordinates":[-40.331608,-20.319953],"type":"Point"},"properties":{"osm_id":"7028577938","tag":{"amenity":"waste_basket","waste":"trash"}},"type":"Feature"},
	{"geometry":{"coordinates":[-40.330829,-20.319828],"type":"Point"},"properties":{"osm_id":"7028577939","tag":{"amenity":"waste_basket","waste":"trash"}},"type":"Feature"},
	{"geometry":{"coordinates":[-40.335677,-20.32049],"type":"Point"},"properties":{"osm_id":"7028577940","tag":{"amenity":"waste_basket","waste":"trash"}},"type":"Feature"},
	{"geometry":{"coordinates":[-40.334937,-20.320396],"type":"Point"},"properties":{"osm_id":"7028577941","tag":{"amenity":"waste_basket","waste":"trash"}},"type":"Feature"},
	{"geometry":{"coordinates":[-40.336002,-20.320654],"type":"Point"},"properties":{"osm_id":"7028577942","tag":{"amenity":"waste_basket","waste":"trash"}},"type":"Feature"},
	{"geometry":{"coordinates":[-40.335449,-20.320558],"type":"Point"},"properties":{"osm_id":"7028577943","tag":{"amenity":"waste_basket","waste":"trash"}},"type":"Feature"},
	{"geometry":{"coordinates":[-40.336559,-20.321014],"type":"Point"},"properties":{"osm_id":"7028577944","tag":{"amenity":"waste_basket","waste":"trash"}},"type":"Feature"},
	{"geometry":{"coordinates":[-40.337499,-20.321163],"type":"Point"},"properties":{"osm_id":"7028577945","tag":{"amenity":"waste_basket","waste":"trash"}},"type":"Feature"},
	{"geometry":{"coordinates":[-40.337848,-20.321478],"type":"Point"},"properties":{"osm_id":"7028577946","tag":{"amenity":"waste_basket","waste":"trash"}},"type":"Feature"},
	{"geometry":{"coordinates":[-40.337414,-20.32114],"type":"Point"},"properties":{"osm_id":"7028577947","tag":{"amenity":"waste_basket","waste":"trash"}},"type":"Feature"},
	{"geometry":{"coordinates":[-40.336631,-20.3209],"type":"Point"},"properties":{"osm_id":"7028577948","tag":{"amenity":"waste_basket","waste":"trash"}},"type":"Feature"},
	{"geometry":{"coordinates":[-40.336979,-20.321166],"type":"Point"},"properties":{"osm_id":"7028577949","tag":{"amenity":"waste_basket","waste":"trash"}},"type":"Feature"},
	{"geometry":{"coordinates":[-40.341275,-20.321533],"type":"Point"},"properties":{"osm_id":"7028577951","tag":{"amenity":"waste_basket","waste":"trash"}},"type":"Feature"},
	{"geometry":{"coordinates":[-40.341,-20.321701],"type":"Point"},"properties":{"osm_id":"7028577952","tag":{"amenity":"waste_basket","waste":"trash"}},"type":"Feature"},
	{"geometry":{"coordinates":[-40.339134,-20.321982],"type":"Point"},"properties":{"osm_id":"7028577953","tag":{"amenity":"waste_basket","waste":"trash"}},"type":"Feature"},
	{"geometry":{"coordinates":[-40.332998,-20.31953],"type":"Point"},"properties":{"osm_id":"7028577960","tag":{"amenity":"waste_basket","waste":"trash"}},"type":"Feature"},
	{"geometry":{"coordinates":[-40.334116,-20.320085],"type":"Point"},"properties":{"osm_id":"7028577961","tag":{"amenity":"waste_basket","waste":"trash"}},"type":"Feature"},
	{"geometry":{"coordinates":[-40.332282,-20.319239],"type":"Point"},"properties":{"osm_id":"7028577962","tag":{"amenity":"waste_basket","waste":"trash"}},"type":"Feature"},
	{"geometry":{"coordinates":[-40.3339,-20.31986],"type":"Point"},"properties":{"osm_id":"7028577963","tag":{"amenity":"waste_basket","waste":"trash"}},"type":"Feature"},
	{"geometry":{"coordinates":[-40.3337,-20.319782],"type":"Point"},"properties":{"osm_id":"7028577964","tag":{"amenity":"waste_basket","waste":"trash"}},"type":"Feature"},
	{"geometry":{"coordinates":[-40.294657,-20.312293],"type":"Point"},"properties":{"osm_id":"7028577985","tag":{"amenity":"waste_basket","waste":"trash"}},"type":"Feature"},
	{"geometry":{"coordinates":[-40.287676,-20.309819],"type":"Point"},"properties":{"osm_id":"7028577986","tag":{"amenity":"waste_basket","waste":"trash"}},"type":"Feature"},
	{"geometry":{"coordinates":[-40.28644,-20.309973],"type":"Point"},"properties":{"osm_id":"7028577987","tag":{"amenity":"waste_basket","waste":"trash"}},"type":"Feature"},
	{"geometry":{"coordinates":[-40.288894,-20.309666],"type":"Point"},"properties":{"osm_id":"7028577988","tag":{"amenity":"waste_basket","waste":"trash"}},"type":"Feature"},
	{"geometry":{"coordinates":[-40.288355,-20.30981],"type":"Point"},"properties":{"osm_id":"7028577989","tag":{"amenity":"waste_basket","waste":"trash"}},"type":"Feature"},
	{"geometry":{"coordinates":[-40.287685,-20.310019],"type":"Point"},"properties":{"osm_id":"7028577990","tag":{"amenity":"waste_basket","waste":"trash"}},"type":"Feature"},
	{"geometry":{"coordinates":[-40.287083,-20.310119],"type":"Point"},"properties":{"osm_id":"7028577991","tag":{"amenity":"waste_basket","waste":"trash"}},"type":"Feature"},
	{"geometry":{"coordinates":[-40.286686,-20.310157],"type":"Point"},"properties":{"osm_id":"7028577992","tag":{"amenity":"waste_basket","waste":"trash"}},"type":"Feature"},
	{"geometry":{"coordinates":[-40.286205,-20.310139],"type":"Point"},"properties":{"osm_id":"7028577993","tag":{"amenity":"waste_basket","waste":"trash"}},"type":"Feature"},
	{"geometry":{"coordinates":[-40.334098,-20.320564],"type":"Point"},"properties":{"osm_id":"7028578012","tag":{"amenity":"waste_basket","waste":"trash"}},"type":"Feature"},
	{"geometry":{"coordinates":[-40.329282,-20.320123],"type":"Point"},"properties":{"osm_id":"7028578025","tag":{"amenity":"waste_basket","waste":"trash"}},"type":"Feature"},
	{"geometry":{"coordinates":[-40.33195,-20.319868],"type":"Point"},"properties":{"osm_id":"7028578026","tag":{"amenity":"waste_basket","waste":"trash"}},"type":"Feature"},
	{"geometry":{"coordinates":[-40.335505,-20.32101],"type":"Point"},"properties":{"osm_id":"7028578027","tag":{"amenity":"waste_basket","waste":"trash"}},"type":"Feature"},
	{"geometry":{"coordinates":[-40.340543,-20.319886],"type":"Point"},"properties":{"osm_id":"7028578029","tag":{"amenity":"waste_basket","waste":"trash"}},"type":"Feature"},
	{"geometry":{"coordinates":[-40.340341,-20.319499],"type":"Point"},"properties":{"osm_id":"7028578030","tag":{"amenity":"waste_basket","waste":"trash"}},"type":"Feature"},
	{"geometry":{"coordinates":[-40.340166,-20.320313],"type":"Point"},"properties":{"osm_id":"7028578031","tag":{"amenity":"waste_basket","waste":"trash"}},"type":"Feature"},
	{"geometry":{"coordinates":[-40.337812,-20.321358],"type":"Point"},"properties":{"osm_id":"7028578032","tag":{"amenity":"waste_basket","waste":"trash"}},"type":"Feature"},
	{"geometry":{"coordinates":[-40.29421,-20.305394],"type":"Point"},"properties":{"osm_id":"7028578033","tag":{"amenity":"waste_basket","waste":"trash"}},"type":"Feature"},
	{"geometry":{"coordinates":[-40.329696,-20.319476],"type":"Point"},"properties":{"osm_id":"7028578034","tag":{"amenity":"waste_basket","waste":"trash"}},"type":"Feature"},
	{"geometry":{"coordinates":[-40.331495,-20.319923],"type":"Point"},"properties":{"osm_id":"7028578035","tag":{"amenity":"waste_basket","waste":"trash"}},"type":"Feature"},
	{"geometry":{"coordinates":[-40.33472,-20.320919],"type":"Point"},"properties":{"osm_id":"7028578036","tag":{"amenity":"waste_basket","waste":"trash"}},"type":"Feature"},
	{"geometry":{"coordinates":[-40.340369,-20.320275],"type":"Point"},"properties":{"osm_id":"7028578037","tag":{"amenity":"waste_basket","waste":"trash"}},"type":"Feature"},
	{"geometry":{"coordinates":[-40.340775,-20.321593],"type":"Point"},"properties":{"osm_id":"7028578038","tag":{"amenity":"waste_basket","waste":"trash"}},"type":"Feature"},
	{"geometry":{"coordinates":[-40.339098,-20.32183],"type":"Point"},"properties":{"osm_id":"7028578039","tag":{"amenity":"waste_basket","waste":"trash"}},"type":"Feature"},
	{"geometry":{"coordinates":[-40.337992,-20.3215],"type":"Point"},"properties":{"osm_id":"7028578040","tag":{"amenity":"waste_basket","waste":"trash"}},"type":"Feature"},
	{"geometry":{"coordinates":[-40.337908,-20.321417],"type":"Point"},"properties":{"osm_id":"7028578041","tag":{"amenity":"waste_basket","waste":"trash"}},"type":"Feature"},
	{"geometry":{"coordinates":[-40.337351,-20.321151],"type":"Point"},"properties":{"osm_id":"7028578042","tag":{"amenity":"waste_basket","waste":"trash"}},"type":"Feature"},
	{"geometry":{"coordinates":[-40.337116,-20.321074],"type":"Point"},"properties":{"osm_id":"7028578043","tag":{"amenity":"waste_basket","waste":"trash"}},"type":"Feature"},
	{"geometry":{"coordinates":[-40.335812,-20.320584],"type":"Point"},"properties":{"osm_id":"7028578044","tag":{"amenity":"waste_basket","waste":"trash"}},"type":"Feature"},
	{"geometry":{"coordinates":[-40.333585,-20.319889],"type":"Point"},"properties":{"osm_id":"7028578045","tag":{"amenity":"waste_basket","waste":"trash"}},"type":"Feature"},
	{"geometry":{"coordinates":[-40.332435,-20.319429],"type":"Point"},"properties":{"osm_id":"7028578046","tag":{"amenity":"waste_basket","waste":"trash"}},"type":"Feature"},
	{"geometry":{"coordinates":[-40.310115,-20.318106],"type":"Point"},"properties":{"osm_id":"7028578053","tag":{"amenity":"waste_basket","waste":"trash"}},"type":"Feature"},
	{"geometry":{"coordinates":[-40.336482,-20.321537],"type":"Point"},"properties":{"osm_id":"7028578077","tag":{"amenity":"waste_basket","waste":"trash"}},"type":"Feature"},
	{"geometry":{"coordinates":[-40.336385,-20.321512],"type":"Point"},"properties":{"osm_id":"7028578078","tag":{"amenity":"waste_basket","waste":"trash"}},"type":"Feature"},
	{"geometry":{"coordinates":[-40.290492,-20.315699],"type":"Point"},"properties":{"osm_id":"7028578112","tag":{"amenity":"waste_basket","waste":"trash"}},"type":"Feature"},
	{"geometry":{"coordinates":[-40.301039,-20.313729],"type":"Point"},"properties":{"osm_id":"7028578120","tag":{"amenity":"waste_basket","waste":"trash"}},"type":"Feature"},
	{"geometry":{"coordinates":[-40.299993,-20.314161],"type":"Point"},"properties":{"osm_id":"7028578121","tag":{"amenity":"waste_basket","waste":"trash"}},"type":"Feature"},
	{"geometry":{"coordinates":[-40.298788,-20.314583],"type":"Point"},"properties":{"osm_id":"7028578122","tag":{"amenity":"waste_basket","waste":"trash"}},"type":"Feature"},
	{"geometry":{"coordinates":[-40.299237,-20.314392],"type":"Point"},"properties":{"osm_id":"7028578123","tag":{"amenity":"waste_basket","waste":"trash"}},"type":"Feature"},
	{"geometry":{"coordinates":[-40.298317,-20.314445],"type":"Point"},"properties":{"osm_id":"7028578124","tag":{"amenity":"waste_basket","waste":"trash"}},"type":"Feature"},
	{"geometry":{"coordinates":[-40.295102,-20.315968],"type":"Point"},"properties":{"osm_id":"7028578125","tag":{"amenity":"waste_basket","waste":"trash"}},"type":"Feature"},
	{"geometry":{"coordinates":[-40.295353,-20.31169],"type":"Point"},"properties":{"osm_id":"7028578126","tag":{"amenity":"waste_basket","waste":"trash"}},"type":"Feature"},
	{"geometry":{"coordinates":[-40.29741,-20.304569],"type":"Point"},"properties":{"osm_id":"7028578127","tag":{"amenity":"waste_basket","waste":"trash"}},"type":"Feature"},
	{"geometry":{"coordinates":[-40.297483,-20.304436],"type":"Point"},"properties":{"osm_id":"7028578128","tag":{"amenity":"waste_basket","waste":"trash"}},"type":"Feature"},
	{"geometry":{"coordinates":[-40.29766,-20.30474],"type":"Point"},"properties":{"osm_id":"7028578129","tag":{"amenity":"waste_basket","waste":"trash"}},"type":"Feature"},
	{"geometry":{"coordinates":[-40.297591,-20.304622],"type":"Point"},"properties":{"osm_id":"7028578130","tag":{"amenity":"waste_basket","waste":"trash"}},"type":"Feature"},
	{"geometry":{"coordinates":[-40.298131,-20.305195],"type":"Point"},"properties":{"osm_id":"7028578131","tag":{"amenity":"waste_basket","waste":"trash"}},"type":"Feature"},
	{"geometry":{"coordinates":[-40.291706,-20.303934],"type":"Point"},"properties":{"osm_id":"7028578136","tag":{"amenity":"waste_basket","waste":"trash"}},"type":"Feature"},
	{"geometry":{"coordinates":[-40.2919,-20.306121],"type":"Point"},"properties":{"osm_id":"7028578137","tag":{"amenity":"waste_basket","waste":"trash"}},"type":"Feature"},
	{"geometry":{"coordinates":[-40.291432,-20.307528],"type":"Point"},"properties":{"osm_id":"7028578138","tag":{"amenity":"waste_basket","waste":"trash"}},"type":"Feature"},
	{"geometry":{"coordinates":[-40.290137,-20.309514],"type":"Point"},"properties":{"osm_id":"7028578139","tag":{"amenity":"waste_basket","waste":"trash"}},"type":"Feature"},
	{"geometry":{"coordinates":[-40.291121,-20.316779],"type":"Point"},"properties":{"osm_id":"7028578140","tag":{"amenity":"waste_basket","waste":"trash"}},"type":"Feature"},
	{"geometry":{"coordinates":[-40.290437,-20.317949],"type":"Point"},"properties":{"osm_id":"7028578141","tag":{"amenity":"waste_basket","waste":"trash"}},"type":"Feature"},
	{"geometry":{"coordinates":[-40.314432,-20.305094],"type":"Point"},"properties":{"osm_id":"7028578142","tag":{"amenity":"waste_basket","waste":"trash"}},"type":"Feature"},
	{"geometry":{"coordinates":[-40.312667,-20.307553],"type":"Point"},"properties":{"osm_id":"7028578144","tag":{"amenity":"waste_basket","waste":"trash"}},"type":"Feature"},
	{"geometry":{"coordinates":[-40.335623,-20.318274],"type":"Point"},"properties":{"osm_id":"7028578145","tag":{"amenity":"waste_basket","waste":"trash"}},"type":"Feature"},
	{"geometry":{"coordinates":[-40.335124,-20.317637],"type":"Point"},"properties":{"osm_id":"7028578146","tag":{"amenity":"waste_basket","waste":"trash"}},"type":"Feature"},
	{"geometry":{"coordinates":[-40.314469,-20.307676],"type":"Point"},"properties":{"osm_id":"7028578156","tag":{"amenity":"waste_basket","waste":"trash"}},"type":"Feature"},
	{"geometry":{"coordinates":[-40.322285,-20.314549],"type":"Point"},"properties":{"osm_id":"7028578157","tag":{"amenity":"waste_basket","waste":"trash"}},"type":"Feature"},
	{"geometry":{"coordinates":[-40.314389,-20.310143],"type":"Point"},"properties":{"osm_id":"7028578158","tag":{"amenity":"waste_basket","waste":"trash"}},"type":"Feature"},
	{"geometry":{"coordinates":[-40.314468,-20.306125],"type":"Point"},"properties":{"osm_id":"7028578159","tag":{"amenity":"waste_basket","waste":"trash"}},"type":"Feature"},
	{"geometry":{"coordinates":[-40.321671,-20.306533],"type":"Point"},"properties":{"osm_id":"7028578162","tag":{"amenity":"waste_basket","waste":"trash"}},"type":"Feature"},
	{"geometry":{"coordinates":[-40.320816,-20.309756],"type":"Point"},"properties":{"osm_id":"7028578163","tag":{"amenity":"waste_basket","waste":"trash"}},"type":"Feature"},
	{"geometry":{"coordinates":[-40.320987,-20.309791],"type":"Point"},"properties":{"osm_id":"7028578164","tag":{"amenity":"waste_basket","waste":"trash"}},"type":"Feature"},
	{"geometry":{"coordinates":[-40.320664,-20.310696],"type":"Point"},"properties":{"osm_id":"7028578165","tag":{"amenity":"waste_basket","waste":"trash"}},"type":"Feature"},
	{"geometry":{"coordinates":[-40.320369,-20.31154],"type":"Point"},"properties":{"osm_id":"7028578166","tag":{"amenity":"waste_basket","waste":"trash"}},"type":"Feature"},
	{"geometry":{"coordinates":[-40.320357,-20.311703],"type":"Point"},"properties":{"osm_id":"7028578167","tag":{"amenity":"waste_basket","waste":"trash"}},"type":"Feature"},
	{"geometry":{"coordinates":[-40.320514,-20.311632],"type":"Point"},"properties":{"osm_id":"7028578168","tag":{"amenity":"waste_basket","waste":"trash"}},"type":"Feature"},
	{"geometry":{"coordinates":[-40.320496,-20.312511],"type":"Point"},"properties":{"osm_id":"7028578169","tag":{"amenity":"waste_basket","waste":"trash"}},"type":"Feature"},
	{"geometry":{"coordinates":[-40.320206,-20.314339],"type":"Point"},"properties":{"osm_id":"7028578170","tag":{"amenity":"waste_basket","waste":"trash"}},"type":"Feature"},
	{"geometry":{"coordinates":[-40.320113,-20.314886],"type":"Point"},"properties":{"osm_id":"7028578171","tag":{"amenity":"waste_basket","waste":"trash"}},"type":"Feature"},
	{"geometry":{"coordinates":[-40.31975,-20.315998],"type":"Point"},"properties":{"osm_id":"7028578172","tag":{"amenity":"waste_basket","waste":"trash"}},"type":"Feature"},
	{"geometry":{"coordinates":[-40.319861,-20.316372],"type":"Point"},"properties":{"osm_id":"7028578173","tag":{"amenity":"waste_basket","waste":"trash"}},"type":"Feature"},
	{"geometry":{"coordinates":[-40.319479,-20.31769],"type":"Point"},"properties":{"osm_id":"7028578174","tag":{"amenity":"waste_basket","waste":"trash"}},"type":"Feature"},
	{"geometry":{"coordinates":[-40.31675,-20.306964],"type":"Point"},"properties":{"osm_id":"7028578191","tag":{"amenity":"waste_basket","waste":"trash"}},"type":"Feature"},
	{"geometry":{"coordinates":[-40.317133,-20.307388],"type":"Point"},"properties":{"osm_id":"7028578192","tag":{"amenity":"waste_basket","waste":"trash"}},"type":"Feature"},
	{"geometry":{"coordinates":[-40.316575,-20.307837],"type":"Point"},"properties":{"osm_id":"7028578193","tag":{"amenity":"waste_basket","waste":"trash"}},"type":"Feature"},
	{"geometry":{"coordinates":[-40.301723,-20.315589],"type":"Point"},"properties":{"osm_id":"7028578194","tag":{"amenity":"waste_basket","waste":"trash"}},"type":"Feature"},
	{"geometry":{"coordinates":[-40.341199,-20.318593],"type":"Point"},"properties":{"osm_id":"7028578231","tag":{"amenity":"waste_basket","waste":"trash"}},"type":"Feature"},
	{"geometry":{"coordinates":[-40.341265,-20.319311],"type":"Point"},"properties":{"osm_id":"7028578232","tag":{"amenity":"waste_basket","waste":"trash"}},"type":"Feature"},
	{"geometry":{"coordinates":[-40.341349,-20.320024],"type":"Point"},"properties":{"osm_id":"7028578233","tag":{"amenity":"waste_basket","waste":"trash"}},"type":"Feature"},
	{"geometry":{"coordinates":[-40.329713,-20.320137],"type":"Point"},"properties":{"osm_id":"7028578234","tag":{"amenity":"waste_basket","waste":"trash"}},"type":"Feature"},
	{"geometry":{"coordinates":[-40.336462,-20.317598],"type":"Point"},"properties":{"osm_id":"7028578236","tag":{"amenity":"waste_basket","waste":"trash"}},"type":"Feature"},
	{"geometry":{"coordinates":[-40.3361,-20.318205],"type":"Point"},"properties":{"osm_id":"7028578237","tag":{"amenity":"waste_basket","waste":"trash"}},"type":"Feature"},
	{"geometry":{"coordinates":[-40.335948,-20.318416],"type":"Point"},"properties":{"osm_id":"7028578238","tag":{"amenity":"waste_basket","waste":"trash"}},"type":"Feature"},
	{"geometry":{"coordinates":[-40.335957,-20.318725],"type":"Point"},"properties":{"osm_id":"7028578239","tag":{"amenity":"waste_basket","waste":"trash"}},"type":"Feature"},
	{"geometry":{"coordinates":[-40.335746,-20.319284],"type":"Point"},"properties":{"osm_id":"7028578240","tag":{"amenity":"waste_basket","waste":"trash"}},"type":"Feature"},
	{"geometry":{"coordinates":[-40.291071,-20.308513],"type":"Point"},"properties":{"osm_id":"7028578248","tag":{"amenity":"waste_basket","waste":"trash"}},"type":"Feature"},
	{"geometry":{"coordinates":[-40.298714,-20.316499],"type":"Point"},"properties":{"osm_id":"7028578254","tag":{"amenity":"waste_basket","waste":"trash"}},"type":"Feature"},
	{"geometry":{"coordinates":[-40.307391,-20.31847],"type":"Point"},"properties":{"osm_id":"7028578255","tag":{"amenity":"waste_basket","waste":"trash"}},"type":"Feature"},
	{"geometry":{"coordinates":[-40.324872,-20.320563],"type":"Point"},"properties":{"osm_id":"7028578256","tag":{"amenity":"waste_basket","waste":"trash"}},"type":"Feature"},
	{"geometry":{"coordinates":[-40.326213,-20.321274],"type":"Point"},"properties":{"osm_id":"7028578257","tag":{"amenity":"waste_basket","waste":"trash"}},"type":"Feature"},
	{"geometry":{"coordinates":[-40.339699,-20.322195],"type":"Point"},"properties":{"osm_id":"7028578258","tag":{"amenity":"waste_basket","waste":"trash"}},"type":"Feature"},
	{"geometry":{"coordinates":[-40.323921,-20.313447],"type":"Point"},"properties":{"osm_id":"7028578315","tag":{"amenity":"waste_basket","waste":"trash"}},"type":"Feature"},
	{"geometry":{"coordinates":[-40.323009,-20.314511],"type":"Point"},"properties":{"osm_id":"7028578316","tag":{"amenity":"waste_basket","waste":"trash"}},"type":"Feature"},
	{"geometry":{"coordinates":[-40.282465,-20.304277],"type":"Point"},"properties":{"osm_id":"7028578317","tag":{"amenity":"waste_basket","waste":"trash"}},"type":"Feature"},
	{"geometry":{"coordinates":[-40.282505,-20.304514],"type":"Point"},"properties":{"osm_id":"7028578318","tag":{"amenity":"waste_basket","waste":"trash"}},"type":"Feature"},
	{"geometry":{"coordinates":[-40.310698,-20.311285],"type":"Point"},"properties":{"osm_id":"7028578319","tag":{"amenity":"waste_basket","waste":"trash"}},"type":"Feature"},
	{"geometry":{"coordinates":[-40.310728,-20.311457],"type":"Point"},"properties":{"osm_id":"7028578320","tag":{"amenity":"waste_basket","waste":"trash"}},"type":"Feature"},
	{"geometry":{"coordinates":[-40.311879,-20.311449],"type":"Point"},"properties":{"osm_id":"7028578321","tag":{"amenity":"waste_basket","waste":"trash"}},"type":"Feature"},
	{"geometry":{"coordinates":[-40.318476,-20.312427],"type":"Point"},"properties":{"osm_id":"7028578322","tag":{"amenity":"waste_basket","waste":"trash"}},"type":"Feature"},
	{"geometry":{"coordinates":[-40.317619,-20.312347],"type":"Point"},"properties":{"osm_id":"7028578323","tag":{"amenity":"waste_basket","waste":"trash"}},"type":"Feature"},
	{"geometry":{"coordinates":[-40.316544,-20.312211],"type":"Point"},"properties":{"osm_id":"7028578324","tag":{"amenity":"waste_basket","waste":"trash"}},"type":"Feature"},
	{"geometry":{"coordinates":[-40.320746,-20.313835],"type":"Point"},"properties":{"osm_id":"7028578325","tag":{"amenity":"waste_basket","waste":"trash"}},"type":"Feature"},
	{"geometry":{"coordinates":[-40.315077,-20.310985],"type":"Point"},"properties":{"osm_id":"7028578326","tag":{"amenity":"waste_basket","waste":"trash"}},"type":"Feature"},
	{"geometry":{"coordinates":[-40.31557,-20.311792],"type":"Point"},"properties":{"osm_id":"7028578327","tag":{"amenity":"waste_basket","waste":"trash"}},"type":"Feature"},
	{"geometry":{"coordinates":[-40.319101,-20.313593],"type":"Point"},"properties":{"osm_id":"7028578328","tag":{"amenity":"waste_basket","waste":"trash"}},"type":"Feature"},
	{"geometry":{"coordinates":[-40.317982,-20.313445],"type":"Point"},"properties":{"osm_id":"7028578329","tag":{"amenity":"waste_basket","waste":"trash"}},"type":"Feature"},
	{"geometry":{"coordinates":[-40.317284,-20.313339],"type":"Point"},"properties":{"osm_id":"7028578330","tag":{"amenity":"waste_basket","waste":"trash"}},"type":"Feature"},
	{"geometry":{"coordinates":[-40.31635,-20.313183],"type":"Point"},"properties":{"osm_id":"7028578331","tag":{"amenity":"waste_basket","waste":"trash"}},"type":"Feature"},
	{"geometry":{"coordinates":[-40.315638,-20.313094],"type":"Point"},"properties":{"osm_id":"7028578332","tag":{"amenity":"waste_basket","waste":"trash"}},"type":"Feature"},
	{"geometry":{"coordinates":[-40.31468,-20.314876],"type":"Point"},"properties":{"osm_id":"7028578333","tag":{"amenity":"waste_basket","waste":"trash"}},"type":"Feature"},
	{"geometry":{"coordinates":[-40.314876,-20.31381],"type":"Point"},"properties":{"osm_id":"7028578334","tag":{"amenity":"waste_basket","waste":"trash"}},"type":"Feature"},
	{"geometry":{"coordinates":[-40.313967,-20.314227],"type":"Point"},"properties":{"osm_id":"7028578335","tag":{"amenity":"waste_basket","waste":"trash"}},"type":"Feature"},
	{"geometry":{"coordinates":[-40.313435,-20.31323],"type":"Point"},"properties":{"osm_id":"7028578336","tag":{"amenity":"waste_basket","waste":"trash"}},"type":"Feature"},
	{"geometry":{"coordinates":[-40.313462,-20.312415],"type":"Point"},"properties":{"osm_id":"7028578337","tag":{"amenity":"waste_basket","waste":"trash"}},"type":"Feature"},
	{"geometry":{"coordinates":[-40.309292,-20.316237],"type":"Point"},"properties":{"osm_id":"7028578338","tag":{"amenity":"waste_basket","waste":"trash"}},"type":"Feature"},
	{"geometry":{"coordinates":[-40.309573,-20.316777],"type":"Point"},"properties":{"osm_id":"7028578339","tag":{"amenity":"waste_basket","waste":"trash"}},"type":"Feature"},
	{"geometry":{"coordinates":[-40.309323,-20.316811],"type":"Point"},"properties":{"osm_id":"7028578340","tag":{"amenity":"waste_basket","waste":"trash"}},"type":"Feature"},
	{"geometry":{"coordinates":[-40.307774,-20.317091],"type":"Point"},"properties":{"osm_id":"7028578341","tag":{"amenity":"waste_basket","waste":"trash"}},"type":"Feature"},
	{"geometry":{"coordinates":[-40.307764,-20.316988],"type":"Point"},"properties":{"osm_id":"7028578342","tag":{"amenity":"waste_basket","waste":"trash"}},"type":"Feature"},
	{"geometry":{"coordinates":[-40.306656,-20.317118],"type":"Point"},"properties":{"osm_id":"7028578343","tag":{"amenity":"waste_basket","waste":"trash"}},"type":"Feature"},
	{"geometry":{"coordinates":[-40.306775,-20.317016],"type":"Point"},"properties":{"osm_id":"7028578344","tag":{"amenity":"waste_basket","waste":"trash"}},"type":"Feature"},
	{"geometry":{"coordinates":[-40.306033,-20.316498],"type":"Point"},"properties":{"osm_id":"7028578345","tag":{"amenity":"waste_basket","waste":"trash"}},"type":"Feature"},
	{"geometry":{"coordinates":[-40.305931,-20.316374],"type":"Point"},"properties":{"osm_id":"7028578346","tag":{"amenity":"waste_basket","waste":"trash"}},"type":"Feature"},
	{"geometry":{"coordinates":[-40.305189,-20.315617],"type":"Point"},"properties":{"osm_id":"7028578347","tag":{"amenity":"waste_basket","waste":"trash"}},"type":"Feature"},
	{"geometry":{"coordinates":[-40.305424,-20.31559],"type":"Point"},"properties":{"osm_id":"7028578348","tag":{"amenity":"waste_basket","waste":"trash"}},"type":"Feature"},
	{"geometry":{"coordinates":[-40.305886,-20.314399],"type":"Point"},"properties":{"osm_id":"7028578349","tag":{"amenity":"waste_basket","waste":"trash"}},"type":"Feature"},
	{"geometry":{"coordinates":[-40.305957,-20.314619],"type":"Point"},"properties":{"osm_id":"7028578350","tag":{"amenity":"waste_basket","waste":"trash"}},"type":"Feature"},
	{"geometry":{"coordinates":[-40.306873,-20.315038],"type":"Point"},"properties":{"osm_id":"7028578351","tag":{"amenity":"waste_basket","waste":"trash"}},"type":"Feature"},
	{"geometry":{"coordinates":[-40.307845,-20.315276],"type":"Point"},"properties":{"osm_id":"7028578352","tag":{"amenity":"waste_basket","waste":"trash"}},"type":"Feature"},
	{"geometry":{"coordinates":[-40.309373,-20.315645],"type":"Point"},"properties":{"osm_id":"7028578353","tag":{"amenity":"waste_basket","waste":"trash"}},"type":"Feature"},
	{"geometry":{"coordinates":[-40.309389,-20.315503],"type":"Point"},"properties":{"osm_id":"7028578354","tag":{"amenity":"waste_basket","waste":"trash"}},"type":"Feature"},
	{"geometry":{"coordinates":[-40.311197,-20.315751],"type":"Point"},"properties":{"osm_id":"7028578355","tag":{"amenity":"waste_basket","waste":"trash"}},"type":"Feature"},
	{"geometry":{"coordinates":[-40.312638,-20.31598],"type":"Point"},"properties":{"osm_id":"7028578356","tag":{"amenity":"waste_basket","waste":"trash"}},"type":"Feature"},
	{"geometry":{"coordinates":[-40.313478,-20.316262],"type":"Point"},"properties":{"osm_id":"7028578357","tag":{"amenity":"waste_basket","waste":"trash"}},"type":"Feature"},
	{"geometry":{"coordinates":[-40.313032,-20.312442],"type":"Point"},"properties":{"osm_id":"7028578358","tag":{"amenity":"waste_basket","waste":"trash"}},"type":"Feature"},
	{"geometry":{"coordinates":[-40.297206,-20.304157],"type":"Point"},"properties":{"osm_id":"7028578360","tag":{"amenity":"waste_basket","waste":"trash"}},"type":"Feature"},
	{"geometry":{"coordinates":[-40.290191,-20.314323],"type":"Point"},"properties":{"osm_id":"7028578369","tag":{"amenity":"waste_basket","waste":"trash"}},"type":"Feature"},
	{"geometry":{"coordinates":[-40.289125,-20.315044],"type":"Point"},"properties":{"osm_id":"7028578370","tag":{"amenity":"waste_basket","waste":"trash"}},"type":"Feature"},
	{"geometry":{"coordinates":[-40.290451,-20.315012],"type":"Point"},"properties":{"osm_id":"7028578371","tag":{"amenity":"waste_basket","waste":"trash"}},"type":"Feature"},
	{"geometry":{"coordinates":[-40.289916,-20.315133],"type":"Point"},"properties":{"osm_id":"7028578373","tag":{"amenity":"waste_basket","waste":"trash"}},"type":"Feature"},
	{"geometry":{"coordinates":[-40.289474,-20.315521],"type":"Point"},"properties":{"osm_id":"7028578374","tag":{"amenity":"waste_basket","waste":"trash"}},"type":"Feature"},
	{"geometry":{"coordinates":[-40.289776,-20.316197],"type":"Point"},"properties":{"osm_id":"7028578376","tag":{"amenity":"waste_basket","waste":"trash"}},"type":"Feature"},
	{"geometry":{"coordinates":[-40.29014,-20.315937],"type":"Point"},"properties":{"osm_id":"7028578378","tag":{"amenity":"waste_basket","waste":"trash"}},"type":"Feature"},
	{"geometry":{"coordinates":[-40.291145,-20.316152],"type":"Point"},"properties":{"osm_id":"7028578379","tag":{"amenity":"waste_basket","waste":"trash"}},"type":"Feature"},
	{"geometry":{"coordinates":[-40.290483,-20.31642],"type":"Point"},"properties":{"osm_id":"7028578380","tag":{"amenity":"waste_basket","waste":"trash"}},"type":"Feature"},
	{"geometry":{"coordinates":[-40.289637,-20.316872],"type":"Point"},"properties":{"osm_id":"7028578381","tag":{"amenity":"waste_basket","waste":"trash"}},"type":"Feature"},
	{"geometry":{"coordinates":[-40.289096,-20.31744],"type":"Point"},"properties":{"osm_id":"7028578382","tag":{"amenity":"waste_basket","waste":"trash"}},"type":"Feature"},
	{"geometry":{"coordinates":[-40.290793,-20.31732],"type":"Point"},"properties":{"osm_id":"7028578383","tag":{"amenity":"waste_basket","waste":"trash"}},"type":"Feature"},
	{"geometry":{"coordinates":[-40.29197,-20.317375],"type":"Point"},"properties":{"osm_id":"7028578384","tag":{"amenity":"waste_basket","waste":"trash"}},"type":"Feature"},
	{"geometry":{"coordinates":[-40.293339,-20.317384],"type":"Point"},"properties":{"osm_id":"7028578385","tag":{"amenity":"waste_basket","waste":"trash"}},"type":"Feature"},
	{"geometry":{"coordinates":[-40.280344,-20.309404],"type":"Point"},"properties":{"osm_id":"7028578386","tag":{"amenity":"waste_basket","waste":"trash"}},"type":"Feature"}
]
}
