{
"type": "FeatureCollection",
"features": [
	{"geometry":{"coordinates":[153.087434,-26.647093],"type":"Point"},"properties":{"osm_id":"7357221715","tag":{"amenity":"waste_basket","material":"plastic","operator":"Sunshine Coast Council","waste":"mixed"}},"type":"Feature"},
	{"geometry":{"coordinates":[153.083917,-26.645335],"type":"Point"},"properties":{"osm_id":"7373871740","tag":{"amenity":"waste_basket","colour":"green","material":"metal","operator":"Sunshine Coast Council"}},"type":"Feature"},
	{"geometry":{"coordinates":[153.034883,-26.661634],"type":"Point"},"properties":{"name":"Tomra","osm_id":"7396274587","tag":{"addr:housenumber":"5","addr:state":"QLD","addr:street":"Pike Street","addr:suburb":"Kunda Park","amenity":"recycling","recycling_type":"centre"}},"type":"Feature"},
	{"geometry":{"coordinates":[153.078895,-26.644136],"type":"Point"},"properties":{"osm_id":"7870068231","tag":{"amenity":"waste_basket","material":"metal","waste":"trash;recycling"}},"type":"Feature"},
	{"geometry":{"coordinates":[153.077733,-26.643771],"type":"Point"},"properties":{"osm_id":"7870068240","tag":{"amenity":"waste_basket","material":"metal","operator":"Sunshine Coast Council","waste":"trash;recycling"}},"type":"Feature"},
	{"geometry":{"coordinates":[153.056397,-26.643168],"type":"Point"},"properties":{"osm_id":"8336086557","tag":{"amenity":"waste_basket","operator":"Sunshine Coast Council","waste":"trash"}},"type":"Feature"},
	{"geometry":{"coordinates":[153.067473,-26.647538],"type":"Point"},"properties":{"osm_id":"8447479999","tag":{"amenity":"waste_basket","colour":"green","material":"steel","operator":"Sunshine Coast Council"}},"type":"Feature"},
	{"geometry":{"coordinates":[153.067709,-26.647552],"type":"Point"},"properties":{"osm_id":"8447480093","tag":{"amenity":"waste_basket","colour":"green","material":"steel","operator":"Sunshine Coast Council"}},"type":"Feature"},
	{"geometry":{"coordinates":[153.055908,-26.644471],"type":"Point"},"properties":{"osm_id":"8498346541","tag":{"amenity":"waste_basket"}},"type":"Feature"},
	{"geometry":{"coordinates":[153.055654,-26.644503],"type":"Point"},"properties":{"osm_id":"8498346542","tag":{"amenity":"waste_basket"}},"type":"Feature"},
	{"geometry":{"coordinates":[153.055668,-26.644503],"type":"Point"},"properties":{"osm_id":"8498346543","tag":{"amenity":"waste_basket"}},"type":"Feature"},
	{"geometry":{"coordinates":[153.084866,-26.643884],"type":"Point"},"properties":{"osm_id":"8573814376","tag":{"amenity":"waste_basket"}},"type":"Feature"},
	{"geometry":{"coordinates":[153.085817,-26.644544],"type":"Point"},"properties":{"osm_id":"8573814387","tag":{"amenity":"waste_basket"}},"type":"Feature"},
	{"geometry":{"coordinates":[153.086432,-26.645257],"type":"Point"},"properties":{"osm_id":"8573814408","tag":{"amenity":"waste_basket"}},"type":"Feature"},
	{"geometry":{"coordinates":[153.086926,-26.645894],"type":"Point"},"properties":{"osm_id":"8573814412","tag":{"amenity":"waste_basket"}},"type":"Feature"},
	{"geometry":{"coordinates":[153.055696,-26.645225],"type":"Point"},"properties":{"osm_id":"8623725933","tag":{"amenity":"waste_basket"}},"type":"Feature"},
	{"geometry":{"coordinates":[153.055727,-26.645888],"type":"Point"},"properties":{"osm_id":"8623725942","tag":{"amenity":"waste_basket"}},"type":"Feature"},
	{"geometry":{"coordinates":[153.055753,-26.645891],"type":"Point"},"properties":{"osm_id":"8623725943","tag":{"amenity":"waste_basket"}},"type":"Feature"},
	{"geometry":{"coordinates":[153.055574,-26.645909],"type":"Point"},"properties":{"osm_id":"8623725954","tag":{"amenity":"waste_basket"}},"type":"Feature"},
	{"geometry":{"coordinates":[153.055566,-26.645927],"type":"Point"},"properties":{"osm_id":"8623725955","tag":{"amenity":"waste_basket"}},"type":"Feature"},
	{"geometry":{"coordinates":[153.067909,-26.642473],"type":"Point"},"properties":{"osm_id":"8730028699","tag":{"amenity":"waste_basket","operator":"Sunshine Coast Council"}},"type":"Feature"},
	{"geometry":{"coordinates":[153.069063,-26.64221],"type":"Point"},"properties":{"osm_id":"8730028709","tag":{"amenity":"waste_basket","operator":"Sunshine Coast Council"}},"type":"Feature"},
	{"geometry":{"coordinates":[153.066716,-26.642588],"type":"Point"},"properties":{"osm_id":"8793247602","tag":{"amenity":"waste_basket","operator":"Sunshine Coast Council"}},"type":"Feature"},
	{"geometry":{"coordinates":[153.056811,-26.642556],"type":"Point"},"properties":{"osm_id":"8885843250","tag":{"amenity":"waste_basket","operator":"Sunsnhine Coast Council"}},"type":"Feature"}
]
}
