{
"type": "FeatureCollection",
"features": [
	{"geometry":{"coordinates":[153.074471,-27.319868],"type":"Point"},"properties":{"osm_id":"331186782","tag":{"amenity":"waste_disposal","waste":"trash"}},"type":"Feature"},
	{"geometry":{"coordinates":[153.081592,-27.321969],"type":"Point"},"properties":{"osm_id":"331186786","tag":{"amenity":"waste_disposal","waste":"trash"}},"type":"Feature"},
	{"geometry":{"coordinates":[153.084335,-27.32268],"type":"Point"},"properties":{"osm_id":"331186788","tag":{"amenity":"waste_disposal","waste":"trash"}},"type":"Feature"},
	{"geometry":{"coordinates":[153.085069,-27.32227],"type":"Point"},"properties":{"osm_id":"331186793","tag":{"amenity":"waste_disposal","waste":"trash"}},"type":"Feature"},
	{"geometry":{"coordinates":[153.074771,-27.320238],"type":"Point"},"properties":{"osm_id":"331437942","tag":{"amenity":"waste_basket","waste":"dog_excrement"}},"type":"Feature"},
	{"geometry":{"coordinates":[153.084794,-27.323905],"type":"Point"},"properties":{"osm_id":"1239479691","tag":{"amenity":"waste_disposal"}},"type":"Feature"},
	{"geometry":{"coordinates":[153.059435,-27.334527],"type":"Point"},"properties":{"name":"Charity Donation Bins","osm_id":"1283631508","tag":{"amenity":"recycling"}},"type":"Feature"},
	{"geometry":{"coordinates":[153.062841,-27.327972],"type":"Point"},"properties":{"name":"Charity Donation Bins","osm_id":"1283631522","tag":{"amenity":"recycling"}},"type":"Feature"},
	{"geometry":{"coordinates":[153.058526,-27.325401],"type":"Point"},"properties":{"name":"Charity Donation Bin","osm_id":"1283631759","tag":{"amenity":"recycling"}},"type":"Feature"},
	{"geometry":{"coordinates":[153.061436,-27.363466],"type":"Point"},"properties":{"name":"Charity Collection Bins","osm_id":"4405404389","tag":{"amenity":"recycling","operator":"Lifeline","recycling:books":"yes","recycling:clothes":"yes","recycling:shoes":"yes"}},"type":"Feature"},
	{"geometry":{"coordinates":[153.05314,-27.351891],"type":"Point"},"properties":{"osm_id":"6418748897","tag":{"amenity":"waste_basket","waste":"dog_excrement"}},"type":"Feature"}
]
}
