{
"type": "FeatureCollection",
"features": [
	{"geometry":{"coordinates":[153.046747,-27.447591],"type":"Point"},"properties":{"osm_id":"3637181884","tag":{"amenity":"waste_basket"}},"type":"Feature"},
	{"geometry":{"coordinates":[153.046292,-27.448898],"type":"Point"},"properties":{"osm_id":"4416254148","tag":{"amenity":"waste_basket"}},"type":"Feature"},
	{"geometry":{"coordinates":[153.036009,-27.448763],"type":"Point"},"properties":{"osm_id":"5372203694","tag":{"amenity":"waste_basket"}},"type":"Feature"},
	{"geometry":{"coordinates":[153.050384,-27.415066],"type":"Point"},"properties":{"osm_id":"5599967694","tag":{"amenity":"waste_basket","waste":"trash"}},"type":"Feature"},
	{"geometry":{"coordinates":[153.081198,-27.415057],"type":"Point"},"properties":{"osm_id":"5718867721","tag":{"amenity":"waste_basket"}},"type":"Feature"},
	{"geometry":{"coordinates":[153.04072,-27.428991],"type":"Point"},"properties":{"osm_id":"5862681452","tag":{"amenity":"waste_basket"}},"type":"Feature"},
	{"geometry":{"coordinates":[153.042872,-27.381499],"type":"Point"},"properties":{"osm_id":"6070497911","tag":{"amenity":"waste_basket","waste":"dog_excrement"}},"type":"Feature"},
	{"geometry":{"coordinates":[153.043555,-27.381483],"type":"Point"},"properties":{"osm_id":"6070497912","tag":{"amenity":"waste_basket","waste":"dog_excrement"}},"type":"Feature"},
	{"geometry":{"coordinates":[153.04294,-27.38165],"type":"Point"},"properties":{"osm_id":"6070497914","tag":{"amenity":"waste_basket"}},"type":"Feature"},
	{"geometry":{"coordinates":[153.042882,-27.380341],"type":"Point"},"properties":{"osm_id":"6070497915","tag":{"amenity":"waste_basket","waste":"dog_excrement"}},"type":"Feature"},
	{"geometry":{"coordinates":[153.04054,-27.379853],"type":"Point"},"properties":{"osm_id":"6070497916","tag":{"amenity":"waste_basket"}},"type":"Feature"},
	{"geometry":{"coordinates":[153.045153,-27.378263],"type":"Point"},"properties":{"osm_id":"6070497917","tag":{"amenity":"waste_basket"}},"type":"Feature"},
	{"geometry":{"coordinates":[153.045855,-27.378819],"type":"Point"},"properties":{"osm_id":"6070497918","tag":{"amenity":"waste_basket"}},"type":"Feature"},
	{"geometry":{"coordinates":[153.045215,-27.378149],"type":"Point"},"properties":{"osm_id":"6070497919","tag":{"amenity":"waste_basket"}},"type":"Feature"},
	{"geometry":{"coordinates":[153.033362,-27.379763],"type":"Point"},"properties":{"osm_id":"6070497947","tag":{"amenity":"waste_basket"}},"type":"Feature"},
	{"geometry":{"coordinates":[153.033642,-27.378057],"type":"Point"},"properties":{"osm_id":"6070497949","tag":{"amenity":"waste_basket","waste":"trash"}},"type":"Feature"},
	{"geometry":{"coordinates":[153.033532,-27.378368],"type":"Point"},"properties":{"osm_id":"6070497950","tag":{"amenity":"waste_basket"}},"type":"Feature"},
	{"geometry":{"coordinates":[153.033651,-27.378061],"type":"Point"},"properties":{"osm_id":"6070497954","tag":{"amenity":"waste_basket","waste":"trash"}},"type":"Feature"},
	{"geometry":{"coordinates":[153.034593,-27.376254],"type":"Point"},"properties":{"osm_id":"6070498499","tag":{"amenity":"waste_basket","waste":"trash"}},"type":"Feature"},
	{"geometry":{"coordinates":[153.059016,-27.409226],"type":"Point"},"properties":{"osm_id":"6874561487","tag":{"amenity":"waste_basket"}},"type":"Feature"},
	{"geometry":{"coordinates":[153.021865,-27.395209],"type":"Point"},"properties":{"name":"ReturnIT","osm_id":"7041535144","tag":{"amenity":"recycling"}},"type":"Feature"}
]
}
