{
"type": "FeatureCollection",
"features": [
	{"geometry":{"coordinates":[16.60663,59.608231],"type":"Point"},"properties":{"name":"\u00c3\u0085terbruket H\u00c3\u00a4lla","osm_id":"863217597","tag":{"amenity":"recycling","recycling_type":"centre"}},"type":"Feature"},
	{"geometry":{"coordinates":[16.56362,59.61651],"type":"Point"},"properties":{"name":"\u00c3\u0085terbruket \u00c3\u0084ngsg\u00c3\u00a4rdet","osm_id":"902868085","tag":{"amenity":"recycling","recycling_type":"centre"}},"type":"Feature"},
	{"geometry":{"coordinates":[16.54814,59.604773],"type":"Point"},"properties":{"osm_id":"4882830746","tag":{"amenity":"waste_basket"}},"type":"Feature"},
	{"geometry":{"coordinates":[16.524244,59.608829],"type":"Point"},"properties":{"osm_id":"4883926411","tag":{"amenity":"recycling","recycling:newspaper":"yes","recycling:paper":"yes","recycling_type":"container"}},"type":"Feature"},
	{"geometry":{"coordinates":[16.529809,59.613014],"type":"Point"},"properties":{"osm_id":"4883926414","tag":{"amenity":"waste_basket"}},"type":"Feature"},
	{"geometry":{"coordinates":[16.527634,59.61682],"type":"Point"},"properties":{"osm_id":"4883965498","tag":{"amenity":"waste_basket"}},"type":"Feature"},
	{"geometry":{"coordinates":[16.528298,59.618979],"type":"Point"},"properties":{"osm_id":"4889042945","tag":{"amenity":"recycling","recycling:glass_bottles":"yes","recycling:newspaper":"yes","recycling:paper":"yes","recycling_type":"container"}},"type":"Feature"},
	{"geometry":{"coordinates":[16.569844,59.621419],"type":"Point"},"properties":{"osm_id":"4892663687","tag":{"amenity":"waste_basket"}},"type":"Feature"},
	{"geometry":{"coordinates":[16.570434,59.621702],"type":"Point"},"properties":{"osm_id":"4892663689","tag":{"amenity":"waste_basket"}},"type":"Feature"},
	{"geometry":{"coordinates":[16.5535,59.619324],"type":"Point"},"properties":{"osm_id":"4892664027","tag":{"amenity":"waste_basket"}},"type":"Feature"},
	{"geometry":{"coordinates":[16.523616,59.598119],"type":"Point"},"properties":{"osm_id":"4904119380","tag":{"amenity":"waste_basket"}},"type":"Feature"},
	{"geometry":{"coordinates":[16.526736,59.598813],"type":"Point"},"properties":{"osm_id":"4904119381","tag":{"amenity":"waste_basket"}},"type":"Feature"},
	{"geometry":{"coordinates":[16.528053,59.599233],"type":"Point"},"properties":{"osm_id":"4904119384","tag":{"amenity":"waste_basket"}},"type":"Feature"},
	{"geometry":{"coordinates":[16.590292,59.618154],"type":"Point"},"properties":{"osm_id":"5036117799","tag":{"amenity":"waste_basket"}},"type":"Feature"},
	{"geometry":{"coordinates":[16.527083,59.601752],"type":"Point"},"properties":{"osm_id":"5036721330","tag":{"amenity":"waste_basket"}},"type":"Feature"},
	{"geometry":{"coordinates":[16.528568,59.601116],"type":"Point"},"properties":{"osm_id":"5036721331","tag":{"amenity":"waste_basket"}},"type":"Feature"},
	{"geometry":{"coordinates":[16.529196,59.600651],"type":"Point"},"properties":{"osm_id":"5036721332","tag":{"amenity":"waste_basket"}},"type":"Feature"},
	{"geometry":{"coordinates":[16.527151,59.599594],"type":"Point"},"properties":{"osm_id":"5790778745","tag":{"amenity":"waste_basket"}},"type":"Feature"}
]
}
