{
"type": "FeatureCollection",
"features": [
	{"geometry":{"coordinates":[16.581203,51.866475],"type":"Point"},"properties":{"osm_id":"3340615984","tag":{"amenity":"recycling","recycling:glass":"yes","recycling:paper":"yes"}},"type":"Feature"},
	{"geometry":{"coordinates":[16.583512,51.845674],"type":"Point"},"properties":{"osm_id":"4571641204","tag":{"amenity":"waste_disposal"}},"type":"Feature"},
	{"geometry":{"coordinates":[16.585461,51.844213],"type":"Point"},"properties":{"osm_id":"4571641234","tag":{"amenity":"waste_disposal"}},"type":"Feature"},
	{"geometry":{"coordinates":[16.585725,51.848184],"type":"Point"},"properties":{"osm_id":"4708272415","tag":{"amenity":"waste_disposal"}},"type":"Feature"},
	{"geometry":{"coordinates":[16.586115,51.848689],"type":"Point"},"properties":{"osm_id":"4708272416","tag":{"amenity":"waste_disposal"}},"type":"Feature"},
	{"geometry":{"coordinates":[16.593363,51.839393],"type":"Point"},"properties":{"osm_id":"4820388311","tag":{"amenity":"waste_disposal"}},"type":"Feature"},
	{"geometry":{"coordinates":[16.580765,51.838355],"type":"Point"},"properties":{"osm_id":"5366244360","tag":{"amenity":"waste_disposal"}},"type":"Feature"},
	{"geometry":{"coordinates":[16.580936,51.836825],"type":"Point"},"properties":{"osm_id":"5366244362","tag":{"access":"private","amenity":"waste_disposal"}},"type":"Feature"},
	{"geometry":{"coordinates":[16.598919,51.839096],"type":"Point"},"properties":{"osm_id":"5518918861","tag":{"amenity":"waste_disposal"}},"type":"Feature"},
	{"geometry":{"coordinates":[16.598838,51.839195],"type":"Point"},"properties":{"osm_id":"5518918862","tag":{"amenity":"waste_disposal"}},"type":"Feature"},
	{"geometry":{"coordinates":[16.583559,51.837328],"type":"Point"},"properties":{"osm_id":"6001065382","tag":{"amenity":"waste_disposal"}},"type":"Feature"},
	{"geometry":{"coordinates":[16.581911,51.871028],"type":"Point"},"properties":{"osm_id":"6757544824","tag":{"amenity":"waste_disposal"}},"type":"Feature"},
	{"geometry":{"coordinates":[16.599024,51.836468],"type":"Point"},"properties":{"osm_id":"6909766837","tag":{"amenity":"waste_disposal"}},"type":"Feature"},
	{"geometry":{"coordinates":[16.580754,51.83818],"type":"Point"},"properties":{"osm_id":"7298876687","tag":{"amenity":"recycling","recycling:green_waste":"yes","recycling:paper":"yes","recycling:plastic":"yes","recycling:plastic_bottles":"yes","recycling:plastic_packaging":"yes","recycling_type":"container"}},"type":"Feature"},
	{"geometry":{"coordinates":[16.580124,51.836943],"type":"Point"},"properties":{"osm_id":"7298876689","tag":{"amenity":"recycling","recycling:cans":"yes","recycling:glass":"yes","recycling:glass_bottles":"yes","recycling:paper":"yes","recycling:plastic":"yes","recycling:waste":"yes","recycling_type":"container"}},"type":"Feature"},
	{"geometry":{"coordinates":[16.580124,51.836957],"type":"Point"},"properties":{"osm_id":"7298876690","tag":{"amenity":"waste_disposal","waste":"trash"}},"type":"Feature"}
]
}
