{
"type": "FeatureCollection",
"features": [
	{"geometry":{"coordinates":[16.565234,48.565912],"type":"Point"},"properties":{"osm_id":"3379634473","tag":{"amenity":"waste_basket"}},"type":"Feature"},
	{"geometry":{"coordinates":[16.565478,48.565987],"type":"Point"},"properties":{"osm_id":"3379634475","tag":{"amenity":"waste_basket"}},"type":"Feature"},
	{"geometry":{"coordinates":[16.580829,48.562181],"type":"Point"},"properties":{"highway":"street_lamp","osm_id":"3445154397","tag":{"amenity":"waste_basket","vending":"excrement_bags"}},"type":"Feature"},
	{"geometry":{"coordinates":[16.598852,48.561454],"type":"Point"},"properties":{"osm_id":"3446970091","tag":{"amenity":"waste_basket"}},"type":"Feature"},
	{"geometry":{"coordinates":[16.601395,48.561885],"type":"Point"},"properties":{"osm_id":"3446971196","tag":{"amenity":"recycling","recycling:glass_bottles":"yes"}},"type":"Feature"},
	{"geometry":{"coordinates":[16.573344,48.564032],"type":"Point"},"properties":{"osm_id":"3446971209","tag":{"amenity":"waste_basket"}},"type":"Feature"},
	{"geometry":{"coordinates":[16.563588,48.55762],"type":"Point"},"properties":{"osm_id":"3456085547","tag":{"amenity":"waste_basket"}},"type":"Feature"},
	{"geometry":{"coordinates":[16.595562,48.558777],"type":"Point"},"properties":{"osm_id":"3456085556","tag":{"amenity":"waste_basket"}},"type":"Feature"},
	{"geometry":{"coordinates":[16.57143,48.560006],"type":"Point"},"properties":{"osm_id":"3456085562","tag":{"amenity":"waste_basket"}},"type":"Feature"},
	{"geometry":{"coordinates":[16.576187,48.56054],"type":"Point"},"properties":{"osm_id":"3456085565","tag":{"amenity":"waste_basket"}},"type":"Feature"},
	{"geometry":{"coordinates":[16.58134,48.56116],"type":"Point"},"properties":{"osm_id":"3456085567","tag":{"amenity":"waste_basket"}},"type":"Feature"},
	{"geometry":{"coordinates":[16.603452,48.565069],"type":"Point"},"properties":{"osm_id":"3456085585","tag":{"amenity":"waste_basket"}},"type":"Feature"},
	{"geometry":{"coordinates":[16.565471,48.557504],"type":"Point"},"properties":{"osm_id":"3459760427","tag":{"amenity":"recycling","recycling:glass_bottles":"yes","recycling_type":"container"}},"type":"Feature"},
	{"geometry":{"coordinates":[16.565094,48.557946],"type":"Point"},"properties":{"osm_id":"3459760430","tag":{"amenity":"waste_basket"}},"type":"Feature"},
	{"geometry":{"coordinates":[16.578233,48.560775],"type":"Point"},"properties":{"osm_id":"3459760440","tag":{"amenity":"waste_basket"}},"type":"Feature"},
	{"geometry":{"coordinates":[16.579539,48.560931],"type":"Point"},"properties":{"osm_id":"3459760443","tag":{"amenity":"waste_basket"}},"type":"Feature"},
	{"geometry":{"coordinates":[16.570504,48.56274],"type":"Point"},"properties":{"osm_id":"3459792681","tag":{"amenity":"waste_basket"}},"type":"Feature"},
	{"geometry":{"coordinates":[16.570277,48.564214],"type":"Point"},"properties":{"osm_id":"3459792685","tag":{"amenity":"recycling","recycling:glass":"yes","recycling:glass_bottles":"yes","recycling_type":"container"}},"type":"Feature"},
	{"geometry":{"coordinates":[16.534704,48.545669],"type":"Point"},"properties":{"osm_id":"3484066793","tag":{"amenity":"recycling","recycling:glass_bottles":"yes","recycling_type":"container"}},"type":"Feature"},
	{"geometry":{"coordinates":[16.568703,48.55691],"type":"Point"},"properties":{"osm_id":"3484067100","tag":{"amenity":"recycling","recycling:glass_bottles":"yes","recycling_type":"container"}},"type":"Feature"},
	{"geometry":{"coordinates":[16.568181,48.557161],"type":"Point"},"properties":{"osm_id":"3484067105","tag":{"amenity":"waste_basket"}},"type":"Feature"},
	{"geometry":{"coordinates":[16.58112,48.564501],"type":"Point"},"properties":{"osm_id":"3499404823","tag":{"amenity":"waste_basket"}},"type":"Feature"},
	{"geometry":{"coordinates":[16.58198,48.564706],"type":"Point"},"properties":{"osm_id":"3499404826","tag":{"amenity":"waste_basket"}},"type":"Feature"},
	{"geometry":{"coordinates":[16.583177,48.564972],"type":"Point"},"properties":{"osm_id":"3499404829","tag":{"amenity":"waste_basket"}},"type":"Feature"},
	{"geometry":{"coordinates":[16.566691,48.566043],"type":"Point"},"properties":{"osm_id":"3511737142","tag":{"amenity":"waste_basket"}},"type":"Feature"},
	{"geometry":{"coordinates":[16.560822,48.567132],"type":"Point"},"properties":{"osm_id":"3511737151","tag":{"amenity":"waste_basket"}},"type":"Feature"},
	{"geometry":{"coordinates":[16.566035,48.568246],"type":"Point"},"properties":{"osm_id":"3511737159","tag":{"amenity":"waste_basket"}},"type":"Feature"},
	{"geometry":{"coordinates":[16.565683,48.5683],"type":"Point"},"properties":{"osm_id":"3511737160","tag":{"amenity":"waste_basket"}},"type":"Feature"},
	{"geometry":{"coordinates":[16.562755,48.563158],"type":"Point"},"properties":{"osm_id":"3519464770","tag":{"amenity":"waste_basket"}},"type":"Feature"},
	{"geometry":{"coordinates":[16.56389,48.564001],"type":"Point"},"properties":{"osm_id":"3519464783","tag":{"amenity":"waste_basket"}},"type":"Feature"},
	{"geometry":{"coordinates":[16.565271,48.564994],"type":"Point"},"properties":{"osm_id":"3519465396","tag":{"amenity":"waste_basket"}},"type":"Feature"},
	{"geometry":{"coordinates":[16.549737,48.540996],"type":"Point"},"properties":{"osm_id":"3522280275","tag":{"amenity":"recycling","recycling:glass_bottles":"yes","recycling_type":"container"}},"type":"Feature"},
	{"geometry":{"coordinates":[16.536473,48.568639],"type":"Point"},"properties":{"osm_id":"3526044913","tag":{"amenity":"waste_basket"}},"type":"Feature"},
	{"geometry":{"coordinates":[16.563194,48.563316],"type":"Point"},"properties":{"osm_id":"3527776583","tag":{"amenity":"waste_basket"}},"type":"Feature"},
	{"geometry":{"coordinates":[16.570391,48.574079],"type":"Point"},"properties":{"osm_id":"5599774113","tag":{"amenity":"recycling","recycling:glass":"yes","recycling_type":"container","survey:date":"2018-05-01"}},"type":"Feature"},
	{"geometry":{"coordinates":[16.57384,48.570422],"type":"Point"},"properties":{"osm_id":"5599774114","tag":{"amenity":"recycling","recycling:glass":"yes","recycling_type":"container","survey:date":"2018-05-01"}},"type":"Feature"},
	{"geometry":{"coordinates":[16.577326,48.560788],"type":"Point"},"properties":{"osm_id":"5599774115","tag":{"amenity":"recycling","recycling:clothes":"yes","recycling:glass":"yes","recycling_type":"container","survey:date":"2018-05-01"}},"type":"Feature"},
	{"geometry":{"coordinates":[16.573984,48.563948],"type":"Point"},"properties":{"osm_id":"5599774116","tag":{"amenity":"recycling","recycling:clothes":"yes","recycling_type":"container","survey:date":"2018-05-01"}},"type":"Feature"},
	{"geometry":{"coordinates":[16.578482,48.565683],"type":"Point"},"properties":{"osm_id":"5757235142","tag":{"amenity":"recycling","recycling:glass":"yes","recycling_type":"container"}},"type":"Feature"},
	{"geometry":{"coordinates":[16.573512,48.563988],"type":"Point"},"properties":{"osm_id":"5757235143","tag":{"amenity":"recycling","recycling:glass":"yes","recycling_type":"container"}},"type":"Feature"},
	{"geometry":{"coordinates":[16.583859,48.570218],"type":"Point"},"properties":{"osm_id":"6502592185","tag":{"amenity":"recycling","recycling:glass":"yes","recycling_type":"container"}},"type":"Feature"},
	{"geometry":{"coordinates":[16.580119,48.571833],"type":"Point"},"properties":{"osm_id":"6502592186","tag":{"amenity":"recycling","recycling:glass":"yes","recycling_type":"container"}},"type":"Feature"},
	{"geometry":{"coordinates":[16.531147,48.565849],"type":"Point"},"properties":{"osm_id":"6704012885","tag":{"amenity":"waste_basket","waste":"trash"}},"type":"Feature"}
]
}
