{
"type": "FeatureCollection",
"features": [
	{"geometry":{"coordinates":[16.597251,48.310458],"type":"Point"},"properties":{"osm_id":"305467379","tag":{"amenity":"recycling","location":"overground","recycling:glass":"yes","recycling_type":"container"}},"type":"Feature"},
	{"geometry":{"coordinates":[16.562301,48.298741],"type":"Point"},"properties":{"osm_id":"306155418","tag":{"amenity":"recycling","location":"overground","recycling:glass":"yes","recycling_type":"container"}},"type":"Feature"},
	{"geometry":{"coordinates":[16.576484,48.301821],"type":"Point"},"properties":{"osm_id":"351111490","tag":{"amenity":"recycling","recycling:glass":"yes"}},"type":"Feature"},
	{"geometry":{"coordinates":[16.571136,48.314283],"type":"Point"},"properties":{"osm_id":"593409786","tag":{"amenity":"recycling"}},"type":"Feature"},
	{"geometry":{"coordinates":[16.576326,48.315321],"type":"Point"},"properties":{"osm_id":"593409984","tag":{"amenity":"recycling"}},"type":"Feature"},
	{"geometry":{"coordinates":[16.596161,48.314347],"type":"Point"},"properties":{"osm_id":"593410566","tag":{"amenity":"recycling","recycling_type":"container"}},"type":"Feature"},
	{"geometry":{"coordinates":[16.572539,48.304684],"type":"Point"},"properties":{"osm_id":"593412881","tag":{"amenity":"recycling","location":"overground","recycling_type":"container"}},"type":"Feature"},
	{"geometry":{"coordinates":[16.555185,48.297706],"type":"Point"},"properties":{"osm_id":"593413066","tag":{"amenity":"recycling"}},"type":"Feature"},
	{"geometry":{"coordinates":[16.564051,48.305279],"type":"Point"},"properties":{"name":"Altstoffsammelzentrum Deutsch-Wagram","osm_id":"2108596729","tag":{"amenity":"recycling","recycling:green_waste":"yes","recycling_type":"centre"}},"type":"Feature"},
	{"geometry":{"coordinates":[16.597419,48.311574],"type":"Point"},"properties":{"osm_id":"7276431418","tag":{"amenity":"waste_basket"}},"type":"Feature"},
	{"geometry":{"coordinates":[16.580175,48.307311],"type":"Point"},"properties":{"osm_id":"9175680797","tag":{"amenity":"waste_basket","colour":"green"}},"type":"Feature"}
]
}
