{
"type": "FeatureCollection",
"lastupdate": "2020-08-05T00:00:00Z",
"features": [
	{"geometry":{"coordinates":[16.606102,47.686671],"type":"Point"},"properties":{"osm_id":"1467143562","tag":{"amenity":"recycling"}},"type":"Feature"},
	{"geometry":{"coordinates":[16.607085,47.678901],"type":"Point"},"properties":{"osm_id":"1554597023","tag":{"amenity":"recycling"}},"type":"Feature"},
	{"geometry":{"coordinates":[16.588552,47.67769],"type":"Point"},"properties":{"osm_id":"2046679655","tag":{"amenity":"waste_basket"}},"type":"Feature"},
	{"geometry":{"coordinates":[16.588571,47.67791],"type":"Point"},"properties":{"osm_id":"2046679658","tag":{"amenity":"recycling"}},"type":"Feature"},
	{"geometry":{"coordinates":[16.5829,47.6746],"type":"Point"},"properties":{"osm_id":"3470005722","tag":{"amenity":"recycling","description":"Szelekt\u00edv hullad\u00e9kgy\u0171jt\u0151 kont\u00e9nerek.","source:date":"2014-09-14","url":"http://turistautak.hu/poi.php?id=171668"}},"type":"Feature"},
	{"geometry":{"coordinates":[16.583283,47.684883],"type":"Point"},"properties":{"osm_id":"3470005740","tag":{"addr:city":"Sopron","addr:street":"T\u00e1ncsics utca","amenity":"recycling","description":"Sopron, T\u00e1ncsics utca, a netk\u00e1v\u00e9z\u00f3 el\u0151tt.","source:date":"2008-05-14","url":"http://turistautak.hu/poi.php?id=16890"}},"type":"Feature"},
	{"geometry":{"coordinates":[16.598146,47.685268],"type":"Point"},"properties":{"osm_id":"5100751636","tag":{"amenity":"recycling"}},"type":"Feature"},
	{"geometry":{"coordinates":[16.587349,47.678399],"type":"Point"},"properties":{"osm_id":"6732171489","tag":{"amenity":"recycling","recycling_type":"container"}},"type":"Feature"},
	{"geometry":{"coordinates":[16.5873,47.678167],"type":"Point"},"properties":{"osm_id":"6757611019","tag":{"amenity":"waste_basket"}},"type":"Feature"},
	{"geometry":{"coordinates":[16.563655,47.684526],"type":"Point"},"properties":{"osm_id":"7726053468","tag":{"amenity":"recycling","recycling_type":"container"}},"type":"Feature"}
]
}
