{
"type": "FeatureCollection",
"features": [
	{"geometry":{"coordinates":[16.596149,47.009651],"type":"Point"},"properties":{"osm_id":"2334356536","tag":{"amenity":"recycling","recycling_type":"container"}},"type":"Feature"},
	{"geometry":{"coordinates":[16.592033,47.011667],"type":"Point"},"properties":{"osm_id":"3459863182","tag":{"amenity":"recycling","description":"Szelekt\u00c3\u00adv hullad\u00c3\u00a9kgy\u00c5\u00b1jt\u00c5\u0091 sziget. \u00c3\u009cveg, m\u00c5\u00b1anyag palack, pap\u00c3\u00adr kont\u00c3\u00a9nerek.","source:date":"2014-09-13","url":"http://turistautak.hu/poi.php?id=171646"}},"type":"Feature"},
	{"geometry":{"coordinates":[16.605326,47.022883],"type":"Point"},"properties":{"osm_id":"6031975461","tag":{"amenity":"recycling","recycling_type":"container"}},"type":"Feature"},
	{"geometry":{"coordinates":[16.599847,47.018806],"type":"Point"},"properties":{"osm_id":"6138888712","tag":{"amenity":"recycling","recycling_type":"container"}},"type":"Feature"},
	{"geometry":{"coordinates":[16.562337,47.005373],"type":"Point"},"properties":{"osm_id":"6195832963","tag":{"amenity":"recycling","recycling_type":"container"}},"type":"Feature"},
	{"geometry":{"coordinates":[16.5963,47.015956],"type":"Point"},"properties":{"osm_id":"7674748089","tag":{"amenity":"waste_basket"}},"type":"Feature"},
	{"geometry":{"coordinates":[16.596591,47.016014],"type":"Point"},"properties":{"osm_id":"7674748090","tag":{"amenity":"waste_basket"}},"type":"Feature"},
	{"geometry":{"coordinates":[16.598053,47.016304],"type":"Point"},"properties":{"osm_id":"7674748091","tag":{"amenity":"waste_basket"}},"type":"Feature"},
	{"geometry":{"coordinates":[16.598116,47.016317],"type":"Point"},"properties":{"osm_id":"7674748092","tag":{"amenity":"waste_basket"}},"type":"Feature"},
	{"geometry":{"coordinates":[16.595876,47.015705],"type":"Point"},"properties":{"osm_id":"7674748093","tag":{"amenity":"waste_basket"}},"type":"Feature"},
	{"geometry":{"coordinates":[16.597013,47.015911],"type":"Point"},"properties":{"osm_id":"7674748095","tag":{"amenity":"waste_basket"}},"type":"Feature"},
	{"geometry":{"coordinates":[16.597065,47.015747],"type":"Point"},"properties":{"osm_id":"7674748096","tag":{"amenity":"waste_basket"}},"type":"Feature"},
	{"geometry":{"coordinates":[16.597917,47.015974],"type":"Point"},"properties":{"osm_id":"7674748097","tag":{"amenity":"waste_basket"}},"type":"Feature"},
	{"geometry":{"coordinates":[16.597586,47.015851],"type":"Point"},"properties":{"osm_id":"7674748098","tag":{"amenity":"waste_basket"}},"type":"Feature"},
	{"geometry":{"coordinates":[16.598179,47.016],"type":"Point"},"properties":{"osm_id":"7674748124","tag":{"amenity":"waste_basket"}},"type":"Feature"},
	{"geometry":{"coordinates":[16.599235,47.017066],"type":"Point"},"properties":{"osm_id":"7674748142","tag":{"amenity":"waste_basket"}},"type":"Feature"},
	{"geometry":{"coordinates":[16.599264,47.016378],"type":"Point"},"properties":{"osm_id":"7674748143","tag":{"amenity":"waste_basket"}},"type":"Feature"}
]
}
