{
"type": "FeatureCollection",
"lastupdate": "2020-08-05T00:00:00Z",
"features": [
	{"geometry":{"coordinates":[16.591947,43.18148],"type":"Point"},"properties":{"osm_id":"977368164","tag":{"amenity":"waste_basket"}},"type":"Feature"},
	{"geometry":{"coordinates":[16.587335,43.181142],"type":"Point"},"properties":{"osm_id":"977368165","tag":{"amenity":"waste_basket"}},"type":"Feature"},
	{"geometry":{"coordinates":[16.575941,43.18095],"type":"Point"},"properties":{"osm_id":"1401977294","tag":{"amenity":"waste_basket"}},"type":"Feature"},
	{"geometry":{"coordinates":[16.534689,43.146102],"type":"Point"},"properties":{"osm_id":"3695382182","tag":{"amenity":"waste_basket"}},"type":"Feature"},
	{"geometry":{"coordinates":[16.535104,43.14581],"type":"Point"},"properties":{"osm_id":"3696759098","tag":{"amenity":"waste_basket"}},"type":"Feature"},
	{"geometry":{"coordinates":[16.600175,43.184705],"type":"Point"},"properties":{"osm_id":"4314417852","tag":{"amenity":"waste_basket"}},"type":"Feature"},
	{"geometry":{"coordinates":[16.599948,43.184644],"type":"Point"},"properties":{"osm_id":"4314417853","tag":{"amenity":"waste_basket"}},"type":"Feature"},
	{"geometry":{"coordinates":[16.60012,43.184586],"type":"Point"},"properties":{"osm_id":"4314417854","tag":{"amenity":"waste_basket"}},"type":"Feature"},
	{"geometry":{"coordinates":[16.567951,43.177168],"type":"Point"},"properties":{"osm_id":"4326948650","tag":{"amenity":"waste_basket"}},"type":"Feature"},
	{"geometry":{"coordinates":[16.569699,43.179419],"type":"Point"},"properties":{"osm_id":"6723331184","tag":{"amenity":"waste_basket"}},"type":"Feature"},
	{"geometry":{"coordinates":[16.576313,43.180533],"type":"Point"},"properties":{"osm_id":"6723339185","tag":{"amenity":"waste_basket"}},"type":"Feature"},
	{"geometry":{"coordinates":[16.577812,43.180234],"type":"Point"},"properties":{"osm_id":"6723339186","tag":{"amenity":"waste_basket"}},"type":"Feature"},
	{"geometry":{"coordinates":[16.575972,43.179862],"type":"Point"},"properties":{"name":"Povrat plasti\u00c4\u008dnih boca","osm_id":"6723339188","tag":{"amenity":"recycling","recycling:plastic_bottles":"yes","recycling_type":"centre"}},"type":"Feature"},
	{"geometry":{"coordinates":[16.590047,43.186336],"type":"Point"},"properties":{"osm_id":"6723339194","tag":{"amenity":"waste_basket"}},"type":"Feature"}
]
}
