{
"type": "FeatureCollection",
"features": [
	{"geometry":{"coordinates":[-117.297655,33.085066],"type":"Point"},"properties":{"name":"Goodwill","osm_id":"2869782662","tag":{"addr:city":"Encinitas","addr:country":"US","addr:street":"La Costa Avenue","amenity":"recycling","opening_hours":"08:30-17:00","recycling_type":"centre"}},"type":"Feature"},
	{"geometry":{"coordinates":[-117.263636,33.116265],"type":"Point"},"properties":{"osm_id":"6283131460","tag":{"amenity":"waste_basket"}},"type":"Feature"},
	{"geometry":{"coordinates":[-117.304139,33.115755],"type":"Point"},"properties":{"osm_id":"6288017140","tag":{"amenity":"recycling","recycling:glass_bottles":"yes","recycling:paper":"yes","recycling:plastic":"no","recycling:plastic_bottles":"yes","recycling:plastic_packaging":"no","recycling_type":"container"}},"type":"Feature"},
	{"geometry":{"coordinates":[-117.304126,33.115751],"type":"Point"},"properties":{"osm_id":"6288017141","tag":{"amenity":"waste_disposal"}},"type":"Feature"},
	{"geometry":{"coordinates":[-117.307432,33.113828],"type":"Point"},"properties":{"osm_id":"7180525982","tag":{"amenity":"waste_disposal"}},"type":"Feature"},
	{"geometry":{"coordinates":[-117.305546,33.120769],"type":"Point"},"properties":{"osm_id":"7217849518","tag":{"amenity":"waste_basket","waste":"dog_excrement"}},"type":"Feature"},
	{"geometry":{"coordinates":[-117.306824,33.113806],"type":"Point"},"properties":{"osm_id":"7251585335","tag":{"amenity":"waste_basket"}},"type":"Feature"},
	{"geometry":{"coordinates":[-117.307965,33.115573],"type":"Point"},"properties":{"osm_id":"7251585336","tag":{"amenity":"waste_disposal"}},"type":"Feature"},
	{"geometry":{"coordinates":[-117.307969,33.115607],"type":"Point"},"properties":{"osm_id":"7251585337","tag":{"amenity":"recycling","recycling:cans":"yes","recycling:glass_bottles":"yes","recycling:paper":"yes","recycling:plastic":"no","recycling:plastic_bottles":"yes","recycling:plastic_packaging":"no","recycling_type":"container"}},"type":"Feature"},
	{"geometry":{"coordinates":[-117.308128,33.11569],"type":"Point"},"properties":{"osm_id":"7251585338","tag":{"amenity":"waste_basket"}},"type":"Feature"},
	{"geometry":{"coordinates":[-117.307433,33.11542],"type":"Point"},"properties":{"osm_id":"7367416407","tag":{"amenity":"waste_basket"}},"type":"Feature"},
	{"geometry":{"coordinates":[-117.307559,33.122043],"type":"Point"},"properties":{"osm_id":"7383062113","tag":{"amenity":"waste_disposal"}},"type":"Feature"},
	{"geometry":{"coordinates":[-117.301606,33.121288],"type":"Point"},"properties":{"osm_id":"7400583641","tag":{"amenity":"waste_disposal"}},"type":"Feature"},
	{"geometry":{"coordinates":[-117.300319,33.121398],"type":"Point"},"properties":{"osm_id":"7542476706","tag":{"amenity":"waste_disposal"}},"type":"Feature"},
	{"geometry":{"coordinates":[-117.30016,33.120933],"type":"Point"},"properties":{"osm_id":"7542476707","tag":{"amenity":"waste_disposal"}},"type":"Feature"},
	{"geometry":{"coordinates":[-117.299703,33.120428],"type":"Point"},"properties":{"osm_id":"7542476708","tag":{"amenity":"waste_disposal"}},"type":"Feature"},
	{"geometry":{"coordinates":[-117.29955,33.118868],"type":"Point"},"properties":{"osm_id":"7577010624","tag":{"amenity":"waste_disposal"}},"type":"Feature"},
	{"geometry":{"coordinates":[-117.314636,33.121635],"type":"Point"},"properties":{"osm_id":"7621126347","tag":{"amenity":"waste_disposal"}},"type":"Feature"},
	{"geometry":{"coordinates":[-117.256775,33.128333],"type":"Point"},"properties":{"osm_id":"7714329145","tag":{"access":"private","amenity":"recycling","recycling_type":"container"}},"type":"Feature"},
	{"geometry":{"coordinates":[-117.256776,33.128362],"type":"Point"},"properties":{"osm_id":"7714329146","tag":{"access":"private","amenity":"waste_disposal"}},"type":"Feature"},
	{"geometry":{"coordinates":[-117.292179,33.118026],"type":"Point"},"properties":{"osm_id":"7724661255","tag":{"amenity":"waste_basket"}},"type":"Feature"},
	{"geometry":{"coordinates":[-117.316289,33.131466],"type":"Point"},"properties":{"osm_id":"7729464668","tag":{"amenity":"waste_disposal"}},"type":"Feature"},
	{"geometry":{"coordinates":[-117.3155,33.129838],"type":"Point"},"properties":{"osm_id":"7729464669","tag":{"amenity":"waste_disposal"}},"type":"Feature"},
	{"geometry":{"coordinates":[-117.315529,33.129825],"type":"Point"},"properties":{"osm_id":"7729464670","tag":{"amenity":"recycling","recycling_type":"container"}},"type":"Feature"},
	{"geometry":{"coordinates":[-117.315285,33.128699],"type":"Point"},"properties":{"osm_id":"7729464671","tag":{"amenity":"waste_disposal"}},"type":"Feature"},
	{"geometry":{"coordinates":[-117.315285,33.12874],"type":"Point"},"properties":{"osm_id":"7729464672","tag":{"amenity":"recycling","recycling_type":"container"}},"type":"Feature"},
	{"geometry":{"coordinates":[-117.31488,33.126488],"type":"Point"},"properties":{"osm_id":"7729464673","tag":{"amenity":"waste_disposal"}},"type":"Feature"},
	{"geometry":{"coordinates":[-117.314885,33.126526],"type":"Point"},"properties":{"osm_id":"7729464674","tag":{"amenity":"recycling","recycling_type":"container"}},"type":"Feature"},
	{"geometry":{"coordinates":[-117.316305,33.126932],"type":"Point"},"properties":{"osm_id":"7729464675","tag":{"amenity":"waste_disposal"}},"type":"Feature"},
	{"geometry":{"coordinates":[-117.316284,33.126942],"type":"Point"},"properties":{"osm_id":"7729464676","tag":{"amenity":"recycling","recycling_type":"container"}},"type":"Feature"},
	{"geometry":{"coordinates":[-117.293769,33.136701],"type":"Point"},"properties":{"osm_id":"7729472217","tag":{"amenity":"recycling","recycling_type":"container"}},"type":"Feature"},
	{"geometry":{"coordinates":[-117.29377,33.136732],"type":"Point"},"properties":{"osm_id":"7729472218","tag":{"amenity":"waste_disposal"}},"type":"Feature"},
	{"geometry":{"coordinates":[-117.259641,33.129314],"type":"Point"},"properties":{"osm_id":"7735111304","tag":{"amenity":"waste_basket"}},"type":"Feature"},
	{"geometry":{"coordinates":[-117.277198,33.135573],"type":"Point"},"properties":{"osm_id":"7741334780","tag":{"amenity":"waste_disposal"}},"type":"Feature"},
	{"geometry":{"coordinates":[-117.277217,33.135559],"type":"Point"},"properties":{"osm_id":"7741334781","tag":{"amenity":"recycling","recycling_type":"container"}},"type":"Feature"},
	{"geometry":{"coordinates":[-117.27953,33.136264],"type":"Point"},"properties":{"osm_id":"7741334785","tag":{"amenity":"waste_disposal"}},"type":"Feature"},
	{"geometry":{"coordinates":[-117.279504,33.13629],"type":"Point"},"properties":{"osm_id":"7741334786","tag":{"amenity":"recycling","recycling_type":"container"}},"type":"Feature"},
	{"geometry":{"coordinates":[-117.284114,33.135453],"type":"Point"},"properties":{"osm_id":"7741334787","tag":{"amenity":"recycling","recycling_type":"container"}},"type":"Feature"},
	{"geometry":{"coordinates":[-117.284088,33.135443],"type":"Point"},"properties":{"osm_id":"7741334788","tag":{"amenity":"waste_disposal"}},"type":"Feature"},
	{"geometry":{"coordinates":[-117.262537,33.128621],"type":"Point"},"properties":{"osm_id":"7757096989","tag":{"amenity":"waste_disposal"}},"type":"Feature"},
	{"geometry":{"coordinates":[-117.262568,33.128625],"type":"Point"},"properties":{"osm_id":"7757096990","tag":{"amenity":"recycling","recycling_type":"container"}},"type":"Feature"},
	{"geometry":{"coordinates":[-117.252762,33.126988],"type":"Point"},"properties":{"osm_id":"7773676153","tag":{"amenity":"waste_disposal"}},"type":"Feature"},
	{"geometry":{"coordinates":[-117.252751,33.126961],"type":"Point"},"properties":{"osm_id":"7773676154","tag":{"amenity":"recycling","recycling:electrical_items":"yes","recycling_type":"container"}},"type":"Feature"},
	{"geometry":{"coordinates":[-117.32514,33.125196],"type":"Point"},"properties":{"osm_id":"7932710015","tag":{"amenity":"waste_basket"}},"type":"Feature"},
	{"geometry":{"coordinates":[-117.307406,33.115372],"type":"Point"},"properties":{"osm_id":"7932881382","tag":{"amenity":"waste_basket"}},"type":"Feature"},
	{"geometry":{"coordinates":[-117.307922,33.115471],"type":"Point"},"properties":{"osm_id":"7932881383","tag":{"amenity":"waste_basket"}},"type":"Feature"},
	{"geometry":{"coordinates":[-117.306828,33.115121],"type":"Point"},"properties":{"osm_id":"7932881384","tag":{"amenity":"waste_basket"}},"type":"Feature"},
	{"geometry":{"coordinates":[-117.307887,33.115456],"type":"Point"},"properties":{"osm_id":"7932885085","tag":{"amenity":"waste_basket"}},"type":"Feature"},
	{"geometry":{"coordinates":[-117.306758,33.115402],"type":"Point"},"properties":{"osm_id":"7932885086","tag":{"amenity":"waste_basket"}},"type":"Feature"},
	{"geometry":{"coordinates":[-117.307825,33.11542],"type":"Point"},"properties":{"osm_id":"7932885087","tag":{"amenity":"recycling","recycling_type":"container"}},"type":"Feature"},
	{"geometry":{"coordinates":[-117.308007,33.115729],"type":"Point"},"properties":{"osm_id":"7932885088","tag":{"amenity":"recycling","recycling:cans":"yes","recycling:glass_bottles":"yes","recycling:paper":"yes","recycling:plastic":"no","recycling:plastic_bottles":"yes","recycling:plastic_packaging":"no","recycling_type":"container"}},"type":"Feature"},
	{"geometry":{"coordinates":[-117.307402,33.114937],"type":"Point"},"properties":{"osm_id":"7932885089","tag":{"amenity":"waste_basket"}},"type":"Feature"},
	{"geometry":{"coordinates":[-117.328484,33.123321],"type":"Point"},"properties":{"osm_id":"8473156596","tag":{"amenity":"waste_basket","waste":"trash"}},"type":"Feature"},
	{"geometry":{"coordinates":[-117.331683,33.134507],"type":"Point"},"properties":{"osm_id":"8558557191","tag":{"amenity":"waste_basket"}},"type":"Feature"},
	{"geometry":{"coordinates":[-117.331667,33.134425],"type":"Point"},"properties":{"osm_id":"8558557192","tag":{"amenity":"waste_basket"}},"type":"Feature"},
	{"geometry":{"coordinates":[-117.331847,33.134661],"type":"Point"},"properties":{"osm_id":"8558557194","tag":{"amenity":"waste_basket"}},"type":"Feature"},
	{"geometry":{"coordinates":[-117.331411,33.134226],"type":"Point"},"properties":{"osm_id":"8558557195","tag":{"amenity":"waste_basket"}},"type":"Feature"},
	{"geometry":{"coordinates":[-117.331464,33.13431],"type":"Point"},"properties":{"osm_id":"8558557197","tag":{"amenity":"waste_basket"}},"type":"Feature"}
]
}
