{
"type": "FeatureCollection",
"lastupdate": "2020-08-06T00:00:00Z",
"features": [
	{"geometry":{"coordinates":[16.246722,58.601499],"type":"Point"},"properties":{"name":"Lind\u00c3\u00b6hallen Lind\u00c3\u00b6matmarknad","osm_id":"1756246319","tag":{"addr:city":"Norrk\u00f6ping","addr:street":"Aktergatan","amenity":"recycling","recycling:cans":"yes","recycling:glass":"yes","recycling:glass_bottles":"yes","recycling:newspaper":"yes","recycling:paper":"yes","recycling:scrap_metal":"yes","recycling_type":"container"}},"type":"Feature"},
	{"geometry":{"coordinates":[16.196282,58.586169],"type":"Point"},"properties":{"osm_id":"1865384541","tag":{"amenity":"waste_basket"}},"type":"Feature"},
	{"geometry":{"coordinates":[16.196744,58.58668],"type":"Point"},"properties":{"name":"\u00c3\u0085tervinningsstation Stortorget","osm_id":"1877692856","tag":{"amenity":"recycling","recycling:cartons":"yes","recycling:glass":"yes","recycling:metal":"yes","recycling:paper":"yes","recycling:plastic":"yes","recycling_type":"container"}},"type":"Feature"},
	{"geometry":{"coordinates":[16.172939,58.617647],"type":"Point"},"properties":{"name":"\u00c3\u0085tervinningsstation City Gross","osm_id":"2918619505","tag":{"amenity":"recycling","recycling:cartons":"yes","recycling:glass":"yes","recycling:metal":"yes","recycling:paper":"yes","recycling:plastic":"yes","recycling_type":"container"}},"type":"Feature"},
	{"geometry":{"coordinates":[16.206331,58.591191],"type":"Point"},"properties":{"name":"\u00c3\u0085tervinningsstation Lidl Bang\u00c3\u00a5rdsgatan","osm_id":"2918619509","tag":{"amenity":"recycling","recycling:cartons":"yes","recycling:glass":"yes","recycling:metal":"yes","recycling:paper":"yes","recycling:plastic":"yes","recycling_type":"container"}},"type":"Feature"},
	{"geometry":{"coordinates":[16.189581,58.586222],"type":"Point"},"properties":{"osm_id":"4108160604","tag":{"amenity":"waste_basket"}},"type":"Feature"},
	{"geometry":{"coordinates":[16.189989,58.586281],"type":"Point"},"properties":{"osm_id":"4108160896","tag":{"amenity":"waste_basket"}},"type":"Feature"},
	{"geometry":{"coordinates":[16.189437,58.586174],"type":"Point"},"properties":{"osm_id":"4108212221","tag":{"amenity":"waste_basket"}},"type":"Feature"},
	{"geometry":{"coordinates":[16.197669,58.58552],"type":"Point"},"properties":{"osm_id":"4111223589","tag":{"amenity":"waste_basket"}},"type":"Feature"},
	{"geometry":{"coordinates":[16.197989,58.585541],"type":"Point"},"properties":{"osm_id":"4111223689","tag":{"amenity":"waste_basket"}},"type":"Feature"},
	{"geometry":{"coordinates":[16.200021,58.58658],"type":"Point"},"properties":{"osm_id":"4111226390","tag":{"amenity":"waste_basket"}},"type":"Feature"},
	{"geometry":{"coordinates":[16.192425,58.585676],"type":"Point"},"properties":{"osm_id":"4111241189","tag":{"amenity":"waste_basket"}},"type":"Feature"},
	{"geometry":{"coordinates":[16.174401,58.606706],"type":"Point"},"properties":{"osm_id":"4280117594","tag":{"amenity":"waste_basket"}},"type":"Feature"},
	{"geometry":{"coordinates":[16.177472,58.597214],"type":"Point"},"properties":{"osm_id":"4280204093","tag":{"amenity":"waste_basket"}},"type":"Feature"},
	{"geometry":{"coordinates":[16.184132,58.591745],"type":"Point"},"properties":{"osm_id":"5403262380","tag":{"amenity":"waste_basket"}},"type":"Feature"},
	{"geometry":{"coordinates":[16.183833,58.591862],"type":"Point"},"properties":{"osm_id":"5403263182","tag":{"amenity":"waste_basket"}},"type":"Feature"},
	{"geometry":{"coordinates":[16.186411,58.58749],"type":"Point"},"properties":{"osm_id":"5403263183","tag":{"amenity":"waste_basket"}},"type":"Feature"},
	{"geometry":{"coordinates":[16.182416,58.596203],"type":"Point"},"properties":{"osm_id":"5863282611","tag":{"amenity":"waste_basket"}},"type":"Feature"},
	{"geometry":{"coordinates":[16.183297,58.596289],"type":"Point"},"properties":{"osm_id":"5863282615","tag":{"amenity":"waste_basket"}},"type":"Feature"},
	{"geometry":{"coordinates":[16.182847,58.596229],"type":"Point"},"properties":{"osm_id":"5863282621","tag":{"amenity":"waste_basket"}},"type":"Feature"}
]
}
