{
"type": "FeatureCollection",
"features": [
	{"geometry":{"coordinates":[16.200048,58.583915],"type":"Point"},"properties":{"osm_id":"2918619504","tag":{"amenity":"recycling","recycling:cartons":"yes","recycling:glass_bottles":"yes","recycling:metal":"yes","recycling:paper":"yes","recycling:plastic":"yes","recycling_type":"container"}},"type":"Feature"},
	{"geometry":{"coordinates":[16.230234,58.570667],"type":"Point"},"properties":{"osm_id":"2918619508","tag":{"addr:city":"Norrk\u00c3\u00b6ping","addr:country":"SE","addr:county":"\u00c3\u0096sterg\u00c3\u00b6tlands l\u00c3\u00a4n","addr:housenumber":"101","addr:municipality":"Norrk\u00c3\u00b6pings kommun","addr:street":"Bigatan","amenity":"recycling","recycling:glass_bottles":"yes","recycling_type":"container"}},"type":"Feature"},
	{"geometry":{"coordinates":[16.215853,58.568117],"type":"Point"},"properties":{"name":"\u00c3\u0085tervinningsstation OKQ8 Hageby","osm_id":"2918619510","tag":{"addr:city":"Norrk\u00c3\u00b6ping","addr:country":"SE","addr:county":"\u00c3\u0096sterg\u00c3\u00b6tlands l\u00c3\u00a4n","addr:housenumber":"241","addr:municipality":"Norrk\u00c3\u00b6pings kommun","addr:street":"Hagebygatan","amenity":"recycling","recycling:cartons":"yes","recycling:glass_bottles":"yes","recycling:metal":"yes","recycling:paper":"yes","recycling:plastic":"yes","recycling_type":"container"}},"type":"Feature"},
	{"geometry":{"coordinates":[16.194685,58.585015],"type":"Point"},"properties":{"osm_id":"4109146890","tag":{"amenity":"waste_basket"}},"type":"Feature"},
	{"geometry":{"coordinates":[16.196268,58.585304],"type":"Point"},"properties":{"osm_id":"4109146891","tag":{"amenity":"waste_basket"}},"type":"Feature"},
	{"geometry":{"coordinates":[16.194273,58.584968],"type":"Point"},"properties":{"osm_id":"4109165691","tag":{"amenity":"waste_basket"}},"type":"Feature"},
	{"geometry":{"coordinates":[16.194927,58.585044],"type":"Point"},"properties":{"osm_id":"4109182290","tag":{"amenity":"waste_basket"}},"type":"Feature"},
	{"geometry":{"coordinates":[16.193037,58.584788],"type":"Point"},"properties":{"osm_id":"4109182392","tag":{"amenity":"waste_basket"}},"type":"Feature"},
	{"geometry":{"coordinates":[16.190091,58.582568],"type":"Point"},"properties":{"osm_id":"4109428942","tag":{"amenity":"waste_basket"}},"type":"Feature"},
	{"geometry":{"coordinates":[16.190822,58.58288],"type":"Point"},"properties":{"osm_id":"4109428943","tag":{"amenity":"waste_basket"}},"type":"Feature"},
	{"geometry":{"coordinates":[16.19106,58.58384],"type":"Point"},"properties":{"osm_id":"4109428944","tag":{"amenity":"waste_basket"}},"type":"Feature"},
	{"geometry":{"coordinates":[16.190634,58.584139],"type":"Point"},"properties":{"osm_id":"4109444914","tag":{"amenity":"waste_basket"}},"type":"Feature"},
	{"geometry":{"coordinates":[16.190958,58.583984],"type":"Point"},"properties":{"osm_id":"4109456939","tag":{"amenity":"waste_basket"}},"type":"Feature"},
	{"geometry":{"coordinates":[16.179927,58.582033],"type":"Point"},"properties":{"osm_id":"4109636996","tag":{"amenity":"waste_basket"}},"type":"Feature"},
	{"geometry":{"coordinates":[16.182412,58.583012],"type":"Point"},"properties":{"osm_id":"4109759914","tag":{"amenity":"waste_basket"}},"type":"Feature"},
	{"geometry":{"coordinates":[16.17794,58.581104],"type":"Point"},"properties":{"osm_id":"4109759915","tag":{"amenity":"waste_basket"}},"type":"Feature"},
	{"geometry":{"coordinates":[16.175634,58.580774],"type":"Point"},"properties":{"osm_id":"4109759917","tag":{"amenity":"waste_basket"}},"type":"Feature"},
	{"geometry":{"coordinates":[16.173594,58.580067],"type":"Point"},"properties":{"osm_id":"4109784400","tag":{"amenity":"waste_basket"}},"type":"Feature"},
	{"geometry":{"coordinates":[16.173005,58.580402],"type":"Point"},"properties":{"osm_id":"4109784401","tag":{"amenity":"waste_basket"}},"type":"Feature"},
	{"geometry":{"coordinates":[16.178144,58.581342],"type":"Point"},"properties":{"osm_id":"4109803602","tag":{"amenity":"waste_basket"}},"type":"Feature"},
	{"geometry":{"coordinates":[16.181551,58.582113],"type":"Point"},"properties":{"osm_id":"4109805732","tag":{"amenity":"waste_basket"}},"type":"Feature"},
	{"geometry":{"coordinates":[16.176927,58.581299],"type":"Point"},"properties":{"osm_id":"4109805733","tag":{"amenity":"waste_basket"}},"type":"Feature"},
	{"geometry":{"coordinates":[16.173885,58.580218],"type":"Point"},"properties":{"osm_id":"4109805803","tag":{"amenity":"waste_basket"}},"type":"Feature"},
	{"geometry":{"coordinates":[16.191972,58.584631],"type":"Point"},"properties":{"osm_id":"4111184698","tag":{"amenity":"waste_basket"}},"type":"Feature"},
	{"geometry":{"coordinates":[16.19193,58.584687],"type":"Point"},"properties":{"osm_id":"4117157613","tag":{"amenity":"waste_disposal"}},"type":"Feature"},
	{"geometry":{"coordinates":[16.191913,58.584699],"type":"Point"},"properties":{"osm_id":"4117158107","tag":{"amenity":"waste_disposal"}},"type":"Feature"},
	{"geometry":{"coordinates":[16.191911,58.584718],"type":"Point"},"properties":{"osm_id":"4117174796","tag":{"amenity":"waste_disposal"}},"type":"Feature"},
	{"geometry":{"coordinates":[16.195671,58.580992],"type":"Point"},"properties":{"osm_id":"5403556348","tag":{"amenity":"waste_basket"}},"type":"Feature"},
	{"geometry":{"coordinates":[16.193179,58.58387],"type":"Point"},"properties":{"osm_id":"5403556351","tag":{"amenity":"waste_basket"}},"type":"Feature"},
	{"geometry":{"coordinates":[16.195904,58.584057],"type":"Point"},"properties":{"osm_id":"5403556355","tag":{"amenity":"waste_basket"}},"type":"Feature"},
	{"geometry":{"coordinates":[16.196616,58.580732],"type":"Point"},"properties":{"osm_id":"5403556915","tag":{"amenity":"waste_basket"}},"type":"Feature"},
	{"geometry":{"coordinates":[16.194131,58.584061],"type":"Point"},"properties":{"osm_id":"5403558399","tag":{"amenity":"waste_basket"}},"type":"Feature"},
	{"geometry":{"coordinates":[16.193375,58.583713],"type":"Point"},"properties":{"osm_id":"5403558423","tag":{"amenity":"waste_basket"}},"type":"Feature"},
	{"geometry":{"coordinates":[16.19401,58.584045],"type":"Point"},"properties":{"osm_id":"5403558424","tag":{"amenity":"waste_basket","waste":"ash"}},"type":"Feature"},
	{"geometry":{"coordinates":[16.195363,58.583596],"type":"Point"},"properties":{"osm_id":"5403558431","tag":{"amenity":"waste_basket"}},"type":"Feature"},
	{"geometry":{"coordinates":[16.192495,58.583873],"type":"Point"},"properties":{"osm_id":"6482141901","tag":{"amenity":"waste_basket","waste":"dog_excrement"}},"type":"Feature"}
]
}
