{
"type": "FeatureCollection",
"features": [
	{"geometry":{"coordinates":[16.17188,54.197798],"type":"Point"},"properties":{"osm_id":"2181294498","tag":{"amenity":"recycling","recycling_type":"centre"}},"type":"Feature"},
	{"geometry":{"coordinates":[16.173736,54.17421],"type":"Point"},"properties":{"name":"Surmet","osm_id":"4270030555","tag":{"amenity":"recycling","phone":"+48 504603203","recycling:cardboard":"yes","recycling:paper":"yes","recycling:plastic":"yes","recycling:plastic_packaging":"yes","recycling_type":"centre","website":"http://facebook.com/surmet.koszalin"}},"type":"Feature"},
	{"geometry":{"coordinates":[16.191855,54.208458],"type":"Point"},"properties":{"osm_id":"4556866338","tag":{"amenity":"waste_disposal"}},"type":"Feature"},
	{"geometry":{"coordinates":[16.191536,54.209007],"type":"Point"},"properties":{"osm_id":"4556866339","tag":{"amenity":"waste_disposal"}},"type":"Feature"},
	{"geometry":{"coordinates":[16.191024,54.20934],"type":"Point"},"properties":{"osm_id":"4556866340","tag":{"amenity":"waste_disposal"}},"type":"Feature"},
	{"geometry":{"coordinates":[16.190423,54.20989],"type":"Point"},"properties":{"osm_id":"4556866341","tag":{"amenity":"waste_disposal"}},"type":"Feature"}
]
}
