{
"type": "FeatureCollection",
"features": [
	{"geometry":{"coordinates":[16.259369,49.523459],"type":"Point"},"properties":{"osm_id":"443861763","tag":{"amenity":"recycling","recycling:glass":"yes","recycling:paper":"yes"}},"type":"Feature"},
	{"geometry":{"coordinates":[16.255144,49.510342],"type":"Point"},"properties":{"name":"Sb\u00c4\u009brn\u00c3\u00bd dv\u00c5\u00afr","osm_id":"1073787369","tag":{"amenity":"recycling"}},"type":"Feature"},
	{"geometry":{"coordinates":[16.248837,49.516403],"type":"Point"},"properties":{"osm_id":"5060014233","tag":{"amenity":"recycling","recycling_type":"container"}},"type":"Feature"},
	{"geometry":{"coordinates":[16.247053,49.515402],"type":"Point"},"properties":{"osm_id":"5060117649","tag":{"amenity":"waste_basket"}},"type":"Feature"},
	{"geometry":{"coordinates":[16.25804,49.520494],"type":"Point"},"properties":{"osm_id":"5064059147","tag":{"amenity":"recycling","recycling_type":"container"}},"type":"Feature"},
	{"geometry":{"coordinates":[16.258396,49.518092],"type":"Point"},"properties":{"osm_id":"5064069571","tag":{"amenity":"recycling","recycling:glass":"yes","recycling:paper":"yes","recycling:plastic":"yes","recycling_type":"container"}},"type":"Feature"},
	{"geometry":{"coordinates":[16.259349,49.517921],"type":"Point"},"properties":{"osm_id":"5064410674","tag":{"amenity":"recycling","recycling_type":"container"}},"type":"Feature"},
	{"geometry":{"coordinates":[16.259743,49.52151],"type":"Point"},"properties":{"osm_id":"5064423014","tag":{"amenity":"recycling","recycling_type":"container"}},"type":"Feature"},
	{"geometry":{"coordinates":[16.255299,49.519638],"type":"Point"},"properties":{"osm_id":"5064429992","tag":{"amenity":"recycling","recycling_type":"container"}},"type":"Feature"},
	{"geometry":{"coordinates":[16.250978,49.522926],"type":"Point"},"properties":{"osm_id":"5065039699","tag":{"amenity":"recycling","recycling_type":"container"}},"type":"Feature"},
	{"geometry":{"coordinates":[16.249513,49.525642],"type":"Point"},"properties":{"osm_id":"5065053870","tag":{"amenity":"waste_disposal"}},"type":"Feature"},
	{"geometry":{"coordinates":[16.249403,49.525631],"type":"Point"},"properties":{"osm_id":"5065054013","tag":{"amenity":"recycling","recycling_type":"container"}},"type":"Feature"},
	{"geometry":{"coordinates":[16.249818,49.526119],"type":"Point"},"properties":{"osm_id":"5065062874","tag":{"amenity":"recycling","recycling_type":"container"}},"type":"Feature"},
	{"geometry":{"coordinates":[16.250141,49.525963],"type":"Point"},"properties":{"osm_id":"5065063753","tag":{"amenity":"recycling","recycling_type":"container"}},"type":"Feature"},
	{"geometry":{"coordinates":[16.24407,49.528542],"type":"Point"},"properties":{"osm_id":"5065065172","tag":{"amenity":"recycling","recycling_type":"container"}},"type":"Feature"},
	{"geometry":{"coordinates":[16.250357,49.524552],"type":"Point"},"properties":{"osm_id":"5065075385","tag":{"amenity":"recycling","recycling_type":"container"}},"type":"Feature"},
	{"geometry":{"coordinates":[16.249785,49.523768],"type":"Point"},"properties":{"osm_id":"5065087677","tag":{"amenity":"recycling","recycling_type":"container"}},"type":"Feature"},
	{"geometry":{"coordinates":[16.25281,49.523596],"type":"Point"},"properties":{"osm_id":"5065089914","tag":{"amenity":"recycling","recycling_type":"container"}},"type":"Feature"},
	{"geometry":{"coordinates":[16.252304,49.525693],"type":"Point"},"properties":{"osm_id":"5065095317","tag":{"amenity":"recycling","recycling_type":"container"}},"type":"Feature"},
	{"geometry":{"coordinates":[16.25226,49.525685],"type":"Point"},"properties":{"osm_id":"5065099566","tag":{"amenity":"waste_disposal"}},"type":"Feature"},
	{"geometry":{"coordinates":[16.253369,49.522422],"type":"Point"},"properties":{"osm_id":"5065115506","tag":{"amenity":"waste_basket"}},"type":"Feature"},
	{"geometry":{"coordinates":[16.256745,49.522793],"type":"Point"},"properties":{"osm_id":"5065148827","tag":{"amenity":"recycling","recycling_type":"container"}},"type":"Feature"},
	{"geometry":{"coordinates":[16.256303,49.524344],"type":"Point"},"properties":{"osm_id":"5065152964","tag":{"amenity":"recycling","recycling_type":"container"}},"type":"Feature"},
	{"geometry":{"coordinates":[16.253622,49.525374],"type":"Point"},"properties":{"osm_id":"5079619442","tag":{"amenity":"recycling","recycling_type":"container"}},"type":"Feature"},
	{"geometry":{"coordinates":[16.252876,49.525739],"type":"Point"},"properties":{"osm_id":"5079622250","tag":{"amenity":"recycling","recycling_type":"container"}},"type":"Feature"},
	{"geometry":{"coordinates":[16.254484,49.521692],"type":"Point"},"properties":{"osm_id":"5079815217","tag":{"amenity":"recycling","recycling_type":"container"}},"type":"Feature"},
	{"geometry":{"coordinates":[16.254778,49.527132],"type":"Point"},"properties":{"osm_id":"7118431334","tag":{"amenity":"recycling","recycling:glass":"yes","recycling:paper":"yes","recycling:plastic":"yes","recycling_type":"container"}},"type":"Feature"}
]
}
