{
"type": "FeatureCollection",
"features": [
	{"geometry":{"coordinates":[16.2366,48.094589],"type":"Point"},"properties":{"name":"Altstoffsammelzentrum Gie\u00c3\u009fh\u00c3\u00bcbl","osm_id":"605261500","tag":{"amenity":"recycling","recycling:batteries":"yes","recycling:cans":"yes","recycling:clothes":"yes","recycling:glass":"yes","recycling:paper":"yes","recycling:scrap_metal":"yes","recycling_type":"centre"}},"type":"Feature"},
	{"geometry":{"coordinates":[16.24323,48.05173],"type":"Point"},"properties":{"osm_id":"715726964","tag":{"amenity":"waste_basket","tourism":"picnic_site"}},"type":"Feature"},
	{"geometry":{"coordinates":[16.247116,48.098254],"type":"Point"},"properties":{"osm_id":"735265476","tag":{"amenity":"recycling","recycling:cans":"yes","recycling:clothes":"yes","recycling:glass":"yes","recycling:paper":"yes","recycling_type":"container"}},"type":"Feature"},
	{"geometry":{"coordinates":[16.240123,48.095584],"type":"Point"},"properties":{"osm_id":"735265978","tag":{"amenity":"recycling","recycling:cans":"yes","recycling:glass":"yes","recycling:paper":"yes"}},"type":"Feature"},
	{"geometry":{"coordinates":[16.226864,48.098506],"type":"Point"},"properties":{"osm_id":"735446165","tag":{"amenity":"recycling","recycling:cans":"yes","recycling:clothes":"yes","recycling:glass":"yes","recycling:paper":"yes","recycling_type":"container"}},"type":"Feature"},
	{"geometry":{"coordinates":[16.212559,48.087284],"type":"Point"},"properties":{"osm_id":"1076243155","tag":{"amenity":"waste_basket"}},"type":"Feature"},
	{"geometry":{"coordinates":[16.213028,48.098022],"type":"Point"},"properties":{"osm_id":"1076324290","tag":{"amenity":"waste_basket"}},"type":"Feature"},
	{"geometry":{"coordinates":[16.223362,48.10211],"type":"Point"},"properties":{"osm_id":"1076533615","tag":{"amenity":"waste_basket"}},"type":"Feature"},
	{"geometry":{"coordinates":[16.202264,48.105345],"type":"Point"},"properties":{"osm_id":"1076636718","tag":{"amenity":"waste_basket"}},"type":"Feature"},
	{"geometry":{"coordinates":[16.195437,48.103265],"type":"Point"},"properties":{"name":"MK","osm_id":"1076636795","tag":{"amenity":"waste_basket"}},"type":"Feature"},
	{"geometry":{"coordinates":[16.186567,48.102141],"type":"Point"},"properties":{"osm_id":"1076636920","tag":{"amenity":"waste_basket"}},"type":"Feature"},
	{"geometry":{"coordinates":[16.220777,48.104709],"type":"Point"},"properties":{"osm_id":"1076636969","tag":{"amenity":"waste_basket"}},"type":"Feature"},
	{"geometry":{"coordinates":[16.227337,48.079165],"type":"Point"},"properties":{"osm_id":"1077347108","tag":{"amenity":"waste_basket"}},"type":"Feature"},
	{"geometry":{"coordinates":[16.207957,48.092022],"type":"Point"},"properties":{"osm_id":"1077391922","tag":{"amenity":"waste_basket"}},"type":"Feature"},
	{"geometry":{"coordinates":[16.206215,48.093415],"type":"Point"},"properties":{"osm_id":"1077392171","tag":{"amenity":"waste_basket"}},"type":"Feature"},
	{"geometry":{"coordinates":[16.201243,48.097589],"type":"Point"},"properties":{"osm_id":"1077392571","tag":{"amenity":"waste_basket"}},"type":"Feature"},
	{"geometry":{"coordinates":[16.204503,48.09573],"type":"Point"},"properties":{"osm_id":"1077392575","tag":{"amenity":"waste_basket"}},"type":"Feature"},
	{"geometry":{"coordinates":[16.215389,48.053613],"type":"Point"},"properties":{"osm_id":"1096132308","tag":{"amenity":"waste_basket"}},"type":"Feature"},
	{"geometry":{"coordinates":[16.215602,48.054119],"type":"Point"},"properties":{"osm_id":"1096132310","tag":{"amenity":"waste_basket"}},"type":"Feature"},
	{"geometry":{"coordinates":[16.249603,48.085174],"type":"Point"},"properties":{"osm_id":"1099749443","tag":{"amenity":"waste_basket"}},"type":"Feature"},
	{"geometry":{"coordinates":[16.249342,48.075389],"type":"Point"},"properties":{"osm_id":"1109789808","tag":{"amenity":"waste_basket"}},"type":"Feature"},
	{"geometry":{"coordinates":[16.250967,48.071839],"type":"Point"},"properties":{"osm_id":"1109790000","tag":{"amenity":"waste_basket"}},"type":"Feature"},
	{"geometry":{"coordinates":[16.258519,48.080852],"type":"Point"},"properties":{"osm_id":"1109815308","tag":{"amenity":"waste_basket"}},"type":"Feature"},
	{"geometry":{"coordinates":[16.258231,48.085821],"type":"Point"},"properties":{"osm_id":"1120652637","tag":{"amenity":"waste_basket"}},"type":"Feature"},
	{"geometry":{"coordinates":[16.257506,48.085913],"type":"Point"},"properties":{"osm_id":"1120652811","tag":{"amenity":"waste_basket"}},"type":"Feature"},
	{"geometry":{"coordinates":[16.257051,48.086241],"type":"Point"},"properties":{"osm_id":"1120652850","tag":{"amenity":"waste_basket"}},"type":"Feature"},
	{"geometry":{"coordinates":[16.256907,48.086205],"type":"Point"},"properties":{"osm_id":"1120652860","tag":{"amenity":"waste_basket"}},"type":"Feature"},
	{"geometry":{"coordinates":[16.257145,48.086263],"type":"Point"},"properties":{"osm_id":"1120652862","tag":{"amenity":"waste_basket"}},"type":"Feature"},
	{"geometry":{"coordinates":[16.257881,48.085501],"type":"Point"},"properties":{"osm_id":"1120652885","tag":{"amenity":"waste_basket"}},"type":"Feature"},
	{"geometry":{"coordinates":[16.258144,48.085335],"type":"Point"},"properties":{"osm_id":"1120652887","tag":{"amenity":"waste_basket"}},"type":"Feature"},
	{"geometry":{"coordinates":[16.255135,48.086809],"type":"Point"},"properties":{"osm_id":"1199195735","tag":{"amenity":"recycling","operator":"Gemeinde","recycling:cans":"yes","recycling:glass":"yes","recycling:paper":"no","recycling:plastic":"yes","recycling_type":"container"}},"type":"Feature"},
	{"geometry":{"coordinates":[16.250912,48.090663],"type":"Point"},"properties":{"osm_id":"1199202513","tag":{"amenity":"recycling","operator":"Gemeinde HInterbr\u00c3\u00bchl","recycling:cans":"yes","recycling:glass":"yes","recycling:paper":"no","recycling_type":"container"}},"type":"Feature"},
	{"geometry":{"coordinates":[16.257662,48.062579],"type":"Point"},"properties":{"osm_id":"1209421283","tag":{"amenity":"waste_basket"}},"type":"Feature"},
	{"geometry":{"coordinates":[16.197125,48.088565],"type":"Point"},"properties":{"osm_id":"1229689370","tag":{"amenity":"waste_basket"}},"type":"Feature"},
	{"geometry":{"coordinates":[16.188422,48.087418],"type":"Point"},"properties":{"osm_id":"1229738084","tag":{"amenity":"waste_basket"}},"type":"Feature"},
	{"geometry":{"coordinates":[16.185297,48.085507],"type":"Point"},"properties":{"osm_id":"1229820713","tag":{"amenity":"waste_basket"}},"type":"Feature"},
	{"geometry":{"coordinates":[16.184093,48.085384],"type":"Point"},"properties":{"osm_id":"1229820829","tag":{"amenity":"waste_basket"}},"type":"Feature"},
	{"geometry":{"coordinates":[16.186992,48.076529],"type":"Point"},"properties":{"osm_id":"1230257477","tag":{"amenity":"waste_basket"}},"type":"Feature"},
	{"geometry":{"coordinates":[16.186205,48.078229],"type":"Point"},"properties":{"osm_id":"1231415138","tag":{"amenity":"waste_basket"}},"type":"Feature"},
	{"geometry":{"coordinates":[16.185902,48.078879],"type":"Point"},"properties":{"osm_id":"1231415140","tag":{"amenity":"waste_basket"}},"type":"Feature"},
	{"geometry":{"coordinates":[16.186258,48.081012],"type":"Point"},"properties":{"osm_id":"1231415471","tag":{"amenity":"waste_basket"}},"type":"Feature"},
	{"geometry":{"coordinates":[16.184084,48.082735],"type":"Point"},"properties":{"osm_id":"1231769454","tag":{"amenity":"waste_basket"}},"type":"Feature"},
	{"geometry":{"coordinates":[16.186211,48.08256],"type":"Point"},"properties":{"osm_id":"1231769489","tag":{"amenity":"waste_basket"}},"type":"Feature"},
	{"geometry":{"coordinates":[16.185178,48.083703],"type":"Point"},"properties":{"osm_id":"1231769496","tag":{"amenity":"waste_basket"}},"type":"Feature"},
	{"geometry":{"coordinates":[16.193128,48.082844],"type":"Point"},"properties":{"osm_id":"1231789585","tag":{"amenity":"waste_basket"}},"type":"Feature"},
	{"geometry":{"coordinates":[16.186225,48.082808],"type":"Point"},"properties":{"osm_id":"1231802947","tag":{"amenity":"waste_basket"}},"type":"Feature"},
	{"geometry":{"coordinates":[16.184059,48.085391],"type":"Point"},"properties":{"osm_id":"1232030798","tag":{"amenity":"waste_basket"}},"type":"Feature"},
	{"geometry":{"coordinates":[16.195423,48.087077],"type":"Point"},"properties":{"osm_id":"1232054994","tag":{"amenity":"waste_basket"}},"type":"Feature"},
	{"geometry":{"coordinates":[16.193125,48.082705],"type":"Point"},"properties":{"osm_id":"1232131192","tag":{"amenity":"waste_basket"}},"type":"Feature"},
	{"geometry":{"coordinates":[16.187028,48.080965],"type":"Point"},"properties":{"osm_id":"1232131229","tag":{"amenity":"waste_basket"}},"type":"Feature"},
	{"geometry":{"coordinates":[16.254316,48.099619],"type":"Point"},"properties":{"osm_id":"1313236061","tag":{"amenity":"waste_basket"}},"type":"Feature"},
	{"geometry":{"coordinates":[16.254234,48.099971],"type":"Point"},"properties":{"osm_id":"1313236062","tag":{"amenity":"waste_basket"}},"type":"Feature"},
	{"geometry":{"coordinates":[16.232886,48.07752],"type":"Point"},"properties":{"osm_id":"2284017178","tag":{"amenity":"waste_basket"}},"type":"Feature"},
	{"geometry":{"coordinates":[16.234515,48.080805],"type":"Point"},"properties":{"osm_id":"2284017179","tag":{"amenity":"recycling","operator":"Gemeinde","recycling:cans":"yes","recycling:glass":"yes","recycling:paper":"no","recycling_type":"container"}},"type":"Feature"},
	{"geometry":{"coordinates":[16.234706,48.080826],"type":"Point"},"properties":{"osm_id":"2284017180","tag":{"amenity":"waste_basket"}},"type":"Feature"},
	{"geometry":{"coordinates":[16.18204,48.099773],"type":"Point"},"properties":{"osm_id":"2288959646","tag":{"amenity":"waste_basket"}},"type":"Feature"},
	{"geometry":{"coordinates":[16.224272,48.101113],"type":"Point"},"properties":{"osm_id":"2292582679","tag":{"amenity":"waste_basket"}},"type":"Feature"},
	{"geometry":{"coordinates":[16.185244,48.09577],"type":"Point"},"properties":{"osm_id":"2492000102","tag":{"amenity":"waste_basket"}},"type":"Feature"},
	{"geometry":{"coordinates":[16.190898,48.096396],"type":"Point"},"properties":{"osm_id":"2492009638","tag":{"amenity":"waste_basket"}},"type":"Feature"},
	{"geometry":{"coordinates":[16.225947,48.103565],"type":"Point"},"properties":{"osm_id":"2624686364","tag":{"amenity":"waste_basket"}},"type":"Feature"},
	{"geometry":{"coordinates":[16.224205,48.103009],"type":"Point"},"properties":{"osm_id":"2624695987","tag":{"amenity":"waste_basket"}},"type":"Feature"},
	{"geometry":{"coordinates":[16.248681,48.098119],"type":"Point"},"properties":{"osm_id":"2633662704","tag":{"amenity":"waste_basket"}},"type":"Feature"},
	{"geometry":{"coordinates":[16.215217,48.081368],"type":"Point"},"properties":{"osm_id":"3252501777","tag":{"amenity":"recycling","recycling:cans":"yes","recycling:clothes":"no","recycling:glass":"yes","recycling:paper":"no","recycling:plastic":"yes","recycling_type":"container"}},"type":"Feature"},
	{"geometry":{"coordinates":[16.232066,48.072468],"type":"Point"},"properties":{"name":"M\u00c3\u00bcllinsel","osm_id":"3252501778","tag":{"amenity":"recycling","operator":"Gemeinde","recycling:cans":"yes","recycling:glass":"yes","recycling:paper":"no","recycling:plastic":"yes","recycling_type":"container"}},"type":"Feature"},
	{"geometry":{"coordinates":[16.252257,48.088199],"type":"Point"},"properties":{"osm_id":"3252501779","tag":{"amenity":"recycling","recycling:cans":"yes","recycling:glass":"yes","recycling:paper":"no","recycling:plastic":"yes","recycling_type":"container"}},"type":"Feature"},
	{"geometry":{"coordinates":[16.239503,48.08735],"type":"Point"},"properties":{"name":"Altstoffsammelstelle","osm_id":"3265916874","tag":{"amenity":"recycling","operator":"Gemeinde Hinterbr\u00c3\u00bchl","recycling:cans":"yes","recycling:clothes":"no","recycling:glass":"yes","recycling:paper":"no","recycling:plastic":"yes"}},"type":"Feature"},
	{"geometry":{"coordinates":[16.244945,48.088498],"type":"Point"},"properties":{"osm_id":"3265916875","tag":{"amenity":"recycling","operator":"Gemeinde Hinterbr\u00c3\u00bchl","recycling:cans":"yes","recycling:clothes":"no","recycling:glass":"yes","recycling:paper":"no","recycling:plastic":"yes","recycling_type":"container"}},"type":"Feature"},
	{"geometry":{"coordinates":[16.247958,48.087002],"type":"Point"},"properties":{"osm_id":"3408372314","tag":{"amenity":"waste_basket"}},"type":"Feature"},
	{"geometry":{"coordinates":[16.252059,48.052349],"type":"Point"},"properties":{"osm_id":"3451763693","tag":{"amenity":"waste_basket"}},"type":"Feature"},
	{"geometry":{"coordinates":[16.233213,48.077079],"type":"Point"},"properties":{"osm_id":"4199152921","tag":{"amenity":"waste_basket"}},"type":"Feature"},
	{"geometry":{"coordinates":[16.25804,48.083764],"type":"Point"},"properties":{"osm_id":"4329527193","tag":{"amenity":"recycling","recycling:paper":"yes","recycling_type":"container"}},"type":"Feature"},
	{"geometry":{"coordinates":[16.248193,48.086214],"type":"Point"},"properties":{"osm_id":"4329527215","tag":{"amenity":"waste_basket"}},"type":"Feature"},
	{"geometry":{"coordinates":[16.248453,48.086928],"type":"Point"},"properties":{"osm_id":"4329527237","tag":{"amenity":"waste_basket"}},"type":"Feature"},
	{"geometry":{"coordinates":[16.248386,48.087088],"type":"Point"},"properties":{"osm_id":"4329527243","tag":{"amenity":"waste_basket"}},"type":"Feature"},
	{"geometry":{"coordinates":[16.237363,48.097786],"type":"Point"},"properties":{"osm_id":"4624178886","tag":{"amenity":"recycling","recycling:cans":"yes","recycling:glass_bottles":"yes","recycling:paper":"yes","recycling_type":"container"}},"type":"Feature"},
	{"geometry":{"coordinates":[16.246286,48.097926],"type":"Point"},"properties":{"osm_id":"4624179425","tag":{"amenity":"waste_basket"}},"type":"Feature"},
	{"geometry":{"coordinates":[16.246897,48.097993],"type":"Point"},"properties":{"osm_id":"4624179438","tag":{"amenity":"waste_basket"}},"type":"Feature"},
	{"geometry":{"coordinates":[16.225446,48.080557],"type":"Point"},"properties":{"osm_id":"5783740753","tag":{"amenity":"waste_disposal"}},"type":"Feature"},
	{"geometry":{"coordinates":[16.233814,48.07557],"type":"Point"},"properties":{"osm_id":"5783759154","tag":{"amenity":"waste_disposal"}},"type":"Feature"},
	{"geometry":{"coordinates":[16.232093,48.077697],"type":"Point"},"properties":{"osm_id":"5783762053","tag":{"amenity":"waste_disposal"}},"type":"Feature"},
	{"geometry":{"coordinates":[16.232429,48.077725],"type":"Point"},"properties":{"osm_id":"5783762353","tag":{"amenity":"waste_disposal"}},"type":"Feature"},
	{"geometry":{"coordinates":[16.234675,48.080805],"type":"Point"},"properties":{"osm_id":"5783856258","tag":{"amenity":"waste_disposal"}},"type":"Feature"},
	{"geometry":{"coordinates":[16.233362,48.078538],"type":"Point"},"properties":{"osm_id":"5783927153","tag":{"amenity":"waste_disposal"}},"type":"Feature"},
	{"geometry":{"coordinates":[16.233604,48.079633],"type":"Point"},"properties":{"osm_id":"5783927253","tag":{"amenity":"waste_disposal"}},"type":"Feature"},
	{"geometry":{"coordinates":[16.236083,48.081028],"type":"Point"},"properties":{"osm_id":"5783927353","tag":{"amenity":"waste_disposal"}},"type":"Feature"},
	{"geometry":{"coordinates":[16.238199,48.08303],"type":"Point"},"properties":{"osm_id":"5783927453","tag":{"amenity":"waste_disposal"}},"type":"Feature"},
	{"geometry":{"coordinates":[16.241307,48.084724],"type":"Point"},"properties":{"osm_id":"5783935753","tag":{"amenity":"waste_disposal"}},"type":"Feature"},
	{"geometry":{"coordinates":[16.252557,48.086587],"type":"Point"},"properties":{"osm_id":"5786707565","tag":{"amenity":"waste_disposal"}},"type":"Feature"},
	{"geometry":{"coordinates":[16.245827,48.086372],"type":"Point"},"properties":{"osm_id":"5786796054","tag":{"amenity":"waste_disposal"}},"type":"Feature"},
	{"geometry":{"coordinates":[16.259458,48.082502],"type":"Point"},"properties":{"osm_id":"5794471293","tag":{"amenity":"recycling","recycling:paper":"yes","recycling_type":"container"}},"type":"Feature"},
	{"geometry":{"coordinates":[16.223513,48.103245],"type":"Point"},"properties":{"osm_id":"5810259060","tag":{"amenity":"waste_basket","material":"wood"}},"type":"Feature"},
	{"geometry":{"coordinates":[16.250373,48.088555],"type":"Point"},"properties":{"osm_id":"5810302258","tag":{"amenity":"waste_disposal"}},"type":"Feature"},
	{"geometry":{"coordinates":[16.240337,48.086529],"type":"Point"},"properties":{"osm_id":"5810327557","tag":{"amenity":"waste_disposal"}},"type":"Feature"},
	{"geometry":{"coordinates":[16.258581,48.07492],"type":"Point"},"properties":{"osm_id":"5835051869","tag":{"amenity":"waste_basket","material":"wood"}},"type":"Feature"},
	{"geometry":{"coordinates":[16.216854,48.09015],"type":"Point"},"properties":{"osm_id":"5839499749","tag":{"amenity":"waste_basket","material":"plastic"}},"type":"Feature"},
	{"geometry":{"coordinates":[16.227568,48.092013],"type":"Point"},"properties":{"osm_id":"5839519532","tag":{"amenity":"waste_basket"}},"type":"Feature"},
	{"geometry":{"coordinates":[16.224327,48.093629],"type":"Point"},"properties":{"osm_id":"5839526318","tag":{"amenity":"waste_basket","material":"metal"}},"type":"Feature"},
	{"geometry":{"coordinates":[16.202825,48.071701],"type":"Point"},"properties":{"osm_id":"6888646077","tag":{"amenity":"waste_basket"}},"type":"Feature"},
	{"geometry":{"coordinates":[16.202991,48.071736],"type":"Point"},"properties":{"osm_id":"6888646078","tag":{"amenity":"waste_basket"}},"type":"Feature"},
	{"geometry":{"coordinates":[16.203186,48.071792],"type":"Point"},"properties":{"osm_id":"6888646079","tag":{"amenity":"waste_basket"}},"type":"Feature"},
	{"geometry":{"coordinates":[16.203118,48.071906],"type":"Point"},"properties":{"osm_id":"6888646080","tag":{"amenity":"waste_basket"}},"type":"Feature"},
	{"geometry":{"coordinates":[16.202926,48.071847],"type":"Point"},"properties":{"osm_id":"6888646081","tag":{"amenity":"waste_basket"}},"type":"Feature"},
	{"geometry":{"coordinates":[16.203333,48.07184],"type":"Point"},"properties":{"osm_id":"6888646082","tag":{"amenity":"waste_basket"}},"type":"Feature"},
	{"geometry":{"coordinates":[16.203432,48.072001],"type":"Point"},"properties":{"osm_id":"6888646083","tag":{"amenity":"waste_basket"}},"type":"Feature"},
	{"geometry":{"coordinates":[16.203701,48.071948],"type":"Point"},"properties":{"osm_id":"6888646084","tag":{"amenity":"waste_basket"}},"type":"Feature"},
	{"geometry":{"coordinates":[16.203503,48.071893],"type":"Point"},"properties":{"osm_id":"6888647185","tag":{"amenity":"waste_basket"}},"type":"Feature"},
	{"geometry":{"coordinates":[16.203563,48.072268],"type":"Point"},"properties":{"osm_id":"6888647186","tag":{"amenity":"waste_basket"}},"type":"Feature"},
	{"geometry":{"coordinates":[16.203727,48.072314],"type":"Point"},"properties":{"osm_id":"6888647187","tag":{"amenity":"waste_basket"}},"type":"Feature"},
	{"geometry":{"coordinates":[16.202657,48.072363],"type":"Point"},"properties":{"osm_id":"6888647188","tag":{"amenity":"waste_basket"}},"type":"Feature"},
	{"geometry":{"coordinates":[16.203038,48.072215],"type":"Point"},"properties":{"osm_id":"6888647189","tag":{"amenity":"waste_basket"}},"type":"Feature"},
	{"geometry":{"coordinates":[16.202302,48.071953],"type":"Point"},"properties":{"osm_id":"6888647190","tag":{"amenity":"waste_basket"}},"type":"Feature"},
	{"geometry":{"coordinates":[16.201705,48.071848],"type":"Point"},"properties":{"osm_id":"6888647191","tag":{"amenity":"waste_basket"}},"type":"Feature"},
	{"geometry":{"coordinates":[16.202072,48.071764],"type":"Point"},"properties":{"osm_id":"6888647192","tag":{"amenity":"waste_basket"}},"type":"Feature"},
	{"geometry":{"coordinates":[16.20178,48.071693],"type":"Point"},"properties":{"osm_id":"6888647193","tag":{"amenity":"waste_basket"}},"type":"Feature"},
	{"geometry":{"coordinates":[16.201967,48.071734],"type":"Point"},"properties":{"osm_id":"6888647195","tag":{"amenity":"waste_basket"}},"type":"Feature"},
	{"geometry":{"coordinates":[16.202194,48.071792],"type":"Point"},"properties":{"osm_id":"6888647197","tag":{"amenity":"waste_basket"}},"type":"Feature"},
	{"geometry":{"coordinates":[16.202283,48.071665],"type":"Point"},"properties":{"osm_id":"6888647198","tag":{"amenity":"waste_basket"}},"type":"Feature"},
	{"geometry":{"coordinates":[16.20245,48.071697],"type":"Point"},"properties":{"osm_id":"6888647204","tag":{"amenity":"waste_basket"}},"type":"Feature"},
	{"geometry":{"coordinates":[16.20181,48.071555],"type":"Point"},"properties":{"osm_id":"6888647205","tag":{"amenity":"waste_basket"}},"type":"Feature"},
	{"geometry":{"coordinates":[16.202047,48.071601],"type":"Point"},"properties":{"osm_id":"6888647206","tag":{"amenity":"waste_basket"}},"type":"Feature"},
	{"geometry":{"coordinates":[16.195803,48.050944],"type":"Point"},"properties":{"osm_id":"7097954060","tag":{"amenity":"waste_basket"}},"type":"Feature"},
	{"geometry":{"coordinates":[16.230918,48.085204],"type":"Point"},"properties":{"osm_id":"7361789091","tag":{"amenity":"waste_basket"}},"type":"Feature"},
	{"geometry":{"coordinates":[16.23088,48.092549],"type":"Point"},"properties":{"osm_id":"7392155054","tag":{"amenity":"waste_basket"}},"type":"Feature"},
	{"geometry":{"coordinates":[16.236992,48.088164],"type":"Point"},"properties":{"osm_id":"7395618323","tag":{"amenity":"waste_basket"}},"type":"Feature"},
	{"geometry":{"coordinates":[16.230861,48.092534],"type":"Point"},"properties":{"osm_id":"7395693934","tag":{"amenity":"waste_basket"}},"type":"Feature"},
	{"geometry":{"coordinates":[16.216022,48.061529],"type":"Point"},"properties":{"osm_id":"7449241284","tag":{"amenity":"recycling","recycling_type":"container"}},"type":"Feature"},
	{"geometry":{"coordinates":[16.239142,48.088415],"type":"Point"},"properties":{"osm_id":"7531037637","tag":{"amenity":"waste_basket"}},"type":"Feature"},
	{"geometry":{"coordinates":[16.254188,48.101944],"type":"Point"},"properties":{"osm_id":"7553074167","tag":{"amenity":"waste_basket"}},"type":"Feature"},
	{"geometry":{"coordinates":[16.254835,48.100456],"type":"Point"},"properties":{"osm_id":"7553097314","tag":{"amenity":"waste_basket"}},"type":"Feature"},
	{"geometry":{"coordinates":[16.211076,48.060062],"type":"Point"},"properties":{"osm_id":"7561637955","tag":{"amenity":"waste_basket"}},"type":"Feature"},
	{"geometry":{"coordinates":[16.21202,48.059351],"type":"Point"},"properties":{"osm_id":"7561683078","tag":{"amenity":"waste_basket"}},"type":"Feature"},
	{"geometry":{"coordinates":[16.204649,48.056039],"type":"Point"},"properties":{"osm_id":"7561684655","tag":{"amenity":"waste_basket"}},"type":"Feature"},
	{"geometry":{"coordinates":[16.210272,48.058236],"type":"Point"},"properties":{"osm_id":"7561707502","tag":{"amenity":"waste_basket"}},"type":"Feature"},
	{"geometry":{"coordinates":[16.209601,48.057887],"type":"Point"},"properties":{"osm_id":"7561709904","tag":{"amenity":"waste_basket"}},"type":"Feature"},
	{"geometry":{"coordinates":[16.206968,48.05642],"type":"Point"},"properties":{"osm_id":"7561721751","tag":{"amenity":"waste_basket"}},"type":"Feature"},
	{"geometry":{"coordinates":[16.204861,48.054138],"type":"Point"},"properties":{"osm_id":"7561721780","tag":{"amenity":"waste_basket"}},"type":"Feature"},
	{"geometry":{"coordinates":[16.20547,48.054185],"type":"Point"},"properties":{"osm_id":"7562351706","tag":{"amenity":"waste_basket"}},"type":"Feature"},
	{"geometry":{"coordinates":[16.222815,48.101216],"type":"Point"},"properties":{"osm_id":"7620862760","tag":{"amenity":"waste_basket"}},"type":"Feature"},
	{"geometry":{"coordinates":[16.234849,48.095349],"type":"Point"},"properties":{"osm_id":"7627262470","tag":{"amenity":"waste_basket"}},"type":"Feature"}
]
}
