{
"type": "FeatureCollection",
"features": [
	{"geometry":{"coordinates":[16.241153,47.967611],"type":"Point"},"properties":{"name":"Altstoffsammelzentrum Bad V\u00c3\u00b6slau","osm_id":"51346427","tag":{"access":"customers","addr:city":"Bad V\u00c3\u00b6slau","addr:country":"AT","addr:housenumber":"3","addr:postcode":"2540","addr:street":"Energiestra\u00c3\u009fe","amenity":"recycling","opening_hours":"Th 13:00-18:00; Sa 08:00-12:00","recycling_type":"centre"}},"type":"Feature"},
	{"geometry":{"coordinates":[16.202318,47.958966],"type":"Point"},"properties":{"osm_id":"310703859","tag":{"amenity":"recycling","recycling:glass":"yes"}},"type":"Feature"},
	{"geometry":{"coordinates":[16.217339,47.964285],"type":"Point"},"properties":{"osm_id":"313369563","tag":{"amenity":"recycling","recycling:cans":"yes","recycling:glass":"yes"}},"type":"Feature"},
	{"geometry":{"coordinates":[16.188461,47.964773],"type":"Point"},"properties":{"osm_id":"979599731","tag":{"amenity":"waste_basket"}},"type":"Feature"},
	{"geometry":{"coordinates":[16.195891,47.964694],"type":"Point"},"properties":{"osm_id":"979600185","tag":{"amenity":"waste_basket"}},"type":"Feature"},
	{"geometry":{"coordinates":[16.198836,47.965296],"type":"Point"},"properties":{"osm_id":"979600496","tag":{"amenity":"waste_basket"}},"type":"Feature"},
	{"geometry":{"coordinates":[16.204957,47.964244],"type":"Point"},"properties":{"osm_id":"988144833","tag":{"amenity":"waste_basket"}},"type":"Feature"},
	{"geometry":{"coordinates":[16.203228,47.963629],"type":"Point"},"properties":{"osm_id":"988144939","tag":{"amenity":"waste_basket"}},"type":"Feature"},
	{"geometry":{"coordinates":[16.202852,47.963679],"type":"Point"},"properties":{"osm_id":"988144952","tag":{"amenity":"waste_basket"}},"type":"Feature"},
	{"geometry":{"coordinates":[16.201926,47.967861],"type":"Point"},"properties":{"osm_id":"988145133","tag":{"amenity":"waste_basket"}},"type":"Feature"},
	{"geometry":{"coordinates":[16.201669,47.967896],"type":"Point"},"properties":{"osm_id":"988145147","tag":{"amenity":"waste_basket"}},"type":"Feature"},
	{"geometry":{"coordinates":[16.189226,47.969083],"type":"Point"},"properties":{"osm_id":"988145870","tag":{"amenity":"waste_basket"}},"type":"Feature"},
	{"geometry":{"coordinates":[16.197624,47.969538],"type":"Point"},"properties":{"osm_id":"988481608","tag":{"amenity":"waste_basket"}},"type":"Feature"},
	{"geometry":{"coordinates":[16.196715,47.969495],"type":"Point"},"properties":{"osm_id":"988481612","tag":{"amenity":"waste_basket"}},"type":"Feature"},
	{"geometry":{"coordinates":[16.18413,47.964501],"type":"Point"},"properties":{"osm_id":"1011726052","tag":{"amenity":"waste_basket"}},"type":"Feature"},
	{"geometry":{"coordinates":[16.186857,47.965293],"type":"Point"},"properties":{"osm_id":"1125069393","tag":{"amenity":"waste_basket"}},"type":"Feature"},
	{"geometry":{"coordinates":[16.187671,47.967385],"type":"Point"},"properties":{"osm_id":"1125069440","tag":{"amenity":"waste_basket"}},"type":"Feature"},
	{"geometry":{"coordinates":[16.199628,47.978152],"type":"Point"},"properties":{"osm_id":"1125181429","tag":{"amenity":"waste_basket","information":"guidepost","tourism":"information"}},"type":"Feature"},
	{"geometry":{"coordinates":[16.199409,47.979304],"type":"Point"},"properties":{"osm_id":"1125181466","tag":{"amenity":"waste_basket"}},"type":"Feature"},
	{"geometry":{"coordinates":[16.188867,47.965268],"type":"Point"},"properties":{"osm_id":"1230383083","tag":{"amenity":"waste_basket","wpt_description":"01-APR-11 17:24:03"}},"type":"Feature"},
	{"geometry":{"coordinates":[16.192811,47.964272],"type":"Point"},"properties":{"osm_id":"1230387427","tag":{"amenity":"waste_basket","wpt_description":"01-APR-11 17:49:07"}},"type":"Feature"},
	{"geometry":{"coordinates":[16.197793,47.964869],"type":"Point"},"properties":{"osm_id":"1230388629","tag":{"amenity":"waste_basket"}},"type":"Feature"},
	{"geometry":{"coordinates":[16.190584,47.965109],"type":"Point"},"properties":{"osm_id":"1232181601","tag":{"amenity":"waste_basket"}},"type":"Feature"},
	{"geometry":{"coordinates":[16.196364,47.966633],"type":"Point"},"properties":{"osm_id":"1241210303","tag":{"amenity":"waste_basket"}},"type":"Feature"},
	{"geometry":{"coordinates":[16.179175,47.932336],"type":"Point"},"properties":{"osm_id":"1244196473","tag":{"addr:city":"Hirtenberg","addr:country":"AT","addr:housenumber":"22","addr:postcode":"2552","addr:street":"Alte Gasse","amenity":"recycling","operator":"GVA Baden","recycling:glass":"yes","recycling:paper":"yes","recycling:scrap_metal":"yes","recycling_type":"container","ref:gva:asi":"13.002"}},"type":"Feature"},
	{"geometry":{"coordinates":[16.177006,47.932104],"type":"Point"},"properties":{"osm_id":"1244196495","tag":{"amenity":"waste_basket"}},"type":"Feature"},
	{"geometry":{"coordinates":[16.175959,47.932686],"type":"Point"},"properties":{"osm_id":"1258210773","tag":{"amenity":"waste_basket"}},"type":"Feature"},
	{"geometry":{"coordinates":[16.175845,47.932529],"type":"Point"},"properties":{"osm_id":"1258210798","tag":{"amenity":"waste_basket"}},"type":"Feature"},
	{"geometry":{"coordinates":[16.221246,47.932701],"type":"Point"},"properties":{"osm_id":"1332231669","tag":{"amenity":"recycling","location":"overground","recycling:green_waste":"yes","recycling:paper":"yes","recycling:plastic":"yes","recycling_type":"container"}},"type":"Feature"},
	{"geometry":{"coordinates":[16.214323,47.966413],"type":"Point"},"properties":{"osm_id":"1460407915","tag":{"amenity":"waste_basket"}},"type":"Feature"},
	{"geometry":{"coordinates":[16.253553,47.94299],"type":"Point"},"properties":{"osm_id":"1486949223","tag":{"amenity":"recycling","recycling:cans":"yes","recycling:glass":"yes","recycling_type":"container"}},"type":"Feature"},
	{"geometry":{"coordinates":[16.257467,47.988668],"type":"Point"},"properties":{"name":"Bauhof Baden","osm_id":"1494612561","tag":{"amenity":"recycling","recycling:batteries":"yes","recycling:books":"yes","recycling:cans":"yes","recycling:cardboard":"yes","recycling:cartons":"yes","recycling:clothes":"yes","recycling:electrical_appliances":"yes","recycling:glass":"yes","recycling:glass_bottles":"yes","recycling:green_waste":"yes","recycling:magazines":"yes","recycling:newspaper":"yes","recycling:paper":"yes","recycling:paper_packaging":"yes","recycling:plastic":"yes","recycling:plastic_bottles":"yes","recycling:plastic_packaging":"yes","recycling:scrap_metal":"yes","recycling:small_appliances":"yes","recycling:waste":"yes","recycling:wood":"yes","recycling_type":"centre"}},"type":"Feature"},
	{"geometry":{"coordinates":[16.254144,47.943205],"type":"Point"},"properties":{"osm_id":"1496334814","tag":{"amenity":"waste_basket"}},"type":"Feature"},
	{"geometry":{"coordinates":[16.257266,47.944256],"type":"Point"},"properties":{"osm_id":"1496336128","tag":{"amenity":"waste_basket"}},"type":"Feature"},
	{"geometry":{"coordinates":[16.259094,47.944619],"type":"Point"},"properties":{"osm_id":"1496337034","tag":{"amenity":"waste_basket"}},"type":"Feature"},
	{"geometry":{"coordinates":[16.259544,47.944883],"type":"Point"},"properties":{"osm_id":"1496338042","tag":{"amenity":"waste_basket"}},"type":"Feature"},
	{"geometry":{"coordinates":[16.253971,47.943313],"type":"Point"},"properties":{"osm_id":"1497171982","tag":{"amenity":"waste_basket"}},"type":"Feature"},
	{"geometry":{"coordinates":[16.204519,47.965326],"type":"Point"},"properties":{"osm_id":"1507735597","tag":{"amenity":"waste_basket"}},"type":"Feature"},
	{"geometry":{"coordinates":[16.203867,47.965007],"type":"Point"},"properties":{"osm_id":"1507735599","tag":{"amenity":"waste_basket"}},"type":"Feature"},
	{"geometry":{"coordinates":[16.201794,47.966724],"type":"Point"},"properties":{"osm_id":"1507774108","tag":{"amenity":"waste_basket"}},"type":"Feature"},
	{"geometry":{"coordinates":[16.195691,47.972825],"type":"Point"},"properties":{"osm_id":"1507986772","tag":{"amenity":"waste_basket"}},"type":"Feature"},
	{"geometry":{"coordinates":[16.19775,47.975106],"type":"Point"},"properties":{"osm_id":"1507986880","tag":{"amenity":"waste_basket"}},"type":"Feature"},
	{"geometry":{"coordinates":[16.197588,47.97346],"type":"Point"},"properties":{"osm_id":"1508072593","tag":{"amenity":"waste_basket"}},"type":"Feature"},
	{"geometry":{"coordinates":[16.197545,47.973303],"type":"Point"},"properties":{"osm_id":"1508072595","tag":{"amenity":"waste_basket"}},"type":"Feature"},
	{"geometry":{"coordinates":[16.198757,47.974645],"type":"Point"},"properties":{"osm_id":"1508072699","tag":{"amenity":"waste_basket"}},"type":"Feature"},
	{"geometry":{"coordinates":[16.189178,47.972644],"type":"Point"},"properties":{"osm_id":"1508072959","tag":{"amenity":"waste_basket"}},"type":"Feature"},
	{"geometry":{"coordinates":[16.190656,47.972871],"type":"Point"},"properties":{"osm_id":"1508072984","tag":{"amenity":"waste_basket"}},"type":"Feature"},
	{"geometry":{"coordinates":[16.200242,47.963416],"type":"Point"},"properties":{"osm_id":"1536968169","tag":{"amenity":"waste_basket"}},"type":"Feature"},
	{"geometry":{"coordinates":[16.201163,47.964071],"type":"Point"},"properties":{"osm_id":"1536968192","tag":{"amenity":"waste_basket"}},"type":"Feature"},
	{"geometry":{"coordinates":[16.206134,47.972368],"type":"Point"},"properties":{"osm_id":"1537058895","tag":{"amenity":"waste_basket"}},"type":"Feature"},
	{"geometry":{"coordinates":[16.178446,47.97026],"type":"Point"},"properties":{"osm_id":"1537711102","tag":{"amenity":"waste_basket"}},"type":"Feature"},
	{"geometry":{"coordinates":[16.205704,47.969379],"type":"Point"},"properties":{"osm_id":"1537764774","tag":{"amenity":"waste_basket"}},"type":"Feature"},
	{"geometry":{"coordinates":[16.204359,47.970348],"type":"Point"},"properties":{"osm_id":"1537764926","tag":{"amenity":"waste_basket"}},"type":"Feature"},
	{"geometry":{"coordinates":[16.200184,47.978167],"type":"Point"},"properties":{"osm_id":"1537788310","tag":{"amenity":"waste_basket"}},"type":"Feature"},
	{"geometry":{"coordinates":[16.204471,47.972443],"type":"Point"},"properties":{"osm_id":"1537788324","tag":{"amenity":"waste_basket"}},"type":"Feature"},
	{"geometry":{"coordinates":[16.18523,47.977105],"type":"Point"},"properties":{"osm_id":"1537828807","tag":{"amenity":"waste_basket"}},"type":"Feature"},
	{"geometry":{"coordinates":[16.205278,47.968896],"type":"Point"},"properties":{"osm_id":"1538376246","tag":{"amenity":"waste_basket"}},"type":"Feature"},
	{"geometry":{"coordinates":[16.205332,47.970051],"type":"Point"},"properties":{"osm_id":"1538376366","tag":{"amenity":"waste_basket"}},"type":"Feature"},
	{"geometry":{"coordinates":[16.203486,47.97156],"type":"Point"},"properties":{"osm_id":"1538376483","tag":{"amenity":"waste_basket"}},"type":"Feature"},
	{"geometry":{"coordinates":[16.202917,47.972141],"type":"Point"},"properties":{"osm_id":"1538407424","tag":{"amenity":"waste_basket"}},"type":"Feature"},
	{"geometry":{"coordinates":[16.202537,47.973287],"type":"Point"},"properties":{"osm_id":"1538407445","tag":{"amenity":"waste_basket"}},"type":"Feature"},
	{"geometry":{"coordinates":[16.201961,47.974047],"type":"Point"},"properties":{"osm_id":"1538407545","tag":{"amenity":"waste_basket"}},"type":"Feature"},
	{"geometry":{"coordinates":[16.201132,47.969447],"type":"Point"},"properties":{"osm_id":"1538477401","tag":{"amenity":"waste_basket"}},"type":"Feature"},
	{"geometry":{"coordinates":[16.199351,47.966855],"type":"Point"},"properties":{"osm_id":"1538534737","tag":{"amenity":"waste_basket"}},"type":"Feature"},
	{"geometry":{"coordinates":[16.202537,47.977685],"type":"Point"},"properties":{"osm_id":"1557495079","tag":{"amenity":"waste_basket"}},"type":"Feature"},
	{"geometry":{"coordinates":[16.201004,47.97675],"type":"Point"},"properties":{"name":"MK3","osm_id":"1557495147","tag":{"amenity":"waste_basket"}},"type":"Feature"},
	{"geometry":{"coordinates":[16.201775,47.975196],"type":"Point"},"properties":{"osm_id":"1557495192","tag":{"amenity":"waste_basket"}},"type":"Feature"},
	{"geometry":{"coordinates":[16.202844,47.976882],"type":"Point"},"properties":{"osm_id":"1557495287","tag":{"amenity":"waste_basket"}},"type":"Feature"},
	{"geometry":{"coordinates":[16.205198,47.973165],"type":"Point"},"properties":{"osm_id":"1557560182","tag":{"amenity":"waste_basket"}},"type":"Feature"},
	{"geometry":{"coordinates":[16.205273,47.972727],"type":"Point"},"properties":{"osm_id":"1557560358","tag":{"amenity":"waste_basket"}},"type":"Feature"},
	{"geometry":{"coordinates":[16.19672,47.986587],"type":"Point"},"properties":{"osm_id":"1569524056","tag":{"amenity":"waste_basket"}},"type":"Feature"},
	{"geometry":{"coordinates":[16.198225,47.987319],"type":"Point"},"properties":{"osm_id":"1569524100","tag":{"amenity":"waste_basket"}},"type":"Feature"},
	{"geometry":{"coordinates":[16.198772,47.989192],"type":"Point"},"properties":{"osm_id":"1569530661","tag":{"amenity":"waste_basket"}},"type":"Feature"},
	{"geometry":{"coordinates":[16.204488,47.931447],"type":"Point"},"properties":{"osm_id":"1583648423","tag":{"amenity":"waste_basket"}},"type":"Feature"},
	{"geometry":{"coordinates":[16.204642,47.931398],"type":"Point"},"properties":{"osm_id":"1583713984","tag":{"amenity":"waste_basket"}},"type":"Feature"},
	{"geometry":{"coordinates":[16.178182,47.963918],"type":"Point"},"properties":{"osm_id":"1589575665","tag":{"amenity":"waste_basket"}},"type":"Feature"},
	{"geometry":{"coordinates":[16.219682,47.932422],"type":"Point"},"properties":{"osm_id":"1602339482","tag":{"amenity":"recycling","location":"overground","recycling:cans":"yes","recycling:glass":"yes","recycling_type":"container"}},"type":"Feature"},
	{"geometry":{"coordinates":[16.223657,47.934652],"type":"Point"},"properties":{"osm_id":"1610363878","tag":{"amenity":"recycling","recycling:cans":"yes","recycling:glass":"yes","recycling_type":"container"}},"type":"Feature"},
	{"geometry":{"coordinates":[16.252762,47.93257],"type":"Point"},"properties":{"osm_id":"1653268535","tag":{"amenity":"waste_basket"}},"type":"Feature"},
	{"geometry":{"coordinates":[16.252725,47.932641],"type":"Point"},"properties":{"osm_id":"1653268536","tag":{"amenity":"waste_basket"}},"type":"Feature"},
	{"geometry":{"coordinates":[16.258776,47.937289],"type":"Point"},"properties":{"osm_id":"1653339724","tag":{"amenity":"waste_basket"}},"type":"Feature"},
	{"geometry":{"coordinates":[16.239012,47.943099],"type":"Point"},"properties":{"osm_id":"1756292486","tag":{"amenity":"waste_basket"}},"type":"Feature"},
	{"geometry":{"coordinates":[16.237269,47.941303],"type":"Point"},"properties":{"osm_id":"1756355461","tag":{"amenity":"waste_basket","maxspeed":"30","source:maxspeed":"zone","traffic_sign":"maxspeed"}},"type":"Feature"},
	{"geometry":{"coordinates":[16.236694,47.946624],"type":"Point"},"properties":{"osm_id":"1899986771","tag":{"amenity":"recycling","recycling:cans":"yes","recycling:clothes":"yes","recycling:glass":"yes","recycling_type":"container"}},"type":"Feature"},
	{"geometry":{"coordinates":[16.235653,47.948474],"type":"Point"},"properties":{"osm_id":"1899986779","tag":{"amenity":"waste_basket"}},"type":"Feature"},
	{"geometry":{"coordinates":[16.236073,47.94925],"type":"Point"},"properties":{"osm_id":"1906782720","tag":{"amenity":"waste_basket"}},"type":"Feature"},
	{"geometry":{"coordinates":[16.232829,47.943531],"type":"Point"},"properties":{"osm_id":"1909602088","tag":{"amenity":"waste_basket"}},"type":"Feature"},
	{"geometry":{"coordinates":[16.221713,47.969727],"type":"Point"},"properties":{"barrier":"gate","osm_id":"2001324049"},"type":"Feature"},
	{"geometry":{"coordinates":[16.222955,47.966133],"type":"Point"},"properties":{"osm_id":"2012032582","tag":{"amenity":"recycling","recycling:cans":"yes","recycling:glass_bottles":"yes","recycling_type":"container"}},"type":"Feature"},
	{"geometry":{"coordinates":[16.223033,47.969348],"type":"Point"},"properties":{"osm_id":"2161371389","tag":{"amenity":"waste_basket"}},"type":"Feature"},
	{"geometry":{"coordinates":[16.214499,47.974609],"type":"Point"},"properties":{"osm_id":"2361073070","tag":{"amenity":"recycling","recycling:cans":"yes","recycling:glass":"yes","recycling:scrap_metal":"no","recycling_type":"container"}},"type":"Feature"},
	{"geometry":{"coordinates":[16.183173,47.93118],"type":"Point"},"properties":{"osm_id":"2391502605","tag":{"amenity":"waste_basket"}},"type":"Feature"},
	{"geometry":{"coordinates":[16.176065,47.931072],"type":"Point"},"properties":{"osm_id":"2393160797","tag":{"amenity":"waste_basket"}},"type":"Feature"},
	{"geometry":{"coordinates":[16.217197,47.931223],"type":"Point"},"properties":{"osm_id":"2449352795","tag":{"amenity":"waste_basket"}},"type":"Feature"},
	{"geometry":{"coordinates":[16.218219,47.933077],"type":"Point"},"properties":{"osm_id":"2449352798","tag":{"amenity":"waste_basket"}},"type":"Feature"},
	{"geometry":{"coordinates":[16.21817,47.933409],"type":"Point"},"properties":{"osm_id":"2449352801","tag":{"amenity":"waste_basket"}},"type":"Feature"},
	{"geometry":{"coordinates":[16.221604,47.935284],"type":"Point"},"properties":{"osm_id":"2449352803","tag":{"amenity":"waste_basket"}},"type":"Feature"},
	{"geometry":{"coordinates":[16.214234,47.931676],"type":"Point"},"properties":{"osm_id":"2449768370","tag":{"amenity":"waste_basket"}},"type":"Feature"},
	{"geometry":{"coordinates":[16.215373,47.931783],"type":"Point"},"properties":{"osm_id":"2449768373","tag":{"amenity":"waste_basket"}},"type":"Feature"},
	{"geometry":{"coordinates":[16.220259,47.932046],"type":"Point"},"properties":{"osm_id":"2449768379","tag":{"amenity":"waste_basket"}},"type":"Feature"},
	{"geometry":{"coordinates":[16.219277,47.932851],"type":"Point"},"properties":{"osm_id":"2449768381","tag":{"amenity":"waste_basket"}},"type":"Feature"},
	{"geometry":{"coordinates":[16.215901,47.932964],"type":"Point"},"properties":{"osm_id":"2449768384","tag":{"amenity":"waste_basket"}},"type":"Feature"},
	{"geometry":{"coordinates":[16.217185,47.933275],"type":"Point"},"properties":{"osm_id":"2449768389","tag":{"amenity":"waste_basket"}},"type":"Feature"},
	{"geometry":{"coordinates":[16.207363,47.959155],"type":"Point"},"properties":{"osm_id":"2452689820","tag":{"amenity":"recycling","recycling:glass":"yes","recycling_type":"container"}},"type":"Feature"},
	{"geometry":{"coordinates":[16.225457,47.931849],"type":"Point"},"properties":{"osm_id":"3172505500","tag":{"amenity":"recycling","recycling:cans":"yes","recycling:glass":"yes","recycling:paper":"yes","recycling_type":"container"}},"type":"Feature"},
	{"geometry":{"coordinates":[16.186664,47.931294],"type":"Point"},"properties":{"osm_id":"3707224426","tag":{"amenity":"recycling","recycling:clothes":"yes","recycling_type":"container"}},"type":"Feature"},
	{"geometry":{"coordinates":[16.186639,47.931292],"type":"Point"},"properties":{"osm_id":"3707224429","tag":{"amenity":"waste_basket"}},"type":"Feature"},
	{"geometry":{"coordinates":[16.217768,47.934996],"type":"Point"},"properties":{"osm_id":"3892240934","tag":{"amenity":"recycling","recycling:glass_bottles":"yes","recycling_type":"container"}},"type":"Feature"},
	{"geometry":{"coordinates":[16.214025,47.966479],"type":"Point"},"properties":{"osm_id":"4089008531","tag":{"amenity":"waste_basket"}},"type":"Feature"},
	{"geometry":{"coordinates":[16.213646,47.967241],"type":"Point"},"properties":{"osm_id":"4089008553","tag":{"amenity":"waste_basket"}},"type":"Feature"},
	{"geometry":{"coordinates":[16.223432,47.96924],"type":"Point"},"properties":{"osm_id":"4089008582","tag":{"amenity":"waste_basket"}},"type":"Feature"},
	{"geometry":{"coordinates":[16.223101,47.969204],"type":"Point"},"properties":{"osm_id":"4089008584","tag":{"amenity":"waste_basket"}},"type":"Feature"},
	{"geometry":{"coordinates":[16.223404,47.969473],"type":"Point"},"properties":{"osm_id":"4089008587","tag":{"amenity":"recycling","recycling:clothes":"yes","recycling_type":"container"}},"type":"Feature"},
	{"geometry":{"coordinates":[16.19145,47.931429],"type":"Point"},"properties":{"osm_id":"4154186329","tag":{"amenity":"waste_basket"}},"type":"Feature"},
	{"geometry":{"coordinates":[16.246359,47.932869],"type":"Point"},"properties":{"osm_id":"4304025764","tag":{"amenity":"waste_basket"}},"type":"Feature"},
	{"geometry":{"coordinates":[16.257978,47.959043],"type":"Point"},"properties":{"osm_id":"4574615151","tag":{"amenity":"waste_basket"}},"type":"Feature"},
	{"geometry":{"coordinates":[16.242491,47.964683],"type":"Point"},"properties":{"osm_id":"4576156698","tag":{"amenity":"recycling","recycling_type":"container"}},"type":"Feature"},
	{"geometry":{"coordinates":[16.231554,47.938041],"type":"Point"},"properties":{"osm_id":"4703457492","tag":{"amenity":"waste_basket"}},"type":"Feature"},
	{"geometry":{"coordinates":[16.224124,47.963961],"type":"Point"},"properties":{"osm_id":"4729749168","tag":{"amenity":"recycling","recycling_type":"container"}},"type":"Feature"},
	{"geometry":{"coordinates":[16.213995,47.964588],"type":"Point"},"properties":{"osm_id":"4771626309","tag":{"amenity":"waste_basket"}},"type":"Feature"},
	{"geometry":{"coordinates":[16.213755,47.965002],"type":"Point"},"properties":{"osm_id":"4771626625","tag":{"amenity":"waste_basket"}},"type":"Feature"},
	{"geometry":{"coordinates":[16.17937,47.962054],"type":"Point"},"properties":{"osm_id":"4856624245","tag":{"amenity":"waste_basket"}},"type":"Feature"},
	{"geometry":{"coordinates":[16.19592,47.931226],"type":"Point"},"properties":{"osm_id":"4979867262","tag":{"amenity":"waste_basket"}},"type":"Feature"},
	{"geometry":{"coordinates":[16.255469,47.93414],"type":"Point"},"properties":{"osm_id":"5312145746","tag":{"amenity":"recycling","recycling:cans":"yes","recycling:clothes":"yes","recycling:glass":"yes","recycling_type":"container"}},"type":"Feature"},
	{"geometry":{"coordinates":[16.222577,47.976287],"type":"Point"},"properties":{"osm_id":"5679221634","tag":{"amenity":"recycling","recycling_type":"container"}},"type":"Feature"},
	{"geometry":{"coordinates":[16.213172,47.970687],"type":"Point"},"properties":{"osm_id":"5761530693","tag":{"amenity":"recycling","recycling_type":"container"}},"type":"Feature"},
	{"geometry":{"coordinates":[16.213071,47.974063],"type":"Point"},"properties":{"osm_id":"5792000441","tag":{"amenity":"waste_basket"}},"type":"Feature"},
	{"geometry":{"coordinates":[16.222952,47.947589],"type":"Point"},"properties":{"osm_id":"5862321794","tag":{"amenity":"waste_basket"}},"type":"Feature"},
	{"geometry":{"coordinates":[16.222582,47.947589],"type":"Point"},"properties":{"osm_id":"5862321795","tag":{"amenity":"waste_basket"}},"type":"Feature"},
	{"geometry":{"coordinates":[16.216825,47.961759],"type":"Point"},"properties":{"osm_id":"5862322550","tag":{"amenity":"recycling","recycling_type":"container"}},"type":"Feature"},
	{"geometry":{"coordinates":[16.229038,47.966486],"type":"Point"},"properties":{"osm_id":"5862322576","tag":{"amenity":"recycling","recycling_type":"container"}},"type":"Feature"},
	{"geometry":{"coordinates":[16.211539,47.984399],"type":"Point"},"properties":{"osm_id":"5863277632","tag":{"amenity":"waste_basket"}},"type":"Feature"},
	{"geometry":{"coordinates":[16.218153,47.984633],"type":"Point"},"properties":{"osm_id":"5863277633","tag":{"amenity":"waste_basket"}},"type":"Feature"},
	{"geometry":{"coordinates":[16.229577,47.936847],"type":"Point"},"properties":{"osm_id":"5869038337","tag":{"amenity":"waste_basket"}},"type":"Feature"},
	{"geometry":{"coordinates":[16.231051,47.937208],"type":"Point"},"properties":{"osm_id":"5869040999","tag":{"amenity":"recycling","recycling:clothes":"yes","recycling:shoes":"yes","recycling_type":"container"}},"type":"Feature"},
	{"geometry":{"coordinates":[16.230908,47.937526],"type":"Point"},"properties":{"osm_id":"5869041021","tag":{"amenity":"waste_basket"}},"type":"Feature"},
	{"geometry":{"coordinates":[16.230866,47.937653],"type":"Point"},"properties":{"osm_id":"5869041026","tag":{"amenity":"waste_basket"}},"type":"Feature"},
	{"geometry":{"coordinates":[16.230929,47.937788],"type":"Point"},"properties":{"osm_id":"5869041038","tag":{"amenity":"waste_basket"}},"type":"Feature"},
	{"geometry":{"coordinates":[16.230962,47.937757],"type":"Point"},"properties":{"osm_id":"5869041039","tag":{"amenity":"waste_basket"}},"type":"Feature"},
	{"geometry":{"coordinates":[16.225632,47.935995],"type":"Point"},"properties":{"osm_id":"5869184067","tag":{"amenity":"waste_basket"}},"type":"Feature"},
	{"geometry":{"coordinates":[16.211642,47.932808],"type":"Point"},"properties":{"osm_id":"5869551603","tag":{"amenity":"waste_basket"}},"type":"Feature"},
	{"geometry":{"coordinates":[16.237372,47.942133],"type":"Point"},"properties":{"osm_id":"5945524941","tag":{"amenity":"waste_basket"}},"type":"Feature"},
	{"geometry":{"coordinates":[16.227587,47.942093],"type":"Point"},"properties":{"osm_id":"5945525192","tag":{"amenity":"recycling","recycling_type":"container"}},"type":"Feature"},
	{"geometry":{"coordinates":[16.259198,47.941599],"type":"Point"},"properties":{"osm_id":"6071582910","tag":{"amenity":"waste_basket"}},"type":"Feature"},
	{"geometry":{"coordinates":[16.222069,47.948126],"type":"Point"},"properties":{"osm_id":"6358756551","tag":{"amenity":"recycling","recycling_type":"container"}},"type":"Feature"},
	{"geometry":{"coordinates":[16.221712,47.946589],"type":"Point"},"properties":{"osm_id":"6388230452","tag":{"amenity":"recycling","recycling_type":"container"}},"type":"Feature"},
	{"geometry":{"coordinates":[16.22791,47.951059],"type":"Point"},"properties":{"osm_id":"6418469852","tag":{"amenity":"waste_basket"}},"type":"Feature"},
	{"geometry":{"coordinates":[16.228152,47.950905],"type":"Point"},"properties":{"osm_id":"6418469853","tag":{"amenity":"waste_basket"}},"type":"Feature"},
	{"geometry":{"coordinates":[16.224166,47.948314],"type":"Point"},"properties":{"osm_id":"6418469860","tag":{"amenity":"recycling","recycling_type":"container"}},"type":"Feature"},
	{"geometry":{"coordinates":[16.194587,47.931503],"type":"Point"},"properties":{"osm_id":"6533458597","tag":{"amenity":"recycling","recycling_type":"container"}},"type":"Feature"},
	{"geometry":{"coordinates":[16.209074,47.958923],"type":"Point"},"properties":{"osm_id":"6535340823","tag":{"amenity":"waste_basket"}},"type":"Feature"},
	{"geometry":{"coordinates":[16.211014,47.958046],"type":"Point"},"properties":{"osm_id":"6535367600","tag":{"amenity":"waste_basket"}},"type":"Feature"},
	{"geometry":{"coordinates":[16.227826,47.935122],"type":"Point"},"properties":{"osm_id":"6610384807","tag":{"amenity":"waste_basket"}},"type":"Feature"},
	{"geometry":{"coordinates":[16.22797,47.934648],"type":"Point"},"properties":{"osm_id":"6610384810","tag":{"amenity":"waste_basket"}},"type":"Feature"},
	{"geometry":{"coordinates":[16.25543,47.93155],"type":"Point"},"properties":{"osm_id":"6658349575","tag":{"amenity":"waste_basket"}},"type":"Feature"},
	{"geometry":{"coordinates":[16.204301,47.931251],"type":"Point"},"properties":{"osm_id":"6848386381","tag":{"amenity":"waste_basket"}},"type":"Feature"},
	{"geometry":{"coordinates":[16.204463,47.931575],"type":"Point"},"properties":{"osm_id":"6864311006","tag":{"amenity":"waste_basket"}},"type":"Feature"},
	{"geometry":{"coordinates":[16.203136,47.932227],"type":"Point"},"properties":{"osm_id":"7100224695","tag":{"amenity":"waste_basket"}},"type":"Feature"},
	{"geometry":{"coordinates":[16.202734,47.932118],"type":"Point"},"properties":{"osm_id":"7100224696","tag":{"amenity":"waste_basket"}},"type":"Feature"},
	{"geometry":{"coordinates":[16.20985,47.988757],"type":"Point"},"properties":{"osm_id":"7254721098","tag":{"amenity":"waste_basket","waste":"trash"}},"type":"Feature"},
	{"geometry":{"coordinates":[16.209895,47.982821],"type":"Point"},"properties":{"osm_id":"7254721100","tag":{"amenity":"waste_basket","waste":"trash"}},"type":"Feature"},
	{"geometry":{"coordinates":[16.251606,47.942405],"type":"Point"},"properties":{"osm_id":"7344187587","tag":{"amenity":"waste_basket"}},"type":"Feature"},
	{"geometry":{"coordinates":[16.254867,47.933842],"type":"Point"},"properties":{"osm_id":"7344187617","tag":{"amenity":"waste_basket"}},"type":"Feature"},
	{"geometry":{"coordinates":[16.254595,47.934189],"type":"Point"},"properties":{"osm_id":"7344187618","tag":{"amenity":"waste_basket"}},"type":"Feature"},
	{"geometry":{"coordinates":[16.232779,47.943753],"type":"Point"},"properties":{"osm_id":"7344187842","tag":{"amenity":"recycling","recycling_type":"container"}},"type":"Feature"},
	{"geometry":{"coordinates":[16.179877,47.932263],"type":"Point"},"properties":{"osm_id":"7448591064","tag":{"addr:city":"Hirtenberg","addr:country":"AT","addr:housenumber":"6","addr:postcode":"2552","addr:street":"Schulgasse","amenity":"recycling","operator":"GVA Baden","recycling_type":"container","ref:gva:asi":"13.003"}},"type":"Feature"},
	{"geometry":{"coordinates":[16.205115,47.970697],"type":"Point"},"properties":{"osm_id":"7526909593","tag":{"amenity":"waste_basket"}},"type":"Feature"},
	{"geometry":{"coordinates":[16.205337,47.971449],"type":"Point"},"properties":{"osm_id":"7526958951","tag":{"amenity":"waste_basket"}},"type":"Feature"},
	{"geometry":{"coordinates":[16.205341,47.972382],"type":"Point"},"properties":{"osm_id":"7526958954","tag":{"amenity":"waste_basket"}},"type":"Feature"},
	{"geometry":{"coordinates":[16.204698,47.973825],"type":"Point"},"properties":{"osm_id":"7526958957","tag":{"amenity":"waste_basket"}},"type":"Feature"},
	{"geometry":{"coordinates":[16.203897,47.974929],"type":"Point"},"properties":{"osm_id":"7526958961","tag":{"amenity":"waste_basket"}},"type":"Feature"},
	{"geometry":{"coordinates":[16.2037,47.975508],"type":"Point"},"properties":{"osm_id":"7526958963","tag":{"amenity":"waste_basket"}},"type":"Feature"},
	{"geometry":{"coordinates":[16.224425,47.96957],"type":"Point"},"properties":{"osm_id":"7862598616","tag":{"amenity":"waste_basket"}},"type":"Feature"},
	{"geometry":{"coordinates":[16.22323,47.969138],"type":"Point"},"properties":{"osm_id":"7862598631","tag":{"amenity":"waste_basket"}},"type":"Feature"},
	{"geometry":{"coordinates":[16.201234,47.932189],"type":"Point"},"properties":{"osm_id":"7868851780","tag":{"amenity":"waste_basket"}},"type":"Feature"},
	{"geometry":{"coordinates":[16.226186,47.950371],"type":"Point"},"properties":{"osm_id":"7878052578","tag":{"amenity":"waste_basket"}},"type":"Feature"}
]
}
