{
"type": "FeatureCollection",
"features": [
	{"geometry":{"coordinates":[16.215398,47.930043],"type":"Point"},"properties":{"osm_id":"603067748","tag":{"amenity":"recycling","location":"overground","recycling:cans":"yes","recycling:clothes":"yes","recycling:glass_bottles":"yes","recycling_type":"container"}},"type":"Feature"},
	{"geometry":{"coordinates":[16.182583,47.909135],"type":"Point"},"properties":{"osm_id":"867422155","tag":{"amenity":"waste_basket"}},"type":"Feature"},
	{"geometry":{"coordinates":[16.18048,47.914467],"type":"Point"},"properties":{"osm_id":"867422253","tag":{"amenity":"waste_basket"}},"type":"Feature"},
	{"geometry":{"coordinates":[16.180281,47.915276],"type":"Point"},"properties":{"osm_id":"867422256","tag":{"amenity":"waste_basket"}},"type":"Feature"},
	{"geometry":{"coordinates":[16.18022,47.916021],"type":"Point"},"properties":{"osm_id":"867422260","tag":{"amenity":"waste_basket"}},"type":"Feature"},
	{"geometry":{"coordinates":[16.178684,47.917405],"type":"Point"},"properties":{"osm_id":"867422276","tag":{"amenity":"waste_basket"}},"type":"Feature"},
	{"geometry":{"coordinates":[16.178144,47.917806],"type":"Point"},"properties":{"osm_id":"867422291","tag":{"amenity":"waste_basket"}},"type":"Feature"},
	{"geometry":{"coordinates":[16.250543,47.926361],"type":"Point"},"properties":{"barrier":"gate","osm_id":"965907281"},"type":"Feature"},
	{"geometry":{"coordinates":[16.187204,47.914198],"type":"Point"},"properties":{"osm_id":"1243356739","tag":{"amenity":"waste_basket"}},"type":"Feature"},
	{"geometry":{"coordinates":[16.210713,47.921368],"type":"Point"},"properties":{"barrier":"gate","osm_id":"1411971653"},"type":"Feature"},
	{"geometry":{"coordinates":[16.211279,47.922019],"type":"Point"},"properties":{"barrier":"gate","osm_id":"1411971716"},"type":"Feature"},
	{"geometry":{"coordinates":[16.217289,47.927123],"type":"Point"},"properties":{"osm_id":"1423861751","tag":{"amenity":"recycling","recycling:cans":"yes","recycling:glass_bottles":"yes","recycling_type":"container"}},"type":"Feature"},
	{"geometry":{"coordinates":[16.188324,47.918119],"type":"Point"},"properties":{"osm_id":"1473132859","tag":{"amenity":"waste_basket"}},"type":"Feature"},
	{"geometry":{"coordinates":[16.186006,47.920232],"type":"Point"},"properties":{"osm_id":"1473132864","tag":{"amenity":"waste_basket"}},"type":"Feature"},
	{"geometry":{"coordinates":[16.185414,47.920638],"type":"Point"},"properties":{"osm_id":"1473132870","tag":{"amenity":"waste_basket"}},"type":"Feature"},
	{"geometry":{"coordinates":[16.248072,47.895732],"type":"Point"},"properties":{"barrier":"gate","osm_id":"1524907927"},"type":"Feature"},
	{"geometry":{"coordinates":[16.247214,47.895774],"type":"Point"},"properties":{"barrier":"gate","osm_id":"1524907948"},"type":"Feature"},
	{"geometry":{"coordinates":[16.215807,47.926019],"type":"Point"},"properties":{"osm_id":"1565840492","tag":{"amenity":"waste_basket"}},"type":"Feature"},
	{"geometry":{"coordinates":[16.220731,47.910078],"type":"Point"},"properties":{"osm_id":"1572573439","tag":{"amenity":"waste_basket"}},"type":"Feature"},
	{"geometry":{"coordinates":[16.231379,47.905088],"type":"Point"},"properties":{"osm_id":"1572573452","tag":{"amenity":"waste_basket"}},"type":"Feature"},
	{"geometry":{"coordinates":[16.221877,47.926567],"type":"Point"},"properties":{"osm_id":"1575754449","tag":{"amenity":"waste_basket"}},"type":"Feature"},
	{"geometry":{"coordinates":[16.225277,47.927025],"type":"Point"},"properties":{"osm_id":"1575754488","tag":{"amenity":"waste_basket"}},"type":"Feature"},
	{"geometry":{"coordinates":[16.224644,47.927714],"type":"Point"},"properties":{"osm_id":"1575754547","tag":{"amenity":"waste_basket"}},"type":"Feature"},
	{"geometry":{"coordinates":[16.218511,47.928169],"type":"Point"},"properties":{"osm_id":"1575754554","tag":{"amenity":"waste_basket"}},"type":"Feature"},
	{"geometry":{"coordinates":[16.224337,47.928195],"type":"Point"},"properties":{"osm_id":"1575754563","tag":{"amenity":"waste_basket"}},"type":"Feature"},
	{"geometry":{"coordinates":[16.217772,47.928396],"type":"Point"},"properties":{"osm_id":"1575754576","tag":{"amenity":"waste_basket"}},"type":"Feature"},
	{"geometry":{"coordinates":[16.217425,47.928762],"type":"Point"},"properties":{"osm_id":"1575754580","tag":{"amenity":"waste_basket"}},"type":"Feature"},
	{"geometry":{"coordinates":[16.174534,47.911693],"type":"Point"},"properties":{"osm_id":"1583713955","tag":{"amenity":"waste_basket"}},"type":"Feature"},
	{"geometry":{"coordinates":[16.187269,47.920956],"type":"Point"},"properties":{"osm_id":"1583713982","tag":{"amenity":"waste_basket"}},"type":"Feature"},
	{"geometry":{"coordinates":[16.25184,47.925712],"type":"Point"},"properties":{"barrier":"gate","osm_id":"1587568375"},"type":"Feature"},
	{"geometry":{"coordinates":[16.224559,47.926325],"type":"Point"},"properties":{"osm_id":"1608641577","tag":{"amenity":"waste_basket"}},"type":"Feature"},
	{"geometry":{"coordinates":[16.174428,47.911681],"type":"Point"},"properties":{"osm_id":"1814779906","tag":{"amenity":"recycling","recycling_type":"container"}},"type":"Feature"},
	{"geometry":{"coordinates":[16.19557,47.923004],"type":"Point"},"properties":{"osm_id":"1837686732","tag":{"amenity":"waste_basket"}},"type":"Feature"},
	{"geometry":{"coordinates":[16.19456,47.9237],"type":"Point"},"properties":{"osm_id":"1838403236","tag":{"amenity":"waste_basket"}},"type":"Feature"},
	{"geometry":{"coordinates":[16.194954,47.922801],"type":"Point"},"properties":{"osm_id":"1838543597","tag":{"amenity":"waste_basket"}},"type":"Feature"},
	{"geometry":{"coordinates":[16.176569,47.92034],"type":"Point"},"properties":{"osm_id":"1941926619","tag":{"amenity":"waste_basket"}},"type":"Feature"},
	{"geometry":{"coordinates":[16.257649,47.885415],"type":"Point"},"properties":{"osm_id":"2396274684","tag":{"amenity":"recycling","recycling_type":"container"}},"type":"Feature"},
	{"geometry":{"coordinates":[16.257361,47.885523],"type":"Point"},"properties":{"barrier":"gate","osm_id":"2397017572"},"type":"Feature"},
	{"geometry":{"coordinates":[16.216429,47.928842],"type":"Point"},"properties":{"osm_id":"2449352780","tag":{"amenity":"waste_basket"}},"type":"Feature"},
	{"geometry":{"coordinates":[16.216446,47.928964],"type":"Point"},"properties":{"osm_id":"2449352781","tag":{"amenity":"waste_basket"}},"type":"Feature"},
	{"geometry":{"coordinates":[16.21671,47.929716],"type":"Point"},"properties":{"osm_id":"2449352783","tag":{"amenity":"waste_basket"}},"type":"Feature"},
	{"geometry":{"coordinates":[16.216833,47.929932],"type":"Point"},"properties":{"osm_id":"2449352785","tag":{"amenity":"waste_basket"}},"type":"Feature"},
	{"geometry":{"coordinates":[16.21649,47.929957],"type":"Point"},"properties":{"osm_id":"2449352786","tag":{"amenity":"waste_basket"}},"type":"Feature"},
	{"geometry":{"coordinates":[16.216722,47.930199],"type":"Point"},"properties":{"osm_id":"2449352787","tag":{"amenity":"waste_basket"}},"type":"Feature"},
	{"geometry":{"coordinates":[16.217042,47.930443],"type":"Point"},"properties":{"osm_id":"2449352789","tag":{"amenity":"waste_basket"}},"type":"Feature"},
	{"geometry":{"coordinates":[16.217847,47.92524],"type":"Point"},"properties":{"osm_id":"2449768266","tag":{"amenity":"recycling","recycling:cans":"yes","recycling:glass_bottles":"yes","recycling_type":"container"}},"type":"Feature"},
	{"geometry":{"coordinates":[16.215843,47.925703],"type":"Point"},"properties":{"osm_id":"2449768274","tag":{"amenity":"waste_basket"}},"type":"Feature"},
	{"geometry":{"coordinates":[16.219129,47.92658],"type":"Point"},"properties":{"osm_id":"2449768309","tag":{"amenity":"waste_basket"}},"type":"Feature"},
	{"geometry":{"coordinates":[16.218185,47.930337],"type":"Point"},"properties":{"osm_id":"2449768343","tag":{"amenity":"waste_basket"}},"type":"Feature"},
	{"geometry":{"coordinates":[16.217804,47.930405],"type":"Point"},"properties":{"osm_id":"2449768348","tag":{"amenity":"waste_basket"}},"type":"Feature"},
	{"geometry":{"coordinates":[16.21806,47.930604],"type":"Point"},"properties":{"osm_id":"2449768355","tag":{"amenity":"waste_basket"}},"type":"Feature"},
	{"geometry":{"coordinates":[16.214959,47.930929],"type":"Point"},"properties":{"osm_id":"2449768362","tag":{"amenity":"waste_basket"}},"type":"Feature"},
	{"geometry":{"coordinates":[16.214683,47.929243],"type":"Point"},"properties":{"osm_id":"3180348768","tag":{"amenity":"waste_basket"}},"type":"Feature"},
	{"geometry":{"coordinates":[16.220439,47.910294],"type":"Point"},"properties":{"osm_id":"3660650300","tag":{"amenity":"waste_basket"}},"type":"Feature"},
	{"geometry":{"coordinates":[16.186756,47.929329],"type":"Point"},"properties":{"osm_id":"3705321021","tag":{"amenity":"waste_basket"}},"type":"Feature"},
	{"geometry":{"coordinates":[16.184025,47.920989],"type":"Point"},"properties":{"osm_id":"3994346860","tag":{"amenity":"waste_basket"}},"type":"Feature"},
	{"geometry":{"coordinates":[16.197883,47.894257],"type":"Point"},"properties":{"osm_id":"4949453827","tag":{"amenity":"waste_basket"}},"type":"Feature"},
	{"geometry":{"coordinates":[16.239902,47.883256],"type":"Point"},"properties":{"osm_id":"5077087870","tag":{"amenity":"waste_basket"}},"type":"Feature"},
	{"geometry":{"coordinates":[16.239076,47.883783],"type":"Point"},"properties":{"osm_id":"5077087871","tag":{"amenity":"waste_basket"}},"type":"Feature"},
	{"geometry":{"coordinates":[16.199894,47.886644],"type":"Point"},"properties":{"osm_id":"5077087892","tag":{"amenity":"waste_basket"}},"type":"Feature"},
	{"geometry":{"coordinates":[16.215811,47.927274],"type":"Point"},"properties":{"osm_id":"5134770307","tag":{"amenity":"waste_basket"}},"type":"Feature"},
	{"geometry":{"coordinates":[16.215419,47.927209],"type":"Point"},"properties":{"osm_id":"5134770308","tag":{"amenity":"waste_basket"}},"type":"Feature"},
	{"geometry":{"coordinates":[16.240652,47.882659],"type":"Point"},"properties":{"osm_id":"5159544317","tag":{"amenity":"waste_basket"}},"type":"Feature"},
	{"geometry":{"coordinates":[16.218733,47.889744],"type":"Point"},"properties":{"osm_id":"5247766715","tag":{"amenity":"recycling","recycling:clothes":"yes","recycling_type":"container"}},"type":"Feature"},
	{"geometry":{"coordinates":[16.202037,47.89685],"type":"Point"},"properties":{"osm_id":"5350039763","tag":{"amenity":"recycling","recycling:cans":"yes","recycling:glass_bottles":"yes","recycling_type":"container"}},"type":"Feature"},
	{"geometry":{"coordinates":[16.241613,47.881889],"type":"Point"},"properties":{"osm_id":"5397011495","tag":{"amenity":"waste_basket"}},"type":"Feature"},
	{"geometry":{"coordinates":[16.183606,47.903398],"type":"Point"},"properties":{"osm_id":"5816005576","tag":{"amenity":"waste_basket"}},"type":"Feature"},
	{"geometry":{"coordinates":[16.211295,47.929975],"type":"Point"},"properties":{"osm_id":"5869549126","tag":{"amenity":"waste_basket"}},"type":"Feature"},
	{"geometry":{"coordinates":[16.20983,47.928658],"type":"Point"},"properties":{"osm_id":"5869549159","tag":{"amenity":"waste_basket"}},"type":"Feature"},
	{"geometry":{"coordinates":[16.211402,47.929005],"type":"Point"},"properties":{"osm_id":"5869551604","tag":{"amenity":"waste_basket"}},"type":"Feature"},
	{"geometry":{"coordinates":[16.18642,47.922076],"type":"Point"},"properties":{"osm_id":"5976292570","tag":{"amenity":"waste_basket"}},"type":"Feature"},
	{"geometry":{"coordinates":[16.252968,47.927424],"type":"Point"},"properties":{"osm_id":"6336192432","tag":{"amenity":"waste_basket"}},"type":"Feature"},
	{"geometry":{"coordinates":[16.218724,47.882667],"type":"Point"},"properties":{"barrier":"gate","osm_id":"6431009339"},"type":"Feature"},
	{"geometry":{"coordinates":[16.205797,47.898359],"type":"Point"},"properties":{"osm_id":"6485519210","tag":{"amenity":"waste_basket"}},"type":"Feature"},
	{"geometry":{"coordinates":[16.203658,47.902101],"type":"Point"},"properties":{"osm_id":"6531695180","tag":{"amenity":"waste_basket"}},"type":"Feature"},
	{"geometry":{"coordinates":[16.216069,47.92677],"type":"Point"},"properties":{"osm_id":"6610361213","tag":{"amenity":"waste_basket"}},"type":"Feature"},
	{"geometry":{"coordinates":[16.21125,47.922177],"type":"Point"},"properties":{"barrier":"gate","osm_id":"6630985673"},"type":"Feature"},
	{"geometry":{"coordinates":[16.199049,47.877667],"type":"Point"},"properties":{"osm_id":"6653195575","tag":{"amenity":"waste_basket"}},"type":"Feature"},
	{"geometry":{"coordinates":[16.202618,47.895051],"type":"Point"},"properties":{"osm_id":"6736958485","tag":{"amenity":"recycling","recycling:glass_bottles":"yes","recycling_type":"container"}},"type":"Feature"},
	{"geometry":{"coordinates":[16.247592,47.88936],"type":"Point"},"properties":{"highway":"street_lamp","osm_id":"6753139623","tag":{"amenity":"waste_basket","lamp_type":"electric"}},"type":"Feature"},
	{"geometry":{"coordinates":[16.247373,47.888897],"type":"Point"},"properties":{"osm_id":"6753139625","tag":{"amenity":"waste_basket"}},"type":"Feature"},
	{"geometry":{"coordinates":[16.219319,47.921374],"type":"Point"},"properties":{"osm_id":"6864233069","tag":{"amenity":"waste_basket"}},"type":"Feature"},
	{"geometry":{"coordinates":[16.216388,47.922942],"type":"Point"},"properties":{"osm_id":"6864233078","tag":{"amenity":"waste_basket"}},"type":"Feature"},
	{"geometry":{"coordinates":[16.187724,47.930262],"type":"Point"},"properties":{"osm_id":"7448591061","tag":{"addr:city":"Hirtenberg","addr:country":"AT","addr:housenumber":"30","addr:postcode":"2552","addr:street":"Enzesfelder Stra\u00c3\u009fe","amenity":"recycling","operator":"GVA Baden","recycling_type":"container","ref:gva:asi":"13.007"}},"type":"Feature"},
	{"geometry":{"coordinates":[16.187259,47.929705],"type":"Point"},"properties":{"osm_id":"7448591062","tag":{"addr:city":"Hirtenberg","addr:country":"AT","addr:housenumber":"38","addr:postcode":"2552","addr:street":"Enzesfelder Stra\u00c3\u009fe","amenity":"recycling","operator":"GVA Baden","recycling_type":"container","ref:gva:asi":"13.010"}},"type":"Feature"},
	{"geometry":{"coordinates":[16.186022,47.929361],"type":"Point"},"properties":{"osm_id":"7448591063","tag":{"addr:city":"Hirtenberg","addr:country":"AT","addr:housenumber":"8","addr:postcode":"2552","addr:street":"Dr.-Karl-Grimm-Gasse","amenity":"recycling","operator":"GVA Baden","recycling_type":"container","ref:gva:asi":"13.005"}},"type":"Feature"},
	{"geometry":{"coordinates":[16.175979,47.930101],"type":"Point"},"properties":{"osm_id":"7448591065","tag":{"addr:city":"Hirtenberg","addr:country":"AT","addr:housenumber":"4","addr:postcode":"2552","addr:street":"Bahngasse","amenity":"recycling","operator":"GVA Baden","recycling_type":"container","ref:gva:asi":"13.004"}},"type":"Feature"},
	{"geometry":{"coordinates":[16.237122,47.895392],"type":"Point"},"properties":{"osm_id":"7500538826","tag":{"amenity":"recycling","recycling:cans":"yes","recycling:glass_bottles":"yes","recycling_type":"container"}},"type":"Feature"},
	{"geometry":{"coordinates":[16.227231,47.8921],"type":"Point"},"properties":{"osm_id":"7923274103","tag":{"amenity":"recycling","recycling:cans":"yes","recycling:clothes":"yes","recycling:glass_bottles":"yes","recycling_type":"container"}},"type":"Feature"}
]
}
