{
"type": "FeatureCollection",
"features": [
	{"geometry":{"coordinates":[16.255967,47.828275],"type":"Point"},"properties":{"osm_id":"899388298","tag":{"amenity":"recycling","recycling:glass":"yes","recycling:glass_bottles":"yes"}},"type":"Feature"},
	{"geometry":{"coordinates":[16.235643,47.813775],"type":"Point"},"properties":{"osm_id":"906952313","tag":{"amenity":"recycling","location":"overground","recycling:glass":"yes","recycling_type":"container"}},"type":"Feature"},
	{"geometry":{"coordinates":[16.178622,47.858083],"type":"Point"},"properties":{"osm_id":"917244492","tag":{"amenity":"waste_basket"}},"type":"Feature"},
	{"geometry":{"coordinates":[16.175828,47.862693],"type":"Point"},"properties":{"osm_id":"942800871","tag":{"amenity":"waste_basket"}},"type":"Feature"},
	{"geometry":{"coordinates":[16.176683,47.862344],"type":"Point"},"properties":{"osm_id":"942800873","tag":{"amenity":"waste_basket"}},"type":"Feature"},
	{"geometry":{"coordinates":[16.243022,47.817868],"type":"Point"},"properties":{"osm_id":"1140858117","tag":{"amenity":"recycling","recycling:glass":"yes","recycling:glass_bottles":"yes"}},"type":"Feature"},
	{"geometry":{"coordinates":[16.252819,47.820741],"type":"Point"},"properties":{"osm_id":"1140858375","tag":{"amenity":"recycling","location":"overground","recycling:glass":"yes","recycling:glass_bottles":"yes","recycling_type":"container"}},"type":"Feature"},
	{"geometry":{"coordinates":[16.189957,47.847454],"type":"Point"},"properties":{"osm_id":"1224522590","tag":{"amenity":"recycling","recycling_type":"container"}},"type":"Feature"},
	{"geometry":{"coordinates":[16.174338,47.867614],"type":"Point"},"properties":{"osm_id":"1238645398","tag":{"amenity":"waste_basket","layer":"-1"}},"type":"Feature"},
	{"geometry":{"coordinates":[16.248124,47.839462],"type":"Point"},"properties":{"osm_id":"1722371280","tag":{"amenity":"waste_basket"}},"type":"Feature"},
	{"geometry":{"coordinates":[16.247961,47.839467],"type":"Point"},"properties":{"osm_id":"1722371281","tag":{"amenity":"waste_basket"}},"type":"Feature"},
	{"geometry":{"coordinates":[16.248159,47.839539],"type":"Point"},"properties":{"osm_id":"1722371282","tag":{"amenity":"waste_basket"}},"type":"Feature"},
	{"geometry":{"coordinates":[16.247946,47.839547],"type":"Point"},"properties":{"osm_id":"1722371283","tag":{"amenity":"waste_basket"}},"type":"Feature"},
	{"geometry":{"coordinates":[16.245194,47.846447],"type":"Point"},"properties":{"osm_id":"1745627525","tag":{"amenity":"waste_basket"}},"type":"Feature"},
	{"geometry":{"coordinates":[16.247442,47.859586],"type":"Point"},"properties":{"osm_id":"1766607754","tag":{"amenity":"waste_basket"}},"type":"Feature"},
	{"geometry":{"coordinates":[16.247514,47.839279],"type":"Point"},"properties":{"osm_id":"1777209828","tag":{"amenity":"recycling","recycling_type":"container"}},"type":"Feature"},
	{"geometry":{"coordinates":[16.247351,47.85795],"type":"Point"},"properties":{"osm_id":"1794420602","tag":{"amenity":"waste_basket"}},"type":"Feature"},
	{"geometry":{"coordinates":[16.2475,47.859272],"type":"Point"},"properties":{"osm_id":"1794420629","tag":{"amenity":"waste_basket"}},"type":"Feature"},
	{"geometry":{"coordinates":[16.247528,47.859734],"type":"Point"},"properties":{"osm_id":"1794420644","tag":{"amenity":"waste_basket"}},"type":"Feature"},
	{"geometry":{"coordinates":[16.241693,47.82306],"type":"Point"},"properties":{"osm_id":"2332498252","tag":{"amenity":"recycling","location":"overground","recycling:glass":"yes","recycling:glass_bottles":"yes","recycling_type":"container"}},"type":"Feature"},
	{"geometry":{"coordinates":[16.17309,47.827167],"type":"Point"},"properties":{"osm_id":"2401016693","tag":{"amenity":"waste_basket","bench":"yes","bus":"yes","public_transport":"platform","shelter":"yes"}},"type":"Feature"},
	{"geometry":{"coordinates":[16.172869,47.827267],"type":"Point"},"properties":{"osm_id":"2401016694","tag":{"amenity":"waste_basket"}},"type":"Feature"},
	{"geometry":{"coordinates":[16.215939,47.816548],"type":"Point"},"properties":{"osm_id":"2556197934","tag":{"amenity":"waste_disposal"}},"type":"Feature"},
	{"geometry":{"coordinates":[16.245815,47.838818],"type":"Point"},"properties":{"osm_id":"2727058846","tag":{"amenity":"recycling","recycling:glass":"no","recycling:glass_bottles":"yes","recycling_type":"container"}},"type":"Feature"},
	{"geometry":{"coordinates":[16.246012,47.840683],"type":"Point"},"properties":{"osm_id":"2727058847","tag":{"amenity":"recycling","recycling:clothes":"yes","recycling_type":"container"}},"type":"Feature"},
	{"geometry":{"coordinates":[16.23517,47.841313],"type":"Point"},"properties":{"osm_id":"2727058848","tag":{"amenity":"recycling","recycling:clothes":"yes","recycling_type":"container"}},"type":"Feature"},
	{"geometry":{"coordinates":[16.236642,47.819132],"type":"Point"},"properties":{"osm_id":"2818850629","tag":{"amenity":"waste_basket"}},"type":"Feature"},
	{"geometry":{"coordinates":[16.257031,47.821928],"type":"Point"},"properties":{"osm_id":"4107435691","tag":{"amenity":"recycling"}},"type":"Feature"},
	{"geometry":{"coordinates":[16.251282,47.825795],"type":"Point"},"properties":{"osm_id":"4747375703","tag":{"amenity":"waste_basket"}},"type":"Feature"},
	{"geometry":{"coordinates":[16.17881,47.864258],"type":"Point"},"properties":{"osm_id":"4935305105","tag":{"amenity":"recycling","recycling_type":"container"}},"type":"Feature"},
	{"geometry":{"coordinates":[16.235369,47.84133],"type":"Point"},"properties":{"osm_id":"5247767708","tag":{"amenity":"waste_basket"}},"type":"Feature"},
	{"geometry":{"coordinates":[16.210629,47.852628],"type":"Point"},"properties":{"barrier":"gate","osm_id":"6987679646","tag":{"access":"private"}},"type":"Feature"},
	{"geometry":{"coordinates":[16.173973,47.823763],"type":"Point"},"properties":{"name":"Altstoffsammelplatz","osm_id":"7019389209","tag":{"amenity":"recycling","operator":"Gemeinde Bad Fischau-Brunn","recycling_type":"centre"}},"type":"Feature"}
]
}
