{
"type": "FeatureCollection",
"features": [
	{"geometry":{"coordinates":[175.400116,-39.409837],"type":"Point"},"properties":{"name":"Waimarino Transfer Station","osm_id":"5631471798","tag":{"addr:housenumber":"34","addr:street":"Old Station Road","addr:suburb":"Ohakune","amenity":"recycling","recycling:cans":"yes","recycling:cardboard":"yes","recycling:glass_bottles":"yes","recycling:newspaper":"yes","recycling:paper_packaging":"yes","recycling:plastic_bottles":"yes","recycling_type":"centre","ref:linz:address_id":"1467640"}},"type":"Feature"},
	{"geometry":{"coordinates":[175.414186,-39.402972],"type":"Point"},"properties":{"osm_id":"6959360089","tag":{"amenity":"waste_basket"}},"type":"Feature"},
	{"geometry":{"coordinates":[175.397172,-39.413949],"type":"Point"},"properties":{"osm_id":"6959360195","tag":{"amenity":"waste_basket"}},"type":"Feature"},
	{"geometry":{"coordinates":[175.414208,-39.40222],"type":"Point"},"properties":{"osm_id":"6959360196","tag":{"amenity":"waste_basket"}},"type":"Feature"},
	{"geometry":{"coordinates":[175.406602,-39.40963],"type":"Point"},"properties":{"osm_id":"6959360199","tag":{"amenity":"waste_basket"}},"type":"Feature"},
	{"geometry":{"coordinates":[175.399206,-39.418407],"type":"Point"},"properties":{"osm_id":"6959360201","tag":{"amenity":"waste_basket"}},"type":"Feature"},
	{"geometry":{"coordinates":[175.414797,-39.402416],"type":"Point"},"properties":{"osm_id":"6964757288","tag":{"amenity":"waste_basket"}},"type":"Feature"},
	{"geometry":{"coordinates":[175.411593,-39.401333],"type":"Point"},"properties":{"osm_id":"6964757289","tag":{"amenity":"waste_basket"}},"type":"Feature"},
	{"geometry":{"coordinates":[175.415062,-39.40226],"type":"Point"},"properties":{"osm_id":"6967728186","tag":{"amenity":"waste_basket"}},"type":"Feature"},
	{"geometry":{"coordinates":[175.398602,-39.417981],"type":"Point"},"properties":{"osm_id":"7906127641","tag":{"amenity":"waste_basket"}},"type":"Feature"}
]
}
