{
"type": "FeatureCollection",
"features": [
	{"geometry":{"coordinates":[-70.595167,-33.427324],"type":"Point"},"properties":{"osm_id":"580973613","tag":{"amenity":"recycling","location":"overground","recycling:cans":"no","recycling:glass_bottles":"yes","recycling:paper":"yes","recycling_type":"container"}},"type":"Feature"},
	{"geometry":{"coordinates":[-70.57875,-33.429579],"type":"Point"},"properties":{"name":"Reciclaje Jumbo","osm_id":"1083755069","tag":{"amenity":"recycling","location":"overground","recycling_type":"container"}},"type":"Feature"},
	{"geometry":{"coordinates":[-70.586179,-33.430707],"type":"Point"},"properties":{"osm_id":"1909891263","tag":{"amenity":"recycling","recycling_type":"container"}},"type":"Feature"},
	{"geometry":{"coordinates":[-70.627584,-33.430165],"type":"Point"},"properties":{"osm_id":"1909928985","tag":{"amenity":"recycling","recycling_type":"container"}},"type":"Feature"},
	{"geometry":{"coordinates":[-70.614639,-33.420764],"type":"Point"},"properties":{"osm_id":"1909931037","tag":{"amenity":"recycling","recycling_type":"container"}},"type":"Feature"},
	{"geometry":{"coordinates":[-70.580287,-33.404661],"type":"Point"},"properties":{"name":"Punto Verde Las Condes","osm_id":"2438054698","tag":{"amenity":"recycling","recycling_type":"centre","website":"https://www.lascondes.cl/servicios/aseo_mapas_verde.html"}},"type":"Feature"},
	{"geometry":{"coordinates":[-70.594281,-33.427439],"type":"Point"},"properties":{"name":"Vidrio","osm_id":"2681439634","tag":{"amenity":"recycling","location":"overground","recycling_type":"container"}},"type":"Feature"},
	{"geometry":{"coordinates":[-70.6169,-33.427882],"type":"Point"},"properties":{"osm_id":"3061712280","tag":{"amenity":"recycling","location":"overground","recycling_type":"container"}},"type":"Feature"},
	{"geometry":{"coordinates":[-70.600808,-33.386882],"type":"Point"},"properties":{"osm_id":"3200714460","tag":{"amenity":"recycling","recycling:cardboard":"yes","recycling:cartons":"yes","recycling:glass_bottles":"yes","recycling:paper":"yes","recycling:plastic_bottles":"yes"}},"type":"Feature"},
	{"geometry":{"coordinates":[-70.597299,-33.416835],"type":"Point"},"properties":{"osm_id":"4170617010","tag":{"amenity":"waste_basket"}},"type":"Feature"},
	{"geometry":{"coordinates":[-70.59912,-33.417302],"type":"Point"},"properties":{"osm_id":"4170617011","tag":{"amenity":"waste_basket"}},"type":"Feature"},
	{"geometry":{"coordinates":[-70.599928,-33.417413],"type":"Point"},"properties":{"osm_id":"4170617013","tag":{"amenity":"waste_basket"}},"type":"Feature"},
	{"geometry":{"coordinates":[-70.598923,-33.417246],"type":"Point"},"properties":{"osm_id":"4170617645","tag":{"amenity":"waste_basket"}},"type":"Feature"},
	{"geometry":{"coordinates":[-70.599313,-33.417355],"type":"Point"},"properties":{"osm_id":"4170617646","tag":{"amenity":"waste_basket"}},"type":"Feature"},
	{"geometry":{"coordinates":[-70.600806,-33.405341],"type":"Point"},"properties":{"osm_id":"4602992998","tag":{"amenity":"waste_disposal"}},"type":"Feature"},
	{"geometry":{"coordinates":[-70.593218,-33.405847],"type":"Point"},"properties":{"osm_id":"5332003527","tag":{"amenity":"waste_basket"}},"type":"Feature"},
	{"geometry":{"coordinates":[-70.576927,-33.405331],"type":"Point"},"properties":{"osm_id":"5332029925","tag":{"amenity":"waste_basket"}},"type":"Feature"},
	{"geometry":{"coordinates":[-70.576601,-33.405182],"type":"Point"},"properties":{"osm_id":"5332030025","tag":{"amenity":"waste_basket"}},"type":"Feature"},
	{"geometry":{"coordinates":[-70.585034,-33.405073],"type":"Point"},"properties":{"osm_id":"5332059424","tag":{"amenity":"waste_basket"}},"type":"Feature"},
	{"geometry":{"coordinates":[-70.597578,-33.407413],"type":"Point"},"properties":{"osm_id":"5332073023","tag":{"amenity":"waste_basket"}},"type":"Feature"},
	{"geometry":{"coordinates":[-70.595973,-33.406896],"type":"Point"},"properties":{"osm_id":"5332073123","tag":{"amenity":"waste_basket"}},"type":"Feature"},
	{"geometry":{"coordinates":[-70.594166,-33.406185],"type":"Point"},"properties":{"osm_id":"5332075821","tag":{"amenity":"waste_basket"}},"type":"Feature"},
	{"geometry":{"coordinates":[-70.591904,-33.415735],"type":"Point"},"properties":{"osm_id":"5332107421","tag":{"amenity":"waste_basket"}},"type":"Feature"},
	{"geometry":{"coordinates":[-70.590744,-33.418842],"type":"Point"},"properties":{"osm_id":"5332119021","tag":{"amenity":"waste_basket"}},"type":"Feature"},
	{"geometry":{"coordinates":[-70.591058,-33.418932],"type":"Point"},"properties":{"osm_id":"5332121722","tag":{"amenity":"waste_basket"}},"type":"Feature"},
	{"geometry":{"coordinates":[-70.59117,-33.418564],"type":"Point"},"properties":{"osm_id":"5332132722","tag":{"amenity":"waste_basket"}},"type":"Feature"},
	{"geometry":{"coordinates":[-70.590827,-33.418504],"type":"Point"},"properties":{"osm_id":"5332158022","tag":{"amenity":"waste_basket"}},"type":"Feature"},
	{"geometry":{"coordinates":[-70.581046,-33.404927],"type":"Point"},"properties":{"osm_id":"5333133942","tag":{"amenity":"waste_basket"}},"type":"Feature"},
	{"geometry":{"coordinates":[-70.579854,-33.404913],"type":"Point"},"properties":{"osm_id":"5333485022","tag":{"amenity":"waste_basket"}},"type":"Feature"},
	{"geometry":{"coordinates":[-70.580381,-33.405109],"type":"Point"},"properties":{"osm_id":"5333485122","tag":{"amenity":"waste_basket"}},"type":"Feature"},
	{"geometry":{"coordinates":[-70.577083,-33.404483],"type":"Point"},"properties":{"osm_id":"5334023023","tag":{"amenity":"waste_basket"}},"type":"Feature"},
	{"geometry":{"coordinates":[-70.578929,-33.404297],"type":"Point"},"properties":{"osm_id":"5334024321","tag":{"amenity":"waste_basket"}},"type":"Feature"},
	{"geometry":{"coordinates":[-70.598016,-33.406886],"type":"Point"},"properties":{"osm_id":"5343044522","tag":{"amenity":"waste_basket"}},"type":"Feature"},
	{"geometry":{"coordinates":[-70.598051,-33.406845],"type":"Point"},"properties":{"osm_id":"5343064021","tag":{"amenity":"waste_basket"}},"type":"Feature"},
	{"geometry":{"coordinates":[-70.60171,-33.429684],"type":"Point"},"properties":{"osm_id":"6060996987","tag":{"amenity":"waste_basket"}},"type":"Feature"},
	{"geometry":{"coordinates":[-70.602901,-33.428994],"type":"Point"},"properties":{"osm_id":"6064440348","tag":{"amenity":"waste_basket"}},"type":"Feature"},
	{"geometry":{"coordinates":[-70.602533,-33.429848],"type":"Point"},"properties":{"osm_id":"6065032287","tag":{"amenity":"waste_basket"}},"type":"Feature"},
	{"geometry":{"coordinates":[-70.601842,-33.429869],"type":"Point"},"properties":{"osm_id":"6095356786","tag":{"amenity":"waste_basket"}},"type":"Feature"},
	{"geometry":{"coordinates":[-70.60344,-33.423683],"type":"Point"},"properties":{"osm_id":"6106781916","tag":{"amenity":"waste_basket"}},"type":"Feature"},
	{"geometry":{"coordinates":[-70.603481,-33.42354],"type":"Point"},"properties":{"osm_id":"6107672187","tag":{"amenity":"waste_basket"}},"type":"Feature"},
	{"geometry":{"coordinates":[-70.603531,-33.423344],"type":"Point"},"properties":{"osm_id":"6107672198","tag":{"amenity":"waste_basket"}},"type":"Feature"},
	{"geometry":{"coordinates":[-70.603342,-33.423283],"type":"Point"},"properties":{"osm_id":"6107672200","tag":{"amenity":"waste_basket"}},"type":"Feature"},
	{"geometry":{"coordinates":[-70.603055,-33.423631],"type":"Point"},"properties":{"osm_id":"6107710457","tag":{"amenity":"waste_basket"}},"type":"Feature"},
	{"geometry":{"coordinates":[-70.603394,-33.427252],"type":"Point"},"properties":{"osm_id":"6259822741","tag":{"amenity":"waste_basket"}},"type":"Feature"},
	{"geometry":{"coordinates":[-70.602541,-33.426977],"type":"Point"},"properties":{"osm_id":"6294107384","tag":{"amenity":"waste_basket"}},"type":"Feature"},
	{"geometry":{"coordinates":[-70.615632,-33.389854],"type":"Point"},"properties":{"name":"Punto limpio","osm_id":"6319305785","tag":{"amenity":"recycling","name:fr":"Lieu de recyclage"}},"type":"Feature"},
	{"geometry":{"coordinates":[-70.601476,-33.386414],"type":"Point"},"properties":{"osm_id":"6329327785","tag":{"amenity":"recycling","recycling_type":"container"}},"type":"Feature"},
	{"geometry":{"coordinates":[-70.642711,-33.402684],"type":"Point"},"properties":{"osm_id":"6377389620","tag":{"amenity":"waste_basket"}},"type":"Feature"},
	{"geometry":{"coordinates":[-70.642805,-33.400905],"type":"Point"},"properties":{"osm_id":"6379531170","tag":{"amenity":"waste_basket"}},"type":"Feature"},
	{"geometry":{"coordinates":[-70.633166,-33.425979],"type":"Point"},"properties":{"osm_id":"6810301401","tag":{"amenity":"waste_basket"}},"type":"Feature"},
	{"geometry":{"coordinates":[-70.633115,-33.42578],"type":"Point"},"properties":{"osm_id":"6810301403","tag":{"amenity":"waste_basket"}},"type":"Feature"},
	{"geometry":{"coordinates":[-70.633044,-33.425717],"type":"Point"},"properties":{"osm_id":"6810301409","tag":{"amenity":"waste_basket"}},"type":"Feature"},
	{"geometry":{"coordinates":[-70.600303,-33.379374],"type":"Point"},"properties":{"osm_id":"6816154763","tag":{"amenity":"waste_basket"}},"type":"Feature"},
	{"geometry":{"coordinates":[-70.609861,-33.376057],"type":"Point"},"properties":{"osm_id":"6938501882","tag":{"amenity":"recycling","recycling_type":"container"}},"type":"Feature"},
	{"geometry":{"coordinates":[-70.608766,-33.376258],"type":"Point"},"properties":{"name":"Centro de Reciclaje","osm_id":"6938501888","tag":{"amenity":"recycling","recycling_type":"centre"}},"type":"Feature"},
	{"geometry":{"coordinates":[-70.608036,-33.373951],"type":"Point"},"properties":{"osm_id":"6938502014","tag":{"amenity":"recycling","operator":"Estaci\u00c3\u00b3n Compostaje","recycling:green_waste":"yes","recycling_type":"container"}},"type":"Feature"},
	{"geometry":{"coordinates":[-70.616985,-33.415279],"type":"Point"},"properties":{"name":"TriCiclos Punto Limpio","osm_id":"6938709782","tag":{"amenity":"recycling","recycling_type":"centre"}},"type":"Feature"},
	{"geometry":{"coordinates":[-70.595587,-33.429223],"type":"Point"},"properties":{"osm_id":"6945238718","tag":{"amenity":"waste_basket"}},"type":"Feature"},
	{"geometry":{"coordinates":[-70.596205,-33.428488],"type":"Point"},"properties":{"osm_id":"6945238719","tag":{"amenity":"waste_basket"}},"type":"Feature"},
	{"geometry":{"coordinates":[-70.596481,-33.427516],"type":"Point"},"properties":{"osm_id":"6945238722","tag":{"amenity":"waste_basket"}},"type":"Feature"},
	{"geometry":{"coordinates":[-70.596875,-33.426426],"type":"Point"},"properties":{"osm_id":"6945238723","tag":{"amenity":"waste_basket"}},"type":"Feature"},
	{"geometry":{"coordinates":[-70.59722,-33.425777],"type":"Point"},"properties":{"osm_id":"6945238725","tag":{"amenity":"waste_basket"}},"type":"Feature"},
	{"geometry":{"coordinates":[-70.59697,-33.425568],"type":"Point"},"properties":{"osm_id":"6945238726","tag":{"amenity":"waste_basket"}},"type":"Feature"},
	{"geometry":{"coordinates":[-70.597621,-33.42386],"type":"Point"},"properties":{"osm_id":"6945238727","tag":{"amenity":"waste_basket"}},"type":"Feature"},
	{"geometry":{"coordinates":[-70.598853,-33.420559],"type":"Point"},"properties":{"osm_id":"6945238728","tag":{"amenity":"waste_basket"}},"type":"Feature"},
	{"geometry":{"coordinates":[-70.595975,-33.416554],"type":"Point"},"properties":{"osm_id":"7193771556","tag":{"amenity":"waste_basket"}},"type":"Feature"},
	{"geometry":{"coordinates":[-70.596428,-33.415925],"type":"Point"},"properties":{"osm_id":"7193785055","tag":{"amenity":"waste_basket"}},"type":"Feature"}
]
}
