{
"type": "FeatureCollection",
"features": [
	{"geometry":{"coordinates":[-70.591869,-33.452495],"type":"Point"},"properties":{"osm_id":"647607334","tag":{"amenity":"recycling"}},"type":"Feature"},
	{"geometry":{"coordinates":[-70.661682,-33.457995],"type":"Point"},"properties":{"name":"Punto Limpio Beauchef","osm_id":"766951581","tag":{"amenity":"recycling","recycling_type":"container"}},"type":"Feature"},
	{"geometry":{"coordinates":[-70.658893,-33.438229],"type":"Point"},"properties":{"name":"Reciclaje Plaza Santa Ana","osm_id":"927292092","tag":{"amenity":"recycling","recycling:cans":"yes","recycling:glass":"yes","recycling:paper":"yes"}},"type":"Feature"},
	{"geometry":{"coordinates":[-70.600343,-33.454284],"type":"Point"},"properties":{"name":"Vidrio, Tetrapack","osm_id":"977464975","tag":{"amenity":"recycling"}},"type":"Feature"},
	{"geometry":{"coordinates":[-70.612915,-33.450489],"type":"Point"},"properties":{"name":"Punto de Reciclaje","osm_id":"1446418915","tag":{"amenity":"recycling","recycling_type":"centre"}},"type":"Feature"},
	{"geometry":{"coordinates":[-70.588716,-33.438635],"type":"Point"},"properties":{"osm_id":"1909891262","tag":{"amenity":"recycling","recycling_type":"container"}},"type":"Feature"},
	{"geometry":{"coordinates":[-70.5926,-33.436894],"type":"Point"},"properties":{"osm_id":"1909891264","tag":{"amenity":"recycling","recycling_type":"container"}},"type":"Feature"},
	{"geometry":{"coordinates":[-70.594126,-33.432401],"type":"Point"},"properties":{"osm_id":"1909891265","tag":{"amenity":"recycling","recycling_type":"container"}},"type":"Feature"},
	{"geometry":{"coordinates":[-70.593996,-33.442983],"type":"Point"},"properties":{"osm_id":"1909894209","tag":{"amenity":"recycling","recycling_type":"container"}},"type":"Feature"},
	{"geometry":{"coordinates":[-70.600145,-33.435689],"type":"Point"},"properties":{"osm_id":"1909895436","tag":{"amenity":"recycling","recycling_type":"container"}},"type":"Feature"},
	{"geometry":{"coordinates":[-70.607719,-33.439437],"type":"Point"},"properties":{"osm_id":"1909906620","tag":{"amenity":"recycling","recycling_type":"container"}},"type":"Feature"},
	{"geometry":{"coordinates":[-70.621126,-33.438989],"type":"Point"},"properties":{"osm_id":"1909915412","tag":{"amenity":"recycling","recycling_type":"container"}},"type":"Feature"},
	{"geometry":{"coordinates":[-70.611679,-33.438868],"type":"Point"},"properties":{"osm_id":"1909915441","tag":{"amenity":"recycling","recycling_type":"container"}},"type":"Feature"},
	{"geometry":{"coordinates":[-70.61501,-33.446484],"type":"Point"},"properties":{"osm_id":"1909915445","tag":{"amenity":"recycling","recycling_type":"container"}},"type":"Feature"},
	{"geometry":{"coordinates":[-70.631889,-33.442588],"type":"Point"},"properties":{"osm_id":"1909926840","tag":{"amenity":"recycling","recycling_type":"container"}},"type":"Feature"},
	{"geometry":{"coordinates":[-70.634842,-33.432077],"type":"Point"},"properties":{"osm_id":"1909926842","tag":{"amenity":"recycling","recycling_type":"container"}},"type":"Feature"},
	{"geometry":{"coordinates":[-70.628617,-33.43451],"type":"Point"},"properties":{"name":"Parque Balmaceda","osm_id":"1909930092","tag":{"amenity":"recycling","recycling_type":"container"}},"type":"Feature"},
	{"geometry":{"coordinates":[-70.609423,-33.432077],"type":"Point"},"properties":{"osm_id":"1909930093","tag":{"amenity":"recycling","recycling_type":"container"}},"type":"Feature"},
	{"geometry":{"coordinates":[-70.613074,-33.434199],"type":"Point"},"properties":{"osm_id":"1909930094","tag":{"amenity":"recycling","recycling_type":"container"}},"type":"Feature"},
	{"geometry":{"coordinates":[-70.66211,-33.44486],"type":"Point"},"properties":{"name":"Universidad Alberto Hurtado","osm_id":"1912904748","tag":{"amenity":"recycling"}},"type":"Feature"},
	{"geometry":{"coordinates":[-70.662141,-33.444836],"type":"Point"},"properties":{"osm_id":"1912904816","tag":{"amenity":"waste_basket"}},"type":"Feature"},
	{"geometry":{"coordinates":[-70.578689,-33.442357],"type":"Point"},"properties":{"osm_id":"2801428141","tag":{"amenity":"recycling","recycling:cans":"yes","recycling:clothes":"no","recycling:glass":"yes","recycling:paper":"yes"}},"type":"Feature"},
	{"geometry":{"coordinates":[-70.660995,-33.449076],"type":"Point"},"properties":{"osm_id":"3058077841","tag":{"amenity":"waste_basket"}},"type":"Feature"},
	{"geometry":{"coordinates":[-70.661179,-33.448987],"type":"Point"},"properties":{"osm_id":"3058077845","tag":{"amenity":"waste_basket"}},"type":"Feature"},
	{"geometry":{"coordinates":[-70.661261,-33.448471],"type":"Point"},"properties":{"osm_id":"3058085621","tag":{"amenity":"waste_basket"}},"type":"Feature"},
	{"geometry":{"coordinates":[-70.661377,-33.447902],"type":"Point"},"properties":{"osm_id":"3058085623","tag":{"amenity":"waste_basket"}},"type":"Feature"},
	{"geometry":{"coordinates":[-70.661262,-33.447826],"type":"Point"},"properties":{"osm_id":"3058090482","tag":{"amenity":"waste_basket"}},"type":"Feature"},
	{"geometry":{"coordinates":[-70.6613,-33.447628],"type":"Point"},"properties":{"osm_id":"3058090483","tag":{"amenity":"waste_basket"}},"type":"Feature"},
	{"geometry":{"coordinates":[-70.661536,-33.44708],"type":"Point"},"properties":{"osm_id":"3058115682","tag":{"amenity":"waste_basket"}},"type":"Feature"},
	{"geometry":{"coordinates":[-70.661393,-33.447142],"type":"Point"},"properties":{"osm_id":"3058116391","tag":{"amenity":"waste_basket"}},"type":"Feature"},
	{"geometry":{"coordinates":[-70.660739,-33.446818],"type":"Point"},"properties":{"osm_id":"3058116395","tag":{"amenity":"waste_basket"}},"type":"Feature"},
	{"geometry":{"coordinates":[-70.66071,-33.446989],"type":"Point"},"properties":{"osm_id":"3058116396","tag":{"amenity":"waste_basket"}},"type":"Feature"},
	{"geometry":{"coordinates":[-70.661137,-33.446702],"type":"Point"},"properties":{"osm_id":"3058116397","tag":{"amenity":"waste_basket"}},"type":"Feature"},
	{"geometry":{"coordinates":[-70.659425,-33.4485],"type":"Point"},"properties":{"osm_id":"3070897467","tag":{"amenity":"waste_basket"}},"type":"Feature"},
	{"geometry":{"coordinates":[-70.65936,-33.448759],"type":"Point"},"properties":{"osm_id":"3070897470","tag":{"amenity":"waste_basket"}},"type":"Feature"},
	{"geometry":{"coordinates":[-70.659397,-33.448609],"type":"Point"},"properties":{"osm_id":"3070897471","tag":{"amenity":"waste_basket"}},"type":"Feature"},
	{"geometry":{"coordinates":[-70.660521,-33.451713],"type":"Point"},"properties":{"osm_id":"3094470591","tag":{"amenity":"waste_basket"}},"type":"Feature"},
	{"geometry":{"coordinates":[-70.660523,-33.451564],"type":"Point"},"properties":{"osm_id":"3094470592","tag":{"amenity":"waste_basket"}},"type":"Feature"},
	{"geometry":{"coordinates":[-70.660553,-33.451438],"type":"Point"},"properties":{"osm_id":"3094470593","tag":{"amenity":"waste_basket"}},"type":"Feature"},
	{"geometry":{"coordinates":[-70.660582,-33.451267],"type":"Point"},"properties":{"osm_id":"3094470594","tag":{"amenity":"waste_basket"}},"type":"Feature"},
	{"geometry":{"coordinates":[-70.660617,-33.451066],"type":"Point"},"properties":{"osm_id":"3094470595","tag":{"amenity":"waste_basket"}},"type":"Feature"},
	{"geometry":{"coordinates":[-70.660737,-33.450491],"type":"Point"},"properties":{"osm_id":"3094470596","tag":{"amenity":"waste_basket"}},"type":"Feature"},
	{"geometry":{"coordinates":[-70.660783,-33.4503],"type":"Point"},"properties":{"osm_id":"3094470597","tag":{"amenity":"waste_basket"}},"type":"Feature"},
	{"geometry":{"coordinates":[-70.660829,-33.45005],"type":"Point"},"properties":{"osm_id":"3094470599","tag":{"amenity":"waste_basket"}},"type":"Feature"},
	{"geometry":{"coordinates":[-70.660862,-33.449847],"type":"Point"},"properties":{"osm_id":"3094470600","tag":{"amenity":"waste_basket"}},"type":"Feature"},
	{"geometry":{"coordinates":[-70.66025,-33.451819],"type":"Point"},"properties":{"osm_id":"3094470601","tag":{"amenity":"waste_basket"}},"type":"Feature"},
	{"geometry":{"coordinates":[-70.659989,-33.45177],"type":"Point"},"properties":{"osm_id":"3094470602","tag":{"amenity":"waste_basket"}},"type":"Feature"},
	{"geometry":{"coordinates":[-70.660839,-33.450817],"type":"Point"},"properties":{"osm_id":"3099218761","tag":{"amenity":"waste_basket"}},"type":"Feature"},
	{"geometry":{"coordinates":[-70.660611,-33.451827],"type":"Point"},"properties":{"osm_id":"3099225737","tag":{"amenity":"waste_basket"}},"type":"Feature"},
	{"geometry":{"coordinates":[-70.660657,-33.451547],"type":"Point"},"properties":{"osm_id":"3099225738","tag":{"amenity":"waste_basket"}},"type":"Feature"},
	{"geometry":{"coordinates":[-70.660683,-33.451431],"type":"Point"},"properties":{"osm_id":"3099225739","tag":{"amenity":"waste_basket"}},"type":"Feature"},
	{"geometry":{"coordinates":[-70.660719,-33.45123],"type":"Point"},"properties":{"osm_id":"3099225740","tag":{"amenity":"waste_basket"}},"type":"Feature"},
	{"geometry":{"coordinates":[-70.661032,-33.449702],"type":"Point"},"properties":{"osm_id":"3099241944","tag":{"amenity":"waste_basket"}},"type":"Feature"},
	{"geometry":{"coordinates":[-70.660926,-33.450254],"type":"Point"},"properties":{"osm_id":"3099241945","tag":{"amenity":"waste_basket"}},"type":"Feature"},
	{"geometry":{"coordinates":[-70.660866,-33.450589],"type":"Point"},"properties":{"osm_id":"3099241946","tag":{"amenity":"waste_basket"}},"type":"Feature"},
	{"geometry":{"coordinates":[-70.576312,-33.491866],"type":"Point"},"properties":{"name":"Punto Limpio Colegio Pedro de Valdivia","osm_id":"3200714448","tag":{"addr:city":"Pe\u00c3\u00b1alolen","amenity":"recycling","recycling:aluminium":"yes","recycling:cardboard":"yes","recycling:glass_bottles":"yes","recycling:paper":"yes","recycling:plastic_bottles":"yes"}},"type":"Feature"},
	{"geometry":{"coordinates":[-70.579027,-33.486146],"type":"Point"},"properties":{"name":"Punto Limpio Walmart Quilin","osm_id":"3200714451","tag":{"addr:city":"Pe\u00c3\u00b1alolen","amenity":"recycling","recycling:aluminium":"yes","recycling:cardboard":"yes","recycling:glass_bottles":"yes","recycling:paper":"yes","recycling:plastic_bottles":"yes"}},"type":"Feature"},
	{"geometry":{"coordinates":[-70.583065,-33.498013],"type":"Point"},"properties":{"name":"Punto Tetra Pak - Parque Vespucio","osm_id":"3200714454","tag":{"addr:city":"Pe\u00c3\u00b1alolen","amenity":"recycling","recycling:cartons":"yes"}},"type":"Feature"},
	{"geometry":{"coordinates":[-70.648421,-33.473248],"type":"Point"},"properties":{"osm_id":"5319196422","tag":{"amenity":"waste_basket"}},"type":"Feature"},
	{"geometry":{"coordinates":[-70.646684,-33.473222],"type":"Point"},"properties":{"osm_id":"5319196424","tag":{"amenity":"waste_basket"}},"type":"Feature"},
	{"geometry":{"coordinates":[-70.64663,-33.473219],"type":"Point"},"properties":{"osm_id":"5319196522","tag":{"amenity":"waste_basket"}},"type":"Feature"},
	{"geometry":{"coordinates":[-70.646635,-33.47316],"type":"Point"},"properties":{"osm_id":"5319196523","tag":{"amenity":"waste_basket"}},"type":"Feature"},
	{"geometry":{"coordinates":[-70.647332,-33.473204],"type":"Point"},"properties":{"osm_id":"5319196622","tag":{"amenity":"waste_basket"}},"type":"Feature"},
	{"geometry":{"coordinates":[-70.640653,-33.475248],"type":"Point"},"properties":{"osm_id":"5319196624","tag":{"amenity":"waste_basket"}},"type":"Feature"},
	{"geometry":{"coordinates":[-70.647368,-33.473206],"type":"Point"},"properties":{"osm_id":"5319199722","tag":{"amenity":"waste_basket"}},"type":"Feature"},
	{"geometry":{"coordinates":[-70.640411,-33.475231],"type":"Point"},"properties":{"osm_id":"5319210122","tag":{"amenity":"waste_basket"}},"type":"Feature"},
	{"geometry":{"coordinates":[-70.63959,-33.475196],"type":"Point"},"properties":{"osm_id":"5319210123","tag":{"amenity":"waste_basket"}},"type":"Feature"},
	{"geometry":{"coordinates":[-70.6395,-33.475133],"type":"Point"},"properties":{"osm_id":"5319210124","tag":{"amenity":"waste_basket"}},"type":"Feature"},
	{"geometry":{"coordinates":[-70.639169,-33.475173],"type":"Point"},"properties":{"osm_id":"5319210125","tag":{"amenity":"waste_basket"}},"type":"Feature"},
	{"geometry":{"coordinates":[-70.639903,-33.475213],"type":"Point"},"properties":{"osm_id":"5319210421","tag":{"amenity":"waste_basket"}},"type":"Feature"},
	{"geometry":{"coordinates":[-70.638985,-33.475171],"type":"Point"},"properties":{"osm_id":"5319210422","tag":{"amenity":"waste_basket"}},"type":"Feature"},
	{"geometry":{"coordinates":[-70.638979,-33.475216],"type":"Point"},"properties":{"osm_id":"5319210423","tag":{"amenity":"waste_basket"}},"type":"Feature"},
	{"geometry":{"coordinates":[-70.639109,-33.475111],"type":"Point"},"properties":{"osm_id":"5319210424","tag":{"amenity":"waste_basket"}},"type":"Feature"},
	{"geometry":{"coordinates":[-70.642033,-33.473839],"type":"Point"},"properties":{"osm_id":"5319210426","tag":{"amenity":"waste_basket"}},"type":"Feature"},
	{"geometry":{"coordinates":[-70.642117,-33.473841],"type":"Point"},"properties":{"osm_id":"5319210427","tag":{"amenity":"waste_basket"}},"type":"Feature"},
	{"geometry":{"coordinates":[-70.638998,-33.475102],"type":"Point"},"properties":{"osm_id":"5319210622","tag":{"amenity":"waste_basket"}},"type":"Feature"},
	{"geometry":{"coordinates":[-70.640735,-33.473731],"type":"Point"},"properties":{"osm_id":"5319210623","tag":{"amenity":"waste_basket"}},"type":"Feature"},
	{"geometry":{"coordinates":[-70.642377,-33.433916],"type":"Point"},"properties":{"name":"Punto Limpio Loreto","osm_id":"5446265032","tag":{"addr:city":"Recoleta","addr:street":"Loreto","amenity":"recycling","collection_times":"L-J 11-20 hr; V 11-19 hr; S 10-14 hr","recycling:glass":"yes","recycling:glass_bottles":"yes","recycling:paper":"yes","recycling:plastic_bottles":"yes","recycling_type":"container","start_date":"23 Febrero 2018"}},"type":"Feature"},
	{"geometry":{"coordinates":[-70.64669,-33.473163],"type":"Point"},"properties":{"osm_id":"5456696122","tag":{"amenity":"waste_basket"}},"type":"Feature"},
	{"geometry":{"coordinates":[-70.648359,-33.450093],"type":"Point"},"properties":{"osm_id":"5456701767","tag":{"amenity":"waste_basket"}},"type":"Feature"},
	{"geometry":{"coordinates":[-70.659995,-33.434525],"type":"Point"},"properties":{"osm_id":"5456701941","tag":{"amenity":"waste_basket"}},"type":"Feature"},
	{"geometry":{"coordinates":[-70.642753,-33.445599],"type":"Point"},"properties":{"osm_id":"5456701947","tag":{"amenity":"waste_basket"}},"type":"Feature"},
	{"geometry":{"coordinates":[-70.647934,-33.452328],"type":"Point"},"properties":{"osm_id":"5456702950","tag":{"amenity":"waste_basket"}},"type":"Feature"},
	{"geometry":{"coordinates":[-70.579983,-33.481199],"type":"Point"},"properties":{"osm_id":"5544242466","tag":{"amenity":"recycling","recycling:bottles":"yes","recycling:glass":"yes","recycling_type":"container"}},"type":"Feature"},
	{"geometry":{"coordinates":[-70.58075,-33.482418],"type":"Point"},"properties":{"osm_id":"5544272471","tag":{"amenity":"waste_basket"}},"type":"Feature"},
	{"geometry":{"coordinates":[-70.645093,-33.449716],"type":"Point"},"properties":{"osm_id":"5700760625","tag":{"amenity":"waste_disposal"}},"type":"Feature"},
	{"geometry":{"coordinates":[-70.616886,-33.448322],"type":"Point"},"properties":{"osm_id":"5797894124","tag":{"amenity":"waste_basket"}},"type":"Feature"},
	{"geometry":{"coordinates":[-70.616844,-33.448531],"type":"Point"},"properties":{"osm_id":"5797894125","tag":{"amenity":"waste_basket"}},"type":"Feature"},
	{"geometry":{"coordinates":[-70.616786,-33.448804],"type":"Point"},"properties":{"osm_id":"5797905113","tag":{"amenity":"waste_basket"}},"type":"Feature"},
	{"geometry":{"coordinates":[-70.616771,-33.44899],"type":"Point"},"properties":{"osm_id":"5797905115","tag":{"amenity":"waste_basket"}},"type":"Feature"},
	{"geometry":{"coordinates":[-70.616634,-33.449199],"type":"Point"},"properties":{"osm_id":"5797905124","tag":{"amenity":"waste_basket"}},"type":"Feature"},
	{"geometry":{"coordinates":[-70.616438,-33.449189],"type":"Point"},"properties":{"osm_id":"5797916945","tag":{"amenity":"waste_basket"}},"type":"Feature"},
	{"geometry":{"coordinates":[-70.617002,-33.448225],"type":"Point"},"properties":{"osm_id":"5802428493","tag":{"amenity":"recycling","recycling:glass_bottles":"yes","recycling_type":"container"}},"type":"Feature"},
	{"geometry":{"coordinates":[-70.616538,-33.44852],"type":"Point"},"properties":{"osm_id":"5802461456","tag":{"amenity":"waste_basket"}},"type":"Feature"},
	{"geometry":{"coordinates":[-70.61645,-33.448945],"type":"Point"},"properties":{"osm_id":"5802500235","tag":{"amenity":"waste_basket"}},"type":"Feature"},
	{"geometry":{"coordinates":[-70.616977,-33.448264],"type":"Point"},"properties":{"osm_id":"5803012210","tag":{"amenity":"waste_basket"}},"type":"Feature"},
	{"geometry":{"coordinates":[-70.634528,-33.440019],"type":"Point"},"properties":{"osm_id":"5926683253","tag":{"amenity":"waste_basket"}},"type":"Feature"},
	{"geometry":{"coordinates":[-70.612498,-33.438556],"type":"Point"},"properties":{"osm_id":"5980616191","tag":{"amenity":"recycling","recycling_type":"centre"}},"type":"Feature"},
	{"geometry":{"coordinates":[-70.586461,-33.451173],"type":"Point"},"properties":{"osm_id":"6274572074","tag":{"amenity":"waste_basket"}},"type":"Feature"},
	{"geometry":{"coordinates":[-70.586113,-33.451172],"type":"Point"},"properties":{"osm_id":"6274572075","tag":{"amenity":"waste_basket"}},"type":"Feature"},
	{"geometry":{"coordinates":[-70.635103,-33.445995],"type":"Point"},"properties":{"osm_id":"6446790110","tag":{"amenity":"recycling","recycling_type":"container"}},"type":"Feature"},
	{"geometry":{"coordinates":[-70.649113,-33.449795],"type":"Point"},"properties":{"highway":"street_lamp","osm_id":"6788630002","tag":{"amenity":"waste_basket","lit":"yes"}},"type":"Feature"},
	{"geometry":{"coordinates":[-70.649014,-33.450191],"type":"Point"},"properties":{"highway":"street_lamp","osm_id":"6788630008","tag":{"amenity":"waste_basket","lit":"yes"}},"type":"Feature"},
	{"geometry":{"coordinates":[-70.636506,-33.43739],"type":"Point"},"properties":{"osm_id":"6967121252","tag":{"amenity":"waste_basket"}},"type":"Feature"},
	{"geometry":{"coordinates":[-70.596202,-33.471107],"type":"Point"},"properties":{"osm_id":"7550057546","tag":{"amenity":"waste_basket"}},"type":"Feature"},
	{"geometry":{"coordinates":[-70.604469,-33.443557],"type":"Point"},"properties":{"osm_id":"7844062675","tag":{"amenity":"waste_basket"}},"type":"Feature"},
	{"geometry":{"coordinates":[-70.650911,-33.437599],"type":"Point"},"properties":{"osm_id":"7935496885","tag":{"amenity":"waste_basket"}},"type":"Feature"},
	{"geometry":{"coordinates":[-70.65029,-33.43775],"type":"Point"},"properties":{"osm_id":"7935496902","tag":{"amenity":"waste_basket"}},"type":"Feature"},
	{"geometry":{"coordinates":[-70.649672,-33.438244],"type":"Point"},"properties":{"osm_id":"7935558168","tag":{"amenity":"waste_basket"}},"type":"Feature"}
]
}
