{
"type": "FeatureCollection",
"features": [
	{"geometry":{"coordinates":[-70.587293,-33.509523],"type":"Point"},"properties":{"name":"Estacionamiento Homecenter","osm_id":"1002764242","tag":{"amenity":"recycling"}},"type":"Feature"},
	{"geometry":{"coordinates":[-70.611548,-33.518451],"type":"Point"},"properties":{"osm_id":"3200714443","tag":{"addr:city":"La Granja","addr:housenumber":"6711","addr:street":"Punta Arenas","amenity":"recycling","recycling:aluminium":"yes","recycling:cardboard":"yes","recycling:cartons":"yes","recycling:glass_bottles":"yes","recycling:metal":"yes","recycling:paper":"yes","recycling:plastic_bottles":"yes"}},"type":"Feature"},
	{"geometry":{"coordinates":[-70.578568,-33.506188],"type":"Point"},"properties":{"osm_id":"3200715973","tag":{"addr:city":"Pe\u00c3\u00b1alolen","addr:street":"San Luis de Macul","amenity":"recycling","recycling:glass_bottles":"yes"}},"type":"Feature"},
	{"geometry":{"coordinates":[-70.578674,-33.506175],"type":"Point"},"properties":{"osm_id":"3200715974","tag":{"addr:city":"Pe\u00c3\u00b1alolen","addr:street":"San Luis de Macul","amenity":"recycling","recycling:glass_bottles":"yes"}},"type":"Feature"},
	{"geometry":{"coordinates":[-70.604165,-33.572663],"type":"Point"},"properties":{"name":"Centro de Reciclaje Los Aromos","osm_id":"5280506009","tag":{"amenity":"recycling","operator":"Villa Los Aromos","recycling_type":"centre"}},"type":"Feature"}
]
}
