{
"type": "FeatureCollection",
"features": [
	{"geometry":{"coordinates":[39.21682,-6.166791],"type":"Point"},"properties":{"name":"local","osm_id":"6380253682","tag":{"addr:district":"Zanzibar Urban","addr:region":"Zanzibar Urban West Region","addr:ward":"Sebleni","amenity":"waste_disposal"}},"type":"Feature"},
	{"geometry":{"coordinates":[39.220688,-6.166482],"type":"Point"},"properties":{"osm_id":"6761379957","tag":{"addr:district":"Zanzibar Urban","addr:region":"Zanzibar Urban West Region","addr:ward":"Nyerere","amenity":"waste_disposal"}},"type":"Feature"},
	{"geometry":{"coordinates":[39.218827,-6.167773],"type":"Point"},"properties":{"name":"Sanitary Waste Disposal","osm_id":"6761761791","tag":{"addr:district":"Zanzibar Urban","addr:region":"Zanzibar Urban West Region","addr:ward":"Kwa Wazee","amenity":"waste_disposal"}},"type":"Feature"},
	{"geometry":{"coordinates":[39.220654,-6.166101],"type":"Point"},"properties":{"osm_id":"6763364431","tag":{"addr:district":"Zanzibar Urban","addr:region":"Zanzibar Urban West Region","addr:ward":"Kwa Wazee","amenity":"waste_disposal"}},"type":"Feature"},
	{"geometry":{"coordinates":[39.218226,-6.170621],"type":"Point"},"properties":{"name":"informal dump","osm_id":"6771443262","tag":{"addr:district":"Zanzibar Urban","addr:region":"Zanzibar Urban West Region","addr:ward":"Nyerere","amenity":"waste_disposal"}},"type":"Feature"},
	{"geometry":{"coordinates":[39.216722,-6.163751],"type":"Point"},"properties":{"osm_id":"6771475336","tag":{"addr:district":"Zanzibar Urban","addr:region":"Zanzibar Urban West Region","addr:ward":"Sebleni","amenity":"waste_disposal"}},"type":"Feature"},
	{"geometry":{"coordinates":[39.21706,-6.163752],"type":"Point"},"properties":{"osm_id":"6771475337","tag":{"addr:district":"Zanzibar Urban","addr:region":"Zanzibar Urban West Region","addr:ward":"Sebleni","amenity":"waste_disposal"}},"type":"Feature"},
	{"geometry":{"coordinates":[39.216373,-6.164766],"type":"Point"},"properties":{"osm_id":"6771475352","tag":{"addr:district":"Zanzibar Urban","addr:region":"Zanzibar Urban West Region","addr:ward":"Sebleni","amenity":"waste_disposal"}},"type":"Feature"},
	{"geometry":{"coordinates":[39.216375,-6.165172],"type":"Point"},"properties":{"osm_id":"6771475354","tag":{"addr:district":"Zanzibar Urban","addr:region":"Zanzibar Urban West Region","addr:ward":"Sebleni","amenity":"waste_disposal"}},"type":"Feature"},
	{"geometry":{"coordinates":[39.215954,-6.164457],"type":"Point"},"properties":{"osm_id":"6771475364","tag":{"addr:district":"Zanzibar Urban","addr:region":"Zanzibar Urban West Region","addr:ward":"Sebleni","amenity":"waste_disposal"}},"type":"Feature"},
	{"geometry":{"coordinates":[39.212185,-6.174291],"type":"Point"},"properties":{"name":"K/Chekundu Jaani","osm_id":"6771521312","tag":{"amenity":"waste_disposal"}},"type":"Feature"},
	{"geometry":{"coordinates":[39.209619,-6.172682],"type":"Point"},"properties":{"name":"Waste Disposal","osm_id":"6771525787","tag":{"addr:district":"Zanzibar Urban","addr:region":"Zanzibar Urban West Region","addr:ward":"Jangombe","amenity":"waste_disposal"}},"type":"Feature"},
	{"geometry":{"coordinates":[39.217443,-6.163072],"type":"Point"},"properties":{"name":"Dump","osm_id":"6771529987","tag":{"addr:district":"Zanzibar Urban","addr:region":"Zanzibar Urban West Region","addr:ward":"Amani","amenity":"waste_disposal"}},"type":"Feature"},
	{"geometry":{"coordinates":[39.210693,-6.170488],"type":"Point"},"properties":{"name":"Informal dump","osm_id":"6771538478","tag":{"addr:district":"Zanzibar Urban","addr:region":"Zanzibar Urban West Region","addr:ward":"Jangombe","amenity":"waste_disposal"}},"type":"Feature"},
	{"geometry":{"coordinates":[39.218621,-6.15779],"type":"Point"},"properties":{"name":"Dump Site","osm_id":"6771782940","tag":{"addr:district":"Zanzibar Urban","addr:region":"Zanzibar Urban West Region","addr:ward":"Kwamtipura","amenity":"waste_disposal"}},"type":"Feature"},
	{"geometry":{"coordinates":[39.208543,-6.173145],"type":"Point"},"properties":{"name":"Dump","osm_id":"6771815900","tag":{"addr:district":"Zanzibar Urban","addr:region":"Zanzibar Urban West Region","addr:ward":"Matarumbeta","amenity":"waste_disposal"}},"type":"Feature"},
	{"geometry":{"coordinates":[39.221241,-6.162775],"type":"Point"},"properties":{"name":"Dumpsite","osm_id":"6771878511","tag":{"addr:district":"Zanzibar Urban","addr:region":"Zanzibar Urban West Region","addr:ward":"Kilimahewa juu","amenity":"waste_disposal"}},"type":"Feature"},
	{"geometry":{"coordinates":[39.210276,-6.169919],"type":"Point"},"properties":{"name":"dumping site","osm_id":"6771879079","tag":{"addr:district":"Zanzibar Urban","addr:region":"Zanzibar Urban West Region","addr:ward":"Kidongo Chekundu","amenity":"waste_disposal"}},"type":"Feature"},
	{"geometry":{"coordinates":[39.210336,-6.169557],"type":"Point"},"properties":{"osm_id":"6771887786","tag":{"addr:district":"Zanzibar Urban","addr:region":"Zanzibar Urban West Region","addr:ward":"Kidongo Chekundu","amenity":"waste_disposal"}},"type":"Feature"},
	{"geometry":{"coordinates":[39.210278,-6.169638],"type":"Point"},"properties":{"osm_id":"6771887787","tag":{"addr:district":"Zanzibar Urban","addr:region":"Zanzibar Urban West Region","addr:ward":"Kidongo Chekundu","amenity":"waste_disposal"}},"type":"Feature"},
	{"geometry":{"coordinates":[39.210029,-6.16973],"type":"Point"},"properties":{"osm_id":"6771887788","tag":{"addr:district":"Zanzibar Urban","addr:region":"Zanzibar Urban West Region","addr:ward":"Kidongo Chekundu","amenity":"waste_disposal"}},"type":"Feature"},
	{"geometry":{"coordinates":[39.210087,-6.169377],"type":"Point"},"properties":{"osm_id":"6771887800","tag":{"addr:district":"Zanzibar Urban","addr:region":"Zanzibar Urban West Region","addr:ward":"Kidongo Chekundu","amenity":"waste_disposal"}},"type":"Feature"},
	{"geometry":{"coordinates":[39.209967,-6.169389],"type":"Point"},"properties":{"osm_id":"6771887802","tag":{"addr:district":"Zanzibar Urban","addr:region":"Zanzibar Urban West Region","addr:ward":"Kidongo Chekundu","amenity":"waste_disposal"}},"type":"Feature"},
	{"geometry":{"coordinates":[39.209881,-6.169159],"type":"Point"},"properties":{"osm_id":"6771887805","tag":{"addr:district":"Zanzibar Urban","addr:region":"Zanzibar Urban West Region","addr:ward":"Kidongo Chekundu","amenity":"waste_disposal"}},"type":"Feature"},
	{"geometry":{"coordinates":[39.209757,-6.169483],"type":"Point"},"properties":{"osm_id":"6771887808","tag":{"addr:district":"Zanzibar Urban","addr:region":"Zanzibar Urban West Region","addr:ward":"Kidongo Chekundu","amenity":"waste_disposal"}},"type":"Feature"},
	{"geometry":{"coordinates":[39.209692,-6.169495],"type":"Point"},"properties":{"osm_id":"6771887809","tag":{"addr:district":"Zanzibar Urban","addr:region":"Zanzibar Urban West Region","addr:ward":"Kidongo Chekundu","amenity":"waste_disposal"}},"type":"Feature"},
	{"geometry":{"coordinates":[39.209539,-6.169175],"type":"Point"},"properties":{"osm_id":"6771887813","tag":{"addr:district":"Zanzibar Urban","addr:region":"Zanzibar Urban West Region","addr:ward":"Kidongo Chekundu","amenity":"waste_disposal"}},"type":"Feature"},
	{"geometry":{"coordinates":[39.209739,-6.169144],"type":"Point"},"properties":{"osm_id":"6771887816","tag":{"addr:district":"Zanzibar Urban","addr:region":"Zanzibar Urban West Region","addr:ward":"Kidongo Chekundu","amenity":"waste_disposal"}},"type":"Feature"},
	{"geometry":{"coordinates":[39.209684,-6.169015],"type":"Point"},"properties":{"name":"sanitary waste","osm_id":"6771887818","tag":{"addr:district":"Zanzibar Urban","addr:region":"Zanzibar Urban West Region","addr:ward":"Kidongo Chekundu","amenity":"waste_disposal"}},"type":"Feature"},
	{"geometry":{"coordinates":[39.217215,-6.161271],"type":"Point"},"properties":{"osm_id":"6772008142","tag":{"addr:district":"Zanzibar Urban","addr:region":"Zanzibar Urban West Region","addr:ward":"Amani","amenity":"waste_disposal"}},"type":"Feature"},
	{"geometry":{"coordinates":[39.214765,-6.171526],"type":"Point"},"properties":{"name":"meya collection site","osm_id":"6772032746","tag":{"addr:district":"Zanzibar Urban","addr:region":"Zanzibar Urban West Region","addr:ward":"Meya","amenity":"waste_disposal"}},"type":"Feature"},
	{"geometry":{"coordinates":[39.222207,-6.15812],"type":"Point"},"properties":{"name":"sanitary_dump_site","osm_id":"6772036402","tag":{"addr:district":"Zanzibar Urban","addr:region":"Zanzibar Urban West Region","addr:ward":"Kwamtipura","amenity":"waste_disposal"}},"type":"Feature"},
	{"geometry":{"coordinates":[39.213127,-6.164853],"type":"Point"},"properties":{"name":"Muungano dumping site","osm_id":"6772932971","tag":{"addr:district":"Zanzibar Urban","addr:region":"Zanzibar Urban West Region","addr:ward":"Muungano","amenity":"waste_disposal"}},"type":"Feature"},
	{"geometry":{"coordinates":[39.214634,-6.163156],"type":"Point"},"properties":{"name":"dump","osm_id":"6777309489","tag":{"addr:district":"Zanzibar Urban","addr:region":"Zanzibar Urban West Region","addr:ward":"Mkele","amenity":"waste_disposal"}},"type":"Feature"},
	{"geometry":{"coordinates":[39.214362,-6.156624],"type":"Point"},"properties":{"osm_id":"6778920864","tag":{"addr:district":"Zanzibar Urban","addr:region":"Zanzibar Urban West Region","addr:ward":"Shauri Moyo","amenity":"waste_disposal"}},"type":"Feature"},
	{"geometry":{"coordinates":[39.206778,-6.169697],"type":"Point"},"properties":{"name":"dumpsite","osm_id":"6778922582","tag":{"addr:district":"Zanzibar Urban","addr:region":"Zanzibar Urban West Region","addr:ward":"Kwahani","amenity":"waste_disposal"}},"type":"Feature"},
	{"geometry":{"coordinates":[39.218021,-6.169332],"type":"Point"},"properties":{"osm_id":"6778923657","tag":{"addr:district":"Zanzibar Urban","addr:region":"Zanzibar Urban West Region","addr:ward":"Sogea","amenity":"waste_disposal","waste_disposal":"waste"}},"type":"Feature"},
	{"geometry":{"coordinates":[39.218243,-6.168935],"type":"Point"},"properties":{"name":"dumping site","osm_id":"6778923676","tag":{"addr:district":"Zanzibar Urban","addr:region":"Zanzibar Urban West Region","addr:ward":"Sogea","amenity":"waste_disposal"}},"type":"Feature"},
	{"geometry":{"coordinates":[39.218142,-6.170521],"type":"Point"},"properties":{"name":"collection point","osm_id":"6778923683","tag":{"addr:district":"Zanzibar Urban","addr:region":"Zanzibar Urban West Region","addr:ward":"Sogea","amenity":"waste_disposal"}},"type":"Feature"},
	{"geometry":{"coordinates":[39.213945,-6.152323],"type":"Point"},"properties":{"name":"Dump","osm_id":"6778981808","tag":{"addr:district":"Zanzibar Urban","addr:region":"Zanzibar Urban West Region","addr:ward":"Chumbuni","amenity":"waste_disposal"}},"type":"Feature"},
	{"geometry":{"coordinates":[39.205865,-6.162895],"type":"Point"},"properties":{"name":"dump","osm_id":"6778990907","tag":{"addr:district":"Zanzibar Urban","addr:region":"Zanzibar Urban West Region","addr:ward":"Mikunguni","amenity":"waste_disposal"}},"type":"Feature"},
	{"geometry":{"coordinates":[39.205815,-6.158522],"type":"Point"},"properties":{"osm_id":"6779001716","tag":{"addr:district":"Zanzibar Urban","addr:region":"Zanzibar Urban West Region","addr:ward":"Makadara","amenity":"waste_disposal"}},"type":"Feature"},
	{"geometry":{"coordinates":[39.211663,-6.155447],"type":"Point"},"properties":{"osm_id":"6779001786","tag":{"addr:district":"Zanzibar Urban","addr:region":"Zanzibar Urban West Region","addr:ward":"Shauri Moyo","amenity":"waste_disposal"}},"type":"Feature"},
	{"geometry":{"coordinates":[39.211936,-6.154932],"type":"Point"},"properties":{"name":"Waste Generation for Clean Zanzibar","osm_id":"6779001787","tag":{"addr:district":"Zanzibar Urban","addr:region":"Zanzibar Urban West Region","addr:ward":"Shauri Moyo","amenity":"waste_disposal"}},"type":"Feature"},
	{"geometry":{"coordinates":[39.207721,-6.166151],"type":"Point"},"properties":{"name":"jaa la uwanja wa farasi","osm_id":"6779015328","tag":{"addr:district":"Zanzibar Urban","addr:region":"Zanzibar Urban West Region","addr:ward":"Kwahani","amenity":"waste_disposal"}},"type":"Feature"},
	{"geometry":{"coordinates":[39.209978,-6.166979],"type":"Point"},"properties":{"name":"jaani","osm_id":"6779015353","tag":{"addr:district":"Zanzibar Urban","addr:region":"Zanzibar Urban West Region","addr:ward":"Kwahani","amenity":"waste_disposal"}},"type":"Feature"},
	{"geometry":{"coordinates":[39.209813,-6.15175],"type":"Point"},"properties":{"name":"karo","osm_id":"6779043472","tag":{"addr:district":"Zanzibar Urban","addr:region":"Zanzibar Urban West Region","addr:ward":"Mwembeladu","amenity":"waste_disposal"}},"type":"Feature"},
	{"geometry":{"coordinates":[39.200876,-6.16425],"type":"Point"},"properties":{"name":"Dump","osm_id":"6779046079","tag":{"addr:district":"Zanzibar Urban","addr:region":"Zanzibar Urban West Region","addr:ward":"Rahaleo","amenity":"waste_disposal"}},"type":"Feature"},
	{"geometry":{"coordinates":[39.1993,-6.164118],"type":"Point"},"properties":{"name":"Dumping site","osm_id":"6779051012","tag":{"addr:district":"Zanzibar Urban","addr:region":"Zanzibar Urban West Region","addr:ward":"Mlandege","amenity":"waste_disposal"}},"type":"Feature"},
	{"geometry":{"coordinates":[39.199356,-6.162458],"type":"Point"},"properties":{"name":"Dumping site","osm_id":"6779051031","tag":{"addr:district":"Zanzibar Urban","addr:region":"Zanzibar Urban West Region","addr:ward":"Mlandege","amenity":"waste_disposal"}},"type":"Feature"},
	{"geometry":{"coordinates":[39.2001,-6.159483],"type":"Point"},"properties":{"name":"Dump","osm_id":"6779053972","tag":{"addr:district":"Zanzibar Urban","addr:region":"Zanzibar Urban West Region","addr:ward":"Mlandege","amenity":"waste_disposal"}},"type":"Feature"},
	{"geometry":{"coordinates":[39.203,-6.166141],"type":"Point"},"properties":{"name":"collection point","osm_id":"6779058551","tag":{"addr:district":"Zanzibar Urban","addr:region":"Zanzibar Urban West Region","addr:ward":"makadara","amenity":"waste_disposal"}},"type":"Feature"},
	{"geometry":{"coordinates":[39.209971,-6.166998],"type":"Point"},"properties":{"name":"muembe njugu(jaani)","osm_id":"6779059449","tag":{"addr:district":"Zanzibar Urban","addr:region":"Zanzibar Urban West Region","addr:ward":"Kwaalimsha","amenity":"waste_disposal"}},"type":"Feature"},
	{"geometry":{"coordinates":[39.205888,-6.158586],"type":"Point"},"properties":{"osm_id":"6779065117","tag":{"addr:district":"Zanzibar Urban","addr:region":"Zanzibar Urban West Region","addr:ward":"Makadara","amenity":"waste_disposal"}},"type":"Feature"},
	{"geometry":{"coordinates":[39.20477,-6.154901],"type":"Point"},"properties":{"osm_id":"6779065193","tag":{"addr:district":"Zanzibar Urban","addr:region":"Zanzibar Urban West Region","addr:ward":"Makadara","amenity":"waste_disposal"}},"type":"Feature"},
	{"geometry":{"coordinates":[39.199418,-6.166435],"type":"Point"},"properties":{"name":"collection point","osm_id":"6779066717","tag":{"addr:district":"Zanzibar Urban","addr:region":"Zanzibar Urban West Region","addr:ward":"Muembeshauri","amenity":"waste_disposal"}},"type":"Feature"},
	{"geometry":{"coordinates":[39.20139,-6.16099],"type":"Point"},"properties":{"osm_id":"6779067031","tag":{"addr:district":"Zanzibar Urban","addr:region":"Zanzibar Urban West Region","addr:ward":"Mwembeladu","amenity":"waste_disposal"}},"type":"Feature"},
	{"geometry":{"coordinates":[39.209207,-6.164743],"type":"Point"},"properties":{"name":"bridge","osm_id":"6779068556","tag":{"addr:district":"Zanzibar Urban","addr:region":"Zanzibar Urban West Region","addr:ward":"Kwaalimsha","amenity":"waste_disposal"}},"type":"Feature"},
	{"geometry":{"coordinates":[39.209319,-6.16464],"type":"Point"},"properties":{"name":"damp","osm_id":"6779073105","tag":{"addr:district":"Zanzibar Urban","addr:region":"Zanzibar Urban West Region","addr:ward":"Kwaalimsha","amenity":"waste_disposal"}},"type":"Feature"},
	{"geometry":{"coordinates":[39.209191,-6.164612],"type":"Point"},"properties":{"name":"damp","osm_id":"6779073108","tag":{"addr:district":"Zanzibar Urban","addr:region":"Zanzibar Urban West Region","addr:ward":"Kwaalimsha","amenity":"waste_disposal","power":"pole"}},"type":"Feature"},
	{"geometry":{"coordinates":[39.214886,-6.143155],"type":"Point"},"properties":{"name":"Waste","osm_id":"6783797585","tag":{"addr:district":"Zanzibar Urban","addr:region":"Zanzibar Urban West Region","addr:ward":"Karakana","amenity":"waste_disposal"}},"type":"Feature"},
	{"geometry":{"coordinates":[39.226115,-6.178283],"type":"Point"},"properties":{"osm_id":"6787727371","tag":{"amenity":"waste_disposal"}},"type":"Feature"},
	{"geometry":{"coordinates":[39.207168,-6.176076],"type":"Point"},"properties":{"osm_id":"6787987118","tag":{"addr:district":"Zanzibar Urban","addr:region":"Zanzibar Urban West Region","addr:ward":"Urusi","amenity":"waste_disposal"}},"type":"Feature"},
	{"geometry":{"coordinates":[39.209014,-6.17579],"type":"Point"},"properties":{"osm_id":"6787987900","tag":{"addr:district":"Zanzibar Urban","addr:region":"Zanzibar Urban West Region","addr:ward":"Urusi","amenity":"waste_disposal"}},"type":"Feature"},
	{"geometry":{"coordinates":[39.19923,-6.168047],"type":"Point"},"properties":{"name":"dumping site","osm_id":"6788020177","tag":{"addr:district":"Zanzibar Urban","addr:region":"Zanzibar Urban West Region","addr:ward":"Kisima Majongoo","amenity":"waste_disposal"}},"type":"Feature"},
	{"geometry":{"coordinates":[39.21745,-6.163077],"type":"Point"},"properties":{"osm_id":"8007279959","tag":{"amenity":"waste_disposal"}},"type":"Feature"}
]
}
