{
"type": "FeatureCollection",
"features": [
	{"geometry":{"coordinates":[39.245494,-6.798131],"type":"Point"},"properties":{"osm_id":"1399692838","tag":{"addr:city":"Dar es salaaam","addr:district":"Kinondoni","addr:municipality":"Kinondoni","amenity":"waste_basket"}},"type":"Feature"},
	{"geometry":{"coordinates":[39.246399,-6.7915],"type":"Point"},"properties":{"osm_id":"1404350208","tag":{"addr:city":"Dar es salaaam","addr:district":"Kinondoni","addr:municipality":"Kinondoni","amenity":"waste_basket"}},"type":"Feature"},
	{"geometry":{"coordinates":[39.246335,-6.793861],"type":"Point"},"properties":{"osm_id":"1408260315","tag":{"addr:city":"Dar es salaaam","addr:district":"Kinondoni","addr:municipality":"Kinondoni","amenity":"waste_basket"}},"type":"Feature"},
	{"geometry":{"coordinates":[39.238122,-6.797082],"type":"Point"},"properties":{"osm_id":"2668464160","tag":{"addr:city":"Dar es salaaam","addr:district":"Kinondoni","addr:municipality":"Kinondoni","amenity":"waste_disposal","waste":"plastic"}},"type":"Feature"},
	{"geometry":{"coordinates":[39.237064,-6.796609],"type":"Point"},"properties":{"osm_id":"2669110395","tag":{"addr:city":"Dar es salaaam","addr:district":"Kinondoni","addr:municipality":"Kinondoni","amenity":"waste_disposal","solid_wastes":"yes"}},"type":"Feature"},
	{"geometry":{"coordinates":[39.250717,-6.802099],"type":"Point"},"properties":{"osm_id":"3421292528","tag":{"addr:city":"Dar es salaaam","addr:district":"Kinondoni","addr:municipality":"Kinondoni","amenity":"waste_disposal"}},"type":"Feature"},
	{"geometry":{"coordinates":[39.247159,-6.800711],"type":"Point"},"properties":{"osm_id":"3421307973","tag":{"addr:city":"Dar es salaaam","addr:district":"Kinondoni","addr:municipality":"Kinondoni","amenity":"waste_basket"}},"type":"Feature"},
	{"geometry":{"coordinates":[39.216737,-6.773902],"type":"Point"},"properties":{"osm_id":"3652674152","tag":{"addr:city":"Dar es salaam","addr:district":"Ubungo","addr:municipality":"Ubungo","amenity":"waste_disposal"}},"type":"Feature"},
	{"geometry":{"coordinates":[39.213215,-6.774009],"type":"Point"},"properties":{"osm_id":"3652674177","tag":{"addr:city":"Dar es salaam","addr:district":"Ubungo","addr:municipality":"Ubungo","amenity":"waste_disposal"}},"type":"Feature"},
	{"geometry":{"coordinates":[39.217077,-6.773067],"type":"Point"},"properties":{"osm_id":"3652692564","tag":{"addr:city":"Dar es salaam","addr:district":"Ubungo","addr:municipality":"Ubungo","amenity":"waste_disposal"}},"type":"Feature"},
	{"geometry":{"coordinates":[39.21382,-6.773669],"type":"Point"},"properties":{"osm_id":"3652720560","tag":{"addr:city":"Dar es salaam","addr:district":"Ubungo","addr:municipality":"Ubungo","amenity":"waste_disposal"}},"type":"Feature"},
	{"geometry":{"coordinates":[39.224113,-6.805926],"type":"Point"},"properties":{"osm_id":"3652749269","tag":{"addr:city":"Dar es salaam","addr:district":"Ubungo","addr:municipality":"Ubungo","amenity":"waste_disposal"}},"type":"Feature"},
	{"geometry":{"coordinates":[39.269745,-6.769135],"type":"Point"},"properties":{"osm_id":"3654013479","tag":{"addr:city":"Dar es salaaam","addr:district":"Kinondoni","addr:municipality":"Kinondoni","amenity":"waste_basket"}},"type":"Feature"},
	{"geometry":{"coordinates":[39.270674,-6.833067],"type":"Point"},"properties":{"osm_id":"3660099478","tag":{"addr:city":"Dar es salaam","addr:district":"Temeke","addr:municipality":"Temeke","amenity":"waste_disposal"}},"type":"Feature"},
	{"geometry":{"coordinates":[39.272659,-6.83916],"type":"Point"},"properties":{"osm_id":"3668620496","tag":{"addr:city":"Dar es salaam","addr:district":"Temeke","addr:municipality":"Temeke","amenity":"waste_disposal"}},"type":"Feature"},
	{"geometry":{"coordinates":[39.239482,-6.805626],"type":"Point"},"properties":{"osm_id":"3672329394","tag":{"addr:city":"Dar es salaam","addr:district":"Ubungo","addr:municipality":"Ubungo","amenity":"recycling","recycling_type":"bottles"}},"type":"Feature"},
	{"geometry":{"coordinates":[39.236469,-6.800895],"type":"Point"},"properties":{"osm_id":"3672359698","tag":{"addr:city":"Dar es salaam","addr:district":"Ubungo","addr:municipality":"Ubungo","amenity":"waste_disposal"}},"type":"Feature"},
	{"geometry":{"coordinates":[39.238914,-6.835456],"type":"Point"},"properties":{"osm_id":"3704414717","tag":{"addr:city":"Dar es salaam","addr:district":"Ilala","addr:municipality":"Ilala","amenity":"waste_disposal"}},"type":"Feature"},
	{"geometry":{"coordinates":[39.259874,-6.804702],"type":"Point"},"properties":{"osm_id":"3706215693","tag":{"addr:city":"Dar es salaaam","addr:district":"Kinondoni","addr:municipality":"Kinondoni","amenity":"recycling","recycling:glass":"yes","recycling:scrap_metal":"yes"}},"type":"Feature"},
	{"geometry":{"coordinates":[39.206812,-6.773042],"type":"Point"},"properties":{"osm_id":"3784442903","tag":{"addr:city":"Dar es salaam","addr:district":"Ubungo","addr:municipality":"Ubungo","amenity":"waste_disposal"}},"type":"Feature"},
	{"geometry":{"coordinates":[39.204574,-6.78505],"type":"Point"},"properties":{"osm_id":"3792364148","tag":{"addr:city":"Dar es salaam","addr:district":"Ubungo","addr:municipality":"Ubungo","amenity":"waste_disposal"}},"type":"Feature"},
	{"geometry":{"coordinates":[39.204816,-6.785053],"type":"Point"},"properties":{"osm_id":"3792364149","tag":{"addr:city":"Dar es salaam","addr:district":"Ubungo","addr:municipality":"Ubungo","amenity":"waste_disposal"}},"type":"Feature"},
	{"geometry":{"coordinates":[39.222186,-6.795184],"type":"Point"},"properties":{"osm_id":"3799127374","tag":{"addr:city":"Dar es salaam","addr:district":"Ubungo","addr:municipality":"Ubungo","amenity":"waste_disposal"}},"type":"Feature"},
	{"geometry":{"coordinates":[39.224698,-6.796452],"type":"Point"},"properties":{"osm_id":"3799179779","tag":{"addr:city":"Dar es salaam","addr:district":"Ubungo","addr:municipality":"Ubungo","amenity":"waste_disposal"}},"type":"Feature"},
	{"geometry":{"coordinates":[39.244423,-6.827166],"type":"Point"},"properties":{"osm_id":"6397929640","tag":{"addr:city":"Dar es salaam","addr:district":"Ilala","addr:municipality":"Ilala","addr:subward":"Mivinjeni","addr:ward":"Buguruni","amenity":"waste_disposal","waste":"Liqiud Waste Dams"}},"type":"Feature"},
	{"geometry":{"coordinates":[39.204782,-6.79874],"type":"Point"},"properties":{"name":"Fey Fashion Center","osm_id":"6400343774","tag":{"addr:city":"Dar es salaam","addr:district":"Ubungo","addr:municipality":"Ubungo","addr:subward":"Kibangu","addr:ward":"Makuburi","amenity":"recycling","recycling_type":"centre"}},"type":"Feature"}
]
}
