{
"type": "FeatureCollection",
"features": [
	{"geometry":{"coordinates":[8.747356,45.838299],"type":"Point"},"properties":{"osm_id":"1364467974","tag":{"natural":"tree"}},"type":"Feature"},
	{"geometry":{"coordinates":[8.734117,45.833477],"type":"Point"},"properties":{"osm_id":"2202294380","tag":{"natural":"tree"}},"type":"Feature"},
	{"geometry":{"coordinates":[8.757959,45.840197],"type":"Point"},"properties":{"osm_id":"3873841969","tag":{"natural":"tree"}},"type":"Feature"},
	{"geometry":{"coordinates":[8.758201,45.840192],"type":"Point"},"properties":{"name":"Cedrus atlantica","osm_id":"3873841970","tag":{"denotation":"natural_monument","leaf_cycle":"evergreen","leaf_type":"needleleaved","name:de":"Atlas-Zeder","name:en":"Atlas cedar","name:es":"Cedro del Atlas","name:fr":"C\u00c3\u00a8dre de l'Atlas","name:it":"Cedro dell' Atlante","natural":"tree"}},"type":"Feature"},
	{"geometry":{"coordinates":[8.781452,45.837619],"type":"Point"},"properties":{"osm_id":"3876984343","tag":{"leaf_cycle":"evergreen","leaf_type":"broadleaved","natural":"tree"}},"type":"Feature"},
	{"geometry":{"coordinates":[8.757232,45.837375],"type":"Point"},"properties":{"osm_id":"4159224528","tag":{"natural":"tree"}},"type":"Feature"},
	{"geometry":{"coordinates":[8.757522,45.837469],"type":"Point"},"properties":{"osm_id":"4159224530","tag":{"natural":"tree"}},"type":"Feature"},
	{"geometry":{"coordinates":[8.757334,45.837598],"type":"Point"},"properties":{"osm_id":"4159224533","tag":{"natural":"tree"}},"type":"Feature"},
	{"geometry":{"coordinates":[8.755537,45.83822],"type":"Point"},"properties":{"osm_id":"4159224550","tag":{"natural":"tree"}},"type":"Feature"},
	{"geometry":{"coordinates":[8.75606,45.838254],"type":"Point"},"properties":{"osm_id":"4159226889","tag":{"natural":"tree"}},"type":"Feature"},
	{"geometry":{"coordinates":[8.757868,45.843998],"type":"Point"},"properties":{"osm_id":"4159227714","tag":{"natural":"tree"}},"type":"Feature"},
	{"geometry":{"coordinates":[8.752887,45.834273],"type":"Point"},"properties":{"osm_id":"4159241204","tag":{"natural":"tree"}},"type":"Feature"},
	{"geometry":{"coordinates":[8.752721,45.834324],"type":"Point"},"properties":{"osm_id":"4159241205","tag":{"natural":"tree"}},"type":"Feature"},
	{"geometry":{"coordinates":[8.752514,45.834571],"type":"Point"},"properties":{"osm_id":"4159241216","tag":{"natural":"tree"}},"type":"Feature"},
	{"geometry":{"coordinates":[8.75238,45.834625],"type":"Point"},"properties":{"osm_id":"4159241220","tag":{"natural":"tree"}},"type":"Feature"},
	{"geometry":{"coordinates":[8.752536,45.83464],"type":"Point"},"properties":{"osm_id":"4159242748","tag":{"natural":"tree"}},"type":"Feature"},
	{"geometry":{"coordinates":[8.753635,45.83791],"type":"Point"},"properties":{"osm_id":"4159242993","tag":{"natural":"tree"}},"type":"Feature"},
	{"geometry":{"coordinates":[8.754148,45.838294],"type":"Point"},"properties":{"osm_id":"4159244403","tag":{"natural":"tree"}},"type":"Feature"},
	{"geometry":{"coordinates":[8.753233,45.837866],"type":"Point"},"properties":{"osm_id":"4159245001","tag":{"natural":"tree"}},"type":"Feature"},
	{"geometry":{"coordinates":[8.753482,45.837886],"type":"Point"},"properties":{"osm_id":"4159245004","tag":{"natural":"tree"}},"type":"Feature"},
	{"geometry":{"coordinates":[8.754268,45.838381],"type":"Point"},"properties":{"osm_id":"4159245742","tag":{"natural":"tree"}},"type":"Feature"},
	{"geometry":{"coordinates":[8.754035,45.838439],"type":"Point"},"properties":{"osm_id":"4159245743","tag":{"natural":"tree"}},"type":"Feature"},
	{"geometry":{"coordinates":[8.757451,45.843734],"type":"Point"},"properties":{"osm_id":"4159251059","tag":{"natural":"tree"}},"type":"Feature"},
	{"geometry":{"coordinates":[8.757824,45.843325],"type":"Point"},"properties":{"osm_id":"4159251119","tag":{"natural":"tree"}},"type":"Feature"},
	{"geometry":{"coordinates":[8.757147,45.843202],"type":"Point"},"properties":{"osm_id":"4159251229","tag":{"natural":"tree"}},"type":"Feature"},
	{"geometry":{"coordinates":[8.75754,45.843858],"type":"Point"},"properties":{"osm_id":"4159252465","tag":{"natural":"tree"}},"type":"Feature"},
	{"geometry":{"coordinates":[8.750875,45.833855],"type":"Point"},"properties":{"osm_id":"4159252783","tag":{"natural":"tree"}},"type":"Feature"},
	{"geometry":{"coordinates":[8.762133,45.842897],"type":"Point"},"properties":{"osm_id":"4159253272","tag":{"natural":"tree"}},"type":"Feature"},
	{"geometry":{"coordinates":[8.75728,45.843443],"type":"Point"},"properties":{"osm_id":"4159253671","tag":{"natural":"tree"}},"type":"Feature"},
	{"geometry":{"coordinates":[8.760917,45.843914],"type":"Point"},"properties":{"osm_id":"4159253684","tag":{"natural":"tree"}},"type":"Feature"},
	{"geometry":{"coordinates":[8.760776,45.843953],"type":"Point"},"properties":{"osm_id":"4159253686","tag":{"natural":"tree"}},"type":"Feature"},
	{"geometry":{"coordinates":[8.75365,45.843485],"type":"Point"},"properties":{"osm_id":"4159261662","tag":{"natural":"tree"}},"type":"Feature"},
	{"geometry":{"coordinates":[8.753655,45.84355],"type":"Point"},"properties":{"osm_id":"4159261664","tag":{"natural":"tree"}},"type":"Feature"},
	{"geometry":{"coordinates":[8.753685,45.84335],"type":"Point"},"properties":{"osm_id":"4159262865","tag":{"natural":"tree"}},"type":"Feature"},
	{"geometry":{"coordinates":[8.753736,45.843648],"type":"Point"},"properties":{"osm_id":"4159262868","tag":{"natural":"tree"}},"type":"Feature"},
	{"geometry":{"coordinates":[8.754549,45.834614],"type":"Point"},"properties":{"osm_id":"4159278217","tag":{"natural":"tree"}},"type":"Feature"},
	{"geometry":{"coordinates":[8.756134,45.839769],"type":"Point"},"properties":{"osm_id":"4159278235","tag":{"natural":"tree"}},"type":"Feature"},
	{"geometry":{"coordinates":[8.751782,45.844402],"type":"Point"},"properties":{"osm_id":"4159278258","tag":{"natural":"tree"}},"type":"Feature"},
	{"geometry":{"coordinates":[8.751898,45.844582],"type":"Point"},"properties":{"osm_id":"4159278262","tag":{"natural":"tree"}},"type":"Feature"},
	{"geometry":{"coordinates":[8.751592,45.844645],"type":"Point"},"properties":{"osm_id":"4159278263","tag":{"natural":"tree"}},"type":"Feature"},
	{"geometry":{"coordinates":[8.755228,45.834383],"type":"Point"},"properties":{"osm_id":"4159281163","tag":{"natural":"tree"}},"type":"Feature"},
	{"geometry":{"coordinates":[8.754879,45.834504],"type":"Point"},"properties":{"osm_id":"4159281800","tag":{"natural":"tree"}},"type":"Feature"},
	{"geometry":{"coordinates":[8.756056,45.839742],"type":"Point"},"properties":{"osm_id":"4159282139","tag":{"natural":"tree"}},"type":"Feature"},
	{"geometry":{"coordinates":[8.755548,45.839568],"type":"Point"},"properties":{"osm_id":"4159282276","tag":{"natural":"tree"}},"type":"Feature"},
	{"geometry":{"coordinates":[8.751933,45.844075],"type":"Point"},"properties":{"osm_id":"4159282512","tag":{"natural":"tree"}},"type":"Feature"},
	{"geometry":{"coordinates":[8.751672,45.844128],"type":"Point"},"properties":{"osm_id":"4159282513","tag":{"natural":"tree"}},"type":"Feature"},
	{"geometry":{"coordinates":[8.752862,45.843341],"type":"Point"},"properties":{"osm_id":"4159290005","tag":{"natural":"tree"}},"type":"Feature"},
	{"geometry":{"coordinates":[8.703856,45.836453],"type":"Point"},"properties":{"osm_id":"4187198491","tag":{"natural":"tree"}},"type":"Feature"},
	{"geometry":{"coordinates":[8.702842,45.833049],"type":"Point"},"properties":{"osm_id":"4187235963","tag":{"natural":"tree"}},"type":"Feature"},
	{"geometry":{"coordinates":[8.786438,45.889489],"type":"Point"},"properties":{"osm_id":"4318173949","tag":{"natural":"tree"}},"type":"Feature"},
	{"geometry":{"coordinates":[8.788808,45.888251],"type":"Point"},"properties":{"osm_id":"4318180205","tag":{"natural":"tree"}},"type":"Feature"},
	{"geometry":{"coordinates":[8.781849,45.888802],"type":"Point"},"properties":{"osm_id":"4318205244","tag":{"natural":"tree"}},"type":"Feature"},
	{"geometry":{"coordinates":[8.777488,45.837217],"type":"Point"},"properties":{"osm_id":"4394713046","tag":{"natural":"tree"}},"type":"Feature"},
	{"geometry":{"coordinates":[8.785315,45.836506],"type":"Point"},"properties":{"osm_id":"4394725031","tag":{"natural":"tree"}},"type":"Feature"},
	{"geometry":{"coordinates":[8.78312,45.839108],"type":"Point"},"properties":{"osm_id":"4394742055","tag":{"natural":"tree"}},"type":"Feature"},
	{"geometry":{"coordinates":[8.782944,45.837262],"type":"Point"},"properties":{"osm_id":"4394760145","tag":{"natural":"tree"}},"type":"Feature"},
	{"geometry":{"coordinates":[8.778009,45.837343],"type":"Point"},"properties":{"osm_id":"4394760184","tag":{"natural":"tree"}},"type":"Feature"},
	{"geometry":{"coordinates":[8.778275,45.837214],"type":"Point"},"properties":{"osm_id":"4394760199","tag":{"natural":"tree"}},"type":"Feature"},
	{"geometry":{"coordinates":[8.746087,45.88977],"type":"Point"},"properties":{"osm_id":"4405597325","tag":{"natural":"tree"}},"type":"Feature"},
	{"geometry":{"coordinates":[8.743927,45.889079],"type":"Point"},"properties":{"osm_id":"4405618773","tag":{"natural":"tree"}},"type":"Feature"},
	{"geometry":{"coordinates":[8.743742,45.888935],"type":"Point"},"properties":{"osm_id":"4405619360","tag":{"natural":"tree"}},"type":"Feature"},
	{"geometry":{"coordinates":[8.744823,45.889993],"type":"Point"},"properties":{"osm_id":"4405619366","tag":{"natural":"tree"}},"type":"Feature"},
	{"geometry":{"coordinates":[8.742838,45.888782],"type":"Point"},"properties":{"osm_id":"4405619477","tag":{"natural":"tree"}},"type":"Feature"},
	{"geometry":{"coordinates":[8.743441,45.889139],"type":"Point"},"properties":{"osm_id":"4405619505","tag":{"natural":"tree"}},"type":"Feature"},
	{"geometry":{"coordinates":[8.744511,45.889146],"type":"Point"},"properties":{"osm_id":"4405619506","tag":{"natural":"tree"}},"type":"Feature"},
	{"geometry":{"coordinates":[8.743801,45.889346],"type":"Point"},"properties":{"osm_id":"4405619507","tag":{"natural":"tree"}},"type":"Feature"},
	{"geometry":{"coordinates":[8.744461,45.889939],"type":"Point"},"properties":{"osm_id":"4405619510","tag":{"natural":"tree"}},"type":"Feature"},
	{"geometry":{"coordinates":[8.749012,45.888298],"type":"Point"},"properties":{"osm_id":"4405622991","tag":{"natural":"tree"}},"type":"Feature"},
	{"geometry":{"coordinates":[8.747658,45.889531],"type":"Point"},"properties":{"osm_id":"4405623271","tag":{"natural":"tree"}},"type":"Feature"},
	{"geometry":{"coordinates":[8.745416,45.889667],"type":"Point"},"properties":{"osm_id":"4405639917","tag":{"natural":"tree"}},"type":"Feature"},
	{"geometry":{"coordinates":[8.745735,45.889471],"type":"Point"},"properties":{"osm_id":"4405640631","tag":{"natural":"tree"}},"type":"Feature"},
	{"geometry":{"coordinates":[8.74603,45.889469],"type":"Point"},"properties":{"osm_id":"4405640717","tag":{"natural":"tree"}},"type":"Feature"},
	{"geometry":{"coordinates":[8.747387,45.889669],"type":"Point"},"properties":{"osm_id":"4405640766","tag":{"natural":"tree"}},"type":"Feature"},
	{"geometry":{"coordinates":[8.745475,45.889951],"type":"Point"},"properties":{"osm_id":"4405641041","tag":{"natural":"tree"}},"type":"Feature"},
	{"geometry":{"coordinates":[8.776066,45.844604],"type":"Point"},"properties":{"osm_id":"4511904485","tag":{"natural":"tree"}},"type":"Feature"},
	{"geometry":{"coordinates":[8.775926,45.844651],"type":"Point"},"properties":{"osm_id":"4511904486","tag":{"natural":"tree"}},"type":"Feature"},
	{"geometry":{"coordinates":[8.776386,45.837725],"type":"Point"},"properties":{"osm_id":"4511905016","tag":{"natural":"tree"}},"type":"Feature"},
	{"geometry":{"coordinates":[8.771076,45.843378],"type":"Point"},"properties":{"osm_id":"4511905048","tag":{"natural":"tree"}},"type":"Feature"},
	{"geometry":{"coordinates":[8.771607,45.843968],"type":"Point"},"properties":{"osm_id":"4511905091","tag":{"natural":"tree"}},"type":"Feature"},
	{"geometry":{"coordinates":[8.765968,45.839615],"type":"Point"},"properties":{"osm_id":"4511932751","tag":{"natural":"tree"}},"type":"Feature"},
	{"geometry":{"coordinates":[8.76559,45.839631],"type":"Point"},"properties":{"osm_id":"4511932752","tag":{"natural":"tree"}},"type":"Feature"},
	{"geometry":{"coordinates":[8.766458,45.839586],"type":"Point"},"properties":{"osm_id":"4511933068","tag":{"natural":"tree"}},"type":"Feature"},
	{"geometry":{"coordinates":[8.766172,45.839601],"type":"Point"},"properties":{"osm_id":"4511933069","tag":{"natural":"tree"}},"type":"Feature"},
	{"geometry":{"coordinates":[8.765772,45.839622],"type":"Point"},"properties":{"osm_id":"4511933070","tag":{"natural":"tree"}},"type":"Feature"},
	{"geometry":{"coordinates":[8.766546,45.83959],"type":"Point"},"properties":{"osm_id":"4511933116","tag":{"natural":"tree"}},"type":"Feature"},
	{"geometry":{"coordinates":[8.76638,45.839589],"type":"Point"},"properties":{"osm_id":"4511933117","tag":{"natural":"tree"}},"type":"Feature"},
	{"geometry":{"coordinates":[8.766062,45.839608],"type":"Point"},"properties":{"osm_id":"4511933118","tag":{"natural":"tree"}},"type":"Feature"},
	{"geometry":{"coordinates":[8.765881,45.839618],"type":"Point"},"properties":{"osm_id":"4511933119","tag":{"natural":"tree"}},"type":"Feature"},
	{"geometry":{"coordinates":[8.765676,45.839624],"type":"Point"},"properties":{"osm_id":"4511933120","tag":{"natural":"tree"}},"type":"Feature"},
	{"geometry":{"coordinates":[8.765496,45.839631],"type":"Point"},"properties":{"osm_id":"4511933121","tag":{"natural":"tree"}},"type":"Feature"},
	{"geometry":{"coordinates":[8.765412,45.839642],"type":"Point"},"properties":{"osm_id":"4511933122","tag":{"natural":"tree"}},"type":"Feature"},
	{"geometry":{"coordinates":[8.765298,45.839649],"type":"Point"},"properties":{"osm_id":"4511933123","tag":{"natural":"tree"}},"type":"Feature"},
	{"geometry":{"coordinates":[8.765195,45.839653],"type":"Point"},"properties":{"osm_id":"4511933124","tag":{"natural":"tree"}},"type":"Feature"},
	{"geometry":{"coordinates":[8.765301,45.839816],"type":"Point"},"properties":{"osm_id":"4511989920","tag":{"natural":"tree"}},"type":"Feature"},
	{"geometry":{"coordinates":[8.766941,45.839327],"type":"Point"},"properties":{"osm_id":"4512003195","tag":{"natural":"tree"}},"type":"Feature"},
	{"geometry":{"coordinates":[8.76973,45.838247],"type":"Point"},"properties":{"osm_id":"4512007151","tag":{"natural":"tree"}},"type":"Feature"},
	{"geometry":{"coordinates":[8.765737,45.839126],"type":"Point"},"properties":{"osm_id":"4512038523","tag":{"natural":"tree"}},"type":"Feature"},
	{"geometry":{"coordinates":[8.764377,45.838716],"type":"Point"},"properties":{"osm_id":"4512039517","tag":{"natural":"tree"}},"type":"Feature"},
	{"geometry":{"coordinates":[8.764577,45.839078],"type":"Point"},"properties":{"osm_id":"4512039840","tag":{"natural":"tree"}},"type":"Feature"},
	{"geometry":{"coordinates":[8.765281,45.839122],"type":"Point"},"properties":{"osm_id":"4512040699","tag":{"natural":"tree"}},"type":"Feature"},
	{"geometry":{"coordinates":[8.762093,45.840088],"type":"Point"},"properties":{"osm_id":"4512045159","tag":{"natural":"tree"}},"type":"Feature"},
	{"geometry":{"coordinates":[8.716169,45.883761],"type":"Point"},"properties":{"osm_id":"4546465855","tag":{"natural":"tree"}},"type":"Feature"},
	{"geometry":{"coordinates":[8.715105,45.883884],"type":"Point"},"properties":{"osm_id":"4546465856","tag":{"natural":"tree"}},"type":"Feature"},
	{"geometry":{"coordinates":[8.716558,45.883964],"type":"Point"},"properties":{"osm_id":"4546466041","tag":{"natural":"tree"}},"type":"Feature"},
	{"geometry":{"coordinates":[8.715534,45.883916],"type":"Point"},"properties":{"osm_id":"4546466042","tag":{"natural":"tree"}},"type":"Feature"},
	{"geometry":{"coordinates":[8.714815,45.884201],"type":"Point"},"properties":{"osm_id":"4546466043","tag":{"natural":"tree"}},"type":"Feature"},
	{"geometry":{"coordinates":[8.715931,45.884618],"type":"Point"},"properties":{"osm_id":"4546466535","tag":{"natural":"tree"}},"type":"Feature"},
	{"geometry":{"coordinates":[8.718388,45.885659],"type":"Point"},"properties":{"osm_id":"4546467852","tag":{"natural":"tree"}},"type":"Feature"},
	{"geometry":{"coordinates":[8.715549,45.882823],"type":"Point"},"properties":{"osm_id":"4546479380","tag":{"natural":"tree"}},"type":"Feature"},
	{"geometry":{"coordinates":[8.707076,45.886398],"type":"Point"},"properties":{"osm_id":"4546479694","tag":{"natural":"tree"}},"type":"Feature"},
	{"geometry":{"coordinates":[8.716617,45.883761],"type":"Point"},"properties":{"osm_id":"4546486531","tag":{"natural":"tree"}},"type":"Feature"},
	{"geometry":{"coordinates":[8.717048,45.883795],"type":"Point"},"properties":{"osm_id":"4546486532","tag":{"natural":"tree"}},"type":"Feature"},
	{"geometry":{"coordinates":[8.718307,45.884913],"type":"Point"},"properties":{"osm_id":"4546487144","tag":{"natural":"tree"}},"type":"Feature"},
	{"geometry":{"coordinates":[8.719005,45.885058],"type":"Point"},"properties":{"osm_id":"4546487145","tag":{"natural":"tree"}},"type":"Feature"},
	{"geometry":{"coordinates":[8.719378,45.885183],"type":"Point"},"properties":{"osm_id":"4546487150","tag":{"natural":"tree"}},"type":"Feature"},
	{"geometry":{"coordinates":[8.71675,45.884019],"type":"Point"},"properties":{"osm_id":"4546487202","tag":{"natural":"tree"}},"type":"Feature"},
	{"geometry":{"coordinates":[8.71849,45.883095],"type":"Point"},"properties":{"osm_id":"4546506968","tag":{"natural":"tree"}},"type":"Feature"},
	{"geometry":{"coordinates":[8.719599,45.884153],"type":"Point"},"properties":{"osm_id":"4546507376","tag":{"natural":"tree"}},"type":"Feature"},
	{"geometry":{"coordinates":[8.788553,45.837265],"type":"Point"},"properties":{"osm_id":"5247119122","tag":{"natural":"tree"}},"type":"Feature"},
	{"geometry":{"coordinates":[8.784723,45.837796],"type":"Point"},"properties":{"osm_id":"5247148817","tag":{"natural":"tree"}},"type":"Feature"},
	{"geometry":{"coordinates":[8.784497,45.838024],"type":"Point"},"properties":{"osm_id":"5247148818","tag":{"natural":"tree"}},"type":"Feature"},
	{"geometry":{"coordinates":[8.783285,45.839395],"type":"Point"},"properties":{"osm_id":"5247148819","tag":{"natural":"tree"}},"type":"Feature"},
	{"geometry":{"coordinates":[8.782931,45.839481],"type":"Point"},"properties":{"osm_id":"5247148820","tag":{"natural":"tree"}},"type":"Feature"},
	{"geometry":{"coordinates":[8.785989,45.833232],"type":"Point"},"properties":{"osm_id":"5247166266","tag":{"natural":"tree"}},"type":"Feature"},
	{"geometry":{"coordinates":[8.786311,45.833131],"type":"Point"},"properties":{"osm_id":"5247166267","tag":{"natural":"tree"}},"type":"Feature"},
	{"geometry":{"coordinates":[8.786144,45.833176],"type":"Point"},"properties":{"osm_id":"5247166268","tag":{"natural":"tree"}},"type":"Feature"},
	{"geometry":{"coordinates":[8.764448,45.839963],"type":"Point"},"properties":{"osm_id":"5568809229","tag":{"natural":"tree"}},"type":"Feature"},
	{"geometry":{"coordinates":[8.764392,45.83965],"type":"Point"},"properties":{"osm_id":"5568809230","tag":{"natural":"tree"}},"type":"Feature"},
	{"geometry":{"coordinates":[8.7746,45.838964],"type":"Point"},"properties":{"osm_id":"5568829954","tag":{"natural":"tree"}},"type":"Feature"},
	{"geometry":{"coordinates":[8.774863,45.838857],"type":"Point"},"properties":{"osm_id":"5568829955","tag":{"natural":"tree"}},"type":"Feature"},
	{"geometry":{"coordinates":[8.775263,45.839162],"type":"Point"},"properties":{"osm_id":"5568829956","tag":{"natural":"tree"}},"type":"Feature"},
	{"geometry":{"coordinates":[8.775083,45.839117],"type":"Point"},"properties":{"osm_id":"5568829957","tag":{"natural":"tree"}},"type":"Feature"},
	{"geometry":{"coordinates":[8.775236,45.839556],"type":"Point"},"properties":{"osm_id":"5568829958","tag":{"natural":"tree"}},"type":"Feature"},
	{"geometry":{"coordinates":[8.77582,45.839147],"type":"Point"},"properties":{"osm_id":"5568829959","tag":{"natural":"tree"}},"type":"Feature"},
	{"geometry":{"coordinates":[8.775496,45.839644],"type":"Point"},"properties":{"osm_id":"5568829960","tag":{"natural":"tree"}},"type":"Feature"},
	{"geometry":{"coordinates":[8.777191,45.838091],"type":"Point"},"properties":{"osm_id":"5568868378","tag":{"natural":"tree"}},"type":"Feature"},
	{"geometry":{"coordinates":[8.777102,45.837882],"type":"Point"},"properties":{"osm_id":"5568868379","tag":{"natural":"tree"}},"type":"Feature"},
	{"geometry":{"coordinates":[8.772902,45.838048],"type":"Point"},"properties":{"osm_id":"5568868402","tag":{"natural":"tree"}},"type":"Feature"},
	{"geometry":{"coordinates":[8.773245,45.838205],"type":"Point"},"properties":{"osm_id":"5568868403","tag":{"natural":"tree"}},"type":"Feature"},
	{"geometry":{"coordinates":[8.762882,45.84086],"type":"Point"},"properties":{"osm_id":"5568870331","tag":{"natural":"tree"}},"type":"Feature"},
	{"geometry":{"coordinates":[8.763241,45.840976],"type":"Point"},"properties":{"osm_id":"5568870332","tag":{"natural":"tree"}},"type":"Feature"},
	{"geometry":{"coordinates":[8.763466,45.841114],"type":"Point"},"properties":{"osm_id":"5568870333","tag":{"natural":"tree"}},"type":"Feature"},
	{"geometry":{"coordinates":[8.754854,45.83944],"type":"Point"},"properties":{"osm_id":"5568870354","tag":{"natural":"tree"}},"type":"Feature"},
	{"geometry":{"coordinates":[8.758111,45.840027],"type":"Point"},"properties":{"name":"Cedrus atlantica","osm_id":"5597974780","tag":{"denotation":"natural_monument","leaf_cycle":"evergreen","leaf_type":"needleleaved","name:de":"Atlas-Zeder","name:en":"Atlas cedar","name:es":"Cedro del Atlas","name:fr":"C\u00c3\u00a8dre de l'Atlas","name:it":"Cedro dell' Atlante","natural":"tree"}},"type":"Feature"},
	{"geometry":{"coordinates":[8.74313,45.835391],"type":"Point"},"properties":{"osm_id":"6183693283","tag":{"natural":"tree"}},"type":"Feature"},
	{"geometry":{"coordinates":[8.741864,45.839947],"type":"Point"},"properties":{"osm_id":"6183693507","tag":{"natural":"tree"}},"type":"Feature"},
	{"geometry":{"coordinates":[8.743849,45.842755],"type":"Point"},"properties":{"osm_id":"6183693533","tag":{"natural":"tree"}},"type":"Feature"},
	{"geometry":{"coordinates":[8.743722,45.842955],"type":"Point"},"properties":{"osm_id":"6183693534","tag":{"natural":"tree"}},"type":"Feature"},
	{"geometry":{"coordinates":[8.74785,45.847477],"type":"Point"},"properties":{"osm_id":"6183693692","tag":{"natural":"tree"}},"type":"Feature"},
	{"geometry":{"coordinates":[8.74777,45.847288],"type":"Point"},"properties":{"osm_id":"6183693693","tag":{"natural":"tree"}},"type":"Feature"},
	{"geometry":{"coordinates":[8.748349,45.847705],"type":"Point"},"properties":{"osm_id":"6183693694","tag":{"natural":"tree"}},"type":"Feature"},
	{"geometry":{"coordinates":[8.748105,45.847714],"type":"Point"},"properties":{"osm_id":"6183693695","tag":{"natural":"tree"}},"type":"Feature"},
	{"geometry":{"coordinates":[8.739552,45.834832],"type":"Point"},"properties":{"osm_id":"6183762153","tag":{"natural":"tree"}},"type":"Feature"},
	{"geometry":{"coordinates":[8.746657,45.841793],"type":"Point"},"properties":{"osm_id":"6183782420","tag":{"natural":"tree"}},"type":"Feature"},
	{"geometry":{"coordinates":[8.770789,45.8381],"type":"Point"},"properties":{"osm_id":"6203229479","tag":{"natural":"tree"}},"type":"Feature"},
	{"geometry":{"coordinates":[8.762047,45.841223],"type":"Point"},"properties":{"osm_id":"6203252382","tag":{"natural":"tree"}},"type":"Feature"},
	{"geometry":{"coordinates":[8.762251,45.840343],"type":"Point"},"properties":{"osm_id":"6203252383","tag":{"natural":"tree"}},"type":"Feature"},
	{"geometry":{"coordinates":[8.763372,45.839973],"type":"Point"},"properties":{"osm_id":"6203252384","tag":{"natural":"tree"}},"type":"Feature"},
	{"geometry":{"coordinates":[8.764536,45.842542],"type":"Point"},"properties":{"osm_id":"6203254605","tag":{"natural":"tree"}},"type":"Feature"},
	{"geometry":{"coordinates":[8.764515,45.842994],"type":"Point"},"properties":{"osm_id":"6203254606","tag":{"natural":"tree"}},"type":"Feature"},
	{"geometry":{"coordinates":[8.764303,45.842675],"type":"Point"},"properties":{"osm_id":"6203254607","tag":{"natural":"tree"}},"type":"Feature"},
	{"geometry":{"coordinates":[8.763423,45.840188],"type":"Point"},"properties":{"osm_id":"6203254985","tag":{"natural":"tree"}},"type":"Feature"},
	{"geometry":{"coordinates":[8.762962,45.840175],"type":"Point"},"properties":{"osm_id":"6203254986","tag":{"natural":"tree"}},"type":"Feature"},
	{"geometry":{"coordinates":[8.763241,45.840128],"type":"Point"},"properties":{"osm_id":"6203254987","tag":{"natural":"tree"}},"type":"Feature"},
	{"geometry":{"coordinates":[8.762804,45.843046],"type":"Point"},"properties":{"osm_id":"6203274674","tag":{"natural":"tree"}},"type":"Feature"},
	{"geometry":{"coordinates":[8.762734,45.843159],"type":"Point"},"properties":{"osm_id":"6203274675","tag":{"natural":"tree"}},"type":"Feature"},
	{"geometry":{"coordinates":[8.763026,45.842566],"type":"Point"},"properties":{"osm_id":"6203274676","tag":{"natural":"tree"}},"type":"Feature"},
	{"geometry":{"coordinates":[8.762501,45.842843],"type":"Point"},"properties":{"osm_id":"6203274677","tag":{"natural":"tree"}},"type":"Feature"},
	{"geometry":{"coordinates":[8.762833,45.842862],"type":"Point"},"properties":{"osm_id":"6203274678","tag":{"natural":"tree"}},"type":"Feature"},
	{"geometry":{"coordinates":[8.763313,45.840827],"type":"Point"},"properties":{"osm_id":"6203274687","tag":{"natural":"tree"}},"type":"Feature"},
	{"geometry":{"coordinates":[8.763643,45.841294],"type":"Point"},"properties":{"osm_id":"6203274692","tag":{"natural":"tree"}},"type":"Feature"},
	{"geometry":{"coordinates":[8.762855,45.841262],"type":"Point"},"properties":{"osm_id":"6203274693","tag":{"natural":"tree"}},"type":"Feature"},
	{"geometry":{"coordinates":[8.757536,45.836992],"type":"Point"},"properties":{"osm_id":"6203274716","tag":{"natural":"tree"}},"type":"Feature"},
	{"geometry":{"coordinates":[8.756793,45.840823],"type":"Point"},"properties":{"osm_id":"6203274743","tag":{"natural":"tree"}},"type":"Feature"},
	{"geometry":{"coordinates":[8.756415,45.840262],"type":"Point"},"properties":{"osm_id":"6203274744","tag":{"natural":"tree"}},"type":"Feature"},
	{"geometry":{"coordinates":[8.756098,45.840845],"type":"Point"},"properties":{"osm_id":"6203274745","tag":{"natural":"tree"}},"type":"Feature"}
]
}
