{
"type": "FeatureCollection",
"features": [
	{"geometry":{"coordinates":[23.556722,46.756611],"type":"Point"},"properties":{"osm_id":"564680410","tag":{"amenity":"recycling","recycling_type":"container"}},"type":"Feature"},
	{"geometry":{"coordinates":[23.566217,46.769799],"type":"Point"},"properties":{"osm_id":"742631900","tag":{"addr:city":"Cluj-Napoca","addr:country":"RO","amenity":"recycling","recycling:cans":"yes","recycling:glass":"yes","recycling:paper":"yes"}},"type":"Feature"},
	{"geometry":{"coordinates":[23.61773,46.770943],"type":"Point"},"properties":{"osm_id":"1903308357","tag":{"amenity":"waste_disposal","waste":"trash"}},"type":"Feature"},
	{"geometry":{"coordinates":[23.579385,46.750735],"type":"Point"},"properties":{"name":"Recycling bins","osm_id":"1987334888","tag":{"amenity":"recycling","recycling_type":"container"}},"type":"Feature"},
	{"geometry":{"coordinates":[23.621678,46.777082],"type":"Point"},"properties":{"osm_id":"2820168758","tag":{"amenity":"waste_disposal","waste":"trash"}},"type":"Feature"},
	{"geometry":{"coordinates":[23.615248,46.763432],"type":"Point"},"properties":{"osm_id":"2820216105","tag":{"amenity":"recycling","recycling:cans":"yes","recycling:clothes":"yes","recycling:glass":"yes","recycling:paper":"yes"}},"type":"Feature"},
	{"geometry":{"coordinates":[23.61414,46.764675],"type":"Point"},"properties":{"osm_id":"2822533012","tag":{"amenity":"recycling","operator":"Brantner-Veres","recycling:cans":"yes","recycling:clothes":"no","recycling:glass":"no","recycling:paper":"yes"}},"type":"Feature"},
	{"geometry":{"coordinates":[23.587397,46.783679],"type":"Point"},"properties":{"name":"Container pentru colectarea hainelor folosite","osm_id":"2831632602","tag":{"addr:city":"Cluj-Napoca","addr:street":"Strada Horea","amenity":"recycling","operator":"caritas eparhial greco-catolic Cluj-Napoca","recycling:clothes":"yes","recycling_type":"container"}},"type":"Feature"},
	{"geometry":{"coordinates":[23.587074,46.776946],"type":"Point"},"properties":{"osm_id":"2834279301","tag":{"addr:city":"Cluj-Napoca","amenity":"recycling","recycling:metal":"yes","recycling:paper":"yes","recycling:plastic":"yes","recycling_type":"container"}},"type":"Feature"},
	{"geometry":{"coordinates":[23.587386,46.777963],"type":"Point"},"properties":{"osm_id":"2834526110","tag":{"amenity":"recycling","operator":"Caritas","recycling:clothes":"yes","recycling_type":"container"}},"type":"Feature"},
	{"geometry":{"coordinates":[23.609832,46.798902],"type":"Point"},"properties":{"osm_id":"2843093424","tag":{"amenity":"recycling","recycling:clothes":"yes"}},"type":"Feature"},
	{"geometry":{"coordinates":[23.579287,46.768469],"type":"Point"},"properties":{"osm_id":"2904848701","tag":{"amenity":"recycling","recycling:cans":"yes","recycling:paper":"yes","recycling:scrap_metal":"yes","recycling_type":"container"}},"type":"Feature"},
	{"geometry":{"coordinates":[23.628642,46.767943],"type":"Point"},"properties":{"osm_id":"2914628401","tag":{"amenity":"recycling","recycling:clothes":"yes","recycling_type":"container"}},"type":"Feature"},
	{"geometry":{"coordinates":[23.629714,46.767998],"type":"Point"},"properties":{"osm_id":"2914628501","tag":{"amenity":"recycling","image":"https://storage9.openstreetcam.org/files/photo/2018/11/9/lth/1305365_8_802fa_24.jpg","recycling:cans":"yes","recycling:glass":"no","recycling:glass_bottles":"yes","recycling:paper":"yes","recycling:scrap_metal":"yes","recycling_type":"container","survey:date":"2018-11-09"}},"type":"Feature"},
	{"geometry":{"coordinates":[23.587814,46.762399],"type":"Point"},"properties":{"osm_id":"2917319901","tag":{"amenity":"waste_disposal"}},"type":"Feature"},
	{"geometry":{"coordinates":[23.586219,46.774461],"type":"Point"},"properties":{"osm_id":"2929772801","tag":{"amenity":"recycling","recycling:cans":"yes","recycling:paper":"yes","recycling:plastic":"yes","recycling:scrap_metal":"yes","recycling_type":"container"}},"type":"Feature"},
	{"geometry":{"coordinates":[23.586234,46.774457],"type":"Point"},"properties":{"osm_id":"2929772901","tag":{"amenity":"waste_disposal"}},"type":"Feature"},
	{"geometry":{"coordinates":[23.607097,46.773342],"type":"Point"},"properties":{"osm_id":"2947431133","tag":{"addr:city":"Cluj-Napoca","addr:country":"RO","addr:street":"Calea Doroban\u00c8\u009bilor","amenity":"recycling","recycling:clothes":"yes","recycling_type":"container"}},"type":"Feature"},
	{"geometry":{"coordinates":[23.581932,46.776766],"type":"Point"},"properties":{"osm_id":"2950210934","tag":{"amenity":"recycling","recycling:cans":"yes","recycling:electronic":"yes","recycling:paper":"yes","recycling:scrap_metal":"yes","recycling_type":"container"}},"type":"Feature"},
	{"geometry":{"coordinates":[23.583418,46.774431],"type":"Point"},"properties":{"osm_id":"2950211034","tag":{"amenity":"waste_disposal"}},"type":"Feature"},
	{"geometry":{"coordinates":[23.590303,46.775675],"type":"Point"},"properties":{"osm_id":"2956812633","tag":{"amenity":"recycling","recycling_type":"container"}},"type":"Feature"},
	{"geometry":{"coordinates":[23.614955,46.759558],"type":"Point"},"properties":{"osm_id":"2989674306","tag":{"amenity":"recycling","recycling:cans":"yes","recycling:glass":"yes","recycling:paper":"yes"}},"type":"Feature"},
	{"geometry":{"coordinates":[23.614045,46.760345],"type":"Point"},"properties":{"osm_id":"2989674307","tag":{"amenity":"recycling","recycling:clothes":"yes"}},"type":"Feature"},
	{"geometry":{"coordinates":[23.582363,46.769431],"type":"Point"},"properties":{"osm_id":"3007060334","tag":{"amenity":"recycling","recycling:cans":"yes","recycling:paper":"yes","recycling:plastic":"yes","recycling:scrap_metal":"yes","recycling_type":"container"}},"type":"Feature"},
	{"geometry":{"coordinates":[23.641154,46.789212],"type":"Point"},"properties":{"osm_id":"3060049034","tag":{"amenity":"recycling","recycling_type":"container"}},"type":"Feature"},
	{"geometry":{"coordinates":[23.64115,46.78917],"type":"Point"},"properties":{"osm_id":"3060049035","tag":{"amenity":"waste_disposal"}},"type":"Feature"},
	{"geometry":{"coordinates":[23.617125,46.769079],"type":"Point"},"properties":{"osm_id":"3510610171","tag":{"amenity":"recycling","recycling:clothes":"yes","recycling_type":"container"}},"type":"Feature"},
	{"geometry":{"coordinates":[23.612285,46.769936],"type":"Point"},"properties":{"osm_id":"3510610179","tag":{"amenity":"waste_disposal"}},"type":"Feature"},
	{"geometry":{"coordinates":[23.609864,46.777272],"type":"Point"},"properties":{"osm_id":"3623068771","tag":{"amenity":"recycling","recycling:cans":"yes","recycling:paper":"yes","recycling:scrap_metal":"yes","recycling_type":"container"}},"type":"Feature"},
	{"geometry":{"coordinates":[23.611166,46.777811],"type":"Point"},"properties":{"osm_id":"3623068772","tag":{"amenity":"recycling","recycling:cans":"yes","recycling:paper":"yes","recycling:plastic":"yes","recycling:scrap_metal":"yes","recycling_type":"container"}},"type":"Feature"},
	{"geometry":{"coordinates":[23.606949,46.777557],"type":"Point"},"properties":{"osm_id":"3623148907","tag":{"amenity":"recycling"}},"type":"Feature"},
	{"geometry":{"coordinates":[23.562929,46.76637],"type":"Point"},"properties":{"osm_id":"3625504499","tag":{"addr:city":"Cluj-Napoca","addr:country":"RO","amenity":"recycling","opening_hours":"24/7","recycling:cans":"yes","recycling:cardboard":"yes","recycling:paper":"yes","recycling:plastic":"yes","recycling:plastic_bottles":"yes","recycling:plastic_packaging":"yes","recycling:scrap_metal":"yes","recycling_type":"container"}},"type":"Feature"},
	{"geometry":{"coordinates":[23.608839,46.763404],"type":"Point"},"properties":{"osm_id":"3694688267","tag":{"amenity":"recycling"}},"type":"Feature"},
	{"geometry":{"coordinates":[23.599658,46.768004],"type":"Point"},"properties":{"osm_id":"3694688268","tag":{"amenity":"recycling"}},"type":"Feature"},
	{"geometry":{"coordinates":[23.589646,46.759582],"type":"Point"},"properties":{"osm_id":"3794832027","tag":{"amenity":"recycling"}},"type":"Feature"},
	{"geometry":{"coordinates":[23.624643,46.771305],"type":"Point"},"properties":{"osm_id":"3861231021","tag":{"amenity":"waste_disposal"}},"type":"Feature"},
	{"geometry":{"coordinates":[23.625315,46.77138],"type":"Point"},"properties":{"osm_id":"3861231022","tag":{"amenity":"recycling","recycling:clothes":"yes","recycling_type":"container"}},"type":"Feature"},
	{"geometry":{"coordinates":[23.580582,46.754168],"type":"Point"},"properties":{"osm_id":"4128193719","tag":{"amenity":"recycling","recycling:paper":"yes","recycling:plastic":"yes","recycling:scrap_metal":"yes","recycling_type":"container"}},"type":"Feature"},
	{"geometry":{"coordinates":[23.626171,46.783304],"type":"Point"},"properties":{"osm_id":"4128211085","tag":{"amenity":"waste_disposal"}},"type":"Feature"},
	{"geometry":{"coordinates":[23.628554,46.775871],"type":"Point"},"properties":{"osm_id":"4132763199","tag":{"addr:city":"Cluj-Napoca","addr:street":"Strada Tulcea","amenity":"recycling"}},"type":"Feature"},
	{"geometry":{"coordinates":[23.63414,46.776686],"type":"Point"},"properties":{"osm_id":"4132782078","tag":{"amenity":"recycling"}},"type":"Feature"},
	{"geometry":{"coordinates":[23.584755,46.75352],"type":"Point"},"properties":{"osm_id":"4281468873","tag":{"amenity":"recycling","recycling:cans":"yes","recycling:paper":"yes","recycling:plastic":"yes","recycling:plastic_bottles":"yes","recycling:plastic_packaging":"yes","recycling:scrap_metal":"yes","recycling_type":"container"}},"type":"Feature"},
	{"geometry":{"coordinates":[23.627069,46.764611],"type":"Point"},"properties":{"osm_id":"4360174689","tag":{"amenity":"waste_basket"}},"type":"Feature"},
	{"geometry":{"coordinates":[23.614046,46.761474],"type":"Point"},"properties":{"osm_id":"4366587688","tag":{"amenity":"recycling","recycling:cans":"yes","recycling:clothes":"no","recycling:paper":"yes","recycling:scrap_metal":"yes"}},"type":"Feature"},
	{"geometry":{"coordinates":[23.614998,46.761857],"type":"Point"},"properties":{"osm_id":"4366589789","tag":{"amenity":"recycling","recycling:glass":"yes"}},"type":"Feature"},
	{"geometry":{"coordinates":[23.616032,46.759797],"type":"Point"},"properties":{"osm_id":"4366632800","tag":{"amenity":"recycling","recycling_type":"container"}},"type":"Feature"},
	{"geometry":{"coordinates":[23.623993,46.77059],"type":"Point"},"properties":{"osm_id":"4366634551","tag":{"amenity":"waste_disposal"}},"type":"Feature"},
	{"geometry":{"coordinates":[23.623901,46.770911],"type":"Point"},"properties":{"osm_id":"4366634552","tag":{"amenity":"recycling","recycling:plastic":"yes","recycling_type":"container"}},"type":"Feature"},
	{"geometry":{"coordinates":[23.621298,46.771206],"type":"Point"},"properties":{"osm_id":"4366634553","tag":{"amenity":"waste_basket"}},"type":"Feature"},
	{"geometry":{"coordinates":[23.623738,46.771901],"type":"Point"},"properties":{"osm_id":"4366634554","tag":{"amenity":"waste_basket"}},"type":"Feature"},
	{"geometry":{"coordinates":[23.608389,46.768581],"type":"Point"},"properties":{"osm_id":"4572165389","tag":{"amenity":"recycling"}},"type":"Feature"},
	{"geometry":{"coordinates":[23.612468,46.795077],"type":"Point"},"properties":{"name":"Recycle International","osm_id":"5282384296","tag":{"addr:city":"Cluj-Napoca","addr:street":"Strada Sobarilor","amenity":"recycling","opening_hours":"Mo-Fr 07:00-16:00","operator":"SC Recycle International SRL","recycling:cardboard":"yes","recycling:glass":"yes","recycling:glass_bottles":"yes","recycling:paper":"yes","recycling_type":"centre","website":"http://www.recycleinternational.ro/"}},"type":"Feature"},
	{"geometry":{"coordinates":[23.611497,46.770252],"type":"Point"},"properties":{"osm_id":"5695333521","tag":{"amenity":"waste_disposal","operator":"Punct colectare selectiva gunoi"}},"type":"Feature"},
	{"geometry":{"coordinates":[23.615891,46.782768],"type":"Point"},"properties":{"osm_id":"5906973472","tag":{"amenity":"waste_disposal"}},"type":"Feature"},
	{"geometry":{"coordinates":[23.606806,46.750313],"type":"Point"},"properties":{"osm_id":"6337585060","tag":{"amenity":"recycling","recycling:clothes":"yes","recycling_type":"container"}},"type":"Feature"},
	{"geometry":{"coordinates":[23.628026,46.754578],"type":"Point"},"properties":{"osm_id":"6344907779","tag":{"amenity":"recycling","operator":"Caritas","recycling:clothes":"yes","recycling_type":"container"}},"type":"Feature"},
	{"geometry":{"coordinates":[23.611139,46.77781],"type":"Point"},"properties":{"osm_id":"6356323422","tag":{"amenity":"recycling","operator":"Caritas","recycling:clothes":"yes","recycling_type":"container"}},"type":"Feature"},
	{"geometry":{"coordinates":[23.596534,46.747808],"type":"Point"},"properties":{"osm_id":"6445230180","tag":{"amenity":"recycling","operator":"Caritas","recycling:clothes":"yes","recycling_type":"container"}},"type":"Feature"},
	{"geometry":{"coordinates":[23.60605,46.761849],"type":"Point"},"properties":{"osm_id":"6447443480","tag":{"amenity":"recycling","operator":"Caritas","recycling:clothes":"yes","recycling_type":"container"}},"type":"Feature"},
	{"geometry":{"coordinates":[23.595996,46.783404],"type":"Point"},"properties":{"osm_id":"6839934361","tag":{"amenity":"waste_basket"}},"type":"Feature"},
	{"geometry":{"coordinates":[23.595578,46.782324],"type":"Point"},"properties":{"osm_id":"6839953070","tag":{"amenity":"waste_basket"}},"type":"Feature"},
	{"geometry":{"coordinates":[23.614698,46.758216],"type":"Point"},"properties":{"osm_id":"7098595081","tag":{"amenity":"recycling","recycling:cans":"yes","recycling:glass":"yes","recycling:paper":"yes","recycling:plastic":"yes","recycling_type":"container"}},"type":"Feature"},
	{"geometry":{"coordinates":[23.559293,46.755816],"type":"Point"},"properties":{"osm_id":"7473004711","tag":{"amenity":"waste_disposal","recycling:PET":"yes","recycling:aluminium":"yes","recycling:cans":"yes","recycling:cardboard":"yes","recycling:glass":"yes","recycling:glass_bottles":"yes","recycling:paper":"yes","recycling:plastic_bottles":"yes","recycling:plastic_packaging":"yes","recycling:scrap_metal":"yes","recycling:waste":"yes","recycling_type":"container"}},"type":"Feature"},
	{"geometry":{"coordinates":[23.563653,46.752648],"type":"Point"},"properties":{"osm_id":"7473089628","tag":{"amenity":"waste_disposal","recycling:PET":"yes","recycling:aluminium":"yes","recycling:cans":"yes","recycling:cardboard":"yes","recycling:glass":"yes","recycling:glass_bottles":"yes","recycling:paper":"yes","recycling:plastic":"yes","recycling:plastic_bottles":"yes","recycling:plastic_packaging":"yes","recycling:scrap_metal":"yes","recycling_type":"container"}},"type":"Feature"},
	{"geometry":{"coordinates":[23.612015,46.79453],"type":"Point"},"properties":{"osm_id":"7676292514","tag":{"amenity":"waste_disposal"}},"type":"Feature"},
	{"geometry":{"coordinates":[23.559497,46.758084],"type":"Point"},"properties":{"osm_id":"8255021682","tag":{"amenity":"recycling","recycling_type":"container"}},"type":"Feature"},
	{"geometry":{"coordinates":[23.558654,46.758168],"type":"Point"},"properties":{"osm_id":"8255021688","tag":{"amenity":"recycling","recycling_type":"container"}},"type":"Feature"},
	{"geometry":{"coordinates":[23.559919,46.758757],"type":"Point"},"properties":{"osm_id":"8255026434","tag":{"amenity":"recycling","recycling_type":"container"}},"type":"Feature"},
	{"geometry":{"coordinates":[23.609938,46.769727],"type":"Point"},"properties":{"osm_id":"8256904469","tag":{"amenity":"recycling","recycling:aluminium":"yes","recycling:plastic":"yes","recycling_type":"container"}},"type":"Feature"},
	{"geometry":{"coordinates":[23.610757,46.770891],"type":"Point"},"properties":{"osm_id":"8257243640","tag":{"amenity":"recycling","recycling:aluminium":"yes","recycling:cardboard":"yes","recycling:paper":"yes","recycling:plastic":"yes","recycling:plastic_bottles":"yes","recycling_type":"container"}},"type":"Feature"},
	{"geometry":{"coordinates":[23.613145,46.753202],"type":"Point"},"properties":{"osm_id":"8270051123","tag":{"amenity":"recycling","operator":"Asocia\u00c8\u009bia filantropia Cluj-Napoca","recycling:clothes":"yes","recycling_type":"container"}},"type":"Feature"},
	{"geometry":{"coordinates":[23.619072,46.762228],"type":"Point"},"properties":{"osm_id":"8656413718","tag":{"amenity":"recycling","recycling_type":"container"}},"type":"Feature"},
	{"geometry":{"coordinates":[23.620901,46.762583],"type":"Point"},"properties":{"osm_id":"8656413719","tag":{"amenity":"recycling","recycling_type":"container"}},"type":"Feature"},
	{"geometry":{"coordinates":[23.623012,46.763488],"type":"Point"},"properties":{"osm_id":"8656413720","tag":{"amenity":"recycling","recycling_type":"container"}},"type":"Feature"},
	{"geometry":{"coordinates":[23.620763,46.766701],"type":"Point"},"properties":{"osm_id":"8656413721","tag":{"amenity":"recycling","recycling_type":"container"}},"type":"Feature"},
	{"geometry":{"coordinates":[23.615144,46.762374],"type":"Point"},"properties":{"osm_id":"8656413819","tag":{"amenity":"recycling","recycling_type":"container"}},"type":"Feature"},
	{"geometry":{"coordinates":[23.623457,46.765614],"type":"Point"},"properties":{"osm_id":"8656413820","tag":{"amenity":"recycling","recycling_type":"container"}},"type":"Feature"},
	{"geometry":{"coordinates":[23.621931,46.766128],"type":"Point"},"properties":{"osm_id":"8656413821","tag":{"amenity":"recycling","recycling_type":"container"}},"type":"Feature"},
	{"geometry":{"coordinates":[23.614428,46.762599],"type":"Point"},"properties":{"osm_id":"8656413822","tag":{"amenity":"recycling","recycling_type":"container"}},"type":"Feature"},
	{"geometry":{"coordinates":[23.615322,46.76161],"type":"Point"},"properties":{"osm_id":"8656415017","tag":{"amenity":"recycling","recycling_type":"container"}},"type":"Feature"},
	{"geometry":{"coordinates":[23.620548,46.763437],"type":"Point"},"properties":{"osm_id":"8656415018","tag":{"amenity":"recycling","recycling_type":"container"}},"type":"Feature"},
	{"geometry":{"coordinates":[23.621858,46.763618],"type":"Point"},"properties":{"osm_id":"8656415019","tag":{"amenity":"recycling","recycling_type":"container"}},"type":"Feature"},
	{"geometry":{"coordinates":[23.623162,46.766689],"type":"Point"},"properties":{"osm_id":"8656415020","tag":{"amenity":"recycling","recycling_type":"container"}},"type":"Feature"},
	{"geometry":{"coordinates":[23.617234,46.761925],"type":"Point"},"properties":{"osm_id":"8656415117","tag":{"amenity":"recycling","recycling_type":"container"}},"type":"Feature"},
	{"geometry":{"coordinates":[23.622365,46.765125],"type":"Point"},"properties":{"osm_id":"8656415317","tag":{"amenity":"recycling","recycling_type":"container"}},"type":"Feature"},
	{"geometry":{"coordinates":[23.620631,46.765947],"type":"Point"},"properties":{"osm_id":"8656415417","tag":{"amenity":"recycling","recycling_type":"container"}},"type":"Feature"},
	{"geometry":{"coordinates":[23.609813,46.768832],"type":"Point"},"properties":{"osm_id":"8656471317","tag":{"amenity":"recycling","recycling_type":"container"}},"type":"Feature"},
	{"geometry":{"coordinates":[23.612372,46.768977],"type":"Point"},"properties":{"osm_id":"8656471417","tag":{"amenity":"recycling","recycling_type":"container"}},"type":"Feature"},
	{"geometry":{"coordinates":[23.604159,46.768013],"type":"Point"},"properties":{"osm_id":"8656471418","tag":{"amenity":"recycling","recycling_type":"container"}},"type":"Feature"},
	{"geometry":{"coordinates":[23.61345,46.76897],"type":"Point"},"properties":{"osm_id":"8656471517","tag":{"amenity":"recycling","recycling_type":"container"}},"type":"Feature"},
	{"geometry":{"coordinates":[23.613016,46.764002],"type":"Point"},"properties":{"osm_id":"8656511518","tag":{"amenity":"recycling","recycling_type":"container"}},"type":"Feature"},
	{"geometry":{"coordinates":[23.619551,46.764145],"type":"Point"},"properties":{"osm_id":"8656515918","tag":{"amenity":"recycling","recycling_type":"container"}},"type":"Feature"},
	{"geometry":{"coordinates":[23.617713,46.763766],"type":"Point"},"properties":{"osm_id":"8656515919","tag":{"amenity":"recycling","recycling_type":"container"}},"type":"Feature"},
	{"geometry":{"coordinates":[23.614335,46.763221],"type":"Point"},"properties":{"osm_id":"8656518517","tag":{"amenity":"recycling","recycling_type":"container"}},"type":"Feature"},
	{"geometry":{"coordinates":[23.616154,46.763644],"type":"Point"},"properties":{"osm_id":"8656518617","tag":{"amenity":"recycling","recycling_type":"container"}},"type":"Feature"},
	{"geometry":{"coordinates":[23.621955,46.764163],"type":"Point"},"properties":{"osm_id":"8656518618","tag":{"amenity":"recycling","recycling_type":"container"}},"type":"Feature"},
	{"geometry":{"coordinates":[23.615538,46.763503],"type":"Point"},"properties":{"osm_id":"8656518717","tag":{"amenity":"recycling","recycling_type":"container"}},"type":"Feature"},
	{"geometry":{"coordinates":[23.622177,46.764657],"type":"Point"},"properties":{"osm_id":"8656518817","tag":{"amenity":"recycling","recycling_type":"container"}},"type":"Feature"},
	{"geometry":{"coordinates":[23.620024,46.764616],"type":"Point"},"properties":{"osm_id":"8656540117","tag":{"amenity":"recycling","recycling_type":"container"}},"type":"Feature"},
	{"geometry":{"coordinates":[23.620125,46.76423],"type":"Point"},"properties":{"osm_id":"8656540217","tag":{"amenity":"recycling","recycling_type":"container"}},"type":"Feature"},
	{"geometry":{"coordinates":[23.618214,46.76748],"type":"Point"},"properties":{"osm_id":"8656540218","tag":{"amenity":"recycling","recycling_type":"container"}},"type":"Feature"},
	{"geometry":{"coordinates":[23.617213,46.763807],"type":"Point"},"properties":{"osm_id":"8656540317","tag":{"amenity":"recycling","recycling_type":"container"}},"type":"Feature"},
	{"geometry":{"coordinates":[23.615757,46.763457],"type":"Point"},"properties":{"osm_id":"8656540318","tag":{"amenity":"recycling","recycling_type":"container"}},"type":"Feature"},
	{"geometry":{"coordinates":[23.615674,46.76439],"type":"Point"},"properties":{"osm_id":"8656540319","tag":{"amenity":"recycling","recycling_type":"container"}},"type":"Feature"},
	{"geometry":{"coordinates":[23.617449,46.768123],"type":"Point"},"properties":{"osm_id":"8656540320","tag":{"amenity":"recycling","recycling_type":"container"}},"type":"Feature"},
	{"geometry":{"coordinates":[23.615357,46.76467],"type":"Point"},"properties":{"osm_id":"8656540517","tag":{"amenity":"recycling","recycling_type":"container"}},"type":"Feature"},
	{"geometry":{"coordinates":[23.614818,46.763716],"type":"Point"},"properties":{"osm_id":"8656540617","tag":{"amenity":"recycling","recycling_type":"container"}},"type":"Feature"},
	{"geometry":{"coordinates":[23.601635,46.767977],"type":"Point"},"properties":{"osm_id":"8662529017","tag":{"amenity":"recycling","recycling_type":"container"}},"type":"Feature"},
	{"geometry":{"coordinates":[23.602683,46.767666],"type":"Point"},"properties":{"osm_id":"8662529117","tag":{"amenity":"recycling","recycling_type":"container"}},"type":"Feature"},
	{"geometry":{"coordinates":[23.590831,46.769388],"type":"Point"},"properties":{"osm_id":"8662531918","tag":{"amenity":"recycling","recycling_type":"container"}},"type":"Feature"},
	{"geometry":{"coordinates":[23.606898,46.768378],"type":"Point"},"properties":{"osm_id":"8662923438","tag":{"amenity":"recycling","recycling_type":"container"}},"type":"Feature"},
	{"geometry":{"coordinates":[23.61641,46.77066],"type":"Point"},"properties":{"osm_id":"8662925532","tag":{"amenity":"recycling","recycling_type":"container"}},"type":"Feature"},
	{"geometry":{"coordinates":[23.613237,46.757328],"type":"Point"},"properties":{"osm_id":"8662927417","tag":{"amenity":"recycling","recycling_type":"container"}},"type":"Feature"},
	{"geometry":{"coordinates":[23.620846,46.769598],"type":"Point"},"properties":{"osm_id":"8664212818","tag":{"amenity":"recycling","recycling_type":"container"}},"type":"Feature"},
	{"geometry":{"coordinates":[23.621558,46.769374],"type":"Point"},"properties":{"osm_id":"8664214537","tag":{"amenity":"recycling","recycling_type":"container"}},"type":"Feature"},
	{"geometry":{"coordinates":[23.625404,46.769894],"type":"Point"},"properties":{"osm_id":"8664229018","tag":{"amenity":"recycling","recycling_type":"container"}},"type":"Feature"},
	{"geometry":{"coordinates":[23.621495,46.768993],"type":"Point"},"properties":{"osm_id":"8664229617","tag":{"amenity":"recycling","recycling_type":"container"}},"type":"Feature"},
	{"geometry":{"coordinates":[23.623776,46.769375],"type":"Point"},"properties":{"osm_id":"8664229619","tag":{"amenity":"recycling","recycling_type":"container"}},"type":"Feature"},
	{"geometry":{"coordinates":[23.624404,46.769218],"type":"Point"},"properties":{"osm_id":"8664229620","tag":{"amenity":"recycling","recycling_type":"container"}},"type":"Feature"},
	{"geometry":{"coordinates":[23.626268,46.769587],"type":"Point"},"properties":{"osm_id":"8664247417","tag":{"amenity":"recycling","recycling_type":"container"}},"type":"Feature"},
	{"geometry":{"coordinates":[23.626984,46.76967],"type":"Point"},"properties":{"osm_id":"8664247517","tag":{"amenity":"recycling","recycling_type":"container"}},"type":"Feature"},
	{"geometry":{"coordinates":[23.628266,46.768801],"type":"Point"},"properties":{"osm_id":"8664247519","tag":{"amenity":"recycling","recycling_type":"container"}},"type":"Feature"},
	{"geometry":{"coordinates":[23.627504,46.768927],"type":"Point"},"properties":{"osm_id":"8664253217","tag":{"amenity":"recycling","recycling_type":"container"}},"type":"Feature"},
	{"geometry":{"coordinates":[23.626721,46.768392],"type":"Point"},"properties":{"osm_id":"8664254817","tag":{"amenity":"recycling","recycling_type":"container"}},"type":"Feature"},
	{"geometry":{"coordinates":[23.624524,46.770296],"type":"Point"},"properties":{"osm_id":"8704832665","tag":{"amenity":"waste_disposal"}},"type":"Feature"},
	{"geometry":{"coordinates":[23.554844,46.757082],"type":"Point"},"properties":{"name":"Remat - punct de colectare de\u00c8\u0099euri","osm_id":"8727728571","tag":{"addr:city":"Cluj-Napoca","amenity":"recycling","opening_hours":"Mo-Fr 08:00-15:00","operator":"REMAT","recycling:aluminium":"yes","recycling:batteries":"yes","recycling:cans":"yes","recycling:cardboard":"yes","recycling:electrical_appliances":"yes","recycling:glass":"yes","recycling:glass_bottles":"yes","recycling:paper":"yes","recycling:scrap_metal":"yes","recycling:small_appliances":"yes","recycling_type":"centre"}},"type":"Feature"},
	{"geometry":{"coordinates":[23.600308,46.786457],"type":"Point"},"properties":{"name":"Recycle International","osm_id":"8797481810","tag":{"amenity":"recycling","recycling_type":"centre"}},"type":"Feature"}
]
}
