{
"type": "FeatureCollection",
"features": [
	{"geometry":{"coordinates":[23.633907,37.927679],"type":"Point"},"properties":{"osm_id":"2803796129","tag":{"amenity":"recycling","recycling:cans":"yes","recycling:clothes":"no","recycling:glass":"yes","recycling:paper":"yes"}},"type":"Feature"},
	{"geometry":{"coordinates":[23.633269,37.926962],"type":"Point"},"properties":{"osm_id":"2803797527","tag":{"amenity":"recycling","colour":"blue","recycling_type":"container"}},"type":"Feature"},
	{"geometry":{"coordinates":[23.642405,37.940131],"type":"Point"},"properties":{"osm_id":"2804526317","tag":{"amenity":"recycling","recycling:paper":"yes","recycling_type":"container"}},"type":"Feature"},
	{"geometry":{"coordinates":[23.633314,37.926945],"type":"Point"},"properties":{"osm_id":"2816111135","tag":{"amenity":"recycling","recycling:cans":"yes","recycling:clothes":"no","recycling:glass":"yes","recycling:paper":"yes","recycling_type":"container"}},"type":"Feature"},
	{"geometry":{"coordinates":[23.633801,37.93032],"type":"Point"},"properties":{"osm_id":"3388591393","tag":{"amenity":"recycling"}},"type":"Feature"},
	{"geometry":{"coordinates":[23.627713,37.930206],"type":"Point"},"properties":{"osm_id":"3705836015","tag":{"amenity":"recycling"}},"type":"Feature"},
	{"geometry":{"coordinates":[23.627931,37.929901],"type":"Point"},"properties":{"osm_id":"3707331557","tag":{"amenity":"recycling"}},"type":"Feature"},
	{"geometry":{"coordinates":[23.642101,37.945911],"type":"Point"},"properties":{"osm_id":"3784567497","tag":{"amenity":"waste_basket"}},"type":"Feature"},
	{"geometry":{"coordinates":[23.64198,37.945937],"type":"Point"},"properties":{"osm_id":"3784569220","tag":{"amenity":"waste_basket"}},"type":"Feature"},
	{"geometry":{"coordinates":[23.628211,37.973924],"type":"Point"},"properties":{"osm_id":"3784599038","tag":{"amenity":"waste_basket"}},"type":"Feature"},
	{"geometry":{"coordinates":[23.628225,37.973943],"type":"Point"},"properties":{"osm_id":"3784599039","tag":{"amenity":"recycling","recycling:glass":"yes","recycling_type":"container"}},"type":"Feature"},
	{"geometry":{"coordinates":[23.642039,37.93704],"type":"Point"},"properties":{"osm_id":"4008252066","tag":{"amenity":"recycling","colour":"blue","recycling:glass_bottles":"yes","recycling_type":"container"}},"type":"Feature"},
	{"geometry":{"coordinates":[23.631966,37.927207],"type":"Point"},"properties":{"osm_id":"4020460043","tag":{"amenity":"waste_basket"}},"type":"Feature"},
	{"geometry":{"coordinates":[23.631686,37.927229],"type":"Point"},"properties":{"osm_id":"4020460049","tag":{"amenity":"waste_basket"}},"type":"Feature"},
	{"geometry":{"coordinates":[23.631617,37.927315],"type":"Point"},"properties":{"osm_id":"4020460079","tag":{"amenity":"waste_basket"}},"type":"Feature"},
	{"geometry":{"coordinates":[23.63966,37.927672],"type":"Point"},"properties":{"osm_id":"4020759595","tag":{"amenity":"waste_basket"}},"type":"Feature"},
	{"geometry":{"coordinates":[23.633254,37.927089],"type":"Point"},"properties":{"osm_id":"4022201802","tag":{"amenity":"waste_basket"}},"type":"Feature"},
	{"geometry":{"coordinates":[23.633337,37.927064],"type":"Point"},"properties":{"osm_id":"4022201803","tag":{"amenity":"waste_basket"}},"type":"Feature"},
	{"geometry":{"coordinates":[23.633437,37.927094],"type":"Point"},"properties":{"osm_id":"4022201806","tag":{"amenity":"waste_basket"}},"type":"Feature"},
	{"geometry":{"coordinates":[23.633787,37.93037],"type":"Point"},"properties":{"osm_id":"4029198662","tag":{"amenity":"waste_basket"}},"type":"Feature"},
	{"geometry":{"coordinates":[23.633565,37.930087],"type":"Point"},"properties":{"osm_id":"4029198680","tag":{"amenity":"waste_basket"}},"type":"Feature"},
	{"geometry":{"coordinates":[23.633634,37.930031],"type":"Point"},"properties":{"osm_id":"4029198683","tag":{"amenity":"waste_basket"}},"type":"Feature"},
	{"geometry":{"coordinates":[23.641875,37.946688],"type":"Point"},"properties":{"osm_id":"4030595182","tag":{"amenity":"waste_basket"}},"type":"Feature"},
	{"geometry":{"coordinates":[23.641577,37.946609],"type":"Point"},"properties":{"osm_id":"4030595183","tag":{"amenity":"waste_basket"}},"type":"Feature"},
	{"geometry":{"coordinates":[23.641946,37.946735],"type":"Point"},"properties":{"osm_id":"4030595184","tag":{"amenity":"waste_basket"}},"type":"Feature"},
	{"geometry":{"coordinates":[23.623338,37.942108],"type":"Point"},"properties":{"osm_id":"4040362743","tag":{"amenity":"waste_basket"}},"type":"Feature"},
	{"geometry":{"coordinates":[23.624092,37.942442],"type":"Point"},"properties":{"osm_id":"4040362773","tag":{"amenity":"waste_basket"}},"type":"Feature"},
	{"geometry":{"coordinates":[23.624267,37.942515],"type":"Point"},"properties":{"osm_id":"4040362774","tag":{"amenity":"waste_basket"}},"type":"Feature"},
	{"geometry":{"coordinates":[23.624713,37.942703],"type":"Point"},"properties":{"osm_id":"4040362788","tag":{"amenity":"waste_basket"}},"type":"Feature"},
	{"geometry":{"coordinates":[23.62488,37.942776],"type":"Point"},"properties":{"osm_id":"4040362889","tag":{"amenity":"waste_basket"}},"type":"Feature"},
	{"geometry":{"coordinates":[23.62488,37.942785],"type":"Point"},"properties":{"osm_id":"4040362890","tag":{"amenity":"waste_basket"}},"type":"Feature"},
	{"geometry":{"coordinates":[23.624873,37.942933],"type":"Point"},"properties":{"osm_id":"4040392799","tag":{"amenity":"waste_basket"}},"type":"Feature"},
	{"geometry":{"coordinates":[23.624765,37.942889],"type":"Point"},"properties":{"osm_id":"4040392800","tag":{"amenity":"waste_basket"}},"type":"Feature"},
	{"geometry":{"coordinates":[23.624663,37.942844],"type":"Point"},"properties":{"osm_id":"4040392802","tag":{"amenity":"waste_basket"}},"type":"Feature"},
	{"geometry":{"coordinates":[23.624503,37.942776],"type":"Point"},"properties":{"osm_id":"4040392803","tag":{"amenity":"waste_basket"}},"type":"Feature"},
	{"geometry":{"coordinates":[23.62419,37.942639],"type":"Point"},"properties":{"osm_id":"4040392812","tag":{"amenity":"waste_basket"}},"type":"Feature"},
	{"geometry":{"coordinates":[23.624088,37.942596],"type":"Point"},"properties":{"osm_id":"4040392813","tag":{"amenity":"waste_basket"}},"type":"Feature"},
	{"geometry":{"coordinates":[23.623872,37.942511],"type":"Point"},"properties":{"osm_id":"4040392814","tag":{"amenity":"waste_basket"}},"type":"Feature"},
	{"geometry":{"coordinates":[23.623843,37.942529],"type":"Point"},"properties":{"osm_id":"4040392822","tag":{"amenity":"waste_basket"}},"type":"Feature"},
	{"geometry":{"coordinates":[23.622796,37.942028],"type":"Point"},"properties":{"osm_id":"4040392827","tag":{"amenity":"waste_basket"}},"type":"Feature"},
	{"geometry":{"coordinates":[23.622646,37.941972],"type":"Point"},"properties":{"osm_id":"4040392829","tag":{"amenity":"waste_basket"}},"type":"Feature"},
	{"geometry":{"coordinates":[23.622592,37.941952],"type":"Point"},"properties":{"osm_id":"4040392830","tag":{"amenity":"waste_basket"}},"type":"Feature"},
	{"geometry":{"coordinates":[23.622708,37.942083],"type":"Point"},"properties":{"osm_id":"4040392831","tag":{"amenity":"waste_basket"}},"type":"Feature"},
	{"geometry":{"coordinates":[23.623344,37.942484],"type":"Point"},"properties":{"osm_id":"4040409364","tag":{"amenity":"waste_basket"}},"type":"Feature"},
	{"geometry":{"coordinates":[23.623584,37.942588],"type":"Point"},"properties":{"osm_id":"4040409365","tag":{"amenity":"waste_basket"}},"type":"Feature"},
	{"geometry":{"coordinates":[23.626028,37.943239],"type":"Point"},"properties":{"osm_id":"4040442279","tag":{"amenity":"waste_basket"}},"type":"Feature"},
	{"geometry":{"coordinates":[23.629646,37.944361],"type":"Point"},"properties":{"osm_id":"4040443001","tag":{"amenity":"waste_basket"}},"type":"Feature"},
	{"geometry":{"coordinates":[23.630084,37.944346],"type":"Point"},"properties":{"osm_id":"4040443023","tag":{"amenity":"waste_basket"}},"type":"Feature"},
	{"geometry":{"coordinates":[23.629961,37.943704],"type":"Point"},"properties":{"osm_id":"4040480838","tag":{"amenity":"waste_basket"}},"type":"Feature"},
	{"geometry":{"coordinates":[23.630016,37.943757],"type":"Point"},"properties":{"osm_id":"4040480839","tag":{"amenity":"waste_basket"}},"type":"Feature"},
	{"geometry":{"coordinates":[23.629612,37.943543],"type":"Point"},"properties":{"osm_id":"4040480841","tag":{"amenity":"waste_basket"}},"type":"Feature"},
	{"geometry":{"coordinates":[23.63318,37.942256],"type":"Point"},"properties":{"osm_id":"4043605873","tag":{"amenity":"waste_basket"}},"type":"Feature"},
	{"geometry":{"coordinates":[23.635965,37.945904],"type":"Point"},"properties":{"osm_id":"4043660931","tag":{"amenity":"waste_basket"}},"type":"Feature"},
	{"geometry":{"coordinates":[23.636263,37.947701],"type":"Point"},"properties":{"osm_id":"4043660947","tag":{"amenity":"waste_basket"}},"type":"Feature"},
	{"geometry":{"coordinates":[23.638607,37.949057],"type":"Point"},"properties":{"osm_id":"4043684767","tag":{"amenity":"waste_basket"}},"type":"Feature"},
	{"geometry":{"coordinates":[23.594547,37.978953],"type":"Point"},"properties":{"osm_id":"4321546645","tag":{"amenity":"waste_disposal"}},"type":"Feature"},
	{"geometry":{"coordinates":[23.593437,37.97968],"type":"Point"},"properties":{"osm_id":"4321617835","tag":{"amenity":"waste_disposal"}},"type":"Feature"},
	{"geometry":{"coordinates":[23.594694,37.979474],"type":"Point"},"properties":{"osm_id":"4321617839","tag":{"amenity":"waste_disposal"}},"type":"Feature"},
	{"geometry":{"coordinates":[23.636579,37.927731],"type":"Point"},"properties":{"osm_id":"4325928682","tag":{"amenity":"recycling"}},"type":"Feature"},
	{"geometry":{"coordinates":[23.638063,37.928264],"type":"Point"},"properties":{"osm_id":"4325930164","tag":{"amenity":"recycling"}},"type":"Feature"},
	{"geometry":{"coordinates":[23.628157,37.929427],"type":"Point"},"properties":{"osm_id":"4337351103","tag":{"amenity":"waste_basket"}},"type":"Feature"},
	{"geometry":{"coordinates":[23.631842,37.93511],"type":"Point"},"properties":{"osm_id":"4746025670","tag":{"amenity":"recycling"}},"type":"Feature"},
	{"geometry":{"coordinates":[23.639296,37.936282],"type":"Point"},"properties":{"osm_id":"4746030409","tag":{"amenity":"waste_basket"}},"type":"Feature"},
	{"geometry":{"coordinates":[23.641643,37.945759],"type":"Point"},"properties":{"osm_id":"4872851307","tag":{"amenity":"waste_basket"}},"type":"Feature"},
	{"geometry":{"coordinates":[23.642112,37.945659],"type":"Point"},"properties":{"osm_id":"4872851308","tag":{"amenity":"waste_basket"}},"type":"Feature"},
	{"geometry":{"coordinates":[23.641796,37.953375],"type":"Point"},"properties":{"osm_id":"4880498042","tag":{"amenity":"waste_disposal"}},"type":"Feature"},
	{"geometry":{"coordinates":[23.641763,37.953377],"type":"Point"},"properties":{"osm_id":"4880498043","tag":{"amenity":"recycling","colour":"blue","recycling:cans":"yes","recycling:glass":"yes","recycling:paper":"yes","recycling:plastic":"yes","recycling_type":"container"}},"type":"Feature"},
	{"geometry":{"coordinates":[23.641181,37.953191],"type":"Point"},"properties":{"osm_id":"4880498971","tag":{"amenity":"waste_disposal"}},"type":"Feature"},
	{"geometry":{"coordinates":[23.641178,37.95316],"type":"Point"},"properties":{"osm_id":"4880498972","tag":{"amenity":"recycling","recycling_type":"container"}},"type":"Feature"},
	{"geometry":{"coordinates":[23.642048,37.94579],"type":"Point"},"properties":{"osm_id":"5228463676","tag":{"amenity":"recycling"}},"type":"Feature"},
	{"geometry":{"coordinates":[23.641477,37.945795],"type":"Point"},"properties":{"osm_id":"5228465621","tag":{"amenity":"waste_basket"}},"type":"Feature"},
	{"geometry":{"coordinates":[23.641481,37.934098],"type":"Point"},"properties":{"osm_id":"5483687215","tag":{"amenity":"waste_basket"}},"type":"Feature"},
	{"geometry":{"coordinates":[23.640429,37.934277],"type":"Point"},"properties":{"osm_id":"5497824931","tag":{"amenity":"waste_basket"}},"type":"Feature"},
	{"geometry":{"coordinates":[23.640471,37.93446],"type":"Point"},"properties":{"osm_id":"5497824934","tag":{"amenity":"waste_basket"}},"type":"Feature"},
	{"geometry":{"coordinates":[23.641277,37.934299],"type":"Point"},"properties":{"osm_id":"5497824942","tag":{"amenity":"waste_basket"}},"type":"Feature"},
	{"geometry":{"coordinates":[23.6422,37.942592],"type":"Point"},"properties":{"osm_id":"5656369846","tag":{"amenity":"waste_basket"}},"type":"Feature"},
	{"geometry":{"coordinates":[23.641679,37.945529],"type":"Point"},"properties":{"osm_id":"5656380833","tag":{"amenity":"waste_basket"}},"type":"Feature"},
	{"geometry":{"coordinates":[23.640911,37.945479],"type":"Point"},"properties":{"osm_id":"5656381156","tag":{"amenity":"waste_basket"}},"type":"Feature"},
	{"geometry":{"coordinates":[23.64131,37.945566],"type":"Point"},"properties":{"osm_id":"5656384402","tag":{"amenity":"waste_basket"}},"type":"Feature"},
	{"geometry":{"coordinates":[23.64226,37.94245],"type":"Point"},"properties":{"osm_id":"5656389001","tag":{"amenity":"waste_basket"}},"type":"Feature"},
	{"geometry":{"coordinates":[23.641224,37.940643],"type":"Point"},"properties":{"osm_id":"5656389715","tag":{"amenity":"waste_basket"}},"type":"Feature"},
	{"geometry":{"coordinates":[23.641063,37.940564],"type":"Point"},"properties":{"osm_id":"5656392126","tag":{"amenity":"waste_basket"}},"type":"Feature"},
	{"geometry":{"coordinates":[23.640946,37.940423],"type":"Point"},"properties":{"osm_id":"5656392167","tag":{"amenity":"waste_basket"}},"type":"Feature"},
	{"geometry":{"coordinates":[23.64064,37.940077],"type":"Point"},"properties":{"osm_id":"5656393378","tag":{"amenity":"waste_basket"}},"type":"Feature"},
	{"geometry":{"coordinates":[23.628887,37.928863],"type":"Point"},"properties":{"osm_id":"5937484926","tag":{"amenity":"recycling"}},"type":"Feature"},
	{"geometry":{"coordinates":[23.628343,37.929126],"type":"Point"},"properties":{"osm_id":"5937496552","tag":{"amenity":"waste_basket"}},"type":"Feature"},
	{"geometry":{"coordinates":[23.627347,37.930594],"type":"Point"},"properties":{"osm_id":"5937502168","tag":{"amenity":"waste_basket"}},"type":"Feature"},
	{"geometry":{"coordinates":[23.627188,37.930952],"type":"Point"},"properties":{"osm_id":"5937503466","tag":{"amenity":"waste_basket"}},"type":"Feature"},
	{"geometry":{"coordinates":[23.628155,37.929413],"type":"Point"},"properties":{"osm_id":"5937504412","tag":{"amenity":"waste_basket"}},"type":"Feature"},
	{"geometry":{"coordinates":[23.627244,37.931533],"type":"Point"},"properties":{"osm_id":"5937504836","tag":{"amenity":"waste_basket"}},"type":"Feature"},
	{"geometry":{"coordinates":[23.627742,37.929999],"type":"Point"},"properties":{"osm_id":"5937506591","tag":{"amenity":"waste_basket"}},"type":"Feature"},
	{"geometry":{"coordinates":[23.631107,37.927562],"type":"Point"},"properties":{"osm_id":"5937515884","tag":{"amenity":"recycling"}},"type":"Feature"},
	{"geometry":{"coordinates":[23.636518,37.927495],"type":"Point"},"properties":{"osm_id":"5937523446","tag":{"amenity":"waste_basket"}},"type":"Feature"},
	{"geometry":{"coordinates":[23.639252,37.927471],"type":"Point"},"properties":{"osm_id":"5937528614","tag":{"amenity":"waste_basket"}},"type":"Feature"},
	{"geometry":{"coordinates":[23.638608,37.928124],"type":"Point"},"properties":{"osm_id":"5937627811","tag":{"amenity":"waste_basket"}},"type":"Feature"},
	{"geometry":{"coordinates":[23.641771,37.945906],"type":"Point"},"properties":{"osm_id":"6434663930","tag":{"amenity":"waste_basket"}},"type":"Feature"},
	{"geometry":{"coordinates":[23.632257,37.93514],"type":"Point"},"properties":{"osm_id":"6543545926","tag":{"amenity":"recycling","recycling:glass":"yes"}},"type":"Feature"},
	{"geometry":{"coordinates":[23.633696,37.930124],"type":"Point"},"properties":{"osm_id":"6642102371","tag":{"amenity":"waste_basket"}},"type":"Feature"},
	{"geometry":{"coordinates":[23.583906,37.965453],"type":"Point"},"properties":{"osm_id":"7390295379","tag":{"access":"private","amenity":"waste_disposal","operator":"\u00ce\u0094\u00ce\u00ae\u00ce\u00bc\u00ce\u00bf\u00cf\u0082 \u00ce\u00a0\u00ce\u00b5\u00cf\u0081\u00ce\u00ac\u00ce\u00bc\u00ce\u00b1\u00cf\u0084\u00ce\u00bf\u00cf\u0082 - \u00ce\u00a4\u00ce\u00bc\u00ce\u00ae\u00ce\u00bc\u00ce\u00b1 \u00ce\u009a\u00ce\u00b1\u00ce\u00b8\u00ce\u00b1\u00cf\u0081\u00ce\u00b9\u00cf\u008c\u00cf\u0084\u00ce\u00b7\u00cf\u0084\u00ce\u00b1\u00cf\u0082","waste":"trash"}},"type":"Feature"},
	{"geometry":{"coordinates":[23.583688,37.965454],"type":"Point"},"properties":{"osm_id":"7390295380","tag":{"access":"private","amenity":"waste_disposal","operator":"\u00ce\u0094\u00ce\u00ae\u00ce\u00bc\u00ce\u00bf\u00cf\u0082 \u00ce\u00a0\u00ce\u00b5\u00cf\u0081\u00ce\u00ac\u00ce\u00bc\u00ce\u00b1\u00cf\u0084\u00ce\u00bf\u00cf\u0082 - \u00ce\u00a4\u00ce\u00bc\u00ce\u00ae\u00ce\u00bc\u00ce\u00b1 \u00ce\u009a\u00ce\u00b1\u00ce\u00b8\u00ce\u00b1\u00cf\u0081\u00ce\u00b9\u00cf\u008c\u00cf\u0084\u00ce\u00b7\u00cf\u0084\u00ce\u00b1\u00cf\u0082","waste":"trash"}},"type":"Feature"},
	{"geometry":{"coordinates":[23.583189,37.96533],"type":"Point"},"properties":{"osm_id":"7390295381","tag":{"access":"private","amenity":"waste_disposal","operator":"\u00ce\u0094\u00ce\u00ae\u00ce\u00bc\u00ce\u00bf\u00cf\u0082 \u00ce\u00a0\u00ce\u00b5\u00cf\u0081\u00ce\u00ac\u00ce\u00bc\u00ce\u00b1\u00cf\u0084\u00ce\u00bf\u00cf\u0082 - \u00ce\u00a4\u00ce\u00bc\u00ce\u00ae\u00ce\u00bc\u00ce\u00b1 \u00ce\u009a\u00ce\u00b1\u00ce\u00b8\u00ce\u00b1\u00cf\u0081\u00ce\u00b9\u00cf\u008c\u00cf\u0084\u00ce\u00b7\u00cf\u0084\u00ce\u00b1\u00cf\u0082","waste":"trash"}},"type":"Feature"},
	{"geometry":{"coordinates":[23.583,37.964716],"type":"Point"},"properties":{"osm_id":"7390295382","tag":{"access":"yes","amenity":"waste_disposal","operator":"\u00ce\u0094\u00ce\u00ae\u00ce\u00bc\u00ce\u00bf\u00cf\u0082 \u00ce\u00a0\u00ce\u00b5\u00cf\u0081\u00ce\u00ac\u00ce\u00bc\u00ce\u00b1\u00cf\u0084\u00ce\u00bf\u00cf\u0082 - \u00ce\u00a4\u00ce\u00bc\u00ce\u00ae\u00ce\u00bc\u00ce\u00b1 \u00ce\u009a\u00ce\u00b1\u00ce\u00b8\u00ce\u00b1\u00cf\u0081\u00ce\u00b9\u00cf\u008c\u00cf\u0084\u00ce\u00b7\u00cf\u0084\u00ce\u00b1\u00cf\u0082","waste":"trash"}},"type":"Feature"},
	{"geometry":{"coordinates":[23.583416,37.963481],"type":"Point"},"properties":{"osm_id":"7390295383","tag":{"access":"yes","amenity":"waste_disposal","operator":"\u00ce\u0094\u00ce\u00ae\u00ce\u00bc\u00ce\u00bf\u00cf\u0082 \u00ce\u00a0\u00ce\u00b5\u00cf\u0081\u00ce\u00ac\u00ce\u00bc\u00ce\u00b1\u00cf\u0084\u00ce\u00bf\u00cf\u0082 - \u00ce\u00a4\u00ce\u00bc\u00ce\u00ae\u00ce\u00bc\u00ce\u00b1 \u00ce\u009a\u00ce\u00b1\u00ce\u00b8\u00ce\u00b1\u00cf\u0081\u00ce\u00b9\u00cf\u008c\u00cf\u0084\u00ce\u00b7\u00cf\u0084\u00ce\u00b1\u00cf\u0082","waste":"trash"}},"type":"Feature"},
	{"geometry":{"coordinates":[23.583421,37.963506],"type":"Point"},"properties":{"osm_id":"7390295384","tag":{"access":"yes","amenity":"waste_disposal","operator":"\u00ce\u0094\u00ce\u00ae\u00ce\u00bc\u00ce\u00bf\u00cf\u0082 \u00ce\u00a0\u00ce\u00b5\u00cf\u0081\u00ce\u00ac\u00ce\u00bc\u00ce\u00b1\u00cf\u0084\u00ce\u00bf\u00cf\u0082 - \u00ce\u00a4\u00ce\u00bc\u00ce\u00ae\u00ce\u00bc\u00ce\u00b1 \u00ce\u009a\u00ce\u00b1\u00ce\u00b8\u00ce\u00b1\u00cf\u0081\u00ce\u00b9\u00cf\u008c\u00cf\u0084\u00ce\u00b7\u00cf\u0084\u00ce\u00b1\u00cf\u0082","waste":"trash"}},"type":"Feature"},
	{"geometry":{"coordinates":[23.628372,37.929289],"type":"Point"},"properties":{"osm_id":"7796758216","tag":{"amenity":"recycling"}},"type":"Feature"},
	{"geometry":{"coordinates":[23.63247,37.93522],"type":"Point"},"properties":{"osm_id":"7798951291","tag":{"amenity":"recycling","description":"\u00ce\u00b3\u00ce\u00b9\u00ce\u00b1 \u00ce\u00b3\u00cf\u0085\u00ce\u00b1\u00ce\u00bb\u00ce\u00af"}},"type":"Feature"},
	{"geometry":{"coordinates":[23.632984,37.935416],"type":"Point"},"properties":{"name":"Recycom","osm_id":"7798991490","tag":{"amenity":"recycling","description":"\u00ce\u00b3\u00ce\u00b9\u00ce\u00b1 \u00cf\u0081\u00ce\u00bf\u00cf\u008d\u00cf\u0087\u00ce\u00b1, \u00cf\u0080\u00ce\u00b1\u00cf\u0080\u00ce\u00bf\u00cf\u008d\u00cf\u0084\u00cf\u0083\u00ce\u00b9\u00ce\u00b1, \u00cf\u0084\u00cf\u0083\u00ce\u00ac\u00ce\u00bd\u00cf\u0084\u00ce\u00b5\u00cf\u0082"}},"type":"Feature"},
	{"geometry":{"coordinates":[23.630619,37.929262],"type":"Point"},"properties":{"osm_id":"7802994377","tag":{"amenity":"waste_basket"}},"type":"Feature"},
	{"geometry":{"coordinates":[23.627365,37.931035],"type":"Point"},"properties":{"osm_id":"7803007783","tag":{"amenity":"recycling"}},"type":"Feature"},
	{"geometry":{"coordinates":[23.631181,37.927234],"type":"Point"},"properties":{"osm_id":"7803014754","tag":{"amenity":"waste_basket"}},"type":"Feature"},
	{"geometry":{"coordinates":[23.629263,37.928609],"type":"Point"},"properties":{"osm_id":"7803015039","tag":{"amenity":"waste_basket"}},"type":"Feature"},
	{"geometry":{"coordinates":[23.627375,37.930968],"type":"Point"},"properties":{"osm_id":"7803016262","tag":{"amenity":"recycling"}},"type":"Feature"},
	{"geometry":{"coordinates":[23.627445,37.931911],"type":"Point"},"properties":{"osm_id":"7803021189","tag":{"amenity":"waste_basket"}},"type":"Feature"},
	{"geometry":{"coordinates":[23.627591,37.932108],"type":"Point"},"properties":{"osm_id":"7803023173","tag":{"amenity":"waste_basket"}},"type":"Feature"},
	{"geometry":{"coordinates":[23.630722,37.929084],"type":"Point"},"properties":{"osm_id":"7803024375","tag":{"amenity":"waste_basket"}},"type":"Feature"},
	{"geometry":{"coordinates":[23.631796,37.926974],"type":"Point"},"properties":{"osm_id":"7803030771","tag":{"amenity":"waste_basket"}},"type":"Feature"},
	{"geometry":{"coordinates":[23.630046,37.929397],"type":"Point"},"properties":{"osm_id":"7805078904","tag":{"amenity":"recycling"}},"type":"Feature"},
	{"geometry":{"coordinates":[23.631035,37.930735],"type":"Point"},"properties":{"osm_id":"7810130939","tag":{"amenity":"waste_basket"}},"type":"Feature"},
	{"geometry":{"coordinates":[23.631103,37.930513],"type":"Point"},"properties":{"osm_id":"7810149264","tag":{"amenity":"waste_basket"}},"type":"Feature"},
	{"geometry":{"coordinates":[23.631085,37.930574],"type":"Point"},"properties":{"osm_id":"7810168507","tag":{"amenity":"waste_basket"}},"type":"Feature"},
	{"geometry":{"coordinates":[23.63125,37.930682],"type":"Point"},"properties":{"osm_id":"7810171256","tag":{"amenity":"waste_basket"}},"type":"Feature"},
	{"geometry":{"coordinates":[23.641618,37.934625],"type":"Point"},"properties":{"osm_id":"7813731169","tag":{"amenity":"recycling"}},"type":"Feature"},
	{"geometry":{"coordinates":[23.631274,37.930606],"type":"Point"},"properties":{"osm_id":"7819625688","tag":{"amenity":"waste_basket"}},"type":"Feature"},
	{"geometry":{"coordinates":[23.632783,37.935287],"type":"Point"},"properties":{"osm_id":"7821020342","tag":{"amenity":"waste_basket"}},"type":"Feature"},
	{"geometry":{"coordinates":[23.633278,37.926962],"type":"Point"},"properties":{"osm_id":"7821155243","tag":{"amenity":"recycling","colour":"blue","recycling_type":"container"}},"type":"Feature"},
	{"geometry":{"coordinates":[23.633288,37.926962],"type":"Point"},"properties":{"osm_id":"7821155244","tag":{"amenity":"recycling","colour":"blue","recycling:glass_bottles":"yes","recycling_type":"container"}},"type":"Feature"},
	{"geometry":{"coordinates":[23.630939,37.927924],"type":"Point"},"properties":{"osm_id":"7830419455","tag":{"amenity":"waste_basket"}},"type":"Feature"}
]
}
