{
"type": "FeatureCollection",
"features": [
	{"geometry":{"coordinates":[15.188896,59.270383],"type":"Point"},"properties":{"osm_id":"2945483872","tag":{"amenity":"recycling"}},"type":"Feature"},
	{"geometry":{"coordinates":[15.148275,59.273313],"type":"Point"},"properties":{"highway":"give_way","osm_id":"3437481336","tag":{"direction":"backward"}},"type":"Feature"},
	{"geometry":{"coordinates":[15.185136,59.308528],"type":"Point"},"properties":{"osm_id":"3495210072","tag":{"amenity":"recycling","recycling_type":"container"}},"type":"Feature"},
	{"geometry":{"coordinates":[15.20245,59.280731],"type":"Point"},"properties":{"osm_id":"4069226106","tag":{"amenity":"waste_basket"}},"type":"Feature"},
	{"geometry":{"coordinates":[15.19956,59.272242],"type":"Point"},"properties":{"osm_id":"4524639209","tag":{"amenity":"waste_basket"}},"type":"Feature"},
	{"geometry":{"coordinates":[15.200415,59.273821],"type":"Point"},"properties":{"osm_id":"4524639218","tag":{"amenity":"waste_basket"}},"type":"Feature"},
	{"geometry":{"coordinates":[15.193135,59.282368],"type":"Point"},"properties":{"osm_id":"5373230551","tag":{"amenity":"waste_basket"}},"type":"Feature"},
	{"geometry":{"coordinates":[15.192299,59.28067],"type":"Point"},"properties":{"osm_id":"6160280426","tag":{"amenity":"recycling"}},"type":"Feature"},
	{"geometry":{"coordinates":[15.191183,59.283388],"type":"Point"},"properties":{"osm_id":"6160280427","tag":{"amenity":"recycling"}},"type":"Feature"},
	{"geometry":{"coordinates":[15.194128,59.280642],"type":"Point"},"properties":{"osm_id":"6160280432","tag":{"amenity":"recycling"}},"type":"Feature"},
	{"geometry":{"coordinates":[15.194471,59.281747],"type":"Point"},"properties":{"osm_id":"6160281423","tag":{"amenity":"recycling"}},"type":"Feature"},
	{"geometry":{"coordinates":[15.190909,59.282158],"type":"Point"},"properties":{"osm_id":"6160282632","tag":{"amenity":"recycling"}},"type":"Feature"}
]
}
