{
"type": "FeatureCollection",
"features": [
	{"geometry":{"coordinates":[15.134328,50.62872],"type":"Point"},"properties":{"osm_id":"2075503329","tag":{"amenity":"waste_basket"}},"type":"Feature"},
	{"geometry":{"coordinates":[15.135452,50.627839],"type":"Point"},"properties":{"osm_id":"2078114973","tag":{"amenity":"recycling","recycling:clothes":"yes","recycling:glass":"yes","recycling:paper":"yes","recycling:plastic":"yes","recycling_type":"container"}},"type":"Feature"},
	{"geometry":{"coordinates":[15.133626,50.628921],"type":"Point"},"properties":{"osm_id":"2078115176","tag":{"amenity":"waste_disposal"}},"type":"Feature"},
	{"geometry":{"coordinates":[15.134756,50.629057],"type":"Point"},"properties":{"osm_id":"2078115202","tag":{"amenity":"waste_disposal","private":"yes"}},"type":"Feature"},
	{"geometry":{"coordinates":[15.130689,50.62872],"type":"Point"},"properties":{"osm_id":"2078473881","tag":{"amenity":"waste_basket","description":"for dogs"}},"type":"Feature"},
	{"geometry":{"coordinates":[15.132386,50.628086],"type":"Point"},"properties":{"osm_id":"2078473893","tag":{"amenity":"waste_disposal","private":"yes"}},"type":"Feature"},
	{"geometry":{"coordinates":[15.13273,50.628371],"type":"Point"},"properties":{"osm_id":"2078473895","tag":{"amenity":"waste_disposal","private":"yes"}},"type":"Feature"},
	{"geometry":{"coordinates":[15.131519,50.628398],"type":"Point"},"properties":{"osm_id":"2078473902","tag":{"amenity":"waste_disposal","private":"yes"}},"type":"Feature"},
	{"geometry":{"coordinates":[15.131128,50.628566],"type":"Point"},"properties":{"osm_id":"2078473915","tag":{"amenity":"waste_disposal","private":"yes"}},"type":"Feature"},
	{"geometry":{"coordinates":[15.130824,50.628722],"type":"Point"},"properties":{"osm_id":"2078473918","tag":{"amenity":"waste_disposal","private":"yes"}},"type":"Feature"},
	{"geometry":{"coordinates":[15.133314,50.62873],"type":"Point"},"properties":{"osm_id":"2078473919","tag":{"amenity":"waste_disposal","private":"yes"}},"type":"Feature"},
	{"geometry":{"coordinates":[15.134671,50.628269],"type":"Point"},"properties":{"osm_id":"6412733479","tag":{"amenity":"waste_basket"}},"type":"Feature"},
	{"geometry":{"coordinates":[15.134672,50.629955],"type":"Point"},"properties":{"osm_id":"6412733480","tag":{"amenity":"waste_basket"}},"type":"Feature"},
	{"geometry":{"coordinates":[15.136252,50.627941],"type":"Point"},"properties":{"osm_id":"6637050430","tag":{"amenity":"waste_basket"}},"type":"Feature"},
	{"geometry":{"coordinates":[15.136259,50.627682],"type":"Point"},"properties":{"osm_id":"6638579496","tag":{"amenity":"waste_basket"}},"type":"Feature"},
	{"geometry":{"coordinates":[15.132835,50.633432],"type":"Point"},"properties":{"osm_id":"7773979571","tag":{"amenity":"recycling","check_date":"2020-11-01","recycling:paper":"yes","recycling:plastic":"yes","recycling_type":"container"}},"type":"Feature"},
	{"geometry":{"coordinates":[15.125682,50.634839],"type":"Point"},"properties":{"osm_id":"8051250959","tag":{"amenity":"recycling","recycling:glass":"yes","recycling:paper":"yes","recycling:plastic":"yes","recycling_type":"container"}},"type":"Feature"},
	{"geometry":{"coordinates":[15.121652,50.637059],"type":"Point"},"properties":{"osm_id":"8051250960","tag":{"amenity":"recycling","recycling:glass":"yes","recycling:paper":"yes","recycling:plastic":"yes","recycling_type":"container"}},"type":"Feature"},
	{"geometry":{"coordinates":[15.136992,50.628029],"type":"Point"},"properties":{"osm_id":"8071207562","tag":{"amenity":"waste_basket","colour":"green","material":"steel"}},"type":"Feature"},
	{"geometry":{"coordinates":[15.136714,50.627886],"type":"Point"},"properties":{"osm_id":"8071320508","tag":{"amenity":"waste_basket","colour":"green","material":"steel"}},"type":"Feature"},
	{"geometry":{"coordinates":[15.136259,50.627682],"type":"Point"},"properties":{"osm_id":"8071320509","tag":{"amenity":"waste_basket","colour":"green","material":"steel"}},"type":"Feature"},
	{"geometry":{"coordinates":[15.136259,50.627942],"type":"Point"},"properties":{"osm_id":"8071320510","tag":{"amenity":"waste_basket","colour":"green","material":"steel"}},"type":"Feature"},
	{"geometry":{"coordinates":[15.134852,50.628351],"type":"Point"},"properties":{"osm_id":"8075836356","tag":{"access":"private","amenity":"waste_disposal"}},"type":"Feature"},
	{"geometry":{"coordinates":[15.159001,50.635971],"type":"Point"},"properties":{"osm_id":"8270582109","tag":{"amenity":"recycling","recycling:paper":"yes","recycling:plastic":"yes","recycling_type":"container"}},"type":"Feature"}
]
}
