{
"type": "FeatureCollection",
"features": [
	{"geometry":{"coordinates":[28.752182,61.198784],"type":"Point"},"properties":{"osm_id":"301318341","tag":{"amenity":"waste_disposal","waste":"household"}},"type":"Feature"},
	{"geometry":{"coordinates":[28.770197,61.186418],"type":"Point"},"properties":{"name":"Hy\u00c3\u00b6tyj\u00c3\u00a4tepiste","osm_id":"3748351027","tag":{"amenity":"recycling","opening_hours":"24/7","recycling:cardboard":"yes","recycling:clothes":"yes","recycling:glass":"yes","recycling:metal":"yes","recycling:paper":"yes","recycling_type":"container"}},"type":"Feature"},
	{"geometry":{"coordinates":[28.766723,61.188237],"type":"Point"},"properties":{"name":"Hy\u00c3\u00b6tyj\u00c3\u00a4tepiste","osm_id":"3750863132","tag":{"amenity":"recycling","opening_hours":"24/7","recycling:cardboard":"yes","recycling:clothes":"yes","recycling:glass":"yes","recycling:metal":"yes","recycling:paper":"yes","recycling_type":"container"}},"type":"Feature"},
	{"geometry":{"coordinates":[28.759194,61.200501],"type":"Point"},"properties":{"name":"Hy\u00c3\u00b6tyj\u00c3\u00a4tepiste","osm_id":"3753415234","tag":{"addr:housenumber":"34","addr:street":"Joutsenonkatu","amenity":"recycling","operator":"Etel\u00e4-Karjalan J\u00e4tehuolto Oy","recycling:cardboard":"yes","recycling:glass":"yes","recycling:metal":"yes","recycling:paper":"yes","recycling_type":"container"}},"type":"Feature"},
	{"geometry":{"coordinates":[28.794174,61.213583],"type":"Point"},"properties":{"name":"Imatran j\u00c3\u00a4teasema","osm_id":"3762686359","tag":{"addr:city":"Imatra","addr:housenumber":"1","addr:postcode":"55400","addr:street":"Harakankuja","amenity":"recycling","opening_hours":"Mo 13:00-18:00; We 13:00-18:00; Fr 13:00-18:00","operator":"Etel\u00e4-Karjalan J\u00e4tehuolto Oy","phone":"+358 10 841 1818","recycling_type":"centre","website":"http://www.ekjh.fi/palveluverkosto_ja_jateasemat_Im.html#Imatra_JA"}},"type":"Feature"},
	{"geometry":{"coordinates":[28.796786,61.213415],"type":"Point"},"properties":{"name":"Papinniemi Oy","osm_id":"3762686360","tag":{"addr:city":"Imatra","addr:housenumber":"1","addr:postcode":"55400","addr:street":"Harakankuja","amenity":"recycling","phone":"+358 5 432 3986","recycling_type":"centre","website":"http://www.papinniemi.com"}},"type":"Feature"}
]
}
