{
"type": "FeatureCollection",
"lastupdate": "2020-08-04T00:00:00Z",
"features": [
	{"geometry":{"coordinates":[28.771613,55.486023],"type":"Point"},"properties":{"osm_id":"2889780950","tag":{"amenity":"recycling"}},"type":"Feature"},
	{"geometry":{"coordinates":[28.787196,55.487838],"type":"Point"},"properties":{"osm_id":"3258015517","tag":{"amenity":"waste_basket"}},"type":"Feature"},
	{"geometry":{"coordinates":[28.787207,55.487922],"type":"Point"},"properties":{"osm_id":"3258015537","tag":{"amenity":"waste_basket"}},"type":"Feature"},
	{"geometry":{"coordinates":[28.767006,55.502029],"type":"Point"},"properties":{"osm_id":"4342127990","tag":{"amenity":"recycling"}},"type":"Feature"},
	{"geometry":{"coordinates":[28.776401,55.517171],"type":"Point"},"properties":{"osm_id":"4342136990","tag":{"amenity":"recycling"}},"type":"Feature"},
	{"geometry":{"coordinates":[28.785248,55.496038],"type":"Point"},"properties":{"name":"\u00d0\u0091\u00d0\u00b5\u00d0\u00bb\u00d0\u0092\u00d0\u00a2\u00d0\u0098-\u00d1\u0080\u00d0\u00b5\u00d0\u00b3\u00d0\u00b8\u00d0\u00be\u00d0\u00bd \u00d0\u009f\u00d0\u00be\u00d0\u00bb\u00d0\u00be\u00d1\u0086\u00d0\u00ba","osm_id":"4445955289","tag":{"amenity":"recycling","email":"dm_polotsk@mail.ru","phone":"375 (214) 42-35-29","website":"http://belvti.com/rus/kontakty/koordinaty"}},"type":"Feature"},
	{"geometry":{"coordinates":[28.776675,55.48302],"type":"Point"},"properties":{"osm_id":"4841798985","tag":{"amenity":"waste_basket"}},"type":"Feature"},
	{"geometry":{"coordinates":[28.781993,55.491325],"type":"Point"},"properties":{"osm_id":"5138752221","tag":{"amenity":"waste_basket"}},"type":"Feature"},
	{"geometry":{"coordinates":[28.783763,55.487624],"type":"Point"},"properties":{"osm_id":"5138812132","tag":{"amenity":"waste_basket"}},"type":"Feature"},
	{"geometry":{"coordinates":[28.783908,55.487588],"type":"Point"},"properties":{"osm_id":"5138812133","tag":{"amenity":"waste_basket"}},"type":"Feature"},
	{"geometry":{"coordinates":[28.780125,55.487757],"type":"Point"},"properties":{"osm_id":"5138812135","tag":{"amenity":"waste_basket"}},"type":"Feature"},
	{"geometry":{"coordinates":[28.780789,55.487712],"type":"Point"},"properties":{"osm_id":"5138812136","tag":{"amenity":"waste_basket"}},"type":"Feature"},
	{"geometry":{"coordinates":[28.780452,55.487726],"type":"Point"},"properties":{"osm_id":"5138812635","tag":{"amenity":"waste_basket"}},"type":"Feature"},
	{"geometry":{"coordinates":[28.782853,55.487541],"type":"Point"},"properties":{"osm_id":"5138813126","tag":{"amenity":"waste_basket"}},"type":"Feature"},
	{"geometry":{"coordinates":[28.783306,55.487509],"type":"Point"},"properties":{"osm_id":"5138813127","tag":{"amenity":"waste_basket"}},"type":"Feature"},
	{"geometry":{"coordinates":[28.779864,55.487776],"type":"Point"},"properties":{"osm_id":"5138813128","tag":{"amenity":"waste_basket"}},"type":"Feature"},
	{"geometry":{"coordinates":[28.782379,55.487579],"type":"Point"},"properties":{"osm_id":"5138815622","tag":{"amenity":"waste_basket"}},"type":"Feature"},
	{"geometry":{"coordinates":[28.782097,55.487564],"type":"Point"},"properties":{"osm_id":"5138815721","tag":{"amenity":"waste_basket"}},"type":"Feature"},
	{"geometry":{"coordinates":[28.78181,55.487592],"type":"Point"},"properties":{"osm_id":"5138815722","tag":{"amenity":"waste_basket"}},"type":"Feature"},
	{"geometry":{"coordinates":[28.779515,55.488486],"type":"Point"},"properties":{"osm_id":"5139005723","tag":{"amenity":"waste_basket"}},"type":"Feature"},
	{"geometry":{"coordinates":[28.779331,55.488568],"type":"Point"},"properties":{"osm_id":"5139018722","tag":{"amenity":"waste_basket"}},"type":"Feature"},
	{"geometry":{"coordinates":[28.782917,55.490575],"type":"Point"},"properties":{"osm_id":"5141342523","tag":{"amenity":"waste_basket"}},"type":"Feature"},
	{"geometry":{"coordinates":[28.78303,55.4909],"type":"Point"},"properties":{"osm_id":"5141342524","tag":{"amenity":"waste_basket"}},"type":"Feature"},
	{"geometry":{"coordinates":[28.782948,55.490512],"type":"Point"},"properties":{"osm_id":"5141382026","tag":{"amenity":"waste_basket"}},"type":"Feature"}
]
}
