{
"type": "FeatureCollection",
"features": [
	{"geometry":{"coordinates":[28.806818,47.021246],"type":"Point"},"properties":{"osm_id":"586432606","tag":{"amenity":"waste_disposal"}},"type":"Feature"},
	{"geometry":{"coordinates":[28.821812,46.988699],"type":"Point"},"properties":{"barrier":"gate","osm_id":"859683551","tag":{"bicycle":"yes","foot":"yes","motorcar":"yes"}},"type":"Feature"},
	{"geometry":{"coordinates":[28.807638,47.003121],"type":"Point"},"properties":{"osm_id":"929917281","tag":{"amenity":"recycling"}},"type":"Feature"},
	{"geometry":{"coordinates":[28.81876,47.017953],"type":"Point"},"properties":{"osm_id":"1099582478","tag":{"amenity":"recycling","check_date":"2021-01-23"}},"type":"Feature"},
	{"geometry":{"coordinates":[28.823802,47.031124],"type":"Point"},"properties":{"osm_id":"1138863940","tag":{"amenity":"waste_basket"}},"type":"Feature"},
	{"geometry":{"coordinates":[28.808238,47.019448],"type":"Point"},"properties":{"osm_id":"1762911088","tag":{"amenity":"waste_basket"}},"type":"Feature"},
	{"geometry":{"coordinates":[28.820748,47.001054],"type":"Point"},"properties":{"osm_id":"2415674040","tag":{"amenity":"waste_disposal"}},"type":"Feature"},
	{"geometry":{"coordinates":[28.821994,47.001404],"type":"Point"},"properties":{"osm_id":"3063346436","tag":{"amenity":"waste_disposal"}},"type":"Feature"},
	{"geometry":{"coordinates":[28.817795,47.003351],"type":"Point"},"properties":{"osm_id":"3063346441","tag":{"amenity":"waste_disposal"}},"type":"Feature"},
	{"geometry":{"coordinates":[28.811722,47.001293],"type":"Point"},"properties":{"osm_id":"3076528544","tag":{"amenity":"waste_disposal"}},"type":"Feature"},
	{"geometry":{"coordinates":[28.812807,47.001796],"type":"Point"},"properties":{"osm_id":"3076528545","tag":{"amenity":"waste_disposal"}},"type":"Feature"},
	{"geometry":{"coordinates":[28.804399,47.001844],"type":"Point"},"properties":{"osm_id":"3076528546","tag":{"amenity":"waste_disposal"}},"type":"Feature"},
	{"geometry":{"coordinates":[28.808957,47.002477],"type":"Point"},"properties":{"osm_id":"3076528551","tag":{"amenity":"waste_disposal"}},"type":"Feature"},
	{"geometry":{"coordinates":[28.80487,47.004042],"type":"Point"},"properties":{"osm_id":"3076528554","tag":{"amenity":"waste_disposal"}},"type":"Feature"},
	{"geometry":{"coordinates":[28.806531,47.004286],"type":"Point"},"properties":{"osm_id":"3076528555","tag":{"amenity":"waste_disposal"}},"type":"Feature"},
	{"geometry":{"coordinates":[28.820689,47.009141],"type":"Point"},"properties":{"osm_id":"3076528563","tag":{"amenity":"waste_disposal"}},"type":"Feature"},
	{"geometry":{"coordinates":[28.785773,47.027678],"type":"Point"},"properties":{"osm_id":"4117756790","tag":{"amenity":"waste_basket"}},"type":"Feature"},
	{"geometry":{"coordinates":[28.785806,47.027726],"type":"Point"},"properties":{"osm_id":"4117757689","tag":{"amenity":"waste_basket"}},"type":"Feature"},
	{"geometry":{"coordinates":[28.785384,47.027568],"type":"Point"},"properties":{"osm_id":"4117757706","tag":{"amenity":"waste_basket"}},"type":"Feature"},
	{"geometry":{"coordinates":[28.785281,47.02794],"type":"Point"},"properties":{"osm_id":"4117757737","tag":{"amenity":"waste_basket"}},"type":"Feature"},
	{"geometry":{"coordinates":[28.785699,47.027394],"type":"Point"},"properties":{"osm_id":"4117757833","tag":{"amenity":"waste_basket"}},"type":"Feature"},
	{"geometry":{"coordinates":[28.807709,47.026992],"type":"Point"},"properties":{"osm_id":"4336253022","tag":{"amenity":"waste_disposal"}},"type":"Feature"},
	{"geometry":{"coordinates":[28.80887,47.024946],"type":"Point"},"properties":{"osm_id":"4336253027","tag":{"amenity":"waste_disposal"}},"type":"Feature"},
	{"geometry":{"coordinates":[28.807618,47.03022],"type":"Point"},"properties":{"osm_id":"4336253028","tag":{"amenity":"waste_disposal"}},"type":"Feature"},
	{"geometry":{"coordinates":[28.825853,47.004816],"type":"Point"},"properties":{"osm_id":"4354772162","tag":{"amenity":"waste_disposal"}},"type":"Feature"},
	{"geometry":{"coordinates":[28.820507,47.00337],"type":"Point"},"properties":{"osm_id":"4378959790","tag":{"amenity":"waste_disposal"}},"type":"Feature"},
	{"geometry":{"coordinates":[28.81745,47.009345],"type":"Point"},"properties":{"osm_id":"4497865198","tag":{"amenity":"waste_basket"}},"type":"Feature"},
	{"geometry":{"coordinates":[28.827928,47.011086],"type":"Point"},"properties":{"osm_id":"6461988285","tag":{"amenity":"waste_disposal"}},"type":"Feature"},
	{"geometry":{"coordinates":[28.82791,47.011712],"type":"Point"},"properties":{"osm_id":"6461988287","tag":{"amenity":"waste_disposal"}},"type":"Feature"},
	{"geometry":{"coordinates":[28.827907,47.010435],"type":"Point"},"properties":{"osm_id":"6461988385","tag":{"amenity":"waste_disposal"}},"type":"Feature"},
	{"geometry":{"coordinates":[28.827978,47.012408],"type":"Point"},"properties":{"osm_id":"6461994687","tag":{"amenity":"waste_disposal"}},"type":"Feature"},
	{"geometry":{"coordinates":[28.827975,47.013784],"type":"Point"},"properties":{"osm_id":"6462022485","tag":{"amenity":"waste_disposal"}},"type":"Feature"},
	{"geometry":{"coordinates":[28.807989,47.022741],"type":"Point"},"properties":{"osm_id":"8282002676","tag":{"amenity":"waste_disposal"}},"type":"Feature"},
	{"geometry":{"coordinates":[28.805162,47.022378],"type":"Point"},"properties":{"osm_id":"8283549434","tag":{"amenity":"waste_disposal"}},"type":"Feature"},
	{"geometry":{"coordinates":[28.804275,47.022685],"type":"Point"},"properties":{"osm_id":"8283549689","tag":{"amenity":"waste_disposal"}},"type":"Feature"},
	{"geometry":{"coordinates":[28.79617,47.023491],"type":"Point"},"properties":{"osm_id":"8286440256","tag":{"amenity":"waste_disposal"}},"type":"Feature"},
	{"geometry":{"coordinates":[28.808854,47.019649],"type":"Point"},"properties":{"osm_id":"8286440530","tag":{"amenity":"waste_disposal"}},"type":"Feature"},
	{"geometry":{"coordinates":[28.809201,47.021464],"type":"Point"},"properties":{"osm_id":"8286440629","tag":{"amenity":"waste_disposal"}},"type":"Feature"},
	{"geometry":{"coordinates":[28.811108,47.022265],"type":"Point"},"properties":{"osm_id":"8286440638","tag":{"amenity":"waste_disposal"}},"type":"Feature"},
	{"geometry":{"coordinates":[28.815579,47.021051],"type":"Point"},"properties":{"osm_id":"8406672691","tag":{"amenity":"recycling","check_date":"2023-01-23","recycling_type":"container"}},"type":"Feature"},
	{"geometry":{"coordinates":[28.784703,47.025535],"type":"Point"},"properties":{"osm_id":"8507824867","tag":{"amenity":"waste_disposal"}},"type":"Feature"},
	{"geometry":{"coordinates":[28.786815,47.032205],"type":"Point"},"properties":{"osm_id":"8712571752","tag":{"amenity":"waste_disposal"}},"type":"Feature"},
	{"geometry":{"coordinates":[28.787225,47.03045],"type":"Point"},"properties":{"osm_id":"8714230257","tag":{"amenity":"waste_disposal"}},"type":"Feature"}
]
}
