{
"type": "FeatureCollection",
"features": [
	{"geometry":{"coordinates":[139.774235,35.715037],"type":"Point"},"properties":{"osm_id":"1587597628","tag":{"amenity":"waste_basket","waste":"trash"}},"type":"Feature"},
	{"geometry":{"coordinates":[139.747662,35.731938],"type":"Point"},"properties":{"osm_id":"1744506367","tag":{"amenity":"waste_basket"}},"type":"Feature"},
	{"geometry":{"coordinates":[139.7478,35.729338],"type":"Point"},"properties":{"osm_id":"1744506368","tag":{"amenity":"waste_basket"}},"type":"Feature"},
	{"geometry":{"coordinates":[139.747416,35.732086],"type":"Point"},"properties":{"osm_id":"1744506374","tag":{"amenity":"waste_basket"}},"type":"Feature"},
	{"geometry":{"coordinates":[139.779449,35.686697],"type":"Point"},"properties":{"osm_id":"2259660697","tag":{"amenity":"waste_basket"}},"type":"Feature"},
	{"geometry":{"coordinates":[139.776044,35.693929],"type":"Point"},"properties":{"osm_id":"2262375006","tag":{"amenity":"waste_basket"}},"type":"Feature"},
	{"geometry":{"coordinates":[139.77999,35.693262],"type":"Point"},"properties":{"osm_id":"2264347184","tag":{"amenity":"waste_basket"}},"type":"Feature"},
	{"geometry":{"coordinates":[139.77474,35.715978],"type":"Point"},"properties":{"osm_id":"2264347584","tag":{"amenity":"waste_basket"}},"type":"Feature"},
	{"geometry":{"coordinates":[139.775319,35.716796],"type":"Point"},"properties":{"osm_id":"2264347681","tag":{"amenity":"waste_basket"}},"type":"Feature"},
	{"geometry":{"coordinates":[139.773431,35.716004],"type":"Point"},"properties":{"osm_id":"2264348041","tag":{"amenity":"waste_basket"}},"type":"Feature"},
	{"geometry":{"coordinates":[139.7984,35.677324],"type":"Point"},"properties":{"osm_id":"4164104992","tag":{"amenity":"waste_disposal"}},"type":"Feature"},
	{"geometry":{"coordinates":[139.746785,35.734925],"type":"Point"},"properties":{"osm_id":"4691753441","tag":{"amenity":"waste_basket"}},"type":"Feature"},
	{"geometry":{"coordinates":[139.746779,35.734921],"type":"Point"},"properties":{"osm_id":"4691753442","tag":{"amenity":"waste_basket"}},"type":"Feature"},
	{"geometry":{"coordinates":[139.750259,35.705445],"type":"Point"},"properties":{"osm_id":"4794750536","tag":{"amenity":"waste_basket"}},"type":"Feature"},
	{"geometry":{"coordinates":[139.748954,35.705538],"type":"Point"},"properties":{"osm_id":"4794800239","tag":{"amenity":"waste_basket"}},"type":"Feature"},
	{"geometry":{"coordinates":[139.748823,35.70495],"type":"Point"},"properties":{"osm_id":"4794806027","tag":{"amenity":"waste_basket"}},"type":"Feature"},
	{"geometry":{"coordinates":[139.748739,35.704979],"type":"Point"},"properties":{"osm_id":"4794806028","tag":{"amenity":"waste_basket"}},"type":"Feature"},
	{"geometry":{"coordinates":[139.767697,35.72539],"type":"Point"},"properties":{"osm_id":"4848915122","tag":{"amenity":"waste_basket"}},"type":"Feature"},
	{"geometry":{"coordinates":[139.773857,35.711164],"type":"Point"},"properties":{"osm_id":"4887512895","tag":{"amenity":"waste_basket"}},"type":"Feature"},
	{"geometry":{"coordinates":[139.768398,35.713944],"type":"Point"},"properties":{"osm_id":"4958206152","tag":{"amenity":"waste_basket"}},"type":"Feature"},
	{"geometry":{"coordinates":[139.769168,35.710342],"type":"Point"},"properties":{"osm_id":"4959324620","tag":{"amenity":"waste_basket"}},"type":"Feature"},
	{"geometry":{"coordinates":[139.768562,35.713045],"type":"Point"},"properties":{"osm_id":"4959324828","tag":{"amenity":"waste_basket"}},"type":"Feature"},
	{"geometry":{"coordinates":[139.770617,35.712216],"type":"Point"},"properties":{"osm_id":"4959342400","tag":{"amenity":"waste_basket"}},"type":"Feature"},
	{"geometry":{"coordinates":[139.771902,35.709876],"type":"Point"},"properties":{"osm_id":"4959347943","tag":{"amenity":"waste_basket"}},"type":"Feature"},
	{"geometry":{"coordinates":[139.769994,35.709578],"type":"Point"},"properties":{"osm_id":"4959354491","tag":{"amenity":"waste_basket"}},"type":"Feature"},
	{"geometry":{"coordinates":[139.769712,35.708957],"type":"Point"},"properties":{"osm_id":"4959494299","tag":{"amenity":"waste_basket"}},"type":"Feature"},
	{"geometry":{"coordinates":[139.772445,35.712294],"type":"Point"},"properties":{"osm_id":"4959495861","tag":{"amenity":"waste_basket"}},"type":"Feature"},
	{"geometry":{"coordinates":[139.769285,35.713936],"type":"Point"},"properties":{"osm_id":"4959805372","tag":{"amenity":"waste_basket"}},"type":"Feature"},
	{"geometry":{"coordinates":[139.768318,35.713945],"type":"Point"},"properties":{"osm_id":"4959813456","tag":{"amenity":"waste_basket"}},"type":"Feature"},
	{"geometry":{"coordinates":[139.771026,35.701458],"type":"Point"},"properties":{"osm_id":"4960905945","tag":{"amenity":"waste_basket"}},"type":"Feature"},
	{"geometry":{"coordinates":[139.760552,35.706355],"type":"Point"},"properties":{"osm_id":"4961630528","tag":{"amenity":"waste_basket"}},"type":"Feature"},
	{"geometry":{"coordinates":[139.754092,35.722118],"type":"Point"},"properties":{"osm_id":"4961900425","tag":{"amenity":"waste_basket"}},"type":"Feature"},
	{"geometry":{"coordinates":[139.769284,35.702444],"type":"Point"},"properties":{"osm_id":"4965782149","tag":{"amenity":"recycling","recycling_type":"container"}},"type":"Feature"},
	{"geometry":{"coordinates":[139.777797,35.70163],"type":"Point"},"properties":{"osm_id":"4966258285","tag":{"amenity":"recycling","recycling:batteries":"yes","recycling:fluorescent_tubes":"yes","recycling:small_appliances":"yes","recycling_type":"container"}},"type":"Feature"},
	{"geometry":{"coordinates":[139.772759,35.707337],"type":"Point"},"properties":{"osm_id":"4967157001","tag":{"amenity":"waste_basket"}},"type":"Feature"},
	{"geometry":{"coordinates":[139.817279,35.690073],"type":"Point"},"properties":{"osm_id":"4972894316","tag":{"amenity":"waste_basket"}},"type":"Feature"},
	{"geometry":{"coordinates":[139.818129,35.690666],"type":"Point"},"properties":{"osm_id":"4972901584","tag":{"amenity":"waste_basket"}},"type":"Feature"},
	{"geometry":{"coordinates":[139.819384,35.689681],"type":"Point"},"properties":{"osm_id":"4972916916","tag":{"amenity":"waste_basket"}},"type":"Feature"},
	{"geometry":{"coordinates":[139.818505,35.689769],"type":"Point"},"properties":{"osm_id":"4975065171","tag":{"amenity":"waste_basket"}},"type":"Feature"},
	{"geometry":{"coordinates":[139.7725,35.710457],"type":"Point"},"properties":{"osm_id":"4976386509","tag":{"amenity":"waste_basket"}},"type":"Feature"},
	{"geometry":{"coordinates":[139.770158,35.713918],"type":"Point"},"properties":{"osm_id":"4987416233","tag":{"amenity":"waste_basket"}},"type":"Feature"},
	{"geometry":{"coordinates":[139.770118,35.714194],"type":"Point"},"properties":{"osm_id":"4987416234","tag":{"amenity":"waste_basket"}},"type":"Feature"},
	{"geometry":{"coordinates":[139.77074,35.71704],"type":"Point"},"properties":{"osm_id":"4987416236","tag":{"amenity":"waste_basket"}},"type":"Feature"},
	{"geometry":{"coordinates":[139.770932,35.717141],"type":"Point"},"properties":{"osm_id":"4987416237","tag":{"amenity":"waste_basket"}},"type":"Feature"},
	{"geometry":{"coordinates":[139.773597,35.711428],"type":"Point"},"properties":{"osm_id":"4987573176","tag":{"amenity":"waste_basket"}},"type":"Feature"},
	{"geometry":{"coordinates":[139.77249,35.715855],"type":"Point"},"properties":{"osm_id":"4987605537","tag":{"amenity":"waste_basket"}},"type":"Feature"},
	{"geometry":{"coordinates":[139.77029,35.716847],"type":"Point"},"properties":{"osm_id":"4987605550","tag":{"amenity":"waste_basket"}},"type":"Feature"},
	{"geometry":{"coordinates":[139.772178,35.713005],"type":"Point"},"properties":{"osm_id":"4987634547","tag":{"amenity":"waste_basket"}},"type":"Feature"},
	{"geometry":{"coordinates":[139.771307,35.714019],"type":"Point"},"properties":{"osm_id":"4987661884","tag":{"amenity":"waste_basket"}},"type":"Feature"},
	{"geometry":{"coordinates":[139.773388,35.71179],"type":"Point"},"properties":{"osm_id":"4988044843","tag":{"amenity":"waste_basket"}},"type":"Feature"},
	{"geometry":{"coordinates":[139.772234,35.702806],"type":"Point"},"properties":{"osm_id":"4998945185","tag":{"amenity":"waste_basket"}},"type":"Feature"},
	{"geometry":{"coordinates":[139.773216,35.714737],"type":"Point"},"properties":{"osm_id":"5001044362","tag":{"amenity":"waste_basket"}},"type":"Feature"},
	{"geometry":{"coordinates":[139.772786,35.715439],"type":"Point"},"properties":{"osm_id":"5002441344","tag":{"amenity":"waste_basket"}},"type":"Feature"},
	{"geometry":{"coordinates":[139.771478,35.717344],"type":"Point"},"properties":{"osm_id":"5002441345","tag":{"amenity":"waste_basket"}},"type":"Feature"},
	{"geometry":{"coordinates":[139.770589,35.717695],"type":"Point"},"properties":{"osm_id":"5003029428","tag":{"amenity":"waste_basket"}},"type":"Feature"},
	{"geometry":{"coordinates":[139.770278,35.71794],"type":"Point"},"properties":{"osm_id":"5003029429","tag":{"amenity":"waste_basket"}},"type":"Feature"},
	{"geometry":{"coordinates":[139.781673,35.709562],"type":"Point"},"properties":{"osm_id":"5008659528","tag":{"amenity":"recycling","recycling_type":"container"}},"type":"Feature"},
	{"geometry":{"coordinates":[139.769994,35.708869],"type":"Point"},"properties":{"osm_id":"5010779680","tag":{"amenity":"waste_basket"}},"type":"Feature"},
	{"geometry":{"coordinates":[139.770062,35.701375],"type":"Point"},"properties":{"osm_id":"5012389888","tag":{"amenity":"recycling","recycling:electrical_appliances":"yes","recycling_type":"container"}},"type":"Feature"},
	{"geometry":{"coordinates":[139.765073,35.707238],"type":"Point"},"properties":{"osm_id":"5018247632","tag":{"amenity":"waste_basket"}},"type":"Feature"},
	{"geometry":{"coordinates":[139.768785,35.714475],"type":"Point"},"properties":{"osm_id":"5025607944","tag":{"amenity":"waste_basket"}},"type":"Feature"},
	{"geometry":{"coordinates":[139.768514,35.711705],"type":"Point"},"properties":{"osm_id":"5025610496","tag":{"amenity":"waste_basket"}},"type":"Feature"},
	{"geometry":{"coordinates":[139.7486,35.732614],"type":"Point"},"properties":{"osm_id":"5086161956","tag":{"amenity":"waste_basket"}},"type":"Feature"},
	{"geometry":{"coordinates":[139.748582,35.732634],"type":"Point"},"properties":{"osm_id":"5086161957","tag":{"amenity":"waste_basket"}},"type":"Feature"},
	{"geometry":{"coordinates":[139.779471,35.720993],"type":"Point"},"properties":{"osm_id":"5117302612","tag":{"amenity":"waste_basket"}},"type":"Feature"},
	{"geometry":{"coordinates":[139.770927,35.716215],"type":"Point"},"properties":{"osm_id":"5126290122","tag":{"amenity":"waste_basket"}},"type":"Feature"},
	{"geometry":{"coordinates":[139.767023,35.706805],"type":"Point"},"properties":{"osm_id":"5128157519","tag":{"amenity":"waste_basket"}},"type":"Feature"},
	{"geometry":{"coordinates":[139.780511,35.705621],"type":"Point"},"properties":{"osm_id":"5138825177","tag":{"amenity":"waste_basket"}},"type":"Feature"},
	{"geometry":{"coordinates":[139.780696,35.705786],"type":"Point"},"properties":{"osm_id":"5142307517","tag":{"amenity":"recycling","recycling:PET":"yes","recycling:cans":"yes","recycling:glass_bottles":"yes","recycling_type":"container"}},"type":"Feature"},
	{"geometry":{"coordinates":[139.770617,35.712187],"type":"Point"},"properties":{"osm_id":"5142885363","tag":{"amenity":"recycling","recycling:PET":"yes","recycling:cans":"yes","recycling:glass_bottles":"yes","recycling_type":"container"}},"type":"Feature"},
	{"geometry":{"coordinates":[139.769154,35.714732],"type":"Point"},"properties":{"osm_id":"5151602811","tag":{"amenity":"waste_basket"}},"type":"Feature"},
	{"geometry":{"coordinates":[139.74865,35.706108],"type":"Point"},"properties":{"osm_id":"5153132794","tag":{"amenity":"waste_basket"}},"type":"Feature"},
	{"geometry":{"coordinates":[139.748737,35.705958],"type":"Point"},"properties":{"osm_id":"5153132795","tag":{"amenity":"waste_basket"}},"type":"Feature"},
	{"geometry":{"coordinates":[139.746371,35.74275],"type":"Point"},"properties":{"osm_id":"5166877587","tag":{"amenity":"waste_basket"}},"type":"Feature"},
	{"geometry":{"coordinates":[139.746498,35.743105],"type":"Point"},"properties":{"osm_id":"5166945874","tag":{"amenity":"waste_basket"}},"type":"Feature"},
	{"geometry":{"coordinates":[139.765379,35.699335],"type":"Point"},"properties":{"osm_id":"5184977445","tag":{"amenity":"recycling","recycling:PET":"yes","recycling:cans":"yes","recycling:glass_bottles":"yes","recycling_type":"container"}},"type":"Feature"},
	{"geometry":{"coordinates":[139.772114,35.701425],"type":"Point"},"properties":{"osm_id":"5199511712","tag":{"amenity":"recycling","recycling:cans":"yes","recycling_type":"container"}},"type":"Feature"},
	{"geometry":{"coordinates":[139.770726,35.708046],"type":"Point"},"properties":{"osm_id":"5206362694","tag":{"amenity":"recycling","recycling:PET":"yes","recycling:cans":"yes","recycling:glass_bottles":"yes","recycling_type":"container"}},"type":"Feature"},
	{"geometry":{"coordinates":[139.75401,35.722251],"type":"Point"},"properties":{"osm_id":"5216152549","tag":{"amenity":"waste_basket"}},"type":"Feature"},
	{"geometry":{"coordinates":[139.756815,35.720193],"type":"Point"},"properties":{"osm_id":"5216152553","tag":{"amenity":"waste_basket"}},"type":"Feature"},
	{"geometry":{"coordinates":[139.768381,35.713942],"type":"Point"},"properties":{"osm_id":"5216176969","tag":{"amenity":"recycling","recycling:PET":"yes","recycling:cans":"yes","recycling:glass_bottles":"yes","recycling_type":"container"}},"type":"Feature"},
	{"geometry":{"coordinates":[139.759722,35.703874],"type":"Point"},"properties":{"osm_id":"5224162039","tag":{"amenity":"waste_basket"}},"type":"Feature"},
	{"geometry":{"coordinates":[139.757159,35.730491],"type":"Point"},"properties":{"osm_id":"5228389992","tag":{"amenity":"waste_basket"}},"type":"Feature"},
	{"geometry":{"coordinates":[139.759647,35.703003],"type":"Point"},"properties":{"osm_id":"5237421658","tag":{"amenity":"waste_basket"}},"type":"Feature"},
	{"geometry":{"coordinates":[139.759977,35.703577],"type":"Point"},"properties":{"osm_id":"5237421665","tag":{"amenity":"waste_basket"}},"type":"Feature"},
	{"geometry":{"coordinates":[139.77128,35.711993],"type":"Point"},"properties":{"osm_id":"5240994874","tag":{"amenity":"waste_basket"}},"type":"Feature"},
	{"geometry":{"coordinates":[139.770415,35.708051],"type":"Point"},"properties":{"osm_id":"5267442934","tag":{"amenity":"recycling","recycling:PET":"yes","recycling:cans":"yes","recycling_type":"container"}},"type":"Feature"},
	{"geometry":{"coordinates":[139.759445,35.70374],"type":"Point"},"properties":{"osm_id":"5435360065","tag":{"amenity":"waste_basket"}},"type":"Feature"},
	{"geometry":{"coordinates":[139.757435,35.695333],"type":"Point"},"properties":{"osm_id":"5456398081","tag":{"amenity":"recycling","recycling:cans":"yes","recycling:paper":"yes","recycling:plastic_bottles":"yes","recycling_type":"container"}},"type":"Feature"},
	{"geometry":{"coordinates":[139.764341,35.704755],"type":"Point"},"properties":{"osm_id":"5493590606","tag":{"amenity":"recycling","recycling:PET":"yes","recycling:cans":"yes","recycling:glass_bottles":"yes","recycling_type":"container"}},"type":"Feature"},
	{"geometry":{"coordinates":[139.777542,35.722536],"type":"Point"},"properties":{"osm_id":"5494102458","tag":{"amenity":"recycling","recycling:PET":"yes","recycling:cans":"yes","recycling:glass_bottles":"yes","recycling_type":"container"}},"type":"Feature"},
	{"geometry":{"coordinates":[139.760028,35.706629],"type":"Point"},"properties":{"osm_id":"5551859143","tag":{"amenity":"recycling","recycling:PET":"yes","recycling:cans":"yes","recycling:glass_bottles":"yes","recycling_type":"container"}},"type":"Feature"},
	{"geometry":{"coordinates":[139.761284,35.705009],"type":"Point"},"properties":{"osm_id":"5552732046","tag":{"amenity":"recycling","recycling:PET":"yes","recycling:cans":"yes","recycling:glass_bottles":"yes","recycling_type":"container"}},"type":"Feature"},
	{"geometry":{"coordinates":[139.75952,35.705432],"type":"Point"},"properties":{"osm_id":"5562045075","tag":{"amenity":"waste_disposal"}},"type":"Feature"},
	{"geometry":{"coordinates":[139.758279,35.705154],"type":"Point"},"properties":{"osm_id":"5564935516","tag":{"amenity":"waste_disposal"}},"type":"Feature"},
	{"geometry":{"coordinates":[139.783303,35.699504],"type":"Point"},"properties":{"osm_id":"5580605947","tag":{"amenity":"recycling","recycling:batteries":"yes","recycling_type":"container"}},"type":"Feature"},
	{"geometry":{"coordinates":[139.784837,35.706076],"type":"Point"},"properties":{"osm_id":"5583468430","tag":{"amenity":"recycling","recycling_type":"container"}},"type":"Feature"},
	{"geometry":{"coordinates":[139.753433,35.709796],"type":"Point"},"properties":{"osm_id":"5595551109","tag":{"amenity":"recycling","recycling_type":"container"}},"type":"Feature"},
	{"geometry":{"coordinates":[139.78396,35.705652],"type":"Point"},"properties":{"osm_id":"5595996540","tag":{"amenity":"waste_basket"}},"type":"Feature"},
	{"geometry":{"coordinates":[139.760631,35.697757],"type":"Point"},"properties":{"osm_id":"5612897044","tag":{"amenity":"recycling","recycling_type":"container"}},"type":"Feature"},
	{"geometry":{"coordinates":[139.784639,35.703245],"type":"Point"},"properties":{"osm_id":"5636553028","tag":{"amenity":"recycling","recycling_type":"container"}},"type":"Feature"},
	{"geometry":{"coordinates":[139.782977,35.697656],"type":"Point"},"properties":{"osm_id":"5641937919","tag":{"amenity":"recycling","recycling:PET":"yes","recycling:cans":"yes","recycling:glass":"yes","recycling_type":"container"}},"type":"Feature"},
	{"geometry":{"coordinates":[139.791926,35.696128],"type":"Point"},"properties":{"osm_id":"5668203222","tag":{"amenity":"waste_basket"}},"type":"Feature"},
	{"geometry":{"coordinates":[139.775107,35.697083],"type":"Point"},"properties":{"osm_id":"5683564422","tag":{"amenity":"waste_basket"}},"type":"Feature"},
	{"geometry":{"coordinates":[139.796456,35.699539],"type":"Point"},"properties":{"osm_id":"5715209491","tag":{"amenity":"waste_basket"}},"type":"Feature"},
	{"geometry":{"coordinates":[139.796798,35.699388],"type":"Point"},"properties":{"osm_id":"5715209493","tag":{"amenity":"waste_basket"}},"type":"Feature"},
	{"geometry":{"coordinates":[139.796729,35.698974],"type":"Point"},"properties":{"osm_id":"5715209508","tag":{"amenity":"waste_basket"}},"type":"Feature"},
	{"geometry":{"coordinates":[139.762251,35.704511],"type":"Point"},"properties":{"osm_id":"5715475911","tag":{"amenity":"recycling","recycling_type":"container"}},"type":"Feature"},
	{"geometry":{"coordinates":[139.770472,35.717148],"type":"Point"},"properties":{"osm_id":"5774495731","tag":{"amenity":"waste_basket"}},"type":"Feature"},
	{"geometry":{"coordinates":[139.815202,35.724188],"type":"Point"},"properties":{"osm_id":"5777348857","tag":{"amenity":"waste_basket"}},"type":"Feature"},
	{"geometry":{"coordinates":[139.787285,35.678027],"type":"Point"},"properties":{"osm_id":"5787795304","tag":{"amenity":"waste_basket"}},"type":"Feature"},
	{"geometry":{"coordinates":[139.786456,35.676329],"type":"Point"},"properties":{"osm_id":"5787795312","tag":{"amenity":"waste_basket"}},"type":"Feature"},
	{"geometry":{"coordinates":[139.756625,35.675197],"type":"Point"},"properties":{"osm_id":"5824886277","tag":{"amenity":"waste_basket"}},"type":"Feature"},
	{"geometry":{"coordinates":[139.757833,35.675248],"type":"Point"},"properties":{"osm_id":"5824900039","tag":{"amenity":"waste_basket"}},"type":"Feature"},
	{"geometry":{"coordinates":[139.817785,35.690204],"type":"Point"},"properties":{"osm_id":"5865333722","tag":{"amenity":"waste_basket"}},"type":"Feature"},
	{"geometry":{"coordinates":[139.81901,35.69196],"type":"Point"},"properties":{"osm_id":"5880968217","tag":{"amenity":"waste_disposal"}},"type":"Feature"},
	{"geometry":{"coordinates":[139.77291,35.708039],"type":"Point"},"properties":{"osm_id":"5953034291","tag":{"amenity":"recycling","layer":"-1","level":"-1","recycling:PET":"yes","recycling:cans":"yes","recycling:glass_bottles":"yes","recycling_type":"container"}},"type":"Feature"},
	{"geometry":{"coordinates":[139.760355,35.708421],"type":"Point"},"properties":{"osm_id":"6042166505","tag":{"amenity":"recycling","recycling_type":"container"}},"type":"Feature"},
	{"geometry":{"coordinates":[139.797188,35.680997],"type":"Point"},"properties":{"osm_id":"6046583134","tag":{"amenity":"waste_basket"}},"type":"Feature"},
	{"geometry":{"coordinates":[139.797391,35.68091],"type":"Point"},"properties":{"osm_id":"6046606720","tag":{"amenity":"waste_basket"}},"type":"Feature"},
	{"geometry":{"coordinates":[139.797379,35.679601],"type":"Point"},"properties":{"osm_id":"6073603877","tag":{"amenity":"waste_basket"}},"type":"Feature"},
	{"geometry":{"coordinates":[139.776655,35.69355],"type":"Point"},"properties":{"osm_id":"6384598147","tag":{"amenity":"recycling"}},"type":"Feature"},
	{"geometry":{"coordinates":[139.808324,35.67645],"type":"Point"},"properties":{"osm_id":"6652481725","tag":{"amenity":"waste_basket"}},"type":"Feature"},
	{"geometry":{"coordinates":[139.768027,35.707437],"type":"Point"},"properties":{"osm_id":"6815162268","tag":{"amenity":"recycling","recycling_type":"container"}},"type":"Feature"},
	{"geometry":{"coordinates":[139.779971,35.709274],"type":"Point"},"properties":{"osm_id":"6919580284","tag":{"amenity":"recycling","recycling_type":"container"}},"type":"Feature"},
	{"geometry":{"coordinates":[139.779837,35.709232],"type":"Point"},"properties":{"osm_id":"6919661391","tag":{"amenity":"waste_basket"}},"type":"Feature"},
	{"geometry":{"coordinates":[139.773737,35.716245],"type":"Point"},"properties":{"osm_id":"7127305465","tag":{"amenity":"recycling","recycling:cans":"yes","recycling:cardboard":"yes","recycling:paper":"yes","recycling:plastic_bottles":"yes","recycling:plastic_packaging":"yes","recycling:waste":"yes","recycling_type":"container"}},"type":"Feature"},
	{"geometry":{"coordinates":[139.773716,35.71623],"type":"Point"},"properties":{"osm_id":"7127305467","tag":{"amenity":"waste_basket"}},"type":"Feature"},
	{"geometry":{"coordinates":[139.774352,35.714065],"type":"Point"},"properties":{"osm_id":"7358000452","tag":{"amenity":"waste_basket","waste":"trash"}},"type":"Feature"},
	{"geometry":{"coordinates":[139.754444,35.709769],"type":"Point"},"properties":{"osm_id":"7514966914","tag":{"amenity":"waste_basket"}},"type":"Feature"},
	{"geometry":{"coordinates":[139.754454,35.709896],"type":"Point"},"properties":{"osm_id":"7514966936","tag":{"amenity":"waste_basket"}},"type":"Feature"},
	{"geometry":{"coordinates":[139.803988,35.711914],"type":"Point"},"properties":{"osm_id":"7572289458","tag":{"amenity":"waste_basket"}},"type":"Feature"},
	{"geometry":{"coordinates":[139.803831,35.71135],"type":"Point"},"properties":{"osm_id":"7597323433","tag":{"amenity":"recycling","recycling:PET":"yes","recycling:cans":"yes","recycling_type":"container"}},"type":"Feature"},
	{"geometry":{"coordinates":[139.807716,35.695001],"type":"Point"},"properties":{"osm_id":"7638008749","tag":{"amenity":"recycling","recycling_type":"container"}},"type":"Feature"},
	{"geometry":{"coordinates":[139.789549,35.706343],"type":"Point"},"properties":{"osm_id":"7684208912","tag":{"amenity":"recycling","recycling:cans":"yes","recycling:plastic_bottles":"yes","recycling_type":"container"}},"type":"Feature"},
	{"geometry":{"coordinates":[139.782808,35.71592],"type":"Point"},"properties":{"osm_id":"7775043677","tag":{"amenity":"recycling","recycling_type":"container"}},"type":"Feature"},
	{"geometry":{"coordinates":[139.780893,35.697141],"type":"Point"},"properties":{"osm_id":"7836352293","tag":{"amenity":"recycling","recycling:PET":"yes","recycling:cans":"yes","recycling:glass_bottles":"yes","recycling_type":"container"}},"type":"Feature"}
]
}
