{
"type": "FeatureCollection",
"features": [
	{"geometry":{"coordinates":[139.776207,35.615586],"type":"Point"},"properties":{"name":"\u00e3\u0082\u00b4\u00e3\u0083\u009f\u00e7\u00ae\u00b1","osm_id":"2534606448","tag":{"amenity":"waste_basket"}},"type":"Feature"},
	{"geometry":{"coordinates":[139.775837,35.616126],"type":"Point"},"properties":{"name":"\u00e3\u0082\u00b4\u00e3\u0083\u009f\u00e7\u00ae\u00b1","osm_id":"2534610479","tag":{"amenity":"waste_basket"}},"type":"Feature"},
	{"geometry":{"coordinates":[139.775325,35.616134],"type":"Point"},"properties":{"osm_id":"2534610612","tag":{"amenity":"waste_basket"}},"type":"Feature"},
	{"geometry":{"coordinates":[139.775172,35.616304],"type":"Point"},"properties":{"osm_id":"2534610978","tag":{"amenity":"waste_basket"}},"type":"Feature"},
	{"geometry":{"coordinates":[139.774649,35.616905],"type":"Point"},"properties":{"name":"\u00e3\u0082\u00b4\u00e3\u0083\u009f\u00e7\u00ae\u00b1","osm_id":"2534611399","tag":{"amenity":"waste_basket"}},"type":"Feature"},
	{"geometry":{"coordinates":[139.774655,35.616899],"type":"Point"},"properties":{"osm_id":"2534611588","tag":{"amenity":"waste_basket"}},"type":"Feature"},
	{"geometry":{"coordinates":[139.773465,35.618624],"type":"Point"},"properties":{"name":"\u00e3\u0082\u00b4\u00e3\u0083\u009f\u00e7\u00ae\u00b1","osm_id":"2534627422","tag":{"amenity":"waste_basket"}},"type":"Feature"},
	{"geometry":{"coordinates":[139.762879,35.657564],"type":"Point"},"properties":{"osm_id":"2918077271","tag":{"amenity":"waste_basket"}},"type":"Feature"},
	{"geometry":{"coordinates":[139.762192,35.660576],"type":"Point"},"properties":{"osm_id":"2918077531","tag":{"amenity":"waste_basket"}},"type":"Feature"},
	{"geometry":{"coordinates":[139.779103,35.61799],"type":"Point"},"properties":{"osm_id":"3184098061","tag":{"amenity":"waste_basket","opening_hours":"24/7"}},"type":"Feature"},
	{"geometry":{"coordinates":[139.777908,35.61918],"type":"Point"},"properties":{"osm_id":"3753965121","tag":{"amenity":"waste_basket","smoking":"yes","waste":"smoking"}},"type":"Feature"},
	{"geometry":{"coordinates":[139.777212,35.619268],"type":"Point"},"properties":{"osm_id":"4353871763","tag":{"amenity":"waste_basket","indoor":"yes","level":"7"}},"type":"Feature"},
	{"geometry":{"coordinates":[139.777206,35.619273],"type":"Point"},"properties":{"osm_id":"4353871764","tag":{"amenity":"waste_basket","indoor":"yes","level":"7"}},"type":"Feature"},
	{"geometry":{"coordinates":[139.777201,35.619278],"type":"Point"},"properties":{"osm_id":"4353871765","tag":{"amenity":"waste_basket","indoor":"yes","level":"7"}},"type":"Feature"},
	{"geometry":{"coordinates":[139.77641,35.619233],"type":"Point"},"properties":{"osm_id":"4354312976","tag":{"amenity":"waste_basket","indoor":"yes","level":"7"}},"type":"Feature"},
	{"geometry":{"coordinates":[139.776407,35.619239],"type":"Point"},"properties":{"osm_id":"4354312977","tag":{"amenity":"waste_basket","indoor":"yes","level":"7"}},"type":"Feature"},
	{"geometry":{"coordinates":[139.776403,35.619245],"type":"Point"},"properties":{"osm_id":"4354312978","tag":{"amenity":"waste_basket","indoor":"yes","level":"7"}},"type":"Feature"},
	{"geometry":{"coordinates":[139.77619,35.619301],"type":"Point"},"properties":{"osm_id":"4354317148","tag":{"amenity":"waste_basket","indoor":"yes","level":"7"}},"type":"Feature"},
	{"geometry":{"coordinates":[139.776184,35.619303],"type":"Point"},"properties":{"osm_id":"4354317152","tag":{"amenity":"waste_basket","indoor":"yes","level":"7"}},"type":"Feature"},
	{"geometry":{"coordinates":[139.776951,35.619556],"type":"Point"},"properties":{"osm_id":"4354317248","tag":{"amenity":"waste_basket","indoor":"yes","level":"7"}},"type":"Feature"},
	{"geometry":{"coordinates":[139.776957,35.61956],"type":"Point"},"properties":{"osm_id":"4354317250","tag":{"amenity":"waste_basket","indoor":"yes","level":"7"}},"type":"Feature"},
	{"geometry":{"coordinates":[139.748522,35.664051],"type":"Point"},"properties":{"osm_id":"4741004402","tag":{"amenity":"waste_basket","waste":"cigarettes"}},"type":"Feature"},
	{"geometry":{"coordinates":[139.748531,35.664049],"type":"Point"},"properties":{"osm_id":"4741004403","tag":{"amenity":"waste_basket"}},"type":"Feature"},
	{"geometry":{"coordinates":[139.748541,35.664048],"type":"Point"},"properties":{"osm_id":"4741004404","tag":{"amenity":"waste_basket"}},"type":"Feature"},
	{"geometry":{"coordinates":[139.763228,35.662315],"type":"Point"},"properties":{"osm_id":"4865731311","tag":{"amenity":"waste_basket","recycling:cans":"yes","recycling:glass_bottles":"yes"}},"type":"Feature"},
	{"geometry":{"coordinates":[139.763898,35.661321],"type":"Point"},"properties":{"osm_id":"4865738670","tag":{"amenity":"waste_basket","recycling:cans":"yes","recycling:glass_bottles":"yes"}},"type":"Feature"},
	{"geometry":{"coordinates":[139.755239,35.658263],"type":"Point"},"properties":{"osm_id":"4897375922","tag":{"amenity":"waste_basket"}},"type":"Feature"},
	{"geometry":{"coordinates":[139.764342,35.660834],"type":"Point"},"properties":{"osm_id":"4913280985","tag":{"amenity":"waste_basket","recycling:cans":"yes","recycling:glass_bottles":"yes"}},"type":"Feature"},
	{"geometry":{"coordinates":[139.758128,35.654691],"type":"Point"},"properties":{"osm_id":"4920151148","tag":{"amenity":"waste_basket"}},"type":"Feature"},
	{"geometry":{"coordinates":[139.758163,35.655891],"type":"Point"},"properties":{"osm_id":"4920175210","tag":{"amenity":"waste_basket"}},"type":"Feature"},
	{"geometry":{"coordinates":[139.809943,35.64341],"type":"Point"},"properties":{"osm_id":"4971644423","tag":{"amenity":"waste_basket"}},"type":"Feature"},
	{"geometry":{"coordinates":[139.809846,35.643299],"type":"Point"},"properties":{"osm_id":"4971644424","tag":{"amenity":"waste_basket"}},"type":"Feature"},
	{"geometry":{"coordinates":[139.764174,35.657774],"type":"Point"},"properties":{"osm_id":"5303218593","tag":{"amenity":"waste_basket"}},"type":"Feature"},
	{"geometry":{"coordinates":[139.767022,35.660061],"type":"Point"},"properties":{"osm_id":"5317813879","tag":{"amenity":"waste_basket","recycling:cans":"yes","recycling:glass_bottles":"yes"}},"type":"Feature"},
	{"geometry":{"coordinates":[139.767021,35.660092],"type":"Point"},"properties":{"osm_id":"5317813880","tag":{"amenity":"waste_basket","recycling:cans":"yes","recycling:glass_bottles":"yes"}},"type":"Feature"},
	{"geometry":{"coordinates":[139.764547,35.658223],"type":"Point"},"properties":{"osm_id":"5434872594","tag":{"amenity":"waste_basket","waste":"trash"}},"type":"Feature"},
	{"geometry":{"coordinates":[139.766814,35.659925],"type":"Point"},"properties":{"osm_id":"5434980121","tag":{"amenity":"waste_basket","waste":"trash"}},"type":"Feature"},
	{"geometry":{"coordinates":[139.763382,35.662384],"type":"Point"},"properties":{"osm_id":"5534709486","tag":{"amenity":"waste_basket"}},"type":"Feature"},
	{"geometry":{"coordinates":[139.763252,35.662325],"type":"Point"},"properties":{"osm_id":"5534709487","tag":{"amenity":"waste_basket"}},"type":"Feature"},
	{"geometry":{"coordinates":[139.763239,35.662321],"type":"Point"},"properties":{"osm_id":"5534709488","tag":{"amenity":"waste_basket"}},"type":"Feature"},
	{"geometry":{"coordinates":[139.762893,35.657563],"type":"Point"},"properties":{"osm_id":"5536845320","tag":{"amenity":"waste_basket"}},"type":"Feature"},
	{"geometry":{"coordinates":[139.762886,35.657563],"type":"Point"},"properties":{"osm_id":"5536845421","tag":{"amenity":"waste_basket"}},"type":"Feature"},
	{"geometry":{"coordinates":[139.763658,35.660679],"type":"Point"},"properties":{"osm_id":"5584534641","tag":{"amenity":"waste_basket"}},"type":"Feature"},
	{"geometry":{"coordinates":[139.763652,35.660683],"type":"Point"},"properties":{"osm_id":"5584534642","tag":{"amenity":"waste_basket"}},"type":"Feature"},
	{"geometry":{"coordinates":[139.763645,35.660686],"type":"Point"},"properties":{"osm_id":"5584534643","tag":{"amenity":"waste_basket"}},"type":"Feature"},
	{"geometry":{"coordinates":[139.757497,35.644144],"type":"Point"},"properties":{"osm_id":"5587022648","tag":{"amenity":"waste_basket"}},"type":"Feature"},
	{"geometry":{"coordinates":[139.762178,35.660563],"type":"Point"},"properties":{"osm_id":"5609800519","tag":{"amenity":"waste_basket"}},"type":"Feature"},
	{"geometry":{"coordinates":[139.762185,35.660569],"type":"Point"},"properties":{"osm_id":"5609800520","tag":{"amenity":"waste_basket"}},"type":"Feature"},
	{"geometry":{"coordinates":[139.767014,35.660097],"type":"Point"},"properties":{"osm_id":"5649804348","tag":{"amenity":"waste_basket","recycling:cans":"yes","recycling:glass_bottles":"yes"}},"type":"Feature"},
	{"geometry":{"coordinates":[139.767027,35.660086],"type":"Point"},"properties":{"osm_id":"5649804349","tag":{"amenity":"waste_basket","recycling:cans":"yes","recycling:glass_bottles":"yes"}},"type":"Feature"},
	{"geometry":{"coordinates":[139.767015,35.660057],"type":"Point"},"properties":{"osm_id":"5649804350","tag":{"amenity":"waste_basket","recycling:cans":"yes","recycling:glass_bottles":"yes"}},"type":"Feature"},
	{"geometry":{"coordinates":[139.76432,35.660849],"type":"Point"},"properties":{"osm_id":"5649834473","tag":{"amenity":"waste_basket","recycling:cans":"yes","recycling:glass_bottles":"yes"}},"type":"Feature"},
	{"geometry":{"coordinates":[139.764332,35.660842],"type":"Point"},"properties":{"osm_id":"5649834474","tag":{"amenity":"waste_basket","recycling:cans":"yes","recycling:glass_bottles":"yes"}},"type":"Feature"},
	{"geometry":{"coordinates":[139.763896,35.661285],"type":"Point"},"properties":{"osm_id":"5649841857","tag":{"amenity":"waste_basket","recycling:cans":"yes","recycling:glass_bottles":"yes"}},"type":"Feature"},
	{"geometry":{"coordinates":[139.763896,35.661303],"type":"Point"},"properties":{"osm_id":"5649841858","tag":{"amenity":"waste_basket","recycling:cans":"yes","recycling:glass_bottles":"yes"}},"type":"Feature"},
	{"geometry":{"coordinates":[139.749965,35.6486],"type":"Point"},"properties":{"osm_id":"5683953626","tag":{"amenity":"recycling","recycling:PET":"yes","recycling:cans":"yes","recycling:glass_bottles":"yes","recycling:waste":"yes","recycling_type":"container"}},"type":"Feature"},
	{"geometry":{"coordinates":[139.748419,35.657936],"type":"Point"},"properties":{"osm_id":"5774502642","tag":{"amenity":"waste_basket"}},"type":"Feature"},
	{"geometry":{"coordinates":[139.784167,35.672674],"type":"Point"},"properties":{"osm_id":"5787795321","tag":{"amenity":"waste_basket"}},"type":"Feature"},
	{"geometry":{"coordinates":[139.756307,35.674689],"type":"Point"},"properties":{"osm_id":"5824886288","tag":{"amenity":"waste_basket"}},"type":"Feature"},
	{"geometry":{"coordinates":[139.800344,35.67215],"type":"Point"},"properties":{"osm_id":"5826494060","tag":{"amenity":"waste_disposal"}},"type":"Feature"},
	{"geometry":{"coordinates":[139.75803,35.655829],"type":"Point"},"properties":{"osm_id":"5939924690","tag":{"amenity":"waste_basket"}},"type":"Feature"},
	{"geometry":{"coordinates":[139.758104,35.654342],"type":"Point"},"properties":{"osm_id":"5971579167","tag":{"amenity":"waste_basket","waste":"trash"}},"type":"Feature"},
	{"geometry":{"coordinates":[139.758889,35.655586],"type":"Point"},"properties":{"osm_id":"6009987475","tag":{"amenity":"waste_basket"}},"type":"Feature"},
	{"geometry":{"coordinates":[139.772567,35.626036],"type":"Point"},"properties":{"osm_id":"6086794085","tag":{"amenity":"waste_basket"}},"type":"Feature"},
	{"geometry":{"coordinates":[139.749955,35.65486],"type":"Point"},"properties":{"osm_id":"6190245127","tag":{"amenity":"waste_basket","level":"-1"}},"type":"Feature"},
	{"geometry":{"coordinates":[139.816056,35.64537],"type":"Point"},"properties":{"osm_id":"6435733543","tag":{"amenity":"waste_basket"}},"type":"Feature"},
	{"geometry":{"coordinates":[139.774297,35.62933],"type":"Point"},"properties":{"osm_id":"6616871512","tag":{"amenity":"waste_basket"}},"type":"Feature"},
	{"geometry":{"coordinates":[139.809157,35.674396],"type":"Point"},"properties":{"osm_id":"6652691719","tag":{"amenity":"waste_basket"}},"type":"Feature"},
	{"geometry":{"coordinates":[139.751417,35.649544],"type":"Point"},"properties":{"osm_id":"6935137154","tag":{"amenity":"recycling","recycling_type":"centre"}},"type":"Feature"},
	{"geometry":{"coordinates":[139.79937,35.671858],"type":"Point"},"properties":{"osm_id":"7074151738","tag":{"amenity":"waste_basket"}},"type":"Feature"}
]
}
