{
"type": "FeatureCollection",
"features": [
	{"geometry":{"coordinates":[-46.637056,-23.556558],"type":"Point"},"properties":{"name":"Ecoponto Liberdade","osm_id":"3738577955","tag":{"amenity":"recycling","operator":"Secretaria Municipal de Servi\u00c3\u00a7os","recycling_type":"centre","website":"https://www.prefeitura.sp.gov.br/cidade/secretarias/servicos/amlurb/ecopontos/index.php?p=4626"}},"type":"Feature"},
	{"geometry":{"coordinates":[-46.591051,-23.516404],"type":"Point"},"properties":{"osm_id":"3793351573","tag":{"addr:city":"S\u00c3\u00a3o Paulo","addr:housenumber":"651","addr:postcode":"02111-031","addr:street":"Rua Ita\u00c3\u00bana","amenity":"recycling","recycling_type":"centre"}},"type":"Feature"},
	{"geometry":{"coordinates":[-46.589798,-23.489746],"type":"Point"},"properties":{"osm_id":"3932405051","tag":{"addr:city":"S\u00c3\u00a3o Paulo","addr:housenumber":"457","addr:postcode":"02205-010","addr:street":"Rua Ida Boschetti","amenity":"recycling","recycling_type":"centre"}},"type":"Feature"},
	{"geometry":{"coordinates":[-46.60283,-23.51353],"type":"Point"},"properties":{"osm_id":"4454975719","tag":{"addr:city":"S\u00c3\u00a3o Paulo","addr:housenumber":"1100","addr:postcode":"02053-002","addr:street":"Avenida Guilherme","amenity":"recycling","recycling_type":"centre"}},"type":"Feature"},
	{"geometry":{"coordinates":[-46.600382,-23.517177],"type":"Point"},"properties":{"barrier":"gate","name":"Eco Ponto Vila Guilherme","osm_id":"4455689441","tag":{"addr:city":"S\u00c3\u00a3o Paulo","addr:housenumber":"1311","addr:street":"Rua Jos\u00c3\u00a9 Bernardo Pinto","entrance":"main"}},"type":"Feature"},
	{"geometry":{"coordinates":[-46.588502,-23.498478],"type":"Point"},"properties":{"osm_id":"4480212957","tag":{"addr:city":"S\u00c3\u00a3o Paulo","addr:housenumber":"233","addr:postcode":"02213-040","addr:street":"Rua S\u00c3\u00a3o Te\u00c3\u00b3filo"}},"type":"Feature"},
	{"geometry":{"coordinates":[-46.604156,-23.515464],"type":"Point"},"properties":{"osm_id":"4485698796","tag":{"addr:city":"S\u00c3\u00a3o Paulo","addr:housenumber":"853D","addr:postcode":"02053-002","addr:street":"Avenida Guilherme","amenity":"recycling","recycling_type":"centre"}},"type":"Feature"},
	{"geometry":{"coordinates":[-46.588343,-23.498567],"type":"Point"},"properties":{"osm_id":"4536840451","tag":{"addr:city":"S\u00c3\u00a3o Paulo","addr:housenumber":"2863","addr:postcode":"02135-000","addr:street":"Avenida Concei\u00c3\u00a7\u00c3\u00a3o"}},"type":"Feature"},
	{"geometry":{"coordinates":[-46.638149,-23.524735],"type":"Point"},"properties":{"osm_id":"4715087655","tag":{"addr:city":"S\u00c3\u00a3o Paulo","addr:housenumber":"355","addr:postcode":"01128-020","addr:street":"Rua Mamor\u00c3\u00a9","amenity":"recycling","recycling_type":"centre"}},"type":"Feature"},
	{"geometry":{"coordinates":[-46.614042,-23.524723],"type":"Point"},"properties":{"osm_id":"5375309331","tag":{"addr:city":"S\u00c3\u00a3o Paulo","addr:housenumber":"75","addr:postcode":"03035-040","addr:street":"Rua Doutor Miguel Paulo Capalbo","mapillary":"https://www.mapillary.com/map/im/70rKfQZlz9geRKLk7XE15w"}},"type":"Feature"},
	{"geometry":{"coordinates":[-46.668909,-23.563226],"type":"Point"},"properties":{"osm_id":"6713899718","tag":{"amenity":"waste_basket","material":"metal"}},"type":"Feature"},
	{"geometry":{"coordinates":[-46.607807,-23.517958],"type":"Point"},"properties":{"osm_id":"7052832014","tag":{"addr:city":"S\u00c3\u00a3o Paulo","addr:housenumber":"622","addr:postcode":"02054-050","addr:street":"Rua Henrique Felipe da Costa"}},"type":"Feature"},
	{"geometry":{"coordinates":[-46.607731,-23.517956],"type":"Point"},"properties":{"osm_id":"7052832021","tag":{"addr:city":"S\u00c3\u00a3o Paulo","addr:housenumber":"650","addr:postcode":"02054-050","addr:street":"Rua Henrique Felipe da Costa"}},"type":"Feature"},
	{"geometry":{"coordinates":[-46.645168,-23.539791],"type":"Point"},"properties":{"osm_id":"7072274390","tag":{"amenity":"waste_basket"}},"type":"Feature"},
	{"geometry":{"coordinates":[-46.645313,-23.539708],"type":"Point"},"properties":{"osm_id":"7072274391","tag":{"amenity":"waste_basket"}},"type":"Feature"},
	{"geometry":{"coordinates":[-46.645099,-23.539817],"type":"Point"},"properties":{"osm_id":"7072274392","tag":{"amenity":"waste_basket"}},"type":"Feature"},
	{"geometry":{"coordinates":[-46.645174,-23.539907],"type":"Point"},"properties":{"osm_id":"7072274393","tag":{"amenity":"waste_basket"}},"type":"Feature"},
	{"geometry":{"coordinates":[-46.645216,-23.539996],"type":"Point"},"properties":{"osm_id":"7072274394","tag":{"amenity":"waste_basket"}},"type":"Feature"},
	{"geometry":{"coordinates":[-46.645315,-23.539925],"type":"Point"},"properties":{"osm_id":"7072274395","tag":{"amenity":"waste_basket"}},"type":"Feature"},
	{"geometry":{"coordinates":[-46.610772,-23.554511],"type":"Point"},"properties":{"name":"Ecoponto Br\u00c3\u00a1s","osm_id":"7167847911","tag":{"amenity":"recycling","recycling_type":"centre"}},"type":"Feature"},
	{"geometry":{"coordinates":[-46.622332,-23.539234],"type":"Point"},"properties":{"name":"Ecoponto","osm_id":"7468766998","tag":{"amenity":"recycling","recycling_type":"centre"}},"type":"Feature"},
	{"geometry":{"coordinates":[-46.648534,-23.52707],"type":"Point"},"properties":{"osm_id":"9095124761","tag":{"addr:city":"S\u00c3\u00a3o Paulo","addr:housenumber":"29","addr:postcode":"01135-020","addr:street":"Rua C\u00c3\u00b4nego Vicente Miguel Marino","entrance":"yes"}},"type":"Feature"}
]
}
