{
"type": "FeatureCollection",
"features": [
	{"geometry":{"coordinates":[10.358875,63.407349],"type":"Point"},"properties":{"osm_id":"1804450156","tag":{"amenity":"recycling","description":"Returpunkt, By\u00c3\u00a5sen, v/Bunnpris Havstad","recycling:glass_bottles":"yes","recycling_type":"container","ref:sortere":"10722"}},"type":"Feature"},
	{"geometry":{"coordinates":[10.358681,63.407495],"type":"Point"},"properties":{"osm_id":"1804450207","tag":{"amenity":"recycling","recycling:clothes":"yes","recycling_type":"container"}},"type":"Feature"},
	{"geometry":{"coordinates":[10.351373,63.413711],"type":"Point"},"properties":{"osm_id":"1808107020","tag":{"amenity":"recycling","description":"Returpunkt, By\u00c3\u00a5sen, Gamle Oslo vei 28, v/Bunnpris","recycling:glass_bottles":"yes","recycling_type":"container","ref:sortere":"10750"}},"type":"Feature"},
	{"geometry":{"coordinates":[10.322644,63.394954],"type":"Point"},"properties":{"osm_id":"1866474225","tag":{"amenity":"waste_disposal"}},"type":"Feature"},
	{"geometry":{"coordinates":[10.317155,63.395474],"type":"Point"},"properties":{"osm_id":"1866474233","tag":{"amenity":"waste_disposal"}},"type":"Feature"},
	{"geometry":{"coordinates":[10.34146,63.402956],"type":"Point"},"properties":{"osm_id":"1866474267","tag":{"amenity":"waste_disposal"}},"type":"Feature"},
	{"geometry":{"coordinates":[10.369672,63.430558],"type":"Point"},"properties":{"osm_id":"2910356515","tag":{"amenity":"recycling","description":"Midtbypunkt, Hans Nissens gate/Skolegata","recycling:glass_bottles":"yes","recycling:paper":"yes","recycling:plastic_packaging":"yes","recycling_type":"container","ref:sortere":"10579"}},"type":"Feature"},
	{"geometry":{"coordinates":[10.366546,63.43],"type":"Point"},"properties":{"osm_id":"2910360188","tag":{"amenity":"recycling"}},"type":"Feature"},
	{"geometry":{"coordinates":[10.368065,63.429857],"type":"Point"},"properties":{"osm_id":"2910361851","tag":{"amenity":"recycling","description":"Midtbypunkt, Abelsborggate, v//Kleistsgate","recycling:paper":"yes","recycling:plastic_packaging":"yes","recycling_type":"container","ref:sortere":"10751"}},"type":"Feature"},
	{"geometry":{"coordinates":[10.369358,63.427076],"type":"Point"},"properties":{"osm_id":"2930608419","tag":{"amenity":"recycling","description":"Midtbypunkt, Osloveien 12, v/Joker","recycling:glass_bottles":"yes","recycling:paper":"yes","recycling:plastic_packaging":"yes","recycling_type":"container","ref:sortere":"10700"}},"type":"Feature"},
	{"geometry":{"coordinates":[10.349693,63.427306],"type":"Point"},"properties":{"osm_id":"4147610735","tag":{"amenity":"recycling","description":"Returpunkt, Fagerlia, Kapt. Roosensv. 6","recycling:glass_bottles":"yes","recycling_type":"container","ref:sortere":"10796"}},"type":"Feature"},
	{"geometry":{"coordinates":[10.349738,63.427293],"type":"Point"},"properties":{"osm_id":"4147714189","tag":{"amenity":"recycling","recycling:clothes":"yes","recycling_type":"container"}},"type":"Feature"},
	{"geometry":{"coordinates":[10.348226,63.428469],"type":"Point"},"properties":{"osm_id":"4147716714","tag":{"amenity":"recycling","recycling:plastic":"yes"}},"type":"Feature"},
	{"geometry":{"coordinates":[10.348189,63.428459],"type":"Point"},"properties":{"osm_id":"4147717120","tag":{"amenity":"recycling","recycling:plastic":"yes"}},"type":"Feature"},
	{"geometry":{"coordinates":[10.347825,63.429504],"type":"Point"},"properties":{"name":"El-avfallsgjenvinning, privat","osm_id":"4147770589","tag":{"amenity":"recycling","recycling:electrical_items":"yes","recycling:hazardous_waste":"yes"}},"type":"Feature"},
	{"geometry":{"coordinates":[10.366004,63.429131],"type":"Point"},"properties":{"osm_id":"4418592418","tag":{"amenity":"recycling"}},"type":"Feature"},
	{"geometry":{"coordinates":[10.339118,63.395591],"type":"Point"},"properties":{"osm_id":"4603833551","tag":{"amenity":"recycling","recycling:cans":"yes","recycling:plastic_bottles":"yes"}},"type":"Feature"},
	{"geometry":{"coordinates":[10.34848,63.428623],"type":"Point"},"properties":{"osm_id":"4768041844","tag":{"amenity":"recycling"}},"type":"Feature"},
	{"geometry":{"coordinates":[10.363031,63.429653],"type":"Point"},"properties":{"osm_id":"4770810028","tag":{"amenity":"recycling","description":"Returpunkt, Ila, Hanskemakerbakken","recycling:clothes":"yes","recycling:glass_bottles":"yes","recycling:paper":"yes","recycling_type":"container","ref:sortere":"10595"}},"type":"Feature"},
	{"geometry":{"coordinates":[10.352486,63.416097],"type":"Point"},"properties":{"osm_id":"4848986109","tag":{"amenity":"recycling","description":"Returpunkt, By\u00c3\u00a5sen, Gamle Oslo vei 8, v/COOP Prix","recycling:clothes":"yes","recycling:glass_bottles":"yes","recycling_type":"container","ref:sortere":"10609"}},"type":"Feature"},
	{"geometry":{"coordinates":[10.365262,63.430469],"type":"Point"},"properties":{"osm_id":"4848986113","tag":{"amenity":"recycling"}},"type":"Feature"},
	{"geometry":{"coordinates":[10.368402,63.428941],"type":"Point"},"properties":{"osm_id":"5063821008","tag":{"amenity":"waste_basket"}},"type":"Feature"},
	{"geometry":{"coordinates":[10.368745,63.429139],"type":"Point"},"properties":{"osm_id":"5063821009","tag":{"amenity":"waste_basket"}},"type":"Feature"},
	{"geometry":{"coordinates":[10.366048,63.427871],"type":"Point"},"properties":{"osm_id":"5063835696","tag":{"amenity":"recycling"}},"type":"Feature"},
	{"geometry":{"coordinates":[10.306597,63.422772],"type":"Point"},"properties":{"osm_id":"5063837887","tag":{"amenity":"recycling"}},"type":"Feature"},
	{"geometry":{"coordinates":[10.368692,63.429187],"type":"Point"},"properties":{"osm_id":"5063838140","tag":{"amenity":"recycling"}},"type":"Feature"},
	{"geometry":{"coordinates":[10.369013,63.429033],"type":"Point"},"properties":{"osm_id":"5063838141","tag":{"amenity":"waste_basket"}},"type":"Feature"},
	{"geometry":{"coordinates":[10.369638,63.429135],"type":"Point"},"properties":{"osm_id":"5063838444","tag":{"amenity":"waste_basket"}},"type":"Feature"},
	{"geometry":{"coordinates":[10.369709,63.42936],"type":"Point"},"properties":{"osm_id":"5063838445","tag":{"amenity":"waste_basket"}},"type":"Feature"},
	{"geometry":{"coordinates":[10.369076,63.428542],"type":"Point"},"properties":{"osm_id":"5063838450","tag":{"amenity":"waste_basket"}},"type":"Feature"},
	{"geometry":{"coordinates":[10.314413,63.402016],"type":"Point"},"properties":{"osm_id":"5063838821","tag":{"amenity":"recycling"}},"type":"Feature"},
	{"geometry":{"coordinates":[10.366518,63.42954],"type":"Point"},"properties":{"osm_id":"5109775264","tag":{"amenity":"recycling","recycling:paper":"yes","recycling:plastic":"yes"}},"type":"Feature"},
	{"geometry":{"coordinates":[10.366738,63.42949],"type":"Point"},"properties":{"osm_id":"5109775621","tag":{"amenity":"recycling"}},"type":"Feature"},
	{"geometry":{"coordinates":[10.34383,63.406407],"type":"Point"},"properties":{"osm_id":"5113513040","tag":{"amenity":"recycling"}},"type":"Feature"},
	{"geometry":{"coordinates":[10.355975,63.428939],"type":"Point"},"properties":{"osm_id":"5420534202","tag":{"amenity":"recycling"}},"type":"Feature"},
	{"geometry":{"coordinates":[10.336323,63.404049],"type":"Point"},"properties":{"osm_id":"5555191114","tag":{"amenity":"recycling","description":"Returpunkt, Kyvannsveien 16","recycling:glass_bottles":"yes","recycling:paper":"yes","recycling_type":"container","ref:sortere":"10682"}},"type":"Feature"},
	{"geometry":{"coordinates":[10.358869,63.394147],"type":"Point"},"properties":{"osm_id":"5555191117","tag":{"amenity":"recycling","description":"Returpunkt, Hallset, S\u00c3\u00b8ndre Hallset B/L","recycling:cans":"yes","recycling:glass_bottles":"yes","recycling:paper":"yes","recycling:plastic":"no","recycling:plastic_packaging":"yes","recycling_type":"container","ref:sortere":"10675"}},"type":"Feature"},
	{"geometry":{"coordinates":[10.358764,63.398677],"type":"Point"},"properties":{"osm_id":"5555191763","tag":{"amenity":"recycling","description":"Returpunkt, By\u00c3\u00a5sen, B\u00c3\u00b8ckmannsveien/By\u00c3\u00a5sen skole","recycling:glass_bottles":"yes","recycling_type":"container","ref:sortere":"10538"}},"type":"Feature"},
	{"geometry":{"coordinates":[10.369576,63.429859],"type":"Point"},"properties":{"osm_id":"5555210275","tag":{"amenity":"recycling","description":"Ila - Mellomila/Hans Nissens gate","recycling:paper":"yes","recycling_type":"container","ref:sortere":"10579"}},"type":"Feature"},
	{"geometry":{"coordinates":[10.365205,63.429285],"type":"Point"},"properties":{"osm_id":"5614806657","tag":{"amenity":"recycling"}},"type":"Feature"},
	{"geometry":{"coordinates":[10.349193,63.42261],"type":"Point"},"properties":{"osm_id":"5614806659","tag":{"amenity":"recycling"}},"type":"Feature"},
	{"geometry":{"coordinates":[10.34988,63.427539],"type":"Point"},"properties":{"osm_id":"5643839508","tag":{"amenity":"recycling"}},"type":"Feature"},
	{"geometry":{"coordinates":[10.357653,63.417349],"type":"Point"},"properties":{"osm_id":"5679733547","tag":{"amenity":"recycling"}},"type":"Feature"},
	{"geometry":{"coordinates":[10.3433,63.425233],"type":"Point"},"properties":{"osm_id":"5695331237","tag":{"amenity":"recycling","location":"overground","recycling:paper":"yes","recycling:plastic":"no","recycling:plastic_packaging":"yes","recycling_type":"container"}},"type":"Feature"},
	{"geometry":{"coordinates":[10.366641,63.430683],"type":"Point"},"properties":{"osm_id":"6080553241","tag":{"amenity":"recycling"}},"type":"Feature"},
	{"geometry":{"coordinates":[10.357823,63.421436],"type":"Point"},"properties":{"osm_id":"6164883383","tag":{"amenity":"waste_basket"}},"type":"Feature"},
	{"geometry":{"coordinates":[10.349802,63.418457],"type":"Point"},"properties":{"osm_id":"6195511304","tag":{"amenity":"recycling","description":"Returpunkt, By\u00c3\u00a5sen butikksenter","recycling:glass_bottles":"yes","recycling_type":"container","ref:sortere":"21703"}},"type":"Feature"},
	{"geometry":{"coordinates":[10.30451,63.395276],"type":"Point"},"properties":{"osm_id":"6295835206","tag":{"amenity":"recycling"}},"type":"Feature"},
	{"geometry":{"coordinates":[10.362204,63.410857],"type":"Point"},"properties":{"osm_id":"6550108579","tag":{"amenity":"recycling"}},"type":"Feature"},
	{"geometry":{"coordinates":[10.311721,63.39988],"type":"Point"},"properties":{"osm_id":"7618142697","tag":{"amenity":"recycling"}},"type":"Feature"},
	{"geometry":{"coordinates":[10.314451,63.401994],"type":"Point"},"properties":{"osm_id":"8779125028","tag":{"amenity":"waste_basket"}},"type":"Feature"},
	{"geometry":{"coordinates":[10.353449,63.418078],"type":"Point"},"properties":{"osm_id":"8837127393","tag":{"amenity":"recycling","operator":"Fretex","recycling:clothes":"yes","recycling_type":"container"}},"type":"Feature"},
	{"geometry":{"coordinates":[10.365305,63.429442],"type":"Point"},"properties":{"osm_id":"8837154102","tag":{"amenity":"waste_basket"}},"type":"Feature"},
	{"geometry":{"coordinates":[10.355882,63.406017],"type":"Point"},"properties":{"osm_id":"8909509152","tag":{"amenity":"recycling","operator":"Fretex","recycling:clothes":"yes","recycling_type":"container"}},"type":"Feature"},
	{"geometry":{"coordinates":[10.362305,63.399431],"type":"Point"},"properties":{"osm_id":"8910717617","tag":{"access":"private","amenity":"recycling","recycling_type":"container"}},"type":"Feature"}
]
}
