{
"type": "FeatureCollection",
"features": [
	{"geometry":{"coordinates":[10.330445,59.513664],"type":"Point"},"properties":{"osm_id":"432442510","tag":{"amenity":"waste_basket"}},"type":"Feature"},
	{"geometry":{"coordinates":[10.327642,59.515778],"type":"Point"},"properties":{"osm_id":"432442512","tag":{"amenity":"waste_basket"}},"type":"Feature"},
	{"geometry":{"coordinates":[10.327382,59.517859],"type":"Point"},"properties":{"osm_id":"432442549","tag":{"amenity":"waste_basket"}},"type":"Feature"},
	{"geometry":{"coordinates":[10.341298,59.533633],"type":"Point"},"properties":{"osm_id":"825491360","tag":{"amenity":"recycling","recycling:cans":"yes","recycling:glass":"yes","recycling:paper":"yes","recycling:scrap_metal":"yes"}},"type":"Feature"},
	{"geometry":{"coordinates":[10.370371,59.53395],"type":"Point"},"properties":{"osm_id":"1242106395","tag":{"amenity":"waste_disposal"}},"type":"Feature"},
	{"geometry":{"coordinates":[10.31186,59.492101],"type":"Point"},"properties":{"osm_id":"4930904333","tag":{"amenity":"waste_basket"}},"type":"Feature"},
	{"geometry":{"coordinates":[10.295129,59.489756],"type":"Point"},"properties":{"osm_id":"5555207665","tag":{"amenity":"recycling","description":"MENY, Hvittingfossv","recycling:clothes":"yes","recycling_type":"container","ref:sortere":"20958"}},"type":"Feature"},
	{"geometry":{"coordinates":[10.284311,59.52353],"type":"Point"},"properties":{"osm_id":"6680330560","tag":{"amenity":"waste_basket"}},"type":"Feature"},
	{"geometry":{"coordinates":[10.298751,59.505387],"type":"Point"},"properties":{"osm_id":"6680330568","tag":{"amenity":"waste_basket"}},"type":"Feature"}
]
}
