{
"type": "FeatureCollection",
"features": [
	{"geometry":{"coordinates":[10.350555,53.50254],"type":"Point"},"properties":{"osm_id":"262891488","tag":{"amenity":"recycling","recycling:clothes":"yes","recycling:glass_bottles":"yes","recycling:paper":"yes","recycling_type":"container"}},"type":"Feature"},
	{"geometry":{"coordinates":[10.284881,53.489696],"type":"Point"},"properties":{"osm_id":"281936296","tag":{"amenity":"recycling","recycling:clothes":"yes","recycling:glass_bottles":"yes","recycling:paper":"yes","recycling_type":"container"}},"type":"Feature"},
	{"geometry":{"coordinates":[10.296912,53.524471],"type":"Point"},"properties":{"osm_id":"529971522","tag":{"amenity":"recycling","recycling:clothes":"yes","recycling:glass_bottles":"yes","recycling:paper":"yes","recycling_type":"container"}},"type":"Feature"},
	{"geometry":{"coordinates":[10.316351,53.489077],"type":"Point"},"properties":{"osm_id":"784007701","tag":{"amenity":"recycling","recycling:glass_bottles":"yes","recycling:paper":"yes","recycling_type":"container"}},"type":"Feature"},
	{"geometry":{"coordinates":[10.326093,53.530445],"type":"Point"},"properties":{"osm_id":"1674321534","tag":{"amenity":"waste_basket"}},"type":"Feature"},
	{"geometry":{"coordinates":[10.324648,53.530605],"type":"Point"},"properties":{"osm_id":"1674321535","tag":{"amenity":"waste_basket"}},"type":"Feature"},
	{"geometry":{"coordinates":[10.32359,53.53101],"type":"Point"},"properties":{"osm_id":"1674321538","tag":{"amenity":"waste_basket"}},"type":"Feature"},
	{"geometry":{"coordinates":[10.319934,53.531571],"type":"Point"},"properties":{"osm_id":"1674321542","tag":{"amenity":"waste_basket"}},"type":"Feature"},
	{"geometry":{"coordinates":[10.29348,53.540247],"type":"Point"},"properties":{"osm_id":"1674916236","tag":{"amenity":"waste_basket"}},"type":"Feature"},
	{"geometry":{"coordinates":[10.32796,53.53032],"type":"Point"},"properties":{"osm_id":"1759883917","tag":{"amenity":"waste_basket"}},"type":"Feature"},
	{"geometry":{"coordinates":[10.329955,53.530326],"type":"Point"},"properties":{"osm_id":"1759883918","tag":{"amenity":"waste_basket"}},"type":"Feature"},
	{"geometry":{"coordinates":[10.330873,53.530364],"type":"Point"},"properties":{"osm_id":"1759883919","tag":{"amenity":"waste_basket"}},"type":"Feature"},
	{"geometry":{"coordinates":[10.370987,53.493422],"type":"Point"},"properties":{"osm_id":"1845365109","tag":{"amenity":"recycling","recycling:clothes":"yes","recycling:glass_bottles":"yes","recycling:paper":"yes","recycling_type":"container"}},"type":"Feature"},
	{"geometry":{"coordinates":[10.28523,53.512832],"type":"Point"},"properties":{"osm_id":"2038919688","tag":{"amenity":"recycling","recycling:clothes":"yes","recycling:glass_bottles":"yes","recycling_type":"container"}},"type":"Feature"},
	{"geometry":{"coordinates":[10.312898,53.530907],"type":"Point"},"properties":{"osm_id":"4789066239","tag":{"amenity":"recycling","recycling:glass_bottles":"yes","recycling_type":"container"}},"type":"Feature"},
	{"geometry":{"coordinates":[10.362907,53.489692],"type":"Point"},"properties":{"osm_id":"4882046927","tag":{"amenity":"waste_basket"}},"type":"Feature"},
	{"geometry":{"coordinates":[10.363255,53.489782],"type":"Point"},"properties":{"osm_id":"4882046929","tag":{"amenity":"waste_basket"}},"type":"Feature"},
	{"geometry":{"coordinates":[10.311037,53.531258],"type":"Point"},"properties":{"osm_id":"8044453244","tag":{"amenity":"waste_basket"}},"type":"Feature"},
	{"geometry":{"coordinates":[10.314727,53.529924],"type":"Point"},"properties":{"osm_id":"8522043384","tag":{"amenity":"waste_basket","level":"1"}},"type":"Feature"},
	{"geometry":{"coordinates":[10.303671,53.524659],"type":"Point"},"properties":{"osm_id":"8789055682","tag":{"amenity":"waste_basket"}},"type":"Feature"},
	{"geometry":{"coordinates":[10.341101,53.527948],"type":"Point"},"properties":{"osm_id":"8789138831","tag":{"amenity":"waste_basket"}},"type":"Feature"},
	{"geometry":{"coordinates":[10.338251,53.528228],"type":"Point"},"properties":{"osm_id":"8789148517","tag":{"amenity":"waste_basket","survey:date":"2021-06-01"}},"type":"Feature"},
	{"geometry":{"coordinates":[10.339606,53.528245],"type":"Point"},"properties":{"osm_id":"8789152317","tag":{"amenity":"waste_basket","survey:date":"2021-06-01"}},"type":"Feature"},
	{"geometry":{"coordinates":[10.340733,53.528138],"type":"Point"},"properties":{"osm_id":"8789222317","tag":{"amenity":"waste_basket","survey:date":"2021-06-01"}},"type":"Feature"},
	{"geometry":{"coordinates":[10.337632,53.527842],"type":"Point"},"properties":{"osm_id":"8789222417","tag":{"amenity":"waste_basket","survey:date":"2021-06-01"}},"type":"Feature"}
]
}
