{
"type": "FeatureCollection",
"features": [
	{"geometry":{"coordinates":[10.309609,51.740714],"type":"Point"},"properties":{"osm_id":"4452429682","tag":{"amenity":"waste_basket","survey:date":"2016-10-17"}},"type":"Feature"},
	{"geometry":{"coordinates":[10.32929,51.777686],"type":"Point"},"properties":{"osm_id":"5650405866","tag":{"amenity":"waste_basket","waste":"trash"}},"type":"Feature"},
	{"geometry":{"coordinates":[10.329296,51.777784],"type":"Point"},"properties":{"osm_id":"5661006226","tag":{"amenity":"recycling","opening_hours":"24/7","recycling:glass":"yes","recycling_type":"container"}},"type":"Feature"},
	{"geometry":{"coordinates":[10.329349,51.777788],"type":"Point"},"properties":{"osm_id":"5661006227","tag":{"amenity":"recycling","opening_hours":"24/7","recycling:cardboard":"yes","recycling:paper":"yes","recycling_type":"container"}},"type":"Feature"},
	{"geometry":{"coordinates":[10.312503,51.760046],"type":"Point"},"properties":{"osm_id":"5739215549","tag":{"amenity":"waste_basket","waste":"trash"}},"type":"Feature"},
	{"geometry":{"coordinates":[10.312912,51.759849],"type":"Point"},"properties":{"osm_id":"5739215560","tag":{"amenity":"waste_basket","waste":"trash"}},"type":"Feature"},
	{"geometry":{"coordinates":[10.30641,51.758544],"type":"Point"},"properties":{"osm_id":"5749575337","tag":{"amenity":"waste_basket","waste":"trash"}},"type":"Feature"},
	{"geometry":{"coordinates":[10.301097,51.756661],"type":"Point"},"properties":{"osm_id":"5749596866","tag":{"amenity":"waste_basket","waste":"trash"}},"type":"Feature"},
	{"geometry":{"coordinates":[10.301622,51.756677],"type":"Point"},"properties":{"osm_id":"5749596876","tag":{"amenity":"waste_basket","waste":"trash"}},"type":"Feature"},
	{"geometry":{"coordinates":[10.297636,51.756239],"type":"Point"},"properties":{"osm_id":"5749607053","tag":{"amenity":"waste_basket","waste":"trash"}},"type":"Feature"},
	{"geometry":{"coordinates":[10.291224,51.753186],"type":"Point"},"properties":{"osm_id":"5749902830","tag":{"amenity":"waste_basket","waste":"trash"}},"type":"Feature"},
	{"geometry":{"coordinates":[10.288329,51.746542],"type":"Point"},"properties":{"osm_id":"5750085721","tag":{"amenity":"waste_basket","waste":"trash"}},"type":"Feature"},
	{"geometry":{"coordinates":[10.288844,51.747147],"type":"Point"},"properties":{"osm_id":"5750085733","tag":{"amenity":"waste_basket","waste":"trash"}},"type":"Feature"},
	{"geometry":{"coordinates":[10.285549,51.743572],"type":"Point"},"properties":{"osm_id":"5750096516","tag":{"amenity":"waste_basket","waste":"trash"}},"type":"Feature"}
]
}
