{
"type": "FeatureCollection",
"features": [
	{"geometry":{"coordinates":[10.323636,48.674794],"type":"Point"},"properties":{"osm_id":"4187493306","tag":{"amenity":"recycling","recycling:clothes":"yes","recycling:shoes":"yes","recycling_type":"container"}},"type":"Feature"},
	{"geometry":{"coordinates":[10.323581,48.674811],"type":"Point"},"properties":{"osm_id":"4187493307","tag":{"amenity":"recycling","recycling:glass":"yes","recycling_type":"container"}},"type":"Feature"},
	{"geometry":{"coordinates":[10.323543,48.674819],"type":"Point"},"properties":{"osm_id":"4187493308","tag":{"amenity":"recycling","recycling:cans":"yes","recycling_type":"container"}},"type":"Feature"},
	{"geometry":{"coordinates":[10.327659,48.639011],"type":"Point"},"properties":{"osm_id":"4593415744","tag":{"amenity":"waste_basket"}},"type":"Feature"},
	{"geometry":{"coordinates":[10.313917,48.63758],"type":"Point"},"properties":{"osm_id":"6042847409","tag":{"amenity":"waste_basket"}},"type":"Feature"},
	{"geometry":{"coordinates":[10.314048,48.637465],"type":"Point"},"properties":{"osm_id":"6042847410","tag":{"amenity":"waste_basket"}},"type":"Feature"},
	{"geometry":{"coordinates":[10.300807,48.653279],"type":"Point"},"properties":{"osm_id":"6848772792","tag":{"amenity":"recycling","recycling:cans":"yes","recycling:glass_bottles":"yes","recycling_type":"container"}},"type":"Feature"},
	{"geometry":{"coordinates":[10.322321,48.635195],"type":"Point"},"properties":{"osm_id":"7580134294","tag":{"amenity":"waste_basket"}},"type":"Feature"},
	{"geometry":{"coordinates":[10.321989,48.639654],"type":"Point"},"properties":{"osm_id":"7580138491","tag":{"amenity":"waste_basket"}},"type":"Feature"},
	{"geometry":{"coordinates":[10.316334,48.635719],"type":"Point"},"properties":{"osm_id":"7659492128","tag":{"amenity":"waste_basket"}},"type":"Feature"},
	{"geometry":{"coordinates":[10.316584,48.635831],"type":"Point"},"properties":{"osm_id":"7659576976","tag":{"amenity":"waste_basket"}},"type":"Feature"}
]
}
