{
"type": "FeatureCollection",
"features": [
	{"geometry":{"coordinates":[10.313819,48.449365],"type":"Point"},"properties":{"osm_id":"268262940","tag":{"amenity":"recycling"}},"type":"Feature"},
	{"geometry":{"coordinates":[10.324135,48.439776],"type":"Point"},"properties":{"osm_id":"292546416","tag":{"amenity":"recycling","recycling:clothes":"yes","recycling:glass":"yes"}},"type":"Feature"},
	{"geometry":{"coordinates":[10.36587,48.413898],"type":"Point"},"properties":{"osm_id":"371523111","tag":{"amenity":"recycling","recycling:glass":"yes"}},"type":"Feature"},
	{"geometry":{"coordinates":[10.284349,48.457473],"type":"Point"},"properties":{"osm_id":"496118516","tag":{"amenity":"recycling","recycling:clothes":"yes"}},"type":"Feature"},
	{"geometry":{"coordinates":[10.295061,48.435275],"type":"Point"},"properties":{"osm_id":"682291454","tag":{"amenity":"recycling","opening_hours":"Mo-Sa 7:00-19:00","operator":"Container-Service Gr\u00c3\u00b6ger GmbH","phone":"+49 8221 32057","recycling:cans":"no","recycling:clothes":"no","recycling:glass":"yes","recycling:paper":"yes","recycling:scrap_metal":"yes","recycling_type":"container"}},"type":"Feature"},
	{"geometry":{"coordinates":[10.296843,48.411797],"type":"Point"},"properties":{"osm_id":"1641724043","tag":{"amenity":"recycling","location":"overground","recycling:glass":"yes","recycling_type":"container"}},"type":"Feature"},
	{"geometry":{"coordinates":[10.292961,48.424161],"type":"Point"},"properties":{"name":"Recyclinghof","osm_id":"1710095845","tag":{"amenity":"recycling","recycling:batteries":"yes","recycling:cans":"yes","recycling:glass":"yes","recycling:paper":"yes","recycling:scrap_metal":"yes","recycling_type":"centre"}},"type":"Feature"},
	{"geometry":{"coordinates":[10.291131,48.451374],"type":"Point"},"properties":{"osm_id":"1782965005","tag":{"amenity":"recycling","recycling_type":"container"}},"type":"Feature"},
	{"geometry":{"coordinates":[10.299962,48.445722],"type":"Point"},"properties":{"osm_id":"1842951339","tag":{"amenity":"recycling","recycling:cans":"yes","recycling:clothes":"yes","recycling:glass":"yes","recycling:paper":"yes","recycling:shoes":"yes","recycling_type":"container"}},"type":"Feature"},
	{"geometry":{"coordinates":[10.293416,48.434666],"type":"Point"},"properties":{"osm_id":"1976480154","tag":{"amenity":"recycling","operator":"Pro Humanitas","recycling:clothes":"yes","recycling_type":"container"}},"type":"Feature"},
	{"geometry":{"coordinates":[10.283267,48.442638],"type":"Point"},"properties":{"osm_id":"1993080724","tag":{"amenity":"recycling","mapillary":"tFv18_gEuqpuziS2D9zmLw","recycling:beverage_cartons":"yes","recycling:glass":"no","recycling:glass_bottles":"yes","recycling:paper":"yes","recycling_type":"container","survey:date":"2019-07-01"}},"type":"Feature"},
	{"geometry":{"coordinates":[10.286051,48.452513],"type":"Point"},"properties":{"osm_id":"2302163056","tag":{"amenity":"recycling","recycling:batteries":"no","recycling:cardboard":"yes","recycling:clothes":"yes","recycling:glass":"yes","recycling:glass_bottles":"yes","recycling:green_waste":"no","recycling:magazines":"yes","recycling:newspaper":"yes","recycling:paper":"yes","recycling_type":"container"}},"type":"Feature"},
	{"geometry":{"coordinates":[10.296083,48.413166],"type":"Point"},"properties":{"osm_id":"4959711328","tag":{"amenity":"recycling","recycling:clothes":"yes","recycling:glass":"yes","recycling:shoes":"yes","recycling_type":"container"}},"type":"Feature"},
	{"geometry":{"coordinates":[10.295237,48.457788],"type":"Point"},"properties":{"osm_id":"6981660841","tag":{"amenity":"waste_basket"}},"type":"Feature"},
	{"geometry":{"coordinates":[10.294825,48.457892],"type":"Point"},"properties":{"osm_id":"6981664032","tag":{"amenity":"waste_basket"}},"type":"Feature"},
	{"geometry":{"coordinates":[10.354602,48.45834],"type":"Point"},"properties":{"osm_id":"7562233317","tag":{"amenity":"recycling","description":"Altglas- und Kartonagencontainer","recycling_type":"container"}},"type":"Feature"},
	{"geometry":{"coordinates":[10.28719,48.445917],"type":"Point"},"properties":{"osm_id":"8410154439","tag":{"amenity":"recycling","recycling:clothes":"yes","recycling:shoes":"yes","recycling_type":"container"}},"type":"Feature"},
	{"geometry":{"coordinates":[10.299062,48.424511],"type":"Point"},"properties":{"osm_id":"8641795513","tag":{"amenity":"waste_basket","waste":"trash"}},"type":"Feature"},
	{"geometry":{"coordinates":[10.302512,48.425337],"type":"Point"},"properties":{"osm_id":"8739991376","tag":{"amenity":"waste_basket"}},"type":"Feature"},
	{"geometry":{"coordinates":[10.302437,48.425149],"type":"Point"},"properties":{"osm_id":"8739991379","tag":{"amenity":"waste_basket"}},"type":"Feature"},
	{"geometry":{"coordinates":[10.301887,48.425068],"type":"Point"},"properties":{"osm_id":"8739991480","tag":{"amenity":"waste_basket"}},"type":"Feature"},
	{"geometry":{"coordinates":[10.301877,48.425184],"type":"Point"},"properties":{"osm_id":"8739991485","tag":{"amenity":"waste_basket"}},"type":"Feature"},
	{"geometry":{"coordinates":[10.341005,48.44811],"type":"Point"},"properties":{"osm_id":"8795587270","tag":{"amenity":"waste_basket"}},"type":"Feature"},
	{"geometry":{"coordinates":[10.300213,48.426382],"type":"Point"},"properties":{"osm_id":"9061482177","tag":{"amenity":"waste_basket","waste":"trash"}},"type":"Feature"}
]
}
