{
"type": "FeatureCollection",
"features": [
	{"geometry":{"coordinates":[10.352677,47.794352],"type":"Point"},"properties":{"osm_id":"290747943","tag":{"amenity":"recycling","recycling_type":"container"}},"type":"Feature"},
	{"geometry":{"coordinates":[10.352589,47.794604],"type":"Point"},"properties":{"name":"Wertstoffhof Haldenwang","osm_id":"290747973","tag":{"amenity":"recycling","opening_hours":"Mo 16:30-18:30; Fr 16:00-18:30; Sa 10:00-12:00","recycling_type":"centre","website":"https://www.zak-kempten.de/wertstoffhof-haldenwang.html"}},"type":"Feature"},
	{"geometry":{"coordinates":[10.308256,47.781428],"type":"Point"},"properties":{"barrier":"gate","osm_id":"612494161"},"type":"Feature"},
	{"geometry":{"coordinates":[10.299205,47.766775],"type":"Point"},"properties":{"osm_id":"762125678","tag":{"amenity":"waste_basket"}},"type":"Feature"},
	{"geometry":{"coordinates":[10.323379,47.761791],"type":"Point"},"properties":{"osm_id":"778189963","tag":{"amenity":"waste_basket"}},"type":"Feature"},
	{"geometry":{"coordinates":[10.298067,47.759943],"type":"Point"},"properties":{"osm_id":"949776610","tag":{"amenity":"waste_basket"}},"type":"Feature"},
	{"geometry":{"coordinates":[10.29255,47.761821],"type":"Point"},"properties":{"osm_id":"949941756","tag":{"amenity":"recycling","operator":"Zweckverband f\u00c3\u00bcr Abfallwirtschaft Kempten","recycling:beverage_cartons":"yes","recycling:cans":"yes","recycling:clothes":"no","recycling:glass_bottles":"yes","recycling:paper":"yes","recycling_type":"container"}},"type":"Feature"},
	{"geometry":{"coordinates":[10.292429,47.75995],"type":"Point"},"properties":{"osm_id":"950154063","tag":{"amenity":"waste_basket"}},"type":"Feature"},
	{"geometry":{"coordinates":[10.296782,47.763377],"type":"Point"},"properties":{"osm_id":"950321972","tag":{"amenity":"waste_basket"}},"type":"Feature"},
	{"geometry":{"coordinates":[10.296826,47.763438],"type":"Point"},"properties":{"osm_id":"950321990","tag":{"amenity":"recycling","operator":"Zweckverband f\u00c3\u00bcr Abfallwirtschaft Kempten","recycling:beverage_cartons":"yes","recycling:cans":"yes","recycling:clothes":"yes","recycling:glass_bottles":"yes","recycling:paper":"yes","recycling_type":"container"}},"type":"Feature"},
	{"geometry":{"coordinates":[10.296602,47.778353],"type":"Point"},"properties":{"osm_id":"951533134","tag":{"amenity":"waste_basket"}},"type":"Feature"},
	{"geometry":{"coordinates":[10.308216,47.780206],"type":"Point"},"properties":{"osm_id":"957077469","tag":{"amenity":"waste_basket"}},"type":"Feature"},
	{"geometry":{"coordinates":[10.295427,47.77888],"type":"Point"},"properties":{"osm_id":"957173646","tag":{"amenity":"waste_basket"}},"type":"Feature"},
	{"geometry":{"coordinates":[10.296309,47.779578],"type":"Point"},"properties":{"osm_id":"957173703","tag":{"amenity":"recycling","operator":"Zweckverband f\u00c3\u00bcr Abfallwirtschaft Kempten","recycling:beverage_cartons":"yes","recycling:cans":"yes","recycling:clothes":"no","recycling:glass_bottles":"yes","recycling:paper":"yes","recycling_type":"container"}},"type":"Feature"},
	{"geometry":{"coordinates":[10.320072,47.778366],"type":"Point"},"properties":{"osm_id":"957237569","tag":{"amenity":"recycling","operator":"Zweckverband f\u00c3\u00bcr Abfallwirtschaft Kempten","recycling:beverage_cartons":"yes","recycling:cans":"yes","recycling:clothes":"no","recycling:glass_bottles":"yes","recycling:paper":"yes","recycling_type":"container"}},"type":"Feature"},
	{"geometry":{"coordinates":[10.335841,47.763653],"type":"Point"},"properties":{"osm_id":"968992869","tag":{"amenity":"recycling","operator":"Zweckverband f\u00c3\u00bcr Abfallwirtschaft Kempten","recycling:beverage_cartons":"yes","recycling:cans":"yes","recycling:clothes":"no","recycling:glass_bottles":"yes","recycling:paper":"yes","recycling_type":"container"}},"type":"Feature"},
	{"geometry":{"coordinates":[10.342731,47.769554],"type":"Point"},"properties":{"osm_id":"1029822573","tag":{"amenity":"recycling","operator":"Zweckverband f\u00c3\u00bcr Abfallwirtschaft Kempten","recycling:beverage_cartons":"yes","recycling:cans":"yes","recycling:clothes":"no","recycling:glass_bottles":"yes","recycling:paper":"yes","recycling_type":"container"}},"type":"Feature"},
	{"geometry":{"coordinates":[10.308736,47.807692],"type":"Point"},"properties":{"osm_id":"1378752920","tag":{"amenity":"waste_basket"}},"type":"Feature"},
	{"geometry":{"coordinates":[10.300853,47.805137],"type":"Point"},"properties":{"barrier":"gate","osm_id":"1378803154"},"type":"Feature"},
	{"geometry":{"coordinates":[10.31785,47.780926],"type":"Point"},"properties":{"osm_id":"1806120135","tag":{"amenity":"recycling","operator":"Zweckverband f\u00c3\u00bcr Abfallwirtschaft Kempten","recycling:beverage_cartons":"yes","recycling:cans":"yes","recycling:clothes":"no","recycling:glass_bottles":"yes","recycling:paper":"yes","recycling_type":"container"}},"type":"Feature"},
	{"geometry":{"coordinates":[10.308115,47.785881],"type":"Point"},"properties":{"osm_id":"1810088943","tag":{"amenity":"waste_basket"}},"type":"Feature"},
	{"geometry":{"coordinates":[10.301916,47.804724],"type":"Point"},"properties":{"osm_id":"1815854932","tag":{"amenity":"recycling","operator":"Zweckverband f\u00c3\u00bcr Abfallwirtschaft Kempten","recycling:beverage_cartons":"yes","recycling:cans":"yes","recycling:clothes":"no","recycling:glass_bottles":"yes","recycling:paper":"yes","recycling_type":"container"}},"type":"Feature"},
	{"geometry":{"coordinates":[10.292396,47.805855],"type":"Point"},"properties":{"osm_id":"1817606998","tag":{"amenity":"waste_basket"}},"type":"Feature"},
	{"geometry":{"coordinates":[10.295952,47.806108],"type":"Point"},"properties":{"osm_id":"1817607016","tag":{"amenity":"waste_basket"}},"type":"Feature"},
	{"geometry":{"coordinates":[10.293366,47.806925],"type":"Point"},"properties":{"osm_id":"1817607069","tag":{"amenity":"waste_basket"}},"type":"Feature"},
	{"geometry":{"coordinates":[10.293596,47.803688],"type":"Point"},"properties":{"osm_id":"1817833014","tag":{"amenity":"recycling","operator":"Zweckverband f\u00c3\u00bcr Abfallwirtschaft Kempten","recycling:beverage_cartons":"yes","recycling:cans":"yes","recycling:clothes":"no","recycling:glass_bottles":"yes","recycling:paper":"yes","recycling_type":"container"}},"type":"Feature"},
	{"geometry":{"coordinates":[10.289796,47.806436],"type":"Point"},"properties":{"osm_id":"1820572906","tag":{"amenity":"recycling","operator":"Zweckverband f\u00c3\u00bcr Abfallwirtschaft Kempten","recycling:beverage_cartons":"yes","recycling:cans":"yes","recycling:clothes":"no","recycling:glass_bottles":"yes","recycling:paper":"yes","recycling_type":"container"}},"type":"Feature"},
	{"geometry":{"coordinates":[10.300686,47.807697],"type":"Point"},"properties":{"osm_id":"1827506866","tag":{"amenity":"waste_basket"}},"type":"Feature"},
	{"geometry":{"coordinates":[10.293485,47.810612],"type":"Point"},"properties":{"osm_id":"1828757415","tag":{"amenity":"waste_basket"}},"type":"Feature"},
	{"geometry":{"coordinates":[10.29015,47.812739],"type":"Point"},"properties":{"osm_id":"1829770279","tag":{"amenity":"waste_basket"}},"type":"Feature"},
	{"geometry":{"coordinates":[10.283572,47.80605],"type":"Point"},"properties":{"osm_id":"1830697792","tag":{"amenity":"recycling","operator":"Zweckverband f\u00c3\u00bcr Abfallwirtschaft Kempten","recycling:beverage_cartons":"yes","recycling:cans":"yes","recycling:clothes":"no","recycling:glass_bottles":"yes","recycling:paper":"yes","recycling_type":"container"}},"type":"Feature"},
	{"geometry":{"coordinates":[10.287138,47.806624],"type":"Point"},"properties":{"osm_id":"1830697823","tag":{"amenity":"waste_basket"}},"type":"Feature"},
	{"geometry":{"coordinates":[10.312786,47.81169],"type":"Point"},"properties":{"osm_id":"1834036441","tag":{"amenity":"recycling","operator":"Zweckverband f\u00c3\u00bcr Abfallwirtschaft Kempten","recycling:beverage_cartons":"yes","recycling:cans":"yes","recycling:clothes":"no","recycling:glass_bottles":"yes","recycling:paper":"yes","recycling_type":"container"}},"type":"Feature"},
	{"geometry":{"coordinates":[10.288689,47.803824],"type":"Point"},"properties":{"osm_id":"1834320395","tag":{"amenity":"waste_basket"}},"type":"Feature"},
	{"geometry":{"coordinates":[10.283244,47.810008],"type":"Point"},"properties":{"osm_id":"1843568124","tag":{"amenity":"waste_basket"}},"type":"Feature"},
	{"geometry":{"coordinates":[10.285989,47.813083],"type":"Point"},"properties":{"osm_id":"1845135908","tag":{"amenity":"waste_basket"}},"type":"Feature"},
	{"geometry":{"coordinates":[10.309452,47.803539],"type":"Point"},"properties":{"osm_id":"3731077030","tag":{"amenity":"waste_basket"}},"type":"Feature"},
	{"geometry":{"coordinates":[10.345075,47.802573],"type":"Point"},"properties":{"osm_id":"5486821759","tag":{"amenity":"recycling","recycling:aluminium":"yes","recycling:glass":"yes","recycling:glass_bottles":"yes","recycling:paper":"yes","recycling_type":"container"}},"type":"Feature"},
	{"geometry":{"coordinates":[10.362653,47.781785],"type":"Point"},"properties":{"osm_id":"6015707948","tag":{"amenity":"recycling","recycling:glass_bottles":"yes","recycling:paper":"yes","recycling_type":"container"}},"type":"Feature"}
]
}
