{
"type": "FeatureCollection",
"features": [
	{"geometry":{"coordinates":[10.293196,47.721428],"type":"Point"},"properties":{"osm_id":"441935349","tag":{"amenity":"recycling","operator":"Zweckverband f\u00c3\u00bcr Abfallwirtschaft Kempten","recycling:beverage_cartons":"yes","recycling:cans":"yes","recycling:clothes":"no","recycling:glass_bottles":"yes","recycling:paper":"yes","recycling_type":"container"}},"type":"Feature"},
	{"geometry":{"coordinates":[10.291515,47.718529],"type":"Point"},"properties":{"osm_id":"441935503","tag":{"amenity":"recycling","operator":"Zweckverband f\u00c3\u00bcr Abfallwirtschaft Kempten","recycling:beverage_cartons":"yes","recycling:cans":"yes","recycling:clothes":"yes","recycling:glass_bottles":"yes","recycling:paper":"yes","recycling_type":"container"}},"type":"Feature"},
	{"geometry":{"coordinates":[10.288903,47.713429],"type":"Point"},"properties":{"osm_id":"441935614","tag":{"amenity":"recycling","operator":"Zweckverband f\u00c3\u00bcr Abfallwirtschaft Kempten","recycling:beverage_cartons":"yes","recycling:cans":"yes","recycling:clothes":"yes","recycling:glass_bottles":"yes","recycling:paper":"yes","recycling_type":"container"}},"type":"Feature"},
	{"geometry":{"coordinates":[10.297735,47.725859],"type":"Point"},"properties":{"osm_id":"441935801","tag":{"amenity":"recycling","operator":"Zweckverband f\u00c3\u00bcr Abfallwirtschaft Kempten","recycling:beverage_cartons":"yes","recycling:cans":"yes","recycling:clothes":"yes","recycling:glass_bottles":"yes","recycling:paper":"yes","recycling_type":"container","wikimedia_commons":"File:M\u00c3\u00bcllcontainer Haubensteigweg.jpg"}},"type":"Feature"},
	{"geometry":{"coordinates":[10.311076,47.728849],"type":"Point"},"properties":{"osm_id":"441936459","tag":{"amenity":"recycling","recycling:beverage_cartons":"yes","recycling:cans":"yes","recycling:clothes":"no","recycling:glass_bottles":"yes","recycling:paper":"yes","recycling_type":"container"}},"type":"Feature"},
	{"geometry":{"coordinates":[10.2964,47.719313],"type":"Point"},"properties":{"osm_id":"456380983","tag":{"amenity":"recycling","operator":"Zweckverband f\u00c3\u00bcr Abfallwirtschaft Kempten","recycling:beverage_cartons":"yes","recycling:cans":"yes","recycling:clothes":"yes","recycling:glass_bottles":"yes","recycling:paper":"yes","recycling_type":"container"}},"type":"Feature"},
	{"geometry":{"coordinates":[10.321623,47.70172],"type":"Point"},"properties":{"osm_id":"469404831","tag":{"amenity":"recycling","operator":"Zweckverband f\u00c3\u00bcr Abfallwirtschaft Kempten","recycling:beverage_cartons":"yes","recycling:cans":"yes","recycling:clothes":"no","recycling:glass_bottles":"yes","recycling:paper":"yes","recycling_type":"container"}},"type":"Feature"},
	{"geometry":{"coordinates":[10.325412,47.710003],"type":"Point"},"properties":{"osm_id":"472122389","tag":{"amenity":"recycling","operator":"Zweckverband f\u00c3\u00bcr Abfallwirtschaft Kempten","recycling:beverage_cartons":"yes","recycling:cans":"yes","recycling:clothes":"no","recycling:glass_bottles":"yes","recycling:paper":"yes","recycling_type":"container"}},"type":"Feature"},
	{"geometry":{"coordinates":[10.325398,47.708315],"type":"Point"},"properties":{"osm_id":"472122393","tag":{"amenity":"recycling","recycling:beverage_cartons":"yes","recycling:cans":"yes","recycling:clothes":"yes","recycling:glass_bottles":"yes","recycling:paper":"yes","recycling_type":"container"}},"type":"Feature"},
	{"geometry":{"coordinates":[10.331836,47.711137],"type":"Point"},"properties":{"osm_id":"472138452","tag":{"amenity":"recycling","recycling:beverage_cartons":"yes","recycling:cans":"yes","recycling:clothes":"yes","recycling:glass_bottles":"yes","recycling:paper":"yes","recycling_type":"container"}},"type":"Feature"},
	{"geometry":{"coordinates":[10.330054,47.712273],"type":"Point"},"properties":{"osm_id":"472142417","tag":{"amenity":"recycling","recycling:beverage_cartons":"yes","recycling:cans":"yes","recycling:glass_bottles":"yes","recycling:paper":"yes","recycling_type":"container"}},"type":"Feature"},
	{"geometry":{"coordinates":[10.324975,47.708632],"type":"Point"},"properties":{"osm_id":"475239378","tag":{"amenity":"waste_basket"}},"type":"Feature"},
	{"geometry":{"coordinates":[10.325247,47.708603],"type":"Point"},"properties":{"osm_id":"475239379","tag":{"amenity":"waste_basket"}},"type":"Feature"},
	{"geometry":{"coordinates":[10.325264,47.708242],"type":"Point"},"properties":{"osm_id":"475239380","tag":{"amenity":"waste_basket"}},"type":"Feature"},
	{"geometry":{"coordinates":[10.325547,47.70612],"type":"Point"},"properties":{"osm_id":"479102938","tag":{"amenity":"recycling","recycling:beverage_cartons":"yes","recycling:cans":"yes","recycling:clothes":"yes","recycling:glass_bottles":"yes","recycling:paper":"yes","recycling_type":"container"}},"type":"Feature"},
	{"geometry":{"coordinates":[10.325552,47.70611],"type":"Point"},"properties":{"osm_id":"479102940","tag":{"amenity":"waste_basket"}},"type":"Feature"},
	{"geometry":{"coordinates":[10.324383,47.706961],"type":"Point"},"properties":{"osm_id":"479115416","tag":{"amenity":"recycling","recycling:clothes":"yes","recycling_type":"container"}},"type":"Feature"},
	{"geometry":{"coordinates":[10.327811,47.712989],"type":"Point"},"properties":{"osm_id":"494450115","tag":{"amenity":"recycling","operator":"Zweckverband f\u00c3\u00bcr Abfallwirtschaft Kempten","recycling:beverage_cartons":"yes","recycling:cans":"yes","recycling:clothes":"no","recycling:glass_bottles":"yes","recycling:paper":"yes","recycling_type":"container"}},"type":"Feature"},
	{"geometry":{"coordinates":[10.325306,47.717905],"type":"Point"},"properties":{"osm_id":"494471402","tag":{"amenity":"recycling","operator":"Zweckverband f\u00c3\u00bcr Abfallwirtschaft Kempten","recycling:beverage_cartons":"yes","recycling:cans":"yes","recycling:clothes":"no","recycling:glass_bottles":"yes","recycling:paper":"yes","recycling_type":"container"}},"type":"Feature"},
	{"geometry":{"coordinates":[10.329372,47.718222],"type":"Point"},"properties":{"osm_id":"494492397","tag":{"amenity":"recycling","operator":"Zweckverband f\u00c3\u00bcr Abfallwirtschaft Kempten","recycling:beverage_cartons":"yes","recycling:cans":"yes","recycling:clothes":"no","recycling:glass_bottles":"yes","recycling:paper":"yes","recycling_type":"container"}},"type":"Feature"},
	{"geometry":{"coordinates":[10.332297,47.718942],"type":"Point"},"properties":{"osm_id":"510805243","tag":{"amenity":"recycling","recycling:beverage_cartons":"yes","recycling:cans":"yes","recycling:glass_bottles":"yes","recycling:paper":"yes","recycling_type":"container"}},"type":"Feature"},
	{"geometry":{"coordinates":[10.32702,47.702334],"type":"Point"},"properties":{"osm_id":"519231271","tag":{"amenity":"recycling","operator":"Zweckverband f\u00c3\u00bcr Abfallwirtschaft Kempten","recycling:beverage_cartons":"yes","recycling:cans":"yes","recycling:clothes":"no","recycling:glass_bottles":"yes","recycling:paper":"yes","recycling_type":"container"}},"type":"Feature"},
	{"geometry":{"coordinates":[10.323959,47.697928],"type":"Point"},"properties":{"osm_id":"520175765","tag":{"amenity":"recycling","recycling:beverage_cartons":"yes","recycling:cans":"yes","recycling:glass_bottles":"yes","recycling:paper":"yes","recycling_type":"container"}},"type":"Feature"},
	{"geometry":{"coordinates":[10.328612,47.698598],"type":"Point"},"properties":{"osm_id":"520175905","tag":{"amenity":"recycling","recycling:beverage_cartons":"yes","recycling:cans":"yes","recycling:glass_bottles":"yes","recycling:paper":"yes","recycling_type":"container"}},"type":"Feature"},
	{"geometry":{"coordinates":[10.335252,47.707581],"type":"Point"},"properties":{"osm_id":"526005904","tag":{"amenity":"recycling","recycling:beverage_cartons":"yes","recycling:cans":"yes","recycling:glass_bottles":"yes","recycling:paper":"yes","recycling_type":"container"}},"type":"Feature"},
	{"geometry":{"coordinates":[10.333341,47.711853],"type":"Point"},"properties":{"osm_id":"526337534","tag":{"amenity":"recycling","recycling:beverage_cartons":"yes","recycling:cans":"yes","recycling:glass_bottles":"yes","recycling:paper":"yes","recycling_type":"container"}},"type":"Feature"},
	{"geometry":{"coordinates":[10.336454,47.709838],"type":"Point"},"properties":{"osm_id":"526870482","tag":{"amenity":"recycling","recycling:beverage_cartons":"yes","recycling:cans":"yes","recycling:glass_bottles":"yes","recycling:paper":"yes","recycling_type":"container"}},"type":"Feature"},
	{"geometry":{"coordinates":[10.330484,47.716125],"type":"Point"},"properties":{"osm_id":"527303926","tag":{"amenity":"recycling","operator":"Zweckverband f\u00c3\u00bcr Abfallwirtschaft Kempten","recycling:beverage_cartons":"yes","recycling:cans":"yes","recycling:clothes":"no","recycling:glass_bottles":"yes","recycling:paper":"yes","recycling_type":"container"}},"type":"Feature"},
	{"geometry":{"coordinates":[10.337267,47.712682],"type":"Point"},"properties":{"osm_id":"527928328","tag":{"amenity":"recycling","recycling:beverage_cartons":"yes","recycling:cans":"yes","recycling:glass_bottles":"yes","recycling:paper":"yes","recycling_type":"container"}},"type":"Feature"},
	{"geometry":{"coordinates":[10.336714,47.716171],"type":"Point"},"properties":{"osm_id":"527968007","tag":{"amenity":"recycling","operator":"Zweckverband f\u00c3\u00bcr Abfallwirtschaft Kempten","recycling:beverage_cartons":"yes","recycling:cans":"yes","recycling:clothes":"no","recycling:glass_bottles":"yes","recycling:paper":"yes","recycling_type":"container"}},"type":"Feature"},
	{"geometry":{"coordinates":[10.334069,47.709888],"type":"Point"},"properties":{"osm_id":"546641479","tag":{"amenity":"waste_basket"}},"type":"Feature"},
	{"geometry":{"coordinates":[10.326637,47.711156],"type":"Point"},"properties":{"osm_id":"548122323","tag":{"amenity":"recycling","operator":"Zweckverband f\u00c3\u00bcr Abfallwirtschaft Kempten","recycling:beverage_cartons":"yes","recycling:cans":"yes","recycling:clothes":"no","recycling:glass_bottles":"yes","recycling:paper":"yes","recycling_type":"container"}},"type":"Feature"},
	{"geometry":{"coordinates":[10.333479,47.714435],"type":"Point"},"properties":{"osm_id":"548594279","tag":{"amenity":"recycling","operator":"Zweckverband f\u00c3\u00bcr Abfallwirtschaft Kempten","recycling:beverage_cartons":"yes","recycling:cans":"yes","recycling:clothes":"no","recycling:glass_bottles":"yes","recycling:paper":"yes","recycling_type":"container"}},"type":"Feature"},
	{"geometry":{"coordinates":[10.334737,47.720401],"type":"Point"},"properties":{"osm_id":"574826601","tag":{"amenity":"waste_basket"}},"type":"Feature"},
	{"geometry":{"coordinates":[10.333085,47.726179],"type":"Point"},"properties":{"osm_id":"595708125","tag":{"amenity":"recycling","operator":"Zweckverband f\u00c3\u00bcr Abfallwirtschaft Kempten","recycling:beverage_cartons":"yes","recycling:cans":"yes","recycling:clothes":"no","recycling:glass_bottles":"yes","recycling:paper":"yes","recycling_type":"container"}},"type":"Feature"},
	{"geometry":{"coordinates":[10.32919,47.727643],"type":"Point"},"properties":{"osm_id":"596129337","tag":{"amenity":"recycling","operator":"Zweckverband f\u00c3\u00bcr Abfallwirtschaft Kempten","recycling:beverage_cartons":"yes","recycling:cans":"yes","recycling:clothes":"no","recycling:glass_bottles":"yes","recycling:paper":"yes","recycling_type":"container"}},"type":"Feature"},
	{"geometry":{"coordinates":[10.339444,47.701838],"type":"Point"},"properties":{"osm_id":"598597747","tag":{"amenity":"recycling","recycling:beverage_cartons":"yes","recycling:cans":"yes","recycling:glass_bottles":"yes","recycling:paper":"yes","recycling_type":"container"}},"type":"Feature"},
	{"geometry":{"coordinates":[10.340825,47.698663],"type":"Point"},"properties":{"osm_id":"598624161","tag":{"amenity":"recycling","recycling:beverage_cartons":"yes","recycling:cans":"yes","recycling:glass_bottles":"yes","recycling:paper":"yes","recycling_type":"container"}},"type":"Feature"},
	{"geometry":{"coordinates":[10.343395,47.696762],"type":"Point"},"properties":{"osm_id":"598904280","tag":{"amenity":"recycling","recycling:beverage_cartons":"yes","recycling:cans":"yes","recycling:glass_bottles":"yes","recycling:paper":"yes","recycling_type":"container"}},"type":"Feature"},
	{"geometry":{"coordinates":[10.289294,47.753452],"type":"Point"},"properties":{"osm_id":"599667518","tag":{"amenity":"recycling","recycling:cans":"yes","recycling:clothes":"yes","recycling:glass_bottles":"yes","recycling:paper":"yes","recycling_type":"container"}},"type":"Feature"},
	{"geometry":{"coordinates":[10.341888,47.702543],"type":"Point"},"properties":{"osm_id":"600968411","tag":{"amenity":"recycling","recycling:beverage_cartons":"yes","recycling:cans":"yes","recycling:glass_bottles":"yes","recycling:paper":"yes","recycling_type":"container"}},"type":"Feature"},
	{"geometry":{"coordinates":[10.326291,47.72296],"type":"Point"},"properties":{"osm_id":"617226922","tag":{"amenity":"recycling","recycling:beverage_cartons":"yes","recycling:cans":"yes","recycling:clothes":"yes","recycling:glass_bottles":"yes","recycling:paper":"yes","recycling_type":"container"}},"type":"Feature"},
	{"geometry":{"coordinates":[10.332459,47.723652],"type":"Point"},"properties":{"osm_id":"617227116","tag":{"amenity":"recycling","operator":"Zweckverband f\u00c3\u00bcr Abfallwirtschaft Kempten","recycling:beverage_cartons":"yes","recycling:cans":"yes","recycling:clothes":"no","recycling:glass_bottles":"yes","recycling:paper":"yes","recycling_type":"container"}},"type":"Feature"},
	{"geometry":{"coordinates":[10.326318,47.720224],"type":"Point"},"properties":{"osm_id":"617375231","tag":{"amenity":"waste_basket"}},"type":"Feature"},
	{"geometry":{"coordinates":[10.326494,47.720011],"type":"Point"},"properties":{"osm_id":"617375240","tag":{"amenity":"waste_basket"}},"type":"Feature"},
	{"geometry":{"coordinates":[10.32704,47.720475],"type":"Point"},"properties":{"osm_id":"617375257","tag":{"amenity":"waste_basket"}},"type":"Feature"},
	{"geometry":{"coordinates":[10.326339,47.720868],"type":"Point"},"properties":{"osm_id":"617375261","tag":{"amenity":"waste_basket"}},"type":"Feature"},
	{"geometry":{"coordinates":[10.326217,47.72109],"type":"Point"},"properties":{"osm_id":"617375300","tag":{"amenity":"waste_basket"}},"type":"Feature"},
	{"geometry":{"coordinates":[10.326833,47.720723],"type":"Point"},"properties":{"osm_id":"617375329","tag":{"amenity":"waste_basket"}},"type":"Feature"},
	{"geometry":{"coordinates":[10.326855,47.72082],"type":"Point"},"properties":{"osm_id":"617375346","tag":{"amenity":"waste_basket"}},"type":"Feature"},
	{"geometry":{"coordinates":[10.327006,47.721138],"type":"Point"},"properties":{"osm_id":"617375374","tag":{"amenity":"waste_basket"}},"type":"Feature"},
	{"geometry":{"coordinates":[10.326746,47.721123],"type":"Point"},"properties":{"osm_id":"617375410","tag":{"amenity":"waste_basket"}},"type":"Feature"},
	{"geometry":{"coordinates":[10.326169,47.721399],"type":"Point"},"properties":{"osm_id":"617375432","tag":{"amenity":"waste_basket"}},"type":"Feature"},
	{"geometry":{"coordinates":[10.325559,47.722469],"type":"Point"},"properties":{"osm_id":"617375462","tag":{"amenity":"waste_basket"}},"type":"Feature"},
	{"geometry":{"coordinates":[10.325398,47.722523],"type":"Point"},"properties":{"osm_id":"617375477","tag":{"amenity":"waste_basket"}},"type":"Feature"},
	{"geometry":{"coordinates":[10.325669,47.722766],"type":"Point"},"properties":{"osm_id":"617375514","tag":{"amenity":"waste_basket"}},"type":"Feature"},
	{"geometry":{"coordinates":[10.326096,47.722316],"type":"Point"},"properties":{"osm_id":"617375528","tag":{"amenity":"waste_basket"}},"type":"Feature"},
	{"geometry":{"coordinates":[10.325901,47.72231],"type":"Point"},"properties":{"osm_id":"617375529","tag":{"amenity":"waste_basket"}},"type":"Feature"},
	{"geometry":{"coordinates":[10.326472,47.722278],"type":"Point"},"properties":{"osm_id":"617375586","tag":{"amenity":"waste_basket"}},"type":"Feature"},
	{"geometry":{"coordinates":[10.327775,47.720267],"type":"Point"},"properties":{"osm_id":"617375592","tag":{"amenity":"waste_basket"}},"type":"Feature"},
	{"geometry":{"coordinates":[10.328208,47.720002],"type":"Point"},"properties":{"osm_id":"617375596","tag":{"amenity":"waste_basket"}},"type":"Feature"},
	{"geometry":{"coordinates":[10.328214,47.720427],"type":"Point"},"properties":{"osm_id":"617375598","tag":{"amenity":"waste_basket"}},"type":"Feature"},
	{"geometry":{"coordinates":[10.327894,47.720462],"type":"Point"},"properties":{"osm_id":"617375602","tag":{"amenity":"waste_basket"}},"type":"Feature"},
	{"geometry":{"coordinates":[10.328954,47.720193],"type":"Point"},"properties":{"osm_id":"617375677","tag":{"amenity":"waste_basket"}},"type":"Feature"},
	{"geometry":{"coordinates":[10.327344,47.72103],"type":"Point"},"properties":{"osm_id":"617375696","tag":{"amenity":"waste_basket"}},"type":"Feature"},
	{"geometry":{"coordinates":[10.328184,47.720529],"type":"Point"},"properties":{"osm_id":"617375702","tag":{"amenity":"waste_basket"}},"type":"Feature"},
	{"geometry":{"coordinates":[10.328297,47.720928],"type":"Point"},"properties":{"osm_id":"617375722","tag":{"amenity":"waste_basket"}},"type":"Feature"},
	{"geometry":{"coordinates":[10.328037,47.721469],"type":"Point"},"properties":{"osm_id":"617375736","tag":{"amenity":"waste_basket"}},"type":"Feature"},
	{"geometry":{"coordinates":[10.32842,47.721653],"type":"Point"},"properties":{"osm_id":"617375760","tag":{"amenity":"waste_basket"}},"type":"Feature"},
	{"geometry":{"coordinates":[10.329141,47.720612],"type":"Point"},"properties":{"osm_id":"617375776","tag":{"amenity":"waste_basket"}},"type":"Feature"},
	{"geometry":{"coordinates":[10.328693,47.721303],"type":"Point"},"properties":{"osm_id":"617375798","tag":{"amenity":"waste_basket"}},"type":"Feature"},
	{"geometry":{"coordinates":[10.32863,47.721794],"type":"Point"},"properties":{"osm_id":"617375826","tag":{"amenity":"waste_basket"}},"type":"Feature"},
	{"geometry":{"coordinates":[10.329423,47.721739],"type":"Point"},"properties":{"osm_id":"617375851","tag":{"amenity":"waste_basket"}},"type":"Feature"},
	{"geometry":{"coordinates":[10.330308,47.720269],"type":"Point"},"properties":{"osm_id":"617375893","tag":{"amenity":"waste_basket"}},"type":"Feature"},
	{"geometry":{"coordinates":[10.331125,47.719869],"type":"Point"},"properties":{"osm_id":"617375910","tag":{"amenity":"waste_basket"}},"type":"Feature"},
	{"geometry":{"coordinates":[10.330445,47.720735],"type":"Point"},"properties":{"osm_id":"617375930","tag":{"amenity":"waste_basket"}},"type":"Feature"},
	{"geometry":{"coordinates":[10.330979,47.720919],"type":"Point"},"properties":{"osm_id":"617375946","tag":{"amenity":"waste_basket"}},"type":"Feature"},
	{"geometry":{"coordinates":[10.330124,47.721652],"type":"Point"},"properties":{"osm_id":"617375949","tag":{"amenity":"waste_basket"}},"type":"Feature"},
	{"geometry":{"coordinates":[10.330584,47.721801],"type":"Point"},"properties":{"osm_id":"617375961","tag":{"amenity":"waste_basket"}},"type":"Feature"},
	{"geometry":{"coordinates":[10.331369,47.720511],"type":"Point"},"properties":{"osm_id":"617375962","tag":{"amenity":"waste_basket"}},"type":"Feature"},
	{"geometry":{"coordinates":[10.331445,47.72057],"type":"Point"},"properties":{"osm_id":"617375964","tag":{"amenity":"waste_basket"}},"type":"Feature"},
	{"geometry":{"coordinates":[10.331447,47.720594],"type":"Point"},"properties":{"osm_id":"617375967","tag":{"amenity":"waste_basket"}},"type":"Feature"},
	{"geometry":{"coordinates":[10.327748,47.722169],"type":"Point"},"properties":{"osm_id":"617375974","tag":{"amenity":"waste_basket"}},"type":"Feature"},
	{"geometry":{"coordinates":[10.327747,47.722012],"type":"Point"},"properties":{"osm_id":"617375985","tag":{"amenity":"waste_basket"}},"type":"Feature"},
	{"geometry":{"coordinates":[10.327371,47.722324],"type":"Point"},"properties":{"osm_id":"617375987","tag":{"amenity":"waste_basket"}},"type":"Feature"},
	{"geometry":{"coordinates":[10.328168,47.722004],"type":"Point"},"properties":{"osm_id":"617375992","tag":{"amenity":"waste_basket"}},"type":"Feature"},
	{"geometry":{"coordinates":[10.328755,47.722027],"type":"Point"},"properties":{"osm_id":"617376014","tag":{"amenity":"waste_basket"}},"type":"Feature"},
	{"geometry":{"coordinates":[10.328693,47.722131],"type":"Point"},"properties":{"osm_id":"617376022","tag":{"amenity":"waste_basket"}},"type":"Feature"},
	{"geometry":{"coordinates":[10.329399,47.722308],"type":"Point"},"properties":{"osm_id":"617376027","tag":{"amenity":"waste_basket"}},"type":"Feature"},
	{"geometry":{"coordinates":[10.329734,47.722291],"type":"Point"},"properties":{"osm_id":"617376030","tag":{"amenity":"waste_basket"}},"type":"Feature"},
	{"geometry":{"coordinates":[10.330111,47.7222],"type":"Point"},"properties":{"osm_id":"617376040","tag":{"amenity":"waste_basket"}},"type":"Feature"},
	{"geometry":{"coordinates":[10.330574,47.721991],"type":"Point"},"properties":{"osm_id":"617376043","tag":{"amenity":"waste_basket"}},"type":"Feature"},
	{"geometry":{"coordinates":[10.330157,47.72237],"type":"Point"},"properties":{"osm_id":"617376046","tag":{"amenity":"waste_basket"}},"type":"Feature"},
	{"geometry":{"coordinates":[10.348242,47.698758],"type":"Point"},"properties":{"osm_id":"619984431","tag":{"amenity":"recycling","recycling:beverage_cartons":"yes","recycling:cans":"yes","recycling:glass_bottles":"yes","recycling:paper":"yes","recycling_type":"container"}},"type":"Feature"},
	{"geometry":{"coordinates":[10.350369,47.701012],"type":"Point"},"properties":{"osm_id":"622444803","tag":{"amenity":"recycling","recycling:beverage_cartons":"yes","recycling:cans":"yes","recycling:glass_bottles":"yes","recycling:paper":"yes","recycling_type":"container"}},"type":"Feature"},
	{"geometry":{"coordinates":[10.311718,47.72554],"type":"Point"},"properties":{"osm_id":"631780619","tag":{"amenity":"recycling","recycling:beverage_cartons":"yes","recycling:cans":"yes","recycling:glass_bottles":"yes","recycling:paper":"yes","recycling_type":"container"}},"type":"Feature"},
	{"geometry":{"coordinates":[10.315106,47.700032],"type":"Point"},"properties":{"osm_id":"636985157","tag":{"amenity":"recycling","operator":"Zweckverband f\u00c3\u00bcr Abfallwirtschaft Kempten","recycling:beverage_cartons":"yes","recycling:cans":"yes","recycling:clothes":"no","recycling:glass_bottles":"yes","recycling:paper":"yes","recycling_type":"container"}},"type":"Feature"},
	{"geometry":{"coordinates":[10.315508,47.701852],"type":"Point"},"properties":{"osm_id":"636985424","tag":{"amenity":"waste_basket"}},"type":"Feature"},
	{"geometry":{"coordinates":[10.316163,47.702642],"type":"Point"},"properties":{"osm_id":"637039075","tag":{"amenity":"recycling","operator":"Zweckverband f\u00c3\u00bcr Abfallwirtschaft Kempten","recycling:beverage_cartons":"yes","recycling:cans":"yes","recycling:clothes":"no","recycling:glass_bottles":"yes","recycling:paper":"yes","recycling_type":"container"}},"type":"Feature"},
	{"geometry":{"coordinates":[10.314915,47.704744],"type":"Point"},"properties":{"osm_id":"637631314","tag":{"amenity":"recycling","recycling:beverage_cartons":"yes","recycling:cans":"yes","recycling:clothes":"yes","recycling:glass_bottles":"yes","recycling:paper":"yes","recycling_type":"container"}},"type":"Feature"},
	{"geometry":{"coordinates":[10.316073,47.705],"type":"Point"},"properties":{"osm_id":"637631347","tag":{"amenity":"waste_basket"}},"type":"Feature"},
	{"geometry":{"coordinates":[10.31997,47.710376],"type":"Point"},"properties":{"osm_id":"638385745","tag":{"amenity":"recycling","operator":"Zweckverband f\u00c3\u00bcr Abfallwirtschaft Kempten","recycling:beverage_cartons":"yes","recycling:cans":"yes","recycling:clothes":"no","recycling:glass_bottles":"yes","recycling:paper":"yes","recycling_type":"container"}},"type":"Feature"},
	{"geometry":{"coordinates":[10.316086,47.711455],"type":"Point"},"properties":{"osm_id":"639039537","tag":{"amenity":"recycling","operator":"Zweckverband f\u00c3\u00bcr Abfallwirtschaft Kempten","recycling:beverage_cartons":"yes","recycling:cans":"yes","recycling:clothes":"no","recycling:glass_bottles":"yes","recycling:paper":"yes","recycling_type":"container"}},"type":"Feature"},
	{"geometry":{"coordinates":[10.332898,47.730398],"type":"Point"},"properties":{"osm_id":"651750120","tag":{"amenity":"recycling","operator":"Zweckverband f\u00c3\u00bcr Abfallwirtschaft Kempten","recycling:beverage_cartons":"yes","recycling:cans":"yes","recycling:clothes":"no","recycling:glass_bottles":"yes","recycling:paper":"yes","recycling_type":"container"}},"type":"Feature"},
	{"geometry":{"coordinates":[10.312707,47.706769],"type":"Point"},"properties":{"osm_id":"660426643","tag":{"amenity":"recycling","operator":"Zweckverband f\u00c3\u00bcr Abfallwirtschaft Kempten","recycling:beverage_cartons":"yes","recycling:cans":"yes","recycling:clothes":"no","recycling:glass_bottles":"yes","recycling:paper":"yes","recycling_type":"container"}},"type":"Feature"},
	{"geometry":{"coordinates":[10.319724,47.718602],"type":"Point"},"properties":{"osm_id":"661161570","tag":{"amenity":"recycling","operator":"Zweckverband f\u00c3\u00bcr Abfallwirtschaft Kempten","recycling:beverage_cartons":"yes","recycling:cans":"yes","recycling:clothes":"no","recycling:glass_bottles":"yes","recycling:paper":"yes","recycling_type":"container"}},"type":"Feature"},
	{"geometry":{"coordinates":[10.318233,47.720457],"type":"Point"},"properties":{"osm_id":"661161575","tag":{"amenity":"recycling","operator":"Zweckverband f\u00c3\u00bcr Abfallwirtschaft Kempten","recycling:beverage_cartons":"yes","recycling:cans":"yes","recycling:clothes":"no","recycling:glass_bottles":"yes","recycling:paper":"yes","recycling_type":"container"}},"type":"Feature"},
	{"geometry":{"coordinates":[10.318563,47.723969],"type":"Point"},"properties":{"osm_id":"661427024","tag":{"amenity":"recycling","recycling:beverage_cartons":"yes","recycling:cans":"yes","recycling:clothes":"no","recycling:glass_bottles":"yes","recycling:paper":"yes","recycling_type":"container"}},"type":"Feature"},
	{"geometry":{"coordinates":[10.320156,47.722866],"type":"Point"},"properties":{"osm_id":"662942422","tag":{"amenity":"waste_basket"}},"type":"Feature"},
	{"geometry":{"coordinates":[10.320778,47.722589],"type":"Point"},"properties":{"osm_id":"662942446","tag":{"amenity":"waste_basket"}},"type":"Feature"},
	{"geometry":{"coordinates":[10.322065,47.722879],"type":"Point"},"properties":{"osm_id":"663350698","tag":{"amenity":"waste_basket"}},"type":"Feature"},
	{"geometry":{"coordinates":[10.322428,47.722581],"type":"Point"},"properties":{"osm_id":"663350705","tag":{"amenity":"waste_basket"}},"type":"Feature"},
	{"geometry":{"coordinates":[10.323569,47.723213],"type":"Point"},"properties":{"osm_id":"663350752","tag":{"amenity":"waste_basket"}},"type":"Feature"},
	{"geometry":{"coordinates":[10.323412,47.723972],"type":"Point"},"properties":{"osm_id":"663350764","tag":{"amenity":"waste_basket"}},"type":"Feature"},
	{"geometry":{"coordinates":[10.323264,47.72403],"type":"Point"},"properties":{"osm_id":"663350765","tag":{"amenity":"waste_basket"}},"type":"Feature"},
	{"geometry":{"coordinates":[10.32251,47.724806],"type":"Point"},"properties":{"osm_id":"663350767","tag":{"amenity":"waste_basket"}},"type":"Feature"},
	{"geometry":{"coordinates":[10.320624,47.722173],"type":"Point"},"properties":{"osm_id":"663623483","tag":{"amenity":"waste_basket"}},"type":"Feature"},
	{"geometry":{"coordinates":[10.322741,47.722298],"type":"Point"},"properties":{"osm_id":"663623528","tag":{"amenity":"waste_basket"}},"type":"Feature"},
	{"geometry":{"coordinates":[10.323409,47.72242],"type":"Point"},"properties":{"osm_id":"663623562","tag":{"amenity":"waste_basket"}},"type":"Feature"},
	{"geometry":{"coordinates":[10.319293,47.726604],"type":"Point"},"properties":{"osm_id":"663773172","tag":{"amenity":"recycling","recycling:beverage_cartons":"yes","recycling:cans":"yes","recycling:clothes":"no","recycling:glass_bottles":"yes","recycling:paper":"yes","recycling_type":"container"}},"type":"Feature"},
	{"geometry":{"coordinates":[10.319376,47.726401],"type":"Point"},"properties":{"osm_id":"663773175","tag":{"amenity":"waste_basket"}},"type":"Feature"},
	{"geometry":{"coordinates":[10.335824,47.722822],"type":"Point"},"properties":{"osm_id":"664174796","tag":{"amenity":"recycling","operator":"Zweckverband f\u00c3\u00bcr Abfallwirtschaft Kempten","recycling:beverage_cartons":"yes","recycling:cans":"yes","recycling:clothes":"no","recycling:glass_bottles":"yes","recycling:paper":"yes","recycling_type":"container"}},"type":"Feature"},
	{"geometry":{"coordinates":[10.309809,47.717803],"type":"Point"},"properties":{"osm_id":"665233285","tag":{"amenity":"recycling","operator":"Zweckverband f\u00c3\u00bcr Abfallwirtschaft Kempten","recycling:beverage_cartons":"yes","recycling:cans":"yes","recycling:clothes":"no","recycling:glass_bottles":"yes","recycling:paper":"yes","recycling_type":"container"}},"type":"Feature"},
	{"geometry":{"coordinates":[10.306575,47.71744],"type":"Point"},"properties":{"osm_id":"665260273","tag":{"amenity":"recycling","operator":"Zweckverband f\u00c3\u00bcr Abfallwirtschaft Kempten","recycling:beverage_cartons":"yes","recycling:cans":"yes","recycling:clothes":"no","recycling:glass_bottles":"yes","recycling:paper":"yes","recycling_type":"container"}},"type":"Feature"},
	{"geometry":{"coordinates":[10.298745,47.71062],"type":"Point"},"properties":{"osm_id":"665340067","tag":{"amenity":"recycling","operator":"Zweckverband f\u00c3\u00bcr Abfallwirtschaft Kempten","recycling:beverage_cartons":"yes","recycling:cans":"yes","recycling:clothes":"no","recycling:glass_bottles":"yes","recycling:paper":"yes","recycling_type":"container"}},"type":"Feature"},
	{"geometry":{"coordinates":[10.30319,47.709939],"type":"Point"},"properties":{"osm_id":"665340072","tag":{"amenity":"recycling","operator":"Zweckverband f\u00c3\u00bcr Abfallwirtschaft Kempten","recycling:beverage_cartons":"yes","recycling:cans":"yes","recycling:clothes":"no","recycling:glass_bottles":"yes","recycling:paper":"yes","recycling_type":"container"}},"type":"Feature"},
	{"geometry":{"coordinates":[10.304958,47.71074],"type":"Point"},"properties":{"osm_id":"665340079","tag":{"amenity":"recycling","operator":"Zweckverband f\u00c3\u00bcr Abfallwirtschaft Kempten","recycling:beverage_cartons":"yes","recycling:cans":"yes","recycling:clothes":"no","recycling:glass_bottles":"yes","recycling:paper":"yes","recycling_type":"container"}},"type":"Feature"},
	{"geometry":{"coordinates":[10.316641,47.7285],"type":"Point"},"properties":{"osm_id":"666932927","tag":{"amenity":"recycling","operator":"Zweckverband f\u00c3\u00bcr Abfallwirtschaft Kempten","recycling:beverage_cartons":"yes","recycling:cans":"yes","recycling:clothes":"no","recycling:glass_bottles":"yes","recycling:paper":"yes","recycling_type":"container"}},"type":"Feature"},
	{"geometry":{"coordinates":[10.31689,47.722779],"type":"Point"},"properties":{"osm_id":"666939527","tag":{"amenity":"recycling","operator":"Zweckverband f\u00c3\u00bcr Abfallwirtschaft Kempten","recycling:beverage_cartons":"yes","recycling:cans":"yes","recycling:clothes":"no","recycling:glass_bottles":"yes","recycling:paper":"yes","recycling_type":"container"}},"type":"Feature"},
	{"geometry":{"coordinates":[10.322573,47.737539],"type":"Point"},"properties":{"osm_id":"668096703","tag":{"amenity":"recycling","operator":"Zweckverband f\u00c3\u00bcr Abfallwirtschaft Kempten","recycling:beverage_cartons":"yes","recycling:cans":"yes","recycling:clothes":"no","recycling:glass_bottles":"yes","recycling:paper":"yes","recycling_type":"container"}},"type":"Feature"},
	{"geometry":{"coordinates":[10.302446,47.737949],"type":"Point"},"properties":{"osm_id":"668293420","tag":{"amenity":"recycling","operator":"Zweckverband f\u00c3\u00bcr Abfallwirtschaft Kempten","recycling:beverage_cartons":"yes","recycling:cans":"yes","recycling:clothes":"no","recycling:glass_bottles":"yes","recycling:paper":"yes","recycling_type":"container"}},"type":"Feature"},
	{"geometry":{"coordinates":[10.294483,47.735629],"type":"Point"},"properties":{"osm_id":"668314514","tag":{"amenity":"recycling","operator":"Zweckverband f\u00c3\u00bcr Abfallwirtschaft Kempten","recycling:beverage_cartons":"yes","recycling:cans":"yes","recycling:clothes":"no","recycling:glass_bottles":"yes","recycling:paper":"yes","recycling_type":"container"}},"type":"Feature"},
	{"geometry":{"coordinates":[10.320124,47.735931],"type":"Point"},"properties":{"osm_id":"668339645","tag":{"amenity":"recycling","operator":"Zweckverband f\u00c3\u00bcr Abfallwirtschaft Kempten","recycling:beverage_cartons":"yes","recycling:cans":"yes","recycling:clothes":"no","recycling:glass_bottles":"yes","recycling:paper":"yes","recycling_type":"container"}},"type":"Feature"},
	{"geometry":{"coordinates":[10.327258,47.728129],"type":"Point"},"properties":{"osm_id":"668339655","tag":{"amenity":"recycling","operator":"Zweckverband f\u00c3\u00bcr Abfallwirtschaft Kempten","recycling:beverage_cartons":"yes","recycling:cans":"yes","recycling:clothes":"no","recycling:glass_bottles":"yes","recycling:paper":"yes","recycling_type":"container"}},"type":"Feature"},
	{"geometry":{"coordinates":[10.285763,47.710851],"type":"Point"},"properties":{"osm_id":"673607993","tag":{"amenity":"waste_basket"}},"type":"Feature"},
	{"geometry":{"coordinates":[10.286116,47.710235],"type":"Point"},"properties":{"osm_id":"673608005","tag":{"amenity":"waste_basket"}},"type":"Feature"},
	{"geometry":{"coordinates":[10.287203,47.710766],"type":"Point"},"properties":{"osm_id":"673608028","tag":{"amenity":"waste_basket"}},"type":"Feature"},
	{"geometry":{"coordinates":[10.288218,47.710668],"type":"Point"},"properties":{"osm_id":"673608061","tag":{"amenity":"waste_basket"}},"type":"Feature"},
	{"geometry":{"coordinates":[10.2852,47.711549],"type":"Point"},"properties":{"osm_id":"673608072","tag":{"amenity":"waste_basket"}},"type":"Feature"},
	{"geometry":{"coordinates":[10.286655,47.712784],"type":"Point"},"properties":{"osm_id":"673608104","tag":{"amenity":"waste_basket"}},"type":"Feature"},
	{"geometry":{"coordinates":[10.285968,47.712446],"type":"Point"},"properties":{"osm_id":"673608111","tag":{"amenity":"waste_basket"}},"type":"Feature"},
	{"geometry":{"coordinates":[10.286997,47.712986],"type":"Point"},"properties":{"osm_id":"673608119","tag":{"amenity":"waste_basket"}},"type":"Feature"},
	{"geometry":{"coordinates":[10.288855,47.710838],"type":"Point"},"properties":{"osm_id":"673608129","tag":{"amenity":"waste_basket"}},"type":"Feature"},
	{"geometry":{"coordinates":[10.288829,47.712241],"type":"Point"},"properties":{"osm_id":"673608138","tag":{"amenity":"waste_basket"}},"type":"Feature"},
	{"geometry":{"coordinates":[10.289002,47.712858],"type":"Point"},"properties":{"osm_id":"673608158","tag":{"amenity":"waste_basket"}},"type":"Feature"},
	{"geometry":{"coordinates":[10.297278,47.716231],"type":"Point"},"properties":{"osm_id":"673628869","tag":{"amenity":"waste_basket"}},"type":"Feature"},
	{"geometry":{"coordinates":[10.297581,47.716615],"type":"Point"},"properties":{"osm_id":"673628929","tag":{"amenity":"waste_basket"}},"type":"Feature"},
	{"geometry":{"coordinates":[10.312943,47.729803],"type":"Point"},"properties":{"osm_id":"681890685","tag":{"amenity":"waste_basket"}},"type":"Feature"},
	{"geometry":{"coordinates":[10.312936,47.729925],"type":"Point"},"properties":{"osm_id":"681890707","tag":{"amenity":"waste_basket"}},"type":"Feature"},
	{"geometry":{"coordinates":[10.312941,47.730023],"type":"Point"},"properties":{"osm_id":"681890726","tag":{"amenity":"waste_basket"}},"type":"Feature"},
	{"geometry":{"coordinates":[10.313953,47.729379],"type":"Point"},"properties":{"osm_id":"681891046","tag":{"amenity":"waste_basket"}},"type":"Feature"},
	{"geometry":{"coordinates":[10.314388,47.728797],"type":"Point"},"properties":{"osm_id":"681891069","tag":{"amenity":"waste_basket"}},"type":"Feature"},
	{"geometry":{"coordinates":[10.314242,47.72931],"type":"Point"},"properties":{"osm_id":"681891167","tag":{"amenity":"waste_basket"}},"type":"Feature"},
	{"geometry":{"coordinates":[10.312484,47.730229],"type":"Point"},"properties":{"osm_id":"681891546","tag":{"amenity":"recycling","operator":"Zweckverband f\u00c3\u00bcr Abfallwirtschaft Kempten","recycling:beverage_cartons":"yes","recycling:cans":"yes","recycling:clothes":"no","recycling:glass_bottles":"yes","recycling:paper":"yes","recycling_type":"container"}},"type":"Feature"},
	{"geometry":{"coordinates":[10.312316,47.726402],"type":"Point"},"properties":{"osm_id":"681973654","tag":{"amenity":"waste_basket"}},"type":"Feature"},
	{"geometry":{"coordinates":[10.334129,47.72419],"type":"Point"},"properties":{"osm_id":"683352747","tag":{"amenity":"waste_basket"}},"type":"Feature"},
	{"geometry":{"coordinates":[10.339559,47.727684],"type":"Point"},"properties":{"osm_id":"683397708","tag":{"amenity":"recycling","recycling:clothes":"yes","recycling_type":"container"}},"type":"Feature"},
	{"geometry":{"coordinates":[10.340502,47.730342],"type":"Point"},"properties":{"osm_id":"683423067","tag":{"amenity":"recycling","operator":"Zweckverband f\u00c3\u00bcr Abfallwirtschaft Kempten","recycling:beverage_cartons":"yes","recycling:cans":"yes","recycling:clothes":"yes","recycling:glass_bottles":"yes","recycling:paper":"yes","recycling_type":"container"}},"type":"Feature"},
	{"geometry":{"coordinates":[10.339276,47.730728],"type":"Point"},"properties":{"osm_id":"683920788","tag":{"amenity":"waste_basket"}},"type":"Feature"},
	{"geometry":{"coordinates":[10.339493,47.730741],"type":"Point"},"properties":{"osm_id":"683920795","tag":{"amenity":"waste_basket"}},"type":"Feature"},
	{"geometry":{"coordinates":[10.338286,47.731145],"type":"Point"},"properties":{"osm_id":"683920819","tag":{"amenity":"waste_basket"}},"type":"Feature"},
	{"geometry":{"coordinates":[10.338467,47.729812],"type":"Point"},"properties":{"osm_id":"684061979","tag":{"amenity":"waste_basket"}},"type":"Feature"},
	{"geometry":{"coordinates":[10.338524,47.730212],"type":"Point"},"properties":{"osm_id":"684062114","tag":{"amenity":"waste_basket"}},"type":"Feature"},
	{"geometry":{"coordinates":[10.331453,47.731049],"type":"Point"},"properties":{"osm_id":"684395176","tag":{"amenity":"recycling","operator":"Zweckverband f\u00c3\u00bcr Abfallwirtschaft Kempten","recycling:beverage_cartons":"yes","recycling:cans":"yes","recycling:clothes":"yes","recycling:glass_bottles":"yes","recycling:paper":"yes","recycling_type":"container"}},"type":"Feature"},
	{"geometry":{"coordinates":[10.323327,47.715685],"type":"Point"},"properties":{"osm_id":"685428405","tag":{"amenity":"waste_basket"}},"type":"Feature"},
	{"geometry":{"coordinates":[10.323484,47.715726],"type":"Point"},"properties":{"osm_id":"685428406","tag":{"amenity":"waste_basket"}},"type":"Feature"},
	{"geometry":{"coordinates":[10.319427,47.733214],"type":"Point"},"properties":{"osm_id":"690682491","tag":{"amenity":"waste_basket"}},"type":"Feature"},
	{"geometry":{"coordinates":[10.31674,47.730369],"type":"Point"},"properties":{"osm_id":"691403404","tag":{"amenity":"waste_basket"}},"type":"Feature"},
	{"geometry":{"coordinates":[10.317573,47.736858],"type":"Point"},"properties":{"osm_id":"691741231","tag":{"amenity":"waste_basket"}},"type":"Feature"},
	{"geometry":{"coordinates":[10.345419,47.721088],"type":"Point"},"properties":{"osm_id":"694262469","tag":{"amenity":"waste_basket"}},"type":"Feature"},
	{"geometry":{"coordinates":[10.352837,47.719339],"type":"Point"},"properties":{"osm_id":"694262580","tag":{"amenity":"waste_basket"}},"type":"Feature"},
	{"geometry":{"coordinates":[10.349385,47.725194],"type":"Point"},"properties":{"osm_id":"694262655","tag":{"amenity":"waste_basket"}},"type":"Feature"},
	{"geometry":{"coordinates":[10.304979,47.708437],"type":"Point"},"properties":{"osm_id":"698615889","tag":{"amenity":"waste_basket"}},"type":"Feature"},
	{"geometry":{"coordinates":[10.29016,47.710771],"type":"Point"},"properties":{"osm_id":"699824339","tag":{"amenity":"recycling","operator":"Zweckverband f\u00c3\u00bcr Abfallwirtschaft Kempten","recycling:beverage_cartons":"yes","recycling:cans":"yes","recycling:clothes":"yes","recycling:glass_bottles":"yes","recycling:paper":"yes","recycling_type":"container"}},"type":"Feature"},
	{"geometry":{"coordinates":[10.294157,47.715003],"type":"Point"},"properties":{"osm_id":"700904747","tag":{"amenity":"recycling","operator":"Zweckverband f\u00c3\u00bcr Abfallwirtschaft Kempten","recycling:beverage_cartons":"yes","recycling:cans":"yes","recycling:clothes":"yes","recycling:glass_bottles":"yes","recycling:paper":"yes","recycling_type":"container"}},"type":"Feature"},
	{"geometry":{"coordinates":[10.331419,47.732928],"type":"Point"},"properties":{"osm_id":"703224707","tag":{"amenity":"waste_basket"}},"type":"Feature"},
	{"geometry":{"coordinates":[10.336528,47.734842],"type":"Point"},"properties":{"osm_id":"703224747","tag":{"amenity":"recycling","operator":"Zweckverband f\u00c3\u00bcr Abfallwirtschaft Kempten","recycling:beverage_cartons":"yes","recycling:cans":"yes","recycling:clothes":"no","recycling:glass_bottles":"yes","recycling:paper":"yes","recycling_type":"container"}},"type":"Feature"},
	{"geometry":{"coordinates":[10.335472,47.734494],"type":"Point"},"properties":{"osm_id":"703224768","tag":{"amenity":"waste_basket"}},"type":"Feature"},
	{"geometry":{"coordinates":[10.332004,47.734711],"type":"Point"},"properties":{"osm_id":"703224781","tag":{"amenity":"recycling","recycling:beverage_cartons":"no","recycling:cans":"no","recycling:clothes":"no","recycling:glass":"no","recycling:paper":"no","recycling:shoes":"yes","recycling_type":"container"}},"type":"Feature"},
	{"geometry":{"coordinates":[10.330436,47.736115],"type":"Point"},"properties":{"osm_id":"703224791","tag":{"amenity":"recycling","operator":"Zweckverband f\u00c3\u00bcr Abfallwirtschaft Kempten","recycling:beverage_cartons":"yes","recycling:cans":"yes","recycling:clothes":"no","recycling:glass_bottles":"yes","recycling:paper":"yes","recycling_type":"container"}},"type":"Feature"},
	{"geometry":{"coordinates":[10.332949,47.736523],"type":"Point"},"properties":{"osm_id":"703224836","tag":{"amenity":"waste_basket"}},"type":"Feature"},
	{"geometry":{"coordinates":[10.33077,47.737441],"type":"Point"},"properties":{"osm_id":"703255824","tag":{"amenity":"recycling","operator":"Zweckverband f\u00c3\u00bcr Abfallwirtschaft Kempten","recycling:beverage_cartons":"yes","recycling:cans":"yes","recycling:clothes":"yes","recycling:glass_bottles":"yes","recycling:paper":"yes","recycling_type":"container"}},"type":"Feature"},
	{"geometry":{"coordinates":[10.332247,47.737242],"type":"Point"},"properties":{"osm_id":"703255859","tag":{"amenity":"waste_basket"}},"type":"Feature"},
	{"geometry":{"coordinates":[10.320814,47.732838],"type":"Point"},"properties":{"osm_id":"707401689","tag":{"amenity":"recycling","operator":"Zweckverband f\u00c3\u00bcr Abfallwirtschaft Kempten","recycling:beverage_cartons":"yes","recycling:cans":"yes","recycling:clothes":"no","recycling:glass_bottles":"yes","recycling:paper":"yes","recycling_type":"container"}},"type":"Feature"},
	{"geometry":{"coordinates":[10.319307,47.729516],"type":"Point"},"properties":{"osm_id":"707515208","tag":{"amenity":"waste_disposal"}},"type":"Feature"},
	{"geometry":{"coordinates":[10.318807,47.729153],"type":"Point"},"properties":{"osm_id":"707515341","tag":{"amenity":"recycling","operator":"Zweckverband f\u00c3\u00bcr Abfallwirtschaft Kempten","recycling:beverage_cartons":"yes","recycling:cans":"yes","recycling:clothes":"no","recycling:glass_bottles":"yes","recycling:paper":"yes","recycling_type":"container"}},"type":"Feature"},
	{"geometry":{"coordinates":[10.318911,47.729247],"type":"Point"},"properties":{"osm_id":"707515389","tag":{"amenity":"waste_basket"}},"type":"Feature"},
	{"geometry":{"coordinates":[10.325616,47.723943],"type":"Point"},"properties":{"osm_id":"708675822","tag":{"amenity":"waste_basket"}},"type":"Feature"},
	{"geometry":{"coordinates":[10.352406,47.737424],"type":"Point"},"properties":{"osm_id":"712438252","tag":{"amenity":"recycling","operator":"Zweckverband f\u00c3\u00bcr Abfallwirtschaft Kempten","recycling:beverage_cartons":"yes","recycling:cans":"yes","recycling:clothes":"yes","recycling:glass_bottles":"yes","recycling:paper":"yes","recycling_type":"container"}},"type":"Feature"},
	{"geometry":{"coordinates":[10.34018,47.734079],"type":"Point"},"properties":{"osm_id":"712692290","tag":{"amenity":"waste_basket"}},"type":"Feature"},
	{"geometry":{"coordinates":[10.340464,47.732328],"type":"Point"},"properties":{"osm_id":"712692298","tag":{"amenity":"waste_basket"}},"type":"Feature"},
	{"geometry":{"coordinates":[10.283692,47.717318],"type":"Point"},"properties":{"osm_id":"718925537","tag":{"amenity":"waste_basket"}},"type":"Feature"},
	{"geometry":{"coordinates":[10.322412,47.72178],"type":"Point"},"properties":{"osm_id":"720978521","tag":{"amenity":"recycling","operator":"Zweckverband f\u00c3\u00bcr Abfallwirtschaft Kempten","recycling:beverage_cartons":"yes","recycling:cans":"yes","recycling:clothes":"no","recycling:glass_bottles":"yes","recycling:paper":"yes","recycling_type":"container"}},"type":"Feature"},
	{"geometry":{"coordinates":[10.311587,47.711998],"type":"Point"},"properties":{"osm_id":"726294650","tag":{"amenity":"recycling","operator":"Zweckverband f\u00c3\u00bcr Abfallwirtschaft Kempten","recycling:beverage_cartons":"yes","recycling:cans":"yes","recycling:clothes":"yes","recycling:glass_bottles":"yes","recycling:paper":"yes","recycling_type":"container"}},"type":"Feature"},
	{"geometry":{"coordinates":[10.313653,47.716285],"type":"Point"},"properties":{"osm_id":"726294689","tag":{"amenity":"recycling","operator":"Zweckverband f\u00c3\u00bcr Abfallwirtschaft Kempten","recycling:beverage_cartons":"yes","recycling:cans":"yes","recycling:clothes":"yes","recycling:glass_bottles":"yes","recycling:paper":"yes","recycling_type":"container"}},"type":"Feature"},
	{"geometry":{"coordinates":[10.316459,47.716786],"type":"Point"},"properties":{"osm_id":"726563456","tag":{"amenity":"recycling","operator":"Zweckverband f\u00c3\u00bcr Abfallwirtschaft Kempten","recycling:beverage_cartons":"yes","recycling:cans":"yes","recycling:clothes":"no","recycling:glass_bottles":"yes","recycling:paper":"yes","recycling_type":"container"}},"type":"Feature"},
	{"geometry":{"coordinates":[10.323206,47.721047],"type":"Point"},"properties":{"osm_id":"727467557","tag":{"amenity":"waste_basket"}},"type":"Feature"},
	{"geometry":{"coordinates":[10.3233,47.72125],"type":"Point"},"properties":{"osm_id":"727467585","tag":{"amenity":"waste_basket"}},"type":"Feature"},
	{"geometry":{"coordinates":[10.29247,47.732282],"type":"Point"},"properties":{"osm_id":"736542605","tag":{"amenity":"recycling","operator":"Zweckverband f\u00c3\u00bcr Abfallwirtschaft Kempten","recycling:beverage_cartons":"yes","recycling:cans":"yes","recycling:clothes":"yes","recycling:glass_bottles":"yes","recycling:paper":"yes","recycling_type":"container"}},"type":"Feature"},
	{"geometry":{"coordinates":[10.295345,47.725249],"type":"Point"},"properties":{"osm_id":"736542717","tag":{"amenity":"waste_basket"}},"type":"Feature"},
	{"geometry":{"coordinates":[10.303177,47.735319],"type":"Point"},"properties":{"osm_id":"736542963","tag":{"amenity":"recycling","operator":"Zweckverband f\u00c3\u00bcr Abfallwirtschaft Kempten","recycling:beverage_cartons":"yes","recycling:cans":"yes","recycling:clothes":"no","recycling:glass_bottles":"yes","recycling:paper":"yes","recycling_type":"container"}},"type":"Feature"},
	{"geometry":{"coordinates":[10.294608,47.729559],"type":"Point"},"properties":{"osm_id":"736606314","tag":{"amenity":"waste_basket"}},"type":"Feature"},
	{"geometry":{"coordinates":[10.302802,47.734994],"type":"Point"},"properties":{"osm_id":"736606415","tag":{"amenity":"waste_basket"}},"type":"Feature"},
	{"geometry":{"coordinates":[10.323727,47.728918],"type":"Point"},"properties":{"osm_id":"756697020","tag":{"amenity":"waste_basket"}},"type":"Feature"},
	{"geometry":{"coordinates":[10.323658,47.730225],"type":"Point"},"properties":{"osm_id":"756697068","tag":{"amenity":"waste_basket"}},"type":"Feature"},
	{"geometry":{"coordinates":[10.322724,47.72991],"type":"Point"},"properties":{"osm_id":"756697157","tag":{"amenity":"waste_basket"}},"type":"Feature"},
	{"geometry":{"coordinates":[10.323727,47.726982],"type":"Point"},"properties":{"osm_id":"756697216","tag":{"amenity":"waste_basket"}},"type":"Feature"},
	{"geometry":{"coordinates":[10.323724,47.728746],"type":"Point"},"properties":{"osm_id":"756697285","tag":{"amenity":"waste_basket"}},"type":"Feature"},
	{"geometry":{"coordinates":[10.323624,47.727482],"type":"Point"},"properties":{"osm_id":"756697388","tag":{"amenity":"waste_basket"}},"type":"Feature"},
	{"geometry":{"coordinates":[10.312146,47.727845],"type":"Point"},"properties":{"osm_id":"756697405","tag":{"amenity":"waste_basket"}},"type":"Feature"},
	{"geometry":{"coordinates":[10.323779,47.730263],"type":"Point"},"properties":{"osm_id":"756697419","tag":{"amenity":"recycling","operator":"Zweckverband f\u00c3\u00bcr Abfallwirtschaft Kempten","recycling:beverage_cartons":"yes","recycling:cans":"yes","recycling:clothes":"no","recycling:glass_bottles":"yes","recycling:paper":"yes","recycling_type":"container"}},"type":"Feature"},
	{"geometry":{"coordinates":[10.30279,47.744977],"type":"Point"},"properties":{"osm_id":"762063952","tag":{"amenity":"recycling","operator":"Zweckverband f\u00c3\u00bcr Abfallwirtschaft Kempten","recycling:beverage_cartons":"yes","recycling:cans":"yes","recycling:clothes":"no","recycling:glass_bottles":"yes","recycling:paper":"yes","recycling_type":"container"}},"type":"Feature"},
	{"geometry":{"coordinates":[10.323527,47.743385],"type":"Point"},"properties":{"osm_id":"766659486","tag":{"amenity":"recycling","operator":"Zweckverband f\u00c3\u00bcr Abfallwirtschaft Kempten","recycling:beverage_cartons":"yes","recycling:cans":"yes","recycling:clothes":"yes","recycling:glass_bottles":"yes","recycling:paper":"yes","recycling_type":"container"}},"type":"Feature"},
	{"geometry":{"coordinates":[10.339505,47.716511],"type":"Point"},"properties":{"osm_id":"766834969","tag":{"amenity":"waste_basket"}},"type":"Feature"},
	{"geometry":{"coordinates":[10.291454,47.72379],"type":"Point"},"properties":{"osm_id":"768027534","tag":{"amenity":"waste_basket"}},"type":"Feature"},
	{"geometry":{"coordinates":[10.292955,47.718191],"type":"Point"},"properties":{"osm_id":"771237087","tag":{"amenity":"waste_basket"}},"type":"Feature"},
	{"geometry":{"coordinates":[10.296013,47.723147],"type":"Point"},"properties":{"osm_id":"771237115","tag":{"amenity":"waste_basket"}},"type":"Feature"},
	{"geometry":{"coordinates":[10.295458,47.724644],"type":"Point"},"properties":{"osm_id":"771237126","tag":{"amenity":"waste_basket"}},"type":"Feature"},
	{"geometry":{"coordinates":[10.296422,47.722615],"type":"Point"},"properties":{"osm_id":"771237129","tag":{"amenity":"waste_basket"}},"type":"Feature"},
	{"geometry":{"coordinates":[10.296631,47.721619],"type":"Point"},"properties":{"osm_id":"771237154","tag":{"amenity":"waste_basket"}},"type":"Feature"},
	{"geometry":{"coordinates":[10.289378,47.744181],"type":"Point"},"properties":{"osm_id":"787364023","tag":{"amenity":"waste_basket"}},"type":"Feature"},
	{"geometry":{"coordinates":[10.315654,47.730998],"type":"Point"},"properties":{"osm_id":"826085575","tag":{"amenity":"recycling","operator":"Zweckverband f\u00c3\u00bcr Abfallwirtschaft Kempten","recycling:beverage_cartons":"yes","recycling:cans":"yes","recycling:clothes":"yes","recycling:glass_bottles":"yes","recycling:paper":"yes","recycling_type":"container"}},"type":"Feature"},
	{"geometry":{"coordinates":[10.313777,47.719272],"type":"Point"},"properties":{"osm_id":"826482162","tag":{"amenity":"recycling","operator":"Zweckverband f\u00c3\u00bcr Abfallwirtschaft Kempten","recycling:beverage_cartons":"yes","recycling:cans":"yes","recycling:clothes":"no","recycling:glass_bottles":"yes","recycling:paper":"yes","recycling_type":"container","wikimedia_commons":"File:M\u00c3\u00bcllcontainer Kempten Alpenstra\u00c3\u009fe.jpg"}},"type":"Feature"},
	{"geometry":{"coordinates":[10.305008,47.73834],"type":"Point"},"properties":{"osm_id":"826482180","tag":{"amenity":"recycling","operator":"Zweckverband f\u00c3\u00bcr Abfallwirtschaft Kempten","recycling:beverage_cartons":"yes","recycling:cans":"yes","recycling:clothes":"yes","recycling:glass_bottles":"yes","recycling:paper":"yes","recycling_type":"container"}},"type":"Feature"},
	{"geometry":{"coordinates":[10.306337,47.734464],"type":"Point"},"properties":{"osm_id":"826482202","tag":{"amenity":"recycling","operator":"Zweckverband f\u00c3\u00bcr Abfallwirtschaft Kempten","recycling:beverage_cartons":"yes","recycling:cans":"yes","recycling:clothes":"yes","recycling:glass_bottles":"yes","recycling:paper":"yes","recycling_type":"container"}},"type":"Feature"},
	{"geometry":{"coordinates":[10.320211,47.749243],"type":"Point"},"properties":{"osm_id":"838519867","tag":{"amenity":"recycling","operator":"Zweckverband f\u00c3\u00bcr Abfallwirtschaft Kempten","recycling:beverage_cartons":"yes","recycling:cans":"yes","recycling:clothes":"yes","recycling:glass_bottles":"yes","recycling:paper":"yes","recycling_type":"container"}},"type":"Feature"},
	{"geometry":{"coordinates":[10.301213,47.731447],"type":"Point"},"properties":{"osm_id":"838555012","tag":{"amenity":"recycling","operator":"Zweckverband f\u00c3\u00bcr Abfallwirtschaft Kempten","recycling:beverage_cartons":"yes","recycling:cans":"yes","recycling:clothes":"no","recycling:glass_bottles":"yes","recycling:paper":"yes","recycling_type":"container"}},"type":"Feature"},
	{"geometry":{"coordinates":[10.300707,47.729829],"type":"Point"},"properties":{"osm_id":"838701623","tag":{"amenity":"waste_basket"}},"type":"Feature"},
	{"geometry":{"coordinates":[10.299229,47.729773],"type":"Point"},"properties":{"osm_id":"838701630","tag":{"amenity":"waste_basket"}},"type":"Feature"},
	{"geometry":{"coordinates":[10.299628,47.72827],"type":"Point"},"properties":{"osm_id":"838701647","tag":{"amenity":"waste_basket"}},"type":"Feature"},
	{"geometry":{"coordinates":[10.298493,47.741378],"type":"Point"},"properties":{"osm_id":"844973984","tag":{"amenity":"recycling","operator":"Zweckverband f\u00c3\u00bcr Abfallwirtschaft Kempten","recycling:beverage_cartons":"yes","recycling:cans":"yes","recycling:clothes":"yes","recycling:glass_bottles":"yes","recycling:paper":"yes","recycling_type":"container"}},"type":"Feature"},
	{"geometry":{"coordinates":[10.305062,47.715856],"type":"Point"},"properties":{"osm_id":"846995464","tag":{"amenity":"waste_basket"}},"type":"Feature"},
	{"geometry":{"coordinates":[10.304226,47.71567],"type":"Point"},"properties":{"osm_id":"846995484","tag":{"amenity":"waste_basket"}},"type":"Feature"},
	{"geometry":{"coordinates":[10.304998,47.71529],"type":"Point"},"properties":{"osm_id":"846995501","tag":{"amenity":"waste_basket"}},"type":"Feature"},
	{"geometry":{"coordinates":[10.302973,47.713597],"type":"Point"},"properties":{"osm_id":"846995556","tag":{"amenity":"waste_basket"}},"type":"Feature"},
	{"geometry":{"coordinates":[10.30523,47.716681],"type":"Point"},"properties":{"osm_id":"846995560","tag":{"amenity":"recycling","operator":"Zweckverband f\u00c3\u00bcr Abfallwirtschaft Kempten","recycling:beverage_cartons":"yes","recycling:cans":"yes","recycling:clothes":"yes","recycling:glass_bottles":"yes","recycling:paper":"yes","recycling_type":"container"}},"type":"Feature"},
	{"geometry":{"coordinates":[10.304855,47.716281],"type":"Point"},"properties":{"osm_id":"847019834","tag":{"amenity":"waste_basket"}},"type":"Feature"},
	{"geometry":{"coordinates":[10.305089,47.716443],"type":"Point"},"properties":{"osm_id":"847019972","tag":{"amenity":"waste_basket"}},"type":"Feature"},
	{"geometry":{"coordinates":[10.303661,47.715229],"type":"Point"},"properties":{"osm_id":"847019996","tag":{"amenity":"waste_basket"}},"type":"Feature"},
	{"geometry":{"coordinates":[10.3015,47.714501],"type":"Point"},"properties":{"osm_id":"847062893","tag":{"amenity":"waste_basket"}},"type":"Feature"},
	{"geometry":{"coordinates":[10.306592,47.717048],"type":"Point"},"properties":{"osm_id":"847062910","tag":{"amenity":"waste_basket"}},"type":"Feature"},
	{"geometry":{"coordinates":[10.30155,47.714679],"type":"Point"},"properties":{"osm_id":"847062969","tag":{"amenity":"waste_basket"}},"type":"Feature"},
	{"geometry":{"coordinates":[10.310366,47.714243],"type":"Point"},"properties":{"osm_id":"847205405","tag":{"amenity":"waste_basket"}},"type":"Feature"},
	{"geometry":{"coordinates":[10.309915,47.71077],"type":"Point"},"properties":{"osm_id":"847226474","tag":{"amenity":"waste_basket"}},"type":"Feature"},
	{"geometry":{"coordinates":[10.30707,47.709606],"type":"Point"},"properties":{"osm_id":"847254252","tag":{"amenity":"waste_basket"}},"type":"Feature"},
	{"geometry":{"coordinates":[10.307941,47.711436],"type":"Point"},"properties":{"osm_id":"847254261","tag":{"amenity":"recycling","operator":"Zweckverband f\u00c3\u00bcr Abfallwirtschaft Kempten","recycling:beverage_cartons":"yes","recycling:cans":"yes","recycling:clothes":"no","recycling:glass_bottles":"yes","recycling:paper":"yes","recycling_type":"container"}},"type":"Feature"},
	{"geometry":{"coordinates":[10.307603,47.709837],"type":"Point"},"properties":{"osm_id":"847254271","tag":{"amenity":"waste_basket"}},"type":"Feature"},
	{"geometry":{"coordinates":[10.318505,47.753689],"type":"Point"},"properties":{"osm_id":"847797740","tag":{"amenity":"recycling","operator":"Zweckverband f\u00c3\u00bcr Abfallwirtschaft Kempten","recycling:beverage_cartons":"yes","recycling:cans":"yes","recycling:clothes":"no","recycling:glass_bottles":"yes","recycling:paper":"yes","recycling_type":"container"}},"type":"Feature"},
	{"geometry":{"coordinates":[10.303047,47.709982],"type":"Point"},"properties":{"osm_id":"848525931","tag":{"amenity":"waste_basket"}},"type":"Feature"},
	{"geometry":{"coordinates":[10.309838,47.709283],"type":"Point"},"properties":{"osm_id":"849568287","tag":{"amenity":"recycling","operator":"Zweckverband f\u00c3\u00bcr Abfallwirtschaft Kempten","recycling:beverage_cartons":"yes","recycling:cans":"yes","recycling:clothes":"no","recycling:glass_bottles":"yes","recycling:paper":"yes","recycling_type":"container"}},"type":"Feature"},
	{"geometry":{"coordinates":[10.305495,47.710683],"type":"Point"},"properties":{"osm_id":"849603197","tag":{"amenity":"waste_basket"}},"type":"Feature"},
	{"geometry":{"coordinates":[10.304827,47.712713],"type":"Point"},"properties":{"osm_id":"849603336","tag":{"amenity":"recycling","operator":"Zweckverband f\u00c3\u00bcr Abfallwirtschaft Kempten","recycling:beverage_cartons":"yes","recycling:cans":"yes","recycling:clothes":"no","recycling:glass_bottles":"yes","recycling:paper":"yes","recycling_type":"container"}},"type":"Feature"},
	{"geometry":{"coordinates":[10.305389,47.71118],"type":"Point"},"properties":{"osm_id":"849603437","tag":{"amenity":"waste_basket"}},"type":"Feature"},
	{"geometry":{"coordinates":[10.306265,47.713133],"type":"Point"},"properties":{"osm_id":"849603490","tag":{"amenity":"waste_basket"}},"type":"Feature"},
	{"geometry":{"coordinates":[10.304648,47.712879],"type":"Point"},"properties":{"osm_id":"849603503","tag":{"amenity":"waste_basket"}},"type":"Feature"},
	{"geometry":{"coordinates":[10.304832,47.71254],"type":"Point"},"properties":{"osm_id":"849603619","tag":{"amenity":"waste_basket"}},"type":"Feature"},
	{"geometry":{"coordinates":[10.302029,47.713784],"type":"Point"},"properties":{"osm_id":"849757208","tag":{"amenity":"waste_basket"}},"type":"Feature"},
	{"geometry":{"coordinates":[10.302264,47.709536],"type":"Point"},"properties":{"osm_id":"849757853","tag":{"amenity":"waste_basket"}},"type":"Feature"},
	{"geometry":{"coordinates":[10.306735,47.716638],"type":"Point"},"properties":{"osm_id":"849968715","tag":{"amenity":"waste_basket"}},"type":"Feature"},
	{"geometry":{"coordinates":[10.306602,47.719568],"type":"Point"},"properties":{"osm_id":"849968849","tag":{"amenity":"waste_basket"}},"type":"Feature"},
	{"geometry":{"coordinates":[10.306496,47.716044],"type":"Point"},"properties":{"osm_id":"849968851","tag":{"amenity":"waste_basket"}},"type":"Feature"},
	{"geometry":{"coordinates":[10.308856,47.71906],"type":"Point"},"properties":{"osm_id":"849968927","tag":{"amenity":"waste_basket"}},"type":"Feature"},
	{"geometry":{"coordinates":[10.305229,47.717282],"type":"Point"},"properties":{"osm_id":"849969010","tag":{"amenity":"waste_basket"}},"type":"Feature"},
	{"geometry":{"coordinates":[10.302517,47.718672],"type":"Point"},"properties":{"osm_id":"849969060","tag":{"amenity":"recycling","operator":"Zweckverband f\u00c3\u00bcr Abfallwirtschaft Kempten","recycling:beverage_cartons":"yes","recycling:cans":"yes","recycling:clothes":"yes","recycling:glass_bottles":"yes","recycling:paper":"yes","recycling_type":"container"}},"type":"Feature"},
	{"geometry":{"coordinates":[10.30801,47.722576],"type":"Point"},"properties":{"osm_id":"849994941","tag":{"amenity":"recycling","operator":"Zweckverband f\u00c3\u00bcr Abfallwirtschaft Kempten","recycling:beverage_cartons":"yes","recycling:cans":"yes","recycling:clothes":"no","recycling:glass_bottles":"yes","recycling:paper":"yes","recycling_type":"container"}},"type":"Feature"},
	{"geometry":{"coordinates":[10.305137,47.718874],"type":"Point"},"properties":{"osm_id":"854731255","tag":{"amenity":"waste_basket"}},"type":"Feature"},
	{"geometry":{"coordinates":[10.303033,47.723142],"type":"Point"},"properties":{"osm_id":"854886394","tag":{"amenity":"recycling","operator":"Zweckverband f\u00c3\u00bcr Abfallwirtschaft Kempten","recycling:beverage_cartons":"yes","recycling:cans":"yes","recycling:clothes":"yes","recycling:glass_bottles":"yes","recycling:paper":"yes","recycling_type":"container"}},"type":"Feature"},
	{"geometry":{"coordinates":[10.306231,47.722361],"type":"Point"},"properties":{"osm_id":"856923002","tag":{"amenity":"recycling","operator":"Zweckverband f\u00c3\u00bcr Abfallwirtschaft Kempten","recycling:beverage_cartons":"yes","recycling:cans":"yes","recycling:clothes":"no","recycling:glass_bottles":"yes","recycling:paper":"yes","recycling_type":"container"}},"type":"Feature"},
	{"geometry":{"coordinates":[10.306245,47.72232],"type":"Point"},"properties":{"osm_id":"856923166","tag":{"amenity":"waste_basket"}},"type":"Feature"},
	{"geometry":{"coordinates":[10.308898,47.72522],"type":"Point"},"properties":{"osm_id":"858488910","tag":{"amenity":"waste_basket"}},"type":"Feature"},
	{"geometry":{"coordinates":[10.306102,47.726829],"type":"Point"},"properties":{"osm_id":"858573504","tag":{"amenity":"waste_basket"}},"type":"Feature"},
	{"geometry":{"coordinates":[10.306433,47.726175],"type":"Point"},"properties":{"osm_id":"858573576","tag":{"amenity":"waste_basket"}},"type":"Feature"},
	{"geometry":{"coordinates":[10.30492,47.7262],"type":"Point"},"properties":{"osm_id":"858573594","tag":{"amenity":"recycling","operator":"Zweckverband f\u00c3\u00bcr Abfallwirtschaft Kempten","recycling:beverage_cartons":"yes","recycling:cans":"yes","recycling:clothes":"yes","recycling:glass_bottles":"yes","recycling:paper":"yes","recycling_type":"container"}},"type":"Feature"},
	{"geometry":{"coordinates":[10.306737,47.725462],"type":"Point"},"properties":{"osm_id":"858573612","tag":{"amenity":"recycling","operator":"Zweckverband f\u00c3\u00bcr Abfallwirtschaft Kempten","recycling:beverage_cartons":"yes","recycling:cans":"yes","recycling:clothes":"no","recycling:glass_bottles":"yes","recycling:paper":"yes","recycling_type":"container"}},"type":"Feature"},
	{"geometry":{"coordinates":[10.31026,47.726483],"type":"Point"},"properties":{"osm_id":"858985262","tag":{"amenity":"recycling","operator":"Zweckverband f\u00c3\u00bcr Abfallwirtschaft Kempten","recycling:beverage_cartons":"yes","recycling:cans":"yes","recycling:clothes":"yes","recycling:glass_bottles":"yes","recycling:paper":"yes","recycling_type":"container"}},"type":"Feature"},
	{"geometry":{"coordinates":[10.308713,47.72706],"type":"Point"},"properties":{"osm_id":"858985363","tag":{"amenity":"waste_basket"}},"type":"Feature"},
	{"geometry":{"coordinates":[10.308677,47.726425],"type":"Point"},"properties":{"osm_id":"858985365","tag":{"amenity":"waste_basket"}},"type":"Feature"},
	{"geometry":{"coordinates":[10.309912,47.7305],"type":"Point"},"properties":{"osm_id":"863426351","tag":{"amenity":"waste_basket"}},"type":"Feature"},
	{"geometry":{"coordinates":[10.310534,47.729545],"type":"Point"},"properties":{"osm_id":"863426389","tag":{"amenity":"waste_basket"}},"type":"Feature"},
	{"geometry":{"coordinates":[10.30742,47.733085],"type":"Point"},"properties":{"name":"Wertstoffinsel","osm_id":"864680236","tag":{"amenity":"recycling","name:de":"Wertstoffinsel","operator":"Zweckverband f\u00c3\u00bcr Abfallwirtschaft Kempten","recycling:beverage_cartons":"yes","recycling:cans":"yes","recycling:clothes":"yes","recycling:glass_bottles":"yes","recycling:paper":"yes","recycling_type":"container"}},"type":"Feature"},
	{"geometry":{"coordinates":[10.307737,47.731472],"type":"Point"},"properties":{"osm_id":"864680249","tag":{"amenity":"waste_basket"}},"type":"Feature"},
	{"geometry":{"coordinates":[10.315465,47.718097],"type":"Point"},"properties":{"osm_id":"864862004","tag":{"amenity":"waste_basket"}},"type":"Feature"},
	{"geometry":{"coordinates":[10.315808,47.717955],"type":"Point"},"properties":{"osm_id":"864862122","tag":{"amenity":"waste_basket"}},"type":"Feature"},
	{"geometry":{"coordinates":[10.313707,47.718592],"type":"Point"},"properties":{"osm_id":"864862184","tag":{"amenity":"waste_basket"}},"type":"Feature"},
	{"geometry":{"coordinates":[10.310599,47.730473],"type":"Point"},"properties":{"osm_id":"866547920","tag":{"amenity":"waste_basket"}},"type":"Feature"},
	{"geometry":{"coordinates":[10.314755,47.72968],"type":"Point"},"properties":{"osm_id":"866548076","tag":{"amenity":"waste_basket"}},"type":"Feature"},
	{"geometry":{"coordinates":[10.312297,47.730643],"type":"Point"},"properties":{"osm_id":"866548177","tag":{"amenity":"waste_basket"}},"type":"Feature"},
	{"geometry":{"coordinates":[10.315252,47.730078],"type":"Point"},"properties":{"osm_id":"866548196","tag":{"amenity":"waste_basket"}},"type":"Feature"},
	{"geometry":{"coordinates":[10.310979,47.729664],"type":"Point"},"properties":{"osm_id":"866548201","tag":{"amenity":"waste_basket"}},"type":"Feature"},
	{"geometry":{"coordinates":[10.313513,47.734828],"type":"Point"},"properties":{"osm_id":"866813969","tag":{"amenity":"recycling","operator":"Zweckverband f\u00c3\u00bcr Abfallwirtschaft Kempten","recycling:beverage_cartons":"yes","recycling:cans":"yes","recycling:clothes":"yes","recycling:glass_bottles":"yes","recycling:paper":"yes","recycling_type":"container"}},"type":"Feature"},
	{"geometry":{"coordinates":[10.304251,47.734338],"type":"Point"},"properties":{"osm_id":"867217970","tag":{"amenity":"waste_basket"}},"type":"Feature"},
	{"geometry":{"coordinates":[10.303176,47.7347],"type":"Point"},"properties":{"osm_id":"867218273","tag":{"amenity":"waste_basket"}},"type":"Feature"},
	{"geometry":{"coordinates":[10.29339,47.739329],"type":"Point"},"properties":{"osm_id":"868568863","tag":{"amenity":"recycling","operator":"Zweckverband f\u00c3\u00bcr Abfallwirtschaft Kempten","recycling:beverage_cartons":"yes","recycling:cans":"yes","recycling:clothes":"yes","recycling:glass_bottles":"yes","recycling:paper":"yes","recycling_type":"container"}},"type":"Feature"},
	{"geometry":{"coordinates":[10.295966,47.733391],"type":"Point"},"properties":{"osm_id":"868568893","tag":{"amenity":"recycling","operator":"Zweckverband f\u00c3\u00bcr Abfallwirtschaft Kempten","recycling:beverage_cartons":"yes","recycling:cans":"yes","recycling:clothes":"yes","recycling:glass_bottles":"yes","recycling:paper":"yes","recycling_type":"container"}},"type":"Feature"},
	{"geometry":{"coordinates":[10.289346,47.738241],"type":"Point"},"properties":{"osm_id":"868666612","tag":{"amenity":"recycling","operator":"Zweckverband f\u00c3\u00bcr Abfallwirtschaft Kempten","recycling:beverage_cartons":"yes","recycling:cans":"yes","recycling:clothes":"yes","recycling:glass_bottles":"yes","recycling:paper":"yes","recycling_type":"container"}},"type":"Feature"},
	{"geometry":{"coordinates":[10.290553,47.735353],"type":"Point"},"properties":{"osm_id":"868666940","tag":{"amenity":"recycling","operator":"Zweckverband f\u00c3\u00bcr Abfallwirtschaft Kempten","recycling:beverage_cartons":"yes","recycling:cans":"yes","recycling:clothes":"no","recycling:glass_bottles":"yes","recycling:paper":"yes","recycling_type":"container"}},"type":"Feature"},
	{"geometry":{"coordinates":[10.287229,47.737212],"type":"Point"},"properties":{"osm_id":"875910085","tag":{"amenity":"recycling","operator":"Zweckverband f\u00c3\u00bcr Abfallwirtschaft Kempten","recycling:beverage_cartons":"yes","recycling:cans":"yes","recycling:clothes":"no","recycling:glass_bottles":"yes","recycling:paper":"yes","recycling_type":"container"}},"type":"Feature"},
	{"geometry":{"coordinates":[10.286608,47.738887],"type":"Point"},"properties":{"osm_id":"875910204","tag":{"amenity":"recycling","operator":"Zweckverband f\u00c3\u00bcr Abfallwirtschaft Kempten","recycling:beverage_cartons":"yes","recycling:cans":"yes","recycling:clothes":"no","recycling:glass_bottles":"yes","recycling:paper":"yes","recycling_type":"container"}},"type":"Feature"},
	{"geometry":{"coordinates":[10.308032,47.74047],"type":"Point"},"properties":{"osm_id":"876161054","tag":{"amenity":"recycling","operator":"Zweckverband f\u00c3\u00bcr Abfallwirtschaft Kempten","recycling:beverage_cartons":"yes","recycling:cans":"yes","recycling:clothes":"no","recycling:glass_bottles":"yes","recycling:paper":"yes","recycling_type":"container"}},"type":"Feature"},
	{"geometry":{"coordinates":[10.308636,47.736963],"type":"Point"},"properties":{"osm_id":"897441662","tag":{"amenity":"recycling","operator":"Zweckverband f\u00c3\u00bcr Abfallwirtschaft Kempten","recycling:beverage_cartons":"yes","recycling:cans":"yes","recycling:clothes":"no","recycling:glass_bottles":"yes","recycling:paper":"yes","recycling_type":"container"}},"type":"Feature"},
	{"geometry":{"coordinates":[10.302913,47.74303],"type":"Point"},"properties":{"osm_id":"898867281","tag":{"amenity":"recycling","operator":"Zweckverband f\u00c3\u00bcr Abfallwirtschaft Kempten","recycling:beverage_cartons":"yes","recycling:cans":"yes","recycling:clothes":"no","recycling:glass_bottles":"yes","recycling:paper":"yes","recycling_type":"container"}},"type":"Feature"},
	{"geometry":{"coordinates":[10.303322,47.744498],"type":"Point"},"properties":{"osm_id":"898867294","tag":{"amenity":"waste_basket"}},"type":"Feature"},
	{"geometry":{"coordinates":[10.295314,47.74304],"type":"Point"},"properties":{"osm_id":"898939990","tag":{"amenity":"waste_basket"}},"type":"Feature"},
	{"geometry":{"coordinates":[10.302649,47.741442],"type":"Point"},"properties":{"osm_id":"898940104","tag":{"amenity":"recycling","operator":"Zweckverband f\u00c3\u00bcr Abfallwirtschaft Kempten","recycling:beverage_cartons":"yes","recycling:cans":"yes","recycling:clothes":"yes","recycling:glass_bottles":"yes","recycling:paper":"yes","recycling_type":"container"}},"type":"Feature"},
	{"geometry":{"coordinates":[10.296706,47.740606],"type":"Point"},"properties":{"osm_id":"898940239","tag":{"amenity":"waste_basket"}},"type":"Feature"},
	{"geometry":{"coordinates":[10.294763,47.744962],"type":"Point"},"properties":{"osm_id":"898940244","tag":{"amenity":"recycling","operator":"Zweckverband f\u00c3\u00bcr Abfallwirtschaft Kempten","recycling:beverage_cartons":"yes","recycling:cans":"yes","recycling:clothes":"no","recycling:glass_bottles":"yes","recycling:paper":"yes","recycling_type":"container"}},"type":"Feature"},
	{"geometry":{"coordinates":[10.298138,47.739416],"type":"Point"},"properties":{"osm_id":"898940272","tag":{"amenity":"waste_basket"}},"type":"Feature"},
	{"geometry":{"coordinates":[10.299477,47.743485],"type":"Point"},"properties":{"osm_id":"898940324","tag":{"amenity":"waste_basket"}},"type":"Feature"},
	{"geometry":{"coordinates":[10.296315,47.741143],"type":"Point"},"properties":{"osm_id":"898940377","tag":{"amenity":"waste_basket"}},"type":"Feature"},
	{"geometry":{"coordinates":[10.296566,47.741046],"type":"Point"},"properties":{"osm_id":"898940429","tag":{"amenity":"waste_basket"}},"type":"Feature"},
	{"geometry":{"coordinates":[10.290642,47.739],"type":"Point"},"properties":{"osm_id":"898959365","tag":{"amenity":"recycling","operator":"Zweckverband f\u00c3\u00bcr Abfallwirtschaft Kempten","recycling:beverage_cartons":"yes","recycling:cans":"yes","recycling:clothes":"no","recycling:glass_bottles":"yes","recycling:paper":"yes","recycling_type":"container"}},"type":"Feature"},
	{"geometry":{"coordinates":[10.293373,47.739786],"type":"Point"},"properties":{"osm_id":"900741846","tag":{"amenity":"recycling","operator":"Zweckverband f\u00c3\u00bcr Abfallwirtschaft Kempten","recycling:beverage_cartons":"no","recycling:cans":"no","recycling:clothes":"yes","recycling:glass":"no","recycling:paper":"no","recycling_type":"container"}},"type":"Feature"},
	{"geometry":{"coordinates":[10.293474,47.738512],"type":"Point"},"properties":{"osm_id":"900741938","tag":{"amenity":"waste_basket"}},"type":"Feature"},
	{"geometry":{"coordinates":[10.289192,47.738527],"type":"Point"},"properties":{"osm_id":"900741946","tag":{"amenity":"waste_basket"}},"type":"Feature"},
	{"geometry":{"coordinates":[10.302467,47.737801],"type":"Point"},"properties":{"osm_id":"902722090","tag":{"amenity":"waste_basket"}},"type":"Feature"},
	{"geometry":{"coordinates":[10.303836,47.738439],"type":"Point"},"properties":{"osm_id":"902722109","tag":{"amenity":"waste_basket"}},"type":"Feature"},
	{"geometry":{"coordinates":[10.288214,47.714996],"type":"Point"},"properties":{"osm_id":"905085221","tag":{"amenity":"waste_basket"}},"type":"Feature"},
	{"geometry":{"coordinates":[10.284969,47.71362],"type":"Point"},"properties":{"osm_id":"906780623","tag":{"amenity":"waste_basket"}},"type":"Feature"},
	{"geometry":{"coordinates":[10.293721,47.723339],"type":"Point"},"properties":{"osm_id":"915531597","tag":{"amenity":"waste_basket"}},"type":"Feature"},
	{"geometry":{"coordinates":[10.30989,47.700653],"type":"Point"},"properties":{"osm_id":"919561153","tag":{"amenity":"waste_basket"}},"type":"Feature"},
	{"geometry":{"coordinates":[10.311529,47.698186],"type":"Point"},"properties":{"osm_id":"919561405","tag":{"amenity":"waste_basket"}},"type":"Feature"},
	{"geometry":{"coordinates":[10.308741,47.697074],"type":"Point"},"properties":{"osm_id":"919561628","tag":{"amenity":"waste_basket"}},"type":"Feature"},
	{"geometry":{"coordinates":[10.300927,47.724113],"type":"Point"},"properties":{"osm_id":"926620463","tag":{"amenity":"waste_basket"}},"type":"Feature"},
	{"geometry":{"coordinates":[10.297771,47.723062],"type":"Point"},"properties":{"osm_id":"926620476","tag":{"amenity":"recycling","operator":"Zweckverband f\u00c3\u00bcr Abfallwirtschaft Kempten","recycling:beverage_cartons":"yes","recycling:cans":"yes","recycling:clothes":"no","recycling:glass_bottles":"yes","recycling:paper":"yes","recycling_type":"container"}},"type":"Feature"},
	{"geometry":{"coordinates":[10.304518,47.731943],"type":"Point"},"properties":{"osm_id":"926844800","tag":{"amenity":"recycling","operator":"Zweckverband f\u00c3\u00bcr Abfallwirtschaft Kempten","recycling:beverage_cartons":"yes","recycling:cans":"yes","recycling:clothes":"no","recycling:glass_bottles":"yes","recycling:paper":"yes","recycling_type":"container"}},"type":"Feature"},
	{"geometry":{"coordinates":[10.301772,47.722836],"type":"Point"},"properties":{"osm_id":"926844843","tag":{"amenity":"waste_basket"}},"type":"Feature"},
	{"geometry":{"coordinates":[10.303736,47.72836],"type":"Point"},"properties":{"osm_id":"926845216","tag":{"amenity":"waste_basket"}},"type":"Feature"},
	{"geometry":{"coordinates":[10.302191,47.725014],"type":"Point"},"properties":{"osm_id":"926845305","tag":{"amenity":"waste_basket"}},"type":"Feature"},
	{"geometry":{"coordinates":[10.302469,47.726719],"type":"Point"},"properties":{"osm_id":"926845421","tag":{"amenity":"recycling","operator":"Zweckverband f\u00c3\u00bcr Abfallwirtschaft Kempten","recycling:beverage_cartons":"yes","recycling:cans":"yes","recycling:clothes":"yes","recycling:glass_bottles":"yes","recycling:paper":"yes","recycling_type":"container","wikimedia_commons":"File:M\u00c3\u00bcllcontainer Kempten Haubensteigweg 2.jpg"}},"type":"Feature"},
	{"geometry":{"coordinates":[10.303398,47.729831],"type":"Point"},"properties":{"osm_id":"926845673","tag":{"amenity":"waste_basket"}},"type":"Feature"},
	{"geometry":{"coordinates":[10.302488,47.725661],"type":"Point"},"properties":{"osm_id":"926845753","tag":{"amenity":"waste_basket"}},"type":"Feature"},
	{"geometry":{"coordinates":[10.301244,47.720852],"type":"Point"},"properties":{"osm_id":"930175582","tag":{"amenity":"waste_basket"}},"type":"Feature"},
	{"geometry":{"coordinates":[10.328544,47.712271],"type":"Point"},"properties":{"osm_id":"973870683","tag":{"amenity":"waste_basket"}},"type":"Feature"},
	{"geometry":{"coordinates":[10.315523,47.722554],"type":"Point"},"properties":{"osm_id":"974454812","tag":{"amenity":"waste_basket"}},"type":"Feature"},
	{"geometry":{"coordinates":[10.315875,47.722826],"type":"Point"},"properties":{"osm_id":"974892249","tag":{"amenity":"waste_basket"}},"type":"Feature"},
	{"geometry":{"coordinates":[10.315885,47.722705],"type":"Point"},"properties":{"osm_id":"974892277","tag":{"amenity":"waste_basket"}},"type":"Feature"},
	{"geometry":{"coordinates":[10.314901,47.72658],"type":"Point"},"properties":{"osm_id":"977466467","tag":{"amenity":"waste_basket"}},"type":"Feature"},
	{"geometry":{"coordinates":[10.315691,47.72512],"type":"Point"},"properties":{"osm_id":"977466473","tag":{"amenity":"waste_basket"}},"type":"Feature"},
	{"geometry":{"coordinates":[10.31563,47.724283],"type":"Point"},"properties":{"osm_id":"977466486","tag":{"amenity":"waste_basket"}},"type":"Feature"},
	{"geometry":{"coordinates":[10.314956,47.726541],"type":"Point"},"properties":{"osm_id":"977466488","tag":{"amenity":"waste_basket"}},"type":"Feature"},
	{"geometry":{"coordinates":[10.315683,47.725172],"type":"Point"},"properties":{"osm_id":"977466489","tag":{"amenity":"waste_basket"}},"type":"Feature"},
	{"geometry":{"coordinates":[10.314994,47.726499],"type":"Point"},"properties":{"osm_id":"977466490","tag":{"amenity":"waste_basket"}},"type":"Feature"},
	{"geometry":{"coordinates":[10.314848,47.726613],"type":"Point"},"properties":{"osm_id":"977466503","tag":{"amenity":"waste_basket"}},"type":"Feature"},
	{"geometry":{"coordinates":[10.315238,47.726195],"type":"Point"},"properties":{"osm_id":"977466515","tag":{"amenity":"waste_basket"}},"type":"Feature"},
	{"geometry":{"coordinates":[10.31498,47.72546],"type":"Point"},"properties":{"osm_id":"977664042","tag":{"amenity":"waste_basket"}},"type":"Feature"},
	{"geometry":{"coordinates":[10.294244,47.731642],"type":"Point"},"properties":{"osm_id":"987064190","tag":{"amenity":"recycling","operator":"Zweckverband f\u00c3\u00bcr Abfallwirtschaft Kempten","recycling:beverage_cartons":"yes","recycling:cans":"yes","recycling:clothes":"yes","recycling:glass_bottles":"yes","recycling:paper":"yes","recycling_type":"container"}},"type":"Feature"},
	{"geometry":{"coordinates":[10.337475,47.718558],"type":"Point"},"properties":{"osm_id":"1655921867","tag":{"amenity":"recycling","recycling:cans":"yes","recycling:cartons":"yes","recycling:glass":"yes","recycling:glass_bottles":"yes","recycling:newspaper":"yes","recycling:paper":"yes","recycling:paper_packaging":"yes","recycling_type":"container"}},"type":"Feature"},
	{"geometry":{"coordinates":[10.31947,47.744962],"type":"Point"},"properties":{"osm_id":"2098259973","tag":{"amenity":"recycling","operator":"Zweckverband f\u00c3\u00bcr Abfallwirtschaft Kempten","recycling:beverage_cartons":"yes","recycling:cans":"yes","recycling:clothes":"no","recycling:glass_bottles":"yes","recycling:paper":"yes","recycling_type":"container"}},"type":"Feature"},
	{"geometry":{"coordinates":[10.305683,47.723601],"type":"Point"},"properties":{"osm_id":"3165855941","tag":{"amenity":"waste_basket"}},"type":"Feature"},
	{"geometry":{"coordinates":[10.319333,47.729084],"type":"Point"},"properties":{"osm_id":"3673875456","tag":{"amenity":"recycling","recycling:glass_bottles":"yes","recycling_type":"container"}},"type":"Feature"},
	{"geometry":{"coordinates":[10.367287,47.704179],"type":"Point"},"properties":{"osm_id":"3704751834","tag":{"amenity":"waste_basket"}},"type":"Feature"},
	{"geometry":{"coordinates":[10.327127,47.73505],"type":"Point"},"properties":{"osm_id":"3704752092","tag":{"amenity":"waste_basket"}},"type":"Feature"},
	{"geometry":{"coordinates":[10.331841,47.731411],"type":"Point"},"properties":{"osm_id":"3911487482","tag":{"amenity":"waste_basket"}},"type":"Feature"},
	{"geometry":{"coordinates":[10.31102,47.725393],"type":"Point"},"properties":{"osm_id":"4680160903","tag":{"amenity":"waste_basket"}},"type":"Feature"},
	{"geometry":{"coordinates":[10.306397,47.714286],"type":"Point"},"properties":{"osm_id":"4692137322","tag":{"amenity":"waste_basket"}},"type":"Feature"},
	{"geometry":{"coordinates":[10.307621,47.714566],"type":"Point"},"properties":{"osm_id":"4692139968","tag":{"amenity":"waste_basket"}},"type":"Feature"},
	{"geometry":{"coordinates":[10.291244,47.719409],"type":"Point"},"properties":{"osm_id":"4758057478","tag":{"amenity":"recycling","recycling:cans":"yes","recycling:clothes":"yes","recycling:glass":"yes","recycling:paper":"yes","recycling:plastic_bottles":"yes","recycling:plastic_packaging":"yes","recycling_type":"container"}},"type":"Feature"},
	{"geometry":{"coordinates":[10.301379,47.732505],"type":"Point"},"properties":{"osm_id":"4837601088","tag":{"amenity":"waste_basket"}},"type":"Feature"},
	{"geometry":{"coordinates":[10.301448,47.732649],"type":"Point"},"properties":{"osm_id":"4837601089","tag":{"amenity":"waste_basket"}},"type":"Feature"},
	{"geometry":{"coordinates":[10.301489,47.73276],"type":"Point"},"properties":{"osm_id":"4837601091","tag":{"amenity":"waste_basket"}},"type":"Feature"},
	{"geometry":{"coordinates":[10.301642,47.732584],"type":"Point"},"properties":{"osm_id":"4837601092","tag":{"amenity":"waste_basket"}},"type":"Feature"},
	{"geometry":{"coordinates":[10.366377,47.702249],"type":"Point"},"properties":{"osm_id":"4839844518","tag":{"amenity":"waste_disposal"}},"type":"Feature"},
	{"geometry":{"coordinates":[10.312792,47.726182],"type":"Point"},"properties":{"osm_id":"4945667048","tag":{"amenity":"waste_basket"}},"type":"Feature"},
	{"geometry":{"coordinates":[10.313319,47.726092],"type":"Point"},"properties":{"osm_id":"4945667340","tag":{"amenity":"waste_basket"}},"type":"Feature"},
	{"geometry":{"coordinates":[10.312873,47.72586],"type":"Point"},"properties":{"osm_id":"4945667445","tag":{"amenity":"waste_basket"}},"type":"Feature"},
	{"geometry":{"coordinates":[10.314327,47.726181],"type":"Point"},"properties":{"osm_id":"4945667446","tag":{"amenity":"waste_basket"}},"type":"Feature"},
	{"geometry":{"coordinates":[10.302137,47.732146],"type":"Point"},"properties":{"osm_id":"5024594171","tag":{"amenity":"waste_basket"}},"type":"Feature"},
	{"geometry":{"coordinates":[10.317262,47.711933],"type":"Point"},"properties":{"osm_id":"6193225379","tag":{"amenity":"waste_basket","level":"-1"}},"type":"Feature"},
	{"geometry":{"coordinates":[10.317515,47.711858],"type":"Point"},"properties":{"osm_id":"6193225380","tag":{"amenity":"waste_basket","level":"-1"}},"type":"Feature"},
	{"geometry":{"coordinates":[10.317718,47.711798],"type":"Point"},"properties":{"osm_id":"6193225381","tag":{"amenity":"waste_basket","level":"-1"}},"type":"Feature"},
	{"geometry":{"coordinates":[10.341656,47.696267],"type":"Point"},"properties":{"osm_id":"6566473486","tag":{"amenity":"recycling","recycling_type":"container"}},"type":"Feature"},
	{"geometry":{"coordinates":[10.317884,47.726225],"type":"Point"},"properties":{"osm_id":"6859343186","tag":{"amenity":"waste_basket","waste":"trash"}},"type":"Feature"},
	{"geometry":{"coordinates":[10.352448,47.736783],"type":"Point"},"properties":{"osm_id":"7667646104","tag":{"amenity":"waste_basket"}},"type":"Feature"}
]
}
