{
"type": "FeatureCollection",
"features": [
	{"geometry":{"coordinates":[10.310051,44.827701],"type":"Point"},"properties":{"name":"IREN","osm_id":"423344965","tag":{"amenity":"recycling"}},"type":"Feature"},
	{"geometry":{"coordinates":[10.345904,44.80369],"type":"Point"},"properties":{"name":"Centro Raccolta","osm_id":"4755399488","tag":{"addr:housenumber":"8a","addr:street":"Via Lazio","amenity":"recycling","recycling_type":"container"}},"type":"Feature"},
	{"geometry":{"coordinates":[10.340927,44.80576],"type":"Point"},"properties":{"name":"Ecostation","osm_id":"5273183140","tag":{"amenity":"recycling","recycling_type":"container"}},"type":"Feature"},
	{"geometry":{"coordinates":[10.312111,44.787758],"type":"Point"},"properties":{"name":"Ecostation","osm_id":"5273194742","tag":{"amenity":"recycling","recycling_type":"container"}},"type":"Feature"},
	{"geometry":{"coordinates":[10.303444,44.793854],"type":"Point"},"properties":{"name":"Ecostation","osm_id":"5273196915","tag":{"amenity":"recycling","recycling_type":"container"}},"type":"Feature"},
	{"geometry":{"coordinates":[10.313552,44.809347],"type":"Point"},"properties":{"name":"Ecostation","osm_id":"5273213951","tag":{"amenity":"recycling","recycling_type":"container"}},"type":"Feature"},
	{"geometry":{"coordinates":[10.302071,44.813665],"type":"Point"},"properties":{"name":"Centro Raccolta","osm_id":"5273217746","tag":{"amenity":"recycling","recycling_type":"centre"}},"type":"Feature"},
	{"geometry":{"coordinates":[10.318286,44.792763],"type":"Point"},"properties":{"osm_id":"6896536873","tag":{"amenity":"recycling","recycling:glass":"yes","recycling_type":"container"}},"type":"Feature"},
	{"geometry":{"coordinates":[10.322404,44.78729],"type":"Point"},"properties":{"osm_id":"6896536878","tag":{"amenity":"recycling","recycling:glass":"yes","recycling_type":"container"}},"type":"Feature"},
	{"geometry":{"coordinates":[10.327655,44.793973],"type":"Point"},"properties":{"osm_id":"7003179073","tag":{"amenity":"recycling","recycling:glass":"yes","recycling_type":"container"}},"type":"Feature"},
	{"geometry":{"coordinates":[10.32298,44.786392],"type":"Point"},"properties":{"osm_id":"7003193999","tag":{"amenity":"recycling","recycling:glass":"yes","recycling_type":"container"}},"type":"Feature"},
	{"geometry":{"coordinates":[10.320137,44.786173],"type":"Point"},"properties":{"osm_id":"7003194000","tag":{"amenity":"recycling","recycling:glass":"yes","recycling_type":"container"}},"type":"Feature"},
	{"geometry":{"coordinates":[10.315643,44.781135],"type":"Point"},"properties":{"osm_id":"7003194001","tag":{"amenity":"recycling","recycling:glass":"yes","recycling_type":"container"}},"type":"Feature"},
	{"geometry":{"coordinates":[10.315134,44.778522],"type":"Point"},"properties":{"osm_id":"7003194004","tag":{"amenity":"recycling","recycling:glass":"yes","recycling_type":"container"}},"type":"Feature"},
	{"geometry":{"coordinates":[10.311532,44.779611],"type":"Point"},"properties":{"osm_id":"7042121970","tag":{"amenity":"recycling","recycling:glass":"yes","recycling_type":"container"}},"type":"Feature"},
	{"geometry":{"coordinates":[10.31396,44.781131],"type":"Point"},"properties":{"osm_id":"7042121973","tag":{"amenity":"recycling","recycling:glass":"yes","recycling_type":"container"}},"type":"Feature"},
	{"geometry":{"coordinates":[10.321663,44.781041],"type":"Point"},"properties":{"osm_id":"7042121978","tag":{"amenity":"recycling","recycling:glass":"yes","recycling_type":"container"}},"type":"Feature"},
	{"geometry":{"coordinates":[10.323901,44.783817],"type":"Point"},"properties":{"osm_id":"7042121979","tag":{"amenity":"recycling","recycling:cans":"no","recycling:glass":"yes","recycling_type":"container"}},"type":"Feature"},
	{"geometry":{"coordinates":[10.323857,44.784747],"type":"Point"},"properties":{"osm_id":"7042121982","tag":{"amenity":"recycling","recycling:glass":"yes","recycling_type":"container"}},"type":"Feature"},
	{"geometry":{"coordinates":[10.329168,44.787484],"type":"Point"},"properties":{"osm_id":"7042140287","tag":{"amenity":"recycling","recycling:clothes":"yes","recycling:glass":"yes","recycling_type":"container"}},"type":"Feature"},
	{"geometry":{"coordinates":[10.328151,44.79031],"type":"Point"},"properties":{"osm_id":"7042140290","tag":{"amenity":"recycling","recycling:glass":"yes","recycling_type":"container"}},"type":"Feature"}
]
}
