{
"type": "FeatureCollection",
"features": [
	{"geometry":{"coordinates":[10.346353,43.512303],"type":"Point"},"properties":{"osm_id":"1484101582","tag":{"amenity":"waste_basket"}},"type":"Feature"},
	{"geometry":{"coordinates":[10.320572,43.513137],"type":"Point"},"properties":{"osm_id":"2059830465","tag":{"amenity":"waste_basket"}},"type":"Feature"},
	{"geometry":{"coordinates":[10.327621,43.489731],"type":"Point"},"properties":{"osm_id":"2128684346","tag":{"amenity":"waste_disposal"}},"type":"Feature"},
	{"geometry":{"coordinates":[10.349443,43.489412],"type":"Point"},"properties":{"osm_id":"2177856155","tag":{"amenity":"waste_disposal"}},"type":"Feature"},
	{"geometry":{"coordinates":[10.345148,43.48952],"type":"Point"},"properties":{"osm_id":"2177856159","tag":{"amenity":"waste_disposal"}},"type":"Feature"},
	{"geometry":{"coordinates":[10.353142,43.491769],"type":"Point"},"properties":{"osm_id":"2177856421","tag":{"amenity":"waste_disposal"}},"type":"Feature"},
	{"geometry":{"coordinates":[10.347568,43.491954],"type":"Point"},"properties":{"osm_id":"2177856472","tag":{"amenity":"recycling","recycling:aluminium":"yes","recycling:beverage_cartons":"yes","recycling:cans":"yes","recycling:glass_bottles":"yes","recycling:paper":"yes","recycling:plastic_bottles":"yes","recycling_type":"container"}},"type":"Feature"},
	{"geometry":{"coordinates":[10.347593,43.491968],"type":"Point"},"properties":{"osm_id":"2177856475","tag":{"amenity":"waste_disposal"}},"type":"Feature"},
	{"geometry":{"coordinates":[10.356269,43.494205],"type":"Point"},"properties":{"osm_id":"2177856718","tag":{"amenity":"waste_disposal"}},"type":"Feature"},
	{"geometry":{"coordinates":[10.34695,43.51364],"type":"Point"},"properties":{"osm_id":"2379476750","tag":{"amenity":"waste_disposal","operator":"Aamps"}},"type":"Feature"},
	{"geometry":{"coordinates":[10.346961,43.513666],"type":"Point"},"properties":{"osm_id":"2379476754","tag":{"amenity":"recycling","operator":"Aamps","recycling:aluminium":"yes","recycling:cans":"yes","recycling:glass_bottles":"yes","recycling:green_waste":"yes","recycling:paper":"yes","recycling:plastic_bottles":"yes","recycling_type":"container"}},"type":"Feature"},
	{"geometry":{"coordinates":[10.32021,43.503273],"type":"Point"},"properties":{"osm_id":"2386949916","tag":{"amenity":"waste_basket"}},"type":"Feature"},
	{"geometry":{"coordinates":[10.334776,43.493152],"type":"Point"},"properties":{"osm_id":"2423392058","tag":{"amenity":"waste_disposal"}},"type":"Feature"},
	{"geometry":{"coordinates":[10.362399,43.485584],"type":"Point"},"properties":{"osm_id":"2459874537","tag":{"amenity":"waste_basket"}},"type":"Feature"},
	{"geometry":{"coordinates":[10.34249,43.509241],"type":"Point"},"properties":{"osm_id":"2467729160","tag":{"amenity":"waste_basket"}},"type":"Feature"},
	{"geometry":{"coordinates":[10.346228,43.464883],"type":"Point"},"properties":{"osm_id":"2584228443","tag":{"amenity":"waste_disposal"}},"type":"Feature"},
	{"geometry":{"coordinates":[10.342413,43.465248],"type":"Point"},"properties":{"osm_id":"2584228495","tag":{"amenity":"waste_disposal"}},"type":"Feature"},
	{"geometry":{"coordinates":[10.346875,43.495339],"type":"Point"},"properties":{"osm_id":"2618535925","tag":{"amenity":"waste_disposal"}},"type":"Feature"},
	{"geometry":{"coordinates":[10.363103,43.461479],"type":"Point"},"properties":{"osm_id":"2780355055","tag":{"amenity":"waste_disposal","operator":"Aamps"}},"type":"Feature"},
	{"geometry":{"coordinates":[10.363132,43.461489],"type":"Point"},"properties":{"osm_id":"2780355057","tag":{"amenity":"recycling","operator":"Aamps","recycling:aluminium":"yes","recycling:cans":"yes","recycling:glass_bottles":"yes","recycling:green_waste":"yes","recycling:paper":"yes","recycling:plastic_bottles":"yes","recycling_type":"container"}},"type":"Feature"},
	{"geometry":{"coordinates":[10.362093,43.460676],"type":"Point"},"properties":{"osm_id":"2780399761","tag":{"amenity":"waste_basket"}},"type":"Feature"},
	{"geometry":{"coordinates":[10.326702,43.492167],"type":"Point"},"properties":{"osm_id":"2905761224","tag":{"amenity":"recycling","operator":"Aamps","recycling:aluminium":"yes","recycling:cans":"yes","recycling:glass_bottles":"yes","recycling:green_waste":"yes","recycling:paper":"yes","recycling:plastic_bottles":"yes","recycling_type":"container"}},"type":"Feature"},
	{"geometry":{"coordinates":[10.326688,43.492192],"type":"Point"},"properties":{"osm_id":"2905761225","tag":{"amenity":"waste_disposal","operator":"Aamps"}},"type":"Feature"},
	{"geometry":{"coordinates":[10.347576,43.492273],"type":"Point"},"properties":{"osm_id":"3222191893","tag":{"amenity":"waste_disposal"}},"type":"Feature"},
	{"geometry":{"coordinates":[10.346121,43.492462],"type":"Point"},"properties":{"osm_id":"3222191895","tag":{"amenity":"waste_basket"}},"type":"Feature"},
	{"geometry":{"coordinates":[10.34625,43.492536],"type":"Point"},"properties":{"osm_id":"3222191900","tag":{"amenity":"waste_basket"}},"type":"Feature"},
	{"geometry":{"coordinates":[10.365799,43.461149],"type":"Point"},"properties":{"osm_id":"3736564014","tag":{"amenity":"recycling","recycling_type":"container"}},"type":"Feature"},
	{"geometry":{"coordinates":[10.365853,43.461162],"type":"Point"},"properties":{"osm_id":"3736564015","tag":{"amenity":"waste_disposal"}},"type":"Feature"},
	{"geometry":{"coordinates":[10.360967,43.460128],"type":"Point"},"properties":{"osm_id":"4547076665","tag":{"amenity":"waste_basket"}},"type":"Feature"},
	{"geometry":{"coordinates":[10.344715,43.514098],"type":"Point"},"properties":{"osm_id":"6135912393","tag":{"amenity":"waste_basket","disused:bench":"no","disused:bin":"yes","disused:highway":"bus_stop","disused:public_transport":"platform","disused:shelter":"no"}},"type":"Feature"},
	{"geometry":{"coordinates":[10.345298,43.491057],"type":"Point"},"properties":{"osm_id":"7100938685","tag":{"amenity":"waste_disposal"}},"type":"Feature"},
	{"geometry":{"coordinates":[10.316299,43.51643],"type":"Point"},"properties":{"osm_id":"7126026886","tag":{"amenity":"waste_disposal"}},"type":"Feature"},
	{"geometry":{"coordinates":[10.368273,43.457424],"type":"Point"},"properties":{"osm_id":"7745151221","tag":{"amenity":"waste_basket","waste":"trash"}},"type":"Feature"},
	{"geometry":{"coordinates":[10.323772,43.513963],"type":"Point"},"properties":{"osm_id":"7823750120","tag":{"amenity":"waste_basket"}},"type":"Feature"}
]
}
