{
"type": "FeatureCollection",
"features": [
	{"geometry":{"coordinates":[138.489155,-34.902439],"type":"Point"},"properties":{"osm_id":"903625452","tag":{"amenity":"waste_basket"}},"type":"Feature"},
	{"geometry":{"coordinates":[138.486084,-34.902682],"type":"Point"},"properties":{"osm_id":"903625453","tag":{"amenity":"waste_basket"}},"type":"Feature"},
	{"geometry":{"coordinates":[138.498302,-34.899462],"type":"Point"},"properties":{"osm_id":"903625455","tag":{"amenity":"waste_basket"}},"type":"Feature"},
	{"geometry":{"coordinates":[138.498565,-34.902497],"type":"Point"},"properties":{"osm_id":"903625457","tag":{"amenity":"waste_basket"}},"type":"Feature"},
	{"geometry":{"coordinates":[138.499596,-34.905389],"type":"Point"},"properties":{"osm_id":"903625459","tag":{"amenity":"waste_basket"}},"type":"Feature"},
	{"geometry":{"coordinates":[138.49812,-34.906365],"type":"Point"},"properties":{"osm_id":"903625460","tag":{"amenity":"waste_basket"}},"type":"Feature"},
	{"geometry":{"coordinates":[138.490859,-34.902076],"type":"Point"},"properties":{"osm_id":"903625461","tag":{"amenity":"waste_basket"}},"type":"Feature"},
	{"geometry":{"coordinates":[138.498139,-34.901732],"type":"Point"},"properties":{"osm_id":"903625462","tag":{"amenity":"waste_basket"}},"type":"Feature"},
	{"geometry":{"coordinates":[138.489212,-34.893663],"type":"Point"},"properties":{"osm_id":"903626988","tag":{"amenity":"waste_basket"}},"type":"Feature"},
	{"geometry":{"coordinates":[138.489003,-34.893417],"type":"Point"},"properties":{"osm_id":"903626989","tag":{"amenity":"waste_basket"}},"type":"Feature"},
	{"geometry":{"coordinates":[138.492998,-34.893875],"type":"Point"},"properties":{"osm_id":"903626990","tag":{"amenity":"waste_basket"}},"type":"Feature"},
	{"geometry":{"coordinates":[138.493262,-34.893963],"type":"Point"},"properties":{"osm_id":"903626991","tag":{"amenity":"waste_basket"}},"type":"Feature"},
	{"geometry":{"coordinates":[138.502666,-34.895505],"type":"Point"},"properties":{"osm_id":"903626992","tag":{"amenity":"waste_basket"}},"type":"Feature"},
	{"geometry":{"coordinates":[138.489548,-34.893806],"type":"Point"},"properties":{"osm_id":"903626993","tag":{"amenity":"waste_basket"}},"type":"Feature"},
	{"geometry":{"coordinates":[138.488273,-34.897437],"type":"Point"},"properties":{"osm_id":"903647471","tag":{"amenity":"waste_basket"}},"type":"Feature"},
	{"geometry":{"coordinates":[138.492699,-34.896432],"type":"Point"},"properties":{"osm_id":"903647474","tag":{"amenity":"waste_basket"}},"type":"Feature"},
	{"geometry":{"coordinates":[138.490929,-34.902587],"type":"Point"},"properties":{"osm_id":"903647476","tag":{"amenity":"waste_basket"}},"type":"Feature"},
	{"geometry":{"coordinates":[138.50465,-34.895159],"type":"Point"},"properties":{"osm_id":"903656705","tag":{"amenity":"waste_basket"}},"type":"Feature"},
	{"geometry":{"coordinates":[138.504806,-34.8936],"type":"Point"},"properties":{"osm_id":"903656706","tag":{"amenity":"waste_basket"}},"type":"Feature"},
	{"geometry":{"coordinates":[138.504803,-34.896644],"type":"Point"},"properties":{"highway":"bus_stop","name":"Stop 30A Frederick Road - West side","osm_id":"903656707","tag":{"amenity":"waste_basket","operator":"Adelaide Metro","shelter":"yes","stop_id":"2893"}},"type":"Feature"},
	{"geometry":{"coordinates":[138.490352,-34.889884],"type":"Point"},"properties":{"osm_id":"904044342","tag":{"amenity":"waste_basket"}},"type":"Feature"},
	{"geometry":{"coordinates":[138.498772,-34.897366],"type":"Point"},"properties":{"osm_id":"904045500","tag":{"amenity":"waste_basket"}},"type":"Feature"},
	{"geometry":{"coordinates":[138.489902,-34.894132],"type":"Point"},"properties":{"osm_id":"912552302","tag":{"amenity":"waste_basket"}},"type":"Feature"},
	{"geometry":{"coordinates":[138.489461,-34.894125],"type":"Point"},"properties":{"osm_id":"912552514","tag":{"amenity":"waste_basket"}},"type":"Feature"},
	{"geometry":{"coordinates":[138.489725,-34.893868],"type":"Point"},"properties":{"osm_id":"912553988","tag":{"amenity":"waste_basket"}},"type":"Feature"},
	{"geometry":{"coordinates":[138.489015,-34.901568],"type":"Point"},"properties":{"osm_id":"944057299","tag":{"amenity":"waste_basket"}},"type":"Feature"},
	{"geometry":{"coordinates":[138.511368,-34.900783],"type":"Point"},"properties":{"osm_id":"957892551","tag":{"amenity":"waste_basket"}},"type":"Feature"},
	{"geometry":{"coordinates":[138.488624,-34.897307],"type":"Point"},"properties":{"osm_id":"960180911","tag":{"amenity":"waste_basket"}},"type":"Feature"},
	{"geometry":{"coordinates":[138.515401,-34.89172],"type":"Point"},"properties":{"osm_id":"1188519783","tag":{"amenity":"waste_basket"}},"type":"Feature"},
	{"geometry":{"coordinates":[138.489042,-34.901971],"type":"Point"},"properties":{"osm_id":"2390447792","tag":{"amenity":"waste_basket"}},"type":"Feature"},
	{"geometry":{"coordinates":[138.490687,-34.900331],"type":"Point"},"properties":{"osm_id":"2391060420","tag":{"amenity":"waste_basket"}},"type":"Feature"},
	{"geometry":{"coordinates":[138.501732,-34.899268],"type":"Point"},"properties":{"osm_id":"2391060456","tag":{"amenity":"waste_basket"}},"type":"Feature"},
	{"geometry":{"coordinates":[138.499566,-34.889819],"type":"Point"},"properties":{"osm_id":"2391073371","tag":{"amenity":"waste_basket"}},"type":"Feature"},
	{"geometry":{"coordinates":[138.488618,-34.89984],"type":"Point"},"properties":{"osm_id":"2482427685","tag":{"amenity":"waste_basket"}},"type":"Feature"},
	{"geometry":{"coordinates":[138.496558,-34.897506],"type":"Point"},"properties":{"osm_id":"2915042415","tag":{"amenity":"waste_basket"}},"type":"Feature"},
	{"geometry":{"coordinates":[138.487642,-34.89489],"type":"Point"},"properties":{"osm_id":"4031023942","tag":{"amenity":"waste_basket"}},"type":"Feature"},
	{"geometry":{"coordinates":[138.491693,-34.894597],"type":"Point"},"properties":{"osm_id":"4510635971","tag":{"amenity":"waste_basket"}},"type":"Feature"},
	{"geometry":{"coordinates":[138.487289,-34.886517],"type":"Point"},"properties":{"osm_id":"5579373830","tag":{"amenity":"waste_basket"}},"type":"Feature"},
	{"geometry":{"coordinates":[138.487408,-34.887084],"type":"Point"},"properties":{"osm_id":"5579373831","tag":{"amenity":"waste_basket"}},"type":"Feature"},
	{"geometry":{"coordinates":[138.487012,-34.886088],"type":"Point"},"properties":{"osm_id":"5579373832","tag":{"amenity":"waste_basket"}},"type":"Feature"}
]
}
