{
"type": "FeatureCollection",
"lastupdate": "2020-08-03T00:00:00Z",
"features": [
	{"geometry":{"coordinates":[31.040126,36.853605],"type":"Point"},"properties":{"osm_id":"2482130216","tag":{"amenity":"waste_basket"}},"type":"Feature"},
	{"geometry":{"coordinates":[31.038919,36.853911],"type":"Point"},"properties":{"osm_id":"2482130218","tag":{"amenity":"waste_basket"}},"type":"Feature"},
	{"geometry":{"coordinates":[31.038529,36.853915],"type":"Point"},"properties":{"osm_id":"2482130221","tag":{"amenity":"waste_basket"}},"type":"Feature"},
	{"geometry":{"coordinates":[31.03923,36.853917],"type":"Point"},"properties":{"osm_id":"2482130223","tag":{"amenity":"waste_basket"}},"type":"Feature"},
	{"geometry":{"coordinates":[31.037947,36.853952],"type":"Point"},"properties":{"osm_id":"2482130225","tag":{"amenity":"waste_basket"}},"type":"Feature"},
	{"geometry":{"coordinates":[31.037712,36.853997],"type":"Point"},"properties":{"osm_id":"2482130228","tag":{"amenity":"waste_basket"}},"type":"Feature"},
	{"geometry":{"coordinates":[31.04018,36.854054],"type":"Point"},"properties":{"osm_id":"2482130230","tag":{"amenity":"waste_basket"}},"type":"Feature"},
	{"geometry":{"coordinates":[31.037332,36.854069],"type":"Point"},"properties":{"osm_id":"2482130232","tag":{"amenity":"waste_basket"}},"type":"Feature"},
	{"geometry":{"coordinates":[31.038563,36.854134],"type":"Point"},"properties":{"osm_id":"2482130234","tag":{"amenity":"waste_basket"}},"type":"Feature"},
	{"geometry":{"coordinates":[31.038195,36.854223],"type":"Point"},"properties":{"osm_id":"2482130236","tag":{"amenity":"waste_basket"}},"type":"Feature"},
	{"geometry":{"coordinates":[31.038954,36.854257],"type":"Point"},"properties":{"osm_id":"2482130238","tag":{"amenity":"waste_basket"}},"type":"Feature"},
	{"geometry":{"coordinates":[31.037865,36.854288],"type":"Point"},"properties":{"osm_id":"2482130242","tag":{"amenity":"waste_basket"}},"type":"Feature"},
	{"geometry":{"coordinates":[31.040186,36.854392],"type":"Point"},"properties":{"osm_id":"2482130272","tag":{"amenity":"waste_basket"}},"type":"Feature"},
	{"geometry":{"coordinates":[31.037428,36.855521],"type":"Point"},"properties":{"osm_id":"2482130274","tag":{"amenity":"waste_basket"}},"type":"Feature"},
	{"geometry":{"coordinates":[31.039061,36.854535],"type":"Point"},"properties":{"osm_id":"2482130283","tag":{"amenity":"waste_basket"}},"type":"Feature"},
	{"geometry":{"coordinates":[31.038942,36.854611],"type":"Point"},"properties":{"osm_id":"2482130285","tag":{"amenity":"waste_basket"}},"type":"Feature"},
	{"geometry":{"coordinates":[31.037366,36.854652],"type":"Point"},"properties":{"osm_id":"2482130288","tag":{"amenity":"waste_basket"}},"type":"Feature"},
	{"geometry":{"coordinates":[31.038514,36.854745],"type":"Point"},"properties":{"osm_id":"2482130303","tag":{"amenity":"waste_basket"}},"type":"Feature"},
	{"geometry":{"coordinates":[31.037393,36.855023],"type":"Point"},"properties":{"osm_id":"2482130307","tag":{"amenity":"waste_basket"}},"type":"Feature"},
	{"geometry":{"coordinates":[31.037489,36.855694],"type":"Point"},"properties":{"osm_id":"2482309304","tag":{"amenity":"waste_basket"}},"type":"Feature"},
	{"geometry":{"coordinates":[31.037499,36.85646],"type":"Point"},"properties":{"osm_id":"2482309305","tag":{"amenity":"waste_basket"}},"type":"Feature"},
	{"geometry":{"coordinates":[31.038535,36.855669],"type":"Point"},"properties":{"osm_id":"2482453969","tag":{"amenity":"waste_basket"}},"type":"Feature"},
	{"geometry":{"coordinates":[31.03842,36.855513],"type":"Point"},"properties":{"osm_id":"2482453970","tag":{"amenity":"waste_basket"}},"type":"Feature"},
	{"geometry":{"coordinates":[31.038108,36.854494],"type":"Point"},"properties":{"osm_id":"2482474774","tag":{"amenity":"waste_basket"}},"type":"Feature"},
	{"geometry":{"coordinates":[31.038154,36.854681],"type":"Point"},"properties":{"osm_id":"2482474775","tag":{"amenity":"waste_basket"}},"type":"Feature"},
	{"geometry":{"coordinates":[31.061992,36.861684],"type":"Point"},"properties":{"osm_id":"5019716805","tag":{"amenity":"recycling","recycling:cans":"yes","recycling:clothes":"yes","recycling:electrical_appliances":"yes","recycling:glass":"yes","recycling:paper":"yes","recycling:plastic":"yes","recycling_type":"container"}},"type":"Feature"}
]
}
