{
"type": "FeatureCollection",
"features": [
	{"geometry":{"coordinates":[31.072906,3.337608],"type":"Point"},"properties":{"name":"Omgbokolo Primary School Rubbish Pit","osm_id":"5561536245","tag":{"addr:county":"Aringa","addr:district":"Yumbe","addr:parish":"Omgbokolo","addr:subcounty":"Drajani","addr:village":"Aluti","amenity":"waste_disposal","fee":"no","lit":"no","operator:type":"government","source:form":"Sanitation;v3.0.2","start_date":"2017-04-01","waste":"domestic_waste"}},"type":"Feature"},
	{"geometry":{"coordinates":[31.073002,3.337018],"type":"Point"},"properties":{"name":"Omgbokolo Primary School Rubbish Pit","osm_id":"5561536246","tag":{"addr:county":"Aringa","addr:district":"Yumbe","addr:parish":"Omgbokolo","addr:subcounty":"Drajani","addr:village":"Aluti","amenity":"waste_disposal","fee":"no","lit":"no","operator:type":"government","source:form":"Sanitation;v3.0.2","start_date":"2018-04-01","waste":"domestic_waste"}},"type":"Feature"},
	{"geometry":{"coordinates":[31.089025,3.320627],"type":"Point"},"properties":{"name":"Dramba Health Center Medical Waste Pit","osm_id":"5561536269","tag":{"addr:county":"Aringa","addr:district":"Yumbe","addr:parish":"Aupi","addr:subcounty":"Drajani","addr:village":"Inia","amenity":"waste_disposal","fee":"no","lit":"no","operator:type":"government","source:form":"Sanitation;v3.0.2","start_date":"2010-12-01","waste":"medical_waste"}},"type":"Feature"},
	{"geometry":{"coordinates":[31.088935,3.320605],"type":"Point"},"properties":{"name":"Dramba Health Center Placenta Pit","osm_id":"5561536270","tag":{"addr:county":"Aringa","addr:district":"Yumbe","addr:parish":"Aupi","addr:subcounty":"Drajani","addr:village":"Inia","amenity":"waste_disposal","fee":"no","lit":"no","operator:type":"government","source:form":"Sanitation;v3.0.2","start_date":"2009-01-01","waste":"medical_waste"}},"type":"Feature"},
	{"geometry":{"coordinates":[31.058345,3.318517],"type":"Point"},"properties":{"name":"Pajama Primary School Latrine","osm_id":"5561536273","tag":{"addr:county":"Aringa","addr:district":"Yumbe","addr:parish":"Omgbokolo","addr:subcounty":"Drajani","addr:village":"Maladri","amenity":"waste_disposal","fee":"no","lit":"no","operator:type":"government","source:form":"Sanitation;v3.0.2","start_date":"2018-04-01","waste":"domestic_waste"}},"type":"Feature"},
	{"geometry":{"coordinates":[31.05863,3.318677],"type":"Point"},"properties":{"name":"Pajama Primary School Latrine","osm_id":"5561536274","tag":{"addr:county":"Aringa","addr:district":"Yumbe","addr:parish":"Omgbokolo","addr:subcounty":"Drajani","addr:village":"Maladri","amenity":"waste_disposal","fee":"no","lit":"no","operator:type":"government","source:form":"Sanitation;v3.0.2","start_date":"2017-04-01","waste":"domestic_waste"}},"type":"Feature"},
	{"geometry":{"coordinates":[31.058957,3.318363],"type":"Point"},"properties":{"name":"Pajama Primary School Rubbish Pit","osm_id":"5561536275","tag":{"addr:county":"Aringa","addr:district":"Yumbe","addr:parish":"Omgbokolo","addr:subcounty":"Drajani","addr:village":"Maladri","amenity":"waste_disposal","fee":"no","lit":"no","operator:type":"government","source:form":"Sanitation;v3.0.2","start_date":"2016-04-01","waste":"domestic_waste"}},"type":"Feature"},
	{"geometry":{"coordinates":[31.076617,3.29987],"type":"Point"},"properties":{"name":"Oniku Primary School Rubbish Pit","osm_id":"5561536304","tag":{"addr:county":"Aringa","addr:district":"Yumbe","addr:parish":"Pajama","addr:subcounty":"Drajani","addr:village":"Owayi","amenity":"waste_disposal","fee":"no","lit":"no","operator:type":"community","source:form":"Sanitation;v3.0.2","start_date":"2016-04-01"}},"type":"Feature"},
	{"geometry":{"coordinates":[31.07793,3.323424],"type":"Point"},"properties":{"name":"Tambutambu Village Rubbish Pit","osm_id":"5561536313","tag":{"addr:county":"Aringa","addr:district":"Yumbe","addr:parish":"Omgbokolo","addr:subcounty":"Drajani","addr:village":"Tambutambu","amenity":"waste_disposal","fee":"no","lit":"no","operator:type":"community","source:form":"Sanitation;v3.0.2","start_date":"2016-04-01","waste":"domestic_waste"}},"type":"Feature"},
	{"geometry":{"coordinates":[31.066142,3.318077],"type":"Point"},"properties":{"name":"Pajama Health Centre II Waste Pit","osm_id":"5561536317","tag":{"addr:county":"Aringa","addr:district":"Yumbe","addr:parish":"Pajama","addr:subcounty":"Drajani","addr:village":"Nyamadri","amenity":"waste_disposal","fee":"no","lit":"no","operator:type":"government","source:form":"Sanitation;v3.0.2","start_date":"2016-04-01","waste":"medical_waste"}},"type":"Feature"}
]
}
