{
"type": "FeatureCollection",
"features": [
	{"geometry":{"coordinates":[31.092113,0.397745],"type":"Point"},"properties":{"name":"Bukere Primary School Waste disposal","osm_id":"6227598104","tag":{"addr:country":"UG","addr:district":"Kyegegwa","addr:settlement":"Kyaka II Refugee Settlement","addr:village":"Bukere B","addr:zone":"Bukere","amenity":"waste_disposal","community":"no","fee":"no","lit":"Unlit","opening_date":"2011-02-17","operational_status":"yes","operator":"ngo","operator_name":"DRC","toilets:access":"customers","waste_flooding":"no"}},"type":"Feature"},
	{"geometry":{"coordinates":[31.092928,0.398753],"type":"Point"},"properties":{"name":"Bukere Primary School Waste disposal","osm_id":"6227598112","tag":{"addr:country":"UG","addr:district":"Kyegegwa","addr:settlement":"Kyaka II Refugee Settlement","addr:village":"Bukere B","addr:zone":"Bukere","amenity":"waste_disposal","community":"no","fee":"no","lit":"Unlit","opening_date":"2002-04-18","operational_status":"yes","operator":"government","toilets:access":"customers","waste_flooding":"yes"}},"type":"Feature"},
	{"geometry":{"coordinates":[31.079815,0.358248],"type":"Point"},"properties":{"name":"Bujubuli Health CenterIII waste basket 03","osm_id":"6227598123","tag":{"addr:country":"UG","addr:district":"Kyegegwa","addr:settlement":"Kyaka II Refugee Settlement","addr:village":"Bujubuli East","addr:zone":"Buliti","amenity":"waste_basket","community":"no","fee":"no","lit":"Lit","lit_operational_status":"yes","opening_date":"2010-08-10","operational_status":"yes","operator":"ngo","operator_name":"UNHCR","toilets:access":"customers"}},"type":"Feature"},
	{"geometry":{"coordinates":[31.079655,0.358136],"type":"Point"},"properties":{"name":"Bujubuli Health Center III waste basket 02","osm_id":"6227598124","tag":{"addr:country":"UG","addr:district":"Kyegegwa","addr:settlement":"Kyaka II Refugee Settlement","addr:village":"Bujubuli East","addr:zone":"Buliti","amenity":"waste_basket","community":"no","fee":"no","lit":"Lit","lit_operational_status":"yes","opening_date":"2010-08-20","operational_status":"yes","operator":"ngo","operator_name":"UNHCR","toilets:access":"customers"}},"type":"Feature"},
	{"geometry":{"coordinates":[31.0798,0.358245],"type":"Point"},"properties":{"name":"Bujubuli Health CenterIII waste Basket 01","osm_id":"6227598125","tag":{"addr:country":"UG","addr:district":"Kyegegwa","addr:settlement":"Kyaka II Refugee Settlement","addr:village":"Bujubuli East","addr:zone":"Buliti","amenity":"waste_basket","community":"no","fee":"no","lit":"Unlit","opening_date":"2010-10-27","operational_status":"yes","operator":"government","toilets:access":"customers"}},"type":"Feature"},
	{"geometry":{"coordinates":[31.080151,0.357268],"type":"Point"},"properties":{"name":"Bujubuli Health Center III Waste disposal03","osm_id":"6227598126","tag":{"addr:country":"UG","addr:district":"Kyegegwa","addr:settlement":"Kyaka II Refugee Settlement","addr:village":"Bujubuli East","addr:zone":"Buliti","amenity":"waste_disposal","community":"no","fee":"no","lit":"Unlit","opening_date":"2015-01-15","operational_status":"yes","operator":"ngo","operator_name":"AHA","toilets:access":"public","waste_flooding":"no"}},"type":"Feature"},
	{"geometry":{"coordinates":[31.08016,0.357205],"type":"Point"},"properties":{"name":"Bujubuli Health CenterIII waste disposal 02","osm_id":"6227598127","tag":{"addr:country":"UG","addr:district":"Kyegegwa","addr:settlement":"Kyaka II Refugee Settlement","addr:village":"Bujubuli East","addr:zone":"Buliti","amenity":"waste_disposal","community":"no","fee":"no","lit":"Unlit","opening_date":"2018-04-05","operational_status":"yes","operator":"ngo","operator_name":"UNAHCR/AHA","toilets:access":"public","waste_flooding":"no"}},"type":"Feature"},
	{"geometry":{"coordinates":[31.080173,0.357338],"type":"Point"},"properties":{"name":"Bujubuli Health Center III Waste disposal","osm_id":"6227598128","tag":{"addr:country":"UG","addr:district":"Kyegegwa","addr:settlement":"Kyaka II Refugee Settlement","addr:village":"Bujubuli East","addr:zone":"Buliti","amenity":"waste_disposal","community":"no","fee":"no","lit":"Unlit","opening_date":"2015-03-10","operational_status":"yes","operator":"ngo","operator_name":"AHA","toilets:access":"public","waste_flooding":"no"}},"type":"Feature"},
	{"geometry":{"coordinates":[31.108576,0.383123],"type":"Point"},"properties":{"name":"Rubbish Collection Center","osm_id":"6227598149","tag":{"addr:country":"UG","addr:district":"Kyegegwa","addr:settlement":"Kyaka II Refugee Settlement","addr:village":"Rukinga","addr:zone":"Itambabiniga","amenity":"waste_disposal","community":"yes","fee":"no","lit":"Unlit","opening_date":"2019-02-01","operational_status":"yes","operator":"community","toilets:access":"public","waste_flooding":"no"}},"type":"Feature"},
	{"geometry":{"coordinates":[31.08049,0.354446],"type":"Point"},"properties":{"name":"Bujubuli Primary school waste disposal","osm_id":"6227598166","tag":{"addr:country":"UG","addr:district":"Kyegegwa","addr:settlement":"Kyaka II Refugee Settlement","addr:village":"Bujubuli East","addr:zone":"Buliti","amenity":"waste_disposal","community":"no","fee":"no","lit":"Unlit","opening_date":"2016-05-10","operational_status":"yes","operator":"ngo","operator_name":"DRC","toilets:access":"customers","waste_flooding":"no"}},"type":"Feature"},
	{"geometry":{"coordinates":[31.079618,0.355528],"type":"Point"},"properties":{"name":"Bujubuli Vocational School waste disposal","osm_id":"6227602288","tag":{"addr:country":"UG","addr:district":"Kyegegwa","addr:settlement":"Kyaka II Refugee Settlement","addr:village":"Bujubuli East","addr:zone":"Buliti","amenity":"waste_disposal","community":"no","fee":"no","lit":"Unlit","opening_date":"2015-07-15","operational_status":"yes","operator":"ngo","operator_name":"DRC","toilets:access":"customers","waste_flooding":"no"}},"type":"Feature"},
	{"geometry":{"coordinates":[31.070891,0.405358],"type":"Point"},"properties":{"name":"Bwiriza P/S Compost Pit","osm_id":"6227602293","tag":{"addr:country":"UG","addr:district":"Kyegegwa","addr:settlement":"Kyaka II Refugee Settlement","addr:village":"Ndororire","addr:zone":"Bwiriza","amenity":"waste_disposal","community":"no","fee":"no","lit":"Unlit","opening_date":"2017-06-14","operational_status":"yes","operator":"ngo","operator_name":"Windle Trust International","toilets:access":"customers","waste_flooding":"no"}},"type":"Feature"},
	{"geometry":{"coordinates":[31.108948,0.385446],"type":"Point"},"properties":{"name":"Jesus Cares' rubbish pit","osm_id":"6227602303","tag":{"addr:country":"UG","addr:district":"Kyegegwa","addr:settlement":"Kyaka II Refugee Settlement","addr:village":"Itambabiniga Central","addr:zone":"Itambabiniga","amenity":"waste_disposal","community":"no","fee":"no","lit":"Unlit","opening_date":"2017-01-01","operational_status":"yes","operator":"community","toilets:access":"customers","waste_flooding":"no"}},"type":"Feature"}
]
}
