{
"type": "FeatureCollection",
"features": [
	{"geometry":{"coordinates":[31.103878,0.336665],"type":"Point"},"properties":{"name":"CFS","osm_id":"6227598156","tag":{"addr:country":"UG","addr:district":"Kyegegwa","addr:settlement":"Kyaka II Refugee Settlement","addr:village":"Mukondo A","addr:zone":"Mukondo","amenity":"waste_disposal","community":"no","fee":"yes","lit":"Unlit","opening_date":"2018-01-08","operational_status":"yes","operator":"ngo","operator_name":"Save the children","toilets:access":"customers","waste_flooding":"no"}},"type":"Feature"},
	{"geometry":{"coordinates":[31.103775,0.336635],"type":"Point"},"properties":{"name":"CFS","osm_id":"6227598157","tag":{"addr:country":"UG","addr:district":"Kyegegwa","addr:settlement":"Kyaka II Refugee Settlement","addr:village":"Mukondo A","addr:zone":"Mukondo","amenity":"waste_disposal","community":"no","fee":"no","lit":"Unlit","opening_date":"2018-01-08","operational_status":"yes","operator":"ngo","operator_name":"Save the children","toilets:access":"customers","waste_flooding":"no"}},"type":"Feature"},
	{"geometry":{"coordinates":[31.106285,0.337576],"type":"Point"},"properties":{"name":"Mukondo primary school waste disposal","osm_id":"6227598179","tag":{"addr:country":"UG","addr:district":"Kyegegwa","addr:settlement":"Kyaka II Refugee Settlement","addr:village":"Mukondo A","addr:zone":"Mukondo","amenity":"waste_disposal","community":"no","fee":"no","lit":"Unlit","opening_date":"2016-07-14","operational_status":"yes","operator":"ngo","operator_name":"DRC","toilets:access":"customers","waste_flooding":"no"}},"type":"Feature"},
	{"geometry":{"coordinates":[31.10479,0.338225],"type":"Point"},"properties":{"name":"Mukondo HC waste disposal","osm_id":"6227598184","tag":{"addr:country":"UG","addr:district":"Kyegegwa","addr:settlement":"Kyaka II Refugee Settlement","addr:village":"Mukondo A","addr:zone":"Mukondo","amenity":"waste_disposal","community":"no","fee":"no","lit":"Unlit","opening_date":"2012-04-11","operational_status":"yes","operator":"ngo","operator_name":"DRC","toilets:access":"customers","waste_flooding":"no"}},"type":"Feature"},
	{"geometry":{"coordinates":[31.074176,0.323045],"type":"Point"},"properties":{"name":"Byabakora Primary School Rubbish Pit","osm_id":"6227602296","tag":{"addr:country":"UG","addr:district":"Kyegegwa","addr:settlement":"Kyaka II Refugee Settlement","addr:village":"Byabakora 02","addr:zone":"Byabakora","amenity":"waste_disposal","community":"no","fee":"no","lit":"Unlit","opening_date":"2016-01-11","operational_status":"yes","operator":"ngo","operator_name":"DRC","toilets:access":"customers","waste_flooding":"no"}},"type":"Feature"},
	{"geometry":{"coordinates":[31.105958,0.337628],"type":"Point"},"properties":{"name":"Mukondo HC","osm_id":"6227602307","tag":{"addr:country":"UG","addr:district":"Kyegegwa","addr:settlement":"Kyaka II Refugee Settlement","addr:village":"Mukondo A","addr:zone":"Mukondo","amenity":"waste_disposal","community":"no","fee":"no","lit":"Unlit","opening_date":"2007-04-11","operational_status":"yes","operator":"ngo","operator_name":"AHA","toilets:access":"customers","waste_flooding":"no"}},"type":"Feature"}
]
}
