{
"type": "FeatureCollection",
"features": [
	{"geometry":{"coordinates":[31.042646,-0.741323],"type":"Point"},"properties":{"name":"waste pit","osm_id":"6285468150","tag":{"addr:block":"Kisura C","addr:district":"Isingiro","addr:settlement":"Nakivale","addr:subcamp":"Rubondo","addr:village":"Kisura C","addr:zone":"Kisura","amenity":"waste_disposal","fee":"no","lit":"unlit","operator":"Pentecost Church","operator:type":"ngo","source:form":"v_4.0.5","waste":"Rubbish"}},"type":"Feature"},
	{"geometry":{"coordinates":[31.039922,-0.730669],"type":"Point"},"properties":{"name":"waste pit","osm_id":"6285468155","tag":{"addr:block":"Kalitima","addr:district":"Isingiro","addr:settlement":"Nakivale","addr:subcamp":"Rubondo","addr:village":"Village B","addr:zone":"Kalitima","amenity":"waste_disposal","fee":"no","lit":"unlit","operator:type":"community","source:form":"v_4.0.5","waste":"Rubbish"}},"type":"Feature"},
	{"geometry":{"coordinates":[31.03921,-0.730448],"type":"Point"},"properties":{"name":"waste pit","osm_id":"6285468161","tag":{"addr:block":"Kalintima B","addr:district":"Isingiro","addr:settlement":"Nakivale","addr:subcamp":"Rubondo","addr:village":"Village B","addr:zone":"Kalitima","amenity":"waste_disposal","fee":"no","lit":"unlit","operator:type":"community","source:form":"v_4.0.5","waste":"Rubbish"}},"type":"Feature"},
	{"geometry":{"coordinates":[31.039052,-0.729453],"type":"Point"},"properties":{"name":"dustbin","osm_id":"6285468165","tag":{"addr:block":"Kalintima B","addr:district":"Isingiro","addr:settlement":"Nakivale","addr:subcamp":"Rubondo","addr:village":"Village B","addr:zone":"Kalitima","amenity":"waste_basket","fee":"no","lit":"unlit","operator:type":"community","source:form":"v_4.0.5","waste":"Rubbish"}},"type":"Feature"},
	{"geometry":{"coordinates":[31.048736,-0.751514],"type":"Point"},"properties":{"name":"dustbin","osm_id":"6285468168","tag":{"addr:block":"Kalitima C","addr:district":"Isingiro","addr:settlement":"Nakivale","addr:subcamp":"Rubondo","addr:village":"Village C","addr:zone":"Kalitima","amenity":"waste_disposal","fee":"no","lit":"unlit","operator":"ARC","operator:type":"ngo","source:form":"v_4.0.5","waste":"Rubbish"}},"type":"Feature"},
	{"geometry":{"coordinates":[31.049314,-0.751623],"type":"Point"},"properties":{"name":"dustbin","osm_id":"6285468169","tag":{"addr:block":"Kalitima C","addr:district":"Isingiro","addr:settlement":"Nakivale","addr:subcamp":"Rubondo","addr:village":"Village C","addr:zone":"Kalitima","amenity":"waste_disposal","fee":"no","lit":"unlit","operator:type":"community","source:form":"v_4.0.5","waste":"Rubbish"}},"type":"Feature"},
	{"geometry":{"coordinates":[31.053363,-0.733483],"type":"Point"},"properties":{"name":"waste pit","osm_id":"6285468173","tag":{"addr:block":"Rubondo B","addr:district":"Isingiro","addr:settlement":"Nakivale","addr:subcamp":"Rubondo","addr:village":"Village B","addr:zone":"Rubondo","amenity":"waste_disposal","fee":"no","lit":"unlit","operator:type":"community","source:form":"v_4.0.5","waste":"Rubbish"}},"type":"Feature"},
	{"geometry":{"coordinates":[31.049316,-0.751715],"type":"Point"},"properties":{"name":"waste pit","osm_id":"6285468177","tag":{"addr:block":"Rubondo C","addr:district":"Isingiro","addr:settlement":"Nakivale","addr:subcamp":"Rubondo","addr:village":"Village C","addr:zone":"Rubondo","amenity":"waste_disposal","fee":"no","lit":"unlit","operator":"ARC","operator:type":"ngo","source:form":"v_4.0.5","waste":"Rubbish"}},"type":"Feature"},
	{"geometry":{"coordinates":[31.044488,-0.73686],"type":"Point"},"properties":{"name":"waste pit","osm_id":"6285468179","tag":{"addr:block":"Kisura","addr:district":"Isingiro","addr:settlement":"Nakivale","addr:subcamp":"Rubondo","addr:village":"Kisura B","addr:zone":"Kisura","amenity":"waste_disposal","fee":"no","lit":"unlit","operator:type":"community","source:form":"v_4.0.5","waste":"Rubbish"}},"type":"Feature"},
	{"geometry":{"coordinates":[31.043406,-0.736871],"type":"Point"},"properties":{"name":"waste pit","osm_id":"6285468986","tag":{"addr:block":"Kisura","addr:district":"Isingiro","addr:settlement":"Nakivale","addr:subcamp":"Rubondo","addr:village":"Kisura B","addr:zone":"Kisura","amenity":"waste_disposal","fee":"no","lit":"unlit","operator:type":"community","source:form":"v_4.0.5","waste":"Rubbish"}},"type":"Feature"},
	{"geometry":{"coordinates":[31.04324,-0.736731],"type":"Point"},"properties":{"name":"hazardous pit","osm_id":"6285468987","tag":{"addr:block":"Kisura","addr:district":"Isingiro","addr:settlement":"Nakivale","addr:subcamp":"Rubondo","addr:village":"Kisura B","addr:zone":"Kisura","amenity":"waste_disposal","fee":"no","lit":"unlit","operator":"UNHCR","operator:type":"ngo","source:form":"v_4.0.5","waste":"Hazardous Waste"}},"type":"Feature"},
	{"geometry":{"coordinates":[31.04325,-0.736773],"type":"Point"},"properties":{"name":"hazardous waste","osm_id":"6285468988","tag":{"addr:block":"Kisura","addr:district":"Isingiro","addr:settlement":"Nakivale","addr:subcamp":"Rubondo","addr:village":"Kisura B","addr:zone":"Kisura","amenity":"waste_disposal","fee":"no","lit":"unlit","operator":"GIZ","operator:type":"ngo","source:form":"v_4.0.5","waste":"Hazardous Waste"}},"type":"Feature"},
	{"geometry":{"coordinates":[31.042973,-0.735038],"type":"Point"},"properties":{"name":"waste pit","osm_id":"6285468997","tag":{"addr:block":"Kisura","addr:district":"Isingiro","addr:settlement":"Nakivale","addr:subcamp":"Rubondo","addr:village":"Kisura B","addr:zone":"Kisura","amenity":"waste_disposal","fee":"no","lit":"unlit","operator:type":"community","source:form":"v_4.0.5","waste":"Rubbish"}},"type":"Feature"},
	{"geometry":{"coordinates":[31.03484,-0.727288],"type":"Point"},"properties":{"name":"waste pit","osm_id":"6285468999","tag":{"addr:block":"Kisura C","addr:district":"Isingiro","addr:settlement":"Nakivale","addr:subcamp":"Rubondo","addr:village":"Kisura C","addr:zone":"Kisura","amenity":"waste_disposal","fee":"no","lit":"unlit","operator:type":"community","source:form":"v_4.0.5","waste":"Rubbish"}},"type":"Feature"},
	{"geometry":{"coordinates":[31.043724,-0.759734],"type":"Point"},"properties":{"name":"waste pit","osm_id":"6285469028","tag":{"addr:block":"Kalitima C","addr:district":"Isingiro","addr:settlement":"Nakivale","addr:subcamp":"Rubondo","addr:village":"Village C","addr:zone":"Rubondo","amenity":"waste_disposal","fee":"no","lit":"unlit","operator:type":"community","source:form":"v_4.0.5","waste":"Rubbish"}},"type":"Feature"},
	{"geometry":{"coordinates":[31.042646,-0.741323],"type":"Point"},"properties":{"name":"Waste pit","osm_id":"6288608213","tag":{"addr:block":"Kisura A","addr:district":"Isingiro","addr:settlement":"Nakivale","addr:subcamp":"Rubondo","addr:village":"Kisura C","addr:zone":"Kisura","amenity":"waste_disposal","fee":"no","lit":"lit","monitored":"yes","monitored_by":"Pentecost Church","operator":"Pentecost Church","operator_type":"ngo","start_date":"2016-09-01","waste":"Rubbish"}},"type":"Feature"},
	{"geometry":{"coordinates":[31.039922,-0.730669],"type":"Point"},"properties":{"name":"Waste pit","osm_id":"6288608218","tag":{"addr:block":"Kalitima","addr:district":"Isingiro","addr:settlement":"Nakivale","addr:subcamp":"Rubondo","addr:village":"Village B","addr:zone":"Kalitima","amenity":"waste_disposal","fee":"no","lit":"lit","monitored":"yes","monitored_by":"Community Hygiene Promoter","operator_type":"community","start_date":"2003-02-01","waste":"Rubbish"}},"type":"Feature"},
	{"geometry":{"coordinates":[31.03921,-0.730448],"type":"Point"},"properties":{"name":"Waste pit","osm_id":"6288608224","tag":{"addr:block":"Kalitima B","addr:district":"Isingiro","addr:settlement":"Nakivale","addr:subcamp":"Rubondo","addr:village":"Village B","addr:zone":"Kalitima","amenity":"waste_disposal","fee":"no","lit":"lit","monitored":"yes","monitored_by":"Church Members","operator_type":"community","start_date":"2013-01-01","waste":"Rubbish"}},"type":"Feature"},
	{"geometry":{"coordinates":[31.03905,-0.729441],"type":"Point"},"properties":{"name":"Waste pit","osm_id":"6288608228","tag":{"addr:block":"Kalitima B","addr:district":"Isingiro","addr:settlement":"Nakivale","addr:subcamp":"Rubondo","addr:village":"Village B","addr:zone":"Kalitima","amenity":"waste_basket","fee":"no","lit":"lit","monitored":"yes","monitored_by":"Adminstration","operator_type":"community","start_date":"2017-02-01","waste":"Rubbish"}},"type":"Feature"},
	{"geometry":{"coordinates":[31.04879,-0.751523],"type":"Point"},"properties":{"name":"Waste pit","osm_id":"6288608231","tag":{"addr:block":"Kalitima C","addr:district":"Isingiro","addr:settlement":"Nakivale","addr:subcamp":"Rubondo","addr:village":"Village C","addr:zone":"Kalitima","amenity":"waste_disposal","fee":"no","lit":"yes","monitored":"yes","monitored_by":"Community","operator":"ARC","operator_type":"ngo","start_date":"2017-08-01","waste":"Rubbish"}},"type":"Feature"},
	{"geometry":{"coordinates":[31.049286,-0.75165],"type":"Point"},"properties":{"name":"Waste pit","osm_id":"6288608232","tag":{"addr:block":"Kalitima C","addr:district":"Isingiro","addr:settlement":"Nakivale","addr:subcamp":"Rubondo","addr:village":"Village C","addr:zone":"Kalitima","amenity":"waste_disposal","fee":"no","lit":"lit","monitored":"yes","monitored_by":"Community","operator_type":"community","start_date":"2013-02-01","waste":"Rubbish"}},"type":"Feature"}
]
}
