{
"type": "FeatureCollection",
"features": [
	{"geometry":{"coordinates":[-121.333843,38.789603],"type":"Point"},"properties":{"osm_id":"1294383828","tag":{"amenity":"waste_basket","waste":"dog_excrement"}},"type":"Feature"},
	{"geometry":{"coordinates":[-121.338053,38.766929],"type":"Point"},"properties":{"osm_id":"1357212036","tag":{"amenity":"recycling","recycling:cardboard":"yes","recycling:newspaper":"yes","recycling:styrofoam":"yes","recycling_type":"container"}},"type":"Feature"},
	{"geometry":{"coordinates":[-121.374062,38.77819],"type":"Point"},"properties":{"osm_id":"1524447358","tag":{"amenity":"waste_basket"}},"type":"Feature"},
	{"geometry":{"coordinates":[-121.361981,38.782375],"type":"Point"},"properties":{"osm_id":"1611371706","tag":{"amenity":"waste_basket"}},"type":"Feature"},
	{"geometry":{"coordinates":[-121.36155,38.782619],"type":"Point"},"properties":{"osm_id":"1611371797","tag":{"amenity":"waste_basket"}},"type":"Feature"},
	{"geometry":{"coordinates":[-121.362236,38.777316],"type":"Point"},"properties":{"osm_id":"1658515387","tag":{"amenity":"waste_basket"}},"type":"Feature"},
	{"geometry":{"coordinates":[-121.362195,38.777726],"type":"Point"},"properties":{"osm_id":"1658515401","tag":{"amenity":"waste_basket"}},"type":"Feature"},
	{"geometry":{"coordinates":[-121.362542,38.778103],"type":"Point"},"properties":{"osm_id":"1658515402","tag":{"amenity":"waste_basket"}},"type":"Feature"},
	{"geometry":{"coordinates":[-121.366226,38.788598],"type":"Point"},"properties":{"osm_id":"1659884233","tag":{"amenity":"waste_basket"}},"type":"Feature"},
	{"geometry":{"coordinates":[-121.330235,38.793548],"type":"Point"},"properties":{"osm_id":"1826960352","tag":{"amenity":"recycling","recycling:cans":"yes","recycling:glass":"yes"}},"type":"Feature"},
	{"geometry":{"coordinates":[-121.352012,38.805635],"type":"Point"},"properties":{"osm_id":"1852231588","tag":{"amenity":"waste_basket"}},"type":"Feature"},
	{"geometry":{"coordinates":[-121.351408,38.805764],"type":"Point"},"properties":{"osm_id":"1894001501","tag":{"amenity":"waste_basket"}},"type":"Feature"},
	{"geometry":{"coordinates":[-121.368629,38.782114],"type":"Point"},"properties":{"osm_id":"2026955309","tag":{"amenity":"waste_basket"}},"type":"Feature"},
	{"geometry":{"coordinates":[-121.371568,38.769682],"type":"Point"},"properties":{"osm_id":"2852297841","tag":{"amenity":"waste_basket"}},"type":"Feature"},
	{"geometry":{"coordinates":[-121.326967,38.798894],"type":"Point"},"properties":{"osm_id":"3200824703","tag":{"amenity":"waste_basket"}},"type":"Feature"},
	{"geometry":{"coordinates":[-121.328104,38.799048],"type":"Point"},"properties":{"osm_id":"3200824732","tag":{"amenity":"waste_basket"}},"type":"Feature"},
	{"geometry":{"coordinates":[-121.345784,38.796087],"type":"Point"},"properties":{"osm_id":"3870507459","tag":{"amenity":"waste_basket"}},"type":"Feature"},
	{"geometry":{"coordinates":[-121.291872,38.786122],"type":"Point"},"properties":{"osm_id":"4231440226","tag":{"amenity":"waste_basket"}},"type":"Feature"},
	{"geometry":{"coordinates":[-121.361563,38.772773],"type":"Point"},"properties":{"osm_id":"5772552559","tag":{"amenity":"waste_basket"}},"type":"Feature"},
	{"geometry":{"coordinates":[-121.365815,38.773246],"type":"Point"},"properties":{"osm_id":"5772552560","tag":{"amenity":"waste_basket"}},"type":"Feature"},
	{"geometry":{"coordinates":[-121.368413,38.774933],"type":"Point"},"properties":{"osm_id":"5772552566","tag":{"amenity":"waste_basket"}},"type":"Feature"},
	{"geometry":{"coordinates":[-121.36716,38.77495],"type":"Point"},"properties":{"osm_id":"5772552567","tag":{"amenity":"waste_basket"}},"type":"Feature"},
	{"geometry":{"coordinates":[-121.366959,38.774171],"type":"Point"},"properties":{"osm_id":"5772552568","tag":{"amenity":"waste_basket"}},"type":"Feature"},
	{"geometry":{"coordinates":[-121.365962,38.774159],"type":"Point"},"properties":{"osm_id":"5772552569","tag":{"amenity":"waste_basket"}},"type":"Feature"},
	{"geometry":{"coordinates":[-121.361431,38.771645],"type":"Point"},"properties":{"osm_id":"5794985576","tag":{"amenity":"waste_basket"}},"type":"Feature"},
	{"geometry":{"coordinates":[-121.356293,38.80756],"type":"Point"},"properties":{"osm_id":"5940189338","tag":{"amenity":"waste_basket"}},"type":"Feature"},
	{"geometry":{"coordinates":[-121.356189,38.807665],"type":"Point"},"properties":{"osm_id":"5940189341","tag":{"amenity":"waste_basket"}},"type":"Feature"},
	{"geometry":{"coordinates":[-121.35645,38.807857],"type":"Point"},"properties":{"osm_id":"5940189342","tag":{"amenity":"waste_basket"}},"type":"Feature"},
	{"geometry":{"coordinates":[-121.356332,38.807793],"type":"Point"},"properties":{"osm_id":"5940189343","tag":{"amenity":"waste_basket"}},"type":"Feature"},
	{"geometry":{"coordinates":[-121.356355,38.807725],"type":"Point"},"properties":{"osm_id":"5940189344","tag":{"amenity":"waste_basket"}},"type":"Feature"},
	{"geometry":{"coordinates":[-121.369028,38.772068],"type":"Point"},"properties":{"osm_id":"6533999067","tag":{"amenity":"waste_basket"}},"type":"Feature"},
	{"geometry":{"coordinates":[-121.369395,38.772354],"type":"Point"},"properties":{"osm_id":"6533999068","tag":{"amenity":"waste_basket"}},"type":"Feature"},
	{"geometry":{"coordinates":[-121.36857,38.772864],"type":"Point"},"properties":{"osm_id":"6533999076","tag":{"amenity":"waste_basket"}},"type":"Feature"},
	{"geometry":{"coordinates":[-121.368482,38.772815],"type":"Point"},"properties":{"osm_id":"6533999084","tag":{"amenity":"waste_basket"}},"type":"Feature"},
	{"geometry":{"coordinates":[-121.367691,38.77335],"type":"Point"},"properties":{"osm_id":"6534049488","tag":{"amenity":"waste_basket"}},"type":"Feature"},
	{"geometry":{"coordinates":[-121.368012,38.773522],"type":"Point"},"properties":{"osm_id":"6534049497","tag":{"amenity":"waste_basket"}},"type":"Feature"},
	{"geometry":{"coordinates":[-121.364,38.794975],"type":"Point"},"properties":{"osm_id":"6943646852","tag":{"amenity":"waste_basket"}},"type":"Feature"},
	{"geometry":{"coordinates":[-121.297831,38.793664],"type":"Point"},"properties":{"osm_id":"7010437833","tag":{"amenity":"waste_basket","content":"pet_waste"}},"type":"Feature"},
	{"geometry":{"coordinates":[-121.353343,38.798926],"type":"Point"},"properties":{"osm_id":"7606284779","tag":{"amenity":"waste_basket"}},"type":"Feature"},
	{"geometry":{"coordinates":[-121.352027,38.79887],"type":"Point"},"properties":{"osm_id":"7606299803","tag":{"amenity":"waste_basket"}},"type":"Feature"},
	{"geometry":{"coordinates":[-121.352024,38.79898],"type":"Point"},"properties":{"osm_id":"7606299804","tag":{"amenity":"waste_basket"}},"type":"Feature"},
	{"geometry":{"coordinates":[-121.368006,38.798997],"type":"Point"},"properties":{"highway":"stop","osm_id":"7860561238"},"type":"Feature"},
	{"geometry":{"coordinates":[-121.36325,38.808744],"type":"Point"},"properties":{"highway":"street_lamp","osm_id":"7860561247","ref":"14013","tag":{"lamp_type":"led","operator":"Roseville Electric"}},"type":"Feature"},
	{"geometry":{"coordinates":[-121.360651,38.807005],"type":"Point"},"properties":{"osm_id":"7860561266","ref":"318","tag":{"addr:housenumber":"4048","addr:street":"Peabody Way","building:levels":"2","construction:building":"house"}},"type":"Feature"},
	{"geometry":{"coordinates":[-121.362239,38.808036],"type":"Point"},"properties":{"highway":"street_lamp","osm_id":"7860561272","tag":{"lamp_type":"led"}},"type":"Feature"},
	{"geometry":{"coordinates":[-121.364209,38.802853],"type":"Point"},"properties":{"highway":"street_lamp","osm_id":"7860561303","ref":"13876","tag":{"lamp_type":"led","operator":"Roseville Electric"}},"type":"Feature"}
]
}
