{
"type": "FeatureCollection",
"features": [
	{"geometry":{"coordinates":[-7.471618,53.231954],"type":"Point"},"properties":{"osm_id":"2028900550","tag":{"amenity":"waste_disposal"}},"type":"Feature"},
	{"geometry":{"coordinates":[-7.485831,53.278082],"type":"Point"},"properties":{"osm_id":"3644723057","tag":{"amenity":"recycling","recycling:cans":"yes","recycling:clothes":"no","recycling:glass":"yes","recycling:paper":"no","recycling_type":"container"}},"type":"Feature"},
	{"geometry":{"coordinates":[-7.536031,53.254839],"type":"Point"},"properties":{"osm_id":"4360241460","tag":{"amenity":"recycling","recycling_type":"container"}},"type":"Feature"},
	{"geometry":{"coordinates":[-7.492404,53.275524],"type":"Point"},"properties":{"osm_id":"4365496352","tag":{"amenity":"waste_basket"}},"type":"Feature"},
	{"geometry":{"coordinates":[-7.493673,53.275627],"type":"Point"},"properties":{"osm_id":"4365496354","tag":{"amenity":"waste_basket"}},"type":"Feature"},
	{"geometry":{"coordinates":[-7.492093,53.276197],"type":"Point"},"properties":{"osm_id":"4365496356","tag":{"amenity":"waste_basket"}},"type":"Feature"},
	{"geometry":{"coordinates":[-7.491808,53.276814],"type":"Point"},"properties":{"osm_id":"4365496358","tag":{"amenity":"waste_basket"}},"type":"Feature"},
	{"geometry":{"coordinates":[-7.494,53.277496],"type":"Point"},"properties":{"osm_id":"4365496361","tag":{"amenity":"recycling","recycling:cans":"yes","recycling:clothes":"yes","recycling:glass":"yes","recycling:glass_bottles":"yes","recycling:paper":"yes","recycling_type":"container"}},"type":"Feature"},
	{"geometry":{"coordinates":[-7.494586,53.276663],"type":"Point"},"properties":{"osm_id":"6600189727","tag":{"amenity":"waste_basket","colour":"Black","indoor":"no","material":"steel","operator":"Offaly County Council"}},"type":"Feature"}
]
}
