{
"type": "FeatureCollection",
"features": [
	{"geometry":{"coordinates":[-7.557037,43.011519],"type":"Point"},"properties":{"osm_id":"3673331448","tag":{"amenity":"waste_basket"}},"type":"Feature"},
	{"geometry":{"coordinates":[-7.557481,43.011593],"type":"Point"},"properties":{"osm_id":"3673331451","tag":{"amenity":"waste_basket"}},"type":"Feature"},
	{"geometry":{"coordinates":[-7.558308,43.011908],"type":"Point"},"properties":{"osm_id":"3673331455","tag":{"amenity":"waste_basket"}},"type":"Feature"},
	{"geometry":{"coordinates":[-7.557373,43.01356],"type":"Point"},"properties":{"osm_id":"3673331466","tag":{"amenity":"recycling","description":"Reciclaje de pilas","opening_hours":"24/7","recycling:batteries":"yes","recycling_type":"container"}},"type":"Feature"},
	{"geometry":{"coordinates":[-7.557309,43.01369],"type":"Point"},"properties":{"osm_id":"3673331467","tag":{"amenity":"waste_basket"}},"type":"Feature"},
	{"geometry":{"coordinates":[-7.557322,43.014121],"type":"Point"},"properties":{"osm_id":"3673331474","tag":{"amenity":"waste_basket"}},"type":"Feature"},
	{"geometry":{"coordinates":[-7.557304,43.014224],"type":"Point"},"properties":{"osm_id":"3673331481","tag":{"amenity":"waste_basket"}},"type":"Feature"},
	{"geometry":{"coordinates":[-7.557946,43.017548],"type":"Point"},"properties":{"osm_id":"4295261141","tag":{"amenity":"waste_disposal"}},"type":"Feature"},
	{"geometry":{"coordinates":[-7.557474,43.016154],"type":"Point"},"properties":{"osm_id":"4295282973","tag":{"amenity":"recycling","recycling:paper":"yes","recycling_type":"container"}},"type":"Feature"},
	{"geometry":{"coordinates":[-7.557485,43.016176],"type":"Point"},"properties":{"osm_id":"4295282974","tag":{"amenity":"waste_disposal"}},"type":"Feature"},
	{"geometry":{"coordinates":[-7.557492,43.01619],"type":"Point"},"properties":{"osm_id":"4295282975","tag":{"amenity":"waste_disposal"}},"type":"Feature"},
	{"geometry":{"coordinates":[-7.557498,43.016207],"type":"Point"},"properties":{"osm_id":"4295282976","tag":{"amenity":"recycling","recycling:glass_bottles":"yes","recycling_type":"container"}},"type":"Feature"},
	{"geometry":{"coordinates":[-7.557151,43.015297],"type":"Point"},"properties":{"osm_id":"4295286959","tag":{"amenity":"waste_disposal"}},"type":"Feature"},
	{"geometry":{"coordinates":[-7.557166,43.015339],"type":"Point"},"properties":{"osm_id":"4295286960","tag":{"amenity":"waste_disposal"}},"type":"Feature"},
	{"geometry":{"coordinates":[-7.557803,43.015224],"type":"Point"},"properties":{"osm_id":"4295294741","tag":{"amenity":"waste_disposal"}},"type":"Feature"},
	{"geometry":{"coordinates":[-7.557811,43.01523],"type":"Point"},"properties":{"osm_id":"4295294742","tag":{"amenity":"waste_disposal"}},"type":"Feature"},
	{"geometry":{"coordinates":[-7.550867,43.005089],"type":"Point"},"properties":{"osm_id":"4314898599","tag":{"amenity":"waste_disposal"}},"type":"Feature"},
	{"geometry":{"coordinates":[-7.550868,43.005098],"type":"Point"},"properties":{"osm_id":"4314898600","tag":{"amenity":"waste_disposal"}},"type":"Feature"},
	{"geometry":{"coordinates":[-7.551454,43.007366],"type":"Point"},"properties":{"osm_id":"4314935775","tag":{"amenity":"waste_disposal"}},"type":"Feature"},
	{"geometry":{"coordinates":[-7.551603,43.008154],"type":"Point"},"properties":{"osm_id":"4314987825","tag":{"amenity":"waste_basket"}},"type":"Feature"},
	{"geometry":{"coordinates":[-7.551653,43.008334],"type":"Point"},"properties":{"osm_id":"4314990584","tag":{"amenity":"waste_disposal"}},"type":"Feature"},
	{"geometry":{"coordinates":[-7.551711,43.008539],"type":"Point"},"properties":{"osm_id":"4315002701","tag":{"amenity":"waste_basket"}},"type":"Feature"},
	{"geometry":{"coordinates":[-7.551311,43.009585],"type":"Point"},"properties":{"osm_id":"4315018802","tag":{"amenity":"waste_disposal"}},"type":"Feature"},
	{"geometry":{"coordinates":[-7.551334,43.009592],"type":"Point"},"properties":{"osm_id":"4315018803","tag":{"amenity":"waste_disposal"}},"type":"Feature"},
	{"geometry":{"coordinates":[-7.551357,43.009603],"type":"Point"},"properties":{"osm_id":"4315018804","tag":{"amenity":"recycling","recycling:paper":"yes","recycling_type":"container"}},"type":"Feature"},
	{"geometry":{"coordinates":[-7.55297,43.011115],"type":"Point"},"properties":{"osm_id":"4315056671","tag":{"amenity":"waste_disposal"}},"type":"Feature"},
	{"geometry":{"coordinates":[-7.552976,43.011135],"type":"Point"},"properties":{"osm_id":"4315056672","tag":{"amenity":"waste_disposal"}},"type":"Feature"},
	{"geometry":{"coordinates":[-7.554873,43.012796],"type":"Point"},"properties":{"osm_id":"4315072283","tag":{"amenity":"waste_basket"}},"type":"Feature"},
	{"geometry":{"coordinates":[-7.55543,43.012443],"type":"Point"},"properties":{"osm_id":"4315074640","tag":{"amenity":"waste_basket"}},"type":"Feature"},
	{"geometry":{"coordinates":[-7.555334,43.012388],"type":"Point"},"properties":{"osm_id":"4315082645","tag":{"amenity":"waste_basket"}},"type":"Feature"},
	{"geometry":{"coordinates":[-7.556407,43.012138],"type":"Point"},"properties":{"osm_id":"4315086099","tag":{"amenity":"recycling","recycling:batteries":"yes","recycling_type":"container"}},"type":"Feature"},
	{"geometry":{"coordinates":[-7.558211,43.011937],"type":"Point"},"properties":{"osm_id":"4325208074","tag":{"amenity":"waste_basket"}},"type":"Feature"},
	{"geometry":{"coordinates":[-7.558045,43.011353],"type":"Point"},"properties":{"osm_id":"4325210433","tag":{"amenity":"waste_basket"}},"type":"Feature"},
	{"geometry":{"coordinates":[-7.555301,43.013393],"type":"Point"},"properties":{"osm_id":"4325224757","tag":{"amenity":"waste_basket"}},"type":"Feature"},
	{"geometry":{"coordinates":[-7.555664,43.013614],"type":"Point"},"properties":{"osm_id":"4325242485","tag":{"amenity":"waste_disposal"}},"type":"Feature"},
	{"geometry":{"coordinates":[-7.555683,43.013626],"type":"Point"},"properties":{"osm_id":"4325242486","tag":{"amenity":"waste_disposal"}},"type":"Feature"},
	{"geometry":{"coordinates":[-7.557143,43.015054],"type":"Point"},"properties":{"osm_id":"4325257766","tag":{"amenity":"waste_basket"}},"type":"Feature"},
	{"geometry":{"coordinates":[-7.558144,43.017217],"type":"Point"},"properties":{"osm_id":"4325274746","tag":{"amenity":"waste_disposal"}},"type":"Feature"},
	{"geometry":{"coordinates":[-7.558165,43.017234],"type":"Point"},"properties":{"osm_id":"4325274747","tag":{"amenity":"waste_disposal"}},"type":"Feature"},
	{"geometry":{"coordinates":[-7.557572,43.016675],"type":"Point"},"properties":{"osm_id":"4325286946","tag":{"amenity":"waste_basket"}},"type":"Feature"},
	{"geometry":{"coordinates":[-7.556941,43.016376],"type":"Point"},"properties":{"osm_id":"4325295836","tag":{"amenity":"waste_disposal"}},"type":"Feature"},
	{"geometry":{"coordinates":[-7.556968,43.016391],"type":"Point"},"properties":{"osm_id":"4325295837","tag":{"amenity":"waste_disposal"}},"type":"Feature"},
	{"geometry":{"coordinates":[-7.556863,43.016286],"type":"Point"},"properties":{"osm_id":"4325297564","tag":{"amenity":"waste_basket"}},"type":"Feature"},
	{"geometry":{"coordinates":[-7.557367,43.015955],"type":"Point"},"properties":{"osm_id":"4325308194","tag":{"amenity":"waste_basket"}},"type":"Feature"},
	{"geometry":{"coordinates":[-7.557436,43.015146],"type":"Point"},"properties":{"osm_id":"4325308211","tag":{"amenity":"waste_basket"}},"type":"Feature"},
	{"geometry":{"coordinates":[-7.556372,43.016296],"type":"Point"},"properties":{"osm_id":"4325344301","tag":{"amenity":"waste_basket"}},"type":"Feature"},
	{"geometry":{"coordinates":[-7.555575,43.015751],"type":"Point"},"properties":{"osm_id":"4325362629","tag":{"amenity":"recycling","recycling:paper":"yes","recycling_type":"container"}},"type":"Feature"},
	{"geometry":{"coordinates":[-7.555553,43.015761],"type":"Point"},"properties":{"osm_id":"4325362630","tag":{"amenity":"waste_disposal"}},"type":"Feature"},
	{"geometry":{"coordinates":[-7.555529,43.015774],"type":"Point"},"properties":{"osm_id":"4325362631","tag":{"amenity":"waste_disposal"}},"type":"Feature"},
	{"geometry":{"coordinates":[-7.555489,43.015791],"type":"Point"},"properties":{"osm_id":"4325362632","tag":{"amenity":"recycling","recycling:glass_bottles":"yes","recycling_type":"container"}},"type":"Feature"},
	{"geometry":{"coordinates":[-7.555378,43.015811],"type":"Point"},"properties":{"osm_id":"4325362633","tag":{"amenity":"waste_basket"}},"type":"Feature"},
	{"geometry":{"coordinates":[-7.555041,43.015514],"type":"Point"},"properties":{"osm_id":"4325366988","tag":{"amenity":"waste_basket"}},"type":"Feature"},
	{"geometry":{"coordinates":[-7.556357,43.014763],"type":"Point"},"properties":{"osm_id":"4325369146","tag":{"amenity":"recycling","recycling:glass_bottles":"yes","recycling_type":"container"}},"type":"Feature"},
	{"geometry":{"coordinates":[-7.556345,43.014772],"type":"Point"},"properties":{"osm_id":"4325369147","tag":{"amenity":"waste_disposal"}},"type":"Feature"},
	{"geometry":{"coordinates":[-7.556333,43.014782],"type":"Point"},"properties":{"osm_id":"4325369148","tag":{"amenity":"waste_disposal"}},"type":"Feature"},
	{"geometry":{"coordinates":[-7.556323,43.014791],"type":"Point"},"properties":{"osm_id":"4325369149","tag":{"amenity":"recycling","recycling:paper":"yes","recycling_type":"container"}},"type":"Feature"},
	{"geometry":{"coordinates":[-7.558143,43.019754],"type":"Point"},"properties":{"osm_id":"4325425050","tag":{"amenity":"waste_basket"}},"type":"Feature"},
	{"geometry":{"coordinates":[-7.55826,43.01977],"type":"Point"},"properties":{"osm_id":"4325428249","tag":{"amenity":"waste_disposal"}},"type":"Feature"},
	{"geometry":{"coordinates":[-7.537158,43.018668],"type":"Point"},"properties":{"osm_id":"4346179913","tag":{"amenity":"waste_basket"}},"type":"Feature"},
	{"geometry":{"coordinates":[-7.536682,43.01828],"type":"Point"},"properties":{"osm_id":"4346213657","tag":{"amenity":"waste_basket"}},"type":"Feature"},
	{"geometry":{"coordinates":[-7.536586,43.018401],"type":"Point"},"properties":{"osm_id":"4346218518","tag":{"amenity":"waste_basket"}},"type":"Feature"},
	{"geometry":{"coordinates":[-7.532086,43.020223],"type":"Point"},"properties":{"osm_id":"4346248978","tag":{"amenity":"waste_basket"}},"type":"Feature"},
	{"geometry":{"coordinates":[-7.532635,43.019646],"type":"Point"},"properties":{"osm_id":"4346252460","tag":{"amenity":"recycling","recycling:glass_bottles":"yes","recycling_type":"container"}},"type":"Feature"},
	{"geometry":{"coordinates":[-7.532617,43.019657],"type":"Point"},"properties":{"osm_id":"4346252461","tag":{"amenity":"waste_disposal"}},"type":"Feature"},
	{"geometry":{"coordinates":[-7.532595,43.019669],"type":"Point"},"properties":{"osm_id":"4346252462","tag":{"amenity":"waste_disposal"}},"type":"Feature"},
	{"geometry":{"coordinates":[-7.532574,43.019681],"type":"Point"},"properties":{"osm_id":"4346252463","tag":{"amenity":"waste_disposal"}},"type":"Feature"},
	{"geometry":{"coordinates":[-7.532561,43.019692],"type":"Point"},"properties":{"osm_id":"4346252464","tag":{"amenity":"recycling","recycling:paper":"yes","recycling_type":"container"}},"type":"Feature"},
	{"geometry":{"coordinates":[-7.558128,43.014032],"type":"Point"},"properties":{"osm_id":"4921104796","tag":{"amenity":"waste_disposal"}},"type":"Feature"},
	{"geometry":{"coordinates":[-7.557508,43.013301],"type":"Point"},"properties":{"osm_id":"4921104801","tag":{"amenity":"waste_basket"}},"type":"Feature"},
	{"geometry":{"coordinates":[-7.557948,43.013822],"type":"Point"},"properties":{"osm_id":"5351035395","tag":{"amenity":"waste_basket","waste":"trash"}},"type":"Feature"},
	{"geometry":{"coordinates":[-7.554569,43.004935],"type":"Point"},"properties":{"osm_id":"5631263359","tag":{"amenity":"waste_basket","waste":"trash"}},"type":"Feature"},
	{"geometry":{"coordinates":[-7.558212,43.014803],"type":"Point"},"properties":{"osm_id":"5633761327","tag":{"amenity":"waste_basket","waste":"trash"}},"type":"Feature"},
	{"geometry":{"coordinates":[-7.557103,43.014457],"type":"Point"},"properties":{"osm_id":"5633761331","tag":{"amenity":"waste_basket","waste":"trash"}},"type":"Feature"},
	{"geometry":{"coordinates":[-7.556605,43.014256],"type":"Point"},"properties":{"osm_id":"5633761334","tag":{"amenity":"waste_basket","waste":"trash"}},"type":"Feature"},
	{"geometry":{"coordinates":[-7.541417,43.027706],"type":"Point"},"properties":{"osm_id":"5696588348","tag":{"amenity":"waste_disposal"}},"type":"Feature"},
	{"geometry":{"coordinates":[-7.554663,43.004696],"type":"Point"},"properties":{"osm_id":"5696990471","tag":{"amenity":"waste_basket"}},"type":"Feature"},
	{"geometry":{"coordinates":[-7.554766,43.004806],"type":"Point"},"properties":{"osm_id":"5696991300","tag":{"amenity":"waste_basket"}},"type":"Feature"},
	{"geometry":{"coordinates":[-7.555222,43.005116],"type":"Point"},"properties":{"osm_id":"5696991711","tag":{"amenity":"waste_basket"}},"type":"Feature"},
	{"geometry":{"coordinates":[-7.554625,43.004934],"type":"Point"},"properties":{"osm_id":"5696991921","tag":{"amenity":"waste_basket"}},"type":"Feature"},
	{"geometry":{"coordinates":[-7.55513,43.005287],"type":"Point"},"properties":{"osm_id":"5696991923","tag":{"amenity":"waste_basket"}},"type":"Feature"},
	{"geometry":{"coordinates":[-7.555453,43.005733],"type":"Point"},"properties":{"osm_id":"5696992091","tag":{"amenity":"waste_basket"}},"type":"Feature"},
	{"geometry":{"coordinates":[-7.555719,43.006277],"type":"Point"},"properties":{"osm_id":"5696992106","tag":{"amenity":"waste_basket"}},"type":"Feature"},
	{"geometry":{"coordinates":[-7.554932,43.005242],"type":"Point"},"properties":{"osm_id":"5696993868","tag":{"amenity":"waste_basket"}},"type":"Feature"},
	{"geometry":{"coordinates":[-7.555398,43.005445],"type":"Point"},"properties":{"osm_id":"5696995772","tag":{"amenity":"waste_basket"}},"type":"Feature"},
	{"geometry":{"coordinates":[-7.555756,43.006081],"type":"Point"},"properties":{"osm_id":"5696997935","tag":{"amenity":"waste_basket"}},"type":"Feature"},
	{"geometry":{"coordinates":[-7.555443,43.006561],"type":"Point"},"properties":{"osm_id":"5696998190","tag":{"amenity":"waste_basket"}},"type":"Feature"},
	{"geometry":{"coordinates":[-7.55596,43.00654],"type":"Point"},"properties":{"osm_id":"5696998714","tag":{"amenity":"waste_basket"}},"type":"Feature"},
	{"geometry":{"coordinates":[-7.556141,43.006522],"type":"Point"},"properties":{"osm_id":"5696998716","tag":{"amenity":"waste_basket"}},"type":"Feature"},
	{"geometry":{"coordinates":[-7.555903,43.007075],"type":"Point"},"properties":{"osm_id":"5697004410","tag":{"amenity":"waste_basket"}},"type":"Feature"},
	{"geometry":{"coordinates":[-7.535255,43.005115],"type":"Point"},"properties":{"osm_id":"5732509738","tag":{"amenity":"waste_basket"}},"type":"Feature"},
	{"geometry":{"coordinates":[-7.555424,43.023679],"type":"Point"},"properties":{"osm_id":"5741814531","tag":{"amenity":"waste_basket","waste":"trash"}},"type":"Feature"},
	{"geometry":{"coordinates":[-7.555339,43.009928],"type":"Point"},"properties":{"osm_id":"5775490532","tag":{"amenity":"waste_basket"}},"type":"Feature"},
	{"geometry":{"coordinates":[-7.555039,43.009914],"type":"Point"},"properties":{"osm_id":"5775490653","tag":{"amenity":"waste_basket"}},"type":"Feature"},
	{"geometry":{"coordinates":[-7.555026,43.009183],"type":"Point"},"properties":{"osm_id":"5775493693","tag":{"amenity":"waste_basket"}},"type":"Feature"},
	{"geometry":{"coordinates":[-7.55385,43.008669],"type":"Point"},"properties":{"osm_id":"5775495095","tag":{"amenity":"waste_basket"}},"type":"Feature"},
	{"geometry":{"coordinates":[-7.554782,43.008983],"type":"Point"},"properties":{"osm_id":"5775495787","tag":{"amenity":"waste_basket"}},"type":"Feature"},
	{"geometry":{"coordinates":[-7.554192,43.008917],"type":"Point"},"properties":{"osm_id":"5775496460","tag":{"amenity":"waste_basket"}},"type":"Feature"},
	{"geometry":{"coordinates":[-7.553256,43.008736],"type":"Point"},"properties":{"osm_id":"5775500025","tag":{"amenity":"recycling","recycling:glass_bottles":"yes","recycling_type":"container"}},"type":"Feature"},
	{"geometry":{"coordinates":[-7.55317,43.008666],"type":"Point"},"properties":{"osm_id":"5775501650","tag":{"amenity":"recycling","recycling:cardboard":"yes","recycling_type":"container"}},"type":"Feature"},
	{"geometry":{"coordinates":[-7.555135,43.008447],"type":"Point"},"properties":{"osm_id":"6406042772","tag":{"amenity":"waste_basket"}},"type":"Feature"},
	{"geometry":{"coordinates":[-7.555176,43.008257],"type":"Point"},"properties":{"osm_id":"6406042880","tag":{"amenity":"waste_basket"}},"type":"Feature"},
	{"geometry":{"coordinates":[-7.555214,43.00853],"type":"Point"},"properties":{"osm_id":"6406043756","tag":{"amenity":"waste_basket"}},"type":"Feature"},
	{"geometry":{"coordinates":[-7.554755,43.008614],"type":"Point"},"properties":{"osm_id":"6406115640","tag":{"amenity":"waste_basket"}},"type":"Feature"},
	{"geometry":{"coordinates":[-7.554928,43.007956],"type":"Point"},"properties":{"osm_id":"6406117972","tag":{"amenity":"waste_basket"}},"type":"Feature"},
	{"geometry":{"coordinates":[-7.554824,43.007926],"type":"Point"},"properties":{"osm_id":"6406121306","tag":{"amenity":"waste_basket"}},"type":"Feature"},
	{"geometry":{"coordinates":[-7.555045,43.008149],"type":"Point"},"properties":{"osm_id":"6406126539","tag":{"amenity":"waste_basket"}},"type":"Feature"},
	{"geometry":{"coordinates":[-7.555682,43.007664],"type":"Point"},"properties":{"osm_id":"6406127840","tag":{"amenity":"waste_basket"}},"type":"Feature"},
	{"geometry":{"coordinates":[-7.555422,43.005368],"type":"Point"},"properties":{"osm_id":"6551171279","tag":{"amenity":"waste_basket"}},"type":"Feature"},
	{"geometry":{"coordinates":[-7.556224,43.006375],"type":"Point"},"properties":{"osm_id":"6551216494","tag":{"amenity":"recycling","recycling:clothes":"yes","recycling_type":"container"}},"type":"Feature"},
	{"geometry":{"coordinates":[-7.556496,43.007063],"type":"Point"},"properties":{"osm_id":"6695542691","tag":{"amenity":"waste_basket"}},"type":"Feature"},
	{"geometry":{"coordinates":[-7.55668,43.008389],"type":"Point"},"properties":{"osm_id":"6695546107","tag":{"amenity":"waste_basket"}},"type":"Feature"},
	{"geometry":{"coordinates":[-7.533235,43.019493],"type":"Point"},"properties":{"osm_id":"6696611559","tag":{"amenity":"waste_basket"}},"type":"Feature"},
	{"geometry":{"coordinates":[-7.534138,43.019093],"type":"Point"},"properties":{"osm_id":"6696636097","tag":{"amenity":"waste_basket"}},"type":"Feature"},
	{"geometry":{"coordinates":[-7.554414,43.010959],"type":"Point"},"properties":{"osm_id":"7110227196","tag":{"amenity":"waste_disposal","waste":"mixed"}},"type":"Feature"},
	{"geometry":{"coordinates":[-7.554431,43.010959],"type":"Point"},"properties":{"osm_id":"7110227197","tag":{"amenity":"waste_disposal","waste":"plastic"}},"type":"Feature"},
	{"geometry":{"coordinates":[-7.554522,43.010531],"type":"Point"},"properties":{"osm_id":"7633085526","tag":{"amenity":"waste_basket"}},"type":"Feature"},
	{"geometry":{"coordinates":[-7.555438,43.011707],"type":"Point"},"properties":{"osm_id":"7903202175","tag":{"amenity":"recycling","opening_hours":"24/7","recycling:batteries":"yes","recycling_type":"container"}},"type":"Feature"}
]
}
