{
"type": "FeatureCollection",
"lastupdate": "2020-07-31T00:00:00Z",
"features": [
	{"geometry":{"coordinates":[-7.505505,41.708236],"type":"Point"},"properties":{"name":"Vila Nova","osm_id":"597613790","tag":{"amenity":"recycling"}},"type":"Feature"},
	{"geometry":{"coordinates":[-7.492877,41.711985],"type":"Point"},"properties":{"name":"Vila Nova","osm_id":"597613827","tag":{"amenity":"recycling"}},"type":"Feature"},
	{"geometry":{"coordinates":[-7.472644,41.756237],"type":"Point"},"properties":{"osm_id":"2712464971","tag":{"amenity":"recycling","mapillary":"10P5NO2OJ88zeKhlNk4Ajd","recycling_type":"container","survey:date":"2019-07-06"}},"type":"Feature"},
	{"geometry":{"coordinates":[-7.475912,41.739734],"type":"Point"},"properties":{"osm_id":"2712465240","tag":{"amenity":"recycling"}},"type":"Feature"},
	{"geometry":{"coordinates":[-7.472067,41.747422],"type":"Point"},"properties":{"name":"Ecoponto","osm_id":"3487541692","tag":{"amenity":"recycling"}},"type":"Feature"},
	{"geometry":{"coordinates":[-7.471008,41.728593],"type":"Point"},"properties":{"name":"Ecoponto","osm_id":"3487541776","tag":{"amenity":"recycling"}},"type":"Feature"},
	{"geometry":{"coordinates":[-7.477884,41.73487],"type":"Point"},"properties":{"name":"Ecoponto","osm_id":"4223463469","tag":{"amenity":"recycling"}},"type":"Feature"},
	{"geometry":{"coordinates":[-7.480368,41.736255],"type":"Point"},"properties":{"name":"Ecoponto","osm_id":"4360228667","tag":{"amenity":"recycling"}},"type":"Feature"},
	{"geometry":{"coordinates":[-7.479868,41.743843],"type":"Point"},"properties":{"osm_id":"5889233387","tag":{"amenity":"recycling","recycling_type":"container"}},"type":"Feature"},
	{"geometry":{"coordinates":[-7.479576,41.735231],"type":"Point"},"properties":{"osm_id":"5898126979","tag":{"amenity":"recycling","recycling_type":"container"}},"type":"Feature"},
	{"geometry":{"coordinates":[-7.483651,41.733695],"type":"Point"},"properties":{"osm_id":"5898126984","tag":{"amenity":"recycling","recycling_type":"container"}},"type":"Feature"},
	{"geometry":{"coordinates":[-7.480007,41.732829],"type":"Point"},"properties":{"osm_id":"5898127705","tag":{"amenity":"recycling","recycling_type":"container"}},"type":"Feature"},
	{"geometry":{"coordinates":[-7.483462,41.731559],"type":"Point"},"properties":{"osm_id":"5898156478","tag":{"amenity":"recycling","recycling_type":"container"}},"type":"Feature"},
	{"geometry":{"coordinates":[-7.471032,41.757651],"type":"Point"},"properties":{"osm_id":"5899576556","tag":{"amenity":"recycling","recycling_type":"container"}},"type":"Feature"},
	{"geometry":{"coordinates":[-7.47554,41.753949],"type":"Point"},"properties":{"osm_id":"5899645287","tag":{"amenity":"recycling","recycling_type":"container"}},"type":"Feature"},
	{"geometry":{"coordinates":[-7.476015,41.752653],"type":"Point"},"properties":{"osm_id":"5899645297","tag":{"amenity":"recycling","recycling_type":"container"}},"type":"Feature"},
	{"geometry":{"coordinates":[-7.479031,41.742228],"type":"Point"},"properties":{"osm_id":"5902497231","tag":{"amenity":"recycling","recycling_type":"container"}},"type":"Feature"},
	{"geometry":{"coordinates":[-7.471039,41.738029],"type":"Point"},"properties":{"osm_id":"5902928698","tag":{"amenity":"recycling","recycling_type":"container"}},"type":"Feature"},
	{"geometry":{"coordinates":[-7.476336,41.743118],"type":"Point"},"properties":{"osm_id":"5905118297","tag":{"amenity":"recycling","recycling_type":"container"}},"type":"Feature"},
	{"geometry":{"coordinates":[-7.475606,41.742048],"type":"Point"},"properties":{"osm_id":"5909874368","tag":{"amenity":"recycling","recycling_type":"container"}},"type":"Feature"},
	{"geometry":{"coordinates":[-7.481833,41.737616],"type":"Point"},"properties":{"osm_id":"5914026075","tag":{"amenity":"recycling","recycling_type":"container"}},"type":"Feature"},
	{"geometry":{"coordinates":[-7.470861,41.743918],"type":"Point"},"properties":{"osm_id":"5916089187","tag":{"amenity":"recycling","recycling_type":"container"}},"type":"Feature"}
]
}
