{
"type": "FeatureCollection",
"lastupdate": "2020-08-05T00:00:00Z",
"features": [
	{"geometry":{"coordinates":[-7.503434,38.769852],"type":"Point"},"properties":{"name":"467 RUA DA EIRINHA","osm_id":"7468843124","ref":"467","tag":{"amenity":"recycling","operator":"Gesamb","recycling:glass":"yes","recycling:paper":"yes","recycling:plastic":"yes","recycling_type":"container"}},"type":"Feature"},
	{"geometry":{"coordinates":[-7.503304,38.771137],"type":"Point"},"properties":{"name":"468 LARGO DA IGREJA","osm_id":"7468843126","ref":"468","tag":{"amenity":"recycling","operator":"Gesamb","recycling:cooking_oil":"yes","recycling:glass":"yes","recycling:paper":"yes","recycling:plastic":"yes","recycling_type":"container"}},"type":"Feature"},
	{"geometry":{"coordinates":[-7.500687,38.770183],"type":"Point"},"properties":{"name":"469 LARGO DA LIBERDADE","osm_id":"7468843130","ref":"469","tag":{"amenity":"recycling","operator":"Gesamb","recycling:batteries":"yes","recycling:cooking_oil":"yes","recycling:glass":"yes","recycling:paper":"yes","recycling:plastic":"yes","recycling_type":"container"}},"type":"Feature"},
	{"geometry":{"coordinates":[-7.499226,38.770439],"type":"Point"},"properties":{"name":"464 RUA DA ESTA\u00c3\u0087\u00c3\u0083O","osm_id":"7471611431","ref":"464","tag":{"amenity":"recycling","operator":"Gesamb","recycling:glass":"yes","recycling_type":"container"}},"type":"Feature"},
	{"geometry":{"coordinates":[-7.498695,38.771154],"type":"Point"},"properties":{"name":"463 LARGO ZECA AFONSO","osm_id":"7471611462","ref":"463","tag":{"amenity":"recycling","operator":"Gesamb","recycling:glass":"yes","recycling_type":"container"}},"type":"Feature"},
	{"geometry":{"coordinates":[-7.501061,38.767818],"type":"Point"},"properties":{"name":"465 RUA DA ESTA\u00c3\u0087\u00c3\u0083O","osm_id":"7471611463","ref":"465","tag":{"amenity":"recycling","operator":"Gesamb","recycling:batteries":"yes","recycling:glass":"yes","recycling:paper":"yes","recycling:plastic":"yes","recycling_type":"container"}},"type":"Feature"},
	{"geometry":{"coordinates":[-7.503042,38.767694],"type":"Point"},"properties":{"name":"466 RUA 1 DE MAIO","osm_id":"7471611464","ref":"466","tag":{"amenity":"recycling","operator":"Gesamb","recycling:glass":"yes","recycling:paper":"yes","recycling:plastic":"yes","recycling_type":"container"}},"type":"Feature"},
	{"geometry":{"coordinates":[-7.50143,38.805504],"type":"Point"},"properties":{"name":"479 CM 1041","osm_id":"7471686671","ref":"479","tag":{"amenity":"recycling","operator":"Gesamb","recycling:batteries":"yes","recycling:glass":"yes","recycling:paper":"yes","recycling:plastic":"yes","recycling_type":"container"}},"type":"Feature"},
	{"geometry":{"coordinates":[-7.498388,38.806372],"type":"Point"},"properties":{"name":"480 CM 1041","osm_id":"7471686672","ref":"480","tag":{"amenity":"recycling","operator":"Gesamb","recycling:glass":"yes","recycling_type":"container"}},"type":"Feature"},
	{"geometry":{"coordinates":[-7.495622,38.805779],"type":"Point"},"properties":{"name":"481 CM 1041","osm_id":"7471686673","ref":"481","tag":{"amenity":"recycling","operator":"Gesamb","recycling:glass":"yes","recycling:paper":"yes","recycling:plastic":"yes","recycling_type":"container"}},"type":"Feature"},
	{"geometry":{"coordinates":[-7.496132,38.808727],"type":"Point"},"properties":{"name":"435 RUA DA ALDEIA","osm_id":"7471690090","ref":"435","tag":{"amenity":"recycling","operator":"Gesamb","recycling:batteries":"yes","recycling:glass":"yes","recycling_type":"container"}},"type":"Feature"},
	{"geometry":{"coordinates":[-7.512055,38.786483],"type":"Point"},"properties":{"name":"470 CASAS NOVAS","osm_id":"7471771085","ref":"470","tag":{"amenity":"recycling","operator":"Gesamb","recycling:batteries":"yes","recycling:glass":"yes","recycling:paper":"yes","recycling:plastic":"yes","recycling_type":"container"}},"type":"Feature"},
	{"geometry":{"coordinates":[-7.483607,38.776238],"type":"Point"},"properties":{"name":"462 RESTAURANTE O AFONSO","osm_id":"7471771153","ref":"462","tag":{"amenity":"recycling","operator":"Gesamb","recycling:glass":"yes","recycling_type":"container"}},"type":"Feature"},
	{"geometry":{"coordinates":[-7.478246,38.783407],"type":"Point"},"properties":{"name":"459 AVENIDA 25 DE ABRIL","osm_id":"7471771155","ref":"459","tag":{"amenity":"recycling","operator":"Gesamb","recycling:glass":"yes","recycling_type":"container"}},"type":"Feature"},
	{"geometry":{"coordinates":[-7.480651,38.78383],"type":"Point"},"properties":{"name":"460 AVENIDA 25 DE ABRIL","osm_id":"7471771169","ref":"460","tag":{"amenity":"recycling","operator":"Gesamb","recycling:batteries":"yes","recycling:glass":"yes","recycling:paper":"yes","recycling:plastic":"yes","recycling_type":"container"}},"type":"Feature"},
	{"geometry":{"coordinates":[-7.48267,38.783596],"type":"Point"},"properties":{"name":"461 RUA DA RESTAURA\u00c3\u0087\u00c3\u0083O","osm_id":"7471771175","ref":"461","tag":{"amenity":"recycling","operator":"Gesamb","recycling:batteries":"yes","recycling:glass":"yes","recycling:paper":"yes","recycling:plastic":"yes","recycling_type":"container"}},"type":"Feature"}
]
}
