{
"type": "FeatureCollection",
"features": [
	{"geometry":{"coordinates":[-7.538901,38.619715],"type":"Point"},"properties":{"name":"144 FOROS DA FONTE SECA","osm_id":"7464558971","ref":"144","tag":{"amenity":"recycling","operator":"Gesamb","recycling:batteries":"yes","recycling:glass":"yes","recycling:paper":"yes","recycling:plastic":"yes","recycling_type":"container"}},"type":"Feature"},
	{"geometry":{"coordinates":[-7.538936,38.619694],"type":"Point"},"properties":{"osm_id":"7464558972","tag":{"amenity":"waste_disposal"}},"type":"Feature"},
	{"geometry":{"coordinates":[-7.536259,38.621366],"type":"Point"},"properties":{"osm_id":"7464616995","tag":{"amenity":"waste_disposal"}},"type":"Feature"},
	{"geometry":{"coordinates":[-7.538596,38.628088],"type":"Point"},"properties":{"osm_id":"7464637312","tag":{"amenity":"waste_disposal"}},"type":"Feature"},
	{"geometry":{"coordinates":[-7.534355,38.619048],"type":"Point"},"properties":{"osm_id":"7464659488","tag":{"amenity":"waste_disposal"}},"type":"Feature"},
	{"geometry":{"coordinates":[-7.538533,38.628101],"type":"Point"},"properties":{"name":"1159 FOROS DA FONTE SECA - ESTRADA PRINCIPAL JUNTO DA PARAGEM DE AUTOCARROS","osm_id":"7464861632","ref":"1159","tag":{"amenity":"recycling","operator":"Gesamb","recycling:batteries":"yes","recycling:glass":"yes","recycling:paper":"yes","recycling:plastic":"yes","recycling_type":"container"}},"type":"Feature"},
	{"geometry":{"coordinates":[-7.553053,38.645523],"type":"Point"},"properties":{"name":"398 ER381","osm_id":"7464959536","ref":"398","tag":{"amenity":"recycling","operator":"Gesamb","recycling:batteries":"yes","recycling:glass":"yes","recycling:paper":"yes","recycling:plastic":"yes","recycling_type":"container"}},"type":"Feature"},
	{"geometry":{"coordinates":[-7.549603,38.645718],"type":"Point"},"properties":{"name":"926 ALAMEDA DO CALV\u00c3\u0081RIO","osm_id":"7464959546","ref":"926","tag":{"amenity":"recycling","operator":"Gesamb","recycling:glass":"yes","recycling:paper":"yes","recycling:plastic":"yes","recycling_type":"container"}},"type":"Feature"},
	{"geometry":{"coordinates":[-7.54965,38.645746],"type":"Point"},"properties":{"osm_id":"7464959547","tag":{"amenity":"waste_disposal"}},"type":"Feature"},
	{"geometry":{"coordinates":[-7.54787,38.644856],"type":"Point"},"properties":{"name":"382 RUA CONDE DE MONSARAZ","osm_id":"7464959548","ref":"382","tag":{"amenity":"recycling","operator":"Gesamb","recycling:batteries":"yes","recycling:glass":"yes","recycling:paper":"yes","recycling:plastic":"yes","recycling_type":"container"}},"type":"Feature"},
	{"geometry":{"coordinates":[-7.548368,38.643724],"type":"Point"},"properties":{"name":"383 RUA FIALHO DE ALMEIDA","osm_id":"7464959549","ref":"383","tag":{"amenity":"recycling","operator":"Gesamb","recycling:glass":"yes","recycling:paper":"yes","recycling:plastic":"yes","recycling_type":"container"}},"type":"Feature"},
	{"geometry":{"coordinates":[-7.543863,38.644045],"type":"Point"},"properties":{"osm_id":"7465039614","tag":{"amenity":"waste_disposal"}},"type":"Feature"},
	{"geometry":{"coordinates":[-7.543922,38.644239],"type":"Point"},"properties":{"name":"386 ZONA INDUSTRIAL DO REDONDO","osm_id":"7465039615","ref":"386","tag":{"amenity":"recycling","operator":"Gesamb","recycling:glass":"yes","recycling:paper":"yes","recycling:plastic":"yes","recycling_type":"container"}},"type":"Feature"},
	{"geometry":{"coordinates":[-7.544965,38.645408],"type":"Point"},"properties":{"name":"385 RUA DAS VINHAS NOVAS","osm_id":"7465039616","ref":"385","tag":{"amenity":"recycling","operator":"Gesamb","recycling:cooking_oil":"yes","recycling:glass":"yes","recycling:paper":"yes","recycling:plastic":"yes","recycling_type":"container"}},"type":"Feature"},
	{"geometry":{"coordinates":[-7.545803,38.646813],"type":"Point"},"properties":{"osm_id":"7465039617","tag":{"amenity":"waste_disposal"}},"type":"Feature"},
	{"geometry":{"coordinates":[-7.545887,38.646858],"type":"Point"},"properties":{"name":"1120 TRAVESSA DA PONTE","osm_id":"7465039618","ref":"1120","tag":{"amenity":"recycling","operator":"Gesamb","recycling:batteries":"yes","recycling:glass":"yes","recycling:paper":"yes","recycling:plastic":"yes","recycling_type":"container"}},"type":"Feature"},
	{"geometry":{"coordinates":[-7.547551,38.646816],"type":"Point"},"properties":{"name":"384 LARGO BENTO DE JESUS CARA\u00c3\u0087A","osm_id":"7465039619","ref":"384","tag":{"amenity":"recycling","operator":"Gesamb","recycling:batteries":"yes","recycling:cooking_oil":"yes","recycling:glass":"yes","recycling:paper":"yes","recycling:plastic":"yes","recycling_type":"container"}},"type":"Feature"},
	{"geometry":{"coordinates":[-7.547585,38.646823],"type":"Point"},"properties":{"osm_id":"7465039620","tag":{"amenity":"waste_disposal"}},"type":"Feature"},
	{"geometry":{"coordinates":[-7.54909,38.648092],"type":"Point"},"properties":{"name":"1054 AVENIDA ANT\u00c3\u0093NIA LUCIANA","osm_id":"7465039622","ref":"1054","tag":{"amenity":"recycling","operator":"Gesamb","recycling:batteries":"yes","recycling:glass":"yes","recycling:paper":"yes","recycling:plastic":"yes","recycling_type":"container"}},"type":"Feature"},
	{"geometry":{"coordinates":[-7.549045,38.648113],"type":"Point"},"properties":{"osm_id":"7465039623","tag":{"amenity":"waste_disposal"}},"type":"Feature"},
	{"geometry":{"coordinates":[-7.549689,38.649867],"type":"Point"},"properties":{"name":"390 RUA INFANTE DOM HENRIQUE","osm_id":"7465039624","ref":"390","tag":{"amenity":"recycling","operator":"Gesamb","recycling:glass":"yes","recycling:paper":"yes","recycling:plastic":"yes","recycling_type":"container"}},"type":"Feature"},
	{"geometry":{"coordinates":[-7.549691,38.649834],"type":"Point"},"properties":{"osm_id":"7465039625","tag":{"amenity":"waste_disposal"}},"type":"Feature"},
	{"geometry":{"coordinates":[-7.548119,38.652501],"type":"Point"},"properties":{"name":"395 AVENIDA DINIS MIRANDA","osm_id":"7465039626","ref":"395","tag":{"amenity":"recycling","operator":"Gesamb","recycling:cooking_oil":"yes","recycling:glass":"yes","recycling:paper":"yes","recycling:plastic":"yes","recycling_type":"container"}},"type":"Feature"},
	{"geometry":{"coordinates":[-7.548174,38.652563],"type":"Point"},"properties":{"osm_id":"7465039627","tag":{"amenity":"waste_disposal"}},"type":"Feature"},
	{"geometry":{"coordinates":[-7.547697,38.653788],"type":"Point"},"properties":{"name":"397 RUA DO ALMAGRE - INTERMACH\u00c3\u0089","osm_id":"7465039628","ref":"397","tag":{"amenity":"recycling","operator":"Gesamb","recycling:batteries":"yes","recycling:glass":"yes","recycling:paper":"yes","recycling:plastic":"yes","recycling_type":"container"}},"type":"Feature"},
	{"geometry":{"coordinates":[-7.546887,38.65178],"type":"Point"},"properties":{"name":"1119 RUA MANUEL CARDOSO F. QUEIR\u00c3\u0093S","osm_id":"7465039630","ref":"1119","tag":{"amenity":"recycling","operator":"Gesamb","recycling:batteries":"yes","recycling:glass":"yes","recycling:paper":"yes","recycling:plastic":"yes","recycling_type":"container"}},"type":"Feature"},
	{"geometry":{"coordinates":[-7.546933,38.651806],"type":"Point"},"properties":{"osm_id":"7465039631","tag":{"amenity":"waste_disposal"}},"type":"Feature"},
	{"geometry":{"coordinates":[-7.54501,38.651431],"type":"Point"},"properties":{"name":"394 RUA CONDE REDONDO","osm_id":"7465039632","ref":"394","tag":{"amenity":"recycling","operator":"Gesamb","recycling:batteries":"yes","recycling:glass":"yes","recycling:paper":"yes","recycling:plastic":"yes","recycling_type":"container"}},"type":"Feature"},
	{"geometry":{"coordinates":[-7.545887,38.650246],"type":"Point"},"properties":{"name":"393 LARGO DO VALADO","osm_id":"7465039633","ref":"393","tag":{"amenity":"recycling","operator":"Gesamb","recycling:batteries":"yes","recycling:cooking_oil":"yes","recycling:glass":"yes","recycling:paper":"yes","recycling:plastic":"yes","recycling_type":"container"}},"type":"Feature"},
	{"geometry":{"coordinates":[-7.546159,38.650435],"type":"Point"},"properties":{"osm_id":"7465039634","tag":{"amenity":"waste_disposal"}},"type":"Feature"},
	{"geometry":{"coordinates":[-7.546855,38.648821],"type":"Point"},"properties":{"name":"392 RUA COMENDADOR RUY GOMES","osm_id":"7465039635","ref":"392","tag":{"amenity":"recycling","operator":"Gesamb","recycling:batteries":"yes","recycling:glass":"yes","recycling:paper":"yes","recycling:plastic":"yes","recycling_type":"container"}},"type":"Feature"},
	{"geometry":{"coordinates":[-7.546897,38.648817],"type":"Point"},"properties":{"osm_id":"7465039636","tag":{"amenity":"waste_disposal"}},"type":"Feature"},
	{"geometry":{"coordinates":[-7.547789,38.64988],"type":"Point"},"properties":{"osm_id":"7465039637","tag":{"amenity":"waste_disposal"}},"type":"Feature"},
	{"geometry":{"coordinates":[-7.547753,38.649855],"type":"Point"},"properties":{"name":"391 RUA DOS BOMBEIROS VOLUNT\u00c3\u0081RIOS","osm_id":"7465039638","ref":"391","tag":{"amenity":"recycling","operator":"Gesamb","recycling:batteries":"yes","recycling:glass":"yes","recycling:paper":"yes","recycling:plastic":"yes","recycling_type":"container"}},"type":"Feature"},
	{"geometry":{"coordinates":[-7.544816,38.648574],"type":"Point"},"properties":{"name":"1121 TRAVESSA DE CIMA","osm_id":"7465039639","ref":"1121","tag":{"amenity":"recycling","operator":"Gesamb","recycling:batteries":"yes","recycling:glass":"yes","recycling:paper":"yes","recycling:plastic":"yes","recycling_type":"container"}},"type":"Feature"},
	{"geometry":{"coordinates":[-7.544675,38.64852],"type":"Point"},"properties":{"osm_id":"7465039640","tag":{"amenity":"waste_disposal"}},"type":"Feature"},
	{"geometry":{"coordinates":[-7.543941,38.649436],"type":"Point"},"properties":{"osm_id":"7465039641","tag":{"amenity":"waste_disposal"}},"type":"Feature"},
	{"geometry":{"coordinates":[-7.543921,38.649397],"type":"Point"},"properties":{"name":"389 LARGO DO CURADOURO","osm_id":"7465039642","ref":"389","tag":{"amenity":"recycling","operator":"Gesamb","recycling:glass":"yes","recycling:paper":"yes","recycling:plastic":"yes","recycling_type":"container"}},"type":"Feature"},
	{"geometry":{"coordinates":[-7.542159,38.6476],"type":"Point"},"properties":{"osm_id":"7465039644","tag":{"amenity":"waste_disposal"}},"type":"Feature"},
	{"geometry":{"coordinates":[-7.542026,38.647758],"type":"Point"},"properties":{"name":"388 RUA DE OLIVEN\u00c3\u0087A","osm_id":"7465039645","ref":"388","tag":{"amenity":"recycling","operator":"Gesamb","recycling:glass":"yes","recycling:paper":"yes","recycling:plastic":"yes","recycling_type":"container"}},"type":"Feature"},
	{"geometry":{"coordinates":[-7.543601,38.647576],"type":"Point"},"properties":{"osm_id":"7465039646","tag":{"amenity":"waste_disposal"}},"type":"Feature"},
	{"geometry":{"coordinates":[-7.543641,38.647601],"type":"Point"},"properties":{"name":"387 RUA DE MONSARAZ","osm_id":"7465039647","ref":"387","tag":{"amenity":"recycling","operator":"Gesamb","recycling:batteries":"yes","recycling:cooking_oil":"yes","recycling:glass":"yes","recycling:paper":"yes","recycling:plastic":"yes","recycling_type":"container"}},"type":"Feature"}
]
}
