{
"type": "FeatureCollection",
"features": [
	{"geometry":{"coordinates":[-7.473589,38.543187],"type":"Point"},"properties":{"name":"897 Rua das Eirinhas","osm_id":"7504258220","ref":"897","tag":{"amenity":"recycling","operator":"Gesamb","recycling:glass":"yes","recycling_type":"container"}},"type":"Feature"},
	{"geometry":{"coordinates":[-7.475455,38.544129],"type":"Point"},"properties":{"name":"148 Rua Nova da Agostinha","osm_id":"7504258261","ref":"148","tag":{"amenity":"recycling","operator":"Gesamb","recycling:glass":"yes","recycling_type":"container"}},"type":"Feature"},
	{"geometry":{"coordinates":[-7.478638,38.546488],"type":"Point"},"properties":{"name":"147 Rua dos Quintais - Junto \u00c3\u00a0 Casa do Povo","osm_id":"7504266259","ref":"147","tag":{"amenity":"recycling","operator":"Gesamb","recycling:batteries":"yes","recycling:glass":"yes","recycling:paper":"yes","recycling:plastic":"yes","recycling_type":"container"}},"type":"Feature"},
	{"geometry":{"coordinates":[-7.482003,38.544899],"type":"Point"},"properties":{"name":"149 Rua 1\u00c2\u00ba de Maio","osm_id":"7504266265","ref":"149","tag":{"amenity":"recycling","operator":"Gesamb","recycling:batteries":"yes","recycling:cooking_oil":"yes","recycling:glass":"yes","recycling:paper":"yes","recycling:plastic":"yes","recycling_type":"container"}},"type":"Feature"},
	{"geometry":{"coordinates":[-7.487178,38.542286],"type":"Point"},"properties":{"name":"150 EM 512 - Pias","osm_id":"7504266268","ref":"150","tag":{"amenity":"recycling","operator":"Gesamb","recycling:glass":"yes","recycling:paper":"yes","recycling:plastic":"yes","recycling_type":"container"}},"type":"Feature"},
	{"geometry":{"coordinates":[-7.491444,38.538844],"type":"Point"},"properties":{"name":"1153 Rua Nova","osm_id":"7504266276","ref":"1153","tag":{"amenity":"recycling","operator":"Gesamb","recycling:batteries":"yes","recycling:glass":"yes","recycling:paper":"yes","recycling:plastic":"yes","recycling_type":"container"}},"type":"Feature"},
	{"geometry":{"coordinates":[-7.49189,38.536229],"type":"Point"},"properties":{"name":"153 Rua da Aldeia","osm_id":"7504383080","ref":"153","tag":{"amenity":"recycling","operator":"Gesamb","recycling:glass":"yes","recycling_type":"container"}},"type":"Feature"},
	{"geometry":{"coordinates":[-7.490537,38.531444],"type":"Point"},"properties":{"name":"154 Rua da Carteira","osm_id":"7504398536","ref":"154","tag":{"amenity":"recycling","operator":"Gesamb","recycling:glass":"yes","recycling_type":"container"}},"type":"Feature"},
	{"geometry":{"coordinates":[-7.490573,38.531381],"type":"Point"},"properties":{"osm_id":"7504398537","tag":{"amenity":"waste_disposal"}},"type":"Feature"},
	{"geometry":{"coordinates":[-7.489706,38.537079],"type":"Point"},"properties":{"name":"152 Rua da Aldeia","osm_id":"7504410185","ref":"152","tag":{"amenity":"recycling","operator":"Gesamb","recycling:glass":"yes","recycling_type":"container"}},"type":"Feature"},
	{"geometry":{"coordinates":[-7.489724,38.537092],"type":"Point"},"properties":{"osm_id":"7504410186","tag":{"amenity":"waste_disposal"}},"type":"Feature"},
	{"geometry":{"coordinates":[-7.488499,38.538199],"type":"Point"},"properties":{"name":"151 Rua da Aldeia","osm_id":"7504410187","ref":"151","tag":{"amenity":"recycling","operator":"Gesamb","recycling:batteries":"yes","recycling:glass":"yes","recycling:paper":"yes","recycling:plastic":"yes","recycling_type":"container"}},"type":"Feature"},
	{"geometry":{"coordinates":[-7.485036,38.536986],"type":"Point"},"properties":{"osm_id":"7504410189","tag":{"amenity":"waste_disposal"}},"type":"Feature"},
	{"geometry":{"coordinates":[-7.485079,38.536944],"type":"Point"},"properties":{"name":"155 EN 255","osm_id":"7504410190","ref":"155","tag":{"amenity":"recycling","operator":"Gesamb","recycling:glass":"yes","recycling_type":"container"}},"type":"Feature"}
]
}
