{
"type": "FeatureCollection",
"features": [
	{"geometry":{"coordinates":[137.422987,34.738251],"type":"Point"},"properties":{"osm_id":"5694122621","tag":{"amenity":"recycling","name:pt":"one user"}},"type":"Feature"},
	{"geometry":{"coordinates":[137.432807,34.722508],"type":"Point"},"properties":{"osm_id":"6202700092","tag":{"amenity":"waste_basket","waste":"trash"}},"type":"Feature"},
	{"geometry":{"coordinates":[137.434565,34.719673],"type":"Point"},"properties":{"osm_id":"6202717215","tag":{"amenity":"waste_basket"}},"type":"Feature"},
	{"geometry":{"coordinates":[137.431477,34.718271],"type":"Point"},"properties":{"osm_id":"6202720163","tag":{"amenity":"waste_basket"}},"type":"Feature"},
	{"geometry":{"coordinates":[137.432075,34.718953],"type":"Point"},"properties":{"osm_id":"6202720167","tag":{"amenity":"waste_basket"}},"type":"Feature"},
	{"geometry":{"coordinates":[137.430092,34.719477],"type":"Point"},"properties":{"osm_id":"6202720177","tag":{"amenity":"waste_basket"}},"type":"Feature"}
]
}
