{
"type": "FeatureCollection",
"features": [
	{"geometry":{"coordinates":[-69.884687,18.473436],"type":"Point"},"properties":{"name":"Direcci\u00c3\u00b3n patrimonio cultural y centro hist\u00c3\u00b3rico","osm_id":"4241304789","tag":{"amenity":"recycling"}},"type":"Feature"},
	{"geometry":{"coordinates":[-69.915636,18.473514],"type":"Point"},"properties":{"osm_id":"4564195989","tag":{"amenity":"waste_disposal"}},"type":"Feature"},
	{"geometry":{"coordinates":[-69.938165,18.449744],"type":"Point"},"properties":{"osm_id":"4603835994","tag":{"amenity":"waste_disposal"}},"type":"Feature"},
	{"geometry":{"coordinates":[-69.940711,18.449663],"type":"Point"},"properties":{"osm_id":"4603835995","tag":{"amenity":"waste_disposal"}},"type":"Feature"},
	{"geometry":{"coordinates":[-69.950824,18.444901],"type":"Point"},"properties":{"osm_id":"4603835999","tag":{"amenity":"waste_disposal"}},"type":"Feature"},
	{"geometry":{"coordinates":[-69.946301,18.447788],"type":"Point"},"properties":{"osm_id":"4603868590","tag":{"amenity":"waste_disposal"}},"type":"Feature"},
	{"geometry":{"coordinates":[-69.942513,18.448379],"type":"Point"},"properties":{"osm_id":"4603868593","tag":{"amenity":"waste_disposal"}},"type":"Feature"},
	{"geometry":{"coordinates":[-69.942098,18.448124],"type":"Point"},"properties":{"osm_id":"4603868595","tag":{"amenity":"waste_disposal"}},"type":"Feature"},
	{"geometry":{"coordinates":[-69.947827,18.445533],"type":"Point"},"properties":{"osm_id":"4603868596","tag":{"amenity":"waste_disposal"}},"type":"Feature"},
	{"geometry":{"coordinates":[-69.935889,18.450623],"type":"Point"},"properties":{"osm_id":"4603875493","tag":{"amenity":"waste_disposal"}},"type":"Feature"},
	{"geometry":{"coordinates":[-69.935556,18.451542],"type":"Point"},"properties":{"osm_id":"4603875494","tag":{"amenity":"waste_disposal"}},"type":"Feature"},
	{"geometry":{"coordinates":[-69.934994,18.452048],"type":"Point"},"properties":{"osm_id":"4603875495","tag":{"amenity":"waste_disposal"}},"type":"Feature"},
	{"geometry":{"coordinates":[-69.936507,18.450921],"type":"Point"},"properties":{"osm_id":"4603886190","tag":{"amenity":"waste_disposal"}},"type":"Feature"},
	{"geometry":{"coordinates":[-69.945785,18.446257],"type":"Point"},"properties":{"osm_id":"4603886292","tag":{"amenity":"waste_disposal"}},"type":"Feature"},
	{"geometry":{"coordinates":[-69.936134,18.451092],"type":"Point"},"properties":{"osm_id":"4603886989","tag":{"amenity":"waste_disposal"}},"type":"Feature"},
	{"geometry":{"coordinates":[-69.940195,18.449224],"type":"Point"},"properties":{"osm_id":"4603892592","tag":{"amenity":"waste_disposal"}},"type":"Feature"},
	{"geometry":{"coordinates":[-69.936882,18.450539],"type":"Point"},"properties":{"osm_id":"4603892789","tag":{"amenity":"waste_disposal"}},"type":"Feature"},
	{"geometry":{"coordinates":[-69.939669,18.450025],"type":"Point"},"properties":{"osm_id":"4603892790","tag":{"amenity":"waste_disposal"}},"type":"Feature"},
	{"geometry":{"coordinates":[-69.950243,18.444738],"type":"Point"},"properties":{"osm_id":"4603892894","tag":{"amenity":"waste_disposal"}},"type":"Feature"},
	{"geometry":{"coordinates":[-69.9281,18.452866],"type":"Point"},"properties":{"osm_id":"4823249825","tag":{"amenity":"waste_basket"}},"type":"Feature"},
	{"geometry":{"coordinates":[-69.917906,18.463078],"type":"Point"},"properties":{"osm_id":"7055636086","tag":{"amenity":"waste_basket","waste":"ZT"}},"type":"Feature"},
	{"geometry":{"coordinates":[-69.918513,18.463157],"type":"Point"},"properties":{"osm_id":"7055636087","tag":{"amenity":"waste_basket","waste":"ZT"}},"type":"Feature"},
	{"geometry":{"coordinates":[-69.917417,18.463217],"type":"Point"},"properties":{"osm_id":"7055636088","tag":{"amenity":"waste_basket","waste":"ZT"}},"type":"Feature"},
	{"geometry":{"coordinates":[-69.916668,18.463565],"type":"Point"},"properties":{"osm_id":"7055636089","tag":{"amenity":"waste_basket","waste":"ZT"}},"type":"Feature"},
	{"geometry":{"coordinates":[-69.9166,18.464421],"type":"Point"},"properties":{"osm_id":"7055636090","tag":{"amenity":"waste_basket","waste":"ZT"}},"type":"Feature"},
	{"geometry":{"coordinates":[-69.917842,18.463105],"type":"Point"},"properties":{"osm_id":"7055649985","tag":{"amenity":"waste_basket","waste":"ZT"}},"type":"Feature"},
	{"geometry":{"coordinates":[-69.918512,18.463267],"type":"Point"},"properties":{"osm_id":"7055649986","tag":{"amenity":"waste_basket","waste":"ZT"}},"type":"Feature"},
	{"geometry":{"coordinates":[-69.917745,18.463075],"type":"Point"},"properties":{"osm_id":"7055649987","tag":{"amenity":"waste_basket","waste":"ZT"}},"type":"Feature"},
	{"geometry":{"coordinates":[-69.917437,18.463287],"type":"Point"},"properties":{"osm_id":"7055649988","tag":{"amenity":"waste_basket","waste":"ZT"}},"type":"Feature"},
	{"geometry":{"coordinates":[-69.91704,18.463395],"type":"Point"},"properties":{"osm_id":"7055649989","tag":{"amenity":"waste_basket","waste":"ZT"}},"type":"Feature"},
	{"geometry":{"coordinates":[-69.916876,18.463558],"type":"Point"},"properties":{"osm_id":"7055649990","tag":{"amenity":"waste_basket","waste":"ZT"}},"type":"Feature"},
	{"geometry":{"coordinates":[-69.916357,18.463713],"type":"Point"},"properties":{"osm_id":"7055649991","tag":{"amenity":"waste_basket","waste":"ZT"}},"type":"Feature"},
	{"geometry":{"coordinates":[-69.91655,18.464446],"type":"Point"},"properties":{"osm_id":"7055649992","tag":{"amenity":"waste_basket","waste":"ZT"}},"type":"Feature"},
	{"geometry":{"coordinates":[-69.918537,18.463209],"type":"Point"},"properties":{"osm_id":"7055650285","tag":{"amenity":"waste_basket","waste":"ZO"}},"type":"Feature"},
	{"geometry":{"coordinates":[-69.917409,18.463238],"type":"Point"},"properties":{"osm_id":"7055650287","tag":{"amenity":"waste_basket","waste":"ZT"}},"type":"Feature"},
	{"geometry":{"coordinates":[-69.915703,18.464887],"type":"Point"},"properties":{"osm_id":"7055650288","tag":{"amenity":"waste_basket","waste":"ZT"}},"type":"Feature"}
]
}
