{
"type": "FeatureCollection",
"features": [
	{"geometry":{"coordinates":[24.863369,60.64183],"type":"Point"},"properties":{"name":"Karankatu 3 (Ammattikoulun P-alue)","osm_id":"564363551","tag":{"amenity":"recycling","recycling:batteries":"yes","recycling:cans":"yes","recycling:glass":"yes","recycling:paper":"yes"}},"type":"Feature"},
	{"geometry":{"coordinates":[24.832682,60.647714],"type":"Point"},"properties":{"name":"Rinki-ekopiste","osm_id":"618713205","tag":{"amenity":"recycling","operator":"Rinki","recycling:cardboard":"yes","recycling:clothes":"yes","recycling:glass":"yes","recycling:paper":"yes","recycling:plastic":"yes","recycling:scrap_metal":"yes","recycling_type":"container"}},"type":"Feature"},
	{"geometry":{"coordinates":[24.85098,60.633024],"type":"Point"},"properties":{"name":"Rinki-ekopiste","osm_id":"624789530","tag":{"amenity":"recycling","operator":"Rinki","recycling:beverage_cartons":"yes","recycling:cardboard":"yes","recycling:clothes":"yes","recycling:glass":"yes","recycling:paper":"yes","recycling:plastic":"yes","recycling:scrap_metal":"yes","recycling_type":"container"}},"type":"Feature"},
	{"geometry":{"coordinates":[24.858434,60.631208],"type":"Point"},"properties":{"osm_id":"861431889","tag":{"amenity":"waste_basket"}},"type":"Feature"},
	{"geometry":{"coordinates":[24.85652,60.632765],"type":"Point"},"properties":{"osm_id":"2975409548","tag":{"amenity":"waste_basket"}},"type":"Feature"},
	{"geometry":{"coordinates":[24.839514,60.631586],"type":"Point"},"properties":{"osm_id":"3030236593","tag":{"amenity":"waste_basket"}},"type":"Feature"},
	{"geometry":{"coordinates":[24.843523,60.630104],"type":"Point"},"properties":{"osm_id":"3078336497","tag":{"amenity":"waste_basket"}},"type":"Feature"},
	{"geometry":{"coordinates":[24.850216,60.633069],"type":"Point"},"properties":{"osm_id":"3114863056","tag":{"amenity":"waste_basket"}},"type":"Feature"},
	{"geometry":{"coordinates":[24.850299,60.633108],"type":"Point"},"properties":{"osm_id":"3114863057","tag":{"amenity":"waste_basket"}},"type":"Feature"},
	{"geometry":{"coordinates":[24.850362,60.633681],"type":"Point"},"properties":{"osm_id":"3114863058","tag":{"amenity":"waste_basket"}},"type":"Feature"},
	{"geometry":{"coordinates":[24.850256,60.634097],"type":"Point"},"properties":{"osm_id":"3114863059","tag":{"amenity":"waste_basket"}},"type":"Feature"},
	{"geometry":{"coordinates":[24.838482,60.63152],"type":"Point"},"properties":{"osm_id":"3116764562","tag":{"amenity":"waste_basket"}},"type":"Feature"},
	{"geometry":{"coordinates":[24.836201,60.630333],"type":"Point"},"properties":{"osm_id":"3145924445","tag":{"amenity":"waste_basket"}},"type":"Feature"},
	{"geometry":{"coordinates":[24.83611,60.630303],"type":"Point"},"properties":{"osm_id":"3145924446","tag":{"amenity":"waste_basket"}},"type":"Feature"},
	{"geometry":{"coordinates":[24.85291,60.636949],"type":"Point"},"properties":{"osm_id":"3157840502","tag":{"amenity":"waste_basket"}},"type":"Feature"},
	{"geometry":{"coordinates":[24.86224,60.637239],"type":"Point"},"properties":{"osm_id":"3157840514","tag":{"amenity":"waste_basket"}},"type":"Feature"},
	{"geometry":{"coordinates":[24.863457,60.63865],"type":"Point"},"properties":{"osm_id":"3157840517","tag":{"amenity":"waste_basket"}},"type":"Feature"},
	{"geometry":{"coordinates":[24.863879,60.638751],"type":"Point"},"properties":{"osm_id":"3157840518","tag":{"amenity":"waste_disposal"}},"type":"Feature"},
	{"geometry":{"coordinates":[24.863669,60.638121],"type":"Point"},"properties":{"osm_id":"3157840519","tag":{"amenity":"waste_basket"}},"type":"Feature"},
	{"geometry":{"coordinates":[24.845169,60.630676],"type":"Point"},"properties":{"osm_id":"3159333930","tag":{"amenity":"waste_basket"}},"type":"Feature"},
	{"geometry":{"coordinates":[24.838296,60.635692],"type":"Point"},"properties":{"osm_id":"3182871725","tag":{"amenity":"waste_basket"}},"type":"Feature"},
	{"geometry":{"coordinates":[24.833152,60.631831],"type":"Point"},"properties":{"osm_id":"3184458418","tag":{"amenity":"waste_basket"}},"type":"Feature"},
	{"geometry":{"coordinates":[24.833676,60.632069],"type":"Point"},"properties":{"osm_id":"3184458420","tag":{"amenity":"waste_basket"}},"type":"Feature"},
	{"geometry":{"coordinates":[24.835607,60.633298],"type":"Point"},"properties":{"osm_id":"3184458423","tag":{"amenity":"waste_basket"}},"type":"Feature"},
	{"geometry":{"coordinates":[24.837236,60.634123],"type":"Point"},"properties":{"osm_id":"3184458424","tag":{"amenity":"waste_basket"}},"type":"Feature"},
	{"geometry":{"coordinates":[24.837565,60.634089],"type":"Point"},"properties":{"osm_id":"3184458425","tag":{"amenity":"waste_basket","start_date":"2014"}},"type":"Feature"},
	{"geometry":{"coordinates":[24.832928,60.631352],"type":"Point"},"properties":{"osm_id":"3184458428","tag":{"amenity":"waste_basket"}},"type":"Feature"},
	{"geometry":{"coordinates":[24.832876,60.63142],"type":"Point"},"properties":{"osm_id":"3184458429","tag":{"amenity":"waste_basket"}},"type":"Feature"},
	{"geometry":{"coordinates":[24.826617,60.647315],"type":"Point"},"properties":{"osm_id":"3624766562","tag":{"amenity":"waste_basket"}},"type":"Feature"},
	{"geometry":{"coordinates":[24.861586,60.630603],"type":"Point"},"properties":{"osm_id":"3870826200","tag":{"amenity":"recycling"}},"type":"Feature"},
	{"geometry":{"coordinates":[24.862781,60.631176],"type":"Point"},"properties":{"osm_id":"3872646257","tag":{"amenity":"waste_basket"}},"type":"Feature"},
	{"geometry":{"coordinates":[24.864618,60.633113],"type":"Point"},"properties":{"osm_id":"4321118156","tag":{"amenity":"waste_basket"}},"type":"Feature"},
	{"geometry":{"coordinates":[24.864456,60.6332],"type":"Point"},"properties":{"osm_id":"4321118157","tag":{"amenity":"waste_basket"}},"type":"Feature"},
	{"geometry":{"coordinates":[24.864788,60.633339],"type":"Point"},"properties":{"osm_id":"4321118158","tag":{"amenity":"waste_basket"}},"type":"Feature"},
	{"geometry":{"coordinates":[24.864956,60.633253],"type":"Point"},"properties":{"osm_id":"4321118159","tag":{"amenity":"waste_basket"}},"type":"Feature"},
	{"geometry":{"coordinates":[24.864154,60.63359],"type":"Point"},"properties":{"osm_id":"4321118160","tag":{"amenity":"waste_basket"}},"type":"Feature"},
	{"geometry":{"coordinates":[24.861821,60.632951],"type":"Point"},"properties":{"osm_id":"4321118161","tag":{"amenity":"waste_basket"}},"type":"Feature"},
	{"geometry":{"coordinates":[24.861578,60.63368],"type":"Point"},"properties":{"osm_id":"4447885584","tag":{"amenity":"waste_basket"}},"type":"Feature"},
	{"geometry":{"coordinates":[24.840818,60.633558],"type":"Point"},"properties":{"osm_id":"4565502150","tag":{"amenity":"waste_basket"}},"type":"Feature"},
	{"geometry":{"coordinates":[24.840604,60.646591],"type":"Point"},"properties":{"name":"Kierr\u00c3\u00a4tyskeskus Kike","osm_id":"4591026791","tag":{"addr:city":"Hyvink\u00e4\u00e4","addr:housenumber":"81","addr:postcode":"05880","addr:street":"Riihim\u00e4enkatu","amenity":"recycling","description":"KIKE Kierr\u00e4tyskeskuksessa voit tehd\u00e4 l\u00f6yt\u00f6j\u00e4 mm. tekstiileist\u00e4, astioista, lastentarvikkeista, sisustustuotteista ja huonekaluista. Otamme lahjoituksena vastaan ehj\u00e4\u00e4 ja k\u00e4ytt\u00f6kelpoista tavaraa. Tavaran nouto ja kuljetus: soita ja kysy.","opening_hours":"Mo-Fr 10:00-17:00; Sa 10:00-14:00","operator":"Hyvink\u00e4\u00e4n-Riihim\u00e4en seudun ammattikoulutuss\u00e4\u00e4ti\u00f6 HRAKS","phone":"+358 40 354 0819","recycling:books":"yes","recycling:cds":"yes","recycling:clothes":"yes","recycling:electrical_items":"yes","recycling:furniture":"yes","recycling:magazines":"yes","recycling:shoes":"yes","recycling:white_goods":"yes","recycling_type":"centre","website":"https://www.hraks.fi/valmennusymparistot/hyvinkaa/kike-kierratyskeskus/"}},"type":"Feature"},
	{"geometry":{"coordinates":[24.866527,60.631008],"type":"Point"},"properties":{"osm_id":"4729195922","tag":{"amenity":"waste_basket"}},"type":"Feature"},
	{"geometry":{"coordinates":[24.86645,60.630967],"type":"Point"},"properties":{"osm_id":"4729195926","tag":{"amenity":"waste_basket"}},"type":"Feature"},
	{"geometry":{"coordinates":[24.864285,60.631468],"type":"Point"},"properties":{"osm_id":"4779879467","tag":{"amenity":"waste_basket"}},"type":"Feature"},
	{"geometry":{"coordinates":[24.862019,60.631768],"type":"Point"},"properties":{"osm_id":"4859194750","tag":{"amenity":"waste_basket"}},"type":"Feature"},
	{"geometry":{"coordinates":[24.862297,60.631734],"type":"Point"},"properties":{"osm_id":"4859194751","tag":{"amenity":"waste_basket"}},"type":"Feature"},
	{"geometry":{"coordinates":[24.864187,60.631417],"type":"Point"},"properties":{"osm_id":"4859194757","tag":{"amenity":"waste_basket"}},"type":"Feature"},
	{"geometry":{"coordinates":[24.863973,60.631607],"type":"Point"},"properties":{"osm_id":"4859194758","tag":{"amenity":"waste_basket"}},"type":"Feature"},
	{"geometry":{"coordinates":[24.863886,60.631556],"type":"Point"},"properties":{"osm_id":"4859194759","tag":{"amenity":"waste_basket"}},"type":"Feature"},
	{"geometry":{"coordinates":[24.854726,60.633907],"type":"Point"},"properties":{"osm_id":"4859194761","tag":{"amenity":"waste_basket"}},"type":"Feature"},
	{"geometry":{"coordinates":[24.84106,60.637995],"type":"Point"},"properties":{"osm_id":"4880047620","tag":{"amenity":"waste_basket"}},"type":"Feature"},
	{"geometry":{"coordinates":[24.841971,60.63815],"type":"Point"},"properties":{"osm_id":"4880048021","tag":{"amenity":"waste_basket"}},"type":"Feature"},
	{"geometry":{"coordinates":[24.837118,60.642528],"type":"Point"},"properties":{"osm_id":"4922272984","tag":{"amenity":"waste_basket"}},"type":"Feature"},
	{"geometry":{"coordinates":[24.827181,60.647348],"type":"Point"},"properties":{"osm_id":"4922285824","tag":{"amenity":"waste_basket"}},"type":"Feature"},
	{"geometry":{"coordinates":[24.84334,60.6321],"type":"Point"},"properties":{"osm_id":"4926890645","tag":{"amenity":"waste_basket"}},"type":"Feature"},
	{"geometry":{"coordinates":[24.863924,60.631884],"type":"Point"},"properties":{"name":"Pullonpalautus","osm_id":"4938355948","tag":{"amenity":"recycling","recycling:cans":"yes","recycling:glass_bottles":"yes","recycling:plastic_bottles":"yes","recycling_type":"container"}},"type":"Feature"},
	{"geometry":{"coordinates":[24.850454,60.633015],"type":"Point"},"properties":{"name":"Pullonpalautus","osm_id":"4938355950","tag":{"amenity":"recycling","recycling:cans":"yes","recycling:glass_bottles":"yes","recycling:plastic_bottles":"yes","recycling_type":"container"}},"type":"Feature"},
	{"geometry":{"coordinates":[24.861936,60.632791],"type":"Point"},"properties":{"osm_id":"6700889341","tag":{"amenity":"waste_basket"}},"type":"Feature"},
	{"geometry":{"coordinates":[24.871161,60.63207],"type":"Point"},"properties":{"osm_id":"6700889355","tag":{"amenity":"waste_basket"}},"type":"Feature"},
	{"geometry":{"coordinates":[24.87102,60.631784],"type":"Point"},"properties":{"osm_id":"6700889358","tag":{"amenity":"waste_basket"}},"type":"Feature"},
	{"geometry":{"coordinates":[24.865531,60.631988],"type":"Point"},"properties":{"osm_id":"6710010654","tag":{"amenity":"waste_basket"}},"type":"Feature"}
]
}
