{
"type": "FeatureCollection",
"features": [
	{"geometry":{"coordinates":[24.853771,60.310282],"type":"Point"},"properties":{"osm_id":"443116691","tag":{"amenity":"recycling"}},"type":"Feature"},
	{"geometry":{"coordinates":[24.818384,60.288006],"type":"Point"},"properties":{"osm_id":"2423021251","tag":{"amenity":"waste_basket"}},"type":"Feature"},
	{"geometry":{"coordinates":[24.844035,60.295085],"type":"Point"},"properties":{"osm_id":"3561052504","tag":{"amenity":"waste_basket"}},"type":"Feature"},
	{"geometry":{"coordinates":[24.845237,60.295172],"type":"Point"},"properties":{"osm_id":"3561052505","tag":{"amenity":"waste_basket"}},"type":"Feature"},
	{"geometry":{"coordinates":[24.860284,60.283679],"type":"Point"},"properties":{"osm_id":"3737507271","tag":{"amenity":"waste_basket"}},"type":"Feature"},
	{"geometry":{"coordinates":[24.860349,60.283796],"type":"Point"},"properties":{"name":"Alueellinen kierr\u00c3\u00a4tyspiste (paperi)","osm_id":"3737508091","tag":{"addr:city":"Vantaa","addr:housenumber":"7","addr:street":"Koivikkotie","amenity":"recycling","recycling:cardboard":"no","recycling:clothes":"no","recycling:glass":"no","recycling:glass_bottles":"no","recycling:magazines":"yes","recycling:newspaper":"yes","recycling:paper":"yes","recycling:paper_packaging":"yes","recycling:scrap_metal":"no","recycling_type":"container"}},"type":"Feature"},
	{"geometry":{"coordinates":[24.840762,60.322965],"type":"Point"},"properties":{"osm_id":"4772759730","tag":{"amenity":"recycling"}},"type":"Feature"},
	{"geometry":{"coordinates":[24.852695,60.322335],"type":"Point"},"properties":{"osm_id":"4839040996","tag":{"amenity":"recycling","recycling:cardboard":"yes","recycling:glass":"yes","recycling:paper":"yes","recycling:plastic":"yes","recycling:scrap_metal":"yes","recycling_type":"container"}},"type":"Feature"},
	{"geometry":{"coordinates":[24.857076,60.325449],"type":"Point"},"properties":{"highway":"street_lamp","osm_id":"7469447419","tag":{"amenity":"waste_basket"}},"type":"Feature"},
	{"geometry":{"coordinates":[24.856579,60.325217],"type":"Point"},"properties":{"highway":"street_lamp","osm_id":"7469447424","tag":{"amenity":"waste_basket"}},"type":"Feature"},
	{"geometry":{"coordinates":[24.856279,60.32486],"type":"Point"},"properties":{"highway":"street_lamp","osm_id":"7469454764","tag":{"amenity":"waste_basket"}},"type":"Feature"},
	{"geometry":{"coordinates":[24.856429,60.325116],"type":"Point"},"properties":{"highway":"street_lamp","osm_id":"7469454766","tag":{"amenity":"waste_basket"}},"type":"Feature"},
	{"geometry":{"coordinates":[24.855911,60.325208],"type":"Point"},"properties":{"highway":"street_lamp","osm_id":"7469454768","tag":{"amenity":"waste_basket"}},"type":"Feature"},
	{"geometry":{"coordinates":[24.855875,60.32504],"type":"Point"},"properties":{"osm_id":"7469458193","tag":{"amenity":"waste_basket"}},"type":"Feature"},
	{"geometry":{"coordinates":[24.856198,60.324986],"type":"Point"},"properties":{"highway":"street_lamp","osm_id":"7469458201","tag":{"amenity":"waste_basket"}},"type":"Feature"},
	{"geometry":{"coordinates":[24.839069,60.319129],"type":"Point"},"properties":{"osm_id":"8283772665","tag":{"amenity":"recycling","recycling:paper":"yes","recycling_type":"container"}},"type":"Feature"},
	{"geometry":{"coordinates":[24.813302,60.303204],"type":"Point"},"properties":{"osm_id":"8574342284","tag":{"amenity":"waste_basket"}},"type":"Feature"},
	{"geometry":{"coordinates":[24.849561,60.324987],"type":"Point"},"properties":{"osm_id":"8597739118","tag":{"amenity":"waste_basket"}},"type":"Feature"},
	{"geometry":{"coordinates":[24.86978,60.29423],"type":"Point"},"properties":{"osm_id":"8946368741","tag":{"amenity":"waste_basket"}},"type":"Feature"},
	{"geometry":{"coordinates":[24.869828,60.293628],"type":"Point"},"properties":{"osm_id":"9014831986","tag":{"amenity":"waste_basket"}},"type":"Feature"}
]
}
