{
"type": "FeatureCollection",
"features": [
	{"geometry":{"coordinates":[24.802152,60.270723],"type":"Point"},"properties":{"osm_id":"569989396","tag":{"amenity":"recycling","recycling_type":"container"}},"type":"Feature"},
	{"geometry":{"coordinates":[24.861929,60.261345],"type":"Point"},"properties":{"osm_id":"903266675","tag":{"amenity":"waste_basket"}},"type":"Feature"},
	{"geometry":{"coordinates":[24.854201,60.256067],"type":"Point"},"properties":{"osm_id":"903266688","tag":{"amenity":"waste_basket"}},"type":"Feature"},
	{"geometry":{"coordinates":[24.862882,60.258156],"type":"Point"},"properties":{"osm_id":"903266722","tag":{"amenity":"waste_basket"}},"type":"Feature"},
	{"geometry":{"coordinates":[24.871617,60.260765],"type":"Point"},"properties":{"osm_id":"903266754","tag":{"amenity":"waste_basket"}},"type":"Feature"},
	{"geometry":{"coordinates":[24.85421,60.255927],"type":"Point"},"properties":{"osm_id":"903266780","tag":{"amenity":"waste_basket"}},"type":"Feature"},
	{"geometry":{"coordinates":[24.852686,60.255951],"type":"Point"},"properties":{"osm_id":"903266859","tag":{"amenity":"waste_basket"}},"type":"Feature"},
	{"geometry":{"coordinates":[24.862049,60.258052],"type":"Point"},"properties":{"osm_id":"903266969","tag":{"amenity":"waste_basket"}},"type":"Feature"},
	{"geometry":{"coordinates":[24.852381,60.255982],"type":"Point"},"properties":{"osm_id":"903267099","tag":{"amenity":"waste_basket"}},"type":"Feature"},
	{"geometry":{"coordinates":[24.851938,60.256107],"type":"Point"},"properties":{"osm_id":"942483150","tag":{"amenity":"waste_basket"}},"type":"Feature"},
	{"geometry":{"coordinates":[24.854425,60.261016],"type":"Point"},"properties":{"osm_id":"942536999","tag":{"amenity":"waste_basket"}},"type":"Feature"},
	{"geometry":{"coordinates":[24.852886,60.256098],"type":"Point"},"properties":{"osm_id":"943692359","tag":{"amenity":"waste_basket"}},"type":"Feature"},
	{"geometry":{"coordinates":[24.841267,60.248096],"type":"Point"},"properties":{"osm_id":"1243336907","tag":{"amenity":"waste_basket"}},"type":"Feature"},
	{"geometry":{"coordinates":[24.840925,60.247816],"type":"Point"},"properties":{"osm_id":"1243337003","tag":{"amenity":"waste_basket"}},"type":"Feature"},
	{"geometry":{"coordinates":[24.841505,60.248022],"type":"Point"},"properties":{"osm_id":"1243337102","tag":{"amenity":"waste_basket"}},"type":"Feature"},
	{"geometry":{"coordinates":[24.828958,60.240452],"type":"Point"},"properties":{"osm_id":"1275586760","tag":{"amenity":"recycling","recycling:paper":"yes","recycling_type":"container"}},"type":"Feature"},
	{"geometry":{"coordinates":[24.853248,60.260037],"type":"Point"},"properties":{"name":"Pullonpalautus","osm_id":"1281204302","tag":{"amenity":"recycling","level":"-1","recycling:beverage_can":"yes","recycling:glass_bottles":"yes","recycling:plastic_bottles":"yes","recycling_type":"container"}},"type":"Feature"},
	{"geometry":{"coordinates":[24.809897,60.249068],"type":"Point"},"properties":{"osm_id":"1298611416","tag":{"amenity":"recycling","recycling:paper":"yes"}},"type":"Feature"},
	{"geometry":{"coordinates":[24.838257,60.274887],"type":"Point"},"properties":{"osm_id":"1368174062","tag":{"amenity":"waste_basket"}},"type":"Feature"},
	{"geometry":{"coordinates":[24.85925,60.251742],"type":"Point"},"properties":{"osm_id":"1392049581","tag":{"amenity":"waste_basket"}},"type":"Feature"},
	{"geometry":{"coordinates":[24.858139,60.257821],"type":"Point"},"properties":{"osm_id":"1392381451","tag":{"amenity":"waste_basket"}},"type":"Feature"},
	{"geometry":{"coordinates":[24.843294,60.25152],"type":"Point"},"properties":{"osm_id":"1420192595","tag":{"amenity":"waste_basket"}},"type":"Feature"},
	{"geometry":{"coordinates":[24.857736,60.245332],"type":"Point"},"properties":{"man_made":"support_pilar","osm_id":"1420230032","tag":{"amenity":"waste_basket"}},"type":"Feature"},
	{"geometry":{"coordinates":[24.857107,60.245149],"type":"Point"},"properties":{"man_made":"support_pilar","osm_id":"1420230034","tag":{"amenity":"waste_basket"}},"type":"Feature"},
	{"geometry":{"coordinates":[24.853125,60.251068],"type":"Point"},"properties":{"osm_id":"1421894378","tag":{"amenity":"waste_basket"}},"type":"Feature"},
	{"geometry":{"coordinates":[24.855736,60.243814],"type":"Point"},"properties":{"osm_id":"1511536832","tag":{"amenity":"waste_basket"}},"type":"Feature"},
	{"geometry":{"coordinates":[24.856548,60.257679],"type":"Point"},"properties":{"osm_id":"1601025374","tag":{"amenity":"waste_basket"}},"type":"Feature"},
	{"geometry":{"coordinates":[24.857716,60.258231],"type":"Point"},"properties":{"osm_id":"1601083606","tag":{"amenity":"waste_basket"}},"type":"Feature"},
	{"geometry":{"coordinates":[24.862342,60.248483],"type":"Point"},"properties":{"osm_id":"1606531913","tag":{"amenity":"waste_basket"}},"type":"Feature"},
	{"geometry":{"coordinates":[24.860348,60.246598],"type":"Point"},"properties":{"osm_id":"1610439651","tag":{"amenity":"waste_basket"}},"type":"Feature"},
	{"geometry":{"coordinates":[24.856633,60.257659],"type":"Point"},"properties":{"osm_id":"1613946026","tag":{"access":"private","amenity":"waste_disposal"}},"type":"Feature"},
	{"geometry":{"coordinates":[24.849478,60.253365],"type":"Point"},"properties":{"osm_id":"1636570321","tag":{"amenity":"waste_basket"}},"type":"Feature"},
	{"geometry":{"coordinates":[24.848195,60.253711],"type":"Point"},"properties":{"osm_id":"1636573926","tag":{"amenity":"waste_basket"}},"type":"Feature"},
	{"geometry":{"coordinates":[24.861061,60.258066],"type":"Point"},"properties":{"osm_id":"1645781719","tag":{"amenity":"waste_basket"}},"type":"Feature"},
	{"geometry":{"coordinates":[24.856917,60.257745],"type":"Point"},"properties":{"osm_id":"1645789274","tag":{"amenity":"waste_basket"}},"type":"Feature"},
	{"geometry":{"coordinates":[24.825658,60.25639],"type":"Point"},"properties":{"osm_id":"1647071230","tag":{"amenity":"waste_basket"}},"type":"Feature"},
	{"geometry":{"coordinates":[24.829135,60.258776],"type":"Point"},"properties":{"osm_id":"1647083003","tag":{"amenity":"waste_basket"}},"type":"Feature"},
	{"geometry":{"coordinates":[24.829241,60.258348],"type":"Point"},"properties":{"osm_id":"1647102461","tag":{"amenity":"waste_basket"}},"type":"Feature"},
	{"geometry":{"coordinates":[24.829386,60.258837],"type":"Point"},"properties":{"osm_id":"1647106541","tag":{"amenity":"waste_basket"}},"type":"Feature"},
	{"geometry":{"coordinates":[24.826218,60.268544],"type":"Point"},"properties":{"osm_id":"1647196871","tag":{"amenity":"recycling","recycling:newspaper":"yes","recycling:paper":"yes","recycling_type":"container"}},"type":"Feature"},
	{"geometry":{"coordinates":[24.841442,60.263523],"type":"Point"},"properties":{"osm_id":"1648232372","tag":{"amenity":"waste_basket"}},"type":"Feature"},
	{"geometry":{"coordinates":[24.841737,60.263236],"type":"Point"},"properties":{"osm_id":"1648232892","tag":{"amenity":"waste_basket"}},"type":"Feature"},
	{"geometry":{"coordinates":[24.848671,60.254243],"type":"Point"},"properties":{"osm_id":"1651883246","tag":{"amenity":"waste_basket"}},"type":"Feature"},
	{"geometry":{"coordinates":[24.848642,60.267253],"type":"Point"},"properties":{"osm_id":"1670554146","tag":{"amenity":"waste_basket"}},"type":"Feature"},
	{"geometry":{"coordinates":[24.84904,60.269966],"type":"Point"},"properties":{"osm_id":"1672230267","tag":{"amenity":"waste_basket"}},"type":"Feature"},
	{"geometry":{"coordinates":[24.848954,60.269962],"type":"Point"},"properties":{"osm_id":"1672230275","tag":{"amenity":"waste_basket"}},"type":"Feature"},
	{"geometry":{"coordinates":[24.848839,60.269962],"type":"Point"},"properties":{"osm_id":"1672230280","tag":{"amenity":"waste_basket"}},"type":"Feature"},
	{"geometry":{"coordinates":[24.847119,60.269716],"type":"Point"},"properties":{"osm_id":"1672237842","tag":{"amenity":"waste_basket"}},"type":"Feature"},
	{"geometry":{"coordinates":[24.852852,60.270126],"type":"Point"},"properties":{"osm_id":"1672243339","tag":{"amenity":"waste_basket"}},"type":"Feature"},
	{"geometry":{"coordinates":[24.861839,60.25569],"type":"Point"},"properties":{"osm_id":"1675769606","tag":{"amenity":"waste_basket"}},"type":"Feature"},
	{"geometry":{"coordinates":[24.848506,60.254362],"type":"Point"},"properties":{"osm_id":"1678431472","tag":{"amenity":"waste_basket"}},"type":"Feature"},
	{"geometry":{"coordinates":[24.848108,60.253402],"type":"Point"},"properties":{"osm_id":"1678447865","tag":{"amenity":"waste_basket"}},"type":"Feature"},
	{"geometry":{"coordinates":[24.849459,60.254056],"type":"Point"},"properties":{"osm_id":"1678459561","tag":{"amenity":"waste_basket"}},"type":"Feature"},
	{"geometry":{"coordinates":[24.850122,60.254127],"type":"Point"},"properties":{"osm_id":"1678466449","tag":{"amenity":"waste_basket"}},"type":"Feature"},
	{"geometry":{"coordinates":[24.860821,60.259561],"type":"Point"},"properties":{"osm_id":"1700995313","tag":{"amenity":"waste_basket"}},"type":"Feature"},
	{"geometry":{"coordinates":[24.852543,60.251973],"type":"Point"},"properties":{"highway":"street_lamp","osm_id":"1725445782","tag":{"amenity":"waste_basket","traffic_sign":"FI:645[Vandalized]"}},"type":"Feature"},
	{"geometry":{"coordinates":[24.851928,60.252131],"type":"Point"},"properties":{"highway":"street_lamp","osm_id":"1725445783","tag":{"amenity":"waste_basket","traffic_sign":"FI:423","traffic_sign:2":"FI:871[Tontille ajo sallittu]","traffic_sign:bug":"FI:423+tontille ajo sallittu"}},"type":"Feature"},
	{"geometry":{"coordinates":[24.857839,60.261483],"type":"Point"},"properties":{"osm_id":"1726199689","tag":{"amenity":"waste_basket"}},"type":"Feature"},
	{"geometry":{"coordinates":[24.843898,60.261983],"type":"Point"},"properties":{"osm_id":"1735468693","tag":{"amenity":"waste_basket"}},"type":"Feature"},
	{"geometry":{"coordinates":[24.849336,60.250117],"type":"Point"},"properties":{"osm_id":"1736577593","tag":{"amenity":"waste_basket","traffic_sign":"FI:423"}},"type":"Feature"},
	{"geometry":{"coordinates":[24.850438,60.247624],"type":"Point"},"properties":{"osm_id":"1736580025","tag":{"amenity":"waste_basket"}},"type":"Feature"},
	{"geometry":{"coordinates":[24.855312,60.258636],"type":"Point"},"properties":{"osm_id":"1747688388","tag":{"amenity":"waste_basket"}},"type":"Feature"},
	{"geometry":{"coordinates":[24.853399,60.261002],"type":"Point"},"properties":{"osm_id":"1747695387","tag":{"amenity":"waste_basket"}},"type":"Feature"},
	{"geometry":{"coordinates":[24.856551,60.251025],"type":"Point"},"properties":{"osm_id":"1748494055","tag":{"amenity":"waste_basket"}},"type":"Feature"},
	{"geometry":{"coordinates":[24.857649,60.244544],"type":"Point"},"properties":{"osm_id":"1759720532","tag":{"amenity":"waste_basket"}},"type":"Feature"},
	{"geometry":{"coordinates":[24.85842,60.257707],"type":"Point"},"properties":{"osm_id":"1767690070","tag":{"amenity":"waste_basket"}},"type":"Feature"},
	{"geometry":{"coordinates":[24.858312,60.257552],"type":"Point"},"properties":{"osm_id":"1767690096","tag":{"amenity":"waste_basket"}},"type":"Feature"},
	{"geometry":{"coordinates":[24.807008,60.256625],"type":"Point"},"properties":{"name":"Vaateker\u00c3\u00a4ys","osm_id":"1769423788","tag":{"amenity":"recycling","recycling:clothes":"yes","recycling_type":"container"}},"type":"Feature"},
	{"geometry":{"coordinates":[24.852705,60.262716],"type":"Point"},"properties":{"osm_id":"1772774816","tag":{"amenity":"waste_basket"}},"type":"Feature"},
	{"geometry":{"coordinates":[24.852574,60.262741],"type":"Point"},"properties":{"osm_id":"1772774829","tag":{"amenity":"waste_basket"}},"type":"Feature"},
	{"geometry":{"coordinates":[24.852485,60.262708],"type":"Point"},"properties":{"osm_id":"1772788331","tag":{"amenity":"waste_basket"}},"type":"Feature"},
	{"geometry":{"coordinates":[24.852434,60.262773],"type":"Point"},"properties":{"osm_id":"1772788334","tag":{"amenity":"waste_basket"}},"type":"Feature"},
	{"geometry":{"coordinates":[24.854811,60.255694],"type":"Point"},"properties":{"osm_id":"1858298376","tag":{"amenity":"waste_basket"}},"type":"Feature"},
	{"geometry":{"coordinates":[24.843027,60.243097],"type":"Point"},"properties":{"osm_id":"1879705450","tag":{"amenity":"recycling","recycling:paper":"yes","recycling_type":"container"}},"type":"Feature"},
	{"geometry":{"coordinates":[24.856603,60.27119],"type":"Point"},"properties":{"name":"Kierr\u00c3\u00a4tyspiste, Er\u00c3\u00a4kuja 1A","osm_id":"1885227091","tag":{"addr:city":"Vantaa","addr:housenumber":"1A","addr:street":"Er\u00c3\u00a4kuja","amenity":"recycling","recycling:batteries":"no","recycling:books":"no","recycling:cans":"yes","recycling:cardboard":"yes","recycling:cartons":"yes","recycling:clothes":"yes","recycling:electrical_appliances":"no","recycling:glass":"yes","recycling:glass_bottles":"yes","recycling:green_waste":"no","recycling:magazines":"yes","recycling:newspaper":"yes","recycling:paper":"yes","recycling:paper_packaging":"yes","recycling:plastic":"no","recycling:plastic_bottles":"no","recycling:plastic_packaging":"no","recycling:scrap_metal":"yes","recycling:small_appliances":"no","recycling:waste":"no","recycling:wood":"no","recycling_type":"container"}},"type":"Feature"},
	{"geometry":{"coordinates":[24.861209,60.278819],"type":"Point"},"properties":{"osm_id":"1885625140","tag":{"amenity":"recycling","recycling_type":"container"}},"type":"Feature"},
	{"geometry":{"coordinates":[24.83589,60.259482],"type":"Point"},"properties":{"osm_id":"1902248956","tag":{"amenity":"waste_basket"}},"type":"Feature"},
	{"geometry":{"coordinates":[24.867124,60.250939],"type":"Point"},"properties":{"osm_id":"1915101987","tag":{"amenity":"recycling","recycling_type":"container"}},"type":"Feature"},
	{"geometry":{"coordinates":[24.847924,60.247095],"type":"Point"},"properties":{"osm_id":"1951104445","tag":{"amenity":"waste_basket"}},"type":"Feature"},
	{"geometry":{"coordinates":[24.85374,60.262718],"type":"Point"},"properties":{"osm_id":"1960950398","tag":{"amenity":"waste_basket"}},"type":"Feature"},
	{"geometry":{"coordinates":[24.86414,60.248172],"type":"Point"},"properties":{"osm_id":"1962236030","tag":{"amenity":"waste_basket"}},"type":"Feature"},
	{"geometry":{"coordinates":[24.857196,60.25902],"type":"Point"},"properties":{"osm_id":"1976337848","tag":{"amenity":"waste_basket"}},"type":"Feature"},
	{"geometry":{"coordinates":[24.851786,60.26544],"type":"Point"},"properties":{"osm_id":"1985388881","tag":{"amenity":"waste_basket"}},"type":"Feature"},
	{"geometry":{"coordinates":[24.850827,60.246485],"type":"Point"},"properties":{"osm_id":"1988536059","tag":{"amenity":"waste_basket"}},"type":"Feature"},
	{"geometry":{"coordinates":[24.849003,60.251005],"type":"Point"},"properties":{"osm_id":"1988537812","tag":{"amenity":"waste_basket"}},"type":"Feature"},
	{"geometry":{"coordinates":[24.848778,60.253675],"type":"Point"},"properties":{"osm_id":"1996918849","tag":{"amenity":"waste_basket"}},"type":"Feature"},
	{"geometry":{"coordinates":[24.853804,60.262752],"type":"Point"},"properties":{"osm_id":"1999014139","tag":{"amenity":"waste_basket"}},"type":"Feature"},
	{"geometry":{"coordinates":[24.854963,60.262583],"type":"Point"},"properties":{"highway":"street_lamp","osm_id":"1999014141","tag":{"amenity":"waste_basket"}},"type":"Feature"},
	{"geometry":{"coordinates":[24.854998,60.262357],"type":"Point"},"properties":{"highway":"street_lamp","osm_id":"1999014143","tag":{"amenity":"waste_basket"}},"type":"Feature"},
	{"geometry":{"coordinates":[24.853176,60.248658],"type":"Point"},"properties":{"osm_id":"1999021970","tag":{"amenity":"waste_basket"}},"type":"Feature"},
	{"geometry":{"coordinates":[24.851253,60.249733],"type":"Point"},"properties":{"osm_id":"1999021974","tag":{"amenity":"waste_basket"}},"type":"Feature"},
	{"geometry":{"coordinates":[24.852186,60.247994],"type":"Point"},"properties":{"osm_id":"1999021977","tag":{"amenity":"waste_basket"}},"type":"Feature"},
	{"geometry":{"coordinates":[24.850433,60.249106],"type":"Point"},"properties":{"osm_id":"1999021978","tag":{"amenity":"waste_basket"}},"type":"Feature"},
	{"geometry":{"coordinates":[24.852572,60.248885],"type":"Point"},"properties":{"osm_id":"1999021980","tag":{"amenity":"waste_basket"}},"type":"Feature"},
	{"geometry":{"coordinates":[24.854946,60.246083],"type":"Point"},"properties":{"osm_id":"1999026640","tag":{"amenity":"waste_basket"}},"type":"Feature"},
	{"geometry":{"coordinates":[24.851314,60.260262],"type":"Point"},"properties":{"highway":"street_lamp","osm_id":"2006871898","tag":{"amenity":"waste_basket"}},"type":"Feature"},
	{"geometry":{"coordinates":[24.851296,60.260525],"type":"Point"},"properties":{"highway":"street_lamp","osm_id":"2006871907","tag":{"amenity":"waste_basket"}},"type":"Feature"},
	{"geometry":{"coordinates":[24.846755,60.258881],"type":"Point"},"properties":{"osm_id":"2006895704","tag":{"amenity":"waste_basket"}},"type":"Feature"},
	{"geometry":{"coordinates":[24.846119,60.259191],"type":"Point"},"properties":{"osm_id":"2006896376","tag":{"amenity":"waste_basket"}},"type":"Feature"},
	{"geometry":{"coordinates":[24.863096,60.242493],"type":"Point"},"properties":{"osm_id":"2007030156","tag":{"amenity":"waste_basket"}},"type":"Feature"},
	{"geometry":{"coordinates":[24.855533,60.241941],"type":"Point"},"properties":{"osm_id":"2007032221","tag":{"amenity":"waste_basket"}},"type":"Feature"},
	{"geometry":{"coordinates":[24.870761,60.24523],"type":"Point"},"properties":{"osm_id":"2007036750","tag":{"amenity":"waste_basket"}},"type":"Feature"},
	{"geometry":{"coordinates":[24.867412,60.2429],"type":"Point"},"properties":{"osm_id":"2007036762","tag":{"amenity":"waste_basket","traffic_sign":"FI:511"}},"type":"Feature"},
	{"geometry":{"coordinates":[24.864281,60.249132],"type":"Point"},"properties":{"osm_id":"2007044021","tag":{"amenity":"waste_basket","traffic_sign":"FI:423"}},"type":"Feature"},
	{"geometry":{"coordinates":[24.858624,60.258571],"type":"Point"},"properties":{"osm_id":"2018571048","tag":{"amenity":"waste_basket"}},"type":"Feature"},
	{"geometry":{"coordinates":[24.857409,60.258524],"type":"Point"},"properties":{"osm_id":"2018571050","tag":{"amenity":"waste_basket"}},"type":"Feature"},
	{"geometry":{"coordinates":[24.858163,60.258603],"type":"Point"},"properties":{"osm_id":"2018575409","tag":{"amenity":"waste_basket"}},"type":"Feature"},
	{"geometry":{"coordinates":[24.852938,60.263044],"type":"Point"},"properties":{"osm_id":"2018608342","tag":{"amenity":"waste_basket"}},"type":"Feature"},
	{"geometry":{"coordinates":[24.852836,60.263041],"type":"Point"},"properties":{"osm_id":"2018608343","tag":{"amenity":"waste_basket"}},"type":"Feature"},
	{"geometry":{"coordinates":[24.853096,60.263048],"type":"Point"},"properties":{"osm_id":"2018608344","tag":{"amenity":"waste_basket"}},"type":"Feature"},
	{"geometry":{"coordinates":[24.852728,60.263061],"type":"Point"},"properties":{"osm_id":"2018608345","tag":{"amenity":"waste_basket"}},"type":"Feature"},
	{"geometry":{"coordinates":[24.852337,60.263201],"type":"Point"},"properties":{"osm_id":"2018609573","tag":{"amenity":"waste_basket"}},"type":"Feature"},
	{"geometry":{"coordinates":[24.853294,60.261005],"type":"Point"},"properties":{"osm_id":"2018612167","tag":{"amenity":"waste_basket"}},"type":"Feature"},
	{"geometry":{"coordinates":[24.852981,60.261284],"type":"Point"},"properties":{"highway":"street_lamp","osm_id":"2018612168","tag":{"amenity":"waste_basket"}},"type":"Feature"},
	{"geometry":{"coordinates":[24.853096,60.261182],"type":"Point"},"properties":{"highway":"street_lamp","osm_id":"2018616536","tag":{"amenity":"waste_basket"}},"type":"Feature"},
	{"geometry":{"coordinates":[24.853206,60.261072],"type":"Point"},"properties":{"highway":"street_lamp","osm_id":"2018616537","tag":{"amenity":"waste_basket"}},"type":"Feature"},
	{"geometry":{"coordinates":[24.853415,60.259349],"type":"Point"},"properties":{"highway":"street_lamp","osm_id":"2019590484","tag":{"amenity":"waste_basket"}},"type":"Feature"},
	{"geometry":{"coordinates":[24.853498,60.259472],"type":"Point"},"properties":{"osm_id":"2019590501","tag":{"amenity":"waste_basket"}},"type":"Feature"},
	{"geometry":{"coordinates":[24.853282,60.25967],"type":"Point"},"properties":{"osm_id":"2019711080","tag":{"amenity":"waste_basket"}},"type":"Feature"},
	{"geometry":{"coordinates":[24.853458,60.259682],"type":"Point"},"properties":{"osm_id":"2019711085","tag":{"amenity":"waste_basket"}},"type":"Feature"},
	{"geometry":{"coordinates":[24.852797,60.248147],"type":"Point"},"properties":{"osm_id":"2021462865","tag":{"amenity":"waste_basket"}},"type":"Feature"},
	{"geometry":{"coordinates":[24.849276,60.247822],"type":"Point"},"properties":{"osm_id":"2021488817","tag":{"amenity":"waste_basket"}},"type":"Feature"},
	{"geometry":{"coordinates":[24.848753,60.247969],"type":"Point"},"properties":{"osm_id":"2021495989","tag":{"amenity":"waste_disposal"}},"type":"Feature"},
	{"geometry":{"coordinates":[24.849547,60.24644],"type":"Point"},"properties":{"highway":"street_lamp","osm_id":"2021509427","tag":{"amenity":"waste_basket","traffic_sign":"FI:423"}},"type":"Feature"},
	{"geometry":{"coordinates":[24.849008,60.246145],"type":"Point"},"properties":{"osm_id":"2021510732","tag":{"amenity":"waste_basket"}},"type":"Feature"},
	{"geometry":{"coordinates":[24.849279,60.245682],"type":"Point"},"properties":{"osm_id":"2021510733","tag":{"amenity":"waste_basket","traffic_sign":"FI:511","traffic_sign:2":"FI:423"}},"type":"Feature"},
	{"geometry":{"coordinates":[24.846727,60.244336],"type":"Point"},"properties":{"osm_id":"2021512808","tag":{"amenity":"waste_basket"}},"type":"Feature"},
	{"geometry":{"coordinates":[24.846815,60.244016],"type":"Point"},"properties":{"osm_id":"2021513547","tag":{"amenity":"waste_basket"}},"type":"Feature"},
	{"geometry":{"coordinates":[24.852439,60.249533],"type":"Point"},"properties":{"osm_id":"2022892819","tag":{"amenity":"waste_basket"}},"type":"Feature"},
	{"geometry":{"coordinates":[24.854809,60.246293],"type":"Point"},"properties":{"osm_id":"2022892829","tag":{"amenity":"waste_basket"}},"type":"Feature"},
	{"geometry":{"coordinates":[24.852321,60.249882],"type":"Point"},"properties":{"osm_id":"2022892832","tag":{"amenity":"waste_basket"}},"type":"Feature"},
	{"geometry":{"coordinates":[24.853683,60.249522],"type":"Point"},"properties":{"osm_id":"2022892834","tag":{"amenity":"waste_basket"}},"type":"Feature"},
	{"geometry":{"coordinates":[24.853061,60.24954],"type":"Point"},"properties":{"osm_id":"2022892848","tag":{"amenity":"waste_basket"}},"type":"Feature"},
	{"geometry":{"coordinates":[24.848361,60.25044],"type":"Point"},"properties":{"osm_id":"2031372221","tag":{"amenity":"waste_basket","traffic_sign":"FI:521","traffic_sign:2":"FI:856b[6 h]"}},"type":"Feature"},
	{"geometry":{"coordinates":[24.840195,60.248086],"type":"Point"},"properties":{"osm_id":"2031698789","tag":{"amenity":"waste_basket"}},"type":"Feature"},
	{"geometry":{"coordinates":[24.849031,60.253788],"type":"Point"},"properties":{"osm_id":"2036650175","tag":{"amenity":"waste_basket"}},"type":"Feature"},
	{"geometry":{"coordinates":[24.860758,60.255415],"type":"Point"},"properties":{"osm_id":"2108701915","tag":{"amenity":"waste_basket"}},"type":"Feature"},
	{"geometry":{"coordinates":[24.861532,60.2557],"type":"Point"},"properties":{"osm_id":"2108701918","tag":{"amenity":"waste_basket"}},"type":"Feature"},
	{"geometry":{"coordinates":[24.857798,60.247004],"type":"Point"},"properties":{"osm_id":"2127558909","tag":{"amenity":"waste_basket"}},"type":"Feature"},
	{"geometry":{"coordinates":[24.851302,60.248348],"type":"Point"},"properties":{"osm_id":"2199881405","tag":{"amenity":"waste_basket"}},"type":"Feature"},
	{"geometry":{"coordinates":[24.851693,60.248854],"type":"Point"},"properties":{"osm_id":"2199881410","tag":{"amenity":"waste_basket"}},"type":"Feature"},
	{"geometry":{"coordinates":[24.851192,60.248384],"type":"Point"},"properties":{"osm_id":"2199881415","tag":{"amenity":"waste_basket"}},"type":"Feature"},
	{"geometry":{"coordinates":[24.851498,60.248386],"type":"Point"},"properties":{"osm_id":"2199881419","tag":{"amenity":"waste_basket"}},"type":"Feature"},
	{"geometry":{"coordinates":[24.863711,60.258565],"type":"Point"},"properties":{"osm_id":"2216617886","tag":{"amenity":"waste_basket"}},"type":"Feature"},
	{"geometry":{"coordinates":[24.861881,60.263446],"type":"Point"},"properties":{"osm_id":"2216992916","tag":{"amenity":"waste_basket"}},"type":"Feature"},
	{"geometry":{"coordinates":[24.85988,60.262848],"type":"Point"},"properties":{"osm_id":"2217002409","tag":{"amenity":"waste_basket"}},"type":"Feature"},
	{"geometry":{"coordinates":[24.859837,60.261703],"type":"Point"},"properties":{"osm_id":"2217002412","tag":{"amenity":"waste_basket"}},"type":"Feature"},
	{"geometry":{"coordinates":[24.85981,60.261434],"type":"Point"},"properties":{"osm_id":"2217002417","tag":{"amenity":"waste_basket"}},"type":"Feature"},
	{"geometry":{"coordinates":[24.855294,60.261759],"type":"Point"},"properties":{"osm_id":"2217002418","tag":{"amenity":"waste_basket"}},"type":"Feature"},
	{"geometry":{"coordinates":[24.860223,60.263486],"type":"Point"},"properties":{"osm_id":"2217002431","tag":{"amenity":"waste_basket"}},"type":"Feature"},
	{"geometry":{"coordinates":[24.859097,60.261323],"type":"Point"},"properties":{"osm_id":"2217002434","tag":{"amenity":"waste_basket"}},"type":"Feature"},
	{"geometry":{"coordinates":[24.856814,60.26159],"type":"Point"},"properties":{"osm_id":"2217002435","tag":{"amenity":"waste_basket"}},"type":"Feature"},
	{"geometry":{"coordinates":[24.86129,60.261386],"type":"Point"},"properties":{"osm_id":"2309967672","tag":{"amenity":"waste_basket"}},"type":"Feature"},
	{"geometry":{"coordinates":[24.847359,60.265371],"type":"Point"},"properties":{"osm_id":"2314676641","tag":{"amenity":"waste_basket"}},"type":"Feature"},
	{"geometry":{"coordinates":[24.859622,60.251848],"type":"Point"},"properties":{"osm_id":"2318211864","tag":{"amenity":"waste_basket"}},"type":"Feature"},
	{"geometry":{"coordinates":[24.829086,60.243009],"type":"Point"},"properties":{"osm_id":"2717501584","tag":{"amenity":"waste_basket"}},"type":"Feature"},
	{"geometry":{"coordinates":[24.824671,60.240877],"type":"Point"},"properties":{"osm_id":"2717525643","tag":{"amenity":"waste_basket"}},"type":"Feature"},
	{"geometry":{"coordinates":[24.830835,60.245504],"type":"Point"},"properties":{"osm_id":"2717527835","tag":{"amenity":"waste_basket"}},"type":"Feature"},
	{"geometry":{"coordinates":[24.854055,60.243867],"type":"Point"},"properties":{"osm_id":"3128787133","tag":{"amenity":"waste_basket"}},"type":"Feature"},
	{"geometry":{"coordinates":[24.854368,60.243324],"type":"Point"},"properties":{"osm_id":"3128787134","tag":{"amenity":"waste_basket"}},"type":"Feature"},
	{"geometry":{"coordinates":[24.843814,60.251276],"type":"Point"},"properties":{"osm_id":"3354810659","tag":{"amenity":"waste_basket"}},"type":"Feature"},
	{"geometry":{"coordinates":[24.843993,60.251098],"type":"Point"},"properties":{"osm_id":"3354810660","tag":{"amenity":"waste_basket"}},"type":"Feature"},
	{"geometry":{"coordinates":[24.866693,60.252007],"type":"Point"},"properties":{"osm_id":"3390763677","tag":{"amenity":"waste_basket"}},"type":"Feature"},
	{"geometry":{"coordinates":[24.856122,60.244919],"type":"Point"},"properties":{"osm_id":"3397114151","tag":{"amenity":"waste_basket"}},"type":"Feature"},
	{"geometry":{"coordinates":[24.851722,60.251409],"type":"Point"},"properties":{"osm_id":"3412521622","tag":{"amenity":"waste_basket"}},"type":"Feature"},
	{"geometry":{"coordinates":[24.865185,60.239871],"type":"Point"},"properties":{"osm_id":"3412736787","tag":{"amenity":"waste_basket"}},"type":"Feature"},
	{"geometry":{"coordinates":[24.858325,60.247619],"type":"Point"},"properties":{"osm_id":"3445396112","tag":{"amenity":"waste_basket","traffic_sign":"FI:423"}},"type":"Feature"},
	{"geometry":{"coordinates":[24.852614,60.255567],"type":"Point"},"properties":{"osm_id":"3463122659","tag":{"amenity":"waste_basket"}},"type":"Feature"},
	{"geometry":{"coordinates":[24.851404,60.255794],"type":"Point"},"properties":{"osm_id":"3477138554","tag":{"amenity":"waste_basket"}},"type":"Feature"},
	{"geometry":{"coordinates":[24.855634,60.252779],"type":"Point"},"properties":{"osm_id":"3539771592","tag":{"traffic_sign":"FI:871[Yksityisalue L\u00c3\u00a4pikulku kielletty]"}},"type":"Feature"},
	{"geometry":{"coordinates":[24.855317,60.252894],"type":"Point"},"properties":{"osm_id":"3539774197","tag":{"traffic_sign":"FI:871[VVO Koskustie 4]"}},"type":"Feature"},
	{"geometry":{"coordinates":[24.854915,60.260118],"type":"Point"},"properties":{"osm_id":"3541788716","tag":{"amenity":"waste_basket"}},"type":"Feature"},
	{"geometry":{"coordinates":[24.855011,60.244838],"type":"Point"},"properties":{"osm_id":"3635601212","tag":{"traffic_sign":"FI:871[Yksityisalue L\u00c3\u00a4pikulku kielletty]"}},"type":"Feature"},
	{"geometry":{"coordinates":[24.846474,60.245111],"type":"Point"},"properties":{"osm_id":"3656697398","tag":{"amenity":"waste_basket"}},"type":"Feature"},
	{"geometry":{"coordinates":[24.840045,60.243609],"type":"Point"},"properties":{"osm_id":"3684702111","tag":{"amenity":"waste_basket","traffic_sign":"FI:511"}},"type":"Feature"},
	{"geometry":{"coordinates":[24.859279,60.247067],"type":"Point"},"properties":{"osm_id":"3686196425","tag":{"amenity":"waste_basket"}},"type":"Feature"},
	{"geometry":{"coordinates":[24.869448,60.2552],"type":"Point"},"properties":{"osm_id":"3720270025","tag":{"amenity":"waste_basket"}},"type":"Feature"},
	{"geometry":{"coordinates":[24.869412,60.255087],"type":"Point"},"properties":{"osm_id":"3720270037","tag":{"amenity":"waste_basket"}},"type":"Feature"},
	{"geometry":{"coordinates":[24.856908,60.265774],"type":"Point"},"properties":{"name":"Alueellinen ker\u00c3\u00a4yspiste (paperi)","osm_id":"3737502930","tag":{"addr:housenumber":"10","addr:street":"Ojahaantie","amenity":"recycling","recycling:magazines":"yes","recycling:newspaper":"yes","recycling:paper":"yes","recycling:paper_packaging":"yes","recycling_type":"container"}},"type":"Feature"},
	{"geometry":{"coordinates":[24.845167,60.281523],"type":"Point"},"properties":{"name":"Alueellinen kierr\u00c3\u00a4tyspiste,","osm_id":"3737504842","tag":{"addr:city":"Vantaa","addr:housenumber":"2","addr:street":"Laajavuorenkuja","amenity":"recycling","recycling:cardboard":"yes","recycling:clothes":"yes","recycling:glass":"yes","recycling:glass_bottles":"yes","recycling:magazines":"yes","recycling:newspaper":"yes","recycling:paper":"yes","recycling:paper_packaging":"yes","recycling:scrap_metal":"yes","recycling_type":"container"}},"type":"Feature"},
	{"geometry":{"coordinates":[24.860297,60.256416],"type":"Point"},"properties":{"highway":"street_lamp","osm_id":"3740501703","tag":{"amenity":"waste_basket"}},"type":"Feature"},
	{"geometry":{"coordinates":[24.859367,60.255878],"type":"Point"},"properties":{"highway":"street_lamp","osm_id":"3740501707","tag":{"amenity":"waste_basket"}},"type":"Feature"},
	{"geometry":{"coordinates":[24.846906,60.244891],"type":"Point"},"properties":{"osm_id":"3742555404","tag":{"amenity":"waste_basket"}},"type":"Feature"},
	{"geometry":{"coordinates":[24.861363,60.247472],"type":"Point"},"properties":{"osm_id":"3744016287","tag":{"amenity":"waste_basket"}},"type":"Feature"},
	{"geometry":{"coordinates":[24.861438,60.247314],"type":"Point"},"properties":{"osm_id":"3744016288","tag":{"amenity":"waste_basket"}},"type":"Feature"},
	{"geometry":{"coordinates":[24.861567,60.247134],"type":"Point"},"properties":{"osm_id":"3744016289","tag":{"amenity":"waste_basket"}},"type":"Feature"},
	{"geometry":{"coordinates":[24.859011,60.25144],"type":"Point"},"properties":{"osm_id":"3744016290","tag":{"amenity":"waste_basket"}},"type":"Feature"},
	{"geometry":{"coordinates":[24.858479,60.251729],"type":"Point"},"properties":{"osm_id":"3744016291","tag":{"amenity":"waste_basket"}},"type":"Feature"},
	{"geometry":{"coordinates":[24.857827,60.251725],"type":"Point"},"properties":{"osm_id":"3744016292","tag":{"amenity":"waste_basket"}},"type":"Feature"},
	{"geometry":{"coordinates":[24.857312,60.252228],"type":"Point"},"properties":{"osm_id":"3744016293","tag":{"amenity":"waste_basket"}},"type":"Feature"},
	{"geometry":{"coordinates":[24.856961,60.251833],"type":"Point"},"properties":{"osm_id":"3744016294","tag":{"amenity":"waste_basket"}},"type":"Feature"},
	{"geometry":{"coordinates":[24.856929,60.251934],"type":"Point"},"properties":{"osm_id":"3744016295","tag":{"amenity":"waste_basket"}},"type":"Feature"},
	{"geometry":{"coordinates":[24.857642,60.251915],"type":"Point"},"properties":{"osm_id":"3744016296","tag":{"amenity":"waste_basket"}},"type":"Feature"},
	{"geometry":{"coordinates":[24.850076,60.255858],"type":"Point"},"properties":{"highway":"street_lamp","osm_id":"3757625211","tag":{"amenity":"waste_basket"}},"type":"Feature"},
	{"geometry":{"coordinates":[24.84725,60.246087],"type":"Point"},"properties":{"osm_id":"3775469125","tag":{"amenity":"waste_basket"}},"type":"Feature"},
	{"geometry":{"coordinates":[24.846567,60.245355],"type":"Point"},"properties":{"osm_id":"3790739439","tag":{"amenity":"waste_basket"}},"type":"Feature"},
	{"geometry":{"coordinates":[24.847028,60.245537],"type":"Point"},"properties":{"osm_id":"3790739452","tag":{"amenity":"waste_basket"}},"type":"Feature"},
	{"geometry":{"coordinates":[24.826769,60.258682],"type":"Point"},"properties":{"name":"Kierr\u00c3\u00a4tyspiste, Piikkikuja / Sahapolku","osm_id":"3822723963","tag":{"addr:city":"Vantaa","addr:postcode":"01650","addr:street":"Piikkikuja","amenity":"recycling","recycling:cardboard":"yes","recycling:cartons":"yes","recycling:clothes":"yes","recycling:glass":"yes","recycling:glass_bottles":"yes","recycling:magazines":"yes","recycling:newspaper":"yes","recycling:paper":"yes","recycling:paper_packaging":"yes","recycling:scrap_metal":"yes","recycling_type":"container"}},"type":"Feature"},
	{"geometry":{"coordinates":[24.826539,60.25617],"type":"Point"},"properties":{"name":"Vaarallisten j\u00c3\u00a4tteiden ker\u00c3\u00a4yspiste, Vapaalantie 1","osm_id":"3822729067","tag":{"addr:city":"Vantaa","addr:housenumber":"1","addr:postcode":"01650","addr:street":"Vapaalantie","amenity":"recycling","recycling:batteries":"yes","recycling:electrical_appliances":"yes","recycling:small_appliances":"yes","recycling_type":"container"}},"type":"Feature"},
	{"geometry":{"coordinates":[24.819319,60.258594],"type":"Point"},"properties":{"name":"Alueellinen ker\u00c3\u00a4yspiste, Ilpolankuja 1 ","osm_id":"3822739609","tag":{"addr:city":"Vantaa","addr:housenumber":"2","addr:postcode":"01650","addr:street":"Ilpolankuja","amenity":"recycling","recycling:magazines":"yes","recycling:newspaper":"yes","recycling:paper":"yes","recycling:paper_packaging":"yes","recycling_type":"container"}},"type":"Feature"},
	{"geometry":{"coordinates":[24.856617,60.245003],"type":"Point"},"properties":{"osm_id":"3993341928","tag":{"amenity":"waste_basket"}},"type":"Feature"},
	{"geometry":{"coordinates":[24.85565,60.261667],"type":"Point"},"properties":{"osm_id":"3995009115","tag":{"amenity":"waste_basket"}},"type":"Feature"},
	{"geometry":{"coordinates":[24.847015,60.250676],"type":"Point"},"properties":{"osm_id":"4090367834","tag":{"amenity":"waste_basket","material":"metal","waste_basket":"yes"}},"type":"Feature"},
	{"geometry":{"coordinates":[24.85362,60.255389],"type":"Point"},"properties":{"highway":"street_lamp","osm_id":"4090390415","tag":{"amenity":"waste_basket"}},"type":"Feature"},
	{"geometry":{"coordinates":[24.851402,60.253562],"type":"Point"},"properties":{"osm_id":"4106492239","tag":{"amenity":"waste_basket"}},"type":"Feature"},
	{"geometry":{"coordinates":[24.854284,60.244565],"type":"Point"},"properties":{"osm_id":"4189949992","tag":{"amenity":"waste_basket"}},"type":"Feature"},
	{"geometry":{"coordinates":[24.860831,60.241083],"type":"Point"},"properties":{"osm_id":"4379334648","tag":{"amenity":"waste_basket"}},"type":"Feature"},
	{"geometry":{"coordinates":[24.862601,60.239963],"type":"Point"},"properties":{"osm_id":"4379334649","tag":{"amenity":"waste_basket"}},"type":"Feature"},
	{"geometry":{"coordinates":[24.87201,60.244185],"type":"Point"},"properties":{"osm_id":"4379350428","tag":{"amenity":"waste_basket"}},"type":"Feature"},
	{"geometry":{"coordinates":[24.86292,60.242178],"type":"Point"},"properties":{"osm_id":"4379356416","tag":{"amenity":"waste_basket"}},"type":"Feature"},
	{"geometry":{"coordinates":[24.866773,60.246594],"type":"Point"},"properties":{"osm_id":"4387248286","tag":{"amenity":"waste_basket"}},"type":"Feature"},
	{"geometry":{"coordinates":[24.867424,60.246939],"type":"Point"},"properties":{"osm_id":"4387248287","tag":{"amenity":"waste_basket"}},"type":"Feature"},
	{"geometry":{"coordinates":[24.867588,60.247024],"type":"Point"},"properties":{"osm_id":"4387248288","tag":{"amenity":"waste_basket"}},"type":"Feature"},
	{"geometry":{"coordinates":[24.866411,60.246825],"type":"Point"},"properties":{"osm_id":"4387257792","tag":{"amenity":"waste_basket"}},"type":"Feature"},
	{"geometry":{"coordinates":[24.86756,60.24697],"type":"Point"},"properties":{"osm_id":"4387263289","tag":{"amenity":"waste_basket"}},"type":"Feature"},
	{"geometry":{"coordinates":[24.868084,60.247233],"type":"Point"},"properties":{"osm_id":"4387263290","tag":{"amenity":"waste_basket"}},"type":"Feature"},
	{"geometry":{"coordinates":[24.867637,60.247443],"type":"Point"},"properties":{"osm_id":"4387263291","tag":{"amenity":"waste_basket"}},"type":"Feature"},
	{"geometry":{"coordinates":[24.867968,60.247182],"type":"Point"},"properties":{"osm_id":"4387263292","tag":{"amenity":"waste_basket"}},"type":"Feature"},
	{"geometry":{"coordinates":[24.867241,60.247244],"type":"Point"},"properties":{"osm_id":"4387263299","tag":{"amenity":"waste_basket"}},"type":"Feature"},
	{"geometry":{"coordinates":[24.867308,60.250933],"type":"Point"},"properties":{"osm_id":"4411140300","tag":{"amenity":"waste_basket"}},"type":"Feature"},
	{"geometry":{"coordinates":[24.846152,60.256921],"type":"Point"},"properties":{"highway":"street_lamp","osm_id":"4935499478","tag":{"amenity":"waste_basket"}},"type":"Feature"},
	{"geometry":{"coordinates":[24.868468,60.246287],"type":"Point"},"properties":{"osm_id":"5602344006","tag":{"amenity":"waste_basket"}},"type":"Feature"},
	{"geometry":{"coordinates":[24.869786,60.263039],"type":"Point"},"properties":{"osm_id":"5617499825","tag":{"amenity":"waste_basket"}},"type":"Feature"},
	{"geometry":{"coordinates":[24.868988,60.246449],"type":"Point"},"properties":{"osm_id":"5851715075","tag":{"access":"private","amenity":"waste_disposal"}},"type":"Feature"},
	{"geometry":{"coordinates":[24.866514,60.258629],"type":"Point"},"properties":{"osm_id":"5863776181","tag":{"amenity":"waste_disposal"}},"type":"Feature"},
	{"geometry":{"coordinates":[24.848308,60.256102],"type":"Point"},"properties":{"osm_id":"5873864668","tag":{"amenity":"waste_disposal"}},"type":"Feature"},
	{"geometry":{"coordinates":[24.847005,60.256467],"type":"Point"},"properties":{"osm_id":"5873866858","tag":{"amenity":"waste_disposal"}},"type":"Feature"},
	{"geometry":{"coordinates":[24.857132,60.251288],"type":"Point"},"properties":{"osm_id":"6223497951","tag":{"amenity":"waste_disposal"}},"type":"Feature"},
	{"geometry":{"coordinates":[24.85653,60.257154],"type":"Point"},"properties":{"osm_id":"6305221811","tag":{"access":"private","amenity":"waste_disposal"}},"type":"Feature"},
	{"geometry":{"coordinates":[24.858023,60.256187],"type":"Point"},"properties":{"osm_id":"6305221812","tag":{"access":"private","amenity":"waste_disposal"}},"type":"Feature"},
	{"geometry":{"coordinates":[24.857661,60.256072],"type":"Point"},"properties":{"osm_id":"6305221813","tag":{"access":"private","amenity":"waste_disposal"}},"type":"Feature"},
	{"geometry":{"coordinates":[24.856723,60.240751],"type":"Point"},"properties":{"osm_id":"6462053125","tag":{"amenity":"waste_basket"}},"type":"Feature"},
	{"geometry":{"coordinates":[24.866747,60.241605],"type":"Point"},"properties":{"osm_id":"6466972105","tag":{"amenity":"waste_basket"}},"type":"Feature"},
	{"geometry":{"coordinates":[24.869174,60.242191],"type":"Point"},"properties":{"osm_id":"6466976688","tag":{"amenity":"waste_basket"}},"type":"Feature"},
	{"geometry":{"coordinates":[24.872496,60.241209],"type":"Point"},"properties":{"osm_id":"6466976689","tag":{"amenity":"waste_basket"}},"type":"Feature"},
	{"geometry":{"coordinates":[24.871319,60.241594],"type":"Point"},"properties":{"osm_id":"6466982382","tag":{"amenity":"waste_basket"}},"type":"Feature"},
	{"geometry":{"coordinates":[24.870162,60.243064],"type":"Point"},"properties":{"osm_id":"6466998291","tag":{"amenity":"waste_basket"}},"type":"Feature"},
	{"geometry":{"coordinates":[24.86808,60.246199],"type":"Point"},"properties":{"osm_id":"6466998363","tag":{"amenity":"waste_basket"}},"type":"Feature"},
	{"geometry":{"coordinates":[24.863524,60.240262],"type":"Point"},"properties":{"osm_id":"6472888687","tag":{"amenity":"waste_basket"}},"type":"Feature"},
	{"geometry":{"coordinates":[24.863378,60.240103],"type":"Point"},"properties":{"osm_id":"6472888688","tag":{"amenity":"waste_basket"}},"type":"Feature"},
	{"geometry":{"coordinates":[24.858817,60.242473],"type":"Point"},"properties":{"osm_id":"6501522463","tag":{"amenity":"waste_basket","condition":"poor"}},"type":"Feature"},
	{"geometry":{"coordinates":[24.859141,60.242518],"type":"Point"},"properties":{"osm_id":"6501522464","tag":{"amenity":"waste_basket"}},"type":"Feature"},
	{"geometry":{"coordinates":[24.851702,60.2445],"type":"Point"},"properties":{"osm_id":"6501528103","tag":{"amenity":"waste_basket"}},"type":"Feature"},
	{"geometry":{"coordinates":[24.849894,60.244849],"type":"Point"},"properties":{"osm_id":"6501528128","tag":{"amenity":"waste_basket"}},"type":"Feature"},
	{"geometry":{"coordinates":[24.849504,60.245233],"type":"Point"},"properties":{"osm_id":"6501528130","tag":{"amenity":"waste_basket"}},"type":"Feature"},
	{"geometry":{"coordinates":[24.849554,60.245295],"type":"Point"},"properties":{"osm_id":"6501528131","tag":{"amenity":"waste_basket"}},"type":"Feature"},
	{"geometry":{"coordinates":[24.848259,60.24598],"type":"Point"},"properties":{"osm_id":"6501531207","tag":{"amenity":"waste_basket"}},"type":"Feature"},
	{"geometry":{"coordinates":[24.849085,60.246079],"type":"Point"},"properties":{"osm_id":"6501531208","tag":{"amenity":"waste_basket"}},"type":"Feature"},
	{"geometry":{"coordinates":[24.849075,60.245735],"type":"Point"},"properties":{"osm_id":"6501531209","tag":{"amenity":"waste_basket"}},"type":"Feature"},
	{"geometry":{"coordinates":[24.852625,60.253079],"type":"Point"},"properties":{"osm_id":"6501539616","tag":{"amenity":"waste_basket"}},"type":"Feature"},
	{"geometry":{"coordinates":[24.853127,60.252649],"type":"Point"},"properties":{"osm_id":"6501539617","tag":{"amenity":"waste_basket"}},"type":"Feature"},
	{"geometry":{"coordinates":[24.852709,60.252546],"type":"Point"},"properties":{"osm_id":"6501539618","tag":{"amenity":"waste_basket"}},"type":"Feature"},
	{"geometry":{"coordinates":[24.853343,60.25206],"type":"Point"},"properties":{"osm_id":"6501539619","tag":{"amenity":"waste_basket"}},"type":"Feature"},
	{"geometry":{"coordinates":[24.853268,60.25202],"type":"Point"},"properties":{"osm_id":"6501539620","tag":{"amenity":"waste_basket"}},"type":"Feature"},
	{"geometry":{"coordinates":[24.861575,60.252958],"type":"Point"},"properties":{"osm_id":"6501541892","tag":{"amenity":"waste_basket"}},"type":"Feature"},
	{"geometry":{"coordinates":[24.861971,60.25301],"type":"Point"},"properties":{"osm_id":"6501541893","tag":{"amenity":"waste_basket"}},"type":"Feature"},
	{"geometry":{"coordinates":[24.86194,60.252779],"type":"Point"},"properties":{"osm_id":"6501541896","tag":{"amenity":"waste_basket"}},"type":"Feature"},
	{"geometry":{"coordinates":[24.860395,60.253136],"type":"Point"},"properties":{"osm_id":"6501543388","tag":{"amenity":"waste_basket"}},"type":"Feature"},
	{"geometry":{"coordinates":[24.869559,60.249496],"type":"Point"},"properties":{"osm_id":"6501547200","tag":{"amenity":"waste_basket"}},"type":"Feature"},
	{"geometry":{"coordinates":[24.871396,60.247977],"type":"Point"},"properties":{"osm_id":"6501551956","tag":{"amenity":"waste_basket"}},"type":"Feature"},
	{"geometry":{"coordinates":[24.856447,60.250572],"type":"Point"},"properties":{"osm_id":"6501555676","tag":{"amenity":"waste_basket"}},"type":"Feature"},
	{"geometry":{"coordinates":[24.856243,60.250796],"type":"Point"},"properties":{"osm_id":"6501555677","tag":{"amenity":"waste_basket"}},"type":"Feature"},
	{"geometry":{"coordinates":[24.856149,60.25092],"type":"Point"},"properties":{"osm_id":"6501555678","tag":{"amenity":"waste_basket"}},"type":"Feature"},
	{"geometry":{"coordinates":[24.856307,60.251108],"type":"Point"},"properties":{"osm_id":"6501555682","tag":{"amenity":"waste_basket"}},"type":"Feature"},
	{"geometry":{"coordinates":[24.858257,60.25155],"type":"Point"},"properties":{"osm_id":"6501555942","tag":{"amenity":"waste_basket"}},"type":"Feature"},
	{"geometry":{"coordinates":[24.858921,60.25151],"type":"Point"},"properties":{"osm_id":"6501555943","tag":{"amenity":"waste_basket"}},"type":"Feature"},
	{"geometry":{"coordinates":[24.858889,60.251594],"type":"Point"},"properties":{"osm_id":"6501555944","tag":{"amenity":"waste_basket"}},"type":"Feature"},
	{"geometry":{"coordinates":[24.859153,60.251847],"type":"Point"},"properties":{"osm_id":"6501555945","tag":{"amenity":"waste_basket"}},"type":"Feature"},
	{"geometry":{"coordinates":[24.859759,60.251919],"type":"Point"},"properties":{"osm_id":"6501555946","tag":{"amenity":"waste_basket"}},"type":"Feature"},
	{"geometry":{"coordinates":[24.862103,60.248274],"type":"Point"},"properties":{"osm_id":"6501555947","tag":{"amenity":"waste_basket"}},"type":"Feature"},
	{"geometry":{"coordinates":[24.862368,60.247949],"type":"Point"},"properties":{"osm_id":"6501555948","tag":{"amenity":"waste_basket"}},"type":"Feature"},
	{"geometry":{"coordinates":[24.862824,60.247762],"type":"Point"},"properties":{"osm_id":"6501555949","tag":{"amenity":"waste_basket"}},"type":"Feature"},
	{"geometry":{"coordinates":[24.870817,60.245666],"type":"Point"},"properties":{"osm_id":"6516865812","tag":{"amenity":"waste_basket","material":"metal"}},"type":"Feature"},
	{"geometry":{"coordinates":[24.870793,60.246131],"type":"Point"},"properties":{"osm_id":"6516865813","tag":{"amenity":"waste_basket","material":"metal"}},"type":"Feature"},
	{"geometry":{"coordinates":[24.869148,60.24748],"type":"Point"},"properties":{"osm_id":"6521639952","tag":{"access":"private","amenity":"waste_disposal"}},"type":"Feature"},
	{"geometry":{"coordinates":[24.869568,60.242014],"type":"Point"},"properties":{"osm_id":"6531977584","tag":{"amenity":"waste_basket"}},"type":"Feature"},
	{"geometry":{"coordinates":[24.870118,60.241651],"type":"Point"},"properties":{"osm_id":"6531986993","tag":{"access":"private","amenity":"waste_disposal"}},"type":"Feature"},
	{"geometry":{"coordinates":[24.848916,60.255968],"type":"Point"},"properties":{"osm_id":"6579743167","tag":{"access":"private","amenity":"waste_disposal"}},"type":"Feature"},
	{"geometry":{"coordinates":[24.849267,60.2559],"type":"Point"},"properties":{"osm_id":"6579758197","tag":{"amenity":"waste_basket","material":"metal"}},"type":"Feature"},
	{"geometry":{"coordinates":[24.847233,60.250627],"type":"Point"},"properties":{"osm_id":"6593228745","tag":{"amenity":"waste_basket","material":"plastic","waste_basket":"molok"}},"type":"Feature"},
	{"geometry":{"coordinates":[24.867416,60.257927],"type":"Point"},"properties":{"osm_id":"7155923839","tag":{"amenity":"waste_basket","waste_basket":"molok"}},"type":"Feature"},
	{"geometry":{"coordinates":[24.862024,60.247467],"type":"Point"},"properties":{"osm_id":"7173227366","tag":{"amenity":"waste_basket"}},"type":"Feature"},
	{"geometry":{"coordinates":[24.857592,60.267192],"type":"Point"},"properties":{"osm_id":"7222934205","tag":{"amenity":"waste_basket","waste":"trash"}},"type":"Feature"},
	{"geometry":{"coordinates":[24.856496,60.267459],"type":"Point"},"properties":{"osm_id":"7222934206","tag":{"amenity":"waste_basket","waste":"trash"}},"type":"Feature"},
	{"geometry":{"coordinates":[24.856735,60.265765],"type":"Point"},"properties":{"osm_id":"7229552363","tag":{"amenity":"waste_basket","waste":"trash"}},"type":"Feature"},
	{"geometry":{"coordinates":[24.859491,60.260201],"type":"Point"},"properties":{"osm_id":"7549699443","tag":{"amenity":"recycling","recycling:clothes":"yes","recycling_type":"container"}},"type":"Feature"},
	{"geometry":{"coordinates":[24.863925,60.240456],"type":"Point"},"properties":{"osm_id":"7609806394","tag":{"amenity":"waste_basket","start_date":"2020-06"}},"type":"Feature"},
	{"geometry":{"coordinates":[24.862745,60.239859],"type":"Point"},"properties":{"osm_id":"7609806395","tag":{"amenity":"waste_basket","start_date":"2020-06"}},"type":"Feature"},
	{"geometry":{"coordinates":[24.860945,60.241014],"type":"Point"},"properties":{"osm_id":"7609806396","tag":{"amenity":"waste_basket","start_date":"2020-06"}},"type":"Feature"},
	{"geometry":{"coordinates":[24.847171,60.255835],"type":"Point"},"properties":{"osm_id":"7671610927","tag":{"amenity":"waste_basket"}},"type":"Feature"},
	{"geometry":{"coordinates":[24.848227,60.255652],"type":"Point"},"properties":{"osm_id":"7671610928","tag":{"amenity":"waste_basket"}},"type":"Feature"},
	{"geometry":{"coordinates":[24.840916,60.262815],"type":"Point"},"properties":{"osm_id":"7765343937","tag":{"amenity":"waste_basket"}},"type":"Feature"},
	{"geometry":{"coordinates":[24.87208,60.264209],"type":"Point"},"properties":{"osm_id":"7794406348","tag":{"amenity":"waste_disposal"}},"type":"Feature"},
	{"geometry":{"coordinates":[24.872093,60.26419],"type":"Point"},"properties":{"osm_id":"7794406349","tag":{"amenity":"waste_disposal"}},"type":"Feature"},
	{"geometry":{"coordinates":[24.853313,60.255615],"type":"Point"},"properties":{"osm_id":"7923868024","tag":{"access":"private","amenity":"waste_disposal"}},"type":"Feature"},
	{"geometry":{"coordinates":[24.851471,60.255837],"type":"Point"},"properties":{"osm_id":"7923868072","tag":{"access":"private","amenity":"waste_disposal"}},"type":"Feature"},
	{"geometry":{"coordinates":[24.851478,60.256105],"type":"Point"},"properties":{"osm_id":"7923896518","tag":{"access":"private","amenity":"waste_disposal"}},"type":"Feature"},
	{"geometry":{"coordinates":[24.853005,60.255995],"type":"Point"},"properties":{"osm_id":"7923959932","tag":{"amenity":"waste_basket"}},"type":"Feature"},
	{"geometry":{"coordinates":[24.851869,60.256233],"type":"Point"},"properties":{"osm_id":"7923959937","tag":{"amenity":"waste_basket"}},"type":"Feature"},
	{"geometry":{"coordinates":[24.852787,60.256704],"type":"Point"},"properties":{"osm_id":"7923974309","tag":{"amenity":"waste_basket"}},"type":"Feature"},
	{"geometry":{"coordinates":[24.852819,60.256485],"type":"Point"},"properties":{"osm_id":"7923974310","tag":{"amenity":"waste_basket"}},"type":"Feature"},
	{"geometry":{"coordinates":[24.852429,60.256587],"type":"Point"},"properties":{"osm_id":"7924871227","tag":{"amenity":"waste_basket"}},"type":"Feature"},
	{"geometry":{"coordinates":[24.844624,60.257477],"type":"Point"},"properties":{"osm_id":"7925143779","tag":{"amenity":"waste_basket"}},"type":"Feature"},
	{"geometry":{"coordinates":[24.844679,60.257486],"type":"Point"},"properties":{"osm_id":"7925143780","tag":{"amenity":"waste_basket"}},"type":"Feature"},
	{"geometry":{"coordinates":[24.844668,60.257471],"type":"Point"},"properties":{"osm_id":"7925143781","tag":{"amenity":"waste_basket"}},"type":"Feature"},
	{"geometry":{"coordinates":[24.845612,60.258397],"type":"Point"},"properties":{"osm_id":"7925159403","tag":{"amenity":"waste_basket"}},"type":"Feature"},
	{"geometry":{"coordinates":[24.853628,60.257273],"type":"Point"},"properties":{"osm_id":"7925256616","tag":{"amenity":"waste_basket"}},"type":"Feature"},
	{"geometry":{"coordinates":[24.851801,60.25538],"type":"Point"},"properties":{"osm_id":"7925309802","tag":{"amenity":"waste_basket"}},"type":"Feature"},
	{"geometry":{"coordinates":[24.8545,60.257795],"type":"Point"},"properties":{"osm_id":"7928463555","tag":{"amenity":"waste_basket"}},"type":"Feature"},
	{"geometry":{"coordinates":[24.854814,60.257954],"type":"Point"},"properties":{"osm_id":"7928570722","tag":{"amenity":"waste_basket"}},"type":"Feature"},
	{"geometry":{"coordinates":[24.854612,60.256012],"type":"Point"},"properties":{"osm_id":"7929201747","tag":{"amenity":"waste_basket"}},"type":"Feature"},
	{"geometry":{"coordinates":[24.854468,60.255851],"type":"Point"},"properties":{"osm_id":"7929211250","tag":{"amenity":"waste_basket"}},"type":"Feature"},
	{"geometry":{"coordinates":[24.853152,60.256771],"type":"Point"},"properties":{"osm_id":"7930913599","tag":{"amenity":"waste_basket"}},"type":"Feature"},
	{"geometry":{"coordinates":[24.854707,60.258443],"type":"Point"},"properties":{"osm_id":"7930913626","tag":{"amenity":"waste_basket"}},"type":"Feature"},
	{"geometry":{"coordinates":[24.854682,60.258614],"type":"Point"},"properties":{"osm_id":"7930913627","tag":{"amenity":"waste_basket"}},"type":"Feature"},
	{"geometry":{"coordinates":[24.853906,60.259967],"type":"Point"},"properties":{"name":"SER-kierr\u00c3\u00a4tys Tokmanni Myyrmanni","osm_id":"7947280423","tag":{"access":"yes","amenity":"recycling","operator":"Tokmanni","recycling:batteries":"yes","recycling:beverage_cartons":"no","recycling:cans":"no","recycling:cardboard":"no","recycling:clothes":"no","recycling:glass":"no","recycling:glass_bottles":"no","recycling:low_energy_bulbs":"yes","recycling:mobile_phones":"yes","recycling:small_appliances":"yes","recycling:small_electrical_appliances":"yes","recycling_type":"container"}},"type":"Feature"}
]
}
