{
"type": "FeatureCollection",
"features": [
	{"geometry":{"coordinates":[24.806555,60.168405],"type":"Point"},"properties":{"osm_id":"246129875","tag":{"amenity":"recycling"}},"type":"Feature"},
	{"geometry":{"coordinates":[24.792084,60.163763],"type":"Point"},"properties":{"osm_id":"247241665","tag":{"amenity":"recycling"}},"type":"Feature"},
	{"geometry":{"coordinates":[24.792942,60.175613],"type":"Point"},"properties":{"osm_id":"251042318","tag":{"amenity":"recycling","recycling:clothes":"yes","recycling_type":"container"}},"type":"Feature"},
	{"geometry":{"coordinates":[24.869677,60.161893],"type":"Point"},"properties":{"osm_id":"284142985","tag":{"amenity":"waste_basket"}},"type":"Feature"},
	{"geometry":{"coordinates":[24.864813,60.186782],"type":"Point"},"properties":{"osm_id":"285921858","tag":{"amenity":"waste_basket"}},"type":"Feature"},
	{"geometry":{"coordinates":[24.854228,60.182118],"type":"Point"},"properties":{"osm_id":"286093783","tag":{"amenity":"waste_basket"}},"type":"Feature"},
	{"geometry":{"coordinates":[24.855478,60.180645],"type":"Point"},"properties":{"osm_id":"286093942","tag":{"amenity":"waste_disposal"}},"type":"Feature"},
	{"geometry":{"coordinates":[24.86132,60.170271],"type":"Point"},"properties":{"osm_id":"286100054","tag":{"amenity":"waste_disposal","waste":"litter"}},"type":"Feature"},
	{"geometry":{"coordinates":[24.822871,60.182419],"type":"Point"},"properties":{"osm_id":"301550391","tag":{"amenity":"waste_disposal"}},"type":"Feature"},
	{"geometry":{"coordinates":[24.824309,60.183098],"type":"Point"},"properties":{"osm_id":"301551230","tag":{"amenity":"waste_disposal"}},"type":"Feature"},
	{"geometry":{"coordinates":[24.828934,60.17814],"type":"Point"},"properties":{"osm_id":"301608666","tag":{"amenity":"waste_disposal","waste":"litter"}},"type":"Feature"},
	{"geometry":{"coordinates":[24.825984,60.181258],"type":"Point"},"properties":{"osm_id":"301663995","tag":{"amenity":"waste_disposal"}},"type":"Feature"},
	{"geometry":{"coordinates":[24.858358,60.164925],"type":"Point"},"properties":{"highway":"bus_stop","name":"Koivusaarentie","osm_id":"303009513","ref":"H1038","tag":{"amenity":"waste_disposal","name:sv":"Bj\u00c3\u00b6rkholmsv\u00c3\u00a4gen","shelter":"yes","waste":"litter"}},"type":"Feature"},
	{"geometry":{"coordinates":[24.858485,60.165094],"type":"Point"},"properties":{"highway":"bus_stop","name":"Koivusaarentie","osm_id":"303009541","ref":"1039","tag":{"amenity":"waste_disposal","shelter":"no","waste":"litter"}},"type":"Feature"},
	{"geometry":{"coordinates":[24.871565,60.160588],"type":"Point"},"properties":{"osm_id":"303016794","tag":{"amenity":"waste_basket"}},"type":"Feature"},
	{"geometry":{"coordinates":[24.827233,60.186422],"type":"Point"},"properties":{"osm_id":"303097096","tag":{"amenity":"waste_disposal"}},"type":"Feature"},
	{"geometry":{"coordinates":[24.828694,60.184405],"type":"Point"},"properties":{"osm_id":"303100505","tag":{"amenity":"waste_disposal"}},"type":"Feature"},
	{"geometry":{"coordinates":[24.818874,60.181961],"type":"Point"},"properties":{"osm_id":"303102494","tag":{"access":"private","amenity":"waste_disposal"}},"type":"Feature"},
	{"geometry":{"coordinates":[24.834659,60.189939],"type":"Point"},"properties":{"osm_id":"304978069","tag":{"amenity":"waste_disposal"}},"type":"Feature"},
	{"geometry":{"coordinates":[24.825574,60.18843],"type":"Point"},"properties":{"osm_id":"306917191","tag":{"amenity":"waste_disposal"}},"type":"Feature"},
	{"geometry":{"coordinates":[24.837521,60.19042],"type":"Point"},"properties":{"osm_id":"329991856","tag":{"amenity":"waste_disposal"}},"type":"Feature"},
	{"geometry":{"coordinates":[24.872082,60.159312],"type":"Point"},"properties":{"osm_id":"331194897","tag":{"amenity":"waste_basket"}},"type":"Feature"},
	{"geometry":{"coordinates":[24.865901,60.1608],"type":"Point"},"properties":{"osm_id":"331235687","tag":{"amenity":"waste_basket"}},"type":"Feature"},
	{"geometry":{"coordinates":[24.860155,60.164424],"type":"Point"},"properties":{"osm_id":"331414142","tag":{"amenity":"recycling","recycling:paper":"yes"}},"type":"Feature"},
	{"geometry":{"coordinates":[24.861966,60.161539],"type":"Point"},"properties":{"osm_id":"331521225","tag":{"amenity":"recycling","recycling:paper":"yes"}},"type":"Feature"},
	{"geometry":{"coordinates":[24.861992,60.161532],"type":"Point"},"properties":{"osm_id":"331521227","tag":{"amenity":"waste_disposal","waste":"trash"}},"type":"Feature"},
	{"geometry":{"coordinates":[24.860904,60.161318],"type":"Point"},"properties":{"osm_id":"331521529","tag":{"amenity":"waste_disposal","waste":"trash"}},"type":"Feature"},
	{"geometry":{"coordinates":[24.867792,60.15539],"type":"Point"},"properties":{"osm_id":"331722790","tag":{"amenity":"waste_disposal","waste":"trash"}},"type":"Feature"},
	{"geometry":{"coordinates":[24.869504,60.155956],"type":"Point"},"properties":{"osm_id":"331725920","tag":{"amenity":"waste_disposal","waste":"trash"}},"type":"Feature"},
	{"geometry":{"coordinates":[24.872626,60.156822],"type":"Point"},"properties":{"osm_id":"331748209","tag":{"amenity":"waste_disposal","waste":"trash"}},"type":"Feature"},
	{"geometry":{"coordinates":[24.872282,60.15969],"type":"Point"},"properties":{"osm_id":"337211447","tag":{"amenity":"waste_disposal","waste":"trash"}},"type":"Feature"},
	{"geometry":{"coordinates":[24.870963,60.155978],"type":"Point"},"properties":{"osm_id":"337248306","tag":{"amenity":"waste_disposal","waste":"trash"}},"type":"Feature"},
	{"geometry":{"coordinates":[24.863456,60.155972],"type":"Point"},"properties":{"osm_id":"337277462","tag":{"amenity":"waste_disposal","waste":"trash"}},"type":"Feature"},
	{"geometry":{"coordinates":[24.857004,60.165134],"type":"Point"},"properties":{"osm_id":"337336866","tag":{"amenity":"waste_disposal","waste":"trash"}},"type":"Feature"},
	{"geometry":{"coordinates":[24.84828,60.178711],"type":"Point"},"properties":{"osm_id":"338401900","tag":{"amenity":"waste_disposal","waste":"trash"}},"type":"Feature"},
	{"geometry":{"coordinates":[24.827056,60.186065],"type":"Point"},"properties":{"osm_id":"338535860","tag":{"amenity":"waste_basket"}},"type":"Feature"},
	{"geometry":{"coordinates":[24.857043,60.161323],"type":"Point"},"properties":{"osm_id":"341982831","tag":{"amenity":"waste_disposal","waste":"trash"}},"type":"Feature"},
	{"geometry":{"coordinates":[24.857403,60.161212],"type":"Point"},"properties":{"osm_id":"341996142","tag":{"amenity":"waste_disposal","waste":"trash"}},"type":"Feature"},
	{"geometry":{"coordinates":[24.826073,60.189192],"type":"Point"},"properties":{"osm_id":"348028312","tag":{"amenity":"waste_basket"}},"type":"Feature"},
	{"geometry":{"coordinates":[24.866381,60.154989],"type":"Point"},"properties":{"osm_id":"349107656","tag":{"amenity":"waste_disposal","waste":"household"}},"type":"Feature"},
	{"geometry":{"coordinates":[24.865318,60.157528],"type":"Point"},"properties":{"osm_id":"355995071","tag":{"amenity":"waste_disposal","waste":"household"}},"type":"Feature"},
	{"geometry":{"coordinates":[24.872658,60.159969],"type":"Point"},"properties":{"osm_id":"356066561","tag":{"amenity":"waste_disposal","waste":"trash"}},"type":"Feature"},
	{"geometry":{"coordinates":[24.789766,60.181545],"type":"Point"},"properties":{"osm_id":"357514149","tag":{"amenity":"waste_disposal","waste":"household"}},"type":"Feature"},
	{"geometry":{"coordinates":[24.86716,60.163847],"type":"Point"},"properties":{"osm_id":"359956576","tag":{"amenity":"waste_disposal","waste":"household"}},"type":"Feature"},
	{"geometry":{"coordinates":[24.799949,60.177254],"type":"Point"},"properties":{"osm_id":"364080270","tag":{"amenity":"waste_disposal"}},"type":"Feature"},
	{"geometry":{"coordinates":[24.859102,60.168243],"type":"Point"},"properties":{"osm_id":"365541609","tag":{"amenity":"waste_disposal","waste":"household"}},"type":"Feature"},
	{"geometry":{"coordinates":[24.860597,60.166337],"type":"Point"},"properties":{"osm_id":"365544102","tag":{"amenity":"waste_disposal","waste":"household"}},"type":"Feature"},
	{"geometry":{"coordinates":[24.861816,60.164907],"type":"Point"},"properties":{"osm_id":"365546506","tag":{"amenity":"waste_disposal","waste":"household"}},"type":"Feature"},
	{"geometry":{"coordinates":[24.785607,60.162266],"type":"Point"},"properties":{"osm_id":"398290025","tag":{"amenity":"recycling","recycling:cardboard":"yes","recycling:clothes":"yes","recycling:glass":"yes","recycling:paper":"yes"}},"type":"Feature"},
	{"geometry":{"coordinates":[24.855981,60.156517],"type":"Point"},"properties":{"osm_id":"920064204","tag":{"amenity":"waste_basket"}},"type":"Feature"},
	{"geometry":{"coordinates":[24.863058,60.154325],"type":"Point"},"properties":{"osm_id":"925515041","tag":{"amenity":"waste_basket"}},"type":"Feature"},
	{"geometry":{"coordinates":[24.867907,60.154199],"type":"Point"},"properties":{"osm_id":"925515160","tag":{"amenity":"waste_basket"}},"type":"Feature"},
	{"geometry":{"coordinates":[24.825575,60.18973],"type":"Point"},"properties":{"osm_id":"946047205","tag":{"amenity":"waste_basket"}},"type":"Feature"},
	{"geometry":{"coordinates":[24.834702,60.191804],"type":"Point"},"properties":{"osm_id":"991705615","tag":{"amenity":"waste_basket"}},"type":"Feature"},
	{"geometry":{"coordinates":[24.793499,60.183072],"type":"Point"},"properties":{"osm_id":"1596567988","tag":{"amenity":"recycling","recycling_type":"container"}},"type":"Feature"},
	{"geometry":{"coordinates":[24.788567,60.175361],"type":"Point"},"properties":{"osm_id":"1596834062","tag":{"amenity":"waste_basket"}},"type":"Feature"},
	{"geometry":{"coordinates":[24.789291,60.175134],"type":"Point"},"properties":{"osm_id":"1596855930","tag":{"amenity":"waste_basket"}},"type":"Feature"},
	{"geometry":{"coordinates":[24.835424,60.164126],"type":"Point"},"properties":{"osm_id":"2262086420","tag":{"amenity":"waste_disposal"}},"type":"Feature"},
	{"geometry":{"coordinates":[24.829973,60.167409],"type":"Point"},"properties":{"osm_id":"2377566399","tag":{"amenity":"waste_disposal"}},"type":"Feature"},
	{"geometry":{"coordinates":[24.794844,60.173892],"type":"Point"},"properties":{"osm_id":"2482293443","tag":{"amenity":"waste_basket"}},"type":"Feature"},
	{"geometry":{"coordinates":[24.798356,60.174752],"type":"Point"},"properties":{"highway":"street_lamp","osm_id":"2492121540","tag":{"amenity":"waste_basket"}},"type":"Feature"},
	{"geometry":{"coordinates":[24.807603,60.182748],"type":"Point"},"properties":{"osm_id":"2495283768","tag":{"amenity":"recycling","recycling:cartons":"yes","recycling:glass":"yes","recycling:metal":"yes","recycling:paper":"yes","recycling_type":"container"}},"type":"Feature"},
	{"geometry":{"coordinates":[24.850057,60.181543],"type":"Point"},"properties":{"osm_id":"2921399012","tag":{"amenity":"waste_basket","traffic_sign":"FI:423"}},"type":"Feature"},
	{"geometry":{"coordinates":[24.861813,60.154761],"type":"Point"},"properties":{"osm_id":"3088067837","tag":{"amenity":"waste_basket"}},"type":"Feature"},
	{"geometry":{"coordinates":[24.835728,60.190667],"type":"Point"},"properties":{"osm_id":"3154339162","tag":{"amenity":"waste_basket"}},"type":"Feature"},
	{"geometry":{"coordinates":[24.814188,60.18237],"type":"Point"},"properties":{"highway":"street_lamp","osm_id":"3217341725","tag":{"amenity":"waste_basket","traffic_sign":"FI:423","traffic_sign:2":"FI:871[Sallittu mopoille]"}},"type":"Feature"},
	{"geometry":{"coordinates":[24.834717,60.188041],"type":"Point"},"properties":{"osm_id":"3330040840","tag":{"amenity":"waste_basket"}},"type":"Feature"},
	{"geometry":{"coordinates":[24.862462,60.161274],"type":"Point"},"properties":{"osm_id":"3511062530","tag":{"traffic_sign":"FI:871[Varo pihalla leikkivi\u00c3\u00a4 lapsia]"}},"type":"Feature"},
	{"geometry":{"coordinates":[24.8695,60.154684],"type":"Point"},"properties":{"osm_id":"4340404016","tag":{"amenity":"waste_basket"}},"type":"Feature"},
	{"geometry":{"coordinates":[24.86157,60.15858],"type":"Point"},"properties":{"osm_id":"4357742001","tag":{"amenity":"waste_disposal"}},"type":"Feature"},
	{"geometry":{"coordinates":[24.855685,60.1563],"type":"Point"},"properties":{"osm_id":"4395393760","tag":{"amenity":"waste_basket"}},"type":"Feature"},
	{"geometry":{"coordinates":[24.872207,60.156916],"type":"Point"},"properties":{"osm_id":"4426726303","tag":{"amenity":"waste_disposal"}},"type":"Feature"},
	{"geometry":{"coordinates":[24.862672,60.158805],"type":"Point"},"properties":{"osm_id":"4463849185","tag":{"amenity":"waste_disposal"}},"type":"Feature"},
	{"geometry":{"coordinates":[24.834301,60.182528],"type":"Point"},"properties":{"osm_id":"4784991350","tag":{"amenity":"waste_basket"}},"type":"Feature"},
	{"geometry":{"coordinates":[24.834039,60.182611],"type":"Point"},"properties":{"osm_id":"4784991351","tag":{"amenity":"waste_basket"}},"type":"Feature"},
	{"geometry":{"coordinates":[24.833811,60.182704],"type":"Point"},"properties":{"osm_id":"4784991352","tag":{"amenity":"waste_basket"}},"type":"Feature"},
	{"geometry":{"coordinates":[24.833554,60.182773],"type":"Point"},"properties":{"osm_id":"4784991353","tag":{"amenity":"waste_basket"}},"type":"Feature"},
	{"geometry":{"coordinates":[24.833323,60.182858],"type":"Point"},"properties":{"osm_id":"4784991354","tag":{"amenity":"waste_basket"}},"type":"Feature"},
	{"geometry":{"coordinates":[24.863424,60.154012],"type":"Point"},"properties":{"osm_id":"4815521711","tag":{"amenity":"waste_basket"}},"type":"Feature"},
	{"geometry":{"coordinates":[24.865137,60.163107],"type":"Point"},"properties":{"osm_id":"4833297392","tag":{"amenity":"waste_basket"}},"type":"Feature"},
	{"geometry":{"coordinates":[24.864933,60.16373],"type":"Point"},"properties":{"osm_id":"4833297393","tag":{"amenity":"waste_disposal"}},"type":"Feature"},
	{"geometry":{"coordinates":[24.854601,60.155049],"type":"Point"},"properties":{"osm_id":"4875350492","tag":{"amenity":"recycling","recycling_type":"container"}},"type":"Feature"},
	{"geometry":{"coordinates":[24.829392,60.186774],"type":"Point"},"properties":{"osm_id":"5027035192","tag":{"amenity":"waste_disposal"}},"type":"Feature"},
	{"geometry":{"coordinates":[24.814575,60.171764],"type":"Point"},"properties":{"osm_id":"5034785502","tag":{"amenity":"waste_basket"}},"type":"Feature"},
	{"geometry":{"coordinates":[24.815279,60.171497],"type":"Point"},"properties":{"osm_id":"5034785504","tag":{"amenity":"waste_basket"}},"type":"Feature"},
	{"geometry":{"coordinates":[24.833978,60.187105],"type":"Point"},"properties":{"osm_id":"5037590812","tag":{"amenity":"waste_disposal"}},"type":"Feature"},
	{"geometry":{"coordinates":[24.818573,60.184941],"type":"Point"},"properties":{"osm_id":"5081929208","tag":{"amenity":"waste_disposal"}},"type":"Feature"},
	{"geometry":{"coordinates":[24.808768,60.174697],"type":"Point"},"properties":{"osm_id":"5132651041","tag":{"amenity":"recycling","location":"overground","recycling:glass":"yes","recycling_type":"container"}},"type":"Feature"},
	{"geometry":{"coordinates":[24.808722,60.174692],"type":"Point"},"properties":{"osm_id":"5132651044","tag":{"amenity":"recycling","location":"overground","recycling:paper":"yes","recycling_type":"container"}},"type":"Feature"},
	{"geometry":{"coordinates":[24.808664,60.174792],"type":"Point"},"properties":{"osm_id":"5132651045","tag":{"amenity":"recycling","location":"overground","recycling:plastic":"yes","recycling_type":"container"}},"type":"Feature"},
	{"geometry":{"coordinates":[24.808587,60.174784],"type":"Point"},"properties":{"osm_id":"5132651048","tag":{"amenity":"recycling","location":"overground","recycling:cardboard":"yes","recycling_type":"container"}},"type":"Feature"},
	{"geometry":{"coordinates":[24.808813,60.174702],"type":"Point"},"properties":{"osm_id":"5132651051","tag":{"amenity":"recycling","location":"overground","recycling:metal":"yes","recycling_type":"container"}},"type":"Feature"},
	{"geometry":{"coordinates":[24.808675,60.174686],"type":"Point"},"properties":{"osm_id":"5132651052","tag":{"amenity":"recycling","location":"overground","recycling:clothes":"yes","recycling_type":"container"}},"type":"Feature"},
	{"geometry":{"coordinates":[24.85727,60.168165],"type":"Point"},"properties":{"highway":"bus_stop","name":"Katajaharju","osm_id":"5253869688","ref":"1040","tag":{"amenity":"waste_disposal","name:sv":"En\u00c3\u00a5sen","shelter":"yes","waste":"litter"}},"type":"Feature"},
	{"geometry":{"coordinates":[24.83348,60.190888],"type":"Point"},"properties":{"osm_id":"5329564493","tag":{"amenity":"waste_disposal"}},"type":"Feature"},
	{"geometry":{"coordinates":[24.837919,60.191381],"type":"Point"},"properties":{"osm_id":"5329564494","tag":{"amenity":"waste_disposal"}},"type":"Feature"},
	{"geometry":{"coordinates":[24.835784,60.191114],"type":"Point"},"properties":{"osm_id":"5329564495","tag":{"amenity":"waste_disposal"}},"type":"Feature"},
	{"geometry":{"coordinates":[24.836022,60.187769],"type":"Point"},"properties":{"osm_id":"5329564496","tag":{"amenity":"waste_disposal"}},"type":"Feature"},
	{"geometry":{"coordinates":[24.8368,60.188468],"type":"Point"},"properties":{"osm_id":"5329564497","tag":{"amenity":"waste_disposal"}},"type":"Feature"},
	{"geometry":{"coordinates":[24.836818,60.187629],"type":"Point"},"properties":{"osm_id":"5329564498","tag":{"access":"private","amenity":"waste_disposal"}},"type":"Feature"},
	{"geometry":{"coordinates":[24.838243,60.188612],"type":"Point"},"properties":{"osm_id":"5329564499","tag":{"access":"private","amenity":"waste_disposal"}},"type":"Feature"},
	{"geometry":{"coordinates":[24.78652,60.176747],"type":"Point"},"properties":{"osm_id":"5453474267","tag":{"amenity":"waste_basket"}},"type":"Feature"},
	{"geometry":{"coordinates":[24.793964,60.177261],"type":"Point"},"properties":{"highway":"street_lamp","osm_id":"5491892526","tag":{"amenity":"waste_basket"}},"type":"Feature"},
	{"geometry":{"coordinates":[24.793693,60.182879],"type":"Point"},"properties":{"osm_id":"5570855558","tag":{"amenity":"waste_basket"}},"type":"Feature"},
	{"geometry":{"coordinates":[24.814427,60.178035],"type":"Point"},"properties":{"osm_id":"5602926919","tag":{"amenity":"recycling"}},"type":"Feature"},
	{"geometry":{"coordinates":[24.811589,60.177366],"type":"Point"},"properties":{"osm_id":"5602946845","tag":{"amenity":"waste_basket"}},"type":"Feature"},
	{"geometry":{"coordinates":[24.812219,60.176837],"type":"Point"},"properties":{"osm_id":"5602946847","tag":{"amenity":"waste_basket"}},"type":"Feature"},
	{"geometry":{"coordinates":[24.814615,60.175426],"type":"Point"},"properties":{"osm_id":"5605004448","tag":{"amenity":"waste_disposal","location":"overground"}},"type":"Feature"},
	{"geometry":{"coordinates":[24.805967,60.176076],"type":"Point"},"properties":{"osm_id":"5615118507","tag":{"amenity":"recycling","level":"-1","recycling:cans":"yes","recycling:plastic_bottles":"yes","recycling_type":"container"}},"type":"Feature"},
	{"geometry":{"coordinates":[24.809385,60.168064],"type":"Point"},"properties":{"osm_id":"5615120430","tag":{"amenity":"waste_basket"}},"type":"Feature"},
	{"geometry":{"coordinates":[24.798717,60.17149],"type":"Point"},"properties":{"osm_id":"5626943254","tag":{"amenity":"waste_basket"}},"type":"Feature"},
	{"geometry":{"coordinates":[24.794837,60.175394],"type":"Point"},"properties":{"osm_id":"5633352740","tag":{"amenity":"waste_basket"}},"type":"Feature"},
	{"geometry":{"coordinates":[24.793744,60.17755],"type":"Point"},"properties":{"osm_id":"5633352766","tag":{"amenity":"waste_basket"}},"type":"Feature"},
	{"geometry":{"coordinates":[24.791258,60.174928],"type":"Point"},"properties":{"osm_id":"5633352785","tag":{"amenity":"waste_basket"}},"type":"Feature"},
	{"geometry":{"coordinates":[24.794085,60.177568],"type":"Point"},"properties":{"highway":"street_lamp","osm_id":"5633352820","tag":{"amenity":"waste_basket"}},"type":"Feature"},
	{"geometry":{"coordinates":[24.797364,60.171529],"type":"Point"},"properties":{"osm_id":"5635692958","tag":{"amenity":"waste_basket"}},"type":"Feature"},
	{"geometry":{"coordinates":[24.797223,60.171711],"type":"Point"},"properties":{"osm_id":"5635692981","tag":{"amenity":"waste_basket"}},"type":"Feature"},
	{"geometry":{"coordinates":[24.799052,60.185608],"type":"Point"},"properties":{"osm_id":"5839766822","tag":{"amenity":"waste_basket"}},"type":"Feature"},
	{"geometry":{"coordinates":[24.799248,60.185453],"type":"Point"},"properties":{"osm_id":"5839766845","tag":{"amenity":"waste_basket"}},"type":"Feature"},
	{"geometry":{"coordinates":[24.808838,60.170659],"type":"Point"},"properties":{"osm_id":"5839960700","tag":{"amenity":"recycling","recycling:cardboard":"yes","recycling:glass":"yes","recycling:organic":"yes","recycling:paper":"yes","recycling:scrap_metal":"yes","recycling:waste":"yes","recycling_type":"container"}},"type":"Feature"},
	{"geometry":{"coordinates":[24.811725,60.182227],"type":"Point"},"properties":{"osm_id":"5856531411","tag":{"amenity":"waste_basket"}},"type":"Feature"},
	{"geometry":{"coordinates":[24.812038,60.182186],"type":"Point"},"properties":{"osm_id":"5856531414","tag":{"amenity":"waste_basket"}},"type":"Feature"},
	{"geometry":{"coordinates":[24.824671,60.185019],"type":"Point"},"properties":{"osm_id":"5871819472","tag":{"amenity":"recycling","description":"Pullonpalautusautomatti","level":"0","recycling:cans":"yes","recycling:glass_bottles":"yes","recycling:plastic_bottles":"yes","recycling_type":"vending_machine"}},"type":"Feature"},
	{"geometry":{"coordinates":[24.805866,60.176264],"type":"Point"},"properties":{"osm_id":"6091703056","tag":{"amenity":"waste_basket"}},"type":"Feature"},
	{"geometry":{"coordinates":[24.806638,60.176122],"type":"Point"},"properties":{"osm_id":"6102067276","tag":{"amenity":"waste_basket"}},"type":"Feature"},
	{"geometry":{"coordinates":[24.797066,60.187519],"type":"Point"},"properties":{"osm_id":"6366067466","tag":{"amenity":"waste_basket"}},"type":"Feature"},
	{"geometry":{"coordinates":[24.795678,60.188142],"type":"Point"},"properties":{"osm_id":"6366070607","tag":{"amenity":"waste_disposal"}},"type":"Feature"},
	{"geometry":{"coordinates":[24.808718,60.171673],"type":"Point"},"properties":{"osm_id":"6372191379","tag":{"access":"private","amenity":"recycling","recycling:cardboard":"yes","recycling:glass":"yes","recycling:paper":"yes","recycling:scrap_metal":"yes","recycling:waste":"yes","recycling_type":"container"}},"type":"Feature"},
	{"geometry":{"coordinates":[24.802818,60.176395],"type":"Point"},"properties":{"osm_id":"6548869287","tag":{"amenity":"waste_basket"}},"type":"Feature"},
	{"geometry":{"coordinates":[24.802836,60.177204],"type":"Point"},"properties":{"osm_id":"6548869289","tag":{"amenity":"waste_basket"}},"type":"Feature"},
	{"geometry":{"coordinates":[24.803155,60.17718],"type":"Point"},"properties":{"osm_id":"6548869290","tag":{"amenity":"waste_basket"}},"type":"Feature"},
	{"geometry":{"coordinates":[24.805349,60.176141],"type":"Point"},"properties":{"osm_id":"6548869292","tag":{"amenity":"waste_basket"}},"type":"Feature"},
	{"geometry":{"coordinates":[24.805633,60.176174],"type":"Point"},"properties":{"osm_id":"6548869293","tag":{"amenity":"waste_basket"}},"type":"Feature"},
	{"geometry":{"coordinates":[24.805715,60.175978],"type":"Point"},"properties":{"osm_id":"6548869294","tag":{"amenity":"waste_basket"}},"type":"Feature"},
	{"geometry":{"coordinates":[24.804867,60.176483],"type":"Point"},"properties":{"osm_id":"6548869295","tag":{"amenity":"waste_basket"}},"type":"Feature"},
	{"geometry":{"coordinates":[24.805024,60.176552],"type":"Point"},"properties":{"osm_id":"6548869296","tag":{"amenity":"waste_basket"}},"type":"Feature"},
	{"geometry":{"coordinates":[24.806103,60.175821],"type":"Point"},"properties":{"osm_id":"6548869297","tag":{"amenity":"waste_basket"}},"type":"Feature"},
	{"geometry":{"coordinates":[24.805887,60.176018],"type":"Point"},"properties":{"osm_id":"6548869298","tag":{"amenity":"waste_basket"}},"type":"Feature"},
	{"geometry":{"coordinates":[24.805664,60.175759],"type":"Point"},"properties":{"osm_id":"6548869300","tag":{"amenity":"waste_basket"}},"type":"Feature"},
	{"geometry":{"coordinates":[24.805829,60.175506],"type":"Point"},"properties":{"osm_id":"6548869301","tag":{"amenity":"waste_basket"}},"type":"Feature"},
	{"geometry":{"coordinates":[24.805867,60.175429],"type":"Point"},"properties":{"osm_id":"6548869302","tag":{"amenity":"waste_basket"}},"type":"Feature"},
	{"geometry":{"coordinates":[24.80599,60.175226],"type":"Point"},"properties":{"osm_id":"6548869303","tag":{"amenity":"waste_basket"}},"type":"Feature"},
	{"geometry":{"coordinates":[24.806021,60.175164],"type":"Point"},"properties":{"osm_id":"6548869304","tag":{"amenity":"waste_basket"}},"type":"Feature"},
	{"geometry":{"coordinates":[24.804814,60.175778],"type":"Point"},"properties":{"osm_id":"6548869305","tag":{"amenity":"waste_basket"}},"type":"Feature"},
	{"geometry":{"coordinates":[24.804613,60.175753],"type":"Point"},"properties":{"osm_id":"6548869306","tag":{"amenity":"waste_basket"}},"type":"Feature"},
	{"geometry":{"coordinates":[24.80435,60.175874],"type":"Point"},"properties":{"osm_id":"6548869307","tag":{"amenity":"waste_basket"}},"type":"Feature"},
	{"geometry":{"coordinates":[24.806841,60.176401],"type":"Point"},"properties":{"osm_id":"6548869313","tag":{"amenity":"waste_basket"}},"type":"Feature"},
	{"geometry":{"coordinates":[24.807088,60.176433],"type":"Point"},"properties":{"osm_id":"6548869314","tag":{"amenity":"waste_basket"}},"type":"Feature"},
	{"geometry":{"coordinates":[24.807202,60.17645],"type":"Point"},"properties":{"osm_id":"6548869315","tag":{"amenity":"waste_basket"}},"type":"Feature"},
	{"geometry":{"coordinates":[24.807385,60.176476],"type":"Point"},"properties":{"osm_id":"6548869316","tag":{"amenity":"waste_basket"}},"type":"Feature"},
	{"geometry":{"coordinates":[24.80649,60.176355],"type":"Point"},"properties":{"osm_id":"6548869317","tag":{"amenity":"waste_basket"}},"type":"Feature"},
	{"geometry":{"coordinates":[24.806188,60.175656],"type":"Point"},"properties":{"osm_id":"6548869318","tag":{"amenity":"waste_basket"}},"type":"Feature"},
	{"geometry":{"coordinates":[24.807479,60.176021],"type":"Point"},"properties":{"osm_id":"6548869320","tag":{"amenity":"waste_basket"}},"type":"Feature"},
	{"geometry":{"coordinates":[24.804745,60.176768],"type":"Point"},"properties":{"osm_id":"6548869324","tag":{"amenity":"waste_basket"}},"type":"Feature"},
	{"geometry":{"coordinates":[24.805518,60.176968],"type":"Point"},"properties":{"osm_id":"6548869325","tag":{"amenity":"waste_basket"}},"type":"Feature"},
	{"geometry":{"coordinates":[24.805323,60.176976],"type":"Point"},"properties":{"osm_id":"6548869326","tag":{"amenity":"waste_basket"}},"type":"Feature"},
	{"geometry":{"coordinates":[24.805757,60.176197],"type":"Point"},"properties":{"osm_id":"6548888646","tag":{"amenity":"waste_basket"}},"type":"Feature"},
	{"geometry":{"coordinates":[24.803621,60.183191],"type":"Point"},"properties":{"osm_id":"6622955377","tag":{"amenity":"waste_basket"}},"type":"Feature"},
	{"geometry":{"coordinates":[24.805744,60.176498],"type":"Point"},"properties":{"osm_id":"6649837262","tag":{"amenity":"waste_basket"}},"type":"Feature"},
	{"geometry":{"coordinates":[24.806224,60.181283],"type":"Point"},"properties":{"osm_id":"6679521052","tag":{"amenity":"waste_basket"}},"type":"Feature"},
	{"geometry":{"coordinates":[24.806267,60.181497],"type":"Point"},"properties":{"osm_id":"6679521053","tag":{"amenity":"waste_basket"}},"type":"Feature"},
	{"geometry":{"coordinates":[24.803465,60.177977],"type":"Point"},"properties":{"osm_id":"6679802257","tag":{"amenity":"waste_basket"}},"type":"Feature"},
	{"geometry":{"coordinates":[24.802865,60.177989],"type":"Point"},"properties":{"osm_id":"6679802261","tag":{"amenity":"waste_basket"}},"type":"Feature"},
	{"geometry":{"coordinates":[24.802814,60.178152],"type":"Point"},"properties":{"osm_id":"6679802262","tag":{"amenity":"waste_basket"}},"type":"Feature"},
	{"geometry":{"coordinates":[24.803823,60.177935],"type":"Point"},"properties":{"osm_id":"6679802264","tag":{"amenity":"waste_basket"}},"type":"Feature"},
	{"geometry":{"coordinates":[24.805447,60.175914],"type":"Point"},"properties":{"osm_id":"6679862345","tag":{"amenity":"waste_basket"}},"type":"Feature"},
	{"geometry":{"coordinates":[24.804071,60.176352],"type":"Point"},"properties":{"osm_id":"6679862346","tag":{"amenity":"waste_basket"}},"type":"Feature"},
	{"geometry":{"coordinates":[24.803673,60.176703],"type":"Point"},"properties":{"osm_id":"6679862347","tag":{"amenity":"waste_basket"}},"type":"Feature"},
	{"geometry":{"coordinates":[24.802966,60.176749],"type":"Point"},"properties":{"osm_id":"6679862350","tag":{"amenity":"waste_basket"}},"type":"Feature"},
	{"geometry":{"coordinates":[24.803031,60.176963],"type":"Point"},"properties":{"osm_id":"6679862351","tag":{"amenity":"waste_basket"}},"type":"Feature"},
	{"geometry":{"coordinates":[24.804031,60.177433],"type":"Point"},"properties":{"osm_id":"6679862352","tag":{"amenity":"waste_basket"}},"type":"Feature"},
	{"geometry":{"coordinates":[24.80426,60.177306],"type":"Point"},"properties":{"osm_id":"6679862353","tag":{"amenity":"waste_basket"}},"type":"Feature"},
	{"geometry":{"coordinates":[24.804122,60.178408],"type":"Point"},"properties":{"osm_id":"6679862355","tag":{"amenity":"waste_basket"}},"type":"Feature"},
	{"geometry":{"coordinates":[24.805626,60.178515],"type":"Point"},"properties":{"osm_id":"6679862356","tag":{"amenity":"waste_basket"}},"type":"Feature"},
	{"geometry":{"coordinates":[24.806098,60.178343],"type":"Point"},"properties":{"osm_id":"6679862357","tag":{"amenity":"waste_basket"}},"type":"Feature"},
	{"geometry":{"coordinates":[24.805042,60.177722],"type":"Point"},"properties":{"osm_id":"6679862358","tag":{"amenity":"waste_basket"}},"type":"Feature"},
	{"geometry":{"coordinates":[24.804884,60.177611],"type":"Point"},"properties":{"osm_id":"6679862359","tag":{"amenity":"waste_basket"}},"type":"Feature"},
	{"geometry":{"coordinates":[24.805353,60.178057],"type":"Point"},"properties":{"osm_id":"6679862360","tag":{"amenity":"waste_basket"}},"type":"Feature"},
	{"geometry":{"coordinates":[24.805813,60.178127],"type":"Point"},"properties":{"osm_id":"6679862361","tag":{"amenity":"waste_basket"}},"type":"Feature"},
	{"geometry":{"coordinates":[24.807639,60.177989],"type":"Point"},"properties":{"osm_id":"6679862364","tag":{"amenity":"waste_basket"}},"type":"Feature"},
	{"geometry":{"coordinates":[24.807664,60.177948],"type":"Point"},"properties":{"osm_id":"6679862366","tag":{"amenity":"waste_basket"}},"type":"Feature"},
	{"geometry":{"coordinates":[24.8077,60.178272],"type":"Point"},"properties":{"osm_id":"6679862369","tag":{"amenity":"waste_basket"}},"type":"Feature"},
	{"geometry":{"coordinates":[24.807847,60.17825],"type":"Point"},"properties":{"osm_id":"6679862371","tag":{"amenity":"waste_basket"}},"type":"Feature"},
	{"geometry":{"coordinates":[24.811855,60.177135],"type":"Point"},"properties":{"osm_id":"6679862372","tag":{"amenity":"waste_basket"}},"type":"Feature"},
	{"geometry":{"coordinates":[24.812369,60.176573],"type":"Point"},"properties":{"osm_id":"6679862373","tag":{"amenity":"waste_basket"}},"type":"Feature"},
	{"geometry":{"coordinates":[24.812602,60.176364],"type":"Point"},"properties":{"osm_id":"6679862374","tag":{"amenity":"waste_basket"}},"type":"Feature"},
	{"geometry":{"coordinates":[24.812456,60.176038],"type":"Point"},"properties":{"osm_id":"6679862375","tag":{"amenity":"waste_basket"}},"type":"Feature"},
	{"geometry":{"coordinates":[24.815802,60.175389],"type":"Point"},"properties":{"osm_id":"6679862376","tag":{"amenity":"waste_basket"}},"type":"Feature"},
	{"geometry":{"coordinates":[24.814549,60.175053],"type":"Point"},"properties":{"osm_id":"6679862380","tag":{"amenity":"waste_basket"}},"type":"Feature"},
	{"geometry":{"coordinates":[24.81368,60.174828],"type":"Point"},"properties":{"osm_id":"6679862382","tag":{"amenity":"waste_basket"}},"type":"Feature"},
	{"geometry":{"coordinates":[24.811745,60.17469],"type":"Point"},"properties":{"osm_id":"6679862383","tag":{"amenity":"waste_basket"}},"type":"Feature"},
	{"geometry":{"coordinates":[24.811914,60.175289],"type":"Point"},"properties":{"osm_id":"6679862384","tag":{"amenity":"waste_basket"}},"type":"Feature"},
	{"geometry":{"coordinates":[24.81071,60.173671],"type":"Point"},"properties":{"osm_id":"6679907285","tag":{"amenity":"waste_basket"}},"type":"Feature"},
	{"geometry":{"coordinates":[24.810169,60.173457],"type":"Point"},"properties":{"osm_id":"6679907286","tag":{"amenity":"waste_basket"}},"type":"Feature"},
	{"geometry":{"coordinates":[24.808941,60.174336],"type":"Point"},"properties":{"osm_id":"6679907288","tag":{"amenity":"waste_basket"}},"type":"Feature"},
	{"geometry":{"coordinates":[24.804763,60.174556],"type":"Point"},"properties":{"osm_id":"6679907291","tag":{"amenity":"waste_basket"}},"type":"Feature"},
	{"geometry":{"coordinates":[24.804615,60.174783],"type":"Point"},"properties":{"osm_id":"6679907293","tag":{"amenity":"waste_basket"}},"type":"Feature"},
	{"geometry":{"coordinates":[24.803157,60.179925],"type":"Point"},"properties":{"osm_id":"6679907294","tag":{"amenity":"waste_basket"}},"type":"Feature"},
	{"geometry":{"coordinates":[24.805302,60.180526],"type":"Point"},"properties":{"osm_id":"6679907296","tag":{"amenity":"waste_basket"}},"type":"Feature"},
	{"geometry":{"coordinates":[24.805171,60.180979],"type":"Point"},"properties":{"osm_id":"6679907297","tag":{"amenity":"waste_basket"}},"type":"Feature"},
	{"geometry":{"coordinates":[24.806256,60.181038],"type":"Point"},"properties":{"osm_id":"6679907298","tag":{"amenity":"waste_basket"}},"type":"Feature"},
	{"geometry":{"coordinates":[24.8081,60.18112],"type":"Point"},"properties":{"osm_id":"6679907299","tag":{"amenity":"waste_basket"}},"type":"Feature"},
	{"geometry":{"coordinates":[24.808175,60.182108],"type":"Point"},"properties":{"osm_id":"6679907300","tag":{"amenity":"waste_basket"}},"type":"Feature"},
	{"geometry":{"coordinates":[24.810957,60.181359],"type":"Point"},"properties":{"osm_id":"6679907301","tag":{"amenity":"waste_basket"}},"type":"Feature"},
	{"geometry":{"coordinates":[24.810101,60.180658],"type":"Point"},"properties":{"osm_id":"6679907304","tag":{"amenity":"waste_basket"}},"type":"Feature"},
	{"geometry":{"coordinates":[24.810871,60.178761],"type":"Point"},"properties":{"osm_id":"6679907305","tag":{"amenity":"waste_basket"}},"type":"Feature"},
	{"geometry":{"coordinates":[24.811069,60.178788],"type":"Point"},"properties":{"osm_id":"6679907306","tag":{"amenity":"waste_basket"}},"type":"Feature"},
	{"geometry":{"coordinates":[24.811595,60.17898],"type":"Point"},"properties":{"osm_id":"6679907309","tag":{"amenity":"waste_basket"}},"type":"Feature"},
	{"geometry":{"coordinates":[24.812198,60.179073],"type":"Point"},"properties":{"osm_id":"6679907311","tag":{"amenity":"waste_basket"}},"type":"Feature"},
	{"geometry":{"coordinates":[24.811514,60.178888],"type":"Point"},"properties":{"osm_id":"6679907312","tag":{"amenity":"waste_basket"}},"type":"Feature"},
	{"geometry":{"coordinates":[24.812711,60.179187],"type":"Point"},"properties":{"osm_id":"6679907313","tag":{"amenity":"waste_basket"}},"type":"Feature"},
	{"geometry":{"coordinates":[24.813432,60.179048],"type":"Point"},"properties":{"osm_id":"6679907315","tag":{"amenity":"waste_basket"}},"type":"Feature"},
	{"geometry":{"coordinates":[24.811662,60.178755],"type":"Point"},"properties":{"osm_id":"6679907316","tag":{"amenity":"waste_basket"}},"type":"Feature"},
	{"geometry":{"coordinates":[24.810753,60.177666],"type":"Point"},"properties":{"osm_id":"6679907317","tag":{"amenity":"waste_basket"}},"type":"Feature"},
	{"geometry":{"coordinates":[24.811101,60.177494],"type":"Point"},"properties":{"osm_id":"6679907318","tag":{"amenity":"waste_basket"}},"type":"Feature"},
	{"geometry":{"coordinates":[24.808304,60.177273],"type":"Point"},"properties":{"osm_id":"6679907319","tag":{"amenity":"waste_basket"}},"type":"Feature"},
	{"geometry":{"coordinates":[24.807368,60.177085],"type":"Point"},"properties":{"osm_id":"6679907320","tag":{"amenity":"waste_basket"}},"type":"Feature"},
	{"geometry":{"coordinates":[24.806826,60.177003],"type":"Point"},"properties":{"osm_id":"6679907321","tag":{"amenity":"waste_basket"}},"type":"Feature"},
	{"geometry":{"coordinates":[24.807405,60.176878],"type":"Point"},"properties":{"osm_id":"6679907322","tag":{"amenity":"waste_basket"}},"type":"Feature"},
	{"geometry":{"coordinates":[24.80748,60.1767],"type":"Point"},"properties":{"osm_id":"6679907323","tag":{"amenity":"waste_basket"}},"type":"Feature"},
	{"geometry":{"coordinates":[24.806393,60.177045],"type":"Point"},"properties":{"osm_id":"6679907324","tag":{"amenity":"waste_basket"}},"type":"Feature"},
	{"geometry":{"coordinates":[24.805677,60.176388],"type":"Point"},"properties":{"osm_id":"6679907329","tag":{"amenity":"waste_basket"}},"type":"Feature"},
	{"geometry":{"coordinates":[24.802764,60.175488],"type":"Point"},"properties":{"osm_id":"6681791771","tag":{"amenity":"waste_basket"}},"type":"Feature"},
	{"geometry":{"coordinates":[24.802439,60.175366],"type":"Point"},"properties":{"osm_id":"6681791772","tag":{"amenity":"waste_basket"}},"type":"Feature"},
	{"geometry":{"coordinates":[24.802433,60.175496],"type":"Point"},"properties":{"osm_id":"6681791773","tag":{"amenity":"waste_basket"}},"type":"Feature"},
	{"geometry":{"coordinates":[24.801922,60.175366],"type":"Point"},"properties":{"osm_id":"6681791776","tag":{"amenity":"waste_basket"}},"type":"Feature"},
	{"geometry":{"coordinates":[24.801639,60.175404],"type":"Point"},"properties":{"osm_id":"6681791777","tag":{"amenity":"waste_basket"}},"type":"Feature"},
	{"geometry":{"coordinates":[24.801882,60.175155],"type":"Point"},"properties":{"osm_id":"6681791778","tag":{"amenity":"waste_basket"}},"type":"Feature"},
	{"geometry":{"coordinates":[24.801199,60.176223],"type":"Point"},"properties":{"osm_id":"6681791780","tag":{"amenity":"waste_basket"}},"type":"Feature"},
	{"geometry":{"coordinates":[24.801034,60.176354],"type":"Point"},"properties":{"osm_id":"6681791781","tag":{"amenity":"waste_basket"}},"type":"Feature"},
	{"geometry":{"coordinates":[24.802173,60.176268],"type":"Point"},"properties":{"osm_id":"6681791782","tag":{"amenity":"waste_basket"}},"type":"Feature"},
	{"geometry":{"coordinates":[24.801068,60.17643],"type":"Point"},"properties":{"osm_id":"6681791783","tag":{"amenity":"waste_basket"}},"type":"Feature"},
	{"geometry":{"coordinates":[24.801111,60.176583],"type":"Point"},"properties":{"osm_id":"6681791784","tag":{"amenity":"waste_basket"}},"type":"Feature"},
	{"geometry":{"coordinates":[24.800363,60.176267],"type":"Point"},"properties":{"osm_id":"6681807285","tag":{"amenity":"waste_basket"}},"type":"Feature"},
	{"geometry":{"coordinates":[24.799704,60.176402],"type":"Point"},"properties":{"osm_id":"6681807286","tag":{"amenity":"waste_basket"}},"type":"Feature"},
	{"geometry":{"coordinates":[24.800065,60.175799],"type":"Point"},"properties":{"osm_id":"6681807287","tag":{"amenity":"waste_basket"}},"type":"Feature"},
	{"geometry":{"coordinates":[24.800253,60.175474],"type":"Point"},"properties":{"osm_id":"6681807288","tag":{"amenity":"waste_basket"}},"type":"Feature"},
	{"geometry":{"coordinates":[24.799602,60.174992],"type":"Point"},"properties":{"osm_id":"6681807289","tag":{"amenity":"waste_basket"}},"type":"Feature"},
	{"geometry":{"coordinates":[24.797161,60.174435],"type":"Point"},"properties":{"osm_id":"6681807291","tag":{"amenity":"waste_basket"}},"type":"Feature"},
	{"geometry":{"coordinates":[24.797454,60.174286],"type":"Point"},"properties":{"osm_id":"6681807292","tag":{"amenity":"waste_basket"}},"type":"Feature"},
	{"geometry":{"coordinates":[24.7931,60.173381],"type":"Point"},"properties":{"osm_id":"6681807294","tag":{"amenity":"waste_basket"}},"type":"Feature"},
	{"geometry":{"coordinates":[24.791416,60.173547],"type":"Point"},"properties":{"osm_id":"6681807295","tag":{"amenity":"waste_basket"}},"type":"Feature"},
	{"geometry":{"coordinates":[24.78812,60.173918],"type":"Point"},"properties":{"osm_id":"6681807296","tag":{"amenity":"waste_basket"}},"type":"Feature"},
	{"geometry":{"coordinates":[24.785593,60.173635],"type":"Point"},"properties":{"osm_id":"6681807297","tag":{"amenity":"waste_basket"}},"type":"Feature"},
	{"geometry":{"coordinates":[24.785854,60.173491],"type":"Point"},"properties":{"osm_id":"6681807298","tag":{"amenity":"waste_basket"}},"type":"Feature"},
	{"geometry":{"coordinates":[24.805488,60.174218],"type":"Point"},"properties":{"osm_id":"6698788242","tag":{"amenity":"waste_basket"}},"type":"Feature"},
	{"geometry":{"coordinates":[24.805952,60.174167],"type":"Point"},"properties":{"osm_id":"6698788245","tag":{"amenity":"waste_basket"}},"type":"Feature"},
	{"geometry":{"coordinates":[24.805928,60.173852],"type":"Point"},"properties":{"osm_id":"6698788246","tag":{"amenity":"waste_basket"}},"type":"Feature"},
	{"geometry":{"coordinates":[24.807172,60.173224],"type":"Point"},"properties":{"osm_id":"6698788248","tag":{"amenity":"waste_basket"}},"type":"Feature"},
	{"geometry":{"coordinates":[24.807757,60.17278],"type":"Point"},"properties":{"osm_id":"6698788249","tag":{"amenity":"waste_basket"}},"type":"Feature"},
	{"geometry":{"coordinates":[24.811327,60.170256],"type":"Point"},"properties":{"osm_id":"6698788250","tag":{"amenity":"waste_basket"}},"type":"Feature"},
	{"geometry":{"coordinates":[24.810435,60.170254],"type":"Point"},"properties":{"osm_id":"6698788251","tag":{"amenity":"waste_basket"}},"type":"Feature"},
	{"geometry":{"coordinates":[24.810077,60.170228],"type":"Point"},"properties":{"osm_id":"6698788252","tag":{"amenity":"waste_basket"}},"type":"Feature"},
	{"geometry":{"coordinates":[24.809772,60.17021],"type":"Point"},"properties":{"osm_id":"6698788253","tag":{"amenity":"waste_basket"}},"type":"Feature"},
	{"geometry":{"coordinates":[24.806106,60.170687],"type":"Point"},"properties":{"osm_id":"6698788254","tag":{"amenity":"waste_basket"}},"type":"Feature"},
	{"geometry":{"coordinates":[24.80615,60.170617],"type":"Point"},"properties":{"osm_id":"6698788255","tag":{"amenity":"waste_basket"}},"type":"Feature"},
	{"geometry":{"coordinates":[24.805618,60.171412],"type":"Point"},"properties":{"osm_id":"6698788256","tag":{"amenity":"waste_basket"}},"type":"Feature"},
	{"geometry":{"coordinates":[24.805529,60.173066],"type":"Point"},"properties":{"osm_id":"6698788258","tag":{"amenity":"waste_basket"}},"type":"Feature"},
	{"geometry":{"coordinates":[24.806151,60.173368],"type":"Point"},"properties":{"osm_id":"6698788260","tag":{"amenity":"waste_basket"}},"type":"Feature"},
	{"geometry":{"coordinates":[24.798887,60.173607],"type":"Point"},"properties":{"osm_id":"6725830122","tag":{"amenity":"waste_basket"}},"type":"Feature"},
	{"geometry":{"coordinates":[24.799531,60.171188],"type":"Point"},"properties":{"osm_id":"6725830124","tag":{"amenity":"waste_basket"}},"type":"Feature"},
	{"geometry":{"coordinates":[24.802436,60.172177],"type":"Point"},"properties":{"osm_id":"6725830129","tag":{"amenity":"waste_basket"}},"type":"Feature"},
	{"geometry":{"coordinates":[24.802989,60.175514],"type":"Point"},"properties":{"osm_id":"6780440004","tag":{"amenity":"waste_basket"}},"type":"Feature"},
	{"geometry":{"coordinates":[24.837567,60.187949],"type":"Point"},"properties":{"osm_id":"6806352544","tag":{"access":"private","amenity":"waste_disposal"}},"type":"Feature"},
	{"geometry":{"coordinates":[24.837235,60.18814],"type":"Point"},"properties":{"osm_id":"6806352545","tag":{"access":"private","amenity":"waste_disposal"}},"type":"Feature"},
	{"geometry":{"coordinates":[24.838434,60.189013],"type":"Point"},"properties":{"osm_id":"6806352546","tag":{"access":"private","amenity":"waste_disposal"}},"type":"Feature"},
	{"geometry":{"coordinates":[24.83938,60.190073],"type":"Point"},"properties":{"osm_id":"6806352547","tag":{"access":"private","amenity":"waste_disposal"}},"type":"Feature"},
	{"geometry":{"coordinates":[24.806324,60.176037],"type":"Point"},"properties":{"name":"Emmy","osm_id":"6896446355","tag":{"amenity":"recycling","level":"-1","operator":"Emmy","recycling:clothes":"yes","recycling_type":"container"}},"type":"Feature"},
	{"geometry":{"coordinates":[24.838439,60.188871],"type":"Point"},"properties":{"osm_id":"6939098456","tag":{"access":"private","amenity":"waste_disposal"}},"type":"Feature"},
	{"geometry":{"coordinates":[24.872227,60.157426],"type":"Point"},"properties":{"osm_id":"7208672389","tag":{"amenity":"waste_disposal"}},"type":"Feature"},
	{"geometry":{"coordinates":[24.87259,60.16082],"type":"Point"},"properties":{"osm_id":"7438597050","tag":{"amenity":"waste_disposal"}},"type":"Feature"},
	{"geometry":{"coordinates":[24.872588,60.160795],"type":"Point"},"properties":{"osm_id":"7438597051","tag":{"amenity":"waste_disposal"}},"type":"Feature"},
	{"geometry":{"coordinates":[24.857662,60.153465],"type":"Point"},"properties":{"osm_id":"7490742803","tag":{"amenity":"waste_disposal"}},"type":"Feature"},
	{"geometry":{"coordinates":[24.867811,60.159547],"type":"Point"},"properties":{"osm_id":"7490749399","tag":{"amenity":"waste_basket"}},"type":"Feature"},
	{"geometry":{"coordinates":[24.814819,60.172157],"type":"Point"},"properties":{"osm_id":"7772507102","tag":{"amenity":"waste_basket"}},"type":"Feature"}
]
}
