{
"type": "FeatureCollection",
"features": [
	{"geometry":{"coordinates":[24.859694,59.416315],"type":"Point"},"properties":{"name":"Suur-S\u00c3\u00b5jam\u00c3\u00a4e j\u00c3\u00a4\u00c3\u00a4tmejaam","osm_id":"683386996","tag":{"amenity":"recycling","operator":"Ragn-Sells","recycling_type":"centre","website":"https://www.ragnsells.ee/index.php?page=165"}},"type":"Feature"},
	{"geometry":{"coordinates":[24.785669,59.440244],"type":"Point"},"properties":{"osm_id":"1370644063","tag":{"amenity":"waste_basket"}},"type":"Feature"},
	{"geometry":{"coordinates":[24.872122,59.44007],"type":"Point"},"properties":{"osm_id":"2574816398","tag":{"amenity":"waste_disposal"}},"type":"Feature"},
	{"geometry":{"coordinates":[24.87103,59.440188],"type":"Point"},"properties":{"osm_id":"2574816548","tag":{"amenity":"waste_disposal"}},"type":"Feature"},
	{"geometry":{"coordinates":[24.86948,59.440619],"type":"Point"},"properties":{"osm_id":"2574816636","tag":{"amenity":"waste_disposal"}},"type":"Feature"},
	{"geometry":{"coordinates":[24.870682,59.441023],"type":"Point"},"properties":{"osm_id":"2574816752","tag":{"amenity":"waste_disposal"}},"type":"Feature"},
	{"geometry":{"coordinates":[24.86976,59.441565],"type":"Point"},"properties":{"osm_id":"2574816797","tag":{"amenity":"waste_disposal"}},"type":"Feature"},
	{"geometry":{"coordinates":[24.82098,59.436492],"type":"Point"},"properties":{"osm_id":"2694426312","tag":{"amenity":"recycling","recycling:glass_bottles":"yes","recycling_type":"container"}},"type":"Feature"},
	{"geometry":{"coordinates":[24.822631,59.443449],"type":"Point"},"properties":{"osm_id":"2708934197","tag":{"amenity":"recycling","recycling:glass_bottles":"yes","recycling_type":"container"}},"type":"Feature"},
	{"geometry":{"coordinates":[24.80519,59.434801],"type":"Point"},"properties":{"highway":"street_lamp","osm_id":"3050829839","tag":{"amenity":"waste_basket","lamp:shape":"directed","support":"pole"}},"type":"Feature"},
	{"geometry":{"coordinates":[24.807613,59.435162],"type":"Point"},"properties":{"highway":"street_lamp","osm_id":"3050829852","tag":{"amenity":"waste_basket","lamp:shape":"directed","support":"pole"}},"type":"Feature"},
	{"geometry":{"coordinates":[24.799133,59.417268],"type":"Point"},"properties":{"osm_id":"5639171615","tag":{"amenity":"waste_basket"}},"type":"Feature"},
	{"geometry":{"coordinates":[24.797441,59.426372],"type":"Point"},"properties":{"osm_id":"6623632186","tag":{"amenity":"waste_basket"}},"type":"Feature"},
	{"geometry":{"coordinates":[24.861741,59.441254],"type":"Point"},"properties":{"osm_id":"6634371861","tag":{"amenity":"waste_basket"}},"type":"Feature"},
	{"geometry":{"coordinates":[24.858368,59.44131],"type":"Point"},"properties":{"osm_id":"6634371863","tag":{"amenity":"waste_basket"}},"type":"Feature"},
	{"geometry":{"coordinates":[24.871889,59.44318],"type":"Point"},"properties":{"osm_id":"6634459200","tag":{"amenity":"waste_basket"}},"type":"Feature"},
	{"geometry":{"coordinates":[24.819413,59.434815],"type":"Point"},"properties":{"osm_id":"6759206570","tag":{"amenity":"waste_basket"}},"type":"Feature"},
	{"geometry":{"coordinates":[24.820284,59.434675],"type":"Point"},"properties":{"osm_id":"6779446070","tag":{"amenity":"waste_disposal","check_date":"2019-10-15","covered":"yes"}},"type":"Feature"},
	{"geometry":{"coordinates":[24.820264,59.434674],"type":"Point"},"properties":{"osm_id":"6779446071","tag":{"amenity":"waste_disposal","check_date":"2019-10-15","covered":"yes"}},"type":"Feature"},
	{"geometry":{"coordinates":[24.818441,59.435538],"type":"Point"},"properties":{"osm_id":"6780753794","tag":{"amenity":"waste_disposal","colour":"green","location":"underground"}},"type":"Feature"},
	{"geometry":{"coordinates":[24.81847,59.43553],"type":"Point"},"properties":{"osm_id":"6780753795","tag":{"amenity":"waste_disposal","colour":"green","location":"underground"}},"type":"Feature"},
	{"geometry":{"coordinates":[24.818502,59.435526],"type":"Point"},"properties":{"osm_id":"6780753796","tag":{"amenity":"recycling","colour":"green","location":"underground","recycling:paper":"yes","recycling_type":"container"}},"type":"Feature"},
	{"geometry":{"coordinates":[24.818507,59.435513],"type":"Point"},"properties":{"osm_id":"6780753797","tag":{"amenity":"recycling","colour":"green","location":"underground","recycling:organic":"yes","recycling_type":"container"}},"type":"Feature"},
	{"geometry":{"coordinates":[24.820303,59.434675],"type":"Point"},"properties":{"osm_id":"6780753798","tag":{"amenity":"waste_disposal","check_date":"2019-10-15","covered":"yes"}},"type":"Feature"},
	{"geometry":{"coordinates":[24.820318,59.434676],"type":"Point"},"properties":{"osm_id":"6780753799","tag":{"amenity":"waste_disposal","check_date":"2019-10-15","covered":"yes"}},"type":"Feature"},
	{"geometry":{"coordinates":[24.82027,59.434662],"type":"Point"},"properties":{"osm_id":"6780753800","tag":{"amenity":"waste_disposal","check_date":"2019-10-15","covered":"yes"}},"type":"Feature"},
	{"geometry":{"coordinates":[24.809918,59.434043],"type":"Point"},"properties":{"osm_id":"6781297738","tag":{"amenity":"waste_basket","waste":"trash"}},"type":"Feature"},
	{"geometry":{"coordinates":[24.818359,59.435748],"type":"Point"},"properties":{"osm_id":"6795290474","tag":{"amenity":"waste_basket"}},"type":"Feature"},
	{"geometry":{"coordinates":[24.81922,59.435673],"type":"Point"},"properties":{"osm_id":"6804060607","tag":{"amenity":"waste_basket"}},"type":"Feature"},
	{"geometry":{"coordinates":[24.823792,59.436137],"type":"Point"},"properties":{"osm_id":"6882433654","tag":{"amenity":"waste_basket","material":"metal"}},"type":"Feature"},
	{"geometry":{"coordinates":[24.820308,59.434523],"type":"Point"},"properties":{"osm_id":"6883196710","tag":{"amenity":"waste_disposal","check_date":"2019-10-15"}},"type":"Feature"},
	{"geometry":{"coordinates":[24.820309,59.434514],"type":"Point"},"properties":{"osm_id":"6883196711","tag":{"amenity":"waste_disposal","check_date":"2019-10-15"}},"type":"Feature"},
	{"geometry":{"coordinates":[24.82031,59.434508],"type":"Point"},"properties":{"osm_id":"6883196712","tag":{"amenity":"waste_disposal","check_date":"2019-10-15"}},"type":"Feature"},
	{"geometry":{"coordinates":[24.820311,59.434501],"type":"Point"},"properties":{"osm_id":"6883196713","tag":{"amenity":"waste_disposal","check_date":"2019-10-15"}},"type":"Feature"},
	{"geometry":{"coordinates":[24.82031,59.434494],"type":"Point"},"properties":{"osm_id":"6883196714","tag":{"amenity":"waste_disposal","check_date":"2019-10-15"}},"type":"Feature"},
	{"geometry":{"coordinates":[24.820312,59.434487],"type":"Point"},"properties":{"osm_id":"6883196715","tag":{"amenity":"waste_disposal","check_date":"2019-10-15"}},"type":"Feature"},
	{"geometry":{"coordinates":[24.820314,59.43448],"type":"Point"},"properties":{"osm_id":"6883196716","tag":{"amenity":"waste_disposal","check_date":"2019-10-15"}},"type":"Feature"},
	{"geometry":{"coordinates":[24.820311,59.434473],"type":"Point"},"properties":{"osm_id":"6883196717","tag":{"amenity":"waste_disposal","check_date":"2019-10-15"}},"type":"Feature"},
	{"geometry":{"coordinates":[24.820316,59.434464],"type":"Point"},"properties":{"osm_id":"6883196718","tag":{"amenity":"waste_disposal","check_date":"2019-10-15"}},"type":"Feature"},
	{"geometry":{"coordinates":[24.820317,59.434457],"type":"Point"},"properties":{"osm_id":"6883196719","tag":{"amenity":"waste_disposal","check_date":"2019-10-15"}},"type":"Feature"},
	{"geometry":{"coordinates":[24.819867,59.435608],"type":"Point"},"properties":{"osm_id":"6883334197","tag":{"amenity":"waste_basket","check_date":"2019-10-15"}},"type":"Feature"},
	{"geometry":{"coordinates":[24.824031,59.436056],"type":"Point"},"properties":{"osm_id":"6883334202","tag":{"amenity":"waste_basket","check_date":"2019-10-15"}},"type":"Feature"},
	{"geometry":{"coordinates":[24.824238,59.436012],"type":"Point"},"properties":{"osm_id":"6883334206","tag":{"amenity":"waste_basket","check_date":"2019-10-15"}},"type":"Feature"},
	{"geometry":{"coordinates":[24.810401,59.435516],"type":"Point"},"properties":{"osm_id":"7166333752","tag":{"amenity":"waste_disposal"}},"type":"Feature"},
	{"geometry":{"coordinates":[24.788582,59.427179],"type":"Point"},"properties":{"osm_id":"7231336749","tag":{"amenity":"recycling","opening_hours":"24/7","recycling:cans":"yes","recycling:glass":"yes","recycling:glass_bottles":"yes","recycling:plastic":"yes","recycling:plastic_bottles":"yes","recycling:plastic_packaging":"yes","recycling_type":"container"}},"type":"Feature"},
	{"geometry":{"coordinates":[24.786463,59.434449],"type":"Point"},"properties":{"osm_id":"7231336750","tag":{"amenity":"recycling","opening_hours":"24/7","recycling:cans":"yes","recycling:cardboard":"yes","recycling:glass":"yes","recycling:glass_bottles":"yes","recycling:paper":"yes","recycling:plastic":"yes","recycling:plastic_bottles":"yes","recycling:plastic_packaging":"yes","recycling_type":"container"}},"type":"Feature"},
	{"geometry":{"coordinates":[24.787414,59.441101],"type":"Point"},"properties":{"osm_id":"7231368262","tag":{"amenity":"recycling","opening_hours":"24/7","recycling:glass":"yes","recycling:glass_bottles":"yes","recycling_type":"container"}},"type":"Feature"},
	{"geometry":{"coordinates":[24.846313,59.442148],"type":"Point"},"properties":{"osm_id":"7265724436","tag":{"amenity":"recycling","recycling:glass":"no","recycling:glass_bottles":"yes","recycling_type":"container","waste":"trash"}},"type":"Feature"},
	{"geometry":{"coordinates":[24.846106,59.442327],"type":"Point"},"properties":{"osm_id":"7265724437","tag":{"amenity":"waste_disposal","waste":"trash"}},"type":"Feature"},
	{"geometry":{"coordinates":[24.84562,59.442925],"type":"Point"},"properties":{"osm_id":"7265724438","tag":{"amenity":"waste_disposal","waste":"trash"}},"type":"Feature"},
	{"geometry":{"coordinates":[24.84581,59.442484],"type":"Point"},"properties":{"osm_id":"7265724439","tag":{"amenity":"waste_disposal","waste":"trash"}},"type":"Feature"},
	{"geometry":{"coordinates":[24.84524,59.443031],"type":"Point"},"properties":{"osm_id":"7265724440","tag":{"amenity":"waste_disposal","waste":"trash"}},"type":"Feature"},
	{"geometry":{"coordinates":[24.845254,59.443637],"type":"Point"},"properties":{"osm_id":"7265724441","tag":{"amenity":"waste_disposal","waste":"trash"}},"type":"Feature"},
	{"geometry":{"coordinates":[24.843785,59.443327],"type":"Point"},"properties":{"osm_id":"7265724442","tag":{"amenity":"waste_disposal","waste":"trash"}},"type":"Feature"},
	{"geometry":{"coordinates":[24.807041,59.434715],"type":"Point"},"properties":{"osm_id":"7434020798","tag":{"amenity":"waste_basket"}},"type":"Feature"},
	{"geometry":{"coordinates":[24.805253,59.434818],"type":"Point"},"properties":{"osm_id":"7434020802","tag":{"amenity":"waste_basket"}},"type":"Feature"},
	{"geometry":{"coordinates":[24.830401,59.42616],"type":"Point"},"properties":{"name":"BASE Metal","osm_id":"7567035530","tag":{"addr:city":"Tallinn","addr:housenumber":"9","addr:postcode":"11415","addr:street":"Kriidi","amenity":"recycling","operator":"BASE Metal O\u00c3\u009c","operator:type":"private","recycling:car_batteries":"yes","recycling:catalytic_converters":"yes","recycling:electronics":"yes","recycling_type":"centre","website":"http://www.basemetal.ee/"}},"type":"Feature"},
	{"geometry":{"coordinates":[24.821835,59.435972],"type":"Point"},"properties":{"osm_id":"7691069619","tag":{"amenity":"waste_basket"}},"type":"Feature"},
	{"geometry":{"coordinates":[24.822499,59.435885],"type":"Point"},"properties":{"osm_id":"7691069650","tag":{"amenity":"waste_basket"}},"type":"Feature"},
	{"geometry":{"coordinates":[24.817991,59.438134],"type":"Point"},"properties":{"osm_id":"7752687135","tag":{"amenity":"waste_disposal"}},"type":"Feature"},
	{"geometry":{"coordinates":[24.800478,59.421955],"type":"Point"},"properties":{"osm_id":"7794880145","tag":{"amenity":"waste_basket"}},"type":"Feature"},
	{"geometry":{"coordinates":[24.80039,59.42189],"type":"Point"},"properties":{"osm_id":"7794880146","tag":{"amenity":"waste_basket"}},"type":"Feature"},
	{"geometry":{"coordinates":[24.795122,59.422966],"type":"Point"},"properties":{"osm_id":"7862234324","tag":{"amenity":"waste_basket"}},"type":"Feature"},
	{"geometry":{"coordinates":[24.794613,59.422972],"type":"Point"},"properties":{"osm_id":"7862234325","tag":{"amenity":"waste_basket"}},"type":"Feature"},
	{"geometry":{"coordinates":[24.794082,59.422978],"type":"Point"},"properties":{"osm_id":"7862234326","tag":{"amenity":"waste_basket"}},"type":"Feature"},
	{"geometry":{"coordinates":[24.792539,59.422965],"type":"Point"},"properties":{"osm_id":"7862234327","tag":{"amenity":"waste_basket"}},"type":"Feature"},
	{"geometry":{"coordinates":[24.791894,59.421058],"type":"Point"},"properties":{"osm_id":"7862234477","tag":{"amenity":"waste_basket"}},"type":"Feature"},
	{"geometry":{"coordinates":[24.791885,59.421209],"type":"Point"},"properties":{"osm_id":"7862234479","tag":{"amenity":"waste_basket"}},"type":"Feature"},
	{"geometry":{"coordinates":[24.791738,59.421945],"type":"Point"},"properties":{"osm_id":"7862234495","tag":{"amenity":"waste_basket"}},"type":"Feature"},
	{"geometry":{"coordinates":[24.806082,59.432125],"type":"Point"},"properties":{"osm_id":"7948700302","tag":{"amenity":"waste_basket"}},"type":"Feature"},
	{"geometry":{"coordinates":[24.807883,59.433474],"type":"Point"},"properties":{"osm_id":"7948700327","tag":{"amenity":"waste_basket"}},"type":"Feature"},
	{"geometry":{"coordinates":[24.807281,59.433796],"type":"Point"},"properties":{"osm_id":"7948700328","tag":{"amenity":"waste_basket"}},"type":"Feature"},
	{"geometry":{"coordinates":[24.807412,59.43381],"type":"Point"},"properties":{"osm_id":"7948700329","tag":{"amenity":"waste_basket"}},"type":"Feature"},
	{"geometry":{"coordinates":[24.808046,59.433897],"type":"Point"},"properties":{"osm_id":"7948700336","tag":{"amenity":"waste_basket"}},"type":"Feature"},
	{"geometry":{"coordinates":[24.809523,59.43467],"type":"Point"},"properties":{"osm_id":"7948700375","tag":{"amenity":"waste_basket"}},"type":"Feature"},
	{"geometry":{"coordinates":[24.80847,59.435222],"type":"Point"},"properties":{"osm_id":"7948700387","tag":{"amenity":"waste_basket"}},"type":"Feature"}
]
}
