{
"type": "FeatureCollection",
"features": [
	{"geometry":{"coordinates":[3.613855,51.154772],"type":"Point"},"properties":{"name":"Milieupark Waarschoot","osm_id":"1470999965","tag":{"amenity":"recycling","recycling_type":"centre"}},"type":"Feature"},
	{"geometry":{"coordinates":[3.62497,51.14535],"type":"Point"},"properties":{"osm_id":"1471000006","tag":{"amenity":"recycling","recycling:glass":"yes","recycling:glass_bottles":"yes","recycling_type":"container"}},"type":"Feature"},
	{"geometry":{"coordinates":[3.608485,51.149418],"type":"Point"},"properties":{"osm_id":"1519965394","tag":{"amenity":"recycling","recycling:glass":"yes","recycling:glass_bottles":"yes","recycling_type":"container"}},"type":"Feature"},
	{"geometry":{"coordinates":[3.61613,51.161893],"type":"Point"},"properties":{"osm_id":"2883193639","tag":{"amenity":"recycling","operator":"Vlaams Inzamel Centrum Textiel","recycling:clothes":"yes","recycling_type":"container"}},"type":"Feature"},
	{"geometry":{"coordinates":[3.618005,51.162576],"type":"Point"},"properties":{"osm_id":"2883193852","tag":{"amenity":"waste_basket"}},"type":"Feature"},
	{"geometry":{"coordinates":[3.618671,51.163213],"type":"Point"},"properties":{"osm_id":"2883193889","tag":{"amenity":"recycling","operator":"Wereld Missie Hulp","recycling:clothes":"yes","recycling_type":"container"}},"type":"Feature"},
	{"geometry":{"coordinates":[3.619832,51.173084],"type":"Point"},"properties":{"osm_id":"2896958597","tag":{"amenity":"waste_basket"}},"type":"Feature"},
	{"geometry":{"coordinates":[3.650738,51.175752],"type":"Point"},"properties":{"osm_id":"2900761588","tag":{"amenity":"waste_basket"}},"type":"Feature"},
	{"geometry":{"coordinates":[3.640498,51.177897],"type":"Point"},"properties":{"osm_id":"2900761593","tag":{"amenity":"waste_basket"}},"type":"Feature"},
	{"geometry":{"coordinates":[3.634369,51.178441],"type":"Point"},"properties":{"osm_id":"2900761595","tag":{"amenity":"waste_basket"}},"type":"Feature"},
	{"geometry":{"coordinates":[3.640512,51.178916],"type":"Point"},"properties":{"osm_id":"2900770108","tag":{"amenity":"waste_basket"}},"type":"Feature"}
]
}
