{
"type": "FeatureCollection",
"features": [
	{"geometry":{"coordinates":[3.663446,50.955144],"type":"Point"},"properties":{"osm_id":"3811248595","tag":{"amenity":"waste_basket"}},"type":"Feature"},
	{"geometry":{"coordinates":[3.685929,50.903156],"type":"Point"},"properties":{"osm_id":"4571922156","tag":{"amenity":"waste_basket"}},"type":"Feature"},
	{"geometry":{"coordinates":[3.652732,50.906431],"type":"Point"},"properties":{"osm_id":"4572012207","tag":{"amenity":"waste_basket"}},"type":"Feature"},
	{"geometry":{"coordinates":[3.652371,50.906335],"type":"Point"},"properties":{"osm_id":"4572012209","tag":{"amenity":"waste_basket"}},"type":"Feature"},
	{"geometry":{"coordinates":[3.652216,50.906102],"type":"Point"},"properties":{"osm_id":"4572013000","tag":{"amenity":"recycling","operator":"Vlaams Inzamel Centrum Textiel","recycling:clothes":"yes","recycling_type":"container"}},"type":"Feature"},
	{"geometry":{"coordinates":[3.652233,50.906098],"type":"Point"},"properties":{"osm_id":"4572013001","tag":{"amenity":"recycling","operator":"Vlaams Inzamel Centrum Textiel","recycling:clothes":"yes","recycling_type":"container"}},"type":"Feature"},
	{"geometry":{"coordinates":[3.652251,50.906069],"type":"Point"},"properties":{"osm_id":"4572013002","tag":{"amenity":"recycling","recycling:glass_bottles":"yes","recycling_type":"container"}},"type":"Feature"},
	{"geometry":{"coordinates":[3.652267,50.90609],"type":"Point"},"properties":{"osm_id":"4572013003","tag":{"amenity":"recycling","recycling:glass_bottles":"yes","recycling_type":"container"}},"type":"Feature"},
	{"geometry":{"coordinates":[3.65466,50.905454],"type":"Point"},"properties":{"osm_id":"4572153913","tag":{"amenity":"waste_basket"}},"type":"Feature"},
	{"geometry":{"coordinates":[3.653853,50.904129],"type":"Point"},"properties":{"osm_id":"4572652820","tag":{"amenity":"waste_basket"}},"type":"Feature"},
	{"geometry":{"coordinates":[3.654077,50.90372],"type":"Point"},"properties":{"osm_id":"4573042962","tag":{"amenity":"waste_basket"}},"type":"Feature"},
	{"geometry":{"coordinates":[3.654946,50.903698],"type":"Point"},"properties":{"osm_id":"4573867615","tag":{"amenity":"waste_basket"}},"type":"Feature"},
	{"geometry":{"coordinates":[3.691111,50.918329],"type":"Point"},"properties":{"osm_id":"4584276375","tag":{"amenity":"waste_basket"}},"type":"Feature"},
	{"geometry":{"coordinates":[3.690939,50.918467],"type":"Point"},"properties":{"osm_id":"4584276376","tag":{"amenity":"waste_basket"}},"type":"Feature"},
	{"geometry":{"coordinates":[3.69109,50.918496],"type":"Point"},"properties":{"osm_id":"4584276381","tag":{"amenity":"waste_basket"}},"type":"Feature"},
	{"geometry":{"coordinates":[3.69108,50.918981],"type":"Point"},"properties":{"osm_id":"4584276386","tag":{"amenity":"recycling","recycling:glass_bottles":"yes","recycling_type":"container"}},"type":"Feature"},
	{"geometry":{"coordinates":[3.691066,50.918956],"type":"Point"},"properties":{"osm_id":"4584276387","tag":{"amenity":"recycling","operator":"Curitas n.v.","recycling:clothes":"yes","recycling_type":"container"}},"type":"Feature"},
	{"geometry":{"coordinates":[3.668349,50.919358],"type":"Point"},"properties":{"osm_id":"4593196221","tag":{"amenity":"waste_basket"}},"type":"Feature"},
	{"geometry":{"coordinates":[3.658986,50.922431],"type":"Point"},"properties":{"osm_id":"4594265031","tag":{"amenity":"waste_basket"}},"type":"Feature"},
	{"geometry":{"coordinates":[3.659943,50.922483],"type":"Point"},"properties":{"osm_id":"4594265033","tag":{"amenity":"waste_basket"}},"type":"Feature"},
	{"geometry":{"coordinates":[3.661199,50.92292],"type":"Point"},"properties":{"osm_id":"4594265034","tag":{"amenity":"waste_basket"}},"type":"Feature"},
	{"geometry":{"coordinates":[3.660525,50.923292],"type":"Point"},"properties":{"osm_id":"4594265035","tag":{"amenity":"waste_basket"}},"type":"Feature"},
	{"geometry":{"coordinates":[3.661531,50.922951],"type":"Point"},"properties":{"osm_id":"4594265039","tag":{"amenity":"waste_basket"}},"type":"Feature"},
	{"geometry":{"coordinates":[3.690785,50.917908],"type":"Point"},"properties":{"osm_id":"4595389284","tag":{"amenity":"waste_basket"}},"type":"Feature"},
	{"geometry":{"coordinates":[3.690784,50.917774],"type":"Point"},"properties":{"osm_id":"4595389288","tag":{"amenity":"waste_basket"}},"type":"Feature"},
	{"geometry":{"coordinates":[3.689904,50.903466],"type":"Point"},"properties":{"osm_id":"4595390998","tag":{"amenity":"waste_basket"}},"type":"Feature"},
	{"geometry":{"coordinates":[3.667176,50.916446],"type":"Point"},"properties":{"osm_id":"4766734554","tag":{"amenity":"waste_basket"}},"type":"Feature"},
	{"geometry":{"coordinates":[3.65303,50.913294],"type":"Point"},"properties":{"osm_id":"5760847256","tag":{"amenity":"recycling","operator":"Wereld Missie Hulp","recycling:clothes":"yes","recycling_type":"container"}},"type":"Feature"},
	{"geometry":{"coordinates":[3.652007,50.913078],"type":"Point"},"properties":{"osm_id":"5760847356","tag":{"amenity":"waste_basket"}},"type":"Feature"},
	{"geometry":{"coordinates":[3.63921,50.931502],"type":"Point"},"properties":{"osm_id":"7875064764","tag":{"amenity":"recycling","recycling:clothes":"yes","recycling:shoes":"yes","recycling_type":"container"}},"type":"Feature"}
]
}
