{
"type": "FeatureCollection",
"features": [
	{"geometry":{"coordinates":[3.679954,47.259159],"type":"Point"},"properties":{"osm_id":"1289411719","tag":{"amenity":"recycling","recycling:cans":"yes","recycling:glass":"yes","recycling:paper":"yes"}},"type":"Feature"},
	{"geometry":{"coordinates":[3.686314,47.255028],"type":"Point"},"properties":{"osm_id":"1327651897","tag":{"amenity":"recycling","recycling:cans":"yes","recycling:glass":"yes","recycling:paper":"yes","recycling:scrap_metal":"no"}},"type":"Feature"},
	{"geometry":{"coordinates":[3.68416,47.257213],"type":"Point"},"properties":{"osm_id":"1331086980","tag":{"amenity":"waste_basket"}},"type":"Feature"},
	{"geometry":{"coordinates":[3.684091,47.257319],"type":"Point"},"properties":{"osm_id":"1331086981","tag":{"amenity":"waste_basket"}},"type":"Feature"},
	{"geometry":{"coordinates":[3.68437,47.257493],"type":"Point"},"properties":{"osm_id":"1331086985","tag":{"amenity":"waste_basket"}},"type":"Feature"},
	{"geometry":{"coordinates":[3.688543,47.257509],"type":"Point"},"properties":{"osm_id":"1343061448","tag":{"amenity":"recycling","recycling:glass":"yes"}},"type":"Feature"},
	{"geometry":{"coordinates":[3.647943,47.259082],"type":"Point"},"properties":{"name":"Chitry-les-Mines","osm_id":"2988349254","tag":{"amenity":"waste_disposal","official":"camper","tents":"no","tourism":"caravan_site"}},"type":"Feature"},
	{"geometry":{"coordinates":[3.679963,47.259111],"type":"Point"},"properties":{"osm_id":"4114499645","tag":{"amenity":"recycling"}},"type":"Feature"},
	{"geometry":{"coordinates":[3.676753,47.254456],"type":"Point"},"properties":{"osm_id":"4114517130","tag":{"amenity":"recycling"}},"type":"Feature"},
	{"geometry":{"coordinates":[3.683145,47.253534],"type":"Point"},"properties":{"osm_id":"4114541590","tag":{"amenity":"recycling"}},"type":"Feature"}
]
}
