{
"type": "FeatureCollection",
"features": [
	{"geometry":{"coordinates":[3.663847,44.507384],"type":"Point"},"properties":{"osm_id":"3395342857","tag":{"amenity":"waste_basket"}},"type":"Feature"},
	{"geometry":{"coordinates":[3.666957,44.504953],"type":"Point"},"properties":{"osm_id":"3396911336","tag":{"amenity":"recycling","recycling_type":"container"}},"type":"Feature"},
	{"geometry":{"coordinates":[3.666254,44.505701],"type":"Point"},"properties":{"osm_id":"3396911349","tag":{"amenity":"waste_basket"}},"type":"Feature"},
	{"geometry":{"coordinates":[3.661796,44.50748],"type":"Point"},"properties":{"osm_id":"3500540113","tag":{"amenity":"recycling","recycling:glass":"yes","recycling_type":"container"}},"type":"Feature"},
	{"geometry":{"coordinates":[3.661813,44.5075],"type":"Point"},"properties":{"osm_id":"3500540115","tag":{"amenity":"recycling","recycling:paper":"yes","recycling_type":"container"}},"type":"Feature"},
	{"geometry":{"coordinates":[3.67706,44.524285],"type":"Point"},"properties":{"osm_id":"3500559541","tag":{"amenity":"recycling","recycling:cardboard":"yes","recycling_type":"container"}},"type":"Feature"},
	{"geometry":{"coordinates":[3.677074,44.524301],"type":"Point"},"properties":{"osm_id":"3500559542","tag":{"amenity":"recycling","recycling:glass":"yes","recycling_type":"container"}},"type":"Feature"},
	{"geometry":{"coordinates":[3.677925,44.524162],"type":"Point"},"properties":{"osm_id":"3500675206","tag":{"amenity":"waste_basket"}},"type":"Feature"},
	{"geometry":{"coordinates":[3.677055,44.524303],"type":"Point"},"properties":{"osm_id":"3500675217","tag":{"amenity":"waste_disposal"}},"type":"Feature"}
]
}
