{
"type": "FeatureCollection",
"features": [
	{"geometry":{"coordinates":[-86.809494,33.652771],"type":"Point"},"properties":{"osm_id":"7771396244","tag":{"amenity":"waste_disposal","waste":"trash"}},"type":"Feature"},
	{"geometry":{"coordinates":[-86.820714,33.651361],"type":"Point"},"properties":{"osm_id":"7816309489","tag":{"amenity":"waste_disposal","operator":"Waste Management"}},"type":"Feature"},
	{"geometry":{"coordinates":[-86.821512,33.651313],"type":"Point"},"properties":{"osm_id":"7816309493","tag":{"amenity":"waste_disposal","operator":"Republic Services"}},"type":"Feature"},
	{"geometry":{"coordinates":[-86.820825,33.651371],"type":"Point"},"properties":{"osm_id":"7816309500","tag":{"amenity":"waste_disposal","operator":"Waste Management"}},"type":"Feature"},
	{"geometry":{"coordinates":[-86.821563,33.651335],"type":"Point"},"properties":{"osm_id":"7816309504","tag":{"amenity":"waste_disposal","operator":"Republic Services"}},"type":"Feature"},
	{"geometry":{"coordinates":[-86.815959,33.651213],"type":"Point"},"properties":{"osm_id":"7816309506","tag":{"amenity":"waste_disposal","operator":"Santek Waste Services"}},"type":"Feature"},
	{"geometry":{"coordinates":[-86.822425,33.652972],"type":"Point"},"properties":{"osm_id":"7816309509","tag":{"amenity":"waste_disposal"}},"type":"Feature"},
	{"geometry":{"coordinates":[-86.820114,33.65145],"type":"Point"},"properties":{"osm_id":"7816309510","tag":{"amenity":"waste_disposal"}},"type":"Feature"}
]
}
