{
"type": "FeatureCollection",
"features": [
	{"geometry":{"coordinates":[-86.805581,33.607334],"type":"Point"},"properties":{"osm_id":"7795023465","tag":{"amenity":"waste_basket","waste":"trash"}},"type":"Feature"},
	{"geometry":{"coordinates":[-86.805842,33.607371],"type":"Point"},"properties":{"osm_id":"7795023466","tag":{"amenity":"waste_basket","waste":"trash"}},"type":"Feature"},
	{"geometry":{"coordinates":[-86.806391,33.607447],"type":"Point"},"properties":{"osm_id":"7795023467","tag":{"amenity":"waste_basket","waste":"trash"}},"type":"Feature"},
	{"geometry":{"coordinates":[-86.815889,33.651148],"type":"Point"},"properties":{"osm_id":"7816309490","tag":{"amenity":"waste_disposal"}},"type":"Feature"},
	{"geometry":{"coordinates":[-86.82756,33.646945],"type":"Point"},"properties":{"osm_id":"7816309492","tag":{"amenity":"waste_disposal","operator":"Republic Services"}},"type":"Feature"},
	{"geometry":{"coordinates":[-86.819417,33.651077],"type":"Point"},"properties":{"osm_id":"7816309494","tag":{"amenity":"waste_disposal"}},"type":"Feature"},
	{"geometry":{"coordinates":[-86.815969,33.651176],"type":"Point"},"properties":{"osm_id":"7816309495","tag":{"amenity":"waste_disposal","operator":"Santek Waste Services"}},"type":"Feature"},
	{"geometry":{"coordinates":[-86.827498,33.646431],"type":"Point"},"properties":{"osm_id":"7816309498","tag":{"amenity":"waste_disposal"}},"type":"Feature"},
	{"geometry":{"coordinates":[-86.826073,33.648869],"type":"Point"},"properties":{"osm_id":"7816309499","tag":{"amenity":"waste_disposal"}},"type":"Feature"},
	{"geometry":{"coordinates":[-86.826165,33.647373],"type":"Point"},"properties":{"osm_id":"7816309503","tag":{"amenity":"waste_disposal","operator":"Republic Services"}},"type":"Feature"},
	{"geometry":{"coordinates":[-86.819438,33.65106],"type":"Point"},"properties":{"osm_id":"7816309505","tag":{"amenity":"waste_disposal"}},"type":"Feature"},
	{"geometry":{"coordinates":[-86.827539,33.646401],"type":"Point"},"properties":{"osm_id":"7816309508","tag":{"amenity":"waste_disposal","operator":"Waste Management"}},"type":"Feature"},
	{"geometry":{"coordinates":[-86.817059,33.650738],"type":"Point"},"properties":{"osm_id":"7816309511","tag":{"amenity":"waste_disposal"}},"type":"Feature"},
	{"geometry":{"coordinates":[-86.826071,33.648832],"type":"Point"},"properties":{"osm_id":"7816309514","tag":{"amenity":"waste_disposal"}},"type":"Feature"}
]
}
