{
"type": "FeatureCollection",
"features": [
	{"geometry":{"coordinates":[-96.907134,19.548888],"type":"Point"},"properties":{"name":"International Paper Xalapa Recycling","osm_id":"3327864217","tag":{"amenity":"recycling","phone":"840-8745","recycling:books":"yes","recycling:paper":"yes"}},"type":"Feature"},
	{"geometry":{"coordinates":[-96.917011,19.524591],"type":"Point"},"properties":{"osm_id":"3696060086","tag":{"amenity":"waste_basket"}},"type":"Feature"},
	{"geometry":{"coordinates":[-96.916978,19.52475],"type":"Point"},"properties":{"osm_id":"3696060087","tag":{"amenity":"waste_basket"}},"type":"Feature"},
	{"geometry":{"coordinates":[-96.916927,19.524627],"type":"Point"},"properties":{"osm_id":"3696060088","tag":{"amenity":"waste_basket"}},"type":"Feature"},
	{"geometry":{"coordinates":[-96.916865,19.524774],"type":"Point"},"properties":{"osm_id":"3696060089","tag":{"amenity":"waste_basket"}},"type":"Feature"},
	{"geometry":{"coordinates":[-96.916711,19.524499],"type":"Point"},"properties":{"osm_id":"3696063625","tag":{"amenity":"waste_basket"}},"type":"Feature"},
	{"geometry":{"coordinates":[-96.916881,19.524522],"type":"Point"},"properties":{"osm_id":"3696063626","tag":{"amenity":"waste_basket"}},"type":"Feature"},
	{"geometry":{"coordinates":[-96.916886,19.523696],"type":"Point"},"properties":{"osm_id":"3696098188","tag":{"amenity":"waste_basket"}},"type":"Feature"},
	{"geometry":{"coordinates":[-96.916585,19.523686],"type":"Point"},"properties":{"osm_id":"3696098189","tag":{"amenity":"waste_basket"}},"type":"Feature"},
	{"geometry":{"coordinates":[-96.916519,19.523686],"type":"Point"},"properties":{"osm_id":"3696098190","tag":{"amenity":"waste_basket"}},"type":"Feature"},
	{"geometry":{"coordinates":[-96.916587,19.523555],"type":"Point"},"properties":{"osm_id":"3696098191","tag":{"amenity":"waste_basket"}},"type":"Feature"},
	{"geometry":{"coordinates":[-96.917076,19.523597],"type":"Point"},"properties":{"osm_id":"3696098192","tag":{"amenity":"waste_basket"}},"type":"Feature"},
	{"geometry":{"coordinates":[-96.91715,19.523829],"type":"Point"},"properties":{"osm_id":"3696098193","tag":{"amenity":"waste_basket"}},"type":"Feature"},
	{"geometry":{"coordinates":[-96.916767,19.523382],"type":"Point"},"properties":{"osm_id":"3696098195","tag":{"amenity":"waste_basket"}},"type":"Feature"},
	{"geometry":{"coordinates":[-96.916841,19.523359],"type":"Point"},"properties":{"osm_id":"3696098196","tag":{"amenity":"waste_basket"}},"type":"Feature"},
	{"geometry":{"coordinates":[-96.91657,19.524021],"type":"Point"},"properties":{"osm_id":"3696098197","tag":{"amenity":"waste_basket"}},"type":"Feature"},
	{"geometry":{"coordinates":[-96.916324,19.523564],"type":"Point"},"properties":{"osm_id":"3696098198","tag":{"amenity":"waste_basket"}},"type":"Feature"},
	{"geometry":{"coordinates":[-96.916336,19.524119],"type":"Point"},"properties":{"osm_id":"3696098200","tag":{"amenity":"waste_basket"}},"type":"Feature"},
	{"geometry":{"coordinates":[-96.893365,19.513682],"type":"Point"},"properties":{"osm_id":"3786092243","tag":{"amenity":"waste_basket"}},"type":"Feature"},
	{"geometry":{"coordinates":[-96.893723,19.513366],"type":"Point"},"properties":{"osm_id":"3786092244","tag":{"amenity":"waste_basket"}},"type":"Feature"},
	{"geometry":{"coordinates":[-96.893853,19.513445],"type":"Point"},"properties":{"osm_id":"3786097661","tag":{"amenity":"waste_basket"}},"type":"Feature"},
	{"geometry":{"coordinates":[-96.893578,19.511448],"type":"Point"},"properties":{"osm_id":"3786097663","tag":{"amenity":"waste_basket"}},"type":"Feature"},
	{"geometry":{"coordinates":[-96.889214,19.514076],"type":"Point"},"properties":{"osm_id":"5331866398","tag":{"amenity":"waste_basket"}},"type":"Feature"}
]
}
