{
"type": "FeatureCollection",
"features": [
	{"geometry":{"coordinates":[24.306148,60.332967],"type":"Point"},"properties":{"osm_id":"4109417132","tag":{"amenity":"waste_basket"}},"type":"Feature"},
	{"geometry":{"coordinates":[24.315065,60.333459],"type":"Point"},"properties":{"osm_id":"4109417140","tag":{"amenity":"waste_basket"}},"type":"Feature"},
	{"geometry":{"coordinates":[24.312912,60.338548],"type":"Point"},"properties":{"osm_id":"4109417148","tag":{"amenity":"waste_basket"}},"type":"Feature"},
	{"geometry":{"coordinates":[24.315122,60.336079],"type":"Point"},"properties":{"osm_id":"4124568756","tag":{"amenity":"waste_basket"}},"type":"Feature"},
	{"geometry":{"coordinates":[24.3178,60.333534],"type":"Point"},"properties":{"name":"Rinki-ekopiste","osm_id":"4124568771","tag":{"addr:housenumber":"3","addr:street":"Keskikuja","amenity":"recycling","recycling:cardboard":"yes","recycling:clothes":"yes","recycling:glass":"yes","recycling:metal":"yes","recycling:paper":"yes","recycling:plastic":"yes","recycling:plastic_bags":"yes"}},"type":"Feature"},
	{"geometry":{"coordinates":[24.318455,60.332793],"type":"Point"},"properties":{"osm_id":"4124568772","tag":{"access":"private","amenity":"recycling","recycling:organic":"yes","recycling:paper":"yes"}},"type":"Feature"},
	{"geometry":{"coordinates":[24.319137,60.332579],"type":"Point"},"properties":{"osm_id":"4124568777","tag":{"amenity":"waste_basket"}},"type":"Feature"},
	{"geometry":{"coordinates":[24.32073,60.333761],"type":"Point"},"properties":{"osm_id":"4124569492","tag":{"amenity":"waste_basket"}},"type":"Feature"},
	{"geometry":{"coordinates":[24.324037,60.332313],"type":"Point"},"properties":{"name":"Rinki-ekopiste","osm_id":"4124621536","tag":{"access":"yes","addr:housenumber":"1","addr:street":"Naaranpajuntie","amenity":"recycling","operator":"Rinki","phone":"0800 133 888","recycling:cardboard":"yes","recycling:clothes":"yes","recycling:glass":"yes","recycling:metal":"yes","recycling:paper":"yes","recycling:plastic_bags":"yes","website":"https://rinkiin.fi/"}},"type":"Feature"},
	{"geometry":{"coordinates":[24.324681,60.332616],"type":"Point"},"properties":{"osm_id":"4124621537","tag":{"amenity":"waste_basket"}},"type":"Feature"},
	{"geometry":{"coordinates":[24.325525,60.332442],"type":"Point"},"properties":{"osm_id":"4124621538","tag":{"amenity":"waste_basket"}},"type":"Feature"},
	{"geometry":{"coordinates":[24.326557,60.332523],"type":"Point"},"properties":{"osm_id":"4124621556","tag":{"amenity":"waste_basket"}},"type":"Feature"},
	{"geometry":{"coordinates":[24.315159,60.332775],"type":"Point"},"properties":{"osm_id":"4141737046","tag":{"amenity":"waste_basket"}},"type":"Feature"},
	{"geometry":{"coordinates":[24.316997,60.332437],"type":"Point"},"properties":{"osm_id":"4141809622","tag":{"amenity":"waste_basket"}},"type":"Feature"},
	{"geometry":{"coordinates":[24.317014,60.331976],"type":"Point"},"properties":{"osm_id":"4141809624","tag":{"amenity":"waste_basket"}},"type":"Feature"},
	{"geometry":{"coordinates":[24.316569,60.334248],"type":"Point"},"properties":{"osm_id":"4142425151","tag":{"amenity":"waste_basket"}},"type":"Feature"},
	{"geometry":{"coordinates":[24.324491,60.338465],"type":"Point"},"properties":{"osm_id":"4142732921","tag":{"amenity":"waste_basket"}},"type":"Feature"},
	{"geometry":{"coordinates":[24.324796,60.33867],"type":"Point"},"properties":{"osm_id":"4142732922","tag":{"amenity":"waste_basket"}},"type":"Feature"},
	{"geometry":{"coordinates":[24.324971,60.338888],"type":"Point"},"properties":{"osm_id":"4142732923","tag":{"amenity":"waste_basket"}},"type":"Feature"},
	{"geometry":{"coordinates":[24.325161,60.338983],"type":"Point"},"properties":{"osm_id":"4142732928","tag":{"amenity":"waste_basket"}},"type":"Feature"},
	{"geometry":{"coordinates":[24.31547,60.340831],"type":"Point"},"properties":{"osm_id":"4143474748","tag":{"amenity":"waste_basket"}},"type":"Feature"},
	{"geometry":{"coordinates":[24.310941,60.333791],"type":"Point"},"properties":{"osm_id":"4207095949","tag":{"amenity":"waste_basket"}},"type":"Feature"},
	{"geometry":{"coordinates":[24.312798,60.338457],"type":"Point"},"properties":{"osm_id":"4367715076","tag":{"amenity":"waste_basket"}},"type":"Feature"},
	{"geometry":{"coordinates":[24.320809,60.335508],"type":"Point"},"properties":{"osm_id":"4591663336","tag":{"amenity":"waste_basket"}},"type":"Feature"},
	{"geometry":{"coordinates":[24.313154,60.338428],"type":"Point"},"properties":{"osm_id":"4729700389","tag":{"amenity":"waste_basket"}},"type":"Feature"}
]
}
