{
"type": "FeatureCollection",
"features": [
	{"geometry":{"coordinates":[24.345554,55.729706],"type":"Point"},"properties":{"osm_id":"3236003904","tag":{"amenity":"recycling","operator":"AB \u00e2\u0080\u009ePanev\u00c4\u0097\u00c5\u00beio specialusis autotransportas\u00e2\u0080\u009c","recycling:cans":"yes","recycling:glass_bottles":"yes","recycling:paper":"yes","recycling_type":"container"}},"type":"Feature"},
	{"geometry":{"coordinates":[24.318264,55.73619],"type":"Point"},"properties":{"osm_id":"4307711307","tag":{"amenity":"recycling","recycling:glass_bottles":"yes","recycling:paper":"yes","recycling:plastic_bottles":"yes","recycling:small_appliances":"no","recycling_type":"container"}},"type":"Feature"},
	{"geometry":{"coordinates":[24.344972,55.732042],"type":"Point"},"properties":{"osm_id":"4342787580","tag":{"amenity":"recycling"}},"type":"Feature"},
	{"geometry":{"coordinates":[24.337942,55.732946],"type":"Point"},"properties":{"osm_id":"4342791192","tag":{"amenity":"recycling"}},"type":"Feature"},
	{"geometry":{"coordinates":[24.338119,55.733624],"type":"Point"},"properties":{"osm_id":"4342791194","tag":{"amenity":"recycling"}},"type":"Feature"},
	{"geometry":{"coordinates":[24.339445,55.736392],"type":"Point"},"properties":{"osm_id":"4342791206","tag":{"amenity":"recycling"}},"type":"Feature"},
	{"geometry":{"coordinates":[24.321941,55.735207],"type":"Point"},"properties":{"osm_id":"6055740773","tag":{"amenity":"recycling","recycling:glass_bottles":"yes","recycling:paper":"yes","recycling:plastic":"yes","recycling_type":"container"}},"type":"Feature"},
	{"geometry":{"coordinates":[24.323708,55.729868],"type":"Point"},"properties":{"osm_id":"7100401085","tag":{"amenity":"waste_disposal"}},"type":"Feature"},
	{"geometry":{"coordinates":[24.330883,55.733434],"type":"Point"},"properties":{"osm_id":"7101097085","tag":{"amenity":"waste_disposal"}},"type":"Feature"},
	{"geometry":{"coordinates":[24.327175,55.731072],"type":"Point"},"properties":{"osm_id":"7101173886","tag":{"amenity":"waste_disposal"}},"type":"Feature"},
	{"geometry":{"coordinates":[24.331608,55.735878],"type":"Point"},"properties":{"osm_id":"7101253885","tag":{"amenity":"waste_disposal"}},"type":"Feature"},
	{"geometry":{"coordinates":[24.323206,55.734924],"type":"Point"},"properties":{"osm_id":"7102336452","tag":{"amenity":"waste_disposal"}},"type":"Feature"},
	{"geometry":{"coordinates":[24.320772,55.729879],"type":"Point"},"properties":{"osm_id":"7103081647","tag":{"amenity":"waste_disposal"}},"type":"Feature"}
]
}
