{
"type": "FeatureCollection",
"features": [
	{"geometry":{"coordinates":[24.274267,55.081316],"type":"Point"},"properties":{"osm_id":"2960323162","tag":{"amenity":"recycling","recycling_type":"container"}},"type":"Feature"},
	{"geometry":{"coordinates":[24.276038,55.079699],"type":"Point"},"properties":{"osm_id":"3888448936","tag":{"amenity":"recycling","recycling_type":"container"}},"type":"Feature"},
	{"geometry":{"coordinates":[24.290545,55.084958],"type":"Point"},"properties":{"osm_id":"4365235215","tag":{"amenity":"recycling","recycling:glass_bottles":"yes","recycling:paper":"yes","recycling:plastic_bottles":"yes","recycling_type":"container"}},"type":"Feature"},
	{"geometry":{"coordinates":[24.283264,55.096647],"type":"Point"},"properties":{"name":"Stambi\u00c5\u00b3 atliek\u00c5\u00b3 pri\u00c4\u0097mimo aik\u00c5\u00a1tel\u00c4\u0097","osm_id":"4368577802","tag":{"addr:city":"Jonava","addr:housenumber":"19","addr:street":"Darbinink\u0173 g.","amenity":"recycling","phone":"+370 683 04871","recycling_type":"centre"}},"type":"Feature"},
	{"geometry":{"coordinates":[24.260668,55.082129],"type":"Point"},"properties":{"osm_id":"4423913101","tag":{"amenity":"recycling","recycling_type":"container"}},"type":"Feature"},
	{"geometry":{"coordinates":[24.267442,55.083479],"type":"Point"},"properties":{"osm_id":"4663400108","tag":{"amenity":"recycling","recycling_type":"container"}},"type":"Feature"},
	{"geometry":{"coordinates":[24.261964,55.080677],"type":"Point"},"properties":{"osm_id":"4688909015","tag":{"amenity":"recycling","recycling_type":"container"}},"type":"Feature"},
	{"geometry":{"coordinates":[24.281973,55.079647],"type":"Point"},"properties":{"osm_id":"5370510722","tag":{"amenity":"recycling","recycling:glass_bottles":"yes","recycling:paper":"yes","recycling:plastic_bottles":"yes","recycling_type":"container"}},"type":"Feature"},
	{"geometry":{"coordinates":[24.32669,55.123293],"type":"Point"},"properties":{"osm_id":"5572854241","tag":{"amenity":"recycling","recycling_type":"container"}},"type":"Feature"},
	{"geometry":{"coordinates":[24.268287,55.090359],"type":"Point"},"properties":{"osm_id":"6322692570","tag":{"amenity":"waste_basket"}},"type":"Feature"},
	{"geometry":{"coordinates":[24.26821,55.090371],"type":"Point"},"properties":{"osm_id":"6322692571","tag":{"amenity":"waste_basket"}},"type":"Feature"}
]
}
