{
"type": "FeatureCollection",
"features": [
	{"geometry":{"coordinates":[24.27873,55.070857],"type":"Point"},"properties":{"osm_id":"3888446849","tag":{"amenity":"recycling","recycling_type":"container"}},"type":"Feature"},
	{"geometry":{"coordinates":[24.281763,55.078326],"type":"Point"},"properties":{"osm_id":"3888448937","tag":{"amenity":"recycling","recycling_type":"container"}},"type":"Feature"},
	{"geometry":{"coordinates":[24.286594,55.071839],"type":"Point"},"properties":{"osm_id":"3888448942","tag":{"amenity":"recycling","recycling_type":"container"}},"type":"Feature"},
	{"geometry":{"coordinates":[24.270768,55.069892],"type":"Point"},"properties":{"osm_id":"3888448944","tag":{"amenity":"recycling","recycling_type":"container"}},"type":"Feature"},
	{"geometry":{"coordinates":[24.313689,55.066866],"type":"Point"},"properties":{"name":"Stambi\u00c5\u00b3 atliek\u00c5\u00b3 pri\u00c4\u0097mimo aik\u00c5\u00a1tel\u00c4\u0097","osm_id":"4368571407","tag":{"amenity":"recycling","phone":"+370 683 38483","recycling_type":"centre"}},"type":"Feature"},
	{"geometry":{"coordinates":[24.263451,55.073895],"type":"Point"},"properties":{"osm_id":"4688909024","tag":{"amenity":"recycling","recycling_type":"container"}},"type":"Feature"},
	{"geometry":{"coordinates":[24.278615,55.077943],"type":"Point"},"properties":{"osm_id":"4729584785","tag":{"amenity":"recycling","recycling_type":"container"}},"type":"Feature"},
	{"geometry":{"coordinates":[24.261154,55.068545],"type":"Point"},"properties":{"osm_id":"4758359959","tag":{"amenity":"recycling","recycling_type":"container"}},"type":"Feature"},
	{"geometry":{"coordinates":[24.260039,55.073552],"type":"Point"},"properties":{"osm_id":"5248383346","tag":{"amenity":"recycling","recycling_type":"container"}},"type":"Feature"},
	{"geometry":{"coordinates":[24.26079,55.076238],"type":"Point"},"properties":{"osm_id":"5248383348","tag":{"amenity":"recycling","recycling_type":"container"}},"type":"Feature"},
	{"geometry":{"coordinates":[24.269098,55.075801],"type":"Point"},"properties":{"osm_id":"5749823967","tag":{"amenity":"recycling","recycling_type":"container"}},"type":"Feature"},
	{"geometry":{"coordinates":[24.273056,55.069063],"type":"Point"},"properties":{"osm_id":"6412123255","tag":{"amenity":"recycling","recycling_type":"container"}},"type":"Feature"},
	{"geometry":{"coordinates":[24.28219,55.072732],"type":"Point"},"properties":{"osm_id":"6475131486","tag":{"amenity":"waste_disposal"}},"type":"Feature"},
	{"geometry":{"coordinates":[24.28422,55.073613],"type":"Point"},"properties":{"osm_id":"6475131492","tag":{"amenity":"waste_disposal"}},"type":"Feature"},
	{"geometry":{"coordinates":[24.286658,55.071867],"type":"Point"},"properties":{"osm_id":"6475131493","tag":{"amenity":"waste_disposal"}},"type":"Feature"},
	{"geometry":{"coordinates":[24.282788,55.070502],"type":"Point"},"properties":{"osm_id":"6475131494","tag":{"amenity":"waste_disposal"}},"type":"Feature"},
	{"geometry":{"coordinates":[24.288957,55.073304],"type":"Point"},"properties":{"osm_id":"6475131495","tag":{"amenity":"waste_disposal"}},"type":"Feature"},
	{"geometry":{"coordinates":[24.278657,55.07795],"type":"Point"},"properties":{"osm_id":"7255810845","tag":{"amenity":"waste_disposal"}},"type":"Feature"}
]
}
