{
"type": "FeatureCollection",
"lastupdate": "2020-08-01T00:00:00Z",
"features": [
	{"geometry":{"coordinates":[17.942554,59.459666],"type":"Point"},"properties":{"osm_id":"958195342","tag":{"amenity":"recycling"}},"type":"Feature"},
	{"geometry":{"coordinates":[18.006339,59.476043],"type":"Point"},"properties":{"name":"Hagby \u00c3\u0085VC","osm_id":"1259411056","tag":{"addr:city":"T\u00e4by","addr:country":"SE","addr:housenumber":"10","addr:postcode":"187 70","addr:street":"Frestav\u00e4gen","amenity":"recycling","opening_hours":"Mo-Th 06:00-20:00; Fr 06:00-16:00; Sa-Su 09:00-16:00","operator":"S\u00d6RAB","recycling_type":"centre","website":"https://www.sorab.se/"}},"type":"Feature"},
	{"geometry":{"coordinates":[17.965115,59.448381],"type":"Point"},"properties":{"osm_id":"3056437610","tag":{"amenity":"recycling"}},"type":"Feature"},
	{"geometry":{"coordinates":[17.964814,59.449544],"type":"Point"},"properties":{"osm_id":"3056437628","tag":{"amenity":"recycling"}},"type":"Feature"},
	{"geometry":{"coordinates":[18.013981,59.480537],"type":"Point"},"properties":{"osm_id":"5600430422","tag":{"amenity":"waste_basket"}},"type":"Feature"},
	{"geometry":{"coordinates":[18.006407,59.481364],"type":"Point"},"properties":{"osm_id":"5600430428","tag":{"amenity":"waste_basket"}},"type":"Feature"},
	{"geometry":{"coordinates":[18.006671,59.478096],"type":"Point"},"properties":{"barrier":"gate","osm_id":"6297955698"},"type":"Feature"}
]
}
