{
"type": "FeatureCollection",
"features": [
	{"geometry":{"coordinates":[17.996795,53.142381],"type":"Point"},"properties":{"name":"CP Recycling","osm_id":"6002489140","tag":{"amenity":"recycling","recycling:cans":"yes","recycling_type":"container","website":"http://cprecycling.eu"}},"type":"Feature"},
	{"geometry":{"coordinates":[17.956726,53.146504],"type":"Point"},"properties":{"osm_id":"6091110716","tag":{"amenity":"waste_basket"}},"type":"Feature"},
	{"geometry":{"coordinates":[17.969438,53.132231],"type":"Point"},"properties":{"osm_id":"6291826990","tag":{"amenity":"waste_disposal"}},"type":"Feature"},
	{"geometry":{"coordinates":[17.969035,53.132578],"type":"Point"},"properties":{"osm_id":"6295612309","tag":{"amenity":"waste_basket"}},"type":"Feature"},
	{"geometry":{"coordinates":[18.012171,53.127197],"type":"Point"},"properties":{"osm_id":"7152473634","tag":{"amenity":"waste_basket"}},"type":"Feature"},
	{"geometry":{"coordinates":[18.0121,53.127095],"type":"Point"},"properties":{"osm_id":"7152473635","tag":{"amenity":"waste_basket"}},"type":"Feature"},
	{"geometry":{"coordinates":[18.01204,53.127052],"type":"Point"},"properties":{"osm_id":"7152473636","tag":{"amenity":"waste_basket"}},"type":"Feature"},
	{"geometry":{"coordinates":[18.0116,53.127485],"type":"Point"},"properties":{"osm_id":"7152479093","tag":{"amenity":"waste_basket"}},"type":"Feature"},
	{"geometry":{"coordinates":[18.011903,53.127304],"type":"Point"},"properties":{"osm_id":"7152479098","tag":{"amenity":"waste_basket"}},"type":"Feature"},
	{"geometry":{"coordinates":[18.011829,53.127308],"type":"Point"},"properties":{"osm_id":"7152479099","tag":{"amenity":"waste_basket"}},"type":"Feature"},
	{"geometry":{"coordinates":[18.011517,53.127309],"type":"Point"},"properties":{"osm_id":"7152479100","tag":{"amenity":"waste_basket"}},"type":"Feature"},
	{"geometry":{"coordinates":[18.012326,53.127159],"type":"Point"},"properties":{"osm_id":"7152479102","tag":{"amenity":"waste_basket"}},"type":"Feature"},
	{"geometry":{"coordinates":[18.012174,53.126914],"type":"Point"},"properties":{"osm_id":"7152479104","tag":{"amenity":"waste_basket"}},"type":"Feature"},
	{"geometry":{"coordinates":[18.014181,53.127397],"type":"Point"},"properties":{"osm_id":"7152480594","tag":{"amenity":"waste_basket"}},"type":"Feature"},
	{"geometry":{"coordinates":[18.013926,53.127454],"type":"Point"},"properties":{"osm_id":"7152480595","tag":{"amenity":"waste_basket"}},"type":"Feature"},
	{"geometry":{"coordinates":[18.013743,53.127494],"type":"Point"},"properties":{"osm_id":"7152480596","tag":{"amenity":"waste_basket"}},"type":"Feature"},
	{"geometry":{"coordinates":[18.013584,53.12753],"type":"Point"},"properties":{"osm_id":"7152480597","tag":{"amenity":"waste_basket"}},"type":"Feature"},
	{"geometry":{"coordinates":[18.013458,53.127219],"type":"Point"},"properties":{"osm_id":"7152480598","tag":{"amenity":"waste_basket"}},"type":"Feature"},
	{"geometry":{"coordinates":[18.013643,53.127189],"type":"Point"},"properties":{"osm_id":"7152480599","tag":{"amenity":"waste_basket"}},"type":"Feature"},
	{"geometry":{"coordinates":[18.01382,53.127158],"type":"Point"},"properties":{"osm_id":"7152480600","tag":{"amenity":"waste_basket"}},"type":"Feature"},
	{"geometry":{"coordinates":[18.014079,53.127109],"type":"Point"},"properties":{"osm_id":"7152480601","tag":{"amenity":"waste_basket"}},"type":"Feature"},
	{"geometry":{"coordinates":[18.015306,53.128813],"type":"Point"},"properties":{"osm_id":"7152509500","tag":{"amenity":"waste_basket"}},"type":"Feature"},
	{"geometry":{"coordinates":[18.015406,53.128722],"type":"Point"},"properties":{"osm_id":"7152509501","tag":{"amenity":"waste_basket"}},"type":"Feature"},
	{"geometry":{"coordinates":[18.015518,53.128262],"type":"Point"},"properties":{"osm_id":"7152509502","tag":{"amenity":"waste_basket"}},"type":"Feature"},
	{"geometry":{"coordinates":[18.015156,53.129188],"type":"Point"},"properties":{"osm_id":"7152509509","tag":{"amenity":"waste_basket"}},"type":"Feature"},
	{"geometry":{"coordinates":[18.015133,53.129423],"type":"Point"},"properties":{"osm_id":"7152509510","tag":{"amenity":"waste_basket"}},"type":"Feature"},
	{"geometry":{"coordinates":[18.015046,53.129645],"type":"Point"},"properties":{"osm_id":"7152509512","tag":{"amenity":"waste_basket"}},"type":"Feature"},
	{"geometry":{"coordinates":[18.013537,53.126407],"type":"Point"},"properties":{"osm_id":"7223054004","tag":{"amenity":"recycling","recycling_type":"container"}},"type":"Feature"},
	{"geometry":{"coordinates":[18.01353,53.126402],"type":"Point"},"properties":{"osm_id":"7223054005","tag":{"amenity":"waste_disposal"}},"type":"Feature"}
]
}
