{
"type": "FeatureCollection",
"features": [
	{"geometry":{"coordinates":[17.999993,50.663361],"type":"Point"},"properties":{"osm_id":"4183569712","tag":{"amenity":"waste_basket","check_date":"2021-02-12"}},"type":"Feature"},
	{"geometry":{"coordinates":[17.941712,50.665777],"type":"Point"},"properties":{"osm_id":"6816741186","tag":{"amenity":"waste_disposal"}},"type":"Feature"},
	{"geometry":{"coordinates":[17.947952,50.664705],"type":"Point"},"properties":{"name":"Miejski Punkt Elektroodpad\u00c3\u00b3w","osm_id":"8696876993","tag":{"amenity":"recycling","description":"Gablota pe\u00c5\u0082ni\u00c4\u0085ca funkcj\u00c4\u0099 pojemnika na drobne elektroodpady","image":"https://www.smieciopolis.opole.pl/wp-content/uploads/2020/12/MPE_1-Maja-sklep-scaled.jpg","operator":"Urz\u00c4\u0085d Miasta Opola","recycling:batteries":"yes","recycling:cds":"yes","recycling:computers":"yes","recycling:electrical_items":"yes","recycling:light_bulbs":"yes","recycling:mobile_phones":"yes","recycling:printer_toner_cartridges":"yes","recycling:small_electrical_appliances":"yes","recycling_type":"container","start_date":"2020"}},"type":"Feature"},
	{"geometry":{"coordinates":[17.947098,50.651687],"type":"Point"},"properties":{"name":"Miejski Punkt Elektroodpad\u00c3\u00b3w","osm_id":"8696916990","tag":{"addr:city":"Opole","addr:street":"Jagiellon\u00c3\u00b3w 48","amenity":"recycling","description":"Gablota z funkcj\u00c4\u0085 pojemnika na drobne elektroodpady","image":"https://www.smieciopolis.opole.pl/wp-content/uploads/2020/12/MPE_Jagiellonow-scaled.jpg","opening_hours":"24/7","opening_hours:covid19":"open","operator":"Urz\u00c4\u0085d Miasta Opola","recycling:batteries":"yes","recycling:cds":"yes","recycling:computers":"yes","recycling:electrical_items":"yes","recycling:light_bulbs":"yes","recycling:mobile_phones":"yes","recycling:printer_toner_cartridges":"yes","recycling:small_electrical_appliances":"yes","recycling_type":"container"}},"type":"Feature"},
	{"geometry":{"coordinates":[17.955889,50.674291],"type":"Point"},"properties":{"name":"Miejski Punkt Elektroodpad\u00c3\u00b3w","osm_id":"8696951248","tag":{"addr:city":"Opole","addr:street":"Szarych Szereg\u00c3\u00b3w 22","amenity":"recycling","description":"Gablota z funkcj\u00c4\u0085 pojemnika na drobne elektroodpady","image":"https://www.smieciopolis.opole.pl/wp-content/uploads/2019/07/ZWM-SzSz_cz.3-e1562218993853.jpg","opening_hours":"24/7","opening_hours:covid19":"open","operator":"Urz\u00c4\u0085d Miasta Opola","recycling:batteries":"yes","recycling:cds":"yes","recycling:computers":"yes","recycling:electrical_items":"yes","recycling:light_bulbs":"yes","recycling:mobile_phones":"yes","recycling:printer_toner_cartridges":"yes","recycling:small_electrical_appliances":"yes","recycling_type":"container"}},"type":"Feature"},
	{"geometry":{"coordinates":[17.932849,50.680429],"type":"Point"},"properties":{"name":"Miejski Punkt Elektroodpad\u00c3\u00b3w","osm_id":"8700703396","tag":{"addr:city":"Opole","addr:street":"Chabr\u00c3\u00b3w","amenity":"recycling","description":"Gablota z funkcj\u00c4\u0085 pojemnika na drobne elektroodpady","image":"https://www.smieciopolis.opole.pl/wp-content/uploads/2021/04/MPE-Chabrow-anonimizowany-scaled.jpg","opening_hours":"24/7","opening_hours:covid19":"open","operator":"Urz\u00c4\u0085d Miasta Opola","recycling:batteries":"yes","recycling:cds":"yes","recycling:computers":"yes","recycling:electrical_items":"yes","recycling:light_bulbs":"yes","recycling:mobile_phones":"yes","recycling:printer_toner_cartridges":"yes","recycling:small_electrical_appliances":"yes","recycling_type":"container"}},"type":"Feature"},
	{"geometry":{"coordinates":[17.945366,50.680274],"type":"Point"},"properties":{"name":"Miejski Punkt Elektroodpad\u00c3\u00b3w","osm_id":"8700728306","tag":{"addr:city":"Opole","addr:street":"Rgota Roweckiego pasa\u00c5\u00bc handlowy","amenity":"recycling","description":"Gablota z funkcj\u00c4\u0085 pojemnika na drobne elektroodpady","image":"https://www.smieciopolis.opole.pl/wp-content/uploads/2021/04/MPE-Grota-Roweckiego.jpg","opening_hours":"24/7","opening_hours:covid19":"open","operator":"Urz\u00c4\u0085d Miasta Opola","recycling:batteries":"yes","recycling:cds":"yes","recycling:computers":"yes","recycling:electrical_items":"yes","recycling:light_bulbs":"yes","recycling:mobile_phones":"yes","recycling:printer_toner_cartridges":"yes","recycling:small_electrical_appliances":"yes","recycling_type":"container"}},"type":"Feature"},
	{"geometry":{"coordinates":[17.957492,50.678043],"type":"Point"},"properties":{"name":"Miejski Punkt Elektroodpad\u00c3\u00b3w","osm_id":"8700730884","tag":{"addr:city":"Opole","addr:street":"Pu\u00c5\u00bcaka 58","amenity":"recycling","description":"Gablota z funkcj\u00c4\u0085 pojemnika na drobne elektroodpady","image":"https://www.smieciopolis.opole.pl/wp-content/uploads/2021/04/IMG_20171025_140719-scaled.jpg","opening_hours":"24/7","opening_hours:covid19":"open","operator":"Urz\u00c4\u0085d Miasta Opola","recycling:batteries":"yes","recycling:cds":"yes","recycling:computers":"yes","recycling:electrical_items":"yes","recycling:light_bulbs":"yes","recycling:mobile_phones":"yes","recycling:printer_toner_cartridges":"yes","recycling:small_electrical_appliances":"yes","recycling_type":"container"}},"type":"Feature"},
	{"geometry":{"coordinates":[17.988173,50.668512],"type":"Point"},"properties":{"name":"Miejski Punkt Elektroodpad\u00c3\u00b3w","osm_id":"8700731075","tag":{"addr:city":"Opole","addr:street":"Wilsona 56","amenity":"recycling","description":"Gablota z funkcj\u00c4\u0085 pojemnika na drobne elektroodpady","image":"https://www.smieciopolis.opole.pl/wp-content/uploads/2021/04/MPE-Wilsona-scaled.jpg","opening_hours":"24/7","opening_hours:covid19":"open","operator":"Urz\u00c4\u0085d Miasta Opola","recycling:batteries":"yes","recycling:cds":"yes","recycling:computers":"yes","recycling:electrical_items":"yes","recycling:light_bulbs":"yes","recycling:mobile_phones":"yes","recycling:printer_toner_cartridges":"yes","recycling:small_electrical_appliances":"yes","recycling_type":"container"}},"type":"Feature"},
	{"geometry":{"coordinates":[17.953215,50.675977],"type":"Point"},"properties":{"osm_id":"8823788937","tag":{"amenity":"waste_basket"}},"type":"Feature"},
	{"geometry":{"coordinates":[17.953236,50.676375],"type":"Point"},"properties":{"osm_id":"8823788939","tag":{"amenity":"waste_basket"}},"type":"Feature"},
	{"geometry":{"coordinates":[17.952427,50.676821],"type":"Point"},"properties":{"osm_id":"8823788947","tag":{"amenity":"waste_basket"}},"type":"Feature"}
]
}
