{
"type": "FeatureCollection",
"features": [
	{"geometry":{"coordinates":[17.970251,46.988208],"type":"Point"},"properties":{"osm_id":"2344600981","tag":{"amenity":"waste_basket"}},"type":"Feature"},
	{"geometry":{"coordinates":[17.975317,46.990526],"type":"Point"},"properties":{"osm_id":"2354467246","tag":{"amenity":"recycling"}},"type":"Feature"},
	{"geometry":{"coordinates":[17.97462,46.991609],"type":"Point"},"properties":{"osm_id":"2354467247","tag":{"amenity":"recycling"}},"type":"Feature"},
	{"geometry":{"coordinates":[17.979482,46.985373],"type":"Point"},"properties":{"name":"Inorm\u00c3\u00a1ci\u00c3\u00b3s t\u00c3\u00a1bla","osm_id":"2387121156","tag":{"amenity":"waste_basket","board_type":"Als\u00c3\u00b3\u00c3\u00b6rs t\u00c3\u00a9rk\u00c3\u00a9pe","description":"Map of Als\u00c3\u00b3\u00c3\u00b6rs","information":"board","tourism":"information"}},"type":"Feature"},
	{"geometry":{"coordinates":[17.975353,46.991756],"type":"Point"},"properties":{"name":"Bor\u00c3\u00bat inform\u00c3\u00a1ci\u00c3\u00b3s t\u00c3\u00a1bla","osm_id":"2387121161","tag":{"amenity":"waste_basket","board_type":"Als\u00c3\u00b3\u00c3\u00b6rs t\u00c3\u00a9rk\u00c3\u00a9pe","description":"Map of Als\u00c3\u00b3\u00c3\u00b6rs","information":"board","name:en":"Information of wineroad","tourism":"information"}},"type":"Feature"},
	{"geometry":{"coordinates":[17.975273,46.99186],"type":"Point"},"properties":{"name":"Inorm\u00c3\u00a1ci\u00c3\u00b3s t\u00c3\u00a1bla","osm_id":"2387121167","tag":{"amenity":"waste_basket","board_type":"Als\u00c3\u00b3\u00c3\u00b6rs t\u00c3\u00a9rk\u00c3\u00a9pe","description":"Map of Als\u00c3\u00b3\u00c3\u00b6rs","information":"board","tourism":"information"}},"type":"Feature"},
	{"geometry":{"coordinates":[18.015304,47.037122],"type":"Point"},"properties":{"osm_id":"3041272620","tag":{"amenity":"recycling","recycling_type":"container"}},"type":"Feature"},
	{"geometry":{"coordinates":[18.014,47.032799],"type":"Point"},"properties":{"osm_id":"3064012956","tag":{"amenity":"recycling","recycling_type":"container"}},"type":"Feature"},
	{"geometry":{"coordinates":[17.95968,46.994156],"type":"Point"},"properties":{"osm_id":"3267437695","tag":{"amenity":"recycling"}},"type":"Feature"},
	{"geometry":{"coordinates":[17.937694,46.985008],"type":"Point"},"properties":{"osm_id":"3458342307","tag":{"amenity":"recycling","description":"Paloznak, Pipacs utca","source:date":"2011-12-19","url":"http://turistautak.hu/poi.php?id=131149"}},"type":"Feature"},
	{"geometry":{"coordinates":[18.014873,47.028913],"type":"Point"},"properties":{"osm_id":"3470010490","tag":{"addr:city":"Balatonalm\u00c3\u00a1di","addr:housenumber":"1","addr:postcode":"8220","addr:street":"Baross G\u00c3\u00a1bor utca","amenity":"recycling","description":"N\u00c3\u00a9gy gy\u00c5\u00b1jt\u00c5\u0091vel felszerelt sziget a CBA \u00c3\u00a1ruh\u00c3\u00a1z parkol\u00c3\u00b3j\u00c3\u00a1ban","source:date":"2011-04-22","url":"http://turistautak.hu/poi.php?id=20883"}},"type":"Feature"},
	{"geometry":{"coordinates":[18.001271,47.009569],"type":"Point"},"properties":{"osm_id":"3470010771","tag":{"amenity":"recycling","source:date":"2014-04-11","url":"http://turistautak.hu/poi.php?id=167643"}},"type":"Feature"},
	{"geometry":{"coordinates":[18.000392,47.014838],"type":"Point"},"properties":{"osm_id":"3470010778","tag":{"amenity":"recycling","recycling:glass":"yes","recycling:glass_bottles":"yes","recycling_type":"container","survey:date":"2019-01-13"}},"type":"Feature"},
	{"geometry":{"coordinates":[18.01371,47.02946],"type":"Point"},"properties":{"osm_id":"3470011795","tag":{"amenity":"recycling","source:date":"2014-03-08","url":"http://turistautak.hu/poi.php?id=166600"}},"type":"Feature"},
	{"geometry":{"coordinates":[18.016824,47.029671],"type":"Point"},"properties":{"osm_id":"5549750922","tag":{"amenity":"waste_basket"}},"type":"Feature"},
	{"geometry":{"coordinates":[18.015888,47.029903],"type":"Point"},"properties":{"osm_id":"5549750923","tag":{"amenity":"waste_basket"}},"type":"Feature"},
	{"geometry":{"coordinates":[18.015576,47.029617],"type":"Point"},"properties":{"osm_id":"5549750924","tag":{"amenity":"waste_basket"}},"type":"Feature"},
	{"geometry":{"coordinates":[18.015115,47.030269],"type":"Point"},"properties":{"osm_id":"5549753142","tag":{"amenity":"waste_basket"}},"type":"Feature"},
	{"geometry":{"coordinates":[18.014894,47.030146],"type":"Point"},"properties":{"osm_id":"5549753143","tag":{"amenity":"waste_basket"}},"type":"Feature"},
	{"geometry":{"coordinates":[18.016008,47.029988],"type":"Point"},"properties":{"osm_id":"5549754522","tag":{"amenity":"waste_basket"}},"type":"Feature"},
	{"geometry":{"coordinates":[18.015573,47.029856],"type":"Point"},"properties":{"osm_id":"5549754524","tag":{"amenity":"waste_basket"}},"type":"Feature"},
	{"geometry":{"coordinates":[18.016128,47.030075],"type":"Point"},"properties":{"osm_id":"5549754621","tag":{"amenity":"waste_basket"}},"type":"Feature"},
	{"geometry":{"coordinates":[18.014965,47.030227],"type":"Point"},"properties":{"osm_id":"5549756027","tag":{"amenity":"waste_basket"}},"type":"Feature"},
	{"geometry":{"coordinates":[18.015276,47.030611],"type":"Point"},"properties":{"osm_id":"5549759878","tag":{"amenity":"waste_basket"}},"type":"Feature"},
	{"geometry":{"coordinates":[18.014218,47.031804],"type":"Point"},"properties":{"osm_id":"5549759879","tag":{"amenity":"waste_basket"}},"type":"Feature"},
	{"geometry":{"coordinates":[18.015231,47.029801],"type":"Point"},"properties":{"osm_id":"5549761423","tag":{"amenity":"waste_basket"}},"type":"Feature"},
	{"geometry":{"coordinates":[18.015078,47.029767],"type":"Point"},"properties":{"osm_id":"5549765521","tag":{"amenity":"waste_basket"}},"type":"Feature"},
	{"geometry":{"coordinates":[18.015656,47.030199],"type":"Point"},"properties":{"osm_id":"5549765522","tag":{"amenity":"waste_basket"}},"type":"Feature"},
	{"geometry":{"coordinates":[18.014281,47.031838],"type":"Point"},"properties":{"osm_id":"5549780157","tag":{"amenity":"waste_basket"}},"type":"Feature"},
	{"geometry":{"coordinates":[18.01536,47.030409],"type":"Point"},"properties":{"osm_id":"5549788922","tag":{"amenity":"waste_basket"}},"type":"Feature"},
	{"geometry":{"coordinates":[18.014934,47.031667],"type":"Point"},"properties":{"osm_id":"5549803230","tag":{"amenity":"waste_basket"}},"type":"Feature"},
	{"geometry":{"coordinates":[18.014121,47.02948],"type":"Point"},"properties":{"osm_id":"5549823424","tag":{"amenity":"waste_basket"}},"type":"Feature"},
	{"geometry":{"coordinates":[18.014248,47.035132],"type":"Point"},"properties":{"osm_id":"5549886135","tag":{"amenity":"waste_basket"}},"type":"Feature"},
	{"geometry":{"coordinates":[17.981371,46.986681],"type":"Point"},"properties":{"osm_id":"7705661528","tag":{"amenity":"waste_basket"}},"type":"Feature"},
	{"geometry":{"coordinates":[17.983454,46.986055],"type":"Point"},"properties":{"osm_id":"7705703948","tag":{"amenity":"waste_basket"}},"type":"Feature"},
	{"geometry":{"coordinates":[17.97771,46.988393],"type":"Point"},"properties":{"osm_id":"7710403496","tag":{"amenity":"waste_basket"}},"type":"Feature"},
	{"geometry":{"coordinates":[17.974726,46.991475],"type":"Point"},"properties":{"osm_id":"7710431073","tag":{"amenity":"waste_basket"}},"type":"Feature"}
]
}
