{
"type": "FeatureCollection",
"features": [
	{"geometry":{"coordinates":[-89.46342,40.611197],"type":"Point"},"properties":{"osm_id":"2463901666","tag":{"amenity":"waste_basket"}},"type":"Feature"},
	{"geometry":{"coordinates":[-89.461765,40.610529],"type":"Point"},"properties":{"osm_id":"2465454205","tag":{"amenity":"waste_basket"}},"type":"Feature"},
	{"geometry":{"coordinates":[-89.462472,40.609687],"type":"Point"},"properties":{"osm_id":"2467225833","tag":{"amenity":"waste_basket"}},"type":"Feature"},
	{"geometry":{"coordinates":[-89.459914,40.608909],"type":"Point"},"properties":{"osm_id":"2512425338","tag":{"amenity":"waste_basket","colour":"grey","material":"plastic","waste":"trash"}},"type":"Feature"},
	{"geometry":{"coordinates":[-89.46101,40.611086],"type":"Point"},"properties":{"osm_id":"2518495062","tag":{"amenity":"waste_basket"}},"type":"Feature"},
	{"geometry":{"coordinates":[-89.45747,40.61276],"type":"Point"},"properties":{"osm_id":"2518689218","tag":{"amenity":"waste_basket"}},"type":"Feature"},
	{"geometry":{"coordinates":[-89.456849,40.608036],"type":"Point"},"properties":{"osm_id":"2520408189","tag":{"amenity":"waste_basket"}},"type":"Feature"},
	{"geometry":{"coordinates":[-89.462851,40.60841],"type":"Point"},"properties":{"osm_id":"8874362684","tag":{"access":"permissive","amenity":"waste_basket","colour":"brown","waste":"trash"}},"type":"Feature"},
	{"geometry":{"coordinates":[-89.463065,40.608561],"type":"Point"},"properties":{"osm_id":"8874362685","tag":{"amenity":"waste_basket","colour":"brown","waste":"trash"}},"type":"Feature"},
	{"geometry":{"coordinates":[-89.463011,40.608626],"type":"Point"},"properties":{"osm_id":"8874362686","tag":{"amenity":"waste_basket","colour":"brown","waste":"trash"}},"type":"Feature"},
	{"geometry":{"coordinates":[-89.462742,40.608542],"type":"Point"},"properties":{"osm_id":"8874362697","tag":{"access":"permissive","amenity":"waste_basket","colour":"brown","waste":"trash"}},"type":"Feature"},
	{"geometry":{"coordinates":[-89.459111,40.608994],"type":"Point"},"properties":{"osm_id":"8882251979","tag":{"amenity":"waste_basket","colour":"#554433","waste":"trash"}},"type":"Feature"},
	{"geometry":{"coordinates":[-89.449077,40.598218],"type":"Point"},"properties":{"osm_id":"8897243341","tag":{"amenity":"waste_basket","colour":"blue","material":"plastic","waste":"trash"}},"type":"Feature"}
]
}
