{
"type": "FeatureCollection",
"features": [
	{"geometry":{"coordinates":[15.130356,37.750166],"type":"Point"},"properties":{"name":"Castagno dei Cento Cavalli","osm_id":"418587241","tag":{"circumference":"22","height":"22","name:botanical":"Castanea sativa","name:de":"Kastanienbaum der hundert Pferde","name:en":"Chestnut Tree of One Hundred Horses","name:es":"Casta\u00c3\u00b1o de los cien caballos","name:fr":"Ch\u00c3\u00a2taignier des cent chevaux","name:it":"Castagno dei Cento Cavalli","name:pt":"Castanheiro dos Cem Cavalos","name:ru":"\u00d0\u009a\u00d0\u00b0\u00d1\u0088\u00d1\u0082\u00d0\u00b0\u00d0\u00bd \u00d1\u0081\u00d0\u00be\u00d1\u0082\u00d0\u00bd\u00d0\u00b8 \u00d0\u00bb\u00d0\u00be\u00d1\u0088\u00d0\u00b0\u00d0\u00b4\u00d0\u00b5\u00d0\u00b9","name:scn":"Castagnu d\u00c3\u00aa Centu Cavaddi","name:sv":"De hundra h\u00c3\u00a4starnas kastanj","natural":"tree","species":"Castanea sativa","tourism":"attraction","wikidata":"Q1520397","wikipedia":"it:Castagno dei Cento Cavalli"}},"type":"Feature"},
	{"geometry":{"coordinates":[15.131244,37.754427],"type":"Point"},"properties":{"name":"Castagno Sant'Agata (della Nave)","osm_id":"1426425589","tag":{"alt_name":"Castagno della Nave","denotation":"natural_monument","description":"viene chiamato anche Castagno Nave perch\u00c3\u00a8 dalle forme ricorda un veliero, ed anche in dialetto siciliano 'arrusbigna sonnu' per via del canto degi uccelli che impedivano il sonno di chi stava vicino","leaf_cycle":"deciduous","natural":"tree","species":"Castanea sativa","tourism":"attraction","website":"http://www.florablog.it/2011/07/08/alberi-monumentali-il-castagno-santagata-o-della-nave-a-mascali-ct/"}},"type":"Feature"},
	{"geometry":{"coordinates":[15.168489,37.751612],"type":"Point"},"properties":{"name":"Bagolaro di San Giovanni Montebello","osm_id":"1506501669","tag":{"circumference":"4.50","height":"20","natural":"tree","source_ref":"https://gis.osservatorioturistico.sicilia.it//Html5Viewer/Index.html?configBase=http://173.212.200.120/Geocortex/Essentials/REST/sites/Aree_attrezzate/viewers/alberi_monumentali_e_aree_attrezzate/virtualdirectory/Resources/Config/Default","species":"Celtis australis"}},"type":"Feature"},
	{"geometry":{"coordinates":[15.19506,37.759687],"type":"Point"},"properties":{"osm_id":"4816565803","tag":{"natural":"tree"}},"type":"Feature"},
	{"geometry":{"coordinates":[15.194873,37.759795],"type":"Point"},"properties":{"osm_id":"4816565804","tag":{"natural":"tree"}},"type":"Feature"},
	{"geometry":{"coordinates":[15.194795,37.759632],"type":"Point"},"properties":{"osm_id":"4816565805","tag":{"natural":"tree"}},"type":"Feature"},
	{"geometry":{"coordinates":[15.195914,37.757582],"type":"Point"},"properties":{"osm_id":"4820995895","tag":{"natural":"tree"}},"type":"Feature"},
	{"geometry":{"coordinates":[15.195879,37.757369],"type":"Point"},"properties":{"osm_id":"4820995896","tag":{"natural":"tree"}},"type":"Feature"},
	{"geometry":{"coordinates":[15.131542,37.749267],"type":"Point"},"properties":{"osm_id":"4826113742","tag":{"natural":"tree"}},"type":"Feature"},
	{"geometry":{"coordinates":[15.189215,37.728584],"type":"Point"},"properties":{"osm_id":"5339954385","tag":{"natural":"tree"}},"type":"Feature"},
	{"geometry":{"coordinates":[15.189418,37.728625],"type":"Point"},"properties":{"osm_id":"5339954386","tag":{"natural":"tree"}},"type":"Feature"},
	{"geometry":{"coordinates":[15.189252,37.728479],"type":"Point"},"properties":{"osm_id":"5339954387","tag":{"natural":"tree"}},"type":"Feature"},
	{"geometry":{"coordinates":[15.189274,37.728418],"type":"Point"},"properties":{"osm_id":"5339954388","tag":{"natural":"tree"}},"type":"Feature"},
	{"geometry":{"coordinates":[15.189311,37.728315],"type":"Point"},"properties":{"osm_id":"5339954389","tag":{"natural":"tree"}},"type":"Feature"},
	{"geometry":{"coordinates":[15.189454,37.728526],"type":"Point"},"properties":{"osm_id":"5339954390","tag":{"natural":"tree"}},"type":"Feature"},
	{"geometry":{"coordinates":[15.189478,37.728461],"type":"Point"},"properties":{"osm_id":"5339954391","tag":{"natural":"tree"}},"type":"Feature"},
	{"geometry":{"coordinates":[15.189515,37.728358],"type":"Point"},"properties":{"osm_id":"5339954392","tag":{"natural":"tree"}},"type":"Feature"},
	{"geometry":{"coordinates":[15.203997,37.732056],"type":"Point"},"properties":{"osm_id":"5579733861","tag":{"natural":"tree"}},"type":"Feature"},
	{"geometry":{"coordinates":[15.204034,37.731956],"type":"Point"},"properties":{"osm_id":"5579733862","tag":{"natural":"tree"}},"type":"Feature"},
	{"geometry":{"coordinates":[15.204082,37.731824],"type":"Point"},"properties":{"osm_id":"5579733863","tag":{"natural":"tree"}},"type":"Feature"},
	{"geometry":{"coordinates":[15.204115,37.731733],"type":"Point"},"properties":{"osm_id":"5579733864","tag":{"natural":"tree"}},"type":"Feature"},
	{"geometry":{"coordinates":[15.177085,37.721543],"type":"Point"},"properties":{"osm_id":"6913132911","tag":{"natural":"tree"}},"type":"Feature"},
	{"geometry":{"coordinates":[15.177147,37.721517],"type":"Point"},"properties":{"osm_id":"6913132912","tag":{"natural":"tree"}},"type":"Feature"},
	{"geometry":{"coordinates":[15.196099,37.759997],"type":"Point"},"properties":{"osm_id":"6913132915","tag":{"natural":"tree"}},"type":"Feature"},
	{"geometry":{"coordinates":[15.196056,37.760102],"type":"Point"},"properties":{"osm_id":"6913132916","tag":{"natural":"tree"}},"type":"Feature"},
	{"geometry":{"coordinates":[15.196427,37.757622],"type":"Point"},"properties":{"osm_id":"6913132932","tag":{"natural":"tree"}},"type":"Feature"},
	{"geometry":{"coordinates":[15.196455,37.757521],"type":"Point"},"properties":{"osm_id":"6913132933","tag":{"natural":"tree"}},"type":"Feature"},
	{"geometry":{"coordinates":[15.196446,37.757286],"type":"Point"},"properties":{"osm_id":"6913132934","tag":{"natural":"tree"}},"type":"Feature"},
	{"geometry":{"coordinates":[15.196375,37.75744],"type":"Point"},"properties":{"osm_id":"6913132935","tag":{"natural":"tree"}},"type":"Feature"}
]
}
