{
"type": "FeatureCollection",
"lastupdate": "2020-08-05T00:00:00Z",
"features": [
	{"geometry":{"coordinates":[-5.62082,43.162236],"type":"Point"},"properties":{"osm_id":"6177041460","tag":{"amenity":"waste_basket"}},"type":"Feature"},
	{"geometry":{"coordinates":[-5.620831,43.162234],"type":"Point"},"properties":{"osm_id":"6177041461","tag":{"amenity":"waste_basket"}},"type":"Feature"},
	{"geometry":{"coordinates":[-5.620842,43.162231],"type":"Point"},"properties":{"osm_id":"6177041462","tag":{"amenity":"waste_basket"}},"type":"Feature"},
	{"geometry":{"coordinates":[-5.619992,43.163342],"type":"Point"},"properties":{"osm_id":"6177041463","tag":{"amenity":"waste_basket"}},"type":"Feature"},
	{"geometry":{"coordinates":[-5.620042,43.163447],"type":"Point"},"properties":{"osm_id":"6177041465","tag":{"amenity":"waste_basket"}},"type":"Feature"},
	{"geometry":{"coordinates":[-5.620043,43.163454],"type":"Point"},"properties":{"osm_id":"6177041466","tag":{"amenity":"waste_basket"}},"type":"Feature"},
	{"geometry":{"coordinates":[-5.622023,43.160825],"type":"Point"},"properties":{"osm_id":"6177041478","tag":{"amenity":"waste_basket"}},"type":"Feature"},
	{"geometry":{"coordinates":[-5.62195,43.160959],"type":"Point"},"properties":{"osm_id":"6177041480","tag":{"amenity":"waste_basket"}},"type":"Feature"},
	{"geometry":{"coordinates":[-5.621674,43.160981],"type":"Point"},"properties":{"osm_id":"6177043297","tag":{"amenity":"waste_basket"}},"type":"Feature"},
	{"geometry":{"coordinates":[-5.621144,43.161641],"type":"Point"},"properties":{"name":"Contenedores de reciclaje soterrados","osm_id":"6190469872","tag":{"addr:city":"Caba\u00f1aquinta","addr:postcode":"33686","amenity":"recycling","recycling_type":"centre"}},"type":"Feature"},
	{"geometry":{"coordinates":[-5.600519,43.151344],"type":"Point"},"properties":{"osm_id":"6190470805","tag":{"amenity":"recycling","recycling_type":"centre"}},"type":"Feature"}
]
}
