{
"type": "FeatureCollection",
"features": [
	{"geometry":{"coordinates":[7.899912,49.838512],"type":"Point"},"properties":{"osm_id":"707478597","tag":{"denotation":"landmark","leaf_cycle":"deciduous","leaf_type":"broadleaved","natural":"tree"}},"type":"Feature"},
	{"geometry":{"coordinates":[7.865054,49.842305],"type":"Point"},"properties":{"osm_id":"3013041236","tag":{"natural":"tree"}},"type":"Feature"},
	{"geometry":{"coordinates":[7.865017,49.842424],"type":"Point"},"properties":{"osm_id":"3013041237","tag":{"natural":"tree"}},"type":"Feature"},
	{"geometry":{"coordinates":[7.865009,49.84248],"type":"Point"},"properties":{"osm_id":"3013041239","tag":{"natural":"tree"}},"type":"Feature"},
	{"geometry":{"coordinates":[7.865582,49.842521],"type":"Point"},"properties":{"osm_id":"3013041240","tag":{"natural":"tree"}},"type":"Feature"},
	{"geometry":{"coordinates":[7.864434,49.842726],"type":"Point"},"properties":{"osm_id":"3013041241","tag":{"natural":"tree"}},"type":"Feature"},
	{"geometry":{"coordinates":[7.86574,49.842757],"type":"Point"},"properties":{"osm_id":"3013041242","tag":{"natural":"tree"}},"type":"Feature"},
	{"geometry":{"coordinates":[7.8644,49.842783],"type":"Point"},"properties":{"osm_id":"3013041243","tag":{"natural":"tree"}},"type":"Feature"},
	{"geometry":{"coordinates":[7.865328,49.842791],"type":"Point"},"properties":{"osm_id":"3013041244","tag":{"natural":"tree"}},"type":"Feature"},
	{"geometry":{"coordinates":[7.86483,49.8428],"type":"Point"},"properties":{"osm_id":"3013041245","tag":{"natural":"tree"}},"type":"Feature"},
	{"geometry":{"coordinates":[7.865181,49.8428],"type":"Point"},"properties":{"osm_id":"3013041246","tag":{"natural":"tree"}},"type":"Feature"},
	{"geometry":{"coordinates":[7.865059,49.842801],"type":"Point"},"properties":{"osm_id":"3013041247","tag":{"natural":"tree"}},"type":"Feature"},
	{"geometry":{"coordinates":[7.864714,49.842805],"type":"Point"},"properties":{"osm_id":"3013041248","tag":{"natural":"tree"}},"type":"Feature"},
	{"geometry":{"coordinates":[7.864614,49.842806],"type":"Point"},"properties":{"osm_id":"3013041249","tag":{"natural":"tree"}},"type":"Feature"},
	{"geometry":{"coordinates":[7.864954,49.84281],"type":"Point"},"properties":{"osm_id":"3013041250","tag":{"natural":"tree"}},"type":"Feature"},
	{"geometry":{"coordinates":[7.86433,49.845103],"type":"Point"},"properties":{"name":"Manuels Bodega","osm_id":"3013041251","tag":{"addr:housenumber":"23","addr:postcode":"55543","addr:street":"Planiger Stra\u00c3\u009fe","amenity":"restaurant","cuisine":"spanish","email":"koch_pedro@gmx.de","natural":"tree","opening_hours":"Tu-Su 11:30-14:00,17:30-23:00","operator":"Pedro Abrante-P\u00c3\u00a9rez","phone":"+49 671 35152","website":"http://www.manuels-bodega.de/","wheelchair":"no"}},"type":"Feature"},
	{"geometry":{"coordinates":[7.865041,49.842922],"type":"Point"},"properties":{"osm_id":"3013041252","tag":{"natural":"tree"}},"type":"Feature"},
	{"geometry":{"coordinates":[7.864471,49.843175],"type":"Point"},"properties":{"osm_id":"3013041253","tag":{"natural":"tree"}},"type":"Feature"},
	{"geometry":{"coordinates":[7.856469,49.84342],"type":"Point"},"properties":{"osm_id":"3017028620","tag":{"natural":"tree"}},"type":"Feature"},
	{"geometry":{"coordinates":[7.856647,49.843653],"type":"Point"},"properties":{"osm_id":"3017028621","tag":{"natural":"tree"}},"type":"Feature"},
	{"geometry":{"coordinates":[7.856526,49.843728],"type":"Point"},"properties":{"osm_id":"3017028622","tag":{"natural":"tree"}},"type":"Feature"},
	{"geometry":{"coordinates":[7.856724,49.843777],"type":"Point"},"properties":{"osm_id":"3017028623","tag":{"natural":"tree"}},"type":"Feature"},
	{"geometry":{"coordinates":[7.856527,49.843819],"type":"Point"},"properties":{"osm_id":"3017028624","tag":{"natural":"tree"}},"type":"Feature"},
	{"geometry":{"coordinates":[7.857018,49.843842],"type":"Point"},"properties":{"osm_id":"3017028626","tag":{"natural":"tree"}},"type":"Feature"},
	{"geometry":{"coordinates":[7.857095,49.843932],"type":"Point"},"properties":{"osm_id":"3017028629","tag":{"natural":"tree"}},"type":"Feature"},
	{"geometry":{"coordinates":[7.857115,49.844048],"type":"Point"},"properties":{"osm_id":"3017028632","tag":{"natural":"tree"}},"type":"Feature"},
	{"geometry":{"coordinates":[7.856887,49.844084],"type":"Point"},"properties":{"osm_id":"3017028835","tag":{"natural":"tree"}},"type":"Feature"},
	{"geometry":{"coordinates":[7.85724,49.844193],"type":"Point"},"properties":{"osm_id":"3017028841","tag":{"natural":"tree"}},"type":"Feature"},
	{"geometry":{"coordinates":[7.856971,49.844213],"type":"Point"},"properties":{"osm_id":"3017028843","tag":{"natural":"tree"}},"type":"Feature"},
	{"geometry":{"coordinates":[7.857273,49.844268],"type":"Point"},"properties":{"osm_id":"3017028846","tag":{"natural":"tree"}},"type":"Feature"},
	{"geometry":{"coordinates":[7.857098,49.844317],"type":"Point"},"properties":{"osm_id":"3017028849","tag":{"natural":"tree"}},"type":"Feature"},
	{"geometry":{"coordinates":[7.857357,49.844357],"type":"Point"},"properties":{"osm_id":"3017028850","tag":{"natural":"tree"}},"type":"Feature"},
	{"geometry":{"coordinates":[7.857171,49.844439],"type":"Point"},"properties":{"osm_id":"3017028855","tag":{"natural":"tree"}},"type":"Feature"},
	{"geometry":{"coordinates":[7.857453,49.844477],"type":"Point"},"properties":{"osm_id":"3017028861","tag":{"natural":"tree"}},"type":"Feature"},
	{"geometry":{"coordinates":[7.857207,49.844584],"type":"Point"},"properties":{"osm_id":"3017028869","tag":{"natural":"tree"}},"type":"Feature"},
	{"geometry":{"coordinates":[7.850511,49.855295],"type":"Point"},"properties":{"osm_id":"4043694218","tag":{"natural":"tree"}},"type":"Feature"},
	{"geometry":{"coordinates":[7.858803,49.844532],"type":"Point"},"properties":{"osm_id":"4316104260","tag":{"natural":"tree"}},"type":"Feature"},
	{"geometry":{"coordinates":[7.858891,49.844516],"type":"Point"},"properties":{"osm_id":"4316104261","tag":{"natural":"tree"}},"type":"Feature"},
	{"geometry":{"coordinates":[7.851531,49.88195],"type":"Point"},"properties":{"osm_id":"5077704588","tag":{"natural":"tree"}},"type":"Feature"},
	{"geometry":{"coordinates":[7.851502,49.881722],"type":"Point"},"properties":{"osm_id":"5077704589","tag":{"natural":"tree"}},"type":"Feature"},
	{"geometry":{"coordinates":[7.851641,49.881909],"type":"Point"},"properties":{"osm_id":"5077704590","tag":{"natural":"tree"}},"type":"Feature"},
	{"geometry":{"coordinates":[7.836824,49.856708],"type":"Point"},"properties":{"osm_id":"5356815123","tag":{"natural":"tree"}},"type":"Feature"},
	{"geometry":{"coordinates":[7.834477,49.868241],"type":"Point"},"properties":{"osm_id":"5812581476","tag":{"natural":"tree"}},"type":"Feature"}
]
}
