{
"type": "FeatureCollection",
"features": [
	{"geometry":{"coordinates":[7.889032,45.303337],"type":"Point"},"properties":{"osm_id":"2680527029","tag":{"natural":"tree"}},"type":"Feature"},
	{"geometry":{"coordinates":[7.888951,45.303339],"type":"Point"},"properties":{"osm_id":"2680527032","tag":{"natural":"tree"}},"type":"Feature"},
	{"geometry":{"coordinates":[7.889259,45.303343],"type":"Point"},"properties":{"osm_id":"2680527034","tag":{"natural":"tree"}},"type":"Feature"},
	{"geometry":{"coordinates":[7.888853,45.303352],"type":"Point"},"properties":{"osm_id":"2680527036","tag":{"natural":"tree"}},"type":"Feature"},
	{"geometry":{"coordinates":[7.888763,45.303364],"type":"Point"},"properties":{"osm_id":"2680527040","tag":{"natural":"tree"}},"type":"Feature"},
	{"geometry":{"coordinates":[7.888608,45.303385],"type":"Point"},"properties":{"osm_id":"2680527047","tag":{"natural":"tree"}},"type":"Feature"},
	{"geometry":{"coordinates":[7.888536,45.303399],"type":"Point"},"properties":{"osm_id":"2680527052","tag":{"natural":"tree"}},"type":"Feature"},
	{"geometry":{"coordinates":[7.889255,45.303405],"type":"Point"},"properties":{"osm_id":"2680527053","tag":{"natural":"tree"}},"type":"Feature"},
	{"geometry":{"coordinates":[7.888954,45.303408],"type":"Point"},"properties":{"osm_id":"2680527055","tag":{"natural":"tree"}},"type":"Feature"},
	{"geometry":{"coordinates":[7.888383,45.303413],"type":"Point"},"properties":{"osm_id":"2680527057","tag":{"natural":"tree"}},"type":"Feature"},
	{"geometry":{"coordinates":[7.888863,45.303416],"type":"Point"},"properties":{"osm_id":"2680527058","tag":{"natural":"tree"}},"type":"Feature"},
	{"geometry":{"coordinates":[7.889106,45.303418],"type":"Point"},"properties":{"osm_id":"2680527059","tag":{"natural":"tree"}},"type":"Feature"},
	{"geometry":{"coordinates":[7.888777,45.303419],"type":"Point"},"properties":{"osm_id":"2680527060","tag":{"natural":"tree"}},"type":"Feature"},
	{"geometry":{"coordinates":[7.888282,45.303424],"type":"Point"},"properties":{"osm_id":"2680527062","tag":{"natural":"tree"}},"type":"Feature"},
	{"geometry":{"coordinates":[7.888166,45.303431],"type":"Point"},"properties":{"osm_id":"2680527065","tag":{"natural":"tree"}},"type":"Feature"},
	{"geometry":{"coordinates":[7.888688,45.303439],"type":"Point"},"properties":{"osm_id":"2680527067","tag":{"natural":"tree"}},"type":"Feature"},
	{"geometry":{"coordinates":[7.888063,45.303442],"type":"Point"},"properties":{"osm_id":"2680527068","tag":{"natural":"tree"}},"type":"Feature"},
	{"geometry":{"coordinates":[7.888543,45.303449],"type":"Point"},"properties":{"osm_id":"2680527069","tag":{"natural":"tree"}},"type":"Feature"},
	{"geometry":{"coordinates":[7.889238,45.303457],"type":"Point"},"properties":{"osm_id":"2680527070","tag":{"natural":"tree"}},"type":"Feature"},
	{"geometry":{"coordinates":[7.887893,45.30346],"type":"Point"},"properties":{"osm_id":"2680527072","tag":{"natural":"tree"}},"type":"Feature"},
	{"geometry":{"coordinates":[7.889142,45.303461],"type":"Point"},"properties":{"osm_id":"2680527073","tag":{"natural":"tree"}},"type":"Feature"},
	{"geometry":{"coordinates":[7.888386,45.303467],"type":"Point"},"properties":{"osm_id":"2680527074","tag":{"natural":"tree"}},"type":"Feature"},
	{"geometry":{"coordinates":[7.887796,45.303474],"type":"Point"},"properties":{"osm_id":"2680527076","tag":{"natural":"tree"}},"type":"Feature"},
	{"geometry":{"coordinates":[7.88828,45.303482],"type":"Point"},"properties":{"osm_id":"2680527078","tag":{"natural":"tree"}},"type":"Feature"},
	{"geometry":{"coordinates":[7.887694,45.303487],"type":"Point"},"properties":{"osm_id":"2680527079","tag":{"natural":"tree"}},"type":"Feature"},
	{"geometry":{"coordinates":[7.888169,45.30349],"type":"Point"},"properties":{"osm_id":"2680527082","tag":{"natural":"tree"}},"type":"Feature"},
	{"geometry":{"coordinates":[7.888077,45.303498],"type":"Point"},"properties":{"osm_id":"2680527085","tag":{"natural":"tree"}},"type":"Feature"},
	{"geometry":{"coordinates":[7.889237,45.303505],"type":"Point"},"properties":{"osm_id":"2680527086","tag":{"natural":"tree"}},"type":"Feature"},
	{"geometry":{"coordinates":[7.887549,45.303508],"type":"Point"},"properties":{"osm_id":"2680527087","tag":{"natural":"tree"}},"type":"Feature"},
	{"geometry":{"coordinates":[7.887909,45.303517],"type":"Point"},"properties":{"osm_id":"2680527089","tag":{"natural":"tree"}},"type":"Feature"},
	{"geometry":{"coordinates":[7.887806,45.303529],"type":"Point"},"properties":{"osm_id":"2680527091","tag":{"natural":"tree"}},"type":"Feature"},
	{"geometry":{"coordinates":[7.887193,45.303541],"type":"Point"},"properties":{"osm_id":"2680527093","tag":{"natural":"tree"}},"type":"Feature"},
	{"geometry":{"coordinates":[7.887719,45.303542],"type":"Point"},"properties":{"osm_id":"2680527094","tag":{"natural":"tree"}},"type":"Feature"},
	{"geometry":{"coordinates":[7.888933,45.30355],"type":"Point"},"properties":{"osm_id":"2680527097","tag":{"natural":"tree"}},"type":"Feature"},
	{"geometry":{"coordinates":[7.889133,45.303554],"type":"Point"},"properties":{"osm_id":"2680527098","tag":{"natural":"tree"}},"type":"Feature"},
	{"geometry":{"coordinates":[7.887069,45.303564],"type":"Point"},"properties":{"osm_id":"2680527099","tag":{"natural":"tree"}},"type":"Feature"},
	{"geometry":{"coordinates":[7.887566,45.303561],"type":"Point"},"properties":{"osm_id":"2680527101","tag":{"natural":"tree"}},"type":"Feature"},
	{"geometry":{"coordinates":[7.889213,45.303561],"type":"Point"},"properties":{"osm_id":"2680527102","tag":{"natural":"tree"}},"type":"Feature"},
	{"geometry":{"coordinates":[7.888704,45.303569],"type":"Point"},"properties":{"osm_id":"2680527104","tag":{"natural":"tree"}},"type":"Feature"},
	{"geometry":{"coordinates":[7.888796,45.303601],"type":"Point"},"properties":{"osm_id":"2680527108","tag":{"natural":"tree"}},"type":"Feature"},
	{"geometry":{"coordinates":[7.889124,45.303612],"type":"Point"},"properties":{"osm_id":"2680527110","tag":{"natural":"tree"}},"type":"Feature"},
	{"geometry":{"coordinates":[7.889202,45.303616],"type":"Point"},"properties":{"osm_id":"2680527112","tag":{"natural":"tree"}},"type":"Feature"},
	{"geometry":{"coordinates":[7.889106,45.303667],"type":"Point"},"properties":{"osm_id":"2680527114","tag":{"natural":"tree"}},"type":"Feature"},
	{"geometry":{"coordinates":[7.889188,45.303679],"type":"Point"},"properties":{"osm_id":"2680527116","tag":{"natural":"tree"}},"type":"Feature"},
	{"geometry":{"coordinates":[7.887196,45.303722],"type":"Point"},"properties":{"osm_id":"2680527118","tag":{"natural":"tree"}},"type":"Feature"},
	{"geometry":{"coordinates":[7.88918,45.303724],"type":"Point"},"properties":{"osm_id":"2680527119","tag":{"natural":"tree"}},"type":"Feature"},
	{"geometry":{"coordinates":[7.889097,45.303725],"type":"Point"},"properties":{"osm_id":"2680527120","tag":{"natural":"tree"}},"type":"Feature"},
	{"geometry":{"coordinates":[7.887306,45.303733],"type":"Point"},"properties":{"osm_id":"2680527123","tag":{"natural":"tree"}},"type":"Feature"},
	{"geometry":{"coordinates":[7.889082,45.303773],"type":"Point"},"properties":{"osm_id":"2680527125","tag":{"natural":"tree"}},"type":"Feature"},
	{"geometry":{"coordinates":[7.88918,45.303775],"type":"Point"},"properties":{"osm_id":"2680527126","tag":{"natural":"tree"}},"type":"Feature"},
	{"geometry":{"coordinates":[7.887208,45.303778],"type":"Point"},"properties":{"osm_id":"2680527127","tag":{"natural":"tree"}},"type":"Feature"},
	{"geometry":{"coordinates":[7.887317,45.303784],"type":"Point"},"properties":{"osm_id":"2680527129","tag":{"natural":"tree"}},"type":"Feature"},
	{"geometry":{"coordinates":[7.889168,45.303823],"type":"Point"},"properties":{"osm_id":"2680527130","tag":{"natural":"tree"}},"type":"Feature"},
	{"geometry":{"coordinates":[7.889077,45.303823],"type":"Point"},"properties":{"osm_id":"2680527132","tag":{"natural":"tree"}},"type":"Feature"},
	{"geometry":{"coordinates":[7.88722,45.303826],"type":"Point"},"properties":{"osm_id":"2680527133","tag":{"natural":"tree"}},"type":"Feature"},
	{"geometry":{"coordinates":[7.887327,45.303849],"type":"Point"},"properties":{"osm_id":"2680527134","tag":{"natural":"tree"}},"type":"Feature"},
	{"geometry":{"coordinates":[7.889156,45.303879],"type":"Point"},"properties":{"osm_id":"2680527138","tag":{"natural":"tree"}},"type":"Feature"},
	{"geometry":{"coordinates":[7.889078,45.303886],"type":"Point"},"properties":{"osm_id":"2680527139","tag":{"natural":"tree"}},"type":"Feature"},
	{"geometry":{"coordinates":[7.887333,45.303897],"type":"Point"},"properties":{"osm_id":"2680527140","tag":{"natural":"tree"}},"type":"Feature"},
	{"geometry":{"coordinates":[7.887241,45.303905],"type":"Point"},"properties":{"osm_id":"2680527142","tag":{"natural":"tree"}},"type":"Feature"},
	{"geometry":{"coordinates":[7.88915,45.303937],"type":"Point"},"properties":{"osm_id":"2680527143","tag":{"natural":"tree"}},"type":"Feature"},
	{"geometry":{"coordinates":[7.887347,45.303944],"type":"Point"},"properties":{"osm_id":"2680527144","tag":{"natural":"tree"}},"type":"Feature"},
	{"geometry":{"coordinates":[7.887262,45.303982],"type":"Point"},"properties":{"osm_id":"2680527148","tag":{"natural":"tree"}},"type":"Feature"},
	{"geometry":{"coordinates":[7.889141,45.303984],"type":"Point"},"properties":{"osm_id":"2680527149","tag":{"natural":"tree"}},"type":"Feature"},
	{"geometry":{"coordinates":[7.889035,45.303985],"type":"Point"},"properties":{"osm_id":"2680527150","tag":{"natural":"tree"}},"type":"Feature"},
	{"geometry":{"coordinates":[7.887366,45.303998],"type":"Point"},"properties":{"osm_id":"2680527152","tag":{"natural":"tree"}},"type":"Feature"},
	{"geometry":{"coordinates":[7.889135,45.304041],"type":"Point"},"properties":{"osm_id":"2680527154","tag":{"natural":"tree"}},"type":"Feature"},
	{"geometry":{"coordinates":[7.889026,45.304045],"type":"Point"},"properties":{"osm_id":"2680527155","tag":{"natural":"tree"}},"type":"Feature"},
	{"geometry":{"coordinates":[7.887386,45.304071],"type":"Point"},"properties":{"osm_id":"2680527157","tag":{"natural":"tree"}},"type":"Feature"},
	{"geometry":{"coordinates":[7.88912,45.304102],"type":"Point"},"properties":{"osm_id":"2680527159","tag":{"natural":"tree"}},"type":"Feature"},
	{"geometry":{"coordinates":[7.889035,45.304112],"type":"Point"},"properties":{"osm_id":"2680527163","tag":{"natural":"tree"}},"type":"Feature"},
	{"geometry":{"coordinates":[7.887301,45.304146],"type":"Point"},"properties":{"osm_id":"2680527164","tag":{"natural":"tree"}},"type":"Feature"},
	{"geometry":{"coordinates":[7.889115,45.304149],"type":"Point"},"properties":{"osm_id":"2680527167","tag":{"natural":"tree"}},"type":"Feature"},
	{"geometry":{"coordinates":[7.887412,45.304158],"type":"Point"},"properties":{"osm_id":"2680527168","tag":{"natural":"tree"}},"type":"Feature"},
	{"geometry":{"coordinates":[7.888818,45.304192],"type":"Point"},"properties":{"osm_id":"2680527172","tag":{"natural":"tree"}},"type":"Feature"},
	{"geometry":{"coordinates":[7.887314,45.304201],"type":"Point"},"properties":{"osm_id":"2680527175","tag":{"natural":"tree"}},"type":"Feature"},
	{"geometry":{"coordinates":[7.888692,45.304206],"type":"Point"},"properties":{"osm_id":"2680527176","tag":{"natural":"tree"}},"type":"Feature"},
	{"geometry":{"coordinates":[7.889106,45.304209],"type":"Point"},"properties":{"osm_id":"2680527177","tag":{"natural":"tree"}},"type":"Feature"},
	{"geometry":{"coordinates":[7.887421,45.30421],"type":"Point"},"properties":{"osm_id":"2680527179","tag":{"natural":"tree"}},"type":"Feature"},
	{"geometry":{"coordinates":[7.888602,45.304216],"type":"Point"},"properties":{"osm_id":"2680527180","tag":{"natural":"tree"}},"type":"Feature"},
	{"geometry":{"coordinates":[7.88852,45.30423],"type":"Point"},"properties":{"osm_id":"2680527184","tag":{"natural":"tree"}},"type":"Feature"},
	{"geometry":{"coordinates":[7.888449,45.304236],"type":"Point"},"properties":{"osm_id":"2680527185","tag":{"natural":"tree"}},"type":"Feature"},
	{"geometry":{"coordinates":[7.88834,45.304244],"type":"Point"},"properties":{"osm_id":"2680527186","tag":{"natural":"tree"}},"type":"Feature"},
	{"geometry":{"coordinates":[7.887324,45.304255],"type":"Point"},"properties":{"osm_id":"2680527189","tag":{"natural":"tree"}},"type":"Feature"},
	{"geometry":{"coordinates":[7.889091,45.304257],"type":"Point"},"properties":{"osm_id":"2680527190","tag":{"natural":"tree"}},"type":"Feature"},
	{"geometry":{"coordinates":[7.887436,45.304277],"type":"Point"},"properties":{"osm_id":"2680527191","tag":{"natural":"tree"}},"type":"Feature"},
	{"geometry":{"coordinates":[7.888193,45.304281],"type":"Point"},"properties":{"osm_id":"2680527192","tag":{"natural":"tree"}},"type":"Feature"},
	{"geometry":{"coordinates":[7.88894,45.304284],"type":"Point"},"properties":{"osm_id":"2680527194","tag":{"natural":"tree"}},"type":"Feature"},
	{"geometry":{"coordinates":[7.887967,45.304285],"type":"Point"},"properties":{"osm_id":"2680527195","tag":{"natural":"tree"}},"type":"Feature"},
	{"geometry":{"coordinates":[7.888075,45.304285],"type":"Point"},"properties":{"osm_id":"2680527197","tag":{"natural":"tree"}},"type":"Feature"},
	{"geometry":{"coordinates":[7.887568,45.304287],"type":"Point"},"properties":{"osm_id":"2680527198","tag":{"natural":"tree"}},"type":"Feature"},
	{"geometry":{"coordinates":[7.888608,45.30429],"type":"Point"},"properties":{"osm_id":"2680527199","tag":{"natural":"tree"}},"type":"Feature"},
	{"geometry":{"coordinates":[7.888527,45.304296],"type":"Point"},"properties":{"osm_id":"2680527200","tag":{"natural":"tree"}},"type":"Feature"},
	{"geometry":{"coordinates":[7.887904,45.304297],"type":"Point"},"properties":{"osm_id":"2680527203","tag":{"natural":"tree"}},"type":"Feature"},
	{"geometry":{"coordinates":[7.888448,45.304303],"type":"Point"},"properties":{"osm_id":"2680527204","tag":{"natural":"tree"}},"type":"Feature"},
	{"geometry":{"coordinates":[7.887823,45.304305],"type":"Point"},"properties":{"osm_id":"2680527205","tag":{"natural":"tree"}},"type":"Feature"},
	{"geometry":{"coordinates":[7.888998,45.304308],"type":"Point"},"properties":{"osm_id":"2680527207","tag":{"natural":"tree"}},"type":"Feature"},
	{"geometry":{"coordinates":[7.889084,45.304311],"type":"Point"},"properties":{"osm_id":"2680527209","tag":{"natural":"tree"}},"type":"Feature"},
	{"geometry":{"coordinates":[7.888359,45.304312],"type":"Point"},"properties":{"osm_id":"2680527210","tag":{"natural":"tree"}},"type":"Feature"},
	{"geometry":{"coordinates":[7.887334,45.304314],"type":"Point"},"properties":{"osm_id":"2680527211","tag":{"natural":"tree"}},"type":"Feature"},
	{"geometry":{"coordinates":[7.887715,45.304315],"type":"Point"},"properties":{"osm_id":"2680527212","tag":{"natural":"tree"}},"type":"Feature"},
	{"geometry":{"coordinates":[7.888086,45.304357],"type":"Point"},"properties":{"osm_id":"2680527215","tag":{"natural":"tree"}},"type":"Feature"},
	{"geometry":{"coordinates":[7.888001,45.304358],"type":"Point"},"properties":{"osm_id":"2680527217","tag":{"natural":"tree"}},"type":"Feature"},
	{"geometry":{"coordinates":[7.888985,45.304365],"type":"Point"},"properties":{"osm_id":"2680527219","tag":{"natural":"tree"}},"type":"Feature"},
	{"geometry":{"coordinates":[7.888209,45.304369],"type":"Point"},"properties":{"osm_id":"2680527220","tag":{"natural":"tree"}},"type":"Feature"},
	{"geometry":{"coordinates":[7.889072,45.304371],"type":"Point"},"properties":{"osm_id":"2680527221","tag":{"natural":"tree"}},"type":"Feature"},
	{"geometry":{"coordinates":[7.887926,45.304373],"type":"Point"},"properties":{"osm_id":"2680527223","tag":{"natural":"tree"}},"type":"Feature"},
	{"geometry":{"coordinates":[7.888978,45.304416],"type":"Point"},"properties":{"osm_id":"2680527226","tag":{"natural":"tree"}},"type":"Feature"},
	{"geometry":{"coordinates":[7.88907,45.304422],"type":"Point"},"properties":{"osm_id":"2680527228","tag":{"natural":"tree"}},"type":"Feature"},
	{"geometry":{"coordinates":[7.887632,45.304437],"type":"Point"},"properties":{"osm_id":"2680527229","tag":{"natural":"tree"}},"type":"Feature"},
	{"geometry":{"coordinates":[7.871682,45.325546],"type":"Point"},"properties":{"osm_id":"2897288984","tag":{"leaf_type":"broadleaved","natural":"tree"}},"type":"Feature"},
	{"geometry":{"coordinates":[7.871536,45.325555],"type":"Point"},"properties":{"osm_id":"2897288986","tag":{"leaf_type":"broadleaved","natural":"tree"}},"type":"Feature"},
	{"geometry":{"coordinates":[7.871563,45.325739],"type":"Point"},"properties":{"osm_id":"2897289317","tag":{"leaf_type":"broadleaved","natural":"tree"}},"type":"Feature"},
	{"geometry":{"coordinates":[7.870164,45.326795],"type":"Point"},"properties":{"osm_id":"2897289391","tag":{"natural":"tree"}},"type":"Feature"},
	{"geometry":{"coordinates":[7.870095,45.326835],"type":"Point"},"properties":{"osm_id":"2897289394","tag":{"natural":"tree"}},"type":"Feature"},
	{"geometry":{"coordinates":[7.870054,45.326862],"type":"Point"},"properties":{"osm_id":"2897289403","tag":{"natural":"tree"}},"type":"Feature"},
	{"geometry":{"coordinates":[7.870021,45.326888],"type":"Point"},"properties":{"osm_id":"2897289407","tag":{"natural":"tree"}},"type":"Feature"},
	{"geometry":{"coordinates":[7.869989,45.326923],"type":"Point"},"properties":{"osm_id":"2897289419","tag":{"natural":"tree"}},"type":"Feature"},
	{"geometry":{"coordinates":[7.869963,45.326967],"type":"Point"},"properties":{"osm_id":"2897289431","tag":{"natural":"tree"}},"type":"Feature"},
	{"geometry":{"coordinates":[7.859945,45.32788],"type":"Point"},"properties":{"osm_id":"2897289534","tag":{"natural":"tree"}},"type":"Feature"},
	{"geometry":{"coordinates":[7.860149,45.328201],"type":"Point"},"properties":{"osm_id":"2897289612","tag":{"natural":"tree"}},"type":"Feature"},
	{"geometry":{"coordinates":[7.859993,45.32846],"type":"Point"},"properties":{"osm_id":"2897289696","tag":{"natural":"tree"}},"type":"Feature"},
	{"geometry":{"coordinates":[7.859694,45.328471],"type":"Point"},"properties":{"osm_id":"2897289701","tag":{"natural":"tree"}},"type":"Feature"},
	{"geometry":{"coordinates":[7.857865,45.329562],"type":"Point"},"properties":{"osm_id":"2897289802","tag":{"natural":"tree"}},"type":"Feature"},
	{"geometry":{"coordinates":[7.902581,45.336324],"type":"Point"},"properties":{"osm_id":"2935702192","tag":{"genus":"Salix","natural":"tree"}},"type":"Feature"},
	{"geometry":{"coordinates":[7.902729,45.336333],"type":"Point"},"properties":{"osm_id":"2935702193","tag":{"genus":"Salix","natural":"tree"}},"type":"Feature"},
	{"geometry":{"coordinates":[7.891672,45.30729],"type":"Point"},"properties":{"name":"Sequoia sempervirens","osm_id":"5636796070","tag":{"circumference":"5.10","denotation":"natural_monument","description":"Albero monumentale del Piemonte a) et\u00c3\u00a0 e/o dimensioni d) rarit\u00c3\u00a0 botanica","height":"38.0","leaf_cycle":"evergreen","leaf_type":"needleleaved","name:de":"K\u00c3\u00bcstenmammutbaum","name:en":"California redwood","name:es":"Secuoya roja","name:fr":"S\u00c3\u00a9quoia \u00c3\u00a0 feuilles d'if","name:it":"Sequoia sempreverde","natural":"tree","protected":"yes","source:it":"Sequoia sempreverde","species":"Sequoia sempervirens","species:de":"K\u00c3\u00bcstenmammutbaum","species:en":"California Redwood","species:es":"Secuoya roja","species:fr":"S\u00c3\u00a9quoia \u00c3\u00a0 feuilles d'if","wikidata":"Q56629591"}},"type":"Feature"},
	{"geometry":{"coordinates":[7.886961,45.303576],"type":"Point"},"properties":{"osm_id":"7077187265","tag":{"natural":"tree"}},"type":"Feature"},
	{"geometry":{"coordinates":[7.886857,45.303587],"type":"Point"},"properties":{"osm_id":"7077187266","tag":{"natural":"tree"}},"type":"Feature"},
	{"geometry":{"coordinates":[7.88666,45.303613],"type":"Point"},"properties":{"osm_id":"7077187267","tag":{"natural":"tree"}},"type":"Feature"},
	{"geometry":{"coordinates":[7.886559,45.303626],"type":"Point"},"properties":{"osm_id":"7077187268","tag":{"natural":"tree"}},"type":"Feature"},
	{"geometry":{"coordinates":[7.886292,45.303656],"type":"Point"},"properties":{"osm_id":"7077187269","tag":{"natural":"tree"}},"type":"Feature"},
	{"geometry":{"coordinates":[7.886194,45.303667],"type":"Point"},"properties":{"osm_id":"7077187270","tag":{"natural":"tree"}},"type":"Feature"},
	{"geometry":{"coordinates":[7.886098,45.303679],"type":"Point"},"properties":{"osm_id":"7077187271","tag":{"natural":"tree"}},"type":"Feature"},
	{"geometry":{"coordinates":[7.885999,45.303692],"type":"Point"},"properties":{"osm_id":"7077187272","tag":{"natural":"tree"}},"type":"Feature"},
	{"geometry":{"coordinates":[7.88646,45.303638],"type":"Point"},"properties":{"osm_id":"7077187273","tag":{"natural":"tree"}},"type":"Feature"},
	{"geometry":{"coordinates":[7.885901,45.303706],"type":"Point"},"properties":{"osm_id":"7077187274","tag":{"natural":"tree"}},"type":"Feature"},
	{"geometry":{"coordinates":[7.887154,45.303632],"type":"Point"},"properties":{"osm_id":"7077187275","tag":{"natural":"tree"}},"type":"Feature"},
	{"geometry":{"coordinates":[7.886754,45.3036],"type":"Point"},"properties":{"osm_id":"7077187276","tag":{"natural":"tree"}},"type":"Feature"},
	{"geometry":{"coordinates":[7.886991,45.3032],"type":"Point"},"properties":{"osm_id":"7077215111","tag":{"natural":"tree"}},"type":"Feature"},
	{"geometry":{"coordinates":[7.885605,45.302372],"type":"Point"},"properties":{"osm_id":"7077215112","tag":{"natural":"tree"}},"type":"Feature"},
	{"geometry":{"coordinates":[7.885709,45.302801],"type":"Point"},"properties":{"osm_id":"7077215113","tag":{"natural":"tree"}},"type":"Feature"},
	{"geometry":{"coordinates":[7.885739,45.302949],"type":"Point"},"properties":{"osm_id":"7077215114","tag":{"natural":"tree"}},"type":"Feature"},
	{"geometry":{"coordinates":[7.885767,45.303069],"type":"Point"},"properties":{"osm_id":"7077215115","tag":{"natural":"tree"}},"type":"Feature"},
	{"geometry":{"coordinates":[7.885793,45.303182],"type":"Point"},"properties":{"osm_id":"7077215116","tag":{"natural":"tree"}},"type":"Feature"},
	{"geometry":{"coordinates":[7.885826,45.303339],"type":"Point"},"properties":{"osm_id":"7077215117","tag":{"natural":"tree"}},"type":"Feature"},
	{"geometry":{"coordinates":[7.886163,45.303064],"type":"Point"},"properties":{"osm_id":"7077215118","tag":{"natural":"tree"}},"type":"Feature"},
	{"geometry":{"coordinates":[7.886155,45.303006],"type":"Point"},"properties":{"osm_id":"7077215119","tag":{"natural":"tree"}},"type":"Feature"},
	{"geometry":{"coordinates":[7.886097,45.302736],"type":"Point"},"properties":{"osm_id":"7077215120","tag":{"natural":"tree"}},"type":"Feature"},
	{"geometry":{"coordinates":[7.885253,45.302598],"type":"Point"},"properties":{"osm_id":"7077215121","tag":{"natural":"tree"}},"type":"Feature"},
	{"geometry":{"coordinates":[7.885215,45.302479],"type":"Point"},"properties":{"osm_id":"7077215122","tag":{"natural":"tree"}},"type":"Feature"}
]
}
