{
"type": "FeatureCollection",
"features": [
	{"geometry":{"coordinates":[7.893792,45.152329],"type":"Point"},"properties":{"name":"Fagus sylvatica","osm_id":"5142349624","tag":{"circumference":"3.27","denotation":"natural_monument","description":"Albero monumentale del Piemonte b) forma e portamento","height":"28.0","leaf_cycle":"deciduous","leaf_type":"broadleaved","name:de":"Rotbuche","name:en":"Beech","name:es":"Haya com\u00c3\u00ban","name:fr":"H\u00c3\u00aatre commun","name:it":"Il Grande Faggio","natural":"tree","protected":"yes","species":"Fagus sylvatica","species:de":"Rotbuche","species:en":"European beech","species:es":"Haya com\u00c3\u00ban","species:fr":"H\u00c3\u00aatre commun","species:it":"Faggio comune"}},"type":"Feature"},
	{"geometry":{"coordinates":[7.89355,45.175283],"type":"Point"},"properties":{"name":"Fagus sylvatica","osm_id":"5636882580","tag":{"circumference":"4.15","denotation":"natural_monument","description":"Albero monumentale del Piemonte a) et\u00c3\u00a0 e/o dimensioni","height":"27.0","leaf_cycle":"deciduous","leaf_type":"broadleaved","name:de":"Rotbuche","name:en":"Beech","name:es":"Haya com\u00c3\u00ban","name:fr":"H\u00c3\u00aatre commun","name:it":"Faggio","natural":"tree","protected":"yes","species":"Fagus sylvatica","species:de":"Rotbuche","species:en":"European beech","species:es":"Haya com\u00c3\u00ban","species:fr":"H\u00c3\u00aatre commun","species:it":"Faggio comune","wikidata":"Q55742345"}},"type":"Feature"},
	{"geometry":{"coordinates":[7.891952,45.175965],"type":"Point"},"properties":{"name":"Aesculus hippocastanum","osm_id":"5636896383","tag":{"circumference":"4.30","denotation":"natural_monument","description":"Albero monumentale del Piemonte a) et\u00c3\u00a0 e/o dimensioni b) forma e portamento e) architettura vegetale f) pregio paesaggistico","height":"15.0","leaf_cycle":"deciduous","leaf_type":"broadleaved","name:de":"Gew\u00c3\u00b6hnliche Rosskastanie","name:en":"Horse-chestnut","name:es":"Casta\u00c3\u00b1o de Indias","name:fr":"Marronnier commun","name:it":"Ippocastano","natural":"tree","protected":"yes","species":"Aesculus hippocastanum","species:de":"Gew\u00c3\u00b6hnliche Rosskastanie","species:en":"Horse-chestnut","species:es":"Casta\u00c3\u00b1o de Indias","species:fr":"Marronnier commun","species:it":"Aesculus hippocastanum","wikidata":"Q55742346"}},"type":"Feature"},
	{"geometry":{"coordinates":[7.8969,45.171447],"type":"Point"},"properties":{"name":"Arbutus unedo","osm_id":"5636930476","tag":{"circumference":"1.10","denotation":"natural_monument","description":"Albero monumentale del Piemonte b) forma e portamento d) rarit\u00c3\u00a0 botanica","height":"9.0","leaf_cycle":"evergreen","leaf_type":"broadleaved","name:de":"Westlicher Erdbeerbaum","name:en":"Strawberry tree","name:es":"Madro\u00c3\u00b1o","name:fr":"Arbousier","name:it":"Corbezzolo","natural":"tree","protected":"yes","species":"Arbutus unedo","species:de":"Westlicher Erdbeerbaum","species:en":"Strawberry Tree","species:es":"Madro\u00c3\u00b1o","species:fr":"Arbousier","species:it":"Corbezzolo","wikidata":"Q55742348"}},"type":"Feature"}
]
}
