{
"type": "FeatureCollection",
"features": [
	{"geometry":{"coordinates":[7.856408,44.653471],"type":"Point"},"properties":{"osm_id":"2746781014","tag":{"natural":"tree"}},"type":"Feature"},
	{"geometry":{"coordinates":[7.856503,44.653473],"type":"Point"},"properties":{"osm_id":"2746781017","tag":{"natural":"tree"}},"type":"Feature"},
	{"geometry":{"coordinates":[7.856582,44.653481],"type":"Point"},"properties":{"osm_id":"2746781019","tag":{"natural":"tree"}},"type":"Feature"},
	{"geometry":{"coordinates":[7.856673,44.653486],"type":"Point"},"properties":{"osm_id":"2746781022","tag":{"natural":"tree"}},"type":"Feature"},
	{"geometry":{"coordinates":[7.856387,44.653555],"type":"Point"},"properties":{"osm_id":"2746781025","tag":{"natural":"tree"}},"type":"Feature"},
	{"geometry":{"coordinates":[7.856657,44.653559],"type":"Point"},"properties":{"osm_id":"2746781027","tag":{"natural":"tree"}},"type":"Feature"},
	{"geometry":{"coordinates":[7.856355,44.696604],"type":"Point"},"properties":{"osm_id":"4212069787","tag":{"natural":"tree"}},"type":"Feature"},
	{"geometry":{"coordinates":[7.853223,44.694732],"type":"Point"},"properties":{"osm_id":"4212081994","tag":{"natural":"tree"}},"type":"Feature"},
	{"geometry":{"coordinates":[7.853236,44.694703],"type":"Point"},"properties":{"osm_id":"4212081995","tag":{"natural":"tree"}},"type":"Feature"},
	{"geometry":{"coordinates":[7.853249,44.694679],"type":"Point"},"properties":{"osm_id":"4212081996","tag":{"natural":"tree"}},"type":"Feature"},
	{"geometry":{"coordinates":[7.853303,44.694698],"type":"Point"},"properties":{"osm_id":"4212081997","tag":{"natural":"tree"}},"type":"Feature"},
	{"geometry":{"coordinates":[7.853359,44.694712],"type":"Point"},"properties":{"osm_id":"4212081998","tag":{"natural":"tree"}},"type":"Feature"},
	{"geometry":{"coordinates":[7.857245,44.695363],"type":"Point"},"properties":{"osm_id":"4212100706","tag":{"natural":"tree"}},"type":"Feature"},
	{"geometry":{"coordinates":[7.857325,44.695399],"type":"Point"},"properties":{"osm_id":"4212100707","tag":{"natural":"tree"}},"type":"Feature"},
	{"geometry":{"coordinates":[7.85747,44.695478],"type":"Point"},"properties":{"osm_id":"4212100708","tag":{"natural":"tree"}},"type":"Feature"},
	{"geometry":{"coordinates":[7.856869,44.695513],"type":"Point"},"properties":{"osm_id":"4212100709","tag":{"natural":"tree"}},"type":"Feature"},
	{"geometry":{"coordinates":[7.856957,44.695501],"type":"Point"},"properties":{"osm_id":"4212100710","tag":{"natural":"tree"}},"type":"Feature"},
	{"geometry":{"coordinates":[7.857029,44.695466],"type":"Point"},"properties":{"osm_id":"4212100711","tag":{"natural":"tree"}},"type":"Feature"},
	{"geometry":{"coordinates":[7.857067,44.695401],"type":"Point"},"properties":{"osm_id":"4212100712","tag":{"natural":"tree"}},"type":"Feature"},
	{"geometry":{"coordinates":[7.85707,44.695331],"type":"Point"},"properties":{"osm_id":"4212100713","tag":{"natural":"tree"}},"type":"Feature"},
	{"geometry":{"coordinates":[7.857166,44.695606],"type":"Point"},"properties":{"osm_id":"4212100714","tag":{"natural":"tree"}},"type":"Feature"},
	{"geometry":{"coordinates":[7.857122,44.695584],"type":"Point"},"properties":{"osm_id":"4212100715","tag":{"natural":"tree"}},"type":"Feature"},
	{"geometry":{"coordinates":[7.857066,44.695562],"type":"Point"},"properties":{"osm_id":"4212100716","tag":{"natural":"tree"}},"type":"Feature"},
	{"geometry":{"coordinates":[7.856982,44.695585],"type":"Point"},"properties":{"osm_id":"4212100717","tag":{"natural":"tree"}},"type":"Feature"},
	{"geometry":{"coordinates":[7.856897,44.695591],"type":"Point"},"properties":{"osm_id":"4212100718","tag":{"natural":"tree"}},"type":"Feature"},
	{"geometry":{"coordinates":[7.85682,44.695617],"type":"Point"},"properties":{"osm_id":"4212100719","tag":{"natural":"tree"}},"type":"Feature"},
	{"geometry":{"coordinates":[7.857315,44.6956],"type":"Point"},"properties":{"osm_id":"4212100720","tag":{"natural":"tree"}},"type":"Feature"},
	{"geometry":{"coordinates":[7.840363,44.712592],"type":"Point"},"properties":{"name":"Zelkova carpinifolia","osm_id":"5630083571","tag":{"circumference":"5.35","denotation":"natural_monument","description":"Albero monumentale del Piemonte a) et\u00c3\u00a0 e dimensioni                                   b) forma e portamento                                        d) rarit\u00c3\u00a0 botanica ","height":"42.0","leaf_cycle":"deciduous","leaf_type":"broadleaved","name:de":"Kaukasische Zelkove","name:en":"Caucasian elm","name:es":"Zelkova del C\u00c3\u00a1ucaso","name:fr":"Orme du Caucase","name:it":"Olmo del Caucaso","natural":"tree","protected":"yes","species":"Zelkova carpinifolia","species:de":"Kaukasische Zelkove","species:en":"Caucasian elm","species:es":"Zelkova del C\u00c3\u00a1ucaso","species:fr":"Orme du Caucase","species:it":"Olmo del Caucaso"}},"type":"Feature"},
	{"geometry":{"coordinates":[7.855242,44.695771],"type":"Point"},"properties":{"name":"Ippocastano","osm_id":"5630101040","tag":{"circumference":"3.20","denotation":"natural_monument","height":"20","leaf_cycle":"deciduous","leaf_type":"broadleaved","name:de":"Gew\u00c3\u00b6hnliche Rosskastanie","name:en":"Horse-chestnut","name:es":"Casta\u00c3\u00b1o de Indias","name:fr":"Marronnier commun","name:it":"Ippocastano","natural":"tree","species":"Aesculus hippocastanum","species:de":"Gew\u00c3\u00b6hnliche Rosskastanie","species:en":"Horse-chestnut[","species:es":"Casta\u00c3\u00b1o de Indias","species:fr":"Marronnier commun","species:it":"Ippocastano comune","wikidata":"Q56629584"}},"type":"Feature"},
	{"geometry":{"coordinates":[7.847725,44.687292],"type":"Point"},"properties":{"osm_id":"6270484087","tag":{"leaf_cycle":"evergreen","leaf_type":"needleleaved","natural":"tree"}},"type":"Feature"},
	{"geometry":{"coordinates":[7.84454,44.695745],"type":"Point"},"properties":{"osm_id":"6270490443","tag":{"denotation":"natural_monument","leaf_cycle":"deciduous","leaf_type":"broadleaved","natural":"tree"}},"type":"Feature"},
	{"geometry":{"coordinates":[7.844667,44.707891],"type":"Point"},"properties":{"osm_id":"6270508790","tag":{"natural":"tree"}},"type":"Feature"},
	{"geometry":{"coordinates":[7.84124,44.70796],"type":"Point"},"properties":{"osm_id":"6270519094","tag":{"natural":"tree"}},"type":"Feature"},
	{"geometry":{"coordinates":[7.839078,44.704706],"type":"Point"},"properties":{"osm_id":"6270520817","tag":{"natural":"tree"}},"type":"Feature"},
	{"geometry":{"coordinates":[7.844051,44.702383],"type":"Point"},"properties":{"osm_id":"6278728661","tag":{"natural":"tree"}},"type":"Feature"},
	{"geometry":{"coordinates":[7.852694,44.697282],"type":"Point"},"properties":{"osm_id":"6606402854","tag":{"natural":"tree"}},"type":"Feature"}
]
}
