{
"type": "FeatureCollection",
"features": [
	{"geometry":{"coordinates":[7.829369,43.83717],"type":"Point"},"properties":{"osm_id":"1794225141","tag":{"leaf_type":"leafless","natural":"tree","type":"palm"}},"type":"Feature"},
	{"geometry":{"coordinates":[7.86401,43.873838],"type":"Point"},"properties":{"name":"Quercus ilex","osm_id":"5617584042","tag":{"denotation":"natural_monument","leaf_cycle":"evergreen","leaf_type":"broadleaved","name:de":"Steineiche","name:en":"Evergreen oak","name:es":"Encina","name:fr":"Ch\u00c3\u00aane vert","name:it":"Leccio","natural":"tree","protected":"yes","species":"Quercus ilex","species:de":"Steineiche","species:en":"Evergreen oak","species:es":"Encina","species:fr":"Ch\u00c3\u00aane vert","species:it":"Leccio"}},"type":"Feature"},
	{"geometry":{"coordinates":[7.908541,43.851134],"type":"Point"},"properties":{"osm_id":"6997249191","tag":{"natural":"tree"}},"type":"Feature"},
	{"geometry":{"coordinates":[7.908638,43.851114],"type":"Point"},"properties":{"osm_id":"6997249192","tag":{"natural":"tree"}},"type":"Feature"},
	{"geometry":{"coordinates":[7.908511,43.850747],"type":"Point"},"properties":{"osm_id":"6997249193","tag":{"natural":"tree"}},"type":"Feature"},
	{"geometry":{"coordinates":[7.908616,43.850663],"type":"Point"},"properties":{"osm_id":"6997249194","tag":{"natural":"tree"}},"type":"Feature"},
	{"geometry":{"coordinates":[7.908821,43.850554],"type":"Point"},"properties":{"osm_id":"6997249195","tag":{"natural":"tree"}},"type":"Feature"},
	{"geometry":{"coordinates":[7.908906,43.85053],"type":"Point"},"properties":{"osm_id":"6997249196","tag":{"natural":"tree"}},"type":"Feature"},
	{"geometry":{"coordinates":[7.909019,43.850524],"type":"Point"},"properties":{"osm_id":"6997249197","tag":{"natural":"tree"}},"type":"Feature"},
	{"geometry":{"coordinates":[7.909361,43.850514],"type":"Point"},"properties":{"osm_id":"6997249198","tag":{"natural":"tree"}},"type":"Feature"},
	{"geometry":{"coordinates":[7.909752,43.850452],"type":"Point"},"properties":{"osm_id":"6997249199","tag":{"natural":"tree"}},"type":"Feature"},
	{"geometry":{"coordinates":[7.908971,43.850623],"type":"Point"},"properties":{"osm_id":"6997249200","tag":{"natural":"tree"}},"type":"Feature"},
	{"geometry":{"coordinates":[7.875743,43.860096],"type":"Point"},"properties":{"osm_id":"7002920786","tag":{"natural":"tree"}},"type":"Feature"}
]
}
