{
"type": "FeatureCollection",
"lastupdate": "2020-07-31T00:00:00Z",
"features": [
	{"geometry":{"coordinates":[-71.110561,42.374913],"type":"Point"},"properties":{"osm_id":"631342001","tag":{"amenity":"recycling","recycling_type":"container"}},"type":"Feature"},
	{"geometry":{"coordinates":[-71.121361,42.408932],"type":"Point"},"properties":{"osm_id":"1097255510","tag":{"amenity":"waste_basket"}},"type":"Feature"},
	{"geometry":{"coordinates":[-71.121548,42.408827],"type":"Point"},"properties":{"osm_id":"1097255654","tag":{"amenity":"waste_basket"}},"type":"Feature"},
	{"geometry":{"coordinates":[-71.121083,42.408162],"type":"Point"},"properties":{"osm_id":"1242621604","tag":{"amenity":"waste_basket"}},"type":"Feature"},
	{"geometry":{"coordinates":[-71.120635,42.407803],"type":"Point"},"properties":{"osm_id":"1242621605","tag":{"amenity":"recycling","recycling:cans":"yes"}},"type":"Feature"},
	{"geometry":{"coordinates":[-71.121081,42.40826],"type":"Point"},"properties":{"osm_id":"1242621607","tag":{"amenity":"recycling","recycling:paper":"yes"}},"type":"Feature"},
	{"geometry":{"coordinates":[-71.121081,42.40821],"type":"Point"},"properties":{"osm_id":"1242621609","tag":{"amenity":"recycling","recycling:cans":"yes"}},"type":"Feature"},
	{"geometry":{"coordinates":[-71.122053,42.408385],"type":"Point"},"properties":{"osm_id":"1242621804","tag":{"amenity":"waste_basket"}},"type":"Feature"},
	{"geometry":{"coordinates":[-71.120621,42.4078],"type":"Point"},"properties":{"osm_id":"1242621805","tag":{"amenity":"recycling","recycling:cans":"yes","recycling:glass":"yes"}},"type":"Feature"},
	{"geometry":{"coordinates":[-71.120663,42.407814],"type":"Point"},"properties":{"osm_id":"1242621811","tag":{"amenity":"waste_basket"}},"type":"Feature"},
	{"geometry":{"coordinates":[-71.119879,42.408051],"type":"Point"},"properties":{"osm_id":"1242621812","tag":{"amenity":"waste_basket"}},"type":"Feature"},
	{"geometry":{"coordinates":[-71.107775,42.390062],"type":"Point"},"properties":{"osm_id":"2937882900","tag":{"amenity":"waste_basket"}},"type":"Feature"},
	{"geometry":{"coordinates":[-71.107777,42.390182],"type":"Point"},"properties":{"osm_id":"2937883401","tag":{"amenity":"waste_basket"}},"type":"Feature"},
	{"geometry":{"coordinates":[-71.129761,42.396811],"type":"Point"},"properties":{"osm_id":"3093455928","tag":{"amenity":"waste_basket"}},"type":"Feature"},
	{"geometry":{"coordinates":[-71.127427,42.360122],"type":"Point"},"properties":{"osm_id":"3545396795","tag":{"amenity":"waste_basket"}},"type":"Feature"},
	{"geometry":{"coordinates":[-71.127141,42.360435],"type":"Point"},"properties":{"osm_id":"3545396799","tag":{"amenity":"waste_basket"}},"type":"Feature"},
	{"geometry":{"coordinates":[-71.136102,42.362958],"type":"Point"},"properties":{"osm_id":"3552622435","tag":{"amenity":"waste_basket"}},"type":"Feature"},
	{"geometry":{"coordinates":[-71.136106,42.363003],"type":"Point"},"properties":{"osm_id":"3552622439","tag":{"amenity":"waste_basket"}},"type":"Feature"},
	{"geometry":{"coordinates":[-71.130679,42.362895],"type":"Point"},"properties":{"osm_id":"3552622457","tag":{"amenity":"recycling","operator":"American Red Cross","recycling:clothes":"yes"}},"type":"Feature"},
	{"geometry":{"coordinates":[-71.131149,42.362826],"type":"Point"},"properties":{"osm_id":"3562432459","tag":{"amenity":"waste_basket"}},"type":"Feature"},
	{"geometry":{"coordinates":[-71.128841,42.364011],"type":"Point"},"properties":{"osm_id":"3562474419","tag":{"amenity":"waste_basket"}},"type":"Feature"},
	{"geometry":{"coordinates":[-71.130634,42.36287],"type":"Point"},"properties":{"osm_id":"3594737692","tag":{"amenity":"recycling","operator":"Planet Aid","recycling:clothes":"yes","recycling:shoes":"yes"}},"type":"Feature"},
	{"geometry":{"coordinates":[-71.117482,42.369054],"type":"Point"},"properties":{"osm_id":"3599747348","tag":{"amenity":"waste_basket"}},"type":"Feature"},
	{"geometry":{"coordinates":[-71.117473,42.369061],"type":"Point"},"properties":{"osm_id":"3599747349","tag":{"amenity":"recycling","recycling:cans":"yes","recycling:glass":"yes"}},"type":"Feature"},
	{"geometry":{"coordinates":[-71.117507,42.369086],"type":"Point"},"properties":{"osm_id":"3599747350","tag":{"amenity":"waste_basket"}},"type":"Feature"},
	{"geometry":{"coordinates":[-71.117515,42.369079],"type":"Point"},"properties":{"osm_id":"3599747351","tag":{"amenity":"recycling","recycling:cans":"yes","recycling:glass":"yes"}},"type":"Feature"},
	{"geometry":{"coordinates":[-71.107815,42.364259],"type":"Point"},"properties":{"osm_id":"4360361288","tag":{"amenity":"waste_basket"}},"type":"Feature"},
	{"geometry":{"coordinates":[-71.105537,42.365265],"type":"Point"},"properties":{"osm_id":"4360478893","tag":{"amenity":"waste_basket"}},"type":"Feature"},
	{"geometry":{"coordinates":[-71.107486,42.364253],"type":"Point"},"properties":{"osm_id":"4360478903","tag":{"amenity":"waste_basket"}},"type":"Feature"},
	{"geometry":{"coordinates":[-71.105449,42.364955],"type":"Point"},"properties":{"osm_id":"4360542980","tag":{"amenity":"waste_basket"}},"type":"Feature"},
	{"geometry":{"coordinates":[-71.104819,42.365339],"type":"Point"},"properties":{"osm_id":"4360542983","tag":{"amenity":"waste_basket"}},"type":"Feature"},
	{"geometry":{"coordinates":[-71.104431,42.364957],"type":"Point"},"properties":{"osm_id":"4360542985","tag":{"amenity":"waste_basket"}},"type":"Feature"},
	{"geometry":{"coordinates":[-71.104403,42.365096],"type":"Point"},"properties":{"osm_id":"4360543291","tag":{"amenity":"waste_basket"}},"type":"Feature"},
	{"geometry":{"coordinates":[-71.104234,42.365262],"type":"Point"},"properties":{"osm_id":"4360543292","tag":{"amenity":"waste_basket"}},"type":"Feature"},
	{"geometry":{"coordinates":[-71.105204,42.366164],"type":"Point"},"properties":{"osm_id":"4363704735","tag":{"amenity":"waste_basket"}},"type":"Feature"},
	{"geometry":{"coordinates":[-71.105364,42.366271],"type":"Point"},"properties":{"osm_id":"4363704737","tag":{"amenity":"waste_basket"}},"type":"Feature"},
	{"geometry":{"coordinates":[-71.106155,42.365884],"type":"Point"},"properties":{"osm_id":"4363704739","tag":{"amenity":"waste_basket"}},"type":"Feature"},
	{"geometry":{"coordinates":[-71.106013,42.365201],"type":"Point"},"properties":{"osm_id":"4365535126","tag":{"amenity":"waste_basket"}},"type":"Feature"},
	{"geometry":{"coordinates":[-71.103753,42.36375],"type":"Point"},"properties":{"osm_id":"4406010486","tag":{"amenity":"waste_basket","covered":"yes"}},"type":"Feature"},
	{"geometry":{"coordinates":[-71.127634,42.403546],"type":"Point"},"properties":{"osm_id":"4545700990","tag":{"amenity":"waste_basket"}},"type":"Feature"},
	{"geometry":{"coordinates":[-71.107432,42.364974],"type":"Point"},"properties":{"osm_id":"4839240146","tag":{"amenity":"waste_basket"}},"type":"Feature"},
	{"geometry":{"coordinates":[-71.111594,42.362987],"type":"Point"},"properties":{"osm_id":"4841884776","tag":{"amenity":"waste_basket"}},"type":"Feature"},
	{"geometry":{"coordinates":[-71.113305,42.362411],"type":"Point"},"properties":{"osm_id":"4841884779","tag":{"amenity":"waste_basket"}},"type":"Feature"},
	{"geometry":{"coordinates":[-71.118487,42.372039],"type":"Point"},"properties":{"osm_id":"4846358250","tag":{"amenity":"waste_basket"}},"type":"Feature"},
	{"geometry":{"coordinates":[-71.119422,42.372351],"type":"Point"},"properties":{"osm_id":"4846358252","tag":{"amenity":"waste_basket"}},"type":"Feature"},
	{"geometry":{"coordinates":[-71.103605,42.388555],"type":"Point"},"properties":{"osm_id":"5238051832","tag":{"amenity":"waste_basket"}},"type":"Feature"},
	{"geometry":{"coordinates":[-71.132644,42.399626],"type":"Point"},"properties":{"osm_id":"5433549816","tag":{"amenity":"waste_basket"}},"type":"Feature"},
	{"geometry":{"coordinates":[-71.132458,42.399913],"type":"Point"},"properties":{"osm_id":"5433550306","tag":{"amenity":"waste_basket"}},"type":"Feature"},
	{"geometry":{"coordinates":[-71.132176,42.399893],"type":"Point"},"properties":{"osm_id":"5433550445","tag":{"amenity":"waste_basket"}},"type":"Feature"},
	{"geometry":{"coordinates":[-71.185563,42.365391],"type":"Point"},"properties":{"osm_id":"5595235023","tag":{"amenity":"waste_basket","waste":"trash"}},"type":"Feature"},
	{"geometry":{"coordinates":[-71.147837,42.374924],"type":"Point"},"properties":{"osm_id":"5627238717","tag":{"amenity":"recycling","opening_hours":"24/7","recycling:cans":"yes","recycling:plastic_bottles":"yes","recycling_type":"container"}},"type":"Feature"},
	{"geometry":{"coordinates":[-71.147784,42.374939],"type":"Point"},"properties":{"osm_id":"5627239921","tag":{"amenity":"waste_basket","ele:msl":"-16.0","ele:source":"GPS","waste":"trash"}},"type":"Feature"},
	{"geometry":{"coordinates":[-71.148382,42.375008],"type":"Point"},"properties":{"osm_id":"5627239926","tag":{"amenity":"waste_basket","waste":"trash"}},"type":"Feature"},
	{"geometry":{"coordinates":[-71.128674,42.395812],"type":"Point"},"properties":{"osm_id":"6107292287","tag":{"amenity":"waste_basket"}},"type":"Feature"},
	{"geometry":{"coordinates":[-71.128682,42.395823],"type":"Point"},"properties":{"osm_id":"6107292288","tag":{"amenity":"recycling","recycling_type":"container"}},"type":"Feature"},
	{"geometry":{"coordinates":[-71.105756,42.366754],"type":"Point"},"properties":{"osm_id":"6124523738","tag":{"amenity":"waste_basket"}},"type":"Feature"},
	{"geometry":{"coordinates":[-71.105749,42.366752],"type":"Point"},"properties":{"osm_id":"6124523739","tag":{"amenity":"recycling","recycling_type":"container"}},"type":"Feature"},
	{"geometry":{"coordinates":[-71.118691,42.374341],"type":"Point"},"properties":{"osm_id":"6124562841","tag":{"amenity":"waste_basket"}},"type":"Feature"},
	{"geometry":{"coordinates":[-71.118692,42.374333],"type":"Point"},"properties":{"osm_id":"6124562842","tag":{"amenity":"recycling","recycling:cans":"yes","recycling:glass_bottles":"yes","recycling:paper":"yes","recycling:plastic_bottles":"yes","recycling_type":"container"}},"type":"Feature"},
	{"geometry":{"coordinates":[-71.119161,42.373497],"type":"Point"},"properties":{"osm_id":"6124562864","tag":{"amenity":"recycling","recycling_type":"container"}},"type":"Feature"},
	{"geometry":{"coordinates":[-71.119169,42.373489],"type":"Point"},"properties":{"osm_id":"6124562865","tag":{"amenity":"waste_basket"}},"type":"Feature"},
	{"geometry":{"coordinates":[-71.110793,42.369253],"type":"Point"},"properties":{"osm_id":"6539446339","tag":{"amenity":"waste_basket","description":"Publicly accessible garbage recepticle"}},"type":"Feature"},
	{"geometry":{"coordinates":[-71.186123,42.366576],"type":"Point"},"properties":{"osm_id":"6564729257","tag":{"amenity":"waste_basket","description":"Publicly accessible garbage receptacle"}},"type":"Feature"},
	{"geometry":{"coordinates":[-71.11431,42.364528],"type":"Point"},"properties":{"osm_id":"6564760660","tag":{"amenity":"waste_basket","description":"Publicly accessible garbage receptacle"}},"type":"Feature"},
	{"geometry":{"coordinates":[-71.113037,42.366487],"type":"Point"},"properties":{"osm_id":"6597724165","tag":{"amenity":"waste_basket","description":"Publicly accessible garbage receptacle."}},"type":"Feature"},
	{"geometry":{"coordinates":[-71.121495,42.374084],"type":"Point"},"properties":{"osm_id":"6597736397","tag":{"amenity":"waste_basket","description":"Publicly accessible garbage receptacle."}},"type":"Feature"},
	{"geometry":{"coordinates":[-71.115508,42.364963],"type":"Point"},"properties":{"osm_id":"6597743783","tag":{"amenity":"waste_basket","description":"Publicly accessible garbage receptacle."}},"type":"Feature"},
	{"geometry":{"coordinates":[-71.115867,42.36446],"type":"Point"},"properties":{"osm_id":"6766458274","tag":{"amenity":"waste_basket","description":"Publicly accessible garbage receptacle."}},"type":"Feature"},
	{"geometry":{"coordinates":[-71.115897,42.367647],"type":"Point"},"properties":{"osm_id":"6795635867","tag":{"amenity":"waste_basket","description":"Publicly accessible garbage receptacle."}},"type":"Feature"},
	{"geometry":{"coordinates":[-71.18657,42.36666],"type":"Point"},"properties":{"osm_id":"6795732698","tag":{"amenity":"waste_basket","description":"Publicly accessible garbage receptacle."}},"type":"Feature"},
	{"geometry":{"coordinates":[-71.113725,42.370807],"type":"Point"},"properties":{"osm_id":"6831526773","tag":{"amenity":"waste_basket","description":"Publicly accessible garbage receptacle."}},"type":"Feature"},
	{"geometry":{"coordinates":[-71.115728,42.370888],"type":"Point"},"properties":{"osm_id":"6833462533","tag":{"amenity":"waste_basket","description":"Publicly accesible garbage receptacle."}},"type":"Feature"},
	{"geometry":{"coordinates":[-71.116001,42.386004],"type":"Point"},"properties":{"osm_id":"6833464262","tag":{"amenity":"waste_basket","description":"Publicly accesible garbage receptacle."}},"type":"Feature"},
	{"geometry":{"coordinates":[-71.107928,42.361862],"type":"Point"},"properties":{"osm_id":"6900525187","tag":{"amenity":"waste_basket","description":"Publicly accessible garbage receptacle."}},"type":"Feature"},
	{"geometry":{"coordinates":[-71.129671,42.39769],"type":"Point"},"properties":{"osm_id":"6910121638","tag":{"amenity":"waste_basket"}},"type":"Feature"},
	{"geometry":{"coordinates":[-71.108363,42.361411],"type":"Point"},"properties":{"osm_id":"6942924729","tag":{"amenity":"waste_basket","description":"Publicly accessible garbage receptacle."}},"type":"Feature"},
	{"geometry":{"coordinates":[-71.107701,42.361646],"type":"Point"},"properties":{"osm_id":"6942966572","tag":{"amenity":"waste_basket","description":"Publicly accessible garbage receptacle."}},"type":"Feature"},
	{"geometry":{"coordinates":[-71.10813,42.361367],"type":"Point"},"properties":{"osm_id":"6943109324","tag":{"amenity":"waste_basket","description":"Publicly accessible garbage receptacle."}},"type":"Feature"},
	{"geometry":{"coordinates":[-71.119076,42.386622],"type":"Point"},"properties":{"osm_id":"6967207563","tag":{"amenity":"recycling","recycling_type":"container"}},"type":"Feature"},
	{"geometry":{"coordinates":[-71.119074,42.386629],"type":"Point"},"properties":{"osm_id":"6967207569","tag":{"amenity":"waste_basket","waste":"trash"}},"type":"Feature"},
	{"geometry":{"coordinates":[-71.109011,42.368406],"type":"Point"},"properties":{"osm_id":"7058342682","tag":{"amenity":"waste_basket","description":"Publicly accessible garbage receptacle."}},"type":"Feature"},
	{"geometry":{"coordinates":[-71.129852,42.361049],"type":"Point"},"properties":{"osm_id":"7058389446","tag":{"amenity":"waste_basket","description":"Publicly accessible garbage receptacle."}},"type":"Feature"},
	{"geometry":{"coordinates":[-71.114635,42.362556],"type":"Point"},"properties":{"osm_id":"7058455410","tag":{"amenity":"waste_basket","description":"Publicly accessible garbage receptacle."}},"type":"Feature"},
	{"geometry":{"coordinates":[-71.114069,42.361791],"type":"Point"},"properties":{"osm_id":"7091256839","tag":{"amenity":"waste_basket","description":"Publicly accessible garbage receptacle."}},"type":"Feature"},
	{"geometry":{"coordinates":[-71.151039,42.414692],"type":"Point"},"properties":{"osm_id":"7276922682","tag":{"amenity":"waste_basket","description":"Publicly accessible garbage receptacle."}},"type":"Feature"},
	{"geometry":{"coordinates":[-71.142502,42.405801],"type":"Point"},"properties":{"osm_id":"7277169103","tag":{"amenity":"waste_basket","description":"Publicly accessible garbage receptacle"}},"type":"Feature"}
]
}
