{
"type": "FeatureCollection",
"features": [
	{"geometry":{"coordinates":[-71.111735,42.305164],"type":"Point"},"properties":{"osm_id":"2576569494","tag":{"amenity":"waste_basket"}},"type":"Feature"},
	{"geometry":{"coordinates":[-71.114571,42.30533],"type":"Point"},"properties":{"osm_id":"2576569518","tag":{"amenity":"waste_basket"}},"type":"Feature"},
	{"geometry":{"coordinates":[-71.115334,42.307775],"type":"Point"},"properties":{"osm_id":"2576580856","tag":{"amenity":"waste_basket"}},"type":"Feature"},
	{"geometry":{"coordinates":[-71.115408,42.308081],"type":"Point"},"properties":{"osm_id":"2576580867","tag":{"amenity":"waste_basket"}},"type":"Feature"},
	{"geometry":{"coordinates":[-71.132818,42.356911],"type":"Point"},"properties":{"osm_id":"3545932184","tag":{"amenity":"waste_basket"}},"type":"Feature"},
	{"geometry":{"coordinates":[-71.109674,42.307756],"type":"Point"},"properties":{"osm_id":"4036961941","tag":{"amenity":"waste_basket"}},"type":"Feature"},
	{"geometry":{"coordinates":[-71.109517,42.307821],"type":"Point"},"properties":{"osm_id":"4036961947","tag":{"amenity":"waste_basket"}},"type":"Feature"},
	{"geometry":{"coordinates":[-71.115373,42.308053],"type":"Point"},"properties":{"osm_id":"4041059095","tag":{"amenity":"waste_basket"}},"type":"Feature"},
	{"geometry":{"coordinates":[-71.107878,42.311113],"type":"Point"},"properties":{"osm_id":"4042711900","tag":{"amenity":"waste_disposal"}},"type":"Feature"},
	{"geometry":{"coordinates":[-71.107699,42.311196],"type":"Point"},"properties":{"osm_id":"4042711916","tag":{"amenity":"waste_basket"}},"type":"Feature"},
	{"geometry":{"coordinates":[-71.107943,42.312133],"type":"Point"},"properties":{"osm_id":"4042712097","tag":{"amenity":"waste_basket"}},"type":"Feature"},
	{"geometry":{"coordinates":[-71.107812,42.312117],"type":"Point"},"properties":{"osm_id":"4042916096","tag":{"amenity":"waste_basket"}},"type":"Feature"},
	{"geometry":{"coordinates":[-71.107543,42.310622],"type":"Point"},"properties":{"osm_id":"4042927484","tag":{"amenity":"waste_basket"}},"type":"Feature"},
	{"geometry":{"coordinates":[-71.113218,42.302436],"type":"Point"},"properties":{"osm_id":"4044855367","tag":{"amenity":"waste_basket","description":"Publicly accessible garbage receptacle."}},"type":"Feature"},
	{"geometry":{"coordinates":[-71.112856,42.302798],"type":"Point"},"properties":{"osm_id":"4044855368","tag":{"amenity":"waste_basket"}},"type":"Feature"},
	{"geometry":{"coordinates":[-71.112642,42.303304],"type":"Point"},"properties":{"osm_id":"4044855369","tag":{"amenity":"waste_basket"}},"type":"Feature"},
	{"geometry":{"coordinates":[-71.111595,42.305158],"type":"Point"},"properties":{"osm_id":"4044864418","tag":{"amenity":"waste_basket"}},"type":"Feature"},
	{"geometry":{"coordinates":[-71.116929,42.318447],"type":"Point"},"properties":{"osm_id":"4051236151","tag":{"amenity":"waste_basket"}},"type":"Feature"},
	{"geometry":{"coordinates":[-71.119406,42.30111],"type":"Point"},"properties":{"osm_id":"4051981389","tag":{"amenity":"waste_basket"}},"type":"Feature"},
	{"geometry":{"coordinates":[-71.117177,42.30183],"type":"Point"},"properties":{"osm_id":"4051981418","tag":{"amenity":"waste_basket"}},"type":"Feature"},
	{"geometry":{"coordinates":[-71.120909,42.303347],"type":"Point"},"properties":{"osm_id":"4051981458","tag":{"amenity":"waste_basket"}},"type":"Feature"},
	{"geometry":{"coordinates":[-71.119934,42.303987],"type":"Point"},"properties":{"osm_id":"4051981459","tag":{"amenity":"waste_basket"}},"type":"Feature"},
	{"geometry":{"coordinates":[-71.152166,42.339866],"type":"Point"},"properties":{"osm_id":"5157379782","tag":{"amenity":"waste_basket"}},"type":"Feature"},
	{"geometry":{"coordinates":[-71.152276,42.340446],"type":"Point"},"properties":{"osm_id":"5157379783","tag":{"amenity":"waste_basket"}},"type":"Feature"},
	{"geometry":{"coordinates":[-71.151763,42.340362],"type":"Point"},"properties":{"osm_id":"5157379784","tag":{"amenity":"waste_basket"}},"type":"Feature"},
	{"geometry":{"coordinates":[-71.145827,42.341042],"type":"Point"},"properties":{"osm_id":"5157388112","tag":{"amenity":"waste_basket"}},"type":"Feature"},
	{"geometry":{"coordinates":[-71.104919,42.346811],"type":"Point"},"properties":{"osm_id":"6597700354","tag":{"amenity":"waste_basket","description":"Publicly accessible garbage receptacle."}},"type":"Feature"},
	{"geometry":{"coordinates":[-71.113234,42.355237],"type":"Point"},"properties":{"osm_id":"6597703821","tag":{"amenity":"waste_basket","description":"Publicly accessible garbage receptacle."}},"type":"Feature"},
	{"geometry":{"coordinates":[-71.109162,42.351946],"type":"Point"},"properties":{"osm_id":"6766550274","tag":{"amenity":"waste_basket","description":"Publicly accessible garbage receptacle."}},"type":"Feature"},
	{"geometry":{"coordinates":[-71.114926,42.356088],"type":"Point"},"properties":{"osm_id":"6780953632","tag":{"amenity":"waste_basket","description":"Publicly accessible garbage receptacle."}},"type":"Feature"},
	{"geometry":{"coordinates":[-71.114845,42.357993],"type":"Point"},"properties":{"osm_id":"6795695981","tag":{"amenity":"waste_basket","description":"Publicly accessible garbage receptacle."}},"type":"Feature"},
	{"geometry":{"coordinates":[-71.108623,42.350091],"type":"Point"},"properties":{"osm_id":"6795749665","tag":{"amenity":"waste_basket","description":"Publicly accessible garbage receptacle."}},"type":"Feature"},
	{"geometry":{"coordinates":[-71.109031,42.350585],"type":"Point"},"properties":{"osm_id":"6821374479","tag":{"amenity":"waste_basket","description":"Publicly accessible garbage receptacle."}},"type":"Feature"},
	{"geometry":{"coordinates":[-71.115231,42.356333],"type":"Point"},"properties":{"osm_id":"6831365085","tag":{"amenity":"waste_basket","description":"Publicly accessible garbage receptacle."}},"type":"Feature"},
	{"geometry":{"coordinates":[-71.106281,42.349811],"type":"Point"},"properties":{"osm_id":"6833270836","tag":{"amenity":"waste_basket","description":"Publicly accesible garbage receptacle."}},"type":"Feature"},
	{"geometry":{"coordinates":[-71.110042,42.350773],"type":"Point"},"properties":{"osm_id":"6943011124","tag":{"amenity":"waste_basket","description":"Publicly accessible garbage receptacle."}},"type":"Feature"},
	{"geometry":{"coordinates":[-71.11895,42.334304],"type":"Point"},"properties":{"osm_id":"6943011157","tag":{"amenity":"waste_basket","description":"Publicly accessible garbage receptacle."}},"type":"Feature"},
	{"geometry":{"coordinates":[-71.15157,42.33575],"type":"Point"},"properties":{"osm_id":"6960059885","tag":{"amenity":"waste_basket","survey:date":"2019-11-08"}},"type":"Feature"},
	{"geometry":{"coordinates":[-71.118228,42.332377],"type":"Point"},"properties":{"osm_id":"7058380342","tag":{"amenity":"waste_basket","description":"Publicly accessible garbage receptacle."}},"type":"Feature"},
	{"geometry":{"coordinates":[-71.10441,42.356856],"type":"Point"},"properties":{"osm_id":"7081069253","tag":{"amenity":"waste_basket","description":"Publicly accessible garbage receptacle."}},"type":"Feature"},
	{"geometry":{"coordinates":[-71.111151,42.355418],"type":"Point"},"properties":{"osm_id":"7091021268","tag":{"amenity":"waste_basket","description":"Unaffixed garbage bin"}},"type":"Feature"},
	{"geometry":{"coordinates":[-71.104101,42.35682],"type":"Point"},"properties":{"osm_id":"7091024875","tag":{"amenity":"waste_basket","description":"Publicly accessible garbage receptacle."}},"type":"Feature"},
	{"geometry":{"coordinates":[-71.112762,42.303094],"type":"Point"},"properties":{"osm_id":"7196027793","tag":{"amenity":"waste_basket","description":"Publicly accessible garbage receptacle."}},"type":"Feature"},
	{"geometry":{"coordinates":[-71.10448,42.317593],"type":"Point"},"properties":{"osm_id":"7196084107","tag":{"amenity":"waste_basket","description":"Publicly accessible garbage receptacle."}},"type":"Feature"},
	{"geometry":{"coordinates":[-71.110166,42.321812],"type":"Point"},"properties":{"osm_id":"7196140543","tag":{"amenity":"waste_basket","description":"Publicly accessible garbage receptacle."}},"type":"Feature"},
	{"geometry":{"coordinates":[-71.111395,42.32026],"type":"Point"},"properties":{"osm_id":"7202233842","tag":{"amenity":"waste_basket","description":"Publicly accessible garbage receptacle maintained.by 7/11."}},"type":"Feature"},
	{"geometry":{"coordinates":[-71.112,42.304217],"type":"Point"},"properties":{"osm_id":"7235523187","tag":{"amenity":"waste_basket","description":"Publicly accessible garbage receptacle."}},"type":"Feature"},
	{"geometry":{"coordinates":[-71.105902,42.312478],"type":"Point"},"properties":{"osm_id":"7235610988","tag":{"amenity":"waste_basket","description":"Publicly accessible garbage receptacle."}},"type":"Feature"},
	{"geometry":{"coordinates":[-71.106024,42.314742],"type":"Point"},"properties":{"osm_id":"7235659191","tag":{"amenity":"waste_basket","description":"Publicly accessible garbage receptacle."}},"type":"Feature"},
	{"geometry":{"coordinates":[-71.107566,42.30982],"type":"Point"},"properties":{"osm_id":"7316046653","tag":{"amenity":"waste_basket","description":"Publicly accessible garbage receptacle"}},"type":"Feature"},
	{"geometry":{"coordinates":[-71.120152,42.307402],"type":"Point"},"properties":{"osm_id":"7317229255","tag":{"amenity":"waste_basket","description":"Publicly accessible garbage receptacle"}},"type":"Feature"},
	{"geometry":{"coordinates":[-71.111901,42.30446],"type":"Point"},"properties":{"osm_id":"7317241328","tag":{"amenity":"waste_basket","description":"Publicly accessible garbage receptacle"}},"type":"Feature"},
	{"geometry":{"coordinates":[-71.110611,42.306396],"type":"Point"},"properties":{"osm_id":"7319883317","tag":{"amenity":"waste_basket","description":"Publicly accessible garbage receptacle"}},"type":"Feature"},
	{"geometry":{"coordinates":[-71.111698,42.305325],"type":"Point"},"properties":{"osm_id":"7320073179","tag":{"amenity":"waste_basket","description":"Publicly accessible garbage receptacle"}},"type":"Feature"},
	{"geometry":{"coordinates":[-71.110181,42.306258],"type":"Point"},"properties":{"osm_id":"7320091045","tag":{"amenity":"waste_basket","description":"Publicly accessible garbage receptacle"}},"type":"Feature"},
	{"geometry":{"coordinates":[-71.117459,42.315828],"type":"Point"},"properties":{"osm_id":"7320154048","tag":{"amenity":"waste_basket","description":"Unaffixed garbage bin"}},"type":"Feature"},
	{"geometry":{"coordinates":[-71.11338,42.30295],"type":"Point"},"properties":{"osm_id":"7320173595","tag":{"amenity":"waste_basket","description":"Publicly accessible garbage receptacle"}},"type":"Feature"},
	{"geometry":{"coordinates":[-71.104563,42.317117],"type":"Point"},"properties":{"osm_id":"7320186695","tag":{"amenity":"waste_basket","description":"Publicly accessible garbage receptacle"}},"type":"Feature"},
	{"geometry":{"coordinates":[-71.10483,42.346393],"type":"Point"},"properties":{"man_made":"monitoring_station","osm_id":"7795781346","tag":{"amenity":"recycling","colour":"black","communication:mobile":"yes","covered":"no","generator:source":"solar","height":"1.3","indoor":"no","internet_access":"yes","lockable":"yes","manufacturer":"BigBelly, Inc.","material":"metal","monitoring:trash":"yes","operator":"City of Boston Public Works","recycling:glass":"yes","recycling:paper":"yes","recycling:plastic":"yes","recycling:waste":"yes","recycling_type":"container","waste":"trash;recycling","website":"https://www.boston.gov/trash-and-recycling","wheelchair":"yes","width":"0.6"}},"type":"Feature"},
	{"geometry":{"coordinates":[-71.11255,42.35395],"type":"Point"},"properties":{"man_made":"monitoring_station","osm_id":"7802240655","tag":{"amenity":"recycling","colour":"black","communication:mobile":"yes","covered":"no","generator:source":"solar","height":"1.3","indoor":"no","internet_access":"yes","lockable":"yes","manufacturer":"BigBelly, Inc.","material":"metal","monitoring:trash":"yes","operator":"City of Boston Public Works","recycling:glass":"yes","recycling:paper":"yes","recycling:plastic":"yes","recycling:waste":"yes","recycling_type":"container","waste":"trash;recycling","website":"https://www.boston.gov/trash-and-recycling","wheelchair":"yes","width":"0.6"}},"type":"Feature"},
	{"geometry":{"coordinates":[-71.107524,42.353353],"type":"Point"},"properties":{"man_made":"monitoring_station","osm_id":"7802240716","tag":{"amenity":"recycling","colour":"black","communication:mobile":"yes","covered":"no","generator:source":"solar","height":"1.3","indoor":"no","internet_access":"yes","lockable":"yes","manufacturer":"BigBelly, Inc.","material":"metal","monitoring:trash":"yes","operator":"City of Boston Public Works","recycling:glass":"yes","recycling:paper":"yes","recycling:plastic":"yes","recycling:waste":"yes","recycling_type":"container","waste":"trash;recycling","website":"https://www.boston.gov/trash-and-recycling","wheelchair":"yes","width":"0.6"}},"type":"Feature"},
	{"geometry":{"coordinates":[-71.164619,42.326818],"type":"Point"},"properties":{"osm_id":"7940545480","tag":{"amenity":"waste_basket","colour":"silver","covered":"no","indoor":"no","material":"steel","waste":"trash"}},"type":"Feature"},
	{"geometry":{"coordinates":[-71.164133,42.326787],"type":"Point"},"properties":{"osm_id":"7940545503","tag":{"amenity":"waste_basket","colour":"silver","covered":"no","indoor":"no","material":"steel","waste":"trash"}},"type":"Feature"}
]
}
