{
"type": "FeatureCollection",
"lastupdate": "2020-08-02T00:00:00Z",
"features": [
	{"geometry":{"coordinates":[-114.162729,51.154661],"type":"Point"},"properties":{"name":"Beacon Hill Depot","osm_id":"475832853","tag":{"amenity":"recycling","operator":"City of Calgary","recycling_type":"centre"}},"type":"Feature"},
	{"geometry":{"coordinates":[-114.129445,51.139018],"type":"Point"},"properties":{"osm_id":"4223925296","tag":{"amenity":"waste_basket"}},"type":"Feature"},
	{"geometry":{"coordinates":[-114.158862,51.141317],"type":"Point"},"properties":{"osm_id":"4257976070","tag":{"amenity":"waste_basket"}},"type":"Feature"},
	{"geometry":{"coordinates":[-114.159702,51.143698],"type":"Point"},"properties":{"osm_id":"4257976071","tag":{"amenity":"waste_basket"}},"type":"Feature"},
	{"geometry":{"coordinates":[-114.101416,51.154697],"type":"Point"},"properties":{"osm_id":"4396685358","tag":{"amenity":"waste_basket"}},"type":"Feature"},
	{"geometry":{"coordinates":[-114.132705,51.134175],"type":"Point"},"properties":{"osm_id":"4421106966","tag":{"amenity":"waste_basket"}},"type":"Feature"},
	{"geometry":{"coordinates":[-114.093946,51.165808],"type":"Point"},"properties":{"osm_id":"4426825512","tag":{"amenity":"waste_basket"}},"type":"Feature"},
	{"geometry":{"coordinates":[-114.09764,51.165559],"type":"Point"},"properties":{"osm_id":"4426825517","tag":{"amenity":"waste_basket"}},"type":"Feature"},
	{"geometry":{"coordinates":[-114.118009,51.131429],"type":"Point"},"properties":{"osm_id":"5353720061","tag":{"amenity":"waste_basket"}},"type":"Feature"},
	{"geometry":{"coordinates":[-114.132605,51.126527],"type":"Point"},"properties":{"osm_id":"5353720084","tag":{"amenity":"waste_basket"}},"type":"Feature"},
	{"geometry":{"coordinates":[-114.14537,51.170438],"type":"Point"},"properties":{"name":"Sage Hill Bottle Depot","osm_id":"6333765171","tag":{"addr:city":"Calgary","addr:housenumber":"70","addr:postcode":"T3R 0S4","addr:street":"Sage Hill Plaza NW","amenity":"recycling","phone":"+1-403-275-7003","recycling:beverage_cartons":"yes","recycling:cans":"yes","recycling:clothes":"yes","recycling:glass_bottles":"yes","recycling:plastic_bottles":"yes","recycling_type":"centre","website":"sagehillbottledepot.ca"}},"type":"Feature"},
	{"geometry":{"coordinates":[-114.098765,51.133324],"type":"Point"},"properties":{"osm_id":"6333968552","tag":{"amenity":"recycling","description":"Recycling container for retail area","recycling_type":"container"}},"type":"Feature"},
	{"geometry":{"coordinates":[-114.086813,51.166015],"type":"Point"},"properties":{"osm_id":"6338573829","tag":{"amenity":"recycling","recycling_type":"container"}},"type":"Feature"},
	{"geometry":{"coordinates":[-114.089382,51.142291],"type":"Point"},"properties":{"osm_id":"6899441746","tag":{"amenity":"waste_basket"}},"type":"Feature"},
	{"geometry":{"coordinates":[-114.085891,51.154227],"type":"Point"},"properties":{"osm_id":"6899483793","tag":{"amenity":"waste_basket"}},"type":"Feature"},
	{"geometry":{"coordinates":[-114.093011,51.154025],"type":"Point"},"properties":{"osm_id":"6899483796","tag":{"amenity":"waste_basket"}},"type":"Feature"},
	{"geometry":{"coordinates":[-114.093283,51.152841],"type":"Point"},"properties":{"osm_id":"6899483803","tag":{"amenity":"waste_basket"}},"type":"Feature"},
	{"geometry":{"coordinates":[-114.083921,51.146296],"type":"Point"},"properties":{"osm_id":"6899483811","tag":{"amenity":"waste_basket"}},"type":"Feature"},
	{"geometry":{"coordinates":[-114.119312,51.141909],"type":"Point"},"properties":{"osm_id":"6983808879","tag":{"amenity":"waste_basket"}},"type":"Feature"},
	{"geometry":{"coordinates":[-114.115003,51.147035],"type":"Point"},"properties":{"osm_id":"6983808883","tag":{"amenity":"waste_basket"}},"type":"Feature"},
	{"geometry":{"coordinates":[-114.115835,51.153601],"type":"Point"},"properties":{"osm_id":"6983813590","tag":{"amenity":"waste_basket"}},"type":"Feature"},
	{"geometry":{"coordinates":[-114.109694,51.150995],"type":"Point"},"properties":{"osm_id":"6983813595","tag":{"amenity":"waste_basket"}},"type":"Feature"},
	{"geometry":{"coordinates":[-114.10981,51.150527],"type":"Point"},"properties":{"osm_id":"6983813597","tag":{"amenity":"waste_basket"}},"type":"Feature"},
	{"geometry":{"coordinates":[-114.109487,51.149395],"type":"Point"},"properties":{"osm_id":"6983813598","tag":{"amenity":"waste_basket"}},"type":"Feature"},
	{"geometry":{"coordinates":[-114.105141,51.147425],"type":"Point"},"properties":{"osm_id":"6983813600","tag":{"amenity":"waste_basket"}},"type":"Feature"}
]
}
