{
"type": "FeatureCollection",
"features": [
	{"geometry":{"coordinates":[-114.1544,51.087724],"type":"Point"},"properties":{"name":"Community Recycling Depot","osm_id":"196662386","tag":{"amenity":"recycling","recycling:clothes":"no","recycling:glass":"yes","recycling:paper":"yes","recycling_type":"container","website":"http://www.calgary.ca/UEP/WRS/Pages/Recycling-information/Residential-services/Recycling-depots/Recycling-Depots.aspx"}},"type":"Feature"},
	{"geometry":{"coordinates":[-114.085088,51.076608],"type":"Point"},"properties":{"name":"Confederation Park Recycling Depot","osm_id":"299636565","tag":{"amenity":"recycling"}},"type":"Feature"},
	{"geometry":{"coordinates":[-114.144395,51.080815],"type":"Point"},"properties":{"name":"Varsity Depot","osm_id":"1210712103","tag":{"amenity":"recycling"}},"type":"Feature"},
	{"geometry":{"coordinates":[-114.10024,51.090446],"type":"Point"},"properties":{"osm_id":"1924400078","tag":{"amenity":"waste_basket"}},"type":"Feature"},
	{"geometry":{"coordinates":[-114.095562,51.088967],"type":"Point"},"properties":{"osm_id":"1924400084","tag":{"amenity":"waste_basket"}},"type":"Feature"},
	{"geometry":{"coordinates":[-114.105804,51.091795],"type":"Point"},"properties":{"osm_id":"1924400621","tag":{"amenity":"waste_basket"}},"type":"Feature"},
	{"geometry":{"coordinates":[-114.082736,51.098092],"type":"Point"},"properties":{"osm_id":"2872867409","tag":{"amenity":"waste_basket"}},"type":"Feature"},
	{"geometry":{"coordinates":[-114.117939,51.110626],"type":"Point"},"properties":{"name":"Garbage","osm_id":"4073708520","tag":{"amenity":"waste_basket"}},"type":"Feature"},
	{"geometry":{"coordinates":[-114.126257,51.116305],"type":"Point"},"properties":{"name":"Garbage","osm_id":"4073729789","tag":{"amenity":"waste_basket"}},"type":"Feature"},
	{"geometry":{"coordinates":[-114.132894,51.105684],"type":"Point"},"properties":{"osm_id":"4200310095","tag":{"amenity":"waste_basket"}},"type":"Feature"},
	{"geometry":{"coordinates":[-114.169174,51.085753],"type":"Point"},"properties":{"osm_id":"4219289895","tag":{"amenity":"waste_basket"}},"type":"Feature"},
	{"geometry":{"coordinates":[-114.16551,51.087346],"type":"Point"},"properties":{"osm_id":"4253841725","tag":{"amenity":"waste_basket"}},"type":"Feature"},
	{"geometry":{"coordinates":[-114.164457,51.088032],"type":"Point"},"properties":{"osm_id":"4253841726","tag":{"amenity":"waste_basket"}},"type":"Feature"},
	{"geometry":{"coordinates":[-114.167274,51.088471],"type":"Point"},"properties":{"osm_id":"4253841731","tag":{"amenity":"waste_basket"}},"type":"Feature"},
	{"geometry":{"coordinates":[-114.167321,51.088728],"type":"Point"},"properties":{"osm_id":"4253841734","tag":{"amenity":"waste_basket"}},"type":"Feature"},
	{"geometry":{"coordinates":[-114.164617,51.089302],"type":"Point"},"properties":{"osm_id":"4253841747","tag":{"amenity":"waste_basket"}},"type":"Feature"},
	{"geometry":{"coordinates":[-114.158642,51.088831],"type":"Point"},"properties":{"osm_id":"4303110691","tag":{"amenity":"waste_basket"}},"type":"Feature"},
	{"geometry":{"coordinates":[-114.094652,51.103448],"type":"Point"},"properties":{"osm_id":"4320499525","tag":{"amenity":"waste_basket"}},"type":"Feature"},
	{"geometry":{"coordinates":[-114.097182,51.080193],"type":"Point"},"properties":{"osm_id":"4396377605","tag":{"amenity":"waste_basket"}},"type":"Feature"},
	{"geometry":{"coordinates":[-114.167734,51.0711],"type":"Point"},"properties":{"osm_id":"4408485288","tag":{"amenity":"waste_basket"}},"type":"Feature"},
	{"geometry":{"coordinates":[-114.112493,51.080327],"type":"Point"},"properties":{"osm_id":"4427871945","tag":{"amenity":"waste_basket"}},"type":"Feature"},
	{"geometry":{"coordinates":[-114.110385,51.0813],"type":"Point"},"properties":{"osm_id":"4427871952","tag":{"amenity":"waste_basket"}},"type":"Feature"},
	{"geometry":{"coordinates":[-114.109762,51.081381],"type":"Point"},"properties":{"osm_id":"4427871953","tag":{"amenity":"waste_basket"}},"type":"Feature"},
	{"geometry":{"coordinates":[-114.115254,51.081562],"type":"Point"},"properties":{"osm_id":"4427871977","tag":{"amenity":"waste_basket"}},"type":"Feature"},
	{"geometry":{"coordinates":[-114.160021,51.096083],"type":"Point"},"properties":{"osm_id":"4740323291","tag":{"amenity":"waste_basket"}},"type":"Feature"},
	{"geometry":{"coordinates":[-114.083153,51.081658],"type":"Point"},"properties":{"osm_id":"4785142206","tag":{"amenity":"waste_basket"}},"type":"Feature"},
	{"geometry":{"coordinates":[-114.085689,51.081684],"type":"Point"},"properties":{"osm_id":"4785142209","tag":{"amenity":"waste_basket"}},"type":"Feature"},
	{"geometry":{"coordinates":[-114.166116,51.070364],"type":"Point"},"properties":{"osm_id":"4837869377","tag":{"amenity":"recycling","recycling_type":"container"}},"type":"Feature"},
	{"geometry":{"coordinates":[-114.166075,51.070365],"type":"Point"},"properties":{"osm_id":"4837869378","tag":{"amenity":"waste_basket"}},"type":"Feature"},
	{"geometry":{"coordinates":[-114.168861,51.072777],"type":"Point"},"properties":{"osm_id":"4837869381","tag":{"amenity":"recycling","recycling_type":"container"}},"type":"Feature"},
	{"geometry":{"coordinates":[-114.168758,51.07272],"type":"Point"},"properties":{"osm_id":"4837869382","tag":{"amenity":"waste_basket"}},"type":"Feature"},
	{"geometry":{"coordinates":[-114.168985,51.071676],"type":"Point"},"properties":{"osm_id":"4837869384","tag":{"amenity":"waste_basket"}},"type":"Feature"},
	{"geometry":{"coordinates":[-114.168184,51.071858],"type":"Point"},"properties":{"osm_id":"4837869392","tag":{"amenity":"waste_basket"}},"type":"Feature"},
	{"geometry":{"coordinates":[-114.168483,51.072092],"type":"Point"},"properties":{"osm_id":"4837869393","tag":{"amenity":"waste_basket"}},"type":"Feature"},
	{"geometry":{"coordinates":[-114.156867,51.079256],"type":"Point"},"properties":{"osm_id":"5491751899","tag":{"amenity":"waste_basket","collection_times":"Unknown","description":"medium sized, metal, fulling latching waste basket"}},"type":"Feature"},
	{"geometry":{"coordinates":[-114.126518,51.104017],"type":"Point"},"properties":{"osm_id":"6239143072","tag":{"amenity":"recycling","recycling:glass_bottles":"yes","recycling:plastic_bottles":"yes","recycling_type":"container"}},"type":"Feature"},
	{"geometry":{"coordinates":[-114.126244,51.103798],"type":"Point"},"properties":{"osm_id":"6239143073","tag":{"amenity":"waste_basket"}},"type":"Feature"},
	{"geometry":{"coordinates":[-114.123958,51.100678],"type":"Point"},"properties":{"osm_id":"6239143074","tag":{"amenity":"waste_basket"}},"type":"Feature"},
	{"geometry":{"coordinates":[-114.128302,51.10259],"type":"Point"},"properties":{"osm_id":"6239143075","tag":{"amenity":"waste_basket"}},"type":"Feature"},
	{"geometry":{"coordinates":[-114.1279,51.10243],"type":"Point"},"properties":{"osm_id":"6239143076","tag":{"amenity":"waste_basket","waste":"trash"}},"type":"Feature"},
	{"geometry":{"coordinates":[-114.136138,51.099068],"type":"Point"},"properties":{"osm_id":"6352988627","tag":{"amenity":"waste_basket","waste":"dog_excrement"}},"type":"Feature"},
	{"geometry":{"coordinates":[-114.168653,51.069424],"type":"Point"},"properties":{"osm_id":"6373424122","tag":{"amenity":"waste_basket"}},"type":"Feature"},
	{"geometry":{"coordinates":[-114.148233,51.080807],"type":"Point"},"properties":{"osm_id":"6699406044","tag":{"amenity":"recycling","recycling_type":"container"}},"type":"Feature"},
	{"geometry":{"coordinates":[-114.148222,51.080786],"type":"Point"},"properties":{"osm_id":"6699406045","tag":{"amenity":"waste_basket"}},"type":"Feature"},
	{"geometry":{"coordinates":[-114.164063,51.105635],"type":"Point"},"properties":{"osm_id":"8189473526","tag":{"access":"private","amenity":"waste_disposal","waste":"trash"}},"type":"Feature"},
	{"geometry":{"coordinates":[-114.163201,51.105082],"type":"Point"},"properties":{"osm_id":"8189473527","tag":{"access":"private","amenity":"waste_disposal","waste":"trash"}},"type":"Feature"},
	{"geometry":{"coordinates":[-114.161553,51.104379],"type":"Point"},"properties":{"osm_id":"8189473528","tag":{"access":"private","amenity":"waste_disposal","waste":"trash"}},"type":"Feature"},
	{"geometry":{"coordinates":[-114.16271,51.104865],"type":"Point"},"properties":{"osm_id":"8189473529","tag":{"access":"private","amenity":"waste_disposal","waste":"trash"}},"type":"Feature"},
	{"geometry":{"coordinates":[-114.162789,51.104904],"type":"Point"},"properties":{"osm_id":"8189473530","tag":{"amenity":"recycling","opening_hours":"24/7","operator":"Diabetes Canada","recycling:clothes":"yes","recycling:shoes":"yes","recycling_type":"container"}},"type":"Feature"},
	{"geometry":{"coordinates":[-114.126839,51.118617],"type":"Point"},"properties":{"osm_id":"8662819705","tag":{"amenity":"waste_basket","waste":"trash"}},"type":"Feature"},
	{"geometry":{"coordinates":[-114.084445,51.116412],"type":"Point"},"properties":{"osm_id":"8713491053","tag":{"amenity":"waste_basket","waste":"trash"}},"type":"Feature"},
	{"geometry":{"coordinates":[-114.084402,51.108835],"type":"Point"},"properties":{"osm_id":"9203152826","tag":{"amenity":"waste_basket"}},"type":"Feature"},
	{"geometry":{"coordinates":[-114.084694,51.108877],"type":"Point"},"properties":{"osm_id":"9203152827","tag":{"amenity":"waste_basket"}},"type":"Feature"}
]
}
