{
"type": "FeatureCollection",
"features": [
	{"geometry":{"coordinates":[-114.098554,51.025691],"type":"Point"},"properties":{"osm_id":"266329524","tag":{"amenity":"recycling","recycling_type":"container"}},"type":"Feature"},
	{"geometry":{"coordinates":[-114.091982,51.057665],"type":"Point"},"properties":{"osm_id":"885735777","tag":{"amenity":"recycling"}},"type":"Feature"},
	{"geometry":{"coordinates":[-114.16252,51.025429],"type":"Point"},"properties":{"osm_id":"2312053654","tag":{"amenity":"waste_basket"}},"type":"Feature"},
	{"geometry":{"coordinates":[-114.09551,51.065255],"type":"Point"},"properties":{"osm_id":"2705045703","tag":{"amenity":"recycling"}},"type":"Feature"},
	{"geometry":{"coordinates":[-114.156329,51.066673],"type":"Point"},"properties":{"osm_id":"4408493294","tag":{"amenity":"waste_basket"}},"type":"Feature"},
	{"geometry":{"coordinates":[-114.154871,51.063871],"type":"Point"},"properties":{"osm_id":"4408493296","tag":{"amenity":"waste_basket"}},"type":"Feature"},
	{"geometry":{"coordinates":[-114.15461,51.063197],"type":"Point"},"properties":{"osm_id":"4408493297","tag":{"amenity":"waste_basket"}},"type":"Feature"},
	{"geometry":{"coordinates":[-114.155784,51.062149],"type":"Point"},"properties":{"osm_id":"4408501906","tag":{"amenity":"waste_basket"}},"type":"Feature"},
	{"geometry":{"coordinates":[-114.11745,51.046829],"type":"Point"},"properties":{"osm_id":"4408890106","tag":{"amenity":"waste_basket"}},"type":"Feature"},
	{"geometry":{"coordinates":[-114.092814,51.047472],"type":"Point"},"properties":{"osm_id":"4408895801","tag":{"amenity":"waste_basket"}},"type":"Feature"},
	{"geometry":{"coordinates":[-114.088912,51.048807],"type":"Point"},"properties":{"osm_id":"4408895805","tag":{"amenity":"waste_basket"}},"type":"Feature"},
	{"geometry":{"coordinates":[-114.164821,51.030932],"type":"Point"},"properties":{"osm_id":"4476880891","tag":{"amenity":"waste_basket"}},"type":"Feature"},
	{"geometry":{"coordinates":[-114.083857,51.046224],"type":"Point"},"properties":{"osm_id":"4868692613","tag":{"amenity":"waste_basket"}},"type":"Feature"},
	{"geometry":{"coordinates":[-114.088877,51.045524],"type":"Point"},"properties":{"osm_id":"4877266074","tag":{"amenity":"waste_basket"}},"type":"Feature"},
	{"geometry":{"coordinates":[-114.0884,51.046336],"type":"Point"},"properties":{"osm_id":"4877266075","tag":{"amenity":"waste_basket"}},"type":"Feature"},
	{"geometry":{"coordinates":[-114.086347,51.046318],"type":"Point"},"properties":{"osm_id":"4877266079","tag":{"amenity":"waste_basket"}},"type":"Feature"},
	{"geometry":{"coordinates":[-114.098556,51.025668],"type":"Point"},"properties":{"osm_id":"4983802828","tag":{"amenity":"recycling","recycling_type":"container"}},"type":"Feature"},
	{"geometry":{"coordinates":[-114.098558,51.025644],"type":"Point"},"properties":{"osm_id":"4983802829","tag":{"amenity":"recycling","recycling_type":"container"}},"type":"Feature"},
	{"geometry":{"coordinates":[-114.09856,51.025617],"type":"Point"},"properties":{"osm_id":"4983802830","tag":{"amenity":"recycling","recycling_type":"container"}},"type":"Feature"},
	{"geometry":{"coordinates":[-114.098559,51.02559],"type":"Point"},"properties":{"osm_id":"4983802831","tag":{"amenity":"recycling","recycling_type":"container"}},"type":"Feature"},
	{"geometry":{"coordinates":[-114.098559,51.025568],"type":"Point"},"properties":{"osm_id":"4983802832","tag":{"amenity":"recycling","recycling_type":"container"}},"type":"Feature"},
	{"geometry":{"coordinates":[-114.104316,51.033864],"type":"Point"},"properties":{"osm_id":"5045614921","tag":{"amenity":"waste_basket"}},"type":"Feature"},
	{"geometry":{"coordinates":[-114.12773,51.056847],"type":"Point"},"properties":{"osm_id":"5166710529","tag":{"amenity":"waste_basket"}},"type":"Feature"},
	{"geometry":{"coordinates":[-114.137122,51.056752],"type":"Point"},"properties":{"osm_id":"5231640761","tag":{"amenity":"waste_basket"}},"type":"Feature"},
	{"geometry":{"coordinates":[-114.139074,51.056767],"type":"Point"},"properties":{"osm_id":"5231650115","tag":{"amenity":"waste_basket"}},"type":"Feature"},
	{"geometry":{"coordinates":[-114.127045,51.014533],"type":"Point"},"properties":{"name":"Recycle-Logic Currie Barracks","osm_id":"5284580183","tag":{"amenity":"recycling","opening_hours":"10:00-16:00","operator":"Recycle-Logic Inc.","phone":"+1-888-678-2467","recycling:cds":"yes","recycling:electronics":"yes","recycling:mobile_phones":"yes","recycling:small_appliances":"yes","recycling:tv_monitor":"yes","recycling_type":"centre","website":"http://www.recycle-logic.com/"}},"type":"Feature"},
	{"geometry":{"coordinates":[-114.135742,51.048201],"type":"Point"},"properties":{"osm_id":"6047393992","tag":{"amenity":"recycling","recycling:cans":"yes","recycling:cardboard":"yes","recycling:glass":"yes","recycling:glass_bottles":"yes","recycling:newspaper":"yes","recycling:paper":"yes","recycling:plastic":"yes","recycling:plastic_bottles":"yes","recycling_type":"container"}},"type":"Feature"},
	{"geometry":{"coordinates":[-114.159964,51.020374],"type":"Point"},"properties":{"osm_id":"6075154166","tag":{"amenity":"waste_basket"}},"type":"Feature"},
	{"geometry":{"coordinates":[-114.09395,51.048837],"type":"Point"},"properties":{"osm_id":"6373424128","tag":{"amenity":"waste_basket"}},"type":"Feature"},
	{"geometry":{"coordinates":[-114.111317,51.048234],"type":"Point"},"properties":{"osm_id":"6373424132","tag":{"amenity":"waste_basket"}},"type":"Feature"},
	{"geometry":{"coordinates":[-114.125638,51.053909],"type":"Point"},"properties":{"osm_id":"6373424134","tag":{"amenity":"waste_basket"}},"type":"Feature"},
	{"geometry":{"coordinates":[-114.102401,51.040923],"type":"Point"},"properties":{"osm_id":"7256396789","tag":{"amenity":"waste_basket"}},"type":"Feature"},
	{"geometry":{"coordinates":[-114.094993,51.017143],"type":"Point"},"properties":{"osm_id":"7333646130","tag":{"amenity":"waste_basket","waste":"dog_excrement"}},"type":"Feature"}
]
}
