{
"type": "FeatureCollection",
"features": [
	{"geometry":{"coordinates":[20.330057,63.833883],"type":"Point"},"properties":{"osm_id":"281191945","tag":{"amenity":"recycling","recycling_type":"container"}},"type":"Feature"},
	{"geometry":{"coordinates":[20.325263,63.833474],"type":"Point"},"properties":{"osm_id":"4031256099","tag":{"amenity":"waste_basket"}},"type":"Feature"},
	{"geometry":{"coordinates":[20.348836,63.824997],"type":"Point"},"properties":{"osm_id":"4069849430","tag":{"amenity":"waste_basket"}},"type":"Feature"},
	{"geometry":{"coordinates":[20.348887,63.825241],"type":"Point"},"properties":{"osm_id":"4069849433","tag":{"amenity":"waste_basket"}},"type":"Feature"},
	{"geometry":{"coordinates":[20.349918,63.825733],"type":"Point"},"properties":{"osm_id":"4069849439","tag":{"amenity":"waste_basket"}},"type":"Feature"},
	{"geometry":{"coordinates":[20.307229,63.822256],"type":"Point"},"properties":{"osm_id":"4238497653","tag":{"amenity":"waste_basket","operator":"Akademiska Hus"}},"type":"Feature"},
	{"geometry":{"coordinates":[20.326647,63.840656],"type":"Point"},"properties":{"osm_id":"4360283000","tag":{"amenity":"waste_basket","waste_basket":"dog_excrement"}},"type":"Feature"},
	{"geometry":{"coordinates":[20.31687,63.839687],"type":"Point"},"properties":{"highway":"street_lamp","osm_id":"4471329225","tag":{"amenity":"waste_basket"}},"type":"Feature"},
	{"geometry":{"coordinates":[20.318434,63.839193],"type":"Point"},"properties":{"osm_id":"4512668016","tag":{"amenity":"waste_basket"}},"type":"Feature"},
	{"geometry":{"coordinates":[20.329962,63.831999],"type":"Point"},"properties":{"osm_id":"4514398399","tag":{"amenity":"recycling","entrance":"yes","recycling:cans":"yes","recycling_type":"centre"}},"type":"Feature"},
	{"geometry":{"coordinates":[20.33472,63.834574],"type":"Point"},"properties":{"highway":"street_lamp","osm_id":"4596454774","tag":{"amenity":"waste_basket","waste":"dog_excrement"}},"type":"Feature"},
	{"geometry":{"coordinates":[20.313738,63.852589],"type":"Point"},"properties":{"osm_id":"5063531552","tag":{"amenity":"waste_basket"}},"type":"Feature"},
	{"geometry":{"coordinates":[20.343137,63.856738],"type":"Point"},"properties":{"osm_id":"5796494796","tag":{"amenity":"waste_basket"}},"type":"Feature"},
	{"geometry":{"coordinates":[20.33052,63.836779],"type":"Point"},"properties":{"osm_id":"5804098702","tag":{"access":"residents","amenity":"recycling","indoor":"yes"}},"type":"Feature"},
	{"geometry":{"coordinates":[20.330553,63.836742],"type":"Point"},"properties":{"osm_id":"5804098703","tag":{"access":"yes","amenity":"recycling","operator":"Myrorna","recycling:clothes":"only"}},"type":"Feature"},
	{"geometry":{"coordinates":[20.330076,63.844612],"type":"Point"},"properties":{"osm_id":"5804099009","tag":{"amenity":"recycling","recycling_type":"container"}},"type":"Feature"},
	{"geometry":{"coordinates":[20.305812,63.852849],"type":"Point"},"properties":{"osm_id":"5804099012","tag":{"amenity":"waste_basket"}},"type":"Feature"},
	{"geometry":{"coordinates":[20.310769,63.852539],"type":"Point"},"properties":{"osm_id":"5873357381","tag":{"amenity":"waste_basket"}},"type":"Feature"},
	{"geometry":{"coordinates":[20.312514,63.852678],"type":"Point"},"properties":{"osm_id":"5873357384","tag":{"amenity":"waste_basket"}},"type":"Feature"},
	{"geometry":{"coordinates":[20.331354,63.83827],"type":"Point"},"properties":{"osm_id":"6137719356","tag":{"access":"private","amenity":"recycling","recycling_type":"container"}},"type":"Feature"},
	{"geometry":{"coordinates":[20.325502,63.83365],"type":"Point"},"properties":{"osm_id":"6487426207","tag":{"amenity":"waste_basket"}},"type":"Feature"},
	{"geometry":{"coordinates":[20.321552,63.852266],"type":"Point"},"properties":{"osm_id":"6586352790","tag":{"amenity":"waste_basket","waste":"dog_excrement"}},"type":"Feature"},
	{"geometry":{"coordinates":[20.328524,63.833398],"type":"Point"},"properties":{"osm_id":"6631929441","tag":{"amenity":"recycling","recycling:batteries":"yes","recycling:electrical_appliances":"yes","recycling_type":"container"}},"type":"Feature"},
	{"geometry":{"coordinates":[20.329778,63.85323],"type":"Point"},"properties":{"osm_id":"6766887587","tag":{"amenity":"recycling","recycling:clothes":"only","recycling_type":"container"}},"type":"Feature"},
	{"geometry":{"coordinates":[20.329632,63.85313],"type":"Point"},"properties":{"osm_id":"6766887590","tag":{"access":"private","amenity":"recycling","indoor":"yes","operator":"Bostaden","recycling:batteries":"yes","recycling:cans":"yes","recycling:cardboard":"yes","recycling:glass":"yes","recycling:glass_bottles":"yes","recycling:paper":"yes","recycling:plastic":"yes","recycling:plastic_bottles":"yes","recycling:plastic_packaging":"yes","recycling:waste":"yes","recycling_type":"container","wheelchair":"limited"}},"type":"Feature"},
	{"geometry":{"coordinates":[20.331496,63.853526],"type":"Point"},"properties":{"osm_id":"6766887591","tag":{"access":"private","amenity":"recycling","indoor":"yes","operator":"Bostaden","recycling:batteries":"yes","recycling:cans":"yes","recycling:cardboard":"yes","recycling:glass":"yes","recycling:glass_bottles":"yes","recycling:paper":"yes","recycling:plastic":"yes","recycling:plastic_bottles":"yes","recycling:plastic_packaging":"yes","recycling:waste":"yes","recycling_type":"container","wheelchair":"limited"}},"type":"Feature"},
	{"geometry":{"coordinates":[20.333342,63.857215],"type":"Point"},"properties":{"osm_id":"6926113074","tag":{"amenity":"recycling","recycling:cardboard":"yes","recycling:clothes":"yes","recycling:paper":"yes","recycling:paper_packaging":"yes","recycling:plastic":"yes","recycling_type":"container"}},"type":"Feature"},
	{"geometry":{"coordinates":[20.309165,63.840935],"type":"Point"},"properties":{"osm_id":"7128069275","tag":{"amenity":"waste_basket","colour":"grey","material":"metal","operator":"Ume\u00c3\u00a5 fritid","waste":"trash"}},"type":"Feature"},
	{"geometry":{"coordinates":[20.309388,63.840962],"type":"Point"},"properties":{"osm_id":"7128069276","tag":{"amenity":"waste_basket","colour":"grey","material":"metal","operator":"Ume\u00c3\u00a5 fritid","waste":"trash"}},"type":"Feature"},
	{"geometry":{"coordinates":[20.30429,63.825801],"type":"Point"},"properties":{"osm_id":"7422280791","tag":{"amenity":"waste_basket","waste":"disposable_grill"}},"type":"Feature"},
	{"geometry":{"coordinates":[20.329251,63.834461],"type":"Point"},"properties":{"osm_id":"7707606293","tag":{"amenity":"waste_basket"}},"type":"Feature"},
	{"geometry":{"coordinates":[20.327303,63.8337],"type":"Point"},"properties":{"osm_id":"7707638243","tag":{"amenity":"waste_basket"}},"type":"Feature"},
	{"geometry":{"coordinates":[20.327445,63.833792],"type":"Point"},"properties":{"osm_id":"7707638249","tag":{"amenity":"waste_basket"}},"type":"Feature"},
	{"geometry":{"coordinates":[20.327461,63.833792],"type":"Point"},"properties":{"osm_id":"7707638250","tag":{"amenity":"waste_basket"}},"type":"Feature"},
	{"geometry":{"coordinates":[20.32761,63.833701],"type":"Point"},"properties":{"osm_id":"7707638254","tag":{"amenity":"waste_basket"}},"type":"Feature"},
	{"geometry":{"coordinates":[20.328752,63.841413],"type":"Point"},"properties":{"osm_id":"7813014803","tag":{"amenity":"waste_basket"}},"type":"Feature"},
	{"geometry":{"coordinates":[20.331864,63.841473],"type":"Point"},"properties":{"osm_id":"7828902011","tag":{"amenity":"waste_basket","colour":"black"}},"type":"Feature"}
]
}
