{
"type": "FeatureCollection",
"features": [
	{"geometry":{"coordinates":[20.321373,63.817103],"type":"Point"},"properties":{"osm_id":"282063768","tag":{"amenity":"recycling","location":"overground","recycling_type":"container"}},"type":"Feature"},
	{"geometry":{"coordinates":[20.314142,63.813592],"type":"Point"},"properties":{"osm_id":"311803875","tag":{"access":"private","amenity":"recycling","dumpster_diving":"yes","dumpster_diving:locked":"combination","recycling:glass":"no","recycling:organic":"yes","recycling:waste":"yes","recycling_type":"container"}},"type":"Feature"},
	{"geometry":{"coordinates":[20.329043,63.810991],"type":"Point"},"properties":{"osm_id":"620103460","tag":{"amenity":"recycling","recycling:cardboard":"yes","recycling:plastic":"yes","recycling:plastic_packaging":"yes","recycling_type":"container"}},"type":"Feature"},
	{"geometry":{"coordinates":[20.308236,63.791897],"type":"Point"},"properties":{"barrier":"gate","osm_id":"2354113412"},"type":"Feature"},
	{"geometry":{"coordinates":[20.307973,63.79216],"type":"Point"},"properties":{"barrier":"gate","osm_id":"2354113426"},"type":"Feature"},
	{"geometry":{"coordinates":[20.313732,63.813615],"type":"Point"},"properties":{"osm_id":"2406788277","tag":{"access":"yes","amenity":"recycling","recycling:clothes":"yes","recycling_type":"container"}},"type":"Feature"},
	{"geometry":{"coordinates":[20.308651,63.791453],"type":"Point"},"properties":{"barrier":"gate","osm_id":"3687024167"},"type":"Feature"},
	{"geometry":{"coordinates":[20.307985,63.808223],"type":"Point"},"properties":{"osm_id":"3693532186","tag":{"amenity":"waste_basket","waste":"dog_excrement"}},"type":"Feature"},
	{"geometry":{"coordinates":[20.307517,63.809303],"type":"Point"},"properties":{"osm_id":"3693532187","tag":{"amenity":"waste_basket"}},"type":"Feature"},
	{"geometry":{"coordinates":[20.307037,63.802975],"type":"Point"},"properties":{"osm_id":"3700271154","tag":{"amenity":"waste_basket","waste":"dog_excrement"}},"type":"Feature"},
	{"geometry":{"coordinates":[20.311775,63.810929],"type":"Point"},"properties":{"osm_id":"3702896578","tag":{"amenity":"waste_basket"}},"type":"Feature"},
	{"geometry":{"coordinates":[20.312327,63.81137],"type":"Point"},"properties":{"osm_id":"3702903931","tag":{"amenity":"waste_basket"}},"type":"Feature"},
	{"geometry":{"coordinates":[20.31391,63.811635],"type":"Point"},"properties":{"osm_id":"3702903942","tag":{"amenity":"waste_basket"}},"type":"Feature"},
	{"geometry":{"coordinates":[20.314579,63.81171],"type":"Point"},"properties":{"osm_id":"3702903952","tag":{"amenity":"waste_basket"}},"type":"Feature"},
	{"geometry":{"coordinates":[20.302895,63.796865],"type":"Point"},"properties":{"osm_id":"3745424735","tag":{"amenity":"recycling","indoor":"yes","operator":"ICA Maxi","recycling:cans":"yes","recycling_type":"centre"}},"type":"Feature"},
	{"geometry":{"coordinates":[20.308029,63.811669],"type":"Point"},"properties":{"highway":"street_lamp","osm_id":"3916377178","tag":{"amenity":"waste_basket"}},"type":"Feature"},
	{"geometry":{"coordinates":[20.314628,63.807643],"type":"Point"},"properties":{"osm_id":"4017211403","tag":{"entrance":"yes"}},"type":"Feature"},
	{"geometry":{"coordinates":[20.314682,63.807651],"type":"Point"},"properties":{"osm_id":"4017211404","tag":{"entrance":"service"}},"type":"Feature"},
	{"geometry":{"coordinates":[20.35096,63.807005],"type":"Point"},"properties":{"osm_id":"4086451437","tag":{"amenity":"waste_basket"}},"type":"Feature"},
	{"geometry":{"coordinates":[20.320194,63.801269],"type":"Point"},"properties":{"osm_id":"4107836791","tag":{"amenity":"waste_basket","waste":"dog_excrement"}},"type":"Feature"},
	{"geometry":{"coordinates":[20.323013,63.801381],"type":"Point"},"properties":{"osm_id":"4107837089","tag":{"amenity":"waste_basket","waste":"dog_excrement"}},"type":"Feature"},
	{"geometry":{"coordinates":[20.305261,63.819878],"type":"Point"},"properties":{"osm_id":"4123035145","tag":{"amenity":"waste_basket"}},"type":"Feature"},
	{"geometry":{"coordinates":[20.326199,63.809554],"type":"Point"},"properties":{"osm_id":"4131443447","tag":{"amenity":"waste_basket","waste":"dog_excrement"}},"type":"Feature"},
	{"geometry":{"coordinates":[20.389964,63.810932],"type":"Point"},"properties":{"osm_id":"4159223111","tag":{"amenity":"recycling","recycling:cans":"yes","recycling:cardboard":"yes","recycling:glass_bottles":"yes","recycling:paper":"yes","recycling:plastic":"yes","recycling_type":"container"}},"type":"Feature"},
	{"geometry":{"coordinates":[20.322853,63.809226],"type":"Point"},"properties":{"osm_id":"4174188132","tag":{"amenity":"waste_basket"}},"type":"Feature"},
	{"geometry":{"coordinates":[20.322463,63.809292],"type":"Point"},"properties":{"osm_id":"4174188135","tag":{"amenity":"waste_basket","waste":"ash"}},"type":"Feature"},
	{"geometry":{"coordinates":[20.323363,63.809108],"type":"Point"},"properties":{"osm_id":"4174188140","tag":{"amenity":"waste_basket"}},"type":"Feature"},
	{"geometry":{"coordinates":[20.322478,63.808635],"type":"Point"},"properties":{"osm_id":"4174275369","tag":{"amenity":"waste_basket","waste":"ash"}},"type":"Feature"},
	{"geometry":{"coordinates":[20.327348,63.790622],"type":"Point"},"properties":{"osm_id":"4181513606","tag":{"amenity":"waste_basket"}},"type":"Feature"},
	{"geometry":{"coordinates":[20.311209,63.801869],"type":"Point"},"properties":{"osm_id":"4184362103","tag":{"amenity":"waste_basket"}},"type":"Feature"},
	{"geometry":{"coordinates":[20.314165,63.800804],"type":"Point"},"properties":{"osm_id":"4190222700","tag":{"amenity":"waste_basket"}},"type":"Feature"},
	{"geometry":{"coordinates":[20.309224,63.820758],"type":"Point"},"properties":{"osm_id":"4238497084","tag":{"amenity":"waste_basket"}},"type":"Feature"},
	{"geometry":{"coordinates":[20.311129,63.820681],"type":"Point"},"properties":{"osm_id":"4238497654","tag":{"amenity":"waste_basket"}},"type":"Feature"},
	{"geometry":{"coordinates":[20.308792,63.791714],"type":"Point"},"properties":{"osm_id":"4246877681","tag":{"amenity":"recycling","recycling:electrical_appliances":"yes","recycling_type":"container"}},"type":"Feature"},
	{"geometry":{"coordinates":[20.316862,63.804741],"type":"Point"},"properties":{"osm_id":"4264953092","tag":{"amenity":"waste_basket","waste":"dog_excrement"}},"type":"Feature"},
	{"geometry":{"coordinates":[20.306187,63.820604],"type":"Point"},"properties":{"osm_id":"4272208464","tag":{"amenity":"waste_basket","brand":"Bigbelly","operator":"Akademiska Hus"}},"type":"Feature"},
	{"geometry":{"coordinates":[20.318892,63.803898],"type":"Point"},"properties":{"osm_id":"4329385881","tag":{"amenity":"waste_basket"}},"type":"Feature"},
	{"geometry":{"coordinates":[20.321718,63.802621],"type":"Point"},"properties":{"osm_id":"4329394445","tag":{"access":"residents","amenity":"recycling","recycling_type":"container"}},"type":"Feature"},
	{"geometry":{"coordinates":[20.305428,63.821259],"type":"Point"},"properties":{"osm_id":"4379433519","tag":{"amenity":"waste_basket"}},"type":"Feature"},
	{"geometry":{"coordinates":[20.303255,63.820102],"type":"Point"},"properties":{"osm_id":"4449286011","tag":{"amenity":"waste_basket"}},"type":"Feature"},
	{"geometry":{"coordinates":[20.322365,63.809705],"type":"Point"},"properties":{"osm_id":"4548580790","tag":{"amenity":"waste_basket"}},"type":"Feature"},
	{"geometry":{"coordinates":[20.310272,63.808198],"type":"Point"},"properties":{"osm_id":"4624246063","tag":{"access":"residents","amenity":"recycling"}},"type":"Feature"},
	{"geometry":{"coordinates":[20.320133,63.800294],"type":"Point"},"properties":{"osm_id":"4708991179","tag":{"amenity":"waste_basket"}},"type":"Feature"},
	{"geometry":{"coordinates":[20.323016,63.801395],"type":"Point"},"properties":{"highway":"street_lamp","osm_id":"4708994227","tag":{"amenity":"waste_basket","waste":"dog_excrement"}},"type":"Feature"},
	{"geometry":{"coordinates":[20.356071,63.817848],"type":"Point"},"properties":{"osm_id":"4882170315","tag":{"amenity":"waste_basket"}},"type":"Feature"},
	{"geometry":{"coordinates":[20.308462,63.79673],"type":"Point"},"properties":{"osm_id":"4999667361","tag":{"amenity":"waste_basket","waste":"dog_excrement"}},"type":"Feature"},
	{"geometry":{"coordinates":[20.316255,63.798686],"type":"Point"},"properties":{"osm_id":"4999668240","tag":{"amenity":"recycling","recycling_type":"container"}},"type":"Feature"},
	{"geometry":{"coordinates":[20.375349,63.803598],"type":"Point"},"properties":{"osm_id":"5767556415","tag":{"amenity":"waste_basket"}},"type":"Feature"},
	{"geometry":{"coordinates":[20.332335,63.811494],"type":"Point"},"properties":{"osm_id":"6164443111","tag":{"access":"private","amenity":"recycling","dumpster_diving":"yes","dumpster_diving:locked":"no","recycling:glass":"no","recycling:organic":"yes","recycling:waste":"yes","recycling_type":"container"}},"type":"Feature"},
	{"geometry":{"coordinates":[20.309292,63.805099],"type":"Point"},"properties":{"osm_id":"6298986093","tag":{"amenity":"waste_basket","waste":"trash"}},"type":"Feature"}
]
}
