{
"type": "FeatureCollection",
"features": [
	{"geometry":{"coordinates":[21.997465,50.010865],"type":"Point"},"properties":{"osm_id":"1915224378","tag":{"amenity":"waste_basket"}},"type":"Feature"},
	{"geometry":{"coordinates":[22.001487,50.019389],"type":"Point"},"properties":{"osm_id":"1915224383","tag":{"amenity":"waste_basket"}},"type":"Feature"},
	{"geometry":{"coordinates":[21.998905,50.015752],"type":"Point"},"properties":{"osm_id":"1915224385","tag":{"amenity":"waste_basket"}},"type":"Feature"},
	{"geometry":{"coordinates":[21.995221,50.014235],"type":"Point"},"properties":{"osm_id":"1915224388","tag":{"amenity":"waste_basket"}},"type":"Feature"},
	{"geometry":{"coordinates":[21.997216,50.01151],"type":"Point"},"properties":{"osm_id":"1915224396","tag":{"amenity":"waste_basket"}},"type":"Feature"},
	{"geometry":{"coordinates":[21.989637,50.011027],"type":"Point"},"properties":{"osm_id":"1916927178","tag":{"amenity":"waste_basket"}},"type":"Feature"},
	{"geometry":{"coordinates":[21.994925,50.016364],"type":"Point"},"properties":{"osm_id":"1917296649","tag":{"amenity":"waste_basket"}},"type":"Feature"},
	{"geometry":{"coordinates":[21.98585,50.023479],"type":"Point"},"properties":{"osm_id":"1918634215","tag":{"amenity":"waste_basket"}},"type":"Feature"},
	{"geometry":{"coordinates":[21.988431,50.022156],"type":"Point"},"properties":{"osm_id":"1918650507","tag":{"amenity":"waste_basket"}},"type":"Feature"},
	{"geometry":{"coordinates":[22.003033,50.01972],"type":"Point"},"properties":{"osm_id":"1925968916","tag":{"amenity":"waste_basket"}},"type":"Feature"},
	{"geometry":{"coordinates":[22.000617,50.024642],"type":"Point"},"properties":{"osm_id":"1925971909","tag":{"amenity":"waste_basket"}},"type":"Feature"},
	{"geometry":{"coordinates":[22.008109,50.021232],"type":"Point"},"properties":{"osm_id":"2264558835","tag":{"amenity":"waste_basket"}},"type":"Feature"},
	{"geometry":{"coordinates":[22.003377,50.039726],"type":"Point"},"properties":{"osm_id":"2934829075","tag":{"amenity":"waste_disposal"}},"type":"Feature"},
	{"geometry":{"coordinates":[22.004002,50.039728],"type":"Point"},"properties":{"osm_id":"2934829076","tag":{"amenity":"waste_basket"}},"type":"Feature"},
	{"geometry":{"coordinates":[22.003737,50.039741],"type":"Point"},"properties":{"osm_id":"2934829082","tag":{"amenity":"waste_basket"}},"type":"Feature"},
	{"geometry":{"coordinates":[22.001564,50.038142],"type":"Point"},"properties":{"osm_id":"3007157894","tag":{"amenity":"waste_basket"}},"type":"Feature"},
	{"geometry":{"coordinates":[22.001234,50.038158],"type":"Point"},"properties":{"osm_id":"3007157895","tag":{"amenity":"waste_basket"}},"type":"Feature"},
	{"geometry":{"coordinates":[22.001267,50.038226],"type":"Point"},"properties":{"osm_id":"3007157899","tag":{"amenity":"waste_basket"}},"type":"Feature"},
	{"geometry":{"coordinates":[22.012662,50.033505],"type":"Point"},"properties":{"osm_id":"3020446512","tag":{"amenity":"waste_basket"}},"type":"Feature"},
	{"geometry":{"coordinates":[22.012932,50.033701],"type":"Point"},"properties":{"osm_id":"3020446529","tag":{"amenity":"waste_basket"}},"type":"Feature"},
	{"geometry":{"coordinates":[22.013166,50.033907],"type":"Point"},"properties":{"osm_id":"3020446648","tag":{"amenity":"waste_basket"}},"type":"Feature"},
	{"geometry":{"coordinates":[22.013279,50.034011],"type":"Point"},"properties":{"osm_id":"3020446658","tag":{"amenity":"waste_basket"}},"type":"Feature"},
	{"geometry":{"coordinates":[22.003788,50.034259],"type":"Point"},"properties":{"osm_id":"3044792901","tag":{"amenity":"waste_basket"}},"type":"Feature"},
	{"geometry":{"coordinates":[22.003742,50.034347],"type":"Point"},"properties":{"osm_id":"3044792910","tag":{"amenity":"waste_basket"}},"type":"Feature"},
	{"geometry":{"coordinates":[22.004079,50.034355],"type":"Point"},"properties":{"osm_id":"3044792911","tag":{"amenity":"waste_basket"}},"type":"Feature"},
	{"geometry":{"coordinates":[22.003532,50.035225],"type":"Point"},"properties":{"osm_id":"3044804351","tag":{"amenity":"waste_basket"}},"type":"Feature"},
	{"geometry":{"coordinates":[22.003673,50.035353],"type":"Point"},"properties":{"osm_id":"3044804363","tag":{"amenity":"waste_basket"}},"type":"Feature"},
	{"geometry":{"coordinates":[21.994181,50.01981],"type":"Point"},"properties":{"osm_id":"3048172817","tag":{"amenity":"waste_basket"}},"type":"Feature"},
	{"geometry":{"coordinates":[21.994144,50.019867],"type":"Point"},"properties":{"osm_id":"3048172826","tag":{"amenity":"waste_basket"}},"type":"Feature"},
	{"geometry":{"coordinates":[21.993934,50.019943],"type":"Point"},"properties":{"osm_id":"3048172840","tag":{"amenity":"waste_basket"}},"type":"Feature"},
	{"geometry":{"coordinates":[21.994024,50.019953],"type":"Point"},"properties":{"osm_id":"3048172843","tag":{"amenity":"waste_basket"}},"type":"Feature"},
	{"geometry":{"coordinates":[21.997614,50.00961],"type":"Point"},"properties":{"osm_id":"3060788104","tag":{"amenity":"waste_basket"}},"type":"Feature"},
	{"geometry":{"coordinates":[21.997642,50.009669],"type":"Point"},"properties":{"osm_id":"3060788106","tag":{"amenity":"waste_basket"}},"type":"Feature"},
	{"geometry":{"coordinates":[21.998015,50.038262],"type":"Point"},"properties":{"osm_id":"3079321057","tag":{"amenity":"waste_basket"}},"type":"Feature"},
	{"geometry":{"coordinates":[21.998062,50.038366],"type":"Point"},"properties":{"osm_id":"3079321080","tag":{"amenity":"waste_basket"}},"type":"Feature"},
	{"geometry":{"coordinates":[21.998165,50.038598],"type":"Point"},"properties":{"osm_id":"3079321107","tag":{"amenity":"waste_basket"}},"type":"Feature"},
	{"geometry":{"coordinates":[21.998217,50.038699],"type":"Point"},"properties":{"osm_id":"3079321123","tag":{"amenity":"waste_basket"}},"type":"Feature"},
	{"geometry":{"coordinates":[22.025629,50.062695],"type":"Point"},"properties":{"name":"Punkt Selektywnej Zbi\u00c3\u00b3rki Odpad\u00c3\u00b3w Komunalnych","osm_id":"3123286098","tag":{"amenity":"recycling","opening_hours":"Tu,Th,Sa 10:00-18:00","recycling_type":"centre","short_name":"PSZOK"}},"type":"Feature"},
	{"geometry":{"coordinates":[22.014329,50.035656],"type":"Point"},"properties":{"osm_id":"3188472789","tag":{"amenity":"waste_basket"}},"type":"Feature"},
	{"geometry":{"coordinates":[22.014404,50.035813],"type":"Point"},"properties":{"osm_id":"3188472809","tag":{"amenity":"waste_basket"}},"type":"Feature"},
	{"geometry":{"coordinates":[22.01447,50.035948],"type":"Point"},"properties":{"osm_id":"3188472823","tag":{"amenity":"waste_basket"}},"type":"Feature"},
	{"geometry":{"coordinates":[22.014548,50.036107],"type":"Point"},"properties":{"osm_id":"3188472829","tag":{"amenity":"waste_basket"}},"type":"Feature"},
	{"geometry":{"coordinates":[22.014635,50.036294],"type":"Point"},"properties":{"osm_id":"3188472833","tag":{"amenity":"waste_basket"}},"type":"Feature"},
	{"geometry":{"coordinates":[22.014689,50.036432],"type":"Point"},"properties":{"osm_id":"3188472853","tag":{"amenity":"waste_basket"}},"type":"Feature"},
	{"geometry":{"coordinates":[22.014761,50.036591],"type":"Point"},"properties":{"osm_id":"3188472871","tag":{"amenity":"waste_basket"}},"type":"Feature"},
	{"geometry":{"coordinates":[22.01483,50.036748],"type":"Point"},"properties":{"osm_id":"3188472883","tag":{"amenity":"waste_basket"}},"type":"Feature"},
	{"geometry":{"coordinates":[22.014959,50.03705],"type":"Point"},"properties":{"osm_id":"3188472894","tag":{"amenity":"waste_basket"}},"type":"Feature"},
	{"geometry":{"coordinates":[22.015022,50.037201],"type":"Point"},"properties":{"osm_id":"3188472897","tag":{"amenity":"waste_basket"}},"type":"Feature"},
	{"geometry":{"coordinates":[21.990328,50.008534],"type":"Point"},"properties":{"osm_id":"3216670214","tag":{"amenity":"waste_basket"}},"type":"Feature"},
	{"geometry":{"coordinates":[21.990644,50.008581],"type":"Point"},"properties":{"osm_id":"3216670216","tag":{"amenity":"waste_basket"}},"type":"Feature"},
	{"geometry":{"coordinates":[21.991305,50.008758],"type":"Point"},"properties":{"osm_id":"3216670219","tag":{"amenity":"waste_basket"}},"type":"Feature"},
	{"geometry":{"coordinates":[21.991331,50.008918],"type":"Point"},"properties":{"osm_id":"3216670224","tag":{"amenity":"waste_basket"}},"type":"Feature"},
	{"geometry":{"coordinates":[21.991849,50.009018],"type":"Point"},"properties":{"osm_id":"3216670229","tag":{"amenity":"waste_basket"}},"type":"Feature"},
	{"geometry":{"coordinates":[21.992424,50.009293],"type":"Point"},"properties":{"osm_id":"3216670234","tag":{"amenity":"waste_basket"}},"type":"Feature"},
	{"geometry":{"coordinates":[21.991708,50.009487],"type":"Point"},"properties":{"osm_id":"3216670237","tag":{"amenity":"waste_basket"}},"type":"Feature"},
	{"geometry":{"coordinates":[21.992086,50.009865],"type":"Point"},"properties":{"osm_id":"3216670241","tag":{"amenity":"waste_basket"}},"type":"Feature"},
	{"geometry":{"coordinates":[21.992798,50.010051],"type":"Point"},"properties":{"osm_id":"3216670244","tag":{"amenity":"waste_basket"}},"type":"Feature"},
	{"geometry":{"coordinates":[21.992763,50.010259],"type":"Point"},"properties":{"osm_id":"3216670247","tag":{"amenity":"waste_basket"}},"type":"Feature"},
	{"geometry":{"coordinates":[21.992062,50.010284],"type":"Point"},"properties":{"osm_id":"3216670248","tag":{"amenity":"waste_basket"}},"type":"Feature"},
	{"geometry":{"coordinates":[21.992694,50.010491],"type":"Point"},"properties":{"osm_id":"3216670251","tag":{"amenity":"waste_basket"}},"type":"Feature"},
	{"geometry":{"coordinates":[21.992563,50.010928],"type":"Point"},"properties":{"osm_id":"3216670255","tag":{"amenity":"waste_basket"}},"type":"Feature"},
	{"geometry":{"coordinates":[22.006715,50.063546],"type":"Point"},"properties":{"osm_id":"3359546244","tag":{"amenity":"recycling"}},"type":"Feature"},
	{"geometry":{"coordinates":[22.007349,50.063902],"type":"Point"},"properties":{"osm_id":"3359546245","tag":{"amenity":"recycling"}},"type":"Feature"},
	{"geometry":{"coordinates":[22.008674,50.06372],"type":"Point"},"properties":{"osm_id":"3359546246","tag":{"amenity":"recycling"}},"type":"Feature"},
	{"geometry":{"coordinates":[22.005486,50.063909],"type":"Point"},"properties":{"osm_id":"3359546247","tag":{"amenity":"recycling"}},"type":"Feature"},
	{"geometry":{"coordinates":[22.006946,50.063304],"type":"Point"},"properties":{"osm_id":"3359546248","tag":{"amenity":"recycling"}},"type":"Feature"},
	{"geometry":{"coordinates":[22.007773,50.064157],"type":"Point"},"properties":{"osm_id":"3361325383","tag":{"amenity":"recycling"}},"type":"Feature"},
	{"geometry":{"coordinates":[22.004443,50.035062],"type":"Point"},"properties":{"osm_id":"3440898244","tag":{"amenity":"waste_disposal"}},"type":"Feature"},
	{"geometry":{"coordinates":[21.979695,50.05867],"type":"Point"},"properties":{"osm_id":"3572027416","tag":{"amenity":"recycling","recycling:glass":"yes","recycling:paper":"yes"}},"type":"Feature"},
	{"geometry":{"coordinates":[21.980384,50.059703],"type":"Point"},"properties":{"osm_id":"3572030093","tag":{"amenity":"recycling","recycling:glass":"yes","recycling:paper":"yes"}},"type":"Feature"},
	{"geometry":{"coordinates":[21.997631,50.027539],"type":"Point"},"properties":{"osm_id":"3640303025","tag":{"amenity":"waste_basket"}},"type":"Feature"},
	{"geometry":{"coordinates":[22.009885,50.057488],"type":"Point"},"properties":{"osm_id":"3704398900","tag":{"amenity":"waste_basket"}},"type":"Feature"},
	{"geometry":{"coordinates":[22.009316,50.057523],"type":"Point"},"properties":{"osm_id":"4228945386","tag":{"amenity":"waste_basket"}},"type":"Feature"},
	{"geometry":{"coordinates":[22.010073,50.058449],"type":"Point"},"properties":{"osm_id":"4228945610","tag":{"amenity":"waste_basket"}},"type":"Feature"},
	{"geometry":{"coordinates":[21.997307,50.018254],"type":"Point"},"properties":{"osm_id":"4487330092","tag":{"amenity":"waste_basket"}},"type":"Feature"},
	{"geometry":{"coordinates":[21.997347,50.01835],"type":"Point"},"properties":{"osm_id":"4487330094","tag":{"amenity":"waste_basket"}},"type":"Feature"},
	{"geometry":{"coordinates":[21.997382,50.018469],"type":"Point"},"properties":{"osm_id":"4487343417","tag":{"amenity":"waste_basket"}},"type":"Feature"},
	{"geometry":{"coordinates":[21.997737,50.018789],"type":"Point"},"properties":{"osm_id":"4487343418","tag":{"amenity":"waste_basket"}},"type":"Feature"},
	{"geometry":{"coordinates":[21.997814,50.018902],"type":"Point"},"properties":{"osm_id":"4487343420","tag":{"amenity":"waste_basket"}},"type":"Feature"},
	{"geometry":{"coordinates":[21.997561,50.01874],"type":"Point"},"properties":{"osm_id":"4487343423","tag":{"amenity":"waste_basket"}},"type":"Feature"},
	{"geometry":{"coordinates":[21.997406,50.018627],"type":"Point"},"properties":{"osm_id":"4487343425","tag":{"amenity":"waste_basket"}},"type":"Feature"},
	{"geometry":{"coordinates":[21.997423,50.018719],"type":"Point"},"properties":{"osm_id":"4487343427","tag":{"amenity":"waste_basket"}},"type":"Feature"},
	{"geometry":{"coordinates":[21.997447,50.018812],"type":"Point"},"properties":{"osm_id":"4487343429","tag":{"amenity":"waste_basket"}},"type":"Feature"},
	{"geometry":{"coordinates":[21.997522,50.018926],"type":"Point"},"properties":{"osm_id":"4487343432","tag":{"amenity":"waste_basket"}},"type":"Feature"},
	{"geometry":{"coordinates":[21.997675,50.019037],"type":"Point"},"properties":{"osm_id":"4487343434","tag":{"amenity":"waste_basket"}},"type":"Feature"},
	{"geometry":{"coordinates":[21.997864,50.019124],"type":"Point"},"properties":{"osm_id":"4487343437","tag":{"amenity":"waste_basket"}},"type":"Feature"},
	{"geometry":{"coordinates":[21.998024,50.01924],"type":"Point"},"properties":{"osm_id":"4487343439","tag":{"amenity":"waste_basket"}},"type":"Feature"},
	{"geometry":{"coordinates":[21.998134,50.01937],"type":"Point"},"properties":{"osm_id":"4487343441","tag":{"amenity":"waste_basket"}},"type":"Feature"},
	{"geometry":{"coordinates":[21.98865,50.023786],"type":"Point"},"properties":{"osm_id":"4807664850","tag":{"amenity":"waste_disposal"}},"type":"Feature"},
	{"geometry":{"coordinates":[21.976447,50.012748],"type":"Point"},"properties":{"osm_id":"4860222710","tag":{"amenity":"recycling","recycling:glass":"yes","recycling:paper":"yes","recycling:plastic":"yes","recycling_type":"container"}},"type":"Feature"},
	{"geometry":{"coordinates":[21.97638,50.013307],"type":"Point"},"properties":{"osm_id":"4860222715","tag":{"amenity":"waste_disposal"}},"type":"Feature"},
	{"geometry":{"coordinates":[21.975508,50.013633],"type":"Point"},"properties":{"osm_id":"4860222716","tag":{"amenity":"recycling","recycling:glass_bottles":"yes","recycling_type":"container"}},"type":"Feature"},
	{"geometry":{"coordinates":[21.975234,50.013723],"type":"Point"},"properties":{"osm_id":"4860222717","tag":{"amenity":"recycling","recycling:clothes":"yes","recycling_type":"container"}},"type":"Feature"},
	{"geometry":{"coordinates":[21.976074,50.014441],"type":"Point"},"properties":{"osm_id":"4860222928","tag":{"amenity":"recycling","recycling_type":"container"}},"type":"Feature"},
	{"geometry":{"coordinates":[21.981937,50.023456],"type":"Point"},"properties":{"osm_id":"4916899059","tag":{"amenity":"waste_basket"}},"type":"Feature"},
	{"geometry":{"coordinates":[21.981957,50.023477],"type":"Point"},"properties":{"osm_id":"4916899060","tag":{"amenity":"waste_basket"}},"type":"Feature"},
	{"geometry":{"coordinates":[21.983018,50.01893],"type":"Point"},"properties":{"osm_id":"4917115357","tag":{"amenity":"waste_basket"}},"type":"Feature"},
	{"geometry":{"coordinates":[21.982964,50.018833],"type":"Point"},"properties":{"osm_id":"4917115358","tag":{"amenity":"waste_basket"}},"type":"Feature"},
	{"geometry":{"coordinates":[21.983117,50.018794],"type":"Point"},"properties":{"osm_id":"4917115359","tag":{"amenity":"waste_basket"}},"type":"Feature"},
	{"geometry":{"coordinates":[21.983175,50.018892],"type":"Point"},"properties":{"osm_id":"4917115360","tag":{"amenity":"waste_basket"}},"type":"Feature"},
	{"geometry":{"coordinates":[21.983658,50.018675],"type":"Point"},"properties":{"osm_id":"4917115369","tag":{"amenity":"waste_basket"}},"type":"Feature"},
	{"geometry":{"coordinates":[21.983714,50.018773],"type":"Point"},"properties":{"osm_id":"4917115370","tag":{"amenity":"waste_basket"}},"type":"Feature"},
	{"geometry":{"coordinates":[21.983864,50.018738],"type":"Point"},"properties":{"osm_id":"4917115371","tag":{"amenity":"waste_basket"}},"type":"Feature"},
	{"geometry":{"coordinates":[21.983817,50.018639],"type":"Point"},"properties":{"osm_id":"4917115372","tag":{"amenity":"waste_basket"}},"type":"Feature"},
	{"geometry":{"coordinates":[21.984555,50.018583],"type":"Point"},"properties":{"osm_id":"4917115381","tag":{"amenity":"waste_basket"}},"type":"Feature"},
	{"geometry":{"coordinates":[21.9845,50.018484],"type":"Point"},"properties":{"osm_id":"4917115382","tag":{"amenity":"waste_basket"}},"type":"Feature"},
	{"geometry":{"coordinates":[21.984343,50.018521],"type":"Point"},"properties":{"osm_id":"4917115383","tag":{"amenity":"waste_basket"}},"type":"Feature"},
	{"geometry":{"coordinates":[21.984397,50.018618],"type":"Point"},"properties":{"osm_id":"4917115384","tag":{"amenity":"waste_basket"}},"type":"Feature"},
	{"geometry":{"coordinates":[21.985026,50.018364],"type":"Point"},"properties":{"osm_id":"4917115393","tag":{"amenity":"waste_basket"}},"type":"Feature"},
	{"geometry":{"coordinates":[21.98508,50.018464],"type":"Point"},"properties":{"osm_id":"4917115394","tag":{"amenity":"waste_basket"}},"type":"Feature"},
	{"geometry":{"coordinates":[21.985246,50.018428],"type":"Point"},"properties":{"osm_id":"4917115395","tag":{"amenity":"waste_basket"}},"type":"Feature"},
	{"geometry":{"coordinates":[21.985188,50.018328],"type":"Point"},"properties":{"osm_id":"4917115396","tag":{"amenity":"waste_basket"}},"type":"Feature"},
	{"geometry":{"coordinates":[21.985912,50.018161],"type":"Point"},"properties":{"osm_id":"4917115405","tag":{"amenity":"waste_basket"}},"type":"Feature"},
	{"geometry":{"coordinates":[21.985967,50.01826],"type":"Point"},"properties":{"osm_id":"4917115406","tag":{"amenity":"waste_basket"}},"type":"Feature"},
	{"geometry":{"coordinates":[21.985789,50.0183],"type":"Point"},"properties":{"osm_id":"4917115407","tag":{"amenity":"waste_basket"}},"type":"Feature"},
	{"geometry":{"coordinates":[21.985737,50.018204],"type":"Point"},"properties":{"osm_id":"4917115408","tag":{"amenity":"waste_basket"}},"type":"Feature"},
	{"geometry":{"coordinates":[21.995556,50.033422],"type":"Point"},"properties":{"osm_id":"4917641908","tag":{"amenity":"waste_basket"}},"type":"Feature"},
	{"geometry":{"coordinates":[21.99345,50.034303],"type":"Point"},"properties":{"osm_id":"4917641914","tag":{"amenity":"waste_basket"}},"type":"Feature"},
	{"geometry":{"coordinates":[21.975221,50.013295],"type":"Point"},"properties":{"osm_id":"4952636407","tag":{"amenity":"recycling","recycling:glass_bottles":"yes","recycling:plastic_bottles":"yes","recycling_type":"container"}},"type":"Feature"},
	{"geometry":{"coordinates":[21.976382,50.015536],"type":"Point"},"properties":{"osm_id":"4952636411","tag":{"amenity":"waste_basket"}},"type":"Feature"},
	{"geometry":{"coordinates":[21.976096,50.013868],"type":"Point"},"properties":{"osm_id":"4959883783","tag":{"amenity":"waste_basket"}},"type":"Feature"},
	{"geometry":{"coordinates":[21.987319,50.028582],"type":"Point"},"properties":{"osm_id":"4968472276","tag":{"amenity":"waste_basket"}},"type":"Feature"},
	{"geometry":{"coordinates":[21.987654,50.028508],"type":"Point"},"properties":{"osm_id":"4968472278","tag":{"amenity":"waste_basket"}},"type":"Feature"},
	{"geometry":{"coordinates":[21.997176,50.011581],"type":"Point"},"properties":{"osm_id":"7373173735","tag":{"amenity":"waste_basket"}},"type":"Feature"},
	{"geometry":{"coordinates":[21.997182,50.01163],"type":"Point"},"properties":{"osm_id":"7373173736","tag":{"amenity":"waste_basket"}},"type":"Feature"},
	{"geometry":{"coordinates":[21.997195,50.011727],"type":"Point"},"properties":{"osm_id":"7373173737","tag":{"amenity":"waste_basket"}},"type":"Feature"},
	{"geometry":{"coordinates":[21.997532,50.011876],"type":"Point"},"properties":{"osm_id":"7373173738","tag":{"amenity":"waste_basket"}},"type":"Feature"},
	{"geometry":{"coordinates":[21.997542,50.011912],"type":"Point"},"properties":{"osm_id":"7373173739","tag":{"amenity":"waste_basket"}},"type":"Feature"},
	{"geometry":{"coordinates":[21.997551,50.011946],"type":"Point"},"properties":{"osm_id":"7373173740","tag":{"amenity":"waste_basket"}},"type":"Feature"},
	{"geometry":{"coordinates":[21.997557,50.011983],"type":"Point"},"properties":{"osm_id":"7373173741","tag":{"amenity":"waste_basket"}},"type":"Feature"},
	{"geometry":{"coordinates":[21.997577,50.012061],"type":"Point"},"properties":{"osm_id":"7373173742","tag":{"amenity":"waste_basket"}},"type":"Feature"},
	{"geometry":{"coordinates":[21.974156,50.040408],"type":"Point"},"properties":{"osm_id":"7807486271","tag":{"amenity":"waste_basket","waste":"trash"}},"type":"Feature"},
	{"geometry":{"coordinates":[21.978341,50.031602],"type":"Point"},"properties":{"osm_id":"7930377762","tag":{"amenity":"recycling","recycling:beverage_cartons":"yes","recycling:cans":"yes","recycling:cardboard":"yes","recycling:glass":"yes","recycling:glass_bottles":"yes","recycling:green_waste":"yes","recycling:newspaper":"yes","recycling:paper":"yes","recycling:plastic":"yes","recycling:plastic_bottles":"yes","recycling:plastic_packaging":"yes","recycling:waste":"yes","recycling_type":"container"}},"type":"Feature"},
	{"geometry":{"coordinates":[21.977214,50.032523],"type":"Point"},"properties":{"osm_id":"7930377766","tag":{"amenity":"waste_basket","waste":"trash"}},"type":"Feature"},
	{"geometry":{"coordinates":[21.977187,50.032457],"type":"Point"},"properties":{"osm_id":"7930377767","tag":{"amenity":"waste_basket","waste":"trash"}},"type":"Feature"}
]
}
