{
"type": "FeatureCollection",
"features": [
	{"geometry":{"coordinates":[145.705289,-16.827905],"type":"Point"},"properties":{"name":"Smithfield waste and recycling transfer station","osm_id":"2163735688","tag":{"amenity":"recycling","recycling_type":"centre"}},"type":"Feature"},
	{"geometry":{"coordinates":[145.639625,-16.818476],"type":"Point"},"properties":{"osm_id":"5961105137","tag":{"amenity":"waste_basket"}},"type":"Feature"},
	{"geometry":{"coordinates":[145.702797,-16.884807],"type":"Point"},"properties":{"osm_id":"6593149350","tag":{"amenity":"waste_basket","colour":"green","material":"plastic"}},"type":"Feature"},
	{"geometry":{"coordinates":[145.70351,-16.884502],"type":"Point"},"properties":{"osm_id":"6593149355","tag":{"amenity":"waste_basket","colour":"green","material":"plastic"}},"type":"Feature"},
	{"geometry":{"coordinates":[145.703641,-16.884447],"type":"Point"},"properties":{"osm_id":"6593149356","tag":{"amenity":"waste_basket","colour":"green","material":"plastic"}},"type":"Feature"},
	{"geometry":{"coordinates":[145.691492,-16.820974],"type":"Point"},"properties":{"name":"Containers For Change","osm_id":"8573750431","tag":{"amenity":"recycling"}},"type":"Feature"},
	{"geometry":{"coordinates":[145.689546,-16.820835],"type":"Point"},"properties":{"name":"Containers For Change","osm_id":"9063158097","tag":{"amenity":"recycling","opening_hours":"Mo-Fr 08:00-17:00; Sa, Su 09:00-13:00"}},"type":"Feature"}
]
}
