{
"type": "FeatureCollection",
"lastupdate": "2020-08-04T00:00:00Z",
"features": [
	{"geometry":{"coordinates":[-43.944006,-19.924239],"type":"Point"},"properties":{"osm_id":"324778598","tag":{"amenity":"recycling"}},"type":"Feature"},
	{"geometry":{"coordinates":[-43.944582,-19.925593],"type":"Point"},"properties":{"osm_id":"353133272","tag":{"amenity":"recycling"}},"type":"Feature"},
	{"geometry":{"coordinates":[-43.924516,-19.932307],"type":"Point"},"properties":{"osm_id":"894679904","tag":{"amenity":"recycling","recycling:glass_bottles":"yes"}},"type":"Feature"},
	{"geometry":{"coordinates":[-43.898818,-19.90527],"type":"Point"},"properties":{"name":"Centro Mineiro de Refer\u00c3\u00aancia em Res\u00c3\u00adduos","osm_id":"2425615808","tag":{"amenity":"recycling","recycling:glass":"yes","recycling:paper":"yes","recycling:plastic":"yes","recycling:scrap_metal":"yes","recycling_type":"centre","website":"http://www.cmrr.mg.gov.br/"}},"type":"Feature"},
	{"geometry":{"coordinates":[-43.936234,-19.925376],"type":"Point"},"properties":{"name":"Ponto de coleta de reciclaveis","osm_id":"3448021068","tag":{"addr:city":"Belo Horizonte","addr:street":"Avenida Jo\u00e3o Pinheiro","amenity":"recycling","operator":"Prefeitura de Belo Horizonte","recycling:cans":"yes","recycling:clothes":"no","recycling:glass":"yes","recycling:paper":"yes"}},"type":"Feature"}
]
}
