{
"type": "FeatureCollection",
"features": [
	{"geometry":{"coordinates":[-80.540151,43.468743],"type":"Point"},"properties":{"osm_id":"1863224810","tag":{"amenity":"waste_basket"}},"type":"Feature"},
	{"geometry":{"coordinates":[-80.543282,43.469281],"type":"Point"},"properties":{"osm_id":"1863238867","tag":{"amenity":"waste_basket"}},"type":"Feature"},
	{"geometry":{"coordinates":[-80.540615,43.469822],"type":"Point"},"properties":{"osm_id":"1863241513","tag":{"amenity":"waste_basket"}},"type":"Feature"},
	{"geometry":{"coordinates":[-80.544382,43.478375],"type":"Point"},"properties":{"osm_id":"1863268360","tag":{"amenity":"waste_basket","colour":"grey"}},"type":"Feature"},
	{"geometry":{"coordinates":[-80.543238,43.472726],"type":"Point"},"properties":{"osm_id":"1932758488","tag":{"amenity":"waste_basket","level":"0","level:ref":"1"}},"type":"Feature"},
	{"geometry":{"coordinates":[-80.543282,43.472713],"type":"Point"},"properties":{"osm_id":"1932758491","tag":{"amenity":"waste_basket","level":"0","level:ref":"1"}},"type":"Feature"},
	{"geometry":{"coordinates":[-80.543104,43.472765],"type":"Point"},"properties":{"osm_id":"1932758507","tag":{"amenity":"waste_basket"}},"type":"Feature"},
	{"geometry":{"coordinates":[-80.543177,43.472749],"type":"Point"},"properties":{"osm_id":"1932758529","tag":{"amenity":"waste_basket","level":"0","level:ref":"1"}},"type":"Feature"},
	{"geometry":{"coordinates":[-80.543215,43.472727],"type":"Point"},"properties":{"osm_id":"1932758561","tag":{"amenity":"waste_basket"}},"type":"Feature"},
	{"geometry":{"coordinates":[-80.545716,43.471601],"type":"Point"},"properties":{"osm_id":"1933039892","tag":{"amenity":"waste_basket"}},"type":"Feature"},
	{"geometry":{"coordinates":[-80.543563,43.471718],"type":"Point"},"properties":{"osm_id":"1941952837","tag":{"amenity":"waste_basket"}},"type":"Feature"},
	{"geometry":{"coordinates":[-80.538015,43.470308],"type":"Point"},"properties":{"osm_id":"1983404470","tag":{"amenity":"waste_basket","level":"2"}},"type":"Feature"},
	{"geometry":{"coordinates":[-80.539538,43.469401],"type":"Point"},"properties":{"osm_id":"1986093159","tag":{"amenity":"waste_basket"}},"type":"Feature"},
	{"geometry":{"coordinates":[-80.539788,43.469121],"type":"Point"},"properties":{"osm_id":"1986093165","tag":{"amenity":"waste_basket"}},"type":"Feature"},
	{"geometry":{"coordinates":[-80.585102,43.472056],"type":"Point"},"properties":{"osm_id":"1986093179","tag":{"amenity":"waste_basket"}},"type":"Feature"},
	{"geometry":{"coordinates":[-80.538775,43.468946],"type":"Point"},"properties":{"osm_id":"1986096793","tag":{"amenity":"waste_basket"}},"type":"Feature"},
	{"geometry":{"coordinates":[-80.541047,43.468913],"type":"Point"},"properties":{"osm_id":"1993238399","tag":{"amenity":"waste_basket"}},"type":"Feature"},
	{"geometry":{"coordinates":[-80.549081,43.478996],"type":"Point"},"properties":{"osm_id":"2041386274","tag":{"amenity":"waste_basket"}},"type":"Feature"},
	{"geometry":{"coordinates":[-80.549553,43.479224],"type":"Point"},"properties":{"osm_id":"2041386299","tag":{"amenity":"waste_basket"}},"type":"Feature"},
	{"geometry":{"coordinates":[-80.542222,43.47272],"type":"Point"},"properties":{"osm_id":"2883963097","tag":{"amenity":"recycling","level":"0","level:ref":"1","recycling:beverage_cartons":"yes","recycling:cans":"yes","recycling:cardboard":"yes","recycling:cartons":"yes","recycling:glass_bottles":"yes","recycling:paper":"yes","recycling:plastic":"yes","recycling:plastic_bags":"no","recycling:plastic_bottles":"yes","recycling:plastic_packaging":"yes","recycling_type":"container"}},"type":"Feature"},
	{"geometry":{"coordinates":[-80.528026,43.475311],"type":"Point"},"properties":{"osm_id":"3163088302","tag":{"amenity":"waste_basket"}},"type":"Feature"},
	{"geometry":{"coordinates":[-80.546314,43.485221],"type":"Point"},"properties":{"osm_id":"3163088357","tag":{"amenity":"waste_basket"}},"type":"Feature"},
	{"geometry":{"coordinates":[-80.517388,43.464393],"type":"Point"},"properties":{"osm_id":"4239480463","tag":{"amenity":"waste_basket","colour":"black","surface":"metal"}},"type":"Feature"},
	{"geometry":{"coordinates":[-80.526786,43.475254],"type":"Point"},"properties":{"osm_id":"4280717631","tag":{"amenity":"waste_basket","size":"large"}},"type":"Feature"},
	{"geometry":{"coordinates":[-80.526792,43.475274],"type":"Point"},"properties":{"osm_id":"4280717632","tag":{"amenity":"waste_basket","size":"large"}},"type":"Feature"},
	{"geometry":{"coordinates":[-80.526798,43.475297],"type":"Point"},"properties":{"osm_id":"4280717633","tag":{"amenity":"waste_basket","size":"large"}},"type":"Feature"},
	{"geometry":{"coordinates":[-80.563738,43.483648],"type":"Point"},"properties":{"osm_id":"6451039360","tag":{"amenity":"waste_basket"}},"type":"Feature"},
	{"geometry":{"coordinates":[-80.558379,43.476679],"type":"Point"},"properties":{"osm_id":"6451039361","tag":{"amenity":"waste_basket"}},"type":"Feature"},
	{"geometry":{"coordinates":[-80.552298,43.475761],"type":"Point"},"properties":{"osm_id":"6580428884","tag":{"amenity":"recycling"}},"type":"Feature"},
	{"geometry":{"coordinates":[-80.553349,43.475175],"type":"Point"},"properties":{"osm_id":"6580441952","tag":{"amenity":"waste_basket"}},"type":"Feature"},
	{"geometry":{"coordinates":[-80.553615,43.475271],"type":"Point"},"properties":{"osm_id":"6580441954","tag":{"amenity":"waste_basket"}},"type":"Feature"},
	{"geometry":{"coordinates":[-80.525924,43.498478],"type":"Point"},"properties":{"osm_id":"6762951594","tag":{"amenity":"waste_basket"}},"type":"Feature"},
	{"geometry":{"coordinates":[-80.526032,43.498581],"type":"Point"},"properties":{"osm_id":"6762951595","tag":{"amenity":"waste_basket"}},"type":"Feature"},
	{"geometry":{"coordinates":[-80.534439,43.465303],"type":"Point"},"properties":{"osm_id":"6770741680","tag":{"amenity":"waste_basket"}},"type":"Feature"},
	{"geometry":{"coordinates":[-80.522683,43.465929],"type":"Point"},"properties":{"osm_id":"6818436344","tag":{"amenity":"waste_basket","colour":"Black","material":"Metal","operator":"City of Waterloo"}},"type":"Feature"},
	{"geometry":{"coordinates":[-80.522456,43.465209],"type":"Point"},"properties":{"osm_id":"6818436345","tag":{"amenity":"waste_basket","colour":"Black","material":"Metal","operator":"City of Waterloo"}},"type":"Feature"},
	{"geometry":{"coordinates":[-80.522177,43.46414],"type":"Point"},"properties":{"osm_id":"6818457981","tag":{"amenity":"waste_basket","colour":"Black","material":"metal","operator":"City of Waterloo"}},"type":"Feature"},
	{"geometry":{"coordinates":[-80.522097,43.463821],"type":"Point"},"properties":{"osm_id":"6818457982","tag":{"amenity":"waste_basket","colour":"Black","material":"Metal","operator":"Cityof Waterloo"}},"type":"Feature"},
	{"geometry":{"coordinates":[-80.518943,43.465947],"type":"Point"},"properties":{"name":"Safe Sharps Disposal","osm_id":"6940315293","tag":{"amenity":"waste_basket","colour":"yellow","material":"steel","operator":"Region of Waterloo","phone":"+1-519-575-4400","waste":"sharps","website":"https://www.regionofwaterloo.ca/en/living-here/harm-reduction.aspx"}},"type":"Feature"},
	{"geometry":{"coordinates":[-80.542101,43.472745],"type":"Point"},"properties":{"osm_id":"7074161016","tag":{"amenity":"recycling","level":"0","level:ref":"1","recycling:batteries":"yes","recycling:mobile_phones":"yes","recycling:pens":"yes","recycling:printer_cartridges":"yes","recycling:small_electrical_appliances":"yes","recycling_type":"container"}},"type":"Feature"},
	{"geometry":{"coordinates":[-80.549261,43.458322],"type":"Point"},"properties":{"osm_id":"7093537023","tag":{"amenity":"waste_basket","colour":"gray"}},"type":"Feature"},
	{"geometry":{"coordinates":[-80.521258,43.465892],"type":"Point"},"properties":{"osm_id":"7344358842","tag":{"amenity":"waste_basket","colour":"black"}},"type":"Feature"},
	{"geometry":{"coordinates":[-80.515112,43.463766],"type":"Point"},"properties":{"osm_id":"7539317913","tag":{"amenity":"waste_basket"}},"type":"Feature"},
	{"geometry":{"coordinates":[-80.520583,43.462701],"type":"Point"},"properties":{"name":"Safe Sharps Disposal","osm_id":"7576536789","tag":{"amenity":"waste_basket","colour":"yellow","material":"steel","operator":"Region of Waterloo","phone":"+1-519-575-4400","waste":"sharps","website":"https://www.regionofwaterloo.ca/en/living-here/harm-reduction.aspx"}},"type":"Feature"},
	{"geometry":{"coordinates":[-80.541643,43.470234],"type":"Point"},"properties":{"osm_id":"7613131687","tag":{"amenity":"waste_basket"}},"type":"Feature"},
	{"geometry":{"coordinates":[-80.543288,43.471438],"type":"Point"},"properties":{"osm_id":"7613131714","tag":{"amenity":"waste_basket"}},"type":"Feature"},
	{"geometry":{"coordinates":[-80.543046,43.471164],"type":"Point"},"properties":{"osm_id":"7613131715","tag":{"amenity":"waste_basket"}},"type":"Feature"},
	{"geometry":{"coordinates":[-80.53013,43.475423],"type":"Point"},"properties":{"osm_id":"7751485180","tag":{"amenity":"waste_basket"}},"type":"Feature"},
	{"geometry":{"coordinates":[-80.530094,43.47545],"type":"Point"},"properties":{"osm_id":"7751485181","tag":{"amenity":"recycling","recycling_type":"container"}},"type":"Feature"},
	{"geometry":{"coordinates":[-80.542498,43.467995],"type":"Point"},"properties":{"osm_id":"7792913671","tag":{"amenity":"waste_basket"}},"type":"Feature"},
	{"geometry":{"coordinates":[-80.524534,43.462758],"type":"Point"},"properties":{"osm_id":"7808621523","tag":{"amenity":"waste_basket","colour":"grey","material":"steel","waste":"trash"}},"type":"Feature"}
]
}
