{
"type": "FeatureCollection",
"lastupdate": "2020-08-06T00:00:00Z",
"features": [
	{"geometry":{"coordinates":[-80.563083,43.435752],"type":"Point"},"properties":{"osm_id":"6751584375","tag":{"amenity":"waste_basket","operator":"The Boardwalk at Ira Needles Blvd"}},"type":"Feature"},
	{"geometry":{"coordinates":[-80.562458,43.435126],"type":"Point"},"properties":{"osm_id":"6751584377","tag":{"amenity":"waste_basket","operator":"The Boardwalk at Ira Needles Blvd"}},"type":"Feature"},
	{"geometry":{"coordinates":[-80.562184,43.434897],"type":"Point"},"properties":{"osm_id":"6751584379","tag":{"amenity":"waste_basket","operator":"The Boardwalk at Ira Needles Blvd"}},"type":"Feature"},
	{"geometry":{"coordinates":[-80.561906,43.434702],"type":"Point"},"properties":{"osm_id":"6751584381","tag":{"amenity":"waste_basket","operator":"The Boardwalk at Ira Needles Blvd"}},"type":"Feature"},
	{"geometry":{"coordinates":[-80.561692,43.434495],"type":"Point"},"properties":{"osm_id":"6751584383","tag":{"amenity":"waste_basket","operator":"The Boardwalk at Ira Needles Blvd"}},"type":"Feature"},
	{"geometry":{"coordinates":[-80.561406,43.43423],"type":"Point"},"properties":{"osm_id":"6751607885","tag":{"amenity":"waste_basket","operator":"The Boardwalk at Ira Needles Blvd"}},"type":"Feature"},
	{"geometry":{"coordinates":[-80.560912,43.433112],"type":"Point"},"properties":{"osm_id":"6751607887","tag":{"amenity":"waste_basket","operator":"The Boardwalk at Ira Needles Blvd"}},"type":"Feature"},
	{"geometry":{"coordinates":[-80.52181,43.43858],"type":"Point"},"properties":{"osm_id":"6760298537","tag":{"amenity":"waste_basket","covered":"yes","material":"concrete"}},"type":"Feature"}
]
}
