{
"type": "FeatureCollection",
"features": [
	{"geometry":{"coordinates":[15.212706,50.689432],"type":"Point"},"properties":{"osm_id":"2379378346","tag":{"amenity":"recycling","recycling:glass":"yes","recycling:paper":"yes"}},"type":"Feature"},
	{"geometry":{"coordinates":[15.281206,50.736174],"type":"Point"},"properties":{"osm_id":"2631767731","tag":{"amenity":"recycling","recycling:electrical_appliances":"yes","recycling:glass":"yes","recycling:paper":"yes","recycling:plastic":"yes","recycling_type":"container"}},"type":"Feature"},
	{"geometry":{"coordinates":[15.234548,50.694202],"type":"Point"},"properties":{"osm_id":"4359136953","tag":{"amenity":"recycling","recycling_type":"container"}},"type":"Feature"},
	{"geometry":{"coordinates":[15.23413,50.694286],"type":"Point"},"properties":{"osm_id":"4359136954","tag":{"amenity":"waste_disposal"}},"type":"Feature"},
	{"geometry":{"coordinates":[15.232051,50.686939],"type":"Point"},"properties":{"osm_id":"4909432122","tag":{"amenity":"recycling","recycling:glass":"yes","recycling:paper":"yes","recycling:plastic":"yes","recycling_type":"container"}},"type":"Feature"},
	{"geometry":{"coordinates":[15.239314,50.684366],"type":"Point"},"properties":{"osm_id":"5094182847","tag":{"amenity":"recycling","recycling:glass":"yes","recycling:paper":"yes","recycling:plastic":"yes","recycling_type":"container"}},"type":"Feature"},
	{"geometry":{"coordinates":[15.224407,50.685841],"type":"Point"},"properties":{"osm_id":"5094185596","tag":{"amenity":"recycling","recycling:glass":"yes","recycling:paper":"yes","recycling:plastic":"yes","recycling_type":"container"}},"type":"Feature"},
	{"geometry":{"coordinates":[15.273964,50.69612],"type":"Point"},"properties":{"osm_id":"8452432258","tag":{"amenity":"recycling","opening_hours":"24/7","opening_hours:covid19":"24/7","operator":"M\u00c4\u009bstys Z\u00c3\u00a1sada","recycling:glass_bottles":"yes","recycling:paper":"yes","recycling:plastic":"yes","recycling_type":"container"}},"type":"Feature"},
	{"geometry":{"coordinates":[15.270247,50.697477],"type":"Point"},"properties":{"osm_id":"8452466149","tag":{"amenity":"recycling","opening_hours":"24/7","opening_hours:covid19":"24/7","operator":"M\u00c4\u009bstys Z\u00c3\u00a1sada","recycling:glass":"yes","recycling:paper":"yes","recycling:plastic":"yes","recycling_type":"container"}},"type":"Feature"},
	{"geometry":{"coordinates":[15.274614,50.695608],"type":"Point"},"properties":{"osm_id":"8452503967","tag":{"amenity":"recycling","opening_hours":"24/7","opening_hours:covid19":"24/7","operator":"M\u00c4\u009bstys Z\u00c3\u00a1sada","recycling:clothes":"yes","recycling_type":"container"}},"type":"Feature"},
	{"geometry":{"coordinates":[15.267414,50.697389],"type":"Point"},"properties":{"osm_id":"8453052946","tag":{"amenity":"recycling","opening_hours":"24/7","opening_hours:covid19":"24/7","operator":"M\u00c4\u009bstys Z\u00c3\u00a1sada","recycling:glass":"yes","recycling:paper":"yes","recycling:plastic":"yes","recycling_type":"container"}},"type":"Feature"},
	{"geometry":{"coordinates":[15.264987,50.697127],"type":"Point"},"properties":{"osm_id":"8453066636","tag":{"amenity":"recycling","opening_hours":"24/7","opening_hours:covid19":"24/7","operator":"M\u00c4\u009bstys Z8sada","recycling:glass":"yes","recycling:paper":"yes","recycling:plastic":"yes","recycling_type":"container"}},"type":"Feature"},
	{"geometry":{"coordinates":[15.273061,50.693888],"type":"Point"},"properties":{"osm_id":"8453096993","tag":{"amenity":"recycling","opening_hours":"24/7","opening_hours:covid19":"24/7","operator":"M\u00c4\u009bstys Z\u00c3\u00a1sada","recycling:glass_bottles":"yes","recycling:paper":"yes","recycling:plastic":"yes","recycling_type":"container"}},"type":"Feature"},
	{"geometry":{"coordinates":[15.263764,50.698715],"type":"Point"},"properties":{"osm_id":"8454139927","tag":{"amenity":"recycling","opening_hours":"24/7","opening_hours:covid19":"24/7","operator":"M\u00c4\u009bstys Z\u00c3\u00a1sada","recycling:glass":"yes","recycling:paper":"yes","recycling:plastic":"yes","recycling_type":"container"}},"type":"Feature"},
	{"geometry":{"coordinates":[15.214571,50.725378],"type":"Point"},"properties":{"osm_id":"9032531767","tag":{"amenity":"recycling","recycling:beverage_cartons":"yes","recycling:clothes":"yes","recycling:glass":"yes","recycling:glass_bottles":"yes","recycling:green_waste":"yes","recycling:paper":"yes","recycling:paper_packaging":"yes","recycling:plastic":"yes","recycling:plastic_bottles":"yes","recycling:plastic_packaging":"yes","recycling_type":"container"}},"type":"Feature"}
]
}
