{
"type": "FeatureCollection",
"lastupdate": "2020-08-01T00:00:00Z",
"features": [
	{"geometry":{"coordinates":[15.287235,49.075867],"type":"Point"},"properties":{"osm_id":"1331318099","tag":{"amenity":"recycling"}},"type":"Feature"},
	{"geometry":{"coordinates":[15.287923,49.075769],"type":"Point"},"properties":{"osm_id":"1331318505","tag":{"amenity":"waste_basket"}},"type":"Feature"},
	{"geometry":{"coordinates":[15.292928,49.049947],"type":"Point"},"properties":{"osm_id":"1610993209","tag":{"amenity":"recycling","recycling:glass":"yes","recycling:plastic":"yes","recycling_type":"container"}},"type":"Feature"},
	{"geometry":{"coordinates":[15.266971,49.061463],"type":"Point"},"properties":{"osm_id":"1610993233","tag":{"amenity":"recycling","information":"map","map_size":"region","map_type":"topo","recycling:glass":"yes","recycling:paper":"yes","recycling:plastic":"yes","recycling_type":"container","ski":"yes","tourism":"information"}},"type":"Feature"},
	{"geometry":{"coordinates":[15.263102,49.080638],"type":"Point"},"properties":{"osm_id":"5979098054","tag":{"amenity":"recycling","recycling_type":"container"}},"type":"Feature"},
	{"geometry":{"coordinates":[15.239624,49.093547],"type":"Point"},"properties":{"osm_id":"7673097839","tag":{"amenity":"recycling","recycling_type":"container"}},"type":"Feature"}
]
}
