{
"type": "FeatureCollection",
"features": [
	{"geometry":{"coordinates":[15.205409,48.242942],"type":"Point"},"properties":{"osm_id":"1861982402","tag":{"amenity":"recycling","recycling_type":"container"}},"type":"Feature"},
	{"geometry":{"coordinates":[15.274594,48.265089],"type":"Point"},"properties":{"name":"Garbage containers","osm_id":"1982588138","tag":{"amenity":"recycling","recycling:batteries":"no","recycling:books":"no","recycling:cans":"yes","recycling:cardboard":"no","recycling:cartons":"no","recycling:clothes":"no","recycling:electrical_appliances":"no","recycling:glass":"yes","recycling:glass_bottles":"yes","recycling:green_waste":"no","recycling:magazines":"no","recycling:newspaper":"no","recycling:paper":"no","recycling:paper_packaging":"no","recycling:plastic":"no","recycling:plastic_bottles":"no","recycling:plastic_packaging":"no","recycling:scrap_metal":"yes","recycling:small_appliances":"no","recycling:waste":"no","recycling:wood":"no","recycling_type":"container"}},"type":"Feature"},
	{"geometry":{"coordinates":[15.233582,48.277454],"type":"Point"},"properties":{"osm_id":"3505405523","tag":{"amenity":"recycling","description":"ASI Weiten 1: Seiterndorf - bei Bushaltestelle","recycling_type":"container"}},"type":"Feature"},
	{"geometry":{"coordinates":[15.274365,48.26493],"type":"Point"},"properties":{"osm_id":"3505420690","tag":{"amenity":"recycling","description":"ASI Weiten 2: Eitenthal - bei Br\u00fccke Firma Gassner","recycling_type":"container"}},"type":"Feature"},
	{"geometry":{"coordinates":[15.233724,48.252591],"type":"Point"},"properties":{"osm_id":"3505420874","tag":{"amenity":"recycling","description":"ASI Artstetten-P\u00f6bring 4: P\u00f6bring - bei Gasthaus Hirsch","recycling_type":"container"}},"type":"Feature"},
	{"geometry":{"coordinates":[15.275336,48.241088],"type":"Point"},"properties":{"osm_id":"3505447563","tag":{"amenity":"recycling","description":"ASI Leiben 2: Leiben - Betriebsstr. bei Kreisverkehr","recycling_type":"container"}},"type":"Feature"},
	{"geometry":{"coordinates":[15.290085,48.229227],"type":"Point"},"properties":{"osm_id":"3505449808","tag":{"amenity":"recycling","description":"ASI Leiben 5: Weienegg 14, Parkplatz entlang der B3","recycling_type":"container"}},"type":"Feature"},
	{"geometry":{"coordinates":[15.275331,48.244202],"type":"Point"},"properties":{"osm_id":"3505450901","tag":{"amenity":"recycling","description":"ASI Leiben 1: Leiben - bei Tennisplatz","recycling_type":"container"}},"type":"Feature"},
	{"geometry":{"coordinates":[15.263636,48.229336],"type":"Point"},"properties":{"osm_id":"3505450944","tag":{"amenity":"recycling","description":"ASI Leiben 4: Lehen - Hauptstr. 1 bei Feuerwehrhaus","recycling_type":"container"}},"type":"Feature"},
	{"geometry":{"coordinates":[15.25771,48.225045],"type":"Point"},"properties":{"osm_id":"3505450945","tag":{"amenity":"recycling","description":"ASI Leiben 3: Ebersdorf - Parkplatz an der B3 bei EVN-Trafo","recycling_type":"container"}},"type":"Feature"},
	{"geometry":{"coordinates":[15.207889,48.240935],"type":"Point"},"properties":{"osm_id":"3505454943","tag":{"amenity":"recycling","description":"ASI Artstetten-P\u00f6bring 1: Artstetten - Parkplatz bei Sportplatz","recycling_type":"container"}},"type":"Feature"},
	{"geometry":{"coordinates":[15.258904,48.224891],"type":"Point"},"properties":{"osm_id":"4230885614","tag":{"amenity":"waste_basket"}},"type":"Feature"},
	{"geometry":{"coordinates":[15.269917,48.239717],"type":"Point"},"properties":{"name":"ASZ Leiben","osm_id":"6060744466","tag":{"addr:city":"Leiben","addr:country":"AT","addr:housenumber":"16","addr:postcode":"3652","addr:street":"Betriebsstra\u00dfe","amenity":"recycling","operator":"GVU Melk","recycling_type":"centre"}},"type":"Feature"}
]
}
