{
"type": "FeatureCollection",
"features": [
	{"geometry":{"coordinates":[15.268059,47.411747],"type":"Point"},"properties":{"osm_id":"1434228377","tag":{"amenity":"waste_basket"}},"type":"Feature"},
	{"geometry":{"coordinates":[15.267954,47.411893],"type":"Point"},"properties":{"osm_id":"1434228386","tag":{"amenity":"waste_basket"}},"type":"Feature"},
	{"geometry":{"coordinates":[15.268402,47.412017],"type":"Point"},"properties":{"osm_id":"1434228390","tag":{"amenity":"waste_basket"}},"type":"Feature"},
	{"geometry":{"coordinates":[15.267612,47.411734],"type":"Point"},"properties":{"osm_id":"1434230904","tag":{"amenity":"recycling","recycling_type":"container"}},"type":"Feature"},
	{"geometry":{"coordinates":[15.268707,47.41197],"type":"Point"},"properties":{"osm_id":"1434230907","tag":{"amenity":"waste_basket"}},"type":"Feature"},
	{"geometry":{"coordinates":[15.26705,47.411474],"type":"Point"},"properties":{"osm_id":"1434262756","tag":{"amenity":"waste_basket"}},"type":"Feature"},
	{"geometry":{"coordinates":[15.266925,47.411631],"type":"Point"},"properties":{"osm_id":"1434262758","tag":{"amenity":"waste_basket"}},"type":"Feature"},
	{"geometry":{"coordinates":[15.265388,47.412014],"type":"Point"},"properties":{"osm_id":"1434262773","tag":{"amenity":"waste_basket"}},"type":"Feature"},
	{"geometry":{"coordinates":[15.265259,47.412016],"type":"Point"},"properties":{"osm_id":"1434262778","tag":{"amenity":"waste_basket"}},"type":"Feature"},
	{"geometry":{"coordinates":[15.27058,47.41027],"type":"Point"},"properties":{"osm_id":"1434289279","tag":{"amenity":"waste_basket"}},"type":"Feature"},
	{"geometry":{"coordinates":[15.271651,47.41057],"type":"Point"},"properties":{"osm_id":"1434289317","tag":{"amenity":"waste_basket"}},"type":"Feature"},
	{"geometry":{"coordinates":[15.268692,47.41085],"type":"Point"},"properties":{"osm_id":"1434289338","tag":{"amenity":"waste_basket"}},"type":"Feature"},
	{"geometry":{"coordinates":[15.268449,47.410957],"type":"Point"},"properties":{"osm_id":"1434289375","tag":{"amenity":"waste_basket"}},"type":"Feature"},
	{"geometry":{"coordinates":[15.27299,47.411163],"type":"Point"},"properties":{"osm_id":"1434289443","tag":{"amenity":"waste_basket"}},"type":"Feature"},
	{"geometry":{"coordinates":[15.270102,47.409628],"type":"Point"},"properties":{"osm_id":"1434309046","tag":{"amenity":"waste_basket"}},"type":"Feature"},
	{"geometry":{"coordinates":[15.270019,47.409836],"type":"Point"},"properties":{"osm_id":"1434309079","tag":{"amenity":"waste_basket"}},"type":"Feature"},
	{"geometry":{"coordinates":[15.269218,47.41153],"type":"Point"},"properties":{"osm_id":"1434309153","tag":{"amenity":"waste_basket"}},"type":"Feature"},
	{"geometry":{"coordinates":[15.243991,47.406496],"type":"Point"},"properties":{"osm_id":"1434342826","tag":{"amenity":"waste_basket"}},"type":"Feature"},
	{"geometry":{"coordinates":[15.277628,47.412911],"type":"Point"},"properties":{"osm_id":"1434391048","tag":{"amenity":"waste_basket"}},"type":"Feature"},
	{"geometry":{"coordinates":[15.243167,47.405615],"type":"Point"},"properties":{"osm_id":"1436506943","tag":{"amenity":"recycling","recycling:aluminium":"yes","recycling:cans":"yes","recycling:glass":"yes","recycling_type":"container"}},"type":"Feature"},
	{"geometry":{"coordinates":[15.263075,47.405429],"type":"Point"},"properties":{"osm_id":"1442165391","tag":{"amenity":"waste_basket"}},"type":"Feature"},
	{"geometry":{"coordinates":[15.261083,47.405748],"type":"Point"},"properties":{"osm_id":"1442177050","tag":{"amenity":"waste_basket"}},"type":"Feature"},
	{"geometry":{"coordinates":[15.261564,47.405831],"type":"Point"},"properties":{"osm_id":"1442177058","tag":{"amenity":"waste_basket"}},"type":"Feature"},
	{"geometry":{"coordinates":[15.262824,47.406222],"type":"Point"},"properties":{"osm_id":"1442180152","tag":{"amenity":"waste_basket"}},"type":"Feature"},
	{"geometry":{"coordinates":[15.247632,47.407038],"type":"Point"},"properties":{"osm_id":"1442291974","tag":{"amenity":"recycling","recycling:aluminium":"yes","recycling:cans":"yes","recycling:cardboard":"yes","recycling:clothes":"yes","recycling:glass":"yes","recycling:green_waste":"yes","recycling:paper":"yes","recycling:plastic":"yes","recycling_type":"container"}},"type":"Feature"},
	{"geometry":{"coordinates":[15.244719,47.40598],"type":"Point"},"properties":{"osm_id":"1442294181","tag":{"amenity":"recycling","recycling:aluminium":"yes","recycling:cans":"yes","recycling:glass":"yes","recycling:plastic":"yes","recycling_type":"container"}},"type":"Feature"},
	{"geometry":{"coordinates":[15.251271,47.406459],"type":"Point"},"properties":{"osm_id":"1442314828","tag":{"amenity":"waste_basket"}},"type":"Feature"},
	{"geometry":{"coordinates":[15.25468,47.406444],"type":"Point"},"properties":{"osm_id":"1442352086","tag":{"amenity":"waste_basket"}},"type":"Feature"},
	{"geometry":{"coordinates":[15.254306,47.406399],"type":"Point"},"properties":{"osm_id":"1442357041","tag":{"amenity":"waste_basket"}},"type":"Feature"},
	{"geometry":{"coordinates":[15.255287,47.40606],"type":"Point"},"properties":{"osm_id":"1442381106","tag":{"amenity":"waste_basket"}},"type":"Feature"},
	{"geometry":{"coordinates":[15.256412,47.406656],"type":"Point"},"properties":{"osm_id":"1442393788","tag":{"amenity":"waste_basket"}},"type":"Feature"},
	{"geometry":{"coordinates":[15.251359,47.407006],"type":"Point"},"properties":{"osm_id":"1442409097","tag":{"amenity":"waste_basket"}},"type":"Feature"},
	{"geometry":{"coordinates":[15.219283,47.408377],"type":"Point"},"properties":{"osm_id":"1442797489","tag":{"amenity":"waste_basket"}},"type":"Feature"},
	{"geometry":{"coordinates":[15.232728,47.401749],"type":"Point"},"properties":{"osm_id":"1442804862","tag":{"amenity":"waste_basket"}},"type":"Feature"},
	{"geometry":{"coordinates":[15.232712,47.401781],"type":"Point"},"properties":{"osm_id":"1442804869","tag":{"amenity":"waste_basket"}},"type":"Feature"},
	{"geometry":{"coordinates":[15.26789,47.410751],"type":"Point"},"properties":{"osm_id":"1449445216","tag":{"amenity":"waste_basket"}},"type":"Feature"},
	{"geometry":{"coordinates":[15.249946,47.405861],"type":"Point"},"properties":{"osm_id":"1452349179","tag":{"amenity":"waste_basket"}},"type":"Feature"},
	{"geometry":{"coordinates":[15.24978,47.406061],"type":"Point"},"properties":{"osm_id":"1452349195","tag":{"amenity":"waste_basket"}},"type":"Feature"},
	{"geometry":{"coordinates":[15.252243,47.411704],"type":"Point"},"properties":{"osm_id":"1459800392","tag":{"amenity":"waste_basket"}},"type":"Feature"},
	{"geometry":{"coordinates":[15.268514,47.409987],"type":"Point"},"properties":{"osm_id":"1475922449","tag":{"amenity":"waste_basket"}},"type":"Feature"},
	{"geometry":{"coordinates":[15.274396,47.420917],"type":"Point"},"properties":{"osm_id":"1475935810","tag":{"amenity":"waste_basket"}},"type":"Feature"},
	{"geometry":{"coordinates":[15.273904,47.421175],"type":"Point"},"properties":{"osm_id":"1475935813","tag":{"amenity":"waste_basket"}},"type":"Feature"},
	{"geometry":{"coordinates":[15.27428,47.418252],"type":"Point"},"properties":{"osm_id":"1475955717","tag":{"amenity":"waste_basket"}},"type":"Feature"},
	{"geometry":{"coordinates":[15.274269,47.418419],"type":"Point"},"properties":{"osm_id":"1475955719","tag":{"amenity":"waste_basket"}},"type":"Feature"},
	{"geometry":{"coordinates":[15.273965,47.416733],"type":"Point"},"properties":{"osm_id":"1475970387","tag":{"amenity":"waste_basket"}},"type":"Feature"},
	{"geometry":{"coordinates":[15.274011,47.416938],"type":"Point"},"properties":{"osm_id":"1475970392","tag":{"amenity":"waste_basket"}},"type":"Feature"},
	{"geometry":{"coordinates":[15.274052,47.417145],"type":"Point"},"properties":{"osm_id":"1475970393","tag":{"amenity":"waste_basket"}},"type":"Feature"},
	{"geometry":{"coordinates":[15.271751,47.412388],"type":"Point"},"properties":{"osm_id":"1476102707","tag":{"amenity":"waste_basket"}},"type":"Feature"},
	{"geometry":{"coordinates":[15.271172,47.412839],"type":"Point"},"properties":{"osm_id":"1476102782","tag":{"amenity":"waste_basket"}},"type":"Feature"},
	{"geometry":{"coordinates":[15.271304,47.41287],"type":"Point"},"properties":{"osm_id":"1476102796","tag":{"amenity":"waste_basket"}},"type":"Feature"},
	{"geometry":{"coordinates":[15.271583,47.413307],"type":"Point"},"properties":{"osm_id":"1476102807","tag":{"amenity":"waste_basket"}},"type":"Feature"},
	{"geometry":{"coordinates":[15.271425,47.41205],"type":"Point"},"properties":{"osm_id":"1476119111","tag":{"amenity":"waste_basket"}},"type":"Feature"},
	{"geometry":{"coordinates":[15.270454,47.4119],"type":"Point"},"properties":{"osm_id":"1548725468","tag":{"amenity":"waste_basket"}},"type":"Feature"},
	{"geometry":{"coordinates":[15.266448,47.408618],"type":"Point"},"properties":{"osm_id":"1561368040","tag":{"amenity":"waste_basket"}},"type":"Feature"},
	{"geometry":{"coordinates":[15.273968,47.402824],"type":"Point"},"properties":{"osm_id":"1765221772","tag":{"amenity":"recycling","recycling:cans":"yes","recycling:green_waste":"yes","recycling:paper":"yes","recycling:plastic":"yes","recycling_type":"container"}},"type":"Feature"},
	{"geometry":{"coordinates":[15.274475,47.403522],"type":"Point"},"properties":{"osm_id":"1769274628","tag":{"amenity":"waste_basket"}},"type":"Feature"},
	{"geometry":{"coordinates":[15.27281,47.4108],"type":"Point"},"properties":{"osm_id":"1788376430","tag":{"amenity":"waste_basket"}},"type":"Feature"},
	{"geometry":{"coordinates":[15.212903,47.412107],"type":"Point"},"properties":{"osm_id":"1788620418","tag":{"amenity":"waste_basket"}},"type":"Feature"},
	{"geometry":{"coordinates":[15.2596,47.405219],"type":"Point"},"properties":{"osm_id":"1839726596","tag":{"amenity":"waste_basket"}},"type":"Feature"},
	{"geometry":{"coordinates":[15.264812,47.415735],"type":"Point"},"properties":{"osm_id":"1843829314","tag":{"amenity":"waste_basket"}},"type":"Feature"},
	{"geometry":{"coordinates":[15.26198,47.415149],"type":"Point"},"properties":{"osm_id":"1843855348","tag":{"amenity":"recycling","recycling_type":"container"}},"type":"Feature"},
	{"geometry":{"coordinates":[15.258132,47.406129],"type":"Point"},"properties":{"osm_id":"1844172339","tag":{"amenity":"waste_basket"}},"type":"Feature"},
	{"geometry":{"coordinates":[15.256896,47.406305],"type":"Point"},"properties":{"osm_id":"1844200817","tag":{"amenity":"waste_basket"}},"type":"Feature"},
	{"geometry":{"coordinates":[15.259569,47.406344],"type":"Point"},"properties":{"osm_id":"1844247185","tag":{"amenity":"waste_basket"}},"type":"Feature"},
	{"geometry":{"coordinates":[15.261026,47.406875],"type":"Point"},"properties":{"osm_id":"1844247194","tag":{"amenity":"waste_basket"}},"type":"Feature"},
	{"geometry":{"coordinates":[15.261229,47.40706],"type":"Point"},"properties":{"osm_id":"1844247204","tag":{"amenity":"waste_basket"}},"type":"Feature"},
	{"geometry":{"coordinates":[15.260985,47.413849],"type":"Point"},"properties":{"osm_id":"1846793314","tag":{"amenity":"waste_basket"}},"type":"Feature"},
	{"geometry":{"coordinates":[15.260987,47.414213],"type":"Point"},"properties":{"osm_id":"1846793318","tag":{"amenity":"recycling","recycling_type":"container"}},"type":"Feature"},
	{"geometry":{"coordinates":[15.262053,47.414447],"type":"Point"},"properties":{"osm_id":"1846793324","tag":{"amenity":"recycling","recycling_type":"container"}},"type":"Feature"},
	{"geometry":{"coordinates":[15.261365,47.414726],"type":"Point"},"properties":{"osm_id":"1846793327","tag":{"amenity":"recycling","recycling_type":"container"}},"type":"Feature"},
	{"geometry":{"coordinates":[15.261155,47.41525],"type":"Point"},"properties":{"osm_id":"1846793330","tag":{"amenity":"waste_basket"}},"type":"Feature"},
	{"geometry":{"coordinates":[15.261782,47.415425],"type":"Point"},"properties":{"osm_id":"1846793336","tag":{"amenity":"waste_basket"}},"type":"Feature"},
	{"geometry":{"coordinates":[15.259238,47.41139],"type":"Point"},"properties":{"osm_id":"1846814654","tag":{"amenity":"recycling","recycling_type":"container"}},"type":"Feature"},
	{"geometry":{"coordinates":[15.26171,47.41323],"type":"Point"},"properties":{"osm_id":"1846814720","tag":{"amenity":"recycling","recycling_type":"container"}},"type":"Feature"},
	{"geometry":{"coordinates":[15.263395,47.413601],"type":"Point"},"properties":{"osm_id":"1846814736","tag":{"amenity":"waste_basket"}},"type":"Feature"},
	{"geometry":{"coordinates":[15.260037,47.41114],"type":"Point"},"properties":{"osm_id":"1846820209","tag":{"access":"private","amenity":"waste_basket"}},"type":"Feature"},
	{"geometry":{"coordinates":[15.259344,47.411387],"type":"Point"},"properties":{"osm_id":"1846820227","tag":{"amenity":"waste_basket"}},"type":"Feature"},
	{"geometry":{"coordinates":[15.261844,47.411704],"type":"Point"},"properties":{"osm_id":"1846837037","tag":{"amenity":"waste_basket"}},"type":"Feature"},
	{"geometry":{"coordinates":[15.260346,47.411865],"type":"Point"},"properties":{"osm_id":"1846837041","tag":{"amenity":"recycling","recycling_type":"container"}},"type":"Feature"},
	{"geometry":{"coordinates":[15.260783,47.41192],"type":"Point"},"properties":{"osm_id":"1846837043","tag":{"amenity":"recycling","recycling_type":"container"}},"type":"Feature"},
	{"geometry":{"coordinates":[15.261224,47.411982],"type":"Point"},"properties":{"osm_id":"1846837045","tag":{"amenity":"recycling","recycling_type":"container"}},"type":"Feature"},
	{"geometry":{"coordinates":[15.260713,47.412166],"type":"Point"},"properties":{"osm_id":"1846837049","tag":{"amenity":"recycling","recycling_type":"container"}},"type":"Feature"},
	{"geometry":{"coordinates":[15.261158,47.412238],"type":"Point"},"properties":{"osm_id":"1846837050","tag":{"amenity":"recycling","recycling_type":"container"}},"type":"Feature"},
	{"geometry":{"coordinates":[15.260221,47.412352],"type":"Point"},"properties":{"osm_id":"1846837054","tag":{"amenity":"recycling","recycling_type":"container"}},"type":"Feature"},
	{"geometry":{"coordinates":[15.260353,47.410559],"type":"Point"},"properties":{"osm_id":"1846913101","tag":{"amenity":"recycling","recycling_type":"container"}},"type":"Feature"},
	{"geometry":{"coordinates":[15.261242,47.411136],"type":"Point"},"properties":{"osm_id":"1846913130","tag":{"amenity":"recycling","recycling_type":"container"}},"type":"Feature"},
	{"geometry":{"coordinates":[15.262135,47.411216],"type":"Point"},"properties":{"osm_id":"1846913135","tag":{"amenity":"waste_basket"}},"type":"Feature"},
	{"geometry":{"coordinates":[15.262292,47.411304],"type":"Point"},"properties":{"osm_id":"1846913144","tag":{"amenity":"recycling","recycling_type":"container"}},"type":"Feature"},
	{"geometry":{"coordinates":[15.258204,47.409461],"type":"Point"},"properties":{"osm_id":"1846944995","tag":{"amenity":"recycling","covered":"yes","recycling_type":"container"}},"type":"Feature"},
	{"geometry":{"coordinates":[15.258966,47.409987],"type":"Point"},"properties":{"osm_id":"1846945024","tag":{"amenity":"waste_basket"}},"type":"Feature"},
	{"geometry":{"coordinates":[15.258714,47.409991],"type":"Point"},"properties":{"osm_id":"1846945025","tag":{"amenity":"waste_basket"}},"type":"Feature"},
	{"geometry":{"coordinates":[15.259257,47.410052],"type":"Point"},"properties":{"osm_id":"1846945026","tag":{"amenity":"recycling","covered":"yes","recycling_type":"container"}},"type":"Feature"},
	{"geometry":{"coordinates":[15.259592,47.410143],"type":"Point"},"properties":{"osm_id":"1846945028","tag":{"amenity":"recycling","covered":"yes","recycling_type":"container"}},"type":"Feature"},
	{"geometry":{"coordinates":[15.258791,47.409119],"type":"Point"},"properties":{"osm_id":"1846999693","tag":{"amenity":"waste_basket"}},"type":"Feature"},
	{"geometry":{"coordinates":[15.261417,47.409488],"type":"Point"},"properties":{"osm_id":"1846999719","tag":{"amenity":"waste_basket"}},"type":"Feature"},
	{"geometry":{"coordinates":[15.260249,47.41012],"type":"Point"},"properties":{"osm_id":"1847000077","tag":{"amenity":"recycling","recycling_type":"container"}},"type":"Feature"},
	{"geometry":{"coordinates":[15.261335,47.4109],"type":"Point"},"properties":{"osm_id":"1847028715","tag":{"amenity":"waste_basket"}},"type":"Feature"},
	{"geometry":{"coordinates":[15.259879,47.407688],"type":"Point"},"properties":{"osm_id":"1847175642","tag":{"amenity":"recycling","recycling_type":"container"}},"type":"Feature"},
	{"geometry":{"coordinates":[15.254539,47.410023],"type":"Point"},"properties":{"osm_id":"1848369663","tag":{"amenity":"waste_basket"}},"type":"Feature"},
	{"geometry":{"coordinates":[15.2306,47.405487],"type":"Point"},"properties":{"osm_id":"1848565795","tag":{"amenity":"recycling","recycling:cans":"yes","recycling:glass":"yes","recycling_type":"container"}},"type":"Feature"},
	{"geometry":{"coordinates":[15.206139,47.415679],"type":"Point"},"properties":{"osm_id":"1848566060","tag":{"entrance":"main"}},"type":"Feature"},
	{"geometry":{"coordinates":[15.208764,47.415215],"type":"Point"},"properties":{"osm_id":"1848625197","tag":{"amenity":"waste_basket"}},"type":"Feature"},
	{"geometry":{"coordinates":[15.256112,47.406766],"type":"Point"},"properties":{"osm_id":"1849615606","tag":{"amenity":"recycling","recycling:cans":"yes","recycling:glass":"yes","recycling:paper":"yes","recycling_type":"container"}},"type":"Feature"},
	{"geometry":{"coordinates":[15.251412,47.406983],"type":"Point"},"properties":{"osm_id":"1849615639","tag":{"amenity":"waste_basket"}},"type":"Feature"},
	{"geometry":{"coordinates":[15.250956,47.407119],"type":"Point"},"properties":{"osm_id":"1849615659","tag":{"amenity":"recycling","recycling_type":"container"}},"type":"Feature"},
	{"geometry":{"coordinates":[15.252054,47.40718],"type":"Point"},"properties":{"osm_id":"1849615668","tag":{"amenity":"recycling","recycling_type":"container"}},"type":"Feature"},
	{"geometry":{"coordinates":[15.251433,47.407229],"type":"Point"},"properties":{"osm_id":"1849615675","tag":{"amenity":"recycling","recycling_type":"container"}},"type":"Feature"},
	{"geometry":{"coordinates":[15.250345,47.407382],"type":"Point"},"properties":{"osm_id":"1849615706","tag":{"amenity":"recycling","recycling_type":"container"}},"type":"Feature"},
	{"geometry":{"coordinates":[15.25055,47.407576],"type":"Point"},"properties":{"osm_id":"1849615725","tag":{"amenity":"recycling","recycling_type":"container"}},"type":"Feature"},
	{"geometry":{"coordinates":[15.250808,47.407639],"type":"Point"},"properties":{"osm_id":"1849615729","tag":{"amenity":"waste_basket"}},"type":"Feature"},
	{"geometry":{"coordinates":[15.250819,47.407651],"type":"Point"},"properties":{"osm_id":"1849615730","tag":{"amenity":"recycling","recycling_type":"container"}},"type":"Feature"},
	{"geometry":{"coordinates":[15.25368,47.408074],"type":"Point"},"properties":{"osm_id":"1849615754","tag":{"amenity":"recycling","recycling:cans":"yes","recycling:glass":"yes","recycling:paper":"yes","recycling_type":"container"}},"type":"Feature"},
	{"geometry":{"coordinates":[15.25621,47.412301],"type":"Point"},"properties":{"osm_id":"1849777250","tag":{"amenity":"recycling","recycling_type":"container"}},"type":"Feature"},
	{"geometry":{"coordinates":[15.255248,47.411028],"type":"Point"},"properties":{"osm_id":"1849791333","tag":{"amenity":"recycling","recycling_type":"container"}},"type":"Feature"},
	{"geometry":{"coordinates":[15.251383,47.407762],"type":"Point"},"properties":{"osm_id":"1849830515","tag":{"amenity":"recycling","recycling_type":"container"}},"type":"Feature"},
	{"geometry":{"coordinates":[15.251623,47.407831],"type":"Point"},"properties":{"osm_id":"1849830523","tag":{"amenity":"recycling","recycling_type":"container"}},"type":"Feature"},
	{"geometry":{"coordinates":[15.251961,47.407912],"type":"Point"},"properties":{"osm_id":"1849830529","tag":{"amenity":"recycling","recycling_type":"container"}},"type":"Feature"},
	{"geometry":{"coordinates":[15.247555,47.406897],"type":"Point"},"properties":{"osm_id":"1857051251","tag":{"amenity":"recycling"}},"type":"Feature"},
	{"geometry":{"coordinates":[15.256623,47.426619],"type":"Point"},"properties":{"osm_id":"1905190665","tag":{"amenity":"recycling"}},"type":"Feature"},
	{"geometry":{"coordinates":[15.26946,47.426749],"type":"Point"},"properties":{"osm_id":"1905190674","tag":{"amenity":"recycling"}},"type":"Feature"},
	{"geometry":{"coordinates":[15.260652,47.426898],"type":"Point"},"properties":{"osm_id":"1905190677","tag":{"amenity":"recycling"}},"type":"Feature"},
	{"geometry":{"coordinates":[15.292463,47.445357],"type":"Point"},"properties":{"osm_id":"2386375808","tag":{"amenity":"waste_basket"}},"type":"Feature"},
	{"geometry":{"coordinates":[15.29261,47.445391],"type":"Point"},"properties":{"osm_id":"2386375816","tag":{"amenity":"waste_basket"}},"type":"Feature"},
	{"geometry":{"coordinates":[15.278963,47.413573],"type":"Point"},"properties":{"osm_id":"3781463000","tag":{"amenity":"waste_basket"}},"type":"Feature"},
	{"geometry":{"coordinates":[15.27916,47.413642],"type":"Point"},"properties":{"osm_id":"3781463008","tag":{"amenity":"waste_basket"}},"type":"Feature"},
	{"geometry":{"coordinates":[15.275431,47.407157],"type":"Point"},"properties":{"osm_id":"4463050654","tag":{"amenity":"waste_basket"}},"type":"Feature"},
	{"geometry":{"coordinates":[15.274723,47.434465],"type":"Point"},"properties":{"osm_id":"5020972937","tag":{"amenity":"recycling","recycling_type":"container"}},"type":"Feature"},
	{"geometry":{"coordinates":[15.278985,47.413512],"type":"Point"},"properties":{"osm_id":"5827254369","tag":{"amenity":"waste_basket","waste":"trash"}},"type":"Feature"},
	{"geometry":{"coordinates":[15.279294,47.413296],"type":"Point"},"properties":{"osm_id":"5827254370","tag":{"amenity":"waste_basket","waste":"trash"}},"type":"Feature"},
	{"geometry":{"coordinates":[15.278982,47.413507],"type":"Point"},"properties":{"osm_id":"5827254371","tag":{"amenity":"waste_basket","waste":"trash"}},"type":"Feature"},
	{"geometry":{"coordinates":[15.279135,47.413555],"type":"Point"},"properties":{"osm_id":"5827254372","tag":{"amenity":"waste_basket","waste":"trash"}},"type":"Feature"},
	{"geometry":{"coordinates":[15.279152,47.413265],"type":"Point"},"properties":{"osm_id":"5827254373","tag":{"amenity":"waste_basket","waste":"trash"}},"type":"Feature"}
]
}
