{
"type": "FeatureCollection",
"features": [
	{"geometry":{"coordinates":[15.236059,46.876901],"type":"Point"},"properties":{"osm_id":"1707458180","tag":{"amenity":"recycling"}},"type":"Feature"},
	{"geometry":{"coordinates":[15.224396,46.88721],"type":"Point"},"properties":{"osm_id":"1707481665","tag":{"amenity":"recycling"}},"type":"Feature"},
	{"geometry":{"coordinates":[15.225191,46.889615],"type":"Point"},"properties":{"osm_id":"1707486021","tag":{"amenity":"waste_basket"}},"type":"Feature"},
	{"geometry":{"coordinates":[15.233349,46.886268],"type":"Point"},"properties":{"osm_id":"1707601188","tag":{"amenity":"recycling"}},"type":"Feature"},
	{"geometry":{"coordinates":[15.279066,46.915308],"type":"Point"},"properties":{"osm_id":"2124212271","tag":{"amenity":"recycling"}},"type":"Feature"},
	{"geometry":{"coordinates":[15.277066,46.916828],"type":"Point"},"properties":{"osm_id":"2124212475","tag":{"amenity":"recycling"}},"type":"Feature"},
	{"geometry":{"coordinates":[15.276945,46.905257],"type":"Point"},"properties":{"osm_id":"2141540468","tag":{"amenity":"recycling","operator":"Gemeinde Georgsberg","recycling:batteries":"yes","recycling:cooking_oil":"yes","recycling:electrical_items":"yes","recycling_type":"centre"}},"type":"Feature"},
	{"geometry":{"coordinates":[15.266118,46.89372],"type":"Point"},"properties":{"osm_id":"2146798701","tag":{"amenity":"waste_basket"}},"type":"Feature"},
	{"geometry":{"coordinates":[15.269948,46.910592],"type":"Point"},"properties":{"osm_id":"2154656419","tag":{"amenity":"recycling","recycling:cans":"yes","recycling:glass":"yes"}},"type":"Feature"},
	{"geometry":{"coordinates":[15.280571,46.873395],"type":"Point"},"properties":{"osm_id":"2361313975","tag":{"amenity":"waste_basket"}},"type":"Feature"},
	{"geometry":{"coordinates":[15.292687,46.864097],"type":"Point"},"properties":{"osm_id":"2361378197","tag":{"amenity":"waste_disposal"}},"type":"Feature"},
	{"geometry":{"coordinates":[15.286695,46.914917],"type":"Point"},"properties":{"osm_id":"3421259771","tag":{"amenity":"recycling","recycling:glass":"yes","recycling:paper":"yes","recycling:scrap_metal":"no","recycling_type":"container"}},"type":"Feature"},
	{"geometry":{"coordinates":[15.225632,46.917423],"type":"Point"},"properties":{"osm_id":"3708204718","tag":{"amenity":"recycling","recycling:glass":"yes","recycling:glass_bottles":"yes","recycling:scrap_metal":"yes","recycling_type":"container"}},"type":"Feature"},
	{"geometry":{"coordinates":[15.220154,46.867761],"type":"Point"},"properties":{"osm_id":"4829653109","tag":{"amenity":"waste_basket"}},"type":"Feature"},
	{"geometry":{"coordinates":[15.220807,46.875661],"type":"Point"},"properties":{"osm_id":"7110380460","tag":{"amenity":"recycling","recycling_type":"container"}},"type":"Feature"},
	{"geometry":{"coordinates":[15.223722,46.870815],"type":"Point"},"properties":{"osm_id":"7110381269","tag":{"amenity":"waste_basket"}},"type":"Feature"},
	{"geometry":{"coordinates":[15.221554,46.869021],"type":"Point"},"properties":{"osm_id":"7110381279","tag":{"amenity":"waste_basket"}},"type":"Feature"},
	{"geometry":{"coordinates":[15.248205,46.891935],"type":"Point"},"properties":{"osm_id":"7112772836","tag":{"amenity":"waste_basket"}},"type":"Feature"},
	{"geometry":{"coordinates":[15.251651,46.889923],"type":"Point"},"properties":{"osm_id":"7112789790","tag":{"amenity":"waste_basket"}},"type":"Feature"},
	{"geometry":{"coordinates":[15.250507,46.889304],"type":"Point"},"properties":{"osm_id":"7112789792","tag":{"amenity":"waste_basket"}},"type":"Feature"},
	{"geometry":{"coordinates":[15.252011,46.889225],"type":"Point"},"properties":{"osm_id":"7112789801","tag":{"amenity":"waste_basket"}},"type":"Feature"},
	{"geometry":{"coordinates":[15.253908,46.88751],"type":"Point"},"properties":{"osm_id":"7112789803","tag":{"amenity":"waste_basket"}},"type":"Feature"},
	{"geometry":{"coordinates":[15.259063,46.893301],"type":"Point"},"properties":{"osm_id":"7115464036","tag":{"amenity":"waste_basket"}},"type":"Feature"},
	{"geometry":{"coordinates":[15.261411,46.893517],"type":"Point"},"properties":{"osm_id":"7115464042","tag":{"amenity":"waste_basket"}},"type":"Feature"},
	{"geometry":{"coordinates":[15.261092,46.893756],"type":"Point"},"properties":{"osm_id":"7115464097","tag":{"amenity":"waste_basket"}},"type":"Feature"},
	{"geometry":{"coordinates":[15.259189,46.89405],"type":"Point"},"properties":{"osm_id":"7115464101","tag":{"amenity":"waste_basket"}},"type":"Feature"},
	{"geometry":{"coordinates":[15.259421,46.893772],"type":"Point"},"properties":{"osm_id":"7115464103","tag":{"amenity":"waste_basket"}},"type":"Feature"},
	{"geometry":{"coordinates":[15.257161,46.895686],"type":"Point"},"properties":{"osm_id":"7115464125","tag":{"amenity":"waste_basket"}},"type":"Feature"},
	{"geometry":{"coordinates":[15.234289,46.900872],"type":"Point"},"properties":{"osm_id":"7122850348","tag":{"amenity":"waste_basket"}},"type":"Feature"},
	{"geometry":{"coordinates":[15.237509,46.89974],"type":"Point"},"properties":{"osm_id":"7122854195","tag":{"amenity":"waste_basket"}},"type":"Feature"},
	{"geometry":{"coordinates":[15.239282,46.898846],"type":"Point"},"properties":{"osm_id":"7122854199","tag":{"amenity":"waste_basket"}},"type":"Feature"},
	{"geometry":{"coordinates":[15.240049,46.898305],"type":"Point"},"properties":{"osm_id":"7122854200","tag":{"amenity":"waste_basket"}},"type":"Feature"},
	{"geometry":{"coordinates":[15.243041,46.895631],"type":"Point"},"properties":{"osm_id":"7122854235","tag":{"amenity":"waste_basket"}},"type":"Feature"},
	{"geometry":{"coordinates":[15.234663,46.895114],"type":"Point"},"properties":{"osm_id":"7122854287","tag":{"amenity":"recycling","recycling_type":"container"}},"type":"Feature"},
	{"geometry":{"coordinates":[15.263265,46.896828],"type":"Point"},"properties":{"osm_id":"7188542042","tag":{"amenity":"waste_basket"}},"type":"Feature"},
	{"geometry":{"coordinates":[15.263986,46.896793],"type":"Point"},"properties":{"osm_id":"7188542046","tag":{"amenity":"waste_basket"}},"type":"Feature"},
	{"geometry":{"coordinates":[15.265605,46.900518],"type":"Point"},"properties":{"osm_id":"7188542047","tag":{"amenity":"waste_basket"}},"type":"Feature"},
	{"geometry":{"coordinates":[15.214874,46.864737],"type":"Point"},"properties":{"osm_id":"7254751821","tag":{"amenity":"recycling","operator":"Gemeinde Bad Gams","recycling:glass":"yes","recycling:paper":"yes","recycling:plastic_packaging":"yes","recycling:scrap_metal":"yes","recycling_type":"container"}},"type":"Feature"}
]
}
