{
"type": "FeatureCollection",
"features": [
	{"geometry":{"coordinates":[15.228918,44.11214],"type":"Point"},"properties":{"osm_id":"1406223077","tag":{"amenity":"waste_basket"}},"type":"Feature"},
	{"geometry":{"coordinates":[15.254179,44.119159],"type":"Point"},"properties":{"osm_id":"2465271887","tag":{"amenity":"recycling","recycling_type":"container"}},"type":"Feature"},
	{"geometry":{"coordinates":[15.21133,44.14332],"type":"Point"},"properties":{"osm_id":"3410653683","tag":{"amenity":"waste_basket"}},"type":"Feature"},
	{"geometry":{"coordinates":[15.211103,44.143369],"type":"Point"},"properties":{"osm_id":"3697755765","tag":{"amenity":"waste_basket"}},"type":"Feature"},
	{"geometry":{"coordinates":[15.20918,44.146689],"type":"Point"},"properties":{"osm_id":"3697755791","tag":{"amenity":"waste_disposal"}},"type":"Feature"},
	{"geometry":{"coordinates":[15.209268,44.146821],"type":"Point"},"properties":{"osm_id":"3697755793","tag":{"amenity":"recycling","recycling:paper":"yes","recycling_type":"container"}},"type":"Feature"},
	{"geometry":{"coordinates":[15.207992,44.148045],"type":"Point"},"properties":{"osm_id":"3697755801","tag":{"amenity":"waste_disposal"}},"type":"Feature"},
	{"geometry":{"coordinates":[15.220337,44.1174],"type":"Point"},"properties":{"osm_id":"4276273596","tag":{"amenity":"waste_basket"}},"type":"Feature"},
	{"geometry":{"coordinates":[15.231369,44.112958],"type":"Point"},"properties":{"osm_id":"4380839489","tag":{"amenity":"waste_basket","name:de":"parkplatzzadar"}},"type":"Feature"},
	{"geometry":{"coordinates":[15.220933,44.131545],"type":"Point"},"properties":{"osm_id":"4907296624","tag":{"amenity":"recycling","location":"overground","recycling_type":"container"}},"type":"Feature"},
	{"geometry":{"coordinates":[15.222857,44.125744],"type":"Point"},"properties":{"osm_id":"4907439923","tag":{"amenity":"waste_basket"}},"type":"Feature"},
	{"geometry":{"coordinates":[15.218155,44.130336],"type":"Point"},"properties":{"osm_id":"4907439926","tag":{"amenity":"waste_basket"}},"type":"Feature"},
	{"geometry":{"coordinates":[15.216939,44.127635],"type":"Point"},"properties":{"osm_id":"4907439928","tag":{"amenity":"waste_basket"}},"type":"Feature"},
	{"geometry":{"coordinates":[15.213649,44.128082],"type":"Point"},"properties":{"osm_id":"4907616423","tag":{"amenity":"waste_basket"}},"type":"Feature"},
	{"geometry":{"coordinates":[15.226107,44.12507],"type":"Point"},"properties":{"osm_id":"4912935423","tag":{"amenity":"waste_basket"}},"type":"Feature"},
	{"geometry":{"coordinates":[15.211579,44.143817],"type":"Point"},"properties":{"osm_id":"6747288754","tag":{"amenity":"recycling","recycling:clothes":"yes","recycling:glass":"yes","recycling:paper":"yes","recycling:plastic":"yes","recycling_type":"container"}},"type":"Feature"},
	{"geometry":{"coordinates":[15.207764,44.148154],"type":"Point"},"properties":{"osm_id":"6747288766","tag":{"amenity":"waste_disposal"}},"type":"Feature"}
]
}
