{
"type": "FeatureCollection",
"features": [
	{"geometry":{"coordinates":[15.219092,37.142899],"type":"Point"},"properties":{"osm_id":"2757805031","tag":{"amenity":"waste_basket"}},"type":"Feature"},
	{"geometry":{"coordinates":[15.219773,37.1412],"type":"Point"},"properties":{"osm_id":"3363149522","tag":{"amenity":"waste_basket"}},"type":"Feature"},
	{"geometry":{"coordinates":[15.259374,37.104766],"type":"Point"},"properties":{"barrier":"gate","osm_id":"6273230554","tag":{"addr:housenumber":"21","addr:street":"Via Stentinello"}},"type":"Feature"},
	{"geometry":{"coordinates":[15.241797,37.112201],"type":"Point"},"properties":{"barrier":"gate","osm_id":"6392151273"},"type":"Feature"},
	{"geometry":{"coordinates":[15.24204,37.112692],"type":"Point"},"properties":{"barrier":"gate","osm_id":"6392151274"},"type":"Feature"},
	{"geometry":{"coordinates":[15.241421,37.11195],"type":"Point"},"properties":{"barrier":"gate","osm_id":"6392151297"},"type":"Feature"},
	{"geometry":{"coordinates":[15.283619,37.096134],"type":"Point"},"properties":{"osm_id":"7666996522","tag":{"amenity":"recycling","operator":"Cannone","recycling:clothes":"yes","recycling_type":"container"}},"type":"Feature"},
	{"geometry":{"coordinates":[15.283593,37.096132],"type":"Point"},"properties":{"osm_id":"7666996523","tag":{"amenity":"recycling","operator":"Cannone","recycling:clothes":"yes","recycling_type":"container"}},"type":"Feature"},
	{"geometry":{"coordinates":[15.286232,37.091637],"type":"Point"},"properties":{"osm_id":"7666996536","tag":{"amenity":"recycling","operator":"Cannone","recycling:clothes":"yes","recycling_type":"container"}},"type":"Feature"},
	{"geometry":{"coordinates":[15.286232,37.091657],"type":"Point"},"properties":{"osm_id":"7666996537","tag":{"amenity":"recycling","operator":"Cannone","recycling:clothes":"yes","recycling_type":"container"}},"type":"Feature"},
	{"geometry":{"coordinates":[15.269106,37.095392],"type":"Point"},"properties":{"osm_id":"7666996578","tag":{"amenity":"recycling","operator":"Cannone","recycling:clothes":"yes","recycling_type":"container"}},"type":"Feature"},
	{"geometry":{"coordinates":[15.26591,37.102197],"type":"Point"},"properties":{"osm_id":"7666996582","tag":{"amenity":"recycling","operator":"Cannone","recycling:clothes":"yes","recycling_type":"container"}},"type":"Feature"},
	{"geometry":{"coordinates":[15.26591,37.102184],"type":"Point"},"properties":{"osm_id":"7666996583","tag":{"amenity":"recycling","operator":"Cannone","recycling:clothes":"yes","recycling_type":"container"}},"type":"Feature"},
	{"geometry":{"coordinates":[15.274621,37.094248],"type":"Point"},"properties":{"osm_id":"7671106508","tag":{"amenity":"recycling","operator":"Cannone","recycling:clothes":"yes","recycling_type":"container"}},"type":"Feature"},
	{"geometry":{"coordinates":[15.274621,37.094234],"type":"Point"},"properties":{"osm_id":"7671106509","tag":{"amenity":"recycling","operator":"Cannone","recycling:clothes":"yes","recycling_type":"container"}},"type":"Feature"},
	{"geometry":{"coordinates":[15.26967,37.099434],"type":"Point"},"properties":{"osm_id":"7671106511","tag":{"amenity":"recycling","operator":"Cannone","recycling:clothes":"yes","recycling_type":"container"}},"type":"Feature"},
	{"geometry":{"coordinates":[15.269646,37.09943],"type":"Point"},"properties":{"osm_id":"7671106512","tag":{"amenity":"recycling","operator":"Cannone","recycling:clothes":"yes","recycling_type":"container"}},"type":"Feature"},
	{"geometry":{"coordinates":[15.207322,37.103061],"type":"Point"},"properties":{"osm_id":"7671106513","tag":{"amenity":"recycling","operator":"Cannone","recycling:clothes":"yes","recycling_type":"container"}},"type":"Feature"},
	{"geometry":{"coordinates":[15.207298,37.103067],"type":"Point"},"properties":{"osm_id":"7671106514","tag":{"amenity":"recycling","operator":"Cannone","recycling:clothes":"yes","recycling_type":"container"}},"type":"Feature"},
	{"geometry":{"coordinates":[15.209661,37.094186],"type":"Point"},"properties":{"osm_id":"7671106515","tag":{"amenity":"recycling","operator":"Cannone","recycling:clothes":"yes","recycling_type":"container"}},"type":"Feature"},
	{"geometry":{"coordinates":[15.209643,37.09419],"type":"Point"},"properties":{"osm_id":"7671106516","tag":{"amenity":"recycling","operator":"Cannone","recycling:clothes":"yes","recycling_type":"container"}},"type":"Feature"},
	{"geometry":{"coordinates":[15.209622,37.094194],"type":"Point"},"properties":{"osm_id":"7671106517","tag":{"amenity":"recycling","operator":"Cannone","recycling:clothes":"yes","recycling_type":"container"}},"type":"Feature"},
	{"geometry":{"coordinates":[15.2096,37.094199],"type":"Point"},"properties":{"osm_id":"7671106518","tag":{"amenity":"recycling","operator":"Cannone","recycling:clothes":"yes","recycling_type":"container"}},"type":"Feature"},
	{"geometry":{"coordinates":[15.208576,37.093879],"type":"Point"},"properties":{"osm_id":"7671106519","tag":{"amenity":"recycling","operator":"Cannone","recycling:clothes":"yes","recycling_type":"container"}},"type":"Feature"},
	{"geometry":{"coordinates":[15.208574,37.093864],"type":"Point"},"properties":{"osm_id":"7671106520","tag":{"amenity":"recycling","operator":"Cannone","recycling:clothes":"yes","recycling_type":"container"}},"type":"Feature"},
	{"geometry":{"coordinates":[15.274949,37.091938],"type":"Point"},"properties":{"osm_id":"7674273296","tag":{"amenity":"recycling","operator":"Cannone","recycling:clothes":"yes","recycling_type":"container"}},"type":"Feature"},
	{"geometry":{"coordinates":[15.274931,37.09194],"type":"Point"},"properties":{"osm_id":"7674273297","tag":{"amenity":"recycling","operator":"Cannone","recycling:clothes":"yes","recycling_type":"container"}},"type":"Feature"},
	{"geometry":{"coordinates":[15.274913,37.091942],"type":"Point"},"properties":{"osm_id":"7674273298","tag":{"amenity":"recycling","operator":"Cannone","recycling:clothes":"yes","recycling_type":"container"}},"type":"Feature"},
	{"geometry":{"coordinates":[15.27302,37.094379],"type":"Point"},"properties":{"osm_id":"7677747319","tag":{"amenity":"recycling","operator":"Cannone","recycling:clothes":"yes","recycling_type":"container"}},"type":"Feature"},
	{"geometry":{"coordinates":[15.273006,37.0944],"type":"Point"},"properties":{"osm_id":"7677747320","tag":{"amenity":"recycling","operator":"Cannone","recycling:clothes":"yes","recycling_type":"container"}},"type":"Feature"},
	{"geometry":{"coordinates":[15.28069,37.092948],"type":"Point"},"properties":{"osm_id":"7770363926","tag":{"amenity":"recycling","operator":"Cannone","recycling:clothes":"yes","recycling_type":"container"}},"type":"Feature"},
	{"geometry":{"coordinates":[15.280674,37.092947],"type":"Point"},"properties":{"osm_id":"7770363927","tag":{"amenity":"recycling","operator":"Cannone","recycling:clothes":"yes","recycling_type":"container"}},"type":"Feature"},
	{"geometry":{"coordinates":[15.273012,37.09439],"type":"Point"},"properties":{"osm_id":"7784547416","tag":{"amenity":"recycling","operator":"Cannone","recycling:clothes":"yes","recycling_type":"container"}},"type":"Feature"},
	{"geometry":{"coordinates":[15.272999,37.094411],"type":"Point"},"properties":{"osm_id":"7784547417","tag":{"amenity":"recycling","operator":"Cannone","recycling:clothes":"yes","recycling_type":"container"}},"type":"Feature"}
]
}
