{
"type": "FeatureCollection",
"features": [
	{"geometry":{"coordinates":[15.263436,37.060992],"type":"Point"},"properties":{"barrier":"gate","osm_id":"6493240065","tag":{"addr:housenumber":"9","addr:street":"Viale Pantanelli"}},"type":"Feature"},
	{"geometry":{"coordinates":[15.262431,37.06127],"type":"Point"},"properties":{"barrier":"gate","osm_id":"6493240118","tag":{"addr:housenumber":"22","addr:street":"Viale Pantanelli"}},"type":"Feature"},
	{"geometry":{"coordinates":[15.263219,37.061186],"type":"Point"},"properties":{"barrier":"gate","osm_id":"6493240119","tag":{"addr:housenumber":"20","addr:street":"Viale Pantanelli"}},"type":"Feature"},
	{"geometry":{"coordinates":[15.257383,37.041489],"type":"Point"},"properties":{"barrier":"gate","osm_id":"7603983756"},"type":"Feature"},
	{"geometry":{"coordinates":[15.287276,37.086408],"type":"Point"},"properties":{"osm_id":"7666996539","tag":{"amenity":"recycling","operator":"Cannone","recycling:clothes":"yes","recycling_type":"container"}},"type":"Feature"},
	{"geometry":{"coordinates":[15.284272,37.08526],"type":"Point"},"properties":{"osm_id":"7666996540","tag":{"amenity":"recycling","operator":"Cannone","recycling:clothes":"yes","recycling_type":"container"}},"type":"Feature"},
	{"geometry":{"coordinates":[15.284258,37.085273],"type":"Point"},"properties":{"osm_id":"7666996541","tag":{"amenity":"recycling","operator":"Cannone","recycling:clothes":"yes","recycling_type":"container"}},"type":"Feature"},
	{"geometry":{"coordinates":[15.279135,37.085588],"type":"Point"},"properties":{"osm_id":"7666996568","tag":{"amenity":"recycling","operator":"Cannone","recycling:clothes":"yes","recycling_type":"container"}},"type":"Feature"},
	{"geometry":{"coordinates":[15.279131,37.085595],"type":"Point"},"properties":{"osm_id":"7666996569","tag":{"amenity":"recycling","operator":"Cannone","recycling:clothes":"yes","recycling_type":"container"}},"type":"Feature"},
	{"geometry":{"coordinates":[15.279128,37.085602],"type":"Point"},"properties":{"osm_id":"7666996570","tag":{"amenity":"recycling","operator":"Cannone","recycling:clothes":"yes","recycling_type":"container"}},"type":"Feature"},
	{"geometry":{"coordinates":[15.27862,37.083304],"type":"Point"},"properties":{"osm_id":"7666996574","tag":{"amenity":"recycling","operator":"Cannone","recycling:clothes":"yes","recycling_type":"container"}},"type":"Feature"},
	{"geometry":{"coordinates":[15.278608,37.083302],"type":"Point"},"properties":{"osm_id":"7666996575","tag":{"amenity":"recycling","operator":"Cannone","recycling:clothes":"yes","recycling_type":"container"}},"type":"Feature"},
	{"geometry":{"coordinates":[15.273394,37.08647],"type":"Point"},"properties":{"osm_id":"7666996576","tag":{"amenity":"recycling","operator":"Cannone","recycling:clothes":"yes","recycling_type":"container"}},"type":"Feature"},
	{"geometry":{"coordinates":[15.273387,37.086487],"type":"Point"},"properties":{"osm_id":"7666996577","tag":{"amenity":"recycling","operator":"Cannone","recycling:clothes":"yes","recycling_type":"container"}},"type":"Feature"},
	{"geometry":{"coordinates":[15.280169,37.084785],"type":"Point"},"properties":{"osm_id":"7666996585","tag":{"amenity":"recycling","operator":"Cannone","recycling:clothes":"yes","recycling_type":"container"}},"type":"Feature"},
	{"geometry":{"coordinates":[15.287776,37.080707],"type":"Point"},"properties":{"osm_id":"7666996588","tag":{"amenity":"recycling","operator":"Cannone","recycling:clothes":"yes","recycling_type":"container"}},"type":"Feature"},
	{"geometry":{"coordinates":[15.28777,37.080719],"type":"Point"},"properties":{"osm_id":"7666996589","tag":{"amenity":"recycling","operator":"Cannone","recycling:clothes":"yes","recycling_type":"container"}},"type":"Feature"},
	{"geometry":{"coordinates":[15.287699,37.084739],"type":"Point"},"properties":{"osm_id":"7666996596","tag":{"amenity":"recycling","operator":"Cannone","recycling:clothes":"yes","recycling_type":"container"}},"type":"Feature"},
	{"geometry":{"coordinates":[15.287704,37.084729],"type":"Point"},"properties":{"osm_id":"7666996597","tag":{"amenity":"recycling","operator":"Cannone","recycling:clothes":"yes","recycling_type":"container"}},"type":"Feature"},
	{"geometry":{"coordinates":[15.292125,37.089239],"type":"Point"},"properties":{"osm_id":"7666996607","tag":{"amenity":"recycling","operator":"Cannone","recycling:clothes":"yes","recycling_type":"container"}},"type":"Feature"},
	{"geometry":{"coordinates":[15.292769,37.086244],"type":"Point"},"properties":{"osm_id":"7666996610","tag":{"amenity":"recycling","operator":"Cannone","recycling:clothes":"yes","recycling_type":"container"}},"type":"Feature"},
	{"geometry":{"coordinates":[15.278304,37.067155],"type":"Point"},"properties":{"osm_id":"7671105605","tag":{"amenity":"recycling","operator":"Cannone","recycling:clothes":"yes","recycling_type":"container"}},"type":"Feature"},
	{"geometry":{"coordinates":[15.289105,37.065848],"type":"Point"},"properties":{"osm_id":"7671105611","tag":{"amenity":"recycling","operator":"Cannone","recycling:clothes":"yes","recycling_type":"container"}},"type":"Feature"},
	{"geometry":{"coordinates":[15.289088,37.065852],"type":"Point"},"properties":{"osm_id":"7671105612","tag":{"amenity":"recycling","operator":"Cannone","recycling:clothes":"yes","recycling_type":"container"}},"type":"Feature"},
	{"geometry":{"coordinates":[15.282373,37.0701],"type":"Point"},"properties":{"osm_id":"7671105637","tag":{"amenity":"recycling","operator":"Cannone","recycling:clothes":"yes","recycling_type":"container"}},"type":"Feature"},
	{"geometry":{"coordinates":[15.28237,37.070121],"type":"Point"},"properties":{"osm_id":"7671105638","tag":{"amenity":"recycling","operator":"Cannone","recycling:clothes":"yes","recycling_type":"container"}},"type":"Feature"},
	{"geometry":{"coordinates":[15.284881,37.071371],"type":"Point"},"properties":{"osm_id":"7671105671","tag":{"amenity":"recycling","operator":"Cannone","recycling:clothes":"yes","recycling_type":"container"}},"type":"Feature"},
	{"geometry":{"coordinates":[15.284874,37.071392],"type":"Point"},"properties":{"osm_id":"7671105672","tag":{"amenity":"recycling","operator":"Cannone","recycling:clothes":"yes","recycling_type":"container"}},"type":"Feature"},
	{"geometry":{"coordinates":[15.283873,37.072385],"type":"Point"},"properties":{"osm_id":"7671106388","tag":{"amenity":"recycling","operator":"Cannone","recycling:clothes":"yes","recycling_type":"container"}},"type":"Feature"},
	{"geometry":{"coordinates":[15.292098,37.071834],"type":"Point"},"properties":{"osm_id":"7671106461","tag":{"amenity":"recycling","operator":"Cannone","recycling:clothes":"yes","recycling_type":"container"}},"type":"Feature"},
	{"geometry":{"coordinates":[15.292096,37.071846],"type":"Point"},"properties":{"osm_id":"7671106462","tag":{"amenity":"recycling","operator":"Cannone","recycling:clothes":"yes","recycling_type":"container"}},"type":"Feature"},
	{"geometry":{"coordinates":[15.289475,37.075376],"type":"Point"},"properties":{"osm_id":"7671106471","tag":{"amenity":"recycling","operator":"Cannone","recycling:clothes":"yes","recycling_type":"container"}},"type":"Feature"},
	{"geometry":{"coordinates":[15.289451,37.075377],"type":"Point"},"properties":{"osm_id":"7671106472","tag":{"amenity":"recycling","operator":"Cannone","recycling:clothes":"yes","recycling_type":"container"}},"type":"Feature"},
	{"geometry":{"coordinates":[15.282105,37.075565],"type":"Point"},"properties":{"osm_id":"7671106489","tag":{"amenity":"recycling","operator":"Cannone","recycling:clothes":"yes","recycling_type":"container"}},"type":"Feature"},
	{"geometry":{"coordinates":[15.283754,37.077919],"type":"Point"},"properties":{"osm_id":"7671106492","tag":{"amenity":"recycling","operator":"Cannone","recycling:clothes":"yes","recycling_type":"container"}},"type":"Feature"},
	{"geometry":{"coordinates":[15.283738,37.077909],"type":"Point"},"properties":{"osm_id":"7671106493","tag":{"amenity":"recycling","operator":"Cannone","recycling:clothes":"yes","recycling_type":"container"}},"type":"Feature"},
	{"geometry":{"coordinates":[15.280834,37.082906],"type":"Point"},"properties":{"osm_id":"7671106501","tag":{"amenity":"recycling","operator":"Cannone","recycling:clothes":"yes","recycling_type":"container"}},"type":"Feature"},
	{"geometry":{"coordinates":[15.28082,37.082925],"type":"Point"},"properties":{"osm_id":"7671106502","tag":{"amenity":"recycling","operator":"Cannone","recycling:clothes":"yes","recycling_type":"container"}},"type":"Feature"},
	{"geometry":{"coordinates":[15.281077,37.068061],"type":"Point"},"properties":{"osm_id":"7674273291","tag":{"amenity":"recycling","operator":"Cannone","recycling:clothes":"yes","recycling_type":"container"}},"type":"Feature"},
	{"geometry":{"coordinates":[15.281101,37.06804],"type":"Point"},"properties":{"osm_id":"7674273292","tag":{"amenity":"recycling","operator":"Cannone","recycling:clothes":"yes","recycling_type":"container"}},"type":"Feature"},
	{"geometry":{"coordinates":[15.265032,37.089126],"type":"Point"},"properties":{"osm_id":"7674273307","tag":{"amenity":"recycling","operator":"Cannone","recycling:clothes":"yes","recycling_type":"container"}},"type":"Feature"},
	{"geometry":{"coordinates":[15.265022,37.089107],"type":"Point"},"properties":{"osm_id":"7674273308","tag":{"amenity":"recycling","operator":"Cannone","recycling:clothes":"yes","recycling_type":"container"}},"type":"Feature"},
	{"geometry":{"coordinates":[15.264339,37.087606],"type":"Point"},"properties":{"osm_id":"7674273309","tag":{"amenity":"recycling","operator":"Cannone","recycling:clothes":"yes","recycling_type":"container"}},"type":"Feature"},
	{"geometry":{"coordinates":[15.252825,37.08513],"type":"Point"},"properties":{"osm_id":"7674273330","tag":{"amenity":"recycling","operator":"Cannone","recycling:clothes":"yes","recycling_type":"container"}},"type":"Feature"},
	{"geometry":{"coordinates":[15.25284,37.085128],"type":"Point"},"properties":{"osm_id":"7674273331","tag":{"amenity":"recycling","operator":"Cannone","recycling:clothes":"yes","recycling_type":"container"}},"type":"Feature"},
	{"geometry":{"coordinates":[15.25283,37.082184],"type":"Point"},"properties":{"osm_id":"7674273332","tag":{"amenity":"recycling","operator":"Cannone","recycling:clothes":"yes","recycling_type":"container"}},"type":"Feature"},
	{"geometry":{"coordinates":[15.252828,37.082206],"type":"Point"},"properties":{"osm_id":"7674273333","tag":{"amenity":"recycling","operator":"Cannone","recycling:clothes":"yes","recycling_type":"container"}},"type":"Feature"},
	{"geometry":{"coordinates":[15.28885,37.068738],"type":"Point"},"properties":{"osm_id":"7674445886","tag":{"amenity":"recycling","operator":"Cannone","recycling:clothes":"yes","recycling_type":"container"}},"type":"Feature"},
	{"geometry":{"coordinates":[15.288833,37.068732],"type":"Point"},"properties":{"osm_id":"7674445889","tag":{"amenity":"recycling","operator":"Cannone","recycling:clothes":"yes","recycling_type":"container"}},"type":"Feature"},
	{"geometry":{"coordinates":[15.290755,37.082503],"type":"Point"},"properties":{"osm_id":"7677750854","tag":{"amenity":"recycling","operator":"Cannone","recycling:clothes":"yes","recycling_type":"container"}},"type":"Feature"},
	{"geometry":{"coordinates":[15.281067,37.081067],"type":"Point"},"properties":{"osm_id":"7681202854","tag":{"amenity":"recycling","operator":"Cannone","recycling:clothes":"yes","recycling_type":"container"}},"type":"Feature"},
	{"geometry":{"coordinates":[15.272565,37.079282],"type":"Point"},"properties":{"osm_id":"7687669460","tag":{"amenity":"recycling","operator":"Cannone","recycling:clothes":"yes","recycling_type":"container"}},"type":"Feature"},
	{"geometry":{"coordinates":[15.272548,37.07927],"type":"Point"},"properties":{"osm_id":"7687669461","tag":{"amenity":"recycling","operator":"Cannone","recycling:clothes":"yes","recycling_type":"container"}},"type":"Feature"},
	{"geometry":{"coordinates":[15.281527,37.079677],"type":"Point"},"properties":{"osm_id":"7733998525","tag":{"amenity":"recycling","operator":"Cannone","recycling:clothes":"yes","recycling_type":"container"}},"type":"Feature"},
	{"geometry":{"coordinates":[15.20822,37.089202],"type":"Point"},"properties":{"osm_id":"7744145011","tag":{"amenity":"recycling","operator":"Cannone","recycling:clothes":"yes","recycling_type":"container"}},"type":"Feature"},
	{"geometry":{"coordinates":[15.208207,37.089187],"type":"Point"},"properties":{"osm_id":"7744145012","tag":{"amenity":"recycling","operator":"Cannone","recycling:clothes":"yes","recycling_type":"container"}},"type":"Feature"},
	{"geometry":{"coordinates":[15.276542,37.081173],"type":"Point"},"properties":{"osm_id":"7795113995","tag":{"amenity":"recycling","operator":"Cannone","recycling:clothes":"yes","recycling_type":"container"}},"type":"Feature"},
	{"geometry":{"coordinates":[15.276521,37.081167],"type":"Point"},"properties":{"osm_id":"7795113996","tag":{"amenity":"recycling","operator":"Cannone","recycling:clothes":"yes","recycling_type":"container"}},"type":"Feature"},
	{"geometry":{"coordinates":[15.276504,37.081162],"type":"Point"},"properties":{"osm_id":"7795113997","tag":{"amenity":"recycling","operator":"Cannone","recycling:clothes":"yes","recycling_type":"container"}},"type":"Feature"},
	{"geometry":{"coordinates":[15.28515,37.089277],"type":"Point"},"properties":{"osm_id":"7834612575","tag":{"amenity":"recycling","operator":"Cannone","recycling:clothes":"yes","recycling_type":"container"}},"type":"Feature"},
	{"geometry":{"coordinates":[15.285152,37.08926],"type":"Point"},"properties":{"osm_id":"7834612576","tag":{"amenity":"recycling","operator":"Cannone","recycling:clothes":"yes","recycling_type":"container"}},"type":"Feature"},
	{"geometry":{"coordinates":[15.281529,37.079667],"type":"Point"},"properties":{"osm_id":"7859811825","tag":{"amenity":"recycling","operator":"Cannone","recycling:clothes":"yes","recycling_type":"container"}},"type":"Feature"},
	{"geometry":{"coordinates":[15.281068,37.081061],"type":"Point"},"properties":{"osm_id":"7859811826","tag":{"amenity":"recycling","operator":"Cannone","recycling:clothes":"yes","recycling_type":"container"}},"type":"Feature"},
	{"geometry":{"coordinates":[15.292771,37.086232],"type":"Point"},"properties":{"osm_id":"7873229695","tag":{"amenity":"recycling","operator":"Cannone","recycling:clothes":"yes","recycling_type":"container"}},"type":"Feature"},
	{"geometry":{"coordinates":[15.281089,37.068051],"type":"Point"},"properties":{"osm_id":"7887469820","tag":{"amenity":"recycling","operator":"Cannone","recycling:clothes":"yes","recycling_type":"container"}},"type":"Feature"},
	{"geometry":{"coordinates":[15.281112,37.068029],"type":"Point"},"properties":{"osm_id":"7887469821","tag":{"amenity":"recycling","operator":"Cannone","recycling:clothes":"yes","recycling_type":"container"}},"type":"Feature"}
]
}
