{
"type": "FeatureCollection",
"features": [
	{"geometry":{"coordinates":[15.242126,-4.338094],"type":"Point"},"properties":{"osm_id":"7031401040","tag":{"amenity":"recycling","description":"Compost bin","recycling:green_waste":"yes","recycling_type":"container"}},"type":"Feature"},
	{"geometry":{"coordinates":[15.274953,-4.320686],"type":"Point"},"properties":{"osm_id":"7798794892","tag":{"amenity":"waste_basket"}},"type":"Feature"},
	{"geometry":{"coordinates":[15.275459,-4.320208],"type":"Point"},"properties":{"osm_id":"7798794893","tag":{"amenity":"waste_basket"}},"type":"Feature"},
	{"geometry":{"coordinates":[15.275514,-4.319769],"type":"Point"},"properties":{"osm_id":"7798794894","tag":{"amenity":"waste_basket"}},"type":"Feature"},
	{"geometry":{"coordinates":[15.274864,-4.320139],"type":"Point"},"properties":{"osm_id":"7798794895","tag":{"amenity":"waste_basket"}},"type":"Feature"},
	{"geometry":{"coordinates":[15.274677,-4.318831],"type":"Point"},"properties":{"osm_id":"7798794896","tag":{"amenity":"waste_basket"}},"type":"Feature"},
	{"geometry":{"coordinates":[15.274555,-4.31942],"type":"Point"},"properties":{"osm_id":"7798794897","tag":{"amenity":"waste_basket"}},"type":"Feature"},
	{"geometry":{"coordinates":[15.291241,-4.308909],"type":"Point"},"properties":{"osm_id":"7814152769","tag":{"amenity":"waste_basket"}},"type":"Feature"},
	{"geometry":{"coordinates":[15.290761,-4.309267],"type":"Point"},"properties":{"osm_id":"7814152770","tag":{"amenity":"waste_basket"}},"type":"Feature"},
	{"geometry":{"coordinates":[15.2784,-4.317196],"type":"Point"},"properties":{"osm_id":"7814152771","tag":{"amenity":"waste_basket"}},"type":"Feature"},
	{"geometry":{"coordinates":[15.277016,-4.318931],"type":"Point"},"properties":{"osm_id":"7817428863","tag":{"amenity":"waste_basket"}},"type":"Feature"},
	{"geometry":{"coordinates":[15.27679,-4.319163],"type":"Point"},"properties":{"osm_id":"7817428864","tag":{"amenity":"waste_basket","description":"ancienne poubelle verte ab\u00c3\u00aem\u00c3\u00a9e"}},"type":"Feature"},
	{"geometry":{"coordinates":[15.276391,-4.319513],"type":"Point"},"properties":{"osm_id":"7817428865","tag":{"amenity":"waste_basket"}},"type":"Feature"},
	{"geometry":{"coordinates":[15.27452,-4.319734],"type":"Point"},"properties":{"osm_id":"7817428866","tag":{"amenity":"waste_basket"}},"type":"Feature"},
	{"geometry":{"coordinates":[15.274433,-4.320952],"type":"Point"},"properties":{"osm_id":"7817428867","tag":{"amenity":"waste_basket"}},"type":"Feature"},
	{"geometry":{"coordinates":[15.273671,-4.321559],"type":"Point"},"properties":{"osm_id":"7817428868","tag":{"amenity":"waste_basket"}},"type":"Feature"},
	{"geometry":{"coordinates":[15.273811,-4.32116],"type":"Point"},"properties":{"osm_id":"7817428869","tag":{"amenity":"waste_basket"}},"type":"Feature"},
	{"geometry":{"coordinates":[15.272915,-4.321821],"type":"Point"},"properties":{"osm_id":"7817428870","tag":{"amenity":"waste_basket"}},"type":"Feature"},
	{"geometry":{"coordinates":[15.27798,-4.317593],"type":"Point"},"properties":{"osm_id":"7914415032","tag":{"amenity":"waste_basket"}},"type":"Feature"},
	{"geometry":{"coordinates":[15.277508,-4.318012],"type":"Point"},"properties":{"osm_id":"7914415033","tag":{"amenity":"waste_basket"}},"type":"Feature"},
	{"geometry":{"coordinates":[15.277008,-4.318481],"type":"Point"},"properties":{"osm_id":"7914415034","tag":{"amenity":"waste_basket"}},"type":"Feature"}
]
}
