{
"type": "FeatureCollection",
"features": [
	{"geometry":{"coordinates":[0.725719,45.181246],"type":"Point"},"properties":{"osm_id":"3704377141","tag":{"leaf_type":"broadleaved","natural":"tree"}},"type":"Feature"},
	{"geometry":{"coordinates":[0.715313,45.185265],"type":"Point"},"properties":{"name":"Marroniers","osm_id":"3860706569","tag":{"height":"12","leaf_type":"broadleaved","name:fr":"Marroniers","natural":"tree"}},"type":"Feature"},
	{"geometry":{"coordinates":[0.715385,45.185288],"type":"Point"},"properties":{"name":"Marroniers","osm_id":"3860706570","tag":{"height":"12","leaf_type":"broadleaved","name:fr":"Marroniers","natural":"tree"}},"type":"Feature"},
	{"geometry":{"coordinates":[0.715256,45.185337],"type":"Point"},"properties":{"name":"Marroniers","osm_id":"3860706571","tag":{"height":"12","leaf_type":"broadleaved","name:fr":"Marroniers","natural":"tree"}},"type":"Feature"},
	{"geometry":{"coordinates":[0.715428,45.185354],"type":"Point"},"properties":{"name":"Marroniers","osm_id":"3860706572","tag":{"height":"12","leaf_type":"broadleaved","name:fr":"Marroniers","natural":"tree"}},"type":"Feature"},
	{"geometry":{"coordinates":[0.715207,45.185424],"type":"Point"},"properties":{"name":"Marroniers","osm_id":"3860706573","tag":{"height":"12","leaf_type":"broadleaved","name:fr":"Marroniers","natural":"tree"}},"type":"Feature"},
	{"geometry":{"coordinates":[0.715482,45.185437],"type":"Point"},"properties":{"name":"Marroniers","osm_id":"3860706574","tag":{"height":"12","leaf_cycle":"deciduous","leaf_type":"broadleaved","name:fr":"Marroniers","natural":"tree"}},"type":"Feature"},
	{"geometry":{"coordinates":[0.715447,45.185491],"type":"Point"},"properties":{"name":"Marroniers","osm_id":"3860706576","tag":{"height":"12","leaf_cycle":"deciduous","leaf_type":"broadleaved","name:fr":"Marroniers","natural":"tree"}},"type":"Feature"},
	{"geometry":{"coordinates":[0.715013,45.185919],"type":"Point"},"properties":{"osm_id":"3860706591","tag":{"natural":"tree"}},"type":"Feature"},
	{"geometry":{"coordinates":[0.715103,45.185945],"type":"Point"},"properties":{"osm_id":"3860706592","tag":{"natural":"tree"}},"type":"Feature"},
	{"geometry":{"coordinates":[0.714996,45.185951],"type":"Point"},"properties":{"name":"6","osm_id":"3860706593","tag":{"natural":"tree"}},"type":"Feature"},
	{"geometry":{"coordinates":[0.714978,45.18598],"type":"Point"},"properties":{"osm_id":"3860706594","tag":{"natural":"tree"}},"type":"Feature"},
	{"geometry":{"coordinates":[0.715077,45.185995],"type":"Point"},"properties":{"osm_id":"3860706595","tag":{"natural":"tree"}},"type":"Feature"},
	{"geometry":{"coordinates":[0.721494,45.185362],"type":"Point"},"properties":{"osm_id":"4079682182","tag":{"natural":"tree"}},"type":"Feature"},
	{"geometry":{"coordinates":[0.721407,45.185132],"type":"Point"},"properties":{"osm_id":"4079682183","tag":{"natural":"tree"}},"type":"Feature"},
	{"geometry":{"coordinates":[0.721613,45.185356],"type":"Point"},"properties":{"osm_id":"4079682184","tag":{"natural":"tree"}},"type":"Feature"},
	{"geometry":{"coordinates":[0.721599,45.185262],"type":"Point"},"properties":{"osm_id":"4079682185","tag":{"natural":"tree"}},"type":"Feature"},
	{"geometry":{"coordinates":[0.721612,45.185166],"type":"Point"},"properties":{"osm_id":"4079682186","tag":{"natural":"tree"}},"type":"Feature"},
	{"geometry":{"coordinates":[0.713645,45.180782],"type":"Point"},"properties":{"osm_id":"4139150618","tag":{"natural":"tree"}},"type":"Feature"},
	{"geometry":{"coordinates":[0.713731,45.180582],"type":"Point"},"properties":{"osm_id":"4139153404","tag":{"natural":"tree"}},"type":"Feature"},
	{"geometry":{"coordinates":[0.721443,45.184296],"type":"Point"},"properties":{"osm_id":"4139186691","tag":{"natural":"tree"}},"type":"Feature"},
	{"geometry":{"coordinates":[0.721697,45.184289],"type":"Point"},"properties":{"osm_id":"4139186692","tag":{"natural":"tree"}},"type":"Feature"},
	{"geometry":{"coordinates":[0.738761,45.180878],"type":"Point"},"properties":{"osm_id":"4142423585","tag":{"natural":"tree"}},"type":"Feature"},
	{"geometry":{"coordinates":[0.739335,45.181475],"type":"Point"},"properties":{"osm_id":"4142423586","tag":{"natural":"tree"}},"type":"Feature"},
	{"geometry":{"coordinates":[0.71785,45.185323],"type":"Point"},"properties":{"name":"Arbre de la Libert\u00c3\u00a9","osm_id":"4185396445","tag":{"natural":"tree"}},"type":"Feature"},
	{"geometry":{"coordinates":[0.717946,45.185214],"type":"Point"},"properties":{"osm_id":"4189061751","tag":{"natural":"tree"}},"type":"Feature"},
	{"geometry":{"coordinates":[0.718026,45.185295],"type":"Point"},"properties":{"osm_id":"4189061752","tag":{"natural":"tree"}},"type":"Feature"},
	{"geometry":{"coordinates":[0.718275,45.185165],"type":"Point"},"properties":{"osm_id":"4189061753","tag":{"natural":"tree"}},"type":"Feature"},
	{"geometry":{"coordinates":[0.718274,45.185055],"type":"Point"},"properties":{"osm_id":"4189061754","tag":{"natural":"tree"}},"type":"Feature"},
	{"geometry":{"coordinates":[0.718203,45.185094],"type":"Point"},"properties":{"osm_id":"4189061755","tag":{"natural":"tree"}},"type":"Feature"},
	{"geometry":{"coordinates":[0.718636,45.184855],"type":"Point"},"properties":{"osm_id":"4189061757","tag":{"natural":"tree"}},"type":"Feature"},
	{"geometry":{"coordinates":[0.718013,45.184516],"type":"Point"},"properties":{"osm_id":"4189061759","tag":{"natural":"tree"}},"type":"Feature"},
	{"geometry":{"coordinates":[0.719215,45.184876],"type":"Point"},"properties":{"osm_id":"4189061760","tag":{"natural":"tree"}},"type":"Feature"},
	{"geometry":{"coordinates":[0.715871,45.184839],"type":"Point"},"properties":{"osm_id":"4189069367","tag":{"natural":"tree"}},"type":"Feature"},
	{"geometry":{"coordinates":[0.716356,45.184933],"type":"Point"},"properties":{"osm_id":"4189069368","tag":{"natural":"tree"}},"type":"Feature"},
	{"geometry":{"coordinates":[0.716147,45.184706],"type":"Point"},"properties":{"osm_id":"4189069369","tag":{"natural":"tree"}},"type":"Feature"},
	{"geometry":{"coordinates":[0.716027,45.184928],"type":"Point"},"properties":{"osm_id":"4189069370","tag":{"natural":"tree"}},"type":"Feature"},
	{"geometry":{"coordinates":[0.71589,45.18501],"type":"Point"},"properties":{"osm_id":"4189069371","tag":{"natural":"tree"}},"type":"Feature"},
	{"geometry":{"coordinates":[0.716656,45.184368],"type":"Point"},"properties":{"osm_id":"4279860771","tag":{"natural":"tree"}},"type":"Feature"},
	{"geometry":{"coordinates":[0.716803,45.184366],"type":"Point"},"properties":{"osm_id":"4279860772","tag":{"natural":"tree"}},"type":"Feature"},
	{"geometry":{"coordinates":[0.716487,45.184491],"type":"Point"},"properties":{"osm_id":"4279860773","tag":{"natural":"tree"}},"type":"Feature"},
	{"geometry":{"coordinates":[0.716086,45.184546],"type":"Point"},"properties":{"osm_id":"4279860775","tag":{"natural":"tree"}},"type":"Feature"},
	{"geometry":{"coordinates":[0.71582,45.184682],"type":"Point"},"properties":{"osm_id":"4279860786","tag":{"natural":"tree"}},"type":"Feature"},
	{"geometry":{"coordinates":[0.715638,45.184736],"type":"Point"},"properties":{"osm_id":"4279860787","tag":{"natural":"tree"}},"type":"Feature"},
	{"geometry":{"coordinates":[0.715738,45.184783],"type":"Point"},"properties":{"osm_id":"4279860788","tag":{"natural":"tree"}},"type":"Feature"},
	{"geometry":{"coordinates":[0.719279,45.184846],"type":"Point"},"properties":{"osm_id":"4279860795","tag":{"natural":"tree"}},"type":"Feature"},
	{"geometry":{"coordinates":[0.717751,45.184893],"type":"Point"},"properties":{"osm_id":"4279860800","tag":{"natural":"tree"}},"type":"Feature"},
	{"geometry":{"coordinates":[0.716167,45.184914],"type":"Point"},"properties":{"osm_id":"4279860803","tag":{"natural":"tree"}},"type":"Feature"},
	{"geometry":{"coordinates":[0.719369,45.184919],"type":"Point"},"properties":{"osm_id":"4279860805","tag":{"natural":"tree"}},"type":"Feature"},
	{"geometry":{"coordinates":[0.717692,45.184948],"type":"Point"},"properties":{"osm_id":"4279860806","tag":{"natural":"tree"}},"type":"Feature"},
	{"geometry":{"coordinates":[0.717732,45.184938],"type":"Point"},"properties":{"osm_id":"4279860807","tag":{"natural":"tree"}},"type":"Feature"},
	{"geometry":{"coordinates":[0.719286,45.184947],"type":"Point"},"properties":{"osm_id":"4279860811","tag":{"natural":"tree"}},"type":"Feature"},
	{"geometry":{"coordinates":[0.717529,45.185006],"type":"Point"},"properties":{"osm_id":"4279860815","tag":{"natural":"tree"}},"type":"Feature"},
	{"geometry":{"coordinates":[0.715863,45.185046],"type":"Point"},"properties":{"osm_id":"4279860819","tag":{"natural":"tree"}},"type":"Feature"},
	{"geometry":{"coordinates":[0.716435,45.185046],"type":"Point"},"properties":{"osm_id":"4279860820","tag":{"natural":"tree"}},"type":"Feature"},
	{"geometry":{"coordinates":[0.717751,45.185065],"type":"Point"},"properties":{"osm_id":"4279860821","tag":{"natural":"tree"}},"type":"Feature"},
	{"geometry":{"coordinates":[0.717559,45.185072],"type":"Point"},"properties":{"osm_id":"4279860822","tag":{"natural":"tree"}},"type":"Feature"},
	{"geometry":{"coordinates":[0.717976,45.1851],"type":"Point"},"properties":{"osm_id":"4279860823","tag":{"natural":"tree"}},"type":"Feature"},
	{"geometry":{"coordinates":[0.715859,45.185153],"type":"Point"},"properties":{"osm_id":"4279860827","tag":{"natural":"tree"}},"type":"Feature"},
	{"geometry":{"coordinates":[0.71756,45.18513],"type":"Point"},"properties":{"osm_id":"4279860828","tag":{"natural":"tree"}},"type":"Feature"},
	{"geometry":{"coordinates":[0.717916,45.185135],"type":"Point"},"properties":{"osm_id":"4279860829","tag":{"natural":"tree"}},"type":"Feature"},
	{"geometry":{"coordinates":[0.717371,45.185166],"type":"Point"},"properties":{"osm_id":"4279860830","tag":{"natural":"tree"}},"type":"Feature"},
	{"geometry":{"coordinates":[0.717851,45.185168],"type":"Point"},"properties":{"osm_id":"4279860831","tag":{"natural":"tree"}},"type":"Feature"},
	{"geometry":{"coordinates":[0.717283,45.185192],"type":"Point"},"properties":{"osm_id":"4279860835","tag":{"natural":"tree"}},"type":"Feature"},
	{"geometry":{"coordinates":[0.717643,45.185188],"type":"Point"},"properties":{"osm_id":"4279860836","tag":{"natural":"tree"}},"type":"Feature"},
	{"geometry":{"coordinates":[0.717216,45.185212],"type":"Point"},"properties":{"osm_id":"4279860837","tag":{"natural":"tree"}},"type":"Feature"},
	{"geometry":{"coordinates":[0.715762,45.185388],"type":"Point"},"properties":{"osm_id":"4279860849","tag":{"natural":"tree"}},"type":"Feature"},
	{"geometry":{"coordinates":[0.715806,45.185444],"type":"Point"},"properties":{"osm_id":"4279860851","tag":{"natural":"tree"}},"type":"Feature"},
	{"geometry":{"coordinates":[0.720465,45.18564],"type":"Point"},"properties":{"osm_id":"4279860854","tag":{"natural":"tree"}},"type":"Feature"},
	{"geometry":{"coordinates":[0.720025,45.18567],"type":"Point"},"properties":{"osm_id":"4279860855","tag":{"natural":"tree"}},"type":"Feature"},
	{"geometry":{"coordinates":[0.72008,45.18575],"type":"Point"},"properties":{"osm_id":"4279860856","tag":{"natural":"tree"}},"type":"Feature"},
	{"geometry":{"coordinates":[0.722226,45.184326],"type":"Point"},"properties":{"osm_id":"4292413848","tag":{"leaf_type":"broadleaved","natural":"tree"}},"type":"Feature"},
	{"geometry":{"coordinates":[0.721925,45.184932],"type":"Point"},"properties":{"osm_id":"4423874283","tag":{"natural":"tree"}},"type":"Feature"},
	{"geometry":{"coordinates":[0.720702,45.184072],"type":"Point"},"properties":{"osm_id":"4889698346","tag":{"natural":"tree"}},"type":"Feature"},
	{"geometry":{"coordinates":[0.720859,45.184032],"type":"Point"},"properties":{"osm_id":"4889698347","tag":{"natural":"tree"}},"type":"Feature"},
	{"geometry":{"coordinates":[0.720809,45.183976],"type":"Point"},"properties":{"osm_id":"4889698348","tag":{"natural":"tree"}},"type":"Feature"},
	{"geometry":{"coordinates":[0.704188,45.183881],"type":"Point"},"properties":{"osm_id":"4892022394","tag":{"natural":"tree"}},"type":"Feature"},
	{"geometry":{"coordinates":[0.704278,45.183813],"type":"Point"},"properties":{"osm_id":"4892022395","tag":{"natural":"tree"}},"type":"Feature"},
	{"geometry":{"coordinates":[0.70435,45.183745],"type":"Point"},"properties":{"osm_id":"4892022396","tag":{"natural":"tree"}},"type":"Feature"},
	{"geometry":{"coordinates":[0.72308,45.183927],"type":"Point"},"properties":{"osm_id":"5685820748","tag":{"natural":"tree"}},"type":"Feature"},
	{"geometry":{"coordinates":[0.723225,45.183933],"type":"Point"},"properties":{"osm_id":"5685820749","tag":{"natural":"tree"}},"type":"Feature"},
	{"geometry":{"coordinates":[0.723351,45.18387],"type":"Point"},"properties":{"osm_id":"5685820750","tag":{"natural":"tree"}},"type":"Feature"},
	{"geometry":{"coordinates":[0.743141,45.20351],"type":"Point"},"properties":{"osm_id":"5745279737","tag":{"natural":"tree"}},"type":"Feature"},
	{"geometry":{"coordinates":[0.743291,45.203519],"type":"Point"},"properties":{"osm_id":"5745279738","tag":{"natural":"tree"}},"type":"Feature"},
	{"geometry":{"coordinates":[0.743627,45.203482],"type":"Point"},"properties":{"osm_id":"5745279739","tag":{"natural":"tree"}},"type":"Feature"},
	{"geometry":{"coordinates":[0.743836,45.203465],"type":"Point"},"properties":{"osm_id":"5745279740","tag":{"natural":"tree"}},"type":"Feature"},
	{"geometry":{"coordinates":[0.710648,45.184628],"type":"Point"},"properties":{"osm_id":"5779887069","tag":{"natural":"tree"}},"type":"Feature"},
	{"geometry":{"coordinates":[0.710676,45.184528],"type":"Point"},"properties":{"osm_id":"5779887070","tag":{"natural":"tree"}},"type":"Feature"},
	{"geometry":{"coordinates":[0.710766,45.184484],"type":"Point"},"properties":{"osm_id":"5779887071","tag":{"natural":"tree"}},"type":"Feature"},
	{"geometry":{"coordinates":[0.710758,45.184423],"type":"Point"},"properties":{"osm_id":"5779887072","tag":{"natural":"tree"}},"type":"Feature"},
	{"geometry":{"coordinates":[0.710819,45.184386],"type":"Point"},"properties":{"osm_id":"5779887073","tag":{"natural":"tree"}},"type":"Feature"},
	{"geometry":{"coordinates":[0.712257,45.182039],"type":"Point"},"properties":{"osm_id":"5779887074","tag":{"natural":"tree"}},"type":"Feature"},
	{"geometry":{"coordinates":[0.712314,45.181979],"type":"Point"},"properties":{"osm_id":"5779887075","tag":{"natural":"tree"}},"type":"Feature"},
	{"geometry":{"coordinates":[0.742288,45.19082],"type":"Point"},"properties":{"osm_id":"6286359834","tag":{"natural":"tree"}},"type":"Feature"},
	{"geometry":{"coordinates":[0.742285,45.190777],"type":"Point"},"properties":{"osm_id":"6286359835","tag":{"natural":"tree"}},"type":"Feature"},
	{"geometry":{"coordinates":[0.74233,45.190827],"type":"Point"},"properties":{"osm_id":"6286359836","tag":{"natural":"tree"}},"type":"Feature"},
	{"geometry":{"coordinates":[0.74237,45.19081],"type":"Point"},"properties":{"osm_id":"6286359837","tag":{"natural":"tree"}},"type":"Feature"},
	{"geometry":{"coordinates":[0.742329,45.190786],"type":"Point"},"properties":{"osm_id":"6286359838","tag":{"natural":"tree"}},"type":"Feature"},
	{"geometry":{"coordinates":[0.742413,45.190802],"type":"Point"},"properties":{"osm_id":"6286359839","tag":{"natural":"tree"}},"type":"Feature"},
	{"geometry":{"coordinates":[0.742369,45.190776],"type":"Point"},"properties":{"osm_id":"6286359840","tag":{"natural":"tree"}},"type":"Feature"},
	{"geometry":{"coordinates":[0.742217,45.190942],"type":"Point"},"properties":{"osm_id":"6293663022","tag":{"natural":"tree"}},"type":"Feature"},
	{"geometry":{"coordinates":[0.742301,45.19094],"type":"Point"},"properties":{"osm_id":"6293663023","tag":{"natural":"tree"}},"type":"Feature"},
	{"geometry":{"coordinates":[0.74236,45.190937],"type":"Point"},"properties":{"osm_id":"6293663024","tag":{"natural":"tree"}},"type":"Feature"},
	{"geometry":{"coordinates":[0.74242,45.190934],"type":"Point"},"properties":{"osm_id":"6293663025","tag":{"natural":"tree"}},"type":"Feature"},
	{"geometry":{"coordinates":[0.742478,45.190933],"type":"Point"},"properties":{"osm_id":"6293663026","tag":{"natural":"tree"}},"type":"Feature"},
	{"geometry":{"coordinates":[0.72485,45.180537],"type":"Point"},"properties":{"osm_id":"6377895630","tag":{"natural":"tree"}},"type":"Feature"},
	{"geometry":{"coordinates":[0.724887,45.180487],"type":"Point"},"properties":{"osm_id":"6377895631","tag":{"natural":"tree"}},"type":"Feature"},
	{"geometry":{"coordinates":[0.724921,45.180433],"type":"Point"},"properties":{"osm_id":"6377895632","tag":{"natural":"tree"}},"type":"Feature"},
	{"geometry":{"coordinates":[0.724955,45.180389],"type":"Point"},"properties":{"osm_id":"6377895633","tag":{"natural":"tree"}},"type":"Feature"},
	{"geometry":{"coordinates":[0.724997,45.180458],"type":"Point"},"properties":{"osm_id":"6377895634","tag":{"natural":"tree"}},"type":"Feature"},
	{"geometry":{"coordinates":[0.725032,45.180533],"type":"Point"},"properties":{"osm_id":"6377895635","tag":{"natural":"tree"}},"type":"Feature"},
	{"geometry":{"coordinates":[0.724998,45.180588],"type":"Point"},"properties":{"osm_id":"6377895636","tag":{"natural":"tree"}},"type":"Feature"},
	{"geometry":{"coordinates":[0.724926,45.180633],"type":"Point"},"properties":{"osm_id":"6377895637","tag":{"natural":"tree"}},"type":"Feature"},
	{"geometry":{"coordinates":[0.725083,45.180594],"type":"Point"},"properties":{"osm_id":"6377895638","tag":{"natural":"tree"}},"type":"Feature"},
	{"geometry":{"coordinates":[0.712853,45.179744],"type":"Point"},"properties":{"osm_id":"6380190771","tag":{"denotation":"decoration","leaf_type":"broadleaved","natural":"tree"}},"type":"Feature"},
	{"geometry":{"coordinates":[0.71894,45.179597],"type":"Point"},"properties":{"osm_id":"6477887784","tag":{"description":"pin","leaf_type":"needleleaved","natural":"tree"}},"type":"Feature"},
	{"geometry":{"coordinates":[0.719323,45.179385],"type":"Point"},"properties":{"osm_id":"6477937584","tag":{"leaf_type":"broadleaved","natural":"tree"}},"type":"Feature"},
	{"geometry":{"coordinates":[0.719492,45.181043],"type":"Point"},"properties":{"osm_id":"6477969434","tag":{"natural":"tree"}},"type":"Feature"},
	{"geometry":{"coordinates":[0.719481,45.180981],"type":"Point"},"properties":{"osm_id":"6477969435","tag":{"natural":"tree"}},"type":"Feature"},
	{"geometry":{"coordinates":[0.719373,45.180568],"type":"Point"},"properties":{"osm_id":"6477969437","tag":{"natural":"tree"}},"type":"Feature"},
	{"geometry":{"coordinates":[0.719368,45.18068],"type":"Point"},"properties":{"osm_id":"6477969438","tag":{"natural":"tree"}},"type":"Feature"},
	{"geometry":{"coordinates":[0.719384,45.180791],"type":"Point"},"properties":{"osm_id":"6495071265","tag":{"natural":"tree"}},"type":"Feature"},
	{"geometry":{"coordinates":[0.719754,45.180907],"type":"Point"},"properties":{"osm_id":"6495071266","tag":{"natural":"tree"}},"type":"Feature"},
	{"geometry":{"coordinates":[0.719813,45.181203],"type":"Point"},"properties":{"osm_id":"6495071267","tag":{"natural":"tree"}},"type":"Feature"},
	{"geometry":{"coordinates":[0.719493,45.17973],"type":"Point"},"properties":{"osm_id":"6495071272","tag":{"natural":"tree"}},"type":"Feature"},
	{"geometry":{"coordinates":[0.719455,45.179663],"type":"Point"},"properties":{"osm_id":"6495071273","tag":{"natural":"tree"}},"type":"Feature"},
	{"geometry":{"coordinates":[0.719508,45.179553],"type":"Point"},"properties":{"osm_id":"6495071274","tag":{"natural":"tree"}},"type":"Feature"},
	{"geometry":{"coordinates":[0.719663,45.179595],"type":"Point"},"properties":{"osm_id":"6495071275","tag":{"natural":"tree"}},"type":"Feature"},
	{"geometry":{"coordinates":[0.719509,45.179598],"type":"Point"},"properties":{"osm_id":"6495071276","tag":{"natural":"tree"}},"type":"Feature"},
	{"geometry":{"coordinates":[0.719536,45.179647],"type":"Point"},"properties":{"osm_id":"6495071277","tag":{"natural":"tree"}},"type":"Feature"},
	{"geometry":{"coordinates":[0.717999,45.179541],"type":"Point"},"properties":{"osm_id":"6495071278","tag":{"natural":"tree"}},"type":"Feature"},
	{"geometry":{"coordinates":[0.717725,45.179493],"type":"Point"},"properties":{"osm_id":"6495071786","tag":{"natural":"tree"}},"type":"Feature"},
	{"geometry":{"coordinates":[0.717839,45.17945],"type":"Point"},"properties":{"osm_id":"6495071787","tag":{"natural":"tree"}},"type":"Feature"},
	{"geometry":{"coordinates":[0.717926,45.179415],"type":"Point"},"properties":{"osm_id":"6495071788","tag":{"natural":"tree"}},"type":"Feature"},
	{"geometry":{"coordinates":[0.717997,45.179384],"type":"Point"},"properties":{"osm_id":"6495071789","tag":{"natural":"tree"}},"type":"Feature"},
	{"geometry":{"coordinates":[0.718089,45.179358],"type":"Point"},"properties":{"osm_id":"6495071790","tag":{"natural":"tree"}},"type":"Feature"},
	{"geometry":{"coordinates":[0.718198,45.179318],"type":"Point"},"properties":{"osm_id":"6495071791","tag":{"natural":"tree"}},"type":"Feature"},
	{"geometry":{"coordinates":[0.718282,45.179282],"type":"Point"},"properties":{"osm_id":"6495071792","tag":{"natural":"tree"}},"type":"Feature"},
	{"geometry":{"coordinates":[0.718373,45.179253],"type":"Point"},"properties":{"osm_id":"6495071793","tag":{"natural":"tree"}},"type":"Feature"},
	{"geometry":{"coordinates":[0.718471,45.179209],"type":"Point"},"properties":{"osm_id":"6495071794","tag":{"natural":"tree"}},"type":"Feature"},
	{"geometry":{"coordinates":[0.718576,45.179177],"type":"Point"},"properties":{"osm_id":"6495071795","tag":{"natural":"tree"}},"type":"Feature"},
	{"geometry":{"coordinates":[0.718733,45.17911],"type":"Point"},"properties":{"osm_id":"6495071796","tag":{"natural":"tree"}},"type":"Feature"},
	{"geometry":{"coordinates":[0.718826,45.179074],"type":"Point"},"properties":{"osm_id":"6495071797","tag":{"natural":"tree"}},"type":"Feature"},
	{"geometry":{"coordinates":[0.718906,45.17904],"type":"Point"},"properties":{"osm_id":"6495071798","tag":{"natural":"tree"}},"type":"Feature"},
	{"geometry":{"coordinates":[0.719001,45.179005],"type":"Point"},"properties":{"osm_id":"6495071799","tag":{"natural":"tree"}},"type":"Feature"},
	{"geometry":{"coordinates":[0.719097,45.17897],"type":"Point"},"properties":{"osm_id":"6495071800","tag":{"natural":"tree"}},"type":"Feature"},
	{"geometry":{"coordinates":[0.719186,45.178947],"type":"Point"},"properties":{"osm_id":"6495071801","tag":{"natural":"tree"}},"type":"Feature"},
	{"geometry":{"coordinates":[0.719465,45.178872],"type":"Point"},"properties":{"osm_id":"6495071802","tag":{"natural":"tree"}},"type":"Feature"},
	{"geometry":{"coordinates":[0.719509,45.178849],"type":"Point"},"properties":{"osm_id":"6495071803","tag":{"natural":"tree"}},"type":"Feature"},
	{"geometry":{"coordinates":[0.71957,45.178831],"type":"Point"},"properties":{"osm_id":"6495071804","tag":{"natural":"tree"}},"type":"Feature"},
	{"geometry":{"coordinates":[0.719629,45.178809],"type":"Point"},"properties":{"osm_id":"6495071805","tag":{"natural":"tree"}},"type":"Feature"},
	{"geometry":{"coordinates":[0.719879,45.178775],"type":"Point"},"properties":{"osm_id":"6495071806","tag":{"natural":"tree"}},"type":"Feature"},
	{"geometry":{"coordinates":[0.719918,45.178697],"type":"Point"},"properties":{"osm_id":"6495071807","tag":{"natural":"tree"}},"type":"Feature"},
	{"geometry":{"coordinates":[0.719871,45.180051],"type":"Point"},"properties":{"osm_id":"6495071811","tag":{"natural":"tree"}},"type":"Feature"},
	{"geometry":{"coordinates":[0.719927,45.179557],"type":"Point"},"properties":{"osm_id":"6495084309","tag":{"natural":"tree"}},"type":"Feature"},
	{"geometry":{"coordinates":[0.718909,45.180736],"type":"Point"},"properties":{"osm_id":"6495084326","tag":{"natural":"tree"}},"type":"Feature"},
	{"geometry":{"coordinates":[0.715307,45.175781],"type":"Point"},"properties":{"osm_id":"6495109485","tag":{"natural":"tree"}},"type":"Feature"},
	{"geometry":{"coordinates":[0.715297,45.175724],"type":"Point"},"properties":{"osm_id":"6495109504","tag":{"natural":"tree"}},"type":"Feature"},
	{"geometry":{"coordinates":[0.715365,45.175568],"type":"Point"},"properties":{"osm_id":"6495109516","tag":{"natural":"tree"}},"type":"Feature"},
	{"geometry":{"coordinates":[0.71539,45.175566],"type":"Point"},"properties":{"osm_id":"6495109517","tag":{"natural":"tree"}},"type":"Feature"},
	{"geometry":{"coordinates":[0.715412,45.175567],"type":"Point"},"properties":{"osm_id":"6495109518","tag":{"natural":"tree"}},"type":"Feature"},
	{"geometry":{"coordinates":[0.715431,45.175568],"type":"Point"},"properties":{"osm_id":"6495109519","tag":{"natural":"tree"}},"type":"Feature"},
	{"geometry":{"coordinates":[0.715452,45.175568],"type":"Point"},"properties":{"osm_id":"6495109520","tag":{"natural":"tree"}},"type":"Feature"},
	{"geometry":{"coordinates":[0.719918,45.180127],"type":"Point"},"properties":{"osm_id":"6505401185","tag":{"natural":"tree"}},"type":"Feature"},
	{"geometry":{"coordinates":[0.741403,45.181905],"type":"Point"},"properties":{"osm_id":"6747043304","tag":{"natural":"tree"}},"type":"Feature"},
	{"geometry":{"coordinates":[0.740368,45.18132],"type":"Point"},"properties":{"osm_id":"6747043305","tag":{"natural":"tree"}},"type":"Feature"},
	{"geometry":{"coordinates":[0.72004,45.18466],"type":"Point"},"properties":{"osm_id":"6853184130","tag":{"natural":"tree"}},"type":"Feature"},
	{"geometry":{"coordinates":[0.72013,45.184639],"type":"Point"},"properties":{"osm_id":"6853184131","tag":{"natural":"tree"}},"type":"Feature"},
	{"geometry":{"coordinates":[0.720083,45.184774],"type":"Point"},"properties":{"osm_id":"6853184132","tag":{"natural":"tree"}},"type":"Feature"},
	{"geometry":{"coordinates":[0.720176,45.184756],"type":"Point"},"properties":{"osm_id":"6853184133","tag":{"natural":"tree"}},"type":"Feature"},
	{"geometry":{"coordinates":[0.720126,45.18486],"type":"Point"},"properties":{"osm_id":"6853184134","tag":{"natural":"tree"}},"type":"Feature"},
	{"geometry":{"coordinates":[0.720202,45.184844],"type":"Point"},"properties":{"osm_id":"6853184135","tag":{"natural":"tree"}},"type":"Feature"},
	{"geometry":{"coordinates":[0.78394,45.200934],"type":"Point"},"properties":{"osm_id":"6987292906","tag":{"natural":"tree"}},"type":"Feature"},
	{"geometry":{"coordinates":[0.728805,45.179684],"type":"Point"},"properties":{"osm_id":"7488389828","tag":{"natural":"tree"}},"type":"Feature"},
	{"geometry":{"coordinates":[0.728907,45.179678],"type":"Point"},"properties":{"osm_id":"7488389829","tag":{"natural":"tree"}},"type":"Feature"},
	{"geometry":{"coordinates":[0.729082,45.17967],"type":"Point"},"properties":{"osm_id":"7488389830","tag":{"natural":"tree"}},"type":"Feature"},
	{"geometry":{"coordinates":[0.728893,45.179843],"type":"Point"},"properties":{"osm_id":"7488389831","tag":{"natural":"tree"}},"type":"Feature"}
]
}
