{
"type": "FeatureCollection",
"features": [
	{"geometry":{"coordinates":[53.123417,56.838641],"type":"Point"},"properties":{"osm_id":"1214797233","tag":{"amenity":"waste_disposal","waste":"trash"}},"type":"Feature"},
	{"geometry":{"coordinates":[53.154029,56.840408],"type":"Point"},"properties":{"name":"\u00d0\u0098\u00d0\u00b6\u00d1\u0082\u00d1\u0080\u00d0\u00b0\u00d0\u00bd\u00d1\u0081\u00d1\u0081\u00d1\u0082\u00d1\u0080\u00d0\u00be\u00d0\u00b9","osm_id":"4874588925","tag":{"amenity":"recycling","phone":"772244","website":"http://izhts18.ru"}},"type":"Feature"},
	{"geometry":{"coordinates":[53.128691,56.831661],"type":"Point"},"properties":{"osm_id":"5109159361","tag":{"amenity":"waste_disposal"}},"type":"Feature"},
	{"geometry":{"coordinates":[53.117212,56.843521],"type":"Point"},"properties":{"osm_id":"6077152751","tag":{"amenity":"recycling","recycling:scrap_metal":"yes","recycling_type":"centre"}},"type":"Feature"},
	{"geometry":{"coordinates":[53.111236,56.847434],"type":"Point"},"properties":{"osm_id":"7189356941","tag":{"amenity":"waste_disposal"}},"type":"Feature"},
	{"geometry":{"coordinates":[53.151438,56.832722],"type":"Point"},"properties":{"osm_id":"7598056325","tag":{"amenity":"waste_disposal"}},"type":"Feature"}
]
}
