{
"type": "FeatureCollection",
"features": [
	{"geometry":{"coordinates":[-117.637892,33.509791],"type":"Point"},"properties":{"osm_id":"4381514561","tag":{"amenity":"waste_basket"}},"type":"Feature"},
	{"geometry":{"coordinates":[-117.661431,33.524873],"type":"Point"},"properties":{"osm_id":"7853571072","tag":{"addr:city":"San Juan Capistrano","addr:housenumber":"26852","addr:postcode":"92675","addr:street":"Canyon Crest Road","building":"yes","height":"4.45"}},"type":"Feature"},
	{"geometry":{"coordinates":[-117.645875,33.525471],"type":"Point"},"properties":{"osm_id":"7853614424","tag":{"addr:city":"San Juan Capistrano","addr:housenumber":"27876","addr:postcode":"92675","addr:street":"Horseshoe Bend","building":"yes","height":"7.33"}},"type":"Feature"},
	{"geometry":{"coordinates":[-117.644957,33.520956],"type":"Point"},"properties":{"osm_id":"7853614436","tag":{"addr:city":"San Juan Capistrano","addr:housenumber":"27801","addr:postcode":"92675","addr:street":"Golden Ridge Lane","building":"yes","height":"8.83"}},"type":"Feature"},
	{"geometry":{"coordinates":[-117.639007,33.555805],"type":"Point"},"properties":{"osm_id":"7857962826","tag":{"addr:city":"Ladera Ranch","addr:housenumber":"18","addr:postcode":"92694","addr:street":"Marston Lane","building":"yes","height":"6.92"}},"type":"Feature"}
]
}
