{
"type": "FeatureCollection",
"features": [
	{"geometry":{"coordinates":[-117.620213,33.432701],"type":"Point"},"properties":{"osm_id":"4346624823","tag":{"amenity":"waste_basket"}},"type":"Feature"},
	{"geometry":{"coordinates":[-117.624418,33.43359],"type":"Point"},"properties":{"osm_id":"4346624885","tag":{"amenity":"waste_basket"}},"type":"Feature"},
	{"geometry":{"coordinates":[-117.634214,33.433507],"type":"Point"},"properties":{"osm_id":"4375944344","tag":{"amenity":"waste_basket"}},"type":"Feature"},
	{"geometry":{"coordinates":[-117.634964,33.434884],"type":"Point"},"properties":{"osm_id":"4375944920","tag":{"amenity":"waste_basket"}},"type":"Feature"},
	{"geometry":{"coordinates":[-117.635582,33.435493],"type":"Point"},"properties":{"osm_id":"4375944975","tag":{"amenity":"waste_basket"}},"type":"Feature"},
	{"geometry":{"coordinates":[-117.635721,33.436737],"type":"Point"},"properties":{"osm_id":"4375945113","tag":{"amenity":"waste_basket"}},"type":"Feature"},
	{"geometry":{"coordinates":[-117.635813,33.43678],"type":"Point"},"properties":{"osm_id":"4375945115","tag":{"amenity":"waste_basket"}},"type":"Feature"},
	{"geometry":{"coordinates":[-117.635903,33.437015],"type":"Point"},"properties":{"osm_id":"4375945145","tag":{"amenity":"waste_basket"}},"type":"Feature"},
	{"geometry":{"coordinates":[-117.633925,33.437224],"type":"Point"},"properties":{"osm_id":"4375945163","tag":{"amenity":"waste_basket"}},"type":"Feature"},
	{"geometry":{"coordinates":[-117.63228,33.439659],"type":"Point"},"properties":{"osm_id":"4375945197","tag":{"amenity":"waste_basket"}},"type":"Feature"},
	{"geometry":{"coordinates":[-117.631931,33.440323],"type":"Point"},"properties":{"osm_id":"4375945205","tag":{"amenity":"waste_basket"}},"type":"Feature"},
	{"geometry":{"coordinates":[-117.634858,33.434165],"type":"Point"},"properties":{"osm_id":"4377829250","tag":{"amenity":"waste_basket"}},"type":"Feature"},
	{"geometry":{"coordinates":[-117.631204,33.434502],"type":"Point"},"properties":{"osm_id":"4377829255","tag":{"amenity":"waste_basket"}},"type":"Feature"},
	{"geometry":{"coordinates":[-117.632073,33.435557],"type":"Point"},"properties":{"osm_id":"4377829270","tag":{"amenity":"waste_basket"}},"type":"Feature"},
	{"geometry":{"coordinates":[-117.636253,33.435646],"type":"Point"},"properties":{"osm_id":"4377829272","tag":{"amenity":"waste_basket"}},"type":"Feature"},
	{"geometry":{"coordinates":[-117.636423,33.436084],"type":"Point"},"properties":{"osm_id":"4377829277","tag":{"amenity":"waste_basket"}},"type":"Feature"},
	{"geometry":{"coordinates":[-117.637444,33.436299],"type":"Point"},"properties":{"osm_id":"4377829280","tag":{"amenity":"waste_basket"}},"type":"Feature"},
	{"geometry":{"coordinates":[-117.636773,33.436656],"type":"Point"},"properties":{"osm_id":"4377831092","tag":{"amenity":"waste_basket"}},"type":"Feature"},
	{"geometry":{"coordinates":[-117.631403,33.437062],"type":"Point"},"properties":{"osm_id":"4377831114","tag":{"amenity":"waste_basket"}},"type":"Feature"},
	{"geometry":{"coordinates":[-117.637664,33.437195],"type":"Point"},"properties":{"osm_id":"4377831137","tag":{"amenity":"waste_basket"}},"type":"Feature"},
	{"geometry":{"coordinates":[-117.630134,33.437215],"type":"Point"},"properties":{"osm_id":"4377831142","tag":{"amenity":"waste_basket"}},"type":"Feature"},
	{"geometry":{"coordinates":[-117.636204,33.437281],"type":"Point"},"properties":{"osm_id":"4377831151","tag":{"amenity":"waste_basket"}},"type":"Feature"},
	{"geometry":{"coordinates":[-117.630213,33.437378],"type":"Point"},"properties":{"osm_id":"4377831173","tag":{"amenity":"waste_basket"}},"type":"Feature"},
	{"geometry":{"coordinates":[-117.636158,33.43759],"type":"Point"},"properties":{"osm_id":"4377831202","tag":{"amenity":"waste_basket"}},"type":"Feature"},
	{"geometry":{"coordinates":[-117.653727,33.459905],"type":"Point"},"properties":{"osm_id":"5037744229","tag":{"amenity":"waste_basket"}},"type":"Feature"},
	{"geometry":{"coordinates":[-117.634876,33.488066],"type":"Point"},"properties":{"osm_id":"6199494227","tag":{"amenity":"waste_basket"}},"type":"Feature"},
	{"geometry":{"coordinates":[-117.628345,33.47661],"type":"Point"},"properties":{"osm_id":"6245533300","tag":{"amenity":"waste_basket"}},"type":"Feature"},
	{"geometry":{"coordinates":[-117.628511,33.475365],"type":"Point"},"properties":{"osm_id":"6245533308","tag":{"amenity":"waste_basket"}},"type":"Feature"},
	{"geometry":{"coordinates":[-117.628648,33.473904],"type":"Point"},"properties":{"osm_id":"6245533310","tag":{"amenity":"waste_basket"}},"type":"Feature"},
	{"geometry":{"coordinates":[-117.619012,33.467412],"type":"Point"},"properties":{"osm_id":"7841105366","tag":{"addr:city":"San Clemente","addr:housenumber":"4434","addr:postcode":"92673","addr:street":"Mar Escarpa","building":"yes","height":"7.33"}},"type":"Feature"},
	{"geometry":{"coordinates":[-117.680466,33.484651],"type":"Point"},"properties":{"osm_id":"7844856117","tag":{"addr:city":"San Juan Capistrano","addr:housenumber":"32932","addr:postcode":"92675","addr:street":"Avenida del Rosal","building":"yes","height":"6.62"}},"type":"Feature"}
]
}
