{
"type": "FeatureCollection",
"features": [
	{"geometry":{"coordinates":[-46.706287,-23.501778],"type":"Point"},"properties":{"highway":"traffic_signals","osm_id":"453601576","tag":{"traffic_signals":"signal"}},"type":"Feature"},
	{"geometry":{"coordinates":[-46.706569,-23.501911],"type":"Point"},"properties":{"highway":"traffic_signals","osm_id":"453601580"},"type":"Feature"},
	{"geometry":{"coordinates":[-46.692596,-23.495661],"type":"Point"},"properties":{"highway":"crossing","osm_id":"708747594"},"type":"Feature"},
	{"geometry":{"coordinates":[-46.695336,-23.491576],"type":"Point"},"properties":{"highway":"crossing","osm_id":"832358172"},"type":"Feature"},
	{"geometry":{"coordinates":[-46.694351,-23.498924],"type":"Point"},"properties":{"highway":"traffic_signals","osm_id":"940877863"},"type":"Feature"},
	{"geometry":{"coordinates":[-46.694369,-23.50026],"type":"Point"},"properties":{"highway":"traffic_signals","osm_id":"940881666"},"type":"Feature"},
	{"geometry":{"coordinates":[-46.693389,-23.499134],"type":"Point"},"properties":{"highway":"crossing","osm_id":"1412580855"},"type":"Feature"},
	{"geometry":{"coordinates":[-46.695247,-23.491536],"type":"Point"},"properties":{"highway":"traffic_signals","osm_id":"1416727122"},"type":"Feature"},
	{"geometry":{"coordinates":[-46.69522,-23.491584],"type":"Point"},"properties":{"highway":"crossing","osm_id":"2522578800"},"type":"Feature"},
	{"geometry":{"coordinates":[-46.693317,-23.499199],"type":"Point"},"properties":{"highway":"crossing","osm_id":"2523209289"},"type":"Feature"},
	{"geometry":{"coordinates":[-46.72101,-23.563487],"type":"Point"},"properties":{"osm_id":"2562422348","tag":{"natural":"tree"}},"type":"Feature"},
	{"geometry":{"coordinates":[-46.674008,-23.531225],"type":"Point"},"properties":{"osm_id":"3475517995","tag":{"natural":"tree"}},"type":"Feature"},
	{"geometry":{"coordinates":[-46.671704,-23.529765],"type":"Point"},"properties":{"highway":"bus_stop","osm_id":"3475517996","tag":{"bench":"yes","natural":"tree"}},"type":"Feature"},
	{"geometry":{"coordinates":[-46.671704,-23.528954],"type":"Point"},"properties":{"osm_id":"3475517997","tag":{"natural":"tree"}},"type":"Feature"},
	{"geometry":{"coordinates":[-46.678465,-23.525857],"type":"Point"},"properties":{"osm_id":"3475517998","tag":{"natural":"tree"}},"type":"Feature"},
	{"geometry":{"coordinates":[-46.67858,-23.525846],"type":"Point"},"properties":{"osm_id":"3475517999","tag":{"natural":"tree"}},"type":"Feature"},
	{"geometry":{"coordinates":[-46.678756,-23.525824],"type":"Point"},"properties":{"osm_id":"3475518000","tag":{"natural":"tree"}},"type":"Feature"},
	{"geometry":{"coordinates":[-46.678969,-23.525808],"type":"Point"},"properties":{"osm_id":"3475518001","tag":{"natural":"tree"}},"type":"Feature"},
	{"geometry":{"coordinates":[-46.68727,-23.50469],"type":"Point"},"properties":{"osm_id":"3666140402","tag":{"natural":"tree"}},"type":"Feature"},
	{"geometry":{"coordinates":[-46.688165,-23.503676],"type":"Point"},"properties":{"osm_id":"3746286617","tag":{"natural":"tree"}},"type":"Feature"},
	{"geometry":{"coordinates":[-46.686984,-23.50054],"type":"Point"},"properties":{"osm_id":"3746286618","tag":{"natural":"tree"}},"type":"Feature"},
	{"geometry":{"coordinates":[-46.726085,-23.51664],"type":"Point"},"properties":{"osm_id":"3749171180","tag":{"natural":"tree"}},"type":"Feature"},
	{"geometry":{"coordinates":[-46.726765,-23.516811],"type":"Point"},"properties":{"osm_id":"3749171181","tag":{"natural":"tree"}},"type":"Feature"},
	{"geometry":{"coordinates":[-46.676264,-23.543175],"type":"Point"},"properties":{"osm_id":"3760770635","tag":{"natural":"tree"}},"type":"Feature"},
	{"geometry":{"coordinates":[-46.67659,-23.544448],"type":"Point"},"properties":{"osm_id":"3760770637","tag":{"natural":"tree"}},"type":"Feature"},
	{"geometry":{"coordinates":[-46.677337,-23.529786],"type":"Point"},"properties":{"osm_id":"3760808618","tag":{"natural":"tree"}},"type":"Feature"},
	{"geometry":{"coordinates":[-46.695348,-23.540695],"type":"Point"},"properties":{"osm_id":"3809385494","tag":{"natural":"tree"}},"type":"Feature"},
	{"geometry":{"coordinates":[-46.709662,-23.531398],"type":"Point"},"properties":{"osm_id":"3809385615","tag":{"natural":"tree"}},"type":"Feature"},
	{"geometry":{"coordinates":[-46.718868,-23.538998],"type":"Point"},"properties":{"osm_id":"3809393670","tag":{"natural":"tree"}},"type":"Feature"},
	{"geometry":{"coordinates":[-46.709603,-23.554948],"type":"Point"},"properties":{"osm_id":"3847894053","tag":{"natural":"tree"}},"type":"Feature"},
	{"geometry":{"coordinates":[-46.709743,-23.555173],"type":"Point"},"properties":{"osm_id":"3847894054","tag":{"natural":"tree"}},"type":"Feature"},
	{"geometry":{"coordinates":[-46.709933,-23.555518],"type":"Point"},"properties":{"osm_id":"3847894055","tag":{"natural":"tree"}},"type":"Feature"},
	{"geometry":{"coordinates":[-46.710081,-23.555761],"type":"Point"},"properties":{"osm_id":"3847894056","tag":{"natural":"tree"}},"type":"Feature"},
	{"geometry":{"coordinates":[-46.708429,-23.554707],"type":"Point"},"properties":{"osm_id":"3847900366","tag":{"natural":"tree"}},"type":"Feature"},
	{"geometry":{"coordinates":[-46.708135,-23.555364],"type":"Point"},"properties":{"osm_id":"3847900367","tag":{"natural":"tree"}},"type":"Feature"},
	{"geometry":{"coordinates":[-46.707832,-23.556005],"type":"Point"},"properties":{"osm_id":"3847900368","tag":{"natural":"tree"}},"type":"Feature"},
	{"geometry":{"coordinates":[-46.707692,-23.55629],"type":"Point"},"properties":{"osm_id":"3847900369","tag":{"natural":"tree"}},"type":"Feature"},
	{"geometry":{"coordinates":[-46.707479,-23.556786],"type":"Point"},"properties":{"osm_id":"3847900370","tag":{"natural":"tree"}},"type":"Feature"},
	{"geometry":{"coordinates":[-46.731412,-23.537456],"type":"Point"},"properties":{"osm_id":"3849551524","tag":{"natural":"tree"}},"type":"Feature"},
	{"geometry":{"coordinates":[-46.732915,-23.535738],"type":"Point"},"properties":{"osm_id":"3849551525","tag":{"natural":"tree"}},"type":"Feature"},
	{"geometry":{"coordinates":[-46.732023,-23.536742],"type":"Point"},"properties":{"osm_id":"3849551526","tag":{"natural":"tree"}},"type":"Feature"},
	{"geometry":{"coordinates":[-46.753131,-23.519816],"type":"Point"},"properties":{"osm_id":"3857560870","tag":{"natural":"tree"}},"type":"Feature"},
	{"geometry":{"coordinates":[-46.741359,-23.52307],"type":"Point"},"properties":{"osm_id":"3874054600","tag":{"natural":"tree"}},"type":"Feature"},
	{"geometry":{"coordinates":[-46.741638,-23.523237],"type":"Point"},"properties":{"osm_id":"3874054601","tag":{"natural":"tree"}},"type":"Feature"},
	{"geometry":{"coordinates":[-46.741885,-23.523444],"type":"Point"},"properties":{"osm_id":"3874054602","tag":{"natural":"tree"}},"type":"Feature"},
	{"geometry":{"coordinates":[-46.742158,-23.52366],"type":"Point"},"properties":{"osm_id":"3874054603","tag":{"natural":"tree"}},"type":"Feature"},
	{"geometry":{"coordinates":[-46.742357,-23.523817],"type":"Point"},"properties":{"osm_id":"3874054604","tag":{"natural":"tree"}},"type":"Feature"},
	{"geometry":{"coordinates":[-46.742582,-23.524012],"type":"Point"},"properties":{"osm_id":"3874054605","tag":{"natural":"tree"}},"type":"Feature"},
	{"geometry":{"coordinates":[-46.742788,-23.524164],"type":"Point"},"properties":{"osm_id":"3874054606","tag":{"natural":"tree"}},"type":"Feature"},
	{"geometry":{"coordinates":[-46.742987,-23.524339],"type":"Point"},"properties":{"osm_id":"3874054607","tag":{"natural":"tree"}},"type":"Feature"},
	{"geometry":{"coordinates":[-46.74325,-23.524535],"type":"Point"},"properties":{"osm_id":"3874054608","tag":{"natural":"tree"}},"type":"Feature"},
	{"geometry":{"coordinates":[-46.743767,-23.524983],"type":"Point"},"properties":{"osm_id":"3874054609","tag":{"natural":"tree"}},"type":"Feature"},
	{"geometry":{"coordinates":[-46.743545,-23.524794],"type":"Point"},"properties":{"osm_id":"3874054610","tag":{"natural":"tree"}},"type":"Feature"},
	{"geometry":{"coordinates":[-46.744009,-23.525155],"type":"Point"},"properties":{"osm_id":"3874054611","tag":{"natural":"tree"}},"type":"Feature"},
	{"geometry":{"coordinates":[-46.744221,-23.525347],"type":"Point"},"properties":{"osm_id":"3874054612","tag":{"natural":"tree"}},"type":"Feature"},
	{"geometry":{"coordinates":[-46.744462,-23.525536],"type":"Point"},"properties":{"osm_id":"3874054613","tag":{"natural":"tree"}},"type":"Feature"},
	{"geometry":{"coordinates":[-46.744733,-23.525726],"type":"Point"},"properties":{"osm_id":"3874054614","tag":{"natural":"tree"}},"type":"Feature"},
	{"geometry":{"coordinates":[-46.744966,-23.52591],"type":"Point"},"properties":{"osm_id":"3874054615","tag":{"natural":"tree"}},"type":"Feature"},
	{"geometry":{"coordinates":[-46.745208,-23.526095],"type":"Point"},"properties":{"osm_id":"3874054616","tag":{"natural":"tree"}},"type":"Feature"},
	{"geometry":{"coordinates":[-46.745401,-23.526245],"type":"Point"},"properties":{"osm_id":"3874054617","tag":{"natural":"tree"}},"type":"Feature"},
	{"geometry":{"coordinates":[-46.74565,-23.526437],"type":"Point"},"properties":{"osm_id":"3874054618","tag":{"natural":"tree"}},"type":"Feature"},
	{"geometry":{"coordinates":[-46.74587,-23.526611],"type":"Point"},"properties":{"osm_id":"3874054619","tag":{"natural":"tree"}},"type":"Feature"},
	{"geometry":{"coordinates":[-46.675512,-23.532481],"type":"Point"},"properties":{"osm_id":"3910694070","tag":{"natural":"tree"}},"type":"Feature"},
	{"geometry":{"coordinates":[-46.677128,-23.531231],"type":"Point"},"properties":{"osm_id":"3910694071","tag":{"natural":"tree"}},"type":"Feature"},
	{"geometry":{"coordinates":[-46.683926,-23.555616],"type":"Point"},"properties":{"osm_id":"3955715552","tag":{"natural":"tree"}},"type":"Feature"},
	{"geometry":{"coordinates":[-46.683839,-23.555694],"type":"Point"},"properties":{"osm_id":"3955715553","tag":{"natural":"tree"}},"type":"Feature"},
	{"geometry":{"coordinates":[-46.683759,-23.555777],"type":"Point"},"properties":{"osm_id":"3955715554","tag":{"natural":"tree"}},"type":"Feature"},
	{"geometry":{"coordinates":[-46.731149,-23.558106],"type":"Point"},"properties":{"osm_id":"3966031661","tag":{"natural":"tree"}},"type":"Feature"},
	{"geometry":{"coordinates":[-46.704989,-23.502101],"type":"Point"},"properties":{"osm_id":"4020200212","tag":{"natural":"tree"}},"type":"Feature"},
	{"geometry":{"coordinates":[-46.734127,-23.521393],"type":"Point"},"properties":{"osm_id":"4028081753","tag":{"natural":"tree"}},"type":"Feature"},
	{"geometry":{"coordinates":[-46.721856,-23.563631],"type":"Point"},"properties":{"osm_id":"4051972014","tag":{"leaf_type":"broadleaved","natural":"tree"}},"type":"Feature"},
	{"geometry":{"coordinates":[-46.721923,-23.563661],"type":"Point"},"properties":{"osm_id":"4060030632","tag":{"leaf_type":"broadleaved","natural":"tree"}},"type":"Feature"},
	{"geometry":{"coordinates":[-46.695802,-23.497257],"type":"Point"},"properties":{"osm_id":"4174443417","tag":{"natural":"tree"}},"type":"Feature"},
	{"geometry":{"coordinates":[-46.704494,-23.492177],"type":"Point"},"properties":{"osm_id":"4175139757","tag":{"natural":"tree"}},"type":"Feature"},
	{"geometry":{"coordinates":[-46.691015,-23.495219],"type":"Point"},"properties":{"osm_id":"4175140107","tag":{"natural":"tree"}},"type":"Feature"},
	{"geometry":{"coordinates":[-46.702094,-23.485701],"type":"Point"},"properties":{"osm_id":"4176934631","tag":{"natural":"tree"}},"type":"Feature"},
	{"geometry":{"coordinates":[-46.727346,-23.486811],"type":"Point"},"properties":{"osm_id":"4177338143","tag":{"natural":"tree"}},"type":"Feature"},
	{"geometry":{"coordinates":[-46.707778,-23.530529],"type":"Point"},"properties":{"osm_id":"4243758245","tag":{"natural":"tree"}},"type":"Feature"},
	{"geometry":{"coordinates":[-46.704573,-23.523634],"type":"Point"},"properties":{"osm_id":"4243765021","tag":{"natural":"tree"}},"type":"Feature"},
	{"geometry":{"coordinates":[-46.749853,-23.497118],"type":"Point"},"properties":{"osm_id":"4811331964","tag":{"natural":"tree"}},"type":"Feature"},
	{"geometry":{"coordinates":[-46.749803,-23.49671],"type":"Point"},"properties":{"osm_id":"4811331965","tag":{"natural":"tree"}},"type":"Feature"},
	{"geometry":{"coordinates":[-46.750146,-23.496296],"type":"Point"},"properties":{"osm_id":"4811331966","tag":{"natural":"tree"}},"type":"Feature"},
	{"geometry":{"coordinates":[-46.750205,-23.496201],"type":"Point"},"properties":{"osm_id":"4811331967","tag":{"natural":"tree"}},"type":"Feature"},
	{"geometry":{"coordinates":[-46.733347,-23.524105],"type":"Point"},"properties":{"osm_id":"4954993267","tag":{"natural":"tree"}},"type":"Feature"},
	{"geometry":{"coordinates":[-46.733339,-23.524171],"type":"Point"},"properties":{"osm_id":"4954993268","tag":{"natural":"tree"}},"type":"Feature"},
	{"geometry":{"coordinates":[-46.670775,-23.561471],"type":"Point"},"properties":{"osm_id":"5051504542","tag":{"natural":"tree"}},"type":"Feature"},
	{"geometry":{"coordinates":[-46.670699,-23.561538],"type":"Point"},"properties":{"osm_id":"5051504543","tag":{"natural":"tree"}},"type":"Feature"},
	{"geometry":{"coordinates":[-46.670612,-23.561614],"type":"Point"},"properties":{"osm_id":"5051504544","tag":{"natural":"tree"}},"type":"Feature"},
	{"geometry":{"coordinates":[-46.670515,-23.5617],"type":"Point"},"properties":{"osm_id":"5051504545","tag":{"natural":"tree"}},"type":"Feature"},
	{"geometry":{"coordinates":[-46.670417,-23.561786],"type":"Point"},"properties":{"osm_id":"5051504546","tag":{"natural":"tree"}},"type":"Feature"},
	{"geometry":{"coordinates":[-46.670323,-23.561869],"type":"Point"},"properties":{"osm_id":"5051504547","tag":{"natural":"tree"}},"type":"Feature"},
	{"geometry":{"coordinates":[-46.70829,-23.552949],"type":"Point"},"properties":{"osm_id":"5084063911","tag":{"natural":"tree"}},"type":"Feature"},
	{"geometry":{"coordinates":[-46.681035,-23.559902],"type":"Point"},"properties":{"osm_id":"5135469454","tag":{"natural":"tree"}},"type":"Feature"},
	{"geometry":{"coordinates":[-46.680907,-23.560081],"type":"Point"},"properties":{"osm_id":"5135469455","tag":{"natural":"tree"}},"type":"Feature"},
	{"geometry":{"coordinates":[-46.680794,-23.560239],"type":"Point"},"properties":{"osm_id":"5135469456","tag":{"natural":"tree"}},"type":"Feature"},
	{"geometry":{"coordinates":[-46.680665,-23.560419],"type":"Point"},"properties":{"osm_id":"5135469457","tag":{"natural":"tree"}},"type":"Feature"},
	{"geometry":{"coordinates":[-46.680354,-23.560855],"type":"Point"},"properties":{"osm_id":"5135469458","tag":{"natural":"tree"}},"type":"Feature"},
	{"geometry":{"coordinates":[-46.680232,-23.561026],"type":"Point"},"properties":{"osm_id":"5135469459","tag":{"natural":"tree"}},"type":"Feature"},
	{"geometry":{"coordinates":[-46.680104,-23.561205],"type":"Point"},"properties":{"osm_id":"5135469460","tag":{"natural":"tree"}},"type":"Feature"},
	{"geometry":{"coordinates":[-46.679977,-23.561383],"type":"Point"},"properties":{"osm_id":"5135469461","tag":{"natural":"tree"}},"type":"Feature"},
	{"geometry":{"coordinates":[-46.680541,-23.560594],"type":"Point"},"properties":{"osm_id":"5135469465","tag":{"natural":"tree"}},"type":"Feature"},
	{"geometry":{"coordinates":[-46.706064,-23.524167],"type":"Point"},"properties":{"osm_id":"5138649872","tag":{"natural":"tree"}},"type":"Feature"},
	{"geometry":{"coordinates":[-46.690383,-23.549522],"type":"Point"},"properties":{"osm_id":"5244777482","tag":{"natural":"tree"}},"type":"Feature"},
	{"geometry":{"coordinates":[-46.690363,-23.549575],"type":"Point"},"properties":{"osm_id":"5244777483","tag":{"natural":"tree"}},"type":"Feature"},
	{"geometry":{"coordinates":[-46.690344,-23.54962],"type":"Point"},"properties":{"osm_id":"5244777484","tag":{"natural":"tree"}},"type":"Feature"},
	{"geometry":{"coordinates":[-46.690315,-23.549675],"type":"Point"},"properties":{"osm_id":"5244777485","tag":{"natural":"tree"}},"type":"Feature"},
	{"geometry":{"coordinates":[-46.690271,-23.549724],"type":"Point"},"properties":{"osm_id":"5244777486","tag":{"natural":"tree"}},"type":"Feature"},
	{"geometry":{"coordinates":[-46.690224,-23.549762],"type":"Point"},"properties":{"osm_id":"5244777487","tag":{"natural":"tree"}},"type":"Feature"},
	{"geometry":{"coordinates":[-46.690165,-23.549797],"type":"Point"},"properties":{"osm_id":"5244777488","tag":{"natural":"tree"}},"type":"Feature"},
	{"geometry":{"coordinates":[-46.690096,-23.549833],"type":"Point"},"properties":{"osm_id":"5244777489","tag":{"natural":"tree"}},"type":"Feature"},
	{"geometry":{"coordinates":[-46.689958,-23.549901],"type":"Point"},"properties":{"osm_id":"5244777490","tag":{"natural":"tree"}},"type":"Feature"},
	{"geometry":{"coordinates":[-46.68988,-23.549937],"type":"Point"},"properties":{"osm_id":"5244777491","tag":{"natural":"tree"}},"type":"Feature"},
	{"geometry":{"coordinates":[-46.689721,-23.55001],"type":"Point"},"properties":{"osm_id":"5244777492","tag":{"natural":"tree"}},"type":"Feature"},
	{"geometry":{"coordinates":[-46.689645,-23.550043],"type":"Point"},"properties":{"osm_id":"5244777493","tag":{"natural":"tree"}},"type":"Feature"},
	{"geometry":{"coordinates":[-46.689516,-23.550093],"type":"Point"},"properties":{"osm_id":"5244777494","tag":{"natural":"tree"}},"type":"Feature"},
	{"geometry":{"coordinates":[-46.690027,-23.549867],"type":"Point"},"properties":{"osm_id":"5244777495","tag":{"natural":"tree"}},"type":"Feature"},
	{"geometry":{"coordinates":[-46.6898,-23.549973],"type":"Point"},"properties":{"osm_id":"5244777496","tag":{"natural":"tree"}},"type":"Feature"},
	{"geometry":{"coordinates":[-46.68958,-23.550068],"type":"Point"},"properties":{"osm_id":"5244777497","tag":{"natural":"tree"}},"type":"Feature"},
	{"geometry":{"coordinates":[-46.68299,-23.527407],"type":"Point"},"properties":{"osm_id":"5440100127","tag":{"natural":"tree"}},"type":"Feature"},
	{"geometry":{"coordinates":[-46.682947,-23.527348],"type":"Point"},"properties":{"osm_id":"5440100128","tag":{"natural":"tree"}},"type":"Feature"},
	{"geometry":{"coordinates":[-46.682907,-23.52729],"type":"Point"},"properties":{"osm_id":"5440100129","tag":{"natural":"tree"}},"type":"Feature"},
	{"geometry":{"coordinates":[-46.682861,-23.527226],"type":"Point"},"properties":{"osm_id":"5440100130","tag":{"natural":"tree"}},"type":"Feature"},
	{"geometry":{"coordinates":[-46.682824,-23.527174],"type":"Point"},"properties":{"osm_id":"5440100131","tag":{"natural":"tree"}},"type":"Feature"},
	{"geometry":{"coordinates":[-46.68278,-23.527112],"type":"Point"},"properties":{"osm_id":"5440100132","tag":{"natural":"tree"}},"type":"Feature"},
	{"geometry":{"coordinates":[-46.682739,-23.527054],"type":"Point"},"properties":{"osm_id":"5440100133","tag":{"natural":"tree"}},"type":"Feature"},
	{"geometry":{"coordinates":[-46.682694,-23.526992],"type":"Point"},"properties":{"osm_id":"5440100134","tag":{"natural":"tree"}},"type":"Feature"},
	{"geometry":{"coordinates":[-46.682654,-23.526935],"type":"Point"},"properties":{"osm_id":"5440100135","tag":{"natural":"tree"}},"type":"Feature"},
	{"geometry":{"coordinates":[-46.682612,-23.526876],"type":"Point"},"properties":{"osm_id":"5440100136","tag":{"natural":"tree"}},"type":"Feature"},
	{"geometry":{"coordinates":[-46.682569,-23.526815],"type":"Point"},"properties":{"osm_id":"5440100137","tag":{"natural":"tree"}},"type":"Feature"},
	{"geometry":{"coordinates":[-46.682528,-23.526758],"type":"Point"},"properties":{"osm_id":"5440100138","tag":{"natural":"tree"}},"type":"Feature"},
	{"geometry":{"coordinates":[-46.682485,-23.526697],"type":"Point"},"properties":{"osm_id":"5440100139","tag":{"natural":"tree"}},"type":"Feature"},
	{"geometry":{"coordinates":[-46.682441,-23.526635],"type":"Point"},"properties":{"osm_id":"5440100140","tag":{"natural":"tree"}},"type":"Feature"},
	{"geometry":{"coordinates":[-46.682399,-23.526576],"type":"Point"},"properties":{"osm_id":"5440100141","tag":{"natural":"tree"}},"type":"Feature"},
	{"geometry":{"coordinates":[-46.682005,-23.563842],"type":"Point"},"properties":{"osm_id":"5993983100","tag":{"natural":"tree"}},"type":"Feature"},
	{"geometry":{"coordinates":[-46.672339,-23.551931],"type":"Point"},"properties":{"osm_id":"6355890965","tag":{"natural":"tree"}},"type":"Feature"},
	{"geometry":{"coordinates":[-46.67355,-23.551643],"type":"Point"},"properties":{"osm_id":"6355890966","tag":{"natural":"tree"}},"type":"Feature"},
	{"geometry":{"coordinates":[-46.671411,-23.551863],"type":"Point"},"properties":{"osm_id":"6355890967","tag":{"natural":"tree"}},"type":"Feature"},
	{"geometry":{"coordinates":[-46.672333,-23.551146],"type":"Point"},"properties":{"osm_id":"6355890968","tag":{"natural":"tree"}},"type":"Feature"},
	{"geometry":{"coordinates":[-46.725481,-23.485855],"type":"Point"},"properties":{"osm_id":"6391294060","tag":{"natural":"tree"}},"type":"Feature"},
	{"geometry":{"coordinates":[-46.725462,-23.485724],"type":"Point"},"properties":{"osm_id":"6391294061","tag":{"natural":"tree"}},"type":"Feature"},
	{"geometry":{"coordinates":[-46.675687,-23.562883],"type":"Point"},"properties":{"osm_id":"6416214829","tag":{"natural":"tree"}},"type":"Feature"},
	{"geometry":{"coordinates":[-46.727146,-23.486746],"type":"Point"},"properties":{"osm_id":"6417220847","tag":{"natural":"tree"}},"type":"Feature"},
	{"geometry":{"coordinates":[-46.727554,-23.486717],"type":"Point"},"properties":{"osm_id":"6417220848","tag":{"natural":"tree"}},"type":"Feature"},
	{"geometry":{"coordinates":[-46.727175,-23.487044],"type":"Point"},"properties":{"osm_id":"6417220849","tag":{"natural":"tree"}},"type":"Feature"},
	{"geometry":{"coordinates":[-46.696592,-23.486024],"type":"Point"},"properties":{"highway":"street_lamp","osm_id":"6568824101","tag":{"lamp_type":"electric","power":"pole"}},"type":"Feature"},
	{"geometry":{"coordinates":[-46.690735,-23.551432],"type":"Point"},"properties":{"osm_id":"6611771609","tag":{"natural":"tree"}},"type":"Feature"},
	{"geometry":{"coordinates":[-46.690716,-23.551459],"type":"Point"},"properties":{"osm_id":"6611771610","tag":{"natural":"tree"}},"type":"Feature"},
	{"geometry":{"coordinates":[-46.690654,-23.551549],"type":"Point"},"properties":{"osm_id":"6611771611","tag":{"natural":"tree"}},"type":"Feature"},
	{"geometry":{"coordinates":[-46.690581,-23.551656],"type":"Point"},"properties":{"osm_id":"6611771612","tag":{"natural":"tree"}},"type":"Feature"},
	{"geometry":{"coordinates":[-46.690505,-23.551759],"type":"Point"},"properties":{"osm_id":"6611771613","tag":{"natural":"tree"}},"type":"Feature"},
	{"geometry":{"coordinates":[-46.690404,-23.551908],"type":"Point"},"properties":{"osm_id":"6611771615","tag":{"natural":"tree"}},"type":"Feature"},
	{"geometry":{"coordinates":[-46.688805,-23.558005],"type":"Point"},"properties":{"osm_id":"6620972451","tag":{"natural":"tree"}},"type":"Feature"},
	{"geometry":{"coordinates":[-46.688893,-23.55788],"type":"Point"},"properties":{"osm_id":"6620972452","tag":{"natural":"tree"}},"type":"Feature"},
	{"geometry":{"coordinates":[-46.688973,-23.557767],"type":"Point"},"properties":{"osm_id":"6620972453","tag":{"natural":"tree"}},"type":"Feature"},
	{"geometry":{"coordinates":[-46.689034,-23.557681],"type":"Point"},"properties":{"osm_id":"6620972454","tag":{"natural":"tree"}},"type":"Feature"},
	{"geometry":{"coordinates":[-46.694154,-23.563365],"type":"Point"},"properties":{"osm_id":"6621228492","tag":{"natural":"tree"}},"type":"Feature"},
	{"geometry":{"coordinates":[-46.692483,-23.562283],"type":"Point"},"properties":{"osm_id":"6621299633","tag":{"natural":"tree"}},"type":"Feature"},
	{"geometry":{"coordinates":[-46.691759,-23.563317],"type":"Point"},"properties":{"osm_id":"6621299634","tag":{"natural":"tree"}},"type":"Feature"},
	{"geometry":{"coordinates":[-46.691878,-23.563146],"type":"Point"},"properties":{"osm_id":"6621299635","tag":{"natural":"tree"}},"type":"Feature"},
	{"geometry":{"coordinates":[-46.691999,-23.562974],"type":"Point"},"properties":{"osm_id":"6621299636","tag":{"natural":"tree"}},"type":"Feature"},
	{"geometry":{"coordinates":[-46.692241,-23.562629],"type":"Point"},"properties":{"osm_id":"6621299637","tag":{"natural":"tree"}},"type":"Feature"},
	{"geometry":{"coordinates":[-46.692122,-23.562799],"type":"Point"},"properties":{"osm_id":"6621299638","tag":{"natural":"tree"}},"type":"Feature"},
	{"geometry":{"coordinates":[-46.692364,-23.562453],"type":"Point"},"properties":{"osm_id":"6621299639","tag":{"natural":"tree"}},"type":"Feature"},
	{"geometry":{"coordinates":[-46.689144,-23.559439],"type":"Point"},"properties":{"osm_id":"6631961910","tag":{"natural":"tree"}},"type":"Feature"},
	{"geometry":{"coordinates":[-46.691266,-23.55072],"type":"Point"},"properties":{"osm_id":"6661104069","tag":{"natural":"tree"}},"type":"Feature"},
	{"geometry":{"coordinates":[-46.691597,-23.550325],"type":"Point"},"properties":{"osm_id":"6661108393","tag":{"natural":"tree"}},"type":"Feature"},
	{"geometry":{"coordinates":[-46.691554,-23.550385],"type":"Point"},"properties":{"osm_id":"6661108394","tag":{"natural":"tree"}},"type":"Feature"},
	{"geometry":{"coordinates":[-46.691508,-23.550441],"type":"Point"},"properties":{"osm_id":"6661108395","tag":{"natural":"tree"}},"type":"Feature"},
	{"geometry":{"coordinates":[-46.691487,-23.55039],"type":"Point"},"properties":{"osm_id":"6661108396","tag":{"natural":"tree"}},"type":"Feature"},
	{"geometry":{"coordinates":[-46.689192,-23.555572],"type":"Point"},"properties":{"osm_id":"6689703514","tag":{"natural":"tree"}},"type":"Feature"},
	{"geometry":{"coordinates":[-46.691701,-23.552023],"type":"Point"},"properties":{"osm_id":"6693317459","tag":{"natural":"tree"}},"type":"Feature"},
	{"geometry":{"coordinates":[-46.691797,-23.552024],"type":"Point"},"properties":{"osm_id":"6693317460","tag":{"natural":"tree"}},"type":"Feature"},
	{"geometry":{"coordinates":[-46.691415,-23.552428],"type":"Point"},"properties":{"osm_id":"6693317461","tag":{"natural":"tree"}},"type":"Feature"},
	{"geometry":{"coordinates":[-46.693226,-23.553645],"type":"Point"},"properties":{"osm_id":"6695152821","tag":{"natural":"tree"}},"type":"Feature"},
	{"geometry":{"coordinates":[-46.678644,-23.553917],"type":"Point"},"properties":{"osm_id":"6844918453","tag":{"natural":"tree"}},"type":"Feature"},
	{"geometry":{"coordinates":[-46.67869,-23.55402],"type":"Point"},"properties":{"osm_id":"6844918454","tag":{"natural":"tree"}},"type":"Feature"},
	{"geometry":{"coordinates":[-46.678552,-23.553965],"type":"Point"},"properties":{"osm_id":"6844918455","tag":{"natural":"tree"}},"type":"Feature"},
	{"geometry":{"coordinates":[-46.672875,-23.550789],"type":"Point"},"properties":{"osm_id":"6877205228","tag":{"natural":"tree"}},"type":"Feature"},
	{"geometry":{"coordinates":[-46.670557,-23.553846],"type":"Point"},"properties":{"osm_id":"6879427507","tag":{"natural":"tree"}},"type":"Feature"},
	{"geometry":{"coordinates":[-46.671842,-23.552996],"type":"Point"},"properties":{"osm_id":"6879427508","tag":{"natural":"tree"}},"type":"Feature"},
	{"geometry":{"coordinates":[-46.671874,-23.552555],"type":"Point"},"properties":{"osm_id":"6879427509","tag":{"natural":"tree"}},"type":"Feature"},
	{"geometry":{"coordinates":[-46.672451,-23.552897],"type":"Point"},"properties":{"osm_id":"6879427510","tag":{"natural":"tree"}},"type":"Feature"},
	{"geometry":{"coordinates":[-46.672198,-23.552206],"type":"Point"},"properties":{"osm_id":"6880029889","tag":{"natural":"tree"}},"type":"Feature"},
	{"geometry":{"coordinates":[-46.672379,-23.551452],"type":"Point"},"properties":{"osm_id":"6880029890","tag":{"natural":"tree"}},"type":"Feature"},
	{"geometry":{"coordinates":[-46.672861,-23.55173],"type":"Point"},"properties":{"osm_id":"6880029891","tag":{"natural":"tree"}},"type":"Feature"},
	{"geometry":{"coordinates":[-46.671897,-23.551694],"type":"Point"},"properties":{"osm_id":"6880029895","tag":{"natural":"tree"}},"type":"Feature"},
	{"geometry":{"coordinates":[-46.673856,-23.550308],"type":"Point"},"properties":{"osm_id":"6880029896","tag":{"natural":"tree"}},"type":"Feature"},
	{"geometry":{"coordinates":[-46.674153,-23.550351],"type":"Point"},"properties":{"osm_id":"6880029897","tag":{"natural":"tree"}},"type":"Feature"},
	{"geometry":{"coordinates":[-46.674598,-23.550714],"type":"Point"},"properties":{"osm_id":"6880029898","tag":{"natural":"tree"}},"type":"Feature"},
	{"geometry":{"coordinates":[-46.693062,-23.563406],"type":"Point"},"properties":{"osm_id":"6910674836","tag":{"natural":"tree"}},"type":"Feature"},
	{"geometry":{"coordinates":[-46.692936,-23.563595],"type":"Point"},"properties":{"osm_id":"6910674837","tag":{"natural":"tree"}},"type":"Feature"},
	{"geometry":{"coordinates":[-46.692835,-23.563731],"type":"Point"},"properties":{"osm_id":"6910674838","tag":{"natural":"tree"}},"type":"Feature"},
	{"geometry":{"coordinates":[-46.681259,-23.563166],"type":"Point"},"properties":{"osm_id":"6973425427","tag":{"natural":"tree"}},"type":"Feature"},
	{"geometry":{"coordinates":[-46.686552,-23.511766],"type":"Point"},"properties":{"osm_id":"7543123765","tag":{"denotation":"park","height":"6","leaf_type":"broadleaved","natural":"tree"}},"type":"Feature"},
	{"geometry":{"coordinates":[-46.686554,-23.511697],"type":"Point"},"properties":{"osm_id":"7543123766","tag":{"denotation":"park","height":"6","leaf_type":"broadleaved","natural":"tree"}},"type":"Feature"},
	{"geometry":{"coordinates":[-46.686463,-23.511737],"type":"Point"},"properties":{"osm_id":"7543123767","tag":{"denotation":"park","height":"6","leaf_type":"broadleaved","natural":"tree"}},"type":"Feature"},
	{"geometry":{"coordinates":[-46.68642,-23.51196],"type":"Point"},"properties":{"osm_id":"7543123768","tag":{"denotation":"park","height":"6","leaf_type":"broadleaved","natural":"tree"}},"type":"Feature"},
	{"geometry":{"coordinates":[-46.686418,-23.511835],"type":"Point"},"properties":{"osm_id":"7543123769","tag":{"denotation":"park","height":"6","leaf_type":"broadleaved","natural":"tree"}},"type":"Feature"},
	{"geometry":{"coordinates":[-46.68642,-23.511741],"type":"Point"},"properties":{"osm_id":"7543123770","tag":{"denotation":"park","height":"6","leaf_type":"broadleaved","natural":"tree"}},"type":"Feature"},
	{"geometry":{"coordinates":[-46.68634,-23.511781],"type":"Point"},"properties":{"osm_id":"7543123771","tag":{"denotation":"park","height":"6","leaf_type":"broadleaved","natural":"tree"}},"type":"Feature"},
	{"geometry":{"coordinates":[-46.686224,-23.511818],"type":"Point"},"properties":{"osm_id":"7543123772","tag":{"denotation":"park","height":"6","leaf_type":"broadleaved","natural":"tree"}},"type":"Feature"},
	{"geometry":{"coordinates":[-46.686182,-23.511869],"type":"Point"},"properties":{"osm_id":"7543123773","tag":{"denotation":"park","height":"6","leaf_type":"broadleaved","natural":"tree"}},"type":"Feature"},
	{"geometry":{"coordinates":[-46.686326,-23.511916],"type":"Point"},"properties":{"osm_id":"7543123774","tag":{"denotation":"park","height":"6","leaf_type":"broadleaved","natural":"tree"}},"type":"Feature"},
	{"geometry":{"coordinates":[-46.686208,-23.511951],"type":"Point"},"properties":{"osm_id":"7543123775","tag":{"denotation":"park","height":"6","leaf_type":"broadleaved","natural":"tree"}},"type":"Feature"},
	{"geometry":{"coordinates":[-46.686762,-23.511729],"type":"Point"},"properties":{"osm_id":"7543134408","tag":{"denotation":"park","height":"6","leaf_type":"broadleaved","natural":"tree"}},"type":"Feature"},
	{"geometry":{"coordinates":[-46.686437,-23.512375],"type":"Point"},"properties":{"osm_id":"7543171294","tag":{"denotation":"park","height":"6","leaf_type":"broadleaved","natural":"tree"}},"type":"Feature"},
	{"geometry":{"coordinates":[-46.686276,-23.512375],"type":"Point"},"properties":{"osm_id":"7543171295","tag":{"denotation":"park","height":"6","leaf_type":"broadleaved","natural":"tree"}},"type":"Feature"},
	{"geometry":{"coordinates":[-46.6862,-23.512386],"type":"Point"},"properties":{"osm_id":"7543171296","tag":{"denotation":"park","height":"6","leaf_type":"broadleaved","natural":"tree"}},"type":"Feature"},
	{"geometry":{"coordinates":[-46.686285,-23.512521],"type":"Point"},"properties":{"osm_id":"7543171297","tag":{"denotation":"park","height":"6","leaf_type":"broadleaved","natural":"tree"}},"type":"Feature"},
	{"geometry":{"coordinates":[-46.686242,-23.512451],"type":"Point"},"properties":{"osm_id":"7543171298","tag":{"denotation":"park","height":"6","leaf_type":"broadleaved","natural":"tree"}},"type":"Feature"},
	{"geometry":{"coordinates":[-46.686204,-23.512514],"type":"Point"},"properties":{"osm_id":"7543171299","tag":{"denotation":"park","height":"6","leaf_type":"broadleaved","natural":"tree"}},"type":"Feature"},
	{"geometry":{"coordinates":[-46.686318,-23.512752],"type":"Point"},"properties":{"osm_id":"7543171300","tag":{"denotation":"park","height":"6","leaf_type":"broadleaved","natural":"tree"}},"type":"Feature"},
	{"geometry":{"coordinates":[-46.686288,-23.51278],"type":"Point"},"properties":{"osm_id":"7543171301","tag":{"denotation":"park","height":"6","leaf_type":"broadleaved","natural":"tree"}},"type":"Feature"},
	{"geometry":{"coordinates":[-46.686442,-23.512783],"type":"Point"},"properties":{"osm_id":"7543171302","tag":{"denotation":"park","height":"6","leaf_type":"broadleaved","natural":"tree"}},"type":"Feature"},
	{"geometry":{"coordinates":[-46.686532,-23.512733],"type":"Point"},"properties":{"osm_id":"7543171303","tag":{"denotation":"park","height":"6","leaf_type":"broadleaved","natural":"tree"}},"type":"Feature"},
	{"geometry":{"coordinates":[-46.686646,-23.512723],"type":"Point"},"properties":{"osm_id":"7543171304","tag":{"denotation":"park","height":"6","leaf_type":"broadleaved","natural":"tree"}},"type":"Feature"},
	{"geometry":{"coordinates":[-46.686665,-23.512592],"type":"Point"},"properties":{"osm_id":"7543192832","tag":{"denotation":"park","height":"6","leaf_type":"broadleaved","natural":"tree"}},"type":"Feature"},
	{"geometry":{"coordinates":[-46.686654,-23.512501],"type":"Point"},"properties":{"osm_id":"7543192833","tag":{"denotation":"park","height":"6","leaf_type":"broadleaved","natural":"tree"}},"type":"Feature"},
	{"geometry":{"coordinates":[-46.686649,-23.512317],"type":"Point"},"properties":{"osm_id":"7543192834","tag":{"denotation":"park","height":"6","leaf_type":"broadleaved","natural":"tree"}},"type":"Feature"},
	{"geometry":{"coordinates":[-46.686635,-23.51212],"type":"Point"},"properties":{"osm_id":"7543192835","tag":{"denotation":"park","height":"6","leaf_type":"broadleaved","natural":"tree"}},"type":"Feature"},
	{"geometry":{"coordinates":[-46.686617,-23.511881],"type":"Point"},"properties":{"osm_id":"7543192836","tag":{"denotation":"park","height":"6","leaf_type":"broadleaved","natural":"tree"}},"type":"Feature"},
	{"geometry":{"coordinates":[-46.686847,-23.513038],"type":"Point"},"properties":{"osm_id":"7543425132","tag":{"denotation":"park","height":"6","leaf_type":"broadleaved","natural":"tree"}},"type":"Feature"},
	{"geometry":{"coordinates":[-46.686846,-23.513052],"type":"Point"},"properties":{"osm_id":"7543425133","tag":{"denotation":"park","height":"6","leaf_type":"broadleaved","natural":"tree"}},"type":"Feature"},
	{"geometry":{"coordinates":[-46.686814,-23.513041],"type":"Point"},"properties":{"osm_id":"7543425134","tag":{"denotation":"park","height":"6","leaf_type":"broadleaved","natural":"tree"}},"type":"Feature"},
	{"geometry":{"coordinates":[-46.686816,-23.513054],"type":"Point"},"properties":{"osm_id":"7543425135","tag":{"denotation":"park","height":"6","leaf_type":"broadleaved","natural":"tree"}},"type":"Feature"},
	{"geometry":{"coordinates":[-46.674847,-23.517145],"type":"Point"},"properties":{"osm_id":"7554656746","tag":{"denotation":"natural_monument","height":"8","leaf_cycle":"evergreen","natural":"tree"}},"type":"Feature"},
	{"geometry":{"coordinates":[-46.674804,-23.517198],"type":"Point"},"properties":{"osm_id":"7554656747","tag":{"denotation":"natural_monument","height":"8","leaf_cycle":"evergreen","natural":"tree"}},"type":"Feature"},
	{"geometry":{"coordinates":[-46.674764,-23.517254],"type":"Point"},"properties":{"osm_id":"7554656748","tag":{"denotation":"natural_monument","height":"8","leaf_cycle":"evergreen","natural":"tree"}},"type":"Feature"},
	{"geometry":{"coordinates":[-46.674711,-23.517317],"type":"Point"},"properties":{"osm_id":"7554656749","tag":{"denotation":"natural_monument","height":"8","leaf_cycle":"evergreen","natural":"tree"}},"type":"Feature"},
	{"geometry":{"coordinates":[-46.67481,-23.517086],"type":"Point"},"properties":{"osm_id":"7554656750","tag":{"denotation":"natural_monument","height":"8","leaf_cycle":"evergreen","natural":"tree"}},"type":"Feature"},
	{"geometry":{"coordinates":[-46.674696,-23.517087],"type":"Point"},"properties":{"osm_id":"7554656751","tag":{"denotation":"natural_monument","height":"8","leaf_cycle":"evergreen","natural":"tree"}},"type":"Feature"},
	{"geometry":{"coordinates":[-46.674571,-23.517105],"type":"Point"},"properties":{"osm_id":"7554656752","tag":{"denotation":"natural_monument","height":"8","leaf_cycle":"evergreen","natural":"tree"}},"type":"Feature"},
	{"geometry":{"coordinates":[-46.674401,-23.517107],"type":"Point"},"properties":{"osm_id":"7554656753","tag":{"denotation":"natural_monument","height":"8","leaf_cycle":"evergreen","natural":"tree"}},"type":"Feature"},
	{"geometry":{"coordinates":[-46.674238,-23.517108],"type":"Point"},"properties":{"osm_id":"7554656754","tag":{"denotation":"natural_monument","height":"8","leaf_cycle":"evergreen","natural":"tree"}},"type":"Feature"},
	{"geometry":{"coordinates":[-46.674128,-23.517116],"type":"Point"},"properties":{"osm_id":"7554656755","tag":{"denotation":"natural_monument","height":"8","leaf_cycle":"evergreen","natural":"tree"}},"type":"Feature"},
	{"geometry":{"coordinates":[-46.674419,-23.517705],"type":"Point"},"properties":{"osm_id":"7554656756","tag":{"denotation":"natural_monument","height":"8","leaf_cycle":"evergreen","natural":"tree"}},"type":"Feature"},
	{"geometry":{"coordinates":[-46.674455,-23.517652],"type":"Point"},"properties":{"osm_id":"7554656757","tag":{"denotation":"natural_monument","height":"8","leaf_cycle":"evergreen","natural":"tree"}},"type":"Feature"},
	{"geometry":{"coordinates":[-46.674485,-23.517597],"type":"Point"},"properties":{"osm_id":"7554656758","tag":{"denotation":"natural_monument","height":"8","leaf_cycle":"evergreen","natural":"tree"}},"type":"Feature"},
	{"geometry":{"coordinates":[-46.674531,-23.51754],"type":"Point"},"properties":{"osm_id":"7554656759","tag":{"denotation":"natural_monument","height":"8","leaf_cycle":"evergreen","natural":"tree"}},"type":"Feature"},
	{"geometry":{"coordinates":[-46.694721,-23.562289],"type":"Point"},"properties":{"osm_id":"7566514588","tag":{"natural":"tree"}},"type":"Feature"},
	{"geometry":{"coordinates":[-46.695348,-23.561099],"type":"Point"},"properties":{"osm_id":"7566904970","tag":{"natural":"tree"}},"type":"Feature"},
	{"geometry":{"coordinates":[-46.695295,-23.561149],"type":"Point"},"properties":{"osm_id":"7566904971","tag":{"natural":"tree"}},"type":"Feature"},
	{"geometry":{"coordinates":[-46.69536,-23.561181],"type":"Point"},"properties":{"osm_id":"7566904972","tag":{"natural":"tree"}},"type":"Feature"},
	{"geometry":{"coordinates":[-46.698579,-23.563826],"type":"Point"},"properties":{"osm_id":"7572850134","tag":{"natural":"tree"}},"type":"Feature"},
	{"geometry":{"coordinates":[-46.698987,-23.559988],"type":"Point"},"properties":{"osm_id":"7595767374","tag":{"natural":"tree"}},"type":"Feature"},
	{"geometry":{"coordinates":[-46.69894,-23.559988],"type":"Point"},"properties":{"osm_id":"7595767375","tag":{"natural":"tree"}},"type":"Feature"},
	{"geometry":{"coordinates":[-46.698893,-23.559988],"type":"Point"},"properties":{"osm_id":"7595767376","tag":{"natural":"tree"}},"type":"Feature"},
	{"geometry":{"coordinates":[-46.698798,-23.559989],"type":"Point"},"properties":{"osm_id":"7595767377","tag":{"natural":"tree"}},"type":"Feature"},
	{"geometry":{"coordinates":[-46.698751,-23.559989],"type":"Point"},"properties":{"osm_id":"7595767378","tag":{"natural":"tree"}},"type":"Feature"},
	{"geometry":{"coordinates":[-46.698705,-23.559989],"type":"Point"},"properties":{"osm_id":"7595767379","tag":{"natural":"tree"}},"type":"Feature"},
	{"geometry":{"coordinates":[-46.69324,-23.562022],"type":"Point"},"properties":{"osm_id":"7605997679","tag":{"addr:city":"S\u00c3\u00a3o Paulo","addr:postcode":"05419-001","addr:street":"Avenida Pedroso de Morais","natural":"tree"}},"type":"Feature"},
	{"geometry":{"coordinates":[-46.695143,-23.562653],"type":"Point"},"properties":{"osm_id":"7606845559","tag":{"natural":"tree"}},"type":"Feature"},
	{"geometry":{"coordinates":[-46.695055,-23.563132],"type":"Point"},"properties":{"osm_id":"7606845564","tag":{"natural":"tree"}},"type":"Feature"},
	{"geometry":{"coordinates":[-46.69664,-23.561646],"type":"Point"},"properties":{"osm_id":"7618224173","tag":{"natural":"tree"}},"type":"Feature"},
	{"geometry":{"coordinates":[-46.699249,-23.56203],"type":"Point"},"properties":{"osm_id":"7633012835","tag":{"natural":"tree"}},"type":"Feature"},
	{"geometry":{"coordinates":[-46.6928,-23.560178],"type":"Point"},"properties":{"osm_id":"7670715459","tag":{"natural":"tree"}},"type":"Feature"},
	{"geometry":{"coordinates":[-46.713004,-23.536831],"type":"Point"},"properties":{"osm_id":"7959852382","tag":{"natural":"tree"}},"type":"Feature"}
]
}
