{
"type": "FeatureCollection",
"features": [
	{"geometry":{"coordinates":[-76.287795,40.154335],"type":"Point"},"properties":{"name":"Reliable Industries, LLC","osm_id":"4726584015","tag":{"addr:city":"Lititz","addr:housenumber":"15","addr:postcode":"17543","addr:state":"PA","addr:street":"Lititz Run Road","amenity":"recycling","email":"relbox@aol.com","fax":"(717) 397-3696","recycling_type":"centre"}},"type":"Feature"},
	{"geometry":{"coordinates":[-76.20542,40.164383],"type":"Point"},"properties":{"osm_id":"5402670213","tag":{"amenity":"waste_basket"}},"type":"Feature"},
	{"geometry":{"coordinates":[-76.2054,40.164346],"type":"Point"},"properties":{"osm_id":"5402670214","tag":{"amenity":"waste_basket"}},"type":"Feature"},
	{"geometry":{"coordinates":[-76.209978,40.163032],"type":"Point"},"properties":{"osm_id":"5402673811","tag":{"amenity":"waste_basket","backrest":"yes","direction":"160"}},"type":"Feature"},
	{"geometry":{"coordinates":[-76.209925,40.163077],"type":"Point"},"properties":{"osm_id":"5402673813","tag":{"amenity":"waste_basket","backrest":"yes","direction":"160"}},"type":"Feature"},
	{"geometry":{"coordinates":[-76.210039,40.163046],"type":"Point"},"properties":{"osm_id":"5402673814","tag":{"amenity":"waste_basket"}},"type":"Feature"},
	{"geometry":{"coordinates":[-76.217528,40.160203],"type":"Point"},"properties":{"osm_id":"5404436952","tag":{"amenity":"waste_basket"}},"type":"Feature"}
]
}
