{
"type": "FeatureCollection",
"features": [
	{"geometry":{"coordinates":[-76.269321,39.506705],"type":"Point"},"properties":{"osm_id":"6608355848","tag":{"amenity":"recycling","colour":"red","recycling:clothes":"yes","recycling:shoes":"yes","recycling_type":"container"}},"type":"Feature"},
	{"geometry":{"coordinates":[-76.251284,39.559065],"type":"Point"},"properties":{"osm_id":"6610721679","tag":{"amenity":"recycling","colour":"white","recycling:clothes":"yes","recycling:shoes":"yes","recycling_type":"container"}},"type":"Feature"},
	{"geometry":{"coordinates":[-76.275746,39.555469],"type":"Point"},"properties":{"osm_id":"6737847158","tag":{"amenity":"recycling","colour":"green","recycling:clothes":"yes","recycling:shoes":"yes","recycling_type":"container"}},"type":"Feature"},
	{"geometry":{"coordinates":[-76.272331,39.555535],"type":"Point"},"properties":{"osm_id":"6737847161","tag":{"amenity":"recycling","colour":"blue","recycling:clothes":"yes","recycling:shoes":"yes","recycling_type":"container"}},"type":"Feature"},
	{"geometry":{"coordinates":[-76.211432,39.53716],"type":"Point"},"properties":{"osm_id":"7851471434","tag":{"amenity":"recycling","colour":"yellow","operator":"Planet Aid","recycling:clothes":"yes","recycling:shoes":"yes","recycling_type":"container"}},"type":"Feature"},
	{"geometry":{"coordinates":[-76.240864,39.556417],"type":"Point"},"properties":{"osm_id":"7851474117","tag":{"amenity":"recycling","colour":"yellow","operator":"Planet Aid","recycling:clothes":"yes","recycling:shoes":"yes","recycling_type":"container"}},"type":"Feature"},
	{"geometry":{"coordinates":[-76.232761,39.54156],"type":"Point"},"properties":{"osm_id":"7851474118","tag":{"amenity":"recycling","colour":"yellow","operator":"Planet Aid","recycling:clothes":"yes","recycling:shoes":"yes","recycling_type":"container"}},"type":"Feature"}
]
}
