{
"type": "FeatureCollection",
"features": [
	{"geometry":{"coordinates":[-76.242466,39.466604],"type":"Point"},"properties":{"osm_id":"6612444754","tag":{"amenity":"recycling","colour":"red","recycling:clothes":"yes","recycling:shoes":"yes","recycling_type":"container"}},"type":"Feature"},
	{"geometry":{"coordinates":[-76.277913,39.46241],"type":"Point"},"properties":{"osm_id":"6685863671","tag":{"amenity":"recycling","colour":"blue","recycling:clothes":"yes","recycling:shoes":"yes","recycling_type":"container"}},"type":"Feature"},
	{"geometry":{"coordinates":[-76.275611,39.465868],"type":"Point"},"properties":{"osm_id":"6814465552","tag":{"amenity":"recycling","colour":"blue","recycling:clothes":"yes","recycling:shoes":"yes","recycling_type":"container"}},"type":"Feature"},
	{"geometry":{"coordinates":[-76.235163,39.469426],"type":"Point"},"properties":{"osm_id":"6814766648","tag":{"amenity":"waste_disposal"}},"type":"Feature"},
	{"geometry":{"coordinates":[-76.235733,39.469966],"type":"Point"},"properties":{"osm_id":"6814766650","tag":{"amenity":"waste_disposal"}},"type":"Feature"},
	{"geometry":{"coordinates":[-76.212083,39.489531],"type":"Point"},"properties":{"osm_id":"6814946511","tag":{"amenity":"recycling","colour":"yellow","operator":"Planet Aid","recycling:clothes":"yes","recycling:shoes":"yes","recycling_type":"container"}},"type":"Feature"},
	{"geometry":{"coordinates":[-76.251273,39.475898],"type":"Point"},"properties":{"osm_id":"7105860887","tag":{"amenity":"waste_disposal"}},"type":"Feature"},
	{"geometry":{"coordinates":[-76.250303,39.476009],"type":"Point"},"properties":{"osm_id":"7105860908","tag":{"amenity":"waste_disposal"}},"type":"Feature"},
	{"geometry":{"coordinates":[-76.251087,39.476723],"type":"Point"},"properties":{"osm_id":"7105860925","tag":{"amenity":"waste_disposal"}},"type":"Feature"},
	{"geometry":{"coordinates":[-76.251339,39.477733],"type":"Point"},"properties":{"osm_id":"7105861132","tag":{"amenity":"waste_disposal"}},"type":"Feature"},
	{"geometry":{"coordinates":[-76.250495,39.478235],"type":"Point"},"properties":{"osm_id":"7105861265","tag":{"amenity":"waste_disposal"}},"type":"Feature"},
	{"geometry":{"coordinates":[-76.251181,39.478413],"type":"Point"},"properties":{"osm_id":"7105861270","tag":{"amenity":"waste_disposal"}},"type":"Feature"},
	{"geometry":{"coordinates":[-76.249581,39.479141],"type":"Point"},"properties":{"osm_id":"7105861291","tag":{"amenity":"waste_disposal"}},"type":"Feature"}
]
}
