{
"type": "FeatureCollection",
"features": [
	{"geometry":{"coordinates":[55.494238,-20.925772],"type":"Point"},"properties":{"osm_id":"936124259","tag":{"amenity":"recycling","recycling:glass":"yes"}},"type":"Feature"},
	{"geometry":{"coordinates":[55.460853,-20.88524],"type":"Point"},"properties":{"osm_id":"1542064516","tag":{"amenity":"recycling","recycling_type":"container"}},"type":"Feature"},
	{"geometry":{"coordinates":[55.460369,-20.888034],"type":"Point"},"properties":{"osm_id":"1555246187","tag":{"amenity":"recycling","recycling_type":"container"}},"type":"Feature"},
	{"geometry":{"coordinates":[55.460392,-20.883541],"type":"Point"},"properties":{"osm_id":"1555247457","tag":{"amenity":"recycling","recycling_type":"container"}},"type":"Feature"},
	{"geometry":{"coordinates":[55.461776,-20.892364],"type":"Point"},"properties":{"osm_id":"2382442080","tag":{"amenity":"recycling","recycling:glass":"yes"}},"type":"Feature"},
	{"geometry":{"coordinates":[55.506124,-20.916391],"type":"Point"},"properties":{"osm_id":"2382442100","tag":{"amenity":"recycling","recycling:glass":"yes"}},"type":"Feature"},
	{"geometry":{"coordinates":[55.506755,-20.916989],"type":"Point"},"properties":{"osm_id":"2382442104","tag":{"amenity":"recycling","recycling:glass":"yes"}},"type":"Feature"},
	{"geometry":{"coordinates":[55.529567,-20.940937],"type":"Point"},"properties":{"osm_id":"2393905523","tag":{"amenity":"recycling","recycling:glass":"yes"}},"type":"Feature"},
	{"geometry":{"coordinates":[55.504759,-20.911057],"type":"Point"},"properties":{"osm_id":"2394062011","tag":{"amenity":"recycling","recycling:glass":"yes"}},"type":"Feature"},
	{"geometry":{"coordinates":[55.459349,-20.895067],"type":"Point"},"properties":{"osm_id":"2396316391","tag":{"amenity":"recycling","recycling:glass":"yes"}},"type":"Feature"},
	{"geometry":{"coordinates":[55.485251,-20.897063],"type":"Point"},"properties":{"name":"D\u00c3\u00a9chetterie de la Cit\u00c3\u00a9 Hyacinthe","osm_id":"3240711853","tag":{"addr:city":"Saint-Denis","addr:postcode":"97400","addr:street":"Rue Fran\u00c3\u00a7ois de Mahy","amenity":"recycling","phone":"+262 2 62 29 12 75","recycling_type":"centre"}},"type":"Feature"},
	{"geometry":{"coordinates":[55.475872,-20.896737],"type":"Point"},"properties":{"name":"D\u00c3\u00a9chetterie des Amaryllis","osm_id":"3240713386","tag":{"addr:city":"Saint-Denis","addr:postcode":"97400","addr:street":"Rue des Amaryllis","amenity":"recycling","recycling_type":"centre"}},"type":"Feature"},
	{"geometry":{"coordinates":[55.497982,-20.905017],"type":"Point"},"properties":{"name":"D\u00c3\u00a9chetterie de la Bretagne","osm_id":"3240719134","tag":{"addr:city":"Saint-Denis","addr:postcode":"97400","addr:street":"Chemin Grand Canal","amenity":"recycling","phone":"+262 2 62 28 26 92","recycling:cans":"yes","recycling:glass":"no","recycling:paper":"yes","recycling:scrap_metal":"yes","recycling_type":"centre"}},"type":"Feature"},
	{"geometry":{"coordinates":[55.461685,-20.886743],"type":"Point"},"properties":{"osm_id":"3521174294","tag":{"amenity":"recycling","recycling:batteries":"no","recycling:cans":"no","recycling:clothes":"no","recycling:glass":"yes","recycling:paper":"no","recycling:scrap_metal":"no","recycling_type":"container"}},"type":"Feature"},
	{"geometry":{"coordinates":[55.468676,-20.89469],"type":"Point"},"properties":{"osm_id":"3666735725","tag":{"amenity":"waste_basket"}},"type":"Feature"},
	{"geometry":{"coordinates":[55.468128,-20.894747],"type":"Point"},"properties":{"osm_id":"3666736025","tag":{"amenity":"recycling","recycling_type":"container"}},"type":"Feature"},
	{"geometry":{"coordinates":[55.508625,-20.898963],"type":"Point"},"properties":{"osm_id":"3673034027","tag":{"amenity":"recycling","recycling:glass":"yes","recycling_type":"container"}},"type":"Feature"},
	{"geometry":{"coordinates":[55.508587,-20.898987],"type":"Point"},"properties":{"osm_id":"3673042825","tag":{"amenity":"waste_basket"}},"type":"Feature"},
	{"geometry":{"coordinates":[55.528836,-20.898235],"type":"Point"},"properties":{"osm_id":"3716322496","tag":{"amenity":"recycling","recycling:glass":"yes","recycling_type":"container"}},"type":"Feature"},
	{"geometry":{"coordinates":[55.462595,-20.884321],"type":"Point"},"properties":{"osm_id":"3970169257","tag":{"amenity":"recycling","recycling_type":"container"}},"type":"Feature"},
	{"geometry":{"coordinates":[55.472146,-20.888549],"type":"Point"},"properties":{"osm_id":"4116070118","tag":{"amenity":"recycling","recycling:clothes":"yes","recycling:shoes":"yes","recycling_type":"container"}},"type":"Feature"},
	{"geometry":{"coordinates":[55.479105,-20.907991],"type":"Point"},"properties":{"name":"D\u00c3\u00a9chetterie du Moufia- Bois de N\u00c3\u00a8fles","osm_id":"4116076703","tag":{"amenity":"waste_disposal","recycling:clothes":"yes","recycling:shoes":"yes","recycling_type":"container"}},"type":"Feature"},
	{"geometry":{"coordinates":[55.499438,-20.906524],"type":"Point"},"properties":{"osm_id":"4546009833","tag":{"amenity":"waste_basket"}},"type":"Feature"},
	{"geometry":{"coordinates":[55.516985,-20.899372],"type":"Point"},"properties":{"osm_id":"4625417090","tag":{"amenity":"waste_basket"}},"type":"Feature"},
	{"geometry":{"coordinates":[55.501066,-20.906628],"type":"Point"},"properties":{"osm_id":"4675903933","tag":{"amenity":"recycling","recycling:glass_bottles":"yes","recycling_type":"container"}},"type":"Feature"},
	{"geometry":{"coordinates":[55.484434,-20.902488],"type":"Point"},"properties":{"osm_id":"5336237607","tag":{"amenity":"waste_basket","waste":"trash"}},"type":"Feature"},
	{"geometry":{"coordinates":[55.48435,-20.902474],"type":"Point"},"properties":{"osm_id":"5336237609","tag":{"amenity":"waste_basket","waste":"trash"}},"type":"Feature"},
	{"geometry":{"coordinates":[55.484566,-20.902018],"type":"Point"},"properties":{"osm_id":"5336264600","tag":{"amenity":"waste_basket","waste":"trash"}},"type":"Feature"},
	{"geometry":{"coordinates":[55.484636,-20.902196],"type":"Point"},"properties":{"osm_id":"5336264602","tag":{"amenity":"waste_basket","waste":"trash"}},"type":"Feature"},
	{"geometry":{"coordinates":[55.484924,-20.901529],"type":"Point"},"properties":{"osm_id":"5336275678","tag":{"amenity":"waste_basket","waste":"trash"}},"type":"Feature"},
	{"geometry":{"coordinates":[55.4852,-20.901438],"type":"Point"},"properties":{"osm_id":"5336299110","tag":{"amenity":"waste_basket","waste":"trash"}},"type":"Feature"},
	{"geometry":{"coordinates":[55.485462,-20.901731],"type":"Point"},"properties":{"osm_id":"5336299118","tag":{"amenity":"waste_basket","waste":"trash"}},"type":"Feature"},
	{"geometry":{"coordinates":[55.485831,-20.901369],"type":"Point"},"properties":{"osm_id":"5336301522","tag":{"amenity":"recycling","recycling:glass":"yes","recycling_type":"container"}},"type":"Feature"},
	{"geometry":{"coordinates":[55.483422,-20.902013],"type":"Point"},"properties":{"osm_id":"5336355983","tag":{"amenity":"waste_basket"}},"type":"Feature"},
	{"geometry":{"coordinates":[55.482955,-20.902191],"type":"Point"},"properties":{"osm_id":"5336356000","tag":{"amenity":"waste_basket"}},"type":"Feature"},
	{"geometry":{"coordinates":[55.482981,-20.902191],"type":"Point"},"properties":{"osm_id":"5336356001","tag":{"amenity":"waste_basket"}},"type":"Feature"},
	{"geometry":{"coordinates":[55.48308,-20.902218],"type":"Point"},"properties":{"osm_id":"5336356002","tag":{"amenity":"waste_basket"}},"type":"Feature"},
	{"geometry":{"coordinates":[55.482928,-20.902323],"type":"Point"},"properties":{"osm_id":"5336356003","tag":{"amenity":"waste_basket"}},"type":"Feature"},
	{"geometry":{"coordinates":[55.483361,-20.902305],"type":"Point"},"properties":{"osm_id":"5336356004","tag":{"amenity":"waste_basket"}},"type":"Feature"},
	{"geometry":{"coordinates":[55.483407,-20.902314],"type":"Point"},"properties":{"osm_id":"5336356005","tag":{"amenity":"waste_basket"}},"type":"Feature"},
	{"geometry":{"coordinates":[55.48314,-20.902564],"type":"Point"},"properties":{"osm_id":"5336356006","tag":{"amenity":"waste_basket"}},"type":"Feature"},
	{"geometry":{"coordinates":[55.48339,-20.90225],"type":"Point"},"properties":{"osm_id":"5336356007","tag":{"amenity":"waste_basket"}},"type":"Feature"},
	{"geometry":{"coordinates":[55.482413,-20.902334],"type":"Point"},"properties":{"osm_id":"5336393617","tag":{"amenity":"waste_basket"}},"type":"Feature"},
	{"geometry":{"coordinates":[55.483675,-20.902508],"type":"Point"},"properties":{"osm_id":"5336393619","tag":{"amenity":"waste_basket"}},"type":"Feature"},
	{"geometry":{"coordinates":[55.483721,-20.902519],"type":"Point"},"properties":{"osm_id":"5336393620","tag":{"amenity":"waste_basket"}},"type":"Feature"},
	{"geometry":{"coordinates":[55.484661,-20.90293],"type":"Point"},"properties":{"osm_id":"5336393821","tag":{"amenity":"waste_basket"}},"type":"Feature"},
	{"geometry":{"coordinates":[55.479059,-20.907983],"type":"Point"},"properties":{"name":"D\u00c3\u00a9chetterie du Moufia- Bois de N\u00c3\u00a8fles","osm_id":"5363196551","tag":{"addr:street":"Chemin Bancoul","amenity":"recycling","phone":"+262 2 62 47 67 13","recycling:batteries":"yes","recycling:cans":"yes","recycling:electrical_appliances":"yes","recycling:glass":"yes","recycling:glass_bottles":"yes","recycling:green_waste":"yes","recycling:paper":"yes","recycling:plastic":"yes","recycling:plastic_bottles":"yes","recycling:plastic_packaging":"yes","recycling:scrap_metal":"yes","recycling:small_appliances":"yes","recycling:waste":"yes","recycling_type":"centre"}},"type":"Feature"},
	{"geometry":{"coordinates":[55.53464,-20.900069],"type":"Point"},"properties":{"name":"D\u00c3\u00a9chetterie de La Mare","osm_id":"5363210405","tag":{"amenity":"recycling","phone":"+262 2 62 53 03 09","recycling_type":"centre"}},"type":"Feature"},
	{"geometry":{"coordinates":[55.486014,-20.902749],"type":"Point"},"properties":{"osm_id":"6185306050","tag":{"amenity":"waste_basket","waste":"trash"}},"type":"Feature"},
	{"geometry":{"coordinates":[55.485755,-20.902701],"type":"Point"},"properties":{"osm_id":"6185306051","tag":{"amenity":"waste_basket","waste":"trash"}},"type":"Feature"},
	{"geometry":{"coordinates":[55.484582,-20.902319],"type":"Point"},"properties":{"osm_id":"6185306062","tag":{"amenity":"waste_basket","waste":"trash"}},"type":"Feature"},
	{"geometry":{"coordinates":[55.483488,-20.901979],"type":"Point"},"properties":{"osm_id":"6185306077","tag":{"amenity":"waste_basket","waste":"trash"}},"type":"Feature"},
	{"geometry":{"coordinates":[55.483484,-20.902021],"type":"Point"},"properties":{"osm_id":"6185334333","tag":{"amenity":"waste_basket","waste":"trash"}},"type":"Feature"},
	{"geometry":{"coordinates":[55.48577,-20.90136],"type":"Point"},"properties":{"osm_id":"6185339342","tag":{"amenity":"recycling","recycling:glass_bottles":"yes","recycling_type":"container"}},"type":"Feature"},
	{"geometry":{"coordinates":[55.485224,-20.901138],"type":"Point"},"properties":{"osm_id":"6185339345","tag":{"amenity":"waste_basket"}},"type":"Feature"},
	{"geometry":{"coordinates":[55.485228,-20.90087],"type":"Point"},"properties":{"osm_id":"6185339349","tag":{"amenity":"waste_basket"}},"type":"Feature"},
	{"geometry":{"coordinates":[55.485794,-20.901891],"type":"Point"},"properties":{"osm_id":"6185340187","tag":{"amenity":"recycling","recycling:glass":"yes","recycling_type":"container"}},"type":"Feature"},
	{"geometry":{"coordinates":[55.485795,-20.901882],"type":"Point"},"properties":{"osm_id":"6185340188","tag":{"amenity":"recycling","recycling:glass":"yes","recycling_type":"container"}},"type":"Feature"},
	{"geometry":{"coordinates":[55.485797,-20.901873],"type":"Point"},"properties":{"osm_id":"6185340189","tag":{"amenity":"waste_disposal"}},"type":"Feature"},
	{"geometry":{"coordinates":[55.485801,-20.901852],"type":"Point"},"properties":{"osm_id":"6185340190","tag":{"amenity":"waste_disposal"}},"type":"Feature"},
	{"geometry":{"coordinates":[55.485802,-20.901844],"type":"Point"},"properties":{"osm_id":"6185340191","tag":{"amenity":"waste_disposal"}},"type":"Feature"},
	{"geometry":{"coordinates":[55.4858,-20.90186],"type":"Point"},"properties":{"osm_id":"6185340192","tag":{"amenity":"waste_disposal"}},"type":"Feature"},
	{"geometry":{"coordinates":[55.48587,-20.901555],"type":"Point"},"properties":{"osm_id":"6185340198","tag":{"amenity":"waste_disposal"}},"type":"Feature"},
	{"geometry":{"coordinates":[55.486011,-20.902018],"type":"Point"},"properties":{"osm_id":"6185340209","tag":{"amenity":"waste_basket"}},"type":"Feature"},
	{"geometry":{"coordinates":[55.485688,-20.901888],"type":"Point"},"properties":{"osm_id":"6185340218","tag":{"amenity":"waste_basket"}},"type":"Feature"},
	{"geometry":{"coordinates":[55.483624,-20.902246],"type":"Point"},"properties":{"osm_id":"6185340308","tag":{"amenity":"waste_basket"}},"type":"Feature"},
	{"geometry":{"coordinates":[55.483747,-20.902275],"type":"Point"},"properties":{"osm_id":"6185340309","tag":{"amenity":"waste_basket"}},"type":"Feature"},
	{"geometry":{"coordinates":[55.485549,-20.902457],"type":"Point"},"properties":{"osm_id":"6185341295","tag":{"amenity":"waste_basket"}},"type":"Feature"},
	{"geometry":{"coordinates":[55.485686,-20.902185],"type":"Point"},"properties":{"osm_id":"6185341298","tag":{"amenity":"waste_basket"}},"type":"Feature"},
	{"geometry":{"coordinates":[55.483102,-20.901434],"type":"Point"},"properties":{"osm_id":"6185341299","tag":{"amenity":"waste_basket"}},"type":"Feature"},
	{"geometry":{"coordinates":[55.483176,-20.901101],"type":"Point"},"properties":{"osm_id":"6185341302","tag":{"amenity":"waste_basket"}},"type":"Feature"},
	{"geometry":{"coordinates":[55.483247,-20.900917],"type":"Point"},"properties":{"osm_id":"6185341303","tag":{"amenity":"waste_basket"}},"type":"Feature"},
	{"geometry":{"coordinates":[55.483283,-20.900601],"type":"Point"},"properties":{"osm_id":"6185341310","tag":{"amenity":"waste_basket"}},"type":"Feature"},
	{"geometry":{"coordinates":[55.48337,-20.900613],"type":"Point"},"properties":{"osm_id":"6185341311","tag":{"amenity":"waste_basket"}},"type":"Feature"},
	{"geometry":{"coordinates":[55.483448,-20.900628],"type":"Point"},"properties":{"osm_id":"6185341312","tag":{"amenity":"waste_basket"}},"type":"Feature"},
	{"geometry":{"coordinates":[55.483532,-20.900642],"type":"Point"},"properties":{"osm_id":"6185341313","tag":{"amenity":"waste_basket"}},"type":"Feature"},
	{"geometry":{"coordinates":[55.484766,-20.901258],"type":"Point"},"properties":{"osm_id":"6185342375","tag":{"amenity":"waste_basket"}},"type":"Feature"},
	{"geometry":{"coordinates":[55.483868,-20.901224],"type":"Point"},"properties":{"osm_id":"6185342377","tag":{"amenity":"waste_basket"}},"type":"Feature"},
	{"geometry":{"coordinates":[55.483927,-20.901225],"type":"Point"},"properties":{"osm_id":"6185342378","tag":{"amenity":"waste_basket"}},"type":"Feature"},
	{"geometry":{"coordinates":[55.48411,-20.901374],"type":"Point"},"properties":{"osm_id":"6185342381","tag":{"amenity":"waste_basket"}},"type":"Feature"},
	{"geometry":{"coordinates":[55.484634,-20.901231],"type":"Point"},"properties":{"osm_id":"6185365981","tag":{"amenity":"waste_basket"}},"type":"Feature"},
	{"geometry":{"coordinates":[55.484421,-20.901193],"type":"Point"},"properties":{"osm_id":"6185365982","tag":{"amenity":"waste_basket"}},"type":"Feature"},
	{"geometry":{"coordinates":[55.484171,-20.901143],"type":"Point"},"properties":{"osm_id":"6185365983","tag":{"amenity":"waste_basket"}},"type":"Feature"},
	{"geometry":{"coordinates":[55.484311,-20.901171],"type":"Point"},"properties":{"osm_id":"6185365984","tag":{"amenity":"waste_basket"}},"type":"Feature"},
	{"geometry":{"coordinates":[55.526136,-20.926438],"type":"Point"},"properties":{"osm_id":"6868887955","tag":{"amenity":"recycling","recycling_type":"container"}},"type":"Feature"},
	{"geometry":{"coordinates":[55.529366,-20.922814],"type":"Point"},"properties":{"osm_id":"7031828989","tag":{"amenity":"recycling","recycling:glass":"yes","recycling_type":"container"}},"type":"Feature"}
]
}
