{
"type": "FeatureCollection",
"features": [
	{"geometry":{"coordinates":[55.490192,-21.340001],"type":"Point"},"properties":{"osm_id":"4002056590","tag":{"amenity":"waste_basket"}},"type":"Feature"},
	{"geometry":{"coordinates":[55.490275,-21.340575],"type":"Point"},"properties":{"osm_id":"4002056591","tag":{"amenity":"waste_basket"}},"type":"Feature"},
	{"geometry":{"coordinates":[55.490037,-21.340296],"type":"Point"},"properties":{"osm_id":"4002077389","tag":{"amenity":"waste_basket"}},"type":"Feature"},
	{"geometry":{"coordinates":[55.488606,-21.340414],"type":"Point"},"properties":{"osm_id":"4002113547","tag":{"amenity":"waste_basket"}},"type":"Feature"},
	{"geometry":{"coordinates":[55.48973,-21.339281],"type":"Point"},"properties":{"osm_id":"4002133814","tag":{"amenity":"waste_basket"}},"type":"Feature"},
	{"geometry":{"coordinates":[55.489708,-21.339499],"type":"Point"},"properties":{"osm_id":"4002133815","tag":{"amenity":"waste_basket"}},"type":"Feature"},
	{"geometry":{"coordinates":[55.490052,-21.340279],"type":"Point"},"properties":{"osm_id":"4002133817","tag":{"amenity":"waste_basket"}},"type":"Feature"},
	{"geometry":{"coordinates":[55.488545,-21.340582],"type":"Point"},"properties":{"osm_id":"4002133819","tag":{"amenity":"waste_basket"}},"type":"Feature"},
	{"geometry":{"coordinates":[55.492472,-21.3443],"type":"Point"},"properties":{"name":"Borne \u00c3\u00a0 verre","osm_id":"4005916086","tag":{"amenity":"recycling","recycling:glass_bottles":"yes","recycling_type":"container"}},"type":"Feature"},
	{"geometry":{"coordinates":[55.487139,-21.346224],"type":"Point"},"properties":{"name":"Borne \u00c3\u00a0 verre","osm_id":"4005916087","tag":{"amenity":"recycling","recycling:glass":"yes","recycling:glass_bottles":"yes","recycling_type":"container"}},"type":"Feature"},
	{"geometry":{"coordinates":[55.490456,-21.346352],"type":"Point"},"properties":{"name":"Borne \u00c3\u00a0 verre","osm_id":"4005916088","tag":{"amenity":"recycling","recycling:glass_bottles":"yes","recycling_type":"container"}},"type":"Feature"},
	{"geometry":{"coordinates":[55.493699,-21.347927],"type":"Point"},"properties":{"name":"Borne \u00c3\u00a0 verre","osm_id":"4005917689","tag":{"amenity":"recycling","recycling:glass_bottles":"yes","recycling_type":"container"}},"type":"Feature"},
	{"geometry":{"coordinates":[55.498896,-21.348728],"type":"Point"},"properties":{"name":"Borne \u00c3\u00a0 verre","osm_id":"4005917690","tag":{"amenity":"recycling","recycling:glass_bottles":"yes","recycling_type":"container"}},"type":"Feature"},
	{"geometry":{"coordinates":[55.508822,-21.351146],"type":"Point"},"properties":{"osm_id":"4005917691","tag":{"amenity":"recycling","recycling_type":"container"}},"type":"Feature"},
	{"geometry":{"coordinates":[55.511222,-21.351398],"type":"Point"},"properties":{"osm_id":"4005917692","tag":{"amenity":"recycling","recycling_type":"container"}},"type":"Feature"},
	{"geometry":{"coordinates":[55.513301,-21.351427],"type":"Point"},"properties":{"osm_id":"4005917693","tag":{"amenity":"recycling","recycling_type":"container"}},"type":"Feature"},
	{"geometry":{"coordinates":[55.508988,-21.352917],"type":"Point"},"properties":{"name":"Borne \u00c3\u00a0 verre","osm_id":"4005917694","tag":{"amenity":"recycling","recycling:glass_bottles":"yes","recycling_type":"container"}},"type":"Feature"},
	{"geometry":{"coordinates":[55.523995,-21.357293],"type":"Point"},"properties":{"name":"Borne \u00c3\u00a0 verre","osm_id":"4005917695","tag":{"amenity":"recycling","recycling:glass_bottles":"yes","recycling_type":"container"}},"type":"Feature"},
	{"geometry":{"coordinates":[55.516222,-21.357404],"type":"Point"},"properties":{"name":"Borne \u00c3\u00a0 verre","osm_id":"4005917697","tag":{"amenity":"recycling","recycling:glass_bottles":"yes","recycling_type":"container"}},"type":"Feature"},
	{"geometry":{"coordinates":[55.526508,-21.36127],"type":"Point"},"properties":{"name":"Borne \u00c3\u00a0 verre","osm_id":"4005917701","tag":{"amenity":"recycling","recycling:glass_bottles":"yes","recycling_type":"container"}},"type":"Feature"},
	{"geometry":{"coordinates":[55.529547,-21.361323],"type":"Point"},"properties":{"name":"Borne \u00c3\u00a0 verre","osm_id":"4005917702","tag":{"amenity":"recycling","recycling:glass_bottles":"yes","recycling_type":"container"}},"type":"Feature"},
	{"geometry":{"coordinates":[55.533823,-21.361397],"type":"Point"},"properties":{"name":"Borne \u00c3\u00a0 verre","osm_id":"4005917703","tag":{"amenity":"recycling","recycling:glass_bottles":"yes","recycling_type":"container"}},"type":"Feature"},
	{"geometry":{"coordinates":[55.533636,-21.363159],"type":"Point"},"properties":{"name":"Borne \u00c3\u00a0 verre","osm_id":"4005917704","tag":{"amenity":"recycling","recycling:glass_bottles":"yes","recycling_type":"container"}},"type":"Feature"},
	{"geometry":{"coordinates":[55.539894,-21.363535],"type":"Point"},"properties":{"name":"Borne \u00c3\u00a0 verre","osm_id":"4005917705","tag":{"amenity":"recycling","recycling:glass_bottles":"yes","recycling_type":"container"}},"type":"Feature"},
	{"geometry":{"coordinates":[55.508143,-21.308775],"type":"Point"},"properties":{"osm_id":"4014965342","tag":{"amenity":"recycling","recycling:glass":"no","recycling:glass_bottles":"yes","recycling_type":"container"}},"type":"Feature"},
	{"geometry":{"coordinates":[55.501963,-21.346718],"type":"Point"},"properties":{"osm_id":"4015908654","tag":{"amenity":"recycling","recycling:glass_bottles":"yes","recycling_type":"container"}},"type":"Feature"},
	{"geometry":{"coordinates":[55.495221,-21.325636],"type":"Point"},"properties":{"osm_id":"4015914181","tag":{"amenity":"recycling","recycling:glass":"yes","recycling_type":"container"}},"type":"Feature"},
	{"geometry":{"coordinates":[55.490476,-21.328849],"type":"Point"},"properties":{"name":"Borne \u00c3\u00a0 verre","osm_id":"4015949599","tag":{"amenity":"recycling","recycling:glass":"no","recycling:glass_bottles":"yes","recycling_type":"container"}},"type":"Feature"},
	{"geometry":{"coordinates":[55.516006,-21.355719],"type":"Point"},"properties":{"osm_id":"4018456971","tag":{"amenity":"recycling","recycling:clothes":"yes","recycling_type":"container"}},"type":"Feature"},
	{"geometry":{"coordinates":[55.490876,-21.346846],"type":"Point"},"properties":{"name":"Borne \u00c3\u00a0 textiles","osm_id":"4018954269","tag":{"amenity":"recycling","recycling:clothes":"yes","recycling_type":"container"}},"type":"Feature"},
	{"geometry":{"coordinates":[55.466477,-21.342832],"type":"Point"},"properties":{"osm_id":"4029777066","tag":{"amenity":"recycling","description":"Borne \u00c3\u00a0 verre","recycling:glass_bottles":"yes","recycling_type":"container"}},"type":"Feature"},
	{"geometry":{"coordinates":[55.462922,-21.341318],"type":"Point"},"properties":{"name":"Borne \u00c3\u00a0 verre","osm_id":"4029777067","tag":{"amenity":"recycling","recycling:glass_bottles":"yes","recycling_type":"container"}},"type":"Feature"},
	{"geometry":{"coordinates":[55.462076,-21.340974],"type":"Point"},"properties":{"name":"Borne \u00c3\u00a0 verre","osm_id":"4029777068","tag":{"amenity":"recycling","recycling:glass_bottles":"yes","recycling_type":"container"}},"type":"Feature"},
	{"geometry":{"coordinates":[55.462051,-21.340964],"type":"Point"},"properties":{"name":"Borne \u00c3\u00a0 textile","osm_id":"4029777069","tag":{"amenity":"recycling","recycling:clothes":"yes","recycling_type":"container"}},"type":"Feature"},
	{"geometry":{"coordinates":[55.478179,-21.343374],"type":"Point"},"properties":{"name":"Borne \u00c3\u00a0 verre","osm_id":"4065521461","tag":{"amenity":"recycling","recycling:glass_bottles":"yes","recycling_type":"container"}},"type":"Feature"},
	{"geometry":{"coordinates":[55.477355,-21.342212],"type":"Point"},"properties":{"osm_id":"4067050574","tag":{"amenity":"recycling","recycling:clothes":"yes","recycling_type":"container"}},"type":"Feature"},
	{"geometry":{"coordinates":[55.481773,-21.347691],"type":"Point"},"properties":{"name":"Borne \u00c3\u00a0 verre","osm_id":"4068947192","tag":{"amenity":"recycling","recycling:glass_bottles":"yes","recycling_type":"container"}},"type":"Feature"},
	{"geometry":{"coordinates":[55.484047,-21.337435],"type":"Point"},"properties":{"name":"Borne \u00c3\u00a0 verre","osm_id":"4078628912","tag":{"amenity":"recycling","recycling:glass_bottles":"yes","recycling_type":"container"}},"type":"Feature"},
	{"geometry":{"coordinates":[55.481916,-21.341823],"type":"Point"},"properties":{"name":"Borne \u00c3\u00a0 verre","osm_id":"4078628913","tag":{"amenity":"recycling","recycling:glass_bottles":"yes","recycling_type":"container"}},"type":"Feature"},
	{"geometry":{"coordinates":[55.481653,-21.339078],"type":"Point"},"properties":{"name":"Borne \u00c3\u00a0 verre","osm_id":"4078628914","tag":{"amenity":"recycling","recycling:glass_bottles":"yes","recycling_type":"container"}},"type":"Feature"},
	{"geometry":{"coordinates":[55.484595,-21.339102],"type":"Point"},"properties":{"name":"Borne \u00c3\u00a0 verre","osm_id":"4078632569","tag":{"amenity":"recycling","recycling:glass_bottles":"yes","recycling_type":"container"}},"type":"Feature"},
	{"geometry":{"coordinates":[55.484214,-21.334606],"type":"Point"},"properties":{"name":"Borne \u00c3\u00a0 verre","osm_id":"4078632570","tag":{"amenity":"recycling","recycling:glass_bottles":"yes","recycling_type":"container"}},"type":"Feature"},
	{"geometry":{"coordinates":[55.487389,-21.338826],"type":"Point"},"properties":{"name":"Borne \u00c3\u00a0 verre","osm_id":"4078632571","tag":{"amenity":"recycling","recycling:glass_bottles":"yes","recycling_type":"container"}},"type":"Feature"},
	{"geometry":{"coordinates":[55.48799,-21.339675],"type":"Point"},"properties":{"name":"Borne \u00c3\u00a0 verre","osm_id":"4078632572","tag":{"amenity":"recycling","recycling:glass_bottles":"yes","recycling_type":"container"}},"type":"Feature"},
	{"geometry":{"coordinates":[55.479711,-21.344303],"type":"Point"},"properties":{"name":"Borne \u00c3\u00a0 verre","osm_id":"4078641890","tag":{"amenity":"recycling","recycling:glass_bottles":"yes","recycling_type":"container"}},"type":"Feature"},
	{"geometry":{"coordinates":[55.483632,-21.349459],"type":"Point"},"properties":{"name":"Borne \u00c3\u00a0 verre","osm_id":"4078641891","tag":{"amenity":"recycling","recycling:glass_bottles":"yes","recycling_type":"container"}},"type":"Feature"},
	{"geometry":{"coordinates":[55.487416,-21.349304],"type":"Point"},"properties":{"name":"Borne \u00c3\u00a0 verre","osm_id":"4078641892","tag":{"amenity":"recycling","recycling:glass_bottles":"yes","recycling_type":"container"}},"type":"Feature"},
	{"geometry":{"coordinates":[55.490412,-21.347806],"type":"Point"},"properties":{"osm_id":"4078641893","tag":{"amenity":"recycling","recycling:glass_bottles":"yes","recycling_type":"container"}},"type":"Feature"},
	{"geometry":{"coordinates":[55.481909,-21.341845],"type":"Point"},"properties":{"name":"Borne \u00c3\u00a0 v\u00c3\u00aatements","osm_id":"4086331335","tag":{"addr:city":"Saint-Pierre","addr:postcode":"97410","addr:street":"Rue Jean XXIII","amenity":"recycling","recycling:cans":"no","recycling:clothes":"yes","recycling:glass":"no","recycling:glass_bottles":"no","recycling:paper":"no","recycling:plastic":"no","recycling_type":"container"}},"type":"Feature"},
	{"geometry":{"coordinates":[55.465557,-21.334021],"type":"Point"},"properties":{"name":"Borne \u00c3\u00a0 verre","osm_id":"4144835689","tag":{"amenity":"recycling","recycling:glass_bottles":"yes","recycling_type":"container"}},"type":"Feature"},
	{"geometry":{"coordinates":[55.477162,-21.322393],"type":"Point"},"properties":{"osm_id":"4158812415","tag":{"amenity":"recycling","recycling:cans":"no","recycling:clothes":"no","recycling:glass":"yes","recycling:glass_bottles":"yes","recycling:paper":"no","recycling:plastic":"no","recycling_type":"container"}},"type":"Feature"},
	{"geometry":{"coordinates":[55.493544,-21.30286],"type":"Point"},"properties":{"osm_id":"4226636591","tag":{"amenity":"recycling","recycling:glass_bottles":"yes"}},"type":"Feature"},
	{"geometry":{"coordinates":[55.482116,-21.331077],"type":"Point"},"properties":{"name":"Borne \u00c3\u00a0 verre","osm_id":"4598442063","tag":{"amenity":"recycling","recycling:glass_bottles":"yes","recycling_type":"container"}},"type":"Feature"},
	{"geometry":{"coordinates":[55.463212,-21.336771],"type":"Point"},"properties":{"osm_id":"5151304823","tag":{"amenity":"waste_basket"}},"type":"Feature"},
	{"geometry":{"coordinates":[55.463263,-21.33692],"type":"Point"},"properties":{"osm_id":"5151319880","tag":{"amenity":"waste_basket"}},"type":"Feature"},
	{"geometry":{"coordinates":[55.463446,-21.336863],"type":"Point"},"properties":{"osm_id":"5151319881","tag":{"amenity":"recycling","recycling:glass_bottles":"yes","recycling_type":"container"}},"type":"Feature"},
	{"geometry":{"coordinates":[55.463115,-21.337396],"type":"Point"},"properties":{"osm_id":"5151341407","tag":{"amenity":"waste_basket"}},"type":"Feature"},
	{"geometry":{"coordinates":[55.463467,-21.3369],"type":"Point"},"properties":{"osm_id":"5151342628","tag":{"amenity":"waste_basket","waste":"verre"}},"type":"Feature"},
	{"geometry":{"coordinates":[55.462342,-21.338538],"type":"Point"},"properties":{"osm_id":"5151351015","tag":{"amenity":"waste_basket"}},"type":"Feature"},
	{"geometry":{"coordinates":[55.462571,-21.338415],"type":"Point"},"properties":{"osm_id":"5151351016","tag":{"amenity":"waste_basket"}},"type":"Feature"},
	{"geometry":{"coordinates":[55.462926,-21.33823],"type":"Point"},"properties":{"osm_id":"5151359225","tag":{"amenity":"waste_basket"}},"type":"Feature"},
	{"geometry":{"coordinates":[55.462783,-21.337627],"type":"Point"},"properties":{"osm_id":"5151372924","tag":{"amenity":"waste_basket"}},"type":"Feature"},
	{"geometry":{"coordinates":[55.463103,-21.33736],"type":"Point"},"properties":{"osm_id":"5151372925","tag":{"amenity":"waste_basket"}},"type":"Feature"},
	{"geometry":{"coordinates":[55.462316,-21.338705],"type":"Point"},"properties":{"osm_id":"5151374121","tag":{"amenity":"waste_basket"}},"type":"Feature"},
	{"geometry":{"coordinates":[55.462525,-21.338057],"type":"Point"},"properties":{"osm_id":"5151377523","tag":{"amenity":"waste_basket"}},"type":"Feature"},
	{"geometry":{"coordinates":[55.46459,-21.337947],"type":"Point"},"properties":{"osm_id":"5151546153","tag":{"amenity":"waste_basket"}},"type":"Feature"},
	{"geometry":{"coordinates":[55.463593,-21.337195],"type":"Point"},"properties":{"osm_id":"5151551367","tag":{"amenity":"waste_basket"}},"type":"Feature"},
	{"geometry":{"coordinates":[55.486904,-21.342685],"type":"Point"},"properties":{"osm_id":"5234528705","tag":{"amenity":"recycling","recycling:glass":"yes","recycling_type":"container"}},"type":"Feature"},
	{"geometry":{"coordinates":[55.469688,-21.301462],"type":"Point"},"properties":{"name":"D\u00c3\u00a9chetterie de Saint-Pierre","osm_id":"6608925283","tag":{"addr:city":"Saint-Pierre","addr:postcode":"97410","addr:street":"Chemin Bordier","amenity":"recycling","operator":"CIVIS","operator:type":"public","recycling_type":"centre"}},"type":"Feature"}
]
}
