{
"type": "FeatureCollection",
"features": [
	{"geometry":{"coordinates":[-52.674749,47.603956],"type":"Point"},"properties":{"name":"Robin Hood Landfill","osm_id":"2125798619","tag":{"amenity":"recycling","description":"Landfill, recycling, and hazardous waste disposal","recycling_type":"centre","website":"http://www.curbitstjohns.ca/?Content=Robin_Hood_Bay_Facility/Hours_of_Operation"}},"type":"Feature"},
	{"geometry":{"coordinates":[-52.697302,47.580185],"type":"Point"},"properties":{"osm_id":"2256109533","tag":{"amenity":"waste_basket"}},"type":"Feature"},
	{"geometry":{"coordinates":[-52.691527,47.582612],"type":"Point"},"properties":{"osm_id":"2256109637","tag":{"amenity":"waste_basket"}},"type":"Feature"},
	{"geometry":{"coordinates":[-52.691042,47.582599],"type":"Point"},"properties":{"osm_id":"2256109638","tag":{"amenity":"waste_basket"}},"type":"Feature"},
	{"geometry":{"coordinates":[-52.690446,47.5828],"type":"Point"},"properties":{"osm_id":"2256109639","tag":{"amenity":"waste_basket"}},"type":"Feature"},
	{"geometry":{"coordinates":[-52.687665,47.583155],"type":"Point"},"properties":{"osm_id":"2256109713","tag":{"amenity":"waste_basket"}},"type":"Feature"},
	{"geometry":{"coordinates":[-52.68458,47.58405],"type":"Point"},"properties":{"osm_id":"2256109759","tag":{"amenity":"waste_basket"}},"type":"Feature"},
	{"geometry":{"coordinates":[-52.679559,47.583859],"type":"Point"},"properties":{"osm_id":"2256109780","tag":{"amenity":"waste_basket"}},"type":"Feature"},
	{"geometry":{"coordinates":[-52.682686,47.581422],"type":"Point"},"properties":{"osm_id":"2256109794","tag":{"amenity":"waste_basket"}},"type":"Feature"},
	{"geometry":{"coordinates":[-52.684115,47.58116],"type":"Point"},"properties":{"osm_id":"2256109799","tag":{"amenity":"waste_basket"}},"type":"Feature"},
	{"geometry":{"coordinates":[-52.691178,47.579182],"type":"Point"},"properties":{"osm_id":"2256109816","tag":{"amenity":"waste_basket"}},"type":"Feature"},
	{"geometry":{"coordinates":[-52.692421,47.578793],"type":"Point"},"properties":{"osm_id":"2256109820","tag":{"amenity":"waste_basket"}},"type":"Feature"},
	{"geometry":{"coordinates":[-52.693291,47.578525],"type":"Point"},"properties":{"osm_id":"2256109826","tag":{"amenity":"waste_basket"}},"type":"Feature"},
	{"geometry":{"coordinates":[-52.695542,47.578139],"type":"Point"},"properties":{"osm_id":"2256109832","tag":{"amenity":"waste_basket"}},"type":"Feature"},
	{"geometry":{"coordinates":[-52.695425,47.578218],"type":"Point"},"properties":{"osm_id":"2256109833","tag":{"amenity":"waste_basket"}},"type":"Feature"},
	{"geometry":{"coordinates":[-52.6988,47.577553],"type":"Point"},"properties":{"osm_id":"2256109841","tag":{"amenity":"waste_basket"}},"type":"Feature"},
	{"geometry":{"coordinates":[-52.699868,47.578281],"type":"Point"},"properties":{"osm_id":"2256109849","tag":{"amenity":"waste_basket"}},"type":"Feature"},
	{"geometry":{"coordinates":[-52.699679,47.579045],"type":"Point"},"properties":{"osm_id":"2266146636","tag":{"amenity":"waste_basket"}},"type":"Feature"},
	{"geometry":{"coordinates":[-52.689717,47.582839],"type":"Point"},"properties":{"osm_id":"2266146637","tag":{"amenity":"waste_basket"}},"type":"Feature"},
	{"geometry":{"coordinates":[-52.689229,47.583442],"type":"Point"},"properties":{"osm_id":"2266146646","tag":{"amenity":"waste_basket"}},"type":"Feature"},
	{"geometry":{"coordinates":[-52.703548,47.576617],"type":"Point"},"properties":{"osm_id":"2283481633","tag":{"amenity":"recycling","recycling:cans":"yes","recycling:paper":"yes"}},"type":"Feature"},
	{"geometry":{"coordinates":[-52.714658,47.577997],"type":"Point"},"properties":{"osm_id":"2283481745","tag":{"amenity":"waste_basket"}},"type":"Feature"},
	{"geometry":{"coordinates":[-52.715576,47.578348],"type":"Point"},"properties":{"osm_id":"2283481754","tag":{"amenity":"waste_basket"}},"type":"Feature"},
	{"geometry":{"coordinates":[-52.716244,47.57795],"type":"Point"},"properties":{"osm_id":"2283481775","tag":{"amenity":"waste_basket"}},"type":"Feature"},
	{"geometry":{"coordinates":[-52.719331,47.578664],"type":"Point"},"properties":{"osm_id":"2283481785","tag":{"amenity":"waste_basket"}},"type":"Feature"},
	{"geometry":{"coordinates":[-52.719845,47.578696],"type":"Point"},"properties":{"osm_id":"2283481793","tag":{"amenity":"waste_basket"}},"type":"Feature"},
	{"geometry":{"coordinates":[-52.7276,47.581503],"type":"Point"},"properties":{"osm_id":"2283481977","tag":{"amenity":"waste_basket"}},"type":"Feature"},
	{"geometry":{"coordinates":[-52.69234,47.582397],"type":"Point"},"properties":{"osm_id":"2320079331","tag":{"amenity":"waste_basket"}},"type":"Feature"},
	{"geometry":{"coordinates":[-52.6905,47.583525],"type":"Point"},"properties":{"osm_id":"2320079334","tag":{"amenity":"waste_basket"}},"type":"Feature"},
	{"geometry":{"coordinates":[-52.690452,47.587759],"type":"Point"},"properties":{"osm_id":"2320079550","tag":{"amenity":"waste_basket"}},"type":"Feature"},
	{"geometry":{"coordinates":[-52.699193,47.596557],"type":"Point"},"properties":{"osm_id":"2320081789","tag":{"amenity":"waste_basket"}},"type":"Feature"},
	{"geometry":{"coordinates":[-52.70012,47.596177],"type":"Point"},"properties":{"osm_id":"2320081790","tag":{"amenity":"waste_basket"}},"type":"Feature"},
	{"geometry":{"coordinates":[-52.704613,47.5969],"type":"Point"},"properties":{"osm_id":"2320081793","tag":{"amenity":"waste_basket"}},"type":"Feature"},
	{"geometry":{"coordinates":[-52.70646,47.596708],"type":"Point"},"properties":{"osm_id":"2320081799","tag":{"amenity":"waste_basket"}},"type":"Feature"},
	{"geometry":{"coordinates":[-52.708336,47.596124],"type":"Point"},"properties":{"osm_id":"2320081800","tag":{"amenity":"waste_basket"}},"type":"Feature"},
	{"geometry":{"coordinates":[-52.711002,47.601303],"type":"Point"},"properties":{"osm_id":"2320081838","tag":{"amenity":"waste_basket"}},"type":"Feature"},
	{"geometry":{"coordinates":[-52.708138,47.602793],"type":"Point"},"properties":{"osm_id":"2320081840","tag":{"amenity":"waste_basket"}},"type":"Feature"},
	{"geometry":{"coordinates":[-52.701757,47.60211],"type":"Point"},"properties":{"osm_id":"2320081845","tag":{"amenity":"waste_basket"}},"type":"Feature"},
	{"geometry":{"coordinates":[-52.700358,47.599568],"type":"Point"},"properties":{"osm_id":"2320081865","tag":{"amenity":"waste_basket"}},"type":"Feature"},
	{"geometry":{"coordinates":[-52.701302,47.596364],"type":"Point"},"properties":{"osm_id":"2320081868","tag":{"amenity":"waste_basket"}},"type":"Feature"},
	{"geometry":{"coordinates":[-52.691777,47.593768],"type":"Point"},"properties":{"osm_id":"2320081869","tag":{"amenity":"waste_basket"}},"type":"Feature"},
	{"geometry":{"coordinates":[-52.733761,47.577002],"type":"Point"},"properties":{"osm_id":"3757921000","tag":{"amenity":"waste_basket"}},"type":"Feature"},
	{"geometry":{"coordinates":[-52.712378,47.582188],"type":"Point"},"properties":{"osm_id":"6176420916","tag":{"amenity":"waste_basket"}},"type":"Feature"},
	{"geometry":{"coordinates":[-52.71197,47.581764],"type":"Point"},"properties":{"osm_id":"6176420931","tag":{"amenity":"waste_disposal"}},"type":"Feature"},
	{"geometry":{"coordinates":[-52.712008,47.581743],"type":"Point"},"properties":{"osm_id":"6176420932","tag":{"amenity":"waste_disposal"}},"type":"Feature"},
	{"geometry":{"coordinates":[-52.702446,47.621869],"type":"Point"},"properties":{"osm_id":"6700730375","tag":{"amenity":"waste_basket","colour":"green","material":"steel"}},"type":"Feature"},
	{"geometry":{"coordinates":[-52.70308,47.623239],"type":"Point"},"properties":{"osm_id":"6700730380","tag":{"amenity":"waste_basket"}},"type":"Feature"},
	{"geometry":{"coordinates":[-52.723006,47.611857],"type":"Point"},"properties":{"osm_id":"6701069401","tag":{"amenity":"waste_disposal"}},"type":"Feature"},
	{"geometry":{"coordinates":[-52.723069,47.611861],"type":"Point"},"properties":{"osm_id":"6701069402","tag":{"amenity":"recycling","recycling_type":"container"}},"type":"Feature"},
	{"geometry":{"coordinates":[-52.724783,47.611974],"type":"Point"},"properties":{"osm_id":"6701161605","tag":{"amenity":"waste_basket"}},"type":"Feature"},
	{"geometry":{"coordinates":[-52.707318,47.6149],"type":"Point"},"properties":{"osm_id":"6709040809","tag":{"amenity":"waste_disposal"}},"type":"Feature"},
	{"geometry":{"coordinates":[-52.703375,47.616583],"type":"Point"},"properties":{"osm_id":"6717475725","tag":{"amenity":"waste_basket"}},"type":"Feature"},
	{"geometry":{"coordinates":[-52.71826,47.619072],"type":"Point"},"properties":{"osm_id":"6752789484","tag":{"amenity":"waste_disposal"}},"type":"Feature"},
	{"geometry":{"coordinates":[-52.707397,47.591066],"type":"Point"},"properties":{"osm_id":"6758446164","tag":{"amenity":"waste_basket"}},"type":"Feature"},
	{"geometry":{"coordinates":[-52.70775,47.590998],"type":"Point"},"properties":{"osm_id":"6758446168","tag":{"amenity":"waste_basket"}},"type":"Feature"},
	{"geometry":{"coordinates":[-52.723413,47.612144],"type":"Point"},"properties":{"osm_id":"6779757857","tag":{"amenity":"waste_disposal"}},"type":"Feature"},
	{"geometry":{"coordinates":[-52.723449,47.612584],"type":"Point"},"properties":{"osm_id":"6779821530","tag":{"amenity":"waste_disposal"}},"type":"Feature"},
	{"geometry":{"coordinates":[-52.723466,47.612638],"type":"Point"},"properties":{"osm_id":"6779821531","tag":{"amenity":"waste_disposal"}},"type":"Feature"},
	{"geometry":{"coordinates":[-52.723469,47.61267],"type":"Point"},"properties":{"osm_id":"6779821532","tag":{"amenity":"waste_disposal"}},"type":"Feature"},
	{"geometry":{"coordinates":[-52.720299,47.614193],"type":"Point"},"properties":{"osm_id":"6795809745","tag":{"amenity":"waste_disposal"}},"type":"Feature"},
	{"geometry":{"coordinates":[-52.720335,47.614187],"type":"Point"},"properties":{"osm_id":"6795809746","tag":{"amenity":"waste_disposal"}},"type":"Feature"},
	{"geometry":{"coordinates":[-52.715085,47.616904],"type":"Point"},"properties":{"osm_id":"6796968265","tag":{"amenity":"waste_disposal"}},"type":"Feature"},
	{"geometry":{"coordinates":[-52.712237,47.618842],"type":"Point"},"properties":{"osm_id":"6797514872","tag":{"amenity":"waste_disposal"}},"type":"Feature"},
	{"geometry":{"coordinates":[-52.712193,47.618862],"type":"Point"},"properties":{"osm_id":"6797514873","tag":{"amenity":"waste_disposal"}},"type":"Feature"},
	{"geometry":{"coordinates":[-52.716902,47.618137],"type":"Point"},"properties":{"osm_id":"6797544495","tag":{"amenity":"waste_disposal"}},"type":"Feature"},
	{"geometry":{"coordinates":[-52.716931,47.618161],"type":"Point"},"properties":{"osm_id":"6797544496","tag":{"amenity":"waste_disposal"}},"type":"Feature"},
	{"geometry":{"coordinates":[-52.716131,47.617203],"type":"Point"},"properties":{"osm_id":"6797544615","tag":{"amenity":"waste_disposal"}},"type":"Feature"},
	{"geometry":{"coordinates":[-52.716163,47.61719],"type":"Point"},"properties":{"osm_id":"6797544616","tag":{"amenity":"waste_disposal"}},"type":"Feature"},
	{"geometry":{"coordinates":[-52.722191,47.614136],"type":"Point"},"properties":{"osm_id":"6821465223","tag":{"amenity":"waste_disposal"}},"type":"Feature"},
	{"geometry":{"coordinates":[-52.72216,47.614148],"type":"Point"},"properties":{"osm_id":"6821465224","tag":{"amenity":"waste_disposal"}},"type":"Feature"},
	{"geometry":{"coordinates":[-52.72168,47.614035],"type":"Point"},"properties":{"osm_id":"6821465359","tag":{"amenity":"waste_disposal"}},"type":"Feature"},
	{"geometry":{"coordinates":[-52.723365,47.614905],"type":"Point"},"properties":{"osm_id":"7468776923","tag":{"amenity":"waste_disposal"}},"type":"Feature"},
	{"geometry":{"coordinates":[-52.704839,47.588777],"type":"Point"},"properties":{"osm_id":"7562189664","tag":{"amenity":"waste_disposal"}},"type":"Feature"},
	{"geometry":{"coordinates":[-52.717865,47.605316],"type":"Point"},"properties":{"osm_id":"7567744244","tag":{"amenity":"waste_disposal"}},"type":"Feature"},
	{"geometry":{"coordinates":[-52.718177,47.617447],"type":"Point"},"properties":{"osm_id":"7572224584","tag":{"amenity":"waste_disposal"}},"type":"Feature"},
	{"geometry":{"coordinates":[-52.718208,47.617437],"type":"Point"},"properties":{"osm_id":"7572225385","tag":{"amenity":"waste_disposal"}},"type":"Feature"}
]
}
