{
"type": "FeatureCollection",
"features": [
	{"geometry":{"coordinates":[17.469047,50.862414],"type":"Point"},"properties":{"osm_id":"7193215816","tag":{"amenity":"waste_basket"}},"type":"Feature"},
	{"geometry":{"coordinates":[17.456388,50.851637],"type":"Point"},"properties":{"osm_id":"7193690651","tag":{"amenity":"recycling","operator":"Polski Czerwony Krzy\u00c5\u00bc","recycling:clothes":"yes","recycling_type":"container"}},"type":"Feature"},
	{"geometry":{"coordinates":[17.455667,50.864298],"type":"Point"},"properties":{"osm_id":"7206192286","tag":{"amenity":"recycling","recycling:scrap_metal":"yes","recycling_type":"centre"}},"type":"Feature"},
	{"geometry":{"coordinates":[17.467375,50.867937],"type":"Point"},"properties":{"osm_id":"7206192296","tag":{"amenity":"recycling","recycling:scrap_metal":"yes","recycling_type":"centre"}},"type":"Feature"},
	{"geometry":{"coordinates":[17.471654,50.859421],"type":"Point"},"properties":{"osm_id":"7206593308","tag":{"amenity":"recycling","level":"0","recycling:batteries":"yes","recycling:electrical_appliances":"yes","recycling_type":"container"}},"type":"Feature"},
	{"geometry":{"coordinates":[17.467976,50.849105],"type":"Point"},"properties":{"osm_id":"7263000947","tag":{"amenity":"recycling","operator":"Fundacja Dar","recycling:clothes":"yes","recycling_type":"container","website":"http://www.fundacjadar.com.pl"}},"type":"Feature"},
	{"geometry":{"coordinates":[17.468135,50.849064],"type":"Point"},"properties":{"osm_id":"7263000948","tag":{"amenity":"recycling","operator":"Polski Czerwony Krzy\u00c5\u00bc","recycling:clothes":"yes","recycling_type":"container"}},"type":"Feature"},
	{"geometry":{"coordinates":[17.47051,50.847704],"type":"Point"},"properties":{"osm_id":"7263000949","tag":{"amenity":"recycling","operator":"Polski Czerwony Krzy\u00c5\u00bc","recycling:clothes":"yes","recycling_type":"container"}},"type":"Feature"},
	{"geometry":{"coordinates":[17.470526,50.847729],"type":"Point"},"properties":{"osm_id":"7263000950","tag":{"amenity":"recycling","operator":"Fundacja Dar","recycling:clothes":"yes","recycling_type":"container","website":"http://www.fundacjadar.com.pl"}},"type":"Feature"},
	{"geometry":{"coordinates":[17.483469,50.856322],"type":"Point"},"properties":{"osm_id":"7299090985","tag":{"amenity":"recycling","operator":"Polski Czerwony Krzy\u00c5\u00bc","recycling:clothes":"yes","recycling_type":"container"}},"type":"Feature"}
]
}
