{
"type": "FeatureCollection",
"features": [
	{"geometry":{"coordinates":[17.479117,49.510168],"type":"Point"},"properties":{"osm_id":"1909715322","tag":{"amenity":"recycling","opening_hours":"24/7","opening_hours:covid19":"open","recycling:bio_waste":"yes","recycling:clothes":"yes","recycling:electronics":"yes","recycling:glass":"yes","recycling:hazardous_waste":"yes","recycling:metal":"yes","recycling:paper":"yes","recycling:plastic":"yes","recycling_type":"container"}},"type":"Feature"},
	{"geometry":{"coordinates":[17.427879,49.543701],"type":"Point"},"properties":{"osm_id":"6181882399","tag":{"amenity":"recycling","recycling:glass":"yes","recycling:paper":"yes","recycling:plastic":"yes","recycling_type":"container"}},"type":"Feature"},
	{"geometry":{"coordinates":[17.476943,49.509878],"type":"Point"},"properties":{"osm_id":"6937547883","tag":{"amenity":"recycling","opening_hours":"24/7","opening_hours:covid19":"open","recycling:glass":"yes","recycling_type":"container"}},"type":"Feature"},
	{"geometry":{"coordinates":[17.462584,49.524457],"type":"Point"},"properties":{"osm_id":"8747363333","tag":{"amenity":"recycling","recycling_type":"container"}},"type":"Feature"},
	{"geometry":{"coordinates":[17.41022,49.499506],"type":"Point"},"properties":{"osm_id":"8747363349","tag":{"amenity":"recycling","recycling_type":"container"}},"type":"Feature"},
	{"geometry":{"coordinates":[17.447556,49.546978],"type":"Point"},"properties":{"osm_id":"8871704131","tag":{"amenity":"recycling","recycling_type":"container"}},"type":"Feature"}
]
}
