{
"type": "FeatureCollection",
"lastupdate": "2020-08-06T00:00:00Z",
"features": [
	{"geometry":{"coordinates":[17.479188,47.315797],"type":"Point"},"properties":{"osm_id":"1707051178","tag":{"amenity":"recycling","recycling_type":"container"}},"type":"Feature"},
	{"geometry":{"coordinates":[17.464408,47.327033],"type":"Point"},"properties":{"osm_id":"3458275207","tag":{"addr:city":"P\u00e1pa","addr:street":"B\u00e1stya ltp.","amenity":"recycling","description":"A B\u00e1stya lak\u00f3telep sz\u00e9l\u00e9n, a Hotel Villa Classica mellett tal\u00e1lhat\u00f3ak a kont\u00e9nerek.","source:date":"2010-09-12","url":"http://turistautak.hu/poi.php?id=16889"}},"type":"Feature"},
	{"geometry":{"coordinates":[17.480183,47.33135],"type":"Point"},"properties":{"osm_id":"3458275219","tag":{"addr:street":"\u00d6t\u00f6dik utca, Tempo-CBA \u00fczletn\u00e9l","amenity":"recycling","recycling_type":"container","source:date":"2010-09-12","url":"http://turistautak.hu/poi.php?id=14071"}},"type":"Feature"},
	{"geometry":{"coordinates":[17.4656,47.33185],"type":"Point"},"properties":{"osm_id":"5341438264","tag":{"amenity":"recycling","recycling:paper":"yes","recycling:plastic":"yes","recycling_type":"container"}},"type":"Feature"}
]
}
