{
"type": "FeatureCollection",
"features": [
	{"geometry":{"coordinates":[17.471823,45.963893],"type":"Point"},"properties":{"osm_id":"277729487","tag":{"amenity":"recycling"}},"type":"Feature"},
	{"geometry":{"coordinates":[17.478481,45.961435],"type":"Point"},"properties":{"osm_id":"277730438","tag":{"amenity":"recycling"}},"type":"Feature"},
	{"geometry":{"coordinates":[17.474163,45.960558],"type":"Point"},"properties":{"osm_id":"277730515","tag":{"amenity":"recycling"}},"type":"Feature"},
	{"geometry":{"coordinates":[17.463808,45.961735],"type":"Point"},"properties":{"osm_id":"277730580","tag":{"amenity":"recycling"}},"type":"Feature"},
	{"geometry":{"coordinates":[17.466928,45.960357],"type":"Point"},"properties":{"osm_id":"278537298","tag":{"amenity":"recycling"}},"type":"Feature"},
	{"geometry":{"coordinates":[17.471725,45.966232],"type":"Point"},"properties":{"osm_id":"287608530","tag":{"amenity":"recycling"}},"type":"Feature"},
	{"geometry":{"coordinates":[17.450997,45.958328],"type":"Point"},"properties":{"osm_id":"287766491","tag":{"amenity":"recycling"}},"type":"Feature"},
	{"geometry":{"coordinates":[17.449435,45.959473],"type":"Point"},"properties":{"osm_id":"287766544","tag":{"amenity":"recycling"}},"type":"Feature"},
	{"geometry":{"coordinates":[17.448678,45.954327],"type":"Point"},"properties":{"osm_id":"287766816","tag":{"amenity":"recycling"}},"type":"Feature"},
	{"geometry":{"coordinates":[17.45886,45.959545],"type":"Point"},"properties":{"osm_id":"287769208","tag":{"amenity":"recycling"}},"type":"Feature"},
	{"geometry":{"coordinates":[17.455504,45.959151],"type":"Point"},"properties":{"osm_id":"287770321","tag":{"amenity":"recycling"}},"type":"Feature"},
	{"geometry":{"coordinates":[17.474841,45.959831],"type":"Point"},"properties":{"osm_id":"289052159","tag":{"amenity":"recycling","recycling:paper":"yes","recycling_type":"container"}},"type":"Feature"},
	{"geometry":{"coordinates":[17.446541,45.951294],"type":"Point"},"properties":{"osm_id":"293564796","tag":{"amenity":"recycling"}},"type":"Feature"},
	{"geometry":{"coordinates":[17.473613,45.959773],"type":"Point"},"properties":{"osm_id":"293564803","tag":{"amenity":"recycling"}},"type":"Feature"},
	{"geometry":{"coordinates":[17.486195,45.962288],"type":"Point"},"properties":{"osm_id":"293565153","tag":{"amenity":"recycling"}},"type":"Feature"},
	{"geometry":{"coordinates":[17.477852,45.964469],"type":"Point"},"properties":{"osm_id":"390367122","tag":{"amenity":"recycling"}},"type":"Feature"},
	{"geometry":{"coordinates":[17.46536,45.96167],"type":"Point"},"properties":{"osm_id":"2931712269","tag":{"amenity":"recycling"}},"type":"Feature"},
	{"geometry":{"coordinates":[17.451483,45.957548],"type":"Point"},"properties":{"osm_id":"3468120084","tag":{"amenity":"recycling","description":"Pap\u00c3\u00adr, m\u00c5\u00b1anyag \u00c3\u00a9s \u00c3\u00bcveg fogad\u00c3\u00a1s\u00c3\u00a1ra alkalmas gy\u00c5\u00b1jt\u00c5\u0091k.","source:date":"2012-10-14","url":"http://turistautak.hu/poi.php?id=15840"}},"type":"Feature"},
	{"geometry":{"coordinates":[17.46667,45.959091],"type":"Point"},"properties":{"osm_id":"3468120086","tag":{"addr:city":"Barcs","addr:street":"H\u00c5\u0091s\u00c3\u00b6k tere","amenity":"recycling","source:date":"2010-12-01","url":"http://turistautak.hu/poi.php?id=88736"}},"type":"Feature"},
	{"geometry":{"coordinates":[17.467755,45.960994],"type":"Point"},"properties":{"osm_id":"7227350202","tag":{"amenity":"recycling","recycling:batteries":"no","recycling:cans":"no","recycling:cardboard":"no","recycling:clothes":"no","recycling:electrical_appliances":"no","recycling:glass":"no","recycling:glass_bottles":"no","recycling:green_waste":"no","recycling:paper":"yes","recycling:plastic":"no","recycling:plastic_bottles":"no","recycling:plastic_packaging":"no","recycling:scrap_metal":"no","recycling:shoes":"no","recycling:small_appliances":"no","recycling_type":"container","waste":"trash"}},"type":"Feature"},
	{"geometry":{"coordinates":[17.45462,45.961961],"type":"Point"},"properties":{"osm_id":"7286630742","tag":{"amenity":"recycling","recycling_type":"container"}},"type":"Feature"}
]
}
