{
"type": "FeatureCollection",
"features": [
	{"geometry":{"coordinates":[10.101159,54.313137],"type":"Point"},"properties":{"osm_id":"293045840","tag":{"amenity":"recycling","location":"overground","recycling_type":"container"}},"type":"Feature"},
	{"geometry":{"coordinates":[10.068598,54.266567],"type":"Point"},"properties":{"osm_id":"471761676","tag":{"amenity":"recycling","recycling:clothes":"yes","recycling:glass_bottles":"yes","recycling_type":"container"}},"type":"Feature"},
	{"geometry":{"coordinates":[10.087373,54.299109],"type":"Point"},"properties":{"osm_id":"910633084","tag":{"amenity":"waste_basket"}},"type":"Feature"},
	{"geometry":{"coordinates":[10.043839,54.283857],"type":"Point"},"properties":{"osm_id":"1069168903","tag":{"amenity":"recycling","recycling:clothes":"yes","recycling:glass":"yes"}},"type":"Feature"},
	{"geometry":{"coordinates":[10.080181,54.28188],"type":"Point"},"properties":{"osm_id":"1096535831","tag":{"amenity":"recycling","recycling:clothes":"yes","recycling:glass":"yes","recycling_type":"container"}},"type":"Feature"},
	{"geometry":{"coordinates":[10.086235,54.298956],"type":"Point"},"properties":{"osm_id":"1118739650","tag":{"amenity":"recycling","location":"overground","recycling:glass_bottles":"yes","recycling_type":"container"}},"type":"Feature"},
	{"geometry":{"coordinates":[10.086734,54.299753],"type":"Point"},"properties":{"osm_id":"1118739697","tag":{"amenity":"recycling","location":"overground","recycling:clothes":"yes","recycling:shoes":"yes","recycling_type":"container"}},"type":"Feature"},
	{"geometry":{"coordinates":[10.077451,54.305566],"type":"Point"},"properties":{"osm_id":"1384708038","tag":{"amenity":"recycling","recycling:glass_bottles":"yes","recycling_type":"container"}},"type":"Feature"},
	{"geometry":{"coordinates":[10.086192,54.307172],"type":"Point"},"properties":{"osm_id":"2304213602","tag":{"amenity":"recycling","recycling:glass_bottles":"yes","recycling_type":"container"}},"type":"Feature"},
	{"geometry":{"coordinates":[10.067449,54.304523],"type":"Point"},"properties":{"osm_id":"2491373181","tag":{"amenity":"recycling","recycling:clothes":"yes","recycling:glass":"yes","recycling_type":"container"}},"type":"Feature"},
	{"geometry":{"coordinates":[10.103294,54.305896],"type":"Point"},"properties":{"osm_id":"2564546038","tag":{"amenity":"recycling","recycling:clothes":"yes","recycling:glass_bottles":"yes","recycling_type":"container"}},"type":"Feature"},
	{"geometry":{"coordinates":[10.077819,54.308388],"type":"Point"},"properties":{"osm_id":"3400755234","tag":{"amenity":"recycling","recycling:clothes":"yes","recycling_type":"container"}},"type":"Feature"},
	{"geometry":{"coordinates":[10.073452,54.304477],"type":"Point"},"properties":{"osm_id":"3438336702","tag":{"amenity":"waste_basket"}},"type":"Feature"},
	{"geometry":{"coordinates":[10.072075,54.275812],"type":"Point"},"properties":{"highway":"street_lamp","osm_id":"3586350321","tag":{"amenity":"waste_basket"}},"type":"Feature"},
	{"geometry":{"coordinates":[10.070633,54.276897],"type":"Point"},"properties":{"osm_id":"3586350328","tag":{"amenity":"waste_basket"}},"type":"Feature"},
	{"geometry":{"coordinates":[10.069838,54.273687],"type":"Point"},"properties":{"osm_id":"3588275433","tag":{"amenity":"waste_basket"}},"type":"Feature"},
	{"geometry":{"coordinates":[10.071034,54.274339],"type":"Point"},"properties":{"osm_id":"3588275440","tag":{"amenity":"waste_basket"}},"type":"Feature"},
	{"geometry":{"coordinates":[10.100756,54.311829],"type":"Point"},"properties":{"osm_id":"3892203365","tag":{"amenity":"recycling","recycling:glass":"yes","recycling_type":"container"}},"type":"Feature"},
	{"geometry":{"coordinates":[10.100683,54.311837],"type":"Point"},"properties":{"osm_id":"3892203366","tag":{"amenity":"waste_basket"}},"type":"Feature"},
	{"geometry":{"coordinates":[10.105635,54.31285],"type":"Point"},"properties":{"osm_id":"3892203383","tag":{"amenity":"waste_basket"}},"type":"Feature"},
	{"geometry":{"coordinates":[10.104661,54.31358],"type":"Point"},"properties":{"osm_id":"3892203384","tag":{"amenity":"waste_basket"}},"type":"Feature"},
	{"geometry":{"coordinates":[10.088415,54.298989],"type":"Point"},"properties":{"osm_id":"4769532825","tag":{"amenity":"recycling","recycling:clothes":"yes","recycling_type":"container"}},"type":"Feature"},
	{"geometry":{"coordinates":[10.08047,54.285171],"type":"Point"},"properties":{"osm_id":"4859360258","tag":{"amenity":"waste_basket"}},"type":"Feature"},
	{"geometry":{"coordinates":[10.073139,54.275293],"type":"Point"},"properties":{"osm_id":"4859745845","tag":{"amenity":"recycling","recycling:clothes":"yes","recycling:glass":"yes","recycling_type":"container"}},"type":"Feature"},
	{"geometry":{"coordinates":[10.094098,54.306973],"type":"Point"},"properties":{"osm_id":"5191620345","tag":{"amenity":"recycling","recycling:clothes":"yes","recycling:glass_bottles":"yes","recycling_type":"container"}},"type":"Feature"},
	{"geometry":{"coordinates":[10.070693,54.31603],"type":"Point"},"properties":{"osm_id":"5191656777","tag":{"amenity":"recycling","recycling:clothes":"yes","recycling:glass_bottles":"yes","recycling_type":"container"}},"type":"Feature"},
	{"geometry":{"coordinates":[10.081642,54.290928],"type":"Point"},"properties":{"osm_id":"5191656778","tag":{"amenity":"recycling","recycling:glass_bottles":"yes","recycling_type":"container"}},"type":"Feature"},
	{"geometry":{"coordinates":[10.070259,54.309782],"type":"Point"},"properties":{"osm_id":"5214986819","tag":{"amenity":"recycling","recycling:glass_bottles":"yes","recycling_type":"container"}},"type":"Feature"},
	{"geometry":{"coordinates":[10.077761,54.308431],"type":"Point"},"properties":{"osm_id":"5214986820","tag":{"amenity":"recycling","recycling:glass_bottles":"yes","recycling_type":"container"}},"type":"Feature"},
	{"geometry":{"coordinates":[10.069238,54.303552],"type":"Point"},"properties":{"osm_id":"5249449484","tag":{"amenity":"recycling","operator":"Kieler Netzwerk gegen Kinderarmut","recycling:clothes":"yes","recycling_type":"container"}},"type":"Feature"},
	{"geometry":{"coordinates":[10.069238,54.303584],"type":"Point"},"properties":{"osm_id":"5249449485","tag":{"amenity":"recycling","operator":"Karl Meyer","recycling:glass_bottles":"yes","recycling_type":"container"}},"type":"Feature"},
	{"geometry":{"coordinates":[10.06956,54.309931],"type":"Point"},"properties":{"osm_id":"5354823089","tag":{"amenity":"waste_basket"}},"type":"Feature"},
	{"geometry":{"coordinates":[10.069885,54.309958],"type":"Point"},"properties":{"osm_id":"5354823090","tag":{"amenity":"waste_basket"}},"type":"Feature"},
	{"geometry":{"coordinates":[10.08618,54.279719],"type":"Point"},"properties":{"osm_id":"5696376979","tag":{"amenity":"waste_basket"}},"type":"Feature"},
	{"geometry":{"coordinates":[10.086236,54.307221],"type":"Point"},"properties":{"osm_id":"5824131897","tag":{"amenity":"recycling","recycling:clothes":"yes","recycling:shoes":"yes","recycling_type":"container"}},"type":"Feature"},
	{"geometry":{"coordinates":[10.052657,54.29342],"type":"Point"},"properties":{"osm_id":"5986995423","tag":{"amenity":"waste_basket"}},"type":"Feature"},
	{"geometry":{"coordinates":[10.040719,54.279239],"type":"Point"},"properties":{"osm_id":"6176582384","tag":{"amenity":"waste_basket"}},"type":"Feature"},
	{"geometry":{"coordinates":[10.099914,54.308182],"type":"Point"},"properties":{"osm_id":"6179062156","tag":{"amenity":"recycling","recycling:clothes":"yes","recycling:glass_bottles":"yes","recycling_type":"container"}},"type":"Feature"},
	{"geometry":{"coordinates":[10.102967,54.306794],"type":"Point"},"properties":{"osm_id":"6521693180","tag":{"amenity":"waste_basket","material":"steel"}},"type":"Feature"},
	{"geometry":{"coordinates":[10.069132,54.279765],"type":"Point"},"properties":{"osm_id":"6837345157","tag":{"amenity":"waste_basket","operator":"Gemeinde Molfsee"}},"type":"Feature"},
	{"geometry":{"coordinates":[10.069679,54.279691],"type":"Point"},"properties":{"osm_id":"6837345158","tag":{"amenity":"waste_basket","material":"metal","operator":"Gemeinde Molfsee"}},"type":"Feature"},
	{"geometry":{"coordinates":[10.069274,54.277882],"type":"Point"},"properties":{"osm_id":"6837345166","tag":{"amenity":"waste_basket","operator":"Gemeinde Molfsee"}},"type":"Feature"},
	{"geometry":{"coordinates":[10.064349,54.282625],"type":"Point"},"properties":{"osm_id":"6837386515","tag":{"amenity":"waste_basket"}},"type":"Feature"},
	{"geometry":{"coordinates":[10.105571,54.306093],"type":"Point"},"properties":{"osm_id":"6855791113","tag":{"amenity":"waste_basket"}},"type":"Feature"},
	{"geometry":{"coordinates":[10.071858,54.30399],"type":"Point"},"properties":{"osm_id":"6900810088","tag":{"amenity":"waste_basket"}},"type":"Feature"},
	{"geometry":{"coordinates":[10.035329,54.305799],"type":"Point"},"properties":{"osm_id":"7376583195","tag":{"amenity":"waste_basket"}},"type":"Feature"},
	{"geometry":{"coordinates":[10.035402,54.305303],"type":"Point"},"properties":{"osm_id":"7376583196","tag":{"amenity":"waste_basket"}},"type":"Feature"},
	{"geometry":{"coordinates":[10.0354,54.305397],"type":"Point"},"properties":{"osm_id":"7376583197","tag":{"amenity":"waste_basket"}},"type":"Feature"},
	{"geometry":{"coordinates":[10.077451,54.305556],"type":"Point"},"properties":{"osm_id":"7569528807","tag":{"amenity":"recycling","operator":"DRK","recycling:clothes":"yes","recycling:shoes":"yes","recycling_type":"container","wheelchair":"limited"}},"type":"Feature"},
	{"geometry":{"coordinates":[10.090471,54.311331],"type":"Point"},"properties":{"osm_id":"7932633192","tag":{"amenity":"recycling","recycling:glass_bottles":"yes","recycling_type":"container"}},"type":"Feature"},
	{"geometry":{"coordinates":[10.091921,54.312363],"type":"Point"},"properties":{"osm_id":"7932633193","tag":{"amenity":"recycling","recycling:glass_bottles":"yes","recycling_type":"container"}},"type":"Feature"}
]
}
