{
"type": "FeatureCollection",
"features": [
	{"geometry":{"coordinates":[10.061685,54.241218],"type":"Point"},"properties":{"osm_id":"478544064","tag":{"amenity":"recycling","recycling:clothes":"yes","recycling:glass_bottles":"yes","recycling:shoes":"yes","recycling_type":"container"}},"type":"Feature"},
	{"geometry":{"coordinates":[10.045237,54.227794],"type":"Point"},"properties":{"name":"Knopf Amelow Recycliing","osm_id":"772391720","tag":{"amenity":"recycling"}},"type":"Feature"},
	{"geometry":{"coordinates":[10.087437,54.261753],"type":"Point"},"properties":{"osm_id":"1852863325","tag":{"amenity":"recycling","recycling:glass":"yes","recycling_type":"container"}},"type":"Feature"},
	{"geometry":{"coordinates":[10.068616,54.242023],"type":"Point"},"properties":{"osm_id":"1852919973","tag":{"amenity":"recycling","recycling:glass":"yes","recycling_type":"container"}},"type":"Feature"},
	{"geometry":{"coordinates":[10.025126,54.245834],"type":"Point"},"properties":{"osm_id":"3003262244","tag":{"amenity":"waste_disposal"}},"type":"Feature"},
	{"geometry":{"coordinates":[10.021228,54.244628],"type":"Point"},"properties":{"osm_id":"4361882774","tag":{"amenity":"waste_disposal"}},"type":"Feature"},
	{"geometry":{"coordinates":[10.021965,54.244151],"type":"Point"},"properties":{"osm_id":"4361882775","tag":{"amenity":"waste_disposal"}},"type":"Feature"},
	{"geometry":{"coordinates":[10.024491,54.245991],"type":"Point"},"properties":{"osm_id":"4376079876","tag":{"amenity":"waste_disposal"}},"type":"Feature"},
	{"geometry":{"coordinates":[10.072388,54.234478],"type":"Point"},"properties":{"osm_id":"4475245841","tag":{"amenity":"waste_basket"}},"type":"Feature"},
	{"geometry":{"coordinates":[10.060855,54.261807],"type":"Point"},"properties":{"osm_id":"5132973521","tag":{"amenity":"waste_basket"}},"type":"Feature"},
	{"geometry":{"coordinates":[10.07497,54.241678],"type":"Point"},"properties":{"osm_id":"6302092712","tag":{"amenity":"waste_basket"}},"type":"Feature"},
	{"geometry":{"coordinates":[10.071257,54.237562],"type":"Point"},"properties":{"osm_id":"6302092713","tag":{"amenity":"waste_basket"}},"type":"Feature"},
	{"geometry":{"coordinates":[10.071717,54.243457],"type":"Point"},"properties":{"osm_id":"6302092714","tag":{"amenity":"waste_basket"}},"type":"Feature"},
	{"geometry":{"coordinates":[10.073377,54.24173],"type":"Point"},"properties":{"osm_id":"6302092715","tag":{"amenity":"waste_basket"}},"type":"Feature"},
	{"geometry":{"coordinates":[10.062473,54.240303],"type":"Point"},"properties":{"osm_id":"6302092716","tag":{"amenity":"waste_basket"}},"type":"Feature"},
	{"geometry":{"coordinates":[10.062656,54.248509],"type":"Point"},"properties":{"osm_id":"6302095980","tag":{"amenity":"waste_basket"}},"type":"Feature"},
	{"geometry":{"coordinates":[10.074649,54.239186],"type":"Point"},"properties":{"osm_id":"6302107037","tag":{"amenity":"waste_basket"}},"type":"Feature"},
	{"geometry":{"coordinates":[10.072604,54.24756],"type":"Point"},"properties":{"osm_id":"6302123454","tag":{"amenity":"waste_basket"}},"type":"Feature"},
	{"geometry":{"coordinates":[10.068709,54.236074],"type":"Point"},"properties":{"osm_id":"6302206959","tag":{"amenity":"waste_basket"}},"type":"Feature"},
	{"geometry":{"coordinates":[10.070399,54.235367],"type":"Point"},"properties":{"osm_id":"6302210980","tag":{"amenity":"waste_basket"}},"type":"Feature"},
	{"geometry":{"coordinates":[10.078323,54.236226],"type":"Point"},"properties":{"osm_id":"6304080049","tag":{"amenity":"waste_basket"}},"type":"Feature"}
]
}
