{
"type": "FeatureCollection",
"features": [
	{"geometry":{"coordinates":[10.025692,54.185699],"type":"Point"},"properties":{"name":"AWR Recyclinghof Bordesholm","osm_id":"4597049913","tag":{"addr:city":"Bordesholm","addr:housenumber":"10","addr:postcode":"24582","addr:street":"Neuer Haidkrug","amenity":"recycling","opening_hours":"Mo-Fr 09:00-12:00,12:30-17:00; Sa 09:00-13:00","operator":"AWR Abfallwirtschaftsgesellschaft Rendsburg-Eckernf\u00c3\u00b6rde mbH","phone":"+49 4331 / 345 -123","recycling_type":"centre","website":"https://www.awr.de/"}},"type":"Feature"},
	{"geometry":{"coordinates":[10.076837,54.165096],"type":"Point"},"properties":{"osm_id":"4784350753","tag":{"amenity":"recycling","recycling:glass_bottles":"yes","recycling_type":"container"}},"type":"Feature"},
	{"geometry":{"coordinates":[10.060295,54.191118],"type":"Point"},"properties":{"osm_id":"6143207392","tag":{"amenity":"recycling","recycling:glass":"yes","recycling_type":"container"}},"type":"Feature"},
	{"geometry":{"coordinates":[10.083383,54.180305],"type":"Point"},"properties":{"osm_id":"6682267331","tag":{"amenity":"recycling","recycling:clothes":"yes","recycling_type":"container"}},"type":"Feature"}
]
}
