{
"type": "FeatureCollection",
"features": [
	{"geometry":{"coordinates":[10.026318,53.624221],"type":"Point"},"properties":{"osm_id":"15364587","tag":{"amenity":"recycling","recycling:paper":"yes","recycling_type":"container"}},"type":"Feature"},
	{"geometry":{"coordinates":[10.032461,53.614198],"type":"Point"},"properties":{"osm_id":"30767204","tag":{"amenity":"recycling","recycling:paper":"yes","recycling_type":"container"}},"type":"Feature"},
	{"geometry":{"coordinates":[10.03766,53.60852],"type":"Point"},"properties":{"osm_id":"30767294","tag":{"amenity":"recycling","recycling:glass_bottles":"yes","recycling:paper":"yes","recycling_type":"container"}},"type":"Feature"},
	{"geometry":{"coordinates":[10.03643,53.600947],"type":"Point"},"properties":{"osm_id":"31484892","tag":{"amenity":"recycling","operator":"Stadtreinigung Hamburg","recycling:glass_bottles":"yes","recycling:paper":"yes","recycling_type":"container"}},"type":"Feature"},
	{"geometry":{"coordinates":[10.026518,53.617258],"type":"Point"},"properties":{"osm_id":"35217283","tag":{"amenity":"recycling","recycling:paper":"yes","recycling_type":"container"}},"type":"Feature"},
	{"geometry":{"coordinates":[10.03761,53.634894],"type":"Point"},"properties":{"osm_id":"35334582","tag":{"amenity":"recycling","recycling:glass_bottles":"yes","recycling:paper":"yes","recycling_type":"container"}},"type":"Feature"},
	{"geometry":{"coordinates":[10.105534,53.606441],"type":"Point"},"properties":{"osm_id":"76741647","tag":{"amenity":"recycling","recycling:glass_bottles":"yes","recycling:paper":"yes","recycling_type":"container"}},"type":"Feature"},
	{"geometry":{"coordinates":[10.029244,53.622537],"type":"Point"},"properties":{"osm_id":"253164907","tag":{"amenity":"recycling","recycling:glass_bottles":"yes","recycling:paper":"yes","recycling_type":"container"}},"type":"Feature"},
	{"geometry":{"coordinates":[10.062905,53.617749],"type":"Point"},"properties":{"osm_id":"270047065","tag":{"amenity":"recycling","recycling:clothes":"yes","recycling_type":"container"}},"type":"Feature"},
	{"geometry":{"coordinates":[10.055491,53.598903],"type":"Point"},"properties":{"osm_id":"291067719","tag":{"amenity":"recycling","recycling:glass_bottles":"yes","recycling:paper":"yes","recycling_type":"container"}},"type":"Feature"},
	{"geometry":{"coordinates":[10.096999,53.61912],"type":"Point"},"properties":{"osm_id":"293546205","tag":{"amenity":"recycling","operator":"Stadtreinigung Hamburg","recycling:glass_bottles":"yes","recycling:paper":"yes","recycling_type":"container"}},"type":"Feature"},
	{"geometry":{"coordinates":[10.101075,53.628825],"type":"Point"},"properties":{"osm_id":"298838992","tag":{"amenity":"recycling","operator":"Stadtreinigung Hamburg","recycling:glass_bottles":"yes","recycling:paper":"yes","recycling_type":"container"}},"type":"Feature"},
	{"geometry":{"coordinates":[10.037775,53.597909],"type":"Point"},"properties":{"osm_id":"322822144","tag":{"amenity":"recycling","operator":"Stadtreinigung Hamburg","recycling:glass_bottles":"yes","recycling:paper":"yes","recycling_type":"container"}},"type":"Feature"},
	{"geometry":{"coordinates":[10.04052,53.5961],"type":"Point"},"properties":{"osm_id":"322822194","tag":{"amenity":"recycling","recycling:paper":"yes","recycling_type":"container"}},"type":"Feature"},
	{"geometry":{"coordinates":[10.098565,53.640644],"type":"Point"},"properties":{"highway":"bus_stop","name":"Am Pfeilshof","osm_id":"423493953","tag":{"amenity":"waste_basket","bus":"yes","fare_zone":"304","network":"HVV","public_transport":"platform","shelter":"yes"}},"type":"Feature"},
	{"geometry":{"coordinates":[10.103578,53.640567],"type":"Point"},"properties":{"osm_id":"426012804","tag":{"amenity":"waste_basket"}},"type":"Feature"},
	{"geometry":{"coordinates":[10.050337,53.594384],"type":"Point"},"properties":{"osm_id":"444235869","tag":{"amenity":"recycling","recycling:glass_bottles":"yes","recycling:paper":"yes","recycling_type":"container"}},"type":"Feature"},
	{"geometry":{"coordinates":[10.077777,53.613751],"type":"Point"},"properties":{"osm_id":"472140827","tag":{"amenity":"recycling","operator":"Stadtreinigung Hamburg","recycling:glass_bottles":"yes","recycling:paper":"yes","recycling_type":"container"}},"type":"Feature"},
	{"geometry":{"coordinates":[10.045904,53.611574],"type":"Point"},"properties":{"osm_id":"530246328","tag":{"amenity":"recycling","recycling:glass_bottles":"yes","recycling:paper":"yes","recycling_type":"container"}},"type":"Feature"},
	{"geometry":{"coordinates":[10.055134,53.63334],"type":"Point"},"properties":{"osm_id":"583522713","tag":{"amenity":"recycling","recycling:paper":"yes","recycling_type":"container"}},"type":"Feature"},
	{"geometry":{"coordinates":[10.049197,53.632068],"type":"Point"},"properties":{"osm_id":"585132337","tag":{"amenity":"recycling","operator":"Stadtreinigung Hamburg","recycling:glass_bottles":"yes","recycling:paper":"yes","recycling_type":"container"}},"type":"Feature"},
	{"geometry":{"coordinates":[10.040983,53.593113],"type":"Point"},"properties":{"osm_id":"619344292","tag":{"amenity":"recycling","recycling:paper":"yes","recycling_type":"container"}},"type":"Feature"},
	{"geometry":{"coordinates":[10.081354,53.611292],"type":"Point"},"properties":{"osm_id":"623573284","tag":{"amenity":"recycling","recycling:clothes":"yes","recycling_type":"container"}},"type":"Feature"},
	{"geometry":{"coordinates":[10.085117,53.595218],"type":"Point"},"properties":{"osm_id":"623765502","tag":{"amenity":"recycling","recycling:paper":"yes","recycling_type":"container"}},"type":"Feature"},
	{"geometry":{"coordinates":[10.043408,53.606778],"type":"Point"},"properties":{"osm_id":"655410052","tag":{"amenity":"recycling","recycling:paper":"yes","recycling_type":"container"}},"type":"Feature"},
	{"geometry":{"coordinates":[10.068895,53.634498],"type":"Point"},"properties":{"osm_id":"669086304","tag":{"amenity":"recycling","recycling:paper":"yes","recycling_type":"container"}},"type":"Feature"},
	{"geometry":{"coordinates":[10.068154,53.635821],"type":"Point"},"properties":{"osm_id":"669086306","ref":"DC5146","tag":{"amenity":"recycling","check_date":"2020-03-29","operator":"Stadtreinigung Hamburg","recycling:clothes":"yes","recycling:glass_bottles":"yes","recycling:paper":"yes","recycling:small_appliances":"yes","recycling:small_electrical_appliances":"yes","recycling_type":"container"}},"type":"Feature"},
	{"geometry":{"coordinates":[10.096831,53.627093],"type":"Point"},"properties":{"osm_id":"672991228","tag":{"amenity":"recycling","operator":"Stadtreinigung Hamburg","recycling:glass_bottles":"yes","recycling:paper":"yes","recycling_type":"container"}},"type":"Feature"},
	{"geometry":{"coordinates":[10.091663,53.599514],"type":"Point"},"properties":{"osm_id":"680622581","tag":{"amenity":"recycling","recycling:glass_bottles":"yes","recycling:paper":"yes","recycling_type":"container"}},"type":"Feature"},
	{"geometry":{"coordinates":[10.023914,53.627472],"type":"Point"},"properties":{"osm_id":"700865004","tag":{"access":"private","amenity":"recycling","recycling:cans":"yes","recycling:plastic":"yes","recycling:plastic_packaging":"yes","recycling:scrap_metal":"yes","recycling_type":"container"}},"type":"Feature"},
	{"geometry":{"coordinates":[10.046176,53.604923],"type":"Point"},"properties":{"osm_id":"706970875","tag":{"amenity":"recycling","recycling:paper":"yes","recycling_type":"container"}},"type":"Feature"},
	{"geometry":{"coordinates":[10.043814,53.609782],"type":"Point"},"properties":{"osm_id":"773369799","tag":{"amenity":"recycling","recycling:clothes":"yes","recycling:glass_bottles":"yes","recycling:paper":"yes","recycling:shoes":"yes","recycling_type":"container"}},"type":"Feature"},
	{"geometry":{"coordinates":[10.044354,53.609209],"type":"Point"},"properties":{"osm_id":"773369800","tag":{"amenity":"recycling","operator":"Malteser Hilfsdienst e.V.","recycling:clothes":"yes","recycling_type":"container"}},"type":"Feature"},
	{"geometry":{"coordinates":[10.041493,53.610006],"type":"Point"},"properties":{"osm_id":"773374271","tag":{"amenity":"recycling","recycling:paper":"yes","recycling_type":"container"}},"type":"Feature"},
	{"geometry":{"coordinates":[10.055089,53.631111],"type":"Point"},"properties":{"osm_id":"838003796","tag":{"amenity":"recycling","recycling:paper":"yes","recycling_type":"container"}},"type":"Feature"},
	{"geometry":{"coordinates":[10.075764,53.634603],"type":"Point"},"properties":{"osm_id":"966210668","ref":"DC5144","tag":{"amenity":"recycling","operator":"Stadtreinigung Hamburg","recycling:glass_bottles":"yes","recycling:paper":"yes","recycling_type":"container"}},"type":"Feature"},
	{"geometry":{"coordinates":[10.034834,53.642632],"type":"Point"},"properties":{"osm_id":"1025644228","tag":{"access":"private","amenity":"recycling","recycling_type":"container"}},"type":"Feature"},
	{"geometry":{"coordinates":[10.034855,53.642633],"type":"Point"},"properties":{"osm_id":"1025644233","tag":{"access":"private","amenity":"waste_basket"}},"type":"Feature"},
	{"geometry":{"coordinates":[10.034882,53.64263],"type":"Point"},"properties":{"osm_id":"1025644259","tag":{"access":"private","amenity":"recycling","recycling:cans":"yes","recycling_type":"container"}},"type":"Feature"},
	{"geometry":{"coordinates":[10.063046,53.617664],"type":"Point"},"properties":{"osm_id":"1120311745","tag":{"amenity":"waste_basket"}},"type":"Feature"},
	{"geometry":{"coordinates":[10.057729,53.61286],"type":"Point"},"properties":{"osm_id":"1120311760","tag":{"amenity":"waste_basket"}},"type":"Feature"},
	{"geometry":{"coordinates":[10.064284,53.615448],"type":"Point"},"properties":{"osm_id":"1120311771","tag":{"amenity":"waste_basket"}},"type":"Feature"},
	{"geometry":{"coordinates":[10.06411,53.615354],"type":"Point"},"properties":{"osm_id":"1120311810","tag":{"amenity":"waste_basket"}},"type":"Feature"},
	{"geometry":{"coordinates":[10.061888,53.6137],"type":"Point"},"properties":{"osm_id":"1120311840","tag":{"amenity":"waste_basket"}},"type":"Feature"},
	{"geometry":{"coordinates":[10.059437,53.614887],"type":"Point"},"properties":{"osm_id":"1120311843","tag":{"amenity":"waste_basket"}},"type":"Feature"},
	{"geometry":{"coordinates":[10.058406,53.614053],"type":"Point"},"properties":{"osm_id":"1120311870","tag":{"amenity":"waste_basket"}},"type":"Feature"},
	{"geometry":{"coordinates":[10.063403,53.614787],"type":"Point"},"properties":{"osm_id":"1120311876","tag":{"amenity":"waste_basket"}},"type":"Feature"},
	{"geometry":{"coordinates":[10.061279,53.613152],"type":"Point"},"properties":{"osm_id":"1120311888","tag":{"amenity":"waste_basket"}},"type":"Feature"},
	{"geometry":{"coordinates":[10.059265,53.611726],"type":"Point"},"properties":{"osm_id":"1120311891","tag":{"amenity":"waste_basket"}},"type":"Feature"},
	{"geometry":{"coordinates":[10.062208,53.617002],"type":"Point"},"properties":{"osm_id":"1120311895","tag":{"amenity":"waste_basket"}},"type":"Feature"},
	{"geometry":{"coordinates":[10.066142,53.616788],"type":"Point"},"properties":{"osm_id":"1120311927","tag":{"amenity":"waste_basket"}},"type":"Feature"},
	{"geometry":{"coordinates":[10.063811,53.615094],"type":"Point"},"properties":{"osm_id":"1120311931","tag":{"amenity":"waste_basket"}},"type":"Feature"},
	{"geometry":{"coordinates":[10.064849,53.615878],"type":"Point"},"properties":{"osm_id":"1120311945","tag":{"amenity":"waste_basket"}},"type":"Feature"},
	{"geometry":{"coordinates":[10.062058,53.61343],"type":"Point"},"properties":{"osm_id":"1120311949","tag":{"amenity":"waste_basket"}},"type":"Feature"},
	{"geometry":{"coordinates":[10.060994,53.616063],"type":"Point"},"properties":{"osm_id":"1120311969","tag":{"amenity":"waste_basket"}},"type":"Feature"},
	{"geometry":{"coordinates":[10.062213,53.614092],"type":"Point"},"properties":{"osm_id":"1120311983","tag":{"amenity":"waste_basket"}},"type":"Feature"},
	{"geometry":{"coordinates":[10.062792,53.617068],"type":"Point"},"properties":{"osm_id":"1120311989","tag":{"amenity":"recycling","recycling:glass_bottles":"yes","recycling:paper":"yes","recycling_type":"container"}},"type":"Feature"},
	{"geometry":{"coordinates":[10.06006,53.614989],"type":"Point"},"properties":{"osm_id":"1120312007","tag":{"amenity":"recycling","recycling:glass_bottles":"yes","recycling:paper":"yes","recycling_type":"container"}},"type":"Feature"},
	{"geometry":{"coordinates":[10.062706,53.614258],"type":"Point"},"properties":{"osm_id":"1120312083","tag":{"amenity":"waste_basket"}},"type":"Feature"},
	{"geometry":{"coordinates":[10.060373,53.612468],"type":"Point"},"properties":{"osm_id":"1120312106","tag":{"amenity":"waste_basket"}},"type":"Feature"},
	{"geometry":{"coordinates":[10.060655,53.612767],"type":"Point"},"properties":{"osm_id":"1120312110","tag":{"amenity":"waste_basket"}},"type":"Feature"},
	{"geometry":{"coordinates":[10.103699,53.633784],"type":"Point"},"properties":{"osm_id":"1177744167","tag":{"amenity":"recycling","recycling:paper":"yes","recycling_type":"container"}},"type":"Feature"},
	{"geometry":{"coordinates":[10.09946,53.594043],"type":"Point"},"properties":{"osm_id":"1378057078","tag":{"amenity":"recycling","check_date":"2020-09-14","operator":"Stadtreinigung Hamburg","recycling:clothes":"no","recycling:glass_bottles":"yes","recycling:paper":"yes","recycling:small_appliances":"yes","recycling:small_electrical_appliances":"yes","recycling_type":"container"}},"type":"Feature"},
	{"geometry":{"coordinates":[10.095081,53.603416],"type":"Point"},"properties":{"osm_id":"1409056750","tag":{"amenity":"recycling","recycling:paper":"yes","recycling_type":"container"}},"type":"Feature"},
	{"geometry":{"coordinates":[10.077499,53.604166],"type":"Point"},"properties":{"osm_id":"1469337855","tag":{"amenity":"recycling","recycling:clothes":"yes","recycling_type":"container"}},"type":"Feature"},
	{"geometry":{"coordinates":[10.080077,53.609622],"type":"Point"},"properties":{"osm_id":"1469337863","tag":{"amenity":"recycling","recycling:batteries":"no","recycling:books":"no","recycling:cans":"no","recycling:cardboard":"no","recycling:cartons":"no","recycling:clothes":"yes","recycling:electrical_appliances":"no","recycling:glass":"no","recycling:glass_bottles":"no","recycling:green_waste":"no","recycling:magazines":"no","recycling:newspaper":"no","recycling:paper":"no","recycling:paper_packaging":"no","recycling:plastic":"no","recycling:plastic_bottles":"no","recycling:plastic_packaging":"no","recycling:scrap_metal":"no","recycling:small_appliances":"no","recycling:waste":"no","recycling:wood":"no","recycling_type":"container"}},"type":"Feature"},
	{"geometry":{"coordinates":[10.079661,53.619237],"type":"Point"},"properties":{"osm_id":"1469337966","tag":{"amenity":"recycling","recycling:clothes":"yes","recycling_type":"container"}},"type":"Feature"},
	{"geometry":{"coordinates":[10.088272,53.631722],"type":"Point"},"properties":{"osm_id":"1505754906","tag":{"amenity":"recycling","recycling:clothes":"yes"}},"type":"Feature"},
	{"geometry":{"coordinates":[10.063462,53.602662],"type":"Point"},"properties":{"osm_id":"1532551996","tag":{"amenity":"recycling","recycling:glass_bottles":"yes","recycling:paper":"yes","recycling_type":"container"}},"type":"Feature"},
	{"geometry":{"coordinates":[10.045398,53.601997],"type":"Point"},"properties":{"osm_id":"1603488346","tag":{"amenity":"recycling","recycling:glass_bottles":"yes","recycling:paper":"yes","recycling_type":"container"}},"type":"Feature"},
	{"geometry":{"coordinates":[10.061739,53.613918],"type":"Point"},"properties":{"osm_id":"1608578876","tag":{"amenity":"recycling","recycling:paper":"yes","recycling_type":"container"}},"type":"Feature"},
	{"geometry":{"coordinates":[10.063077,53.615021],"type":"Point"},"properties":{"osm_id":"1608578946","tag":{"amenity":"recycling","recycling:paper":"yes","recycling_type":"container"}},"type":"Feature"},
	{"geometry":{"coordinates":[10.101754,53.598157],"type":"Point"},"properties":{"osm_id":"1799240823","tag":{"amenity":"waste_basket"}},"type":"Feature"},
	{"geometry":{"coordinates":[10.10206,53.598186],"type":"Point"},"properties":{"osm_id":"1799240829","tag":{"amenity":"waste_basket"}},"type":"Feature"},
	{"geometry":{"coordinates":[10.101421,53.598211],"type":"Point"},"properties":{"osm_id":"1799240833","tag":{"amenity":"recycling","recycling:glass_bottles":"yes","recycling:paper":"yes","recycling_type":"container"}},"type":"Feature"},
	{"geometry":{"coordinates":[10.089502,53.619047],"type":"Point"},"properties":{"osm_id":"2087568928","tag":{"amenity":"recycling","recycling:batteries":"no","recycling:books":"no","recycling:cans":"no","recycling:cardboard":"no","recycling:cartons":"yes","recycling:clothes":"no","recycling:electrical_appliances":"no","recycling:glass":"no","recycling:glass_bottles":"no","recycling:green_waste":"no","recycling:magazines":"yes","recycling:newspaper":"yes","recycling:paper":"yes","recycling:paper_packaging":"yes","recycling:plastic":"no","recycling:plastic_bottles":"no","recycling:plastic_packaging":"no","recycling:scrap_metal":"no","recycling:small_appliances":"no","recycling:waste":"no","recycling:wood":"no","recycling_type":"container"}},"type":"Feature"},
	{"geometry":{"coordinates":[10.089575,53.617873],"type":"Point"},"properties":{"osm_id":"2087571569","tag":{"amenity":"recycling","recycling:batteries":"no","recycling:books":"no","recycling:cans":"no","recycling:cardboard":"no","recycling:cartons":"no","recycling:clothes":"yes","recycling:electrical_appliances":"no","recycling:glass":"no","recycling:glass_bottles":"no","recycling:green_waste":"no","recycling:magazines":"no","recycling:newspaper":"no","recycling:paper":"no","recycling:paper_packaging":"no","recycling:plastic":"no","recycling:plastic_bottles":"no","recycling:plastic_packaging":"no","recycling:scrap_metal":"no","recycling:small_appliances":"no","recycling:waste":"no","recycling:wood":"no","recycling_type":"container"}},"type":"Feature"},
	{"geometry":{"coordinates":[10.090186,53.621467],"type":"Point"},"properties":{"osm_id":"2087639725","tag":{"amenity":"waste_basket"}},"type":"Feature"},
	{"geometry":{"coordinates":[10.091987,53.625211],"type":"Point"},"properties":{"osm_id":"2087856635","tag":{"amenity":"waste_basket"}},"type":"Feature"},
	{"geometry":{"coordinates":[10.091332,53.6245],"type":"Point"},"properties":{"osm_id":"2087856812","tag":{"amenity":"waste_basket"}},"type":"Feature"},
	{"geometry":{"coordinates":[10.020002,53.639689],"type":"Point"},"properties":{"osm_id":"2088379304","tag":{"amenity":"recycling","recycling:clothes":"no","recycling:glass_bottles":"yes","recycling:paper":"yes","recycling_type":"container"}},"type":"Feature"},
	{"geometry":{"coordinates":[10.020903,53.638545],"type":"Point"},"properties":{"osm_id":"2088379319","tag":{"amenity":"recycling","recycling:paper":"yes","recycling_type":"container"}},"type":"Feature"},
	{"geometry":{"coordinates":[10.094724,53.618898],"type":"Point"},"properties":{"osm_id":"2219970453","tag":{"amenity":"waste_basket"}},"type":"Feature"},
	{"geometry":{"coordinates":[10.095241,53.618981],"type":"Point"},"properties":{"osm_id":"2219970455","tag":{"amenity":"waste_basket"}},"type":"Feature"},
	{"geometry":{"coordinates":[10.095785,53.619056],"type":"Point"},"properties":{"osm_id":"2219970456","tag":{"amenity":"waste_basket"}},"type":"Feature"},
	{"geometry":{"coordinates":[10.094676,53.619048],"type":"Point"},"properties":{"osm_id":"2219970457","tag":{"amenity":"waste_basket"}},"type":"Feature"},
	{"geometry":{"coordinates":[10.095197,53.619141],"type":"Point"},"properties":{"osm_id":"2219970458","tag":{"amenity":"waste_basket"}},"type":"Feature"},
	{"geometry":{"coordinates":[10.096248,53.61919],"type":"Point"},"properties":{"osm_id":"2219970459","tag":{"amenity":"waste_basket"}},"type":"Feature"},
	{"geometry":{"coordinates":[10.095736,53.619212],"type":"Point"},"properties":{"osm_id":"2219970460","tag":{"amenity":"waste_basket"}},"type":"Feature"},
	{"geometry":{"coordinates":[10.094634,53.619203],"type":"Point"},"properties":{"osm_id":"2219970461","tag":{"amenity":"waste_basket"}},"type":"Feature"},
	{"geometry":{"coordinates":[10.095153,53.619297],"type":"Point"},"properties":{"osm_id":"2219970462","tag":{"amenity":"waste_basket"}},"type":"Feature"},
	{"geometry":{"coordinates":[10.096253,53.619336],"type":"Point"},"properties":{"osm_id":"2219970463","tag":{"amenity":"waste_basket"}},"type":"Feature"},
	{"geometry":{"coordinates":[10.095689,53.619369],"type":"Point"},"properties":{"osm_id":"2219970464","tag":{"amenity":"waste_basket"}},"type":"Feature"},
	{"geometry":{"coordinates":[10.096256,53.619491],"type":"Point"},"properties":{"osm_id":"2219970465","tag":{"amenity":"waste_basket"}},"type":"Feature"},
	{"geometry":{"coordinates":[10.094962,53.619534],"type":"Point"},"properties":{"osm_id":"2219970466","tag":{"amenity":"waste_basket"}},"type":"Feature"},
	{"geometry":{"coordinates":[10.0965,53.61967],"type":"Point"},"properties":{"osm_id":"2219970467","tag":{"amenity":"waste_basket"}},"type":"Feature"},
	{"geometry":{"coordinates":[10.095548,53.619652],"type":"Point"},"properties":{"osm_id":"2219970468","tag":{"amenity":"waste_basket"}},"type":"Feature"},
	{"geometry":{"coordinates":[10.096477,53.619798],"type":"Point"},"properties":{"osm_id":"2219970469","tag":{"amenity":"waste_basket"}},"type":"Feature"},
	{"geometry":{"coordinates":[10.095515,53.619786],"type":"Point"},"properties":{"osm_id":"2219970470","tag":{"amenity":"waste_basket"}},"type":"Feature"},
	{"geometry":{"coordinates":[10.094923,53.619826],"type":"Point"},"properties":{"osm_id":"2219970471","tag":{"amenity":"waste_basket"}},"type":"Feature"},
	{"geometry":{"coordinates":[10.09605,53.61984],"type":"Point"},"properties":{"osm_id":"2219970472","tag":{"amenity":"waste_basket"}},"type":"Feature"},
	{"geometry":{"coordinates":[10.096663,53.619941],"type":"Point"},"properties":{"osm_id":"2219970473","tag":{"amenity":"waste_basket"}},"type":"Feature"},
	{"geometry":{"coordinates":[10.095478,53.619931],"type":"Point"},"properties":{"osm_id":"2219970474","tag":{"amenity":"waste_basket"}},"type":"Feature"},
	{"geometry":{"coordinates":[10.096024,53.619969],"type":"Point"},"properties":{"osm_id":"2219970475","tag":{"amenity":"waste_basket"}},"type":"Feature"},
	{"geometry":{"coordinates":[10.096632,53.620069],"type":"Point"},"properties":{"osm_id":"2219970476","tag":{"amenity":"waste_basket"}},"type":"Feature"},
	{"geometry":{"coordinates":[10.079879,53.612307],"type":"Point"},"properties":{"osm_id":"2223156133","tag":{"amenity":"recycling","recycling:glass_bottles":"yes","recycling:paper":"yes","recycling_type":"container"}},"type":"Feature"},
	{"geometry":{"coordinates":[10.105809,53.5957],"type":"Point"},"properties":{"osm_id":"2506045809","tag":{"amenity":"recycling","recycling:glass_bottles":"yes","recycling:paper":"yes","recycling_type":"container","wheelchair":"yes"}},"type":"Feature"},
	{"geometry":{"coordinates":[10.028569,53.60439],"type":"Point"},"properties":{"osm_id":"2629007326","tag":{"amenity":"waste_basket"}},"type":"Feature"},
	{"geometry":{"coordinates":[10.089824,53.634261],"type":"Point"},"properties":{"osm_id":"2664692389","tag":{"amenity":"recycling","recycling:clothes":"yes","recycling_type":"container"}},"type":"Feature"},
	{"geometry":{"coordinates":[10.026603,53.61919],"type":"Point"},"properties":{"osm_id":"2739124124","tag":{"amenity":"waste_basket"}},"type":"Feature"},
	{"geometry":{"coordinates":[10.037543,53.630288],"type":"Point"},"properties":{"osm_id":"3023100227","ref":"DC4432","tag":{"amenity":"recycling","operator":"Stadtreinigung Hamburg","recycling:clothes":"yes","recycling:glass_bottles":"yes","recycling:paper":"yes","recycling:small_appliances":"yes","recycling:small_electrical_appliances":"yes","recycling_type":"container"}},"type":"Feature"},
	{"geometry":{"coordinates":[10.037502,53.630384],"type":"Point"},"properties":{"osm_id":"3023100228","tag":{"amenity":"recycling","recycling:paper":"yes","recycling_type":"container"}},"type":"Feature"},
	{"geometry":{"coordinates":[10.080672,53.602696],"type":"Point"},"properties":{"osm_id":"3091447927","tag":{"amenity":"waste_basket"}},"type":"Feature"},
	{"geometry":{"coordinates":[10.073544,53.610798],"type":"Point"},"properties":{"osm_id":"3209547221","tag":{"amenity":"recycling","recycling:clothes":"yes","recycling_type":"container"}},"type":"Feature"},
	{"geometry":{"coordinates":[10.053017,53.612157],"type":"Point"},"properties":{"osm_id":"3368823196","tag":{"amenity":"recycling","recycling:paper":"yes","recycling_type":"container"}},"type":"Feature"},
	{"geometry":{"coordinates":[10.066057,53.616965],"type":"Point"},"properties":{"osm_id":"3368823199","tag":{"amenity":"recycling","recycling:paper":"yes","recycling_type":"container"}},"type":"Feature"},
	{"geometry":{"coordinates":[10.074901,53.593079],"type":"Point"},"properties":{"osm_id":"3406236402","tag":{"amenity":"recycling","recycling:paper":"yes","recycling_type":"container"}},"type":"Feature"},
	{"geometry":{"coordinates":[10.055473,53.598829],"type":"Point"},"properties":{"osm_id":"3406236405","tag":{"amenity":"recycling","recycling:paper":"yes","recycling_type":"container"}},"type":"Feature"},
	{"geometry":{"coordinates":[10.053472,53.604533],"type":"Point"},"properties":{"osm_id":"3406236406","tag":{"amenity":"recycling","recycling:glass_bottles":"yes","recycling:paper":"yes","recycling_type":"container"}},"type":"Feature"},
	{"geometry":{"coordinates":[10.087141,53.616451],"type":"Point"},"properties":{"osm_id":"3693963548","tag":{"amenity":"waste_basket"}},"type":"Feature"},
	{"geometry":{"coordinates":[10.087114,53.616784],"type":"Point"},"properties":{"osm_id":"3693963571","tag":{"amenity":"waste_basket"}},"type":"Feature"},
	{"geometry":{"coordinates":[10.086908,53.617699],"type":"Point"},"properties":{"osm_id":"3693964828","tag":{"amenity":"waste_basket"}},"type":"Feature"},
	{"geometry":{"coordinates":[10.023806,53.594901],"type":"Point"},"properties":{"osm_id":"3695223274","tag":{"amenity":"waste_basket"}},"type":"Feature"},
	{"geometry":{"coordinates":[10.020291,53.59552],"type":"Point"},"properties":{"osm_id":"3695223275","tag":{"amenity":"waste_disposal"}},"type":"Feature"},
	{"geometry":{"coordinates":[10.022327,53.592883],"type":"Point"},"properties":{"osm_id":"3695249163","tag":{"amenity":"waste_disposal"}},"type":"Feature"},
	{"geometry":{"coordinates":[10.020117,53.593511],"type":"Point"},"properties":{"osm_id":"3695249840","tag":{"amenity":"waste_disposal"}},"type":"Feature"},
	{"geometry":{"coordinates":[10.020836,53.59331],"type":"Point"},"properties":{"osm_id":"3695250151","tag":{"amenity":"waste_disposal"}},"type":"Feature"},
	{"geometry":{"coordinates":[10.031008,53.596118],"type":"Point"},"properties":{"osm_id":"3712076125","tag":{"amenity":"waste_basket"}},"type":"Feature"},
	{"geometry":{"coordinates":[10.029782,53.596251],"type":"Point"},"properties":{"osm_id":"3712076126","tag":{"amenity":"waste_basket"}},"type":"Feature"},
	{"geometry":{"coordinates":[10.031009,53.596112],"type":"Point"},"properties":{"osm_id":"3712076225","tag":{"amenity":"waste_basket"}},"type":"Feature"},
	{"geometry":{"coordinates":[10.030777,53.596107],"type":"Point"},"properties":{"osm_id":"3712076325","tag":{"amenity":"waste_disposal"}},"type":"Feature"},
	{"geometry":{"coordinates":[10.030764,53.596107],"type":"Point"},"properties":{"osm_id":"3712076425","tag":{"amenity":"waste_disposal"}},"type":"Feature"},
	{"geometry":{"coordinates":[10.051384,53.597016],"type":"Point"},"properties":{"osm_id":"3792483992","tag":{"amenity":"recycling","recycling:paper":"yes","recycling:plastic":"yes","recycling_type":"container"}},"type":"Feature"},
	{"geometry":{"coordinates":[10.051827,53.596972],"type":"Point"},"properties":{"osm_id":"3792483993","tag":{"amenity":"recycling","recycling:paper":"yes","recycling:plastic":"yes","recycling_type":"container"}},"type":"Feature"},
	{"geometry":{"coordinates":[10.051767,53.598109],"type":"Point"},"properties":{"osm_id":"3792483994","tag":{"amenity":"recycling","recycling:paper":"yes","recycling:plastic":"yes","recycling_type":"container"}},"type":"Feature"},
	{"geometry":{"coordinates":[10.051236,53.598053],"type":"Point"},"properties":{"osm_id":"3792483995","tag":{"amenity":"recycling","recycling:paper":"yes","recycling:plastic":"yes","recycling_type":"container"}},"type":"Feature"},
	{"geometry":{"coordinates":[10.051726,53.598291],"type":"Point"},"properties":{"osm_id":"3792810869","tag":{"amenity":"recycling","recycling_type":"container"}},"type":"Feature"},
	{"geometry":{"coordinates":[10.09276,53.598267],"type":"Point"},"properties":{"osm_id":"3880793638","tag":{"amenity":"recycling","recycling:clothes":"yes","recycling_type":"container"}},"type":"Feature"},
	{"geometry":{"coordinates":[10.023172,53.61223],"type":"Point"},"properties":{"osm_id":"3999929460","tag":{"amenity":"recycling","recycling:clothes":"yes","recycling:glass_bottles":"yes","recycling:paper":"yes","recycling_type":"container"}},"type":"Feature"},
	{"geometry":{"coordinates":[10.048238,53.608213],"type":"Point"},"properties":{"osm_id":"4024377897","tag":{"amenity":"recycling","recycling:paper":"yes","recycling_type":"container"}},"type":"Feature"},
	{"geometry":{"coordinates":[10.031548,53.62324],"type":"Point"},"properties":{"osm_id":"4058927805","tag":{"amenity":"recycling","recycling:paper":"yes","recycling_type":"container"}},"type":"Feature"},
	{"geometry":{"coordinates":[10.02304,53.593377],"type":"Point"},"properties":{"osm_id":"4170535025","tag":{"amenity":"waste_disposal"}},"type":"Feature"},
	{"geometry":{"coordinates":[10.023742,53.594349],"type":"Point"},"properties":{"osm_id":"4170535030","tag":{"amenity":"waste_disposal"}},"type":"Feature"},
	{"geometry":{"coordinates":[10.101503,53.597493],"type":"Point"},"properties":{"osm_id":"4349053129","tag":{"amenity":"recycling","recycling:clothes":"yes","recycling_type":"container","wheelchair":"yes"}},"type":"Feature"},
	{"geometry":{"coordinates":[10.086841,53.59281],"type":"Point"},"properties":{"osm_id":"4450901668","tag":{"amenity":"recycling","description":"2 Container","recycling:paper":"yes","recycling_type":"container"}},"type":"Feature"},
	{"geometry":{"coordinates":[10.033253,53.610276],"type":"Point"},"properties":{"osm_id":"4608407427","tag":{"amenity":"recycling","recycling:paper":"yes","recycling_type":"container"}},"type":"Feature"},
	{"geometry":{"coordinates":[10.055014,53.611834],"type":"Point"},"properties":{"osm_id":"4608468244","tag":{"amenity":"recycling","recycling:paper":"yes","recycling_type":"container"}},"type":"Feature"},
	{"geometry":{"coordinates":[10.081843,53.601764],"type":"Point"},"properties":{"osm_id":"4608708864","tag":{"amenity":"recycling","recycling:paper":"yes","recycling_type":"container"}},"type":"Feature"},
	{"geometry":{"coordinates":[10.025975,53.631545],"type":"Point"},"properties":{"osm_id":"4610181824","tag":{"amenity":"recycling","recycling:glass_bottles":"yes","recycling:paper":"yes","recycling_type":"container"}},"type":"Feature"},
	{"geometry":{"coordinates":[10.046405,53.595679],"type":"Point"},"properties":{"osm_id":"4691546614","tag":{"amenity":"recycling","recycling:glass_bottles":"yes","recycling:paper":"yes","recycling_type":"container"}},"type":"Feature"},
	{"geometry":{"coordinates":[10.025702,53.626117],"type":"Point"},"properties":{"osm_id":"4795088433","tag":{"amenity":"recycling","recycling:clothes":"yes","recycling_type":"container"}},"type":"Feature"},
	{"geometry":{"coordinates":[10.049209,53.593933],"type":"Point"},"properties":{"osm_id":"4815903040","tag":{"amenity":"recycling","recycling:clothes":"yes","recycling_type":"container"}},"type":"Feature"},
	{"geometry":{"coordinates":[10.039975,53.601564],"type":"Point"},"properties":{"osm_id":"5060224830","tag":{"amenity":"waste_basket"}},"type":"Feature"},
	{"geometry":{"coordinates":[10.036357,53.609334],"type":"Point"},"properties":{"osm_id":"5177770851","tag":{"amenity":"waste_disposal"}},"type":"Feature"},
	{"geometry":{"coordinates":[10.020992,53.605382],"type":"Point"},"properties":{"osm_id":"5467663382","tag":{"amenity":"waste_basket"}},"type":"Feature"},
	{"geometry":{"coordinates":[10.021061,53.605366],"type":"Point"},"properties":{"osm_id":"5467663383","tag":{"amenity":"waste_basket"}},"type":"Feature"},
	{"geometry":{"coordinates":[10.022164,53.605447],"type":"Point"},"properties":{"osm_id":"5467663384","tag":{"amenity":"waste_basket"}},"type":"Feature"},
	{"geometry":{"coordinates":[10.032453,53.596033],"type":"Point"},"properties":{"osm_id":"5469411401","tag":{"amenity":"waste_basket"}},"type":"Feature"},
	{"geometry":{"coordinates":[10.067605,53.598665],"type":"Point"},"properties":{"osm_id":"5470103481","tag":{"amenity":"recycling","recycling:clothes":"yes","recycling:glass_bottles":"yes","recycling:paper":"yes","recycling_type":"container"}},"type":"Feature"},
	{"geometry":{"coordinates":[10.049208,53.599546],"type":"Point"},"properties":{"osm_id":"5563070033","tag":{"amenity":"recycling","recycling:paper":"yes","recycling_type":"container"}},"type":"Feature"},
	{"geometry":{"coordinates":[10.04375,53.605588],"type":"Point"},"properties":{"osm_id":"5563070034","tag":{"amenity":"recycling","recycling:paper":"yes","recycling_type":"container"}},"type":"Feature"},
	{"geometry":{"coordinates":[10.030831,53.62422],"type":"Point"},"properties":{"osm_id":"5585746638","tag":{"amenity":"waste_basket"}},"type":"Feature"},
	{"geometry":{"coordinates":[10.030916,53.624142],"type":"Point"},"properties":{"osm_id":"5585747157","tag":{"amenity":"waste_basket"}},"type":"Feature"},
	{"geometry":{"coordinates":[10.026664,53.597661],"type":"Point"},"properties":{"osm_id":"5646165722","tag":{"amenity":"waste_basket"}},"type":"Feature"},
	{"geometry":{"coordinates":[10.024299,53.599263],"type":"Point"},"properties":{"osm_id":"5646177752","tag":{"amenity":"waste_basket"}},"type":"Feature"},
	{"geometry":{"coordinates":[10.022701,53.597852],"type":"Point"},"properties":{"osm_id":"5646222850","tag":{"amenity":"waste_basket"}},"type":"Feature"},
	{"geometry":{"coordinates":[10.024758,53.597702],"type":"Point"},"properties":{"osm_id":"5646222860","tag":{"amenity":"waste_basket"}},"type":"Feature"},
	{"geometry":{"coordinates":[10.027496,53.59664],"type":"Point"},"properties":{"osm_id":"5646222861","tag":{"amenity":"waste_basket"}},"type":"Feature"},
	{"geometry":{"coordinates":[10.025832,53.597595],"type":"Point"},"properties":{"osm_id":"5646222865","tag":{"amenity":"waste_basket"}},"type":"Feature"},
	{"geometry":{"coordinates":[10.02357,53.598005],"type":"Point"},"properties":{"osm_id":"5646222866","tag":{"amenity":"waste_basket"}},"type":"Feature"},
	{"geometry":{"coordinates":[10.02747,53.596646],"type":"Point"},"properties":{"osm_id":"5646222869","tag":{"amenity":"waste_basket"}},"type":"Feature"},
	{"geometry":{"coordinates":[10.027024,53.59526],"type":"Point"},"properties":{"osm_id":"5646230447","tag":{"amenity":"waste_basket"}},"type":"Feature"},
	{"geometry":{"coordinates":[10.026874,53.595721],"type":"Point"},"properties":{"osm_id":"5646230448","tag":{"amenity":"waste_basket"}},"type":"Feature"},
	{"geometry":{"coordinates":[10.027348,53.595602],"type":"Point"},"properties":{"osm_id":"5646230449","tag":{"amenity":"waste_basket"}},"type":"Feature"},
	{"geometry":{"coordinates":[10.026719,53.595334],"type":"Point"},"properties":{"osm_id":"5646230450","tag":{"amenity":"waste_basket"}},"type":"Feature"},
	{"geometry":{"coordinates":[10.028957,53.595562],"type":"Point"},"properties":{"osm_id":"5646230451","tag":{"amenity":"waste_basket"}},"type":"Feature"},
	{"geometry":{"coordinates":[10.030967,53.595145],"type":"Point"},"properties":{"osm_id":"5646254166","tag":{"amenity":"waste_basket"}},"type":"Feature"},
	{"geometry":{"coordinates":[10.02179,53.623608],"type":"Point"},"properties":{"osm_id":"5691485287","tag":{"amenity":"recycling","recycling:paper":"yes","recycling_type":"container"}},"type":"Feature"},
	{"geometry":{"coordinates":[10.021913,53.602895],"type":"Point"},"properties":{"osm_id":"5713841323","tag":{"amenity":"waste_basket"}},"type":"Feature"},
	{"geometry":{"coordinates":[10.021979,53.603175],"type":"Point"},"properties":{"osm_id":"5713841324","tag":{"amenity":"waste_basket"}},"type":"Feature"},
	{"geometry":{"coordinates":[10.021714,53.602102],"type":"Point"},"properties":{"osm_id":"5713855422","tag":{"amenity":"waste_basket"}},"type":"Feature"},
	{"geometry":{"coordinates":[10.02046,53.602153],"type":"Point"},"properties":{"osm_id":"5732417300","tag":{"amenity":"waste_basket"}},"type":"Feature"},
	{"geometry":{"coordinates":[10.023962,53.626482],"type":"Point"},"properties":{"osm_id":"5820975014","tag":{"amenity":"waste_basket"}},"type":"Feature"},
	{"geometry":{"coordinates":[10.023787,53.626276],"type":"Point"},"properties":{"osm_id":"5820975015","tag":{"amenity":"waste_basket"}},"type":"Feature"},
	{"geometry":{"coordinates":[10.023501,53.626371],"type":"Point"},"properties":{"osm_id":"5820975016","tag":{"amenity":"waste_basket"}},"type":"Feature"},
	{"geometry":{"coordinates":[10.023676,53.626538],"type":"Point"},"properties":{"osm_id":"5820975017","tag":{"amenity":"waste_basket"}},"type":"Feature"},
	{"geometry":{"coordinates":[10.021178,53.626739],"type":"Point"},"properties":{"osm_id":"5823270725","tag":{"amenity":"waste_basket"}},"type":"Feature"},
	{"geometry":{"coordinates":[10.024583,53.627454],"type":"Point"},"properties":{"osm_id":"5873579746","tag":{"amenity":"waste_basket"}},"type":"Feature"},
	{"geometry":{"coordinates":[10.030458,53.628718],"type":"Point"},"properties":{"osm_id":"5897192707","tag":{"amenity":"waste_basket"}},"type":"Feature"},
	{"geometry":{"coordinates":[10.030312,53.628837],"type":"Point"},"properties":{"osm_id":"5897192708","tag":{"amenity":"waste_basket"}},"type":"Feature"},
	{"geometry":{"coordinates":[10.082275,53.640709],"type":"Point"},"properties":{"osm_id":"5909621020","tag":{"amenity":"waste_basket"}},"type":"Feature"},
	{"geometry":{"coordinates":[10.048033,53.607674],"type":"Point"},"properties":{"osm_id":"5948322534","tag":{"amenity":"waste_basket","waste":"trash"}},"type":"Feature"},
	{"geometry":{"coordinates":[10.048875,53.60645],"type":"Point"},"properties":{"osm_id":"5948322536","tag":{"amenity":"waste_basket","waste":"trash"}},"type":"Feature"},
	{"geometry":{"coordinates":[10.031288,53.628005],"type":"Point"},"properties":{"osm_id":"5984012075","tag":{"amenity":"waste_disposal"}},"type":"Feature"},
	{"geometry":{"coordinates":[10.037767,53.631363],"type":"Point"},"properties":{"osm_id":"5989802552","tag":{"amenity":"waste_basket"}},"type":"Feature"},
	{"geometry":{"coordinates":[10.027098,53.626573],"type":"Point"},"properties":{"osm_id":"6002848496","tag":{"amenity":"waste_basket"}},"type":"Feature"},
	{"geometry":{"coordinates":[10.027256,53.621954],"type":"Point"},"properties":{"osm_id":"6007604803","tag":{"amenity":"waste_basket"}},"type":"Feature"},
	{"geometry":{"coordinates":[10.022144,53.596597],"type":"Point"},"properties":{"osm_id":"6184990388","tag":{"amenity":"waste_basket"}},"type":"Feature"},
	{"geometry":{"coordinates":[10.02561,53.595167],"type":"Point"},"properties":{"osm_id":"6201342091","tag":{"amenity":"waste_disposal"}},"type":"Feature"},
	{"geometry":{"coordinates":[10.039986,53.605356],"type":"Point"},"properties":{"osm_id":"6211541277","tag":{"amenity":"waste_basket"}},"type":"Feature"},
	{"geometry":{"coordinates":[10.040245,53.604727],"type":"Point"},"properties":{"osm_id":"6211541278","tag":{"amenity":"waste_basket"}},"type":"Feature"},
	{"geometry":{"coordinates":[10.041031,53.601772],"type":"Point"},"properties":{"osm_id":"6211541280","tag":{"amenity":"waste_basket"}},"type":"Feature"},
	{"geometry":{"coordinates":[10.041169,53.601025],"type":"Point"},"properties":{"osm_id":"6211541281","tag":{"amenity":"waste_basket"}},"type":"Feature"},
	{"geometry":{"coordinates":[10.041558,53.599244],"type":"Point"},"properties":{"osm_id":"6211541282","tag":{"amenity":"waste_basket"}},"type":"Feature"},
	{"geometry":{"coordinates":[10.041772,53.598946],"type":"Point"},"properties":{"osm_id":"6211552387","tag":{"amenity":"waste_basket"}},"type":"Feature"},
	{"geometry":{"coordinates":[10.042768,53.59898],"type":"Point"},"properties":{"osm_id":"6211552388","tag":{"amenity":"waste_basket"}},"type":"Feature"},
	{"geometry":{"coordinates":[10.025993,53.622884],"type":"Point"},"properties":{"osm_id":"6297791667","tag":{"amenity":"waste_basket"}},"type":"Feature"},
	{"geometry":{"coordinates":[10.026151,53.622711],"type":"Point"},"properties":{"osm_id":"6297791668","tag":{"amenity":"waste_basket"}},"type":"Feature"},
	{"geometry":{"coordinates":[10.020812,53.617073],"type":"Point"},"properties":{"osm_id":"6297799639","tag":{"amenity":"waste_basket"}},"type":"Feature"},
	{"geometry":{"coordinates":[10.022154,53.629905],"type":"Point"},"properties":{"osm_id":"6345890243","tag":{"amenity":"waste_basket"}},"type":"Feature"},
	{"geometry":{"coordinates":[10.10475,53.629305],"type":"Point"},"properties":{"osm_id":"6389295051","tag":{"amenity":"waste_basket"}},"type":"Feature"},
	{"geometry":{"coordinates":[10.029249,53.622666],"type":"Point"},"properties":{"osm_id":"6404008049","tag":{"amenity":"waste_basket"}},"type":"Feature"},
	{"geometry":{"coordinates":[10.077611,53.623345],"type":"Point"},"properties":{"osm_id":"6426760685","tag":{"amenity":"waste_basket"}},"type":"Feature"},
	{"geometry":{"coordinates":[10.077295,53.622546],"type":"Point"},"properties":{"osm_id":"6426760686","tag":{"amenity":"waste_basket"}},"type":"Feature"},
	{"geometry":{"coordinates":[10.021851,53.612901],"type":"Point"},"properties":{"osm_id":"6597311325","tag":{"amenity":"waste_basket"}},"type":"Feature"},
	{"geometry":{"coordinates":[10.055888,53.594337],"type":"Point"},"properties":{"osm_id":"6652785754","tag":{"amenity":"recycling","opening_hours":"Mo-Fr 07:00-20:00","recycling:glass_bottles":"yes","recycling:paper":"yes","recycling_type":"container"}},"type":"Feature"},
	{"geometry":{"coordinates":[10.054227,53.592953],"type":"Point"},"properties":{"osm_id":"6657041409","tag":{"amenity":"recycling","recycling:clothes":"yes","recycling_type":"container"}},"type":"Feature"},
	{"geometry":{"coordinates":[10.038596,53.621446],"type":"Point"},"properties":{"osm_id":"6699196488","tag":{"amenity":"waste_basket"}},"type":"Feature"},
	{"geometry":{"coordinates":[10.037008,53.620598],"type":"Point"},"properties":{"osm_id":"6699201986","tag":{"amenity":"waste_basket"}},"type":"Feature"},
	{"geometry":{"coordinates":[10.039396,53.621429],"type":"Point"},"properties":{"osm_id":"6699201988","tag":{"amenity":"waste_basket"}},"type":"Feature"},
	{"geometry":{"coordinates":[10.037351,53.621393],"type":"Point"},"properties":{"osm_id":"6699206188","tag":{"amenity":"waste_basket"}},"type":"Feature"},
	{"geometry":{"coordinates":[10.038542,53.621508],"type":"Point"},"properties":{"osm_id":"6699208186","tag":{"amenity":"waste_basket"}},"type":"Feature"},
	{"geometry":{"coordinates":[10.040518,53.620406],"type":"Point"},"properties":{"osm_id":"6699223691","tag":{"amenity":"waste_basket"}},"type":"Feature"},
	{"geometry":{"coordinates":[10.044458,53.623344],"type":"Point"},"properties":{"osm_id":"6699259185","tag":{"amenity":"waste_basket"}},"type":"Feature"},
	{"geometry":{"coordinates":[10.079996,53.639025],"type":"Point"},"properties":{"osm_id":"6720464851","tag":{"access":"private","amenity":"waste_disposal"}},"type":"Feature"},
	{"geometry":{"coordinates":[10.08016,53.638997],"type":"Point"},"properties":{"osm_id":"6720464852","tag":{"access":"private","amenity":"waste_disposal"}},"type":"Feature"},
	{"geometry":{"coordinates":[10.080536,53.641534],"type":"Point"},"properties":{"osm_id":"6744281690","tag":{"amenity":"waste_basket","waste":"trash"}},"type":"Feature"},
	{"geometry":{"coordinates":[10.060659,53.597139],"type":"Point"},"properties":{"osm_id":"6856716093","tag":{"amenity":"recycling","recycling:clothes":"yes","recycling_type":"container"}},"type":"Feature"},
	{"geometry":{"coordinates":[10.057889,53.592956],"type":"Point"},"properties":{"osm_id":"7366000639","tag":{"amenity":"recycling","recycling:clothes":"yes","recycling_type":"container"}},"type":"Feature"},
	{"geometry":{"coordinates":[10.023816,53.599253],"type":"Point"},"properties":{"osm_id":"7417412385","tag":{"amenity":"waste_disposal"}},"type":"Feature"},
	{"geometry":{"coordinates":[10.024714,53.599773],"type":"Point"},"properties":{"osm_id":"7417412387","tag":{"amenity":"waste_basket"}},"type":"Feature"},
	{"geometry":{"coordinates":[10.02684,53.599473],"type":"Point"},"properties":{"osm_id":"7417413386","tag":{"amenity":"waste_basket"}},"type":"Feature"},
	{"geometry":{"coordinates":[10.028682,53.6027],"type":"Point"},"properties":{"osm_id":"7417423185","tag":{"amenity":"waste_basket"}},"type":"Feature"},
	{"geometry":{"coordinates":[10.039056,53.627063],"type":"Point"},"properties":{"osm_id":"7424864393","tag":{"amenity":"waste_basket"}},"type":"Feature"},
	{"geometry":{"coordinates":[10.101313,53.598406],"type":"Point"},"properties":{"osm_id":"7464834951","tag":{"amenity":"recycling","check_date":"2020-04-25","operator":"Stadtreinigung Hamburg","recycling:small_appliances":"yes","recycling:small_electrical_appliances":"yes","recycling_type":"container"}},"type":"Feature"},
	{"geometry":{"coordinates":[10.057104,53.617268],"type":"Point"},"properties":{"osm_id":"7466076722","tag":{"amenity":"waste_basket"}},"type":"Feature"},
	{"geometry":{"coordinates":[10.025309,53.618661],"type":"Point"},"properties":{"osm_id":"7573279386","tag":{"amenity":"waste_basket"}},"type":"Feature"},
	{"geometry":{"coordinates":[10.023634,53.617972],"type":"Point"},"properties":{"osm_id":"7573284288","tag":{"amenity":"waste_basket"}},"type":"Feature"},
	{"geometry":{"coordinates":[10.022072,53.616914],"type":"Point"},"properties":{"osm_id":"7573297285","tag":{"amenity":"waste_basket"}},"type":"Feature"},
	{"geometry":{"coordinates":[10.019834,53.608409],"type":"Point"},"properties":{"osm_id":"7573348285","tag":{"amenity":"waste_basket"}},"type":"Feature"},
	{"geometry":{"coordinates":[10.024289,53.609369],"type":"Point"},"properties":{"osm_id":"7573352385","tag":{"amenity":"waste_basket"}},"type":"Feature"},
	{"geometry":{"coordinates":[10.032537,53.594619],"type":"Point"},"properties":{"osm_id":"7620406385","tag":{"amenity":"waste_basket"}},"type":"Feature"},
	{"geometry":{"coordinates":[10.032339,53.595174],"type":"Point"},"properties":{"osm_id":"7620406487","tag":{"amenity":"waste_basket"}},"type":"Feature"},
	{"geometry":{"coordinates":[10.036915,53.605321],"type":"Point"},"properties":{"osm_id":"7623118586","tag":{"amenity":"waste_basket"}},"type":"Feature"},
	{"geometry":{"coordinates":[10.036421,53.605269],"type":"Point"},"properties":{"osm_id":"7623118587","tag":{"amenity":"waste_basket"}},"type":"Feature"},
	{"geometry":{"coordinates":[10.035554,53.605459],"type":"Point"},"properties":{"osm_id":"7623118589","tag":{"amenity":"waste_basket"}},"type":"Feature"},
	{"geometry":{"coordinates":[10.037513,53.605381],"type":"Point"},"properties":{"osm_id":"7623118685","tag":{"amenity":"waste_basket"}},"type":"Feature"},
	{"geometry":{"coordinates":[10.036632,53.605291],"type":"Point"},"properties":{"osm_id":"7623118686","tag":{"amenity":"waste_basket"}},"type":"Feature"},
	{"geometry":{"coordinates":[10.035526,53.605559],"type":"Point"},"properties":{"osm_id":"7623118687","tag":{"amenity":"waste_basket"}},"type":"Feature"},
	{"geometry":{"coordinates":[10.037228,53.605352],"type":"Point"},"properties":{"osm_id":"7623118785","tag":{"amenity":"waste_basket"}},"type":"Feature"},
	{"geometry":{"coordinates":[10.035581,53.605377],"type":"Point"},"properties":{"osm_id":"7623118885","tag":{"amenity":"waste_basket"}},"type":"Feature"},
	{"geometry":{"coordinates":[10.035435,53.605876],"type":"Point"},"properties":{"osm_id":"7623121585","tag":{"amenity":"waste_basket"}},"type":"Feature"},
	{"geometry":{"coordinates":[10.035412,53.605954],"type":"Point"},"properties":{"osm_id":"7623121686","tag":{"amenity":"waste_basket"}},"type":"Feature"},
	{"geometry":{"coordinates":[10.035389,53.60603],"type":"Point"},"properties":{"osm_id":"7623138085","tag":{"amenity":"waste_basket"}},"type":"Feature"},
	{"geometry":{"coordinates":[10.0354,53.606121],"type":"Point"},"properties":{"osm_id":"7623138185","tag":{"amenity":"waste_basket"}},"type":"Feature"},
	{"geometry":{"coordinates":[10.035306,53.60633],"type":"Point"},"properties":{"osm_id":"7623138186","tag":{"amenity":"waste_basket"}},"type":"Feature"},
	{"geometry":{"coordinates":[10.034679,53.605105],"type":"Point"},"properties":{"osm_id":"7623142885","tag":{"amenity":"waste_basket"}},"type":"Feature"},
	{"geometry":{"coordinates":[10.037641,53.606519],"type":"Point"},"properties":{"osm_id":"7623151385","tag":{"amenity":"waste_basket"}},"type":"Feature"},
	{"geometry":{"coordinates":[10.038267,53.605442],"type":"Point"},"properties":{"osm_id":"7623151386","tag":{"amenity":"waste_basket"}},"type":"Feature"},
	{"geometry":{"coordinates":[10.033314,53.604917],"type":"Point"},"properties":{"osm_id":"7625955786","tag":{"amenity":"waste_basket"}},"type":"Feature"},
	{"geometry":{"coordinates":[10.034539,53.603549],"type":"Point"},"properties":{"osm_id":"7646449792","tag":{"amenity":"waste_basket"}},"type":"Feature"},
	{"geometry":{"coordinates":[10.034481,53.603832],"type":"Point"},"properties":{"osm_id":"7646462885","tag":{"amenity":"waste_basket"}},"type":"Feature"},
	{"geometry":{"coordinates":[10.034485,53.603763],"type":"Point"},"properties":{"osm_id":"7646462985","tag":{"amenity":"waste_basket"}},"type":"Feature"},
	{"geometry":{"coordinates":[10.036936,53.624251],"type":"Point"},"properties":{"osm_id":"7750128426","tag":{"amenity":"waste_basket","waste":"trash"}},"type":"Feature"},
	{"geometry":{"coordinates":[10.03592,53.614517],"type":"Point"},"properties":{"osm_id":"7786537831","tag":{"amenity":"waste_basket"}},"type":"Feature"},
	{"geometry":{"coordinates":[10.035497,53.615284],"type":"Point"},"properties":{"osm_id":"7798075785","tag":{"amenity":"waste_basket"}},"type":"Feature"},
	{"geometry":{"coordinates":[10.074445,53.607975],"type":"Point"},"properties":{"osm_id":"7818054412","tag":{"amenity":"waste_disposal"}},"type":"Feature"},
	{"geometry":{"coordinates":[10.0781,53.60797],"type":"Point"},"properties":{"osm_id":"7818054413","tag":{"amenity":"waste_disposal"}},"type":"Feature"},
	{"geometry":{"coordinates":[10.077578,53.607896],"type":"Point"},"properties":{"osm_id":"7818054414","tag":{"amenity":"waste_disposal"}},"type":"Feature"},
	{"geometry":{"coordinates":[10.076855,53.607819],"type":"Point"},"properties":{"osm_id":"7818054415","tag":{"amenity":"waste_disposal"}},"type":"Feature"},
	{"geometry":{"coordinates":[10.07541,53.607875],"type":"Point"},"properties":{"osm_id":"7818054416","tag":{"amenity":"waste_disposal"}},"type":"Feature"},
	{"geometry":{"coordinates":[10.076176,53.607801],"type":"Point"},"properties":{"osm_id":"7818054417","tag":{"amenity":"waste_disposal"}},"type":"Feature"},
	{"geometry":{"coordinates":[10.072755,53.608002],"type":"Point"},"properties":{"osm_id":"7818054419","tag":{"amenity":"waste_disposal"}},"type":"Feature"},
	{"geometry":{"coordinates":[10.074495,53.608582],"type":"Point"},"properties":{"osm_id":"7818054420","tag":{"amenity":"waste_disposal"}},"type":"Feature"},
	{"geometry":{"coordinates":[10.075396,53.608563],"type":"Point"},"properties":{"osm_id":"7818054421","tag":{"amenity":"waste_disposal"}},"type":"Feature"},
	{"geometry":{"coordinates":[10.076281,53.608529],"type":"Point"},"properties":{"osm_id":"7818054422","tag":{"amenity":"waste_disposal"}},"type":"Feature"},
	{"geometry":{"coordinates":[10.076948,53.608487],"type":"Point"},"properties":{"osm_id":"7818054423","tag":{"amenity":"waste_disposal"}},"type":"Feature"},
	{"geometry":{"coordinates":[10.077745,53.608414],"type":"Point"},"properties":{"osm_id":"7818054424","tag":{"amenity":"waste_disposal"}},"type":"Feature"},
	{"geometry":{"coordinates":[10.078568,53.608339],"type":"Point"},"properties":{"osm_id":"7818054425","tag":{"amenity":"waste_disposal"}},"type":"Feature"},
	{"geometry":{"coordinates":[10.079109,53.608292],"type":"Point"},"properties":{"osm_id":"7818054426","tag":{"amenity":"waste_disposal"}},"type":"Feature"},
	{"geometry":{"coordinates":[10.079684,53.608226],"type":"Point"},"properties":{"osm_id":"7818054427","tag":{"amenity":"waste_disposal"}},"type":"Feature"},
	{"geometry":{"coordinates":[10.07976,53.607845],"type":"Point"},"properties":{"osm_id":"7818054428","tag":{"amenity":"waste_disposal"}},"type":"Feature"},
	{"geometry":{"coordinates":[10.079319,53.607664],"type":"Point"},"properties":{"osm_id":"7818054429","tag":{"amenity":"waste_disposal"}},"type":"Feature"},
	{"geometry":{"coordinates":[10.078583,53.607498],"type":"Point"},"properties":{"osm_id":"7818054430","tag":{"amenity":"waste_disposal"}},"type":"Feature"},
	{"geometry":{"coordinates":[10.077929,53.607778],"type":"Point"},"properties":{"osm_id":"7818054431","tag":{"amenity":"waste_disposal"}},"type":"Feature"},
	{"geometry":{"coordinates":[10.077251,53.607699],"type":"Point"},"properties":{"osm_id":"7818054432","tag":{"amenity":"waste_disposal"}},"type":"Feature"},
	{"geometry":{"coordinates":[10.076596,53.607654],"type":"Point"},"properties":{"osm_id":"7818054433","tag":{"amenity":"waste_disposal"}},"type":"Feature"},
	{"geometry":{"coordinates":[10.077743,53.607006],"type":"Point"},"properties":{"osm_id":"7818054434","tag":{"amenity":"waste_disposal"}},"type":"Feature"},
	{"geometry":{"coordinates":[10.077123,53.60674],"type":"Point"},"properties":{"osm_id":"7818054435","tag":{"amenity":"waste_disposal"}},"type":"Feature"},
	{"geometry":{"coordinates":[10.076478,53.606513],"type":"Point"},"properties":{"osm_id":"7818054436","tag":{"amenity":"waste_disposal"}},"type":"Feature"},
	{"geometry":{"coordinates":[10.070117,53.609389],"type":"Point"},"properties":{"osm_id":"7869946690","tag":{"amenity":"waste_disposal"}},"type":"Feature"},
	{"geometry":{"coordinates":[10.075885,53.619644],"type":"Point"},"properties":{"osm_id":"7935331577","tag":{"amenity":"recycling","recycling:glass_bottles":"yes","recycling:paper":"yes","recycling_type":"container"}},"type":"Feature"},
	{"geometry":{"coordinates":[10.020938,53.638772],"type":"Point"},"properties":{"osm_id":"7938184785","tag":{"access":"private","amenity":"waste_disposal","waste":"plastic;organic;household;paper"}},"type":"Feature"},
	{"geometry":{"coordinates":[10.021412,53.638589],"type":"Point"},"properties":{"osm_id":"7938184786","tag":{"access":"private","amenity":"waste_disposal","waste":"plastic;organic;household;paper"}},"type":"Feature"},
	{"geometry":{"coordinates":[10.021966,53.638443],"type":"Point"},"properties":{"osm_id":"7938184787","tag":{"amenity":"waste_disposal","waste":"plastic;organic;household;paper"}},"type":"Feature"},
	{"geometry":{"coordinates":[10.022431,53.638343],"type":"Point"},"properties":{"osm_id":"7938184788","tag":{"amenity":"waste_disposal","waste":"plastic;organic;household;paper"}},"type":"Feature"}
]
}
