{
"type": "FeatureCollection",
"features": [
	{"geometry":{"coordinates":[10.08421,52.98721],"type":"Point"},"properties":{"osm_id":"410090026","tag":{"amenity":"recycling","recycling:clothes":"yes","recycling:glass":"yes","recycling:paper":"yes","recycling:shoes":"yes","recycling_type":"container"}},"type":"Feature"},
	{"geometry":{"coordinates":[10.107399,52.991287],"type":"Point"},"properties":{"osm_id":"677752031","tag":{"amenity":"recycling","recycling:clothes":"yes","recycling:glass_bottles":"yes","recycling_type":"container"}},"type":"Feature"},
	{"geometry":{"coordinates":[10.105247,52.980413],"type":"Point"},"properties":{"osm_id":"2996990159","tag":{"amenity":"waste_basket"}},"type":"Feature"},
	{"geometry":{"coordinates":[10.100881,52.981586],"type":"Point"},"properties":{"osm_id":"2996990171","tag":{"amenity":"waste_basket"}},"type":"Feature"},
	{"geometry":{"coordinates":[10.099234,52.982668],"type":"Point"},"properties":{"osm_id":"2996990173","tag":{"amenity":"waste_basket"}},"type":"Feature"},
	{"geometry":{"coordinates":[10.106069,52.982936],"type":"Point"},"properties":{"osm_id":"2996990175","tag":{"amenity":"waste_basket"}},"type":"Feature"},
	{"geometry":{"coordinates":[10.103468,52.984585],"type":"Point"},"properties":{"osm_id":"2996990190","tag":{"amenity":"waste_basket"}},"type":"Feature"},
	{"geometry":{"coordinates":[10.067186,52.992803],"type":"Point"},"properties":{"osm_id":"3451322799","tag":{"amenity":"waste_basket"}},"type":"Feature"},
	{"geometry":{"coordinates":[10.096804,53.002101],"type":"Point"},"properties":{"osm_id":"3457043286","tag":{"amenity":"recycling","recycling:glass_bottles":"yes","recycling_type":"container"}},"type":"Feature"},
	{"geometry":{"coordinates":[10.096472,53.004506],"type":"Point"},"properties":{"osm_id":"3457051946","tag":{"amenity":"recycling","check_date":"2020-03-01","recycling:clothes":"yes","recycling:glass_bottles":"yes","recycling:small_appliances":"yes","recycling:small_electrical_appliances":"yes","recycling_type":"container"}},"type":"Feature"},
	{"geometry":{"coordinates":[10.075086,52.994418],"type":"Point"},"properties":{"osm_id":"5313355023","tag":{"amenity":"recycling","check_date":"2021-03-07","recycling:clothes":"yes","recycling:glass_bottles":"yes","recycling:small_appliances":"yes","recycling:small_electrical_appliances":"yes","recycling_type":"container"}},"type":"Feature"},
	{"geometry":{"coordinates":[10.101542,52.995745],"type":"Point"},"properties":{"osm_id":"6680404192","tag":{"amenity":"recycling","recycling:clothes":"yes","recycling:glass_bottles":"yes","recycling_type":"container"}},"type":"Feature"},
	{"geometry":{"coordinates":[10.074536,52.993779],"type":"Point"},"properties":{"osm_id":"7747661876","tag":{"amenity":"waste_basket"}},"type":"Feature"},
	{"geometry":{"coordinates":[10.07582,52.993025],"type":"Point"},"properties":{"osm_id":"7747661878","tag":{"amenity":"waste_basket"}},"type":"Feature"},
	{"geometry":{"coordinates":[10.083894,52.987252],"type":"Point"},"properties":{"osm_id":"7747679295","tag":{"amenity":"waste_basket","waste":"trash"}},"type":"Feature"},
	{"geometry":{"coordinates":[10.093983,52.997115],"type":"Point"},"properties":{"osm_id":"8916390730","tag":{"amenity":"waste_basket","waste":"trash"}},"type":"Feature"},
	{"geometry":{"coordinates":[10.095075,52.996958],"type":"Point"},"properties":{"osm_id":"8916390737","tag":{"amenity":"waste_basket","waste":"trash"}},"type":"Feature"},
	{"geometry":{"coordinates":[10.096235,52.996446],"type":"Point"},"properties":{"osm_id":"8916390744","tag":{"amenity":"waste_basket","waste":"trash"}},"type":"Feature"},
	{"geometry":{"coordinates":[10.098077,52.995698],"type":"Point"},"properties":{"osm_id":"8916390785","tag":{"amenity":"waste_basket","waste":"trash"}},"type":"Feature"},
	{"geometry":{"coordinates":[10.098935,52.995304],"type":"Point"},"properties":{"osm_id":"8916390808","tag":{"amenity":"waste_basket","waste":"trash"}},"type":"Feature"},
	{"geometry":{"coordinates":[10.102382,52.993582],"type":"Point"},"properties":{"osm_id":"8916392540","tag":{"amenity":"waste_basket","waste":"trash"}},"type":"Feature"},
	{"geometry":{"coordinates":[10.102244,52.993788],"type":"Point"},"properties":{"osm_id":"8916392543","tag":{"amenity":"waste_basket","waste":"trash"}},"type":"Feature"},
	{"geometry":{"coordinates":[10.102131,52.993325],"type":"Point"},"properties":{"osm_id":"8916392544","tag":{"amenity":"waste_basket","waste":"trash"}},"type":"Feature"}
]
}
