{
"type": "FeatureCollection",
"features": [
	{"geometry":{"coordinates":[10.059193,50.188911],"type":"Point"},"properties":{"osm_id":"610389618","tag":{"amenity":"recycling","recycling:cans":"yes","recycling:clothes":"yes","recycling:glass_bottles":"yes","recycling_type":"container"}},"type":"Feature"},
	{"geometry":{"coordinates":[10.081498,50.196433],"type":"Point"},"properties":{"osm_id":"895372309","tag":{"amenity":"recycling","check_date:recycling":"2020-11-01","recycling:cans":"yes","recycling:glass_bottles":"yes","recycling_type":"container"}},"type":"Feature"},
	{"geometry":{"coordinates":[10.086641,50.18663],"type":"Point"},"properties":{"osm_id":"917114685","tag":{"amenity":"recycling","location":"overground","recycling:cans":"yes","recycling:glass":"yes","recycling_type":"container"}},"type":"Feature"},
	{"geometry":{"coordinates":[10.078386,50.1908],"type":"Point"},"properties":{"osm_id":"919676262","tag":{"amenity":"recycling","recycling:cans":"yes","recycling:glass":"yes","recycling_type":"container"}},"type":"Feature"},
	{"geometry":{"coordinates":[10.098909,50.18354],"type":"Point"},"properties":{"osm_id":"1541203581","tag":{"amenity":"recycling","recycling_type":"container"}},"type":"Feature"},
	{"geometry":{"coordinates":[10.077692,50.196009],"type":"Point"},"properties":{"osm_id":"3020082833","tag":{"amenity":"waste_basket","check_date":"2021-05-23","source:geo":"Bing 2012"}},"type":"Feature"},
	{"geometry":{"coordinates":[10.073985,50.198202],"type":"Point"},"properties":{"osm_id":"3020082901","tag":{"amenity":"waste_basket","source:geo":"Bing 2012"}},"type":"Feature"},
	{"geometry":{"coordinates":[10.069929,50.193373],"type":"Point"},"properties":{"osm_id":"6416747701","tag":{"amenity":"waste_basket"}},"type":"Feature"},
	{"geometry":{"coordinates":[10.07053,50.192895],"type":"Point"},"properties":{"osm_id":"6592737286","tag":{"amenity":"waste_basket"}},"type":"Feature"},
	{"geometry":{"coordinates":[10.072919,50.190188],"type":"Point"},"properties":{"osm_id":"6592753187","tag":{"amenity":"waste_basket"}},"type":"Feature"},
	{"geometry":{"coordinates":[10.074527,50.190348],"type":"Point"},"properties":{"osm_id":"6592753190","tag":{"amenity":"waste_basket"}},"type":"Feature"},
	{"geometry":{"coordinates":[10.073576,50.190798],"type":"Point"},"properties":{"osm_id":"6592753191","tag":{"amenity":"waste_basket"}},"type":"Feature"},
	{"geometry":{"coordinates":[10.074157,50.190922],"type":"Point"},"properties":{"osm_id":"6592753192","tag":{"amenity":"waste_basket"}},"type":"Feature"},
	{"geometry":{"coordinates":[10.073591,50.1916],"type":"Point"},"properties":{"osm_id":"6592753195","tag":{"amenity":"waste_basket"}},"type":"Feature"},
	{"geometry":{"coordinates":[10.073894,50.192272],"type":"Point"},"properties":{"osm_id":"6592753198","tag":{"amenity":"waste_basket"}},"type":"Feature"},
	{"geometry":{"coordinates":[10.074985,50.192035],"type":"Point"},"properties":{"osm_id":"6592753201","tag":{"amenity":"waste_basket"}},"type":"Feature"},
	{"geometry":{"coordinates":[10.074734,50.191515],"type":"Point"},"properties":{"osm_id":"6592753203","tag":{"amenity":"waste_basket"}},"type":"Feature"},
	{"geometry":{"coordinates":[10.075647,50.19021],"type":"Point"},"properties":{"osm_id":"6592753206","tag":{"amenity":"waste_basket"}},"type":"Feature"},
	{"geometry":{"coordinates":[10.076001,50.191022],"type":"Point"},"properties":{"osm_id":"6592753209","tag":{"amenity":"waste_basket"}},"type":"Feature"},
	{"geometry":{"coordinates":[10.076327,50.191637],"type":"Point"},"properties":{"osm_id":"6592753210","tag":{"amenity":"waste_basket"}},"type":"Feature"},
	{"geometry":{"coordinates":[10.076801,50.192769],"type":"Point"},"properties":{"osm_id":"6592753215","tag":{"amenity":"waste_basket"}},"type":"Feature"},
	{"geometry":{"coordinates":[10.077154,50.193479],"type":"Point"},"properties":{"osm_id":"6592753218","tag":{"amenity":"waste_basket"}},"type":"Feature"},
	{"geometry":{"coordinates":[10.076602,50.193497],"type":"Point"},"properties":{"osm_id":"6592753221","tag":{"amenity":"waste_basket"}},"type":"Feature"},
	{"geometry":{"coordinates":[10.075405,50.192681],"type":"Point"},"properties":{"osm_id":"6592753225","tag":{"amenity":"waste_basket"}},"type":"Feature"},
	{"geometry":{"coordinates":[10.0738,50.192702],"type":"Point"},"properties":{"osm_id":"6592753229","tag":{"amenity":"waste_basket"}},"type":"Feature"},
	{"geometry":{"coordinates":[10.072916,50.19252],"type":"Point"},"properties":{"osm_id":"6592753236","tag":{"amenity":"waste_basket"}},"type":"Feature"},
	{"geometry":{"coordinates":[10.071749,50.191616],"type":"Point"},"properties":{"osm_id":"6592753240","tag":{"amenity":"waste_basket"}},"type":"Feature"},
	{"geometry":{"coordinates":[10.071951,50.19061],"type":"Point"},"properties":{"osm_id":"6592753241","tag":{"amenity":"waste_basket"}},"type":"Feature"},
	{"geometry":{"coordinates":[10.072089,50.190037],"type":"Point"},"properties":{"osm_id":"6592753243","tag":{"amenity":"waste_basket"}},"type":"Feature"},
	{"geometry":{"coordinates":[10.07044,50.194539],"type":"Point"},"properties":{"osm_id":"6608921212","tag":{"amenity":"waste_basket"}},"type":"Feature"},
	{"geometry":{"coordinates":[10.039744,50.224636],"type":"Point"},"properties":{"osm_id":"6620998111","tag":{"amenity":"waste_basket"}},"type":"Feature"},
	{"geometry":{"coordinates":[10.041316,50.224436],"type":"Point"},"properties":{"osm_id":"6620999246","tag":{"amenity":"waste_basket"}},"type":"Feature"},
	{"geometry":{"coordinates":[10.039334,50.225102],"type":"Point"},"properties":{"osm_id":"6620999305","tag":{"amenity":"waste_basket"}},"type":"Feature"},
	{"geometry":{"coordinates":[10.038169,50.225202],"type":"Point"},"properties":{"osm_id":"6620999310","tag":{"amenity":"waste_basket"}},"type":"Feature"},
	{"geometry":{"coordinates":[10.040027,50.22511],"type":"Point"},"properties":{"osm_id":"6621057749","tag":{"amenity":"waste_basket"}},"type":"Feature"},
	{"geometry":{"coordinates":[10.036273,50.225681],"type":"Point"},"properties":{"osm_id":"6621057751","tag":{"amenity":"waste_basket"}},"type":"Feature"},
	{"geometry":{"coordinates":[10.046104,50.185438],"type":"Point"},"properties":{"osm_id":"6631011153","tag":{"amenity":"waste_basket","colour":"brown"}},"type":"Feature"},
	{"geometry":{"coordinates":[10.067159,50.18996],"type":"Point"},"properties":{"osm_id":"7132247161","tag":{"amenity":"waste_basket","waste":"trash"}},"type":"Feature"},
	{"geometry":{"coordinates":[10.098647,50.20677],"type":"Point"},"properties":{"osm_id":"8436101474","tag":{"amenity":"recycling","opening_hours":"24/7","recycling:cans":"yes","recycling:clothes":"yes","recycling:glass_bottles":"yes","recycling_type":"container"}},"type":"Feature"},
	{"geometry":{"coordinates":[10.088577,50.2034],"type":"Point"},"properties":{"osm_id":"9009142335","tag":{"amenity":"recycling","noname":"yes","recycling:cans":"yes","recycling:clothes":"yes","recycling:glass":"yes","recycling:glass_bottles":"yes","recycling_type":"container","wheelchair":"no"}},"type":"Feature"},
	{"geometry":{"coordinates":[10.074688,50.198642],"type":"Point"},"properties":{"osm_id":"9074558530","tag":{"amenity":"waste_basket"}},"type":"Feature"},
	{"geometry":{"coordinates":[10.074633,50.198692],"type":"Point"},"properties":{"osm_id":"9074558531","tag":{"amenity":"waste_basket"}},"type":"Feature"}
]
}
