{
"type": "FeatureCollection",
"features": [
	{"geometry":{"coordinates":[10.027646,49.248466],"type":"Point"},"properties":{"osm_id":"603301552","tag":{"amenity":"recycling","recycling:clothes":"yes"}},"type":"Feature"},
	{"geometry":{"coordinates":[10.030014,49.243973],"type":"Point"},"properties":{"name":"Wertstoffhof Rot am See","osm_id":"603301565","tag":{"amenity":"recycling","operator":"Landkreis Schw\u00c3\u00a4bisch Hall","recycling_type":"centre"}},"type":"Feature"},
	{"geometry":{"coordinates":[10.028018,49.246506],"type":"Point"},"properties":{"osm_id":"608595190","tag":{"amenity":"recycling","recycling:glass":"yes"}},"type":"Feature"},
	{"geometry":{"coordinates":[10.042698,49.252795],"type":"Point"},"properties":{"osm_id":"676737127","tag":{"amenity":"recycling"}},"type":"Feature"},
	{"geometry":{"coordinates":[10.020489,49.253413],"type":"Point"},"properties":{"osm_id":"850033752","tag":{"amenity":"recycling","location":"overground","recycling:glass":"no","recycling:glass_bottles":"yes","recycling_type":"container"}},"type":"Feature"},
	{"geometry":{"coordinates":[10.06336,49.265668],"type":"Point"},"properties":{"osm_id":"890916749","tag":{"amenity":"recycling","recycling:glass":"yes","recycling_type":"container"}},"type":"Feature"},
	{"geometry":{"coordinates":[10.103144,49.258102],"type":"Point"},"properties":{"osm_id":"1717682482","tag":{"amenity":"recycling","recycling:glass":"yes"}},"type":"Feature"},
	{"geometry":{"coordinates":[10.024771,49.253227],"type":"Point"},"properties":{"osm_id":"8303987204","tag":{"amenity":"waste_basket","waste":"trash"}},"type":"Feature"},
	{"geometry":{"coordinates":[10.024696,49.253282],"type":"Point"},"properties":{"osm_id":"8303987210","tag":{"amenity":"waste_basket","waste":"trash"}},"type":"Feature"},
	{"geometry":{"coordinates":[10.025286,49.252837],"type":"Point"},"properties":{"osm_id":"8303987213","tag":{"amenity":"waste_basket","waste":"trash"}},"type":"Feature"},
	{"geometry":{"coordinates":[10.025243,49.252875],"type":"Point"},"properties":{"osm_id":"8303987214","tag":{"amenity":"waste_basket","waste":"trash"}},"type":"Feature"}
]
}
