{
"type": "FeatureCollection",
"features": [
	{"geometry":{"coordinates":[10.027159,48.868656],"type":"Point"},"properties":{"osm_id":"379588349","tag":{"amenity":"recycling","operator":"GOA","recycling:cans":"yes","recycling:clothes":"yes","recycling:glass":"no","recycling:glass_bottles":"yes","recycling:shoes":"yes","recycling_type":"container"}},"type":"Feature"},
	{"geometry":{"coordinates":[10.072601,48.864794],"type":"Point"},"properties":{"osm_id":"385103785","tag":{"amenity":"recycling","recycling:cans":"yes","recycling:clothes":"yes","recycling:glass_bottles":"yes","recycling_type":"container"}},"type":"Feature"},
	{"geometry":{"coordinates":[10.032337,48.870711],"type":"Point"},"properties":{"osm_id":"427550298","tag":{"amenity":"recycling","recycling:batteries":"yes","recycling:glass_bottles":"yes","recycling:scrap_metal":"yes","recycling_type":"container"}},"type":"Feature"},
	{"geometry":{"coordinates":[10.046997,48.88196],"type":"Point"},"properties":{"osm_id":"443313351","tag":{"amenity":"recycling","recycling:cans":"yes","recycling:clothes":"yes","recycling:glass_bottles":"yes","recycling_type":"container"}},"type":"Feature"},
	{"geometry":{"coordinates":[10.054139,48.88418],"type":"Point"},"properties":{"osm_id":"448125315","tag":{"amenity":"recycling","operator":"Gesellschaft im Ostalbkreis f\u00c3\u00bcr Abfallbewirtschaftung mbH (OVA)","recycling:cans":"yes","recycling:clothes":"yes","recycling:glass_bottles":"yes","recycling_type":"container"}},"type":"Feature"},
	{"geometry":{"coordinates":[10.054157,48.877712],"type":"Point"},"properties":{"osm_id":"452480923","tag":{"amenity":"recycling","recycling:cans":"yes","recycling:glass_bottles":"yes","recycling_type":"container"}},"type":"Feature"},
	{"geometry":{"coordinates":[10.057674,48.87427],"type":"Point"},"properties":{"osm_id":"462240663","tag":{"amenity":"recycling","recycling:cans":"yes","recycling:clothes":"yes","recycling:glass_bottles":"yes","recycling_type":"container"}},"type":"Feature"},
	{"geometry":{"coordinates":[10.068438,48.885646],"type":"Point"},"properties":{"osm_id":"522784725","tag":{"amenity":"recycling","operator":"GOA","recycling:clothes":"yes","recycling:glass_bottles":"yes","recycling:shoes":"yes","recycling_type":"container"}},"type":"Feature"},
	{"geometry":{"coordinates":[10.050542,48.879373],"type":"Point"},"properties":{"osm_id":"1882021887","tag":{"amenity":"recycling","description":"Gr\u00c3\u00bcnschnitt und Glas","operator":"Gesellschaft im Ostalbkreis f\u00c3\u00bcr Abfallbewirtschaftung mbH (GOA)","recycling:glass":"yes","recycling:glass_bottles":"yes","recycling:wood":"yes","recycling_type":"container"}},"type":"Feature"},
	{"geometry":{"coordinates":[10.067547,48.872717],"type":"Point"},"properties":{"osm_id":"4705230427","tag":{"amenity":"recycling","operator":"GOA","recycling:cans":"yes","recycling:clothes":"yes","recycling:glass_bottles":"yes","recycling:shoes":"yes","recycling_type":"container"}},"type":"Feature"},
	{"geometry":{"coordinates":[10.061011,48.921644],"type":"Point"},"properties":{"osm_id":"4868046523","tag":{"amenity":"recycling","operator":"GOA","recycling:cans":"yes","recycling:clothes":"yes","recycling:glass":"no","recycling:glass_bottles":"yes","recycling:shoes":"yes","recycling_type":"container"}},"type":"Feature"},
	{"geometry":{"coordinates":[10.102856,48.86877],"type":"Point"},"properties":{"osm_id":"6875456797","tag":{"amenity":"recycling","recycling:clothes":"yes","recycling:glass":"no","recycling:glass_bottles":"yes","recycling:shoes":"yes","recycling_type":"container"}},"type":"Feature"}
]
}
