{
"type": "FeatureCollection",
"features": [
	{"geometry":{"coordinates":[10.100838,48.824431],"type":"Point"},"properties":{"osm_id":"277622181","tag":{"amenity":"recycling","recycling:clothes":"yes","recycling:glass_bottles":"yes","recycling:shoes":"yes","recycling_type":"container"}},"type":"Feature"},
	{"geometry":{"coordinates":[10.083621,48.839102],"type":"Point"},"properties":{"osm_id":"290420115","tag":{"amenity":"recycling","recycling:cans":"yes","recycling:clothes":"yes","recycling:glass_bottles":"yes","recycling_type":"container"}},"type":"Feature"},
	{"geometry":{"coordinates":[10.089947,48.838253],"type":"Point"},"properties":{"osm_id":"290453022","tag":{"amenity":"recycling","recycling:clothes":"yes","recycling:glass_bottles":"yes","recycling_type":"container"}},"type":"Feature"},
	{"geometry":{"coordinates":[10.061587,48.83589],"type":"Point"},"properties":{"osm_id":"292155543","tag":{"amenity":"recycling","recycling:cans":"yes","recycling:clothes":"yes","recycling:glass_bottles":"yes","recycling:paper":"no","recycling_type":"container"}},"type":"Feature"},
	{"geometry":{"coordinates":[10.059172,48.837478],"type":"Point"},"properties":{"osm_id":"292157539","tag":{"amenity":"recycling","recycling:clothes":"yes","recycling_type":"container"}},"type":"Feature"},
	{"geometry":{"coordinates":[10.064285,48.836502],"type":"Point"},"properties":{"osm_id":"292682941","tag":{"amenity":"recycling","recycling:clothes":"yes","recycling_type":"container"}},"type":"Feature"},
	{"geometry":{"coordinates":[10.063371,48.833879],"type":"Point"},"properties":{"osm_id":"292685194","tag":{"amenity":"recycling","recycling:clothes":"yes","recycling:glass_bottles":"yes","recycling_type":"container"}},"type":"Feature"},
	{"geometry":{"coordinates":[10.052558,48.832851],"type":"Point"},"properties":{"osm_id":"292688982","tag":{"amenity":"recycling","operator":"GOA","recycling:cans":"yes","recycling:clothes":"yes","recycling:glass_bottles":"yes","recycling_type":"container"}},"type":"Feature"},
	{"geometry":{"coordinates":[10.051608,48.829669],"type":"Point"},"properties":{"osm_id":"292692444","tag":{"amenity":"recycling","recycling:glass_bottles":"yes","recycling_type":"container"}},"type":"Feature"},
	{"geometry":{"coordinates":[10.065422,48.828287],"type":"Point"},"properties":{"osm_id":"294649366","tag":{"amenity":"recycling","recycling:cans":"yes","recycling:clothes":"yes","recycling:glass_bottles":"yes","recycling_type":"container"}},"type":"Feature"},
	{"geometry":{"coordinates":[10.083713,48.832982],"type":"Point"},"properties":{"osm_id":"351930071","tag":{"amenity":"recycling","recycling:clothes":"yes","recycling:glass_bottles":"yes","recycling_type":"container"}},"type":"Feature"},
	{"geometry":{"coordinates":[10.09183,48.835895],"type":"Point"},"properties":{"osm_id":"351939748","tag":{"amenity":"recycling","recycling:cans":"yes","recycling:glass_bottles":"yes","recycling_type":"container"}},"type":"Feature"},
	{"geometry":{"coordinates":[10.075491,48.832621],"type":"Point"},"properties":{"osm_id":"353955261","tag":{"amenity":"recycling","recycling:glass_bottles":"yes","recycling_type":"container"}},"type":"Feature"},
	{"geometry":{"coordinates":[10.064386,48.831725],"type":"Point"},"properties":{"osm_id":"354619063","tag":{"amenity":"recycling","recycling:clothes":"yes"}},"type":"Feature"},
	{"geometry":{"coordinates":[10.064453,48.831675],"type":"Point"},"properties":{"osm_id":"354619066","tag":{"amenity":"recycling","recycling:glass_bottles":"yes"}},"type":"Feature"},
	{"geometry":{"coordinates":[10.0607,48.829646],"type":"Point"},"properties":{"osm_id":"354626092","tag":{"amenity":"recycling","recycling:clothes":"yes","recycling:glass_bottles":"yes","recycling_type":"container"}},"type":"Feature"},
	{"geometry":{"coordinates":[10.055038,48.831219],"type":"Point"},"properties":{"osm_id":"354683182","tag":{"amenity":"recycling","recycling:clothes":"yes","recycling_type":"container"}},"type":"Feature"},
	{"geometry":{"coordinates":[10.061876,48.8439],"type":"Point"},"properties":{"osm_id":"367679393","tag":{"amenity":"recycling","recycling:cans":"yes","recycling:glass_bottles":"yes","recycling_type":"container"}},"type":"Feature"},
	{"geometry":{"coordinates":[10.058349,48.845232],"type":"Point"},"properties":{"osm_id":"385329954","tag":{"amenity":"recycling","recycling:cans":"yes","recycling:clothes":"yes","recycling:glass_bottles":"yes","recycling_type":"container"}},"type":"Feature"},
	{"geometry":{"coordinates":[10.023763,48.810078],"type":"Point"},"properties":{"osm_id":"413575174","tag":{"amenity":"recycling","recycling:cans":"yes","recycling:clothes":"yes","recycling:glass_bottles":"yes","recycling_type":"container"}},"type":"Feature"},
	{"geometry":{"coordinates":[10.100959,48.823712],"type":"Point"},"properties":{"osm_id":"443062428","tag":{"amenity":"recycling","opening_hours":"Sa 10:00-12:00","operator":"GOA","recycling:green_waste":"yes","recycling_type":"container"}},"type":"Feature"},
	{"geometry":{"coordinates":[10.105754,48.832452],"type":"Point"},"properties":{"osm_id":"530749710","tag":{"amenity":"recycling","operator":"GOA","recycling:cans":"yes","recycling:clothes":"yes","recycling:glass_bottles":"yes","recycling:shoes":"yes","recycling_type":"container"}},"type":"Feature"},
	{"geometry":{"coordinates":[10.100591,48.845304],"type":"Point"},"properties":{"osm_id":"632664184","tag":{"amenity":"recycling","recycling:cans":"yes","recycling:glass_bottles":"yes","recycling_type":"container"}},"type":"Feature"},
	{"geometry":{"coordinates":[10.04296,48.844761],"type":"Point"},"properties":{"osm_id":"765257222","tag":{"amenity":"recycling","recycling:cans":"yes","recycling:glass_bottles":"yes","recycling_type":"container"}},"type":"Feature"},
	{"geometry":{"coordinates":[10.065784,48.835429],"type":"Point"},"properties":{"osm_id":"3092908902","tag":{"amenity":"recycling","recycling:green_waste":"yes","recycling_type":"container"}},"type":"Feature"},
	{"geometry":{"coordinates":[10.058145,48.843851],"type":"Point"},"properties":{"osm_id":"3303274957","tag":{"amenity":"recycling","recycling:clothes":"yes","recycling:glass_bottles":"yes","recycling_type":"container"}},"type":"Feature"},
	{"geometry":{"coordinates":[10.09872,48.827375],"type":"Point"},"properties":{"osm_id":"3463470044","tag":{"amenity":"waste_basket"}},"type":"Feature"},
	{"geometry":{"coordinates":[10.096686,48.840752],"type":"Point"},"properties":{"osm_id":"4018475567","tag":{"amenity":"waste_basket"}},"type":"Feature"},
	{"geometry":{"coordinates":[10.096467,48.840734],"type":"Point"},"properties":{"osm_id":"4018475569","tag":{"amenity":"waste_basket"}},"type":"Feature"},
	{"geometry":{"coordinates":[10.096603,48.841105],"type":"Point"},"properties":{"osm_id":"4018475572","tag":{"amenity":"waste_basket"}},"type":"Feature"},
	{"geometry":{"coordinates":[10.096271,48.840637],"type":"Point"},"properties":{"osm_id":"4018475581","tag":{"amenity":"waste_basket"}},"type":"Feature"},
	{"geometry":{"coordinates":[10.096385,48.841084],"type":"Point"},"properties":{"osm_id":"4018475586","tag":{"amenity":"waste_basket"}},"type":"Feature"},
	{"geometry":{"coordinates":[10.096153,48.841141],"type":"Point"},"properties":{"osm_id":"4018476391","tag":{"amenity":"waste_basket"}},"type":"Feature"},
	{"geometry":{"coordinates":[10.095992,48.841034],"type":"Point"},"properties":{"osm_id":"4018476393","tag":{"amenity":"waste_basket"}},"type":"Feature"},
	{"geometry":{"coordinates":[10.098612,48.827511],"type":"Point"},"properties":{"osm_id":"4210849230","tag":{"amenity":"waste_basket"}},"type":"Feature"},
	{"geometry":{"coordinates":[10.090547,48.826614],"type":"Point"},"properties":{"osm_id":"4213636661","tag":{"amenity":"waste_basket"}},"type":"Feature"},
	{"geometry":{"coordinates":[10.079782,48.815803],"type":"Point"},"properties":{"osm_id":"4224498983","tag":{"amenity":"waste_disposal"}},"type":"Feature"},
	{"geometry":{"coordinates":[10.092214,48.845854],"type":"Point"},"properties":{"barrier":"gate","osm_id":"4421137506","tag":{"bicycle":"yes","foot":"yes","motorcar":"no"}},"type":"Feature"},
	{"geometry":{"coordinates":[10.092748,48.845884],"type":"Point"},"properties":{"barrier":"gate","osm_id":"4421137507","tag":{"bicycle":"yes","foot":"yes","motorcar":"yes"}},"type":"Feature"},
	{"geometry":{"coordinates":[10.092486,48.845997],"type":"Point"},"properties":{"barrier":"gate","osm_id":"4421137508","tag":{"bicycle":"yes","foot":"yes","motorcar":"yes"}},"type":"Feature"},
	{"geometry":{"coordinates":[10.099067,48.841972],"type":"Point"},"properties":{"osm_id":"4422805989","tag":{"amenity":"recycling","operator":"GOA","recycling:cans":"yes","recycling:glass_bottles":"yes","recycling_type":"container"}},"type":"Feature"},
	{"geometry":{"coordinates":[10.093189,48.845714],"type":"Point"},"properties":{"barrier":"gate","osm_id":"4438124593","tag":{"bicycle":"yes","foot":"yes","maxwidth":"4","motorcar":"yes"}},"type":"Feature"},
	{"geometry":{"coordinates":[10.093733,48.82796],"type":"Point"},"properties":{"osm_id":"4624129309","tag":{"amenity":"recycling","operator":"GOA","recycling:cans":"yes","recycling:clothes":"yes","recycling:glass":"no","recycling:glass_bottles":"yes","recycling:shoes":"yes","recycling_type":"container"}},"type":"Feature"},
	{"geometry":{"coordinates":[10.085515,48.846931],"type":"Point"},"properties":{"osm_id":"4665349793","tag":{"amenity":"recycling","operator":"GOA","recycling:cans":"yes","recycling:clothes":"yes","recycling:glass_bottles":"yes","recycling:shoes":"yes","recycling_type":"container"}},"type":"Feature"},
	{"geometry":{"coordinates":[10.021919,48.833941],"type":"Point"},"properties":{"osm_id":"4687473144","tag":{"amenity":"recycling","operator":"GOA","recycling:cans":"yes","recycling:clothes":"yes","recycling:glass_bottles":"yes","recycling:shoes":"yes","recycling_type":"container"}},"type":"Feature"},
	{"geometry":{"coordinates":[10.102493,48.836882],"type":"Point"},"properties":{"osm_id":"4740291876","tag":{"amenity":"recycling","operator":"GOA","recycling:cans":"yes","recycling:clothes":"yes","recycling:glass_bottles":"yes","recycling:shoes":"yes","recycling_type":"container"}},"type":"Feature"},
	{"geometry":{"coordinates":[10.101243,48.834482],"type":"Point"},"properties":{"osm_id":"4796317197","tag":{"amenity":"recycling","operator":"GOA","recycling:cans":"yes","recycling:clothes":"yes","recycling:glass_bottles":"yes","recycling:shoes":"yes","recycling_type":"container"}},"type":"Feature"},
	{"geometry":{"coordinates":[10.065367,48.836215],"type":"Point"},"properties":{"osm_id":"5161595756","tag":{"amenity":"recycling","operator":"CityGreenPoint","recycling:batteries":"yes","recycling:clothes":"yes","recycling:electrical_appliances":"yes","recycling:shoes":"yes","recycling_type":"container"}},"type":"Feature"},
	{"geometry":{"coordinates":[10.073362,48.831923],"type":"Point"},"properties":{"osm_id":"5161609732","tag":{"amenity":"recycling","recycling:clothes":"yes","recycling:shoes":"yes","recycling_type":"container"}},"type":"Feature"},
	{"geometry":{"coordinates":[10.104764,48.840999],"type":"Point"},"properties":{"osm_id":"5313525805","tag":{"amenity":"recycling","operator":"GOA","recycling:cans":"yes","recycling:clothes":"yes","recycling:glass_bottles":"yes","recycling:shoes":"yes","recycling_type":"container"}},"type":"Feature"},
	{"geometry":{"coordinates":[10.093232,48.838701],"type":"Point"},"properties":{"osm_id":"5372227124","tag":{"amenity":"waste_basket"}},"type":"Feature"},
	{"geometry":{"coordinates":[10.093311,48.838509],"type":"Point"},"properties":{"osm_id":"5372230344","tag":{"amenity":"waste_basket"}},"type":"Feature"},
	{"geometry":{"coordinates":[10.093366,48.838024],"type":"Point"},"properties":{"osm_id":"5372236923","tag":{"amenity":"waste_basket"}},"type":"Feature"},
	{"geometry":{"coordinates":[10.093337,48.838001],"type":"Point"},"properties":{"osm_id":"5372236924","tag":{"amenity":"waste_basket"}},"type":"Feature"},
	{"geometry":{"coordinates":[10.092384,48.838485],"type":"Point"},"properties":{"osm_id":"5372314381","tag":{"amenity":"waste_basket"}},"type":"Feature"},
	{"geometry":{"coordinates":[10.091786,48.836938],"type":"Point"},"properties":{"osm_id":"5372320840","tag":{"amenity":"waste_basket"}},"type":"Feature"},
	{"geometry":{"coordinates":[10.09545,48.840121],"type":"Point"},"properties":{"osm_id":"5372808024","tag":{"amenity":"waste_basket"}},"type":"Feature"},
	{"geometry":{"coordinates":[10.092811,48.836275],"type":"Point"},"properties":{"osm_id":"5397845578","tag":{"amenity":"waste_basket"}},"type":"Feature"},
	{"geometry":{"coordinates":[10.093599,48.839731],"type":"Point"},"properties":{"osm_id":"5412714789","tag":{"amenity":"waste_basket"}},"type":"Feature"},
	{"geometry":{"coordinates":[10.094,48.839327],"type":"Point"},"properties":{"osm_id":"5443224594","tag":{"amenity":"waste_basket"}},"type":"Feature"},
	{"geometry":{"coordinates":[10.079355,48.835226],"type":"Point"},"properties":{"osm_id":"5968284473","tag":{"amenity":"waste_basket"}},"type":"Feature"},
	{"geometry":{"coordinates":[10.079613,48.835153],"type":"Point"},"properties":{"osm_id":"5968284474","tag":{"amenity":"waste_basket"}},"type":"Feature"},
	{"geometry":{"coordinates":[10.074267,48.837299],"type":"Point"},"properties":{"osm_id":"5968306001","tag":{"amenity":"waste_basket"}},"type":"Feature"},
	{"geometry":{"coordinates":[10.079227,48.835394],"type":"Point"},"properties":{"osm_id":"5968307411","tag":{"amenity":"waste_basket"}},"type":"Feature"},
	{"geometry":{"coordinates":[10.075799,48.837901],"type":"Point"},"properties":{"osm_id":"6015221642","tag":{"access":"employees","amenity":"waste_disposal"}},"type":"Feature"},
	{"geometry":{"coordinates":[10.03029,48.809756],"type":"Point"},"properties":{"osm_id":"6440571911","tag":{"amenity":"recycling","recycling:cans":"yes","recycling:clothes":"yes","recycling:glass_bottles":"yes","recycling_type":"container"}},"type":"Feature"},
	{"geometry":{"coordinates":[10.022691,48.80756],"type":"Point"},"properties":{"osm_id":"6441128447","tag":{"amenity":"waste_basket"}},"type":"Feature"},
	{"geometry":{"coordinates":[10.090255,48.838516],"type":"Point"},"properties":{"osm_id":"6447152651","tag":{"amenity":"waste_basket","waste":"dog_excrement"}},"type":"Feature"},
	{"geometry":{"coordinates":[10.028383,48.808538],"type":"Point"},"properties":{"osm_id":"6858321707","tag":{"amenity":"waste_basket"}},"type":"Feature"},
	{"geometry":{"coordinates":[10.095663,48.84081],"type":"Point"},"properties":{"osm_id":"7633499249","tag":{"amenity":"waste_basket"}},"type":"Feature"},
	{"geometry":{"coordinates":[10.09581,48.840874],"type":"Point"},"properties":{"osm_id":"7633499250","tag":{"amenity":"waste_basket"}},"type":"Feature"},
	{"geometry":{"coordinates":[10.09556,48.840981],"type":"Point"},"properties":{"osm_id":"7633499263","tag":{"amenity":"waste_basket"}},"type":"Feature"},
	{"geometry":{"coordinates":[10.095839,48.841012],"type":"Point"},"properties":{"osm_id":"7633499264","tag":{"amenity":"waste_basket"}},"type":"Feature"},
	{"geometry":{"coordinates":[10.095833,48.841036],"type":"Point"},"properties":{"osm_id":"7633499265","tag":{"amenity":"waste_basket"}},"type":"Feature"},
	{"geometry":{"coordinates":[10.073519,48.837623],"type":"Point"},"properties":{"osm_id":"7656707178","tag":{"amenity":"waste_basket"}},"type":"Feature"},
	{"geometry":{"coordinates":[10.091956,48.836992],"type":"Point"},"properties":{"osm_id":"7810920864","tag":{"amenity":"waste_basket"}},"type":"Feature"},
	{"geometry":{"coordinates":[10.09227,48.837134],"type":"Point"},"properties":{"osm_id":"7810930933","tag":{"amenity":"waste_basket"}},"type":"Feature"},
	{"geometry":{"coordinates":[10.092188,48.837024],"type":"Point"},"properties":{"osm_id":"7810938424","tag":{"amenity":"waste_basket"}},"type":"Feature"},
	{"geometry":{"coordinates":[10.091822,48.837136],"type":"Point"},"properties":{"osm_id":"7810948183","tag":{"amenity":"waste_basket"}},"type":"Feature"}
]
}
