{
"type": "FeatureCollection",
"features": [
	{"geometry":{"coordinates":[10.022836,48.431304],"type":"Point"},"properties":{"osm_id":"269123635","tag":{"amenity":"recycling","recycling:glass":"yes","recycling_type":"container"}},"type":"Feature"},
	{"geometry":{"coordinates":[10.057767,48.436154],"type":"Point"},"properties":{"osm_id":"1157471040","tag":{"amenity":"recycling","location":"overground","recycling_type":"container"}},"type":"Feature"},
	{"geometry":{"coordinates":[10.045543,48.412404],"type":"Point"},"properties":{"osm_id":"1343210171","ref":"Pfuhl-Ost","tag":{"amenity":"recycling","recycling:glass_bottles":"yes","recycling:paper":"yes","recycling_type":"container"}},"type":"Feature"},
	{"geometry":{"coordinates":[10.037375,48.411381],"type":"Point"},"properties":{"osm_id":"1650603631","tag":{"amenity":"recycling"}},"type":"Feature"},
	{"geometry":{"coordinates":[10.03859,48.41443],"type":"Point"},"properties":{"osm_id":"1650603634","tag":{"amenity":"recycling","recycling:glass":"yes","recycling:paper":"yes","recycling:scrap_metal":"no","recycling_type":"container"}},"type":"Feature"},
	{"geometry":{"coordinates":[10.072395,48.445453],"type":"Point"},"properties":{"osm_id":"1709903062","tag":{"amenity":"recycling","location":"overground","recycling:clothes":"yes","recycling:glass":"yes","recycling:paper":"yes","recycling_type":"container"}},"type":"Feature"},
	{"geometry":{"coordinates":[10.086461,48.452342],"type":"Point"},"properties":{"osm_id":"1709903993","tag":{"amenity":"recycling","recycling:clothes":"yes","recycling_type":"container"}},"type":"Feature"},
	{"geometry":{"coordinates":[10.085409,48.453277],"type":"Point"},"properties":{"osm_id":"1709904348","tag":{"amenity":"recycling","recycling:glass":"yes","recycling_type":"container"}},"type":"Feature"},
	{"geometry":{"coordinates":[10.049376,48.437906],"type":"Point"},"properties":{"osm_id":"2131484412","tag":{"amenity":"recycling","recycling:clothes":"yes","recycling_type":"container"}},"type":"Feature"},
	{"geometry":{"coordinates":[10.033916,48.403282],"type":"Point"},"properties":{"osm_id":"2423370033","tag":{"amenity":"recycling"}},"type":"Feature"},
	{"geometry":{"coordinates":[10.022176,48.433661],"type":"Point"},"properties":{"osm_id":"2470362251","tag":{"amenity":"recycling","recycling:clothes":"yes","recycling:glass":"yes"}},"type":"Feature"},
	{"geometry":{"coordinates":[10.024849,48.434493],"type":"Point"},"properties":{"osm_id":"2470362498","tag":{"amenity":"recycling","recycling:clothes":"yes","recycling:glass":"yes"}},"type":"Feature"},
	{"geometry":{"coordinates":[10.104078,48.431961],"type":"Point"},"properties":{"osm_id":"2494335217","tag":{"amenity":"recycling","recycling:glass":"yes","recycling_type":"container"}},"type":"Feature"},
	{"geometry":{"coordinates":[10.030667,48.434081],"type":"Point"},"properties":{"osm_id":"2495557075","tag":{"amenity":"recycling","recycling:glass":"yes"}},"type":"Feature"},
	{"geometry":{"coordinates":[10.030611,48.434091],"type":"Point"},"properties":{"osm_id":"2495557080","tag":{"amenity":"recycling","recycling:clothes":"yes"}},"type":"Feature"},
	{"geometry":{"coordinates":[10.030456,48.457612],"type":"Point"},"properties":{"osm_id":"2559255496","tag":{"amenity":"recycling","location":"overground","recycling:glass":"yes","recycling_type":"container"}},"type":"Feature"},
	{"geometry":{"coordinates":[10.071907,48.414775],"type":"Point"},"properties":{"osm_id":"2903477305","tag":{"amenity":"recycling","recycling:clothes":"yes"}},"type":"Feature"},
	{"geometry":{"coordinates":[10.099943,48.453096],"type":"Point"},"properties":{"osm_id":"3044446662","tag":{"amenity":"recycling","recycling:clothes":"yes","recycling_type":"container"}},"type":"Feature"},
	{"geometry":{"coordinates":[10.05543,48.453468],"type":"Point"},"properties":{"osm_id":"3137459456","tag":{"amenity":"waste_basket"}},"type":"Feature"},
	{"geometry":{"coordinates":[10.100805,48.428873],"type":"Point"},"properties":{"osm_id":"3731075064","tag":{"amenity":"waste_basket"}},"type":"Feature"},
	{"geometry":{"coordinates":[10.055582,48.453619],"type":"Point"},"properties":{"osm_id":"4357531015","tag":{"amenity":"waste_basket"}},"type":"Feature"},
	{"geometry":{"coordinates":[10.098606,48.449651],"type":"Point"},"properties":{"osm_id":"5236381034","tag":{"amenity":"recycling","recycling:clothes":"yes","recycling:shoes":"yes","recycling_type":"container"}},"type":"Feature"},
	{"geometry":{"coordinates":[10.099209,48.448374],"type":"Point"},"properties":{"osm_id":"5236381035","tag":{"amenity":"recycling","recycling:clothes":"yes","recycling:shoes":"yes","recycling_type":"container"}},"type":"Feature"},
	{"geometry":{"coordinates":[10.099037,48.449347],"type":"Point"},"properties":{"osm_id":"5236401724","tag":{"amenity":"recycling","recycling:clothes":"yes","recycling:shoes":"yes","recycling_type":"container"}},"type":"Feature"},
	{"geometry":{"coordinates":[10.024072,48.408079],"type":"Point"},"properties":{"osm_id":"5731611122","tag":{"amenity":"waste_basket"}},"type":"Feature"},
	{"geometry":{"coordinates":[10.022431,48.408183],"type":"Point"},"properties":{"osm_id":"5731611126","tag":{"amenity":"waste_basket"}},"type":"Feature"},
	{"geometry":{"coordinates":[10.072582,48.410319],"type":"Point"},"properties":{"osm_id":"5740572472","tag":{"amenity":"recycling","recycling:glass_bottles":"yes","recycling:paper":"yes","recycling_type":"container"}},"type":"Feature"},
	{"geometry":{"coordinates":[10.085357,48.453265],"type":"Point"},"properties":{"osm_id":"5747405328","tag":{"amenity":"recycling","recycling:clothes":"yes","recycling_type":"container"}},"type":"Feature"},
	{"geometry":{"coordinates":[10.045102,48.403635],"type":"Point"},"properties":{"osm_id":"6697579649","tag":{"amenity":"waste_basket"}},"type":"Feature"},
	{"geometry":{"coordinates":[10.044881,48.403477],"type":"Point"},"properties":{"osm_id":"6697579650","tag":{"amenity":"waste_basket"}},"type":"Feature"},
	{"geometry":{"coordinates":[10.08746,48.411664],"type":"Point"},"properties":{"osm_id":"6912837809","tag":{"amenity":"waste_basket"}},"type":"Feature"},
	{"geometry":{"coordinates":[10.038368,48.416613],"type":"Point"},"properties":{"osm_id":"7049865332","tag":{"amenity":"waste_basket"}},"type":"Feature"},
	{"geometry":{"coordinates":[10.030762,48.434911],"type":"Point"},"properties":{"osm_id":"7682774019","tag":{"amenity":"waste_basket"}},"type":"Feature"},
	{"geometry":{"coordinates":[10.031054,48.434683],"type":"Point"},"properties":{"osm_id":"7682774020","tag":{"amenity":"waste_basket"}},"type":"Feature"},
	{"geometry":{"coordinates":[10.033045,48.43288],"type":"Point"},"properties":{"osm_id":"7682893380","tag":{"amenity":"waste_basket"}},"type":"Feature"}
]
}
