{
"type": "FeatureCollection",
"features": [
	{"geometry":{"coordinates":[10.106655,44.07096],"type":"Point"},"properties":{"osm_id":"980061568","tag":{"amenity":"recycling","recycling_type":"container"}},"type":"Feature"},
	{"geometry":{"coordinates":[10.101743,44.079413],"type":"Point"},"properties":{"osm_id":"980061573","tag":{"amenity":"recycling","recycling_type":"container"}},"type":"Feature"},
	{"geometry":{"coordinates":[10.071367,44.062692],"type":"Point"},"properties":{"osm_id":"980061606","tag":{"amenity":"recycling","recycling_type":"container"}},"type":"Feature"},
	{"geometry":{"coordinates":[10.081293,44.059671],"type":"Point"},"properties":{"osm_id":"4952651020","tag":{"amenity":"recycling","recycling_type":"container"}},"type":"Feature"},
	{"geometry":{"coordinates":[10.082935,44.060973],"type":"Point"},"properties":{"osm_id":"4952651021","tag":{"amenity":"recycling","recycling_type":"container"}},"type":"Feature"},
	{"geometry":{"coordinates":[10.075818,44.056674],"type":"Point"},"properties":{"osm_id":"4952651022","tag":{"amenity":"recycling","recycling_type":"container"}},"type":"Feature"},
	{"geometry":{"coordinates":[10.074415,44.050994],"type":"Point"},"properties":{"osm_id":"4952651023","tag":{"amenity":"recycling","recycling_type":"container"}},"type":"Feature"},
	{"geometry":{"coordinates":[10.074644,44.04983],"type":"Point"},"properties":{"osm_id":"4952651024","tag":{"amenity":"recycling","recycling_type":"container"}},"type":"Feature"},
	{"geometry":{"coordinates":[10.079157,44.04745],"type":"Point"},"properties":{"osm_id":"4952651025","tag":{"amenity":"recycling","recycling_type":"container"}},"type":"Feature"},
	{"geometry":{"coordinates":[10.085053,44.044385],"type":"Point"},"properties":{"osm_id":"4952651026","tag":{"amenity":"recycling","recycling_type":"container"}},"type":"Feature"},
	{"geometry":{"coordinates":[10.083588,44.059255],"type":"Point"},"properties":{"osm_id":"4954444844","tag":{"amenity":"recycling","recycling_type":"container"}},"type":"Feature"},
	{"geometry":{"coordinates":[10.087005,44.069173],"type":"Point"},"properties":{"osm_id":"4958180353","tag":{"amenity":"waste_disposal","operator":"amia spa","waste":"mixed;trash;organic"}},"type":"Feature"},
	{"geometry":{"coordinates":[10.10351,44.029324],"type":"Point"},"properties":{"name":"Ricicleria","osm_id":"5059793896","tag":{"amenity":"recycling","recycling_type":"centre"}},"type":"Feature"},
	{"geometry":{"coordinates":[10.071773,44.052718],"type":"Point"},"properties":{"osm_id":"5097649892","tag":{"amenity":"waste_disposal"}},"type":"Feature"},
	{"geometry":{"coordinates":[10.075846,44.056714],"type":"Point"},"properties":{"osm_id":"5097649893","tag":{"amenity":"waste_disposal"}},"type":"Feature"},
	{"geometry":{"coordinates":[10.074383,44.050974],"type":"Point"},"properties":{"osm_id":"5097649894","tag":{"amenity":"waste_disposal"}},"type":"Feature"},
	{"geometry":{"coordinates":[10.071846,44.057924],"type":"Point"},"properties":{"osm_id":"5097660339","tag":{"amenity":"waste_disposal"}},"type":"Feature"},
	{"geometry":{"coordinates":[10.083536,44.059254],"type":"Point"},"properties":{"osm_id":"5097668369","tag":{"amenity":"waste_disposal"}},"type":"Feature"},
	{"geometry":{"coordinates":[10.098533,44.078294],"type":"Point"},"properties":{"osm_id":"5416576117","tag":{"amenity":"waste_disposal"}},"type":"Feature"},
	{"geometry":{"coordinates":[10.09851,44.078282],"type":"Point"},"properties":{"osm_id":"5416576118","tag":{"amenity":"waste_disposal"}},"type":"Feature"},
	{"geometry":{"coordinates":[10.098492,44.078267],"type":"Point"},"properties":{"osm_id":"5416576119","tag":{"amenity":"waste_disposal"}},"type":"Feature"},
	{"geometry":{"coordinates":[10.09847,44.078255],"type":"Point"},"properties":{"osm_id":"5416576120","tag":{"amenity":"recycling","recycling:plastic":"yes","recycling_type":"container"}},"type":"Feature"},
	{"geometry":{"coordinates":[10.098449,44.078244],"type":"Point"},"properties":{"osm_id":"5416578921","tag":{"amenity":"recycling","recycling:plastic":"yes","recycling_type":"container"}},"type":"Feature"},
	{"geometry":{"coordinates":[10.098428,44.07823],"type":"Point"},"properties":{"osm_id":"5416578922","tag":{"amenity":"recycling","recycling:glass_bottles":"yes","recycling_type":"container"}},"type":"Feature"},
	{"geometry":{"coordinates":[10.098241,44.07704],"type":"Point"},"properties":{"osm_id":"5470914002","tag":{"amenity":"waste_basket"}},"type":"Feature"},
	{"geometry":{"coordinates":[10.067155,44.058869],"type":"Point"},"properties":{"osm_id":"5497154770","tag":{"amenity":"recycling","recycling_type":"container"}},"type":"Feature"},
	{"geometry":{"coordinates":[10.069643,44.060821],"type":"Point"},"properties":{"osm_id":"5497154775","tag":{"amenity":"recycling","recycling_type":"container"}},"type":"Feature"},
	{"geometry":{"coordinates":[10.071102,44.062158],"type":"Point"},"properties":{"osm_id":"5497154776","tag":{"amenity":"recycling","recycling_type":"container"}},"type":"Feature"},
	{"geometry":{"coordinates":[10.072805,44.063635],"type":"Point"},"properties":{"osm_id":"5497154779","tag":{"amenity":"recycling","recycling_type":"container"}},"type":"Feature"},
	{"geometry":{"coordinates":[10.072717,44.063846],"type":"Point"},"properties":{"osm_id":"5497154780","tag":{"amenity":"recycling","recycling_type":"container"}},"type":"Feature"},
	{"geometry":{"coordinates":[10.073803,44.064819],"type":"Point"},"properties":{"osm_id":"5497154783","tag":{"amenity":"recycling","operator":"Amia","recycling:glass_bottles":"yes","recycling:plastic":"yes","recycling_type":"container"}},"type":"Feature"},
	{"geometry":{"coordinates":[10.075223,44.066078],"type":"Point"},"properties":{"osm_id":"5497154784","tag":{"amenity":"recycling","recycling_type":"container"}},"type":"Feature"},
	{"geometry":{"coordinates":[10.076772,44.067135],"type":"Point"},"properties":{"osm_id":"5497154786","tag":{"amenity":"recycling","recycling_type":"container"}},"type":"Feature"},
	{"geometry":{"coordinates":[10.097074,44.077228],"type":"Point"},"properties":{"osm_id":"5505254596","tag":{"amenity":"waste_basket"}},"type":"Feature"},
	{"geometry":{"coordinates":[10.097337,44.077088],"type":"Point"},"properties":{"osm_id":"5505261573","tag":{"amenity":"waste_basket"}},"type":"Feature"},
	{"geometry":{"coordinates":[10.091227,44.074596],"type":"Point"},"properties":{"osm_id":"5512995718","tag":{"amenity":"waste_basket"}},"type":"Feature"},
	{"geometry":{"coordinates":[10.096729,44.076536],"type":"Point"},"properties":{"osm_id":"5527778525","tag":{"amenity":"waste_basket"}},"type":"Feature"},
	{"geometry":{"coordinates":[10.096684,44.077317],"type":"Point"},"properties":{"osm_id":"5527785616","tag":{"amenity":"waste_basket"}},"type":"Feature"},
	{"geometry":{"coordinates":[10.034814,44.033103],"type":"Point"},"properties":{"osm_id":"5532012023","tag":{"amenity":"waste_basket"}},"type":"Feature"},
	{"geometry":{"coordinates":[10.036062,44.034839],"type":"Point"},"properties":{"osm_id":"5532012025","tag":{"amenity":"waste_basket","waste":"trash"}},"type":"Feature"},
	{"geometry":{"coordinates":[10.099826,44.077925],"type":"Point"},"properties":{"osm_id":"5583805574","tag":{"amenity":"recycling","recycling_type":"container"}},"type":"Feature"},
	{"geometry":{"coordinates":[10.099809,44.077912],"type":"Point"},"properties":{"osm_id":"5583805575","tag":{"amenity":"recycling","recycling_type":"container"}},"type":"Feature"},
	{"geometry":{"coordinates":[10.099793,44.077898],"type":"Point"},"properties":{"osm_id":"5583805576","tag":{"amenity":"recycling","recycling:glass":"no","recycling:paper":"yes","recycling_type":"container"}},"type":"Feature"},
	{"geometry":{"coordinates":[10.099762,44.077874],"type":"Point"},"properties":{"osm_id":"5583805577","tag":{"amenity":"waste_disposal"}},"type":"Feature"},
	{"geometry":{"coordinates":[10.099777,44.077886],"type":"Point"},"properties":{"osm_id":"5583805578","tag":{"amenity":"waste_disposal"}},"type":"Feature"},
	{"geometry":{"coordinates":[10.099744,44.077859],"type":"Point"},"properties":{"osm_id":"5583805579","tag":{"amenity":"waste_disposal"}},"type":"Feature"},
	{"geometry":{"coordinates":[10.095383,44.079879],"type":"Point"},"properties":{"osm_id":"5706955289","tag":{"amenity":"waste_basket"}},"type":"Feature"},
	{"geometry":{"coordinates":[10.05674,44.049528],"type":"Point"},"properties":{"osm_id":"5719226086","tag":{"amenity":"waste_basket"}},"type":"Feature"},
	{"geometry":{"coordinates":[10.085049,44.057703],"type":"Point"},"properties":{"osm_id":"5719840135","tag":{"amenity":"recycling","recycling_type":"container"}},"type":"Feature"},
	{"geometry":{"coordinates":[10.085074,44.057708],"type":"Point"},"properties":{"osm_id":"5719840136","tag":{"amenity":"waste_disposal"}},"type":"Feature"},
	{"geometry":{"coordinates":[10.08559,44.05771],"type":"Point"},"properties":{"osm_id":"5719840137","tag":{"amenity":"waste_basket"}},"type":"Feature"},
	{"geometry":{"coordinates":[10.084554,44.060339],"type":"Point"},"properties":{"osm_id":"5719840138","tag":{"amenity":"waste_disposal"}},"type":"Feature"},
	{"geometry":{"coordinates":[10.084532,44.060381],"type":"Point"},"properties":{"osm_id":"5719840139","tag":{"amenity":"recycling","recycling_type":"container"}},"type":"Feature"},
	{"geometry":{"coordinates":[10.082973,44.060964],"type":"Point"},"properties":{"osm_id":"5719840140","tag":{"amenity":"waste_disposal"}},"type":"Feature"},
	{"geometry":{"coordinates":[10.080177,44.062507],"type":"Point"},"properties":{"osm_id":"5719859672","tag":{"amenity":"waste_disposal"}},"type":"Feature"},
	{"geometry":{"coordinates":[10.080198,44.062497],"type":"Point"},"properties":{"osm_id":"5719859673","tag":{"amenity":"recycling","recycling_type":"container"}},"type":"Feature"},
	{"geometry":{"coordinates":[10.082565,44.067937],"type":"Point"},"properties":{"osm_id":"5719864496","tag":{"amenity":"waste_disposal"}},"type":"Feature"},
	{"geometry":{"coordinates":[10.082598,44.067881],"type":"Point"},"properties":{"osm_id":"5719864497","tag":{"amenity":"recycling","recycling_type":"container"}},"type":"Feature"},
	{"geometry":{"coordinates":[10.087021,44.069216],"type":"Point"},"properties":{"osm_id":"5726707584","tag":{"amenity":"recycling","operator":"amia spa","recycling:plastic":"yes","recycling_type":"container"}},"type":"Feature"},
	{"geometry":{"coordinates":[10.087013,44.069194],"type":"Point"},"properties":{"osm_id":"5726707585","tag":{"amenity":"recycling","operator":"amia spa","recycling:glass":"yes","recycling:paper":"yes","recycling_type":"container"}},"type":"Feature"},
	{"geometry":{"coordinates":[10.086998,44.069152],"type":"Point"},"properties":{"osm_id":"5726707586","tag":{"amenity":"waste_disposal","operator":"amia spa","waste":"trash"}},"type":"Feature"},
	{"geometry":{"coordinates":[10.101558,44.074276],"type":"Point"},"properties":{"osm_id":"5728708537","tag":{"amenity":"recycling","recycling_type":"container"}},"type":"Feature"},
	{"geometry":{"coordinates":[10.101532,44.074286],"type":"Point"},"properties":{"osm_id":"5728708538","tag":{"amenity":"recycling","recycling_type":"container"}},"type":"Feature"},
	{"geometry":{"coordinates":[10.101497,44.074299],"type":"Point"},"properties":{"osm_id":"5728708539","tag":{"amenity":"recycling","recycling_type":"container"}},"type":"Feature"},
	{"geometry":{"coordinates":[10.101466,44.074315],"type":"Point"},"properties":{"osm_id":"5728708540","tag":{"amenity":"waste_disposal"}},"type":"Feature"},
	{"geometry":{"coordinates":[10.103546,44.074533],"type":"Point"},"properties":{"osm_id":"5728976593","tag":{"amenity":"recycling","colour":"yellow","recycling:paper":"yes","recycling_type":"container"}},"type":"Feature"},
	{"geometry":{"coordinates":[10.10352,44.074518],"type":"Point"},"properties":{"osm_id":"5728976594","tag":{"amenity":"waste_disposal"}},"type":"Feature"},
	{"geometry":{"coordinates":[10.103495,44.074508],"type":"Point"},"properties":{"osm_id":"5728976595","tag":{"amenity":"waste_disposal"}},"type":"Feature"},
	{"geometry":{"coordinates":[10.102561,44.075982],"type":"Point"},"properties":{"osm_id":"5732151485","tag":{"amenity":"waste_basket"}},"type":"Feature"},
	{"geometry":{"coordinates":[10.074433,44.063371],"type":"Point"},"properties":{"osm_id":"5775316887","tag":{"amenity":"recycling","recycling_type":"container"}},"type":"Feature"},
	{"geometry":{"coordinates":[10.074421,44.063361],"type":"Point"},"properties":{"osm_id":"5775316888","tag":{"amenity":"recycling","recycling_type":"container"}},"type":"Feature"},
	{"geometry":{"coordinates":[10.07441,44.063352],"type":"Point"},"properties":{"osm_id":"5775316889","tag":{"amenity":"recycling","recycling_type":"container"}},"type":"Feature"},
	{"geometry":{"coordinates":[10.074394,44.063337],"type":"Point"},"properties":{"osm_id":"5775316890","tag":{"amenity":"waste_disposal"}},"type":"Feature"},
	{"geometry":{"coordinates":[10.074373,44.063321],"type":"Point"},"properties":{"osm_id":"5775316891","tag":{"amenity":"waste_disposal"}},"type":"Feature"},
	{"geometry":{"coordinates":[10.075077,44.064187],"type":"Point"},"properties":{"osm_id":"5775316908","tag":{"amenity":"waste_disposal"}},"type":"Feature"},
	{"geometry":{"coordinates":[10.075097,44.064173],"type":"Point"},"properties":{"osm_id":"5775316909","tag":{"amenity":"waste_disposal"}},"type":"Feature"},
	{"geometry":{"coordinates":[10.075114,44.06416],"type":"Point"},"properties":{"osm_id":"5775316910","tag":{"amenity":"waste_disposal"}},"type":"Feature"},
	{"geometry":{"coordinates":[10.075131,44.06415],"type":"Point"},"properties":{"osm_id":"5775316911","tag":{"amenity":"waste_disposal"}},"type":"Feature"},
	{"geometry":{"coordinates":[10.075157,44.064126],"type":"Point"},"properties":{"osm_id":"5775316912","tag":{"amenity":"recycling","recycling:glass":"yes","recycling_type":"container"}},"type":"Feature"},
	{"geometry":{"coordinates":[10.075143,44.064139],"type":"Point"},"properties":{"osm_id":"5775316913","tag":{"amenity":"recycling","recycling:clothes":"yes","recycling_type":"container"}},"type":"Feature"},
	{"geometry":{"coordinates":[10.076581,44.063606],"type":"Point"},"properties":{"osm_id":"5775639687","tag":{"amenity":"recycling","recycling:glass":"yes","recycling_type":"container"}},"type":"Feature"},
	{"geometry":{"coordinates":[10.076552,44.06358],"type":"Point"},"properties":{"osm_id":"5775639688","tag":{"amenity":"waste_disposal"}},"type":"Feature"},
	{"geometry":{"coordinates":[10.076533,44.063563],"type":"Point"},"properties":{"osm_id":"5775639689","tag":{"amenity":"waste_disposal"}},"type":"Feature"},
	{"geometry":{"coordinates":[10.076508,44.063541],"type":"Point"},"properties":{"osm_id":"5775639690","tag":{"amenity":"recycling","recycling_type":"container"}},"type":"Feature"},
	{"geometry":{"coordinates":[10.076492,44.063527],"type":"Point"},"properties":{"osm_id":"5775639691","tag":{"amenity":"recycling","recycling_type":"container"}},"type":"Feature"},
	{"geometry":{"coordinates":[10.072639,44.063782],"type":"Point"},"properties":{"osm_id":"5776577948","tag":{"amenity":"waste_disposal"}},"type":"Feature"},
	{"geometry":{"coordinates":[10.072508,44.06366],"type":"Point"},"properties":{"osm_id":"5776577952","tag":{"amenity":"waste_disposal"}},"type":"Feature"},
	{"geometry":{"coordinates":[10.072519,44.063672],"type":"Point"},"properties":{"osm_id":"5776577953","tag":{"amenity":"waste_disposal"}},"type":"Feature"},
	{"geometry":{"coordinates":[10.073962,44.064962],"type":"Point"},"properties":{"osm_id":"5776577964","tag":{"amenity":"waste_disposal"}},"type":"Feature"},
	{"geometry":{"coordinates":[10.073784,44.064804],"type":"Point"},"properties":{"osm_id":"5776577965","tag":{"amenity":"waste_disposal"}},"type":"Feature"},
	{"geometry":{"coordinates":[10.073767,44.06479],"type":"Point"},"properties":{"osm_id":"5776577966","tag":{"amenity":"recycling","recycling:paper":"yes","recycling_type":"container"}},"type":"Feature"},
	{"geometry":{"coordinates":[10.093587,44.076246],"type":"Point"},"properties":{"osm_id":"5778477786","tag":{"amenity":"waste_basket"}},"type":"Feature"},
	{"geometry":{"coordinates":[10.092698,44.075267],"type":"Point"},"properties":{"osm_id":"5778871188","tag":{"amenity":"recycling","recycling:clothes":"yes","recycling_type":"container"}},"type":"Feature"},
	{"geometry":{"coordinates":[10.092723,44.075277],"type":"Point"},"properties":{"osm_id":"5778871189","tag":{"amenity":"recycling","recycling_type":"container"}},"type":"Feature"},
	{"geometry":{"coordinates":[10.092754,44.075292],"type":"Point"},"properties":{"osm_id":"5778871190","tag":{"amenity":"recycling","recycling_type":"container"}},"type":"Feature"},
	{"geometry":{"coordinates":[10.092793,44.07532],"type":"Point"},"properties":{"osm_id":"5778871191","tag":{"amenity":"waste_disposal"}},"type":"Feature"},
	{"geometry":{"coordinates":[10.092814,44.075334],"type":"Point"},"properties":{"osm_id":"5778871192","tag":{"amenity":"waste_disposal"}},"type":"Feature"},
	{"geometry":{"coordinates":[10.092838,44.075346],"type":"Point"},"properties":{"osm_id":"5778871193","tag":{"amenity":"recycling","recycling:glass":"yes","recycling_type":"container"}},"type":"Feature"},
	{"geometry":{"coordinates":[10.068309,44.05991],"type":"Point"},"properties":{"osm_id":"5788903829","tag":{"amenity":"recycling","recycling_type":"container"}},"type":"Feature"},
	{"geometry":{"coordinates":[10.068343,44.059936],"type":"Point"},"properties":{"osm_id":"5788903830","tag":{"amenity":"recycling","recycling:glass":"yes","recycling_type":"container"}},"type":"Feature"},
	{"geometry":{"coordinates":[10.068368,44.059952],"type":"Point"},"properties":{"osm_id":"5788903831","tag":{"amenity":"waste_disposal"}},"type":"Feature"},
	{"geometry":{"coordinates":[10.06842,44.060003],"type":"Point"},"properties":{"osm_id":"5788903832","tag":{"amenity":"waste_disposal"}},"type":"Feature"},
	{"geometry":{"coordinates":[10.072259,44.059327],"type":"Point"},"properties":{"osm_id":"5788986443","tag":{"amenity":"recycling","recycling_type":"container"}},"type":"Feature"},
	{"geometry":{"coordinates":[10.072283,44.059308],"type":"Point"},"properties":{"osm_id":"5788986444","tag":{"amenity":"recycling","recycling_type":"container"}},"type":"Feature"},
	{"geometry":{"coordinates":[10.072266,44.059289],"type":"Point"},"properties":{"osm_id":"5788986445","tag":{"amenity":"recycling","recycling_type":"container"}},"type":"Feature"},
	{"geometry":{"coordinates":[10.072243,44.05927],"type":"Point"},"properties":{"osm_id":"5788986446","tag":{"amenity":"recycling","recycling_type":"container"}},"type":"Feature"},
	{"geometry":{"coordinates":[10.07221,44.059241],"type":"Point"},"properties":{"osm_id":"5788986447","tag":{"amenity":"waste_disposal"}},"type":"Feature"},
	{"geometry":{"coordinates":[10.072182,44.059218],"type":"Point"},"properties":{"osm_id":"5788986448","tag":{"amenity":"waste_disposal"}},"type":"Feature"},
	{"geometry":{"coordinates":[10.092045,44.075139],"type":"Point"},"properties":{"osm_id":"5797783511","tag":{"amenity":"recycling","recycling:clothes":"yes","recycling_type":"container"}},"type":"Feature"},
	{"geometry":{"coordinates":[10.092063,44.07515],"type":"Point"},"properties":{"osm_id":"5797783512","tag":{"amenity":"recycling","recycling:clothes":"yes","recycling_type":"container"}},"type":"Feature"},
	{"geometry":{"coordinates":[10.060199,44.04811],"type":"Point"},"properties":{"osm_id":"5834159505","tag":{"amenity":"waste_basket","waste":"trash"}},"type":"Feature"},
	{"geometry":{"coordinates":[10.060052,44.047976],"type":"Point"},"properties":{"osm_id":"5834159506","tag":{"amenity":"waste_basket","waste":"trash"}},"type":"Feature"},
	{"geometry":{"coordinates":[10.054016,44.049072],"type":"Point"},"properties":{"osm_id":"5834743869","tag":{"amenity":"recycling","recycling_type":"container"}},"type":"Feature"},
	{"geometry":{"coordinates":[10.085969,44.05832],"type":"Point"},"properties":{"osm_id":"5850776204","tag":{"amenity":"waste_disposal"}},"type":"Feature"},
	{"geometry":{"coordinates":[10.085996,44.058323],"type":"Point"},"properties":{"osm_id":"5850776205","tag":{"amenity":"waste_disposal"}},"type":"Feature"},
	{"geometry":{"coordinates":[10.086025,44.058327],"type":"Point"},"properties":{"osm_id":"5850776206","tag":{"amenity":"waste_disposal"}},"type":"Feature"},
	{"geometry":{"coordinates":[10.086055,44.058327],"type":"Point"},"properties":{"osm_id":"5850776207","tag":{"amenity":"recycling","operator":"AMIA SpA","recycling_type":"container"}},"type":"Feature"},
	{"geometry":{"coordinates":[10.086088,44.058325],"type":"Point"},"properties":{"osm_id":"5850776208","tag":{"amenity":"recycling","operator":"AMIA SpA","recycling_type":"container"}},"type":"Feature"},
	{"geometry":{"coordinates":[10.086117,44.058322],"type":"Point"},"properties":{"osm_id":"5850776209","tag":{"amenity":"recycling","operator":"AMIA SpA","recycling_type":"container"}},"type":"Feature"},
	{"geometry":{"coordinates":[10.086151,44.058318],"type":"Point"},"properties":{"osm_id":"5850776210","tag":{"amenity":"recycling","operator":"AMIA SpA","recycling_type":"container"}},"type":"Feature"},
	{"geometry":{"coordinates":[10.097168,44.077573],"type":"Point"},"properties":{"osm_id":"5864800486","tag":{"amenity":"waste_basket"}},"type":"Feature"},
	{"geometry":{"coordinates":[10.096797,44.076699],"type":"Point"},"properties":{"osm_id":"5865487305","tag":{"amenity":"waste_basket"}},"type":"Feature"},
	{"geometry":{"coordinates":[10.08743,44.057582],"type":"Point"},"properties":{"osm_id":"5867280060","tag":{"amenity":"waste_disposal"}},"type":"Feature"},
	{"geometry":{"coordinates":[10.087393,44.057585],"type":"Point"},"properties":{"osm_id":"5867280061","tag":{"amenity":"waste_disposal"}},"type":"Feature"},
	{"geometry":{"coordinates":[10.087357,44.057588],"type":"Point"},"properties":{"osm_id":"5867280062","tag":{"amenity":"waste_disposal"}},"type":"Feature"},
	{"geometry":{"coordinates":[10.08732,44.057592],"type":"Point"},"properties":{"osm_id":"5867280063","tag":{"amenity":"waste_disposal"}},"type":"Feature"},
	{"geometry":{"coordinates":[10.087467,44.057579],"type":"Point"},"properties":{"osm_id":"5867280064","tag":{"amenity":"recycling","recycling_type":"container"}},"type":"Feature"},
	{"geometry":{"coordinates":[10.087283,44.057595],"type":"Point"},"properties":{"osm_id":"5867280065","tag":{"amenity":"recycling","recycling_type":"container"}},"type":"Feature"},
	{"geometry":{"coordinates":[10.087247,44.057598],"type":"Point"},"properties":{"osm_id":"5867280066","tag":{"amenity":"recycling","recycling_type":"container"}},"type":"Feature"},
	{"geometry":{"coordinates":[10.08721,44.057601],"type":"Point"},"properties":{"osm_id":"5867280067","tag":{"amenity":"recycling","recycling_type":"container"}},"type":"Feature"},
	{"geometry":{"coordinates":[10.08451,44.060423],"type":"Point"},"properties":{"osm_id":"6126112364","tag":{"amenity":"recycling","recycling_type":"container"}},"type":"Feature"},
	{"geometry":{"coordinates":[10.084521,44.060402],"type":"Point"},"properties":{"osm_id":"6126112365","tag":{"amenity":"recycling","recycling_type":"container"}},"type":"Feature"},
	{"geometry":{"coordinates":[10.084543,44.06036],"type":"Point"},"properties":{"osm_id":"6126112366","tag":{"amenity":"waste_disposal"}},"type":"Feature"},
	{"geometry":{"coordinates":[10.095158,44.07638],"type":"Point"},"properties":{"osm_id":"6293332905","tag":{"amenity":"waste_basket"}},"type":"Feature"},
	{"geometry":{"coordinates":[10.092472,44.076109],"type":"Point"},"properties":{"osm_id":"6293332906","tag":{"amenity":"waste_basket"}},"type":"Feature"},
	{"geometry":{"coordinates":[10.096339,44.075832],"type":"Point"},"properties":{"osm_id":"6293332907","tag":{"amenity":"recycling","recycling_type":"container"}},"type":"Feature"},
	{"geometry":{"coordinates":[10.095683,44.077247],"type":"Point"},"properties":{"osm_id":"6293332908","tag":{"amenity":"waste_basket"}},"type":"Feature"},
	{"geometry":{"coordinates":[10.097264,44.076358],"type":"Point"},"properties":{"osm_id":"6293332909","tag":{"amenity":"waste_basket"}},"type":"Feature"},
	{"geometry":{"coordinates":[10.097822,44.076821],"type":"Point"},"properties":{"osm_id":"6293332910","tag":{"amenity":"waste_basket"}},"type":"Feature"},
	{"geometry":{"coordinates":[10.09934,44.076889],"type":"Point"},"properties":{"osm_id":"6293332911","tag":{"amenity":"waste_disposal"}},"type":"Feature"},
	{"geometry":{"coordinates":[10.099383,44.075373],"type":"Point"},"properties":{"osm_id":"6293332912","tag":{"amenity":"waste_basket"}},"type":"Feature"},
	{"geometry":{"coordinates":[10.101326,44.074389],"type":"Point"},"properties":{"osm_id":"6293332913","tag":{"amenity":"waste_basket"}},"type":"Feature"},
	{"geometry":{"coordinates":[10.103833,44.075996],"type":"Point"},"properties":{"osm_id":"6326947092","tag":{"amenity":"recycling","recycling_type":"container"}},"type":"Feature"},
	{"geometry":{"coordinates":[10.103815,44.075973],"type":"Point"},"properties":{"osm_id":"6326947093","tag":{"amenity":"recycling","recycling_type":"container"}},"type":"Feature"},
	{"geometry":{"coordinates":[10.103799,44.075957],"type":"Point"},"properties":{"osm_id":"6326947094","tag":{"amenity":"recycling","recycling_type":"container"}},"type":"Feature"},
	{"geometry":{"coordinates":[10.103775,44.075946],"type":"Point"},"properties":{"osm_id":"6326947095","tag":{"amenity":"waste_disposal"}},"type":"Feature"},
	{"geometry":{"coordinates":[10.103757,44.07593],"type":"Point"},"properties":{"osm_id":"6326947096","tag":{"amenity":"waste_disposal"}},"type":"Feature"},
	{"geometry":{"coordinates":[10.075818,44.056659],"type":"Point"},"properties":{"osm_id":"6337185893","tag":{"amenity":"recycling","recycling_type":"container"}},"type":"Feature"},
	{"geometry":{"coordinates":[10.07583,44.056698],"type":"Point"},"properties":{"osm_id":"6337185894","tag":{"amenity":"waste_disposal"}},"type":"Feature"},
	{"geometry":{"coordinates":[10.08268,44.070815],"type":"Point"},"properties":{"osm_id":"6345649986","tag":{"amenity":"waste_disposal"}},"type":"Feature"},
	{"geometry":{"coordinates":[10.0827,44.070833],"type":"Point"},"properties":{"osm_id":"6345649987","tag":{"amenity":"recycling","recycling_type":"container"}},"type":"Feature"},
	{"geometry":{"coordinates":[10.082716,44.070845],"type":"Point"},"properties":{"osm_id":"6345649988","tag":{"amenity":"recycling","recycling_type":"container"}},"type":"Feature"},
	{"geometry":{"coordinates":[10.051519,44.0526],"type":"Point"},"properties":{"osm_id":"6350125442","tag":{"amenity":"waste_basket"}},"type":"Feature"},
	{"geometry":{"coordinates":[10.051411,44.052892],"type":"Point"},"properties":{"osm_id":"6350125444","tag":{"amenity":"recycling","recycling:clothes":"yes","recycling_type":"container"}},"type":"Feature"},
	{"geometry":{"coordinates":[10.065928,44.048384],"type":"Point"},"properties":{"osm_id":"6352145770","tag":{"amenity":"recycling","recycling:glass_bottles":"yes","recycling_type":"container"}},"type":"Feature"},
	{"geometry":{"coordinates":[10.065943,44.048402],"type":"Point"},"properties":{"osm_id":"6352145771","tag":{"amenity":"recycling","recycling_type":"container"}},"type":"Feature"},
	{"geometry":{"coordinates":[10.065959,44.048417],"type":"Point"},"properties":{"osm_id":"6352145772","tag":{"amenity":"recycling","recycling_type":"container"}},"type":"Feature"},
	{"geometry":{"coordinates":[10.065978,44.048437],"type":"Point"},"properties":{"osm_id":"6352145773","tag":{"amenity":"waste_disposal"}},"type":"Feature"},
	{"geometry":{"coordinates":[10.065994,44.048457],"type":"Point"},"properties":{"osm_id":"6352145774","tag":{"amenity":"waste_disposal"}},"type":"Feature"},
	{"geometry":{"coordinates":[10.066007,44.048474],"type":"Point"},"properties":{"osm_id":"6352145775","tag":{"amenity":"waste_disposal"}},"type":"Feature"},
	{"geometry":{"coordinates":[10.097517,44.075243],"type":"Point"},"properties":{"osm_id":"6499449554","tag":{"amenity":"waste_disposal"}},"type":"Feature"},
	{"geometry":{"coordinates":[10.097535,44.075248],"type":"Point"},"properties":{"osm_id":"6499449555","tag":{"amenity":"waste_disposal"}},"type":"Feature"},
	{"geometry":{"coordinates":[10.097554,44.075256],"type":"Point"},"properties":{"osm_id":"6499449556","tag":{"amenity":"recycling","recycling_type":"container"}},"type":"Feature"},
	{"geometry":{"coordinates":[10.097574,44.075262],"type":"Point"},"properties":{"osm_id":"6499449557","tag":{"amenity":"recycling","recycling_type":"container"}},"type":"Feature"},
	{"geometry":{"coordinates":[10.096163,44.07736],"type":"Point"},"properties":{"osm_id":"6618796869","tag":{"amenity":"waste_basket"}},"type":"Feature"},
	{"geometry":{"coordinates":[10.095833,44.077434],"type":"Point"},"properties":{"osm_id":"6618796870","tag":{"amenity":"waste_basket"}},"type":"Feature"},
	{"geometry":{"coordinates":[10.084745,44.044518],"type":"Point"},"properties":{"osm_id":"6725648902","tag":{"amenity":"waste_disposal"}},"type":"Feature"},
	{"geometry":{"coordinates":[10.05846,44.050812],"type":"Point"},"properties":{"osm_id":"6739582105","tag":{"amenity":"recycling","recycling:clothes":"yes","recycling_type":"container"}},"type":"Feature"},
	{"geometry":{"coordinates":[10.045358,44.038116],"type":"Point"},"properties":{"osm_id":"6740300875","tag":{"amenity":"waste_basket"}},"type":"Feature"},
	{"geometry":{"coordinates":[10.045234,44.037922],"type":"Point"},"properties":{"osm_id":"6740313292","tag":{"amenity":"waste_basket"}},"type":"Feature"},
	{"geometry":{"coordinates":[10.031274,44.04596],"type":"Point"},"properties":{"osm_id":"6742480767","tag":{"amenity":"recycling","recycling:clothes":"yes","recycling_type":"container"}},"type":"Feature"},
	{"geometry":{"coordinates":[10.031258,44.045964],"type":"Point"},"properties":{"osm_id":"6742480768","tag":{"amenity":"recycling","recycling:clothes":"yes","recycling_type":"container"}},"type":"Feature"},
	{"geometry":{"coordinates":[10.081383,44.069496],"type":"Point"},"properties":{"osm_id":"6743460846","tag":{"amenity":"recycling","recycling_type":"container"}},"type":"Feature"},
	{"geometry":{"coordinates":[10.081868,44.069657],"type":"Point"},"properties":{"osm_id":"6743460847","tag":{"amenity":"recycling","recycling:glass":"yes","recycling_type":"container"}},"type":"Feature"},
	{"geometry":{"coordinates":[10.09715,44.077093],"type":"Point"},"properties":{"osm_id":"6745220463","tag":{"amenity":"waste_basket"}},"type":"Feature"},
	{"geometry":{"coordinates":[10.07187,44.057912],"type":"Point"},"properties":{"osm_id":"6746770966","tag":{"amenity":"waste_disposal"}},"type":"Feature"},
	{"geometry":{"coordinates":[10.046678,44.039216],"type":"Point"},"properties":{"osm_id":"6759556834","tag":{"amenity":"waste_basket"}},"type":"Feature"},
	{"geometry":{"coordinates":[10.044189,44.036682],"type":"Point"},"properties":{"osm_id":"6759556835","tag":{"amenity":"waste_basket"}},"type":"Feature"},
	{"geometry":{"coordinates":[10.044859,44.039733],"type":"Point"},"properties":{"osm_id":"6759556836","tag":{"amenity":"waste_basket"}},"type":"Feature"},
	{"geometry":{"coordinates":[10.043688,44.04019],"type":"Point"},"properties":{"osm_id":"6759556837","tag":{"amenity":"waste_basket"}},"type":"Feature"},
	{"geometry":{"coordinates":[10.062545,44.050733],"type":"Point"},"properties":{"osm_id":"6763622225","tag":{"amenity":"waste_basket"}},"type":"Feature"},
	{"geometry":{"coordinates":[10.06263,44.051133],"type":"Point"},"properties":{"osm_id":"6763622226","tag":{"amenity":"waste_basket"}},"type":"Feature"},
	{"geometry":{"coordinates":[10.098512,44.077259],"type":"Point"},"properties":{"osm_id":"6769780306","tag":{"amenity":"waste_basket"}},"type":"Feature"},
	{"geometry":{"coordinates":[10.098397,44.077268],"type":"Point"},"properties":{"osm_id":"6769780307","tag":{"amenity":"waste_basket"}},"type":"Feature"},
	{"geometry":{"coordinates":[10.098918,44.077586],"type":"Point"},"properties":{"osm_id":"6769780308","tag":{"amenity":"waste_basket"}},"type":"Feature"},
	{"geometry":{"coordinates":[10.098911,44.077687],"type":"Point"},"properties":{"osm_id":"6769780309","tag":{"amenity":"waste_basket"}},"type":"Feature"},
	{"geometry":{"coordinates":[10.025578,44.043467],"type":"Point"},"properties":{"osm_id":"6770289428","tag":{"amenity":"waste_basket"}},"type":"Feature"},
	{"geometry":{"coordinates":[10.097704,44.075921],"type":"Point"},"properties":{"osm_id":"6778897551","tag":{"amenity":"waste_basket"}},"type":"Feature"},
	{"geometry":{"coordinates":[10.097138,44.076301],"type":"Point"},"properties":{"osm_id":"6778897552","tag":{"amenity":"waste_basket"}},"type":"Feature"},
	{"geometry":{"coordinates":[10.097273,44.076402],"type":"Point"},"properties":{"osm_id":"6778897553","tag":{"amenity":"waste_basket"}},"type":"Feature"},
	{"geometry":{"coordinates":[10.096364,44.075819],"type":"Point"},"properties":{"osm_id":"6779096621","tag":{"amenity":"waste_disposal"}},"type":"Feature"},
	{"geometry":{"coordinates":[10.096425,44.075777],"type":"Point"},"properties":{"osm_id":"6779096622","tag":{"amenity":"recycling","recycling_type":"container"}},"type":"Feature"},
	{"geometry":{"coordinates":[10.096406,44.075789],"type":"Point"},"properties":{"osm_id":"6779096623","tag":{"amenity":"recycling","recycling_type":"container"}},"type":"Feature"},
	{"geometry":{"coordinates":[10.096386,44.075803],"type":"Point"},"properties":{"osm_id":"6779096624","tag":{"amenity":"recycling","recycling_type":"container"}},"type":"Feature"},
	{"geometry":{"coordinates":[10.099319,44.077986],"type":"Point"},"properties":{"osm_id":"6784419517","tag":{"amenity":"waste_basket"}},"type":"Feature"},
	{"geometry":{"coordinates":[10.099518,44.077972],"type":"Point"},"properties":{"osm_id":"6784419518","tag":{"amenity":"waste_basket"}},"type":"Feature"},
	{"geometry":{"coordinates":[10.100432,44.078489],"type":"Point"},"properties":{"osm_id":"6784459722","tag":{"amenity":"waste_basket"}},"type":"Feature"},
	{"geometry":{"coordinates":[10.100294,44.078632],"type":"Point"},"properties":{"osm_id":"6784459723","tag":{"amenity":"waste_basket"}},"type":"Feature"},
	{"geometry":{"coordinates":[10.100634,44.079255],"type":"Point"},"properties":{"osm_id":"6784472188","tag":{"amenity":"waste_basket"}},"type":"Feature"},
	{"geometry":{"coordinates":[10.100771,44.078859],"type":"Point"},"properties":{"osm_id":"6784472189","tag":{"amenity":"waste_basket"}},"type":"Feature"},
	{"geometry":{"coordinates":[10.101088,44.079201],"type":"Point"},"properties":{"osm_id":"6784472190","tag":{"amenity":"waste_basket"}},"type":"Feature"},
	{"geometry":{"coordinates":[10.100135,44.078717],"type":"Point"},"properties":{"osm_id":"6784475789","tag":{"amenity":"waste_basket"}},"type":"Feature"},
	{"geometry":{"coordinates":[10.099795,44.078764],"type":"Point"},"properties":{"osm_id":"6784475790","tag":{"amenity":"waste_basket"}},"type":"Feature"},
	{"geometry":{"coordinates":[10.093738,44.073969],"type":"Point"},"properties":{"osm_id":"6787979476","tag":{"amenity":"recycling","recycling_type":"container"}},"type":"Feature"},
	{"geometry":{"coordinates":[10.093735,44.073953],"type":"Point"},"properties":{"osm_id":"6787979477","tag":{"amenity":"recycling","recycling_type":"container"}},"type":"Feature"},
	{"geometry":{"coordinates":[10.09373,44.073937],"type":"Point"},"properties":{"osm_id":"6787979478","tag":{"amenity":"recycling","recycling_type":"container"}},"type":"Feature"},
	{"geometry":{"coordinates":[10.093725,44.073923],"type":"Point"},"properties":{"osm_id":"6787979479","tag":{"amenity":"waste_disposal"}},"type":"Feature"},
	{"geometry":{"coordinates":[10.093723,44.073911],"type":"Point"},"properties":{"osm_id":"6787979480","tag":{"amenity":"waste_disposal"}},"type":"Feature"},
	{"geometry":{"coordinates":[10.085134,44.057641],"type":"Point"},"properties":{"osm_id":"6794033254","tag":{"amenity":"recycling","recycling_type":"container"}},"type":"Feature"},
	{"geometry":{"coordinates":[10.085124,44.05772],"type":"Point"},"properties":{"osm_id":"6794033255","tag":{"amenity":"recycling","recycling_type":"container"}},"type":"Feature"},
	{"geometry":{"coordinates":[10.085089,44.057715],"type":"Point"},"properties":{"osm_id":"6794033256","tag":{"amenity":"recycling","recycling_type":"container"}},"type":"Feature"},
	{"geometry":{"coordinates":[10.085103,44.057721],"type":"Point"},"properties":{"osm_id":"6794033257","tag":{"amenity":"recycling","recycling_type":"container"}},"type":"Feature"},
	{"geometry":{"coordinates":[10.085061,44.057707],"type":"Point"},"properties":{"osm_id":"6794033258","tag":{"amenity":"waste_disposal"}},"type":"Feature"},
	{"geometry":{"coordinates":[10.098559,44.07605],"type":"Point"},"properties":{"osm_id":"6794690248","tag":{"amenity":"recycling","recycling_type":"container"}},"type":"Feature"},
	{"geometry":{"coordinates":[10.098551,44.076056],"type":"Point"},"properties":{"osm_id":"6794690249","tag":{"amenity":"waste_disposal"}},"type":"Feature"},
	{"geometry":{"coordinates":[10.098542,44.076061],"type":"Point"},"properties":{"osm_id":"6794690250","tag":{"amenity":"waste_disposal"}},"type":"Feature"},
	{"geometry":{"coordinates":[10.098533,44.076066],"type":"Point"},"properties":{"osm_id":"6794690251","tag":{"amenity":"waste_disposal"}},"type":"Feature"},
	{"geometry":{"coordinates":[10.099362,44.076907],"type":"Point"},"properties":{"osm_id":"6795426761","tag":{"amenity":"recycling","recycling:glass":"yes","recycling_type":"container"}},"type":"Feature"},
	{"geometry":{"coordinates":[10.099328,44.076874],"type":"Point"},"properties":{"osm_id":"6795426762","tag":{"amenity":"recycling","recycling_type":"container"}},"type":"Feature"},
	{"geometry":{"coordinates":[10.099333,44.076881],"type":"Point"},"properties":{"osm_id":"6795426763","tag":{"amenity":"recycling","recycling_type":"container"}},"type":"Feature"},
	{"geometry":{"coordinates":[10.099349,44.076896],"type":"Point"},"properties":{"osm_id":"6795426764","tag":{"amenity":"waste_disposal"}},"type":"Feature"},
	{"geometry":{"coordinates":[10.100684,44.076208],"type":"Point"},"properties":{"osm_id":"6796589717","tag":{"amenity":"recycling","recycling:glass":"yes","recycling_type":"container"}},"type":"Feature"},
	{"geometry":{"coordinates":[10.100591,44.076249],"type":"Point"},"properties":{"osm_id":"6796589718","tag":{"amenity":"waste_disposal"}},"type":"Feature"},
	{"geometry":{"coordinates":[10.100566,44.076261],"type":"Point"},"properties":{"osm_id":"6796589719","tag":{"amenity":"waste_disposal"}},"type":"Feature"},
	{"geometry":{"coordinates":[10.100542,44.076272],"type":"Point"},"properties":{"osm_id":"6796589720","tag":{"amenity":"recycling","recycling_type":"container"}},"type":"Feature"},
	{"geometry":{"coordinates":[10.100521,44.076282],"type":"Point"},"properties":{"osm_id":"6796589721","tag":{"amenity":"recycling","recycling_type":"container"}},"type":"Feature"},
	{"geometry":{"coordinates":[10.053288,44.050777],"type":"Point"},"properties":{"osm_id":"6798928796","tag":{"amenity":"waste_basket"}},"type":"Feature"},
	{"geometry":{"coordinates":[10.083758,44.071385],"type":"Point"},"properties":{"osm_id":"6818246765","tag":{"amenity":"waste_disposal"}},"type":"Feature"},
	{"geometry":{"coordinates":[10.039856,44.04131],"type":"Point"},"properties":{"osm_id":"6825682372","tag":{"amenity":"waste_basket"}},"type":"Feature"},
	{"geometry":{"coordinates":[10.034927,44.041729],"type":"Point"},"properties":{"osm_id":"6827399112","tag":{"amenity":"waste_basket"}},"type":"Feature"},
	{"geometry":{"coordinates":[10.040172,44.041291],"type":"Point"},"properties":{"osm_id":"6835442000","tag":{"amenity":"waste_basket"}},"type":"Feature"},
	{"geometry":{"coordinates":[10.080823,44.069334],"type":"Point"},"properties":{"osm_id":"6863301681","tag":{"amenity":"recycling","recycling:glass":"yes","recycling_type":"container"}},"type":"Feature"},
	{"geometry":{"coordinates":[10.101837,44.076475],"type":"Point"},"properties":{"osm_id":"6872142847","tag":{"amenity":"waste_basket"}},"type":"Feature"},
	{"geometry":{"coordinates":[10.097497,44.075238],"type":"Point"},"properties":{"osm_id":"6872902532","tag":{"amenity":"recycling","recycling_type":"container"}},"type":"Feature"},
	{"geometry":{"coordinates":[10.072485,44.062698],"type":"Point"},"properties":{"osm_id":"6873500783","tag":{"amenity":"recycling","recycling_type":"container"}},"type":"Feature"},
	{"geometry":{"coordinates":[10.072495,44.062693],"type":"Point"},"properties":{"osm_id":"6873500784","tag":{"amenity":"recycling","recycling_type":"container"}},"type":"Feature"},
	{"geometry":{"coordinates":[10.072507,44.062689],"type":"Point"},"properties":{"osm_id":"6873606585","tag":{"amenity":"waste_disposal"}},"type":"Feature"},
	{"geometry":{"coordinates":[10.072518,44.062684],"type":"Point"},"properties":{"osm_id":"6873606586","tag":{"amenity":"recycling","recycling_type":"container"}},"type":"Feature"},
	{"geometry":{"coordinates":[10.07253,44.062678],"type":"Point"},"properties":{"osm_id":"6873606587","tag":{"amenity":"waste_disposal"}},"type":"Feature"},
	{"geometry":{"coordinates":[10.074081,44.061085],"type":"Point"},"properties":{"osm_id":"6875375024","tag":{"amenity":"recycling","recycling_type":"container"}},"type":"Feature"},
	{"geometry":{"coordinates":[10.074071,44.061072],"type":"Point"},"properties":{"osm_id":"6875375025","tag":{"amenity":"recycling","recycling_type":"container"}},"type":"Feature"},
	{"geometry":{"coordinates":[10.074057,44.061055],"type":"Point"},"properties":{"osm_id":"6875375026","tag":{"amenity":"waste_disposal"}},"type":"Feature"},
	{"geometry":{"coordinates":[10.074045,44.061042],"type":"Point"},"properties":{"osm_id":"6875375027","tag":{"amenity":"waste_disposal"}},"type":"Feature"},
	{"geometry":{"coordinates":[10.037253,44.042065],"type":"Point"},"properties":{"osm_id":"6924441148","tag":{"amenity":"waste_disposal"}},"type":"Feature"},
	{"geometry":{"coordinates":[10.037227,44.042074],"type":"Point"},"properties":{"osm_id":"6924441149","tag":{"amenity":"recycling","recycling_type":"container"}},"type":"Feature"},
	{"geometry":{"coordinates":[10.037208,44.042083],"type":"Point"},"properties":{"osm_id":"6924441150","tag":{"amenity":"recycling","recycling_type":"container"}},"type":"Feature"},
	{"geometry":{"coordinates":[10.03719,44.042089],"type":"Point"},"properties":{"osm_id":"6924441151","tag":{"amenity":"recycling","recycling_type":"container"}},"type":"Feature"},
	{"geometry":{"coordinates":[10.037172,44.042095],"type":"Point"},"properties":{"osm_id":"6924441152","tag":{"amenity":"recycling","recycling_type":"container"}},"type":"Feature"},
	{"geometry":{"coordinates":[10.037153,44.042104],"type":"Point"},"properties":{"osm_id":"6924441153","tag":{"amenity":"recycling","recycling_type":"container"}},"type":"Feature"},
	{"geometry":{"coordinates":[10.037134,44.042111],"type":"Point"},"properties":{"osm_id":"6924441154","tag":{"amenity":"recycling","recycling_type":"container"}},"type":"Feature"},
	{"geometry":{"coordinates":[10.037118,44.042115],"type":"Point"},"properties":{"osm_id":"6924441155","tag":{"amenity":"recycling","recycling_type":"container"}},"type":"Feature"},
	{"geometry":{"coordinates":[10.032235,44.044331],"type":"Point"},"properties":{"osm_id":"6984172350","tag":{"amenity":"waste_basket"}},"type":"Feature"},
	{"geometry":{"coordinates":[10.041709,44.037677],"type":"Point"},"properties":{"osm_id":"6989352326","tag":{"amenity":"waste_basket"}},"type":"Feature"},
	{"geometry":{"coordinates":[10.097675,44.076125],"type":"Point"},"properties":{"osm_id":"6992485099","tag":{"amenity":"waste_basket"}},"type":"Feature"},
	{"geometry":{"coordinates":[10.095666,44.078358],"type":"Point"},"properties":{"osm_id":"7007707022","tag":{"amenity":"recycling","operator":"Nausicaa SpA","recycling_type":"container"}},"type":"Feature"},
	{"geometry":{"coordinates":[10.09577,44.078313],"type":"Point"},"properties":{"osm_id":"7007707023","tag":{"amenity":"recycling","operator":"Nausicaa SpA","recycling_type":"container"}},"type":"Feature"},
	{"geometry":{"coordinates":[10.095746,44.078322],"type":"Point"},"properties":{"osm_id":"7007707024","tag":{"amenity":"recycling","operator":"Nausicaa SpA","recycling_type":"container"}},"type":"Feature"},
	{"geometry":{"coordinates":[10.09572,44.078334],"type":"Point"},"properties":{"osm_id":"7007707025","tag":{"amenity":"waste_disposal","operator":"Nausicaa SpA"}},"type":"Feature"},
	{"geometry":{"coordinates":[10.09569,44.078345],"type":"Point"},"properties":{"osm_id":"7007707026","tag":{"amenity":"waste_disposal","operator":"Nausicaa SpA"}},"type":"Feature"},
	{"geometry":{"coordinates":[10.094403,44.074185],"type":"Point"},"properties":{"osm_id":"7007961233","tag":{"amenity":"waste_disposal"}},"type":"Feature"},
	{"geometry":{"coordinates":[10.094375,44.07418],"type":"Point"},"properties":{"osm_id":"7007961234","tag":{"amenity":"waste_disposal"}},"type":"Feature"},
	{"geometry":{"coordinates":[10.094348,44.074176],"type":"Point"},"properties":{"osm_id":"7007961235","tag":{"amenity":"waste_disposal"}},"type":"Feature"},
	{"geometry":{"coordinates":[10.094308,44.074169],"type":"Point"},"properties":{"osm_id":"7007961236","tag":{"amenity":"waste_disposal"}},"type":"Feature"},
	{"geometry":{"coordinates":[10.093778,44.073194],"type":"Point"},"properties":{"osm_id":"7007966798","tag":{"amenity":"recycling","recycling_type":"container"}},"type":"Feature"},
	{"geometry":{"coordinates":[10.093792,44.073209],"type":"Point"},"properties":{"osm_id":"7007966799","tag":{"amenity":"recycling","recycling_type":"container"}},"type":"Feature"},
	{"geometry":{"coordinates":[10.093752,44.073166],"type":"Point"},"properties":{"osm_id":"7007966800","tag":{"amenity":"waste_disposal"}},"type":"Feature"},
	{"geometry":{"coordinates":[10.093764,44.073181],"type":"Point"},"properties":{"osm_id":"7007966801","tag":{"amenity":"recycling","recycling_type":"container"}},"type":"Feature"},
	{"geometry":{"coordinates":[10.092672,44.072042],"type":"Point"},"properties":{"osm_id":"7007966802","tag":{"amenity":"waste_disposal"}},"type":"Feature"},
	{"geometry":{"coordinates":[10.092685,44.072057],"type":"Point"},"properties":{"osm_id":"7007966803","tag":{"amenity":"recycling","recycling_type":"container"}},"type":"Feature"},
	{"geometry":{"coordinates":[10.092698,44.07207],"type":"Point"},"properties":{"osm_id":"7007966804","tag":{"amenity":"recycling","recycling_type":"container"}},"type":"Feature"},
	{"geometry":{"coordinates":[10.092712,44.072085],"type":"Point"},"properties":{"osm_id":"7007966805","tag":{"amenity":"recycling","recycling_type":"container"}},"type":"Feature"},
	{"geometry":{"coordinates":[10.049566,44.038021],"type":"Point"},"properties":{"osm_id":"7023073143","tag":{"amenity":"waste_basket"}},"type":"Feature"},
	{"geometry":{"coordinates":[10.03601,44.042332],"type":"Point"},"properties":{"osm_id":"7031056819","tag":{"amenity":"waste_basket"}},"type":"Feature"},
	{"geometry":{"coordinates":[10.034543,44.046342],"type":"Point"},"properties":{"osm_id":"7052792576","tag":{"amenity":"waste_basket"}},"type":"Feature"},
	{"geometry":{"coordinates":[10.023641,44.043605],"type":"Point"},"properties":{"osm_id":"7053731506","tag":{"amenity":"waste_basket"}},"type":"Feature"},
	{"geometry":{"coordinates":[10.025032,44.043098],"type":"Point"},"properties":{"osm_id":"7053731533","tag":{"amenity":"waste_basket"}},"type":"Feature"},
	{"geometry":{"coordinates":[10.027671,44.046821],"type":"Point"},"properties":{"osm_id":"7053731546","tag":{"amenity":"waste_basket","mapillary":"hNsITFstzfqILS70NKq9Xg"}},"type":"Feature"},
	{"geometry":{"coordinates":[10.023032,44.04366],"type":"Point"},"properties":{"osm_id":"7055299465","tag":{"amenity":"waste_basket"}},"type":"Feature"},
	{"geometry":{"coordinates":[10.05199,44.04897],"type":"Point"},"properties":{"osm_id":"7062431158","tag":{"amenity":"waste_basket"}},"type":"Feature"},
	{"geometry":{"coordinates":[10.075076,44.065945],"type":"Point"},"properties":{"osm_id":"7207795365","tag":{"amenity":"waste_disposal"}},"type":"Feature"},
	{"geometry":{"coordinates":[10.089376,44.056678],"type":"Point"},"properties":{"osm_id":"7261440799","tag":{"amenity":"recycling","operator":"Nausicaa","recycling:glass":"yes","recycling:paper":"yes","recycling:plastic":"yes","recycling_type":"container"}},"type":"Feature"},
	{"geometry":{"coordinates":[10.091961,44.056686],"type":"Point"},"properties":{"osm_id":"7261440800","tag":{"amenity":"waste_disposal","waste":"trash"}},"type":"Feature"},
	{"geometry":{"coordinates":[10.089381,44.056667],"type":"Point"},"properties":{"osm_id":"7261440801","tag":{"amenity":"waste_disposal","operator":"Nausicaa","waste":"trash"}},"type":"Feature"},
	{"geometry":{"coordinates":[10.089379,44.056673],"type":"Point"},"properties":{"osm_id":"7264129643","tag":{"amenity":"recycling","operator":"Nausicaa","recycling:glass":"yes","recycling:paper":"yes","recycling:plastic":"yes","recycling_type":"container"}},"type":"Feature"},
	{"geometry":{"coordinates":[10.089374,44.056685],"type":"Point"},"properties":{"osm_id":"7264129644","tag":{"amenity":"recycling","operator":"Nausicaa","recycling:glass":"yes","recycling:paper":"yes","recycling:plastic":"yes","recycling_type":"container"}},"type":"Feature"},
	{"geometry":{"coordinates":[10.089383,44.05666],"type":"Point"},"properties":{"osm_id":"7264129645","tag":{"amenity":"waste_disposal","operator":"Nausicaa","waste":"trash"}},"type":"Feature"},
	{"geometry":{"coordinates":[10.086557,44.062524],"type":"Point"},"properties":{"osm_id":"7272019385","tag":{"amenity":"recycling","recycling:plastic":"yes","recycling_type":"container"}},"type":"Feature"},
	{"geometry":{"coordinates":[10.086531,44.062544],"type":"Point"},"properties":{"osm_id":"7272019386","tag":{"amenity":"recycling","recycling:paper":"yes","recycling_type":"container"}},"type":"Feature"},
	{"geometry":{"coordinates":[10.086512,44.062558],"type":"Point"},"properties":{"osm_id":"7272019387","tag":{"amenity":"recycling","recycling:glass":"yes","recycling_type":"container"}},"type":"Feature"},
	{"geometry":{"coordinates":[10.08658,44.062507],"type":"Point"},"properties":{"osm_id":"7272019388","tag":{"amenity":"waste_disposal"}},"type":"Feature"},
	{"geometry":{"coordinates":[10.086485,44.062578],"type":"Point"},"properties":{"osm_id":"7272019389","tag":{"amenity":"waste_disposal"}},"type":"Feature"},
	{"geometry":{"coordinates":[10.089341,44.05674],"type":"Point"},"properties":{"osm_id":"7280223060","tag":{"amenity":"recycling","recycling_type":"container"}},"type":"Feature"},
	{"geometry":{"coordinates":[10.089329,44.056772],"type":"Point"},"properties":{"osm_id":"7280223061","tag":{"amenity":"recycling","recycling_type":"container"}},"type":"Feature"},
	{"geometry":{"coordinates":[10.089324,44.0568],"type":"Point"},"properties":{"osm_id":"7280223062","tag":{"amenity":"waste_disposal"}},"type":"Feature"},
	{"geometry":{"coordinates":[10.089317,44.056822],"type":"Point"},"properties":{"osm_id":"7280223063","tag":{"amenity":"waste_disposal"}},"type":"Feature"},
	{"geometry":{"coordinates":[10.089303,44.056847],"type":"Point"},"properties":{"osm_id":"7280223064","tag":{"amenity":"recycling","recycling_type":"container"}},"type":"Feature"},
	{"geometry":{"coordinates":[10.089296,44.056866],"type":"Point"},"properties":{"osm_id":"7280223065","tag":{"amenity":"recycling","recycling_type":"container"}},"type":"Feature"},
	{"geometry":{"coordinates":[10.043841,44.036814],"type":"Point"},"properties":{"osm_id":"7350520355","tag":{"amenity":"waste_basket"}},"type":"Feature"},
	{"geometry":{"coordinates":[10.082466,44.068062],"type":"Point"},"properties":{"osm_id":"7351065582","tag":{"amenity":"recycling","recycling_type":"container"}},"type":"Feature"},
	{"geometry":{"coordinates":[10.082482,44.068044],"type":"Point"},"properties":{"osm_id":"7351065583","tag":{"amenity":"recycling","recycling_type":"container"}},"type":"Feature"},
	{"geometry":{"coordinates":[10.082497,44.068025],"type":"Point"},"properties":{"osm_id":"7351065584","tag":{"amenity":"recycling","recycling_type":"container"}},"type":"Feature"},
	{"geometry":{"coordinates":[10.082512,44.068007],"type":"Point"},"properties":{"osm_id":"7351121085","tag":{"amenity":"recycling","recycling_type":"container"}},"type":"Feature"},
	{"geometry":{"coordinates":[10.082525,44.06799],"type":"Point"},"properties":{"osm_id":"7351121086","tag":{"amenity":"recycling","recycling_type":"container"}},"type":"Feature"},
	{"geometry":{"coordinates":[10.082536,44.067975],"type":"Point"},"properties":{"osm_id":"7351121087","tag":{"amenity":"waste_disposal"}},"type":"Feature"},
	{"geometry":{"coordinates":[10.082552,44.067953],"type":"Point"},"properties":{"osm_id":"7351121088","tag":{"amenity":"waste_disposal"}},"type":"Feature"},
	{"geometry":{"coordinates":[10.075574,44.066145],"type":"Point"},"properties":{"osm_id":"7389929595","tag":{"amenity":"recycling","recycling:cans":"no","recycling:paper":"no","recycling:plastic":"yes","recycling_type":"container"}},"type":"Feature"},
	{"geometry":{"coordinates":[10.075581,44.066151],"type":"Point"},"properties":{"osm_id":"7389929596","tag":{"amenity":"waste_disposal"}},"type":"Feature"},
	{"geometry":{"coordinates":[10.07559,44.066159],"type":"Point"},"properties":{"osm_id":"7389929597","tag":{"amenity":"recycling","recycling:paper":"yes","recycling_type":"container"}},"type":"Feature"},
	{"geometry":{"coordinates":[10.075598,44.066167],"type":"Point"},"properties":{"osm_id":"7389929598","tag":{"amenity":"recycling","recycling:glass":"yes","recycling_type":"container"}},"type":"Feature"},
	{"geometry":{"coordinates":[10.084063,44.024678],"type":"Point"},"properties":{"osm_id":"7502639588","tag":{"amenity":"waste_disposal"}},"type":"Feature"},
	{"geometry":{"coordinates":[10.084054,44.024664],"type":"Point"},"properties":{"osm_id":"7502639589","tag":{"amenity":"waste_disposal"}},"type":"Feature"},
	{"geometry":{"coordinates":[10.084046,44.024652],"type":"Point"},"properties":{"osm_id":"7502639590","tag":{"amenity":"waste_disposal"}},"type":"Feature"},
	{"geometry":{"coordinates":[10.084037,44.02464],"type":"Point"},"properties":{"osm_id":"7502639591","tag":{"amenity":"waste_disposal"}},"type":"Feature"},
	{"geometry":{"coordinates":[10.084029,44.02463],"type":"Point"},"properties":{"osm_id":"7502639592","tag":{"amenity":"waste_disposal"}},"type":"Feature"}
]
}
