{
"type": "FeatureCollection",
"features": [
	{"geometry":{"coordinates":[4.034192,50.729123],"type":"Point"},"properties":{"osm_id":"2536059739","tag":{"amenity":"recycling","recycling:glass":"yes","recycling_type":"container"}},"type":"Feature"},
	{"geometry":{"coordinates":[4.034231,50.729091],"type":"Point"},"properties":{"osm_id":"2539401788","tag":{"amenity":"recycling","recycling:glass":"yes","recycling_type":"container"}},"type":"Feature"},
	{"geometry":{"coordinates":[4.030342,50.726182],"type":"Point"},"properties":{"osm_id":"3647809341","tag":{"amenity":"waste_basket"}},"type":"Feature"},
	{"geometry":{"coordinates":[4.028691,50.724826],"type":"Point"},"properties":{"osm_id":"3731402918","tag":{"amenity":"waste_basket"}},"type":"Feature"},
	{"geometry":{"coordinates":[4.028231,50.725167],"type":"Point"},"properties":{"osm_id":"3731436917","tag":{"amenity":"waste_basket"}},"type":"Feature"},
	{"geometry":{"coordinates":[4.024025,50.727007],"type":"Point"},"properties":{"osm_id":"3745401614","tag":{"amenity":"waste_basket","waste_basket:type:nl":"blikvanger"}},"type":"Feature"},
	{"geometry":{"coordinates":[4.024068,50.727195],"type":"Point"},"properties":{"osm_id":"3745401623","tag":{"amenity":"waste_basket"}},"type":"Feature"},
	{"geometry":{"coordinates":[4.031544,50.684538],"type":"Point"},"properties":{"osm_id":"4161970041","tag":{"amenity":"recycling","recycling:clothes":"yes","recycling_type":"container"}},"type":"Feature"},
	{"geometry":{"coordinates":[4.031917,50.683198],"type":"Point"},"properties":{"osm_id":"6687677030","tag":{"amenity":"waste_basket","description":"Organic only"}},"type":"Feature"}
]
}
