{
"type": "FeatureCollection",
"features": [
	{"geometry":{"coordinates":[4.033494,50.461936],"type":"Point"},"properties":{"osm_id":"663717561","tag":{"amenity":"recycling","recycling:glass_bottles":"yes","recycling_type":"container"}},"type":"Feature"},
	{"geometry":{"coordinates":[3.975815,50.45845],"type":"Point"},"properties":{"osm_id":"1630459786","tag":{"amenity":"recycling","description":"plus de bulles \u00c3\u00a0 verre, no glass","recycling:clothes":"yes","recycling_type":"container"}},"type":"Feature"},
	{"geometry":{"coordinates":[3.962557,50.464222],"type":"Point"},"properties":{"osm_id":"1725858605","tag":{"amenity":"recycling","recycling:cans":"no","recycling:clothes":"no","recycling:glass_bottles":"yes","recycling:paper":"no","recycling_type":"container"}},"type":"Feature"},
	{"geometry":{"coordinates":[3.995814,50.503363],"type":"Point"},"properties":{"osm_id":"2485596967","tag":{"amenity":"recycling"}},"type":"Feature"},
	{"geometry":{"coordinates":[3.965776,50.488339],"type":"Point"},"properties":{"osm_id":"2823208754","tag":{"amenity":"recycling","recycling:cans":"no","recycling:glass_bottles":"yes","recycling:paper":"no","recycling_type":"container"}},"type":"Feature"},
	{"geometry":{"coordinates":[3.992903,50.459064],"type":"Point"},"properties":{"osm_id":"4397491377","tag":{"amenity":"recycling","operator":"Hygea","recycling:glass_bottles":"yes","recycling_type":"container"}},"type":"Feature"},
	{"geometry":{"coordinates":[3.956127,50.459742],"type":"Point"},"properties":{"osm_id":"4400824471","tag":{"amenity":"recycling","operator":"Hygea","recycling:glass_bottles":"yes","recycling_type":"container"}},"type":"Feature"},
	{"geometry":{"coordinates":[3.975416,50.459186],"type":"Point"},"properties":{"osm_id":"5271587945","tag":{"amenity":"recycling","recycling:cans":"no","recycling:glass_bottles":"yes","recycling_type":"container"}},"type":"Feature"},
	{"geometry":{"coordinates":[3.975436,50.459176],"type":"Point"},"properties":{"osm_id":"5271587946","tag":{"amenity":"recycling","recycling:cans":"no","recycling:glass_bottles":"yes","recycling_type":"container"}},"type":"Feature"},
	{"geometry":{"coordinates":[3.975476,50.459156],"type":"Point"},"properties":{"osm_id":"5286544233","tag":{"amenity":"recycling","recycling:cans":"no","recycling:glass_bottles":"yes","recycling_type":"container"}},"type":"Feature"},
	{"geometry":{"coordinates":[3.975456,50.459166],"type":"Point"},"properties":{"osm_id":"5286544234","tag":{"amenity":"recycling","recycling:cans":"no","recycling:glass_bottles":"yes","recycling_type":"container"}},"type":"Feature"},
	{"geometry":{"coordinates":[3.955597,50.459423],"type":"Point"},"properties":{"osm_id":"5293483399","tag":{"amenity":"recycling","recycling:clothes":"yes","recycling_type":"container"}},"type":"Feature"},
	{"geometry":{"coordinates":[3.95549,50.459438],"type":"Point"},"properties":{"osm_id":"5293483400","tag":{"amenity":"recycling","recycling:clothes":"yes","recycling_type":"container"}},"type":"Feature"},
	{"geometry":{"coordinates":[3.964817,50.469153],"type":"Point"},"properties":{"osm_id":"5307088538","tag":{"amenity":"waste_basket"}},"type":"Feature"},
	{"geometry":{"coordinates":[3.964929,50.46919],"type":"Point"},"properties":{"osm_id":"5307088542","tag":{"amenity":"waste_basket"}},"type":"Feature"},
	{"geometry":{"coordinates":[3.965048,50.469072],"type":"Point"},"properties":{"osm_id":"5307088543","tag":{"amenity":"waste_basket"}},"type":"Feature"},
	{"geometry":{"coordinates":[3.964998,50.469056],"type":"Point"},"properties":{"osm_id":"5307088544","tag":{"amenity":"waste_basket"}},"type":"Feature"},
	{"geometry":{"coordinates":[3.956417,50.463324],"type":"Point"},"properties":{"osm_id":"5554944148","tag":{"amenity":"recycling","recycling:cans":"yes","recycling:glass_bottles":"yes","recycling:paper":"yes","recycling:plastic":"yes","recycling:plastic_bottles":"yes","recycling:waste":"yes","recycling_type":"container"}},"type":"Feature"},
	{"geometry":{"coordinates":[3.958826,50.462013],"type":"Point"},"properties":{"osm_id":"5571951688","tag":{"access":"private","amenity":"waste_disposal"}},"type":"Feature"},
	{"geometry":{"coordinates":[3.958854,50.462007],"type":"Point"},"properties":{"osm_id":"5571951689","tag":{"access":"private","amenity":"waste_disposal"}},"type":"Feature"},
	{"geometry":{"coordinates":[3.958883,50.462002],"type":"Point"},"properties":{"osm_id":"5571951690","tag":{"access":"private","amenity":"waste_disposal"}},"type":"Feature"},
	{"geometry":{"coordinates":[3.958532,50.460973],"type":"Point"},"properties":{"osm_id":"5571951691","tag":{"access":"private","amenity":"recycling","recycling_type":"container"}},"type":"Feature"},
	{"geometry":{"coordinates":[3.958679,50.460958],"type":"Point"},"properties":{"osm_id":"5571951692","tag":{"access":"private","amenity":"waste_disposal"}},"type":"Feature"},
	{"geometry":{"coordinates":[3.976571,50.458176],"type":"Point"},"properties":{"osm_id":"5844723178","tag":{"amenity":"waste_basket","waste":"trash"}},"type":"Feature"},
	{"geometry":{"coordinates":[4.007634,50.46968],"type":"Point"},"properties":{"osm_id":"5869013044","tag":{"amenity":"recycling","recycling:clothes":"yes","recycling_type":"container"}},"type":"Feature"},
	{"geometry":{"coordinates":[4.016859,50.463131],"type":"Point"},"properties":{"osm_id":"5959887028","tag":{"amenity":"waste_basket","waste":"trash"}},"type":"Feature"},
	{"geometry":{"coordinates":[4.016679,50.463537],"type":"Point"},"properties":{"osm_id":"5959887036","tag":{"amenity":"waste_basket","waste":"trash"}},"type":"Feature"},
	{"geometry":{"coordinates":[4.016899,50.463437],"type":"Point"},"properties":{"osm_id":"5959887042","tag":{"amenity":"waste_basket","waste":"trash"}},"type":"Feature"},
	{"geometry":{"coordinates":[4.016973,50.463579],"type":"Point"},"properties":{"osm_id":"5959887047","tag":{"amenity":"waste_basket","waste":"trash"}},"type":"Feature"},
	{"geometry":{"coordinates":[3.955719,50.458382],"type":"Point"},"properties":{"osm_id":"7073474177","tag":{"amenity":"waste_basket","waste":"trash"}},"type":"Feature"},
	{"geometry":{"coordinates":[3.955814,50.458625],"type":"Point"},"properties":{"osm_id":"7073474183","tag":{"amenity":"waste_basket","waste":"trash"}},"type":"Feature"},
	{"geometry":{"coordinates":[3.956202,50.45954],"type":"Point"},"properties":{"osm_id":"7073550191","tag":{"amenity":"waste_basket","waste":"trash"}},"type":"Feature"},
	{"geometry":{"coordinates":[3.955852,50.459498],"type":"Point"},"properties":{"osm_id":"7073550197","tag":{"amenity":"waste_basket","waste":"trash"}},"type":"Feature"},
	{"geometry":{"coordinates":[3.963515,50.460504],"type":"Point"},"properties":{"osm_id":"7117903952","tag":{"amenity":"recycling","recycling_type":"container"}},"type":"Feature"},
	{"geometry":{"coordinates":[3.983759,50.491651],"type":"Point"},"properties":{"osm_id":"7893893859","tag":{"amenity":"waste_basket"}},"type":"Feature"}
]
}
