{
"type": "FeatureCollection",
"features": [
	{"geometry":{"coordinates":[3.996727,50.429906],"type":"Point"},"properties":{"osm_id":"814574260","tag":{"amenity":"recycling","recycling:glass_bottles":"yes","recycling_type":"container"}},"type":"Feature"},
	{"geometry":{"coordinates":[3.955817,50.438482],"type":"Point"},"properties":{"osm_id":"1465035187","tag":{"amenity":"recycling","recycling:glass_bottles":"yes","recycling_type":"container"}},"type":"Feature"},
	{"geometry":{"coordinates":[3.955895,50.438568],"type":"Point"},"properties":{"osm_id":"1465035196","tag":{"amenity":"recycling","recycling:glass_bottles":"yes","recycling_type":"container"}},"type":"Feature"},
	{"geometry":{"coordinates":[3.985242,50.452355],"type":"Point"},"properties":{"osm_id":"1623857293","tag":{"amenity":"waste_basket"}},"type":"Feature"},
	{"geometry":{"coordinates":[3.985331,50.452493],"type":"Point"},"properties":{"osm_id":"1623857308","tag":{"amenity":"waste_basket"}},"type":"Feature"},
	{"geometry":{"coordinates":[3.984243,50.452533],"type":"Point"},"properties":{"osm_id":"1623857313","tag":{"amenity":"waste_basket"}},"type":"Feature"},
	{"geometry":{"coordinates":[3.98405,50.45313],"type":"Point"},"properties":{"osm_id":"1623857379","tag":{"amenity":"waste_basket"}},"type":"Feature"},
	{"geometry":{"coordinates":[3.983735,50.453289],"type":"Point"},"properties":{"osm_id":"1623857388","tag":{"amenity":"waste_basket"}},"type":"Feature"},
	{"geometry":{"coordinates":[3.984564,50.452282],"type":"Point"},"properties":{"osm_id":"1624960220","tag":{"amenity":"waste_basket"}},"type":"Feature"},
	{"geometry":{"coordinates":[3.982096,50.453231],"type":"Point"},"properties":{"osm_id":"1624960234","tag":{"amenity":"waste_basket"}},"type":"Feature"},
	{"geometry":{"coordinates":[3.981845,50.453322],"type":"Point"},"properties":{"osm_id":"1624960237","tag":{"amenity":"waste_basket"}},"type":"Feature"},
	{"geometry":{"coordinates":[3.967591,50.453454],"type":"Point"},"properties":{"osm_id":"1740048305","tag":{"amenity":"recycling","recycling:glass_bottles":"yes","recycling_type":"container"}},"type":"Feature"},
	{"geometry":{"coordinates":[3.955661,50.442785],"type":"Point"},"properties":{"osm_id":"1781377418","tag":{"amenity":"recycling","recycling:cans":"no","recycling:clothes":"no","recycling:glass_bottles":"yes","recycling:paper":"no","recycling_type":"container"}},"type":"Feature"},
	{"geometry":{"coordinates":[3.963907,50.439702],"type":"Point"},"properties":{"osm_id":"1781526932","tag":{"amenity":"recycling","recycling:cans":"no","recycling:clothes":"no","recycling:glass_bottles":"yes","recycling:paper":"no","recycling_type":"container"}},"type":"Feature"},
	{"geometry":{"coordinates":[3.982616,50.453405],"type":"Point"},"properties":{"osm_id":"1787077632","tag":{"amenity":"waste_basket"}},"type":"Feature"},
	{"geometry":{"coordinates":[3.981007,50.452427],"type":"Point"},"properties":{"osm_id":"1798118665","tag":{"amenity":"waste_basket"}},"type":"Feature"},
	{"geometry":{"coordinates":[3.980888,50.452738],"type":"Point"},"properties":{"osm_id":"1798118669","tag":{"amenity":"waste_basket"}},"type":"Feature"},
	{"geometry":{"coordinates":[3.96614,50.438414],"type":"Point"},"properties":{"name":"poubelle","osm_id":"1979683172","tag":{"amenity":"waste_basket"}},"type":"Feature"},
	{"geometry":{"coordinates":[3.966172,50.438894],"type":"Point"},"properties":{"name":"poubelle","osm_id":"1979683173","tag":{"amenity":"waste_basket"}},"type":"Feature"},
	{"geometry":{"coordinates":[3.981068,50.451988],"type":"Point"},"properties":{"osm_id":"2402433086","tag":{"amenity":"waste_basket"}},"type":"Feature"},
	{"geometry":{"coordinates":[3.981941,50.453329],"type":"Point"},"properties":{"osm_id":"2402433298","tag":{"amenity":"waste_basket"}},"type":"Feature"},
	{"geometry":{"coordinates":[3.982343,50.452854],"type":"Point"},"properties":{"osm_id":"3703186508","tag":{"amenity":"waste_basket"}},"type":"Feature"},
	{"geometry":{"coordinates":[3.963943,50.440544],"type":"Point"},"properties":{"osm_id":"4165631310","tag":{"amenity":"recycling","recycling:clothes":"yes","recycling_type":"container"}},"type":"Feature"},
	{"geometry":{"coordinates":[3.961386,50.448947],"type":"Point"},"properties":{"osm_id":"4165747672","tag":{"amenity":"recycling","recycling:glass_bottles":"yes","recycling_type":"container"}},"type":"Feature"},
	{"geometry":{"coordinates":[3.960272,50.4295],"type":"Point"},"properties":{"osm_id":"4391876814","tag":{"amenity":"recycling","operator":"Hygea","recycling:glass_bottles":"yes","recycling_type":"container"}},"type":"Feature"},
	{"geometry":{"coordinates":[3.978369,50.452259],"type":"Point"},"properties":{"osm_id":"4594209569","tag":{"amenity":"recycling","recycling:clothes":"yes","recycling_type":"container"}},"type":"Feature"},
	{"geometry":{"coordinates":[3.979719,50.45233],"type":"Point"},"properties":{"osm_id":"4594211498","tag":{"amenity":"waste_basket"}},"type":"Feature"},
	{"geometry":{"coordinates":[3.979757,50.452376],"type":"Point"},"properties":{"osm_id":"4594211499","tag":{"amenity":"waste_basket"}},"type":"Feature"},
	{"geometry":{"coordinates":[3.979659,50.452433],"type":"Point"},"properties":{"osm_id":"4594211500","tag":{"amenity":"waste_basket"}},"type":"Feature"},
	{"geometry":{"coordinates":[3.997344,50.456099],"type":"Point"},"properties":{"osm_id":"4595354964","tag":{"amenity":"waste_basket"}},"type":"Feature"},
	{"geometry":{"coordinates":[3.973553,50.457152],"type":"Point"},"properties":{"osm_id":"4596519661","tag":{"amenity":"waste_disposal","waste":"trash"}},"type":"Feature"},
	{"geometry":{"coordinates":[4.018256,50.403308],"type":"Point"},"properties":{"osm_id":"5113103520","tag":{"amenity":"recycling","recycling:glass_bottles":"yes","recycling_type":"container"}},"type":"Feature"},
	{"geometry":{"coordinates":[3.986171,50.423953],"type":"Point"},"properties":{"osm_id":"5128739701","tag":{"amenity":"recycling","recycling:glass_bottles":"yes","recycling_type":"container"}},"type":"Feature"},
	{"geometry":{"coordinates":[3.988898,50.449627],"type":"Point"},"properties":{"osm_id":"5271882340","tag":{"access":"customers","amenity":"waste_basket"}},"type":"Feature"},
	{"geometry":{"coordinates":[3.989027,50.449583],"type":"Point"},"properties":{"osm_id":"5271882341","tag":{"access":"customers","amenity":"waste_basket"}},"type":"Feature"},
	{"geometry":{"coordinates":[3.989468,50.44871],"type":"Point"},"properties":{"osm_id":"5271934381","tag":{"amenity":"waste_basket","waste":"trash"}},"type":"Feature"},
	{"geometry":{"coordinates":[3.989565,50.448628],"type":"Point"},"properties":{"osm_id":"5271934382","tag":{"amenity":"recycling","recycling:glass_bottles":"yes","recycling_type":"container"}},"type":"Feature"},
	{"geometry":{"coordinates":[3.956663,50.451868],"type":"Point"},"properties":{"osm_id":"5293286354","tag":{"amenity":"waste_basket"}},"type":"Feature"},
	{"geometry":{"coordinates":[3.956587,50.451826],"type":"Point"},"properties":{"osm_id":"5293286355","tag":{"amenity":"waste_basket"}},"type":"Feature"},
	{"geometry":{"coordinates":[3.986286,50.456013],"type":"Point"},"properties":{"osm_id":"5301362315","tag":{"amenity":"recycling","recycling:glass_bottles":"yes","recycling_type":"container"}},"type":"Feature"},
	{"geometry":{"coordinates":[3.962357,50.429031],"type":"Point"},"properties":{"osm_id":"5353255151","tag":{"amenity":"recycling","recycling:glass_bottles":"yes","recycling_type":"container"}},"type":"Feature"},
	{"geometry":{"coordinates":[3.958526,50.426296],"type":"Point"},"properties":{"osm_id":"5357155262","tag":{"amenity":"recycling","recycling:clothes":"yes","recycling_type":"container"}},"type":"Feature"},
	{"geometry":{"coordinates":[3.976331,50.453017],"type":"Point"},"properties":{"osm_id":"5842533313","tag":{"amenity":"waste_basket","waste":"trash"}},"type":"Feature"},
	{"geometry":{"coordinates":[3.977181,50.45257],"type":"Point"},"properties":{"osm_id":"5961083352","tag":{"amenity":"waste_basket","waste":"cigarettes"}},"type":"Feature"},
	{"geometry":{"coordinates":[3.977495,50.452553],"type":"Point"},"properties":{"osm_id":"5961083353","tag":{"amenity":"waste_basket","waste":"cigarettes"}},"type":"Feature"},
	{"geometry":{"coordinates":[4.002146,50.456767],"type":"Point"},"properties":{"osm_id":"5966993765","tag":{"amenity":"waste_basket","waste":"trash"}},"type":"Feature"},
	{"geometry":{"coordinates":[4.002146,50.456542],"type":"Point"},"properties":{"osm_id":"5966993767","tag":{"amenity":"waste_basket","waste":"trash"}},"type":"Feature"},
	{"geometry":{"coordinates":[3.976734,50.45279],"type":"Point"},"properties":{"osm_id":"6122400279","tag":{"amenity":"waste_basket","waste":"trash"}},"type":"Feature"},
	{"geometry":{"coordinates":[3.987668,50.447003],"type":"Point"},"properties":{"osm_id":"6153512314","tag":{"amenity":"waste_basket","waste":"trash"}},"type":"Feature"},
	{"geometry":{"coordinates":[3.987667,50.447836],"type":"Point"},"properties":{"osm_id":"6153512319","tag":{"amenity":"waste_basket","waste":"trash"}},"type":"Feature"},
	{"geometry":{"coordinates":[3.989938,50.448566],"type":"Point"},"properties":{"osm_id":"6153512321","tag":{"amenity":"waste_basket","waste":"trash"}},"type":"Feature"},
	{"geometry":{"coordinates":[3.965944,50.456633],"type":"Point"},"properties":{"osm_id":"7359482974","tag":{"amenity":"recycling","recycling:glass_bottles":"yes","recycling_type":"container"}},"type":"Feature"},
	{"geometry":{"coordinates":[4.009935,50.440272],"type":"Point"},"properties":{"osm_id":"7472325689","tag":{"amenity":"recycling","recycling:clothes":"yes","recycling_type":"container"}},"type":"Feature"},
	{"geometry":{"coordinates":[4.040226,50.429429],"type":"Point"},"properties":{"osm_id":"7484680138","tag":{"amenity":"waste_basket","waste":"trash"}},"type":"Feature"},
	{"geometry":{"coordinates":[3.97789,50.454928],"type":"Point"},"properties":{"osm_id":"7761213748","tag":{"amenity":"waste_basket","waste":"trash"}},"type":"Feature"}
]
}
