{
"type": "FeatureCollection",
"features": [
	{"geometry":{"coordinates":[4.035509,49.268602],"type":"Point"},"properties":{"osm_id":"1110439287","tag":{"amenity":"recycling","recycling_type":"container"}},"type":"Feature"},
	{"geometry":{"coordinates":[4.025622,49.272075],"type":"Point"},"properties":{"osm_id":"1786355317","tag":{"amenity":"recycling","recycling:batteries":"yes","recycling:electrical_appliances":"yes","recycling:light_bulbs":"yes","recycling:phones":"yes","recycling:small_appliances":"yes","recycling_type":"container"}},"type":"Feature"},
	{"geometry":{"coordinates":[4.026742,49.270585],"type":"Point"},"properties":{"osm_id":"1819083431","tag":{"access":"yes","amenity":"recycling","fee":"no","recycling:glass_bottles":"yes","recycling:glass_jars":"yes","recycling_type":"container","wheelchair":"no"}},"type":"Feature"},
	{"geometry":{"coordinates":[4.026639,49.270601],"type":"Point"},"properties":{"osm_id":"1819084015","tag":{"access":"yes","amenity":"recycling","fee":"no","recycling:clothes":"yes","recycling:shoes":"yes","recycling:textiles":"yes","recycling_type":"container","wheelchair":"no"}},"type":"Feature"},
	{"geometry":{"coordinates":[4.001603,49.322171],"type":"Point"},"properties":{"osm_id":"5053734451","tag":{"amenity":"recycling","recycling:glass_bottles":"yes","recycling_type":"container"}},"type":"Feature"},
	{"geometry":{"coordinates":[4.002418,49.323112],"type":"Point"},"properties":{"osm_id":"5053734452","tag":{"amenity":"waste_basket"}},"type":"Feature"},
	{"geometry":{"coordinates":[4.00191,49.322226],"type":"Point"},"properties":{"osm_id":"5053774076","tag":{"amenity":"waste_basket"}},"type":"Feature"},
	{"geometry":{"coordinates":[4.004633,49.277148],"type":"Point"},"properties":{"osm_id":"6854817862","tag":{"access":"customers","amenity":"waste_basket"}},"type":"Feature"},
	{"geometry":{"coordinates":[4.004716,49.277189],"type":"Point"},"properties":{"osm_id":"6854817863","tag":{"access":"customers","amenity":"waste_basket"}},"type":"Feature"},
	{"geometry":{"coordinates":[4.004724,49.277144],"type":"Point"},"properties":{"osm_id":"6854817864","tag":{"access":"customers","amenity":"waste_basket"}},"type":"Feature"},
	{"geometry":{"coordinates":[4.005372,49.277107],"type":"Point"},"properties":{"osm_id":"6855053848","tag":{"amenity":"waste_basket"}},"type":"Feature"},
	{"geometry":{"coordinates":[4.0073,49.274954],"type":"Point"},"properties":{"osm_id":"6855053854","tag":{"amenity":"waste_basket"}},"type":"Feature"},
	{"geometry":{"coordinates":[4.004212,49.277646],"type":"Point"},"properties":{"osm_id":"6855460582","tag":{"amenity":"waste_basket"}},"type":"Feature"},
	{"geometry":{"coordinates":[4.001863,49.274535],"type":"Point"},"properties":{"osm_id":"6855888256","tag":{"amenity":"waste_basket"}},"type":"Feature"},
	{"geometry":{"coordinates":[4.000452,49.270758],"type":"Point"},"properties":{"osm_id":"6858779229","tag":{"amenity":"waste_basket"}},"type":"Feature"},
	{"geometry":{"coordinates":[3.983054,49.323408],"type":"Point"},"properties":{"osm_id":"6967549072","tag":{"amenity":"waste_basket"}},"type":"Feature"},
	{"geometry":{"coordinates":[3.983194,49.323325],"type":"Point"},"properties":{"osm_id":"6967549073","tag":{"amenity":"waste_basket"}},"type":"Feature"},
	{"geometry":{"coordinates":[3.984676,49.32065],"type":"Point"},"properties":{"osm_id":"6967568516","tag":{"amenity":"waste_basket"}},"type":"Feature"},
	{"geometry":{"coordinates":[3.984856,49.320528],"type":"Point"},"properties":{"osm_id":"6967568517","tag":{"amenity":"waste_basket"}},"type":"Feature"},
	{"geometry":{"coordinates":[4.01422,49.281128],"type":"Point"},"properties":{"osm_id":"7042422591","tag":{"amenity":"waste_disposal"}},"type":"Feature"},
	{"geometry":{"coordinates":[4.014234,49.281109],"type":"Point"},"properties":{"osm_id":"7042422592","tag":{"amenity":"waste_disposal"}},"type":"Feature"},
	{"geometry":{"coordinates":[4.012969,49.280942],"type":"Point"},"properties":{"osm_id":"7056251238","ref":"M3","tag":{"amenity":"recycling","operator":"Grand Reims","recycling:glass":"yes","recycling_type":"container"}},"type":"Feature"},
	{"geometry":{"coordinates":[4.011945,49.281776],"type":"Point"},"properties":{"osm_id":"7056251257","tag":{"amenity":"waste_basket"}},"type":"Feature"},
	{"geometry":{"coordinates":[4.018289,49.282158],"type":"Point"},"properties":{"osm_id":"7056505506","tag":{"amenity":"waste_disposal","location":"underground","operator":"Grand Reims"}},"type":"Feature"},
	{"geometry":{"coordinates":[4.01831,49.28216],"type":"Point"},"properties":{"osm_id":"7056505507","tag":{"amenity":"waste_disposal","location":"underground","operator":"Grand Reims"}},"type":"Feature"},
	{"geometry":{"coordinates":[4.018083,49.281587],"type":"Point"},"properties":{"osm_id":"7056505514","tag":{"amenity":"waste_disposal","location":"underground","operator":"Grand Reims"}},"type":"Feature"},
	{"geometry":{"coordinates":[4.01811,49.281589],"type":"Point"},"properties":{"osm_id":"7056505515","tag":{"amenity":"waste_disposal","location":"underground","operator":"Grand Reims"}},"type":"Feature"},
	{"geometry":{"coordinates":[4.018137,49.281593],"type":"Point"},"properties":{"osm_id":"7056505516","tag":{"amenity":"waste_disposal","location":"underground","operator":"Grand Reims"}},"type":"Feature"},
	{"geometry":{"coordinates":[4.019186,49.281858],"type":"Point"},"properties":{"osm_id":"7056505549","tag":{"amenity":"waste_disposal","location":"underground","operator":"Grand Reims"}},"type":"Feature"},
	{"geometry":{"coordinates":[4.019192,49.281835],"type":"Point"},"properties":{"osm_id":"7056505550","tag":{"amenity":"waste_disposal","location":"underground","operator":"Grand Reims"}},"type":"Feature"},
	{"geometry":{"coordinates":[4.020622,49.282055],"type":"Point"},"properties":{"osm_id":"7056591899","tag":{"amenity":"waste_disposal","location":"underground","operator":"Grand Reims"}},"type":"Feature"},
	{"geometry":{"coordinates":[4.02059,49.282054],"type":"Point"},"properties":{"osm_id":"7056591900","tag":{"amenity":"waste_disposal","location":"underground","operator":"Grand Reims"}},"type":"Feature"},
	{"geometry":{"coordinates":[4.020077,49.281811],"type":"Point"},"properties":{"osm_id":"7056591901","tag":{"amenity":"waste_disposal","location":"underground","operator":"Grand Reims"}},"type":"Feature"},
	{"geometry":{"coordinates":[4.020082,49.281798],"type":"Point"},"properties":{"osm_id":"7056591902","tag":{"amenity":"waste_disposal","location":"underground","operator":"Grand Reims"}},"type":"Feature"},
	{"geometry":{"coordinates":[4.000288,49.281055],"type":"Point"},"properties":{"osm_id":"7233557956","tag":{"amenity":"recycling","recycling:glass_bottles":"yes","recycling_type":"container"}},"type":"Feature"},
	{"geometry":{"coordinates":[4.00022,49.281057],"type":"Point"},"properties":{"osm_id":"7233557957","tag":{"amenity":"recycling","recycling:clothes":"yes","recycling_type":"container"}},"type":"Feature"},
	{"geometry":{"coordinates":[4.02399,49.267902],"type":"Point"},"properties":{"osm_id":"7265842110","tag":{"amenity":"waste_basket"}},"type":"Feature"},
	{"geometry":{"coordinates":[4.028878,49.269994],"type":"Point"},"properties":{"osm_id":"7265842112","tag":{"amenity":"waste_basket"}},"type":"Feature"},
	{"geometry":{"coordinates":[4.026001,49.270633],"type":"Point"},"properties":{"osm_id":"7265842114","tag":{"amenity":"waste_basket"}},"type":"Feature"},
	{"geometry":{"coordinates":[4.033046,49.268808],"type":"Point"},"properties":{"osm_id":"7265842116","tag":{"amenity":"waste_basket"}},"type":"Feature"},
	{"geometry":{"coordinates":[4.026837,49.270618],"type":"Point"},"properties":{"osm_id":"7265842118","tag":{"amenity":"waste_basket"}},"type":"Feature"},
	{"geometry":{"coordinates":[4.023381,49.268843],"type":"Point"},"properties":{"osm_id":"7265842120","tag":{"amenity":"waste_basket"}},"type":"Feature"},
	{"geometry":{"coordinates":[4.026188,49.270689],"type":"Point"},"properties":{"osm_id":"7265842124","tag":{"amenity":"waste_basket"}},"type":"Feature"},
	{"geometry":{"coordinates":[4.028607,49.270306],"type":"Point"},"properties":{"osm_id":"7265842127","tag":{"amenity":"waste_basket"}},"type":"Feature"},
	{"geometry":{"coordinates":[4.025791,49.270813],"type":"Point"},"properties":{"osm_id":"7265842129","tag":{"amenity":"waste_basket"}},"type":"Feature"},
	{"geometry":{"coordinates":[4.026296,49.27095],"type":"Point"},"properties":{"osm_id":"7265842133","tag":{"amenity":"waste_basket"}},"type":"Feature"},
	{"geometry":{"coordinates":[4.023607,49.268312],"type":"Point"},"properties":{"osm_id":"7265842135","tag":{"amenity":"waste_basket"}},"type":"Feature"},
	{"geometry":{"coordinates":[4.030606,49.269756],"type":"Point"},"properties":{"osm_id":"7265842137","tag":{"amenity":"waste_basket"}},"type":"Feature"},
	{"geometry":{"coordinates":[4.026043,49.270779],"type":"Point"},"properties":{"osm_id":"7265842139","tag":{"amenity":"waste_basket"}},"type":"Feature"},
	{"geometry":{"coordinates":[4.032881,49.268802],"type":"Point"},"properties":{"osm_id":"7265842141","tag":{"amenity":"waste_basket"}},"type":"Feature"},
	{"geometry":{"coordinates":[4.026934,49.270594],"type":"Point"},"properties":{"osm_id":"7265842143","tag":{"amenity":"waste_basket"}},"type":"Feature"},
	{"geometry":{"coordinates":[4.023004,49.26932],"type":"Point"},"properties":{"osm_id":"7265842145","tag":{"amenity":"waste_basket"}},"type":"Feature"},
	{"geometry":{"coordinates":[4.033044,49.268998],"type":"Point"},"properties":{"osm_id":"7265842147","tag":{"amenity":"waste_basket"}},"type":"Feature"},
	{"geometry":{"coordinates":[4.026389,49.270785],"type":"Point"},"properties":{"osm_id":"7265842149","tag":{"amenity":"waste_basket"}},"type":"Feature"},
	{"geometry":{"coordinates":[4.028994,49.272969],"type":"Point"},"properties":{"osm_id":"7350533351","tag":{"amenity":"recycling","recycling:glass_bottles":"yes","recycling_type":"container"}},"type":"Feature"},
	{"geometry":{"coordinates":[4.028953,49.27298],"type":"Point"},"properties":{"osm_id":"7350533352","tag":{"amenity":"recycling","recycling:clothes":"yes","recycling_type":"container"}},"type":"Feature"},
	{"geometry":{"coordinates":[4.033176,49.273058],"type":"Point"},"properties":{"osm_id":"7350592659","tag":{"amenity":"recycling","recycling:glass_bottles":"yes","recycling_type":"container"}},"type":"Feature"},
	{"geometry":{"coordinates":[4.018993,49.27625],"type":"Point"},"properties":{"osm_id":"7366096027","tag":{"amenity":"recycling","recycling:glass_bottles":"yes","recycling_type":"container"}},"type":"Feature"},
	{"geometry":{"coordinates":[4.020373,49.269491],"type":"Point"},"properties":{"osm_id":"7374432343","tag":{"amenity":"recycling","recycling:glass_bottles":"yes","recycling_type":"container"}},"type":"Feature"},
	{"geometry":{"coordinates":[4.020154,49.269407],"type":"Point"},"properties":{"osm_id":"7374432347","tag":{"amenity":"waste_basket"}},"type":"Feature"},
	{"geometry":{"coordinates":[4.021719,49.270918],"type":"Point"},"properties":{"osm_id":"7376574058","tag":{"amenity":"recycling","recycling:glass_bottles":"yes","recycling_type":"container"}},"type":"Feature"},
	{"geometry":{"coordinates":[4.014135,49.274011],"type":"Point"},"properties":{"osm_id":"7380669630","tag":{"amenity":"recycling","recycling:glass_bottles":"yes","recycling_type":"container"}},"type":"Feature"},
	{"geometry":{"coordinates":[3.98228,49.269311],"type":"Point"},"properties":{"osm_id":"7519183042","tag":{"addr:city":"Saint-Brice-Courcelles","addr:housenumber":"12","addr:postcode":"51370","addr:street":"Avenue des Chenevi\u00c3\u00a8res","amenity":"recycling","recycling_type":"centre"}},"type":"Feature"},
	{"geometry":{"coordinates":[3.9848,49.268682],"type":"Point"},"properties":{"name":"Suez RV Nord-Est","osm_id":"7519406240","tag":{"addr:street":"Chemin des Marais","amenity":"recycling","phone":"0326484780","recycling_type":"centre"}},"type":"Feature"},
	{"geometry":{"coordinates":[4.02588,49.26927],"type":"Point"},"properties":{"osm_id":"7523575535","tag":{"amenity":"waste_basket"}},"type":"Feature"},
	{"geometry":{"coordinates":[4.026477,49.267868],"type":"Point"},"properties":{"osm_id":"7523575536","tag":{"amenity":"waste_basket"}},"type":"Feature"},
	{"geometry":{"coordinates":[4.025012,49.270979],"type":"Point"},"properties":{"osm_id":"7523575537","tag":{"amenity":"waste_basket"}},"type":"Feature"},
	{"geometry":{"coordinates":[4.026374,49.268599],"type":"Point"},"properties":{"osm_id":"7523575538","tag":{"amenity":"waste_basket"}},"type":"Feature"},
	{"geometry":{"coordinates":[4.02497,49.271271],"type":"Point"},"properties":{"osm_id":"7523575539","tag":{"amenity":"waste_basket"}},"type":"Feature"},
	{"geometry":{"coordinates":[4.026034,49.26886],"type":"Point"},"properties":{"osm_id":"7523575540","tag":{"amenity":"waste_basket"}},"type":"Feature"},
	{"geometry":{"coordinates":[3.994877,49.281357],"type":"Point"},"properties":{"name":"D\u00c3\u00a9ch\u00c3\u00a8terie de Saint-Brice-Courcelle","osm_id":"7572962231","tag":{"addr:city":"Saint-Brice-Courcelles","addr:postcode":"51370","addr:street":"Chemin des Temples","amenity":"recycling","phone":"0326029090","recycling_type":"centre"}},"type":"Feature"},
	{"geometry":{"coordinates":[3.99412,49.280715],"type":"Point"},"properties":{"name":"D\u00c3\u00a9ch\u00c3\u00a8terie Professionnelle","osm_id":"7572962260","tag":{"addr:city":"Saint-Brice-Courcelles","addr:postcode":"51370","addr:street":"Chemin des Temples","amenity":"recycling","operator":"Suez Environnement","phone":"0326823312","recycling_type":"centre"}},"type":"Feature"},
	{"geometry":{"coordinates":[4.038098,49.268072],"type":"Point"},"properties":{"osm_id":"7750424036","ref":"j25","tag":{"amenity":"recycling","recycling_type":"container"}},"type":"Feature"},
	{"geometry":{"coordinates":[4.035454,49.268689],"type":"Point"},"properties":{"osm_id":"7750427385","ref":"J26","tag":{"amenity":"recycling","colour":"vert","recycling_type":"container"}},"type":"Feature"},
	{"geometry":{"coordinates":[4.013321,49.280227],"type":"Point"},"properties":{"osm_id":"7804326508","tag":{"amenity":"recycling","recycling:clothes":"yes","recycling_type":"container"}},"type":"Feature"},
	{"geometry":{"coordinates":[4.013335,49.280207],"type":"Point"},"properties":{"osm_id":"7804326509","tag":{"amenity":"recycling","recycling:clothes":"yes","recycling_type":"container"}},"type":"Feature"},
	{"geometry":{"coordinates":[4.001641,49.322185],"type":"Point"},"properties":{"osm_id":"7845764586","tag":{"amenity":"recycling","recycling:glass_bottles":"yes","recycling_type":"container"}},"type":"Feature"},
	{"geometry":{"coordinates":[4.00157,49.322156],"type":"Point"},"properties":{"osm_id":"7845764587","tag":{"amenity":"recycling","recycling:textiles":"yes","recycling_type":"container"}},"type":"Feature"},
	{"geometry":{"coordinates":[4.022339,49.272916],"type":"Point"},"properties":{"osm_id":"7860498071","tag":{"amenity":"recycling","recycling:glass_bottles":"yes","recycling_type":"container"}},"type":"Feature"},
	{"geometry":{"coordinates":[4.008074,49.27722],"type":"Point"},"properties":{"osm_id":"7891170097","tag":{"amenity":"recycling","recycling:glass_bottles":"yes","recycling_type":"container"}},"type":"Feature"}
]
}
