{
"type": "FeatureCollection",
"features": [
	{"geometry":{"coordinates":[4.037141,49.249075],"type":"Point"},"properties":{"osm_id":"1267312878","tag":{"amenity":"recycling","recycling:glass_bottles":"yes","recycling_type":"container"}},"type":"Feature"},
	{"geometry":{"coordinates":[4.025813,49.267629],"type":"Point"},"properties":{"osm_id":"1785422205","tag":{"amenity":"recycling","recycling:glass":"yes","recycling:glass_bottles":"yes","recycling_type":"container"}},"type":"Feature"},
	{"geometry":{"coordinates":[3.982364,49.259506],"type":"Point"},"properties":{"name":"D\u00c3\u00a9chetterie de tinqueux","osm_id":"1843843264","tag":{"amenity":"waste_basket"}},"type":"Feature"},
	{"geometry":{"coordinates":[4.004301,49.263049],"type":"Point"},"properties":{"osm_id":"2421923651","tag":{"amenity":"waste_basket"}},"type":"Feature"},
	{"geometry":{"coordinates":[4.020561,49.250098],"type":"Point"},"properties":{"osm_id":"3917107235","tag":{"amenity":"waste_basket"}},"type":"Feature"},
	{"geometry":{"coordinates":[3.990724,49.257293],"type":"Point"},"properties":{"osm_id":"4401516670","tag":{"amenity":"recycling","recycling_type":"container"}},"type":"Feature"},
	{"geometry":{"coordinates":[4.027473,49.266829],"type":"Point"},"properties":{"osm_id":"4467046513","tag":{"amenity":"recycling","recycling:glass":"yes","recycling_type":"container"}},"type":"Feature"},
	{"geometry":{"coordinates":[4.019343,49.260478],"type":"Point"},"properties":{"osm_id":"4836962845","tag":{"amenity":"recycling","recycling:glass":"yes","recycling_type":"container"}},"type":"Feature"},
	{"geometry":{"coordinates":[4.019316,49.260513],"type":"Point"},"properties":{"osm_id":"4836962846","tag":{"amenity":"recycling","recycling:clothes":"yes","recycling_type":"container"}},"type":"Feature"},
	{"geometry":{"coordinates":[4.019422,49.260356],"type":"Point"},"properties":{"osm_id":"4836962847","tag":{"amenity":"waste_basket"}},"type":"Feature"},
	{"geometry":{"coordinates":[4.024504,49.211618],"type":"Point"},"properties":{"osm_id":"4861955597","tag":{"amenity":"waste_basket"}},"type":"Feature"},
	{"geometry":{"coordinates":[4.028444,49.21591],"type":"Point"},"properties":{"osm_id":"4862515444","tag":{"amenity":"waste_basket"}},"type":"Feature"},
	{"geometry":{"coordinates":[4.027976,49.253263],"type":"Point"},"properties":{"osm_id":"5159277728","tag":{"amenity":"waste_basket"}},"type":"Feature"},
	{"geometry":{"coordinates":[4.024433,49.261675],"type":"Point"},"properties":{"osm_id":"5160785815","tag":{"amenity":"recycling","recycling:glass":"yes","recycling:glass_bottles":"yes","recycling_type":"container"}},"type":"Feature"},
	{"geometry":{"coordinates":[4.031438,49.252349],"type":"Point"},"properties":{"osm_id":"5161358278","tag":{"amenity":"waste_basket"}},"type":"Feature"},
	{"geometry":{"coordinates":[4.030663,49.252634],"type":"Point"},"properties":{"osm_id":"5161358280","tag":{"amenity":"recycling","recycling_type":"container"}},"type":"Feature"},
	{"geometry":{"coordinates":[4.030682,49.252646],"type":"Point"},"properties":{"osm_id":"5161358281","tag":{"amenity":"waste_basket"}},"type":"Feature"},
	{"geometry":{"coordinates":[4.029785,49.252656],"type":"Point"},"properties":{"osm_id":"5161358282","tag":{"amenity":"waste_basket"}},"type":"Feature"},
	{"geometry":{"coordinates":[4.028641,49.252679],"type":"Point"},"properties":{"osm_id":"5161358283","tag":{"amenity":"waste_basket"}},"type":"Feature"},
	{"geometry":{"coordinates":[4.028993,49.252922],"type":"Point"},"properties":{"osm_id":"5161358284","tag":{"amenity":"waste_basket"}},"type":"Feature"},
	{"geometry":{"coordinates":[4.029565,49.253042],"type":"Point"},"properties":{"osm_id":"5161358286","tag":{"amenity":"waste_basket"}},"type":"Feature"},
	{"geometry":{"coordinates":[4.030196,49.253256],"type":"Point"},"properties":{"osm_id":"5162717914","tag":{"amenity":"waste_basket"}},"type":"Feature"},
	{"geometry":{"coordinates":[4.030455,49.253324],"type":"Point"},"properties":{"osm_id":"5162717915","tag":{"amenity":"waste_basket"}},"type":"Feature"},
	{"geometry":{"coordinates":[4.033122,49.25483],"type":"Point"},"properties":{"osm_id":"5163802883","tag":{"amenity":"waste_basket"}},"type":"Feature"},
	{"geometry":{"coordinates":[4.015742,49.261086],"type":"Point"},"properties":{"osm_id":"5174459081","tag":{"amenity":"waste_basket"}},"type":"Feature"},
	{"geometry":{"coordinates":[4.022297,49.260105],"type":"Point"},"properties":{"osm_id":"5873358473","tag":{"addr:city":"Reims","addr:housenumber":"17","addr:postcode":"51100","addr:street":"Rue Andr\u00c3\u00a9 Pingat"}},"type":"Feature"},
	{"geometry":{"coordinates":[4.022414,49.259926],"type":"Point"},"properties":{"osm_id":"5873358474","tag":{"addr:housenumber":"15","addr:street":"Rue Andr\u00c3\u00a9 Pingat"}},"type":"Feature"},
	{"geometry":{"coordinates":[4.022355,49.260014],"type":"Point"},"properties":{"osm_id":"5873358475","tag":{"addr:housenumber":"13","addr:street":"Rue Andr\u00c3\u00a9 Pingat"}},"type":"Feature"},
	{"geometry":{"coordinates":[4.031465,49.259647],"type":"Point"},"properties":{"osm_id":"6746958345","tag":{"amenity":"recycling","recycling_type":"container"}},"type":"Feature"},
	{"geometry":{"coordinates":[4.040932,49.253241],"type":"Point"},"properties":{"name":"Verre","osm_id":"6781142382","tag":{"amenity":"recycling","recycling:glass_bottles":"yes","recycling_type":"container"}},"type":"Feature"},
	{"geometry":{"coordinates":[4.040447,49.251972],"type":"Point"},"properties":{"name":"Ordures M\u00c3\u00a9nag\u00c3\u00a8res et Emballages","osm_id":"6781173786","tag":{"amenity":"recycling","recycling:waste":"yes","recycling_type":"underfloor-container"}},"type":"Feature"},
	{"geometry":{"coordinates":[4.028306,49.258042],"type":"Point"},"properties":{"osm_id":"6795216355","tag":{"amenity":"waste_basket"}},"type":"Feature"},
	{"geometry":{"coordinates":[4.028438,49.258028],"type":"Point"},"properties":{"osm_id":"6795216356","tag":{"amenity":"waste_basket"}},"type":"Feature"},
	{"geometry":{"coordinates":[4.028262,49.257434],"type":"Point"},"properties":{"osm_id":"6795216366","tag":{"amenity":"waste_basket"}},"type":"Feature"},
	{"geometry":{"coordinates":[4.029,49.258118],"type":"Point"},"properties":{"osm_id":"6795517552","tag":{"amenity":"waste_basket"}},"type":"Feature"},
	{"geometry":{"coordinates":[4.029464,49.257979],"type":"Point"},"properties":{"osm_id":"6795539292","tag":{"amenity":"recycling","recycling:glass_bottles":"yes","recycling_type":"container"}},"type":"Feature"},
	{"geometry":{"coordinates":[4.029444,49.257962],"type":"Point"},"properties":{"osm_id":"6795539293","tag":{"amenity":"waste_basket"}},"type":"Feature"},
	{"geometry":{"coordinates":[4.022769,49.254678],"type":"Point"},"properties":{"osm_id":"6795720449","tag":{"amenity":"waste_basket"}},"type":"Feature"},
	{"geometry":{"coordinates":[4.022411,49.254054],"type":"Point"},"properties":{"osm_id":"6795720460","tag":{"amenity":"waste_basket"}},"type":"Feature"},
	{"geometry":{"coordinates":[4.022207,49.253544],"type":"Point"},"properties":{"osm_id":"6795763186","tag":{"amenity":"waste_basket"}},"type":"Feature"},
	{"geometry":{"coordinates":[4.022514,49.254959],"type":"Point"},"properties":{"osm_id":"6795832714","tag":{"amenity":"waste_basket"}},"type":"Feature"},
	{"geometry":{"coordinates":[4.023086,49.251625],"type":"Point"},"properties":{"osm_id":"6796687525","tag":{"amenity":"recycling","recycling:glass_bottles":"yes","recycling_type":"container"}},"type":"Feature"},
	{"geometry":{"coordinates":[4.022488,49.251268],"type":"Point"},"properties":{"osm_id":"6797289414","tag":{"amenity":"waste_basket"}},"type":"Feature"},
	{"geometry":{"coordinates":[4.023635,49.251706],"type":"Point"},"properties":{"osm_id":"6818259992","tag":{"amenity":"waste_basket"}},"type":"Feature"},
	{"geometry":{"coordinates":[4.023362,49.251631],"type":"Point"},"properties":{"osm_id":"6818259993","tag":{"amenity":"waste_basket"}},"type":"Feature"},
	{"geometry":{"coordinates":[4.023466,49.251506],"type":"Point"},"properties":{"osm_id":"6818259994","tag":{"amenity":"waste_basket"}},"type":"Feature"},
	{"geometry":{"coordinates":[4.023346,49.251752],"type":"Point"},"properties":{"osm_id":"6818259995","tag":{"amenity":"waste_basket"}},"type":"Feature"},
	{"geometry":{"coordinates":[4.023637,49.253725],"type":"Point"},"properties":{"osm_id":"6823484648","tag":{"amenity":"waste_basket"}},"type":"Feature"},
	{"geometry":{"coordinates":[4.019198,49.239798],"type":"Point"},"properties":{"osm_id":"6943654361","tag":{"amenity":"recycling","recycling_type":"container"}},"type":"Feature"},
	{"geometry":{"coordinates":[4.019225,49.239782],"type":"Point"},"properties":{"osm_id":"6943654362","tag":{"amenity":"recycling","recycling_type":"container"}},"type":"Feature"},
	{"geometry":{"coordinates":[4.02024,49.239113],"type":"Point"},"properties":{"osm_id":"6943654398","tag":{"amenity":"recycling","recycling_type":"container"}},"type":"Feature"},
	{"geometry":{"coordinates":[4.020264,49.239096],"type":"Point"},"properties":{"osm_id":"6943654399","tag":{"amenity":"recycling","recycling_type":"container"}},"type":"Feature"},
	{"geometry":{"coordinates":[4.016064,49.224647],"type":"Point"},"properties":{"osm_id":"6961539376","tag":{"amenity":"waste_disposal","recycling_type":"container"}},"type":"Feature"},
	{"geometry":{"coordinates":[4.016088,49.22466],"type":"Point"},"properties":{"osm_id":"6961595813","tag":{"amenity":"waste_disposal","recycling_type":"container"}},"type":"Feature"},
	{"geometry":{"coordinates":[4.016217,49.224684],"type":"Point"},"properties":{"osm_id":"6961595814","tag":{"amenity":"waste_disposal","recycling_type":"container"}},"type":"Feature"},
	{"geometry":{"coordinates":[4.016246,49.224689],"type":"Point"},"properties":{"osm_id":"6961595815","tag":{"amenity":"waste_disposal","recycling_type":"container"}},"type":"Feature"},
	{"geometry":{"coordinates":[4.016699,49.224476],"type":"Point"},"properties":{"osm_id":"6961595816","tag":{"amenity":"waste_disposal","recycling_type":"container"}},"type":"Feature"},
	{"geometry":{"coordinates":[4.0167,49.224455],"type":"Point"},"properties":{"osm_id":"6961595817","tag":{"amenity":"waste_disposal","recycling_type":"container"}},"type":"Feature"},
	{"geometry":{"coordinates":[4.016151,49.224368],"type":"Point"},"properties":{"osm_id":"6961595818","tag":{"amenity":"waste_disposal","recycling_type":"container"}},"type":"Feature"},
	{"geometry":{"coordinates":[4.016123,49.224355],"type":"Point"},"properties":{"osm_id":"6961595819","tag":{"amenity":"waste_disposal","recycling_type":"container"}},"type":"Feature"},
	{"geometry":{"coordinates":[4.016093,49.224353],"type":"Point"},"properties":{"osm_id":"6961595820","tag":{"amenity":"waste_disposal","recycling_type":"container"}},"type":"Feature"},
	{"geometry":{"coordinates":[4.015907,49.225579],"type":"Point"},"properties":{"osm_id":"6961595821","tag":{"amenity":"waste_disposal","recycling_type":"container"}},"type":"Feature"},
	{"geometry":{"coordinates":[4.015881,49.225571],"type":"Point"},"properties":{"osm_id":"6961595822","tag":{"amenity":"waste_disposal","recycling_type":"container"}},"type":"Feature"},
	{"geometry":{"coordinates":[4.015853,49.225563],"type":"Point"},"properties":{"osm_id":"6961595823","tag":{"amenity":"waste_disposal","recycling_type":"container"}},"type":"Feature"},
	{"geometry":{"coordinates":[4.016569,49.225739],"type":"Point"},"properties":{"osm_id":"6961595824","tag":{"amenity":"waste_disposal","recycling_type":"container"}},"type":"Feature"},
	{"geometry":{"coordinates":[4.016536,49.225744],"type":"Point"},"properties":{"osm_id":"6961595825","tag":{"amenity":"waste_disposal","recycling_type":"container"}},"type":"Feature"},
	{"geometry":{"coordinates":[4.016531,49.225727],"type":"Point"},"properties":{"osm_id":"6961595826","tag":{"amenity":"waste_disposal","recycling_type":"container"}},"type":"Feature"},
	{"geometry":{"coordinates":[4.016562,49.225721],"type":"Point"},"properties":{"osm_id":"6961595827","tag":{"amenity":"waste_disposal","recycling_type":"container"}},"type":"Feature"},
	{"geometry":{"coordinates":[4.017409,49.224995],"type":"Point"},"properties":{"osm_id":"6961595828","tag":{"amenity":"waste_disposal","recycling_type":"container"}},"type":"Feature"},
	{"geometry":{"coordinates":[4.017405,49.224978],"type":"Point"},"properties":{"osm_id":"6961595829","tag":{"amenity":"waste_disposal","recycling_type":"container"}},"type":"Feature"},
	{"geometry":{"coordinates":[4.0174,49.224957],"type":"Point"},"properties":{"osm_id":"6961595830","tag":{"amenity":"waste_disposal","recycling_type":"container"}},"type":"Feature"},
	{"geometry":{"coordinates":[4.015646,49.223984],"type":"Point"},"properties":{"osm_id":"6964508790","tag":{"amenity":"waste_disposal","recycling_type":"container"}},"type":"Feature"},
	{"geometry":{"coordinates":[4.015682,49.223979],"type":"Point"},"properties":{"osm_id":"6964508791","tag":{"amenity":"waste_disposal","recycling_type":"container"}},"type":"Feature"},
	{"geometry":{"coordinates":[4.015668,49.223943],"type":"Point"},"properties":{"osm_id":"6964508792","tag":{"amenity":"waste_disposal","recycling_type":"container"}},"type":"Feature"},
	{"geometry":{"coordinates":[4.015634,49.223948],"type":"Point"},"properties":{"osm_id":"6964508793","tag":{"amenity":"waste_disposal","recycling_type":"container"}},"type":"Feature"},
	{"geometry":{"coordinates":[4.016701,49.223577],"type":"Point"},"properties":{"osm_id":"6964508803","tag":{"amenity":"waste_disposal","recycling_type":"container"}},"type":"Feature"},
	{"geometry":{"coordinates":[4.016682,49.223566],"type":"Point"},"properties":{"osm_id":"6964508804","tag":{"amenity":"waste_disposal","recycling_type":"container"}},"type":"Feature"},
	{"geometry":{"coordinates":[4.016661,49.223558],"type":"Point"},"properties":{"osm_id":"6964508805","tag":{"amenity":"waste_disposal","recycling_type":"container"}},"type":"Feature"},
	{"geometry":{"coordinates":[4.016642,49.223547],"type":"Point"},"properties":{"osm_id":"6964508806","tag":{"amenity":"waste_disposal","recycling_type":"container"}},"type":"Feature"},
	{"geometry":{"coordinates":[4.016846,49.223674],"type":"Point"},"properties":{"osm_id":"6964508807","tag":{"amenity":"waste_disposal","recycling_type":"container"}},"type":"Feature"},
	{"geometry":{"coordinates":[4.016865,49.223685],"type":"Point"},"properties":{"osm_id":"6964508808","tag":{"amenity":"waste_disposal","recycling_type":"container"}},"type":"Feature"},
	{"geometry":{"coordinates":[4.016886,49.223693],"type":"Point"},"properties":{"osm_id":"6964508809","tag":{"amenity":"waste_disposal","recycling_type":"container"}},"type":"Feature"},
	{"geometry":{"coordinates":[4.016906,49.223705],"type":"Point"},"properties":{"osm_id":"6964508810","tag":{"amenity":"waste_disposal","recycling_type":"container"}},"type":"Feature"},
	{"geometry":{"coordinates":[4.041557,49.247037],"type":"Point"},"properties":{"name":"verre","osm_id":"6982165986","tag":{"amenity":"recycling","recycling:glass_bottles":"yes"}},"type":"Feature"},
	{"geometry":{"coordinates":[4.037482,49.246028],"type":"Point"},"properties":{"name":"verre","osm_id":"6984312587","tag":{"amenity":"recycling","recycling_type":"container"}},"type":"Feature"},
	{"geometry":{"coordinates":[4.040729,49.254395],"type":"Point"},"properties":{"name":"P27","osm_id":"6989818888","tag":{"amenity":"recycling","recycling:glass_bottles":"yes","recycling_type":"container"}},"type":"Feature"},
	{"geometry":{"coordinates":[4.039699,49.253554],"type":"Point"},"properties":{"name":"verre","osm_id":"6996283486","tag":{"amenity":"recycling","recycling:glass_bottles":"yes","recycling_type":"container"}},"type":"Feature"},
	{"geometry":{"coordinates":[4.041583,49.252117],"type":"Point"},"properties":{"name":"Verre","osm_id":"6996987085","tag":{"amenity":"recycling","recycling:glass_bottles":"yes","recycling_type":"container"}},"type":"Feature"},
	{"geometry":{"coordinates":[4.042208,49.246323],"type":"Point"},"properties":{"osm_id":"7012309689","tag":{"amenity":"recycling","recycling_type":"container"}},"type":"Feature"},
	{"geometry":{"coordinates":[4.037682,49.257622],"type":"Point"},"properties":{"osm_id":"7012366287","tag":{"amenity":"recycling","recycling:clothes":"yes","recycling_type":"container"}},"type":"Feature"},
	{"geometry":{"coordinates":[4.040477,49.255013],"type":"Point"},"properties":{"name":"EC 72702","osm_id":"7012397504","tag":{"amenity":"recycling","recycling:clothes":"yes","recycling_type":"container"}},"type":"Feature"},
	{"geometry":{"coordinates":[4.039497,49.245325],"type":"Point"},"properties":{"osm_id":"7015345582","tag":{"amenity":"recycling","recycling:glass_bottles":"yes","recycling_type":"container"}},"type":"Feature"},
	{"geometry":{"coordinates":[4.031202,49.245844],"type":"Point"},"properties":{"osm_id":"7020654366","tag":{"amenity":"waste_disposal"}},"type":"Feature"},
	{"geometry":{"coordinates":[4.031214,49.245825],"type":"Point"},"properties":{"osm_id":"7020654367","tag":{"amenity":"waste_disposal"}},"type":"Feature"},
	{"geometry":{"coordinates":[4.031226,49.245806],"type":"Point"},"properties":{"osm_id":"7020654368","tag":{"amenity":"waste_disposal"}},"type":"Feature"},
	{"geometry":{"coordinates":[4.03505,49.250838],"type":"Point"},"properties":{"name":"Verre P18","osm_id":"7031429691","tag":{"amenity":"recycling","recycling:glass_bottles":"yes","recycling_type":"container"}},"type":"Feature"},
	{"geometry":{"coordinates":[4.021893,49.264576],"type":"Point"},"properties":{"osm_id":"7040241922","tag":{"amenity":"waste_disposal"}},"type":"Feature"},
	{"geometry":{"coordinates":[4.02187,49.264568],"type":"Point"},"properties":{"osm_id":"7040241923","tag":{"amenity":"waste_disposal"}},"type":"Feature"},
	{"geometry":{"coordinates":[4.021847,49.264559],"type":"Point"},"properties":{"osm_id":"7040241924","tag":{"amenity":"waste_disposal"}},"type":"Feature"},
	{"geometry":{"coordinates":[4.03828,49.254702],"type":"Point"},"properties":{"osm_id":"7046748402","tag":{"amenity":"recycling"}},"type":"Feature"},
	{"geometry":{"coordinates":[4.040681,49.245295],"type":"Point"},"properties":{"name":"Composteur Partag\u00c3\u00a9","osm_id":"7078022174","tag":{"amenity":"recycling","recycling:organic_waste":"yes","recycling_type":"container"}},"type":"Feature"},
	{"geometry":{"coordinates":[4.034178,49.249674],"type":"Point"},"properties":{"osm_id":"7104204241","tag":{"access":"private","amenity":"waste_disposal","waste":"organic"}},"type":"Feature"},
	{"geometry":{"coordinates":[4.007384,49.231337],"type":"Point"},"properties":{"osm_id":"7125643327","tag":{"amenity":"waste_disposal","location":"underground","operator":"Grand Reims","start_date":"2013"}},"type":"Feature"},
	{"geometry":{"coordinates":[4.007358,49.231341],"type":"Point"},"properties":{"osm_id":"7125643328","tag":{"amenity":"waste_disposal","location":"underground","operator":"Grand Reims","start_date":"2013"}},"type":"Feature"},
	{"geometry":{"coordinates":[4.007409,49.231331],"type":"Point"},"properties":{"osm_id":"7125643329","tag":{"amenity":"waste_disposal","location":"underground","operator":"Grand Reims","start_date":"2013"}},"type":"Feature"},
	{"geometry":{"coordinates":[4.007868,49.23129],"type":"Point"},"properties":{"osm_id":"7125643371","tag":{"amenity":"waste_disposal","location":"underground","operator":"Grand Reims","start_date":"2013"}},"type":"Feature"},
	{"geometry":{"coordinates":[4.007898,49.231288],"type":"Point"},"properties":{"osm_id":"7125643372","tag":{"amenity":"waste_disposal","location":"underground","operator":"Grand Reims","start_date":"2013"}},"type":"Feature"},
	{"geometry":{"coordinates":[4.008218,49.231239],"type":"Point"},"properties":{"osm_id":"7125643373","tag":{"amenity":"waste_disposal","location":"underground","operator":"Grand Reims","start_date":"2013"}},"type":"Feature"},
	{"geometry":{"coordinates":[4.008241,49.231227],"type":"Point"},"properties":{"osm_id":"7125643374","tag":{"amenity":"waste_disposal","location":"underground","operator":"Grand Reims","start_date":"2013"}},"type":"Feature"},
	{"geometry":{"coordinates":[4.008262,49.231216],"type":"Point"},"properties":{"osm_id":"7125643375","tag":{"amenity":"waste_disposal","location":"underground","operator":"Grand Reims","start_date":"2013"}},"type":"Feature"},
	{"geometry":{"coordinates":[4.006992,49.230337],"type":"Point"},"properties":{"osm_id":"7126028577","tag":{"amenity":"waste_disposal","location":"underground","operator":"Grand Reims"}},"type":"Feature"},
	{"geometry":{"coordinates":[4.007012,49.230328],"type":"Point"},"properties":{"osm_id":"7126028578","tag":{"amenity":"waste_disposal","location":"underground","operator":"Grand Reims"}},"type":"Feature"},
	{"geometry":{"coordinates":[4.007031,49.230316],"type":"Point"},"properties":{"osm_id":"7126028579","tag":{"amenity":"waste_disposal","location":"underground","operator":"Grand Reims"}},"type":"Feature"},
	{"geometry":{"coordinates":[4.007045,49.230305],"type":"Point"},"properties":{"osm_id":"7126028580","tag":{"amenity":"waste_disposal","location":"underground","operator":"Grand Reims"}},"type":"Feature"},
	{"geometry":{"coordinates":[4.007748,49.230166],"type":"Point"},"properties":{"osm_id":"7126028581","tag":{"amenity":"waste_disposal","location":"underground","operator":"Grand Reims"}},"type":"Feature"},
	{"geometry":{"coordinates":[4.007718,49.230144],"type":"Point"},"properties":{"osm_id":"7126028582","tag":{"amenity":"waste_disposal","location":"underground","operator":"Grand Reims"}},"type":"Feature"},
	{"geometry":{"coordinates":[4.007733,49.230155],"type":"Point"},"properties":{"osm_id":"7126028583","tag":{"amenity":"waste_disposal","location":"underground","operator":"Grand Reims"}},"type":"Feature"},
	{"geometry":{"coordinates":[4.007931,49.230342],"type":"Point"},"properties":{"osm_id":"7126028584","tag":{"amenity":"waste_disposal","location":"underground","operator":"Grand Reims"}},"type":"Feature"},
	{"geometry":{"coordinates":[4.007912,49.230332],"type":"Point"},"properties":{"osm_id":"7126047385","tag":{"amenity":"waste_disposal","location":"underground","operator":"Grand Reims"}},"type":"Feature"},
	{"geometry":{"coordinates":[4.007892,49.230318],"type":"Point"},"properties":{"osm_id":"7126047386","tag":{"amenity":"waste_disposal","location":"underground","operator":"Grand Reims"}},"type":"Feature"},
	{"geometry":{"coordinates":[4.041596,49.249822],"type":"Point"},"properties":{"osm_id":"7215629155","tag":{"amenity":"recycling","recycling:glass_bottles":"yes","recycling_type":"container"}},"type":"Feature"},
	{"geometry":{"coordinates":[4.026608,49.213655],"type":"Point"},"properties":{"osm_id":"7216140612","tag":{"amenity":"recycling","recycling:glass_bottles":"yes","recycling_type":"container"}},"type":"Feature"},
	{"geometry":{"coordinates":[4.026601,49.2137],"type":"Point"},"properties":{"osm_id":"7216140613","tag":{"amenity":"recycling","recycling:clothes":"yes","recycling_type":"container"}},"type":"Feature"},
	{"geometry":{"coordinates":[4.024315,49.224288],"type":"Point"},"properties":{"osm_id":"7216764733","tag":{"amenity":"recycling","recycling:glass":"yes","recycling_type":"container"}},"type":"Feature"},
	{"geometry":{"coordinates":[4.032689,49.226906],"type":"Point"},"properties":{"osm_id":"7218185089","tag":{"amenity":"recycling","recycling:clothes":"yes","recycling_type":"container"}},"type":"Feature"},
	{"geometry":{"coordinates":[4.032773,49.226757],"type":"Point"},"properties":{"osm_id":"7218185090","tag":{"amenity":"recycling","recycling:glass":"yes","recycling_type":"container"}},"type":"Feature"},
	{"geometry":{"coordinates":[4.041394,49.244691],"type":"Point"},"properties":{"osm_id":"7229911481","tag":{"amenity":"recycling","recycling:glass_bottles":"yes","recycling_type":"container"}},"type":"Feature"},
	{"geometry":{"coordinates":[4.031655,49.258824],"type":"Point"},"properties":{"osm_id":"7234729985","tag":{"amenity":"recycling","recycling:glass_bottles":"yes","recycling_type":"container"}},"type":"Feature"},
	{"geometry":{"coordinates":[3.99891,49.247363],"type":"Point"},"properties":{"osm_id":"7242442583","tag":{"amenity":"recycling","recycling:clothes":"yes","recycling_type":"container"}},"type":"Feature"},
	{"geometry":{"coordinates":[3.998776,49.247123],"type":"Point"},"properties":{"osm_id":"7242486387","tag":{"amenity":"recycling","recycling:glass_bottles":"yes","recycling_type":"container"}},"type":"Feature"},
	{"geometry":{"coordinates":[3.998806,49.247125],"type":"Point"},"properties":{"osm_id":"7242486389","tag":{"amenity":"recycling","recycling:glass_bottles":"yes","recycling_type":"container"}},"type":"Feature"},
	{"geometry":{"coordinates":[4.008818,49.246094],"type":"Point"},"properties":{"osm_id":"7242759973","tag":{"amenity":"recycling","recycling:glass_bottles":"yes","recycling_type":"container"}},"type":"Feature"},
	{"geometry":{"coordinates":[4.028931,49.248156],"type":"Point"},"properties":{"osm_id":"7247662579","tag":{"amenity":"recycling","recycling:glass_bottles":"yes","recycling_type":"container"}},"type":"Feature"},
	{"geometry":{"coordinates":[4.021341,49.243862],"type":"Point"},"properties":{"osm_id":"7247780339","tag":{"amenity":"recycling","recycling:glass_bottles":"yes","recycling_type":"container"}},"type":"Feature"},
	{"geometry":{"coordinates":[4.01367,49.245004],"type":"Point"},"properties":{"osm_id":"7248426467","tag":{"amenity":"recycling","recycling:glass_bottles":"yes","recycling_type":"container"}},"type":"Feature"},
	{"geometry":{"coordinates":[4.00282,49.239863],"type":"Point"},"properties":{"osm_id":"7253069865","tag":{"amenity":"recycling","recycling:glass_bottles":"yes","recycling_type":"container"}},"type":"Feature"},
	{"geometry":{"coordinates":[4.002825,49.239823],"type":"Point"},"properties":{"osm_id":"7253069866","tag":{"amenity":"recycling","recycling:clothes":"yes","recycling_type":"container"}},"type":"Feature"},
	{"geometry":{"coordinates":[4.019287,49.260578],"type":"Point"},"properties":{"osm_id":"7255463642","tag":{"amenity":"recycling","recycling:clothes":"yes","recycling_type":"container"}},"type":"Feature"},
	{"geometry":{"coordinates":[4.019303,49.260557],"type":"Point"},"properties":{"osm_id":"7255463643","tag":{"amenity":"recycling","recycling:glass_bottles":"yes","recycling_type":"container"}},"type":"Feature"},
	{"geometry":{"coordinates":[4.015105,49.260428],"type":"Point"},"properties":{"osm_id":"7257730501","tag":{"amenity":"recycling","recycling:glass_bottles":"yes","recycling_type":"container"}},"type":"Feature"},
	{"geometry":{"coordinates":[4.014457,49.261961],"type":"Point"},"properties":{"osm_id":"7257755058","tag":{"amenity":"recycling","recycling:glass_bottles":"yes","recycling_type":"container"}},"type":"Feature"},
	{"geometry":{"coordinates":[3.990353,49.242635],"type":"Point"},"properties":{"osm_id":"7260718562","tag":{"amenity":"recycling","recycling:glass_bottles":"yes","recycling_type":"container"}},"type":"Feature"},
	{"geometry":{"coordinates":[4.030884,49.265613],"type":"Point"},"properties":{"osm_id":"7264058427","tag":{"amenity":"waste_basket","material":"steel"}},"type":"Feature"},
	{"geometry":{"coordinates":[4.030474,49.266504],"type":"Point"},"properties":{"osm_id":"7265842113","tag":{"amenity":"waste_basket"}},"type":"Feature"},
	{"geometry":{"coordinates":[4.02464,49.26709],"type":"Point"},"properties":{"osm_id":"7265842115","tag":{"amenity":"waste_basket"}},"type":"Feature"},
	{"geometry":{"coordinates":[4.027497,49.266483],"type":"Point"},"properties":{"osm_id":"7265842117","tag":{"amenity":"waste_basket"}},"type":"Feature"},
	{"geometry":{"coordinates":[4.031516,49.267187],"type":"Point"},"properties":{"osm_id":"7265842119","tag":{"amenity":"waste_basket"}},"type":"Feature"},
	{"geometry":{"coordinates":[4.025217,49.266465],"type":"Point"},"properties":{"osm_id":"7265842121","tag":{"amenity":"waste_basket"}},"type":"Feature"},
	{"geometry":{"coordinates":[4.030169,49.266859],"type":"Point"},"properties":{"osm_id":"7265842123","tag":{"amenity":"waste_basket"}},"type":"Feature"},
	{"geometry":{"coordinates":[4.026473,49.265424],"type":"Point"},"properties":{"osm_id":"7265842126","tag":{"amenity":"waste_basket"}},"type":"Feature"},
	{"geometry":{"coordinates":[4.03059,49.266499],"type":"Point"},"properties":{"osm_id":"7265842128","tag":{"amenity":"waste_basket"}},"type":"Feature"},
	{"geometry":{"coordinates":[4.025047,49.266969],"type":"Point"},"properties":{"osm_id":"7265842130","tag":{"amenity":"waste_basket"}},"type":"Feature"},
	{"geometry":{"coordinates":[4.027471,49.266845],"type":"Point"},"properties":{"osm_id":"7265842132","tag":{"amenity":"waste_basket"}},"type":"Feature"},
	{"geometry":{"coordinates":[4.032,49.267766],"type":"Point"},"properties":{"osm_id":"7265842134","tag":{"amenity":"waste_basket"}},"type":"Feature"},
	{"geometry":{"coordinates":[4.025556,49.266331],"type":"Point"},"properties":{"osm_id":"7265842136","tag":{"amenity":"waste_basket"}},"type":"Feature"},
	{"geometry":{"coordinates":[4.030101,49.266372],"type":"Point"},"properties":{"osm_id":"7265842138","tag":{"amenity":"waste_basket"}},"type":"Feature"},
	{"geometry":{"coordinates":[4.024909,49.267231],"type":"Point"},"properties":{"osm_id":"7265842140","tag":{"amenity":"waste_basket"}},"type":"Feature"},
	{"geometry":{"coordinates":[4.027119,49.266052],"type":"Point"},"properties":{"osm_id":"7265842142","tag":{"amenity":"waste_basket"}},"type":"Feature"},
	{"geometry":{"coordinates":[4.025297,49.266613],"type":"Point"},"properties":{"osm_id":"7265842146","tag":{"amenity":"waste_basket"}},"type":"Feature"},
	{"geometry":{"coordinates":[4.029791,49.266733],"type":"Point"},"properties":{"osm_id":"7265842148","tag":{"amenity":"waste_basket"}},"type":"Feature"},
	{"geometry":{"coordinates":[4.027364,49.251379],"type":"Point"},"properties":{"osm_id":"7266477527","tag":{"amenity":"recycling","recycling:glass_bottles":"yes","recycling_type":"container"}},"type":"Feature"},
	{"geometry":{"coordinates":[4.027853,49.234236],"type":"Point"},"properties":{"osm_id":"7271446693","tag":{"amenity":"recycling","recycling:glass_bottles":"yes","recycling_type":"container"}},"type":"Feature"},
	{"geometry":{"coordinates":[4.027859,49.23433],"type":"Point"},"properties":{"osm_id":"7271446694","tag":{"amenity":"recycling","recycling:clothes":"yes","recycling_type":"container"}},"type":"Feature"},
	{"geometry":{"coordinates":[4.018949,49.232024],"type":"Point"},"properties":{"osm_id":"7275091424","tag":{"amenity":"recycling","recycling:clothes":"yes","recycling_type":"container"}},"type":"Feature"},
	{"geometry":{"coordinates":[4.032932,49.260769],"type":"Point"},"properties":{"osm_id":"7279333722","tag":{"amenity":"recycling","recycling:clothes":"yes","recycling_type":"container"}},"type":"Feature"},
	{"geometry":{"coordinates":[4.032986,49.260776],"type":"Point"},"properties":{"osm_id":"7279333723","tag":{"amenity":"recycling","recycling:glass_bottles":"yes","recycling_type":"container"}},"type":"Feature"},
	{"geometry":{"coordinates":[4.034283,49.264154],"type":"Point"},"properties":{"osm_id":"7279481983","tag":{"amenity":"recycling","recycling:glass_bottles":"yes","recycling_type":"container"}},"type":"Feature"},
	{"geometry":{"coordinates":[4.010208,49.224526],"type":"Point"},"properties":{"osm_id":"7280028027","tag":{"amenity":"recycling","recycling:glass_bottles":"yes","recycling_type":"container"}},"type":"Feature"},
	{"geometry":{"coordinates":[4.01445,49.222925],"type":"Point"},"properties":{"osm_id":"7280622404","tag":{"amenity":"recycling","recycling:glass_bottles":"yes","recycling_type":"container"}},"type":"Feature"},
	{"geometry":{"coordinates":[4.014477,49.222923],"type":"Point"},"properties":{"osm_id":"7280622405","tag":{"amenity":"recycling","recycling:clothes":"yes","recycling_type":"container"}},"type":"Feature"},
	{"geometry":{"coordinates":[4.013014,49.267545],"type":"Point"},"properties":{"osm_id":"7284900633","tag":{"amenity":"recycling","recycling:glass_bottles":"yes","recycling_type":"container"}},"type":"Feature"},
	{"geometry":{"coordinates":[4.012991,49.26753],"type":"Point"},"properties":{"osm_id":"7284900634","tag":{"amenity":"recycling","recycling:clothes":"yes","recycling_type":"container"}},"type":"Feature"},
	{"geometry":{"coordinates":[4.005921,49.240788],"type":"Point"},"properties":{"osm_id":"7295089780","tag":{"amenity":"recycling","recycling:clothes":"yes","recycling_type":"container"}},"type":"Feature"},
	{"geometry":{"coordinates":[4.005935,49.240815],"type":"Point"},"properties":{"osm_id":"7295089781","tag":{"amenity":"recycling","recycling:glass_bottles":"yes","recycling_type":"container"}},"type":"Feature"},
	{"geometry":{"coordinates":[4.005837,49.227235],"type":"Point"},"properties":{"osm_id":"7296463682","tag":{"amenity":"recycling","recycling:glass_bottles":"yes","recycling_type":"container"}},"type":"Feature"},
	{"geometry":{"coordinates":[3.992675,49.247047],"type":"Point"},"properties":{"osm_id":"7297633292","tag":{"amenity":"recycling","recycling:clothes":"yes","recycling_type":"container"}},"type":"Feature"},
	{"geometry":{"coordinates":[4.014117,49.22577],"type":"Point"},"properties":{"osm_id":"7306779354","tag":{"amenity":"recycling","recycling:glass_bottles":"yes","recycling_type":"container"}},"type":"Feature"},
	{"geometry":{"coordinates":[4.003938,49.248365],"type":"Point"},"properties":{"osm_id":"7306944742","tag":{"amenity":"recycling","recycling:glass_bottles":"yes","recycling_type":"container"}},"type":"Feature"},
	{"geometry":{"coordinates":[4.002365,49.251928],"type":"Point"},"properties":{"osm_id":"7309077614","tag":{"amenity":"recycling","recycling:glass_bottles":"yes","recycling_type":"container"}},"type":"Feature"},
	{"geometry":{"coordinates":[4.002396,49.251923],"type":"Point"},"properties":{"osm_id":"7309077615","tag":{"amenity":"recycling","recycling:glass_bottles":"yes","recycling_type":"container"}},"type":"Feature"},
	{"geometry":{"coordinates":[4.01853,49.247615],"type":"Point"},"properties":{"osm_id":"7312325838","tag":{"amenity":"recycling","recycling:clothes":"yes","recycling_type":"container"}},"type":"Feature"},
	{"geometry":{"coordinates":[4.0185,49.247602],"type":"Point"},"properties":{"osm_id":"7312325839","tag":{"amenity":"recycling","recycling:glass_bottles":"yes","recycling_type":"container"}},"type":"Feature"},
	{"geometry":{"coordinates":[4.003377,49.231039],"type":"Point"},"properties":{"osm_id":"7313012807","tag":{"amenity":"recycling","recycling:glass_bottles":"yes","recycling_type":"container"}},"type":"Feature"},
	{"geometry":{"coordinates":[4.04242,49.225416],"type":"Point"},"properties":{"osm_id":"7313022350","tag":{"amenity":"recycling","recycling:glass_bottles":"yes","recycling_type":"container"}},"type":"Feature"},
	{"geometry":{"coordinates":[4.025852,49.267652],"type":"Point"},"properties":{"osm_id":"7313645317","tag":{"amenity":"recycling","recycling:clothes":"yes","recycling_type":"container"}},"type":"Feature"},
	{"geometry":{"coordinates":[4.022077,49.262567],"type":"Point"},"properties":{"osm_id":"7313735846","tag":{"amenity":"recycling","recycling:glass_bottles":"yes","recycling_type":"container"}},"type":"Feature"},
	{"geometry":{"coordinates":[4.030459,49.21999],"type":"Point"},"properties":{"osm_id":"7313768843","tag":{"amenity":"recycling","recycling:glass_bottles":"yes","recycling_type":"container"}},"type":"Feature"},
	{"geometry":{"coordinates":[4.020255,49.257818],"type":"Point"},"properties":{"osm_id":"7319246407","tag":{"amenity":"waste_disposal"}},"type":"Feature"},
	{"geometry":{"coordinates":[4.016692,49.241039],"type":"Point"},"properties":{"osm_id":"7322203113","tag":{"amenity":"recycling","recycling:glass_bottles":"yes","recycling_type":"container"}},"type":"Feature"},
	{"geometry":{"coordinates":[4.01667,49.241],"type":"Point"},"properties":{"osm_id":"7322203114","tag":{"amenity":"recycling","recycling:clothes":"yes","recycling_type":"container"}},"type":"Feature"},
	{"geometry":{"coordinates":[4.030624,49.213957],"type":"Point"},"properties":{"osm_id":"7324805315","tag":{"amenity":"recycling","recycling:glass_bottles":"yes","recycling_type":"container"}},"type":"Feature"},
	{"geometry":{"coordinates":[4.030643,49.213987],"type":"Point"},"properties":{"osm_id":"7324805316","tag":{"amenity":"recycling","recycling:clothes":"yes","recycling_type":"container"}},"type":"Feature"},
	{"geometry":{"coordinates":[4.026961,49.211018],"type":"Point"},"properties":{"osm_id":"7324955020","tag":{"amenity":"waste_disposal"}},"type":"Feature"},
	{"geometry":{"coordinates":[4.013018,49.249036],"type":"Point"},"properties":{"osm_id":"7328664987","tag":{"amenity":"recycling","recycling:glass_bottles":"yes","recycling_type":"container"}},"type":"Feature"},
	{"geometry":{"coordinates":[4.009397,49.250609],"type":"Point"},"properties":{"osm_id":"7328665006","tag":{"amenity":"recycling","recycling:glass_bottles":"yes","recycling_type":"container"}},"type":"Feature"},
	{"geometry":{"coordinates":[4.020814,49.265577],"type":"Point"},"properties":{"osm_id":"7328993932","tag":{"amenity":"recycling","recycling:glass_bottles":"yes","recycling_type":"container"}},"type":"Feature"},
	{"geometry":{"coordinates":[4.021996,49.266403],"type":"Point"},"properties":{"osm_id":"7329287514","tag":{"amenity":"recycling","recycling:glass_bottles":"yes","recycling_type":"container"}},"type":"Feature"},
	{"geometry":{"coordinates":[4.022061,49.26638],"type":"Point"},"properties":{"osm_id":"7329287515","tag":{"amenity":"recycling","recycling:paper":"yes","recycling_type":"container"}},"type":"Feature"},
	{"geometry":{"coordinates":[4.022007,49.266372],"type":"Point"},"properties":{"osm_id":"7329287516","tag":{"amenity":"recycling","recycling:waste":"yes","recycling_type":"container"}},"type":"Feature"},
	{"geometry":{"coordinates":[4.022053,49.266416],"type":"Point"},"properties":{"osm_id":"7329287517","tag":{"amenity":"recycling","recycling:waste":"yes","recycling_type":"container"}},"type":"Feature"},
	{"geometry":{"coordinates":[4.01548,49.249138],"type":"Point"},"properties":{"osm_id":"7332228948","tag":{"amenity":"recycling","recycling:clothes":"yes","recycling_type":"container"}},"type":"Feature"},
	{"geometry":{"coordinates":[4.015432,49.249143],"type":"Point"},"properties":{"osm_id":"7332228949","tag":{"amenity":"recycling","recycling:glass_bottles":"yes","recycling_type":"container"}},"type":"Feature"},
	{"geometry":{"coordinates":[4.015089,49.250319],"type":"Point"},"properties":{"osm_id":"7332249566","tag":{"amenity":"recycling","recycling:glass_bottles":"yes","recycling_type":"container"}},"type":"Feature"},
	{"geometry":{"coordinates":[4.02109,49.248946],"type":"Point"},"properties":{"osm_id":"7332278283","tag":{"amenity":"waste_basket"}},"type":"Feature"},
	{"geometry":{"coordinates":[4.021466,49.248942],"type":"Point"},"properties":{"osm_id":"7332625085","tag":{"amenity":"recycling","recycling:glass_bottles":"yes","recycling_type":"container"}},"type":"Feature"},
	{"geometry":{"coordinates":[4.010588,49.246762],"type":"Point"},"properties":{"osm_id":"7335047975","tag":{"amenity":"recycling","recycling:glass_bottles":"yes","recycling_type":"container"}},"type":"Feature"},
	{"geometry":{"coordinates":[4.035905,49.254736],"type":"Point"},"properties":{"osm_id":"7335855019","tag":{"amenity":"recycling","recycling:glass_bottles":"yes","recycling_type":"container"}},"type":"Feature"},
	{"geometry":{"coordinates":[4.03587,49.254747],"type":"Point"},"properties":{"osm_id":"7335855020","tag":{"amenity":"recycling","recycling:clothes":"yes","recycling_type":"container"}},"type":"Feature"},
	{"geometry":{"coordinates":[4.036879,49.254239],"type":"Point"},"properties":{"osm_id":"7335855026","tag":{"amenity":"recycling","recycling:glass_bottles":"yes","recycling_type":"container"}},"type":"Feature"},
	{"geometry":{"coordinates":[4.013915,49.247478],"type":"Point"},"properties":{"osm_id":"7340803534","tag":{"amenity":"recycling","recycling:glass_bottles":"yes","recycling_type":"container"}},"type":"Feature"},
	{"geometry":{"coordinates":[4.025388,49.215162],"type":"Point"},"properties":{"osm_id":"7342474904","tag":{"amenity":"waste_disposal"}},"type":"Feature"},
	{"geometry":{"coordinates":[4.025401,49.215239],"type":"Point"},"properties":{"osm_id":"7342474905","tag":{"amenity":"waste_disposal"}},"type":"Feature"},
	{"geometry":{"coordinates":[4.024443,49.216071],"type":"Point"},"properties":{"osm_id":"7342819435","tag":{"amenity":"recycling","recycling:clothes":"yes","recycling_type":"container"}},"type":"Feature"},
	{"geometry":{"coordinates":[4.024389,49.216058],"type":"Point"},"properties":{"osm_id":"7342819436","tag":{"amenity":"recycling","recycling:glass_bottles":"yes","recycling_type":"container"}},"type":"Feature"},
	{"geometry":{"coordinates":[4.033356,49.225413],"type":"Point"},"properties":{"osm_id":"7343098125","tag":{"amenity":"recycling","recycling:glass_bottles":"yes","recycling_type":"container"}},"type":"Feature"},
	{"geometry":{"coordinates":[4.035197,49.223869],"type":"Point"},"properties":{"osm_id":"7343397986","tag":{"amenity":"recycling","recycling:glass_bottles":"yes","recycling_type":"container"}},"type":"Feature"},
	{"geometry":{"coordinates":[4.035245,49.223876],"type":"Point"},"properties":{"osm_id":"7343397987","tag":{"amenity":"recycling","recycling:clothes":"yes","recycling_type":"container"}},"type":"Feature"},
	{"geometry":{"coordinates":[4.037477,49.22469],"type":"Point"},"properties":{"osm_id":"7343446283","tag":{"amenity":"recycling","recycling:glass_bottles":"yes","recycling_type":"container"}},"type":"Feature"},
	{"geometry":{"coordinates":[4.042092,49.220985],"type":"Point"},"properties":{"osm_id":"7346131621","tag":{"amenity":"recycling","recycling:clothes":"yes","recycling_type":"container"}},"type":"Feature"},
	{"geometry":{"coordinates":[4.042061,49.220983],"type":"Point"},"properties":{"osm_id":"7346131622","tag":{"amenity":"recycling","recycling:clothes":"yes","recycling_type":"container"}},"type":"Feature"},
	{"geometry":{"coordinates":[4.02175,49.262227],"type":"Point"},"properties":{"osm_id":"7350089236","tag":{"amenity":"waste_disposal"}},"type":"Feature"},
	{"geometry":{"coordinates":[4.021771,49.262226],"type":"Point"},"properties":{"osm_id":"7350089237","tag":{"amenity":"waste_disposal"}},"type":"Feature"},
	{"geometry":{"coordinates":[4.033211,49.237766],"type":"Point"},"properties":{"osm_id":"7352438122","tag":{"amenity":"waste_basket"}},"type":"Feature"},
	{"geometry":{"coordinates":[4.033754,49.237971],"type":"Point"},"properties":{"osm_id":"7352438123","tag":{"amenity":"waste_basket"}},"type":"Feature"},
	{"geometry":{"coordinates":[4.033401,49.237963],"type":"Point"},"properties":{"osm_id":"7352438124","tag":{"amenity":"waste_basket"}},"type":"Feature"},
	{"geometry":{"coordinates":[4.033397,49.23842],"type":"Point"},"properties":{"osm_id":"7352438125","tag":{"amenity":"recycling","recycling:glass_bottles":"yes","recycling_type":"container"}},"type":"Feature"},
	{"geometry":{"coordinates":[4.033375,49.238399],"type":"Point"},"properties":{"osm_id":"7352438126","tag":{"amenity":"recycling","recycling:clothes":"yes","recycling_type":"container"}},"type":"Feature"},
	{"geometry":{"coordinates":[4.033729,49.238284],"type":"Point"},"properties":{"osm_id":"7352438138","tag":{"amenity":"waste_basket"}},"type":"Feature"},
	{"geometry":{"coordinates":[4.019162,49.257494],"type":"Point"},"properties":{"osm_id":"7353534039","tag":{"amenity":"recycling","recycling:glass_bottles":"yes","recycling_type":"container"}},"type":"Feature"},
	{"geometry":{"coordinates":[4.019213,49.257395],"type":"Point"},"properties":{"osm_id":"7353534040","tag":{"amenity":"recycling","recycling:clothes":"yes","recycling_type":"container"}},"type":"Feature"},
	{"geometry":{"coordinates":[4.01943,49.257012],"type":"Point"},"properties":{"osm_id":"7353534052","tag":{"amenity":"waste_basket"}},"type":"Feature"},
	{"geometry":{"coordinates":[4.019569,49.256825],"type":"Point"},"properties":{"osm_id":"7353602016","tag":{"amenity":"recycling","recycling_type":"container"}},"type":"Feature"},
	{"geometry":{"coordinates":[4.007792,49.23626],"type":"Point"},"properties":{"osm_id":"7355127251","tag":{"amenity":"waste_disposal"}},"type":"Feature"},
	{"geometry":{"coordinates":[4.005949,49.236048],"type":"Point"},"properties":{"osm_id":"7356624855","tag":{"amenity":"recycling","recycling:glass_bottles":"yes","recycling_type":"container"}},"type":"Feature"},
	{"geometry":{"coordinates":[4.005986,49.236072],"type":"Point"},"properties":{"osm_id":"7356624856","tag":{"amenity":"recycling","recycling:clothes":"yes","recycling_type":"container"}},"type":"Feature"},
	{"geometry":{"coordinates":[4.012432,49.244978],"type":"Point"},"properties":{"osm_id":"7359483692","tag":{"amenity":"recycling","recycling:glass_bottles":"yes","recycling_type":"container"}},"type":"Feature"},
	{"geometry":{"coordinates":[4.012441,49.24496],"type":"Point"},"properties":{"osm_id":"7359483693","tag":{"amenity":"recycling","recycling:clothes":"yes","recycling_type":"container"}},"type":"Feature"},
	{"geometry":{"coordinates":[4.02383,49.212597],"type":"Point"},"properties":{"osm_id":"7374606147","tag":{"amenity":"waste_basket"}},"type":"Feature"},
	{"geometry":{"coordinates":[4.023557,49.21745],"type":"Point"},"properties":{"osm_id":"7398708180","tag":{"amenity":"recycling","recycling:clothes":"yes","recycling_type":"container"}},"type":"Feature"},
	{"geometry":{"coordinates":[4.023606,49.217456],"type":"Point"},"properties":{"osm_id":"7398708181","tag":{"amenity":"recycling","recycling:glass_bottles":"yes","recycling_type":"container"}},"type":"Feature"},
	{"geometry":{"coordinates":[4.019293,49.264622],"type":"Point"},"properties":{"osm_id":"7413171487","tag":{"amenity":"recycling","recycling:glass_bottles":"yes","recycling_type":"container"}},"type":"Feature"},
	{"geometry":{"coordinates":[4.030058,49.22191],"type":"Point"},"properties":{"osm_id":"7421820643","tag":{"amenity":"recycling","recycling:glass_bottles":"yes","recycling_type":"container"}},"type":"Feature"},
	{"geometry":{"coordinates":[4.019254,49.235572],"type":"Point"},"properties":{"osm_id":"7425788568","tag":{"amenity":"recycling","recycling:glass_bottles":"yes","recycling_type":"container"}},"type":"Feature"},
	{"geometry":{"coordinates":[4.012472,49.248038],"type":"Point"},"properties":{"osm_id":"7448541096","tag":{"amenity":"recycling","recycling:clothes":"yes","recycling_type":"container"}},"type":"Feature"},
	{"geometry":{"coordinates":[4.027048,49.24993],"type":"Point"},"properties":{"osm_id":"7464491114","tag":{"amenity":"recycling","recycling:clothes":"yes","recycling_type":"container"}},"type":"Feature"},
	{"geometry":{"coordinates":[4.033424,49.233183],"type":"Point"},"properties":{"osm_id":"7472896480","tag":{"amenity":"recycling","recycling:clothes":"yes","recycling_type":"container"}},"type":"Feature"},
	{"geometry":{"coordinates":[4.033424,49.23323],"type":"Point"},"properties":{"osm_id":"7472896481","tag":{"amenity":"recycling","recycling:glass_bottles":"yes","recycling_type":"container"}},"type":"Feature"},
	{"geometry":{"coordinates":[4.028885,49.265039],"type":"Point"},"properties":{"osm_id":"7526442299","tag":{"amenity":"recycling","recycling:clothes":"yes","recycling_type":"container"}},"type":"Feature"},
	{"geometry":{"coordinates":[4.028848,49.265025],"type":"Point"},"properties":{"osm_id":"7526442300","tag":{"amenity":"recycling","recycling:glass":"yes","recycling:glass_bottles":"yes","recycling_type":"container"}},"type":"Feature"},
	{"geometry":{"coordinates":[4.028804,49.265008],"type":"Point"},"properties":{"osm_id":"7526442301","tag":{"amenity":"waste_basket"}},"type":"Feature"},
	{"geometry":{"coordinates":[4.026652,49.265066],"type":"Point"},"properties":{"osm_id":"7536841053","tag":{"amenity":"waste_basket"}},"type":"Feature"},
	{"geometry":{"coordinates":[4.027446,49.262646],"type":"Point"},"properties":{"osm_id":"7536841054","tag":{"amenity":"waste_basket"}},"type":"Feature"},
	{"geometry":{"coordinates":[4.022226,49.260286],"type":"Point"},"properties":{"osm_id":"7536841055","tag":{"amenity":"waste_basket"}},"type":"Feature"},
	{"geometry":{"coordinates":[4.020181,49.265166],"type":"Point"},"properties":{"osm_id":"7536841056","tag":{"amenity":"waste_basket"}},"type":"Feature"},
	{"geometry":{"coordinates":[4.026724,49.262213],"type":"Point"},"properties":{"osm_id":"7536841057","tag":{"amenity":"waste_basket"}},"type":"Feature"},
	{"geometry":{"coordinates":[4.02268,49.260079],"type":"Point"},"properties":{"osm_id":"7536841058","tag":{"amenity":"waste_basket"}},"type":"Feature"},
	{"geometry":{"coordinates":[4.026202,49.265233],"type":"Point"},"properties":{"osm_id":"7536841059","tag":{"amenity":"waste_basket"}},"type":"Feature"},
	{"geometry":{"coordinates":[4.028311,49.263193],"type":"Point"},"properties":{"osm_id":"7536841060","tag":{"amenity":"waste_basket"}},"type":"Feature"},
	{"geometry":{"coordinates":[4.024615,49.260828],"type":"Point"},"properties":{"osm_id":"7536841061","tag":{"amenity":"waste_basket"}},"type":"Feature"},
	{"geometry":{"coordinates":[4.023381,49.260019],"type":"Point"},"properties":{"osm_id":"7536841062","tag":{"amenity":"waste_basket"}},"type":"Feature"},
	{"geometry":{"coordinates":[4.026905,49.262277],"type":"Point"},"properties":{"osm_id":"7536841063","tag":{"amenity":"waste_basket"}},"type":"Feature"},
	{"geometry":{"coordinates":[4.022398,49.260136],"type":"Point"},"properties":{"osm_id":"7536841064","tag":{"amenity":"waste_basket"}},"type":"Feature"},
	{"geometry":{"coordinates":[4.025283,49.265038],"type":"Point"},"properties":{"osm_id":"7536841065","tag":{"amenity":"waste_basket"}},"type":"Feature"},
	{"geometry":{"coordinates":[4.026675,49.26234],"type":"Point"},"properties":{"osm_id":"7536841066","tag":{"amenity":"waste_basket"}},"type":"Feature"},
	{"geometry":{"coordinates":[4.022701,49.259981],"type":"Point"},"properties":{"osm_id":"7536841067","tag":{"amenity":"waste_basket"}},"type":"Feature"},
	{"geometry":{"coordinates":[4.026263,49.265184],"type":"Point"},"properties":{"osm_id":"7536841068","tag":{"amenity":"waste_basket"}},"type":"Feature"},
	{"geometry":{"coordinates":[4.028026,49.262947],"type":"Point"},"properties":{"osm_id":"7536841069","tag":{"amenity":"waste_basket"}},"type":"Feature"},
	{"geometry":{"coordinates":[4.022463,49.260394],"type":"Point"},"properties":{"osm_id":"7536841070","tag":{"amenity":"waste_basket"}},"type":"Feature"},
	{"geometry":{"coordinates":[4.017258,49.265719],"type":"Point"},"properties":{"osm_id":"7536841071","tag":{"amenity":"waste_basket"}},"type":"Feature"},
	{"geometry":{"coordinates":[4.026763,49.26237],"type":"Point"},"properties":{"osm_id":"7536841072","tag":{"amenity":"waste_basket"}},"type":"Feature"},
	{"geometry":{"coordinates":[4.022542,49.260284],"type":"Point"},"properties":{"osm_id":"7536841073","tag":{"amenity":"waste_basket"}},"type":"Feature"},
	{"geometry":{"coordinates":[4.026029,49.26524],"type":"Point"},"properties":{"osm_id":"7536841074","tag":{"amenity":"waste_basket"}},"type":"Feature"},
	{"geometry":{"coordinates":[4.028536,49.263448],"type":"Point"},"properties":{"osm_id":"7536841075","tag":{"amenity":"waste_basket"}},"type":"Feature"},
	{"geometry":{"coordinates":[4.026277,49.262058],"type":"Point"},"properties":{"osm_id":"7536841076","tag":{"amenity":"waste_basket"}},"type":"Feature"},
	{"geometry":{"coordinates":[4.02281,49.259909],"type":"Point"},"properties":{"osm_id":"7536841077","tag":{"amenity":"waste_basket"}},"type":"Feature"},
	{"geometry":{"coordinates":[4.009204,49.264661],"type":"Point"},"properties":{"osm_id":"7550938960","tag":{"amenity":"recycling","recycling:clothes":"yes","recycling_type":"container"}},"type":"Feature"},
	{"geometry":{"coordinates":[4.009145,49.264667],"type":"Point"},"properties":{"osm_id":"7550938961","tag":{"amenity":"recycling","recycling:glass_bottles":"yes","recycling_type":"container"}},"type":"Feature"},
	{"geometry":{"coordinates":[4.031722,49.250732],"type":"Point"},"properties":{"osm_id":"7576050018","tag":{"amenity":"recycling","recycling:organic":"yes","recycling_type":"container"}},"type":"Feature"},
	{"geometry":{"coordinates":[3.976303,49.250262],"type":"Point"},"properties":{"osm_id":"7595955156","tag":{"amenity":"recycling","recycling:clothes":"yes","recycling_type":"container"}},"type":"Feature"},
	{"geometry":{"coordinates":[3.977212,49.250341],"type":"Point"},"properties":{"osm_id":"7596003335","tag":{"amenity":"recycling","recycling:glass_bottles":"yes","recycling_type":"container"}},"type":"Feature"},
	{"geometry":{"coordinates":[4.004354,49.263033],"type":"Point"},"properties":{"osm_id":"7798656223","tag":{"amenity":"recycling","recycling:glass_bottles":"yes","recycling_type":"container"}},"type":"Feature"},
	{"geometry":{"coordinates":[4.028628,49.260247],"type":"Point"},"properties":{"osm_id":"7813429778","tag":{"amenity":"waste_basket","start_date":"2019"}},"type":"Feature"},
	{"geometry":{"coordinates":[4.028978,49.26051],"type":"Point"},"properties":{"osm_id":"7813429779","tag":{"amenity":"waste_basket","start_date":"2019"}},"type":"Feature"},
	{"geometry":{"coordinates":[4.03694,49.245795],"type":"Point"},"properties":{"name":"Composteur Partag\u00c3\u00a9","osm_id":"7815974861","tag":{"amenity":"recycling","operator":"Composteur Partag\u00c3\u00a9","recycling:green_waste":"yes","recycling_type":"container"}},"type":"Feature"},
	{"geometry":{"coordinates":[4.031468,49.260576],"type":"Point"},"properties":{"name":"Composteur Partag\u00c3\u00a9","osm_id":"7816086302","tag":{"amenity":"recycling","recycling:organic":"yes","recycling_type":"container"}},"type":"Feature"},
	{"geometry":{"coordinates":[4.028638,49.260682],"type":"Point"},"properties":{"osm_id":"7822511574","tag":{"amenity":"waste_basket","start_date":"2019"}},"type":"Feature"},
	{"geometry":{"coordinates":[4.028342,49.260456],"type":"Point"},"properties":{"osm_id":"7822631323","tag":{"amenity":"waste_basket","start_date":"2019"}},"type":"Feature"},
	{"geometry":{"coordinates":[4.029438,49.260619],"type":"Point"},"properties":{"osm_id":"7823210348","tag":{"amenity":"waste_basket","start_date":"2019"}},"type":"Feature"},
	{"geometry":{"coordinates":[4.029148,49.260192],"type":"Point"},"properties":{"osm_id":"7823210365","tag":{"amenity":"waste_basket","start_date":"2019"}},"type":"Feature"},
	{"geometry":{"coordinates":[4.028964,49.260209],"type":"Point"},"properties":{"osm_id":"7823254823","tag":{"amenity":"waste_basket","start_date":"2019"}},"type":"Feature"},
	{"geometry":{"coordinates":[4.028703,49.260014],"type":"Point"},"properties":{"osm_id":"7823254825","tag":{"amenity":"waste_basket","start_date":"2019"}},"type":"Feature"},
	{"geometry":{"coordinates":[4.0296,49.246704],"type":"Point"},"properties":{"osm_id":"7840659647","tag":{"amenity":"waste_basket"}},"type":"Feature"},
	{"geometry":{"coordinates":[4.028513,49.247454],"type":"Point"},"properties":{"osm_id":"7842248118","tag":{"amenity":"waste_basket"}},"type":"Feature"},
	{"geometry":{"coordinates":[4.040819,49.237177],"type":"Point"},"properties":{"osm_id":"7843146107","tag":{"amenity":"recycling","recycling:glass_bottles":"yes","recycling_type":"container"}},"type":"Feature"},
	{"geometry":{"coordinates":[4.022071,49.254167],"type":"Point"},"properties":{"osm_id":"7850534566","tag":{"amenity":"recycling","operator":"Composteur partag\u00c3\u00a9","recycling:green_waste":"yes","recycling_type":"container"}},"type":"Feature"},
	{"geometry":{"coordinates":[4.018728,49.246325],"type":"Point"},"properties":{"osm_id":"7862210005","tag":{"amenity":"recycling","recycling:clothes":"yes","recycling_type":"container"}},"type":"Feature"},
	{"geometry":{"coordinates":[4.040834,49.252037],"type":"Point"},"properties":{"name":"Ordures M\u00c3\u00a9nag\u00c3\u00a8res et Emballages","osm_id":"7862608803","tag":{"amenity":"recycling","recycling:waste":"yes","recycling_type":"container"}},"type":"Feature"},
	{"geometry":{"coordinates":[4.005075,49.228944],"type":"Point"},"properties":{"osm_id":"7892579221","tag":{"amenity":"recycling","recycling:glass_bottles":"yes","recycling_type":"container"}},"type":"Feature"},
	{"geometry":{"coordinates":[4.042951,49.262522],"type":"Point"},"properties":{"osm_id":"7919523663","tag":{"amenity":"recycling","recycling:glass_bottles":"yes","recycling_type":"container"}},"type":"Feature"}
]
}
