{
"type": "FeatureCollection",
"features": [
	{"geometry":{"coordinates":[3.956215,48.978284],"type":"Point"},"properties":{"osm_id":"3730309258","tag":{"amenity":"recycling","recycling:cans":"yes","recycling:glass":"yes","recycling:paper":"yes","recycling:plastic":"yes","recycling_type":"container"}},"type":"Feature"},
	{"geometry":{"coordinates":[4.030747,48.975036],"type":"Point"},"properties":{"name":"Collecte du Verre","osm_id":"4298716752","tag":{"amenity":"recycling","recycling:clothes":"yes","recycling:glass":"yes"}},"type":"Feature"},
	{"geometry":{"coordinates":[3.963537,48.973989],"type":"Point"},"properties":{"osm_id":"4298716775","tag":{"amenity":"waste_basket"}},"type":"Feature"},
	{"geometry":{"coordinates":[3.962692,48.973063],"type":"Point"},"properties":{"osm_id":"4298716776","tag":{"amenity":"recycling","recycling:clothes":"yes"}},"type":"Feature"},
	{"geometry":{"coordinates":[4.038517,48.976628],"type":"Point"},"properties":{"osm_id":"4420490324","tag":{"amenity":"recycling","recycling:glass":"yes"}},"type":"Feature"},
	{"geometry":{"coordinates":[4.00993,48.971555],"type":"Point"},"properties":{"osm_id":"4420614978","tag":{"amenity":"recycling","recycling:glass":"yes","recycling_type":"container"}},"type":"Feature"},
	{"geometry":{"coordinates":[4.00997,48.971567],"type":"Point"},"properties":{"osm_id":"4420614979","tag":{"amenity":"waste_basket"}},"type":"Feature"},
	{"geometry":{"coordinates":[4.009896,48.97182],"type":"Point"},"properties":{"osm_id":"4420614980","tag":{"amenity":"waste_basket"}},"type":"Feature"},
	{"geometry":{"coordinates":[4.009959,48.971728],"type":"Point"},"properties":{"osm_id":"4420614981","tag":{"amenity":"waste_basket"}},"type":"Feature"},
	{"geometry":{"coordinates":[4.009828,48.972016],"type":"Point"},"properties":{"osm_id":"4420614982","tag":{"amenity":"waste_basket","description":"Sac pour d\u00c3\u00a9jection animale"}},"type":"Feature"},
	{"geometry":{"coordinates":[4.009766,48.971968],"type":"Point"},"properties":{"osm_id":"4420614984","tag":{"amenity":"recycling","recycling:clothes":"yes","recycling_type":"container"}},"type":"Feature"},
	{"geometry":{"coordinates":[4.0052,48.970999],"type":"Point"},"properties":{"osm_id":"4420615090","tag":{"amenity":"waste_basket"}},"type":"Feature"},
	{"geometry":{"coordinates":[4.00013,48.971854],"type":"Point"},"properties":{"osm_id":"4420615097","tag":{"amenity":"waste_basket"}},"type":"Feature"},
	{"geometry":{"coordinates":[4.000848,48.971605],"type":"Point"},"properties":{"osm_id":"4420615098","tag":{"amenity":"waste_basket"}},"type":"Feature"},
	{"geometry":{"coordinates":[4.013668,48.971424],"type":"Point"},"properties":{"osm_id":"4420637959","tag":{"amenity":"recycling","recycling:clothes":"yes","recycling:glass":"yes","recycling_type":"container"}},"type":"Feature"},
	{"geometry":{"coordinates":[4.013715,48.971447],"type":"Point"},"properties":{"osm_id":"4420637960","tag":{"amenity":"waste_basket"}},"type":"Feature"}
]
}
