{
"type": "FeatureCollection",
"features": [
	{"geometry":{"coordinates":[4.035913,45.984961],"type":"Point"},"properties":{"osm_id":"1881036914","tag":{"amenity":"recycling","recycling:beverage_cartons":"yes","recycling:glass":"yes","recycling:paper":"yes","recycling_type":"container"}},"type":"Feature"},
	{"geometry":{"coordinates":[4.034019,45.99179],"type":"Point"},"properties":{"osm_id":"1891892142","tag":{"amenity":"recycling","recycling_type":"container"}},"type":"Feature"},
	{"geometry":{"coordinates":[4.035807,46.00027],"type":"Point"},"properties":{"osm_id":"1891892398","tag":{"amenity":"recycling","recycling_type":"container"}},"type":"Feature"},
	{"geometry":{"coordinates":[4.023355,45.989909],"type":"Point"},"properties":{"osm_id":"1892748294","tag":{"amenity":"recycling","recycling:beverage_cartons":"yes","recycling:cans":"yes","recycling:glass":"yes","recycling:paper":"yes","recycling:plastic":"yes","recycling_type":"container"}},"type":"Feature"},
	{"geometry":{"coordinates":[4.034908,45.984207],"type":"Point"},"properties":{"osm_id":"6775067866","tag":{"amenity":"waste_basket"}},"type":"Feature"},
	{"geometry":{"coordinates":[4.034872,45.98404],"type":"Point"},"properties":{"osm_id":"6775067872","tag":{"amenity":"waste_basket"}},"type":"Feature"},
	{"geometry":{"coordinates":[4.035096,45.984542],"type":"Point"},"properties":{"osm_id":"6775067874","tag":{"amenity":"waste_basket"}},"type":"Feature"},
	{"geometry":{"coordinates":[4.035101,45.984252],"type":"Point"},"properties":{"osm_id":"6775067875","tag":{"amenity":"waste_basket"}},"type":"Feature"},
	{"geometry":{"coordinates":[4.034888,45.984425],"type":"Point"},"properties":{"osm_id":"6775067880","tag":{"amenity":"waste_basket"}},"type":"Feature"},
	{"geometry":{"coordinates":[4.033892,45.98413],"type":"Point"},"properties":{"osm_id":"6775077120","tag":{"amenity":"waste_basket"}},"type":"Feature"},
	{"geometry":{"coordinates":[4.033768,45.98408],"type":"Point"},"properties":{"osm_id":"6775077123","tag":{"amenity":"waste_basket"}},"type":"Feature"},
	{"geometry":{"coordinates":[4.034817,45.984707],"type":"Point"},"properties":{"osm_id":"6775082785","tag":{"amenity":"waste_basket"}},"type":"Feature"},
	{"geometry":{"coordinates":[4.034747,45.984291],"type":"Point"},"properties":{"osm_id":"6775082788","tag":{"amenity":"waste_basket"}},"type":"Feature"},
	{"geometry":{"coordinates":[4.036583,45.985062],"type":"Point"},"properties":{"osm_id":"6775098106","tag":{"amenity":"waste_basket"}},"type":"Feature"},
	{"geometry":{"coordinates":[4.036466,45.98492],"type":"Point"},"properties":{"osm_id":"6775098111","tag":{"amenity":"waste_basket"}},"type":"Feature"},
	{"geometry":{"coordinates":[4.036421,45.984642],"type":"Point"},"properties":{"osm_id":"6775098112","tag":{"amenity":"waste_basket"}},"type":"Feature"}
]
}
