{
"type": "FeatureCollection",
"features": [
	{"geometry":{"coordinates":[4.036595,45.198475],"type":"Point"},"properties":{"osm_id":"614840700","tag":{"amenity":"waste_basket"}},"type":"Feature"},
	{"geometry":{"coordinates":[3.984002,45.164353],"type":"Point"},"properties":{"osm_id":"4269971334","tag":{"amenity":"recycling","recycling_type":"container"}},"type":"Feature"},
	{"geometry":{"coordinates":[4.021298,45.160863],"type":"Point"},"properties":{"osm_id":"4271195345","tag":{"amenity":"recycling","recycling:glass_bottles":"yes","recycling:plastic_packaging":"yes","recycling_type":"container"}},"type":"Feature"},
	{"geometry":{"coordinates":[4.032645,45.205629],"type":"Point"},"properties":{"osm_id":"4358951338","tag":{"amenity":"recycling","recycling_type":"container"}},"type":"Feature"},
	{"geometry":{"coordinates":[4.017166,45.188253],"type":"Point"},"properties":{"osm_id":"5600085461","tag":{"amenity":"recycling","recycling:glass_bottles":"yes","recycling_type":"container"}},"type":"Feature"},
	{"geometry":{"coordinates":[4.031738,45.185237],"type":"Point"},"properties":{"osm_id":"5600085463","tag":{"amenity":"recycling","recycling:glass_bottles":"yes","recycling_type":"container"}},"type":"Feature"},
	{"geometry":{"coordinates":[4.039151,45.15134],"type":"Point"},"properties":{"osm_id":"6631971034","tag":{"amenity":"waste_basket"}},"type":"Feature"},
	{"geometry":{"coordinates":[3.997438,45.208619],"type":"Point"},"properties":{"osm_id":"7802151252","tag":{"access":"customers","amenity":"waste_disposal"}},"type":"Feature"}
]
}
