{
"type": "FeatureCollection",
"features": [
	{"geometry":{"coordinates":[10.702018,52.237006],"type":"Point"},"properties":{"highway":"turning_loop","osm_id":"271333319","tag":{"denotation":"single","leaf_cycle":"deciduous","leaf_type":"broadleaved","natural":"tree"}},"type":"Feature"},
	{"geometry":{"coordinates":[10.70166,52.235659],"type":"Point"},"properties":{"highway":"turning_loop","osm_id":"271333397","tag":{"denotation":"single","leaf_cycle":"deciduous","leaf_type":"broadleaved","natural":"tree"}},"type":"Feature"},
	{"geometry":{"coordinates":[10.700871,52.23687],"type":"Point"},"properties":{"highway":"turning_loop","osm_id":"271333412","tag":{"denotation":"single","leaf_cycle":"deciduous","leaf_type":"broadleaved","natural":"tree"}},"type":"Feature"},
	{"geometry":{"coordinates":[10.703121,52.237085],"type":"Point"},"properties":{"highway":"turning_loop","osm_id":"271333449","tag":{"denotation":"single","leaf_cycle":"deciduous","leaf_type":"broadleaved","natural":"tree"}},"type":"Feature"},
	{"geometry":{"coordinates":[10.700584,52.235591],"type":"Point"},"properties":{"highway":"turning_loop","osm_id":"271333451","tag":{"denotation":"single","leaf_cycle":"deciduous","leaf_type":"broadleaved","natural":"tree"}},"type":"Feature"},
	{"geometry":{"coordinates":[10.702747,52.235835],"type":"Point"},"properties":{"highway":"turning_loop","osm_id":"271333482","tag":{"denotation":"single","leaf_cycle":"deciduous","leaf_type":"broadleaved","natural":"tree"}},"type":"Feature"},
	{"geometry":{"coordinates":[10.70833,52.26124],"type":"Point"},"properties":{"name":"Friedenseiche","osm_id":"457417988","tag":{"natural":"tree","start_date":"1882"}},"type":"Feature"},
	{"geometry":{"coordinates":[10.63721,52.249839],"type":"Point"},"properties":{"osm_id":"560810715","tag":{"denotation":"avenue","natural":"tree"}},"type":"Feature"},
	{"geometry":{"coordinates":[10.639996,52.248861],"type":"Point"},"properties":{"osm_id":"560810718","tag":{"denotation":"avenue","natural":"tree"}},"type":"Feature"},
	{"geometry":{"coordinates":[10.639098,52.249201],"type":"Point"},"properties":{"osm_id":"560810740","tag":{"denotation":"avenue","natural":"tree"}},"type":"Feature"},
	{"geometry":{"coordinates":[10.63811,52.249551],"type":"Point"},"properties":{"osm_id":"560810778","tag":{"denotation":"avenue","natural":"tree"}},"type":"Feature"},
	{"geometry":{"coordinates":[10.710384,52.24133],"type":"Point"},"properties":{"osm_id":"779222250","tag":{"height":"5","leaf_type":"broadleaved","natural":"tree","species":"Catalpa bignonioides","species:de":"Trompetenbaum"}},"type":"Feature"},
	{"geometry":{"coordinates":[10.718997,52.251563],"type":"Point"},"properties":{"osm_id":"1126322718","tag":{"natural":"tree"}},"type":"Feature"},
	{"geometry":{"coordinates":[10.718654,52.253467],"type":"Point"},"properties":{"osm_id":"1126322721","tag":{"natural":"tree"}},"type":"Feature"},
	{"geometry":{"coordinates":[10.718172,52.25664],"type":"Point"},"properties":{"osm_id":"1126322725","tag":{"natural":"tree"}},"type":"Feature"},
	{"geometry":{"coordinates":[10.651797,52.248265],"type":"Point"},"properties":{"osm_id":"1782477541","tag":{"natural":"tree"}},"type":"Feature"},
	{"geometry":{"coordinates":[10.645337,52.251491],"type":"Point"},"properties":{"osm_id":"4038383678","tag":{"natural":"tree"}},"type":"Feature"},
	{"geometry":{"coordinates":[10.670107,52.232425],"type":"Point"},"properties":{"name":"Pilgereiche","osm_id":"4396454913","tag":{"natural":"tree"}},"type":"Feature"},
	{"geometry":{"coordinates":[10.700015,52.230265],"type":"Point"},"properties":{"osm_id":"5291943202","tag":{"natural":"tree"}},"type":"Feature"},
	{"geometry":{"coordinates":[10.701281,52.230524],"type":"Point"},"properties":{"osm_id":"5291943203","tag":{"natural":"tree"}},"type":"Feature"},
	{"geometry":{"coordinates":[10.701017,52.230563],"type":"Point"},"properties":{"osm_id":"5291943204","tag":{"natural":"tree"}},"type":"Feature"},
	{"geometry":{"coordinates":[10.701369,52.230364],"type":"Point"},"properties":{"osm_id":"5291943205","tag":{"natural":"tree"}},"type":"Feature"},
	{"geometry":{"coordinates":[10.700951,52.230672],"type":"Point"},"properties":{"osm_id":"5291943206","tag":{"natural":"tree"}},"type":"Feature"},
	{"geometry":{"coordinates":[10.700142,52.22991],"type":"Point"},"properties":{"osm_id":"5291943207","tag":{"natural":"tree"}},"type":"Feature"},
	{"geometry":{"coordinates":[10.700057,52.230016],"type":"Point"},"properties":{"osm_id":"5291943208","tag":{"natural":"tree"}},"type":"Feature"},
	{"geometry":{"coordinates":[10.699875,52.229844],"type":"Point"},"properties":{"osm_id":"5291943209","tag":{"natural":"tree"}},"type":"Feature"},
	{"geometry":{"coordinates":[10.70336,52.241605],"type":"Point"},"properties":{"osm_id":"5291943211","tag":{"natural":"tree"}},"type":"Feature"},
	{"geometry":{"coordinates":[10.706114,52.239276],"type":"Point"},"properties":{"osm_id":"5292228714","tag":{"natural":"tree"}},"type":"Feature"},
	{"geometry":{"coordinates":[10.677825,52.245996],"type":"Point"},"properties":{"osm_id":"5293981406","tag":{"natural":"tree"}},"type":"Feature"},
	{"geometry":{"coordinates":[10.67827,52.246174],"type":"Point"},"properties":{"osm_id":"5293981407","tag":{"natural":"tree"}},"type":"Feature"},
	{"geometry":{"coordinates":[10.678705,52.246168],"type":"Point"},"properties":{"osm_id":"5293981408","tag":{"natural":"tree"}},"type":"Feature"},
	{"geometry":{"coordinates":[10.678265,52.245998],"type":"Point"},"properties":{"osm_id":"5293981409","tag":{"natural":"tree"}},"type":"Feature"},
	{"geometry":{"coordinates":[10.678707,52.245991],"type":"Point"},"properties":{"osm_id":"5293981410","tag":{"natural":"tree"}},"type":"Feature"},
	{"geometry":{"coordinates":[10.679156,52.246003],"type":"Point"},"properties":{"osm_id":"5293981411","tag":{"natural":"tree"}},"type":"Feature"},
	{"geometry":{"coordinates":[10.679107,52.246164],"type":"Point"},"properties":{"osm_id":"5293981412","tag":{"natural":"tree"}},"type":"Feature"},
	{"geometry":{"coordinates":[10.679628,52.246167],"type":"Point"},"properties":{"osm_id":"5293981413","tag":{"natural":"tree"}},"type":"Feature"},
	{"geometry":{"coordinates":[10.67967,52.246014],"type":"Point"},"properties":{"osm_id":"5293981414","tag":{"natural":"tree"}},"type":"Feature"},
	{"geometry":{"coordinates":[10.680034,52.246012],"type":"Point"},"properties":{"osm_id":"5293981415","tag":{"natural":"tree"}},"type":"Feature"},
	{"geometry":{"coordinates":[10.679869,52.246168],"type":"Point"},"properties":{"osm_id":"5293981416","tag":{"natural":"tree"}},"type":"Feature"},
	{"geometry":{"coordinates":[10.680534,52.24603],"type":"Point"},"properties":{"osm_id":"5293981417","tag":{"natural":"tree"}},"type":"Feature"},
	{"geometry":{"coordinates":[10.680507,52.246182],"type":"Point"},"properties":{"osm_id":"5293981418","tag":{"natural":"tree"}},"type":"Feature"},
	{"geometry":{"coordinates":[10.680954,52.24603],"type":"Point"},"properties":{"osm_id":"5293981419","tag":{"natural":"tree"}},"type":"Feature"},
	{"geometry":{"coordinates":[10.681312,52.246025],"type":"Point"},"properties":{"osm_id":"5293981420","tag":{"natural":"tree"}},"type":"Feature"},
	{"geometry":{"coordinates":[10.681867,52.246025],"type":"Point"},"properties":{"osm_id":"5294031521","tag":{"natural":"tree"}},"type":"Feature"},
	{"geometry":{"coordinates":[10.682287,52.24603],"type":"Point"},"properties":{"osm_id":"5294031522","tag":{"natural":"tree"}},"type":"Feature"},
	{"geometry":{"coordinates":[10.681847,52.24617],"type":"Point"},"properties":{"osm_id":"5294031523","tag":{"natural":"tree"}},"type":"Feature"},
	{"geometry":{"coordinates":[10.682336,52.246181],"type":"Point"},"properties":{"osm_id":"5294031524","tag":{"natural":"tree"}},"type":"Feature"},
	{"geometry":{"coordinates":[10.682742,52.246186],"type":"Point"},"properties":{"osm_id":"5294031525","tag":{"natural":"tree"}},"type":"Feature"},
	{"geometry":{"coordinates":[10.682722,52.246037],"type":"Point"},"properties":{"osm_id":"5294031526","tag":{"natural":"tree"}},"type":"Feature"},
	{"geometry":{"coordinates":[10.683171,52.246047],"type":"Point"},"properties":{"osm_id":"5294031527","tag":{"natural":"tree"}},"type":"Feature"},
	{"geometry":{"coordinates":[10.683678,52.246045],"type":"Point"},"properties":{"osm_id":"5294031528","tag":{"natural":"tree"}},"type":"Feature"},
	{"geometry":{"coordinates":[10.684062,52.246058],"type":"Point"},"properties":{"osm_id":"5294031529","tag":{"natural":"tree"}},"type":"Feature"},
	{"geometry":{"coordinates":[10.684037,52.246199],"type":"Point"},"properties":{"osm_id":"5294031530","tag":{"natural":"tree"}},"type":"Feature"},
	{"geometry":{"coordinates":[10.683593,52.246189],"type":"Point"},"properties":{"osm_id":"5294031531","tag":{"natural":"tree"}},"type":"Feature"},
	{"geometry":{"coordinates":[10.684414,52.246063],"type":"Point"},"properties":{"osm_id":"5294031532","tag":{"natural":"tree"}},"type":"Feature"},
	{"geometry":{"coordinates":[10.684459,52.246197],"type":"Point"},"properties":{"osm_id":"5294031533","tag":{"natural":"tree"}},"type":"Feature"},
	{"geometry":{"coordinates":[10.685011,52.246214],"type":"Point"},"properties":{"osm_id":"5294031534","tag":{"natural":"tree"}},"type":"Feature"},
	{"geometry":{"coordinates":[10.68544,52.24621],"type":"Point"},"properties":{"osm_id":"5294031535","tag":{"natural":"tree"}},"type":"Feature"},
	{"geometry":{"coordinates":[10.685453,52.24607],"type":"Point"},"properties":{"osm_id":"5294031536","tag":{"natural":"tree"}},"type":"Feature"},
	{"geometry":{"coordinates":[10.684935,52.246054],"type":"Point"},"properties":{"osm_id":"5294031537","tag":{"natural":"tree"}},"type":"Feature"},
	{"geometry":{"coordinates":[10.685916,52.246237],"type":"Point"},"properties":{"osm_id":"5294031538","tag":{"natural":"tree"}},"type":"Feature"},
	{"geometry":{"coordinates":[10.685929,52.246076],"type":"Point"},"properties":{"osm_id":"5294031539","tag":{"natural":"tree"}},"type":"Feature"},
	{"geometry":{"coordinates":[10.686416,52.246077],"type":"Point"},"properties":{"osm_id":"5294031540","tag":{"natural":"tree"}},"type":"Feature"},
	{"geometry":{"coordinates":[10.686416,52.246237],"type":"Point"},"properties":{"osm_id":"5294031541","tag":{"natural":"tree"}},"type":"Feature"},
	{"geometry":{"coordinates":[10.68685,52.246239],"type":"Point"},"properties":{"osm_id":"5294031542","tag":{"natural":"tree"}},"type":"Feature"},
	{"geometry":{"coordinates":[10.686888,52.246085],"type":"Point"},"properties":{"osm_id":"5294031543","tag":{"natural":"tree"}},"type":"Feature"},
	{"geometry":{"coordinates":[10.688744,52.246252],"type":"Point"},"properties":{"osm_id":"5294031544","tag":{"natural":"tree"}},"type":"Feature"},
	{"geometry":{"coordinates":[10.6892,52.246268],"type":"Point"},"properties":{"osm_id":"5294031545","tag":{"natural":"tree"}},"type":"Feature"},
	{"geometry":{"coordinates":[10.689211,52.246123],"type":"Point"},"properties":{"osm_id":"5294031546","tag":{"natural":"tree"}},"type":"Feature"},
	{"geometry":{"coordinates":[10.689615,52.246284],"type":"Point"},"properties":{"osm_id":"5294031547","tag":{"natural":"tree"}},"type":"Feature"},
	{"geometry":{"coordinates":[10.690057,52.246297],"type":"Point"},"properties":{"osm_id":"5294031548","tag":{"natural":"tree"}},"type":"Feature"},
	{"geometry":{"coordinates":[10.689667,52.246132],"type":"Point"},"properties":{"osm_id":"5294031549","tag":{"natural":"tree"}},"type":"Feature"},
	{"geometry":{"coordinates":[10.6901,52.246141],"type":"Point"},"properties":{"osm_id":"5294031550","tag":{"natural":"tree"}},"type":"Feature"},
	{"geometry":{"coordinates":[10.690537,52.246145],"type":"Point"},"properties":{"osm_id":"5294031551","tag":{"natural":"tree"}},"type":"Feature"},
	{"geometry":{"coordinates":[10.690984,52.246163],"type":"Point"},"properties":{"osm_id":"5294031552","tag":{"natural":"tree"}},"type":"Feature"},
	{"geometry":{"coordinates":[10.691399,52.246164],"type":"Point"},"properties":{"osm_id":"5294031553","tag":{"natural":"tree"}},"type":"Feature"},
	{"geometry":{"coordinates":[10.691861,52.24617],"type":"Point"},"properties":{"osm_id":"5294031554","tag":{"natural":"tree"}},"type":"Feature"},
	{"geometry":{"coordinates":[10.691406,52.246305],"type":"Point"},"properties":{"osm_id":"5294031555","tag":{"natural":"tree"}},"type":"Feature"},
	{"geometry":{"coordinates":[10.691751,52.246323],"type":"Point"},"properties":{"osm_id":"5294031556","tag":{"natural":"tree"}},"type":"Feature"},
	{"geometry":{"coordinates":[10.692292,52.246327],"type":"Point"},"properties":{"osm_id":"5294031557","tag":{"natural":"tree"}},"type":"Feature"},
	{"geometry":{"coordinates":[10.69233,52.246177],"type":"Point"},"properties":{"osm_id":"5294031558","tag":{"natural":"tree"}},"type":"Feature"},
	{"geometry":{"coordinates":[10.692788,52.246175],"type":"Point"},"properties":{"osm_id":"5294031559","tag":{"natural":"tree"}},"type":"Feature"},
	{"geometry":{"coordinates":[10.693228,52.246182],"type":"Point"},"properties":{"osm_id":"5294031560","tag":{"natural":"tree"}},"type":"Feature"},
	{"geometry":{"coordinates":[10.693009,52.246338],"type":"Point"},"properties":{"osm_id":"5294031561","tag":{"natural":"tree"}},"type":"Feature"},
	{"geometry":{"coordinates":[10.693591,52.246351],"type":"Point"},"properties":{"osm_id":"5294031562","tag":{"natural":"tree"}},"type":"Feature"},
	{"geometry":{"coordinates":[10.69369,52.246206],"type":"Point"},"properties":{"osm_id":"5294031563","tag":{"natural":"tree"}},"type":"Feature"},
	{"geometry":{"coordinates":[10.694153,52.246196],"type":"Point"},"properties":{"osm_id":"5294031564","tag":{"natural":"tree"}},"type":"Feature"},
	{"geometry":{"coordinates":[10.694581,52.246204],"type":"Point"},"properties":{"osm_id":"5294031565","tag":{"natural":"tree"}},"type":"Feature"},
	{"geometry":{"coordinates":[10.694676,52.246351],"type":"Point"},"properties":{"osm_id":"5294031566","tag":{"natural":"tree"}},"type":"Feature"},
	{"geometry":{"coordinates":[10.695213,52.246359],"type":"Point"},"properties":{"osm_id":"5294031567","tag":{"natural":"tree"}},"type":"Feature"},
	{"geometry":{"coordinates":[10.695695,52.246214],"type":"Point"},"properties":{"osm_id":"5294031568","tag":{"natural":"tree"}},"type":"Feature"},
	{"geometry":{"coordinates":[10.696088,52.246217],"type":"Point"},"properties":{"osm_id":"5294031569","tag":{"natural":"tree"}},"type":"Feature"},
	{"geometry":{"coordinates":[10.69653,52.246228],"type":"Point"},"properties":{"osm_id":"5294031570","tag":{"natural":"tree"}},"type":"Feature"},
	{"geometry":{"coordinates":[10.696954,52.246262],"type":"Point"},"properties":{"osm_id":"5294031571","tag":{"natural":"tree"}},"type":"Feature"},
	{"geometry":{"coordinates":[10.697867,52.246382],"type":"Point"},"properties":{"osm_id":"5294031572","tag":{"natural":"tree"}},"type":"Feature"},
	{"geometry":{"coordinates":[10.698352,52.246469],"type":"Point"},"properties":{"osm_id":"5294031573","tag":{"natural":"tree"}},"type":"Feature"},
	{"geometry":{"coordinates":[10.699149,52.246784],"type":"Point"},"properties":{"osm_id":"5294031574","tag":{"natural":"tree"}},"type":"Feature"},
	{"geometry":{"coordinates":[10.699487,52.246863],"type":"Point"},"properties":{"osm_id":"5294031575","tag":{"natural":"tree"}},"type":"Feature"},
	{"geometry":{"coordinates":[10.699823,52.246936],"type":"Point"},"properties":{"osm_id":"5294031576","tag":{"natural":"tree"}},"type":"Feature"},
	{"geometry":{"coordinates":[10.6996,52.246708],"type":"Point"},"properties":{"osm_id":"5294031577","tag":{"natural":"tree"}},"type":"Feature"},
	{"geometry":{"coordinates":[10.700046,52.246798],"type":"Point"},"properties":{"osm_id":"5294031578","tag":{"natural":"tree"}},"type":"Feature"},
	{"geometry":{"coordinates":[10.700256,52.247022],"type":"Point"},"properties":{"osm_id":"5294031579","tag":{"natural":"tree"}},"type":"Feature"},
	{"geometry":{"coordinates":[10.70066,52.247102],"type":"Point"},"properties":{"osm_id":"5294031580","tag":{"natural":"tree"}},"type":"Feature"},
	{"geometry":{"coordinates":[10.701131,52.247214],"type":"Point"},"properties":{"osm_id":"5294031581","tag":{"natural":"tree"}},"type":"Feature"},
	{"geometry":{"coordinates":[10.700921,52.246961],"type":"Point"},"properties":{"osm_id":"5294031582","tag":{"natural":"tree"}},"type":"Feature"},
	{"geometry":{"coordinates":[10.700484,52.246872],"type":"Point"},"properties":{"osm_id":"5294031583","tag":{"natural":"tree"}},"type":"Feature"},
	{"geometry":{"coordinates":[10.695027,52.246212],"type":"Point"},"properties":{"osm_id":"5294031584","tag":{"natural":"tree"}},"type":"Feature"},
	{"geometry":{"coordinates":[10.701827,52.236627],"type":"Point"},"properties":{"osm_id":"5303196307","tag":{"denotation":"urban","leaf_cycle":"deciduous","leaf_type":"broadleaved","natural":"tree"}},"type":"Feature"},
	{"geometry":{"coordinates":[10.699765,52.238974],"type":"Point"},"properties":{"osm_id":"5306325261","tag":{"natural":"tree"}},"type":"Feature"},
	{"geometry":{"coordinates":[10.699418,52.238968],"type":"Point"},"properties":{"osm_id":"5306325262","tag":{"natural":"tree"}},"type":"Feature"},
	{"geometry":{"coordinates":[10.699011,52.238961],"type":"Point"},"properties":{"osm_id":"5306325263","tag":{"natural":"tree"}},"type":"Feature"},
	{"geometry":{"coordinates":[10.698978,52.239053],"type":"Point"},"properties":{"osm_id":"5306325264","tag":{"natural":"tree"}},"type":"Feature"},
	{"geometry":{"coordinates":[10.699357,52.239063],"type":"Point"},"properties":{"osm_id":"5306325265","tag":{"natural":"tree"}},"type":"Feature"},
	{"geometry":{"coordinates":[10.69868,52.238955],"type":"Point"},"properties":{"osm_id":"5306325266","tag":{"natural":"tree"}},"type":"Feature"},
	{"geometry":{"coordinates":[10.698292,52.238948],"type":"Point"},"properties":{"osm_id":"5306325267","tag":{"natural":"tree"}},"type":"Feature"},
	{"geometry":{"coordinates":[10.698288,52.239036],"type":"Point"},"properties":{"osm_id":"5306325268","tag":{"natural":"tree"}},"type":"Feature"},
	{"geometry":{"coordinates":[10.697964,52.238942],"type":"Point"},"properties":{"osm_id":"5306325269","tag":{"natural":"tree"}},"type":"Feature"},
	{"geometry":{"coordinates":[10.697577,52.238936],"type":"Point"},"properties":{"osm_id":"5306325270","tag":{"natural":"tree"}},"type":"Feature"},
	{"geometry":{"coordinates":[10.697577,52.239019],"type":"Point"},"properties":{"osm_id":"5306325271","tag":{"natural":"tree"}},"type":"Feature"},
	{"geometry":{"coordinates":[10.697232,52.23893],"type":"Point"},"properties":{"osm_id":"5306325272","tag":{"natural":"tree"}},"type":"Feature"},
	{"geometry":{"coordinates":[10.696837,52.238923],"type":"Point"},"properties":{"osm_id":"5306325273","tag":{"natural":"tree"}},"type":"Feature"},
	{"geometry":{"coordinates":[10.696903,52.239002],"type":"Point"},"properties":{"osm_id":"5306325274","tag":{"natural":"tree"}},"type":"Feature"},
	{"geometry":{"coordinates":[10.696481,52.238917],"type":"Point"},"properties":{"osm_id":"5306325275","tag":{"natural":"tree"}},"type":"Feature"},
	{"geometry":{"coordinates":[10.696098,52.23889],"type":"Point"},"properties":{"osm_id":"5306325276","tag":{"natural":"tree"}},"type":"Feature"},
	{"geometry":{"coordinates":[10.695755,52.238884],"type":"Point"},"properties":{"osm_id":"5306325277","tag":{"natural":"tree"}},"type":"Feature"},
	{"geometry":{"coordinates":[10.695386,52.238876],"type":"Point"},"properties":{"osm_id":"5306325278","tag":{"natural":"tree"}},"type":"Feature"},
	{"geometry":{"coordinates":[10.695354,52.238968],"type":"Point"},"properties":{"osm_id":"5306325279","tag":{"natural":"tree"}},"type":"Feature"},
	{"geometry":{"coordinates":[10.695006,52.238963],"type":"Point"},"properties":{"osm_id":"5306325280","tag":{"natural":"tree"}},"type":"Feature"},
	{"geometry":{"coordinates":[10.695024,52.238869],"type":"Point"},"properties":{"osm_id":"5306325281","tag":{"natural":"tree"}},"type":"Feature"},
	{"geometry":{"coordinates":[10.694646,52.238861],"type":"Point"},"properties":{"osm_id":"5306325282","tag":{"natural":"tree"}},"type":"Feature"},
	{"geometry":{"coordinates":[10.694638,52.238956],"type":"Point"},"properties":{"osm_id":"5306325283","tag":{"natural":"tree"}},"type":"Feature"},
	{"geometry":{"coordinates":[10.69428,52.238951],"type":"Point"},"properties":{"osm_id":"5306325284","tag":{"natural":"tree"}},"type":"Feature"},
	{"geometry":{"coordinates":[10.694296,52.238854],"type":"Point"},"properties":{"osm_id":"5306325285","tag":{"natural":"tree"}},"type":"Feature"},
	{"geometry":{"coordinates":[10.693917,52.238945],"type":"Point"},"properties":{"osm_id":"5306325286","tag":{"natural":"tree"}},"type":"Feature"},
	{"geometry":{"coordinates":[10.693933,52.238847],"type":"Point"},"properties":{"osm_id":"5306325287","tag":{"natural":"tree"}},"type":"Feature"},
	{"geometry":{"coordinates":[10.693554,52.23884],"type":"Point"},"properties":{"osm_id":"5306325288","tag":{"natural":"tree"}},"type":"Feature"},
	{"geometry":{"coordinates":[10.693207,52.238833],"type":"Point"},"properties":{"osm_id":"5306325289","tag":{"natural":"tree"}},"type":"Feature"},
	{"geometry":{"coordinates":[10.69282,52.238825],"type":"Point"},"properties":{"osm_id":"5306325290","tag":{"natural":"tree"}},"type":"Feature"},
	{"geometry":{"coordinates":[10.692453,52.238818],"type":"Point"},"properties":{"osm_id":"5306325291","tag":{"natural":"tree"}},"type":"Feature"},
	{"geometry":{"coordinates":[10.692105,52.238811],"type":"Point"},"properties":{"osm_id":"5306325292","tag":{"natural":"tree"}},"type":"Feature"},
	{"geometry":{"coordinates":[10.691729,52.238803],"type":"Point"},"properties":{"osm_id":"5306325293","tag":{"natural":"tree"}},"type":"Feature"},
	{"geometry":{"coordinates":[10.691359,52.238796],"type":"Point"},"properties":{"osm_id":"5306325294","tag":{"natural":"tree"}},"type":"Feature"},
	{"geometry":{"coordinates":[10.691003,52.238789],"type":"Point"},"properties":{"osm_id":"5306325295","tag":{"natural":"tree"}},"type":"Feature"},
	{"geometry":{"coordinates":[10.690635,52.238787],"type":"Point"},"properties":{"osm_id":"5306325296","tag":{"natural":"tree"}},"type":"Feature"},
	{"geometry":{"coordinates":[10.690265,52.23878],"type":"Point"},"properties":{"osm_id":"5306325297","tag":{"natural":"tree"}},"type":"Feature"},
	{"geometry":{"coordinates":[10.689907,52.238773],"type":"Point"},"properties":{"osm_id":"5306325298","tag":{"natural":"tree"}},"type":"Feature"},
	{"geometry":{"coordinates":[10.689568,52.238767],"type":"Point"},"properties":{"osm_id":"5306325299","tag":{"natural":"tree"}},"type":"Feature"},
	{"geometry":{"coordinates":[10.688817,52.238753],"type":"Point"},"properties":{"osm_id":"5306325300","tag":{"natural":"tree"}},"type":"Feature"},
	{"geometry":{"coordinates":[10.68844,52.238745],"type":"Point"},"properties":{"osm_id":"5306325301","tag":{"natural":"tree"}},"type":"Feature"},
	{"geometry":{"coordinates":[10.68802,52.238738],"type":"Point"},"properties":{"osm_id":"5306325302","tag":{"natural":"tree"}},"type":"Feature"},
	{"geometry":{"coordinates":[10.687705,52.238732],"type":"Point"},"properties":{"osm_id":"5306325303","tag":{"natural":"tree"}},"type":"Feature"},
	{"geometry":{"coordinates":[10.687326,52.238724],"type":"Point"},"properties":{"osm_id":"5306325304","tag":{"natural":"tree"}},"type":"Feature"},
	{"geometry":{"coordinates":[10.68663,52.238712],"type":"Point"},"properties":{"osm_id":"5306325305","tag":{"natural":"tree"}},"type":"Feature"},
	{"geometry":{"coordinates":[10.686192,52.238703],"type":"Point"},"properties":{"osm_id":"5306325306","tag":{"natural":"tree"}},"type":"Feature"},
	{"geometry":{"coordinates":[10.685874,52.238698],"type":"Point"},"properties":{"osm_id":"5306325307","tag":{"natural":"tree"}},"type":"Feature"},
	{"geometry":{"coordinates":[10.685513,52.238691],"type":"Point"},"properties":{"osm_id":"5306325308","tag":{"natural":"tree"}},"type":"Feature"},
	{"geometry":{"coordinates":[10.68513,52.238684],"type":"Point"},"properties":{"osm_id":"5306325309","tag":{"natural":"tree"}},"type":"Feature"},
	{"geometry":{"coordinates":[10.684782,52.238677],"type":"Point"},"properties":{"osm_id":"5306325310","tag":{"natural":"tree"}},"type":"Feature"},
	{"geometry":{"coordinates":[10.684385,52.23867],"type":"Point"},"properties":{"osm_id":"5306325311","tag":{"natural":"tree"}},"type":"Feature"},
	{"geometry":{"coordinates":[10.684041,52.238664],"type":"Point"},"properties":{"osm_id":"5306325312","tag":{"natural":"tree"}},"type":"Feature"},
	{"geometry":{"coordinates":[10.683688,52.238657],"type":"Point"},"properties":{"osm_id":"5306325313","tag":{"natural":"tree"}},"type":"Feature"},
	{"geometry":{"coordinates":[10.683162,52.238648],"type":"Point"},"properties":{"osm_id":"5306325314","tag":{"natural":"tree"}},"type":"Feature"},
	{"geometry":{"coordinates":[10.701936,52.236824],"type":"Point"},"properties":{"osm_id":"5306339633","tag":{"denotation":"urban","leaf_cycle":"deciduous","leaf_type":"broadleaved","natural":"tree"}},"type":"Feature"},
	{"geometry":{"coordinates":[10.701627,52.236238],"type":"Point"},"properties":{"osm_id":"5306339634","tag":{"denotation":"urban","leaf_cycle":"deciduous","leaf_type":"broadleaved","natural":"tree"}},"type":"Feature"},
	{"geometry":{"coordinates":[10.701467,52.23621],"type":"Point"},"properties":{"osm_id":"5306339635","tag":{"denotation":"urban","leaf_cycle":"deciduous","leaf_type":"broadleaved","natural":"tree"}},"type":"Feature"},
	{"geometry":{"coordinates":[10.701312,52.236186],"type":"Point"},"properties":{"osm_id":"5306339636","tag":{"denotation":"urban","leaf_cycle":"deciduous","leaf_type":"broadleaved","natural":"tree"}},"type":"Feature"},
	{"geometry":{"coordinates":[10.701166,52.23617],"type":"Point"},"properties":{"osm_id":"5306339637","tag":{"denotation":"urban","leaf_cycle":"deciduous","leaf_type":"broadleaved","natural":"tree"}},"type":"Feature"},
	{"geometry":{"coordinates":[10.701016,52.236162],"type":"Point"},"properties":{"osm_id":"5306339638","tag":{"denotation":"urban","leaf_cycle":"deciduous","leaf_type":"broadleaved","natural":"tree"}},"type":"Feature"},
	{"geometry":{"coordinates":[10.700856,52.236159],"type":"Point"},"properties":{"osm_id":"5306339639","tag":{"denotation":"urban","leaf_cycle":"deciduous","leaf_type":"broadleaved","natural":"tree"}},"type":"Feature"},
	{"geometry":{"coordinates":[10.700687,52.236343],"type":"Point"},"properties":{"osm_id":"5306339640","tag":{"denotation":"urban","leaf_cycle":"deciduous","leaf_type":"broadleaved","natural":"tree"}},"type":"Feature"},
	{"geometry":{"coordinates":[10.700785,52.236657],"type":"Point"},"properties":{"osm_id":"5306339641","tag":{"denotation":"urban","leaf_cycle":"deciduous","leaf_type":"broadleaved","natural":"tree"}},"type":"Feature"},
	{"geometry":{"coordinates":[10.700639,52.236059],"type":"Point"},"properties":{"osm_id":"5306339642","tag":{"denotation":"urban","leaf_cycle":"deciduous","leaf_type":"broadleaved","natural":"tree"}},"type":"Feature"},
	{"geometry":{"coordinates":[10.701714,52.235938],"type":"Point"},"properties":{"osm_id":"5306339643","tag":{"denotation":"urban","leaf_cycle":"deciduous","leaf_type":"broadleaved","natural":"tree"}},"type":"Feature"},
	{"geometry":{"coordinates":[10.701916,52.236292],"type":"Point"},"properties":{"osm_id":"5306339644","tag":{"denotation":"urban","leaf_cycle":"deciduous","leaf_type":"broadleaved","natural":"tree"}},"type":"Feature"},
	{"geometry":{"coordinates":[10.702167,52.236335],"type":"Point"},"properties":{"osm_id":"5306339645","tag":{"denotation":"urban","leaf_cycle":"deciduous","leaf_type":"broadleaved","natural":"tree"}},"type":"Feature"},
	{"geometry":{"coordinates":[10.702313,52.23636],"type":"Point"},"properties":{"osm_id":"5306339646","tag":{"denotation":"urban","leaf_cycle":"deciduous","leaf_type":"broadleaved","natural":"tree"}},"type":"Feature"},
	{"geometry":{"coordinates":[10.702452,52.23638],"type":"Point"},"properties":{"osm_id":"5306339647","tag":{"denotation":"urban","leaf_cycle":"deciduous","leaf_type":"broadleaved","natural":"tree"}},"type":"Feature"},
	{"geometry":{"coordinates":[10.70257,52.236398],"type":"Point"},"properties":{"osm_id":"5306339648","tag":{"denotation":"urban","leaf_cycle":"deciduous","leaf_type":"broadleaved","natural":"tree"}},"type":"Feature"},
	{"geometry":{"coordinates":[10.702721,52.23642],"type":"Point"},"properties":{"osm_id":"5306339649","tag":{"denotation":"urban","leaf_cycle":"deciduous","leaf_type":"broadleaved","natural":"tree"}},"type":"Feature"},
	{"geometry":{"coordinates":[10.70285,52.236281],"type":"Point"},"properties":{"osm_id":"5306339650","tag":{"denotation":"urban","leaf_cycle":"deciduous","leaf_type":"broadleaved","natural":"tree"}},"type":"Feature"},
	{"geometry":{"coordinates":[10.702793,52.236037],"type":"Point"},"properties":{"osm_id":"5306339651","tag":{"denotation":"urban","leaf_cycle":"deciduous","leaf_type":"broadleaved","natural":"tree"}},"type":"Feature"},
	{"geometry":{"coordinates":[10.703007,52.236435],"type":"Point"},"properties":{"osm_id":"5306339652","tag":{"denotation":"urban","leaf_cycle":"deciduous","leaf_type":"broadleaved","natural":"tree"}},"type":"Feature"},
	{"geometry":{"coordinates":[10.703229,52.236441],"type":"Point"},"properties":{"osm_id":"5306339653","tag":{"denotation":"urban","leaf_cycle":"deciduous","leaf_type":"broadleaved","natural":"tree"}},"type":"Feature"},
	{"geometry":{"coordinates":[10.702959,52.236723],"type":"Point"},"properties":{"osm_id":"5306339654","tag":{"denotation":"urban","leaf_cycle":"deciduous","leaf_type":"broadleaved","natural":"tree"}},"type":"Feature"},
	{"geometry":{"coordinates":[10.703942,52.236955],"type":"Point"},"properties":{"osm_id":"5306339655","tag":{"denotation":"urban","leaf_cycle":"deciduous","leaf_type":"broadleaved","natural":"tree"}},"type":"Feature"},
	{"geometry":{"coordinates":[10.702372,52.23034],"type":"Point"},"properties":{"osm_id":"5306433281","tag":{"leaf_cycle":"deciduous","leaf_type":"broadleaved","natural":"tree"}},"type":"Feature"},
	{"geometry":{"coordinates":[10.702503,52.230363],"type":"Point"},"properties":{"osm_id":"5306433282","tag":{"leaf_cycle":"deciduous","leaf_type":"broadleaved","natural":"tree"}},"type":"Feature"},
	{"geometry":{"coordinates":[10.702644,52.230395],"type":"Point"},"properties":{"osm_id":"5306433283","tag":{"leaf_cycle":"deciduous","leaf_type":"broadleaved","natural":"tree"}},"type":"Feature"},
	{"geometry":{"coordinates":[10.702246,52.230482],"type":"Point"},"properties":{"osm_id":"5306433284","tag":{"leaf_cycle":"deciduous","leaf_type":"broadleaved","natural":"tree"}},"type":"Feature"},
	{"geometry":{"coordinates":[10.70234,52.2305],"type":"Point"},"properties":{"osm_id":"5306433285","tag":{"leaf_cycle":"deciduous","leaf_type":"broadleaved","natural":"tree"}},"type":"Feature"},
	{"geometry":{"coordinates":[10.702452,52.230525],"type":"Point"},"properties":{"osm_id":"5306433286","tag":{"leaf_cycle":"deciduous","leaf_type":"broadleaved","natural":"tree"}},"type":"Feature"},
	{"geometry":{"coordinates":[10.702556,52.230538],"type":"Point"},"properties":{"osm_id":"5306433287","tag":{"leaf_cycle":"deciduous","leaf_type":"broadleaved","natural":"tree"}},"type":"Feature"},
	{"geometry":{"coordinates":[10.70221,52.230641],"type":"Point"},"properties":{"osm_id":"5306433288","tag":{"leaf_cycle":"deciduous","leaf_type":"broadleaved","natural":"tree"}},"type":"Feature"},
	{"geometry":{"coordinates":[10.702336,52.230664],"type":"Point"},"properties":{"osm_id":"5306433289","tag":{"leaf_cycle":"deciduous","leaf_type":"broadleaved","natural":"tree"}},"type":"Feature"},
	{"geometry":{"coordinates":[10.702478,52.230689],"type":"Point"},"properties":{"osm_id":"5306433290","tag":{"leaf_cycle":"deciduous","leaf_type":"broadleaved","natural":"tree"}},"type":"Feature"},
	{"geometry":{"coordinates":[10.702222,52.230795],"type":"Point"},"properties":{"osm_id":"5306433291","tag":{"leaf_cycle":"deciduous","leaf_type":"broadleaved","natural":"tree"}},"type":"Feature"},
	{"geometry":{"coordinates":[10.702122,52.230779],"type":"Point"},"properties":{"osm_id":"5306433292","tag":{"leaf_cycle":"deciduous","leaf_type":"broadleaved","natural":"tree"}},"type":"Feature"},
	{"geometry":{"coordinates":[10.702324,52.230818],"type":"Point"},"properties":{"osm_id":"5306433293","tag":{"leaf_cycle":"deciduous","leaf_type":"broadleaved","natural":"tree"}},"type":"Feature"},
	{"geometry":{"coordinates":[10.702324,52.230969],"type":"Point"},"properties":{"osm_id":"5306433294","tag":{"leaf_cycle":"deciduous","leaf_type":"broadleaved","natural":"tree"}},"type":"Feature"},
	{"geometry":{"coordinates":[10.701955,52.231061],"type":"Point"},"properties":{"osm_id":"5306433295","tag":{"leaf_cycle":"deciduous","leaf_type":"broadleaved","natural":"tree"}},"type":"Feature"},
	{"geometry":{"coordinates":[10.702365,52.231149],"type":"Point"},"properties":{"osm_id":"5306433296","tag":{"leaf_cycle":"deciduous","leaf_type":"broadleaved","natural":"tree"}},"type":"Feature"},
	{"geometry":{"coordinates":[10.706375,52.240946],"type":"Point"},"properties":{"osm_id":"5381261431","tag":{"natural":"tree"}},"type":"Feature"},
	{"geometry":{"coordinates":[10.720034,52.238315],"type":"Point"},"properties":{"osm_id":"5414749723","tag":{"natural":"tree"}},"type":"Feature"},
	{"geometry":{"coordinates":[10.710222,52.239375],"type":"Point"},"properties":{"osm_id":"5416753591","tag":{"natural":"tree"}},"type":"Feature"},
	{"geometry":{"coordinates":[10.710505,52.239281],"type":"Point"},"properties":{"osm_id":"5416753592","tag":{"natural":"tree"}},"type":"Feature"},
	{"geometry":{"coordinates":[10.707304,52.237102],"type":"Point"},"properties":{"osm_id":"5476147156","tag":{"natural":"tree"}},"type":"Feature"},
	{"geometry":{"coordinates":[10.707265,52.236964],"type":"Point"},"properties":{"osm_id":"5476147157","tag":{"natural":"tree"}},"type":"Feature"},
	{"geometry":{"coordinates":[10.707236,52.236859],"type":"Point"},"properties":{"osm_id":"5476147158","tag":{"natural":"tree"}},"type":"Feature"},
	{"geometry":{"coordinates":[10.707207,52.236754],"type":"Point"},"properties":{"osm_id":"5476147159","tag":{"natural":"tree"}},"type":"Feature"},
	{"geometry":{"coordinates":[10.707177,52.236649],"type":"Point"},"properties":{"osm_id":"5476147160","tag":{"natural":"tree"}},"type":"Feature"},
	{"geometry":{"coordinates":[10.707148,52.236544],"type":"Point"},"properties":{"osm_id":"5476147161","tag":{"natural":"tree"}},"type":"Feature"},
	{"geometry":{"coordinates":[10.707119,52.236439],"type":"Point"},"properties":{"osm_id":"5476147162","tag":{"natural":"tree"}},"type":"Feature"},
	{"geometry":{"coordinates":[10.70709,52.236334],"type":"Point"},"properties":{"osm_id":"5476147163","tag":{"natural":"tree"}},"type":"Feature"},
	{"geometry":{"coordinates":[10.707873,52.237157],"type":"Point"},"properties":{"osm_id":"5728662662","tag":{"natural":"tree"}},"type":"Feature"},
	{"geometry":{"coordinates":[10.705338,52.237155],"type":"Point"},"properties":{"osm_id":"6036434828","tag":{"leaf_type":"broadleaved","natural":"tree"}},"type":"Feature"},
	{"geometry":{"coordinates":[10.705597,52.237139],"type":"Point"},"properties":{"osm_id":"6036434829","tag":{"leaf_type":"broadleaved","natural":"tree"}},"type":"Feature"},
	{"geometry":{"coordinates":[10.68518,52.250893],"type":"Point"},"properties":{"osm_id":"6070212420","tag":{"natural":"tree"}},"type":"Feature"},
	{"geometry":{"coordinates":[10.700597,52.235912],"type":"Point"},"properties":{"osm_id":"6140192046","tag":{"denotation":"urban","leaf_cycle":"deciduous","leaf_type":"broadleaved","natural":"tree"}},"type":"Feature"},
	{"geometry":{"coordinates":[10.701367,52.236244],"type":"Point"},"properties":{"osm_id":"6140192050","tag":{"denotation":"urban","leaf_cycle":"deciduous","leaf_type":"broadleaved","natural":"tree"}},"type":"Feature"},
	{"geometry":{"coordinates":[10.702044,52.236315],"type":"Point"},"properties":{"osm_id":"6140192051","tag":{"denotation":"urban","leaf_cycle":"deciduous","leaf_type":"broadleaved","natural":"tree"}},"type":"Feature"},
	{"geometry":{"coordinates":[10.702344,52.236411],"type":"Point"},"properties":{"osm_id":"6140192052","tag":{"denotation":"urban","leaf_cycle":"deciduous","leaf_type":"broadleaved","natural":"tree"}},"type":"Feature"},
	{"geometry":{"coordinates":[10.703294,52.236495],"type":"Point"},"properties":{"osm_id":"6140192053","tag":{"denotation":"urban","leaf_cycle":"deciduous","leaf_type":"broadleaved","natural":"tree"}},"type":"Feature"},
	{"geometry":{"coordinates":[10.703406,52.236435],"type":"Point"},"properties":{"osm_id":"6140192054","tag":{"denotation":"urban","leaf_cycle":"deciduous","leaf_type":"broadleaved","natural":"tree"}},"type":"Feature"},
	{"geometry":{"coordinates":[10.702092,52.237773],"type":"Point"},"properties":{"osm_id":"6140320063","tag":{"denotation":"urban","leaf_type":"broadleaved","natural":"tree"}},"type":"Feature"},
	{"geometry":{"coordinates":[10.70465,52.238981],"type":"Point"},"properties":{"osm_id":"6167905424","tag":{"natural":"tree"}},"type":"Feature"},
	{"geometry":{"coordinates":[10.709688,52.240053],"type":"Point"},"properties":{"osm_id":"6294237815","ref":"1","tag":{"circumference":"4.2","diameter_crown":"21","genus":"Platanus","genus:de":"Platane","height":"35","leaf_type":"broadleaved","natural":"tree","species":"Platanus orientalis","species:de":"Morgenl\u00c3\u00a4ndische Platane"}},"type":"Feature"},
	{"geometry":{"coordinates":[10.709792,52.239983],"type":"Point"},"properties":{"osm_id":"6294237816","ref":"2","tag":{"circumference":"3.1","diameter_crown":"10","genus":"Quercus","genus:de":"Eiche","height":"31","leaf_type":"broadleaved","natural":"tree","species":"Quercus frainetto","species:de":"Ungarische Eiche"}},"type":"Feature"},
	{"geometry":{"coordinates":[10.709982,52.239906],"type":"Point"},"properties":{"osm_id":"6294237817","ref":"3","tag":{"circumference":"3.55","diameter_crown":"10.5","genus":"Liriodendron","genus:de":"Tulpenbaum","height":"30","leaf_type":"broadleaved","natural":"tree","species":"Liriodendron tulipifera"}},"type":"Feature"},
	{"geometry":{"coordinates":[10.709782,52.240521],"type":"Point"},"properties":{"osm_id":"6294237818","ref":"7","tag":{"genus":"Alnus","genus:de":"Erle","leaf_cycle":"deciduous","leaf_type":"broadleaved","natural":"tree","species":"Alnus glutinosa f. quercifolia","species:de":"Schwarzerle"}},"type":"Feature"},
	{"geometry":{"coordinates":[10.709957,52.240004],"type":"Point"},"properties":{"osm_id":"6294237819","ref":"4","tag":{"circumference":"5","diameter_crown":"21","genus":"Fagus","genus:de":"Buche","height":"31","leaf_type":"broadleaved","natural":"tree","species":"Fagus sylvatica f. purpurea","species:de":"Blutbuche"}},"type":"Feature"},
	{"geometry":{"coordinates":[10.709793,52.24026],"type":"Point"},"properties":{"osm_id":"6294237820","ref":"5","tag":{"circumference":"4.1","diameter_crown":"5","genus":"Ginkgo","genus:de":"Ginkgo","height":"28","natural":"tree","species":"Ginkgo biloba"}},"type":"Feature"},
	{"geometry":{"coordinates":[10.705511,52.241593],"type":"Point"},"properties":{"osm_id":"6295217903","tag":{"denotation":"avenue","leaf_cycle":"deciduous","leaf_type":"broadleaved","natural":"tree"}},"type":"Feature"},
	{"geometry":{"coordinates":[10.707041,52.241025],"type":"Point"},"properties":{"osm_id":"6295217904","tag":{"denotation":"avenue","leaf_cycle":"deciduous","leaf_type":"broadleaved","natural":"tree"}},"type":"Feature"},
	{"geometry":{"coordinates":[10.706939,52.241063],"type":"Point"},"properties":{"osm_id":"6295217905","tag":{"denotation":"avenue","leaf_cycle":"deciduous","leaf_type":"broadleaved","natural":"tree"}},"type":"Feature"},
	{"geometry":{"coordinates":[10.706835,52.2411],"type":"Point"},"properties":{"osm_id":"6295217906","tag":{"denotation":"avenue","leaf_cycle":"deciduous","leaf_type":"broadleaved","natural":"tree"}},"type":"Feature"},
	{"geometry":{"coordinates":[10.706729,52.241142],"type":"Point"},"properties":{"osm_id":"6295217907","tag":{"denotation":"avenue","leaf_cycle":"deciduous","leaf_type":"broadleaved","natural":"tree"}},"type":"Feature"},
	{"geometry":{"coordinates":[10.706621,52.241179],"type":"Point"},"properties":{"osm_id":"6295217908","tag":{"denotation":"avenue","leaf_cycle":"deciduous","leaf_type":"broadleaved","natural":"tree"}},"type":"Feature"},
	{"geometry":{"coordinates":[10.706496,52.241225],"type":"Point"},"properties":{"osm_id":"6295217909","tag":{"denotation":"avenue","leaf_cycle":"deciduous","leaf_type":"broadleaved","natural":"tree"}},"type":"Feature"},
	{"geometry":{"coordinates":[10.706386,52.241269],"type":"Point"},"properties":{"osm_id":"6295217910","tag":{"denotation":"avenue","leaf_cycle":"deciduous","leaf_type":"broadleaved","natural":"tree"}},"type":"Feature"},
	{"geometry":{"coordinates":[10.706275,52.241311],"type":"Point"},"properties":{"osm_id":"6295217911","tag":{"denotation":"avenue","leaf_cycle":"deciduous","leaf_type":"broadleaved","natural":"tree"}},"type":"Feature"},
	{"geometry":{"coordinates":[10.706165,52.24135],"type":"Point"},"properties":{"osm_id":"6295217912","tag":{"denotation":"avenue","leaf_cycle":"deciduous","leaf_type":"broadleaved","natural":"tree"}},"type":"Feature"},
	{"geometry":{"coordinates":[10.705742,52.241502],"type":"Point"},"properties":{"osm_id":"6295217913","tag":{"denotation":"avenue","leaf_cycle":"deciduous","leaf_type":"broadleaved","natural":"tree"}},"type":"Feature"},
	{"geometry":{"coordinates":[10.705411,52.241631],"type":"Point"},"properties":{"osm_id":"6295217914","tag":{"denotation":"avenue","leaf_cycle":"deciduous","leaf_type":"broadleaved","natural":"tree"}},"type":"Feature"},
	{"geometry":{"coordinates":[10.705306,52.24167],"type":"Point"},"properties":{"osm_id":"6295217915","tag":{"denotation":"avenue","leaf_cycle":"deciduous","leaf_type":"broadleaved","natural":"tree"}},"type":"Feature"},
	{"geometry":{"coordinates":[10.705197,52.241709],"type":"Point"},"properties":{"osm_id":"6295217916","tag":{"denotation":"avenue","leaf_cycle":"deciduous","leaf_type":"broadleaved","natural":"tree"}},"type":"Feature"},
	{"geometry":{"coordinates":[10.70509,52.241747],"type":"Point"},"properties":{"osm_id":"6295217917","tag":{"denotation":"avenue","leaf_cycle":"deciduous","leaf_type":"broadleaved","natural":"tree"}},"type":"Feature"},
	{"geometry":{"coordinates":[10.704975,52.241791],"type":"Point"},"properties":{"osm_id":"6295217918","tag":{"denotation":"avenue","leaf_cycle":"deciduous","leaf_type":"broadleaved","natural":"tree"}},"type":"Feature"},
	{"geometry":{"coordinates":[10.704872,52.241825],"type":"Point"},"properties":{"osm_id":"6295217919","tag":{"denotation":"avenue","leaf_cycle":"deciduous","leaf_type":"broadleaved","natural":"tree"}},"type":"Feature"},
	{"geometry":{"coordinates":[10.704771,52.241859],"type":"Point"},"properties":{"osm_id":"6295217920","tag":{"denotation":"avenue","leaf_cycle":"deciduous","leaf_type":"broadleaved","natural":"tree"}},"type":"Feature"},
	{"geometry":{"coordinates":[10.704652,52.241906],"type":"Point"},"properties":{"osm_id":"6295217921","tag":{"denotation":"avenue","leaf_cycle":"deciduous","leaf_type":"broadleaved","natural":"tree"}},"type":"Feature"},
	{"geometry":{"coordinates":[10.704436,52.241983],"type":"Point"},"properties":{"osm_id":"6295217922","tag":{"denotation":"avenue","leaf_cycle":"deciduous","leaf_type":"broadleaved","natural":"tree"}},"type":"Feature"},
	{"geometry":{"coordinates":[10.704331,52.242017],"type":"Point"},"properties":{"osm_id":"6295217923","tag":{"denotation":"avenue","leaf_cycle":"deciduous","leaf_type":"broadleaved","natural":"tree"}},"type":"Feature"},
	{"geometry":{"coordinates":[10.70423,52.242052],"type":"Point"},"properties":{"osm_id":"6295217924","tag":{"denotation":"avenue","leaf_cycle":"deciduous","leaf_type":"broadleaved","natural":"tree"}},"type":"Feature"},
	{"geometry":{"coordinates":[10.706978,52.240933],"type":"Point"},"properties":{"osm_id":"6295217925","tag":{"denotation":"avenue","leaf_cycle":"deciduous","leaf_type":"broadleaved","natural":"tree"}},"type":"Feature"},
	{"geometry":{"coordinates":[10.706867,52.240974],"type":"Point"},"properties":{"osm_id":"6295217926","tag":{"denotation":"avenue","leaf_cycle":"deciduous","leaf_type":"broadleaved","natural":"tree"}},"type":"Feature"},
	{"geometry":{"coordinates":[10.706748,52.241016],"type":"Point"},"properties":{"osm_id":"6295217927","tag":{"denotation":"avenue","leaf_cycle":"deciduous","leaf_type":"broadleaved","natural":"tree"}},"type":"Feature"},
	{"geometry":{"coordinates":[10.706642,52.241058],"type":"Point"},"properties":{"osm_id":"6295217928","tag":{"denotation":"avenue","leaf_cycle":"deciduous","leaf_type":"broadleaved","natural":"tree"}},"type":"Feature"},
	{"geometry":{"coordinates":[10.706539,52.241095],"type":"Point"},"properties":{"osm_id":"6295217929","tag":{"denotation":"avenue","leaf_cycle":"deciduous","leaf_type":"broadleaved","natural":"tree"}},"type":"Feature"},
	{"geometry":{"coordinates":[10.706425,52.241138],"type":"Point"},"properties":{"osm_id":"6295217930","tag":{"denotation":"avenue","leaf_cycle":"deciduous","leaf_type":"broadleaved","natural":"tree"}},"type":"Feature"},
	{"geometry":{"coordinates":[10.706319,52.241179],"type":"Point"},"properties":{"osm_id":"6295217931","tag":{"denotation":"avenue","leaf_cycle":"deciduous","leaf_type":"broadleaved","natural":"tree"}},"type":"Feature"},
	{"geometry":{"coordinates":[10.706214,52.241219],"type":"Point"},"properties":{"osm_id":"6295217932","tag":{"denotation":"avenue","leaf_cycle":"deciduous","leaf_type":"broadleaved","natural":"tree"}},"type":"Feature"},
	{"geometry":{"coordinates":[10.706108,52.241256],"type":"Point"},"properties":{"osm_id":"6295217933","tag":{"denotation":"avenue","leaf_cycle":"deciduous","leaf_type":"broadleaved","natural":"tree"}},"type":"Feature"},
	{"geometry":{"coordinates":[10.705992,52.241299],"type":"Point"},"properties":{"osm_id":"6295217934","tag":{"denotation":"avenue","leaf_cycle":"deciduous","leaf_type":"broadleaved","natural":"tree"}},"type":"Feature"},
	{"geometry":{"coordinates":[10.705777,52.241374],"type":"Point"},"properties":{"osm_id":"6295217935","tag":{"denotation":"avenue","leaf_cycle":"deciduous","leaf_type":"broadleaved","natural":"tree"}},"type":"Feature"},
	{"geometry":{"coordinates":[10.705562,52.241468],"type":"Point"},"properties":{"osm_id":"6295217936","tag":{"denotation":"avenue","leaf_cycle":"deciduous","leaf_type":"broadleaved","natural":"tree"}},"type":"Feature"},
	{"geometry":{"coordinates":[10.705461,52.241505],"type":"Point"},"properties":{"osm_id":"6295217937","tag":{"denotation":"avenue","leaf_cycle":"deciduous","leaf_type":"broadleaved","natural":"tree"}},"type":"Feature"},
	{"geometry":{"coordinates":[10.705354,52.241544],"type":"Point"},"properties":{"osm_id":"6295217938","tag":{"denotation":"avenue","leaf_cycle":"deciduous","leaf_type":"broadleaved","natural":"tree"}},"type":"Feature"},
	{"geometry":{"coordinates":[10.705126,52.241631],"type":"Point"},"properties":{"osm_id":"6295217939","tag":{"denotation":"avenue","leaf_cycle":"deciduous","leaf_type":"broadleaved","natural":"tree"}},"type":"Feature"},
	{"geometry":{"coordinates":[10.705025,52.241667],"type":"Point"},"properties":{"osm_id":"6295217940","tag":{"denotation":"avenue","leaf_cycle":"deciduous","leaf_type":"broadleaved","natural":"tree"}},"type":"Feature"},
	{"geometry":{"coordinates":[10.704911,52.241711],"type":"Point"},"properties":{"osm_id":"6295217941","tag":{"denotation":"avenue","leaf_cycle":"deciduous","leaf_type":"broadleaved","natural":"tree"}},"type":"Feature"},
	{"geometry":{"coordinates":[10.704806,52.241752],"type":"Point"},"properties":{"osm_id":"6295217942","tag":{"denotation":"avenue","leaf_cycle":"deciduous","leaf_type":"broadleaved","natural":"tree"}},"type":"Feature"},
	{"geometry":{"coordinates":[10.704703,52.241789],"type":"Point"},"properties":{"osm_id":"6295217943","tag":{"denotation":"avenue","leaf_cycle":"deciduous","leaf_type":"broadleaved","natural":"tree"}},"type":"Feature"},
	{"geometry":{"coordinates":[10.704595,52.241829],"type":"Point"},"properties":{"osm_id":"6295217944","tag":{"denotation":"avenue","leaf_cycle":"deciduous","leaf_type":"broadleaved","natural":"tree"}},"type":"Feature"},
	{"geometry":{"coordinates":[10.704485,52.241877],"type":"Point"},"properties":{"osm_id":"6295217945","tag":{"denotation":"avenue","leaf_cycle":"deciduous","leaf_type":"broadleaved","natural":"tree"}},"type":"Feature"},
	{"geometry":{"coordinates":[10.704364,52.241921],"type":"Point"},"properties":{"osm_id":"6295217946","tag":{"denotation":"avenue","leaf_cycle":"deciduous","leaf_type":"broadleaved","natural":"tree"}},"type":"Feature"},
	{"geometry":{"coordinates":[10.704232,52.241959],"type":"Point"},"properties":{"osm_id":"6295217947","tag":{"denotation":"avenue","leaf_cycle":"deciduous","leaf_type":"broadleaved","natural":"tree"}},"type":"Feature"},
	{"geometry":{"coordinates":[10.708368,52.241379],"type":"Point"},"properties":{"name":"Mammutbaum","osm_id":"7570871904","tag":{"denotation":"park","leaf_type":"needleleaved","natural":"tree"}},"type":"Feature"},
	{"geometry":{"coordinates":[10.711416,52.23979],"type":"Point"},"properties":{"name":"Mammutbaum","osm_id":"7570871905","tag":{"denotation":"park","leaf_type":"needleleaved","natural":"tree"}},"type":"Feature"},
	{"geometry":{"coordinates":[10.658158,52.214438],"type":"Point"},"properties":{"osm_id":"7786804124","tag":{"natural":"tree"}},"type":"Feature"}
]
}
