{
"type": "FeatureCollection",
"features": [
	{"geometry":{"coordinates":[-0.286353,52.575732],"type":"Point"},"properties":{"osm_id":"3152650517","tag":{"amenity":"waste_basket"}},"type":"Feature"},
	{"geometry":{"coordinates":[-0.283763,52.569771],"type":"Point"},"properties":{"osm_id":"3152678173","tag":{"amenity":"waste_basket"}},"type":"Feature"},
	{"geometry":{"coordinates":[-0.317596,52.549478],"type":"Point"},"properties":{"osm_id":"5009618671","tag":{"amenity":"waste_basket","waste":"dog_excrement"}},"type":"Feature"},
	{"geometry":{"coordinates":[-0.320857,52.548794],"type":"Point"},"properties":{"osm_id":"5009618841","tag":{"amenity":"waste_basket"}},"type":"Feature"},
	{"geometry":{"coordinates":[-0.315661,52.550281],"type":"Point"},"properties":{"osm_id":"5012089056","tag":{"amenity":"waste_basket"}},"type":"Feature"},
	{"geometry":{"coordinates":[-0.315533,52.550236],"type":"Point"},"properties":{"osm_id":"5012089057","tag":{"amenity":"waste_basket"}},"type":"Feature"},
	{"geometry":{"coordinates":[-0.315163,52.550229],"type":"Point"},"properties":{"osm_id":"5012089068","tag":{"amenity":"waste_basket","waste":"dog_excrement"}},"type":"Feature"},
	{"geometry":{"coordinates":[-0.310333,52.554031],"type":"Point"},"properties":{"osm_id":"5012089097","tag":{"amenity":"waste_basket"}},"type":"Feature"},
	{"geometry":{"coordinates":[-0.313758,52.5551],"type":"Point"},"properties":{"osm_id":"5012089105","tag":{"amenity":"waste_basket"}},"type":"Feature"},
	{"geometry":{"coordinates":[-0.31378,52.555235],"type":"Point"},"properties":{"osm_id":"5012089107","tag":{"amenity":"waste_basket"}},"type":"Feature"},
	{"geometry":{"coordinates":[-0.314022,52.555232],"type":"Point"},"properties":{"osm_id":"5012089109","tag":{"amenity":"waste_basket"}},"type":"Feature"},
	{"geometry":{"coordinates":[-0.314018,52.555249],"type":"Point"},"properties":{"osm_id":"5012089110","tag":{"amenity":"waste_basket"}},"type":"Feature"},
	{"geometry":{"coordinates":[-0.313993,52.555659],"type":"Point"},"properties":{"osm_id":"5012089643","tag":{"amenity":"waste_basket"}},"type":"Feature"},
	{"geometry":{"coordinates":[-0.314104,52.555655],"type":"Point"},"properties":{"osm_id":"5012089650","tag":{"amenity":"waste_basket"}},"type":"Feature"},
	{"geometry":{"coordinates":[-0.317077,52.554814],"type":"Point"},"properties":{"osm_id":"5012089676","tag":{"amenity":"waste_basket"}},"type":"Feature"},
	{"geometry":{"coordinates":[-0.281277,52.581099],"type":"Point"},"properties":{"osm_id":"5633463267","tag":{"amenity":"waste_basket"}},"type":"Feature"},
	{"geometry":{"coordinates":[-0.280692,52.581219],"type":"Point"},"properties":{"osm_id":"5633463274","tag":{"amenity":"waste_basket"}},"type":"Feature"},
	{"geometry":{"coordinates":[-0.280938,52.581285],"type":"Point"},"properties":{"osm_id":"5633463275","tag":{"amenity":"waste_basket","waste":"dog_excrement"}},"type":"Feature"},
	{"geometry":{"coordinates":[-0.315752,52.560931],"type":"Point"},"properties":{"osm_id":"5727307530","tag":{"amenity":"waste_basket","waste":"trash"}},"type":"Feature"},
	{"geometry":{"coordinates":[-0.299632,52.54128],"type":"Point"},"properties":{"osm_id":"5839846385","tag":{"amenity":"waste_basket"}},"type":"Feature"},
	{"geometry":{"coordinates":[-0.301177,52.5426],"type":"Point"},"properties":{"osm_id":"5860758515","tag":{"amenity":"waste_basket","level":"0"}},"type":"Feature"},
	{"geometry":{"coordinates":[-0.296548,52.541925],"type":"Point"},"properties":{"osm_id":"5884896459","tag":{"amenity":"waste_basket"}},"type":"Feature"},
	{"geometry":{"coordinates":[-0.297786,52.549397],"type":"Point"},"properties":{"osm_id":"5884897355","tag":{"amenity":"waste_basket"}},"type":"Feature"},
	{"geometry":{"coordinates":[-0.302797,52.542987],"type":"Point"},"properties":{"osm_id":"5893313615","tag":{"amenity":"waste_basket"}},"type":"Feature"},
	{"geometry":{"coordinates":[-0.292984,52.542129],"type":"Point"},"properties":{"osm_id":"5917139046","tag":{"amenity":"waste_basket"}},"type":"Feature"},
	{"geometry":{"coordinates":[-0.297871,52.541156],"type":"Point"},"properties":{"osm_id":"5917139072","tag":{"amenity":"waste_basket"}},"type":"Feature"},
	{"geometry":{"coordinates":[-0.293235,52.542169],"type":"Point"},"properties":{"osm_id":"5925975673","tag":{"amenity":"waste_basket"}},"type":"Feature"},
	{"geometry":{"coordinates":[-0.293295,52.542238],"type":"Point"},"properties":{"osm_id":"5925975680","tag":{"amenity":"waste_basket"}},"type":"Feature"},
	{"geometry":{"coordinates":[-0.279369,52.547072],"type":"Point"},"properties":{"osm_id":"6112907902","tag":{"amenity":"recycling","recycling:clothes":"yes","recycling_type":"container"}},"type":"Feature"},
	{"geometry":{"coordinates":[-0.279189,52.546664],"type":"Point"},"properties":{"osm_id":"6112907921","tag":{"amenity":"waste_basket"}},"type":"Feature"},
	{"geometry":{"coordinates":[-0.288866,52.548139],"type":"Point"},"properties":{"osm_id":"6123979140","tag":{"amenity":"waste_basket"}},"type":"Feature"},
	{"geometry":{"coordinates":[-0.302448,52.543991],"type":"Point"},"properties":{"osm_id":"6141216656","tag":{"amenity":"waste_basket"}},"type":"Feature"},
	{"geometry":{"coordinates":[-0.272298,52.543041],"type":"Point"},"properties":{"osm_id":"6175230204","tag":{"amenity":"waste_basket"}},"type":"Feature"},
	{"geometry":{"coordinates":[-0.30152,52.54324],"type":"Point"},"properties":{"osm_id":"6177420969","tag":{"amenity":"waste_basket"}},"type":"Feature"},
	{"geometry":{"coordinates":[-0.298944,52.543869],"type":"Point"},"properties":{"osm_id":"6177422289","tag":{"amenity":"waste_basket"}},"type":"Feature"},
	{"geometry":{"coordinates":[-0.304501,52.547712],"type":"Point"},"properties":{"osm_id":"6200651105","tag":{"amenity":"waste_basket"}},"type":"Feature"},
	{"geometry":{"coordinates":[-0.284659,52.54519],"type":"Point"},"properties":{"osm_id":"6268484219","tag":{"amenity":"waste_basket"}},"type":"Feature"},
	{"geometry":{"coordinates":[-0.277227,52.547261],"type":"Point"},"properties":{"osm_id":"6269339353","tag":{"amenity":"waste_basket"}},"type":"Feature"},
	{"geometry":{"coordinates":[-0.287437,52.543411],"type":"Point"},"properties":{"osm_id":"6290015404","tag":{"amenity":"waste_basket","waste":"dog_excrement"}},"type":"Feature"},
	{"geometry":{"coordinates":[-0.270294,52.54798],"type":"Point"},"properties":{"osm_id":"6303093398","tag":{"amenity":"waste_basket"}},"type":"Feature"},
	{"geometry":{"coordinates":[-0.304161,52.545379],"type":"Point"},"properties":{"osm_id":"6416619064","tag":{"amenity":"waste_basket","waste":"trash"}},"type":"Feature"},
	{"geometry":{"coordinates":[-0.282007,52.545566],"type":"Point"},"properties":{"osm_id":"6418408103","tag":{"amenity":"waste_basket","waste":"trash"}},"type":"Feature"},
	{"geometry":{"coordinates":[-0.264544,52.554943],"type":"Point"},"properties":{"osm_id":"6419627497","tag":{"amenity":"waste_basket","waste":"trash;plastic"}},"type":"Feature"},
	{"geometry":{"coordinates":[-0.302729,52.54288],"type":"Point"},"properties":{"osm_id":"6434246473","tag":{"amenity":"recycling","recycling:batteries":"yes","recycling_type":"container"}},"type":"Feature"},
	{"geometry":{"coordinates":[-0.278204,52.584338],"type":"Point"},"properties":{"osm_id":"6560952911","tag":{"amenity":"waste_basket"}},"type":"Feature"},
	{"geometry":{"coordinates":[-0.278591,52.584479],"type":"Point"},"properties":{"osm_id":"6560952913","tag":{"amenity":"waste_basket"}},"type":"Feature"},
	{"geometry":{"coordinates":[-0.303046,52.563509],"type":"Point"},"properties":{"osm_id":"7181790100","tag":{"amenity":"waste_basket"}},"type":"Feature"},
	{"geometry":{"coordinates":[-0.303092,52.563517],"type":"Point"},"properties":{"osm_id":"7181790101","tag":{"amenity":"recycling","recycling_type":"container"}},"type":"Feature"},
	{"geometry":{"coordinates":[-0.274559,52.566678],"type":"Point"},"properties":{"osm_id":"9053999786","tag":{"amenity":"waste_basket"}},"type":"Feature"},
	{"geometry":{"coordinates":[-0.277799,52.564262],"type":"Point"},"properties":{"osm_id":"9053999789","tag":{"amenity":"waste_basket"}},"type":"Feature"}
]
}
