{
"type": "FeatureCollection",
"features": [
	{"geometry":{"coordinates":[-0.339457,51.753271],"type":"Point"},"properties":{"osm_id":"17401946","tag":{"amenity":"recycling","recycling:clothes":"yes","recycling:glass_bottles":"yes","recycling:magazines":"yes","recycling:newspaper":"yes","recycling:shoes":"yes"}},"type":"Feature"},
	{"geometry":{"coordinates":[-0.338966,51.752897],"type":"Point"},"properties":{"osm_id":"17401947","tag":{"amenity":"recycling","recycling:cans":"yes","recycling:magazines":"yes","recycling:newspaper":"yes","recycling:plastic_bottles":"yes"}},"type":"Feature"},
	{"geometry":{"coordinates":[-0.313742,51.751423],"type":"Point"},"properties":{"osm_id":"17871039","tag":{"amenity":"recycling","recycling:books":"yes","recycling:cans":"yes","recycling:cardboard":"yes","recycling:clothes":"yes","recycling:glass_bottles":"yes","recycling:music":"yes","recycling:newspaper":"yes","recycling:plastic_bags":"yes","recycling:plastic_bottles":"yes","recycling:shoes":"yes"}},"type":"Feature"},
	{"geometry":{"coordinates":[-0.337259,51.752976],"type":"Point"},"properties":{"osm_id":"17959073","tag":{"amenity":"recycling","recycling:cans":"yes","recycling:magazines":"yes","recycling:newspaper":"yes","recycling:plastic_bottles":"yes"}},"type":"Feature"},
	{"geometry":{"coordinates":[-0.337214,51.753434],"type":"Point"},"properties":{"osm_id":"17959078","tag":{"amenity":"recycling","recycling:cans":"yes","recycling:magazines":"yes","recycling:newspaper":"yes","recycling:plastic_bottles":"yes"}},"type":"Feature"},
	{"geometry":{"coordinates":[-0.303167,51.756456],"type":"Point"},"properties":{"osm_id":"21426032","tag":{"amenity":"recycling","recycling:cans":"yes","recycling:magazines":"yes","recycling:newspaper":"yes","recycling:plastic_bottles":"yes"}},"type":"Feature"},
	{"geometry":{"coordinates":[-0.321177,51.768747],"type":"Point"},"properties":{"name":"St Albans Household Recycling Centre","osm_id":"26652385","tag":{"amenity":"recycling","opening_hours":"Th-Mo 10:00-18:00","postal_code":"AL1 4AP","recycling:wood":"yes","recycling_type":"centre","website:official":"http://www.wasteaware.org.uk/db/hwstimes.cfm?resourceID"}},"type":"Feature"},
	{"geometry":{"coordinates":[-0.306341,51.763149],"type":"Point"},"properties":{"osm_id":"465265199","tag":{"amenity":"recycling","recycling:cans":"yes","recycling:clothes":"yes","recycling:glass_bottles":"yes","recycling:newspaper":"yes","recycling:paper":"yes","recycling:plastic_bottles":"yes"}},"type":"Feature"},
	{"geometry":{"coordinates":[-0.34172,51.744096],"type":"Point"},"properties":{"name":"Sainsbury's","osm_id":"476290909","tag":{"addr:city":"St Albans","addr:postcode":"AL1 2QU","addr:street":"Everard Close","amenity":"recycling","operator":"Palm Recycling","recycling:batteries":"yes","recycling:cans":"yes","recycling:cardboard":"yes","recycling:clothes":"yes","recycling:glass":"yes","recycling:light_bulbs":"yes","recycling:paper":"yes","recycling:small_electrical_appliances":"yes"}},"type":"Feature"},
	{"geometry":{"coordinates":[-0.339344,51.769958],"type":"Point"},"properties":{"osm_id":"1940046488","tag":{"amenity":"waste_basket"}},"type":"Feature"},
	{"geometry":{"coordinates":[-0.339334,51.769962],"type":"Point"},"properties":{"osm_id":"1940046498","tag":{"amenity":"recycling"}},"type":"Feature"},
	{"geometry":{"coordinates":[-0.33904,51.75189],"type":"Point"},"properties":{"osm_id":"3375640294","tag":{"amenity":"waste_basket"}},"type":"Feature"},
	{"geometry":{"coordinates":[-0.341644,51.750171],"type":"Point"},"properties":{"osm_id":"3595444151","tag":{"amenity":"waste_basket"}},"type":"Feature"},
	{"geometry":{"coordinates":[-0.340998,51.750039],"type":"Point"},"properties":{"osm_id":"3595444153","tag":{"amenity":"waste_basket"}},"type":"Feature"},
	{"geometry":{"coordinates":[-0.340567,51.751224],"type":"Point"},"properties":{"osm_id":"3595444162","tag":{"amenity":"waste_basket"}},"type":"Feature"},
	{"geometry":{"coordinates":[-0.30723,51.780064],"type":"Point"},"properties":{"osm_id":"4081344190","tag":{"amenity":"recycling","recycling_type":"container"}},"type":"Feature"},
	{"geometry":{"coordinates":[-0.294,51.751757],"type":"Point"},"properties":{"osm_id":"6836781719","tag":{"addr:city":"London","addr:street":"Hatfield Road","amenity":"recycling","recycling:cans":"yes","recycling:clothes":"yes","recycling:paper":"yes","recycling:plastic_bottles":"yes","recycling:shoes":"yes","recycling_type":"container"}},"type":"Feature"}
]
}
