{
"type": "FeatureCollection",
"features": [
	{"geometry":{"coordinates":[-0.284768,51.715202],"type":"Point"},"properties":{"name":"Colney Fields Retail Park","osm_id":"1814723165","tag":{"addr:city":"London Colney","addr:postcode":"AL2 1BG","amenity":"recycling","check_date":"2021-09-12","recycling:cans":"yes","recycling:cardboard":"yes","recycling:glass_bottles":"yes","recycling:magazines":"yes","recycling:newspaper":"yes","recycling:paper":"yes","recycling:paper_packaging":"yes","recycling:plastic":"yes","recycling:plastic_bottles":"yes","recycling_type":"container"}},"type":"Feature"},
	{"geometry":{"coordinates":[-0.286468,51.72129],"type":"Point"},"properties":{"osm_id":"8869831475","tag":{"amenity":"waste_basket"}},"type":"Feature"},
	{"geometry":{"coordinates":[-0.286157,51.720901],"type":"Point"},"properties":{"osm_id":"8869831477","tag":{"amenity":"waste_basket"}},"type":"Feature"},
	{"geometry":{"coordinates":[-0.286299,51.72102],"type":"Point"},"properties":{"osm_id":"8869831478","tag":{"amenity":"waste_basket"}},"type":"Feature"},
	{"geometry":{"coordinates":[-0.287361,51.720328],"type":"Point"},"properties":{"osm_id":"8869831481","tag":{"amenity":"waste_basket"}},"type":"Feature"},
	{"geometry":{"coordinates":[-0.287404,51.720301],"type":"Point"},"properties":{"osm_id":"8869831482","tag":{"amenity":"waste_basket"}},"type":"Feature"},
	{"geometry":{"coordinates":[-0.28684,51.720952],"type":"Point"},"properties":{"osm_id":"8869831484","tag":{"amenity":"waste_basket"}},"type":"Feature"},
	{"geometry":{"coordinates":[-0.285919,51.720683],"type":"Point"},"properties":{"osm_id":"8869831485","tag":{"amenity":"waste_basket"}},"type":"Feature"},
	{"geometry":{"coordinates":[-0.276504,51.692025],"type":"Point"},"properties":{"osm_id":"8947355575","tag":{"amenity":"waste_basket"}},"type":"Feature"}
]
}
