{
"type": "FeatureCollection",
"features": [
	{"geometry":{"coordinates":[-0.291163,51.64887],"type":"Point"},"properties":{"osm_id":"428187416","tag":{"amenity":"recycling"}},"type":"Feature"},
	{"geometry":{"coordinates":[-0.294597,51.654217],"type":"Point"},"properties":{"barrier":"gate","osm_id":"568688760","tag":{"foot":"yes"}},"type":"Feature"},
	{"geometry":{"coordinates":[-0.3295,51.627104],"type":"Point"},"properties":{"osm_id":"2906465538","tag":{"amenity":"waste_basket"}},"type":"Feature"},
	{"geometry":{"coordinates":[-0.32559,51.628887],"type":"Point"},"properties":{"osm_id":"2906465549","tag":{"amenity":"waste_basket"}},"type":"Feature"},
	{"geometry":{"coordinates":[-0.286562,51.65167],"type":"Point"},"properties":{"osm_id":"2906465589","tag":{"amenity":"waste_basket"}},"type":"Feature"},
	{"geometry":{"coordinates":[-0.284963,51.652144],"type":"Point"},"properties":{"osm_id":"2906465598","tag":{"amenity":"waste_basket"}},"type":"Feature"},
	{"geometry":{"coordinates":[-0.303194,51.619791],"type":"Point"},"properties":{"osm_id":"5141528240","tag":{"amenity":"waste_basket"}},"type":"Feature"},
	{"geometry":{"coordinates":[-0.308443,51.621037],"type":"Point"},"properties":{"osm_id":"7593995042","tag":{"amenity":"waste_basket"}},"type":"Feature"}
]
}
