{
"type": "FeatureCollection",
"features": [
	{"geometry":{"coordinates":[-0.339207,51.60427],"type":"Point"},"properties":{"osm_id":"61282231","tag":{"amenity":"recycling"}},"type":"Feature"},
	{"geometry":{"coordinates":[-0.339467,51.573241],"type":"Point"},"properties":{"osm_id":"322084390","tag":{"amenity":"recycling","recycling:cans":"yes","recycling:glass":"yes","recycling:paper":"yes","recycling:plastic_bottles":"yes"}},"type":"Feature"},
	{"geometry":{"coordinates":[-0.338053,51.572255],"type":"Point"},"properties":{"osm_id":"322127819","tag":{"amenity":"waste_basket","litter":"yes"}},"type":"Feature"},
	{"geometry":{"coordinates":[-0.337703,51.572457],"type":"Point"},"properties":{"osm_id":"322127825","tag":{"amenity":"waste_basket"}},"type":"Feature"},
	{"geometry":{"coordinates":[-0.337304,51.572729],"type":"Point"},"properties":{"osm_id":"322127832","tag":{"amenity":"waste_basket"}},"type":"Feature"},
	{"geometry":{"coordinates":[-0.337056,51.573826],"type":"Point"},"properties":{"osm_id":"322127845","tag":{"amenity":"waste_basket"}},"type":"Feature"},
	{"geometry":{"coordinates":[-0.335566,51.574664],"type":"Point"},"properties":{"osm_id":"322270128","tag":{"amenity":"waste_basket"}},"type":"Feature"},
	{"geometry":{"coordinates":[-0.33655,51.573671],"type":"Point"},"properties":{"osm_id":"322270147","tag":{"amenity":"waste_basket"}},"type":"Feature"},
	{"geometry":{"coordinates":[-0.338493,51.571654],"type":"Point"},"properties":{"osm_id":"322270252","tag":{"amenity":"waste_basket"}},"type":"Feature"},
	{"geometry":{"coordinates":[-0.339734,51.570461],"type":"Point"},"properties":{"osm_id":"322270360","tag":{"amenity":"waste_basket"}},"type":"Feature"},
	{"geometry":{"coordinates":[-0.340898,51.574547],"type":"Point"},"properties":{"osm_id":"322702190","tag":{"amenity":"waste_basket"}},"type":"Feature"},
	{"geometry":{"coordinates":[-0.341313,51.575395],"type":"Point"},"properties":{"osm_id":"322702192","tag":{"amenity":"waste_basket"}},"type":"Feature"},
	{"geometry":{"coordinates":[-0.338243,51.577497],"type":"Point"},"properties":{"osm_id":"322702238","tag":{"amenity":"waste_basket"}},"type":"Feature"},
	{"geometry":{"coordinates":[-0.33783,51.577066],"type":"Point"},"properties":{"osm_id":"324013104","tag":{"amenity":"waste_basket"}},"type":"Feature"},
	{"geometry":{"coordinates":[-0.33681,51.577144],"type":"Point"},"properties":{"osm_id":"324013113","tag":{"amenity":"waste_basket"}},"type":"Feature"},
	{"geometry":{"coordinates":[-0.343823,51.573335],"type":"Point"},"properties":{"osm_id":"389979820","tag":{"amenity":"waste_basket"}},"type":"Feature"},
	{"geometry":{"coordinates":[-0.317127,51.58651],"type":"Point"},"properties":{"osm_id":"536045151","tag":{"amenity":"waste_basket","operator":"Harrow Council"}},"type":"Feature"},
	{"geometry":{"coordinates":[-0.309541,51.585644],"type":"Point"},"properties":{"osm_id":"536126429","tag":{"amenity":"waste_basket"}},"type":"Feature"},
	{"geometry":{"coordinates":[-0.307644,51.586085],"type":"Point"},"properties":{"osm_id":"536126434","tag":{"amenity":"recycling","location":"overground","recycling:clothes":"yes","recycling_type":"container"}},"type":"Feature"},
	{"geometry":{"coordinates":[-0.306972,51.586539],"type":"Point"},"properties":{"osm_id":"536126492","tag":{"amenity":"waste_basket"}},"type":"Feature"},
	{"geometry":{"coordinates":[-0.306115,51.583933],"type":"Point"},"properties":{"osm_id":"536132782","tag":{"amenity":"waste_basket","operator":"Brent"}},"type":"Feature"},
	{"geometry":{"coordinates":[-0.33297,51.576826],"type":"Point"},"properties":{"osm_id":"536170351","tag":{"amenity":"waste_basket","operator":"Harrow Council"}},"type":"Feature"},
	{"geometry":{"coordinates":[-0.323699,51.579235],"type":"Point"},"properties":{"osm_id":"536170362","tag":{"amenity":"waste_basket","operator":"Brent Council"}},"type":"Feature"},
	{"geometry":{"coordinates":[-0.322289,51.579668],"type":"Point"},"properties":{"osm_id":"536170365","tag":{"amenity":"waste_basket","operator":"Brent Council"}},"type":"Feature"},
	{"geometry":{"coordinates":[-0.314499,51.582326],"type":"Point"},"properties":{"osm_id":"536170371","tag":{"amenity":"waste_basket"}},"type":"Feature"},
	{"geometry":{"coordinates":[-0.343904,51.573717],"type":"Point"},"properties":{"osm_id":"541125153","tag":{"amenity":"waste_basket"}},"type":"Feature"},
	{"geometry":{"coordinates":[-0.34893,51.577476],"type":"Point"},"properties":{"osm_id":"547125004","tag":{"amenity":"waste_basket"}},"type":"Feature"},
	{"geometry":{"coordinates":[-0.350357,51.566797],"type":"Point"},"properties":{"osm_id":"547422845","tag":{"amenity":"waste_basket"}},"type":"Feature"},
	{"geometry":{"coordinates":[-0.348548,51.568167],"type":"Point"},"properties":{"osm_id":"547422854","tag":{"amenity":"waste_basket"}},"type":"Feature"},
	{"geometry":{"coordinates":[-0.306157,51.58541],"type":"Point"},"properties":{"osm_id":"547514028","tag":{"amenity":"waste_basket"}},"type":"Feature"},
	{"geometry":{"coordinates":[-0.29918,51.584778],"type":"Point"},"properties":{"osm_id":"547514054","tag":{"amenity":"waste_basket","operator":"Brent"}},"type":"Feature"},
	{"geometry":{"coordinates":[-0.299239,51.585656],"type":"Point"},"properties":{"osm_id":"547514069","tag":{"amenity":"waste_basket"}},"type":"Feature"},
	{"geometry":{"coordinates":[-0.298484,51.585655],"type":"Point"},"properties":{"osm_id":"547514074","tag":{"amenity":"waste_basket"}},"type":"Feature"},
	{"geometry":{"coordinates":[-0.29624,51.585687],"type":"Point"},"properties":{"osm_id":"547514147","tag":{"amenity":"waste_basket","operator":"Brent"}},"type":"Feature"},
	{"geometry":{"coordinates":[-0.295751,51.586622],"type":"Point"},"properties":{"osm_id":"547514153","tag":{"amenity":"waste_basket"}},"type":"Feature"},
	{"geometry":{"coordinates":[-0.293117,51.586379],"type":"Point"},"properties":{"osm_id":"547514157","tag":{"amenity":"waste_basket"}},"type":"Feature"},
	{"geometry":{"coordinates":[-0.31385,51.579687],"type":"Point"},"properties":{"osm_id":"547540181","tag":{"amenity":"recycling","recycling:batteries":"yes","recycling:cans":"yes","recycling:cardboard":"yes","recycling:cartons":"no","recycling:clothes":"yes","recycling:clothes:note":"Includes shoes (originally had non-standard :shoes key).","recycling:foil":"yes","recycling:glass_bottles":"yes","recycling:low_energy_bulbs":"yes","recycling:magazines":"yes","recycling:mobile_phones":"yes","recycling:newspaper":"yes","recycling:paper":"yes","recycling:paper_packaging":"yes","recycling:plastic_bags":"no","recycling:plastic_bottles":"yes","recycling:plastic_packaging":"yes","recycling:small_appliances":"yes","recycling_type":"centre"}},"type":"Feature"},
	{"geometry":{"coordinates":[-0.316043,51.582727],"type":"Point"},"properties":{"osm_id":"548660230","tag":{"amenity":"waste_basket"}},"type":"Feature"},
	{"geometry":{"coordinates":[-0.311283,51.582498],"type":"Point"},"properties":{"osm_id":"548660236","tag":{"amenity":"waste_basket"}},"type":"Feature"},
	{"geometry":{"coordinates":[-0.309086,51.582956],"type":"Point"},"properties":{"osm_id":"548660240","tag":{"amenity":"waste_basket"}},"type":"Feature"},
	{"geometry":{"coordinates":[-0.302176,51.577816],"type":"Point"},"properties":{"osm_id":"548660243","tag":{"amenity":"waste_basket","operator":"Brent"}},"type":"Feature"},
	{"geometry":{"coordinates":[-0.306302,51.582169],"type":"Point"},"properties":{"osm_id":"548660256","tag":{"amenity":"waste_basket","operator":"Brent"}},"type":"Feature"},
	{"geometry":{"coordinates":[-0.318378,51.581182],"type":"Point"},"properties":{"osm_id":"548704472","tag":{"amenity":"waste_basket","operator":"Brent"}},"type":"Feature"},
	{"geometry":{"coordinates":[-0.317525,51.58168],"type":"Point"},"properties":{"osm_id":"548704495","tag":{"amenity":"waste_basket","operator":"Brent"}},"type":"Feature"},
	{"geometry":{"coordinates":[-0.313966,51.583877],"type":"Point"},"properties":{"osm_id":"548704511","tag":{"amenity":"waste_basket"}},"type":"Feature"},
	{"geometry":{"coordinates":[-0.311608,51.58488],"type":"Point"},"properties":{"osm_id":"548704523","tag":{"amenity":"waste_basket"}},"type":"Feature"},
	{"geometry":{"coordinates":[-0.304485,51.583067],"type":"Point"},"properties":{"osm_id":"548704553","tag":{"amenity":"waste_basket"}},"type":"Feature"},
	{"geometry":{"coordinates":[-0.30741,51.586236],"type":"Point"},"properties":{"osm_id":"548704566","tag":{"amenity":"waste_basket","operator":"Brent"}},"type":"Feature"},
	{"geometry":{"coordinates":[-0.286136,51.564396],"type":"Point"},"properties":{"osm_id":"548865946","tag":{"amenity":"waste_basket"}},"type":"Feature"},
	{"geometry":{"coordinates":[-0.285468,51.565171],"type":"Point"},"properties":{"osm_id":"548865975","tag":{"amenity":"waste_basket","operator":"Brent"}},"type":"Feature"},
	{"geometry":{"coordinates":[-0.348032,51.56864],"type":"Point"},"properties":{"osm_id":"1488718755","tag":{"amenity":"waste_basket"}},"type":"Feature"},
	{"geometry":{"coordinates":[-0.342919,51.570731],"type":"Point"},"properties":{"osm_id":"1488718791","tag":{"amenity":"waste_basket"}},"type":"Feature"},
	{"geometry":{"coordinates":[-0.335344,51.577025],"type":"Point"},"properties":{"osm_id":"1489589644","tag":{"amenity":"waste_basket"}},"type":"Feature"},
	{"geometry":{"coordinates":[-0.33992,51.569184],"type":"Point"},"properties":{"osm_id":"1744063570","tag":{"amenity":"waste_basket"}},"type":"Feature"},
	{"geometry":{"coordinates":[-0.348174,51.568242],"type":"Point"},"properties":{"osm_id":"1796410864","tag":{"amenity":"waste_basket"}},"type":"Feature"},
	{"geometry":{"coordinates":[-0.347794,51.568512],"type":"Point"},"properties":{"osm_id":"1796410876","tag":{"amenity":"waste_basket"}},"type":"Feature"},
	{"geometry":{"coordinates":[-0.347269,51.569167],"type":"Point"},"properties":{"osm_id":"1796410907","tag":{"amenity":"waste_basket"}},"type":"Feature"},
	{"geometry":{"coordinates":[-0.346803,51.569214],"type":"Point"},"properties":{"osm_id":"1796410909","tag":{"amenity":"waste_basket"}},"type":"Feature"},
	{"geometry":{"coordinates":[-0.346684,51.569286],"type":"Point"},"properties":{"osm_id":"1907483312","tag":{"amenity":"waste_basket"}},"type":"Feature"},
	{"geometry":{"coordinates":[-0.339613,51.5707],"type":"Point"},"properties":{"osm_id":"1946796229","tag":{"amenity":"waste_basket"}},"type":"Feature"},
	{"geometry":{"coordinates":[-0.339926,51.570198],"type":"Point"},"properties":{"osm_id":"2022239978","tag":{"amenity":"waste_basket"}},"type":"Feature"},
	{"geometry":{"coordinates":[-0.333922,51.579808],"type":"Point"},"properties":{"osm_id":"2184486120","tag":{"amenity":"waste_basket"}},"type":"Feature"},
	{"geometry":{"coordinates":[-0.344122,51.570666],"type":"Point"},"properties":{"osm_id":"2321139018","tag":{"amenity":"waste_basket"}},"type":"Feature"},
	{"geometry":{"coordinates":[-0.333486,51.577574],"type":"Point"},"properties":{"osm_id":"2493885214","tag":{"amenity":"waste_basket"}},"type":"Feature"},
	{"geometry":{"coordinates":[-0.334037,51.579417],"type":"Point"},"properties":{"osm_id":"2493885268","tag":{"amenity":"waste_basket"}},"type":"Feature"},
	{"geometry":{"coordinates":[-0.333892,51.579567],"type":"Point"},"properties":{"osm_id":"2493885273","tag":{"amenity":"waste_basket"}},"type":"Feature"},
	{"geometry":{"coordinates":[-0.335217,51.579968],"type":"Point"},"properties":{"osm_id":"2493885318","tag":{"amenity":"waste_basket"}},"type":"Feature"},
	{"geometry":{"coordinates":[-0.335432,51.579974],"type":"Point"},"properties":{"osm_id":"2493885320","tag":{"amenity":"waste_basket"}},"type":"Feature"},
	{"geometry":{"coordinates":[-0.335553,51.580133],"type":"Point"},"properties":{"osm_id":"2493885332","tag":{"amenity":"waste_basket"}},"type":"Feature"},
	{"geometry":{"coordinates":[-0.33261,51.588814],"type":"Point"},"properties":{"osm_id":"2494486583","tag":{"amenity":"waste_basket"}},"type":"Feature"},
	{"geometry":{"coordinates":[-0.334471,51.592522],"type":"Point"},"properties":{"osm_id":"2494486644","tag":{"amenity":"waste_basket"}},"type":"Feature"},
	{"geometry":{"coordinates":[-0.335202,51.59336],"type":"Point"},"properties":{"osm_id":"2494486684","tag":{"amenity":"waste_basket"}},"type":"Feature"},
	{"geometry":{"coordinates":[-0.335241,51.594143],"type":"Point"},"properties":{"osm_id":"2494486798","tag":{"amenity":"waste_basket"}},"type":"Feature"},
	{"geometry":{"coordinates":[-0.335099,51.594196],"type":"Point"},"properties":{"osm_id":"2502677413","tag":{"amenity":"waste_basket"}},"type":"Feature"},
	{"geometry":{"coordinates":[-0.335087,51.594304],"type":"Point"},"properties":{"osm_id":"2502677419","tag":{"amenity":"waste_basket"}},"type":"Feature"},
	{"geometry":{"coordinates":[-0.335757,51.597063],"type":"Point"},"properties":{"osm_id":"2504461791","tag":{"amenity":"waste_basket"}},"type":"Feature"},
	{"geometry":{"coordinates":[-0.335344,51.59461],"type":"Point"},"properties":{"osm_id":"2507765573","tag":{"amenity":"waste_basket"}},"type":"Feature"},
	{"geometry":{"coordinates":[-0.315045,51.58328],"type":"Point"},"properties":{"osm_id":"2512125370","tag":{"amenity":"waste_basket"}},"type":"Feature"},
	{"geometry":{"coordinates":[-0.314399,51.58364],"type":"Point"},"properties":{"osm_id":"2512125429","tag":{"amenity":"waste_basket"}},"type":"Feature"},
	{"geometry":{"coordinates":[-0.313169,51.584276],"type":"Point"},"properties":{"osm_id":"2512254656","tag":{"amenity":"waste_basket"}},"type":"Feature"},
	{"geometry":{"coordinates":[-0.313761,51.583786],"type":"Point"},"properties":{"osm_id":"2513389265","tag":{"amenity":"waste_basket"}},"type":"Feature"},
	{"geometry":{"coordinates":[-0.315703,51.582944],"type":"Point"},"properties":{"osm_id":"2513428170","tag":{"amenity":"waste_basket"}},"type":"Feature"},
	{"geometry":{"coordinates":[-0.317875,51.581692],"type":"Point"},"properties":{"osm_id":"2515674725","tag":{"amenity":"waste_basket"}},"type":"Feature"},
	{"geometry":{"coordinates":[-0.317646,51.581833],"type":"Point"},"properties":{"osm_id":"2515674741","tag":{"amenity":"waste_basket"}},"type":"Feature"},
	{"geometry":{"coordinates":[-0.34194,51.575327],"type":"Point"},"properties":{"osm_id":"2529998583","tag":{"amenity":"waste_basket","operator":"Harrow Council","waste":"dog_excrement"}},"type":"Feature"},
	{"geometry":{"coordinates":[-0.341933,51.575342],"type":"Point"},"properties":{"osm_id":"2529998586","tag":{"amenity":"waste_basket"}},"type":"Feature"},
	{"geometry":{"coordinates":[-0.340291,51.576834],"type":"Point"},"properties":{"osm_id":"2529998601","tag":{"amenity":"waste_basket"}},"type":"Feature"},
	{"geometry":{"coordinates":[-0.338048,51.577089],"type":"Point"},"properties":{"osm_id":"2529998603","tag":{"amenity":"waste_basket","waste":"dog_excrement"}},"type":"Feature"},
	{"geometry":{"coordinates":[-0.337904,51.578202],"type":"Point"},"properties":{"osm_id":"2529998697","tag":{"amenity":"waste_basket","operator":"Harrow Council","waste":"dog_excrement"}},"type":"Feature"},
	{"geometry":{"coordinates":[-0.340003,51.579454],"type":"Point"},"properties":{"osm_id":"2542366794","tag":{"amenity":"waste_basket"}},"type":"Feature"},
	{"geometry":{"coordinates":[-0.337263,51.581497],"type":"Point"},"properties":{"osm_id":"2609621343","tag":{"amenity":"waste_basket"}},"type":"Feature"},
	{"geometry":{"coordinates":[-0.337641,51.581507],"type":"Point"},"properties":{"osm_id":"2609621346","tag":{"amenity":"waste_basket"}},"type":"Feature"},
	{"geometry":{"coordinates":[-0.339454,51.574348],"type":"Point"},"properties":{"osm_id":"2726180539","tag":{"amenity":"waste_basket"}},"type":"Feature"},
	{"geometry":{"coordinates":[-0.325266,51.573459],"type":"Point"},"properties":{"osm_id":"2738325873","tag":{"amenity":"waste_basket","waste":"dog_excrement"}},"type":"Feature"},
	{"geometry":{"coordinates":[-0.351474,51.565748],"type":"Point"},"properties":{"osm_id":"2771098407","tag":{"amenity":"waste_basket"}},"type":"Feature"},
	{"geometry":{"coordinates":[-0.351308,51.565882],"type":"Point"},"properties":{"osm_id":"2771098409","tag":{"amenity":"waste_basket"}},"type":"Feature"},
	{"geometry":{"coordinates":[-0.349805,51.567089],"type":"Point"},"properties":{"osm_id":"2771098413","tag":{"amenity":"waste_basket"}},"type":"Feature"},
	{"geometry":{"coordinates":[-0.34672,51.574615],"type":"Point"},"properties":{"osm_id":"2926800090","tag":{"amenity":"waste_basket"}},"type":"Feature"},
	{"geometry":{"coordinates":[-0.336839,51.576462],"type":"Point"},"properties":{"osm_id":"3030512466","tag":{"amenity":"waste_basket"}},"type":"Feature"},
	{"geometry":{"coordinates":[-0.336677,51.576688],"type":"Point"},"properties":{"osm_id":"3030512467","tag":{"amenity":"waste_basket"}},"type":"Feature"},
	{"geometry":{"coordinates":[-0.336774,51.577137],"type":"Point"},"properties":{"osm_id":"3030512468","tag":{"amenity":"waste_basket"}},"type":"Feature"},
	{"geometry":{"coordinates":[-0.338125,51.574156],"type":"Point"},"properties":{"osm_id":"3350483358","tag":{"amenity":"waste_basket"}},"type":"Feature"},
	{"geometry":{"coordinates":[-0.338686,51.571556],"type":"Point"},"properties":{"osm_id":"3653512825","tag":{"amenity":"waste_basket"}},"type":"Feature"},
	{"geometry":{"coordinates":[-0.300281,51.613178],"type":"Point"},"properties":{"osm_id":"3780874454","tag":{"amenity":"waste_basket"}},"type":"Feature"},
	{"geometry":{"coordinates":[-0.300424,51.613133],"type":"Point"},"properties":{"osm_id":"3780874958","tag":{"amenity":"waste_basket","waste":"dog"}},"type":"Feature"},
	{"geometry":{"coordinates":[-0.299914,51.613403],"type":"Point"},"properties":{"osm_id":"3780874964","tag":{"amenity":"waste_basket","waste":"dog"}},"type":"Feature"},
	{"geometry":{"coordinates":[-0.29996,51.613387],"type":"Point"},"properties":{"osm_id":"3780874968","tag":{"amenity":"waste_basket"}},"type":"Feature"},
	{"geometry":{"coordinates":[-0.295917,51.612704],"type":"Point"},"properties":{"osm_id":"3780883170","tag":{"amenity":"waste_basket"}},"type":"Feature"},
	{"geometry":{"coordinates":[-0.296432,51.612737],"type":"Point"},"properties":{"osm_id":"3780883175","tag":{"amenity":"waste_basket"}},"type":"Feature"},
	{"geometry":{"coordinates":[-0.296765,51.61296],"type":"Point"},"properties":{"osm_id":"3780883183","tag":{"amenity":"waste_basket","waste":"dog"}},"type":"Feature"},
	{"geometry":{"coordinates":[-0.295563,51.612084],"type":"Point"},"properties":{"osm_id":"3780890479","tag":{"amenity":"waste_basket"}},"type":"Feature"},
	{"geometry":{"coordinates":[-0.292205,51.609989],"type":"Point"},"properties":{"osm_id":"3780904244","tag":{"amenity":"waste_basket","waste":"dog"}},"type":"Feature"},
	{"geometry":{"coordinates":[-0.293699,51.610212],"type":"Point"},"properties":{"osm_id":"3780905706","tag":{"amenity":"waste_basket"}},"type":"Feature"},
	{"geometry":{"coordinates":[-0.294533,51.610095],"type":"Point"},"properties":{"osm_id":"3780905707","tag":{"amenity":"waste_basket","waste":"dog"}},"type":"Feature"},
	{"geometry":{"coordinates":[-0.294539,51.610057],"type":"Point"},"properties":{"osm_id":"3780905708","tag":{"amenity":"waste_basket"}},"type":"Feature"},
	{"geometry":{"coordinates":[-0.294684,51.610284],"type":"Point"},"properties":{"osm_id":"3780905711","tag":{"amenity":"waste_basket"}},"type":"Feature"},
	{"geometry":{"coordinates":[-0.293139,51.610149],"type":"Point"},"properties":{"osm_id":"3780905716","tag":{"amenity":"waste_basket"}},"type":"Feature"},
	{"geometry":{"coordinates":[-0.291937,51.609636],"type":"Point"},"properties":{"osm_id":"3780910342","tag":{"amenity":"waste_basket"}},"type":"Feature"},
	{"geometry":{"coordinates":[-0.291336,51.608769],"type":"Point"},"properties":{"osm_id":"3780910350","tag":{"amenity":"waste_basket"}},"type":"Feature"},
	{"geometry":{"coordinates":[-0.290853,51.60811],"type":"Point"},"properties":{"osm_id":"3780910351","tag":{"amenity":"waste_basket"}},"type":"Feature"},
	{"geometry":{"coordinates":[-0.290553,51.60788],"type":"Point"},"properties":{"osm_id":"3780910355","tag":{"amenity":"waste_basket","waste":"dog"}},"type":"Feature"},
	{"geometry":{"coordinates":[-0.290446,51.607887],"type":"Point"},"properties":{"osm_id":"3780910356","tag":{"amenity":"waste_basket"}},"type":"Feature"},
	{"geometry":{"coordinates":[-0.294727,51.612904],"type":"Point"},"properties":{"osm_id":"3780963374","tag":{"amenity":"waste_basket"}},"type":"Feature"},
	{"geometry":{"coordinates":[-0.295236,51.612351],"type":"Point"},"properties":{"osm_id":"3780963383","tag":{"amenity":"waste_basket"}},"type":"Feature"},
	{"geometry":{"coordinates":[-0.294874,51.612959],"type":"Point"},"properties":{"osm_id":"3780963384","tag":{"amenity":"waste_basket"}},"type":"Feature"},
	{"geometry":{"coordinates":[-0.294153,51.61292],"type":"Point"},"properties":{"osm_id":"3780963406","tag":{"amenity":"waste_basket","waste":"dog"}},"type":"Feature"},
	{"geometry":{"coordinates":[-0.294469,51.612527],"type":"Point"},"properties":{"osm_id":"3780963413","tag":{"amenity":"waste_basket"}},"type":"Feature"},
	{"geometry":{"coordinates":[-0.294775,51.613213],"type":"Point"},"properties":{"osm_id":"3780963415","tag":{"amenity":"waste_basket"}},"type":"Feature"},
	{"geometry":{"coordinates":[-0.294185,51.612954],"type":"Point"},"properties":{"osm_id":"3780963416","tag":{"amenity":"waste_basket"}},"type":"Feature"},
	{"geometry":{"coordinates":[-0.296186,51.613127],"type":"Point"},"properties":{"osm_id":"3780963419","tag":{"amenity":"waste_basket"}},"type":"Feature"},
	{"geometry":{"coordinates":[-0.294453,51.613097],"type":"Point"},"properties":{"osm_id":"3780963428","tag":{"amenity":"waste_basket"}},"type":"Feature"},
	{"geometry":{"coordinates":[-0.295473,51.612715],"type":"Point"},"properties":{"osm_id":"3780963429","tag":{"amenity":"waste_basket"}},"type":"Feature"},
	{"geometry":{"coordinates":[-0.293477,51.61315],"type":"Point"},"properties":{"osm_id":"3780970571","tag":{"amenity":"waste_basket","waste":"dog"}},"type":"Feature"},
	{"geometry":{"coordinates":[-0.27934,51.572937],"type":"Point"},"properties":{"osm_id":"4307282096","tag":{"amenity":"waste_basket"}},"type":"Feature"},
	{"geometry":{"coordinates":[-0.280145,51.572975],"type":"Point"},"properties":{"osm_id":"4307291291","tag":{"amenity":"waste_basket"}},"type":"Feature"},
	{"geometry":{"coordinates":[-0.350168,51.574602],"type":"Point"},"properties":{"osm_id":"4710336599","tag":{"amenity":"waste_basket"}},"type":"Feature"},
	{"geometry":{"coordinates":[-0.345244,51.576704],"type":"Point"},"properties":{"osm_id":"4710336601","tag":{"amenity":"waste_basket"}},"type":"Feature"},
	{"geometry":{"coordinates":[-0.285513,51.605193],"type":"Point"},"properties":{"osm_id":"4721120230","tag":{"amenity":"waste_basket"}},"type":"Feature"},
	{"geometry":{"coordinates":[-0.284974,51.604785],"type":"Point"},"properties":{"osm_id":"4721120233","tag":{"amenity":"waste_basket"}},"type":"Feature"},
	{"geometry":{"coordinates":[-0.284529,51.604215],"type":"Point"},"properties":{"osm_id":"4721120236","tag":{"amenity":"waste_basket"}},"type":"Feature"},
	{"geometry":{"coordinates":[-0.28425,51.604718],"type":"Point"},"properties":{"osm_id":"4721120260","tag":{"amenity":"waste_basket"}},"type":"Feature"},
	{"geometry":{"coordinates":[-0.282679,51.605801],"type":"Point"},"properties":{"osm_id":"4721120277","tag":{"amenity":"waste_basket"}},"type":"Feature"},
	{"geometry":{"coordinates":[-0.283655,51.60516],"type":"Point"},"properties":{"osm_id":"4721120288","tag":{"amenity":"waste_basket"}},"type":"Feature"},
	{"geometry":{"coordinates":[-0.281723,51.607262],"type":"Point"},"properties":{"osm_id":"4721138996","tag":{"amenity":"waste_basket"}},"type":"Feature"},
	{"geometry":{"coordinates":[-0.285044,51.605345],"type":"Point"},"properties":{"osm_id":"4721138998","tag":{"amenity":"waste_basket"}},"type":"Feature"},
	{"geometry":{"coordinates":[-0.280897,51.604803],"type":"Point"},"properties":{"osm_id":"4721139017","tag":{"amenity":"waste_basket"}},"type":"Feature"},
	{"geometry":{"coordinates":[-0.280943,51.606234],"type":"Point"},"properties":{"osm_id":"4825819328","tag":{"amenity":"waste_basket"}},"type":"Feature"},
	{"geometry":{"coordinates":[-0.315295,51.575039],"type":"Point"},"properties":{"osm_id":"5138706375","tag":{"amenity":"waste_basket","waste":"dog_excrement"}},"type":"Feature"},
	{"geometry":{"coordinates":[-0.315065,51.57448],"type":"Point"},"properties":{"osm_id":"5138706380","tag":{"amenity":"waste_basket"}},"type":"Feature"},
	{"geometry":{"coordinates":[-0.314895,51.573664],"type":"Point"},"properties":{"osm_id":"5138706382","tag":{"amenity":"waste_basket"}},"type":"Feature"},
	{"geometry":{"coordinates":[-0.285455,51.594363],"type":"Point"},"properties":{"osm_id":"5283782497","tag":{"amenity":"recycling","recycling:cans":"yes","recycling:paper":"yes","recycling:plastic_bottles":"yes","recycling_type":"container"}},"type":"Feature"},
	{"geometry":{"coordinates":[-0.340252,51.607108],"type":"Point"},"properties":{"osm_id":"5731971867","tag":{"amenity":"waste_basket"}},"type":"Feature"},
	{"geometry":{"coordinates":[-0.331058,51.613547],"type":"Point"},"properties":{"osm_id":"5731971876","tag":{"amenity":"waste_basket"}},"type":"Feature"},
	{"geometry":{"coordinates":[-0.340165,51.605966],"type":"Point"},"properties":{"osm_id":"5731971882","tag":{"amenity":"waste_basket"}},"type":"Feature"},
	{"geometry":{"coordinates":[-0.307732,51.57074],"type":"Point"},"properties":{"name":"Charity Dropoff Bins","osm_id":"7289804709","tag":{"amenity":"recycling","recycling:clothes":"yes","recycling_type":"container"}},"type":"Feature"},
	{"geometry":{"coordinates":[-0.341675,51.566657],"type":"Point"},"properties":{"osm_id":"7578390658","tag":{"amenity":"waste_basket","waste":"trash"}},"type":"Feature"},
	{"geometry":{"coordinates":[-0.332481,51.585666],"type":"Point"},"properties":{"osm_id":"7626902342","tag":{"amenity":"recycling","recycling:clothes":"yes","recycling:shoes":"yes","recycling_type":"container"}},"type":"Feature"},
	{"geometry":{"coordinates":[-0.332436,51.5857],"type":"Point"},"properties":{"osm_id":"7643302712","tag":{"amenity":"waste_basket"}},"type":"Feature"}
]
}
