{
"type": "FeatureCollection",
"features": [
	{"geometry":{"coordinates":[-0.317319,51.559811],"type":"Point"},"properties":{"osm_id":"31472891","tag":{"amenity":"recycling","recycling:clothes":"yes","recycling:glass":"yes","recycling:glass_bottles":"yes"}},"type":"Feature"},
	{"geometry":{"coordinates":[-0.350741,51.523858],"type":"Point"},"properties":{"name":"Greenford Re-use and Recycling Centre","osm_id":"32546337","tag":{"addr:postcode":"UB6 9AP","amenity":"recycling","recycling:batteries":"yes","recycling:cans":"yes","recycling:engine_oil":"yes","recycling:glass_bottles":"yes","recycling:green_waste":"yes","recycling:white_goods":"yes"}},"type":"Feature"},
	{"geometry":{"coordinates":[-0.278626,51.537126],"type":"Point"},"properties":{"name":"Brent Re-use and Recycling Centre","osm_id":"304639041","tag":{"amenity":"recycling"}},"type":"Feature"},
	{"geometry":{"coordinates":[-0.28571,51.542917],"type":"Point"},"properties":{"osm_id":"304687761","tag":{"amenity":"recycling"}},"type":"Feature"},
	{"geometry":{"coordinates":[-0.297056,51.541818],"type":"Point"},"properties":{"osm_id":"304691902","tag":{"amenity":"recycling"}},"type":"Feature"},
	{"geometry":{"coordinates":[-0.296822,51.542294],"type":"Point"},"properties":{"osm_id":"304695437","tag":{"amenity":"recycling"}},"type":"Feature"},
	{"geometry":{"coordinates":[-0.28039,51.517679],"type":"Point"},"properties":{"osm_id":"304696324","tag":{"amenity":"recycling"}},"type":"Feature"},
	{"geometry":{"coordinates":[-0.284401,51.527084],"type":"Point"},"properties":{"osm_id":"304745931","tag":{"amenity":"recycling","recycling:paper":"yes"}},"type":"Feature"},
	{"geometry":{"coordinates":[-0.277627,51.561539],"type":"Point"},"properties":{"osm_id":"305084447","tag":{"amenity":"recycling"}},"type":"Feature"},
	{"geometry":{"coordinates":[-0.286469,51.553912],"type":"Point"},"properties":{"osm_id":"305084542","tag":{"amenity":"recycling"}},"type":"Feature"},
	{"geometry":{"coordinates":[-0.302059,51.544578],"type":"Point"},"properties":{"osm_id":"305386887","tag":{"amenity":"recycling","recycling:clothes":"yes","recycling:shoes":"yes"}},"type":"Feature"},
	{"geometry":{"coordinates":[-0.298172,51.541212],"type":"Point"},"properties":{"osm_id":"305394860","tag":{"amenity":"recycling","operator":"traid","recycling:clothes":"yes","recycling:shoes":"yes"}},"type":"Feature"},
	{"geometry":{"coordinates":[-0.302451,51.552402],"type":"Point"},"properties":{"osm_id":"305399271","tag":{"amenity":"recycling","operator":"traid","recycling:clothes":"yes","recycling:shoes":"yes"}},"type":"Feature"},
	{"geometry":{"coordinates":[-0.289401,51.553596],"type":"Point"},"properties":{"osm_id":"305417288","tag":{"amenity":"recycling","operator":"Brent Council","recycling:cans":"yes","recycling:glass":"yes","recycling:paper":"yes","recycling:plastic_bottles":"yes"}},"type":"Feature"},
	{"geometry":{"coordinates":[-0.289512,51.553609],"type":"Point"},"properties":{"osm_id":"305417299","tag":{"amenity":"recycling","operator":"traid","recycling:clothes":"yes","recycling:shoes":"yes"}},"type":"Feature"},
	{"geometry":{"coordinates":[-0.297645,51.549364],"type":"Point"},"properties":{"osm_id":"305808458","tag":{"amenity":"recycling"}},"type":"Feature"},
	{"geometry":{"coordinates":[-0.297114,51.551773],"type":"Point"},"properties":{"osm_id":"305808485","tag":{"amenity":"recycling"}},"type":"Feature"},
	{"geometry":{"coordinates":[-0.297477,51.523978],"type":"Point"},"properties":{"osm_id":"324012873","tag":{"amenity":"recycling","recycling:glass":"yes","recycling:paper":"yes","recycling:shoes":"yes"}},"type":"Feature"},
	{"geometry":{"coordinates":[-0.280955,51.561925],"type":"Point"},"properties":{"osm_id":"548802805","tag":{"amenity":"waste_basket"}},"type":"Feature"},
	{"geometry":{"coordinates":[-0.322283,51.512637],"type":"Point"},"properties":{"osm_id":"2181300778","tag":{"amenity":"recycling","recycling:PET":"yes","recycling:cans":"yes","recycling:cardboard":"yes","recycling:clothes":"yes","recycling:glass":"yes","recycling:glass_bottles":"yes","recycling:paper":"yes","recycling:plastic":"yes","recycling:plastic_bottles":"yes","recycling:plastic_packaging":"yes","recycling:shoes":"yes","recycling:small_appliances":"yes","recycling_type":"container"}},"type":"Feature"},
	{"geometry":{"coordinates":[-0.338755,51.550852],"type":"Point"},"properties":{"osm_id":"2294068872","tag":{"amenity":"recycling"}},"type":"Feature"},
	{"geometry":{"coordinates":[-0.336245,51.556245],"type":"Point"},"properties":{"osm_id":"2296364747","tag":{"amenity":"recycling","recycling:cans":"yes","recycling:clothes":"yes","recycling:glass":"yes"}},"type":"Feature"},
	{"geometry":{"coordinates":[-0.328451,51.528904],"type":"Point"},"properties":{"osm_id":"2309879420","tag":{"amenity":"recycling"}},"type":"Feature"},
	{"geometry":{"coordinates":[-0.292274,51.553712],"type":"Point"},"properties":{"osm_id":"2547657947","tag":{"amenity":"waste_basket"}},"type":"Feature"},
	{"geometry":{"coordinates":[-0.292319,51.553747],"type":"Point"},"properties":{"osm_id":"2547657966","tag":{"amenity":"waste_basket"}},"type":"Feature"},
	{"geometry":{"coordinates":[-0.336385,51.556007],"type":"Point"},"properties":{"osm_id":"2582823973","tag":{"amenity":"waste_basket"}},"type":"Feature"},
	{"geometry":{"coordinates":[-0.336259,51.556203],"type":"Point"},"properties":{"osm_id":"2582823986","tag":{"amenity":"waste_basket"}},"type":"Feature"},
	{"geometry":{"coordinates":[-0.347773,51.562369],"type":"Point"},"properties":{"osm_id":"2771231226","tag":{"amenity":"waste_basket"}},"type":"Feature"},
	{"geometry":{"coordinates":[-0.319528,51.534635],"type":"Point"},"properties":{"osm_id":"3146836856","tag":{"amenity":"recycling"}},"type":"Feature"},
	{"geometry":{"coordinates":[-0.327302,51.552937],"type":"Point"},"properties":{"osm_id":"3306180676","tag":{"amenity":"waste_basket"}},"type":"Feature"},
	{"geometry":{"coordinates":[-0.32768,51.543634],"type":"Point"},"properties":{"osm_id":"3306197589","tag":{"amenity":"waste_basket"}},"type":"Feature"},
	{"geometry":{"coordinates":[-0.326051,51.542717],"type":"Point"},"properties":{"osm_id":"3306197590","tag":{"amenity":"waste_basket"}},"type":"Feature"},
	{"geometry":{"coordinates":[-0.328895,51.546835],"type":"Point"},"properties":{"osm_id":"3306197591","tag":{"amenity":"waste_basket"}},"type":"Feature"},
	{"geometry":{"coordinates":[-0.329841,51.54848],"type":"Point"},"properties":{"osm_id":"3306197592","tag":{"amenity":"waste_basket"}},"type":"Feature"},
	{"geometry":{"coordinates":[-0.327275,51.548009],"type":"Point"},"properties":{"osm_id":"3306197593","tag":{"amenity":"waste_basket"}},"type":"Feature"},
	{"geometry":{"coordinates":[-0.33034,51.548955],"type":"Point"},"properties":{"osm_id":"3306200845","tag":{"amenity":"waste_basket"}},"type":"Feature"},
	{"geometry":{"coordinates":[-0.327873,51.547492],"type":"Point"},"properties":{"osm_id":"3337968572","tag":{"amenity":"waste_basket"}},"type":"Feature"},
	{"geometry":{"coordinates":[-0.328525,51.54709],"type":"Point"},"properties":{"osm_id":"3337968573","tag":{"amenity":"waste_basket"}},"type":"Feature"},
	{"geometry":{"coordinates":[-0.326248,51.547101],"type":"Point"},"properties":{"osm_id":"3338195279","tag":{"amenity":"waste_basket"}},"type":"Feature"},
	{"geometry":{"coordinates":[-0.348702,51.560681],"type":"Point"},"properties":{"osm_id":"3566761781","tag":{"amenity":"waste_basket","waste":"dog_excrement"}},"type":"Feature"},
	{"geometry":{"coordinates":[-0.309419,51.526959],"type":"Point"},"properties":{"osm_id":"5940198825","tag":{"amenity":"waste_basket","waste":"trash"}},"type":"Feature"},
	{"geometry":{"coordinates":[-0.324389,51.545087],"type":"Point"},"properties":{"osm_id":"5954791083","tag":{"amenity":"waste_basket"}},"type":"Feature"},
	{"geometry":{"coordinates":[-0.277043,51.541825],"type":"Point"},"properties":{"osm_id":"6283076775","tag":{"amenity":"waste_basket"}},"type":"Feature"},
	{"geometry":{"coordinates":[-0.308972,51.509467],"type":"Point"},"properties":{"osm_id":"6516677064","tag":{"amenity":"waste_basket"}},"type":"Feature"},
	{"geometry":{"coordinates":[-0.308766,51.509603],"type":"Point"},"properties":{"osm_id":"6516677066","tag":{"amenity":"waste_basket"}},"type":"Feature"},
	{"geometry":{"coordinates":[-0.308822,51.509847],"type":"Point"},"properties":{"osm_id":"6516677067","tag":{"amenity":"waste_basket"}},"type":"Feature"},
	{"geometry":{"coordinates":[-0.307684,51.510586],"type":"Point"},"properties":{"osm_id":"6516677071","tag":{"amenity":"waste_basket"}},"type":"Feature"},
	{"geometry":{"coordinates":[-0.308608,51.511036],"type":"Point"},"properties":{"osm_id":"6516677078","tag":{"amenity":"waste_basket"}},"type":"Feature"},
	{"geometry":{"coordinates":[-0.309579,51.510914],"type":"Point"},"properties":{"osm_id":"6516677081","tag":{"amenity":"waste_basket"}},"type":"Feature"},
	{"geometry":{"coordinates":[-0.31102,51.510709],"type":"Point"},"properties":{"osm_id":"6516677084","tag":{"amenity":"waste_basket"}},"type":"Feature"},
	{"geometry":{"coordinates":[-0.310138,51.509942],"type":"Point"},"properties":{"osm_id":"6516684428","tag":{"amenity":"waste_basket"}},"type":"Feature"},
	{"geometry":{"coordinates":[-0.311881,51.510548],"type":"Point"},"properties":{"osm_id":"6516700086","tag":{"amenity":"waste_basket"}},"type":"Feature"},
	{"geometry":{"coordinates":[-0.312383,51.50962],"type":"Point"},"properties":{"osm_id":"6516700090","tag":{"amenity":"waste_basket"}},"type":"Feature"},
	{"geometry":{"coordinates":[-0.311944,51.508891],"type":"Point"},"properties":{"osm_id":"6516700091","tag":{"amenity":"waste_basket"}},"type":"Feature"},
	{"geometry":{"coordinates":[-0.305548,51.510454],"type":"Point"},"properties":{"osm_id":"6535288634","tag":{"amenity":"waste_basket","waste":"trash"}},"type":"Feature"},
	{"geometry":{"coordinates":[-0.305575,51.510492],"type":"Point"},"properties":{"osm_id":"6535288637","tag":{"amenity":"recycling","opening_hours":"24/7","recycling:PET":"yes","recycling:aluminium":"yes","recycling:cans":"yes","recycling:cardboard":"yes","recycling:glass":"yes","recycling:glass_bottles":"yes","recycling:paper":"yes","recycling:plastic":"yes","recycling:plastic_bottles":"yes","recycling:plastic_packaging":"yes","recycling_type":"container"}},"type":"Feature"},
	{"geometry":{"coordinates":[-0.30522,51.508879],"type":"Point"},"properties":{"osm_id":"6535290105","tag":{"amenity":"waste_basket","waste":"trash"}},"type":"Feature"},
	{"geometry":{"coordinates":[-0.305426,51.509234],"type":"Point"},"properties":{"osm_id":"6535290108","tag":{"amenity":"waste_basket","waste":"trash"}},"type":"Feature"},
	{"geometry":{"coordinates":[-0.315269,51.510106],"type":"Point"},"properties":{"osm_id":"6535305545","tag":{"amenity":"waste_basket","waste":"trash"}},"type":"Feature"},
	{"geometry":{"coordinates":[-0.311835,51.510582],"type":"Point"},"properties":{"osm_id":"6535358396","tag":{"amenity":"waste_basket","waste":"trash"}},"type":"Feature"},
	{"geometry":{"coordinates":[-0.311878,51.510525],"type":"Point"},"properties":{"osm_id":"6535358397","tag":{"amenity":"recycling","opening_hours":"24/7","recycling:PET":"yes","recycling:aluminium":"yes","recycling:cans":"yes","recycling:cardboard":"yes","recycling:glass":"yes","recycling:glass_bottles":"yes","recycling:paper":"yes","recycling:plastic":"yes","recycling:plastic_bottles":"yes","recycling:plastic_packaging":"yes","recycling_type":"container"}},"type":"Feature"},
	{"geometry":{"coordinates":[-0.311814,51.510586],"type":"Point"},"properties":{"osm_id":"6535358398","tag":{"amenity":"recycling","opening_hours":"24/7","recycling:PET":"yes","recycling:aluminium":"yes","recycling:cans":"yes","recycling:cardboard":"yes","recycling:glass":"yes","recycling:glass_bottles":"yes","recycling:paper":"yes","recycling:plastic":"yes","recycling:plastic_bottles":"yes","recycling:plastic_packaging":"yes","recycling_type":"container"}},"type":"Feature"},
	{"geometry":{"coordinates":[-0.345247,51.547437],"type":"Point"},"properties":{"name":"Black Horse Rubbish Disposal","osm_id":"6979373494","tag":{"access":"customers","amenity":"waste_disposal","centralkey":"crt_watermate","operator":"Canal and River Trust","waste":"trash","waterway":"waste_disposal"}},"type":"Feature"},
	{"geometry":{"coordinates":[-0.325909,51.546056],"type":"Point"},"properties":{"osm_id":"7640490481","tag":{"amenity":"waste_basket"}},"type":"Feature"},
	{"geometry":{"coordinates":[-0.322346,51.527114],"type":"Point"},"properties":{"osm_id":"7653496213","tag":{"amenity":"waste_basket","backrest":"yes","waste":"trash"}},"type":"Feature"},
	{"geometry":{"coordinates":[-0.319495,51.514819],"type":"Point"},"properties":{"osm_id":"7653535886","tag":{"amenity":"waste_basket","waste":"trash"}},"type":"Feature"},
	{"geometry":{"coordinates":[-0.329994,51.549367],"type":"Point"},"properties":{"osm_id":"7657123342","tag":{"amenity":"waste_basket"}},"type":"Feature"},
	{"geometry":{"coordinates":[-0.324945,51.550367],"type":"Point"},"properties":{"osm_id":"7657123343","tag":{"amenity":"waste_basket"}},"type":"Feature"},
	{"geometry":{"coordinates":[-0.318275,51.509818],"type":"Point"},"properties":{"osm_id":"7702639713","tag":{"amenity":"waste_basket","waste":"trash"}},"type":"Feature"},
	{"geometry":{"coordinates":[-0.308751,51.510111],"type":"Point"},"properties":{"osm_id":"7847342469","tag":{"amenity":"waste_basket","waste":"trash"}},"type":"Feature"},
	{"geometry":{"coordinates":[-0.310265,51.510644],"type":"Point"},"properties":{"osm_id":"7847342474","tag":{"amenity":"waste_basket","waste":"trash"}},"type":"Feature"},
	{"geometry":{"coordinates":[-0.320706,51.510364],"type":"Point"},"properties":{"osm_id":"7862622814","tag":{"amenity":"waste_basket","waste":"trash"}},"type":"Feature"},
	{"geometry":{"coordinates":[-0.320494,51.510353],"type":"Point"},"properties":{"osm_id":"7862622817","tag":{"amenity":"waste_basket","waste":"trash"}},"type":"Feature"},
	{"geometry":{"coordinates":[-0.319469,51.510236],"type":"Point"},"properties":{"osm_id":"7862622818","tag":{"amenity":"waste_basket","waste":"trash"}},"type":"Feature"},
	{"geometry":{"coordinates":[-0.305792,51.51155],"type":"Point"},"properties":{"osm_id":"7897169524","tag":{"amenity":"recycling","opening_hours":"24/7","recycling:PET":"yes","recycling:cans":"yes","recycling:glass_bottles":"yes","recycling:paper":"yes","recycling:plastic_bottles":"yes","recycling:waste":"yes","recycling_type":"container"}},"type":"Feature"}
]
}
