{
"type": "FeatureCollection",
"features": [
	{"geometry":{"coordinates":[-0.344828,49.175003],"type":"Point"},"properties":{"osm_id":"155403532","tag":{"amenity":"recycling","recycling:glass_bottles":"yes","recycling_type":"container"}},"type":"Feature"},
	{"geometry":{"coordinates":[-0.350831,49.166525],"type":"Point"},"properties":{"osm_id":"160251451","tag":{"amenity":"recycling","recycling:glass_bottles":"yes","recycling_type":"container"}},"type":"Feature"},
	{"geometry":{"coordinates":[-0.347407,49.174939],"type":"Point"},"properties":{"osm_id":"267408836","tag":{"amenity":"recycling","recycling:glass_bottles":"yes","recycling_type":"container"}},"type":"Feature"},
	{"geometry":{"coordinates":[-0.349577,49.171401],"type":"Point"},"properties":{"osm_id":"1068843761","tag":{"amenity":"recycling","recycling:engine_oil":"yes","recycling_type":"container"}},"type":"Feature"},
	{"geometry":{"coordinates":[-0.344256,49.197843],"type":"Point"},"properties":{"osm_id":"1416657910","tag":{"amenity":"recycling","recycling_type":"container"}},"type":"Feature"},
	{"geometry":{"coordinates":[-0.344368,49.197532],"type":"Point"},"properties":{"osm_id":"1416657911","tag":{"amenity":"recycling","recycling_type":"container"}},"type":"Feature"},
	{"geometry":{"coordinates":[-0.34333,49.19751],"type":"Point"},"properties":{"osm_id":"1416657912","tag":{"amenity":"recycling","recycling_type":"container"}},"type":"Feature"},
	{"geometry":{"coordinates":[-0.345785,49.196276],"type":"Point"},"properties":{"osm_id":"1418154225","tag":{"amenity":"recycling","recycling_type":"container"}},"type":"Feature"},
	{"geometry":{"coordinates":[-0.346529,49.19765],"type":"Point"},"properties":{"osm_id":"1418154230","tag":{"amenity":"recycling","recycling_type":"container"}},"type":"Feature"},
	{"geometry":{"coordinates":[-0.345296,49.198053],"type":"Point"},"properties":{"osm_id":"1418154243","tag":{"amenity":"recycling","recycling_type":"container"}},"type":"Feature"},
	{"geometry":{"coordinates":[-0.343449,49.196584],"type":"Point"},"properties":{"osm_id":"1418728017","tag":{"amenity":"recycling","recycling_type":"container"}},"type":"Feature"},
	{"geometry":{"coordinates":[-0.332722,49.174368],"type":"Point"},"properties":{"osm_id":"1635369909","tag":{"amenity":"recycling","recycling:batteries":"no","recycling:books":"no","recycling:cans":"no","recycling:cardboard":"no","recycling:cartons":"no","recycling:clothes":"no","recycling:electrical_appliances":"no","recycling:glass_bottles":"yes","recycling:green_waste":"no","recycling:magazines":"no","recycling:newspaper":"no","recycling:paper":"no","recycling:paper_packaging":"no","recycling:plastic":"no","recycling:plastic_bottles":"no","recycling:plastic_packaging":"no","recycling:scrap_metal":"no","recycling:small_appliances":"no","recycling:waste":"no","recycling:wood":"no","recycling_type":"container"}},"type":"Feature"},
	{"geometry":{"coordinates":[-0.349365,49.171478],"type":"Point"},"properties":{"osm_id":"1900544681","tag":{"amenity":"recycling","recycling:glass_bottles":"yes","recycling_type":"container"}},"type":"Feature"},
	{"geometry":{"coordinates":[-0.283105,49.181256],"type":"Point"},"properties":{"osm_id":"1952131882","tag":{"amenity":"waste_basket"}},"type":"Feature"},
	{"geometry":{"coordinates":[-0.349329,49.17145],"type":"Point"},"properties":{"osm_id":"2012214155","tag":{"amenity":"waste_basket"}},"type":"Feature"},
	{"geometry":{"coordinates":[-0.349386,49.171478],"type":"Point"},"properties":{"osm_id":"2012214156","tag":{"amenity":"recycling","recycling:clothes":"yes","recycling_type":"container"}},"type":"Feature"},
	{"geometry":{"coordinates":[-0.349157,49.17564],"type":"Point"},"properties":{"osm_id":"2175283416","tag":{"amenity":"waste_basket"}},"type":"Feature"},
	{"geometry":{"coordinates":[-0.348976,49.175686],"type":"Point"},"properties":{"osm_id":"2175283420","tag":{"amenity":"waste_basket"}},"type":"Feature"},
	{"geometry":{"coordinates":[-0.349195,49.175705],"type":"Point"},"properties":{"osm_id":"2175283427","tag":{"amenity":"waste_basket"}},"type":"Feature"},
	{"geometry":{"coordinates":[-0.348866,49.175714],"type":"Point"},"properties":{"osm_id":"2175283428","tag":{"amenity":"waste_basket"}},"type":"Feature"},
	{"geometry":{"coordinates":[-0.349019,49.175754],"type":"Point"},"properties":{"osm_id":"2175283429","tag":{"amenity":"waste_basket"}},"type":"Feature"},
	{"geometry":{"coordinates":[-0.326305,49.194676],"type":"Point"},"properties":{"osm_id":"2184447779","tag":{"amenity":"recycling","recycling:clothes":"yes","recycling:glass_bottles":"yes","recycling:paper":"yes","recycling:scrap_metal":"yes","recycling_type":"container"}},"type":"Feature"},
	{"geometry":{"coordinates":[-0.30073,49.201411],"type":"Point"},"properties":{"osm_id":"2184447781","tag":{"amenity":"recycling","recycling:glass_bottles":"yes","recycling_type":"container"}},"type":"Feature"},
	{"geometry":{"coordinates":[-0.349934,49.177399],"type":"Point"},"properties":{"osm_id":"2337161394","tag":{"amenity":"waste_basket"}},"type":"Feature"},
	{"geometry":{"coordinates":[-0.350105,49.177595],"type":"Point"},"properties":{"osm_id":"2337161395","tag":{"amenity":"waste_basket"}},"type":"Feature"},
	{"geometry":{"coordinates":[-0.350312,49.177781],"type":"Point"},"properties":{"osm_id":"2337161399","tag":{"amenity":"waste_basket"}},"type":"Feature"},
	{"geometry":{"coordinates":[-0.35016,49.177837],"type":"Point"},"properties":{"osm_id":"2337161400","tag":{"amenity":"waste_basket"}},"type":"Feature"},
	{"geometry":{"coordinates":[-0.350436,49.177931],"type":"Point"},"properties":{"osm_id":"2337161402","tag":{"amenity":"waste_basket"}},"type":"Feature"},
	{"geometry":{"coordinates":[-0.344686,49.159841],"type":"Point"},"properties":{"osm_id":"2550386540","tag":{"amenity":"recycling"}},"type":"Feature"},
	{"geometry":{"coordinates":[-0.345348,49.159269],"type":"Point"},"properties":{"osm_id":"2550388337","tag":{"amenity":"recycling"}},"type":"Feature"},
	{"geometry":{"coordinates":[-0.344481,49.16044],"type":"Point"},"properties":{"osm_id":"2550388338","tag":{"amenity":"recycling"}},"type":"Feature"},
	{"geometry":{"coordinates":[-0.334422,49.186428],"type":"Point"},"properties":{"osm_id":"2570409681","tag":{"amenity":"waste_basket"}},"type":"Feature"},
	{"geometry":{"coordinates":[-0.334459,49.186586],"type":"Point"},"properties":{"osm_id":"2570409688","tag":{"amenity":"waste_basket"}},"type":"Feature"},
	{"geometry":{"coordinates":[-0.334952,49.186796],"type":"Point"},"properties":{"osm_id":"2570409689","tag":{"amenity":"waste_basket"}},"type":"Feature"},
	{"geometry":{"coordinates":[-0.334044,49.188065],"type":"Point"},"properties":{"osm_id":"2573687361","tag":{"amenity":"recycling","recycling:clothes":"yes","recycling:glass_bottles":"yes","recycling:paper":"yes"}},"type":"Feature"},
	{"geometry":{"coordinates":[-0.345182,49.160059],"type":"Point"},"properties":{"osm_id":"3353880968","tag":{"amenity":"recycling","recycling_type":"container"}},"type":"Feature"},
	{"geometry":{"coordinates":[-0.343193,49.190526],"type":"Point"},"properties":{"osm_id":"3396811060","tag":{"amenity":"recycling","recycling:glass_bottles":"yes","recycling_type":"container"}},"type":"Feature"},
	{"geometry":{"coordinates":[-0.323189,49.194546],"type":"Point"},"properties":{"osm_id":"3765413921","tag":{"amenity":"waste_basket"}},"type":"Feature"},
	{"geometry":{"coordinates":[-0.322964,49.194473],"type":"Point"},"properties":{"osm_id":"3765413922","tag":{"amenity":"waste_basket"}},"type":"Feature"},
	{"geometry":{"coordinates":[-0.322949,49.194509],"type":"Point"},"properties":{"osm_id":"3765413923","tag":{"amenity":"waste_basket"}},"type":"Feature"},
	{"geometry":{"coordinates":[-0.324102,49.192861],"type":"Point"},"properties":{"osm_id":"3767418092","tag":{"amenity":"waste_basket"}},"type":"Feature"},
	{"geometry":{"coordinates":[-0.351138,49.175784],"type":"Point"},"properties":{"osm_id":"3997234410","tag":{"amenity":"waste_basket"}},"type":"Feature"},
	{"geometry":{"coordinates":[-0.337585,49.197939],"type":"Point"},"properties":{"osm_id":"4011007612","tag":{"amenity":"recycling","recycling:cans":"yes","recycling:electrical_appliances":"yes","recycling:glass_bottles":"yes","recycling:paper":"yes","recycling:plastic":"yes","recycling_type":"container"}},"type":"Feature"},
	{"geometry":{"coordinates":[-0.351189,49.175906],"type":"Point"},"properties":{"osm_id":"4055329546","tag":{"amenity":"waste_basket"}},"type":"Feature"},
	{"geometry":{"coordinates":[-0.338697,49.188203],"type":"Point"},"properties":{"osm_id":"4252110973","tag":{"amenity":"recycling","recycling:glass_bottles":"yes","recycling_type":"container"}},"type":"Feature"},
	{"geometry":{"coordinates":[-0.339935,49.190263],"type":"Point"},"properties":{"osm_id":"4252110981","tag":{"amenity":"recycling","recycling:glass_bottles":"yes","recycling_type":"container"}},"type":"Feature"},
	{"geometry":{"coordinates":[-0.347522,49.169937],"type":"Point"},"properties":{"osm_id":"4315476441","tag":{"amenity":"recycling","recycling:glass_bottles":"yes","recycling_type":"container"}},"type":"Feature"},
	{"geometry":{"coordinates":[-0.347793,49.170444],"type":"Point"},"properties":{"osm_id":"4315476465","tag":{"amenity":"waste_basket"}},"type":"Feature"},
	{"geometry":{"coordinates":[-0.348589,49.171651],"type":"Point"},"properties":{"osm_id":"4315476482","tag":{"amenity":"waste_basket"}},"type":"Feature"},
	{"geometry":{"coordinates":[-0.345474,49.180212],"type":"Point"},"properties":{"osm_id":"4447375844","tag":{"amenity":"waste_basket"}},"type":"Feature"},
	{"geometry":{"coordinates":[-0.345975,49.180469],"type":"Point"},"properties":{"osm_id":"4447383624","tag":{"amenity":"waste_basket"}},"type":"Feature"},
	{"geometry":{"coordinates":[-0.346797,49.181429],"type":"Point"},"properties":{"osm_id":"4449366487","tag":{"amenity":"recycling","recycling:glass_bottles":"yes"}},"type":"Feature"},
	{"geometry":{"coordinates":[-0.349328,49.181989],"type":"Point"},"properties":{"osm_id":"4718694212","tag":{"amenity":"waste_basket"}},"type":"Feature"},
	{"geometry":{"coordinates":[-0.351431,49.187202],"type":"Point"},"properties":{"osm_id":"4769825822","tag":{"amenity":"waste_basket"}},"type":"Feature"},
	{"geometry":{"coordinates":[-0.350876,49.187434],"type":"Point"},"properties":{"osm_id":"4769825823","tag":{"amenity":"waste_basket"}},"type":"Feature"},
	{"geometry":{"coordinates":[-0.350058,49.187772],"type":"Point"},"properties":{"osm_id":"4769825824","tag":{"amenity":"waste_basket"}},"type":"Feature"},
	{"geometry":{"coordinates":[-0.349618,49.187958],"type":"Point"},"properties":{"osm_id":"4769825825","tag":{"amenity":"waste_basket"}},"type":"Feature"},
	{"geometry":{"coordinates":[-0.34901,49.18788],"type":"Point"},"properties":{"osm_id":"4769825826","tag":{"amenity":"waste_basket"}},"type":"Feature"},
	{"geometry":{"coordinates":[-0.348759,49.187984],"type":"Point"},"properties":{"osm_id":"4769825827","tag":{"amenity":"waste_basket"}},"type":"Feature"},
	{"geometry":{"coordinates":[-0.348299,49.188175],"type":"Point"},"properties":{"osm_id":"4769825828","tag":{"amenity":"waste_basket"}},"type":"Feature"},
	{"geometry":{"coordinates":[-0.350878,49.186655],"type":"Point"},"properties":{"osm_id":"4769825830","tag":{"amenity":"waste_basket"}},"type":"Feature"},
	{"geometry":{"coordinates":[-0.350331,49.186887],"type":"Point"},"properties":{"osm_id":"4769825835","tag":{"amenity":"waste_basket"}},"type":"Feature"},
	{"geometry":{"coordinates":[-0.349096,49.187402],"type":"Point"},"properties":{"osm_id":"4769825840","tag":{"amenity":"waste_basket"}},"type":"Feature"},
	{"geometry":{"coordinates":[-0.350145,49.186836],"type":"Point"},"properties":{"osm_id":"4770826655","tag":{"amenity":"waste_basket"}},"type":"Feature"},
	{"geometry":{"coordinates":[-0.33143,49.209385],"type":"Point"},"properties":{"osm_id":"4798444771","tag":{"amenity":"waste_disposal"}},"type":"Feature"},
	{"geometry":{"coordinates":[-0.349985,49.182013],"type":"Point"},"properties":{"osm_id":"4928849646","tag":{"amenity":"recycling","location":"underground","recycling:glass_bottles":"yes","recycling_type":"container"}},"type":"Feature"},
	{"geometry":{"coordinates":[-0.350673,49.182701],"type":"Point"},"properties":{"osm_id":"4928923599","tag":{"amenity":"waste_basket"}},"type":"Feature"},
	{"geometry":{"coordinates":[-0.350622,49.182784],"type":"Point"},"properties":{"osm_id":"4928927485","tag":{"amenity":"waste_basket"}},"type":"Feature"},
	{"geometry":{"coordinates":[-0.350352,49.182659],"type":"Point"},"properties":{"osm_id":"4928928516","tag":{"amenity":"waste_basket"}},"type":"Feature"},
	{"geometry":{"coordinates":[-0.351453,49.183399],"type":"Point"},"properties":{"osm_id":"4928931259","tag":{"amenity":"waste_basket"}},"type":"Feature"},
	{"geometry":{"coordinates":[-0.350592,49.18169],"type":"Point"},"properties":{"osm_id":"4928940755","tag":{"amenity":"waste_basket"}},"type":"Feature"},
	{"geometry":{"coordinates":[-0.351375,49.182124],"type":"Point"},"properties":{"osm_id":"4928942207","tag":{"amenity":"waste_basket"}},"type":"Feature"},
	{"geometry":{"coordinates":[-0.350981,49.181921],"type":"Point"},"properties":{"osm_id":"4928944710","tag":{"amenity":"waste_basket"}},"type":"Feature"},
	{"geometry":{"coordinates":[-0.350438,49.183878],"type":"Point"},"properties":{"osm_id":"4928986135","tag":{"amenity":"waste_basket"}},"type":"Feature"},
	{"geometry":{"coordinates":[-0.349052,49.18105],"type":"Point"},"properties":{"osm_id":"4928986146","tag":{"amenity":"waste_basket"}},"type":"Feature"},
	{"geometry":{"coordinates":[-0.349603,49.181276],"type":"Point"},"properties":{"osm_id":"4928986148","tag":{"amenity":"waste_basket"}},"type":"Feature"},
	{"geometry":{"coordinates":[-0.347014,49.185495],"type":"Point"},"properties":{"osm_id":"4934187399","tag":{"amenity":"waste_basket"}},"type":"Feature"},
	{"geometry":{"coordinates":[-0.347219,49.185444],"type":"Point"},"properties":{"osm_id":"4934187400","tag":{"amenity":"waste_basket"}},"type":"Feature"},
	{"geometry":{"coordinates":[-0.348777,49.184564],"type":"Point"},"properties":{"osm_id":"4934187403","tag":{"amenity":"waste_basket"}},"type":"Feature"},
	{"geometry":{"coordinates":[-0.308357,49.187776],"type":"Point"},"properties":{"osm_id":"5149222159","tag":{"amenity":"waste_basket"}},"type":"Feature"},
	{"geometry":{"coordinates":[-0.346545,49.182283],"type":"Point"},"properties":{"osm_id":"5167092637","tag":{"amenity":"recycling","recycling_type":"container"}},"type":"Feature"},
	{"geometry":{"coordinates":[-0.346275,49.18546],"type":"Point"},"properties":{"osm_id":"5168785429","tag":{"amenity":"recycling","recycling:glass_bottles":"yes","recycling_type":"container"}},"type":"Feature"},
	{"geometry":{"coordinates":[-0.349378,49.178923],"type":"Point"},"properties":{"osm_id":"5403831872","tag":{"amenity":"waste_basket","wheelchair":"yes"}},"type":"Feature"},
	{"geometry":{"coordinates":[-0.336531,49.175235],"type":"Point"},"properties":{"osm_id":"5541143397","ref":"79","tag":{"amenity":"recycling","check_date:recycling":"2021-08-04","recycling:clothes":"yes","recycling_type":"container"}},"type":"Feature"},
	{"geometry":{"coordinates":[-0.344527,49.158242],"type":"Point"},"properties":{"osm_id":"5582446521","tag":{"amenity":"recycling","recycling_type":"container"}},"type":"Feature"},
	{"geometry":{"coordinates":[-0.344097,49.158548],"type":"Point"},"properties":{"osm_id":"5582446524","tag":{"amenity":"recycling","recycling_type":"container"}},"type":"Feature"},
	{"geometry":{"coordinates":[-0.343694,49.158858],"type":"Point"},"properties":{"osm_id":"5582446537","tag":{"amenity":"recycling","recycling_type":"container"}},"type":"Feature"},
	{"geometry":{"coordinates":[-0.347076,49.181864],"type":"Point"},"properties":{"osm_id":"6349281470","tag":{"amenity":"waste_basket","waste":"trash"}},"type":"Feature"},
	{"geometry":{"coordinates":[-0.333017,49.176804],"type":"Point"},"properties":{"name":"Coop 5 Pour 100","osm_id":"6514004525","tag":{"amenity":"recycling","contact:email":"contact@coop5pour100.com","contact:facebook":"http://facebook.com/coop5pour100","contact:phone":"+33 6 30344949","contact:website":"http://coop5pour100.com/","opening_hours":"We-Fr 11:00-19:00; Sa 11:00-18:00","recycling_type":"centre"}},"type":"Feature"},
	{"geometry":{"coordinates":[-0.347333,49.18025],"type":"Point"},"properties":{"osm_id":"6808284330","tag":{"amenity":"waste_basket"}},"type":"Feature"},
	{"geometry":{"coordinates":[-0.337352,49.204188],"type":"Point"},"properties":{"osm_id":"7156101053","tag":{"amenity":"waste_basket","waste":"recycling;glass"}},"type":"Feature"},
	{"geometry":{"coordinates":[-0.337377,49.204188],"type":"Point"},"properties":{"osm_id":"7156101054","tag":{"amenity":"waste_basket","waste":"recycling;plastic"}},"type":"Feature"},
	{"geometry":{"coordinates":[-0.337403,49.204188],"type":"Point"},"properties":{"osm_id":"7156101055","tag":{"amenity":"waste_basket","waste":"recycling"}},"type":"Feature"},
	{"geometry":{"coordinates":[-0.337333,49.204198],"type":"Point"},"properties":{"osm_id":"7156101056","tag":{"amenity":"waste_basket","waste":"trash"}},"type":"Feature"},
	{"geometry":{"coordinates":[-0.295036,49.203198],"type":"Point"},"properties":{"osm_id":"7683091205","tag":{"amenity":"recycling","recycling:clothes":"yes","recycling_type":"container"}},"type":"Feature"},
	{"geometry":{"coordinates":[-0.295091,49.203073],"type":"Point"},"properties":{"osm_id":"7683091208","tag":{"amenity":"recycling","recycling:glass_bottles":"yes","recycling_type":"container"}},"type":"Feature"},
	{"geometry":{"coordinates":[-0.311588,49.191103],"type":"Point"},"properties":{"osm_id":"7817399179","tag":{"amenity":"waste_basket"}},"type":"Feature"},
	{"geometry":{"coordinates":[-0.314047,49.185769],"type":"Point"},"properties":{"name":"Bin","osm_id":"7817422805","tag":{"amenity":"waste_basket"}},"type":"Feature"},
	{"geometry":{"coordinates":[-0.30906,49.196614],"type":"Point"},"properties":{"name":"Poubelle","osm_id":"7925255945","tag":{"amenity":"waste_basket"}},"type":"Feature"},
	{"geometry":{"coordinates":[-0.313339,49.18629],"type":"Point"},"properties":{"name":"Bin","osm_id":"7925258264","tag":{"amenity":"waste_basket"}},"type":"Feature"},
	{"geometry":{"coordinates":[-0.312829,49.185944],"type":"Point"},"properties":{"name":"Bin","osm_id":"7925265936","tag":{"amenity":"waste_basket"}},"type":"Feature"},
	{"geometry":{"coordinates":[-0.32376,49.200372],"type":"Point"},"properties":{"osm_id":"8200113491","tag":{"amenity":"recycling","recycling:glass":"yes","recycling_type":"container"}},"type":"Feature"},
	{"geometry":{"coordinates":[-0.340186,49.190377],"type":"Point"},"properties":{"osm_id":"8203345567","tag":{"amenity":"recycling","recycling:clothes":"yes","recycling_type":"container"}},"type":"Feature"},
	{"geometry":{"coordinates":[-0.327958,49.177933],"type":"Point"},"properties":{"osm_id":"8205078649","tag":{"amenity":"recycling","recycling_type":"container"}},"type":"Feature"},
	{"geometry":{"coordinates":[-0.332749,49.174419],"type":"Point"},"properties":{"osm_id":"8205208240","tag":{"amenity":"recycling","recycling:clothes":"yes","recycling_type":"container"}},"type":"Feature"},
	{"geometry":{"coordinates":[-0.325131,49.168141],"type":"Point"},"properties":{"osm_id":"8207187968","tag":{"amenity":"recycling","recycling_type":"container"}},"type":"Feature"},
	{"geometry":{"coordinates":[-0.300965,49.17943],"type":"Point"},"properties":{"osm_id":"8509751868","tag":{"amenity":"recycling","recycling:glass":"yes","recycling_type":"container"}},"type":"Feature"},
	{"geometry":{"coordinates":[-0.276928,49.182238],"type":"Point"},"properties":{"osm_id":"8531240694","tag":{"amenity":"recycling","recycling:glass":"yes","recycling_type":"container"}},"type":"Feature"},
	{"geometry":{"coordinates":[-0.271051,49.178308],"type":"Point"},"properties":{"osm_id":"8536158813","tag":{"amenity":"recycling","recycling:glass":"yes","recycling_type":"container"}},"type":"Feature"},
	{"geometry":{"coordinates":[-0.26642,49.177224],"type":"Point"},"properties":{"osm_id":"8548580995","tag":{"amenity":"recycling","recycling:glass":"yes","recycling_type":"container"}},"type":"Feature"},
	{"geometry":{"coordinates":[-0.26381,49.178526],"type":"Point"},"properties":{"osm_id":"8548745482","tag":{"amenity":"recycling","recycling:glass":"yes","recycling_type":"container"}},"type":"Feature"},
	{"geometry":{"coordinates":[-0.348213,49.181552],"type":"Point"},"properties":{"osm_id":"8640303863","tag":{"amenity":"waste_basket","colour":"gray","material":"metal","operator":"Ville de Caen","waste":"trash"}},"type":"Feature"},
	{"geometry":{"coordinates":[-0.347977,49.18175],"type":"Point"},"properties":{"osm_id":"8640303867","tag":{"amenity":"waste_basket","colour":"gray","material":"metal","operator":"Ville de Caen","waste":"trash"}},"type":"Feature"},
	{"geometry":{"coordinates":[-0.300937,49.161122],"type":"Point"},"properties":{"osm_id":"8824502204","tag":{"amenity":"waste_basket","colour":"red","material":"steel","operator":"Centre Commercial Mondevillage","waste":"trash"}},"type":"Feature"},
	{"geometry":{"coordinates":[-0.301422,49.160726],"type":"Point"},"properties":{"osm_id":"8824502208","tag":{"amenity":"waste_basket","colour":"red","material":"steel","operator":"Centre Commercial Mondevillage","waste":"trash"}},"type":"Feature"},
	{"geometry":{"coordinates":[-0.301638,49.160543],"type":"Point"},"properties":{"osm_id":"8824502215","tag":{"amenity":"waste_basket","colour":"red","material":"steel","operator":"Centre Commercial Mondevillage","waste":"trash"}},"type":"Feature"},
	{"geometry":{"coordinates":[-0.301867,49.160294],"type":"Point"},"properties":{"osm_id":"8824533135","tag":{"amenity":"waste_basket","colour":"red","material":"steel","operator":"Centre Commercial Mondevillage","waste":"trash"}},"type":"Feature"},
	{"geometry":{"coordinates":[-0.301748,49.160223],"type":"Point"},"properties":{"osm_id":"8824533140","tag":{"amenity":"waste_basket","colour":"red","material":"steel","operator":"Centre Commercial Mondevillage","waste":"trash"}},"type":"Feature"},
	{"geometry":{"coordinates":[-0.3016,49.160156],"type":"Point"},"properties":{"osm_id":"8824533143","tag":{"amenity":"waste_basket","colour":"red","material":"steel","operator":"Centre Commercial Mondevillage","waste":"trash"}},"type":"Feature"},
	{"geometry":{"coordinates":[-0.302306,49.159821],"type":"Point"},"properties":{"osm_id":"8824533167","tag":{"amenity":"waste_basket","colour":"red","material":"steel","operator":"Centre Commercial Mondevillage","waste":"trash"}},"type":"Feature"},
	{"geometry":{"coordinates":[-0.302065,49.159719],"type":"Point"},"properties":{"osm_id":"8824533168","tag":{"amenity":"waste_basket","colour":"red","material":"steel","operator":"Centre Commercial Mondevillage","waste":"trash"}},"type":"Feature"},
	{"geometry":{"coordinates":[-0.301763,49.159963],"type":"Point"},"properties":{"osm_id":"8824533182","tag":{"amenity":"waste_basket","colour":"red","material":"steel","operator":"Centre Commercial Mondevillage","waste":"trash"}},"type":"Feature"},
	{"geometry":{"coordinates":[-0.301253,49.160508],"type":"Point"},"properties":{"osm_id":"8824533183","tag":{"amenity":"waste_basket","colour":"red","material":"steel","operator":"Centre Commercial Mondevillage","waste":"trash"}},"type":"Feature"},
	{"geometry":{"coordinates":[-0.301406,49.161584],"type":"Point"},"properties":{"osm_id":"8848337468","tag":{"amenity":"waste_basket","colour":"green","material":"steel","operator":"Centre Commercial Mondevillage","waste":"trash"}},"type":"Feature"},
	{"geometry":{"coordinates":[-0.301586,49.161436],"type":"Point"},"properties":{"osm_id":"8848337471","tag":{"amenity":"waste_basket","colour":"green","material":"steel","operator":"Centre Commercial Mondevillage","waste":"trash"}},"type":"Feature"},
	{"geometry":{"coordinates":[-0.301734,49.161312],"type":"Point"},"properties":{"osm_id":"8848337473","tag":{"amenity":"waste_basket","colour":"green","material":"steel","operator":"Centre Commercial Mondevillage","waste":"trash"}},"type":"Feature"},
	{"geometry":{"coordinates":[-0.301879,49.161194],"type":"Point"},"properties":{"osm_id":"8848337475","tag":{"amenity":"waste_basket","colour":"green","material":"steel","operator":"Centre Commercial Mondevillage","waste":"trash"}},"type":"Feature"},
	{"geometry":{"coordinates":[-0.302051,49.16105],"type":"Point"},"properties":{"osm_id":"8848337477","tag":{"amenity":"waste_basket","colour":"green","material":"steel","operator":"Centre Commercial Mondevillage","waste":"trash"}},"type":"Feature"},
	{"geometry":{"coordinates":[-0.302202,49.160928],"type":"Point"},"properties":{"osm_id":"8848337479","tag":{"amenity":"waste_basket","colour":"green","material":"steel","operator":"Centre Commercial Mondevillage","waste":"trash"}},"type":"Feature"},
	{"geometry":{"coordinates":[-0.302348,49.160808],"type":"Point"},"properties":{"osm_id":"8848337481","tag":{"amenity":"waste_basket","colour":"green","material":"steel","operator":"Centre Commercial Mondevillage","waste":"trash"}},"type":"Feature"},
	{"geometry":{"coordinates":[-0.302724,49.160442],"type":"Point"},"properties":{"osm_id":"8960026414","tag":{"amenity":"waste_basket","colour":"green","material":"steel","operator":"Centre Commercial Mondevillage","waste":"trash"}},"type":"Feature"},
	{"geometry":{"coordinates":[-0.302834,49.160304],"type":"Point"},"properties":{"osm_id":"8960026416","tag":{"amenity":"waste_basket","colour":"green","material":"steel","operator":"Centre Commercial Mondevillage","waste":"trash"}},"type":"Feature"},
	{"geometry":{"coordinates":[-0.302941,49.160168],"type":"Point"},"properties":{"osm_id":"8960027518","tag":{"amenity":"waste_basket","colour":"green","material":"steel","operator":"Centre Commercial Mondevillage","waste":"trash"}},"type":"Feature"},
	{"geometry":{"coordinates":[-0.303129,49.159935],"type":"Point"},"properties":{"osm_id":"8960027520","tag":{"amenity":"waste_basket","colour":"green","material":"steel","operator":"Centre Commercial Mondevillage","waste":"trash"}},"type":"Feature"},
	{"geometry":{"coordinates":[-0.302948,49.159686],"type":"Point"},"properties":{"osm_id":"8960027522","tag":{"amenity":"waste_basket","colour":"green","material":"steel","operator":"Centre Commercial Mondevillage","waste":"trash"}},"type":"Feature"},
	{"geometry":{"coordinates":[-0.299461,49.187575],"type":"Point"},"properties":{"osm_id":"9065432995","tag":{"amenity":"waste_basket"}},"type":"Feature"},
	{"geometry":{"coordinates":[-0.299347,49.187681],"type":"Point"},"properties":{"osm_id":"9065432996","tag":{"amenity":"waste_basket"}},"type":"Feature"}
]
}
