{
"type": "FeatureCollection",
"features": [
	{"geometry":{"coordinates":[-0.295367,44.58595],"type":"Point"},"properties":{"osm_id":"406831356","tag":{"amenity":"recycling","recycling:glass":"yes"}},"type":"Feature"},
	{"geometry":{"coordinates":[-0.299108,44.582719],"type":"Point"},"properties":{"osm_id":"1720399430","tag":{"amenity":"recycling","recycling:glass":"yes"}},"type":"Feature"},
	{"geometry":{"coordinates":[-0.294701,44.536674],"type":"Point"},"properties":{"osm_id":"4557629549","tag":{"amenity":"waste_basket"}},"type":"Feature"},
	{"geometry":{"coordinates":[-0.301303,44.530725],"type":"Point"},"properties":{"osm_id":"4687785015","tag":{"amenity":"recycling","recycling:cans":"yes","recycling:cartons":"yes","recycling:glass_bottles":"yes","recycling:paper":"yes","recycling:plastic_bottles":"yes","recycling_type":"container","website":"http://www.ussgetom.fr/gestion-des-dechets/19-les-dechets-recyclables.html"}},"type":"Feature"},
	{"geometry":{"coordinates":[-0.277528,44.555387],"type":"Point"},"properties":{"osm_id":"4872399416","tag":{"amenity":"recycling","recycling:cans":"yes","recycling:cartons":"yes","recycling:glass_bottles":"yes","recycling:paper":"yes","recycling:plastic_bottles":"yes","recycling_type":"container","website":"http://www.ussgetom.fr/gestion-des-dechets/19-les-dechets-recyclables.html"}},"type":"Feature"},
	{"geometry":{"coordinates":[-0.267524,44.55726],"type":"Point"},"properties":{"osm_id":"5155432853","tag":{"amenity":"recycling","recycling:cans":"yes","recycling:cartons":"yes","recycling:glass_bottles":"yes","recycling:paper":"yes","recycling:plastic_bottles":"yes","recycling_type":"container","website":"http://sictomsudgironde.fr/"}},"type":"Feature"},
	{"geometry":{"coordinates":[-0.275964,44.558628],"type":"Point"},"properties":{"osm_id":"5429317875","tag":{"amenity":"recycling","recycling:cans":"yes","recycling:cartons":"yes","recycling:glass_bottles":"yes","recycling:paper":"yes","recycling:plastic_bottles":"yes","recycling_type":"container","website":"http://sictomsudgironde.fr/"}},"type":"Feature"},
	{"geometry":{"coordinates":[-0.348727,44.545648],"type":"Point"},"properties":{"osm_id":"6285044867","tag":{"amenity":"recycling","recycling:cans":"yes","recycling:cartons":"yes","recycling:glass_bottles":"yes","recycling:paper":"yes","recycling:plastic_bottles":"yes","recycling_type":"container","website":"http://sictomsudgironde.fr/"}},"type":"Feature"},
	{"geometry":{"coordinates":[-0.294742,44.536696],"type":"Point"},"properties":{"osm_id":"7111647438","tag":{"amenity":"recycling","recycling_type":"container"}},"type":"Feature"}
]
}
