{
"type": "FeatureCollection",
"features": [
	{"geometry":{"coordinates":[-0.309327,43.885693],"type":"Point"},"properties":{"osm_id":"6293895807","tag":{"amenity":"recycling","operator":"Sictom du Marsan","recycling:glass_bottles":"yes","recycling:paper":"yes","recycling_type":"container"}},"type":"Feature"},
	{"geometry":{"coordinates":[-0.307255,43.887482],"type":"Point"},"properties":{"osm_id":"8625983362","tag":{"amenity":"recycling","operator":"Sictom du Marsan","recycling:glass_bottles":"yes","recycling_type":"container","wheelchair":"yes"}},"type":"Feature"},
	{"geometry":{"coordinates":[-0.308043,43.895005],"type":"Point"},"properties":{"osm_id":"8625987199","tag":{"amenity":"recycling","operator":"Sictom du Marsan","recycling:glass_bottles":"yes","recycling_type":"container"}},"type":"Feature"},
	{"geometry":{"coordinates":[-0.264857,43.888899],"type":"Point"},"properties":{"osm_id":"8702294866","tag":{"amenity":"waste_basket"}},"type":"Feature"},
	{"geometry":{"coordinates":[-0.333015,43.860926],"type":"Point"},"properties":{"osm_id":"8702310815","tag":{"amenity":"recycling","recycling:glass_bottles":"yes","recycling:paper":"yes","recycling_type":"container"}},"type":"Feature"},
	{"geometry":{"coordinates":[-0.305129,43.893661],"type":"Point"},"properties":{"name":"Poubelle","osm_id":"8922572331"},"type":"Feature"},
	{"geometry":{"coordinates":[-0.305355,43.894085],"type":"Point"},"properties":{"osm_id":"8926524299","tag":{"amenity":"waste_basket"}},"type":"Feature"},
	{"geometry":{"coordinates":[-0.305011,43.894114],"type":"Point"},"properties":{"osm_id":"8926524841","tag":{"amenity":"waste_basket"}},"type":"Feature"},
	{"geometry":{"coordinates":[-0.305426,43.894247],"type":"Point"},"properties":{"osm_id":"8928519831","tag":{"amenity":"waste_basket"}},"type":"Feature"},
	{"geometry":{"coordinates":[-0.305376,43.892259],"type":"Point"},"properties":{"osm_id":"8928530299","tag":{"amenity":"waste_basket"}},"type":"Feature"},
	{"geometry":{"coordinates":[-0.305253,43.892678],"type":"Point"},"properties":{"osm_id":"8928531951","tag":{"amenity":"waste_basket"}},"type":"Feature"},
	{"geometry":{"coordinates":[-0.305602,43.893969],"type":"Point"},"properties":{"osm_id":"8928533223","tag":{"amenity":"waste_basket"}},"type":"Feature"},
	{"geometry":{"coordinates":[-0.304458,43.891911],"type":"Point"},"properties":{"osm_id":"8928540291","tag":{"amenity":"waste_basket"}},"type":"Feature"},
	{"geometry":{"coordinates":[-0.304997,43.892578],"type":"Point"},"properties":{"osm_id":"8928574288","tag":{"amenity":"waste_basket"}},"type":"Feature"},
	{"geometry":{"coordinates":[-0.306845,43.892618],"type":"Point"},"properties":{"osm_id":"8928577776","tag":{"amenity":"waste_basket"}},"type":"Feature"},
	{"geometry":{"coordinates":[-0.307346,43.89304],"type":"Point"},"properties":{"osm_id":"8928599457","tag":{"amenity":"waste_basket"}},"type":"Feature"},
	{"geometry":{"coordinates":[-0.305697,43.892491],"type":"Point"},"properties":{"osm_id":"8928602969","tag":{"amenity":"waste_basket"}},"type":"Feature"}
]
}
