{
"type": "FeatureCollection",
"features": [
	{"geometry":{"coordinates":[-0.326675,43.325243],"type":"Point"},"properties":{"osm_id":"2839752254","tag":{"amenity":"waste_basket"}},"type":"Feature"},
	{"geometry":{"coordinates":[-0.327819,43.325747],"type":"Point"},"properties":{"osm_id":"2839752257","tag":{"amenity":"waste_basket"}},"type":"Feature"},
	{"geometry":{"coordinates":[-0.327743,43.325755],"type":"Point"},"properties":{"osm_id":"2839752258","tag":{"amenity":"waste_basket"}},"type":"Feature"},
	{"geometry":{"coordinates":[-0.305314,43.377181],"type":"Point"},"properties":{"osm_id":"5719829196","tag":{"amenity":"recycling","recycling:clothes":"yes","recycling_type":"container"}},"type":"Feature"},
	{"geometry":{"coordinates":[-0.301612,43.328724],"type":"Point"},"properties":{"name":"Adour Ressourceries","osm_id":"8635415077","tag":{"amenity":"recycling","brand":"Ressourcerie","contact:email":"contact@adour-ressourcerie.fr","contact:facebook":"https://www.facebook.com/pages/category/Government-Building/Landes-Ressourcerie-1122432531107774/","contact:phone":"+33 5 59 02 07 26","contact:website":"http://www.landes-ressourcerie.fr/","network":"R\u00c3\u00a9seau national des ressourceries","operator":"Landes Ressourceries","recycling_type":"centre","ref:FR:SIRET":"80114643200027","shop":"second_hand"}},"type":"Feature"}
]
}
