{
"type": "FeatureCollection",
"features": [
	{"geometry":{"coordinates":[-0.331393,42.957678],"type":"Point"},"properties":{"name":"Poubelles de tri","osm_id":"6635229551","tag":{"amenity":"recycling","location":"overground","recycling_type":"container"}},"type":"Feature"},
	{"geometry":{"coordinates":[-0.333755,42.958468],"type":"Point"},"properties":{"osm_id":"7911583693","tag":{"amenity":"recycling","recycling_type":"container"}},"type":"Feature"},
	{"geometry":{"coordinates":[-0.339328,42.962844],"type":"Point"},"properties":{"osm_id":"8701103657","tag":{"amenity":"recycling","recycling_type":"container"}},"type":"Feature"},
	{"geometry":{"coordinates":[-0.332257,42.958006],"type":"Point"},"properties":{"osm_id":"9196467700","tag":{"amenity":"waste_disposal"}},"type":"Feature"},
	{"geometry":{"coordinates":[-0.332238,42.958002],"type":"Point"},"properties":{"osm_id":"9196467701","tag":{"amenity":"waste_disposal"}},"type":"Feature"},
	{"geometry":{"coordinates":[-0.33222,42.957993],"type":"Point"},"properties":{"osm_id":"9196467702","tag":{"amenity":"waste_disposal"}},"type":"Feature"},
	{"geometry":{"coordinates":[-0.332202,42.957984],"type":"Point"},"properties":{"osm_id":"9196467703","tag":{"amenity":"waste_disposal"}},"type":"Feature"}
]
}
