{
"type": "FeatureCollection",
"features": [
	{"geometry":{"coordinates":[-0.334944,42.77107],"type":"Point"},"properties":{"osm_id":"3901754433","tag":{"addr:city":"Sallent de G\u00c3\u00a1llego","addr:postcode":"22640","amenity":"recycling","recycling:cans":"yes","recycling:glass_bottles":"yes","recycling:paper":"yes","recycling:plastic":"yes","recycling_type":"container"}},"type":"Feature"},
	{"geometry":{"coordinates":[-0.333478,42.771807],"type":"Point"},"properties":{"osm_id":"3903077481","tag":{"addr:city":"Sallent de G\u00c3\u00a1llego","addr:postcode":"22640","addr:street":"Calle de Francia","amenity":"recycling","recycling:cans":"yes","recycling:glass_bottles":"yes","recycling:paper":"yes","recycling:plastic":"yes","recycling_type":"container"}},"type":"Feature"},
	{"geometry":{"coordinates":[-0.334659,42.772656],"type":"Point"},"properties":{"osm_id":"4219291084","tag":{"addr:city":"Sallent de G\u00c3\u00a1llego","addr:postcode":"22640","addr:street":"Calle Espadilla","amenity":"recycling","recycling:cans":"yes","recycling:glass_bottles":"yes","recycling:paper":"yes","recycling:plastic_bottles":"yes","recycling:waste":"yes","recycling_type":"container"}},"type":"Feature"},
	{"geometry":{"coordinates":[-0.313726,42.755121],"type":"Point"},"properties":{"osm_id":"4867756963","tag":{"amenity":"recycling","recycling:cans":"yes","recycling:organic_waste":"yes","recycling:paper":"yes","recycling_type":"container"}},"type":"Feature"},
	{"geometry":{"coordinates":[-0.315436,42.755617],"type":"Point"},"properties":{"osm_id":"4867756964","tag":{"amenity":"waste_basket"}},"type":"Feature"},
	{"geometry":{"coordinates":[-0.331913,42.771684],"type":"Point"},"properties":{"osm_id":"6614618722","tag":{"amenity":"recycling","recycling_type":"container"}},"type":"Feature"},
	{"geometry":{"coordinates":[-0.333989,42.771953],"type":"Point"},"properties":{"osm_id":"6614688287","tag":{"amenity":"recycling","recycling:organic_waste":"yes","recycling_type":"container"}},"type":"Feature"},
	{"geometry":{"coordinates":[-0.331721,42.796814],"type":"Point"},"properties":{"osm_id":"6618910572","tag":{"amenity":"recycling"}},"type":"Feature"},
	{"geometry":{"coordinates":[-0.331378,42.772459],"type":"Point"},"properties":{"osm_id":"6719967578","tag":{"amenity":"waste_basket"}},"type":"Feature"}
]
}
