{
"type": "FeatureCollection",
"features": [
	{"geometry":{"coordinates":[-0.316019,42.716363],"type":"Point"},"properties":{"osm_id":"447796209","tag":{"amenity":"recycling","recycling:cans":"yes","recycling:glass_bottles":"yes","recycling:paper":"yes"}},"type":"Feature"},
	{"geometry":{"coordinates":[-0.32544,42.695566],"type":"Point"},"properties":{"osm_id":"447800327","tag":{"addr:city":"Piedrafita de Jaca","addr:postcode":"22665","amenity":"recycling","recycling:cans":"yes","recycling:glass_bottles":"yes","recycling:paper":"yes","recycling_type":"container"}},"type":"Feature"},
	{"geometry":{"coordinates":[-0.316406,42.715274],"type":"Point"},"properties":{"osm_id":"1484876219","tag":{"amenity":"recycling","recycling:cans":"yes","recycling:glass_bottles":"yes","recycling:paper":"yes","recycling_type":"container"}},"type":"Feature"},
	{"geometry":{"coordinates":[-0.321018,42.683514],"type":"Point"},"properties":{"osm_id":"3767162003","tag":{"amenity":"recycling","recycling:organic_waste":"yes","recycling_type":"container"}},"type":"Feature"},
	{"geometry":{"coordinates":[-0.280721,42.722287],"type":"Point"},"properties":{"osm_id":"3767166863","tag":{"amenity":"recycling","location":"underground","recycling:cans":"yes","recycling:glass_bottles":"yes","recycling:paper":"yes","recycling_type":"container"}},"type":"Feature"},
	{"geometry":{"coordinates":[-0.283126,42.723858],"type":"Point"},"properties":{"osm_id":"3856498671","tag":{"addr:city":"Panticosa","addr:postcode":"22661","addr:street":"Calle San Miguel","amenity":"recycling","recycling:cans":"yes","recycling:glass_bottles":"yes","recycling:paper":"yes","recycling:plastic":"yes","recycling_type":"container"}},"type":"Feature"},
	{"geometry":{"coordinates":[-0.316126,42.737277],"type":"Point"},"properties":{"osm_id":"3899732572","tag":{"addr:city":"Escarrilla","addr:postcode":"22660","addr:street":"Calle El Tozal","amenity":"recycling","recycling:cans":"yes","recycling:glass_bottles":"yes","recycling:paper":"yes","recycling:plastic":"yes","recycling_type":"container"}},"type":"Feature"},
	{"geometry":{"coordinates":[-0.311572,42.732864],"type":"Point"},"properties":{"osm_id":"3900025205","tag":{"addr:city":"Escarrilla","addr:postcode":"22660","addr:street":"Carretera de Biescas a Francia","amenity":"recycling","recycling:cans":"yes","recycling:glass_bottles":"yes","recycling:paper":"yes","recycling:plastic":"yes","recycling_type":"container"}},"type":"Feature"},
	{"geometry":{"coordinates":[-0.312272,42.733815],"type":"Point"},"properties":{"osm_id":"3900025744","tag":{"addr:city":"Escarrilla","amenity":"recycling","recycling:cans":"yes","recycling:glass_bottles":"yes","recycling:paper":"yes","recycling:plastic":"yes","recycling_type":"container"}},"type":"Feature"},
	{"geometry":{"coordinates":[-0.312268,42.735636],"type":"Point"},"properties":{"osm_id":"3900210973","tag":{"addr:city":"Escarrilla","addr:postcode":"22660","addr:street":"Calle del Llano","amenity":"recycling","recycling:cans":"yes","recycling:glass_bottles":"yes","recycling:paper":"yes","recycling:plastic":"yes","recycling_type":"container"}},"type":"Feature"},
	{"geometry":{"coordinates":[-0.314573,42.735994],"type":"Point"},"properties":{"osm_id":"3900421201","tag":{"addr:city":"Escarrilla","addr:postcode":"22660","addr:street":"Calle Santa Cruz","amenity":"recycling","recycling:cans":"yes","recycling:glass_bottles":"yes","recycling:paper":"yes","recycling:plastic":"yes","recycling_type":"container"}},"type":"Feature"},
	{"geometry":{"coordinates":[-0.314884,42.713355],"type":"Point"},"properties":{"osm_id":"3993970123","tag":{"addr:city":"Tramacastilla de Tena","addr:postcode":"22663","addr:street":"Carretera a  Tramacastilla","amenity":"recycling","recycling:cans":"yes","recycling:glass_bottles":"yes","recycling:plastic":"yes","recycling_type":"container"}},"type":"Feature"},
	{"geometry":{"coordinates":[-0.305306,42.691283],"type":"Point"},"properties":{"osm_id":"3997675198","tag":{"addr:city":"Hoz de Jaca","addr:postcode":"22662","addr:street":"Calle de las Alacunas","amenity":"recycling","recycling:cans":"yes","recycling:glass_bottles":"yes","recycling:paper":"yes","recycling:plastic":"yes","recycling_type":"container"}},"type":"Feature"},
	{"geometry":{"coordinates":[-0.305438,42.689784],"type":"Point"},"properties":{"osm_id":"3997747530","tag":{"addr:city":"Hoz de Jaca","addr:postcode":"22662","addr:street":"Calle de La Zalcama","amenity":"recycling","recycling:cans":"yes","recycling:glass_bottles":"yes","recycling:paper":"yes","recycling_type":"container"}},"type":"Feature"},
	{"geometry":{"coordinates":[-0.325383,42.695499],"type":"Point"},"properties":{"osm_id":"3997916625","tag":{"amenity":"recycling","recycling:cans":"yes","recycling:glass_bottles":"no","recycling:paper":"no","recycling_type":"container"}},"type":"Feature"},
	{"geometry":{"coordinates":[-0.285379,42.723708],"type":"Point"},"properties":{"osm_id":"4002377979","tag":{"amenity":"waste_disposal"}},"type":"Feature"},
	{"geometry":{"coordinates":[-0.285326,42.7237],"type":"Point"},"properties":{"osm_id":"4002377980","tag":{"addr:city":"Panticosa","addr:postcode":"22661","addr:street":"Calle de la Cruz","amenity":"recycling","recycling:cans":"yes","recycling:glass_bottles":"yes","recycling:paper":"yes","recycling_type":"container"}},"type":"Feature"},
	{"geometry":{"coordinates":[-0.288034,42.724161],"type":"Point"},"properties":{"osm_id":"4002409816","tag":{"addr:city":"Panticosa","addr:postcode":"22661","addr:street":"Calle de la Cruz","amenity":"recycling","recycling:bottles":"yes","recycling:cans":"yes","recycling:organic":"yes","recycling:paper":"yes","recycling:plastic":"yes","recycling_type":"container"}},"type":"Feature"},
	{"geometry":{"coordinates":[-0.288665,42.723461],"type":"Point"},"properties":{"osm_id":"4004405683","tag":{"addr:city":"Panticosa","addr:postcode":"22661","addr:street":"Calle La Paul","amenity":"recycling","recycling:cans":"yes","recycling:glass_bottles":"yes","recycling:paper":"yes","recycling:plastic":"yes","recycling_type":"container"}},"type":"Feature"},
	{"geometry":{"coordinates":[-0.284934,42.722886],"type":"Point"},"properties":{"osm_id":"4004434278","tag":{"amenity":"waste_disposal"}},"type":"Feature"},
	{"geometry":{"coordinates":[-0.284925,42.722872],"type":"Point"},"properties":{"osm_id":"4004434279","tag":{"addr:city":"Panticosa","addr:postcode":"22661","addr:street":"Calle El Cambaz","amenity":"recycling","recycling:glass_bottles":"yes","recycling_type":"container"}},"type":"Feature"},
	{"geometry":{"coordinates":[-0.2819,42.72592],"type":"Point"},"properties":{"osm_id":"4111446567","tag":{"addr:city":"Panticosa","addr:postcode":"22661","addr:street":"Calle El Bachato","amenity":"waste_disposal"}},"type":"Feature"},
	{"geometry":{"coordinates":[-0.281764,42.721516],"type":"Point"},"properties":{"osm_id":"4456332154","tag":{"amenity":"waste_basket"}},"type":"Feature"},
	{"geometry":{"coordinates":[-0.289332,42.723196],"type":"Point"},"properties":{"osm_id":"4883777738","tag":{"amenity":"recycling","recycling:glass_bottles":"yes","recycling:organic_waste":"yes","recycling:paper":"yes","recycling:plastic_packaging":"yes","recycling_type":"container"}},"type":"Feature"},
	{"geometry":{"coordinates":[-0.279856,42.726155],"type":"Point"},"properties":{"osm_id":"4889919619","tag":{"amenity":"recycling","recycling:organic":"yes","recycling_type":"container"}},"type":"Feature"},
	{"geometry":{"coordinates":[-0.282631,42.720251],"type":"Point"},"properties":{"osm_id":"4902461679","tag":{"amenity":"waste_basket"}},"type":"Feature"},
	{"geometry":{"coordinates":[-0.282085,42.723744],"type":"Point"},"properties":{"osm_id":"5219428821","tag":{"amenity":"recycling","recycling:organic_waste":"yes","recycling:paper":"yes","recycling:plastic":"yes","recycling_type":"container"}},"type":"Feature"},
	{"geometry":{"coordinates":[-0.306624,42.716957],"type":"Point"},"properties":{"osm_id":"5828036762","tag":{"amenity":"recycling","recycling:glass_bottles":"yes","recycling:organic_waste":"yes","recycling:paper":"yes","recycling:plastic_packaging":"yes","recycling_type":"container"}},"type":"Feature"},
	{"geometry":{"coordinates":[-0.319349,42.700041],"type":"Point"},"properties":{"osm_id":"6126441349","tag":{"amenity":"recycling","recycling:organic_waste":"yes","recycling_type":"container"}},"type":"Feature"},
	{"geometry":{"coordinates":[-0.285461,42.722661],"type":"Point"},"properties":{"osm_id":"6126741047","tag":{"amenity":"recycling","recycling:glass_bottles":"yes","recycling:organic_waste":"yes","recycling:paper_packaging":"yes","recycling:plastic_packaging":"yes","recycling_type":"container"}},"type":"Feature"},
	{"geometry":{"coordinates":[-0.307757,42.692371],"type":"Point"},"properties":{"name":"Punto Limpio","osm_id":"6508531763","tag":{"amenity":"recycling","recycling_type":"centre"}},"type":"Feature"},
	{"geometry":{"coordinates":[-0.331899,42.696113],"type":"Point"},"properties":{"osm_id":"6719967544","tag":{"amenity":"recycling","recycling:organic_waste":"yes","recycling_type":"container"}},"type":"Feature"}
]
}
