{
"type": "FeatureCollection",
"features": [
	{"geometry":{"coordinates":[-0.316685,42.62851],"type":"Point"},"properties":{"osm_id":"3760341385","tag":{"addr:city":"Biescas","addr:postcode":"22630","addr:street":"Paseo del Canal","amenity":"recycling","recycling:cans":"yes","recycling:glass_bottles":"yes","recycling:paper":"yes","recycling:plastic":"yes","recycling_type":"container"}},"type":"Feature"},
	{"geometry":{"coordinates":[-0.317967,42.627419],"type":"Point"},"properties":{"osm_id":"3760341759","tag":{"amenity":"recycling","location":"overground","recycling:cans":"yes","recycling:glass_bottles":"yes","recycling:paper":"yes","recycling:plastic":"no","recycling:plastic_bottles":"yes","recycling:plastic_packaging":"no","recycling_type":"container"}},"type":"Feature"},
	{"geometry":{"coordinates":[-0.318985,42.628758],"type":"Point"},"properties":{"osm_id":"3760343066","tag":{"amenity":"recycling","location":"overground","recycling:cans":"yes","recycling:organic":"yes","recycling:paper":"yes","recycling:plastic_bottles":"yes","recycling_type":"container"}},"type":"Feature"},
	{"geometry":{"coordinates":[-0.317749,42.629319],"type":"Point"},"properties":{"osm_id":"3760344316","tag":{"amenity":"recycling","recycling:glass_bottles":"yes","recycling:organic":"yes","recycling:paper":"yes","recycling_type":"container"}},"type":"Feature"},
	{"geometry":{"coordinates":[-0.322572,42.630119],"type":"Point"},"properties":{"osm_id":"3760346417","tag":{"amenity":"recycling","location":"overground","recycling:glass_bottles":"yes","recycling:organic_waste":"yes","recycling:paper":"yes","recycling_type":"container"}},"type":"Feature"},
	{"geometry":{"coordinates":[-0.323852,42.627732],"type":"Point"},"properties":{"osm_id":"3760354908","tag":{"addr:city":"Biescas","addr:postcode":"22630","addr:street":"Rambla de San Pedro","amenity":"recycling","location":"overground","recycling:glass_bottles":"yes","recycling:oil":"yes","recycling:organic":"yes","recycling:paper":"yes","recycling_type":"container"}},"type":"Feature"},
	{"geometry":{"coordinates":[-0.321741,42.628005],"type":"Point"},"properties":{"osm_id":"3765414724","tag":{"amenity":"recycling","recycling:cans":"yes","recycling:glass_bottles":"yes","recycling:oil":"yes","recycling:paper":"yes","recycling:plastic":"yes","recycling_type":"container"}},"type":"Feature"},
	{"geometry":{"coordinates":[-0.32469,42.628045],"type":"Point"},"properties":{"osm_id":"3767170119","tag":{"amenity":"recycling","recycling:cans":"yes","recycling:glass_bottles":"yes","recycling:paper":"yes","recycling:plastic":"yes","recycling_type":"container"}},"type":"Feature"},
	{"geometry":{"coordinates":[-0.324798,42.627523],"type":"Point"},"properties":{"osm_id":"3767175874","tag":{"amenity":"recycling","recycling:cans":"yes","recycling:glass_bottles":"yes","recycling:paper":"yes","recycling:plastic":"yes","recycling_type":"container"}},"type":"Feature"},
	{"geometry":{"coordinates":[-0.319163,42.629725],"type":"Point"},"properties":{"osm_id":"3779782999","tag":{"addr:street":"Calle Uni\u00c3\u00b3n","amenity":"recycling","recycling:clothes":"no","recycling:glass_bottles":"yes","recycling:oil":"yes","recycling:paper":"yes","recycling:plastic":"yes","recycling_type":"container"}},"type":"Feature"},
	{"geometry":{"coordinates":[-0.318724,42.630708],"type":"Point"},"properties":{"osm_id":"3779796993","tag":{"addr:street":"Calle Goya","amenity":"recycling","recycling:cans":"yes","recycling:glass_bottles":"yes","recycling:paper":"yes","recycling:plastic":"yes","recycling_type":"container"}},"type":"Feature"},
	{"geometry":{"coordinates":[-0.326764,42.622682],"type":"Point"},"properties":{"osm_id":"3784780380","tag":{"addr:street":"Avenida del Manzano","amenity":"recycling","recycling:cans":"yes","recycling:glass_bottles":"yes","recycling:paper":"yes","recycling:plastic":"yes","recycling_type":"container"}},"type":"Feature"},
	{"geometry":{"coordinates":[-0.32452,42.625402],"type":"Point"},"properties":{"osm_id":"3784833614","tag":{"addr:street":"Avenida de Zaragoza","amenity":"recycling","recycling:cans":"yes","recycling:glass_bottles":"yes","recycling:paper":"yes","recycling:plastic":"yes","recycling_type":"container"}},"type":"Feature"},
	{"geometry":{"coordinates":[-0.324571,42.626195],"type":"Point"},"properties":{"osm_id":"3784844876","tag":{"addr:city":"Biescas","addr:postcode":"22630","addr:street":"Avenida de Zaragoza","amenity":"recycling","recycling:cans":"yes","recycling:glass_bottles":"yes","recycling:paper":"yes","recycling:plastic":"yes","recycling_type":"container"}},"type":"Feature"},
	{"geometry":{"coordinates":[-0.322365,42.62919],"type":"Point"},"properties":{"osm_id":"3792622696","tag":{"addr:street":"Calle Ram\u00c3\u00b3n y Cajal","amenity":"recycling","recycling:cans":"yes","recycling:glass_bottles":"yes","recycling:paper":"yes","recycling:plastic":"yes","recycling_type":"container"}},"type":"Feature"},
	{"geometry":{"coordinates":[-0.326111,42.629728],"type":"Point"},"properties":{"osm_id":"3792672763","tag":{"addr:street":"Calle Mar\u00c3\u00ada Moliner","amenity":"recycling","recycling:cans":"yes","recycling:glass_bottles":"yes","recycling:paper":"yes","recycling:plastic":"yes","recycling_type":"container"}},"type":"Feature"},
	{"geometry":{"coordinates":[-0.322005,42.628608],"type":"Point"},"properties":{"osm_id":"3867807344","tag":{"amenity":"waste_basket"}},"type":"Feature"},
	{"geometry":{"coordinates":[-0.320942,42.629311],"type":"Point"},"properties":{"osm_id":"4087946228","tag":{"addr:city":"Biescas","addr:postcode":"22630","addr:street":"Calle del Tinte","amenity":"recycling","recycling:cans":"yes","recycling:glass_bottles":"yes","recycling:paper":"yes","recycling:plastic":"yes","recycling_type":"container"}},"type":"Feature"},
	{"geometry":{"coordinates":[-0.322151,42.624368],"type":"Point"},"properties":{"osm_id":"5113514447","tag":{"amenity":"waste_basket","waste":"dog_excrement"}},"type":"Feature"},
	{"geometry":{"coordinates":[-0.321826,42.623237],"type":"Point"},"properties":{"osm_id":"5126195129","tag":{"amenity":"waste_basket"}},"type":"Feature"},
	{"geometry":{"coordinates":[-0.32262,42.627499],"type":"Point"},"properties":{"osm_id":"5179740821","tag":{"amenity":"recycling","recycling:glass_bottles":"yes","recycling:organic_waste":"yes","recycling:paper":"yes","recycling:plastic_packaging":"yes","recycling_type":"container"}},"type":"Feature"},
	{"geometry":{"coordinates":[-0.321661,42.629961],"type":"Point"},"properties":{"osm_id":"5201780923","tag":{"amenity":"recycling","recycling:organic_waste":"yes","recycling:paper":"yes","recycling:plastic_packaging":"yes","recycling_type":"container"}},"type":"Feature"},
	{"geometry":{"coordinates":[-0.322795,42.628495],"type":"Point"},"properties":{"osm_id":"5244745922","tag":{"amenity":"waste_basket"}},"type":"Feature"},
	{"geometry":{"coordinates":[-0.320336,42.628655],"type":"Point"},"properties":{"osm_id":"5333156722","tag":{"amenity":"waste_basket"}},"type":"Feature"},
	{"geometry":{"coordinates":[-0.319213,42.628523],"type":"Point"},"properties":{"osm_id":"5759043926","tag":{"amenity":"waste_basket"}},"type":"Feature"},
	{"geometry":{"coordinates":[-0.31905,42.629774],"type":"Point"},"properties":{"osm_id":"5770429436","tag":{"amenity":"waste_basket"}},"type":"Feature"},
	{"geometry":{"coordinates":[-0.349487,42.621991],"type":"Point"},"properties":{"osm_id":"5823740953","tag":{"amenity":"recycling","recycling:organic_waste":"yes","recycling_type":"container"}},"type":"Feature"},
	{"geometry":{"coordinates":[-0.321386,42.628496],"type":"Point"},"properties":{"osm_id":"5832560987","tag":{"amenity":"waste_basket"}},"type":"Feature"},
	{"geometry":{"coordinates":[-0.322188,42.628754],"type":"Point"},"properties":{"osm_id":"5832560988","tag":{"amenity":"waste_basket"}},"type":"Feature"},
	{"geometry":{"coordinates":[-0.319799,42.629571],"type":"Point"},"properties":{"osm_id":"5899031136","tag":{"amenity":"waste_basket"}},"type":"Feature"},
	{"geometry":{"coordinates":[-0.322536,42.629542],"type":"Point"},"properties":{"osm_id":"6164165486","tag":{"amenity":"waste_basket"}},"type":"Feature"},
	{"geometry":{"coordinates":[-0.323081,42.631637],"type":"Point"},"properties":{"osm_id":"6164332109","tag":{"amenity":"recycling","recycling:organic_waste":"yes","recycling:plastic_bottles":"yes","recycling_type":"container"}},"type":"Feature"},
	{"geometry":{"coordinates":[-0.320864,42.627868],"type":"Point"},"properties":{"osm_id":"6197675145","tag":{"amenity":"waste_basket"}},"type":"Feature"},
	{"geometry":{"coordinates":[-0.326239,42.629462],"type":"Point"},"properties":{"osm_id":"6303083825","tag":{"amenity":"waste_basket"}},"type":"Feature"},
	{"geometry":{"coordinates":[-0.323037,42.630678],"type":"Point"},"properties":{"osm_id":"6972667366","tag":{"amenity":"waste_basket"}},"type":"Feature"},
	{"geometry":{"coordinates":[-0.32399,42.623668],"type":"Point"},"properties":{"osm_id":"7171363199","tag":{"amenity":"waste_basket"}},"type":"Feature"},
	{"geometry":{"coordinates":[-0.314652,42.625907],"type":"Point"},"properties":{"osm_id":"7912552887","tag":{"amenity":"waste_disposal","waste":"organic"}},"type":"Feature"}
]
}
