{
"type": "FeatureCollection",
"features": [
	{"geometry":{"coordinates":[-0.327449,42.586483],"type":"Point"},"properties":{"osm_id":"3767566279","tag":{"amenity":"recycling","recycling:cans":"yes","recycling:glass_bottles":"yes","recycling:paper":"yes","recycling:plastic":"yes","recycling_type":"container"}},"type":"Feature"},
	{"geometry":{"coordinates":[-0.293512,42.598068],"type":"Point"},"properties":{"osm_id":"3805313925","tag":{"amenity":"recycling","recycling:cans":"yes","recycling:glass_bottles":"yes","recycling:paper":"yes","recycling:plastic":"yes","recycling_type":"container"}},"type":"Feature"},
	{"geometry":{"coordinates":[-0.337977,42.558034],"type":"Point"},"properties":{"osm_id":"3829777953","tag":{"addr:city":"Seneg\u00c3\u00bc\u00c3\u00a9","amenity":"recycling","recycling:cans":"yes","recycling:glass_bottles":"yes","recycling:waste":"yes","recycling_type":"container"}},"type":"Feature"},
	{"geometry":{"coordinates":[-0.314954,42.605947],"type":"Point"},"properties":{"osm_id":"3867809081","tag":{"addr:city":"Or\u00c3\u00b3s Alto","addr:postcode":"22801","addr:street":"Camino de Oros Alto","amenity":"recycling","recycling:cans":"yes","recycling:glass_bottles":"yes","recycling:paper":"yes","recycling:plastic":"yes","recycling_type":"container"}},"type":"Feature"},
	{"geometry":{"coordinates":[-0.327278,42.593813],"type":"Point"},"properties":{"osm_id":"4095855168","tag":{"addr:city":"Escuer","addr:postcode":"22636","addr:street":"Calle \u00c3\u009anica","amenity":"recycling","recycling:cans":"yes","recycling:glass_bottles":"yes","recycling:paper":"yes","recycling:plastic":"yes","recycling_type":"container"}},"type":"Feature"},
	{"geometry":{"coordinates":[-0.28914,42.600282],"type":"Point"},"properties":{"osm_id":"4532249570","tag":{"amenity":"waste_basket"}},"type":"Feature"},
	{"geometry":{"coordinates":[-0.317996,42.554135],"type":"Point"},"properties":{"osm_id":"4910524621","tag":{"amenity":"waste_basket"}},"type":"Feature"},
	{"geometry":{"coordinates":[-0.317576,42.553904],"type":"Point"},"properties":{"osm_id":"4910699875","tag":{"amenity":"recycling","recycling:organic_waste":"yes","recycling_type":"container"}},"type":"Feature"},
	{"geometry":{"coordinates":[-0.337622,42.556856],"type":"Point"},"properties":{"osm_id":"6719985100","tag":{"amenity":"recycling","recycling:organic_waste":"yes","recycling_type":"container"}},"type":"Feature"}
]
}
