{
"type": "FeatureCollection",
"features": [
	{"geometry":{"coordinates":[-0.276816,39.673763],"type":"Point"},"properties":{"osm_id":"911498082","tag":{"amenity":"recycling"}},"type":"Feature"},
	{"geometry":{"coordinates":[-0.338648,39.665557],"type":"Point"},"properties":{"osm_id":"911889644","tag":{"amenity":"recycling"}},"type":"Feature"},
	{"geometry":{"coordinates":[-0.339718,39.639996],"type":"Point"},"properties":{"osm_id":"2133749060","tag":{"amenity":"recycling"}},"type":"Feature"},
	{"geometry":{"coordinates":[-0.281813,39.684047],"type":"Point"},"properties":{"name":"Punto de reciclado de V\u00c3\u00addrio, papel y pl\u00c3\u00a1stico","osm_id":"4102177407","tag":{"amenity":"recycling"}},"type":"Feature"},
	{"geometry":{"coordinates":[-0.282897,39.68626],"type":"Point"},"properties":{"osm_id":"4102177408","tag":{"amenity":"recycling"}},"type":"Feature"},
	{"geometry":{"coordinates":[-0.282984,39.687965],"type":"Point"},"properties":{"osm_id":"4102177409","tag":{"amenity":"recycling"}},"type":"Feature"},
	{"geometry":{"coordinates":[-0.279458,39.683942],"type":"Point"},"properties":{"osm_id":"4102177410","tag":{"amenity":"recycling"}},"type":"Feature"},
	{"geometry":{"coordinates":[-0.277198,39.683886],"type":"Point"},"properties":{"osm_id":"4102177411","tag":{"amenity":"recycling"}},"type":"Feature"},
	{"geometry":{"coordinates":[-0.340774,39.666773],"type":"Point"},"properties":{"osm_id":"5403408779","tag":{"amenity":"recycling","recycling_type":"container"}},"type":"Feature"},
	{"geometry":{"coordinates":[-0.341799,39.66527],"type":"Point"},"properties":{"osm_id":"5403408780","tag":{"amenity":"recycling","recycling_type":"container"}},"type":"Feature"},
	{"geometry":{"coordinates":[-0.338164,39.664553],"type":"Point"},"properties":{"osm_id":"5403408781","tag":{"amenity":"recycling","recycling_type":"container"}},"type":"Feature"},
	{"geometry":{"coordinates":[-0.336288,39.665288],"type":"Point"},"properties":{"osm_id":"5403408782","tag":{"amenity":"recycling","recycling_type":"container"}},"type":"Feature"},
	{"geometry":{"coordinates":[-0.337078,39.666284],"type":"Point"},"properties":{"osm_id":"5403408783","tag":{"amenity":"recycling","recycling_type":"container"}},"type":"Feature"},
	{"geometry":{"coordinates":[-0.338747,39.667551],"type":"Point"},"properties":{"osm_id":"5403408784","tag":{"amenity":"recycling","recycling_type":"container"}},"type":"Feature"},
	{"geometry":{"coordinates":[-0.339349,39.668629],"type":"Point"},"properties":{"osm_id":"5403408785","tag":{"amenity":"recycling","recycling_type":"container"}},"type":"Feature"},
	{"geometry":{"coordinates":[-0.341757,39.667851],"type":"Point"},"properties":{"osm_id":"5403408786","tag":{"amenity":"recycling","recycling_type":"container"}},"type":"Feature"},
	{"geometry":{"coordinates":[-0.342815,39.666704],"type":"Point"},"properties":{"osm_id":"5403408787","tag":{"amenity":"recycling","recycling_type":"container"}},"type":"Feature"}
]
}
