{
"type": "FeatureCollection",
"lastupdate": "2020-08-01T00:00:00Z",
"features": [
	{"geometry":{"coordinates":[-0.283347,5.573723],"type":"Point"},"properties":{"name":"Coliba Collection Point","osm_id":"6286096128","tag":{"amenity":"recycling","opening_hours":"24/7","operator":"Coliba","recycling:plastic":"yes","recycling:plastic_bottles":"yes","recycling:plastic_packaging":"yes","recycling_type":"centre"}},"type":"Feature"},
	{"geometry":{"coordinates":[-0.285136,5.569805],"type":"Point"},"properties":{"name":"Coliba Collection Point","osm_id":"6286104627","tag":{"amenity":"recycling","opening_hours":"24/7","operator":"Coliba","recycling:plastic":"yes","recycling:plastic_bottles":"yes","recycling:plastic_packaging":"yes","recycling_type":"centre"}},"type":"Feature"},
	{"geometry":{"coordinates":[-0.286476,5.569496],"type":"Point"},"properties":{"name":"Coliba Collection Point","osm_id":"6286104628","tag":{"amenity":"recycling","opening_hours":"24/7","operator":"Coliba","recycling:plastic":"yes","recycling:plastic_bottles":"yes","recycling:plastic_packaging":"yes","recycling_type":"centre"}},"type":"Feature"},
	{"geometry":{"coordinates":[-0.304026,5.555969],"type":"Point"},"properties":{"osm_id":"6787326522","tag":{"amenity":"waste_basket"}},"type":"Feature"},
	{"geometry":{"coordinates":[-0.289868,5.562364],"type":"Point"},"properties":{"osm_id":"6838326119","tag":{"amenity":"waste_basket"}},"type":"Feature"},
	{"geometry":{"coordinates":[-0.294821,5.558723],"type":"Point"},"properties":{"osm_id":"6838330109","tag":{"amenity":"waste_basket"}},"type":"Feature"},
	{"geometry":{"coordinates":[-0.330196,5.551004],"type":"Point"},"properties":{"osm_id":"6865854700","tag":{"amenity":"waste_basket"}},"type":"Feature"},
	{"geometry":{"coordinates":[-0.341954,5.54649],"type":"Point"},"properties":{"osm_id":"6869131575","tag":{"amenity":"waste_basket"}},"type":"Feature"},
	{"geometry":{"coordinates":[-0.330429,5.55089],"type":"Point"},"properties":{"osm_id":"6897114912","tag":{"amenity":"waste_basket"}},"type":"Feature"},
	{"geometry":{"coordinates":[-0.335508,5.548872],"type":"Point"},"properties":{"osm_id":"6952255304","tag":{"amenity":"waste_basket"}},"type":"Feature"},
	{"geometry":{"coordinates":[-0.264889,5.57962],"type":"Point"},"properties":{"osm_id":"6961452275","tag":{"amenity":"waste_basket"}},"type":"Feature"},
	{"geometry":{"coordinates":[-0.308909,5.553862],"type":"Point"},"properties":{"osm_id":"6988110435","tag":{"amenity":"waste_basket"}},"type":"Feature"},
	{"geometry":{"coordinates":[-0.309123,5.554154],"type":"Point"},"properties":{"osm_id":"7012176366","tag":{"amenity":"waste_basket"}},"type":"Feature"},
	{"geometry":{"coordinates":[-0.326788,5.552417],"type":"Point"},"properties":{"osm_id":"7036703944","tag":{"amenity":"waste_basket"}},"type":"Feature"},
	{"geometry":{"coordinates":[-0.326678,5.55217],"type":"Point"},"properties":{"osm_id":"7036710247","tag":{"amenity":"waste_basket"}},"type":"Feature"}
]
}
