{
"type": "FeatureCollection",
"features": [
	{"geometry":{"coordinates":[2.063514,48.805027],"type":"Point"},"properties":{"osm_id":"158559741","tag":{"amenity":"recycling"}},"type":"Feature"},
	{"geometry":{"coordinates":[2.048824,48.786212],"type":"Point"},"properties":{"osm_id":"207524618","tag":{"amenity":"recycling"}},"type":"Feature"},
	{"geometry":{"coordinates":[2.091699,48.774522],"type":"Point"},"properties":{"osm_id":"626836940","tag":{"amenity":"recycling","recycling:glass":"yes","recycling:paper":"yes","recycling_type":"container"}},"type":"Feature"},
	{"geometry":{"coordinates":[2.059642,48.767501],"type":"Point"},"properties":{"osm_id":"635337628","tag":{"amenity":"recycling","recycling:glass":"yes","recycling:paper":"yes","recycling_type":"container"}},"type":"Feature"},
	{"geometry":{"coordinates":[2.050651,48.781512],"type":"Point"},"properties":{"osm_id":"664084809","tag":{"amenity":"recycling","recycling:glass":"yes","recycling:paper":"yes","recycling_type":"container"}},"type":"Feature"},
	{"geometry":{"coordinates":[2.05226,48.783605],"type":"Point"},"properties":{"osm_id":"665269919","tag":{"amenity":"recycling","recycling:glass":"yes","recycling:paper":"yes"}},"type":"Feature"},
	{"geometry":{"coordinates":[2.022142,48.801673],"type":"Point"},"properties":{"osm_id":"1320374779","tag":{"amenity":"recycling","recycling:glass":"yes","recycling:paper":"yes","recycling:scrap_metal":"yes"}},"type":"Feature"},
	{"geometry":{"coordinates":[2.069021,48.768475],"type":"Point"},"properties":{"osm_id":"1747604314","tag":{"amenity":"recycling","recycling:glass_bottles":"yes","recycling:magazines":"yes","recycling:newspaper":"yes","recycling_type":"container"}},"type":"Feature"},
	{"geometry":{"coordinates":[2.075815,48.766465],"type":"Point"},"properties":{"osm_id":"1747604324","tag":{"amenity":"recycling","recycling:glass_bottles":"yes","recycling:magazines":"yes","recycling:newspaper":"yes","recycling_type":"container"}},"type":"Feature"},
	{"geometry":{"coordinates":[2.075774,48.769386],"type":"Point"},"properties":{"osm_id":"1747795416","tag":{"amenity":"recycling","recycling:glass_bottles":"yes","recycling:magazines":"yes","recycling:newspaper":"yes","recycling_type":"container"}},"type":"Feature"},
	{"geometry":{"coordinates":[2.070739,48.766158],"type":"Point"},"properties":{"osm_id":"1747795417","tag":{"amenity":"recycling","recycling:glass_bottles":"yes","recycling:magazines":"yes","recycling:paper":"yes","recycling_type":"container"}},"type":"Feature"},
	{"geometry":{"coordinates":[2.041324,48.783686],"type":"Point"},"properties":{"osm_id":"1909063294","tag":{"amenity":"waste_basket"}},"type":"Feature"},
	{"geometry":{"coordinates":[2.052109,48.783717],"type":"Point"},"properties":{"osm_id":"1937169609","tag":{"amenity":"waste_basket"}},"type":"Feature"},
	{"geometry":{"coordinates":[2.077771,48.767602],"type":"Point"},"properties":{"osm_id":"1996901429","tag":{"amenity":"recycling","location":"underground","recycling:glass_bottles":"yes","recycling:magazines":"yes","recycling:newspaper":"yes","recycling_type":"container"}},"type":"Feature"},
	{"geometry":{"coordinates":[2.051938,48.775914],"type":"Point"},"properties":{"osm_id":"2000569683","tag":{"amenity":"recycling","location":"underground","recycling_type":"container"}},"type":"Feature"},
	{"geometry":{"coordinates":[2.059081,48.776651],"type":"Point"},"properties":{"osm_id":"2000569684","tag":{"amenity":"recycling","recycling_type":"container"}},"type":"Feature"},
	{"geometry":{"coordinates":[2.065835,48.800041],"type":"Point"},"properties":{"osm_id":"2015858197","tag":{"amenity":"waste_basket"}},"type":"Feature"},
	{"geometry":{"coordinates":[2.064837,48.800219],"type":"Point"},"properties":{"osm_id":"2015858200","tag":{"amenity":"waste_basket"}},"type":"Feature"},
	{"geometry":{"coordinates":[2.064494,48.800281],"type":"Point"},"properties":{"osm_id":"2015858210","tag":{"amenity":"waste_basket"}},"type":"Feature"},
	{"geometry":{"coordinates":[2.066432,48.799937],"type":"Point"},"properties":{"osm_id":"2015858214","tag":{"amenity":"waste_basket"}},"type":"Feature"},
	{"geometry":{"coordinates":[2.06495,48.800334],"type":"Point"},"properties":{"osm_id":"2015858219","tag":{"amenity":"waste_basket"}},"type":"Feature"},
	{"geometry":{"coordinates":[2.07164,48.799018],"type":"Point"},"properties":{"osm_id":"2015858226","tag":{"amenity":"waste_basket"}},"type":"Feature"},
	{"geometry":{"coordinates":[2.072711,48.798978],"type":"Point"},"properties":{"osm_id":"2015858227","tag":{"amenity":"waste_basket"}},"type":"Feature"},
	{"geometry":{"coordinates":[2.062939,48.803484],"type":"Point"},"properties":{"osm_id":"2015858241","tag":{"amenity":"waste_basket"}},"type":"Feature"},
	{"geometry":{"coordinates":[2.066414,48.799606],"type":"Point"},"properties":{"osm_id":"2015858242","tag":{"amenity":"waste_basket"}},"type":"Feature"},
	{"geometry":{"coordinates":[2.062928,48.803189],"type":"Point"},"properties":{"osm_id":"2015858254","tag":{"amenity":"waste_basket"}},"type":"Feature"},
	{"geometry":{"coordinates":[2.062646,48.803265],"type":"Point"},"properties":{"osm_id":"2015858261","tag":{"amenity":"waste_basket"}},"type":"Feature"},
	{"geometry":{"coordinates":[2.070787,48.799161],"type":"Point"},"properties":{"osm_id":"2015858265","tag":{"amenity":"waste_basket"}},"type":"Feature"},
	{"geometry":{"coordinates":[2.065988,48.800162],"type":"Point"},"properties":{"osm_id":"2015858268","tag":{"amenity":"waste_basket"}},"type":"Feature"},
	{"geometry":{"coordinates":[2.066549,48.799917],"type":"Point"},"properties":{"osm_id":"2015858280","tag":{"amenity":"waste_basket"}},"type":"Feature"},
	{"geometry":{"coordinates":[2.054095,48.755733],"type":"Point"},"properties":{"osm_id":"2353459867","tag":{"amenity":"waste_basket"}},"type":"Feature"},
	{"geometry":{"coordinates":[2.073537,48.798599],"type":"Point"},"properties":{"osm_id":"2532263475","tag":{"amenity":"waste_basket","layer":"1","level":"1"}},"type":"Feature"},
	{"geometry":{"coordinates":[2.072894,48.798714],"type":"Point"},"properties":{"osm_id":"2532263496","tag":{"amenity":"waste_basket","layer":"1","level":"1"}},"type":"Feature"},
	{"geometry":{"coordinates":[2.073189,48.798722],"type":"Point"},"properties":{"osm_id":"2532263505","tag":{"amenity":"waste_basket","layer":"1","level":"1"}},"type":"Feature"},
	{"geometry":{"coordinates":[2.072409,48.798806],"type":"Point"},"properties":{"osm_id":"2532263519","tag":{"amenity":"waste_basket","layer":"1","level":"1"}},"type":"Feature"},
	{"geometry":{"coordinates":[2.0728,48.798826],"type":"Point"},"properties":{"osm_id":"2532263523","tag":{"amenity":"waste_basket","layer":"1","level":"1"}},"type":"Feature"},
	{"geometry":{"coordinates":[2.073184,48.798832],"type":"Point"},"properties":{"osm_id":"2532263526","tag":{"amenity":"waste_basket","layer":"1","level":"1"}},"type":"Feature"},
	{"geometry":{"coordinates":[2.072551,48.798932],"type":"Point"},"properties":{"osm_id":"2532263538","tag":{"amenity":"waste_basket","layer":"1","level":"1"}},"type":"Feature"},
	{"geometry":{"coordinates":[2.073158,48.798969],"type":"Point"},"properties":{"osm_id":"2532263551","tag":{"amenity":"waste_basket","layer":"1"}},"type":"Feature"},
	{"geometry":{"coordinates":[2.073326,48.79899],"type":"Point"},"properties":{"osm_id":"2532263559","tag":{"amenity":"waste_basket","layer":"0","level":"0"}},"type":"Feature"},
	{"geometry":{"coordinates":[2.044129,48.787056],"type":"Point"},"properties":{"osm_id":"2532408329","tag":{"amenity":"waste_basket","layer":"0","level":"0"}},"type":"Feature"},
	{"geometry":{"coordinates":[2.044765,48.786987],"type":"Point"},"properties":{"osm_id":"2532408379","tag":{"amenity":"waste_basket","layer":"-1","level":"-1"}},"type":"Feature"},
	{"geometry":{"coordinates":[2.044667,48.786948],"type":"Point"},"properties":{"osm_id":"2532408388","tag":{"amenity":"waste_basket","layer":"-1","level":"-1"}},"type":"Feature"},
	{"geometry":{"coordinates":[2.044538,48.786889],"type":"Point"},"properties":{"osm_id":"2532408420","tag":{"amenity":"waste_basket","layer":"-1","level":"-1"}},"type":"Feature"},
	{"geometry":{"coordinates":[2.044373,48.787173],"type":"Point"},"properties":{"osm_id":"2532408426","tag":{"amenity":"waste_basket","layer":"0","level":"0"}},"type":"Feature"},
	{"geometry":{"coordinates":[2.04399,48.787181],"type":"Point"},"properties":{"osm_id":"2532408441","tag":{"amenity":"waste_basket","layer":"0","level":"0"}},"type":"Feature"},
	{"geometry":{"coordinates":[2.044225,48.787293],"type":"Point"},"properties":{"osm_id":"2532408520","tag":{"amenity":"waste_basket","layer":"0","level":"0"}},"type":"Feature"},
	{"geometry":{"coordinates":[2.043857,48.787304],"type":"Point"},"properties":{"osm_id":"2532408528","tag":{"amenity":"waste_basket","layer":"0","level":"0"}},"type":"Feature"},
	{"geometry":{"coordinates":[2.044754,48.78736],"type":"Point"},"properties":{"osm_id":"2532408572","tag":{"amenity":"waste_basket","layer":"0","level":"0"}},"type":"Feature"},
	{"geometry":{"coordinates":[2.04438,48.787369],"type":"Point"},"properties":{"osm_id":"2532408579","tag":{"amenity":"waste_basket","layer":"0","level":"0"}},"type":"Feature"},
	{"geometry":{"coordinates":[2.044824,48.787401],"type":"Point"},"properties":{"osm_id":"2532408609","tag":{"amenity":"waste_basket","layer":"0","level":"0"}},"type":"Feature"},
	{"geometry":{"coordinates":[2.044089,48.787425],"type":"Point"},"properties":{"osm_id":"2532408627","tag":{"amenity":"waste_basket","layer":"0","level":"0"}},"type":"Feature"},
	{"geometry":{"coordinates":[2.044606,48.787482],"type":"Point"},"properties":{"osm_id":"2532408642","tag":{"amenity":"waste_basket","layer":"0","level":"0"}},"type":"Feature"},
	{"geometry":{"coordinates":[2.044692,48.787527],"type":"Point"},"properties":{"osm_id":"2532408653","tag":{"amenity":"waste_basket","layer":"0","level":"0"}},"type":"Feature"},
	{"geometry":{"coordinates":[2.044442,48.78758],"type":"Point"},"properties":{"osm_id":"2532408672","tag":{"amenity":"waste_basket","layer":"0","level":"0"}},"type":"Feature"},
	{"geometry":{"coordinates":[2.044581,48.787651],"type":"Point"},"properties":{"osm_id":"2532408699","tag":{"amenity":"waste_basket","layer":"0","level":"0"}},"type":"Feature"},
	{"geometry":{"coordinates":[2.045388,48.787686],"type":"Point"},"properties":{"osm_id":"2532408729","tag":{"amenity":"waste_basket","layer":"0","level":"0"}},"type":"Feature"},
	{"geometry":{"coordinates":[2.045357,48.787857],"type":"Point"},"properties":{"osm_id":"2532408788","tag":{"amenity":"waste_basket","layer":"0","level":"0"}},"type":"Feature"},
	{"geometry":{"coordinates":[2.023283,48.775536],"type":"Point"},"properties":{"name":"D\u00c3\u00a9chetterie Municipale","osm_id":"2700130164","tag":{"addr:city":"Montigny-le-Bretonneux","addr:housenumber":"5","addr:postcode":"78180","addr:street":"Avenue du Parc","amenity":"recycling","phone":"+33 1 34 98 03 99","recycling:clothes":"yes","recycling:glass":"yes","recycling:paper":"yes","recycling_type":"centre","website":"http://www.montigny78.fr/cadre-de-vie/collecte-des-dechets/dechetterie-municipale/"}},"type":"Feature"},
	{"geometry":{"coordinates":[2.063961,48.774208],"type":"Point"},"properties":{"osm_id":"3131231524","tag":{"amenity":"recycling","recycling:cans":"no","recycling:clothes":"no","recycling:glass":"yes","recycling:paper":"yes","recycling_type":"container"}},"type":"Feature"},
	{"geometry":{"coordinates":[2.041517,48.779137],"type":"Point"},"properties":{"osm_id":"3447362422","tag":{"amenity":"waste_basket"}},"type":"Feature"},
	{"geometry":{"coordinates":[2.061698,48.803637],"type":"Point"},"properties":{"osm_id":"4172531090","tag":{"amenity":"recycling","recycling:glass_bottles":"yes","recycling_type":"container"}},"type":"Feature"},
	{"geometry":{"coordinates":[2.072956,48.799092],"type":"Point"},"properties":{"osm_id":"4368983593","tag":{"amenity":"recycling","recycling:glass_bottles":"yes"}},"type":"Feature"},
	{"geometry":{"coordinates":[2.056614,48.801749],"type":"Point"},"properties":{"osm_id":"4397411422","tag":{"amenity":"recycling","operator":"Le Relais","recycling:clothes":"yes","recycling_type":"container"}},"type":"Feature"},
	{"geometry":{"coordinates":[2.0595,48.80297],"type":"Point"},"properties":{"osm_id":"4436269442","tag":{"amenity":"recycling","recycling:glass":"yes","recycling_type":"container"}},"type":"Feature"},
	{"geometry":{"coordinates":[2.065228,48.757595],"type":"Point"},"properties":{"osm_id":"4853872264","tag":{"amenity":"waste_basket"}},"type":"Feature"},
	{"geometry":{"coordinates":[2.057287,48.801293],"type":"Point"},"properties":{"osm_id":"4879482420","tag":{"amenity":"recycling","recycling:glass":"yes","recycling_type":"container"}},"type":"Feature"},
	{"geometry":{"coordinates":[2.05925,48.800824],"type":"Point"},"properties":{"osm_id":"4879482421","tag":{"amenity":"recycling","recycling:glass":"yes","recycling_type":"container"}},"type":"Feature"},
	{"geometry":{"coordinates":[2.060604,48.80402],"type":"Point"},"properties":{"osm_id":"4879534002","tag":{"amenity":"waste_basket"}},"type":"Feature"},
	{"geometry":{"coordinates":[2.080343,48.76879],"type":"Point"},"properties":{"osm_id":"4896666222","tag":{"amenity":"recycling","location":"underground","recycling:glass_bottles":"yes","recycling_type":"container"}},"type":"Feature"},
	{"geometry":{"coordinates":[2.080802,48.769259],"type":"Point"},"properties":{"osm_id":"4897877717","tag":{"amenity":"waste_basket","survey:date":"2017-07-18"}},"type":"Feature"},
	{"geometry":{"coordinates":[2.047317,48.775997],"type":"Point"},"properties":{"osm_id":"4907668422","tag":{"amenity":"recycling","recycling:clothes":"yes","recycling_type":"container"}},"type":"Feature"},
	{"geometry":{"coordinates":[2.077811,48.767566],"type":"Point"},"properties":{"osm_id":"4907724199","tag":{"amenity":"waste_basket","survey:date":"2018-09-22"}},"type":"Feature"},
	{"geometry":{"coordinates":[2.050839,48.774486],"type":"Point"},"properties":{"osm_id":"4907839095","tag":{"amenity":"waste_basket"}},"type":"Feature"},
	{"geometry":{"coordinates":[2.08018,48.769685],"type":"Point"},"properties":{"osm_id":"4986810222","tag":{"amenity":"waste_basket"}},"type":"Feature"},
	{"geometry":{"coordinates":[2.054085,48.802163],"type":"Point"},"properties":{"osm_id":"5021875623","tag":{"amenity":"recycling","recycling:glass_bottles":"yes","recycling_type":"container"}},"type":"Feature"},
	{"geometry":{"coordinates":[2.041554,48.778822],"type":"Point"},"properties":{"osm_id":"5203626023","tag":{"amenity":"waste_basket"}},"type":"Feature"},
	{"geometry":{"coordinates":[2.041367,48.779189],"type":"Point"},"properties":{"osm_id":"5203640421","tag":{"amenity":"waste_basket"}},"type":"Feature"},
	{"geometry":{"coordinates":[2.041441,48.778749],"type":"Point"},"properties":{"osm_id":"5203640521","tag":{"amenity":"waste_basket"}},"type":"Feature"},
	{"geometry":{"coordinates":[2.073353,48.798943],"type":"Point"},"properties":{"osm_id":"6027173406","tag":{"amenity":"waste_basket","level":"0"}},"type":"Feature"},
	{"geometry":{"coordinates":[2.073334,48.79902],"type":"Point"},"properties":{"osm_id":"6027173416","tag":{"amenity":"waste_basket","level":"0"}},"type":"Feature"},
	{"geometry":{"coordinates":[2.044593,48.786038],"type":"Point"},"properties":{"osm_id":"6031780858","tag":{"amenity":"waste_basket"}},"type":"Feature"},
	{"geometry":{"coordinates":[2.044682,48.786079],"type":"Point"},"properties":{"osm_id":"6031780861","tag":{"amenity":"waste_basket"}},"type":"Feature"},
	{"geometry":{"coordinates":[2.070146,48.774496],"type":"Point"},"properties":{"osm_id":"6032231868","tag":{"amenity":"recycling","recycling_type":"container"}},"type":"Feature"},
	{"geometry":{"coordinates":[2.045005,48.787079],"type":"Point"},"properties":{"osm_id":"6032272427","tag":{"amenity":"waste_basket","layer":"-1","level":"-1"}},"type":"Feature"},
	{"geometry":{"coordinates":[2.070532,48.774855],"type":"Point"},"properties":{"osm_id":"6034768068","tag":{"amenity":"waste_basket"}},"type":"Feature"},
	{"geometry":{"coordinates":[2.070184,48.77454],"type":"Point"},"properties":{"osm_id":"6034768077","tag":{"amenity":"recycling","recycling_type":"container"}},"type":"Feature"},
	{"geometry":{"coordinates":[2.071633,48.776098],"type":"Point"},"properties":{"osm_id":"6036330410","tag":{"amenity":"waste_basket"}},"type":"Feature"},
	{"geometry":{"coordinates":[2.07058,48.77513],"type":"Point"},"properties":{"osm_id":"6036330429","tag":{"amenity":"waste_basket"}},"type":"Feature"},
	{"geometry":{"coordinates":[2.0732,48.77566],"type":"Point"},"properties":{"osm_id":"6036357389","tag":{"amenity":"waste_basket"}},"type":"Feature"},
	{"geometry":{"coordinates":[2.027522,48.766837],"type":"Point"},"properties":{"osm_id":"6209749305","tag":{"amenity":"waste_basket"}},"type":"Feature"},
	{"geometry":{"coordinates":[2.076501,48.775303],"type":"Point"},"properties":{"osm_id":"6533935686","tag":{"amenity":"recycling","recycling:glass_bottles":"yes","recycling_type":"container"}},"type":"Feature"},
	{"geometry":{"coordinates":[2.058975,48.783645],"type":"Point"},"properties":{"osm_id":"6580389026","tag":{"amenity":"waste_basket"}},"type":"Feature"},
	{"geometry":{"coordinates":[2.043148,48.781945],"type":"Point"},"properties":{"osm_id":"6791173247","tag":{"amenity":"waste_basket","material":"metal"}},"type":"Feature"},
	{"geometry":{"coordinates":[2.067122,48.799307],"type":"Point"},"properties":{"osm_id":"7207024835","tag":{"amenity":"recycling","colour":"yellow","operator":"Versaille Grand Parc","recycling:cans":"yes","recycling:cartons":"yes","recycling:magazines":"yes","recycling:newspaper":"yes","recycling:paper":"yes","recycling:plastic_bottles":"yes","recycling_type":"container"}},"type":"Feature"},
	{"geometry":{"coordinates":[2.067118,48.79929],"type":"Point"},"properties":{"osm_id":"7207024836","tag":{"amenity":"recycling","operator":"Versaille Grand Parc","recycling:glass_bottles":"yes","recycling_type":"container"}},"type":"Feature"},
	{"geometry":{"coordinates":[2.067107,48.799274],"type":"Point"},"properties":{"osm_id":"7207024837","tag":{"amenity":"waste_disposal","operator":"Versaille Grand Parc"}},"type":"Feature"},
	{"geometry":{"coordinates":[2.067115,48.798413],"type":"Point"},"properties":{"osm_id":"7527017132","tag":{"amenity":"recycling","recycling:glass_bottles":"yes","recycling_type":"container"}},"type":"Feature"},
	{"geometry":{"coordinates":[2.066966,48.798432],"type":"Point"},"properties":{"osm_id":"7527017137","tag":{"amenity":"waste_basket"}},"type":"Feature"},
	{"geometry":{"coordinates":[2.057879,48.80627],"type":"Point"},"properties":{"osm_id":"7563262225","tag":{"amenity":"recycling","recycling_type":"container"}},"type":"Feature"},
	{"geometry":{"coordinates":[2.053522,48.805169],"type":"Point"},"properties":{"osm_id":"7563311264","tag":{"amenity":"recycling","recycling:glass_bottles":"yes","recycling_type":"container"}},"type":"Feature"},
	{"geometry":{"coordinates":[2.053535,48.805187],"type":"Point"},"properties":{"osm_id":"7563311265","tag":{"amenity":"recycling","recycling:clothes":"yes","recycling_type":"container"}},"type":"Feature"},
	{"geometry":{"coordinates":[2.059573,48.802943],"type":"Point"},"properties":{"osm_id":"7563331673","tag":{"amenity":"waste_basket"}},"type":"Feature"},
	{"geometry":{"coordinates":[2.0595,48.803227],"type":"Point"},"properties":{"osm_id":"7563331682","tag":{"amenity":"waste_basket"}},"type":"Feature"},
	{"geometry":{"coordinates":[2.063557,48.799379],"type":"Point"},"properties":{"osm_id":"7582122480","tag":{"amenity":"recycling","recycling:glass_bottles":"yes","recycling_type":"container"}},"type":"Feature"},
	{"geometry":{"coordinates":[2.073205,48.798454],"type":"Point"},"properties":{"osm_id":"7582122578","tag":{"amenity":"waste_basket"}},"type":"Feature"},
	{"geometry":{"coordinates":[2.066695,48.806083],"type":"Point"},"properties":{"osm_id":"7729251995","tag":{"amenity":"recycling","recycling:glass_bottles":"yes","recycling_type":"container"}},"type":"Feature"},
	{"geometry":{"coordinates":[2.056952,48.797539],"type":"Point"},"properties":{"osm_id":"7786791750","tag":{"amenity":"waste_basket"}},"type":"Feature"},
	{"geometry":{"coordinates":[2.056499,48.80191],"type":"Point"},"properties":{"osm_id":"7786861513","tag":{"amenity":"recycling","recycling:glass_bottles":"yes","recycling_type":"container"}},"type":"Feature"},
	{"geometry":{"coordinates":[2.065984,48.799749],"type":"Point"},"properties":{"osm_id":"7817100950","tag":{"amenity":"waste_basket","waste":"trash"}},"type":"Feature"},
	{"geometry":{"coordinates":[2.066604,48.799544],"type":"Point"},"properties":{"osm_id":"7817100951","tag":{"amenity":"waste_basket","waste":"dog_excrement"}},"type":"Feature"},
	{"geometry":{"coordinates":[2.06944,48.79922],"type":"Point"},"properties":{"osm_id":"7817501449","tag":{"amenity":"waste_basket","waste":"trash"}},"type":"Feature"},
	{"geometry":{"coordinates":[2.069352,48.799372],"type":"Point"},"properties":{"osm_id":"7817501450","tag":{"amenity":"waste_basket","waste":"trash"}},"type":"Feature"},
	{"geometry":{"coordinates":[2.069652,48.799332],"type":"Point"},"properties":{"osm_id":"7817501452","tag":{"amenity":"waste_basket","waste":"trash"}},"type":"Feature"},
	{"geometry":{"coordinates":[2.067921,48.798794],"type":"Point"},"properties":{"osm_id":"7817508834","tag":{"amenity":"waste_basket","waste":"trash"}},"type":"Feature"},
	{"geometry":{"coordinates":[2.067697,48.798844],"type":"Point"},"properties":{"osm_id":"7817508839","tag":{"amenity":"waste_basket","waste":"trash"}},"type":"Feature"},
	{"geometry":{"coordinates":[2.063998,48.800824],"type":"Point"},"properties":{"osm_id":"7822993129","tag":{"amenity":"waste_basket"}},"type":"Feature"},
	{"geometry":{"coordinates":[2.064036,48.80071],"type":"Point"},"properties":{"osm_id":"7822993130","tag":{"amenity":"waste_basket"}},"type":"Feature"},
	{"geometry":{"coordinates":[2.064051,48.800576],"type":"Point"},"properties":{"osm_id":"7822993131","tag":{"amenity":"waste_basket"}},"type":"Feature"},
	{"geometry":{"coordinates":[2.06433,48.800469],"type":"Point"},"properties":{"osm_id":"7822993132","tag":{"amenity":"waste_basket"}},"type":"Feature"},
	{"geometry":{"coordinates":[2.064685,48.800556],"type":"Point"},"properties":{"osm_id":"7822993135","tag":{"amenity":"waste_basket"}},"type":"Feature"},
	{"geometry":{"coordinates":[2.057949,48.796208],"type":"Point"},"properties":{"osm_id":"7823059713","tag":{"amenity":"waste_disposal"}},"type":"Feature"},
	{"geometry":{"coordinates":[2.057962,48.796207],"type":"Point"},"properties":{"osm_id":"7823059714","tag":{"amenity":"waste_disposal"}},"type":"Feature"},
	{"geometry":{"coordinates":[2.057977,48.796205],"type":"Point"},"properties":{"osm_id":"7823059715","tag":{"amenity":"recycling","recycling_type":"container"}},"type":"Feature"},
	{"geometry":{"coordinates":[2.057993,48.796204],"type":"Point"},"properties":{"osm_id":"7823059716","tag":{"amenity":"recycling","recycling_type":"container"}},"type":"Feature"},
	{"geometry":{"coordinates":[2.069757,48.798611],"type":"Point"},"properties":{"osm_id":"7830356753","tag":{"amenity":"waste_basket","waste":"trash"}},"type":"Feature"},
	{"geometry":{"coordinates":[2.071677,48.798897],"type":"Point"},"properties":{"osm_id":"7831380548","tag":{"amenity":"waste_basket","waste":"trash"}},"type":"Feature"},
	{"geometry":{"coordinates":[2.071198,48.798887],"type":"Point"},"properties":{"osm_id":"7831380549","tag":{"amenity":"waste_basket","waste":"trash"}},"type":"Feature"},
	{"geometry":{"coordinates":[2.069847,48.805204],"type":"Point"},"properties":{"osm_id":"7832739987","tag":{"natural":"tree"}},"type":"Feature"},
	{"geometry":{"coordinates":[2.069966,48.805149],"type":"Point"},"properties":{"osm_id":"7832739989","tag":{"natural":"tree"}},"type":"Feature"},
	{"geometry":{"coordinates":[2.065441,48.806392],"type":"Point"},"properties":{"osm_id":"7833253365","tag":{"amenity":"recycling","recycling:cans":"yes","recycling:cardboard":"yes","recycling:paper":"yes","recycling:plastic_bottles":"yes","recycling_type":"container"}},"type":"Feature"},
	{"geometry":{"coordinates":[2.065438,48.806404],"type":"Point"},"properties":{"osm_id":"7833253367","tag":{"amenity":"waste_disposal"}},"type":"Feature"},
	{"geometry":{"coordinates":[2.065442,48.806378],"type":"Point"},"properties":{"osm_id":"7833253368","tag":{"amenity":"recycling","recycling:cans":"yes","recycling:cardboard":"yes","recycling:paper":"yes","recycling:plastic_bottles":"yes","recycling_type":"container"}},"type":"Feature"},
	{"geometry":{"coordinates":[2.068429,48.806814],"type":"Point"},"properties":{"osm_id":"7876899836","tag":{"amenity":"waste_basket","waste":"trash"}},"type":"Feature"},
	{"geometry":{"coordinates":[2.064107,48.804806],"type":"Point"},"properties":{"osm_id":"7876925908","tag":{"amenity":"waste_basket","waste":"trash"}},"type":"Feature"},
	{"geometry":{"coordinates":[2.064914,48.805725],"type":"Point"},"properties":{"osm_id":"7876925909","tag":{"amenity":"waste_basket","waste":"trash"}},"type":"Feature"},
	{"geometry":{"coordinates":[2.063773,48.804503],"type":"Point"},"properties":{"osm_id":"7876925910","tag":{"amenity":"recycling","recycling:glass_bottles":"yes","recycling_type":"container"}},"type":"Feature"},
	{"geometry":{"coordinates":[2.068125,48.8061],"type":"Point"},"properties":{"osm_id":"7876936736","tag":{"amenity":"waste_basket","waste":"trash"}},"type":"Feature"},
	{"geometry":{"coordinates":[2.063808,48.802386],"type":"Point"},"properties":{"osm_id":"7876969331","tag":{"amenity":"recycling","recycling:glass_bottles":"yes","recycling_type":"container"}},"type":"Feature"},
	{"geometry":{"coordinates":[2.064639,48.798251],"type":"Point"},"properties":{"osm_id":"7879709964","tag":{"amenity":"recycling","recycling:glass_bottles":"yes","recycling_type":"container"}},"type":"Feature"},
	{"geometry":{"coordinates":[2.063071,48.798214],"type":"Point"},"properties":{"osm_id":"7879709966","tag":{"amenity":"recycling","recycling:glass_bottles":"yes","recycling_type":"container"}},"type":"Feature"},
	{"geometry":{"coordinates":[2.061337,48.798182],"type":"Point"},"properties":{"osm_id":"7879709970","tag":{"amenity":"recycling","recycling_type":"container"}},"type":"Feature"},
	{"geometry":{"coordinates":[2.05921,48.797702],"type":"Point"},"properties":{"osm_id":"7879709972","tag":{"amenity":"recycling","recycling:glass_bottles":"yes","recycling_type":"container"}},"type":"Feature"},
	{"geometry":{"coordinates":[2.063772,48.800466],"type":"Point"},"properties":{"osm_id":"7879997450","tag":{"amenity":"recycling","recycling:glass_bottles":"yes","recycling_type":"container"}},"type":"Feature"},
	{"geometry":{"coordinates":[2.072956,48.799085],"type":"Point"},"properties":{"osm_id":"7903636387","tag":{"amenity":"waste_basket","waste":"trash"}},"type":"Feature"},
	{"geometry":{"coordinates":[2.071829,48.798981],"type":"Point"},"properties":{"osm_id":"7903636406","tag":{"amenity":"waste_basket","waste":"trash"}},"type":"Feature"}
]
}
