{
"type": "FeatureCollection",
"features": [
	{"geometry":{"coordinates":[2.04523,48.702779],"type":"Point"},"properties":{"osm_id":"443743813","tag":{"amenity":"recycling","location":"overground","recycling:clothes":"yes","recycling:glass":"no","recycling:glass_bottles":"yes","recycling:paper":"yes","recycling_type":"container"}},"type":"Feature"},
	{"geometry":{"coordinates":[2.073539,48.703583],"type":"Point"},"properties":{"osm_id":"1210676077","tag":{"amenity":"recycling","recycling:cans":"no","recycling:clothes":"yes","recycling:glass":"yes","recycling:glass_bottles":"yes","recycling:paper":"no","recycling:plastic":"no","recycling_type":"container"}},"type":"Feature"},
	{"geometry":{"coordinates":[2.097843,48.700148],"type":"Point"},"properties":{"osm_id":"1559411526","tag":{"amenity":"recycling","recycling_type":"container"}},"type":"Feature"},
	{"geometry":{"coordinates":[2.055471,48.703484],"type":"Point"},"properties":{"osm_id":"1745772945","tag":{"amenity":"recycling","recycling:glass":"no","recycling:glass_bottles":"yes","recycling_type":"container"}},"type":"Feature"},
	{"geometry":{"coordinates":[2.061693,48.743871],"type":"Point"},"properties":{"osm_id":"2564096107","tag":{"amenity":"waste_basket"}},"type":"Feature"},
	{"geometry":{"coordinates":[2.09987,48.730603],"type":"Point"},"properties":{"osm_id":"2682488462","tag":{"amenity":"recycling","recycling:glass":"yes","recycling:paper":"yes"}},"type":"Feature"},
	{"geometry":{"coordinates":[2.099851,48.730608],"type":"Point"},"properties":{"osm_id":"2682488469","tag":{"amenity":"waste_basket"}},"type":"Feature"},
	{"geometry":{"coordinates":[2.105618,48.701515],"type":"Point"},"properties":{"osm_id":"2901499066","tag":{"amenity":"waste_basket","recycling:cans":"no","recycling:clothes":"yes","recycling:glass":"no","recycling:paper":"no"}},"type":"Feature"},
	{"geometry":{"coordinates":[2.10653,48.700799],"type":"Point"},"properties":{"osm_id":"2901499067","tag":{"amenity":"recycling","recycling:glass":"yes","recycling_type":"container"}},"type":"Feature"},
	{"geometry":{"coordinates":[2.081897,48.727455],"type":"Point"},"properties":{"osm_id":"3747582571","tag":{"amenity":"waste_basket"}},"type":"Feature"},
	{"geometry":{"coordinates":[2.089333,48.735079],"type":"Point"},"properties":{"osm_id":"3767626690","tag":{"amenity":"waste_basket"}},"type":"Feature"},
	{"geometry":{"coordinates":[2.088928,48.737154],"type":"Point"},"properties":{"osm_id":"3767626725","tag":{"amenity":"waste_basket"}},"type":"Feature"},
	{"geometry":{"coordinates":[2.088917,48.7374],"type":"Point"},"properties":{"osm_id":"3767626741","tag":{"amenity":"waste_basket"}},"type":"Feature"},
	{"geometry":{"coordinates":[2.086981,48.737786],"type":"Point"},"properties":{"osm_id":"3767626750","tag":{"amenity":"waste_basket"}},"type":"Feature"},
	{"geometry":{"coordinates":[2.092284,48.738104],"type":"Point"},"properties":{"osm_id":"3767626753","tag":{"amenity":"waste_basket"}},"type":"Feature"},
	{"geometry":{"coordinates":[2.091903,48.738285],"type":"Point"},"properties":{"osm_id":"3767626756","tag":{"amenity":"waste_basket"}},"type":"Feature"},
	{"geometry":{"coordinates":[2.069679,48.702736],"type":"Point"},"properties":{"osm_id":"3832655786","tag":{"amenity":"waste_basket"}},"type":"Feature"},
	{"geometry":{"coordinates":[2.069791,48.702759],"type":"Point"},"properties":{"osm_id":"3832655787","tag":{"amenity":"waste_basket"}},"type":"Feature"},
	{"geometry":{"coordinates":[2.068569,48.702817],"type":"Point"},"properties":{"osm_id":"3832655788","tag":{"amenity":"waste_basket"}},"type":"Feature"},
	{"geometry":{"coordinates":[2.06994,48.702881],"type":"Point"},"properties":{"osm_id":"3832655790","tag":{"amenity":"waste_basket"}},"type":"Feature"},
	{"geometry":{"coordinates":[2.07029,48.702918],"type":"Point"},"properties":{"osm_id":"3832655792","tag":{"amenity":"waste_basket"}},"type":"Feature"},
	{"geometry":{"coordinates":[2.069894,48.702998],"type":"Point"},"properties":{"osm_id":"3832655794","tag":{"amenity":"waste_basket"}},"type":"Feature"},
	{"geometry":{"coordinates":[2.070067,48.703008],"type":"Point"},"properties":{"osm_id":"3832655796","tag":{"amenity":"waste_basket"}},"type":"Feature"},
	{"geometry":{"coordinates":[2.07027,48.703029],"type":"Point"},"properties":{"osm_id":"3832655798","tag":{"amenity":"waste_basket"}},"type":"Feature"},
	{"geometry":{"coordinates":[2.068008,48.744156],"type":"Point"},"properties":{"osm_id":"4173004503","tag":{"amenity":"waste_basket"}},"type":"Feature"},
	{"geometry":{"coordinates":[2.084671,48.71618],"type":"Point"},"properties":{"osm_id":"4319343225","tag":{"amenity":"recycling","location":"overground","recycling:glass":"yes","recycling:glass_bottles":"yes","recycling_type":"container"}},"type":"Feature"},
	{"geometry":{"coordinates":[2.033836,48.711478],"type":"Point"},"properties":{"osm_id":"4350127265","tag":{"amenity":"recycling","recycling:glass":"yes","recycling_type":"container"}},"type":"Feature"},
	{"geometry":{"coordinates":[2.065364,48.697454],"type":"Point"},"properties":{"osm_id":"4371619058","tag":{"amenity":"waste_basket"}},"type":"Feature"},
	{"geometry":{"coordinates":[2.066417,48.698452],"type":"Point"},"properties":{"osm_id":"4371619877","tag":{"amenity":"waste_basket"}},"type":"Feature"},
	{"geometry":{"coordinates":[2.069707,48.704979],"type":"Point"},"properties":{"osm_id":"4450731221","tag":{"amenity":"waste_basket"}},"type":"Feature"},
	{"geometry":{"coordinates":[2.034174,48.702717],"type":"Point"},"properties":{"osm_id":"4893394521","tag":{"amenity":"recycling","location":"underground","recycling:glass_bottles":"yes","recycling_type":"container"}},"type":"Feature"},
	{"geometry":{"coordinates":[2.096263,48.73982],"type":"Point"},"properties":{"osm_id":"5131047194","tag":{"amenity":"waste_basket"}},"type":"Feature"},
	{"geometry":{"coordinates":[2.087365,48.724045],"type":"Point"},"properties":{"osm_id":"5488626079","tag":{"amenity":"waste_basket"}},"type":"Feature"},
	{"geometry":{"coordinates":[2.086611,48.724037],"type":"Point"},"properties":{"osm_id":"5488626080","tag":{"amenity":"waste_basket"}},"type":"Feature"},
	{"geometry":{"coordinates":[2.102377,48.70523],"type":"Point"},"properties":{"osm_id":"5776907820","tag":{"amenity":"recycling","recycling:glass":"yes","recycling_type":"container"}},"type":"Feature"},
	{"geometry":{"coordinates":[2.092123,48.736947],"type":"Point"},"properties":{"osm_id":"6952257691","tag":{"amenity":"waste_basket"}},"type":"Feature"},
	{"geometry":{"coordinates":[2.065285,48.699182],"type":"Point"},"properties":{"osm_id":"7040401633","tag":{"amenity":"recycling","recycling:glass":"no","recycling:glass_bottles":"yes","recycling_type":"container"}},"type":"Feature"},
	{"geometry":{"coordinates":[2.065316,48.699176],"type":"Point"},"properties":{"osm_id":"7040401634","tag":{"amenity":"recycling","recycling:glass":"no","recycling:glass_bottles":"yes","recycling_type":"container"}},"type":"Feature"},
	{"geometry":{"coordinates":[2.068312,48.710258],"type":"Point"},"properties":{"osm_id":"7234956750","tag":{"amenity":"waste_basket"}},"type":"Feature"},
	{"geometry":{"coordinates":[2.06838,48.710112],"type":"Point"},"properties":{"osm_id":"7234956751","tag":{"amenity":"waste_basket"}},"type":"Feature"},
	{"geometry":{"coordinates":[2.069303,48.70321],"type":"Point"},"properties":{"osm_id":"7454763983","tag":{"amenity":"waste_basket","waste":"dog_excrement"}},"type":"Feature"},
	{"geometry":{"coordinates":[2.106531,48.700817],"type":"Point"},"properties":{"osm_id":"7528216023","tag":{"amenity":"recycling","recycling:glass_bottles":"yes","recycling_type":"container"}},"type":"Feature"},
	{"geometry":{"coordinates":[2.106507,48.700817],"type":"Point"},"properties":{"osm_id":"7528216024","tag":{"amenity":"recycling","recycling:glass":"yes","recycling_type":"container"}},"type":"Feature"},
	{"geometry":{"coordinates":[2.104138,48.701737],"type":"Point"},"properties":{"osm_id":"7528216025","tag":{"amenity":"recycling","operator":"Recytextile","recycling:clothes":"yes","recycling:shoes":"yes","recycling_type":"container","wikimedia_commons":"File:Centre Commercial Val Courcelle le 19 f\u00c3\u00a9vrier 2015 - 07.jpg"}},"type":"Feature"},
	{"geometry":{"coordinates":[2.104137,48.70175],"type":"Point"},"properties":{"osm_id":"7528216026","tag":{"amenity":"recycling","operator":"Recytextile","recycling:clothes":"yes","recycling:shoes":"yes","recycling_type":"container","wikimedia_commons":"File:Centre Commercial Val Courcelle le 19 f\u00c3\u00a9vrier 2015 - 07.jpg"}},"type":"Feature"},
	{"geometry":{"coordinates":[2.069716,48.704822],"type":"Point"},"properties":{"osm_id":"7529956875","tag":{"amenity":"waste_basket","material":"wood"}},"type":"Feature"},
	{"geometry":{"coordinates":[2.036729,48.708865],"type":"Point"},"properties":{"osm_id":"7574478085","tag":{"amenity":"waste_basket"}},"type":"Feature"},
	{"geometry":{"coordinates":[2.071514,48.705317],"type":"Point"},"properties":{"osm_id":"7723867750","tag":{"amenity":"waste_basket","material":"wood"}},"type":"Feature"},
	{"geometry":{"coordinates":[2.071225,48.705472],"type":"Point"},"properties":{"osm_id":"7723886584","tag":{"amenity":"waste_basket","waste":"dog_excrement"}},"type":"Feature"},
	{"geometry":{"coordinates":[2.069578,48.705214],"type":"Point"},"properties":{"osm_id":"7723915186","tag":{"amenity":"waste_basket","material":"wood"}},"type":"Feature"},
	{"geometry":{"coordinates":[2.074133,48.706465],"type":"Point"},"properties":{"osm_id":"7723933518","tag":{"amenity":"waste_basket","material":"wood"}},"type":"Feature"},
	{"geometry":{"coordinates":[2.071732,48.70591],"type":"Point"},"properties":{"osm_id":"7723965876","tag":{"amenity":"waste_basket","material":"wood"}},"type":"Feature"},
	{"geometry":{"coordinates":[2.071373,48.705643],"type":"Point"},"properties":{"osm_id":"7724018292","tag":{"amenity":"waste_basket","material":"steel"}},"type":"Feature"},
	{"geometry":{"coordinates":[2.071356,48.705843],"type":"Point"},"properties":{"osm_id":"7724022798","tag":{"amenity":"waste_basket","material":"wood"}},"type":"Feature"},
	{"geometry":{"coordinates":[2.067864,48.710269],"type":"Point"},"properties":{"osm_id":"7726706612","tag":{"amenity":"waste_basket","material":"wood"}},"type":"Feature"},
	{"geometry":{"coordinates":[2.068336,48.710153],"type":"Point"},"properties":{"osm_id":"7726721013","tag":{"amenity":"waste_basket","material":"wood"}},"type":"Feature"},
	{"geometry":{"coordinates":[2.069232,48.705938],"type":"Point"},"properties":{"osm_id":"7835693285","tag":{"amenity":"waste_basket","material":"wood","survey:date":"2020-08-22"}},"type":"Feature"},
	{"geometry":{"coordinates":[2.069212,48.705419],"type":"Point"},"properties":{"osm_id":"7835805264","tag":{"amenity":"waste_basket","material":"wood"}},"type":"Feature"},
	{"geometry":{"coordinates":[2.069371,48.705023],"type":"Point"},"properties":{"osm_id":"7835805267","tag":{"amenity":"waste_basket","material":"wood"}},"type":"Feature"}
]
}
