{
"type": "FeatureCollection",
"features": [
	{"geometry":{"coordinates":[2.108794,48.678534],"type":"Point"},"properties":{"name":"Silo \u00c3\u00a0 verre","osm_id":"3863037802","tag":{"amenity":"waste_basket"}},"type":"Feature"},
	{"geometry":{"coordinates":[2.060217,48.683835],"type":"Point"},"properties":{"osm_id":"4371328615","tag":{"amenity":"waste_basket"}},"type":"Feature"},
	{"geometry":{"coordinates":[2.056605,48.682385],"type":"Point"},"properties":{"osm_id":"4371619059","tag":{"amenity":"waste_basket"}},"type":"Feature"},
	{"geometry":{"coordinates":[2.070685,48.641646],"type":"Point"},"properties":{"osm_id":"4371656021","tag":{"amenity":"recycling","description":"Recyclage du verre et des journaux"}},"type":"Feature"},
	{"geometry":{"coordinates":[2.028694,48.679671],"type":"Point"},"properties":{"osm_id":"4377002293","tag":{"amenity":"recycling","recycling:green_waste":"yes","recycling_type":"container"}},"type":"Feature"},
	{"geometry":{"coordinates":[2.078372,48.645454],"type":"Point"},"properties":{"osm_id":"5359197288","tag":{"amenity":"recycling","recycling:glass_bottles":"yes","recycling_type":"container"}},"type":"Feature"},
	{"geometry":{"coordinates":[2.051496,48.668813],"type":"Point"},"properties":{"osm_id":"6933342947","tag":{"amenity":"recycling","recycling:clothes":"yes","recycling_type":"container"}},"type":"Feature"},
	{"geometry":{"coordinates":[2.051448,48.668828],"type":"Point"},"properties":{"osm_id":"6933342948","tag":{"amenity":"recycling","recycling:glass":"yes","recycling_type":"container"}},"type":"Feature"},
	{"geometry":{"coordinates":[2.051417,48.668841],"type":"Point"},"properties":{"osm_id":"6933342949","tag":{"amenity":"recycling","recycling:glass":"yes","recycling_type":"container"}},"type":"Feature"},
	{"geometry":{"coordinates":[2.086341,48.645596],"type":"Point"},"properties":{"osm_id":"7165812357","tag":{"amenity":"waste_basket"}},"type":"Feature"},
	{"geometry":{"coordinates":[2.08647,48.645697],"type":"Point"},"properties":{"osm_id":"7165812359","tag":{"amenity":"waste_basket"}},"type":"Feature"},
	{"geometry":{"coordinates":[2.085693,48.645701],"type":"Point"},"properties":{"osm_id":"7165812360","tag":{"amenity":"waste_basket"}},"type":"Feature"},
	{"geometry":{"coordinates":[2.086722,48.645658],"type":"Point"},"properties":{"osm_id":"7165812364","tag":{"amenity":"waste_basket","waste":"trash"}},"type":"Feature"},
	{"geometry":{"coordinates":[2.033597,48.680141],"type":"Point"},"properties":{"osm_id":"7573360760","tag":{"amenity":"recycling","recycling:green_waste":"yes","recycling_type":"container"}},"type":"Feature"},
	{"geometry":{"coordinates":[2.076986,48.645784],"type":"Point"},"properties":{"osm_id":"7889274520","tag":{"amenity":"waste_basket"}},"type":"Feature"},
	{"geometry":{"coordinates":[2.086553,48.642651],"type":"Point"},"properties":{"osm_id":"7941238803","tag":{"amenity":"waste_basket"}},"type":"Feature"},
	{"geometry":{"coordinates":[2.087894,48.642462],"type":"Point"},"properties":{"osm_id":"7941245046","tag":{"amenity":"waste_basket"}},"type":"Feature"},
	{"geometry":{"coordinates":[2.088851,48.642662],"type":"Point"},"properties":{"osm_id":"7941245047","tag":{"amenity":"waste_basket"}},"type":"Feature"},
	{"geometry":{"coordinates":[2.088173,48.642591],"type":"Point"},"properties":{"osm_id":"7941245049","tag":{"amenity":"waste_basket"}},"type":"Feature"},
	{"geometry":{"coordinates":[2.088609,48.642752],"type":"Point"},"properties":{"osm_id":"7941245050","tag":{"amenity":"waste_basket"}},"type":"Feature"},
	{"geometry":{"coordinates":[2.08831,48.642699],"type":"Point"},"properties":{"osm_id":"7941245052","tag":{"amenity":"waste_basket"}},"type":"Feature"},
	{"geometry":{"coordinates":[2.088437,48.642764],"type":"Point"},"properties":{"osm_id":"7941245053","tag":{"amenity":"waste_basket"}},"type":"Feature"},
	{"geometry":{"coordinates":[2.088863,48.642533],"type":"Point"},"properties":{"osm_id":"7941245057","tag":{"amenity":"waste_basket"}},"type":"Feature"},
	{"geometry":{"coordinates":[2.088385,48.642411],"type":"Point"},"properties":{"osm_id":"7941245063","tag":{"amenity":"waste_basket"}},"type":"Feature"},
	{"geometry":{"coordinates":[2.088181,48.642694],"type":"Point"},"properties":{"osm_id":"7941245064","tag":{"amenity":"waste_basket"}},"type":"Feature"},
	{"geometry":{"coordinates":[2.088224,48.64248],"type":"Point"},"properties":{"osm_id":"7941245066","tag":{"amenity":"waste_basket"}},"type":"Feature"},
	{"geometry":{"coordinates":[2.08862,48.642416],"type":"Point"},"properties":{"osm_id":"7941245067","tag":{"amenity":"waste_basket"}},"type":"Feature"},
	{"geometry":{"coordinates":[2.087299,48.642855],"type":"Point"},"properties":{"osm_id":"7941245068","tag":{"amenity":"waste_basket"}},"type":"Feature"},
	{"geometry":{"coordinates":[2.088195,48.64211],"type":"Point"},"properties":{"osm_id":"7941285533","tag":{"amenity":"waste_basket"}},"type":"Feature"},
	{"geometry":{"coordinates":[2.086553,48.643022],"type":"Point"},"properties":{"osm_id":"7941297098","tag":{"amenity":"waste_basket"}},"type":"Feature"},
	{"geometry":{"coordinates":[2.086636,48.643007],"type":"Point"},"properties":{"osm_id":"7941297101","tag":{"amenity":"waste_basket"}},"type":"Feature"},
	{"geometry":{"coordinates":[2.086407,48.642937],"type":"Point"},"properties":{"osm_id":"7941297103","tag":{"amenity":"waste_basket"}},"type":"Feature"},
	{"geometry":{"coordinates":[2.085847,48.641532],"type":"Point"},"properties":{"osm_id":"7941314923","tag":{"amenity":"waste_basket"}},"type":"Feature"},
	{"geometry":{"coordinates":[2.08688,48.641599],"type":"Point"},"properties":{"osm_id":"7941314925","tag":{"amenity":"waste_basket"}},"type":"Feature"},
	{"geometry":{"coordinates":[2.086948,48.641311],"type":"Point"},"properties":{"osm_id":"7941314926","tag":{"amenity":"waste_basket"}},"type":"Feature"},
	{"geometry":{"coordinates":[2.085856,48.641557],"type":"Point"},"properties":{"osm_id":"7941314929","tag":{"amenity":"waste_basket"}},"type":"Feature"},
	{"geometry":{"coordinates":[2.085384,48.640137],"type":"Point"},"properties":{"osm_id":"7941352248","tag":{"amenity":"waste_basket"}},"type":"Feature"}
]
}
