{
"type": "FeatureCollection",
"features": [
	{"geometry":{"coordinates":[2.087285,48.597742],"type":"Point"},"properties":{"osm_id":"1933627934","tag":{"amenity":"recycling"}},"type":"Feature"},
	{"geometry":{"coordinates":[2.098409,48.629116],"type":"Point"},"properties":{"osm_id":"6135866458","tag":{"amenity":"recycling","recycling:glass":"yes","recycling:glass_bottles":"yes","recycling:magazines":"yes","recycling:newspaper":"yes","recycling:paper":"yes"}},"type":"Feature"},
	{"geometry":{"coordinates":[2.098239,48.630792],"type":"Point"},"properties":{"osm_id":"6138195702","tag":{"amenity":"waste_disposal","description":"public_trash"}},"type":"Feature"},
	{"geometry":{"coordinates":[2.098164,48.629003],"type":"Point"},"properties":{"name":"poubelle","osm_id":"6139153264","tag":{"amenity":"waste_basket"}},"type":"Feature"},
	{"geometry":{"coordinates":[2.098163,48.628726],"type":"Point"},"properties":{"name":"poubelle","osm_id":"6140426964","tag":{"amenity":"waste_basket"}},"type":"Feature"},
	{"geometry":{"coordinates":[2.100827,48.629858],"type":"Point"},"properties":{"name":"poubelle","osm_id":"6189891548","tag":{"amenity":"waste_basket"}},"type":"Feature"},
	{"geometry":{"coordinates":[2.097963,48.628254],"type":"Point"},"properties":{"osm_id":"6979969622","tag":{"amenity":"waste_basket","waste":"trash"}},"type":"Feature"},
	{"geometry":{"coordinates":[2.098252,48.62827],"type":"Point"},"properties":{"osm_id":"6979971440","tag":{"amenity":"waste_basket"}},"type":"Feature"},
	{"geometry":{"coordinates":[2.098391,48.628112],"type":"Point"},"properties":{"osm_id":"6979971443","tag":{"amenity":"waste_basket"}},"type":"Feature"},
	{"geometry":{"coordinates":[2.102052,48.627372],"type":"Point"},"properties":{"osm_id":"6980038967","tag":{"amenity":"waste_basket","waste":"trash"}},"type":"Feature"},
	{"geometry":{"coordinates":[2.102206,48.627246],"type":"Point"},"properties":{"osm_id":"6980038970","tag":{"amenity":"waste_basket","waste":"trash"}},"type":"Feature"},
	{"geometry":{"coordinates":[2.102214,48.627421],"type":"Point"},"properties":{"osm_id":"6980038971","tag":{"amenity":"waste_basket","waste":"trash"}},"type":"Feature"},
	{"geometry":{"coordinates":[2.103003,48.627152],"type":"Point"},"properties":{"osm_id":"6980078210","tag":{"amenity":"waste_basket"}},"type":"Feature"},
	{"geometry":{"coordinates":[2.102002,48.627106],"type":"Point"},"properties":{"osm_id":"6980078211","tag":{"amenity":"waste_basket","waste":"trash"}},"type":"Feature"},
	{"geometry":{"coordinates":[2.091301,48.629542],"type":"Point"},"properties":{"osm_id":"7042012059","tag":{"amenity":"recycling","recycling:paper":"yes","recycling:waste":"yes","recycling_type":"container"}},"type":"Feature"},
	{"geometry":{"coordinates":[2.092823,48.629572],"type":"Point"},"properties":{"osm_id":"7260276541","tag":{"amenity":"recycling","recycling:glass":"yes","recycling:paper":"yes","recycling_type":"container","wheelchair":"yes"}},"type":"Feature"}
]
}
