{
"type": "FeatureCollection",
"features": [
	{"geometry":{"coordinates":[2.050415,47.229299],"type":"Point"},"properties":{"osm_id":"468354997","tag":{"amenity":"recycling","recycling:cans":"yes","recycling:glass_bottles":"yes","recycling:paper":"yes"}},"type":"Feature"},
	{"geometry":{"coordinates":[2.065117,47.234043],"type":"Point"},"properties":{"osm_id":"531512238","tag":{"amenity":"recycling","recycling:glass_bottles":"yes","recycling_type":"container"}},"type":"Feature"},
	{"geometry":{"coordinates":[2.048104,47.227514],"type":"Point"},"properties":{"osm_id":"1571483285","tag":{"amenity":"recycling","recycling:glass":"yes","recycling:glass_bottles":"yes","recycling_type":"container"}},"type":"Feature"},
	{"geometry":{"coordinates":[2.052248,47.227563],"type":"Point"},"properties":{"osm_id":"1732297100","tag":{"amenity":"waste_basket"}},"type":"Feature"},
	{"geometry":{"coordinates":[2.050606,47.229095],"type":"Point"},"properties":{"osm_id":"1732297125","tag":{"amenity":"waste_basket"}},"type":"Feature"},
	{"geometry":{"coordinates":[2.045342,47.230927],"type":"Point"},"properties":{"osm_id":"1732297185","tag":{"amenity":"recycling","recycling:glass_bottles":"yes","recycling_type":"container"}},"type":"Feature"},
	{"geometry":{"coordinates":[2.062441,47.221407],"type":"Point"},"properties":{"osm_id":"1732788849","tag":{"amenity":"waste_basket"}},"type":"Feature"},
	{"geometry":{"coordinates":[2.062216,47.223064],"type":"Point"},"properties":{"osm_id":"1732788860","tag":{"amenity":"waste_basket"}},"type":"Feature"},
	{"geometry":{"coordinates":[2.05938,47.226024],"type":"Point"},"properties":{"osm_id":"1732788864","tag":{"amenity":"waste_basket"}},"type":"Feature"},
	{"geometry":{"coordinates":[2.05967,47.226071],"type":"Point"},"properties":{"osm_id":"1732788869","tag":{"amenity":"waste_basket"}},"type":"Feature"},
	{"geometry":{"coordinates":[2.059038,47.226341],"type":"Point"},"properties":{"osm_id":"1732788930","tag":{"amenity":"waste_basket"}},"type":"Feature"},
	{"geometry":{"coordinates":[2.077388,47.2241],"type":"Point"},"properties":{"osm_id":"1732889460","tag":{"amenity":"waste_basket"}},"type":"Feature"},
	{"geometry":{"coordinates":[2.077269,47.224135],"type":"Point"},"properties":{"osm_id":"1732889462","tag":{"amenity":"recycling","recycling:glass":"yes","recycling:glass_bottles":"yes"}},"type":"Feature"},
	{"geometry":{"coordinates":[2.079596,47.224483],"type":"Point"},"properties":{"osm_id":"1732889465","tag":{"amenity":"waste_basket"}},"type":"Feature"},
	{"geometry":{"coordinates":[2.072405,47.224648],"type":"Point"},"properties":{"osm_id":"1732889481","tag":{"amenity":"waste_basket"}},"type":"Feature"},
	{"geometry":{"coordinates":[2.075824,47.224651],"type":"Point"},"properties":{"osm_id":"1732889483","tag":{"amenity":"waste_basket"}},"type":"Feature"},
	{"geometry":{"coordinates":[2.090569,47.22863],"type":"Point"},"properties":{"osm_id":"1736275529","tag":{"amenity":"waste_basket"}},"type":"Feature"},
	{"geometry":{"coordinates":[2.086106,47.235481],"type":"Point"},"properties":{"osm_id":"1736275557","tag":{"amenity":"waste_basket"}},"type":"Feature"},
	{"geometry":{"coordinates":[2.088351,47.237249],"type":"Point"},"properties":{"osm_id":"1736275561","tag":{"amenity":"waste_basket"}},"type":"Feature"},
	{"geometry":{"coordinates":[2.078613,47.234035],"type":"Point"},"properties":{"osm_id":"1737223375","tag":{"amenity":"waste_basket"}},"type":"Feature"},
	{"geometry":{"coordinates":[2.077079,47.235597],"type":"Point"},"properties":{"osm_id":"1737223380","tag":{"amenity":"waste_basket"}},"type":"Feature"},
	{"geometry":{"coordinates":[2.069823,47.237708],"type":"Point"},"properties":{"osm_id":"1737223456","tag":{"amenity":"waste_basket"}},"type":"Feature"},
	{"geometry":{"coordinates":[2.064865,47.239122],"type":"Point"},"properties":{"osm_id":"1737223469","tag":{"amenity":"waste_basket"}},"type":"Feature"},
	{"geometry":{"coordinates":[2.061689,47.24006],"type":"Point"},"properties":{"osm_id":"1737223472","tag":{"amenity":"waste_basket"}},"type":"Feature"},
	{"geometry":{"coordinates":[2.06133,47.22912],"type":"Point"},"properties":{"osm_id":"1737660174","tag":{"amenity":"waste_basket"}},"type":"Feature"},
	{"geometry":{"coordinates":[2.061092,47.229398],"type":"Point"},"properties":{"osm_id":"1737660175","tag":{"amenity":"waste_basket"}},"type":"Feature"},
	{"geometry":{"coordinates":[2.061017,47.231882],"type":"Point"},"properties":{"osm_id":"1737660176","tag":{"amenity":"waste_basket"}},"type":"Feature"},
	{"geometry":{"coordinates":[2.06087,47.235186],"type":"Point"},"properties":{"osm_id":"1737660184","tag":{"amenity":"waste_basket"}},"type":"Feature"},
	{"geometry":{"coordinates":[2.061102,47.235334],"type":"Point"},"properties":{"osm_id":"1737660186","tag":{"amenity":"recycling","recycling:glass_bottles":"yes","recycling_type":"container"}},"type":"Feature"},
	{"geometry":{"coordinates":[2.08735,47.219853],"type":"Point"},"properties":{"osm_id":"1874590855","tag":{"amenity":"waste_basket"}},"type":"Feature"},
	{"geometry":{"coordinates":[2.098625,47.23364],"type":"Point"},"properties":{"osm_id":"2284714173","tag":{"entrance":"main"}},"type":"Feature"},
	{"geometry":{"coordinates":[2.098202,47.233842],"type":"Point"},"properties":{"osm_id":"2284714186","tag":{"entrance":"exit"}},"type":"Feature"},
	{"geometry":{"coordinates":[2.061683,47.219763],"type":"Point"},"properties":{"name":"Aire Camping-Car","osm_id":"2314535370","tag":{"amenity":"waste_disposal"}},"type":"Feature"},
	{"geometry":{"coordinates":[2.061138,47.248781],"type":"Point"},"properties":{"osm_id":"7859568885","tag":{"amenity":"waste_basket"}},"type":"Feature"}
]
}
