{
"type": "FeatureCollection",
"features": [
	{"geometry":{"coordinates":[2.06869,47.214203],"type":"Point"},"properties":{"osm_id":"1737660168","tag":{"amenity":"waste_basket"}},"type":"Feature"},
	{"geometry":{"coordinates":[2.068707,47.214293],"type":"Point"},"properties":{"osm_id":"1737660172","tag":{"amenity":"waste_basket"}},"type":"Feature"},
	{"geometry":{"coordinates":[2.079832,47.199879],"type":"Point"},"properties":{"osm_id":"1865620338","tag":{"amenity":"waste_basket"}},"type":"Feature"},
	{"geometry":{"coordinates":[2.081836,47.201831],"type":"Point"},"properties":{"osm_id":"1865620339","tag":{"amenity":"waste_basket"}},"type":"Feature"},
	{"geometry":{"coordinates":[2.082173,47.203803],"type":"Point"},"properties":{"osm_id":"1865620340","tag":{"amenity":"waste_basket"}},"type":"Feature"},
	{"geometry":{"coordinates":[2.069991,47.206106],"type":"Point"},"properties":{"osm_id":"1865620341","tag":{"amenity":"waste_basket"}},"type":"Feature"},
	{"geometry":{"coordinates":[2.061771,47.207696],"type":"Point"},"properties":{"osm_id":"1865620342","tag":{"amenity":"waste_basket"}},"type":"Feature"},
	{"geometry":{"coordinates":[2.061626,47.209821],"type":"Point"},"properties":{"osm_id":"1865620349","tag":{"amenity":"recycling","recycling:glass_bottles":"yes"}},"type":"Feature"},
	{"geometry":{"coordinates":[2.061447,47.209987],"type":"Point"},"properties":{"osm_id":"1865620358","tag":{"amenity":"waste_basket"}},"type":"Feature"},
	{"geometry":{"coordinates":[2.058234,47.21137],"type":"Point"},"properties":{"osm_id":"1865620373","tag":{"amenity":"waste_basket"}},"type":"Feature"},
	{"geometry":{"coordinates":[2.058639,47.214957],"type":"Point"},"properties":{"osm_id":"1865620378","tag":{"amenity":"waste_basket"}},"type":"Feature"},
	{"geometry":{"coordinates":[2.065173,47.215906],"type":"Point"},"properties":{"osm_id":"1865620379","tag":{"amenity":"waste_basket"}},"type":"Feature"},
	{"geometry":{"coordinates":[2.064968,47.215951],"type":"Point"},"properties":{"osm_id":"1865620381","tag":{"amenity":"waste_basket"}},"type":"Feature"},
	{"geometry":{"coordinates":[2.065157,47.216002],"type":"Point"},"properties":{"osm_id":"1865620383","tag":{"amenity":"waste_basket"}},"type":"Feature"},
	{"geometry":{"coordinates":[2.085289,47.20046],"type":"Point"},"properties":{"osm_id":"1870123374","tag":{"amenity":"waste_basket"}},"type":"Feature"},
	{"geometry":{"coordinates":[2.086872,47.201518],"type":"Point"},"properties":{"osm_id":"1870123375","tag":{"amenity":"waste_basket"}},"type":"Feature"},
	{"geometry":{"coordinates":[2.077818,47.205238],"type":"Point"},"properties":{"osm_id":"1870123377","tag":{"amenity":"waste_basket"}},"type":"Feature"},
	{"geometry":{"coordinates":[2.106223,47.207445],"type":"Point"},"properties":{"osm_id":"1874590804","tag":{"amenity":"waste_basket"}},"type":"Feature"},
	{"geometry":{"coordinates":[2.103678,47.208855],"type":"Point"},"properties":{"osm_id":"1874590806","tag":{"amenity":"waste_basket"}},"type":"Feature"},
	{"geometry":{"coordinates":[2.10088,47.210992],"type":"Point"},"properties":{"osm_id":"1874590841","tag":{"amenity":"recycling","recycling:glass_bottles":"yes"}},"type":"Feature"},
	{"geometry":{"coordinates":[2.101844,47.216946],"type":"Point"},"properties":{"osm_id":"1874590846","tag":{"amenity":"waste_basket"}},"type":"Feature"},
	{"geometry":{"coordinates":[2.094374,47.21838],"type":"Point"},"properties":{"osm_id":"1874590853","tag":{"amenity":"waste_basket"}},"type":"Feature"},
	{"geometry":{"coordinates":[2.086372,47.210345],"type":"Point"},"properties":{"name":"D\u00c3\u00a9chetterie du Vieux Domaine","osm_id":"2258347353","tag":{"amenity":"recycling","network":"D\u00c3\u00a9chetterie","recycling_type":"centre"}},"type":"Feature"},
	{"geometry":{"coordinates":[2.065405,47.20477],"type":"Point"},"properties":{"osm_id":"7063527716","tag":{"amenity":"recycling","recycling_type":"container"}},"type":"Feature"},
	{"geometry":{"coordinates":[2.06523,47.204465],"type":"Point"},"properties":{"osm_id":"7063527717","tag":{"amenity":"waste_basket"}},"type":"Feature"}
]
}
