{
"type": "FeatureCollection",
"features": [
	{"geometry":{"coordinates":[2.037074,44.608533],"type":"Point"},"properties":{"osm_id":"1880722007","tag":{"amenity":"waste_basket"}},"type":"Feature"},
	{"geometry":{"coordinates":[2.030152,44.608786],"type":"Point"},"properties":{"osm_id":"3976423724","tag":{"amenity":"recycling","recycling:glass_bottles":"yes","recycling_type":"container"}},"type":"Feature"},
	{"geometry":{"coordinates":[2.030809,44.607531],"type":"Point"},"properties":{"osm_id":"4317349597","tag":{"amenity":"waste_basket"}},"type":"Feature"},
	{"geometry":{"coordinates":[2.037667,44.608344],"type":"Point"},"properties":{"osm_id":"4900248772","tag":{"amenity":"waste_basket","support":"wall_mounted"}},"type":"Feature"},
	{"geometry":{"coordinates":[2.034884,44.60736],"type":"Point"},"properties":{"osm_id":"4900270340","tag":{"amenity":"waste_basket","waste":"dog_excrement"}},"type":"Feature"},
	{"geometry":{"coordinates":[2.026609,44.603147],"type":"Point"},"properties":{"osm_id":"5746296424","tag":{"amenity":"waste_basket"}},"type":"Feature"},
	{"geometry":{"coordinates":[2.035582,44.59626],"type":"Point"},"properties":{"osm_id":"5746296426","tag":{"amenity":"waste_basket","waste":"d\u00c3\u00a9chets m\u00c3\u00a9nagers"}},"type":"Feature"},
	{"geometry":{"coordinates":[2.035632,44.596265],"type":"Point"},"properties":{"osm_id":"5746296427","tag":{"amenity":"waste_basket","waste":"d\u00c3\u00a9chets recyclables"}},"type":"Feature"},
	{"geometry":{"coordinates":[2.036851,44.604196],"type":"Point"},"properties":{"osm_id":"5916095587","tag":{"amenity":"waste_basket","waste":"trash"}},"type":"Feature"},
	{"geometry":{"coordinates":[2.036447,44.604542],"type":"Point"},"properties":{"osm_id":"5916095589","tag":{"amenity":"waste_basket","waste":"trash"}},"type":"Feature"},
	{"geometry":{"coordinates":[2.03629,44.604716],"type":"Point"},"properties":{"osm_id":"5916095590","tag":{"amenity":"waste_basket","waste":"trash"}},"type":"Feature"},
	{"geometry":{"coordinates":[2.0359,44.604767],"type":"Point"},"properties":{"osm_id":"5916095593","tag":{"amenity":"waste_basket","waste":"trash"}},"type":"Feature"},
	{"geometry":{"coordinates":[2.034954,44.604924],"type":"Point"},"properties":{"osm_id":"5916095602","tag":{"amenity":"waste_basket","waste":"trash"}},"type":"Feature"},
	{"geometry":{"coordinates":[2.036856,44.609998],"type":"Point"},"properties":{"osm_id":"6715430719","tag":{"amenity":"waste_disposal"}},"type":"Feature"},
	{"geometry":{"coordinates":[2.083081,44.60317],"type":"Point"},"properties":{"osm_id":"7176256116","tag":{"amenity":"recycling","recycling:clothes":"yes","recycling:glass_bottles":"yes","recycling:paper":"yes","recycling:plastic":"yes","recycling:waste":"yes","recycling_type":"container"}},"type":"Feature"},
	{"geometry":{"coordinates":[2.049551,44.616326],"type":"Point"},"properties":{"osm_id":"7511738899","tag":{"amenity":"waste_basket","waste":"trash"}},"type":"Feature"},
	{"geometry":{"coordinates":[2.049637,44.616422],"type":"Point"},"properties":{"osm_id":"7511738900","tag":{"amenity":"waste_basket","waste":"trash"}},"type":"Feature"},
	{"geometry":{"coordinates":[2.049653,44.616512],"type":"Point"},"properties":{"osm_id":"7511738901","tag":{"amenity":"waste_basket","waste":"trash"}},"type":"Feature"},
	{"geometry":{"coordinates":[2.049361,44.616239],"type":"Point"},"properties":{"osm_id":"7511738902","tag":{"amenity":"recycling","recycling:glass":"no","recycling:glass_bottles":"yes","recycling_type":"container"}},"type":"Feature"}
]
}
