{
"type": "FeatureCollection",
"features": [
	{"geometry":{"coordinates":[2.06102,44.543893],"type":"Point"},"properties":{"barrier":"gate","osm_id":"941371000"},"type":"Feature"},
	{"geometry":{"coordinates":[2.075323,44.532688],"type":"Point"},"properties":{"osm_id":"946757468","tag":{"amenity":"waste_basket"}},"type":"Feature"},
	{"geometry":{"coordinates":[2.109044,44.549073],"type":"Point"},"properties":{"osm_id":"2242803694","tag":{"amenity":"waste_basket"}},"type":"Feature"},
	{"geometry":{"coordinates":[2.072855,44.572272],"type":"Point"},"properties":{"osm_id":"2966638101","tag":{"amenity":"waste_disposal","waste":"grey_water"}},"type":"Feature"},
	{"geometry":{"coordinates":[2.083251,44.569609],"type":"Point"},"properties":{"osm_id":"6145705541","tag":{"amenity":"waste_basket"}},"type":"Feature"},
	{"geometry":{"coordinates":[2.084082,44.569309],"type":"Point"},"properties":{"osm_id":"6145705544","tag":{"amenity":"waste_basket","leaf_cycle":"deciduous","leaf_type":"broadleaved","natural":"tree"}},"type":"Feature"},
	{"geometry":{"coordinates":[2.105733,44.538039],"type":"Point"},"properties":{"osm_id":"6491615858","tag":{"amenity":"recycling","recycling:glass_bottles":"yes","recycling_type":"container"}},"type":"Feature"},
	{"geometry":{"coordinates":[2.105768,44.538036],"type":"Point"},"properties":{"osm_id":"6491615859","tag":{"amenity":"waste_disposal"}},"type":"Feature"},
	{"geometry":{"coordinates":[2.106038,44.539468],"type":"Point"},"properties":{"osm_id":"6491615865","tag":{"amenity":"waste_disposal"}},"type":"Feature"},
	{"geometry":{"coordinates":[2.108936,44.548319],"type":"Point"},"properties":{"osm_id":"6497725326","tag":{"amenity":"waste_disposal"}},"type":"Feature"},
	{"geometry":{"coordinates":[2.055033,44.572915],"type":"Point"},"properties":{"osm_id":"7518906613","tag":{"amenity":"recycling","recycling:glass_bottles":"yes","recycling_type":"container"}},"type":"Feature"}
]
}
