{
"type": "FeatureCollection",
"features": [
	{"geometry":{"coordinates":[2.039432,44.35005],"type":"Point"},"properties":{"osm_id":"872011895","tag":{"amenity":"recycling","location":"underground","recycling:glass_bottles":"yes","recycling_type":"container"}},"type":"Feature"},
	{"geometry":{"coordinates":[2.039041,44.3528],"type":"Point"},"properties":{"osm_id":"1928772378","tag":{"amenity":"recycling"}},"type":"Feature"},
	{"geometry":{"coordinates":[2.035986,44.350604],"type":"Point"},"properties":{"osm_id":"1928772385","tag":{"amenity":"recycling","location":"underground","recycling_type":"container"}},"type":"Feature"},
	{"geometry":{"coordinates":[2.036133,44.353861],"type":"Point"},"properties":{"osm_id":"2473217363","tag":{"amenity":"waste_basket"}},"type":"Feature"},
	{"geometry":{"coordinates":[2.039389,44.35004],"type":"Point"},"properties":{"osm_id":"4072030940","tag":{"amenity":"recycling","location":"underground","recycling_type":"container"}},"type":"Feature"},
	{"geometry":{"coordinates":[2.039411,44.350045],"type":"Point"},"properties":{"osm_id":"4072030941","tag":{"amenity":"recycling","location":"underground","recycling_type":"container"}},"type":"Feature"},
	{"geometry":{"coordinates":[2.027055,44.367563],"type":"Point"},"properties":{"osm_id":"5171158078","tag":{"amenity":"waste_basket"}},"type":"Feature"},
	{"geometry":{"coordinates":[2.101222,44.396368],"type":"Point"},"properties":{"osm_id":"5407794177","tag":{"amenity":"waste_basket"}},"type":"Feature"},
	{"geometry":{"coordinates":[2.09601,44.347483],"type":"Point"},"properties":{"osm_id":"5803033951","tag":{"amenity":"recycling","recycling:cans":"yes","recycling:glass_bottles":"no","recycling:paper":"yes","recycling:plastic_bottles":"yes","recycling:waste":"yes","recycling_type":"container"}},"type":"Feature"},
	{"geometry":{"coordinates":[2.095721,44.348172],"type":"Point"},"properties":{"osm_id":"5803033952","tag":{"amenity":"recycling","recycling:cans":"yes","recycling:glass_bottles":"no","recycling:paper":"yes","recycling:plastic_bottles":"yes","recycling:waste":"yes","recycling_type":"container"}},"type":"Feature"},
	{"geometry":{"coordinates":[2.037301,44.348769],"type":"Point"},"properties":{"osm_id":"5970473712","tag":{"amenity":"recycling","recycling_type":"container"}},"type":"Feature"},
	{"geometry":{"coordinates":[2.033602,44.348504],"type":"Point"},"properties":{"osm_id":"7398707428","tag":{"amenity":"waste_basket"}},"type":"Feature"},
	{"geometry":{"coordinates":[2.032115,44.34781],"type":"Point"},"properties":{"osm_id":"7398707439","tag":{"amenity":"waste_basket"}},"type":"Feature"},
	{"geometry":{"coordinates":[2.033047,44.344575],"type":"Point"},"properties":{"osm_id":"7398707472","tag":{"amenity":"waste_basket"}},"type":"Feature"}
]
}
