{
"type": "FeatureCollection",
"features": [
	{"geometry":{"coordinates":[2.028634,41.575391],"type":"Point"},"properties":{"osm_id":"1345314616","tag":{"amenity":"recycling","recycling:cans":"yes","recycling:glass_bottles":"yes","recycling:paper":"yes","recycling:waste":"yes"}},"type":"Feature"},
	{"geometry":{"coordinates":[2.025097,41.574589],"type":"Point"},"properties":{"osm_id":"1345314664","tag":{"amenity":"recycling","recycling:cans":"yes","recycling:glass_bottles":"yes","recycling:paper":"yes","recycling:waste":"yes"}},"type":"Feature"},
	{"geometry":{"coordinates":[2.027787,41.574436],"type":"Point"},"properties":{"osm_id":"1345314688","tag":{"amenity":"recycling","recycling:cans":"yes","recycling:glass_bottles":"yes","recycling:paper":"yes","recycling:waste":"yes"}},"type":"Feature"},
	{"geometry":{"coordinates":[2.027994,41.574376],"type":"Point"},"properties":{"osm_id":"1345314695","tag":{"amenity":"recycling","recycling:cans":"yes","recycling:glass_bottles":"yes","recycling:paper":"yes","recycling:waste":"yes"}},"type":"Feature"},
	{"geometry":{"coordinates":[2.024077,41.574382],"type":"Point"},"properties":{"osm_id":"1347867591","tag":{"amenity":"recycling","recycling:cans":"yes","recycling:glass_bottles":"yes","recycling:paper":"yes","recycling:waste":"yes"}},"type":"Feature"},
	{"geometry":{"coordinates":[2.022829,41.57505],"type":"Point"},"properties":{"osm_id":"1347867594","tag":{"amenity":"recycling","recycling:cans":"yes","recycling:glass_bottles":"yes","recycling:paper":"yes","recycling:waste":"yes"}},"type":"Feature"},
	{"geometry":{"coordinates":[2.026792,41.577385],"type":"Point"},"properties":{"osm_id":"1347867595","tag":{"amenity":"recycling","recycling:cans":"yes","recycling:glass_bottles":"yes","recycling:paper":"yes","recycling:waste":"yes"}},"type":"Feature"},
	{"geometry":{"coordinates":[2.021873,41.579961],"type":"Point"},"properties":{"osm_id":"1347867598","tag":{"amenity":"recycling","recycling:cans":"yes","recycling:glass_bottles":"yes","recycling:paper":"yes","recycling:waste":"yes"}},"type":"Feature"},
	{"geometry":{"coordinates":[2.027862,41.577181],"type":"Point"},"properties":{"osm_id":"1347867599","tag":{"amenity":"recycling","recycling:cans":"yes","recycling:glass_bottles":"yes","recycling:paper":"yes","recycling:waste":"yes"}},"type":"Feature"},
	{"geometry":{"coordinates":[2.028242,41.576307],"type":"Point"},"properties":{"osm_id":"1347867602","tag":{"amenity":"recycling","recycling:cans":"yes","recycling:glass_bottles":"yes","recycling:paper":"yes","recycling:waste":"yes"}},"type":"Feature"},
	{"geometry":{"coordinates":[2.022326,41.578302],"type":"Point"},"properties":{"osm_id":"1347867612","tag":{"amenity":"recycling","recycling:cans":"yes","recycling:glass_bottles":"yes","recycling:paper":"yes","recycling:waste":"yes"}},"type":"Feature"},
	{"geometry":{"coordinates":[2.023935,41.575735],"type":"Point"},"properties":{"osm_id":"1347867621","tag":{"amenity":"recycling","recycling:cans":"yes","recycling:glass_bottles":"yes","recycling:paper":"yes","recycling:waste":"yes"}},"type":"Feature"},
	{"geometry":{"coordinates":[2.027229,41.575096],"type":"Point"},"properties":{"osm_id":"1347867624","tag":{"amenity":"recycling","recycling:cans":"yes","recycling:glass_bottles":"yes","recycling:paper":"yes","recycling:waste":"yes"}},"type":"Feature"},
	{"geometry":{"coordinates":[2.022133,41.579027],"type":"Point"},"properties":{"osm_id":"1347867627","tag":{"amenity":"recycling","recycling:cans":"yes","recycling:glass_bottles":"yes","recycling:paper":"yes","recycling:waste":"yes"}},"type":"Feature"},
	{"geometry":{"coordinates":[2.022635,41.576214],"type":"Point"},"properties":{"osm_id":"1347867634","tag":{"amenity":"recycling","recycling:cans":"yes","recycling:glass_bottles":"yes","recycling:paper":"yes","recycling:waste":"yes"}},"type":"Feature"},
	{"geometry":{"coordinates":[2.027993,41.576575],"type":"Point"},"properties":{"osm_id":"1347867638","tag":{"amenity":"recycling","recycling:cans":"yes","recycling:glass_bottles":"yes","recycling:paper":"yes","recycling:waste":"yes"}},"type":"Feature"},
	{"geometry":{"coordinates":[2.024816,41.576112],"type":"Point"},"properties":{"osm_id":"1347867643","tag":{"amenity":"recycling","recycling:cans":"yes","recycling:glass_bottles":"yes","recycling:paper":"yes","recycling:waste":"yes"}},"type":"Feature"},
	{"geometry":{"coordinates":[2.021776,41.575426],"type":"Point"},"properties":{"osm_id":"1347867644","tag":{"amenity":"recycling","recycling:cans":"yes","recycling:glass_bottles":"yes","recycling:paper":"yes","recycling:waste":"yes"}},"type":"Feature"},
	{"geometry":{"coordinates":[2.022125,41.578308],"type":"Point"},"properties":{"osm_id":"1347867651","tag":{"amenity":"recycling","recycling:cans":"yes","recycling:glass_bottles":"yes","recycling:paper":"yes","recycling:waste":"yes"}},"type":"Feature"},
	{"geometry":{"coordinates":[2.09043,41.611325],"type":"Point"},"properties":{"osm_id":"6015240690","tag":{"amenity":"waste_disposal"}},"type":"Feature"},
	{"geometry":{"coordinates":[2.090069,41.611675],"type":"Point"},"properties":{"osm_id":"6015240691","tag":{"amenity":"waste_disposal"}},"type":"Feature"},
	{"geometry":{"coordinates":[2.086759,41.619077],"type":"Point"},"properties":{"osm_id":"6124745883","tag":{"amenity":"waste_basket","waste":"trash"}},"type":"Feature"},
	{"geometry":{"coordinates":[2.087357,41.619054],"type":"Point"},"properties":{"osm_id":"6130172849","tag":{"amenity":"waste_basket"}},"type":"Feature"},
	{"geometry":{"coordinates":[2.089822,41.61798],"type":"Point"},"properties":{"osm_id":"6130189763","tag":{"amenity":"waste_basket"}},"type":"Feature"},
	{"geometry":{"coordinates":[2.089956,41.617963],"type":"Point"},"properties":{"osm_id":"6130208350","tag":{"amenity":"waste_disposal"}},"type":"Feature"},
	{"geometry":{"coordinates":[2.089979,41.617961],"type":"Point"},"properties":{"osm_id":"6130208351","tag":{"amenity":"recycling","recycling":"green_waste","recycling_type":"container"}},"type":"Feature"},
	{"geometry":{"coordinates":[2.091924,41.616879],"type":"Point"},"properties":{"osm_id":"6130280178","tag":{"amenity":"waste_disposal"}},"type":"Feature"},
	{"geometry":{"coordinates":[2.091926,41.616864],"type":"Point"},"properties":{"osm_id":"6130280179","tag":{"amenity":"recycling","recycling":"green_waste","recycling_type":"container"}},"type":"Feature"},
	{"geometry":{"coordinates":[2.092139,41.615819],"type":"Point"},"properties":{"osm_id":"6130679879","tag":{"amenity":"waste_basket"}},"type":"Feature"},
	{"geometry":{"coordinates":[2.092102,41.615695],"type":"Point"},"properties":{"osm_id":"6130679880","tag":{"amenity":"waste_basket"}},"type":"Feature"},
	{"geometry":{"coordinates":[2.092214,41.61581],"type":"Point"},"properties":{"osm_id":"6130679884","tag":{"amenity":"recycling","recycling":"plastic_bottles","recycling_type":"container"}},"type":"Feature"},
	{"geometry":{"coordinates":[2.09221,41.615825],"type":"Point"},"properties":{"osm_id":"6130680485","tag":{"amenity":"recycling","recycling":"glass","recycling_type":"container"}},"type":"Feature"},
	{"geometry":{"coordinates":[2.092207,41.615837],"type":"Point"},"properties":{"osm_id":"6130680486","tag":{"amenity":"recycling","recycling":"paper","recycling_type":"container"}},"type":"Feature"},
	{"geometry":{"coordinates":[2.092204,41.615854],"type":"Point"},"properties":{"osm_id":"6130680487","tag":{"amenity":"recycling","recycling":"green_waste","recycling_type":"container"}},"type":"Feature"},
	{"geometry":{"coordinates":[2.092185,41.615913],"type":"Point"},"properties":{"osm_id":"6130680488","tag":{"amenity":"recycling","recycling":"clothes","recycling_type":"container"}},"type":"Feature"},
	{"geometry":{"coordinates":[2.09219,41.615894],"type":"Point"},"properties":{"osm_id":"6130680489","tag":{"amenity":"waste_disposal"}},"type":"Feature"},
	{"geometry":{"coordinates":[2.092196,41.615877],"type":"Point"},"properties":{"osm_id":"6130680490","tag":{"amenity":"waste_disposal"}},"type":"Feature"},
	{"geometry":{"coordinates":[2.092099,41.615917],"type":"Point"},"properties":{"osm_id":"6130692186","tag":{"amenity":"waste_basket"}},"type":"Feature"},
	{"geometry":{"coordinates":[2.091927,41.615973],"type":"Point"},"properties":{"osm_id":"6130692187","tag":{"amenity":"waste_basket"}},"type":"Feature"},
	{"geometry":{"coordinates":[2.09279,41.617573],"type":"Point"},"properties":{"osm_id":"6130708281","tag":{"amenity":"waste_basket"}},"type":"Feature"},
	{"geometry":{"coordinates":[2.092095,41.617318],"type":"Point"},"properties":{"osm_id":"6130722569","tag":{"amenity":"waste_disposal"}},"type":"Feature"},
	{"geometry":{"coordinates":[2.09212,41.617326],"type":"Point"},"properties":{"osm_id":"6130722570","tag":{"amenity":"waste_disposal"}},"type":"Feature"},
	{"geometry":{"coordinates":[2.092201,41.617356],"type":"Point"},"properties":{"osm_id":"6130722571","tag":{"amenity":"recycling","recycling":"plastic_bottles","recycling_type":"container"}},"type":"Feature"},
	{"geometry":{"coordinates":[2.092173,41.617351],"type":"Point"},"properties":{"osm_id":"6130722572","tag":{"amenity":"recycling","recycling":"paper","recycling_type":"container"}},"type":"Feature"},
	{"geometry":{"coordinates":[2.092155,41.617342],"type":"Point"},"properties":{"osm_id":"6130722573","tag":{"amenity":"recycling","recycling":"glass","recycling_type":"container"}},"type":"Feature"},
	{"geometry":{"coordinates":[2.083386,41.61284],"type":"Point"},"properties":{"osm_id":"6130918760","tag":{"amenity":"waste_basket"}},"type":"Feature"},
	{"geometry":{"coordinates":[2.083372,41.612737],"type":"Point"},"properties":{"osm_id":"6130918761","tag":{"amenity":"waste_basket"}},"type":"Feature"},
	{"geometry":{"coordinates":[2.083499,41.612707],"type":"Point"},"properties":{"osm_id":"6130918762","tag":{"amenity":"waste_basket"}},"type":"Feature"},
	{"geometry":{"coordinates":[2.083353,41.612849],"type":"Point"},"properties":{"osm_id":"6130928150","tag":{"amenity":"waste_basket"}},"type":"Feature"},
	{"geometry":{"coordinates":[2.087499,41.610249],"type":"Point"},"properties":{"osm_id":"6147646450","tag":{"amenity":"waste_basket"}},"type":"Feature"},
	{"geometry":{"coordinates":[2.087657,41.610319],"type":"Point"},"properties":{"osm_id":"6147646452","tag":{"amenity":"waste_basket"}},"type":"Feature"},
	{"geometry":{"coordinates":[2.086691,41.613064],"type":"Point"},"properties":{"osm_id":"6192128315","tag":{"amenity":"waste_basket"}},"type":"Feature"},
	{"geometry":{"coordinates":[2.086604,41.612959],"type":"Point"},"properties":{"osm_id":"6192128318","tag":{"amenity":"recycling","recycling:plastic":"yes","recycling:plastic_bottles":"yes","recycling_type":"container"}},"type":"Feature"},
	{"geometry":{"coordinates":[2.086584,41.612948],"type":"Point"},"properties":{"osm_id":"6192128319","tag":{"amenity":"recycling","recycling:glass_bottles":"yes","recycling_type":"container"}},"type":"Feature"},
	{"geometry":{"coordinates":[2.086564,41.612938],"type":"Point"},"properties":{"osm_id":"6192128320","tag":{"amenity":"recycling","recycling:paper":"yes","recycling_type":"container"}},"type":"Feature"},
	{"geometry":{"coordinates":[2.086915,41.613206],"type":"Point"},"properties":{"osm_id":"6192158183","tag":{"amenity":"waste_basket"}},"type":"Feature"},
	{"geometry":{"coordinates":[2.087,41.613185],"type":"Point"},"properties":{"osm_id":"6192158184","tag":{"amenity":"waste_basket"}},"type":"Feature"},
	{"geometry":{"coordinates":[2.087527,41.613505],"type":"Point"},"properties":{"osm_id":"6192158486","tag":{"amenity":"waste_basket"}},"type":"Feature"},
	{"geometry":{"coordinates":[2.087714,41.613672],"type":"Point"},"properties":{"osm_id":"6192158488","tag":{"amenity":"waste_basket"}},"type":"Feature"},
	{"geometry":{"coordinates":[2.087748,41.613611],"type":"Point"},"properties":{"osm_id":"6192158489","tag":{"amenity":"waste_basket"}},"type":"Feature"},
	{"geometry":{"coordinates":[2.088019,41.613837],"type":"Point"},"properties":{"osm_id":"6192158496","tag":{"amenity":"waste_basket"}},"type":"Feature"},
	{"geometry":{"coordinates":[2.088054,41.613802],"type":"Point"},"properties":{"osm_id":"6192158497","tag":{"amenity":"waste_basket"}},"type":"Feature"},
	{"geometry":{"coordinates":[2.089983,41.615004],"type":"Point"},"properties":{"osm_id":"6197800431","tag":{"amenity":"waste_basket"}},"type":"Feature"},
	{"geometry":{"coordinates":[2.090416,41.61134],"type":"Point"},"properties":{"osm_id":"6197879091","tag":{"amenity":"recycling","recycling:organic":"yes","recycling_type":"container"}},"type":"Feature"},
	{"geometry":{"coordinates":[2.090052,41.611689],"type":"Point"},"properties":{"osm_id":"6197879092","tag":{"amenity":"recycling","recycling:organic":"yes","recycling_type":"container"}},"type":"Feature"},
	{"geometry":{"coordinates":[2.089316,41.611341],"type":"Point"},"properties":{"osm_id":"6197879093","tag":{"amenity":"waste_disposal"}},"type":"Feature"},
	{"geometry":{"coordinates":[2.089328,41.611329],"type":"Point"},"properties":{"osm_id":"6197879094","tag":{"amenity":"recycling","recycling:organic":"yes","recycling_type":"container"}},"type":"Feature"},
	{"geometry":{"coordinates":[2.088499,41.611228],"type":"Point"},"properties":{"osm_id":"6197879095","tag":{"amenity":"waste_disposal"}},"type":"Feature"},
	{"geometry":{"coordinates":[2.088486,41.611241],"type":"Point"},"properties":{"osm_id":"6197879096","tag":{"amenity":"recycling","recycling:organic":"yes","recycling_type":"container"}},"type":"Feature"},
	{"geometry":{"coordinates":[2.090484,41.612328],"type":"Point"},"properties":{"osm_id":"6197879097","tag":{"amenity":"waste_disposal"}},"type":"Feature"},
	{"geometry":{"coordinates":[2.090453,41.612351],"type":"Point"},"properties":{"osm_id":"6197879098","tag":{"amenity":"recycling","recycling:organic":"yes","recycling_type":"container"}},"type":"Feature"},
	{"geometry":{"coordinates":[2.09047,41.612341],"type":"Point"},"properties":{"osm_id":"6197879099","tag":{"amenity":"waste_disposal"}},"type":"Feature"},
	{"geometry":{"coordinates":[2.090455,41.612385],"type":"Point"},"properties":{"osm_id":"6197879100","tag":{"amenity":"recycling","recycling:batteries":"yes","recycling_type":"container"}},"type":"Feature"},
	{"geometry":{"coordinates":[2.090793,41.612025],"type":"Point"},"properties":{"osm_id":"6197879101","tag":{"amenity":"recycling","recycling:paper":"yes","recycling_type":"container"}},"type":"Feature"},
	{"geometry":{"coordinates":[2.090762,41.612054],"type":"Point"},"properties":{"osm_id":"6197879102","tag":{"amenity":"recycling","recycling:plastic":"yes","recycling:plastic_bottles":"yes","recycling_type":"container"}},"type":"Feature"},
	{"geometry":{"coordinates":[2.090743,41.612067],"type":"Point"},"properties":{"osm_id":"6197879103","tag":{"amenity":"recycling","recycling:oils":"yes","recycling_type":"container"}},"type":"Feature"},
	{"geometry":{"coordinates":[2.090781,41.612037],"type":"Point"},"properties":{"osm_id":"6197879104","tag":{"amenity":"recycling","recycling:glass_bottles":"yes","recycling_type":"container"}},"type":"Feature"},
	{"geometry":{"coordinates":[2.091166,41.611683],"type":"Point"},"properties":{"osm_id":"6197879105","tag":{"amenity":"recycling","recycling:batteries":"yes","recycling:dvds":"yes","recycling:light_bulbs":"yes","recycling_type":"container"}},"type":"Feature"},
	{"geometry":{"coordinates":[2.090302,41.612553],"type":"Point"},"properties":{"osm_id":"6197926437","tag":{"amenity":"recycling","recycling:paper":"yes","recycling_type":"container"}},"type":"Feature"},
	{"geometry":{"coordinates":[2.090267,41.612584],"type":"Point"},"properties":{"osm_id":"6197926438","tag":{"amenity":"recycling","recycling:plastic":"yes","recycling:plastic_bottles":"yes","recycling_type":"container"}},"type":"Feature"},
	{"geometry":{"coordinates":[2.090286,41.612567],"type":"Point"},"properties":{"osm_id":"6197926439","tag":{"amenity":"recycling","recycling:glass_bottles":"yes","recycling_type":"container"}},"type":"Feature"},
	{"geometry":{"coordinates":[2.089689,41.613125],"type":"Point"},"properties":{"osm_id":"6197926440","tag":{"amenity":"recycling","recycling:organic":"yes","recycling_type":"container"}},"type":"Feature"},
	{"geometry":{"coordinates":[2.089721,41.613086],"type":"Point"},"properties":{"osm_id":"6197926441","tag":{"amenity":"waste_disposal"}},"type":"Feature"},
	{"geometry":{"coordinates":[2.089706,41.613106],"type":"Point"},"properties":{"osm_id":"6197926442","tag":{"amenity":"waste_disposal"}},"type":"Feature"},
	{"geometry":{"coordinates":[2.088263,41.612695],"type":"Point"},"properties":{"osm_id":"6197926444","tag":{"amenity":"waste_disposal"}},"type":"Feature"},
	{"geometry":{"coordinates":[2.088589,41.61287],"type":"Point"},"properties":{"osm_id":"6197926445","tag":{"amenity":"waste_disposal"}},"type":"Feature"},
	{"geometry":{"coordinates":[2.088834,41.617742],"type":"Point"},"properties":{"osm_id":"6200457145","tag":{"amenity":"waste_basket"}},"type":"Feature"},
	{"geometry":{"coordinates":[2.091313,41.62019],"type":"Point"},"properties":{"osm_id":"6200518052","tag":{"amenity":"waste_basket"}},"type":"Feature"},
	{"geometry":{"coordinates":[2.09109,41.62003],"type":"Point"},"properties":{"osm_id":"6200518073","tag":{"amenity":"waste_basket"}},"type":"Feature"},
	{"geometry":{"coordinates":[2.090904,41.619917],"type":"Point"},"properties":{"osm_id":"6200518074","tag":{"amenity":"waste_basket"}},"type":"Feature"},
	{"geometry":{"coordinates":[2.083595,41.607195],"type":"Point"},"properties":{"osm_id":"6201348417","tag":{"amenity":"waste_basket"}},"type":"Feature"},
	{"geometry":{"coordinates":[2.083679,41.60717],"type":"Point"},"properties":{"osm_id":"6201348418","tag":{"amenity":"waste_basket"}},"type":"Feature"},
	{"geometry":{"coordinates":[2.083738,41.607148],"type":"Point"},"properties":{"osm_id":"6201348419","tag":{"amenity":"waste_basket"}},"type":"Feature"},
	{"geometry":{"coordinates":[2.083698,41.606959],"type":"Point"},"properties":{"osm_id":"6201348421","tag":{"amenity":"waste_basket"}},"type":"Feature"},
	{"geometry":{"coordinates":[2.083666,41.606777],"type":"Point"},"properties":{"osm_id":"6201348422","tag":{"amenity":"waste_basket"}},"type":"Feature"},
	{"geometry":{"coordinates":[2.083515,41.607363],"type":"Point"},"properties":{"osm_id":"6201348451","tag":{"amenity":"waste_basket"}},"type":"Feature"},
	{"geometry":{"coordinates":[2.083656,41.607511],"type":"Point"},"properties":{"osm_id":"6201348530","tag":{"amenity":"waste_basket"}},"type":"Feature"},
	{"geometry":{"coordinates":[2.083601,41.607287],"type":"Point"},"properties":{"osm_id":"6201348538","tag":{"amenity":"waste_basket"}},"type":"Feature"},
	{"geometry":{"coordinates":[2.084451,41.606851],"type":"Point"},"properties":{"osm_id":"6201348574","tag":{"amenity":"waste_basket"}},"type":"Feature"},
	{"geometry":{"coordinates":[2.086898,41.611805],"type":"Point"},"properties":{"osm_id":"6210206910","tag":{"amenity":"waste_basket"}},"type":"Feature"},
	{"geometry":{"coordinates":[2.08717,41.610825],"type":"Point"},"properties":{"osm_id":"6210206916","tag":{"amenity":"recycling","recycling:green_waste":"yes","recycling_type":"container"}},"type":"Feature"},
	{"geometry":{"coordinates":[2.087172,41.610848],"type":"Point"},"properties":{"osm_id":"6210206917","tag":{"amenity":"waste_disposal"}},"type":"Feature"},
	{"geometry":{"coordinates":[2.081392,41.614967],"type":"Point"},"properties":{"osm_id":"6210657465","tag":{"amenity":"waste_disposal"}},"type":"Feature"},
	{"geometry":{"coordinates":[2.081369,41.614955],"type":"Point"},"properties":{"osm_id":"6210657466","tag":{"amenity":"recycling","recycling:organic":"yes","recycling_type":"container"}},"type":"Feature"},
	{"geometry":{"coordinates":[2.080765,41.613714],"type":"Point"},"properties":{"osm_id":"6210689746","tag":{"amenity":"waste_basket"}},"type":"Feature"},
	{"geometry":{"coordinates":[2.080494,41.613622],"type":"Point"},"properties":{"osm_id":"6210689747","tag":{"amenity":"waste_basket"}},"type":"Feature"},
	{"geometry":{"coordinates":[2.08066,41.613574],"type":"Point"},"properties":{"osm_id":"6210689748","tag":{"amenity":"waste_disposal"}},"type":"Feature"},
	{"geometry":{"coordinates":[2.080684,41.613589],"type":"Point"},"properties":{"osm_id":"6210689749","tag":{"amenity":"recycling","recycling:organic":"yes","recycling_type":"container"}},"type":"Feature"},
	{"geometry":{"coordinates":[2.089339,41.606551],"type":"Point"},"properties":{"osm_id":"6213665000","tag":{"amenity":"waste_disposal"}},"type":"Feature"},
	{"geometry":{"coordinates":[2.089312,41.606546],"type":"Point"},"properties":{"osm_id":"6213665001","tag":{"amenity":"recycling","recycling:plastic":"yes","recycling:plastic_bags":"yes","recycling:plastic_bottles":"yes","recycling:plastic_packaging":"yes","recycling_type":"container"}},"type":"Feature"},
	{"geometry":{"coordinates":[2.089276,41.606543],"type":"Point"},"properties":{"osm_id":"6213665002","tag":{"amenity":"recycling","recycling:paper":"yes","recycling_type":"container"}},"type":"Feature"},
	{"geometry":{"coordinates":[2.089239,41.606538],"type":"Point"},"properties":{"osm_id":"6213665003","tag":{"amenity":"recycling","recycling:glass_bottles":"yes","recycling_type":"container"}},"type":"Feature"},
	{"geometry":{"coordinates":[2.089359,41.606553],"type":"Point"},"properties":{"osm_id":"6213665004","tag":{"amenity":"recycling","recycling:organic":"yes","recycling_type":"container"}},"type":"Feature"},
	{"geometry":{"coordinates":[2.091708,41.613412],"type":"Point"},"properties":{"osm_id":"6216391825","tag":{"amenity":"waste_disposal"}},"type":"Feature"},
	{"geometry":{"coordinates":[2.091693,41.613426],"type":"Point"},"properties":{"osm_id":"6216391826","tag":{"amenity":"recycling","recycling:organic":"yes","recycling_type":"container"}},"type":"Feature"},
	{"geometry":{"coordinates":[2.091083,41.614026],"type":"Point"},"properties":{"osm_id":"6216391837","tag":{"amenity":"recycling","recycling:plastic":"yes","recycling:plastic_bottles":"yes","recycling_type":"container"}},"type":"Feature"},
	{"geometry":{"coordinates":[2.091096,41.614013],"type":"Point"},"properties":{"osm_id":"6216391838","tag":{"amenity":"recycling","recycling:cartons":"yes","recycling:paper":"yes","recycling:paper_packaging":"yes","recycling_type":"container"}},"type":"Feature"},
	{"geometry":{"coordinates":[2.091111,41.613997],"type":"Point"},"properties":{"osm_id":"6216391839","tag":{"amenity":"recycling","recycling:glass_bottles":"yes","recycling_type":"container"}},"type":"Feature"},
	{"geometry":{"coordinates":[2.091124,41.613985],"type":"Point"},"properties":{"osm_id":"6216391840","tag":{"amenity":"recycling","recycling:organic":"yes","recycling_type":"container"}},"type":"Feature"},
	{"geometry":{"coordinates":[2.091138,41.613971],"type":"Point"},"properties":{"osm_id":"6216391841","tag":{"amenity":"waste_disposal"}},"type":"Feature"},
	{"geometry":{"coordinates":[2.091153,41.613956],"type":"Point"},"properties":{"osm_id":"6216391842","tag":{"amenity":"waste_disposal"}},"type":"Feature"},
	{"geometry":{"coordinates":[2.09102,41.614095],"type":"Point"},"properties":{"osm_id":"6216391843","tag":{"amenity":"recycling","recycling:clothes":"yes","recycling_type":"container"}},"type":"Feature"},
	{"geometry":{"coordinates":[2.097156,41.619754],"type":"Point"},"properties":{"osm_id":"6216491093","tag":{"amenity":"waste_basket"}},"type":"Feature"},
	{"geometry":{"coordinates":[2.082314,41.605266],"type":"Point"},"properties":{"osm_id":"6216503654","tag":{"amenity":"waste_basket"}},"type":"Feature"},
	{"geometry":{"coordinates":[2.083345,41.603385],"type":"Point"},"properties":{"osm_id":"6218106008","tag":{"amenity":"waste_basket"}},"type":"Feature"},
	{"geometry":{"coordinates":[2.083679,41.603343],"type":"Point"},"properties":{"osm_id":"6218106020","tag":{"amenity":"waste_basket"}},"type":"Feature"},
	{"geometry":{"coordinates":[2.08354,41.604624],"type":"Point"},"properties":{"osm_id":"6218106048","tag":{"amenity":"waste_basket"}},"type":"Feature"},
	{"geometry":{"coordinates":[2.086411,41.617882],"type":"Point"},"properties":{"osm_id":"6226891678","tag":{"amenity":"waste_basket"}},"type":"Feature"},
	{"geometry":{"coordinates":[2.086882,41.617789],"type":"Point"},"properties":{"osm_id":"6226892490","tag":{"amenity":"waste_basket"}},"type":"Feature"},
	{"geometry":{"coordinates":[2.08691,41.61742],"type":"Point"},"properties":{"osm_id":"6226892509","tag":{"amenity":"waste_basket"}},"type":"Feature"},
	{"geometry":{"coordinates":[2.0876,41.618357],"type":"Point"},"properties":{"osm_id":"6226892522","tag":{"amenity":"recycling","recycling:organic_waste":"yes","recycling_type":"container"}},"type":"Feature"},
	{"geometry":{"coordinates":[2.087617,41.618344],"type":"Point"},"properties":{"osm_id":"6226892523","tag":{"amenity":"waste_disposal"}},"type":"Feature"},
	{"geometry":{"coordinates":[2.096698,41.61865],"type":"Point"},"properties":{"osm_id":"6227036083","tag":{"amenity":"waste_basket"}},"type":"Feature"},
	{"geometry":{"coordinates":[2.096031,41.619033],"type":"Point"},"properties":{"osm_id":"6227036291","tag":{"amenity":"waste_basket"}},"type":"Feature"},
	{"geometry":{"coordinates":[2.096181,41.618955],"type":"Point"},"properties":{"osm_id":"6227036307","tag":{"amenity":"waste_disposal"}},"type":"Feature"},
	{"geometry":{"coordinates":[2.096158,41.618966],"type":"Point"},"properties":{"osm_id":"6227036308","tag":{"amenity":"recycling","recycling:organic":"yes","recycling_type":"container"}},"type":"Feature"},
	{"geometry":{"coordinates":[2.096139,41.618979],"type":"Point"},"properties":{"osm_id":"6227036309","tag":{"amenity":"recycling","recycling:paper":"yes","recycling_type":"container"}},"type":"Feature"},
	{"geometry":{"coordinates":[2.096113,41.618993],"type":"Point"},"properties":{"osm_id":"6227036310","tag":{"amenity":"recycling","recycling:glass_bottles":"yes","recycling_type":"container"}},"type":"Feature"},
	{"geometry":{"coordinates":[2.09609,41.619004],"type":"Point"},"properties":{"osm_id":"6227036311","tag":{"amenity":"recycling","recycling:plastic":"yes","recycling_type":"container"}},"type":"Feature"},
	{"geometry":{"coordinates":[2.096724,41.619509],"type":"Point"},"properties":{"osm_id":"6227036317","tag":{"amenity":"waste_basket"}},"type":"Feature"},
	{"geometry":{"coordinates":[2.094605,41.619646],"type":"Point"},"properties":{"osm_id":"6227036338","tag":{"amenity":"waste_basket"}},"type":"Feature"},
	{"geometry":{"coordinates":[2.094832,41.619584],"type":"Point"},"properties":{"osm_id":"6227036339","tag":{"amenity":"waste_basket"}},"type":"Feature"},
	{"geometry":{"coordinates":[2.095847,41.619131],"type":"Point"},"properties":{"osm_id":"6227041534","tag":{"amenity":"waste_basket"}},"type":"Feature"},
	{"geometry":{"coordinates":[2.091309,41.611546],"type":"Point"},"properties":{"osm_id":"6227352536","tag":{"amenity":"waste_basket"}},"type":"Feature"},
	{"geometry":{"coordinates":[2.091714,41.611181],"type":"Point"},"properties":{"osm_id":"6227352548","tag":{"amenity":"waste_basket"}},"type":"Feature"},
	{"geometry":{"coordinates":[2.090859,41.610729],"type":"Point"},"properties":{"osm_id":"6227352572","tag":{"amenity":"waste_basket"}},"type":"Feature"},
	{"geometry":{"coordinates":[2.090502,41.611147],"type":"Point"},"properties":{"osm_id":"6227352584","tag":{"amenity":"waste_basket"}},"type":"Feature"},
	{"geometry":{"coordinates":[2.09055,41.61108],"type":"Point"},"properties":{"osm_id":"6227355585","tag":{"amenity":"recycling","recycling:clothes":"yes","recycling_type":"container"}},"type":"Feature"},
	{"geometry":{"coordinates":[2.09056,41.611075],"type":"Point"},"properties":{"osm_id":"6227355590","tag":{"amenity":"recycling","recycling:clothes":"yes","recycling_type":"container"}},"type":"Feature"},
	{"geometry":{"coordinates":[2.090226,41.611019],"type":"Point"},"properties":{"osm_id":"6227362553","tag":{"amenity":"waste_basket"}},"type":"Feature"},
	{"geometry":{"coordinates":[2.084426,41.61448],"type":"Point"},"properties":{"osm_id":"6227471391","tag":{"amenity":"waste_basket"}},"type":"Feature"},
	{"geometry":{"coordinates":[2.084234,41.6145],"type":"Point"},"properties":{"osm_id":"6227471401","tag":{"amenity":"waste_basket"}},"type":"Feature"},
	{"geometry":{"coordinates":[2.08355,41.614009],"type":"Point"},"properties":{"osm_id":"6227471419","tag":{"amenity":"waste_basket"}},"type":"Feature"},
	{"geometry":{"coordinates":[2.083158,41.613799],"type":"Point"},"properties":{"osm_id":"6227471423","tag":{"amenity":"waste_disposal"}},"type":"Feature"},
	{"geometry":{"coordinates":[2.083178,41.613816],"type":"Point"},"properties":{"osm_id":"6227471424","tag":{"amenity":"recycling","recycling:organic":"yes","recycling_type":"container"}},"type":"Feature"},
	{"geometry":{"coordinates":[2.083198,41.613828],"type":"Point"},"properties":{"osm_id":"6227471425","tag":{"amenity":"recycling","recycling:paper":"yes","recycling_type":"container"}},"type":"Feature"},
	{"geometry":{"coordinates":[2.083215,41.613837],"type":"Point"},"properties":{"osm_id":"6227471426","tag":{"amenity":"recycling","recycling:glass_bottles":"yes","recycling_type":"container"}},"type":"Feature"},
	{"geometry":{"coordinates":[2.083231,41.613845],"type":"Point"},"properties":{"osm_id":"6227471427","tag":{"amenity":"recycling","recycling:plastic":"yes","recycling_type":"container"}},"type":"Feature"},
	{"geometry":{"coordinates":[2.084679,41.614436],"type":"Point"},"properties":{"osm_id":"6227517857","tag":{"amenity":"recycling","recycling:organic":"yes","recycling_type":"container"}},"type":"Feature"},
	{"geometry":{"coordinates":[2.084699,41.614432],"type":"Point"},"properties":{"osm_id":"6227517858","tag":{"amenity":"waste_disposal"}},"type":"Feature"},
	{"geometry":{"coordinates":[2.084723,41.614426],"type":"Point"},"properties":{"osm_id":"6227517859","tag":{"amenity":"waste_disposal"}},"type":"Feature"},
	{"geometry":{"coordinates":[2.085305,41.614165],"type":"Point"},"properties":{"osm_id":"6227517860","tag":{"amenity":"waste_basket"}},"type":"Feature"},
	{"geometry":{"coordinates":[2.085421,41.614184],"type":"Point"},"properties":{"osm_id":"6227517861","tag":{"amenity":"waste_basket"}},"type":"Feature"},
	{"geometry":{"coordinates":[2.08547,41.614287],"type":"Point"},"properties":{"osm_id":"6227517862","tag":{"amenity":"waste_basket"}},"type":"Feature"},
	{"geometry":{"coordinates":[2.085387,41.614343],"type":"Point"},"properties":{"osm_id":"6227517863","tag":{"amenity":"waste_basket"}},"type":"Feature"},
	{"geometry":{"coordinates":[2.085523,41.614751],"type":"Point"},"properties":{"osm_id":"6227531011","tag":{"amenity":"waste_basket"}},"type":"Feature"},
	{"geometry":{"coordinates":[2.085555,41.614512],"type":"Point"},"properties":{"osm_id":"6227531022","tag":{"amenity":"recycling","recycling:paper":"yes","recycling_type":"container"}},"type":"Feature"},
	{"geometry":{"coordinates":[2.085551,41.614504],"type":"Point"},"properties":{"osm_id":"6227531023","tag":{"amenity":"recycling","recycling:organic":"yes","recycling_type":"container"}},"type":"Feature"},
	{"geometry":{"coordinates":[2.085547,41.614494],"type":"Point"},"properties":{"osm_id":"6227531024","tag":{"amenity":"waste_disposal"}},"type":"Feature"},
	{"geometry":{"coordinates":[2.0886,41.612206],"type":"Point"},"properties":{"osm_id":"6229118798","tag":{"amenity":"waste_basket"}},"type":"Feature"},
	{"geometry":{"coordinates":[2.088786,41.612279],"type":"Point"},"properties":{"osm_id":"6229118801","tag":{"amenity":"waste_basket"}},"type":"Feature"},
	{"geometry":{"coordinates":[2.090318,41.612541],"type":"Point"},"properties":{"osm_id":"6229244486","tag":{"amenity":"waste_basket"}},"type":"Feature"},
	{"geometry":{"coordinates":[2.090556,41.612495],"type":"Point"},"properties":{"osm_id":"6229244487","tag":{"amenity":"waste_basket"}},"type":"Feature"},
	{"geometry":{"coordinates":[2.09102,41.612809],"type":"Point"},"properties":{"osm_id":"6229244500","tag":{"amenity":"waste_basket"}},"type":"Feature"},
	{"geometry":{"coordinates":[2.091107,41.612946],"type":"Point"},"properties":{"osm_id":"6229244505","tag":{"amenity":"waste_basket"}},"type":"Feature"},
	{"geometry":{"coordinates":[2.095859,41.619029],"type":"Point"},"properties":{"osm_id":"6229638535","tag":{"amenity":"waste_basket"}},"type":"Feature"},
	{"geometry":{"coordinates":[2.095344,41.619275],"type":"Point"},"properties":{"osm_id":"6229638545","tag":{"amenity":"waste_basket"}},"type":"Feature"},
	{"geometry":{"coordinates":[2.095143,41.619369],"type":"Point"},"properties":{"osm_id":"6229638546","tag":{"amenity":"recycling","recycling:plastic":"yes","recycling_type":"container"}},"type":"Feature"},
	{"geometry":{"coordinates":[2.095127,41.619377],"type":"Point"},"properties":{"osm_id":"6229638547","tag":{"amenity":"recycling","recycling:glass_bottles":"yes","recycling_type":"container"}},"type":"Feature"},
	{"geometry":{"coordinates":[2.095112,41.619383],"type":"Point"},"properties":{"osm_id":"6229638548","tag":{"amenity":"recycling","recycling:paper":"yes","recycling_type":"container"}},"type":"Feature"},
	{"geometry":{"coordinates":[2.095093,41.619391],"type":"Point"},"properties":{"osm_id":"6229638549","tag":{"amenity":"recycling","recycling:organic":"yes","recycling_type":"container"}},"type":"Feature"},
	{"geometry":{"coordinates":[2.095074,41.619397],"type":"Point"},"properties":{"osm_id":"6229638550","tag":{"amenity":"waste_disposal"}},"type":"Feature"},
	{"geometry":{"coordinates":[2.095139,41.619339],"type":"Point"},"properties":{"osm_id":"6229638555","tag":{"amenity":"waste_basket"}},"type":"Feature"},
	{"geometry":{"coordinates":[2.094702,41.619542],"type":"Point"},"properties":{"osm_id":"6229638564","tag":{"amenity":"waste_basket"}},"type":"Feature"},
	{"geometry":{"coordinates":[2.094427,41.619631],"type":"Point"},"properties":{"osm_id":"6229638566","tag":{"amenity":"waste_basket"}},"type":"Feature"},
	{"geometry":{"coordinates":[2.09438,41.619644],"type":"Point"},"properties":{"osm_id":"6229638567","tag":{"amenity":"recycling","recycling:organic":"yes","recycling_type":"container"}},"type":"Feature"},
	{"geometry":{"coordinates":[2.094357,41.619652],"type":"Point"},"properties":{"osm_id":"6229638568","tag":{"amenity":"waste_disposal"}},"type":"Feature"},
	{"geometry":{"coordinates":[2.096218,41.617781],"type":"Point"},"properties":{"osm_id":"6229665534","tag":{"amenity":"waste_basket"}},"type":"Feature"},
	{"geometry":{"coordinates":[2.096005,41.617673],"type":"Point"},"properties":{"osm_id":"6229665535","tag":{"amenity":"waste_basket"}},"type":"Feature"},
	{"geometry":{"coordinates":[2.096761,41.618212],"type":"Point"},"properties":{"osm_id":"6229665538","tag":{"amenity":"waste_basket"}},"type":"Feature"},
	{"geometry":{"coordinates":[2.096888,41.618007],"type":"Point"},"properties":{"osm_id":"6229665550","tag":{"amenity":"recycling","recycling:batteries":"yes","recycling:light_bulbs":"yes","recycling_type":"container"}},"type":"Feature"},
	{"geometry":{"coordinates":[2.095803,41.617133],"type":"Point"},"properties":{"osm_id":"6229693192","tag":{"amenity":"waste_basket"}},"type":"Feature"},
	{"geometry":{"coordinates":[2.095938,41.617039],"type":"Point"},"properties":{"osm_id":"6229693193","tag":{"amenity":"waste_basket"}},"type":"Feature"},
	{"geometry":{"coordinates":[2.090525,41.610582],"type":"Point"},"properties":{"osm_id":"6232179788","tag":{"amenity":"waste_basket"}},"type":"Feature"},
	{"geometry":{"coordinates":[2.090321,41.610365],"type":"Point"},"properties":{"osm_id":"6232179790","tag":{"amenity":"waste_disposal"}},"type":"Feature"},
	{"geometry":{"coordinates":[2.090345,41.610376],"type":"Point"},"properties":{"osm_id":"6232179791","tag":{"amenity":"waste_disposal"}},"type":"Feature"},
	{"geometry":{"coordinates":[2.090367,41.610388],"type":"Point"},"properties":{"osm_id":"6232179792","tag":{"amenity":"recycling","recycling:organic":"yes","recycling_type":"container"}},"type":"Feature"},
	{"geometry":{"coordinates":[2.090083,41.610239],"type":"Point"},"properties":{"osm_id":"6232179793","tag":{"amenity":"recycling","recycling:paper":"yes","recycling_type":"container"}},"type":"Feature"},
	{"geometry":{"coordinates":[2.090066,41.610228],"type":"Point"},"properties":{"osm_id":"6232179794","tag":{"amenity":"recycling","recycling:glas":"yes","recycling_type":"container"}},"type":"Feature"},
	{"geometry":{"coordinates":[2.090046,41.610217],"type":"Point"},"properties":{"osm_id":"6232179795","tag":{"amenity":"recycling","recycling:plastic":"yes","recycling_type":"container"}},"type":"Feature"},
	{"geometry":{"coordinates":[2.090938,41.609927],"type":"Point"},"properties":{"osm_id":"6232179807","tag":{"amenity":"waste_basket"}},"type":"Feature"},
	{"geometry":{"coordinates":[2.09121,41.609974],"type":"Point"},"properties":{"osm_id":"6232179818","tag":{"amenity":"recycling","recycling:organic":"yes","recycling_type":"container"}},"type":"Feature"},
	{"geometry":{"coordinates":[2.091194,41.609964],"type":"Point"},"properties":{"osm_id":"6232179819","tag":{"amenity":"waste_disposal"}},"type":"Feature"},
	{"geometry":{"coordinates":[2.091861,41.610917],"type":"Point"},"properties":{"osm_id":"6232179849","tag":{"amenity":"waste_disposal"}},"type":"Feature"},
	{"geometry":{"coordinates":[2.091847,41.610929],"type":"Point"},"properties":{"osm_id":"6232179850","tag":{"amenity":"recycling","recycling:organic":"yes","recycling_type":"container"}},"type":"Feature"},
	{"geometry":{"coordinates":[2.091832,41.610945],"type":"Point"},"properties":{"osm_id":"6232179851","tag":{"amenity":"recycling","recycling:paper":"yes","recycling_type":"container"}},"type":"Feature"},
	{"geometry":{"coordinates":[2.09182,41.610957],"type":"Point"},"properties":{"osm_id":"6232179852","tag":{"amenity":"recycling","recycling:glas":"yes","recycling_type":"container"}},"type":"Feature"},
	{"geometry":{"coordinates":[2.09181,41.610968],"type":"Point"},"properties":{"osm_id":"6232179853","tag":{"amenity":"recycling","recycling:plastic":"yes","recycling_type":"container"}},"type":"Feature"},
	{"geometry":{"coordinates":[2.09262,41.6124],"type":"Point"},"properties":{"osm_id":"6232663862","tag":{"amenity":"waste_basket"}},"type":"Feature"},
	{"geometry":{"coordinates":[2.092884,41.613413],"type":"Point"},"properties":{"osm_id":"6232663876","tag":{"amenity":"waste_basket"}},"type":"Feature"},
	{"geometry":{"coordinates":[2.09288,41.613192],"type":"Point"},"properties":{"osm_id":"6232663880","tag":{"amenity":"waste_basket"}},"type":"Feature"},
	{"geometry":{"coordinates":[2.092042,41.611858],"type":"Point"},"properties":{"osm_id":"6232664395","tag":{"amenity":"waste_disposal"}},"type":"Feature"},
	{"geometry":{"coordinates":[2.092057,41.611845],"type":"Point"},"properties":{"osm_id":"6232664396","tag":{"amenity":"recycling","recycling:organic":"yes","recycling_type":"container"}},"type":"Feature"},
	{"geometry":{"coordinates":[2.09207,41.611828],"type":"Point"},"properties":{"osm_id":"6232664397","tag":{"amenity":"recycling","recycling:paper":"yes","recycling_type":"container"}},"type":"Feature"},
	{"geometry":{"coordinates":[2.092086,41.611814],"type":"Point"},"properties":{"osm_id":"6232664398","tag":{"amenity":"recycling","recycling:glass_bottles":"yes","recycling_type":"container"}},"type":"Feature"},
	{"geometry":{"coordinates":[2.092102,41.611799],"type":"Point"},"properties":{"osm_id":"6232664399","tag":{"amenity":"recycling","recycling:plastic":"yes","recycling_type":"container"}},"type":"Feature"},
	{"geometry":{"coordinates":[2.091823,41.611149],"type":"Point"},"properties":{"osm_id":"6232664410","tag":{"amenity":"waste_basket"}},"type":"Feature"},
	{"geometry":{"coordinates":[2.09127,41.615675],"type":"Point"},"properties":{"osm_id":"6233005334","tag":{"amenity":"waste_disposal"}},"type":"Feature"},
	{"geometry":{"coordinates":[2.091288,41.615686],"type":"Point"},"properties":{"osm_id":"6233005335","tag":{"amenity":"waste_disposal"}},"type":"Feature"},
	{"geometry":{"coordinates":[2.09131,41.615698],"type":"Point"},"properties":{"osm_id":"6233005336","tag":{"amenity":"recycling","recycling:organic":"yes","recycling_type":"container"}},"type":"Feature"},
	{"geometry":{"coordinates":[2.091256,41.615394],"type":"Point"},"properties":{"osm_id":"6233005338","tag":{"amenity":"waste_disposal"}},"type":"Feature"},
	{"geometry":{"coordinates":[2.091248,41.615407],"type":"Point"},"properties":{"osm_id":"6233005339","tag":{"amenity":"recycling","recycling:organic":"yes","recycling_type":"container"}},"type":"Feature"},
	{"geometry":{"coordinates":[2.084203,41.610704],"type":"Point"},"properties":{"osm_id":"6233158933","tag":{"amenity":"waste_basket"}},"type":"Feature"},
	{"geometry":{"coordinates":[2.085333,41.610766],"type":"Point"},"properties":{"osm_id":"6233158941","tag":{"amenity":"waste_basket"}},"type":"Feature"},
	{"geometry":{"coordinates":[2.085379,41.610582],"type":"Point"},"properties":{"osm_id":"6233158943","tag":{"amenity":"waste_basket"}},"type":"Feature"},
	{"geometry":{"coordinates":[2.084045,41.610544],"type":"Point"},"properties":{"osm_id":"6233158957","tag":{"amenity":"waste_basket"}},"type":"Feature"},
	{"geometry":{"coordinates":[2.083877,41.610246],"type":"Point"},"properties":{"osm_id":"6233158962","tag":{"amenity":"recycling","recycling:batteries":"yes","recycling:light_bulbs":"yes","recycling_type":"container"}},"type":"Feature"},
	{"geometry":{"coordinates":[2.083909,41.610182],"type":"Point"},"properties":{"osm_id":"6233158965","tag":{"amenity":"waste_basket"}},"type":"Feature"},
	{"geometry":{"coordinates":[2.084362,41.610595],"type":"Point"},"properties":{"osm_id":"6233161825","tag":{"amenity":"recycling","recycling:organic":"yes","recycling_type":"container"}},"type":"Feature"},
	{"geometry":{"coordinates":[2.084384,41.610599],"type":"Point"},"properties":{"osm_id":"6233161826","tag":{"amenity":"recycling","recycling:paper":"yes","recycling_type":"container"}},"type":"Feature"},
	{"geometry":{"coordinates":[2.084409,41.610602],"type":"Point"},"properties":{"osm_id":"6233161827","tag":{"amenity":"recycling","recycling:glass_bottles":"yes","recycling_type":"container"}},"type":"Feature"},
	{"geometry":{"coordinates":[2.08443,41.610606],"type":"Point"},"properties":{"osm_id":"6233161828","tag":{"amenity":"recycling","recycling:plastic":"yes","recycling_type":"container"}},"type":"Feature"},
	{"geometry":{"coordinates":[2.084341,41.610594],"type":"Point"},"properties":{"osm_id":"6233161829","tag":{"amenity":"waste_disposal"}},"type":"Feature"},
	{"geometry":{"coordinates":[2.084367,41.609194],"type":"Point"},"properties":{"osm_id":"6233161830","tag":{"amenity":"waste_basket"}},"type":"Feature"},
	{"geometry":{"coordinates":[2.084653,41.615654],"type":"Point"},"properties":{"osm_id":"6233573095","tag":{"amenity":"waste_basket"}},"type":"Feature"},
	{"geometry":{"coordinates":[2.084644,41.615609],"type":"Point"},"properties":{"osm_id":"6233573096","tag":{"amenity":"recycling","recycling:plastic":"yes","recycling_type":"container"}},"type":"Feature"},
	{"geometry":{"coordinates":[2.084665,41.615597],"type":"Point"},"properties":{"osm_id":"6233573097","tag":{"amenity":"recycling","recycling:paper":"yes","recycling_type":"container"}},"type":"Feature"},
	{"geometry":{"coordinates":[2.084685,41.615587],"type":"Point"},"properties":{"osm_id":"6233573098","tag":{"amenity":"recycling","recycling:glass_bottles":"yes","recycling_type":"container"}},"type":"Feature"},
	{"geometry":{"coordinates":[2.084699,41.615581],"type":"Point"},"properties":{"osm_id":"6233573099","tag":{"amenity":"waste_disposal"}},"type":"Feature"},
	{"geometry":{"coordinates":[2.08514,41.613807],"type":"Point"},"properties":{"osm_id":"6233573126","tag":{"amenity":"waste_basket"}},"type":"Feature"},
	{"geometry":{"coordinates":[2.085157,41.613652],"type":"Point"},"properties":{"osm_id":"6233573130","tag":{"amenity":"waste_disposal"}},"type":"Feature"},
	{"geometry":{"coordinates":[2.085162,41.613664],"type":"Point"},"properties":{"osm_id":"6233573131","tag":{"amenity":"recycling","recycling:organic":"yes","recycling_type":"container"}},"type":"Feature"},
	{"geometry":{"coordinates":[2.084913,41.613325],"type":"Point"},"properties":{"osm_id":"6233573147","tag":{"amenity":"waste_basket"}},"type":"Feature"},
	{"geometry":{"coordinates":[2.085025,41.613297],"type":"Point"},"properties":{"osm_id":"6233573148","tag":{"amenity":"waste_basket"}},"type":"Feature"},
	{"geometry":{"coordinates":[2.084841,41.613166],"type":"Point"},"properties":{"osm_id":"6233573149","tag":{"amenity":"waste_basket"}},"type":"Feature"},
	{"geometry":{"coordinates":[2.084955,41.613145],"type":"Point"},"properties":{"osm_id":"6233573150","tag":{"amenity":"waste_basket"}},"type":"Feature"},
	{"geometry":{"coordinates":[2.08485,41.612956],"type":"Point"},"properties":{"osm_id":"6233573162","tag":{"amenity":"recycling","recycling:organic":"yes","recycling_type":"container"}},"type":"Feature"},
	{"geometry":{"coordinates":[2.084845,41.61295],"type":"Point"},"properties":{"osm_id":"6233573163","tag":{"amenity":"waste_disposal"}},"type":"Feature"},
	{"geometry":{"coordinates":[2.08451,41.612441],"type":"Point"},"properties":{"osm_id":"6233573180","tag":{"amenity":"waste_basket"}},"type":"Feature"},
	{"geometry":{"coordinates":[2.084337,41.612071],"type":"Point"},"properties":{"osm_id":"6233576289","tag":{"amenity":"waste_basket"}},"type":"Feature"},
	{"geometry":{"coordinates":[2.084236,41.611832],"type":"Point"},"properties":{"osm_id":"6233576300","tag":{"amenity":"waste_basket"}},"type":"Feature"},
	{"geometry":{"coordinates":[2.084325,41.611836],"type":"Point"},"properties":{"osm_id":"6233576301","tag":{"amenity":"recycling","recycling:organic":"yes","recycling_type":"container"}},"type":"Feature"},
	{"geometry":{"coordinates":[2.084319,41.611825],"type":"Point"},"properties":{"osm_id":"6233576302","tag":{"amenity":"waste_disposal"}},"type":"Feature"},
	{"geometry":{"coordinates":[2.084214,41.611551],"type":"Point"},"properties":{"osm_id":"6233576308","tag":{"amenity":"waste_basket"}},"type":"Feature"},
	{"geometry":{"coordinates":[2.083935,41.611195],"type":"Point"},"properties":{"osm_id":"6235639959","tag":{"amenity":"waste_basket"}},"type":"Feature"},
	{"geometry":{"coordinates":[2.084049,41.611213],"type":"Point"},"properties":{"osm_id":"6235639963","tag":{"amenity":"waste_disposal"}},"type":"Feature"},
	{"geometry":{"coordinates":[2.086491,41.610929],"type":"Point"},"properties":{"osm_id":"6235641900","tag":{"amenity":"waste_basket"}},"type":"Feature"},
	{"geometry":{"coordinates":[2.086402,41.610968],"type":"Point"},"properties":{"osm_id":"6235641908","tag":{"amenity":"waste_disposal"}},"type":"Feature"},
	{"geometry":{"coordinates":[2.086411,41.610986],"type":"Point"},"properties":{"osm_id":"6235641909","tag":{"amenity":"waste_disposal"}},"type":"Feature"},
	{"geometry":{"coordinates":[2.086418,41.611002],"type":"Point"},"properties":{"osm_id":"6235641910","tag":{"amenity":"recycling","recycling:organic":"yes","recycling_type":"container"}},"type":"Feature"},
	{"geometry":{"coordinates":[2.086426,41.611016],"type":"Point"},"properties":{"osm_id":"6235641911","tag":{"amenity":"recycling","recycling:paper":"yes","recycling_type":"container"}},"type":"Feature"},
	{"geometry":{"coordinates":[2.086433,41.611032],"type":"Point"},"properties":{"osm_id":"6235641912","tag":{"amenity":"recycling","recycling:glass_bottles":"yes","recycling_type":"container"}},"type":"Feature"},
	{"geometry":{"coordinates":[2.086442,41.611051],"type":"Point"},"properties":{"osm_id":"6235641913","tag":{"amenity":"recycling","recycling:plastic":"yes","recycling_type":"container"}},"type":"Feature"},
	{"geometry":{"coordinates":[2.087581,41.609688],"type":"Point"},"properties":{"osm_id":"6235641923","tag":{"amenity":"waste_basket"}},"type":"Feature"},
	{"geometry":{"coordinates":[2.084554,41.601984],"type":"Point"},"properties":{"osm_id":"6235701696","tag":{"amenity":"waste_basket"}},"type":"Feature"},
	{"geometry":{"coordinates":[2.08442,41.602443],"type":"Point"},"properties":{"osm_id":"6235701724","tag":{"amenity":"waste_basket"}},"type":"Feature"},
	{"geometry":{"coordinates":[2.084552,41.602456],"type":"Point"},"properties":{"osm_id":"6235701726","tag":{"amenity":"waste_basket"}},"type":"Feature"},
	{"geometry":{"coordinates":[2.084593,41.602351],"type":"Point"},"properties":{"osm_id":"6235701727","tag":{"amenity":"waste_basket"}},"type":"Feature"},
	{"geometry":{"coordinates":[2.084505,41.602618],"type":"Point"},"properties":{"osm_id":"6235701731","tag":{"amenity":"waste_basket"}},"type":"Feature"},
	{"geometry":{"coordinates":[2.084421,41.603421],"type":"Point"},"properties":{"osm_id":"6235701740","tag":{"amenity":"waste_basket"}},"type":"Feature"},
	{"geometry":{"coordinates":[2.084173,41.603306],"type":"Point"},"properties":{"osm_id":"6235701741","tag":{"amenity":"waste_basket"}},"type":"Feature"},
	{"geometry":{"coordinates":[2.084466,41.602783],"type":"Point"},"properties":{"osm_id":"6235701772","tag":{"amenity":"waste_basket"}},"type":"Feature"},
	{"geometry":{"coordinates":[2.083384,41.610516],"type":"Point"},"properties":{"osm_id":"6235742415","tag":{"amenity":"waste_basket"}},"type":"Feature"},
	{"geometry":{"coordinates":[2.083635,41.610224],"type":"Point"},"properties":{"osm_id":"6235742421","tag":{"amenity":"waste_basket"}},"type":"Feature"},
	{"geometry":{"coordinates":[2.083128,41.611005],"type":"Point"},"properties":{"osm_id":"6235742429","tag":{"amenity":"waste_basket"}},"type":"Feature"},
	{"geometry":{"coordinates":[2.083511,41.611133],"type":"Point"},"properties":{"osm_id":"6235762855","tag":{"amenity":"waste_disposal"}},"type":"Feature"},
	{"geometry":{"coordinates":[2.083514,41.611116],"type":"Point"},"properties":{"osm_id":"6235762856","tag":{"amenity":"recycling","recycling:organic":"yes","recycling_type":"container"}},"type":"Feature"},
	{"geometry":{"coordinates":[2.089507,41.609094],"type":"Point"},"properties":{"osm_id":"6235931044","tag":{"amenity":"waste_basket"}},"type":"Feature"},
	{"geometry":{"coordinates":[2.089869,41.609208],"type":"Point"},"properties":{"osm_id":"6235931049","tag":{"amenity":"waste_disposal"}},"type":"Feature"},
	{"geometry":{"coordinates":[2.089887,41.609223],"type":"Point"},"properties":{"osm_id":"6235931050","tag":{"amenity":"recycling","recycling:organic":"yes","recycling_type":"container"}},"type":"Feature"},
	{"geometry":{"coordinates":[2.089902,41.609231],"type":"Point"},"properties":{"osm_id":"6235931051","tag":{"amenity":"recycling","recycling:paper":"yes","recycling_type":"container"}},"type":"Feature"},
	{"geometry":{"coordinates":[2.089916,41.609239],"type":"Point"},"properties":{"osm_id":"6235931052","tag":{"amenity":"recycling","recycling:glass_bottles":"yes","recycling_type":"container"}},"type":"Feature"},
	{"geometry":{"coordinates":[2.089931,41.609248],"type":"Point"},"properties":{"osm_id":"6235931053","tag":{"amenity":"recycling","recycling:plastic":"yes","recycling_type":"container"}},"type":"Feature"},
	{"geometry":{"coordinates":[2.090597,41.609625],"type":"Point"},"properties":{"osm_id":"6235931066","tag":{"amenity":"waste_disposal"}},"type":"Feature"},
	{"geometry":{"coordinates":[2.090616,41.609639],"type":"Point"},"properties":{"osm_id":"6235931067","tag":{"amenity":"recycling","recycling:organic":"yes","recycling_type":"container"}},"type":"Feature"},
	{"geometry":{"coordinates":[2.093896,41.619863],"type":"Point"},"properties":{"osm_id":"6236273181","tag":{"amenity":"waste_basket"}},"type":"Feature"},
	{"geometry":{"coordinates":[2.096317,41.620113],"type":"Point"},"properties":{"osm_id":"6236273738","tag":{"amenity":"recycling","recycling:organic":"yes","recycling_type":"container"}},"type":"Feature"},
	{"geometry":{"coordinates":[2.096297,41.62012],"type":"Point"},"properties":{"osm_id":"6236273739","tag":{"amenity":"recycling","recycling:paper":"yes","recycling_type":"container"}},"type":"Feature"},
	{"geometry":{"coordinates":[2.096272,41.620127],"type":"Point"},"properties":{"osm_id":"6236273740","tag":{"amenity":"recycling","recycling:glass_bottles":"yes","recycling_type":"container"}},"type":"Feature"},
	{"geometry":{"coordinates":[2.096245,41.620134],"type":"Point"},"properties":{"osm_id":"6236273741","tag":{"amenity":"recycling","recycling:plastic":"yes","recycling_type":"container"}},"type":"Feature"},
	{"geometry":{"coordinates":[2.096339,41.620107],"type":"Point"},"properties":{"osm_id":"6236273742","tag":{"amenity":"waste_disposal"}},"type":"Feature"},
	{"geometry":{"coordinates":[2.093453,41.619883],"type":"Point"},"properties":{"osm_id":"6236402763","tag":{"amenity":"waste_basket"}},"type":"Feature"},
	{"geometry":{"coordinates":[2.092377,41.619994],"type":"Point"},"properties":{"osm_id":"6236402782","tag":{"amenity":"waste_basket"}},"type":"Feature"},
	{"geometry":{"coordinates":[2.092607,41.619751],"type":"Point"},"properties":{"osm_id":"6236412299","tag":{"amenity":"waste_basket"}},"type":"Feature"},
	{"geometry":{"coordinates":[2.093072,41.619624],"type":"Point"},"properties":{"osm_id":"6236412310","tag":{"amenity":"waste_basket"}},"type":"Feature"},
	{"geometry":{"coordinates":[2.092161,41.619287],"type":"Point"},"properties":{"osm_id":"6236412342","tag":{"amenity":"waste_basket"}},"type":"Feature"},
	{"geometry":{"coordinates":[2.092447,41.618982],"type":"Point"},"properties":{"osm_id":"6236412346","tag":{"amenity":"recycling","recycling:organic":"yes","recycling_type":"container"}},"type":"Feature"},
	{"geometry":{"coordinates":[2.092453,41.61897],"type":"Point"},"properties":{"osm_id":"6236412347","tag":{"amenity":"waste_disposal"}},"type":"Feature"},
	{"geometry":{"coordinates":[2.083781,41.605806],"type":"Point"},"properties":{"osm_id":"6236478056","tag":{"amenity":"waste_disposal"}},"type":"Feature"},
	{"geometry":{"coordinates":[2.083779,41.605767],"type":"Point"},"properties":{"osm_id":"6236478057","tag":{"amenity":"recycling","recycling:organic":"yes","recycling_type":"container"}},"type":"Feature"},
	{"geometry":{"coordinates":[2.083779,41.605746],"type":"Point"},"properties":{"osm_id":"6236478058","tag":{"amenity":"recycling","recycling:paper":"yes","recycling_type":"container"}},"type":"Feature"},
	{"geometry":{"coordinates":[2.083781,41.605717],"type":"Point"},"properties":{"osm_id":"6236478059","tag":{"amenity":"recycling","recycling:plastic":"yes","recycling_type":"container"}},"type":"Feature"},
	{"geometry":{"coordinates":[2.083783,41.605691],"type":"Point"},"properties":{"osm_id":"6236478060","tag":{"amenity":"recycling","recycling:glass_bottles":"yes","recycling_type":"container"}},"type":"Feature"},
	{"geometry":{"coordinates":[2.08378,41.605793],"type":"Point"},"properties":{"osm_id":"6236478061","tag":{"amenity":"waste_disposal"}},"type":"Feature"},
	{"geometry":{"coordinates":[2.083567,41.606517],"type":"Point"},"properties":{"osm_id":"6236478083","tag":{"amenity":"waste_basket"}},"type":"Feature"},
	{"geometry":{"coordinates":[2.094928,41.61626],"type":"Point"},"properties":{"osm_id":"6246609180","tag":{"amenity":"waste_basket"}},"type":"Feature"},
	{"geometry":{"coordinates":[2.094447,41.616395],"type":"Point"},"properties":{"osm_id":"6246610595","tag":{"amenity":"waste_disposal"}},"type":"Feature"},
	{"geometry":{"coordinates":[2.094448,41.616385],"type":"Point"},"properties":{"osm_id":"6246610596","tag":{"amenity":"recycling","recycling:organic":"yes","recycling_type":"container"}},"type":"Feature"},
	{"geometry":{"coordinates":[2.09445,41.616373],"type":"Point"},"properties":{"osm_id":"6246610597","tag":{"amenity":"recycling","recycling:paper":"yes","recycling_type":"container"}},"type":"Feature"},
	{"geometry":{"coordinates":[2.094453,41.616362],"type":"Point"},"properties":{"osm_id":"6246610598","tag":{"amenity":"recycling","recycling:glass_bottles":"yes","recycling_type":"container"}},"type":"Feature"},
	{"geometry":{"coordinates":[2.094453,41.616355],"type":"Point"},"properties":{"osm_id":"6246610599","tag":{"amenity":"recycling","recycling:plastic":"yes","recycling_type":"container"}},"type":"Feature"},
	{"geometry":{"coordinates":[2.09433,41.616856],"type":"Point"},"properties":{"osm_id":"6246610602","tag":{"amenity":"recycling","recycling:organic":"yes","recycling_type":"container"}},"type":"Feature"},
	{"geometry":{"coordinates":[2.094328,41.616866],"type":"Point"},"properties":{"osm_id":"6246610603","tag":{"amenity":"waste_disposal"}},"type":"Feature"},
	{"geometry":{"coordinates":[2.094805,41.618014],"type":"Point"},"properties":{"osm_id":"6247012289","tag":{"amenity":"waste_basket"}},"type":"Feature"},
	{"geometry":{"coordinates":[2.094002,41.61844],"type":"Point"},"properties":{"osm_id":"6247012326","tag":{"amenity":"waste_basket"}},"type":"Feature"},
	{"geometry":{"coordinates":[2.093824,41.618708],"type":"Point"},"properties":{"osm_id":"6247012336","tag":{"amenity":"waste_basket"}},"type":"Feature"},
	{"geometry":{"coordinates":[2.093802,41.618547],"type":"Point"},"properties":{"osm_id":"6247012346","tag":{"amenity":"waste_disposal"}},"type":"Feature"},
	{"geometry":{"coordinates":[2.093817,41.618531],"type":"Point"},"properties":{"osm_id":"6247012347","tag":{"amenity":"recycling","recycling:organic":"yes","recycling_type":"container"}},"type":"Feature"},
	{"geometry":{"coordinates":[2.093828,41.618515],"type":"Point"},"properties":{"osm_id":"6247012348","tag":{"amenity":"recycling","recycling:paper":"yes","recycling_type":"container"}},"type":"Feature"},
	{"geometry":{"coordinates":[2.093837,41.618499],"type":"Point"},"properties":{"osm_id":"6247012349","tag":{"amenity":"recycling","recycling:glass_bottles":"yes","recycling_type":"container"}},"type":"Feature"},
	{"geometry":{"coordinates":[2.093847,41.618483],"type":"Point"},"properties":{"osm_id":"6247012350","tag":{"amenity":"recycling","recycling:plastic":"yes","recycling_type":"container"}},"type":"Feature"},
	{"geometry":{"coordinates":[2.093856,41.618468],"type":"Point"},"properties":{"osm_id":"6247012351","tag":{"amenity":"recycling","recycling:clothes":"yes","recycling_type":"container"}},"type":"Feature"},
	{"geometry":{"coordinates":[2.092807,41.618026],"type":"Point"},"properties":{"osm_id":"6247080670","tag":{"amenity":"recycling","recycling:organic":"yes","recycling_type":"container"}},"type":"Feature"},
	{"geometry":{"coordinates":[2.092814,41.618011],"type":"Point"},"properties":{"osm_id":"6247080671","tag":{"amenity":"waste_disposal"}},"type":"Feature"},
	{"geometry":{"coordinates":[2.0931,41.617775],"type":"Point"},"properties":{"osm_id":"6247082993","tag":{"amenity":"waste_basket"}},"type":"Feature"},
	{"geometry":{"coordinates":[2.093192,41.617739],"type":"Point"},"properties":{"osm_id":"6247082997","tag":{"amenity":"waste_basket"}},"type":"Feature"},
	{"geometry":{"coordinates":[2.094471,41.615763],"type":"Point"},"properties":{"osm_id":"6247147889","tag":{"amenity":"waste_basket"}},"type":"Feature"},
	{"geometry":{"coordinates":[2.094535,41.615701],"type":"Point"},"properties":{"osm_id":"6247147892","tag":{"amenity":"waste_basket"}},"type":"Feature"},
	{"geometry":{"coordinates":[2.094294,41.615467],"type":"Point"},"properties":{"osm_id":"6247147893","tag":{"amenity":"waste_basket"}},"type":"Feature"},
	{"geometry":{"coordinates":[2.092947,41.616508],"type":"Point"},"properties":{"osm_id":"6247147928","tag":{"amenity":"recycling","recycling:organic":"yes","recycling_type":"container"}},"type":"Feature"},
	{"geometry":{"coordinates":[2.092922,41.616495],"type":"Point"},"properties":{"osm_id":"6247147929","tag":{"amenity":"waste_disposal"}},"type":"Feature"},
	{"geometry":{"coordinates":[2.09249,41.614935],"type":"Point"},"properties":{"osm_id":"6247147942","tag":{"amenity":"waste_disposal"}},"type":"Feature"},
	{"geometry":{"coordinates":[2.092493,41.614916],"type":"Point"},"properties":{"osm_id":"6247147943","tag":{"amenity":"recycling","recycling:organic":"yes","recycling_type":"container"}},"type":"Feature"},
	{"geometry":{"coordinates":[2.092499,41.614897],"type":"Point"},"properties":{"osm_id":"6247147944","tag":{"amenity":"recycling","recycling:paper":"yes","recycling_type":"container"}},"type":"Feature"},
	{"geometry":{"coordinates":[2.092505,41.614882],"type":"Point"},"properties":{"osm_id":"6247147945","tag":{"amenity":"recycling","recycling:glass_bottles":"yes","recycling_type":"container"}},"type":"Feature"},
	{"geometry":{"coordinates":[2.092507,41.614865],"type":"Point"},"properties":{"osm_id":"6247147946","tag":{"amenity":"recycling","recycling:plastic":"yes","recycling_type":"container"}},"type":"Feature"},
	{"geometry":{"coordinates":[2.091997,41.614661],"type":"Point"},"properties":{"osm_id":"6247147979","tag":{"amenity":"recycling","recycling:organic":"yes","recycling_type":"container"}},"type":"Feature"},
	{"geometry":{"coordinates":[2.092011,41.614648],"type":"Point"},"properties":{"osm_id":"6247147980","tag":{"amenity":"waste_disposal"}},"type":"Feature"},
	{"geometry":{"coordinates":[2.084692,41.607789],"type":"Point"},"properties":{"osm_id":"6247267393","tag":{"amenity":"waste_basket"}},"type":"Feature"},
	{"geometry":{"coordinates":[2.085609,41.607962],"type":"Point"},"properties":{"osm_id":"6247267406","tag":{"amenity":"waste_basket"}},"type":"Feature"},
	{"geometry":{"coordinates":[2.085698,41.607977],"type":"Point"},"properties":{"osm_id":"6247267407","tag":{"amenity":"waste_basket"}},"type":"Feature"},
	{"geometry":{"coordinates":[2.092785,41.609641],"type":"Point"},"properties":{"osm_id":"6248874881","tag":{"amenity":"waste_basket"}},"type":"Feature"},
	{"geometry":{"coordinates":[2.092357,41.609391],"type":"Point"},"properties":{"osm_id":"6248875239","tag":{"amenity":"waste_basket"}},"type":"Feature"},
	{"geometry":{"coordinates":[2.09186,41.609103],"type":"Point"},"properties":{"osm_id":"6248875248","tag":{"amenity":"waste_basket"}},"type":"Feature"},
	{"geometry":{"coordinates":[2.091595,41.608953],"type":"Point"},"properties":{"osm_id":"6248875252","tag":{"amenity":"waste_basket"}},"type":"Feature"},
	{"geometry":{"coordinates":[2.08864,41.607417],"type":"Point"},"properties":{"osm_id":"6248905101","tag":{"amenity":"waste_basket"}},"type":"Feature"},
	{"geometry":{"coordinates":[2.089064,41.607532],"type":"Point"},"properties":{"osm_id":"6248905104","tag":{"amenity":"waste_basket"}},"type":"Feature"},
	{"geometry":{"coordinates":[2.089702,41.607852],"type":"Point"},"properties":{"osm_id":"6248905115","tag":{"amenity":"waste_basket"}},"type":"Feature"},
	{"geometry":{"coordinates":[2.090338,41.608223],"type":"Point"},"properties":{"osm_id":"6248905131","tag":{"amenity":"waste_basket"}},"type":"Feature"},
	{"geometry":{"coordinates":[2.093828,41.609091],"type":"Point"},"properties":{"osm_id":"6249167021","tag":{"amenity":"waste_basket"}},"type":"Feature"},
	{"geometry":{"coordinates":[2.092383,41.610414],"type":"Point"},"properties":{"osm_id":"6249167074","tag":{"amenity":"waste_basket"}},"type":"Feature"},
	{"geometry":{"coordinates":[2.090744,41.612122],"type":"Point"},"properties":{"osm_id":"6249167188","tag":{"amenity":"waste_basket"}},"type":"Feature"},
	{"geometry":{"coordinates":[2.090975,41.611877],"type":"Point"},"properties":{"osm_id":"6249167196","tag":{"amenity":"waste_basket"}},"type":"Feature"},
	{"geometry":{"coordinates":[2.089558,41.613276],"type":"Point"},"properties":{"osm_id":"6249167219","tag":{"amenity":"waste_basket"}},"type":"Feature"},
	{"geometry":{"coordinates":[2.088424,41.616255],"type":"Point"},"properties":{"osm_id":"6249527497","tag":{"amenity":"waste_basket"}},"type":"Feature"},
	{"geometry":{"coordinates":[2.088302,41.616189],"type":"Point"},"properties":{"osm_id":"6249527503","tag":{"amenity":"recycling","recycling:batteries":"yes","recycling:light_bulbs":"yes","recycling_type":"container"}},"type":"Feature"},
	{"geometry":{"coordinates":[2.08837,41.616028],"type":"Point"},"properties":{"osm_id":"6249527505","tag":{"amenity":"waste_basket"}},"type":"Feature"},
	{"geometry":{"coordinates":[2.087762,41.615849],"type":"Point"},"properties":{"osm_id":"6249527507","tag":{"amenity":"waste_basket"}},"type":"Feature"},
	{"geometry":{"coordinates":[2.087618,41.616007],"type":"Point"},"properties":{"osm_id":"6249527517","tag":{"amenity":"waste_basket"}},"type":"Feature"},
	{"geometry":{"coordinates":[2.083303,41.600892],"type":"Point"},"properties":{"osm_id":"6249709454","tag":{"amenity":"waste_basket"}},"type":"Feature"},
	{"geometry":{"coordinates":[2.083753,41.600942],"type":"Point"},"properties":{"osm_id":"6249709459","tag":{"amenity":"waste_basket"}},"type":"Feature"},
	{"geometry":{"coordinates":[2.084508,41.601112],"type":"Point"},"properties":{"osm_id":"6249710187","tag":{"amenity":"waste_basket"}},"type":"Feature"},
	{"geometry":{"coordinates":[2.083983,41.600993],"type":"Point"},"properties":{"osm_id":"6249710189","tag":{"amenity":"waste_basket"}},"type":"Feature"},
	{"geometry":{"coordinates":[2.083975,41.602],"type":"Point"},"properties":{"osm_id":"6249710251","tag":{"amenity":"waste_basket"}},"type":"Feature"},
	{"geometry":{"coordinates":[2.084284,41.602144],"type":"Point"},"properties":{"osm_id":"6249710266","tag":{"amenity":"waste_disposal"}},"type":"Feature"},
	{"geometry":{"coordinates":[2.08429,41.602122],"type":"Point"},"properties":{"osm_id":"6249710267","tag":{"amenity":"waste_disposal"}},"type":"Feature"},
	{"geometry":{"coordinates":[2.084297,41.602104],"type":"Point"},"properties":{"osm_id":"6249710268","tag":{"amenity":"recycling","recycling:organic":"yes","recycling_type":"container"}},"type":"Feature"},
	{"geometry":{"coordinates":[2.084302,41.602087],"type":"Point"},"properties":{"osm_id":"6249710269","tag":{"amenity":"recycling","recycling:paper":"yes","recycling_type":"container"}},"type":"Feature"},
	{"geometry":{"coordinates":[2.084306,41.60207],"type":"Point"},"properties":{"osm_id":"6249710270","tag":{"amenity":"recycling","recycling:glass_bottles":"yes","recycling_type":"container"}},"type":"Feature"},
	{"geometry":{"coordinates":[2.08431,41.602049],"type":"Point"},"properties":{"osm_id":"6249710271","tag":{"amenity":"recycling","recycling:plastic":"yes","recycling_type":"container"}},"type":"Feature"},
	{"geometry":{"coordinates":[2.084291,41.602036],"type":"Point"},"properties":{"osm_id":"6249710272","tag":{"amenity":"recycling","recycling:clothes":"yes","recycling_type":"container"}},"type":"Feature"},
	{"geometry":{"coordinates":[2.084277,41.602035],"type":"Point"},"properties":{"osm_id":"6249710273","tag":{"amenity":"recycling","recycling:oil":"yes","recycling_type":"container"}},"type":"Feature"},
	{"geometry":{"coordinates":[2.082901,41.601783],"type":"Point"},"properties":{"osm_id":"6249710280","tag":{"amenity":"waste_basket"}},"type":"Feature"},
	{"geometry":{"coordinates":[2.083429,41.602168],"type":"Point"},"properties":{"osm_id":"6249745052","tag":{"amenity":"waste_basket"}},"type":"Feature"},
	{"geometry":{"coordinates":[2.084007,41.603281],"type":"Point"},"properties":{"osm_id":"6249745059","tag":{"amenity":"waste_disposal"}},"type":"Feature"},
	{"geometry":{"coordinates":[2.08401,41.603262],"type":"Point"},"properties":{"osm_id":"6249745060","tag":{"amenity":"recycling","recycling:organic":"yes","recycling_type":"container"}},"type":"Feature"},
	{"geometry":{"coordinates":[2.083894,41.603355],"type":"Point"},"properties":{"osm_id":"6249745062","tag":{"amenity":"waste_basket"}},"type":"Feature"},
	{"geometry":{"coordinates":[2.083372,41.603592],"type":"Point"},"properties":{"osm_id":"6249745068","tag":{"amenity":"waste_basket"}},"type":"Feature"},
	{"geometry":{"coordinates":[2.085434,41.603659],"type":"Point"},"properties":{"osm_id":"6249800120","tag":{"amenity":"waste_basket"}},"type":"Feature"},
	{"geometry":{"coordinates":[2.08533,41.6033],"type":"Point"},"properties":{"osm_id":"6249800134","tag":{"amenity":"waste_basket"}},"type":"Feature"},
	{"geometry":{"coordinates":[2.085257,41.604216],"type":"Point"},"properties":{"osm_id":"6249800387","tag":{"amenity":"waste_disposal"}},"type":"Feature"},
	{"geometry":{"coordinates":[2.085252,41.604247],"type":"Point"},"properties":{"osm_id":"6249800388","tag":{"amenity":"recycling","recycling:organic":"yes","recycling_type":"container"}},"type":"Feature"},
	{"geometry":{"coordinates":[2.08381,41.604804],"type":"Point"},"properties":{"osm_id":"6251238875","tag":{"amenity":"waste_basket"}},"type":"Feature"},
	{"geometry":{"coordinates":[2.083813,41.605499],"type":"Point"},"properties":{"osm_id":"6251239489","tag":{"amenity":"waste_basket"}},"type":"Feature"},
	{"geometry":{"coordinates":[2.083613,41.605317],"type":"Point"},"properties":{"osm_id":"6251239490","tag":{"amenity":"waste_basket"}},"type":"Feature"},
	{"geometry":{"coordinates":[2.082304,41.604553],"type":"Point"},"properties":{"osm_id":"6251239521","tag":{"amenity":"waste_basket"}},"type":"Feature"},
	{"geometry":{"coordinates":[2.082504,41.606179],"type":"Point"},"properties":{"osm_id":"6251239569","tag":{"amenity":"waste_basket"}},"type":"Feature"},
	{"geometry":{"coordinates":[2.083117,41.606095],"type":"Point"},"properties":{"osm_id":"6251239585","tag":{"amenity":"waste_basket"}},"type":"Feature"},
	{"geometry":{"coordinates":[2.083283,41.60637],"type":"Point"},"properties":{"osm_id":"6251283121","tag":{"amenity":"waste_basket"}},"type":"Feature"},
	{"geometry":{"coordinates":[2.083285,41.606274],"type":"Point"},"properties":{"osm_id":"6251283123","tag":{"amenity":"waste_basket"}},"type":"Feature"},
	{"geometry":{"coordinates":[2.083319,41.607264],"type":"Point"},"properties":{"osm_id":"6251283138","tag":{"amenity":"waste_basket"}},"type":"Feature"},
	{"geometry":{"coordinates":[2.083224,41.607812],"type":"Point"},"properties":{"osm_id":"6251283586","tag":{"amenity":"waste_disposal"}},"type":"Feature"},
	{"geometry":{"coordinates":[2.083227,41.607796],"type":"Point"},"properties":{"osm_id":"6251283587","tag":{"amenity":"recycling","recycling:organic":"yes","recycling_type":"container"}},"type":"Feature"},
	{"geometry":{"coordinates":[2.083231,41.607781],"type":"Point"},"properties":{"osm_id":"6251283588","tag":{"amenity":"recycling","recycling:paper":"yes","recycling_type":"container"}},"type":"Feature"},
	{"geometry":{"coordinates":[2.083233,41.607763],"type":"Point"},"properties":{"osm_id":"6251283589","tag":{"amenity":"recycling","recycling:glass_bottles":"yes","recycling_type":"container"}},"type":"Feature"},
	{"geometry":{"coordinates":[2.083236,41.607744],"type":"Point"},"properties":{"osm_id":"6251283590","tag":{"amenity":"recycling","recycling:plastic":"yes","recycling_type":"container"}},"type":"Feature"},
	{"geometry":{"coordinates":[2.083098,41.608208],"type":"Point"},"properties":{"osm_id":"6251283591","tag":{"amenity":"recycling","recycling:organic":"yes","recycling_type":"container"}},"type":"Feature"},
	{"geometry":{"coordinates":[2.083086,41.608229],"type":"Point"},"properties":{"osm_id":"6251283592","tag":{"amenity":"waste_disposal"}},"type":"Feature"},
	{"geometry":{"coordinates":[2.082719,41.608781],"type":"Point"},"properties":{"osm_id":"6251283598","tag":{"amenity":"waste_disposal"}},"type":"Feature"},
	{"geometry":{"coordinates":[2.082721,41.608761],"type":"Point"},"properties":{"osm_id":"6251283599","tag":{"amenity":"recycling","recycling:organic":"yes","recycling_type":"container"}},"type":"Feature"},
	{"geometry":{"coordinates":[2.082772,41.609243],"type":"Point"},"properties":{"osm_id":"6251283607","tag":{"amenity":"waste_disposal"}},"type":"Feature"},
	{"geometry":{"coordinates":[2.082762,41.609228],"type":"Point"},"properties":{"osm_id":"6251283608","tag":{"amenity":"recycling","recycling:organic":"yes","recycling_type":"container"}},"type":"Feature"},
	{"geometry":{"coordinates":[2.083331,41.609855],"type":"Point"},"properties":{"osm_id":"6251283647","tag":{"amenity":"waste_basket"}},"type":"Feature"},
	{"geometry":{"coordinates":[2.083209,41.609923],"type":"Point"},"properties":{"osm_id":"6251283648","tag":{"amenity":"recycling","recycling:organic":"yes","recycling_type":"container"}},"type":"Feature"},
	{"geometry":{"coordinates":[2.083198,41.609907],"type":"Point"},"properties":{"osm_id":"6251283649","tag":{"amenity":"recycling","recycling:paper":"yes","recycling_type":"container"}},"type":"Feature"},
	{"geometry":{"coordinates":[2.083186,41.609891],"type":"Point"},"properties":{"osm_id":"6251283650","tag":{"amenity":"recycling","recycling:glass_bottles":"yes","recycling_type":"container"}},"type":"Feature"},
	{"geometry":{"coordinates":[2.083178,41.609876],"type":"Point"},"properties":{"osm_id":"6251283651","tag":{"amenity":"recycling","recycling:paper":"yes","recycling_type":"container"}},"type":"Feature"},
	{"geometry":{"coordinates":[2.083222,41.60994],"type":"Point"},"properties":{"osm_id":"6251283652","tag":{"amenity":"waste_disposal"}},"type":"Feature"},
	{"geometry":{"coordinates":[2.083231,41.609954],"type":"Point"},"properties":{"osm_id":"6251283653","tag":{"amenity":"waste_disposal"}},"type":"Feature"},
	{"geometry":{"coordinates":[2.08584,41.607084],"type":"Point"},"properties":{"osm_id":"6251383274","tag":{"amenity":"recycling","recycling:organic":"yes","recycling_type":"container"}},"type":"Feature"},
	{"geometry":{"coordinates":[2.085832,41.607102],"type":"Point"},"properties":{"osm_id":"6251383275","tag":{"amenity":"waste_disposal"}},"type":"Feature"},
	{"geometry":{"coordinates":[2.085983,41.606534],"type":"Point"},"properties":{"osm_id":"6251390828","tag":{"amenity":"waste_disposal"}},"type":"Feature"},
	{"geometry":{"coordinates":[2.085986,41.606518],"type":"Point"},"properties":{"osm_id":"6251390829","tag":{"amenity":"recycling","recycling:organic":"yes","recycling_type":"container"}},"type":"Feature"},
	{"geometry":{"coordinates":[2.085993,41.6065],"type":"Point"},"properties":{"osm_id":"6251390830","tag":{"amenity":"recycling","recycling:paper":"yes","recycling_type":"container"}},"type":"Feature"},
	{"geometry":{"coordinates":[2.085997,41.606483],"type":"Point"},"properties":{"osm_id":"6251390831","tag":{"amenity":"recycling","recycling:glass_bottles":"yes","recycling_type":"container"}},"type":"Feature"},
	{"geometry":{"coordinates":[2.085999,41.606463],"type":"Point"},"properties":{"osm_id":"6251390832","tag":{"amenity":"recycling","recycling:plastic":"yes","recycling_type":"container"}},"type":"Feature"},
	{"geometry":{"coordinates":[2.086005,41.606448],"type":"Point"},"properties":{"osm_id":"6251390841","tag":{"amenity":"recycling","recycling:clothes":"yes","recycling_type":"container"}},"type":"Feature"},
	{"geometry":{"coordinates":[2.085517,41.605441],"type":"Point"},"properties":{"osm_id":"6251390875","tag":{"amenity":"recycling","recycling:organic":"yes","recycling_type":"container"}},"type":"Feature"},
	{"geometry":{"coordinates":[2.085539,41.605444],"type":"Point"},"properties":{"osm_id":"6251390876","tag":{"amenity":"recycling","recycling:paper":"yes","recycling_type":"container"}},"type":"Feature"},
	{"geometry":{"coordinates":[2.085561,41.60545],"type":"Point"},"properties":{"osm_id":"6251390877","tag":{"amenity":"recycling","recycling:glass_bottles":"yes","recycling_type":"container"}},"type":"Feature"},
	{"geometry":{"coordinates":[2.08549,41.605438],"type":"Point"},"properties":{"osm_id":"6251390878","tag":{"amenity":"waste_disposal"}},"type":"Feature"},
	{"geometry":{"coordinates":[2.086518,41.605589],"type":"Point"},"properties":{"osm_id":"6251421090","tag":{"amenity":"waste_disposal"}},"type":"Feature"},
	{"geometry":{"coordinates":[2.086532,41.605592],"type":"Point"},"properties":{"osm_id":"6251421091","tag":{"amenity":"recycling","recycling:organic":"yes","recycling_type":"container"}},"type":"Feature"},
	{"geometry":{"coordinates":[2.08804,41.605498],"type":"Point"},"properties":{"osm_id":"6251421102","tag":{"amenity":"recycling","recycling:paper":"yes","recycling_type":"container"}},"type":"Feature"},
	{"geometry":{"coordinates":[2.08805,41.605477],"type":"Point"},"properties":{"osm_id":"6251421103","tag":{"amenity":"recycling","recycling:glass_bottles":"yes","recycling_type":"container"}},"type":"Feature"},
	{"geometry":{"coordinates":[2.08806,41.60546],"type":"Point"},"properties":{"osm_id":"6251421104","tag":{"amenity":"recycling","recycling:plastic":"yes","recycling_type":"container"}},"type":"Feature"},
	{"geometry":{"coordinates":[2.088259,41.605414],"type":"Point"},"properties":{"osm_id":"6251421111","tag":{"amenity":"waste_basket"}},"type":"Feature"},
	{"geometry":{"coordinates":[2.088902,41.605662],"type":"Point"},"properties":{"osm_id":"6251421130","tag":{"amenity":"waste_basket"}},"type":"Feature"},
	{"geometry":{"coordinates":[2.088685,41.606436],"type":"Point"},"properties":{"osm_id":"6251421139","tag":{"amenity":"waste_basket"}},"type":"Feature"},
	{"geometry":{"coordinates":[2.08866,41.606515],"type":"Point"},"properties":{"osm_id":"6251421140","tag":{"amenity":"waste_basket"}},"type":"Feature"},
	{"geometry":{"coordinates":[2.090645,41.608401],"type":"Point"},"properties":{"osm_id":"6251586261","tag":{"amenity":"waste_basket"}},"type":"Feature"},
	{"geometry":{"coordinates":[2.088109,41.608223],"type":"Point"},"properties":{"osm_id":"6251597785","tag":{"amenity":"waste_basket"}},"type":"Feature"},
	{"geometry":{"coordinates":[2.088318,41.607821],"type":"Point"},"properties":{"osm_id":"6251597798","tag":{"amenity":"waste_disposal"}},"type":"Feature"},
	{"geometry":{"coordinates":[2.088328,41.607799],"type":"Point"},"properties":{"osm_id":"6251597799","tag":{"amenity":"waste_disposal"}},"type":"Feature"},
	{"geometry":{"coordinates":[2.088332,41.60778],"type":"Point"},"properties":{"osm_id":"6251597800","tag":{"amenity":"recycling","recycling:organic":"yes","recycling_type":"container"}},"type":"Feature"},
	{"geometry":{"coordinates":[2.088507,41.607228],"type":"Point"},"properties":{"osm_id":"6251597808","tag":{"amenity":"waste_disposal"}},"type":"Feature"},
	{"geometry":{"coordinates":[2.088511,41.607209],"type":"Point"},"properties":{"osm_id":"6251597809","tag":{"amenity":"recycling","recycling:organic":"yes","recycling_type":"container"}},"type":"Feature"},
	{"geometry":{"coordinates":[2.08852,41.607194],"type":"Point"},"properties":{"osm_id":"6251597810","tag":{"amenity":"recycling","recycling:paper":"yes","recycling_type":"container"}},"type":"Feature"},
	{"geometry":{"coordinates":[2.088527,41.607176],"type":"Point"},"properties":{"osm_id":"6251597811","tag":{"amenity":"recycling","recycling:glass_bottles":"yes","recycling_type":"container"}},"type":"Feature"},
	{"geometry":{"coordinates":[2.088534,41.607158],"type":"Point"},"properties":{"osm_id":"6251597812","tag":{"amenity":"recycling","recycling:organic":"yes","recycling_type":"container"}},"type":"Feature"},
	{"geometry":{"coordinates":[2.088536,41.607135],"type":"Point"},"properties":{"osm_id":"6251597813","tag":{"amenity":"recycling","recycling:plastic":"yes","recycling_type":"container"}},"type":"Feature"},
	{"geometry":{"coordinates":[2.08844,41.60729],"type":"Point"},"properties":{"osm_id":"6251597814","tag":{"amenity":"waste_basket"}},"type":"Feature"},
	{"geometry":{"coordinates":[2.08968,41.610116],"type":"Point"},"properties":{"osm_id":"6251715557","tag":{"amenity":"waste_basket"}},"type":"Feature"},
	{"geometry":{"coordinates":[2.089352,41.610481],"type":"Point"},"properties":{"osm_id":"6251715560","tag":{"amenity":"waste_basket"}},"type":"Feature"},
	{"geometry":{"coordinates":[2.086896,41.608148],"type":"Point"},"properties":{"osm_id":"6251715641","tag":{"amenity":"recycling","recycling:batteries":"yes","recycling:light_bulbs":"yes","recycling_type":"container"}},"type":"Feature"},
	{"geometry":{"coordinates":[2.086921,41.608017],"type":"Point"},"properties":{"osm_id":"6251715655","tag":{"amenity":"waste_basket"}},"type":"Feature"},
	{"geometry":{"coordinates":[2.08731,41.60723],"type":"Point"},"properties":{"osm_id":"6251715674","tag":{"amenity":"waste_basket"}},"type":"Feature"},
	{"geometry":{"coordinates":[2.087333,41.60713],"type":"Point"},"properties":{"osm_id":"6251715675","tag":{"amenity":"waste_basket"}},"type":"Feature"},
	{"geometry":{"coordinates":[2.087189,41.607119],"type":"Point"},"properties":{"osm_id":"6251715676","tag":{"amenity":"waste_basket"}},"type":"Feature"},
	{"geometry":{"coordinates":[2.087673,41.607171],"type":"Point"},"properties":{"osm_id":"6251715678","tag":{"amenity":"waste_basket"}},"type":"Feature"},
	{"geometry":{"coordinates":[2.087631,41.607321],"type":"Point"},"properties":{"osm_id":"6251715679","tag":{"amenity":"waste_basket"}},"type":"Feature"},
	{"geometry":{"coordinates":[2.090661,41.617163],"type":"Point"},"properties":{"osm_id":"6251775165","tag":{"amenity":"waste_basket"}},"type":"Feature"},
	{"geometry":{"coordinates":[2.090854,41.617025],"type":"Point"},"properties":{"osm_id":"6251775174","tag":{"amenity":"waste_basket"}},"type":"Feature"},
	{"geometry":{"coordinates":[2.090317,41.616666],"type":"Point"},"properties":{"osm_id":"6251775617","tag":{"amenity":"recycling","recycling:organic":"yes","recycling_type":"container"}},"type":"Feature"},
	{"geometry":{"coordinates":[2.090293,41.616657],"type":"Point"},"properties":{"osm_id":"6251775618","tag":{"amenity":"waste_disposal"}},"type":"Feature"},
	{"geometry":{"coordinates":[2.090264,41.616646],"type":"Point"},"properties":{"osm_id":"6251775619","tag":{"amenity":"waste_disposal"}},"type":"Feature"},
	{"geometry":{"coordinates":[2.085997,41.615448],"type":"Point"},"properties":{"osm_id":"6251788007","tag":{"amenity":"waste_basket"}},"type":"Feature"},
	{"geometry":{"coordinates":[2.085779,41.615247],"type":"Point"},"properties":{"osm_id":"6251788021","tag":{"amenity":"recycling","recycling:organic":"yes","recycling_type":"container"}},"type":"Feature"},
	{"geometry":{"coordinates":[2.085773,41.615231],"type":"Point"},"properties":{"osm_id":"6251788022","tag":{"amenity":"recycling","recycling:plastic":"yes","recycling_type":"container"}},"type":"Feature"},
	{"geometry":{"coordinates":[2.085767,41.615215],"type":"Point"},"properties":{"osm_id":"6251788023","tag":{"amenity":"recycling","recycling:paper":"yes","recycling_type":"container"}},"type":"Feature"},
	{"geometry":{"coordinates":[2.085753,41.615188],"type":"Point"},"properties":{"osm_id":"6251788024","tag":{"amenity":"recycling","recycling:glass_bottles":"yes","recycling_type":"container"}},"type":"Feature"},
	{"geometry":{"coordinates":[2.085745,41.615163],"type":"Point"},"properties":{"osm_id":"6251788025","tag":{"amenity":"recycling","recycling:batteries":"yes","recycling:light_bulbs":"yes","recycling_type":"container"}},"type":"Feature"},
	{"geometry":{"coordinates":[2.08579,41.615264],"type":"Point"},"properties":{"osm_id":"6251788026","tag":{"amenity":"waste_disposal"}},"type":"Feature"},
	{"geometry":{"coordinates":[2.08565,41.614932],"type":"Point"},"properties":{"osm_id":"6251788029","tag":{"amenity":"waste_basket"}},"type":"Feature"},
	{"geometry":{"coordinates":[2.085835,41.615122],"type":"Point"},"properties":{"osm_id":"6251805886","tag":{"amenity":"waste_basket"}},"type":"Feature"},
	{"geometry":{"coordinates":[2.086286,41.61545],"type":"Point"},"properties":{"osm_id":"6251805895","tag":{"amenity":"waste_basket"}},"type":"Feature"},
	{"geometry":{"coordinates":[2.087125,41.615774],"type":"Point"},"properties":{"osm_id":"6251805906","tag":{"amenity":"recycling","recycling:organic":"yes","recycling_type":"container"}},"type":"Feature"},
	{"geometry":{"coordinates":[2.087161,41.615786],"type":"Point"},"properties":{"osm_id":"6251805907","tag":{"amenity":"waste_disposal"}},"type":"Feature"},
	{"geometry":{"coordinates":[2.087187,41.61579],"type":"Point"},"properties":{"osm_id":"6251805908","tag":{"amenity":"waste_disposal"}},"type":"Feature"},
	{"geometry":{"coordinates":[2.087498,41.615882],"type":"Point"},"properties":{"osm_id":"6251805919","tag":{"amenity":"waste_basket"}},"type":"Feature"},
	{"geometry":{"coordinates":[2.091972,41.607865],"type":"Point"},"properties":{"osm_id":"6259424570","tag":{"amenity":"waste_basket"}},"type":"Feature"},
	{"geometry":{"coordinates":[2.092092,41.606014],"type":"Point"},"properties":{"osm_id":"6259467776","tag":{"amenity":"waste_basket"}},"type":"Feature"},
	{"geometry":{"coordinates":[2.093062,41.606606],"type":"Point"},"properties":{"osm_id":"6259468400","tag":{"amenity":"waste_basket"}},"type":"Feature"},
	{"geometry":{"coordinates":[2.093521,41.607065],"type":"Point"},"properties":{"osm_id":"6259468402","tag":{"amenity":"waste_basket"}},"type":"Feature"},
	{"geometry":{"coordinates":[2.094037,41.608109],"type":"Point"},"properties":{"osm_id":"6259485946","tag":{"amenity":"waste_basket"}},"type":"Feature"},
	{"geometry":{"coordinates":[2.086463,41.612989],"type":"Point"},"properties":{"osm_id":"6259592757","tag":{"amenity":"waste_basket"}},"type":"Feature"},
	{"geometry":{"coordinates":[2.082927,41.614697],"type":"Point"},"properties":{"osm_id":"6259610232","tag":{"amenity":"waste_disposal"}},"type":"Feature"},
	{"geometry":{"coordinates":[2.082921,41.614686],"type":"Point"},"properties":{"osm_id":"6259610233","tag":{"amenity":"recycling","recycling:organic":"yes","recycling_type":"container"}},"type":"Feature"},
	{"geometry":{"coordinates":[2.079153,41.614005],"type":"Point"},"properties":{"osm_id":"6259616086","tag":{"amenity":"waste_disposal"}},"type":"Feature"},
	{"geometry":{"coordinates":[2.079171,41.614021],"type":"Point"},"properties":{"osm_id":"6259616087","tag":{"amenity":"recycling","recycling:organic":"yes","recycling_type":"container"}},"type":"Feature"},
	{"geometry":{"coordinates":[2.079136,41.613996],"type":"Point"},"properties":{"osm_id":"6259616088","tag":{"amenity":"recycling","recycling:glass_bottles":"yes","recycling_type":"container"}},"type":"Feature"},
	{"geometry":{"coordinates":[2.079122,41.613985],"type":"Point"},"properties":{"osm_id":"6259616089","tag":{"amenity":"recycling","recycling:paper":"yes","recycling_type":"container"}},"type":"Feature"},
	{"geometry":{"coordinates":[2.079098,41.613973],"type":"Point"},"properties":{"osm_id":"6259616090","tag":{"amenity":"recycling","recycling:plastic":"yes","recycling_type":"container"}},"type":"Feature"},
	{"geometry":{"coordinates":[2.082624,41.614594],"type":"Point"},"properties":{"osm_id":"6259715568","tag":{"amenity":"waste_basket"}},"type":"Feature"},
	{"geometry":{"coordinates":[2.082738,41.614606],"type":"Point"},"properties":{"osm_id":"6259715569","tag":{"amenity":"waste_basket"}},"type":"Feature"},
	{"geometry":{"coordinates":[2.082838,41.613722],"type":"Point"},"properties":{"osm_id":"6259715580","tag":{"amenity":"waste_disposal"}},"type":"Feature"},
	{"geometry":{"coordinates":[2.082833,41.61374],"type":"Point"},"properties":{"osm_id":"6259715581","tag":{"amenity":"recycling","recycling:organic":"yes","recycling_type":"container"}},"type":"Feature"},
	{"geometry":{"coordinates":[2.083507,41.612651],"type":"Point"},"properties":{"osm_id":"6259715700","tag":{"amenity":"waste_disposal"}},"type":"Feature"},
	{"geometry":{"coordinates":[2.083484,41.612656],"type":"Point"},"properties":{"osm_id":"6259715701","tag":{"amenity":"waste_disposal"}},"type":"Feature"},
	{"geometry":{"coordinates":[2.083457,41.612666],"type":"Point"},"properties":{"osm_id":"6259715702","tag":{"amenity":"recycling","recycling:organic":"yes","recycling_type":"container"}},"type":"Feature"},
	{"geometry":{"coordinates":[2.083442,41.612669],"type":"Point"},"properties":{"osm_id":"6259715703","tag":{"amenity":"recycling","recycling:paper":"yes","recycling_type":"container"}},"type":"Feature"},
	{"geometry":{"coordinates":[2.083419,41.612675],"type":"Point"},"properties":{"osm_id":"6259715704","tag":{"amenity":"recycling","recycling:glass_bottles":"yes","recycling_type":"container"}},"type":"Feature"},
	{"geometry":{"coordinates":[2.083396,41.612679],"type":"Point"},"properties":{"osm_id":"6259715705","tag":{"amenity":"recycling","recycling:plastic":"yes","recycling_type":"container"}},"type":"Feature"},
	{"geometry":{"coordinates":[2.083376,41.612685],"type":"Point"},"properties":{"osm_id":"6259715706","tag":{"amenity":"recycling","recycling:clothes":"yes","recycling_type":"container"}},"type":"Feature"},
	{"geometry":{"coordinates":[2.08336,41.612688],"type":"Point"},"properties":{"osm_id":"6259715707","tag":{"amenity":"recycling","recycling:oil":"yes","recycling_type":"container"}},"type":"Feature"},
	{"geometry":{"coordinates":[2.082492,41.611378],"type":"Point"},"properties":{"osm_id":"6259715721","tag":{"amenity":"waste_disposal"}},"type":"Feature"},
	{"geometry":{"coordinates":[2.082517,41.611381],"type":"Point"},"properties":{"osm_id":"6259715724","tag":{"amenity":"waste_disposal"}},"type":"Feature"},
	{"geometry":{"coordinates":[2.082541,41.611386],"type":"Point"},"properties":{"osm_id":"6259715725","tag":{"amenity":"recycling","recycling:organic":"yes","recycling_type":"container"}},"type":"Feature"},
	{"geometry":{"coordinates":[2.082562,41.611391],"type":"Point"},"properties":{"osm_id":"6259715726","tag":{"amenity":"recycling","recycling:paper":"yes","recycling_type":"container"}},"type":"Feature"},
	{"geometry":{"coordinates":[2.082583,41.611395],"type":"Point"},"properties":{"osm_id":"6259715727","tag":{"amenity":"recycling","recycling:glass_bottles":"yes","recycling_type":"container"}},"type":"Feature"},
	{"geometry":{"coordinates":[2.082607,41.611397],"type":"Point"},"properties":{"osm_id":"6259715728","tag":{"amenity":"recycling","recycling:plastic":"yes","recycling_type":"container"}},"type":"Feature"},
	{"geometry":{"coordinates":[2.086373,41.604204],"type":"Point"},"properties":{"osm_id":"6259878274","tag":{"amenity":"waste_basket"}},"type":"Feature"},
	{"geometry":{"coordinates":[2.087903,41.605283],"type":"Point"},"properties":{"osm_id":"6259878994","tag":{"amenity":"waste_basket"}},"type":"Feature"},
	{"geometry":{"coordinates":[2.086671,41.604691],"type":"Point"},"properties":{"osm_id":"6259879012","tag":{"amenity":"waste_basket"}},"type":"Feature"},
	{"geometry":{"coordinates":[2.088331,41.60524],"type":"Point"},"properties":{"osm_id":"6259879022","tag":{"amenity":"waste_basket"}},"type":"Feature"},
	{"geometry":{"coordinates":[2.088549,41.605297],"type":"Point"},"properties":{"osm_id":"6259879027","tag":{"amenity":"waste_basket"}},"type":"Feature"},
	{"geometry":{"coordinates":[2.089265,41.605429],"type":"Point"},"properties":{"osm_id":"6259879036","tag":{"amenity":"waste_basket"}},"type":"Feature"},
	{"geometry":{"coordinates":[2.091027,41.605689],"type":"Point"},"properties":{"osm_id":"6259909460","tag":{"amenity":"waste_basket"}},"type":"Feature"},
	{"geometry":{"coordinates":[2.091594,41.605829],"type":"Point"},"properties":{"osm_id":"6259909465","tag":{"amenity":"waste_basket"}},"type":"Feature"},
	{"geometry":{"coordinates":[2.086807,41.609938],"type":"Point"},"properties":{"osm_id":"6259988930","tag":{"amenity":"waste_basket"}},"type":"Feature"},
	{"geometry":{"coordinates":[2.086948,41.609912],"type":"Point"},"properties":{"osm_id":"6259988936","tag":{"amenity":"waste_basket"}},"type":"Feature"},
	{"geometry":{"coordinates":[2.086781,41.609469],"type":"Point"},"properties":{"osm_id":"6259988951","tag":{"amenity":"waste_basket"}},"type":"Feature"},
	{"geometry":{"coordinates":[2.092907,41.611663],"type":"Point"},"properties":{"osm_id":"6261331934","tag":{"amenity":"waste_basket"}},"type":"Feature"},
	{"geometry":{"coordinates":[2.093014,41.61139],"type":"Point"},"properties":{"osm_id":"6261331939","tag":{"amenity":"waste_basket"}},"type":"Feature"},
	{"geometry":{"coordinates":[2.09348,41.610205],"type":"Point"},"properties":{"osm_id":"6261331952","tag":{"amenity":"waste_basket"}},"type":"Feature"},
	{"geometry":{"coordinates":[2.093652,41.610182],"type":"Point"},"properties":{"osm_id":"6261331976","tag":{"amenity":"waste_basket"}},"type":"Feature"},
	{"geometry":{"coordinates":[2.093866,41.608668],"type":"Point"},"properties":{"osm_id":"6261355480","tag":{"amenity":"waste_disposal"}},"type":"Feature"},
	{"geometry":{"coordinates":[2.093864,41.608662],"type":"Point"},"properties":{"osm_id":"6261355481","tag":{"amenity":"recycling","recycling:organic":"yes","recycling_type":"container"}},"type":"Feature"},
	{"geometry":{"coordinates":[2.093809,41.608154],"type":"Point"},"properties":{"osm_id":"6261450302","tag":{"amenity":"waste_basket"}},"type":"Feature"},
	{"geometry":{"coordinates":[2.093601,41.607588],"type":"Point"},"properties":{"osm_id":"6261450324","tag":{"amenity":"waste_basket"}},"type":"Feature"},
	{"geometry":{"coordinates":[2.093383,41.607247],"type":"Point"},"properties":{"osm_id":"6261450332","tag":{"amenity":"waste_basket"}},"type":"Feature"},
	{"geometry":{"coordinates":[2.093091,41.606947],"type":"Point"},"properties":{"osm_id":"6261450343","tag":{"amenity":"waste_disposal"}},"type":"Feature"},
	{"geometry":{"coordinates":[2.093078,41.606933],"type":"Point"},"properties":{"osm_id":"6261450344","tag":{"amenity":"recycling","recycling:organic":"yes","recycling_type":"container"}},"type":"Feature"},
	{"geometry":{"coordinates":[2.092889,41.606741],"type":"Point"},"properties":{"osm_id":"6261450345","tag":{"amenity":"waste_basket"}},"type":"Feature"},
	{"geometry":{"coordinates":[2.092025,41.606201],"type":"Point"},"properties":{"osm_id":"6261450381","tag":{"amenity":"waste_basket"}},"type":"Feature"},
	{"geometry":{"coordinates":[2.091725,41.606229],"type":"Point"},"properties":{"osm_id":"6261462128","tag":{"amenity":"waste_basket"}},"type":"Feature"},
	{"geometry":{"coordinates":[2.090851,41.605847],"type":"Point"},"properties":{"osm_id":"6261462158","tag":{"amenity":"waste_basket"}},"type":"Feature"},
	{"geometry":{"coordinates":[2.089223,41.605614],"type":"Point"},"properties":{"osm_id":"6261930897","tag":{"amenity":"waste_basket"}},"type":"Feature"},
	{"geometry":{"coordinates":[2.09009,41.605747],"type":"Point"},"properties":{"osm_id":"6261930941","tag":{"amenity":"waste_basket"}},"type":"Feature"},
	{"geometry":{"coordinates":[2.086836,41.608243],"type":"Point"},"properties":{"osm_id":"6261944016","tag":{"amenity":"waste_disposal"}},"type":"Feature"},
	{"geometry":{"coordinates":[2.086827,41.608264],"type":"Point"},"properties":{"osm_id":"6261944017","tag":{"amenity":"waste_disposal"}},"type":"Feature"},
	{"geometry":{"coordinates":[2.086823,41.608279],"type":"Point"},"properties":{"osm_id":"6261944018","tag":{"amenity":"recycling","recycling:organic":"yes","recycling_type":"container"}},"type":"Feature"},
	{"geometry":{"coordinates":[2.086816,41.608298],"type":"Point"},"properties":{"osm_id":"6261944019","tag":{"amenity":"recycling","recycling:paper":"yes","recycling_type":"container"}},"type":"Feature"},
	{"geometry":{"coordinates":[2.086815,41.608314],"type":"Point"},"properties":{"osm_id":"6261944020","tag":{"amenity":"recycling","recycling:glass_bottles":"yes","recycling_type":"container"}},"type":"Feature"},
	{"geometry":{"coordinates":[2.086809,41.608331],"type":"Point"},"properties":{"osm_id":"6261944021","tag":{"amenity":"recycling","recycling:plastic":"yes","recycling_type":"container"}},"type":"Feature"},
	{"geometry":{"coordinates":[2.086213,41.610118],"type":"Point"},"properties":{"osm_id":"6261944026","tag":{"amenity":"recycling","recycling:plastic":"yes","recycling_type":"container"}},"type":"Feature"},
	{"geometry":{"coordinates":[2.086217,41.610099],"type":"Point"},"properties":{"osm_id":"6261944027","tag":{"amenity":"recycling","recycling:glass_bottles":"yes","recycling_type":"container"}},"type":"Feature"},
	{"geometry":{"coordinates":[2.086224,41.610079],"type":"Point"},"properties":{"osm_id":"6261944028","tag":{"amenity":"recycling","recycling:paper":"yes","recycling_type":"container"}},"type":"Feature"},
	{"geometry":{"coordinates":[2.086231,41.610063],"type":"Point"},"properties":{"osm_id":"6261944029","tag":{"amenity":"recycling","recycling:organic":"yes","recycling_type":"container"}},"type":"Feature"},
	{"geometry":{"coordinates":[2.086236,41.610047],"type":"Point"},"properties":{"osm_id":"6261944030","tag":{"amenity":"waste_disposal"}},"type":"Feature"},
	{"geometry":{"coordinates":[2.086239,41.61003],"type":"Point"},"properties":{"osm_id":"6261944031","tag":{"amenity":"waste_disposal"}},"type":"Feature"},
	{"geometry":{"coordinates":[2.085516,41.619928],"type":"Point"},"properties":{"osm_id":"6262057116","tag":{"amenity":"waste_basket"}},"type":"Feature"},
	{"geometry":{"coordinates":[2.085705,41.620056],"type":"Point"},"properties":{"osm_id":"6262057119","tag":{"amenity":"waste_basket"}},"type":"Feature"},
	{"geometry":{"coordinates":[2.085562,41.61983],"type":"Point"},"properties":{"osm_id":"6262057126","tag":{"amenity":"waste_disposal"}},"type":"Feature"},
	{"geometry":{"coordinates":[2.085548,41.619812],"type":"Point"},"properties":{"osm_id":"6262057127","tag":{"amenity":"waste_disposal"}},"type":"Feature"},
	{"geometry":{"coordinates":[2.08553,41.6198],"type":"Point"},"properties":{"osm_id":"6262057128","tag":{"amenity":"recycling","recycling:organic":"yes","recycling_type":"container"}},"type":"Feature"},
	{"geometry":{"coordinates":[2.085518,41.619784],"type":"Point"},"properties":{"osm_id":"6262057129","tag":{"amenity":"recycling","recycling:paper":"yes","recycling_type":"container"}},"type":"Feature"},
	{"geometry":{"coordinates":[2.085506,41.619766],"type":"Point"},"properties":{"osm_id":"6262057130","tag":{"amenity":"recycling","recycling:glass_bottles":"yes","recycling_type":"container"}},"type":"Feature"},
	{"geometry":{"coordinates":[2.085491,41.61975],"type":"Point"},"properties":{"osm_id":"6262057131","tag":{"amenity":"recycling","recycling:plastic":"yes","recycling_type":"container"}},"type":"Feature"},
	{"geometry":{"coordinates":[2.085819,41.619494],"type":"Point"},"properties":{"osm_id":"6262057137","tag":{"amenity":"waste_basket"}},"type":"Feature"},
	{"geometry":{"coordinates":[2.085478,41.608848],"type":"Point"},"properties":{"osm_id":"6263356530","tag":{"amenity":"waste_basket"}},"type":"Feature"},
	{"geometry":{"coordinates":[2.085311,41.608811],"type":"Point"},"properties":{"osm_id":"6263356543","tag":{"amenity":"waste_basket"}},"type":"Feature"},
	{"geometry":{"coordinates":[2.0854,41.608714],"type":"Point"},"properties":{"osm_id":"6263356544","tag":{"amenity":"waste_basket"}},"type":"Feature"},
	{"geometry":{"coordinates":[2.085562,41.608022],"type":"Point"},"properties":{"osm_id":"6263356593","tag":{"amenity":"waste_disposal"}},"type":"Feature"},
	{"geometry":{"coordinates":[2.085555,41.608043],"type":"Point"},"properties":{"osm_id":"6263356594","tag":{"amenity":"recycling","recycling:organic":"yes","recycling_type":"container"}},"type":"Feature"},
	{"geometry":{"coordinates":[2.085551,41.608065],"type":"Point"},"properties":{"osm_id":"6263356595","tag":{"amenity":"recycling","recycling:paper":"yes","recycling_type":"container"}},"type":"Feature"},
	{"geometry":{"coordinates":[2.085544,41.608086],"type":"Point"},"properties":{"osm_id":"6263356596","tag":{"amenity":"recycling","recycling:plastic":"yes","recycling_type":"container"}},"type":"Feature"},
	{"geometry":{"coordinates":[2.085536,41.608109],"type":"Point"},"properties":{"osm_id":"6263356597","tag":{"amenity":"recycling","recycling:glass_bottles":"yes","recycling_type":"container"}},"type":"Feature"},
	{"geometry":{"coordinates":[2.085361,41.608901],"type":"Point"},"properties":{"osm_id":"6263356598","tag":{"amenity":"recycling","recycling:plastic":"yes","recycling_type":"container"}},"type":"Feature"},
	{"geometry":{"coordinates":[2.085353,41.60892],"type":"Point"},"properties":{"osm_id":"6263356599","tag":{"amenity":"recycling","recycling:glass_bottles":"yes","recycling_type":"container"}},"type":"Feature"},
	{"geometry":{"coordinates":[2.085347,41.608938],"type":"Point"},"properties":{"osm_id":"6263356600","tag":{"amenity":"recycling","recycling:paper":"yes","recycling_type":"container"}},"type":"Feature"},
	{"geometry":{"coordinates":[2.085345,41.608957],"type":"Point"},"properties":{"osm_id":"6263356601","tag":{"amenity":"recycling","recycling:organic":"yes","recycling_type":"container"}},"type":"Feature"},
	{"geometry":{"coordinates":[2.085343,41.608974],"type":"Point"},"properties":{"osm_id":"6263356602","tag":{"amenity":"waste_disposal"}},"type":"Feature"},
	{"geometry":{"coordinates":[2.085337,41.608996],"type":"Point"},"properties":{"osm_id":"6263356603","tag":{"amenity":"waste_disposal"}},"type":"Feature"},
	{"geometry":{"coordinates":[2.085053,41.609968],"type":"Point"},"properties":{"osm_id":"6263356604","tag":{"amenity":"recycling","recycling:plastic":"yes","recycling_type":"container"}},"type":"Feature"},
	{"geometry":{"coordinates":[2.08505,41.609987],"type":"Point"},"properties":{"osm_id":"6263356605","tag":{"amenity":"recycling","recycling:glass_bottles":"yes","recycling_type":"container"}},"type":"Feature"},
	{"geometry":{"coordinates":[2.085045,41.610008],"type":"Point"},"properties":{"osm_id":"6263356606","tag":{"amenity":"recycling","recycling:paper":"yes","recycling_type":"container"}},"type":"Feature"},
	{"geometry":{"coordinates":[2.085043,41.610022],"type":"Point"},"properties":{"osm_id":"6263356607","tag":{"amenity":"recycling","recycling:organic":"yes","recycling_type":"container"}},"type":"Feature"},
	{"geometry":{"coordinates":[2.085037,41.610043],"type":"Point"},"properties":{"osm_id":"6263356608","tag":{"amenity":"waste_disposal"}},"type":"Feature"},
	{"geometry":{"coordinates":[2.085041,41.610063],"type":"Point"},"properties":{"osm_id":"6263356609","tag":{"amenity":"waste_disposal"}},"type":"Feature"},
	{"geometry":{"coordinates":[2.086538,41.60911],"type":"Point"},"properties":{"osm_id":"6263356648","tag":{"amenity":"waste_disposal"}},"type":"Feature"},
	{"geometry":{"coordinates":[2.086532,41.609135],"type":"Point"},"properties":{"osm_id":"6263356649","tag":{"amenity":"waste_disposal"}},"type":"Feature"},
	{"geometry":{"coordinates":[2.086522,41.609155],"type":"Point"},"properties":{"osm_id":"6263356650","tag":{"amenity":"recycling","recycling:organic":"yes","recycling_type":"container"}},"type":"Feature"},
	{"geometry":{"coordinates":[2.086514,41.609175],"type":"Point"},"properties":{"osm_id":"6263356651","tag":{"amenity":"recycling","recycling:paper":"yes","recycling_type":"container"}},"type":"Feature"},
	{"geometry":{"coordinates":[2.086509,41.609189],"type":"Point"},"properties":{"osm_id":"6263356652","tag":{"amenity":"recycling","recycling:glass_bottles":"yes","recycling_type":"container"}},"type":"Feature"},
	{"geometry":{"coordinates":[2.086505,41.609205],"type":"Point"},"properties":{"osm_id":"6263356653","tag":{"amenity":"recycling","recycling:plastic":"yes","recycling_type":"container"}},"type":"Feature"},
	{"geometry":{"coordinates":[2.08653,41.609211],"type":"Point"},"properties":{"osm_id":"6263356654","tag":{"amenity":"recycling","recycling:oil":"yes","recycling_type":"container"}},"type":"Feature"},
	{"geometry":{"coordinates":[2.08204,41.614607],"type":"Point"},"properties":{"osm_id":"6263373402","tag":{"amenity":"recycling","recycling:plastic":"yes","recycling_type":"container"}},"type":"Feature"},
	{"geometry":{"coordinates":[2.082019,41.614591],"type":"Point"},"properties":{"osm_id":"6263373403","tag":{"amenity":"recycling","recycling:glass_bottles":"yes","recycling_type":"container"}},"type":"Feature"},
	{"geometry":{"coordinates":[2.082002,41.614582],"type":"Point"},"properties":{"osm_id":"6263373404","tag":{"amenity":"recycling","recycling:paper":"yes","recycling_type":"container"}},"type":"Feature"},
	{"geometry":{"coordinates":[2.081984,41.614569],"type":"Point"},"properties":{"osm_id":"6263373405","tag":{"amenity":"recycling","recycling:organic":"yes","recycling_type":"container"}},"type":"Feature"},
	{"geometry":{"coordinates":[2.08197,41.614557],"type":"Point"},"properties":{"osm_id":"6263373406","tag":{"amenity":"waste_disposal"}},"type":"Feature"},
	{"geometry":{"coordinates":[2.085442,41.612182],"type":"Point"},"properties":{"osm_id":"6263409332","tag":{"amenity":"recycling","recycling:organic":"yes","recycling_type":"container"}},"type":"Feature"},
	{"geometry":{"coordinates":[2.08545,41.612201],"type":"Point"},"properties":{"osm_id":"6263409333","tag":{"amenity":"waste_disposal"}},"type":"Feature"},
	{"geometry":{"coordinates":[2.085707,41.612784],"type":"Point"},"properties":{"osm_id":"6263409339","tag":{"amenity":"recycling","recycling:organic":"yes","recycling_type":"container"}},"type":"Feature"},
	{"geometry":{"coordinates":[2.085721,41.612811],"type":"Point"},"properties":{"osm_id":"6263409340","tag":{"amenity":"recycling","recycling:plastic":"yes","recycling_type":"container"}},"type":"Feature"},
	{"geometry":{"coordinates":[2.085734,41.612843],"type":"Point"},"properties":{"osm_id":"6263409341","tag":{"amenity":"recycling","recycling:glass_bottles":"yes","recycling_type":"container"}},"type":"Feature"},
	{"geometry":{"coordinates":[2.085745,41.612869],"type":"Point"},"properties":{"osm_id":"6263409342","tag":{"amenity":"recycling","recycling:paper":"yes","recycling_type":"container"}},"type":"Feature"},
	{"geometry":{"coordinates":[2.085754,41.612899],"type":"Point"},"properties":{"osm_id":"6263409343","tag":{"amenity":"waste_disposal"}},"type":"Feature"},
	{"geometry":{"coordinates":[2.08573,41.612952],"type":"Point"},"properties":{"osm_id":"6263409345","tag":{"amenity":"waste_basket"}},"type":"Feature"},
	{"geometry":{"coordinates":[2.085996,41.613398],"type":"Point"},"properties":{"osm_id":"6263409356","tag":{"amenity":"waste_disposal"}},"type":"Feature"},
	{"geometry":{"coordinates":[2.086006,41.613418],"type":"Point"},"properties":{"osm_id":"6263409357","tag":{"amenity":"recycling","recycling:organic":"yes","recycling_type":"container"}},"type":"Feature"},
	{"geometry":{"coordinates":[2.086148,41.613926],"type":"Point"},"properties":{"osm_id":"6263409363","tag":{"amenity":"waste_basket"}},"type":"Feature"},
	{"geometry":{"coordinates":[2.086296,41.614087],"type":"Point"},"properties":{"osm_id":"6263409364","tag":{"amenity":"waste_disposal"}},"type":"Feature"},
	{"geometry":{"coordinates":[2.086304,41.614108],"type":"Point"},"properties":{"osm_id":"6263409365","tag":{"amenity":"waste_disposal"}},"type":"Feature"},
	{"geometry":{"coordinates":[2.086312,41.614125],"type":"Point"},"properties":{"osm_id":"6263409366","tag":{"amenity":"recycling","recycling:organic":"yes","recycling_type":"container"}},"type":"Feature"},
	{"geometry":{"coordinates":[2.08632,41.614141],"type":"Point"},"properties":{"osm_id":"6263409367","tag":{"amenity":"recycling","recycling:paper":"yes","recycling_type":"container"}},"type":"Feature"},
	{"geometry":{"coordinates":[2.086328,41.614157],"type":"Point"},"properties":{"osm_id":"6263409368","tag":{"amenity":"recycling","recycling:glass_bottles":"yes","recycling_type":"container"}},"type":"Feature"},
	{"geometry":{"coordinates":[2.086334,41.614173],"type":"Point"},"properties":{"osm_id":"6263409369","tag":{"amenity":"recycling","recycling:plastic":"yes","recycling_type":"container"}},"type":"Feature"},
	{"geometry":{"coordinates":[2.092575,41.613695],"type":"Point"},"properties":{"osm_id":"6263568534","tag":{"amenity":"waste_basket"}},"type":"Feature"},
	{"geometry":{"coordinates":[2.090317,41.613864],"type":"Point"},"properties":{"osm_id":"6263568548","tag":{"amenity":"waste_disposal"}},"type":"Feature"},
	{"geometry":{"coordinates":[2.090301,41.613858],"type":"Point"},"properties":{"osm_id":"6263568549","tag":{"amenity":"recycling","recycling:organic":"yes","recycling_type":"container"}},"type":"Feature"},
	{"geometry":{"coordinates":[2.089396,41.61465],"type":"Point"},"properties":{"osm_id":"6263568564","tag":{"amenity":"waste_basket"}},"type":"Feature"},
	{"geometry":{"coordinates":[2.090931,41.612948],"type":"Point"},"properties":{"osm_id":"6263568565","tag":{"amenity":"waste_basket"}},"type":"Feature"},
	{"geometry":{"coordinates":[2.089597,41.614708],"type":"Point"},"properties":{"osm_id":"6263568602","tag":{"amenity":"waste_disposal"}},"type":"Feature"},
	{"geometry":{"coordinates":[2.089617,41.614721],"type":"Point"},"properties":{"osm_id":"6263568603","tag":{"amenity":"waste_disposal"}},"type":"Feature"},
	{"geometry":{"coordinates":[2.089636,41.614734],"type":"Point"},"properties":{"osm_id":"6263568604","tag":{"amenity":"recycling","recycling:organic":"yes","recycling_type":"container"}},"type":"Feature"},
	{"geometry":{"coordinates":[2.089656,41.614745],"type":"Point"},"properties":{"osm_id":"6263568605","tag":{"amenity":"recycling","recycling:paper":"yes","recycling_type":"container"}},"type":"Feature"},
	{"geometry":{"coordinates":[2.089675,41.614756],"type":"Point"},"properties":{"osm_id":"6263568606","tag":{"amenity":"recycling","recycling:glass_bottles":"yes","recycling_type":"container"}},"type":"Feature"},
	{"geometry":{"coordinates":[2.089692,41.614767],"type":"Point"},"properties":{"osm_id":"6263568607","tag":{"amenity":"recycling","recycling:plastic":"yes","recycling_type":"container"}},"type":"Feature"},
	{"geometry":{"coordinates":[2.089909,41.614887],"type":"Point"},"properties":{"osm_id":"6263584002","tag":{"amenity":"waste_disposal"}},"type":"Feature"},
	{"geometry":{"coordinates":[2.089927,41.614897],"type":"Point"},"properties":{"osm_id":"6263584003","tag":{"amenity":"waste_disposal"}},"type":"Feature"},
	{"geometry":{"coordinates":[2.089945,41.61491],"type":"Point"},"properties":{"osm_id":"6263584004","tag":{"amenity":"recycling","recycling:organic":"yes","recycling_type":"container"}},"type":"Feature"},
	{"geometry":{"coordinates":[2.089349,41.61463],"type":"Point"},"properties":{"osm_id":"6263584005","tag":{"amenity":"recycling","recycling:batteries":"yes","recycling:light_bulbs":"yes","recycling_type":"container"}},"type":"Feature"},
	{"geometry":{"coordinates":[2.088948,41.614385],"type":"Point"},"properties":{"osm_id":"6263584011","tag":{"amenity":"waste_basket"}},"type":"Feature"},
	{"geometry":{"coordinates":[2.088888,41.614294],"type":"Point"},"properties":{"osm_id":"6263584012","tag":{"amenity":"waste_disposal"}},"type":"Feature"},
	{"geometry":{"coordinates":[2.08891,41.614307],"type":"Point"},"properties":{"osm_id":"6263584013","tag":{"amenity":"waste_disposal"}},"type":"Feature"},
	{"geometry":{"coordinates":[2.08893,41.614319],"type":"Point"},"properties":{"osm_id":"6263584014","tag":{"amenity":"recycling","recycling:organic":"yes","recycling_type":"container"}},"type":"Feature"},
	{"geometry":{"coordinates":[2.088606,41.614253],"type":"Point"},"properties":{"osm_id":"6263584016","tag":{"amenity":"waste_basket"}},"type":"Feature"},
	{"geometry":{"coordinates":[2.088073,41.61382],"type":"Point"},"properties":{"osm_id":"6263584021","tag":{"amenity":"waste_disposal"}},"type":"Feature"},
	{"geometry":{"coordinates":[2.088096,41.613829],"type":"Point"},"properties":{"osm_id":"6263584022","tag":{"amenity":"waste_disposal"}},"type":"Feature"},
	{"geometry":{"coordinates":[2.088166,41.613875],"type":"Point"},"properties":{"osm_id":"6263584023","tag":{"amenity":"recycling","recycling:organic":"yes","recycling_type":"container"}},"type":"Feature"},
	{"geometry":{"coordinates":[2.088184,41.613889],"type":"Point"},"properties":{"osm_id":"6263584024","tag":{"amenity":"recycling","recycling:glass_bottles":"yes","recycling_type":"container"}},"type":"Feature"},
	{"geometry":{"coordinates":[2.088283,41.613942],"type":"Point"},"properties":{"osm_id":"6263584025","tag":{"amenity":"recycling","recycling:plastic":"yes","recycling_type":"container"}},"type":"Feature"},
	{"geometry":{"coordinates":[2.088304,41.613955],"type":"Point"},"properties":{"osm_id":"6263584026","tag":{"amenity":"recycling","recycling:paper":"yes","recycling_type":"container"}},"type":"Feature"},
	{"geometry":{"coordinates":[2.088274,41.61287],"type":"Point"},"properties":{"osm_id":"6263610239","tag":{"amenity":"waste_disposal"}},"type":"Feature"},
	{"geometry":{"coordinates":[2.088283,41.612858],"type":"Point"},"properties":{"osm_id":"6263610240","tag":{"amenity":"recycling","recycling:organic":"yes","recycling_type":"container"}},"type":"Feature"},
	{"geometry":{"coordinates":[2.088296,41.61284],"type":"Point"},"properties":{"osm_id":"6263610241","tag":{"amenity":"recycling","recycling:paper":"yes","recycling_type":"container"}},"type":"Feature"},
	{"geometry":{"coordinates":[2.088312,41.612825],"type":"Point"},"properties":{"osm_id":"6263610242","tag":{"amenity":"recycling","recycling:glass_bottles":"yes","recycling_type":"container"}},"type":"Feature"},
	{"geometry":{"coordinates":[2.08833,41.612807],"type":"Point"},"properties":{"osm_id":"6263610243","tag":{"amenity":"recycling","recycling:plastic":"yes","recycling_type":"container"}},"type":"Feature"},
	{"geometry":{"coordinates":[2.087493,41.613541],"type":"Point"},"properties":{"osm_id":"6263610276","tag":{"amenity":"waste_basket"}},"type":"Feature"},
	{"geometry":{"coordinates":[2.087679,41.609433],"type":"Point"},"properties":{"osm_id":"6263621499","tag":{"amenity":"waste_disposal"}},"type":"Feature"},
	{"geometry":{"coordinates":[2.087681,41.609419],"type":"Point"},"properties":{"osm_id":"6263621500","tag":{"amenity":"recycling","recycling:organic":"yes","recycling_type":"container"}},"type":"Feature"},
	{"geometry":{"coordinates":[2.087688,41.609401],"type":"Point"},"properties":{"osm_id":"6263621501","tag":{"amenity":"recycling","recycling:paper":"yes","recycling_type":"container"}},"type":"Feature"},
	{"geometry":{"coordinates":[2.087695,41.609382],"type":"Point"},"properties":{"osm_id":"6263621502","tag":{"amenity":"recycling","recycling:glass_bottles":"yes","recycling_type":"container"}},"type":"Feature"},
	{"geometry":{"coordinates":[2.087701,41.609364],"type":"Point"},"properties":{"osm_id":"6263621503","tag":{"amenity":"recycling","recycling:plastic":"yes","recycling_type":"container"}},"type":"Feature"},
	{"geometry":{"coordinates":[2.088023,41.608498],"type":"Point"},"properties":{"osm_id":"6263621514","tag":{"amenity":"waste_disposal"}},"type":"Feature"},
	{"geometry":{"coordinates":[2.088027,41.608483],"type":"Point"},"properties":{"osm_id":"6263621515","tag":{"amenity":"recycling","recycling:organic":"yes","recycling_type":"container"}},"type":"Feature"},
	{"geometry":{"coordinates":[2.088033,41.608464],"type":"Point"},"properties":{"osm_id":"6263621516","tag":{"amenity":"recycling","recycling:paper":"yes","recycling_type":"container"}},"type":"Feature"},
	{"geometry":{"coordinates":[2.088038,41.60845],"type":"Point"},"properties":{"osm_id":"6263621517","tag":{"amenity":"recycling","recycling:glass_bottles":"yes","recycling_type":"container"}},"type":"Feature"},
	{"geometry":{"coordinates":[2.088046,41.608432],"type":"Point"},"properties":{"osm_id":"6263621518","tag":{"amenity":"recycling","recycling:plastic":"yes","recycling_type":"container"}},"type":"Feature"},
	{"geometry":{"coordinates":[2.087841,41.605957],"type":"Point"},"properties":{"osm_id":"6263818847","tag":{"amenity":"waste_disposal"}},"type":"Feature"},
	{"geometry":{"coordinates":[2.08783,41.605975],"type":"Point"},"properties":{"osm_id":"6263818848","tag":{"amenity":"waste_disposal"}},"type":"Feature"},
	{"geometry":{"coordinates":[2.087822,41.605996],"type":"Point"},"properties":{"osm_id":"6263818849","tag":{"amenity":"recycling","recycling:organic":"yes","recycling_type":"container"}},"type":"Feature"},
	{"geometry":{"coordinates":[2.090188,41.606714],"type":"Point"},"properties":{"osm_id":"6263854586","tag":{"amenity":"waste_disposal"}},"type":"Feature"},
	{"geometry":{"coordinates":[2.090542,41.608164],"type":"Point"},"properties":{"osm_id":"6263936073","tag":{"amenity":"waste_disposal"}},"type":"Feature"},
	{"geometry":{"coordinates":[2.09056,41.608149],"type":"Point"},"properties":{"osm_id":"6263936074","tag":{"amenity":"recycling","recycling:organic":"yes","recycling_type":"container"}},"type":"Feature"},
	{"geometry":{"coordinates":[2.090575,41.608134],"type":"Point"},"properties":{"osm_id":"6263936075","tag":{"amenity":"recycling","recycling:paper":"yes","recycling_type":"container"}},"type":"Feature"},
	{"geometry":{"coordinates":[2.09059,41.60812],"type":"Point"},"properties":{"osm_id":"6263936076","tag":{"amenity":"recycling","recycling:glass_bottles":"yes","recycling_type":"container"}},"type":"Feature"},
	{"geometry":{"coordinates":[2.090607,41.608104],"type":"Point"},"properties":{"osm_id":"6263936077","tag":{"amenity":"recycling","recycling:plastic":"yes","recycling_type":"container"}},"type":"Feature"},
	{"geometry":{"coordinates":[2.09113,41.607258],"type":"Point"},"properties":{"osm_id":"6263938618","tag":{"amenity":"waste_basket"}},"type":"Feature"},
	{"geometry":{"coordinates":[2.091422,41.607],"type":"Point"},"properties":{"osm_id":"6263938656","tag":{"amenity":"waste_disposal"}},"type":"Feature"},
	{"geometry":{"coordinates":[2.091431,41.606986],"type":"Point"},"properties":{"osm_id":"6263938657","tag":{"amenity":"recycling","recycling:organic":"yes","recycling_type":"container"}},"type":"Feature"},
	{"geometry":{"coordinates":[2.091441,41.606967],"type":"Point"},"properties":{"osm_id":"6263938658","tag":{"amenity":"recycling","recycling:paper":"yes","recycling_type":"container"}},"type":"Feature"},
	{"geometry":{"coordinates":[2.091451,41.606956],"type":"Point"},"properties":{"osm_id":"6263938659","tag":{"amenity":"recycling","recycling:glass_bottles":"yes","recycling_type":"container"}},"type":"Feature"},
	{"geometry":{"coordinates":[2.091461,41.606937],"type":"Point"},"properties":{"osm_id":"6263938660","tag":{"amenity":"recycling","recycling:plastic":"yes","recycling_type":"container"}},"type":"Feature"},
	{"geometry":{"coordinates":[2.091286,41.606986],"type":"Point"},"properties":{"osm_id":"6263938661","tag":{"amenity":"waste_basket"}},"type":"Feature"},
	{"geometry":{"coordinates":[2.091102,41.606938],"type":"Point"},"properties":{"osm_id":"6263938664","tag":{"amenity":"waste_basket"}},"type":"Feature"},
	{"geometry":{"coordinates":[2.093132,41.614087],"type":"Point"},"properties":{"osm_id":"6264028673","tag":{"amenity":"waste_basket"}},"type":"Feature"},
	{"geometry":{"coordinates":[2.092966,41.614202],"type":"Point"},"properties":{"osm_id":"6264028677","tag":{"amenity":"waste_basket"}},"type":"Feature"},
	{"geometry":{"coordinates":[2.09424,41.615287],"type":"Point"},"properties":{"osm_id":"6264028722","tag":{"amenity":"waste_disposal"}},"type":"Feature"},
	{"geometry":{"coordinates":[2.094226,41.61527],"type":"Point"},"properties":{"osm_id":"6264028723","tag":{"amenity":"recycling","recycling:organic":"yes","recycling_type":"container"}},"type":"Feature"},
	{"geometry":{"coordinates":[2.094033,41.615014],"type":"Point"},"properties":{"osm_id":"6264028728","tag":{"amenity":"waste_basket"}},"type":"Feature"},
	{"geometry":{"coordinates":[2.094235,41.616003],"type":"Point"},"properties":{"osm_id":"6264028746","tag":{"amenity":"waste_basket"}},"type":"Feature"},
	{"geometry":{"coordinates":[2.09513,41.616247],"type":"Point"},"properties":{"osm_id":"6264028747","tag":{"amenity":"waste_basket"}},"type":"Feature"},
	{"geometry":{"coordinates":[2.094986,41.616632],"type":"Point"},"properties":{"osm_id":"6264028782","tag":{"amenity":"waste_basket"}},"type":"Feature"},
	{"geometry":{"coordinates":[2.095055,41.616817],"type":"Point"},"properties":{"osm_id":"6264028795","tag":{"amenity":"waste_basket"}},"type":"Feature"},
	{"geometry":{"coordinates":[2.095823,41.616951],"type":"Point"},"properties":{"osm_id":"6264028800","tag":{"amenity":"waste_disposal"}},"type":"Feature"},
	{"geometry":{"coordinates":[2.095808,41.616934],"type":"Point"},"properties":{"osm_id":"6264028801","tag":{"amenity":"recycling","recycling:glass_bottles":"yes","recycling_type":"container"}},"type":"Feature"},
	{"geometry":{"coordinates":[2.09578,41.616905],"type":"Point"},"properties":{"osm_id":"6264028802","tag":{"amenity":"recycling","recycling:paper":"yes","recycling_type":"container"}},"type":"Feature"},
	{"geometry":{"coordinates":[2.095769,41.616893],"type":"Point"},"properties":{"osm_id":"6264028803","tag":{"amenity":"recycling","recycling:organic":"yes","recycling_type":"container"}},"type":"Feature"},
	{"geometry":{"coordinates":[2.095759,41.616879],"type":"Point"},"properties":{"osm_id":"6264028804","tag":{"amenity":"recycling","recycling:plastic":"yes","recycling_type":"container"}},"type":"Feature"},
	{"geometry":{"coordinates":[2.096753,41.618092],"type":"Point"},"properties":{"osm_id":"6264036421","tag":{"amenity":"waste_basket"}},"type":"Feature"},
	{"geometry":{"coordinates":[2.097534,41.618631],"type":"Point"},"properties":{"osm_id":"6264036441","tag":{"amenity":"waste_basket"}},"type":"Feature"},
	{"geometry":{"coordinates":[2.08999,41.616602],"type":"Point"},"properties":{"osm_id":"6265744500","tag":{"amenity":"waste_basket"}},"type":"Feature"},
	{"geometry":{"coordinates":[2.089382,41.61673],"type":"Point"},"properties":{"osm_id":"6265744515","tag":{"amenity":"waste_basket"}},"type":"Feature"},
	{"geometry":{"coordinates":[2.089505,41.616803],"type":"Point"},"properties":{"osm_id":"6265744516","tag":{"amenity":"waste_basket"}},"type":"Feature"},
	{"geometry":{"coordinates":[2.08979,41.616492],"type":"Point"},"properties":{"osm_id":"6265772046","tag":{"amenity":"waste_basket"}},"type":"Feature"},
	{"geometry":{"coordinates":[2.090012,41.616559],"type":"Point"},"properties":{"osm_id":"6265772049","tag":{"amenity":"waste_basket"}},"type":"Feature"},
	{"geometry":{"coordinates":[2.08955,41.589763],"type":"Point"},"properties":{"osm_id":"6273807712","tag":{"amenity":"waste_basket"}},"type":"Feature"},
	{"geometry":{"coordinates":[2.089597,41.589555],"type":"Point"},"properties":{"osm_id":"6273807713","tag":{"amenity":"waste_basket"}},"type":"Feature"},
	{"geometry":{"coordinates":[2.085616,41.611194],"type":"Point"},"properties":{"osm_id":"6280747638","tag":{"amenity":"waste_basket"}},"type":"Feature"},
	{"geometry":{"coordinates":[2.085913,41.611788],"type":"Point"},"properties":{"osm_id":"6280747648","tag":{"amenity":"recycling","recycling:organic":"yes","recycling_type":"container"}},"type":"Feature"},
	{"geometry":{"coordinates":[2.085919,41.611807],"type":"Point"},"properties":{"osm_id":"6280747649","tag":{"amenity":"waste_disposal"}},"type":"Feature"},
	{"geometry":{"coordinates":[2.085394,41.615542],"type":"Point"},"properties":{"osm_id":"6290898486","tag":{"amenity":"waste_basket"}},"type":"Feature"},
	{"geometry":{"coordinates":[2.085764,41.615875],"type":"Point"},"properties":{"osm_id":"6290898488","tag":{"amenity":"waste_basket"}},"type":"Feature"},
	{"geometry":{"coordinates":[2.085766,41.615833],"type":"Point"},"properties":{"osm_id":"6290898489","tag":{"amenity":"waste_disposal"}},"type":"Feature"},
	{"geometry":{"coordinates":[2.085748,41.615844],"type":"Point"},"properties":{"osm_id":"6290898490","tag":{"amenity":"recycling","recycling:organic":"yes","recycling_type":"container"}},"type":"Feature"},
	{"geometry":{"coordinates":[2.086619,41.616677],"type":"Point"},"properties":{"osm_id":"6290907142","tag":{"amenity":"waste_basket"}},"type":"Feature"},
	{"geometry":{"coordinates":[2.097208,41.616651],"type":"Point"},"properties":{"osm_id":"6303044676","tag":{"amenity":"waste_disposal"}},"type":"Feature"},
	{"geometry":{"coordinates":[2.097201,41.616646],"type":"Point"},"properties":{"osm_id":"6303044677","tag":{"amenity":"recycling","recycling:organic":"yes","recycling_type":"container"}},"type":"Feature"},
	{"geometry":{"coordinates":[2.098085,41.616603],"type":"Point"},"properties":{"osm_id":"6303174946","tag":{"amenity":"recycling","recycling:organic":"yes","recycling_type":"container"}},"type":"Feature"},
	{"geometry":{"coordinates":[2.098099,41.616612],"type":"Point"},"properties":{"osm_id":"6303174947","tag":{"amenity":"waste_disposal"}},"type":"Feature"},
	{"geometry":{"coordinates":[2.098941,41.617066],"type":"Point"},"properties":{"osm_id":"6303174956","tag":{"amenity":"recycling","recycling:organic":"yes","recycling_type":"container"}},"type":"Feature"},
	{"geometry":{"coordinates":[2.098932,41.617054],"type":"Point"},"properties":{"osm_id":"6303174957","tag":{"amenity":"waste_disposal"}},"type":"Feature"},
	{"geometry":{"coordinates":[2.098948,41.61708],"type":"Point"},"properties":{"osm_id":"6303174973","tag":{"amenity":"recycling","recycling:paper":"yes","recycling_type":"container"}},"type":"Feature"},
	{"geometry":{"coordinates":[2.098959,41.617094],"type":"Point"},"properties":{"osm_id":"6303174974","tag":{"amenity":"recycling","recycling:glass_bottles":"yes","recycling_type":"container"}},"type":"Feature"},
	{"geometry":{"coordinates":[2.098971,41.61711],"type":"Point"},"properties":{"osm_id":"6303174975","tag":{"amenity":"recycling","recycling:plastic":"yes","recycling_type":"container"}},"type":"Feature"},
	{"geometry":{"coordinates":[2.100873,41.616503],"type":"Point"},"properties":{"osm_id":"6308228817","tag":{"amenity":"recycling","recycling:organic":"yes","recycling_type":"container"}},"type":"Feature"},
	{"geometry":{"coordinates":[2.100887,41.616512],"type":"Point"},"properties":{"osm_id":"6308228818","tag":{"amenity":"waste_disposal"}},"type":"Feature"},
	{"geometry":{"coordinates":[2.081186,41.618244],"type":"Point"},"properties":{"osm_id":"6337991175","tag":{"amenity":"waste_disposal"}},"type":"Feature"},
	{"geometry":{"coordinates":[2.081209,41.618258],"type":"Point"},"properties":{"osm_id":"6337991176","tag":{"amenity":"recycling","recycling:organic":"yes","recycling_type":"container"}},"type":"Feature"},
	{"geometry":{"coordinates":[2.081232,41.618273],"type":"Point"},"properties":{"osm_id":"6337991177","tag":{"amenity":"recycling","recycling:paper":"yes","recycling_type":"container"}},"type":"Feature"},
	{"geometry":{"coordinates":[2.081246,41.618281],"type":"Point"},"properties":{"osm_id":"6337991178","tag":{"amenity":"recycling","recycling:glass_bottles":"yes","recycling_type":"container"}},"type":"Feature"},
	{"geometry":{"coordinates":[2.081262,41.618294],"type":"Point"},"properties":{"osm_id":"6337991179","tag":{"amenity":"recycling","recycling:plastic":"yes","recycling_type":"container"}},"type":"Feature"},
	{"geometry":{"coordinates":[2.079907,41.62035],"type":"Point"},"properties":{"osm_id":"6337991876","tag":{"amenity":"waste_disposal"}},"type":"Feature"},
	{"geometry":{"coordinates":[2.079899,41.620332],"type":"Point"},"properties":{"osm_id":"6337991877","tag":{"amenity":"recycling","recycling:organic":"yes","recycling_type":"container"}},"type":"Feature"},
	{"geometry":{"coordinates":[2.079894,41.620313],"type":"Point"},"properties":{"osm_id":"6337991878","tag":{"amenity":"recycling","recycling:glass_bottles":"yes","recycling_type":"container"}},"type":"Feature"},
	{"geometry":{"coordinates":[2.07989,41.620293],"type":"Point"},"properties":{"osm_id":"6337991879","tag":{"amenity":"recycling","recycling:paper":"yes","recycling_type":"container"}},"type":"Feature"},
	{"geometry":{"coordinates":[2.079885,41.62027],"type":"Point"},"properties":{"osm_id":"6337991880","tag":{"amenity":"recycling","recycling:plastic":"yes","recycling_type":"container"}},"type":"Feature"},
	{"geometry":{"coordinates":[2.082545,41.620301],"type":"Point"},"properties":{"osm_id":"6340107363","tag":{"amenity":"waste_disposal"}},"type":"Feature"},
	{"geometry":{"coordinates":[2.082561,41.620288],"type":"Point"},"properties":{"osm_id":"6340107364","tag":{"amenity":"recycling","recycling:organic":"yes","recycling_type":"container"}},"type":"Feature"},
	{"geometry":{"coordinates":[2.089892,41.614879],"type":"Point"},"properties":{"osm_id":"7233426648","tag":{"amenity":"recycling","recycling:oils":"yes","recycling_type":"container"}},"type":"Feature"},
	{"geometry":{"coordinates":[2.089876,41.614872],"type":"Point"},"properties":{"osm_id":"7233426649","tag":{"amenity":"recycling","operator":"Humana","recycling:clothes":"yes","recycling_type":"container"}},"type":"Feature"}
]
}
