{
"type": "FeatureCollection",
"features": [
	{"geometry":{"coordinates":[2.024228,41.366075],"type":"Point"},"properties":{"name":"Deixalleria Santa Coloma de Cervell\u00c3\u00b3","osm_id":"1064529404","tag":{"addr:city":"Santa Coloma de Cervell\u00c3\u00b3","addr:postcode":"08690","addr:street":"Avinguda Llu\u00c3\u00ads Companys","amenity":"recycling","phone":"+34 93 645 04 12","recycling:batteries":"yes","recycling:books":"yes","recycling:cans":"yes","recycling:cardboard":"yes","recycling:cartons":"yes","recycling:clothes":"yes","recycling:electrical_appliances":"yes","recycling:glass_bottles":"yes","recycling:green_waste":"yes","recycling:magazines":"yes","recycling:newspaper":"yes","recycling:paper":"yes","recycling:paper_packaging":"yes","recycling:plastic":"yes","recycling:plastic_bottles":"yes","recycling:plastic_packaging":"yes","recycling:scrap_metal":"yes","recycling:small_appliances":"yes","recycling:waste":"yes","recycling:wood":"yes","recycling_type":"centre"}},"type":"Feature"},
	{"geometry":{"coordinates":[2.063702,41.361122],"type":"Point"},"properties":{"osm_id":"1484605124","tag":{"amenity":"recycling"}},"type":"Feature"},
	{"geometry":{"coordinates":[2.085226,41.352639],"type":"Point"},"properties":{"osm_id":"1731897901","tag":{"amenity":"recycling"}},"type":"Feature"},
	{"geometry":{"coordinates":[2.088887,41.352053],"type":"Point"},"properties":{"osm_id":"1731897908","tag":{"amenity":"recycling"}},"type":"Feature"},
	{"geometry":{"coordinates":[2.074603,41.369808],"type":"Point"},"properties":{"osm_id":"2850559714","tag":{"amenity":"recycling","recycling_type":"container"}},"type":"Feature"},
	{"geometry":{"coordinates":[2.086494,41.369227],"type":"Point"},"properties":{"name":"JOAQUIM ARDANUY LOPEZ","osm_id":"3112794886","tag":{"amenity":"recycling","recycling:cans":"yes"}},"type":"Feature"},
	{"geometry":{"coordinates":[2.023264,41.371989],"type":"Point"},"properties":{"name":"El Rebelde","osm_id":"3154279937","tag":{"addr:city":"Santa Coloma de Cervell\u00c3\u00b3","addr:housenumber":"1","addr:postcode":"08690","addr:street":"Carrer de la Prunera","amenity":"recycling","operator":"Servicios Integrales de Residuos"}},"type":"Feature"},
	{"geometry":{"coordinates":[2.024915,41.364825],"type":"Point"},"properties":{"osm_id":"3158183322","tag":{"addr:city":"Santa Coloma de Cervell\u00c3\u00b3","addr:postcode":"08690","addr:street":"Carrer de Can Juli\u00c3\u00a0","amenity":"recycling","operator":"Ajuntament de Santa Coloma de Cervell\u00c3\u00b3","recycling:cans":"no","recycling:clothes":"no","recycling:glass":"no","recycling:paper":"no","recycling_type":"container"}},"type":"Feature"},
	{"geometry":{"coordinates":[2.025371,41.365464],"type":"Point"},"properties":{"osm_id":"3158195844","tag":{"addr:city":"Santa Coloma de Cervell\u00c3\u00b3","addr:postcode":"08690","addr:street":"Carrer de Can Juli\u00c3\u00a0","amenity":"recycling","operator":"Ajuntament de Santa Coloma de Cervell\u00c3\u00b3","recycling:cans":"no","recycling:clothes":"no","recycling:glass":"no","recycling:paper":"no","recycling_type":"container"}},"type":"Feature"},
	{"geometry":{"coordinates":[2.026828,41.364741],"type":"Point"},"properties":{"osm_id":"3158232948","tag":{"addr:city":"Santa Coloma de Cervell\u00c3\u00b3","addr:postcode":"08690","addr:street":"Carrer de Can Juli\u00c3\u00a0","amenity":"recycling","operator":"Ajuntament de Santa Coloma de Cervell\u00c3\u00b3","recycling:cans":"no","recycling:clothes":"no","recycling:glass_bottles":"yes","recycling:paper":"no","recycling_type":"container"}},"type":"Feature"},
	{"geometry":{"coordinates":[2.025551,41.364329],"type":"Point"},"properties":{"osm_id":"3158243501","tag":{"addr:city":"Santa Coloma de Cervell\u00c3\u00b3","addr:postcode":"08690","addr:street":"Cam\u00c3\u00ad Escola Col\u00c3\u00b2nia G\u00c3\u00bcell","amenity":"recycling","operator":"Ajuntament de Santa Coloma de Cervell\u00c3\u00b3","recycling:cans":"yes","recycling:clothes":"no","recycling:glass_bottles":"yes","recycling:paper":"yes","recycling:plastic":"yes","recycling:plastic:capacity":"1","recycling_type":"container"}},"type":"Feature"},
	{"geometry":{"coordinates":[2.024412,41.364117],"type":"Point"},"properties":{"osm_id":"3158255308","tag":{"addr:city":"Santa Coloma de Cervell\u00c3\u00b3","addr:postcode":"08690","addr:street":"Cam\u00c3\u00ad Escola Col\u00c3\u00b2nia G\u00c3\u00bcell","amenity":"recycling","operator":"Ajuntament de Santa Coloma de Cervell\u00c3\u00b3","recycling:cans":"no","recycling:clothes":"no","recycling:glass":"no","recycling:green_waste":"S\u00c3\u00ad (2)","recycling:paper":"no","recycling_type":"container"}},"type":"Feature"},
	{"geometry":{"coordinates":[2.028191,41.364979],"type":"Point"},"properties":{"osm_id":"3158255828","tag":{"addr:city":"Santa Coloma de Cervell\u00c3\u00b3","addr:postcode":"08690","addr:street":"Carrer de Can Juli\u00c3\u00a0","amenity":"recycling","operator":"Ajuntament de Santa Coloma de Cervell\u00c3\u00b3","recycling:cans":"no","recycling:clothes":"no","recycling:glass":"no","recycling:paper":"no","recycling_type":"container"}},"type":"Feature"},
	{"geometry":{"coordinates":[2.029381,41.363744],"type":"Point"},"properties":{"osm_id":"3158261075","tag":{"addr:city":"Santa Coloma de Cervell\u00c3\u00b3","addr:postcode":"08690","addr:street":"Carrer Bosc d'en Joaquim Folguera","amenity":"recycling","operator":"Ajuntament de Santa Coloma de Cervell\u00c3\u00b3","recycling:cans":"yes","recycling:cardboard":"yes","recycling:clothes":"no","recycling:glass_bottles":"yes","recycling:green_waste":"S\u00c3\u00ad (1)","recycling:paper":"yes","recycling:plastic":"yes","recycling:plastic:capacity":"1","recycling_type":"container"}},"type":"Feature"},
	{"geometry":{"coordinates":[2.029375,41.363275],"type":"Point"},"properties":{"osm_id":"3158267427","tag":{"addr:city":"Santa Coloma de Cervell\u00c3\u00b3","addr:postcode":"08690","addr:street":"Carrer de Pin i Soler","amenity":"recycling","operator":"Ajuntament de Santa Coloma de Cervell\u00c3\u00b3","recycling:cans":"no","recycling:clothes":"no","recycling:glass":"no","recycling:green_waste":"S\u00c3\u00ad (1)","recycling:paper":"no","recycling_type":"container"}},"type":"Feature"},
	{"geometry":{"coordinates":[2.028463,41.364456],"type":"Point"},"properties":{"osm_id":"3158274477","tag":{"addr:city":"Santa Coloma de Cervell\u00c3\u00b3","addr:postcode":"08690","addr:street":"Carrer Bosc d'en Joaquim Folguera","amenity":"recycling","operator":"Ajuntament de Santa Coloma de Cervell\u00c3\u00b3","recycling:cans":"no","recycling:clothes":"no","recycling:glass":"no","recycling:green_waste":"S\u00c3\u00ad (1)","recycling:paper":"no","recycling_type":"container"}},"type":"Feature"},
	{"geometry":{"coordinates":[2.028456,41.362495],"type":"Point"},"properties":{"osm_id":"3158287990","tag":{"addr:city":"Santa Coloma de Cervell\u00c3\u00b3","addr:postcode":"08690","addr:street":"Pla\u00c3\u00a7a Josep Anselm Clav\u00c3\u00a9","amenity":"recycling","operator":"Ajuntament de Santa Coloma de Cervell\u00c3\u00b3","recycling:cans":"no","recycling:clothes":"no","recycling:glass":"no","recycling:green_waste":"S\u00c3\u00ad (1)","recycling:paper":"no","recycling_type":"container"}},"type":"Feature"},
	{"geometry":{"coordinates":[2.027706,41.363111],"type":"Point"},"properties":{"osm_id":"3158291622","tag":{"addr:city":"Santa Coloma de Cervell\u00c3\u00b3","addr:housenumber":"16","addr:postcode":"08690","addr:street":"Carrer de Reixach","amenity":"recycling","operator":"Ajuntament de Santa Coloma de Cervell\u00c3\u00b3","recycling:cans":"no","recycling:clothes":"no","recycling:glass_bottles":"yes","recycling:green_waste":"S\u00c3\u00ad (2)","recycling:paper":"no","recycling_type":"container"}},"type":"Feature"},
	{"geometry":{"coordinates":[2.027122,41.363903],"type":"Point"},"properties":{"osm_id":"3158291828","tag":{"addr:city":"Santa Coloma de Cervell\u00c3\u00b3","addr:postcode":"08690","addr:street":"Carrer de Reixach","amenity":"recycling","operator":"Ajuntament de Santa Coloma de Cervell\u00c3\u00b3","recycling:cans":"no","recycling:clothes":"no","recycling:glass":"no","recycling:paper":"no","recycling_type":"container"}},"type":"Feature"},
	{"geometry":{"coordinates":[2.026579,41.363343],"type":"Point"},"properties":{"osm_id":"3158301661","tag":{"addr:city":"Santa Coloma de Cervell\u00c3\u00b3","addr:housenumber":"28","addr:postcode":"08690","addr:street":"Carrer Claudi G\u00c3\u00bcell","amenity":"recycling","operator":"Ajuntament de Santa Coloma de Cervell\u00c3\u00b3","recycling:cans":"no","recycling:clothes":"no","recycling:glass":"no","recycling:green_waste":"S\u00c3\u00ad (1)","recycling:paper":"no","recycling_type":"container"}},"type":"Feature"},
	{"geometry":{"coordinates":[2.027601,41.362349],"type":"Point"},"properties":{"osm_id":"3158306073","tag":{"addr:city":"Santa Coloma de Cervell\u00c3\u00b3","addr:housenumber":"3","addr:postcode":"08690","addr:street":"Carrer Claudi G\u00c3\u00bcell","amenity":"recycling","operator":"Ajuntament de Santa Coloma de Cervell\u00c3\u00b3","recycling:cans":"yes","recycling:clothes":"no","recycling:glass_bottles":"yes","recycling:paper":"yes","recycling:plastic":"yes","recycling:plastic:capacity":"1","recycling_type":"container"}},"type":"Feature"},
	{"geometry":{"coordinates":[2.027022,41.361725],"type":"Point"},"properties":{"name":"Contenidors de reciclatge","osm_id":"3158307074","tag":{"addr:city":"Santa Coloma de Cervell\u00c3\u00b3","addr:housenumber":"14","addr:postcode":"08690","addr:street":"Carrer d'Arany\u00c3\u00b3","amenity":"recycling","location":"overground","operator":"Ajuntament de Santa Coloma de Cervell\u00c3\u00b3","recycling:cans":"no","recycling:clothes":"no","recycling:glass":"no","recycling:green_waste":"S\u00c3\u00ad (1)","recycling:paper":"no","recycling_type":"container"}},"type":"Feature"},
	{"geometry":{"coordinates":[2.026452,41.360738],"type":"Point"},"properties":{"osm_id":"3158310366","tag":{"addr:city":"Santa Coloma de Cervell\u00c3\u00b3","addr:postcode":"08690","addr:street":"Carrer de Barrau","amenity":"recycling","operator":"Ajuntament de Santa Coloma de Cervell\u00c3\u00b3","recycling:cans":"no","recycling:clothes":"no","recycling:glass":"no","recycling:green_waste":"S\u00c3\u00ad (1)","recycling:paper":"no","recycling_type":"container"}},"type":"Feature"},
	{"geometry":{"coordinates":[2.027145,41.360558],"type":"Point"},"properties":{"osm_id":"3158317650","tag":{"addr:city":"Santa Coloma de Cervell\u00c3\u00b3","addr:housenumber":"18","addr:postcode":"08690","addr:street":"Carrer Monturiol","amenity":"recycling","operator":"Ajuntament de Santa Coloma de Cervell\u00c3\u00b3","recycling:cans":"no","recycling:clothes":"no","recycling:glass":"no","recycling:green_waste":"S\u00c3\u00ad (1)","recycling:paper":"no","recycling_type":"container"}},"type":"Feature"},
	{"geometry":{"coordinates":[2.026948,41.360339],"type":"Point"},"properties":{"osm_id":"3158325441","tag":{"addr:city":"Santa Coloma de Cervell\u00c3\u00b3","addr:postcode":"08690","addr:street":"Passeig de Josep Baiguet Massip","amenity":"recycling","operator":"Org\u00c3\u00a0nica/Org\u00c3\u00a1nica","recycling:cans":"yes","recycling:cardboard":"yes","recycling:clothes":"no","recycling:glass_bottles":"yes","recycling:paper":"yes","recycling:plastic":"yes","recycling:plastic:capacity":"1","recycling_type":"container"}},"type":"Feature"},
	{"geometry":{"coordinates":[2.027868,41.361127],"type":"Point"},"properties":{"osm_id":"3158328518","tag":{"addr:city":"Santa Coloma de Cervell\u00c3\u00b3","addr:postcode":"08690","addr:street":"Carrer Malvehy","amenity":"recycling","operator":"Ajuntament de Santa Coloma de Cervell\u00c3\u00b3","recycling:cans":"no","recycling:clothes":"no","recycling:glass":"no","recycling:paper":"no","recycling_type":"container"}},"type":"Feature"},
	{"geometry":{"coordinates":[2.02743,41.361331],"type":"Point"},"properties":{"osm_id":"3158332901","tag":{"addr:city":"Santa Coloma de Cervell\u00c3\u00b3","addr:housenumber":"22","addr:postcode":"08690","addr:street":"Carrer de Barrau","amenity":"recycling","operator":"Ajuntament de Santa Coloma de Cervell\u00c3\u00b3","recycling:cans":"no","recycling:clothes":"no","recycling:glass_bottles":"yes","recycling:green_waste":"S\u00c3\u00ad (1)","recycling:paper":"no","recycling_type":"container"}},"type":"Feature"},
	{"geometry":{"coordinates":[2.028287,41.361898],"type":"Point"},"properties":{"osm_id":"3158339304","tag":{"addr:city":"Santa Coloma de Cervell\u00c3\u00b3","addr:housenumber":"4","addr:postcode":"08690","addr:street":"Carrer de Barrau","amenity":"recycling","operator":"Ajuntament de Santa Coloma de Cervell\u00c3\u00b3","recycling:cans":"yes","recycling:cardboard":"yes","recycling:clothes":"yes","recycling:glass_bottles":"yes","recycling:green_waste":"S\u00c3\u00ad (1)","recycling:paper":"yes","recycling:plastic":"yes","recycling:plastic:capacity":"1","recycling_type":"container"}},"type":"Feature"},
	{"geometry":{"coordinates":[2.028774,41.36226],"type":"Point"},"properties":{"osm_id":"3158341598","tag":{"addr:city":"Santa Coloma de Cervell\u00c3\u00b3","addr:postcode":"08690","addr:street":"Carrer de Barrau","amenity":"recycling","operator":"Ajuntament de Santa Coloma de Cervell\u00c3\u00b3","recycling:cans":"no","recycling:clothes":"no","recycling:glass":"no","recycling:green_waste":"S\u00c3\u00ad (4)","recycling:paper":"no","recycling_type":"container"}},"type":"Feature"},
	{"geometry":{"coordinates":[2.021629,41.368967],"type":"Point"},"properties":{"osm_id":"3159387880","tag":{"addr:city":"Santa Coloma de Cervell\u00c3\u00b3","addr:postcode":"08690","addr:street":"Cam\u00c3\u00ad del Bosquet del Cementiri","amenity":"recycling","operator":"Ajuntament de Santa Coloma de Cervell\u00c3\u00b3","recycling:cans":"no","recycling:clothes":"no","recycling:glass":"no","recycling:paper":"no","recycling_type":"container"}},"type":"Feature"},
	{"geometry":{"coordinates":[2.02152,41.368269],"type":"Point"},"properties":{"osm_id":"3159593040","tag":{"addr:city":"Santa Coloma de Cervell\u00c3\u00b3","addr:postcode":"08690","addr:street":"Avinguda Santa Coloma","amenity":"recycling","operator":"Ajuntament de Santa Coloma de Cervell\u00c3\u00b3","recycling:cans":"yes","recycling:clothes":"no","recycling:glass_bottles":"yes","recycling:paper":"yes","recycling:plastic":"yes","recycling:plastic:capacity":"1","recycling_type":"container"}},"type":"Feature"},
	{"geometry":{"coordinates":[2.021511,41.367409],"type":"Point"},"properties":{"osm_id":"3159596506","tag":{"addr:city":"Santa Coloma de Cervell\u00c3\u00b3","addr:housenumber":"60","addr:postcode":"08690","addr:street":"Avinguda Baix Llobregat","amenity":"recycling","operator":"Ajuntament de Santa Coloma de Cervell\u00c3\u00b3","recycling:cans":"yes","recycling:cardboard":"yes","recycling:clothes":"no","recycling:glass_bottles":"yes","recycling:green_waste":"S\u00c3\u00ad (1)","recycling:paper":"yes","recycling:plastic":"yes","recycling:plastic:capacity":"1","recycling_type":"container"}},"type":"Feature"},
	{"geometry":{"coordinates":[2.022324,41.368371],"type":"Point"},"properties":{"osm_id":"3159605761","tag":{"addr:city":"Santa Coloma de Cervell\u00c3\u00b3","addr:housenumber":"82","addr:postcode":"08690","addr:street":"Avinguda Santa Coloma","amenity":"recycling","operator":"Ajuntament de Santa Coloma de Cervell\u00c3\u00b3","recycling:cans":"no","recycling:clothes":"no","recycling:glass":"no","recycling:green_waste":"S\u00c3\u00ad (1)","recycling:paper":"no","recycling_type":"container"}},"type":"Feature"},
	{"geometry":{"coordinates":[2.082461,41.362297],"type":"Point"},"properties":{"osm_id":"3170549818","tag":{"addr:city":"Cornell\u00c3\u00a0 de Llobregat","addr:postcode":"08940","addr:street":"Avinguda de Sant Ildefons","amenity":"recycling","recycling:cans":"yes","recycling:glass_bottles":"yes","recycling:paper":"yes"}},"type":"Feature"},
	{"geometry":{"coordinates":[2.029806,41.361494],"type":"Point"},"properties":{"osm_id":"3176497437","tag":{"addr:city":"Santa Coloma de Cervell\u00c3\u00b3","addr:housenumber":"1","addr:postcode":"08690","addr:street":"Pla\u00c3\u00a7a de la Masia","amenity":"recycling","operator":"Ajuntament de Santa Coloma de Cervell\u00c3\u00b3","recycling:cans":"no","recycling:clothes":"no","recycling:glass":"no","recycling:green_waste":"S\u00c3\u00ad (1)","recycling:paper":"no","recycling_type":"container"}},"type":"Feature"},
	{"geometry":{"coordinates":[2.094415,41.363686],"type":"Point"},"properties":{"osm_id":"3228587477","tag":{"amenity":"recycling","recycling:batteries":"no","recycling:cans":"yes","recycling:clothes":"no","recycling:glass_bottles":"yes","recycling:paper":"yes","recycling:plastic":"yes","recycling:scrap_metal":"no","recycling_type":"container"}},"type":"Feature"},
	{"geometry":{"coordinates":[2.082445,41.363155],"type":"Point"},"properties":{"osm_id":"3601451335","tag":{"addr:city":"Cornell\u00c3\u00a0 de Llobregat","addr:postcode":"08940","amenity":"recycling","location":"overground","recycling:cans":"yes","recycling:glass_bottles":"yes","recycling:paper":"yes","recycling_type":"container"}},"type":"Feature"},
	{"geometry":{"coordinates":[2.084677,41.363822],"type":"Point"},"properties":{"osm_id":"3601451351","tag":{"addr:city":"Cornell\u00c3\u00a0 de Llobregat","addr:postcode":"08940","amenity":"recycling","recycling:cans":"yes","recycling:glass_bottles":"yes","recycling:paper":"yes"}},"type":"Feature"},
	{"geometry":{"coordinates":[2.082662,41.359014],"type":"Point"},"properties":{"osm_id":"3725517934","tag":{"addr:city":"Cornell\u00c3\u00a0 de Llobregat","addr:postcode":"08940","addr:street":"Avinguda de Salvador Allende","amenity":"recycling","recycling:cans":"yes","recycling:glass_bottles":"yes","recycling:paper":"yes"}},"type":"Feature"},
	{"geometry":{"coordinates":[2.086755,41.365482],"type":"Point"},"properties":{"osm_id":"3762975839","tag":{"addr:city":"Cornell\u00c3\u00a0 de Llobregat","addr:postcode":"08940","addr:street":"Carrer de la Segarra","amenity":"recycling","recycling:cans":"yes","recycling:glass_bottles":"yes","recycling:paper":"yes","recycling:plastic":"yes","recycling_type":"container"}},"type":"Feature"},
	{"geometry":{"coordinates":[2.08417,41.35992],"type":"Point"},"properties":{"osm_id":"3789199559","tag":{"addr:city":"Cornell\u00c3\u00a0 de Llobregat","addr:postcode":"08940","addr:street":"Avinguda de Salvador Allende","amenity":"recycling","recycling:cans":"yes","recycling:glass_bottles":"yes","recycling:paper":"yes","recycling:plastic":"yes","recycling_type":"container"}},"type":"Feature"},
	{"geometry":{"coordinates":[2.081133,41.358729],"type":"Point"},"properties":{"osm_id":"3789199560","tag":{"addr:city":"Cornell\u00c3\u00a0 de Llobregat","addr:postcode":"08940","addr:street":"Avinguda de Salvador Allende","amenity":"recycling","recycling:cans":"yes","recycling:glass_bottles":"yes","recycling:paper":"yes","recycling:plastic":"yes","recycling_type":"container"}},"type":"Feature"},
	{"geometry":{"coordinates":[2.083667,41.361111],"type":"Point"},"properties":{"osm_id":"3789199890","tag":{"addr:city":"Cornell\u00c3\u00a0 de Llobregat","addr:postcode":"08940","addr:street":"Carrer del Doctor Ar\u00c3\u00bas","amenity":"recycling","recycling:cans":"yes","recycling:clothes":"yes","recycling:glass_bottles":"yes","recycling:paper":"yes","recycling:plastic":"yes","recycling_type":"container"}},"type":"Feature"},
	{"geometry":{"coordinates":[2.083869,41.364558],"type":"Point"},"properties":{"osm_id":"3831998190","tag":{"addr:city":"Cornell\u00c3\u00a0 de Llobregat","addr:postcode":"08940","addr:street":"Carrer de les Cam\u00c3\u00a8lies","amenity":"recycling","recycling:cans":"yes","recycling:glass_bottles":"yes","recycling:paper":"yes","recycling:plastic":"yes","recycling_type":"container"}},"type":"Feature"},
	{"geometry":{"coordinates":[2.074144,41.35684],"type":"Point"},"properties":{"osm_id":"3832577558","tag":{"addr:city":"Cornell\u00c3\u00a0 de Llobregat","addr:postcode":"08940","addr:street":"Avinguda de Salvador Allende","amenity":"recycling","recycling:cans":"yes","recycling:glass_bottles":"yes","recycling:paper":"yes","recycling:plastic":"yes","recycling_type":"container"}},"type":"Feature"},
	{"geometry":{"coordinates":[2.074373,41.358979],"type":"Point"},"properties":{"osm_id":"3832581679","tag":{"addr:city":"Cornell\u00c3\u00a0 de Llobregat","addr:postcode":"08940","addr:street":"Avinguda del Parc","amenity":"recycling","recycling:cans":"yes","recycling:glass_bottles":"yes","recycling:paper":"yes","recycling:plastic":"yes","recycling_type":"container"}},"type":"Feature"},
	{"geometry":{"coordinates":[2.075602,41.359656],"type":"Point"},"properties":{"osm_id":"3832581732","tag":{"addr:city":"Cornell\u00c3\u00a0 de Llobregat","addr:postcode":"08940","addr:street":"Avinguda del Parc","amenity":"recycling","recycling:cans":"yes","recycling:glass_bottles":"yes","recycling:paper":"yes","recycling:plastic":"yes","recycling_type":"container"}},"type":"Feature"},
	{"geometry":{"coordinates":[2.082899,41.365856],"type":"Point"},"properties":{"osm_id":"3832752104","tag":{"addr:city":"Cornell\u00c3\u00a0 de Llobregat","addr:postcode":"08940","addr:street":"Carrer del Cirerer","amenity":"recycling","recycling:cans":"yes","recycling:glass_bottles":"yes","recycling:paper":"yes","recycling:plastic":"yes","recycling_type":"container"}},"type":"Feature"},
	{"geometry":{"coordinates":[2.085695,41.364815],"type":"Point"},"properties":{"osm_id":"3832752834","tag":{"addr:city":"Cornell\u00c3\u00a0 de Llobregat","addr:postcode":"08940","addr:street":"Carrer del Cirerer","amenity":"recycling","recycling:cans":"yes","recycling:glass_bottles":"yes","recycling:paper":"yes","recycling:plastic":"yes","recycling_type":"container"}},"type":"Feature"},
	{"geometry":{"coordinates":[2.08422,41.366136],"type":"Point"},"properties":{"osm_id":"3832752835","tag":{"addr:city":"Cornell\u00c3\u00a0 de Llobregat","addr:postcode":"08940","addr:street":"Carrer del Cirerer","amenity":"recycling","recycling:cans":"yes","recycling:glass_bottles":"yes","recycling:paper":"yes","recycling:plastic":"yes","recycling_type":"container"}},"type":"Feature"},
	{"geometry":{"coordinates":[2.083493,41.363563],"type":"Point"},"properties":{"osm_id":"3833681502","tag":{"addr:city":"Cornell\u00c3\u00a0 de Llobregat","addr:postcode":"08940","addr:street":"Avinguda de Sant Ildefons","amenity":"recycling","recycling:cans":"yes","recycling:glass_bottles":"yes","recycling:paper":"yes","recycling:plastic":"yes","recycling_type":"container"}},"type":"Feature"},
	{"geometry":{"coordinates":[2.085513,41.363855],"type":"Point"},"properties":{"osm_id":"3833696147","tag":{"addr:city":"Cornell\u00c3\u00a0 de Llobregat","addr:postcode":"08940","addr:street":"Avinguda de la Rep\u00c3\u00bablica Argentina","amenity":"recycling","recycling:cans":"yes","recycling:glass_bottles":"yes","recycling:paper":"yes","recycling:plastic":"yes","recycling_type":"container"}},"type":"Feature"},
	{"geometry":{"coordinates":[2.080902,41.360167],"type":"Point"},"properties":{"osm_id":"3834712567","tag":{"addr:city":"Cornell\u00c3\u00a0 de Llobregat","addr:postcode":"08940","addr:street":"Avinguda de Sant Ildefons","amenity":"recycling","recycling:cans":"yes","recycling:glass_bottles":"yes","recycling:paper":"yes","recycling:plastic":"yes","recycling_type":"container"}},"type":"Feature"},
	{"geometry":{"coordinates":[2.079903,41.361716],"type":"Point"},"properties":{"osm_id":"3864266261","tag":{"addr:city":"Cornell\u00c3\u00a0 de Llobregat","addr:postcode":"08940","addr:street":"Carrer de Campfasso","amenity":"recycling","recycling:cans":"yes","recycling:glass_bottles":"yes","recycling:paper":"yes","recycling:plastic":"yes","recycling_type":"container"}},"type":"Feature"},
	{"geometry":{"coordinates":[2.07925,41.357952],"type":"Point"},"properties":{"osm_id":"3867443683","tag":{"addr:city":"Cornell\u00c3\u00a0 de Llobregat","addr:postcode":"08940","addr:street":"Avinguda de Salvador Allende","amenity":"recycling","recycling:cans":"yes","recycling:glass_bottles":"yes","recycling:paper":"yes","recycling:plastic":"yes"}},"type":"Feature"},
	{"geometry":{"coordinates":[2.079911,41.359974],"type":"Point"},"properties":{"osm_id":"3868179149","tag":{"amenity":"recycling","recycling:cans":"yes","recycling:glass_bottles":"yes","recycling:paper":"yes","recycling:plastic":"yes","recycling_type":"container"}},"type":"Feature"},
	{"geometry":{"coordinates":[2.070761,41.357747],"type":"Point"},"properties":{"osm_id":"3942062672","tag":{"addr:city":"Cornell\u00c3\u00a0 de Llobregat","addr:postcode":"08940","amenity":"recycling","recycling:cans":"yes","recycling:glass_bottles":"yes","recycling:paper":"yes","recycling:plastic":"yes","recycling_type":"container"}},"type":"Feature"},
	{"geometry":{"coordinates":[2.077606,41.363217],"type":"Point"},"properties":{"osm_id":"4469454871","tag":{"addr:city":"Cornell\u00c3\u00a0 de Llobregat","addr:postcode":"08940","addr:street":"Carrer dels Catalans","amenity":"recycling","recycling:beverage_cartons":"yes","recycling:books":"yes","recycling:cans":"yes","recycling:cardboard":"yes","recycling:cartons":"yes","recycling:glass_bottles":"yes","recycling:newspaper":"yes","recycling:organic":"yes","recycling:paper":"yes","recycling:paper_packaging":"yes","recycling:plastic":"yes","recycling:plastic_bottles":"yes","recycling:plastic_packaging":"yes","recycling:waste":"yes"}},"type":"Feature"},
	{"geometry":{"coordinates":[2.075929,41.356756],"type":"Point"},"properties":{"osm_id":"4761386393","tag":{"amenity":"recycling","recycling:cans":"yes","recycling:glass_bottles":"yes","recycling:paper":"yes","recycling:plastic":"yes","recycling_type":"container"}},"type":"Feature"},
	{"geometry":{"coordinates":[2.046527,41.339478],"type":"Point"},"properties":{"osm_id":"4794074009","tag":{"amenity":"recycling","opening_hours":"24/7","operator":"Ajuntament Sant Boi de Llobregat","recycling:cans":"yes","recycling:cardboard":"yes","recycling:glass_bottles":"yes","recycling:green_waste":"yes","recycling:paper":"yes","recycling:plastic":"yes","recycling:plastic_bottles":"yes","recycling:plastic_packaging":"yes","recycling:waste":"yes","recycling_type":"container"}},"type":"Feature"},
	{"geometry":{"coordinates":[2.046502,41.339496],"type":"Point"},"properties":{"osm_id":"4794074010","tag":{"amenity":"recycling","opening_hours":"24/7","operator":"Ajuntament Sant Boi de Llobregat","recycling:cans":"yes","recycling:cardboard":"yes","recycling:glass_bottles":"yes","recycling:green_waste":"yes","recycling:paper":"yes","recycling:plastic":"yes","recycling:plastic_bottles":"yes","recycling:plastic_packaging":"yes","recycling:waste":"yes","recycling_type":"container"}},"type":"Feature"},
	{"geometry":{"coordinates":[2.046541,41.339468],"type":"Point"},"properties":{"osm_id":"4794074011","tag":{"amenity":"recycling","opening_hours":"24/7","operator":"Ajuntament Sant Boi de Llobregat","recycling:cans":"yes","recycling:cardboard":"yes","recycling:glass_bottles":"yes","recycling:green_waste":"yes","recycling:paper":"yes","recycling:plastic":"yes","recycling:plastic_bottles":"yes","recycling:plastic_packaging":"yes","recycling:waste":"yes","recycling_type":"container"}},"type":"Feature"},
	{"geometry":{"coordinates":[2.046517,41.339487],"type":"Point"},"properties":{"osm_id":"4794074012","tag":{"amenity":"recycling","opening_hours":"24/7","operator":"Ajuntament Sant Boi de Llobregat","recycling:cans":"yes","recycling:cardboard":"yes","recycling:glass_bottles":"yes","recycling:green_waste":"yes","recycling:paper":"yes","recycling:plastic":"yes","recycling:plastic_bottles":"yes","recycling:plastic_packaging":"yes","recycling:waste":"yes","recycling_type":"container"}},"type":"Feature"},
	{"geometry":{"coordinates":[2.046491,41.339505],"type":"Point"},"properties":{"osm_id":"4794074013","tag":{"amenity":"recycling","opening_hours":"24/7","operator":"Ajuntament Sant Boi de Llobregat","recycling:cans":"yes","recycling:cardboard":"yes","recycling:glass_bottles":"yes","recycling:green_waste":"yes","recycling:paper":"yes","recycling:plastic":"yes","recycling:plastic_bottles":"yes","recycling:plastic_packaging":"yes","recycling:waste":"yes","recycling_type":"container"}},"type":"Feature"},
	{"geometry":{"coordinates":[2.078949,41.341869],"type":"Point"},"properties":{"osm_id":"4794074014","tag":{"amenity":"recycling","opening_hours":"24/7","operator":"Ajuntament Sant Boi de Llobregat","recycling:cardboard":"yes","recycling:glass_bottles":"yes","recycling:green_waste":"yes","recycling:paper":"yes","recycling:plastic":"yes","recycling:plastic_bottles":"yes","recycling:plastic_packaging":"yes","recycling:waste":"yes","recycling_type":"container"}},"type":"Feature"},
	{"geometry":{"coordinates":[2.078914,41.341872],"type":"Point"},"properties":{"osm_id":"4794074015","tag":{"amenity":"recycling","opening_hours":"24/7","operator":"Ajuntament Sant Boi de Llobregat","recycling:cardboard":"yes","recycling:glass_bottles":"yes","recycling:green_waste":"yes","recycling:paper":"yes","recycling:plastic":"yes","recycling:plastic_bottles":"yes","recycling:plastic_packaging":"yes","recycling:waste":"yes","recycling_type":"container"}},"type":"Feature"},
	{"geometry":{"coordinates":[2.078882,41.341874],"type":"Point"},"properties":{"osm_id":"4794074016","tag":{"amenity":"recycling","opening_hours":"24/7","operator":"Ajuntament Sant Boi de Llobregat","recycling:cardboard":"yes","recycling:glass_bottles":"yes","recycling:green_waste":"yes","recycling:paper":"yes","recycling:plastic":"yes","recycling:plastic_bottles":"yes","recycling:plastic_packaging":"yes","recycling:waste":"yes","recycling_type":"container"}},"type":"Feature"},
	{"geometry":{"coordinates":[2.077359,41.359138],"type":"Point"},"properties":{"osm_id":"5121568840","tag":{"amenity":"recycling","recycling_type":"container"}},"type":"Feature"},
	{"geometry":{"coordinates":[2.039181,41.335056],"type":"Point"},"properties":{"osm_id":"5157213355","tag":{"amenity":"recycling","operator":"Ajuntament Sant Boi de Llobregat","recycling:waste":"yes","recycling_type":"container","wheelchair":"no"}},"type":"Feature"},
	{"geometry":{"coordinates":[2.039169,41.335047],"type":"Point"},"properties":{"osm_id":"5157213356","tag":{"amenity":"recycling","operator":"Ajuntament Sant Boi de Llobregat","recycling:waste":"yes","recycling_type":"container","wheelchair":"no"}},"type":"Feature"},
	{"geometry":{"coordinates":[2.039157,41.335038],"type":"Point"},"properties":{"osm_id":"5157213357","tag":{"amenity":"recycling","operator":"Ajuntament Sant Boi de Llobregat","recycling:green_waste":"yes","recycling_type":"container","wheelchair":"no"}},"type":"Feature"},
	{"geometry":{"coordinates":[2.039145,41.335028],"type":"Point"},"properties":{"osm_id":"5157213358","tag":{"amenity":"recycling","operator":"Ajuntament Sant Boi de Llobregat","recycling:plastic_bottles":"yes","recycling:plastic_packaging":"yes","recycling_type":"container","wheelchair":"no"}},"type":"Feature"},
	{"geometry":{"coordinates":[2.039133,41.335019],"type":"Point"},"properties":{"osm_id":"5157213359","tag":{"amenity":"recycling","operator":"Ajuntament Sant Boi de Llobregat","recycling:glass_bottles":"yes","recycling_type":"container","wheelchair":"no"}},"type":"Feature"},
	{"geometry":{"coordinates":[2.039121,41.33501],"type":"Point"},"properties":{"osm_id":"5157213360","tag":{"amenity":"recycling","operator":"Ajuntament Sant Boi de Llobregat","recycling:paper":"yes","recycling_type":"container","wheelchair":"no"}},"type":"Feature"},
	{"geometry":{"coordinates":[2.038484,41.334523],"type":"Point"},"properties":{"osm_id":"5157213361","tag":{"amenity":"recycling","operator":"Ajuntament Sant Boi de Llobregat","recycling:waste":"yes","recycling_type":"container","wheelchair":"no"}},"type":"Feature"},
	{"geometry":{"coordinates":[2.038472,41.334515],"type":"Point"},"properties":{"osm_id":"5157213362","tag":{"amenity":"recycling","operator":"Ajuntament Sant Boi de Llobregat","recycling:green_waste":"yes","recycling_type":"container","wheelchair":"no"}},"type":"Feature"},
	{"geometry":{"coordinates":[2.03846,41.334506],"type":"Point"},"properties":{"osm_id":"5157213363","tag":{"amenity":"recycling","operator":"Ajuntament Sant Boi de Llobregat","recycling:plastic_bottles":"yes","recycling:plastic_packaging":"yes","recycling_type":"container","wheelchair":"no"}},"type":"Feature"},
	{"geometry":{"coordinates":[2.038448,41.334497],"type":"Point"},"properties":{"osm_id":"5157213364","tag":{"amenity":"recycling","operator":"Ajuntament Sant Boi de Llobregat","recycling:glass_bottles":"yes","recycling_type":"container","wheelchair":"no"}},"type":"Feature"},
	{"geometry":{"coordinates":[2.038436,41.334488],"type":"Point"},"properties":{"osm_id":"5157213365","tag":{"amenity":"recycling","operator":"Ajuntament Sant Boi de Llobregat","recycling:paper":"yes","recycling_type":"container","wheelchair":"no"}},"type":"Feature"},
	{"geometry":{"coordinates":[2.03749,41.33381],"type":"Point"},"properties":{"osm_id":"5157213366","tag":{"amenity":"recycling","operator":"Ajuntament Sant Boi de Llobregat","recycling:waste":"yes","recycling_type":"container","wheelchair":"no"}},"type":"Feature"},
	{"geometry":{"coordinates":[2.037501,41.33382],"type":"Point"},"properties":{"osm_id":"5157213367","tag":{"amenity":"recycling","operator":"Ajuntament Sant Boi de Llobregat","recycling:green_waste":"yes","recycling_type":"container","wheelchair":"no"}},"type":"Feature"},
	{"geometry":{"coordinates":[2.036809,41.333313],"type":"Point"},"properties":{"osm_id":"5157213368","tag":{"amenity":"recycling","operator":"Ajuntament Sant Boi de Llobregat","recycling:waste":"yes","recycling_type":"container","wheelchair":"no"}},"type":"Feature"},
	{"geometry":{"coordinates":[2.036798,41.333304],"type":"Point"},"properties":{"osm_id":"5157213369","tag":{"amenity":"recycling","operator":"Ajuntament Sant Boi de Llobregat","recycling:green_waste":"yes","recycling_type":"container","wheelchair":"no"}},"type":"Feature"},
	{"geometry":{"coordinates":[2.036786,41.333295],"type":"Point"},"properties":{"osm_id":"5157213370","tag":{"amenity":"recycling","operator":"Ajuntament Sant Boi de Llobregat","recycling:plastic_bottles":"yes","recycling:plastic_packaging":"yes","recycling_type":"container","wheelchair":"no"}},"type":"Feature"},
	{"geometry":{"coordinates":[2.036774,41.333286],"type":"Point"},"properties":{"osm_id":"5157213371","tag":{"amenity":"recycling","operator":"Ajuntament Sant Boi de Llobregat","recycling:glass_bottles":"yes","recycling_type":"container","wheelchair":"no"}},"type":"Feature"},
	{"geometry":{"coordinates":[2.036762,41.333277],"type":"Point"},"properties":{"osm_id":"5157213372","tag":{"amenity":"recycling","operator":"Ajuntament Sant Boi de Llobregat","recycling:paper":"yes","recycling_type":"container","wheelchair":"no"}},"type":"Feature"},
	{"geometry":{"coordinates":[2.03612,41.332828],"type":"Point"},"properties":{"osm_id":"5157213373","tag":{"amenity":"recycling","operator":"Ajuntament Sant Boi de Llobregat","recycling:waste":"yes","recycling_type":"container","wheelchair":"no"}},"type":"Feature"},
	{"geometry":{"coordinates":[2.03611,41.332818],"type":"Point"},"properties":{"osm_id":"5157213374","tag":{"amenity":"recycling","operator":"Ajuntament Sant Boi de Llobregat","recycling:green_waste":"yes","recycling_type":"container","wheelchair":"no"}},"type":"Feature"},
	{"geometry":{"coordinates":[2.036099,41.332808],"type":"Point"},"properties":{"osm_id":"5157213375","tag":{"amenity":"recycling","operator":"Ajuntament Sant Boi de Llobregat","recycling:plastic_bottles":"yes","recycling:plastic_packaging":"yes","recycling_type":"container","wheelchair":"no"}},"type":"Feature"},
	{"geometry":{"coordinates":[2.036089,41.332799],"type":"Point"},"properties":{"osm_id":"5157213376","tag":{"amenity":"recycling","operator":"Ajuntament Sant Boi de Llobregat","recycling:glass_bottles":"yes","recycling_type":"container","wheelchair":"no"}},"type":"Feature"},
	{"geometry":{"coordinates":[2.036079,41.332789],"type":"Point"},"properties":{"osm_id":"5157213377","tag":{"amenity":"recycling","operator":"Ajuntament Sant Boi de Llobregat","recycling:paper":"yes","recycling_type":"container","wheelchair":"no"}},"type":"Feature"},
	{"geometry":{"coordinates":[2.03461,41.332982],"type":"Point"},"properties":{"osm_id":"5157213378","tag":{"amenity":"recycling","operator":"Ajuntament Sant Boi de Llobregat","recycling:waste":"yes","recycling_type":"container","wheelchair":"no"}},"type":"Feature"},
	{"geometry":{"coordinates":[2.034622,41.332973],"type":"Point"},"properties":{"osm_id":"5157213379","tag":{"amenity":"recycling","operator":"Ajuntament Sant Boi de Llobregat","recycling:green_waste":"yes","recycling_type":"container","wheelchair":"no"}},"type":"Feature"},
	{"geometry":{"coordinates":[2.036952,41.335031],"type":"Point"},"properties":{"osm_id":"5157213380","tag":{"amenity":"recycling","operator":"Ajuntament Sant Boi de Llobregat","recycling:waste":"yes","recycling_type":"container","wheelchair":"no"}},"type":"Feature"},
	{"geometry":{"coordinates":[2.036965,41.33504],"type":"Point"},"properties":{"osm_id":"5157213381","tag":{"amenity":"recycling","operator":"Ajuntament Sant Boi de Llobregat","recycling:green_waste":"yes","recycling_type":"container","wheelchair":"no"}},"type":"Feature"},
	{"geometry":{"coordinates":[2.036977,41.335048],"type":"Point"},"properties":{"osm_id":"5157213382","tag":{"amenity":"recycling","operator":"Ajuntament Sant Boi de Llobregat","recycling:plastic_bottles":"yes","recycling:plastic_packaging":"yes","recycling_type":"container","wheelchair":"no"}},"type":"Feature"},
	{"geometry":{"coordinates":[2.03699,41.335056],"type":"Point"},"properties":{"osm_id":"5157213383","tag":{"amenity":"recycling","operator":"Ajuntament Sant Boi de Llobregat","recycling:glass_bottles":"yes","recycling_type":"container","wheelchair":"no"}},"type":"Feature"},
	{"geometry":{"coordinates":[2.037002,41.335065],"type":"Point"},"properties":{"osm_id":"5157213384","tag":{"amenity":"recycling","operator":"Ajuntament Sant Boi de Llobregat","recycling:paper":"yes","recycling_type":"container","wheelchair":"no"}},"type":"Feature"},
	{"geometry":{"coordinates":[2.037481,41.335589],"type":"Point"},"properties":{"osm_id":"5157213385","tag":{"amenity":"recycling","operator":"Ajuntament Sant Boi de Llobregat","recycling:waste":"yes","recycling_type":"container","wheelchair":"no"}},"type":"Feature"},
	{"geometry":{"coordinates":[2.037469,41.33558],"type":"Point"},"properties":{"osm_id":"5157213386","tag":{"amenity":"recycling","operator":"Ajuntament Sant Boi de Llobregat","recycling:green_waste":"yes","recycling_type":"container","wheelchair":"no"}},"type":"Feature"},
	{"geometry":{"coordinates":[2.037457,41.335571],"type":"Point"},"properties":{"osm_id":"5157213387","tag":{"amenity":"recycling","operator":"Ajuntament Sant Boi de Llobregat","recycling:plastic_bottles":"yes","recycling:plastic_packaging":"yes","recycling_type":"container","wheelchair":"no"}},"type":"Feature"},
	{"geometry":{"coordinates":[2.037445,41.335563],"type":"Point"},"properties":{"osm_id":"5157213388","tag":{"amenity":"recycling","operator":"Ajuntament Sant Boi de Llobregat","recycling:glass_bottles":"yes","recycling_type":"container","wheelchair":"no"}},"type":"Feature"},
	{"geometry":{"coordinates":[2.037433,41.335554],"type":"Point"},"properties":{"osm_id":"5157213389","tag":{"amenity":"recycling","operator":"Ajuntament Sant Boi de Llobregat","recycling:paper":"yes","recycling_type":"container","wheelchair":"no"}},"type":"Feature"},
	{"geometry":{"coordinates":[2.036917,41.335205],"type":"Point"},"properties":{"osm_id":"5157213390","tag":{"amenity":"recycling","operator":"Ajuntament Sant Boi de Llobregat","recycling:waste":"yes","recycling_type":"container","wheelchair":"no"}},"type":"Feature"},
	{"geometry":{"coordinates":[2.036904,41.335196],"type":"Point"},"properties":{"osm_id":"5157213391","tag":{"amenity":"recycling","operator":"Ajuntament Sant Boi de Llobregat","recycling:green_waste":"yes","recycling_type":"container","wheelchair":"no"}},"type":"Feature"},
	{"geometry":{"coordinates":[2.036892,41.335188],"type":"Point"},"properties":{"osm_id":"5157213392","tag":{"amenity":"recycling","operator":"Ajuntament Sant Boi de Llobregat","recycling:plastic_bottles":"yes","recycling:plastic_packaging":"yes","recycling_type":"container","wheelchair":"no"}},"type":"Feature"},
	{"geometry":{"coordinates":[2.03688,41.335179],"type":"Point"},"properties":{"osm_id":"5157213393","tag":{"amenity":"recycling","operator":"Ajuntament Sant Boi de Llobregat","recycling:glass_bottles":"yes","recycling_type":"container","wheelchair":"no"}},"type":"Feature"},
	{"geometry":{"coordinates":[2.036867,41.335171],"type":"Point"},"properties":{"osm_id":"5157213394","tag":{"amenity":"recycling","operator":"Ajuntament Sant Boi de Llobregat","recycling:paper":"yes","recycling_type":"container","wheelchair":"no"}},"type":"Feature"},
	{"geometry":{"coordinates":[2.036063,41.334627],"type":"Point"},"properties":{"osm_id":"5157213395","tag":{"amenity":"recycling","operator":"Ajuntament Sant Boi de Llobregat","recycling:waste":"yes","recycling_type":"container","wheelchair":"no"}},"type":"Feature"},
	{"geometry":{"coordinates":[2.036075,41.334636],"type":"Point"},"properties":{"osm_id":"5157213396","tag":{"amenity":"recycling","operator":"Ajuntament Sant Boi de Llobregat","recycling:green_waste":"yes","recycling_type":"container","wheelchair":"no"}},"type":"Feature"},
	{"geometry":{"coordinates":[2.035136,41.334],"type":"Point"},"properties":{"osm_id":"5157213397","tag":{"amenity":"recycling","operator":"Ajuntament Sant Boi de Llobregat","recycling:waste":"yes","recycling_type":"container","wheelchair":"no"}},"type":"Feature"},
	{"geometry":{"coordinates":[2.035148,41.334009],"type":"Point"},"properties":{"osm_id":"5157213398","tag":{"amenity":"recycling","operator":"Ajuntament Sant Boi de Llobregat","recycling:green_waste":"yes","recycling_type":"container","wheelchair":"no"}},"type":"Feature"},
	{"geometry":{"coordinates":[2.035601,41.334317],"type":"Point"},"properties":{"osm_id":"5157213399","tag":{"amenity":"recycling","operator":"Ajuntament Sant Boi de Llobregat","recycling:waste":"yes","recycling_type":"container","wheelchair":"no"}},"type":"Feature"},
	{"geometry":{"coordinates":[2.03559,41.334308],"type":"Point"},"properties":{"osm_id":"5157213400","tag":{"amenity":"recycling","operator":"Ajuntament Sant Boi de Llobregat","recycling:green_waste":"yes","recycling_type":"container","wheelchair":"no"}},"type":"Feature"},
	{"geometry":{"coordinates":[2.035578,41.334299],"type":"Point"},"properties":{"osm_id":"5157213401","tag":{"amenity":"recycling","operator":"Ajuntament Sant Boi de Llobregat","recycling:plastic_bottles":"yes","recycling:plastic_packaging":"yes","recycling_type":"container","wheelchair":"no"}},"type":"Feature"},
	{"geometry":{"coordinates":[2.035566,41.33429],"type":"Point"},"properties":{"osm_id":"5157213402","tag":{"amenity":"recycling","operator":"Ajuntament Sant Boi de Llobregat","recycling:glass_bottles":"yes","recycling_type":"container","wheelchair":"no"}},"type":"Feature"},
	{"geometry":{"coordinates":[2.035554,41.334282],"type":"Point"},"properties":{"osm_id":"5157213403","tag":{"amenity":"recycling","operator":"Ajuntament Sant Boi de Llobregat","recycling:paper":"yes","recycling_type":"container","wheelchair":"no"}},"type":"Feature"},
	{"geometry":{"coordinates":[2.034592,41.335183],"type":"Point"},"properties":{"osm_id":"5157213404","tag":{"amenity":"recycling","operator":"Ajuntament Sant Boi de Llobregat","recycling:waste":"yes","recycling_type":"container","wheelchair":"no"}},"type":"Feature"},
	{"geometry":{"coordinates":[2.034591,41.335195],"type":"Point"},"properties":{"osm_id":"5157213405","tag":{"amenity":"recycling","operator":"Ajuntament Sant Boi de Llobregat","recycling:green_waste":"yes","recycling_type":"container","wheelchair":"no"}},"type":"Feature"},
	{"geometry":{"coordinates":[2.034574,41.334738],"type":"Point"},"properties":{"osm_id":"5157213406","tag":{"amenity":"recycling","operator":"Ajuntament Sant Boi de Llobregat","recycling:waste":"yes","recycling_type":"container","wheelchair":"no"}},"type":"Feature"},
	{"geometry":{"coordinates":[2.034574,41.334751],"type":"Point"},"properties":{"osm_id":"5157213407","tag":{"amenity":"recycling","operator":"Ajuntament Sant Boi de Llobregat","recycling:green_waste":"yes","recycling_type":"container","wheelchair":"no"}},"type":"Feature"},
	{"geometry":{"coordinates":[2.034573,41.334763],"type":"Point"},"properties":{"osm_id":"5157213408","tag":{"amenity":"recycling","operator":"Ajuntament Sant Boi de Llobregat","recycling:plastic_bottles":"yes","recycling:plastic_packaging":"yes","recycling_type":"container","wheelchair":"no"}},"type":"Feature"},
	{"geometry":{"coordinates":[2.034572,41.334776],"type":"Point"},"properties":{"osm_id":"5157213409","tag":{"amenity":"recycling","operator":"Ajuntament Sant Boi de Llobregat","recycling:glass_bottles":"yes","recycling_type":"container","wheelchair":"no"}},"type":"Feature"},
	{"geometry":{"coordinates":[2.034572,41.334788],"type":"Point"},"properties":{"osm_id":"5157213410","tag":{"amenity":"recycling","operator":"Ajuntament Sant Boi de Llobregat","recycling:paper":"yes","recycling_type":"container","wheelchair":"no"}},"type":"Feature"},
	{"geometry":{"coordinates":[2.034636,41.336072],"type":"Point"},"properties":{"osm_id":"5157213411","tag":{"amenity":"recycling","operator":"Ajuntament Sant Boi de Llobregat","recycling:waste":"yes","recycling_type":"container","wheelchair":"no"}},"type":"Feature"},
	{"geometry":{"coordinates":[2.034636,41.336085],"type":"Point"},"properties":{"osm_id":"5157213412","tag":{"amenity":"recycling","operator":"Ajuntament Sant Boi de Llobregat","recycling:green_waste":"yes","recycling_type":"container","wheelchair":"no"}},"type":"Feature"},
	{"geometry":{"coordinates":[2.034635,41.336097],"type":"Point"},"properties":{"osm_id":"5157213413","tag":{"amenity":"recycling","operator":"Ajuntament Sant Boi de Llobregat","recycling:plastic_bottles":"yes","recycling:plastic_packaging":"yes","recycling_type":"container","wheelchair":"no"}},"type":"Feature"},
	{"geometry":{"coordinates":[2.034634,41.33611],"type":"Point"},"properties":{"osm_id":"5157213414","tag":{"amenity":"recycling","operator":"Ajuntament Sant Boi de Llobregat","recycling:glass_bottles":"yes","recycling_type":"container","wheelchair":"no"}},"type":"Feature"},
	{"geometry":{"coordinates":[2.034634,41.336122],"type":"Point"},"properties":{"osm_id":"5157213415","tag":{"amenity":"recycling","operator":"Ajuntament Sant Boi de Llobregat","recycling:paper":"yes","recycling_type":"container","wheelchair":"no"}},"type":"Feature"},
	{"geometry":{"coordinates":[2.034662,41.336713],"type":"Point"},"properties":{"osm_id":"5157213416","tag":{"amenity":"recycling","operator":"Ajuntament Sant Boi de Llobregat","recycling:waste":"yes","recycling_type":"container","wheelchair":"no"}},"type":"Feature"},
	{"geometry":{"coordinates":[2.034661,41.336726],"type":"Point"},"properties":{"osm_id":"5157213417","tag":{"amenity":"recycling","operator":"Ajuntament Sant Boi de Llobregat","recycling:green_waste":"yes","recycling_type":"container","wheelchair":"no"}},"type":"Feature"},
	{"geometry":{"coordinates":[2.034661,41.336738],"type":"Point"},"properties":{"osm_id":"5157213418","tag":{"amenity":"recycling","operator":"Ajuntament Sant Boi de Llobregat","recycling:plastic_bottles":"yes","recycling:plastic_packaging":"yes","recycling_type":"container","wheelchair":"no"}},"type":"Feature"},
	{"geometry":{"coordinates":[2.03466,41.336751],"type":"Point"},"properties":{"osm_id":"5157213419","tag":{"amenity":"recycling","operator":"Ajuntament Sant Boi de Llobregat","recycling:glass_bottles":"yes","recycling_type":"container","wheelchair":"no"}},"type":"Feature"},
	{"geometry":{"coordinates":[2.03466,41.336764],"type":"Point"},"properties":{"osm_id":"5157213420","tag":{"amenity":"recycling","operator":"Ajuntament Sant Boi de Llobregat","recycling:paper":"yes","recycling_type":"container","wheelchair":"no"}},"type":"Feature"},
	{"geometry":{"coordinates":[2.034713,41.333715],"type":"Point"},"properties":{"osm_id":"5157214321","tag":{"amenity":"recycling","operator":"Ajuntament Sant Boi de Llobregat","recycling:waste":"yes","recycling_type":"container","wheelchair":"no"}},"type":"Feature"},
	{"geometry":{"coordinates":[2.0347,41.333707],"type":"Point"},"properties":{"osm_id":"5157214322","tag":{"amenity":"recycling","operator":"Ajuntament Sant Boi de Llobregat","recycling:green_waste":"yes","recycling_type":"container","wheelchair":"no"}},"type":"Feature"},
	{"geometry":{"coordinates":[2.034687,41.333699],"type":"Point"},"properties":{"osm_id":"5157214323","tag":{"amenity":"recycling","operator":"Ajuntament Sant Boi de Llobregat","recycling:plastic_bottles":"yes","recycling:plastic_packaging":"yes","recycling_type":"container","wheelchair":"no"}},"type":"Feature"},
	{"geometry":{"coordinates":[2.034674,41.333691],"type":"Point"},"properties":{"osm_id":"5157214324","tag":{"amenity":"recycling","operator":"Ajuntament Sant Boi de Llobregat","recycling:glass_bottles":"yes","recycling_type":"container","wheelchair":"no"}},"type":"Feature"},
	{"geometry":{"coordinates":[2.034661,41.333683],"type":"Point"},"properties":{"osm_id":"5157214325","tag":{"amenity":"recycling","operator":"Ajuntament Sant Boi de Llobregat","recycling:paper":"yes","recycling_type":"container","wheelchair":"no"}},"type":"Feature"},
	{"geometry":{"coordinates":[2.032878,41.334502],"type":"Point"},"properties":{"osm_id":"5157214326","tag":{"amenity":"recycling","operator":"Ajuntament Sant Boi de Llobregat","recycling:waste":"yes","recycling_type":"container","wheelchair":"no"}},"type":"Feature"},
	{"geometry":{"coordinates":[2.032869,41.334513],"type":"Point"},"properties":{"osm_id":"5157214327","tag":{"amenity":"recycling","operator":"Ajuntament Sant Boi de Llobregat","recycling:green_waste":"yes","recycling_type":"container","wheelchair":"no"}},"type":"Feature"},
	{"geometry":{"coordinates":[2.03286,41.334523],"type":"Point"},"properties":{"osm_id":"5157214328","tag":{"amenity":"recycling","operator":"Ajuntament Sant Boi de Llobregat","recycling:plastic_bottles":"yes","recycling:plastic_packaging":"yes","recycling_type":"container","wheelchair":"no"}},"type":"Feature"},
	{"geometry":{"coordinates":[2.03285,41.334534],"type":"Point"},"properties":{"osm_id":"5157214329","tag":{"amenity":"recycling","operator":"Ajuntament Sant Boi de Llobregat","recycling:glass_bottles":"yes","recycling_type":"container","wheelchair":"no"}},"type":"Feature"},
	{"geometry":{"coordinates":[2.032841,41.334544],"type":"Point"},"properties":{"osm_id":"5157214330","tag":{"amenity":"recycling","operator":"Ajuntament Sant Boi de Llobregat","recycling:paper":"yes","recycling_type":"container","wheelchair":"no"}},"type":"Feature"},
	{"geometry":{"coordinates":[2.031929,41.335032],"type":"Point"},"properties":{"osm_id":"5157214331","tag":{"amenity":"recycling","operator":"Ajuntament Sant Boi de Llobregat","recycling:waste":"yes","recycling_type":"container","wheelchair":"no"}},"type":"Feature"},
	{"geometry":{"coordinates":[2.031914,41.335038],"type":"Point"},"properties":{"osm_id":"5157214332","tag":{"amenity":"recycling","operator":"Ajuntament Sant Boi de Llobregat","recycling:green_waste":"yes","recycling_type":"container","wheelchair":"no"}},"type":"Feature"},
	{"geometry":{"coordinates":[2.0319,41.335045],"type":"Point"},"properties":{"osm_id":"5157214333","tag":{"amenity":"recycling","operator":"Ajuntament Sant Boi de Llobregat","recycling:plastic_bottles":"yes","recycling:plastic_packaging":"yes","recycling_type":"container","wheelchair":"no"}},"type":"Feature"},
	{"geometry":{"coordinates":[2.031885,41.335051],"type":"Point"},"properties":{"osm_id":"5157214334","tag":{"amenity":"recycling","operator":"Ajuntament Sant Boi de Llobregat","recycling:glass_bottles":"yes","recycling_type":"container","wheelchair":"no"}},"type":"Feature"},
	{"geometry":{"coordinates":[2.031871,41.335058],"type":"Point"},"properties":{"osm_id":"5157214335","tag":{"amenity":"recycling","operator":"Ajuntament Sant Boi de Llobregat","recycling:paper":"yes","recycling_type":"container","wheelchair":"no"}},"type":"Feature"},
	{"geometry":{"coordinates":[2.030912,41.335523],"type":"Point"},"properties":{"osm_id":"5157214336","tag":{"amenity":"recycling","operator":"Ajuntament Sant Boi de Llobregat","recycling:waste":"yes","recycling_type":"container","wheelchair":"no"}},"type":"Feature"},
	{"geometry":{"coordinates":[2.030898,41.335529],"type":"Point"},"properties":{"osm_id":"5157214337","tag":{"amenity":"recycling","operator":"Ajuntament Sant Boi de Llobregat","recycling:green_waste":"yes","recycling_type":"container","wheelchair":"no"}},"type":"Feature"},
	{"geometry":{"coordinates":[2.030883,41.335536],"type":"Point"},"properties":{"osm_id":"5157214338","tag":{"amenity":"recycling","operator":"Ajuntament Sant Boi de Llobregat","recycling:plastic_bottles":"yes","recycling:plastic_packaging":"yes","recycling_type":"container","wheelchair":"no"}},"type":"Feature"},
	{"geometry":{"coordinates":[2.030869,41.335542],"type":"Point"},"properties":{"osm_id":"5157214339","tag":{"amenity":"recycling","operator":"Ajuntament Sant Boi de Llobregat","recycling:glass_bottles":"yes","recycling_type":"container","wheelchair":"no"}},"type":"Feature"},
	{"geometry":{"coordinates":[2.030855,41.335549],"type":"Point"},"properties":{"osm_id":"5157214340","tag":{"amenity":"recycling","operator":"Ajuntament Sant Boi de Llobregat","recycling:paper":"yes","recycling_type":"container","wheelchair":"no"}},"type":"Feature"},
	{"geometry":{"coordinates":[2.030172,41.336347],"type":"Point"},"properties":{"osm_id":"5157214341","tag":{"amenity":"recycling","operator":"Ajuntament Sant Boi de Llobregat","recycling:plastic_bottles":"yes","recycling:plastic_packaging":"yes","recycling_type":"container","wheelchair":"no"}},"type":"Feature"},
	{"geometry":{"coordinates":[2.030171,41.336359],"type":"Point"},"properties":{"osm_id":"5157214342","tag":{"amenity":"recycling","operator":"Ajuntament Sant Boi de Llobregat","recycling:glass_bottles":"yes","recycling_type":"container","wheelchair":"no"}},"type":"Feature"},
	{"geometry":{"coordinates":[2.030171,41.336372],"type":"Point"},"properties":{"osm_id":"5157214343","tag":{"amenity":"recycling","operator":"Ajuntament Sant Boi de Llobregat","recycling:paper":"yes","recycling_type":"container","wheelchair":"no"}},"type":"Feature"},
	{"geometry":{"coordinates":[2.030173,41.336321],"type":"Point"},"properties":{"osm_id":"5157214344","tag":{"amenity":"recycling","operator":"Ajuntament Sant Boi de Llobregat","recycling:waste":"yes","recycling_type":"container","wheelchair":"no"}},"type":"Feature"},
	{"geometry":{"coordinates":[2.030172,41.336334],"type":"Point"},"properties":{"osm_id":"5157214345","tag":{"amenity":"recycling","operator":"Ajuntament Sant Boi de Llobregat","recycling:green_waste":"yes","recycling_type":"container","wheelchair":"no"}},"type":"Feature"},
	{"geometry":{"coordinates":[2.03244,41.336003],"type":"Point"},"properties":{"osm_id":"5157214346","tag":{"amenity":"recycling","operator":"Ajuntament Sant Boi de Llobregat","recycling:waste":"yes","recycling_type":"container","wheelchair":"no"}},"type":"Feature"},
	{"geometry":{"coordinates":[2.032459,41.335999],"type":"Point"},"properties":{"osm_id":"5157214347","tag":{"amenity":"recycling","operator":"Ajuntament Sant Boi de Llobregat","recycling:green_waste":"yes","recycling_type":"container","wheelchair":"no"}},"type":"Feature"},
	{"geometry":{"coordinates":[2.033182,41.335871],"type":"Point"},"properties":{"osm_id":"5157214348","tag":{"amenity":"recycling","operator":"Ajuntament Sant Boi de Llobregat","recycling:plastic_bottles":"yes","recycling:plastic_packaging":"yes","recycling_type":"container","wheelchair":"no"}},"type":"Feature"},
	{"geometry":{"coordinates":[2.033197,41.33587],"type":"Point"},"properties":{"osm_id":"5157214349","tag":{"amenity":"recycling","operator":"Ajuntament Sant Boi de Llobregat","recycling:glass_bottles":"yes","recycling_type":"container","wheelchair":"no"}},"type":"Feature"},
	{"geometry":{"coordinates":[2.033211,41.335867],"type":"Point"},"properties":{"osm_id":"5157214350","tag":{"amenity":"recycling","operator":"Ajuntament Sant Boi de Llobregat","recycling:paper":"yes","recycling_type":"container","wheelchair":"no"}},"type":"Feature"},
	{"geometry":{"coordinates":[2.033146,41.335878],"type":"Point"},"properties":{"osm_id":"5157214351","tag":{"amenity":"recycling","operator":"Ajuntament Sant Boi de Llobregat","recycling:waste":"yes","recycling_type":"container","wheelchair":"no"}},"type":"Feature"},
	{"geometry":{"coordinates":[2.033165,41.335875],"type":"Point"},"properties":{"osm_id":"5157214352","tag":{"amenity":"recycling","operator":"Ajuntament Sant Boi de Llobregat","recycling:green_waste":"yes","recycling_type":"container","wheelchair":"no"}},"type":"Feature"},
	{"geometry":{"coordinates":[2.031662,41.336352],"type":"Point"},"properties":{"osm_id":"5157214353","tag":{"amenity":"recycling","operator":"Ajuntament Sant Boi de Llobregat","recycling:waste":"yes","recycling_type":"container","wheelchair":"no"}},"type":"Feature"},
	{"geometry":{"coordinates":[2.03168,41.336345],"type":"Point"},"properties":{"osm_id":"5157214354","tag":{"amenity":"recycling","operator":"Ajuntament Sant Boi de Llobregat","recycling:green_waste":"yes","recycling_type":"container","wheelchair":"no"}},"type":"Feature"},
	{"geometry":{"coordinates":[2.031695,41.336338],"type":"Point"},"properties":{"osm_id":"5157214355","tag":{"amenity":"recycling","operator":"Ajuntament Sant Boi de Llobregat","recycling:plastic_bottles":"yes","recycling:plastic_packaging":"yes","recycling_type":"container","wheelchair":"no"}},"type":"Feature"},
	{"geometry":{"coordinates":[2.031709,41.336333],"type":"Point"},"properties":{"osm_id":"5157214356","tag":{"amenity":"recycling","operator":"Ajuntament Sant Boi de Llobregat","recycling:glass_bottles":"yes","recycling_type":"container","wheelchair":"no"}},"type":"Feature"},
	{"geometry":{"coordinates":[2.031721,41.336328],"type":"Point"},"properties":{"osm_id":"5157214357","tag":{"amenity":"recycling","operator":"Ajuntament Sant Boi de Llobregat","recycling:paper":"yes","recycling_type":"container","wheelchair":"no"}},"type":"Feature"},
	{"geometry":{"coordinates":[2.033582,41.33719],"type":"Point"},"properties":{"osm_id":"5157214358","tag":{"amenity":"recycling","operator":"Ajuntament Sant Boi de Llobregat","recycling:waste":"yes","recycling_type":"container","wheelchair":"no"}},"type":"Feature"},
	{"geometry":{"coordinates":[2.033562,41.337191],"type":"Point"},"properties":{"osm_id":"5157214359","tag":{"amenity":"recycling","operator":"Ajuntament Sant Boi de Llobregat","recycling:green_waste":"yes","recycling_type":"container","wheelchair":"no"}},"type":"Feature"},
	{"geometry":{"coordinates":[2.033546,41.337193],"type":"Point"},"properties":{"osm_id":"5157214360","tag":{"amenity":"recycling","operator":"Ajuntament Sant Boi de Llobregat","recycling:plastic_bottles":"yes","recycling:plastic_packaging":"yes","recycling_type":"container","wheelchair":"no"}},"type":"Feature"},
	{"geometry":{"coordinates":[2.03353,41.337194],"type":"Point"},"properties":{"osm_id":"5157214361","tag":{"amenity":"recycling","operator":"Ajuntament Sant Boi de Llobregat","recycling:glass_bottles":"yes","recycling_type":"container","wheelchair":"no"}},"type":"Feature"},
	{"geometry":{"coordinates":[2.033516,41.337196],"type":"Point"},"properties":{"osm_id":"5157214362","tag":{"amenity":"recycling","operator":"Ajuntament Sant Boi de Llobregat","recycling:paper":"yes","recycling_type":"container","wheelchair":"no"}},"type":"Feature"},
	{"geometry":{"coordinates":[2.032359,41.338087],"type":"Point"},"properties":{"osm_id":"5157214363","tag":{"amenity":"recycling","operator":"Ajuntament Sant Boi de Llobregat","recycling:waste":"yes","recycling_type":"container","wheelchair":"no"}},"type":"Feature"},
	{"geometry":{"coordinates":[2.032363,41.338102],"type":"Point"},"properties":{"osm_id":"5157214364","tag":{"amenity":"recycling","operator":"Ajuntament Sant Boi de Llobregat","recycling:green_waste":"yes","recycling_type":"container","wheelchair":"no"}},"type":"Feature"},
	{"geometry":{"coordinates":[2.032918,41.337286],"type":"Point"},"properties":{"osm_id":"5157214365","tag":{"amenity":"recycling","operator":"Ajuntament Sant Boi de Llobregat","recycling:waste":"yes","recycling_type":"container","wheelchair":"no"}},"type":"Feature"},
	{"geometry":{"coordinates":[2.032899,41.337288],"type":"Point"},"properties":{"osm_id":"5157214366","tag":{"amenity":"recycling","operator":"Ajuntament Sant Boi de Llobregat","recycling:green_waste":"yes","recycling_type":"container","wheelchair":"no"}},"type":"Feature"},
	{"geometry":{"coordinates":[2.032354,41.337369],"type":"Point"},"properties":{"osm_id":"5157214367","tag":{"amenity":"recycling","operator":"Ajuntament Sant Boi de Llobregat","recycling:waste":"yes","recycling_type":"container","wheelchair":"no"}},"type":"Feature"},
	{"geometry":{"coordinates":[2.032335,41.337371],"type":"Point"},"properties":{"osm_id":"5157214368","tag":{"amenity":"recycling","operator":"Ajuntament Sant Boi de Llobregat","recycling:green_waste":"yes","recycling_type":"container","wheelchair":"no"}},"type":"Feature"},
	{"geometry":{"coordinates":[2.032318,41.337374],"type":"Point"},"properties":{"osm_id":"5157214369","tag":{"amenity":"recycling","operator":"Ajuntament Sant Boi de Llobregat","recycling:plastic_bottles":"yes","recycling:plastic_packaging":"yes","recycling_type":"container","wheelchair":"no"}},"type":"Feature"},
	{"geometry":{"coordinates":[2.032302,41.337375],"type":"Point"},"properties":{"osm_id":"5157214370","tag":{"amenity":"recycling","operator":"Ajuntament Sant Boi de Llobregat","recycling:glass_bottles":"yes","recycling_type":"container","wheelchair":"no"}},"type":"Feature"},
	{"geometry":{"coordinates":[2.032288,41.337377],"type":"Point"},"properties":{"osm_id":"5157214371","tag":{"amenity":"recycling","operator":"Ajuntament Sant Boi de Llobregat","recycling:paper":"yes","recycling_type":"container","wheelchair":"no"}},"type":"Feature"},
	{"geometry":{"coordinates":[2.031135,41.337547],"type":"Point"},"properties":{"osm_id":"5157214372","tag":{"amenity":"recycling","operator":"Ajuntament Sant Boi de Llobregat","recycling:waste":"yes","recycling_type":"container","wheelchair":"no"}},"type":"Feature"},
	{"geometry":{"coordinates":[2.031115,41.337548],"type":"Point"},"properties":{"osm_id":"5157214373","tag":{"amenity":"recycling","operator":"Ajuntament Sant Boi de Llobregat","recycling:green_waste":"yes","recycling_type":"container","wheelchair":"no"}},"type":"Feature"},
	{"geometry":{"coordinates":[2.031098,41.337551],"type":"Point"},"properties":{"osm_id":"5157214374","tag":{"amenity":"recycling","operator":"Ajuntament Sant Boi de Llobregat","recycling:plastic_bottles":"yes","recycling:plastic_packaging":"yes","recycling_type":"container","wheelchair":"no"}},"type":"Feature"},
	{"geometry":{"coordinates":[2.031083,41.337552],"type":"Point"},"properties":{"osm_id":"5157214375","tag":{"amenity":"recycling","operator":"Ajuntament Sant Boi de Llobregat","recycling:glass_bottles":"yes","recycling_type":"container","wheelchair":"no"}},"type":"Feature"},
	{"geometry":{"coordinates":[2.031068,41.337554],"type":"Point"},"properties":{"osm_id":"5157214376","tag":{"amenity":"recycling","operator":"Ajuntament Sant Boi de Llobregat","recycling:paper":"yes","recycling_type":"container","wheelchair":"no"}},"type":"Feature"},
	{"geometry":{"coordinates":[2.028679,41.338881],"type":"Point"},"properties":{"osm_id":"5157214377","tag":{"amenity":"recycling","operator":"Ajuntament Sant Boi de Llobregat","recycling:waste":"yes","recycling_type":"container","wheelchair":"no"}},"type":"Feature"},
	{"geometry":{"coordinates":[2.028698,41.338882],"type":"Point"},"properties":{"osm_id":"5157214378","tag":{"amenity":"recycling","operator":"Ajuntament Sant Boi de Llobregat","recycling:green_waste":"yes","recycling_type":"container","wheelchair":"no"}},"type":"Feature"},
	{"geometry":{"coordinates":[2.028716,41.338882],"type":"Point"},"properties":{"osm_id":"5157214379","tag":{"amenity":"recycling","operator":"Ajuntament Sant Boi de Llobregat","recycling:plastic_bottles":"yes","recycling:plastic_packaging":"yes","recycling_type":"container","wheelchair":"no"}},"type":"Feature"},
	{"geometry":{"coordinates":[2.028731,41.338883],"type":"Point"},"properties":{"osm_id":"5157214380","tag":{"amenity":"recycling","operator":"Ajuntament Sant Boi de Llobregat","recycling:glass_bottles":"yes","recycling_type":"container","wheelchair":"no"}},"type":"Feature"},
	{"geometry":{"coordinates":[2.028746,41.338883],"type":"Point"},"properties":{"osm_id":"5157214381","tag":{"amenity":"recycling","operator":"Ajuntament Sant Boi de Llobregat","recycling:paper":"yes","recycling_type":"container","wheelchair":"no"}},"type":"Feature"},
	{"geometry":{"coordinates":[2.031092,41.338585],"type":"Point"},"properties":{"osm_id":"5157214382","tag":{"amenity":"recycling","operator":"Ajuntament Sant Boi de Llobregat","recycling:waste":"yes","recycling_type":"container","wheelchair":"no"}},"type":"Feature"},
	{"geometry":{"coordinates":[2.031111,41.338582],"type":"Point"},"properties":{"osm_id":"5157214383","tag":{"amenity":"recycling","operator":"Ajuntament Sant Boi de Llobregat","recycling:green_waste":"yes","recycling_type":"container","wheelchair":"no"}},"type":"Feature"},
	{"geometry":{"coordinates":[2.031128,41.338579],"type":"Point"},"properties":{"osm_id":"5157214384","tag":{"amenity":"recycling","operator":"Ajuntament Sant Boi de Llobregat","recycling:plastic_bottles":"yes","recycling:plastic_packaging":"yes","recycling_type":"container","wheelchair":"no"}},"type":"Feature"},
	{"geometry":{"coordinates":[2.031144,41.338578],"type":"Point"},"properties":{"osm_id":"5157214385","tag":{"amenity":"recycling","operator":"Ajuntament Sant Boi de Llobregat","recycling:glass_bottles":"yes","recycling_type":"container","wheelchair":"no"}},"type":"Feature"},
	{"geometry":{"coordinates":[2.031157,41.338576],"type":"Point"},"properties":{"osm_id":"5157214386","tag":{"amenity":"recycling","operator":"Ajuntament Sant Boi de Llobregat","recycling:paper":"yes","recycling_type":"container","wheelchair":"no"}},"type":"Feature"},
	{"geometry":{"coordinates":[2.030211,41.338593],"type":"Point"},"properties":{"osm_id":"5157214387","tag":{"amenity":"recycling","operator":"Ajuntament Sant Boi de Llobregat","recycling:waste":"yes","recycling_type":"container","wheelchair":"no"}},"type":"Feature"},
	{"geometry":{"coordinates":[2.030211,41.338608],"type":"Point"},"properties":{"osm_id":"5157214388","tag":{"amenity":"recycling","operator":"Ajuntament Sant Boi de Llobregat","recycling:green_waste":"yes","recycling_type":"container","wheelchair":"no"}},"type":"Feature"},
	{"geometry":{"coordinates":[2.030211,41.338621],"type":"Point"},"properties":{"osm_id":"5157214389","tag":{"amenity":"recycling","operator":"Ajuntament Sant Boi de Llobregat","recycling:plastic_bottles":"yes","recycling:plastic_packaging":"yes","recycling_type":"container","wheelchair":"no"}},"type":"Feature"},
	{"geometry":{"coordinates":[2.03021,41.338633],"type":"Point"},"properties":{"osm_id":"5157214390","tag":{"amenity":"recycling","operator":"Ajuntament Sant Boi de Llobregat","recycling:glass_bottles":"yes","recycling_type":"container","wheelchair":"no"}},"type":"Feature"},
	{"geometry":{"coordinates":[2.030211,41.338643],"type":"Point"},"properties":{"osm_id":"5157214391","tag":{"amenity":"recycling","operator":"Ajuntament Sant Boi de Llobregat","recycling:paper":"yes","recycling_type":"container","wheelchair":"no"}},"type":"Feature"},
	{"geometry":{"coordinates":[2.03009,41.340057],"type":"Point"},"properties":{"osm_id":"5157214392","tag":{"amenity":"recycling","operator":"Ajuntament Sant Boi de Llobregat","recycling:waste":"yes","recycling_type":"container","wheelchair":"no"}},"type":"Feature"},
	{"geometry":{"coordinates":[2.03012,41.340021],"type":"Point"},"properties":{"osm_id":"5157214393","tag":{"amenity":"recycling","operator":"Ajuntament Sant Boi de Llobregat","recycling:green_waste":"yes","recycling_type":"container","wheelchair":"no"}},"type":"Feature"},
	{"geometry":{"coordinates":[2.032658,41.338663],"type":"Point"},"properties":{"osm_id":"5157214394","tag":{"amenity":"recycling","operator":"Ajuntament Sant Boi de Llobregat","recycling:waste":"yes","recycling_type":"container","wheelchair":"no"}},"type":"Feature"},
	{"geometry":{"coordinates":[2.032668,41.338673],"type":"Point"},"properties":{"osm_id":"5157214395","tag":{"amenity":"recycling","operator":"Ajuntament Sant Boi de Llobregat","recycling:green_waste":"yes","recycling_type":"container","wheelchair":"no"}},"type":"Feature"},
	{"geometry":{"coordinates":[2.032677,41.338683],"type":"Point"},"properties":{"osm_id":"5157214396","tag":{"amenity":"recycling","operator":"Ajuntament Sant Boi de Llobregat","recycling:plastic_bottles":"yes","recycling:plastic_packaging":"yes","recycling_type":"container","wheelchair":"no"}},"type":"Feature"},
	{"geometry":{"coordinates":[2.032685,41.338694],"type":"Point"},"properties":{"osm_id":"5157214397","tag":{"amenity":"recycling","operator":"Ajuntament Sant Boi de Llobregat","recycling:glass_bottles":"yes","recycling_type":"container","wheelchair":"no"}},"type":"Feature"},
	{"geometry":{"coordinates":[2.032696,41.338704],"type":"Point"},"properties":{"osm_id":"5157214398","tag":{"amenity":"recycling","operator":"Ajuntament Sant Boi de Llobregat","recycling:cardboard":"yes","recycling:paper":"yes","recycling_type":"container","wheelchair":"no"}},"type":"Feature"},
	{"geometry":{"coordinates":[2.03611,41.337075],"type":"Point"},"properties":{"osm_id":"5157214399","tag":{"amenity":"recycling","operator":"Ajuntament Sant Boi de Llobregat","recycling:cardboard":"yes","recycling:paper":"yes","recycling_type":"container","wheelchair":"no"}},"type":"Feature"},
	{"geometry":{"coordinates":[2.036093,41.337075],"type":"Point"},"properties":{"osm_id":"5157214400","tag":{"amenity":"recycling","operator":"Ajuntament Sant Boi de Llobregat","recycling:glass_bottles":"yes","recycling_type":"container","wheelchair":"no"}},"type":"Feature"},
	{"geometry":{"coordinates":[2.036079,41.337077],"type":"Point"},"properties":{"osm_id":"5157214401","tag":{"amenity":"recycling","operator":"Ajuntament Sant Boi de Llobregat","recycling:plastic_bottles":"yes","recycling:plastic_packaging":"yes","recycling_type":"container","wheelchair":"no"}},"type":"Feature"},
	{"geometry":{"coordinates":[2.036062,41.337079],"type":"Point"},"properties":{"osm_id":"5157214402","tag":{"amenity":"recycling","operator":"Ajuntament Sant Boi de Llobregat","recycling:green_waste":"yes","recycling_type":"container","wheelchair":"no"}},"type":"Feature"},
	{"geometry":{"coordinates":[2.036046,41.33708],"type":"Point"},"properties":{"osm_id":"5157214403","tag":{"amenity":"recycling","operator":"Ajuntament Sant Boi de Llobregat","recycling:waste":"yes","recycling_type":"container","wheelchair":"no"}},"type":"Feature"},
	{"geometry":{"coordinates":[2.034637,41.337804],"type":"Point"},"properties":{"osm_id":"5157214404","tag":{"amenity":"recycling","operator":"Ajuntament Sant Boi de Llobregat","recycling:cardboard":"yes","recycling:paper":"yes","recycling_type":"container","wheelchair":"no"}},"type":"Feature"},
	{"geometry":{"coordinates":[2.034639,41.337816],"type":"Point"},"properties":{"osm_id":"5157214405","tag":{"amenity":"recycling","operator":"Ajuntament Sant Boi de Llobregat","recycling:glass_bottles":"yes","recycling_type":"container","wheelchair":"no"}},"type":"Feature"},
	{"geometry":{"coordinates":[2.034642,41.337829],"type":"Point"},"properties":{"osm_id":"5157214406","tag":{"amenity":"recycling","operator":"Ajuntament Sant Boi de Llobregat","recycling:plastic_bottles":"yes","recycling:plastic_packaging":"yes","recycling_type":"container","wheelchair":"no"}},"type":"Feature"},
	{"geometry":{"coordinates":[2.034643,41.337841],"type":"Point"},"properties":{"osm_id":"5157214407","tag":{"amenity":"recycling","operator":"Ajuntament Sant Boi de Llobregat","recycling:green_waste":"yes","recycling_type":"container","wheelchair":"no"}},"type":"Feature"},
	{"geometry":{"coordinates":[2.034646,41.337854],"type":"Point"},"properties":{"osm_id":"5157214408","tag":{"amenity":"recycling","operator":"Ajuntament Sant Boi de Llobregat","recycling:waste":"yes","recycling_type":"container","wheelchair":"no"}},"type":"Feature"},
	{"geometry":{"coordinates":[2.035929,41.338458],"type":"Point"},"properties":{"osm_id":"5157214409","tag":{"amenity":"recycling","operator":"Ajuntament Sant Boi de Llobregat","recycling:waste":"yes","recycling_type":"container","wheelchair":"no"}},"type":"Feature"},
	{"geometry":{"coordinates":[2.035943,41.338466],"type":"Point"},"properties":{"osm_id":"5157214410","tag":{"amenity":"recycling","operator":"Ajuntament Sant Boi de Llobregat","recycling:green_waste":"yes","recycling_type":"container","wheelchair":"no"}},"type":"Feature"},
	{"geometry":{"coordinates":[2.035957,41.338476],"type":"Point"},"properties":{"osm_id":"5157214411","tag":{"amenity":"recycling","operator":"Ajuntament Sant Boi de Llobregat","recycling:cardboard":"yes","recycling:paper":"yes","recycling_type":"container","wheelchair":"no"}},"type":"Feature"},
	{"geometry":{"coordinates":[2.03597,41.338484],"type":"Point"},"properties":{"osm_id":"5157214412","tag":{"amenity":"recycling","operator":"Ajuntament Sant Boi de Llobregat","recycling:glass_bottles":"yes","recycling_type":"container","wheelchair":"no"}},"type":"Feature"},
	{"geometry":{"coordinates":[2.035982,41.338492],"type":"Point"},"properties":{"osm_id":"5157214413","tag":{"amenity":"recycling","operator":"Ajuntament Sant Boi de Llobregat","recycling:plastic_bottles":"yes","recycling:plastic_packaging":"yes","recycling_type":"container","wheelchair":"no"}},"type":"Feature"},
	{"geometry":{"coordinates":[2.040885,41.335207],"type":"Point"},"properties":{"osm_id":"5157286086","tag":{"amenity":"recycling","operator":"Ajuntament Sant Boi de Llobregat","recycling:plastic_bottles":"yes","recycling:plastic_packaging":"yes","recycling_type":"container","wheelchair":"no"}},"type":"Feature"},
	{"geometry":{"coordinates":[2.040893,41.335218],"type":"Point"},"properties":{"osm_id":"5157286087","tag":{"amenity":"recycling","operator":"Ajuntament Sant Boi de Llobregat","recycling:glass_bottles":"yes","recycling_type":"container","wheelchair":"no"}},"type":"Feature"},
	{"geometry":{"coordinates":[2.040869,41.335184],"type":"Point"},"properties":{"osm_id":"5157286088","tag":{"amenity":"recycling","operator":"Ajuntament Sant Boi de Llobregat","recycling:waste":"yes","recycling_type":"container","wheelchair":"no"}},"type":"Feature"},
	{"geometry":{"coordinates":[2.040877,41.335195],"type":"Point"},"properties":{"osm_id":"5157286089","tag":{"amenity":"recycling","operator":"Ajuntament Sant Boi de Llobregat","recycling:green_waste":"yes","recycling_type":"container","wheelchair":"no"}},"type":"Feature"},
	{"geometry":{"coordinates":[2.040901,41.335229],"type":"Point"},"properties":{"osm_id":"5157286090","tag":{"amenity":"recycling","operator":"Ajuntament Sant Boi de Llobregat","recycling:paper":"yes","recycling_type":"container","wheelchair":"no"}},"type":"Feature"},
	{"geometry":{"coordinates":[2.042041,41.334164],"type":"Point"},"properties":{"osm_id":"5157286091","tag":{"amenity":"recycling","operator":"Ajuntament Sant Boi de Llobregat","recycling:waste":"yes","recycling_type":"container","wheelchair":"no"}},"type":"Feature"},
	{"geometry":{"coordinates":[2.042079,41.334189],"type":"Point"},"properties":{"osm_id":"5157286092","tag":{"amenity":"recycling","operator":"Ajuntament Sant Boi de Llobregat","recycling:plastic_bottles":"yes","recycling:plastic_packaging":"yes","recycling_type":"container","wheelchair":"no"}},"type":"Feature"},
	{"geometry":{"coordinates":[2.042092,41.334197],"type":"Point"},"properties":{"osm_id":"5157286093","tag":{"amenity":"recycling","operator":"Ajuntament Sant Boi de Llobregat","recycling:glass_bottles":"yes","recycling_type":"container","wheelchair":"no"}},"type":"Feature"},
	{"geometry":{"coordinates":[2.042054,41.334172],"type":"Point"},"properties":{"osm_id":"5157286094","tag":{"amenity":"recycling","operator":"Ajuntament Sant Boi de Llobregat","recycling:waste":"yes","recycling_type":"container","wheelchair":"no"}},"type":"Feature"},
	{"geometry":{"coordinates":[2.042066,41.334181],"type":"Point"},"properties":{"osm_id":"5157286095","tag":{"amenity":"recycling","operator":"Ajuntament Sant Boi de Llobregat","recycling:green_waste":"yes","recycling_type":"container","wheelchair":"no"}},"type":"Feature"},
	{"geometry":{"coordinates":[2.042105,41.334205],"type":"Point"},"properties":{"osm_id":"5157286096","tag":{"amenity":"recycling","operator":"Ajuntament Sant Boi de Llobregat","recycling:paper":"yes","recycling_type":"container","wheelchair":"no"}},"type":"Feature"},
	{"geometry":{"coordinates":[2.04076,41.331353],"type":"Point"},"properties":{"osm_id":"5157286097","tag":{"amenity":"recycling","operator":"Ajuntament Sant Boi de Llobregat","recycling:plastic_bottles":"yes","recycling:plastic_packaging":"yes","recycling_type":"container","wheelchair":"no"}},"type":"Feature"},
	{"geometry":{"coordinates":[2.040748,41.331344],"type":"Point"},"properties":{"osm_id":"5157286098","tag":{"amenity":"recycling","operator":"Ajuntament Sant Boi de Llobregat","recycling:glass_bottles":"yes","recycling_type":"container","wheelchair":"no"}},"type":"Feature"},
	{"geometry":{"coordinates":[2.040785,41.33137],"type":"Point"},"properties":{"osm_id":"5157286099","tag":{"amenity":"recycling","operator":"Ajuntament Sant Boi de Llobregat","recycling:waste":"yes","recycling_type":"container","wheelchair":"no"}},"type":"Feature"},
	{"geometry":{"coordinates":[2.040773,41.331361],"type":"Point"},"properties":{"osm_id":"5157286100","tag":{"amenity":"recycling","operator":"Ajuntament Sant Boi de Llobregat","recycling:green_waste":"yes","recycling_type":"container","wheelchair":"no"}},"type":"Feature"},
	{"geometry":{"coordinates":[2.040735,41.331335],"type":"Point"},"properties":{"osm_id":"5157286101","tag":{"amenity":"recycling","operator":"Ajuntament Sant Boi de Llobregat","recycling:paper":"yes","recycling_type":"container","wheelchair":"no"}},"type":"Feature"},
	{"geometry":{"coordinates":[2.041499,41.331904],"type":"Point"},"properties":{"osm_id":"5157286102","tag":{"amenity":"recycling","operator":"Ajuntament Sant Boi de Llobregat","recycling:plastic_bottles":"yes","recycling:plastic_packaging":"yes","recycling_type":"container","wheelchair":"no"}},"type":"Feature"},
	{"geometry":{"coordinates":[2.041487,41.331895],"type":"Point"},"properties":{"osm_id":"5157286103","tag":{"amenity":"recycling","operator":"Ajuntament Sant Boi de Llobregat","recycling:glass_bottles":"yes","recycling_type":"container","wheelchair":"no"}},"type":"Feature"},
	{"geometry":{"coordinates":[2.041524,41.331921],"type":"Point"},"properties":{"osm_id":"5157286104","tag":{"amenity":"recycling","operator":"Ajuntament Sant Boi de Llobregat","recycling:waste":"yes","recycling_type":"container","wheelchair":"no"}},"type":"Feature"},
	{"geometry":{"coordinates":[2.041512,41.331913],"type":"Point"},"properties":{"osm_id":"5157286105","tag":{"amenity":"recycling","operator":"Ajuntament Sant Boi de Llobregat","recycling:green_waste":"yes","recycling_type":"container","wheelchair":"no"}},"type":"Feature"},
	{"geometry":{"coordinates":[2.041474,41.331886],"type":"Point"},"properties":{"osm_id":"5157286106","tag":{"amenity":"recycling","operator":"Ajuntament Sant Boi de Llobregat","recycling:paper":"yes","recycling_type":"container","wheelchair":"no"}},"type":"Feature"},
	{"geometry":{"coordinates":[2.041902,41.332207],"type":"Point"},"properties":{"osm_id":"5157286107","tag":{"amenity":"recycling","operator":"Ajuntament Sant Boi de Llobregat","recycling:plastic_bottles":"yes","recycling:plastic_packaging":"yes","recycling_type":"container","wheelchair":"no"}},"type":"Feature"},
	{"geometry":{"coordinates":[2.041889,41.332198],"type":"Point"},"properties":{"osm_id":"5157286108","tag":{"amenity":"recycling","operator":"Ajuntament Sant Boi de Llobregat","recycling:glass_bottles":"yes","recycling_type":"container","wheelchair":"no"}},"type":"Feature"},
	{"geometry":{"coordinates":[2.041927,41.332225],"type":"Point"},"properties":{"osm_id":"5157286109","tag":{"amenity":"recycling","operator":"Ajuntament Sant Boi de Llobregat","recycling:waste":"yes","recycling_type":"container","wheelchair":"no"}},"type":"Feature"},
	{"geometry":{"coordinates":[2.041914,41.332216],"type":"Point"},"properties":{"osm_id":"5157286110","tag":{"amenity":"recycling","operator":"Ajuntament Sant Boi de Llobregat","recycling:green_waste":"yes","recycling_type":"container","wheelchair":"no"}},"type":"Feature"},
	{"geometry":{"coordinates":[2.041877,41.332189],"type":"Point"},"properties":{"osm_id":"5157286111","tag":{"amenity":"recycling","operator":"Ajuntament Sant Boi de Llobregat","recycling:paper":"yes","recycling_type":"container","wheelchair":"no"}},"type":"Feature"},
	{"geometry":{"coordinates":[2.040926,41.332344],"type":"Point"},"properties":{"osm_id":"5157286112","tag":{"amenity":"recycling","operator":"Ajuntament Sant Boi de Llobregat","recycling:plastic_bottles":"yes","recycling:plastic_packaging":"yes","recycling_type":"container","wheelchair":"no"}},"type":"Feature"},
	{"geometry":{"coordinates":[2.040914,41.332335],"type":"Point"},"properties":{"osm_id":"5157286113","tag":{"amenity":"recycling","operator":"Ajuntament Sant Boi de Llobregat","recycling:glass_bottles":"yes","recycling_type":"container","wheelchair":"no"}},"type":"Feature"},
	{"geometry":{"coordinates":[2.040951,41.332362],"type":"Point"},"properties":{"osm_id":"5157286114","tag":{"amenity":"recycling","operator":"Ajuntament Sant Boi de Llobregat","recycling:waste":"yes","recycling_type":"container","wheelchair":"no"}},"type":"Feature"},
	{"geometry":{"coordinates":[2.040939,41.332353],"type":"Point"},"properties":{"osm_id":"5157286115","tag":{"amenity":"recycling","operator":"Ajuntament Sant Boi de Llobregat","recycling:green_waste":"yes","recycling_type":"container","wheelchair":"no"}},"type":"Feature"},
	{"geometry":{"coordinates":[2.040901,41.332327],"type":"Point"},"properties":{"osm_id":"5157286116","tag":{"amenity":"recycling","operator":"Ajuntament Sant Boi de Llobregat","recycling:paper":"yes","recycling_type":"container","wheelchair":"no"}},"type":"Feature"},
	{"geometry":{"coordinates":[2.042067,41.333195],"type":"Point"},"properties":{"osm_id":"5157286117","tag":{"amenity":"recycling","operator":"Ajuntament Sant Boi de Llobregat","recycling:plastic_bottles":"yes","recycling:plastic_packaging":"yes","recycling_type":"container","wheelchair":"no"}},"type":"Feature"},
	{"geometry":{"coordinates":[2.042055,41.333187],"type":"Point"},"properties":{"osm_id":"5157286118","tag":{"amenity":"recycling","operator":"Ajuntament Sant Boi de Llobregat","recycling:glass_bottles":"yes","recycling_type":"container","wheelchair":"no"}},"type":"Feature"},
	{"geometry":{"coordinates":[2.042092,41.333213],"type":"Point"},"properties":{"osm_id":"5157286119","tag":{"amenity":"recycling","operator":"Ajuntament Sant Boi de Llobregat","recycling:waste":"yes","recycling_type":"container","wheelchair":"no"}},"type":"Feature"},
	{"geometry":{"coordinates":[2.04208,41.333204],"type":"Point"},"properties":{"osm_id":"5157286120","tag":{"amenity":"recycling","operator":"Ajuntament Sant Boi de Llobregat","recycling:green_waste":"yes","recycling_type":"container","wheelchair":"no"}},"type":"Feature"},
	{"geometry":{"coordinates":[2.042042,41.333178],"type":"Point"},"properties":{"osm_id":"5157287021","tag":{"amenity":"recycling","operator":"Ajuntament Sant Boi de Llobregat","recycling:paper":"yes","recycling_type":"container","wheelchair":"no"}},"type":"Feature"},
	{"geometry":{"coordinates":[2.039647,41.331383],"type":"Point"},"properties":{"osm_id":"5157287022","tag":{"amenity":"recycling","operator":"Ajuntament Sant Boi de Llobregat","recycling:plastic_bottles":"yes","recycling:plastic_packaging":"yes","recycling_type":"container","wheelchair":"no"}},"type":"Feature"},
	{"geometry":{"coordinates":[2.039634,41.331375],"type":"Point"},"properties":{"osm_id":"5157287023","tag":{"amenity":"recycling","operator":"Ajuntament Sant Boi de Llobregat","recycling:glass_bottles":"yes","recycling_type":"container","wheelchair":"no"}},"type":"Feature"},
	{"geometry":{"coordinates":[2.039672,41.331401],"type":"Point"},"properties":{"osm_id":"5157287024","tag":{"amenity":"recycling","operator":"Ajuntament Sant Boi de Llobregat","recycling:waste":"yes","recycling_type":"container","wheelchair":"no"}},"type":"Feature"},
	{"geometry":{"coordinates":[2.039659,41.331392],"type":"Point"},"properties":{"osm_id":"5157287025","tag":{"amenity":"recycling","operator":"Ajuntament Sant Boi de Llobregat","recycling:green_waste":"yes","recycling_type":"container","wheelchair":"no"}},"type":"Feature"},
	{"geometry":{"coordinates":[2.039622,41.331366],"type":"Point"},"properties":{"osm_id":"5157287026","tag":{"amenity":"recycling","operator":"Ajuntament Sant Boi de Llobregat","recycling:paper":"yes","recycling_type":"container","wheelchair":"no"}},"type":"Feature"},
	{"geometry":{"coordinates":[2.039145,41.332415],"type":"Point"},"properties":{"osm_id":"5157287027","tag":{"amenity":"recycling","operator":"Ajuntament Sant Boi de Llobregat","recycling:plastic_bottles":"yes","recycling:plastic_packaging":"yes","recycling_type":"container","wheelchair":"no"}},"type":"Feature"},
	{"geometry":{"coordinates":[2.039132,41.332423],"type":"Point"},"properties":{"osm_id":"5157287028","tag":{"amenity":"recycling","operator":"Ajuntament Sant Boi de Llobregat","recycling:glass_bottles":"yes","recycling_type":"container","wheelchair":"no"}},"type":"Feature"},
	{"geometry":{"coordinates":[2.039171,41.332398],"type":"Point"},"properties":{"osm_id":"5157287029","tag":{"amenity":"recycling","operator":"Ajuntament Sant Boi de Llobregat","recycling:waste":"yes","recycling_type":"container","wheelchair":"no"}},"type":"Feature"},
	{"geometry":{"coordinates":[2.039158,41.332407],"type":"Point"},"properties":{"osm_id":"5157287030","tag":{"amenity":"recycling","operator":"Ajuntament Sant Boi de Llobregat","recycling:green_waste":"yes","recycling_type":"container","wheelchair":"no"}},"type":"Feature"},
	{"geometry":{"coordinates":[2.039119,41.332432],"type":"Point"},"properties":{"osm_id":"5157287031","tag":{"amenity":"recycling","operator":"Ajuntament Sant Boi de Llobregat","recycling:paper":"yes","recycling_type":"container","wheelchair":"no"}},"type":"Feature"},
	{"geometry":{"coordinates":[2.040145,41.333042],"type":"Point"},"properties":{"osm_id":"5157287032","tag":{"amenity":"recycling","operator":"Ajuntament Sant Boi de Llobregat","recycling:plastic_bottles":"yes","recycling:plastic_packaging":"yes","recycling_type":"container","wheelchair":"no"}},"type":"Feature"},
	{"geometry":{"coordinates":[2.040155,41.333052],"type":"Point"},"properties":{"osm_id":"5157287033","tag":{"amenity":"recycling","operator":"Ajuntament Sant Boi de Llobregat","recycling:glass_bottles":"yes","recycling_type":"container","wheelchair":"no"}},"type":"Feature"},
	{"geometry":{"coordinates":[2.040125,41.333021],"type":"Point"},"properties":{"osm_id":"5157287034","tag":{"amenity":"recycling","operator":"Ajuntament Sant Boi de Llobregat","recycling:waste":"yes","recycling_type":"container","wheelchair":"no"}},"type":"Feature"},
	{"geometry":{"coordinates":[2.040135,41.333032],"type":"Point"},"properties":{"osm_id":"5157287035","tag":{"amenity":"recycling","operator":"Ajuntament Sant Boi de Llobregat","recycling:green_waste":"yes","recycling_type":"container","wheelchair":"no"}},"type":"Feature"},
	{"geometry":{"coordinates":[2.040165,41.333063],"type":"Point"},"properties":{"osm_id":"5157287036","tag":{"amenity":"recycling","operator":"Ajuntament Sant Boi de Llobregat","recycling:paper":"yes","recycling_type":"container","wheelchair":"no"}},"type":"Feature"},
	{"geometry":{"coordinates":[2.041062,41.33379],"type":"Point"},"properties":{"osm_id":"5157287037","tag":{"amenity":"recycling","operator":"Ajuntament Sant Boi de Llobregat","recycling:plastic_bottles":"yes","recycling:plastic_packaging":"yes","recycling_type":"container","wheelchair":"no"}},"type":"Feature"},
	{"geometry":{"coordinates":[2.041049,41.333781],"type":"Point"},"properties":{"osm_id":"5157287038","tag":{"amenity":"recycling","operator":"Ajuntament Sant Boi de Llobregat","recycling:glass_bottles":"yes","recycling_type":"container","wheelchair":"no"}},"type":"Feature"},
	{"geometry":{"coordinates":[2.041087,41.333807],"type":"Point"},"properties":{"osm_id":"5157287039","tag":{"amenity":"recycling","operator":"Ajuntament Sant Boi de Llobregat","recycling:waste":"yes","recycling_type":"container","wheelchair":"no"}},"type":"Feature"},
	{"geometry":{"coordinates":[2.041074,41.333799],"type":"Point"},"properties":{"osm_id":"5157287040","tag":{"amenity":"recycling","operator":"Ajuntament Sant Boi de Llobregat","recycling:green_waste":"yes","recycling_type":"container","wheelchair":"no"}},"type":"Feature"},
	{"geometry":{"coordinates":[2.041037,41.333772],"type":"Point"},"properties":{"osm_id":"5157287041","tag":{"amenity":"recycling","operator":"Ajuntament Sant Boi de Llobregat","recycling:paper":"yes","recycling_type":"container","wheelchair":"no"}},"type":"Feature"},
	{"geometry":{"coordinates":[2.039163,41.333486],"type":"Point"},"properties":{"osm_id":"5157287042","tag":{"amenity":"recycling","operator":"Ajuntament Sant Boi de Llobregat","recycling:waste":"yes","recycling_type":"container","wheelchair":"no"}},"type":"Feature"},
	{"geometry":{"coordinates":[2.039159,41.333474],"type":"Point"},"properties":{"osm_id":"5157287043","tag":{"amenity":"recycling","operator":"Ajuntament Sant Boi de Llobregat","recycling:green_waste":"yes","recycling_type":"container","wheelchair":"no"}},"type":"Feature"},
	{"geometry":{"coordinates":[2.039319,41.33395],"type":"Point"},"properties":{"osm_id":"5157287044","tag":{"amenity":"recycling","operator":"Ajuntament Sant Boi de Llobregat","recycling:plastic_bottles":"yes","recycling:plastic_packaging":"yes","recycling_type":"container","wheelchair":"no"}},"type":"Feature"},
	{"geometry":{"coordinates":[2.039326,41.333962],"type":"Point"},"properties":{"osm_id":"5157287045","tag":{"amenity":"recycling","operator":"Ajuntament Sant Boi de Llobregat","recycling:glass_bottles":"yes","recycling_type":"container","wheelchair":"no"}},"type":"Feature"},
	{"geometry":{"coordinates":[2.039306,41.333926],"type":"Point"},"properties":{"osm_id":"5157287046","tag":{"amenity":"recycling","operator":"Ajuntament Sant Boi de Llobregat","recycling:waste":"yes","recycling_type":"container","wheelchair":"no"}},"type":"Feature"},
	{"geometry":{"coordinates":[2.039312,41.333938],"type":"Point"},"properties":{"osm_id":"5157287047","tag":{"amenity":"recycling","operator":"Ajuntament Sant Boi de Llobregat","recycling:green_waste":"yes","recycling_type":"container","wheelchair":"no"}},"type":"Feature"},
	{"geometry":{"coordinates":[2.039332,41.333973],"type":"Point"},"properties":{"osm_id":"5157287048","tag":{"amenity":"recycling","operator":"Ajuntament Sant Boi de Llobregat","recycling:paper":"yes","recycling_type":"container","wheelchair":"no"}},"type":"Feature"},
	{"geometry":{"coordinates":[2.040507,41.334627],"type":"Point"},"properties":{"osm_id":"5157287049","tag":{"amenity":"recycling","operator":"Ajuntament Sant Boi de Llobregat","recycling:plastic_bottles":"yes","recycling:plastic_packaging":"yes","recycling_type":"container","wheelchair":"no"}},"type":"Feature"},
	{"geometry":{"coordinates":[2.040494,41.334619],"type":"Point"},"properties":{"osm_id":"5157287050","tag":{"amenity":"recycling","operator":"Ajuntament Sant Boi de Llobregat","recycling:glass_bottles":"yes","recycling_type":"container","wheelchair":"no"}},"type":"Feature"},
	{"geometry":{"coordinates":[2.040532,41.334645],"type":"Point"},"properties":{"osm_id":"5157287051","tag":{"amenity":"recycling","operator":"Ajuntament Sant Boi de Llobregat","recycling:waste":"yes","recycling_type":"container","wheelchair":"no"}},"type":"Feature"},
	{"geometry":{"coordinates":[2.040519,41.334636],"type":"Point"},"properties":{"osm_id":"5157287052","tag":{"amenity":"recycling","operator":"Ajuntament Sant Boi de Llobregat","recycling:green_waste":"yes","recycling_type":"container","wheelchair":"no"}},"type":"Feature"},
	{"geometry":{"coordinates":[2.040482,41.33461],"type":"Point"},"properties":{"osm_id":"5157287053","tag":{"amenity":"recycling","operator":"Ajuntament Sant Boi de Llobregat","recycling:paper":"yes","recycling_type":"container","wheelchair":"no"}},"type":"Feature"},
	{"geometry":{"coordinates":[2.040164,41.334952],"type":"Point"},"properties":{"osm_id":"5157287054","tag":{"amenity":"recycling","operator":"Ajuntament Sant Boi de Llobregat","recycling:waste":"yes","recycling_type":"container","wheelchair":"no"}},"type":"Feature"},
	{"geometry":{"coordinates":[2.040151,41.33496],"type":"Point"},"properties":{"osm_id":"5157287055","tag":{"amenity":"recycling","operator":"Ajuntament Sant Boi de Llobregat","recycling:waste":"yes","recycling_type":"container","wheelchair":"no"}},"type":"Feature"},
	{"geometry":{"coordinates":[2.075214,41.342368],"type":"Point"},"properties":{"osm_id":"5206975600","tag":{"amenity":"waste_basket"}},"type":"Feature"},
	{"geometry":{"coordinates":[2.082058,41.341543],"type":"Point"},"properties":{"osm_id":"5206975606","tag":{"amenity":"waste_basket"}},"type":"Feature"},
	{"geometry":{"coordinates":[2.073751,41.342587],"type":"Point"},"properties":{"osm_id":"5206975609","tag":{"amenity":"waste_basket"}},"type":"Feature"},
	{"geometry":{"coordinates":[2.081199,41.341654],"type":"Point"},"properties":{"osm_id":"5206975613","tag":{"amenity":"waste_basket"}},"type":"Feature"},
	{"geometry":{"coordinates":[2.080526,41.341752],"type":"Point"},"properties":{"osm_id":"5206975614","tag":{"amenity":"waste_basket"}},"type":"Feature"},
	{"geometry":{"coordinates":[2.072037,41.342917],"type":"Point"},"properties":{"osm_id":"5206975616","tag":{"amenity":"waste_basket"}},"type":"Feature"},
	{"geometry":{"coordinates":[2.079379,41.341874],"type":"Point"},"properties":{"osm_id":"5206975619","tag":{"amenity":"waste_basket"}},"type":"Feature"},
	{"geometry":{"coordinates":[2.070561,41.34324],"type":"Point"},"properties":{"osm_id":"5206976124","tag":{"amenity":"waste_basket"}},"type":"Feature"},
	{"geometry":{"coordinates":[2.057297,41.346945],"type":"Point"},"properties":{"osm_id":"5206976135","tag":{"amenity":"waste_basket"}},"type":"Feature"},
	{"geometry":{"coordinates":[2.0836,41.341303],"type":"Point"},"properties":{"osm_id":"5206976140","tag":{"amenity":"waste_basket"}},"type":"Feature"},
	{"geometry":{"coordinates":[2.093467,41.338481],"type":"Point"},"properties":{"osm_id":"5243457852","tag":{"amenity":"waste_basket"}},"type":"Feature"},
	{"geometry":{"coordinates":[2.089284,41.33995],"type":"Point"},"properties":{"osm_id":"5243457856","tag":{"amenity":"waste_basket"}},"type":"Feature"},
	{"geometry":{"coordinates":[2.09064,41.339495],"type":"Point"},"properties":{"osm_id":"5243457861","tag":{"amenity":"waste_basket"}},"type":"Feature"},
	{"geometry":{"coordinates":[2.091788,41.3391],"type":"Point"},"properties":{"osm_id":"5243457867","tag":{"amenity":"waste_basket"}},"type":"Feature"},
	{"geometry":{"coordinates":[2.095197,41.337658],"type":"Point"},"properties":{"osm_id":"5256202305","tag":{"amenity":"waste_basket"}},"type":"Feature"},
	{"geometry":{"coordinates":[2.095227,41.337564],"type":"Point"},"properties":{"osm_id":"5256202309","tag":{"amenity":"waste_basket"}},"type":"Feature"},
	{"geometry":{"coordinates":[2.095073,41.3375],"type":"Point"},"properties":{"osm_id":"5256202311","tag":{"amenity":"waste_basket"}},"type":"Feature"},
	{"geometry":{"coordinates":[2.09547,41.337371],"type":"Point"},"properties":{"osm_id":"5256202313","tag":{"amenity":"waste_basket"}},"type":"Feature"},
	{"geometry":{"coordinates":[2.09515,41.337702],"type":"Point"},"properties":{"osm_id":"5290033184","tag":{"amenity":"waste_disposal"}},"type":"Feature"},
	{"geometry":{"coordinates":[2.04615,41.340586],"type":"Point"},"properties":{"osm_id":"5349305290","tag":{"amenity":"waste_basket","waste":"trash"}},"type":"Feature"},
	{"geometry":{"coordinates":[2.046289,41.341213],"type":"Point"},"properties":{"osm_id":"5349305291","tag":{"amenity":"waste_basket","waste":"trash"}},"type":"Feature"},
	{"geometry":{"coordinates":[2.046455,41.340154],"type":"Point"},"properties":{"osm_id":"5349744566","tag":{"amenity":"waste_basket","waste":"trash"}},"type":"Feature"},
	{"geometry":{"coordinates":[2.046005,41.340153],"type":"Point"},"properties":{"osm_id":"5349744572","tag":{"amenity":"waste_basket","waste":"trash"}},"type":"Feature"},
	{"geometry":{"coordinates":[2.04621,41.339996],"type":"Point"},"properties":{"osm_id":"5349744586","tag":{"amenity":"waste_basket","waste":"trash"}},"type":"Feature"},
	{"geometry":{"coordinates":[2.047201,41.339532],"type":"Point"},"properties":{"osm_id":"5349744587","tag":{"amenity":"waste_basket","waste":"trash"}},"type":"Feature"},
	{"geometry":{"coordinates":[2.04723,41.339594],"type":"Point"},"properties":{"osm_id":"5349744591","tag":{"amenity":"waste_basket","waste":"trash"}},"type":"Feature"},
	{"geometry":{"coordinates":[2.046956,41.339588],"type":"Point"},"properties":{"osm_id":"5349744595","tag":{"amenity":"waste_basket","waste":"trash"}},"type":"Feature"},
	{"geometry":{"coordinates":[2.045338,41.338703],"type":"Point"},"properties":{"osm_id":"5349744596","tag":{"amenity":"waste_basket","waste":"trash"}},"type":"Feature"},
	{"geometry":{"coordinates":[2.045613,41.338864],"type":"Point"},"properties":{"osm_id":"5349744604","tag":{"amenity":"waste_basket"}},"type":"Feature"},
	{"geometry":{"coordinates":[2.045057,41.33867],"type":"Point"},"properties":{"osm_id":"5349744618","tag":{"amenity":"waste_basket","waste":"trash"}},"type":"Feature"},
	{"geometry":{"coordinates":[2.045207,41.338751],"type":"Point"},"properties":{"osm_id":"5349744619","tag":{"amenity":"waste_basket","waste":"trash"}},"type":"Feature"},
	{"geometry":{"coordinates":[2.045493,41.338808],"type":"Point"},"properties":{"osm_id":"5349744850","tag":{"amenity":"waste_basket","waste":"trash"}},"type":"Feature"},
	{"geometry":{"coordinates":[2.042694,41.3426],"type":"Point"},"properties":{"osm_id":"5371370985","tag":{"amenity":"recycling","operator":"Ajuntament Sant Boi de Llobregat","recycling:green_waste":"yes","recycling_type":"container","wheelchair":"no"}},"type":"Feature"},
	{"geometry":{"coordinates":[2.042708,41.342607],"type":"Point"},"properties":{"osm_id":"5371370986","tag":{"amenity":"recycling","operator":"Ajuntament Sant Boi de Llobregat","recycling:waste":"yes","recycling_type":"container","wheelchair":"no"}},"type":"Feature"},
	{"geometry":{"coordinates":[2.042296,41.340251],"type":"Point"},"properties":{"osm_id":"5371370987","tag":{"amenity":"recycling","operator":"Ajuntament Sant Boi de Llobregat","recycling:green_waste":"yes","recycling_type":"container","wheelchair":"no"}},"type":"Feature"},
	{"geometry":{"coordinates":[2.042309,41.340259],"type":"Point"},"properties":{"osm_id":"5371370988","tag":{"amenity":"recycling","operator":"Ajuntament Sant Boi de Llobregat","recycling:waste":"yes","recycling_type":"container","wheelchair":"no"}},"type":"Feature"},
	{"geometry":{"coordinates":[2.040819,41.340456],"type":"Point"},"properties":{"osm_id":"5371370989","tag":{"amenity":"recycling","operator":"Ajuntament Sant Boi de Llobregat","recycling:glass_bottles":"yes","recycling_type":"container","wheelchair":"no"}},"type":"Feature"},
	{"geometry":{"coordinates":[2.040832,41.340464],"type":"Point"},"properties":{"osm_id":"5371370990","tag":{"amenity":"recycling","operator":"Ajuntament Sant Boi de Llobregat","recycling:plastic_bottles":"yes","recycling:plastic_packaging":"yes","recycling_type":"container","wheelchair":"no"}},"type":"Feature"},
	{"geometry":{"coordinates":[2.040845,41.340472],"type":"Point"},"properties":{"osm_id":"5371370991","tag":{"amenity":"recycling","operator":"Ajuntament Sant Boi de Llobregat","recycling:green_waste":"yes","recycling_type":"container","wheelchair":"no"}},"type":"Feature"},
	{"geometry":{"coordinates":[2.040806,41.340448],"type":"Point"},"properties":{"osm_id":"5371370992","tag":{"amenity":"recycling","operator":"Ajuntament Sant Boi de Llobregat","recycling:paper":"yes","recycling_type":"container","wheelchair":"no"}},"type":"Feature"},
	{"geometry":{"coordinates":[2.040858,41.34048],"type":"Point"},"properties":{"osm_id":"5371370993","tag":{"amenity":"recycling","operator":"Ajuntament Sant Boi de Llobregat","recycling:waste":"yes","recycling_type":"container","wheelchair":"no"}},"type":"Feature"},
	{"geometry":{"coordinates":[2.043515,41.338483],"type":"Point"},"properties":{"osm_id":"5371370994","tag":{"amenity":"recycling","operator":"Ajuntament Sant Boi de Llobregat","recycling:glass_bottles":"yes","recycling_type":"container","wheelchair":"no"}},"type":"Feature"},
	{"geometry":{"coordinates":[2.043529,41.338491],"type":"Point"},"properties":{"osm_id":"5371370995","tag":{"amenity":"recycling","operator":"Ajuntament Sant Boi de Llobregat","recycling:plastic_bottles":"yes","recycling:plastic_packaging":"yes","recycling_type":"container","wheelchair":"no"}},"type":"Feature"},
	{"geometry":{"coordinates":[2.043542,41.338499],"type":"Point"},"properties":{"osm_id":"5371370996","tag":{"amenity":"recycling","operator":"Ajuntament Sant Boi de Llobregat","recycling:green_waste":"yes","recycling_type":"container","wheelchair":"no"}},"type":"Feature"},
	{"geometry":{"coordinates":[2.043502,41.338475],"type":"Point"},"properties":{"osm_id":"5371370997","tag":{"amenity":"recycling","operator":"Ajuntament Sant Boi de Llobregat","recycling:paper":"yes","recycling_type":"container","wheelchair":"no"}},"type":"Feature"},
	{"geometry":{"coordinates":[2.043555,41.338507],"type":"Point"},"properties":{"osm_id":"5371370998","tag":{"amenity":"recycling","operator":"Ajuntament Sant Boi de Llobregat","recycling:waste":"yes","recycling_type":"container","wheelchair":"no"}},"type":"Feature"},
	{"geometry":{"coordinates":[2.042433,41.339054],"type":"Point"},"properties":{"osm_id":"5371370999","tag":{"amenity":"recycling","operator":"Ajuntament Sant Boi de Llobregat","recycling:green_waste":"yes","recycling_type":"container","wheelchair":"no"}},"type":"Feature"},
	{"geometry":{"coordinates":[2.042408,41.339038],"type":"Point"},"properties":{"osm_id":"5371371000","tag":{"amenity":"recycling","operator":"Ajuntament Sant Boi de Llobregat","recycling:glass_bottles":"yes","recycling_type":"container","wheelchair":"no"}},"type":"Feature"},
	{"geometry":{"coordinates":[2.042446,41.339062],"type":"Point"},"properties":{"osm_id":"5371371001","tag":{"amenity":"recycling","operator":"Ajuntament Sant Boi de Llobregat","recycling:waste":"yes","recycling_type":"container","wheelchair":"no"}},"type":"Feature"},
	{"geometry":{"coordinates":[2.042421,41.339046],"type":"Point"},"properties":{"osm_id":"5371371002","tag":{"amenity":"recycling","operator":"Ajuntament Sant Boi de Llobregat","recycling:plastic_bottles":"yes","recycling:plastic_packaging":"yes","recycling_type":"container","wheelchair":"no"}},"type":"Feature"},
	{"geometry":{"coordinates":[2.042395,41.339029],"type":"Point"},"properties":{"osm_id":"5371371003","tag":{"amenity":"recycling","operator":"Ajuntament Sant Boi de Llobregat","recycling:paper":"yes","recycling_type":"container","wheelchair":"no"}},"type":"Feature"},
	{"geometry":{"coordinates":[2.042255,41.343426],"type":"Point"},"properties":{"osm_id":"5371371004","tag":{"amenity":"recycling","operator":"Ajuntament Sant Boi de Llobregat","recycling:green_waste":"yes","recycling_type":"container","wheelchair":"no"}},"type":"Feature"},
	{"geometry":{"coordinates":[2.041829,41.343227],"type":"Point"},"properties":{"osm_id":"5371371005","tag":{"amenity":"recycling","operator":"Ajuntament Sant Boi de Llobregat","recycling:glass_bottles":"yes","recycling_type":"container","wheelchair":"no"}},"type":"Feature"},
	{"geometry":{"coordinates":[2.042268,41.343434],"type":"Point"},"properties":{"osm_id":"5371371006","tag":{"amenity":"recycling","operator":"Ajuntament Sant Boi de Llobregat","recycling:waste":"yes","recycling_type":"container","wheelchair":"no"}},"type":"Feature"},
	{"geometry":{"coordinates":[2.041842,41.343235],"type":"Point"},"properties":{"osm_id":"5371371007","tag":{"amenity":"recycling","operator":"Ajuntament Sant Boi de Llobregat","recycling:plastic_bottles":"yes","recycling:plastic_packaging":"yes","recycling_type":"container","wheelchair":"no"}},"type":"Feature"},
	{"geometry":{"coordinates":[2.041816,41.343219],"type":"Point"},"properties":{"osm_id":"5371371008","tag":{"amenity":"recycling","operator":"Ajuntament Sant Boi de Llobregat","recycling:paper":"yes","recycling_type":"container","wheelchair":"no"}},"type":"Feature"},
	{"geometry":{"coordinates":[2.041421,41.342911],"type":"Point"},"properties":{"osm_id":"5371371009","tag":{"amenity":"recycling","operator":"Ajuntament Sant Boi de Llobregat","recycling:green_waste":"yes","recycling_type":"container","wheelchair":"no"}},"type":"Feature"},
	{"geometry":{"coordinates":[2.041434,41.342919],"type":"Point"},"properties":{"osm_id":"5371371010","tag":{"amenity":"recycling","operator":"Ajuntament Sant Boi de Llobregat","recycling:waste":"yes","recycling_type":"container","wheelchair":"no"}},"type":"Feature"},
	{"geometry":{"coordinates":[2.040836,41.342607],"type":"Point"},"properties":{"osm_id":"5371371011","tag":{"amenity":"recycling","operator":"Ajuntament Sant Boi de Llobregat","recycling:green_waste":"yes","recycling_type":"container","wheelchair":"no"}},"type":"Feature"},
	{"geometry":{"coordinates":[2.040809,41.342591],"type":"Point"},"properties":{"osm_id":"5371371012","tag":{"amenity":"recycling","operator":"Ajuntament Sant Boi de Llobregat","recycling:glass_bottles":"yes","recycling_type":"container","wheelchair":"no"}},"type":"Feature"},
	{"geometry":{"coordinates":[2.040849,41.342615],"type":"Point"},"properties":{"osm_id":"5371371013","tag":{"amenity":"recycling","operator":"Ajuntament Sant Boi de Llobregat","recycling:waste":"yes","recycling_type":"container","wheelchair":"no"}},"type":"Feature"},
	{"geometry":{"coordinates":[2.040822,41.342599],"type":"Point"},"properties":{"osm_id":"5371371014","tag":{"amenity":"recycling","operator":"Ajuntament Sant Boi de Llobregat","recycling:plastic_bottles":"yes","recycling:plastic_packaging":"yes","recycling_type":"container","wheelchair":"no"}},"type":"Feature"},
	{"geometry":{"coordinates":[2.040796,41.342583],"type":"Point"},"properties":{"osm_id":"5371371015","tag":{"amenity":"recycling","operator":"Ajuntament Sant Boi de Llobregat","recycling:paper":"yes","recycling_type":"container","wheelchair":"no"}},"type":"Feature"},
	{"geometry":{"coordinates":[2.041438,41.34187],"type":"Point"},"properties":{"osm_id":"5371371016","tag":{"amenity":"recycling","operator":"Ajuntament Sant Boi de Llobregat","recycling:green_waste":"yes","recycling_type":"container","wheelchair":"no"}},"type":"Feature"},
	{"geometry":{"coordinates":[2.041414,41.341852],"type":"Point"},"properties":{"osm_id":"5371371017","tag":{"amenity":"recycling","operator":"Ajuntament Sant Boi de Llobregat","recycling:glass_bottles":"yes","recycling_type":"container","wheelchair":"no"}},"type":"Feature"},
	{"geometry":{"coordinates":[2.04145,41.341879],"type":"Point"},"properties":{"osm_id":"5371371018","tag":{"amenity":"recycling","operator":"Ajuntament Sant Boi de Llobregat","recycling:waste":"yes","recycling_type":"container","wheelchair":"no"}},"type":"Feature"},
	{"geometry":{"coordinates":[2.041426,41.341861],"type":"Point"},"properties":{"osm_id":"5371371019","tag":{"amenity":"recycling","operator":"Ajuntament Sant Boi de Llobregat","recycling:plastic_bottles":"yes","recycling:plastic_packaging":"yes","recycling_type":"container","wheelchair":"no"}},"type":"Feature"},
	{"geometry":{"coordinates":[2.041402,41.341843],"type":"Point"},"properties":{"osm_id":"5371371020","tag":{"amenity":"recycling","operator":"Ajuntament Sant Boi de Llobregat","recycling:paper":"yes","recycling_type":"container","wheelchair":"no"}},"type":"Feature"},
	{"geometry":{"coordinates":[2.042362,41.342454],"type":"Point"},"properties":{"osm_id":"5371371721","tag":{"amenity":"recycling","operator":"Ajuntament Sant Boi de Llobregat","recycling:green_waste":"yes","recycling_type":"container","wheelchair":"no"}},"type":"Feature"},
	{"geometry":{"coordinates":[2.042337,41.342437],"type":"Point"},"properties":{"osm_id":"5371371722","tag":{"amenity":"recycling","operator":"Ajuntament Sant Boi de Llobregat","recycling:glass_bottles":"yes","recycling_type":"container","wheelchair":"no"}},"type":"Feature"},
	{"geometry":{"coordinates":[2.042375,41.342462],"type":"Point"},"properties":{"osm_id":"5371371723","tag":{"amenity":"recycling","operator":"Ajuntament Sant Boi de Llobregat","recycling:waste":"yes","recycling_type":"container","wheelchair":"no"}},"type":"Feature"},
	{"geometry":{"coordinates":[2.04235,41.342445],"type":"Point"},"properties":{"osm_id":"5371371724","tag":{"amenity":"recycling","operator":"Ajuntament Sant Boi de Llobregat","recycling:plastic_bottles":"yes","recycling:plastic_packaging":"yes","recycling_type":"container","wheelchair":"no"}},"type":"Feature"},
	{"geometry":{"coordinates":[2.042325,41.342428],"type":"Point"},"properties":{"osm_id":"5371371725","tag":{"amenity":"recycling","operator":"Ajuntament Sant Boi de Llobregat","recycling:paper":"yes","recycling_type":"container","wheelchair":"no"}},"type":"Feature"},
	{"geometry":{"coordinates":[2.04476,41.341927],"type":"Point"},"properties":{"osm_id":"5371371726","tag":{"amenity":"recycling","operator":"Ajuntament Sant Boi de Llobregat","recycling:green_waste":"yes","recycling_type":"container","wheelchair":"no"}},"type":"Feature"},
	{"geometry":{"coordinates":[2.044733,41.341912],"type":"Point"},"properties":{"osm_id":"5371371727","tag":{"amenity":"recycling","operator":"Ajuntament Sant Boi de Llobregat","recycling:glass_bottles":"yes","recycling_type":"container","wheelchair":"no"}},"type":"Feature"},
	{"geometry":{"coordinates":[2.044773,41.341935],"type":"Point"},"properties":{"osm_id":"5371371728","tag":{"amenity":"recycling","operator":"Ajuntament Sant Boi de Llobregat","recycling:waste":"yes","recycling_type":"container","wheelchair":"no"}},"type":"Feature"},
	{"geometry":{"coordinates":[2.044746,41.34192],"type":"Point"},"properties":{"osm_id":"5371371729","tag":{"amenity":"recycling","operator":"Ajuntament Sant Boi de Llobregat","recycling:plastic_bottles":"yes","recycling:plastic_packaging":"yes","recycling_type":"container","wheelchair":"no"}},"type":"Feature"},
	{"geometry":{"coordinates":[2.044719,41.341905],"type":"Point"},"properties":{"osm_id":"5371371730","tag":{"amenity":"recycling","operator":"Ajuntament Sant Boi de Llobregat","recycling:paper":"yes","recycling_type":"container","wheelchair":"no"}},"type":"Feature"},
	{"geometry":{"coordinates":[2.044075,41.342557],"type":"Point"},"properties":{"osm_id":"5371371731","tag":{"amenity":"recycling","operator":"Ajuntament Sant Boi de Llobregat","recycling:green_waste":"yes","recycling_type":"container","wheelchair":"no"}},"type":"Feature"},
	{"geometry":{"coordinates":[2.04405,41.34254],"type":"Point"},"properties":{"osm_id":"5371371732","tag":{"amenity":"recycling","operator":"Ajuntament Sant Boi de Llobregat","recycling:glass_bottles":"yes","recycling_type":"container","wheelchair":"no"}},"type":"Feature"},
	{"geometry":{"coordinates":[2.044088,41.342565],"type":"Point"},"properties":{"osm_id":"5371371733","tag":{"amenity":"recycling","operator":"Ajuntament Sant Boi de Llobregat","recycling:waste":"yes","recycling_type":"container","wheelchair":"no"}},"type":"Feature"},
	{"geometry":{"coordinates":[2.044062,41.342548],"type":"Point"},"properties":{"osm_id":"5371371734","tag":{"amenity":"recycling","operator":"Ajuntament Sant Boi de Llobregat","recycling:plastic_bottles":"yes","recycling:plastic_packaging":"yes","recycling_type":"container","wheelchair":"no"}},"type":"Feature"},
	{"geometry":{"coordinates":[2.044037,41.342531],"type":"Point"},"properties":{"osm_id":"5371371735","tag":{"amenity":"recycling","operator":"Ajuntament Sant Boi de Llobregat","recycling:paper":"yes","recycling_type":"container","wheelchair":"no"}},"type":"Feature"},
	{"geometry":{"coordinates":[2.04605,41.341869],"type":"Point"},"properties":{"osm_id":"5371371736","tag":{"amenity":"recycling","operator":"Ajuntament Sant Boi de Llobregat","recycling:green_waste":"yes","recycling_type":"container","wheelchair":"no"}},"type":"Feature"},
	{"geometry":{"coordinates":[2.046056,41.341857],"type":"Point"},"properties":{"osm_id":"5371371737","tag":{"amenity":"recycling","operator":"Ajuntament Sant Boi de Llobregat","recycling:waste":"yes","recycling_type":"container","wheelchair":"no"}},"type":"Feature"},
	{"geometry":{"coordinates":[2.044847,41.343262],"type":"Point"},"properties":{"osm_id":"5371371738","tag":{"amenity":"recycling","operator":"Ajuntament Sant Boi de Llobregat","recycling:green_waste":"yes","recycling_type":"container","wheelchair":"no"}},"type":"Feature"},
	{"geometry":{"coordinates":[2.044823,41.34328],"type":"Point"},"properties":{"osm_id":"5371371739","tag":{"amenity":"recycling","operator":"Ajuntament Sant Boi de Llobregat","recycling:glass_bottles":"yes","recycling_type":"container","wheelchair":"no"}},"type":"Feature"},
	{"geometry":{"coordinates":[2.044859,41.343254],"type":"Point"},"properties":{"osm_id":"5371371740","tag":{"amenity":"recycling","operator":"Ajuntament Sant Boi de Llobregat","recycling:waste":"yes","recycling_type":"container","wheelchair":"no"}},"type":"Feature"},
	{"geometry":{"coordinates":[2.044835,41.343271],"type":"Point"},"properties":{"osm_id":"5371371741","tag":{"amenity":"recycling","operator":"Ajuntament Sant Boi de Llobregat","recycling:plastic_bottles":"yes","recycling:plastic_packaging":"yes","recycling_type":"container","wheelchair":"no"}},"type":"Feature"},
	{"geometry":{"coordinates":[2.044811,41.343289],"type":"Point"},"properties":{"osm_id":"5371371742","tag":{"amenity":"recycling","operator":"Ajuntament Sant Boi de Llobregat","recycling:paper":"yes","recycling_type":"container","wheelchair":"no"}},"type":"Feature"},
	{"geometry":{"coordinates":[2.04444,41.343522],"type":"Point"},"properties":{"osm_id":"5371371743","tag":{"amenity":"recycling","operator":"Ajuntament Sant Boi de Llobregat","recycling:green_waste":"yes","recycling_type":"container","wheelchair":"no"}},"type":"Feature"},
	{"geometry":{"coordinates":[2.044453,41.343514],"type":"Point"},"properties":{"osm_id":"5371371744","tag":{"amenity":"recycling","operator":"Ajuntament Sant Boi de Llobregat","recycling:waste":"yes","recycling_type":"container","wheelchair":"no"}},"type":"Feature"},
	{"geometry":{"coordinates":[2.043391,41.343261],"type":"Point"},"properties":{"osm_id":"5371371745","tag":{"amenity":"recycling","operator":"Ajuntament Sant Boi de Llobregat","recycling:glass_bottles":"yes","recycling_type":"container","wheelchair":"no"}},"type":"Feature"},
	{"geometry":{"coordinates":[2.043406,41.343238],"type":"Point"},"properties":{"osm_id":"5371371746","tag":{"amenity":"recycling","operator":"Ajuntament Sant Boi de Llobregat","recycling:green_waste":"yes","recycling_type":"container","wheelchair":"no"}},"type":"Feature"},
	{"geometry":{"coordinates":[2.043398,41.343249],"type":"Point"},"properties":{"osm_id":"5371371747","tag":{"amenity":"recycling","operator":"Ajuntament Sant Boi de Llobregat","recycling:plastic_bottles":"yes","recycling:plastic_packaging":"yes","recycling_type":"container","wheelchair":"no"}},"type":"Feature"},
	{"geometry":{"coordinates":[2.043413,41.343226],"type":"Point"},"properties":{"osm_id":"5371371748","tag":{"amenity":"recycling","operator":"Ajuntament Sant Boi de Llobregat","recycling:waste":"yes","recycling_type":"container","wheelchair":"no"}},"type":"Feature"},
	{"geometry":{"coordinates":[2.043384,41.343272],"type":"Point"},"properties":{"osm_id":"5371371749","tag":{"amenity":"recycling","operator":"Ajuntament Sant Boi de Llobregat","recycling:paper":"yes","recycling_type":"container","wheelchair":"no"}},"type":"Feature"},
	{"geometry":{"coordinates":[2.042901,41.341497],"type":"Point"},"properties":{"osm_id":"5371371750","tag":{"amenity":"recycling","operator":"Ajuntament Sant Boi de Llobregat","recycling:green_waste":"yes","recycling_type":"container","wheelchair":"no"}},"type":"Feature"},
	{"geometry":{"coordinates":[2.042912,41.341488],"type":"Point"},"properties":{"osm_id":"5371371751","tag":{"amenity":"recycling","operator":"Ajuntament Sant Boi de Llobregat","recycling:waste":"yes","recycling_type":"container","wheelchair":"no"}},"type":"Feature"},
	{"geometry":{"coordinates":[2.043287,41.342207],"type":"Point"},"properties":{"osm_id":"5371371752","tag":{"amenity":"recycling","operator":"Ajuntament Sant Boi de Llobregat","recycling:glass_bottles":"yes","recycling_type":"container","wheelchair":"no"}},"type":"Feature"},
	{"geometry":{"coordinates":[2.043309,41.342188],"type":"Point"},"properties":{"osm_id":"5371371753","tag":{"amenity":"recycling","operator":"Ajuntament Sant Boi de Llobregat","recycling:green_waste":"yes","recycling_type":"container","wheelchair":"no"}},"type":"Feature"},
	{"geometry":{"coordinates":[2.043298,41.342198],"type":"Point"},"properties":{"osm_id":"5371371754","tag":{"amenity":"recycling","operator":"Ajuntament Sant Boi de Llobregat","recycling:plastic_bottles":"yes","recycling:plastic_packaging":"yes","recycling_type":"container","wheelchair":"no"}},"type":"Feature"},
	{"geometry":{"coordinates":[2.043321,41.342179],"type":"Point"},"properties":{"osm_id":"5371371755","tag":{"amenity":"recycling","operator":"Ajuntament Sant Boi de Llobregat","recycling:waste":"yes","recycling_type":"container","wheelchair":"no"}},"type":"Feature"},
	{"geometry":{"coordinates":[2.043276,41.342217],"type":"Point"},"properties":{"osm_id":"5371371756","tag":{"amenity":"recycling","operator":"Ajuntament Sant Boi de Llobregat","recycling:paper":"yes","recycling_type":"container","wheelchair":"no"}},"type":"Feature"},
	{"geometry":{"coordinates":[2.043282,41.341143],"type":"Point"},"properties":{"osm_id":"5371371757","tag":{"amenity":"recycling","operator":"Ajuntament Sant Boi de Llobregat","recycling:glass_bottles":"yes","recycling_type":"container","wheelchair":"no"}},"type":"Feature"},
	{"geometry":{"coordinates":[2.043305,41.341124],"type":"Point"},"properties":{"osm_id":"5371371758","tag":{"amenity":"recycling","operator":"Ajuntament Sant Boi de Llobregat","recycling:green_waste":"yes","recycling_type":"container","wheelchair":"no"}},"type":"Feature"},
	{"geometry":{"coordinates":[2.043294,41.341133],"type":"Point"},"properties":{"osm_id":"5371371759","tag":{"amenity":"recycling","operator":"Ajuntament Sant Boi de Llobregat","recycling:plastic_bottles":"yes","recycling:plastic_packaging":"yes","recycling_type":"container","wheelchair":"no"}},"type":"Feature"},
	{"geometry":{"coordinates":[2.043316,41.341114],"type":"Point"},"properties":{"osm_id":"5371371760","tag":{"amenity":"recycling","operator":"Ajuntament Sant Boi de Llobregat","recycling:waste":"yes","recycling_type":"container","wheelchair":"no"}},"type":"Feature"},
	{"geometry":{"coordinates":[2.043271,41.341152],"type":"Point"},"properties":{"osm_id":"5371371761","tag":{"amenity":"recycling","operator":"Ajuntament Sant Boi de Llobregat","recycling:paper":"yes","recycling_type":"container","wheelchair":"no"}},"type":"Feature"},
	{"geometry":{"coordinates":[2.044852,41.340852],"type":"Point"},"properties":{"osm_id":"5371371762","tag":{"amenity":"recycling","operator":"Ajuntament Sant Boi de Llobregat","recycling:glass_bottles":"yes","recycling_type":"container","wheelchair":"no"}},"type":"Feature"},
	{"geometry":{"coordinates":[2.044874,41.340833],"type":"Point"},"properties":{"osm_id":"5371371763","tag":{"amenity":"recycling","operator":"Ajuntament Sant Boi de Llobregat","recycling:green_waste":"yes","recycling_type":"container","wheelchair":"no"}},"type":"Feature"},
	{"geometry":{"coordinates":[2.044863,41.340842],"type":"Point"},"properties":{"osm_id":"5371371764","tag":{"amenity":"recycling","operator":"Ajuntament Sant Boi de Llobregat","recycling:plastic_bottles":"yes","recycling:plastic_packaging":"yes","recycling_type":"container","wheelchair":"no"}},"type":"Feature"},
	{"geometry":{"coordinates":[2.044885,41.340823],"type":"Point"},"properties":{"osm_id":"5371371765","tag":{"amenity":"recycling","operator":"Ajuntament Sant Boi de Llobregat","recycling:waste":"yes","recycling_type":"container","wheelchair":"no"}},"type":"Feature"},
	{"geometry":{"coordinates":[2.044841,41.340862],"type":"Point"},"properties":{"osm_id":"5371371766","tag":{"amenity":"recycling","operator":"Ajuntament Sant Boi de Llobregat","recycling:paper":"yes","recycling_type":"container","wheelchair":"no"}},"type":"Feature"},
	{"geometry":{"coordinates":[2.044446,41.340405],"type":"Point"},"properties":{"osm_id":"5371371767","tag":{"amenity":"recycling","operator":"Ajuntament Sant Boi de Llobregat","recycling:glass_bottles":"yes","recycling_type":"container","wheelchair":"no"}},"type":"Feature"},
	{"geometry":{"coordinates":[2.044419,41.34039],"type":"Point"},"properties":{"osm_id":"5371371768","tag":{"amenity":"recycling","operator":"Ajuntament Sant Boi de Llobregat","recycling:green_waste":"yes","recycling_type":"container","wheelchair":"no"}},"type":"Feature"},
	{"geometry":{"coordinates":[2.044432,41.340397],"type":"Point"},"properties":{"osm_id":"5371371769","tag":{"amenity":"recycling","operator":"Ajuntament Sant Boi de Llobregat","recycling:plastic_bottles":"yes","recycling:plastic_packaging":"yes","recycling_type":"container","wheelchair":"no"}},"type":"Feature"},
	{"geometry":{"coordinates":[2.044406,41.340382],"type":"Point"},"properties":{"osm_id":"5371371770","tag":{"amenity":"recycling","operator":"Ajuntament Sant Boi de Llobregat","recycling:waste":"yes","recycling_type":"container","wheelchair":"no"}},"type":"Feature"},
	{"geometry":{"coordinates":[2.044459,41.340413],"type":"Point"},"properties":{"osm_id":"5371371771","tag":{"amenity":"recycling","operator":"Ajuntament Sant Boi de Llobregat","recycling:paper":"yes","recycling_type":"container","wheelchair":"no"}},"type":"Feature"},
	{"geometry":{"coordinates":[2.044966,41.339455],"type":"Point"},"properties":{"osm_id":"5371371772","tag":{"amenity":"recycling","operator":"Ajuntament Sant Boi de Llobregat","recycling:green_waste":"yes","recycling_type":"container","wheelchair":"no"}},"type":"Feature"},
	{"geometry":{"coordinates":[2.044979,41.339463],"type":"Point"},"properties":{"osm_id":"5371371773","tag":{"amenity":"recycling","operator":"Ajuntament Sant Boi de Llobregat","recycling:waste":"yes","recycling_type":"container","wheelchair":"no"}},"type":"Feature"},
	{"geometry":{"coordinates":[2.044857,41.33973],"type":"Point"},"properties":{"osm_id":"5371371774","tag":{"amenity":"recycling","operator":"Ajuntament Sant Boi de Llobregat","recycling:glass_bottles":"yes","recycling_type":"container","wheelchair":"no"}},"type":"Feature"},
	{"geometry":{"coordinates":[2.044868,41.33972],"type":"Point"},"properties":{"osm_id":"5371371775","tag":{"amenity":"recycling","operator":"Ajuntament Sant Boi de Llobregat","recycling:plastic_bottles":"yes","recycling:plastic_packaging":"yes","recycling_type":"container","wheelchair":"no"}},"type":"Feature"},
	{"geometry":{"coordinates":[2.044879,41.339711],"type":"Point"},"properties":{"osm_id":"5371371776","tag":{"amenity":"recycling","operator":"Ajuntament Sant Boi de Llobregat","recycling:green_waste":"yes","recycling_type":"container","wheelchair":"no"}},"type":"Feature"},
	{"geometry":{"coordinates":[2.044846,41.33974],"type":"Point"},"properties":{"osm_id":"5371371777","tag":{"amenity":"recycling","operator":"Ajuntament Sant Boi de Llobregat","recycling:paper":"yes","recycling_type":"container","wheelchair":"no"}},"type":"Feature"},
	{"geometry":{"coordinates":[2.04489,41.339701],"type":"Point"},"properties":{"osm_id":"5371371778","tag":{"amenity":"recycling","operator":"Ajuntament Sant Boi de Llobregat","recycling:waste":"yes","recycling_type":"container","wheelchair":"no"}},"type":"Feature"},
	{"geometry":{"coordinates":[2.048043,41.34575],"type":"Point"},"properties":{"osm_id":"5371371779","tag":{"amenity":"recycling","operator":"Ajuntament Sant Boi de Llobregat","recycling:green_waste":"yes","recycling_type":"container","wheelchair":"no"}},"type":"Feature"},
	{"geometry":{"coordinates":[2.048026,41.345749],"type":"Point"},"properties":{"osm_id":"5371371780","tag":{"amenity":"recycling","operator":"Ajuntament Sant Boi de Llobregat","recycling:waste":"yes","recycling_type":"container","wheelchair":"no"}},"type":"Feature"},
	{"geometry":{"coordinates":[2.047209,41.346438],"type":"Point"},"properties":{"osm_id":"5371371781","tag":{"amenity":"recycling","operator":"Ajuntament Sant Boi de Llobregat","recycling:glass_bottles":"yes","recycling_type":"container","wheelchair":"no"}},"type":"Feature"},
	{"geometry":{"coordinates":[2.047201,41.346414],"type":"Point"},"properties":{"osm_id":"5371371782","tag":{"amenity":"recycling","operator":"Ajuntament Sant Boi de Llobregat","recycling:green_waste":"yes","recycling_type":"container","wheelchair":"no"}},"type":"Feature"},
	{"geometry":{"coordinates":[2.047197,41.346401],"type":"Point"},"properties":{"osm_id":"5371371783","tag":{"amenity":"recycling","operator":"Ajuntament Sant Boi de Llobregat","recycling:waste":"yes","recycling_type":"container","wheelchair":"no"}},"type":"Feature"},
	{"geometry":{"coordinates":[2.047212,41.346451],"type":"Point"},"properties":{"osm_id":"5371371784","tag":{"amenity":"recycling","operator":"Ajuntament Sant Boi de Llobregat","recycling:paper":"yes","recycling_type":"container","wheelchair":"no"}},"type":"Feature"},
	{"geometry":{"coordinates":[2.047205,41.346426],"type":"Point"},"properties":{"osm_id":"5371371785","tag":{"amenity":"recycling","operator":"Ajuntament Sant Boi de Llobregat","recycling:plastic_bottles":"yes","recycling:plastic_packaging":"yes","recycling_type":"container","wheelchair":"no"}},"type":"Feature"},
	{"geometry":{"coordinates":[2.046912,41.345568],"type":"Point"},"properties":{"osm_id":"5371371786","tag":{"amenity":"recycling","operator":"Ajuntament Sant Boi de Llobregat","recycling:glass_bottles":"yes","recycling_type":"container","wheelchair":"no"}},"type":"Feature"},
	{"geometry":{"coordinates":[2.046906,41.345543],"type":"Point"},"properties":{"osm_id":"5371371787","tag":{"amenity":"recycling","operator":"Ajuntament Sant Boi de Llobregat","recycling:green_waste":"yes","recycling_type":"container","wheelchair":"no"}},"type":"Feature"},
	{"geometry":{"coordinates":[2.046902,41.34553],"type":"Point"},"properties":{"osm_id":"5371371788","tag":{"amenity":"recycling","operator":"Ajuntament Sant Boi de Llobregat","recycling:waste":"yes","recycling_type":"container","wheelchair":"no"}},"type":"Feature"},
	{"geometry":{"coordinates":[2.046916,41.34558],"type":"Point"},"properties":{"osm_id":"5371371789","tag":{"amenity":"recycling","operator":"Ajuntament Sant Boi de Llobregat","recycling:paper":"yes","recycling_type":"container","wheelchair":"no"}},"type":"Feature"},
	{"geometry":{"coordinates":[2.046909,41.345555],"type":"Point"},"properties":{"osm_id":"5371371790","tag":{"amenity":"recycling","operator":"Ajuntament Sant Boi de Llobregat","recycling:plastic_bottles":"yes","recycling:plastic_packaging":"yes","recycling_type":"container","wheelchair":"no"}},"type":"Feature"},
	{"geometry":{"coordinates":[2.046563,41.343991],"type":"Point"},"properties":{"osm_id":"5371371791","tag":{"amenity":"recycling","operator":"Ajuntament Sant Boi de Llobregat","recycling:glass_bottles":"yes","recycling_type":"container","wheelchair":"no"}},"type":"Feature"},
	{"geometry":{"coordinates":[2.046557,41.343967],"type":"Point"},"properties":{"osm_id":"5371371792","tag":{"amenity":"recycling","operator":"Ajuntament Sant Boi de Llobregat","recycling:green_waste":"yes","recycling_type":"container","wheelchair":"no"}},"type":"Feature"},
	{"geometry":{"coordinates":[2.046553,41.343954],"type":"Point"},"properties":{"osm_id":"5371371793","tag":{"amenity":"recycling","operator":"Ajuntament Sant Boi de Llobregat","recycling:waste":"yes","recycling_type":"container","wheelchair":"no"}},"type":"Feature"},
	{"geometry":{"coordinates":[2.046567,41.344004],"type":"Point"},"properties":{"osm_id":"5371371794","tag":{"amenity":"recycling","operator":"Ajuntament Sant Boi de Llobregat","recycling:paper":"yes","recycling_type":"container","wheelchair":"no"}},"type":"Feature"},
	{"geometry":{"coordinates":[2.04656,41.343979],"type":"Point"},"properties":{"osm_id":"5371371795","tag":{"amenity":"recycling","operator":"Ajuntament Sant Boi de Llobregat","recycling:plastic_bottles":"yes","recycling:plastic_packaging":"yes","recycling_type":"container","wheelchair":"no"}},"type":"Feature"},
	{"geometry":{"coordinates":[2.045961,41.341317],"type":"Point"},"properties":{"osm_id":"5371371796","tag":{"amenity":"recycling","operator":"Ajuntament Sant Boi de Llobregat","recycling:glass_bottles":"yes","recycling_type":"container","wheelchair":"no"}},"type":"Feature"},
	{"geometry":{"coordinates":[2.045954,41.341292],"type":"Point"},"properties":{"osm_id":"5371371797","tag":{"amenity":"recycling","operator":"Ajuntament Sant Boi de Llobregat","recycling:green_waste":"yes","recycling_type":"container","wheelchair":"no"}},"type":"Feature"},
	{"geometry":{"coordinates":[2.045951,41.34128],"type":"Point"},"properties":{"osm_id":"5371371798","tag":{"amenity":"recycling","operator":"Ajuntament Sant Boi de Llobregat","recycling:waste":"yes","recycling_type":"container","wheelchair":"no"}},"type":"Feature"},
	{"geometry":{"coordinates":[2.045965,41.341329],"type":"Point"},"properties":{"osm_id":"5371371799","tag":{"amenity":"recycling","operator":"Ajuntament Sant Boi de Llobregat","recycling:paper":"yes","recycling_type":"container","wheelchair":"no"}},"type":"Feature"},
	{"geometry":{"coordinates":[2.045958,41.341304],"type":"Point"},"properties":{"osm_id":"5371371800","tag":{"amenity":"recycling","operator":"Ajuntament Sant Boi de Llobregat","recycling:plastic_bottles":"yes","recycling:plastic_packaging":"yes","recycling_type":"container","wheelchair":"no"}},"type":"Feature"},
	{"geometry":{"coordinates":[2.045796,41.340574],"type":"Point"},"properties":{"osm_id":"5371371801","tag":{"amenity":"recycling","operator":"Ajuntament Sant Boi de Llobregat","recycling:waste":"yes","recycling_type":"container","wheelchair":"no"}},"type":"Feature"},
	{"geometry":{"coordinates":[2.045799,41.340586],"type":"Point"},"properties":{"osm_id":"5371371802","tag":{"amenity":"recycling","operator":"Ajuntament Sant Boi de Llobregat","recycling:green_waste":"yes","recycling_type":"container","wheelchair":"no"}},"type":"Feature"},
	{"geometry":{"coordinates":[2.045802,41.340599],"type":"Point"},"properties":{"osm_id":"5371371803","tag":{"amenity":"recycling","operator":"Ajuntament Sant Boi de Llobregat","recycling:plastic_bottles":"yes","recycling:plastic_packaging":"yes","recycling_type":"container","wheelchair":"no"}},"type":"Feature"},
	{"geometry":{"coordinates":[2.045809,41.340624],"type":"Point"},"properties":{"osm_id":"5371371804","tag":{"amenity":"recycling","operator":"Ajuntament Sant Boi de Llobregat","recycling:paper":"yes","recycling_type":"container","wheelchair":"no"}},"type":"Feature"},
	{"geometry":{"coordinates":[2.045806,41.340611],"type":"Point"},"properties":{"osm_id":"5371371805","tag":{"amenity":"recycling","operator":"Ajuntament Sant Boi de Llobregat","recycling:glass_bottles":"yes","recycling_type":"container","wheelchair":"no"}},"type":"Feature"},
	{"geometry":{"coordinates":[2.046453,41.338305],"type":"Point"},"properties":{"osm_id":"5371371806","tag":{"amenity":"recycling","operator":"Ajuntament Sant Boi de Llobregat","recycling:waste":"yes","recycling_type":"container","wheelchair":"no"}},"type":"Feature"},
	{"geometry":{"coordinates":[2.046464,41.338295],"type":"Point"},"properties":{"osm_id":"5371371807","tag":{"amenity":"recycling","operator":"Ajuntament Sant Boi de Llobregat","recycling:green_waste":"yes","recycling_type":"container","wheelchair":"no"}},"type":"Feature"},
	{"geometry":{"coordinates":[2.046476,41.338286],"type":"Point"},"properties":{"osm_id":"5371371808","tag":{"amenity":"recycling","operator":"Ajuntament Sant Boi de Llobregat","recycling:plastic_bottles":"yes","recycling:plastic_packaging":"yes","recycling_type":"container","wheelchair":"no"}},"type":"Feature"},
	{"geometry":{"coordinates":[2.046498,41.338267],"type":"Point"},"properties":{"osm_id":"5371371809","tag":{"amenity":"recycling","operator":"Ajuntament Sant Boi de Llobregat","recycling:paper":"yes","recycling_type":"container","wheelchair":"no"}},"type":"Feature"},
	{"geometry":{"coordinates":[2.046487,41.338276],"type":"Point"},"properties":{"osm_id":"5371371810","tag":{"amenity":"recycling","operator":"Ajuntament Sant Boi de Llobregat","recycling:glass_bottles":"yes","recycling_type":"container","wheelchair":"no"}},"type":"Feature"},
	{"geometry":{"coordinates":[2.045581,41.338771],"type":"Point"},"properties":{"osm_id":"5371371811","tag":{"amenity":"recycling","operator":"Ajuntament Sant Boi de Llobregat","recycling:waste":"yes","recycling_type":"container","wheelchair":"no"}},"type":"Feature"},
	{"geometry":{"coordinates":[2.045594,41.338779],"type":"Point"},"properties":{"osm_id":"5371371812","tag":{"amenity":"recycling","operator":"Ajuntament Sant Boi de Llobregat","recycling:green_waste":"yes","recycling_type":"container","wheelchair":"no"}},"type":"Feature"},
	{"geometry":{"coordinates":[2.045607,41.338787],"type":"Point"},"properties":{"osm_id":"5371371813","tag":{"amenity":"recycling","operator":"Ajuntament Sant Boi de Llobregat","recycling:plastic_bottles":"yes","recycling:plastic_packaging":"yes","recycling_type":"container","wheelchair":"no"}},"type":"Feature"},
	{"geometry":{"coordinates":[2.045634,41.338802],"type":"Point"},"properties":{"osm_id":"5371371814","tag":{"amenity":"recycling","operator":"Ajuntament Sant Boi de Llobregat","recycling:paper":"yes","recycling_type":"container","wheelchair":"no"}},"type":"Feature"},
	{"geometry":{"coordinates":[2.04562,41.338795],"type":"Point"},"properties":{"osm_id":"5371371815","tag":{"amenity":"recycling","operator":"Ajuntament Sant Boi de Llobregat","recycling:glass_bottles":"yes","recycling_type":"container","wheelchair":"no"}},"type":"Feature"},
	{"geometry":{"coordinates":[2.044904,41.33701],"type":"Point"},"properties":{"osm_id":"5371371816","tag":{"amenity":"recycling","operator":"Ajuntament Sant Boi de Llobregat","recycling:waste":"yes","recycling_type":"container","wheelchair":"no"}},"type":"Feature"},
	{"geometry":{"coordinates":[2.044916,41.337001],"type":"Point"},"properties":{"osm_id":"5371371817","tag":{"amenity":"recycling","operator":"Ajuntament Sant Boi de Llobregat","recycling:green_waste":"yes","recycling_type":"container","wheelchair":"no"}},"type":"Feature"},
	{"geometry":{"coordinates":[2.044927,41.336991],"type":"Point"},"properties":{"osm_id":"5371371818","tag":{"amenity":"recycling","operator":"Ajuntament Sant Boi de Llobregat","recycling:plastic_bottles":"yes","recycling:plastic_packaging":"yes","recycling_type":"container","wheelchair":"no"}},"type":"Feature"},
	{"geometry":{"coordinates":[2.044949,41.336972],"type":"Point"},"properties":{"osm_id":"5371371819","tag":{"amenity":"recycling","operator":"Ajuntament Sant Boi de Llobregat","recycling:paper":"yes","recycling_type":"container","wheelchair":"no"}},"type":"Feature"},
	{"geometry":{"coordinates":[2.044938,41.336982],"type":"Point"},"properties":{"osm_id":"5371371820","tag":{"amenity":"recycling","operator":"Ajuntament Sant Boi de Llobregat","recycling:glass_bottles":"yes","recycling_type":"container","wheelchair":"no"}},"type":"Feature"},
	{"geometry":{"coordinates":[2.043933,41.337663],"type":"Point"},"properties":{"osm_id":"5371371921","tag":{"amenity":"recycling","operator":"Ajuntament Sant Boi de Llobregat","recycling:waste":"yes","recycling_type":"container","wheelchair":"no"}},"type":"Feature"},
	{"geometry":{"coordinates":[2.043946,41.337671],"type":"Point"},"properties":{"osm_id":"5371371922","tag":{"amenity":"recycling","operator":"Ajuntament Sant Boi de Llobregat","recycling:green_waste":"yes","recycling_type":"container","wheelchair":"no"}},"type":"Feature"},
	{"geometry":{"coordinates":[2.044526,41.338033],"type":"Point"},"properties":{"osm_id":"5371371923","tag":{"amenity":"recycling","operator":"Ajuntament Sant Boi de Llobregat","recycling:plastic_bottles":"yes","recycling:plastic_packaging":"yes","recycling_type":"container","wheelchair":"no"}},"type":"Feature"},
	{"geometry":{"coordinates":[2.044539,41.338041],"type":"Point"},"properties":{"osm_id":"5371371924","tag":{"amenity":"recycling","operator":"Ajuntament Sant Boi de Llobregat","recycling:glass_bottles":"yes","recycling_type":"container","wheelchair":"no"}},"type":"Feature"},
	{"geometry":{"coordinates":[2.044552,41.338049],"type":"Point"},"properties":{"osm_id":"5371371925","tag":{"amenity":"recycling","operator":"Ajuntament Sant Boi de Llobregat","recycling:paper":"yes","recycling_type":"container","wheelchair":"no"}},"type":"Feature"},
	{"geometry":{"coordinates":[2.044513,41.338025],"type":"Point"},"properties":{"osm_id":"5371371926","tag":{"amenity":"recycling","operator":"Ajuntament Sant Boi de Llobregat","recycling:green_waste":"yes","recycling_type":"container","wheelchair":"no"}},"type":"Feature"},
	{"geometry":{"coordinates":[2.0445,41.338017],"type":"Point"},"properties":{"osm_id":"5371371927","tag":{"amenity":"recycling","operator":"Ajuntament Sant Boi de Llobregat","recycling:waste":"yes","recycling_type":"container","wheelchair":"no"}},"type":"Feature"},
	{"geometry":{"coordinates":[2.045853,41.337598],"type":"Point"},"properties":{"osm_id":"5371371928","tag":{"amenity":"recycling","operator":"Ajuntament Sant Boi de Llobregat","recycling:plastic_bottles":"yes","recycling:plastic_packaging":"yes","recycling_type":"container","wheelchair":"no"}},"type":"Feature"},
	{"geometry":{"coordinates":[2.045842,41.337607],"type":"Point"},"properties":{"osm_id":"5371371929","tag":{"amenity":"recycling","operator":"Ajuntament Sant Boi de Llobregat","recycling:glass_bottles":"yes","recycling_type":"container","wheelchair":"no"}},"type":"Feature"},
	{"geometry":{"coordinates":[2.045831,41.337616],"type":"Point"},"properties":{"osm_id":"5371371930","tag":{"amenity":"recycling","operator":"Ajuntament Sant Boi de Llobregat","recycling:paper":"yes","recycling_type":"container","wheelchair":"no"}},"type":"Feature"},
	{"geometry":{"coordinates":[2.045865,41.337589],"type":"Point"},"properties":{"osm_id":"5371371931","tag":{"amenity":"recycling","operator":"Ajuntament Sant Boi de Llobregat","recycling:green_waste":"yes","recycling_type":"container","wheelchair":"no"}},"type":"Feature"},
	{"geometry":{"coordinates":[2.045877,41.337579],"type":"Point"},"properties":{"osm_id":"5371371932","tag":{"amenity":"recycling","operator":"Ajuntament Sant Boi de Llobregat","recycling:waste":"yes","recycling_type":"container","wheelchair":"no"}},"type":"Feature"},
	{"geometry":{"coordinates":[2.045161,41.338494],"type":"Point"},"properties":{"osm_id":"5371371933","tag":{"amenity":"recycling","operator":"Ajuntament Sant Boi de Llobregat","recycling:plastic_bottles":"yes","recycling:plastic_packaging":"yes","recycling_type":"container","wheelchair":"no"}},"type":"Feature"},
	{"geometry":{"coordinates":[2.045211,41.338527],"type":"Point"},"properties":{"osm_id":"5371371934","tag":{"amenity":"recycling","operator":"Ajuntament Sant Boi de Llobregat","recycling:glass_bottles":"yes","recycling_type":"container","wheelchair":"no"}},"type":"Feature"},
	{"geometry":{"coordinates":[2.045245,41.338545],"type":"Point"},"properties":{"osm_id":"5371371935","tag":{"amenity":"recycling","operator":"Ajuntament Sant Boi de Llobregat","recycling:paper":"yes","recycling_type":"container","wheelchair":"no"}},"type":"Feature"},
	{"geometry":{"coordinates":[2.04518,41.338511],"type":"Point"},"properties":{"osm_id":"5371371936","tag":{"amenity":"recycling","operator":"Ajuntament Sant Boi de Llobregat","recycling:green_waste":"yes","recycling_type":"container","wheelchair":"no"}},"type":"Feature"},
	{"geometry":{"coordinates":[2.045135,41.338483],"type":"Point"},"properties":{"osm_id":"5371371937","tag":{"amenity":"recycling","operator":"Ajuntament Sant Boi de Llobregat","recycling:waste":"yes","recycling_type":"container","wheelchair":"no"}},"type":"Feature"},
	{"geometry":{"coordinates":[2.044201,41.338915],"type":"Point"},"properties":{"osm_id":"5371371938","tag":{"amenity":"recycling","operator":"Ajuntament Sant Boi de Llobregat","recycling:plastic_bottles":"yes","recycling:plastic_packaging":"yes","recycling_type":"container","wheelchair":"no"}},"type":"Feature"},
	{"geometry":{"coordinates":[2.044187,41.338907],"type":"Point"},"properties":{"osm_id":"5371371939","tag":{"amenity":"recycling","operator":"Ajuntament Sant Boi de Llobregat","recycling:glass_bottles":"yes","recycling_type":"container","wheelchair":"no"}},"type":"Feature"},
	{"geometry":{"coordinates":[2.044174,41.338899],"type":"Point"},"properties":{"osm_id":"5371371940","tag":{"amenity":"recycling","operator":"Ajuntament Sant Boi de Llobregat","recycling:paper":"yes","recycling_type":"container","wheelchair":"no"}},"type":"Feature"},
	{"geometry":{"coordinates":[2.044214,41.338923],"type":"Point"},"properties":{"osm_id":"5371371941","tag":{"amenity":"recycling","operator":"Ajuntament Sant Boi de Llobregat","recycling:green_waste":"yes","recycling_type":"container","wheelchair":"no"}},"type":"Feature"},
	{"geometry":{"coordinates":[2.044227,41.338931],"type":"Point"},"properties":{"osm_id":"5371371942","tag":{"amenity":"recycling","operator":"Ajuntament Sant Boi de Llobregat","recycling:waste":"yes","recycling_type":"container","wheelchair":"no"}},"type":"Feature"},
	{"geometry":{"coordinates":[2.043575,41.339661],"type":"Point"},"properties":{"osm_id":"5371371943","tag":{"amenity":"recycling","operator":"Ajuntament Sant Boi de Llobregat","recycling:plastic_bottles":"yes","recycling:plastic_packaging":"yes","recycling_type":"container","wheelchair":"no"}},"type":"Feature"},
	{"geometry":{"coordinates":[2.043564,41.339671],"type":"Point"},"properties":{"osm_id":"5371371944","tag":{"amenity":"recycling","operator":"Ajuntament Sant Boi de Llobregat","recycling:glass_bottles":"yes","recycling_type":"container","wheelchair":"no"}},"type":"Feature"},
	{"geometry":{"coordinates":[2.043552,41.33968],"type":"Point"},"properties":{"osm_id":"5371371945","tag":{"amenity":"recycling","operator":"Ajuntament Sant Boi de Llobregat","recycling:paper":"yes","recycling_type":"container","wheelchair":"no"}},"type":"Feature"},
	{"geometry":{"coordinates":[2.043586,41.339652],"type":"Point"},"properties":{"osm_id":"5371371946","tag":{"amenity":"recycling","operator":"Ajuntament Sant Boi de Llobregat","recycling:green_waste":"yes","recycling_type":"container","wheelchair":"no"}},"type":"Feature"},
	{"geometry":{"coordinates":[2.043598,41.339643],"type":"Point"},"properties":{"osm_id":"5371371947","tag":{"amenity":"recycling","operator":"Ajuntament Sant Boi de Llobregat","recycling:waste":"yes","recycling_type":"container","wheelchair":"no"}},"type":"Feature"},
	{"geometry":{"coordinates":[2.042192,41.340885],"type":"Point"},"properties":{"osm_id":"5371371948","tag":{"amenity":"recycling","operator":"Ajuntament Sant Boi de Llobregat","recycling:plastic_bottles":"yes","recycling:plastic_packaging":"yes","recycling_type":"container","wheelchair":"no"}},"type":"Feature"},
	{"geometry":{"coordinates":[2.042181,41.340895],"type":"Point"},"properties":{"osm_id":"5371371949","tag":{"amenity":"recycling","operator":"Ajuntament Sant Boi de Llobregat","recycling:glass_bottles":"yes","recycling_type":"container","wheelchair":"no"}},"type":"Feature"},
	{"geometry":{"coordinates":[2.042169,41.340904],"type":"Point"},"properties":{"osm_id":"5371371950","tag":{"amenity":"recycling","operator":"Ajuntament Sant Boi de Llobregat","recycling:paper":"yes","recycling_type":"container","wheelchair":"no"}},"type":"Feature"},
	{"geometry":{"coordinates":[2.042204,41.340876],"type":"Point"},"properties":{"osm_id":"5371371951","tag":{"amenity":"recycling","operator":"Ajuntament Sant Boi de Llobregat","recycling:green_waste":"yes","recycling_type":"container","wheelchair":"no"}},"type":"Feature"},
	{"geometry":{"coordinates":[2.042215,41.340867],"type":"Point"},"properties":{"osm_id":"5371371952","tag":{"amenity":"recycling","operator":"Ajuntament Sant Boi de Llobregat","recycling:waste":"yes","recycling_type":"container","wheelchair":"no"}},"type":"Feature"},
	{"geometry":{"coordinates":[2.042793,41.340353],"type":"Point"},"properties":{"osm_id":"5371371953","tag":{"amenity":"recycling","operator":"Ajuntament Sant Boi de Llobregat","recycling:plastic_bottles":"yes","recycling:plastic_packaging":"yes","recycling_type":"container","wheelchair":"no"}},"type":"Feature"},
	{"geometry":{"coordinates":[2.04277,41.340372],"type":"Point"},"properties":{"osm_id":"5371371954","tag":{"amenity":"recycling","operator":"Ajuntament Sant Boi de Llobregat","recycling:paper":"yes","recycling_type":"container","wheelchair":"no"}},"type":"Feature"},
	{"geometry":{"coordinates":[2.042782,41.340362],"type":"Point"},"properties":{"osm_id":"5371371955","tag":{"amenity":"recycling","operator":"Ajuntament Sant Boi de Llobregat","recycling:glass_bottles":"yes","recycling_type":"container","wheelchair":"no"}},"type":"Feature"},
	{"geometry":{"coordinates":[2.042816,41.340335],"type":"Point"},"properties":{"osm_id":"5371371956","tag":{"amenity":"recycling","operator":"Ajuntament Sant Boi de Llobregat","recycling:waste":"yes","recycling_type":"container","wheelchair":"no"}},"type":"Feature"},
	{"geometry":{"coordinates":[2.042805,41.340344],"type":"Point"},"properties":{"osm_id":"5371371957","tag":{"amenity":"recycling","operator":"Ajuntament Sant Boi de Llobregat","recycling:green_waste":"yes","recycling_type":"container","wheelchair":"no"}},"type":"Feature"},
	{"geometry":{"coordinates":[2.038135,41.339725],"type":"Point"},"properties":{"osm_id":"5371371958","tag":{"amenity":"recycling","operator":"Ajuntament Sant Boi de Llobregat","recycling:waste":"yes","recycling_type":"container","wheelchair":"no"}},"type":"Feature"},
	{"geometry":{"coordinates":[2.039071,41.340259],"type":"Point"},"properties":{"osm_id":"5371371959","tag":{"amenity":"recycling","operator":"Ajuntament Sant Boi de Llobregat","recycling:plastic_bottles":"yes","recycling:plastic_packaging":"yes","recycling_type":"container","wheelchair":"no"}},"type":"Feature"},
	{"geometry":{"coordinates":[2.039043,41.340244],"type":"Point"},"properties":{"osm_id":"5371371960","tag":{"amenity":"recycling","operator":"Ajuntament Sant Boi de Llobregat","recycling:paper":"yes","recycling_type":"container","wheelchair":"no"}},"type":"Feature"},
	{"geometry":{"coordinates":[2.039057,41.340251],"type":"Point"},"properties":{"osm_id":"5371371961","tag":{"amenity":"recycling","operator":"Ajuntament Sant Boi de Llobregat","recycling:glass_bottles":"yes","recycling_type":"container","wheelchair":"no"}},"type":"Feature"},
	{"geometry":{"coordinates":[2.039098,41.340273],"type":"Point"},"properties":{"osm_id":"5371371962","tag":{"amenity":"recycling","operator":"Ajuntament Sant Boi de Llobregat","recycling:waste":"yes","recycling_type":"container","wheelchair":"no"}},"type":"Feature"},
	{"geometry":{"coordinates":[2.039084,41.340266],"type":"Point"},"properties":{"osm_id":"5371371963","tag":{"amenity":"recycling","operator":"Ajuntament Sant Boi de Llobregat","recycling:green_waste":"yes","recycling_type":"container","wheelchair":"no"}},"type":"Feature"},
	{"geometry":{"coordinates":[2.039759,41.340065],"type":"Point"},"properties":{"osm_id":"5371371964","tag":{"amenity":"recycling","operator":"Ajuntament Sant Boi de Llobregat","recycling:waste":"yes","recycling_type":"container","wheelchair":"no"}},"type":"Feature"},
	{"geometry":{"coordinates":[2.039748,41.340075],"type":"Point"},"properties":{"osm_id":"5371371965","tag":{"amenity":"recycling","operator":"Ajuntament Sant Boi de Llobregat","recycling:green_waste":"yes","recycling_type":"container","wheelchair":"no"}},"type":"Feature"},
	{"geometry":{"coordinates":[2.041447,41.339415],"type":"Point"},"properties":{"osm_id":"5371371966","tag":{"amenity":"recycling","operator":"Ajuntament Sant Boi de Llobregat","recycling:plastic_bottles":"yes","recycling:plastic_packaging":"yes","recycling_type":"container","wheelchair":"no"}},"type":"Feature"},
	{"geometry":{"coordinates":[2.041449,41.33944],"type":"Point"},"properties":{"osm_id":"5371371967","tag":{"amenity":"recycling","operator":"Ajuntament Sant Boi de Llobregat","recycling:paper":"yes","recycling_type":"container","wheelchair":"no"}},"type":"Feature"},
	{"geometry":{"coordinates":[2.041448,41.339427],"type":"Point"},"properties":{"osm_id":"5371371968","tag":{"amenity":"recycling","operator":"Ajuntament Sant Boi de Llobregat","recycling:glass_bottles":"yes","recycling_type":"container","wheelchair":"no"}},"type":"Feature"},
	{"geometry":{"coordinates":[2.041444,41.339389],"type":"Point"},"properties":{"osm_id":"5371371969","tag":{"amenity":"recycling","operator":"Ajuntament Sant Boi de Llobregat","recycling:waste":"yes","recycling_type":"container","wheelchair":"no"}},"type":"Feature"},
	{"geometry":{"coordinates":[2.041446,41.339402],"type":"Point"},"properties":{"osm_id":"5371371970","tag":{"amenity":"recycling","operator":"Ajuntament Sant Boi de Llobregat","recycling:green_waste":"yes","recycling_type":"container","wheelchair":"no"}},"type":"Feature"},
	{"geometry":{"coordinates":[2.041363,41.338745],"type":"Point"},"properties":{"osm_id":"5371371971","tag":{"amenity":"recycling","operator":"Ajuntament Sant Boi de Llobregat","recycling:plastic_bottles":"yes","recycling:plastic_packaging":"yes","recycling_type":"container","wheelchair":"no"}},"type":"Feature"},
	{"geometry":{"coordinates":[2.041368,41.33877],"type":"Point"},"properties":{"osm_id":"5371371972","tag":{"amenity":"recycling","operator":"Ajuntament Sant Boi de Llobregat","recycling:paper":"yes","recycling_type":"container","wheelchair":"no"}},"type":"Feature"},
	{"geometry":{"coordinates":[2.041365,41.338758],"type":"Point"},"properties":{"osm_id":"5371371973","tag":{"amenity":"recycling","operator":"Ajuntament Sant Boi de Llobregat","recycling:glass_bottles":"yes","recycling_type":"container","wheelchair":"no"}},"type":"Feature"},
	{"geometry":{"coordinates":[2.041357,41.33872],"type":"Point"},"properties":{"osm_id":"5371371974","tag":{"amenity":"recycling","operator":"Ajuntament Sant Boi de Llobregat","recycling:waste":"yes","recycling_type":"container","wheelchair":"no"}},"type":"Feature"},
	{"geometry":{"coordinates":[2.04136,41.338733],"type":"Point"},"properties":{"osm_id":"5371371975","tag":{"amenity":"recycling","operator":"Ajuntament Sant Boi de Llobregat","recycling:green_waste":"yes","recycling_type":"container","wheelchair":"no"}},"type":"Feature"},
	{"geometry":{"coordinates":[2.039207,41.338507],"type":"Point"},"properties":{"osm_id":"5371371976","tag":{"amenity":"recycling","operator":"Ajuntament Sant Boi de Llobregat","recycling:paper":"yes","recycling_type":"container","wheelchair":"no"}},"type":"Feature"},
	{"geometry":{"coordinates":[2.039181,41.338491],"type":"Point"},"properties":{"osm_id":"5371371977","tag":{"amenity":"recycling","operator":"Ajuntament Sant Boi de Llobregat","recycling:plastic_bottles":"yes","recycling:plastic_packaging":"yes","recycling_type":"container","wheelchair":"no"}},"type":"Feature"},
	{"geometry":{"coordinates":[2.039156,41.338475],"type":"Point"},"properties":{"osm_id":"5371371978","tag":{"amenity":"recycling","operator":"Ajuntament Sant Boi de Llobregat","recycling:waste":"yes","recycling_type":"container","wheelchair":"no"}},"type":"Feature"},
	{"geometry":{"coordinates":[2.039194,41.338499],"type":"Point"},"properties":{"osm_id":"5371371979","tag":{"amenity":"recycling","operator":"Ajuntament Sant Boi de Llobregat","recycling:glass_bottles":"yes","recycling_type":"container","wheelchair":"no"}},"type":"Feature"},
	{"geometry":{"coordinates":[2.039169,41.338483],"type":"Point"},"properties":{"osm_id":"5371371980","tag":{"amenity":"recycling","operator":"Ajuntament Sant Boi de Llobregat","recycling:green_waste":"yes","recycling_type":"container","wheelchair":"no"}},"type":"Feature"},
	{"geometry":{"coordinates":[2.04245,41.337588],"type":"Point"},"properties":{"osm_id":"5371371981","tag":{"amenity":"recycling","operator":"Ajuntament Sant Boi de Llobregat","recycling:paper":"yes","recycling_type":"container","wheelchair":"no"}},"type":"Feature"},
	{"geometry":{"coordinates":[2.042476,41.337572],"type":"Point"},"properties":{"osm_id":"5371371982","tag":{"amenity":"recycling","operator":"Ajuntament Sant Boi de Llobregat","recycling:plastic_bottles":"yes","recycling:plastic_packaging":"yes","recycling_type":"container","wheelchair":"no"}},"type":"Feature"},
	{"geometry":{"coordinates":[2.042503,41.337556],"type":"Point"},"properties":{"osm_id":"5371371983","tag":{"amenity":"recycling","operator":"Ajuntament Sant Boi de Llobregat","recycling:waste":"yes","recycling_type":"container","wheelchair":"no"}},"type":"Feature"},
	{"geometry":{"coordinates":[2.042463,41.33758],"type":"Point"},"properties":{"osm_id":"5371371984","tag":{"amenity":"recycling","operator":"Ajuntament Sant Boi de Llobregat","recycling:glass_bottles":"yes","recycling_type":"container","wheelchair":"no"}},"type":"Feature"},
	{"geometry":{"coordinates":[2.042489,41.337564],"type":"Point"},"properties":{"osm_id":"5371371985","tag":{"amenity":"recycling","operator":"Ajuntament Sant Boi de Llobregat","recycling:green_waste":"yes","recycling_type":"container","wheelchair":"no"}},"type":"Feature"},
	{"geometry":{"coordinates":[2.042921,41.337101],"type":"Point"},"properties":{"osm_id":"5371371986","tag":{"amenity":"recycling","operator":"Ajuntament Sant Boi de Llobregat","recycling:paper":"yes","recycling_type":"container","wheelchair":"no"}},"type":"Feature"},
	{"geometry":{"coordinates":[2.042895,41.337084],"type":"Point"},"properties":{"osm_id":"5371371987","tag":{"amenity":"recycling","operator":"Ajuntament Sant Boi de Llobregat","recycling:plastic_bottles":"yes","recycling:plastic_packaging":"yes","recycling_type":"container","wheelchair":"no"}},"type":"Feature"},
	{"geometry":{"coordinates":[2.042869,41.337068],"type":"Point"},"properties":{"osm_id":"5371371988","tag":{"amenity":"recycling","operator":"Ajuntament Sant Boi de Llobregat","recycling:waste":"yes","recycling_type":"container","wheelchair":"no"}},"type":"Feature"},
	{"geometry":{"coordinates":[2.042908,41.337092],"type":"Point"},"properties":{"osm_id":"5371371989","tag":{"amenity":"recycling","operator":"Ajuntament Sant Boi de Llobregat","recycling:glass_bottles":"yes","recycling_type":"container","wheelchair":"no"}},"type":"Feature"},
	{"geometry":{"coordinates":[2.042882,41.337076],"type":"Point"},"properties":{"osm_id":"5371371990","tag":{"amenity":"recycling","operator":"Ajuntament Sant Boi de Llobregat","recycling:green_waste":"yes","recycling_type":"container","wheelchair":"no"}},"type":"Feature"},
	{"geometry":{"coordinates":[2.044049,41.33652],"type":"Point"},"properties":{"osm_id":"5371371991","tag":{"amenity":"recycling","operator":"Ajuntament Sant Boi de Llobregat","recycling:paper":"yes","recycling_type":"container","wheelchair":"no"}},"type":"Feature"},
	{"geometry":{"coordinates":[2.044076,41.336504],"type":"Point"},"properties":{"osm_id":"5371371992","tag":{"amenity":"recycling","operator":"Ajuntament Sant Boi de Llobregat","recycling:plastic_bottles":"yes","recycling:plastic_packaging":"yes","recycling_type":"container","wheelchair":"no"}},"type":"Feature"},
	{"geometry":{"coordinates":[2.044103,41.336488],"type":"Point"},"properties":{"osm_id":"5371371993","tag":{"amenity":"recycling","operator":"Ajuntament Sant Boi de Llobregat","recycling:waste":"yes","recycling_type":"container","wheelchair":"no"}},"type":"Feature"},
	{"geometry":{"coordinates":[2.044063,41.336512],"type":"Point"},"properties":{"osm_id":"5371371994","tag":{"amenity":"recycling","operator":"Ajuntament Sant Boi de Llobregat","recycling:glass_bottles":"yes","recycling_type":"container","wheelchair":"no"}},"type":"Feature"},
	{"geometry":{"coordinates":[2.044089,41.336496],"type":"Point"},"properties":{"osm_id":"5371371995","tag":{"amenity":"recycling","operator":"Ajuntament Sant Boi de Llobregat","recycling:green_waste":"yes","recycling_type":"container","wheelchair":"no"}},"type":"Feature"},
	{"geometry":{"coordinates":[2.042964,41.336124],"type":"Point"},"properties":{"osm_id":"5371371996","tag":{"amenity":"recycling","operator":"Ajuntament Sant Boi de Llobregat","recycling:green_waste":"yes","recycling_type":"container","wheelchair":"no"}},"type":"Feature"},
	{"geometry":{"coordinates":[2.042989,41.336111],"type":"Point"},"properties":{"osm_id":"5371371997","tag":{"amenity":"recycling","operator":"Ajuntament Sant Boi de Llobregat","recycling:waste":"yes","recycling_type":"container","wheelchair":"no"}},"type":"Feature"},
	{"geometry":{"coordinates":[2.042975,41.336118],"type":"Point"},"properties":{"osm_id":"5371371998","tag":{"amenity":"recycling","operator":"Ajuntament Sant Boi de Llobregat","recycling:green_waste":"yes","recycling_type":"container","wheelchair":"no"}},"type":"Feature"},
	{"geometry":{"coordinates":[2.04235,41.33654],"type":"Point"},"properties":{"osm_id":"5371371999","tag":{"amenity":"recycling","operator":"Ajuntament Sant Boi de Llobregat","recycling:waste":"yes","recycling_type":"container","wheelchair":"no"}},"type":"Feature"},
	{"geometry":{"coordinates":[2.042338,41.336549],"type":"Point"},"properties":{"osm_id":"5371372000","tag":{"amenity":"recycling","operator":"Ajuntament Sant Boi de Llobregat","recycling:green_waste":"yes","recycling_type":"container","wheelchair":"no"}},"type":"Feature"},
	{"geometry":{"coordinates":[2.041485,41.337115],"type":"Point"},"properties":{"osm_id":"5371372001","tag":{"amenity":"recycling","operator":"Ajuntament Sant Boi de Llobregat","recycling:waste":"yes","recycling_type":"container","wheelchair":"no"}},"type":"Feature"},
	{"geometry":{"coordinates":[2.041472,41.337123],"type":"Point"},"properties":{"osm_id":"5371372002","tag":{"amenity":"recycling","operator":"Ajuntament Sant Boi de Llobregat","recycling:green_waste":"yes","recycling_type":"container","wheelchair":"no"}},"type":"Feature"},
	{"geometry":{"coordinates":[2.040967,41.337463],"type":"Point"},"properties":{"osm_id":"5371372003","tag":{"amenity":"recycling","operator":"Ajuntament Sant Boi de Llobregat","recycling:paper":"yes","recycling_type":"container","wheelchair":"no"}},"type":"Feature"},
	{"geometry":{"coordinates":[2.040993,41.337447],"type":"Point"},"properties":{"osm_id":"5371372004","tag":{"amenity":"recycling","operator":"Ajuntament Sant Boi de Llobregat","recycling:plastic_bottles":"yes","recycling:plastic_packaging":"yes","recycling_type":"container","wheelchair":"no"}},"type":"Feature"},
	{"geometry":{"coordinates":[2.041019,41.33743],"type":"Point"},"properties":{"osm_id":"5371372005","tag":{"amenity":"recycling","operator":"Ajuntament Sant Boi de Llobregat","recycling:waste":"yes","recycling_type":"container","wheelchair":"no"}},"type":"Feature"},
	{"geometry":{"coordinates":[2.04098,41.337455],"type":"Point"},"properties":{"osm_id":"5371372006","tag":{"amenity":"recycling","operator":"Ajuntament Sant Boi de Llobregat","recycling:glass_bottles":"yes","recycling_type":"container","wheelchair":"no"}},"type":"Feature"},
	{"geometry":{"coordinates":[2.041006,41.337438],"type":"Point"},"properties":{"osm_id":"5371372007","tag":{"amenity":"recycling","operator":"Ajuntament Sant Boi de Llobregat","recycling:green_waste":"yes","recycling_type":"container","wheelchair":"no"}},"type":"Feature"},
	{"geometry":{"coordinates":[2.041275,41.337775],"type":"Point"},"properties":{"osm_id":"5371372008","tag":{"amenity":"recycling","operator":"Ajuntament Sant Boi de Llobregat","recycling:waste":"yes","recycling_type":"container","wheelchair":"no"}},"type":"Feature"},
	{"geometry":{"coordinates":[2.041262,41.337783],"type":"Point"},"properties":{"osm_id":"5371372009","tag":{"amenity":"recycling","operator":"Ajuntament Sant Boi de Llobregat","recycling:green_waste":"yes","recycling_type":"container","wheelchair":"no"}},"type":"Feature"},
	{"geometry":{"coordinates":[2.042059,41.337319],"type":"Point"},"properties":{"osm_id":"5371372010","tag":{"amenity":"recycling","operator":"Ajuntament Sant Boi de Llobregat","recycling:waste":"yes","recycling_type":"container","wheelchair":"no"}},"type":"Feature"},
	{"geometry":{"coordinates":[2.042046,41.337327],"type":"Point"},"properties":{"osm_id":"5371372011","tag":{"amenity":"recycling","operator":"Ajuntament Sant Boi de Llobregat","recycling:green_waste":"yes","recycling_type":"container","wheelchair":"no"}},"type":"Feature"},
	{"geometry":{"coordinates":[2.042531,41.33693],"type":"Point"},"properties":{"osm_id":"5371372012","tag":{"amenity":"recycling","operator":"Ajuntament Sant Boi de Llobregat","recycling:waste":"yes","recycling_type":"container","wheelchair":"no"}},"type":"Feature"},
	{"geometry":{"coordinates":[2.042518,41.336938],"type":"Point"},"properties":{"osm_id":"5371372013","tag":{"amenity":"recycling","operator":"Ajuntament Sant Boi de Llobregat","recycling:green_waste":"yes","recycling_type":"container","wheelchair":"no"}},"type":"Feature"},
	{"geometry":{"coordinates":[2.043596,41.336223],"type":"Point"},"properties":{"osm_id":"5371372014","tag":{"amenity":"recycling","operator":"Ajuntament Sant Boi de Llobregat","recycling:waste":"yes","recycling_type":"container","wheelchair":"no"}},"type":"Feature"},
	{"geometry":{"coordinates":[2.043583,41.33623],"type":"Point"},"properties":{"osm_id":"5371372015","tag":{"amenity":"recycling","operator":"Ajuntament Sant Boi de Llobregat","recycling:green_waste":"yes","recycling_type":"container","wheelchair":"no"}},"type":"Feature"},
	{"geometry":{"coordinates":[2.04429,41.335755],"type":"Point"},"properties":{"osm_id":"5371372016","tag":{"amenity":"recycling","operator":"Ajuntament Sant Boi de Llobregat","recycling:waste":"yes","recycling_type":"container","wheelchair":"no"}},"type":"Feature"},
	{"geometry":{"coordinates":[2.044276,41.335762],"type":"Point"},"properties":{"osm_id":"5371372017","tag":{"amenity":"recycling","operator":"Ajuntament Sant Boi de Llobregat","recycling:green_waste":"yes","recycling_type":"container","wheelchair":"no"}},"type":"Feature"},
	{"geometry":{"coordinates":[2.044781,41.336138],"type":"Point"},"properties":{"osm_id":"5371372018","tag":{"amenity":"recycling","operator":"Ajuntament Sant Boi de Llobregat","recycling:paper":"yes","recycling_type":"container","wheelchair":"no"}},"type":"Feature"},
	{"geometry":{"coordinates":[2.044808,41.336123],"type":"Point"},"properties":{"osm_id":"5371372019","tag":{"amenity":"recycling","operator":"Ajuntament Sant Boi de Llobregat","recycling:plastic_bottles":"yes","recycling:plastic_packaging":"yes","recycling_type":"container","wheelchair":"no"}},"type":"Feature"},
	{"geometry":{"coordinates":[2.044836,41.336109],"type":"Point"},"properties":{"osm_id":"5371372020","tag":{"amenity":"recycling","operator":"Ajuntament Sant Boi de Llobregat","recycling:waste":"yes","recycling_type":"container","wheelchair":"no"}},"type":"Feature"},
	{"geometry":{"coordinates":[2.044795,41.336131],"type":"Point"},"properties":{"osm_id":"5371372121","tag":{"amenity":"recycling","operator":"Ajuntament Sant Boi de Llobregat","recycling:glass_bottles":"yes","recycling_type":"container","wheelchair":"no"}},"type":"Feature"},
	{"geometry":{"coordinates":[2.044822,41.336116],"type":"Point"},"properties":{"osm_id":"5371372122","tag":{"amenity":"recycling","operator":"Ajuntament Sant Boi de Llobregat","recycling:green_waste":"yes","recycling_type":"container","wheelchair":"no"}},"type":"Feature"},
	{"geometry":{"coordinates":[2.044576,41.335768],"type":"Point"},"properties":{"osm_id":"5371372123","tag":{"amenity":"recycling","operator":"Ajuntament Sant Boi de Llobregat","recycling:paper":"yes","recycling_type":"container","wheelchair":"no"}},"type":"Feature"},
	{"geometry":{"coordinates":[2.044525,41.335736],"type":"Point"},"properties":{"osm_id":"5371372124","tag":{"amenity":"recycling","operator":"Ajuntament Sant Boi de Llobregat","recycling:waste":"yes","recycling_type":"container","wheelchair":"no"}},"type":"Feature"},
	{"geometry":{"coordinates":[2.044551,41.335752],"type":"Point"},"properties":{"osm_id":"5371372125","tag":{"amenity":"recycling","operator":"Ajuntament Sant Boi de Llobregat","recycling:plastic_bottles":"yes","recycling:plastic_packaging":"yes","recycling_type":"container","wheelchair":"no"}},"type":"Feature"},
	{"geometry":{"coordinates":[2.044538,41.335744],"type":"Point"},"properties":{"osm_id":"5371372126","tag":{"amenity":"recycling","operator":"Ajuntament Sant Boi de Llobregat","recycling:green_waste":"yes","recycling_type":"container","wheelchair":"no"}},"type":"Feature"},
	{"geometry":{"coordinates":[2.044564,41.33576],"type":"Point"},"properties":{"osm_id":"5371372127","tag":{"amenity":"recycling","operator":"Ajuntament Sant Boi de Llobregat","recycling:glass_bottles":"yes","recycling_type":"container","wheelchair":"no"}},"type":"Feature"},
	{"geometry":{"coordinates":[2.043805,41.335366],"type":"Point"},"properties":{"osm_id":"5371372128","tag":{"amenity":"recycling","operator":"Ajuntament Sant Boi de Llobregat","recycling:green_waste":"yes","recycling_type":"container","wheelchair":"no"}},"type":"Feature"},
	{"geometry":{"coordinates":[2.043831,41.335383],"type":"Point"},"properties":{"osm_id":"5371372129","tag":{"amenity":"recycling","operator":"Ajuntament Sant Boi de Llobregat","recycling:glass_bottles":"yes","recycling_type":"container","wheelchair":"no"}},"type":"Feature"},
	{"geometry":{"coordinates":[2.043792,41.335358],"type":"Point"},"properties":{"osm_id":"5371372130","tag":{"amenity":"recycling","operator":"Ajuntament Sant Boi de Llobregat","recycling:waste":"yes","recycling_type":"container","wheelchair":"no"}},"type":"Feature"},
	{"geometry":{"coordinates":[2.043843,41.335391],"type":"Point"},"properties":{"osm_id":"5371372131","tag":{"amenity":"recycling","operator":"Ajuntament Sant Boi de Llobregat","recycling:paper":"yes","recycling_type":"container","wheelchair":"no"}},"type":"Feature"},
	{"geometry":{"coordinates":[2.043818,41.335375],"type":"Point"},"properties":{"osm_id":"5371372132","tag":{"amenity":"recycling","operator":"Ajuntament Sant Boi de Llobregat","recycling:plastic_bottles":"yes","recycling:plastic_packaging":"yes","recycling_type":"container","wheelchair":"no"}},"type":"Feature"},
	{"geometry":{"coordinates":[2.043394,41.335004],"type":"Point"},"properties":{"osm_id":"5371372133","tag":{"amenity":"recycling","operator":"Ajuntament Sant Boi de Llobregat","recycling:green_waste":"yes","recycling_type":"container","wheelchair":"no"}},"type":"Feature"},
	{"geometry":{"coordinates":[2.043368,41.334988],"type":"Point"},"properties":{"osm_id":"5371372134","tag":{"amenity":"recycling","operator":"Ajuntament Sant Boi de Llobregat","recycling:waste":"yes","recycling_type":"container","wheelchair":"no"}},"type":"Feature"},
	{"geometry":{"coordinates":[2.043381,41.334996],"type":"Point"},"properties":{"osm_id":"5371372135","tag":{"amenity":"recycling","operator":"Ajuntament Sant Boi de Llobregat","recycling:waste":"yes","recycling_type":"container","wheelchair":"no"}},"type":"Feature"},
	{"geometry":{"coordinates":[2.042814,41.334639],"type":"Point"},"properties":{"osm_id":"5371372136","tag":{"amenity":"recycling","operator":"Ajuntament Sant Boi de Llobregat","recycling:waste":"yes","recycling_type":"container","wheelchair":"no"}},"type":"Feature"},
	{"geometry":{"coordinates":[2.04284,41.334655],"type":"Point"},"properties":{"osm_id":"5371372137","tag":{"amenity":"recycling","operator":"Ajuntament Sant Boi de Llobregat","recycling:green_waste":"yes","recycling_type":"container","wheelchair":"no"}},"type":"Feature"},
	{"geometry":{"coordinates":[2.042827,41.334647],"type":"Point"},"properties":{"osm_id":"5371372138","tag":{"amenity":"recycling","operator":"Ajuntament Sant Boi de Llobregat","recycling:waste":"yes","recycling_type":"container","wheelchair":"no"}},"type":"Feature"},
	{"geometry":{"coordinates":[2.042866,41.334672],"type":"Point"},"properties":{"osm_id":"5371372139","tag":{"amenity":"recycling","operator":"Ajuntament Sant Boi de Llobregat","recycling:glass_bottles":"yes","recycling_type":"container","wheelchair":"no"}},"type":"Feature"},
	{"geometry":{"coordinates":[2.042853,41.334664],"type":"Point"},"properties":{"osm_id":"5371372140","tag":{"amenity":"recycling","operator":"Ajuntament Sant Boi de Llobregat","recycling:plastic_bottles":"yes","recycling:plastic_packaging":"yes","recycling_type":"container","wheelchair":"no"}},"type":"Feature"},
	{"geometry":{"coordinates":[2.042879,41.33468],"type":"Point"},"properties":{"osm_id":"5371372141","tag":{"amenity":"recycling","operator":"Ajuntament Sant Boi de Llobregat","recycling:paper":"yes","recycling_type":"container","wheelchair":"no"}},"type":"Feature"},
	{"geometry":{"coordinates":[2.041481,41.336113],"type":"Point"},"properties":{"osm_id":"5371372142","tag":{"amenity":"recycling","operator":"Ajuntament Sant Boi de Llobregat","recycling:paper":"yes","recycling_type":"container","wheelchair":"no"}},"type":"Feature"},
	{"geometry":{"coordinates":[2.041457,41.336079],"type":"Point"},"properties":{"osm_id":"5371372143","tag":{"amenity":"recycling","operator":"Ajuntament Sant Boi de Llobregat","recycling:green_waste":"yes","recycling_type":"container","wheelchair":"no"}},"type":"Feature"},
	{"geometry":{"coordinates":[2.04145,41.336068],"type":"Point"},"properties":{"osm_id":"5371372144","tag":{"amenity":"recycling","operator":"Ajuntament Sant Boi de Llobregat","recycling:waste":"yes","recycling_type":"container","wheelchair":"no"}},"type":"Feature"},
	{"geometry":{"coordinates":[2.041473,41.336102],"type":"Point"},"properties":{"osm_id":"5371372145","tag":{"amenity":"recycling","operator":"Ajuntament Sant Boi de Llobregat","recycling:glass_bottles":"yes","recycling_type":"container","wheelchair":"no"}},"type":"Feature"},
	{"geometry":{"coordinates":[2.041465,41.33609],"type":"Point"},"properties":{"osm_id":"5371372146","tag":{"amenity":"recycling","operator":"Ajuntament Sant Boi de Llobregat","recycling:plastic_bottles":"yes","recycling:plastic_packaging":"yes","recycling_type":"container","wheelchair":"no"}},"type":"Feature"},
	{"geometry":{"coordinates":[2.032833,41.357534],"type":"Point"},"properties":{"osm_id":"5402521294","tag":{"amenity":"waste_basket","waste":"trash"}},"type":"Feature"},
	{"geometry":{"coordinates":[2.03266,41.357714],"type":"Point"},"properties":{"osm_id":"5402521463","tag":{"amenity":"waste_basket"}},"type":"Feature"},
	{"geometry":{"coordinates":[2.032159,41.35764],"type":"Point"},"properties":{"osm_id":"5402521464","tag":{"amenity":"waste_basket"}},"type":"Feature"},
	{"geometry":{"coordinates":[2.031881,41.35759],"type":"Point"},"properties":{"osm_id":"5402521465","tag":{"amenity":"waste_basket"}},"type":"Feature"},
	{"geometry":{"coordinates":[2.045928,41.343807],"type":"Point"},"properties":{"osm_id":"6238210112","tag":{"amenity":"waste_basket","waste":"trash"}},"type":"Feature"},
	{"geometry":{"coordinates":[2.045675,41.344208],"type":"Point"},"properties":{"osm_id":"6238210118","tag":{"amenity":"waste_basket"}},"type":"Feature"},
	{"geometry":{"coordinates":[2.045876,41.343915],"type":"Point"},"properties":{"osm_id":"6238210126","tag":{"amenity":"waste_basket","waste":"trash"}},"type":"Feature"},
	{"geometry":{"coordinates":[2.046,41.343902],"type":"Point"},"properties":{"osm_id":"6238210127","tag":{"amenity":"waste_basket","waste":"trash"}},"type":"Feature"},
	{"geometry":{"coordinates":[2.045973,41.344383],"type":"Point"},"properties":{"osm_id":"6238210135","tag":{"amenity":"waste_basket"}},"type":"Feature"},
	{"geometry":{"coordinates":[2.046136,41.344594],"type":"Point"},"properties":{"osm_id":"6238210136","tag":{"amenity":"waste_basket"}},"type":"Feature"},
	{"geometry":{"coordinates":[2.046291,41.344025],"type":"Point"},"properties":{"osm_id":"6238210140","tag":{"amenity":"waste_basket","waste":"trash"}},"type":"Feature"},
	{"geometry":{"coordinates":[2.046149,41.344528],"type":"Point"},"properties":{"osm_id":"6238210142","tag":{"amenity":"waste_basket"}},"type":"Feature"},
	{"geometry":{"coordinates":[2.046051,41.344273],"type":"Point"},"properties":{"osm_id":"6238210147","tag":{"amenity":"waste_basket"}},"type":"Feature"},
	{"geometry":{"coordinates":[2.046418,41.3425],"type":"Point"},"properties":{"osm_id":"6238221982","tag":{"amenity":"waste_basket","waste":"trash"}},"type":"Feature"},
	{"geometry":{"coordinates":[2.046731,41.341814],"type":"Point"},"properties":{"osm_id":"6238250689","tag":{"amenity":"waste_basket","waste":"trash"}},"type":"Feature"},
	{"geometry":{"coordinates":[2.046485,41.344721],"type":"Point"},"properties":{"osm_id":"6239027833","tag":{"amenity":"waste_basket","waste":"trash"}},"type":"Feature"},
	{"geometry":{"coordinates":[2.046387,41.344732],"type":"Point"},"properties":{"osm_id":"6239027834","tag":{"amenity":"waste_basket","waste":"trash"}},"type":"Feature"},
	{"geometry":{"coordinates":[2.045472,41.343386],"type":"Point"},"properties":{"osm_id":"6240072743","tag":{"amenity":"waste_basket","waste":"trash"}},"type":"Feature"},
	{"geometry":{"coordinates":[2.106729,41.331027],"type":"Point"},"properties":{"osm_id":"6397102600","tag":{"amenity":"waste_basket","waste":"trash"}},"type":"Feature"},
	{"geometry":{"coordinates":[2.106453,41.331311],"type":"Point"},"properties":{"osm_id":"6397102601","tag":{"amenity":"waste_basket","waste":"trash"}},"type":"Feature"},
	{"geometry":{"coordinates":[2.107715,41.330142],"type":"Point"},"properties":{"osm_id":"6397102605","tag":{"amenity":"waste_basket","waste":"trash"}},"type":"Feature"},
	{"geometry":{"coordinates":[2.109222,41.328486],"type":"Point"},"properties":{"osm_id":"6397102606","tag":{"amenity":"waste_basket","waste":"trash"}},"type":"Feature"},
	{"geometry":{"coordinates":[2.108218,41.327963],"type":"Point"},"properties":{"osm_id":"6397102613","tag":{"amenity":"waste_basket","waste":"trash"}},"type":"Feature"},
	{"geometry":{"coordinates":[2.099464,41.319438],"type":"Point"},"properties":{"osm_id":"6397102616","tag":{"amenity":"waste_basket","waste":"trash"}},"type":"Feature"},
	{"geometry":{"coordinates":[2.10009,41.318898],"type":"Point"},"properties":{"osm_id":"6397102620","tag":{"amenity":"waste_basket","waste":"trash"}},"type":"Feature"},
	{"geometry":{"coordinates":[2.100976,41.318086],"type":"Point"},"properties":{"osm_id":"6397102628","tag":{"amenity":"waste_basket","waste":"trash"}},"type":"Feature"},
	{"geometry":{"coordinates":[2.1004,41.318616],"type":"Point"},"properties":{"osm_id":"6397121981","tag":{"amenity":"waste_basket","waste":"trash"}},"type":"Feature"},
	{"geometry":{"coordinates":[2.045901,41.346683],"type":"Point"},"properties":{"osm_id":"6821187028","tag":{"amenity":"waste_basket","waste":"trash"}},"type":"Feature"},
	{"geometry":{"coordinates":[2.030031,41.341888],"type":"Point"},"properties":{"osm_id":"7034683328","tag":{"amenity":"recycling","recycling:glass_bottles":"yes","recycling_type":"container"}},"type":"Feature"},
	{"geometry":{"coordinates":[2.030031,41.341868],"type":"Point"},"properties":{"osm_id":"7034683329","tag":{"amenity":"recycling","recycling:glass_bottles":"yes","recycling_type":"container"}},"type":"Feature"},
	{"geometry":{"coordinates":[2.030032,41.341845],"type":"Point"},"properties":{"osm_id":"7034683330","tag":{"amenity":"recycling","recycling:plastic":"yes","recycling_type":"container"}},"type":"Feature"},
	{"geometry":{"coordinates":[2.030029,41.341825],"type":"Point"},"properties":{"osm_id":"7034683331","tag":{"amenity":"recycling","recycling:organic":"yes","recycling_type":"container"}},"type":"Feature"},
	{"geometry":{"coordinates":[2.030026,41.341803],"type":"Point"},"properties":{"osm_id":"7034683332","tag":{"amenity":"recycling","recycling:waste":"yes","recycling_type":"container"}},"type":"Feature"},
	{"geometry":{"coordinates":[2.085281,41.360639],"type":"Point"},"properties":{"osm_id":"7942960953","tag":{"amenity":"recycling","recycling_type":"container"}},"type":"Feature"}
]
}
