{
"type": "FeatureCollection",
"features": [
	{"geometry":{"coordinates":[2.096446,13.488034],"type":"Point"},"properties":{"osm_id":"3156089493","tag":{"amenity":"waste_disposal","project:pdevii":"yes"}},"type":"Feature"},
	{"geometry":{"coordinates":[2.10131,13.490886],"type":"Point"},"properties":{"osm_id":"3350038494","tag":{"amenity":"waste_disposal"}},"type":"Feature"},
	{"geometry":{"coordinates":[2.10213,13.488136],"type":"Point"},"properties":{"osm_id":"3488454941","tag":{"amenity":"waste_disposal"}},"type":"Feature"},
	{"geometry":{"coordinates":[2.083969,13.488814],"type":"Point"},"properties":{"osm_id":"3488454942","tag":{"amenity":"waste_disposal"}},"type":"Feature"},
	{"geometry":{"coordinates":[2.082608,13.491178],"type":"Point"},"properties":{"osm_id":"3488454943","tag":{"amenity":"waste_disposal"}},"type":"Feature"},
	{"geometry":{"coordinates":[2.090266,13.495372],"type":"Point"},"properties":{"osm_id":"3488454944","tag":{"amenity":"waste_disposal"}},"type":"Feature"},
	{"geometry":{"coordinates":[2.095056,13.478595],"type":"Point"},"properties":{"osm_id":"3490814200","tag":{"amenity":"waste_disposal"}},"type":"Feature"},
	{"geometry":{"coordinates":[2.08904,13.48622],"type":"Point"},"properties":{"osm_id":"3495097494","tag":{"amenity":"waste_disposal"}},"type":"Feature"},
	{"geometry":{"coordinates":[2.105906,13.481034],"type":"Point"},"properties":{"osm_id":"3502749178","tag":{"amenity":"waste_disposal"}},"type":"Feature"},
	{"geometry":{"coordinates":[2.105321,13.489297],"type":"Point"},"properties":{"osm_id":"3502749179","tag":{"amenity":"waste_disposal"}},"type":"Feature"},
	{"geometry":{"coordinates":[2.104585,13.489638],"type":"Point"},"properties":{"osm_id":"3526252170","tag":{"amenity":"waste_disposal"}},"type":"Feature"},
	{"geometry":{"coordinates":[2.103823,13.489999],"type":"Point"},"properties":{"osm_id":"3526252172","tag":{"amenity":"waste_disposal"}},"type":"Feature"},
	{"geometry":{"coordinates":[2.092277,13.486867],"type":"Point"},"properties":{"osm_id":"3987735123","tag":{"amenity":"waste_disposal","project:pdevii":"yes"}},"type":"Feature"}
]
}
