{
"type": "FeatureCollection",
"features": [
	{"geometry":{"coordinates":[-95.888843,41.117243],"type":"Point"},"properties":{"osm_id":"2014578063","tag":{"amenity":"waste_basket"}},"type":"Feature"},
	{"geometry":{"coordinates":[-95.960191,41.16228],"type":"Point"},"properties":{"osm_id":"3749637855","tag":{"amenity":"waste_basket"}},"type":"Feature"},
	{"geometry":{"coordinates":[-95.975296,41.137838],"type":"Point"},"properties":{"osm_id":"3790780543","tag":{"amenity":"waste_basket"}},"type":"Feature"},
	{"geometry":{"coordinates":[-95.933182,41.114387],"type":"Point"},"properties":{"osm_id":"3801557120","tag":{"amenity":"recycling","opening_hours":"24/7","recycling:scrap_metal":"yes","recycling_type":"container"}},"type":"Feature"},
	{"geometry":{"coordinates":[-95.922216,41.163258],"type":"Point"},"properties":{"name":"TGB Recycling Drop Off Center","osm_id":"4006941298","tag":{"addr:housenumber":"209","addr:street":"Galvin Road North","amenity":"recycling","email":"thinkgreenbellevue@gmail.com","recycling:batteries":"yes","recycling:cans":"yes","recycling:paper":"yes","recycling:plastic":"yes","recycling:plastic_bottles":"yes","recycling:scrap_metal":"yes","recycling_type":"centre","website":"https://sites.google.com/a/greenbellevue.org/green-bellevue/tgb-recycling"}},"type":"Feature"},
	{"geometry":{"coordinates":[-95.970425,41.142027],"type":"Point"},"properties":{"osm_id":"4141690592","tag":{"amenity":"waste_basket"}},"type":"Feature"},
	{"geometry":{"coordinates":[-95.970143,41.14204],"type":"Point"},"properties":{"osm_id":"4141690593","tag":{"amenity":"waste_basket"}},"type":"Feature"},
	{"geometry":{"coordinates":[-95.904069,41.143916],"type":"Point"},"properties":{"osm_id":"4218516914","tag":{"amenity":"waste_basket"}},"type":"Feature"},
	{"geometry":{"coordinates":[-95.903888,41.144792],"type":"Point"},"properties":{"osm_id":"4218516927","tag":{"amenity":"waste_basket"}},"type":"Feature"},
	{"geometry":{"coordinates":[-95.915918,41.148802],"type":"Point"},"properties":{"osm_id":"4285202367","tag":{"amenity":"waste_basket"}},"type":"Feature"},
	{"geometry":{"coordinates":[-95.896106,41.136595],"type":"Point"},"properties":{"osm_id":"4421754305","tag":{"amenity":"waste_basket"}},"type":"Feature"},
	{"geometry":{"coordinates":[-95.896137,41.136595],"type":"Point"},"properties":{"osm_id":"4421754306","tag":{"amenity":"recycling","recycling_type":"container","wheelchair":"yes"}},"type":"Feature"},
	{"geometry":{"coordinates":[-95.957641,41.138088],"type":"Point"},"properties":{"osm_id":"4744165901","tag":{"amenity":"waste_basket"}},"type":"Feature"},
	{"geometry":{"coordinates":[-95.946463,41.115063],"type":"Point"},"properties":{"osm_id":"5123251247","tag":{"amenity":"waste_basket"}},"type":"Feature"},
	{"geometry":{"coordinates":[-95.919191,41.11664],"type":"Point"},"properties":{"osm_id":"5471971795","tag":{"amenity":"recycling","recycling:cans":"yes","recycling:plastic":"yes","recycling:plastic_bottles":"yes","recycling_type":"container"}},"type":"Feature"},
	{"geometry":{"coordinates":[-95.965017,41.131547],"type":"Point"},"properties":{"osm_id":"5872874509","tag":{"amenity":"waste_disposal"}},"type":"Feature"},
	{"geometry":{"coordinates":[-95.965951,41.132587],"type":"Point"},"properties":{"osm_id":"5872874510","tag":{"amenity":"waste_disposal"}},"type":"Feature"},
	{"geometry":{"coordinates":[-95.964196,41.132699],"type":"Point"},"properties":{"osm_id":"5872874511","tag":{"amenity":"waste_disposal"}},"type":"Feature"},
	{"geometry":{"coordinates":[-95.964854,41.129418],"type":"Point"},"properties":{"osm_id":"5872874512","tag":{"amenity":"waste_disposal"}},"type":"Feature"},
	{"geometry":{"coordinates":[-95.965822,41.129523],"type":"Point"},"properties":{"osm_id":"5872874513","tag":{"amenity":"waste_disposal"}},"type":"Feature"},
	{"geometry":{"coordinates":[-95.89537,41.136428],"type":"Point"},"properties":{"osm_id":"6444235730","tag":{"amenity":"waste_basket"}},"type":"Feature"},
	{"geometry":{"coordinates":[-95.963137,41.135827],"type":"Point"},"properties":{"osm_id":"7080343834","tag":{"amenity":"waste_basket"}},"type":"Feature"},
	{"geometry":{"coordinates":[-95.946981,41.113734],"type":"Point"},"properties":{"osm_id":"7640685626","tag":{"amenity":"waste_basket"}},"type":"Feature"},
	{"geometry":{"coordinates":[-95.957758,41.131806],"type":"Point"},"properties":{"osm_id":"7785775680","tag":{"amenity":"waste_basket"}},"type":"Feature"},
	{"geometry":{"coordinates":[-95.967494,41.166879],"type":"Point"},"properties":{"name":"Glass Recycling","osm_id":"7833957419","tag":{"amenity":"recycling"}},"type":"Feature"},
	{"geometry":{"coordinates":[-95.956544,41.135603],"type":"Point"},"properties":{"osm_id":"7838178990","tag":{"amenity":"waste_basket","waste":"trash"}},"type":"Feature"},
	{"geometry":{"coordinates":[-95.960314,41.162441],"type":"Point"},"properties":{"osm_id":"7866465124","tag":{"amenity":"waste_basket","waste":"trash"}},"type":"Feature"}
]
}
