{
"type": "FeatureCollection",
"features": [
	{"geometry":{"coordinates":[-97.261259,33.017982],"type":"Point"},"properties":{"osm_id":"7160771717","tag":{"amenity":"waste_basket"}},"type":"Feature"},
	{"geometry":{"coordinates":[-97.261229,33.018015],"type":"Point"},"properties":{"osm_id":"7160771718","tag":{"amenity":"waste_basket"}},"type":"Feature"},
	{"geometry":{"coordinates":[-97.261132,33.018071],"type":"Point"},"properties":{"osm_id":"7160771723","tag":{"amenity":"waste_basket"}},"type":"Feature"},
	{"geometry":{"coordinates":[-97.260022,33.018888],"type":"Point"},"properties":{"osm_id":"7560274875","tag":{"amenity":"waste_disposal"}},"type":"Feature"},
	{"geometry":{"coordinates":[-97.264522,33.020352],"type":"Point"},"properties":{"osm_id":"7560274928","tag":{"amenity":"waste_basket"}},"type":"Feature"},
	{"geometry":{"coordinates":[-97.265741,33.019784],"type":"Point"},"properties":{"osm_id":"7560275003","tag":{"amenity":"waste_disposal"}},"type":"Feature"},
	{"geometry":{"coordinates":[-97.229969,32.996163],"type":"Point"},"properties":{"osm_id":"7573446556","tag":{"amenity":"waste_disposal"}},"type":"Feature"},
	{"geometry":{"coordinates":[-97.231401,32.996048],"type":"Point"},"properties":{"osm_id":"7573462906","tag":{"amenity":"waste_disposal"}},"type":"Feature"},
	{"geometry":{"coordinates":[-97.230842,32.996877],"type":"Point"},"properties":{"osm_id":"7573462973","tag":{"amenity":"waste_disposal"}},"type":"Feature"},
	{"geometry":{"coordinates":[-97.231023,32.996625],"type":"Point"},"properties":{"osm_id":"7573462974","tag":{"amenity":"waste_disposal"}},"type":"Feature"},
	{"geometry":{"coordinates":[-97.227636,32.994933],"type":"Point"},"properties":{"osm_id":"7580289033","tag":{"amenity":"waste_disposal"}},"type":"Feature"},
	{"geometry":{"coordinates":[-97.230827,32.991517],"type":"Point"},"properties":{"osm_id":"7580491674","tag":{"amenity":"waste_disposal"}},"type":"Feature"},
	{"geometry":{"coordinates":[-97.232578,32.990963],"type":"Point"},"properties":{"osm_id":"7580491675","tag":{"amenity":"waste_disposal"}},"type":"Feature"},
	{"geometry":{"coordinates":[-97.230816,32.992669],"type":"Point"},"properties":{"osm_id":"7580491676","tag":{"amenity":"waste_disposal"}},"type":"Feature"},
	{"geometry":{"coordinates":[-97.23055,32.992411],"type":"Point"},"properties":{"osm_id":"7580491682","tag":{"amenity":"waste_disposal"}},"type":"Feature"},
	{"geometry":{"coordinates":[-97.229819,32.998721],"type":"Point"},"properties":{"osm_id":"7580602776","tag":{"amenity":"waste_disposal"}},"type":"Feature"},
	{"geometry":{"coordinates":[-97.229705,32.998685],"type":"Point"},"properties":{"osm_id":"7580602777","tag":{"amenity":"waste_disposal"}},"type":"Feature"},
	{"geometry":{"coordinates":[-97.228648,32.999877],"type":"Point"},"properties":{"highway":"crossing","osm_id":"7580618569"},"type":"Feature"},
	{"geometry":{"coordinates":[-97.230475,32.99556],"type":"Point"},"properties":{"osm_id":"7611382956","tag":{"amenity":"waste_disposal"}},"type":"Feature"},
	{"geometry":{"coordinates":[-97.24429,33.008706],"type":"Point"},"properties":{"osm_id":"7613177235","tag":{"amenity":"waste_disposal"}},"type":"Feature"}
]
}
