{
"type": "FeatureCollection",
"features": [
	{"geometry":{"coordinates":[-117.695254,33.466727],"type":"Point"},"properties":{"osm_id":"679489450","tag":{"amenity":"recycling"}},"type":"Feature"},
	{"geometry":{"coordinates":[-117.69563,33.462513],"type":"Point"},"properties":{"osm_id":"4328476379","tag":{"amenity":"waste_basket"}},"type":"Feature"},
	{"geometry":{"coordinates":[-117.696972,33.462699],"type":"Point"},"properties":{"osm_id":"4328476381","tag":{"amenity":"waste_basket"}},"type":"Feature"},
	{"geometry":{"coordinates":[-117.696935,33.462706],"type":"Point"},"properties":{"osm_id":"4328476384","tag":{"amenity":"waste_basket"}},"type":"Feature"},
	{"geometry":{"coordinates":[-117.696375,33.462744],"type":"Point"},"properties":{"osm_id":"4328476387","tag":{"amenity":"waste_basket"}},"type":"Feature"},
	{"geometry":{"coordinates":[-117.696008,33.462869],"type":"Point"},"properties":{"osm_id":"4328481598","tag":{"amenity":"waste_basket"}},"type":"Feature"},
	{"geometry":{"coordinates":[-117.700427,33.463388],"type":"Point"},"properties":{"osm_id":"4328481607","tag":{"amenity":"waste_basket"}},"type":"Feature"},
	{"geometry":{"coordinates":[-117.709132,33.465491],"type":"Point"},"properties":{"osm_id":"4328481636","tag":{"amenity":"waste_basket"}},"type":"Feature"},
	{"geometry":{"coordinates":[-117.713815,33.466527],"type":"Point"},"properties":{"osm_id":"4328481644","tag":{"amenity":"waste_basket"}},"type":"Feature"},
	{"geometry":{"coordinates":[-117.717285,33.477877],"type":"Point"},"properties":{"osm_id":"4328481754","tag":{"amenity":"waste_basket"}},"type":"Feature"},
	{"geometry":{"coordinates":[-117.687277,33.499603],"type":"Point"},"properties":{"osm_id":"7657510611","tag":{"amenity":"waste_basket"}},"type":"Feature"},
	{"geometry":{"coordinates":[-117.702694,33.480418],"type":"Point"},"properties":{"osm_id":"7844831918","tag":{"addr:city":"Dana Point","addr:housenumber":"33215","addr:postcode":"92629","addr:street":"Santiago Drive","building":"yes","height":"6.4"}},"type":"Feature"},
	{"geometry":{"coordinates":[-117.699525,33.502541],"type":"Point"},"properties":{"osm_id":"7847736219","tag":{"addr:city":"Laguna Niguel","addr:housenumber":"12","addr:postcode":"92677","addr:street":"Alcott Place","building":"yes","height":"7.14"}},"type":"Feature"}
]
}
