{
"type": "FeatureCollection",
"features": [
	{"geometry":{"coordinates":[-122.906043,49.31523],"type":"Point"},"properties":{"osm_id":"2217068837","tag":{"amenity":"waste_basket"}},"type":"Feature"},
	{"geometry":{"coordinates":[-122.958133,49.303553],"type":"Point"},"properties":{"osm_id":"4325849600","tag":{"amenity":"waste_basket","description":"Not bear proof"}},"type":"Feature"},
	{"geometry":{"coordinates":[-122.958158,49.302883],"type":"Point"},"properties":{"osm_id":"4325849601","tag":{"amenity":"waste_basket","description":"Bear Proof Bin"}},"type":"Feature"},
	{"geometry":{"coordinates":[-122.958249,49.301654],"type":"Point"},"properties":{"osm_id":"4325849602","tag":{"amenity":"waste_basket","description":"Two Bear Proof Bins"}},"type":"Feature"},
	{"geometry":{"coordinates":[-122.955302,49.302357],"type":"Point"},"properties":{"osm_id":"4418335394","tag":{"amenity":"waste_basket"}},"type":"Feature"},
	{"geometry":{"coordinates":[-122.954597,49.303199],"type":"Point"},"properties":{"osm_id":"4418335395","tag":{"amenity":"waste_basket"}},"type":"Feature"},
	{"geometry":{"coordinates":[-122.949195,49.305076],"type":"Point"},"properties":{"osm_id":"4418335398","tag":{"amenity":"waste_basket"}},"type":"Feature"},
	{"geometry":{"coordinates":[-122.951492,49.305086],"type":"Point"},"properties":{"osm_id":"4418335399","tag":{"amenity":"waste_basket"}},"type":"Feature"},
	{"geometry":{"coordinates":[-122.949889,49.305281],"type":"Point"},"properties":{"osm_id":"4418335400","tag":{"amenity":"waste_basket"}},"type":"Feature"},
	{"geometry":{"coordinates":[-122.948811,49.305335],"type":"Point"},"properties":{"osm_id":"4418335401","tag":{"amenity":"waste_basket"}},"type":"Feature"},
	{"geometry":{"coordinates":[-122.954554,49.305491],"type":"Point"},"properties":{"osm_id":"4418335402","tag":{"amenity":"waste_basket"}},"type":"Feature"},
	{"geometry":{"coordinates":[-122.949054,49.307828],"type":"Point"},"properties":{"osm_id":"4418335404","tag":{"amenity":"waste_basket"}},"type":"Feature"},
	{"geometry":{"coordinates":[-122.948935,49.309253],"type":"Point"},"properties":{"osm_id":"4418335410","tag":{"amenity":"waste_basket"}},"type":"Feature"},
	{"geometry":{"coordinates":[-122.955267,49.313739],"type":"Point"},"properties":{"osm_id":"4418335422","tag":{"amenity":"waste_basket"}},"type":"Feature"},
	{"geometry":{"coordinates":[-122.956275,49.317293],"type":"Point"},"properties":{"osm_id":"4418335432","tag":{"amenity":"waste_basket"}},"type":"Feature"},
	{"geometry":{"coordinates":[-122.949455,49.31749],"type":"Point"},"properties":{"osm_id":"4418335434","tag":{"amenity":"waste_basket"}},"type":"Feature"},
	{"geometry":{"coordinates":[-122.942857,49.318384],"type":"Point"},"properties":{"osm_id":"4418335445","tag":{"amenity":"waste_basket"}},"type":"Feature"},
	{"geometry":{"coordinates":[-122.943268,49.318903],"type":"Point"},"properties":{"osm_id":"4418335447","tag":{"amenity":"waste_basket"}},"type":"Feature"},
	{"geometry":{"coordinates":[-122.958345,49.319326],"type":"Point"},"properties":{"osm_id":"4418335451","tag":{"amenity":"waste_basket"}},"type":"Feature"},
	{"geometry":{"coordinates":[-122.958748,49.320701],"type":"Point"},"properties":{"osm_id":"4418335462","tag":{"amenity":"waste_basket"}},"type":"Feature"},
	{"geometry":{"coordinates":[-122.93976,49.321767],"type":"Point"},"properties":{"osm_id":"4418335468","tag":{"amenity":"waste_basket"}},"type":"Feature"},
	{"geometry":{"coordinates":[-122.957486,49.322522],"type":"Point"},"properties":{"osm_id":"4418335472","tag":{"amenity":"waste_basket"}},"type":"Feature"},
	{"geometry":{"coordinates":[-122.954891,49.32309],"type":"Point"},"properties":{"osm_id":"4418335476","tag":{"amenity":"waste_basket"}},"type":"Feature"},
	{"geometry":{"coordinates":[-122.943569,49.323642],"type":"Point"},"properties":{"osm_id":"4418335477","tag":{"amenity":"waste_basket"}},"type":"Feature"},
	{"geometry":{"coordinates":[-122.945212,49.323707],"type":"Point"},"properties":{"osm_id":"4418335478","tag":{"amenity":"waste_basket"}},"type":"Feature"},
	{"geometry":{"coordinates":[-122.925646,49.299807],"type":"Point"},"properties":{"osm_id":"4754892300","tag":{"amenity":"waste_basket"}},"type":"Feature"},
	{"geometry":{"coordinates":[-122.90698,49.279838],"type":"Point"},"properties":{"osm_id":"4872867059","tag":{"amenity":"waste_basket"}},"type":"Feature"},
	{"geometry":{"coordinates":[-122.958414,49.30222],"type":"Point"},"properties":{"osm_id":"5761161930","tag":{"amenity":"waste_basket"}},"type":"Feature"},
	{"geometry":{"coordinates":[-122.958262,49.302054],"type":"Point"},"properties":{"osm_id":"5761162119","tag":{"amenity":"waste_basket"}},"type":"Feature"},
	{"geometry":{"coordinates":[-122.907049,49.277568],"type":"Point"},"properties":{"osm_id":"6907395675","tag":{"amenity":"waste_basket","material":"metal","waste":"trash"}},"type":"Feature"},
	{"geometry":{"coordinates":[-122.871213,49.283356],"type":"Point"},"properties":{"osm_id":"7443555633","tag":{"amenity":"waste_basket"}},"type":"Feature"},
	{"geometry":{"coordinates":[-122.873464,49.301548],"type":"Point"},"properties":{"osm_id":"7515741680","tag":{"amenity":"waste_basket"}},"type":"Feature"},
	{"geometry":{"coordinates":[-122.915961,49.276577],"type":"Point"},"properties":{"osm_id":"7703821282","tag":{"amenity":"waste_basket"}},"type":"Feature"}
]
}
