{
"type": "FeatureCollection",
"features": [
	{"geometry":{"coordinates":[-122.919458,49.21239],"type":"Point"},"properties":{"osm_id":"960913397","tag":{"amenity":"waste_basket"}},"type":"Feature"},
	{"geometry":{"coordinates":[-122.918348,49.211646],"type":"Point"},"properties":{"osm_id":"961847618","tag":{"amenity":"waste_basket"}},"type":"Feature"},
	{"geometry":{"coordinates":[-122.916769,49.210473],"type":"Point"},"properties":{"osm_id":"961847951","tag":{"amenity":"waste_basket"}},"type":"Feature"},
	{"geometry":{"coordinates":[-122.930486,49.216035],"type":"Point"},"properties":{"osm_id":"1057873849","tag":{"amenity":"recycling"}},"type":"Feature"},
	{"geometry":{"coordinates":[-122.928096,49.213834],"type":"Point"},"properties":{"highway":"bus_stop","name":"8 Ave (WB) at 8 St","osm_id":"1677743225","ref":"52304","tag":{"amenity":"waste_basket","bench":"yes","bus":"yes","network":"Translink","operator":"Coast Mountain Bus Company","public_transport":"platform","shelter":"no"}},"type":"Feature"},
	{"geometry":{"coordinates":[-122.933775,49.210632],"type":"Point"},"properties":{"osm_id":"1702320257","tag":{"amenity":"waste_basket"}},"type":"Feature"},
	{"geometry":{"coordinates":[-122.930094,49.212635],"type":"Point"},"properties":{"highway":"bus_stop","name":"8 Ave (EB) at 10 St","osm_id":"1702320279","tag":{"amenity":"waste_basket","bench":"no","bus":"yes","network":"Translink","operator":"Coast Mountain Bus Company","public_transport":"platform","shelter":"no"}},"type":"Feature"},
	{"geometry":{"coordinates":[-122.921833,49.214238],"type":"Point"},"properties":{"highway":"bus_stop","name":"6 St (SB) at 7 Ave","osm_id":"1702332035","tag":{"amenity":"waste_basket","bench":"yes","bus":"yes","network":"Translink","operator":"Coast Mountain Bus Company","public_transport":"platform","shelter":"yes"}},"type":"Feature"},
	{"geometry":{"coordinates":[-122.923631,49.215627],"type":"Point"},"properties":{"osm_id":"1702332042","tag":{"amenity":"waste_basket"}},"type":"Feature"},
	{"geometry":{"coordinates":[-122.918857,49.211832],"type":"Point"},"properties":{"osm_id":"1702339569","tag":{"amenity":"waste_basket"}},"type":"Feature"},
	{"geometry":{"coordinates":[-122.906321,49.225361],"type":"Point"},"properties":{"highway":"bus_stop","name":"East 8 Ave (EB) at York St","osm_id":"1705289222","tag":{"amenity":"waste_basket","bench":"no","bus":"yes","network":"Translink","operator":"Coast Mountain Bus Company","public_transport":"platform","shelter":"no","wheelchair":"yes"}},"type":"Feature"},
	{"geometry":{"coordinates":[-122.893753,49.231811],"type":"Point"},"properties":{"highway":"bus_stop","name":"Braid St (WB) at East Columbia St","osm_id":"1705296741","tag":{"amenity":"waste_basket","bench":"yes","bus":"yes","network":"Translink","operator":"Coast Mountain Bus Company","public_transport":"platform","shelter":"yes","wheelchair":"yes"}},"type":"Feature"},
	{"geometry":{"coordinates":[-122.908995,49.224107],"type":"Point"},"properties":{"highway":"bus_stop","name":"East 8 Ave (WB) at Cumberland St","osm_id":"1705344225","ref":"53580","tag":{"amenity":"waste_basket","bench":"no","bus":"yes","network":"Translink","operator":"Coast Mountain Bus Company","public_transport":"platform","shelter":"no"}},"type":"Feature"},
	{"geometry":{"coordinates":[-122.902384,49.227439],"type":"Point"},"properties":{"highway":"bus_stop","name":"East 8 Ave (EB) at Chilliwack St","osm_id":"1707777487","tag":{"amenity":"waste_basket","bench":"no","bus":"yes","network":"Translink","operator":"Coast Mountain Bus Company","public_transport":"platform","shelter":"no"}},"type":"Feature"},
	{"geometry":{"coordinates":[-122.920041,49.212806],"type":"Point"},"properties":{"osm_id":"1710998339","tag":{"amenity":"waste_basket"}},"type":"Feature"},
	{"geometry":{"coordinates":[-122.924196,49.216323],"type":"Point"},"properties":{"highway":"bus_stop","name":"6 St (NB) at 8 Ave","osm_id":"1713522677","ref":"52244","tag":{"amenity":"waste_basket","bench":"no","bin":"no","bus":"yes","network":"Translink","operator":"Coast Mountain Bus Company","public_transport":"platform","shelter":"no"}},"type":"Feature"},
	{"geometry":{"coordinates":[-122.927955,49.219344],"type":"Point"},"properties":{"highway":"bus_stop","name":"6 St (NB) at 10 Ave","osm_id":"1713522689","ref":"52246","tag":{"amenity":"waste_basket","bench":"yes","bus":"yes","network":"Translink","operator":"Coast Mountain Bus Company","public_transport":"platform","shelter":"yes"}},"type":"Feature"},
	{"geometry":{"coordinates":[-122.930717,49.22153],"type":"Point"},"properties":{"highway":"bus_stop","name":"6 St (NB) at 13 Ave","osm_id":"1713522691","ref":"52443","tag":{"amenity":"waste_basket","bench":"yes","bus":"yes","network":"Translink","operator":"Coast Mountain Bus Company","public_transport":"platform","shelter":"no"}},"type":"Feature"},
	{"geometry":{"coordinates":[-122.932303,49.222791],"type":"Point"},"properties":{"osm_id":"1713522698","tag":{"amenity":"waste_basket"}},"type":"Feature"},
	{"geometry":{"coordinates":[-122.934149,49.224276],"type":"Point"},"properties":{"osm_id":"1713522705","tag":{"amenity":"waste_basket"}},"type":"Feature"},
	{"geometry":{"coordinates":[-122.937277,49.226175],"type":"Point"},"properties":{"osm_id":"1713528847","tag":{"amenity":"waste_basket"}},"type":"Feature"},
	{"geometry":{"coordinates":[-122.908072,49.224438],"type":"Point"},"properties":{"highway":"bus_stop","name":"East 8 Ave (EB) at Cumberland St","osm_id":"1741290953","ref":"53504","tag":{"amenity":"waste_basket","bench":"no","bus":"yes","network":"Translink","operator":"Coast Mountain Bus Company","public_transport":"platform","shelter":"no"}},"type":"Feature"},
	{"geometry":{"coordinates":[-122.907023,49.225169],"type":"Point"},"properties":{"highway":"bus_stop","name":"East 8 Ave (WB) at York St","osm_id":"1741291000","tag":{"amenity":"waste_basket","bench":"no","bus":"yes","network":"Translink","operator":"Coast Mountain Bus Company","public_transport":"platform","shelter":"no"}},"type":"Feature"},
	{"geometry":{"coordinates":[-122.909193,49.258344],"type":"Point"},"properties":{"osm_id":"4120461960","tag":{"amenity":"waste_disposal"}},"type":"Feature"},
	{"geometry":{"coordinates":[-122.909554,49.258897],"type":"Point"},"properties":{"osm_id":"4120461961","tag":{"amenity":"waste_disposal"}},"type":"Feature"},
	{"geometry":{"coordinates":[-122.897699,49.211375],"type":"Point"},"properties":{"osm_id":"4354709166","tag":{"amenity":"waste_basket"}},"type":"Feature"},
	{"geometry":{"coordinates":[-122.890707,49.235135],"type":"Point"},"properties":{"osm_id":"4354718944","tag":{"amenity":"waste_basket"}},"type":"Feature"},
	{"geometry":{"coordinates":[-122.892795,49.238868],"type":"Point"},"properties":{"osm_id":"4354718945","tag":{"amenity":"waste_basket"}},"type":"Feature"},
	{"geometry":{"coordinates":[-122.909883,49.247776],"type":"Point"},"properties":{"osm_id":"4354718948","tag":{"amenity":"waste_basket"}},"type":"Feature"},
	{"geometry":{"coordinates":[-122.911913,49.247854],"type":"Point"},"properties":{"osm_id":"4354718950","tag":{"amenity":"waste_basket"}},"type":"Feature"},
	{"geometry":{"coordinates":[-122.895736,49.251256],"type":"Point"},"properties":{"osm_id":"4731534340","tag":{"amenity":"waste_disposal"}},"type":"Feature"},
	{"geometry":{"coordinates":[-122.896612,49.250617],"type":"Point"},"properties":{"osm_id":"4731543589","tag":{"amenity":"waste_disposal"}},"type":"Feature"},
	{"geometry":{"coordinates":[-122.89674,49.251441],"type":"Point"},"properties":{"osm_id":"4731544025","tag":{"amenity":"waste_disposal"}},"type":"Feature"},
	{"geometry":{"coordinates":[-122.89627,49.25076],"type":"Point"},"properties":{"osm_id":"4731544030","tag":{"amenity":"waste_disposal"}},"type":"Feature"},
	{"geometry":{"coordinates":[-122.896796,49.24909],"type":"Point"},"properties":{"osm_id":"5063148035","tag":{"amenity":"waste_basket"}},"type":"Feature"},
	{"geometry":{"coordinates":[-122.92757,49.219412],"type":"Point"},"properties":{"osm_id":"5646690321","tag":{"amenity":"waste_basket"}},"type":"Feature"},
	{"geometry":{"coordinates":[-122.927783,49.219307],"type":"Point"},"properties":{"osm_id":"5646690322","tag":{"amenity":"waste_basket"}},"type":"Feature"},
	{"geometry":{"coordinates":[-122.927845,49.219305],"type":"Point"},"properties":{"osm_id":"5646690323","tag":{"amenity":"waste_basket","operator":"Burnaby"}},"type":"Feature"}
]
}
