{
"type": "FeatureCollection",
"features": [
	{"geometry":{"coordinates":[-122.925004,45.522275],"type":"Point"},"properties":{"osm_id":"3782620411","tag":{"amenity":"waste_basket"}},"type":"Feature"},
	{"geometry":{"coordinates":[-122.920868,45.528793],"type":"Point"},"properties":{"osm_id":"3784185592","tag":{"amenity":"waste_basket","waste":"dog_excrement"}},"type":"Feature"},
	{"geometry":{"coordinates":[-122.920929,45.5292],"type":"Point"},"properties":{"osm_id":"3784185630","tag":{"amenity":"waste_basket"}},"type":"Feature"},
	{"geometry":{"coordinates":[-122.909707,45.552478],"type":"Point"},"properties":{"osm_id":"3908630958","tag":{"amenity":"waste_basket"}},"type":"Feature"},
	{"geometry":{"coordinates":[-122.910396,45.552536],"type":"Point"},"properties":{"osm_id":"3908630969","tag":{"amenity":"waste_basket"}},"type":"Feature"},
	{"geometry":{"coordinates":[-122.910011,45.552547],"type":"Point"},"properties":{"osm_id":"3908630973","tag":{"amenity":"waste_basket"}},"type":"Feature"},
	{"geometry":{"coordinates":[-122.910006,45.552835],"type":"Point"},"properties":{"osm_id":"3908630974","tag":{"amenity":"waste_basket"}},"type":"Feature"},
	{"geometry":{"coordinates":[-122.909606,45.55284],"type":"Point"},"properties":{"osm_id":"3908630975","tag":{"amenity":"waste_basket"}},"type":"Feature"},
	{"geometry":{"coordinates":[-122.910638,45.552874],"type":"Point"},"properties":{"osm_id":"3908630978","tag":{"amenity":"waste_basket"}},"type":"Feature"},
	{"geometry":{"coordinates":[-122.910371,45.55316],"type":"Point"},"properties":{"osm_id":"3908630986","tag":{"amenity":"waste_basket"}},"type":"Feature"},
	{"geometry":{"coordinates":[-122.909893,45.553373],"type":"Point"},"properties":{"osm_id":"3908631001","tag":{"amenity":"waste_basket"}},"type":"Feature"},
	{"geometry":{"coordinates":[-122.935424,45.544517],"type":"Point"},"properties":{"osm_id":"4349066576","tag":{"amenity":"waste_basket"}},"type":"Feature"},
	{"geometry":{"coordinates":[-122.935094,45.543563],"type":"Point"},"properties":{"osm_id":"4349066580","tag":{"amenity":"waste_basket"}},"type":"Feature"},
	{"geometry":{"coordinates":[-122.888749,45.523179],"type":"Point"},"properties":{"osm_id":"5928001658","tag":{"amenity":"waste_basket","description":"Public garbage receptacle maintained by the TriMet."}},"type":"Feature"},
	{"geometry":{"coordinates":[-122.946939,45.528369],"type":"Point"},"properties":{"osm_id":"5937110857","tag":{"amenity":"waste_basket","description":"Public Garbage Receptacle"}},"type":"Feature"},
	{"geometry":{"coordinates":[-122.903896,45.526828],"type":"Point"},"properties":{"osm_id":"6504633383","tag":{"amenity":"waste_basket"}},"type":"Feature"},
	{"geometry":{"coordinates":[-122.923592,45.565126],"type":"Point"},"properties":{"osm_id":"6784112061","tag":{"amenity":"waste_basket","waste":"dog_excrement"}},"type":"Feature"}
]
}
