{
"type": "FeatureCollection",
"features": [
	{"geometry":{"coordinates":[2.401106,51.044899],"type":"Point"},"properties":{"osm_id":"2639796658","tag":{"amenity":"recycling","recycling:aluminium":"yes","recycling:batteries":"no","recycling:beverage_cartons":"yes","recycling:cans":"yes","recycling:cardboard":"yes","recycling:clothes":"no","recycling:garden_waste":"no","recycling:glass":"no","recycling:glass_bottles":"no","recycling:green_waste":"no","recycling:paper":"yes","recycling:paper_packaging":"yes","recycling:plastic":"yes","recycling:plastic_bags":"yes","recycling:plastic_bottles":"yes","recycling:plastic_packaging":"yes","recycling:scrap_metal":"no","recycling_type":"container"}},"type":"Feature"},
	{"geometry":{"coordinates":[2.402889,51.050766],"type":"Point"},"properties":{"osm_id":"2683222554","tag":{"amenity":"recycling","recycling:glass":"no","recycling_type":"container"}},"type":"Feature"},
	{"geometry":{"coordinates":[2.40277,51.050888],"type":"Point"},"properties":{"osm_id":"2683222738","tag":{"amenity":"recycling","recycling:glass":"yes","recycling_type":"container"}},"type":"Feature"},
	{"geometry":{"coordinates":[2.404425,51.05177],"type":"Point"},"properties":{"osm_id":"2683225750","tag":{"amenity":"recycling","recycling:glass":"yes","recycling_type":"container"}},"type":"Feature"},
	{"geometry":{"coordinates":[2.414509,51.053217],"type":"Point"},"properties":{"osm_id":"4932594221","tag":{"amenity":"waste_disposal","collection_times":"samstag"}},"type":"Feature"},
	{"geometry":{"coordinates":[2.417754,51.054526],"type":"Point"},"properties":{"osm_id":"5471307421","tag":{"amenity":"waste_basket"}},"type":"Feature"},
	{"geometry":{"coordinates":[2.419193,51.054856],"type":"Point"},"properties":{"osm_id":"5473680433","tag":{"amenity":"waste_basket"}},"type":"Feature"},
	{"geometry":{"coordinates":[2.420163,51.055129],"type":"Point"},"properties":{"osm_id":"5473680435","tag":{"amenity":"waste_basket"}},"type":"Feature"},
	{"geometry":{"coordinates":[2.420785,51.05525],"type":"Point"},"properties":{"osm_id":"5473680437","tag":{"amenity":"waste_basket"}},"type":"Feature"},
	{"geometry":{"coordinates":[2.398514,51.047156],"type":"Point"},"properties":{"osm_id":"5537529684","tag":{"amenity":"recycling","recycling:glass":"yes","recycling:paper":"yes","recycling:plastic":"yes","recycling:scrap_metal":"yes","recycling_type":"container"}},"type":"Feature"},
	{"geometry":{"coordinates":[2.398529,51.04714],"type":"Point"},"properties":{"osm_id":"5537529685","tag":{"amenity":"waste_disposal"}},"type":"Feature"},
	{"geometry":{"coordinates":[2.404057,51.041387],"type":"Point"},"properties":{"osm_id":"5640320129","tag":{"amenity":"waste_basket"}},"type":"Feature"},
	{"geometry":{"coordinates":[2.384327,51.030387],"type":"Point"},"properties":{"osm_id":"5703103287","tag":{"amenity":"recycling","recycling:waste":"yes","recycling_type":"container"}},"type":"Feature"},
	{"geometry":{"coordinates":[2.387442,51.034349],"type":"Point"},"properties":{"osm_id":"5703103288","tag":{"addr:city":"Dunkerque","addr:housenumber":"64","addr:postcode":"59140","addr:street":"Rue Louis Braille","amenity":"recycling","recycling:glass":"yes","recycling:glass_bottles":"yes","recycling_type":"container"}},"type":"Feature"},
	{"geometry":{"coordinates":[2.385322,51.031609],"type":"Point"},"properties":{"osm_id":"5703103289","tag":{"addr:city":"Dunkerque","addr:housenumber":"364","addr:postcode":"59140","addr:street":"Rue Louis Braille","amenity":"recycling","recycling:glass":"yes","recycling:glass_bottles":"yes","recycling_type":"container"}},"type":"Feature"},
	{"geometry":{"coordinates":[2.398583,51.033526],"type":"Point"},"properties":{"osm_id":"5703103290","tag":{"addr:city":"Dunkerque","addr:housenumber":"587","addr:postcode":"59140","addr:street":"Rue des Lilas","amenity":"recycling","recycling:glass":"yes","recycling:glass_bottles":"yes","recycling_type":"container"}},"type":"Feature"},
	{"geometry":{"coordinates":[2.400683,51.035691],"type":"Point"},"properties":{"osm_id":"5703103291","tag":{"addr:city":"Dunkerque","addr:housenumber":"66","addr:postcode":"59240","addr:street":"Rue des Cyclamens","amenity":"recycling","recycling:glass":"yes","recycling:glass_bottles":"yes","recycling_type":"container"}},"type":"Feature"},
	{"geometry":{"coordinates":[2.40364,51.036856],"type":"Point"},"properties":{"osm_id":"5703103292","tag":{"addr:city":"Dunkerque","addr:housenumber":"79","addr:postcode":"59240","addr:street":"Rue des Anciens Combattants d'Afrique du Nord","amenity":"recycling","recycling:waste":"yes","recycling_type":"container"}},"type":"Feature"},
	{"geometry":{"coordinates":[2.400803,51.039166],"type":"Point"},"properties":{"osm_id":"5703103293","tag":{"addr:city":"Dunkerque","addr:housenumber":"44","addr:postcode":"59240","addr:street":"Avenue Winston Churchill","amenity":"recycling","recycling:glass":"yes","recycling:glass_bottles":"yes","recycling_type":"container"}},"type":"Feature"},
	{"geometry":{"coordinates":[2.394288,51.039118],"type":"Point"},"properties":{"osm_id":"5703103294","tag":{"amenity":"recycling","recycling:glass_bottles":"yes","recycling_type":"container"}},"type":"Feature"},
	{"geometry":{"coordinates":[2.394063,51.038538],"type":"Point"},"properties":{"osm_id":"5703103295","tag":{"addr:city":"Dunkerque","addr:housenumber":"254","addr:postcode":"59240","addr:street":"R\u00c3\u00a9sidence Carnot","amenity":"recycling","recycling:cartons":"yes","recycling:magazines":"yes","recycling:newspaper":"yes","recycling:paper":"yes","recycling:paper_packaging":"yes","recycling:plastic":"yes","recycling:plastic_bottles":"yes","recycling:plastic_packaging":"yes","recycling:scrap_metal":"yes","recycling_type":"container"}},"type":"Feature"},
	{"geometry":{"coordinates":[2.393997,51.037288],"type":"Point"},"properties":{"osm_id":"5703103296","tag":{"amenity":"recycling","recycling:glass":"yes","recycling:glass_bottles":"yes","recycling_type":"container"}},"type":"Feature"},
	{"geometry":{"coordinates":[2.39485,51.036778],"type":"Point"},"properties":{"osm_id":"5703103297","tag":{"amenity":"recycling","recycling:glass":"yes","recycling:glass_bottles":"yes","recycling_type":"container"}},"type":"Feature"},
	{"geometry":{"coordinates":[2.390406,51.040439],"type":"Point"},"properties":{"osm_id":"5703103298","tag":{"addr:city":"Dunkerque","addr:postcode":"59240","addr:street":"Rue Hilaire Van Mairis","amenity":"recycling","recycling:glass":"yes","recycling:glass_bottles":"yes","recycling_type":"container"}},"type":"Feature"},
	{"geometry":{"coordinates":[2.404161,51.041424],"type":"Point"},"properties":{"osm_id":"5703103299","tag":{"amenity":"recycling","recycling:glass":"yes","recycling:glass_bottles":"yes","recycling_type":"container"}},"type":"Feature"},
	{"geometry":{"coordinates":[2.405511,51.040825],"type":"Point"},"properties":{"osm_id":"5703103300","tag":{"addr:city":"Dunkerque","addr:housenumber":"55","addr:postcode":"59140","addr:street":"Boulevard Pierre Mend\u00c3\u00a8s France","amenity":"recycling","recycling:glass":"yes","recycling:glass_bottles":"yes","recycling_type":"container"}},"type":"Feature"},
	{"geometry":{"coordinates":[2.405482,51.038556],"type":"Point"},"properties":{"osm_id":"5703103301","tag":{"addr:city":"Dunkerque","addr:postcode":"59240","addr:street":"Rue Marguerite Yourcenar","amenity":"recycling","recycling:glass":"yes","recycling:glass_bottles":"yes","recycling_type":"container"}},"type":"Feature"},
	{"geometry":{"coordinates":[2.40576,51.042725],"type":"Point"},"properties":{"osm_id":"5703103302","tag":{"addr:city":"Dunkerque","addr:postcode":"59240","addr:street":"Rue Jules Ferry","amenity":"recycling","recycling:glass":"yes","recycling:glass_bottles":"no","recycling_type":"container","wheelchair":"yes"}},"type":"Feature"},
	{"geometry":{"coordinates":[2.405987,51.043785],"type":"Point"},"properties":{"osm_id":"5703103303","tag":{"addr:city":"Dunkerque","addr:housenumber":"41","addr:postcode":"59240","addr:street":"Rue Chanzy","amenity":"recycling","recycling:glass":"yes","recycling:glass_bottles":"yes","recycling_type":"container"}},"type":"Feature"},
	{"geometry":{"coordinates":[2.409553,51.043439],"type":"Point"},"properties":{"osm_id":"5703103304","tag":{"amenity":"recycling","recycling:glass":"yes","recycling_type":"container"}},"type":"Feature"},
	{"geometry":{"coordinates":[2.409878,51.045053],"type":"Point"},"properties":{"osm_id":"5703103305","tag":{"amenity":"recycling","opening_hours":"24/7","recycling:beverage_cartons":"yes","recycling:cans":"yes","recycling:cardboard":"yes","recycling:magazines":"yes","recycling:newspaper":"yes","recycling:paper":"yes","recycling:paper_packaging":"yes","recycling:plastic":"yes","recycling:plastic_bottles":"yes","recycling:plastic_packaging":"yes","recycling:scrap_metal":"yes","recycling:waste":"no","recycling_type":"container","wheelchair":"yes"}},"type":"Feature"},
	{"geometry":{"coordinates":[2.411222,51.045793],"type":"Point"},"properties":{"osm_id":"5703103306","tag":{"addr:city":"Dunkerque","addr:housenumber":"21","addr:postcode":"59240","addr:street":"Rue Georges Claeyman","amenity":"recycling","recycling:glass":"yes","recycling:glass_bottles":"yes","recycling_type":"container"}},"type":"Feature"},
	{"geometry":{"coordinates":[2.415612,51.046888],"type":"Point"},"properties":{"osm_id":"5703103307","tag":{"addr:city":"Dunkerque","addr:housenumber":"121","addr:postcode":"59240","addr:street":"Rue Zamenhoff","amenity":"recycling","recycling:cartons":"yes","recycling:magazines":"yes","recycling:newspaper":"yes","recycling:paper_bags":"yes","recycling:paper_packing":"yes","recycling:plastic":"yes","recycling:plastic_bags":"yes","recycling:plastic_bottles":"yes","recycling:scrap_metal":"yes","recycling_type":"container"}},"type":"Feature"},
	{"geometry":{"coordinates":[2.417015,51.0466],"type":"Point"},"properties":{"osm_id":"5703103308","tag":{"amenity":"recycling","recycling:glass":"yes","recycling:glass_bottles":"yes","recycling_type":"container"}},"type":"Feature"},
	{"geometry":{"coordinates":[2.418853,51.046178],"type":"Point"},"properties":{"osm_id":"5703103309","tag":{"addr:city":"Dunkerque","addr:housenumber":"44","addr:postcode":"59240","addr:street":"Rue Paul Bert","amenity":"recycling","location":"underground","recycling:waste":"yes","recycling_type":"container"}},"type":"Feature"},
	{"geometry":{"coordinates":[2.419434,51.045166],"type":"Point"},"properties":{"osm_id":"5703103310","tag":{"addr:city":"Dunkerque","addr:postcode":"59240","addr:street":"Rue Jeanne Jugan","amenity":"recycling","recycling:glass":"yes","recycling:glass_bottles":"yes","recycling_type":"container"}},"type":"Feature"},
	{"geometry":{"coordinates":[2.420355,51.048362],"type":"Point"},"properties":{"osm_id":"5703103311","tag":{"addr:city":"Dunkerque","addr:postcode":"59240","addr:street":"Rue Henri Dunant","amenity":"recycling","recycling:glass":"yes","recycling:glass_bottles":"yes","recycling_type":"container"}},"type":"Feature"},
	{"geometry":{"coordinates":[2.425704,51.048025],"type":"Point"},"properties":{"osm_id":"5703103312","tag":{"amenity":"recycling","recycling:cartons":"yes","recycling:magazines":"yes","recycling:paper":"yes","recycling:paper_packaging":"yes","recycling:plastic":"yes","recycling:plastic_packaging":"yes","recycling_type":"container"}},"type":"Feature"},
	{"geometry":{"coordinates":[2.426472,51.050398],"type":"Point"},"properties":{"osm_id":"5703103313","tag":{"amenity":"recycling","recycling:glass":"yes","recycling:glass_bottles":"yes","recycling_type":"container"}},"type":"Feature"},
	{"geometry":{"coordinates":[2.430414,51.049613],"type":"Point"},"properties":{"osm_id":"5703103314","tag":{"addr:city":"Dunkerque","addr:housenumber":"245","addr:postcode":"59240","addr:street":"Rue Jean Moulin","amenity":"recycling","recycling:newspaper":"yes","recycling:paper_packaging":"yes","recycling:plastic":"yes","recycling:plastic_bottles":"yes","recycling:plastic_caps":"yes","recycling:plastic_film":"yes","recycling:plastic_packaging":"yes","recycling_type":"container"}},"type":"Feature"},
	{"geometry":{"coordinates":[2.430349,51.049421],"type":"Point"},"properties":{"osm_id":"5703103315","tag":{"addr:city":"Dunkerque","addr:housenumber":"155","addr:postcode":"59240","addr:street":"Rue Robert Schuman","amenity":"recycling","recycling:newspaper":"yes","recycling:paper_packaging":"yes","recycling:plastic":"yes","recycling:plastic_bottles":"yes","recycling:plastic_caps":"yes","recycling:plastic_film":"yes","recycling:plastic_packaging":"yes","recycling_type":"container"}},"type":"Feature"},
	{"geometry":{"coordinates":[2.431724,51.048259],"type":"Point"},"properties":{"osm_id":"5703103316","tag":{"addr:city":"Dunkerque","addr:housenumber":"22","addr:postcode":"59240","addr:street":"Rue Robert Schuman","amenity":"recycling","recycling:glass":"yes","recycling:glass_bottles":"yes","recycling_type":"container"}},"type":"Feature"},
	{"geometry":{"coordinates":[2.431653,51.050066],"type":"Point"},"properties":{"osm_id":"5703103317","tag":{"addr:city":"Dunkerque","addr:housenumber":"321","addr:postcode":"59240","addr:street":"Rue Jean Moulin","amenity":"recycling","recycling:glass":"yes","recycling:glass_bottles":"yes","recycling_type":"container"}},"type":"Feature"},
	{"geometry":{"coordinates":[2.403129,51.041638],"type":"Point"},"properties":{"osm_id":"6262004887","tag":{"amenity":"waste_disposal","operator":"Pour d\u00c3\u00a9chets canins"}},"type":"Feature"},
	{"geometry":{"coordinates":[2.403102,51.041691],"type":"Point"},"properties":{"osm_id":"6262214251","tag":{"amenity":"waste_basket"}},"type":"Feature"},
	{"geometry":{"coordinates":[2.382025,51.045415],"type":"Point"},"properties":{"osm_id":"6510774886","tag":{"amenity":"waste_basket","waste":"trash"}},"type":"Feature"},
	{"geometry":{"coordinates":[2.382069,51.04994],"type":"Point"},"properties":{"osm_id":"6511091880","tag":{"amenity":"waste_basket","waste":"trash"}},"type":"Feature"},
	{"geometry":{"coordinates":[2.391197,51.046127],"type":"Point"},"properties":{"osm_id":"7646119694","tag":{"amenity":"waste_basket"}},"type":"Feature"},
	{"geometry":{"coordinates":[2.403124,51.023482],"type":"Point"},"properties":{"osm_id":"7757133806","tag":{"amenity":"waste_basket"}},"type":"Feature"},
	{"geometry":{"coordinates":[2.405463,51.041245],"type":"Point"},"properties":{"osm_id":"7757160802","tag":{"amenity":"waste_basket"}},"type":"Feature"},
	{"geometry":{"coordinates":[2.405556,51.041129],"type":"Point"},"properties":{"osm_id":"7757160803","tag":{"amenity":"waste_basket"}},"type":"Feature"},
	{"geometry":{"coordinates":[2.404029,51.040773],"type":"Point"},"properties":{"osm_id":"7757208331","tag":{"amenity":"waste_basket"}},"type":"Feature"},
	{"geometry":{"coordinates":[2.408505,51.039514],"type":"Point"},"properties":{"osm_id":"7757209837","tag":{"amenity":"waste_basket"}},"type":"Feature"},
	{"geometry":{"coordinates":[2.406393,51.03605],"type":"Point"},"properties":{"osm_id":"7757237026","tag":{"amenity":"waste_basket"}},"type":"Feature"},
	{"geometry":{"coordinates":[2.431083,51.048001],"type":"Point"},"properties":{"osm_id":"7765597345","tag":{"amenity":"waste_basket"}},"type":"Feature"},
	{"geometry":{"coordinates":[2.430983,51.048072],"type":"Point"},"properties":{"osm_id":"7765597346","tag":{"amenity":"waste_basket"}},"type":"Feature"},
	{"geometry":{"coordinates":[2.42561,51.046798],"type":"Point"},"properties":{"osm_id":"7765597347","tag":{"amenity":"waste_basket"}},"type":"Feature"},
	{"geometry":{"coordinates":[2.419021,51.045091],"type":"Point"},"properties":{"osm_id":"7765597350","tag":{"amenity":"waste_basket"}},"type":"Feature"},
	{"geometry":{"coordinates":[2.418165,51.044958],"type":"Point"},"properties":{"osm_id":"7765597352","tag":{"amenity":"waste_basket"}},"type":"Feature"},
	{"geometry":{"coordinates":[2.416438,51.044336],"type":"Point"},"properties":{"osm_id":"7765597353","tag":{"amenity":"waste_basket"}},"type":"Feature"},
	{"geometry":{"coordinates":[2.411541,51.042754],"type":"Point"},"properties":{"osm_id":"7765597356","tag":{"amenity":"waste_basket"}},"type":"Feature"},
	{"geometry":{"coordinates":[2.411913,51.042935],"type":"Point"},"properties":{"osm_id":"7765597357","tag":{"amenity":"waste_basket"}},"type":"Feature"},
	{"geometry":{"coordinates":[2.410941,51.042623],"type":"Point"},"properties":{"osm_id":"7765597358","tag":{"amenity":"waste_basket"}},"type":"Feature"},
	{"geometry":{"coordinates":[2.407826,51.041665],"type":"Point"},"properties":{"osm_id":"7765597360","tag":{"amenity":"waste_basket"}},"type":"Feature"},
	{"geometry":{"coordinates":[2.404251,51.040744],"type":"Point"},"properties":{"osm_id":"7775812019","tag":{"amenity":"waste_basket"}},"type":"Feature"},
	{"geometry":{"coordinates":[2.403267,51.040238],"type":"Point"},"properties":{"osm_id":"7775877942","tag":{"amenity":"waste_basket"}},"type":"Feature"},
	{"geometry":{"coordinates":[2.401146,51.039638],"type":"Point"},"properties":{"osm_id":"7775927710","tag":{"amenity":"recycling","opening_hours":"Mo-Fr 8:30-17:30","recycling:organic":"yes","recycling_type":"container"}},"type":"Feature"},
	{"geometry":{"coordinates":[2.400084,51.038221],"type":"Point"},"properties":{"osm_id":"7776031038","tag":{"amenity":"waste_basket"}},"type":"Feature"},
	{"geometry":{"coordinates":[2.400225,51.038442],"type":"Point"},"properties":{"osm_id":"7776031039","tag":{"amenity":"waste_basket"}},"type":"Feature"},
	{"geometry":{"coordinates":[2.397798,51.037552],"type":"Point"},"properties":{"osm_id":"7776065123","tag":{"amenity":"waste_basket"}},"type":"Feature"},
	{"geometry":{"coordinates":[2.396231,51.037039],"type":"Point"},"properties":{"osm_id":"7777310729","tag":{"amenity":"waste_basket"}},"type":"Feature"},
	{"geometry":{"coordinates":[2.395744,51.036882],"type":"Point"},"properties":{"osm_id":"7777310730","tag":{"amenity":"waste_basket"}},"type":"Feature"},
	{"geometry":{"coordinates":[2.394666,51.036524],"type":"Point"},"properties":{"osm_id":"7777310733","tag":{"amenity":"waste_basket"}},"type":"Feature"},
	{"geometry":{"coordinates":[2.395023,51.036545],"type":"Point"},"properties":{"osm_id":"7777310734","tag":{"amenity":"waste_basket"}},"type":"Feature"},
	{"geometry":{"coordinates":[2.391688,51.035281],"type":"Point"},"properties":{"osm_id":"7777349621","tag":{"amenity":"waste_basket"}},"type":"Feature"},
	{"geometry":{"coordinates":[2.390216,51.034399],"type":"Point"},"properties":{"osm_id":"7777359410","tag":{"amenity":"waste_basket"}},"type":"Feature"},
	{"geometry":{"coordinates":[2.381532,51.035241],"type":"Point"},"properties":{"osm_id":"7777378977","tag":{"amenity":"waste_basket"}},"type":"Feature"},
	{"geometry":{"coordinates":[2.382229,51.035237],"type":"Point"},"properties":{"osm_id":"7777378980","tag":{"amenity":"recycling","recycling:glass":"yes","recycling_type":"container"}},"type":"Feature"},
	{"geometry":{"coordinates":[2.377663,51.035988],"type":"Point"},"properties":{"osm_id":"7777381238","tag":{"amenity":"waste_basket"}},"type":"Feature"},
	{"geometry":{"coordinates":[2.387345,51.034153],"type":"Point"},"properties":{"osm_id":"7777381786","tag":{"amenity":"recycling","recycling:glass":"yes","recycling_type":"container"}},"type":"Feature"},
	{"geometry":{"coordinates":[2.387339,51.034148],"type":"Point"},"properties":{"osm_id":"7777381787","tag":{"amenity":"recycling","operator":"Coud'Pouce pour l'emploi","recycling:clothes":"yes","recycling_type":"container"}},"type":"Feature"},
	{"geometry":{"coordinates":[2.385736,51.034924],"type":"Point"},"properties":{"osm_id":"7777382830","tag":{"amenity":"waste_basket"}},"type":"Feature"},
	{"geometry":{"coordinates":[2.383876,51.034582],"type":"Point"},"properties":{"osm_id":"7777388656","tag":{"amenity":"waste_basket"}},"type":"Feature"},
	{"geometry":{"coordinates":[2.380371,51.035241],"type":"Point"},"properties":{"osm_id":"7777402080","tag":{"amenity":"waste_basket"}},"type":"Feature"},
	{"geometry":{"coordinates":[2.3809,51.035254],"type":"Point"},"properties":{"osm_id":"7777402081","tag":{"amenity":"waste_basket"}},"type":"Feature"},
	{"geometry":{"coordinates":[2.378985,51.035928],"type":"Point"},"properties":{"osm_id":"7777409243","tag":{"access":"yes","amenity":"waste_disposal","fee":"no","waste":"trash"}},"type":"Feature"},
	{"geometry":{"coordinates":[2.37907,51.035924],"type":"Point"},"properties":{"osm_id":"7777480458","tag":{"amenity":"recycling","recycling:glass":"yes","recycling_type":"container"}},"type":"Feature"},
	{"geometry":{"coordinates":[2.379043,51.035924],"type":"Point"},"properties":{"osm_id":"7777480459","tag":{"amenity":"recycling","recycling:bags":"no","recycling:cardboard":"yes","recycling:glass":"no","recycling:paper":"yes","recycling:plastic":"yes","recycling:scrap_metal":"yes","recycling_type":"container"}},"type":"Feature"},
	{"geometry":{"coordinates":[2.379017,51.035925],"type":"Point"},"properties":{"osm_id":"7777480460","tag":{"access":"yes","amenity":"waste_disposal","fee":"no","waste":"trash"}},"type":"Feature"},
	{"geometry":{"coordinates":[2.406164,51.041977],"type":"Point"},"properties":{"osm_id":"7784898436","tag":{"amenity":"waste_basket"}},"type":"Feature"},
	{"geometry":{"coordinates":[2.405953,51.04161],"type":"Point"},"properties":{"osm_id":"7784898440","tag":{"amenity":"waste_basket"}},"type":"Feature"},
	{"geometry":{"coordinates":[2.405269,51.042778],"type":"Point"},"properties":{"osm_id":"7784937693","tag":{"amenity":"waste_basket"}},"type":"Feature"},
	{"geometry":{"coordinates":[2.405797,51.042031],"type":"Point"},"properties":{"osm_id":"7784966488","tag":{"amenity":"waste_basket"}},"type":"Feature"},
	{"geometry":{"coordinates":[2.406138,51.042916],"type":"Point"},"properties":{"osm_id":"7784968771","tag":{"amenity":"waste_basket"}},"type":"Feature"},
	{"geometry":{"coordinates":[2.406475,51.042902],"type":"Point"},"properties":{"osm_id":"7786842467","tag":{"amenity":"waste_basket"}},"type":"Feature"},
	{"geometry":{"coordinates":[2.410936,51.043581],"type":"Point"},"properties":{"osm_id":"7787300381","tag":{"amenity":"waste_basket"}},"type":"Feature"},
	{"geometry":{"coordinates":[2.412551,51.044513],"type":"Point"},"properties":{"osm_id":"7787521971","tag":{"amenity":"waste_basket"}},"type":"Feature"},
	{"geometry":{"coordinates":[2.412349,51.044367],"type":"Point"},"properties":{"osm_id":"7787521973","tag":{"amenity":"waste_basket"}},"type":"Feature"},
	{"geometry":{"coordinates":[2.411317,51.045655],"type":"Point"},"properties":{"osm_id":"7787593253","tag":{"amenity":"recycling","recycling:glass":"yes","recycling_type":"container","wheelchair":"yes"}},"type":"Feature"},
	{"geometry":{"coordinates":[2.411699,51.045031],"type":"Point"},"properties":{"osm_id":"7787599518","tag":{"amenity":"waste_basket"}},"type":"Feature"},
	{"geometry":{"coordinates":[2.41182,51.044867],"type":"Point"},"properties":{"osm_id":"7787599522","tag":{"amenity":"waste_basket"}},"type":"Feature"},
	{"geometry":{"coordinates":[2.409887,51.045048],"type":"Point"},"properties":{"osm_id":"7787620899","tag":{"amenity":"recycling","opening_hours":"24/7","recycling:glass":"yes","recycling_type":"container","wheelchair":"yes"}},"type":"Feature"},
	{"geometry":{"coordinates":[2.409897,51.045052],"type":"Point"},"properties":{"osm_id":"7787620900","tag":{"amenity":"recycling","opening_hours":"24/7","recycling:beverage_cartons":"yes","recycling:cans":"yes","recycling:cardboard":"yes","recycling:magazines":"yes","recycling:newspaper":"yes","recycling:paper":"yes","recycling:paper_packaging":"yes","recycling:plastic":"yes","recycling:plastic_bottles":"yes","recycling:plastic_packaging":"yes","recycling:scrap_metal":"yes","recycling:waste":"no","recycling_type":"container","wheelchair":"yes"}},"type":"Feature"},
	{"geometry":{"coordinates":[2.409868,51.044607],"type":"Point"},"properties":{"osm_id":"7787620903","tag":{"amenity":"waste_basket"}},"type":"Feature"},
	{"geometry":{"coordinates":[2.411384,51.045041],"type":"Point"},"properties":{"osm_id":"7787620950","tag":{"amenity":"recycling","opening_hours":"24/7","recycling:beverage_cartons":"yes","recycling:cans":"yes","recycling:cardboard":"yes","recycling:newspaper":"yes","recycling:paper":"yes","recycling:paper_packaging":"yes","recycling:plastic":"yes","recycling:plastic_bottles":"yes","recycling:plastic_packaging":"yes","recycling:scrap_metal":"yes","recycling_type":"container"}},"type":"Feature"},
	{"geometry":{"coordinates":[2.411376,51.045054],"type":"Point"},"properties":{"osm_id":"7787620951","tag":{"access":"yes","amenity":"waste_disposal","fee":"no","waste":"trash"}},"type":"Feature"},
	{"geometry":{"coordinates":[2.391025,51.04628],"type":"Point"},"properties":{"osm_id":"7858348622","tag":{"amenity":"waste_basket"}},"type":"Feature"},
	{"geometry":{"coordinates":[2.391101,51.046291],"type":"Point"},"properties":{"osm_id":"7858348623","tag":{"amenity":"waste_basket"}},"type":"Feature"},
	{"geometry":{"coordinates":[2.391294,51.046489],"type":"Point"},"properties":{"osm_id":"7858369504","tag":{"amenity":"waste_basket"}},"type":"Feature"},
	{"geometry":{"coordinates":[2.390885,51.046403],"type":"Point"},"properties":{"osm_id":"7858379631","tag":{"amenity":"waste_basket"}},"type":"Feature"},
	{"geometry":{"coordinates":[2.390646,51.046313],"type":"Point"},"properties":{"osm_id":"7858379632","tag":{"amenity":"waste_basket"}},"type":"Feature"},
	{"geometry":{"coordinates":[2.391112,51.045682],"type":"Point"},"properties":{"osm_id":"7858427788","tag":{"amenity":"waste_basket"}},"type":"Feature"},
	{"geometry":{"coordinates":[2.404583,51.051896],"type":"Point"},"properties":{"osm_id":"7858460283","tag":{"amenity":"waste_basket"}},"type":"Feature"},
	{"geometry":{"coordinates":[2.413535,51.053689],"type":"Point"},"properties":{"osm_id":"7858485056","tag":{"amenity":"waste_basket"}},"type":"Feature"},
	{"geometry":{"coordinates":[2.389207,51.049916],"type":"Point"},"properties":{"osm_id":"7858575096","tag":{"amenity":"waste_basket"}},"type":"Feature"},
	{"geometry":{"coordinates":[2.380563,51.048415],"type":"Point"},"properties":{"osm_id":"7858635550","tag":{"amenity":"waste_basket"}},"type":"Feature"},
	{"geometry":{"coordinates":[2.391481,51.049982],"type":"Point"},"properties":{"osm_id":"7858643591","tag":{"amenity":"waste_basket"}},"type":"Feature"},
	{"geometry":{"coordinates":[2.392282,51.05009],"type":"Point"},"properties":{"osm_id":"7858643596","tag":{"amenity":"waste_basket"}},"type":"Feature"},
	{"geometry":{"coordinates":[2.390904,51.049906],"type":"Point"},"properties":{"osm_id":"7858643600","tag":{"amenity":"waste_basket"}},"type":"Feature"},
	{"geometry":{"coordinates":[2.390097,51.049791],"type":"Point"},"properties":{"osm_id":"7858643601","tag":{"amenity":"waste_basket"}},"type":"Feature"},
	{"geometry":{"coordinates":[2.387599,51.049699],"type":"Point"},"properties":{"osm_id":"7858648244","tag":{"amenity":"waste_basket"}},"type":"Feature"}
]
}
