{
"type": "FeatureCollection",
"features": [
	{"geometry":{"coordinates":[2.42263,50.889224],"type":"Point"},"properties":{"osm_id":"1866416551","tag":{"amenity":"recycling","recycling:glass_bottles":"yes","recycling_type":"container"}},"type":"Feature"},
	{"geometry":{"coordinates":[2.430007,50.887322],"type":"Point"},"properties":{"name":"Recyclage D\u00c3\u00a9chets Verts","osm_id":"2417663151","tag":{"amenity":"recycling","recycling_type":"container"}},"type":"Feature"},
	{"geometry":{"coordinates":[2.430725,50.88576],"type":"Point"},"properties":{"osm_id":"7640484788","tag":{"amenity":"waste_basket"}},"type":"Feature"},
	{"geometry":{"coordinates":[2.431017,50.88473],"type":"Point"},"properties":{"osm_id":"7640851636","tag":{"amenity":"waste_basket"}},"type":"Feature"},
	{"geometry":{"coordinates":[2.38821,50.887781],"type":"Point"},"properties":{"osm_id":"8574481260","tag":{"amenity":"recycling","opening_hours":"24/7","opening_hours:covid19":"open","recycling:green_waste":"yes","recycling_type":"container"}},"type":"Feature"},
	{"geometry":{"coordinates":[2.385788,50.887253],"type":"Point"},"properties":{"osm_id":"8907823683","tag":{"amenity":"waste_basket"}},"type":"Feature"}
]
}
