{
"type": "FeatureCollection",
"features": [
	{"geometry":{"coordinates":[2.415637,48.776599],"type":"Point"},"properties":{"osm_id":"271880575","tag":{"amenity":"recycling","recycling_type":"centre"}},"type":"Feature"},
	{"geometry":{"coordinates":[2.394576,48.755214],"type":"Point"},"properties":{"osm_id":"391217991","tag":{"amenity":"recycling","recycling:glass":"yes","recycling_type":"container"}},"type":"Feature"},
	{"geometry":{"coordinates":[2.399525,48.760199],"type":"Point"},"properties":{"osm_id":"391278964","tag":{"amenity":"recycling","recycling:glass":"yes"}},"type":"Feature"},
	{"geometry":{"coordinates":[2.43928,48.78041],"type":"Point"},"properties":{"osm_id":"1187082050","tag":{"amenity":"recycling","recycling:clothes":"yes"}},"type":"Feature"},
	{"geometry":{"coordinates":[2.440112,48.774536],"type":"Point"},"properties":{"osm_id":"1474391444","tag":{"amenity":"recycling","recycling:clothes":"yes"}},"type":"Feature"},
	{"geometry":{"coordinates":[2.454881,48.78027],"type":"Point"},"properties":{"osm_id":"1474391534","tag":{"amenity":"recycling","recycling:glass_bottles":"yes","recycling_type":"container"}},"type":"Feature"},
	{"geometry":{"coordinates":[2.407181,48.782742],"type":"Point"},"properties":{"osm_id":"1994675020","tag":{"amenity":"waste_basket"}},"type":"Feature"},
	{"geometry":{"coordinates":[2.391738,48.795023],"type":"Point"},"properties":{"osm_id":"2077537107","tag":{"amenity":"waste_basket"}},"type":"Feature"},
	{"geometry":{"coordinates":[2.391874,48.795045],"type":"Point"},"properties":{"osm_id":"2077537108","tag":{"amenity":"waste_basket"}},"type":"Feature"},
	{"geometry":{"coordinates":[2.387289,48.792108],"type":"Point"},"properties":{"osm_id":"2088592638","tag":{"amenity":"waste_basket"}},"type":"Feature"},
	{"geometry":{"coordinates":[2.387339,48.792675],"type":"Point"},"properties":{"osm_id":"2088592639","tag":{"amenity":"recycling","recycling:cartons":"no","recycling:clothes":"no","recycling:paper":"yes","recycling_type":"container"}},"type":"Feature"},
	{"geometry":{"coordinates":[2.387356,48.792643],"type":"Point"},"properties":{"osm_id":"2088592642","tag":{"amenity":"waste_basket"}},"type":"Feature"},
	{"geometry":{"coordinates":[2.392601,48.793413],"type":"Point"},"properties":{"osm_id":"2088592977","tag":{"amenity":"waste_basket"}},"type":"Feature"},
	{"geometry":{"coordinates":[2.392849,48.793244],"type":"Point"},"properties":{"osm_id":"2088592978","tag":{"amenity":"waste_basket"}},"type":"Feature"},
	{"geometry":{"coordinates":[2.393068,48.79298],"type":"Point"},"properties":{"osm_id":"2088597932","tag":{"amenity":"waste_basket"}},"type":"Feature"},
	{"geometry":{"coordinates":[2.393719,48.793026],"type":"Point"},"properties":{"osm_id":"2088597939","tag":{"amenity":"waste_basket"}},"type":"Feature"},
	{"geometry":{"coordinates":[2.38849,48.790461],"type":"Point"},"properties":{"osm_id":"2137698951","tag":{"amenity":"recycling","recycling:glass_bottles":"yes","recycling_type":"container"}},"type":"Feature"},
	{"geometry":{"coordinates":[2.38106,48.799992],"type":"Point"},"properties":{"osm_id":"2214902529","tag":{"amenity":"waste_basket"}},"type":"Feature"},
	{"geometry":{"coordinates":[2.39343,48.79578],"type":"Point"},"properties":{"osm_id":"2214925161","tag":{"amenity":"waste_basket"}},"type":"Feature"},
	{"geometry":{"coordinates":[2.398163,48.756297],"type":"Point"},"properties":{"osm_id":"2271218726","tag":{"amenity":"recycling","recycling:glass_bottles":"yes","recycling_type":"container"}},"type":"Feature"},
	{"geometry":{"coordinates":[2.387214,48.792836],"type":"Point"},"properties":{"osm_id":"2272849127","tag":{"amenity":"waste_basket"}},"type":"Feature"},
	{"geometry":{"coordinates":[2.417328,48.794529],"type":"Point"},"properties":{"osm_id":"2306128361","tag":{"amenity":"recycling","recycling:clothes":"yes","recycling:shoes":"yes","recycling_type":"container"}},"type":"Feature"},
	{"geometry":{"coordinates":[2.407009,48.781903],"type":"Point"},"properties":{"osm_id":"2319510019","tag":{"amenity":"recycling","recycling_type":"container"}},"type":"Feature"},
	{"geometry":{"coordinates":[2.396426,48.778939],"type":"Point"},"properties":{"name":"V\u00c3\u00aatements","osm_id":"2326836347","tag":{"amenity":"recycling","recycling_type":"container"}},"type":"Feature"},
	{"geometry":{"coordinates":[2.411885,48.795422],"type":"Point"},"properties":{"osm_id":"2344327533","tag":{"amenity":"recycling","recycling:glass":"yes","recycling_type":"container"}},"type":"Feature"},
	{"geometry":{"coordinates":[2.390443,48.795302],"type":"Point"},"properties":{"osm_id":"2354761613","tag":{"amenity":"waste_basket"}},"type":"Feature"},
	{"geometry":{"coordinates":[2.411031,48.76403],"type":"Point"},"properties":{"osm_id":"2363355524","tag":{"amenity":"waste_basket","level":"0","source:amenity":"survey"}},"type":"Feature"},
	{"geometry":{"coordinates":[2.411176,48.763926],"type":"Point"},"properties":{"osm_id":"2363355527","tag":{"amenity":"waste_basket","level":"0","source:amenity":"survey"}},"type":"Feature"},
	{"geometry":{"coordinates":[2.411192,48.764048],"type":"Point"},"properties":{"osm_id":"2370851792","tag":{"amenity":"waste_basket","level":"0","source:amenity":"survey"}},"type":"Feature"},
	{"geometry":{"coordinates":[2.409882,48.763784],"type":"Point"},"properties":{"osm_id":"2388300422","tag":{"amenity":"recycling","recycling:clothes":"yes","recycling_type":"container"}},"type":"Feature"},
	{"geometry":{"coordinates":[2.409948,48.764069],"type":"Point"},"properties":{"osm_id":"2388300461","tag":{"amenity":"waste_basket"}},"type":"Feature"},
	{"geometry":{"coordinates":[2.387264,48.793094],"type":"Point"},"properties":{"osm_id":"2422989848","tag":{"amenity":"waste_basket"}},"type":"Feature"},
	{"geometry":{"coordinates":[2.387275,48.793092],"type":"Point"},"properties":{"osm_id":"2422989856","tag":{"amenity":"recycling"}},"type":"Feature"},
	{"geometry":{"coordinates":[2.386566,48.79351],"type":"Point"},"properties":{"osm_id":"2422989858","tag":{"amenity":"waste_basket"}},"type":"Feature"},
	{"geometry":{"coordinates":[2.386422,48.793503],"type":"Point"},"properties":{"osm_id":"2422989861","tag":{"amenity":"recycling"}},"type":"Feature"},
	{"geometry":{"coordinates":[2.386932,48.793555],"type":"Point"},"properties":{"osm_id":"2422989865","tag":{"amenity":"waste_basket"}},"type":"Feature"},
	{"geometry":{"coordinates":[2.387259,48.793106],"type":"Point"},"properties":{"osm_id":"2422989868","tag":{"amenity":"waste_basket"}},"type":"Feature"},
	{"geometry":{"coordinates":[2.386915,48.789271],"type":"Point"},"properties":{"osm_id":"2435289814","tag":{"amenity":"waste_basket"}},"type":"Feature"},
	{"geometry":{"coordinates":[2.387706,48.793763],"type":"Point"},"properties":{"osm_id":"2435289822","tag":{"amenity":"waste_basket"}},"type":"Feature"},
	{"geometry":{"coordinates":[2.387702,48.793732],"type":"Point"},"properties":{"osm_id":"2435289829","tag":{"amenity":"waste_basket"}},"type":"Feature"},
	{"geometry":{"coordinates":[2.395928,48.793367],"type":"Point"},"properties":{"osm_id":"2435323699","tag":{"amenity":"waste_basket"}},"type":"Feature"},
	{"geometry":{"coordinates":[2.454923,48.749329],"type":"Point"},"properties":{"name":"Verre","osm_id":"2502294762","tag":{"amenity":"recycling","recycling_type":"container"}},"type":"Feature"},
	{"geometry":{"coordinates":[2.402936,48.800092],"type":"Point"},"properties":{"osm_id":"2529252347","tag":{"amenity":"waste_basket","layer":"1"}},"type":"Feature"},
	{"geometry":{"coordinates":[2.402569,48.800124],"type":"Point"},"properties":{"osm_id":"2529252349","tag":{"amenity":"waste_basket","layer":"1","level":"1"}},"type":"Feature"},
	{"geometry":{"coordinates":[2.402797,48.800348],"type":"Point"},"properties":{"osm_id":"2529252353","tag":{"amenity":"waste_basket","layer":"1"}},"type":"Feature"},
	{"geometry":{"coordinates":[2.402415,48.800436],"type":"Point"},"properties":{"osm_id":"2529252358","tag":{"amenity":"waste_basket","layer":"1"}},"type":"Feature"},
	{"geometry":{"coordinates":[2.402678,48.800545],"type":"Point"},"properties":{"osm_id":"2529252360","tag":{"amenity":"waste_basket","layer":"1"}},"type":"Feature"},
	{"geometry":{"coordinates":[2.402582,48.800738],"type":"Point"},"properties":{"osm_id":"2529252379","tag":{"amenity":"waste_basket","layer":"1","level":"1"}},"type":"Feature"},
	{"geometry":{"coordinates":[2.387307,48.795333],"type":"Point"},"properties":{"osm_id":"2659785442","tag":{"amenity":"recycling","recycling:clothes":"yes","recycling_type":"container"}},"type":"Feature"},
	{"geometry":{"coordinates":[2.434335,48.769901],"type":"Point"},"properties":{"osm_id":"2671553301","tag":{"amenity":"waste_basket"}},"type":"Feature"},
	{"geometry":{"coordinates":[2.435285,48.77183],"type":"Point"},"properties":{"osm_id":"2671637557","tag":{"amenity":"waste_basket","level":"0"}},"type":"Feature"},
	{"geometry":{"coordinates":[2.435341,48.772052],"type":"Point"},"properties":{"osm_id":"2671637561","tag":{"amenity":"waste_basket"}},"type":"Feature"},
	{"geometry":{"coordinates":[2.434804,48.770573],"type":"Point"},"properties":{"osm_id":"2671886850","tag":{"amenity":"waste_basket"}},"type":"Feature"},
	{"geometry":{"coordinates":[2.4351,48.771008],"type":"Point"},"properties":{"osm_id":"2671886889","tag":{"amenity":"waste_basket"}},"type":"Feature"},
	{"geometry":{"coordinates":[2.435522,48.771758],"type":"Point"},"properties":{"osm_id":"2671886984","tag":{"amenity":"waste_basket"}},"type":"Feature"},
	{"geometry":{"coordinates":[2.435626,48.771965],"type":"Point"},"properties":{"osm_id":"2671886999","tag":{"amenity":"waste_basket"}},"type":"Feature"},
	{"geometry":{"coordinates":[2.435753,48.772283],"type":"Point"},"properties":{"osm_id":"2671887027","tag":{"amenity":"waste_basket"}},"type":"Feature"},
	{"geometry":{"coordinates":[2.43526,48.771634],"type":"Point"},"properties":{"osm_id":"2673353479","tag":{"amenity":"waste_basket","level":"0"}},"type":"Feature"},
	{"geometry":{"coordinates":[2.434543,48.772881],"type":"Point"},"properties":{"osm_id":"2673353515","tag":{"amenity":"waste_basket"}},"type":"Feature"},
	{"geometry":{"coordinates":[2.434483,48.772958],"type":"Point"},"properties":{"osm_id":"2673353523","tag":{"amenity":"waste_basket"}},"type":"Feature"},
	{"geometry":{"coordinates":[2.434834,48.772971],"type":"Point"},"properties":{"osm_id":"2673353528","tag":{"amenity":"waste_basket"}},"type":"Feature"},
	{"geometry":{"coordinates":[2.434586,48.772989],"type":"Point"},"properties":{"osm_id":"2673353534","tag":{"amenity":"waste_basket"}},"type":"Feature"},
	{"geometry":{"coordinates":[2.43497,48.773011],"type":"Point"},"properties":{"osm_id":"2673353536","tag":{"amenity":"waste_basket"}},"type":"Feature"},
	{"geometry":{"coordinates":[2.432122,48.789205],"type":"Point"},"properties":{"osm_id":"2692614134","tag":{"amenity":"waste_basket"}},"type":"Feature"},
	{"geometry":{"coordinates":[2.431791,48.789567],"type":"Point"},"properties":{"osm_id":"2692614143","tag":{"amenity":"waste_basket"}},"type":"Feature"},
	{"geometry":{"coordinates":[2.432601,48.787473],"type":"Point"},"properties":{"osm_id":"2692637437","tag":{"amenity":"waste_basket","level":"-1"}},"type":"Feature"},
	{"geometry":{"coordinates":[2.432587,48.787525],"type":"Point"},"properties":{"osm_id":"2692637439","tag":{"amenity":"waste_basket","level":"-1","tactile_paving":"no"}},"type":"Feature"},
	{"geometry":{"coordinates":[2.432225,48.787493],"type":"Point"},"properties":{"osm_id":"2692661309","tag":{"amenity":"waste_basket"}},"type":"Feature"},
	{"geometry":{"coordinates":[2.431622,48.789356],"type":"Point"},"properties":{"osm_id":"2777515452","tag":{"amenity":"waste_basket","layer":"-1"}},"type":"Feature"},
	{"geometry":{"coordinates":[2.431676,48.789356],"type":"Point"},"properties":{"osm_id":"2777515455","tag":{"amenity":"waste_basket","layer":"-1"}},"type":"Feature"},
	{"geometry":{"coordinates":[2.432103,48.789391],"type":"Point"},"properties":{"osm_id":"2777515462","tag":{"amenity":"waste_basket","layer":"-1"}},"type":"Feature"},
	{"geometry":{"coordinates":[2.432136,48.789396],"type":"Point"},"properties":{"osm_id":"2777515465","tag":{"amenity":"waste_basket","layer":"-1"}},"type":"Feature"},
	{"geometry":{"coordinates":[2.431913,48.789644],"type":"Point"},"properties":{"osm_id":"2777515476","tag":{"amenity":"waste_basket"}},"type":"Feature"},
	{"geometry":{"coordinates":[2.426586,48.801773],"type":"Point"},"properties":{"osm_id":"2777593295","tag":{"amenity":"waste_basket","level":"1"}},"type":"Feature"},
	{"geometry":{"coordinates":[2.426556,48.801836],"type":"Point"},"properties":{"osm_id":"2777593304","tag":{"amenity":"waste_basket","level":"1"}},"type":"Feature"},
	{"geometry":{"coordinates":[2.426505,48.801942],"type":"Point"},"properties":{"osm_id":"2777593332","tag":{"amenity":"waste_basket","level":"1"}},"type":"Feature"},
	{"geometry":{"coordinates":[2.426491,48.801983],"type":"Point"},"properties":{"osm_id":"2777593369","tag":{"amenity":"waste_basket","level":"1"}},"type":"Feature"},
	{"geometry":{"coordinates":[2.426469,48.802034],"type":"Point"},"properties":{"osm_id":"2777593403","tag":{"amenity":"waste_basket","level":"1"}},"type":"Feature"},
	{"geometry":{"coordinates":[2.426453,48.802077],"type":"Point"},"properties":{"osm_id":"2777593413","tag":{"amenity":"waste_basket","level":"1"}},"type":"Feature"},
	{"geometry":{"coordinates":[2.426425,48.802151],"type":"Point"},"properties":{"osm_id":"2777593437","tag":{"amenity":"waste_basket","level":"1"}},"type":"Feature"},
	{"geometry":{"coordinates":[2.426404,48.802213],"type":"Point"},"properties":{"osm_id":"2777593452","tag":{"amenity":"waste_basket","level":"1"}},"type":"Feature"},
	{"geometry":{"coordinates":[2.4263,48.802427],"type":"Point"},"properties":{"osm_id":"2777593470","tag":{"amenity":"waste_basket","level":"1"}},"type":"Feature"},
	{"geometry":{"coordinates":[2.426863,48.801595],"type":"Point"},"properties":{"osm_id":"2790576297","tag":{"amenity":"waste_basket","level":"1"}},"type":"Feature"},
	{"geometry":{"coordinates":[2.426813,48.801707],"type":"Point"},"properties":{"osm_id":"2790576317","tag":{"amenity":"waste_basket","level":"1"}},"type":"Feature"},
	{"geometry":{"coordinates":[2.426127,48.801938],"type":"Point"},"properties":{"osm_id":"2790576406","tag":{"amenity":"waste_basket","level":"1"}},"type":"Feature"},
	{"geometry":{"coordinates":[2.427008,48.801955],"type":"Point"},"properties":{"osm_id":"2790576422","tag":{"amenity":"waste_basket","level":"0"}},"type":"Feature"},
	{"geometry":{"coordinates":[2.426683,48.802016],"type":"Point"},"properties":{"osm_id":"2790576460","tag":{"amenity":"waste_basket","level":"1"}},"type":"Feature"},
	{"geometry":{"coordinates":[2.426978,48.802047],"type":"Point"},"properties":{"osm_id":"2790576487","tag":{"amenity":"waste_basket","level":"0"}},"type":"Feature"},
	{"geometry":{"coordinates":[2.427028,48.80205],"type":"Point"},"properties":{"osm_id":"2790576496","tag":{"amenity":"waste_basket","level":"0"}},"type":"Feature"},
	{"geometry":{"coordinates":[2.42695,48.802104],"type":"Point"},"properties":{"osm_id":"2790576521","tag":{"amenity":"waste_basket","level":"0"}},"type":"Feature"},
	{"geometry":{"coordinates":[2.426606,48.802131],"type":"Point"},"properties":{"osm_id":"2790576553","tag":{"amenity":"waste_basket","level":"1"}},"type":"Feature"},
	{"geometry":{"coordinates":[2.426576,48.802242],"type":"Point"},"properties":{"osm_id":"2790576614","tag":{"amenity":"waste_basket","level":"1"}},"type":"Feature"},
	{"geometry":{"coordinates":[2.426524,48.802394],"type":"Point"},"properties":{"osm_id":"2790576639","tag":{"amenity":"waste_basket","level":"1"}},"type":"Feature"},
	{"geometry":{"coordinates":[2.426439,48.802594],"type":"Point"},"properties":{"osm_id":"2790576659","tag":{"amenity":"waste_basket","level":"1"}},"type":"Feature"},
	{"geometry":{"coordinates":[2.426361,48.802778],"type":"Point"},"properties":{"osm_id":"2790576698","tag":{"amenity":"waste_basket","level":"1"}},"type":"Feature"},
	{"geometry":{"coordinates":[2.432406,48.788012],"type":"Point"},"properties":{"osm_id":"2790740378","tag":{"amenity":"waste_basket"}},"type":"Feature"},
	{"geometry":{"coordinates":[2.432357,48.788147],"type":"Point"},"properties":{"osm_id":"2790740381","tag":{"amenity":"waste_basket"}},"type":"Feature"},
	{"geometry":{"coordinates":[2.432305,48.788294],"type":"Point"},"properties":{"osm_id":"2790740384","tag":{"amenity":"waste_basket"}},"type":"Feature"},
	{"geometry":{"coordinates":[2.432291,48.788385],"type":"Point"},"properties":{"osm_id":"2790740396","tag":{"amenity":"waste_basket"}},"type":"Feature"},
	{"geometry":{"coordinates":[2.43219,48.78855],"type":"Point"},"properties":{"osm_id":"2790740417","tag":{"amenity":"waste_basket"}},"type":"Feature"},
	{"geometry":{"coordinates":[2.432148,48.788749],"type":"Point"},"properties":{"osm_id":"2790740426","tag":{"amenity":"waste_basket"}},"type":"Feature"},
	{"geometry":{"coordinates":[2.43204,48.788953],"type":"Point"},"properties":{"osm_id":"2790740441","tag":{"amenity":"waste_basket"}},"type":"Feature"},
	{"geometry":{"coordinates":[2.432022,48.788996],"type":"Point"},"properties":{"osm_id":"2790740445","tag":{"amenity":"waste_basket"}},"type":"Feature"},
	{"geometry":{"coordinates":[2.432009,48.789038],"type":"Point"},"properties":{"osm_id":"2790740448","tag":{"amenity":"waste_basket"}},"type":"Feature"},
	{"geometry":{"coordinates":[2.431904,48.789263],"type":"Point"},"properties":{"osm_id":"2790740474","tag":{"amenity":"waste_basket"}},"type":"Feature"},
	{"geometry":{"coordinates":[2.426066,48.801871],"type":"Point"},"properties":{"osm_id":"2918578218","tag":{"amenity":"waste_basket"}},"type":"Feature"},
	{"geometry":{"coordinates":[2.383192,48.80366],"type":"Point"},"properties":{"osm_id":"2952603680","tag":{"amenity":"recycling","recycling:clothes":"yes"}},"type":"Feature"},
	{"geometry":{"coordinates":[2.382931,48.803507],"type":"Point"},"properties":{"osm_id":"2954845546","tag":{"amenity":"waste_basket"}},"type":"Feature"},
	{"geometry":{"coordinates":[2.381897,48.804501],"type":"Point"},"properties":{"osm_id":"2954845548","tag":{"amenity":"waste_basket"}},"type":"Feature"},
	{"geometry":{"coordinates":[2.381872,48.804602],"type":"Point"},"properties":{"osm_id":"2954845549","tag":{"amenity":"waste_basket"}},"type":"Feature"},
	{"geometry":{"coordinates":[2.38218,48.80506],"type":"Point"},"properties":{"osm_id":"2954845550","tag":{"amenity":"waste_basket"}},"type":"Feature"},
	{"geometry":{"coordinates":[2.382003,48.805302],"type":"Point"},"properties":{"osm_id":"2954845553","tag":{"amenity":"waste_basket"}},"type":"Feature"},
	{"geometry":{"coordinates":[2.381992,48.805368],"type":"Point"},"properties":{"osm_id":"2954845554","tag":{"amenity":"waste_basket"}},"type":"Feature"},
	{"geometry":{"coordinates":[2.382326,48.804052],"type":"Point"},"properties":{"osm_id":"2958259691","tag":{"amenity":"waste_basket"}},"type":"Feature"},
	{"geometry":{"coordinates":[2.381903,48.804491],"type":"Point"},"properties":{"osm_id":"2958259693","tag":{"amenity":"waste_basket"}},"type":"Feature"},
	{"geometry":{"coordinates":[2.381819,48.804627],"type":"Point"},"properties":{"osm_id":"2958259694","tag":{"amenity":"waste_basket"}},"type":"Feature"},
	{"geometry":{"coordinates":[2.381744,48.804623],"type":"Point"},"properties":{"osm_id":"2958259695","tag":{"amenity":"recycling","recycling:glass":"yes","recycling:paper":"yes"}},"type":"Feature"},
	{"geometry":{"coordinates":[2.383405,48.805202],"type":"Point"},"properties":{"osm_id":"2963928991","tag":{"amenity":"recycling","recycling:clothes":"yes"}},"type":"Feature"},
	{"geometry":{"coordinates":[2.414697,48.798957],"type":"Point"},"properties":{"osm_id":"3567126774","tag":{"amenity":"waste_basket"}},"type":"Feature"},
	{"geometry":{"coordinates":[2.414803,48.79888],"type":"Point"},"properties":{"osm_id":"3567126775","tag":{"amenity":"waste_basket"}},"type":"Feature"},
	{"geometry":{"coordinates":[2.414879,48.798827],"type":"Point"},"properties":{"osm_id":"3567126778","tag":{"amenity":"waste_basket"}},"type":"Feature"},
	{"geometry":{"coordinates":[2.41531,48.798514],"type":"Point"},"properties":{"osm_id":"3567126779","tag":{"amenity":"waste_basket"}},"type":"Feature"},
	{"geometry":{"coordinates":[2.41511,48.798662],"type":"Point"},"properties":{"osm_id":"3567126783","tag":{"amenity":"waste_basket"}},"type":"Feature"},
	{"geometry":{"coordinates":[2.409048,48.803299],"type":"Point"},"properties":{"osm_id":"3573187397","tag":{"amenity":"waste_basket"}},"type":"Feature"},
	{"geometry":{"coordinates":[2.417364,48.794551],"type":"Point"},"properties":{"osm_id":"3647537561","tag":{"amenity":"recycling","recycling:glass":"yes","recycling_type":"container"}},"type":"Feature"},
	{"geometry":{"coordinates":[2.447059,48.783942],"type":"Point"},"properties":{"osm_id":"4035298687","tag":{"amenity":"waste_basket"}},"type":"Feature"},
	{"geometry":{"coordinates":[2.390081,48.805332],"type":"Point"},"properties":{"osm_id":"4133448297","tag":{"amenity":"waste_basket"}},"type":"Feature"},
	{"geometry":{"coordinates":[2.390926,48.804922],"type":"Point"},"properties":{"osm_id":"4133448299","tag":{"amenity":"waste_disposal"}},"type":"Feature"},
	{"geometry":{"coordinates":[2.392854,48.803949],"type":"Point"},"properties":{"osm_id":"4133448301","tag":{"amenity":"waste_basket"}},"type":"Feature"},
	{"geometry":{"coordinates":[2.389527,48.805613],"type":"Point"},"properties":{"osm_id":"4133448491","tag":{"amenity":"waste_basket"}},"type":"Feature"},
	{"geometry":{"coordinates":[2.386673,48.799912],"type":"Point"},"properties":{"osm_id":"4133448500","tag":{"amenity":"waste_basket"}},"type":"Feature"},
	{"geometry":{"coordinates":[2.386567,48.800496],"type":"Point"},"properties":{"osm_id":"4133448503","tag":{"amenity":"waste_basket"}},"type":"Feature"},
	{"geometry":{"coordinates":[2.391535,48.804463],"type":"Point"},"properties":{"osm_id":"4133448597","tag":{"amenity":"waste_basket"}},"type":"Feature"},
	{"geometry":{"coordinates":[2.387084,48.800049],"type":"Point"},"properties":{"osm_id":"4133448599","tag":{"amenity":"waste_basket"}},"type":"Feature"},
	{"geometry":{"coordinates":[2.386524,48.80058],"type":"Point"},"properties":{"osm_id":"4133448600","tag":{"amenity":"waste_basket"}},"type":"Feature"},
	{"geometry":{"coordinates":[2.386583,48.800057],"type":"Point"},"properties":{"osm_id":"4133449891","tag":{"amenity":"waste_basket"}},"type":"Feature"},
	{"geometry":{"coordinates":[2.386542,48.80035],"type":"Point"},"properties":{"osm_id":"4133452595","tag":{"amenity":"waste_basket"}},"type":"Feature"},
	{"geometry":{"coordinates":[2.386831,48.799979],"type":"Point"},"properties":{"osm_id":"4133452596","tag":{"amenity":"waste_basket"}},"type":"Feature"},
	{"geometry":{"coordinates":[2.388927,48.805504],"type":"Point"},"properties":{"osm_id":"4133452597","tag":{"amenity":"waste_basket"}},"type":"Feature"},
	{"geometry":{"coordinates":[2.390439,48.805279],"type":"Point"},"properties":{"osm_id":"4133478789","tag":{"amenity":"waste_basket"}},"type":"Feature"},
	{"geometry":{"coordinates":[2.386837,48.800334],"type":"Point"},"properties":{"osm_id":"4133478791","tag":{"amenity":"waste_basket"}},"type":"Feature"},
	{"geometry":{"coordinates":[2.386173,48.80224],"type":"Point"},"properties":{"osm_id":"4133478792","tag":{"amenity":"waste_basket"}},"type":"Feature"},
	{"geometry":{"coordinates":[2.391064,48.799335],"type":"Point"},"properties":{"osm_id":"4133479189","tag":{"amenity":"waste_basket"}},"type":"Feature"},
	{"geometry":{"coordinates":[2.388593,48.805344],"type":"Point"},"properties":{"osm_id":"4133479290","tag":{"amenity":"waste_basket"}},"type":"Feature"},
	{"geometry":{"coordinates":[2.390936,48.806468],"type":"Point"},"properties":{"osm_id":"4133505512","tag":{"addr:city":"Ivry-sur-Seine","addr:postcode":"94200","addr:street":"Rue Jean Bonnefoix","amenity":"recycling","recycling:cans":"no","recycling:clothes":"no","recycling:glass":"yes","recycling:glass_bottles":"yes","recycling:paper":"no","recycling:plastic":"no","recycling_type":"container"}},"type":"Feature"},
	{"geometry":{"coordinates":[2.455035,48.787558],"type":"Point"},"properties":{"osm_id":"4465521996","tag":{"amenity":"recycling","location":"underground","recycling:glass":"yes","recycling:waste":"yes","recycling_type":"container"}},"type":"Feature"},
	{"geometry":{"coordinates":[2.454007,48.789616],"type":"Point"},"properties":{"osm_id":"4465533083","tag":{"amenity":"recycling","location":"underground","recycling:glass":"yes","recycling:waste":"yes","recycling_type":"container","wheelchair":"yes"}},"type":"Feature"},
	{"geometry":{"coordinates":[2.437582,48.784689],"type":"Point"},"properties":{"osm_id":"5067051379","tag":{"amenity":"recycling","recycling:cans":"yes","recycling:glass_bottles":"yes","recycling:paper":"yes","recycling:plastic":"yes","recycling_type":"container"}},"type":"Feature"},
	{"geometry":{"coordinates":[2.41014,48.763863],"type":"Point"},"properties":{"osm_id":"5212668872","tag":{"amenity":"recycling","operator":"unicef","recycling:clothes":"yes","recycling_type":"container"}},"type":"Feature"},
	{"geometry":{"coordinates":[2.425793,48.762049],"type":"Point"},"properties":{"osm_id":"5477627438","tag":{"amenity":"recycling","recycling:glass":"yes","recycling_type":"container"}},"type":"Feature"},
	{"geometry":{"coordinates":[2.425803,48.76204],"type":"Point"},"properties":{"osm_id":"5477627439","tag":{"amenity":"recycling","recycling:paper":"yes","recycling_type":"container"}},"type":"Feature"},
	{"geometry":{"coordinates":[2.425816,48.762031],"type":"Point"},"properties":{"osm_id":"5477627440","tag":{"amenity":"waste_basket"}},"type":"Feature"},
	{"geometry":{"coordinates":[2.397297,48.755859],"type":"Point"},"properties":{"osm_id":"5527142774","tag":{"amenity":"waste_basket"}},"type":"Feature"},
	{"geometry":{"coordinates":[2.411231,48.801744],"type":"Point"},"properties":{"osm_id":"5646455821","tag":{"amenity":"recycling","recycling:organic":"yes","recycling_type":"container"}},"type":"Feature"},
	{"geometry":{"coordinates":[2.386385,48.787135],"type":"Point"},"properties":{"osm_id":"5656874654","tag":{"amenity":"waste_basket"}},"type":"Feature"},
	{"geometry":{"coordinates":[2.386356,48.787049],"type":"Point"},"properties":{"osm_id":"5656875215","tag":{"amenity":"recycling","recycling:clothes":"yes"}},"type":"Feature"},
	{"geometry":{"coordinates":[2.387235,48.785939],"type":"Point"},"properties":{"osm_id":"5656875220","tag":{"amenity":"recycling","recycling:clothes":"yes"}},"type":"Feature"},
	{"geometry":{"coordinates":[2.388857,48.785087],"type":"Point"},"properties":{"osm_id":"5656875742","tag":{"amenity":"recycling"}},"type":"Feature"},
	{"geometry":{"coordinates":[2.397544,48.772105],"type":"Point"},"properties":{"osm_id":"5781192542","tag":{"amenity":"recycling","recycling:glass":"yes","recycling_type":"container"}},"type":"Feature"},
	{"geometry":{"coordinates":[2.402363,48.80053],"type":"Point"},"properties":{"osm_id":"6073965211","tag":{"amenity":"waste_basket","layer":"1"}},"type":"Feature"},
	{"geometry":{"coordinates":[2.40228,48.80078],"type":"Point"},"properties":{"osm_id":"6073965237","tag":{"amenity":"waste_basket","layer":"1"}},"type":"Feature"},
	{"geometry":{"coordinates":[2.402721,48.799934],"type":"Point"},"properties":{"osm_id":"6075961070","tag":{"amenity":"waste_basket","layer":"1","level":"1"}},"type":"Feature"},
	{"geometry":{"coordinates":[2.39214,48.764646],"type":"Point"},"properties":{"osm_id":"6162388494","tag":{"amenity":"recycling","location":"underground","recycling:glass":"yes","recycling:glass_bottles":"yes","recycling_type":"container"}},"type":"Feature"},
	{"geometry":{"coordinates":[2.392784,48.762507],"type":"Point"},"properties":{"osm_id":"6169029717","tag":{"amenity":"waste_basket"}},"type":"Feature"},
	{"geometry":{"coordinates":[2.392984,48.76433],"type":"Point"},"properties":{"osm_id":"6171878317","tag":{"amenity":"waste_basket"}},"type":"Feature"},
	{"geometry":{"coordinates":[2.393455,48.76417],"type":"Point"},"properties":{"osm_id":"6171878318","tag":{"amenity":"waste_basket"}},"type":"Feature"},
	{"geometry":{"coordinates":[2.396804,48.763831],"type":"Point"},"properties":{"osm_id":"6171878319","tag":{"amenity":"waste_basket"}},"type":"Feature"},
	{"geometry":{"coordinates":[2.397604,48.763617],"type":"Point"},"properties":{"osm_id":"6171878321","tag":{"amenity":"recycling","recycling:glass":"yes","recycling_type":"container"}},"type":"Feature"},
	{"geometry":{"coordinates":[2.391414,48.764508],"type":"Point"},"properties":{"osm_id":"6171918249","tag":{"amenity":"waste_basket"}},"type":"Feature"},
	{"geometry":{"coordinates":[2.389887,48.763706],"type":"Point"},"properties":{"osm_id":"6171919640","tag":{"amenity":"waste_basket"}},"type":"Feature"},
	{"geometry":{"coordinates":[2.390227,48.763924],"type":"Point"},"properties":{"osm_id":"6171919641","tag":{"amenity":"waste_basket"}},"type":"Feature"},
	{"geometry":{"coordinates":[2.388948,48.768784],"type":"Point"},"properties":{"osm_id":"6171981566","tag":{"amenity":"waste_basket"}},"type":"Feature"},
	{"geometry":{"coordinates":[2.389052,48.768526],"type":"Point"},"properties":{"osm_id":"6171981567","tag":{"amenity":"waste_basket"}},"type":"Feature"},
	{"geometry":{"coordinates":[2.39054,48.762868],"type":"Point"},"properties":{"osm_id":"6172686088","tag":{"amenity":"waste_basket"}},"type":"Feature"},
	{"geometry":{"coordinates":[2.393187,48.764939],"type":"Point"},"properties":{"osm_id":"6186976100","tag":{"amenity":"waste_basket"}},"type":"Feature"},
	{"geometry":{"coordinates":[2.394823,48.754739],"type":"Point"},"properties":{"osm_id":"6209087280","tag":{"amenity":"waste_basket"}},"type":"Feature"},
	{"geometry":{"coordinates":[2.389291,48.763752],"type":"Point"},"properties":{"osm_id":"6214780542","tag":{"amenity":"recycling","location":"underground","recycling:glass":"yes","recycling_type":"container"}},"type":"Feature"},
	{"geometry":{"coordinates":[2.384289,48.770828],"type":"Point"},"properties":{"osm_id":"6240600340","tag":{"amenity":"recycling","recycling:glass":"yes","recycling_type":"container"}},"type":"Feature"},
	{"geometry":{"coordinates":[2.390741,48.769336],"type":"Point"},"properties":{"osm_id":"6269186093","tag":{"amenity":"waste_basket"}},"type":"Feature"},
	{"geometry":{"coordinates":[2.437891,48.785425],"type":"Point"},"properties":{"osm_id":"6795267316","tag":{"amenity":"recycling","recycling:cans":"yes","recycling:glass_bottles":"yes","recycling:paper":"yes","recycling:plastic":"yes","recycling_type":"container"}},"type":"Feature"},
	{"geometry":{"coordinates":[2.438331,48.78497],"type":"Point"},"properties":{"osm_id":"6795267317","tag":{"amenity":"recycling","recycling:cans":"yes","recycling:glass_bottles":"yes","recycling:paper":"yes","recycling:plastic":"yes","recycling_type":"container"}},"type":"Feature"},
	{"geometry":{"coordinates":[2.436869,48.784954],"type":"Point"},"properties":{"osm_id":"6795284418","tag":{"amenity":"recycling","recycling:cans":"yes","recycling:glass_bottles":"yes","recycling:paper":"yes","recycling:plastic":"yes","recycling_type":"container"}},"type":"Feature"},
	{"geometry":{"coordinates":[2.436827,48.785141],"type":"Point"},"properties":{"osm_id":"6795284419","tag":{"amenity":"recycling","recycling:cans":"yes","recycling:glass_bottles":"yes","recycling:paper":"yes","recycling:plastic":"yes","recycling_type":"container"}},"type":"Feature"},
	{"geometry":{"coordinates":[2.436739,48.785472],"type":"Point"},"properties":{"osm_id":"6795284420","tag":{"amenity":"recycling","recycling:cans":"yes","recycling:glass_bottles":"yes","recycling:paper":"yes","recycling:plastic":"yes","recycling_type":"container"}},"type":"Feature"},
	{"geometry":{"coordinates":[2.39647,48.765475],"type":"Point"},"properties":{"osm_id":"7326501769","tag":{"amenity":"recycling","location":"underground","recycling:glass":"yes","recycling:glass_bottles":"yes","recycling_type":"container"}},"type":"Feature"},
	{"geometry":{"coordinates":[2.402344,48.778808],"type":"Point"},"properties":{"osm_id":"7408950781","tag":{"amenity":"waste_basket"}},"type":"Feature"},
	{"geometry":{"coordinates":[2.402829,48.778886],"type":"Point"},"properties":{"osm_id":"7408961785","tag":{"amenity":"waste_basket"}},"type":"Feature"},
	{"geometry":{"coordinates":[2.402739,48.778484],"type":"Point"},"properties":{"osm_id":"7408961791","tag":{"amenity":"waste_basket"}},"type":"Feature"},
	{"geometry":{"coordinates":[2.402443,48.778645],"type":"Point"},"properties":{"osm_id":"7408961794","tag":{"amenity":"waste_basket"}},"type":"Feature"},
	{"geometry":{"coordinates":[2.402502,48.779034],"type":"Point"},"properties":{"osm_id":"7408961799","tag":{"amenity":"waste_basket"}},"type":"Feature"},
	{"geometry":{"coordinates":[2.402555,48.779083],"type":"Point"},"properties":{"osm_id":"7408961800","tag":{"amenity":"waste_basket"}},"type":"Feature"},
	{"geometry":{"coordinates":[2.414219,48.763046],"type":"Point"},"properties":{"osm_id":"7527747118","tag":{"amenity":"waste_basket"}},"type":"Feature"},
	{"geometry":{"coordinates":[2.414508,48.762848],"type":"Point"},"properties":{"osm_id":"7527747119","tag":{"amenity":"waste_basket"}},"type":"Feature"},
	{"geometry":{"coordinates":[2.414899,48.762588],"type":"Point"},"properties":{"osm_id":"7527747122","tag":{"amenity":"waste_basket"}},"type":"Feature"},
	{"geometry":{"coordinates":[2.415183,48.762405],"type":"Point"},"properties":{"osm_id":"7527747123","tag":{"amenity":"waste_basket"}},"type":"Feature"},
	{"geometry":{"coordinates":[2.415517,48.762183],"type":"Point"},"properties":{"osm_id":"7527747124","tag":{"amenity":"waste_basket"}},"type":"Feature"}
]
}
