{
"type": "FeatureCollection",
"features": [
	{"geometry":{"coordinates":[2.388845,48.707167],"type":"Point"},"properties":{"osm_id":"1253867309","tag":{"amenity":"waste_basket","colour":"black","material":"metal","operator":"Mairie d'Athis-Mons","waste":"trash"}},"type":"Feature"},
	{"geometry":{"coordinates":[2.387604,48.706634],"type":"Point"},"properties":{"osm_id":"1253867349","tag":{"amenity":"waste_basket"}},"type":"Feature"},
	{"geometry":{"coordinates":[2.388188,48.706993],"type":"Point"},"properties":{"osm_id":"1253867363","tag":{"amenity":"waste_basket"}},"type":"Feature"},
	{"geometry":{"coordinates":[2.388735,48.70681],"type":"Point"},"properties":{"osm_id":"1253867370","tag":{"amenity":"waste_basket","colour":"black","material":"metal","operator":"Mairie d'Athis-Mons","waste":"trash"}},"type":"Feature"},
	{"geometry":{"coordinates":[2.389738,48.70725],"type":"Point"},"properties":{"osm_id":"1253867481","tag":{"amenity":"waste_basket"}},"type":"Feature"},
	{"geometry":{"coordinates":[2.388055,48.706832],"type":"Point"},"properties":{"osm_id":"1253867495","tag":{"amenity":"waste_basket"}},"type":"Feature"},
	{"geometry":{"coordinates":[2.392568,48.741964],"type":"Point"},"properties":{"osm_id":"2082618886","tag":{"amenity":"recycling","recycling_type":"container"}},"type":"Feature"},
	{"geometry":{"coordinates":[2.446811,48.742241],"type":"Point"},"properties":{"osm_id":"2235648034","tag":{"amenity":"recycling","recycling:clothes":"yes","recycling_type":"container"}},"type":"Feature"},
	{"geometry":{"coordinates":[2.417861,48.734827],"type":"Point"},"properties":{"osm_id":"2442511301","tag":{"amenity":"waste_basket"}},"type":"Feature"},
	{"geometry":{"coordinates":[2.418109,48.734845],"type":"Point"},"properties":{"osm_id":"2442511305","tag":{"amenity":"waste_basket"}},"type":"Feature"},
	{"geometry":{"coordinates":[2.417845,48.734955],"type":"Point"},"properties":{"osm_id":"2442511307","tag":{"amenity":"waste_basket"}},"type":"Feature"},
	{"geometry":{"coordinates":[2.418091,48.734972],"type":"Point"},"properties":{"osm_id":"2442511308","tag":{"amenity":"waste_basket"}},"type":"Feature"},
	{"geometry":{"coordinates":[2.459376,48.748033],"type":"Point"},"properties":{"name":"Vetements","osm_id":"2502294767","tag":{"amenity":"recycling"}},"type":"Feature"},
	{"geometry":{"coordinates":[2.426738,48.739869],"type":"Point"},"properties":{"osm_id":"2509530555","tag":{"amenity":"waste_basket"}},"type":"Feature"},
	{"geometry":{"coordinates":[2.426615,48.739793],"type":"Point"},"properties":{"osm_id":"2509536015","tag":{"amenity":"waste_basket","level":"0"}},"type":"Feature"},
	{"geometry":{"coordinates":[2.426599,48.739847],"type":"Point"},"properties":{"osm_id":"2509536019","tag":{"amenity":"waste_basket","level":"0"}},"type":"Feature"},
	{"geometry":{"coordinates":[2.426452,48.740064],"type":"Point"},"properties":{"osm_id":"2509536040","tag":{"amenity":"waste_basket","level":"0"}},"type":"Feature"},
	{"geometry":{"coordinates":[2.426052,48.74024],"type":"Point"},"properties":{"osm_id":"2509536050","tag":{"amenity":"waste_basket","level":"0"}},"type":"Feature"},
	{"geometry":{"coordinates":[2.425297,48.740072],"type":"Point"},"properties":{"osm_id":"2509550776","tag":{"amenity":"recycling","recycling:glass":"yes","recycling_type":"container"}},"type":"Feature"},
	{"geometry":{"coordinates":[2.419276,48.725148],"type":"Point"},"properties":{"osm_id":"2509588767","tag":{"amenity":"waste_basket"}},"type":"Feature"},
	{"geometry":{"coordinates":[2.419812,48.725583],"type":"Point"},"properties":{"osm_id":"2509588815","tag":{"amenity":"waste_basket"}},"type":"Feature"},
	{"geometry":{"coordinates":[2.419963,48.725711],"type":"Point"},"properties":{"osm_id":"2509588819","tag":{"amenity":"waste_basket"}},"type":"Feature"},
	{"geometry":{"coordinates":[2.419165,48.725546],"type":"Point"},"properties":{"osm_id":"2509802979","tag":{"amenity":"waste_basket"}},"type":"Feature"},
	{"geometry":{"coordinates":[2.420282,48.725881],"type":"Point"},"properties":{"osm_id":"2509802991","tag":{"amenity":"waste_basket","level":"-1"}},"type":"Feature"},
	{"geometry":{"coordinates":[2.460822,48.708787],"type":"Point"},"properties":{"osm_id":"2701617774","tag":{"amenity":"waste_basket"}},"type":"Feature"},
	{"geometry":{"coordinates":[2.460347,48.709008],"type":"Point"},"properties":{"osm_id":"2701617795","tag":{"amenity":"waste_basket"}},"type":"Feature"},
	{"geometry":{"coordinates":[2.446423,48.729459],"type":"Point"},"properties":{"osm_id":"2709627404","tag":{"amenity":"waste_basket","level":"0"}},"type":"Feature"},
	{"geometry":{"coordinates":[2.446361,48.729708],"type":"Point"},"properties":{"osm_id":"2709627416","tag":{"amenity":"waste_basket","level":"0"}},"type":"Feature"},
	{"geometry":{"coordinates":[2.446402,48.729859],"type":"Point"},"properties":{"osm_id":"2709627420","tag":{"amenity":"waste_basket","level":"0"}},"type":"Feature"},
	{"geometry":{"coordinates":[2.446518,48.730398],"type":"Point"},"properties":{"osm_id":"2709627423","tag":{"amenity":"waste_basket","level":"0"}},"type":"Feature"},
	{"geometry":{"coordinates":[2.446691,48.72982],"type":"Point"},"properties":{"osm_id":"2709637326","tag":{"amenity":"waste_basket","level":"0"}},"type":"Feature"},
	{"geometry":{"coordinates":[2.446657,48.729826],"type":"Point"},"properties":{"osm_id":"2709637327","tag":{"amenity":"waste_basket","level":"0"}},"type":"Feature"},
	{"geometry":{"coordinates":[2.446685,48.729885],"type":"Point"},"properties":{"osm_id":"2709637330","tag":{"amenity":"waste_basket","level":"0"}},"type":"Feature"},
	{"geometry":{"coordinates":[2.446103,48.730414],"type":"Point"},"properties":{"osm_id":"2709764680","tag":{"amenity":"waste_basket","level":"0"}},"type":"Feature"},
	{"geometry":{"coordinates":[2.446108,48.730478],"type":"Point"},"properties":{"osm_id":"2709764689","tag":{"amenity":"waste_basket","level":"0"}},"type":"Feature"},
	{"geometry":{"coordinates":[2.446164,48.730743],"type":"Point"},"properties":{"osm_id":"2709764739","tag":{"amenity":"waste_basket","level":"0"}},"type":"Feature"},
	{"geometry":{"coordinates":[2.446162,48.730802],"type":"Point"},"properties":{"osm_id":"2709764743","tag":{"amenity":"waste_basket","level":"0"}},"type":"Feature"},
	{"geometry":{"coordinates":[2.446183,48.730939],"type":"Point"},"properties":{"osm_id":"2709764759","tag":{"amenity":"waste_basket","level":"0"}},"type":"Feature"},
	{"geometry":{"coordinates":[2.446183,48.731347],"type":"Point"},"properties":{"osm_id":"2709764772","tag":{"amenity":"waste_basket","level":"0"}},"type":"Feature"},
	{"geometry":{"coordinates":[2.446188,48.731466],"type":"Point"},"properties":{"osm_id":"2709764779","tag":{"amenity":"waste_basket","level":"0"}},"type":"Feature"},
	{"geometry":{"coordinates":[2.445987,48.729331],"type":"Point"},"properties":{"osm_id":"2710063736","tag":{"amenity":"waste_basket","level":"0"}},"type":"Feature"},
	{"geometry":{"coordinates":[2.446033,48.729425],"type":"Point"},"properties":{"osm_id":"2710063743","tag":{"amenity":"waste_basket","level":"0"}},"type":"Feature"},
	{"geometry":{"coordinates":[2.445888,48.729542],"type":"Point"},"properties":{"osm_id":"2710063748","tag":{"amenity":"waste_basket","level":"0"}},"type":"Feature"},
	{"geometry":{"coordinates":[2.446119,48.729662],"type":"Point"},"properties":{"osm_id":"2710063758","tag":{"amenity":"waste_basket","level":"0"}},"type":"Feature"},
	{"geometry":{"coordinates":[2.445946,48.729728],"type":"Point"},"properties":{"osm_id":"2710063764","tag":{"amenity":"waste_basket","level":"0"}},"type":"Feature"},
	{"geometry":{"coordinates":[2.445981,48.729871],"type":"Point"},"properties":{"osm_id":"2710063782","tag":{"amenity":"waste_basket","level":"0"}},"type":"Feature"},
	{"geometry":{"coordinates":[2.446185,48.729932],"type":"Point"},"properties":{"osm_id":"2710063799","tag":{"amenity":"waste_basket","level":"0"}},"type":"Feature"},
	{"geometry":{"coordinates":[2.44603,48.730001],"type":"Point"},"properties":{"osm_id":"2710063827","tag":{"amenity":"waste_basket","level":"0"}},"type":"Feature"},
	{"geometry":{"coordinates":[2.446031,48.730034],"type":"Point"},"properties":{"osm_id":"2710063835","tag":{"amenity":"waste_basket","level":"0"}},"type":"Feature"},
	{"geometry":{"coordinates":[2.446222,48.730119],"type":"Point"},"properties":{"osm_id":"2710063856","tag":{"amenity":"waste_basket","level":"0"}},"type":"Feature"},
	{"geometry":{"coordinates":[2.44606,48.730131],"type":"Point"},"properties":{"osm_id":"2710063858","tag":{"amenity":"waste_basket","level":"0"}},"type":"Feature"},
	{"geometry":{"coordinates":[2.446246,48.730159],"type":"Point"},"properties":{"osm_id":"2710063861","tag":{"amenity":"waste_basket","level":"0"}},"type":"Feature"},
	{"geometry":{"coordinates":[2.44606,48.730165],"type":"Point"},"properties":{"osm_id":"2710063863","tag":{"amenity":"waste_basket","level":"0"}},"type":"Feature"},
	{"geometry":{"coordinates":[2.446242,48.730298],"type":"Point"},"properties":{"osm_id":"2710063881","tag":{"amenity":"waste_basket","level":"0"}},"type":"Feature"},
	{"geometry":{"coordinates":[2.446298,48.730531],"type":"Point"},"properties":{"osm_id":"2710063900","tag":{"amenity":"waste_basket","level":"0"}},"type":"Feature"},
	{"geometry":{"coordinates":[2.446298,48.730599],"type":"Point"},"properties":{"osm_id":"2710063913","tag":{"amenity":"waste_basket","level":"0"}},"type":"Feature"},
	{"geometry":{"coordinates":[2.446325,48.730717],"type":"Point"},"properties":{"osm_id":"2710063930","tag":{"amenity":"waste_basket","level":"0"}},"type":"Feature"},
	{"geometry":{"coordinates":[2.446333,48.730822],"type":"Point"},"properties":{"osm_id":"2710063938","tag":{"amenity":"waste_basket","level":"0"}},"type":"Feature"},
	{"geometry":{"coordinates":[2.446345,48.731007],"type":"Point"},"properties":{"osm_id":"2710063948","tag":{"amenity":"waste_basket","level":"0"}},"type":"Feature"},
	{"geometry":{"coordinates":[2.446351,48.731111],"type":"Point"},"properties":{"osm_id":"2710063958","tag":{"amenity":"waste_basket","level":"0"}},"type":"Feature"},
	{"geometry":{"coordinates":[2.446351,48.731196],"type":"Point"},"properties":{"osm_id":"2710063960","tag":{"amenity":"waste_basket","level":"0"}},"type":"Feature"},
	{"geometry":{"coordinates":[2.446345,48.731339],"type":"Point"},"properties":{"osm_id":"2710063963","tag":{"amenity":"waste_basket","level":"0"}},"type":"Feature"},
	{"geometry":{"coordinates":[2.438649,48.744394],"type":"Point"},"properties":{"osm_id":"2790206164","tag":{"amenity":"waste_basket"}},"type":"Feature"},
	{"geometry":{"coordinates":[2.43859,48.744494],"type":"Point"},"properties":{"osm_id":"2790206168","tag":{"amenity":"waste_basket"}},"type":"Feature"},
	{"geometry":{"coordinates":[2.438262,48.745228],"type":"Point"},"properties":{"osm_id":"2790206194","tag":{"amenity":"waste_basket"}},"type":"Feature"},
	{"geometry":{"coordinates":[2.438193,48.745401],"type":"Point"},"properties":{"osm_id":"2790206207","tag":{"amenity":"waste_basket"}},"type":"Feature"},
	{"geometry":{"coordinates":[2.438173,48.745484],"type":"Point"},"properties":{"osm_id":"2790206209","tag":{"amenity":"waste_basket"}},"type":"Feature"},
	{"geometry":{"coordinates":[2.439051,48.744047],"type":"Point"},"properties":{"osm_id":"2790814743","tag":{"amenity":"waste_basket"}},"type":"Feature"},
	{"geometry":{"coordinates":[2.438965,48.744182],"type":"Point"},"properties":{"osm_id":"2790814756","tag":{"amenity":"waste_basket"}},"type":"Feature"},
	{"geometry":{"coordinates":[2.438897,48.744273],"type":"Point"},"properties":{"osm_id":"2790814764","tag":{"amenity":"waste_basket"}},"type":"Feature"},
	{"geometry":{"coordinates":[2.438617,48.744746],"type":"Point"},"properties":{"osm_id":"2790814801","tag":{"amenity":"waste_basket"}},"type":"Feature"},
	{"geometry":{"coordinates":[2.438657,48.744756],"type":"Point"},"properties":{"osm_id":"2790814802","tag":{"amenity":"waste_basket"}},"type":"Feature"},
	{"geometry":{"coordinates":[2.438494,48.745082],"type":"Point"},"properties":{"osm_id":"2790814807","tag":{"amenity":"waste_basket"}},"type":"Feature"},
	{"geometry":{"coordinates":[2.438392,48.745377],"type":"Point"},"properties":{"osm_id":"2790814826","tag":{"amenity":"waste_basket"}},"type":"Feature"},
	{"geometry":{"coordinates":[2.438305,48.745621],"type":"Point"},"properties":{"osm_id":"2790814839","tag":{"amenity":"waste_basket"}},"type":"Feature"},
	{"geometry":{"coordinates":[2.438268,48.745739],"type":"Point"},"properties":{"osm_id":"2790814843","tag":{"amenity":"waste_basket"}},"type":"Feature"},
	{"geometry":{"coordinates":[2.413077,48.707654],"type":"Point"},"properties":{"osm_id":"2805882918","tag":{"amenity":"waste_basket"}},"type":"Feature"},
	{"geometry":{"coordinates":[2.412827,48.70766],"type":"Point"},"properties":{"osm_id":"2805882919","tag":{"amenity":"waste_basket"}},"type":"Feature"},
	{"geometry":{"coordinates":[2.413008,48.707752],"type":"Point"},"properties":{"osm_id":"2805882925","tag":{"amenity":"waste_basket"}},"type":"Feature"},
	{"geometry":{"coordinates":[2.413407,48.707828],"type":"Point"},"properties":{"osm_id":"2805882932","tag":{"amenity":"waste_basket"}},"type":"Feature"},
	{"geometry":{"coordinates":[2.41333,48.707916],"type":"Point"},"properties":{"osm_id":"2805882939","tag":{"amenity":"waste_basket"}},"type":"Feature"},
	{"geometry":{"coordinates":[2.413617,48.707939],"type":"Point"},"properties":{"osm_id":"2805882942","tag":{"amenity":"waste_basket"}},"type":"Feature"},
	{"geometry":{"coordinates":[2.413162,48.707974],"type":"Point"},"properties":{"osm_id":"2805882946","tag":{"amenity":"waste_basket"}},"type":"Feature"},
	{"geometry":{"coordinates":[2.413611,48.708059],"type":"Point"},"properties":{"osm_id":"2805882956","tag":{"amenity":"waste_basket"}},"type":"Feature"},
	{"geometry":{"coordinates":[2.413865,48.70807],"type":"Point"},"properties":{"osm_id":"2805882957","tag":{"amenity":"waste_basket"}},"type":"Feature"},
	{"geometry":{"coordinates":[2.41429,48.708091],"type":"Point"},"properties":{"osm_id":"2805882961","tag":{"amenity":"waste_basket"}},"type":"Feature"},
	{"geometry":{"coordinates":[2.413738,48.708124],"type":"Point"},"properties":{"osm_id":"2805882967","tag":{"amenity":"waste_basket"}},"type":"Feature"},
	{"geometry":{"coordinates":[2.413989,48.708136],"type":"Point"},"properties":{"osm_id":"2805882969","tag":{"amenity":"waste_basket"}},"type":"Feature"},
	{"geometry":{"coordinates":[2.414279,48.708311],"type":"Point"},"properties":{"osm_id":"2805882991","tag":{"amenity":"waste_basket"}},"type":"Feature"},
	{"geometry":{"coordinates":[2.414102,48.70831],"type":"Point"},"properties":{"osm_id":"2805882995","tag":{"amenity":"waste_basket"}},"type":"Feature"},
	{"geometry":{"coordinates":[2.414696,48.708319],"type":"Point"},"properties":{"osm_id":"2805882998","tag":{"amenity":"waste_basket"}},"type":"Feature"},
	{"geometry":{"coordinates":[2.414433,48.708371],"type":"Point"},"properties":{"osm_id":"2805884202","tag":{"amenity":"waste_basket"}},"type":"Feature"},
	{"geometry":{"coordinates":[2.414283,48.708402],"type":"Point"},"properties":{"osm_id":"2805884205","tag":{"amenity":"waste_basket"}},"type":"Feature"},
	{"geometry":{"coordinates":[2.414503,48.708408],"type":"Point"},"properties":{"osm_id":"2805884206","tag":{"amenity":"waste_basket"}},"type":"Feature"},
	{"geometry":{"coordinates":[2.41447,48.708498],"type":"Point"},"properties":{"osm_id":"2805884218","tag":{"amenity":"waste_basket"}},"type":"Feature"},
	{"geometry":{"coordinates":[2.376708,48.697986],"type":"Point"},"properties":{"osm_id":"3179902074","tag":{"amenity":"waste_basket","material":"metal"}},"type":"Feature"},
	{"geometry":{"coordinates":[2.389261,48.707345],"type":"Point"},"properties":{"osm_id":"3893406961","tag":{"amenity":"waste_basket"}},"type":"Feature"},
	{"geometry":{"coordinates":[2.386878,48.706315],"type":"Point"},"properties":{"osm_id":"3893406963","tag":{"amenity":"waste_basket"}},"type":"Feature"},
	{"geometry":{"coordinates":[2.387339,48.706516],"type":"Point"},"properties":{"osm_id":"3893406964","tag":{"amenity":"waste_basket"}},"type":"Feature"},
	{"geometry":{"coordinates":[2.393125,48.69781],"type":"Point"},"properties":{"name":"Recyclerie des Portes de l'Essonne","osm_id":"4047509522","tag":{"addr:city":"Athis-Mons","addr:housenumber":"29","addr:postcode":"91200","addr:street":"Quai de l'Industrie","amenity":"recycling","opening_hours":"Mo-Fr 09:30-16:30; Th off","operator":"R\u00c3\u00a9gie des Quartiers Les Portes de l'Essonne","operator:type":"association","phone":"+33 1 69 57 84 34","recycling_type":"centre","website":"http://www.recyclerie-portesessonne.fr/"}},"type":"Feature"},
	{"geometry":{"coordinates":[2.399965,48.703691],"type":"Point"},"properties":{"name":"D\u00c3\u00a9ch\u00c3\u00a8terie d'Athis-Mons","osm_id":"4047529676","tag":{"addr:city":"Athis-Mons","addr:housenumber":"37","addr:postcode":"91200","addr:street":"Quai de l'Industrie","amenity":"recycling","name:fr":"D\u00c3\u00a9ch\u00c3\u00a8terie d'Athis-Mons","opening_hours":"Apr-Oct Mo,We,Fr,Sa 09:00-12:00,13:00-18:00; Apr-Oct,Nov-Mar Su 09:00-12:00; Nov-Mar Mo,We,Fr,Sa 09:00-12:00,13:00-17:00","operator":"SIREDOM","operator:type":"public","phone":"+33 1 69 74 23 50","recycling:cans":"yes","recycling:glass":"yes","recycling:glass_bottles":"yes","recycling:paper":"yes","recycling:plastic":"yes","recycling_type":"centre"}},"type":"Feature"},
	{"geometry":{"coordinates":[2.436165,48.743366],"type":"Point"},"properties":{"osm_id":"4114476357","tag":{"amenity":"waste_basket"}},"type":"Feature"},
	{"geometry":{"coordinates":[2.434821,48.743076],"type":"Point"},"properties":{"osm_id":"4114476371","tag":{"amenity":"waste_basket"}},"type":"Feature"},
	{"geometry":{"coordinates":[2.432699,48.742816],"type":"Point"},"properties":{"osm_id":"4114476374","tag":{"amenity":"waste_basket"}},"type":"Feature"},
	{"geometry":{"coordinates":[2.430961,48.74232],"type":"Point"},"properties":{"osm_id":"4114476379","tag":{"amenity":"waste_basket"}},"type":"Feature"},
	{"geometry":{"coordinates":[2.376772,48.698082],"type":"Point"},"properties":{"osm_id":"4250824518","tag":{"amenity":"waste_basket","material":"metal"}},"type":"Feature"},
	{"geometry":{"coordinates":[2.424964,48.742772],"type":"Point"},"properties":{"osm_id":"5752454346","tag":{"amenity":"waste_basket"}},"type":"Feature"},
	{"geometry":{"coordinates":[2.373172,48.748272],"type":"Point"},"properties":{"osm_id":"6055392531","tag":{"amenity":"waste_basket","level":"-1"}},"type":"Feature"},
	{"geometry":{"coordinates":[2.373109,48.748421],"type":"Point"},"properties":{"osm_id":"6055392558","tag":{"amenity":"waste_basket","level":"-1"}},"type":"Feature"},
	{"geometry":{"coordinates":[2.373569,48.748609],"type":"Point"},"properties":{"osm_id":"6055392559","tag":{"amenity":"waste_basket","level":"-1"}},"type":"Feature"},
	{"geometry":{"coordinates":[2.403012,48.741374],"type":"Point"},"properties":{"osm_id":"6055457498","tag":{"amenity":"waste_basket"}},"type":"Feature"},
	{"geometry":{"coordinates":[2.402685,48.741312],"type":"Point"},"properties":{"osm_id":"6055457499","tag":{"amenity":"waste_basket"}},"type":"Feature"},
	{"geometry":{"coordinates":[2.402525,48.741695],"type":"Point"},"properties":{"osm_id":"6055457500","tag":{"amenity":"waste_basket"}},"type":"Feature"},
	{"geometry":{"coordinates":[2.401048,48.742985],"type":"Point"},"properties":{"osm_id":"6055457523","tag":{"amenity":"waste_basket"}},"type":"Feature"},
	{"geometry":{"coordinates":[2.402635,48.741963],"type":"Point"},"properties":{"osm_id":"6055897517","tag":{"amenity":"waste_basket"}},"type":"Feature"},
	{"geometry":{"coordinates":[2.402822,48.741813],"type":"Point"},"properties":{"osm_id":"6055897518","tag":{"amenity":"waste_basket"}},"type":"Feature"},
	{"geometry":{"coordinates":[2.402895,48.741757],"type":"Point"},"properties":{"osm_id":"6055897519","tag":{"amenity":"waste_basket"}},"type":"Feature"},
	{"geometry":{"coordinates":[2.402754,48.741516],"type":"Point"},"properties":{"osm_id":"6055897534","tag":{"amenity":"waste_basket"}},"type":"Feature"},
	{"geometry":{"coordinates":[2.40246,48.741907],"type":"Point"},"properties":{"osm_id":"6055897539","tag":{"amenity":"waste_basket"}},"type":"Feature"},
	{"geometry":{"coordinates":[2.402696,48.741782],"type":"Point"},"properties":{"osm_id":"6055897550","tag":{"amenity":"waste_basket"}},"type":"Feature"},
	{"geometry":{"coordinates":[2.402874,48.741696],"type":"Point"},"properties":{"osm_id":"6055902400","tag":{"amenity":"waste_basket"}},"type":"Feature"},
	{"geometry":{"coordinates":[2.402834,48.74167],"type":"Point"},"properties":{"osm_id":"6055902402","tag":{"amenity":"waste_basket"}},"type":"Feature"},
	{"geometry":{"coordinates":[2.403085,48.74148],"type":"Point"},"properties":{"osm_id":"6055902404","tag":{"amenity":"waste_basket"}},"type":"Feature"},
	{"geometry":{"coordinates":[2.415925,48.747277],"type":"Point"},"properties":{"osm_id":"6058261986","tag":{"amenity":"waste_basket"}},"type":"Feature"},
	{"geometry":{"coordinates":[2.415762,48.747289],"type":"Point"},"properties":{"osm_id":"6058261988","tag":{"amenity":"waste_basket"}},"type":"Feature"},
	{"geometry":{"coordinates":[2.417459,48.74565],"type":"Point"},"properties":{"osm_id":"6058262024","tag":{"amenity":"waste_basket"}},"type":"Feature"},
	{"geometry":{"coordinates":[2.417435,48.745868],"type":"Point"},"properties":{"osm_id":"6058262030","tag":{"amenity":"waste_basket"}},"type":"Feature"},
	{"geometry":{"coordinates":[2.417319,48.74547],"type":"Point"},"properties":{"osm_id":"6058262072","tag":{"amenity":"waste_basket"}},"type":"Feature"},
	{"geometry":{"coordinates":[2.417463,48.745369],"type":"Point"},"properties":{"osm_id":"6058262193","tag":{"amenity":"waste_basket","level":"1"}},"type":"Feature"},
	{"geometry":{"coordinates":[2.426134,48.739955],"type":"Point"},"properties":{"osm_id":"6075785940","tag":{"amenity":"waste_basket","level":"0"}},"type":"Feature"},
	{"geometry":{"coordinates":[2.426066,48.739948],"type":"Point"},"properties":{"osm_id":"6075785941","tag":{"amenity":"waste_basket","level":"0"}},"type":"Feature"},
	{"geometry":{"coordinates":[2.426193,48.739889],"type":"Point"},"properties":{"osm_id":"6075785943","tag":{"amenity":"waste_basket","level":"0"}},"type":"Feature"},
	{"geometry":{"coordinates":[2.426314,48.739625],"type":"Point"},"properties":{"osm_id":"6075785953","tag":{"amenity":"waste_basket","level":"0"}},"type":"Feature"},
	{"geometry":{"coordinates":[2.425966,48.739923],"type":"Point"},"properties":{"osm_id":"6075800408","tag":{"amenity":"waste_basket","level":"0"}},"type":"Feature"},
	{"geometry":{"coordinates":[2.450028,48.691699],"type":"Point"},"properties":{"name":"\u00c3\u0089co-Centre de Montgeron","osm_id":"6612962850","tag":{"amenity":"recycling","contact:website":"http://siredom.com/EcoCentreDeMontgeron","opening_hours":"Oct 16-Mar 30: Mo,Tu,Th,Sa 08:00-12:00,13:00-17:00;Apr 01-Oct 15: Mo,Tu,Th,Sa 08:00-12:00,13:00-18:00;Su,PH 09:00-12:00;Dec 25,Jan 01,May 01 OFF","recycling_type":"centre"}},"type":"Feature"},
	{"geometry":{"coordinates":[2.388817,48.707654],"type":"Point"},"properties":{"osm_id":"6903077994","tag":{"amenity":"waste_basket"}},"type":"Feature"},
	{"geometry":{"coordinates":[2.38858,48.707547],"type":"Point"},"properties":{"osm_id":"6903077995","tag":{"amenity":"waste_basket"}},"type":"Feature"},
	{"geometry":{"coordinates":[2.388639,48.707754],"type":"Point"},"properties":{"osm_id":"6903077996","tag":{"amenity":"waste_basket"}},"type":"Feature"},
	{"geometry":{"coordinates":[2.388918,48.707823],"type":"Point"},"properties":{"osm_id":"6903077997","tag":{"amenity":"waste_basket"}},"type":"Feature"},
	{"geometry":{"coordinates":[2.386815,48.709141],"type":"Point"},"properties":{"osm_id":"6903077998","tag":{"amenity":"waste_basket"}},"type":"Feature"},
	{"geometry":{"coordinates":[2.386868,48.709298],"type":"Point"},"properties":{"osm_id":"6903077999","tag":{"amenity":"waste_basket"}},"type":"Feature"},
	{"geometry":{"coordinates":[2.387565,48.708611],"type":"Point"},"properties":{"osm_id":"6903078000","tag":{"amenity":"waste_basket"}},"type":"Feature"},
	{"geometry":{"coordinates":[2.387738,48.708334],"type":"Point"},"properties":{"osm_id":"6903078002","tag":{"amenity":"waste_basket","colour":"green","material":"metal","operator":"Mairie d'Ahtis-Mons"}},"type":"Feature"},
	{"geometry":{"coordinates":[2.387969,48.708218],"type":"Point"},"properties":{"osm_id":"6903078003","tag":{"amenity":"waste_basket"}},"type":"Feature"},
	{"geometry":{"coordinates":[2.388103,48.708086],"type":"Point"},"properties":{"osm_id":"6903078004","tag":{"amenity":"waste_basket"}},"type":"Feature"},
	{"geometry":{"coordinates":[2.388589,48.708054],"type":"Point"},"properties":{"osm_id":"6903078005","tag":{"amenity":"waste_basket"}},"type":"Feature"},
	{"geometry":{"coordinates":[2.388573,48.707983],"type":"Point"},"properties":{"osm_id":"6903078006","tag":{"amenity":"waste_basket"}},"type":"Feature"},
	{"geometry":{"coordinates":[2.388505,48.707694],"type":"Point"},"properties":{"osm_id":"6903078007","tag":{"amenity":"waste_basket"}},"type":"Feature"},
	{"geometry":{"coordinates":[2.387921,48.70765],"type":"Point"},"properties":{"osm_id":"6903078041","tag":{"amenity":"waste_basket"}},"type":"Feature"},
	{"geometry":{"coordinates":[2.389717,48.707219],"type":"Point"},"properties":{"osm_id":"6903078045","tag":{"amenity":"waste_basket"}},"type":"Feature"},
	{"geometry":{"coordinates":[2.388952,48.708143],"type":"Point"},"properties":{"osm_id":"6903269531","tag":{"amenity":"waste_basket","material":"metal","operator":"Mairie d'Athis-Mons"}},"type":"Feature"},
	{"geometry":{"coordinates":[2.382735,48.699217],"type":"Point"},"properties":{"osm_id":"6908623967","tag":{"amenity":"waste_basket"}},"type":"Feature"},
	{"geometry":{"coordinates":[2.380385,48.696148],"type":"Point"},"properties":{"osm_id":"6908623983","tag":{"amenity":"waste_basket"}},"type":"Feature"},
	{"geometry":{"coordinates":[2.381892,48.698437],"type":"Point"},"properties":{"osm_id":"6908624033","tag":{"amenity":"waste_basket"}},"type":"Feature"},
	{"geometry":{"coordinates":[2.387775,48.707261],"type":"Point"},"properties":{"osm_id":"6908891531","tag":{"amenity":"waste_basket"}},"type":"Feature"},
	{"geometry":{"coordinates":[2.393426,48.705826],"type":"Point"},"properties":{"osm_id":"6911963321","tag":{"amenity":"waste_basket","colour":"black","material":"metal","operator":"Mairie d'Athis-Mons","waste":"trash"}},"type":"Feature"},
	{"geometry":{"coordinates":[2.393618,48.705749],"type":"Point"},"properties":{"osm_id":"6911963322","tag":{"amenity":"waste_basket","operator":"Mairie d'Athis-Mons","waste":"trash"}},"type":"Feature"},
	{"geometry":{"coordinates":[2.396692,48.707524],"type":"Point"},"properties":{"osm_id":"6911963548","tag":{"amenity":"waste_basket","colour":"black","material":"metal","operator":"Mairie d'Athis-Mons","waste":"trash"}},"type":"Feature"},
	{"geometry":{"coordinates":[2.391344,48.70465],"type":"Point"},"properties":{"osm_id":"6912011157","tag":{"amenity":"waste_basket"}},"type":"Feature"},
	{"geometry":{"coordinates":[2.390579,48.7041],"type":"Point"},"properties":{"osm_id":"6912011174","tag":{"amenity":"waste_basket"}},"type":"Feature"},
	{"geometry":{"coordinates":[2.3928,48.705715],"type":"Point"},"properties":{"osm_id":"6912059007","tag":{"amenity":"waste_basket"}},"type":"Feature"},
	{"geometry":{"coordinates":[2.386383,48.705822],"type":"Point"},"properties":{"osm_id":"6913244982","tag":{"amenity":"waste_basket"}},"type":"Feature"},
	{"geometry":{"coordinates":[2.386126,48.708595],"type":"Point"},"properties":{"osm_id":"6913350588","tag":{"amenity":"waste_basket"}},"type":"Feature"},
	{"geometry":{"coordinates":[2.386985,48.708616],"type":"Point"},"properties":{"osm_id":"6913350589","tag":{"amenity":"waste_basket"}},"type":"Feature"},
	{"geometry":{"coordinates":[2.383403,48.708368],"type":"Point"},"properties":{"osm_id":"6915209208","tag":{"amenity":"waste_basket"}},"type":"Feature"},
	{"geometry":{"coordinates":[2.383368,48.708313],"type":"Point"},"properties":{"osm_id":"6915209209","tag":{"amenity":"waste_basket"}},"type":"Feature"},
	{"geometry":{"coordinates":[2.382453,48.708237],"type":"Point"},"properties":{"osm_id":"6915209238","tag":{"amenity":"waste_basket"}},"type":"Feature"},
	{"geometry":{"coordinates":[2.383423,48.70711],"type":"Point"},"properties":{"osm_id":"6915209368","tag":{"amenity":"waste_basket"}},"type":"Feature"},
	{"geometry":{"coordinates":[2.384204,48.7064],"type":"Point"},"properties":{"osm_id":"6915209370","tag":{"amenity":"waste_basket"}},"type":"Feature"},
	{"geometry":{"coordinates":[2.389474,48.708652],"type":"Point"},"properties":{"osm_id":"6915267235","tag":{"amenity":"waste_basket","material":"metal","operator":"Mairie d'Athis-Mons"}},"type":"Feature"},
	{"geometry":{"coordinates":[2.389555,48.708752],"type":"Point"},"properties":{"osm_id":"6915267236","tag":{"amenity":"waste_basket","material":"metal","operator":"Mairie d'Athis-Mons"}},"type":"Feature"},
	{"geometry":{"coordinates":[2.389461,48.708835],"type":"Point"},"properties":{"osm_id":"6915267237","tag":{"amenity":"waste_basket","material":"metal","operator":"Mairie d'Athis-Mons"}},"type":"Feature"},
	{"geometry":{"coordinates":[2.389224,48.708107],"type":"Point"},"properties":{"osm_id":"6915267239","tag":{"amenity":"waste_basket","material":"metal","operator":"Mairie d'Athis-Mons"}},"type":"Feature"},
	{"geometry":{"coordinates":[2.389003,48.708189],"type":"Point"},"properties":{"osm_id":"6915267249","tag":{"amenity":"waste_basket","material":"metal","operator":"Mairie d'Athis-Mons"}},"type":"Feature"},
	{"geometry":{"coordinates":[2.388921,48.708521],"type":"Point"},"properties":{"osm_id":"6915682020","tag":{"amenity":"waste_basket","colour":"black","material":"metal","operator":"Mairie d'Athis-Mons"}},"type":"Feature"},
	{"geometry":{"coordinates":[2.388991,48.708332],"type":"Point"},"properties":{"osm_id":"6915682022","tag":{"amenity":"waste_basket","colour":"black","material":"metal","operator":"Mairie d'Athis-Mons"}},"type":"Feature"},
	{"geometry":{"coordinates":[2.387902,48.709302],"type":"Point"},"properties":{"osm_id":"6915682023","tag":{"amenity":"waste_basket","colour":"black","material":"metal","operator":"Mairie d'Athis-Mons"}},"type":"Feature"},
	{"geometry":{"coordinates":[2.387465,48.709793],"type":"Point"},"properties":{"osm_id":"6915682060","tag":{"amenity":"waste_basket","colour":"black","material":"metal","operator":"Mairie d'Athis-Mons"}},"type":"Feature"},
	{"geometry":{"coordinates":[2.395279,48.712979],"type":"Point"},"properties":{"osm_id":"6915712897","tag":{"amenity":"waste_basket","colour":"black","material":"metal","operator":"Mairie d'Athis-Mons","waste":"trash"}},"type":"Feature"},
	{"geometry":{"coordinates":[2.395198,48.713135],"type":"Point"},"properties":{"osm_id":"6915712916","tag":{"amenity":"waste_basket","colour":"black","material":"metal","operator":"Mairie d'Athis-Mons","waste":"trash"}},"type":"Feature"},
	{"geometry":{"coordinates":[2.395341,48.713202],"type":"Point"},"properties":{"osm_id":"6915712917","tag":{"amenity":"waste_basket","colour":"black","material":"metal","operator":"Mairie d'Athis-Mons","waste":"trash"}},"type":"Feature"},
	{"geometry":{"coordinates":[2.396129,48.7135],"type":"Point"},"properties":{"osm_id":"6915712918","tag":{"amenity":"waste_basket","colour":"black","material":"metal","operator":"Mairie d'Athis-Mons"}},"type":"Feature"},
	{"geometry":{"coordinates":[2.396271,48.713572],"type":"Point"},"properties":{"osm_id":"6915712919","tag":{"amenity":"waste_basket","colour":"black","material":"metal","operator":"Mairie d'Athis-Mons"}},"type":"Feature"},
	{"geometry":{"coordinates":[2.396514,48.713756],"type":"Point"},"properties":{"osm_id":"6915712920","tag":{"amenity":"waste_basket","colour":"black","material":"metal","operator":"Mairie d'Athis-Mons"}},"type":"Feature"},
	{"geometry":{"coordinates":[2.396614,48.713275],"type":"Point"},"properties":{"osm_id":"6915713103","tag":{"amenity":"waste_basket","colour":"black","material":"metal","operator":"Mairie d'Athis-Mons"}},"type":"Feature"},
	{"geometry":{"coordinates":[2.388757,48.708152],"type":"Point"},"properties":{"osm_id":"6915786622","tag":{"amenity":"waste_basket","colour":"black","material":"metal","operator":"Mairie d'Athis-Mons"}},"type":"Feature"},
	{"geometry":{"coordinates":[2.402625,48.712818],"type":"Point"},"properties":{"osm_id":"6924665559","tag":{"amenity":"waste_basket","colour":"black","material":"metal","operator":"Mairie d'Athis-Mons"}},"type":"Feature"},
	{"geometry":{"coordinates":[2.402264,48.708083],"type":"Point"},"properties":{"osm_id":"6924665647","tag":{"amenity":"waste_basket","colour":"black","material":"metal","operator":"Mairie d'Athis-Mons","waste":"trash"}},"type":"Feature"},
	{"geometry":{"coordinates":[2.401734,48.706439],"type":"Point"},"properties":{"osm_id":"6924665664","tag":{"amenity":"waste_basket","material":"wood","operator":"Mairie d'Athis-Mons","waste":"trash"}},"type":"Feature"},
	{"geometry":{"coordinates":[2.402125,48.707641],"type":"Point"},"properties":{"osm_id":"6924665667","tag":{"amenity":"waste_basket","material":"metal","operator":"Mairie d'Athis-Mons","waste":"trash"}},"type":"Feature"},
	{"geometry":{"coordinates":[2.397141,48.707611],"type":"Point"},"properties":{"osm_id":"6924742011","tag":{"amenity":"waste_basket","colour":"black","material":"metal","operator":"Mairie d'Athis-Mons","waste":"trash"}},"type":"Feature"},
	{"geometry":{"coordinates":[2.396963,48.707677],"type":"Point"},"properties":{"osm_id":"6924742012","tag":{"amenity":"waste_basket","colour":"black","material":"metal","operator":"Mairie d'Athis-Mons","waste":"trash"}},"type":"Feature"},
	{"geometry":{"coordinates":[2.397132,48.707749],"type":"Point"},"properties":{"osm_id":"6924742013","tag":{"amenity":"waste_basket","colour":"black","material":"metal","operator":"Mairie d'Athis-Mons","waste":"trash"}},"type":"Feature"},
	{"geometry":{"coordinates":[2.386082,48.706183],"type":"Point"},"properties":{"osm_id":"6925125908","tag":{"amenity":"waste_basket","colour":"black","material":"metal","operator":"Mairie d'Athis-Mons","waste":"trash"}},"type":"Feature"},
	{"geometry":{"coordinates":[2.376334,48.703304],"type":"Point"},"properties":{"osm_id":"6936032907","tag":{"amenity":"waste_basket","waste":"trash"}},"type":"Feature"},
	{"geometry":{"coordinates":[2.375509,48.703327],"type":"Point"},"properties":{"osm_id":"6936032990","tag":{"amenity":"waste_basket","waste":"trash"}},"type":"Feature"},
	{"geometry":{"coordinates":[2.376931,48.7029],"type":"Point"},"properties":{"osm_id":"6936033088","tag":{"amenity":"waste_basket","waste":"trash"}},"type":"Feature"},
	{"geometry":{"coordinates":[2.377705,48.702733],"type":"Point"},"properties":{"osm_id":"6936033095","tag":{"amenity":"waste_basket","waste":"trash"}},"type":"Feature"},
	{"geometry":{"coordinates":[2.377125,48.702762],"type":"Point"},"properties":{"osm_id":"6936034086","tag":{"entrance":"yes"}},"type":"Feature"},
	{"geometry":{"coordinates":[2.378212,48.702364],"type":"Point"},"properties":{"osm_id":"6936034093","tag":{"entrance":"yes"}},"type":"Feature"},
	{"geometry":{"coordinates":[2.376494,48.703355],"type":"Point"},"properties":{"osm_id":"6936034095","tag":{"entrance":"yes"}},"type":"Feature"},
	{"geometry":{"coordinates":[2.378253,48.702176],"type":"Point"},"properties":{"osm_id":"6936034128","tag":{"amenity":"waste_basket","colour":"black","material":"metal","operator":"Mairie d'Athis-Mons","waste":"trash"}},"type":"Feature"},
	{"geometry":{"coordinates":[2.37846,48.702199],"type":"Point"},"properties":{"osm_id":"6936054477","tag":{"amenity":"waste_basket","colour":"black","material":"metal","operator":"Mairie d'Athis-Mons","waste":"trash"}},"type":"Feature"},
	{"geometry":{"coordinates":[2.379651,48.704604],"type":"Point"},"properties":{"osm_id":"6936125822","tag":{"entrance":"yes"}},"type":"Feature"},
	{"geometry":{"coordinates":[2.379327,48.704767],"type":"Point"},"properties":{"osm_id":"6936125826","tag":{"entrance":"yes"}},"type":"Feature"},
	{"geometry":{"coordinates":[2.379003,48.704929],"type":"Point"},"properties":{"osm_id":"6936125830","tag":{"entrance":"yes"}},"type":"Feature"},
	{"geometry":{"coordinates":[2.379133,48.705355],"type":"Point"},"properties":{"osm_id":"6936125844","tag":{"amenity":"waste_basket","waste":"trash"}},"type":"Feature"},
	{"geometry":{"coordinates":[2.377474,48.697487],"type":"Point"},"properties":{"osm_id":"6936177975","tag":{"amenity":"waste_basket","waste":"trash"}},"type":"Feature"},
	{"geometry":{"coordinates":[2.378245,48.697932],"type":"Point"},"properties":{"osm_id":"6936177978","tag":{"amenity":"waste_basket"}},"type":"Feature"},
	{"geometry":{"coordinates":[2.394285,48.711931],"type":"Point"},"properties":{"osm_id":"6971021678","tag":{"amenity":"waste_basket","colour":"black","material":"metal","operator":"Mairie d'Athis-Mons","waste":"trash"}},"type":"Feature"},
	{"geometry":{"coordinates":[2.388088,48.710781],"type":"Point"},"properties":{"osm_id":"6972422557","tag":{"amenity":"waste_basket","colour":"black","material":"metal","operator":"Mairie d'Athis-Mons","waste":"trash"}},"type":"Feature"},
	{"geometry":{"coordinates":[2.385839,48.709941],"type":"Point"},"properties":{"osm_id":"6972455292","tag":{"amenity":"waste_basket","colour":"black","material":"metal","operator":"Mairie d'Athis-Mons","waste":"trash"}},"type":"Feature"},
	{"geometry":{"coordinates":[2.384858,48.705981],"type":"Point"},"properties":{"osm_id":"6975269828","tag":{"amenity":"waste_basket","colour":"black","material":"metal","operator":"Mairie d'Athis-Mons","waste":"trash"}},"type":"Feature"},
	{"geometry":{"coordinates":[2.38533,48.705831],"type":"Point"},"properties":{"osm_id":"6975269836","tag":{"amenity":"waste_basket","colour":"black","material":"metal","operator":"Mairie d'Athis-Mons","waste":"trash"}},"type":"Feature"},
	{"geometry":{"coordinates":[2.38325,48.707752],"type":"Point"},"properties":{"osm_id":"6976497032","tag":{"amenity":"waste_basket"}},"type":"Feature"},
	{"geometry":{"coordinates":[2.391252,48.70977],"type":"Point"},"properties":{"osm_id":"6979321524","tag":{"amenity":"waste_basket","waste":"trash"}},"type":"Feature"},
	{"geometry":{"coordinates":[2.386209,48.715405],"type":"Point"},"properties":{"osm_id":"6989683412","tag":{"amenity":"waste_basket","waste":"trash"}},"type":"Feature"},
	{"geometry":{"coordinates":[2.384765,48.715542],"type":"Point"},"properties":{"osm_id":"6989769880","tag":{"amenity":"waste_basket","waste":"trash"}},"type":"Feature"},
	{"geometry":{"coordinates":[2.386153,48.716125],"type":"Point"},"properties":{"osm_id":"6989769881","tag":{"amenity":"waste_basket","waste":"trash"}},"type":"Feature"},
	{"geometry":{"coordinates":[2.388535,48.716191],"type":"Point"},"properties":{"osm_id":"6989769889","tag":{"amenity":"waste_basket","colour":"black","material":"metal","operator":"Mairie d'Ahtis-Mons","waste":"trash"}},"type":"Feature"},
	{"geometry":{"coordinates":[2.389426,48.716086],"type":"Point"},"properties":{"osm_id":"6989769891","tag":{"amenity":"waste_basket","colour":"black","material":"metal","operator":"Mairie d'Ahtis-Mons","waste":"trash"}},"type":"Feature"},
	{"geometry":{"coordinates":[2.390388,48.71603],"type":"Point"},"properties":{"osm_id":"6989769893","tag":{"amenity":"waste_basket","colour":"black","material":"metal","operator":"Mairie d'Ahtis-Mons","waste":"trash"}},"type":"Feature"},
	{"geometry":{"coordinates":[2.387287,48.707019],"type":"Point"},"properties":{"osm_id":"7001462491","tag":{"amenity":"waste_basket"}},"type":"Feature"},
	{"geometry":{"coordinates":[2.387396,48.691383],"type":"Point"},"properties":{"osm_id":"7008873668","tag":{"amenity":"recycling","recycling_type":"container"}},"type":"Feature"},
	{"geometry":{"coordinates":[2.387411,48.691401],"type":"Point"},"properties":{"osm_id":"7008873669","tag":{"amenity":"recycling","recycling_type":"container"}},"type":"Feature"},
	{"geometry":{"coordinates":[2.387423,48.691416],"type":"Point"},"properties":{"osm_id":"7008873670","tag":{"amenity":"recycling","recycling_type":"container"}},"type":"Feature"},
	{"geometry":{"coordinates":[2.387908,48.692022],"type":"Point"},"properties":{"osm_id":"7008873671","tag":{"amenity":"recycling","recycling_type":"container"}},"type":"Feature"},
	{"geometry":{"coordinates":[2.387922,48.692039],"type":"Point"},"properties":{"osm_id":"7008873672","tag":{"amenity":"recycling","recycling_type":"container"}},"type":"Feature"},
	{"geometry":{"coordinates":[2.387938,48.692058],"type":"Point"},"properties":{"osm_id":"7008873673","tag":{"amenity":"recycling","recycling_type":"container"}},"type":"Feature"},
	{"geometry":{"coordinates":[2.387923,48.692212],"type":"Point"},"properties":{"osm_id":"7008873674","tag":{"amenity":"recycling","recycling_type":"container"}},"type":"Feature"},
	{"geometry":{"coordinates":[2.387937,48.692229],"type":"Point"},"properties":{"osm_id":"7008873675","tag":{"amenity":"recycling","recycling_type":"container"}},"type":"Feature"},
	{"geometry":{"coordinates":[2.387948,48.692246],"type":"Point"},"properties":{"osm_id":"7008873676","tag":{"amenity":"recycling","recycling_type":"container"}},"type":"Feature"},
	{"geometry":{"coordinates":[2.388346,48.69257],"type":"Point"},"properties":{"osm_id":"7008873677","tag":{"amenity":"recycling","recycling_type":"container"}},"type":"Feature"},
	{"geometry":{"coordinates":[2.388359,48.692586],"type":"Point"},"properties":{"osm_id":"7008873678","tag":{"amenity":"recycling","recycling_type":"container"}},"type":"Feature"},
	{"geometry":{"coordinates":[2.388371,48.692603],"type":"Point"},"properties":{"osm_id":"7008873679","tag":{"amenity":"recycling","recycling_type":"container"}},"type":"Feature"},
	{"geometry":{"coordinates":[2.387418,48.692793],"type":"Point"},"properties":{"osm_id":"7008873680","tag":{"amenity":"recycling","recycling_type":"container"}},"type":"Feature"},
	{"geometry":{"coordinates":[2.387432,48.692806],"type":"Point"},"properties":{"osm_id":"7008873681","tag":{"amenity":"recycling","recycling_type":"container"}},"type":"Feature"},
	{"geometry":{"coordinates":[2.387448,48.69282],"type":"Point"},"properties":{"osm_id":"7008873682","tag":{"amenity":"recycling","recycling_type":"container"}},"type":"Feature"},
	{"geometry":{"coordinates":[2.386884,48.692303],"type":"Point"},"properties":{"osm_id":"7008873683","tag":{"amenity":"recycling","recycling_type":"container"}},"type":"Feature"},
	{"geometry":{"coordinates":[2.386865,48.692289],"type":"Point"},"properties":{"osm_id":"7008873684","tag":{"amenity":"recycling","recycling_type":"container"}},"type":"Feature"},
	{"geometry":{"coordinates":[2.38685,48.692273],"type":"Point"},"properties":{"osm_id":"7008878785","tag":{"amenity":"recycling","recycling_type":"container"}},"type":"Feature"},
	{"geometry":{"coordinates":[2.401082,48.708655],"type":"Point"},"properties":{"osm_id":"7009019983","tag":{"amenity":"waste_basket"}},"type":"Feature"},
	{"geometry":{"coordinates":[2.404107,48.711905],"type":"Point"},"properties":{"osm_id":"7009039240","tag":{"amenity":"waste_basket","waste":"trash"}},"type":"Feature"},
	{"geometry":{"coordinates":[2.400636,48.710795],"type":"Point"},"properties":{"osm_id":"7010881644","tag":{"amenity":"waste_basket","colour":"black","material":"metal","operator":"Mairie d'Athis-Mons","waste":"trash"}},"type":"Feature"},
	{"geometry":{"coordinates":[2.400913,48.711183],"type":"Point"},"properties":{"osm_id":"7010881647","tag":{"amenity":"waste_basket","colour":"black","material":"metal","operator":"Mairie d'Athis-Mons","waste":"trash"}},"type":"Feature"},
	{"geometry":{"coordinates":[2.402571,48.714434],"type":"Point"},"properties":{"osm_id":"7010940849","tag":{"amenity":"waste_basket","waste":"trash"}},"type":"Feature"},
	{"geometry":{"coordinates":[2.402636,48.714208],"type":"Point"},"properties":{"osm_id":"7010940850","tag":{"amenity":"waste_basket","waste":"trash"}},"type":"Feature"},
	{"geometry":{"coordinates":[2.401638,48.71445],"type":"Point"},"properties":{"osm_id":"7010940861","tag":{"amenity":"waste_basket","waste":"trash"}},"type":"Feature"},
	{"geometry":{"coordinates":[2.400759,48.715357],"type":"Point"},"properties":{"osm_id":"7011118813","tag":{"amenity":"waste_basket","waste":"trash"}},"type":"Feature"},
	{"geometry":{"coordinates":[2.392601,48.705187],"type":"Point"},"properties":{"osm_id":"7026774740","tag":{"amenity":"waste_basket","waste":"trash"}},"type":"Feature"},
	{"geometry":{"coordinates":[2.39273,48.705803],"type":"Point"},"properties":{"osm_id":"7026774753","tag":{"amenity":"waste_basket"}},"type":"Feature"},
	{"geometry":{"coordinates":[2.393051,48.705922],"type":"Point"},"properties":{"osm_id":"7026774757","tag":{"amenity":"waste_basket"}},"type":"Feature"},
	{"geometry":{"coordinates":[2.399115,48.708946],"type":"Point"},"properties":{"osm_id":"7028367317","tag":{"amenity":"waste_basket","colour":"black","material":"metal","operator":"MAirie d'Athis-Mons","waste":"trash"}},"type":"Feature"},
	{"geometry":{"coordinates":[2.39964,48.709395],"type":"Point"},"properties":{"osm_id":"7028367328","tag":{"amenity":"waste_basket","colour":"black","material":"metal","operator":"Mairie d'Athis-Mons","waste":"trash"}},"type":"Feature"},
	{"geometry":{"coordinates":[2.396767,48.707527],"type":"Point"},"properties":{"osm_id":"7029013118","tag":{"amenity":"waste_basket","colour":"black","material":"metal","operator":"Mairie d'Athis-Mons","waste":"trash"}},"type":"Feature"},
	{"geometry":{"coordinates":[2.395642,48.716216],"type":"Point"},"properties":{"osm_id":"7036642298","tag":{"amenity":"waste_basket","waste":"trash"}},"type":"Feature"},
	{"geometry":{"coordinates":[2.398903,48.715472],"type":"Point"},"properties":{"osm_id":"7038355483","tag":{"amenity":"waste_basket","waste":"trash"}},"type":"Feature"},
	{"geometry":{"coordinates":[2.398782,48.715397],"type":"Point"},"properties":{"osm_id":"7038355484","tag":{"amenity":"waste_basket","waste":"trash"}},"type":"Feature"},
	{"geometry":{"coordinates":[2.386468,48.691925],"type":"Point"},"properties":{"osm_id":"7046909772","tag":{"amenity":"recycling","recycling_type":"container"}},"type":"Feature"},
	{"geometry":{"coordinates":[2.386451,48.691911],"type":"Point"},"properties":{"osm_id":"7046909773","tag":{"amenity":"recycling","recycling_type":"container"}},"type":"Feature"},
	{"geometry":{"coordinates":[2.386433,48.691894],"type":"Point"},"properties":{"osm_id":"7046909774","tag":{"amenity":"recycling","recycling_type":"container"}},"type":"Feature"},
	{"geometry":{"coordinates":[2.38681,48.691424],"type":"Point"},"properties":{"osm_id":"7046909775","tag":{"amenity":"recycling","recycling_type":"container"}},"type":"Feature"},
	{"geometry":{"coordinates":[2.386836,48.691414],"type":"Point"},"properties":{"osm_id":"7046909776","tag":{"amenity":"recycling","recycling_type":"container"}},"type":"Feature"},
	{"geometry":{"coordinates":[2.386863,48.691406],"type":"Point"},"properties":{"osm_id":"7046909777","tag":{"amenity":"recycling","recycling_type":"container"}},"type":"Feature"},
	{"geometry":{"coordinates":[2.387109,48.691185],"type":"Point"},"properties":{"osm_id":"7046909779","tag":{"amenity":"waste_basket","waste":"trash"}},"type":"Feature"},
	{"geometry":{"coordinates":[2.386821,48.691082],"type":"Point"},"properties":{"osm_id":"7046909780","tag":{"amenity":"waste_basket","waste":"trash"}},"type":"Feature"},
	{"geometry":{"coordinates":[2.385427,48.690977],"type":"Point"},"properties":{"osm_id":"7046910301","tag":{"amenity":"recycling","recycling_type":"container"}},"type":"Feature"},
	{"geometry":{"coordinates":[2.385445,48.690993],"type":"Point"},"properties":{"osm_id":"7046910302","tag":{"amenity":"recycling","recycling_type":"container"}},"type":"Feature"},
	{"geometry":{"coordinates":[2.385465,48.691011],"type":"Point"},"properties":{"osm_id":"7046910303","tag":{"amenity":"recycling","recycling_type":"container"}},"type":"Feature"},
	{"geometry":{"coordinates":[2.38798,48.693031],"type":"Point"},"properties":{"osm_id":"7046910363","tag":{"amenity":"recycling","recycling_type":"container"}},"type":"Feature"},
	{"geometry":{"coordinates":[2.387957,48.693041],"type":"Point"},"properties":{"osm_id":"7046910364","tag":{"amenity":"recycling","recycling_type":"container"}},"type":"Feature"},
	{"geometry":{"coordinates":[2.387934,48.693049],"type":"Point"},"properties":{"osm_id":"7046910365","tag":{"amenity":"recycling","recycling_type":"container"}},"type":"Feature"},
	{"geometry":{"coordinates":[2.376022,48.691122],"type":"Point"},"properties":{"osm_id":"7047284643","tag":{"amenity":"waste_basket","waste":"trash"}},"type":"Feature"},
	{"geometry":{"coordinates":[2.375942,48.691018],"type":"Point"},"properties":{"osm_id":"7047284645","tag":{"amenity":"waste_basket","waste":"trash"}},"type":"Feature"},
	{"geometry":{"coordinates":[2.376091,48.691397],"type":"Point"},"properties":{"osm_id":"7047284681","tag":{"amenity":"waste_basket","waste":"trash"}},"type":"Feature"},
	{"geometry":{"coordinates":[2.376172,48.691501],"type":"Point"},"properties":{"osm_id":"7047284682","tag":{"amenity":"waste_basket","waste":"trash"}},"type":"Feature"},
	{"geometry":{"coordinates":[2.376238,48.691664],"type":"Point"},"properties":{"osm_id":"7047284683","tag":{"amenity":"waste_basket","waste":"trash"}},"type":"Feature"},
	{"geometry":{"coordinates":[2.376399,48.692064],"type":"Point"},"properties":{"osm_id":"7047284684","tag":{"amenity":"waste_basket","waste":"trash"}},"type":"Feature"},
	{"geometry":{"coordinates":[2.373983,48.692789],"type":"Point"},"properties":{"osm_id":"7047409050","tag":{"amenity":"waste_basket","waste":"trash"}},"type":"Feature"},
	{"geometry":{"coordinates":[2.378034,48.691783],"type":"Point"},"properties":{"osm_id":"7049347839","tag":{"amenity":"waste_basket","colour":"black","material":"metal","operator":"Mairie de Juvisy-sur-Orge","waste":"trash"}},"type":"Feature"},
	{"geometry":{"coordinates":[2.374724,48.694526],"type":"Point"},"properties":{"osm_id":"7051404849","tag":{"amenity":"waste_basket","waste":"trash"}},"type":"Feature"},
	{"geometry":{"coordinates":[2.374401,48.694705],"type":"Point"},"properties":{"osm_id":"7051404850","tag":{"amenity":"waste_basket","waste":"trash"}},"type":"Feature"},
	{"geometry":{"coordinates":[2.389655,48.702811],"type":"Point"},"properties":{"osm_id":"7055182526","tag":{"amenity":"waste_basket","waste":"trash"}},"type":"Feature"},
	{"geometry":{"coordinates":[2.382859,48.700864],"type":"Point"},"properties":{"osm_id":"7059826327","tag":{"amenity":"waste_basket","waste":"trash"}},"type":"Feature"},
	{"geometry":{"coordinates":[2.383624,48.701935],"type":"Point"},"properties":{"osm_id":"7059826329","tag":{"amenity":"waste_basket","waste":"trash"}},"type":"Feature"},
	{"geometry":{"coordinates":[2.383087,48.707459],"type":"Point"},"properties":{"osm_id":"7062874100","tag":{"amenity":"waste_basket","waste":"trash"}},"type":"Feature"},
	{"geometry":{"coordinates":[2.382669,48.708527],"type":"Point"},"properties":{"osm_id":"7062874113","tag":{"amenity":"waste_basket","waste":"trash"}},"type":"Feature"},
	{"geometry":{"coordinates":[2.375451,48.692298],"type":"Point"},"properties":{"osm_id":"7105605036","tag":{"amenity":"waste_basket","waste":"trash"}},"type":"Feature"},
	{"geometry":{"coordinates":[2.381458,48.70853],"type":"Point"},"properties":{"osm_id":"7132819216","tag":{"amenity":"waste_basket","waste":"trash"}},"type":"Feature"},
	{"geometry":{"coordinates":[2.377587,48.707495],"type":"Point"},"properties":{"osm_id":"7132822473","tag":{"amenity":"waste_basket","colour":"black","material":"metal","operator":"Mairie d'Athis-Mons","waste":"trash"}},"type":"Feature"},
	{"geometry":{"coordinates":[2.376107,48.700166],"type":"Point"},"properties":{"osm_id":"7132892039","tag":{"amenity":"waste_basket","colour":"black","material":"metal","waste":"trash"}},"type":"Feature"},
	{"geometry":{"coordinates":[2.380941,48.711718],"type":"Point"},"properties":{"osm_id":"7136984499","tag":{"amenity":"waste_basket","waste":"trash"}},"type":"Feature"},
	{"geometry":{"coordinates":[2.376968,48.713274],"type":"Point"},"properties":{"osm_id":"7136984505","tag":{"amenity":"waste_basket","waste":"trash"}},"type":"Feature"},
	{"geometry":{"coordinates":[2.378066,48.713072],"type":"Point"},"properties":{"osm_id":"7136984515","tag":{"amenity":"waste_basket","waste":"trash"}},"type":"Feature"},
	{"geometry":{"coordinates":[2.39769,48.708576],"type":"Point"},"properties":{"osm_id":"7139221561","tag":{"amenity":"waste_basket","material":"wood","waste":"trash"}},"type":"Feature"},
	{"geometry":{"coordinates":[2.380167,48.704433],"type":"Point"},"properties":{"osm_id":"7145612130","tag":{"amenity":"waste_basket","waste":"trash"}},"type":"Feature"},
	{"geometry":{"coordinates":[2.380015,48.704457],"type":"Point"},"properties":{"osm_id":"7145612131","tag":{"amenity":"waste_basket","waste":"trash"}},"type":"Feature"},
	{"geometry":{"coordinates":[2.385238,48.708935],"type":"Point"},"properties":{"osm_id":"7145969314","tag":{"amenity":"waste_basket","waste":"trash"}},"type":"Feature"},
	{"geometry":{"coordinates":[2.375638,48.713838],"type":"Point"},"properties":{"osm_id":"7148800821","tag":{"amenity":"waste_basket","colour":"black","material":"metal","operator":"Mairie d'Ahtis-Mons","waste":"trash"}},"type":"Feature"},
	{"geometry":{"coordinates":[2.388219,48.707682],"type":"Point"},"properties":{"osm_id":"7148985734","tag":{"amenity":"waste_basket","waste":"trash"}},"type":"Feature"},
	{"geometry":{"coordinates":[2.394798,48.713655],"type":"Point"},"properties":{"osm_id":"7148985763","tag":{"amenity":"waste_basket","waste":"trash"}},"type":"Feature"},
	{"geometry":{"coordinates":[2.387969,48.702629],"type":"Point"},"properties":{"osm_id":"7148992831","tag":{"amenity":"waste_basket","waste":"trash"}},"type":"Feature"},
	{"geometry":{"coordinates":[2.385162,48.698851],"type":"Point"},"properties":{"osm_id":"7151127546","tag":{"amenity":"waste_basket","waste":"trash"}},"type":"Feature"},
	{"geometry":{"coordinates":[2.38505,48.698993],"type":"Point"},"properties":{"osm_id":"7151127549","tag":{"amenity":"waste_basket","waste":"trash"}},"type":"Feature"},
	{"geometry":{"coordinates":[2.384661,48.698604],"type":"Point"},"properties":{"osm_id":"7151127552","tag":{"amenity":"waste_basket","waste":"trash"}},"type":"Feature"},
	{"geometry":{"coordinates":[2.385061,48.698838],"type":"Point"},"properties":{"osm_id":"7151127559","tag":{"amenity":"waste_basket","waste":"trash"}},"type":"Feature"},
	{"geometry":{"coordinates":[2.384896,48.698611],"type":"Point"},"properties":{"osm_id":"7151127562","tag":{"amenity":"waste_basket","waste":"trash"}},"type":"Feature"},
	{"geometry":{"coordinates":[2.401595,48.71309],"type":"Point"},"properties":{"osm_id":"7151146922","tag":{"amenity":"waste_basket","waste":"trash"}},"type":"Feature"},
	{"geometry":{"coordinates":[2.3804,48.706063],"type":"Point"},"properties":{"osm_id":"7151405609","tag":{"amenity":"waste_basket","waste":"trash"}},"type":"Feature"},
	{"geometry":{"coordinates":[2.383261,48.708033],"type":"Point"},"properties":{"osm_id":"7151506295","tag":{"amenity":"waste_basket","waste":"trash"}},"type":"Feature"},
	{"geometry":{"coordinates":[2.379886,48.694918],"type":"Point"},"properties":{"osm_id":"7151595795","tag":{"amenity":"waste_basket","waste":"trash"}},"type":"Feature"},
	{"geometry":{"coordinates":[2.380294,48.6959],"type":"Point"},"properties":{"osm_id":"7151595797","tag":{"amenity":"waste_basket","waste":"trash"}},"type":"Feature"},
	{"geometry":{"coordinates":[2.38043,48.695656],"type":"Point"},"properties":{"osm_id":"7151595799","tag":{"amenity":"waste_basket","waste":"trash"}},"type":"Feature"},
	{"geometry":{"coordinates":[2.380393,48.695957],"type":"Point"},"properties":{"osm_id":"7151595801","tag":{"amenity":"waste_basket","waste":"trash"}},"type":"Feature"},
	{"geometry":{"coordinates":[2.390467,48.711489],"type":"Point"},"properties":{"osm_id":"7153922319","tag":{"amenity":"waste_basket","waste":"trash"}},"type":"Feature"},
	{"geometry":{"coordinates":[2.401867,48.713081],"type":"Point"},"properties":{"osm_id":"7161073892","tag":{"amenity":"waste_basket","waste":"trash"}},"type":"Feature"},
	{"geometry":{"coordinates":[2.401533,48.713052],"type":"Point"},"properties":{"osm_id":"7161073893","tag":{"amenity":"waste_basket","waste":"trash"}},"type":"Feature"},
	{"geometry":{"coordinates":[2.401973,48.713006],"type":"Point"},"properties":{"osm_id":"7161073894","tag":{"amenity":"waste_basket","waste":"trash"}},"type":"Feature"},
	{"geometry":{"coordinates":[2.397353,48.713688],"type":"Point"},"properties":{"osm_id":"7161073974","tag":{"amenity":"waste_basket","waste":"trash"}},"type":"Feature"},
	{"geometry":{"coordinates":[2.378266,48.697323],"type":"Point"},"properties":{"osm_id":"7163760160","tag":{"amenity":"waste_basket","waste":"trash"}},"type":"Feature"},
	{"geometry":{"coordinates":[2.378628,48.698229],"type":"Point"},"properties":{"osm_id":"7164285797","tag":{"amenity":"waste_basket","colour":"black","material":"metal","operator":"Mairie d'Athis-Mons","waste":"trash"}},"type":"Feature"},
	{"geometry":{"coordinates":[2.378696,48.698174],"type":"Point"},"properties":{"osm_id":"7164285798","tag":{"amenity":"waste_basket","waste":"cigarettes"}},"type":"Feature"},
	{"geometry":{"coordinates":[2.378532,48.697901],"type":"Point"},"properties":{"osm_id":"7164285799","tag":{"amenity":"waste_basket","waste":"trash"}},"type":"Feature"},
	{"geometry":{"coordinates":[2.378766,48.697911],"type":"Point"},"properties":{"osm_id":"7164285800","tag":{"amenity":"waste_basket","waste":"trash"}},"type":"Feature"},
	{"geometry":{"coordinates":[2.379968,48.6983],"type":"Point"},"properties":{"osm_id":"7164454234","tag":{"amenity":"waste_basket","waste":"trash"}},"type":"Feature"},
	{"geometry":{"coordinates":[2.380567,48.698092],"type":"Point"},"properties":{"osm_id":"7164454246","tag":{"amenity":"waste_basket","waste":"trash"}},"type":"Feature"},
	{"geometry":{"coordinates":[2.382762,48.700479],"type":"Point"},"properties":{"osm_id":"7165025181","tag":{"amenity":"waste_basket","waste":"trash"}},"type":"Feature"},
	{"geometry":{"coordinates":[2.382853,48.700416],"type":"Point"},"properties":{"osm_id":"7165025184","tag":{"amenity":"waste_basket","waste":"trash"}},"type":"Feature"},
	{"geometry":{"coordinates":[2.382716,48.700538],"type":"Point"},"properties":{"osm_id":"7165069185","tag":{"amenity":"waste_basket","waste":"trash"}},"type":"Feature"},
	{"geometry":{"coordinates":[2.384169,48.702507],"type":"Point"},"properties":{"osm_id":"7165069381","tag":{"amenity":"waste_basket","material":"wood","waste":"trash"}},"type":"Feature"},
	{"geometry":{"coordinates":[2.3873,48.699496],"type":"Point"},"properties":{"osm_id":"7211900055","tag":{"amenity":"waste_basket","waste":"trash"}},"type":"Feature"},
	{"geometry":{"coordinates":[2.393352,48.712373],"type":"Point"},"properties":{"osm_id":"7212075832","tag":{"amenity":"waste_basket"}},"type":"Feature"},
	{"geometry":{"coordinates":[2.39329,48.712484],"type":"Point"},"properties":{"osm_id":"7212075833","tag":{"amenity":"waste_basket"}},"type":"Feature"},
	{"geometry":{"coordinates":[2.392985,48.712482],"type":"Point"},"properties":{"osm_id":"7212075834","tag":{"amenity":"waste_basket"}},"type":"Feature"},
	{"geometry":{"coordinates":[2.401536,48.714267],"type":"Point"},"properties":{"osm_id":"7212075835","tag":{"amenity":"waste_basket","waste":"trash"}},"type":"Feature"},
	{"geometry":{"coordinates":[2.403027,48.712793],"type":"Point"},"properties":{"osm_id":"7226885714","tag":{"amenity":"waste_basket","waste":"trash"}},"type":"Feature"},
	{"geometry":{"coordinates":[2.402963,48.71273],"type":"Point"},"properties":{"osm_id":"7226885716","tag":{"amenity":"waste_basket","material":"metal","waste":"trash"}},"type":"Feature"},
	{"geometry":{"coordinates":[2.402172,48.71268],"type":"Point"},"properties":{"osm_id":"7226885718","tag":{"amenity":"waste_basket","waste":"trash"}},"type":"Feature"},
	{"geometry":{"coordinates":[2.402736,48.7126],"type":"Point"},"properties":{"osm_id":"7226885723","tag":{"amenity":"waste_basket","waste":"trash"}},"type":"Feature"},
	{"geometry":{"coordinates":[2.389715,48.709093],"type":"Point"},"properties":{"osm_id":"7227045726","tag":{"amenity":"waste_basket","operator":"Mairie d'Athis-Mons"}},"type":"Feature"},
	{"geometry":{"coordinates":[2.389851,48.709405],"type":"Point"},"properties":{"osm_id":"7227045727","tag":{"amenity":"waste_basket","operator":"Mairie d'Athis-Mons"}},"type":"Feature"},
	{"geometry":{"coordinates":[2.388741,48.710862],"type":"Point"},"properties":{"osm_id":"7227045750","tag":{"amenity":"waste_basket","colour":"black","material":"metal","operator":"Mairie d'Athis-Mons","waste":"trash"}},"type":"Feature"},
	{"geometry":{"coordinates":[2.392146,48.712359],"type":"Point"},"properties":{"osm_id":"7227045751","tag":{"amenity":"waste_basket","colour":"black","material":"metal","operator":"Mairie d'Athis-Mons","waste":"trash"}},"type":"Feature"},
	{"geometry":{"coordinates":[2.395334,48.712498],"type":"Point"},"properties":{"osm_id":"7227045755","tag":{"amenity":"waste_basket","colour":"black","material":"metal","operator":"Mairie d'Athis-Mons","waste":"trash"}},"type":"Feature"},
	{"geometry":{"coordinates":[2.408448,48.725464],"type":"Point"},"properties":{"osm_id":"7230625588","tag":{"amenity":"waste_basket","material":"metal","waste":"trash"}},"type":"Feature"},
	{"geometry":{"coordinates":[2.392383,48.705158],"type":"Point"},"properties":{"osm_id":"7230776453","tag":{"amenity":"waste_basket","colour":"black","material":"metal","operator":"Mairie d'Athis-Mons","waste":"trash"}},"type":"Feature"},
	{"geometry":{"coordinates":[2.392186,48.705273],"type":"Point"},"properties":{"osm_id":"7230776454","tag":{"amenity":"waste_basket","colour":"black","material":"metal","operator":"Mairie d'Athis-Mons","waste":"trash"}},"type":"Feature"},
	{"geometry":{"coordinates":[2.391727,48.705634],"type":"Point"},"properties":{"osm_id":"7230776457","tag":{"amenity":"waste_basket","colour":"black","material":"metal","operator":"Mairie d'Athis-Mons","waste":"trash"}},"type":"Feature"},
	{"geometry":{"coordinates":[2.390616,48.703991],"type":"Point"},"properties":{"osm_id":"7230776458","tag":{"amenity":"waste_basket","colour":"black","material":"metal","operator":"Mairie d'Athis-Mons","waste":"trash"}},"type":"Feature"},
	{"geometry":{"coordinates":[2.3906,48.703902],"type":"Point"},"properties":{"osm_id":"7230776466","tag":{"amenity":"waste_basket","colour":"black","material":"metal","operator":"Mairie d'Athis-Mons","waste":"trash"}},"type":"Feature"},
	{"geometry":{"coordinates":[2.39038,48.703788],"type":"Point"},"properties":{"osm_id":"7230776467","tag":{"amenity":"waste_basket","colour":"black","material":"metal","operator":"Mairie d'Athis-Mons","waste":"trash"}},"type":"Feature"},
	{"geometry":{"coordinates":[2.37477,48.712457],"type":"Point"},"properties":{"osm_id":"7231105480","tag":{"amenity":"waste_basket","colour":"black","material":"metal","operator":"Mairie d'Athis-Mons","waste":"trash"}},"type":"Feature"},
	{"geometry":{"coordinates":[2.38452,48.708346],"type":"Point"},"properties":{"osm_id":"7231224836","tag":{"amenity":"waste_basket","material":"metal","waste":"trash"}},"type":"Feature"},
	{"geometry":{"coordinates":[2.385935,48.708414],"type":"Point"},"properties":{"osm_id":"7231224863","tag":{"amenity":"waste_basket","colour":"black","waste":"trash"}},"type":"Feature"},
	{"geometry":{"coordinates":[2.38589,48.708572],"type":"Point"},"properties":{"osm_id":"7231224864","tag":{"amenity":"waste_basket","colour":"black","waste":"trash"}},"type":"Feature"},
	{"geometry":{"coordinates":[2.386041,48.708606],"type":"Point"},"properties":{"osm_id":"7231224865","tag":{"amenity":"waste_basket","colour":"black","waste":"trash"}},"type":"Feature"},
	{"geometry":{"coordinates":[2.394522,48.712836],"type":"Point"},"properties":{"osm_id":"7231459106","tag":{"amenity":"waste_basket","colour":"black","material":"metal","operator":"Mairie d'Ahtis-Mons","waste":"trash"}},"type":"Feature"},
	{"geometry":{"coordinates":[2.391884,48.712148],"type":"Point"},"properties":{"osm_id":"7231459116","tag":{"amenity":"waste_basket","colour":"black","material":"metal","operator":"Mairie d'Athis-Mons","waste":"trash"}},"type":"Feature"},
	{"geometry":{"coordinates":[2.383738,48.710582],"type":"Point"},"properties":{"osm_id":"7231459234","tag":{"amenity":"waste_basket","colour":"black","material":"metal","operator":"Mairie d'Ahtis-Mons","waste":"trash"}},"type":"Feature"},
	{"geometry":{"coordinates":[2.383673,48.710512],"type":"Point"},"properties":{"osm_id":"7231459235","tag":{"amenity":"waste_basket","colour":"black","material":"metal","operator":"Mairie d'Ahtis-Mons","waste":"trash"}},"type":"Feature"},
	{"geometry":{"coordinates":[2.391691,48.70472],"type":"Point"},"properties":{"osm_id":"7238186203","tag":{"amenity":"waste_basket","colour":"black","material":"metal","waste":"trash"}},"type":"Feature"},
	{"geometry":{"coordinates":[2.389083,48.705067],"type":"Point"},"properties":{"osm_id":"7238186204","tag":{"amenity":"waste_basket","colour":"black","material":"metal","operator":"Mairie d'Ahtis-Mons","waste":"trash"}},"type":"Feature"},
	{"geometry":{"coordinates":[2.375768,48.691303],"type":"Point"},"properties":{"osm_id":"7263582135","tag":{"amenity":"waste_basket","waste":"trash"}},"type":"Feature"},
	{"geometry":{"coordinates":[2.376995,48.692102],"type":"Point"},"properties":{"osm_id":"7263582139","tag":{"amenity":"waste_basket","waste":"trash"}},"type":"Feature"},
	{"geometry":{"coordinates":[2.376184,48.691406],"type":"Point"},"properties":{"osm_id":"7263582162","tag":{"amenity":"waste_basket","waste":"trash"}},"type":"Feature"},
	{"geometry":{"coordinates":[2.376257,48.691597],"type":"Point"},"properties":{"osm_id":"7263582163","tag":{"amenity":"waste_basket","waste":"trash"}},"type":"Feature"},
	{"geometry":{"coordinates":[2.376313,48.691853],"type":"Point"},"properties":{"osm_id":"7265946216","tag":{"amenity":"waste_basket","waste":"trash"}},"type":"Feature"},
	{"geometry":{"coordinates":[2.376384,48.691931],"type":"Point"},"properties":{"osm_id":"7265946217","tag":{"amenity":"waste_basket","waste":"trash"}},"type":"Feature"},
	{"geometry":{"coordinates":[2.376059,48.691827],"type":"Point"},"properties":{"osm_id":"7265946219","tag":{"amenity":"waste_basket","waste":"trash"}},"type":"Feature"},
	{"geometry":{"coordinates":[2.376092,48.691907],"type":"Point"},"properties":{"osm_id":"7265946220","tag":{"amenity":"waste_basket","waste":"trash"}},"type":"Feature"},
	{"geometry":{"coordinates":[2.376277,48.691758],"type":"Point"},"properties":{"osm_id":"7265946222","tag":{"amenity":"waste_basket","waste":"trash"}},"type":"Feature"},
	{"geometry":{"coordinates":[2.376555,48.691939],"type":"Point"},"properties":{"osm_id":"7265946224","tag":{"amenity":"waste_basket","waste":"trash"}},"type":"Feature"},
	{"geometry":{"coordinates":[2.375608,48.692437],"type":"Point"},"properties":{"osm_id":"7265946225","tag":{"amenity":"waste_basket","waste":"trash"}},"type":"Feature"},
	{"geometry":{"coordinates":[2.375858,48.69232],"type":"Point"},"properties":{"osm_id":"7265946230","tag":{"amenity":"waste_basket","waste":"trash"}},"type":"Feature"},
	{"geometry":{"coordinates":[2.400007,48.705891],"type":"Point"},"properties":{"osm_id":"7274635143","tag":{"amenity":"waste_basket"}},"type":"Feature"},
	{"geometry":{"coordinates":[2.383458,48.699754],"type":"Point"},"properties":{"osm_id":"7274635156","tag":{"amenity":"waste_basket","colour":"black","material":"metal","operator":"MAirie d'Athis-Mons","waste":"trash"}},"type":"Feature"},
	{"geometry":{"coordinates":[2.390258,48.711016],"type":"Point"},"properties":{"osm_id":"7274651296","tag":{"amenity":"waste_basket","colour":"black","material":"metal","operator":"Mairie d'Ahtis-Mons","waste":"trash"}},"type":"Feature"},
	{"geometry":{"coordinates":[2.385824,48.699601],"type":"Point"},"properties":{"osm_id":"7279296340","tag":{"amenity":"waste_basket","waste":"trash"}},"type":"Feature"},
	{"geometry":{"coordinates":[2.386737,48.700339],"type":"Point"},"properties":{"osm_id":"7279296344","tag":{"amenity":"waste_basket","waste":"trash"}},"type":"Feature"},
	{"geometry":{"coordinates":[2.3876,48.702156],"type":"Point"},"properties":{"osm_id":"7279296357","tag":{"amenity":"waste_basket","colour":"black","material":"metal","operator":"Mairie d'Athis-Mons","waste":"trash"}},"type":"Feature"},
	{"geometry":{"coordinates":[2.387344,48.702317],"type":"Point"},"properties":{"osm_id":"7279296358","tag":{"amenity":"waste_basket","colour":"black","material":"metal","operator":"Mairie d'Athis-Mons","waste":"trash"}},"type":"Feature"},
	{"geometry":{"coordinates":[2.387159,48.702262],"type":"Point"},"properties":{"osm_id":"7279296359","tag":{"amenity":"waste_basket","colour":"black","material":"metal","operator":"Mairie d'Athis-Mons","waste":"trash"}},"type":"Feature"},
	{"geometry":{"coordinates":[2.38696,48.702206],"type":"Point"},"properties":{"osm_id":"7279296360","tag":{"amenity":"waste_basket","colour":"black","material":"metal","operator":"Mairie d'Athis-Mons","waste":"trash"}},"type":"Feature"},
	{"geometry":{"coordinates":[2.386705,48.701923],"type":"Point"},"properties":{"osm_id":"7279296362","tag":{"amenity":"waste_basket","colour":"black","material":"metal","operator":"Mairie d'Athis-Mons","waste":"trash"}},"type":"Feature"},
	{"geometry":{"coordinates":[2.386955,48.701906],"type":"Point"},"properties":{"osm_id":"7279296363","tag":{"amenity":"waste_basket","colour":"black","material":"metal","operator":"Mairie d'Athis-Mons","waste":"trash"}},"type":"Feature"},
	{"geometry":{"coordinates":[2.385929,48.701383],"type":"Point"},"properties":{"osm_id":"7279296364","tag":{"amenity":"waste_basket","colour":"black","material":"metal","operator":"Mairie d'Athis-Mons","waste":"trash"}},"type":"Feature"},
	{"geometry":{"coordinates":[2.384195,48.701274],"type":"Point"},"properties":{"osm_id":"7279307925","tag":{"amenity":"waste_basket","waste":"trash"}},"type":"Feature"},
	{"geometry":{"coordinates":[2.37889,48.694336],"type":"Point"},"properties":{"osm_id":"7279416788","tag":{"amenity":"waste_basket","waste":"trash"}},"type":"Feature"},
	{"geometry":{"coordinates":[2.378219,48.694334],"type":"Point"},"properties":{"osm_id":"7279416789","tag":{"amenity":"waste_basket","waste":"trash"}},"type":"Feature"},
	{"geometry":{"coordinates":[2.378848,48.694222],"type":"Point"},"properties":{"osm_id":"7279416801","tag":{"amenity":"waste_basket","waste":"trash"}},"type":"Feature"},
	{"geometry":{"coordinates":[2.377752,48.69451],"type":"Point"},"properties":{"osm_id":"7279416818","tag":{"amenity":"waste_basket","waste":"trash"}},"type":"Feature"},
	{"geometry":{"coordinates":[2.377368,48.694577],"type":"Point"},"properties":{"osm_id":"7279416819","tag":{"amenity":"waste_basket","waste":"trash"}},"type":"Feature"},
	{"geometry":{"coordinates":[2.376934,48.69467],"type":"Point"},"properties":{"osm_id":"7279416830","tag":{"amenity":"waste_basket","waste":"trash"}},"type":"Feature"},
	{"geometry":{"coordinates":[2.386395,48.708817],"type":"Point"},"properties":{"osm_id":"7282046611","tag":{"amenity":"waste_basket","waste":"trash"}},"type":"Feature"},
	{"geometry":{"coordinates":[2.389861,48.708654],"type":"Point"},"properties":{"osm_id":"7282046625","tag":{"amenity":"waste_basket","colour":"black","material":"metal","operator":"Mairie d'Athis-Mons","waste":"trash"}},"type":"Feature"},
	{"geometry":{"coordinates":[2.389827,48.708609],"type":"Point"},"properties":{"osm_id":"7282046626","tag":{"amenity":"waste_basket","colour":"black","material":"metal","operator":"Mairie d'Athis-Mons","waste":"trash"}},"type":"Feature"},
	{"geometry":{"coordinates":[2.409888,48.723907],"type":"Point"},"properties":{"osm_id":"7282478326","tag":{"amenity":"waste_basket","colour":"black","material":"metal","operator":"Mairie d'Athis-Mons","waste":"trash"}},"type":"Feature"},
	{"geometry":{"coordinates":[2.409424,48.724132],"type":"Point"},"properties":{"osm_id":"7282478327","tag":{"amenity":"waste_basket","colour":"black","material":"metal","operator":"Mairie d'Athis-Mons","waste":"trash"}},"type":"Feature"},
	{"geometry":{"coordinates":[2.409907,48.723975],"type":"Point"},"properties":{"osm_id":"7282478334","tag":{"amenity":"waste_basket","colour":"black","material":"metal","operator":"Mairie d'Athis-Mons","waste":"trash"}},"type":"Feature"},
	{"geometry":{"coordinates":[2.409657,48.724053],"type":"Point"},"properties":{"osm_id":"7282478357","tag":{"amenity":"waste_basket","colour":"black","material":"metal","operator":"Mairie d'Athis-Mons","waste":"trash"}},"type":"Feature"},
	{"geometry":{"coordinates":[2.409655,48.724292],"type":"Point"},"properties":{"osm_id":"7282478359","tag":{"amenity":"waste_basket","colour":"gray","material":"plastic","waste":"trash"}},"type":"Feature"},
	{"geometry":{"coordinates":[2.409966,48.724252],"type":"Point"},"properties":{"osm_id":"7282478360","tag":{"amenity":"waste_basket","colour":"gray","material":"plastic","waste":"trash"}},"type":"Feature"},
	{"geometry":{"coordinates":[2.408627,48.724418],"type":"Point"},"properties":{"osm_id":"7282478361","tag":{"amenity":"waste_basket","colour":"gray","material":"plastic","waste":"trash"}},"type":"Feature"},
	{"geometry":{"coordinates":[2.389764,48.706632],"type":"Point"},"properties":{"osm_id":"7282488812","tag":{"amenity":"waste_basket","colour":"black","material":"metal","operator":"Mairie d'Athis-Mons","waste":"trash"}},"type":"Feature"},
	{"geometry":{"coordinates":[2.381379,48.692233],"type":"Point"},"properties":{"osm_id":"7282488829","tag":{"amenity":"waste_basket","colour":"black","material":"metal","waste":"trash"}},"type":"Feature"},
	{"geometry":{"coordinates":[2.382806,48.693186],"type":"Point"},"properties":{"osm_id":"7282488830","tag":{"amenity":"waste_basket","colour":"black","material":"metal","operator":"Mairie d'Athis-Mons","waste":"trash"}},"type":"Feature"},
	{"geometry":{"coordinates":[2.383994,48.696085],"type":"Point"},"properties":{"osm_id":"7283004314","tag":{"amenity":"waste_basket","colour":"black","material":"metal","operator":"Mairie d'Athis-Mons","waste":"trash"}},"type":"Feature"},
	{"geometry":{"coordinates":[2.374958,48.691103],"type":"Point"},"properties":{"osm_id":"7283590324","tag":{"amenity":"waste_basket","colour":"black","material":"metal","waste":"trash"}},"type":"Feature"},
	{"geometry":{"coordinates":[2.374711,48.690989],"type":"Point"},"properties":{"osm_id":"7283590325","tag":{"amenity":"waste_basket","colour":"black","material":"metal","waste":"trash"}},"type":"Feature"},
	{"geometry":{"coordinates":[2.37687,48.691058],"type":"Point"},"properties":{"osm_id":"7283590327","tag":{"amenity":"waste_basket","colour":"black","material":"metal","waste":"trash"}},"type":"Feature"},
	{"geometry":{"coordinates":[2.383101,48.70546],"type":"Point"},"properties":{"osm_id":"7284432888","tag":{"amenity":"waste_basket","colour":"black","material":"metal","operator":"Mairie d'Athis-Mons","waste":"trash"}},"type":"Feature"},
	{"geometry":{"coordinates":[2.383106,48.705348],"type":"Point"},"properties":{"osm_id":"7284432889","tag":{"amenity":"waste_basket","colour":"black","material":"metal","operator":"Mairie d'Athis-Mons","waste":"trash"}},"type":"Feature"},
	{"geometry":{"coordinates":[2.378708,48.698212],"type":"Point"},"properties":{"osm_id":"7284574603","tag":{"amenity":"waste_basket","colour":"black","material":"metal","operator":"Mairie d'Athis-Mons","waste":"trash"}},"type":"Feature"},
	{"geometry":{"coordinates":[2.378897,48.698557],"type":"Point"},"properties":{"osm_id":"7284574605","tag":{"amenity":"waste_basket","colour":"black","material":"metal","operator":"Mairie d'Athis-Mons","waste":"trash"}},"type":"Feature"},
	{"geometry":{"coordinates":[2.379392,48.698306],"type":"Point"},"properties":{"osm_id":"7284574606","tag":{"amenity":"waste_basket","colour":"black","material":"metal","operator":"Mairie d'Athis-Mons","waste":"trash"}},"type":"Feature"},
	{"geometry":{"coordinates":[2.38601,48.703622],"type":"Point"},"properties":{"osm_id":"7285259215","tag":{"amenity":"waste_basket","colour":"green","material":"metal","waste":"trash"}},"type":"Feature"},
	{"geometry":{"coordinates":[2.385452,48.703751],"type":"Point"},"properties":{"osm_id":"7285259216","tag":{"amenity":"waste_basket","colour":"green","material":"metal","waste":"trash"}},"type":"Feature"},
	{"geometry":{"coordinates":[2.385647,48.703432],"type":"Point"},"properties":{"osm_id":"7285259217","tag":{"amenity":"waste_basket","colour":"green","material":"metal","waste":"trash"}},"type":"Feature"},
	{"geometry":{"coordinates":[2.385618,48.703016],"type":"Point"},"properties":{"osm_id":"7285259221","tag":{"amenity":"waste_basket","colour":"green","material":"metal","waste":"trash"}},"type":"Feature"},
	{"geometry":{"coordinates":[2.382398,48.694423],"type":"Point"},"properties":{"osm_id":"7285259227","tag":{"amenity":"waste_basket","colour":"black","material":"metal","operator":"Mairie d'Athis-Mons","waste":"trash"}},"type":"Feature"},
	{"geometry":{"coordinates":[2.378326,48.691704],"type":"Point"},"properties":{"osm_id":"7286508681","tag":{"amenity":"waste_basket","colour":"black","material":"metal","operator":"Mairie de Juvisy-sur-Orge","waste":"trash"}},"type":"Feature"},
	{"geometry":{"coordinates":[2.37924,48.698263],"type":"Point"},"properties":{"osm_id":"7286554935","tag":{"amenity":"waste_basket","colour":"black","material":"metal","operator":"Mairie d'Athis-Mons","waste":"trash"}},"type":"Feature"},
	{"geometry":{"coordinates":[2.389212,48.70752],"type":"Point"},"properties":{"osm_id":"7287945251","tag":{"amenity":"waste_basket"}},"type":"Feature"},
	{"geometry":{"coordinates":[2.386818,48.713902],"type":"Point"},"properties":{"osm_id":"7288173967","tag":{"amenity":"waste_basket","colour":"green","material":"plastic","waste":"trash"}},"type":"Feature"},
	{"geometry":{"coordinates":[2.387077,48.713906],"type":"Point"},"properties":{"osm_id":"7288173968","tag":{"amenity":"waste_basket","colour":"green","material":"plastic","waste":"trash"}},"type":"Feature"},
	{"geometry":{"coordinates":[2.392593,48.71334],"type":"Point"},"properties":{"osm_id":"7288173984","tag":{"amenity":"waste_basket","colour":"black","material":"metal","operator":"Mairie d'Athis-Mons","waste":"trash"}},"type":"Feature"},
	{"geometry":{"coordinates":[2.377615,48.707408],"type":"Point"},"properties":{"osm_id":"7288576002","tag":{"amenity":"waste_basket","colour":"black","material":"metal","operator":"Mairie d'Athis-Mons","waste":"trash"}},"type":"Feature"},
	{"geometry":{"coordinates":[2.387588,48.705446],"type":"Point"},"properties":{"osm_id":"7291330999","tag":{"amenity":"waste_basket","operator":"Mairie d'Athis-Mons"}},"type":"Feature"},
	{"geometry":{"coordinates":[2.388185,48.705353],"type":"Point"},"properties":{"osm_id":"7291331000","tag":{"amenity":"waste_basket","operator":"Mairie d'Ahtis-Mons"}},"type":"Feature"},
	{"geometry":{"coordinates":[2.392262,48.710861],"type":"Point"},"properties":{"osm_id":"7294546275","tag":{"amenity":"waste_basket","waste":"cigarettes"}},"type":"Feature"},
	{"geometry":{"coordinates":[2.392359,48.710913],"type":"Point"},"properties":{"osm_id":"7294546276","tag":{"amenity":"waste_basket","waste":"cigarettes"}},"type":"Feature"},
	{"geometry":{"coordinates":[2.393508,48.705866],"type":"Point"},"properties":{"osm_id":"7294750786","tag":{"amenity":"waste_basket","operator":"Mairie d'Athis-Mons","waste":"trash"}},"type":"Feature"},
	{"geometry":{"coordinates":[2.396994,48.70752],"type":"Point"},"properties":{"osm_id":"7294750798","tag":{"amenity":"waste_basket","colour":"green","material":"plastic","operator":"Mairie d'Athis-Mons","waste":"trash"}},"type":"Feature"},
	{"geometry":{"coordinates":[2.399847,48.70939],"type":"Point"},"properties":{"osm_id":"7294750801","tag":{"amenity":"waste_basket","colour":"black","material":"metal","operator":"Mairie d'Athis-Mons","waste":"trash"}},"type":"Feature"},
	{"geometry":{"coordinates":[2.400161,48.710066],"type":"Point"},"properties":{"osm_id":"7294750809","tag":{"amenity":"waste_basket","material":"wood","operator":"Mairie d'Athis-Mons","waste":"trash"}},"type":"Feature"},
	{"geometry":{"coordinates":[2.401928,48.712122],"type":"Point"},"properties":{"osm_id":"7294750831","tag":{"amenity":"waste_basket","waste":"trash"}},"type":"Feature"},
	{"geometry":{"coordinates":[2.401651,48.71415],"type":"Point"},"properties":{"osm_id":"7294750844","tag":{"amenity":"waste_basket","colour":"green","material":"plastic","waste":"trash"}},"type":"Feature"},
	{"geometry":{"coordinates":[2.405681,48.717593],"type":"Point"},"properties":{"osm_id":"7295605320","tag":{"amenity":"waste_basket","colour":"black","material":"metal","operator":"Mairie d'Ahtis-Mons","waste":"trash"}},"type":"Feature"},
	{"geometry":{"coordinates":[2.406432,48.717904],"type":"Point"},"properties":{"osm_id":"7295605321","tag":{"amenity":"waste_basket","colour":"black","material":"metal","operator":"Mairie d'Ahtis-Mons","waste":"trash"}},"type":"Feature"},
	{"geometry":{"coordinates":[2.402829,48.719203],"type":"Point"},"properties":{"osm_id":"7295605323","tag":{"amenity":"waste_basket","colour":"black","material":"metal","operator":"Mairie d'Ahtis-Mons","waste":"trash"}},"type":"Feature"},
	{"geometry":{"coordinates":[2.40535,48.71551],"type":"Point"},"properties":{"osm_id":"7295605333","tag":{"amenity":"waste_basket","operator":"Mairie d'Ahtis-Mons","waste":"trash"}},"type":"Feature"},
	{"geometry":{"coordinates":[2.389269,48.705134],"type":"Point"},"properties":{"osm_id":"7295605344","tag":{"amenity":"waste_basket","colour":"black","material":"metal","operator":"Mairie d'Ahtis-Mons","waste":"trash"}},"type":"Feature"},
	{"geometry":{"coordinates":[2.409745,48.718936],"type":"Point"},"properties":{"osm_id":"7295616391","tag":{"amenity":"waste_basket","colour":"black","material":"metal","operator":"Mairie d'Ahtis-Mons","waste":"trash"}},"type":"Feature"},
	{"geometry":{"coordinates":[2.410998,48.722202],"type":"Point"},"properties":{"osm_id":"7295616406","tag":{"amenity":"recycling","recycling:glass":"yes","recycling_type":"container"}},"type":"Feature"},
	{"geometry":{"coordinates":[2.411117,48.723573],"type":"Point"},"properties":{"osm_id":"7295616413","tag":{"amenity":"waste_basket","colour":"black","material":"metal","waste":"trash"}},"type":"Feature"},
	{"geometry":{"coordinates":[2.405407,48.721235],"type":"Point"},"properties":{"osm_id":"7295616420","tag":{"amenity":"waste_basket","colour":"gray","material":"metal"}},"type":"Feature"},
	{"geometry":{"coordinates":[2.404973,48.720894],"type":"Point"},"properties":{"osm_id":"7295616421","tag":{"amenity":"waste_basket","colour":"gray","material":"metal"}},"type":"Feature"},
	{"geometry":{"coordinates":[2.404537,48.72055],"type":"Point"},"properties":{"osm_id":"7295616422","tag":{"amenity":"waste_basket","colour":"gray","material":"metal"}},"type":"Feature"},
	{"geometry":{"coordinates":[2.405502,48.721576],"type":"Point"},"properties":{"osm_id":"7295616425","tag":{"amenity":"waste_basket","colour":"gray","couplings":"3","fire_hydrant:type":"pillar","material":"metal","waste":"trash"}},"type":"Feature"},
	{"geometry":{"coordinates":[2.394299,48.714942],"type":"Point"},"properties":{"osm_id":"7295740757","tag":{"amenity":"waste_basket","colour":"black","material":"metal","operator":"Mairie d'Ahtis-Mons","waste":"trash"}},"type":"Feature"},
	{"geometry":{"coordinates":[2.398818,48.714302],"type":"Point"},"properties":{"osm_id":"7295821496","tag":{"amenity":"waste_basket","colour":"black","material":"metal","operator":"Mairie d'Ahtis-Mons","waste":"trash"}},"type":"Feature"},
	{"geometry":{"coordinates":[2.399759,48.714743],"type":"Point"},"properties":{"osm_id":"7295821497","tag":{"amenity":"waste_basket","colour":"black","material":"metal","operator":"Mairie d'Ahtis-Mons","waste":"trash"}},"type":"Feature"},
	{"geometry":{"coordinates":[2.400554,48.71523],"type":"Point"},"properties":{"osm_id":"7295821498","tag":{"amenity":"waste_basket","colour":"black","material":"metal","operator":"Mairie d'Ahtis-Mons","waste":"trash"}},"type":"Feature"},
	{"geometry":{"coordinates":[2.403557,48.711347],"type":"Point"},"properties":{"osm_id":"7296518616","tag":{"amenity":"waste_basket","colour":"green","material":"metal","operator":"Mairie d'Ahtis-Mons","waste":"trash"}},"type":"Feature"},
	{"geometry":{"coordinates":[2.391643,48.71591],"type":"Point"},"properties":{"osm_id":"7297407879","tag":{"amenity":"waste_basket","colour":"black","material":"metal","operator":"Mairie d'Ahtis-Mons","waste":"trash"}},"type":"Feature"},
	{"geometry":{"coordinates":[2.382073,48.713212],"type":"Point"},"properties":{"osm_id":"7302330280","tag":{"amenity":"waste_basket","waste":"trash"}},"type":"Feature"},
	{"geometry":{"coordinates":[2.381307,48.713089],"type":"Point"},"properties":{"osm_id":"7302330281","tag":{"amenity":"waste_basket","waste":"trash"}},"type":"Feature"},
	{"geometry":{"coordinates":[2.394396,48.711899],"type":"Point"},"properties":{"osm_id":"7321435926","tag":{"amenity":"waste_basket","colour":"black","material":"metal","operator":"Mairie d'Athis-Mons","waste":"trash"}},"type":"Feature"},
	{"geometry":{"coordinates":[2.38947,48.715136],"type":"Point"},"properties":{"osm_id":"7326293618","tag":{"amenity":"waste_basket","colour":"noir","material":"metal","operator":"Mairie d'Ahtis-Mons","waste":"trash"}},"type":"Feature"},
	{"geometry":{"coordinates":[2.402753,48.712534],"type":"Point"},"properties":{"osm_id":"7328034845","tag":{"amenity":"waste_basket","colour":"noir","material":"metal","operator":"Mairie d'Ahtis-Mons","waste":"trash"}},"type":"Feature"},
	{"geometry":{"coordinates":[2.377457,48.695843],"type":"Point"},"properties":{"osm_id":"7354103239","tag":{"amenity":"waste_basket","waste":"trash"}},"type":"Feature"},
	{"geometry":{"coordinates":[2.37682,48.694975],"type":"Point"},"properties":{"osm_id":"7354103240","tag":{"amenity":"waste_basket","waste":"trash"}},"type":"Feature"},
	{"geometry":{"coordinates":[2.377811,48.696832],"type":"Point"},"properties":{"osm_id":"7354103246","tag":{"amenity":"waste_basket","waste":"trash"}},"type":"Feature"},
	{"geometry":{"coordinates":[2.374008,48.695227],"type":"Point"},"properties":{"osm_id":"7354454164","tag":{"amenity":"waste_basket","operator":"Mairie de Juvisy-sur-Orge","waste":"trash"}},"type":"Feature"},
	{"geometry":{"coordinates":[2.37378,48.694757],"type":"Point"},"properties":{"osm_id":"7354474922","tag":{"amenity":"waste_basket","colour":"marron","material":"plastic","operator":"Mairie de Juvisy-sur-Orge","waste":"trash"}},"type":"Feature"},
	{"geometry":{"coordinates":[2.373436,48.69392],"type":"Point"},"properties":{"osm_id":"7354474923","tag":{"amenity":"waste_basket","colour":"marron","material":"plastic","operator":"Mairie de Juvisy-sur-Orge","waste":"trash"}},"type":"Feature"},
	{"geometry":{"coordinates":[2.374698,48.696999],"type":"Point"},"properties":{"osm_id":"7354474960","tag":{"amenity":"waste_basket","colour":"marron","material":"plastic","operator":"Mairie de Juvisy-sur-Orge"}},"type":"Feature"},
	{"geometry":{"coordinates":[2.37436,48.696163],"type":"Point"},"properties":{"osm_id":"7354474961","tag":{"amenity":"waste_basket","colour":"marron","material":"plastic","operator":"Mairie de Juvisy-sur-Orge"}},"type":"Feature"},
	{"geometry":{"coordinates":[2.37883,48.692928],"type":"Point"},"properties":{"osm_id":"7354583807","tag":{"amenity":"waste_basket","colour":"noir","material":"metal","operator":"Mairie de Juvisy-sur-Orge","waste":"trash"}},"type":"Feature"},
	{"geometry":{"coordinates":[2.379426,48.694235],"type":"Point"},"properties":{"osm_id":"7354583820","tag":{"amenity":"recycling","recycling:clothes":"yes","recycling_type":"container"}},"type":"Feature"},
	{"geometry":{"coordinates":[2.378793,48.692794],"type":"Point"},"properties":{"osm_id":"7354583823","tag":{"amenity":"waste_basket","colour":"noir","material":"metal","operator":"Mairie de Juvisy-sur-Orge","waste":"trash"}},"type":"Feature"},
	{"geometry":{"coordinates":[2.379055,48.69279],"type":"Point"},"properties":{"osm_id":"7354583824","tag":{"amenity":"waste_basket","colour":"noir","material":"metal","operator":"Mairie de Juvisy-sur-Orge","waste":"trash"}},"type":"Feature"},
	{"geometry":{"coordinates":[2.378446,48.691876],"type":"Point"},"properties":{"osm_id":"7354583829","tag":{"amenity":"waste_basket","colour":"noir","material":"metal","operator":"Mairie de Juvisy-sur-Orge","waste":"trash"}},"type":"Feature"},
	{"geometry":{"coordinates":[2.378638,48.691871],"type":"Point"},"properties":{"osm_id":"7354583830","tag":{"amenity":"waste_basket","colour":"noir","material":"metal","operator":"Mairie de Juvisy-sur-Orge","waste":"trash"}},"type":"Feature"},
	{"geometry":{"coordinates":[2.378689,48.691974],"type":"Point"},"properties":{"osm_id":"7354583831","tag":{"amenity":"waste_basket","colour":"noir","material":"metal","operator":"Mairie de Juvisy-sur-Orge","waste":"trash"}},"type":"Feature"},
	{"geometry":{"coordinates":[2.379013,48.69265],"type":"Point"},"properties":{"osm_id":"7354583834","tag":{"amenity":"waste_basket","colour":"noir","material":"metal","operator":"Mairie de Juvisy-sur-Orge","waste":"trash"}},"type":"Feature"},
	{"geometry":{"coordinates":[2.378388,48.691387],"type":"Point"},"properties":{"osm_id":"7354583835","tag":{"amenity":"waste_basket","colour":"noir","material":"metal","operator":"Mairie de Juvisy-sur-Orge","waste":"trash"}},"type":"Feature"},
	{"geometry":{"coordinates":[2.378477,48.691596],"type":"Point"},"properties":{"osm_id":"7354583837","tag":{"amenity":"waste_basket","colour":"noir","material":"metal","operator":"Mairie de Juvisy-sur-Orge","waste":"trash"}},"type":"Feature"},
	{"geometry":{"coordinates":[2.377847,48.691014],"type":"Point"},"properties":{"osm_id":"7354583841","tag":{"amenity":"waste_basket","operator":"Mairie de Juvisy-sur-Orge","waste":"trash"}},"type":"Feature"},
	{"geometry":{"coordinates":[2.377347,48.691237],"type":"Point"},"properties":{"osm_id":"7366292231","tag":{"amenity":"recycling","operator":"Le Relais","recycling_type":"container"}},"type":"Feature"},
	{"geometry":{"coordinates":[2.377331,48.69124],"type":"Point"},"properties":{"osm_id":"7366292232","tag":{"amenity":"recycling","operator":"Le Relais","recycling_type":"container"}},"type":"Feature"},
	{"geometry":{"coordinates":[2.377363,48.691233],"type":"Point"},"properties":{"osm_id":"7366292233","tag":{"amenity":"recycling","operator":"Le Relais","recycling_type":"container"}},"type":"Feature"},
	{"geometry":{"coordinates":[2.377288,48.691111],"type":"Point"},"properties":{"osm_id":"7366292235","tag":{"amenity":"recycling","location":"overground","recycling:magazines":"yes","recycling:paper":"yes","recycling_type":"container"}},"type":"Feature"},
	{"geometry":{"coordinates":[2.377296,48.69113],"type":"Point"},"properties":{"osm_id":"7366292236","tag":{"amenity":"recycling","location":"overground","recycling:magazines":"yes","recycling:paper":"yes","recycling_type":"container"}},"type":"Feature"},
	{"geometry":{"coordinates":[2.377322,48.691122],"type":"Point"},"properties":{"osm_id":"7366292237","tag":{"amenity":"recycling","location":"overground","recycling:bottles":"yes","recycling:glass":"yes","recycling_type":"container"}},"type":"Feature"},
	{"geometry":{"coordinates":[2.377312,48.691106],"type":"Point"},"properties":{"osm_id":"7366292238","tag":{"amenity":"recycling","location":"overground","recycling:bottles":"yes","recycling:glass":"yes","recycling_type":"container"}},"type":"Feature"},
	{"geometry":{"coordinates":[2.387898,48.708479],"type":"Point"},"properties":{"osm_id":"7507249057","tag":{"amenity":"waste_basket","colour":"noir","material":"metal","operator":"Mairie d'Athis-Mons"}},"type":"Feature"},
	{"geometry":{"coordinates":[2.389674,48.706852],"type":"Point"},"properties":{"osm_id":"7542856174","tag":{"amenity":"waste_basket","colour":"NOIR","material":"metal","operator":"Mairie d'Ahtis-Mons","waste":"trash"}},"type":"Feature"},
	{"geometry":{"coordinates":[2.389334,48.706715],"type":"Point"},"properties":{"osm_id":"7542856175","tag":{"amenity":"waste_basket","colour":"NOIR","material":"metal","operator":"Mairie d'Ahtis-Mons","waste":"trash"}},"type":"Feature"},
	{"geometry":{"coordinates":[2.383182,48.707122],"type":"Point"},"properties":{"osm_id":"7546394957","tag":{"amenity":"waste_basket","colour":"noir","material":"metal","waste":"trash"}},"type":"Feature"},
	{"geometry":{"coordinates":[2.373788,48.69232],"type":"Point"},"properties":{"osm_id":"7590185450","tag":{"amenity":"waste_basket","colour":"noir","material":"metal","operator":"Mairie de Juvisy-sur-Orge"}},"type":"Feature"},
	{"geometry":{"coordinates":[2.387542,48.70602],"type":"Point"},"properties":{"osm_id":"7606333724","tag":{"amenity":"waste_basket","colour":"noir","material":"metal","operator":"Mairie d'Ahtis-Mons","waste":"trash"}},"type":"Feature"},
	{"geometry":{"coordinates":[2.388677,48.706443],"type":"Point"},"properties":{"osm_id":"7606333729","tag":{"amenity":"waste_basket","material":"metal","operator":"Mairie d'Ahtis-Mons","waste":"trash"}},"type":"Feature"},
	{"geometry":{"coordinates":[2.388199,48.708183],"type":"Point"},"properties":{"osm_id":"7614885740","tag":{"amenity":"waste_basket","material":"metal","operator":"Mairie d'Ahtis-Mons"}},"type":"Feature"},
	{"geometry":{"coordinates":[2.386237,48.710824],"type":"Point"},"properties":{"osm_id":"7642520963","tag":{"access":"yes","amenity":"waste_disposal","operator":"Mairie d'Ahtis-Mons","waste":"trash"}},"type":"Feature"},
	{"geometry":{"coordinates":[2.386718,48.711168],"type":"Point"},"properties":{"osm_id":"7642520964","tag":{"access":"yes","amenity":"waste_disposal","operator":"Mairie d'Ahtis-Mons","waste":"trash"}},"type":"Feature"},
	{"geometry":{"coordinates":[2.387333,48.711592],"type":"Point"},"properties":{"osm_id":"7642520965","tag":{"access":"yes","amenity":"waste_disposal","operator":"Mairie d'Ahtis-Mons","waste":"trash"}},"type":"Feature"},
	{"geometry":{"coordinates":[2.387252,48.711956],"type":"Point"},"properties":{"osm_id":"7642520966","tag":{"access":"yes","amenity":"waste_disposal","operator":"Mairie d'Ahtis-Mons","waste":"trash"}},"type":"Feature"},
	{"geometry":{"coordinates":[2.387745,48.711877],"type":"Point"},"properties":{"osm_id":"7642520967","tag":{"access":"yes","amenity":"waste_disposal","operator":"Mairie d'Ahtis-Mons","waste":"trash"}},"type":"Feature"},
	{"geometry":{"coordinates":[2.388079,48.712221],"type":"Point"},"properties":{"osm_id":"7642520968","tag":{"access":"yes","amenity":"waste_disposal","operator":"Mairie d'Ahtis-Mons","waste":"trash"}},"type":"Feature"},
	{"geometry":{"coordinates":[2.388283,48.711876],"type":"Point"},"properties":{"osm_id":"7642520969","tag":{"access":"yes","amenity":"waste_disposal","operator":"Mairie d'Ahtis-Mons","waste":"trash"}},"type":"Feature"},
	{"geometry":{"coordinates":[2.388183,48.712188],"type":"Point"},"properties":{"osm_id":"7642520970","tag":{"access":"yes","amenity":"waste_disposal","operator":"Mairie d'Ahtis-Mons","waste":"trash"}},"type":"Feature"},
	{"geometry":{"coordinates":[2.3892,48.711567],"type":"Point"},"properties":{"osm_id":"7642520971","tag":{"access":"yes","amenity":"waste_disposal","operator":"Mairie d'Ahtis-Mons","waste":"trash"}},"type":"Feature"},
	{"geometry":{"coordinates":[2.388874,48.711451],"type":"Point"},"properties":{"osm_id":"7642520972","tag":{"access":"yes","amenity":"waste_disposal","operator":"Mairie d'Ahtis-Mons","waste":"trash"}},"type":"Feature"},
	{"geometry":{"coordinates":[2.388428,48.711159],"type":"Point"},"properties":{"osm_id":"7642520973","tag":{"access":"yes","amenity":"waste_disposal","operator":"Mairie d'Ahtis-Mons","waste":"trash"}},"type":"Feature"},
	{"geometry":{"coordinates":[2.388166,48.710864],"type":"Point"},"properties":{"osm_id":"7642520974","tag":{"access":"yes","amenity":"waste_disposal","operator":"Mairie d'Ahtis-Mons","waste":"trash"}},"type":"Feature"},
	{"geometry":{"coordinates":[2.387692,48.71101],"type":"Point"},"properties":{"osm_id":"7642520975","tag":{"access":"yes","amenity":"waste_disposal","operator":"Mairie d'Ahtis-Mons","waste":"trash"}},"type":"Feature"},
	{"geometry":{"coordinates":[2.387198,48.711135],"type":"Point"},"properties":{"osm_id":"7642520976","tag":{"access":"yes","amenity":"waste_disposal","operator":"Mairie d'Ahtis-Mons","waste":"trash"}},"type":"Feature"},
	{"geometry":{"coordinates":[2.388354,48.691257],"type":"Point"},"properties":{"osm_id":"7699776625","tag":{"amenity":"waste_basket","material":"metal","operator":"Mairie de Juvisy-sur-Orge","waste":"trash"}},"type":"Feature"},
	{"geometry":{"coordinates":[2.388187,48.691009],"type":"Point"},"properties":{"osm_id":"7699776626","tag":{"amenity":"waste_basket","material":"metal","operator":"Mairie de Juvisy-sur-Orge","waste":"trash"}},"type":"Feature"},
	{"geometry":{"coordinates":[2.385975,48.691059],"type":"Point"},"properties":{"osm_id":"7702281884","tag":{"amenity":"waste_basket","operator":"Mairie de Juvisy-sur-Orge","waste":"trash"}},"type":"Feature"},
	{"geometry":{"coordinates":[2.398239,48.70884],"type":"Point"},"properties":{"osm_id":"7842738179","tag":{"amenity":"waste_basket","material":"wood","waste":"trash"}},"type":"Feature"},
	{"geometry":{"coordinates":[2.394065,48.706398],"type":"Point"},"properties":{"osm_id":"7842750010","tag":{"amenity":"waste_basket","material":"wood","waste":"trash"}},"type":"Feature"},
	{"geometry":{"coordinates":[2.398285,48.70953],"type":"Point"},"properties":{"osm_id":"7842789764","tag":{"amenity":"waste_basket","material":"wood","waste":"trash"}},"type":"Feature"},
	{"geometry":{"coordinates":[2.386467,48.701713],"type":"Point"},"properties":{"osm_id":"7883218037","tag":{"amenity":"waste_basket","material":"metal","operator":"Mairie d'Athis-Mons","waste":"trash"}},"type":"Feature"},
	{"geometry":{"coordinates":[2.378453,48.695753],"type":"Point"},"properties":{"osm_id":"7893938396","tag":{"amenity":"waste_basket","waste":"trash"}},"type":"Feature"},
	{"geometry":{"coordinates":[2.378541,48.695906],"type":"Point"},"properties":{"osm_id":"7893938397","tag":{"amenity":"waste_basket","waste":"trash"}},"type":"Feature"},
	{"geometry":{"coordinates":[2.378544,48.69608],"type":"Point"},"properties":{"osm_id":"7893938415","tag":{"amenity":"waste_basket","waste":"trash"}},"type":"Feature"},
	{"geometry":{"coordinates":[2.390646,48.693933],"type":"Point"},"properties":{"osm_id":"7917514184","tag":{"amenity":"waste_basket","material":"metal","waste":"trash"}},"type":"Feature"}
]
}
