{
"type": "FeatureCollection",
"features": [
	{"geometry":{"coordinates":[2.431047,48.589943],"type":"Point"},"properties":{"osm_id":"248550748","tag":{"traffic_calming":"island"}},"type":"Feature"},
	{"geometry":{"coordinates":[2.441768,48.621327],"type":"Point"},"properties":{"osm_id":"2229429621","tag":{"amenity":"waste_basket"}},"type":"Feature"},
	{"geometry":{"coordinates":[2.438485,48.622477],"type":"Point"},"properties":{"osm_id":"2229429833","tag":{"amenity":"recycling","recycling:glass":"yes","recycling:paper":"yes","recycling_type":"container"}},"type":"Feature"},
	{"geometry":{"coordinates":[2.436486,48.622524],"type":"Point"},"properties":{"osm_id":"2229429837","tag":{"amenity":"waste_basket"}},"type":"Feature"},
	{"geometry":{"coordinates":[2.435673,48.623196],"type":"Point"},"properties":{"osm_id":"2229429875","tag":{"amenity":"waste_basket"}},"type":"Feature"},
	{"geometry":{"coordinates":[2.434281,48.623302],"type":"Point"},"properties":{"osm_id":"2229429880","tag":{"amenity":"waste_basket"}},"type":"Feature"},
	{"geometry":{"coordinates":[2.436956,48.625055],"type":"Point"},"properties":{"osm_id":"2229429965","tag":{"amenity":"waste_basket"}},"type":"Feature"},
	{"geometry":{"coordinates":[2.452606,48.574822],"type":"Point"},"properties":{"osm_id":"2251213913","tag":{"amenity":"recycling","recycling:glass":"yes","recycling_type":"container"}},"type":"Feature"},
	{"geometry":{"coordinates":[2.431972,48.632454],"type":"Point"},"properties":{"osm_id":"2279291871","tag":{"amenity":"recycling","recycling:glass":"yes","recycling_type":"container"}},"type":"Feature"},
	{"geometry":{"coordinates":[2.448621,48.628685],"type":"Point"},"properties":{"osm_id":"2286603916","tag":{"amenity":"recycling","recycling:clothes":"yes","recycling:glass":"yes","recycling_type":"container"}},"type":"Feature"},
	{"geometry":{"coordinates":[2.444981,48.627721],"type":"Point"},"properties":{"osm_id":"2286700016","tag":{"amenity":"recycling","recycling_type":"container"}},"type":"Feature"},
	{"geometry":{"coordinates":[2.445695,48.628126],"type":"Point"},"properties":{"osm_id":"2286700051","tag":{"amenity":"recycling","recycling_type":"container"}},"type":"Feature"},
	{"geometry":{"coordinates":[2.446352,48.628615],"type":"Point"},"properties":{"osm_id":"2286700101","tag":{"amenity":"recycling","recycling_type":"container"}},"type":"Feature"},
	{"geometry":{"coordinates":[2.428058,48.621073],"type":"Point"},"properties":{"osm_id":"2286848199","tag":{"amenity":"recycling","recycling:clothes":"yes","recycling:glass":"yes","recycling_type":"container"}},"type":"Feature"},
	{"geometry":{"coordinates":[2.429426,48.623139],"type":"Point"},"properties":{"osm_id":"2286848230","tag":{"amenity":"recycling","recycling:clothes":"yes","recycling:glass":"yes","recycling_type":"container"}},"type":"Feature"},
	{"geometry":{"coordinates":[2.449634,48.584454],"type":"Point"},"properties":{"osm_id":"2367731996","tag":{"amenity":"recycling","recycling:batteries":"yes","recycling:low_energy_bulbs":"yes","recycling:mobile_phones":"yes","recycling:paper":"yes","recycling:printer_cartridges":"yes","recycling_type":"container"}},"type":"Feature"},
	{"geometry":{"coordinates":[2.444431,48.624426],"type":"Point"},"properties":{"osm_id":"2375578439","tag":{"amenity":"recycling","comment":"please confirm recycling matter","recycling:glass_bottles":"yes","recycling:paper":"yes","recycling_type":"container"}},"type":"Feature"},
	{"geometry":{"coordinates":[2.44199,48.626025],"type":"Point"},"properties":{"osm_id":"2375578441","tag":{"amenity":"recycling","recycling_type":"container"}},"type":"Feature"},
	{"geometry":{"coordinates":[2.447383,48.632244],"type":"Point"},"properties":{"osm_id":"2509606699","tag":{"amenity":"recycling","recycling:glass":"yes","recycling_type":"container"}},"type":"Feature"},
	{"geometry":{"coordinates":[2.460287,48.593553],"type":"Point"},"properties":{"osm_id":"2677865222","tag":{"amenity":"recycling","recycling:glass":"yes"}},"type":"Feature"},
	{"geometry":{"coordinates":[2.460429,48.593605],"type":"Point"},"properties":{"osm_id":"2677865231","tag":{"amenity":"recycling","recycling:clothes":"yes"}},"type":"Feature"},
	{"geometry":{"coordinates":[2.436812,48.62387],"type":"Point"},"properties":{"osm_id":"2702729130","tag":{"amenity":"waste_basket","layer":"-1"}},"type":"Feature"},
	{"geometry":{"coordinates":[2.436785,48.623895],"type":"Point"},"properties":{"osm_id":"2702729133","tag":{"amenity":"waste_basket","layer":"-1"}},"type":"Feature"},
	{"geometry":{"coordinates":[2.431525,48.625373],"type":"Point"},"properties":{"osm_id":"2702729354","tag":{"amenity":"waste_basket","layer":"-1"}},"type":"Feature"},
	{"geometry":{"coordinates":[2.428172,48.625385],"type":"Point"},"properties":{"osm_id":"2702729377","tag":{"amenity":"waste_basket","layer":"-1"}},"type":"Feature"},
	{"geometry":{"coordinates":[2.430978,48.625397],"type":"Point"},"properties":{"osm_id":"2702729394","tag":{"amenity":"waste_basket","layer":"1"}},"type":"Feature"},
	{"geometry":{"coordinates":[2.430977,48.625398],"type":"Point"},"properties":{"osm_id":"2702729396","tag":{"amenity":"waste_basket","layer":"1"}},"type":"Feature"},
	{"geometry":{"coordinates":[2.428919,48.625447],"type":"Point"},"properties":{"osm_id":"2702729439","tag":{"amenity":"waste_basket","level":"0"}},"type":"Feature"},
	{"geometry":{"coordinates":[2.431072,48.625502],"type":"Point"},"properties":{"osm_id":"2702729457","tag":{"amenity":"waste_basket","layer":"1"}},"type":"Feature"},
	{"geometry":{"coordinates":[2.431086,48.625505],"type":"Point"},"properties":{"osm_id":"2702729458","tag":{"amenity":"waste_basket","layer":"1"}},"type":"Feature"},
	{"geometry":{"coordinates":[2.428808,48.625532],"type":"Point"},"properties":{"osm_id":"2702729469","tag":{"amenity":"waste_basket","level":"0"}},"type":"Feature"},
	{"geometry":{"coordinates":[2.428725,48.625555],"type":"Point"},"properties":{"osm_id":"2702729475","tag":{"amenity":"waste_basket","layer":"0"}},"type":"Feature"},
	{"geometry":{"coordinates":[2.428268,48.625605],"type":"Point"},"properties":{"osm_id":"2702729487","tag":{"amenity":"waste_basket","layer":"1"}},"type":"Feature"},
	{"geometry":{"coordinates":[2.430935,48.62563],"type":"Point"},"properties":{"osm_id":"2702729493","tag":{"amenity":"waste_basket","layer":"-1"}},"type":"Feature"},
	{"geometry":{"coordinates":[2.428755,48.625658],"type":"Point"},"properties":{"osm_id":"2702729501","tag":{"amenity":"waste_basket","layer":"-1"}},"type":"Feature"},
	{"geometry":{"coordinates":[2.428746,48.625727],"type":"Point"},"properties":{"osm_id":"2702729521","tag":{"amenity":"waste_basket","layer":"-1"}},"type":"Feature"},
	{"geometry":{"coordinates":[2.428472,48.625772],"type":"Point"},"properties":{"osm_id":"2702729536","tag":{"amenity":"waste_basket","layer":"1"}},"type":"Feature"},
	{"geometry":{"coordinates":[2.428228,48.625777],"type":"Point"},"properties":{"osm_id":"2702729538","tag":{"amenity":"waste_basket","layer":"1"}},"type":"Feature"},
	{"geometry":{"coordinates":[2.428764,48.625807],"type":"Point"},"properties":{"osm_id":"2702729550","tag":{"amenity":"waste_basket","layer":"-1"}},"type":"Feature"},
	{"geometry":{"coordinates":[2.428566,48.625853],"type":"Point"},"properties":{"osm_id":"2702729588","tag":{"amenity":"waste_basket","layer":"1"}},"type":"Feature"},
	{"geometry":{"coordinates":[2.428571,48.62588],"type":"Point"},"properties":{"osm_id":"2702729630","tag":{"amenity":"waste_basket","layer":"1"}},"type":"Feature"},
	{"geometry":{"coordinates":[2.428783,48.625893],"type":"Point"},"properties":{"osm_id":"2702729645","tag":{"amenity":"waste_basket","layer":"-1"}},"type":"Feature"},
	{"geometry":{"coordinates":[2.428777,48.625894],"type":"Point"},"properties":{"osm_id":"2702729651","tag":{"amenity":"waste_basket","layer":"-1"}},"type":"Feature"},
	{"geometry":{"coordinates":[2.428489,48.625896],"type":"Point"},"properties":{"osm_id":"2702729654","tag":{"amenity":"waste_basket","layer":"-1"}},"type":"Feature"},
	{"geometry":{"coordinates":[2.428744,48.625913],"type":"Point"},"properties":{"osm_id":"2702729662","tag":{"amenity":"waste_basket","layer":"-1"}},"type":"Feature"},
	{"geometry":{"coordinates":[2.428741,48.625914],"type":"Point"},"properties":{"osm_id":"2702729663","tag":{"amenity":"waste_basket","layer":"-1"}},"type":"Feature"},
	{"geometry":{"coordinates":[2.428628,48.625974],"type":"Point"},"properties":{"osm_id":"2702729672","tag":{"amenity":"waste_basket","layer":"1"}},"type":"Feature"},
	{"geometry":{"coordinates":[2.428766,48.625997],"type":"Point"},"properties":{"osm_id":"2702729677","tag":{"amenity":"waste_basket","layer":"1"}},"type":"Feature"},
	{"geometry":{"coordinates":[2.428757,48.625998],"type":"Point"},"properties":{"osm_id":"2702729678","tag":{"amenity":"waste_basket","layer":"1"}},"type":"Feature"},
	{"geometry":{"coordinates":[2.428787,48.626037],"type":"Point"},"properties":{"osm_id":"2702729687","tag":{"amenity":"waste_basket","layer":"1"}},"type":"Feature"},
	{"geometry":{"coordinates":[2.428782,48.626038],"type":"Point"},"properties":{"osm_id":"2702729688","tag":{"amenity":"waste_basket","layer":"1"}},"type":"Feature"},
	{"geometry":{"coordinates":[2.428323,48.626047],"type":"Point"},"properties":{"osm_id":"2702729697","tag":{"amenity":"waste_basket","layer":"1"}},"type":"Feature"},
	{"geometry":{"coordinates":[2.42875,48.626067],"type":"Point"},"properties":{"osm_id":"2702729702","tag":{"amenity":"waste_basket","layer":"1"}},"type":"Feature"},
	{"geometry":{"coordinates":[2.428752,48.626069],"type":"Point"},"properties":{"osm_id":"2702729706","tag":{"amenity":"waste_basket","layer":"1"}},"type":"Feature"},
	{"geometry":{"coordinates":[2.428756,48.626077],"type":"Point"},"properties":{"osm_id":"2702729719","tag":{"amenity":"waste_basket","layer":"1"}},"type":"Feature"},
	{"geometry":{"coordinates":[2.428251,48.626097],"type":"Point"},"properties":{"osm_id":"2702729740","tag":{"amenity":"waste_basket","layer":"1"}},"type":"Feature"},
	{"geometry":{"coordinates":[2.428321,48.626193],"type":"Point"},"properties":{"osm_id":"2702729766","tag":{"amenity":"waste_basket","layer":"-1"}},"type":"Feature"},
	{"geometry":{"coordinates":[2.428319,48.626193],"type":"Point"},"properties":{"osm_id":"2702729767","tag":{"amenity":"waste_basket","layer":"-1"}},"type":"Feature"},
	{"geometry":{"coordinates":[2.450653,48.623071],"type":"Point"},"properties":{"osm_id":"2823554642","tag":{"amenity":"waste_basket"}},"type":"Feature"},
	{"geometry":{"coordinates":[2.450899,48.623128],"type":"Point"},"properties":{"osm_id":"2823554647","tag":{"amenity":"waste_basket"}},"type":"Feature"},
	{"geometry":{"coordinates":[2.451112,48.623186],"type":"Point"},"properties":{"osm_id":"2823554656","tag":{"amenity":"waste_basket"}},"type":"Feature"},
	{"geometry":{"coordinates":[2.451358,48.623191],"type":"Point"},"properties":{"osm_id":"2823554658","tag":{"amenity":"waste_basket"}},"type":"Feature"},
	{"geometry":{"coordinates":[2.450926,48.6232],"type":"Point"},"properties":{"osm_id":"2823554661","tag":{"amenity":"waste_basket"}},"type":"Feature"},
	{"geometry":{"coordinates":[2.451547,48.623204],"type":"Point"},"properties":{"osm_id":"2823554663","tag":{"amenity":"waste_basket"}},"type":"Feature"},
	{"geometry":{"coordinates":[2.451827,48.623204],"type":"Point"},"properties":{"osm_id":"2823554664","tag":{"amenity":"waste_basket"}},"type":"Feature"},
	{"geometry":{"coordinates":[2.451971,48.623217],"type":"Point"},"properties":{"osm_id":"2823554668","tag":{"amenity":"waste_basket"}},"type":"Feature"},
	{"geometry":{"coordinates":[2.450878,48.623237],"type":"Point"},"properties":{"osm_id":"2823554673","tag":{"amenity":"waste_basket"}},"type":"Feature"},
	{"geometry":{"coordinates":[2.450926,48.623313],"type":"Point"},"properties":{"osm_id":"2823554693","tag":{"amenity":"waste_basket"}},"type":"Feature"},
	{"geometry":{"coordinates":[2.451682,48.623351],"type":"Point"},"properties":{"osm_id":"2823555101","tag":{"amenity":"waste_basket"}},"type":"Feature"},
	{"geometry":{"coordinates":[2.451928,48.623356],"type":"Point"},"properties":{"osm_id":"2823555104","tag":{"amenity":"waste_basket"}},"type":"Feature"},
	{"geometry":{"coordinates":[2.452117,48.623369],"type":"Point"},"properties":{"osm_id":"2823555107","tag":{"amenity":"waste_basket"}},"type":"Feature"},
	{"geometry":{"coordinates":[2.452387,48.623382],"type":"Point"},"properties":{"osm_id":"2823555109","tag":{"amenity":"waste_basket"}},"type":"Feature"},
	{"geometry":{"coordinates":[2.452541,48.623383],"type":"Point"},"properties":{"osm_id":"2823555111","tag":{"amenity":"waste_basket"}},"type":"Feature"},
	{"geometry":{"coordinates":[2.45061,48.623412],"type":"Point"},"properties":{"osm_id":"2823555117","tag":{"amenity":"waste_basket"}},"type":"Feature"},
	{"geometry":{"coordinates":[2.452007,48.622201],"type":"Point"},"properties":{"osm_id":"3327313132","tag":{"amenity":"recycling","recycling:glass":"yes","recycling:paper":"yes","recycling_type":"container"}},"type":"Feature"},
	{"geometry":{"coordinates":[2.450417,48.623366],"type":"Point"},"properties":{"osm_id":"3456620026","tag":{"amenity":"waste_basket"}},"type":"Feature"},
	{"geometry":{"coordinates":[2.457247,48.626582],"type":"Point"},"properties":{"name":"Point de Collecte de Sapins","osm_id":"3914761392","tag":{"addr:city":"\u00c3\u0089vry","addr:street":"Rue des \u00c3\u0089rables","amenity":"recycling","operator":"Mairie","recycling:cans":"no","recycling:clothes":"no","recycling:glass":"no","recycling:glass_bottles":"no","recycling:paper":"no","recycling:plastic":"no","recycling_type":"container"}},"type":"Feature"},
	{"geometry":{"coordinates":[2.453624,48.62837],"type":"Point"},"properties":{"name":"Point de Collecte de Sapins","osm_id":"3914761393","tag":{"addr:city":"\u00c3\u0089vry","addr:street":"Avenue de Mousseau","amenity":"recycling","operator":"Mairie d'Evry","recycling:cans":"no","recycling:clothes":"no","recycling:glass":"no","recycling:glass_bottles":"no","recycling:paper":"no","recycling:plastic":"no","recycling_type":"container"}},"type":"Feature"},
	{"geometry":{"coordinates":[2.453365,48.622943],"type":"Point"},"properties":{"name":"Point de Collecte de Sapins","osm_id":"3914829553","tag":{"addr:city":"\u00c3\u0089vry","addr:street":"Rue du Bel Air","amenity":"recycling","operator":"Mairie d'Evry","recycling:cans":"no","recycling:clothes":"no","recycling:glass":"no","recycling:glass_bottles":"no","recycling:paper":"no","recycling:plastic":"no","recycling_type":"container"}},"type":"Feature"},
	{"geometry":{"coordinates":[2.446529,48.620249],"type":"Point"},"properties":{"name":"Point de Collecte de Sapins","osm_id":"3914829554","tag":{"addr:city":"\u00c3\u0089vry","addr:street":"Mail du Temps des Cerises","amenity":"recycling","operator":"Mairie d'Evry","recycling:cans":"no","recycling:clothes":"no","recycling:glass":"no","recycling:glass_bottles":"no","recycling:paper":"no","recycling:plastic":"no","recycling_type":"container"}},"type":"Feature"},
	{"geometry":{"coordinates":[2.435085,48.616487],"type":"Point"},"properties":{"name":"Point de Collecte de Sapins","osm_id":"3914829555","tag":{"addr:city":"\u00c3\u0089vry","addr:street":"Impasse de la Renarde","amenity":"recycling","operator":"Mairie d'Evry","recycling:cans":"no","recycling:clothes":"no","recycling:glass":"no","recycling:glass_bottles":"no","recycling:paper":"no","recycling:plastic":"no","recycling_type":"container"}},"type":"Feature"},
	{"geometry":{"coordinates":[2.43447,48.618974],"type":"Point"},"properties":{"name":"Point de Collecte de Sapins","osm_id":"3914829556","tag":{"addr:city":"\u00c3\u0089vry","addr:street":"Rue Jean-Marie Tjibaou","amenity":"recycling","operator":"Mairie d'Evry","recycling:cans":"no","recycling:clothes":"no","recycling:glass":"no","recycling:glass_bottles":"no","recycling:paper":"no","recycling:plastic":"no","recycling_type":"container"}},"type":"Feature"},
	{"geometry":{"coordinates":[2.425062,48.623984],"type":"Point"},"properties":{"name":"Point de Collecte de Sapins","osm_id":"3914831257","tag":{"addr:city":"\u00c3\u0089vry","addr:street":"All\u00c3\u00a9e Toussaint Louverture","amenity":"recycling","operator":"Mairie d'Evry","recycling:cans":"no","recycling:clothes":"no","recycling:glass":"no","recycling:glass_bottles":"no","recycling:paper":"no","recycling:plastic":"no","recycling_type":"container"}},"type":"Feature"},
	{"geometry":{"coordinates":[2.42524,48.625863],"type":"Point"},"properties":{"name":"Point de Collecte de Sapins","osm_id":"3914831258","tag":{"addr:city":"\u00c3\u0089vry","addr:street":"Rue L\u00c3\u00a9opold S\u00c3\u00a9dar Senghor","amenity":"recycling","operator":"Mairie d'Evry","recycling:cans":"no","recycling:clothes":"no","recycling:glass":"no","recycling:glass_bottles":"no","recycling:paper":"no","recycling:plastic":"no","recycling_type":"container"}},"type":"Feature"},
	{"geometry":{"coordinates":[2.431585,48.6325],"type":"Point"},"properties":{"name":"Point de Collecte de Sapins","osm_id":"3914831261","tag":{"addr:city":"\u00c3\u0089vry","addr:street":"Rue des Galants Courts","amenity":"recycling","operator":"Mairie d'Evry","recycling:cans":"no","recycling:clothes":"no","recycling:glass":"no","recycling:glass_bottles":"no","recycling:paper":"no","recycling:plastic":"no","recycling_type":"container"}},"type":"Feature"},
	{"geometry":{"coordinates":[2.437741,48.622918],"type":"Point"},"properties":{"name":"Point de Collecte de Sapins","osm_id":"3914831262","tag":{"addr:city":"\u00c3\u0089vry","addr:street":"Rue Henri Rochefort","amenity":"recycling","operator":"Mairie d'Evry","recycling:cans":"no","recycling:clothes":"no","recycling:glass":"no","recycling:glass_bottles":"no","recycling:paper":"no","recycling:plastic":"no","recycling_type":"container"}},"type":"Feature"},
	{"geometry":{"coordinates":[2.447468,48.6242],"type":"Point"},"properties":{"name":"Point de Collecte de Sapins","osm_id":"3914831263","tag":{"addr:city":"\u00c3\u0089vry","addr:street":"Rue Fran\u00c3\u00a7ois Mauriac","amenity":"recycling","operator":"Mairie d'Evry","recycling:cans":"no","recycling:clothes":"no","recycling:glass":"no","recycling:glass_bottles":"no","recycling:paper":"no","recycling:plastic":"no","recycling_type":"container"}},"type":"Feature"},
	{"geometry":{"coordinates":[2.44803,48.628381],"type":"Point"},"properties":{"name":"Point de Collecte de Sapins","osm_id":"3914831264","tag":{"addr:city":"\u00c3\u0089vry","addr:street":"Rue Claude Debussy","amenity":"recycling","operator":"Mairie d'Evry","recycling:cans":"no","recycling:clothes":"no","recycling:glass":"no","recycling:glass_bottles":"no","recycling:paper":"no","recycling:plastic":"no","recycling_type":"container"}},"type":"Feature"},
	{"geometry":{"coordinates":[2.444028,48.630087],"type":"Point"},"properties":{"name":"Point de Collecte de Sapins","osm_id":"3914831265","tag":{"addr:city":"\u00c3\u0089vry","addr:street":"Rue du Village","amenity":"recycling","operator":"Mairie d'Evry","recycling:cans":"no","recycling:clothes":"no","recycling:glass":"no","recycling:glass_bottles":"no","recycling:paper":"no","recycling:plastic":"no","recycling_type":"container"}},"type":"Feature"},
	{"geometry":{"coordinates":[2.43945,48.592417],"type":"Point"},"properties":{"osm_id":"4081139999","tag":{"amenity":"waste_basket","waste":"trash"}},"type":"Feature"},
	{"geometry":{"coordinates":[2.438965,48.594696],"type":"Point"},"properties":{"osm_id":"4089066803","tag":{"amenity":"waste_basket","waste":"trash"}},"type":"Feature"},
	{"geometry":{"coordinates":[2.385099,48.628386],"type":"Point"},"properties":{"osm_id":"4796749309","tag":{"amenity":"waste_basket"}},"type":"Feature"},
	{"geometry":{"coordinates":[2.385652,48.627885],"type":"Point"},"properties":{"osm_id":"4796749316","tag":{"amenity":"waste_basket"}},"type":"Feature"},
	{"geometry":{"coordinates":[2.385632,48.628983],"type":"Point"},"properties":{"osm_id":"4796749326","tag":{"amenity":"waste_basket"}},"type":"Feature"},
	{"geometry":{"coordinates":[2.427584,48.625836],"type":"Point"},"properties":{"osm_id":"5493919895","tag":{"amenity":"waste_basket"}},"type":"Feature"},
	{"geometry":{"coordinates":[2.430429,48.622827],"type":"Point"},"properties":{"osm_id":"5493973733","tag":{"amenity":"waste_basket"}},"type":"Feature"},
	{"geometry":{"coordinates":[2.433529,48.620523],"type":"Point"},"properties":{"osm_id":"5494011111","tag":{"amenity":"waste_basket"}},"type":"Feature"},
	{"geometry":{"coordinates":[2.434968,48.62391],"type":"Point"},"properties":{"osm_id":"5494164465","tag":{"amenity":"waste_basket"}},"type":"Feature"},
	{"geometry":{"coordinates":[2.429524,48.628106],"type":"Point"},"properties":{"osm_id":"5696770645","tag":{"amenity":"waste_basket"}},"type":"Feature"},
	{"geometry":{"coordinates":[2.430247,48.628112],"type":"Point"},"properties":{"osm_id":"5696770648","tag":{"amenity":"waste_basket"}},"type":"Feature"},
	{"geometry":{"coordinates":[2.388181,48.590822],"type":"Point"},"properties":{"barrier":"entrance","osm_id":"5900345107","tag":{"motorcar":"yes"}},"type":"Feature"},
	{"geometry":{"coordinates":[2.388066,48.590828],"type":"Point"},"properties":{"barrier":"entrance","osm_id":"5900345147","tag":{"motorcar":"yes"}},"type":"Feature"},
	{"geometry":{"coordinates":[2.38879,48.59004],"type":"Point"},"properties":{"osm_id":"7211749185","tag":{"amenity":"recycling"}},"type":"Feature"},
	{"geometry":{"coordinates":[2.431439,48.627121],"type":"Point"},"properties":{"osm_id":"7859264359","tag":{"amenity":"waste_basket","colour":"gray","material":"steel"}},"type":"Feature"},
	{"geometry":{"coordinates":[2.431643,48.627958],"type":"Point"},"properties":{"osm_id":"7859264369","tag":{"amenity":"waste_basket","colour":"gray","material":"metal"}},"type":"Feature"},
	{"geometry":{"coordinates":[2.431158,48.627046],"type":"Point"},"properties":{"osm_id":"7859264374","tag":{"amenity":"waste_basket","colour":"gray","material":"steel"}},"type":"Feature"},
	{"geometry":{"coordinates":[2.430019,48.625462],"type":"Point"},"properties":{"osm_id":"7859264375","tag":{"amenity":"waste_basket","colour":"gray","material":"steel"}},"type":"Feature"}
]
}
