{
"type": "FeatureCollection",
"features": [
	{"geometry":{"coordinates":[149.0977,-35.2751],"type":"Point"},"properties":{"osm_id":"439912240","tag":{"amenity":"waste_basket"}},"type":"Feature"},
	{"geometry":{"coordinates":[149.097357,-35.274959],"type":"Point"},"properties":{"osm_id":"439912241","tag":{"amenity":"waste_basket"}},"type":"Feature"},
	{"geometry":{"coordinates":[149.097409,-35.274862],"type":"Point"},"properties":{"osm_id":"439912242","tag":{"amenity":"waste_basket"}},"type":"Feature"},
	{"geometry":{"coordinates":[149.097381,-35.274157],"type":"Point"},"properties":{"osm_id":"439912243","tag":{"amenity":"waste_basket"}},"type":"Feature"},
	{"geometry":{"coordinates":[149.097573,-35.274397],"type":"Point"},"properties":{"osm_id":"439912244","tag":{"amenity":"waste_basket"}},"type":"Feature"},
	{"geometry":{"coordinates":[149.09773,-35.274453],"type":"Point"},"properties":{"osm_id":"439912245","tag":{"amenity":"waste_basket"}},"type":"Feature"},
	{"geometry":{"coordinates":[149.128791,-35.276927],"type":"Point"},"properties":{"osm_id":"654042508","tag":{"amenity":"waste_basket"}},"type":"Feature"},
	{"geometry":{"coordinates":[149.135293,-35.28086],"type":"Point"},"properties":{"osm_id":"765574608","tag":{"amenity":"waste_basket"}},"type":"Feature"},
	{"geometry":{"coordinates":[149.136035,-35.280693],"type":"Point"},"properties":{"osm_id":"765574611","tag":{"amenity":"waste_basket"}},"type":"Feature"},
	{"geometry":{"coordinates":[149.133823,-35.278746],"type":"Point"},"properties":{"osm_id":"767188103","tag":{"amenity":"waste_basket"}},"type":"Feature"},
	{"geometry":{"coordinates":[149.130203,-35.296774],"type":"Point"},"properties":{"osm_id":"2689565855","tag":{"amenity":"waste_basket"}},"type":"Feature"},
	{"geometry":{"coordinates":[149.130043,-35.296954],"type":"Point"},"properties":{"osm_id":"2689565878","tag":{"amenity":"waste_basket"}},"type":"Feature"},
	{"geometry":{"coordinates":[149.129936,-35.297483],"type":"Point"},"properties":{"osm_id":"2689565892","tag":{"amenity":"waste_basket"}},"type":"Feature"},
	{"geometry":{"coordinates":[149.128026,-35.29114],"type":"Point"},"properties":{"osm_id":"3486476232","tag":{"amenity":"waste_basket","source:geometry":"extrapolation"}},"type":"Feature"},
	{"geometry":{"coordinates":[149.125158,-35.28195],"type":"Point"},"properties":{"osm_id":"5227262221","tag":{"amenity":"waste_basket"}},"type":"Feature"},
	{"geometry":{"coordinates":[149.133583,-35.279008],"type":"Point"},"properties":{"osm_id":"6296626187","tag":{"amenity":"waste_basket"}},"type":"Feature"},
	{"geometry":{"coordinates":[149.13357,-35.279778],"type":"Point"},"properties":{"osm_id":"6296626191","tag":{"amenity":"waste_basket"}},"type":"Feature"},
	{"geometry":{"coordinates":[149.132889,-35.279256],"type":"Point"},"properties":{"osm_id":"6296626201","tag":{"amenity":"waste_basket"}},"type":"Feature"},
	{"geometry":{"coordinates":[149.131657,-35.281641],"type":"Point"},"properties":{"osm_id":"6296926759","tag":{"amenity":"waste_basket"}},"type":"Feature"},
	{"geometry":{"coordinates":[149.131255,-35.278712],"type":"Point"},"properties":{"osm_id":"6296994961","tag":{"amenity":"waste_basket"}},"type":"Feature"},
	{"geometry":{"coordinates":[149.131619,-35.278933],"type":"Point"},"properties":{"osm_id":"6296994966","tag":{"amenity":"waste_basket"}},"type":"Feature"},
	{"geometry":{"coordinates":[149.131867,-35.278202],"type":"Point"},"properties":{"osm_id":"6297015887","tag":{"amenity":"waste_basket"}},"type":"Feature"},
	{"geometry":{"coordinates":[149.131803,-35.277718],"type":"Point"},"properties":{"osm_id":"6297015888","tag":{"amenity":"waste_basket"}},"type":"Feature"},
	{"geometry":{"coordinates":[149.130469,-35.278934],"type":"Point"},"properties":{"osm_id":"6298035388","tag":{"amenity":"waste_basket"}},"type":"Feature"},
	{"geometry":{"coordinates":[149.130439,-35.27865],"type":"Point"},"properties":{"osm_id":"6298035391","tag":{"amenity":"waste_basket"}},"type":"Feature"},
	{"geometry":{"coordinates":[149.130518,-35.278306],"type":"Point"},"properties":{"osm_id":"6298040600","tag":{"amenity":"waste_basket"}},"type":"Feature"},
	{"geometry":{"coordinates":[149.117405,-35.277125],"type":"Point"},"properties":{"osm_id":"6412881184","tag":{"amenity":"recycling","recycling_type":"container"}},"type":"Feature"},
	{"geometry":{"coordinates":[149.117795,-35.27487],"type":"Point"},"properties":{"osm_id":"6424427132","tag":{"amenity":"recycling","recycling_type":"container"}},"type":"Feature"},
	{"geometry":{"coordinates":[149.101591,-35.29233],"type":"Point"},"properties":{"osm_id":"6483315222","tag":{"amenity":"waste_basket"}},"type":"Feature"},
	{"geometry":{"coordinates":[149.14592,-35.298589],"type":"Point"},"properties":{"osm_id":"6612451530","tag":{"amenity":"waste_basket"}},"type":"Feature"},
	{"geometry":{"coordinates":[149.14538,-35.29856],"type":"Point"},"properties":{"osm_id":"6897176854","tag":{"amenity":"waste_basket"}},"type":"Feature"},
	{"geometry":{"coordinates":[149.07203,-35.29777],"type":"Point"},"properties":{"osm_id":"6984050564","tag":{"amenity":"waste_basket"}},"type":"Feature"},
	{"geometry":{"coordinates":[149.12087,-35.277157],"type":"Point"},"properties":{"osm_id":"7024799997","tag":{"amenity":"waste_basket"}},"type":"Feature"},
	{"geometry":{"coordinates":[149.120591,-35.277201],"type":"Point"},"properties":{"osm_id":"7024804265","tag":{"amenity":"waste_basket"}},"type":"Feature"},
	{"geometry":{"coordinates":[149.136629,-35.282366],"type":"Point"},"properties":{"osm_id":"7034512093","tag":{"amenity":"waste_basket"}},"type":"Feature"},
	{"geometry":{"coordinates":[149.13628,-35.2819],"type":"Point"},"properties":{"osm_id":"7034559505","tag":{"amenity":"waste_basket"}},"type":"Feature"},
	{"geometry":{"coordinates":[149.134723,-35.281174],"type":"Point"},"properties":{"osm_id":"7034560631","tag":{"amenity":"waste_basket"}},"type":"Feature"},
	{"geometry":{"coordinates":[149.149453,-35.279084],"type":"Point"},"properties":{"osm_id":"7042604822","tag":{"amenity":"waste_basket"}},"type":"Feature"},
	{"geometry":{"coordinates":[149.135091,-35.281753],"type":"Point"},"properties":{"osm_id":"7234416973","tag":{"amenity":"waste_basket"}},"type":"Feature"},
	{"geometry":{"coordinates":[149.063101,-35.259222],"type":"Point"},"properties":{"osm_id":"7273605201","tag":{"amenity":"waste_basket"}},"type":"Feature"},
	{"geometry":{"coordinates":[149.071316,-35.253268],"type":"Point"},"properties":{"osm_id":"7774592344","tag":{"amenity":"waste_basket"}},"type":"Feature"},
	{"geometry":{"coordinates":[149.071144,-35.253233],"type":"Point"},"properties":{"osm_id":"7774592346","tag":{"amenity":"waste_basket"}},"type":"Feature"}
]
}
