{
"type": "FeatureCollection",
"features": [
	{"geometry":{"coordinates":[-105.528974,44.260942],"type":"Point"},"properties":{"osm_id":"4838904488","tag":{"amenity":"waste_basket"}},"type":"Feature"},
	{"geometry":{"coordinates":[-105.509377,44.26931],"type":"Point"},"properties":{"osm_id":"4839163458","tag":{"amenity":"waste_basket"}},"type":"Feature"},
	{"geometry":{"coordinates":[-105.509,44.275378],"type":"Point"},"properties":{"osm_id":"4864720230","tag":{"amenity":"waste_basket"}},"type":"Feature"},
	{"geometry":{"coordinates":[-105.509138,44.275149],"type":"Point"},"properties":{"osm_id":"4864720242","tag":{"amenity":"waste_basket"}},"type":"Feature"},
	{"geometry":{"coordinates":[-105.50903,44.275148],"type":"Point"},"properties":{"osm_id":"4864720243","tag":{"amenity":"waste_basket"}},"type":"Feature"},
	{"geometry":{"coordinates":[-105.496549,44.275769],"type":"Point"},"properties":{"osm_id":"4865307137","tag":{"amenity":"waste_basket"}},"type":"Feature"},
	{"geometry":{"coordinates":[-105.496549,44.275845],"type":"Point"},"properties":{"osm_id":"4865307138","tag":{"amenity":"waste_basket"}},"type":"Feature"},
	{"geometry":{"coordinates":[-105.49655,44.275906],"type":"Point"},"properties":{"osm_id":"4865307140","tag":{"amenity":"waste_basket"}},"type":"Feature"},
	{"geometry":{"coordinates":[-105.507046,44.26145],"type":"Point"},"properties":{"osm_id":"4877033461","tag":{"amenity":"waste_basket"}},"type":"Feature"},
	{"geometry":{"coordinates":[-105.489625,44.265656],"type":"Point"},"properties":{"osm_id":"4933492033","tag":{"amenity":"waste_basket"}},"type":"Feature"},
	{"geometry":{"coordinates":[-105.488067,44.263744],"type":"Point"},"properties":{"osm_id":"5835480415","tag":{"amenity":"waste_basket"}},"type":"Feature"},
	{"geometry":{"coordinates":[-105.488942,44.265211],"type":"Point"},"properties":{"osm_id":"5835480417","tag":{"amenity":"waste_basket"}},"type":"Feature"},
	{"geometry":{"coordinates":[-105.50931,44.272235],"type":"Point"},"properties":{"osm_id":"6117518777","tag":{"amenity":"waste_basket"}},"type":"Feature"},
	{"geometry":{"coordinates":[-105.492814,44.268453],"type":"Point"},"properties":{"osm_id":"6642225851","tag":{"access":"private","amenity":"waste_disposal"}},"type":"Feature"},
	{"geometry":{"coordinates":[-105.509871,44.261493],"type":"Point"},"properties":{"osm_id":"7840942855","tag":{"amenity":"waste_basket","material":"concrete"}},"type":"Feature"}
]
}
