{
"type": "FeatureCollection",
"features": [
	{"geometry":{"coordinates":[25.722453,62.269996],"type":"Point"},"properties":{"name":"Mannilan kierr\u00c3\u00a4tyspiste","osm_id":"492883747","tag":{"addr:city":"Jyv\u00c3\u00a4skyl\u00c3\u00a4","addr:housenumber":"7","addr:postcode":"40200","addr:street":"Mannisentie","amenity":"recycling","opening_hours":"24/7","operator":"Mustankorkea","recycling:glass":"yes","recycling:paper":"yes","recycling:scrap_metal":"yes","recycling_type":"centre"}},"type":"Feature"},
	{"geometry":{"coordinates":[25.717778,62.296076],"type":"Point"},"properties":{"osm_id":"560880710","tag":{"amenity":"waste_basket"}},"type":"Feature"},
	{"geometry":{"coordinates":[25.716835,62.30045],"type":"Point"},"properties":{"osm_id":"560880741","tag":{"amenity":"waste_basket"}},"type":"Feature"},
	{"geometry":{"coordinates":[25.694121,62.302473],"type":"Point"},"properties":{"osm_id":"563254272","tag":{"amenity":"waste_basket"}},"type":"Feature"},
	{"geometry":{"coordinates":[25.694175,62.302612],"type":"Point"},"properties":{"osm_id":"563254275","tag":{"amenity":"waste_basket"}},"type":"Feature"},
	{"geometry":{"coordinates":[25.699756,62.296716],"type":"Point"},"properties":{"osm_id":"563254304","tag":{"amenity":"waste_basket"}},"type":"Feature"},
	{"geometry":{"coordinates":[25.709018,62.291638],"type":"Point"},"properties":{"osm_id":"564641378","tag":{"amenity":"recycling","recycling:paper":"yes"}},"type":"Feature"},
	{"geometry":{"coordinates":[25.709481,62.291926],"type":"Point"},"properties":{"osm_id":"564641384","tag":{"amenity":"waste_basket"}},"type":"Feature"},
	{"geometry":{"coordinates":[25.69007,62.291031],"type":"Point"},"properties":{"osm_id":"568359104","tag":{"amenity":"waste_basket"}},"type":"Feature"},
	{"geometry":{"coordinates":[25.689401,62.291183],"type":"Point"},"properties":{"osm_id":"568359118","tag":{"amenity":"waste_basket"}},"type":"Feature"},
	{"geometry":{"coordinates":[25.720709,62.288523],"type":"Point"},"properties":{"osm_id":"1432726173","tag":{"amenity":"recycling","recycling:cardboard":"yes","recycling:cartons":"yes","recycling:glass_bottles":"yes","recycling:paper":"yes","recycling:plastic":"yes","recycling:scrap_metal":"yes","recycling_type":"container"}},"type":"Feature"},
	{"geometry":{"coordinates":[25.747744,62.29176],"type":"Point"},"properties":{"osm_id":"2356313036","tag":{"amenity":"recycling","recycling:paper":"yes","recycling_type":"container"}},"type":"Feature"},
	{"geometry":{"coordinates":[25.696653,62.273095],"type":"Point"},"properties":{"osm_id":"2372433579","tag":{"amenity":"recycling","recycling:glass":"yes","recycling:paper":"yes","recycling:scrap_metal":"yes"}},"type":"Feature"},
	{"geometry":{"coordinates":[25.719703,62.269614],"type":"Point"},"properties":{"name":"Evakkotien kierr\u00c3\u00a4tyspiste","osm_id":"6516019491","tag":{"addr:city":"Jyv\u00c3\u00a4skyl\u00c3\u00a4","addr:housenumber":"1","addr:postcode":"40200","addr:street":"Evakkotie","amenity":"recycling","opening_hours":"24/7","operator":"Mustankorkea","recycling:cardboard":"yes","recycling:glass":"yes","recycling:paper":"yes","recycling:scrap_metal":"yes","recycling_type":"centre"}},"type":"Feature"},
	{"geometry":{"coordinates":[25.714092,62.286394],"type":"Point"},"properties":{"osm_id":"7500634679","tag":{"amenity":"recycling","recycling:cardboard":"yes","recycling:clothes":"yes","recycling:paper":"yes","recycling:plastic":"yes","recycling_type":"container"}},"type":"Feature"}
]
}
