{
"type": "FeatureCollection",
"features": [
	{"geometry":{"coordinates":[25.693096,62.241953],"type":"Point"},"properties":{"osm_id":"279025750","tag":{"amenity":"recycling"}},"type":"Feature"},
	{"geometry":{"coordinates":[25.724077,62.243456],"type":"Point"},"properties":{"osm_id":"473124221","tag":{"amenity":"recycling","recycling_type":"container"}},"type":"Feature"},
	{"geometry":{"coordinates":[25.702831,62.241909],"type":"Point"},"properties":{"osm_id":"505749057","tag":{"amenity":"recycling","location":"underground","recycling:cans":"yes","recycling:glass_bottles":"yes","recycling:paper":"yes","recycling_type":"container"}},"type":"Feature"},
	{"geometry":{"coordinates":[25.685742,62.235836],"type":"Point"},"properties":{"osm_id":"505751666","tag":{"amenity":"recycling","location":"underground","recycling:cardboard":"yes","recycling:glass":"no","recycling:glass_bottles":"yes","recycling:paper":"yes","recycling:scrap_metal":"yes","recycling_type":"container"}},"type":"Feature"},
	{"geometry":{"coordinates":[25.740577,62.233104],"type":"Point"},"properties":{"osm_id":"537919358","tag":{"amenity":"waste_basket"}},"type":"Feature"},
	{"geometry":{"coordinates":[25.741353,62.233957],"type":"Point"},"properties":{"osm_id":"537919378","tag":{"amenity":"waste_basket"}},"type":"Feature"},
	{"geometry":{"coordinates":[25.735927,62.243052],"type":"Point"},"properties":{"osm_id":"671908408","tag":{"amenity":"recycling","recycling:glass":"yes","recycling:paper":"yes","recycling:scrap_metal":"yes","recycling_type":"container"}},"type":"Feature"},
	{"geometry":{"coordinates":[25.719989,62.241938],"type":"Point"},"properties":{"osm_id":"988886002","tag":{"amenity":"recycling","recycling:glass":"yes","recycling:paper":"yes","recycling:scrap_metal":"yes","recycling_type":"container"}},"type":"Feature"},
	{"geometry":{"coordinates":[25.732767,62.229313],"type":"Point"},"properties":{"osm_id":"2355175233","tag":{"amenity":"waste_basket"}},"type":"Feature"},
	{"geometry":{"coordinates":[25.735502,62.231066],"type":"Point"},"properties":{"osm_id":"2375990879","tag":{"amenity":"waste_basket"}},"type":"Feature"},
	{"geometry":{"coordinates":[25.678995,62.244861],"type":"Point"},"properties":{"highway":"street_lamp","osm_id":"2384053603","tag":{"amenity":"waste_basket"}},"type":"Feature"},
	{"geometry":{"coordinates":[25.741102,62.253226],"type":"Point"},"properties":{"osm_id":"2397672035","tag":{"amenity":"waste_basket"}},"type":"Feature"},
	{"geometry":{"coordinates":[25.745458,62.254712],"type":"Point"},"properties":{"osm_id":"2398084595","tag":{"amenity":"waste_disposal"}},"type":"Feature"},
	{"geometry":{"coordinates":[25.724428,62.231041],"type":"Point"},"properties":{"osm_id":"2398288062","tag":{"amenity":"recycling","recycling_type":"container"}},"type":"Feature"},
	{"geometry":{"coordinates":[25.717557,62.246944],"type":"Point"},"properties":{"osm_id":"2399261890","tag":{"amenity":"waste_basket"}},"type":"Feature"},
	{"geometry":{"coordinates":[25.705383,62.251882],"type":"Point"},"properties":{"osm_id":"2399261953","tag":{"amenity":"waste_basket"}},"type":"Feature"},
	{"geometry":{"coordinates":[25.69999,62.26756],"type":"Point"},"properties":{"osm_id":"2399736823","tag":{"amenity":"waste_basket"}},"type":"Feature"},
	{"geometry":{"coordinates":[25.737247,62.237338],"type":"Point"},"properties":{"osm_id":"4740022266","tag":{"amenity":"waste_basket"}},"type":"Feature"},
	{"geometry":{"coordinates":[25.737287,62.237244],"type":"Point"},"properties":{"osm_id":"4740022267","tag":{"amenity":"waste_basket"}},"type":"Feature"},
	{"geometry":{"coordinates":[25.738145,62.237078],"type":"Point"},"properties":{"osm_id":"4740022268","tag":{"amenity":"waste_basket"}},"type":"Feature"},
	{"geometry":{"coordinates":[25.737885,62.236945],"type":"Point"},"properties":{"osm_id":"4740022269","tag":{"amenity":"waste_basket"}},"type":"Feature"},
	{"geometry":{"coordinates":[25.734913,62.230183],"type":"Point"},"properties":{"osm_id":"4745982610","tag":{"amenity":"waste_basket"}},"type":"Feature"},
	{"geometry":{"coordinates":[25.733252,62.229503],"type":"Point"},"properties":{"osm_id":"4745982612","tag":{"amenity":"waste_basket"}},"type":"Feature"},
	{"geometry":{"coordinates":[25.731805,62.229188],"type":"Point"},"properties":{"osm_id":"4745982614","tag":{"amenity":"waste_basket"}},"type":"Feature"},
	{"geometry":{"coordinates":[25.731559,62.229273],"type":"Point"},"properties":{"osm_id":"4745982616","tag":{"amenity":"waste_basket"}},"type":"Feature"},
	{"geometry":{"coordinates":[25.730991,62.229189],"type":"Point"},"properties":{"osm_id":"4745982617","tag":{"amenity":"waste_basket"}},"type":"Feature"},
	{"geometry":{"coordinates":[25.730798,62.229166],"type":"Point"},"properties":{"osm_id":"4745984321","tag":{"amenity":"waste_basket"}},"type":"Feature"},
	{"geometry":{"coordinates":[25.747631,62.242694],"type":"Point"},"properties":{"osm_id":"5060848792","tag":{"amenity":"waste_basket"}},"type":"Feature"},
	{"geometry":{"coordinates":[25.744623,62.239977],"type":"Point"},"properties":{"osm_id":"6638778690","tag":{"amenity":"waste_basket"}},"type":"Feature"},
	{"geometry":{"coordinates":[25.696374,62.255825],"type":"Point"},"properties":{"osm_id":"7606217014","tag":{"amenity":"waste_disposal"}},"type":"Feature"},
	{"geometry":{"coordinates":[25.709857,62.248622],"type":"Point"},"properties":{"osm_id":"7690151474","tag":{"amenity":"recycling","recycling_type":"container"}},"type":"Feature"},
	{"geometry":{"coordinates":[25.709853,62.248632],"type":"Point"},"properties":{"osm_id":"7690151475","tag":{"amenity":"recycling","recycling_type":"container"}},"type":"Feature"},
	{"geometry":{"coordinates":[25.709849,62.248641],"type":"Point"},"properties":{"osm_id":"7690151476","tag":{"amenity":"recycling","recycling_type":"centre"}},"type":"Feature"},
	{"geometry":{"coordinates":[25.709912,62.248654],"type":"Point"},"properties":{"osm_id":"7690151477","tag":{"amenity":"recycling","recycling_type":"centre"}},"type":"Feature"},
	{"geometry":{"coordinates":[25.709932,62.248653],"type":"Point"},"properties":{"osm_id":"7690151478","tag":{"amenity":"recycling","recycling_type":"centre"}},"type":"Feature"},
	{"geometry":{"coordinates":[25.709954,62.248652],"type":"Point"},"properties":{"osm_id":"7690151479","tag":{"amenity":"recycling","recycling_type":"centre"}},"type":"Feature"},
	{"geometry":{"coordinates":[25.709999,62.248616],"type":"Point"},"properties":{"osm_id":"7690151480","tag":{"amenity":"recycling","recycling_type":"centre"}},"type":"Feature"},
	{"geometry":{"coordinates":[25.710011,62.248634],"type":"Point"},"properties":{"osm_id":"7690151481","tag":{"amenity":"recycling","recycling_type":"centre"}},"type":"Feature"},
	{"geometry":{"coordinates":[25.709985,62.248648],"type":"Point"},"properties":{"osm_id":"7690151482","tag":{"amenity":"recycling","recycling_type":"centre"}},"type":"Feature"}
]
}
