{
"type": "FeatureCollection",
"features": [
	{"geometry":{"coordinates":[-77.446312,38.860245],"type":"Point"},"properties":{"osm_id":"5154570140","tag":{"amenity":"waste_basket","waste":"dog_excrement"}},"type":"Feature"},
	{"geometry":{"coordinates":[-77.445823,38.860206],"type":"Point"},"properties":{"osm_id":"5154570141","tag":{"amenity":"waste_basket","waste":"dog_excrement"}},"type":"Feature"},
	{"geometry":{"coordinates":[-77.47121,38.833139],"type":"Point"},"properties":{"osm_id":"7879578482","tag":{"amenity":"waste_disposal"}},"type":"Feature"},
	{"geometry":{"coordinates":[-77.471201,38.833107],"type":"Point"},"properties":{"osm_id":"7879578483","tag":{"amenity":"waste_disposal"}},"type":"Feature"},
	{"geometry":{"coordinates":[-77.464467,38.851595],"type":"Point"},"properties":{"osm_id":"8742959510","tag":{"amenity":"waste_basket","colour":"green","covered":"no","waste":"trash"}},"type":"Feature"},
	{"geometry":{"coordinates":[-77.464114,38.851411],"type":"Point"},"properties":{"osm_id":"8742959511","tag":{"amenity":"waste_basket","colour":"green","covered":"no","waste":"trash"}},"type":"Feature"},
	{"geometry":{"coordinates":[-77.466185,38.88602],"type":"Point"},"properties":{"osm_id":"9023096091","tag":{"amenity":"waste_basket"}},"type":"Feature"},
	{"geometry":{"coordinates":[-77.464251,38.885965],"type":"Point"},"properties":{"osm_id":"9023096131","tag":{"amenity":"waste_basket"}},"type":"Feature"},
	{"geometry":{"coordinates":[-77.464309,38.886145],"type":"Point"},"properties":{"osm_id":"9023096132","tag":{"amenity":"waste_basket"}},"type":"Feature"},
	{"geometry":{"coordinates":[-77.464124,38.885715],"type":"Point"},"properties":{"osm_id":"9023096134","tag":{"amenity":"waste_basket"}},"type":"Feature"}
]
}
