{
"type": "FeatureCollection",
"features": [
	{"geometry":{"coordinates":[-77.456136,37.524634],"type":"Point"},"properties":{"osm_id":"3873414485","tag":{"amenity":"waste_basket"}},"type":"Feature"},
	{"geometry":{"coordinates":[-77.456111,37.524635],"type":"Point"},"properties":{"osm_id":"3873415507","tag":{"amenity":"recycling"}},"type":"Feature"},
	{"geometry":{"coordinates":[-77.455664,37.529201],"type":"Point"},"properties":{"osm_id":"4584290793","tag":{"amenity":"waste_basket"}},"type":"Feature"},
	{"geometry":{"coordinates":[-77.45591,37.528941],"type":"Point"},"properties":{"osm_id":"4584290795","tag":{"amenity":"waste_basket"}},"type":"Feature"},
	{"geometry":{"coordinates":[-77.450299,37.531408],"type":"Point"},"properties":{"osm_id":"4584296703","tag":{"amenity":"recycling"}},"type":"Feature"},
	{"geometry":{"coordinates":[-77.454732,37.529657],"type":"Point"},"properties":{"osm_id":"4584305992","tag":{"amenity":"waste_basket"}},"type":"Feature"},
	{"geometry":{"coordinates":[-77.454314,37.529849],"type":"Point"},"properties":{"osm_id":"4584325096","tag":{"amenity":"recycling"}},"type":"Feature"},
	{"geometry":{"coordinates":[-77.451297,37.530597],"type":"Point"},"properties":{"osm_id":"4584329089","tag":{"amenity":"recycling"}},"type":"Feature"},
	{"geometry":{"coordinates":[-77.457138,37.527811],"type":"Point"},"properties":{"osm_id":"4584375490","tag":{"amenity":"waste_basket"}},"type":"Feature"},
	{"geometry":{"coordinates":[-77.456968,37.527616],"type":"Point"},"properties":{"osm_id":"4584406090","tag":{"amenity":"waste_basket"}},"type":"Feature"},
	{"geometry":{"coordinates":[-77.456848,37.527305],"type":"Point"},"properties":{"osm_id":"4584406489","tag":{"amenity":"waste_basket"}},"type":"Feature"},
	{"geometry":{"coordinates":[-77.48341,37.540715],"type":"Point"},"properties":{"osm_id":"5126165312","tag":{"amenity":"waste_basket"}},"type":"Feature"},
	{"geometry":{"coordinates":[-77.480333,37.548271],"type":"Point"},"properties":{"osm_id":"5126243757","tag":{"amenity":"waste_basket"}},"type":"Feature"},
	{"geometry":{"coordinates":[-77.482515,37.540855],"type":"Point"},"properties":{"osm_id":"5126458411","tag":{"amenity":"waste_basket"}},"type":"Feature"},
	{"geometry":{"coordinates":[-77.483456,37.541421],"type":"Point"},"properties":{"osm_id":"5126458412","tag":{"amenity":"waste_basket"}},"type":"Feature"},
	{"geometry":{"coordinates":[-77.482973,37.541263],"type":"Point"},"properties":{"osm_id":"5126458413","tag":{"amenity":"waste_basket"}},"type":"Feature"},
	{"geometry":{"coordinates":[-77.48492,37.540417],"type":"Point"},"properties":{"osm_id":"5127037064","tag":{"amenity":"waste_basket"}},"type":"Feature"},
	{"geometry":{"coordinates":[-77.483538,37.541061],"type":"Point"},"properties":{"osm_id":"5127037068","tag":{"amenity":"waste_basket"}},"type":"Feature"},
	{"geometry":{"coordinates":[-77.478154,37.544313],"type":"Point"},"properties":{"osm_id":"5127037069","tag":{"amenity":"waste_basket"}},"type":"Feature"},
	{"geometry":{"coordinates":[-77.478119,37.544275],"type":"Point"},"properties":{"osm_id":"5127037070","tag":{"amenity":"waste_basket"}},"type":"Feature"},
	{"geometry":{"coordinates":[-77.472263,37.544384],"type":"Point"},"properties":{"osm_id":"5418690390","tag":{"amenity":"waste_basket","waste":"trash"}},"type":"Feature"},
	{"geometry":{"coordinates":[-77.471765,37.54364],"type":"Point"},"properties":{"osm_id":"5418690391","tag":{"amenity":"waste_basket","waste":"trash"}},"type":"Feature"},
	{"geometry":{"coordinates":[-77.475533,37.533963],"type":"Point"},"properties":{"osm_id":"5715959771","tag":{"amenity":"waste_basket","waste":"trash"}},"type":"Feature"},
	{"geometry":{"coordinates":[-77.474501,37.53425],"type":"Point"},"properties":{"osm_id":"5715959784","tag":{"amenity":"waste_basket","waste":"trash"}},"type":"Feature"},
	{"geometry":{"coordinates":[-77.477596,37.547115],"type":"Point"},"properties":{"osm_id":"5748036209","tag":{"amenity":"waste_basket","waste":"trash"}},"type":"Feature"},
	{"geometry":{"coordinates":[-77.477,37.548086],"type":"Point"},"properties":{"osm_id":"5748036216","tag":{"amenity":"waste_basket","waste":"trash"}},"type":"Feature"},
	{"geometry":{"coordinates":[-77.476164,37.547934],"type":"Point"},"properties":{"osm_id":"5748036217","tag":{"amenity":"waste_basket","waste":"trash"}},"type":"Feature"},
	{"geometry":{"coordinates":[-77.475488,37.547654],"type":"Point"},"properties":{"osm_id":"5748036219","tag":{"amenity":"waste_basket","waste":"trash"}},"type":"Feature"},
	{"geometry":{"coordinates":[-77.474943,37.547258],"type":"Point"},"properties":{"osm_id":"5748036220","tag":{"amenity":"waste_basket","waste":"dog_excrement"}},"type":"Feature"},
	{"geometry":{"coordinates":[-77.4751,37.546872],"type":"Point"},"properties":{"osm_id":"5748037223","tag":{"amenity":"waste_basket","waste":"trash"}},"type":"Feature"},
	{"geometry":{"coordinates":[-77.475278,37.54657],"type":"Point"},"properties":{"osm_id":"5748037224","tag":{"amenity":"waste_basket","waste":"trash"}},"type":"Feature"},
	{"geometry":{"coordinates":[-77.475376,37.546403],"type":"Point"},"properties":{"osm_id":"5748037226","tag":{"amenity":"waste_basket","waste":"trash"}},"type":"Feature"},
	{"geometry":{"coordinates":[-77.481885,37.543375],"type":"Point"},"properties":{"osm_id":"5748037228","tag":{"amenity":"waste_basket","waste":"trash"}},"type":"Feature"},
	{"geometry":{"coordinates":[-77.470828,37.533019],"type":"Point"},"properties":{"osm_id":"5837219603","tag":{"amenity":"waste_basket","waste":"trash"}},"type":"Feature"},
	{"geometry":{"coordinates":[-77.473142,37.538346],"type":"Point"},"properties":{"osm_id":"6618831858","tag":{"amenity":"waste_basket","waste":"trash"}},"type":"Feature"},
	{"geometry":{"coordinates":[-77.480285,37.548027],"type":"Point"},"properties":{"osm_id":"7019713568","tag":{"amenity":"waste_basket","waste":"trash"}},"type":"Feature"},
	{"geometry":{"coordinates":[-77.480266,37.548558],"type":"Point"},"properties":{"osm_id":"7019732596","tag":{"amenity":"waste_basket","waste":"trash"}},"type":"Feature"},
	{"geometry":{"coordinates":[-77.479733,37.552764],"type":"Point"},"properties":{"osm_id":"7095848083","tag":{"amenity":"waste_basket","waste":"trash"}},"type":"Feature"},
	{"geometry":{"coordinates":[-77.480237,37.55294],"type":"Point"},"properties":{"osm_id":"7095860888","tag":{"amenity":"waste_basket","waste":"trash"}},"type":"Feature"},
	{"geometry":{"coordinates":[-77.47895,37.552608],"type":"Point"},"properties":{"osm_id":"7095860907","tag":{"amenity":"recycling","recycling_type":"container"}},"type":"Feature"},
	{"geometry":{"coordinates":[-77.478956,37.552609],"type":"Point"},"properties":{"osm_id":"7095860908","tag":{"amenity":"waste_basket","waste":"trash"}},"type":"Feature"},
	{"geometry":{"coordinates":[-77.480193,37.553047],"type":"Point"},"properties":{"osm_id":"7095860911","tag":{"amenity":"waste_basket","waste":"trash"}},"type":"Feature"},
	{"geometry":{"coordinates":[-77.480423,37.553135],"type":"Point"},"properties":{"osm_id":"7095860917","tag":{"amenity":"waste_basket","waste":"trash"}},"type":"Feature"},
	{"geometry":{"coordinates":[-77.481418,37.553838],"type":"Point"},"properties":{"osm_id":"7095860920","tag":{"amenity":"waste_basket","waste":"trash"}},"type":"Feature"},
	{"geometry":{"coordinates":[-77.460768,37.547481],"type":"Point"},"properties":{"osm_id":"7160377603","tag":{"amenity":"waste_basket","waste":"trash"}},"type":"Feature"},
	{"geometry":{"coordinates":[-77.465934,37.549318],"type":"Point"},"properties":{"osm_id":"7162648815","tag":{"amenity":"waste_basket","waste":"trash"}},"type":"Feature"},
	{"geometry":{"coordinates":[-77.477524,37.544449],"type":"Point"},"properties":{"osm_id":"7684169643","tag":{"natural":"tree"}},"type":"Feature"}
]
}
