{
"type": "FeatureCollection",
"features": [
	{"geometry":{"coordinates":[30.445283,50.512952],"type":"Point"},"properties":{"name":"\u00d0\u0094\u00d1\u0083\u00d0\u00b1 \u00d0\u009a\u00d1\u0080\u00d1\u0096\u00d1\u0081\u00d1\u0082\u00d0\u00b5\u00d1\u0080\u00d0\u00b0","osm_id":"1608209403","tag":{"circumference":"5.65","genus":"Quercus","genus:en":"Oak","height":"30","leaf_cycle":"deciduous","leaf_type":"broadleaved","leisure":"nature_reserve","name:en":"Krister's Oak","name:ru":"\u00d0\u0094\u00d1\u0083\u00d0\u00b1 \u00d0\u009a\u00d1\u0080\u00d0\u00b8\u00d1\u0081\u00d1\u0082\u00d0\u00b5\u00d1\u0080\u00d0\u00b0","natural":"tree","tourism":"viewpoint"}},"type":"Feature"},
	{"geometry":{"coordinates":[30.445537,50.501725],"type":"Point"},"properties":{"name":"\u00d0\u00a1\u00d1\u0082\u00d0\u00b0\u00d1\u0080\u00d0\u00b8\u00d0\u00b9 \u00d0\u00b4\u00d1\u0083\u00d0\u00b1","osm_id":"2883020597","tag":{"denotation":"natural_monument","name:en":"Old oak","name:ru":"C\u00d1\u0082\u00d0\u00b0\u00d1\u0080\u00d1\u008b\u00d0\u00b9 \u00d0\u00b4\u00d1\u0083\u00d0\u00b1","name:uk":"\u00d0\u00a1\u00d1\u0082\u00d0\u00b0\u00d1\u0080\u00d0\u00b8\u00d0\u00b9 \u00d0\u00b4\u00d1\u0083\u00d0\u00b1","natural":"tree","tourism":"attraction"}},"type":"Feature"},
	{"geometry":{"coordinates":[30.431628,50.482812],"type":"Point"},"properties":{"osm_id":"3749868328","tag":{"natural":"tree"}},"type":"Feature"},
	{"geometry":{"coordinates":[30.452692,50.47082],"type":"Point"},"properties":{"osm_id":"4226863904","tag":{"leaf_cycle":"deciduous","leaf_type":"broadleaved","natural":"tree"}},"type":"Feature"},
	{"geometry":{"coordinates":[30.452853,50.470832],"type":"Point"},"properties":{"osm_id":"4226863905","tag":{"leaf_cycle":"deciduous","leaf_type":"broadleaved","natural":"tree"}},"type":"Feature"},
	{"geometry":{"coordinates":[30.452641,50.470848],"type":"Point"},"properties":{"osm_id":"4226863906","tag":{"leaf_cycle":"deciduous","leaf_type":"broadleaved","natural":"tree"}},"type":"Feature"},
	{"geometry":{"coordinates":[30.45366,50.470852],"type":"Point"},"properties":{"osm_id":"4226863907","tag":{"leaf_cycle":"deciduous","leaf_type":"broadleaved","natural":"tree"}},"type":"Feature"},
	{"geometry":{"coordinates":[30.453554,50.470864],"type":"Point"},"properties":{"osm_id":"4226863908","tag":{"leaf_cycle":"deciduous","leaf_type":"broadleaved","natural":"tree"}},"type":"Feature"},
	{"geometry":{"coordinates":[30.452616,50.47091],"type":"Point"},"properties":{"osm_id":"4226863909","tag":{"leaf_cycle":"deciduous","leaf_type":"broadleaved","natural":"tree"}},"type":"Feature"},
	{"geometry":{"coordinates":[30.452621,50.471104],"type":"Point"},"properties":{"osm_id":"4226863910","tag":{"leaf_cycle":"deciduous","leaf_type":"broadleaved","natural":"tree"}},"type":"Feature"},
	{"geometry":{"coordinates":[30.452639,50.471224],"type":"Point"},"properties":{"osm_id":"4226863911","tag":{"leaf_cycle":"deciduous","leaf_type":"broadleaved","natural":"tree"}},"type":"Feature"},
	{"geometry":{"coordinates":[30.453025,50.471395],"type":"Point"},"properties":{"osm_id":"4226863912","tag":{"leaf_cycle":"deciduous","leaf_type":"broadleaved","natural":"tree"}},"type":"Feature"},
	{"geometry":{"coordinates":[30.45273,50.471475],"type":"Point"},"properties":{"osm_id":"4226863913","tag":{"leaf_cycle":"deciduous","leaf_type":"broadleaved","natural":"tree"}},"type":"Feature"},
	{"geometry":{"coordinates":[30.453713,50.47148],"type":"Point"},"properties":{"osm_id":"4226863914","tag":{"leaf_cycle":"deciduous","leaf_type":"broadleaved","natural":"tree"}},"type":"Feature"},
	{"geometry":{"coordinates":[30.453463,50.471504],"type":"Point"},"properties":{"osm_id":"4226863915","tag":{"leaf_cycle":"deciduous","leaf_type":"broadleaved","natural":"tree"}},"type":"Feature"},
	{"geometry":{"coordinates":[30.453293,50.471506],"type":"Point"},"properties":{"osm_id":"4226863916","tag":{"leaf_cycle":"deciduous","leaf_type":"broadleaved","natural":"tree"}},"type":"Feature"},
	{"geometry":{"coordinates":[30.453594,50.471511],"type":"Point"},"properties":{"osm_id":"4226863917","tag":{"leaf_cycle":"deciduous","leaf_type":"broadleaved","natural":"tree"}},"type":"Feature"},
	{"geometry":{"coordinates":[30.45275,50.471536],"type":"Point"},"properties":{"osm_id":"4226863918","tag":{"leaf_cycle":"deciduous","leaf_type":"broadleaved","natural":"tree"}},"type":"Feature"},
	{"geometry":{"coordinates":[30.452757,50.471588],"type":"Point"},"properties":{"osm_id":"4226863919","tag":{"leaf_cycle":"deciduous","leaf_type":"broadleaved","natural":"tree"}},"type":"Feature"},
	{"geometry":{"coordinates":[30.452861,50.471639],"type":"Point"},"properties":{"osm_id":"4226863920","tag":{"leaf_cycle":"deciduous","leaf_type":"broadleaved","natural":"tree"}},"type":"Feature"},
	{"geometry":{"coordinates":[30.452962,50.471652],"type":"Point"},"properties":{"osm_id":"4226863921","tag":{"leaf_cycle":"deciduous","leaf_type":"broadleaved","natural":"tree"}},"type":"Feature"},
	{"geometry":{"coordinates":[30.453822,50.471747],"type":"Point"},"properties":{"osm_id":"4226863922","tag":{"leaf_cycle":"deciduous","leaf_type":"broadleaved","natural":"tree"}},"type":"Feature"},
	{"geometry":{"coordinates":[30.454247,50.471771],"type":"Point"},"properties":{"osm_id":"4226863923","tag":{"leaf_cycle":"deciduous","leaf_type":"broadleaved","natural":"tree"}},"type":"Feature"},
	{"geometry":{"coordinates":[30.42301,50.482821],"type":"Point"},"properties":{"osm_id":"4391396777","tag":{"natural":"tree"}},"type":"Feature"},
	{"geometry":{"coordinates":[30.423043,50.48296],"type":"Point"},"properties":{"osm_id":"4391397604","tag":{"natural":"tree"}},"type":"Feature"},
	{"geometry":{"coordinates":[30.420895,50.483041],"type":"Point"},"properties":{"osm_id":"4391397618","tag":{"leaf_type":"needleleaved","natural":"tree"}},"type":"Feature"},
	{"geometry":{"coordinates":[30.420996,50.483059],"type":"Point"},"properties":{"osm_id":"4391397620","tag":{"leaf_type":"needleleaved","natural":"tree"}},"type":"Feature"},
	{"geometry":{"coordinates":[30.421075,50.48309],"type":"Point"},"properties":{"osm_id":"4391397623","tag":{"leaf_type":"needleleaved","natural":"tree"}},"type":"Feature"},
	{"geometry":{"coordinates":[30.421335,50.483116],"type":"Point"},"properties":{"osm_id":"4391397629","tag":{"leaf_type":"broadleaved","natural":"tree"}},"type":"Feature"},
	{"geometry":{"coordinates":[30.42098,50.483127],"type":"Point"},"properties":{"osm_id":"4391397630","tag":{"leaf_type":"needleleaved","natural":"tree"}},"type":"Feature"},
	{"geometry":{"coordinates":[30.421152,50.483128],"type":"Point"},"properties":{"osm_id":"4391397631","tag":{"leaf_type":"broadleaved","natural":"tree"}},"type":"Feature"},
	{"geometry":{"coordinates":[30.421283,50.483133],"type":"Point"},"properties":{"osm_id":"4391397632","tag":{"leaf_type":"broadleaved","natural":"tree"}},"type":"Feature"},
	{"geometry":{"coordinates":[30.421417,50.483138],"type":"Point"},"properties":{"osm_id":"4391397633","tag":{"leaf_type":"broadleaved","natural":"tree"}},"type":"Feature"},
	{"geometry":{"coordinates":[30.421384,50.483147],"type":"Point"},"properties":{"osm_id":"4391397634","tag":{"leaf_type":"broadleaved","natural":"tree"}},"type":"Feature"},
	{"geometry":{"coordinates":[30.421134,50.483164],"type":"Point"},"properties":{"osm_id":"4391397640","tag":{"leaf_type":"broadleaved","natural":"tree"}},"type":"Feature"},
	{"geometry":{"coordinates":[30.421194,50.483169],"type":"Point"},"properties":{"osm_id":"4391397643","tag":{"leaf_type":"broadleaved","natural":"tree"}},"type":"Feature"},
	{"geometry":{"coordinates":[30.421056,50.483175],"type":"Point"},"properties":{"osm_id":"4391397645","tag":{"leaf_type":"needleleaved","natural":"tree"}},"type":"Feature"},
	{"geometry":{"coordinates":[30.421402,50.483178],"type":"Point"},"properties":{"osm_id":"4391397646","tag":{"leaf_type":"broadleaved","natural":"tree"}},"type":"Feature"},
	{"geometry":{"coordinates":[30.421209,50.483193],"type":"Point"},"properties":{"osm_id":"4391397649","tag":{"leaf_type":"broadleaved","natural":"tree"}},"type":"Feature"},
	{"geometry":{"coordinates":[30.421111,50.483199],"type":"Point"},"properties":{"osm_id":"4391397651","tag":{"leaf_type":"broadleaved","natural":"tree"}},"type":"Feature"},
	{"geometry":{"coordinates":[30.421243,50.483201],"type":"Point"},"properties":{"osm_id":"4391397653","tag":{"leaf_type":"broadleaved","natural":"tree"}},"type":"Feature"},
	{"geometry":{"coordinates":[30.421491,50.483204],"type":"Point"},"properties":{"osm_id":"4391397655","tag":{"leaf_type":"broadleaved","natural":"tree"}},"type":"Feature"},
	{"geometry":{"coordinates":[30.421431,50.483209],"type":"Point"},"properties":{"osm_id":"4391397656","tag":{"leaf_type":"broadleaved","natural":"tree"}},"type":"Feature"},
	{"geometry":{"coordinates":[30.421199,50.48322],"type":"Point"},"properties":{"osm_id":"4391397657","tag":{"leaf_type":"broadleaved","natural":"tree"}},"type":"Feature"},
	{"geometry":{"coordinates":[30.421237,50.483221],"type":"Point"},"properties":{"osm_id":"4391397658","tag":{"leaf_type":"broadleaved","natural":"tree"}},"type":"Feature"},
	{"geometry":{"coordinates":[30.42113,50.483223],"type":"Point"},"properties":{"osm_id":"4391397659","tag":{"leaf_type":"broadleaved","natural":"tree"}},"type":"Feature"},
	{"geometry":{"coordinates":[30.421351,50.483223],"type":"Point"},"properties":{"osm_id":"4391397660","tag":{"leaf_type":"broadleaved","natural":"tree"}},"type":"Feature"},
	{"geometry":{"coordinates":[30.421397,50.483226],"type":"Point"},"properties":{"osm_id":"4391397661","tag":{"leaf_type":"broadleaved","natural":"tree"}},"type":"Feature"},
	{"geometry":{"coordinates":[30.421165,50.483227],"type":"Point"},"properties":{"osm_id":"4391397662","tag":{"leaf_type":"broadleaved","natural":"tree"}},"type":"Feature"},
	{"geometry":{"coordinates":[30.421256,50.483228],"type":"Point"},"properties":{"osm_id":"4391397663","tag":{"leaf_type":"broadleaved","natural":"tree"}},"type":"Feature"},
	{"geometry":{"coordinates":[30.421329,50.483232],"type":"Point"},"properties":{"osm_id":"4391397664","tag":{"leaf_type":"broadleaved","natural":"tree"}},"type":"Feature"},
	{"geometry":{"coordinates":[30.421437,50.483232],"type":"Point"},"properties":{"osm_id":"4391397665","tag":{"leaf_type":"broadleaved","natural":"tree"}},"type":"Feature"},
	{"geometry":{"coordinates":[30.421294,50.483233],"type":"Point"},"properties":{"osm_id":"4391397666","tag":{"leaf_type":"broadleaved","natural":"tree"}},"type":"Feature"},
	{"geometry":{"coordinates":[30.421468,50.48324],"type":"Point"},"properties":{"osm_id":"4391397668","tag":{"leaf_type":"broadleaved","natural":"tree"}},"type":"Feature"},
	{"geometry":{"coordinates":[30.421359,50.483243],"type":"Point"},"properties":{"osm_id":"4391397669","tag":{"leaf_type":"broadleaved","natural":"tree"}},"type":"Feature"},
	{"geometry":{"coordinates":[30.421406,50.483247],"type":"Point"},"properties":{"osm_id":"4391397670","tag":{"leaf_type":"broadleaved","natural":"tree"}},"type":"Feature"},
	{"geometry":{"coordinates":[30.42142,50.483268],"type":"Point"},"properties":{"osm_id":"4391397671","tag":{"leaf_type":"broadleaved","natural":"tree"}},"type":"Feature"},
	{"geometry":{"coordinates":[30.421452,50.483271],"type":"Point"},"properties":{"osm_id":"4391397672","tag":{"leaf_type":"broadleaved","natural":"tree"}},"type":"Feature"},
	{"geometry":{"coordinates":[30.421483,50.483271],"type":"Point"},"properties":{"osm_id":"4391397673","tag":{"leaf_type":"broadleaved","natural":"tree"}},"type":"Feature"},
	{"geometry":{"coordinates":[30.420891,50.483104],"type":"Point"},"properties":{"osm_id":"4393191365","tag":{"leaf_type":"needleleaved","natural":"tree"}},"type":"Feature"},
	{"geometry":{"coordinates":[30.420807,50.48317],"type":"Point"},"properties":{"osm_id":"4393191366","tag":{"leaf_type":"needleleaved","natural":"tree"}},"type":"Feature"},
	{"geometry":{"coordinates":[30.417061,50.46993],"type":"Point"},"properties":{"osm_id":"4398198864","tag":{"natural":"tree"}},"type":"Feature"},
	{"geometry":{"coordinates":[30.415774,50.469966],"type":"Point"},"properties":{"osm_id":"4398198865","tag":{"natural":"tree"}},"type":"Feature"},
	{"geometry":{"coordinates":[30.415685,50.469971],"type":"Point"},"properties":{"osm_id":"4398198866","tag":{"natural":"tree"}},"type":"Feature"},
	{"geometry":{"coordinates":[30.415532,50.469983],"type":"Point"},"properties":{"osm_id":"4398198867","tag":{"natural":"tree"}},"type":"Feature"},
	{"geometry":{"coordinates":[30.417222,50.469988],"type":"Point"},"properties":{"osm_id":"4398198868","tag":{"natural":"tree"}},"type":"Feature"},
	{"geometry":{"coordinates":[30.415379,50.470003],"type":"Point"},"properties":{"osm_id":"4398198870","tag":{"natural":"tree"}},"type":"Feature"},
	{"geometry":{"coordinates":[30.415226,50.470005],"type":"Point"},"properties":{"osm_id":"4398198871","tag":{"natural":"tree"}},"type":"Feature"},
	{"geometry":{"coordinates":[30.415666,50.470015],"type":"Point"},"properties":{"osm_id":"4398198872","tag":{"natural":"tree"}},"type":"Feature"},
	{"geometry":{"coordinates":[30.415465,50.470025],"type":"Point"},"properties":{"osm_id":"4398198873","tag":{"natural":"tree"}},"type":"Feature"},
	{"geometry":{"coordinates":[30.415758,50.470032],"type":"Point"},"properties":{"osm_id":"4398198874","tag":{"natural":"tree"}},"type":"Feature"},
	{"geometry":{"coordinates":[30.417142,50.470032],"type":"Point"},"properties":{"osm_id":"4398198875","tag":{"natural":"tree"}},"type":"Feature"},
	{"geometry":{"coordinates":[30.415755,50.47008],"type":"Point"},"properties":{"osm_id":"4398198878","tag":{"natural":"tree"}},"type":"Feature"},
	{"geometry":{"coordinates":[30.41554,50.470082],"type":"Point"},"properties":{"osm_id":"4398198879","tag":{"natural":"tree"}},"type":"Feature"},
	{"geometry":{"coordinates":[30.415653,50.470083],"type":"Point"},"properties":{"osm_id":"4398198880","tag":{"natural":"tree"}},"type":"Feature"},
	{"geometry":{"coordinates":[30.417402,50.47009],"type":"Point"},"properties":{"osm_id":"4398198881","tag":{"natural":"tree"}},"type":"Feature"},
	{"geometry":{"coordinates":[30.417045,50.470094],"type":"Point"},"properties":{"osm_id":"4398198882","tag":{"natural":"tree"}},"type":"Feature"},
	{"geometry":{"coordinates":[30.41686,50.470104],"type":"Point"},"properties":{"osm_id":"4398198883","tag":{"natural":"tree"}},"type":"Feature"},
	{"geometry":{"coordinates":[30.41546,50.470107],"type":"Point"},"properties":{"osm_id":"4398198884","tag":{"natural":"tree"}},"type":"Feature"},
	{"geometry":{"coordinates":[30.417313,50.470131],"type":"Point"},"properties":{"osm_id":"4398198885","tag":{"natural":"tree"}},"type":"Feature"},
	{"geometry":{"coordinates":[30.415232,50.470141],"type":"Point"},"properties":{"osm_id":"4398198887","tag":{"natural":"tree"}},"type":"Feature"},
	{"geometry":{"coordinates":[30.416334,50.470145],"type":"Point"},"properties":{"osm_id":"4398198888","tag":{"natural":"tree"}},"type":"Feature"},
	{"geometry":{"coordinates":[30.41645,50.470145],"type":"Point"},"properties":{"osm_id":"4398199189","tag":{"natural":"tree"}},"type":"Feature"},
	{"geometry":{"coordinates":[30.417249,50.470147],"type":"Point"},"properties":{"osm_id":"4398199190","tag":{"natural":"tree"}},"type":"Feature"},
	{"geometry":{"coordinates":[30.415806,50.47015],"type":"Point"},"properties":{"osm_id":"4398199191","tag":{"natural":"tree"}},"type":"Feature"},
	{"geometry":{"coordinates":[30.416653,50.47015],"type":"Point"},"properties":{"osm_id":"4398199193","tag":{"natural":"tree"}},"type":"Feature"},
	{"geometry":{"coordinates":[30.416895,50.47015],"type":"Point"},"properties":{"osm_id":"4398199194","tag":{"natural":"tree"}},"type":"Feature"},
	{"geometry":{"coordinates":[30.416739,50.470153],"type":"Point"},"properties":{"osm_id":"4398199195","tag":{"natural":"tree"}},"type":"Feature"},
	{"geometry":{"coordinates":[30.417407,50.470169],"type":"Point"},"properties":{"osm_id":"4398199196","tag":{"natural":"tree"}},"type":"Feature"},
	{"geometry":{"coordinates":[30.416559,50.470194],"type":"Point"},"properties":{"osm_id":"4398199197","tag":{"natural":"tree"}},"type":"Feature"},
	{"geometry":{"coordinates":[30.417311,50.470194],"type":"Point"},"properties":{"osm_id":"4398199198","tag":{"natural":"tree"}},"type":"Feature"},
	{"geometry":{"coordinates":[30.416407,50.470205],"type":"Point"},"properties":{"osm_id":"4398199199","tag":{"natural":"tree"}},"type":"Feature"},
	{"geometry":{"coordinates":[30.417155,50.470218],"type":"Point"},"properties":{"osm_id":"4398199200","tag":{"natural":"tree"}},"type":"Feature"},
	{"geometry":{"coordinates":[30.415229,50.470234],"type":"Point"},"properties":{"osm_id":"4398199201","tag":{"natural":"tree"}},"type":"Feature"},
	{"geometry":{"coordinates":[30.416678,50.47024],"type":"Point"},"properties":{"osm_id":"4398199202","tag":{"natural":"tree"}},"type":"Feature"},
	{"geometry":{"coordinates":[30.415744,50.470244],"type":"Point"},"properties":{"osm_id":"4398199204","tag":{"natural":"tree"}},"type":"Feature"},
	{"geometry":{"coordinates":[30.416307,50.470249],"type":"Point"},"properties":{"osm_id":"4398199205","tag":{"natural":"tree"}},"type":"Feature"},
	{"geometry":{"coordinates":[30.416157,50.470256],"type":"Point"},"properties":{"osm_id":"4398199207","tag":{"natural":"tree"}},"type":"Feature"},
	{"geometry":{"coordinates":[30.417174,50.470263],"type":"Point"},"properties":{"osm_id":"4398199208","tag":{"natural":"tree"}},"type":"Feature"},
	{"geometry":{"coordinates":[30.41742,50.470281],"type":"Point"},"properties":{"osm_id":"4398199209","tag":{"natural":"tree"}},"type":"Feature"},
	{"geometry":{"coordinates":[30.416146,50.470305],"type":"Point"},"properties":{"osm_id":"4398199210","tag":{"natural":"tree"}},"type":"Feature"},
	{"geometry":{"coordinates":[30.417061,50.470316],"type":"Point"},"properties":{"osm_id":"4398199211","tag":{"natural":"tree"}},"type":"Feature"},
	{"geometry":{"coordinates":[30.41524,50.470334],"type":"Point"},"properties":{"osm_id":"4398199212","tag":{"natural":"tree"}},"type":"Feature"},
	{"geometry":{"coordinates":[30.416425,50.470346],"type":"Point"},"properties":{"osm_id":"4398199214","tag":{"natural":"tree"}},"type":"Feature"},
	{"geometry":{"coordinates":[30.41561,50.470362],"type":"Point"},"properties":{"osm_id":"4398199215","tag":{"natural":"tree"}},"type":"Feature"},
	{"geometry":{"coordinates":[30.415819,50.470362],"type":"Point"},"properties":{"osm_id":"4398199216","tag":{"natural":"tree"}},"type":"Feature"},
	{"geometry":{"coordinates":[30.415707,50.470365],"type":"Point"},"properties":{"osm_id":"4398199217","tag":{"natural":"tree"}},"type":"Feature"},
	{"geometry":{"coordinates":[30.416696,50.470374],"type":"Point"},"properties":{"osm_id":"4398199219","tag":{"natural":"tree"}},"type":"Feature"},
	{"geometry":{"coordinates":[30.417267,50.470506],"type":"Point"},"properties":{"osm_id":"4398199220","tag":{"natural":"tree"}},"type":"Feature"},
	{"geometry":{"coordinates":[30.415428,50.470406],"type":"Point"},"properties":{"osm_id":"4398199222","tag":{"natural":"tree"}},"type":"Feature"},
	{"geometry":{"coordinates":[30.417289,50.470435],"type":"Point"},"properties":{"osm_id":"4398199223","tag":{"natural":"tree"}},"type":"Feature"},
	{"geometry":{"coordinates":[30.415446,50.470472],"type":"Point"},"properties":{"osm_id":"4398199224","tag":{"natural":"tree"}},"type":"Feature"},
	{"geometry":{"coordinates":[30.41524,50.470474],"type":"Point"},"properties":{"osm_id":"4398199225","tag":{"natural":"tree"}},"type":"Feature"},
	{"geometry":{"coordinates":[30.417388,50.470522],"type":"Point"},"properties":{"osm_id":"4398199226","tag":{"natural":"tree"}},"type":"Feature"},
	{"geometry":{"coordinates":[30.415418,50.470583],"type":"Point"},"properties":{"osm_id":"4398199227","tag":{"natural":"tree"}},"type":"Feature"},
	{"geometry":{"coordinates":[30.41661,50.470613],"type":"Point"},"properties":{"osm_id":"4398199228","tag":{"natural":"tree"}},"type":"Feature"},
	{"geometry":{"coordinates":[30.416517,50.470618],"type":"Point"},"properties":{"osm_id":"4398199229","tag":{"natural":"tree"}},"type":"Feature"},
	{"geometry":{"coordinates":[30.417517,50.47063],"type":"Point"},"properties":{"osm_id":"4398199230","tag":{"natural":"tree"}},"type":"Feature"},
	{"geometry":{"coordinates":[30.417665,50.47063],"type":"Point"},"properties":{"osm_id":"4398199231","tag":{"natural":"tree"}},"type":"Feature"},
	{"geometry":{"coordinates":[30.417437,50.470638],"type":"Point"},"properties":{"osm_id":"4398199232","tag":{"natural":"tree"}},"type":"Feature"},
	{"geometry":{"coordinates":[30.415173,50.470318],"type":"Point"},"properties":{"osm_id":"4398199233","tag":{"natural":"tree"}},"type":"Feature"},
	{"geometry":{"coordinates":[30.417589,50.470642],"type":"Point"},"properties":{"osm_id":"4398199234","tag":{"natural":"tree"}},"type":"Feature"},
	{"geometry":{"coordinates":[30.416227,50.470659],"type":"Point"},"properties":{"osm_id":"4398199235","tag":{"natural":"tree"}},"type":"Feature"},
	{"geometry":{"coordinates":[30.416377,50.470683],"type":"Point"},"properties":{"osm_id":"4398199236","tag":{"natural":"tree"}},"type":"Feature"},
	{"geometry":{"coordinates":[30.416613,50.470689],"type":"Point"},"properties":{"osm_id":"4398199237","tag":{"natural":"tree"}},"type":"Feature"},
	{"geometry":{"coordinates":[30.415806,50.470693],"type":"Point"},"properties":{"osm_id":"4398199238","tag":{"natural":"tree"}},"type":"Feature"},
	{"geometry":{"coordinates":[30.415969,50.470693],"type":"Point"},"properties":{"osm_id":"4398199239","tag":{"natural":"tree"}},"type":"Feature"},
	{"geometry":{"coordinates":[30.416286,50.470693],"type":"Point"},"properties":{"osm_id":"4398199240","tag":{"natural":"tree"}},"type":"Feature"},
	{"geometry":{"coordinates":[30.414985,50.470695],"type":"Point"},"properties":{"osm_id":"4398199241","tag":{"natural":"tree"}},"type":"Feature"},
	{"geometry":{"coordinates":[30.416114,50.470698],"type":"Point"},"properties":{"osm_id":"4398199242","tag":{"natural":"tree"}},"type":"Feature"},
	{"geometry":{"coordinates":[30.41558,50.47072],"type":"Point"},"properties":{"osm_id":"4398199243","tag":{"natural":"tree"}},"type":"Feature"},
	{"geometry":{"coordinates":[30.414945,50.470729],"type":"Point"},"properties":{"osm_id":"4398199244","tag":{"natural":"tree"}},"type":"Feature"},
	{"geometry":{"coordinates":[30.417662,50.470729],"type":"Point"},"properties":{"osm_id":"4398199245","tag":{"natural":"tree"}},"type":"Feature"},
	{"geometry":{"coordinates":[30.415127,50.470737],"type":"Point"},"properties":{"osm_id":"4398199246","tag":{"natural":"tree"}},"type":"Feature"},
	{"geometry":{"coordinates":[30.415114,50.470783],"type":"Point"},"properties":{"osm_id":"4398199249","tag":{"natural":"tree"}},"type":"Feature"},
	{"geometry":{"coordinates":[30.416906,50.470783],"type":"Point"},"properties":{"osm_id":"4398199250","tag":{"natural":"tree"}},"type":"Feature"},
	{"geometry":{"coordinates":[30.416042,50.47079],"type":"Point"},"properties":{"osm_id":"4398199251","tag":{"natural":"tree"}},"type":"Feature"},
	{"geometry":{"coordinates":[30.417667,50.470794],"type":"Point"},"properties":{"osm_id":"4398199252","tag":{"natural":"tree"}},"type":"Feature"},
	{"geometry":{"coordinates":[30.415664,50.470802],"type":"Point"},"properties":{"osm_id":"4398199253","tag":{"natural":"tree"}},"type":"Feature"},
	{"geometry":{"coordinates":[30.414942,50.470816],"type":"Point"},"properties":{"osm_id":"4398199254","tag":{"natural":"tree"}},"type":"Feature"},
	{"geometry":{"coordinates":[30.41749,50.470829],"type":"Point"},"properties":{"osm_id":"4398199255","tag":{"natural":"tree"}},"type":"Feature"},
	{"geometry":{"coordinates":[30.415559,50.470841],"type":"Point"},"properties":{"osm_id":"4398199257","tag":{"natural":"tree"}},"type":"Feature"},
	{"geometry":{"coordinates":[30.415025,50.470858],"type":"Point"},"properties":{"osm_id":"4398199258","tag":{"natural":"tree"}},"type":"Feature"},
	{"geometry":{"coordinates":[30.417678,50.470891],"type":"Point"},"properties":{"osm_id":"4398199260","tag":{"natural":"tree"}},"type":"Feature"},
	{"geometry":{"coordinates":[30.41645,50.470896],"type":"Point"},"properties":{"osm_id":"4398199261","tag":{"natural":"tree"}},"type":"Feature"},
	{"geometry":{"coordinates":[30.417474,50.470899],"type":"Point"},"properties":{"osm_id":"4398199262","tag":{"natural":"tree"}},"type":"Feature"},
	{"geometry":{"coordinates":[30.415897,50.470937],"type":"Point"},"properties":{"osm_id":"4398199265","tag":{"natural":"tree"}},"type":"Feature"},
	{"geometry":{"coordinates":[30.416023,50.470939],"type":"Point"},"properties":{"osm_id":"4398199267","tag":{"natural":"tree"}},"type":"Feature"},
	{"geometry":{"coordinates":[30.415092,50.470944],"type":"Point"},"properties":{"osm_id":"4398199268","tag":{"natural":"tree"}},"type":"Feature"},
	{"geometry":{"coordinates":[30.414937,50.470976],"type":"Point"},"properties":{"osm_id":"4398199269","tag":{"natural":"tree"}},"type":"Feature"},
	{"geometry":{"coordinates":[30.415935,50.470995],"type":"Point"},"properties":{"osm_id":"4398199270","tag":{"natural":"tree"}},"type":"Feature"},
	{"geometry":{"coordinates":[30.416141,50.470995],"type":"Point"},"properties":{"osm_id":"4398199271","tag":{"natural":"tree"}},"type":"Feature"},
	{"geometry":{"coordinates":[30.416267,50.471004],"type":"Point"},"properties":{"osm_id":"4398199272","tag":{"natural":"tree"}},"type":"Feature"},
	{"geometry":{"coordinates":[30.417675,50.471009],"type":"Point"},"properties":{"osm_id":"4398199273","tag":{"natural":"tree"}},"type":"Feature"},
	{"geometry":{"coordinates":[30.417474,50.471021],"type":"Point"},"properties":{"osm_id":"4398199274","tag":{"natural":"tree"}},"type":"Feature"},
	{"geometry":{"coordinates":[30.416973,50.471036],"type":"Point"},"properties":{"osm_id":"4398199275","tag":{"natural":"tree"}},"type":"Feature"},
	{"geometry":{"coordinates":[30.414945,50.471038],"type":"Point"},"properties":{"osm_id":"4398199276","tag":{"natural":"tree"}},"type":"Feature"},
	{"geometry":{"coordinates":[30.416358,50.471039],"type":"Point"},"properties":{"osm_id":"4398199277","tag":{"natural":"tree"}},"type":"Feature"},
	{"geometry":{"coordinates":[30.415543,50.47106],"type":"Point"},"properties":{"osm_id":"4398199278","tag":{"natural":"tree"}},"type":"Feature"},
	{"geometry":{"coordinates":[30.416444,50.471062],"type":"Point"},"properties":{"osm_id":"4398199279","tag":{"natural":"tree"}},"type":"Feature"},
	{"geometry":{"coordinates":[30.416219,50.471075],"type":"Point"},"properties":{"osm_id":"4398199280","tag":{"natural":"tree"}},"type":"Feature"},
	{"geometry":{"coordinates":[30.417608,50.471075],"type":"Point"},"properties":{"osm_id":"4398199281","tag":{"natural":"tree"}},"type":"Feature"},
	{"geometry":{"coordinates":[30.415087,50.471079],"type":"Point"},"properties":{"osm_id":"4398199282","tag":{"natural":"tree"}},"type":"Feature"},
	{"geometry":{"coordinates":[30.416554,50.471085],"type":"Point"},"properties":{"osm_id":"4398199283","tag":{"natural":"tree"}},"type":"Feature"},
	{"geometry":{"coordinates":[30.415876,50.471114],"type":"Point"},"properties":{"osm_id":"4398199284","tag":{"natural":"tree"}},"type":"Feature"},
	{"geometry":{"coordinates":[30.414926,50.471154],"type":"Point"},"properties":{"osm_id":"4398199285","tag":{"natural":"tree"}},"type":"Feature"},
	{"geometry":{"coordinates":[30.415937,50.471159],"type":"Point"},"properties":{"osm_id":"4398199286","tag":{"natural":"tree"}},"type":"Feature"},
	{"geometry":{"coordinates":[30.416696,50.471159],"type":"Point"},"properties":{"osm_id":"4398199287","tag":{"natural":"tree"}},"type":"Feature"},
	{"geometry":{"coordinates":[30.415441,50.471196],"type":"Point"},"properties":{"osm_id":"4398199288","tag":{"natural":"tree"}},"type":"Feature"},
	{"geometry":{"coordinates":[30.415272,50.471219],"type":"Point"},"properties":{"osm_id":"4398199289","tag":{"natural":"tree"}},"type":"Feature"},
	{"geometry":{"coordinates":[30.417222,50.471225],"type":"Point"},"properties":{"osm_id":"4398199290","tag":{"natural":"tree"}},"type":"Feature"},
	{"geometry":{"coordinates":[30.416758,50.471244],"type":"Point"},"properties":{"osm_id":"4398199291","tag":{"natural":"tree"}},"type":"Feature"},
	{"geometry":{"coordinates":[30.417745,50.471273],"type":"Point"},"properties":{"osm_id":"4398199292","tag":{"natural":"tree"}},"type":"Feature"},
	{"geometry":{"coordinates":[30.415843,50.471277],"type":"Point"},"properties":{"osm_id":"4398199293","tag":{"natural":"tree"}},"type":"Feature"},
	{"geometry":{"coordinates":[30.416694,50.471295],"type":"Point"},"properties":{"osm_id":"4398199294","tag":{"natural":"tree"}},"type":"Feature"},
	{"geometry":{"coordinates":[30.415269,50.471313],"type":"Point"},"properties":{"osm_id":"4398199295","tag":{"natural":"tree"}},"type":"Feature"},
	{"geometry":{"coordinates":[30.41742,50.471326],"type":"Point"},"properties":{"osm_id":"4398199296","tag":{"natural":"tree"}},"type":"Feature"},
	{"geometry":{"coordinates":[30.417761,50.471345],"type":"Point"},"properties":{"osm_id":"4398199297","tag":{"natural":"tree"}},"type":"Feature"},
	{"geometry":{"coordinates":[30.417217,50.471362],"type":"Point"},"properties":{"osm_id":"4398199298","tag":{"natural":"tree"}},"type":"Feature"},
	{"geometry":{"coordinates":[30.416742,50.471379],"type":"Point"},"properties":{"osm_id":"4398199299","tag":{"natural":"tree"}},"type":"Feature"},
	{"geometry":{"coordinates":[30.415253,50.471391],"type":"Point"},"properties":{"osm_id":"4398199300","tag":{"natural":"tree"}},"type":"Feature"},
	{"geometry":{"coordinates":[30.416122,50.471405],"type":"Point"},"properties":{"osm_id":"4398199301","tag":{"natural":"tree"}},"type":"Feature"},
	{"geometry":{"coordinates":[30.416407,50.471405],"type":"Point"},"properties":{"osm_id":"4398199302","tag":{"natural":"tree"}},"type":"Feature"},
	{"geometry":{"coordinates":[30.415959,50.47141],"type":"Point"},"properties":{"osm_id":"4398199304","tag":{"natural":"tree"}},"type":"Feature"},
	{"geometry":{"coordinates":[30.417756,50.471415],"type":"Point"},"properties":{"osm_id":"4398199305","tag":{"natural":"tree"}},"type":"Feature"},
	{"geometry":{"coordinates":[30.417434,50.471418],"type":"Point"},"properties":{"osm_id":"4398199306","tag":{"natural":"tree"}},"type":"Feature"},
	{"geometry":{"coordinates":[30.416305,50.471429],"type":"Point"},"properties":{"osm_id":"4398199307","tag":{"natural":"tree"}},"type":"Feature"},
	{"geometry":{"coordinates":[30.415251,50.471451],"type":"Point"},"properties":{"osm_id":"4398199308","tag":{"natural":"tree"}},"type":"Feature"},
	{"geometry":{"coordinates":[30.416761,50.471452],"type":"Point"},"properties":{"osm_id":"4398199309","tag":{"natural":"tree"}},"type":"Feature"},
	{"geometry":{"coordinates":[30.41546,50.47148],"type":"Point"},"properties":{"osm_id":"4398199310","tag":{"natural":"tree"}},"type":"Feature"},
	{"geometry":{"coordinates":[30.417748,50.471482],"type":"Point"},"properties":{"osm_id":"4398199311","tag":{"natural":"tree"}},"type":"Feature"},
	{"geometry":{"coordinates":[30.41524,50.471505],"type":"Point"},"properties":{"osm_id":"4398199313","tag":{"natural":"tree"}},"type":"Feature"},
	{"geometry":{"coordinates":[30.416541,50.471517],"type":"Point"},"properties":{"osm_id":"4398199314","tag":{"natural":"tree"}},"type":"Feature"},
	{"geometry":{"coordinates":[30.416015,50.471522],"type":"Point"},"properties":{"osm_id":"4398199315","tag":{"natural":"tree"}},"type":"Feature"},
	{"geometry":{"coordinates":[30.416222,50.471524],"type":"Point"},"properties":{"osm_id":"4398199316","tag":{"natural":"tree"}},"type":"Feature"},
	{"geometry":{"coordinates":[30.416734,50.471526],"type":"Point"},"properties":{"osm_id":"4398199317","tag":{"natural":"tree"}},"type":"Feature"},
	{"geometry":{"coordinates":[30.415865,50.471529],"type":"Point"},"properties":{"osm_id":"4398199318","tag":{"natural":"tree"}},"type":"Feature"},
	{"geometry":{"coordinates":[30.416345,50.471533],"type":"Point"},"properties":{"osm_id":"4398199319","tag":{"natural":"tree"}},"type":"Feature"},
	{"geometry":{"coordinates":[30.417758,50.471552],"type":"Point"},"properties":{"osm_id":"4398199320","tag":{"natural":"tree"}},"type":"Feature"},
	{"geometry":{"coordinates":[30.417343,50.471563],"type":"Point"},"properties":{"osm_id":"4398199321","tag":{"natural":"tree"}},"type":"Feature"},
	{"geometry":{"coordinates":[30.416769,50.471601],"type":"Point"},"properties":{"osm_id":"4398199322","tag":{"natural":"tree"}},"type":"Feature"},
	{"geometry":{"coordinates":[30.417163,50.471608],"type":"Point"},"properties":{"osm_id":"4398199323","tag":{"natural":"tree"}},"type":"Feature"},
	{"geometry":{"coordinates":[30.417769,50.471652],"type":"Point"},"properties":{"osm_id":"4398199325","tag":{"natural":"tree"}},"type":"Feature"},
	{"geometry":{"coordinates":[30.417101,50.471666],"type":"Point"},"properties":{"osm_id":"4398199326","tag":{"natural":"tree"}},"type":"Feature"},
	{"geometry":{"coordinates":[30.415487,50.471674],"type":"Point"},"properties":{"osm_id":"4398199327","tag":{"natural":"tree"}},"type":"Feature"},
	{"geometry":{"coordinates":[30.417241,50.471676],"type":"Point"},"properties":{"osm_id":"4398199328","tag":{"natural":"tree"}},"type":"Feature"},
	{"geometry":{"coordinates":[30.415886,50.471683],"type":"Point"},"properties":{"osm_id":"4398199329","tag":{"natural":"tree"}},"type":"Feature"},
	{"geometry":{"coordinates":[30.416766,50.471717],"type":"Point"},"properties":{"osm_id":"4398199330","tag":{"natural":"tree"}},"type":"Feature"},
	{"geometry":{"coordinates":[30.417753,50.471736],"type":"Point"},"properties":{"osm_id":"4398199332","tag":{"natural":"tree"}},"type":"Feature"},
	{"geometry":{"coordinates":[30.417308,50.471743],"type":"Point"},"properties":{"osm_id":"4398199333","tag":{"natural":"tree"}},"type":"Feature"},
	{"geometry":{"coordinates":[30.415865,50.471751],"type":"Point"},"properties":{"osm_id":"4398199334","tag":{"natural":"tree"}},"type":"Feature"},
	{"geometry":{"coordinates":[30.415471,50.471763],"type":"Point"},"properties":{"osm_id":"4398199335","tag":{"natural":"tree"}},"type":"Feature"},
	{"geometry":{"coordinates":[30.41668,50.471784],"type":"Point"},"properties":{"osm_id":"4398199338","tag":{"natural":"tree"}},"type":"Feature"},
	{"geometry":{"coordinates":[30.417133,50.471784],"type":"Point"},"properties":{"osm_id":"4398199339","tag":{"natural":"tree"}},"type":"Feature"},
	{"geometry":{"coordinates":[30.41587,50.471809],"type":"Point"},"properties":{"osm_id":"4398199340","tag":{"natural":"tree"}},"type":"Feature"},
	{"geometry":{"coordinates":[30.415232,50.471813],"type":"Point"},"properties":{"osm_id":"4398199341","tag":{"natural":"tree"}},"type":"Feature"},
	{"geometry":{"coordinates":[30.417364,50.471825],"type":"Point"},"properties":{"osm_id":"4398199342","tag":{"natural":"tree"}},"type":"Feature"},
	{"geometry":{"coordinates":[30.415521,50.471864],"type":"Point"},"properties":{"osm_id":"4398199343","tag":{"natural":"tree"}},"type":"Feature"},
	{"geometry":{"coordinates":[30.415688,50.471864],"type":"Point"},"properties":{"osm_id":"4398199344","tag":{"natural":"tree"}},"type":"Feature"},
	{"geometry":{"coordinates":[30.415787,50.471864],"type":"Point"},"properties":{"osm_id":"4398199345","tag":{"natural":"tree"}},"type":"Feature"},
	{"geometry":{"coordinates":[30.414974,50.471866],"type":"Point"},"properties":{"osm_id":"4398199346","tag":{"natural":"tree"}},"type":"Feature"},
	{"geometry":{"coordinates":[30.415044,50.471866],"type":"Point"},"properties":{"osm_id":"4398199347","tag":{"natural":"tree"}},"type":"Feature"},
	{"geometry":{"coordinates":[30.415886,50.471867],"type":"Point"},"properties":{"osm_id":"4398199348","tag":{"natural":"tree"}},"type":"Feature"},
	{"geometry":{"coordinates":[30.415184,50.471872],"type":"Point"},"properties":{"osm_id":"4398199349","tag":{"natural":"tree"}},"type":"Feature"},
	{"geometry":{"coordinates":[30.417353,50.471881],"type":"Point"},"properties":{"osm_id":"4398199350","tag":{"natural":"tree"}},"type":"Feature"},
	{"geometry":{"coordinates":[30.416031,50.471891],"type":"Point"},"properties":{"osm_id":"4398199351","tag":{"natural":"tree"}},"type":"Feature"},
	{"geometry":{"coordinates":[30.416205,50.471893],"type":"Point"},"properties":{"osm_id":"4398199352","tag":{"natural":"tree"}},"type":"Feature"},
	{"geometry":{"coordinates":[30.416369,50.471895],"type":"Point"},"properties":{"osm_id":"4398199353","tag":{"natural":"tree"}},"type":"Feature"},
	{"geometry":{"coordinates":[30.46541,50.47168],"type":"Point"},"properties":{"name":"\u00d0\u009f\u00d0\u00bb\u00d0\u00b0\u00d1\u0082\u00d0\u00b0\u00d0\u00bd \u00d0\u009a\u00d0\u00b0\u00d1\u0089\u00d0\u00b5\u00d0\u00bd\u00d0\u00ba\u00d0\u00b0","osm_id":"4425713588","tag":{"natural":"tree"}},"type":"Feature"},
	{"geometry":{"coordinates":[30.470309,50.471766],"type":"Point"},"properties":{"osm_id":"4425719299","tag":{"natural":"tree"}},"type":"Feature"},
	{"geometry":{"coordinates":[30.470368,50.471774],"type":"Point"},"properties":{"osm_id":"4425719303","tag":{"natural":"tree"}},"type":"Feature"},
	{"geometry":{"coordinates":[30.470385,50.471824],"type":"Point"},"properties":{"osm_id":"4425719311","tag":{"natural":"tree"}},"type":"Feature"},
	{"geometry":{"coordinates":[30.470469,50.471864],"type":"Point"},"properties":{"osm_id":"4425719319","tag":{"natural":"tree"}},"type":"Feature"},
	{"geometry":{"coordinates":[30.470505,50.471898],"type":"Point"},"properties":{"osm_id":"4425719331","tag":{"natural":"tree"}},"type":"Feature"},
	{"geometry":{"coordinates":[30.419038,50.469731],"type":"Point"},"properties":{"osm_id":"4802650498","tag":{"leaf_type":"needleleaved","natural":"tree"}},"type":"Feature"},
	{"geometry":{"coordinates":[30.418642,50.472896],"type":"Point"},"properties":{"osm_id":"4803730517","tag":{"natural":"tree"}},"type":"Feature"},
	{"geometry":{"coordinates":[30.416526,50.472987],"type":"Point"},"properties":{"osm_id":"4803730628","tag":{"natural":"tree"}},"type":"Feature"},
	{"geometry":{"coordinates":[30.41502,50.45807],"type":"Point"},"properties":{"osm_id":"4892123134","tag":{"natural":"tree"}},"type":"Feature"},
	{"geometry":{"coordinates":[30.414964,50.457998],"type":"Point"},"properties":{"osm_id":"4892124774","tag":{"natural":"tree"}},"type":"Feature"},
	{"geometry":{"coordinates":[30.415327,50.459149],"type":"Point"},"properties":{"osm_id":"4892124801","tag":{"natural":"tree"}},"type":"Feature"},
	{"geometry":{"coordinates":[30.414994,50.457865],"type":"Point"},"properties":{"osm_id":"4892124945","tag":{"natural":"tree"}},"type":"Feature"},
	{"geometry":{"coordinates":[30.421553,50.469047],"type":"Point"},"properties":{"name":"Syretsky Oak","osm_id":"4936208378","tag":{"denotation":"natural_monument","leaf_cycle":"deciduous","leaf_type":"broadleaved","name:ru":"\u00d0\u00a1\u00d1\u008b\u00d1\u0080\u00d0\u00b5\u00d1\u0086\u00d0\u00ba\u00d0\u00b8\u00d0\u00b9 \u00d0\u00b4\u00d1\u0083\u00d0\u00b1","natural":"tree"}},"type":"Feature"},
	{"geometry":{"coordinates":[30.476856,50.485068],"type":"Point"},"properties":{"osm_id":"4941969453","tag":{"natural":"tree"}},"type":"Feature"},
	{"geometry":{"coordinates":[30.4766,50.48496],"type":"Point"},"properties":{"osm_id":"4941969989","tag":{"natural":"tree"}},"type":"Feature"},
	{"geometry":{"coordinates":[30.477131,50.485202],"type":"Point"},"properties":{"osm_id":"4941970273","tag":{"natural":"tree"}},"type":"Feature"},
	{"geometry":{"coordinates":[30.477255,50.485249],"type":"Point"},"properties":{"osm_id":"4941970543","tag":{"natural":"tree"}},"type":"Feature"},
	{"geometry":{"coordinates":[30.476534,50.484936],"type":"Point"},"properties":{"osm_id":"4941971808","tag":{"natural":"tree"}},"type":"Feature"},
	{"geometry":{"coordinates":[30.477029,50.485145],"type":"Point"},"properties":{"osm_id":"4941973195","tag":{"natural":"tree"}},"type":"Feature"},
	{"geometry":{"coordinates":[30.476729,50.485009],"type":"Point"},"properties":{"osm_id":"4941975206","tag":{"natural":"tree"}},"type":"Feature"},
	{"geometry":{"coordinates":[30.477822,50.485077],"type":"Point"},"properties":{"osm_id":"4941978309","tag":{"natural":"tree"}},"type":"Feature"},
	{"geometry":{"coordinates":[30.477807,50.48498],"type":"Point"},"properties":{"osm_id":"4941978310","tag":{"natural":"tree"}},"type":"Feature"},
	{"geometry":{"coordinates":[30.476933,50.485102],"type":"Point"},"properties":{"osm_id":"4941978312","tag":{"natural":"tree"}},"type":"Feature"},
	{"geometry":{"coordinates":[30.478677,50.48419],"type":"Point"},"properties":{"osm_id":"4942088867","tag":{"natural":"tree"}},"type":"Feature"},
	{"geometry":{"coordinates":[30.478529,50.484059],"type":"Point"},"properties":{"osm_id":"4942089666","tag":{"natural":"tree"}},"type":"Feature"},
	{"geometry":{"coordinates":[30.474749,50.48522],"type":"Point"},"properties":{"osm_id":"4942119339","tag":{"natural":"tree"}},"type":"Feature"},
	{"geometry":{"coordinates":[30.474855,50.48527],"type":"Point"},"properties":{"osm_id":"4942119340","tag":{"natural":"tree"}},"type":"Feature"},
	{"geometry":{"coordinates":[30.474922,50.485304],"type":"Point"},"properties":{"osm_id":"4942119395","tag":{"natural":"tree"}},"type":"Feature"},
	{"geometry":{"coordinates":[30.475037,50.485344],"type":"Point"},"properties":{"osm_id":"4942119723","tag":{"natural":"tree"}},"type":"Feature"},
	{"geometry":{"coordinates":[30.477811,50.483824],"type":"Point"},"properties":{"osm_id":"4942130236","tag":{"natural":"tree"}},"type":"Feature"},
	{"geometry":{"coordinates":[30.477054,50.483362],"type":"Point"},"properties":{"osm_id":"4942133158","tag":{"natural":"tree"}},"type":"Feature"},
	{"geometry":{"coordinates":[30.477432,50.483531],"type":"Point"},"properties":{"osm_id":"4942133498","tag":{"natural":"tree"}},"type":"Feature"},
	{"geometry":{"coordinates":[30.455516,50.501884],"type":"Point"},"properties":{"osm_id":"7871984129","tag":{"leaf_cycle":"deciduous","leaf_type":"broadleaved","natural":"tree"}},"type":"Feature"},
	{"geometry":{"coordinates":[30.455551,50.501703],"type":"Point"},"properties":{"osm_id":"7871984130","tag":{"leaf_cycle":"deciduous","leaf_type":"broadleaved","natural":"tree"}},"type":"Feature"},
	{"geometry":{"coordinates":[30.455995,50.501373],"type":"Point"},"properties":{"osm_id":"7872008595","tag":{"leaf_cycle":"deciduous","leaf_type":"broadleaved","natural":"tree"}},"type":"Feature"},
	{"geometry":{"coordinates":[30.455642,50.501601],"type":"Point"},"properties":{"osm_id":"7872008596","tag":{"leaf_cycle":"deciduous","leaf_type":"broadleaved","natural":"tree"}},"type":"Feature"},
	{"geometry":{"coordinates":[30.474648,50.471512],"type":"Point"},"properties":{"osm_id":"7899315257","tag":{"natural":"tree","species":"poplar"}},"type":"Feature"},
	{"geometry":{"coordinates":[30.476635,50.474318],"type":"Point"},"properties":{"osm_id":"7922114512","tag":{"natural":"tree","species":"white willow"}},"type":"Feature"},
	{"geometry":{"coordinates":[30.476599,50.474038],"type":"Point"},"properties":{"osm_id":"7922114513","tag":{"natural":"tree","species":"poplar"}},"type":"Feature"},
	{"geometry":{"coordinates":[30.478103,50.474889],"type":"Point"},"properties":{"osm_id":"7922129708","tag":{"natural":"tree","species":"poplar"}},"type":"Feature"},
	{"geometry":{"coordinates":[30.478463,50.474323],"type":"Point"},"properties":{"osm_id":"7922195898","tag":{"natural":"tree","species":"norway maple"}},"type":"Feature"},
	{"geometry":{"coordinates":[30.482802,50.47186],"type":"Point"},"properties":{"osm_id":"7922232690","tag":{"natural":"tree","species":"sycamore"}},"type":"Feature"},
	{"geometry":{"coordinates":[30.480343,50.473345],"type":"Point"},"properties":{"osm_id":"7922234865","tag":{"natural":"tree","species":"horse chestnut"}},"type":"Feature"},
	{"geometry":{"coordinates":[30.480232,50.473378],"type":"Point"},"properties":{"osm_id":"7922235591","tag":{"natural":"tree","species":"horse chestnut"}},"type":"Feature"},
	{"geometry":{"coordinates":[30.482748,50.471801],"type":"Point"},"properties":{"osm_id":"7922254921","tag":{"natural":"tree","species":"sycamore"}},"type":"Feature"},
	{"geometry":{"coordinates":[30.480082,50.471595],"type":"Point"},"properties":{"osm_id":"7922328222","tag":{"natural":"tree","species":"oak"}},"type":"Feature"},
	{"geometry":{"coordinates":[30.478497,50.472412],"type":"Point"},"properties":{"osm_id":"7922353679","tag":{"natural":"tree","species":"oak"}},"type":"Feature"},
	{"geometry":{"coordinates":[30.478049,50.47051],"type":"Point"},"properties":{"osm_id":"7922572897","tag":{"natural":"tree","species":"poplar"}},"type":"Feature"},
	{"geometry":{"coordinates":[30.4735,50.46919],"type":"Point"},"properties":{"osm_id":"7922716744","tag":{"natural":"tree","species":"mulberry"}},"type":"Feature"},
	{"geometry":{"coordinates":[30.469388,50.469134],"type":"Point"},"properties":{"osm_id":"7922771679","tag":{"natural":"tree","species":"horse chestnut"}},"type":"Feature"},
	{"geometry":{"coordinates":[30.45481,50.501861],"type":"Point"},"properties":{"osm_id":"7927012456","tag":{"leaf_cycle":"deciduous","leaf_type":"broadleaved","natural":"tree"}},"type":"Feature"},
	{"geometry":{"coordinates":[30.454434,50.502068],"type":"Point"},"properties":{"osm_id":"7927012457","tag":{"leaf_cycle":"deciduous","leaf_type":"broadleaved","natural":"tree"}},"type":"Feature"},
	{"geometry":{"coordinates":[30.454654,50.502113],"type":"Point"},"properties":{"osm_id":"7927012458","tag":{"leaf_cycle":"deciduous","leaf_type":"broadleaved","natural":"tree"}},"type":"Feature"},
	{"geometry":{"coordinates":[30.454551,50.502187],"type":"Point"},"properties":{"osm_id":"7927012459","tag":{"leaf_cycle":"deciduous","leaf_type":"broadleaved","natural":"tree"}},"type":"Feature"},
	{"geometry":{"coordinates":[30.486804,50.461665],"type":"Point"},"properties":{"osm_id":"7937819196","tag":{"denotation":"street","leaf_cycle":"deciduous","leaf_type":"broadleaved","natural":"tree"}},"type":"Feature"},
	{"geometry":{"coordinates":[30.486808,50.461691],"type":"Point"},"properties":{"osm_id":"7937819197","tag":{"denotation":"street","leaf_cycle":"deciduous","leaf_type":"broadleaved","natural":"tree"}},"type":"Feature"},
	{"geometry":{"coordinates":[30.486819,50.46174],"type":"Point"},"properties":{"osm_id":"7937819198","tag":{"denotation":"street","leaf_cycle":"deciduous","leaf_type":"broadleaved","natural":"tree"}},"type":"Feature"},
	{"geometry":{"coordinates":[30.486831,50.461788],"type":"Point"},"properties":{"osm_id":"7937819199","tag":{"denotation":"street","leaf_cycle":"deciduous","leaf_type":"broadleaved","natural":"tree"}},"type":"Feature"},
	{"geometry":{"coordinates":[30.48685,50.461868],"type":"Point"},"properties":{"osm_id":"7937819200","tag":{"denotation":"street","leaf_cycle":"deciduous","leaf_type":"broadleaved","natural":"tree"}},"type":"Feature"},
	{"geometry":{"coordinates":[30.486867,50.461944],"type":"Point"},"properties":{"osm_id":"7937819201","tag":{"denotation":"street","leaf_cycle":"deciduous","leaf_type":"broadleaved","natural":"tree"}},"type":"Feature"},
	{"geometry":{"coordinates":[30.486889,50.462083],"type":"Point"},"properties":{"osm_id":"7937819202","tag":{"denotation":"street","leaf_cycle":"deciduous","leaf_type":"broadleaved","natural":"tree"}},"type":"Feature"},
	{"geometry":{"coordinates":[30.454111,50.502002],"type":"Point"},"properties":{"osm_id":"7949583446","tag":{"leaf_cycle":"deciduous","leaf_type":"broadleaved","natural":"tree"}},"type":"Feature"},
	{"geometry":{"coordinates":[30.454221,50.50204],"type":"Point"},"properties":{"osm_id":"7949583447","tag":{"leaf_cycle":"deciduous","leaf_type":"broadleaved","natural":"tree"}},"type":"Feature"}
]
}
