{
"type": "FeatureCollection",
"features": [
	{"geometry":{"coordinates":[-114.462732,51.186359],"type":"Point"},"properties":{"name":"Cochrane Bottle Depot","osm_id":"256189539","tag":{"amenity":"recycling","opening_hours":"Mo-Sa 09:00-17:00","recycling_type":"centre"}},"type":"Feature"},
	{"geometry":{"coordinates":[-114.492659,51.191472],"type":"Point"},"properties":{"osm_id":"4507519503","tag":{"amenity":"waste_basket"}},"type":"Feature"},
	{"geometry":{"coordinates":[-114.507786,51.183736],"type":"Point"},"properties":{"osm_id":"4692666551","tag":{"amenity":"waste_basket"}},"type":"Feature"},
	{"geometry":{"coordinates":[-114.462356,51.21388],"type":"Point"},"properties":{"osm_id":"5267318262","tag":{"amenity":"waste_disposal"}},"type":"Feature"},
	{"geometry":{"coordinates":[-114.471622,51.187472],"type":"Point"},"properties":{"osm_id":"5423572997","tag":{"amenity":"waste_basket"}},"type":"Feature"},
	{"geometry":{"coordinates":[-114.471791,51.187598],"type":"Point"},"properties":{"osm_id":"5423572998","tag":{"amenity":"waste_basket"}},"type":"Feature"},
	{"geometry":{"coordinates":[-114.471523,51.187855],"type":"Point"},"properties":{"osm_id":"5423573000","tag":{"amenity":"waste_basket","emergency":"fire_hydrant","fire_hydrant:type":"pillar"}},"type":"Feature"},
	{"geometry":{"coordinates":[-114.470957,51.188348],"type":"Point"},"properties":{"osm_id":"5423573003","tag":{"amenity":"waste_basket"}},"type":"Feature"},
	{"geometry":{"coordinates":[-114.47417,51.189678],"type":"Point"},"properties":{"osm_id":"5423573019","tag":{"amenity":"waste_basket"}},"type":"Feature"},
	{"geometry":{"coordinates":[-114.47408,51.189534],"type":"Point"},"properties":{"osm_id":"5423573021","tag":{"amenity":"waste_basket"}},"type":"Feature"},
	{"geometry":{"coordinates":[-114.474707,51.188812],"type":"Point"},"properties":{"osm_id":"5423573027","tag":{"amenity":"waste_basket"}},"type":"Feature"},
	{"geometry":{"coordinates":[-114.475297,51.188565],"type":"Point"},"properties":{"osm_id":"5423573029","tag":{"amenity":"waste_basket"}},"type":"Feature"},
	{"geometry":{"coordinates":[-114.474578,51.188159],"type":"Point"},"properties":{"osm_id":"5423573038","tag":{"amenity":"waste_basket"}},"type":"Feature"},
	{"geometry":{"coordinates":[-114.474688,51.188339],"type":"Point"},"properties":{"osm_id":"5423573039","tag":{"amenity":"waste_basket"}},"type":"Feature"},
	{"geometry":{"coordinates":[-114.474892,51.188197],"type":"Point"},"properties":{"osm_id":"5423573040","tag":{"amenity":"waste_basket"}},"type":"Feature"},
	{"geometry":{"coordinates":[-114.473631,51.185504],"type":"Point"},"properties":{"osm_id":"5423573051","tag":{"amenity":"waste_basket"}},"type":"Feature"},
	{"geometry":{"coordinates":[-114.474182,51.185684],"type":"Point"},"properties":{"osm_id":"5423573056","tag":{"amenity":"waste_basket"}},"type":"Feature"},
	{"geometry":{"coordinates":[-114.475041,51.18612],"type":"Point"},"properties":{"osm_id":"5423573060","tag":{"amenity":"waste_basket"}},"type":"Feature"},
	{"geometry":{"coordinates":[-114.475249,51.185888],"type":"Point"},"properties":{"osm_id":"5423573062","tag":{"amenity":"waste_basket"}},"type":"Feature"},
	{"geometry":{"coordinates":[-114.475561,51.185993],"type":"Point"},"properties":{"osm_id":"5423573065","tag":{"amenity":"waste_basket"}},"type":"Feature"},
	{"geometry":{"coordinates":[-114.47591,51.186264],"type":"Point"},"properties":{"osm_id":"5423573067","tag":{"amenity":"waste_basket"}},"type":"Feature"},
	{"geometry":{"coordinates":[-114.476444,51.185352],"type":"Point"},"properties":{"osm_id":"5423573080","tag":{"amenity":"waste_basket"}},"type":"Feature"},
	{"geometry":{"coordinates":[-114.475853,51.185159],"type":"Point"},"properties":{"osm_id":"5423573082","tag":{"amenity":"waste_basket"}},"type":"Feature"},
	{"geometry":{"coordinates":[-114.501062,51.184513],"type":"Point"},"properties":{"osm_id":"6418538546","tag":{"amenity":"waste_basket"}},"type":"Feature"},
	{"geometry":{"coordinates":[-114.499514,51.185126],"type":"Point"},"properties":{"osm_id":"6418607476","tag":{"amenity":"waste_basket"}},"type":"Feature"},
	{"geometry":{"coordinates":[-114.486996,51.184388],"type":"Point"},"properties":{"osm_id":"6418607480","tag":{"amenity":"waste_basket"}},"type":"Feature"},
	{"geometry":{"coordinates":[-114.492385,51.185299],"type":"Point"},"properties":{"osm_id":"6418607482","tag":{"amenity":"waste_basket"}},"type":"Feature"},
	{"geometry":{"coordinates":[-114.505713,51.184365],"type":"Point"},"properties":{"osm_id":"6418607483","tag":{"amenity":"recycling","recycling_type":"container"}},"type":"Feature"},
	{"geometry":{"coordinates":[-114.504471,51.184454],"type":"Point"},"properties":{"osm_id":"6418608387","tag":{"amenity":"waste_basket"}},"type":"Feature"},
	{"geometry":{"coordinates":[-114.488882,51.185716],"type":"Point"},"properties":{"osm_id":"6418608388","tag":{"amenity":"waste_basket"}},"type":"Feature"},
	{"geometry":{"coordinates":[-114.505783,51.184352],"type":"Point"},"properties":{"osm_id":"6418608393","tag":{"amenity":"waste_basket"}},"type":"Feature"},
	{"geometry":{"coordinates":[-114.508959,51.182671],"type":"Point"},"properties":{"osm_id":"6418608396","tag":{"amenity":"waste_basket"}},"type":"Feature"},
	{"geometry":{"coordinates":[-114.498389,51.187462],"type":"Point"},"properties":{"osm_id":"6418608400","tag":{"amenity":"waste_basket"}},"type":"Feature"},
	{"geometry":{"coordinates":[-114.497363,51.188443],"type":"Point"},"properties":{"osm_id":"6418608401","tag":{"amenity":"waste_basket"}},"type":"Feature"},
	{"geometry":{"coordinates":[-114.48593,51.183674],"type":"Point"},"properties":{"osm_id":"6418608406","tag":{"amenity":"waste_basket"}},"type":"Feature"},
	{"geometry":{"coordinates":[-114.509927,51.182421],"type":"Point"},"properties":{"osm_id":"6418692082","tag":{"amenity":"waste_basket"}},"type":"Feature"},
	{"geometry":{"coordinates":[-114.51253,51.181817],"type":"Point"},"properties":{"osm_id":"6418692083","tag":{"amenity":"waste_basket"}},"type":"Feature"},
	{"geometry":{"coordinates":[-114.504438,51.181124],"type":"Point"},"properties":{"osm_id":"6419920879","tag":{"amenity":"waste_basket"}},"type":"Feature"},
	{"geometry":{"coordinates":[-114.50784,51.182402],"type":"Point"},"properties":{"osm_id":"6419920881","tag":{"amenity":"waste_basket"}},"type":"Feature"},
	{"geometry":{"coordinates":[-114.493542,51.184236],"type":"Point"},"properties":{"osm_id":"6419920882","tag":{"amenity":"waste_basket"}},"type":"Feature"},
	{"geometry":{"coordinates":[-114.479873,51.180715],"type":"Point"},"properties":{"osm_id":"6879996741","tag":{"amenity":"waste_basket"}},"type":"Feature"},
	{"geometry":{"coordinates":[-114.484212,51.183275],"type":"Point"},"properties":{"osm_id":"6879996745","tag":{"amenity":"recycling","recycling:cans":"yes","recycling:glass_bottles":"yes","recycling:plastic_bottles":"yes","recycling_type":"container"}},"type":"Feature"},
	{"geometry":{"coordinates":[-114.484229,51.183279],"type":"Point"},"properties":{"osm_id":"6879996746","tag":{"amenity":"waste_basket"}},"type":"Feature"},
	{"geometry":{"coordinates":[-114.484922,51.183358],"type":"Point"},"properties":{"osm_id":"6879996747","tag":{"amenity":"recycling","recycling:cans":"yes","recycling:glass_bottles":"yes","recycling:plastic_bottles":"yes","recycling_type":"container"}},"type":"Feature"},
	{"geometry":{"coordinates":[-114.484902,51.183356],"type":"Point"},"properties":{"osm_id":"6879996748","tag":{"amenity":"waste_basket"}},"type":"Feature"}
]
}
