{
"type": "FeatureCollection",
"features": [
	{"geometry":{"coordinates":[-15.448428,27.903903],"type":"Point"},"properties":{"osm_id":"669636390","tag":{"amenity":"recycling","recycling:cans":"yes","recycling:paper":"yes"}},"type":"Feature"},
	{"geometry":{"coordinates":[-15.447485,27.905159],"type":"Point"},"properties":{"osm_id":"669636394","tag":{"amenity":"recycling","location":"overground","recycling:cans":"yes","recycling:paper":"yes","recycling_type":"container"}},"type":"Feature"},
	{"geometry":{"coordinates":[-15.40456,27.911788],"type":"Point"},"properties":{"osm_id":"1268312557","tag":{"amenity":"recycling"}},"type":"Feature"},
	{"geometry":{"coordinates":[-15.404484,27.911652],"type":"Point"},"properties":{"osm_id":"1268339929","tag":{"amenity":"recycling"}},"type":"Feature"},
	{"geometry":{"coordinates":[-15.402502,27.911086],"type":"Point"},"properties":{"osm_id":"1268339937","tag":{"amenity":"recycling"}},"type":"Feature"},
	{"geometry":{"coordinates":[-15.405244,27.910338],"type":"Point"},"properties":{"osm_id":"1268339945","tag":{"amenity":"recycling"}},"type":"Feature"},
	{"geometry":{"coordinates":[-15.399862,27.91641],"type":"Point"},"properties":{"osm_id":"1274431205","tag":{"amenity":"recycling"}},"type":"Feature"},
	{"geometry":{"coordinates":[-15.409348,27.913413],"type":"Point"},"properties":{"osm_id":"1278848543","tag":{"amenity":"recycling"}},"type":"Feature"},
	{"geometry":{"coordinates":[-15.407211,27.911189],"type":"Point"},"properties":{"osm_id":"1278848544","tag":{"amenity":"recycling"}},"type":"Feature"},
	{"geometry":{"coordinates":[-15.41083,27.91289],"type":"Point"},"properties":{"osm_id":"1278848552","tag":{"amenity":"recycling"}},"type":"Feature"},
	{"geometry":{"coordinates":[-15.409575,27.911318],"type":"Point"},"properties":{"osm_id":"1278848553","tag":{"amenity":"recycling"}},"type":"Feature"},
	{"geometry":{"coordinates":[-15.438067,27.844125],"type":"Point"},"properties":{"barrier":"gate","osm_id":"2496775415"},"type":"Feature"},
	{"geometry":{"coordinates":[-15.438624,27.844263],"type":"Point"},"properties":{"barrier":"gate","osm_id":"2496775419"},"type":"Feature"},
	{"geometry":{"coordinates":[-15.443992,27.907199],"type":"Point"},"properties":{"osm_id":"3507793661","tag":{"amenity":"recycling"}},"type":"Feature"},
	{"geometry":{"coordinates":[-15.446105,27.90751],"type":"Point"},"properties":{"osm_id":"3507793662","tag":{"amenity":"recycling"}},"type":"Feature"},
	{"geometry":{"coordinates":[-15.44533,27.906],"type":"Point"},"properties":{"osm_id":"3507793663","tag":{"amenity":"recycling"}},"type":"Feature"},
	{"geometry":{"coordinates":[-15.443485,27.906225],"type":"Point"},"properties":{"osm_id":"3507793664","tag":{"amenity":"recycling"}},"type":"Feature"},
	{"geometry":{"coordinates":[-15.443069,27.904106],"type":"Point"},"properties":{"osm_id":"3507793665","tag":{"amenity":"recycling"}},"type":"Feature"},
	{"geometry":{"coordinates":[-15.445187,27.905126],"type":"Point"},"properties":{"osm_id":"3508906110","tag":{"addr:city":"Ag\u00c3\u00bcimes","addr:postcode":"35260","amenity":"recycling","recycling:cans":"yes","recycling:clothes":"no","recycling:glass":"yes","recycling:paper":"yes"}},"type":"Feature"},
	{"geometry":{"coordinates":[-15.386425,27.907647],"type":"Point"},"properties":{"osm_id":"4660901413","tag":{"amenity":"recycling"}},"type":"Feature"},
	{"geometry":{"coordinates":[-15.391305,27.908552],"type":"Point"},"properties":{"osm_id":"4660902287","tag":{"amenity":"recycling"}},"type":"Feature"},
	{"geometry":{"coordinates":[-15.440806,27.851897],"type":"Point"},"properties":{"osm_id":"5936978298","tag":{"amenity":"recycling"}},"type":"Feature"}
]
}
