{
"type": "FeatureCollection",
"features": [
	{"geometry":{"coordinates":[12.43161,50.789204],"type":"Point"},"properties":{"osm_id":"2252682841","tag":{"denotation":"natural_monument","genus":"Tilia","genus:de":"Linde","leaf_type":"broadleaved","monument":"yes","natural":"tree"}},"type":"Feature"},
	{"geometry":{"coordinates":[12.393564,50.788088],"type":"Point"},"properties":{"osm_id":"2300060508","tag":{"natural":"tree"}},"type":"Feature"},
	{"geometry":{"coordinates":[12.393673,50.788049],"type":"Point"},"properties":{"osm_id":"2300060513","tag":{"natural":"tree"}},"type":"Feature"},
	{"geometry":{"coordinates":[12.393746,50.788026],"type":"Point"},"properties":{"osm_id":"2300060516","tag":{"natural":"tree"}},"type":"Feature"},
	{"geometry":{"coordinates":[12.393954,50.787966],"type":"Point"},"properties":{"osm_id":"2300060519","tag":{"natural":"tree"}},"type":"Feature"},
	{"geometry":{"coordinates":[12.410476,50.771642],"type":"Point"},"properties":{"osm_id":"2311647146","tag":{"natural":"tree"}},"type":"Feature"},
	{"geometry":{"coordinates":[12.404626,50.775646],"type":"Point"},"properties":{"osm_id":"2311647147","tag":{"natural":"tree"}},"type":"Feature"},
	{"geometry":{"coordinates":[12.417395,50.7908],"type":"Point"},"properties":{"osm_id":"2475712549","tag":{"natural":"tree"}},"type":"Feature"},
	{"geometry":{"coordinates":[12.416543,50.791995],"type":"Point"},"properties":{"osm_id":"2475712550","tag":{"natural":"tree"}},"type":"Feature"},
	{"geometry":{"coordinates":[12.451576,50.786833],"type":"Point"},"properties":{"osm_id":"2619039208","tag":{"natural":"tree"}},"type":"Feature"},
	{"geometry":{"coordinates":[12.451605,50.786824],"type":"Point"},"properties":{"osm_id":"2619039216","tag":{"natural":"tree"}},"type":"Feature"},
	{"geometry":{"coordinates":[12.452562,50.786692],"type":"Point"},"properties":{"osm_id":"2619039221","tag":{"natural":"tree"}},"type":"Feature"},
	{"geometry":{"coordinates":[12.448988,50.787669],"type":"Point"},"properties":{"osm_id":"2619039226","tag":{"natural":"tree"}},"type":"Feature"},
	{"geometry":{"coordinates":[12.408612,50.759973],"type":"Point"},"properties":{"osm_id":"2707740879","tag":{"natural":"tree"}},"type":"Feature"},
	{"geometry":{"coordinates":[12.437917,50.791476],"type":"Point"},"properties":{"osm_id":"2786418759","tag":{"natural":"tree"}},"type":"Feature"},
	{"geometry":{"coordinates":[12.438006,50.791423],"type":"Point"},"properties":{"osm_id":"2786418760","tag":{"natural":"tree"}},"type":"Feature"},
	{"geometry":{"coordinates":[12.474504,50.781468],"type":"Point"},"properties":{"osm_id":"3056244248","tag":{"denotation":"natural_monument","genus":"Quercus","genus:de":"Eiche","inscription":"Zur Erinnerung an die \u00c3\u009cbergabe der Augsburgischen Konfession wurde diese Eiche a. 25. Juni 1830 bei der 300j\u00c3\u00a4hrigen Jubelfeier von der Dorfjugend gepflanzt / Am 400j\u00c3\u00a4hr. Erinnerungstag stiftete diese Tafel die Kirchgemeinde","leaf_type":"broadleaved","monument":"yes","natural":"tree","start_date":"1830-06-25"}},"type":"Feature"},
	{"geometry":{"coordinates":[12.475676,50.73828],"type":"Point"},"properties":{"osm_id":"4002290636","tag":{"natural":"tree"}},"type":"Feature"},
	{"geometry":{"coordinates":[12.463816,50.750373],"type":"Point"},"properties":{"osm_id":"4298890949","tag":{"natural":"tree"}},"type":"Feature"},
	{"geometry":{"coordinates":[12.457255,50.743566],"type":"Point"},"properties":{"osm_id":"5390687900","tag":{"circumference":"3","genus":"Fagus","natural":"tree","species":"Fagus sylvatica","species:de":"Rotbuche"}},"type":"Feature"},
	{"geometry":{"coordinates":[12.466794,50.767244],"type":"Point"},"properties":{"osm_id":"5451847960","tag":{"natural":"tree"}},"type":"Feature"},
	{"geometry":{"coordinates":[12.457425,50.769154],"type":"Point"},"properties":{"osm_id":"5471608321","tag":{"natural":"tree"}},"type":"Feature"},
	{"geometry":{"coordinates":[12.45761,50.769407],"type":"Point"},"properties":{"osm_id":"5471608322","tag":{"natural":"tree"}},"type":"Feature"},
	{"geometry":{"coordinates":[12.456569,50.769484],"type":"Point"},"properties":{"osm_id":"5471608323","tag":{"natural":"tree"}},"type":"Feature"},
	{"geometry":{"coordinates":[12.456806,50.769423],"type":"Point"},"properties":{"osm_id":"5471608324","tag":{"natural":"tree"}},"type":"Feature"},
	{"geometry":{"coordinates":[12.474085,50.777537],"type":"Point"},"properties":{"osm_id":"5493147640","tag":{"circumference":"3.5","genus":"Quercus","leaf_cycle":"deciduous","name:de":"Stiel-Eiche","natural":"tree","species":"robur","taxon":"Quercus robur"}},"type":"Feature"},
	{"geometry":{"coordinates":[12.474101,50.777702],"type":"Point"},"properties":{"osm_id":"5493147641","tag":{"circumference":"3.0","genus":"Quercus","leaf_cycle":"deciduous","name:de":"Stiel-Eiche","natural":"tree","species":"robur","taxon":"Quercus robur"}},"type":"Feature"},
	{"geometry":{"coordinates":[12.474077,50.777766],"type":"Point"},"properties":{"osm_id":"5493147642","tag":{"circumference":"3.0","genus":"Quercus","leaf_cycle":"deciduous","name:de":"Stiel-Eiche","natural":"tree","species":"robur","taxon":"Quercus robur"}},"type":"Feature"},
	{"geometry":{"coordinates":[12.474069,50.777839],"type":"Point"},"properties":{"osm_id":"5493147643","tag":{"circumference":"3.0","genus":"Quercus","leaf_cycle":"deciduous","name:de":"Stiel-Eiche","natural":"tree","species":"robur","taxon":"Quercus robur"}},"type":"Feature"},
	{"geometry":{"coordinates":[12.474052,50.777964],"type":"Point"},"properties":{"osm_id":"5493147644","tag":{"circumference":"3.0","genus":"Quercus","leaf_cycle":"deciduous","name:de":"Stiel-Eiche","natural":"tree","species":"robur","taxon":"Quercus robur"}},"type":"Feature"},
	{"geometry":{"coordinates":[12.474034,50.778037],"type":"Point"},"properties":{"osm_id":"5493147645","tag":{"circumference":"3.0","genus":"Quercus","leaf_cycle":"deciduous","name:de":"Stiel-Eiche","natural":"tree","species":"robur","taxon":"Quercus robur"}},"type":"Feature"},
	{"geometry":{"coordinates":[12.474015,50.778243],"type":"Point"},"properties":{"osm_id":"5493147646","tag":{"circumference":"3.0","genus":"Quercus","leaf_cycle":"deciduous","name:de":"Stiel-Eiche","natural":"tree","species":"robur","taxon":"Quercus robur"}},"type":"Feature"},
	{"geometry":{"coordinates":[12.475933,50.779317],"type":"Point"},"properties":{"osm_id":"5493147647","tag":{"circumference":"3.0","genus":"Tilia","leaf_cycle":"deciduous","name:de":"Winter-Linde","natural":"tree","species":"cordata","taxon":"Tilia cordata"}},"type":"Feature"}
]
}
