{
"type": "FeatureCollection",
"features": [
	{"geometry":{"coordinates":[-89.32589,43.069078],"type":"Point"},"properties":{"osm_id":"5538180021","tag":{"amenity":"waste_disposal","description":"public waste oil collection point","waste":"oil"}},"type":"Feature"},
	{"geometry":{"coordinates":[-89.381857,43.074559],"type":"Point"},"properties":{"osm_id":"5642308353","tag":{"amenity":"waste_basket"}},"type":"Feature"},
	{"geometry":{"coordinates":[-89.311545,43.099924],"type":"Point"},"properties":{"osm_id":"8902301847","tag":{"amenity":"waste_disposal"}},"type":"Feature"},
	{"geometry":{"coordinates":[-89.312756,43.099923],"type":"Point"},"properties":{"osm_id":"8902301848","tag":{"amenity":"waste_disposal"}},"type":"Feature"},
	{"geometry":{"coordinates":[-89.311435,43.100703],"type":"Point"},"properties":{"osm_id":"8902301849","tag":{"amenity":"waste_disposal"}},"type":"Feature"},
	{"geometry":{"coordinates":[-89.312701,43.100764],"type":"Point"},"properties":{"osm_id":"8902301850","tag":{"amenity":"waste_disposal"}},"type":"Feature"},
	{"geometry":{"coordinates":[-89.311772,43.099809],"type":"Point"},"properties":{"osm_id":"8902301902","tag":{"amenity":"waste_disposal"}},"type":"Feature"},
	{"geometry":{"coordinates":[-89.31397,43.101321],"type":"Point"},"properties":{"osm_id":"8902301907","tag":{"amenity":"waste_disposal"}},"type":"Feature"},
	{"geometry":{"coordinates":[-89.339968,43.103129],"type":"Point"},"properties":{"osm_id":"8914807650","tag":{"amenity":"waste_disposal"}},"type":"Feature"},
	{"geometry":{"coordinates":[-89.335807,43.102939],"type":"Point"},"properties":{"osm_id":"8914807680","tag":{"amenity":"waste_disposal"}},"type":"Feature"},
	{"geometry":{"coordinates":[-89.319883,43.120883],"type":"Point"},"properties":{"osm_id":"9051891138","tag":{"amenity":"waste_disposal"}},"type":"Feature"}
]
}
