{
"type": "FeatureCollection",
"lastupdate": "2020-08-05T00:00:00Z",
"features": [
	{"geometry":{"coordinates":[121.119651,14.551338],"type":"Point"},"properties":{"name":"Tacas Junkshop","osm_id":"411935750","tag":{"addr:city":"Taytay","addr:postcode":"1920","addr:province":"Rizal","amenity":"recycling","building":"yes"}},"type":"Feature"},
	{"geometry":{"coordinates":[121.171328,14.592923],"type":"Point"},"properties":{"name":"N.M. Material Recovery Facility (junk shop)","osm_id":"2004106459","tag":{"addr:province":"Rizal","amenity":"recycling"}},"type":"Feature"},
	{"geometry":{"coordinates":[121.181898,14.59123],"type":"Point"},"properties":{"name":"Alphagracia Materials Recovery Facility (MRF)","osm_id":"2393689410","tag":{"addr:city":"Antipolo","addr:province":"Rizal","addr:street":"Sen L Sumulong Mem Circle","amenity":"recycling"}},"type":"Feature"},
	{"geometry":{"coordinates":[121.182014,14.591014],"type":"Point"},"properties":{"name":"Cecile Junk Shop","osm_id":"2393689418","tag":{"addr:city":"Antipolo","addr:province":"Rizal","addr:street":"Sen L Sumulong Mem Circle","amenity":"recycling"}},"type":"Feature"},
	{"geometry":{"coordinates":[121.18066,14.597071],"type":"Point"},"properties":{"name":"NM Materials Recovery Facility","osm_id":"2425637146","tag":{"addr:city":"Antipolo","addr:province":"Rizal","addr:street":"Bayugo-Buliran Road","amenity":"recycling"}},"type":"Feature"},
	{"geometry":{"coordinates":[121.143951,14.531567],"type":"Point"},"properties":{"name":"Joel & Khen Scrap Woods","osm_id":"2443064616","tag":{"addr:city":"Angono","addr:province":"Rizal","amenity":"recycling"}},"type":"Feature"},
	{"geometry":{"coordinates":[121.143877,14.531533],"type":"Point"},"properties":{"name":"Roldan Palochina","osm_id":"2443064629","tag":{"addr:city":"Angono","addr:province":"Rizal","amenity":"recycling"}},"type":"Feature"},
	{"geometry":{"coordinates":[121.11933,14.585907],"type":"Point"},"properties":{"name":"Carpel Cainta","osm_id":"4797466621","tag":{"amenity":"recycling"}},"type":"Feature"},
	{"geometry":{"coordinates":[121.11456,14.574891],"type":"Point"},"properties":{"name":"Win Scrap Shop","osm_id":"4952642421","tag":{"addr:housenumber":"391","addr:postcode":"1900","addr:street":"A Rodriguez.Ave","amenity":"recycling","name:en":"Win Scrap Shop"}},"type":"Feature"},
	{"geometry":{"coordinates":[121.163761,14.597362],"type":"Point"},"properties":{"osm_id":"5116703578","tag":{"amenity":"recycling","recycling_type":"container"}},"type":"Feature"},
	{"geometry":{"coordinates":[121.115085,14.583015],"type":"Point"},"properties":{"name":"Loraine Junk Shop","osm_id":"5162477422","tag":{"amenity":"recycling"}},"type":"Feature"},
	{"geometry":{"coordinates":[121.125132,14.569728],"type":"Point"},"properties":{"name":"ROELCRISTY Junkshop","osm_id":"5302703221","tag":{"addr:housenumber":"15","addr:street":"P. Ocampo","amenity":"recycling"}},"type":"Feature"},
	{"geometry":{"coordinates":[121.113876,14.571496],"type":"Point"},"properties":{"name":"San Roque Material Reycling Facility","osm_id":"5653923523","tag":{"addr:postcode":"1900","addr:street":"4th Street","amenity":"recycling","recycling_type":"centre"}},"type":"Feature"}
]
}
