{
"type": "FeatureCollection",
"features": [
	{"geometry":{"coordinates":[38.109918,55.597082],"type":"Point"},"properties":{"osm_id":"674449551","tag":{"amenity":"waste_disposal"}},"type":"Feature"},
	{"geometry":{"coordinates":[38.121243,55.598264],"type":"Point"},"properties":{"osm_id":"694857760","tag":{"amenity":"waste_disposal"}},"type":"Feature"},
	{"geometry":{"coordinates":[38.128057,55.591158],"type":"Point"},"properties":{"osm_id":"1229378511","tag":{"amenity":"waste_disposal"}},"type":"Feature"},
	{"geometry":{"coordinates":[38.117284,55.594879],"type":"Point"},"properties":{"osm_id":"1229378512","tag":{"amenity":"waste_disposal"}},"type":"Feature"},
	{"geometry":{"coordinates":[38.120114,55.593497],"type":"Point"},"properties":{"osm_id":"1229378513","tag":{"amenity":"waste_disposal"}},"type":"Feature"},
	{"geometry":{"coordinates":[38.06581,55.623079],"type":"Point"},"properties":{"osm_id":"1241465618","tag":{"amenity":"waste_disposal"}},"type":"Feature"},
	{"geometry":{"coordinates":[38.065115,55.624873],"type":"Point"},"properties":{"osm_id":"1241465637","tag":{"amenity":"waste_disposal"}},"type":"Feature"},
	{"geometry":{"coordinates":[38.095489,55.602501],"type":"Point"},"properties":{"osm_id":"1250627860","tag":{"amenity":"waste_disposal"}},"type":"Feature"},
	{"geometry":{"coordinates":[38.075258,55.619666],"type":"Point"},"properties":{"osm_id":"1347621365","tag":{"amenity":"waste_disposal"}},"type":"Feature"},
	{"geometry":{"coordinates":[38.075629,55.622346],"type":"Point"},"properties":{"osm_id":"1347621585","tag":{"amenity":"waste_disposal"}},"type":"Feature"},
	{"geometry":{"coordinates":[38.123759,55.599694],"type":"Point"},"properties":{"osm_id":"1545706677","tag":{"amenity":"waste_disposal"}},"type":"Feature"},
	{"geometry":{"coordinates":[38.124199,55.599076],"type":"Point"},"properties":{"osm_id":"1545706683","tag":{"amenity":"waste_disposal"}},"type":"Feature"},
	{"geometry":{"coordinates":[38.099905,55.602491],"type":"Point"},"properties":{"osm_id":"1553291261","tag":{"amenity":"waste_disposal"}},"type":"Feature"},
	{"geometry":{"coordinates":[38.109852,55.599994],"type":"Point"},"properties":{"osm_id":"1668188627","tag":{"amenity":"waste_disposal"}},"type":"Feature"},
	{"geometry":{"coordinates":[38.088488,55.59379],"type":"Point"},"properties":{"osm_id":"1875802301","tag":{"amenity":"waste_disposal","removal_hours":"09:00-16:00"}},"type":"Feature"},
	{"geometry":{"coordinates":[38.095534,55.593971],"type":"Point"},"properties":{"osm_id":"2343339929","tag":{"amenity":"recycling","recycling:aluminium":"yes","recycling:scrap_metal":"yes","recycling_type":"centre"}},"type":"Feature"},
	{"geometry":{"coordinates":[38.111437,55.601132],"type":"Point"},"properties":{"osm_id":"2343339943","tag":{"amenity":"waste_basket","waste":"trash"}},"type":"Feature"},
	{"geometry":{"coordinates":[38.141062,55.581638],"type":"Point"},"properties":{"osm_id":"2420881067","tag":{"amenity":"waste_disposal"}},"type":"Feature"},
	{"geometry":{"coordinates":[38.142961,55.581936],"type":"Point"},"properties":{"osm_id":"2420881086","tag":{"amenity":"waste_disposal"}},"type":"Feature"},
	{"geometry":{"coordinates":[38.14312,55.582418],"type":"Point"},"properties":{"osm_id":"2420881106","tag":{"amenity":"waste_disposal"}},"type":"Feature"},
	{"geometry":{"coordinates":[38.140865,55.582546],"type":"Point"},"properties":{"osm_id":"2420881109","tag":{"amenity":"waste_disposal"}},"type":"Feature"},
	{"geometry":{"coordinates":[38.126027,55.593628],"type":"Point"},"properties":{"osm_id":"2426396051","tag":{"amenity":"waste_disposal"}},"type":"Feature"},
	{"geometry":{"coordinates":[38.129861,55.589873],"type":"Point"},"properties":{"osm_id":"2426396453","tag":{"amenity":"waste_disposal"}},"type":"Feature"},
	{"geometry":{"coordinates":[38.125702,55.59533],"type":"Point"},"properties":{"osm_id":"2426396519","tag":{"amenity":"waste_disposal"}},"type":"Feature"},
	{"geometry":{"coordinates":[38.134708,55.587229],"type":"Point"},"properties":{"osm_id":"2427069483","tag":{"amenity":"waste_disposal"}},"type":"Feature"},
	{"geometry":{"coordinates":[38.127764,55.588337],"type":"Point"},"properties":{"osm_id":"2427117908","tag":{"amenity":"waste_disposal"}},"type":"Feature"},
	{"geometry":{"coordinates":[38.122838,55.597352],"type":"Point"},"properties":{"osm_id":"2428077879","tag":{"amenity":"waste_disposal"}},"type":"Feature"},
	{"geometry":{"coordinates":[38.136622,55.581077],"type":"Point"},"properties":{"osm_id":"2431873649","tag":{"amenity":"waste_disposal"}},"type":"Feature"},
	{"geometry":{"coordinates":[38.135322,55.57989],"type":"Point"},"properties":{"osm_id":"2431921192","tag":{"amenity":"waste_disposal"}},"type":"Feature"},
	{"geometry":{"coordinates":[38.132798,55.589458],"type":"Point"},"properties":{"osm_id":"2431972501","tag":{"amenity":"waste_disposal"}},"type":"Feature"},
	{"geometry":{"coordinates":[38.128989,55.58675],"type":"Point"},"properties":{"osm_id":"2432017582","tag":{"amenity":"waste_disposal"}},"type":"Feature"},
	{"geometry":{"coordinates":[38.141531,55.579842],"type":"Point"},"properties":{"osm_id":"2433061557","tag":{"amenity":"waste_disposal"}},"type":"Feature"},
	{"geometry":{"coordinates":[38.123474,55.590353],"type":"Point"},"properties":{"osm_id":"2442368392","tag":{"amenity":"waste_disposal"}},"type":"Feature"},
	{"geometry":{"coordinates":[38.130229,55.59319],"type":"Point"},"properties":{"osm_id":"2442667680","tag":{"amenity":"waste_disposal"}},"type":"Feature"},
	{"geometry":{"coordinates":[38.132898,55.590921],"type":"Point"},"properties":{"osm_id":"2442674763","tag":{"amenity":"waste_disposal"}},"type":"Feature"},
	{"geometry":{"coordinates":[38.135949,55.588107],"type":"Point"},"properties":{"osm_id":"2452677085","tag":{"amenity":"waste_disposal"}},"type":"Feature"},
	{"geometry":{"coordinates":[38.136883,55.58784],"type":"Point"},"properties":{"osm_id":"2452678455","tag":{"amenity":"waste_disposal"}},"type":"Feature"},
	{"geometry":{"coordinates":[38.137909,55.588631],"type":"Point"},"properties":{"osm_id":"2452678456","tag":{"amenity":"waste_disposal"}},"type":"Feature"},
	{"geometry":{"coordinates":[38.136024,55.585098],"type":"Point"},"properties":{"osm_id":"2500253471","tag":{"amenity":"waste_disposal"}},"type":"Feature"},
	{"geometry":{"coordinates":[38.136525,55.584538],"type":"Point"},"properties":{"osm_id":"2500253472","tag":{"amenity":"waste_disposal"}},"type":"Feature"},
	{"geometry":{"coordinates":[38.138267,55.583073],"type":"Point"},"properties":{"osm_id":"2500253473","tag":{"amenity":"waste_disposal"}},"type":"Feature"},
	{"geometry":{"coordinates":[38.134002,55.588647],"type":"Point"},"properties":{"osm_id":"2512628611","tag":{"amenity":"waste_disposal"}},"type":"Feature"},
	{"geometry":{"coordinates":[38.133636,55.588223],"type":"Point"},"properties":{"osm_id":"2512628614","tag":{"amenity":"waste_disposal"}},"type":"Feature"},
	{"geometry":{"coordinates":[38.129596,55.593831],"type":"Point"},"properties":{"osm_id":"2537545826","tag":{"amenity":"waste_disposal"}},"type":"Feature"},
	{"geometry":{"coordinates":[38.130675,55.592349],"type":"Point"},"properties":{"osm_id":"2537545828","tag":{"amenity":"waste_disposal"}},"type":"Feature"},
	{"geometry":{"coordinates":[38.128507,55.594533],"type":"Point"},"properties":{"osm_id":"2537545853","tag":{"amenity":"waste_disposal"}},"type":"Feature"},
	{"geometry":{"coordinates":[38.119033,55.595936],"type":"Point"},"properties":{"osm_id":"2639483188","tag":{"amenity":"waste_disposal"}},"type":"Feature"},
	{"geometry":{"coordinates":[38.13593,55.6005],"type":"Point"},"properties":{"osm_id":"2639483191","tag":{"amenity":"waste_disposal"}},"type":"Feature"},
	{"geometry":{"coordinates":[38.133779,55.587781],"type":"Point"},"properties":{"osm_id":"2881047722","tag":{"amenity":"waste_disposal"}},"type":"Feature"},
	{"geometry":{"coordinates":[38.133792,55.587786],"type":"Point"},"properties":{"osm_id":"2881047724","tag":{"amenity":"waste_disposal"}},"type":"Feature"},
	{"geometry":{"coordinates":[38.135931,55.587517],"type":"Point"},"properties":{"osm_id":"2881047729","tag":{"amenity":"waste_disposal"}},"type":"Feature"},
	{"geometry":{"coordinates":[38.089017,55.602338],"type":"Point"},"properties":{"osm_id":"2912909245","tag":{"amenity":"waste_disposal"}},"type":"Feature"},
	{"geometry":{"coordinates":[38.127183,55.595843],"type":"Point"},"properties":{"osm_id":"2933882053","tag":{"amenity":"waste_disposal"}},"type":"Feature"},
	{"geometry":{"coordinates":[38.091816,55.592776],"type":"Point"},"properties":{"osm_id":"2941729870","tag":{"amenity":"waste_basket"}},"type":"Feature"},
	{"geometry":{"coordinates":[38.105217,55.601868],"type":"Point"},"properties":{"osm_id":"3098992313","tag":{"amenity":"waste_disposal"}},"type":"Feature"},
	{"geometry":{"coordinates":[38.072582,55.609832],"type":"Point"},"properties":{"osm_id":"3700569557","tag":{"amenity":"waste_disposal"}},"type":"Feature"},
	{"geometry":{"coordinates":[38.105484,55.609804],"type":"Point"},"properties":{"osm_id":"3952991380","tag":{"amenity":"waste_disposal"}},"type":"Feature"},
	{"geometry":{"coordinates":[38.107174,55.612958],"type":"Point"},"properties":{"osm_id":"3952991511","tag":{"amenity":"waste_disposal"}},"type":"Feature"},
	{"geometry":{"coordinates":[38.126288,55.626872],"type":"Point"},"properties":{"osm_id":"4354032721","tag":{"amenity":"waste_disposal"}},"type":"Feature"},
	{"geometry":{"coordinates":[38.091487,55.590768],"type":"Point"},"properties":{"osm_id":"4716133911","tag":{"amenity":"waste_disposal"}},"type":"Feature"},
	{"geometry":{"coordinates":[38.089071,55.60444],"type":"Point"},"properties":{"osm_id":"5701442137","tag":{"amenity":"recycling","contact:phone":"+7 905 558-88-36","contact:website":"http://vk.com/rsbor_zhuk","recycling:cans":"yes","recycling:cardboard":"yes","recycling:glass":"yes","recycling:glass_bottles":"yes","recycling:paper":"yes","recycling:plastic":"yes","recycling:plastic_bottles":"yes","recycling:plastic_packaging":"yes","recycling:scrap_metal":"yes","recycling_type":"container"}},"type":"Feature"},
	{"geometry":{"coordinates":[38.121825,55.592496],"type":"Point"},"properties":{"osm_id":"6423390839","tag":{"amenity":"waste_disposal"}},"type":"Feature"},
	{"geometry":{"coordinates":[38.084785,55.60335],"type":"Point"},"properties":{"osm_id":"6758579706","tag":{"amenity":"waste_disposal"}},"type":"Feature"},
	{"geometry":{"coordinates":[38.09737,55.600106],"type":"Point"},"properties":{"osm_id":"6769350180","tag":{"amenity":"waste_disposal"}},"type":"Feature"},
	{"geometry":{"coordinates":[38.086035,55.596015],"type":"Point"},"properties":{"osm_id":"6781632210","tag":{"amenity":"waste_disposal"}},"type":"Feature"},
	{"geometry":{"coordinates":[38.084948,55.595766],"type":"Point"},"properties":{"osm_id":"6781632219","tag":{"amenity":"waste_disposal"}},"type":"Feature"},
	{"geometry":{"coordinates":[38.094415,55.627265],"type":"Point"},"properties":{"osm_id":"7575582081","tag":{"amenity":"waste_disposal"}},"type":"Feature"}
]
}
