{
"type": "FeatureCollection",
"features": [
	{"geometry":{"coordinates":[1.849071,50.951053],"type":"Point"},"properties":{"osm_id":"299137551","tag":{"amenity":"recycling"}},"type":"Feature"},
	{"geometry":{"coordinates":[1.8547,50.934871],"type":"Point"},"properties":{"osm_id":"299169154","tag":{"amenity":"recycling"}},"type":"Feature"},
	{"geometry":{"coordinates":[1.854879,50.938318],"type":"Point"},"properties":{"osm_id":"299169268","tag":{"amenity":"recycling"}},"type":"Feature"},
	{"geometry":{"coordinates":[1.848267,50.953602],"type":"Point"},"properties":{"osm_id":"374183164","tag":{"amenity":"recycling"}},"type":"Feature"},
	{"geometry":{"coordinates":[1.858647,50.939736],"type":"Point"},"properties":{"osm_id":"374278084","tag":{"amenity":"recycling"}},"type":"Feature"},
	{"geometry":{"coordinates":[1.862526,50.939443],"type":"Point"},"properties":{"osm_id":"374278106","tag":{"amenity":"recycling"}},"type":"Feature"},
	{"geometry":{"coordinates":[1.856396,50.932634],"type":"Point"},"properties":{"osm_id":"374279564","tag":{"amenity":"recycling"}},"type":"Feature"},
	{"geometry":{"coordinates":[1.857962,50.941469],"type":"Point"},"properties":{"osm_id":"659858402","tag":{"amenity":"recycling"}},"type":"Feature"},
	{"geometry":{"coordinates":[1.86194,50.9497],"type":"Point"},"properties":{"osm_id":"1390705498","tag":{"amenity":"waste_basket"}},"type":"Feature"},
	{"geometry":{"coordinates":[1.848584,50.957233],"type":"Point"},"properties":{"osm_id":"1947218395","tag":{"amenity":"recycling","recycling:cans":"yes","recycling:glass":"yes"}},"type":"Feature"},
	{"geometry":{"coordinates":[1.859429,50.943753],"type":"Point"},"properties":{"osm_id":"2059712624","tag":{"amenity":"recycling"}},"type":"Feature"},
	{"geometry":{"coordinates":[1.888703,50.951774],"type":"Point"},"properties":{"osm_id":"4708589503","tag":{"amenity":"waste_disposal","operator":"Syndicat d\u00e2\u0080\u0099\u00c3\u00a9limination et la valorisation des d\u00c3\u00a9chets du Calaisis","wheelchair":"yes"}},"type":"Feature"},
	{"geometry":{"coordinates":[1.888689,50.951811],"type":"Point"},"properties":{"osm_id":"4708589504","tag":{"amenity":"recycling","operator":"Syndicat d\u00e2\u0080\u0099\u00c3\u00a9limination et la valorisation des d\u00c3\u00a9chets du Calaisis","recycling:cans":"yes","recycling:cartons":"yes","recycling:paper":"yes","recycling:plastic":"yes","recycling_type":"container","wheelchair":"yes"}},"type":"Feature"},
	{"geometry":{"coordinates":[1.888675,50.951849],"type":"Point"},"properties":{"osm_id":"4708589505","tag":{"amenity":"recycling","operator":"Syndicat d\u00e2\u0080\u0099\u00c3\u00a9limination et la valorisation des d\u00c3\u00a9chets du Calaisis","recycling:glass_bottles":"yes","recycling:glass_jars":"yes","recycling_type":"container","wheelchair":"yes"}},"type":"Feature"},
	{"geometry":{"coordinates":[1.853711,50.951665],"type":"Point"},"properties":{"osm_id":"5818453257","tag":{"amenity":"waste_basket"}},"type":"Feature"},
	{"geometry":{"coordinates":[1.853371,50.951992],"type":"Point"},"properties":{"osm_id":"5818465353","tag":{"amenity":"waste_basket"}},"type":"Feature"},
	{"geometry":{"coordinates":[1.849874,50.951463],"type":"Point"},"properties":{"osm_id":"5849532889","tag":{"amenity":"waste_basket"}},"type":"Feature"},
	{"geometry":{"coordinates":[1.849743,50.95164],"type":"Point"},"properties":{"osm_id":"5849532890","tag":{"amenity":"waste_basket"}},"type":"Feature"},
	{"geometry":{"coordinates":[1.849994,50.951707],"type":"Point"},"properties":{"osm_id":"5849534287","tag":{"amenity":"waste_basket"}},"type":"Feature"},
	{"geometry":{"coordinates":[1.849594,50.951602],"type":"Point"},"properties":{"osm_id":"5849534288","tag":{"amenity":"waste_basket"}},"type":"Feature"},
	{"geometry":{"coordinates":[1.849475,50.951578],"type":"Point"},"properties":{"osm_id":"5849534289","tag":{"amenity":"waste_basket"}},"type":"Feature"}
]
}
