{
"type": "FeatureCollection",
"features": [
	{"geometry":{"coordinates":[1.90817,49.004911],"type":"Point"},"properties":{"osm_id":"392506508","tag":{"amenity":"recycling","location":"underground","recycling:cans":"yes","recycling:glass":"yes","recycling:paper":"yes","recycling_type":"container"}},"type":"Feature"},
	{"geometry":{"coordinates":[1.892474,48.99186],"type":"Point"},"properties":{"osm_id":"1905604305","tag":{"amenity":"recycling"}},"type":"Feature"},
	{"geometry":{"coordinates":[1.852878,49.029366],"type":"Point"},"properties":{"osm_id":"2278282976","tag":{"amenity":"waste_basket"}},"type":"Feature"},
	{"geometry":{"coordinates":[1.852882,49.029411],"type":"Point"},"properties":{"osm_id":"2278282990","tag":{"amenity":"recycling","recycling:clothes":"yes","recycling_type":"container"}},"type":"Feature"},
	{"geometry":{"coordinates":[1.912522,48.992301],"type":"Point"},"properties":{"osm_id":"2792412757","tag":{"amenity":"waste_basket"}},"type":"Feature"},
	{"geometry":{"coordinates":[1.912782,48.992303],"type":"Point"},"properties":{"osm_id":"2792412758","tag":{"amenity":"waste_basket"}},"type":"Feature"},
	{"geometry":{"coordinates":[1.912586,48.992321],"type":"Point"},"properties":{"osm_id":"2792412759","tag":{"amenity":"waste_basket"}},"type":"Feature"},
	{"geometry":{"coordinates":[1.912794,48.992392],"type":"Point"},"properties":{"osm_id":"2792412765","tag":{"amenity":"waste_basket"}},"type":"Feature"},
	{"geometry":{"coordinates":[1.913079,48.992394],"type":"Point"},"properties":{"osm_id":"2792412766","tag":{"amenity":"waste_basket"}},"type":"Feature"},
	{"geometry":{"coordinates":[1.913217,48.992431],"type":"Point"},"properties":{"osm_id":"2792412769","tag":{"amenity":"waste_basket"}},"type":"Feature"},
	{"geometry":{"coordinates":[1.912965,48.992463],"type":"Point"},"properties":{"osm_id":"2792412771","tag":{"amenity":"waste_basket"}},"type":"Feature"},
	{"geometry":{"coordinates":[1.91298,48.992468],"type":"Point"},"properties":{"osm_id":"2792412775","tag":{"amenity":"waste_basket"}},"type":"Feature"},
	{"geometry":{"coordinates":[1.913658,48.992488],"type":"Point"},"properties":{"osm_id":"2792412788","tag":{"amenity":"waste_basket","layer":"-1"}},"type":"Feature"},
	{"geometry":{"coordinates":[1.913101,48.992497],"type":"Point"},"properties":{"osm_id":"2792412794","tag":{"amenity":"waste_basket"}},"type":"Feature"},
	{"geometry":{"coordinates":[1.913458,48.992519],"type":"Point"},"properties":{"osm_id":"2792412809","tag":{"amenity":"waste_basket"}},"type":"Feature"},
	{"geometry":{"coordinates":[1.913658,48.992519],"type":"Point"},"properties":{"osm_id":"2792412811","tag":{"amenity":"waste_basket","layer":"-1"}},"type":"Feature"},
	{"geometry":{"coordinates":[1.913184,48.992525],"type":"Point"},"properties":{"osm_id":"2792412829","tag":{"amenity":"waste_basket"}},"type":"Feature"},
	{"geometry":{"coordinates":[1.913577,48.992526],"type":"Point"},"properties":{"osm_id":"2792412831","tag":{"amenity":"waste_basket"}},"type":"Feature"},
	{"geometry":{"coordinates":[1.913215,48.99255],"type":"Point"},"properties":{"osm_id":"2792412842","tag":{"amenity":"waste_basket"}},"type":"Feature"},
	{"geometry":{"coordinates":[1.913679,48.992566],"type":"Point"},"properties":{"osm_id":"2792412852","tag":{"amenity":"waste_basket"}},"type":"Feature"},
	{"geometry":{"coordinates":[1.913602,48.992574],"type":"Point"},"properties":{"osm_id":"2792412854","tag":{"amenity":"waste_basket","layer":"-1"}},"type":"Feature"},
	{"geometry":{"coordinates":[1.9134,48.992575],"type":"Point"},"properties":{"osm_id":"2792412855","tag":{"amenity":"waste_basket"}},"type":"Feature"},
	{"geometry":{"coordinates":[1.913751,48.992584],"type":"Point"},"properties":{"osm_id":"2792412857","tag":{"amenity":"waste_basket"}},"type":"Feature"},
	{"geometry":{"coordinates":[1.913641,48.992586],"type":"Point"},"properties":{"osm_id":"2792412858","tag":{"amenity":"waste_basket","layer":"-1"}},"type":"Feature"},
	{"geometry":{"coordinates":[1.912911,48.992626],"type":"Point"},"properties":{"osm_id":"2792412887","tag":{"amenity":"waste_basket","layer":"-1"}},"type":"Feature"},
	{"geometry":{"coordinates":[1.913575,48.992635],"type":"Point"},"properties":{"osm_id":"2792412898","tag":{"amenity":"waste_basket","layer":"-1"}},"type":"Feature"},
	{"geometry":{"coordinates":[1.91361,48.992649],"type":"Point"},"properties":{"osm_id":"2792412909","tag":{"amenity":"waste_basket","layer":"-1"}},"type":"Feature"},
	{"geometry":{"coordinates":[1.914001,48.992669],"type":"Point"},"properties":{"osm_id":"2792412925","tag":{"amenity":"waste_basket"}},"type":"Feature"},
	{"geometry":{"coordinates":[1.913182,48.992674],"type":"Point"},"properties":{"osm_id":"2792412930","tag":{"amenity":"waste_basket","layer":"-1"}},"type":"Feature"},
	{"geometry":{"coordinates":[1.913679,48.992691],"type":"Point"},"properties":{"osm_id":"2792412932","tag":{"amenity":"waste_basket"}},"type":"Feature"},
	{"geometry":{"coordinates":[1.913825,48.992735],"type":"Point"},"properties":{"osm_id":"2792412944","tag":{"amenity":"waste_basket"}},"type":"Feature"},
	{"geometry":{"coordinates":[1.913954,48.992764],"type":"Point"},"properties":{"osm_id":"2792412948","tag":{"amenity":"waste_basket"}},"type":"Feature"},
	{"geometry":{"coordinates":[1.913074,48.992777],"type":"Point"},"properties":{"osm_id":"2792412953","tag":{"amenity":"waste_basket","layer":"-1"}},"type":"Feature"},
	{"geometry":{"coordinates":[1.914447,48.992822],"type":"Point"},"properties":{"osm_id":"2792412961","tag":{"amenity":"waste_basket"}},"type":"Feature"},
	{"geometry":{"coordinates":[1.914196,48.992829],"type":"Point"},"properties":{"osm_id":"2792412967","tag":{"amenity":"waste_basket"}},"type":"Feature"},
	{"geometry":{"coordinates":[1.914469,48.992927],"type":"Point"},"properties":{"osm_id":"2792412973","tag":{"amenity":"waste_basket"}},"type":"Feature"},
	{"geometry":{"coordinates":[1.901037,49.005538],"type":"Point"},"properties":{"osm_id":"2813206315","tag":{"amenity":"waste_basket"}},"type":"Feature"},
	{"geometry":{"coordinates":[1.901356,49.005605],"type":"Point"},"properties":{"osm_id":"2813206323","tag":{"amenity":"waste_basket"}},"type":"Feature"},
	{"geometry":{"coordinates":[1.902034,49.005635],"type":"Point"},"properties":{"osm_id":"2813206333","tag":{"amenity":"waste_basket"}},"type":"Feature"},
	{"geometry":{"coordinates":[1.901644,49.005639],"type":"Point"},"properties":{"osm_id":"2813206335","tag":{"amenity":"waste_basket"}},"type":"Feature"},
	{"geometry":{"coordinates":[1.901792,49.005641],"type":"Point"},"properties":{"osm_id":"2813206336","tag":{"amenity":"waste_basket"}},"type":"Feature"},
	{"geometry":{"coordinates":[1.902206,49.005643],"type":"Point"},"properties":{"osm_id":"2813206338","tag":{"amenity":"waste_basket"}},"type":"Feature"},
	{"geometry":{"coordinates":[1.901115,49.005658],"type":"Point"},"properties":{"osm_id":"2813206344","tag":{"amenity":"waste_basket"}},"type":"Feature"},
	{"geometry":{"coordinates":[1.901824,49.005671],"type":"Point"},"properties":{"osm_id":"2813206346","tag":{"amenity":"waste_basket"}},"type":"Feature"},
	{"geometry":{"coordinates":[1.902113,49.005671],"type":"Point"},"properties":{"osm_id":"2813206348","tag":{"amenity":"waste_basket"}},"type":"Feature"},
	{"geometry":{"coordinates":[1.902075,49.005694],"type":"Point"},"properties":{"osm_id":"2813206358","tag":{"amenity":"waste_basket"}},"type":"Feature"},
	{"geometry":{"coordinates":[1.90197,49.005697],"type":"Point"},"properties":{"osm_id":"2813206360","tag":{"amenity":"waste_basket"}},"type":"Feature"},
	{"geometry":{"coordinates":[1.901409,49.005723],"type":"Point"},"properties":{"osm_id":"2813206367","tag":{"amenity":"waste_basket"}},"type":"Feature"},
	{"geometry":{"coordinates":[1.90211,49.005753],"type":"Point"},"properties":{"osm_id":"2813206377","tag":{"amenity":"waste_basket"}},"type":"Feature"},
	{"geometry":{"coordinates":[1.902257,49.005754],"type":"Point"},"properties":{"osm_id":"2813206378","tag":{"amenity":"waste_basket","layer":"-1"}},"type":"Feature"},
	{"geometry":{"coordinates":[1.901761,49.005802],"type":"Point"},"properties":{"osm_id":"2813206387","tag":{"amenity":"waste_basket"}},"type":"Feature"},
	{"geometry":{"coordinates":[1.90168,49.005818],"type":"Point"},"properties":{"osm_id":"2813206389","tag":{"amenity":"waste_basket"}},"type":"Feature"},
	{"geometry":{"coordinates":[1.902004,49.005853],"type":"Point"},"properties":{"osm_id":"2813206396","tag":{"amenity":"waste_basket"}},"type":"Feature"},
	{"geometry":{"coordinates":[1.901987,49.005878],"type":"Point"},"properties":{"osm_id":"2813206400","tag":{"amenity":"waste_basket"}},"type":"Feature"},
	{"geometry":{"coordinates":[1.902134,49.005891],"type":"Point"},"properties":{"osm_id":"2813206802","tag":{"amenity":"waste_basket"}},"type":"Feature"},
	{"geometry":{"coordinates":[1.902114,49.005929],"type":"Point"},"properties":{"osm_id":"2813206811","tag":{"amenity":"waste_basket","layer":"-1"}},"type":"Feature"},
	{"geometry":{"coordinates":[1.902705,49.005968],"type":"Point"},"properties":{"osm_id":"2813206814","tag":{"amenity":"waste_basket"}},"type":"Feature"},
	{"geometry":{"coordinates":[1.903387,49.005998],"type":"Point"},"properties":{"osm_id":"2813206816","tag":{"amenity":"waste_basket"}},"type":"Feature"},
	{"geometry":{"coordinates":[1.90309,49.006044],"type":"Point"},"properties":{"osm_id":"2813206820","tag":{"amenity":"waste_basket"}},"type":"Feature"},
	{"geometry":{"coordinates":[1.903407,49.006094],"type":"Point"},"properties":{"osm_id":"2813206825","tag":{"amenity":"waste_basket"}},"type":"Feature"},
	{"geometry":{"coordinates":[1.917907,49.006442],"type":"Point"},"properties":{"osm_id":"2816109459","tag":{"amenity":"waste_basket"}},"type":"Feature"},
	{"geometry":{"coordinates":[1.918282,49.006503],"type":"Point"},"properties":{"osm_id":"2816109465","tag":{"amenity":"waste_basket"}},"type":"Feature"},
	{"geometry":{"coordinates":[1.918025,49.006553],"type":"Point"},"properties":{"osm_id":"2816109470","tag":{"amenity":"waste_basket"}},"type":"Feature"},
	{"geometry":{"coordinates":[1.918741,49.006568],"type":"Point"},"properties":{"osm_id":"2816109472","tag":{"amenity":"waste_basket"}},"type":"Feature"},
	{"geometry":{"coordinates":[1.919131,49.006604],"type":"Point"},"properties":{"osm_id":"2816109487","tag":{"amenity":"waste_basket"}},"type":"Feature"},
	{"geometry":{"coordinates":[1.918456,49.006622],"type":"Point"},"properties":{"osm_id":"2816109491","tag":{"amenity":"waste_basket"}},"type":"Feature"},
	{"geometry":{"coordinates":[1.918734,49.006657],"type":"Point"},"properties":{"osm_id":"2816109499","tag":{"amenity":"waste_basket"}},"type":"Feature"},
	{"geometry":{"coordinates":[1.919459,49.006676],"type":"Point"},"properties":{"osm_id":"2816110008","tag":{"amenity":"waste_basket"}},"type":"Feature"},
	{"geometry":{"coordinates":[1.919838,49.006722],"type":"Point"},"properties":{"osm_id":"2816110016","tag":{"amenity":"waste_basket"}},"type":"Feature"},
	{"geometry":{"coordinates":[1.91903,49.006737],"type":"Point"},"properties":{"osm_id":"2816110021","tag":{"amenity":"waste_basket"}},"type":"Feature"},
	{"geometry":{"coordinates":[1.919324,49.006753],"type":"Point"},"properties":{"osm_id":"2816110030","tag":{"amenity":"waste_basket"}},"type":"Feature"},
	{"geometry":{"coordinates":[1.919251,49.006792],"type":"Point"},"properties":{"osm_id":"2816110042","tag":{"amenity":"waste_basket","layer":"1"}},"type":"Feature"},
	{"geometry":{"coordinates":[1.91973,49.006806],"type":"Point"},"properties":{"osm_id":"2816110048","tag":{"amenity":"waste_basket"}},"type":"Feature"},
	{"geometry":{"coordinates":[1.91993,49.006825],"type":"Point"},"properties":{"osm_id":"2816110058","tag":{"amenity":"waste_basket"}},"type":"Feature"},
	{"geometry":{"coordinates":[1.919224,49.006828],"type":"Point"},"properties":{"osm_id":"2816110061","tag":{"amenity":"waste_basket"}},"type":"Feature"},
	{"geometry":{"coordinates":[1.920034,49.006833],"type":"Point"},"properties":{"osm_id":"2816110064","tag":{"amenity":"waste_basket"}},"type":"Feature"},
	{"geometry":{"coordinates":[1.919272,49.006876],"type":"Point"},"properties":{"osm_id":"2816110078","tag":{"amenity":"waste_basket"}},"type":"Feature"},
	{"geometry":{"coordinates":[1.845895,48.99217],"type":"Point"},"properties":{"osm_id":"2818226155","tag":{"amenity":"waste_basket"}},"type":"Feature"},
	{"geometry":{"coordinates":[1.846132,48.992257],"type":"Point"},"properties":{"osm_id":"2818226174","tag":{"amenity":"waste_basket"}},"type":"Feature"},
	{"geometry":{"coordinates":[1.845772,48.992274],"type":"Point"},"properties":{"osm_id":"2818226179","tag":{"amenity":"waste_basket"}},"type":"Feature"},
	{"geometry":{"coordinates":[1.845924,48.992301],"type":"Point"},"properties":{"osm_id":"2818226194","tag":{"amenity":"waste_basket"}},"type":"Feature"},
	{"geometry":{"coordinates":[1.845736,48.992322],"type":"Point"},"properties":{"osm_id":"2818226807","tag":{"amenity":"waste_basket"}},"type":"Feature"},
	{"geometry":{"coordinates":[1.845757,48.992358],"type":"Point"},"properties":{"osm_id":"2818226819","tag":{"amenity":"waste_basket"}},"type":"Feature"},
	{"geometry":{"coordinates":[1.845873,48.992411],"type":"Point"},"properties":{"osm_id":"2818226831","tag":{"amenity":"waste_basket"}},"type":"Feature"},
	{"geometry":{"coordinates":[1.906776,49.006556],"type":"Point"},"properties":{"osm_id":"5318782872","tag":{"amenity":"waste_disposal"}},"type":"Feature"},
	{"geometry":{"coordinates":[1.908197,48.980594],"type":"Point"},"properties":{"osm_id":"7120124127","tag":{"amenity":"waste_basket","waste":"trash"}},"type":"Feature"},
	{"geometry":{"coordinates":[1.90838,48.980491],"type":"Point"},"properties":{"osm_id":"7120124129","tag":{"amenity":"waste_basket","waste":"trash"}},"type":"Feature"},
	{"geometry":{"coordinates":[1.907401,48.980502],"type":"Point"},"properties":{"osm_id":"7120124132","tag":{"amenity":"waste_basket","waste":"trash"}},"type":"Feature"}
]
}
