{
"type": "FeatureCollection",
"features": [
	{"geometry":{"coordinates":[1.92585,47.814052],"type":"Point"},"properties":{"osm_id":"1531911071","tag":{"amenity":"waste_basket"}},"type":"Feature"},
	{"geometry":{"coordinates":[1.924984,47.813532],"type":"Point"},"properties":{"osm_id":"1531911076","tag":{"amenity":"waste_basket"}},"type":"Feature"},
	{"geometry":{"coordinates":[1.929891,47.815594],"type":"Point"},"properties":{"osm_id":"1598124574","tag":{"amenity":"recycling","recycling:glass_bottles":"yes","recycling_type":"container"}},"type":"Feature"},
	{"geometry":{"coordinates":[1.930563,47.82551],"type":"Point"},"properties":{"osm_id":"1943167311","tag":{"amenity":"recycling","location":"overground","recycling:clothes":"yes","recycling:glass_bottles":"yes","recycling:shoes":"yes","recycling_type":"container"}},"type":"Feature"},
	{"geometry":{"coordinates":[1.92032,47.855527],"type":"Point"},"properties":{"osm_id":"2123820175","tag":{"amenity":"recycling","recycling:glass_bottles":"yes","recycling_type":"container"}},"type":"Feature"},
	{"geometry":{"coordinates":[1.883097,47.849501],"type":"Point"},"properties":{"osm_id":"2629279074","tag":{"amenity":"recycling","recycling:glass_bottles":"yes","recycling_type":"container"}},"type":"Feature"},
	{"geometry":{"coordinates":[1.898819,47.853951],"type":"Point"},"properties":{"osm_id":"3377077611","tag":{"amenity":"recycling","recycling:glass_bottles":"yes","recycling_type":"container"}},"type":"Feature"},
	{"geometry":{"coordinates":[1.920977,47.828626],"type":"Point"},"properties":{"osm_id":"3445459094","tag":{"amenity":"recycling","location":"overground","recycling_type":"container"}},"type":"Feature"},
	{"geometry":{"coordinates":[1.923934,47.82333],"type":"Point"},"properties":{"osm_id":"3564356195","tag":{"amenity":"recycling","recycling:glass_bottles":"yes","recycling_type":"container"}},"type":"Feature"},
	{"geometry":{"coordinates":[1.86969,47.840535],"type":"Point"},"properties":{"osm_id":"3599263195","tag":{"amenity":"recycling","recycling_type":"container"}},"type":"Feature"},
	{"geometry":{"coordinates":[1.925356,47.855963],"type":"Point"},"properties":{"osm_id":"3601368494","tag":{"amenity":"recycling","recycling_type":"container"}},"type":"Feature"},
	{"geometry":{"coordinates":[1.916896,47.865381],"type":"Point"},"properties":{"osm_id":"3609419826","tag":{"amenity":"recycling","recycling:glass_bottles":"yes"}},"type":"Feature"},
	{"geometry":{"coordinates":[1.900154,47.861474],"type":"Point"},"properties":{"osm_id":"3719795240","tag":{"amenity":"recycling","recycling:glass_bottles":"yes","recycling_type":"container"}},"type":"Feature"},
	{"geometry":{"coordinates":[1.907319,47.856194],"type":"Point"},"properties":{"osm_id":"3772532462","tag":{"addr:city":"Olivet","addr:postcode":"45160","addr:street":"Rue Jacques Monod","amenity":"recycling","recycling:cans":"yes","recycling:clothes":"no","recycling:glass":"no","recycling:glass_bottles":"no","recycling:paper":"yes","recycling_type":"container"}},"type":"Feature"},
	{"geometry":{"coordinates":[1.907302,47.856185],"type":"Point"},"properties":{"osm_id":"3772532463","tag":{"amenity":"waste_disposal"}},"type":"Feature"},
	{"geometry":{"coordinates":[1.907283,47.856174],"type":"Point"},"properties":{"osm_id":"3772532464","tag":{"amenity":"waste_disposal"}},"type":"Feature"},
	{"geometry":{"coordinates":[1.905358,47.857285],"type":"Point"},"properties":{"osm_id":"3772532465","tag":{"amenity":"waste_basket"}},"type":"Feature"},
	{"geometry":{"coordinates":[1.924576,47.852675],"type":"Point"},"properties":{"osm_id":"3782539414","tag":{"amenity":"recycling","recycling_type":"container"}},"type":"Feature"},
	{"geometry":{"coordinates":[1.922857,47.846379],"type":"Point"},"properties":{"osm_id":"3818173490","tag":{"amenity":"recycling","recycling:cans":"no","recycling:glass_bottles":"yes","recycling:paper":"no","recycling_type":"container"}},"type":"Feature"},
	{"geometry":{"coordinates":[1.922844,47.846334],"type":"Point"},"properties":{"osm_id":"3818173491","tag":{"amenity":"waste_basket"}},"type":"Feature"},
	{"geometry":{"coordinates":[1.932185,47.834627],"type":"Point"},"properties":{"osm_id":"3875794017","tag":{"amenity":"recycling","recycling:glass_bottles":"yes","recycling_type":"container"}},"type":"Feature"},
	{"geometry":{"coordinates":[1.905696,47.859206],"type":"Point"},"properties":{"osm_id":"3950234383","tag":{"addr:city":"Olivet","addr:postcode":"45160","addr:street":"Rue Fernand Cognet","amenity":"recycling","recycling:cans":"no","recycling:clothes":"no","recycling:glass_bottles":"yes","recycling:paper":"no","recycling:plastic":"no","recycling_type":"container"}},"type":"Feature"},
	{"geometry":{"coordinates":[1.906568,47.857635],"type":"Point"},"properties":{"osm_id":"3950234390","tag":{"amenity":"waste_basket"}},"type":"Feature"},
	{"geometry":{"coordinates":[1.907887,47.855887],"type":"Point"},"properties":{"osm_id":"3950234401","tag":{"addr:city":"Olivet","addr:postcode":"45160","addr:street":"Rue du Docteur J. Chapelet","amenity":"recycling","recycling:clothes":"no","recycling:glass_bottles":"yes","recycling:paper":"no","recycling:plastic":"no","recycling_type":"container"}},"type":"Feature"},
	{"geometry":{"coordinates":[1.91028,47.854984],"type":"Point"},"properties":{"osm_id":"3950234402","tag":{"amenity":"waste_basket"}},"type":"Feature"},
	{"geometry":{"coordinates":[1.910352,47.854572],"type":"Point"},"properties":{"osm_id":"3950234403","tag":{"amenity":"waste_basket"}},"type":"Feature"},
	{"geometry":{"coordinates":[1.909941,47.854533],"type":"Point"},"properties":{"osm_id":"3950234404","tag":{"addr:city":"Olivet","addr:postcode":"45160","addr:street":"Rue du Docteur J. Chapelet","amenity":"recycling","recycling:cans":"yes","recycling:clothes":"no","recycling:glass":"no","recycling:glass_bottles":"no","recycling:paper":"yes","recycling:plastic":"yes","recycling_type":"container"}},"type":"Feature"},
	{"geometry":{"coordinates":[1.909964,47.85452],"type":"Point"},"properties":{"osm_id":"3950234405","tag":{"amenity":"waste_disposal"}},"type":"Feature"},
	{"geometry":{"coordinates":[1.909394,47.854878],"type":"Point"},"properties":{"osm_id":"3950234406","tag":{"amenity":"waste_disposal"}},"type":"Feature"},
	{"geometry":{"coordinates":[1.909417,47.854865],"type":"Point"},"properties":{"osm_id":"3950234407","tag":{"addr:city":"Olivet","addr:postcode":"45160","addr:street":"Rue du Docteur J. Chapelet","amenity":"recycling","recycling:cans":"yes","recycling:clothes":"no","recycling:glass":"no","recycling:glass_bottles":"no","recycling:paper":"yes","recycling:plastic":"yes","recycling_type":"container"}},"type":"Feature"},
	{"geometry":{"coordinates":[1.909192,47.855005],"type":"Point"},"properties":{"osm_id":"3950234408","tag":{"addr:city":"Olivet","addr:postcode":"45160","addr:street":"Rue du Docteur J. Chapelet","amenity":"recycling","recycling:cans":"yes","recycling:clothes":"no","recycling:glass":"no","recycling:glass_bottles":"no","recycling:paper":"yes","recycling:plastic":"yes","recycling_type":"container"}},"type":"Feature"},
	{"geometry":{"coordinates":[1.90917,47.855018],"type":"Point"},"properties":{"osm_id":"3950234409","tag":{"amenity":"waste_disposal"}},"type":"Feature"},
	{"geometry":{"coordinates":[1.908654,47.855332],"type":"Point"},"properties":{"osm_id":"3950234410","tag":{"addr:city":"Olivet","addr:postcode":"45160","addr:street":"Rue du Docteur J. Chapelet","amenity":"recycling","recycling:cans":"yes","recycling:clothes":"no","recycling:glass":"no","recycling:glass_bottles":"no","recycling:paper":"yes","recycling:plastic":"yes","recycling_type":"container"}},"type":"Feature"},
	{"geometry":{"coordinates":[1.908629,47.855349],"type":"Point"},"properties":{"osm_id":"3950234411","tag":{"amenity":"waste_disposal"}},"type":"Feature"},
	{"geometry":{"coordinates":[1.908366,47.855509],"type":"Point"},"properties":{"osm_id":"3950234412","tag":{"amenity":"waste_disposal"}},"type":"Feature"},
	{"geometry":{"coordinates":[1.908386,47.855499],"type":"Point"},"properties":{"osm_id":"3950234413","tag":{"addr:city":"Olivet","addr:postcode":"45160","addr:street":"Rue du Docteur J. Chapelet","amenity":"recycling","recycling:cans":"yes","recycling:clothes":"no","recycling:glass":"no","recycling:glass_bottles":"no","recycling:paper":"yes","recycling:plastic":"yes","recycling_type":"container"}},"type":"Feature"},
	{"geometry":{"coordinates":[1.898106,47.865657],"type":"Point"},"properties":{"osm_id":"3951779125","tag":{"amenity":"recycling","recycling:cans":"no","recycling:clothes":"no","recycling:glass_bottles":"yes","recycling:paper":"no","recycling:plastic":"no","recycling_type":"container"}},"type":"Feature"},
	{"geometry":{"coordinates":[1.898154,47.865687],"type":"Point"},"properties":{"osm_id":"3951779126","tag":{"amenity":"waste_basket"}},"type":"Feature"},
	{"geometry":{"coordinates":[1.902879,47.862241],"type":"Point"},"properties":{"osm_id":"3951779127","tag":{"amenity":"recycling","recycling:cans":"no","recycling:glass_bottles":"yes","recycling:paper":"no","recycling:plastic":"no","recycling_type":"container"}},"type":"Feature"},
	{"geometry":{"coordinates":[1.902843,47.862253],"type":"Point"},"properties":{"osm_id":"3951779128","tag":{"amenity":"waste_basket"}},"type":"Feature"},
	{"geometry":{"coordinates":[1.921903,47.845144],"type":"Point"},"properties":{"osm_id":"3958559694","tag":{"amenity":"waste_basket"}},"type":"Feature"},
	{"geometry":{"coordinates":[1.921595,47.845101],"type":"Point"},"properties":{"osm_id":"3958559695","tag":{"addr:city":"Olivet","addr:postcode":"45160","addr:street":"Rue de la Bergeresse","amenity":"recycling","recycling:cans":"no","recycling:clothes":"no","recycling:glass_bottles":"yes","recycling:paper":"no","recycling:plastic":"no","recycling_type":"container"}},"type":"Feature"},
	{"geometry":{"coordinates":[1.905816,47.866309],"type":"Point"},"properties":{"osm_id":"3971962554","tag":{"addr:city":"Olivet","addr:postcode":"45160","addr:street":"Rue H\u00c3\u00a8me","amenity":"recycling","recycling:cans":"no","recycling:clothes":"no","recycling:glass_bottles":"yes","recycling:paper":"no","recycling:plastic":"no","recycling_type":"container"}},"type":"Feature"},
	{"geometry":{"coordinates":[1.906614,47.854939],"type":"Point"},"properties":{"osm_id":"4013497909","tag":{"amenity":"recycling","recycling:cans":"yes","recycling_type":"container"}},"type":"Feature"},
	{"geometry":{"coordinates":[1.910368,47.868709],"type":"Point"},"properties":{"osm_id":"4018328516","tag":{"amenity":"recycling","recycling:glass_bottles":"yes"}},"type":"Feature"},
	{"geometry":{"coordinates":[1.907152,47.854659],"type":"Point"},"properties":{"osm_id":"4018337299","tag":{"amenity":"recycling","recycling_type":"container"}},"type":"Feature"},
	{"geometry":{"coordinates":[1.913113,47.855666],"type":"Point"},"properties":{"osm_id":"4108455923","tag":{"addr:city":"Olivet","addr:postcode":"45160","addr:street":"Rue du Camp des Indiens","amenity":"recycling","recycling:clothes":"no","recycling:glass_bottles":"yes","recycling:paper":"no","recycling:plastic":"no","recycling_type":"container"}},"type":"Feature"},
	{"geometry":{"coordinates":[1.888266,47.866567],"type":"Point"},"properties":{"osm_id":"4366868057","tag":{"amenity":"recycling","location":"overground","recycling:glass_bottles":"yes","recycling_type":"container"}},"type":"Feature"},
	{"geometry":{"coordinates":[1.893901,47.845874],"type":"Point"},"properties":{"osm_id":"4366868058","tag":{"addr:city":"Olivet","addr:postcode":"45160","addr:street":"Rue de l'H\u00c3\u00b4tel-Dieu","amenity":"recycling","recycling:glass_bottles":"yes","recycling_type":"container"}},"type":"Feature"},
	{"geometry":{"coordinates":[1.909251,47.848153],"type":"Point"},"properties":{"osm_id":"4393881298","tag":{"addr:city":"Olivet","addr:postcode":"45160","addr:street":"Rue de la Belle Croix","amenity":"recycling","recycling:glass_bottles":"yes","recycling_type":"container"}},"type":"Feature"},
	{"geometry":{"coordinates":[1.891372,47.863589],"type":"Point"},"properties":{"osm_id":"4422900972","tag":{"amenity":"recycling","recycling:glass_bottles":"yes","recycling_type":"container"}},"type":"Feature"},
	{"geometry":{"coordinates":[1.890212,47.862286],"type":"Point"},"properties":{"osm_id":"4422901294","tag":{"amenity":"recycling","recycling:glass_bottles":"yes","recycling_type":"container"}},"type":"Feature"},
	{"geometry":{"coordinates":[1.904176,47.857317],"type":"Point"},"properties":{"osm_id":"4542036134","tag":{"amenity":"recycling","recycling:clothes":"yes","recycling_type":"container"}},"type":"Feature"},
	{"geometry":{"coordinates":[1.921699,47.847021],"type":"Point"},"properties":{"osm_id":"4542042063","tag":{"amenity":"recycling","recycling:beverage_cartons":"yes","recycling:cans":"yes","recycling:cardboard":"yes","recycling:glass_bottles":"yes","recycling:magazines":"yes","recycling:newspaper":"yes","recycling:paper":"yes","recycling:plastic":"yes","recycling:plastic_bottles":"yes","recycling:plastic_packaging":"yes","recycling_type":"container"}},"type":"Feature"},
	{"geometry":{"coordinates":[1.874902,47.861884],"type":"Point"},"properties":{"osm_id":"4669756004","tag":{"amenity":"recycling","recycling:glass_bottles":"yes","recycling_type":"container"}},"type":"Feature"},
	{"geometry":{"coordinates":[1.93179,47.83576],"type":"Point"},"properties":{"osm_id":"5115243070","tag":{"amenity":"waste_disposal"}},"type":"Feature"},
	{"geometry":{"coordinates":[1.912919,47.865208],"type":"Point"},"properties":{"osm_id":"5141041639","tag":{"amenity":"recycling","recycling_type":"container"}},"type":"Feature"},
	{"geometry":{"coordinates":[1.932777,47.823441],"type":"Point"},"properties":{"osm_id":"5191037543","tag":{"amenity":"waste_basket"}},"type":"Feature"},
	{"geometry":{"coordinates":[1.928475,47.828448],"type":"Point"},"properties":{"osm_id":"5193512733","tag":{"amenity":"waste_basket"}},"type":"Feature"},
	{"geometry":{"coordinates":[1.93093,47.825515],"type":"Point"},"properties":{"osm_id":"5193520522","tag":{"amenity":"waste_basket"}},"type":"Feature"},
	{"geometry":{"coordinates":[1.92973,47.826988],"type":"Point"},"properties":{"osm_id":"5193520523","tag":{"amenity":"waste_basket"}},"type":"Feature"},
	{"geometry":{"coordinates":[1.929379,47.827014],"type":"Point"},"properties":{"osm_id":"5193520524","tag":{"amenity":"recycling","recycling:glass_bottles":"yes","recycling_type":"container"}},"type":"Feature"},
	{"geometry":{"coordinates":[1.929354,47.827056],"type":"Point"},"properties":{"osm_id":"5193531423","tag":{"amenity":"waste_basket"}},"type":"Feature"},
	{"geometry":{"coordinates":[1.927608,47.83063],"type":"Point"},"properties":{"osm_id":"5193531425","tag":{"amenity":"waste_basket"}},"type":"Feature"},
	{"geometry":{"coordinates":[1.928605,47.830683],"type":"Point"},"properties":{"osm_id":"5193531426","tag":{"amenity":"recycling","location":"underground","recycling_type":"container"}},"type":"Feature"},
	{"geometry":{"coordinates":[1.928887,47.831799],"type":"Point"},"properties":{"osm_id":"5193531427","tag":{"amenity":"waste_basket"}},"type":"Feature"},
	{"geometry":{"coordinates":[1.929451,47.831613],"type":"Point"},"properties":{"osm_id":"5193531428","tag":{"amenity":"waste_basket"}},"type":"Feature"},
	{"geometry":{"coordinates":[1.931733,47.829939],"type":"Point"},"properties":{"osm_id":"5193531430","tag":{"amenity":"waste_basket"}},"type":"Feature"},
	{"geometry":{"coordinates":[1.931826,47.829846],"type":"Point"},"properties":{"osm_id":"5193531431","tag":{"amenity":"waste_basket"}},"type":"Feature"},
	{"geometry":{"coordinates":[1.927523,47.829443],"type":"Point"},"properties":{"osm_id":"5193531824","tag":{"amenity":"waste_basket"}},"type":"Feature"},
	{"geometry":{"coordinates":[1.927915,47.82957],"type":"Point"},"properties":{"osm_id":"5193532021","tag":{"amenity":"recycling","recycling:glass_bottles":"yes","recycling:plastic":"yes","recycling_type":"container"}},"type":"Feature"},
	{"geometry":{"coordinates":[1.928429,47.830431],"type":"Point"},"properties":{"osm_id":"5193532221","tag":{"amenity":"recycling","location":"overground","recycling_type":"container"}},"type":"Feature"},
	{"geometry":{"coordinates":[1.932115,47.828555],"type":"Point"},"properties":{"osm_id":"5193532223","tag":{"amenity":"waste_basket"}},"type":"Feature"},
	{"geometry":{"coordinates":[1.93298,47.823681],"type":"Point"},"properties":{"osm_id":"5301935124","tag":{"amenity":"waste_basket"}},"type":"Feature"},
	{"geometry":{"coordinates":[1.930087,47.825053],"type":"Point"},"properties":{"osm_id":"5301935126","tag":{"amenity":"waste_basket"}},"type":"Feature"},
	{"geometry":{"coordinates":[1.929375,47.824285],"type":"Point"},"properties":{"osm_id":"5301940224","tag":{"amenity":"waste_basket"}},"type":"Feature"},
	{"geometry":{"coordinates":[1.929636,47.824533],"type":"Point"},"properties":{"osm_id":"5301940226","tag":{"amenity":"waste_basket"}},"type":"Feature"},
	{"geometry":{"coordinates":[1.930005,47.825518],"type":"Point"},"properties":{"osm_id":"5301940227","tag":{"amenity":"waste_basket"}},"type":"Feature"},
	{"geometry":{"coordinates":[1.931645,47.834789],"type":"Point"},"properties":{"osm_id":"5304615922","tag":{"amenity":"waste_basket"}},"type":"Feature"},
	{"geometry":{"coordinates":[1.86854,47.869715],"type":"Point"},"properties":{"osm_id":"5362361496","tag":{"amenity":"waste_basket"}},"type":"Feature"},
	{"geometry":{"coordinates":[1.927687,47.81752],"type":"Point"},"properties":{"osm_id":"5734100803","tag":{"amenity":"recycling","recycling:glass_bottles":"yes","recycling_type":"container"}},"type":"Feature"},
	{"geometry":{"coordinates":[1.931781,47.822438],"type":"Point"},"properties":{"osm_id":"6002348386","tag":{"amenity":"recycling","recycling:glass_bottles":"yes"}},"type":"Feature"},
	{"geometry":{"coordinates":[1.931793,47.82246],"type":"Point"},"properties":{"osm_id":"6002348387","tag":{"amenity":"waste_basket"}},"type":"Feature"},
	{"geometry":{"coordinates":[1.932093,47.819125],"type":"Point"},"properties":{"osm_id":"6002354489","tag":{"amenity":"waste_basket"}},"type":"Feature"},
	{"geometry":{"coordinates":[1.932085,47.819109],"type":"Point"},"properties":{"osm_id":"6002354685","tag":{"amenity":"recycling","recycling:glass_bottles":"yes"}},"type":"Feature"},
	{"geometry":{"coordinates":[1.928695,47.845868],"type":"Point"},"properties":{"osm_id":"6003460509","tag":{"amenity":"recycling","recycling:clothes":"yes","recycling_type":"container"}},"type":"Feature"},
	{"geometry":{"coordinates":[1.928644,47.845899],"type":"Point"},"properties":{"osm_id":"6070538683","tag":{"amenity":"waste_basket"}},"type":"Feature"},
	{"geometry":{"coordinates":[1.925381,47.813841],"type":"Point"},"properties":{"osm_id":"6195561690","tag":{"amenity":"waste_basket"}},"type":"Feature"},
	{"geometry":{"coordinates":[1.926467,47.814219],"type":"Point"},"properties":{"osm_id":"6195561759","tag":{"amenity":"waste_basket"}},"type":"Feature"},
	{"geometry":{"coordinates":[1.932661,47.816289],"type":"Point"},"properties":{"osm_id":"6195561996","tag":{"amenity":"waste_basket"}},"type":"Feature"},
	{"geometry":{"coordinates":[1.931396,47.835945],"type":"Point"},"properties":{"osm_id":"6195561997","tag":{"amenity":"waste_basket"}},"type":"Feature"},
	{"geometry":{"coordinates":[1.927381,47.835743],"type":"Point"},"properties":{"osm_id":"6195562059","tag":{"amenity":"waste_basket"}},"type":"Feature"},
	{"geometry":{"coordinates":[1.928254,47.832101],"type":"Point"},"properties":{"osm_id":"6195562060","tag":{"amenity":"waste_basket"}},"type":"Feature"},
	{"geometry":{"coordinates":[1.929584,47.841288],"type":"Point"},"properties":{"osm_id":"6195562204","tag":{"amenity":"waste_basket"}},"type":"Feature"},
	{"geometry":{"coordinates":[1.928462,47.842105],"type":"Point"},"properties":{"osm_id":"6195562205","tag":{"amenity":"waste_basket"}},"type":"Feature"},
	{"geometry":{"coordinates":[1.929774,47.839126],"type":"Point"},"properties":{"osm_id":"6195562223","tag":{"amenity":"waste_basket"}},"type":"Feature"},
	{"geometry":{"coordinates":[1.918445,47.837031],"type":"Point"},"properties":{"osm_id":"6195562394","tag":{"amenity":"waste_basket"}},"type":"Feature"},
	{"geometry":{"coordinates":[1.925044,47.838241],"type":"Point"},"properties":{"osm_id":"6195562395","tag":{"amenity":"waste_basket"}},"type":"Feature"},
	{"geometry":{"coordinates":[1.932188,47.852241],"type":"Point"},"properties":{"osm_id":"6195562397","tag":{"amenity":"waste_basket"}},"type":"Feature"},
	{"geometry":{"coordinates":[1.927975,47.825408],"type":"Point"},"properties":{"osm_id":"6195562404","tag":{"amenity":"waste_basket"}},"type":"Feature"},
	{"geometry":{"coordinates":[1.929904,47.830833],"type":"Point"},"properties":{"osm_id":"6195562405","tag":{"amenity":"waste_basket"}},"type":"Feature"},
	{"geometry":{"coordinates":[1.930769,47.839874],"type":"Point"},"properties":{"osm_id":"6195562489","tag":{"amenity":"waste_basket"}},"type":"Feature"},
	{"geometry":{"coordinates":[1.926252,47.822644],"type":"Point"},"properties":{"osm_id":"6195562520","tag":{"amenity":"waste_basket"}},"type":"Feature"},
	{"geometry":{"coordinates":[1.933208,47.819647],"type":"Point"},"properties":{"osm_id":"6195562534","tag":{"amenity":"waste_basket"}},"type":"Feature"},
	{"geometry":{"coordinates":[1.928226,47.830828],"type":"Point"},"properties":{"osm_id":"6195562578","tag":{"amenity":"waste_basket"}},"type":"Feature"},
	{"geometry":{"coordinates":[1.931965,47.828759],"type":"Point"},"properties":{"osm_id":"6195562721","tag":{"amenity":"waste_basket"}},"type":"Feature"},
	{"geometry":{"coordinates":[1.929198,47.837694],"type":"Point"},"properties":{"osm_id":"6195563030","tag":{"amenity":"waste_basket"}},"type":"Feature"},
	{"geometry":{"coordinates":[1.931031,47.836194],"type":"Point"},"properties":{"osm_id":"6195563031","tag":{"amenity":"waste_basket"}},"type":"Feature"},
	{"geometry":{"coordinates":[1.927973,47.836288],"type":"Point"},"properties":{"osm_id":"6195563032","tag":{"amenity":"waste_basket"}},"type":"Feature"},
	{"geometry":{"coordinates":[1.930001,47.833365],"type":"Point"},"properties":{"osm_id":"6195563036","tag":{"amenity":"waste_basket"}},"type":"Feature"},
	{"geometry":{"coordinates":[1.928593,47.832576],"type":"Point"},"properties":{"osm_id":"6195563037","tag":{"amenity":"waste_basket"}},"type":"Feature"},
	{"geometry":{"coordinates":[1.917939,47.836701],"type":"Point"},"properties":{"osm_id":"6195563048","tag":{"amenity":"waste_basket"}},"type":"Feature"},
	{"geometry":{"coordinates":[1.918983,47.836743],"type":"Point"},"properties":{"osm_id":"6195563049","tag":{"amenity":"waste_basket"}},"type":"Feature"},
	{"geometry":{"coordinates":[1.928075,47.836788],"type":"Point"},"properties":{"osm_id":"6195563050","tag":{"amenity":"waste_basket"}},"type":"Feature"},
	{"geometry":{"coordinates":[1.931968,47.838841],"type":"Point"},"properties":{"osm_id":"6195563051","tag":{"amenity":"waste_basket"}},"type":"Feature"},
	{"geometry":{"coordinates":[1.930402,47.838438],"type":"Point"},"properties":{"osm_id":"6195563052","tag":{"amenity":"waste_basket"}},"type":"Feature"},
	{"geometry":{"coordinates":[1.930325,47.83627],"type":"Point"},"properties":{"osm_id":"6195563246","tag":{"amenity":"waste_basket"}},"type":"Feature"},
	{"geometry":{"coordinates":[1.925616,47.840297],"type":"Point"},"properties":{"osm_id":"6195563248","tag":{"amenity":"waste_basket"}},"type":"Feature"},
	{"geometry":{"coordinates":[1.927225,47.837953],"type":"Point"},"properties":{"osm_id":"6195563249","tag":{"amenity":"waste_basket"}},"type":"Feature"},
	{"geometry":{"coordinates":[1.932317,47.836127],"type":"Point"},"properties":{"osm_id":"6195563250","tag":{"amenity":"waste_basket"}},"type":"Feature"},
	{"geometry":{"coordinates":[1.929295,47.834892],"type":"Point"},"properties":{"osm_id":"6195563533","tag":{"amenity":"waste_basket"}},"type":"Feature"},
	{"geometry":{"coordinates":[1.928333,47.83607],"type":"Point"},"properties":{"osm_id":"6195563534","tag":{"amenity":"waste_basket"}},"type":"Feature"},
	{"geometry":{"coordinates":[1.927161,47.842541],"type":"Point"},"properties":{"osm_id":"6195563536","tag":{"amenity":"waste_basket"}},"type":"Feature"},
	{"geometry":{"coordinates":[1.928065,47.829438],"type":"Point"},"properties":{"osm_id":"6195563538","tag":{"amenity":"waste_basket"}},"type":"Feature"},
	{"geometry":{"coordinates":[1.931882,47.829346],"type":"Point"},"properties":{"osm_id":"6195563539","tag":{"amenity":"waste_basket"}},"type":"Feature"},
	{"geometry":{"coordinates":[1.93015,47.840766],"type":"Point"},"properties":{"osm_id":"6195563549","tag":{"amenity":"waste_basket"}},"type":"Feature"},
	{"geometry":{"coordinates":[1.930045,47.836466],"type":"Point"},"properties":{"osm_id":"6195563742","tag":{"amenity":"waste_basket"}},"type":"Feature"},
	{"geometry":{"coordinates":[1.932375,47.839341],"type":"Point"},"properties":{"osm_id":"6195563743","tag":{"amenity":"waste_basket"}},"type":"Feature"},
	{"geometry":{"coordinates":[1.928318,47.839632],"type":"Point"},"properties":{"osm_id":"6195563744","tag":{"amenity":"waste_basket"}},"type":"Feature"},
	{"geometry":{"coordinates":[1.92943,47.832498],"type":"Point"},"properties":{"osm_id":"6195563745","tag":{"amenity":"waste_basket"}},"type":"Feature"},
	{"geometry":{"coordinates":[1.92969,47.832888],"type":"Point"},"properties":{"osm_id":"6195563746","tag":{"amenity":"waste_basket"}},"type":"Feature"},
	{"geometry":{"coordinates":[1.930124,47.830557],"type":"Point"},"properties":{"osm_id":"6195563942","tag":{"amenity":"waste_basket"}},"type":"Feature"},
	{"geometry":{"coordinates":[1.929577,47.835083],"type":"Point"},"properties":{"osm_id":"6195563943","tag":{"amenity":"waste_basket"}},"type":"Feature"},
	{"geometry":{"coordinates":[1.9273,47.8386],"type":"Point"},"properties":{"osm_id":"6195563944","tag":{"amenity":"waste_basket"}},"type":"Feature"},
	{"geometry":{"coordinates":[1.932629,47.838379],"type":"Point"},"properties":{"osm_id":"6195563945","tag":{"amenity":"waste_basket"}},"type":"Feature"},
	{"geometry":{"coordinates":[1.932151,47.846852],"type":"Point"},"properties":{"osm_id":"6195563947","tag":{"amenity":"waste_basket"}},"type":"Feature"},
	{"geometry":{"coordinates":[1.912926,47.871808],"type":"Point"},"properties":{"osm_id":"6195563967","tag":{"amenity":"waste_basket"}},"type":"Feature"},
	{"geometry":{"coordinates":[1.930529,47.825507],"type":"Point"},"properties":{"osm_id":"6195564187","tag":{"amenity":"waste_basket"}},"type":"Feature"},
	{"geometry":{"coordinates":[1.930837,47.825175],"type":"Point"},"properties":{"osm_id":"6195564188","tag":{"amenity":"waste_basket"}},"type":"Feature"},
	{"geometry":{"coordinates":[1.931704,47.84003],"type":"Point"},"properties":{"osm_id":"6195564190","tag":{"amenity":"waste_basket"}},"type":"Feature"},
	{"geometry":{"coordinates":[1.927207,47.840936],"type":"Point"},"properties":{"osm_id":"6195564191","tag":{"amenity":"waste_basket"}},"type":"Feature"},
	{"geometry":{"coordinates":[1.929054,47.840261],"type":"Point"},"properties":{"osm_id":"6195564192","tag":{"amenity":"waste_basket"}},"type":"Feature"},
	{"geometry":{"coordinates":[1.928858,47.840192],"type":"Point"},"properties":{"osm_id":"6195564193","tag":{"amenity":"waste_basket"}},"type":"Feature"},
	{"geometry":{"coordinates":[1.927909,47.843872],"type":"Point"},"properties":{"osm_id":"6195564194","tag":{"amenity":"waste_basket"}},"type":"Feature"},
	{"geometry":{"coordinates":[1.932132,47.849081],"type":"Point"},"properties":{"osm_id":"6195564195","tag":{"amenity":"waste_basket"}},"type":"Feature"},
	{"geometry":{"coordinates":[1.929046,47.825769],"type":"Point"},"properties":{"osm_id":"6195564238","tag":{"amenity":"waste_basket"}},"type":"Feature"},
	{"geometry":{"coordinates":[1.929048,47.831706],"type":"Point"},"properties":{"osm_id":"6195564239","tag":{"amenity":"waste_basket"}},"type":"Feature"},
	{"geometry":{"coordinates":[1.928936,47.819031],"type":"Point"},"properties":{"osm_id":"6195564240","tag":{"amenity":"waste_basket"}},"type":"Feature"},
	{"geometry":{"coordinates":[1.929236,47.819004],"type":"Point"},"properties":{"osm_id":"6195564241","tag":{"amenity":"waste_basket"}},"type":"Feature"},
	{"geometry":{"coordinates":[1.931271,47.832823],"type":"Point"},"properties":{"osm_id":"6195564242","tag":{"amenity":"waste_basket"}},"type":"Feature"},
	{"geometry":{"coordinates":[1.931503,47.829908],"type":"Point"},"properties":{"osm_id":"6195564244","tag":{"amenity":"waste_basket"}},"type":"Feature"},
	{"geometry":{"coordinates":[1.918393,47.836779],"type":"Point"},"properties":{"osm_id":"6195564254","tag":{"amenity":"waste_basket"}},"type":"Feature"},
	{"geometry":{"coordinates":[1.918753,47.8372],"type":"Point"},"properties":{"osm_id":"6195564255","tag":{"amenity":"waste_basket"}},"type":"Feature"},
	{"geometry":{"coordinates":[1.924828,47.838511],"type":"Point"},"properties":{"osm_id":"6195564256","tag":{"amenity":"waste_basket"}},"type":"Feature"},
	{"geometry":{"coordinates":[1.930231,47.837937],"type":"Point"},"properties":{"osm_id":"6195564257","tag":{"amenity":"waste_basket"}},"type":"Feature"},
	{"geometry":{"coordinates":[1.91277,47.871277],"type":"Point"},"properties":{"osm_id":"6195564385","tag":{"amenity":"waste_basket"}},"type":"Feature"},
	{"geometry":{"coordinates":[1.912759,47.871191],"type":"Point"},"properties":{"osm_id":"6195564386","tag":{"amenity":"waste_basket"}},"type":"Feature"},
	{"geometry":{"coordinates":[1.93179,47.827835],"type":"Point"},"properties":{"osm_id":"6195564408","tag":{"amenity":"waste_basket"}},"type":"Feature"},
	{"geometry":{"coordinates":[1.930259,47.839878],"type":"Point"},"properties":{"osm_id":"6195564410","tag":{"amenity":"waste_basket"}},"type":"Feature"},
	{"geometry":{"coordinates":[1.929646,47.845554],"type":"Point"},"properties":{"osm_id":"6195564411","tag":{"amenity":"waste_basket"}},"type":"Feature"},
	{"geometry":{"coordinates":[1.930452,47.845389],"type":"Point"},"properties":{"osm_id":"6195564412","tag":{"amenity":"waste_basket"}},"type":"Feature"},
	{"geometry":{"coordinates":[1.933286,47.848705],"type":"Point"},"properties":{"osm_id":"6195564413","tag":{"amenity":"waste_basket"}},"type":"Feature"},
	{"geometry":{"coordinates":[1.929147,47.835131],"type":"Point"},"properties":{"osm_id":"6195564428","tag":{"amenity":"waste_basket"}},"type":"Feature"},
	{"geometry":{"coordinates":[1.928784,47.83578],"type":"Point"},"properties":{"osm_id":"6195564429","tag":{"amenity":"waste_basket"}},"type":"Feature"},
	{"geometry":{"coordinates":[1.927156,47.822436],"type":"Point"},"properties":{"osm_id":"6195564436","tag":{"amenity":"waste_basket"}},"type":"Feature"},
	{"geometry":{"coordinates":[1.924414,47.822871],"type":"Point"},"properties":{"osm_id":"6195564437","tag":{"amenity":"waste_basket"}},"type":"Feature"},
	{"geometry":{"coordinates":[1.929949,47.825631],"type":"Point"},"properties":{"osm_id":"6195564438","tag":{"amenity":"waste_basket"}},"type":"Feature"},
	{"geometry":{"coordinates":[1.925523,47.825413],"type":"Point"},"properties":{"osm_id":"6195564439","tag":{"amenity":"waste_basket"}},"type":"Feature"},
	{"geometry":{"coordinates":[1.930903,47.837331],"type":"Point"},"properties":{"osm_id":"6195564444","tag":{"amenity":"waste_basket"}},"type":"Feature"},
	{"geometry":{"coordinates":[1.924058,47.843773],"type":"Point"},"properties":{"osm_id":"6195564447","tag":{"amenity":"waste_basket"}},"type":"Feature"},
	{"geometry":{"coordinates":[1.912898,47.871689],"type":"Point"},"properties":{"osm_id":"6195564462","tag":{"amenity":"waste_basket"}},"type":"Feature"},
	{"geometry":{"coordinates":[1.927839,47.839249],"type":"Point"},"properties":{"osm_id":"6195564482","tag":{"amenity":"waste_basket"}},"type":"Feature"},
	{"geometry":{"coordinates":[1.923968,47.868584],"type":"Point"},"properties":{"osm_id":"6195564513","tag":{"amenity":"waste_basket"}},"type":"Feature"},
	{"geometry":{"coordinates":[1.928618,47.823526],"type":"Point"},"properties":{"osm_id":"6195564515","tag":{"amenity":"waste_basket"}},"type":"Feature"},
	{"geometry":{"coordinates":[1.925357,47.82481],"type":"Point"},"properties":{"osm_id":"6195564529","tag":{"amenity":"waste_basket"}},"type":"Feature"},
	{"geometry":{"coordinates":[1.926408,47.825234],"type":"Point"},"properties":{"osm_id":"6195564530","tag":{"amenity":"waste_basket"}},"type":"Feature"},
	{"geometry":{"coordinates":[1.930183,47.824809],"type":"Point"},"properties":{"osm_id":"6195564531","tag":{"amenity":"waste_basket"}},"type":"Feature"},
	{"geometry":{"coordinates":[1.930197,47.82526],"type":"Point"},"properties":{"osm_id":"6195564532","tag":{"amenity":"waste_basket"}},"type":"Feature"},
	{"geometry":{"coordinates":[1.922579,47.830453],"type":"Point"},"properties":{"osm_id":"6195564534","tag":{"amenity":"waste_basket"}},"type":"Feature"},
	{"geometry":{"coordinates":[1.930259,47.830762],"type":"Point"},"properties":{"osm_id":"6195564535","tag":{"amenity":"waste_basket"}},"type":"Feature"},
	{"geometry":{"coordinates":[1.930992,47.831003],"type":"Point"},"properties":{"osm_id":"6195564536","tag":{"amenity":"waste_basket"}},"type":"Feature"},
	{"geometry":{"coordinates":[1.931508,47.831369],"type":"Point"},"properties":{"osm_id":"6195564537","tag":{"amenity":"waste_basket"}},"type":"Feature"},
	{"geometry":{"coordinates":[1.929482,47.815431],"type":"Point"},"properties":{"osm_id":"6195564538","tag":{"amenity":"waste_basket"}},"type":"Feature"},
	{"geometry":{"coordinates":[1.917998,47.836942],"type":"Point"},"properties":{"osm_id":"6195564550","tag":{"amenity":"waste_basket"}},"type":"Feature"},
	{"geometry":{"coordinates":[1.931633,47.851895],"type":"Point"},"properties":{"osm_id":"6195564587","tag":{"amenity":"waste_basket"}},"type":"Feature"},
	{"geometry":{"coordinates":[1.931802,47.828128],"type":"Point"},"properties":{"osm_id":"6195564598","tag":{"amenity":"waste_basket"}},"type":"Feature"},
	{"geometry":{"coordinates":[1.931565,47.839843],"type":"Point"},"properties":{"osm_id":"6195564600","tag":{"amenity":"waste_basket"}},"type":"Feature"},
	{"geometry":{"coordinates":[1.93105,47.839142],"type":"Point"},"properties":{"osm_id":"6195564601","tag":{"amenity":"waste_basket"}},"type":"Feature"},
	{"geometry":{"coordinates":[1.926757,47.841079],"type":"Point"},"properties":{"osm_id":"6195564602","tag":{"amenity":"waste_basket"}},"type":"Feature"},
	{"geometry":{"coordinates":[1.929287,47.845841],"type":"Point"},"properties":{"osm_id":"6195564603","tag":{"amenity":"waste_basket"}},"type":"Feature"},
	{"geometry":{"coordinates":[1.931661,47.840314],"type":"Point"},"properties":{"osm_id":"6195564620","tag":{"amenity":"waste_basket"}},"type":"Feature"},
	{"geometry":{"coordinates":[1.928337,47.822641],"type":"Point"},"properties":{"osm_id":"6195564621","tag":{"amenity":"waste_basket"}},"type":"Feature"},
	{"geometry":{"coordinates":[1.928383,47.83523],"type":"Point"},"properties":{"osm_id":"6195564622","tag":{"amenity":"waste_basket"}},"type":"Feature"},
	{"geometry":{"coordinates":[1.923555,47.83625],"type":"Point"},"properties":{"osm_id":"6195564623","tag":{"amenity":"waste_basket"}},"type":"Feature"},
	{"geometry":{"coordinates":[1.92516,47.822798],"type":"Point"},"properties":{"osm_id":"6195564630","tag":{"amenity":"waste_basket"}},"type":"Feature"},
	{"geometry":{"coordinates":[1.928903,47.831512],"type":"Point"},"properties":{"osm_id":"6195564631","tag":{"amenity":"waste_basket"}},"type":"Feature"},
	{"geometry":{"coordinates":[1.922542,47.830675],"type":"Point"},"properties":{"osm_id":"6195564632","tag":{"amenity":"waste_basket"}},"type":"Feature"},
	{"geometry":{"coordinates":[1.927298,47.831529],"type":"Point"},"properties":{"osm_id":"6195564637","tag":{"amenity":"waste_basket"}},"type":"Feature"},
	{"geometry":{"coordinates":[1.923263,47.835537],"type":"Point"},"properties":{"osm_id":"6195564646","tag":{"amenity":"waste_basket"}},"type":"Feature"},
	{"geometry":{"coordinates":[1.93076,47.837398],"type":"Point"},"properties":{"osm_id":"6195564647","tag":{"amenity":"waste_basket"}},"type":"Feature"},
	{"geometry":{"coordinates":[1.929016,47.842617],"type":"Point"},"properties":{"osm_id":"6195564653","tag":{"amenity":"waste_basket"}},"type":"Feature"},
	{"geometry":{"coordinates":[1.928923,47.841237],"type":"Point"},"properties":{"osm_id":"6195564679","tag":{"amenity":"waste_basket"}},"type":"Feature"},
	{"geometry":{"coordinates":[1.933107,47.819868],"type":"Point"},"properties":{"osm_id":"6195564690","tag":{"amenity":"waste_basket"}},"type":"Feature"},
	{"geometry":{"coordinates":[1.933427,47.839687],"type":"Point"},"properties":{"osm_id":"6195564691","tag":{"amenity":"waste_basket"}},"type":"Feature"},
	{"geometry":{"coordinates":[1.932159,47.83911],"type":"Point"},"properties":{"osm_id":"6195564692","tag":{"amenity":"waste_basket"}},"type":"Feature"},
	{"geometry":{"coordinates":[1.930225,47.839723],"type":"Point"},"properties":{"osm_id":"6195564693","tag":{"amenity":"waste_basket"}},"type":"Feature"},
	{"geometry":{"coordinates":[1.929081,47.845703],"type":"Point"},"properties":{"osm_id":"6195564694","tag":{"amenity":"waste_basket"}},"type":"Feature"},
	{"geometry":{"coordinates":[1.929962,47.845553],"type":"Point"},"properties":{"osm_id":"6195564695","tag":{"amenity":"waste_basket"}},"type":"Feature"},
	{"geometry":{"coordinates":[1.931289,47.836025],"type":"Point"},"properties":{"osm_id":"6195564714","tag":{"amenity":"waste_basket"}},"type":"Feature"},
	{"geometry":{"coordinates":[1.929127,47.835338],"type":"Point"},"properties":{"osm_id":"6195564715","tag":{"amenity":"waste_basket"}},"type":"Feature"},
	{"geometry":{"coordinates":[1.924476,47.822713],"type":"Point"},"properties":{"osm_id":"6195564728","tag":{"amenity":"waste_basket"}},"type":"Feature"},
	{"geometry":{"coordinates":[1.923825,47.823893],"type":"Point"},"properties":{"osm_id":"6195564729","tag":{"amenity":"waste_basket"}},"type":"Feature"},
	{"geometry":{"coordinates":[1.924546,47.82338],"type":"Point"},"properties":{"osm_id":"6195564730","tag":{"amenity":"waste_basket"}},"type":"Feature"},
	{"geometry":{"coordinates":[1.924737,47.824222],"type":"Point"},"properties":{"osm_id":"6195564731","tag":{"amenity":"waste_basket"}},"type":"Feature"},
	{"geometry":{"coordinates":[1.929403,47.824103],"type":"Point"},"properties":{"osm_id":"6195564732","tag":{"amenity":"waste_basket"}},"type":"Feature"},
	{"geometry":{"coordinates":[1.929914,47.824517],"type":"Point"},"properties":{"osm_id":"6195564733","tag":{"amenity":"waste_basket"}},"type":"Feature"},
	{"geometry":{"coordinates":[1.929609,47.824277],"type":"Point"},"properties":{"osm_id":"6195564734","tag":{"amenity":"waste_basket"}},"type":"Feature"},
	{"geometry":{"coordinates":[1.92993,47.815429],"type":"Point"},"properties":{"osm_id":"6195564735","tag":{"amenity":"waste_basket"}},"type":"Feature"},
	{"geometry":{"coordinates":[1.917263,47.845239],"type":"Point"},"properties":{"osm_id":"6225152670","tag":{"amenity":"waste_basket"}},"type":"Feature"},
	{"geometry":{"coordinates":[1.917171,47.845038],"type":"Point"},"properties":{"osm_id":"6225212115","tag":{"amenity":"waste_basket"}},"type":"Feature"},
	{"geometry":{"coordinates":[1.92297,47.843439],"type":"Point"},"properties":{"osm_id":"6225399921","tag":{"amenity":"waste_basket"}},"type":"Feature"},
	{"geometry":{"coordinates":[1.93342,47.839677],"type":"Point"},"properties":{"osm_id":"6225562391","tag":{"amenity":"recycling","recycling:cartons":"yes","recycling:paper":"yes","recycling_type":"centre"}},"type":"Feature"},
	{"geometry":{"coordinates":[1.933412,47.839664],"type":"Point"},"properties":{"osm_id":"6225562392","tag":{"amenity":"recycling","recycling:cartons":"yes","recycling:paper":"yes","recycling_type":"centre"}},"type":"Feature"},
	{"geometry":{"coordinates":[1.933402,47.839646],"type":"Point"},"properties":{"osm_id":"6225562393","tag":{"amenity":"recycling","recycling:glass_bottles":"yes","recycling_type":"centre"}},"type":"Feature"},
	{"geometry":{"coordinates":[1.87228,47.870361],"type":"Point"},"properties":{"osm_id":"6770666674","tag":{"amenity":"waste_basket"}},"type":"Feature"},
	{"geometry":{"coordinates":[1.875529,47.870151],"type":"Point"},"properties":{"osm_id":"6770666679","tag":{"amenity":"waste_basket"}},"type":"Feature"},
	{"geometry":{"coordinates":[1.878732,47.869987],"type":"Point"},"properties":{"osm_id":"6772835722","tag":{"amenity":"waste_basket"}},"type":"Feature"},
	{"geometry":{"coordinates":[1.879538,47.868434],"type":"Point"},"properties":{"osm_id":"6772835723","tag":{"amenity":"waste_basket"}},"type":"Feature"},
	{"geometry":{"coordinates":[1.900297,47.86155],"type":"Point"},"properties":{"osm_id":"6837024130","tag":{"amenity":"recycling","recycling:glass":"yes","recycling:glass_bottles":"yes","recycling_type":"container"}},"type":"Feature"},
	{"geometry":{"coordinates":[1.900264,47.861532],"type":"Point"},"properties":{"osm_id":"6837035063","tag":{"amenity":"waste_basket"}},"type":"Feature"},
	{"geometry":{"coordinates":[1.931798,47.827729],"type":"Point"},"properties":{"osm_id":"6939160375","tag":{"amenity":"recycling","recycling:waste":"yes","recycling_type":"container"}},"type":"Feature"},
	{"geometry":{"coordinates":[1.87621,47.87184],"type":"Point"},"properties":{"osm_id":"7029855039","tag":{"amenity":"waste_basket"}},"type":"Feature"},
	{"geometry":{"coordinates":[1.91586,47.85567],"type":"Point"},"properties":{"osm_id":"7131224917","tag":{"amenity":"recycling","recycling_type":"container"}},"type":"Feature"},
	{"geometry":{"coordinates":[1.91588,47.855661],"type":"Point"},"properties":{"osm_id":"7131224918","tag":{"amenity":"recycling","recycling_type":"container"}},"type":"Feature"},
	{"geometry":{"coordinates":[1.918339,47.853611],"type":"Point"},"properties":{"osm_id":"7131224920","tag":{"amenity":"recycling","recycling_type":"container"}},"type":"Feature"},
	{"geometry":{"coordinates":[1.902485,47.865566],"type":"Point"},"properties":{"osm_id":"7134089523","tag":{"amenity":"waste_basket"}},"type":"Feature"},
	{"geometry":{"coordinates":[1.902424,47.866172],"type":"Point"},"properties":{"osm_id":"7134089524","tag":{"amenity":"waste_basket"}},"type":"Feature"},
	{"geometry":{"coordinates":[1.903177,47.870438],"type":"Point"},"properties":{"osm_id":"7149638131","tag":{"amenity":"waste_disposal","waste":"recycling;glass"}},"type":"Feature"},
	{"geometry":{"coordinates":[1.931644,47.836718],"type":"Point"},"properties":{"osm_id":"7314712605","tag":{"amenity":"recycling","location":"underground","recycling_type":"container"}},"type":"Feature"},
	{"geometry":{"coordinates":[1.932968,47.843732],"type":"Point"},"properties":{"osm_id":"7530347949","tag":{"amenity":"waste_basket"}},"type":"Feature"},
	{"geometry":{"coordinates":[1.904901,47.870246],"type":"Point"},"properties":{"osm_id":"7543493070","tag":{"amenity":"waste_basket"}},"type":"Feature"},
	{"geometry":{"coordinates":[1.873116,47.87056],"type":"Point"},"properties":{"osm_id":"7705810991","tag":{"amenity":"waste_basket"}},"type":"Feature"},
	{"geometry":{"coordinates":[1.872575,47.870229],"type":"Point"},"properties":{"osm_id":"7705810992","tag":{"amenity":"waste_basket"}},"type":"Feature"},
	{"geometry":{"coordinates":[1.873164,47.869968],"type":"Point"},"properties":{"osm_id":"7706904658","tag":{"amenity":"waste_basket"}},"type":"Feature"},
	{"geometry":{"coordinates":[1.872845,47.870184],"type":"Point"},"properties":{"osm_id":"7706904659","tag":{"amenity":"waste_basket"}},"type":"Feature"},
	{"geometry":{"coordinates":[1.875102,47.869834],"type":"Point"},"properties":{"osm_id":"7706904678","tag":{"amenity":"waste_basket"}},"type":"Feature"},
	{"geometry":{"coordinates":[1.847586,47.871231],"type":"Point"},"properties":{"osm_id":"7920121685","tag":{"amenity":"waste_basket"}},"type":"Feature"},
	{"geometry":{"coordinates":[1.918234,47.845661],"type":"Point"},"properties":{"osm_id":"7935955587","tag":{"amenity":"waste_disposal"}},"type":"Feature"}
]
}
