{
"type": "FeatureCollection",
"features": [
	{"geometry":{"coordinates":[1.891075,44.624399],"type":"Point"},"properties":{"osm_id":"2606365043","tag":{"amenity":"waste_basket"}},"type":"Feature"},
	{"geometry":{"coordinates":[1.927064,44.628646],"type":"Point"},"properties":{"osm_id":"4349781606","tag":{"amenity":"waste_basket"}},"type":"Feature"},
	{"geometry":{"coordinates":[1.85137,44.64311],"type":"Point"},"properties":{"name":"Recup 46","osm_id":"7536978481","tag":{"addr:city":"Livernon","addr:postcode":"46320","addr:street":"Lieu dit Les Vignes de Gajol","amenity":"recycling","opening_hours":"Mo-Sa 09:00-18:00","phone":"+33565408425","recycling:aluminium":"yes","recycling:cans":"yes","recycling:scrap_metal":"yes","recycling:sheet_metal":"yes","recycling_type":"centre","website":"http://www.recup-demolition-desamiantage-46.com/"}},"type":"Feature"},
	{"geometry":{"coordinates":[1.896136,44.616111],"type":"Point"},"properties":{"osm_id":"8995477385","tag":{"amenity":"recycling","recycling:glass_bottles":"yes","recycling_type":"container"}},"type":"Feature"}
]
}
