{
"type": "FeatureCollection",
"features": [
	{"geometry":{"coordinates":[6.516199,53.335163],"type":"Point"},"properties":{"osm_id":"1413492869","tag":{"amenity":"recycling","location":"underground","recycling:clothes":"yes","recycling:glass_bottles":"yes","recycling_type":"container"}},"type":"Feature"},
	{"geometry":{"coordinates":[6.53533,53.357374],"type":"Point"},"properties":{"osm_id":"1430357944","tag":{"amenity":"waste_basket"}},"type":"Feature"},
	{"geometry":{"coordinates":[6.583071,53.335182],"type":"Point"},"properties":{"osm_id":"1481392666","tag":{"amenity":"waste_basket"}},"type":"Feature"},
	{"geometry":{"coordinates":[6.585143,53.33521],"type":"Point"},"properties":{"osm_id":"1481392674","tag":{"amenity":"waste_basket"}},"type":"Feature"},
	{"geometry":{"coordinates":[6.586584,53.335253],"type":"Point"},"properties":{"osm_id":"1481392679","tag":{"amenity":"waste_basket"}},"type":"Feature"},
	{"geometry":{"coordinates":[6.586609,53.337625],"type":"Point"},"properties":{"osm_id":"1714822499","tag":{"amenity":"waste_basket"}},"type":"Feature"},
	{"geometry":{"coordinates":[6.588889,53.335684],"type":"Point"},"properties":{"osm_id":"1725029051","tag":{"amenity":"waste_basket","waste":"trash"}},"type":"Feature"},
	{"geometry":{"coordinates":[6.512531,53.334653],"type":"Point"},"properties":{"osm_id":"4159013907","tag":{"amenity":"waste_basket","waste":"trash"}},"type":"Feature"},
	{"geometry":{"coordinates":[6.516183,53.364395],"type":"Point"},"properties":{"osm_id":"4292195987","tag":{"amenity":"waste_basket","waste":"trash"}},"type":"Feature"},
	{"geometry":{"coordinates":[6.514691,53.331951],"type":"Point"},"properties":{"osm_id":"4319937469","tag":{"amenity":"waste_basket"}},"type":"Feature"},
	{"geometry":{"coordinates":[6.518817,53.361437],"type":"Point"},"properties":{"osm_id":"5475737992","tag":{"amenity":"waste_basket"}},"type":"Feature"},
	{"geometry":{"coordinates":[6.518744,53.36102],"type":"Point"},"properties":{"osm_id":"5475737996","tag":{"amenity":"waste_basket"}},"type":"Feature"},
	{"geometry":{"coordinates":[6.518666,53.361086],"type":"Point"},"properties":{"osm_id":"5475738000","tag":{"amenity":"waste_basket"}},"type":"Feature"},
	{"geometry":{"coordinates":[6.518817,53.360917],"type":"Point"},"properties":{"osm_id":"5475738003","tag":{"amenity":"waste_basket"}},"type":"Feature"},
	{"geometry":{"coordinates":[6.51889,53.361331],"type":"Point"},"properties":{"osm_id":"5475738005","tag":{"amenity":"waste_basket"}},"type":"Feature"},
	{"geometry":{"coordinates":[6.53642,53.331732],"type":"Point"},"properties":{"osm_id":"7279226291","tag":{"amenity":"waste_basket","waste":"trash"}},"type":"Feature"},
	{"geometry":{"coordinates":[6.532542,53.358543],"type":"Point"},"properties":{"osm_id":"7280117777","tag":{"amenity":"waste_basket","waste":"trash"}},"type":"Feature"},
	{"geometry":{"coordinates":[6.535507,53.361356],"type":"Point"},"properties":{"osm_id":"7280117779","tag":{"amenity":"waste_basket","waste":"trash"}},"type":"Feature"},
	{"geometry":{"coordinates":[6.550779,53.359159],"type":"Point"},"properties":{"osm_id":"7280117780","tag":{"amenity":"waste_basket","waste":"trash"}},"type":"Feature"},
	{"geometry":{"coordinates":[6.505568,53.364146],"type":"Point"},"properties":{"osm_id":"7281252144","tag":{"amenity":"waste_basket","waste":"trash"}},"type":"Feature"},
	{"geometry":{"coordinates":[6.545017,53.382491],"type":"Point"},"properties":{"osm_id":"7527669371","tag":{"amenity":"waste_basket","waste":"trash"}},"type":"Feature"},
	{"geometry":{"coordinates":[6.515887,53.37072],"type":"Point"},"properties":{"osm_id":"7527765146","tag":{"amenity":"waste_basket","waste":"trash"}},"type":"Feature"},
	{"geometry":{"coordinates":[6.520037,53.367609],"type":"Point"},"properties":{"osm_id":"7527804487","tag":{"amenity":"waste_basket","waste":"trash"}},"type":"Feature"},
	{"geometry":{"coordinates":[6.577836,53.331426],"type":"Point"},"properties":{"osm_id":"7612296076","tag":{"amenity":"waste_basket","waste":"trash"}},"type":"Feature"},
	{"geometry":{"coordinates":[6.513789,53.333304],"type":"Point"},"properties":{"osm_id":"7668019214","tag":{"amenity":"waste_basket","waste":"trash"}},"type":"Feature"},
	{"geometry":{"coordinates":[6.512741,53.334336],"type":"Point"},"properties":{"osm_id":"7668019216","tag":{"amenity":"waste_basket","waste":"trash"}},"type":"Feature"},
	{"geometry":{"coordinates":[6.524804,53.365962],"type":"Point"},"properties":{"osm_id":"7694391091","tag":{"amenity":"waste_basket","waste":"trash"}},"type":"Feature"},
	{"geometry":{"coordinates":[6.5162,53.369549],"type":"Point"},"properties":{"osm_id":"7694391092","tag":{"amenity":"waste_basket","waste":"trash"}},"type":"Feature"},
	{"geometry":{"coordinates":[6.550824,53.376674],"type":"Point"},"properties":{"osm_id":"7694393103","tag":{"amenity":"waste_basket","waste":"trash"}},"type":"Feature"},
	{"geometry":{"coordinates":[6.514878,53.333665],"type":"Point"},"properties":{"osm_id":"7694839687","tag":{"amenity":"waste_basket","waste":"trash"}},"type":"Feature"},
	{"geometry":{"coordinates":[6.514802,53.333941],"type":"Point"},"properties":{"osm_id":"7694839688","tag":{"amenity":"waste_basket","waste":"trash"}},"type":"Feature"},
	{"geometry":{"coordinates":[6.507199,53.35297],"type":"Point"},"properties":{"osm_id":"7795840811","tag":{"amenity":"waste_basket","waste":"trash"}},"type":"Feature"}
]
}
