{
"type": "FeatureCollection",
"features": [
	{"geometry":{"coordinates":[6.551871,53.225285],"type":"Point"},"properties":{"osm_id":"319046372","tag":{"amenity":"recycling","recycling:glass_bottles":"yes","recycling:paper":"yes","recycling_type":"container"}},"type":"Feature"},
	{"geometry":{"coordinates":[6.551606,53.207832],"type":"Point"},"properties":{"osm_id":"320006586","tag":{"amenity":"recycling","recycling_type":"container"}},"type":"Feature"},
	{"geometry":{"coordinates":[6.56766,53.208878],"type":"Point"},"properties":{"osm_id":"320006739","tag":{"amenity":"recycling","recycling_type":"container"}},"type":"Feature"},
	{"geometry":{"coordinates":[6.580658,53.208648],"type":"Point"},"properties":{"osm_id":"320008113","tag":{"amenity":"recycling","location":"underground","recycling:glass_bottles":"yes","recycling:paper":"yes","recycling_type":"container"}},"type":"Feature"},
	{"geometry":{"coordinates":[6.571885,53.215314],"type":"Point"},"properties":{"osm_id":"337290779","tag":{"amenity":"recycling","recycling_type":"container"}},"type":"Feature"},
	{"geometry":{"coordinates":[6.566681,53.219936],"type":"Point"},"properties":{"osm_id":"339351607","tag":{"amenity":"recycling","recycling_type":"container"}},"type":"Feature"},
	{"geometry":{"coordinates":[6.555073,53.199955],"type":"Point"},"properties":{"osm_id":"343338417","tag":{"amenity":"recycling","recycling:glass_bottles":"yes","recycling:paper":"yes","recycling_type":"container"}},"type":"Feature"},
	{"geometry":{"coordinates":[6.555021,53.218159],"type":"Point"},"properties":{"osm_id":"345749413","tag":{"amenity":"recycling","recycling_type":"container"}},"type":"Feature"},
	{"geometry":{"coordinates":[6.581855,53.201569],"type":"Point"},"properties":{"osm_id":"443043657","tag":{"amenity":"recycling","location":"underground","recycling:glass_bottles":"yes","recycling_type":"container"}},"type":"Feature"},
	{"geometry":{"coordinates":[6.545289,53.215857],"type":"Point"},"properties":{"osm_id":"447884328","tag":{"amenity":"recycling","recycling:glass_bottles":"yes","recycling:papers":"yes","recycling_type":"container"}},"type":"Feature"},
	{"geometry":{"coordinates":[6.545111,53.214755],"type":"Point"},"properties":{"osm_id":"447884333","tag":{"amenity":"recycling","recycling_type":"container"}},"type":"Feature"},
	{"geometry":{"coordinates":[6.571331,53.220853],"type":"Point"},"properties":{"osm_id":"503426509","tag":{"amenity":"recycling","recycling_type":"container"}},"type":"Feature"},
	{"geometry":{"coordinates":[6.569766,53.215381],"type":"Point"},"properties":{"osm_id":"503426831","tag":{"amenity":"recycling","recycling_type":"container"}},"type":"Feature"},
	{"geometry":{"coordinates":[6.568287,53.215076],"type":"Point"},"properties":{"osm_id":"503427019","tag":{"amenity":"recycling","location":"overground","recycling_type":"container"}},"type":"Feature"},
	{"geometry":{"coordinates":[6.528848,53.198864],"type":"Point"},"properties":{"osm_id":"521593658","tag":{"amenity":"recycling","location":"underground","recycling_type":"container"}},"type":"Feature"},
	{"geometry":{"coordinates":[6.56072,53.198159],"type":"Point"},"properties":{"osm_id":"611672274","tag":{"amenity":"recycling","recycling:glass_bottles":"yes","recycling:paper":"yes","recycling_type":"container"}},"type":"Feature"},
	{"geometry":{"coordinates":[6.556338,53.211286],"type":"Point"},"properties":{"osm_id":"617280973","tag":{"amenity":"recycling","recycling_type":"container"}},"type":"Feature"},
	{"geometry":{"coordinates":[6.566196,53.222728],"type":"Point"},"properties":{"osm_id":"647822696","tag":{"amenity":"recycling","recycling_type":"container"}},"type":"Feature"},
	{"geometry":{"coordinates":[6.558235,53.223768],"type":"Point"},"properties":{"osm_id":"717685524","tag":{"amenity":"recycling","recycling:glass_bottles":"yes","recycling:paper":"yes","recycling_type":"container"}},"type":"Feature"},
	{"geometry":{"coordinates":[6.56874,53.208426],"type":"Point"},"properties":{"osm_id":"1062818962","tag":{"amenity":"recycling","recycling:glass_bottles":"yes","recycling:paper":"yes","recycling_type":"container"}},"type":"Feature"},
	{"geometry":{"coordinates":[6.528007,53.225453],"type":"Point"},"properties":{"osm_id":"1132602165","tag":{"amenity":"recycling","recycling:clothes":"yes","recycling:glass_bottles":"yes","recycling:paper":"yes","recycling_type":"container"}},"type":"Feature"},
	{"geometry":{"coordinates":[6.566665,53.206002],"type":"Point"},"properties":{"osm_id":"1138817616","tag":{"amenity":"recycling","recycling_type":"container"}},"type":"Feature"},
	{"geometry":{"coordinates":[6.539507,53.178763],"type":"Point"},"properties":{"osm_id":"1165713994","tag":{"amenity":"recycling","recycling:clothes":"yes","recycling:glass":"yes","recycling_type":"container"}},"type":"Feature"},
	{"geometry":{"coordinates":[6.575132,53.195959],"type":"Point"},"properties":{"osm_id":"1601791093","tag":{"amenity":"recycling","location":"underground","recycling:glass_bottles":"yes","recycling:paper":"yes","recycling_type":"container"}},"type":"Feature"},
	{"geometry":{"coordinates":[6.53721,53.218164],"type":"Point"},"properties":{"name":"Afvalbrengstation Vinkhuizen Zuid","osm_id":"1711088949","tag":{"addr:city":"Groningen","addr:housenumber":"2","addr:postcode":"9743AH","addr:street":"Electronstraat","amenity":"recycling","recycling:batteries":"yes","recycling:cans":"yes","recycling:clothes":"yes","recycling:glass":"yes","recycling:paper":"yes","recycling:scrap_metal":"yes","recycling_type":"centre"}},"type":"Feature"},
	{"geometry":{"coordinates":[6.578035,53.213645],"type":"Point"},"properties":{"osm_id":"1750007967","tag":{"amenity":"recycling","recycling:glass_bottles":"yes","recycling:paper":"yes","recycling_type":"container"}},"type":"Feature"},
	{"geometry":{"coordinates":[6.5593,53.207115],"type":"Point"},"properties":{"osm_id":"1817518950","tag":{"amenity":"recycling","recycling:cardboard":"yes","recycling:cartons":"yes","recycling:glass_bottles":"yes","recycling_type":"container"}},"type":"Feature"},
	{"geometry":{"coordinates":[6.544948,53.183249],"type":"Point"},"properties":{"osm_id":"1922663739","tag":{"amenity":"recycling","recycling:cans":"yes","recycling:paper":"yes","recycling_type":"container"}},"type":"Feature"},
	{"geometry":{"coordinates":[6.541147,53.198901],"type":"Point"},"properties":{"osm_id":"2278852815","tag":{"amenity":"waste_basket"}},"type":"Feature"},
	{"geometry":{"coordinates":[6.539019,53.198916],"type":"Point"},"properties":{"osm_id":"2278852818","tag":{"amenity":"waste_basket"}},"type":"Feature"},
	{"geometry":{"coordinates":[6.542298,53.199178],"type":"Point"},"properties":{"osm_id":"2278852823","tag":{"amenity":"waste_basket"}},"type":"Feature"},
	{"geometry":{"coordinates":[6.543525,53.199623],"type":"Point"},"properties":{"osm_id":"2278852830","tag":{"amenity":"waste_basket"}},"type":"Feature"},
	{"geometry":{"coordinates":[6.546891,53.21935],"type":"Point"},"properties":{"osm_id":"2394936118","tag":{"amenity":"recycling","recycling:glass_bottles":"yes","recycling:paper":"yes","recycling_type":"container"}},"type":"Feature"},
	{"geometry":{"coordinates":[6.559206,53.202815],"type":"Point"},"properties":{"osm_id":"3368392408","tag":{"amenity":"recycling","recycling:cans":"no","recycling:clothes":"no","recycling:glass_bottles":"yes","recycling:paper":"yes","recycling_type":"container"}},"type":"Feature"},
	{"geometry":{"coordinates":[6.536516,53.201081],"type":"Point"},"properties":{"osm_id":"3751456855","tag":{"amenity":"waste_basket"}},"type":"Feature"},
	{"geometry":{"coordinates":[6.532852,53.206403],"type":"Point"},"properties":{"osm_id":"3751456878","tag":{"amenity":"waste_basket"}},"type":"Feature"},
	{"geometry":{"coordinates":[6.513753,53.208018],"type":"Point"},"properties":{"osm_id":"3751484464","tag":{"amenity":"waste_basket"}},"type":"Feature"},
	{"geometry":{"coordinates":[6.568441,53.195507],"type":"Point"},"properties":{"osm_id":"4087903662","tag":{"amenity":"recycling","recycling:glass_bottles":"yes","recycling_type":"container"}},"type":"Feature"},
	{"geometry":{"coordinates":[6.578781,53.197935],"type":"Point"},"properties":{"osm_id":"4095020973","tag":{"amenity":"recycling","recycling:glass_bottles":"yes","recycling_type":"container"}},"type":"Feature"},
	{"geometry":{"coordinates":[6.578384,53.197823],"type":"Point"},"properties":{"osm_id":"4095020974","tag":{"amenity":"recycling","recycling:paper":"yes","recycling_type":"container"}},"type":"Feature"},
	{"geometry":{"coordinates":[6.555359,53.218827],"type":"Point"},"properties":{"osm_id":"4118411481","tag":{"amenity":"waste_disposal","level":"0"}},"type":"Feature"},
	{"geometry":{"coordinates":[6.55457,53.21887],"type":"Point"},"properties":{"osm_id":"4118411482","tag":{"amenity":"waste_disposal","level":"0"}},"type":"Feature"},
	{"geometry":{"coordinates":[6.554545,53.218874],"type":"Point"},"properties":{"osm_id":"4118411483","tag":{"amenity":"waste_disposal","level":"0"}},"type":"Feature"},
	{"geometry":{"coordinates":[6.557106,53.219098],"type":"Point"},"properties":{"osm_id":"4206910279","tag":{"amenity":"waste_basket"}},"type":"Feature"},
	{"geometry":{"coordinates":[6.557255,53.219046],"type":"Point"},"properties":{"osm_id":"4206910283","tag":{"amenity":"waste_basket"}},"type":"Feature"},
	{"geometry":{"coordinates":[6.558373,53.216439],"type":"Point"},"properties":{"osm_id":"4217565725","tag":{"amenity":"waste_disposal"}},"type":"Feature"},
	{"geometry":{"coordinates":[6.554434,53.223042],"type":"Point"},"properties":{"osm_id":"4231624893","tag":{"amenity":"waste_basket"}},"type":"Feature"},
	{"geometry":{"coordinates":[6.563553,53.223385],"type":"Point"},"properties":{"osm_id":"4231903591","tag":{"amenity":"waste_disposal","operator":"Gemeente Groningen"}},"type":"Feature"},
	{"geometry":{"coordinates":[6.559265,53.224092],"type":"Point"},"properties":{"osm_id":"4231922495","tag":{"amenity":"waste_disposal"}},"type":"Feature"},
	{"geometry":{"coordinates":[6.563392,53.224528],"type":"Point"},"properties":{"osm_id":"4232084592","tag":{"amenity":"waste_disposal"}},"type":"Feature"},
	{"geometry":{"coordinates":[6.562744,53.218476],"type":"Point"},"properties":{"osm_id":"4233979597","tag":{"amenity":"waste_basket"}},"type":"Feature"},
	{"geometry":{"coordinates":[6.563056,53.216538],"type":"Point"},"properties":{"osm_id":"4234138195","tag":{"amenity":"recycling","mapillary":"-c-VYGLxJ1av4PUWzMU5pQ","recycling:glass_bottles":"yes","recycling_type":"container","survey:date":"2018-09-04"}},"type":"Feature"},
	{"geometry":{"coordinates":[6.562185,53.216777],"type":"Point"},"properties":{"osm_id":"4234142891","tag":{"amenity":"waste_basket"}},"type":"Feature"},
	{"geometry":{"coordinates":[6.560203,53.214788],"type":"Point"},"properties":{"osm_id":"4511029490","tag":{"amenity":"waste_disposal"}},"type":"Feature"},
	{"geometry":{"coordinates":[6.565181,53.218612],"type":"Point"},"properties":{"osm_id":"4511035290","tag":{"amenity":"waste_disposal"}},"type":"Feature"},
	{"geometry":{"coordinates":[6.560186,53.215431],"type":"Point"},"properties":{"osm_id":"4515614396","tag":{"amenity":"waste_disposal"}},"type":"Feature"},
	{"geometry":{"coordinates":[6.558932,53.214921],"type":"Point"},"properties":{"osm_id":"4515678835","tag":{"amenity":"waste_disposal"}},"type":"Feature"},
	{"geometry":{"coordinates":[6.568017,53.197924],"type":"Point"},"properties":{"osm_id":"4528104789","tag":{"amenity":"waste_basket"}},"type":"Feature"},
	{"geometry":{"coordinates":[6.568019,53.199297],"type":"Point"},"properties":{"osm_id":"4528104889","tag":{"amenity":"waste_basket"}},"type":"Feature"},
	{"geometry":{"coordinates":[6.535966,53.202066],"type":"Point"},"properties":{"osm_id":"4946271810","tag":{"amenity":"recycling","recycling:glass_bottles":"yes","recycling_type":"container"}},"type":"Feature"},
	{"geometry":{"coordinates":[6.528942,53.196431],"type":"Point"},"properties":{"osm_id":"4950270595","tag":{"amenity":"waste_basket"}},"type":"Feature"},
	{"geometry":{"coordinates":[6.553038,53.179386],"type":"Point"},"properties":{"osm_id":"5039770623","tag":{"amenity":"waste_basket"}},"type":"Feature"},
	{"geometry":{"coordinates":[6.553848,53.179222],"type":"Point"},"properties":{"osm_id":"5039770624","tag":{"amenity":"waste_basket"}},"type":"Feature"},
	{"geometry":{"coordinates":[6.566267,53.211481],"type":"Point"},"properties":{"osm_id":"5073655722","tag":{"amenity":"waste_basket"}},"type":"Feature"},
	{"geometry":{"coordinates":[6.565814,53.212743],"type":"Point"},"properties":{"osm_id":"5073663225","tag":{"amenity":"waste_basket"}},"type":"Feature"},
	{"geometry":{"coordinates":[6.565616,53.21274],"type":"Point"},"properties":{"osm_id":"5073663226","tag":{"amenity":"waste_basket"}},"type":"Feature"},
	{"geometry":{"coordinates":[6.555766,53.224182],"type":"Point"},"properties":{"osm_id":"5084576024","tag":{"amenity":"waste_basket"}},"type":"Feature"},
	{"geometry":{"coordinates":[6.555712,53.223374],"type":"Point"},"properties":{"osm_id":"5084576027","tag":{"amenity":"waste_basket"}},"type":"Feature"},
	{"geometry":{"coordinates":[6.555306,53.223267],"type":"Point"},"properties":{"osm_id":"5084576028","tag":{"amenity":"waste_basket"}},"type":"Feature"},
	{"geometry":{"coordinates":[6.556785,53.225319],"type":"Point"},"properties":{"osm_id":"5084606321","tag":{"amenity":"waste_basket"}},"type":"Feature"},
	{"geometry":{"coordinates":[6.556565,53.225268],"type":"Point"},"properties":{"osm_id":"5084606322","tag":{"amenity":"waste_basket"}},"type":"Feature"},
	{"geometry":{"coordinates":[6.556113,53.224915],"type":"Point"},"properties":{"osm_id":"5084606323","tag":{"amenity":"waste_basket"}},"type":"Feature"},
	{"geometry":{"coordinates":[6.555548,53.224195],"type":"Point"},"properties":{"osm_id":"5084613321","tag":{"amenity":"waste_basket"}},"type":"Feature"},
	{"geometry":{"coordinates":[6.555054,53.223994],"type":"Point"},"properties":{"osm_id":"5084613323","tag":{"amenity":"waste_basket"}},"type":"Feature"},
	{"geometry":{"coordinates":[6.555157,53.223296],"type":"Point"},"properties":{"osm_id":"5084613326","tag":{"amenity":"waste_basket"}},"type":"Feature"},
	{"geometry":{"coordinates":[6.555116,53.223236],"type":"Point"},"properties":{"osm_id":"5084613327","tag":{"amenity":"waste_basket"}},"type":"Feature"},
	{"geometry":{"coordinates":[6.553748,53.223415],"type":"Point"},"properties":{"osm_id":"5084613328","tag":{"amenity":"waste_basket"}},"type":"Feature"},
	{"geometry":{"coordinates":[6.55568,53.224175],"type":"Point"},"properties":{"osm_id":"5084613421","tag":{"amenity":"waste_basket"}},"type":"Feature"},
	{"geometry":{"coordinates":[6.558013,53.21869],"type":"Point"},"properties":{"osm_id":"5087118526","tag":{"amenity":"waste_basket"}},"type":"Feature"},
	{"geometry":{"coordinates":[6.566982,53.211243],"type":"Point"},"properties":{"osm_id":"5092636322","tag":{"amenity":"waste_basket"}},"type":"Feature"},
	{"geometry":{"coordinates":[6.567553,53.211254],"type":"Point"},"properties":{"osm_id":"5092636324","tag":{"amenity":"waste_basket"}},"type":"Feature"},
	{"geometry":{"coordinates":[6.566574,53.211224],"type":"Point"},"properties":{"osm_id":"5092666021","tag":{"amenity":"waste_basket"}},"type":"Feature"},
	{"geometry":{"coordinates":[6.567966,53.211274],"type":"Point"},"properties":{"osm_id":"5092666222","tag":{"amenity":"waste_basket"}},"type":"Feature"},
	{"geometry":{"coordinates":[6.567667,53.211519],"type":"Point"},"properties":{"osm_id":"5092666421","tag":{"amenity":"waste_basket"}},"type":"Feature"},
	{"geometry":{"coordinates":[6.565868,53.211176],"type":"Point"},"properties":{"osm_id":"5092666422","tag":{"amenity":"waste_basket"}},"type":"Feature"},
	{"geometry":{"coordinates":[6.514744,53.197613],"type":"Point"},"properties":{"osm_id":"5092687323","tag":{"amenity":"waste_basket"}},"type":"Feature"},
	{"geometry":{"coordinates":[6.551782,53.213876],"type":"Point"},"properties":{"osm_id":"5220770553","tag":{"amenity":"waste_basket"}},"type":"Feature"},
	{"geometry":{"coordinates":[6.553483,53.213966],"type":"Point"},"properties":{"osm_id":"5220770554","tag":{"amenity":"waste_basket"}},"type":"Feature"},
	{"geometry":{"coordinates":[6.58146,53.222954],"type":"Point"},"properties":{"osm_id":"5262566161","tag":{"amenity":"waste_disposal","description":"Subsurface container for local residents"}},"type":"Feature"},
	{"geometry":{"coordinates":[6.582901,53.222681],"type":"Point"},"properties":{"osm_id":"5262566162","tag":{"amenity":"recycling","description":"Paper and glass subsurface container","recycling:glass_bottles":"yes","recycling:paper":"yes","recycling_type":"container","wheelchair":"yes"}},"type":"Feature"},
	{"geometry":{"coordinates":[6.566914,53.225233],"type":"Point"},"properties":{"osm_id":"5276280024","tag":{"amenity":"waste_basket"}},"type":"Feature"},
	{"geometry":{"coordinates":[6.554232,53.221117],"type":"Point"},"properties":{"osm_id":"5276281321","tag":{"amenity":"waste_basket"}},"type":"Feature"},
	{"geometry":{"coordinates":[6.557564,53.225315],"type":"Point"},"properties":{"osm_id":"5278426421","tag":{"amenity":"waste_basket"}},"type":"Feature"},
	{"geometry":{"coordinates":[6.581064,53.216778],"type":"Point"},"properties":{"osm_id":"5320113103","tag":{"amenity":"recycling","recycling:glass_bottles":"yes","recycling:paper":"yes","recycling_type":"container"}},"type":"Feature"},
	{"geometry":{"coordinates":[6.543165,53.218331],"type":"Point"},"properties":{"osm_id":"5327405699","tag":{"amenity":"recycling","recycling:glass_bottles":"yes","recycling:paper":"yes","recycling_type":"container"}},"type":"Feature"},
	{"geometry":{"coordinates":[6.55501,53.22222],"type":"Point"},"properties":{"osm_id":"5415240221","tag":{"amenity":"waste_basket"}},"type":"Feature"},
	{"geometry":{"coordinates":[6.558426,53.192815],"type":"Point"},"properties":{"osm_id":"5431264628","tag":{"amenity":"waste_disposal"}},"type":"Feature"},
	{"geometry":{"coordinates":[6.558429,53.192806],"type":"Point"},"properties":{"osm_id":"5432949964","tag":{"amenity":"waste_disposal"}},"type":"Feature"},
	{"geometry":{"coordinates":[6.579442,53.224841],"type":"Point"},"properties":{"osm_id":"5658850921","tag":{"amenity":"recycling","recycling:glass_bottles":"yes","recycling_type":"container"}},"type":"Feature"},
	{"geometry":{"coordinates":[6.565353,53.210689],"type":"Point"},"properties":{"osm_id":"5764015054","tag":{"amenity":"waste_basket"}},"type":"Feature"},
	{"geometry":{"coordinates":[6.56517,53.211025],"type":"Point"},"properties":{"osm_id":"5764015853","tag":{"amenity":"waste_basket"}},"type":"Feature"},
	{"geometry":{"coordinates":[6.564626,53.211297],"type":"Point"},"properties":{"osm_id":"5764016753","tag":{"amenity":"waste_basket"}},"type":"Feature"},
	{"geometry":{"coordinates":[6.563655,53.211598],"type":"Point"},"properties":{"osm_id":"5764016754","tag":{"amenity":"waste_basket"}},"type":"Feature"},
	{"geometry":{"coordinates":[6.56437,53.211369],"type":"Point"},"properties":{"osm_id":"5764016853","tag":{"amenity":"waste_basket"}},"type":"Feature"},
	{"geometry":{"coordinates":[6.554636,53.221096],"type":"Point"},"properties":{"osm_id":"5812305654","tag":{"amenity":"waste_basket"}},"type":"Feature"},
	{"geometry":{"coordinates":[6.55525,53.221786],"type":"Point"},"properties":{"osm_id":"5812305655","tag":{"amenity":"waste_basket"}},"type":"Feature"},
	{"geometry":{"coordinates":[6.554519,53.220876],"type":"Point"},"properties":{"osm_id":"5812307253","tag":{"amenity":"waste_basket"}},"type":"Feature"},
	{"geometry":{"coordinates":[6.56285,53.219188],"type":"Point"},"properties":{"osm_id":"5815053153","tag":{"amenity":"waste_basket"}},"type":"Feature"},
	{"geometry":{"coordinates":[6.563318,53.21931],"type":"Point"},"properties":{"osm_id":"5815053253","tag":{"amenity":"waste_basket"}},"type":"Feature"},
	{"geometry":{"coordinates":[6.563685,53.219123],"type":"Point"},"properties":{"osm_id":"5815053454","tag":{"amenity":"waste_basket"}},"type":"Feature"},
	{"geometry":{"coordinates":[6.554895,53.224664],"type":"Point"},"properties":{"osm_id":"5823905054","tag":{"amenity":"waste_basket"}},"type":"Feature"},
	{"geometry":{"coordinates":[6.562765,53.223222],"type":"Point"},"properties":{"osm_id":"5823910353","tag":{"amenity":"waste_basket"}},"type":"Feature"},
	{"geometry":{"coordinates":[6.562407,53.22355],"type":"Point"},"properties":{"osm_id":"5823910755","tag":{"amenity":"waste_basket"}},"type":"Feature"},
	{"geometry":{"coordinates":[6.554459,53.225617],"type":"Point"},"properties":{"osm_id":"5823928157","tag":{"amenity":"waste_basket"}},"type":"Feature"},
	{"geometry":{"coordinates":[6.554595,53.225106],"type":"Point"},"properties":{"osm_id":"5823929254","tag":{"amenity":"waste_basket"}},"type":"Feature"},
	{"geometry":{"coordinates":[6.54856,53.219263],"type":"Point"},"properties":{"osm_id":"5837767385","tag":{"amenity":"waste_basket"}},"type":"Feature"},
	{"geometry":{"coordinates":[6.566159,53.217749],"type":"Point"},"properties":{"osm_id":"5868389686","tag":{"amenity":"waste_basket"}},"type":"Feature"},
	{"geometry":{"coordinates":[6.566215,53.217697],"type":"Point"},"properties":{"osm_id":"5868398386","tag":{"amenity":"waste_basket"}},"type":"Feature"},
	{"geometry":{"coordinates":[6.565407,53.217209],"type":"Point"},"properties":{"osm_id":"5868398387","tag":{"amenity":"waste_basket"}},"type":"Feature"},
	{"geometry":{"coordinates":[6.574966,53.221498],"type":"Point"},"properties":{"osm_id":"5882285685","tag":{"amenity":"waste_basket"}},"type":"Feature"},
	{"geometry":{"coordinates":[6.556913,53.222027],"type":"Point"},"properties":{"osm_id":"5914480890","tag":{"amenity":"waste_basket"}},"type":"Feature"},
	{"geometry":{"coordinates":[6.555665,53.222616],"type":"Point"},"properties":{"osm_id":"5914499585","tag":{"amenity":"waste_basket"}},"type":"Feature"},
	{"geometry":{"coordinates":[6.545287,53.220609],"type":"Point"},"properties":{"osm_id":"5920689887","tag":{"amenity":"waste_basket"}},"type":"Feature"},
	{"geometry":{"coordinates":[6.546317,53.220731],"type":"Point"},"properties":{"osm_id":"5920691385","tag":{"amenity":"waste_basket"}},"type":"Feature"},
	{"geometry":{"coordinates":[6.547182,53.220895],"type":"Point"},"properties":{"osm_id":"5920691386","tag":{"amenity":"waste_basket"}},"type":"Feature"},
	{"geometry":{"coordinates":[6.548709,53.22122],"type":"Point"},"properties":{"osm_id":"5920739785","tag":{"amenity":"waste_basket"}},"type":"Feature"},
	{"geometry":{"coordinates":[6.549687,53.221498],"type":"Point"},"properties":{"osm_id":"5920739885","tag":{"amenity":"waste_basket"}},"type":"Feature"},
	{"geometry":{"coordinates":[6.542841,53.221708],"type":"Point"},"properties":{"osm_id":"5920785593","tag":{"amenity":"waste_basket","waste":"trash"}},"type":"Feature"},
	{"geometry":{"coordinates":[6.549736,53.212331],"type":"Point"},"properties":{"osm_id":"5971294412","tag":{"amenity":"waste_basket"}},"type":"Feature"},
	{"geometry":{"coordinates":[6.554643,53.2048],"type":"Point"},"properties":{"osm_id":"5971294424","tag":{"amenity":"waste_basket"}},"type":"Feature"},
	{"geometry":{"coordinates":[6.551114,53.21271],"type":"Point"},"properties":{"osm_id":"5971294895","tag":{"amenity":"waste_basket"}},"type":"Feature"},
	{"geometry":{"coordinates":[6.554063,53.205046],"type":"Point"},"properties":{"osm_id":"5971296086","tag":{"amenity":"waste_basket"}},"type":"Feature"},
	{"geometry":{"coordinates":[6.552417,53.218911],"type":"Point"},"properties":{"osm_id":"6008527484","tag":{"amenity":"waste_basket"}},"type":"Feature"},
	{"geometry":{"coordinates":[6.553742,53.220953],"type":"Point"},"properties":{"osm_id":"6010142785","tag":{"amenity":"waste_basket"}},"type":"Feature"},
	{"geometry":{"coordinates":[6.569619,53.213424],"type":"Point"},"properties":{"osm_id":"6187931686","tag":{"amenity":"waste_basket"}},"type":"Feature"},
	{"geometry":{"coordinates":[6.570904,53.225396],"type":"Point"},"properties":{"osm_id":"6248066985","tag":{"amenity":"waste_basket"}},"type":"Feature"},
	{"geometry":{"coordinates":[6.574916,53.175793],"type":"Point"},"properties":{"osm_id":"6743910685","tag":{"amenity":"waste_basket"}},"type":"Feature"},
	{"geometry":{"coordinates":[6.57597,53.174732],"type":"Point"},"properties":{"osm_id":"6743910785","tag":{"amenity":"waste_basket"}},"type":"Feature"},
	{"geometry":{"coordinates":[6.566281,53.181915],"type":"Point"},"properties":{"osm_id":"6746469704","tag":{"amenity":"waste_basket"}},"type":"Feature"},
	{"geometry":{"coordinates":[6.565953,53.225637],"type":"Point"},"properties":{"osm_id":"6753558241","tag":{"access":"private","amenity":"waste_disposal"}},"type":"Feature"},
	{"geometry":{"coordinates":[6.569029,53.220271],"type":"Point"},"properties":{"osm_id":"6906912038","tag":{"amenity":"waste_basket"}},"type":"Feature"},
	{"geometry":{"coordinates":[6.568897,53.220333],"type":"Point"},"properties":{"osm_id":"6906912039","tag":{"amenity":"waste_basket"}},"type":"Feature"},
	{"geometry":{"coordinates":[6.569054,53.220013],"type":"Point"},"properties":{"osm_id":"6906912070","tag":{"amenity":"waste_basket"}},"type":"Feature"},
	{"geometry":{"coordinates":[6.568989,53.219968],"type":"Point"},"properties":{"osm_id":"6906912071","tag":{"amenity":"waste_basket"}},"type":"Feature"},
	{"geometry":{"coordinates":[6.569403,53.21997],"type":"Point"},"properties":{"osm_id":"6906912080","tag":{"amenity":"waste_basket"}},"type":"Feature"},
	{"geometry":{"coordinates":[6.569304,53.220029],"type":"Point"},"properties":{"osm_id":"6906912081","tag":{"amenity":"waste_basket"}},"type":"Feature"},
	{"geometry":{"coordinates":[6.568486,53.219723],"type":"Point"},"properties":{"osm_id":"6906912137","tag":{"amenity":"waste_basket"}},"type":"Feature"},
	{"geometry":{"coordinates":[6.569594,53.2197],"type":"Point"},"properties":{"osm_id":"6906912190","tag":{"amenity":"waste_basket"}},"type":"Feature"},
	{"geometry":{"coordinates":[6.545024,53.225512],"type":"Point"},"properties":{"osm_id":"7217239042","tag":{"amenity":"recycling","recycling:glass_bottles":"yes","recycling:paper":"yes","recycling_type":"container"}},"type":"Feature"},
	{"geometry":{"coordinates":[6.563808,53.192285],"type":"Point"},"properties":{"osm_id":"7284949183","tag":{"amenity":"waste_basket"}},"type":"Feature"},
	{"geometry":{"coordinates":[6.564504,53.193292],"type":"Point"},"properties":{"osm_id":"7285306288","tag":{"amenity":"waste_basket"}},"type":"Feature"},
	{"geometry":{"coordinates":[6.561776,53.19443],"type":"Point"},"properties":{"osm_id":"7947434370","tag":{"amenity":"waste_basket","waste":"trash"}},"type":"Feature"},
	{"geometry":{"coordinates":[6.554902,53.186466],"type":"Point"},"properties":{"osm_id":"7948859498","tag":{"amenity":"waste_basket","waste":"trash"}},"type":"Feature"},
	{"geometry":{"coordinates":[6.555152,53.175201],"type":"Point"},"properties":{"osm_id":"7949035914","tag":{"amenity":"waste_basket","waste":"trash"}},"type":"Feature"}
]
}
