{
"type": "FeatureCollection",
"features": [
	{"geometry":{"coordinates":[6.561076,53.016037],"type":"Point"},"properties":{"osm_id":"560500385","tag":{"amenity":"recycling","recycling:glass_bottles":"yes","recycling_type":"container"}},"type":"Feature"},
	{"geometry":{"coordinates":[6.548725,53.047383],"type":"Point"},"properties":{"osm_id":"1329487112","tag":{"amenity":"recycling","recycling:cans":"yes","recycling:clothes":"yes","recycling_type":"container"}},"type":"Feature"},
	{"geometry":{"coordinates":[6.561156,53.01604],"type":"Point"},"properties":{"osm_id":"4880499883","tag":{"amenity":"recycling","recycling:clothes":"yes","recycling_type":"container","website":"https://www.sympany.nl/"}},"type":"Feature"},
	{"geometry":{"coordinates":[6.571853,53.026205],"type":"Point"},"properties":{"osm_id":"4885573470","tag":{"amenity":"waste_basket"}},"type":"Feature"},
	{"geometry":{"coordinates":[6.571452,53.025268],"type":"Point"},"properties":{"osm_id":"4885573471","tag":{"amenity":"waste_basket"}},"type":"Feature"},
	{"geometry":{"coordinates":[6.569485,53.017782],"type":"Point"},"properties":{"osm_id":"4885573472","tag":{"amenity":"waste_basket"}},"type":"Feature"},
	{"geometry":{"coordinates":[6.566537,53.016453],"type":"Point"},"properties":{"osm_id":"4885573474","tag":{"amenity":"waste_basket","waste":"trash"}},"type":"Feature"},
	{"geometry":{"coordinates":[6.584044,53.017426],"type":"Point"},"properties":{"osm_id":"4885707093","tag":{"amenity":"waste_basket"}},"type":"Feature"},
	{"geometry":{"coordinates":[6.581356,53.015727],"type":"Point"},"properties":{"osm_id":"4885707094","tag":{"amenity":"waste_basket"}},"type":"Feature"},
	{"geometry":{"coordinates":[6.577053,53.01686],"type":"Point"},"properties":{"osm_id":"4885707095","tag":{"amenity":"waste_basket","waste":"dog_excrement"}},"type":"Feature"},
	{"geometry":{"coordinates":[6.585352,53.018109],"type":"Point"},"properties":{"osm_id":"5109710476","tag":{"amenity":"waste_basket"}},"type":"Feature"},
	{"geometry":{"coordinates":[6.586361,53.018085],"type":"Point"},"properties":{"osm_id":"5700510276","tag":{"amenity":"waste_basket"}},"type":"Feature"},
	{"geometry":{"coordinates":[6.543173,53.015144],"type":"Point"},"properties":{"osm_id":"5702616331","tag":{"amenity":"waste_basket","waste":"trash"}},"type":"Feature"},
	{"geometry":{"coordinates":[6.543871,53.015687],"type":"Point"},"properties":{"osm_id":"5702616345","tag":{"amenity":"waste_basket","waste":"trash"}},"type":"Feature"},
	{"geometry":{"coordinates":[6.544585,53.016412],"type":"Point"},"properties":{"osm_id":"5702616387","tag":{"amenity":"waste_basket","waste":"trash"}},"type":"Feature"},
	{"geometry":{"coordinates":[6.544265,53.01648],"type":"Point"},"properties":{"osm_id":"5702616392","tag":{"amenity":"waste_basket","waste":"trash"}},"type":"Feature"},
	{"geometry":{"coordinates":[6.543317,53.016059],"type":"Point"},"properties":{"osm_id":"5702616408","tag":{"amenity":"waste_basket","waste":"trash"}},"type":"Feature"},
	{"geometry":{"coordinates":[6.542502,53.015716],"type":"Point"},"properties":{"osm_id":"5702616415","tag":{"amenity":"waste_basket"}},"type":"Feature"},
	{"geometry":{"coordinates":[6.542259,53.01554],"type":"Point"},"properties":{"osm_id":"5702616446","tag":{"amenity":"waste_basket","waste":"trash"}},"type":"Feature"},
	{"geometry":{"coordinates":[6.541983,53.015377],"type":"Point"},"properties":{"osm_id":"5702616464","tag":{"amenity":"waste_basket","waste":"trash"}},"type":"Feature"},
	{"geometry":{"coordinates":[6.542153,53.015311],"type":"Point"},"properties":{"osm_id":"5702616510","tag":{"amenity":"waste_basket","waste":"trash"}},"type":"Feature"},
	{"geometry":{"coordinates":[6.542266,53.015018],"type":"Point"},"properties":{"osm_id":"5702616627","tag":{"amenity":"waste_basket","waste":"trash"}},"type":"Feature"},
	{"geometry":{"coordinates":[6.560985,53.016454],"type":"Point"},"properties":{"osm_id":"5922881509","tag":{"amenity":"waste_basket","waste":"trash"}},"type":"Feature"},
	{"geometry":{"coordinates":[6.542826,53.015857],"type":"Point"},"properties":{"osm_id":"6133014321","tag":{"amenity":"waste_basket"}},"type":"Feature"},
	{"geometry":{"coordinates":[6.543476,53.015395],"type":"Point"},"properties":{"osm_id":"6133014372","tag":{"amenity":"waste_basket","waste":"trash"}},"type":"Feature"},
	{"geometry":{"coordinates":[6.572535,53.017791],"type":"Point"},"properties":{"osm_id":"6398471640","tag":{"amenity":"waste_basket","waste":"trash"}},"type":"Feature"},
	{"geometry":{"coordinates":[6.572929,53.017688],"type":"Point"},"properties":{"osm_id":"6398471641","tag":{"amenity":"waste_basket","waste":"trash"}},"type":"Feature"},
	{"geometry":{"coordinates":[6.572818,53.017709],"type":"Point"},"properties":{"osm_id":"6398471642","tag":{"amenity":"waste_basket","waste":"trash"}},"type":"Feature"},
	{"geometry":{"coordinates":[6.572708,53.017731],"type":"Point"},"properties":{"osm_id":"6398471643","tag":{"amenity":"waste_basket","waste":"trash"}},"type":"Feature"},
	{"geometry":{"coordinates":[6.562408,53.015774],"type":"Point"},"properties":{"osm_id":"6846215468","tag":{"amenity":"waste_basket","waste":"trash"}},"type":"Feature"},
	{"geometry":{"coordinates":[6.561791,53.015972],"type":"Point"},"properties":{"osm_id":"6846215471","tag":{"amenity":"waste_basket","waste":"trash"}},"type":"Feature"},
	{"geometry":{"coordinates":[6.558214,53.015708],"type":"Point"},"properties":{"osm_id":"6846224508","tag":{"amenity":"waste_basket","waste":"trash"}},"type":"Feature"},
	{"geometry":{"coordinates":[6.557672,53.015167],"type":"Point"},"properties":{"osm_id":"6846224512","tag":{"amenity":"waste_basket","waste":"trash"}},"type":"Feature"},
	{"geometry":{"coordinates":[6.566501,53.016723],"type":"Point"},"properties":{"osm_id":"6846239911","tag":{"amenity":"waste_basket","waste":"trash"}},"type":"Feature"},
	{"geometry":{"coordinates":[6.572396,53.027664],"type":"Point"},"properties":{"osm_id":"6879062666","tag":{"amenity":"waste_basket","waste":"trash"}},"type":"Feature"},
	{"geometry":{"coordinates":[6.572999,53.027667],"type":"Point"},"properties":{"osm_id":"6879062667","tag":{"amenity":"waste_basket","waste":"trash"}},"type":"Feature"},
	{"geometry":{"coordinates":[6.572752,53.027662],"type":"Point"},"properties":{"osm_id":"6879062668","tag":{"amenity":"waste_basket","waste":"trash"}},"type":"Feature"},
	{"geometry":{"coordinates":[6.545478,53.01675],"type":"Point"},"properties":{"osm_id":"6969818564","tag":{"amenity":"waste_basket","waste":"trash"}},"type":"Feature"},
	{"geometry":{"coordinates":[6.545503,53.016739],"type":"Point"},"properties":{"osm_id":"6969818565","tag":{"amenity":"waste_basket","waste":"trash"}},"type":"Feature"},
	{"geometry":{"coordinates":[6.545038,53.016733],"type":"Point"},"properties":{"osm_id":"6969818575","tag":{"amenity":"waste_basket","waste":"trash"}},"type":"Feature"},
	{"geometry":{"coordinates":[6.545357,53.016792],"type":"Point"},"properties":{"osm_id":"6969818576","tag":{"amenity":"waste_basket","waste":"trash"}},"type":"Feature"},
	{"geometry":{"coordinates":[6.545251,53.016517],"type":"Point"},"properties":{"osm_id":"6969818577","tag":{"amenity":"waste_basket","waste":"trash"}},"type":"Feature"},
	{"geometry":{"coordinates":[6.54515,53.016781],"type":"Point"},"properties":{"osm_id":"6969825637","tag":{"amenity":"waste_basket","waste":"trash"}},"type":"Feature"},
	{"geometry":{"coordinates":[6.572106,53.029872],"type":"Point"},"properties":{"osm_id":"7947635930","tag":{"amenity":"waste_basket","waste":"trash"}},"type":"Feature"},
	{"geometry":{"coordinates":[6.557472,53.018069],"type":"Point"},"properties":{"osm_id":"7948175646","tag":{"amenity":"waste_basket","waste":"dog_excrement"}},"type":"Feature"},
	{"geometry":{"coordinates":[6.553282,53.015783],"type":"Point"},"properties":{"osm_id":"7948606630","tag":{"amenity":"waste_basket","waste":"trash"}},"type":"Feature"},
	{"geometry":{"coordinates":[6.554667,53.01662],"type":"Point"},"properties":{"osm_id":"7948606635","tag":{"amenity":"waste_basket","waste":"dog_excrement"}},"type":"Feature"},
	{"geometry":{"coordinates":[6.555005,53.015041],"type":"Point"},"properties":{"osm_id":"7948750503","tag":{"amenity":"waste_basket","waste":"dog_excrement"}},"type":"Feature"},
	{"geometry":{"coordinates":[6.552009,53.015336],"type":"Point"},"properties":{"osm_id":"7948764090","tag":{"amenity":"waste_basket","waste":"trash"}},"type":"Feature"}
]
}
