{
"type": "FeatureCollection",
"lastupdate": "2020-08-01T00:00:00Z",
"features": [
	{"geometry":{"coordinates":[6.535273,52.983731],"type":"Point"},"properties":{"osm_id":"249147630","tag":{"amenity":"recycling","operator":"Sympany","recycling:clothes":"yes","recycling:shoes":"yes","recycling_type":"container","website":"https://www.sympany.nl/"}},"type":"Feature"},
	{"geometry":{"coordinates":[6.516252,52.999277],"type":"Point"},"properties":{"osm_id":"389551570","tag":{"amenity":"recycling","recycling_type":"container"}},"type":"Feature"},
	{"geometry":{"coordinates":[6.548715,53.000173],"type":"Point"},"properties":{"osm_id":"560782711","tag":{"amenity":"recycling","recycling:glass_bottles":"yes","recycling_type":"container"}},"type":"Feature"},
	{"geometry":{"coordinates":[6.56522,52.995356],"type":"Point"},"properties":{"osm_id":"697841224","tag":{"amenity":"recycling","recycling:glass_bottles":"yes","recycling_type":"container"}},"type":"Feature"},
	{"geometry":{"coordinates":[6.565122,52.994467],"type":"Point"},"properties":{"osm_id":"2480605718","tag":{"amenity":"waste_basket"}},"type":"Feature"},
	{"geometry":{"coordinates":[6.56504,52.994416],"type":"Point"},"properties":{"osm_id":"2480605733","tag":{"amenity":"waste_basket"}},"type":"Feature"},
	{"geometry":{"coordinates":[6.585335,52.968848],"type":"Point"},"properties":{"osm_id":"3717554784","tag":{"amenity":"waste_basket"}},"type":"Feature"},
	{"geometry":{"coordinates":[6.582611,52.971643],"type":"Point"},"properties":{"osm_id":"3717554786","tag":{"amenity":"waste_basket"}},"type":"Feature"},
	{"geometry":{"coordinates":[6.568386,53.011915],"type":"Point"},"properties":{"osm_id":"4885573475","tag":{"amenity":"waste_basket"}},"type":"Feature"},
	{"geometry":{"coordinates":[6.569681,53.012237],"type":"Point"},"properties":{"osm_id":"4885573477","tag":{"amenity":"waste_basket"}},"type":"Feature"},
	{"geometry":{"coordinates":[6.563656,53.00961],"type":"Point"},"properties":{"osm_id":"4885614785","tag":{"amenity":"recycling","recycling:glass_bottles":"yes","recycling_type":"underfloor-container"}},"type":"Feature"},
	{"geometry":{"coordinates":[6.568349,53.009415],"type":"Point"},"properties":{"osm_id":"4885660500","tag":{"amenity":"waste_basket"}},"type":"Feature"},
	{"geometry":{"coordinates":[6.569021,53.002401],"type":"Point"},"properties":{"osm_id":"4885660501","tag":{"amenity":"waste_basket"}},"type":"Feature"},
	{"geometry":{"coordinates":[6.569798,53.001821],"type":"Point"},"properties":{"osm_id":"4885660503","tag":{"amenity":"waste_basket"}},"type":"Feature"},
	{"geometry":{"coordinates":[6.589308,53.012136],"type":"Point"},"properties":{"osm_id":"4885707091","tag":{"amenity":"waste_basket"}},"type":"Feature"},
	{"geometry":{"coordinates":[6.561256,53.002507],"type":"Point"},"properties":{"osm_id":"4885742735","tag":{"amenity":"recycling","recycling:glass_bottles":"yes","recycling_type":"container"}},"type":"Feature"},
	{"geometry":{"coordinates":[6.56335,52.979345],"type":"Point"},"properties":{"osm_id":"4885925323","tag":{"amenity":"waste_basket"}},"type":"Feature"},
	{"geometry":{"coordinates":[6.564603,52.979788],"type":"Point"},"properties":{"osm_id":"4885925324","tag":{"amenity":"waste_basket"}},"type":"Feature"},
	{"geometry":{"coordinates":[6.56691,52.982503],"type":"Point"},"properties":{"osm_id":"4885925325","tag":{"amenity":"waste_basket"}},"type":"Feature"},
	{"geometry":{"coordinates":[6.56779,52.983792],"type":"Point"},"properties":{"osm_id":"4885925326","tag":{"amenity":"waste_basket"}},"type":"Feature"},
	{"geometry":{"coordinates":[6.561917,53.002471],"type":"Point"},"properties":{"osm_id":"4885925327","tag":{"amenity":"waste_basket"}},"type":"Feature"},
	{"geometry":{"coordinates":[6.551206,52.998989],"type":"Point"},"properties":{"osm_id":"4885925328","tag":{"amenity":"waste_basket"}},"type":"Feature"},
	{"geometry":{"coordinates":[6.551997,52.998763],"type":"Point"},"properties":{"osm_id":"4885925329","tag":{"amenity":"waste_basket"}},"type":"Feature"},
	{"geometry":{"coordinates":[6.548084,52.999893],"type":"Point"},"properties":{"osm_id":"4885925330","tag":{"amenity":"waste_basket"}},"type":"Feature"},
	{"geometry":{"coordinates":[6.539449,53.001958],"type":"Point"},"properties":{"osm_id":"4885926557","tag":{"amenity":"waste_basket"}},"type":"Feature"},
	{"geometry":{"coordinates":[6.538686,53.001924],"type":"Point"},"properties":{"osm_id":"4885926558","tag":{"amenity":"waste_basket"}},"type":"Feature"},
	{"geometry":{"coordinates":[6.531405,52.9947],"type":"Point"},"properties":{"osm_id":"4886000937","tag":{"amenity":"waste_basket"}},"type":"Feature"},
	{"geometry":{"coordinates":[6.529539,52.99411],"type":"Point"},"properties":{"osm_id":"4886000939","tag":{"amenity":"waste_basket"}},"type":"Feature"},
	{"geometry":{"coordinates":[6.518925,53.004061],"type":"Point"},"properties":{"osm_id":"4886000941","tag":{"amenity":"waste_basket"}},"type":"Feature"},
	{"geometry":{"coordinates":[6.519157,53.003921],"type":"Point"},"properties":{"osm_id":"4886000942","tag":{"amenity":"waste_basket"}},"type":"Feature"},
	{"geometry":{"coordinates":[6.533918,52.988795],"type":"Point"},"properties":{"osm_id":"4886000943","tag":{"amenity":"waste_basket"}},"type":"Feature"},
	{"geometry":{"coordinates":[6.535262,52.987712],"type":"Point"},"properties":{"osm_id":"4886000944","tag":{"amenity":"waste_basket"}},"type":"Feature"},
	{"geometry":{"coordinates":[6.537948,52.984684],"type":"Point"},"properties":{"osm_id":"4886000949","tag":{"amenity":"waste_basket"}},"type":"Feature"},
	{"geometry":{"coordinates":[6.537697,52.984636],"type":"Point"},"properties":{"osm_id":"4886000950","tag":{"amenity":"waste_basket"}},"type":"Feature"},
	{"geometry":{"coordinates":[6.56522,52.995321],"type":"Point"},"properties":{"osm_id":"4886006025","tag":{"amenity":"recycling","operator":"Sympany","recycling:clothes":"yes","recycling_type":"container","website":"https://www.sympany.nl/"}},"type":"Feature"},
	{"geometry":{"coordinates":[6.549246,53.008438],"type":"Point"},"properties":{"osm_id":"4899320486","tag":{"amenity":"waste_basket"}},"type":"Feature"},
	{"geometry":{"coordinates":[6.547949,53.007604],"type":"Point"},"properties":{"osm_id":"4899328664","tag":{"amenity":"waste_basket"}},"type":"Feature"},
	{"geometry":{"coordinates":[6.560278,53.005249],"type":"Point"},"properties":{"osm_id":"5132843142","tag":{"amenity":"waste_basket"}},"type":"Feature"},
	{"geometry":{"coordinates":[6.56018,53.005101],"type":"Point"},"properties":{"osm_id":"5132843143","tag":{"amenity":"waste_basket"}},"type":"Feature"},
	{"geometry":{"coordinates":[6.560079,53.00495],"type":"Point"},"properties":{"osm_id":"5132843144","tag":{"amenity":"waste_basket"}},"type":"Feature"},
	{"geometry":{"coordinates":[6.559985,53.004804],"type":"Point"},"properties":{"osm_id":"5132843145","tag":{"amenity":"waste_basket"}},"type":"Feature"},
	{"geometry":{"coordinates":[6.559886,53.004651],"type":"Point"},"properties":{"osm_id":"5132843146","tag":{"amenity":"waste_basket"}},"type":"Feature"},
	{"geometry":{"coordinates":[6.559785,53.004504],"type":"Point"},"properties":{"osm_id":"5132843147","tag":{"amenity":"waste_basket"}},"type":"Feature"},
	{"geometry":{"coordinates":[6.559685,53.004353],"type":"Point"},"properties":{"osm_id":"5132843148","tag":{"amenity":"waste_basket"}},"type":"Feature"},
	{"geometry":{"coordinates":[6.562964,52.993698],"type":"Point"},"properties":{"osm_id":"5132856885","tag":{"amenity":"waste_basket"}},"type":"Feature"},
	{"geometry":{"coordinates":[6.566573,52.996362],"type":"Point"},"properties":{"osm_id":"5395175239","tag":{"amenity":"waste_basket"}},"type":"Feature"},
	{"geometry":{"coordinates":[6.567169,52.996397],"type":"Point"},"properties":{"osm_id":"5395175244","tag":{"amenity":"waste_basket"}},"type":"Feature"},
	{"geometry":{"coordinates":[6.541805,53.014207],"type":"Point"},"properties":{"osm_id":"5702616476","tag":{"amenity":"waste_basket","waste":"trash"}},"type":"Feature"},
	{"geometry":{"coordinates":[6.541975,53.014457],"type":"Point"},"properties":{"osm_id":"5702616477","tag":{"amenity":"waste_basket","waste":"trash"}},"type":"Feature"},
	{"geometry":{"coordinates":[6.563529,53.00931],"type":"Point"},"properties":{"osm_id":"5719666509","tag":{"amenity":"waste_basket","waste":"trash"}},"type":"Feature"},
	{"geometry":{"coordinates":[6.569939,52.998214],"type":"Point"},"properties":{"osm_id":"5839566168","tag":{"amenity":"recycling","recycling:glass_bottles":"yes","recycling_type":"container"}},"type":"Feature"},
	{"geometry":{"coordinates":[6.569931,52.998265],"type":"Point"},"properties":{"osm_id":"5839566913","tag":{"amenity":"recycling","operator":"Sympany","recycling:clothes":"yes","recycling:shoes":"yes","recycling_type":"container","website":"https://www.sympany.nl/"}},"type":"Feature"},
	{"geometry":{"coordinates":[6.531366,52.986607],"type":"Point"},"properties":{"osm_id":"5912326937","tag":{"amenity":"recycling","recycling:glass_bottles":"yes","recycling_type":"container"}},"type":"Feature"},
	{"geometry":{"coordinates":[6.535309,52.983717],"type":"Point"},"properties":{"osm_id":"5912326938","tag":{"amenity":"recycling","recycling:glass_bottles":"yes","recycling_type":"container"}},"type":"Feature"},
	{"geometry":{"coordinates":[6.579922,52.988385],"type":"Point"},"properties":{"osm_id":"5912326939","tag":{"amenity":"recycling","recycling:glass_bottles":"yes","recycling_type":"container"}},"type":"Feature"},
	{"geometry":{"coordinates":[6.539023,52.996713],"type":"Point"},"properties":{"osm_id":"5912326940","tag":{"amenity":"recycling","recycling:glass_bottles":"yes","recycling_type":"container"}},"type":"Feature"},
	{"geometry":{"coordinates":[6.561249,53.002533],"type":"Point"},"properties":{"osm_id":"5912326941","tag":{"amenity":"recycling","operator":"Sympany","recycling:clothes":"yes","recycling:shoes":"yes","recycling_type":"container","website":"https://www.sympany.nl/"}},"type":"Feature"},
	{"geometry":{"coordinates":[6.539988,53.006513],"type":"Point"},"properties":{"osm_id":"5912326942","tag":{"amenity":"recycling","recycling:glass_bottles":"yes","recycling_type":"container"}},"type":"Feature"},
	{"geometry":{"coordinates":[6.525595,53.001403],"type":"Point"},"properties":{"osm_id":"6032193173","tag":{"amenity":"recycling","recycling:glass_bottles":"yes","recycling_type":"container"}},"type":"Feature"},
	{"geometry":{"coordinates":[6.566192,53.010943],"type":"Point"},"properties":{"osm_id":"6081598313","tag":{"amenity":"recycling","recycling_type":"container"}},"type":"Feature"},
	{"geometry":{"coordinates":[6.566167,53.010956],"type":"Point"},"properties":{"osm_id":"6081598314","tag":{"amenity":"recycling","recycling_type":"container"}},"type":"Feature"},
	{"geometry":{"coordinates":[6.566147,53.010971],"type":"Point"},"properties":{"osm_id":"6081598375","tag":{"amenity":"recycling","recycling_type":"container"}},"type":"Feature"},
	{"geometry":{"coordinates":[6.564814,53.011184],"type":"Point"},"properties":{"osm_id":"6081617798","tag":{"amenity":"recycling","recycling_type":"container"}},"type":"Feature"},
	{"geometry":{"coordinates":[6.564834,53.011169],"type":"Point"},"properties":{"osm_id":"6081617799","tag":{"amenity":"recycling","recycling_type":"container"}},"type":"Feature"},
	{"geometry":{"coordinates":[6.564859,53.011155],"type":"Point"},"properties":{"osm_id":"6081617800","tag":{"amenity":"recycling","recycling_type":"container"}},"type":"Feature"},
	{"geometry":{"coordinates":[6.563472,53.011397],"type":"Point"},"properties":{"osm_id":"6081631505","tag":{"amenity":"recycling","recycling_type":"container"}},"type":"Feature"},
	{"geometry":{"coordinates":[6.563492,53.011382],"type":"Point"},"properties":{"osm_id":"6081631506","tag":{"amenity":"recycling","recycling_type":"container"}},"type":"Feature"},
	{"geometry":{"coordinates":[6.563517,53.011369],"type":"Point"},"properties":{"osm_id":"6081631507","tag":{"amenity":"recycling","recycling_type":"container"}},"type":"Feature"},
	{"geometry":{"coordinates":[6.571036,52.991656],"type":"Point"},"properties":{"osm_id":"6270906587","tag":{"amenity":"waste_basket","level":"0"}},"type":"Feature"},
	{"geometry":{"coordinates":[6.554964,53.014363],"type":"Point"},"properties":{"osm_id":"6845163876","tag":{"amenity":"waste_basket","waste":"trash"}},"type":"Feature"},
	{"geometry":{"coordinates":[6.559773,52.976731],"type":"Point"},"properties":{"osm_id":"6860106214","tag":{"amenity":"waste_basket","waste":"trash"}},"type":"Feature"},
	{"geometry":{"coordinates":[6.579926,52.988403],"type":"Point"},"properties":{"osm_id":"6868289577","tag":{"amenity":"waste_basket","waste":"trash"}},"type":"Feature"},
	{"geometry":{"coordinates":[6.571229,53.008953],"type":"Point"},"properties":{"osm_id":"6882406701","tag":{"amenity":"waste_basket","waste":"trash"}},"type":"Feature"},
	{"geometry":{"coordinates":[6.571132,53.008967],"type":"Point"},"properties":{"osm_id":"6882406702","tag":{"amenity":"waste_basket","waste":"trash"}},"type":"Feature"},
	{"geometry":{"coordinates":[6.571033,53.008973],"type":"Point"},"properties":{"osm_id":"6882406703","tag":{"amenity":"waste_basket","waste":"trash"}},"type":"Feature"},
	{"geometry":{"coordinates":[6.571129,53.008802],"type":"Point"},"properties":{"osm_id":"6882406704","tag":{"amenity":"waste_basket","waste":"trash"}},"type":"Feature"},
	{"geometry":{"coordinates":[6.56727,52.996522],"type":"Point"},"properties":{"osm_id":"7170288822","tag":{"amenity":"recycling","operator":"Sympany","recycling:clothes":"yes","recycling_type":"container"}},"type":"Feature"},
	{"geometry":{"coordinates":[6.571141,52.992658],"type":"Point"},"properties":{"osm_id":"7275048415","tag":{"amenity":"waste_basket","level":"0"}},"type":"Feature"},
	{"geometry":{"coordinates":[6.5714,52.992623],"type":"Point"},"properties":{"osm_id":"7275048417","tag":{"amenity":"waste_basket","level":"0"}},"type":"Feature"},
	{"geometry":{"coordinates":[6.570437,52.992256],"type":"Point"},"properties":{"osm_id":"7275048418","tag":{"amenity":"waste_basket","level":"0"}},"type":"Feature"},
	{"geometry":{"coordinates":[6.570784,52.992212],"type":"Point"},"properties":{"osm_id":"7275048419","tag":{"amenity":"waste_basket","level":"0"}},"type":"Feature"},
	{"geometry":{"coordinates":[6.570901,52.992144],"type":"Point"},"properties":{"osm_id":"7275048420","tag":{"amenity":"waste_basket","level":"0"}},"type":"Feature"},
	{"geometry":{"coordinates":[6.570922,52.992058],"type":"Point"},"properties":{"osm_id":"7275048424","tag":{"amenity":"waste_basket","level":"0"}},"type":"Feature"},
	{"geometry":{"coordinates":[6.570845,52.991853],"type":"Point"},"properties":{"osm_id":"7275048425","tag":{"amenity":"waste_basket","level":"0"}},"type":"Feature"},
	{"geometry":{"coordinates":[6.570786,52.991688],"type":"Point"},"properties":{"osm_id":"7275048426","tag":{"amenity":"waste_basket","level":"0"}},"type":"Feature"},
	{"geometry":{"coordinates":[6.570545,52.991033],"type":"Point"},"properties":{"osm_id":"7275048427","tag":{"amenity":"waste_basket","level":"0"}},"type":"Feature"},
	{"geometry":{"coordinates":[6.570625,52.991331],"type":"Point"},"properties":{"osm_id":"7275048428","tag":{"amenity":"waste_basket","level":"0"}},"type":"Feature"},
	{"geometry":{"coordinates":[6.570682,52.991594],"type":"Point"},"properties":{"osm_id":"7275048429","tag":{"amenity":"waste_basket","level":"0"}},"type":"Feature"},
	{"geometry":{"coordinates":[6.513483,52.999142],"type":"Point"},"properties":{"osm_id":"7369353482","tag":{"amenity":"recycling","operator":"Sympany","recycling:clothes":"yes","recycling_type":"container"}},"type":"Feature"},
	{"geometry":{"coordinates":[6.57109,52.991819],"type":"Point"},"properties":{"osm_id":"7416833941","tag":{"amenity":"waste_basket","level":"0"}},"type":"Feature"},
	{"geometry":{"coordinates":[6.571166,52.992029],"type":"Point"},"properties":{"osm_id":"7416833943","tag":{"amenity":"waste_basket","level":"0"}},"type":"Feature"},
	{"geometry":{"coordinates":[6.570651,52.99131],"type":"Point"},"properties":{"osm_id":"7416833946","tag":{"amenity":"waste_basket","level":"0"}},"type":"Feature"},
	{"geometry":{"coordinates":[6.565494,52.995351],"type":"Point"},"properties":{"osm_id":"7417193851","tag":{"amenity":"waste_basket","operator":"Gemeente Assen","waste":"dog_excrement"}},"type":"Feature"},
	{"geometry":{"coordinates":[6.565642,52.995362],"type":"Point"},"properties":{"osm_id":"7417193852","tag":{"amenity":"waste_basket","waste":"trash"}},"type":"Feature"}
]
}
