{
"type": "FeatureCollection",
"features": [
	{"geometry":{"coordinates":[6.562272,52.621847],"type":"Point"},"properties":{"osm_id":"3701929732","tag":{"amenity":"waste_basket"}},"type":"Feature"},
	{"geometry":{"coordinates":[6.554725,52.627521],"type":"Point"},"properties":{"osm_id":"3701933579","tag":{"amenity":"waste_basket"}},"type":"Feature"},
	{"geometry":{"coordinates":[6.572853,52.610166],"type":"Point"},"properties":{"osm_id":"5378381835","tag":{"amenity":"waste_basket"}},"type":"Feature"},
	{"geometry":{"coordinates":[6.557269,52.626276],"type":"Point"},"properties":{"osm_id":"5506241246","tag":{"amenity":"waste_basket"}},"type":"Feature"},
	{"geometry":{"coordinates":[6.571735,52.613807],"type":"Point"},"properties":{"osm_id":"5913462148","tag":{"amenity":"recycling","operator":"ROVA","recycling:clothes":"yes","recycling:glass_bottles":"yes","recycling_type":"container"}},"type":"Feature"},
	{"geometry":{"coordinates":[6.558531,52.628868],"type":"Point"},"properties":{"osm_id":"5913462149","tag":{"amenity":"recycling","operator":"ROVA","recycling:glass_bottles":"yes","recycling_type":"container"}},"type":"Feature"},
	{"geometry":{"coordinates":[6.552573,52.629181],"type":"Point"},"properties":{"osm_id":"5913462150","tag":{"amenity":"recycling","location":"underground","operator":"ROVA","recycling:clothes":"yes","recycling:glass_bottles":"yes","recycling_type":"container"}},"type":"Feature"},
	{"geometry":{"coordinates":[6.540554,52.638418],"type":"Point"},"properties":{"osm_id":"5913462151","tag":{"amenity":"recycling","operator":"ROVA","recycling:glass_bottles":"yes","recycling_type":"container"}},"type":"Feature"}
]
}
