{
"type": "FeatureCollection",
"features": [
	{"geometry":{"coordinates":[6.586653,51.834727],"type":"Point"},"properties":{"osm_id":"474818816","tag":{"amenity":"recycling","recycling:glass":"yes","recycling:paper":"yes"}},"type":"Feature"},
	{"geometry":{"coordinates":[6.57729,51.833324],"type":"Point"},"properties":{"osm_id":"474818972","tag":{"amenity":"recycling","recycling:glass":"yes","recycling:paper":"yes"}},"type":"Feature"},
	{"geometry":{"coordinates":[6.581788,51.835113],"type":"Point"},"properties":{"osm_id":"474818989","tag":{"amenity":"recycling","mapillary":"UnPljx3UCT2oeFquTAcPWQ","recycling:cans":"no","recycling:clothes":"no","recycling:glass":"yes","recycling:paper":"yes","recycling_type":"container","survey:date":"2016-10-14"}},"type":"Feature"},
	{"geometry":{"coordinates":[6.577488,51.835678],"type":"Point"},"properties":{"osm_id":"1290794923","tag":{"amenity":"recycling","mapillary":"vV9Kd6WoiWYSxMBbxAX9nA","recycling_type":"container","survey:date":"2018-09-28"}},"type":"Feature"},
	{"geometry":{"coordinates":[6.516056,51.818356],"type":"Point"},"properties":{"osm_id":"4582731133","tag":{"amenity":"recycling","opening_hours":"24/7","recycling:glass":"yes","recycling_type":"container"}},"type":"Feature"},
	{"geometry":{"coordinates":[6.583597,51.831992],"type":"Point"},"properties":{"osm_id":"5647458092","tag":{"amenity":"recycling","recycling:glass":"yes","recycling:paper":"yes","recycling_type":"container"}},"type":"Feature"},
	{"geometry":{"coordinates":[6.588753,51.833785],"type":"Point"},"properties":{"osm_id":"5834864397","tag":{"amenity":"recycling","operator":"ESB","recycling:cardboard":"yes","recycling:glass":"no","recycling:glass_bottles":"yes","recycling:paper":"yes","recycling_type":"container"}},"type":"Feature"},
	{"geometry":{"coordinates":[6.589243,51.816816],"type":"Point"},"properties":{"osm_id":"5834864398","tag":{"amenity":"recycling","operator":"ESB","recycling:cardboard":"yes","recycling:glass_bottles":"yes","recycling:paper":"yes","recycling_type":"container"}},"type":"Feature"},
	{"geometry":{"coordinates":[6.553935,51.832871],"type":"Point"},"properties":{"osm_id":"5834864402","tag":{"amenity":"recycling","operator":"ESB","recycling:cardboard":"yes","recycling:glass_bottles":"yes","recycling:paper":"yes","recycling_type":"container"}},"type":"Feature"}
]
}
