{
"type": "FeatureCollection",
"features": [
	{"geometry":{"coordinates":[6.540933,51.644847],"type":"Point"},"properties":{"osm_id":"660675281","tag":{"amenity":"recycling","recycling:glass":"yes"}},"type":"Feature"},
	{"geometry":{"coordinates":[6.565959,51.623055],"type":"Point"},"properties":{"osm_id":"1452577014","tag":{"amenity":"waste_basket"}},"type":"Feature"},
	{"geometry":{"coordinates":[6.512377,51.671038],"type":"Point"},"properties":{"osm_id":"2991454891","tag":{"amenity":"waste_basket","check_date":"2021-09-11"}},"type":"Feature"},
	{"geometry":{"coordinates":[6.58476,51.627515],"type":"Point"},"properties":{"osm_id":"3669334884","tag":{"amenity":"recycling","recycling:clothes":"yes","recycling:glass":"yes","recycling:glass_bottles":"yes","recycling_type":"container","wheelchair":"yes"}},"type":"Feature"},
	{"geometry":{"coordinates":[6.588375,51.663335],"type":"Point"},"properties":{"osm_id":"3764243418","tag":{"amenity":"recycling","recycling:glass":"yes","recycling:glass_bottles":"yes","recycling_type":"container","wheelchair":"yes"}},"type":"Feature"},
	{"geometry":{"coordinates":[6.586184,51.662784],"type":"Point"},"properties":{"name":"F\u00c3\u00a4kalien Entsorgungsstation f\u00c3\u00bcr Boote","osm_id":"5011970232","tag":{"amenity":"recycling","opening_hours":"24/7","operator":"RTGW","recycling_type":"centre"}},"type":"Feature"},
	{"geometry":{"coordinates":[6.540867,51.624277],"type":"Point"},"properties":{"osm_id":"5316452788","tag":{"amenity":"recycling","recycling:clothes":"yes","recycling:glass":"yes","recycling_type":"container"}},"type":"Feature"},
	{"geometry":{"coordinates":[6.537569,51.650638],"type":"Point"},"properties":{"osm_id":"5352532497","tag":{"amenity":"recycling","check_date:recycling":"2021-09-26","recycling:glass_bottles":"yes","recycling_type":"container"}},"type":"Feature"}
]
}
