{
"type": "FeatureCollection",
"features": [
	{"geometry":{"coordinates":[6.550217,51.195306],"type":"Point"},"properties":{"osm_id":"382201406","tag":{"amenity":"recycling","location":"overground","recycling:glass":"yes","recycling_type":"container"}},"type":"Feature"},
	{"geometry":{"coordinates":[6.583004,51.212988],"type":"Point"},"properties":{"osm_id":"390675579","tag":{"amenity":"recycling","recycling:clothes":"yes","recycling:glass":"yes"}},"type":"Feature"},
	{"geometry":{"coordinates":[6.510108,51.189059],"type":"Point"},"properties":{"osm_id":"433229900","tag":{"amenity":"recycling","recycling:clothes":"yes","recycling_type":"container"}},"type":"Feature"},
	{"geometry":{"coordinates":[6.509272,51.189888],"type":"Point"},"properties":{"osm_id":"433235229","tag":{"amenity":"recycling","recycling:glass":"yes","recycling_type":"container"}},"type":"Feature"},
	{"geometry":{"coordinates":[6.507463,51.186398],"type":"Point"},"properties":{"osm_id":"433621307","tag":{"amenity":"recycling","recycling:clothes":"yes"}},"type":"Feature"},
	{"geometry":{"coordinates":[6.508044,51.185438],"type":"Point"},"properties":{"osm_id":"433621312","tag":{"amenity":"recycling","recycling:glass":"yes","recycling_type":"container"}},"type":"Feature"},
	{"geometry":{"coordinates":[6.519291,51.185248],"type":"Point"},"properties":{"osm_id":"433654797","tag":{"amenity":"recycling","recycling:clothes":"yes","recycling:glass":"yes"}},"type":"Feature"},
	{"geometry":{"coordinates":[6.528329,51.186922],"type":"Point"},"properties":{"osm_id":"440200801","tag":{"amenity":"recycling","recycling:glass_bottles":"yes","recycling_type":"container"}},"type":"Feature"},
	{"geometry":{"coordinates":[6.512851,51.195431],"type":"Point"},"properties":{"osm_id":"440801099","tag":{"amenity":"recycling","recycling:glass":"yes","recycling_type":"container"}},"type":"Feature"},
	{"geometry":{"coordinates":[6.52183,51.193898],"type":"Point"},"properties":{"osm_id":"448413263","tag":{"amenity":"recycling","recycling:clothes":"yes","recycling:glass":"yes","recycling_type":"container"}},"type":"Feature"},
	{"geometry":{"coordinates":[6.512471,51.196215],"type":"Point"},"properties":{"osm_id":"458745938","tag":{"amenity":"recycling","recycling:glass":"yes","recycling_type":"container"}},"type":"Feature"},
	{"geometry":{"coordinates":[6.512717,51.196237],"type":"Point"},"properties":{"osm_id":"458745939","tag":{"amenity":"recycling","recycling:clothes":"yes","recycling_type":"container"}},"type":"Feature"},
	{"geometry":{"coordinates":[6.514021,51.185664],"type":"Point"},"properties":{"osm_id":"459497611","tag":{"amenity":"recycling","recycling:clothes":"yes","recycling:glass":"yes"}},"type":"Feature"},
	{"geometry":{"coordinates":[6.504841,51.207384],"type":"Point"},"properties":{"osm_id":"484263275","tag":{"amenity":"recycling","recycling:glass":"yes","recycling_type":"container"}},"type":"Feature"},
	{"geometry":{"coordinates":[6.577854,51.211556],"type":"Point"},"properties":{"osm_id":"600462257","tag":{"amenity":"recycling","recycling:glass_bottles":"yes","recycling_type":"container"}},"type":"Feature"},
	{"geometry":{"coordinates":[6.522506,51.207095],"type":"Point"},"properties":{"osm_id":"612422487","tag":{"amenity":"recycling"}},"type":"Feature"},
	{"geometry":{"coordinates":[6.578362,51.228749],"type":"Point"},"properties":{"osm_id":"747288003","tag":{"amenity":"waste_basket"}},"type":"Feature"},
	{"geometry":{"coordinates":[6.583923,51.23001],"type":"Point"},"properties":{"osm_id":"757404917","tag":{"amenity":"waste_basket"}},"type":"Feature"},
	{"geometry":{"coordinates":[6.583944,51.229988],"type":"Point"},"properties":{"osm_id":"757404928","tag":{"amenity":"recycling","recycling_type":"container","waste":"yes"}},"type":"Feature"},
	{"geometry":{"coordinates":[6.569504,51.199149],"type":"Point"},"properties":{"osm_id":"765952328","tag":{"amenity":"waste_basket"}},"type":"Feature"},
	{"geometry":{"coordinates":[6.522398,51.231089],"type":"Point"},"properties":{"osm_id":"766721840","tag":{"amenity":"waste_basket"}},"type":"Feature"},
	{"geometry":{"coordinates":[6.550444,51.192013],"type":"Point"},"properties":{"osm_id":"770169555","tag":{"amenity":"waste_basket"}},"type":"Feature"},
	{"geometry":{"coordinates":[6.556889,51.196715],"type":"Point"},"properties":{"osm_id":"803891708","tag":{"amenity":"recycling","operator":"Alba AG","recycling:glass":"yes","recycling_type":"container"}},"type":"Feature"},
	{"geometry":{"coordinates":[6.561851,51.189689],"type":"Point"},"properties":{"osm_id":"803891709","tag":{"amenity":"recycling","location":"overground","operator":"Alba AG","recycling:glass":"yes","recycling_type":"container"}},"type":"Feature"},
	{"geometry":{"coordinates":[6.560352,51.205937],"type":"Point"},"properties":{"osm_id":"861743984","tag":{"amenity":"recycling","recycling:clothes":"yes","recycling_type":"container"}},"type":"Feature"},
	{"geometry":{"coordinates":[6.579763,51.231165],"type":"Point"},"properties":{"osm_id":"925535288","tag":{"amenity":"waste_basket"}},"type":"Feature"},
	{"geometry":{"coordinates":[6.550261,51.195308],"type":"Point"},"properties":{"osm_id":"1198674229","tag":{"amenity":"recycling","location":"overground","recycling:clothes":"yes","recycling_type":"container"}},"type":"Feature"},
	{"geometry":{"coordinates":[6.555455,51.204228],"type":"Point"},"properties":{"osm_id":"1338957625","tag":{"amenity":"recycling","recycling_type":"container"}},"type":"Feature"},
	{"geometry":{"coordinates":[6.5117,51.19559],"type":"Point"},"properties":{"osm_id":"1454018654","tag":{"amenity":"waste_basket"}},"type":"Feature"},
	{"geometry":{"coordinates":[6.512024,51.195679],"type":"Point"},"properties":{"osm_id":"1454018660","tag":{"amenity":"waste_basket"}},"type":"Feature"},
	{"geometry":{"coordinates":[6.574111,51.214369],"type":"Point"},"properties":{"osm_id":"1660135216","tag":{"amenity":"recycling","recycling:glass_bottles":"yes","recycling_type":"container"}},"type":"Feature"},
	{"geometry":{"coordinates":[6.560154,51.192618],"type":"Point"},"properties":{"osm_id":"1740389847","tag":{"amenity":"recycling","recycling:clothes":"yes","recycling_type":"container"}},"type":"Feature"},
	{"geometry":{"coordinates":[6.564939,51.193005],"type":"Point"},"properties":{"osm_id":"1740389853","tag":{"amenity":"recycling","recycling:glass":"yes","recycling_type":"container"}},"type":"Feature"},
	{"geometry":{"coordinates":[6.563554,51.193079],"type":"Point"},"properties":{"osm_id":"1740389857","tag":{"amenity":"waste_basket"}},"type":"Feature"},
	{"geometry":{"coordinates":[6.564196,51.193089],"type":"Point"},"properties":{"osm_id":"1740389861","tag":{"amenity":"recycling","location":"overground","recycling:clothes":"yes","recycling_type":"container"}},"type":"Feature"},
	{"geometry":{"coordinates":[6.565935,51.193165],"type":"Point"},"properties":{"osm_id":"1740389869","tag":{"amenity":"waste_basket"}},"type":"Feature"},
	{"geometry":{"coordinates":[6.560118,51.191158],"type":"Point"},"properties":{"osm_id":"1740409103","tag":{"amenity":"recycling","location":"overground","operator":"Alba AG","recycling:glass":"yes","recycling_type":"container"}},"type":"Feature"},
	{"geometry":{"coordinates":[6.561663,51.189633],"type":"Point"},"properties":{"osm_id":"1740410386","tag":{"amenity":"recycling","operator":"Malteser","recycling:clothes":"yes"}},"type":"Feature"},
	{"geometry":{"coordinates":[6.580119,51.215204],"type":"Point"},"properties":{"osm_id":"1764519524","tag":{"amenity":"waste_basket"}},"type":"Feature"},
	{"geometry":{"coordinates":[6.580043,51.215555],"type":"Point"},"properties":{"osm_id":"1764519531","tag":{"amenity":"waste_basket"}},"type":"Feature"},
	{"geometry":{"coordinates":[6.581167,51.213955],"type":"Point"},"properties":{"osm_id":"1768839196","tag":{"amenity":"waste_basket"}},"type":"Feature"},
	{"geometry":{"coordinates":[6.55709,51.20058],"type":"Point"},"properties":{"osm_id":"1956312791","tag":{"amenity":"waste_basket"}},"type":"Feature"},
	{"geometry":{"coordinates":[6.569973,51.229864],"type":"Point"},"properties":{"osm_id":"2300003887","tag":{"amenity":"waste_basket"}},"type":"Feature"},
	{"geometry":{"coordinates":[6.568,51.229921],"type":"Point"},"properties":{"osm_id":"2300003898","tag":{"amenity":"waste_basket"}},"type":"Feature"},
	{"geometry":{"coordinates":[6.578015,51.231815],"type":"Point"},"properties":{"osm_id":"2300003929","tag":{"amenity":"waste_basket"}},"type":"Feature"},
	{"geometry":{"coordinates":[6.573317,51.231956],"type":"Point"},"properties":{"osm_id":"2300003947","tag":{"amenity":"waste_basket"}},"type":"Feature"},
	{"geometry":{"coordinates":[6.554148,51.19769],"type":"Point"},"properties":{"osm_id":"2661893666","tag":{"amenity":"waste_basket"}},"type":"Feature"},
	{"geometry":{"coordinates":[6.554288,51.197895],"type":"Point"},"properties":{"osm_id":"2661893673","tag":{"amenity":"waste_basket"}},"type":"Feature"},
	{"geometry":{"coordinates":[6.515012,51.190028],"type":"Point"},"properties":{"osm_id":"2799027113","tag":{"amenity":"waste_basket"}},"type":"Feature"},
	{"geometry":{"coordinates":[6.540229,51.185226],"type":"Point"},"properties":{"osm_id":"3022705490","tag":{"amenity":"waste_basket"}},"type":"Feature"},
	{"geometry":{"coordinates":[6.53365,51.188857],"type":"Point"},"properties":{"osm_id":"3023389542","tag":{"amenity":"recycling","operator":"Caritas","recycling:clothes":"yes","recycling_type":"container"}},"type":"Feature"},
	{"geometry":{"coordinates":[6.512918,51.195425],"type":"Point"},"properties":{"osm_id":"3023421645","tag":{"amenity":"recycling","recycling:clothes":"yes","recycling_type":"container"}},"type":"Feature"},
	{"geometry":{"coordinates":[6.553243,51.195528],"type":"Point"},"properties":{"osm_id":"3249252206","tag":{"amenity":"waste_basket"}},"type":"Feature"},
	{"geometry":{"coordinates":[6.553109,51.195605],"type":"Point"},"properties":{"osm_id":"3249252213","tag":{"amenity":"waste_basket"}},"type":"Feature"},
	{"geometry":{"coordinates":[6.514557,51.188026],"type":"Point"},"properties":{"osm_id":"3480008249","tag":{"amenity":"recycling","recycling:clothes":"yes","recycling:glass":"yes","recycling_type":"container"}},"type":"Feature"},
	{"geometry":{"coordinates":[6.529895,51.183981],"type":"Point"},"properties":{"osm_id":"3480037952","tag":{"amenity":"recycling","recycling:glass_bottles":"yes","recycling_type":"container"}},"type":"Feature"},
	{"geometry":{"coordinates":[6.542574,51.195196],"type":"Point"},"properties":{"osm_id":"3848189912","tag":{"amenity":"recycling","recycling:clothes":"yes","recycling_type":"container"}},"type":"Feature"},
	{"geometry":{"coordinates":[6.548237,51.195387],"type":"Point"},"properties":{"osm_id":"3848189937","tag":{"amenity":"recycling","recycling:clothes":"yes","recycling_type":"container"}},"type":"Feature"},
	{"geometry":{"coordinates":[6.512474,51.195515],"type":"Point"},"properties":{"osm_id":"3848189953","tag":{"amenity":"waste_basket"}},"type":"Feature"},
	{"geometry":{"coordinates":[6.512091,51.195553],"type":"Point"},"properties":{"osm_id":"3848189961","tag":{"amenity":"waste_basket"}},"type":"Feature"},
	{"geometry":{"coordinates":[6.551472,51.195563],"type":"Point"},"properties":{"osm_id":"3848189965","tag":{"amenity":"waste_basket"}},"type":"Feature"},
	{"geometry":{"coordinates":[6.551937,51.195572],"type":"Point"},"properties":{"osm_id":"3848189966","tag":{"amenity":"waste_basket"}},"type":"Feature"},
	{"geometry":{"coordinates":[6.552242,51.195581],"type":"Point"},"properties":{"osm_id":"3848189967","tag":{"amenity":"waste_basket"}},"type":"Feature"},
	{"geometry":{"coordinates":[6.552718,51.195597],"type":"Point"},"properties":{"osm_id":"3848189969","tag":{"amenity":"waste_basket"}},"type":"Feature"},
	{"geometry":{"coordinates":[6.511113,51.195643],"type":"Point"},"properties":{"osm_id":"3849055089","tag":{"amenity":"waste_basket"}},"type":"Feature"},
	{"geometry":{"coordinates":[6.51066,51.195689],"type":"Point"},"properties":{"osm_id":"3849055093","tag":{"amenity":"waste_basket"}},"type":"Feature"},
	{"geometry":{"coordinates":[6.512103,51.195671],"type":"Point"},"properties":{"osm_id":"3849109707","tag":{"amenity":"waste_basket"}},"type":"Feature"},
	{"geometry":{"coordinates":[6.511407,51.19574],"type":"Point"},"properties":{"osm_id":"3849109715","tag":{"amenity":"waste_basket"}},"type":"Feature"},
	{"geometry":{"coordinates":[6.511056,51.195774],"type":"Point"},"properties":{"osm_id":"3849109716","tag":{"amenity":"waste_basket"}},"type":"Feature"},
	{"geometry":{"coordinates":[6.510699,51.195806],"type":"Point"},"properties":{"osm_id":"3849109720","tag":{"amenity":"waste_basket"}},"type":"Feature"},
	{"geometry":{"coordinates":[6.551193,51.195724],"type":"Point"},"properties":{"osm_id":"3849120028","tag":{"amenity":"waste_basket"}},"type":"Feature"},
	{"geometry":{"coordinates":[6.589095,51.226802],"type":"Point"},"properties":{"osm_id":"4192109233","tag":{"amenity":"waste_basket"}},"type":"Feature"},
	{"geometry":{"coordinates":[6.556821,51.200649],"type":"Point"},"properties":{"osm_id":"5516491899","tag":{"amenity":"waste_basket","waste":"trash"}},"type":"Feature"},
	{"geometry":{"coordinates":[6.528285,51.186897],"type":"Point"},"properties":{"osm_id":"6465754246","tag":{"amenity":"waste_basket"}},"type":"Feature"},
	{"geometry":{"coordinates":[6.512126,51.195342],"type":"Point"},"properties":{"osm_id":"7605290654","tag":{"amenity":"waste_basket","material":"metal"}},"type":"Feature"},
	{"geometry":{"coordinates":[6.512713,51.195339],"type":"Point"},"properties":{"osm_id":"7605290655","tag":{"amenity":"waste_basket","material":"metal"}},"type":"Feature"}
]
}
