{
"type": "FeatureCollection",
"features": [
	{"geometry":{"coordinates":[6.589528,51.073728],"type":"Point"},"properties":{"osm_id":"349174713","tag":{"amenity":"recycling","recycling:clothes":"yes","recycling:glass":"yes"}},"type":"Feature"},
	{"geometry":{"coordinates":[6.567987,51.071414],"type":"Point"},"properties":{"osm_id":"352674539","tag":{"amenity":"recycling","recycling:glass":"yes","recycling_type":"container"}},"type":"Feature"},
	{"geometry":{"coordinates":[6.571966,51.076079],"type":"Point"},"properties":{"osm_id":"352756578","tag":{"amenity":"recycling","recycling:glass":"yes"}},"type":"Feature"},
	{"geometry":{"coordinates":[6.58378,51.087681],"type":"Point"},"properties":{"osm_id":"353203817","tag":{"amenity":"recycling","recycling:glass":"yes"}},"type":"Feature"},
	{"geometry":{"coordinates":[6.582107,51.098355],"type":"Point"},"properties":{"osm_id":"353256476","tag":{"amenity":"recycling","recycling:clothes":"yes","recycling:glass":"yes"}},"type":"Feature"},
	{"geometry":{"coordinates":[6.57487,51.099341],"type":"Point"},"properties":{"osm_id":"353256506","tag":{"amenity":"recycling","recycling:glass":"yes"}},"type":"Feature"},
	{"geometry":{"coordinates":[6.58299,51.10248],"type":"Point"},"properties":{"osm_id":"353256685","tag":{"amenity":"recycling","recycling:glass":"yes"}},"type":"Feature"},
	{"geometry":{"coordinates":[6.578239,51.100513],"type":"Point"},"properties":{"osm_id":"353256772","tag":{"amenity":"recycling","recycling:clothes":"yes","recycling:glass":"yes"}},"type":"Feature"},
	{"geometry":{"coordinates":[6.57636,51.094641],"type":"Point"},"properties":{"osm_id":"353797556","tag":{"amenity":"recycling","recycling:glass":"yes"}},"type":"Feature"},
	{"geometry":{"coordinates":[6.571957,51.089795],"type":"Point"},"properties":{"osm_id":"353839015","tag":{"amenity":"recycling"}},"type":"Feature"},
	{"geometry":{"coordinates":[6.569306,51.084918],"type":"Point"},"properties":{"osm_id":"353839132","tag":{"amenity":"recycling","recycling:glass":"yes","recycling_type":"container"}},"type":"Feature"},
	{"geometry":{"coordinates":[6.569542,51.081191],"type":"Point"},"properties":{"osm_id":"353859144","tag":{"amenity":"recycling","recycling:glass":"yes"}},"type":"Feature"},
	{"geometry":{"coordinates":[6.558573,51.092265],"type":"Point"},"properties":{"osm_id":"354472026","tag":{"amenity":"recycling","recycling:clothes":"yes","recycling:glass":"yes"}},"type":"Feature"},
	{"geometry":{"coordinates":[6.561978,51.093468],"type":"Point"},"properties":{"osm_id":"354472039","tag":{"amenity":"recycling","recycling:glass":"yes"}},"type":"Feature"},
	{"geometry":{"coordinates":[6.563195,51.093414],"type":"Point"},"properties":{"osm_id":"354472053","tag":{"amenity":"recycling","recycling:glass":"yes"}},"type":"Feature"},
	{"geometry":{"coordinates":[6.569015,51.096326],"type":"Point"},"properties":{"osm_id":"354487135","tag":{"amenity":"recycling","recycling:glass":"yes"}},"type":"Feature"},
	{"geometry":{"coordinates":[6.59006,51.106995],"type":"Point"},"properties":{"osm_id":"359027669","tag":{"amenity":"recycling","recycling:clothes":"yes","recycling:glass":"yes"}},"type":"Feature"},
	{"geometry":{"coordinates":[6.564766,51.115007],"type":"Point"},"properties":{"osm_id":"375990505","tag":{"amenity":"recycling","recycling:clothes":"yes","recycling:glass":"yes"}},"type":"Feature"},
	{"geometry":{"coordinates":[6.558775,51.117131],"type":"Point"},"properties":{"osm_id":"376037200","tag":{"amenity":"recycling","recycling:clothes":"yes","recycling:glass":"yes"}},"type":"Feature"},
	{"geometry":{"coordinates":[6.556652,51.120017],"type":"Point"},"properties":{"osm_id":"376038629","tag":{"amenity":"recycling","recycling:clothes":"yes","recycling:glass":"yes"}},"type":"Feature"},
	{"geometry":{"coordinates":[6.550985,51.111365],"type":"Point"},"properties":{"osm_id":"376387873","tag":{"amenity":"recycling","recycling:cans":"no","recycling:clothes":"yes","recycling:glass":"yes"}},"type":"Feature"},
	{"geometry":{"coordinates":[6.546597,51.108145],"type":"Point"},"properties":{"osm_id":"376387930","tag":{"amenity":"recycling","recycling:clothes":"yes","recycling:glass":"yes"}},"type":"Feature"},
	{"geometry":{"coordinates":[6.58373,51.09795],"type":"Point"},"properties":{"osm_id":"377802970","tag":{"amenity":"recycling","recycling:glass":"yes"}},"type":"Feature"},
	{"geometry":{"coordinates":[6.584916,51.121487],"type":"Point"},"properties":{"osm_id":"378063560","tag":{"amenity":"recycling","recycling:batteries":"no","recycling:books":"no","recycling:cans":"no","recycling:cardboard":"no","recycling:cartons":"no","recycling:clothes":"no","recycling:electrical_appliances":"no","recycling:glass":"no","recycling:glass_bottles":"yes","recycling:green_waste":"no","recycling:magazines":"no","recycling:newspaper":"no","recycling:paper":"no","recycling:paper_packaging":"no","recycling:plastic":"no","recycling:plastic_bottles":"no","recycling:plastic_packaging":"no","recycling:scrap_metal":"no","recycling:small_appliances":"no","recycling:waste":"no","recycling:wood":"no","recycling_type":"container"}},"type":"Feature"},
	{"geometry":{"coordinates":[6.587804,51.120727],"type":"Point"},"properties":{"osm_id":"378064341","tag":{"amenity":"recycling","recycling:clothes":"yes"}},"type":"Feature"},
	{"geometry":{"coordinates":[6.589581,51.121195],"type":"Point"},"properties":{"osm_id":"378064379","tag":{"amenity":"recycling","recycling:clothes":"no","recycling:glass":"yes","recycling_type":"centre"}},"type":"Feature"},
	{"geometry":{"coordinates":[6.506547,51.106867],"type":"Point"},"properties":{"osm_id":"381051798","tag":{"amenity":"recycling","recycling:clothes":"yes","recycling:glass":"yes"}},"type":"Feature"},
	{"geometry":{"coordinates":[6.504714,51.108351],"type":"Point"},"properties":{"osm_id":"381272834","tag":{"amenity":"recycling","recycling:glass":"yes"}},"type":"Feature"},
	{"geometry":{"coordinates":[6.568221,51.077382],"type":"Point"},"properties":{"osm_id":"401025475","tag":{"amenity":"recycling","recycling:glass":"yes"}},"type":"Feature"},
	{"geometry":{"coordinates":[6.590869,51.088539],"type":"Point"},"properties":{"osm_id":"403100344","tag":{"amenity":"recycling","recycling:glass":"yes"}},"type":"Feature"},
	{"geometry":{"coordinates":[6.506715,51.097512],"type":"Point"},"properties":{"osm_id":"495378783","tag":{"amenity":"recycling","recycling:clothes":"yes"}},"type":"Feature"},
	{"geometry":{"coordinates":[6.505542,51.09965],"type":"Point"},"properties":{"osm_id":"520328386","tag":{"amenity":"recycling","recycling:glass":"yes"}},"type":"Feature"},
	{"geometry":{"coordinates":[6.587388,51.084335],"type":"Point"},"properties":{"osm_id":"1261025839","tag":{"amenity":"waste_basket"}},"type":"Feature"},
	{"geometry":{"coordinates":[6.587014,51.08449],"type":"Point"},"properties":{"osm_id":"1261025852","tag":{"amenity":"waste_basket"}},"type":"Feature"},
	{"geometry":{"coordinates":[6.560684,51.120288],"type":"Point"},"properties":{"osm_id":"2866248001","tag":{"amenity":"recycling","recycling:glass":"yes","recycling_type":"container"}},"type":"Feature"},
	{"geometry":{"coordinates":[6.573866,51.085916],"type":"Point"},"properties":{"osm_id":"2879880681","tag":{"amenity":"recycling","recycling:glass":"yes","recycling_type":"container"}},"type":"Feature"},
	{"geometry":{"coordinates":[6.578333,51.107582],"type":"Point"},"properties":{"osm_id":"3228452853","tag":{"amenity":"recycling","recycling:glass_bottles":"yes","recycling_type":"container"}},"type":"Feature"},
	{"geometry":{"coordinates":[6.58846,51.078248],"type":"Point"},"properties":{"osm_id":"3447193239","tag":{"amenity":"waste_basket"}},"type":"Feature"},
	{"geometry":{"coordinates":[6.58717,51.078817],"type":"Point"},"properties":{"osm_id":"3447193256","tag":{"amenity":"waste_basket"}},"type":"Feature"},
	{"geometry":{"coordinates":[6.58735,51.079921],"type":"Point"},"properties":{"osm_id":"3447193421","tag":{"amenity":"waste_basket"}},"type":"Feature"},
	{"geometry":{"coordinates":[6.58694,51.08063],"type":"Point"},"properties":{"osm_id":"3447193460","tag":{"amenity":"waste_basket"}},"type":"Feature"},
	{"geometry":{"coordinates":[6.586525,51.081022],"type":"Point"},"properties":{"osm_id":"3447193465","tag":{"amenity":"waste_basket"}},"type":"Feature"},
	{"geometry":{"coordinates":[6.586565,51.081129],"type":"Point"},"properties":{"osm_id":"3447193470","tag":{"amenity":"waste_basket"}},"type":"Feature"},
	{"geometry":{"coordinates":[6.589629,51.088778],"type":"Point"},"properties":{"osm_id":"3753072895","tag":{"amenity":"waste_basket","backrest":"yes","material":"metal"}},"type":"Feature"},
	{"geometry":{"coordinates":[6.564762,51.115043],"type":"Point"},"properties":{"osm_id":"3761669862","tag":{"amenity":"recycling","operator":"Malteser Hilfsdienst","recycling:clothes":"yes","recycling:shoes":"yes","recycling_type":"container","wheelchair":"yes"}},"type":"Feature"},
	{"geometry":{"coordinates":[6.590726,51.087762],"type":"Point"},"properties":{"osm_id":"3927244268","tag":{"amenity":"waste_basket"}},"type":"Feature"},
	{"geometry":{"coordinates":[6.590829,51.087763],"type":"Point"},"properties":{"osm_id":"3927244269","tag":{"amenity":"waste_basket"}},"type":"Feature"},
	{"geometry":{"coordinates":[6.589676,51.088895],"type":"Point"},"properties":{"osm_id":"3936611627","tag":{"amenity":"waste_basket","backrest":"yes","material":"metal"}},"type":"Feature"},
	{"geometry":{"coordinates":[6.591349,51.089435],"type":"Point"},"properties":{"osm_id":"4472676230","tag":{"amenity":"waste_basket"}},"type":"Feature"},
	{"geometry":{"coordinates":[6.587937,51.086551],"type":"Point"},"properties":{"osm_id":"5635969556","tag":{"amenity":"waste_basket"}},"type":"Feature"},
	{"geometry":{"coordinates":[6.587645,51.088933],"type":"Point"},"properties":{"osm_id":"5929732916","tag":{"amenity":"waste_basket","waste":"trash"}},"type":"Feature"}
]
}
