{
"type": "FeatureCollection",
"features": [
	{"geometry":{"coordinates":[6.582361,51.003573],"type":"Point"},"properties":{"osm_id":"360268704","tag":{"amenity":"recycling","recycling:clothes":"yes"}},"type":"Feature"},
	{"geometry":{"coordinates":[6.57661,51.003378],"type":"Point"},"properties":{"osm_id":"360345832","tag":{"amenity":"recycling","recycling:clothes":"yes","recycling:glass":"yes","recycling_type":"container"}},"type":"Feature"},
	{"geometry":{"coordinates":[6.577445,51.000439],"type":"Point"},"properties":{"osm_id":"360346210","tag":{"amenity":"recycling","location":"overground","recycling:clothes":"yes","recycling_type":"container"}},"type":"Feature"},
	{"geometry":{"coordinates":[6.568337,51.000317],"type":"Point"},"properties":{"osm_id":"360355992","tag":{"amenity":"recycling","recycling:glass":"yes"}},"type":"Feature"},
	{"geometry":{"coordinates":[6.570112,50.996963],"type":"Point"},"properties":{"osm_id":"360355997","tag":{"amenity":"recycling","recycling:clothes":"yes"}},"type":"Feature"},
	{"geometry":{"coordinates":[6.570605,50.992392],"type":"Point"},"properties":{"osm_id":"360356065","tag":{"amenity":"recycling","recycling:clothes":"yes"}},"type":"Feature"},
	{"geometry":{"coordinates":[6.570735,50.99129],"type":"Point"},"properties":{"osm_id":"360356091","tag":{"amenity":"recycling","recycling:clothes":"yes","recycling:glass":"yes"}},"type":"Feature"},
	{"geometry":{"coordinates":[6.560885,50.984314],"type":"Point"},"properties":{"osm_id":"360356138","tag":{"amenity":"recycling"}},"type":"Feature"},
	{"geometry":{"coordinates":[6.551467,50.992689],"type":"Point"},"properties":{"osm_id":"360361213","tag":{"amenity":"recycling","recycling:clothes":"yes","recycling:glass":"yes"}},"type":"Feature"},
	{"geometry":{"coordinates":[6.570729,50.992735],"type":"Point"},"properties":{"osm_id":"360372947","tag":{"amenity":"recycling","recycling:glass":"yes"}},"type":"Feature"},
	{"geometry":{"coordinates":[6.579687,50.983494],"type":"Point"},"properties":{"osm_id":"360396397","tag":{"amenity":"recycling","recycling:glass_bottles":"yes","recycling_type":"container"}},"type":"Feature"},
	{"geometry":{"coordinates":[6.56355,50.988246],"type":"Point"},"properties":{"osm_id":"384769298","tag":{"amenity":"recycling","recycling:clothes":"yes"}},"type":"Feature"},
	{"geometry":{"coordinates":[6.564098,50.985763],"type":"Point"},"properties":{"osm_id":"384769304","tag":{"amenity":"recycling","recycling:clothes":"yes"}},"type":"Feature"},
	{"geometry":{"coordinates":[6.576053,50.994586],"type":"Point"},"properties":{"osm_id":"384888460","tag":{"amenity":"recycling","recycling:clothes":"yes","recycling:glass":"yes"}},"type":"Feature"},
	{"geometry":{"coordinates":[6.558825,51.007711],"type":"Point"},"properties":{"osm_id":"385369182","tag":{"amenity":"recycling","recycling:cans":"no","recycling:clothes":"no","recycling:glass":"yes","recycling:paper":"no","recycling_type":"container"}},"type":"Feature"},
	{"geometry":{"coordinates":[6.558762,51.007806],"type":"Point"},"properties":{"osm_id":"385369183","tag":{"amenity":"recycling","recycling:cans":"no","recycling:clothes":"yes","recycling:glass":"no","recycling:paper":"no","recycling_type":"container"}},"type":"Feature"},
	{"geometry":{"coordinates":[6.572043,50.986818],"type":"Point"},"properties":{"osm_id":"387374378","tag":{"amenity":"recycling","recycling:clothes":"yes"}},"type":"Feature"},
	{"geometry":{"coordinates":[6.573145,50.98437],"type":"Point"},"properties":{"osm_id":"387374433","tag":{"amenity":"recycling","recycling:clothes":"yes","recycling:glass":"yes"}},"type":"Feature"},
	{"geometry":{"coordinates":[6.58914,50.971485],"type":"Point"},"properties":{"osm_id":"387409966","tag":{"amenity":"recycling","recycling:clothes":"yes","recycling_type":"container"}},"type":"Feature"},
	{"geometry":{"coordinates":[6.589185,50.973825],"type":"Point"},"properties":{"osm_id":"387440547","tag":{"amenity":"recycling","recycling:clothes":"yes","recycling:glass_bottles":"yes","recycling_type":"container"}},"type":"Feature"},
	{"geometry":{"coordinates":[6.514057,50.983693],"type":"Point"},"properties":{"osm_id":"387855507","tag":{"amenity":"recycling","recycling:clothes":"yes","recycling:glass":"yes"}},"type":"Feature"},
	{"geometry":{"coordinates":[6.550602,51.002222],"type":"Point"},"properties":{"osm_id":"387879513","tag":{"amenity":"recycling","recycling:clothes":"yes"}},"type":"Feature"},
	{"geometry":{"coordinates":[6.564813,50.99789],"type":"Point"},"properties":{"osm_id":"393166190","tag":{"amenity":"recycling","recycling:clothes":"yes"}},"type":"Feature"},
	{"geometry":{"coordinates":[6.557661,51.002544],"type":"Point"},"properties":{"osm_id":"393185858","tag":{"amenity":"recycling","recycling:clothes":"yes"}},"type":"Feature"},
	{"geometry":{"coordinates":[6.565294,50.995032],"type":"Point"},"properties":{"osm_id":"393196770","tag":{"amenity":"recycling","recycling:clothes":"yes"}},"type":"Feature"},
	{"geometry":{"coordinates":[6.537539,51.004701],"type":"Point"},"properties":{"osm_id":"410909196","tag":{"amenity":"recycling","location":"overground","recycling:clothes":"yes","recycling:glass":"yes","recycling_type":"container"}},"type":"Feature"},
	{"geometry":{"coordinates":[6.553028,51.008365],"type":"Point"},"properties":{"osm_id":"427871627","tag":{"amenity":"recycling","recycling:glass":"yes","recycling_type":"container"}},"type":"Feature"},
	{"geometry":{"coordinates":[6.536891,50.965506],"type":"Point"},"properties":{"osm_id":"430332682","tag":{"amenity":"recycling","recycling:glass":"yes"}},"type":"Feature"},
	{"geometry":{"coordinates":[6.57981,51.013409],"type":"Point"},"properties":{"osm_id":"1893868838","tag":{"amenity":"recycling","operator":"Humana","recycling:clothes":"yes"}},"type":"Feature"},
	{"geometry":{"coordinates":[6.552013,51.008495],"type":"Point"},"properties":{"osm_id":"3148919519","tag":{"amenity":"recycling","recycling:cans":"no","recycling:clothes":"yes","recycling:glass":"no","recycling:paper":"no","recycling_type":"container"}},"type":"Feature"},
	{"geometry":{"coordinates":[6.553085,51.008379],"type":"Point"},"properties":{"osm_id":"3149404646","tag":{"amenity":"recycling","operator":"Malteser Hilfsdienst","recycling:clothes":"yes","recycling_type":"container"}},"type":"Feature"},
	{"geometry":{"coordinates":[6.554581,51.007659],"type":"Point"},"properties":{"osm_id":"3149406710","tag":{"amenity":"recycling","check_date":"2020-06-16","recycling:clothes":"no","recycling:glass_bottles":"yes","recycling:plastic":"no","recycling_type":"container"}},"type":"Feature"},
	{"geometry":{"coordinates":[6.56258,51.002442],"type":"Point"},"properties":{"osm_id":"3672334795","tag":{"amenity":"recycling","check_date":"2020-06-16","recycling:glass_bottles":"yes","recycling_type":"container"}},"type":"Feature"},
	{"geometry":{"coordinates":[6.546372,50.99972],"type":"Point"},"properties":{"osm_id":"5296112578","tag":{"amenity":"waste_basket"}},"type":"Feature"},
	{"geometry":{"coordinates":[6.520577,51.005996],"type":"Point"},"properties":{"osm_id":"5967296165","tag":{"amenity":"waste_basket"}},"type":"Feature"},
	{"geometry":{"coordinates":[6.520389,51.006055],"type":"Point"},"properties":{"osm_id":"5967296167","tag":{"amenity":"waste_basket"}},"type":"Feature"},
	{"geometry":{"coordinates":[6.520936,51.005879],"type":"Point"},"properties":{"osm_id":"5967296169","tag":{"amenity":"waste_basket"}},"type":"Feature"},
	{"geometry":{"coordinates":[6.521097,51.005824],"type":"Point"},"properties":{"osm_id":"5967296171","tag":{"amenity":"waste_basket"}},"type":"Feature"},
	{"geometry":{"coordinates":[6.570018,50.975873],"type":"Point"},"properties":{"osm_id":"7510921756","tag":{"amenity":"recycling","operator":"Malteser","recycling:clothes":"yes","recycling:shoes":"yes","recycling_type":"container"}},"type":"Feature"},
	{"geometry":{"coordinates":[6.570134,50.97592],"type":"Point"},"properties":{"osm_id":"7510921757","tag":{"amenity":"recycling","recycling:glass_bottles":"yes","recycling_type":"container"}},"type":"Feature"},
	{"geometry":{"coordinates":[6.554992,51.007471],"type":"Point"},"properties":{"osm_id":"7625843849","tag":{"amenity":"recycling","clothes":"yes","recycling_type":"container"}},"type":"Feature"}
]
}
