{
"type": "FeatureCollection",
"features": [
	{"geometry":{"coordinates":[6.556319,50.538155],"type":"Point"},"properties":{"osm_id":"711992597","tag":{"amenity":"recycling","recycling:glass":"yes","recycling_type":"container"}},"type":"Feature"},
	{"geometry":{"coordinates":[6.551353,50.534524],"type":"Point"},"properties":{"osm_id":"725187809","tag":{"amenity":"recycling","recycling:clothes":"yes","recycling:shoes":"yes"}},"type":"Feature"},
	{"geometry":{"coordinates":[6.554076,50.536397],"type":"Point"},"properties":{"osm_id":"725187811","tag":{"amenity":"recycling","recycling:clothes":"yes","recycling:shoes":"yes","recycling_type":"container"}},"type":"Feature"},
	{"geometry":{"coordinates":[6.580081,50.546717],"type":"Point"},"properties":{"osm_id":"5482910418","tag":{"amenity":"recycling","operator":"DRK","recycling:clothes":"yes","recycling_type":"container"}},"type":"Feature"},
	{"geometry":{"coordinates":[6.580101,50.546716],"type":"Point"},"properties":{"osm_id":"5482910419","tag":{"amenity":"recycling","operator":"DRK","recycling:clothes":"yes","recycling_type":"container"}},"type":"Feature"},
	{"geometry":{"coordinates":[6.557304,50.542054],"type":"Point"},"properties":{"osm_id":"6876543765","tag":{"amenity":"recycling","recycling:glass":"yes","recycling_type":"container"}},"type":"Feature"},
	{"geometry":{"coordinates":[6.556283,50.524775],"type":"Point"},"properties":{"osm_id":"7725608880","tag":{"amenity":"recycling","operator":"Sch\u00c3\u00b6nmackers","recycling:glass_bottles":"yes","recycling_type":"container"}},"type":"Feature"},
	{"geometry":{"coordinates":[6.556254,50.524747],"type":"Point"},"properties":{"osm_id":"7725608881","tag":{"amenity":"recycling","operator":"AWO (Arbeiterwohlfahrt)","recycling:clothes":"yes","recycling_type":"container"}},"type":"Feature"},
	{"geometry":{"coordinates":[6.510983,50.535553],"type":"Point"},"properties":{"osm_id":"8334993411","tag":{"amenity":"waste_basket"}},"type":"Feature"},
	{"geometry":{"coordinates":[6.556152,50.538753],"type":"Point"},"properties":{"osm_id":"8717712592","tag":{"amenity":"waste_basket","waste":"trash"}},"type":"Feature"},
	{"geometry":{"coordinates":[6.555979,50.538632],"type":"Point"},"properties":{"osm_id":"8723021427","tag":{"amenity":"waste_basket","waste":"trash"}},"type":"Feature"},
	{"geometry":{"coordinates":[6.557245,50.541114],"type":"Point"},"properties":{"osm_id":"8761564790","tag":{"amenity":"waste_basket"}},"type":"Feature"}
]
}
