{
"type": "FeatureCollection",
"lastupdate": "2020-08-05T00:00:00Z",
"features": [
	{"geometry":{"coordinates":[6.517384,49.971055],"type":"Point"},"properties":{"osm_id":"309341630","tag":{"amenity":"recycling","opening_hours":"Mo-Sa 07:00-20:00; Su,PH off","operator":"Zweckverband Abfallwirtschaft Region Trier","recycling:glass_bottles":"yes","recycling_type":"container"}},"type":"Feature"},
	{"geometry":{"coordinates":[6.521505,49.972041],"type":"Point"},"properties":{"osm_id":"309341631","tag":{"amenity":"recycling","opening_hours":"Mo-Sa 07:00-20:00; Su,PH off","operator":"Zweckverband Abfallwirtschaft Region Trier","recycling:glass_bottles":"yes","recycling_type":"container"}},"type":"Feature"},
	{"geometry":{"coordinates":[6.528372,49.966706],"type":"Point"},"properties":{"osm_id":"340160313","tag":{"amenity":"recycling","recycling:clothes":"yes","recycling_type":"container"}},"type":"Feature"},
	{"geometry":{"coordinates":[6.527646,49.967344],"type":"Point"},"properties":{"osm_id":"340181636","tag":{"amenity":"recycling","opening_hours":"Mo-Sa 07:00-20:00; PH,Su off","operator":"Zweckverband Abfallwirtschaft Region Trier","recycling:glass_bottles":"yes","recycling_type":"container"}},"type":"Feature"},
	{"geometry":{"coordinates":[6.538349,49.976045],"type":"Point"},"properties":{"osm_id":"1430100425","tag":{"amenity":"recycling","opening_hours":"Mo-Sa 07:00-20:00; PH closed","operator":"Zweckverband Abfallwirtschaft Region Trier","recycling:glass_bottles":"yes","recycling_type":"container","wheelchair":"limited"}},"type":"Feature"},
	{"geometry":{"coordinates":[6.570297,49.955274],"type":"Point"},"properties":{"name":"Remondis GmbH","osm_id":"2246270767","tag":{"amenity":"recycling","recycling:books":"yes","recycling:green_waste":"yes","recycling:newspaper":"yes","recycling:paper":"yes","recycling:paper_packaging":"yes","recycling:plastic":"yes","recycling:scrap_metal":"yes","recycling:waste":"yes","recycling:wood":"yes","recycling_type":"centre"}},"type":"Feature"},
	{"geometry":{"coordinates":[6.569124,49.95237],"type":"Point"},"properties":{"name":"BRG","osm_id":"2246299242","tag":{"amenity":"recycling","recycling_type":"centre"}},"type":"Feature"},
	{"geometry":{"coordinates":[6.566231,49.951573],"type":"Point"},"properties":{"name":"Adams Entsorgung","osm_id":"2246299244","tag":{"amenity":"recycling","recycling:books":"yes","recycling:cardboard":"yes","recycling:cartons":"yes","recycling:paper":"yes","recycling_type":"centre"}},"type":"Feature"},
	{"geometry":{"coordinates":[6.514195,49.957824],"type":"Point"},"properties":{"osm_id":"2259691403","tag":{"amenity":"recycling","opening_hours":"Mo-Sa 07:00-20:00; Su,PH off","operator":"Zweckverband Abfallwirtschaft Region Trier","recycling:glass_bottles":"yes","recycling_type":"container"}},"type":"Feature"},
	{"geometry":{"coordinates":[6.525564,49.954764],"type":"Point"},"properties":{"osm_id":"2260301945","tag":{"amenity":"recycling","opening_hours":"Mo-Sa 07:00-20:00; Su,PH off","operator":"Zweckverband Abfallwirtschaft Region Trier","recycling:glass_bottles":"yes","recycling_type":"container"}},"type":"Feature"},
	{"geometry":{"coordinates":[6.532439,49.965775],"type":"Point"},"properties":{"osm_id":"2261358868","tag":{"amenity":"waste_basket"}},"type":"Feature"},
	{"geometry":{"coordinates":[6.524084,49.968966],"type":"Point"},"properties":{"osm_id":"2261495369","tag":{"amenity":"recycling","opening_hours":"Mo-Sa 07:00-20:00; PH off","operator":"Zweckverband Abfallwirtschaft Region Trier","recycling:glass_bottles":"yes","recycling_type":"container"}},"type":"Feature"},
	{"geometry":{"coordinates":[6.525174,49.966735],"type":"Point"},"properties":{"osm_id":"2261495385","tag":{"amenity":"recycling","opening_hours":"Mo-Sa 07:00-20:00; PH,Su off","operator":"Zweckverband Abfallwirtschaft Region Trier","recycling:glass_bottles":"yes","recycling_type":"container"}},"type":"Feature"},
	{"geometry":{"coordinates":[6.542062,49.974782],"type":"Point"},"properties":{"osm_id":"2261495391","tag":{"amenity":"recycling","opening_hours":"Mo-Sa 07:00-20:00; Su,PH off","operator":"Zweckverband Abfallwirtschaft Region Trier","recycling:glass_bottles":"yes","recycling_type":"container"}},"type":"Feature"},
	{"geometry":{"coordinates":[6.555446,49.960741],"type":"Point"},"properties":{"osm_id":"2330874970","tag":{"amenity":"recycling","recycling:clothes":"yes","recycling:shoes":"yes","recycling_type":"container"}},"type":"Feature"},
	{"geometry":{"coordinates":[6.555489,49.960765],"type":"Point"},"properties":{"osm_id":"5111361508","tag":{"amenity":"recycling","opening_hours":"Mo-Sa 07:00-20:00; Su,PH off","operator":"Zweckverband Abfallwirtschaft Region Trier","recycling:glass_bottles":"yes","recycling_type":"container"}},"type":"Feature"},
	{"geometry":{"coordinates":[6.542092,49.974805],"type":"Point"},"properties":{"osm_id":"5111361510","tag":{"amenity":"recycling","recycling:clothes":"yes","recycling:shoes":"yes","recycling_type":"container"}},"type":"Feature"},
	{"geometry":{"coordinates":[6.585264,49.967441],"type":"Point"},"properties":{"osm_id":"5615968688","tag":{"amenity":"recycling","opening_hours":"Mo-Sa 07:00-20:00; PH off","operator":"Zweckverband Abfallwirtschaft Region Trier","recycling:glass_bottles":"yes","recycling_type":"container"}},"type":"Feature"},
	{"geometry":{"coordinates":[6.520463,49.973124],"type":"Point"},"properties":{"osm_id":"6482188393","tag":{"amenity":"recycling","opening_hours":"24/7","recycling:batteries":"yes","recycling:clothes":"yes","recycling:shoes":"yes","recycling:small_appliances":"yes","recycling_type":"container","wheelchair":"yes"}},"type":"Feature"},
	{"geometry":{"coordinates":[6.538317,49.976125],"type":"Point"},"properties":{"osm_id":"6907592330","tag":{"amenity":"recycling","description":"Altglas","recycling:glass":"yes","recycling_type":"container"}},"type":"Feature"},
	{"geometry":{"coordinates":[6.572946,49.954255],"type":"Point"},"properties":{"name":"Francois Entsorgung","osm_id":"6977255137","tag":{"amenity":"recycling","recycling_type":"centre"}},"type":"Feature"}
]
}
