{
"type": "FeatureCollection",
"features": [
	{"geometry":{"coordinates":[6.545796,49.706801],"type":"Point"},"properties":{"osm_id":"266661799","tag":{"amenity":"recycling","opening_hours":"Mo-Sa 07:00-20:00; Su,PH off","operator":"Zweckverband Abfallwirtschaft Region Trier","recycling:glass_bottles":"yes","recycling_type":"container"}},"type":"Feature"},
	{"geometry":{"coordinates":[6.578945,49.71849],"type":"Point"},"properties":{"osm_id":"285606835","tag":{"amenity":"recycling","location":"overground","opening_hours":"Mo-Sa 07:00-20:00; Su,PH off","operator":"Zweckverband Abfallwirtschaft Region Trier","recycling:glass_bottles":"yes","recycling_type":"container"}},"type":"Feature"},
	{"geometry":{"coordinates":[6.586216,49.714199],"type":"Point"},"properties":{"osm_id":"285607089","tag":{"amenity":"recycling","opening_hours":"Mo-Sa 07:00-20:00; Su,PH off","operator":"Zweckverband Abfallwirtschaft Region Trier","recycling:glass_bottles":"yes","recycling_type":"container"}},"type":"Feature"},
	{"geometry":{"coordinates":[6.533479,49.708596],"type":"Point"},"properties":{"osm_id":"376312494","tag":{"amenity":"recycling","opening_hours":"Mo-Sa 07:00-20:00; Su,PH off","operator":"Zweckverband Abfallwirtschaft Region Trier","recycling:glass_bottles":"yes","recycling_type":"container"}},"type":"Feature"},
	{"geometry":{"coordinates":[6.559629,49.684821],"type":"Point"},"properties":{"osm_id":"442579620","tag":{"amenity":"recycling","opening_hours":"Mo-Sa 07:00-20:00; Su,PH off","operator":"Zweckverband Abfallwirtschaft Region Trier","recycling:glass_bottles":"yes","recycling_type":"container"}},"type":"Feature"},
	{"geometry":{"coordinates":[6.584138,49.694707],"type":"Point"},"properties":{"osm_id":"509198184","tag":{"amenity":"recycling","opening_hours":"Mo-Fr 07:00-20:00; Su,PH off","operator":"Zweckverband Abfallwirtschaft Region Trier","recycling:glass_bottles":"yes","recycling_type":"container"}},"type":"Feature"},
	{"geometry":{"coordinates":[6.573659,49.695171],"type":"Point"},"properties":{"osm_id":"524498053","tag":{"amenity":"recycling","opening_hours":"Mo-Sa 07:00-20:00; Su,PH off","operator":"Zweckverband Abfallwirtschaft Region Trier","recycling:glass_bottles":"yes","recycling_type":"container"}},"type":"Feature"},
	{"geometry":{"coordinates":[6.576547,49.699608],"type":"Point"},"properties":{"osm_id":"860566122","tag":{"amenity":"recycling","recycling:clothes":"yes","recycling:shoes":"yes","recycling_type":"container"}},"type":"Feature"},
	{"geometry":{"coordinates":[6.586679,49.723657],"type":"Point"},"properties":{"osm_id":"1127998918","tag":{"amenity":"recycling","opening_hours":"Mo-Sa 07:00-20:00; Su,PH off","operator":"Zweckverband Abfallwirtschaft Region Trier","recycling:glass_bottles":"yes","recycling_type":"container"}},"type":"Feature"},
	{"geometry":{"coordinates":[6.54327,49.712251],"type":"Point"},"properties":{"osm_id":"1486033147","tag":{"amenity":"recycling","opening_hours":"Mo-Sa 07:00-20:00; Su,PH off","operator":"Zweckverband Abfallwirtschaft Region Trier","recycling:glass_bottles":"yes","recycling_type":"container"}},"type":"Feature"},
	{"geometry":{"coordinates":[6.539047,49.721598],"type":"Point"},"properties":{"osm_id":"1493462529","tag":{"amenity":"recycling","opening_hours":"Mo-Sa 07:00-20:00; Su,PH off","operator":"Zweckverband Abfallwirtschaft Region Trier","recycling:glass_bottles":"yes","recycling_type":"container"}},"type":"Feature"},
	{"geometry":{"coordinates":[6.555296,49.711583],"type":"Point"},"properties":{"osm_id":"1501381016","tag":{"amenity":"recycling","opening_hours":"Mo-Sa 07:00-20:00; Su,PH off","operator":"Zweckverband Abfallwirtschaft Region Trier","recycling:glass_bottles":"yes","recycling_type":"container"}},"type":"Feature"},
	{"geometry":{"coordinates":[6.558855,49.715414],"type":"Point"},"properties":{"osm_id":"1501381027","tag":{"amenity":"recycling","opening_hours":"Mo-Sa 07:00-20:00; Su,PH off","operator":"Zweckverband Abfallwirtschaft Region Trier","recycling:glass_bottles":"yes","recycling_type":"container"}},"type":"Feature"},
	{"geometry":{"coordinates":[6.506173,49.714039],"type":"Point"},"properties":{"osm_id":"1820530626","tag":{"amenity":"waste_basket"}},"type":"Feature"},
	{"geometry":{"coordinates":[6.506062,49.716024],"type":"Point"},"properties":{"osm_id":"1820530642","tag":{"amenity":"waste_basket"}},"type":"Feature"},
	{"geometry":{"coordinates":[6.556145,49.680134],"type":"Point"},"properties":{"osm_id":"2458258228","tag":{"amenity":"waste_basket"}},"type":"Feature"},
	{"geometry":{"coordinates":[6.511315,49.710406],"type":"Point"},"properties":{"osm_id":"2929128691","tag":{"amenity":"recycling","opening_hours":"Mo-Sa 07:00-20:00; Su,PH off","operator":"Zweckverband Abfallwirtschaft Region Trier","recycling:glass_bottles":"yes","recycling_type":"container"}},"type":"Feature"},
	{"geometry":{"coordinates":[6.551142,49.698843],"type":"Point"},"properties":{"osm_id":"3296318963","tag":{"amenity":"recycling","opening_hours":"Mo-Sa 07:00-20:00; Su,PH off","operator":"Zweckverband Abfallwirtschaft Region Trier","recycling:glass_bottles":"yes","recycling_type":"container"}},"type":"Feature"},
	{"geometry":{"coordinates":[6.57346,49.69854],"type":"Point"},"properties":{"osm_id":"3687873627","tag":{"amenity":"waste_basket"}},"type":"Feature"},
	{"geometry":{"coordinates":[6.50745,49.713444],"type":"Point"},"properties":{"osm_id":"4003263110","tag":{"amenity":"recycling","operator":"Zweckverband Abfallwirtschaft Region Trier","recycling:glass_bottles":"yes","recycling_type":"container"}},"type":"Feature"},
	{"geometry":{"coordinates":[6.5734,49.701955],"type":"Point"},"properties":{"osm_id":"4020271322","tag":{"amenity":"recycling","opening_hours":"Mo-Fr 07:00-20:00; Su,PH off","operator":"Zweckverband Abfallwirtschaft Region Trier","recycling:glass_bottles":"yes","recycling_type":"container"}},"type":"Feature"},
	{"geometry":{"coordinates":[6.573752,49.693766],"type":"Point"},"properties":{"osm_id":"4087031375","tag":{"amenity":"recycling","opening_hours":"Mo-Fr 07:00-20:00; Su,PH off","operator":"Zweckverband Abfallwirtschaft Region Trier","recycling:glass_bottles":"yes","recycling_type":"container"}},"type":"Feature"},
	{"geometry":{"coordinates":[6.563001,49.673051],"type":"Point"},"properties":{"osm_id":"4298897333","tag":{"amenity":"recycling","opening_hours":"Mo-Sa 07:00-20:00; Su,PH off","operator":"Zweckverband Abfallwirtschaft Region Trier","recycling:glass_bottles":"yes","recycling_type":"container"}},"type":"Feature"},
	{"geometry":{"coordinates":[6.553868,49.695351],"type":"Point"},"properties":{"name":"KWR Wertstoffe und Recycling","osm_id":"4349535607","tag":{"addr:city":"Wasserliesch","addr:country":"DE","addr:housenumber":"1-3","addr:postcode":"54332","addr:street":"Sabatierstra\u00c3\u009fe","amenity":"recycling","building":"yes","opening_hours":"Mo-Fr 07:30-17:30, Sa 08:00-13:00; Su,PH off","recycling_type":"centre","website":"http://www.kwr-konz.de/"}},"type":"Feature"},
	{"geometry":{"coordinates":[6.530675,49.677505],"type":"Point"},"properties":{"osm_id":"4849895814","tag":{"amenity":"waste_basket"}},"type":"Feature"},
	{"geometry":{"coordinates":[6.527341,49.674316],"type":"Point"},"properties":{"osm_id":"4996732011","tag":{"amenity":"recycling","opening_hours":"Mo-Sa 07:00-20:00; Su,PH off","operator":"Zweckverband Abfallwirtschaft Region Trier","recycling:glass_bottles":"yes","recycling_type":"container"}},"type":"Feature"},
	{"geometry":{"coordinates":[6.505498,49.715518],"type":"Point"},"properties":{"osm_id":"5000543525","tag":{"amenity":"recycling","recycling_type":"container"}},"type":"Feature"},
	{"geometry":{"coordinates":[6.572063,49.706373],"type":"Point"},"properties":{"osm_id":"5002168216","tag":{"amenity":"waste_basket"}},"type":"Feature"},
	{"geometry":{"coordinates":[6.568792,49.697825],"type":"Point"},"properties":{"osm_id":"5052289411","tag":{"amenity":"waste_basket"}},"type":"Feature"},
	{"geometry":{"coordinates":[6.564441,49.700243],"type":"Point"},"properties":{"osm_id":"5079552046","tag":{"amenity":"waste_basket"}},"type":"Feature"},
	{"geometry":{"coordinates":[6.559644,49.684849],"type":"Point"},"properties":{"osm_id":"5111301955","tag":{"amenity":"recycling","recycling:clothes":"yes","recycling_type":"container"}},"type":"Feature"},
	{"geometry":{"coordinates":[6.573793,49.693804],"type":"Point"},"properties":{"osm_id":"5111301957","tag":{"amenity":"recycling","recycling:clothes":"yes","recycling:shoes":"yes","recycling_type":"container"}},"type":"Feature"},
	{"geometry":{"coordinates":[6.583876,49.694739],"type":"Point"},"properties":{"osm_id":"5111301958","tag":{"amenity":"recycling","recycling:clothes":"yes","recycling:shoes":"yes","recycling_type":"container"}},"type":"Feature"},
	{"geometry":{"coordinates":[6.573603,49.695156],"type":"Point"},"properties":{"osm_id":"5111301959","tag":{"amenity":"recycling","recycling:clothes":"yes","recycling:shoes":"yes","recycling_type":"container"}},"type":"Feature"},
	{"geometry":{"coordinates":[6.53348,49.708621],"type":"Point"},"properties":{"osm_id":"5111301960","tag":{"amenity":"recycling","recycling:clothes":"yes","recycling_type":"container"}},"type":"Feature"},
	{"geometry":{"coordinates":[6.543334,49.712254],"type":"Point"},"properties":{"osm_id":"5111301961","tag":{"amenity":"recycling","recycling:clothes":"yes","recycling_type":"container"}},"type":"Feature"},
	{"geometry":{"coordinates":[6.55524,49.71155],"type":"Point"},"properties":{"osm_id":"5111301962","tag":{"amenity":"recycling","recycling:clothes":"yes","recycling:shoes":"yes","recycling_type":"container"}},"type":"Feature"},
	{"geometry":{"coordinates":[6.5862,49.714209],"type":"Point"},"properties":{"osm_id":"5111301963","tag":{"amenity":"recycling","recycling:clothes":"yes","recycling:shoes":"yes","recycling_type":"container"}},"type":"Feature"},
	{"geometry":{"coordinates":[6.586657,49.723651],"type":"Point"},"properties":{"osm_id":"5111301965","tag":{"amenity":"recycling","recycling:clothes":"yes","recycling:shoes":"yes","recycling_type":"container"}},"type":"Feature"},
	{"geometry":{"coordinates":[6.551246,49.698785],"type":"Point"},"properties":{"osm_id":"5171461733","tag":{"amenity":"recycling","operator":"DRK-Kreisverband Trier-Saarburg e.V.","recycling:clothes":"yes","recycling:shoes":"yes","recycling_type":"container"}},"type":"Feature"},
	{"geometry":{"coordinates":[6.57444,49.696353],"type":"Point"},"properties":{"osm_id":"5178385218","tag":{"amenity":"waste_basket"}},"type":"Feature"},
	{"geometry":{"coordinates":[6.574002,49.696034],"type":"Point"},"properties":{"osm_id":"5178385219","tag":{"amenity":"waste_basket"}},"type":"Feature"},
	{"geometry":{"coordinates":[6.585666,49.700683],"type":"Point"},"properties":{"osm_id":"5333701366","tag":{"amenity":"recycling","recycling:clothes":"yes","recycling:shoes":"yes","recycling_type":"container"}},"type":"Feature"},
	{"geometry":{"coordinates":[6.585705,49.700703],"type":"Point"},"properties":{"osm_id":"5333701367","tag":{"amenity":"recycling","opening_hours":"Mo-Sa 07:00-20:00; Su,PH off","operator":"Zweckverband Abfallwirtschaft Region Trier","recycling:glass_bottles":"yes","recycling_type":"container"}},"type":"Feature"},
	{"geometry":{"coordinates":[6.548807,49.708365],"type":"Point"},"properties":{"osm_id":"5457527800","tag":{"amenity":"recycling","recycling:clothes":"yes","recycling:shoes":"yes","recycling_type":"container"}},"type":"Feature"},
	{"geometry":{"coordinates":[6.548797,49.708407],"type":"Point"},"properties":{"osm_id":"5457527801","tag":{"amenity":"recycling","opening_hours":"Mo-Sa 07:00-20:00; Su,PH off","operator":"Zweckverband Abfallwirtschaft Region Trier","recycling:glass_bottles":"yes","recycling_type":"container"}},"type":"Feature"},
	{"geometry":{"coordinates":[6.570582,49.697452],"type":"Point"},"properties":{"osm_id":"5670506740","tag":{"amenity":"waste_basket"}},"type":"Feature"},
	{"geometry":{"coordinates":[6.570504,49.696964],"type":"Point"},"properties":{"osm_id":"5670506755","tag":{"amenity":"waste_basket"}},"type":"Feature"},
	{"geometry":{"coordinates":[6.570172,49.695552],"type":"Point"},"properties":{"osm_id":"5670506765","tag":{"amenity":"waste_basket"}},"type":"Feature"},
	{"geometry":{"coordinates":[6.545764,49.706816],"type":"Point"},"properties":{"osm_id":"5754485475","tag":{"amenity":"recycling","recycling:clothes":"yes","recycling:shoes":"yes","recycling_type":"container"}},"type":"Feature"},
	{"geometry":{"coordinates":[6.514695,49.721004],"type":"Point"},"properties":{"osm_id":"6180966957","tag":{"amenity":"waste_basket","waste":"trash"}},"type":"Feature"},
	{"geometry":{"coordinates":[6.576872,49.690426],"type":"Point"},"properties":{"osm_id":"6377652236","tag":{"amenity":"waste_basket"}},"type":"Feature"},
	{"geometry":{"coordinates":[6.576705,49.690418],"type":"Point"},"properties":{"osm_id":"6377652237","tag":{"amenity":"waste_basket"}},"type":"Feature"},
	{"geometry":{"coordinates":[6.536999,49.708481],"type":"Point"},"properties":{"osm_id":"6448562550","tag":{"amenity":"waste_basket"}},"type":"Feature"},
	{"geometry":{"coordinates":[6.537068,49.708639],"type":"Point"},"properties":{"osm_id":"6448562552","tag":{"amenity":"waste_basket"}},"type":"Feature"},
	{"geometry":{"coordinates":[6.537388,49.709398],"type":"Point"},"properties":{"osm_id":"6681835336","tag":{"amenity":"waste_basket"}},"type":"Feature"},
	{"geometry":{"coordinates":[6.520438,49.713518],"type":"Point"},"properties":{"osm_id":"7569886290","tag":{"amenity":"waste_basket"}},"type":"Feature"}
]
}
