{
"type": "FeatureCollection",
"features": [
	{"geometry":{"coordinates":[6.528989,46.720556],"type":"Point"},"properties":{"osm_id":"495166793","tag":{"amenity":"recycling"}},"type":"Feature"},
	{"geometry":{"coordinates":[6.532471,46.72953],"type":"Point"},"properties":{"osm_id":"1894575480","tag":{"amenity":"recycling","location":"overground","recycling_type":"container"}},"type":"Feature"},
	{"geometry":{"coordinates":[6.514338,46.723024],"type":"Point"},"properties":{"osm_id":"3054419414","tag":{"amenity":"waste_disposal"}},"type":"Feature"},
	{"geometry":{"coordinates":[6.507365,46.732177],"type":"Point"},"properties":{"osm_id":"3054434305","tag":{"amenity":"waste_disposal"}},"type":"Feature"},
	{"geometry":{"coordinates":[6.51503,46.688827],"type":"Point"},"properties":{"osm_id":"3068115852","tag":{"amenity":"waste_disposal"}},"type":"Feature"},
	{"geometry":{"coordinates":[6.589492,46.728704],"type":"Point"},"properties":{"osm_id":"3140986993","tag":{"amenity":"waste_disposal"}},"type":"Feature"},
	{"geometry":{"coordinates":[6.544777,46.722772],"type":"Point"},"properties":{"osm_id":"3371508818","tag":{"amenity":"recycling","recycling:cans":"yes","recycling:clothes":"yes","recycling:glass":"yes","recycling:paper":"yes","recycling:scrap_metal":"yes","recycling_type":"container"}},"type":"Feature"},
	{"geometry":{"coordinates":[6.574763,46.69536],"type":"Point"},"properties":{"osm_id":"3431323928","tag":{"amenity":"recycling"}},"type":"Feature"},
	{"geometry":{"coordinates":[6.562241,46.686283],"type":"Point"},"properties":{"name":"D\u00c3\u00a9chetterie","osm_id":"3547889292","tag":{"amenity":"recycling","collection_times":"Mo 10:00-11:00; We 07:0020:00pm; Sa 10:00-12:00","recycling:aluminium":"yes","recycling:batteries":"yes","recycling:cans":"yes","recycling:cardboard":"yes","recycling:cartons":"yes","recycling:clothes":"yes","recycling:electrical_appliances":"yes","recycling:glass":"yes","recycling:paper":"yes","recycling:plastic_bottles":"yes","recycling:scrap_metal":"yes"}},"type":"Feature"},
	{"geometry":{"coordinates":[6.532377,46.736009],"type":"Point"},"properties":{"osm_id":"3630750604","tag":{"amenity":"recycling","recycling:glass":"yes","recycling_type":"container"}},"type":"Feature"},
	{"geometry":{"coordinates":[6.531887,46.736273],"type":"Point"},"properties":{"osm_id":"3630750605","tag":{"amenity":"recycling","recycling:plastic":"yes","recycling_type":"container"}},"type":"Feature"},
	{"geometry":{"coordinates":[6.531874,46.736286],"type":"Point"},"properties":{"osm_id":"3630750606","tag":{"amenity":"waste_disposal"}},"type":"Feature"},
	{"geometry":{"coordinates":[6.567001,46.685419],"type":"Point"},"properties":{"osm_id":"4148507086","tag":{"amenity":"waste_basket"}},"type":"Feature"},
	{"geometry":{"coordinates":[6.532375,46.725997],"type":"Point"},"properties":{"osm_id":"4316787057","tag":{"amenity":"waste_basket"}},"type":"Feature"},
	{"geometry":{"coordinates":[6.569505,46.707081],"type":"Point"},"properties":{"osm_id":"6572760802","tag":{"amenity":"recycling","recycling_type":"container"}},"type":"Feature"},
	{"geometry":{"coordinates":[6.534428,46.708487],"type":"Point"},"properties":{"osm_id":"8587272430","tag":{"amenity":"waste_basket"}},"type":"Feature"},
	{"geometry":{"coordinates":[6.575414,46.694997],"type":"Point"},"properties":{"osm_id":"9160966420","tag":{"amenity":"waste_basket"}},"type":"Feature"},
	{"geometry":{"coordinates":[6.584346,46.690866],"type":"Point"},"properties":{"osm_id":"9160966444","tag":{"amenity":"waste_basket"}},"type":"Feature"},
	{"geometry":{"coordinates":[6.587856,46.684159],"type":"Point"},"properties":{"osm_id":"9160966468","tag":{"amenity":"waste_basket"}},"type":"Feature"},
	{"geometry":{"coordinates":[6.57602,46.694298],"type":"Point"},"properties":{"osm_id":"9160966477","tag":{"amenity":"waste_basket"}},"type":"Feature"}
]
}
