{
"type": "FeatureCollection",
"features": [
	{"geometry":{"coordinates":[6.580593,46.583861],"type":"Point"},"properties":{"osm_id":"318721892","tag":{"amenity":"recycling"}},"type":"Feature"},
	{"geometry":{"coordinates":[6.583244,46.604238],"type":"Point"},"properties":{"osm_id":"329364190","tag":{"amenity":"recycling"}},"type":"Feature"},
	{"geometry":{"coordinates":[6.587277,46.601285],"type":"Point"},"properties":{"osm_id":"330655292","tag":{"amenity":"recycling"}},"type":"Feature"},
	{"geometry":{"coordinates":[6.56062,46.60484],"type":"Point"},"properties":{"osm_id":"345734488","tag":{"amenity":"recycling","recycling:paper":"yes"}},"type":"Feature"},
	{"geometry":{"coordinates":[6.542668,46.581305],"type":"Point"},"properties":{"osm_id":"442296351","tag":{"amenity":"recycling","recycling:batteries":"yes","recycling:cans":"yes","recycling:clothes":"yes","recycling:glass":"yes"}},"type":"Feature"},
	{"geometry":{"coordinates":[6.556078,46.578832],"type":"Point"},"properties":{"osm_id":"443760597","tag":{"amenity":"recycling","recycling:batteries":"yes","recycling:cans":"yes","recycling:glass":"yes"}},"type":"Feature"},
	{"geometry":{"coordinates":[6.514523,46.573418],"type":"Point"},"properties":{"osm_id":"444572179","tag":{"amenity":"recycling","recycling:batteries":"yes","recycling:cans":"yes","recycling:clothes":"yes","recycling:glass":"yes","recycling:scrap_metal":"yes","recycling_type":"centre"}},"type":"Feature"},
	{"geometry":{"coordinates":[6.504089,46.616638],"type":"Point"},"properties":{"osm_id":"467092495","tag":{"amenity":"recycling","recycling:batteries":"no","recycling:glass":"yes","recycling:paper":"yes"}},"type":"Feature"},
	{"geometry":{"coordinates":[6.506089,46.612355],"type":"Point"},"properties":{"osm_id":"467092496","tag":{"amenity":"recycling","location":"underground","recycling:batteries":"no","recycling:glass":"yes","recycling:paper":"yes","recycling_type":"container"}},"type":"Feature"},
	{"geometry":{"coordinates":[6.589157,46.560014],"type":"Point"},"properties":{"osm_id":"500856329","tag":{"amenity":"recycling","recycling:clothes":"yes"}},"type":"Feature"},
	{"geometry":{"coordinates":[6.504529,46.614866],"type":"Point"},"properties":{"osm_id":"3925384994","tag":{"amenity":"recycling"}},"type":"Feature"},
	{"geometry":{"coordinates":[6.507025,46.606292],"type":"Point"},"properties":{"osm_id":"5771716553","tag":{"amenity":"recycling","location":"underground","recycling_type":"container"}},"type":"Feature"},
	{"geometry":{"coordinates":[6.531439,46.612578],"type":"Point"},"properties":{"osm_id":"6720965720","tag":{"amenity":"waste_basket"}},"type":"Feature"},
	{"geometry":{"coordinates":[6.526205,46.613506],"type":"Point"},"properties":{"osm_id":"6720965727","tag":{"amenity":"waste_disposal","location":"underground"}},"type":"Feature"},
	{"geometry":{"coordinates":[6.524539,46.610325],"type":"Point"},"properties":{"barrier":"bollard","osm_id":"6721024027"},"type":"Feature"},
	{"geometry":{"coordinates":[6.532908,46.608927],"type":"Point"},"properties":{"osm_id":"6721541552","tag":{"amenity":"waste_basket"}},"type":"Feature"},
	{"geometry":{"coordinates":[6.532853,46.60763],"type":"Point"},"properties":{"osm_id":"6721612054","tag":{"amenity":"waste_basket"}},"type":"Feature"},
	{"geometry":{"coordinates":[6.523697,46.605924],"type":"Point"},"properties":{"osm_id":"6722561140","tag":{"amenity":"waste_basket"}},"type":"Feature"},
	{"geometry":{"coordinates":[6.525874,46.613205],"type":"Point"},"properties":{"osm_id":"6722563832","tag":{"amenity":"waste_basket"}},"type":"Feature"},
	{"geometry":{"coordinates":[6.521675,46.609446],"type":"Point"},"properties":{"osm_id":"6722569443","tag":{"amenity":"waste_basket"}},"type":"Feature"},
	{"geometry":{"coordinates":[6.524515,46.611025],"type":"Point"},"properties":{"osm_id":"6722576569","tag":{"amenity":"waste_basket"}},"type":"Feature"},
	{"geometry":{"coordinates":[6.523275,46.610536],"type":"Point"},"properties":{"osm_id":"6722577182","tag":{"amenity":"waste_basket"}},"type":"Feature"},
	{"geometry":{"coordinates":[6.522668,46.607813],"type":"Point"},"properties":{"osm_id":"6722587134","tag":{"amenity":"waste_basket"}},"type":"Feature"},
	{"geometry":{"coordinates":[6.523928,46.606064],"type":"Point"},"properties":{"osm_id":"6722587135","tag":{"amenity":"waste_basket"}},"type":"Feature"},
	{"geometry":{"coordinates":[6.523636,46.606129],"type":"Point"},"properties":{"osm_id":"6722587790","tag":{"amenity":"waste_basket"}},"type":"Feature"},
	{"geometry":{"coordinates":[6.523151,46.606984],"type":"Point"},"properties":{"osm_id":"6722588805","tag":{"amenity":"waste_basket"}},"type":"Feature"},
	{"geometry":{"coordinates":[6.523989,46.611212],"type":"Point"},"properties":{"osm_id":"6722589728","tag":{"amenity":"waste_basket"}},"type":"Feature"},
	{"geometry":{"coordinates":[6.5229,46.618251],"type":"Point"},"properties":{"osm_id":"7553982163","tag":{"amenity":"waste_basket"}},"type":"Feature"}
]
}
