{
"type": "FeatureCollection",
"features": [
	{"geometry":{"coordinates":[6.508284,46.519313],"type":"Point"},"properties":{"osm_id":"290323519","tag":{"amenity":"recycling","recycling:batteries":"yes","recycling:cans":"yes","recycling:coffee_capsules":"yes","recycling:cooking_oil":"yes","recycling:green_waste":"yes","recycling:plastic_bottles":"yes","recycling_type":"container"}},"type":"Feature"},
	{"geometry":{"coordinates":[6.512464,46.517155],"type":"Point"},"properties":{"osm_id":"290323535","tag":{"amenity":"recycling","recycling:batteries":"yes","recycling:cans":"yes","recycling:coffee_capsules":"yes","recycling:cooking_oil":"yes","recycling:green_waste":"yes","recycling:plastic_bottles":"yes","recycling_type":"container"}},"type":"Feature"},
	{"geometry":{"coordinates":[6.569309,46.530166],"type":"Point"},"properties":{"osm_id":"364060448","tag":{"amenity":"recycling","location":"overground","recycling:glass":"yes","recycling_type":"container"}},"type":"Feature"},
	{"geometry":{"coordinates":[6.541843,46.526324],"type":"Point"},"properties":{"osm_id":"415551847","tag":{"amenity":"recycling"}},"type":"Feature"},
	{"geometry":{"coordinates":[6.574223,46.52122],"type":"Point"},"properties":{"osm_id":"419010902","tag":{"amenity":"recycling","recycling:plastic_bottles":"yes"}},"type":"Feature"},
	{"geometry":{"coordinates":[6.579758,46.522666],"type":"Point"},"properties":{"osm_id":"419010903","tag":{"amenity":"recycling","recycling:plastic_bottles":"yes"}},"type":"Feature"},
	{"geometry":{"coordinates":[6.584331,46.523597],"type":"Point"},"properties":{"osm_id":"420482871","tag":{"amenity":"recycling","recycling:cans":"yes"}},"type":"Feature"},
	{"geometry":{"coordinates":[6.558165,46.5104],"type":"Point"},"properties":{"osm_id":"422883627","tag":{"amenity":"recycling","recycling:engine_oil":"yes","recycling:plastic_bottles":"yes","recycling:waste_oil":"yes"}},"type":"Feature"},
	{"geometry":{"coordinates":[6.548058,46.517791],"type":"Point"},"properties":{"barrier":"gate","osm_id":"450192825","tag":{"bicycle":"no","foot":"no","motorcar":"yes"}},"type":"Feature"},
	{"geometry":{"coordinates":[6.567972,46.518368],"type":"Point"},"properties":{"osm_id":"761124152","tag":{"amenity":"recycling","location":"overground","recycling:aluminium":"yes","recycling:paper":"yes","recycling:pet":"yes","recycling:trash":"yes","recycling_type":"container"}},"type":"Feature"},
	{"geometry":{"coordinates":[6.539985,46.524251],"type":"Point"},"properties":{"osm_id":"1676698644","tag":{"amenity":"recycling","recycling_type":"container"}},"type":"Feature"},
	{"geometry":{"coordinates":[6.563311,46.548049],"type":"Point"},"properties":{"name":"Aide Suisse aux Montagnards","osm_id":"2968187834","tag":{"amenity":"recycling","location":"overground","recycling:cans":"no","recycling:clothes":"yes","recycling:glass":"no","recycling:paper":"no","recycling_type":"container","website":"https://www.berghilfe.ch/"}},"type":"Feature"},
	{"geometry":{"coordinates":[6.578515,46.533561],"type":"Point"},"properties":{"osm_id":"2969046009","tag":{"amenity":"waste_basket"}},"type":"Feature"},
	{"geometry":{"coordinates":[6.505721,46.519686],"type":"Point"},"properties":{"osm_id":"3019860406","tag":{"amenity":"recycling","recycling:batteries":"yes","recycling:cans":"yes","recycling:coffee_capsules":"yes","recycling:cooking_oil":"yes","recycling:glass":"yes","recycling:green_waste":"yes","recycling:paper":"yes","recycling:plastic_bottles":"yes","recycling:waste":"yes","recycling_type":"container"}},"type":"Feature"},
	{"geometry":{"coordinates":[6.581873,46.537014],"type":"Point"},"properties":{"osm_id":"3090538895","tag":{"amenity":"waste_basket"}},"type":"Feature"},
	{"geometry":{"coordinates":[6.581734,46.537272],"type":"Point"},"properties":{"osm_id":"3090538897","tag":{"amenity":"recycling","location":"underground","recycling:cardboard":"yes","recycling:cartons":"yes","recycling:paper":"yes","recycling_type":"container"}},"type":"Feature"},
	{"geometry":{"coordinates":[6.581723,46.537288],"type":"Point"},"properties":{"osm_id":"3090538898","tag":{"amenity":"recycling","location":"underground","recycling:glass":"yes","recycling_type":"container"}},"type":"Feature"},
	{"geometry":{"coordinates":[6.581713,46.537306],"type":"Point"},"properties":{"osm_id":"3090538899","tag":{"amenity":"recycling","location":"underground","recycling_type":"container"}},"type":"Feature"},
	{"geometry":{"coordinates":[6.581703,46.537321],"type":"Point"},"properties":{"osm_id":"3090538900","tag":{"amenity":"recycling","location":"underground","recycling_type":"container"}},"type":"Feature"},
	{"geometry":{"coordinates":[6.581249,46.538107],"type":"Point"},"properties":{"osm_id":"3090538907","tag":{"amenity":"recycling","recycling:aluminium":"yes","recycling_type":"container"}},"type":"Feature"},
	{"geometry":{"coordinates":[6.581247,46.538109],"type":"Point"},"properties":{"osm_id":"3090538908","tag":{"amenity":"waste_basket"}},"type":"Feature"},
	{"geometry":{"coordinates":[6.581244,46.538113],"type":"Point"},"properties":{"osm_id":"3090538909","tag":{"amenity":"recycling","recycling:plastic_bottles":"yes","recycling_type":"container"}},"type":"Feature"},
	{"geometry":{"coordinates":[6.581144,46.53831],"type":"Point"},"properties":{"osm_id":"3090538915","tag":{"amenity":"waste_basket"}},"type":"Feature"},
	{"geometry":{"coordinates":[6.566024,46.531373],"type":"Point"},"properties":{"osm_id":"4771781112","tag":{"amenity":"recycling","recycling:batteries":"yes","recycling:cans":"yes","recycling:clothes":"yes","recycling:cooking_oil":"yes","recycling:engine_oil":"yes","recycling:shoes":"yes","recycling_type":"container"}},"type":"Feature"},
	{"geometry":{"coordinates":[6.578342,46.53464],"type":"Point"},"properties":{"osm_id":"4908695774","tag":{"amenity":"recycling","recycling:glass":"yes","recycling:organic":"yes","recycling:paper":"yes","recycling:waste":"yes","recycling_type":"underfloor-container"}},"type":"Feature"},
	{"geometry":{"coordinates":[6.578846,46.536156],"type":"Point"},"properties":{"osm_id":"5111135371","tag":{"amenity":"recycling","recycling_type":"container"}},"type":"Feature"},
	{"geometry":{"coordinates":[6.568307,46.512833],"type":"Point"},"properties":{"osm_id":"5285845892","tag":{"amenity":"waste_basket"}},"type":"Feature"},
	{"geometry":{"coordinates":[6.567154,46.525406],"type":"Point"},"properties":{"osm_id":"5659168098","tag":{"amenity":"waste_disposal"}},"type":"Feature"},
	{"geometry":{"coordinates":[6.505021,46.52304],"type":"Point"},"properties":{"osm_id":"6225380730","tag":{"amenity":"recycling"}},"type":"Feature"},
	{"geometry":{"coordinates":[6.503994,46.524543],"type":"Point"},"properties":{"osm_id":"6333013232","tag":{"amenity":"recycling"}},"type":"Feature"},
	{"geometry":{"coordinates":[6.581959,46.557636],"type":"Point"},"properties":{"osm_id":"6426611164","tag":{"amenity":"recycling","recycling:glass":"yes","recycling_type":"container"}},"type":"Feature"},
	{"geometry":{"coordinates":[6.57365,46.521702],"type":"Point"},"properties":{"osm_id":"6522249682","tag":{"amenity":"waste_basket"}},"type":"Feature"},
	{"geometry":{"coordinates":[6.573345,46.521921],"type":"Point"},"properties":{"osm_id":"6522317646","tag":{"amenity":"waste_basket"}},"type":"Feature"},
	{"geometry":{"coordinates":[6.587133,46.544561],"type":"Point"},"properties":{"name":"Labdoo Annahmestelle f\u00c3\u00bcr Laptops","osm_id":"6543130047","tag":{"addr:city":"Renens","addr:housenumber":"9","addr:postcode":"1020","addr:street":"Avenue des Baumettes","amenity":"recycling","brand":"Labdoo","charity":"yes","description":"Bei BRACK.CH k\u00c3\u00b6nnen Montag bis Freitag von 8:30 bis 18:30 Uhr Laptops am Abholschalter unter dem Hinweis auf Labdoo deponiert werden.","location":"indoor","operator":"BRACK.CH","recycling:computers":"yes","recycling:mobile_phones":"yes","service_times":"Mo-Fr 08:30-18:30","website":"https://www.labdoo.org/de/hub?h=56959"}},"type":"Feature"},
	{"geometry":{"coordinates":[6.525199,46.520168],"type":"Point"},"properties":{"osm_id":"6564865370","tag":{"amenity":"waste_basket"}},"type":"Feature"},
	{"geometry":{"coordinates":[6.526418,46.517864],"type":"Point"},"properties":{"osm_id":"6574209617","tag":{"amenity":"waste_basket"}},"type":"Feature"},
	{"geometry":{"coordinates":[6.526627,46.517781],"type":"Point"},"properties":{"osm_id":"6574209618","tag":{"amenity":"waste_basket"}},"type":"Feature"},
	{"geometry":{"coordinates":[6.525712,46.519381],"type":"Point"},"properties":{"osm_id":"6666006693","tag":{"amenity":"waste_basket"}},"type":"Feature"},
	{"geometry":{"coordinates":[6.525349,46.519238],"type":"Point"},"properties":{"osm_id":"6666006694","tag":{"amenity":"waste_basket"}},"type":"Feature"},
	{"geometry":{"coordinates":[6.542008,46.526471],"type":"Point"},"properties":{"osm_id":"6817405117","tag":{"amenity":"waste_basket","waste":"trash"}},"type":"Feature"},
	{"geometry":{"coordinates":[6.54172,46.526406],"type":"Point"},"properties":{"osm_id":"6817405131","tag":{"amenity":"waste_basket","waste":"trash"}},"type":"Feature"},
	{"geometry":{"coordinates":[6.566958,46.519105],"type":"Point"},"properties":{"osm_id":"7087925195","tag":{"amenity":"recycling","recycling_type":"container"}},"type":"Feature"},
	{"geometry":{"coordinates":[6.565173,46.520933],"type":"Point"},"properties":{"osm_id":"7121789001","tag":{"amenity":"waste_basket","recycling:cans":"yes","recycling:paper":"yes","recycling:plastic_bottles":"yes"}},"type":"Feature"},
	{"geometry":{"coordinates":[6.565509,46.520525],"type":"Point"},"properties":{"osm_id":"7121801188","tag":{"amenity":"recycling","location":"overground","recycling:cans":"yes","recycling:paper":"yes","recycling:plastic_bottles":"yes"}},"type":"Feature"},
	{"geometry":{"coordinates":[6.529227,46.521674],"type":"Point"},"properties":{"osm_id":"7645205992","tag":{"amenity":"waste_basket"}},"type":"Feature"},
	{"geometry":{"coordinates":[6.57098,46.538111],"type":"Point"},"properties":{"osm_id":"7846251896","tag":{"amenity":"recycling","recycling_type":"container"}},"type":"Feature"},
	{"geometry":{"coordinates":[6.579022,46.536785],"type":"Point"},"properties":{"osm_id":"7874950491","tag":{"amenity":"waste_basket"}},"type":"Feature"}
]
}
