{
"type": "FeatureCollection",
"features": [
	{"geometry":{"coordinates":[6.553596,44.485783],"type":"Point"},"properties":{"osm_id":"1483301468","tag":{"addr:place":"Bois M\u00c3\u00a9an 1800","amenity":"recycling","recycling:glass":"yes","recycling:paper":"yes","recycling_type":"container"}},"type":"Feature"},
	{"geometry":{"coordinates":[6.553072,44.485327],"type":"Point"},"properties":{"osm_id":"1483301469","tag":{"addr:place":"Bois M\u00c3\u00a9an 1800","amenity":"recycling","recycling:glass":"yes","recycling:paper":"yes","recycling_type":"container"}},"type":"Feature"},
	{"geometry":{"coordinates":[6.569185,44.512533],"type":"Point"},"properties":{"osm_id":"1483301471","tag":{"amenity":"recycling","recycling:paper":"yes","recycling_type":"container"}},"type":"Feature"},
	{"geometry":{"coordinates":[6.557106,44.493979],"type":"Point"},"properties":{"osm_id":"1517000160","tag":{"addr:place":"Centre Station 1650","amenity":"recycling","recycling:glass":"yes","recycling:paper":"yes","recycling_type":"container"}},"type":"Feature"},
	{"geometry":{"coordinates":[6.555571,44.499653],"type":"Point"},"properties":{"name":"Borne pour camping car","osm_id":"1727963963","tag":{"addr:place":"Champ Lacas","amenity":"waste_disposal","description":"Jeton \u00c3\u00a0 retirer \u00c3\u00a0 l'Office de Tourisme","fee":"yes","operator":"Office de Tourisme","waste":"yes"}},"type":"Feature"},
	{"geometry":{"coordinates":[6.569014,44.511832],"type":"Point"},"properties":{"osm_id":"2103266325","tag":{"addr:place":"Les Ribes","amenity":"recycling","recycling:glass":"yes","recycling:paper":"yes","recycling_type":"container"}},"type":"Feature"},
	{"geometry":{"coordinates":[6.552491,44.513486],"type":"Point"},"properties":{"osm_id":"2103266334","tag":{"amenity":"recycling","recycling:paper":"yes","recycling_type":"container"}},"type":"Feature"},
	{"geometry":{"coordinates":[6.548479,44.514441],"type":"Point"},"properties":{"osm_id":"2103266339","tag":{"amenity":"recycling","recycling:paper":"yes","recycling_type":"container"}},"type":"Feature"},
	{"geometry":{"coordinates":[6.551061,44.513954],"type":"Point"},"properties":{"osm_id":"2103282636","tag":{"amenity":"recycling","recycling:paper":"yes","recycling_type":"container"}},"type":"Feature"},
	{"geometry":{"coordinates":[6.553216,44.484483],"type":"Point"},"properties":{"osm_id":"2104634640","tag":{"addr:place":"Bois M\u00c3\u00a9an 1800","amenity":"recycling","recycling:glass":"yes","recycling:paper":"yes","recycling_type":"container"}},"type":"Feature"},
	{"geometry":{"coordinates":[6.551027,44.487387],"type":"Point"},"properties":{"osm_id":"2104634644","tag":{"addr:place":"Centre Station 1650","amenity":"recycling","recycling:paper":"yes","recycling_type":"container"}},"type":"Feature"},
	{"geometry":{"coordinates":[6.548446,44.514428],"type":"Point"},"properties":{"osm_id":"4310114951","tag":{"amenity":"recycling","recycling:glass":"yes","recycling_type":"container"}},"type":"Feature"},
	{"geometry":{"coordinates":[6.554985,44.486145],"type":"Point"},"properties":{"osm_id":"4744998692","tag":{"amenity":"waste_basket"}},"type":"Feature"},
	{"geometry":{"coordinates":[6.557206,44.494298],"type":"Point"},"properties":{"osm_id":"4745181924","tag":{"amenity":"recycling","operator":"smictom de l'embunais savinois","recycling_type":"container"}},"type":"Feature"},
	{"geometry":{"coordinates":[6.557103,44.494353],"type":"Point"},"properties":{"osm_id":"4745181925","tag":{"amenity":"waste_disposal","operator":"smictom de l'embunais savinois","recycling_type":"container"}},"type":"Feature"},
	{"geometry":{"coordinates":[6.557325,44.494205],"type":"Point"},"properties":{"osm_id":"4745181926","tag":{"amenity":"recycling","operator":"smictom de l'embunais savinois","recycling:glass":"yes","recycling_type":"container"}},"type":"Feature"},
	{"geometry":{"coordinates":[6.557243,44.494274],"type":"Point"},"properties":{"osm_id":"4745181927","tag":{"amenity":"recycling","operator":"smictom de l'embunais savinois","recycling_type":"container"}},"type":"Feature"},
	{"geometry":{"coordinates":[6.557137,44.494338],"type":"Point"},"properties":{"osm_id":"4745181928","tag":{"amenity":"recycling","operator":"smictom de l'embunais savinois","recycling_type":"container"}},"type":"Feature"},
	{"geometry":{"coordinates":[6.557276,44.49425],"type":"Point"},"properties":{"osm_id":"4745181929","tag":{"amenity":"recycling","operator":"smictom de l'embunais savinois","recycling_type":"container"}},"type":"Feature"},
	{"geometry":{"coordinates":[6.557167,44.494322],"type":"Point"},"properties":{"osm_id":"4745181930","tag":{"amenity":"recycling","operator":"smictom de l'embunais savinois","recycling_type":"container"}},"type":"Feature"},
	{"geometry":{"coordinates":[6.557301,44.494227],"type":"Point"},"properties":{"osm_id":"4745181931","tag":{"amenity":"recycling","operator":"smictom de l'embunais savinois","recycling:paper":"yes","recycling_type":"container"}},"type":"Feature"},
	{"geometry":{"coordinates":[6.557029,44.495222],"type":"Point"},"properties":{"osm_id":"4745186431","tag":{"amenity":"recycling","operator":"smictom de l'embunais savinois","recycling_type":"container"}},"type":"Feature"},
	{"geometry":{"coordinates":[6.557002,44.495174],"type":"Point"},"properties":{"osm_id":"4745186432","tag":{"amenity":"recycling","operator":"smictom de l'embunais savinois","recycling_type":"container"}},"type":"Feature"},
	{"geometry":{"coordinates":[6.557062,44.495257],"type":"Point"},"properties":{"osm_id":"4745186433","tag":{"amenity":"recycling","operator":"smictom de l'embunais savinois","recycling_type":"container"}},"type":"Feature"},
	{"geometry":{"coordinates":[6.556963,44.494117],"type":"Point"},"properties":{"osm_id":"4745206448","tag":{"amenity":"waste_basket"}},"type":"Feature"},
	{"geometry":{"coordinates":[6.554872,44.492419],"type":"Point"},"properties":{"osm_id":"4745390822","tag":{"amenity":"waste_basket"}},"type":"Feature"},
	{"geometry":{"coordinates":[6.553775,44.494921],"type":"Point"},"properties":{"osm_id":"4745390823","tag":{"amenity":"waste_basket"}},"type":"Feature"},
	{"geometry":{"coordinates":[6.554368,44.495204],"type":"Point"},"properties":{"osm_id":"4745390836","tag":{"amenity":"waste_basket"}},"type":"Feature"},
	{"geometry":{"coordinates":[6.555511,44.499644],"type":"Point"},"properties":{"osm_id":"4745476460","tag":{"amenity":"recycling","recycling:cans":"yes","recycling:clothes":"no","recycling:glass":"yes","recycling:glass_bottles":"yes","recycling:paper":"yes","recycling:plastic":"yes","recycling_type":"container","waste_disposal":"yes"}},"type":"Feature"},
	{"geometry":{"coordinates":[6.554957,44.496786],"type":"Point"},"properties":{"osm_id":"4745476466","tag":{"amenity":"recycling","recycling:cans":"yes","recycling:clothes":"no","recycling:glass":"no","recycling:glass_bottles":"no","recycling:paper":"yes","recycling:plastic":"yes","recycling_type":"centre","waste_disposal":"yes"}},"type":"Feature"},
	{"geometry":{"coordinates":[6.553449,44.491135],"type":"Point"},"properties":{"osm_id":"4747078727","tag":{"amenity":"recycling","recycling:cans":"yes","recycling:clothes":"no","recycling:glass":"no","recycling:glass_bottles":"no","recycling:paper":"yes","recycling:plastic":"yes","recycling_type":"container","waste_disposal":"yes"}},"type":"Feature"},
	{"geometry":{"coordinates":[6.556418,44.490632],"type":"Point"},"properties":{"osm_id":"6327220736","tag":{"amenity":"recycling"}},"type":"Feature"},
	{"geometry":{"coordinates":[6.552279,44.51338],"type":"Point"},"properties":{"osm_id":"6627539387","tag":{"amenity":"waste_basket"}},"type":"Feature"}
]
}
