{
"type": "FeatureCollection",
"features": [
	{"geometry":{"coordinates":[29.190222,65.96498],"type":"Point"},"properties":{"osm_id":"7058212717","tag":{"amenity":"waste_basket"}},"type":"Feature"},
	{"geometry":{"coordinates":[29.190698,65.965147],"type":"Point"},"properties":{"osm_id":"7058212720","tag":{"amenity":"waste_basket"}},"type":"Feature"},
	{"geometry":{"coordinates":[29.191245,65.965742],"type":"Point"},"properties":{"osm_id":"7058212721","tag":{"amenity":"recycling","recycling:cardboard":"yes","recycling:glass":"yes","recycling:paper":"yes","recycling_type":"container"}},"type":"Feature"},
	{"geometry":{"coordinates":[29.19358,65.964642],"type":"Point"},"properties":{"osm_id":"7058212749","tag":{"amenity":"waste_basket"}},"type":"Feature"},
	{"geometry":{"coordinates":[29.193201,65.963625],"type":"Point"},"properties":{"osm_id":"7058212788","tag":{"amenity":"waste_basket"}},"type":"Feature"},
	{"geometry":{"coordinates":[29.181581,65.972066],"type":"Point"},"properties":{"osm_id":"7061617413","tag":{"amenity":"waste_basket"}},"type":"Feature"},
	{"geometry":{"coordinates":[29.182505,65.971688],"type":"Point"},"properties":{"osm_id":"7061617414","tag":{"amenity":"waste_basket"}},"type":"Feature"}
]
}
