{
"type": "FeatureCollection",
"features": [
	{"geometry":{"coordinates":[-72.243978,18.659962],"type":"Point"},"properties":{"osm_id":"880615978","tag":{"amenity":"waste_basket","operational_status":"open","operator_type":"private_non_profit"}},"type":"Feature"},
	{"geometry":{"coordinates":[-72.243468,18.659924],"type":"Point"},"properties":{"osm_id":"880616066","tag":{"amenity":"waste_basket","operational_status":"open","operator":"SANCO","operator_type":"private_non_profit"}},"type":"Feature"},
	{"geometry":{"coordinates":[-72.244501,18.661003],"type":"Point"},"properties":{"osm_id":"880616130","tag":{"amenity":"waste_basket","operational_status":"open","operator":"SANKO","operator_type":"private_for_profit"}},"type":"Feature"},
	{"geometry":{"coordinates":[-72.243036,18.659891],"type":"Point"},"properties":{"osm_id":"880616141","tag":{"amenity":"waste_basket","operational_status":"open","operator":"SANCO","operator_type":"private_non_profit"}},"type":"Feature"},
	{"geometry":{"coordinates":[-72.244501,18.661302],"type":"Point"},"properties":{"osm_id":"880966132","tag":{"amenity":"waste_basket","operational_status":"open","operator":"SANCO/OXFAM","operator_type":"private_non_profit"}},"type":"Feature"},
	{"geometry":{"coordinates":[-72.244594,18.660972],"type":"Point"},"properties":{"osm_id":"892457952","tag":{"amenity":"waste_basket","operational_status":"open","operator":"SANCO","operator_type":"private_non_profit"}},"type":"Feature"},
	{"geometry":{"coordinates":[-72.24455,18.660564],"type":"Point"},"properties":{"osm_id":"892457955","tag":{"amenity":"waste_basket","operational_status":"open","operator":"SANCO","operator_type":"private_non_profit"}},"type":"Feature"},
	{"geometry":{"coordinates":[-72.244586,18.660216],"type":"Point"},"properties":{"osm_id":"892457957","tag":{"amenity":"waste_basket","operational_status":"open","operator":"SANCO","operator_type":"private_non_profit"}},"type":"Feature"}
]
}
