{
"type": "FeatureCollection",
"lastupdate": "2020-08-02T00:00:00Z",
"features": [
	{"geometry":{"coordinates":[14.232335,50.983024],"type":"Point"},"properties":{"osm_id":"1314362433","tag":{"amenity":"recycling","recycling_type":"container"}},"type":"Feature"},
	{"geometry":{"coordinates":[14.213515,51.011685],"type":"Point"},"properties":{"osm_id":"1371318688","tag":{"amenity":"recycling"}},"type":"Feature"},
	{"geometry":{"coordinates":[14.201658,50.990509],"type":"Point"},"properties":{"osm_id":"1371318730","tag":{"amenity":"recycling"}},"type":"Feature"},
	{"geometry":{"coordinates":[14.202335,50.990457],"type":"Point"},"properties":{"osm_id":"2801312424","tag":{"amenity":"waste_basket"}},"type":"Feature"},
	{"geometry":{"coordinates":[14.202723,50.990938],"type":"Point"},"properties":{"osm_id":"2801312443","tag":{"amenity":"waste_basket"}},"type":"Feature"},
	{"geometry":{"coordinates":[14.20237,50.991077],"type":"Point"},"properties":{"osm_id":"2801312453","tag":{"amenity":"waste_basket"}},"type":"Feature"},
	{"geometry":{"coordinates":[14.16728,50.988213],"type":"Point"},"properties":{"osm_id":"2820977258","tag":{"amenity":"recycling","recycling:glass":"yes","recycling_type":"container"}},"type":"Feature"},
	{"geometry":{"coordinates":[14.205398,50.963868],"type":"Point"},"properties":{"osm_id":"2821260069","tag":{"amenity":"recycling","recycling:clothes":"yes","recycling:glass":"yes","recycling_type":"container"}},"type":"Feature"},
	{"geometry":{"coordinates":[14.187593,50.988616],"type":"Point"},"properties":{"osm_id":"3035342226","tag":{"amenity":"waste_basket","backrest":"yes","colour":"brown","material":"wood"}},"type":"Feature"},
	{"geometry":{"coordinates":[14.228154,51.00515],"type":"Point"},"properties":{"osm_id":"5075473688","tag":{"amenity":"waste_basket"}},"type":"Feature"},
	{"geometry":{"coordinates":[14.203941,50.984081],"type":"Point"},"properties":{"osm_id":"5077507764","tag":{"amenity":"waste_basket"}},"type":"Feature"},
	{"geometry":{"coordinates":[14.220872,51.004359],"type":"Point"},"properties":{"osm_id":"5077645337","tag":{"amenity":"waste_basket"}},"type":"Feature"}
]
}
