{
"type": "FeatureCollection",
"features": [
	{"geometry":{"coordinates":[14.170616,48.665132],"type":"Point"},"properties":{"osm_id":"6167639386","tag":{"amenity":"recycling"}},"type":"Feature"},
	{"geometry":{"coordinates":[14.16498,48.665427],"type":"Point"},"properties":{"name":"T\u00c5\u0099\u00c3\u00add\u00c4\u009bn\u00c3\u00a9 kontejnery","osm_id":"6169935386","tag":{"amenity":"recycling","recycling_type":"container"}},"type":"Feature"},
	{"geometry":{"coordinates":[14.164881,48.666873],"type":"Point"},"properties":{"osm_id":"6169940185","tag":{"amenity":"recycling","recycling_type":"container"}},"type":"Feature"},
	{"geometry":{"coordinates":[14.164462,48.666796],"type":"Point"},"properties":{"osm_id":"6169940285","tag":{"amenity":"waste_disposal","operator":"3x kontejner na sm\u00c4\u009bsn\u00c3\u00bd odpad"}},"type":"Feature"},
	{"geometry":{"coordinates":[14.16742,48.662322],"type":"Point"},"properties":{"osm_id":"6258611928","tag":{"amenity":"recycling","recycling_type":"container"}},"type":"Feature"},
	{"geometry":{"coordinates":[14.167752,48.661668],"type":"Point"},"properties":{"osm_id":"6258611929","tag":{"amenity":"recycling","recycling:glass":"yes","recycling_type":"container"}},"type":"Feature"},
	{"geometry":{"coordinates":[14.220077,48.642737],"type":"Point"},"properties":{"osm_id":"7676983700","tag":{"amenity":"recycling","recycling:aluminium":"yes","recycling:paper":"yes","recycling_type":"container"}},"type":"Feature"},
	{"geometry":{"coordinates":[14.220241,48.64268],"type":"Point"},"properties":{"osm_id":"7850777124","tag":{"amenity":"waste_basket","waste":"trash"}},"type":"Feature"},
	{"geometry":{"coordinates":[14.231,48.652892],"type":"Point"},"properties":{"osm_id":"7850777151","tag":{"amenity":"waste_basket","waste":"trash"}},"type":"Feature"},
	{"geometry":{"coordinates":[14.231252,48.652992],"type":"Point"},"properties":{"osm_id":"7850777156","tag":{"amenity":"waste_basket","waste":"trash"}},"type":"Feature"},
	{"geometry":{"coordinates":[14.23081,48.639557],"type":"Point"},"properties":{"osm_id":"9009823796","tag":{"amenity":"waste_basket","waste":"trash"}},"type":"Feature"},
	{"geometry":{"coordinates":[14.225026,48.640323],"type":"Point"},"properties":{"osm_id":"9010651696","tag":{"amenity":"waste_basket","waste":"trash"}},"type":"Feature"},
	{"geometry":{"coordinates":[14.224935,48.640546],"type":"Point"},"properties":{"osm_id":"9010651698","tag":{"amenity":"waste_basket","waste":"trash"}},"type":"Feature"}
]
}
