{
"type": "FeatureCollection",
"features": [
	{"geometry":{"coordinates":[14.183824,48.207598],"type":"Point"},"properties":{"osm_id":"476355074","tag":{"amenity":"recycling","recycling:glass":"yes"}},"type":"Feature"},
	{"geometry":{"coordinates":[14.189462,48.188761],"type":"Point"},"properties":{"name":"Altpapier + Plastik","osm_id":"518236139","tag":{"amenity":"recycling","recycling_type":"container"}},"type":"Feature"},
	{"geometry":{"coordinates":[14.18696,48.224166],"type":"Point"},"properties":{"osm_id":"581197470","tag":{"amenity":"recycling","recycling:glass":"yes","recycling_type":"container"}},"type":"Feature"},
	{"geometry":{"coordinates":[14.192282,48.218956],"type":"Point"},"properties":{"osm_id":"581216715","tag":{"amenity":"recycling","recycling:glass_bottles":"yes","recycling_type":"container"}},"type":"Feature"},
	{"geometry":{"coordinates":[14.197542,48.20991],"type":"Point"},"properties":{"osm_id":"1075339890","tag":{"amenity":"recycling","recycling:garden_waste":"yes"}},"type":"Feature"},
	{"geometry":{"coordinates":[14.194687,48.218111],"type":"Point"},"properties":{"osm_id":"1075340608","tag":{"amenity":"recycling","recycling:clothes":"yes","recycling:glass_bottles":"yes"}},"type":"Feature"},
	{"geometry":{"coordinates":[14.192493,48.218775],"type":"Point"},"properties":{"osm_id":"1075340612","tag":{"amenity":"recycling","recycling:glass_bottles":"yes","recycling_type":"container"}},"type":"Feature"},
	{"geometry":{"coordinates":[14.188888,48.217543],"type":"Point"},"properties":{"osm_id":"1076081103","tag":{"amenity":"recycling","recycling:garden_waste":"yes","recycling_type":"container"}},"type":"Feature"},
	{"geometry":{"coordinates":[14.23653,48.224325],"type":"Point"},"properties":{"osm_id":"1295825627","tag":{"amenity":"recycling","recycling:clothes":"yes","recycling_type":"container"}},"type":"Feature"},
	{"geometry":{"coordinates":[14.234675,48.18326],"type":"Point"},"properties":{"osm_id":"2311539395","tag":{"amenity":"recycling","recycling:cans":"no","recycling:clothes":"no","recycling:glass":"no","recycling:paper":"yes"}},"type":"Feature"},
	{"geometry":{"coordinates":[14.236072,48.224149],"type":"Point"},"properties":{"osm_id":"3433318216","tag":{"access":"private","amenity":"recycling","recycling_type":"container"}},"type":"Feature"},
	{"geometry":{"coordinates":[14.235264,48.222621],"type":"Point"},"properties":{"osm_id":"3457117177","tag":{"access":"private","amenity":"recycling","recycling_type":"container"}},"type":"Feature"},
	{"geometry":{"coordinates":[14.234877,48.223033],"type":"Point"},"properties":{"osm_id":"3457117182","tag":{"access":"private","amenity":"recycling","recycling_type":"container"}},"type":"Feature"},
	{"geometry":{"coordinates":[14.234732,48.223652],"type":"Point"},"properties":{"osm_id":"3457118396","tag":{"access":"private","amenity":"recycling","recycling_type":"container"}},"type":"Feature"},
	{"geometry":{"coordinates":[14.234059,48.224144],"type":"Point"},"properties":{"osm_id":"3457118403","tag":{"access":"private","amenity":"recycling","recycling_type":"container"}},"type":"Feature"},
	{"geometry":{"coordinates":[14.234618,48.224346],"type":"Point"},"properties":{"osm_id":"3457118411","tag":{"access":"private","amenity":"recycling","recycling_type":"container"}},"type":"Feature"},
	{"geometry":{"coordinates":[14.23228,48.217373],"type":"Point"},"properties":{"osm_id":"3460255131","tag":{"access":"private","amenity":"recycling","recycling_type":"container"}},"type":"Feature"},
	{"geometry":{"coordinates":[14.232024,48.217652],"type":"Point"},"properties":{"osm_id":"3460256386","tag":{"access":"private","amenity":"recycling","recycling_type":"container"}},"type":"Feature"},
	{"geometry":{"coordinates":[14.234284,48.218935],"type":"Point"},"properties":{"osm_id":"3460256834","tag":{"access":"private","amenity":"recycling","recycling_type":"container"}},"type":"Feature"},
	{"geometry":{"coordinates":[14.222819,48.219307],"type":"Point"},"properties":{"osm_id":"3463985567","tag":{"access":"private","amenity":"recycling","recycling_type":"container"}},"type":"Feature"},
	{"geometry":{"coordinates":[14.223756,48.21833],"type":"Point"},"properties":{"osm_id":"3463986956","tag":{"access":"private","amenity":"recycling","recycling_type":"container"}},"type":"Feature"},
	{"geometry":{"coordinates":[14.223993,48.218692],"type":"Point"},"properties":{"osm_id":"3463987018","tag":{"access":"private","amenity":"recycling","recycling_type":"container"}},"type":"Feature"},
	{"geometry":{"coordinates":[14.223377,48.218743],"type":"Point"},"properties":{"osm_id":"3463987028","tag":{"access":"private","amenity":"recycling","recycling_type":"container"}},"type":"Feature"},
	{"geometry":{"coordinates":[14.22464,48.219589],"type":"Point"},"properties":{"osm_id":"3463987140","tag":{"access":"private","amenity":"recycling","recycling_type":"container"}},"type":"Feature"},
	{"geometry":{"coordinates":[14.224131,48.219754],"type":"Point"},"properties":{"osm_id":"3463987159","tag":{"access":"private","amenity":"recycling","recycling_type":"container"}},"type":"Feature"},
	{"geometry":{"coordinates":[14.222896,48.217677],"type":"Point"},"properties":{"osm_id":"3464083758","tag":{"access":"private","amenity":"recycling","recycling_type":"container"}},"type":"Feature"},
	{"geometry":{"coordinates":[14.223333,48.217997],"type":"Point"},"properties":{"osm_id":"3464083784","tag":{"access":"private","amenity":"recycling","recycling_type":"container"}},"type":"Feature"},
	{"geometry":{"coordinates":[14.178366,48.224449],"type":"Point"},"properties":{"osm_id":"3538583565","tag":{"access":"private","amenity":"recycling","recycling_type":"container"}},"type":"Feature"},
	{"geometry":{"coordinates":[14.180949,48.224289],"type":"Point"},"properties":{"osm_id":"3542256330","tag":{"access":"private","amenity":"recycling","recycling_type":"container"}},"type":"Feature"},
	{"geometry":{"coordinates":[14.184943,48.192196],"type":"Point"},"properties":{"osm_id":"3689562415","tag":{"amenity":"waste_basket"}},"type":"Feature"},
	{"geometry":{"coordinates":[14.223767,48.207076],"type":"Point"},"properties":{"osm_id":"3689563413","tag":{"amenity":"waste_basket"}},"type":"Feature"},
	{"geometry":{"coordinates":[14.22446,48.207264],"type":"Point"},"properties":{"osm_id":"3689563416","tag":{"amenity":"waste_basket"}},"type":"Feature"},
	{"geometry":{"coordinates":[14.18929,48.189124],"type":"Point"},"properties":{"osm_id":"3690024891","tag":{"amenity":"waste_basket"}},"type":"Feature"},
	{"geometry":{"coordinates":[14.208973,48.211614],"type":"Point"},"properties":{"osm_id":"3696788817","tag":{"amenity":"waste_basket"}},"type":"Feature"},
	{"geometry":{"coordinates":[14.206993,48.222762],"type":"Point"},"properties":{"osm_id":"3696789025","tag":{"amenity":"waste_basket"}},"type":"Feature"},
	{"geometry":{"coordinates":[14.178872,48.221398],"type":"Point"},"properties":{"osm_id":"4456277857","tag":{"amenity":"recycling","recycling:clothes":"yes","recycling:shoes":"yes","recycling_type":"container"}},"type":"Feature"},
	{"geometry":{"coordinates":[14.162609,48.202371],"type":"Point"},"properties":{"osm_id":"4478733334","tag":{"amenity":"recycling","recycling:clothes":"yes","recycling_type":"container","wheelchair":"yes"}},"type":"Feature"},
	{"geometry":{"coordinates":[14.175669,48.222113],"type":"Point"},"properties":{"osm_id":"5387438626","tag":{"amenity":"recycling","recycling:glass":"yes","recycling_type":"container","wheelchair":"yes"}},"type":"Feature"},
	{"geometry":{"coordinates":[14.175461,48.222013],"type":"Point"},"properties":{"osm_id":"5387438627","tag":{"amenity":"recycling","opening_hours":"24/7","recycling:green_waste":"yes","recycling_type":"container","wheelchair":"yes"}},"type":"Feature"},
	{"geometry":{"coordinates":[14.187923,48.209551],"type":"Point"},"properties":{"osm_id":"5401373014","tag":{"amenity":"recycling","recycling:green_waste":"yes","recycling_type":"container"}},"type":"Feature"},
	{"geometry":{"coordinates":[14.195567,48.206652],"type":"Point"},"properties":{"osm_id":"5407962718","tag":{"amenity":"recycling","recycling:paper":"yes","recycling_type":"container"}},"type":"Feature"},
	{"geometry":{"coordinates":[14.194484,48.221072],"type":"Point"},"properties":{"osm_id":"5465358207","tag":{"amenity":"waste_basket","amenity_1":"vending_machine","fee":"no","payment:none":"yes","vending":"excrement_bags"}},"type":"Feature"},
	{"geometry":{"coordinates":[14.194478,48.221075],"type":"Point"},"properties":{"osm_id":"5465358208","tag":{"amenity":"waste_basket"}},"type":"Feature"},
	{"geometry":{"coordinates":[14.190391,48.218914],"type":"Point"},"properties":{"osm_id":"5465358215","tag":{"amenity":"waste_basket","amenity_1":"vending_machine","fee":"no","payment:none":"yes","vending":"excrement_bags"}},"type":"Feature"},
	{"geometry":{"coordinates":[14.209563,48.215746],"type":"Point"},"properties":{"osm_id":"5465362062","tag":{"amenity":"recycling","recycling:clothes":"yes","recycling:glass_bottles":"yes","recycling_type":"container"}},"type":"Feature"},
	{"geometry":{"coordinates":[14.181422,48.211789],"type":"Point"},"properties":{"osm_id":"5546068595","tag":{"amenity":"waste_basket"}},"type":"Feature"},
	{"geometry":{"coordinates":[14.1937,48.220954],"type":"Point"},"properties":{"osm_id":"5579677583","tag":{"amenity":"recycling","recycling:paper":"yes","recycling_type":"container"}},"type":"Feature"},
	{"geometry":{"coordinates":[14.191034,48.223777],"type":"Point"},"properties":{"osm_id":"6676022200","tag":{"amenity":"waste_basket"}},"type":"Feature"},
	{"geometry":{"coordinates":[14.187903,48.2013],"type":"Point"},"properties":{"osm_id":"7035815543","tag":{"amenity":"waste_basket"}},"type":"Feature"},
	{"geometry":{"coordinates":[14.207967,48.201848],"type":"Point"},"properties":{"osm_id":"7035815565","tag":{"amenity":"waste_basket"}},"type":"Feature"},
	{"geometry":{"coordinates":[14.200527,48.217735],"type":"Point"},"properties":{"osm_id":"7049064203","tag":{"amenity":"waste_basket"}},"type":"Feature"},
	{"geometry":{"coordinates":[14.201548,48.217058],"type":"Point"},"properties":{"osm_id":"7049064205","tag":{"amenity":"waste_basket"}},"type":"Feature"},
	{"geometry":{"coordinates":[14.20269,48.2163],"type":"Point"},"properties":{"osm_id":"7049064207","tag":{"amenity":"waste_basket"}},"type":"Feature"},
	{"geometry":{"coordinates":[14.208403,48.216962],"type":"Point"},"properties":{"osm_id":"7049064233","tag":{"amenity":"waste_basket"}},"type":"Feature"}
]
}
