{
"type": "FeatureCollection",
"features": [
	{"geometry":{"coordinates":[14.20728,45.77207],"type":"Point"},"properties":{"osm_id":"4916789399","tag":{"amenity":"waste_basket"}},"type":"Feature"},
	{"geometry":{"coordinates":[14.205618,45.772036],"type":"Point"},"properties":{"osm_id":"4916789401","tag":{"amenity":"recycling","recycling_type":"container"}},"type":"Feature"},
	{"geometry":{"coordinates":[14.205325,45.771732],"type":"Point"},"properties":{"osm_id":"4916789402","tag":{"amenity":"waste_basket"}},"type":"Feature"},
	{"geometry":{"coordinates":[14.202811,45.771383],"type":"Point"},"properties":{"osm_id":"4916789407","tag":{"amenity":"waste_basket"}},"type":"Feature"},
	{"geometry":{"coordinates":[14.197783,45.770357],"type":"Point"},"properties":{"osm_id":"4931350368","tag":{"amenity":"waste_basket"}},"type":"Feature"},
	{"geometry":{"coordinates":[14.193624,45.771208],"type":"Point"},"properties":{"osm_id":"4931400522","tag":{"amenity":"waste_basket"}},"type":"Feature"},
	{"geometry":{"coordinates":[14.193354,45.771636],"type":"Point"},"properties":{"osm_id":"4931400523","tag":{"amenity":"waste_basket"}},"type":"Feature"},
	{"geometry":{"coordinates":[14.193167,45.771912],"type":"Point"},"properties":{"osm_id":"4931400527","tag":{"amenity":"waste_basket"}},"type":"Feature"},
	{"geometry":{"coordinates":[14.193674,45.771042],"type":"Point"},"properties":{"osm_id":"4931400545","tag":{"amenity":"waste_basket"}},"type":"Feature"},
	{"geometry":{"coordinates":[14.19332,45.77068],"type":"Point"},"properties":{"osm_id":"4931400548","tag":{"amenity":"waste_basket"}},"type":"Feature"},
	{"geometry":{"coordinates":[14.178356,45.778429],"type":"Point"},"properties":{"osm_id":"4938064071","tag":{"amenity":"recycling","recycling_type":"container"}},"type":"Feature"},
	{"geometry":{"coordinates":[14.208744,45.783351],"type":"Point"},"properties":{"osm_id":"5131045181","tag":{"amenity":"waste_basket"}},"type":"Feature"},
	{"geometry":{"coordinates":[14.208393,45.782515],"type":"Point"},"properties":{"osm_id":"5131085559","tag":{"amenity":"waste_basket"}},"type":"Feature"},
	{"geometry":{"coordinates":[14.212098,45.777175],"type":"Point"},"properties":{"osm_id":"5131131917","tag":{"amenity":"waste_basket"}},"type":"Feature"},
	{"geometry":{"coordinates":[14.208351,45.780833],"type":"Point"},"properties":{"osm_id":"5131183060","tag":{"amenity":"waste_basket"}},"type":"Feature"},
	{"geometry":{"coordinates":[14.210076,45.781736],"type":"Point"},"properties":{"osm_id":"5131183079","tag":{"amenity":"waste_basket"}},"type":"Feature"},
	{"geometry":{"coordinates":[14.211439,45.774395],"type":"Point"},"properties":{"osm_id":"5133671639","tag":{"amenity":"recycling","recycling_type":"container"}},"type":"Feature"},
	{"geometry":{"coordinates":[14.213131,45.774645],"type":"Point"},"properties":{"osm_id":"5133671723","tag":{"amenity":"waste_basket"}},"type":"Feature"},
	{"geometry":{"coordinates":[14.212937,45.774412],"type":"Point"},"properties":{"osm_id":"5133671731","tag":{"amenity":"waste_basket"}},"type":"Feature"},
	{"geometry":{"coordinates":[14.213243,45.774414],"type":"Point"},"properties":{"osm_id":"5133671733","tag":{"amenity":"waste_basket"}},"type":"Feature"},
	{"geometry":{"coordinates":[14.213387,45.774471],"type":"Point"},"properties":{"osm_id":"5133671735","tag":{"amenity":"waste_basket"}},"type":"Feature"},
	{"geometry":{"coordinates":[14.213469,45.774639],"type":"Point"},"properties":{"osm_id":"5133671739","tag":{"amenity":"waste_basket"}},"type":"Feature"},
	{"geometry":{"coordinates":[14.212986,45.775317],"type":"Point"},"properties":{"osm_id":"5133711138","tag":{"amenity":"waste_basket"}},"type":"Feature"},
	{"geometry":{"coordinates":[14.21105,45.775424],"type":"Point"},"properties":{"osm_id":"5133756559","tag":{"amenity":"waste_basket"}},"type":"Feature"},
	{"geometry":{"coordinates":[14.207171,45.773483],"type":"Point"},"properties":{"osm_id":"5133814553","tag":{"amenity":"waste_basket"}},"type":"Feature"},
	{"geometry":{"coordinates":[14.20083,45.772372],"type":"Point"},"properties":{"osm_id":"5149671796","tag":{"amenity":"waste_basket","waste":"dog_excrement"}},"type":"Feature"},
	{"geometry":{"coordinates":[14.200857,45.772367],"type":"Point"},"properties":{"osm_id":"5149671797","tag":{"amenity":"waste_basket"}},"type":"Feature"},
	{"geometry":{"coordinates":[14.20029,45.772239],"type":"Point"},"properties":{"osm_id":"5149671800","tag":{"amenity":"waste_basket","waste":"dog_excrement"}},"type":"Feature"},
	{"geometry":{"coordinates":[14.200368,45.772247],"type":"Point"},"properties":{"osm_id":"5149671801","tag":{"amenity":"waste_basket"}},"type":"Feature"},
	{"geometry":{"coordinates":[14.212789,45.775476],"type":"Point"},"properties":{"osm_id":"5158040952","tag":{"amenity":"waste_basket"}},"type":"Feature"},
	{"geometry":{"coordinates":[14.215284,45.767872],"type":"Point"},"properties":{"osm_id":"5196898647","tag":{"amenity":"recycling","recycling:biodegradable":"yes","recycling:clothes":"yes","recycling:glass":"yes","recycling:paper":"yes","recycling:plastic":"yes","recycling_type":"container"}},"type":"Feature"},
	{"geometry":{"coordinates":[14.214607,45.768644],"type":"Point"},"properties":{"osm_id":"5196963537","tag":{"amenity":"waste_basket"}},"type":"Feature"},
	{"geometry":{"coordinates":[14.215085,45.769927],"type":"Point"},"properties":{"osm_id":"5197103718","tag":{"amenity":"recycling","recycling:glass":"yes","recycling:paper":"yes","recycling:plastic":"yes","recycling_type":"container"}},"type":"Feature"},
	{"geometry":{"coordinates":[14.217453,45.768157],"type":"Point"},"properties":{"osm_id":"5197140236","tag":{"amenity":"waste_basket"}},"type":"Feature"},
	{"geometry":{"coordinates":[14.217911,45.768895],"type":"Point"},"properties":{"osm_id":"5197170718","tag":{"amenity":"recycling","recycling:glass":"yes","recycling:paper":"yes","recycling:plastic":"yes","recycling_type":"container"}},"type":"Feature"},
	{"geometry":{"coordinates":[14.218454,45.770411],"type":"Point"},"properties":{"osm_id":"5197208305","tag":{"amenity":"recycling","recycling:biodegradable":"yes","recycling:paper":"yes","recycling:plastic":"yes","recycling_type":"container"}},"type":"Feature"},
	{"geometry":{"coordinates":[14.218528,45.770454],"type":"Point"},"properties":{"osm_id":"5197208317","tag":{"amenity":"waste_basket"}},"type":"Feature"},
	{"geometry":{"coordinates":[14.217325,45.770717],"type":"Point"},"properties":{"osm_id":"5197208386","tag":{"amenity":"recycling","recycling:biodegradable":"yes","recycling:plastic":"yes","recycling_type":"container"}},"type":"Feature"},
	{"geometry":{"coordinates":[14.217812,45.770712],"type":"Point"},"properties":{"osm_id":"5197208393","tag":{"amenity":"recycling","recycling_type":"container"}},"type":"Feature"},
	{"geometry":{"coordinates":[14.218813,45.770764],"type":"Point"},"properties":{"osm_id":"5197218271","tag":{"amenity":"recycling","recycling:glass":"yes","recycling:paper":"yes","recycling:plastic":"yes","recycling_type":"container"}},"type":"Feature"},
	{"geometry":{"coordinates":[14.217465,45.770086],"type":"Point"},"properties":{"osm_id":"5197240742","tag":{"amenity":"recycling","recycling_type":"container"}},"type":"Feature"},
	{"geometry":{"coordinates":[14.21323,45.768069],"type":"Point"},"properties":{"osm_id":"5209287138","tag":{"amenity":"recycling","recycling:glass":"yes","recycling:paper":"yes","recycling:plastic":"yes","recycling_type":"container"}},"type":"Feature"},
	{"geometry":{"coordinates":[14.158986,45.776949],"type":"Point"},"properties":{"osm_id":"5238285933","tag":{"amenity":"recycling","recycling:clothes":"yes","recycling:glass":"yes","recycling:paper":"yes","recycling:plastic":"yes","recycling_type":"container"}},"type":"Feature"},
	{"geometry":{"coordinates":[14.213848,45.767938],"type":"Point"},"properties":{"osm_id":"5259843590","tag":{"amenity":"waste_basket"}},"type":"Feature"},
	{"geometry":{"coordinates":[14.21444,45.768805],"type":"Point"},"properties":{"osm_id":"5259844072","tag":{"amenity":"waste_basket"}},"type":"Feature"},
	{"geometry":{"coordinates":[14.213983,45.7703],"type":"Point"},"properties":{"osm_id":"5625089388","tag":{"amenity":"recycling","recycling_type":"container"}},"type":"Feature"},
	{"geometry":{"coordinates":[14.213971,45.772092],"type":"Point"},"properties":{"osm_id":"5641457836","tag":{"amenity":"recycling","recycling_type":"container"}},"type":"Feature"},
	{"geometry":{"coordinates":[14.22148,45.786278],"type":"Point"},"properties":{"osm_id":"5734366974","tag":{"amenity":"waste_basket"}},"type":"Feature"},
	{"geometry":{"coordinates":[14.211442,45.773154],"type":"Point"},"properties":{"osm_id":"5757172401","tag":{"amenity":"recycling","recycling_type":"container"}},"type":"Feature"},
	{"geometry":{"coordinates":[14.201609,45.772652],"type":"Point"},"properties":{"osm_id":"5766706169","tag":{"amenity":"waste_basket"}},"type":"Feature"},
	{"geometry":{"coordinates":[14.201945,45.774108],"type":"Point"},"properties":{"osm_id":"5808431473","tag":{"amenity":"recycling","recycling_type":"container"}},"type":"Feature"},
	{"geometry":{"coordinates":[14.205672,45.772271],"type":"Point"},"properties":{"osm_id":"6246241936","tag":{"amenity":"waste_disposal"}},"type":"Feature"},
	{"geometry":{"coordinates":[14.203871,45.771447],"type":"Point"},"properties":{"osm_id":"6246241937","tag":{"amenity":"waste_basket"}},"type":"Feature"},
	{"geometry":{"coordinates":[14.21214,45.771023],"type":"Point"},"properties":{"osm_id":"8756630070","tag":{"amenity":"recycling","recycling_type":"container"}},"type":"Feature"},
	{"geometry":{"coordinates":[14.201131,45.773144],"type":"Point"},"properties":{"osm_id":"8756630086","tag":{"amenity":"recycling","recycling_type":"container"}},"type":"Feature"},
	{"geometry":{"coordinates":[14.210069,45.777262],"type":"Point"},"properties":{"osm_id":"8822293404","tag":{"amenity":"recycling","recycling_type":"container"}},"type":"Feature"},
	{"geometry":{"coordinates":[14.217301,45.771514],"type":"Point"},"properties":{"osm_id":"9197937175","tag":{"amenity":"recycling","recycling_type":"container"}},"type":"Feature"}
]
}
