{
"type": "FeatureCollection",
"features": [
	{"geometry":{"coordinates":[14.187482,42.471501],"type":"Point"},"properties":{"osm_id":"135055548","tag":{"amenity":"recycling","recycling:glass_bottles":"yes","recycling:paper":"yes"}},"type":"Feature"},
	{"geometry":{"coordinates":[14.186451,42.484503],"type":"Point"},"properties":{"osm_id":"530563177","tag":{"amenity":"recycling","operator":"Attiva","recycling:bottles":"yes","recycling:paper":"yes","recycling:plastic":"yes","recycling_type":"container"}},"type":"Feature"},
	{"geometry":{"coordinates":[14.196505,42.462505],"type":"Point"},"properties":{"osm_id":"622196425","tag":{"amenity":"recycling","recycling:aluminium":"yes","recycling:bottles":"yes","recycling:paper":"yes","recycling:plastic":"yes"}},"type":"Feature"},
	{"geometry":{"coordinates":[14.190667,42.464907],"type":"Point"},"properties":{"osm_id":"622197683","tag":{"amenity":"recycling"}},"type":"Feature"},
	{"geometry":{"coordinates":[14.193635,42.480544],"type":"Point"},"properties":{"osm_id":"979885922","tag":{"amenity":"recycling","recycling:clothes":"yes","recycling:cooking_oil":"yes","recycling_type":"container"}},"type":"Feature"},
	{"geometry":{"coordinates":[14.179375,42.471005],"type":"Point"},"properties":{"osm_id":"979900793","tag":{"amenity":"recycling","recycling:cooking_oil":"yes"}},"type":"Feature"},
	{"geometry":{"coordinates":[14.188895,42.472949],"type":"Point"},"properties":{"osm_id":"2612834904","tag":{"amenity":"recycling","recycling:cans":"yes","recycling:clothes":"no","recycling:glass":"yes","recycling:paper":"yes"}},"type":"Feature"},
	{"geometry":{"coordinates":[14.206991,42.470398],"type":"Point"},"properties":{"name":"Isola Ecologica","osm_id":"3081860817","tag":{"amenity":"recycling","recycling:cans":"yes","recycling:glass":"yes","recycling:glass_bottles":"yes","recycling:paper":"yes","recycling_type":"container"}},"type":"Feature"},
	{"geometry":{"coordinates":[14.187607,42.472356],"type":"Point"},"properties":{"name":"Isola ecologica","osm_id":"3544929830","tag":{"amenity":"recycling","recycling_type":"centre"}},"type":"Feature"},
	{"geometry":{"coordinates":[14.202411,42.474406],"type":"Point"},"properties":{"osm_id":"5646368630","tag":{"amenity":"recycling","recycling:waste":"yes","recycling_type":"container"}},"type":"Feature"},
	{"geometry":{"coordinates":[14.18671,42.423603],"type":"Point"},"properties":{"osm_id":"6749921015","tag":{"amenity":"waste_basket","waste":"dog_excrement"}},"type":"Feature"},
	{"geometry":{"coordinates":[14.186498,42.423584],"type":"Point"},"properties":{"osm_id":"6782387467","tag":{"amenity":"recycling","colour":"green","covered":"no","indoor":"no","recycling:clothes":"yes","recycling:shoes":"yes","recycling_type":"container"}},"type":"Feature"},
	{"geometry":{"coordinates":[14.184979,42.424919],"type":"Point"},"properties":{"osm_id":"6782387469","tag":{"amenity":"recycling","colour":"yellow","recycling:oil":"yes","recycling_type":"container"}},"type":"Feature"},
	{"geometry":{"coordinates":[14.190611,42.423858],"type":"Point"},"properties":{"osm_id":"6790033309","tag":{"amenity":"recycling","recycling:oil":"yes","recycling_type":"centre"}},"type":"Feature"},
	{"geometry":{"coordinates":[14.171327,42.42479],"type":"Point"},"properties":{"osm_id":"6791193121","tag":{"amenity":"recycling","colour":"green","covered":"no","indoor":"no","recycling:clothes":"yes","recycling:shoes":"yes","recycling_type":"container"}},"type":"Feature"},
	{"geometry":{"coordinates":[14.171347,42.424802],"type":"Point"},"properties":{"osm_id":"6791193122","tag":{"amenity":"recycling","colour":"green","covered":"no","indoor":"no","recycling:clothes":"yes","recycling:shoes":"yes","recycling_type":"container"}},"type":"Feature"},
	{"geometry":{"coordinates":[14.171364,42.424813],"type":"Point"},"properties":{"osm_id":"6791193123","tag":{"amenity":"recycling","colour":"green","covered":"no","indoor":"no","recycling:clothes":"yes","recycling:shoes":"yes","recycling_type":"container"}},"type":"Feature"},
	{"geometry":{"coordinates":[14.171616,42.425021],"type":"Point"},"properties":{"osm_id":"6793267303","tag":{"amenity":"recycling","colour":"yellow","recycling:oil":"yes","recycling_type":"container"}},"type":"Feature"},
	{"geometry":{"coordinates":[14.216901,42.458323],"type":"Point"},"properties":{"osm_id":"7004555451","tag":{"addr:city":"Pescara","addr:housenumber":"66","addr:street":"Via dei Sabini","amenity":"recycling","recycling:aluminium":"yes","recycling:cans":"yes","recycling:cartons":"yes","recycling:glass":"yes","recycling:glass_bottles":"yes","recycling:paper":"yes","recycling:paper_packaging":"yes","recycling:plastic":"yes","recycling:plastic_packaging":"yes","recycling:waste":"yes","recycling_type":"container"}},"type":"Feature"},
	{"geometry":{"coordinates":[14.214214,42.459337],"type":"Point"},"properties":{"osm_id":"7043195585","tag":{"amenity":"recycling","recycling:cans":"yes","recycling:glass":"yes","recycling:oil":"yes","recycling:oils":"yes","recycling:plastic":"yes","recycling_type":"container"}},"type":"Feature"},
	{"geometry":{"coordinates":[14.215868,42.457015],"type":"Point"},"properties":{"osm_id":"7062599219","tag":{"amenity":"recycling","recycling:cans":"yes","recycling:cartons":"yes","recycling:glass":"yes","recycling:glass_bottles":"yes","recycling:magazines":"yes","recycling:newspaper":"yes","recycling:paper":"yes","recycling:paper_packaging":"yes","recycling:plastic":"yes","recycling:plastic_bottles":"yes","recycling:plastic_packaging":"yes","recycling:waste":"yes","recycling_type":"container"}},"type":"Feature"},
	{"geometry":{"coordinates":[14.222953,42.461851],"type":"Point"},"properties":{"osm_id":"7576159481","tag":{"amenity":"recycling","recycling:cans":"yes","recycling:cartons":"yes","recycling:glass":"yes","recycling:glass_bottles":"yes","recycling:newspaper":"yes","recycling:paper":"yes","recycling:plastic":"yes","recycling:plastic_bottles":"yes","recycling:plastic_packaging":"yes","recycling:waste":"yes","recycling_type":"container"}},"type":"Feature"},
	{"geometry":{"coordinates":[14.221489,42.453002],"type":"Point"},"properties":{"osm_id":"7606933402","tag":{"amenity":"recycling","opening_hours":"24/7","recycling:beverage_cartons":"yes","recycling:cans":"yes","recycling:cardboard":"yes","recycling:cartons":"yes","recycling:glass":"yes","recycling:glass_bottles":"yes","recycling:magazines":"yes","recycling:newspaper":"yes","recycling:paper":"yes","recycling:paper_packaging":"yes","recycling:plastic":"yes","recycling:plastic_bottles":"yes","recycling:plastic_packaging":"yes","recycling:waste":"yes","recycling_type":"container"}},"type":"Feature"},
	{"geometry":{"coordinates":[14.220023,42.453292],"type":"Point"},"properties":{"osm_id":"7606934833","tag":{"amenity":"recycling","opening_hours":"24/7","recycling:beverage_cartons":"yes","recycling:cans":"yes","recycling:cardboard":"yes","recycling:cartons":"yes","recycling:glass":"yes","recycling:glass_bottles":"yes","recycling:magazines":"yes","recycling:newspaper":"yes","recycling:paper":"yes","recycling:paper_packaging":"yes","recycling:plastic":"yes","recycling:plastic_bottles":"yes","recycling:plastic_packaging":"yes","recycling:waste":"yes","recycling_type":"container"}},"type":"Feature"},
	{"geometry":{"coordinates":[14.18529,42.424753],"type":"Point"},"properties":{"osm_id":"7612561388","tag":{"amenity":"waste_basket","colour":"yellow","material":"metal","waste":"mixed"}},"type":"Feature"},
	{"geometry":{"coordinates":[14.18688,42.423491],"type":"Point"},"properties":{"osm_id":"7634695191","tag":{"amenity":"waste_basket","colour":"yellow","material":"metal","waste":"trash"}},"type":"Feature"},
	{"geometry":{"coordinates":[14.171525,42.424961],"type":"Point"},"properties":{"osm_id":"7780350264","tag":{"amenity":"waste_basket","waste":"dog_excrement"}},"type":"Feature"},
	{"geometry":{"coordinates":[14.188691,42.424402],"type":"Point"},"properties":{"osm_id":"7795077404","tag":{"amenity":"waste_basket","waste":"dog_excrement"}},"type":"Feature"},
	{"geometry":{"coordinates":[14.187473,42.427072],"type":"Point"},"properties":{"osm_id":"7834319776","tag":{"amenity":"waste_basket","waste":"dog_excrement"}},"type":"Feature"},
	{"geometry":{"coordinates":[14.211107,42.45354],"type":"Point"},"properties":{"osm_id":"7867463538","tag":{"amenity":"recycling","recycling:paper":"yes","recycling_type":"container"}},"type":"Feature"},
	{"geometry":{"coordinates":[14.20978,42.454587],"type":"Point"},"properties":{"osm_id":"7885021475","tag":{"amenity":"waste_basket","material":"steel"}},"type":"Feature"},
	{"geometry":{"coordinates":[14.209657,42.454358],"type":"Point"},"properties":{"osm_id":"7885021479","tag":{"amenity":"waste_basket","material":"steel"}},"type":"Feature"},
	{"geometry":{"coordinates":[14.20981,42.454338],"type":"Point"},"properties":{"osm_id":"7885021480","tag":{"amenity":"waste_basket","material":"steel"}},"type":"Feature"},
	{"geometry":{"coordinates":[14.209281,42.459596],"type":"Point"},"properties":{"osm_id":"7953617942","tag":{"amenity":"waste_basket","operator":"Attiva","waste":"mixed"}},"type":"Feature"},
	{"geometry":{"coordinates":[14.208841,42.458731],"type":"Point"},"properties":{"osm_id":"7953662490","tag":{"amenity":"waste_basket","operator":"Attiva","waste":"mixed"}},"type":"Feature"},
	{"geometry":{"coordinates":[14.191529,42.47556],"type":"Point"},"properties":{"osm_id":"7954471266","tag":{"amenity":"waste_basket","colour":"black","material":"wood","operator":"Attiva","waste":"mixed"}},"type":"Feature"},
	{"geometry":{"coordinates":[14.192864,42.474132],"type":"Point"},"properties":{"osm_id":"7954501455","tag":{"amenity":"waste_basket","colour":"green","material":"plastic","operator":"Attiva","waste":"mixed"}},"type":"Feature"},
	{"geometry":{"coordinates":[14.191844,42.475438],"type":"Point"},"properties":{"osm_id":"7959962892","tag":{"amenity":"waste_basket","colour":"black","material":"wood","operator":"Attiva","waste":"mixed"}},"type":"Feature"},
	{"geometry":{"coordinates":[14.190634,42.465031],"type":"Point"},"properties":{"osm_id":"7966021636","tag":{"amenity":"waste_basket","waste":"dog_excrement"}},"type":"Feature"},
	{"geometry":{"coordinates":[14.175451,42.480672],"type":"Point"},"properties":{"name":"Isola Ecologica","osm_id":"7980585714","tag":{"addr:city":"Pescara","addr:street":"Strada Fonte Borea - Colle del Telegrafo","amenity":"recycling","operator":"Attiva","operator:type":"public","recycling_type":"centre"}},"type":"Feature"},
	{"geometry":{"coordinates":[14.175148,42.482033],"type":"Point"},"properties":{"osm_id":"7980585715","tag":{"addr:city":"Pescara","addr:street":"Strada Fonte Borea - Colle del Telegrafo","amenity":"recycling","operator":"Attiva","operator:type":"public","recycling_type":"centre"}},"type":"Feature"},
	{"geometry":{"coordinates":[14.176604,42.479232],"type":"Point"},"properties":{"osm_id":"7980585721","tag":{"amenity":"waste_basket","colour":"black","material":"plastic","operator":"Attiva","waste":"mixed"}},"type":"Feature"},
	{"geometry":{"coordinates":[14.164166,42.478115],"type":"Point"},"properties":{"name":"Isola Ecologica","osm_id":"7981279998","tag":{"addr:city":"Pescara","addr:street":"Via di Sotto","amenity":"recycling","operator":"Attiva","operator:type":"public","recycling:batteries":"yes","recycling:glass":"yes","recycling:green_waste":"yes","recycling:paper":"yes","recycling:plastic":"yes","recycling_type":"centre"}},"type":"Feature"},
	{"geometry":{"coordinates":[14.184843,42.464701],"type":"Point"},"properties":{"osm_id":"7982176169","tag":{"amenity":"recycling","last_checked":"2020-10-13","operator":"Attiva","recycling:batteries":"yes","recycling_type":"container"}},"type":"Feature"},
	{"geometry":{"coordinates":[14.188684,42.463105],"type":"Point"},"properties":{"osm_id":"7982279088","tag":{"amenity":"waste_basket","colour":"orange","material":"wood","waste":"mixed"}},"type":"Feature"},
	{"geometry":{"coordinates":[14.196975,42.470546],"type":"Point"},"properties":{"osm_id":"7982367992","tag":{"amenity":"waste_basket","colour":"black","waste":"dog_excrement"}},"type":"Feature"},
	{"geometry":{"coordinates":[14.193036,42.469743],"type":"Point"},"properties":{"osm_id":"7987871885","tag":{"amenity":"waste_basket","colour":"green","material":"plastic","operator":"Attiva","waste":"mixed"}},"type":"Feature"},
	{"geometry":{"coordinates":[14.184866,42.466709],"type":"Point"},"properties":{"osm_id":"7992636746","tag":{"addr:city":"Pescara","addr:street":"Strada vecchia della Madonna","amenity":"recycling","building":"containers","operator":"Attiva","operator:type":"public","recycling:bio_waste":"yes","recycling:glass":"yes","recycling:glass_bottles":"yes","recycling:paper":"yes","recycling:plastic":"yes","recycling:waste":"yes","recycling_type":"centre"}},"type":"Feature"},
	{"geometry":{"coordinates":[14.16053,42.479582],"type":"Point"},"properties":{"name":"Isola EcologiCA","osm_id":"8014074239","tag":{"addr:city":"Pescara","addr:street":"Via di Sotto","amenity":"recycling","operator":"Attiva","operator:type":"public","recycling:batteries":"yes","recycling:clothes":"yes","recycling:vegetable_oil":"yes","recycling_type":"centre"}},"type":"Feature"},
	{"geometry":{"coordinates":[14.23579,42.456995],"type":"Point"},"properties":{"osm_id":"8044627092","tag":{"amenity":"waste_basket","colour":"green","material":"plastic","operator":"Attiva","shape":"round","waste":"mixed"}},"type":"Feature"},
	{"geometry":{"coordinates":[14.236076,42.456495],"type":"Point"},"properties":{"osm_id":"8044627093","tag":{"amenity":"waste_basket","colour":"rust","material":"steel","operator":"Attiv","shape":"rectangular","waste":"mixed"}},"type":"Feature"},
	{"geometry":{"coordinates":[14.236043,42.456586],"type":"Point"},"properties":{"osm_id":"8044627094","tag":{"amenity":"waste_basket","colour":"rust","material":"steel","operator":"Attiv","shape":"rectangular","waste":"mixed"}},"type":"Feature"},
	{"geometry":{"coordinates":[14.235925,42.456949],"type":"Point"},"properties":{"osm_id":"8044627095","tag":{"amenity":"waste_basket","colour":"rust","material":"steel","operator":"Attiv","shape":"rectangular","waste":"mixed"}},"type":"Feature"},
	{"geometry":{"coordinates":[14.235892,42.45706],"type":"Point"},"properties":{"osm_id":"8044655459","tag":{"amenity":"waste_basket","colour":"green","material":"plastic","operator":"Attiva","shape":"round","waste":"mixed"}},"type":"Feature"},
	{"geometry":{"coordinates":[14.23613,42.456798],"type":"Point"},"properties":{"osm_id":"8044655477","tag":{"amenity":"waste_basket","colour":"rust","material":"steel","operator":"Attiv","shape":"rectangular","waste":"mixed"}},"type":"Feature"},
	{"geometry":{"coordinates":[14.218233,42.466983],"type":"Point"},"properties":{"osm_id":"8083834335","tag":{"amenity":"waste_basket","waste":"dog_excrement"}},"type":"Feature"},
	{"geometry":{"coordinates":[14.230022,42.459624],"type":"Point"},"properties":{"osm_id":"8212647165","tag":{"amenity":"waste_basket","waste":"trash"}},"type":"Feature"},
	{"geometry":{"coordinates":[14.229829,42.459763],"type":"Point"},"properties":{"osm_id":"8212647166","tag":{"amenity":"waste_basket","waste":"trash"}},"type":"Feature"},
	{"geometry":{"coordinates":[14.228806,42.460768],"type":"Point"},"properties":{"osm_id":"8212682643","tag":{"amenity":"waste_basket","waste":"trash"}},"type":"Feature"},
	{"geometry":{"coordinates":[14.228623,42.461009],"type":"Point"},"properties":{"osm_id":"8212682644","tag":{"amenity":"waste_basket","waste":"trash"}},"type":"Feature"},
	{"geometry":{"coordinates":[14.228773,42.460762],"type":"Point"},"properties":{"osm_id":"8212682645","tag":{"amenity":"waste_basket","waste":"dog_excrement"}},"type":"Feature"}
]
}
