{
"type": "FeatureCollection",
"features": [
	{"geometry":{"coordinates":[14.167948,42.347044],"type":"Point"},"properties":{"osm_id":"7980635662","tag":{"amenity":"waste_basket"}},"type":"Feature"},
	{"geometry":{"coordinates":[14.165779,42.350742],"type":"Point"},"properties":{"osm_id":"8227735885","tag":{"amenity":"waste_basket","colour":"yellow;black;green;blue","material":"plastic","waste":"plastic;paper;metal;mixed"}},"type":"Feature"},
	{"geometry":{"coordinates":[14.168591,42.340966],"type":"Point"},"properties":{"osm_id":"8507994804","tag":{"amenity":"waste_basket","colour":"green","material":"metal"}},"type":"Feature"},
	{"geometry":{"coordinates":[14.229668,42.295131],"type":"Point"},"properties":{"osm_id":"8707315412","tag":{"amenity":"recycling","opening_hours":"Mo-Sa 09:00-19:00","recycling:medicines":"yes","recycling_type":"container"}},"type":"Feature"},
	{"geometry":{"coordinates":[14.229662,42.295123],"type":"Point"},"properties":{"osm_id":"8707315413","tag":{"amenity":"recycling","opening_hours":"Mo-Sa 09:00-19:00","recycling:medicines":"yes","recycling_type":"container"}},"type":"Feature"},
	{"geometry":{"coordinates":[14.181322,42.301654],"type":"Point"},"properties":{"osm_id":"9100539011","tag":{"amenity":"waste_basket","colour":"brown","waste":"mixed"}},"type":"Feature"}
]
}
