{
"type": "FeatureCollection",
"features": [
	{"geometry":{"coordinates":[14.223295,40.890496],"type":"Point"},"properties":{"osm_id":"7475482692","tag":{"amenity":"waste_basket","colour":"gray","material":"metal","waste":"trash"}},"type":"Feature"},
	{"geometry":{"coordinates":[14.223383,40.890592],"type":"Point"},"properties":{"osm_id":"7475482693","tag":{"amenity":"waste_basket","colour":"gray","material":"metal","waste":"trash"}},"type":"Feature"},
	{"geometry":{"coordinates":[14.202011,40.911479],"type":"Point"},"properties":{"osm_id":"7815580392","tag":{"amenity":"recycling","colour":"orange","recycling:clothes":"yes","recycling_type":"container"}},"type":"Feature"},
	{"geometry":{"coordinates":[14.222027,40.91075],"type":"Point"},"properties":{"osm_id":"7815580393","tag":{"amenity":"recycling","recycling:batteries":"yes","recycling_type":"container"}},"type":"Feature"},
	{"geometry":{"coordinates":[14.195839,40.910708],"type":"Point"},"properties":{"osm_id":"7815580395","tag":{"amenity":"recycling","colour":"orange","recycling:clothes":"yes","recycling_type":"container"}},"type":"Feature"},
	{"geometry":{"coordinates":[14.222027,40.910757],"type":"Point"},"properties":{"osm_id":"7815580396","tag":{"addr:street":"Via Francesco Crispi","amenity":"recycling","recycling:low_energy_bulbs":"yes","recycling_type":"container"}},"type":"Feature"},
	{"geometry":{"coordinates":[14.222021,40.910754],"type":"Point"},"properties":{"osm_id":"7815580397","tag":{"amenity":"recycling","recycling:small_appliances":"yes","recycling_type":"container"}},"type":"Feature"},
	{"geometry":{"coordinates":[14.195344,40.903919],"type":"Point"},"properties":{"osm_id":"7815580399","tag":{"amenity":"recycling","colour":"orange","recycling:clothes":"yes","recycling_type":"container"}},"type":"Feature"},
	{"geometry":{"coordinates":[14.195324,40.903564],"type":"Point"},"properties":{"osm_id":"7816066211","tag":{"amenity":"waste_basket","waste":"trash"}},"type":"Feature"},
	{"geometry":{"coordinates":[14.21589,40.909439],"type":"Point"},"properties":{"osm_id":"7816066214","tag":{"amenity":"waste_basket","waste":"trash"}},"type":"Feature"},
	{"geometry":{"coordinates":[14.207195,40.907316],"type":"Point"},"properties":{"osm_id":"7816066215","tag":{"amenity":"waste_basket","waste":"trash"}},"type":"Feature"}
]
}
