{
"type": "FeatureCollection",
"features": [
	{"geometry":{"coordinates":[1.614083,50.717344],"type":"Point"},"properties":{"osm_id":"3649749842","tag":{"natural":"tree"}},"type":"Feature"},
	{"geometry":{"coordinates":[1.614364,50.717185],"type":"Point"},"properties":{"osm_id":"3649749843","tag":{"natural":"tree"}},"type":"Feature"},
	{"geometry":{"coordinates":[1.616718,50.726891],"type":"Point"},"properties":{"osm_id":"3677986183","tag":{"natural":"tree"}},"type":"Feature"},
	{"geometry":{"coordinates":[1.614189,50.717081],"type":"Point"},"properties":{"osm_id":"4541110931","tag":{"natural":"tree"}},"type":"Feature"},
	{"geometry":{"coordinates":[1.614199,50.716967],"type":"Point"},"properties":{"osm_id":"4541110932","tag":{"natural":"tree"}},"type":"Feature"},
	{"geometry":{"coordinates":[1.614208,50.716911],"type":"Point"},"properties":{"osm_id":"4541110933","tag":{"natural":"tree"}},"type":"Feature"},
	{"geometry":{"coordinates":[1.614173,50.716792],"type":"Point"},"properties":{"osm_id":"4541110934","tag":{"natural":"tree"}},"type":"Feature"},
	{"geometry":{"coordinates":[1.613699,50.716968],"type":"Point"},"properties":{"osm_id":"4541110935","tag":{"natural":"tree"}},"type":"Feature"},
	{"geometry":{"coordinates":[1.61399,50.716996],"type":"Point"},"properties":{"osm_id":"4541110936","tag":{"natural":"tree"}},"type":"Feature"},
	{"geometry":{"coordinates":[1.61399,50.716857],"type":"Point"},"properties":{"osm_id":"4541110937","tag":{"natural":"tree"}},"type":"Feature"},
	{"geometry":{"coordinates":[1.614067,50.716674],"type":"Point"},"properties":{"osm_id":"4541110938","tag":{"natural":"tree"}},"type":"Feature"},
	{"geometry":{"coordinates":[1.613945,50.71645],"type":"Point"},"properties":{"osm_id":"4541110939","tag":{"natural":"tree"}},"type":"Feature"},
	{"geometry":{"coordinates":[1.613817,50.71658],"type":"Point"},"properties":{"osm_id":"4541110940","tag":{"natural":"tree"}},"type":"Feature"},
	{"geometry":{"coordinates":[1.616663,50.716819],"type":"Point"},"properties":{"osm_id":"4541110941","tag":{"natural":"tree"}},"type":"Feature"},
	{"geometry":{"coordinates":[1.61603,50.717126],"type":"Point"},"properties":{"osm_id":"4541110942","tag":{"natural":"tree"}},"type":"Feature"},
	{"geometry":{"coordinates":[1.613065,50.718389],"type":"Point"},"properties":{"osm_id":"4541110943","tag":{"natural":"tree"}},"type":"Feature"},
	{"geometry":{"coordinates":[1.613149,50.718484],"type":"Point"},"properties":{"osm_id":"4541110944","tag":{"natural":"tree"}},"type":"Feature"},
	{"geometry":{"coordinates":[1.613251,50.718609],"type":"Point"},"properties":{"osm_id":"4541110945","tag":{"natural":"tree"}},"type":"Feature"},
	{"geometry":{"coordinates":[1.613317,50.718753],"type":"Point"},"properties":{"osm_id":"4541110946","tag":{"natural":"tree"}},"type":"Feature"},
	{"geometry":{"coordinates":[1.613413,50.718909],"type":"Point"},"properties":{"osm_id":"4541110947","tag":{"natural":"tree"}},"type":"Feature"},
	{"geometry":{"coordinates":[1.618124,50.727536],"type":"Point"},"properties":{"osm_id":"4935752173","tag":{"natural":"tree"}},"type":"Feature"},
	{"geometry":{"coordinates":[1.6182,50.725613],"type":"Point"},"properties":{"name":"Arbre de la Paix","osm_id":"4960235699","tag":{"natural":"tree"}},"type":"Feature"},
	{"geometry":{"coordinates":[1.603725,50.720684],"type":"Point"},"properties":{"osm_id":"5370568093","tag":{"natural":"tree"}},"type":"Feature"},
	{"geometry":{"coordinates":[1.603826,50.720527],"type":"Point"},"properties":{"osm_id":"5370568094","tag":{"natural":"tree"}},"type":"Feature"},
	{"geometry":{"coordinates":[1.603908,50.720391],"type":"Point"},"properties":{"osm_id":"5370568095","tag":{"natural":"tree"}},"type":"Feature"},
	{"geometry":{"coordinates":[1.603984,50.720282],"type":"Point"},"properties":{"osm_id":"5370568096","tag":{"natural":"tree"}},"type":"Feature"},
	{"geometry":{"coordinates":[1.603604,50.720287],"type":"Point"},"properties":{"osm_id":"5370568097","tag":{"natural":"tree"}},"type":"Feature"},
	{"geometry":{"coordinates":[1.602679,50.721394],"type":"Point"},"properties":{"osm_id":"5370568098","tag":{"natural":"tree"}},"type":"Feature"},
	{"geometry":{"coordinates":[1.605676,50.720299],"type":"Point"},"properties":{"osm_id":"5370568099","tag":{"natural":"tree"}},"type":"Feature"},
	{"geometry":{"coordinates":[1.60565,50.720226],"type":"Point"},"properties":{"osm_id":"5370568100","tag":{"natural":"tree"}},"type":"Feature"},
	{"geometry":{"coordinates":[1.605517,50.720002],"type":"Point"},"properties":{"osm_id":"5370568101","tag":{"natural":"tree"}},"type":"Feature"},
	{"geometry":{"coordinates":[1.605359,50.719974],"type":"Point"},"properties":{"osm_id":"5370568102","tag":{"natural":"tree"}},"type":"Feature"},
	{"geometry":{"coordinates":[1.605299,50.720056],"type":"Point"},"properties":{"osm_id":"5370568103","tag":{"natural":"tree"}},"type":"Feature"},
	{"geometry":{"coordinates":[1.605419,50.720066],"type":"Point"},"properties":{"osm_id":"5370568104","tag":{"natural":"tree"}},"type":"Feature"},
	{"geometry":{"coordinates":[1.606331,50.720006],"type":"Point"},"properties":{"osm_id":"5370568105","tag":{"natural":"tree"}},"type":"Feature"},
	{"geometry":{"coordinates":[1.606563,50.719994],"type":"Point"},"properties":{"osm_id":"5370568106","tag":{"natural":"tree"}},"type":"Feature"},
	{"geometry":{"coordinates":[1.605771,50.722204],"type":"Point"},"properties":{"osm_id":"5370568107","tag":{"natural":"tree"}},"type":"Feature"},
	{"geometry":{"coordinates":[1.608454,50.723878],"type":"Point"},"properties":{"osm_id":"5370568108","tag":{"natural":"tree"}},"type":"Feature"},
	{"geometry":{"coordinates":[1.608432,50.723762],"type":"Point"},"properties":{"osm_id":"5370568109","tag":{"natural":"tree"}},"type":"Feature"},
	{"geometry":{"coordinates":[1.608232,50.72371],"type":"Point"},"properties":{"osm_id":"5370568110","tag":{"natural":"tree"}},"type":"Feature"},
	{"geometry":{"coordinates":[1.608463,50.723654],"type":"Point"},"properties":{"osm_id":"5370568111","tag":{"natural":"tree"}},"type":"Feature"},
	{"geometry":{"coordinates":[1.600665,50.725486],"type":"Point"},"properties":{"osm_id":"5370568112","tag":{"natural":"tree"}},"type":"Feature"},
	{"geometry":{"coordinates":[1.600726,50.725412],"type":"Point"},"properties":{"osm_id":"5370568113","tag":{"natural":"tree"}},"type":"Feature"},
	{"geometry":{"coordinates":[1.599888,50.726293],"type":"Point"},"properties":{"osm_id":"5370568114","tag":{"natural":"tree"}},"type":"Feature"},
	{"geometry":{"coordinates":[1.599842,50.72623],"type":"Point"},"properties":{"osm_id":"5370568115","tag":{"natural":"tree"}},"type":"Feature"},
	{"geometry":{"coordinates":[1.599911,50.726149],"type":"Point"},"properties":{"osm_id":"5370568116","tag":{"natural":"tree"}},"type":"Feature"},
	{"geometry":{"coordinates":[1.600161,50.726216],"type":"Point"},"properties":{"osm_id":"5370568117","tag":{"natural":"tree"}},"type":"Feature"},
	{"geometry":{"coordinates":[1.600134,50.726255],"type":"Point"},"properties":{"osm_id":"5370568118","tag":{"natural":"tree"}},"type":"Feature"},
	{"geometry":{"coordinates":[1.600109,50.7263],"type":"Point"},"properties":{"osm_id":"5370568119","tag":{"natural":"tree"}},"type":"Feature"},
	{"geometry":{"coordinates":[1.600074,50.726339],"type":"Point"},"properties":{"osm_id":"5370568120","tag":{"natural":"tree"}},"type":"Feature"},
	{"geometry":{"coordinates":[1.600033,50.726391],"type":"Point"},"properties":{"osm_id":"5370570221","tag":{"natural":"tree"}},"type":"Feature"},
	{"geometry":{"coordinates":[1.599979,50.72643],"type":"Point"},"properties":{"osm_id":"5370570222","tag":{"natural":"tree"}},"type":"Feature"},
	{"geometry":{"coordinates":[1.599955,50.726474],"type":"Point"},"properties":{"osm_id":"5370570223","tag":{"natural":"tree"}},"type":"Feature"},
	{"geometry":{"coordinates":[1.599647,50.726772],"type":"Point"},"properties":{"osm_id":"5370570224","tag":{"natural":"tree"}},"type":"Feature"},
	{"geometry":{"coordinates":[1.599614,50.726815],"type":"Point"},"properties":{"osm_id":"5370570225","tag":{"natural":"tree"}},"type":"Feature"},
	{"geometry":{"coordinates":[1.599565,50.726865],"type":"Point"},"properties":{"osm_id":"5370570226","tag":{"natural":"tree"}},"type":"Feature"},
	{"geometry":{"coordinates":[1.608187,50.722292],"type":"Point"},"properties":{"osm_id":"5370570227","tag":{"natural":"tree"}},"type":"Feature"},
	{"geometry":{"coordinates":[1.608163,50.722229],"type":"Point"},"properties":{"osm_id":"5370570228","tag":{"natural":"tree"}},"type":"Feature"},
	{"geometry":{"coordinates":[1.608013,50.722322],"type":"Point"},"properties":{"osm_id":"5370570229","tag":{"natural":"tree"}},"type":"Feature"},
	{"geometry":{"coordinates":[1.608099,50.722307],"type":"Point"},"properties":{"osm_id":"5370570230","tag":{"natural":"tree"}},"type":"Feature"},
	{"geometry":{"coordinates":[1.609057,50.721546],"type":"Point"},"properties":{"osm_id":"5370570231","tag":{"natural":"tree"}},"type":"Feature"},
	{"geometry":{"coordinates":[1.608973,50.721446],"type":"Point"},"properties":{"osm_id":"5370570232","tag":{"natural":"tree"}},"type":"Feature"},
	{"geometry":{"coordinates":[1.602452,50.724461],"type":"Point"},"properties":{"osm_id":"5377590716","tag":{"natural":"tree"}},"type":"Feature"},
	{"geometry":{"coordinates":[1.602455,50.724348],"type":"Point"},"properties":{"osm_id":"5377590717","tag":{"natural":"tree"}},"type":"Feature"},
	{"geometry":{"coordinates":[1.603555,50.720937],"type":"Point"},"properties":{"osm_id":"5377590718","tag":{"natural":"tree"}},"type":"Feature"},
	{"geometry":{"coordinates":[1.603563,50.721016],"type":"Point"},"properties":{"osm_id":"5377590719","tag":{"natural":"tree"}},"type":"Feature"},
	{"geometry":{"coordinates":[1.603701,50.72107],"type":"Point"},"properties":{"osm_id":"5377590720","tag":{"natural":"tree"}},"type":"Feature"},
	{"geometry":{"coordinates":[1.603802,50.721051],"type":"Point"},"properties":{"osm_id":"5377592221","tag":{"natural":"tree"}},"type":"Feature"},
	{"geometry":{"coordinates":[1.605023,50.720564],"type":"Point"},"properties":{"osm_id":"5377592222","tag":{"natural":"tree"}},"type":"Feature"},
	{"geometry":{"coordinates":[1.605133,50.720466],"type":"Point"},"properties":{"osm_id":"5377592223","tag":{"natural":"tree"}},"type":"Feature"},
	{"geometry":{"coordinates":[1.606466,50.720016],"type":"Point"},"properties":{"osm_id":"5377592224","tag":{"natural":"tree"}},"type":"Feature"},
	{"geometry":{"coordinates":[1.608168,50.722177],"type":"Point"},"properties":{"osm_id":"5377592237","tag":{"denotation":"garden","natural":"tree"}},"type":"Feature"},
	{"geometry":{"coordinates":[1.608068,50.722219],"type":"Point"},"properties":{"osm_id":"5377592238","tag":{"denotation":"garden","natural":"tree"}},"type":"Feature"},
	{"geometry":{"coordinates":[1.607974,50.722227],"type":"Point"},"properties":{"osm_id":"5377592239","tag":{"denotation":"garden","natural":"tree"}},"type":"Feature"},
	{"geometry":{"coordinates":[1.608282,50.722294],"type":"Point"},"properties":{"osm_id":"5377592240","tag":{"denotation":"garden","natural":"tree"}},"type":"Feature"},
	{"geometry":{"coordinates":[1.608001,50.722173],"type":"Point"},"properties":{"osm_id":"5377592241","tag":{"denotation":"garden","natural":"tree"}},"type":"Feature"},
	{"geometry":{"coordinates":[1.608278,50.722242],"type":"Point"},"properties":{"osm_id":"5377592242","tag":{"denotation":"garden","natural":"tree"}},"type":"Feature"},
	{"geometry":{"coordinates":[1.608607,50.721861],"type":"Point"},"properties":{"osm_id":"5377594918","tag":{"denotation":"urban","leaf_type":"broadleaved","natural":"tree"}},"type":"Feature"},
	{"geometry":{"coordinates":[1.608603,50.721821],"type":"Point"},"properties":{"osm_id":"5377594919","tag":{"denotation":"urban","leaf_type":"broadleaved","natural":"tree"}},"type":"Feature"},
	{"geometry":{"coordinates":[1.608592,50.721773],"type":"Point"},"properties":{"osm_id":"5377594920","tag":{"denotation":"urban","leaf_type":"broadleaved","natural":"tree"}},"type":"Feature"},
	{"geometry":{"coordinates":[1.608592,50.721732],"type":"Point"},"properties":{"osm_id":"5377595221","tag":{"denotation":"urban","leaf_type":"broadleaved","natural":"tree"}},"type":"Feature"},
	{"geometry":{"coordinates":[1.608582,50.721688],"type":"Point"},"properties":{"osm_id":"5377595222","tag":{"denotation":"urban","leaf_type":"broadleaved","natural":"tree"}},"type":"Feature"},
	{"geometry":{"coordinates":[1.608735,50.721862],"type":"Point"},"properties":{"osm_id":"5377595223","tag":{"denotation":"urban","leaf_type":"broadleaved","natural":"tree"}},"type":"Feature"},
	{"geometry":{"coordinates":[1.608731,50.721807],"type":"Point"},"properties":{"osm_id":"5377595224","tag":{"denotation":"urban","leaf_type":"broadleaved","natural":"tree"}},"type":"Feature"},
	{"geometry":{"coordinates":[1.608724,50.721747],"type":"Point"},"properties":{"osm_id":"5377595225","tag":{"denotation":"urban","leaf_type":"broadleaved","natural":"tree"}},"type":"Feature"},
	{"geometry":{"coordinates":[1.60872,50.721695],"type":"Point"},"properties":{"osm_id":"5377595226","tag":{"denotation":"urban","leaf_type":"broadleaved","natural":"tree"}},"type":"Feature"},
	{"geometry":{"coordinates":[1.61245,50.724499],"type":"Point"},"properties":{"osm_id":"6149721289","tag":{"addr:city":"Boulogne-sur-Mer","addr:housenumber":"12","addr:postcode":"62200","addr:street":"Rue Guyale","denotation":"urban","leaf_cycle":"deciduous","leaf_type":"broadleaved","natural":"tree"}},"type":"Feature"},
	{"geometry":{"coordinates":[1.612503,50.7244],"type":"Point"},"properties":{"osm_id":"6149721290","tag":{"addr:city":"Boulogne-sur-Mer","addr:housenumber":"12","addr:postcode":"62200","addr:street":"Rue Guyale","denotation":"urban","leaf_cycle":"deciduous","leaf_type":"broadleaved","natural":"tree"}},"type":"Feature"},
	{"geometry":{"coordinates":[1.612563,50.724457],"type":"Point"},"properties":{"osm_id":"6149721291","tag":{"addr:city":"Boulogne-sur-Mer","addr:housenumber":"12","addr:postcode":"62200","addr:street":"Rue Guyale","denotation":"urban","leaf_cycle":"deciduous","leaf_type":"broadleaved","natural":"tree"}},"type":"Feature"},
	{"geometry":{"coordinates":[1.612662,50.724503],"type":"Point"},"properties":{"osm_id":"6149721292","tag":{"addr:city":"Boulogne-sur-Mer","addr:housenumber":"12","addr:postcode":"62200","addr:street":"Rue Guyale","denotation":"urban","leaf_cycle":"deciduous","leaf_type":"broadleaved","natural":"tree"}},"type":"Feature"},
	{"geometry":{"coordinates":[1.611886,50.725597],"type":"Point"},"properties":{"osm_id":"6149721296","tag":{"addr:city":"Boulogne-sur-Mer","addr:housenumber":"12","addr:postcode":"62200","addr:street":"Rue Guyale","denotation":"urban","leaf_cycle":"deciduous","leaf_type":"broadleaved","natural":"tree"}},"type":"Feature"},
	{"geometry":{"coordinates":[1.612094,50.725606],"type":"Point"},"properties":{"osm_id":"6149721297","tag":{"addr:city":"Boulogne-sur-Mer","addr:housenumber":"12","addr:postcode":"62200","addr:street":"Rue Guyale","denotation":"urban","leaf_cycle":"deciduous","leaf_type":"broadleaved","natural":"tree"}},"type":"Feature"},
	{"geometry":{"coordinates":[1.603327,50.721277],"type":"Point"},"properties":{"osm_id":"7278428714","tag":{"natural":"tree"}},"type":"Feature"}
]
}
