{
"type": "FeatureCollection",
"features": [
	{"geometry":{"coordinates":[30.58435,59.742418],"type":"Point"},"properties":{"osm_id":"817200580","tag":{"amenity":"waste_disposal"}},"type":"Feature"},
	{"geometry":{"coordinates":[30.583591,59.744699],"type":"Point"},"properties":{"osm_id":"1038748501","tag":{"amenity":"waste_disposal"}},"type":"Feature"},
	{"geometry":{"coordinates":[30.571747,59.747565],"type":"Point"},"properties":{"osm_id":"1310928511","tag":{"amenity":"waste_disposal"}},"type":"Feature"},
	{"geometry":{"coordinates":[30.571586,59.749182],"type":"Point"},"properties":{"osm_id":"1310936111","tag":{"amenity":"waste_disposal"}},"type":"Feature"},
	{"geometry":{"coordinates":[30.573582,59.747117],"type":"Point"},"properties":{"osm_id":"1310936113","tag":{"amenity":"waste_disposal"}},"type":"Feature"},
	{"geometry":{"coordinates":[30.582528,59.742171],"type":"Point"},"properties":{"osm_id":"1778481931","tag":{"amenity":"waste_disposal"}},"type":"Feature"},
	{"geometry":{"coordinates":[30.562029,59.744584],"type":"Point"},"properties":{"name":"\u00d0\u00ad\u00d0\u00ba\u00d0\u00be\u00d0\u00b1\u00d0\u00be\u00d0\u00ba\u00d1\u0081","osm_id":"2928668101","tag":{"amenity":"recycling","recycling:batteries":"yes","recycling:fluorescent_tubes":"yes","recycling:hazardous_waste":"yes","recycling:hydrargyrum":"yes","recycling:low_energy_bulbs":"yes","recycling_type":"container"}},"type":"Feature"},
	{"geometry":{"coordinates":[30.576424,59.731423],"type":"Point"},"properties":{"osm_id":"4084899874","tag":{"amenity":"waste_disposal"}},"type":"Feature"},
	{"geometry":{"coordinates":[30.580498,59.731202],"type":"Point"},"properties":{"osm_id":"4370856380","tag":{"amenity":"waste_basket"}},"type":"Feature"},
	{"geometry":{"coordinates":[30.583038,59.73102],"type":"Point"},"properties":{"osm_id":"7612305171","tag":{"amenity":"waste_disposal"}},"type":"Feature"},
	{"geometry":{"coordinates":[30.585778,59.735463],"type":"Point"},"properties":{"osm_id":"7612310169","tag":{"amenity":"waste_disposal"}},"type":"Feature"},
	{"geometry":{"coordinates":[30.585729,59.735469],"type":"Point"},"properties":{"osm_id":"7612310170","tag":{"amenity":"waste_disposal"}},"type":"Feature"},
	{"geometry":{"coordinates":[30.583991,59.734006],"type":"Point"},"properties":{"osm_id":"7612310383","tag":{"amenity":"waste_disposal"}},"type":"Feature"},
	{"geometry":{"coordinates":[30.58393,59.734023],"type":"Point"},"properties":{"osm_id":"7612310384","tag":{"amenity":"waste_disposal"}},"type":"Feature"},
	{"geometry":{"coordinates":[30.585414,59.739781],"type":"Point"},"properties":{"osm_id":"7617822907","tag":{"amenity":"waste_basket"}},"type":"Feature"},
	{"geometry":{"coordinates":[30.585455,59.739746],"type":"Point"},"properties":{"osm_id":"7617822908","tag":{"amenity":"waste_basket"}},"type":"Feature"},
	{"geometry":{"coordinates":[30.585592,59.739823],"type":"Point"},"properties":{"osm_id":"7617822909","tag":{"amenity":"waste_basket"}},"type":"Feature"},
	{"geometry":{"coordinates":[30.585618,59.739791],"type":"Point"},"properties":{"osm_id":"7617822910","tag":{"amenity":"waste_basket"}},"type":"Feature"},
	{"geometry":{"coordinates":[30.584992,59.743888],"type":"Point"},"properties":{"osm_id":"7618647468","tag":{"amenity":"waste_disposal"}},"type":"Feature"},
	{"geometry":{"coordinates":[30.585757,59.74801],"type":"Point"},"properties":{"osm_id":"7618800737","tag":{"amenity":"waste_basket"}},"type":"Feature"},
	{"geometry":{"coordinates":[30.585022,59.748306],"type":"Point"},"properties":{"osm_id":"7618800752","tag":{"amenity":"waste_disposal"}},"type":"Feature"},
	{"geometry":{"coordinates":[30.585644,59.74862],"type":"Point"},"properties":{"osm_id":"7618800772","tag":{"amenity":"waste_basket"}},"type":"Feature"},
	{"geometry":{"coordinates":[30.585663,59.748654],"type":"Point"},"properties":{"osm_id":"7618800773","tag":{"amenity":"waste_basket"}},"type":"Feature"},
	{"geometry":{"coordinates":[30.585484,59.748334],"type":"Point"},"properties":{"osm_id":"7618800774","tag":{"amenity":"waste_basket"}},"type":"Feature"},
	{"geometry":{"coordinates":[30.585445,59.748352],"type":"Point"},"properties":{"osm_id":"7618800775","tag":{"amenity":"waste_basket"}},"type":"Feature"},
	{"geometry":{"coordinates":[30.58589,59.748184],"type":"Point"},"properties":{"osm_id":"7618800776","tag":{"amenity":"waste_basket"}},"type":"Feature"},
	{"geometry":{"coordinates":[30.582222,59.743398],"type":"Point"},"properties":{"osm_id":"7646055193","tag":{"amenity":"waste_basket"}},"type":"Feature"},
	{"geometry":{"coordinates":[30.582196,59.743338],"type":"Point"},"properties":{"osm_id":"7646055194","tag":{"amenity":"waste_basket"}},"type":"Feature"},
	{"geometry":{"coordinates":[30.582154,59.743245],"type":"Point"},"properties":{"osm_id":"7646055195","tag":{"amenity":"waste_basket"}},"type":"Feature"},
	{"geometry":{"coordinates":[30.582132,59.743194],"type":"Point"},"properties":{"osm_id":"7646055196","tag":{"amenity":"waste_basket"}},"type":"Feature"},
	{"geometry":{"coordinates":[30.582073,59.743058],"type":"Point"},"properties":{"osm_id":"7646055197","tag":{"amenity":"waste_basket"}},"type":"Feature"},
	{"geometry":{"coordinates":[30.581916,59.742879],"type":"Point"},"properties":{"osm_id":"7646055198","tag":{"amenity":"waste_basket"}},"type":"Feature"},
	{"geometry":{"coordinates":[30.581887,59.742827],"type":"Point"},"properties":{"osm_id":"7646055200","tag":{"amenity":"waste_basket"}},"type":"Feature"},
	{"geometry":{"coordinates":[30.581789,59.742591],"type":"Point"},"properties":{"osm_id":"7646055202","tag":{"amenity":"waste_basket"}},"type":"Feature"},
	{"geometry":{"coordinates":[30.581768,59.742534],"type":"Point"},"properties":{"osm_id":"7646055203","tag":{"amenity":"waste_basket"}},"type":"Feature"},
	{"geometry":{"coordinates":[30.581669,59.742306],"type":"Point"},"properties":{"osm_id":"7646055220","tag":{"amenity":"waste_basket"}},"type":"Feature"},
	{"geometry":{"coordinates":[30.581638,59.742246],"type":"Point"},"properties":{"osm_id":"7646055221","tag":{"amenity":"waste_basket"}},"type":"Feature"},
	{"geometry":{"coordinates":[30.581485,59.746591],"type":"Point"},"properties":{"osm_id":"7646174712","tag":{"amenity":"waste_basket"}},"type":"Feature"},
	{"geometry":{"coordinates":[30.581498,59.746648],"type":"Point"},"properties":{"osm_id":"7646174713","tag":{"amenity":"waste_basket"}},"type":"Feature"},
	{"geometry":{"coordinates":[30.581493,59.746618],"type":"Point"},"properties":{"osm_id":"7646174714","tag":{"amenity":"waste_basket"}},"type":"Feature"},
	{"geometry":{"coordinates":[30.5808,59.745303],"type":"Point"},"properties":{"osm_id":"7646174717","tag":{"amenity":"waste_basket"}},"type":"Feature"},
	{"geometry":{"coordinates":[30.580903,59.745293],"type":"Point"},"properties":{"osm_id":"7646174718","tag":{"amenity":"waste_basket"}},"type":"Feature"},
	{"geometry":{"coordinates":[30.580852,59.745298],"type":"Point"},"properties":{"osm_id":"7646174719","tag":{"amenity":"waste_basket"}},"type":"Feature"},
	{"geometry":{"coordinates":[30.580075,59.743481],"type":"Point"},"properties":{"osm_id":"7646174722","tag":{"amenity":"waste_basket"}},"type":"Feature"},
	{"geometry":{"coordinates":[30.580047,59.743505],"type":"Point"},"properties":{"osm_id":"7646174723","tag":{"amenity":"waste_basket"}},"type":"Feature"},
	{"geometry":{"coordinates":[30.580042,59.743536],"type":"Point"},"properties":{"osm_id":"7646174724","tag":{"amenity":"waste_basket"}},"type":"Feature"},
	{"geometry":{"coordinates":[30.580067,59.743565],"type":"Point"},"properties":{"osm_id":"7646174725","tag":{"amenity":"waste_basket"}},"type":"Feature"},
	{"geometry":{"coordinates":[30.580104,59.74359],"type":"Point"},"properties":{"osm_id":"7646174726","tag":{"amenity":"waste_basket"}},"type":"Feature"},
	{"geometry":{"coordinates":[30.579935,59.742969],"type":"Point"},"properties":{"osm_id":"7646174739","tag":{"amenity":"waste_basket"}},"type":"Feature"},
	{"geometry":{"coordinates":[30.579897,59.742947],"type":"Point"},"properties":{"osm_id":"7646174740","tag":{"amenity":"waste_basket"}},"type":"Feature"},
	{"geometry":{"coordinates":[30.579871,59.742921],"type":"Point"},"properties":{"osm_id":"7646174741","tag":{"amenity":"waste_basket"}},"type":"Feature"},
	{"geometry":{"coordinates":[30.57987,59.742891],"type":"Point"},"properties":{"osm_id":"7646174742","tag":{"amenity":"waste_basket"}},"type":"Feature"},
	{"geometry":{"coordinates":[30.579884,59.742863],"type":"Point"},"properties":{"osm_id":"7646174743","tag":{"amenity":"waste_basket"}},"type":"Feature"},
	{"geometry":{"coordinates":[30.579921,59.742839],"type":"Point"},"properties":{"osm_id":"7646174744","tag":{"amenity":"waste_basket"}},"type":"Feature"},
	{"geometry":{"coordinates":[30.580894,59.742907],"type":"Point"},"properties":{"osm_id":"7646174750","tag":{"amenity":"waste_basket"}},"type":"Feature"},
	{"geometry":{"coordinates":[30.580927,59.742841],"type":"Point"},"properties":{"osm_id":"7646174751","tag":{"amenity":"waste_basket"}},"type":"Feature"},
	{"geometry":{"coordinates":[30.580905,59.742811],"type":"Point"},"properties":{"osm_id":"7646174752","tag":{"amenity":"waste_basket"}},"type":"Feature"},
	{"geometry":{"coordinates":[30.581447,59.74333],"type":"Point"},"properties":{"osm_id":"7646174756","tag":{"amenity":"waste_basket"}},"type":"Feature"},
	{"geometry":{"coordinates":[30.581656,59.743776],"type":"Point"},"properties":{"osm_id":"7646174758","tag":{"amenity":"waste_basket"}},"type":"Feature"},
	{"geometry":{"coordinates":[30.580877,59.744874],"type":"Point"},"properties":{"osm_id":"7646174775","tag":{"amenity":"waste_basket"}},"type":"Feature"},
	{"geometry":{"coordinates":[30.580936,59.744879],"type":"Point"},"properties":{"osm_id":"7646174777","tag":{"amenity":"waste_basket"}},"type":"Feature"},
	{"geometry":{"coordinates":[30.580996,59.744871],"type":"Point"},"properties":{"osm_id":"7646174779","tag":{"amenity":"waste_basket"}},"type":"Feature"},
	{"geometry":{"coordinates":[30.581048,59.744851],"type":"Point"},"properties":{"osm_id":"7646174781","tag":{"amenity":"waste_basket"}},"type":"Feature"},
	{"geometry":{"coordinates":[30.582186,59.745037],"type":"Point"},"properties":{"osm_id":"7646174783","tag":{"amenity":"waste_basket"}},"type":"Feature"},
	{"geometry":{"coordinates":[30.58209,59.74573],"type":"Point"},"properties":{"osm_id":"7646179685","tag":{"amenity":"waste_basket"}},"type":"Feature"},
	{"geometry":{"coordinates":[30.581987,59.746545],"type":"Point"},"properties":{"osm_id":"7646179687","tag":{"amenity":"waste_basket"}},"type":"Feature"},
	{"geometry":{"coordinates":[30.581998,59.746599],"type":"Point"},"properties":{"osm_id":"7646179688","tag":{"amenity":"waste_basket"}},"type":"Feature"},
	{"geometry":{"coordinates":[30.582004,59.746628],"type":"Point"},"properties":{"osm_id":"7646179689","tag":{"amenity":"waste_basket"}},"type":"Feature"},
	{"geometry":{"coordinates":[30.581004,59.742316],"type":"Point"},"properties":{"osm_id":"7646179694","tag":{"amenity":"waste_basket"}},"type":"Feature"},
	{"geometry":{"coordinates":[30.581124,59.743915],"type":"Point"},"properties":{"osm_id":"7646179700","tag":{"amenity":"waste_basket"}},"type":"Feature"},
	{"geometry":{"coordinates":[30.581178,59.743929],"type":"Point"},"properties":{"osm_id":"7646179702","tag":{"amenity":"waste_basket"}},"type":"Feature"},
	{"geometry":{"coordinates":[30.581234,59.743975],"type":"Point"},"properties":{"osm_id":"7646179704","tag":{"amenity":"waste_basket"}},"type":"Feature"},
	{"geometry":{"coordinates":[30.581191,59.744055],"type":"Point"},"properties":{"osm_id":"7646179706","tag":{"amenity":"waste_basket"}},"type":"Feature"},
	{"geometry":{"coordinates":[30.581223,59.74403],"type":"Point"},"properties":{"osm_id":"7646179707","tag":{"amenity":"waste_basket"}},"type":"Feature"},
	{"geometry":{"coordinates":[30.582432,59.74652],"type":"Point"},"properties":{"osm_id":"7646179720","tag":{"amenity":"waste_basket"}},"type":"Feature"},
	{"geometry":{"coordinates":[30.582465,59.746709],"type":"Point"},"properties":{"osm_id":"7646179721","tag":{"amenity":"waste_basket"}},"type":"Feature"},
	{"geometry":{"coordinates":[30.583049,59.738416],"type":"Point"},"properties":{"osm_id":"7646311710","tag":{"amenity":"waste_basket"}},"type":"Feature"},
	{"geometry":{"coordinates":[30.585301,59.738003],"type":"Point"},"properties":{"osm_id":"7646311720","tag":{"amenity":"waste_basket"}},"type":"Feature"},
	{"geometry":{"coordinates":[30.585312,59.738036],"type":"Point"},"properties":{"osm_id":"7646311722","tag":{"amenity":"waste_basket"}},"type":"Feature"},
	{"geometry":{"coordinates":[30.585324,59.738072],"type":"Point"},"properties":{"osm_id":"7646311724","tag":{"amenity":"waste_basket"}},"type":"Feature"},
	{"geometry":{"coordinates":[30.58546,59.73807],"type":"Point"},"properties":{"osm_id":"7646311725","tag":{"amenity":"waste_basket"}},"type":"Feature"},
	{"geometry":{"coordinates":[30.585539,59.738065],"type":"Point"},"properties":{"osm_id":"7646311726","tag":{"amenity":"waste_basket"}},"type":"Feature"},
	{"geometry":{"coordinates":[30.585532,59.738028],"type":"Point"},"properties":{"osm_id":"7646311728","tag":{"amenity":"waste_basket"}},"type":"Feature"},
	{"geometry":{"coordinates":[30.585521,59.737994],"type":"Point"},"properties":{"osm_id":"7646311730","tag":{"amenity":"waste_basket"}},"type":"Feature"},
	{"geometry":{"coordinates":[30.580075,59.739243],"type":"Point"},"properties":{"osm_id":"7646412009","tag":{"amenity":"waste_basket"}},"type":"Feature"},
	{"geometry":{"coordinates":[30.580072,59.739177],"type":"Point"},"properties":{"osm_id":"7646412012","tag":{"amenity":"waste_basket"}},"type":"Feature"},
	{"geometry":{"coordinates":[30.58001,59.738976],"type":"Point"},"properties":{"osm_id":"7646412015","tag":{"amenity":"waste_basket"}},"type":"Feature"},
	{"geometry":{"coordinates":[30.580026,59.739027],"type":"Point"},"properties":{"osm_id":"7646412016","tag":{"amenity":"waste_basket"}},"type":"Feature"},
	{"geometry":{"coordinates":[30.57992,59.738767],"type":"Point"},"properties":{"osm_id":"7646412017","tag":{"amenity":"waste_basket"}},"type":"Feature"},
	{"geometry":{"coordinates":[30.579947,59.738833],"type":"Point"},"properties":{"osm_id":"7646412021","tag":{"amenity":"waste_basket"}},"type":"Feature"},
	{"geometry":{"coordinates":[30.580161,59.739444],"type":"Point"},"properties":{"osm_id":"7646412022","tag":{"amenity":"waste_basket"}},"type":"Feature"},
	{"geometry":{"coordinates":[30.580174,59.739414],"type":"Point"},"properties":{"osm_id":"7646412023","tag":{"amenity":"waste_basket"}},"type":"Feature"},
	{"geometry":{"coordinates":[30.580146,59.739387],"type":"Point"},"properties":{"osm_id":"7646412024","tag":{"amenity":"waste_basket"}},"type":"Feature"},
	{"geometry":{"coordinates":[30.580361,59.740031],"type":"Point"},"properties":{"osm_id":"7646412027","tag":{"amenity":"waste_basket"}},"type":"Feature"},
	{"geometry":{"coordinates":[30.58039,59.740056],"type":"Point"},"properties":{"osm_id":"7646412030","tag":{"amenity":"waste_basket"}},"type":"Feature"},
	{"geometry":{"coordinates":[30.580378,59.740087],"type":"Point"},"properties":{"osm_id":"7646412031","tag":{"amenity":"waste_basket"}},"type":"Feature"},
	{"geometry":{"coordinates":[30.580444,59.740293],"type":"Point"},"properties":{"osm_id":"7646412032","tag":{"amenity":"waste_basket"}},"type":"Feature"},
	{"geometry":{"coordinates":[30.580458,59.740262],"type":"Point"},"properties":{"osm_id":"7646412033","tag":{"amenity":"waste_basket"}},"type":"Feature"},
	{"geometry":{"coordinates":[30.58043,59.740234],"type":"Point"},"properties":{"osm_id":"7646412034","tag":{"amenity":"waste_basket"}},"type":"Feature"},
	{"geometry":{"coordinates":[30.583145,59.733348],"type":"Point"},"properties":{"osm_id":"7646878211","tag":{"amenity":"waste_disposal"}},"type":"Feature"},
	{"geometry":{"coordinates":[30.577142,59.734525],"type":"Point"},"properties":{"osm_id":"7646892402","tag":{"amenity":"waste_basket"}},"type":"Feature"},
	{"geometry":{"coordinates":[30.577494,59.734394],"type":"Point"},"properties":{"osm_id":"7646892403","tag":{"amenity":"waste_basket"}},"type":"Feature"},
	{"geometry":{"coordinates":[30.57737,59.734134],"type":"Point"},"properties":{"osm_id":"7646892408","tag":{"amenity":"waste_basket"}},"type":"Feature"},
	{"geometry":{"coordinates":[30.57729,59.73414],"type":"Point"},"properties":{"osm_id":"7646892409","tag":{"amenity":"waste_basket"}},"type":"Feature"},
	{"geometry":{"coordinates":[30.577261,59.734272],"type":"Point"},"properties":{"osm_id":"7646892410","tag":{"amenity":"waste_basket"}},"type":"Feature"},
	{"geometry":{"coordinates":[30.577046,59.734211],"type":"Point"},"properties":{"osm_id":"7646892411","tag":{"amenity":"waste_basket"}},"type":"Feature"},
	{"geometry":{"coordinates":[30.577019,59.734226],"type":"Point"},"properties":{"osm_id":"7646892412","tag":{"amenity":"waste_basket"}},"type":"Feature"},
	{"geometry":{"coordinates":[30.576999,59.734258],"type":"Point"},"properties":{"osm_id":"7646892413","tag":{"amenity":"waste_basket"}},"type":"Feature"},
	{"geometry":{"coordinates":[30.577017,59.734291],"type":"Point"},"properties":{"osm_id":"7646892414","tag":{"amenity":"waste_basket"}},"type":"Feature"},
	{"geometry":{"coordinates":[30.577068,59.734315],"type":"Point"},"properties":{"osm_id":"7646892415","tag":{"amenity":"waste_basket"}},"type":"Feature"},
	{"geometry":{"coordinates":[30.577123,59.734323],"type":"Point"},"properties":{"osm_id":"7646892416","tag":{"amenity":"waste_basket"}},"type":"Feature"},
	{"geometry":{"coordinates":[30.57754,59.734655],"type":"Point"},"properties":{"osm_id":"7646892432","tag":{"amenity":"waste_disposal"}},"type":"Feature"},
	{"geometry":{"coordinates":[30.583341,59.742433],"type":"Point"},"properties":{"osm_id":"7651873028","tag":{"amenity":"waste_basket"}},"type":"Feature"},
	{"geometry":{"coordinates":[30.583402,59.742425],"type":"Point"},"properties":{"osm_id":"7651873029","tag":{"amenity":"waste_basket"}},"type":"Feature"},
	{"geometry":{"coordinates":[30.583745,59.74239],"type":"Point"},"properties":{"osm_id":"7651873030","tag":{"amenity":"waste_basket"}},"type":"Feature"},
	{"geometry":{"coordinates":[30.58367,59.742399],"type":"Point"},"properties":{"osm_id":"7651873031","tag":{"amenity":"waste_basket"}},"type":"Feature"},
	{"geometry":{"coordinates":[30.58367,59.742169],"type":"Point"},"properties":{"osm_id":"7651873037","tag":{"amenity":"waste_basket"}},"type":"Feature"},
	{"geometry":{"coordinates":[30.583498,59.74213],"type":"Point"},"properties":{"osm_id":"7651873038","tag":{"amenity":"waste_basket"}},"type":"Feature"},
	{"geometry":{"coordinates":[30.583385,59.742129],"type":"Point"},"properties":{"osm_id":"7651873039","tag":{"amenity":"waste_basket"}},"type":"Feature"},
	{"geometry":{"coordinates":[30.583466,59.742203],"type":"Point"},"properties":{"osm_id":"7651873040","tag":{"amenity":"waste_basket"}},"type":"Feature"},
	{"geometry":{"coordinates":[30.583401,59.742199],"type":"Point"},"properties":{"osm_id":"7651873041","tag":{"amenity":"waste_basket"}},"type":"Feature"},
	{"geometry":{"coordinates":[30.583415,59.742269],"type":"Point"},"properties":{"osm_id":"7651873042","tag":{"amenity":"waste_basket"}},"type":"Feature"},
	{"geometry":{"coordinates":[30.583359,59.740182],"type":"Point"},"properties":{"osm_id":"7655784260","tag":{"amenity":"waste_disposal"}},"type":"Feature"},
	{"geometry":{"coordinates":[30.584997,59.740477],"type":"Point"},"properties":{"osm_id":"7655784267","tag":{"amenity":"waste_disposal"}},"type":"Feature"},
	{"geometry":{"coordinates":[30.583638,59.750932],"type":"Point"},"properties":{"osm_id":"7658219160","tag":{"amenity":"waste_disposal"}},"type":"Feature"},
	{"geometry":{"coordinates":[30.578104,59.730134],"type":"Point"},"properties":{"osm_id":"7680783439","tag":{"amenity":"waste_disposal"}},"type":"Feature"},
	{"geometry":{"coordinates":[30.564037,59.735301],"type":"Point"},"properties":{"osm_id":"7680994892","tag":{"amenity":"waste_disposal"}},"type":"Feature"},
	{"geometry":{"coordinates":[30.56689,59.733673],"type":"Point"},"properties":{"osm_id":"7680994893","tag":{"amenity":"waste_disposal"}},"type":"Feature"},
	{"geometry":{"coordinates":[30.569171,59.734853],"type":"Point"},"properties":{"osm_id":"7680994907","tag":{"amenity":"waste_disposal"}},"type":"Feature"},
	{"geometry":{"coordinates":[30.564426,59.747006],"type":"Point"},"properties":{"osm_id":"7681834488","tag":{"amenity":"waste_disposal"}},"type":"Feature"},
	{"geometry":{"coordinates":[30.583733,59.737152],"type":"Point"},"properties":{"osm_id":"7685864867","tag":{"amenity":"waste_disposal"}},"type":"Feature"},
	{"geometry":{"coordinates":[30.577985,59.737742],"type":"Point"},"properties":{"osm_id":"7685870684","tag":{"amenity":"waste_basket"}},"type":"Feature"},
	{"geometry":{"coordinates":[30.577928,59.737744],"type":"Point"},"properties":{"osm_id":"7685870685","tag":{"amenity":"waste_basket"}},"type":"Feature"},
	{"geometry":{"coordinates":[30.577869,59.737747],"type":"Point"},"properties":{"osm_id":"7685870686","tag":{"amenity":"waste_basket"}},"type":"Feature"},
	{"geometry":{"coordinates":[30.577808,59.73775],"type":"Point"},"properties":{"osm_id":"7685870687","tag":{"amenity":"waste_basket"}},"type":"Feature"},
	{"geometry":{"coordinates":[30.577748,59.737752],"type":"Point"},"properties":{"osm_id":"7685870688","tag":{"amenity":"waste_basket"}},"type":"Feature"},
	{"geometry":{"coordinates":[30.583253,59.735827],"type":"Point"},"properties":{"osm_id":"7685870764","tag":{"amenity":"waste_disposal"}},"type":"Feature"},
	{"geometry":{"coordinates":[30.581777,59.735715],"type":"Point"},"properties":{"osm_id":"7685870765","tag":{"amenity":"waste_disposal"}},"type":"Feature"},
	{"geometry":{"coordinates":[30.581417,59.73653],"type":"Point"},"properties":{"osm_id":"7685870865","tag":{"amenity":"waste_disposal"}},"type":"Feature"},
	{"geometry":{"coordinates":[30.580346,59.73264],"type":"Point"},"properties":{"osm_id":"7685907036","tag":{"amenity":"waste_disposal"}},"type":"Feature"},
	{"geometry":{"coordinates":[30.581988,59.733],"type":"Point"},"properties":{"osm_id":"7685907046","tag":{"amenity":"waste_disposal"}},"type":"Feature"},
	{"geometry":{"coordinates":[30.581964,59.732264],"type":"Point"},"properties":{"osm_id":"7687936323","tag":{"amenity":"waste_disposal"}},"type":"Feature"},
	{"geometry":{"coordinates":[30.570268,59.739056],"type":"Point"},"properties":{"osm_id":"7863854014","tag":{"amenity":"waste_disposal"}},"type":"Feature"}
]
}
