{
"type": "FeatureCollection",
"features": [
	{"geometry":{"coordinates":[30.578552,50.499224],"type":"Point"},"properties":{"osm_id":"429850528","tag":{"amenity":"recycling"}},"type":"Feature"},
	{"geometry":{"coordinates":[30.578932,50.500022],"type":"Point"},"properties":{"osm_id":"439733880","tag":{"amenity":"waste_disposal"}},"type":"Feature"},
	{"geometry":{"coordinates":[30.577229,50.474367],"type":"Point"},"properties":{"osm_id":"1346361364","tag":{"amenity":"waste_basket"}},"type":"Feature"},
	{"geometry":{"coordinates":[30.524729,50.461076],"type":"Point"},"properties":{"osm_id":"2509551306","tag":{"amenity":"waste_disposal"}},"type":"Feature"},
	{"geometry":{"coordinates":[30.49831,50.506836],"type":"Point"},"properties":{"osm_id":"3560255195","tag":{"amenity":"waste_basket","level":"2"}},"type":"Feature"},
	{"geometry":{"coordinates":[30.49833,50.506914],"type":"Point"},"properties":{"osm_id":"3560255993","tag":{"amenity":"waste_basket","level":"2"}},"type":"Feature"},
	{"geometry":{"coordinates":[30.498326,50.507062],"type":"Point"},"properties":{"osm_id":"3560256093","tag":{"amenity":"waste_basket","level":"2"}},"type":"Feature"},
	{"geometry":{"coordinates":[30.500311,50.500581],"type":"Point"},"properties":{"osm_id":"3567044811","tag":{"amenity":"waste_basket"}},"type":"Feature"},
	{"geometry":{"coordinates":[30.500367,50.500622],"type":"Point"},"properties":{"osm_id":"3567044812","tag":{"amenity":"waste_basket"}},"type":"Feature"},
	{"geometry":{"coordinates":[30.51792,50.464709],"type":"Point"},"properties":{"osm_id":"3620484593","tag":{"amenity":"waste_basket"}},"type":"Feature"},
	{"geometry":{"coordinates":[30.51803,50.464508],"type":"Point"},"properties":{"osm_id":"3620484693","tag":{"amenity":"waste_basket"}},"type":"Feature"},
	{"geometry":{"coordinates":[30.515425,50.470433],"type":"Point"},"properties":{"osm_id":"3647565799","tag":{"amenity":"waste_disposal"}},"type":"Feature"},
	{"geometry":{"coordinates":[30.513516,50.469613],"type":"Point"},"properties":{"osm_id":"3647565920","tag":{"amenity":"waste_disposal"}},"type":"Feature"},
	{"geometry":{"coordinates":[30.581309,50.469541],"type":"Point"},"properties":{"osm_id":"3815631760","tag":{"amenity":"waste_disposal"}},"type":"Feature"},
	{"geometry":{"coordinates":[30.507586,50.475515],"type":"Point"},"properties":{"osm_id":"3869376586","tag":{"amenity":"recycling","opening_hours":"24/7","recycling:batteries":"yes","recycling:cans":"no","recycling:clothes":"no","recycling:glass":"no","recycling:glass_bottles":"no","recycling:paper":"no","recycling:plastic":"no","recycling_type":"container"}},"type":"Feature"},
	{"geometry":{"coordinates":[30.515356,50.465179],"type":"Point"},"properties":{"osm_id":"4202140225","tag":{"amenity":"waste_disposal"}},"type":"Feature"},
	{"geometry":{"coordinates":[30.519311,50.467129],"type":"Point"},"properties":{"osm_id":"4209021706","tag":{"amenity":"waste_disposal"}},"type":"Feature"},
	{"geometry":{"coordinates":[30.517143,50.465324],"type":"Point"},"properties":{"osm_id":"4335494534","tag":{"amenity":"waste_disposal"}},"type":"Feature"},
	{"geometry":{"coordinates":[30.5214,50.468805],"type":"Point"},"properties":{"osm_id":"4377134806","tag":{"amenity":"waste_disposal"}},"type":"Feature"},
	{"geometry":{"coordinates":[30.520698,50.469672],"type":"Point"},"properties":{"osm_id":"4377134862","tag":{"amenity":"waste_disposal"}},"type":"Feature"},
	{"geometry":{"coordinates":[30.50998,50.463924],"type":"Point"},"properties":{"osm_id":"4410644334","tag":{"amenity":"recycling","recycling_type":"container"}},"type":"Feature"},
	{"geometry":{"coordinates":[30.499409,50.458289],"type":"Point"},"properties":{"osm_id":"4461927094","tag":{"amenity":"waste_disposal"}},"type":"Feature"},
	{"geometry":{"coordinates":[30.522733,50.459053],"type":"Point"},"properties":{"osm_id":"4508517537","tag":{"amenity":"waste_disposal"}},"type":"Feature"},
	{"geometry":{"coordinates":[30.525199,50.460106],"type":"Point"},"properties":{"osm_id":"4518799349","tag":{"amenity":"waste_disposal"}},"type":"Feature"},
	{"geometry":{"coordinates":[30.5171,50.46105],"type":"Point"},"properties":{"osm_id":"4518799350","tag":{"amenity":"waste_disposal"}},"type":"Feature"},
	{"geometry":{"coordinates":[30.522083,50.462743],"type":"Point"},"properties":{"osm_id":"4566770477","tag":{"amenity":"waste_disposal"}},"type":"Feature"},
	{"geometry":{"coordinates":[30.524759,50.460351],"type":"Point"},"properties":{"osm_id":"4931245236","tag":{"amenity":"waste_disposal"}},"type":"Feature"},
	{"geometry":{"coordinates":[30.502508,50.470858],"type":"Point"},"properties":{"osm_id":"4937174704","tag":{"amenity":"waste_disposal"}},"type":"Feature"},
	{"geometry":{"coordinates":[30.503992,50.470379],"type":"Point"},"properties":{"osm_id":"4937174705","tag":{"amenity":"waste_disposal"}},"type":"Feature"},
	{"geometry":{"coordinates":[30.535868,50.458348],"type":"Point"},"properties":{"osm_id":"5005165409","tag":{"amenity":"waste_disposal"}},"type":"Feature"},
	{"geometry":{"coordinates":[30.525007,50.460868],"type":"Point"},"properties":{"osm_id":"5193398137","tag":{"amenity":"waste_disposal"}},"type":"Feature"},
	{"geometry":{"coordinates":[30.509629,50.472024],"type":"Point"},"properties":{"name":"\u00d0\u009a\u00d0\u00be\u00d0\u00bc\u00d0\u00bf\u00d0\u00bb\u00d0\u00b5\u00d0\u00ba\u00d1\u0081\u00d0\u00bd\u00d0\u00b8\u00d0\u00b9 \u00d0\u00bf\u00d1\u0083\u00d0\u00bd\u00d0\u00ba\u00d1\u0082 \u00d0\u00bf\u00d1\u0080\u00d0\u00b8\u00d0\u00b9\u00d0\u00be\u00d0\u00bc\u00d1\u0083 \u00d0\u00b2\u00d1\u0096\u00d0\u00b4\u00d1\u0085\u00d0\u00be\u00d0\u00b4\u00d1\u0096\u00d0\u00b2 \u00d1\u008f\u00d0\u00ba \u00d0\u00b2\u00d1\u0082\u00d0\u00be\u00d1\u0080\u00d0\u00b8\u00d0\u00bd\u00d0\u00bd\u00d0\u00be\u00d1\u0097 \u00d1\u0081\u00d0\u00b8\u00d1\u0080\u00d0\u00be\u00d0\u00b2\u00d0\u00b8\u00d0\u00bd\u00d0\u00b8","osm_id":"5282980424","tag":{"amenity":"recycling","name:en":"Complex point of waste reception as a secondary raw material","name:ru":"\u00d0\u009a\u00d0\u00be\u00d0\u00bc\u00d0\u00bf\u00d0\u00bb\u00d0\u00b5\u00d0\u00ba\u00d1\u0081\u00d0\u00bd\u00d1\u008b\u00d0\u00b9 \u00d0\u00bf\u00d1\u0083\u00d0\u00bd\u00d0\u00ba\u00d1\u0082 \u00d0\u00bf\u00d1\u0080\u00d0\u00b8\u00d0\u00b5\u00d0\u00bc\u00d0\u00b0 \u00d0\u00be\u00d1\u0082\u00d1\u0085\u00d0\u00be\u00d0\u00b4\u00d0\u00be\u00d0\u00b2 \u00d0\u00ba\u00d0\u00b0\u00d0\u00ba \u00d0\u00b2\u00d1\u0082\u00d0\u00be\u00d1\u0080\u00d0\u00b8\u00d1\u0087\u00d0\u00bd\u00d0\u00be\u00d0\u00b3\u00d0\u00be \u00d1\u0081\u00d1\u008b\u00d1\u0080\u00d1\u008c\u00d1\u008f","name:uk":"\u00d0\u009a\u00d0\u00be\u00d0\u00bc\u00d0\u00bf\u00d0\u00bb\u00d0\u00b5\u00d0\u00ba\u00d1\u0081\u00d0\u00bd\u00d0\u00b8\u00d0\u00b9 \u00d0\u00bf\u00d1\u0083\u00d0\u00bd\u00d0\u00ba\u00d1\u0082 \u00d0\u00bf\u00d1\u0080\u00d0\u00b8\u00d0\u00b9\u00d0\u00be\u00d0\u00bc\u00d1\u0083 \u00d0\u00b2\u00d1\u0096\u00d0\u00b4\u00d1\u0085\u00d0\u00be\u00d0\u00b4\u00d1\u0096\u00d0\u00b2 \u00d1\u008f\u00d0\u00ba \u00d0\u00b2\u00d1\u0082\u00d0\u00be\u00d1\u0080\u00d0\u00b8\u00d0\u00bd\u00d0\u00bd\u00d0\u00be\u00d1\u0097 \u00d1\u0081\u00d0\u00b8\u00d1\u0080\u00d0\u00be\u00d0\u00b2\u00d0\u00b8\u00d0\u00bd\u00d0\u00b8","opening_hours":"Mo-Fr 08:00-16:00; Sa off; Su off","operator":"\u00d0\u009a\u00d0\u0098\u00d0\u0087\u00d0\u0092\u00d0\u009c\u00d0\u0086\u00d0\u00a1\u00d0\u00ac\u00d0\u009a\u00d0\u0092\u00d0\u00a2\u00d0\u009e\u00d0\u00a0\u00d0\u00a0\u00d0\u0095\u00d0\u00a1\u00d0\u00a3\u00d0\u00a0\u00d0\u00a1\u00d0\u0098","recycling:cardboard":"yes","recycling:clothes":"yes","recycling:glass":"yes","recycling:glass_bottles":"yes","recycling:paper":"yes","recycling:plastic_bottles":"yes","recycling:plastic_packaging":"yes","recycling_type":"centre"}},"type":"Feature"},
	{"geometry":{"coordinates":[30.512771,50.505984],"type":"Point"},"properties":{"osm_id":"5302318583","tag":{"amenity":"waste_disposal"}},"type":"Feature"},
	{"geometry":{"coordinates":[30.51275,50.505984],"type":"Point"},"properties":{"osm_id":"5302318584","tag":{"amenity":"waste_disposal"}},"type":"Feature"},
	{"geometry":{"coordinates":[30.512729,50.505984],"type":"Point"},"properties":{"osm_id":"5302318585","tag":{"amenity":"waste_disposal"}},"type":"Feature"},
	{"geometry":{"coordinates":[30.503431,50.503184],"type":"Point"},"properties":{"osm_id":"5362098377","tag":{"amenity":"waste_disposal"}},"type":"Feature"},
	{"geometry":{"coordinates":[30.511542,50.465066],"type":"Point"},"properties":{"osm_id":"5409688402","tag":{"amenity":"waste_disposal"}},"type":"Feature"},
	{"geometry":{"coordinates":[30.508368,50.462874],"type":"Point"},"properties":{"osm_id":"5409693269","tag":{"amenity":"waste_disposal"}},"type":"Feature"},
	{"geometry":{"coordinates":[30.546502,50.465538],"type":"Point"},"properties":{"osm_id":"5663547198","tag":{"amenity":"waste_disposal"}},"type":"Feature"},
	{"geometry":{"coordinates":[30.537766,50.459748],"type":"Point"},"properties":{"osm_id":"5663548050","tag":{"amenity":"waste_basket"}},"type":"Feature"},
	{"geometry":{"coordinates":[30.512003,50.496564],"type":"Point"},"properties":{"osm_id":"5700540619","tag":{"amenity":"waste_disposal"}},"type":"Feature"},
	{"geometry":{"coordinates":[30.513911,50.491865],"type":"Point"},"properties":{"osm_id":"5715778355","tag":{"amenity":"waste_disposal"}},"type":"Feature"},
	{"geometry":{"coordinates":[30.515775,50.492651],"type":"Point"},"properties":{"osm_id":"5715778401","tag":{"amenity":"waste_disposal"}},"type":"Feature"},
	{"geometry":{"coordinates":[30.516807,50.492517],"type":"Point"},"properties":{"osm_id":"5715778424","tag":{"amenity":"waste_disposal"}},"type":"Feature"},
	{"geometry":{"coordinates":[30.513654,50.494762],"type":"Point"},"properties":{"osm_id":"5715977464","tag":{"amenity":"waste_disposal"}},"type":"Feature"},
	{"geometry":{"coordinates":[30.519549,50.49378],"type":"Point"},"properties":{"osm_id":"5715986421","tag":{"amenity":"waste_disposal"}},"type":"Feature"},
	{"geometry":{"coordinates":[30.508092,50.492066],"type":"Point"},"properties":{"osm_id":"5717779501","tag":{"amenity":"waste_disposal"}},"type":"Feature"},
	{"geometry":{"coordinates":[30.508006,50.491382],"type":"Point"},"properties":{"osm_id":"5717779502","tag":{"amenity":"waste_disposal"}},"type":"Feature"},
	{"geometry":{"coordinates":[30.515298,50.495178],"type":"Point"},"properties":{"osm_id":"5719830167","tag":{"amenity":"waste_disposal"}},"type":"Feature"},
	{"geometry":{"coordinates":[30.517436,50.494739],"type":"Point"},"properties":{"osm_id":"5719830202","tag":{"amenity":"waste_disposal"}},"type":"Feature"},
	{"geometry":{"coordinates":[30.503898,50.495637],"type":"Point"},"properties":{"osm_id":"5720239383","tag":{"amenity":"waste_disposal"}},"type":"Feature"},
	{"geometry":{"coordinates":[30.502042,50.497843],"type":"Point"},"properties":{"osm_id":"5720239396","tag":{"amenity":"waste_disposal"}},"type":"Feature"},
	{"geometry":{"coordinates":[30.503197,50.498811],"type":"Point"},"properties":{"osm_id":"5722470012","tag":{"amenity":"waste_disposal"}},"type":"Feature"},
	{"geometry":{"coordinates":[30.499376,50.512294],"type":"Point"},"properties":{"osm_id":"5825425804","tag":{"amenity":"waste_basket"}},"type":"Feature"},
	{"geometry":{"coordinates":[30.499379,50.512197],"type":"Point"},"properties":{"osm_id":"5825425805","tag":{"amenity":"waste_basket"}},"type":"Feature"},
	{"geometry":{"coordinates":[30.526786,50.493015],"type":"Point"},"properties":{"osm_id":"5826141753","tag":{"amenity":"waste_basket"}},"type":"Feature"},
	{"geometry":{"coordinates":[30.526764,50.493034],"type":"Point"},"properties":{"osm_id":"5827541905","tag":{"amenity":"waste_basket"}},"type":"Feature"},
	{"geometry":{"coordinates":[30.506179,50.502407],"type":"Point"},"properties":{"osm_id":"5831745684","tag":{"amenity":"waste_disposal"}},"type":"Feature"},
	{"geometry":{"coordinates":[30.508197,50.502096],"type":"Point"},"properties":{"osm_id":"5831746693","tag":{"amenity":"waste_disposal"}},"type":"Feature"},
	{"geometry":{"coordinates":[30.506509,50.496591],"type":"Point"},"properties":{"osm_id":"5834510267","tag":{"amenity":"waste_disposal"}},"type":"Feature"},
	{"geometry":{"coordinates":[30.511528,50.492736],"type":"Point"},"properties":{"osm_id":"5863675851","tag":{"amenity":"waste_disposal"}},"type":"Feature"},
	{"geometry":{"coordinates":[30.507295,50.50273],"type":"Point"},"properties":{"osm_id":"5903280815","tag":{"amenity":"waste_disposal"}},"type":"Feature"},
	{"geometry":{"coordinates":[30.508212,50.501133],"type":"Point"},"properties":{"osm_id":"5908148213","tag":{"amenity":"waste_disposal"}},"type":"Feature"},
	{"geometry":{"coordinates":[30.521488,50.468696],"type":"Point"},"properties":{"osm_id":"5952522785","tag":{"amenity":"waste_disposal","operator":"\u00d0\u0096\u00d0\u00b8\u00d0\u00bb\u00d1\u008b\u00d0\u00b5 \u00d0\u00b4\u00d0\u00be\u00d0\u00bc\u00d0\u00b0"}},"type":"Feature"},
	{"geometry":{"coordinates":[30.520293,50.492038],"type":"Point"},"properties":{"osm_id":"6042631306","tag":{"amenity":"waste_disposal"}},"type":"Feature"},
	{"geometry":{"coordinates":[30.506692,50.468523],"type":"Point"},"properties":{"osm_id":"6076254194","tag":{"amenity":"waste_disposal"}},"type":"Feature"},
	{"geometry":{"coordinates":[30.518522,50.486868],"type":"Point"},"properties":{"osm_id":"6300920740","tag":{"amenity":"waste_disposal"}},"type":"Feature"},
	{"geometry":{"coordinates":[30.498351,50.473811],"type":"Point"},"properties":{"osm_id":"6512139360","tag":{"amenity":"waste_disposal"}},"type":"Feature"},
	{"geometry":{"coordinates":[30.506345,50.471659],"type":"Point"},"properties":{"osm_id":"6560716272","tag":{"amenity":"waste_disposal"}},"type":"Feature"},
	{"geometry":{"coordinates":[30.504936,50.472631],"type":"Point"},"properties":{"osm_id":"6560716273","tag":{"amenity":"waste_disposal"}},"type":"Feature"},
	{"geometry":{"coordinates":[30.519138,50.457743],"type":"Point"},"properties":{"osm_id":"7022781887","tag":{"amenity":"waste_disposal","operator":"\u00d0\u0094\u00d0\u00b5\u00d1\u0081\u00d1\u008f\u00d1\u0082\u00d0\u00b8\u00d0\u00bd\u00d0\u00b0 7"}},"type":"Feature"},
	{"geometry":{"coordinates":[30.507992,50.463633],"type":"Point"},"properties":{"osm_id":"7072194884","tag":{"amenity":"waste_disposal"}},"type":"Feature"},
	{"geometry":{"coordinates":[30.511395,50.468599],"type":"Point"},"properties":{"osm_id":"7393459924","tag":{"amenity":"waste_disposal","colour":"grey","location":"underground","material":"metal"}},"type":"Feature"},
	{"geometry":{"coordinates":[30.507842,50.468947],"type":"Point"},"properties":{"osm_id":"7608960028","tag":{"amenity":"recycling","recycling_type":"container"}},"type":"Feature"},
	{"geometry":{"coordinates":[30.54037,50.461325],"type":"Point"},"properties":{"osm_id":"7798866597","tag":{"amenity":"waste_basket"}},"type":"Feature"},
	{"geometry":{"coordinates":[30.54405,50.488739],"type":"Point"},"properties":{"osm_id":"7798867506","tag":{"amenity":"waste_disposal"}},"type":"Feature"},
	{"geometry":{"coordinates":[30.546525,50.465632],"type":"Point"},"properties":{"osm_id":"7798872784","tag":{"amenity":"waste_disposal"}},"type":"Feature"},
	{"geometry":{"coordinates":[30.54403,50.464606],"type":"Point"},"properties":{"osm_id":"7798873953","tag":{"amenity":"waste_disposal"}},"type":"Feature"},
	{"geometry":{"coordinates":[30.542933,50.463335],"type":"Point"},"properties":{"osm_id":"7798876116","tag":{"amenity":"waste_disposal"}},"type":"Feature"},
	{"geometry":{"coordinates":[30.532252,50.476448],"type":"Point"},"properties":{"name":"\u00d0\u009f\u00d1\u0083\u00d0\u00ba\u00d1\u0082 \u00d0\u00bf\u00d1\u0080\u00d0\u00b8\u00d0\u00b9\u00d0\u00be\u00d0\u00bc\u00d1\u0083 \u00d0\u00b2\u00d1\u0082\u00d0\u00be\u00d1\u0080\u00d1\u0081\u00d0\u00b8\u00d1\u0080\u00d0\u00be\u00d0\u00b2\u00d0\u00b8\u00d0\u00bd\u00d0\u00b8","osm_id":"7874936385","tag":{"amenity":"recycling"}},"type":"Feature"}
]
}
