{
"type": "FeatureCollection",
"features": [
	{"geometry":{"coordinates":[30.514242,50.42725],"type":"Point"},"properties":{"osm_id":"835145195","tag":{"amenity":"waste_disposal"}},"type":"Feature"},
	{"geometry":{"coordinates":[30.520696,50.414793],"type":"Point"},"properties":{"osm_id":"904950709","tag":{"amenity":"recycling"}},"type":"Feature"},
	{"geometry":{"coordinates":[30.509951,50.427613],"type":"Point"},"properties":{"osm_id":"1293809673","tag":{"amenity":"recycling","recycling:glass":"yes","recycling_type":"centre"}},"type":"Feature"},
	{"geometry":{"coordinates":[30.536178,50.42118],"type":"Point"},"properties":{"osm_id":"1485666181","tag":{"amenity":"waste_basket"}},"type":"Feature"},
	{"geometry":{"coordinates":[30.532467,50.443691],"type":"Point"},"properties":{"osm_id":"1935887225","tag":{"amenity":"waste_disposal","waste":"recycling"}},"type":"Feature"},
	{"geometry":{"coordinates":[30.532486,50.4437],"type":"Point"},"properties":{"osm_id":"1935887226","tag":{"amenity":"waste_disposal","waste":"recycling"}},"type":"Feature"},
	{"geometry":{"coordinates":[30.532439,50.44371],"type":"Point"},"properties":{"osm_id":"1935887227","tag":{"amenity":"waste_disposal","waste":"trash"}},"type":"Feature"},
	{"geometry":{"coordinates":[30.532465,50.443722],"type":"Point"},"properties":{"osm_id":"1935887228","tag":{"amenity":"waste_disposal","waste":"trash"}},"type":"Feature"},
	{"geometry":{"coordinates":[30.512549,50.434528],"type":"Point"},"properties":{"osm_id":"2176489368","tag":{"amenity":"recycling","description":"\u00d0\u00a3\u00d1\u0082\u00d0\u00b8\u00d0\u00bb\u00d1\u0096\u00d0\u00b7\u00d0\u00b0\u00d1\u0086\u00d1\u0096\u00d1\u008f \u00d0\u00b1\u00d0\u00b0\u00d1\u0082\u00d0\u00b0\u00d1\u0080\u00d0\u00b5\u00d0\u00b9\u00d0\u00be\u00d0\u00ba","phone":"+38 044 289 70 13","recycling:batteries":"yes","recycling_type":"centre"}},"type":"Feature"},
	{"geometry":{"coordinates":[30.563851,50.402031],"type":"Point"},"properties":{"osm_id":"2197769775","tag":{"amenity":"recycling","recycling_type":"container"}},"type":"Feature"},
	{"geometry":{"coordinates":[30.498917,50.451259],"type":"Point"},"properties":{"osm_id":"2491024296","tag":{"amenity":"waste_basket"}},"type":"Feature"},
	{"geometry":{"coordinates":[30.526641,50.454434],"type":"Point"},"properties":{"osm_id":"2785751969","tag":{"amenity":"waste_disposal"}},"type":"Feature"},
	{"geometry":{"coordinates":[30.551108,50.418689],"type":"Point"},"properties":{"osm_id":"2807199903","tag":{"amenity":"waste_disposal"}},"type":"Feature"},
	{"geometry":{"coordinates":[30.519247,50.427613],"type":"Point"},"properties":{"osm_id":"2809739554","tag":{"amenity":"waste_disposal"}},"type":"Feature"},
	{"geometry":{"coordinates":[30.530239,50.403376],"type":"Point"},"properties":{"osm_id":"2893181947","tag":{"amenity":"waste_basket"}},"type":"Feature"},
	{"geometry":{"coordinates":[30.531379,50.403084],"type":"Point"},"properties":{"osm_id":"2893182462","tag":{"amenity":"waste_basket"}},"type":"Feature"},
	{"geometry":{"coordinates":[30.508037,50.433347],"type":"Point"},"properties":{"osm_id":"2922139079","tag":{"amenity":"waste_disposal"}},"type":"Feature"},
	{"geometry":{"coordinates":[30.498746,50.439203],"type":"Point"},"properties":{"osm_id":"3028689656","tag":{"amenity":"recycling","recycling:batteries":"yes","recycling_type":"container"}},"type":"Feature"},
	{"geometry":{"coordinates":[30.540254,50.414912],"type":"Point"},"properties":{"osm_id":"3245097633","tag":{"amenity":"waste_disposal"}},"type":"Feature"},
	{"geometry":{"coordinates":[30.5406,50.417444],"type":"Point"},"properties":{"osm_id":"3254485672","tag":{"amenity":"waste_disposal"}},"type":"Feature"},
	{"geometry":{"coordinates":[30.503798,50.438852],"type":"Point"},"properties":{"osm_id":"3325300887","tag":{"amenity":"waste_disposal","operator":"\u00d0\u00a1\u00d0\u00b0\u00d0\u00ba\u00d1\u0081\u00d0\u00b0\u00d0\u00b3\u00d0\u00b0\u00d0\u00bd\u00d1\u0081\u00d1\u008c\u00d0\u00ba\u00d0\u00be\u00d0\u00b3\u00d0\u00be 68"}},"type":"Feature"},
	{"geometry":{"coordinates":[30.504373,50.439099],"type":"Point"},"properties":{"osm_id":"3374498651","tag":{"amenity":"waste_disposal"}},"type":"Feature"},
	{"geometry":{"coordinates":[30.502418,50.439381],"type":"Point"},"properties":{"osm_id":"3394445595","tag":{"amenity":"waste_disposal"}},"type":"Feature"},
	{"geometry":{"coordinates":[30.502503,50.43832],"type":"Point"},"properties":{"osm_id":"3399460295","tag":{"amenity":"waste_disposal"}},"type":"Feature"},
	{"geometry":{"coordinates":[30.501422,50.438834],"type":"Point"},"properties":{"osm_id":"3399461695","tag":{"amenity":"waste_disposal"}},"type":"Feature"},
	{"geometry":{"coordinates":[30.500519,50.450675],"type":"Point"},"properties":{"osm_id":"3522738471","tag":{"amenity":"waste_disposal"}},"type":"Feature"},
	{"geometry":{"coordinates":[30.537159,50.441726],"type":"Point"},"properties":{"osm_id":"3531652978","tag":{"amenity":"waste_disposal"}},"type":"Feature"},
	{"geometry":{"coordinates":[30.536149,50.440325],"type":"Point"},"properties":{"osm_id":"3531827428","tag":{"amenity":"waste_disposal"}},"type":"Feature"},
	{"geometry":{"coordinates":[30.536866,50.44308],"type":"Point"},"properties":{"osm_id":"3531827486","tag":{"amenity":"waste_disposal"}},"type":"Feature"},
	{"geometry":{"coordinates":[30.52019,50.415406],"type":"Point"},"properties":{"osm_id":"3890893157","tag":{"amenity":"recycling"}},"type":"Feature"},
	{"geometry":{"coordinates":[30.522833,50.445594],"type":"Point"},"properties":{"osm_id":"3949939684","tag":{"amenity":"waste_disposal"}},"type":"Feature"},
	{"geometry":{"coordinates":[30.523581,50.446703],"type":"Point"},"properties":{"osm_id":"3949940260","tag":{"amenity":"waste_disposal"}},"type":"Feature"},
	{"geometry":{"coordinates":[30.543387,50.420359],"type":"Point"},"properties":{"osm_id":"3967738556","tag":{"amenity":"waste_disposal"}},"type":"Feature"},
	{"geometry":{"coordinates":[30.52008,50.415419],"type":"Point"},"properties":{"osm_id":"4019305989","tag":{"amenity":"recycling"}},"type":"Feature"},
	{"geometry":{"coordinates":[30.516623,50.440992],"type":"Point"},"properties":{"osm_id":"4093669856","tag":{"amenity":"waste_disposal"}},"type":"Feature"},
	{"geometry":{"coordinates":[30.516638,50.441022],"type":"Point"},"properties":{"osm_id":"4093669859","tag":{"amenity":"waste_disposal"}},"type":"Feature"},
	{"geometry":{"coordinates":[30.519716,50.437988],"type":"Point"},"properties":{"osm_id":"4134152284","tag":{"amenity":"waste_disposal"}},"type":"Feature"},
	{"geometry":{"coordinates":[30.503185,50.436722],"type":"Point"},"properties":{"osm_id":"4197839194","tag":{"amenity":"waste_disposal"}},"type":"Feature"},
	{"geometry":{"coordinates":[30.557163,50.436133],"type":"Point"},"properties":{"osm_id":"4253033488","tag":{"amenity":"waste_basket"}},"type":"Feature"},
	{"geometry":{"coordinates":[30.499216,50.448682],"type":"Point"},"properties":{"osm_id":"4281642941","tag":{"amenity":"waste_disposal"}},"type":"Feature"},
	{"geometry":{"coordinates":[30.498867,50.4474],"type":"Point"},"properties":{"osm_id":"4281642942","tag":{"amenity":"waste_disposal"}},"type":"Feature"},
	{"geometry":{"coordinates":[30.498308,50.448084],"type":"Point"},"properties":{"osm_id":"4281642943","tag":{"amenity":"waste_disposal"}},"type":"Feature"},
	{"geometry":{"coordinates":[30.522915,50.415839],"type":"Point"},"properties":{"osm_id":"4282875511","tag":{"amenity":"recycling"}},"type":"Feature"},
	{"geometry":{"coordinates":[30.511528,50.450984],"type":"Point"},"properties":{"osm_id":"4319468998","tag":{"amenity":"waste_disposal"}},"type":"Feature"},
	{"geometry":{"coordinates":[30.501015,50.452948],"type":"Point"},"properties":{"osm_id":"4324923948","tag":{"amenity":"waste_disposal"}},"type":"Feature"},
	{"geometry":{"coordinates":[30.53736,50.429767],"type":"Point"},"properties":{"osm_id":"4363585075","tag":{"amenity":"recycling","recycling_type":"container"}},"type":"Feature"},
	{"geometry":{"coordinates":[30.539315,50.429718],"type":"Point"},"properties":{"osm_id":"4363586591","tag":{"amenity":"waste_basket"}},"type":"Feature"},
	{"geometry":{"coordinates":[30.538713,50.429815],"type":"Point"},"properties":{"osm_id":"4363586718","tag":{"amenity":"recycling","recycling_type":"container"}},"type":"Feature"},
	{"geometry":{"coordinates":[30.537636,50.429409],"type":"Point"},"properties":{"osm_id":"4363586768","tag":{"amenity":"waste_basket"}},"type":"Feature"},
	{"geometry":{"coordinates":[30.539094,50.429272],"type":"Point"},"properties":{"osm_id":"4363586771","tag":{"amenity":"waste_basket"}},"type":"Feature"},
	{"geometry":{"coordinates":[30.537175,50.430701],"type":"Point"},"properties":{"osm_id":"4363665547","tag":{"amenity":"recycling"}},"type":"Feature"},
	{"geometry":{"coordinates":[30.542648,50.419923],"type":"Point"},"properties":{"osm_id":"4393813193","tag":{"amenity":"waste_disposal"}},"type":"Feature"},
	{"geometry":{"coordinates":[30.506495,50.424802],"type":"Point"},"properties":{"osm_id":"4438779371","tag":{"amenity":"recycling","recycling:batteries":"yes","recycling_type":"container"}},"type":"Feature"},
	{"geometry":{"coordinates":[30.52262,50.447212],"type":"Point"},"properties":{"osm_id":"4488243990","tag":{"amenity":"waste_basket"}},"type":"Feature"},
	{"geometry":{"coordinates":[30.531312,50.403659],"type":"Point"},"properties":{"osm_id":"4601923190","tag":{"amenity":"waste_disposal"}},"type":"Feature"},
	{"geometry":{"coordinates":[30.533029,50.411297],"type":"Point"},"properties":{"osm_id":"4742136028","tag":{"amenity":"waste_disposal"}},"type":"Feature"},
	{"geometry":{"coordinates":[30.533834,50.411567],"type":"Point"},"properties":{"osm_id":"4742136060","tag":{"amenity":"waste_disposal"}},"type":"Feature"},
	{"geometry":{"coordinates":[30.533386,50.412226],"type":"Point"},"properties":{"osm_id":"4742136086","tag":{"amenity":"waste_disposal"}},"type":"Feature"},
	{"geometry":{"coordinates":[30.505024,50.434837],"type":"Point"},"properties":{"osm_id":"4838167841","tag":{"amenity":"waste_disposal"}},"type":"Feature"},
	{"geometry":{"coordinates":[30.506509,50.436157],"type":"Point"},"properties":{"osm_id":"4838167843","tag":{"amenity":"waste_disposal","operator":"\u00d0\u00a2\u00d0\u00b0\u00d1\u0080\u00d0\u00b0\u00d1\u0081\u00d0\u00be\u00d0\u00b2\u00d1\u0081\u00d0\u00ba\u00d0\u00b0\u00d1\u008f 19\u00d0\u0090"}},"type":"Feature"},
	{"geometry":{"coordinates":[30.564322,50.417432],"type":"Point"},"properties":{"osm_id":"4840186024","tag":{"amenity":"waste_basket"}},"type":"Feature"},
	{"geometry":{"coordinates":[30.521945,50.454619],"type":"Point"},"properties":{"osm_id":"4858031122","tag":{"amenity":"waste_basket"}},"type":"Feature"},
	{"geometry":{"coordinates":[30.522144,50.454505],"type":"Point"},"properties":{"osm_id":"4858031321","tag":{"amenity":"waste_disposal"}},"type":"Feature"},
	{"geometry":{"coordinates":[30.549588,50.43362],"type":"Point"},"properties":{"osm_id":"4866556521","tag":{"amenity":"waste_disposal"}},"type":"Feature"},
	{"geometry":{"coordinates":[30.546213,50.432935],"type":"Point"},"properties":{"osm_id":"4866633025","tag":{"amenity":"waste_disposal"}},"type":"Feature"},
	{"geometry":{"coordinates":[30.543661,50.435778],"type":"Point"},"properties":{"osm_id":"4866636024","tag":{"amenity":"waste_disposal"}},"type":"Feature"},
	{"geometry":{"coordinates":[30.542324,50.435836],"type":"Point"},"properties":{"osm_id":"4866824522","tag":{"amenity":"waste_disposal"}},"type":"Feature"},
	{"geometry":{"coordinates":[30.522384,50.444848],"type":"Point"},"properties":{"osm_id":"4931542027","tag":{"amenity":"waste_disposal"}},"type":"Feature"},
	{"geometry":{"coordinates":[30.539883,50.429004],"type":"Point"},"properties":{"osm_id":"4945453672","tag":{"amenity":"waste_disposal"}},"type":"Feature"},
	{"geometry":{"coordinates":[30.52868,50.443634],"type":"Point"},"properties":{"osm_id":"4957029874","tag":{"amenity":"waste_disposal"}},"type":"Feature"},
	{"geometry":{"coordinates":[30.522636,50.446034],"type":"Point"},"properties":{"osm_id":"4960274087","tag":{"amenity":"waste_disposal"}},"type":"Feature"},
	{"geometry":{"coordinates":[30.543553,50.423991],"type":"Point"},"properties":{"osm_id":"5022838493","tag":{"amenity":"recycling","description":"\u00d0\u00a3 \u00d0\u00b7\u00d0\u00b0\u00d0\u00bb\u00d1\u0096 Dec place","level":"2","operator":"\u00d0\u00a3\u00d0\u00ba\u00d1\u0080\u00d0\u00b0\u00d1\u0097\u00d0\u00bd\u00d0\u00b0 \u00d0\u00b1\u00d0\u00b5\u00d0\u00b7 \u00d1\u0081\u00d0\u00bc\u00d1\u0096\u00d1\u0082\u00d1\u0082\u00d1\u008f","recycling:PET":"yes","recycling:batteries":"yes","recycling:cardboard":"yes","recycling:paper":"yes","recycling:plastic":"yes","recycling:plastic_bottles":"yes","recycling:plastic_packaging":"yes","recycling:scrap_metal":"yes","recycling_type":"container"}},"type":"Feature"},
	{"geometry":{"coordinates":[30.514662,50.435082],"type":"Point"},"properties":{"osm_id":"5136806924","tag":{"amenity":"waste_basket"}},"type":"Feature"},
	{"geometry":{"coordinates":[30.525057,50.44641],"type":"Point"},"properties":{"osm_id":"5174430164","tag":{"amenity":"waste_disposal"}},"type":"Feature"},
	{"geometry":{"coordinates":[30.509522,50.44822],"type":"Point"},"properties":{"osm_id":"5176404758","tag":{"amenity":"waste_disposal"}},"type":"Feature"},
	{"geometry":{"coordinates":[30.509162,50.447417],"type":"Point"},"properties":{"osm_id":"5176404782","tag":{"amenity":"waste_disposal","operator":"\u00d0\u00a4\u00d1\u0080\u00d0\u00b0\u00d0\u00bd\u00d0\u00ba\u00d0\u00b0 27/31"}},"type":"Feature"},
	{"geometry":{"coordinates":[30.533309,50.435004],"type":"Point"},"properties":{"osm_id":"5412272026","tag":{"amenity":"waste_disposal"}},"type":"Feature"},
	{"geometry":{"coordinates":[30.54195,50.420737],"type":"Point"},"properties":{"osm_id":"5514503229","tag":{"amenity":"waste_disposal"}},"type":"Feature"},
	{"geometry":{"coordinates":[30.542053,50.423226],"type":"Point"},"properties":{"osm_id":"5584612149","tag":{"amenity":"waste_disposal"}},"type":"Feature"},
	{"geometry":{"coordinates":[30.541178,50.423002],"type":"Point"},"properties":{"osm_id":"5584614436","tag":{"amenity":"waste_disposal"}},"type":"Feature"},
	{"geometry":{"coordinates":[30.540182,50.425806],"type":"Point"},"properties":{"osm_id":"5584614439","tag":{"amenity":"waste_disposal"}},"type":"Feature"},
	{"geometry":{"coordinates":[30.539895,50.425831],"type":"Point"},"properties":{"osm_id":"5584614440","tag":{"amenity":"waste_disposal"}},"type":"Feature"},
	{"geometry":{"coordinates":[30.540714,50.424507],"type":"Point"},"properties":{"osm_id":"5584621222","tag":{"amenity":"waste_disposal"}},"type":"Feature"},
	{"geometry":{"coordinates":[30.524743,50.418652],"type":"Point"},"properties":{"osm_id":"5590056025","tag":{"amenity":"recycling","recycling_type":"container"}},"type":"Feature"},
	{"geometry":{"coordinates":[30.526045,50.421325],"type":"Point"},"properties":{"osm_id":"5628286020","tag":{"amenity":"recycling","recycling_type":"container"}},"type":"Feature"},
	{"geometry":{"coordinates":[30.508554,50.455287],"type":"Point"},"properties":{"osm_id":"5646203551","tag":{"amenity":"waste_basket"}},"type":"Feature"},
	{"geometry":{"coordinates":[30.527899,50.42476],"type":"Point"},"properties":{"osm_id":"5683151028","tag":{"amenity":"waste_disposal"}},"type":"Feature"},
	{"geometry":{"coordinates":[30.526137,50.425363],"type":"Point"},"properties":{"osm_id":"5683151029","tag":{"amenity":"waste_disposal"}},"type":"Feature"},
	{"geometry":{"coordinates":[30.53085,50.424962],"type":"Point"},"properties":{"osm_id":"5683166524","tag":{"amenity":"waste_disposal"}},"type":"Feature"},
	{"geometry":{"coordinates":[30.532292,50.424639],"type":"Point"},"properties":{"osm_id":"5683174423","tag":{"amenity":"waste_disposal"}},"type":"Feature"},
	{"geometry":{"coordinates":[30.531148,50.42729],"type":"Point"},"properties":{"osm_id":"5683174622","tag":{"amenity":"waste_disposal"}},"type":"Feature"},
	{"geometry":{"coordinates":[30.529548,50.42705],"type":"Point"},"properties":{"osm_id":"5683174623","tag":{"amenity":"waste_disposal"}},"type":"Feature"},
	{"geometry":{"coordinates":[30.521617,50.442073],"type":"Point"},"properties":{"osm_id":"5700016221","tag":{"amenity":"waste_basket"}},"type":"Feature"},
	{"geometry":{"coordinates":[30.521285,50.442121],"type":"Point"},"properties":{"osm_id":"5705188721","tag":{"amenity":"waste_basket"}},"type":"Feature"},
	{"geometry":{"coordinates":[30.565264,50.402707],"type":"Point"},"properties":{"name":"\u00d0\u009f\u00d1\u0096\u00d0\u00b4\u00d0\u00b4\u00d0\u00be\u00d0\u00bd\u00d0\u00b8","osm_id":"5763387101","tag":{"amenity":"recycling","operator":"palet.com.ua","recycling_type":"centre"}},"type":"Feature"},
	{"geometry":{"coordinates":[30.503224,50.442598],"type":"Point"},"properties":{"osm_id":"5768606779","tag":{"amenity":"waste_disposal"}},"type":"Feature"},
	{"geometry":{"coordinates":[30.534366,50.404435],"type":"Point"},"properties":{"name":"\u00d0\u00a3\u00d0\u00ba\u00d1\u0080\u00d0\u00b0\u00d1\u0097\u00d0\u00bd\u00d0\u00b0 \u00d0\u00b1\u00d0\u00b5\u00d0\u00b7 \u00d1\u0081\u00d0\u00bc\u00d1\u0096\u00d1\u0082\u00d1\u0082\u00d1\u008f","osm_id":"5806156753","tag":{"amenity":"recycling","collection_times":"Tu-Fr 14:00-20:00; Sa,Su 10:00-14:00","contact:website":"http://www.nowaste.com.ua","description":"\u00d0\u0086\u00d0\u00b7 \u00d0\u00bf\u00d0\u00bb\u00d0\u00b0\u00d1\u0081\u00d1\u0082\u00d0\u00b8\u00d0\u00ba\u00d1\u0083 \u00d0\u00bf\u00d1\u0080\u00d0\u00b8\u00d0\u00b9\u00d0\u00bc\u00d0\u00b0\u00d1\u008e\u00d1\u0082\u00d1\u008c\u00d1\u0081\u00d1\u008f \u00d0\u00b3\u00d1\u0080\u00d1\u0083\u00d0\u00bf\u00d0\u00b8 1 (\u00d0\u009f\u00d0\u0095\u00d0\u00a2-\u00d0\u00bf\u00d0\u00bb\u00d1\u008f\u00d1\u0088\u00d0\u00ba\u00d0\u00b8), 2 (LDPE), 4 (HDPE), 5 (PP), 6 (PS). \u00d0\u0091\u00d0\u00b5\u00d0\u00b7 \u00d0\u00bc\u00d0\u00b0\u00d1\u0080\u00d0\u00ba\u00d1\u0083\u00d0\u00b2\u00d0\u00b0\u00d0\u00bd\u00d0\u00bd\u00d1\u008f \u00d0\u00bf\u00d0\u00b5\u00d1\u0080\u00d0\u00b5\u00d1\u0080\u00d0\u00be\u00d0\u00b1\u00d0\u00b8\u00d1\u0082\u00d0\u00b8 \u00d0\u00bd\u00d0\u00b5\u00d0\u00bc\u00d0\u00be\u00d0\u00b6\u00d0\u00bb\u00d0\u00b8\u00d0\u00b2\u00d0\u00be!","name:en":"Nowaste recycling station","name:ru":"\u00d0\u00a3\u00d0\u00ba\u00d1\u0080\u00d0\u00b0\u00d0\u00b8\u00d0\u00bd\u00d0\u00b0 \u00d0\u00b1\u00d0\u00b5\u00d0\u00b7 \u00d0\u00bc\u00d1\u0083\u00d1\u0081\u00d0\u00be\u00d1\u0080\u00d0\u00b0","recycling:batteries":"yes","recycling:cans":"yes","recycling:cardboard":"yes","recycling:glass":"yes","recycling:glass_bottles":"yes","recycling:paper":"yes","recycling:plastic":"yes","recycling:plastic_bottles":"yes","recycling:plastic_packaging":"yes","recycling_type":"centre"}},"type":"Feature"},
	{"geometry":{"coordinates":[30.528032,50.417216],"type":"Point"},"properties":{"osm_id":"5840562619","tag":{"amenity":"recycling","recycling_type":"container"}},"type":"Feature"},
	{"geometry":{"coordinates":[30.523293,50.447782],"type":"Point"},"properties":{"osm_id":"5853680786","tag":{"amenity":"waste_disposal"}},"type":"Feature"},
	{"geometry":{"coordinates":[30.529356,50.418698],"type":"Point"},"properties":{"osm_id":"5940661145","tag":{"amenity":"recycling","recycling_type":"container"}},"type":"Feature"},
	{"geometry":{"coordinates":[30.527023,50.418103],"type":"Point"},"properties":{"osm_id":"6017433514","tag":{"amenity":"recycling","recycling_type":"container"}},"type":"Feature"},
	{"geometry":{"coordinates":[30.529669,50.416493],"type":"Point"},"properties":{"osm_id":"6017433515","tag":{"amenity":"recycling","recycling_type":"container"}},"type":"Feature"},
	{"geometry":{"coordinates":[30.516277,50.447417],"type":"Point"},"properties":{"osm_id":"6018580605","tag":{"amenity":"waste_disposal"}},"type":"Feature"},
	{"geometry":{"coordinates":[30.517784,50.447892],"type":"Point"},"properties":{"osm_id":"6018581891","tag":{"amenity":"waste_disposal"}},"type":"Feature"},
	{"geometry":{"coordinates":[30.523755,50.4175],"type":"Point"},"properties":{"osm_id":"6030050587","tag":{"amenity":"waste_basket","waste":"dog_excrement"}},"type":"Feature"},
	{"geometry":{"coordinates":[30.53076,50.416312],"type":"Point"},"properties":{"osm_id":"6030050588","tag":{"amenity":"waste_basket","waste":"dog_excrement"}},"type":"Feature"},
	{"geometry":{"coordinates":[30.54394,50.411916],"type":"Point"},"properties":{"osm_id":"6158737382","tag":{"amenity":"recycling","recycling_type":"container"}},"type":"Feature"},
	{"geometry":{"coordinates":[30.541901,50.41335],"type":"Point"},"properties":{"osm_id":"6173695305","tag":{"amenity":"recycling","recycling_type":"container"}},"type":"Feature"},
	{"geometry":{"coordinates":[30.505601,50.437577],"type":"Point"},"properties":{"osm_id":"6248987832","tag":{"amenity":"waste_disposal"}},"type":"Feature"},
	{"geometry":{"coordinates":[30.537196,50.449458],"type":"Point"},"properties":{"osm_id":"6355150593","tag":{"amenity":"waste_basket"}},"type":"Feature"},
	{"geometry":{"coordinates":[30.538151,50.449919],"type":"Point"},"properties":{"osm_id":"6355150599","tag":{"amenity":"waste_basket"}},"type":"Feature"},
	{"geometry":{"coordinates":[30.552641,50.438489],"type":"Point"},"properties":{"osm_id":"6427507763","tag":{"amenity":"waste_basket"}},"type":"Feature"},
	{"geometry":{"coordinates":[30.546918,50.441611],"type":"Point"},"properties":{"osm_id":"6461443584","tag":{"amenity":"waste_disposal"}},"type":"Feature"},
	{"geometry":{"coordinates":[30.546979,50.440075],"type":"Point"},"properties":{"osm_id":"6461444810","tag":{"amenity":"waste_disposal"}},"type":"Feature"},
	{"geometry":{"coordinates":[30.560102,50.419837],"type":"Point"},"properties":{"osm_id":"6462258934","tag":{"amenity":"waste_disposal"}},"type":"Feature"},
	{"geometry":{"coordinates":[30.556825,50.414643],"type":"Point"},"properties":{"osm_id":"6462294335","tag":{"amenity":"waste_disposal"}},"type":"Feature"},
	{"geometry":{"coordinates":[30.522695,50.446145],"type":"Point"},"properties":{"osm_id":"6538581618","tag":{"amenity":"recycling","operator":"\u00d0\u009a\u00d0\u00b8\u00d1\u0097\u00d0\u00b2\u00d0\u00ba\u00d0\u00be\u00d0\u00bc\u00d1\u0083\u00d0\u00bd\u00d1\u0081\u00d0\u00b5\u00d1\u0080\u00d0\u00b2\u00d1\u0096\u00d1\u0081","recycling:batteries":"yes","recycling:thermometers":"yes","recycling_type":"container"}},"type":"Feature"},
	{"geometry":{"coordinates":[30.534339,50.44531],"type":"Point"},"properties":{"osm_id":"6549287783","tag":{"amenity":"waste_basket"}},"type":"Feature"},
	{"geometry":{"coordinates":[30.522932,50.451796],"type":"Point"},"properties":{"osm_id":"6563230389","tag":{"amenity":"waste_disposal"}},"type":"Feature"},
	{"geometry":{"coordinates":[30.500955,50.454642],"type":"Point"},"properties":{"osm_id":"6631836774","tag":{"amenity":"waste_disposal"}},"type":"Feature"},
	{"geometry":{"coordinates":[30.50039,50.454474],"type":"Point"},"properties":{"osm_id":"6631836775","tag":{"amenity":"waste_disposal"}},"type":"Feature"},
	{"geometry":{"coordinates":[30.502337,50.445249],"type":"Point"},"properties":{"osm_id":"6709152171","tag":{"amenity":"waste_basket","colour":"brown","material":"wood"}},"type":"Feature"},
	{"geometry":{"coordinates":[30.517061,50.425756],"type":"Point"},"properties":{"osm_id":"6780216385","tag":{"amenity":"waste_disposal","operator":"102"}},"type":"Feature"},
	{"geometry":{"coordinates":[30.515505,50.432541],"type":"Point"},"properties":{"osm_id":"6780236785","tag":{"amenity":"waste_disposal","operator":"68"}},"type":"Feature"},
	{"geometry":{"coordinates":[30.518588,50.446324],"type":"Point"},"properties":{"osm_id":"6780251885","tag":{"amenity":"waste_disposal","operator":"8, 11, 21"}},"type":"Feature"},
	{"geometry":{"coordinates":[30.501983,50.445454],"type":"Point"},"properties":{"osm_id":"6780259185","tag":{"amenity":"waste_disposal","operator":"\u00d0\u00a8\u00d0\u00b5\u00d0\u00b2\u00d1\u0087\u00d0\u00b5\u00d0\u00bd\u00d0\u00ba\u00d0\u00b0 36"}},"type":"Feature"},
	{"geometry":{"coordinates":[30.501186,50.445813],"type":"Point"},"properties":{"osm_id":"6780260485","tag":{"amenity":"waste_disposal","operator":"\u00d0\u00a8\u00d0\u00b5\u00d0\u00b2\u00d1\u0087\u00d0\u00b5\u00d0\u00bd\u00d0\u00ba\u00d0\u00b0 38/40"}},"type":"Feature"},
	{"geometry":{"coordinates":[30.515649,50.438915],"type":"Point"},"properties":{"osm_id":"6780269885","tag":{"amenity":"waste_disposal","operator":"\u00d0\u0092\u00d0\u00b5\u00d0\u00bb\u00d0\u00b8\u00d0\u00ba\u00d0\u00b0 \u00d0\u00b2\u00d0\u00b0\u00d1\u0081\u00d0\u00b8\u00d0\u00bb\u00d1\u008c\u00d0\u00ba\u00d1\u0096\u00d0\u00b2\u00d1\u0081\u00d1\u008c\u00d0\u00ba\u00d0\u00b0 24"}},"type":"Feature"},
	{"geometry":{"coordinates":[30.515743,50.438289],"type":"Point"},"properties":{"osm_id":"6780272185","tag":{"amenity":"waste_disposal","operator":"\u00d0\u0092\u00d0\u00b5\u00d0\u00bb\u00d0\u00b8\u00d0\u00ba\u00d0\u00b0 \u00d0\u0092\u00d0\u00b0\u00d1\u0081\u00d0\u00b8\u00d0\u00bb\u00d1\u008c\u00d0\u00ba\u00d1\u0096\u00d0\u00b2\u00d1\u0081\u00d1\u008c\u00d0\u00ba\u00d0\u00b0 30\u00d0\u0090"}},"type":"Feature"},
	{"geometry":{"coordinates":[30.515765,50.438115],"type":"Point"},"properties":{"osm_id":"6780272985","tag":{"amenity":"waste_disposal","operator":"\u00d0\u0092\u00d0\u00b5\u00d0\u00bb\u00d0\u00b8\u00d0\u00ba\u00d0\u00b0 \u00d0\u0092\u00d0\u00b0\u00d1\u0081\u00d0\u00b8\u00d0\u00bb\u00d1\u008c\u00d0\u00ba\u00d1\u0096\u00d0\u00b2\u00d1\u0081\u00d1\u008c\u00d0\u00ba\u00d0\u00b0 32\u00d0\u0090"}},"type":"Feature"},
	{"geometry":{"coordinates":[30.515763,50.437332],"type":"Point"},"properties":{"osm_id":"6780273985","tag":{"amenity":"waste_disposal","operator":"\u00d0\u0092\u00d0\u00b5\u00d0\u00bb\u00d0\u00b8\u00d0\u00ba\u00d0\u00b0 \u00d0\u0092\u00d0\u00b0\u00d1\u0081\u00d0\u00b8\u00d0\u00bb\u00d1\u008c\u00d0\u00ba\u00d1\u0096\u00d0\u00b2\u00d1\u0081\u00d1\u008c\u00d0\u00ba\u00d0\u00b0 40"}},"type":"Feature"},
	{"geometry":{"coordinates":[30.515815,50.43673],"type":"Point"},"properties":{"osm_id":"6780274885","tag":{"amenity":"waste_disposal","operator":"\u00d0\u0092\u00d0\u00b5\u00d0\u00bb\u00d0\u00b8\u00d0\u00ba\u00d0\u00b0 \u00d0\u0092\u00d0\u00b0\u00d1\u0081\u00d0\u00b8\u00d0\u00bb\u00d1\u008c\u00d0\u00ba\u00d1\u0096\u00d0\u00b2\u00d1\u0081\u00d1\u008c\u00d0\u00ba\u00d0\u00b0 48"}},"type":"Feature"},
	{"geometry":{"coordinates":[30.513736,50.43616],"type":"Point"},"properties":{"osm_id":"6780276785","tag":{"amenity":"waste_disposal","operator":"\u00d0\u0090\u00d0\u00bd\u00d1\u0082\u00d0\u00be\u00d0\u00bd\u00d0\u00be\u00d0\u00b2\u00d0\u00b8\u00d1\u0087\u00d0\u00b0 25"}},"type":"Feature"},
	{"geometry":{"coordinates":[30.512217,50.436004],"type":"Point"},"properties":{"osm_id":"6780280785","tag":{"amenity":"waste_disposal","operator":"\u00d0\u00a1\u00d0\u00b0\u00d0\u00ba\u00d1\u0081\u00d0\u00b0\u00d0\u00b3\u00d0\u00b0\u00d0\u00bd\u00d1\u0081\u00d1\u008c\u00d0\u00ba\u00d0\u00be\u00d0\u00b3\u00d0\u00be 30\u00d0\u0090"}},"type":"Feature"},
	{"geometry":{"coordinates":[30.508205,50.436129],"type":"Point"},"properties":{"osm_id":"6780285285","tag":{"amenity":"waste_disposal","operator":"\u00d0\u00a1\u00d0\u00b0\u00d0\u00ba\u00d1\u0081\u00d0\u00b0\u00d0\u00b3\u00d0\u00b0\u00d0\u00bd\u00d1\u0081\u00d1\u008c\u00d0\u00ba\u00d0\u00be\u00d0\u00b3\u00d0\u00be 55"}},"type":"Feature"},
	{"geometry":{"coordinates":[30.504927,50.437351],"type":"Point"},"properties":{"osm_id":"6780286186","tag":{"amenity":"waste_disposal","operator":"\u00d0\u00a1\u00d0\u00b0\u00d0\u00ba\u00d1\u0081\u00d0\u00b0\u00d0\u00b3\u00d0\u00b0\u00d0\u00bd\u00d1\u0081\u00d1\u008c\u00d0\u00ba\u00d0\u00be\u00d0\u00b3\u00d0\u00be 58"}},"type":"Feature"},
	{"geometry":{"coordinates":[30.501722,50.4396],"type":"Point"},"properties":{"osm_id":"6780286187","tag":{"amenity":"waste_disposal","operator":"\u00d0\u00a1\u00d0\u00b0\u00d0\u00ba\u00d1\u0081\u00d0\u00b0\u00d0\u00b3\u00d0\u00b0\u00d0\u00bd\u00d1\u0081\u00d1\u008c\u00d0\u00ba\u00d0\u00be\u00d0\u00b3\u00d0\u00be 91"}},"type":"Feature"},
	{"geometry":{"coordinates":[30.501044,50.440317],"type":"Point"},"properties":{"osm_id":"6780298085","tag":{"amenity":"waste_disposal","operator":"\u00d0\u00a1\u00d0\u00b0\u00d0\u00ba\u00d1\u0081\u00d0\u00b0\u00d0\u00b3\u00d0\u00b0\u00d0\u00bd\u00d1\u0081\u00d1\u008c\u00d0\u00ba\u00d0\u00be\u00d0\u00b3\u00d0\u00be 78"}},"type":"Feature"},
	{"geometry":{"coordinates":[30.510792,50.4383],"type":"Point"},"properties":{"osm_id":"6780310685","tag":{"amenity":"waste_disposal","operator":"\u00d0\u0092\u00d0\u00bb\u00d0\u00b0\u00d0\u00b4\u00d0\u00b8\u00d0\u00bc\u00d0\u00b8\u00d1\u0080\u00d1\u0081\u00d0\u00ba\u00d0\u00b0\u00d1\u008f 69, 71, 73"}},"type":"Feature"},
	{"geometry":{"coordinates":[30.510031,50.437412],"type":"Point"},"properties":{"osm_id":"6780311685","tag":{"amenity":"waste_disposal","operator":"\u00d0\u0092\u00d0\u00bb\u00d0\u00b0\u00d0\u00b4\u00d0\u00b8\u00d0\u00bc\u00d0\u00b8\u00d1\u0080\u00d1\u0081\u00d0\u00ba\u00d0\u00b0\u00d1\u008f 79"}},"type":"Feature"},
	{"geometry":{"coordinates":[30.509524,50.437366],"type":"Point"},"properties":{"osm_id":"6780312585","tag":{"amenity":"waste_disposal","operator":"\u00d0\u0092\u00d0\u00bb\u00d0\u00b0\u00d0\u00b4\u00d0\u00b8\u00d0\u00bc\u00d0\u00b8\u00d1\u0080\u00d1\u0081\u00d0\u00ba\u00d0\u00b0\u00d1\u008f 76"}},"type":"Feature"},
	{"geometry":{"coordinates":[30.50985,50.436802],"type":"Point"},"properties":{"osm_id":"6780312586","tag":{"amenity":"waste_disposal","operator":"\u00d0\u0092\u00d0\u00bb\u00d0\u00b0\u00d0\u00b4\u00d0\u00b8\u00d0\u00bc\u00d0\u00b8\u00d1\u0080\u00d1\u0081\u00d0\u00ba\u00d0\u00b0\u00d1\u008f 81"}},"type":"Feature"},
	{"geometry":{"coordinates":[30.503873,50.434478],"type":"Point"},"properties":{"osm_id":"6780317085","tag":{"amenity":"waste_disposal","operator":"\u00d0\u0096\u00d0\u00b8\u00d0\u00bb\u00d1\u008f\u00d0\u00bd\u00d1\u0081\u00d0\u00ba\u00d0\u00b0\u00d1\u008f 45"}},"type":"Feature"},
	{"geometry":{"coordinates":[30.503473,50.434596],"type":"Point"},"properties":{"osm_id":"6780317585","tag":{"amenity":"waste_disposal","operator":"\u00d0\u00af\u00d0\u00bd\u00d0\u00b0 \u00d0\u0092\u00d0\u00b0\u00d1\u0081\u00d0\u00b8\u00d0\u00bb\u00d1\u008f 16"}},"type":"Feature"},
	{"geometry":{"coordinates":[30.506742,50.437281],"type":"Point"},"properties":{"osm_id":"6780323185","tag":{"amenity":"waste_disposal","operator":"\u00d0\u00a2\u00d0\u00b0\u00d1\u0080\u00d0\u00b0\u00d1\u0081\u00d0\u00be\u00d0\u00b2\u00d1\u0081\u00d0\u00ba\u00d0\u00b0\u00d1\u008f 20"}},"type":"Feature"},
	{"geometry":{"coordinates":[30.507723,50.440451],"type":"Point"},"properties":{"osm_id":"6780323186","tag":{"amenity":"waste_disposal","operator":"\u00d0\u00a2\u00d0\u00b0\u00d1\u0080\u00d0\u00b0\u00d1\u0081\u00d0\u00be\u00d0\u00b2\u00d1\u0081\u00d0\u00ba\u00d0\u00b0\u00d1\u008f 2"}},"type":"Feature"},
	{"geometry":{"coordinates":[30.523284,50.446056],"type":"Point"},"properties":{"osm_id":"6848776085","tag":{"amenity":"waste_disposal"}},"type":"Feature"},
	{"geometry":{"coordinates":[30.508889,50.407931],"type":"Point"},"properties":{"osm_id":"6866622536","tag":{"amenity":"waste_disposal"}},"type":"Feature"},
	{"geometry":{"coordinates":[30.507934,50.447642],"type":"Point"},"properties":{"osm_id":"6888722156","tag":{"amenity":"waste_disposal"}},"type":"Feature"},
	{"geometry":{"coordinates":[30.507299,50.44627],"type":"Point"},"properties":{"osm_id":"6888722163","tag":{"amenity":"waste_disposal"}},"type":"Feature"},
	{"geometry":{"coordinates":[30.521048,50.453766],"type":"Point"},"properties":{"osm_id":"7022794185","tag":{"amenity":"waste_disposal","operator":"\u00d0\u009c\u00d0\u00b8\u00d1\u0085\u00d0\u00b0\u00d0\u00b9\u00d0\u00bb\u00d0\u00be\u00d0\u00b2\u00d1\u0081\u00d0\u00ba\u00d0\u00b8\u00d0\u00b9 \u00d0\u00bf\u00d1\u0080\u00d0\u00be\u00d0\u00b2. 4"}},"type":"Feature"},
	{"geometry":{"coordinates":[30.519138,50.456649],"type":"Point"},"properties":{"osm_id":"7022794285","tag":{"amenity":"waste_disposal","operator":"\u00d0\u0092\u00d0\u00be\u00d0\u00bb\u00d0\u00be\u00d0\u00b4\u00d0\u00b8\u00d0\u00bc\u00d0\u00b8\u00d1\u0080\u00d0\u00b8\u00d0\u00b2\u00d1\u0081\u00d1\u008c\u00d0\u00ba\u00d0\u00b0 7-9"}},"type":"Feature"},
	{"geometry":{"coordinates":[30.514517,50.453951],"type":"Point"},"properties":{"osm_id":"7022794385","tag":{"amenity":"waste_disposal","operator":"\u00d0\u00bf\u00d0\u00b5\u00d1\u0080. \u00d0\u00a0\u00d0\u00b8\u00d0\u00bb\u00d1\u008c\u00d1\u0081\u00d1\u008c\u00d0\u00ba\u00d0\u00b8\u00d0\u00b9 3"}},"type":"Feature"},
	{"geometry":{"coordinates":[30.516926,50.452515],"type":"Point"},"properties":{"osm_id":"7022794485","tag":{"amenity":"waste_disposal","operator":"\u00d0\u0092\u00d0\u00be\u00d0\u00bb\u00d0\u00be\u00d0\u00b4\u00d0\u00b8\u00d0\u00bc\u00d0\u00b8\u00d1\u0080\u00d0\u00b8\u00d0\u00b2\u00d1\u0081\u00d1\u008c\u00d0\u00ba\u00d0\u00b0 20"}},"type":"Feature"},
	{"geometry":{"coordinates":[30.513576,50.451649],"type":"Point"},"properties":{"osm_id":"7022834185","tag":{"amenity":"waste_disposal","operator":"\u00d0\u00a0\u00d0\u00b5\u00d0\u00b9\u00d1\u0082\u00d0\u00b5\u00d1\u0080\u00d1\u0081\u00d1\u008c\u00d0\u00ba\u00d0\u00b0 2"}},"type":"Feature"},
	{"geometry":{"coordinates":[30.51145,50.4513],"type":"Point"},"properties":{"osm_id":"7022839485","tag":{"amenity":"waste_disposal","operator":"\u00d0\u00af\u00d1\u0080\u00d0\u00be\u00d1\u0081\u00d0\u00bb\u00d0\u00b0\u00d0\u00b2\u00d0\u00b8\u00d0\u00b2 \u00d0\u00b2\u00d0\u00b0\u00d0\u00bb 17"}},"type":"Feature"},
	{"geometry":{"coordinates":[30.513103,50.450602],"type":"Point"},"properties":{"osm_id":"7022853985","tag":{"amenity":"waste_disposal","operator":"\u00d0\u0097\u00d0\u00be\u00d0\u00bb\u00d0\u00be\u00d1\u0082\u00d0\u00be\u00d0\u00b2\u00d0\u00be\u00d1\u0080\u00d0\u00b8\u00d1\u0082\u00d1\u0081\u00d0\u00ba\u00d0\u00b0\u00d1\u008f 2\u00d0\u0090"}},"type":"Feature"},
	{"geometry":{"coordinates":[30.513369,50.449575],"type":"Point"},"properties":{"osm_id":"7022854085","tag":{"amenity":"waste_disposal","operator":"\u00d0\u0097\u00d0\u00be\u00d0\u00bb\u00d0\u00be\u00d1\u0082\u00d0\u00be\u00d0\u00b2\u00d0\u00be\u00d1\u0080\u00d0\u00b8\u00d1\u0082\u00d1\u0081\u00d0\u00ba\u00d0\u00b0\u00d1\u008f 8/4"}},"type":"Feature"},
	{"geometry":{"coordinates":[30.512245,50.447029],"type":"Point"},"properties":{"osm_id":"7022854088","tag":{"amenity":"waste_disposal","operator":"\u00d0\u0092\u00d0\u00be\u00d0\u00bb\u00d0\u00be\u00d0\u00b4\u00d0\u00b8\u00d0\u00bc\u00d0\u00b8\u00d1\u0080\u00d0\u00b8\u00d0\u00b2\u00d1\u0081\u00d1\u008c\u00d0\u00ba\u00d0\u00b0 50"}},"type":"Feature"},
	{"geometry":{"coordinates":[30.510625,50.446524],"type":"Point"},"properties":{"osm_id":"7022879285","tag":{"amenity":"waste_disposal","operator":"\u00d0\u00a5\u00d0\u00bc\u00d0\u00b5\u00d0\u00bb\u00d1\u008c\u00d0\u00bd\u00d0\u00b8\u00d1\u0086\u00d0\u00ba\u00d0\u00be\u00d0\u00b3\u00d0\u00be 32 (\u00d0\u00b0\u00d1\u0080\u00d0\u00ba\u00d0\u00b0)"}},"type":"Feature"},
	{"geometry":{"coordinates":[30.509666,50.446727],"type":"Point"},"properties":{"osm_id":"7022879286","tag":{"amenity":"waste_disposal","operator":"\u00d0\u00a5\u00d0\u00bc\u00d0\u00b5\u00d0\u00bb\u00d1\u008c\u00d0\u00bd\u00d0\u00b8\u00d1\u0086\u00d0\u00ba\u00d0\u00be\u00d0\u00b3\u00d0\u00be 36"}},"type":"Feature"},
	{"geometry":{"coordinates":[30.506369,50.447213],"type":"Point"},"properties":{"osm_id":"7022879287","tag":{"amenity":"waste_disposal","operator":"\u00d0\u00a5\u00d0\u00bc\u00d0\u00b5\u00d0\u00bb\u00d1\u008c\u00d0\u00bd\u00d0\u00b8\u00d1\u0086\u00d0\u00ba\u00d0\u00be\u00d0\u00b3\u00d0\u00be 50"}},"type":"Feature"},
	{"geometry":{"coordinates":[30.503338,50.447756],"type":"Point"},"properties":{"osm_id":"7022879288","tag":{"amenity":"waste_disposal","operator":"\u00d0\u00a5\u00d0\u00bc\u00d0\u00b5\u00d0\u00bb\u00d1\u008c\u00d0\u00bd\u00d0\u00b8\u00d1\u0086\u00d0\u00ba\u00d0\u00be\u00d0\u00b3\u00d0\u00be 68 (\u00d0\u00b0\u00d1\u0080\u00d0\u00ba\u00d0\u00b0)"}},"type":"Feature"},
	{"geometry":{"coordinates":[30.502579,50.447894],"type":"Point"},"properties":{"osm_id":"7022879289","tag":{"amenity":"waste_disposal","operator":"\u00d0\u00a5\u00d0\u00bc\u00d0\u00b5\u00d0\u00bb\u00d1\u008c\u00d0\u00bd\u00d0\u00b8\u00d1\u0086\u00d0\u00ba\u00d0\u00be\u00d0\u00b3\u00d0\u00be 70"}},"type":"Feature"},
	{"geometry":{"coordinates":[30.508947,50.44696],"type":"Point"},"properties":{"osm_id":"7022879385","tag":{"amenity":"waste_disposal","operator":"\u00d0\u00a4\u00d1\u0080\u00d0\u00b0\u00d0\u00bd\u00d0\u00ba\u00d0\u00b0 25/40 (\u00d0\u00b0\u00d1\u0080\u00d0\u00ba\u00d0\u00b0)"}},"type":"Feature"},
	{"geometry":{"coordinates":[30.510209,50.449006],"type":"Point"},"properties":{"osm_id":"7022879485","tag":{"amenity":"waste_disposal","operator":"\u00d0\u009b\u00d0\u00b8\u00d1\u0081\u00d0\u00b5\u00d0\u00bd\u00d0\u00ba\u00d0\u00be 4"}},"type":"Feature"},
	{"geometry":{"coordinates":[30.504983,50.447441],"type":"Point"},"properties":{"osm_id":"7022879486","tag":{"amenity":"waste_disposal","operator":"\u00d0\u00a5\u00d0\u00bc\u00d0\u00b5\u00d0\u00bb\u00d1\u008c\u00d0\u00bd\u00d0\u00b8\u00d1\u0086\u00d0\u00ba\u00d0\u00be\u00d0\u00b3\u00d0\u00be 62"}},"type":"Feature"},
	{"geometry":{"coordinates":[30.508582,50.446178],"type":"Point"},"properties":{"osm_id":"7022890486","tag":{"amenity":"waste_disposal","operator":"\u00d0\u00a4\u00d1\u0080\u00d0\u00b0\u00d0\u00bd\u00d0\u00ba\u00d0\u00b0 27/31"}},"type":"Feature"},
	{"geometry":{"coordinates":[30.508287,50.44601],"type":"Point"},"properties":{"osm_id":"7022890885","tag":{"amenity":"waste_disposal","operator":"\u00d0\u00a4\u00d1\u0080\u00d0\u00b0\u00d0\u00bd\u00d0\u00ba\u00d0\u00b0 36"}},"type":"Feature"},
	{"geometry":{"coordinates":[30.510001,50.445614],"type":"Point"},"properties":{"osm_id":"7022898385","tag":{"amenity":"waste_disposal","operator":"\u00d0\u00a5\u00d0\u00bc 29/2; \u00d0\u00a5\u00d0\u00bc. 27/1, \u00d0\u009b\u00d0\u00b5\u00d0\u00be\u00d0\u00bd\u00d1\u0082\u00d0\u00be\u00d0\u00bd\u00d0\u00be\u00d0\u00b2\u00d0\u00b8\u00d1\u0087\u00d0\u00b0 3"}},"type":"Feature"},
	{"geometry":{"coordinates":[30.511637,50.44711],"type":"Point"},"properties":{"osm_id":"7022907585","tag":{"amenity":"waste_disposal","operator":"\u00d0\u009b\u00d0\u00b8\u00d1\u0081\u00d0\u00b5\u00d0\u00bd\u00d0\u00ba\u00d0\u00be 8"}},"type":"Feature"},
	{"geometry":{"coordinates":[30.512242,50.4481],"type":"Point"},"properties":{"osm_id":"7022907685","tag":{"amenity":"waste_disposal","operator":"\u00d0\u009b\u00d0\u00b8\u00d1\u0081\u00d0\u00b5\u00d0\u00bd\u00d0\u00ba\u00d0\u00be 1"}},"type":"Feature"},
	{"geometry":{"coordinates":[30.510767,50.450316],"type":"Point"},"properties":{"osm_id":"7022917785","tag":{"amenity":"waste_disposal","operator":"\u00d0\u00af\u00d1\u0080\u00d0\u00be\u00d1\u0081\u00d0\u00bb\u00d0\u00b0\u00d0\u00b2\u00d0\u00b8\u00d0\u00b2 \u00d0\u00b2\u00d0\u00b0\u00d0\u00bb 9"}},"type":"Feature"},
	{"geometry":{"coordinates":[30.510357,50.450505],"type":"Point"},"properties":{"osm_id":"7022917786","tag":{"amenity":"waste_disposal","operator":"\u00d0\u00af\u00d1\u0080\u00d0\u00be\u00d1\u0081\u00d0\u00bb\u00d0\u00b0\u00d0\u00b2\u00d0\u00b8\u00d0\u00b2 \u00d0\u00b2\u00d0\u00b0\u00d0\u00bb 11"}},"type":"Feature"},
	{"geometry":{"coordinates":[30.547615,50.441049],"type":"Point"},"properties":{"osm_id":"7117611513","tag":{"amenity":"recycling","colour":"orange","operator":"\u00d0\u009a\u00d0\u00b8\u00d1\u0097\u00d0\u00b2\u00d0\u00ba\u00d0\u00be\u00d0\u00bc\u00d1\u0083\u00d0\u00bd\u00d1\u0081\u00d0\u00b5\u00d1\u0080\u00d0\u00b2\u00d1\u0096\u00d1\u0081","recycling:batteries":"yes","recycling:bulbs":"yes","recycling:thermometers":"yes","recycling_type":"container"}},"type":"Feature"},
	{"geometry":{"coordinates":[30.568292,50.428456],"type":"Point"},"properties":{"osm_id":"7393459922","tag":{"amenity":"waste_disposal","colour":"grey","location":"underground","material":"metal"}},"type":"Feature"},
	{"geometry":{"coordinates":[30.498999,50.448784],"type":"Point"},"properties":{"osm_id":"7393459923","tag":{"amenity":"waste_disposal","colour":"grey","location":"underground","material":"metal"}},"type":"Feature"},
	{"geometry":{"coordinates":[30.522869,50.444988],"type":"Point"},"properties":{"osm_id":"7563804449","tag":{"amenity":"waste_disposal"}},"type":"Feature"},
	{"geometry":{"coordinates":[30.550004,50.416635],"type":"Point"},"properties":{"osm_id":"7618604052","tag":{"amenity":"waste_disposal"}},"type":"Feature"},
	{"geometry":{"coordinates":[30.53167,50.402228],"type":"Point"},"properties":{"osm_id":"7658722636","tag":{"amenity":"waste_disposal"}},"type":"Feature"},
	{"geometry":{"coordinates":[30.533572,50.401885],"type":"Point"},"properties":{"osm_id":"7658746799","tag":{"amenity":"waste_disposal"}},"type":"Feature"},
	{"geometry":{"coordinates":[30.527373,50.416763],"type":"Point"},"properties":{"osm_id":"7682309811","tag":{"amenity":"waste_basket"}},"type":"Feature"},
	{"geometry":{"coordinates":[30.533259,50.416883],"type":"Point"},"properties":{"osm_id":"7700134193","tag":{"amenity":"waste_disposal"}},"type":"Feature"},
	{"geometry":{"coordinates":[30.533664,50.415281],"type":"Point"},"properties":{"osm_id":"7700134195","tag":{"amenity":"waste_disposal","covered":"yes"}},"type":"Feature"},
	{"geometry":{"coordinates":[30.513893,50.442949],"type":"Point"},"properties":{"osm_id":"7705217885","tag":{"amenity":"waste_basket"}},"type":"Feature"},
	{"geometry":{"coordinates":[30.532291,50.41658],"type":"Point"},"properties":{"osm_id":"7812622033","tag":{"amenity":"recycling","opening_hours":"Mo-Fr 08:30-20:00,","recycling:cardboard":"yes","recycling:paper":"yes","recycling:plastic_bottles":"yes","recycling:scrap_metal":"yes","recycling_type":"centre","wheelchair":"yes"}},"type":"Feature"},
	{"geometry":{"coordinates":[30.530938,50.418395],"type":"Point"},"properties":{"osm_id":"7812622034","tag":{"amenity":"waste_disposal","waste":"trash"}},"type":"Feature"},
	{"geometry":{"coordinates":[30.532461,50.416779],"type":"Point"},"properties":{"osm_id":"7812622035","tag":{"amenity":"waste_disposal","waste":"trash"}},"type":"Feature"},
	{"geometry":{"coordinates":[30.555064,50.415919],"type":"Point"},"properties":{"osm_id":"7840873091","tag":{"amenity":"waste_basket"}},"type":"Feature"},
	{"geometry":{"coordinates":[30.513736,50.433035],"type":"Point"},"properties":{"osm_id":"7908833364","tag":{"amenity":"waste_disposal"}},"type":"Feature"},
	{"geometry":{"coordinates":[30.512944,50.433059],"type":"Point"},"properties":{"osm_id":"7951448042","tag":{"access":"permissive","amenity":"waste_disposal"}},"type":"Feature"}
]
}
