{
"type": "FeatureCollection",
"features": [
	{"geometry":{"coordinates":[30.577886,36.571778],"type":"Point"},"properties":{"osm_id":"763554425","tag":{"amenity":"recycling","recycling:paper":"yes","recycling:scrap_metal":"yes"}},"type":"Feature"},
	{"geometry":{"coordinates":[30.565657,36.556904],"type":"Point"},"properties":{"osm_id":"1832442702","tag":{"amenity":"waste_disposal"}},"type":"Feature"},
	{"geometry":{"coordinates":[30.565409,36.557525],"type":"Point"},"properties":{"osm_id":"1834155913","tag":{"amenity":"waste_disposal"}},"type":"Feature"},
	{"geometry":{"coordinates":[30.538167,36.580009],"type":"Point"},"properties":{"osm_id":"7947344856","tag":{"addr:street":"Kader Buse Acar Cd.","amenity":"waste_disposal","waste":"excrements;grey_water;organic;plastic;trash"}},"type":"Feature"},
	{"geometry":{"coordinates":[30.551434,36.557119],"type":"Point"},"properties":{"osm_id":"7993444397","tag":{"amenity":"waste_disposal","waste":"organic;plastic;trash"}},"type":"Feature"},
	{"geometry":{"coordinates":[30.539131,36.578406],"type":"Point"},"properties":{"osm_id":"7993444398","tag":{"addr:street":"Yeni Cd.","amenity":"waste_disposal","waste":"organic;plastic;trash;grey_water"}},"type":"Feature"},
	{"geometry":{"coordinates":[30.539567,36.578883],"type":"Point"},"properties":{"osm_id":"8044256033","tag":{"amenity":"waste_disposal","waste":"excrements;grey_water;organic;plastic;trash"}},"type":"Feature"},
	{"geometry":{"coordinates":[30.53697,36.579711],"type":"Point"},"properties":{"osm_id":"8044256034","tag":{"amenity":"waste_disposal","waste":"excrements;grey_water;organic;plastic;trash"}},"type":"Feature"},
	{"geometry":{"coordinates":[30.541054,36.578103],"type":"Point"},"properties":{"osm_id":"8044256035","tag":{"addr:street":"Yeni Cd.","amenity":"waste_disposal","waste":"excrements;grey_water;organic;plastic;trash"}},"type":"Feature"}
]
}
