{
"type": "FeatureCollection",
"features": [
	{"geometry":{"coordinates":[34.276728,54.01769],"type":"Point"},"properties":{"osm_id":"4084069433","tag":{"addr:city":"\u00d0\u009c\u00d0\u00b0\u00d0\u00bb\u00d0\u00b0\u00d1\u008f \u00d0\u009f\u00d0\u00b5\u00d1\u0081\u00d0\u00be\u00d1\u0087\u00d0\u00bd\u00d1\u008f","addr:postcode":"249431","addr:street":"\u00d0\u00a6\u00d0\u00b5\u00d0\u00bd\u00d1\u0082\u00d1\u0080\u00d0\u00b0\u00d0\u00bb\u00d1\u008c\u00d0\u00bd\u00d0\u00b0\u00d1\u008f \u00d1\u0083\u00d0\u00bb\u00d0\u00b8\u00d1\u0086\u00d0\u00b0","amenity":"waste_disposal"}},"type":"Feature"},
	{"geometry":{"coordinates":[34.271015,54.01263],"type":"Point"},"properties":{"osm_id":"4084110335","tag":{"addr:city":"\u00d0\u009c\u00d0\u00b0\u00d0\u00bb\u00d0\u00b0\u00d1\u008f \u00d0\u009f\u00d0\u00b5\u00d1\u0081\u00d0\u00be\u00d1\u0087\u00d0\u00bd\u00d1\u008f","addr:postcode":"249431","addr:street":"\u00d1\u0083\u00d0\u00bb\u00d0\u00b8\u00d1\u0086\u00d0\u00b0 \u00d0\u009c\u00d0\u00b8\u00d1\u0080\u00d0\u00b0","amenity":"waste_disposal"}},"type":"Feature"},
	{"geometry":{"coordinates":[34.269702,54.011595],"type":"Point"},"properties":{"osm_id":"5180526924","tag":{"amenity":"waste_disposal"}},"type":"Feature"}
]
}
