{
"type": "FeatureCollection",
"features": [
	{"geometry":{"coordinates":[34.276239,44.54438],"type":"Point"},"properties":{"osm_id":"4298633445","tag":{"amenity":"waste_disposal"}},"type":"Feature"},
	{"geometry":{"coordinates":[34.271774,44.546397],"type":"Point"},"properties":{"osm_id":"4304030668","tag":{"amenity":"waste_disposal"}},"type":"Feature"},
	{"geometry":{"coordinates":[34.276736,44.544804],"type":"Point"},"properties":{"osm_id":"4304598693","tag":{"amenity":"waste_disposal"}},"type":"Feature"},
	{"geometry":{"coordinates":[34.274294,44.545963],"type":"Point"},"properties":{"osm_id":"4304598848","tag":{"amenity":"waste_disposal"}},"type":"Feature"},
	{"geometry":{"coordinates":[34.276843,44.545576],"type":"Point"},"properties":{"osm_id":"4309116918","tag":{"amenity":"waste_disposal"}},"type":"Feature"},
	{"geometry":{"coordinates":[34.27393,44.543338],"type":"Point"},"properties":{"osm_id":"4325039463","tag":{"amenity":"waste_disposal"}},"type":"Feature"},
	{"geometry":{"coordinates":[34.267817,44.548207],"type":"Point"},"properties":{"osm_id":"4348440643","tag":{"amenity":"waste_disposal"}},"type":"Feature"},
	{"geometry":{"coordinates":[34.267872,44.548456],"type":"Point"},"properties":{"highway":"bus_stop","osm_id":"4348440666","tag":{"amenity":"waste_disposal","bus":"yes","public_transport":"platform"}},"type":"Feature"},
	{"geometry":{"coordinates":[34.27398,44.544695],"type":"Point"},"properties":{"osm_id":"5077420525","tag":{"amenity":"waste_disposal"}},"type":"Feature"},
	{"geometry":{"coordinates":[34.27402,44.544721],"type":"Point"},"properties":{"osm_id":"5077459621","tag":{"amenity":"waste_disposal"}},"type":"Feature"},
	{"geometry":{"coordinates":[34.274029,44.544728],"type":"Point"},"properties":{"osm_id":"5083447830","tag":{"amenity":"waste_basket"}},"type":"Feature"},
	{"geometry":{"coordinates":[34.273933,44.544742],"type":"Point"},"properties":{"osm_id":"5083447925","tag":{"amenity":"waste_basket"}},"type":"Feature"},
	{"geometry":{"coordinates":[34.273968,44.544772],"type":"Point"},"properties":{"osm_id":"5083496424","tag":{"amenity":"waste_basket"}},"type":"Feature"},
	{"geometry":{"coordinates":[34.27399,44.544708],"type":"Point"},"properties":{"osm_id":"5083505821","tag":{"amenity":"waste_basket"}},"type":"Feature"}
]
}
