{
"type": "FeatureCollection",
"features": [
	{"geometry":{"coordinates":[11.275946,59.579034],"type":"Point"},"properties":{"osm_id":"409965215","tag":{"amenity":"recycling"}},"type":"Feature"},
	{"geometry":{"coordinates":[11.254871,59.590088],"type":"Point"},"properties":{"osm_id":"6758088844","tag":{"amenity":"waste_basket"}},"type":"Feature"},
	{"geometry":{"coordinates":[11.253857,59.58941],"type":"Point"},"properties":{"osm_id":"6758088846","tag":{"amenity":"waste_basket"}},"type":"Feature"},
	{"geometry":{"coordinates":[11.263885,59.58389],"type":"Point"},"properties":{"osm_id":"7201119744","tag":{"amenity":"waste_basket","material":"wood,_metal","waste":"trash"}},"type":"Feature"},
	{"geometry":{"coordinates":[11.266846,59.583554],"type":"Point"},"properties":{"osm_id":"7393867668","tag":{"amenity":"letter_box"}},"type":"Feature"},
	{"geometry":{"coordinates":[11.259367,59.58494],"type":"Point"},"properties":{"osm_id":"8282406805","tag":{"amenity":"waste_disposal"}},"type":"Feature"},
	{"geometry":{"coordinates":[11.259398,59.584925],"type":"Point"},"properties":{"osm_id":"8282406806","tag":{"amenity":"waste_disposal"}},"type":"Feature"},
	{"geometry":{"coordinates":[11.259422,59.584915],"type":"Point"},"properties":{"osm_id":"8282406807","tag":{"amenity":"waste_disposal"}},"type":"Feature"},
	{"geometry":{"coordinates":[11.259449,59.584902],"type":"Point"},"properties":{"osm_id":"8282406808","tag":{"amenity":"waste_disposal"}},"type":"Feature"},
	{"geometry":{"coordinates":[11.259474,59.584889],"type":"Point"},"properties":{"osm_id":"8282406809","tag":{"amenity":"waste_disposal"}},"type":"Feature"},
	{"geometry":{"coordinates":[11.259502,59.584877],"type":"Point"},"properties":{"osm_id":"8282406810","tag":{"amenity":"waste_disposal"}},"type":"Feature"},
	{"geometry":{"coordinates":[11.259532,59.584866],"type":"Point"},"properties":{"osm_id":"8282406811","tag":{"amenity":"waste_disposal"}},"type":"Feature"}
]
}
