{
"type": "FeatureCollection",
"features": [
	{"geometry":{"coordinates":[11.269004,50.971263],"type":"Point"},"properties":{"osm_id":"289539278","tag":{"amenity":"recycling","recycling:paper":"yes","recycling_type":"container"}},"type":"Feature"},
	{"geometry":{"coordinates":[11.269022,50.971256],"type":"Point"},"properties":{"osm_id":"289539279","tag":{"amenity":"recycling","recycling:paper":"yes","recycling_type":"container"}},"type":"Feature"},
	{"geometry":{"coordinates":[11.269051,50.97126],"type":"Point"},"properties":{"osm_id":"289539280","tag":{"amenity":"recycling","recycling:paper":"yes","recycling_type":"container"}},"type":"Feature"},
	{"geometry":{"coordinates":[11.269063,50.971272],"type":"Point"},"properties":{"osm_id":"289539281","tag":{"amenity":"recycling","recycling:paper":"yes","recycling_type":"container"}},"type":"Feature"},
	{"geometry":{"coordinates":[11.260834,50.974017],"type":"Point"},"properties":{"osm_id":"289539327","tag":{"amenity":"waste_basket"}},"type":"Feature"},
	{"geometry":{"coordinates":[11.261454,50.97444],"type":"Point"},"properties":{"osm_id":"289539668","tag":{"amenity":"waste_basket"}},"type":"Feature"},
	{"geometry":{"coordinates":[11.32735,50.986883],"type":"Point"},"properties":{"osm_id":"297038775","tag":{"amenity":"recycling","location":"overground","recycling:glass_bottles":"yes","recycling_type":"container"}},"type":"Feature"},
	{"geometry":{"coordinates":[11.280418,50.982795],"type":"Point"},"properties":{"osm_id":"368027686","tag":{"amenity":"recycling","recycling:glass":"yes"}},"type":"Feature"},
	{"geometry":{"coordinates":[11.311471,50.98261],"type":"Point"},"properties":{"osm_id":"403797462","tag":{"amenity":"recycling","location":"overground","recycling_type":"container"}},"type":"Feature"},
	{"geometry":{"coordinates":[11.285352,50.982173],"type":"Point"},"properties":{"osm_id":"473502797","tag":{"amenity":"recycling","recycling:clothes":"yes","recycling:glass_bottles":"yes","recycling:shoes":"yes","recycling_type":"container"}},"type":"Feature"},
	{"geometry":{"coordinates":[11.327301,50.980619],"type":"Point"},"properties":{"osm_id":"627792904","tag":{"amenity":"recycling","recycling_type":"container"}},"type":"Feature"},
	{"geometry":{"coordinates":[11.327884,50.964948],"type":"Point"},"properties":{"osm_id":"692861515","tag":{"amenity":"recycling","location":"overground","recycling:glass_bottles":"yes","recycling_type":"container"}},"type":"Feature"},
	{"geometry":{"coordinates":[11.32448,50.975273],"type":"Point"},"properties":{"osm_id":"769416132","tag":{"amenity":"recycling","recycling:glass":"yes","recycling_type":"container"}},"type":"Feature"},
	{"geometry":{"coordinates":[11.322034,50.974007],"type":"Point"},"properties":{"osm_id":"852853981","tag":{"amenity":"recycling","location":"overground","recycling_type":"container"}},"type":"Feature"},
	{"geometry":{"coordinates":[11.329422,50.983082],"type":"Point"},"properties":{"osm_id":"951449035","tag":{"amenity":"recycling","recycling_type":"container"}},"type":"Feature"},
	{"geometry":{"coordinates":[11.334075,50.990248],"type":"Point"},"properties":{"osm_id":"1116154833","tag":{"amenity":"recycling"}},"type":"Feature"},
	{"geometry":{"coordinates":[11.327085,50.977251],"type":"Point"},"properties":{"osm_id":"1523930439","tag":{"amenity":"waste_basket"}},"type":"Feature"},
	{"geometry":{"coordinates":[11.327778,50.989326],"type":"Point"},"properties":{"osm_id":"1547324757","tag":{"amenity":"recycling","location":"overground","recycling_type":"container"}},"type":"Feature"},
	{"geometry":{"coordinates":[11.31185,50.988492],"type":"Point"},"properties":{"osm_id":"1548196356","tag":{"amenity":"recycling","location":"overground","recycling_type":"container"}},"type":"Feature"},
	{"geometry":{"coordinates":[11.325695,50.97033],"type":"Point"},"properties":{"osm_id":"1690354049","tag":{"amenity":"recycling","location":"overground","recycling:glass_bottles":"yes","recycling:paper":"yes","recycling_type":"container"}},"type":"Feature"},
	{"geometry":{"coordinates":[11.328643,50.96877],"type":"Point"},"properties":{"osm_id":"1718041317","tag":{"amenity":"waste_basket"}},"type":"Feature"},
	{"geometry":{"coordinates":[11.330266,50.977201],"type":"Point"},"properties":{"osm_id":"1864242094","tag":{"amenity":"waste_basket"}},"type":"Feature"},
	{"geometry":{"coordinates":[11.331665,50.985737],"type":"Point"},"properties":{"osm_id":"1864242104","tag":{"amenity":"recycling"}},"type":"Feature"},
	{"geometry":{"coordinates":[11.305025,50.986507],"type":"Point"},"properties":{"osm_id":"2073117341","tag":{"amenity":"recycling","recycling:clothes":"yes","recycling_type":"container"}},"type":"Feature"},
	{"geometry":{"coordinates":[11.305039,50.987572],"type":"Point"},"properties":{"osm_id":"2073117344","tag":{"amenity":"recycling","recycling_type":"container"}},"type":"Feature"},
	{"geometry":{"coordinates":[11.303152,50.986685],"type":"Point"},"properties":{"osm_id":"2153923668","tag":{"access":"private","amenity":"recycling","recycling_type":"container"}},"type":"Feature"},
	{"geometry":{"coordinates":[11.33202,51.012161],"type":"Point"},"properties":{"osm_id":"2281071474","tag":{"amenity":"recycling"}},"type":"Feature"},
	{"geometry":{"coordinates":[11.331917,50.97879],"type":"Point"},"properties":{"osm_id":"2371571575","tag":{"amenity":"waste_basket"}},"type":"Feature"},
	{"geometry":{"coordinates":[11.331042,50.978904],"type":"Point"},"properties":{"osm_id":"2371571576","tag":{"amenity":"waste_basket"}},"type":"Feature"},
	{"geometry":{"coordinates":[11.324139,50.979379],"type":"Point"},"properties":{"osm_id":"2371571580","tag":{"amenity":"waste_basket"}},"type":"Feature"},
	{"geometry":{"coordinates":[11.323912,50.979752],"type":"Point"},"properties":{"osm_id":"2371571583","tag":{"amenity":"waste_basket"}},"type":"Feature"},
	{"geometry":{"coordinates":[11.326075,50.979839],"type":"Point"},"properties":{"osm_id":"2371571585","tag":{"amenity":"waste_basket"}},"type":"Feature"},
	{"geometry":{"coordinates":[11.326046,50.979881],"type":"Point"},"properties":{"osm_id":"2371571587","tag":{"amenity":"waste_basket"}},"type":"Feature"},
	{"geometry":{"coordinates":[11.325955,50.980015],"type":"Point"},"properties":{"osm_id":"2371571590","tag":{"amenity":"waste_basket"}},"type":"Feature"},
	{"geometry":{"coordinates":[11.32593,50.980054],"type":"Point"},"properties":{"osm_id":"2371571592","tag":{"amenity":"waste_basket"}},"type":"Feature"},
	{"geometry":{"coordinates":[11.330064,50.98023],"type":"Point"},"properties":{"osm_id":"2395103303","tag":{"amenity":"recycling"}},"type":"Feature"},
	{"geometry":{"coordinates":[11.3283,50.978227],"type":"Point"},"properties":{"osm_id":"2403412769","tag":{"amenity":"recycling","recycling_type":"container"}},"type":"Feature"},
	{"geometry":{"coordinates":[11.33119,50.987104],"type":"Point"},"properties":{"osm_id":"2403734230","tag":{"amenity":"recycling","location":"overground","recycling_type":"container"}},"type":"Feature"},
	{"geometry":{"coordinates":[11.324692,50.977058],"type":"Point"},"properties":{"osm_id":"2419842087","tag":{"amenity":"recycling","recycling_type":"container"}},"type":"Feature"},
	{"geometry":{"coordinates":[11.323951,50.978711],"type":"Point"},"properties":{"osm_id":"2433941163","tag":{"amenity":"recycling","recycling_type":"container"}},"type":"Feature"},
	{"geometry":{"coordinates":[11.32153,50.979086],"type":"Point"},"properties":{"osm_id":"2433941220","tag":{"amenity":"recycling","material":"glass","recycling_type":"container"}},"type":"Feature"},
	{"geometry":{"coordinates":[11.324808,50.974359],"type":"Point"},"properties":{"osm_id":"2505725754","tag":{"amenity":"recycling","location":"overground","recycling_type":"container"}},"type":"Feature"},
	{"geometry":{"coordinates":[11.323584,50.972748],"type":"Point"},"properties":{"osm_id":"2505804136","tag":{"access":"private","amenity":"recycling","location":"overground","recycling_type":"container"}},"type":"Feature"},
	{"geometry":{"coordinates":[11.324089,50.96915],"type":"Point"},"properties":{"osm_id":"2506012747","tag":{"amenity":"recycling","location":"overground","recycling_type":"container"}},"type":"Feature"},
	{"geometry":{"coordinates":[11.318803,50.978357],"type":"Point"},"properties":{"osm_id":"2511493260","tag":{"amenity":"recycling","recycling_type":"container"}},"type":"Feature"},
	{"geometry":{"coordinates":[11.326477,50.97183],"type":"Point"},"properties":{"osm_id":"2529438387","tag":{"amenity":"recycling","location":"overground","recycling:clothes":"yes","recycling_type":"container"}},"type":"Feature"},
	{"geometry":{"coordinates":[11.318109,50.983009],"type":"Point"},"properties":{"osm_id":"2585194229","tag":{"amenity":"recycling","recycling:glass":"no","recycling:green_waste":"yes","recycling:paper":"yes","recycling:plastic_packaging":"yes","recycling:waste":"yes","recycling_type":"container"}},"type":"Feature"},
	{"geometry":{"coordinates":[11.318139,50.983025],"type":"Point"},"properties":{"osm_id":"2585194234","tag":{"amenity":"waste_basket"}},"type":"Feature"},
	{"geometry":{"coordinates":[11.318415,50.983194],"type":"Point"},"properties":{"osm_id":"2585194250","tag":{"amenity":"waste_basket"}},"type":"Feature"},
	{"geometry":{"coordinates":[11.318276,50.983556],"type":"Point"},"properties":{"osm_id":"2585194338","tag":{"amenity":"waste_basket"}},"type":"Feature"},
	{"geometry":{"coordinates":[11.320075,50.982982],"type":"Point"},"properties":{"osm_id":"2613361396","tag":{"amenity":"recycling"}},"type":"Feature"},
	{"geometry":{"coordinates":[11.319733,50.983382],"type":"Point"},"properties":{"osm_id":"2613361499","tag":{"access":"no","amenity":"recycling"}},"type":"Feature"},
	{"geometry":{"coordinates":[11.317596,50.981026],"type":"Point"},"properties":{"osm_id":"2614552799","tag":{"amenity":"recycling","recycling_type":"container"}},"type":"Feature"},
	{"geometry":{"coordinates":[11.329505,50.970146],"type":"Point"},"properties":{"osm_id":"2667641174","tag":{"amenity":"recycling","location":"overground","recycling:clothes":"yes","recycling:glass":"yes","recycling_type":"container"}},"type":"Feature"},
	{"geometry":{"coordinates":[11.334867,50.966395],"type":"Point"},"properties":{"osm_id":"2667641214","tag":{"amenity":"recycling","location":"overground","recycling:clothes":"yes","recycling:glass":"yes","recycling_type":"container"}},"type":"Feature"},
	{"geometry":{"coordinates":[11.322719,50.971299],"type":"Point"},"properties":{"osm_id":"2688435031","tag":{"amenity":"recycling"}},"type":"Feature"},
	{"geometry":{"coordinates":[11.315608,50.968122],"type":"Point"},"properties":{"osm_id":"2701425880","tag":{"amenity":"recycling","mapillary":"GiEWZXraicBbbBrUHpywag","recycling_type":"container","survey:date":"2019-03-30"}},"type":"Feature"},
	{"geometry":{"coordinates":[11.314065,50.968261],"type":"Point"},"properties":{"osm_id":"2701425915","tag":{"amenity":"recycling"}},"type":"Feature"},
	{"geometry":{"coordinates":[11.314143,50.968861],"type":"Point"},"properties":{"osm_id":"2701426032","tag":{"amenity":"recycling"}},"type":"Feature"},
	{"geometry":{"coordinates":[11.314681,50.969432],"type":"Point"},"properties":{"osm_id":"2701426096","tag":{"amenity":"recycling"}},"type":"Feature"},
	{"geometry":{"coordinates":[11.318855,50.98771],"type":"Point"},"properties":{"osm_id":"2975754497","tag":{"amenity":"recycling"}},"type":"Feature"},
	{"geometry":{"coordinates":[11.319843,50.986128],"type":"Point"},"properties":{"osm_id":"2975810025","tag":{"amenity":"recycling"}},"type":"Feature"},
	{"geometry":{"coordinates":[11.322864,50.989018],"type":"Point"},"properties":{"osm_id":"2976974542","tag":{"amenity":"recycling","location":"overground","recycling_type":"container"}},"type":"Feature"},
	{"geometry":{"coordinates":[11.322892,50.991073],"type":"Point"},"properties":{"osm_id":"3069844109","tag":{"amenity":"recycling","location":"overground","recycling_type":"container"}},"type":"Feature"},
	{"geometry":{"coordinates":[11.315473,50.97421],"type":"Point"},"properties":{"osm_id":"3092543202","tag":{"amenity":"recycling","mapillary":"F_nQ552sthA6alppSc8_Lw","recycling_type":"container","survey:date":"2019-02-25"}},"type":"Feature"},
	{"geometry":{"coordinates":[11.31753,50.973817],"type":"Point"},"properties":{"osm_id":"3093660571","tag":{"amenity":"recycling"}},"type":"Feature"},
	{"geometry":{"coordinates":[11.337604,50.988252],"type":"Point"},"properties":{"osm_id":"3101856486","tag":{"amenity":"recycling"}},"type":"Feature"},
	{"geometry":{"coordinates":[11.317331,50.995228],"type":"Point"},"properties":{"osm_id":"3103963227","tag":{"amenity":"recycling"}},"type":"Feature"},
	{"geometry":{"coordinates":[11.31938,50.995585],"type":"Point"},"properties":{"osm_id":"3103963323","tag":{"amenity":"recycling"}},"type":"Feature"},
	{"geometry":{"coordinates":[11.316605,50.99571],"type":"Point"},"properties":{"osm_id":"3103963359","tag":{"amenity":"recycling"}},"type":"Feature"},
	{"geometry":{"coordinates":[11.31413,50.995813],"type":"Point"},"properties":{"osm_id":"3103963390","tag":{"amenity":"recycling"}},"type":"Feature"},
	{"geometry":{"coordinates":[11.320021,50.996542],"type":"Point"},"properties":{"osm_id":"3103963771","tag":{"amenity":"recycling"}},"type":"Feature"},
	{"geometry":{"coordinates":[11.312387,50.99657],"type":"Point"},"properties":{"osm_id":"3103963777","tag":{"amenity":"recycling"}},"type":"Feature"},
	{"geometry":{"coordinates":[11.31263,50.996672],"type":"Point"},"properties":{"osm_id":"3103963802","tag":{"amenity":"recycling"}},"type":"Feature"},
	{"geometry":{"coordinates":[11.316046,50.996851],"type":"Point"},"properties":{"osm_id":"3103963844","tag":{"amenity":"recycling"}},"type":"Feature"},
	{"geometry":{"coordinates":[11.316576,50.996907],"type":"Point"},"properties":{"osm_id":"3103963856","tag":{"amenity":"recycling"}},"type":"Feature"},
	{"geometry":{"coordinates":[11.315974,50.997247],"type":"Point"},"properties":{"osm_id":"3103963919","tag":{"amenity":"recycling"}},"type":"Feature"},
	{"geometry":{"coordinates":[11.316484,50.997298],"type":"Point"},"properties":{"osm_id":"3103963930","tag":{"amenity":"recycling"}},"type":"Feature"},
	{"geometry":{"coordinates":[11.316204,50.997667],"type":"Point"},"properties":{"osm_id":"3103964002","tag":{"amenity":"recycling"}},"type":"Feature"},
	{"geometry":{"coordinates":[11.318029,50.997844],"type":"Point"},"properties":{"osm_id":"3103964046","tag":{"amenity":"recycling"}},"type":"Feature"},
	{"geometry":{"coordinates":[11.317693,50.999097],"type":"Point"},"properties":{"osm_id":"3103964235","tag":{"amenity":"recycling"}},"type":"Feature"},
	{"geometry":{"coordinates":[11.331161,50.983267],"type":"Point"},"properties":{"osm_id":"3121143225","tag":{"access":"private","amenity":"recycling","location":"overground","recycling_type":"container"}},"type":"Feature"},
	{"geometry":{"coordinates":[11.313181,50.975223],"type":"Point"},"properties":{"osm_id":"3141790520","tag":{"amenity":"recycling"}},"type":"Feature"},
	{"geometry":{"coordinates":[11.310988,50.975998],"type":"Point"},"properties":{"osm_id":"3141792691","tag":{"amenity":"recycling"}},"type":"Feature"},
	{"geometry":{"coordinates":[11.310695,50.976064],"type":"Point"},"properties":{"osm_id":"3141792715","tag":{"amenity":"recycling"}},"type":"Feature"},
	{"geometry":{"coordinates":[11.315191,50.989912],"type":"Point"},"properties":{"osm_id":"3283994590","tag":{"amenity":"recycling","location":"overground","recycling_type":"container"}},"type":"Feature"},
	{"geometry":{"coordinates":[11.314359,50.990264],"type":"Point"},"properties":{"osm_id":"3283994772","tag":{"amenity":"recycling","location":"overground","recycling_type":"container"}},"type":"Feature"},
	{"geometry":{"coordinates":[11.316312,50.991094],"type":"Point"},"properties":{"osm_id":"3283995033","tag":{"amenity":"recycling","location":"overground","recycling_type":"container"}},"type":"Feature"},
	{"geometry":{"coordinates":[11.316134,50.991097],"type":"Point"},"properties":{"osm_id":"3283995034","tag":{"amenity":"recycling","location":"overground","recycling_type":"container"}},"type":"Feature"},
	{"geometry":{"coordinates":[11.327798,50.982329],"type":"Point"},"properties":{"osm_id":"3642305933","tag":{"amenity":"waste_basket"}},"type":"Feature"},
	{"geometry":{"coordinates":[11.326011,50.982387],"type":"Point"},"properties":{"osm_id":"3642305934","tag":{"amenity":"waste_basket"}},"type":"Feature"},
	{"geometry":{"coordinates":[11.312128,50.977498],"type":"Point"},"properties":{"osm_id":"3793806534","tag":{"addr:postcode":"99425","addr:street":"Leonhard-Frank-Stra\u00c3\u009fe","amenity":"recycling","mapillary":"t0HQ0SorRWDNajyJynU4EQ","recycling:glass":"yes","recycling:glass_bottles":"yes","recycling_type":"container","survey:date":"2018-12-13"}},"type":"Feature"},
	{"geometry":{"coordinates":[11.309199,50.977545],"type":"Point"},"properties":{"osm_id":"3793839493","tag":{"amenity":"recycling","recycling:cans":"yes","recycling:clothes":"no","recycling:glass":"no","recycling:glass_bottles":"no","recycling:paper":"yes","recycling:plastic":"yes","recycling_type":"container"}},"type":"Feature"},
	{"geometry":{"coordinates":[11.325642,50.982941],"type":"Point"},"properties":{"osm_id":"4153425494","tag":{"amenity":"waste_basket"}},"type":"Feature"},
	{"geometry":{"coordinates":[11.325794,50.983462],"type":"Point"},"properties":{"osm_id":"4153425495","tag":{"amenity":"waste_basket"}},"type":"Feature"},
	{"geometry":{"coordinates":[11.27648,50.996724],"type":"Point"},"properties":{"osm_id":"4185693990","tag":{"amenity":"waste_disposal"}},"type":"Feature"},
	{"geometry":{"coordinates":[11.278427,50.997658],"type":"Point"},"properties":{"osm_id":"4185715689","tag":{"amenity":"waste_disposal"}},"type":"Feature"},
	{"geometry":{"coordinates":[11.326763,50.996262],"type":"Point"},"properties":{"name":"Wertstoffhof Weimar","osm_id":"4419222889","tag":{"addr:city":"Weimar","addr:housenumber":"14","addr:postcode":"99427","addr:street":"Industriestra\u00c3\u009fe","amenity":"recycling","name:de":"Wertstoffhof Weimar","operator":"Kommunalservice Weimar","operator:type":"public","recycling_type":"centre"}},"type":"Feature"},
	{"geometry":{"coordinates":[11.331012,50.976832],"type":"Point"},"properties":{"osm_id":"4565016895","tag":{"amenity":"waste_basket"}},"type":"Feature"},
	{"geometry":{"coordinates":[11.330718,50.977112],"type":"Point"},"properties":{"osm_id":"4565016903","tag":{"amenity":"waste_basket"}},"type":"Feature"},
	{"geometry":{"coordinates":[11.330837,50.976707],"type":"Point"},"properties":{"osm_id":"4565016904","tag":{"amenity":"waste_basket"}},"type":"Feature"},
	{"geometry":{"coordinates":[11.336846,50.976053],"type":"Point"},"properties":{"osm_id":"5018345024","tag":{"amenity":"waste_basket"}},"type":"Feature"},
	{"geometry":{"coordinates":[11.333105,50.977008],"type":"Point"},"properties":{"osm_id":"5018345424","tag":{"amenity":"waste_basket"}},"type":"Feature"},
	{"geometry":{"coordinates":[11.326582,50.991195],"type":"Point"},"properties":{"osm_id":"5031788022","tag":{"amenity":"waste_basket"}},"type":"Feature"},
	{"geometry":{"coordinates":[11.32279,50.979229],"type":"Point"},"properties":{"osm_id":"5031844026","tag":{"amenity":"waste_basket"}},"type":"Feature"},
	{"geometry":{"coordinates":[11.337431,50.98254],"type":"Point"},"properties":{"osm_id":"5115616257","tag":{"amenity":"recycling","recycling_type":"container"}},"type":"Feature"},
	{"geometry":{"coordinates":[11.332828,50.973636],"type":"Point"},"properties":{"osm_id":"5117907302","tag":{"amenity":"waste_basket"}},"type":"Feature"},
	{"geometry":{"coordinates":[11.331507,50.975541],"type":"Point"},"properties":{"osm_id":"5117907304","tag":{"amenity":"waste_basket"}},"type":"Feature"},
	{"geometry":{"coordinates":[11.331436,50.976592],"type":"Point"},"properties":{"osm_id":"5117907310","tag":{"amenity":"waste_basket"}},"type":"Feature"},
	{"geometry":{"coordinates":[11.328117,50.984383],"type":"Point"},"properties":{"osm_id":"5151207122","tag":{"amenity":"waste_basket"}},"type":"Feature"},
	{"geometry":{"coordinates":[11.33644,50.978152],"type":"Point"},"properties":{"osm_id":"5174868021","tag":{"amenity":"waste_disposal","operator":"Remondis"}},"type":"Feature"},
	{"geometry":{"coordinates":[11.335599,50.975877],"type":"Point"},"properties":{"osm_id":"5174894421","tag":{"amenity":"waste_basket"}},"type":"Feature"},
	{"geometry":{"coordinates":[11.313849,50.980595],"type":"Point"},"properties":{"osm_id":"5178493423","tag":{"amenity":"waste_basket"}},"type":"Feature"},
	{"geometry":{"coordinates":[11.313807,50.980715],"type":"Point"},"properties":{"osm_id":"5178493523","tag":{"amenity":"waste_basket"}},"type":"Feature"},
	{"geometry":{"coordinates":[11.32777,50.976753],"type":"Point"},"properties":{"osm_id":"5201947729","tag":{"amenity":"waste_basket"}},"type":"Feature"},
	{"geometry":{"coordinates":[11.328058,50.976747],"type":"Point"},"properties":{"osm_id":"5201947730","tag":{"amenity":"waste_basket"}},"type":"Feature"},
	{"geometry":{"coordinates":[11.327588,50.976933],"type":"Point"},"properties":{"osm_id":"5201988728","tag":{"amenity":"waste_basket"}},"type":"Feature"},
	{"geometry":{"coordinates":[11.325863,50.970356],"type":"Point"},"properties":{"osm_id":"5402577991","tag":{"amenity":"recycling","location":"overground","recycling:clothes":"yes","recycling:glass":"yes","recycling_type":"container"}},"type":"Feature"},
	{"geometry":{"coordinates":[11.326979,50.990695],"type":"Point"},"properties":{"osm_id":"5634666472","tag":{"amenity":"waste_basket"}},"type":"Feature"},
	{"geometry":{"coordinates":[11.326688,50.990616],"type":"Point"},"properties":{"osm_id":"5634670625","tag":{"amenity":"waste_basket"}},"type":"Feature"},
	{"geometry":{"coordinates":[11.308529,50.976401],"type":"Point"},"properties":{"osm_id":"5884645905","tag":{"amenity":"recycling","recycling:glass_bottles":"yes","recycling_type":"container"}},"type":"Feature"},
	{"geometry":{"coordinates":[11.305881,50.99771],"type":"Point"},"properties":{"osm_id":"5899840585","tag":{"amenity":"recycling","operator":"Remondis","recycling:glass":"yes"}},"type":"Feature"},
	{"geometry":{"coordinates":[11.285391,50.958492],"type":"Point"},"properties":{"osm_id":"5923826585","tag":{"amenity":"waste_disposal"}},"type":"Feature"},
	{"geometry":{"coordinates":[11.322011,50.973956],"type":"Point"},"properties":{"osm_id":"6273312753","tag":{"amenity":"waste_basket"}},"type":"Feature"},
	{"geometry":{"coordinates":[11.326856,50.983077],"type":"Point"},"properties":{"osm_id":"6373067533","tag":{"amenity":"waste_basket"}},"type":"Feature"},
	{"geometry":{"coordinates":[11.326093,50.984162],"type":"Point"},"properties":{"osm_id":"6373067537","tag":{"amenity":"waste_basket"}},"type":"Feature"},
	{"geometry":{"coordinates":[11.334795,50.977373],"type":"Point"},"properties":{"osm_id":"6443396672","tag":{"amenity":"waste_disposal"}},"type":"Feature"},
	{"geometry":{"coordinates":[11.318938,50.980624],"type":"Point"},"properties":{"osm_id":"6700625730","tag":{"amenity":"recycling","material":"glass","recycling_type":"container"}},"type":"Feature"},
	{"geometry":{"coordinates":[11.265458,50.974543],"type":"Point"},"properties":{"osm_id":"6954332561","tag":{"amenity":"recycling"}},"type":"Feature"},
	{"geometry":{"coordinates":[11.277188,50.983146],"type":"Point"},"properties":{"osm_id":"7075941366","tag":{"amenity":"recycling","location":"overground","recycling:glass":"yes","recycling_type":"container"}},"type":"Feature"},
	{"geometry":{"coordinates":[11.335353,50.972144],"type":"Point"},"properties":{"osm_id":"7464210211","tag":{"amenity":"waste_basket"}},"type":"Feature"}
]
}
