{
"type": "FeatureCollection",
"features": [
	{"geometry":{"coordinates":[11.31735,50.275804],"type":"Point"},"properties":{"osm_id":"2386196319","tag":{"amenity":"recycling","opening_hours":"Jan-Feb: Th,Fr 10:00-17:00; Sa 09:00-12:00; PH off; Mar-Dec: Tu-Fr 10:00-17:00; Sa 09:00-12:00; PH off","recycling_type":"centre"}},"type":"Feature"},
	{"geometry":{"coordinates":[11.329634,50.239377],"type":"Point"},"properties":{"osm_id":"4960035686","tag":{"amenity":"recycling","opening_hours":"Mo-Sa 07:00-19:00; Su off; PH off","recycling:cans":"yes","recycling:clothes":"yes","recycling:glass_bottles":"yes","recycling_type":"container"}},"type":"Feature"},
	{"geometry":{"coordinates":[11.335477,50.246314],"type":"Point"},"properties":{"osm_id":"5014941598","tag":{"amenity":"recycling","opening_hours":"Mo-Sa 07:00-19:00; Su off; PH off","recycling:cans":"yes","recycling:clothes":"yes","recycling:glass_bottles":"yes","recycling_type":"container"}},"type":"Feature"},
	{"geometry":{"coordinates":[11.324871,50.238764],"type":"Point"},"properties":{"osm_id":"5077300729","tag":{"amenity":"waste_basket"}},"type":"Feature"},
	{"geometry":{"coordinates":[11.325257,50.238556],"type":"Point"},"properties":{"osm_id":"5077300730","tag":{"amenity":"waste_basket"}},"type":"Feature"},
	{"geometry":{"coordinates":[11.325215,50.23835],"type":"Point"},"properties":{"osm_id":"5077300731","tag":{"amenity":"waste_basket"}},"type":"Feature"},
	{"geometry":{"coordinates":[11.324524,50.238181],"type":"Point"},"properties":{"osm_id":"5077300733","tag":{"amenity":"waste_basket"}},"type":"Feature"},
	{"geometry":{"coordinates":[11.32194,50.234611],"type":"Point"},"properties":{"osm_id":"5968335654","tag":{"amenity":"waste_basket"}},"type":"Feature"},
	{"geometry":{"coordinates":[11.322849,50.234322],"type":"Point"},"properties":{"osm_id":"5970612997","tag":{"amenity":"recycling","fee":"no","opening_hours":"Mo-Sa 07:00-19:00; Su off; PH off","recycling:cans":"yes","recycling:clothes":"yes","recycling:glass_bottles":"yes","recycling_type":"container"}},"type":"Feature"},
	{"geometry":{"coordinates":[11.329395,50.257387],"type":"Point"},"properties":{"osm_id":"5976298982","tag":{"amenity":"waste_basket"}},"type":"Feature"},
	{"geometry":{"coordinates":[11.328098,50.249104],"type":"Point"},"properties":{"osm_id":"5976299785","tag":{"amenity":"waste_basket"}},"type":"Feature"},
	{"geometry":{"coordinates":[11.32647,50.251782],"type":"Point"},"properties":{"osm_id":"5976299787","tag":{"amenity":"waste_basket"}},"type":"Feature"},
	{"geometry":{"coordinates":[11.324938,50.247043],"type":"Point"},"properties":{"osm_id":"5976299804","tag":{"amenity":"waste_basket"}},"type":"Feature"},
	{"geometry":{"coordinates":[11.325324,50.245882],"type":"Point"},"properties":{"osm_id":"5976299809","tag":{"amenity":"waste_basket"}},"type":"Feature"},
	{"geometry":{"coordinates":[11.322663,50.24024],"type":"Point"},"properties":{"osm_id":"5976299815","tag":{"amenity":"waste_basket"}},"type":"Feature"},
	{"geometry":{"coordinates":[11.322422,50.238631],"type":"Point"},"properties":{"osm_id":"5976299820","tag":{"amenity":"waste_basket"}},"type":"Feature"},
	{"geometry":{"coordinates":[11.321121,50.236042],"type":"Point"},"properties":{"osm_id":"5976299841","tag":{"amenity":"recycling","opening_hours":"Mo-Sa 07:00-19:00; Su off; PH off","recycling:cans":"yes","recycling:clothes":"yes","recycling:glass_bottles":"yes","recycling_type":"container"}},"type":"Feature"},
	{"geometry":{"coordinates":[11.325179,50.24155],"type":"Point"},"properties":{"osm_id":"6074013257","tag":{"amenity":"waste_basket"}},"type":"Feature"},
	{"geometry":{"coordinates":[11.324326,50.237841],"type":"Point"},"properties":{"osm_id":"6090030124","tag":{"amenity":"waste_basket"}},"type":"Feature"},
	{"geometry":{"coordinates":[11.324617,50.239811],"type":"Point"},"properties":{"osm_id":"6130895485","tag":{"amenity":"waste_basket"}},"type":"Feature"},
	{"geometry":{"coordinates":[11.327393,50.241098],"type":"Point"},"properties":{"osm_id":"6130895486","tag":{"amenity":"waste_basket"}},"type":"Feature"},
	{"geometry":{"coordinates":[11.325626,50.241335],"type":"Point"},"properties":{"osm_id":"6388896904","tag":{"amenity":"waste_basket"}},"type":"Feature"},
	{"geometry":{"coordinates":[11.330047,50.240171],"type":"Point"},"properties":{"osm_id":"6388896905","tag":{"amenity":"waste_basket"}},"type":"Feature"},
	{"geometry":{"coordinates":[11.328674,50.240648],"type":"Point"},"properties":{"osm_id":"6407348896","tag":{"amenity":"waste_basket"}},"type":"Feature"},
	{"geometry":{"coordinates":[11.324376,50.240007],"type":"Point"},"properties":{"osm_id":"6407348902","tag":{"amenity":"waste_basket"}},"type":"Feature"},
	{"geometry":{"coordinates":[11.324203,50.240248],"type":"Point"},"properties":{"osm_id":"6407348903","tag":{"amenity":"waste_basket"}},"type":"Feature"},
	{"geometry":{"coordinates":[11.325499,50.237476],"type":"Point"},"properties":{"osm_id":"6452617825","tag":{"amenity":"waste_basket"}},"type":"Feature"},
	{"geometry":{"coordinates":[11.322654,50.237981],"type":"Point"},"properties":{"osm_id":"6483876472","tag":{"amenity":"waste_basket"}},"type":"Feature"},
	{"geometry":{"coordinates":[11.322502,50.241683],"type":"Point"},"properties":{"osm_id":"6502612480","tag":{"amenity":"waste_basket"}},"type":"Feature"},
	{"geometry":{"coordinates":[11.336719,50.23595],"type":"Point"},"properties":{"osm_id":"6504149290","tag":{"amenity":"recycling","opening_hours":"Mo-Sa 07:00-19:00; Su off; PH off","recycling:cans":"yes","recycling:clothes":"yes","recycling:glass_bottles":"yes","recycling_type":"container"}},"type":"Feature"},
	{"geometry":{"coordinates":[11.324347,50.237412],"type":"Point"},"properties":{"osm_id":"6594243165","tag":{"amenity":"waste_basket"}},"type":"Feature"},
	{"geometry":{"coordinates":[11.319343,50.234813],"type":"Point"},"properties":{"osm_id":"6885967902","tag":{"amenity":"waste_basket"}},"type":"Feature"},
	{"geometry":{"coordinates":[11.324132,50.239801],"type":"Point"},"properties":{"osm_id":"6886535813","tag":{"amenity":"waste_basket"}},"type":"Feature"},
	{"geometry":{"coordinates":[11.318039,50.246366],"type":"Point"},"properties":{"osm_id":"7058044427","tag":{"amenity":"recycling","opening_hours":"Mo-Sa 07:00-19:00; Su off; PH off","recycling:cans":"yes","recycling:clothes":"yes","recycling:glass_bottles":"yes","recycling_type":"container"}},"type":"Feature"},
	{"geometry":{"coordinates":[11.323238,50.243561],"type":"Point"},"properties":{"osm_id":"7080129803","tag":{"amenity":"waste_basket"}},"type":"Feature"},
	{"geometry":{"coordinates":[11.3215,50.24022],"type":"Point"},"properties":{"osm_id":"7080129805","tag":{"amenity":"waste_basket"}},"type":"Feature"},
	{"geometry":{"coordinates":[11.320702,50.248881],"type":"Point"},"properties":{"osm_id":"7197139487","tag":{"amenity":"recycling","opening_hours":"Mo-Sa 07:00-19:00; Su off; PH off","recycling:cans":"yes","recycling:clothes":"yes","recycling:glass_bottles":"yes","recycling_type":"container"}},"type":"Feature"},
	{"geometry":{"coordinates":[11.323645,50.243058],"type":"Point"},"properties":{"osm_id":"7211940918","tag":{"amenity":"recycling","opening_hours":"Mo-Sa 07:00-19:00; Su off; PH off","recycling:cans":"yes","recycling:clothes":"yes","recycling:glass_bottles":"yes","recycling_type":"container"}},"type":"Feature"},
	{"geometry":{"coordinates":[11.281591,50.242794],"type":"Point"},"properties":{"osm_id":"7212488735","tag":{"amenity":"recycling","opening_hours":"Mo-Sa 07:00-19:00; Su off; PH off","recycling:cans":"yes","recycling:clothes":"yes","recycling:glass_bottles":"yes","recycling_type":"container"}},"type":"Feature"},
	{"geometry":{"coordinates":[11.327879,50.235602],"type":"Point"},"properties":{"osm_id":"7233882054","tag":{"amenity":"recycling","opening_hours":"Mo-Sa 07:00-19:00; Su off; PH off","recycling:cans":"yes","recycling:glass_bottles":"yes","recycling_type":"container"}},"type":"Feature"},
	{"geometry":{"coordinates":[11.3287,50.235724],"type":"Point"},"properties":{"osm_id":"7233882055","tag":{"amenity":"waste_basket"}},"type":"Feature"},
	{"geometry":{"coordinates":[11.333728,50.237471],"type":"Point"},"properties":{"osm_id":"7260120025","tag":{"amenity":"waste_basket"}},"type":"Feature"},
	{"geometry":{"coordinates":[11.318867,50.285837],"type":"Point"},"properties":{"osm_id":"7261594794","tag":{"amenity":"recycling","opening_hours":"Mo-Sa 07:00-19:00; Su off; PH off","recycling:cans":"yes","recycling:clothes":"yes","recycling:glass_bottles":"yes","recycling_type":"container"}},"type":"Feature"},
	{"geometry":{"coordinates":[11.30523,50.288369],"type":"Point"},"properties":{"osm_id":"7295007422","tag":{"amenity":"recycling","recycling:garden_waste":"yes"}},"type":"Feature"},
	{"geometry":{"coordinates":[11.290395,50.245682],"type":"Point"},"properties":{"osm_id":"7296880752","tag":{"amenity":"recycling","opening_hours":"Mo-Sa 07:00-19:00; Su off; PH off","recycling:cans":"yes","recycling:clothes":"yes","recycling:glass_bottles":"yes","recycling_type":"container"}},"type":"Feature"},
	{"geometry":{"coordinates":[11.323285,50.241246],"type":"Point"},"properties":{"osm_id":"7749822158","tag":{"amenity":"waste_basket"}},"type":"Feature"}
]
}
