{
"type": "FeatureCollection",
"features": [
	{"geometry":{"coordinates":[11.31669,50.226168],"type":"Point"},"properties":{"osm_id":"1037962747","tag":{"amenity":"recycling","opening_hours":"Mo-Sa 07:00-19:00; Su off; PH off","recycling:cans":"yes","recycling:glass_bottles":"yes","recycling:shoes":"yes","recycling:textiles":"yes","recycling_type":"container"}},"type":"Feature"},
	{"geometry":{"coordinates":[11.29843,50.177352],"type":"Point"},"properties":{"osm_id":"1040512270","tag":{"amenity":"recycling","recycling:organic":"yes"}},"type":"Feature"},
	{"geometry":{"coordinates":[11.30361,50.210933],"type":"Point"},"properties":{"osm_id":"1296418320","tag":{"amenity":"recycling"}},"type":"Feature"},
	{"geometry":{"coordinates":[11.278813,50.190326],"type":"Point"},"properties":{"osm_id":"1484833045","tag":{"amenity":"recycling","recycling:clothes":"yes","recycling_type":"container"}},"type":"Feature"},
	{"geometry":{"coordinates":[11.270234,50.192157],"type":"Point"},"properties":{"osm_id":"1860703490","tag":{"amenity":"recycling","recycling:clothes":"yes","recycling:glass":"yes","recycling_type":"container"}},"type":"Feature"},
	{"geometry":{"coordinates":[11.287926,50.208083],"type":"Point"},"properties":{"osm_id":"1860703491","tag":{"amenity":"recycling","recycling:clothes":"yes","recycling:glass_bottles":"yes","recycling_type":"container"}},"type":"Feature"},
	{"geometry":{"coordinates":[11.266554,50.191332],"type":"Point"},"properties":{"osm_id":"1860703493","tag":{"amenity":"recycling","recycling:clothes":"yes","recycling:glass":"yes","recycling_type":"container"}},"type":"Feature"},
	{"geometry":{"coordinates":[11.265653,50.192912],"type":"Point"},"properties":{"osm_id":"1860703494","tag":{"amenity":"recycling"}},"type":"Feature"},
	{"geometry":{"coordinates":[11.265039,50.190141],"type":"Point"},"properties":{"osm_id":"1863157625","tag":{"amenity":"recycling","recycling:clothes":"yes","recycling:glass_bottles":"yes"}},"type":"Feature"},
	{"geometry":{"coordinates":[11.275301,50.195289],"type":"Point"},"properties":{"osm_id":"1863157627","tag":{"amenity":"recycling","mapillary":"gt125OVq3nxTL8QnKnIigA","recycling:clothes":"yes","recycling_type":"container","survey:date":"2017-10-31"}},"type":"Feature"},
	{"geometry":{"coordinates":[11.252001,50.198233],"type":"Point"},"properties":{"osm_id":"5469281145","tag":{"amenity":"waste_basket"}},"type":"Feature"},
	{"geometry":{"coordinates":[11.27063,50.186577],"type":"Point"},"properties":{"osm_id":"5873313582","tag":{"amenity":"waste_basket"}},"type":"Feature"},
	{"geometry":{"coordinates":[11.267558,50.180104],"type":"Point"},"properties":{"osm_id":"5873313839","tag":{"amenity":"waste_basket"}},"type":"Feature"},
	{"geometry":{"coordinates":[11.262212,50.176976],"type":"Point"},"properties":{"osm_id":"5873313856","tag":{"amenity":"waste_basket"}},"type":"Feature"},
	{"geometry":{"coordinates":[11.260662,50.178685],"type":"Point"},"properties":{"osm_id":"5873313857","tag":{"amenity":"waste_basket"}},"type":"Feature"},
	{"geometry":{"coordinates":[11.277381,50.190361],"type":"Point"},"properties":{"osm_id":"5873364967","tag":{"amenity":"waste_basket"}},"type":"Feature"},
	{"geometry":{"coordinates":[11.260182,50.200352],"type":"Point"},"properties":{"osm_id":"5873442612","tag":{"amenity":"recycling","recycling:cans":"yes","recycling:clothes":"yes","recycling:glass_bottles":"yes","recycling:shoes":"yes","recycling_type":"container"}},"type":"Feature"},
	{"geometry":{"coordinates":[11.252618,50.192196],"type":"Point"},"properties":{"osm_id":"5873511849","tag":{"amenity":"waste_basket"}},"type":"Feature"},
	{"geometry":{"coordinates":[11.259471,50.206022],"type":"Point"},"properties":{"osm_id":"5873513244","tag":{"amenity":"waste_basket"}},"type":"Feature"},
	{"geometry":{"coordinates":[11.331577,50.225838],"type":"Point"},"properties":{"osm_id":"5954688810","tag":{"amenity":"waste_basket"}},"type":"Feature"},
	{"geometry":{"coordinates":[11.326939,50.219032],"type":"Point"},"properties":{"osm_id":"5954721311","tag":{"amenity":"waste_basket"}},"type":"Feature"},
	{"geometry":{"coordinates":[11.305386,50.202411],"type":"Point"},"properties":{"osm_id":"6461438234","tag":{"amenity":"recycling","recycling_type":"container"}},"type":"Feature"},
	{"geometry":{"coordinates":[11.278444,50.190869],"type":"Point"},"properties":{"osm_id":"6466829119","tag":{"amenity":"waste_basket"}},"type":"Feature"},
	{"geometry":{"coordinates":[11.328479,50.232667],"type":"Point"},"properties":{"osm_id":"6480253652","tag":{"amenity":"recycling","recycling:glass":"yes","recycling_type":"container"}},"type":"Feature"},
	{"geometry":{"coordinates":[11.279249,50.190171],"type":"Point"},"properties":{"osm_id":"7274550036","tag":{"amenity":"recycling","collection_times":"Mo-Sa 07:00-19:00; Su off; PH off","recycling:cans":"yes","recycling:glass_bottles":"yes","recycling_type":"container"}},"type":"Feature"},
	{"geometry":{"coordinates":[11.337242,50.180374],"type":"Point"},"properties":{"osm_id":"7879071723","tag":{"amenity":"recycling","opening_hours":"Mo-Sa 07:00-19:00; Su off; PH off","recycling:cans":"yes","recycling:clothes":"yes","recycling:glass_bottles":"yes","recycling_type":"container"}},"type":"Feature"}
]
}
