{
"type": "FeatureCollection",
"features": [
	{"geometry":{"coordinates":[11.289203,48.109537],"type":"Point"},"properties":{"name":"Wertstoffhof Gilching","osm_id":"257152886","tag":{"amenity":"recycling","opening_hours":"Tu 14:00-18:00; We 09:00-12:00,15:00-18:00; Fr 14:00-18:00; Sa 09:00-13:00","recycling_type":"centre"}},"type":"Feature"},
	{"geometry":{"coordinates":[11.26026,48.154454],"type":"Point"},"properties":{"osm_id":"297812942","tag":{"amenity":"recycling","recycling:glass_bottles":"yes","recycling:paper":"yes","recycling_type":"container"}},"type":"Feature"},
	{"geometry":{"coordinates":[11.295914,48.108134],"type":"Point"},"properties":{"osm_id":"321781655","tag":{"amenity":"recycling","description":"Die Container sind unterirdisch und nur Einwurfstutzen f\u00c3\u00bchren nach oben.","recycling:glass_bottles":"yes","recycling_type":"container"}},"type":"Feature"},
	{"geometry":{"coordinates":[11.303442,48.140256],"type":"Point"},"properties":{"osm_id":"451709866","tag":{"amenity":"recycling","recycling:cans":"yes","recycling:glass_bottles":"yes","recycling:paper":"yes","recycling_type":"container"}},"type":"Feature"},
	{"geometry":{"coordinates":[11.251762,48.163239],"type":"Point"},"properties":{"osm_id":"501915461","tag":{"amenity":"recycling","recycling_type":"container"}},"type":"Feature"},
	{"geometry":{"coordinates":[11.290739,48.110296],"type":"Point"},"properties":{"osm_id":"511068037","tag":{"amenity":"recycling","recycling:clothes":"yes","recycling:glass_bottles":"yes","recycling_type":"container"}},"type":"Feature"},
	{"geometry":{"coordinates":[11.334409,48.165861],"type":"Point"},"properties":{"osm_id":"514561328","tag":{"amenity":"recycling","recycling_type":"container"}},"type":"Feature"},
	{"geometry":{"coordinates":[11.325892,48.109123],"type":"Point"},"properties":{"osm_id":"884454682","tag":{"amenity":"recycling","recycling:cans":"yes","recycling:clothes":"no","recycling:glass_bottles":"yes","recycling:paper":"yes","recycling_type":"container"}},"type":"Feature"},
	{"geometry":{"coordinates":[11.302283,48.137159],"type":"Point"},"properties":{"osm_id":"1736449466","tag":{"amenity":"recycling","recycling:cans":"yes","recycling:glass_bottles":"yes","recycling:paper":"yes","recycling_type":"container"}},"type":"Feature"},
	{"geometry":{"coordinates":[11.322809,48.165459],"type":"Point"},"properties":{"osm_id":"2127246715","tag":{"amenity":"recycling","location":"overground","recycling:cans":"yes","recycling:clothes":"yes","recycling:glass_bottles":"yes","recycling:paper":"yes","recycling_type":"container"}},"type":"Feature"},
	{"geometry":{"coordinates":[11.276748,48.114468],"type":"Point"},"properties":{"osm_id":"2394442250","tag":{"amenity":"waste_basket","emergency":"life_ring"}},"type":"Feature"},
	{"geometry":{"coordinates":[11.275941,48.113845],"type":"Point"},"properties":{"osm_id":"3750858845","tag":{"amenity":"waste_basket"}},"type":"Feature"},
	{"geometry":{"coordinates":[11.276851,48.114752],"type":"Point"},"properties":{"osm_id":"3750858854","tag":{"amenity":"waste_basket"}},"type":"Feature"},
	{"geometry":{"coordinates":[11.273661,48.115452],"type":"Point"},"properties":{"osm_id":"3750858859","tag":{"amenity":"waste_basket"}},"type":"Feature"},
	{"geometry":{"coordinates":[11.276902,48.115565],"type":"Point"},"properties":{"osm_id":"3750858860","tag":{"amenity":"waste_basket"}},"type":"Feature"},
	{"geometry":{"coordinates":[11.275232,48.116409],"type":"Point"},"properties":{"osm_id":"3750858863","tag":{"amenity":"waste_basket"}},"type":"Feature"},
	{"geometry":{"coordinates":[11.284864,48.117357],"type":"Point"},"properties":{"osm_id":"3865385775","tag":{"amenity":"waste_basket"}},"type":"Feature"},
	{"geometry":{"coordinates":[11.317301,48.107465],"type":"Point"},"properties":{"osm_id":"3890841289","tag":{"amenity":"waste_basket"}},"type":"Feature"},
	{"geometry":{"coordinates":[11.29981,48.11008],"type":"Point"},"properties":{"osm_id":"3902816974","tag":{"amenity":"recycling","recycling:cans":"yes","recycling:clothes":"yes","recycling:glass_bottles":"yes","recycling:paper":"yes","recycling_type":"container"}},"type":"Feature"},
	{"geometry":{"coordinates":[11.293266,48.114443],"type":"Point"},"properties":{"osm_id":"3908935598","tag":{"amenity":"recycling","recycling:cans":"yes","recycling:glass_bottles":"yes","recycling:paper":"yes","recycling_type":"container"}},"type":"Feature"},
	{"geometry":{"coordinates":[11.289363,48.109464],"type":"Point"},"properties":{"osm_id":"3916746828","tag":{"amenity":"recycling","recycling:clothes":"yes","recycling:glass_bottles":"yes","recycling_type":"container"}},"type":"Feature"},
	{"geometry":{"coordinates":[11.296272,48.111402],"type":"Point"},"properties":{"osm_id":"3937548065","tag":{"amenity":"waste_basket"}},"type":"Feature"},
	{"geometry":{"coordinates":[11.322424,48.109136],"type":"Point"},"properties":{"osm_id":"5656667949","tag":{"amenity":"waste_basket"}},"type":"Feature"},
	{"geometry":{"coordinates":[11.322492,48.109291],"type":"Point"},"properties":{"osm_id":"5656667952","tag":{"amenity":"waste_basket"}},"type":"Feature"},
	{"geometry":{"coordinates":[11.32281,48.109437],"type":"Point"},"properties":{"osm_id":"5656667954","tag":{"amenity":"waste_basket"}},"type":"Feature"},
	{"geometry":{"coordinates":[11.301348,48.107919],"type":"Point"},"properties":{"osm_id":"7366705511","tag":{"amenity":"waste_basket"}},"type":"Feature"},
	{"geometry":{"coordinates":[11.295231,48.108722],"type":"Point"},"properties":{"osm_id":"7366735506","tag":{"amenity":"waste_basket"}},"type":"Feature"},
	{"geometry":{"coordinates":[11.293892,48.110756],"type":"Point"},"properties":{"osm_id":"7366788752","tag":{"amenity":"waste_basket"}},"type":"Feature"},
	{"geometry":{"coordinates":[11.293757,48.110558],"type":"Point"},"properties":{"osm_id":"7366788755","tag":{"amenity":"waste_basket"}},"type":"Feature"},
	{"geometry":{"coordinates":[11.305441,48.109744],"type":"Point"},"properties":{"osm_id":"7406513180","tag":{"amenity":"waste_basket","waste":"mixed"}},"type":"Feature"},
	{"geometry":{"coordinates":[11.264245,48.117511],"type":"Point"},"properties":{"osm_id":"7650289797","tag":{"amenity":"waste_basket","colour":"black","material":"plastic","waste":"mixed"}},"type":"Feature"},
	{"geometry":{"coordinates":[11.29761,48.11756],"type":"Point"},"properties":{"osm_id":"7707616042","tag":{"amenity":"waste_basket","material":"wood"}},"type":"Feature"},
	{"geometry":{"coordinates":[11.331625,48.121618],"type":"Point"},"properties":{"osm_id":"7785313764","tag":{"amenity":"waste_basket","waste":"mixed"}},"type":"Feature"},
	{"geometry":{"coordinates":[11.310872,48.111224],"type":"Point"},"properties":{"osm_id":"7788073327","tag":{"amenity":"waste_basket","waste":"trash"}},"type":"Feature"}
]
}
