{
"type": "FeatureCollection",
"features": [
	{"geometry":{"coordinates":[11.284192,48.098684],"type":"Point"},"properties":{"osm_id":"321781850","tag":{"amenity":"recycling","recycling:cans":"yes","recycling:clothes":"yes","recycling:glass_bottles":"yes","recycling:paper":"yes","recycling_type":"container"}},"type":"Feature"},
	{"geometry":{"coordinates":[11.290252,48.097119],"type":"Point"},"properties":{"osm_id":"331948433","tag":{"amenity":"recycling","recycling:clothes":"yes","recycling:glass_bottles":"yes","recycling_type":"container"}},"type":"Feature"},
	{"geometry":{"coordinates":[11.31833,48.107249],"type":"Point"},"properties":{"osm_id":"763655102","tag":{"amenity":"recycling","recycling:clothes":"yes","recycling:glass_bottles":"yes","recycling:shoes":"yes","recycling_type":"container"}},"type":"Feature"},
	{"geometry":{"coordinates":[11.256265,48.075164],"type":"Point"},"properties":{"osm_id":"940302232","tag":{"amenity":"recycling"}},"type":"Feature"},
	{"geometry":{"coordinates":[11.266265,48.061011],"type":"Point"},"properties":{"osm_id":"993088918","tag":{"amenity":"recycling","recycling:glass":"yes"}},"type":"Feature"},
	{"geometry":{"coordinates":[11.252936,48.077449],"type":"Point"},"properties":{"osm_id":"1011040855","tag":{"amenity":"recycling","recycling:clothes":"yes","recycling_type":"container"}},"type":"Feature"},
	{"geometry":{"coordinates":[11.295015,48.094068],"type":"Point"},"properties":{"osm_id":"1193937782","tag":{"amenity":"recycling","recycling:glass_bottles":"yes","recycling_type":"container"}},"type":"Feature"},
	{"geometry":{"coordinates":[11.290363,48.094235],"type":"Point"},"properties":{"osm_id":"1548815109","tag":{"amenity":"recycling","recycling:glass_bottles":"yes","recycling_type":"container"}},"type":"Feature"},
	{"geometry":{"coordinates":[11.274407,48.088022],"type":"Point"},"properties":{"osm_id":"1548824626","tag":{"amenity":"recycling","recycling:glass_bottles":"yes","recycling_type":"container"}},"type":"Feature"},
	{"geometry":{"coordinates":[11.305167,48.099315],"type":"Point"},"properties":{"barrier":"gate","osm_id":"1911730100"},"type":"Feature"},
	{"geometry":{"coordinates":[11.304587,48.099639],"type":"Point"},"properties":{"barrier":"gate","osm_id":"1911730265"},"type":"Feature"},
	{"geometry":{"coordinates":[11.296327,48.104114],"type":"Point"},"properties":{"osm_id":"1920546702","tag":{"amenity":"waste_basket"}},"type":"Feature"},
	{"geometry":{"coordinates":[11.302991,48.092722],"type":"Point"},"properties":{"osm_id":"2019688718","tag":{"amenity":"waste_basket"}},"type":"Feature"},
	{"geometry":{"coordinates":[11.314034,48.094917],"type":"Point"},"properties":{"osm_id":"2085930989","tag":{"amenity":"recycling","recycling:clothes":"yes","recycling_type":"container"}},"type":"Feature"},
	{"geometry":{"coordinates":[11.292716,48.09859],"type":"Point"},"properties":{"osm_id":"2089106663","tag":{"amenity":"recycling","recycling:clothes":"yes","recycling_type":"container"}},"type":"Feature"},
	{"geometry":{"coordinates":[11.284385,48.09459],"type":"Point"},"properties":{"osm_id":"2388357195","tag":{"amenity":"waste_basket"}},"type":"Feature"},
	{"geometry":{"coordinates":[11.304748,48.106351],"type":"Point"},"properties":{"osm_id":"3680988825","tag":{"amenity":"waste_disposal"}},"type":"Feature"},
	{"geometry":{"coordinates":[11.308612,48.104386],"type":"Point"},"properties":{"osm_id":"3782523978","tag":{"amenity":"waste_basket"}},"type":"Feature"},
	{"geometry":{"coordinates":[11.331543,48.1064],"type":"Point"},"properties":{"osm_id":"3834569827","tag":{"amenity":"waste_basket"}},"type":"Feature"},
	{"geometry":{"coordinates":[11.304456,48.099455],"type":"Point"},"properties":{"osm_id":"3841313812","tag":{"amenity":"recycling","description":"Einwurf von au\u00c3\u009ferhalb des Zaunes m\u00c3\u00b6glich.","opening_hours":"24/7","recycling:glass_bottles":"yes","recycling_type":"container"}},"type":"Feature"},
	{"geometry":{"coordinates":[11.300631,48.101707],"type":"Point"},"properties":{"osm_id":"3865297871","tag":{"amenity":"waste_basket"}},"type":"Feature"},
	{"geometry":{"coordinates":[11.281038,48.103078],"type":"Point"},"properties":{"osm_id":"3901229615","tag":{"amenity":"waste_basket"}},"type":"Feature"},
	{"geometry":{"coordinates":[11.303544,48.103454],"type":"Point"},"properties":{"osm_id":"3902684882","tag":{"amenity":"waste_basket"}},"type":"Feature"},
	{"geometry":{"coordinates":[11.306701,48.104945],"type":"Point"},"properties":{"osm_id":"3914045743","tag":{"amenity":"recycling","recycling:cans":"yes","recycling:clothes":"yes","recycling:glass_bottles":"yes","recycling:paper":"yes","recycling_type":"container"}},"type":"Feature"},
	{"geometry":{"coordinates":[11.287996,48.10439],"type":"Point"},"properties":{"osm_id":"3914051272","tag":{"amenity":"recycling","recycling:cans":"yes","recycling:clothes":"yes","recycling:glass_bottles":"yes","recycling:paper":"yes","recycling_type":"container"}},"type":"Feature"},
	{"geometry":{"coordinates":[11.30359,48.091497],"type":"Point"},"properties":{"osm_id":"4397913998","tag":{"amenity":"waste_basket"}},"type":"Feature"},
	{"geometry":{"coordinates":[11.302846,48.093092],"type":"Point"},"properties":{"osm_id":"4398463785","tag":{"amenity":"waste_basket"}},"type":"Feature"},
	{"geometry":{"coordinates":[11.25384,48.071459],"type":"Point"},"properties":{"osm_id":"4410573469","tag":{"amenity":"waste_basket","waste_basket:excrement_bags":"yes"}},"type":"Feature"},
	{"geometry":{"coordinates":[11.253477,48.074526],"type":"Point"},"properties":{"osm_id":"4410573471","tag":{"amenity":"waste_basket","waste_basket:excrement_bags":"yes"}},"type":"Feature"},
	{"geometry":{"coordinates":[11.323933,48.106252],"type":"Point"},"properties":{"osm_id":"4561767939","tag":{"amenity":"recycling","recycling:cans":"yes","recycling:glass_bottles":"yes","recycling:paper":"yes","recycling_type":"container"}},"type":"Feature"},
	{"geometry":{"coordinates":[11.284952,48.092212],"type":"Point"},"properties":{"osm_id":"5286626670","tag":{"amenity":"recycling","recycling_type":"container"}},"type":"Feature"},
	{"geometry":{"coordinates":[11.3143,48.09355],"type":"Point"},"properties":{"osm_id":"6037431062","tag":{"amenity":"recycling"}},"type":"Feature"},
	{"geometry":{"coordinates":[11.314223,48.093462],"type":"Point"},"properties":{"osm_id":"7158700648","tag":{"amenity":"recycling","operator":"Bayerisches Rotes Kreuz","recycling:clothes":"yes","recycling:shoes":"yes","recycling_type":"container"}},"type":"Feature"},
	{"geometry":{"coordinates":[11.299195,48.106842],"type":"Point"},"properties":{"osm_id":"7366680836","tag":{"amenity":"waste_basket"}},"type":"Feature"},
	{"geometry":{"coordinates":[11.299224,48.107033],"type":"Point"},"properties":{"osm_id":"7366707677","tag":{"amenity":"waste_basket"}},"type":"Feature"},
	{"geometry":{"coordinates":[11.293503,48.103081],"type":"Point"},"properties":{"osm_id":"7366792347","tag":{"amenity":"waste_basket"}},"type":"Feature"},
	{"geometry":{"coordinates":[11.293381,48.103005],"type":"Point"},"properties":{"osm_id":"7366792350","tag":{"amenity":"waste_basket"}},"type":"Feature"},
	{"geometry":{"coordinates":[11.290331,48.097154],"type":"Point"},"properties":{"osm_id":"7449834022","tag":{"amenity":"waste_basket","material":"steel"}},"type":"Feature"}
]
}
