{
"type": "FeatureCollection",
"features": [
	{"geometry":{"coordinates":[11.254649,48.028891],"type":"Point"},"properties":{"osm_id":"2135688668","tag":{"amenity":"recycling","recycling:glass_bottles":"yes"}},"type":"Feature"},
	{"geometry":{"coordinates":[11.263913,48.02191],"type":"Point"},"properties":{"name":"Kompostieranlage Hadorf","osm_id":"3982476301","tag":{"addr:city":"Starnberg","addr:housenumber":"3","addr:postcode":"82319","addr:street":"Uneringer Stra\u00c3\u009fe","addr:suburb":"Hadorf","amenity":"recycling","opening_hours":"Jan-Feb Tu,Th,Fr 07:30-12:00,13:00-16:00; Mar,Nov,Dec Mo-Fr 07:30-12:00,13:00-17:00; Apr-Oct Mo-Fr 07:30-12:00,13:00-18:00; Sa 07:30-13:00","operator":"AWISTA","recycling:compost":"yes","recycling_type":"centre","website":"http://www.awista-starnberg.de/kompostieranlage/"}},"type":"Feature"},
	{"geometry":{"coordinates":[11.318344,48.003266],"type":"Point"},"properties":{"osm_id":"5969836826","tag":{"amenity":"waste_basket"}},"type":"Feature"},
	{"geometry":{"coordinates":[11.324212,47.994894],"type":"Point"},"properties":{"osm_id":"6590360753","tag":{"amenity":"recycling","recycling:clothes":"yes","recycling:glass":"yes"}},"type":"Feature"},
	{"geometry":{"coordinates":[11.329671,47.993697],"type":"Point"},"properties":{"osm_id":"6590363210","tag":{"amenity":"waste_basket"}},"type":"Feature"},
	{"geometry":{"coordinates":[11.337551,48.011265],"type":"Point"},"properties":{"osm_id":"7933334814","tag":{"amenity":"waste_basket","waste":"trash"}},"type":"Feature"},
	{"geometry":{"coordinates":[11.337113,48.013347],"type":"Point"},"properties":{"osm_id":"7933334815","tag":{"amenity":"waste_basket","waste":"trash"}},"type":"Feature"}
]
}
