{
"type": "FeatureCollection",
"features": [
	{"geometry":{"coordinates":[11.286162,47.504273],"type":"Point"},"properties":{"name":"Wertstoffhof","osm_id":"2580921440","tag":{"amenity":"recycling"}},"type":"Feature"},
	{"geometry":{"coordinates":[11.272296,47.498297],"type":"Point"},"properties":{"osm_id":"3090810983","tag":{"amenity":"waste_basket"}},"type":"Feature"},
	{"geometry":{"coordinates":[11.274737,47.500759],"type":"Point"},"properties":{"osm_id":"3090832374","tag":{"amenity":"waste_basket"}},"type":"Feature"},
	{"geometry":{"coordinates":[11.275545,47.503172],"type":"Point"},"properties":{"osm_id":"3090923059","tag":{"amenity":"waste_basket"}},"type":"Feature"},
	{"geometry":{"coordinates":[11.252326,47.496072],"type":"Point"},"properties":{"osm_id":"5643833431","tag":{"amenity":"waste_basket"}},"type":"Feature"},
	{"geometry":{"coordinates":[11.250192,47.495392],"type":"Point"},"properties":{"osm_id":"5643842821","tag":{"amenity":"waste_basket"}},"type":"Feature"},
	{"geometry":{"coordinates":[11.272788,47.514462],"type":"Point"},"properties":{"osm_id":"5643985224","tag":{"amenity":"waste_basket"}},"type":"Feature"},
	{"geometry":{"coordinates":[11.259656,47.487749],"type":"Point"},"properties":{"osm_id":"5974023053","tag":{"amenity":"waste_basket","waste":"trash"}},"type":"Feature"},
	{"geometry":{"coordinates":[11.257546,47.48924],"type":"Point"},"properties":{"osm_id":"5974023055","tag":{"amenity":"waste_basket","waste":"trash"}},"type":"Feature"},
	{"geometry":{"coordinates":[11.279789,47.502165],"type":"Point"},"properties":{"osm_id":"6591263091","tag":{"amenity":"waste_basket","material":"wood"}},"type":"Feature"},
	{"geometry":{"coordinates":[11.279787,47.502304],"type":"Point"},"properties":{"osm_id":"6591413360","tag":{"amenity":"waste_basket","material":"wood"}},"type":"Feature"},
	{"geometry":{"coordinates":[11.2713,47.5047],"type":"Point"},"properties":{"osm_id":"7739181260","tag":{"amenity":"waste_basket"}},"type":"Feature"},
	{"geometry":{"coordinates":[11.269255,47.499656],"type":"Point"},"properties":{"osm_id":"7739198973","tag":{"amenity":"waste_basket"}},"type":"Feature"},
	{"geometry":{"coordinates":[11.254855,47.489962],"type":"Point"},"properties":{"osm_id":"7892306756","tag":{"amenity":"recycling","recycling_type":"container"}},"type":"Feature"}
]
}
