{
"type": "FeatureCollection",
"features": [
	{"geometry":{"coordinates":[11.326548,47.232939],"type":"Point"},"properties":{"name":"Recyclinghof G\u00c3\u00b6tzens","osm_id":"293390202","tag":{"addr:housenumber":"3","addr:street":"Gewerbepark","amenity":"recycling","opening_hours":"We,Fr 15:00-19:00; Sa 08:00-12:00; PH off","phone":"+43 699 15 90 50 90","recycling_type":"centre","website":"http://www.goetzens.tirol.gv.at/Bau-_und_Recyclinghof"}},"type":"Feature"},
	{"geometry":{"coordinates":[11.334511,47.251072],"type":"Point"},"properties":{"osm_id":"440645232","tag":{"amenity":"recycling","location":"overground","recycling_type":"container"}},"type":"Feature"},
	{"geometry":{"coordinates":[11.329829,47.253197],"type":"Point"},"properties":{"osm_id":"440645233","tag":{"amenity":"recycling","location":"overground","recycling_type":"container"}},"type":"Feature"},
	{"geometry":{"coordinates":[11.330683,47.25194],"type":"Point"},"properties":{"osm_id":"440645234","tag":{"amenity":"recycling","location":"overground","recycling_type":"container"}},"type":"Feature"},
	{"geometry":{"coordinates":[11.326668,47.249999],"type":"Point"},"properties":{"osm_id":"440645235","tag":{"amenity":"recycling","location":"overground","recycling_type":"container"}},"type":"Feature"},
	{"geometry":{"coordinates":[11.321328,47.255189],"type":"Point"},"properties":{"osm_id":"440645236","tag":{"amenity":"recycling","location":"overground","recycling_type":"container"}},"type":"Feature"},
	{"geometry":{"coordinates":[11.311189,47.255364],"type":"Point"},"properties":{"osm_id":"440645237","tag":{"amenity":"recycling","location":"overground","recycling_type":"container"}},"type":"Feature"},
	{"geometry":{"coordinates":[11.323991,47.255688],"type":"Point"},"properties":{"name":"Recyclinghof","osm_id":"441951235","tag":{"amenity":"recycling","recycling_type":"centre"}},"type":"Feature"},
	{"geometry":{"coordinates":[11.331394,47.265387],"type":"Point"},"properties":{"osm_id":"703344090","tag":{"amenity":"recycling","recycling:glass":"yes","recycling:paper":"yes"}},"type":"Feature"},
	{"geometry":{"coordinates":[11.319092,47.254132],"type":"Point"},"properties":{"osm_id":"731543990","tag":{"amenity":"recycling","location":"overground","recycling:cans":"yes","recycling:glass":"yes","recycling:glass_bottles":"yes","recycling:paper":"yes","recycling:plastic_packaging":"yes","recycling_type":"container"}},"type":"Feature"},
	{"geometry":{"coordinates":[11.326814,47.250631],"type":"Point"},"properties":{"osm_id":"1280101793","tag":{"amenity":"recycling","location":"overground","recycling_type":"container"}},"type":"Feature"},
	{"geometry":{"coordinates":[11.262243,47.245519],"type":"Point"},"properties":{"name":"Recyclinghof Kematen","osm_id":"1745407956","tag":{"amenity":"recycling","recycling_type":"centre"}},"type":"Feature"},
	{"geometry":{"coordinates":[11.330246,47.241312],"type":"Point"},"properties":{"osm_id":"2757028821","tag":{"amenity":"waste_basket"}},"type":"Feature"},
	{"geometry":{"coordinates":[11.313847,47.249145],"type":"Point"},"properties":{"osm_id":"3412957567","tag":{"amenity":"waste_basket"}},"type":"Feature"},
	{"geometry":{"coordinates":[11.317503,47.250338],"type":"Point"},"properties":{"osm_id":"3412957572","tag":{"amenity":"waste_basket"}},"type":"Feature"},
	{"geometry":{"coordinates":[11.282423,47.265443],"type":"Point"},"properties":{"osm_id":"3705127915","tag":{"amenity":"waste_basket"}},"type":"Feature"},
	{"geometry":{"coordinates":[11.310125,47.252838],"type":"Point"},"properties":{"osm_id":"3934860445","tag":{"amenity":"recycling","recycling_type":"container"}},"type":"Feature"},
	{"geometry":{"coordinates":[11.300659,47.235789],"type":"Point"},"properties":{"osm_id":"4042674514","tag":{"amenity":"waste_basket"}},"type":"Feature"},
	{"geometry":{"coordinates":[11.317077,47.255022],"type":"Point"},"properties":{"osm_id":"4671694076","tag":{"amenity":"recycling","location":"indoor","recycling:PET":"yes","recycling:glass":"no","recycling:waste":"yes","recycling_type":"container"}},"type":"Feature"},
	{"geometry":{"coordinates":[11.273852,47.223017],"type":"Point"},"properties":{"osm_id":"4895255586","tag":{"amenity":"waste_basket"}},"type":"Feature"},
	{"geometry":{"coordinates":[11.321296,47.246448],"type":"Point"},"properties":{"osm_id":"4895255725","tag":{"amenity":"waste_basket"}},"type":"Feature"},
	{"geometry":{"coordinates":[11.308144,47.229618],"type":"Point"},"properties":{"osm_id":"4895255999","tag":{"amenity":"waste_basket"}},"type":"Feature"},
	{"geometry":{"coordinates":[11.315243,47.232422],"type":"Point"},"properties":{"osm_id":"5633320432","tag":{"amenity":"waste_basket"}},"type":"Feature"},
	{"geometry":{"coordinates":[11.307604,47.244266],"type":"Point"},"properties":{"osm_id":"5644418252","tag":{"amenity":"waste_basket"}},"type":"Feature"},
	{"geometry":{"coordinates":[11.279806,47.239398],"type":"Point"},"properties":{"osm_id":"5777484112","tag":{"amenity":"waste_basket"}},"type":"Feature"},
	{"geometry":{"coordinates":[11.281109,47.23151],"type":"Point"},"properties":{"osm_id":"5778619440","tag":{"amenity":"waste_basket"}},"type":"Feature"},
	{"geometry":{"coordinates":[11.326025,47.259759],"type":"Point"},"properties":{"osm_id":"7215887692","tag":{"amenity":"waste_basket"}},"type":"Feature"},
	{"geometry":{"coordinates":[11.257922,47.272575],"type":"Point"},"properties":{"osm_id":"7555828386","tag":{"amenity":"waste_basket"}},"type":"Feature"},
	{"geometry":{"coordinates":[11.252139,47.266085],"type":"Point"},"properties":{"osm_id":"7685374533","tag":{"amenity":"recycling","recycling_type":"container"}},"type":"Feature"},
	{"geometry":{"coordinates":[11.251782,47.226805],"type":"Point"},"properties":{"name":"Bau- und Recyclinghof","osm_id":"7880177470","tag":{"amenity":"recycling","recycling_type":"centre"}},"type":"Feature"}
]
}
