{
"type": "FeatureCollection",
"features": [
	{"geometry":{"coordinates":[11.254062,46.529406],"type":"Point"},"properties":{"name":"Wertstoffhof Terlan - Centro riciclaggio Terlano","osm_id":"582645289","tag":{"amenity":"recycling","name:de":"Wertstoffhof Terlan","name:it":"Centro riciclaggio Terlano","recycling_type":"centre"}},"type":"Feature"},
	{"geometry":{"coordinates":[11.335186,46.502284],"type":"Point"},"properties":{"osm_id":"1054542955","tag":{"amenity":"recycling","recycling_type":"container"}},"type":"Feature"},
	{"geometry":{"coordinates":[11.3332,46.50115],"type":"Point"},"properties":{"osm_id":"1063855588","tag":{"amenity":"recycling","recycling_type":"container"}},"type":"Feature"},
	{"geometry":{"coordinates":[11.33178,46.503086],"type":"Point"},"properties":{"osm_id":"1065236776","tag":{"amenity":"recycling","recycling_type":"container"}},"type":"Feature"},
	{"geometry":{"coordinates":[11.333223,46.505123],"type":"Point"},"properties":{"osm_id":"1081807513","tag":{"amenity":"recycling","recycling_type":"container"}},"type":"Feature"},
	{"geometry":{"coordinates":[11.291716,46.505925],"type":"Point"},"properties":{"osm_id":"2324961462","tag":{"amenity":"recycling","recycling:cans":"yes","recycling:glass_bottles":"yes","recycling:paper":"yes","recycling:plastic_bottles":"yes","recycling:plastic_packaging":"yes","recycling_type":"container"}},"type":"Feature"},
	{"geometry":{"coordinates":[11.33476,46.501058],"type":"Point"},"properties":{"osm_id":"3181125474","tag":{"amenity":"recycling","recycling_type":"container"}},"type":"Feature"},
	{"geometry":{"coordinates":[11.336795,46.499992],"type":"Point"},"properties":{"osm_id":"3181125475","tag":{"amenity":"recycling","recycling:cans":"yes","recycling:glass_bottles":"yes","recycling:paper":"yes","recycling:plastic_bottles":"yes","recycling:plastic_packaging":"yes","recycling_type":"container"}},"type":"Feature"},
	{"geometry":{"coordinates":[11.291635,46.505753],"type":"Point"},"properties":{"osm_id":"6103702905","tag":{"amenity":"waste_basket","waste":"dog_excrement"}},"type":"Feature"},
	{"geometry":{"coordinates":[11.312215,46.500612],"type":"Point"},"properties":{"osm_id":"6260902426","tag":{"amenity":"recycling","recycling:cans":"yes","recycling:cardboard":"yes","recycling:glass_bottles":"yes","recycling:paper":"yes","recycling:plastic_bottles":"yes","recycling:plastic_packaging":"yes","recycling_type":"container"}},"type":"Feature"},
	{"geometry":{"coordinates":[11.269068,46.509676],"type":"Point"},"properties":{"osm_id":"6372238721","tag":{"amenity":"waste_basket","waste":"dog_excrement"}},"type":"Feature"},
	{"geometry":{"coordinates":[11.272329,46.509743],"type":"Point"},"properties":{"osm_id":"6738908326","tag":{"amenity":"waste_basket","waste":"dog_excrement"}},"type":"Feature"},
	{"geometry":{"coordinates":[11.323374,46.503423],"type":"Point"},"properties":{"osm_id":"6792196860","tag":{"amenity":"recycling","recycling_type":"container"}},"type":"Feature"},
	{"geometry":{"coordinates":[11.312666,46.50141],"type":"Point"},"properties":{"osm_id":"6792196862","tag":{"amenity":"waste_basket"}},"type":"Feature"},
	{"geometry":{"coordinates":[11.310944,46.500168],"type":"Point"},"properties":{"osm_id":"6792196866","tag":{"amenity":"waste_basket"}},"type":"Feature"},
	{"geometry":{"coordinates":[11.318397,46.502182],"type":"Point"},"properties":{"osm_id":"6792196871","tag":{"amenity":"waste_basket"}},"type":"Feature"},
	{"geometry":{"coordinates":[11.307041,46.499075],"type":"Point"},"properties":{"osm_id":"6792196873","tag":{"amenity":"waste_basket"}},"type":"Feature"},
	{"geometry":{"coordinates":[11.313049,46.501567],"type":"Point"},"properties":{"osm_id":"6792196878","tag":{"amenity":"waste_basket"}},"type":"Feature"},
	{"geometry":{"coordinates":[11.307503,46.499124],"type":"Point"},"properties":{"osm_id":"6792196879","tag":{"amenity":"waste_basket"}},"type":"Feature"},
	{"geometry":{"coordinates":[11.318143,46.502225],"type":"Point"},"properties":{"osm_id":"6792196881","tag":{"amenity":"waste_basket"}},"type":"Feature"},
	{"geometry":{"coordinates":[11.309171,46.499646],"type":"Point"},"properties":{"osm_id":"6792268822","tag":{"amenity":"waste_basket"}},"type":"Feature"},
	{"geometry":{"coordinates":[11.309283,46.499676],"type":"Point"},"properties":{"osm_id":"6792268823","tag":{"amenity":"waste_basket"}},"type":"Feature"},
	{"geometry":{"coordinates":[11.309048,46.499611],"type":"Point"},"properties":{"osm_id":"6792268824","tag":{"amenity":"waste_basket"}},"type":"Feature"},
	{"geometry":{"coordinates":[11.26883,46.508585],"type":"Point"},"properties":{"osm_id":"6796653624","tag":{"amenity":"recycling","recycling_type":"container"}},"type":"Feature"},
	{"geometry":{"coordinates":[11.254193,46.514634],"type":"Point"},"properties":{"osm_id":"6796653627","tag":{"amenity":"waste_basket"}},"type":"Feature"},
	{"geometry":{"coordinates":[11.265447,46.509702],"type":"Point"},"properties":{"osm_id":"6796653630","tag":{"amenity":"waste_basket"}},"type":"Feature"},
	{"geometry":{"coordinates":[11.26448,46.508746],"type":"Point"},"properties":{"osm_id":"6796653635","tag":{"amenity":"waste_basket"}},"type":"Feature"},
	{"geometry":{"coordinates":[11.271375,46.499081],"type":"Point"},"properties":{"osm_id":"6796653640","tag":{"amenity":"waste_basket"}},"type":"Feature"},
	{"geometry":{"coordinates":[11.268013,46.502589],"type":"Point"},"properties":{"osm_id":"6796653650","tag":{"amenity":"waste_basket"}},"type":"Feature"},
	{"geometry":{"coordinates":[11.265483,46.509735],"type":"Point"},"properties":{"osm_id":"6796653654","tag":{"amenity":"waste_basket","waste":"dog_excrement"}},"type":"Feature"},
	{"geometry":{"coordinates":[11.328851,46.503013],"type":"Point"},"properties":{"osm_id":"6899978009","tag":{"amenity":"waste_basket"}},"type":"Feature"},
	{"geometry":{"coordinates":[11.336249,46.502198],"type":"Point"},"properties":{"osm_id":"7272718810","tag":{"amenity":"recycling","recycling:cans":"yes","recycling:glass_bottles":"yes","recycling:paper":"yes","recycling:plastic_bottles":"yes","recycling:plastic_packaging":"yes","recycling_type":"container"}},"type":"Feature"},
	{"geometry":{"coordinates":[11.274686,46.511023],"type":"Point"},"properties":{"osm_id":"8282130653","tag":{"amenity":"waste_basket"}},"type":"Feature"},
	{"geometry":{"coordinates":[11.299998,46.502474],"type":"Point"},"properties":{"osm_id":"8326368867","tag":{"amenity":"recycling","recycling_type":"container"}},"type":"Feature"},
	{"geometry":{"coordinates":[11.299887,46.502668],"type":"Point"},"properties":{"osm_id":"8326368897","tag":{"amenity":"waste_basket","waste":"dog_excrement"}},"type":"Feature"},
	{"geometry":{"coordinates":[11.278515,46.506659],"type":"Point"},"properties":{"osm_id":"8345410232","tag":{"amenity":"recycling","recycling:glass_bottles":"yes","recycling_type":"container"}},"type":"Feature"},
	{"geometry":{"coordinates":[11.334119,46.503686],"type":"Point"},"properties":{"osm_id":"8377744004","tag":{"amenity":"recycling","recycling_type":"container"}},"type":"Feature"},
	{"geometry":{"coordinates":[11.335284,46.502134],"type":"Point"},"properties":{"osm_id":"8379732189","tag":{"amenity":"waste_basket"}},"type":"Feature"},
	{"geometry":{"coordinates":[11.334063,46.501337],"type":"Point"},"properties":{"osm_id":"8379732194","tag":{"amenity":"recycling","recycling_type":"container"}},"type":"Feature"},
	{"geometry":{"coordinates":[11.333489,46.503969],"type":"Point"},"properties":{"osm_id":"8382385623","tag":{"amenity":"waste_basket"}},"type":"Feature"},
	{"geometry":{"coordinates":[11.33362,46.504029],"type":"Point"},"properties":{"osm_id":"8382385624","tag":{"amenity":"waste_basket"}},"type":"Feature"},
	{"geometry":{"coordinates":[11.333869,46.503657],"type":"Point"},"properties":{"osm_id":"8382385628","tag":{"amenity":"waste_basket"}},"type":"Feature"},
	{"geometry":{"coordinates":[11.334139,46.503207],"type":"Point"},"properties":{"osm_id":"8382385646","tag":{"amenity":"waste_basket"}},"type":"Feature"},
	{"geometry":{"coordinates":[11.334413,46.50331],"type":"Point"},"properties":{"osm_id":"8382385661","tag":{"amenity":"waste_basket"}},"type":"Feature"},
	{"geometry":{"coordinates":[11.334551,46.504316],"type":"Point"},"properties":{"osm_id":"8382385666","tag":{"amenity":"waste_basket"}},"type":"Feature"}
]
}
