{
"type": "FeatureCollection",
"lastupdate": "2020-08-06T00:00:00Z",
"features": [
	{"geometry":{"coordinates":[11.273232,46.316933],"type":"Point"},"properties":{"osm_id":"392945447","tag":{"amenity":"recycling","recycling:cans":"yes","recycling:glass_bottles":"yes","recycling:paper":"yes","recycling_type":"container"}},"type":"Feature"},
	{"geometry":{"coordinates":[11.27132,46.316693],"type":"Point"},"properties":{"osm_id":"393196996","tag":{"amenity":"recycling","recycling:cans":"yes","recycling:glass_bottles":"yes","recycling:paper":"yes","recycling_type":"container"}},"type":"Feature"},
	{"geometry":{"coordinates":[11.252428,46.372555],"type":"Point"},"properties":{"osm_id":"1345788860","tag":{"amenity":"recycling"}},"type":"Feature"},
	{"geometry":{"coordinates":[11.25246,46.372549],"type":"Point"},"properties":{"osm_id":"1345788861","tag":{"amenity":"waste_basket"}},"type":"Feature"},
	{"geometry":{"coordinates":[11.251634,46.372403],"type":"Point"},"properties":{"osm_id":"3758027215","tag":{"amenity":"waste_basket"}},"type":"Feature"},
	{"geometry":{"coordinates":[11.28115,46.337394],"type":"Point"},"properties":{"osm_id":"4738946856","tag":{"amenity":"waste_basket"}},"type":"Feature"},
	{"geometry":{"coordinates":[11.298497,46.359123],"type":"Point"},"properties":{"name":"Recyclinghof - Centro di riciclaggio","osm_id":"4942043728","tag":{"addr:city":"Auer - Ora","addr:housenumber":"104","addr:postcode":"39040","addr:street":"Bahnhofsstra\u00dfe - Via Stazione","amenity":"recycling","name:de":"Recyclinghof","name:it":"Centro di riciclaggio","recycling_type":"centre"}},"type":"Feature"},
	{"geometry":{"coordinates":[11.288464,46.359884],"type":"Point"},"properties":{"osm_id":"7086746526","tag":{"amenity":"recycling","recycling:cans":"yes","recycling:glass_bottles":"yes","recycling:paper":"yes","recycling:plastic_packaging":"yes","recycling:waste":"yes","recycling_type":"container"}},"type":"Feature"},
	{"geometry":{"coordinates":[11.2887,46.360327],"type":"Point"},"properties":{"osm_id":"7086746527","tag":{"amenity":"recycling","recycling:cans":"yes","recycling:glass_bottles":"yes","recycling:paper":"yes","recycling:plastic_packaging":"yes","recycling:waste":"yes","recycling_type":"container"}},"type":"Feature"},
	{"geometry":{"coordinates":[11.288174,46.360417],"type":"Point"},"properties":{"osm_id":"7086746528","tag":{"amenity":"recycling","recycling:cans":"yes","recycling:glass_bottles":"yes","recycling:paper":"yes","recycling:plastic_packaging":"yes","recycling:waste":"yes","recycling_type":"container"}},"type":"Feature"},
	{"geometry":{"coordinates":[11.288213,46.360789],"type":"Point"},"properties":{"osm_id":"7086746545","tag":{"amenity":"recycling","recycling:cans":"yes","recycling:glass_bottles":"yes","recycling:paper":"yes","recycling:plastic_packaging":"yes","recycling:waste":"yes","recycling_type":"container"}},"type":"Feature"},
	{"geometry":{"coordinates":[11.288375,46.360907],"type":"Point"},"properties":{"osm_id":"7086746546","tag":{"amenity":"recycling","recycling:cans":"yes","recycling:glass_bottles":"yes","recycling:paper":"yes","recycling:plastic_packaging":"yes","recycling:waste":"yes","recycling_type":"container"}},"type":"Feature"},
	{"geometry":{"coordinates":[11.264684,46.367642],"type":"Point"},"properties":{"osm_id":"7109634143","tag":{"amenity":"waste_basket"}},"type":"Feature"}
]
}
