{
"type": "FeatureCollection",
"features": [
	{"geometry":{"coordinates":[11.309893,46.041318],"type":"Point"},"properties":{"osm_id":"1108425597","tag":{"amenity":"waste_basket"}},"type":"Feature"},
	{"geometry":{"coordinates":[11.309879,46.041397],"type":"Point"},"properties":{"osm_id":"1108425613","tag":{"amenity":"waste_basket"}},"type":"Feature"},
	{"geometry":{"coordinates":[11.317825,46.04203],"type":"Point"},"properties":{"osm_id":"1108425648","tag":{"amenity":"recycling","recycling:batteries":"yes","recycling:glass":"yes","recycling:paper":"yes","recycling_type":"container"}},"type":"Feature"},
	{"geometry":{"coordinates":[11.310862,46.041612],"type":"Point"},"properties":{"osm_id":"1108425653","tag":{"amenity":"recycling","recycling:glass":"yes","recycling:paper":"yes","recycling_type":"container"}},"type":"Feature"},
	{"geometry":{"coordinates":[11.309592,46.041294],"type":"Point"},"properties":{"osm_id":"1108425664","tag":{"amenity":"waste_basket"}},"type":"Feature"},
	{"geometry":{"coordinates":[11.257792,46.050609],"type":"Point"},"properties":{"osm_id":"1108435344","tag":{"amenity":"recycling","recycling:glass":"yes","recycling:paper":"yes","recycling_type":"container"}},"type":"Feature"},
	{"geometry":{"coordinates":[11.281281,46.042756],"type":"Point"},"properties":{"osm_id":"1108435361","tag":{"amenity":"recycling","recycling:glass":"yes","recycling:paper":"yes","recycling_type":"container"}},"type":"Feature"},
	{"geometry":{"coordinates":[11.255347,46.066638],"type":"Point"},"properties":{"osm_id":"2807273318","tag":{"amenity":"recycling","recycling_type":"container"}},"type":"Feature"},
	{"geometry":{"coordinates":[11.277234,46.044473],"type":"Point"},"properties":{"osm_id":"3790520128","tag":{"amenity":"recycling","recycling:batteries":"yes","recycling:drugs":"yes","recycling_type":"container"}},"type":"Feature"},
	{"geometry":{"coordinates":[11.287811,46.051277],"type":"Point"},"properties":{"osm_id":"3889267799","tag":{"amenity":"waste_basket"}},"type":"Feature"},
	{"geometry":{"coordinates":[11.254653,46.068652],"type":"Point"},"properties":{"osm_id":"3937760779","tag":{"amenity":"recycling","recycling_type":"container"}},"type":"Feature"},
	{"geometry":{"coordinates":[11.256684,46.069923],"type":"Point"},"properties":{"osm_id":"3937760798","tag":{"amenity":"recycling","recycling_type":"container"}},"type":"Feature"},
	{"geometry":{"coordinates":[11.250509,46.067836],"type":"Point"},"properties":{"osm_id":"4525961443","tag":{"amenity":"waste_basket"}},"type":"Feature"},
	{"geometry":{"coordinates":[11.250074,46.067675],"type":"Point"},"properties":{"osm_id":"4525961444","tag":{"amenity":"waste_basket"}},"type":"Feature"},
	{"geometry":{"coordinates":[11.251142,46.057664],"type":"Point"},"properties":{"osm_id":"4526470477","tag":{"amenity":"waste_basket"}},"type":"Feature"},
	{"geometry":{"coordinates":[11.266399,46.013041],"type":"Point"},"properties":{"osm_id":"4585114922","tag":{"amenity":"recycling","recycling:batteries":"yes","recycling_type":"container"}},"type":"Feature"},
	{"geometry":{"coordinates":[11.273472,46.022115],"type":"Point"},"properties":{"osm_id":"5879705917","tag":{"amenity":"waste_basket","waste":"trash"}},"type":"Feature"},
	{"geometry":{"coordinates":[11.274025,46.020822],"type":"Point"},"properties":{"osm_id":"5879705918","tag":{"amenity":"waste_basket","waste":"trash"}},"type":"Feature"},
	{"geometry":{"coordinates":[11.274617,46.019763],"type":"Point"},"properties":{"osm_id":"5879705919","tag":{"amenity":"waste_basket","waste":"trash"}},"type":"Feature"},
	{"geometry":{"coordinates":[11.303702,46.014558],"type":"Point"},"properties":{"osm_id":"7255834593","tag":{"amenity":"recycling","recycling:green_waste":"yes","recycling_type":"container"}},"type":"Feature"}
]
}
