{
"type": "FeatureCollection",
"features": [
	{"geometry":{"coordinates":[11.262183,44.521729],"type":"Point"},"properties":{"osm_id":"1576821082","tag":{"amenity":"recycling"}},"type":"Feature"},
	{"geometry":{"coordinates":[11.332515,44.509016],"type":"Point"},"properties":{"osm_id":"1653184448","tag":{"amenity":"waste_basket"}},"type":"Feature"},
	{"geometry":{"coordinates":[11.332371,44.510006],"type":"Point"},"properties":{"osm_id":"1653184621","tag":{"amenity":"waste_basket"}},"type":"Feature"},
	{"geometry":{"coordinates":[11.332032,44.510789],"type":"Point"},"properties":{"osm_id":"1653184879","tag":{"amenity":"waste_basket"}},"type":"Feature"},
	{"geometry":{"coordinates":[11.332951,44.511634],"type":"Point"},"properties":{"osm_id":"1653184985","tag":{"amenity":"waste_basket"}},"type":"Feature"},
	{"geometry":{"coordinates":[11.332294,44.511681],"type":"Point"},"properties":{"osm_id":"1653184996","tag":{"amenity":"waste_basket"}},"type":"Feature"},
	{"geometry":{"coordinates":[11.33242,44.511813],"type":"Point"},"properties":{"osm_id":"1653185034","tag":{"amenity":"waste_basket"}},"type":"Feature"},
	{"geometry":{"coordinates":[11.332963,44.511915],"type":"Point"},"properties":{"osm_id":"1653185064","tag":{"amenity":"waste_basket"}},"type":"Feature"},
	{"geometry":{"coordinates":[11.333081,44.51553],"type":"Point"},"properties":{"osm_id":"1653185515","tag":{"amenity":"waste_basket"}},"type":"Feature"},
	{"geometry":{"coordinates":[11.336195,44.497902],"type":"Point"},"properties":{"osm_id":"1665273967","tag":{"amenity":"recycling","recycling:glass":"yes"}},"type":"Feature"},
	{"geometry":{"coordinates":[11.336098,44.49807],"type":"Point"},"properties":{"osm_id":"1665276379","tag":{"amenity":"recycling","recycling:glass":"yes"}},"type":"Feature"},
	{"geometry":{"coordinates":[11.299029,44.494147],"type":"Point"},"properties":{"osm_id":"1748446509","tag":{"amenity":"recycling","recycling:cans":"yes","recycling:glass":"yes","recycling:paper":"yes","recycling_type":"container"}},"type":"Feature"},
	{"geometry":{"coordinates":[11.297997,44.494429],"type":"Point"},"properties":{"osm_id":"1748446516","tag":{"amenity":"recycling","recycling:cans":"yes","recycling:glass":"yes","recycling:paper":"yes","recycling_type":"container"}},"type":"Feature"},
	{"geometry":{"coordinates":[11.300251,44.49492],"type":"Point"},"properties":{"osm_id":"1748446527","tag":{"amenity":"recycling","recycling:cans":"yes","recycling:glass":"yes","recycling:paper":"yes","recycling_type":"container"}},"type":"Feature"},
	{"geometry":{"coordinates":[11.299582,44.494946],"type":"Point"},"properties":{"osm_id":"1748446529","tag":{"amenity":"recycling","recycling:cans":"yes","recycling:glass":"yes","recycling:paper":"yes","recycling_type":"container"}},"type":"Feature"},
	{"geometry":{"coordinates":[11.321839,44.499564],"type":"Point"},"properties":{"osm_id":"3321097603","tag":{"addr:city":"Bologna","addr:street":"Via Montello","amenity":"waste_disposal","recycling:cans":"yes","recycling:glass":"no","recycling:paper":"yes"}},"type":"Feature"},
	{"geometry":{"coordinates":[11.319052,44.496916],"type":"Point"},"properties":{"osm_id":"3321125071","tag":{"addr:city":"Bologna","addr:street":"Via Sabotino","amenity":"waste_disposal","recycling:cans":"yes","recycling:clothes":"no","recycling:glass":"yes","recycling:paper":"yes"}},"type":"Feature"},
	{"geometry":{"coordinates":[11.315719,44.497067],"type":"Point"},"properties":{"osm_id":"3321796248","tag":{"amenity":"waste_disposal","recycling:cans":"yes","recycling:clothes":"no","recycling:glass":"no","recycling:paper":"yes"}},"type":"Feature"},
	{"geometry":{"coordinates":[11.316036,44.496984],"type":"Point"},"properties":{"osm_id":"3321796249","tag":{"addr:city":"Bologna","addr:street":"Via delle Tofane","amenity":"waste_disposal","recycling:cans":"yes","recycling:clothes":"no","recycling:glass":"yes","recycling:paper":"yes"}},"type":"Feature"},
	{"geometry":{"coordinates":[11.315066,44.495989],"type":"Point"},"properties":{"osm_id":"3321796250","tag":{"amenity":"waste_disposal","recycling:cans":"yes","recycling:clothes":"no","recycling:glass":"no","recycling:paper":"yes"}},"type":"Feature"},
	{"geometry":{"coordinates":[11.313441,44.494521],"type":"Point"},"properties":{"osm_id":"3321799965","tag":{"amenity":"waste_disposal","recycling:cans":"yes","recycling:clothes":"no","recycling:glass":"no","recycling:paper":"yes"}},"type":"Feature"},
	{"geometry":{"coordinates":[11.320928,44.496024],"type":"Point"},"properties":{"osm_id":"3323410244","tag":{"amenity":"waste_disposal","recycling:cans":"yes","recycling:clothes":"no","recycling:glass":"yes","recycling:paper":"yes"}},"type":"Feature"},
	{"geometry":{"coordinates":[11.320873,44.495609],"type":"Point"},"properties":{"osm_id":"3323410245","tag":{"amenity":"waste_disposal","recycling:cans":"no","recycling:clothes":"yes","recycling:glass":"no","recycling:paper":"no"}},"type":"Feature"},
	{"geometry":{"coordinates":[11.321398,44.495507],"type":"Point"},"properties":{"osm_id":"3323458372","tag":{"amenity":"waste_basket"}},"type":"Feature"},
	{"geometry":{"coordinates":[11.321098,44.495521],"type":"Point"},"properties":{"osm_id":"3323458373","tag":{"amenity":"recycling","recycling:cans":"no","recycling:clothes":"yes","recycling:glass":"no","recycling:paper":"no"}},"type":"Feature"},
	{"geometry":{"coordinates":[11.319878,44.497048],"type":"Point"},"properties":{"osm_id":"3323458374","tag":{"amenity":"waste_disposal","recycling:cans":"yes","recycling:clothes":"no","recycling:glass":"yes","recycling:paper":"yes"}},"type":"Feature"},
	{"geometry":{"coordinates":[11.304993,44.493124],"type":"Point"},"properties":{"osm_id":"3323458389","tag":{"amenity":"recycling","location":"overground","recycling:cans":"yes","recycling:clothes":"no","recycling:glass":"no","recycling:paper":"yes","recycling_type":"container"}},"type":"Feature"},
	{"geometry":{"coordinates":[11.302113,44.491617],"type":"Point"},"properties":{"osm_id":"3323458394","tag":{"amenity":"recycling","location":"overground","recycling:cans":"yes","recycling:clothes":"no","recycling:paper":"yes","recycling_type":"container"}},"type":"Feature"},
	{"geometry":{"coordinates":[11.306393,44.491222],"type":"Point"},"properties":{"osm_id":"3342648605","tag":{"amenity":"waste_disposal","recycling:cans":"no","recycling:clothes":"no","recycling:glass":"no","recycling:paper":"yes"}},"type":"Feature"},
	{"geometry":{"coordinates":[11.315248,44.503205],"type":"Point"},"properties":{"osm_id":"3344350979","tag":{"amenity":"recycling"}},"type":"Feature"},
	{"geometry":{"coordinates":[11.316292,44.50319],"type":"Point"},"properties":{"osm_id":"3344350980","tag":{"amenity":"recycling"}},"type":"Feature"},
	{"geometry":{"coordinates":[11.314812,44.503564],"type":"Point"},"properties":{"osm_id":"3344350981","tag":{"amenity":"recycling"}},"type":"Feature"},
	{"geometry":{"coordinates":[11.314222,44.502833],"type":"Point"},"properties":{"osm_id":"3344350982","tag":{"amenity":"recycling"}},"type":"Feature"},
	{"geometry":{"coordinates":[11.313902,44.502735],"type":"Point"},"properties":{"osm_id":"3344350983","tag":{"amenity":"recycling"}},"type":"Feature"},
	{"geometry":{"coordinates":[11.312083,44.502634],"type":"Point"},"properties":{"osm_id":"3344351898","tag":{"amenity":"recycling"}},"type":"Feature"},
	{"geometry":{"coordinates":[11.31421,44.501824],"type":"Point"},"properties":{"osm_id":"3344424743","tag":{"amenity":"recycling"}},"type":"Feature"},
	{"geometry":{"coordinates":[11.312589,44.500165],"type":"Point"},"properties":{"osm_id":"3344424763","tag":{"amenity":"recycling"}},"type":"Feature"},
	{"geometry":{"coordinates":[11.313529,44.499909],"type":"Point"},"properties":{"osm_id":"3344424764","tag":{"amenity":"waste_disposal"}},"type":"Feature"},
	{"geometry":{"coordinates":[11.317073,44.495119],"type":"Point"},"properties":{"osm_id":"3344424765","tag":{"amenity":"recycling"}},"type":"Feature"},
	{"geometry":{"coordinates":[11.321591,44.497086],"type":"Point"},"properties":{"osm_id":"3350882307","tag":{"amenity":"waste_disposal","recycling:clothes":"no","recycling:glass":"yes","recycling:paper":"yes","recycling:scrap_metal":"yes"}},"type":"Feature"},
	{"geometry":{"coordinates":[11.320214,44.498935],"type":"Point"},"properties":{"osm_id":"3350882331","tag":{"amenity":"recycling","recycling:batteries":"yes","recycling:cans":"yes","recycling:clothes":"no","recycling:glass":"yes","recycling:paper":"yes"}},"type":"Feature"},
	{"geometry":{"coordinates":[11.32027,44.49967],"type":"Point"},"properties":{"osm_id":"3350882338","tag":{"amenity":"waste_disposal","recycling:cans":"yes","recycling:paper":"yes","recycling:scrap_metal":"yes"}},"type":"Feature"},
	{"geometry":{"coordinates":[11.324195,44.500249],"type":"Point"},"properties":{"osm_id":"3350882339","tag":{"amenity":"recycling","location":"overground","recycling:cans":"yes","recycling:glass":"yes","recycling:paper":"yes","recycling_type":"container"}},"type":"Feature"},
	{"geometry":{"coordinates":[11.323793,44.500549],"type":"Point"},"properties":{"osm_id":"3350882341","tag":{"amenity":"recycling","recycling:cans":"yes","recycling:glass":"yes","recycling:paper":"yes"}},"type":"Feature"},
	{"geometry":{"coordinates":[11.327236,44.500679],"type":"Point"},"properties":{"osm_id":"3350882344","tag":{"amenity":"recycling","location":"overground","recycling:cans":"yes","recycling:glass":"yes","recycling:paper":"yes","recycling_type":"container"}},"type":"Feature"},
	{"geometry":{"coordinates":[11.321398,44.500917],"type":"Point"},"properties":{"osm_id":"3361861633","tag":{"amenity":"waste_disposal","recycling:cans":"yes","recycling:clothes":"no","recycling:glass":"yes","recycling:paper":"yes"}},"type":"Feature"},
	{"geometry":{"coordinates":[11.318294,44.496882],"type":"Point"},"properties":{"osm_id":"3362028964","tag":{"amenity":"waste_disposal","recycling:cans":"yes","recycling:clothes":"no","recycling:glass":"yes","recycling:paper":"yes"}},"type":"Feature"},
	{"geometry":{"coordinates":[11.320341,44.498733],"type":"Point"},"properties":{"osm_id":"3362058252","tag":{"addr:city":"Bologna","addr:postcode":"40131","addr:street":"Via Asiago","amenity":"recycling","recycling:cans":"yes","recycling:clothes":"no","recycling:glass":"yes","recycling:paper":"yes"}},"type":"Feature"},
	{"geometry":{"coordinates":[11.321921,44.497357],"type":"Point"},"properties":{"osm_id":"3362060193","tag":{"amenity":"waste_disposal","recycling:cans":"yes","recycling:clothes":"no","recycling:glass":"yes","recycling:paper":"yes"}},"type":"Feature"},
	{"geometry":{"coordinates":[11.335702,44.495465],"type":"Point"},"properties":{"osm_id":"3368092394","tag":{"amenity":"recycling","recycling:cans":"yes","recycling:clothes":"no","recycling:glass":"yes","recycling:paper":"yes"}},"type":"Feature"},
	{"geometry":{"coordinates":[11.291572,44.490283],"type":"Point"},"properties":{"osm_id":"3665696254","tag":{"amenity":"recycling","recycling:cans":"yes","recycling:glass":"yes","recycling:glass_bottles":"yes","recycling:paper":"yes","recycling:plastic":"yes","recycling_type":"container"}},"type":"Feature"},
	{"geometry":{"coordinates":[11.297258,44.501794],"type":"Point"},"properties":{"osm_id":"3665696264","tag":{"amenity":"recycling","recycling:batteries":"yes","recycling:cans":"yes","recycling:glass":"yes","recycling:glass_bottles":"yes","recycling:paper":"yes","recycling:plastic":"yes","recycling:small_appliances":"yes","recycling_type":"container"}},"type":"Feature"},
	{"geometry":{"coordinates":[11.309626,44.490222],"type":"Point"},"properties":{"osm_id":"3709515712","tag":{"amenity":"recycling","recycling:cans":"no","recycling:clothes":"no","recycling:glass":"no","recycling:paper":"yes","recycling_type":"container"}},"type":"Feature"},
	{"geometry":{"coordinates":[11.310814,44.490176],"type":"Point"},"properties":{"osm_id":"3709515713","tag":{"amenity":"recycling","location":"overground","recycling:clothes":"no","recycling:glass":"no","recycling:paper":"yes","recycling_type":"container"}},"type":"Feature"},
	{"geometry":{"coordinates":[11.307424,44.490884],"type":"Point"},"properties":{"osm_id":"3709515714","tag":{"amenity":"recycling","recycling:cans":"yes","recycling:clothes":"no","recycling:glass":"yes","recycling:paper":"yes"}},"type":"Feature"},
	{"geometry":{"coordinates":[11.305062,44.491432],"type":"Point"},"properties":{"osm_id":"3709515715","tag":{"amenity":"waste_disposal","recycling:cans":"yes","recycling:clothes":"no","recycling:glass":"yes","recycling:paper":"yes"}},"type":"Feature"},
	{"geometry":{"coordinates":[11.30379,44.491347],"type":"Point"},"properties":{"osm_id":"3709515716","tag":{"amenity":"waste_disposal","recycling:cans":"yes","recycling:clothes":"yes","recycling:glass":"yes","recycling:paper":"yes"}},"type":"Feature"},
	{"geometry":{"coordinates":[11.302608,44.491241],"type":"Point"},"properties":{"osm_id":"3709515717","tag":{"amenity":"recycling","location":"overground","recycling:cans":"yes","recycling:clothes":"no","recycling:glass":"yes","recycling:paper":"yes","recycling_type":"container"}},"type":"Feature"},
	{"geometry":{"coordinates":[11.303434,44.492797],"type":"Point"},"properties":{"osm_id":"3709515718","tag":{"amenity":"recycling","location":"overground","recycling:clothes":"no","recycling:paper":"yes","recycling_type":"container"}},"type":"Feature"},
	{"geometry":{"coordinates":[11.306465,44.493232],"type":"Point"},"properties":{"osm_id":"3709515719","tag":{"amenity":"recycling","location":"overground","recycling:paper":"yes","recycling_type":"container"}},"type":"Feature"},
	{"geometry":{"coordinates":[11.309729,44.493873],"type":"Point"},"properties":{"osm_id":"3709516226","tag":{"amenity":"recycling"}},"type":"Feature"},
	{"geometry":{"coordinates":[11.312396,44.491752],"type":"Point"},"properties":{"osm_id":"3709516237","tag":{"amenity":"waste_disposal"}},"type":"Feature"},
	{"geometry":{"coordinates":[11.297669,44.488783],"type":"Point"},"properties":{"osm_id":"3709919162","tag":{"amenity":"recycling","location":"overground","recycling:cans":"no","recycling:clothes":"yes","recycling:glass":"no","recycling:paper":"yes","recycling_type":"container"}},"type":"Feature"},
	{"geometry":{"coordinates":[11.297112,44.488582],"type":"Point"},"properties":{"osm_id":"3709919163","tag":{"amenity":"recycling","recycling:cans":"yes","recycling:glass":"yes","recycling:paper":"yes"}},"type":"Feature"},
	{"geometry":{"coordinates":[11.29901,44.489255],"type":"Point"},"properties":{"osm_id":"3709919172","tag":{"amenity":"waste_disposal"}},"type":"Feature"},
	{"geometry":{"coordinates":[11.30022,44.489893],"type":"Point"},"properties":{"osm_id":"3709919174","tag":{"amenity":"waste_disposal"}},"type":"Feature"},
	{"geometry":{"coordinates":[11.301188,44.490403],"type":"Point"},"properties":{"osm_id":"3709919175","tag":{"amenity":"waste_disposal"}},"type":"Feature"},
	{"geometry":{"coordinates":[11.301285,44.492504],"type":"Point"},"properties":{"osm_id":"3709919177","tag":{"amenity":"recycling","location":"overground","recycling_type":"container"}},"type":"Feature"},
	{"geometry":{"coordinates":[11.299012,44.492107],"type":"Point"},"properties":{"osm_id":"3709919178","tag":{"amenity":"recycling","location":"overground","recycling_type":"container"}},"type":"Feature"},
	{"geometry":{"coordinates":[11.297789,44.493594],"type":"Point"},"properties":{"osm_id":"3709919183","tag":{"amenity":"recycling","location":"overground","recycling_type":"container"}},"type":"Feature"},
	{"geometry":{"coordinates":[11.296336,44.494116],"type":"Point"},"properties":{"osm_id":"3709919186","tag":{"amenity":"recycling","location":"overground","recycling_type":"container"}},"type":"Feature"},
	{"geometry":{"coordinates":[11.294472,44.494933],"type":"Point"},"properties":{"osm_id":"3709919195","tag":{"amenity":"recycling"}},"type":"Feature"},
	{"geometry":{"coordinates":[11.300203,44.493052],"type":"Point"},"properties":{"osm_id":"3709919198","tag":{"amenity":"recycling","location":"overground","recycling_type":"container"}},"type":"Feature"},
	{"geometry":{"coordinates":[11.300938,44.493688],"type":"Point"},"properties":{"osm_id":"3709919201","tag":{"amenity":"recycling","location":"overground","recycling_type":"container"}},"type":"Feature"},
	{"geometry":{"coordinates":[11.310788,44.494932],"type":"Point"},"properties":{"osm_id":"3709919204","tag":{"amenity":"waste_disposal"}},"type":"Feature"},
	{"geometry":{"coordinates":[11.311519,44.497649],"type":"Point"},"properties":{"osm_id":"3709919205","tag":{"amenity":"recycling"}},"type":"Feature"},
	{"geometry":{"coordinates":[11.313403,44.497503],"type":"Point"},"properties":{"osm_id":"3709919207","tag":{"amenity":"recycling"}},"type":"Feature"},
	{"geometry":{"coordinates":[11.312989,44.496058],"type":"Point"},"properties":{"osm_id":"3709919209","tag":{"amenity":"recycling"}},"type":"Feature"},
	{"geometry":{"coordinates":[11.305744,44.49192],"type":"Point"},"properties":{"osm_id":"3709921048","tag":{"amenity":"recycling"}},"type":"Feature"},
	{"geometry":{"coordinates":[11.306594,44.492465],"type":"Point"},"properties":{"osm_id":"3709921049","tag":{"amenity":"recycling","location":"overground","recycling_type":"container"}},"type":"Feature"},
	{"geometry":{"coordinates":[11.308081,44.491311],"type":"Point"},"properties":{"osm_id":"3709921051","tag":{"amenity":"recycling","location":"overground","recycling_type":"container"}},"type":"Feature"},
	{"geometry":{"coordinates":[11.308012,44.493062],"type":"Point"},"properties":{"osm_id":"3709921052","tag":{"amenity":"recycling","location":"overground","recycling_type":"container"}},"type":"Feature"},
	{"geometry":{"coordinates":[11.296154,44.4881],"type":"Point"},"properties":{"osm_id":"3776375182","tag":{"amenity":"waste_disposal"}},"type":"Feature"},
	{"geometry":{"coordinates":[11.30034,44.490937],"type":"Point"},"properties":{"osm_id":"3778652069","tag":{"amenity":"recycling","location":"overground","recycling_type":"container"}},"type":"Feature"},
	{"geometry":{"coordinates":[11.303169,44.493738],"type":"Point"},"properties":{"osm_id":"3778683768","tag":{"amenity":"recycling"}},"type":"Feature"},
	{"geometry":{"coordinates":[11.33781,44.517924],"type":"Point"},"properties":{"osm_id":"3858383842","tag":{"amenity":"recycling","recycling:cans":"yes","recycling:glass":"yes","recycling:glass_bottles":"yes","recycling:paper":"yes","recycling:plastic":"yes","recycling_type":"container"}},"type":"Feature"},
	{"geometry":{"coordinates":[11.328879,44.519569],"type":"Point"},"properties":{"osm_id":"3858383850","tag":{"amenity":"recycling","recycling_type":"container"}},"type":"Feature"},
	{"geometry":{"coordinates":[11.335972,44.517318],"type":"Point"},"properties":{"osm_id":"3858384359","tag":{"amenity":"recycling","recycling:cans":"yes","recycling:clothes":"yes","recycling:glass":"yes","recycling:glass_bottles":"yes","recycling:paper":"yes","recycling:plastic":"yes","recycling_type":"container"}},"type":"Feature"},
	{"geometry":{"coordinates":[11.337848,44.515623],"type":"Point"},"properties":{"osm_id":"3858713715","tag":{"amenity":"recycling"}},"type":"Feature"},
	{"geometry":{"coordinates":[11.2945,44.500791],"type":"Point"},"properties":{"osm_id":"4017231035","tag":{"amenity":"recycling","recycling:cans":"yes","recycling:glass":"yes","recycling:glass_bottles":"yes","recycling:green_waste":"yes","recycling:paper":"yes","recycling:plastic":"yes","recycling_type":"container"}},"type":"Feature"},
	{"geometry":{"coordinates":[11.321606,44.498888],"type":"Point"},"properties":{"osm_id":"4156394489","tag":{"amenity":"waste_disposal","waste":"recycling"}},"type":"Feature"},
	{"geometry":{"coordinates":[11.277726,44.47634],"type":"Point"},"properties":{"osm_id":"4198319197","tag":{"amenity":"waste_basket"}},"type":"Feature"},
	{"geometry":{"coordinates":[11.277185,44.477573],"type":"Point"},"properties":{"osm_id":"4198319203","tag":{"amenity":"waste_basket"}},"type":"Feature"},
	{"geometry":{"coordinates":[11.312563,44.502414],"type":"Point"},"properties":{"osm_id":"4219422674","tag":{"amenity":"recycling","recycling:cans":"yes","recycling:glass":"yes","recycling:glass_bottles":"yes","recycling:paper":"yes","recycling:plastic":"yes"}},"type":"Feature"},
	{"geometry":{"coordinates":[11.297543,44.488357],"type":"Point"},"properties":{"osm_id":"4278147255","tag":{"amenity":"recycling"}},"type":"Feature"},
	{"geometry":{"coordinates":[11.298082,44.488633],"type":"Point"},"properties":{"osm_id":"4278147256","tag":{"amenity":"recycling","location":"overground","recycling_type":"container"}},"type":"Feature"},
	{"geometry":{"coordinates":[11.297094,44.489553],"type":"Point"},"properties":{"osm_id":"4278147257","tag":{"amenity":"recycling","location":"overground","recycling_type":"container"}},"type":"Feature"},
	{"geometry":{"coordinates":[11.296215,44.486241],"type":"Point"},"properties":{"osm_id":"4278147258","tag":{"amenity":"recycling"}},"type":"Feature"},
	{"geometry":{"coordinates":[11.299844,44.490695],"type":"Point"},"properties":{"osm_id":"4278277492","tag":{"amenity":"recycling","location":"overground","recycling_type":"container"}},"type":"Feature"},
	{"geometry":{"coordinates":[11.29856,44.490112],"type":"Point"},"properties":{"osm_id":"4278277493","tag":{"amenity":"recycling","location":"overground","recycling_type":"container"}},"type":"Feature"},
	{"geometry":{"coordinates":[11.297758,44.489897],"type":"Point"},"properties":{"osm_id":"4278277494","tag":{"amenity":"recycling","location":"overground","recycling_type":"container"}},"type":"Feature"},
	{"geometry":{"coordinates":[11.322563,44.499121],"type":"Point"},"properties":{"osm_id":"4456271282","tag":{"amenity":"waste_disposal","waste":"recycling"}},"type":"Feature"},
	{"geometry":{"coordinates":[11.32119,44.497721],"type":"Point"},"properties":{"osm_id":"4456271283","tag":{"amenity":"waste_disposal","waste":"recycling"}},"type":"Feature"},
	{"geometry":{"coordinates":[11.319979,44.497886],"type":"Point"},"properties":{"osm_id":"4456271284","tag":{"amenity":"waste_disposal","waste":"recycling"}},"type":"Feature"},
	{"geometry":{"coordinates":[11.323492,44.497008],"type":"Point"},"properties":{"osm_id":"4456470723","tag":{"amenity":"waste_disposal"}},"type":"Feature"},
	{"geometry":{"coordinates":[11.324006,44.496992],"type":"Point"},"properties":{"osm_id":"4456470724","tag":{"amenity":"waste_disposal"}},"type":"Feature"},
	{"geometry":{"coordinates":[11.323647,44.496781],"type":"Point"},"properties":{"osm_id":"4456470725","tag":{"amenity":"waste_disposal"}},"type":"Feature"},
	{"geometry":{"coordinates":[11.270571,44.483601],"type":"Point"},"properties":{"osm_id":"4693553590","tag":{"amenity":"waste_disposal"}},"type":"Feature"},
	{"geometry":{"coordinates":[11.270658,44.483505],"type":"Point"},"properties":{"osm_id":"4693594189","tag":{"amenity":"waste_disposal"}},"type":"Feature"},
	{"geometry":{"coordinates":[11.269082,44.484073],"type":"Point"},"properties":{"osm_id":"4693599990","tag":{"amenity":"waste_disposal"}},"type":"Feature"},
	{"geometry":{"coordinates":[11.269141,44.484144],"type":"Point"},"properties":{"osm_id":"4693600189","tag":{"amenity":"waste_disposal"}},"type":"Feature"},
	{"geometry":{"coordinates":[11.32207,44.500174],"type":"Point"},"properties":{"osm_id":"4695017199","tag":{"amenity":"waste_disposal"}},"type":"Feature"},
	{"geometry":{"coordinates":[11.264793,44.520556],"type":"Point"},"properties":{"osm_id":"4716545595","tag":{"amenity":"waste_disposal"}},"type":"Feature"},
	{"geometry":{"coordinates":[11.318251,44.502247],"type":"Point"},"properties":{"osm_id":"4805487321","tag":{"amenity":"waste_disposal"}},"type":"Feature"},
	{"geometry":{"coordinates":[11.296156,44.508904],"type":"Point"},"properties":{"osm_id":"5078536526","tag":{"amenity":"waste_disposal"}},"type":"Feature"},
	{"geometry":{"coordinates":[11.327438,44.504375],"type":"Point"},"properties":{"osm_id":"5144783111","tag":{"amenity":"waste_disposal"}},"type":"Feature"},
	{"geometry":{"coordinates":[11.331104,44.497671],"type":"Point"},"properties":{"osm_id":"5190579545","tag":{"amenity":"recycling","recycling:cans":"yes","recycling:glass_bottles":"yes","recycling:green_waste":"yes","recycling_type":"container"}},"type":"Feature"},
	{"geometry":{"coordinates":[11.251282,44.487482],"type":"Point"},"properties":{"osm_id":"5196257528","tag":{"amenity":"waste_disposal"}},"type":"Feature"},
	{"geometry":{"coordinates":[11.319533,44.49994],"type":"Point"},"properties":{"osm_id":"5218366237","tag":{"amenity":"waste_disposal"}},"type":"Feature"},
	{"geometry":{"coordinates":[11.31901,44.501107],"type":"Point"},"properties":{"osm_id":"5218366242","tag":{"amenity":"waste_disposal"}},"type":"Feature"},
	{"geometry":{"coordinates":[11.317481,44.497467],"type":"Point"},"properties":{"osm_id":"5232275209","tag":{"amenity":"waste_disposal"}},"type":"Feature"},
	{"geometry":{"coordinates":[11.288248,44.489108],"type":"Point"},"properties":{"osm_id":"5232329444","tag":{"amenity":"waste_disposal"}},"type":"Feature"},
	{"geometry":{"coordinates":[11.312578,44.495203],"type":"Point"},"properties":{"osm_id":"5234582725","tag":{"amenity":"waste_disposal"}},"type":"Feature"},
	{"geometry":{"coordinates":[11.314666,44.495345],"type":"Point"},"properties":{"osm_id":"5234582727","tag":{"amenity":"waste_disposal"}},"type":"Feature"},
	{"geometry":{"coordinates":[11.315201,44.495638],"type":"Point"},"properties":{"osm_id":"5234582728","tag":{"amenity":"waste_disposal"}},"type":"Feature"},
	{"geometry":{"coordinates":[11.314317,44.493237],"type":"Point"},"properties":{"osm_id":"5234582729","tag":{"amenity":"waste_disposal"}},"type":"Feature"},
	{"geometry":{"coordinates":[11.315528,44.493332],"type":"Point"},"properties":{"osm_id":"5234582730","tag":{"amenity":"waste_disposal"}},"type":"Feature"},
	{"geometry":{"coordinates":[11.322804,44.495198],"type":"Point"},"properties":{"osm_id":"5422204691","tag":{"amenity":"waste_disposal","recycling:cans":"yes","recycling:clothes":"no","recycling:glass":"yes","recycling:paper":"yes"}},"type":"Feature"},
	{"geometry":{"coordinates":[11.324103,44.495333],"type":"Point"},"properties":{"osm_id":"5422204692","tag":{"amenity":"waste_disposal","recycling:cans":"yes","recycling:clothes":"no","recycling:glass":"yes","recycling:paper":"yes"}},"type":"Feature"},
	{"geometry":{"coordinates":[11.324474,44.496568],"type":"Point"},"properties":{"osm_id":"5422204693","tag":{"amenity":"waste_disposal","recycling:cans":"yes","recycling:clothes":"no","recycling:glass":"yes","recycling:paper":"yes"}},"type":"Feature"},
	{"geometry":{"coordinates":[11.325484,44.494894],"type":"Point"},"properties":{"osm_id":"5422204694","tag":{"amenity":"waste_disposal","recycling:cans":"yes","recycling:clothes":"no","recycling:glass":"yes","recycling:paper":"yes"}},"type":"Feature"},
	{"geometry":{"coordinates":[11.325268,44.494061],"type":"Point"},"properties":{"osm_id":"5422204695","tag":{"amenity":"waste_disposal","recycling:cans":"yes","recycling:clothes":"no","recycling:glass":"yes","recycling:paper":"yes"}},"type":"Feature"},
	{"geometry":{"coordinates":[11.325095,44.493127],"type":"Point"},"properties":{"osm_id":"5422204701","tag":{"amenity":"waste_disposal","recycling:cans":"yes","recycling:clothes":"no","recycling:glass":"yes","recycling:paper":"yes"}},"type":"Feature"},
	{"geometry":{"coordinates":[11.32324,44.493344],"type":"Point"},"properties":{"osm_id":"5422204702","tag":{"amenity":"waste_disposal","recycling:cans":"yes","recycling:clothes":"no","recycling:glass":"yes","recycling:paper":"yes"}},"type":"Feature"},
	{"geometry":{"coordinates":[11.322717,44.493515],"type":"Point"},"properties":{"osm_id":"5422204703","tag":{"amenity":"waste_disposal","recycling:cans":"yes","recycling:clothes":"no","recycling:glass":"yes","recycling:paper":"yes"}},"type":"Feature"},
	{"geometry":{"coordinates":[11.322095,44.493823],"type":"Point"},"properties":{"osm_id":"5422204704","tag":{"amenity":"waste_disposal","recycling:cans":"yes","recycling:clothes":"no","recycling:glass":"yes","recycling:paper":"yes"}},"type":"Feature"},
	{"geometry":{"coordinates":[11.322422,44.494467],"type":"Point"},"properties":{"osm_id":"5422204705","tag":{"amenity":"waste_disposal","recycling:cans":"yes","recycling:clothes":"no","recycling:glass":"yes","recycling:paper":"yes"}},"type":"Feature"},
	{"geometry":{"coordinates":[11.325614,44.492221],"type":"Point"},"properties":{"osm_id":"5422204706","tag":{"amenity":"waste_disposal","recycling:cans":"yes","recycling:clothes":"no","recycling:glass":"yes","recycling:paper":"yes"}},"type":"Feature"},
	{"geometry":{"coordinates":[11.32466,44.496973],"type":"Point"},"properties":{"osm_id":"5564222945","tag":{"amenity":"waste_disposal"}},"type":"Feature"},
	{"geometry":{"coordinates":[11.337668,44.496925],"type":"Point"},"properties":{"osm_id":"5854188519","tag":{"amenity":"waste_basket","waste":"trash"}},"type":"Feature"},
	{"geometry":{"coordinates":[11.337459,44.496438],"type":"Point"},"properties":{"osm_id":"5854188520","tag":{"amenity":"waste_basket","waste":"trash"}},"type":"Feature"},
	{"geometry":{"coordinates":[11.337562,44.496682],"type":"Point"},"properties":{"osm_id":"5854188523","tag":{"amenity":"waste_basket","waste":"trash"}},"type":"Feature"},
	{"geometry":{"coordinates":[11.337784,44.497126],"type":"Point"},"properties":{"osm_id":"5854188524","tag":{"amenity":"waste_basket","waste":"trash"}},"type":"Feature"},
	{"geometry":{"coordinates":[11.337634,44.496829],"type":"Point"},"properties":{"osm_id":"5854188526","tag":{"amenity":"waste_basket","waste":"trash"}},"type":"Feature"},
	{"geometry":{"coordinates":[11.306794,44.506547],"type":"Point"},"properties":{"osm_id":"6056991485","tag":{"amenity":"waste_disposal"}},"type":"Feature"},
	{"geometry":{"coordinates":[11.309191,44.490386],"type":"Point"},"properties":{"osm_id":"6057481809","tag":{"amenity":"recycling","recycling_type":"container"}},"type":"Feature"},
	{"geometry":{"coordinates":[11.269236,44.51942],"type":"Point"},"properties":{"osm_id":"6316039068","tag":{"amenity":"recycling","recycling:cardboard":"yes","recycling:plastic":"yes","recycling_type":"centre"}},"type":"Feature"},
	{"geometry":{"coordinates":[11.27113,44.519574],"type":"Point"},"properties":{"osm_id":"6316051026","tag":{"amenity":"recycling","recycling:cans":"yes","recycling:cardboard":"yes","recycling:glass":"yes","recycling:glass_bottles":"yes","recycling:green_waste":"yes","recycling:paper":"yes","recycling:plastic":"yes","recycling:plastic_bottles":"yes","recycling_type":"container"}},"type":"Feature"},
	{"geometry":{"coordinates":[11.271426,44.519893],"type":"Point"},"properties":{"osm_id":"6316056283","tag":{"amenity":"waste_basket","waste":"trash"}},"type":"Feature"},
	{"geometry":{"coordinates":[11.271517,44.520165],"type":"Point"},"properties":{"osm_id":"6316061534","tag":{"amenity":"recycling","recycling:cans":"yes","recycling:cardboard":"yes","recycling:green_waste":"yes","recycling:paper":"yes","recycling:plastic":"yes","recycling:plastic_bottles":"yes","recycling_type":"container"}},"type":"Feature"},
	{"geometry":{"coordinates":[11.272175,44.521056],"type":"Point"},"properties":{"osm_id":"6316067103","tag":{"amenity":"waste_basket","waste":"trash"}},"type":"Feature"},
	{"geometry":{"coordinates":[11.272261,44.522693],"type":"Point"},"properties":{"osm_id":"6316094788","tag":{"amenity":"recycling","recycling:cans":"yes","recycling:cardboard":"yes","recycling:glass":"yes","recycling:glass_bottles":"yes","recycling:green_waste":"yes","recycling:paper":"yes","recycling:plastic":"yes","recycling:plastic_bottles":"yes","recycling:plastic_packaging":"yes","recycling:waste":"yes","recycling_type":"container"}},"type":"Feature"},
	{"geometry":{"coordinates":[11.275831,44.482172],"type":"Point"},"properties":{"osm_id":"6860546025","tag":{"amenity":"waste_basket"}},"type":"Feature"},
	{"geometry":{"coordinates":[11.27645,44.516942],"type":"Point"},"properties":{"osm_id":"7001234068","tag":{"amenity":"waste_disposal"}},"type":"Feature"},
	{"geometry":{"coordinates":[11.270684,44.468123],"type":"Point"},"properties":{"osm_id":"7852865203","tag":{"amenity":"recycling","recycling:glass":"yes","recycling_type":"container"}},"type":"Feature"}
]
}
