{
"type": "FeatureCollection",
"features": [
	{"geometry":{"coordinates":[11.316007,44.202934],"type":"Point"},"properties":{"osm_id":"4938147510","tag":{"amenity":"waste_disposal"}},"type":"Feature"},
	{"geometry":{"coordinates":[11.318322,44.197918],"type":"Point"},"properties":{"osm_id":"4938147511","tag":{"amenity":"waste_disposal"}},"type":"Feature"},
	{"geometry":{"coordinates":[11.316793,44.203383],"type":"Point"},"properties":{"osm_id":"4938147512","tag":{"amenity":"waste_disposal"}},"type":"Feature"},
	{"geometry":{"coordinates":[11.316017,44.203497],"type":"Point"},"properties":{"osm_id":"4938210257","tag":{"amenity":"waste_disposal"}},"type":"Feature"},
	{"geometry":{"coordinates":[11.320766,44.19999],"type":"Point"},"properties":{"osm_id":"7141484599","tag":{"amenity":"waste_disposal"}},"type":"Feature"},
	{"geometry":{"coordinates":[11.325229,44.208614],"type":"Point"},"properties":{"osm_id":"7141511640","tag":{"amenity":"waste_disposal"}},"type":"Feature"},
	{"geometry":{"coordinates":[11.277704,44.177876],"type":"Point"},"properties":{"osm_id":"7692821245","tag":{"amenity":"waste_disposal","operator":"HERA"}},"type":"Feature"},
	{"geometry":{"coordinates":[11.325352,44.206674],"type":"Point"},"properties":{"osm_id":"7744364808","tag":{"amenity":"waste_disposal"}},"type":"Feature"},
	{"geometry":{"coordinates":[11.325381,44.207445],"type":"Point"},"properties":{"osm_id":"7744364809","tag":{"amenity":"waste_disposal"}},"type":"Feature"},
	{"geometry":{"coordinates":[11.276408,44.182888],"type":"Point"},"properties":{"osm_id":"7750457424","tag":{"amenity":"waste_basket"}},"type":"Feature"},
	{"geometry":{"coordinates":[11.276583,44.183134],"type":"Point"},"properties":{"osm_id":"7750457429","tag":{"amenity":"waste_basket"}},"type":"Feature"},
	{"geometry":{"coordinates":[11.275955,44.18389],"type":"Point"},"properties":{"osm_id":"7856726391","tag":{"amenity":"waste_basket"}},"type":"Feature"},
	{"geometry":{"coordinates":[11.274006,44.184069],"type":"Point"},"properties":{"osm_id":"7856726686","tag":{"amenity":"waste_basket"}},"type":"Feature"},
	{"geometry":{"coordinates":[11.275005,44.183549],"type":"Point"},"properties":{"osm_id":"7856726785","tag":{"amenity":"waste_disposal"}},"type":"Feature"},
	{"geometry":{"coordinates":[11.274289,44.183904],"type":"Point"},"properties":{"osm_id":"7856726786","tag":{"amenity":"waste_disposal"}},"type":"Feature"}
]
}
