{
"type": "FeatureCollection",
"features": [
	{"geometry":{"coordinates":[11.252902,43.789694],"type":"Point"},"properties":{"name":"For Glass","osm_id":"4565544131","tag":{"amenity":"waste_basket"}},"type":"Feature"},
	{"geometry":{"coordinates":[11.250071,43.779475],"type":"Point"},"properties":{"osm_id":"5489514845","tag":{"amenity":"recycling","location":"underground","operator":"Alia","recycling_type":"container"}},"type":"Feature"},
	{"geometry":{"coordinates":[11.253603,43.776915],"type":"Point"},"properties":{"osm_id":"5489514847","tag":{"amenity":"recycling","location":"underground","operator":"Alia","recycling_type":"container"}},"type":"Feature"},
	{"geometry":{"coordinates":[11.252657,43.7748],"type":"Point"},"properties":{"osm_id":"5489514848","tag":{"amenity":"recycling","location":"underground","operator":"Alia","recycling:glass":"yes","recycling:glass_bottles":"yes","recycling:green_waste":"yes","recycling:paper":"yes","recycling:paper_packaging":"yes","recycling:plastic":"yes","recycling:plastic_bottles":"yes","recycling:plastic_packaging":"yes","recycling:waste":"yes","recycling_type":"container"}},"type":"Feature"},
	{"geometry":{"coordinates":[11.254112,43.772831],"type":"Point"},"properties":{"osm_id":"5489514849","tag":{"amenity":"recycling","location":"underground","operator":"Alia","recycling_type":"container"}},"type":"Feature"},
	{"geometry":{"coordinates":[11.250504,43.776459],"type":"Point"},"properties":{"osm_id":"5787208011","tag":{"amenity":"recycling","location":"underground","operator":"Alia","recycling_type":"container"}},"type":"Feature"},
	{"geometry":{"coordinates":[11.258433,43.776403],"type":"Point"},"properties":{"osm_id":"6008463751","tag":{"amenity":"waste_basket"}},"type":"Feature"},
	{"geometry":{"coordinates":[11.256114,43.77339],"type":"Point"},"properties":{"osm_id":"6008463754","tag":{"amenity":"waste_basket"}},"type":"Feature"},
	{"geometry":{"coordinates":[11.256498,43.773402],"type":"Point"},"properties":{"osm_id":"6008463756","tag":{"amenity":"waste_basket"}},"type":"Feature"},
	{"geometry":{"coordinates":[11.257553,43.773163],"type":"Point"},"properties":{"osm_id":"6008487556","tag":{"amenity":"waste_basket"}},"type":"Feature"},
	{"geometry":{"coordinates":[11.256578,43.773369],"type":"Point"},"properties":{"osm_id":"6008487564","tag":{"amenity":"waste_basket"}},"type":"Feature"},
	{"geometry":{"coordinates":[11.258375,43.776477],"type":"Point"},"properties":{"osm_id":"6008487916","tag":{"amenity":"waste_basket"}},"type":"Feature"},
	{"geometry":{"coordinates":[11.250445,43.775145],"type":"Point"},"properties":{"osm_id":"6306664293","tag":{"amenity":"recycling","location":"underground","operator":"Alia","recycling:glass":"yes","recycling:glass_bottles":"yes","recycling:green_waste":"yes","recycling:paper":"yes","recycling:paper_packaging":"yes","recycling:plastic":"yes","recycling:plastic_bottles":"yes","recycling:plastic_packaging":"yes","recycling:waste":"yes","recycling_type":"container"}},"type":"Feature"},
	{"geometry":{"coordinates":[11.255609,43.774316],"type":"Point"},"properties":{"osm_id":"6306728907","tag":{"amenity":"recycling","location":"underground","operator":"Alia","recycling_type":"container"}},"type":"Feature"},
	{"geometry":{"coordinates":[11.260174,43.775496],"type":"Point"},"properties":{"osm_id":"6312359443","tag":{"amenity":"recycling","location":"underground","recycling:glass":"yes","recycling:green_waste":"yes","recycling:paper":"yes","recycling:paper_packaging":"yes","recycling:plastic":"yes","recycling:plastic_bottles":"yes","recycling:waste":"yes","recycling_type":"container"}},"type":"Feature"},
	{"geometry":{"coordinates":[11.26482,43.774664],"type":"Point"},"properties":{"osm_id":"6312392588","tag":{"amenity":"recycling"}},"type":"Feature"},
	{"geometry":{"coordinates":[11.259117,43.772583],"type":"Point"},"properties":{"osm_id":"6329692658","tag":{"amenity":"recycling","location":"underground","recycling:glass":"yes","recycling:green_waste":"yes","recycling:paper":"yes","recycling:plastic":"yes","recycling:waste":"yes","recycling_type":"container"}},"type":"Feature"},
	{"geometry":{"coordinates":[11.262281,43.77451],"type":"Point"},"properties":{"osm_id":"6331705703","tag":{"amenity":"recycling"}},"type":"Feature"},
	{"geometry":{"coordinates":[11.269218,43.77468],"type":"Point"},"properties":{"osm_id":"6331788558","tag":{"amenity":"recycling"}},"type":"Feature"},
	{"geometry":{"coordinates":[11.266455,43.771893],"type":"Point"},"properties":{"osm_id":"6331789319","tag":{"amenity":"recycling","location":"underground","operator":"Alia","recycling:glass":"yes","recycling:green_waste":"yes","recycling:paper":"yes","recycling:plastic":"yes","recycling:waste":"yes","recycling_type":"container"}},"type":"Feature"},
	{"geometry":{"coordinates":[11.276641,43.783711],"type":"Point"},"properties":{"osm_id":"6331981557","tag":{"amenity":"recycling"}},"type":"Feature"},
	{"geometry":{"coordinates":[11.277421,43.783441],"type":"Point"},"properties":{"osm_id":"6331981559","tag":{"amenity":"recycling"}},"type":"Feature"},
	{"geometry":{"coordinates":[11.2802,43.784015],"type":"Point"},"properties":{"osm_id":"6331981568","tag":{"amenity":"recycling"}},"type":"Feature"},
	{"geometry":{"coordinates":[11.274208,43.782969],"type":"Point"},"properties":{"osm_id":"6331981570","tag":{"amenity":"recycling"}},"type":"Feature"},
	{"geometry":{"coordinates":[11.282767,43.784042],"type":"Point"},"properties":{"osm_id":"6331981578","tag":{"amenity":"recycling","location":"overground","recycling_type":"container"}},"type":"Feature"},
	{"geometry":{"coordinates":[11.278875,43.784032],"type":"Point"},"properties":{"osm_id":"6331981988","tag":{"amenity":"recycling"}},"type":"Feature"},
	{"geometry":{"coordinates":[11.27847,43.783711],"type":"Point"},"properties":{"osm_id":"6331982010","tag":{"amenity":"recycling"}},"type":"Feature"},
	{"geometry":{"coordinates":[11.287179,43.772156],"type":"Point"},"properties":{"osm_id":"6340541399","tag":{"amenity":"recycling"}},"type":"Feature"},
	{"geometry":{"coordinates":[11.256702,43.772774],"type":"Point"},"properties":{"osm_id":"6341636523","tag":{"amenity":"waste_basket"}},"type":"Feature"},
	{"geometry":{"coordinates":[11.256492,43.772901],"type":"Point"},"properties":{"osm_id":"6341636524","tag":{"amenity":"waste_basket"}},"type":"Feature"},
	{"geometry":{"coordinates":[11.25283,43.772107],"type":"Point"},"properties":{"osm_id":"6341751943","tag":{"amenity":"recycling","recycling_type":"container"}},"type":"Feature"},
	{"geometry":{"coordinates":[11.257932,43.772213],"type":"Point"},"properties":{"osm_id":"6357265877","tag":{"amenity":"waste_basket"}},"type":"Feature"},
	{"geometry":{"coordinates":[11.257825,43.772365],"type":"Point"},"properties":{"osm_id":"6357265881","tag":{"amenity":"waste_basket"}},"type":"Feature"},
	{"geometry":{"coordinates":[11.257946,43.771387],"type":"Point"},"properties":{"osm_id":"6357279995","tag":{"amenity":"recycling","location":"underground","recycling:cardboard":"no","recycling:glass":"yes","recycling:green_waste":"yes","recycling:plastic":"yes","recycling:waste":"yes","recycling_type":"container"}},"type":"Feature"},
	{"geometry":{"coordinates":[11.257924,43.771817],"type":"Point"},"properties":{"osm_id":"6357280002","tag":{"amenity":"waste_basket"}},"type":"Feature"},
	{"geometry":{"coordinates":[11.257949,43.771508],"type":"Point"},"properties":{"osm_id":"6357280009","tag":{"amenity":"waste_basket"}},"type":"Feature"},
	{"geometry":{"coordinates":[11.284929,43.783455],"type":"Point"},"properties":{"osm_id":"6359291334","tag":{"amenity":"recycling","recycling_type":"container"}},"type":"Feature"},
	{"geometry":{"coordinates":[11.251915,43.773533],"type":"Point"},"properties":{"osm_id":"6384353725","tag":{"amenity":"waste_basket"}},"type":"Feature"},
	{"geometry":{"coordinates":[11.260136,43.7761],"type":"Point"},"properties":{"osm_id":"6391884300","tag":{"amenity":"waste_basket"}},"type":"Feature"},
	{"geometry":{"coordinates":[11.258606,43.774706],"type":"Point"},"properties":{"osm_id":"6391884303","tag":{"amenity":"waste_basket"}},"type":"Feature"},
	{"geometry":{"coordinates":[11.256721,43.772168],"type":"Point"},"properties":{"osm_id":"6391901651","tag":{"amenity":"waste_basket"}},"type":"Feature"},
	{"geometry":{"coordinates":[11.251362,43.772773],"type":"Point"},"properties":{"osm_id":"6792373778","tag":{"amenity":"waste_basket","waste":"trash"}},"type":"Feature"},
	{"geometry":{"coordinates":[11.251313,43.772628],"type":"Point"},"properties":{"osm_id":"6792375137","tag":{"amenity":"waste_basket","waste":"trash"}},"type":"Feature"},
	{"geometry":{"coordinates":[11.251439,43.772553],"type":"Point"},"properties":{"osm_id":"6792378033","tag":{"amenity":"waste_basket","waste":"trash"}},"type":"Feature"},
	{"geometry":{"coordinates":[11.275085,43.776415],"type":"Point"},"properties":{"osm_id":"6893639875","tag":{"amenity":"recycling"}},"type":"Feature"},
	{"geometry":{"coordinates":[11.272544,43.774767],"type":"Point"},"properties":{"osm_id":"6893639884","tag":{"amenity":"waste_basket"}},"type":"Feature"},
	{"geometry":{"coordinates":[11.274105,43.775676],"type":"Point"},"properties":{"osm_id":"6893716198","tag":{"amenity":"recycling"}},"type":"Feature"},
	{"geometry":{"coordinates":[11.273077,43.775232],"type":"Point"},"properties":{"osm_id":"6893716218","tag":{"amenity":"recycling"}},"type":"Feature"},
	{"geometry":{"coordinates":[11.273652,43.775299],"type":"Point"},"properties":{"osm_id":"6893716220","tag":{"amenity":"recycling"}},"type":"Feature"},
	{"geometry":{"coordinates":[11.27606,43.77662],"type":"Point"},"properties":{"osm_id":"6893716222","tag":{"amenity":"recycling"}},"type":"Feature"},
	{"geometry":{"coordinates":[11.267558,43.781781],"type":"Point"},"properties":{"osm_id":"6895460370","tag":{"amenity":"recycling"}},"type":"Feature"},
	{"geometry":{"coordinates":[11.268845,43.780403],"type":"Point"},"properties":{"osm_id":"6936740724","tag":{"amenity":"recycling"}},"type":"Feature"},
	{"geometry":{"coordinates":[11.268615,43.779329],"type":"Point"},"properties":{"osm_id":"6936740727","tag":{"amenity":"recycling"}},"type":"Feature"},
	{"geometry":{"coordinates":[11.269414,43.778485],"type":"Point"},"properties":{"osm_id":"6936740730","tag":{"amenity":"recycling"}},"type":"Feature"},
	{"geometry":{"coordinates":[11.270094,43.777753],"type":"Point"},"properties":{"osm_id":"6936740731","tag":{"amenity":"recycling"}},"type":"Feature"},
	{"geometry":{"coordinates":[11.285916,43.784553],"type":"Point"},"properties":{"osm_id":"6988309913","tag":{"amenity":"recycling"}},"type":"Feature"},
	{"geometry":{"coordinates":[11.269576,43.785819],"type":"Point"},"properties":{"osm_id":"7021374271","tag":{"amenity":"recycling","survey:date":"2020-09-25"}},"type":"Feature"},
	{"geometry":{"coordinates":[11.273237,43.791109],"type":"Point"},"properties":{"osm_id":"7171519378","tag":{"amenity":"recycling"}},"type":"Feature"},
	{"geometry":{"coordinates":[11.273549,43.790806],"type":"Point"},"properties":{"osm_id":"7171539205","tag":{"amenity":"recycling"}},"type":"Feature"},
	{"geometry":{"coordinates":[11.273833,43.791313],"type":"Point"},"properties":{"osm_id":"7171539207","tag":{"amenity":"recycling"}},"type":"Feature"},
	{"geometry":{"coordinates":[11.272816,43.789929],"type":"Point"},"properties":{"osm_id":"7171539218","tag":{"amenity":"recycling"}},"type":"Feature"},
	{"geometry":{"coordinates":[11.272195,43.788467],"type":"Point"},"properties":{"osm_id":"7171539225","tag":{"amenity":"recycling"}},"type":"Feature"},
	{"geometry":{"coordinates":[11.275362,43.788235],"type":"Point"},"properties":{"osm_id":"7171539228","tag":{"amenity":"recycling"}},"type":"Feature"},
	{"geometry":{"coordinates":[11.272493,43.79392],"type":"Point"},"properties":{"osm_id":"7171539249","tag":{"amenity":"recycling"}},"type":"Feature"},
	{"geometry":{"coordinates":[11.273777,43.788415],"type":"Point"},"properties":{"osm_id":"7171539259","tag":{"amenity":"recycling"}},"type":"Feature"},
	{"geometry":{"coordinates":[11.274011,43.792361],"type":"Point"},"properties":{"osm_id":"7171539297","tag":{"amenity":"recycling"}},"type":"Feature"},
	{"geometry":{"coordinates":[11.273987,43.79339],"type":"Point"},"properties":{"osm_id":"7171539310","tag":{"amenity":"recycling"}},"type":"Feature"},
	{"geometry":{"coordinates":[11.251094,43.786103],"type":"Point"},"properties":{"osm_id":"7172664224","tag":{"amenity":"recycling"}},"type":"Feature"},
	{"geometry":{"coordinates":[11.254474,43.786385],"type":"Point"},"properties":{"osm_id":"7172664248","tag":{"amenity":"recycling"}},"type":"Feature"},
	{"geometry":{"coordinates":[11.251631,43.785558],"type":"Point"},"properties":{"osm_id":"7172664286","tag":{"amenity":"recycling"}},"type":"Feature"},
	{"geometry":{"coordinates":[11.253654,43.786029],"type":"Point"},"properties":{"osm_id":"7172664287","tag":{"amenity":"recycling"}},"type":"Feature"},
	{"geometry":{"coordinates":[11.250606,43.78528],"type":"Point"},"properties":{"osm_id":"7172664297","tag":{"amenity":"recycling"}},"type":"Feature"},
	{"geometry":{"coordinates":[11.282891,43.77308],"type":"Point"},"properties":{"osm_id":"7172721738","tag":{"amenity":"recycling"}},"type":"Feature"},
	{"geometry":{"coordinates":[11.29369,43.772984],"type":"Point"},"properties":{"osm_id":"7175402562","tag":{"amenity":"recycling"}},"type":"Feature"},
	{"geometry":{"coordinates":[11.297039,43.776175],"type":"Point"},"properties":{"osm_id":"7175402570","tag":{"amenity":"recycling"}},"type":"Feature"},
	{"geometry":{"coordinates":[11.29354,43.7742],"type":"Point"},"properties":{"osm_id":"7175431708","tag":{"amenity":"recycling"}},"type":"Feature"},
	{"geometry":{"coordinates":[11.292134,43.775631],"type":"Point"},"properties":{"osm_id":"7175431718","tag":{"amenity":"recycling"}},"type":"Feature"},
	{"geometry":{"coordinates":[11.29616,43.772102],"type":"Point"},"properties":{"osm_id":"7175431728","tag":{"amenity":"recycling"}},"type":"Feature"},
	{"geometry":{"coordinates":[11.294892,43.773998],"type":"Point"},"properties":{"osm_id":"7175431730","tag":{"amenity":"recycling"}},"type":"Feature"},
	{"geometry":{"coordinates":[11.300943,43.775352],"type":"Point"},"properties":{"osm_id":"7176159180","tag":{"amenity":"recycling"}},"type":"Feature"},
	{"geometry":{"coordinates":[11.299395,43.774354],"type":"Point"},"properties":{"osm_id":"7176159184","tag":{"amenity":"recycling"}},"type":"Feature"},
	{"geometry":{"coordinates":[11.289852,43.773985],"type":"Point"},"properties":{"osm_id":"7176197377","tag":{"amenity":"recycling"}},"type":"Feature"},
	{"geometry":{"coordinates":[11.298454,43.774786],"type":"Point"},"properties":{"osm_id":"7176199490","tag":{"amenity":"recycling"}},"type":"Feature"},
	{"geometry":{"coordinates":[11.300433,43.775863],"type":"Point"},"properties":{"osm_id":"7176199492","tag":{"amenity":"recycling"}},"type":"Feature"},
	{"geometry":{"coordinates":[11.296694,43.774498],"type":"Point"},"properties":{"osm_id":"7176199522","tag":{"amenity":"recycling"}},"type":"Feature"},
	{"geometry":{"coordinates":[11.299803,43.775396],"type":"Point"},"properties":{"osm_id":"7176199538","tag":{"amenity":"recycling"}},"type":"Feature"},
	{"geometry":{"coordinates":[11.296769,43.773266],"type":"Point"},"properties":{"osm_id":"7176199556","tag":{"amenity":"recycling"}},"type":"Feature"},
	{"geometry":{"coordinates":[11.301576,43.77613],"type":"Point"},"properties":{"osm_id":"7176199660","tag":{"amenity":"recycling"}},"type":"Feature"},
	{"geometry":{"coordinates":[11.297384,43.774197],"type":"Point"},"properties":{"osm_id":"7176199685","tag":{"amenity":"recycling"}},"type":"Feature"},
	{"geometry":{"coordinates":[11.300208,43.778346],"type":"Point"},"properties":{"osm_id":"7176199765","tag":{"amenity":"recycling"}},"type":"Feature"},
	{"geometry":{"coordinates":[11.298317,43.778961],"type":"Point"},"properties":{"osm_id":"7176199805","tag":{"amenity":"recycling"}},"type":"Feature"},
	{"geometry":{"coordinates":[11.299647,43.778121],"type":"Point"},"properties":{"osm_id":"7176199825","tag":{"amenity":"recycling"}},"type":"Feature"},
	{"geometry":{"coordinates":[11.299551,43.776132],"type":"Point"},"properties":{"osm_id":"7176199828","tag":{"amenity":"recycling"}},"type":"Feature"},
	{"geometry":{"coordinates":[11.297781,43.77282],"type":"Point"},"properties":{"osm_id":"7176199865","tag":{"amenity":"recycling"}},"type":"Feature"},
	{"geometry":{"coordinates":[11.298008,43.780054],"type":"Point"},"properties":{"osm_id":"7176199870","tag":{"amenity":"recycling"}},"type":"Feature"},
	{"geometry":{"coordinates":[11.298647,43.778514],"type":"Point"},"properties":{"osm_id":"7176199877","tag":{"amenity":"recycling"}},"type":"Feature"},
	{"geometry":{"coordinates":[11.298864,43.779953],"type":"Point"},"properties":{"osm_id":"7176199926","tag":{"amenity":"recycling"}},"type":"Feature"},
	{"geometry":{"coordinates":[11.300766,43.777137],"type":"Point"},"properties":{"osm_id":"7176200029","tag":{"amenity":"recycling"}},"type":"Feature"},
	{"geometry":{"coordinates":[11.301933,43.776802],"type":"Point"},"properties":{"osm_id":"7176200106","tag":{"amenity":"recycling"}},"type":"Feature"},
	{"geometry":{"coordinates":[11.288397,43.784117],"type":"Point"},"properties":{"osm_id":"7176296676","tag":{"amenity":"recycling"}},"type":"Feature"},
	{"geometry":{"coordinates":[11.291566,43.783409],"type":"Point"},"properties":{"osm_id":"7176296760","tag":{"amenity":"recycling"}},"type":"Feature"},
	{"geometry":{"coordinates":[11.291272,43.784136],"type":"Point"},"properties":{"osm_id":"7176296795","tag":{"amenity":"recycling"}},"type":"Feature"},
	{"geometry":{"coordinates":[11.287627,43.784118],"type":"Point"},"properties":{"osm_id":"7176296841","tag":{"amenity":"recycling"}},"type":"Feature"},
	{"geometry":{"coordinates":[11.288937,43.784429],"type":"Point"},"properties":{"osm_id":"7176296943","tag":{"amenity":"recycling"}},"type":"Feature"},
	{"geometry":{"coordinates":[11.287681,43.783346],"type":"Point"},"properties":{"osm_id":"7176297007","tag":{"amenity":"recycling"}},"type":"Feature"},
	{"geometry":{"coordinates":[11.290861,43.781613],"type":"Point"},"properties":{"osm_id":"7176297018","tag":{"amenity":"recycling"}},"type":"Feature"},
	{"geometry":{"coordinates":[11.287059,43.782396],"type":"Point"},"properties":{"osm_id":"7176297045","tag":{"amenity":"recycling"}},"type":"Feature"},
	{"geometry":{"coordinates":[11.288284,43.783707],"type":"Point"},"properties":{"osm_id":"7176297051","tag":{"amenity":"recycling"}},"type":"Feature"},
	{"geometry":{"coordinates":[11.288991,43.784789],"type":"Point"},"properties":{"osm_id":"7176297073","tag":{"amenity":"recycling"}},"type":"Feature"},
	{"geometry":{"coordinates":[11.289495,43.785047],"type":"Point"},"properties":{"osm_id":"7176297081","tag":{"amenity":"recycling"}},"type":"Feature"},
	{"geometry":{"coordinates":[11.282794,43.785401],"type":"Point"},"properties":{"osm_id":"7176306688","tag":{"amenity":"recycling"}},"type":"Feature"},
	{"geometry":{"coordinates":[11.282028,43.78443],"type":"Point"},"properties":{"osm_id":"7176306700","tag":{"amenity":"recycling"}},"type":"Feature"},
	{"geometry":{"coordinates":[11.273914,43.793093],"type":"Point"},"properties":{"osm_id":"7176372354","tag":{"amenity":"recycling"}},"type":"Feature"},
	{"geometry":{"coordinates":[11.27137,43.78937],"type":"Point"},"properties":{"osm_id":"7176372362","tag":{"amenity":"recycling"}},"type":"Feature"},
	{"geometry":{"coordinates":[11.275542,43.787573],"type":"Point"},"properties":{"osm_id":"7176375175","tag":{"amenity":"recycling"}},"type":"Feature"},
	{"geometry":{"coordinates":[11.285748,43.774247],"type":"Point"},"properties":{"osm_id":"7177254151","tag":{"amenity":"recycling"}},"type":"Feature"},
	{"geometry":{"coordinates":[11.285132,43.772949],"type":"Point"},"properties":{"osm_id":"7177254179","tag":{"amenity":"recycling"}},"type":"Feature"},
	{"geometry":{"coordinates":[11.285939,43.773579],"type":"Point"},"properties":{"osm_id":"7177254577","tag":{"amenity":"recycling"}},"type":"Feature"},
	{"geometry":{"coordinates":[11.277415,43.773739],"type":"Point"},"properties":{"osm_id":"7177296269","tag":{"amenity":"recycling"}},"type":"Feature"},
	{"geometry":{"coordinates":[11.272091,43.780672],"type":"Point"},"properties":{"osm_id":"7181524361","tag":{"amenity":"recycling"}},"type":"Feature"},
	{"geometry":{"coordinates":[11.271038,43.781968],"type":"Point"},"properties":{"osm_id":"7181537193","tag":{"amenity":"recycling"}},"type":"Feature"},
	{"geometry":{"coordinates":[11.263754,43.785183],"type":"Point"},"properties":{"osm_id":"7187505414","tag":{"amenity":"recycling"}},"type":"Feature"},
	{"geometry":{"coordinates":[11.25884,43.786484],"type":"Point"},"properties":{"osm_id":"7187555487","tag":{"amenity":"recycling"}},"type":"Feature"},
	{"geometry":{"coordinates":[11.271613,43.785357],"type":"Point"},"properties":{"osm_id":"7187886028","tag":{"amenity":"recycling"}},"type":"Feature"},
	{"geometry":{"coordinates":[11.262418,43.79005],"type":"Point"},"properties":{"osm_id":"7196165423","tag":{"amenity":"recycling"}},"type":"Feature"},
	{"geometry":{"coordinates":[11.284444,43.774489],"type":"Point"},"properties":{"osm_id":"7217263549","tag":{"amenity":"recycling"}},"type":"Feature"},
	{"geometry":{"coordinates":[11.285393,43.797775],"type":"Point"},"properties":{"osm_id":"7234159404","tag":{"amenity":"recycling"}},"type":"Feature"},
	{"geometry":{"coordinates":[11.279992,43.781292],"type":"Point"},"properties":{"osm_id":"7285437449","tag":{"amenity":"recycling"}},"type":"Feature"},
	{"geometry":{"coordinates":[11.269537,43.777419],"type":"Point"},"properties":{"osm_id":"7285889185","tag":{"amenity":"recycling"}},"type":"Feature"},
	{"geometry":{"coordinates":[11.273333,43.771882],"type":"Point"},"properties":{"osm_id":"7289402246","tag":{"amenity":"recycling"}},"type":"Feature"},
	{"geometry":{"coordinates":[11.273318,43.775763],"type":"Point"},"properties":{"osm_id":"7289422614","tag":{"amenity":"recycling"}},"type":"Feature"},
	{"geometry":{"coordinates":[11.268462,43.785211],"type":"Point"},"properties":{"osm_id":"7289422631","tag":{"amenity":"recycling"}},"type":"Feature"},
	{"geometry":{"coordinates":[11.254653,43.788466],"type":"Point"},"properties":{"osm_id":"7293267678","tag":{"amenity":"recycling"}},"type":"Feature"},
	{"geometry":{"coordinates":[11.282316,43.819377],"type":"Point"},"properties":{"osm_id":"7293309420","tag":{"amenity":"recycling"}},"type":"Feature"},
	{"geometry":{"coordinates":[11.271194,43.80421],"type":"Point"},"properties":{"osm_id":"7294776686","tag":{"amenity":"recycling"}},"type":"Feature"},
	{"geometry":{"coordinates":[11.274151,43.806378],"type":"Point"},"properties":{"osm_id":"7294776715","tag":{"amenity":"recycling"}},"type":"Feature"},
	{"geometry":{"coordinates":[11.26883,43.803473],"type":"Point"},"properties":{"osm_id":"7294776739","tag":{"amenity":"recycling"}},"type":"Feature"},
	{"geometry":{"coordinates":[11.307559,43.781371],"type":"Point"},"properties":{"osm_id":"7294845289","tag":{"amenity":"recycling"}},"type":"Feature"},
	{"geometry":{"coordinates":[11.282202,43.783947],"type":"Point"},"properties":{"osm_id":"7297228728","tag":{"amenity":"recycling"}},"type":"Feature"},
	{"geometry":{"coordinates":[11.280767,43.781792],"type":"Point"},"properties":{"osm_id":"7297228735","tag":{"amenity":"recycling"}},"type":"Feature"},
	{"geometry":{"coordinates":[11.276431,43.783212],"type":"Point"},"properties":{"osm_id":"7297228738","tag":{"amenity":"recycling"}},"type":"Feature"},
	{"geometry":{"coordinates":[11.277235,43.782422],"type":"Point"},"properties":{"osm_id":"7297228750","tag":{"amenity":"recycling"}},"type":"Feature"},
	{"geometry":{"coordinates":[11.278748,43.778949],"type":"Point"},"properties":{"osm_id":"7297228751","tag":{"amenity":"recycling"}},"type":"Feature"},
	{"geometry":{"coordinates":[11.278249,43.778438],"type":"Point"},"properties":{"osm_id":"7297228753","tag":{"amenity":"recycling"}},"type":"Feature"},
	{"geometry":{"coordinates":[11.279461,43.779778],"type":"Point"},"properties":{"osm_id":"7297228764","tag":{"amenity":"recycling"}},"type":"Feature"},
	{"geometry":{"coordinates":[11.29455,43.780379],"type":"Point"},"properties":{"osm_id":"7300138085","tag":{"amenity":"recycling"}},"type":"Feature"},
	{"geometry":{"coordinates":[11.295706,43.779928],"type":"Point"},"properties":{"osm_id":"7300138088","tag":{"amenity":"recycling"}},"type":"Feature"},
	{"geometry":{"coordinates":[11.294678,43.779682],"type":"Point"},"properties":{"osm_id":"7300138098","tag":{"amenity":"recycling"}},"type":"Feature"},
	{"geometry":{"coordinates":[11.299828,43.780099],"type":"Point"},"properties":{"osm_id":"7300138118","tag":{"amenity":"recycling"}},"type":"Feature"},
	{"geometry":{"coordinates":[11.292522,43.780791],"type":"Point"},"properties":{"osm_id":"7300138129","tag":{"amenity":"recycling"}},"type":"Feature"},
	{"geometry":{"coordinates":[11.293079,43.780837],"type":"Point"},"properties":{"osm_id":"7300138167","tag":{"amenity":"recycling"}},"type":"Feature"},
	{"geometry":{"coordinates":[11.290621,43.778571],"type":"Point"},"properties":{"osm_id":"7300138189","tag":{"amenity":"recycling"}},"type":"Feature"},
	{"geometry":{"coordinates":[11.297642,43.780124],"type":"Point"},"properties":{"osm_id":"7300138190","tag":{"amenity":"recycling"}},"type":"Feature"},
	{"geometry":{"coordinates":[11.300531,43.781167],"type":"Point"},"properties":{"osm_id":"7300138191","tag":{"amenity":"recycling"}},"type":"Feature"},
	{"geometry":{"coordinates":[11.253562,43.772345],"type":"Point"},"properties":{"osm_id":"7333276371","tag":{"amenity":"recycling","location":"underground","operator":"Alia","recycling_type":"container"}},"type":"Feature"},
	{"geometry":{"coordinates":[11.272927,43.784402],"type":"Point"},"properties":{"osm_id":"7475749956","tag":{"amenity":"recycling"}},"type":"Feature"},
	{"geometry":{"coordinates":[11.271819,43.771115],"type":"Point"},"properties":{"osm_id":"7483053555","tag":{"amenity":"recycling"}},"type":"Feature"},
	{"geometry":{"coordinates":[11.274546,43.77276],"type":"Point"},"properties":{"osm_id":"7483053566","tag":{"amenity":"recycling"}},"type":"Feature"},
	{"geometry":{"coordinates":[11.288483,43.779222],"type":"Point"},"properties":{"osm_id":"7490153369","tag":{"amenity":"recycling"}},"type":"Feature"},
	{"geometry":{"coordinates":[11.288218,43.780216],"type":"Point"},"properties":{"osm_id":"7490153373","tag":{"amenity":"recycling"}},"type":"Feature"},
	{"geometry":{"coordinates":[11.252569,43.788658],"type":"Point"},"properties":{"osm_id":"7524423576","tag":{"amenity":"waste_disposal","survey:date":"2020-09-25","waste":"trash"}},"type":"Feature"},
	{"geometry":{"coordinates":[11.27169,43.779557],"type":"Point"},"properties":{"osm_id":"7909014135","tag":{"amenity":"recycling"}},"type":"Feature"},
	{"geometry":{"coordinates":[11.29433,43.778728],"type":"Point"},"properties":{"osm_id":"7928142874","tag":{"amenity":"recycling","recycling_type":"container"}},"type":"Feature"},
	{"geometry":{"coordinates":[11.264078,43.783256],"type":"Point"},"properties":{"osm_id":"7933462674","tag":{"amenity":"recycling","recycling_type":"container"}},"type":"Feature"},
	{"geometry":{"coordinates":[11.254549,43.784092],"type":"Point"},"properties":{"osm_id":"7933474054","tag":{"amenity":"recycling","recycling_type":"container"}},"type":"Feature"},
	{"geometry":{"coordinates":[11.296389,43.778632],"type":"Point"},"properties":{"osm_id":"7938043647","tag":{"amenity":"recycling","recycling_type":"container"}},"type":"Feature"},
	{"geometry":{"coordinates":[11.294359,43.777376],"type":"Point"},"properties":{"osm_id":"7938065922","tag":{"amenity":"recycling","recycling_type":"container"}},"type":"Feature"},
	{"geometry":{"coordinates":[11.254045,43.779955],"type":"Point"},"properties":{"osm_id":"7950953993","tag":{"amenity":"recycling","recycling_type":"container"}},"type":"Feature"}
]
}
