{
"type": "FeatureCollection",
"features": [
	{"geometry":{"coordinates":[11.2516,43.754755],"type":"Point"},"properties":{"osm_id":"1728256208","tag":{"amenity":"waste_basket"}},"type":"Feature"},
	{"geometry":{"coordinates":[11.262242,43.770747],"type":"Point"},"properties":{"osm_id":"2364423811","tag":{"amenity":"recycling","location":"underground","recycling:batteries":"no","recycling:books":"no","recycling:cans":"yes","recycling:cardboard":"no","recycling:cartons":"no","recycling:clothes":"no","recycling:electrical_appliances":"no","recycling:glass":"yes","recycling:glass_bottles":"yes","recycling:paper":"no","recycling:paper_packaging":"no","recycling:plastic":"yes","recycling:plastic_bottles":"yes","recycling:plastic_packaging":"yes","recycling:waste":"yes","recycling:wood":"no","recycling_type":"container"}},"type":"Feature"},
	{"geometry":{"coordinates":[11.264483,43.770257],"type":"Point"},"properties":{"osm_id":"2364423823","tag":{"amenity":"recycling","recycling:batteries":"no","recycling:books":"no","recycling:cans":"yes","recycling:cardboard":"no","recycling:cartons":"no","recycling:clothes":"no","recycling:electrical_appliances":"no","recycling:glass":"yes","recycling:glass_bottles":"yes","recycling:green_waste":"no","recycling:magazines":"no","recycling:newspaper":"no","recycling:paper":"no","recycling:paper_packaging":"no","recycling:plastic":"yes","recycling:plastic_bottles":"yes","recycling:plastic_packaging":"yes","recycling:waste":"yes","recycling:wood":"no","recycling_type":"container"}},"type":"Feature"},
	{"geometry":{"coordinates":[11.264438,43.770262],"type":"Point"},"properties":{"osm_id":"2364423835","tag":{"amenity":"waste_basket"}},"type":"Feature"},
	{"geometry":{"coordinates":[11.267034,43.770373],"type":"Point"},"properties":{"osm_id":"2364474911","tag":{"amenity":"recycling","recycling:cans":"yes","recycling:cardboard":"yes","recycling:cartons":"yes","recycling:clothes":"no","recycling:glass":"yes","recycling:plastic":"yes","recycling:waste":"yes","recycling_type":"centre"}},"type":"Feature"},
	{"geometry":{"coordinates":[11.267047,43.770399],"type":"Point"},"properties":{"osm_id":"2364474916","tag":{"amenity":"waste_basket"}},"type":"Feature"},
	{"geometry":{"coordinates":[11.254066,43.768738],"type":"Point"},"properties":{"osm_id":"3519960201","tag":{"amenity":"waste_basket"}},"type":"Feature"},
	{"geometry":{"coordinates":[11.257816,43.770229],"type":"Point"},"properties":{"osm_id":"3999092734","tag":{"amenity":"waste_basket"}},"type":"Feature"},
	{"geometry":{"coordinates":[11.261116,43.769822],"type":"Point"},"properties":{"osm_id":"4224395391","tag":{"amenity":"recycling","location":"underground","operator":"Alia","recycling_type":"container"}},"type":"Feature"},
	{"geometry":{"coordinates":[11.250263,43.766053],"type":"Point"},"properties":{"osm_id":"6008477227","tag":{"amenity":"waste_basket"}},"type":"Feature"},
	{"geometry":{"coordinates":[11.250375,43.767172],"type":"Point"},"properties":{"osm_id":"6008487178","tag":{"amenity":"waste_basket"}},"type":"Feature"},
	{"geometry":{"coordinates":[11.250537,43.767099],"type":"Point"},"properties":{"osm_id":"6008487179","tag":{"amenity":"waste_basket"}},"type":"Feature"},
	{"geometry":{"coordinates":[11.28483,43.769437],"type":"Point"},"properties":{"osm_id":"6324304241","tag":{"amenity":"recycling"}},"type":"Feature"},
	{"geometry":{"coordinates":[11.260222,43.765006],"type":"Point"},"properties":{"osm_id":"6329731549","tag":{"amenity":"recycling"}},"type":"Feature"},
	{"geometry":{"coordinates":[11.272766,43.763956],"type":"Point"},"properties":{"osm_id":"6334066462","tag":{"amenity":"recycling"}},"type":"Feature"},
	{"geometry":{"coordinates":[11.255232,43.770221],"type":"Point"},"properties":{"osm_id":"6419098001","tag":{"amenity":"waste_basket"}},"type":"Feature"},
	{"geometry":{"coordinates":[11.255338,43.769994],"type":"Point"},"properties":{"osm_id":"6419098004","tag":{"amenity":"waste_basket"}},"type":"Feature"},
	{"geometry":{"coordinates":[11.254361,43.770247],"type":"Point"},"properties":{"osm_id":"6419098015","tag":{"amenity":"waste_basket"}},"type":"Feature"},
	{"geometry":{"coordinates":[11.254098,43.769879],"type":"Point"},"properties":{"osm_id":"6419098018","tag":{"amenity":"waste_basket"}},"type":"Feature"},
	{"geometry":{"coordinates":[11.254464,43.770243],"type":"Point"},"properties":{"osm_id":"6419098020","tag":{"amenity":"waste_basket"}},"type":"Feature"},
	{"geometry":{"coordinates":[11.254095,43.770176],"type":"Point"},"properties":{"osm_id":"6419098024","tag":{"amenity":"waste_basket"}},"type":"Feature"},
	{"geometry":{"coordinates":[11.252817,43.770236],"type":"Point"},"properties":{"osm_id":"6419098029","tag":{"amenity":"waste_basket"}},"type":"Feature"},
	{"geometry":{"coordinates":[11.253509,43.770251],"type":"Point"},"properties":{"osm_id":"6419098035","tag":{"amenity":"waste_basket"}},"type":"Feature"},
	{"geometry":{"coordinates":[11.266002,43.761836],"type":"Point"},"properties":{"osm_id":"6437150353","tag":{"amenity":"recycling"}},"type":"Feature"},
	{"geometry":{"coordinates":[11.269089,43.76129],"type":"Point"},"properties":{"osm_id":"6437150362","tag":{"amenity":"recycling"}},"type":"Feature"},
	{"geometry":{"coordinates":[11.268537,43.754854],"type":"Point"},"properties":{"osm_id":"6437150371","tag":{"amenity":"recycling"}},"type":"Feature"},
	{"geometry":{"coordinates":[11.264591,43.764786],"type":"Point"},"properties":{"osm_id":"6482342640","tag":{"amenity":"waste_basket"}},"type":"Feature"},
	{"geometry":{"coordinates":[11.265773,43.764708],"type":"Point"},"properties":{"osm_id":"6482342651","tag":{"amenity":"recycling","recycling_type":"container"}},"type":"Feature"},
	{"geometry":{"coordinates":[11.264126,43.764811],"type":"Point"},"properties":{"osm_id":"6482342656","tag":{"amenity":"recycling","recycling_type":"container"}},"type":"Feature"},
	{"geometry":{"coordinates":[11.272278,43.762192],"type":"Point"},"properties":{"osm_id":"6482361929","tag":{"amenity":"recycling"}},"type":"Feature"},
	{"geometry":{"coordinates":[11.277258,43.761063],"type":"Point"},"properties":{"osm_id":"7024555247","tag":{"amenity":"recycling"}},"type":"Feature"},
	{"geometry":{"coordinates":[11.268737,43.767079],"type":"Point"},"properties":{"osm_id":"7104512988","tag":{"amenity":"waste_disposal","operator":"Alia Clean\u00c2\u00b0"}},"type":"Feature"},
	{"geometry":{"coordinates":[11.304977,43.752072],"type":"Point"},"properties":{"osm_id":"7175337347","tag":{"amenity":"recycling"}},"type":"Feature"},
	{"geometry":{"coordinates":[11.304991,43.751467],"type":"Point"},"properties":{"osm_id":"7175337350","tag":{"amenity":"recycling"}},"type":"Feature"},
	{"geometry":{"coordinates":[11.304666,43.750142],"type":"Point"},"properties":{"osm_id":"7175337353","tag":{"amenity":"recycling"}},"type":"Feature"},
	{"geometry":{"coordinates":[11.305089,43.752597],"type":"Point"},"properties":{"osm_id":"7175337354","tag":{"amenity":"recycling"}},"type":"Feature"},
	{"geometry":{"coordinates":[11.305214,43.752577],"type":"Point"},"properties":{"osm_id":"7175337358","tag":{"amenity":"recycling"}},"type":"Feature"},
	{"geometry":{"coordinates":[11.296804,43.756418],"type":"Point"},"properties":{"osm_id":"7175341222","tag":{"amenity":"recycling","location":"overground","recycling_type":"container"}},"type":"Feature"},
	{"geometry":{"coordinates":[11.289919,43.757379],"type":"Point"},"properties":{"osm_id":"7175341225","tag":{"amenity":"recycling","location":"overground","recycling:cans":"yes","recycling:glass_bottles":"yes","recycling:green_waste":"yes","recycling:paper":"yes","recycling_type":"container"}},"type":"Feature"},
	{"geometry":{"coordinates":[11.298827,43.75547],"type":"Point"},"properties":{"osm_id":"7175341239","tag":{"amenity":"recycling","location":"overground","recycling_type":"container"}},"type":"Feature"},
	{"geometry":{"coordinates":[11.290934,43.761153],"type":"Point"},"properties":{"osm_id":"7175341261","tag":{"amenity":"recycling","location":"overground","recycling_type":"container"}},"type":"Feature"},
	{"geometry":{"coordinates":[11.289889,43.759722],"type":"Point"},"properties":{"osm_id":"7175341267","tag":{"amenity":"recycling"}},"type":"Feature"},
	{"geometry":{"coordinates":[11.290988,43.762486],"type":"Point"},"properties":{"osm_id":"7175341284","tag":{"amenity":"recycling","location":"overground","recycling:green_waste":"yes","recycling:paper":"yes","recycling_type":"container"}},"type":"Feature"},
	{"geometry":{"coordinates":[11.288563,43.761442],"type":"Point"},"properties":{"osm_id":"7175364887","tag":{"amenity":"recycling"}},"type":"Feature"},
	{"geometry":{"coordinates":[11.290952,43.76148],"type":"Point"},"properties":{"osm_id":"7175364897","tag":{"amenity":"recycling","location":"overground","recycling_type":"container"}},"type":"Feature"},
	{"geometry":{"coordinates":[11.29108,43.756465],"type":"Point"},"properties":{"osm_id":"7175364899","tag":{"amenity":"recycling","location":"overground","recycling:cans":"yes","recycling:glass_bottles":"yes","recycling:paper":"yes","recycling:plastic":"yes","recycling_type":"container"}},"type":"Feature"},
	{"geometry":{"coordinates":[11.291854,43.758316],"type":"Point"},"properties":{"osm_id":"7175364910","tag":{"amenity":"recycling","location":"overground","recycling:cans":"yes","recycling:glass_bottles":"yes","recycling:green_waste":"yes","recycling:paper":"yes","recycling:plastic":"no","recycling:plastic_packaging":"yes","recycling_type":"container"}},"type":"Feature"},
	{"geometry":{"coordinates":[11.288703,43.758872],"type":"Point"},"properties":{"osm_id":"7175364922","tag":{"amenity":"recycling","location":"overground","recycling_type":"container"}},"type":"Feature"},
	{"geometry":{"coordinates":[11.290915,43.760845],"type":"Point"},"properties":{"osm_id":"7175364928","tag":{"amenity":"recycling","location":"overground","recycling_type":"container"}},"type":"Feature"},
	{"geometry":{"coordinates":[11.298662,43.756563],"type":"Point"},"properties":{"osm_id":"7175364940","tag":{"amenity":"recycling","location":"overground","recycling:green_waste":"yes","recycling:paper":"yes","recycling_type":"container"}},"type":"Feature"},
	{"geometry":{"coordinates":[11.289812,43.761308],"type":"Point"},"properties":{"osm_id":"7175364944","tag":{"amenity":"recycling","location":"overground","recycling_type":"container"}},"type":"Feature"},
	{"geometry":{"coordinates":[11.293568,43.75881],"type":"Point"},"properties":{"osm_id":"7175364981","tag":{"amenity":"recycling"}},"type":"Feature"},
	{"geometry":{"coordinates":[11.290952,43.761726],"type":"Point"},"properties":{"osm_id":"7175364999","tag":{"amenity":"recycling","location":"overground","recycling_type":"container"}},"type":"Feature"},
	{"geometry":{"coordinates":[11.289832,43.760841],"type":"Point"},"properties":{"osm_id":"7175365005","tag":{"amenity":"recycling","location":"overground","recycling_type":"container"}},"type":"Feature"},
	{"geometry":{"coordinates":[11.287593,43.75831],"type":"Point"},"properties":{"osm_id":"7175365025","tag":{"amenity":"recycling","location":"overground","recycling_type":"container"}},"type":"Feature"},
	{"geometry":{"coordinates":[11.291603,43.762623],"type":"Point"},"properties":{"osm_id":"7175365034","tag":{"amenity":"recycling","location":"overground","recycling:green_waste":"yes","recycling:paper":"yes","recycling_type":"container"}},"type":"Feature"},
	{"geometry":{"coordinates":[11.305214,43.754435],"type":"Point"},"properties":{"osm_id":"7175365084","tag":{"amenity":"recycling"}},"type":"Feature"},
	{"geometry":{"coordinates":[11.298468,43.755135],"type":"Point"},"properties":{"osm_id":"7175365092","tag":{"amenity":"recycling","location":"overground","recycling_type":"container"}},"type":"Feature"},
	{"geometry":{"coordinates":[11.289227,43.759128],"type":"Point"},"properties":{"osm_id":"7175365095","tag":{"amenity":"recycling","location":"overground","recycling_type":"container"}},"type":"Feature"},
	{"geometry":{"coordinates":[11.295845,43.75629],"type":"Point"},"properties":{"osm_id":"7175365104","tag":{"amenity":"recycling","location":"overground","recycling_type":"container"}},"type":"Feature"},
	{"geometry":{"coordinates":[11.301747,43.754871],"type":"Point"},"properties":{"osm_id":"7175365117","tag":{"amenity":"recycling"}},"type":"Feature"},
	{"geometry":{"coordinates":[11.290349,43.758414],"type":"Point"},"properties":{"osm_id":"7175365119","tag":{"amenity":"recycling"}},"type":"Feature"},
	{"geometry":{"coordinates":[11.29168,43.757393],"type":"Point"},"properties":{"osm_id":"7175365126","tag":{"amenity":"recycling","location":"overground","recycling:cans":"yes","recycling:clothes":"yes","recycling:glass_bottles":"yes","recycling:green_waste":"yes","recycling:paper":"yes","recycling:plastic":"no","recycling:plastic_packaging":"yes","recycling_type":"container"}},"type":"Feature"},
	{"geometry":{"coordinates":[11.290878,43.76013],"type":"Point"},"properties":{"osm_id":"7175365138","tag":{"amenity":"recycling","location":"overground","recycling_type":"container"}},"type":"Feature"},
	{"geometry":{"coordinates":[11.293663,43.756974],"type":"Point"},"properties":{"osm_id":"7175365151","tag":{"amenity":"recycling","location":"overground","recycling:cans":"yes","recycling:glass_bottles":"yes","recycling:green_waste":"yes","recycling:paper":"yes","recycling_type":"container"}},"type":"Feature"},
	{"geometry":{"coordinates":[11.289751,43.758149],"type":"Point"},"properties":{"osm_id":"7175365157","tag":{"amenity":"recycling"}},"type":"Feature"},
	{"geometry":{"coordinates":[11.295813,43.755702],"type":"Point"},"properties":{"osm_id":"7175365161","tag":{"amenity":"recycling"}},"type":"Feature"},
	{"geometry":{"coordinates":[11.29661,43.756626],"type":"Point"},"properties":{"osm_id":"7175365170","tag":{"amenity":"recycling","location":"overground","recycling_type":"container"}},"type":"Feature"},
	{"geometry":{"coordinates":[11.29052,43.759717],"type":"Point"},"properties":{"osm_id":"7175365172","tag":{"amenity":"recycling","location":"overground","recycling_type":"container"}},"type":"Feature"},
	{"geometry":{"coordinates":[11.294939,43.756235],"type":"Point"},"properties":{"osm_id":"7175365173","tag":{"amenity":"recycling","location":"overground","recycling_type":"container"}},"type":"Feature"},
	{"geometry":{"coordinates":[11.306331,43.755097],"type":"Point"},"properties":{"osm_id":"7175365190","tag":{"amenity":"recycling"}},"type":"Feature"},
	{"geometry":{"coordinates":[11.291394,43.757404],"type":"Point"},"properties":{"osm_id":"7175365193","tag":{"amenity":"recycling","location":"overground","recycling:green_waste":"yes","recycling:paper":"yes","recycling_type":"container"}},"type":"Feature"},
	{"geometry":{"coordinates":[11.29039,43.757793],"type":"Point"},"properties":{"osm_id":"7175365198","tag":{"amenity":"recycling","location":"overground","recycling_type":"container"}},"type":"Feature"},
	{"geometry":{"coordinates":[11.289872,43.759472],"type":"Point"},"properties":{"osm_id":"7175365225","tag":{"amenity":"recycling","location":"overground","recycling_type":"container"}},"type":"Feature"},
	{"geometry":{"coordinates":[11.287725,43.759783],"type":"Point"},"properties":{"osm_id":"7175365227","tag":{"amenity":"recycling","location":"overground","recycling_type":"container"}},"type":"Feature"},
	{"geometry":{"coordinates":[11.283099,43.762684],"type":"Point"},"properties":{"osm_id":"7176051155","tag":{"amenity":"recycling"}},"type":"Feature"},
	{"geometry":{"coordinates":[11.285403,43.760046],"type":"Point"},"properties":{"osm_id":"7176094841","tag":{"amenity":"recycling","location":"overground","recycling_type":"container"}},"type":"Feature"},
	{"geometry":{"coordinates":[11.287315,43.758171],"type":"Point"},"properties":{"osm_id":"7176096019","tag":{"amenity":"recycling","location":"overground","recycling_type":"container"}},"type":"Feature"},
	{"geometry":{"coordinates":[11.286425,43.759159],"type":"Point"},"properties":{"osm_id":"7176096195","tag":{"amenity":"recycling","location":"overground","recycling_type":"container"}},"type":"Feature"},
	{"geometry":{"coordinates":[11.300366,43.767751],"type":"Point"},"properties":{"osm_id":"7203210436","tag":{"amenity":"recycling"}},"type":"Feature"},
	{"geometry":{"coordinates":[11.304629,43.765795],"type":"Point"},"properties":{"osm_id":"7203248323","tag":{"amenity":"recycling"}},"type":"Feature"},
	{"geometry":{"coordinates":[11.304828,43.767206],"type":"Point"},"properties":{"osm_id":"7203662906","tag":{"amenity":"recycling"}},"type":"Feature"},
	{"geometry":{"coordinates":[11.299729,43.760773],"type":"Point"},"properties":{"osm_id":"7203909940","tag":{"amenity":"recycling","location":"overground","recycling:cans":"yes","recycling:glass_bottles":"yes","recycling:green_waste":"yes","recycling:paper":"yes","recycling_type":"container"}},"type":"Feature"},
	{"geometry":{"coordinates":[11.295263,43.759802],"type":"Point"},"properties":{"osm_id":"7203909985","tag":{"amenity":"recycling","location":"overground","recycling:cans":"yes","recycling:glass_bottles":"yes","recycling:green_waste":"yes","recycling:paper":"yes","recycling:plastic":"no","recycling:plastic_packaging":"yes","recycling_type":"container"}},"type":"Feature"},
	{"geometry":{"coordinates":[11.273836,43.767087],"type":"Point"},"properties":{"osm_id":"7248494882","tag":{"amenity":"recycling"}},"type":"Feature"},
	{"geometry":{"coordinates":[11.285929,43.767519],"type":"Point"},"properties":{"osm_id":"7248516489","tag":{"amenity":"recycling"}},"type":"Feature"},
	{"geometry":{"coordinates":[11.287256,43.767184],"type":"Point"},"properties":{"osm_id":"7248516501","tag":{"amenity":"recycling"}},"type":"Feature"},
	{"geometry":{"coordinates":[11.270467,43.763862],"type":"Point"},"properties":{"osm_id":"7248516503","tag":{"amenity":"recycling"}},"type":"Feature"},
	{"geometry":{"coordinates":[11.28417,43.767812],"type":"Point"},"properties":{"osm_id":"7248516506","tag":{"amenity":"recycling"}},"type":"Feature"},
	{"geometry":{"coordinates":[11.276946,43.766722],"type":"Point"},"properties":{"osm_id":"7248516510","tag":{"amenity":"recycling"}},"type":"Feature"},
	{"geometry":{"coordinates":[11.284364,43.768142],"type":"Point"},"properties":{"osm_id":"7248516516","tag":{"amenity":"recycling"}},"type":"Feature"},
	{"geometry":{"coordinates":[11.275893,43.766845],"type":"Point"},"properties":{"osm_id":"7248516524","tag":{"amenity":"recycling"}},"type":"Feature"},
	{"geometry":{"coordinates":[11.2864,43.766422],"type":"Point"},"properties":{"osm_id":"7248516527","tag":{"amenity":"recycling"}},"type":"Feature"},
	{"geometry":{"coordinates":[11.286198,43.76818],"type":"Point"},"properties":{"osm_id":"7248516528","tag":{"amenity":"recycling"}},"type":"Feature"},
	{"geometry":{"coordinates":[11.283659,43.768165],"type":"Point"},"properties":{"osm_id":"7248516539","tag":{"amenity":"recycling"}},"type":"Feature"},
	{"geometry":{"coordinates":[11.27313,43.765983],"type":"Point"},"properties":{"osm_id":"7248516541","tag":{"amenity":"recycling"}},"type":"Feature"},
	{"geometry":{"coordinates":[11.275391,43.766898],"type":"Point"},"properties":{"osm_id":"7248516549","tag":{"amenity":"recycling"}},"type":"Feature"},
	{"geometry":{"coordinates":[11.271444,43.766299],"type":"Point"},"properties":{"osm_id":"7248516553","tag":{"amenity":"recycling"}},"type":"Feature"},
	{"geometry":{"coordinates":[11.280721,43.766808],"type":"Point"},"properties":{"osm_id":"7248516557","tag":{"amenity":"recycling"}},"type":"Feature"},
	{"geometry":{"coordinates":[11.282161,43.767668],"type":"Point"},"properties":{"osm_id":"7248516561","tag":{"amenity":"recycling"}},"type":"Feature"},
	{"geometry":{"coordinates":[11.28272,43.7682],"type":"Point"},"properties":{"osm_id":"7248516568","tag":{"amenity":"recycling"}},"type":"Feature"},
	{"geometry":{"coordinates":[11.272607,43.767232],"type":"Point"},"properties":{"osm_id":"7248516571","tag":{"amenity":"recycling"}},"type":"Feature"},
	{"geometry":{"coordinates":[11.298073,43.75405],"type":"Point"},"properties":{"osm_id":"7251589754","tag":{"amenity":"recycling"}},"type":"Feature"},
	{"geometry":{"coordinates":[11.296017,43.751533],"type":"Point"},"properties":{"osm_id":"7251600109","tag":{"amenity":"recycling"}},"type":"Feature"},
	{"geometry":{"coordinates":[11.2822,43.770807],"type":"Point"},"properties":{"osm_id":"7285659461","tag":{"amenity":"recycling"}},"type":"Feature"},
	{"geometry":{"coordinates":[11.275231,43.770935],"type":"Point"},"properties":{"osm_id":"7289402210","tag":{"amenity":"recycling"}},"type":"Feature"},
	{"geometry":{"coordinates":[11.275791,43.770873],"type":"Point"},"properties":{"osm_id":"7289402211","tag":{"amenity":"recycling"}},"type":"Feature"},
	{"geometry":{"coordinates":[11.280243,43.76925],"type":"Point"},"properties":{"osm_id":"7289402242","tag":{"amenity":"recycling"}},"type":"Feature"},
	{"geometry":{"coordinates":[11.274547,43.767809],"type":"Point"},"properties":{"osm_id":"7289402254","tag":{"amenity":"recycling"}},"type":"Feature"},
	{"geometry":{"coordinates":[11.27642,43.767796],"type":"Point"},"properties":{"osm_id":"7289402264","tag":{"amenity":"recycling"}},"type":"Feature"},
	{"geometry":{"coordinates":[11.285129,43.767096],"type":"Point"},"properties":{"osm_id":"7289523337","tag":{"amenity":"recycling"}},"type":"Feature"},
	{"geometry":{"coordinates":[11.276857,43.765496],"type":"Point"},"properties":{"osm_id":"7289523339","tag":{"amenity":"recycling"}},"type":"Feature"},
	{"geometry":{"coordinates":[11.277964,43.766612],"type":"Point"},"properties":{"osm_id":"7289523342","tag":{"amenity":"recycling"}},"type":"Feature"},
	{"geometry":{"coordinates":[11.276361,43.766],"type":"Point"},"properties":{"osm_id":"7289523351","tag":{"amenity":"recycling"}},"type":"Feature"},
	{"geometry":{"coordinates":[11.283911,43.766122],"type":"Point"},"properties":{"osm_id":"7289523355","tag":{"amenity":"recycling"}},"type":"Feature"},
	{"geometry":{"coordinates":[11.280106,43.745849],"type":"Point"},"properties":{"osm_id":"7292999035","tag":{"amenity":"waste_basket"}},"type":"Feature"},
	{"geometry":{"coordinates":[11.291326,43.74148],"type":"Point"},"properties":{"osm_id":"7292999135","tag":{"amenity":"recycling"}},"type":"Feature"},
	{"geometry":{"coordinates":[11.290645,43.740683],"type":"Point"},"properties":{"osm_id":"7292999234","tag":{"amenity":"recycling"}},"type":"Feature"},
	{"geometry":{"coordinates":[11.297944,43.74033],"type":"Point"},"properties":{"osm_id":"7293059958","tag":{"amenity":"recycling"}},"type":"Feature"},
	{"geometry":{"coordinates":[11.297998,43.739929],"type":"Point"},"properties":{"osm_id":"7293075599","tag":{"amenity":"recycling"}},"type":"Feature"},
	{"geometry":{"coordinates":[11.307137,43.766953],"type":"Point"},"properties":{"osm_id":"7293222548","tag":{"amenity":"recycling"}},"type":"Feature"},
	{"geometry":{"coordinates":[11.307786,43.766887],"type":"Point"},"properties":{"osm_id":"7293222557","tag":{"amenity":"recycling"}},"type":"Feature"},
	{"geometry":{"coordinates":[11.306464,43.767024],"type":"Point"},"properties":{"osm_id":"7293222570","tag":{"amenity":"recycling"}},"type":"Feature"},
	{"geometry":{"coordinates":[11.308854,43.766787],"type":"Point"},"properties":{"osm_id":"7293222579","tag":{"amenity":"recycling"}},"type":"Feature"},
	{"geometry":{"coordinates":[11.293863,43.753697],"type":"Point"},"properties":{"osm_id":"7294917501","tag":{"amenity":"recycling","location":"overground","recycling:cans":"yes","recycling:glass_bottles":"yes","recycling:paper":"yes","recycling:plastic":"yes","recycling_type":"container"}},"type":"Feature"},
	{"geometry":{"coordinates":[11.293212,43.751777],"type":"Point"},"properties":{"osm_id":"7294917535","tag":{"amenity":"recycling","location":"overground","recycling:glass_bottles":"yes","recycling:paper":"yes","recycling:plastic":"yes","recycling_type":"container"}},"type":"Feature"},
	{"geometry":{"coordinates":[11.294559,43.75551],"type":"Point"},"properties":{"osm_id":"7294917538","tag":{"amenity":"recycling"}},"type":"Feature"},
	{"geometry":{"coordinates":[11.293968,43.754137],"type":"Point"},"properties":{"osm_id":"7294917562","tag":{"amenity":"recycling","location":"overground","recycling:cans":"yes","recycling:glass_bottles":"yes","recycling:paper":"yes","recycling:plastic":"yes","recycling_type":"container"}},"type":"Feature"},
	{"geometry":{"coordinates":[11.282116,43.763792],"type":"Point"},"properties":{"osm_id":"7439631282","tag":{"amenity":"recycling","location":"overground","recycling_type":"container"}},"type":"Feature"},
	{"geometry":{"coordinates":[11.274383,43.768879],"type":"Point"},"properties":{"osm_id":"7483052737","tag":{"amenity":"recycling"}},"type":"Feature"},
	{"geometry":{"coordinates":[11.273168,43.770074],"type":"Point"},"properties":{"osm_id":"7483052739","tag":{"amenity":"recycling"}},"type":"Feature"},
	{"geometry":{"coordinates":[11.2729,43.768889],"type":"Point"},"properties":{"osm_id":"7483052742","tag":{"amenity":"recycling"}},"type":"Feature"},
	{"geometry":{"coordinates":[11.279184,43.770024],"type":"Point"},"properties":{"osm_id":"7483052744","tag":{"amenity":"recycling"}},"type":"Feature"},
	{"geometry":{"coordinates":[11.273466,43.770767],"type":"Point"},"properties":{"osm_id":"7483053520","tag":{"amenity":"recycling"}},"type":"Feature"},
	{"geometry":{"coordinates":[11.276929,43.770132],"type":"Point"},"properties":{"osm_id":"7484619742","tag":{"amenity":"waste_basket"}},"type":"Feature"},
	{"geometry":{"coordinates":[11.275035,43.770054],"type":"Point"},"properties":{"osm_id":"7484712098","tag":{"amenity":"recycling"}},"type":"Feature"},
	{"geometry":{"coordinates":[11.298746,43.767827],"type":"Point"},"properties":{"osm_id":"7623939780","tag":{"amenity":"recycling"}},"type":"Feature"}
]
}
