{
"type": "FeatureCollection",
"features": [
	{"geometry":{"coordinates":[-0.984408,51.464392],"type":"Point"},"properties":{"osm_id":"16017250","tag":{"amenity":"recycling","recycling:clothes":"yes","recycling:glass_bottles":"yes","recycling:magazines":"yes","recycling:newspaper":"yes","recycling:shoes":"yes","recycling_type":"container"}},"type":"Feature"},
	{"geometry":{"coordinates":[-0.975913,51.454122],"type":"Point"},"properties":{"osm_id":"16204762","tag":{"amenity":"recycling","recycling:clothes":"yes","recycling:glass_bottles":"yes","recycling:magazines":"yes","recycling:paper":"yes","recycling:shoes":"yes","recycling_type":"container"}},"type":"Feature"},
	{"geometry":{"coordinates":[-1.021194,51.466897],"type":"Point"},"properties":{"osm_id":"318561062","tag":{"amenity":"recycling","location":"overground","recycling:clothes":"yes","recycling:glass":"yes","recycling:glass_bottles":"yes","recycling:shoes":"yes","recycling_type":"container"}},"type":"Feature"},
	{"geometry":{"coordinates":[-0.998453,51.460446],"type":"Point"},"properties":{"osm_id":"425088353","tag":{"amenity":"recycling","recycling:cans":"yes","recycling:clothes":"yes","recycling:glass":"yes","recycling:paper":"yes","recycling_type":"container"}},"type":"Feature"},
	{"geometry":{"coordinates":[-1.040348,51.486896],"type":"Point"},"properties":{"osm_id":"440617251","tag":{"amenity":"recycling"}},"type":"Feature"},
	{"geometry":{"coordinates":[-1.041124,51.458066],"type":"Point"},"properties":{"osm_id":"840629166","tag":{"amenity":"waste_basket"}},"type":"Feature"},
	{"geometry":{"coordinates":[-1.037044,51.465998],"type":"Point"},"properties":{"osm_id":"840713271","tag":{"amenity":"waste_basket"}},"type":"Feature"},
	{"geometry":{"coordinates":[-1.037535,51.465705],"type":"Point"},"properties":{"osm_id":"840713449","tag":{"amenity":"waste_basket"}},"type":"Feature"},
	{"geometry":{"coordinates":[-1.033687,51.466716],"type":"Point"},"properties":{"osm_id":"840713501","tag":{"amenity":"waste_basket"}},"type":"Feature"},
	{"geometry":{"coordinates":[-1.039744,51.465298],"type":"Point"},"properties":{"osm_id":"840713710","tag":{"amenity":"waste_basket"}},"type":"Feature"},
	{"geometry":{"coordinates":[-1.035458,51.462568],"type":"Point"},"properties":{"osm_id":"840751776","tag":{"amenity":"waste_basket"}},"type":"Feature"},
	{"geometry":{"coordinates":[-1.037056,51.461744],"type":"Point"},"properties":{"osm_id":"840751803","tag":{"amenity":"waste_basket"}},"type":"Feature"},
	{"geometry":{"coordinates":[-1.036821,51.461587],"type":"Point"},"properties":{"osm_id":"840751806","tag":{"amenity":"waste_basket"}},"type":"Feature"},
	{"geometry":{"coordinates":[-1.036985,51.462142],"type":"Point"},"properties":{"osm_id":"840751808","tag":{"amenity":"waste_basket"}},"type":"Feature"},
	{"geometry":{"coordinates":[-1.036034,51.461316],"type":"Point"},"properties":{"osm_id":"840751934","tag":{"amenity":"waste_basket"}},"type":"Feature"},
	{"geometry":{"coordinates":[-1.032232,51.465175],"type":"Point"},"properties":{"osm_id":"840826322","tag":{"amenity":"recycling","recycling:clothes":"yes","recycling:glass":"yes"}},"type":"Feature"},
	{"geometry":{"coordinates":[-1.032108,51.465344],"type":"Point"},"properties":{"osm_id":"840826375","tag":{"amenity":"waste_basket"}},"type":"Feature"},
	{"geometry":{"coordinates":[-1.052874,51.464923],"type":"Point"},"properties":{"osm_id":"841486465","tag":{"amenity":"waste_basket"}},"type":"Feature"},
	{"geometry":{"coordinates":[-1.053641,51.465033],"type":"Point"},"properties":{"osm_id":"841486468","tag":{"amenity":"waste_basket"}},"type":"Feature"},
	{"geometry":{"coordinates":[-1.054652,51.467211],"type":"Point"},"properties":{"osm_id":"841486479","tag":{"amenity":"waste_basket"}},"type":"Feature"},
	{"geometry":{"coordinates":[-1.052913,51.462156],"type":"Point"},"properties":{"osm_id":"841486495","tag":{"amenity":"waste_basket"}},"type":"Feature"},
	{"geometry":{"coordinates":[-0.974414,51.467152],"type":"Point"},"properties":{"osm_id":"1743259752","tag":{"amenity":"recycling","recycling:glass":"yes","recycling_type":"container"}},"type":"Feature"},
	{"geometry":{"coordinates":[-1.050625,51.480186],"type":"Point"},"properties":{"osm_id":"2165378865","tag":{"amenity":"waste_basket","waste":"dog_excrement"}},"type":"Feature"},
	{"geometry":{"coordinates":[-0.987487,51.47279],"type":"Point"},"properties":{"osm_id":"3338781471","tag":{"amenity":"waste_basket"}},"type":"Feature"},
	{"geometry":{"coordinates":[-0.982538,51.473821],"type":"Point"},"properties":{"osm_id":"3338781699","tag":{"amenity":"waste_basket"}},"type":"Feature"},
	{"geometry":{"coordinates":[-0.985782,51.476941],"type":"Point"},"properties":{"osm_id":"3338781842","tag":{"amenity":"waste_basket"}},"type":"Feature"},
	{"geometry":{"coordinates":[-1.035953,51.460132],"type":"Point"},"properties":{"osm_id":"4753525325","tag":{"amenity":"recycling","recycling_type":"container"}},"type":"Feature"},
	{"geometry":{"coordinates":[-0.999845,51.457559],"type":"Point"},"properties":{"osm_id":"4934121847","tag":{"amenity":"waste_basket"}},"type":"Feature"},
	{"geometry":{"coordinates":[-0.998984,51.454133],"type":"Point"},"properties":{"osm_id":"5076905829","tag":{"amenity":"recycling","recycling_type":"container"}},"type":"Feature"},
	{"geometry":{"coordinates":[-0.986726,51.462081],"type":"Point"},"properties":{"name":"M Collard","osm_id":"5287868995","tag":{"amenity":"recycling","recycling_type":"centre","website":"http://www.mcollardwaste.co.uk/"}},"type":"Feature"},
	{"geometry":{"coordinates":[-1.019845,51.465939],"type":"Point"},"properties":{"osm_id":"5591797841","tag":{"amenity":"waste_basket"}},"type":"Feature"},
	{"geometry":{"coordinates":[-0.98659,51.455119],"type":"Point"},"properties":{"osm_id":"5599985605","tag":{"amenity":"waste_basket"}},"type":"Feature"},
	{"geometry":{"coordinates":[-0.972128,51.469626],"type":"Point"},"properties":{"osm_id":"5605467083","tag":{"amenity":"waste_basket","waste":"trash"}},"type":"Feature"},
	{"geometry":{"coordinates":[-0.975304,51.467874],"type":"Point"},"properties":{"osm_id":"5605467096","tag":{"amenity":"waste_basket","waste":"trash"}},"type":"Feature"},
	{"geometry":{"coordinates":[-0.970053,51.469824],"type":"Point"},"properties":{"osm_id":"5605467675","tag":{"amenity":"waste_basket","waste":"dog_excrement"}},"type":"Feature"},
	{"geometry":{"coordinates":[-0.971402,51.469971],"type":"Point"},"properties":{"osm_id":"5605467677","tag":{"amenity":"waste_basket","waste":"trash"}},"type":"Feature"},
	{"geometry":{"coordinates":[-0.97146,51.469999],"type":"Point"},"properties":{"osm_id":"5605467678","tag":{"amenity":"waste_basket","waste":"dog_excrement"}},"type":"Feature"},
	{"geometry":{"coordinates":[-0.972823,51.473092],"type":"Point"},"properties":{"osm_id":"5605467681","tag":{"amenity":"waste_basket","waste":"dog_excrement"}},"type":"Feature"},
	{"geometry":{"coordinates":[-0.972865,51.47311],"type":"Point"},"properties":{"osm_id":"5605467682","tag":{"amenity":"waste_basket","waste":"trash"}},"type":"Feature"},
	{"geometry":{"coordinates":[-0.972841,51.47288],"type":"Point"},"properties":{"osm_id":"5605467684","tag":{"amenity":"waste_basket","waste":"trash"}},"type":"Feature"},
	{"geometry":{"coordinates":[-0.972737,51.469729],"type":"Point"},"properties":{"osm_id":"5605467687","tag":{"amenity":"waste_basket","waste":"dog_excrement"}},"type":"Feature"},
	{"geometry":{"coordinates":[-0.972758,51.469724],"type":"Point"},"properties":{"osm_id":"5605467688","tag":{"amenity":"waste_basket","waste":"trash"}},"type":"Feature"},
	{"geometry":{"coordinates":[-0.96949,51.45626],"type":"Point"},"properties":{"osm_id":"5636754514","tag":{"amenity":"waste_basket"}},"type":"Feature"},
	{"geometry":{"coordinates":[-0.979666,51.467765],"type":"Point"},"properties":{"osm_id":"5752423803","tag":{"amenity":"waste_basket","waste":"trash"}},"type":"Feature"},
	{"geometry":{"coordinates":[-0.979628,51.468072],"type":"Point"},"properties":{"osm_id":"5752425135","tag":{"amenity":"waste_basket","waste":"trash"}},"type":"Feature"},
	{"geometry":{"coordinates":[-0.982045,51.468239],"type":"Point"},"properties":{"osm_id":"5752425158","tag":{"amenity":"waste_basket","waste":"trash"}},"type":"Feature"},
	{"geometry":{"coordinates":[-0.981158,51.468835],"type":"Point"},"properties":{"osm_id":"5752425165","tag":{"amenity":"waste_basket","waste":"trash"}},"type":"Feature"},
	{"geometry":{"coordinates":[-0.979831,51.468482],"type":"Point"},"properties":{"osm_id":"5752425171","tag":{"amenity":"waste_basket","waste":"trash"}},"type":"Feature"},
	{"geometry":{"coordinates":[-0.979698,51.467626],"type":"Point"},"properties":{"osm_id":"5752425242","tag":{"amenity":"waste_basket","waste":"trash"}},"type":"Feature"},
	{"geometry":{"coordinates":[-0.981555,51.46804],"type":"Point"},"properties":{"osm_id":"5752425343","tag":{"amenity":"waste_basket","waste":"trash"}},"type":"Feature"},
	{"geometry":{"coordinates":[-0.967512,51.461417],"type":"Point"},"properties":{"osm_id":"5764226632","tag":{"amenity":"waste_basket","waste":"trash"}},"type":"Feature"},
	{"geometry":{"coordinates":[-0.967278,51.46161],"type":"Point"},"properties":{"osm_id":"5764226633","tag":{"amenity":"waste_basket","waste":"trash"}},"type":"Feature"},
	{"geometry":{"coordinates":[-0.96749,51.461216],"type":"Point"},"properties":{"osm_id":"5764226637","tag":{"amenity":"waste_basket","waste":"trash"}},"type":"Feature"},
	{"geometry":{"coordinates":[-0.969112,51.461783],"type":"Point"},"properties":{"osm_id":"5764226642","tag":{"amenity":"waste_basket","waste":"trash"}},"type":"Feature"},
	{"geometry":{"coordinates":[-0.969501,51.462092],"type":"Point"},"properties":{"osm_id":"5764226644","tag":{"amenity":"waste_basket","waste":"dog_excrement"}},"type":"Feature"},
	{"geometry":{"coordinates":[-0.969526,51.462121],"type":"Point"},"properties":{"osm_id":"5764226645","tag":{"amenity":"waste_basket","waste":"trash"}},"type":"Feature"},
	{"geometry":{"coordinates":[-0.969946,51.463022],"type":"Point"},"properties":{"osm_id":"5764226648","tag":{"amenity":"waste_basket","waste":"trash"}},"type":"Feature"},
	{"geometry":{"coordinates":[-0.969853,51.463169],"type":"Point"},"properties":{"osm_id":"5764226649","tag":{"amenity":"waste_basket","waste":"trash"}},"type":"Feature"},
	{"geometry":{"coordinates":[-0.969164,51.463222],"type":"Point"},"properties":{"osm_id":"5764226654","tag":{"amenity":"waste_basket","waste":"trash"}},"type":"Feature"},
	{"geometry":{"coordinates":[-0.969207,51.463093],"type":"Point"},"properties":{"osm_id":"5764226655","tag":{"amenity":"waste_basket","waste":"trash"}},"type":"Feature"},
	{"geometry":{"coordinates":[-0.968393,51.462671],"type":"Point"},"properties":{"osm_id":"5764226676","tag":{"amenity":"waste_basket","waste":"trash"}},"type":"Feature"},
	{"geometry":{"coordinates":[-0.968352,51.464082],"type":"Point"},"properties":{"osm_id":"5764226695","tag":{"amenity":"waste_basket","waste":"trash"}},"type":"Feature"},
	{"geometry":{"coordinates":[-0.971495,51.4641],"type":"Point"},"properties":{"osm_id":"5764226702","tag":{"amenity":"waste_basket","waste":"dog_excrement"}},"type":"Feature"},
	{"geometry":{"coordinates":[-0.973086,51.464573],"type":"Point"},"properties":{"osm_id":"5764226709","tag":{"amenity":"waste_basket","waste":"trash"}},"type":"Feature"},
	{"geometry":{"coordinates":[-0.973828,51.464656],"type":"Point"},"properties":{"osm_id":"5764226712","tag":{"amenity":"waste_basket","waste":"dog_excrement"}},"type":"Feature"},
	{"geometry":{"coordinates":[-0.974325,51.464786],"type":"Point"},"properties":{"osm_id":"5764226716","tag":{"amenity":"waste_basket","waste":"trash"}},"type":"Feature"},
	{"geometry":{"coordinates":[-0.97531,51.465721],"type":"Point"},"properties":{"osm_id":"5764226721","tag":{"amenity":"waste_basket","waste":"trash"}},"type":"Feature"},
	{"geometry":{"coordinates":[-0.975329,51.46574],"type":"Point"},"properties":{"osm_id":"5764226722","tag":{"amenity":"waste_basket","waste":"dog_excrement"}},"type":"Feature"},
	{"geometry":{"coordinates":[-0.98089,51.45812],"type":"Point"},"properties":{"osm_id":"6276929031","tag":{"amenity":"recycling","recycling:glass":"yes","recycling:glass_bottles":"yes","recycling_type":"container"}},"type":"Feature"},
	{"geometry":{"coordinates":[-0.975619,51.455111],"type":"Point"},"properties":{"osm_id":"6282996644","tag":{"amenity":"recycling","recycling:cans":"yes","recycling:plastic_bottles":"yes","recycling_type":"container"}},"type":"Feature"},
	{"geometry":{"coordinates":[-0.97063,51.455468],"type":"Point"},"properties":{"osm_id":"6301705728","tag":{"amenity":"recycling","recycling:plastic_bags":"yes","recycling_type":"container"}},"type":"Feature"},
	{"geometry":{"coordinates":[-0.967156,51.476178],"type":"Point"},"properties":{"osm_id":"6433164318","tag":{"amenity":"waste_basket","waste":"trash"}},"type":"Feature"},
	{"geometry":{"coordinates":[-0.982747,51.465989],"type":"Point"},"properties":{"osm_id":"6474107979","tag":{"amenity":"waste_basket","waste":"dog_excrement"}},"type":"Feature"},
	{"geometry":{"coordinates":[-0.98324,51.465755],"type":"Point"},"properties":{"osm_id":"6474108287","tag":{"amenity":"waste_basket","waste":"trash"}},"type":"Feature"},
	{"geometry":{"coordinates":[-0.983126,51.465591],"type":"Point"},"properties":{"osm_id":"6474108306","tag":{"amenity":"waste_basket","waste":"trash"}},"type":"Feature"},
	{"geometry":{"coordinates":[-1.028082,51.470288],"type":"Point"},"properties":{"osm_id":"6474109036","tag":{"amenity":"waste_basket","waste":"trash"}},"type":"Feature"},
	{"geometry":{"coordinates":[-1.015708,51.466326],"type":"Point"},"properties":{"osm_id":"6474109231","tag":{"amenity":"waste_basket","waste":"trash"}},"type":"Feature"},
	{"geometry":{"coordinates":[-1.015568,51.466333],"type":"Point"},"properties":{"osm_id":"6474109232","tag":{"amenity":"waste_basket","waste":"dog_excrement"}},"type":"Feature"},
	{"geometry":{"coordinates":[-0.991934,51.468408],"type":"Point"},"properties":{"osm_id":"6474110617","tag":{"amenity":"waste_basket","waste":"trash"}},"type":"Feature"},
	{"geometry":{"coordinates":[-0.989924,51.468137],"type":"Point"},"properties":{"osm_id":"6474110619","tag":{"amenity":"waste_basket","waste":"trash"}},"type":"Feature"},
	{"geometry":{"coordinates":[-0.989391,51.468063],"type":"Point"},"properties":{"osm_id":"6474110621","tag":{"amenity":"waste_basket","waste":"trash"}},"type":"Feature"},
	{"geometry":{"coordinates":[-0.983337,51.467458],"type":"Point"},"properties":{"osm_id":"6474110638","tag":{"amenity":"waste_basket","waste":"trash"}},"type":"Feature"},
	{"geometry":{"coordinates":[-0.982197,51.467077],"type":"Point"},"properties":{"osm_id":"6474111168","tag":{"amenity":"waste_basket","waste":"dog_excrement"}},"type":"Feature"},
	{"geometry":{"coordinates":[-0.979614,51.466548],"type":"Point"},"properties":{"osm_id":"6474111182","tag":{"amenity":"waste_basket","waste":"trash"}},"type":"Feature"},
	{"geometry":{"coordinates":[-0.978405,51.464868],"type":"Point"},"properties":{"osm_id":"6476666332","tag":{"amenity":"waste_basket","waste":"trash"}},"type":"Feature"},
	{"geometry":{"coordinates":[-0.981104,51.467049],"type":"Point"},"properties":{"osm_id":"6476666524","tag":{"amenity":"waste_basket","waste":"trash"}},"type":"Feature"},
	{"geometry":{"coordinates":[-0.980048,51.466798],"type":"Point"},"properties":{"osm_id":"6476666527","tag":{"amenity":"waste_basket","waste":"trash"}},"type":"Feature"},
	{"geometry":{"coordinates":[-0.977499,51.465563],"type":"Point"},"properties":{"osm_id":"6476666576","tag":{"amenity":"waste_basket","waste":"trash"}},"type":"Feature"},
	{"geometry":{"coordinates":[-0.979149,51.465917],"type":"Point"},"properties":{"osm_id":"6476666969","tag":{"amenity":"recycling","recycling:clothes":"yes","recycling:glass":"yes","recycling:glass_bottles":"yes","recycling:shoes":"yes","recycling_type":"centre"}},"type":"Feature"},
	{"geometry":{"coordinates":[-0.97875,51.466139],"type":"Point"},"properties":{"osm_id":"6476666979","tag":{"amenity":"waste_basket","waste":"trash"}},"type":"Feature"},
	{"geometry":{"coordinates":[-0.979032,51.465173],"type":"Point"},"properties":{"osm_id":"6476667139","tag":{"amenity":"waste_basket","waste":"trash"}},"type":"Feature"},
	{"geometry":{"coordinates":[-0.970935,51.458549],"type":"Point"},"properties":{"osm_id":"6484987584","tag":{"amenity":"waste_disposal"}},"type":"Feature"},
	{"geometry":{"coordinates":[-0.976298,51.454071],"type":"Point"},"properties":{"osm_id":"6546219440","tag":{"amenity":"waste_basket","waste":"trash"}},"type":"Feature"},
	{"geometry":{"coordinates":[-0.967051,51.456884],"type":"Point"},"properties":{"osm_id":"6558618919","tag":{"amenity":"waste_basket","waste":"trash"}},"type":"Feature"},
	{"geometry":{"coordinates":[-0.967102,51.456846],"type":"Point"},"properties":{"osm_id":"6558618921","tag":{"amenity":"waste_basket","waste":"trash"}},"type":"Feature"},
	{"geometry":{"coordinates":[-0.968052,51.456877],"type":"Point"},"properties":{"osm_id":"6558618922","tag":{"amenity":"waste_basket","waste":"trash"}},"type":"Feature"},
	{"geometry":{"coordinates":[-0.967447,51.457498],"type":"Point"},"properties":{"osm_id":"6558618967","tag":{"amenity":"waste_basket","waste":"trash"}},"type":"Feature"},
	{"geometry":{"coordinates":[-0.967089,51.45745],"type":"Point"},"properties":{"osm_id":"6558618968","tag":{"amenity":"waste_basket","waste":"trash"}},"type":"Feature"},
	{"geometry":{"coordinates":[-0.967089,51.457006],"type":"Point"},"properties":{"osm_id":"6558618972","tag":{"amenity":"waste_basket","waste":"trash"}},"type":"Feature"},
	{"geometry":{"coordinates":[-0.967929,51.457556],"type":"Point"},"properties":{"osm_id":"6558618974","tag":{"amenity":"waste_basket","waste":"trash"}},"type":"Feature"},
	{"geometry":{"coordinates":[-0.968318,51.457488],"type":"Point"},"properties":{"osm_id":"6558618976","tag":{"amenity":"waste_basket","waste":"dog_excrement"}},"type":"Feature"},
	{"geometry":{"coordinates":[-0.966982,51.457087],"type":"Point"},"properties":{"osm_id":"6558618978","tag":{"amenity":"waste_basket","waste":"trash"}},"type":"Feature"},
	{"geometry":{"coordinates":[-0.966885,51.456768],"type":"Point"},"properties":{"osm_id":"6558618983","tag":{"amenity":"waste_basket","waste":"trash"}},"type":"Feature"},
	{"geometry":{"coordinates":[-0.966864,51.456627],"type":"Point"},"properties":{"osm_id":"6558652193","tag":{"amenity":"waste_basket","waste":"trash"}},"type":"Feature"},
	{"geometry":{"coordinates":[-0.967232,51.456617],"type":"Point"},"properties":{"osm_id":"6558652195","tag":{"amenity":"waste_basket","waste":"trash"}},"type":"Feature"},
	{"geometry":{"coordinates":[-0.967188,51.457033],"type":"Point"},"properties":{"osm_id":"6558652199","tag":{"amenity":"waste_basket","waste":"trash"}},"type":"Feature"},
	{"geometry":{"coordinates":[-0.967286,51.456839],"type":"Point"},"properties":{"osm_id":"6558652200","tag":{"amenity":"waste_basket","waste":"trash"}},"type":"Feature"},
	{"geometry":{"coordinates":[-0.967316,51.456857],"type":"Point"},"properties":{"osm_id":"6558652203","tag":{"amenity":"waste_basket","waste":"trash"}},"type":"Feature"},
	{"geometry":{"coordinates":[-0.967732,51.456546],"type":"Point"},"properties":{"osm_id":"6558652207","tag":{"amenity":"waste_basket","waste":"trash"}},"type":"Feature"},
	{"geometry":{"coordinates":[-0.967434,51.457191],"type":"Point"},"properties":{"osm_id":"6561665241","tag":{"amenity":"waste_basket","waste":"trash"}},"type":"Feature"},
	{"geometry":{"coordinates":[-0.968158,51.457072],"type":"Point"},"properties":{"osm_id":"6573168600","tag":{"amenity":"waste_basket","waste":"trash"}},"type":"Feature"},
	{"geometry":{"coordinates":[-0.968763,51.462567],"type":"Point"},"properties":{"osm_id":"6668103493","tag":{"amenity":"waste_basket","waste":"trash"}},"type":"Feature"},
	{"geometry":{"coordinates":[-0.969084,51.462287],"type":"Point"},"properties":{"osm_id":"6668103500","tag":{"amenity":"waste_basket","waste":"trash"}},"type":"Feature"},
	{"geometry":{"coordinates":[-0.969475,51.462601],"type":"Point"},"properties":{"osm_id":"6668103501","tag":{"amenity":"waste_basket","waste":"trash"}},"type":"Feature"},
	{"geometry":{"coordinates":[-0.969786,51.462481],"type":"Point"},"properties":{"osm_id":"6668103502","tag":{"amenity":"waste_basket","waste":"trash"}},"type":"Feature"},
	{"geometry":{"coordinates":[-0.968878,51.462088],"type":"Point"},"properties":{"osm_id":"6668103505","tag":{"amenity":"waste_basket","waste":"trash"}},"type":"Feature"},
	{"geometry":{"coordinates":[-0.971499,51.458455],"type":"Point"},"properties":{"osm_id":"6970258010","tag":{"amenity":"waste_basket"}},"type":"Feature"},
	{"geometry":{"coordinates":[-1.003943,51.461599],"type":"Point"},"properties":{"name":"Precycle","osm_id":"7014811940","tag":{"amenity":"recycling","office":"company","recycling:clothes":"yes","recycling_type":"centre"}},"type":"Feature"},
	{"geometry":{"coordinates":[-0.975316,51.458664],"type":"Point"},"properties":{"osm_id":"7037076048","tag":{"amenity":"waste_basket","waste":"trash"}},"type":"Feature"},
	{"geometry":{"coordinates":[-0.974748,51.458631],"type":"Point"},"properties":{"osm_id":"7037076066","tag":{"amenity":"waste_basket","waste":"trash"}},"type":"Feature"},
	{"geometry":{"coordinates":[-0.973572,51.458536],"type":"Point"},"properties":{"osm_id":"7037076068","tag":{"amenity":"waste_basket","waste":"trash"}},"type":"Feature"},
	{"geometry":{"coordinates":[-0.973389,51.458519],"type":"Point"},"properties":{"osm_id":"7037076069","tag":{"amenity":"waste_basket","waste":"trash"}},"type":"Feature"},
	{"geometry":{"coordinates":[-0.973205,51.458501],"type":"Point"},"properties":{"osm_id":"7037076070","tag":{"amenity":"waste_basket","waste":"trash"}},"type":"Feature"},
	{"geometry":{"coordinates":[-0.974379,51.458657],"type":"Point"},"properties":{"osm_id":"7037076072","tag":{"amenity":"waste_basket","waste":"trash"}},"type":"Feature"},
	{"geometry":{"coordinates":[-0.974172,51.45864],"type":"Point"},"properties":{"osm_id":"7037076074","tag":{"amenity":"waste_basket","waste":"trash"}},"type":"Feature"},
	{"geometry":{"coordinates":[-0.973888,51.458815],"type":"Point"},"properties":{"osm_id":"7037076084","tag":{"amenity":"waste_basket","waste":"trash"}},"type":"Feature"},
	{"geometry":{"coordinates":[-0.974113,51.45884],"type":"Point"},"properties":{"osm_id":"7037076086","tag":{"amenity":"waste_basket","waste":"trash"}},"type":"Feature"},
	{"geometry":{"coordinates":[-0.973688,51.458597],"type":"Point"},"properties":{"osm_id":"7037076089","tag":{"amenity":"waste_basket","waste":"trash"}},"type":"Feature"},
	{"geometry":{"coordinates":[-0.973563,51.458654],"type":"Point"},"properties":{"osm_id":"7037076090","tag":{"amenity":"waste_basket","waste":"trash"}},"type":"Feature"},
	{"geometry":{"coordinates":[-0.972729,51.45859],"type":"Point"},"properties":{"osm_id":"7037076109","tag":{"amenity":"waste_basket","waste":"trash"}},"type":"Feature"},
	{"geometry":{"coordinates":[-1.036541,51.485373],"type":"Point"},"properties":{"osm_id":"7236519681","tag":{"amenity":"waste_basket","waste":"trash"}},"type":"Feature"},
	{"geometry":{"coordinates":[-1.024695,51.454986],"type":"Point"},"properties":{"osm_id":"7549426444","tag":{"amenity":"recycling","recycling:glass":"yes","recycling_type":"container"}},"type":"Feature"},
	{"geometry":{"coordinates":[-1.014454,51.463688],"type":"Point"},"properties":{"osm_id":"7549426445","tag":{"amenity":"recycling","recycling:glass":"yes","recycling_type":"container"}},"type":"Feature"},
	{"geometry":{"coordinates":[-1.040177,51.457764],"type":"Point"},"properties":{"osm_id":"7875756607","tag":{"amenity":"waste_disposal"}},"type":"Feature"},
	{"geometry":{"coordinates":[-1.040346,51.457521],"type":"Point"},"properties":{"osm_id":"7875756608","tag":{"amenity":"recycling","recycling_type":"container"}},"type":"Feature"},
	{"geometry":{"coordinates":[-1.023662,51.461374],"type":"Point"},"properties":{"osm_id":"7902510100","tag":{"amenity":"waste_basket"}},"type":"Feature"}
]
}
