{
"type": "FeatureCollection",
"features": [
	{"geometry":{"coordinates":[-0.970682,51.435046],"type":"Point"},"properties":{"osm_id":"278565745","tag":{"amenity":"recycling","recycling:cans":"yes","recycling:clothes":"yes","recycling:glass":"yes","recycling_type":"container"}},"type":"Feature"},
	{"geometry":{"coordinates":[-0.970467,51.424204],"type":"Point"},"properties":{"osm_id":"581908713","tag":{"amenity":"recycling","recycling:clothes":"yes","recycling:glass":"yes","recycling:paper":"yes"}},"type":"Feature"},
	{"geometry":{"coordinates":[-0.98947,51.443745],"type":"Point"},"properties":{"osm_id":"588998530","tag":{"amenity":"recycling","recycling:clothes":"yes","recycling:glass":"yes","recycling_type":"container"}},"type":"Feature"},
	{"geometry":{"coordinates":[-0.977219,51.447931],"type":"Point"},"properties":{"osm_id":"588998590","tag":{"amenity":"recycling","recycling:clothes":"yes","recycling:glass":"yes","recycling_type":"container"}},"type":"Feature"},
	{"geometry":{"coordinates":[-1.04334,51.411435],"type":"Point"},"properties":{"osm_id":"772403928","tag":{"amenity":"waste_basket"}},"type":"Feature"},
	{"geometry":{"coordinates":[-1.02071,51.444356],"type":"Point"},"properties":{"osm_id":"825107085","tag":{"amenity":"recycling","recycling:glass":"yes"}},"type":"Feature"},
	{"geometry":{"coordinates":[-1.023526,51.451298],"type":"Point"},"properties":{"osm_id":"828131320","tag":{"amenity":"waste_basket"}},"type":"Feature"},
	{"geometry":{"coordinates":[-1.006358,51.45385],"type":"Point"},"properties":{"osm_id":"2383978676","tag":{"amenity":"waste_basket"}},"type":"Feature"},
	{"geometry":{"coordinates":[-0.975626,51.430547],"type":"Point"},"properties":{"osm_id":"2493732462","tag":{"amenity":"waste_basket"}},"type":"Feature"},
	{"geometry":{"coordinates":[-0.975363,51.430772],"type":"Point"},"properties":{"osm_id":"2493732463","tag":{"amenity":"waste_basket"}},"type":"Feature"},
	{"geometry":{"coordinates":[-1.023044,51.431673],"type":"Point"},"properties":{"osm_id":"2619676395","tag":{"amenity":"waste_disposal"}},"type":"Feature"},
	{"geometry":{"coordinates":[-0.97881,51.453494],"type":"Point"},"properties":{"osm_id":"3780787719","tag":{"amenity":"recycling","recycling:cans":"no","recycling:clothes":"no","recycling:glass":"yes","recycling:glass_bottles":"yes","recycling:paper":"no","recycling:plastic":"no","recycling_type":"container"}},"type":"Feature"},
	{"geometry":{"coordinates":[-1.006398,51.450027],"type":"Point"},"properties":{"osm_id":"3978139234","tag":{"amenity":"recycling","recycling:cans":"no","recycling:clothes":"no","recycling:glass":"yes","recycling:glass_bottles":"yes","recycling:paper":"no","recycling:plastic":"no","recycling_type":"container"}},"type":"Feature"},
	{"geometry":{"coordinates":[-1.025817,51.44497],"type":"Point"},"properties":{"osm_id":"5058555658","tag":{"amenity":"waste_basket"}},"type":"Feature"},
	{"geometry":{"coordinates":[-1.025963,51.444817],"type":"Point"},"properties":{"osm_id":"5058555659","tag":{"amenity":"waste_basket"}},"type":"Feature"},
	{"geometry":{"coordinates":[-1.046388,51.442557],"type":"Point"},"properties":{"osm_id":"5058654189","tag":{"amenity":"waste_basket"}},"type":"Feature"},
	{"geometry":{"coordinates":[-1.016374,51.448141],"type":"Point"},"properties":{"osm_id":"5141016879","tag":{"amenity":"waste_basket"}},"type":"Feature"},
	{"geometry":{"coordinates":[-1.016372,51.448338],"type":"Point"},"properties":{"osm_id":"5141016882","tag":{"amenity":"waste_basket"}},"type":"Feature"},
	{"geometry":{"coordinates":[-0.978727,51.453333],"type":"Point"},"properties":{"osm_id":"5272094588","tag":{"amenity":"waste_basket"}},"type":"Feature"},
	{"geometry":{"coordinates":[-1.020673,51.444342],"type":"Point"},"properties":{"osm_id":"5341781667","tag":{"amenity":"waste_basket"}},"type":"Feature"},
	{"geometry":{"coordinates":[-1.016431,51.444675],"type":"Point"},"properties":{"osm_id":"5348552916","tag":{"amenity":"waste_basket"}},"type":"Feature"},
	{"geometry":{"coordinates":[-1.044399,51.442547],"type":"Point"},"properties":{"osm_id":"5397051371","tag":{"amenity":"waste_basket"}},"type":"Feature"},
	{"geometry":{"coordinates":[-1.024109,51.444386],"type":"Point"},"properties":{"osm_id":"5397051372","tag":{"amenity":"waste_basket"}},"type":"Feature"},
	{"geometry":{"coordinates":[-1.017744,51.449644],"type":"Point"},"properties":{"osm_id":"5552253487","tag":{"amenity":"recycling","recycling:clothes":"yes","recycling_type":"container"}},"type":"Feature"},
	{"geometry":{"coordinates":[-1.017583,51.444555],"type":"Point"},"properties":{"osm_id":"5568836143","tag":{"amenity":"waste_basket"}},"type":"Feature"},
	{"geometry":{"coordinates":[-1.02112,51.444578],"type":"Point"},"properties":{"osm_id":"5568836144","tag":{"amenity":"waste_basket"}},"type":"Feature"},
	{"geometry":{"coordinates":[-1.020465,51.444136],"type":"Point"},"properties":{"osm_id":"5568874039","tag":{"amenity":"waste_basket"}},"type":"Feature"},
	{"geometry":{"coordinates":[-1.017825,51.448075],"type":"Point"},"properties":{"osm_id":"5586220322","tag":{"amenity":"waste_basket"}},"type":"Feature"},
	{"geometry":{"coordinates":[-1.03004,51.447261],"type":"Point"},"properties":{"osm_id":"5586220323","tag":{"amenity":"waste_basket"}},"type":"Feature"},
	{"geometry":{"coordinates":[-1.022279,51.447984],"type":"Point"},"properties":{"osm_id":"5586220324","tag":{"amenity":"waste_basket"}},"type":"Feature"},
	{"geometry":{"coordinates":[-1.019394,51.447946],"type":"Point"},"properties":{"osm_id":"5586220327","tag":{"amenity":"waste_basket"}},"type":"Feature"},
	{"geometry":{"coordinates":[-1.027935,51.448747],"type":"Point"},"properties":{"osm_id":"5586220333","tag":{"amenity":"waste_basket"}},"type":"Feature"},
	{"geometry":{"coordinates":[-1.018318,51.44797],"type":"Point"},"properties":{"osm_id":"5586220335","tag":{"amenity":"waste_basket"}},"type":"Feature"},
	{"geometry":{"coordinates":[-1.029798,51.449318],"type":"Point"},"properties":{"osm_id":"5586220337","tag":{"amenity":"waste_basket"}},"type":"Feature"},
	{"geometry":{"coordinates":[-1.020327,51.448099],"type":"Point"},"properties":{"osm_id":"5586220339","tag":{"amenity":"waste_basket"}},"type":"Feature"},
	{"geometry":{"coordinates":[-1.007281,51.445919],"type":"Point"},"properties":{"osm_id":"5599783525","tag":{"amenity":"waste_basket"}},"type":"Feature"},
	{"geometry":{"coordinates":[-0.984692,51.450516],"type":"Point"},"properties":{"osm_id":"5599828295","tag":{"amenity":"waste_basket"}},"type":"Feature"},
	{"geometry":{"coordinates":[-0.988632,51.44957],"type":"Point"},"properties":{"osm_id":"5599828297","tag":{"amenity":"waste_basket"}},"type":"Feature"},
	{"geometry":{"coordinates":[-0.983868,51.450758],"type":"Point"},"properties":{"osm_id":"5599832189","tag":{"amenity":"waste_basket"}},"type":"Feature"},
	{"geometry":{"coordinates":[-1.017229,51.449897],"type":"Point"},"properties":{"osm_id":"5600225621","tag":{"amenity":"waste_basket"}},"type":"Feature"},
	{"geometry":{"coordinates":[-1.016696,51.449325],"type":"Point"},"properties":{"osm_id":"5604368604","tag":{"amenity":"waste_basket"}},"type":"Feature"},
	{"geometry":{"coordinates":[-1.01614,51.447435],"type":"Point"},"properties":{"osm_id":"5604368608","tag":{"amenity":"waste_basket"}},"type":"Feature"},
	{"geometry":{"coordinates":[-1.017639,51.449251],"type":"Point"},"properties":{"osm_id":"5604368610","tag":{"amenity":"waste_basket"}},"type":"Feature"},
	{"geometry":{"coordinates":[-1.018901,51.444073],"type":"Point"},"properties":{"osm_id":"5604368611","tag":{"amenity":"waste_basket"}},"type":"Feature"},
	{"geometry":{"coordinates":[-1.010224,51.442525],"type":"Point"},"properties":{"osm_id":"5606949426","tag":{"amenity":"recycling","recycling_type":"container"}},"type":"Feature"},
	{"geometry":{"coordinates":[-1.019283,51.442769],"type":"Point"},"properties":{"osm_id":"5606990321","tag":{"amenity":"waste_basket"}},"type":"Feature"},
	{"geometry":{"coordinates":[-1.020735,51.444393],"type":"Point"},"properties":{"osm_id":"5615210757","tag":{"amenity":"recycling","recycling:clothes":"yes","recycling_type":"container"}},"type":"Feature"},
	{"geometry":{"coordinates":[-0.982795,51.453095],"type":"Point"},"properties":{"osm_id":"5621285021","tag":{"amenity":"waste_basket"}},"type":"Feature"},
	{"geometry":{"coordinates":[-0.976956,51.452997],"type":"Point"},"properties":{"osm_id":"5630261734","tag":{"amenity":"waste_basket"}},"type":"Feature"},
	{"geometry":{"coordinates":[-1.025643,51.44484],"type":"Point"},"properties":{"osm_id":"5782969758","tag":{"amenity":"waste_basket"}},"type":"Feature"},
	{"geometry":{"coordinates":[-0.967138,51.439762],"type":"Point"},"properties":{"osm_id":"5840333908","tag":{"amenity":"waste_basket"}},"type":"Feature"},
	{"geometry":{"coordinates":[-0.967361,51.439841],"type":"Point"},"properties":{"osm_id":"5840333909","tag":{"amenity":"waste_basket"}},"type":"Feature"},
	{"geometry":{"coordinates":[-0.968166,51.433538],"type":"Point"},"properties":{"osm_id":"5924062337","tag":{"amenity":"recycling","recycling:clothes":"yes","recycling_type":"container"}},"type":"Feature"},
	{"geometry":{"coordinates":[-0.968279,51.433769],"type":"Point"},"properties":{"osm_id":"5924062339","tag":{"amenity":"waste_basket"}},"type":"Feature"},
	{"geometry":{"coordinates":[-0.968302,51.434158],"type":"Point"},"properties":{"osm_id":"5924062340","tag":{"amenity":"waste_basket"}},"type":"Feature"},
	{"geometry":{"coordinates":[-0.967963,51.443925],"type":"Point"},"properties":{"osm_id":"5940643638","tag":{"amenity":"waste_basket"}},"type":"Feature"},
	{"geometry":{"coordinates":[-0.968518,51.444525],"type":"Point"},"properties":{"osm_id":"5940643669","tag":{"amenity":"waste_basket"}},"type":"Feature"},
	{"geometry":{"coordinates":[-0.968851,51.44449],"type":"Point"},"properties":{"osm_id":"5940643676","tag":{"amenity":"waste_basket"}},"type":"Feature"},
	{"geometry":{"coordinates":[-0.969421,51.44499],"type":"Point"},"properties":{"osm_id":"5940644414","tag":{"amenity":"waste_basket"}},"type":"Feature"},
	{"geometry":{"coordinates":[-0.972219,51.444147],"type":"Point"},"properties":{"osm_id":"5940644419","tag":{"amenity":"waste_basket"}},"type":"Feature"},
	{"geometry":{"coordinates":[-0.972251,51.444104],"type":"Point"},"properties":{"osm_id":"5940644420","tag":{"amenity":"recycling","recycling:glass":"yes","recycling_type":"container"}},"type":"Feature"},
	{"geometry":{"coordinates":[-0.972252,51.444084],"type":"Point"},"properties":{"osm_id":"5940644421","tag":{"amenity":"recycling","operator":"Cystic Fibrosis Trust","recycling:clothes":"yes","recycling:shoes":"yes","recycling_type":"container"}},"type":"Feature"},
	{"geometry":{"coordinates":[-0.97238,51.444366],"type":"Point"},"properties":{"osm_id":"5940644426","tag":{"amenity":"waste_basket"}},"type":"Feature"},
	{"geometry":{"coordinates":[-0.973445,51.444086],"type":"Point"},"properties":{"osm_id":"5940644433","tag":{"amenity":"waste_disposal"}},"type":"Feature"},
	{"geometry":{"coordinates":[-1.013709,51.444455],"type":"Point"},"properties":{"osm_id":"5951892224","tag":{"amenity":"recycling","recycling_type":"container"}},"type":"Feature"},
	{"geometry":{"coordinates":[-0.967881,51.443607],"type":"Point"},"properties":{"osm_id":"6002790619","tag":{"amenity":"waste_basket"}},"type":"Feature"},
	{"geometry":{"coordinates":[-0.968193,51.452595],"type":"Point"},"properties":{"osm_id":"6221613839","tag":{"amenity":"waste_basket"}},"type":"Feature"},
	{"geometry":{"coordinates":[-0.968639,51.453376],"type":"Point"},"properties":{"osm_id":"6276908806","tag":{"access":"private","amenity":"waste_disposal"}},"type":"Feature"},
	{"geometry":{"coordinates":[-0.967901,51.436618],"type":"Point"},"properties":{"osm_id":"6294380804","tag":{"amenity":"waste_basket"}},"type":"Feature"},
	{"geometry":{"coordinates":[-0.980221,51.405785],"type":"Point"},"properties":{"osm_id":"6529099595","tag":{"amenity":"waste_basket","waste":"trash"}},"type":"Feature"},
	{"geometry":{"coordinates":[-0.980158,51.405773],"type":"Point"},"properties":{"osm_id":"6529099646","tag":{"amenity":"waste_basket","waste":"trash"}},"type":"Feature"},
	{"geometry":{"coordinates":[-0.980108,51.40585],"type":"Point"},"properties":{"osm_id":"6529099650","tag":{"amenity":"waste_basket","waste":"trash"}},"type":"Feature"},
	{"geometry":{"coordinates":[-0.980101,51.405886],"type":"Point"},"properties":{"osm_id":"6529099651","tag":{"amenity":"waste_basket","waste":"trash"}},"type":"Feature"},
	{"geometry":{"coordinates":[-0.979963,51.405997],"type":"Point"},"properties":{"osm_id":"6529099659","tag":{"amenity":"waste_basket","waste":"trash"}},"type":"Feature"},
	{"geometry":{"coordinates":[-0.980364,51.405644],"type":"Point"},"properties":{"osm_id":"6529099666","tag":{"amenity":"waste_basket","waste":"trash"}},"type":"Feature"},
	{"geometry":{"coordinates":[-0.97728,51.453919],"type":"Point"},"properties":{"osm_id":"6546219431","tag":{"amenity":"waste_basket","waste":"trash"}},"type":"Feature"},
	{"geometry":{"coordinates":[-0.976384,51.453961],"type":"Point"},"properties":{"osm_id":"6546219437","tag":{"amenity":"waste_basket","waste":"trash"}},"type":"Feature"},
	{"geometry":{"coordinates":[-0.976408,51.453919],"type":"Point"},"properties":{"osm_id":"6546219439","tag":{"amenity":"waste_basket","waste":"trash"}},"type":"Feature"},
	{"geometry":{"coordinates":[-0.976457,51.453835],"type":"Point"},"properties":{"osm_id":"6546219444","tag":{"amenity":"waste_basket","waste":"trash"}},"type":"Feature"},
	{"geometry":{"coordinates":[-0.976326,51.453737],"type":"Point"},"properties":{"osm_id":"6546219449","tag":{"amenity":"waste_basket","waste":"trash"}},"type":"Feature"},
	{"geometry":{"coordinates":[-0.976645,51.453718],"type":"Point"},"properties":{"osm_id":"6546219453","tag":{"amenity":"waste_basket","waste":"trash"}},"type":"Feature"},
	{"geometry":{"coordinates":[-0.975561,51.453584],"type":"Point"},"properties":{"osm_id":"6546219458","tag":{"amenity":"waste_basket","waste":"trash"}},"type":"Feature"},
	{"geometry":{"coordinates":[-0.975648,51.453544],"type":"Point"},"properties":{"osm_id":"6546219459","tag":{"amenity":"waste_basket","waste":"trash"}},"type":"Feature"},
	{"geometry":{"coordinates":[-0.975861,51.453485],"type":"Point"},"properties":{"osm_id":"6546219463","tag":{"amenity":"waste_basket","waste":"trash"}},"type":"Feature"},
	{"geometry":{"coordinates":[-0.976142,51.453451],"type":"Point"},"properties":{"osm_id":"6546219465","tag":{"amenity":"waste_basket","waste":"trash"}},"type":"Feature"},
	{"geometry":{"coordinates":[-0.976056,51.453408],"type":"Point"},"properties":{"osm_id":"6546219467","tag":{"amenity":"waste_basket","waste":"trash"}},"type":"Feature"},
	{"geometry":{"coordinates":[-0.976364,51.453172],"type":"Point"},"properties":{"osm_id":"6546219469","tag":{"amenity":"waste_basket","waste":"trash"}},"type":"Feature"},
	{"geometry":{"coordinates":[-0.97642,51.453176],"type":"Point"},"properties":{"osm_id":"6546219470","tag":{"amenity":"waste_basket","waste":"trash"}},"type":"Feature"},
	{"geometry":{"coordinates":[-0.976639,51.453257],"type":"Point"},"properties":{"osm_id":"6546219472","tag":{"amenity":"waste_basket","waste":"trash"}},"type":"Feature"},
	{"geometry":{"coordinates":[-0.976782,51.453088],"type":"Point"},"properties":{"osm_id":"6546219474","tag":{"amenity":"waste_basket","waste":"trash"}},"type":"Feature"},
	{"geometry":{"coordinates":[-0.974518,51.449713],"type":"Point"},"properties":{"osm_id":"6573180225","tag":{"amenity":"waste_basket","waste":"trash"}},"type":"Feature"},
	{"geometry":{"coordinates":[-0.975554,51.439383],"type":"Point"},"properties":{"osm_id":"6573180244","tag":{"amenity":"waste_basket","waste":"trash"}},"type":"Feature"},
	{"geometry":{"coordinates":[-0.972942,51.441794],"type":"Point"},"properties":{"osm_id":"6573180265","tag":{"amenity":"waste_basket","waste":"dog_excrement"}},"type":"Feature"},
	{"geometry":{"coordinates":[-0.97396,51.442272],"type":"Point"},"properties":{"osm_id":"6573180266","tag":{"amenity":"waste_basket","waste":"dog_excrement"}},"type":"Feature"},
	{"geometry":{"coordinates":[-0.973763,51.443285],"type":"Point"},"properties":{"osm_id":"6573180267","tag":{"amenity":"waste_basket","waste":"trash"}},"type":"Feature"},
	{"geometry":{"coordinates":[-0.973948,51.443794],"type":"Point"},"properties":{"osm_id":"6573180270","tag":{"amenity":"waste_basket","waste":"trash"}},"type":"Feature"},
	{"geometry":{"coordinates":[-0.973834,51.443886],"type":"Point"},"properties":{"osm_id":"6573180276","tag":{"amenity":"waste_basket","waste":"dog_excrement"}},"type":"Feature"},
	{"geometry":{"coordinates":[-0.97341,51.450494],"type":"Point"},"properties":{"osm_id":"6573180299","tag":{"amenity":"waste_basket","waste":"dog_excrement"}},"type":"Feature"},
	{"geometry":{"coordinates":[-0.972962,51.451199],"type":"Point"},"properties":{"osm_id":"6573180300","tag":{"amenity":"waste_basket","waste":"trash"}},"type":"Feature"},
	{"geometry":{"coordinates":[-0.973105,51.451515],"type":"Point"},"properties":{"osm_id":"6573180315","tag":{"amenity":"waste_basket","waste":"trash"}},"type":"Feature"},
	{"geometry":{"coordinates":[-1.024946,51.443932],"type":"Point"},"properties":{"osm_id":"7020814241","tag":{"amenity":"waste_basket"}},"type":"Feature"},
	{"geometry":{"coordinates":[-1.01747,51.442612],"type":"Point"},"properties":{"osm_id":"7143487546","tag":{"amenity":"waste_basket"}},"type":"Feature"},
	{"geometry":{"coordinates":[-0.997061,51.449315],"type":"Point"},"properties":{"osm_id":"7175424793","tag":{"amenity":"waste_disposal"}},"type":"Feature"},
	{"geometry":{"coordinates":[-0.986092,51.434279],"type":"Point"},"properties":{"osm_id":"7185367688","tag":{"amenity":"waste_basket","waste":"trash"}},"type":"Feature"},
	{"geometry":{"coordinates":[-1.02382,51.444054],"type":"Point"},"properties":{"osm_id":"7417927889","tag":{"amenity":"waste_basket","indoor":"no","material":"metal","waste":"trash"}},"type":"Feature"},
	{"geometry":{"coordinates":[-0.973751,51.431818],"type":"Point"},"properties":{"osm_id":"7682368929","tag":{"amenity":"waste_basket"}},"type":"Feature"}
]
}
