{
"type": "FeatureCollection",
"features": [
	{"geometry":{"coordinates":[-0.999959,50.847996],"type":"Point"},"properties":{"osm_id":"179982903","tag":{"amenity":"recycling","designation":"Household Waste Recycling Centre"}},"type":"Feature"},
	{"geometry":{"coordinates":[-0.988323,50.849135],"type":"Point"},"properties":{"osm_id":"179984472","tag":{"amenity":"recycling"}},"type":"Feature"},
	{"geometry":{"coordinates":[-1.051974,50.885458],"type":"Point"},"properties":{"name":"Waterlooville Recycling Centre","osm_id":"472074171","tag":{"amenity":"recycling","recycling:paper":"yes","recycling_type":"centre"}},"type":"Feature"},
	{"geometry":{"coordinates":[-1.008031,50.887493],"type":"Point"},"properties":{"name":"Westbrook Centre","osm_id":"836858137","tag":{"amenity":"recycling"}},"type":"Feature"},
	{"geometry":{"coordinates":[-0.969007,50.850083],"type":"Point"},"properties":{"osm_id":"1075805376","tag":{"amenity":"recycling"}},"type":"Feature"},
	{"geometry":{"coordinates":[-0.977937,50.850898],"type":"Point"},"properties":{"osm_id":"1115329819","tag":{"amenity":"recycling","recycling:glass_bottles":"yes"}},"type":"Feature"},
	{"geometry":{"coordinates":[-0.995135,50.873083],"type":"Point"},"properties":{"osm_id":"4700073905","tag":{"amenity":"recycling","recycling_type":"container"}},"type":"Feature"},
	{"geometry":{"coordinates":[-1.031736,50.893025],"type":"Point"},"properties":{"osm_id":"4732391492","tag":{"amenity":"recycling","recycling:batteries":"no","recycling:cans":"no","recycling:cardboard":"no","recycling:clothes":"yes","recycling:electrical_appliances":"no","recycling:glass":"no","recycling:glass_bottles":"no","recycling:green_waste":"no","recycling:paper":"no","recycling:plastic":"no","recycling:plastic_bottles":"no","recycling:plastic_packaging":"no","recycling:scrap_metal":"no","recycling:shoes":"no","recycling:small_appliances":"no","recycling:waste":"no","recycling_type":"container"}},"type":"Feature"},
	{"geometry":{"coordinates":[-1.043982,50.866281],"type":"Point"},"properties":{"osm_id":"4751527821","tag":{"amenity":"recycling","recycling:books":"yes","recycling:clothes":"yes","recycling:glass":"yes","recycling:music":"yes","recycling:shoes":"yes","recycling_type":"container"}},"type":"Feature"},
	{"geometry":{"coordinates":[-1.046076,50.891036],"type":"Point"},"properties":{"osm_id":"4751762560","tag":{"amenity":"recycling","recycling:clothes":"yes","recycling_type":"container"}},"type":"Feature"},
	{"geometry":{"coordinates":[-1.046296,50.890952],"type":"Point"},"properties":{"osm_id":"4751764121","tag":{"amenity":"recycling","recycling:clothes":"yes","recycling:glass":"yes","recycling:shoes":"yes","recycling_type":"container"}},"type":"Feature"},
	{"geometry":{"coordinates":[-1.03559,50.897955],"type":"Point"},"properties":{"osm_id":"4768244721","tag":{"amenity":"recycling","recycling:clothes":"yes","recycling:shoes":"yes","recycling_type":"container"}},"type":"Feature"},
	{"geometry":{"coordinates":[-1.030338,50.873452],"type":"Point"},"properties":{"osm_id":"7929465356","tag":{"amenity":"waste_basket","colour":"green","covered":"yes","waste":"litter;dog_excrement"}},"type":"Feature"},
	{"geometry":{"coordinates":[-1.035315,50.877176],"type":"Point"},"properties":{"osm_id":"7929491093","tag":{"amenity":"waste_basket","ashtray":"no","colour":"blue","covered":"yes"}},"type":"Feature"},
	{"geometry":{"coordinates":[-1.03861,50.867832],"type":"Point"},"properties":{"osm_id":"7929504841","tag":{"amenity":"waste_basket","colour":"black","covered":"yes"}},"type":"Feature"},
	{"geometry":{"coordinates":[-1.031472,50.8721],"type":"Point"},"properties":{"osm_id":"7929511487","tag":{"amenity":"waste_basket","ashtray":"yes","colour":"black","covered":"yes","operator":"Havant Borough Council","waste":"litter;dog_excrement"}},"type":"Feature"},
	{"geometry":{"coordinates":[-1.041655,50.869221],"type":"Point"},"properties":{"osm_id":"7929513574","tag":{"amenity":"waste_basket","colour":"black","covered":"yes"}},"type":"Feature"},
	{"geometry":{"coordinates":[-1.00296,50.856845],"type":"Point"},"properties":{"osm_id":"7948017279","tag":{"amenity":"waste_basket","ashtray":"no","colour":"black","covered":"yes"}},"type":"Feature"},
	{"geometry":{"coordinates":[-1.034382,50.865343],"type":"Point"},"properties":{"osm_id":"7948178131","tag":{"amenity":"waste_basket","ashtray":"yes","colour":"black","covered":"yes","operator":"Havant Borough Council"}},"type":"Feature"},
	{"geometry":{"coordinates":[-1.038157,50.865728],"type":"Point"},"properties":{"osm_id":"7948187360","tag":{"amenity":"waste_basket","colour":"black","covered":"yes"}},"type":"Feature"},
	{"geometry":{"coordinates":[-1.012767,50.864849],"type":"Point"},"properties":{"osm_id":"7948751791","tag":{"amenity":"waste_basket","ashtray":"yes","colour":"black","covered":"yes","operator":"Havant Borough Council"}},"type":"Feature"},
	{"geometry":{"coordinates":[-1.00777,50.865899],"type":"Point"},"properties":{"osm_id":"7948766249","tag":{"amenity":"waste_basket","colour":"black","covered":"yes"}},"type":"Feature"},
	{"geometry":{"coordinates":[-1.021031,50.864366],"type":"Point"},"properties":{"osm_id":"7959605124","tag":{"amenity":"waste_basket","ashtray":"yes","colour":"black","covered":"yes","operator":"Havant Borough Council"}},"type":"Feature"},
	{"geometry":{"coordinates":[-1.035995,50.867273],"type":"Point"},"properties":{"osm_id":"7959605125","tag":{"amenity":"waste_basket","ashtray":"no","colour":"green","covered":"yes"}},"type":"Feature"},
	{"geometry":{"coordinates":[-1.026786,50.867868],"type":"Point"},"properties":{"osm_id":"7959640340","tag":{"amenity":"waste_basket","ashtray":"no","colour":"black","covered":"yes","operator":"Havant Borough Council"}},"type":"Feature"},
	{"geometry":{"coordinates":[-1.007462,50.863238],"type":"Point"},"properties":{"osm_id":"8089172315","tag":{"amenity":"waste_basket","ashtray":"yes","colour":"black","covered":"yes","operator":"Havant Borough Council"}},"type":"Feature"},
	{"geometry":{"coordinates":[-1.008958,50.860332],"type":"Point"},"properties":{"osm_id":"8089195259","tag":{"amenity":"waste_basket","ashtray":"yes","colour":"black","covered":"yes","operator":"Havant Borough Council"}},"type":"Feature"},
	{"geometry":{"coordinates":[-1.007615,50.858267],"type":"Point"},"properties":{"osm_id":"8121051482","tag":{"amenity":"waste_basket","colour":"green","covered":"no"}},"type":"Feature"},
	{"geometry":{"coordinates":[-1.014194,50.858314],"type":"Point"},"properties":{"osm_id":"8121060643","tag":{"amenity":"waste_basket","colour":"red","covered":"yes","waste":"dog_excrement"}},"type":"Feature"},
	{"geometry":{"coordinates":[-1.007615,50.858379],"type":"Point"},"properties":{"osm_id":"8121074157","tag":{"amenity":"waste_basket","colour":"green","covered":"no"}},"type":"Feature"},
	{"geometry":{"coordinates":[-0.989897,50.852709],"type":"Point"},"properties":{"osm_id":"8121112232","tag":{"amenity":"waste_basket","ashtray":"yes","colour":"black","covered":"yes"}},"type":"Feature"},
	{"geometry":{"coordinates":[-0.989406,50.852732],"type":"Point"},"properties":{"osm_id":"8121121223","tag":{"amenity":"waste_basket","ashtray":"no","colour":"black","covered":"yes"}},"type":"Feature"},
	{"geometry":{"coordinates":[-1.043913,50.869729],"type":"Point"},"properties":{"osm_id":"8155190946","tag":{"amenity":"waste_basket","ashtray":"no","covered":"yes"}},"type":"Feature"},
	{"geometry":{"coordinates":[-1.043911,50.869099],"type":"Point"},"properties":{"osm_id":"8155193949","tag":{"amenity":"waste_basket","ashtray":"no","colour":"blue","covered":"yes"}},"type":"Feature"},
	{"geometry":{"coordinates":[-1.044152,50.870218],"type":"Point"},"properties":{"osm_id":"8155209132","tag":{"amenity":"waste_basket","ashtray":"no","colour":"black","covered":"yes"}},"type":"Feature"},
	{"geometry":{"coordinates":[-1.035183,50.877443],"type":"Point"},"properties":{"osm_id":"8176970796","tag":{"amenity":"waste_basket","ashtray":"no","colour":"blue","covered":"yes"}},"type":"Feature"},
	{"geometry":{"coordinates":[-1.037907,50.875389],"type":"Point"},"properties":{"osm_id":"8177010167","tag":{"amenity":"waste_basket","ashtray":"no","colour":"blue","covered":"yes"}},"type":"Feature"},
	{"geometry":{"coordinates":[-1.042179,50.873477],"type":"Point"},"properties":{"osm_id":"8177019731","tag":{"amenity":"waste_basket","ashtray":"no","colour":"blue","covered":"yes"}},"type":"Feature"},
	{"geometry":{"coordinates":[-1.041023,50.873654],"type":"Point"},"properties":{"osm_id":"8177024663","tag":{"amenity":"waste_basket","ashtray":"no","colour":"blue","covered":"yes"}},"type":"Feature"},
	{"geometry":{"coordinates":[-1.037534,50.875794],"type":"Point"},"properties":{"osm_id":"8177034627","tag":{"amenity":"waste_basket","ashtray":"no","colour":"blue","covered":"yes"}},"type":"Feature"},
	{"geometry":{"coordinates":[-1.044765,50.867335],"type":"Point"},"properties":{"osm_id":"8333994688","tag":{"amenity":"waste_basket","ashtray":"no","colour":"black","covered":"yes"}},"type":"Feature"},
	{"geometry":{"coordinates":[-1.034465,50.869516],"type":"Point"},"properties":{"osm_id":"8429448871","tag":{"amenity":"waste_basket","colour":"green"}},"type":"Feature"},
	{"geometry":{"coordinates":[-1.035015,50.868771],"type":"Point"},"properties":{"osm_id":"8429468043","tag":{"amenity":"waste_basket","colour":"green"}},"type":"Feature"},
	{"geometry":{"coordinates":[-1.035232,50.861843],"type":"Point"},"properties":{"osm_id":"8461264390","tag":{"amenity":"waste_basket","colour":"green","waste":"litter;dog_excrement"}},"type":"Feature"},
	{"geometry":{"coordinates":[-1.04394,50.866269],"type":"Point"},"properties":{"osm_id":"8461274541","tag":{"amenity":"waste_basket","ashtray":"yes","colour":"black","operator":"Havant Borough Council"}},"type":"Feature"},
	{"geometry":{"coordinates":[-1.041806,50.865676],"type":"Point"},"properties":{"osm_id":"8461285096","tag":{"amenity":"waste_basket","colour":"black"}},"type":"Feature"},
	{"geometry":{"coordinates":[-1.041076,50.86478],"type":"Point"},"properties":{"osm_id":"8461286821","tag":{"amenity":"waste_basket","colour":"black"}},"type":"Feature"},
	{"geometry":{"coordinates":[-1.043174,50.865995],"type":"Point"},"properties":{"osm_id":"8461296521","tag":{"amenity":"waste_basket","colour":"green","covered":"no"}},"type":"Feature"},
	{"geometry":{"coordinates":[-1.043322,50.866392],"type":"Point"},"properties":{"osm_id":"8461300399","tag":{"amenity":"waste_basket","colour":"green","covered":"yes","waste":"dog_excrement;litter"}},"type":"Feature"},
	{"geometry":{"coordinates":[-1.035265,50.877772],"type":"Point"},"properties":{"osm_id":"8468071483","tag":{"amenity":"waste_basket","ashtray":"no","colour":"black","covered":"yes"}},"type":"Feature"},
	{"geometry":{"coordinates":[-1.037927,50.876554],"type":"Point"},"properties":{"osm_id":"8477173766","tag":{"amenity":"waste_basket","colour":"black","covered":"yes","material":"metal"}},"type":"Feature"},
	{"geometry":{"coordinates":[-0.980989,50.866167],"type":"Point"},"properties":{"osm_id":"8493382370","tag":{"amenity":"waste_basket","colour":"green","covered":"yes","waste":"litter;dog_excrement"}},"type":"Feature"},
	{"geometry":{"coordinates":[-1.033305,50.880604],"type":"Point"},"properties":{"osm_id":"8494249907","tag":{"amenity":"waste_basket","ashtray":"yes","colour":"black","covered":"yes","operator":"Havant Borough Council"}},"type":"Feature"},
	{"geometry":{"coordinates":[-1.02182,50.878737],"type":"Point"},"properties":{"osm_id":"8501444504","tag":{"amenity":"waste_basket","ashtray":"yes","colour":"black","covered":"yes","operator":"Havant Borough Council"}},"type":"Feature"},
	{"geometry":{"coordinates":[-1.027345,50.872918],"type":"Point"},"properties":{"osm_id":"8501462924","tag":{"amenity":"waste_basket","ashtray":"no","colour":"black","covered":"yes"}},"type":"Feature"},
	{"geometry":{"coordinates":[-1.027084,50.873436],"type":"Point"},"properties":{"osm_id":"8501471668","tag":{"amenity":"waste_basket","colour":"green","covered":"no"}},"type":"Feature"},
	{"geometry":{"coordinates":[-1.037248,50.868381],"type":"Point"},"properties":{"osm_id":"8515457560","tag":{"amenity":"waste_basket","ashtray":"yes","colour":"black","covered":"yes","operator":"Havant Borough Council"}},"type":"Feature"},
	{"geometry":{"coordinates":[-1.044751,50.865747],"type":"Point"},"properties":{"osm_id":"8521311483","tag":{"amenity":"waste_basket","colour":"green","covered":"yes"}},"type":"Feature"},
	{"geometry":{"coordinates":[-1.052924,50.854399],"type":"Point"},"properties":{"osm_id":"8521311569","tag":{"amenity":"waste_basket","colour":"blue","covered":"yes"}},"type":"Feature"},
	{"geometry":{"coordinates":[-1.050098,50.857799],"type":"Point"},"properties":{"osm_id":"8521318099","tag":{"amenity":"waste_basket","colour":"black","covered":"yes"}},"type":"Feature"},
	{"geometry":{"coordinates":[-1.035406,50.868892],"type":"Point"},"properties":{"osm_id":"8545224489","tag":{"amenity":"waste_basket","colour":"green","covered":"no"}},"type":"Feature"},
	{"geometry":{"coordinates":[-1.03533,50.868816],"type":"Point"},"properties":{"osm_id":"8545264127","tag":{"amenity":"waste_basket","colour":"green","covered":"no"}},"type":"Feature"},
	{"geometry":{"coordinates":[-1.042067,50.880405],"type":"Point"},"properties":{"osm_id":"8551210812","tag":{"amenity":"waste_basket","ashtray":"no","colour":"black","covered":"yes"}},"type":"Feature"},
	{"geometry":{"coordinates":[-1.037594,50.86818],"type":"Point"},"properties":{"osm_id":"8551227702","tag":{"amenity":"waste_basket","ashtray":"yes","colour":"black","covered":"yes","operator":"Havant Borough Council"}},"type":"Feature"},
	{"geometry":{"coordinates":[-1.03881,50.880472],"type":"Point"},"properties":{"osm_id":"8551256933","tag":{"amenity":"waste_basket","ashtray":"no","colour":"black","covered":"yes"}},"type":"Feature"},
	{"geometry":{"coordinates":[-1.035893,50.881514],"type":"Point"},"properties":{"osm_id":"8551405612","tag":{"amenity":"waste_basket","colour":"black","covered":"yes"}},"type":"Feature"},
	{"geometry":{"coordinates":[-1.035005,50.881469],"type":"Point"},"properties":{"osm_id":"8551425151","tag":{"amenity":"waste_basket","colour":"black","covered":"yes"}},"type":"Feature"},
	{"geometry":{"coordinates":[-1.048158,50.860797],"type":"Point"},"properties":{"osm_id":"8551629772","tag":{"amenity":"waste_basket","colour":"blue","covered":"yes"}},"type":"Feature"},
	{"geometry":{"coordinates":[-1.048036,50.860448],"type":"Point"},"properties":{"osm_id":"8551652106","tag":{"amenity":"waste_basket","colour":"blue","covered":"yes"}},"type":"Feature"},
	{"geometry":{"coordinates":[-1.051138,50.85575],"type":"Point"},"properties":{"osm_id":"8551659033","tag":{"amenity":"waste_basket","covered":"yes"}},"type":"Feature"},
	{"geometry":{"coordinates":[-1.051085,50.856059],"type":"Point"},"properties":{"osm_id":"8551660937","tag":{"amenity":"waste_basket","covered":"yes"}},"type":"Feature"},
	{"geometry":{"coordinates":[-1.046986,50.864775],"type":"Point"},"properties":{"osm_id":"8551663677","tag":{"amenity":"waste_basket","colour":"blue","covered":"yes"}},"type":"Feature"},
	{"geometry":{"coordinates":[-1.046976,50.863429],"type":"Point"},"properties":{"osm_id":"8551670240","tag":{"amenity":"waste_basket","colour":"blue","covered":"yes"}},"type":"Feature"},
	{"geometry":{"coordinates":[-1.03284,50.869895],"type":"Point"},"properties":{"osm_id":"8551671065","tag":{"amenity":"waste_basket","ashtray":"no","colour":"green","covered":"yes"}},"type":"Feature"},
	{"geometry":{"coordinates":[-1.049407,50.858793],"type":"Point"},"properties":{"osm_id":"8551679840","tag":{"amenity":"waste_basket","covered":"yes"}},"type":"Feature"},
	{"geometry":{"coordinates":[-1.049475,50.858407],"type":"Point"},"properties":{"osm_id":"8551682717","tag":{"amenity":"waste_basket","covered":"yes"}},"type":"Feature"},
	{"geometry":{"coordinates":[-1.033216,50.869865],"type":"Point"},"properties":{"osm_id":"8551688230","tag":{"amenity":"waste_basket","covered":"no"}},"type":"Feature"},
	{"geometry":{"coordinates":[-1.023038,50.848161],"type":"Point"},"properties":{"osm_id":"8599213483","tag":{"amenity":"waste_basket","colour":"black","covered":"yes","operator":"Havant Borough Council"}},"type":"Feature"},
	{"geometry":{"coordinates":[-1.024193,50.847827],"type":"Point"},"properties":{"osm_id":"8599240947","tag":{"amenity":"waste_basket","colour":"black","covered":"yes"}},"type":"Feature"},
	{"geometry":{"coordinates":[-0.979558,50.861552],"type":"Point"},"properties":{"osm_id":"8599265999","tag":{"amenity":"waste_basket","colour":"green","covered":"no"}},"type":"Feature"},
	{"geometry":{"coordinates":[-1.035872,50.879209],"type":"Point"},"properties":{"osm_id":"8613898650","tag":{"amenity":"recycling","operator":"The Fire Fighters Charity","recycling:clothes":"yes","recycling:shoes":"yes","recycling_type":"container","website":"www.firefighterscharity.org.uk"}},"type":"Feature"},
	{"geometry":{"coordinates":[-1.038135,50.885221],"type":"Point"},"properties":{"osm_id":"8613917923","tag":{"amenity":"waste_basket","ashtray":"yes","colour":"black","covered":"yes","operator":"Havant Borough Council"}},"type":"Feature"},
	{"geometry":{"coordinates":[-0.992521,50.865086],"type":"Point"},"properties":{"osm_id":"8635601015","tag":{"amenity":"waste_basket","ashtray":"yes","colour":"black","covered":"yes","operator":"Havant Borough Council"}},"type":"Feature"},
	{"geometry":{"coordinates":[-1.027953,50.860292],"type":"Point"},"properties":{"osm_id":"8635632846","tag":{"amenity":"waste_basket","colour":"black","covered":"yes"}},"type":"Feature"},
	{"geometry":{"coordinates":[-1.018645,50.871347],"type":"Point"},"properties":{"osm_id":"8635669621","tag":{"amenity":"waste_basket","colour":"black","covered":"yes"}},"type":"Feature"},
	{"geometry":{"coordinates":[-1.022685,50.870206],"type":"Point"},"properties":{"osm_id":"8635709422","tag":{"amenity":"waste_basket","covered":"no"}},"type":"Feature"},
	{"geometry":{"coordinates":[-1.029199,50.882026],"type":"Point"},"properties":{"osm_id":"8635733184","tag":{"amenity":"waste_basket","colour":"blue","covered":"yes"}},"type":"Feature"},
	{"geometry":{"coordinates":[-1.029742,50.860563],"type":"Point"},"properties":{"osm_id":"8645118832","tag":{"amenity":"waste_basket","colour":"black","covered":"yes"}},"type":"Feature"},
	{"geometry":{"coordinates":[-1.041979,50.870057],"type":"Point"},"properties":{"osm_id":"8645131131","tag":{"amenity":"waste_basket","covered":"no"}},"type":"Feature"},
	{"geometry":{"coordinates":[-1.028928,50.860114],"type":"Point"},"properties":{"osm_id":"8645132155","tag":{"amenity":"waste_basket","colour":"black","covered":"yes"}},"type":"Feature"},
	{"geometry":{"coordinates":[-1.022477,50.862158],"type":"Point"},"properties":{"osm_id":"8645134365","tag":{"amenity":"waste_basket","colour":"green"}},"type":"Feature"},
	{"geometry":{"coordinates":[-0.985608,50.865304],"type":"Point"},"properties":{"osm_id":"8645168672","tag":{"amenity":"waste_basket","colour":"green","covered":"yes"}},"type":"Feature"},
	{"geometry":{"coordinates":[-0.984736,50.853216],"type":"Point"},"properties":{"osm_id":"8660562425","tag":{"amenity":"waste_basket","colour":"black","covered":"yes"}},"type":"Feature"},
	{"geometry":{"coordinates":[-0.989739,50.859151],"type":"Point"},"properties":{"osm_id":"8660566151","tag":{"amenity":"waste_basket","colour":"green","covered":"yes"}},"type":"Feature"},
	{"geometry":{"coordinates":[-0.98421,50.852826],"type":"Point"},"properties":{"osm_id":"8660592677","tag":{"amenity":"waste_basket","colour":"green","covered":"no"}},"type":"Feature"},
	{"geometry":{"coordinates":[-0.986223,50.856166],"type":"Point"},"properties":{"osm_id":"8660597496","tag":{"amenity":"waste_basket","ashtray":"yes","colour":"black","covered":"yes","operator":"Havant Borough Council","waste":"litter;dog_excrement"}},"type":"Feature"},
	{"geometry":{"coordinates":[-0.981331,50.852261],"type":"Point"},"properties":{"osm_id":"8685571710","tag":{"amenity":"waste_basket","colour":"black","covered":"yes"}},"type":"Feature"},
	{"geometry":{"coordinates":[-0.979597,50.851728],"type":"Point"},"properties":{"osm_id":"8685599460","tag":{"amenity":"waste_basket","ashtray":"no","colour":"black","covered":"yes"}},"type":"Feature"},
	{"geometry":{"coordinates":[-0.978008,50.850879],"type":"Point"},"properties":{"osm_id":"8685604430","tag":{"amenity":"waste_basket","colour":"black","covered":"yes"}},"type":"Feature"},
	{"geometry":{"coordinates":[-0.980458,50.852134],"type":"Point"},"properties":{"osm_id":"8685625244","tag":{"amenity":"waste_basket","colour":"black","covered":"yes"}},"type":"Feature"},
	{"geometry":{"coordinates":[-0.981467,50.852265],"type":"Point"},"properties":{"osm_id":"8685627270","tag":{"amenity":"waste_basket","colour":"black","covered":"yes"}},"type":"Feature"},
	{"geometry":{"coordinates":[-0.97681,50.860134],"type":"Point"},"properties":{"osm_id":"8715236302","tag":{"amenity":"waste_basket","colour":"black","covered":"yes"}},"type":"Feature"},
	{"geometry":{"coordinates":[-1.013129,50.883054],"type":"Point"},"properties":{"osm_id":"8715295819","tag":{"amenity":"waste_basket","colour":"black","covered":"yes"}},"type":"Feature"},
	{"geometry":{"coordinates":[-1.012106,50.890751],"type":"Point"},"properties":{"osm_id":"8715322636","tag":{"amenity":"waste_basket","colour":"black","covered":"yes"}},"type":"Feature"},
	{"geometry":{"coordinates":[-1.0415,50.883029],"type":"Point"},"properties":{"osm_id":"8758169880","tag":{"amenity":"waste_basket","ashtray":"yes","colour":"black","covered":"yes","operator":"Havant Borough Council"}},"type":"Feature"},
	{"geometry":{"coordinates":[-0.983746,50.865971],"type":"Point"},"properties":{"osm_id":"8999026617","tag":{"amenity":"recycling","recycling:clothes":"yes","recycling:glass":"yes","recycling:shoes":"yes","recycling_type":"container"}},"type":"Feature"},
	{"geometry":{"coordinates":[-0.999426,50.864824],"type":"Point"},"properties":{"osm_id":"9008346796","tag":{"amenity":"waste_basket","colour":"black","covered":"yes"}},"type":"Feature"},
	{"geometry":{"coordinates":[-0.999724,50.865122],"type":"Point"},"properties":{"osm_id":"9008355387","tag":{"amenity":"recycling","recycling:glass":"yes","recycling_type":"container"}},"type":"Feature"},
	{"geometry":{"coordinates":[-0.996644,50.864269],"type":"Point"},"properties":{"osm_id":"9008363247","tag":{"amenity":"waste_basket","colour":"black","covered":"yes"}},"type":"Feature"},
	{"geometry":{"coordinates":[-0.985231,50.853277],"type":"Point"},"properties":{"osm_id":"9008375848","tag":{"amenity":"recycling","recycling:books_and_music":"yes","recycling:clothes":"yes","recycling:glass":"yes","recycling_type":"container"}},"type":"Feature"},
	{"geometry":{"coordinates":[-1.00699,50.867266],"type":"Point"},"properties":{"osm_id":"9008390176","tag":{"amenity":"waste_basket","colour":"green","covered":"yes"}},"type":"Feature"},
	{"geometry":{"coordinates":[-0.994583,50.863845],"type":"Point"},"properties":{"osm_id":"9029722846","tag":{"amenity":"waste_basket","colour":"green","covered":"yes"}},"type":"Feature"},
	{"geometry":{"coordinates":[-0.994241,50.861526],"type":"Point"},"properties":{"osm_id":"9029722848","tag":{"amenity":"waste_basket","colour":"black","covered":"yes"}},"type":"Feature"},
	{"geometry":{"coordinates":[-1.032532,50.892283],"type":"Point"},"properties":{"osm_id":"9125046563","tag":{"amenity":"waste_basket","ashtray":"yes","colour":"black","covered":"yes","operator":"Havant Borough Council","waste":"dog_excrement;litter"}},"type":"Feature"},
	{"geometry":{"coordinates":[-1.03305,50.880266],"type":"Point"},"properties":{"osm_id":"9125340872","tag":{"amenity":"waste_basket","colour":"black","operator":"Havant Borough Council","waste":"litter;dog_excrement"}},"type":"Feature"},
	{"geometry":{"coordinates":[-1.030886,50.858012],"type":"Point"},"properties":{"osm_id":"9125415366","tag":{"amenity":"waste_basket","colour":"black","covered":"yes","operator":"Havant Borough Council","waste":"litter;dog_excrement"}},"type":"Feature"},
	{"geometry":{"coordinates":[-1.029343,50.860414],"type":"Point"},"properties":{"osm_id":"9125423596","tag":{"amenity":"waste_basket","colour":"black","covered":"yes","operator":"Havant Borough Council","waste":"litter;dog_excrement"}},"type":"Feature"},
	{"geometry":{"coordinates":[-0.984619,50.851375],"type":"Point"},"properties":{"osm_id":"9152273074","tag":{"amenity":"waste_basket","colour":"black","covered":"yes","operator":"Havant Borough Council","waste":"litter;dog_excrement"}},"type":"Feature"},
	{"geometry":{"coordinates":[-0.985057,50.852188],"type":"Point"},"properties":{"osm_id":"9152288436","tag":{"amenity":"waste_basket","colour":"black","covered":"yes","operator":"Havant Borough Council","waste":"litter;dog_excrement"}},"type":"Feature"},
	{"geometry":{"coordinates":[-0.984139,50.85244],"type":"Point"},"properties":{"osm_id":"9152293434","tag":{"amenity":"waste_basket","colour":"black","covered":"yes","operator":"Havant Borough Council","waste":"litter;dog_excrement"}},"type":"Feature"},
	{"geometry":{"coordinates":[-0.986252,50.84981],"type":"Point"},"properties":{"osm_id":"9152294522","tag":{"amenity":"waste_basket","colour":"black","covered":"yes","operator":"Havant Borough Council","waste":"litter;dog_excrement"}},"type":"Feature"},
	{"geometry":{"coordinates":[-0.984994,50.851743],"type":"Point"},"properties":{"osm_id":"9152298382","tag":{"amenity":"waste_basket","colour":"black","covered":"yes","operator":"Havant Borough Council","waste":"litter;dog_excrement"}},"type":"Feature"},
	{"geometry":{"coordinates":[-0.983317,50.852415],"type":"Point"},"properties":{"osm_id":"9152299430","tag":{"amenity":"waste_basket","colour":"black","covered":"yes","operator":"Havant Borough Council","waste":"litter;dog_excrement"}},"type":"Feature"},
	{"geometry":{"coordinates":[-0.982631,50.853228],"type":"Point"},"properties":{"osm_id":"9152305469","tag":{"amenity":"waste_basket","colour":"black","covered":"yes","operator":"Havant Borough Council","waste":"litter;dog_excrement"}},"type":"Feature"},
	{"geometry":{"coordinates":[-0.982752,50.853154],"type":"Point"},"properties":{"osm_id":"9152306821","tag":{"amenity":"waste_basket","colour":"green","covered":"no","waste":"litter;dog_excrement"}},"type":"Feature"}
]
}
