{
"type": "FeatureCollection",
"features": [
	{"geometry":{"coordinates":[-1.053315,50.83561],"type":"Point"},"properties":{"osm_id":"360658607","tag":{"amenity":"recycling","recycling:books":"yes","recycling:clothes":"yes","recycling:music":"yes","recycling:shoes":"yes"}},"type":"Feature"},
	{"geometry":{"coordinates":[-1.050032,50.840833],"type":"Point"},"properties":{"osm_id":"360663267","tag":{"amenity":"recycling"}},"type":"Feature"},
	{"geometry":{"coordinates":[-1.040755,50.794563],"type":"Point"},"properties":{"osm_id":"1484889127","tag":{"amenity":"recycling","recycling_type":"container"}},"type":"Feature"},
	{"geometry":{"coordinates":[-1.040676,50.841367],"type":"Point"},"properties":{"osm_id":"1485721712","tag":{"amenity":"recycling"}},"type":"Feature"},
	{"geometry":{"coordinates":[-1.047787,50.825841],"type":"Point"},"properties":{"osm_id":"1496378571","tag":{"amenity":"recycling","recycling_type":"container"}},"type":"Feature"},
	{"geometry":{"coordinates":[-1.047374,50.806002],"type":"Point"},"properties":{"osm_id":"4738679645","tag":{"amenity":"recycling","recycling:clothes":"yes","recycling:glass":"yes","recycling:shoes":"yes","recycling_type":"container"}},"type":"Feature"},
	{"geometry":{"coordinates":[-1.047481,50.806065],"type":"Point"},"properties":{"osm_id":"4738680901","tag":{"amenity":"recycling","recycling:books":"yes","recycling:music":"yes","recycling_type":"container"}},"type":"Feature"},
	{"geometry":{"coordinates":[-1.041433,50.839457],"type":"Point"},"properties":{"osm_id":"5070143053","tag":{"amenity":"recycling","recycling:glass":"yes","recycling:paper":"yes","recycling:plastics":"yes","recycling_type":"container"}},"type":"Feature"},
	{"geometry":{"coordinates":[-1.049391,50.831667],"type":"Point"},"properties":{"osm_id":"6003747208","tag":{"amenity":"waste_basket","waste":"dog_excrement"}},"type":"Feature"},
	{"geometry":{"coordinates":[-1.052751,50.824298],"type":"Point"},"properties":{"name":"H & E car spares and scrap yard","osm_id":"7335698332","tag":{"amenity":"recycling"}},"type":"Feature"},
	{"geometry":{"coordinates":[-1.03208,50.847488],"type":"Point"},"properties":{"osm_id":"8551419010","tag":{"amenity":"waste_basket","colour":"blue","covered":"yes"}},"type":"Feature"},
	{"geometry":{"coordinates":[-1.036898,50.845764],"type":"Point"},"properties":{"osm_id":"8572977022","tag":{"amenity":"waste_basket","colour":"red","covered":"yes","waste":"dog_excrement"}},"type":"Feature"},
	{"geometry":{"coordinates":[-1.041338,50.844089],"type":"Point"},"properties":{"osm_id":"8573012200","tag":{"amenity":"waste_basket","colour":"red","covered":"yes","litter":"Dog waste only and not for litter.","operator":"Portsmouth City Council","waste":"dog_excrement"}},"type":"Feature"},
	{"geometry":{"coordinates":[-1.044253,50.84414],"type":"Point"},"properties":{"osm_id":"8573020937","tag":{"amenity":"waste_basket","colour":"red","covered":"yes","litter":"Dog waste only and not for litter.","operator":"Portsmouth City Council","waste":"dog_excrement"}},"type":"Feature"},
	{"geometry":{"coordinates":[-1.049012,50.846692],"type":"Point"},"properties":{"osm_id":"8573030574","tag":{"amenity":"waste_basket","ashtray":"no","colour":"blue","covered":"yes"}},"type":"Feature"},
	{"geometry":{"coordinates":[-0.967407,50.834415],"type":"Point"},"properties":{"osm_id":"9001990205","tag":{"amenity":"waste_basket","waste":"dog_excrement"}},"type":"Feature"},
	{"geometry":{"coordinates":[-0.968199,50.83352],"type":"Point"},"properties":{"osm_id":"9001990206","tag":{"amenity":"waste_basket","waste":"dog_excrement"}},"type":"Feature"}
]
}
