{
"type": "FeatureCollection",
"features": [
	{"geometry":{"coordinates":[-0.985713,46.301625],"type":"Point"},"properties":{"name":"D\u00c3\u00a9ch\u00c3\u00a8terie Vals Aunis Marans 17","osm_id":"1754991234","tag":{"amenity":"recycling","operator":"Smictom Vals Aunis","recycling_type":"centre"}},"type":"Feature"},
	{"geometry":{"coordinates":[-0.991504,46.3096],"type":"Point"},"properties":{"osm_id":"3340723422","tag":{"amenity":"recycling","recycling:glass":"yes","recycling:paper":"yes"}},"type":"Feature"},
	{"geometry":{"coordinates":[-1.004798,46.263316],"type":"Point"},"properties":{"osm_id":"5826965575","tag":{"amenity":"recycling"}},"type":"Feature"},
	{"geometry":{"coordinates":[-0.996841,46.312838],"type":"Point"},"properties":{"osm_id":"6676108129","tag":{"amenity":"waste_basket"}},"type":"Feature"},
	{"geometry":{"coordinates":[-0.99318,46.310097],"type":"Point"},"properties":{"osm_id":"6676108134","tag":{"amenity":"waste_basket"}},"type":"Feature"},
	{"geometry":{"coordinates":[-0.989688,46.314316],"type":"Point"},"properties":{"osm_id":"8644503183","tag":{"amenity":"waste_disposal"}},"type":"Feature"},
	{"geometry":{"coordinates":[-0.987958,46.314187],"type":"Point"},"properties":{"osm_id":"8644517385","tag":{"amenity":"waste_basket"}},"type":"Feature"},
	{"geometry":{"coordinates":[-0.987376,46.31416],"type":"Point"},"properties":{"osm_id":"8644542526","tag":{"amenity":"waste_disposal"}},"type":"Feature"},
	{"geometry":{"coordinates":[-0.988472,46.314211],"type":"Point"},"properties":{"osm_id":"8644545360","tag":{"amenity":"waste_disposal"}},"type":"Feature"},
	{"geometry":{"coordinates":[-0.988833,46.314261],"type":"Point"},"properties":{"osm_id":"8644546333","tag":{"amenity":"waste_disposal"}},"type":"Feature"},
	{"geometry":{"coordinates":[-0.989595,46.313782],"type":"Point"},"properties":{"osm_id":"8644547307","tag":{"amenity":"waste_disposal"}},"type":"Feature"},
	{"geometry":{"coordinates":[-0.990458,46.314408],"type":"Point"},"properties":{"osm_id":"8644553748","tag":{"amenity":"waste_disposal"}},"type":"Feature"},
	{"geometry":{"coordinates":[-0.987748,46.314128],"type":"Point"},"properties":{"osm_id":"8644554171","tag":{"amenity":"waste_disposal"}},"type":"Feature"},
	{"geometry":{"coordinates":[-0.989212,46.313766],"type":"Point"},"properties":{"osm_id":"8644557538","tag":{"amenity":"waste_disposal"}},"type":"Feature"},
	{"geometry":{"coordinates":[-0.989021,46.313757],"type":"Point"},"properties":{"osm_id":"8644574292","tag":{"amenity":"waste_disposal"}},"type":"Feature"},
	{"geometry":{"coordinates":[-0.988596,46.313707],"type":"Point"},"properties":{"osm_id":"8644575651","tag":{"amenity":"waste_disposal"}},"type":"Feature"},
	{"geometry":{"coordinates":[-0.990247,46.31383],"type":"Point"},"properties":{"osm_id":"8644575925","tag":{"amenity":"waste_disposal"}},"type":"Feature"}
]
}
