{
"type": "FeatureCollection",
"features": [
	{"geometry":{"coordinates":[-0.991669,43.85483],"type":"Point"},"properties":{"osm_id":"8043856577","tag":{"amenity":"recycling","operator":"Sietom de Chalossse","recycling:batteries":"yes","recycling:glass_bottles":"yes","recycling:paper":"yes","recycling:plastic_bottles":"yes","recycling:plastic_packaging":"yes","recycling_type":"container","website":"https://www.sietomdechalosse.fr/"}},"type":"Feature"},
	{"geometry":{"coordinates":[-0.995892,43.855657],"type":"Point"},"properties":{"osm_id":"8454856261","tag":{"amenity":"waste_disposal"}},"type":"Feature"},
	{"geometry":{"coordinates":[-0.994547,43.854825],"type":"Point"},"properties":{"osm_id":"8454856264","tag":{"amenity":"waste_basket"}},"type":"Feature"},
	{"geometry":{"coordinates":[-0.996693,43.857458],"type":"Point"},"properties":{"osm_id":"8454856279","tag":{"amenity":"waste_disposal"}},"type":"Feature"},
	{"geometry":{"coordinates":[-0.993726,43.853908],"type":"Point"},"properties":{"osm_id":"8457813510","tag":{"amenity":"waste_basket"}},"type":"Feature"},
	{"geometry":{"coordinates":[-0.993962,43.854129],"type":"Point"},"properties":{"osm_id":"8457813512","tag":{"amenity":"waste_basket"}},"type":"Feature"},
	{"geometry":{"coordinates":[-0.993592,43.853585],"type":"Point"},"properties":{"osm_id":"8458047041","tag":{"amenity":"waste_basket"}},"type":"Feature"},
	{"geometry":{"coordinates":[-0.993135,43.853548],"type":"Point"},"properties":{"osm_id":"8458047061","tag":{"amenity":"waste_disposal"}},"type":"Feature"},
	{"geometry":{"coordinates":[-0.994182,43.85336],"type":"Point"},"properties":{"osm_id":"8458047066","tag":{"amenity":"waste_disposal"}},"type":"Feature"},
	{"geometry":{"coordinates":[-0.99318,43.856409],"type":"Point"},"properties":{"osm_id":"8458047082","tag":{"amenity":"waste_disposal"}},"type":"Feature"},
	{"geometry":{"coordinates":[-0.986378,43.848932],"type":"Point"},"properties":{"osm_id":"8458058653","tag":{"amenity":"waste_disposal"}},"type":"Feature"},
	{"geometry":{"coordinates":[-0.993701,43.852595],"type":"Point"},"properties":{"osm_id":"8458064593","tag":{"amenity":"waste_disposal"}},"type":"Feature"},
	{"geometry":{"coordinates":[-0.994737,43.852564],"type":"Point"},"properties":{"name":"Point tri du chateau d'eau","osm_id":"8458064598","tag":{"amenity":"recycling","operator":"SIETOM de Chalosse","recycling:batteries":"yes","recycling:glass":"yes","recycling:plastic":"yes","recycling:shoes":"yes","recycling_type":"container"}},"type":"Feature"},
	{"geometry":{"coordinates":[-0.995401,43.853255],"type":"Point"},"properties":{"name":"Point tri salle des f\u00c3\u00aates de Laluque","osm_id":"8510333406","tag":{"amenity":"recycling","operator":"SIETOM de Chalosse","recycling:glass_bottles":"yes","recycling_type":"container"}},"type":"Feature"},
	{"geometry":{"coordinates":[-0.994565,43.851062],"type":"Point"},"properties":{"osm_id":"8515256026","tag":{"amenity":"waste_disposal","waste":"household"}},"type":"Feature"},
	{"geometry":{"coordinates":[-0.994539,43.851049],"type":"Point"},"properties":{"osm_id":"8515256027","tag":{"amenity":"waste_disposal","waste":"household"}},"type":"Feature"},
	{"geometry":{"coordinates":[-0.991044,43.855371],"type":"Point"},"properties":{"osm_id":"8578719349","tag":{"amenity":"waste_disposal"}},"type":"Feature"},
	{"geometry":{"coordinates":[-0.991015,43.855354],"type":"Point"},"properties":{"osm_id":"8578719350","tag":{"amenity":"waste_disposal"}},"type":"Feature"},
	{"geometry":{"coordinates":[-0.990982,43.855335],"type":"Point"},"properties":{"osm_id":"8578719351","tag":{"amenity":"waste_disposal"}},"type":"Feature"},
	{"geometry":{"coordinates":[-0.991614,43.854825],"type":"Point"},"properties":{"osm_id":"8578728996","tag":{"amenity":"waste_basket"}},"type":"Feature"},
	{"geometry":{"coordinates":[-0.995207,43.853615],"type":"Point"},"properties":{"osm_id":"8586526810","tag":{"amenity":"waste_disposal"}},"type":"Feature"}
]
}
