{
"type": "FeatureCollection",
"features": [
	{"geometry":{"coordinates":[-1.053543,43.722893],"type":"Point"},"properties":{"name":"La Poste","osm_id":"3396816925","tag":{"amenity":"recycling","mapillary":"PaOPvqVDveVTiAMgyc98NA","operator":"SITCOM - C\u00c3\u00b4te sud des Landes","operator:wikidata":"Q90819597","recycling:batteries":"yes","recycling:beverage_cartons":"yes","recycling:cans":"yes","recycling:glass_bottles":"yes","recycling:paper":"yes","recycling:paper_packaging":"yes","recycling:plastic_bottles":"yes","recycling_type":"container","ref:FR:SITCOM":"PAV-374496"}},"type":"Feature"},
	{"geometry":{"coordinates":[-1.051616,43.722191],"type":"Point"},"properties":{"osm_id":"3396817200","tag":{"amenity":"waste_basket"}},"type":"Feature"},
	{"geometry":{"coordinates":[-1.050737,43.724171],"type":"Point"},"properties":{"osm_id":"5236111926","tag":{"amenity":"waste_basket"}},"type":"Feature"},
	{"geometry":{"coordinates":[-1.049515,43.720503],"type":"Point"},"properties":{"name":"Gare Routiere","osm_id":"5297864919","tag":{"amenity":"recycling","operator":"SITCOM - C\u00c3\u00b4te sud des Landes","operator:wikidata":"Q90819597","recycling:glass_bottles":"yes","recycling:paper":"yes","recycling:plastic_bottles":"yes","recycling_type":"container","ref:FR:SITCOM":"PAV-465543"}},"type":"Feature"},
	{"geometry":{"coordinates":[-1.052062,43.722897],"type":"Point"},"properties":{"name":"Fourcade","osm_id":"5791781011","tag":{"amenity":"recycling","mapillary":"-4O5Uspjr9QMmqppuBItXQ","operator":"SITCOM - C\u00c3\u00b4te sud des Landes","operator:wikidata":"Q90819597","recycling:glass_bottles":"yes","recycling_type":"container","ref:FR:SITCOM":"PAV-463341"}},"type":"Feature"},
	{"geometry":{"coordinates":[-1.015311,43.742771],"type":"Point"},"properties":{"osm_id":"5969440712","tag":{"amenity":"waste_basket"}},"type":"Feature"},
	{"geometry":{"coordinates":[-1.017271,43.743305],"type":"Point"},"properties":{"osm_id":"5969440713","tag":{"amenity":"waste_basket"}},"type":"Feature"},
	{"geometry":{"coordinates":[-1.017541,43.744134],"type":"Point"},"properties":{"osm_id":"5969440718","tag":{"amenity":"waste_basket"}},"type":"Feature"},
	{"geometry":{"coordinates":[-1.052003,43.724239],"type":"Point"},"properties":{"osm_id":"6032423550","tag":{"alt_name":"Canisite","amenity":"waste_disposal","fee":"no","operator":"Mairie de Saint-Paul-l\u00c3\u00a8s-Dax","waste":"dog_excrement"}},"type":"Feature"},
	{"geometry":{"coordinates":[-1.054226,43.72232],"type":"Point"},"properties":{"osm_id":"6032423552","tag":{"alt_name":"Canisite","amenity":"waste_disposal","fee":"no","mapillary":"eHn_DG383SkU38BFtxXwdw","operator":"Mairie de Saint-Paul-l\u00c3\u00a8s-Dax","waste":"dog_excrement"}},"type":"Feature"},
	{"geometry":{"coordinates":[-1.04606,43.723561],"type":"Point"},"properties":{"name":"Eug\u00c3\u00a8ne Lagouin","osm_id":"6116101585","tag":{"amenity":"recycling","mapillary":"4Z5mXNA06u8Gjf0OHPzgBw","operator":"SITCOM - C\u00c3\u00b4te sud des Landes","operator:wikidata":"Q90819597","recycling:batteries":"yes","recycling:beverage_cartons":"yes","recycling:cans":"yes","recycling:glass_bottles":"yes","recycling:paper":"yes","recycling:paper_packaging":"yes","recycling:plastic_bottles":"yes","recycling_type":"container","ref:FR:SITCOM":"PAV-374479"}},"type":"Feature"},
	{"geometry":{"coordinates":[-1.049364,43.727383],"type":"Point"},"properties":{"name":"Toumalin","osm_id":"6116101586","tag":{"amenity":"recycling","mapillary":"8m5q1slQGP5gKIKQUJ1g2g","operator":"SITCOM - C\u00c3\u00b4te sud des Landes","operator:wikidata":"Q90819597","recycling:batteries":"yes","recycling:beverage_cartons":"yes","recycling:cans":"yes","recycling:glass_bottles":"yes","recycling:paper":"yes","recycling:paper_packaging":"yes","recycling:plastic_bottles":"yes","recycling_type":"container","ref:FR:SITCOM":"PAV-374494"}},"type":"Feature"},
	{"geometry":{"coordinates":[-1.045509,43.738485],"type":"Point"},"properties":{"name":"La Ch\u00c3\u00aaneraie","osm_id":"6129222213","tag":{"amenity":"recycling","mapillary":"DL3AAv1lVdXx4HP1fcpVSA","operator":"SITCOM - C\u00c3\u00b4te sud des Landes","operator:wikidata":"Q90819597","recycling:batteries":"yes","recycling:beverage_cartons":"yes","recycling:cans":"yes","recycling:glass_bottles":"yes","recycling:paper":"yes","recycling:paper_packaging":"yes","recycling:plastic_bottles":"yes","recycling_type":"container","ref:FR:SITCOM":"PAV-471341"}},"type":"Feature"},
	{"geometry":{"coordinates":[-1.051949,43.733539],"type":"Point"},"properties":{"name":"Diderot","osm_id":"6129222214","tag":{"amenity":"recycling","mapillary":"rgAWG8GiAhE7mDQ56dqLKw","operator":"SITCOM - C\u00c3\u00b4te sud des Landes","operator:wikidata":"Q90819597","recycling:beverage_cartons":"yes","recycling:cans":"yes","recycling:glass_bottles":"yes","recycling:paper":"yes","recycling:paper_packaging":"yes","recycling:plastic_bottles":"yes","recycling_type":"container","ref:FR:SITCOM":"PAV-374491"}},"type":"Feature"},
	{"geometry":{"coordinates":[-1.0519,43.733432],"type":"Point"},"properties":{"osm_id":"6129222215","tag":{"alt_name":"Pouillon","amenity":"waste_disposal","mapillary":"KpW8kfMEpu7UP2HcMGiRPQ","operator":"Communaut\u00c3\u00a9 d'Agglom\u00c3\u00a9ration Le Grand Dax (CAGD)","waste":"trash"}},"type":"Feature"},
	{"geometry":{"coordinates":[-1.036194,43.730478],"type":"Point"},"properties":{"osm_id":"6129222216","tag":{"alt_name":"Meynaut","amenity":"waste_disposal","mapillary":"6J9aMGmx4TwngxCrK-oaxQ","operator":"Communaut\u00c3\u00a9 d'Agglom\u00c3\u00a9ration Le Grand Dax (CAGD)","waste":"trash"}},"type":"Feature"},
	{"geometry":{"coordinates":[-1.051893,43.736486],"type":"Point"},"properties":{"osm_id":"6129222217","tag":{"alt_name":"22 Ao\u00c3\u00bbt 1944","amenity":"waste_disposal","mapillary":"j2CZeqVmRn_A5nJn2BsidQ","operator":"Communaut\u00c3\u00a9 d'Agglom\u00c3\u00a9ration Le Grand Dax (CAGD)","waste":"trash"}},"type":"Feature"},
	{"geometry":{"coordinates":[-1.046019,43.72361],"type":"Point"},"properties":{"osm_id":"6269636623","tag":{"amenity":"recycling","mapillary":"4Z5mXNA06u8Gjf0OHPzgBw","operator":"Communaut\u00c3\u00a9 d'Agglom\u00c3\u00a9ration Le Grand Dax (CAGD)","recycling:clothes":"yes","recycling_type":"container"}},"type":"Feature"},
	{"geometry":{"coordinates":[-1.053739,43.723317],"type":"Point"},"properties":{"osm_id":"6572214118","tag":{"amenity":"waste_basket"}},"type":"Feature"},
	{"geometry":{"coordinates":[-1.053961,43.724497],"type":"Point"},"properties":{"name":"L Ecole De Musique","osm_id":"6843854685","tag":{"amenity":"recycling","mapillary":"3nww2tPSchRQsuqym6Ptow","operator":"SITCOM - C\u00c3\u00b4te sud des Landes","operator:wikidata":"Q90819597","recycling:batteries":"yes","recycling:beverage_cartons":"yes","recycling:cans":"yes","recycling:glass_bottles":"yes","recycling:paper":"yes","recycling:paper_packaging":"yes","recycling:plastic_bottles":"yes","recycling_type":"container","ref:FR:SITCOM":"PAV-374690"}},"type":"Feature"},
	{"geometry":{"coordinates":[-1.048626,43.742245],"type":"Point"},"properties":{"osm_id":"6928782546","tag":{"amenity":"waste_disposal","waste":"trash"}},"type":"Feature"},
	{"geometry":{"coordinates":[-1.053133,43.735436],"type":"Point"},"properties":{"osm_id":"7041803353","tag":{"amenity":"waste_disposal","waste":"trash"}},"type":"Feature"},
	{"geometry":{"coordinates":[-1.053735,43.716035],"type":"Point"},"properties":{"osm_id":"7243163625","tag":{"amenity":"waste_basket","waste":"trash"}},"type":"Feature"},
	{"geometry":{"coordinates":[-1.053913,43.715816],"type":"Point"},"properties":{"osm_id":"7243163627","tag":{"amenity":"waste_basket","waste":"trash"}},"type":"Feature"},
	{"geometry":{"coordinates":[-1.054165,43.714753],"type":"Point"},"properties":{"osm_id":"7243163631","tag":{"amenity":"waste_basket","waste":"trash"}},"type":"Feature"},
	{"geometry":{"coordinates":[-1.054262,43.714768],"type":"Point"},"properties":{"osm_id":"7243163632","tag":{"amenity":"waste_basket","waste":"trash"}},"type":"Feature"},
	{"geometry":{"coordinates":[-1.054596,43.713742],"type":"Point"},"properties":{"osm_id":"7243163642","tag":{"amenity":"waste_basket","waste":"trash"}},"type":"Feature"},
	{"geometry":{"coordinates":[-1.041375,43.725698],"type":"Point"},"properties":{"name":"Lyc\u00c3\u00a9e Haroun Tazieff","osm_id":"7479888053","tag":{"amenity":"recycling","operator":"SITCOM - C\u00c3\u00b4te sud des Landes","operator:wikidata":"Q90819597","recycling:cans":"yes","recycling:paper":"yes","recycling_type":"container","ref:FR:SITCOM":"PAV-494341"}},"type":"Feature"},
	{"geometry":{"coordinates":[-1.049708,43.71935],"type":"Point"},"properties":{"name":"Siege Cagd","osm_id":"7479888055","tag":{"amenity":"recycling","operator":"SITCOM - C\u00c3\u00b4te sud des Landes","operator:wikidata":"Q90819597","recycling:paper":"yes","recycling_type":"container","ref:FR:SITCOM":"PAV-465542"}},"type":"Feature"},
	{"geometry":{"coordinates":[-1.049388,43.719567],"type":"Point"},"properties":{"name":"Pulseo","osm_id":"7479888059","tag":{"amenity":"recycling","operator":"SITCOM - C\u00c3\u00b4te sud des Landes","operator:wikidata":"Q90819597","recycling:paper":"yes","recycling_type":"container","ref:FR:SITCOM":"PAV-465541"}},"type":"Feature"},
	{"geometry":{"coordinates":[-0.976504,43.759175],"type":"Point"},"properties":{"name":"Rte Mt-De-Marsan","osm_id":"7479888066","tag":{"amenity":"recycling","operator":"SITCOM - C\u00c3\u00b4te sud des Landes","operator:wikidata":"Q90819597","recycling:cans":"yes","recycling:glass_bottles":"yes","recycling:paper":"yes","recycling:paper_packaging":"yes","recycling:plastic_bottles":"yes","recycling_type":"container","ref:FR:SITCOM":"PAV-392594"}},"type":"Feature"},
	{"geometry":{"coordinates":[-1.036662,43.744589],"type":"Point"},"properties":{"name":"Services Techn","osm_id":"7479888070","tag":{"amenity":"recycling","operator":"SITCOM - C\u00c3\u00b4te sud des Landes","operator:wikidata":"Q90819597","recycling:paper":"yes","recycling_type":"container","ref:FR:SITCOM":"PAV-374482"}},"type":"Feature"},
	{"geometry":{"coordinates":[-0.994603,43.7496],"type":"Point"},"properties":{"name":"La Glaci\u00c3\u00a8re","osm_id":"7479888071","tag":{"amenity":"recycling","operator":"SITCOM - C\u00c3\u00b4te sud des Landes","operator:wikidata":"Q90819597","recycling:cans":"yes","recycling:glass_bottles":"yes","recycling:paper":"yes","recycling:paper_packaging":"yes","recycling:plastic_bottles":"yes","recycling_type":"container","ref:FR:SITCOM":"PAV-412447"}},"type":"Feature"},
	{"geometry":{"coordinates":[-0.980875,43.712891],"type":"Point"},"properties":{"name":"Salle Des Sports","osm_id":"7479888073","tag":{"amenity":"recycling","operator":"SITCOM - C\u00c3\u00b4te sud des Landes","operator:wikidata":"Q90819597","recycling:cans":"yes","recycling:glass_bottles":"yes","recycling:paper":"yes","recycling:paper_packaging":"yes","recycling:plastic_bottles":"yes","recycling_type":"container","ref:FR:SITCOM":"PAV-374422"}},"type":"Feature"},
	{"geometry":{"coordinates":[-1.050921,43.726156],"type":"Point"},"properties":{"name":"Ces Jean Moulin","osm_id":"7479888074","tag":{"amenity":"recycling","operator":"SITCOM - C\u00c3\u00b4te sud des Landes","operator:wikidata":"Q90819597","recycling:cans":"yes","recycling:paper":"yes","recycling_type":"container","ref:FR:SITCOM":"PAV-374495"}},"type":"Feature"},
	{"geometry":{"coordinates":[-1.035001,43.736077],"type":"Point"},"properties":{"name":"Coll Daniele Mitterand","osm_id":"7479888080","tag":{"amenity":"recycling","operator":"SITCOM - C\u00c3\u00b4te sud des Landes","operator:wikidata":"Q90819597","recycling:cans":"yes","recycling:glass_bottles":"yes","recycling:paper":"yes","recycling_type":"container","ref:FR:SITCOM":"PAV-405341"}},"type":"Feature"},
	{"geometry":{"coordinates":[-1.011468,43.711863],"type":"Point"},"properties":{"name":"Bourg","osm_id":"7479888082","tag":{"amenity":"recycling","operator":"SITCOM - C\u00c3\u00b4te sud des Landes","operator:wikidata":"Q90819597","recycling:cans":"yes","recycling:glass_bottles":"yes","recycling:paper":"yes","recycling:paper_packaging":"yes","recycling:plastic_bottles":"yes","recycling_type":"container","ref:FR:SITCOM":"PAV-374424"}},"type":"Feature"},
	{"geometry":{"coordinates":[-1.04706,43.725546],"type":"Point"},"properties":{"name":"Conseil General","osm_id":"7479888084","tag":{"amenity":"recycling","operator":"SITCOM - C\u00c3\u00b4te sud des Landes","operator:wikidata":"Q90819597","recycling:paper":"yes","recycling_type":"container","ref:FR:SITCOM":"PAV-374481"}},"type":"Feature"},
	{"geometry":{"coordinates":[-1.051303,43.710994],"type":"Point"},"properties":{"name":"Pl de la Course","osm_id":"7479901988","tag":{"amenity":"recycling","operator":"SITCOM - C\u00c3\u00b4te sud des Landes","operator:wikidata":"Q90819597","recycling:glass_bottles":"yes","recycling:paper":"yes","recycling_type":"container","ref:FR:SITCOM":"PAV-473441"}},"type":"Feature"},
	{"geometry":{"coordinates":[-1.053785,43.711474],"type":"Point"},"properties":{"name":"La Place Thiers","osm_id":"7479901991","tag":{"amenity":"recycling","operator":"SITCOM - C\u00c3\u00b4te sud des Landes","operator:wikidata":"Q90819597","recycling:glass_bottles":"yes","recycling_type":"container","ref:FR:SITCOM":"PAV-394142"}},"type":"Feature"},
	{"geometry":{"coordinates":[-1.038943,43.712665],"type":"Point"},"properties":{"name":"atelier hopital","osm_id":"7479901992","tag":{"amenity":"recycling","operator":"SITCOM - C\u00c3\u00b4te sud des Landes","operator:wikidata":"Q90819597","recycling:paper_packaging":"yes","recycling:plastic_bottles":"yes","recycling_type":"container","ref:FR:SITCOM":"PAV-487241"}},"type":"Feature"},
	{"geometry":{"coordinates":[-1.048034,43.711464],"type":"Point"},"properties":{"name":"Stade Bar Regina","osm_id":"7479901993","tag":{"amenity":"recycling","operator":"SITCOM - C\u00c3\u00b4te sud des Landes","operator:wikidata":"Q90819597","recycling:glass_bottles":"yes","recycling:plastic_bottles":"yes","recycling_type":"container","ref:FR:SITCOM":"PAV-374450"}},"type":"Feature"},
	{"geometry":{"coordinates":[-1.000276,43.740531],"type":"Point"},"properties":{"name":"Bourg","osm_id":"7479901994","tag":{"amenity":"recycling","operator":"SITCOM - C\u00c3\u00b4te sud des Landes","operator:wikidata":"Q90819597","recycling:cans":"yes","recycling:glass_bottles":"yes","recycling:paper":"yes","recycling:paper_packaging":"yes","recycling:plastic_bottles":"yes","recycling_type":"container","ref:FR:SITCOM":"PAV-374417"}},"type":"Feature"},
	{"geometry":{"coordinates":[-1.050414,43.735097],"type":"Point"},"properties":{"name":"Bistro Regent","osm_id":"7480197443","tag":{"amenity":"recycling","operator":"SITCOM - C\u00c3\u00b4te sud des Landes","operator:wikidata":"Q90819597","recycling:glass_bottles":"yes","recycling_type":"container","ref:FR:SITCOM":"PAV-374688"}},"type":"Feature"},
	{"geometry":{"coordinates":[-1.010109,43.747941],"type":"Point"},"properties":{"name":"Buglose St Berceau","osm_id":"7480197444","tag":{"amenity":"recycling","operator":"SITCOM - C\u00c3\u00b4te sud des Landes","operator:wikidata":"Q90819597","recycling:cans":"yes","recycling:glass_bottles":"yes","recycling:paper":"yes","recycling:paper_packaging":"yes","recycling:plastic_bottles":"yes","recycling_type":"container","ref:FR:SITCOM":"PAV-374420"}},"type":"Feature"},
	{"geometry":{"coordinates":[-1.012704,43.74423],"type":"Point"},"properties":{"name":"EPAHD LE BERCEAU","osm_id":"7480197460","tag":{"amenity":"recycling","operator":"SITCOM - C\u00c3\u00b4te sud des Landes","operator:wikidata":"Q90819597","recycling:cans":"yes","recycling:paper":"yes","recycling:paper_packaging":"yes","recycling:plastic_bottles":"yes","recycling_type":"container","ref:FR:SITCOM":"PAV-491544"}},"type":"Feature"},
	{"geometry":{"coordinates":[-0.969429,43.749654],"type":"Point"},"properties":{"name":"Arenes","osm_id":"7480197467","tag":{"amenity":"recycling","operator":"SITCOM - C\u00c3\u00b4te sud des Landes","operator:wikidata":"Q90819597","recycling:cans":"yes","recycling:glass_bottles":"yes","recycling:paper":"yes","recycling:paper_packaging":"yes","recycling:plastic_bottles":"yes","recycling_type":"container","ref:FR:SITCOM":"PAV-374414"}},"type":"Feature"},
	{"geometry":{"coordinates":[-1.038174,43.712603],"type":"Point"},"properties":{"name":"Hopital","osm_id":"7480197468","tag":{"amenity":"recycling","operator":"SITCOM - C\u00c3\u00b4te sud des Landes","operator:wikidata":"Q90819597","recycling:cans":"yes","recycling:glass_bottles":"yes","recycling:paper":"yes","recycling:paper_packaging":"yes","recycling:plastic_bottles":"yes","recycling_type":"container","ref:FR:SITCOM":"PAV-374447"}},"type":"Feature"},
	{"geometry":{"coordinates":[-1.04644,43.713957],"type":"Point"},"properties":{"name":"Residence Logrono","osm_id":"7480197473","tag":{"amenity":"recycling","operator":"SITCOM - C\u00c3\u00b4te sud des Landes","operator:wikidata":"Q90819597","recycling:cans":"yes","recycling:glass_bottles":"yes","recycling:paper":"yes","recycling:paper_packaging":"yes","recycling:plastic_bottles":"yes","recycling_type":"container","ref:FR:SITCOM":"PAV-374453"}},"type":"Feature"},
	{"geometry":{"coordinates":[-1.042158,43.711921],"type":"Point"},"properties":{"name":"R Maur. Utrillo","osm_id":"7480197474","tag":{"amenity":"recycling","operator":"SITCOM - C\u00c3\u00b4te sud des Landes","operator:wikidata":"Q90819597","recycling:cans":"yes","recycling:glass_bottles":"yes","recycling:paper":"yes","recycling:paper_packaging":"yes","recycling:plastic_bottles":"yes","recycling_type":"container","ref:FR:SITCOM":"PAV-374452"}},"type":"Feature"},
	{"geometry":{"coordinates":[-1.011348,43.745388],"type":"Point"},"properties":{"name":"Buglose Vx Chene","osm_id":"7480197477","tag":{"amenity":"recycling","operator":"SITCOM - C\u00c3\u00b4te sud des Landes","operator:wikidata":"Q90819597","recycling:cans":"yes","recycling:glass_bottles":"yes","recycling_type":"container","ref:FR:SITCOM":"PAV-374418"}},"type":"Feature"},
	{"geometry":{"coordinates":[-1.048246,43.71219],"type":"Point"},"properties":{"name":"Stade Mal M Boyau","osm_id":"7480201688","tag":{"amenity":"recycling","operator":"SITCOM - C\u00c3\u00b4te sud des Landes","operator:wikidata":"Q90819597","recycling:glass_bottles":"yes","recycling_type":"container","ref:FR:SITCOM":"PAV-374449"}},"type":"Feature"},
	{"geometry":{"coordinates":[-1.053329,43.717545],"type":"Point"},"properties":{"osm_id":"7502702094","tag":{"amenity":"waste_basket"}},"type":"Feature"},
	{"geometry":{"coordinates":[-1.053508,43.716702],"type":"Point"},"properties":{"osm_id":"7502707787","tag":{"amenity":"waste_basket"}},"type":"Feature"},
	{"geometry":{"coordinates":[-1.053598,43.716758],"type":"Point"},"properties":{"osm_id":"7502707788","tag":{"amenity":"waste_basket"}},"type":"Feature"},
	{"geometry":{"coordinates":[-1.053067,43.718346],"type":"Point"},"properties":{"osm_id":"7502767324","tag":{"amenity":"waste_basket"}},"type":"Feature"},
	{"geometry":{"coordinates":[-1.051848,43.721561],"type":"Point"},"properties":{"osm_id":"7502767326","tag":{"amenity":"waste_basket"}},"type":"Feature"},
	{"geometry":{"coordinates":[-1.051479,43.723411],"type":"Point"},"properties":{"osm_id":"7502767328","tag":{"amenity":"waste_basket"}},"type":"Feature"},
	{"geometry":{"coordinates":[-1.051489,43.723697],"type":"Point"},"properties":{"osm_id":"7502767329","tag":{"amenity":"waste_basket"}},"type":"Feature"},
	{"geometry":{"coordinates":[-1.051963,43.723926],"type":"Point"},"properties":{"osm_id":"7502767330","tag":{"amenity":"waste_basket"}},"type":"Feature"},
	{"geometry":{"coordinates":[-1.052395,43.723976],"type":"Point"},"properties":{"osm_id":"7502770941","tag":{"amenity":"waste_basket"}},"type":"Feature"},
	{"geometry":{"coordinates":[-1.052507,43.723989],"type":"Point"},"properties":{"osm_id":"7502770942","tag":{"amenity":"waste_basket"}},"type":"Feature"},
	{"geometry":{"coordinates":[-1.05334,43.723892],"type":"Point"},"properties":{"osm_id":"7502770946","tag":{"amenity":"waste_basket"}},"type":"Feature"},
	{"geometry":{"coordinates":[-1.053886,43.724134],"type":"Point"},"properties":{"osm_id":"7502770949","tag":{"amenity":"waste_basket"}},"type":"Feature"},
	{"geometry":{"coordinates":[-1.052859,43.72317],"type":"Point"},"properties":{"osm_id":"7502793448","tag":{"amenity":"waste_basket"}},"type":"Feature"},
	{"geometry":{"coordinates":[-1.053387,43.723122],"type":"Point"},"properties":{"osm_id":"7502793454","tag":{"amenity":"waste_basket"}},"type":"Feature"},
	{"geometry":{"coordinates":[-1.053657,43.723098],"type":"Point"},"properties":{"osm_id":"7502793456","tag":{"amenity":"waste_basket"}},"type":"Feature"},
	{"geometry":{"coordinates":[-1.049199,43.724581],"type":"Point"},"properties":{"osm_id":"7502793459","tag":{"amenity":"waste_basket"}},"type":"Feature"},
	{"geometry":{"coordinates":[-1.051661,43.7228],"type":"Point"},"properties":{"osm_id":"7502837598","tag":{"amenity":"waste_basket"}},"type":"Feature"},
	{"geometry":{"coordinates":[-1.052145,43.722981],"type":"Point"},"properties":{"osm_id":"7502837600","tag":{"amenity":"waste_basket"}},"type":"Feature"},
	{"geometry":{"coordinates":[-1.052754,43.723067],"type":"Point"},"properties":{"osm_id":"7502837606","tag":{"amenity":"waste_basket"}},"type":"Feature"},
	{"geometry":{"coordinates":[-1.041769,43.728174],"type":"Point"},"properties":{"osm_id":"7526715976","tag":{"amenity":"waste_basket"}},"type":"Feature"},
	{"geometry":{"coordinates":[-1.046006,43.730192],"type":"Point"},"properties":{"osm_id":"7528313934","tag":{"amenity":"waste_basket"}},"type":"Feature"},
	{"geometry":{"coordinates":[-1.035316,43.735144],"type":"Point"},"properties":{"osm_id":"7528679212","tag":{"amenity":"waste_basket"}},"type":"Feature"},
	{"geometry":{"coordinates":[-1.053301,43.723563],"type":"Point"},"properties":{"osm_id":"7532803982","tag":{"amenity":"waste_disposal","location":"underground","mapillary":"pfp2ZCUJ08htJxtxx5rP2A","operator":"Communaut\u00c3\u00a9 d'Agglom\u00c3\u00a9ration Le Grand Dax (CAGD)"}},"type":"Feature"},
	{"geometry":{"coordinates":[-1.052065,43.72288],"type":"Point"},"properties":{"name":"Fourcade","osm_id":"7592150262","tag":{"amenity":"waste_disposal","mapillary":"-4O5Uspjr9QMmqppuBItXQ","operator":"SITCOM - C\u00c3\u00b4te sud des Landes","operator:wikidata":"Q90819597","ref:FR:SITCOM":"PAV-463341"}},"type":"Feature"},
	{"geometry":{"coordinates":[-1.049545,43.7205],"type":"Point"},"properties":{"name":"Gare Routiere","osm_id":"7592150308","tag":{"amenity":"waste_disposal","operator":"SITCOM - C\u00c3\u00b4te sud des Landes","operator:wikidata":"Q90819597","ref:FR:SITCOM":"PAV-465543"}},"type":"Feature"}
]
}
