{
"type": "FeatureCollection",
"features": [
	{"geometry":{"coordinates":[-1.038051,43.643266],"type":"Point"},"properties":{"osm_id":"7479888060","tag":{"amenity":"recycling","operator":"SITCOM - C\u00c3\u00b4te sud des Landes","operator:wikidata":"Q90819597","recycling:cans":"yes","recycling:glass_bottles":"yes","recycling:paper":"yes","recycling:paper_packaging":"yes","recycling:plastic_bottles":"yes","recycling_type":"container","ref:FR:SITCOM":"PAV-374542"}},"type":"Feature"},
	{"geometry":{"coordinates":[-1.035389,43.612372],"type":"Point"},"properties":{"osm_id":"8625260361","tag":{"amenity":"recycling","contact:website":"https://www.sietomdechalosse.fr/","operator":"SIETOM de Chalosse","recycling:beverage_cartons":"yes","recycling:cans":"yes","recycling:glass_bottles":"yes","recycling:paper":"yes","recycling:paper_packaging":"yes","recycling:plastic_bottles":"yes","recycling_type":"container"}},"type":"Feature"},
	{"geometry":{"coordinates":[-1.02594,43.612288],"type":"Point"},"properties":{"osm_id":"8625349847","tag":{"amenity":"recycling","operator":"SIETOM de Chalosse","recycling:beverage_cartons":"yes","recycling:cans":"yes","recycling:glass_bottles":"yes","recycling:paper":"yes","recycling:paper_packaging":"yes","recycling:plastic_bottles":"yes","recycling_type":"container","website":"https://www.sietomdechalosse.fr/"}},"type":"Feature"},
	{"geometry":{"coordinates":[-1.015187,43.59489],"type":"Point"},"properties":{"osm_id":"8625769053","tag":{"amenity":"recycling","operator":"SIETOM de Chalosse","recycling:beverage_cartons":"yes","recycling:cans":"yes","recycling:glass_bottles":"yes","recycling:paper":"yes","recycling:paper_packaging":"yes","recycling:plastic_bottles":"yes","recycling_type":"container","website":"https://www.sietomdechalosse.fr/"}},"type":"Feature"},
	{"geometry":{"coordinates":[-1.024998,43.635951],"type":"Point"},"properties":{"osm_id":"8625773643","tag":{"amenity":"recycling","operator":"SIETOM de Chalosse","recycling:beverage_cartons":"yes","recycling:cans":"yes","recycling:glass_bottles":"yes","recycling:paper":"yes","recycling:paper_packaging":"yes","recycling:plastic_bottles":"yes","recycling_type":"container","website":"https://www.sietomdechalosse.fr/"}},"type":"Feature"},
	{"geometry":{"coordinates":[-1.003582,43.606103],"type":"Point"},"properties":{"osm_id":"8625801277","tag":{"amenity":"recycling","operator":"SIETOM de Chalosse","recycling:beverage_cartons":"yes","recycling:cans":"yes","recycling:glass_bottles":"yes","recycling:paper":"yes","recycling:paper_packaging":"yes","recycling:plastic_bottles":"yes","recycling_type":"container","website":"https://www.sietomdechalosse.fr/"}},"type":"Feature"},
	{"geometry":{"coordinates":[-0.999908,43.606892],"type":"Point"},"properties":{"osm_id":"8625801971","tag":{"amenity":"recycling","operator":"SIETOM de Chalosse","recycling:beverage_cartons":"yes","recycling:cans":"yes","recycling:glass_bottles":"yes","recycling:paper":"yes","recycling:paper_packaging":"yes","recycling:plastic_bottles":"yes","recycling_type":"container","website":"https://www.sietomdechalosse.fr/"}},"type":"Feature"},
	{"geometry":{"coordinates":[-0.984454,43.608299],"type":"Point"},"properties":{"osm_id":"8625822527","tag":{"amenity":"recycling","operator":"SIETOM de Chalosse","recycling:beverage_cartons":"yes","recycling:cans":"yes","recycling:glass_bottles":"yes","recycling:paper":"yes","recycling:paper_packaging":"yes","recycling:plastic_bottles":"yes","recycling_type":"container","website":"https://www.sietomdechalosse.fr/"}},"type":"Feature"},
	{"geometry":{"coordinates":[-1.011747,43.609216],"type":"Point"},"properties":{"osm_id":"8625858926","tag":{"amenity":"recycling","operator":"SIETOM de Chalosse","recycling:beverage_cartons":"yes","recycling:cans":"yes","recycling:glass_bottles":"yes","recycling:paper":"yes","recycling:paper_packaging":"yes","recycling:plastic_bottles":"yes","recycling_type":"container","website":"https://www.sietomdechalosse.fr/"}},"type":"Feature"},
	{"geometry":{"coordinates":[-0.99196,43.612822],"type":"Point"},"properties":{"osm_id":"8625865162","tag":{"amenity":"recycling","operator":"SIETOM de Chalosse","recycling:beverage_cartons":"yes","recycling:cans":"yes","recycling:glass_bottles":"yes","recycling:paper":"yes","recycling:paper_packaging":"yes","recycling:plastic_bottles":"yes","recycling_type":"container","website":"https://www.sietomdechalosse.fr/"}},"type":"Feature"}
]
}
