{
"type": "FeatureCollection",
"features": [
	{"geometry":{"coordinates":[-0.985348,37.615329],"type":"Point"},"properties":{"osm_id":"3037886850","tag":{"amenity":"recycling","recycling_type":"container"}},"type":"Feature"},
	{"geometry":{"coordinates":[-0.985483,37.614083],"type":"Point"},"properties":{"osm_id":"3037887196","tag":{"amenity":"recycling","recycling_type":"container"}},"type":"Feature"},
	{"geometry":{"coordinates":[-0.985112,37.610861],"type":"Point"},"properties":{"osm_id":"3037887203","tag":{"amenity":"recycling","recycling_type":"container"}},"type":"Feature"},
	{"geometry":{"coordinates":[-0.985402,37.612537],"type":"Point"},"properties":{"osm_id":"3037887338","tag":{"amenity":"recycling","recycling_type":"container"}},"type":"Feature"},
	{"geometry":{"coordinates":[-0.98055,37.613071],"type":"Point"},"properties":{"osm_id":"3037887427","tag":{"amenity":"recycling","recycling_type":"container"}},"type":"Feature"},
	{"geometry":{"coordinates":[-0.982027,37.611955],"type":"Point"},"properties":{"osm_id":"3037887573","tag":{"amenity":"recycling","recycling_type":"container"}},"type":"Feature"},
	{"geometry":{"coordinates":[-0.985263,37.61363],"type":"Point"},"properties":{"osm_id":"3037887583","tag":{"amenity":"recycling","recycling_type":"container"}},"type":"Feature"},
	{"geometry":{"coordinates":[-0.98342,37.611889],"type":"Point"},"properties":{"osm_id":"3037887656","tag":{"amenity":"recycling","recycling_type":"container"}},"type":"Feature"},
	{"geometry":{"coordinates":[-0.984718,37.61194],"type":"Point"},"properties":{"osm_id":"3037887764","tag":{"amenity":"recycling","recycling_type":"container"}},"type":"Feature"},
	{"geometry":{"coordinates":[-0.980439,37.61293],"type":"Point"},"properties":{"osm_id":"3039072707","tag":{"amenity":"recycling","recycling_type":"container"}},"type":"Feature"},
	{"geometry":{"coordinates":[-0.988309,37.610649],"type":"Point"},"properties":{"osm_id":"5164781393","tag":{"amenity":"waste_basket"}},"type":"Feature"},
	{"geometry":{"coordinates":[-0.990447,37.614701],"type":"Point"},"properties":{"osm_id":"5752691042","tag":{"amenity":"waste_basket"}},"type":"Feature"},
	{"geometry":{"coordinates":[-0.989715,37.614739],"type":"Point"},"properties":{"osm_id":"5752691060","tag":{"amenity":"waste_basket"}},"type":"Feature"},
	{"geometry":{"coordinates":[-0.990496,37.612891],"type":"Point"},"properties":{"osm_id":"5760794415","tag":{"amenity":"waste_basket"}},"type":"Feature"},
	{"geometry":{"coordinates":[-0.990889,37.612951],"type":"Point"},"properties":{"osm_id":"5760798740","tag":{"amenity":"waste_basket"}},"type":"Feature"},
	{"geometry":{"coordinates":[-0.990244,37.613247],"type":"Point"},"properties":{"osm_id":"5760798973","tag":{"amenity":"waste_basket"}},"type":"Feature"},
	{"geometry":{"coordinates":[-0.990608,37.613295],"type":"Point"},"properties":{"osm_id":"5760798978","tag":{"amenity":"waste_basket"}},"type":"Feature"},
	{"geometry":{"coordinates":[-0.990812,37.614563],"type":"Point"},"properties":{"osm_id":"5761091453","tag":{"amenity":"waste_basket"}},"type":"Feature"},
	{"geometry":{"coordinates":[-0.990906,37.614637],"type":"Point"},"properties":{"osm_id":"5761091535","tag":{"amenity":"waste_basket"}},"type":"Feature"},
	{"geometry":{"coordinates":[-0.990718,37.614638],"type":"Point"},"properties":{"osm_id":"5761091536","tag":{"amenity":"waste_basket"}},"type":"Feature"},
	{"geometry":{"coordinates":[-0.990813,37.614714],"type":"Point"},"properties":{"osm_id":"5761091622","tag":{"amenity":"waste_basket"}},"type":"Feature"},
	{"geometry":{"coordinates":[-0.990622,37.612029],"type":"Point"},"properties":{"osm_id":"5762061382","tag":{"amenity":"waste_basket","lit":"yes"}},"type":"Feature"},
	{"geometry":{"coordinates":[-0.990016,37.612149],"type":"Point"},"properties":{"osm_id":"5762061403","tag":{"amenity":"waste_basket","lit":"yes"}},"type":"Feature"},
	{"geometry":{"coordinates":[-0.990689,37.612243],"type":"Point"},"properties":{"osm_id":"5762061428","tag":{"amenity":"waste_basket","lit":"yes"}},"type":"Feature"},
	{"geometry":{"coordinates":[-0.990073,37.612361],"type":"Point"},"properties":{"osm_id":"5762064854","tag":{"amenity":"waste_basket","lit":"yes"}},"type":"Feature"},
	{"geometry":{"coordinates":[-0.982972,37.618824],"type":"Point"},"properties":{"osm_id":"5771815527","tag":{"amenity":"waste_basket"}},"type":"Feature"},
	{"geometry":{"coordinates":[-0.982716,37.619027],"type":"Point"},"properties":{"osm_id":"5771815532","tag":{"amenity":"waste_basket"}},"type":"Feature"},
	{"geometry":{"coordinates":[-0.982571,37.619246],"type":"Point"},"properties":{"osm_id":"5771815542","tag":{"amenity":"waste_basket"}},"type":"Feature"},
	{"geometry":{"coordinates":[-0.99022,37.612],"type":"Point"},"properties":{"osm_id":"5774821264","tag":{"amenity":"waste_basket"}},"type":"Feature"},
	{"geometry":{"coordinates":[-0.985456,37.613647],"type":"Point"},"properties":{"osm_id":"5776220636","tag":{"amenity":"waste_basket"}},"type":"Feature"},
	{"geometry":{"coordinates":[-0.986184,37.615619],"type":"Point"},"properties":{"osm_id":"5791845710","tag":{"amenity":"waste_basket"}},"type":"Feature"},
	{"geometry":{"coordinates":[-0.986755,37.615687],"type":"Point"},"properties":{"osm_id":"5791845715","tag":{"amenity":"waste_basket"}},"type":"Feature"},
	{"geometry":{"coordinates":[-0.986621,37.615705],"type":"Point"},"properties":{"osm_id":"5791845716","tag":{"amenity":"waste_basket"}},"type":"Feature"},
	{"geometry":{"coordinates":[-0.986462,37.615726],"type":"Point"},"properties":{"osm_id":"5791845717","tag":{"amenity":"waste_basket"}},"type":"Feature"},
	{"geometry":{"coordinates":[-0.986329,37.615743],"type":"Point"},"properties":{"osm_id":"5791845718","tag":{"amenity":"waste_basket"}},"type":"Feature"},
	{"geometry":{"coordinates":[-0.986206,37.615747],"type":"Point"},"properties":{"osm_id":"5791845719","tag":{"amenity":"waste_basket"}},"type":"Feature"},
	{"geometry":{"coordinates":[-0.986232,37.615841],"type":"Point"},"properties":{"osm_id":"5791845867","tag":{"amenity":"waste_basket"}},"type":"Feature"},
	{"geometry":{"coordinates":[-0.997644,37.611794],"type":"Point"},"properties":{"osm_id":"5825313849","tag":{"amenity":"waste_basket"}},"type":"Feature"},
	{"geometry":{"coordinates":[-0.997433,37.606592],"type":"Point"},"properties":{"osm_id":"5827513486","tag":{"amenity":"waste_basket"}},"type":"Feature"},
	{"geometry":{"coordinates":[-0.997573,37.60662],"type":"Point"},"properties":{"osm_id":"5827513495","tag":{"amenity":"waste_basket"}},"type":"Feature"}
]
}
