{
"type": "FeatureCollection",
"features": [
	{"geometry":{"coordinates":[130.401496,33.592596],"type":"Point"},"properties":{"name":"\u00e3\u0082\u00af\u00e3\u0082\u00b9\u00e3\u0083\u008e\u00e3\u0082\u00ad","osm_id":"3210234385","tag":{"name:ko":"\u00eb\u0085\u00b9\u00eb\u0082\u0098\u00eb\u00ac\u00b4","natural":"tree"}},"type":"Feature"},
	{"geometry":{"coordinates":[130.399587,33.588308],"type":"Point"},"properties":{"name":"\u00e3\u0083\u0088\u00e3\u0082\u00a6\u00e3\u0082\u00ab\u00e3\u0082\u00a8\u00e3\u0083\u0087","osm_id":"3210246752","tag":{"name:en":"Trident maple","natural":"tree"}},"type":"Feature"},
	{"geometry":{"coordinates":[130.418048,33.649815],"type":"Point"},"properties":{"name":"\u00e5\u008d\u009a\u00e5\u00a4\u009a\u00e6\u00b8\u00af\u00e9\u0096\u008b\u00e6\u00b8\u00af100\u00e5\u0091\u00a8\u00e5\u00b9\u00b4\u00e8\u00a8\u0098\u00e5\u00bf\u00b5\u00e6\u00a8\u00b9","osm_id":"3325141500","tag":{"leaf_type":"broadleaved","name:en":"Hakata Port 100 Years Memoreal Tree","natural":"tree"}},"type":"Feature"},
	{"geometry":{"coordinates":[130.401666,33.592816],"type":"Point"},"properties":{"name":"\u00e3\u0082\u00af\u00e3\u0082\u00b9\u00e3\u0083\u008e\u00e3\u0082\u00ad","osm_id":"4819228810","tag":{"natural":"tree"}},"type":"Feature"},
	{"geometry":{"coordinates":[130.401787,33.59254],"type":"Point"},"properties":{"name":"\u00e3\u0082\u00af\u00e3\u0082\u00b9\u00e3\u0083\u008e\u00e3\u0082\u00ad","osm_id":"4819249494","tag":{"natural":"tree"}},"type":"Feature"},
	{"geometry":{"coordinates":[130.401905,33.592659],"type":"Point"},"properties":{"name":"\u00e3\u0082\u00af\u00e3\u0082\u00b9\u00e3\u0083\u008e\u00e3\u0082\u00ad","osm_id":"4819249495","tag":{"natural":"tree"}},"type":"Feature"},
	{"geometry":{"coordinates":[130.40183,33.592812],"type":"Point"},"properties":{"name":"\u00e3\u0082\u00af\u00e3\u0082\u00b9\u00e3\u0083\u008e\u00e3\u0082\u00ad","osm_id":"4819249496","tag":{"natural":"tree"}},"type":"Feature"},
	{"geometry":{"coordinates":[130.385244,33.586148],"type":"Point"},"properties":{"osm_id":"4967015304","tag":{"natural":"tree"}},"type":"Feature"},
	{"geometry":{"coordinates":[130.385209,33.586148],"type":"Point"},"properties":{"osm_id":"4967015305","tag":{"natural":"tree"}},"type":"Feature"},
	{"geometry":{"coordinates":[130.385179,33.586148],"type":"Point"},"properties":{"osm_id":"4967015306","tag":{"natural":"tree"}},"type":"Feature"},
	{"geometry":{"coordinates":[130.38365,33.584664],"type":"Point"},"properties":{"osm_id":"4968415171","tag":{"natural":"tree"}},"type":"Feature"},
	{"geometry":{"coordinates":[130.381991,33.584317],"type":"Point"},"properties":{"osm_id":"4969344102","tag":{"natural":"tree"}},"type":"Feature"},
	{"geometry":{"coordinates":[130.42288,33.645404],"type":"Point"},"properties":{"osm_id":"4973089839","tag":{"natural":"tree"}},"type":"Feature"},
	{"geometry":{"coordinates":[130.423061,33.614632],"type":"Point"},"properties":{"name":"\u00e3\u0081\u0094\u00e7\u00a5\u009e\u00e6\u009c\u00a8\u00e7\u00ad\u00a5\u00e6\u009d\u00be","osm_id":"5483829821","tag":{"addr:housenumber":"\u00e7\u00a6\u008f\u00e5\u00b2\u00a1\u00e5\u00b8\u0082\u00e6\u009d\u00b1\u00e5\u008c\u00ba\u00e7\u00ae\u00b1\u00e5\u00b4\u008e1-22","addr:postcode":"812-0053","denotation":"\u00e3\u0081\u0094\u00e7\u00a5\u009e\u00e6\u009c\u00a8\u00e7\u00ad\u00a5\u00e6\u009d\u00be","leaf_type":"needleleaved","natural":"tree"}},"type":"Feature"},
	{"geometry":{"coordinates":[130.427722,33.611553],"type":"Point"},"properties":{"osm_id":"6929679854","tag":{"natural":"tree"}},"type":"Feature"},
	{"geometry":{"coordinates":[130.427805,33.611543],"type":"Point"},"properties":{"osm_id":"6929679855","tag":{"natural":"tree"}},"type":"Feature"},
	{"geometry":{"coordinates":[130.427592,33.611436],"type":"Point"},"properties":{"osm_id":"6929679856","tag":{"natural":"tree"}},"type":"Feature"},
	{"geometry":{"coordinates":[130.427663,33.611367],"type":"Point"},"properties":{"osm_id":"6929679857","tag":{"natural":"tree"}},"type":"Feature"},
	{"geometry":{"coordinates":[130.42774,33.611306],"type":"Point"},"properties":{"osm_id":"6929679858","tag":{"natural":"tree"}},"type":"Feature"},
	{"geometry":{"coordinates":[130.427885,33.611505],"type":"Point"},"properties":{"osm_id":"6929679859","tag":{"natural":"tree"}},"type":"Feature"},
	{"geometry":{"coordinates":[130.427969,33.611475],"type":"Point"},"properties":{"osm_id":"6929679860","tag":{"natural":"tree"}},"type":"Feature"},
	{"geometry":{"coordinates":[130.42795,33.611416],"type":"Point"},"properties":{"osm_id":"6929679861","tag":{"natural":"tree"}},"type":"Feature"},
	{"geometry":{"coordinates":[130.428063,33.611396],"type":"Point"},"properties":{"osm_id":"6929679862","tag":{"natural":"tree"}},"type":"Feature"},
	{"geometry":{"coordinates":[130.428186,33.611316],"type":"Point"},"properties":{"osm_id":"6929679863","tag":{"natural":"tree"}},"type":"Feature"},
	{"geometry":{"coordinates":[130.427974,33.611334],"type":"Point"},"properties":{"osm_id":"6929679864","tag":{"natural":"tree"}},"type":"Feature"},
	{"geometry":{"coordinates":[130.428054,33.611221],"type":"Point"},"properties":{"osm_id":"6929679865","tag":{"natural":"tree"}},"type":"Feature"},
	{"geometry":{"coordinates":[130.428004,33.61118],"type":"Point"},"properties":{"osm_id":"6929679866","tag":{"natural":"tree"}},"type":"Feature"},
	{"geometry":{"coordinates":[130.428083,33.611152],"type":"Point"},"properties":{"osm_id":"6929679867","tag":{"natural":"tree"}},"type":"Feature"},
	{"geometry":{"coordinates":[130.427958,33.611231],"type":"Point"},"properties":{"osm_id":"6929679868","tag":{"natural":"tree"}},"type":"Feature"},
	{"geometry":{"coordinates":[130.427131,33.611151],"type":"Point"},"properties":{"osm_id":"6929679869","tag":{"natural":"tree"}},"type":"Feature"},
	{"geometry":{"coordinates":[130.427012,33.611243],"type":"Point"},"properties":{"osm_id":"6929679870","tag":{"natural":"tree"}},"type":"Feature"},
	{"geometry":{"coordinates":[130.427108,33.611086],"type":"Point"},"properties":{"osm_id":"6929679871","tag":{"natural":"tree"}},"type":"Feature"},
	{"geometry":{"coordinates":[130.427034,33.61084],"type":"Point"},"properties":{"osm_id":"6929679872","tag":{"natural":"tree"}},"type":"Feature"},
	{"geometry":{"coordinates":[130.427159,33.610751],"type":"Point"},"properties":{"osm_id":"6929679873","tag":{"natural":"tree"}},"type":"Feature"},
	{"geometry":{"coordinates":[130.427301,33.610654],"type":"Point"},"properties":{"osm_id":"6929679874","tag":{"natural":"tree"}},"type":"Feature"},
	{"geometry":{"coordinates":[130.427231,33.610694],"type":"Point"},"properties":{"osm_id":"6929679875","tag":{"natural":"tree"}},"type":"Feature"},
	{"geometry":{"coordinates":[130.427384,33.610604],"type":"Point"},"properties":{"osm_id":"6929679876","tag":{"natural":"tree"}},"type":"Feature"},
	{"geometry":{"coordinates":[130.427335,33.610995],"type":"Point"},"properties":{"osm_id":"6929679877","tag":{"natural":"tree"}},"type":"Feature"},
	{"geometry":{"coordinates":[130.427418,33.610932],"type":"Point"},"properties":{"osm_id":"6929679878","tag":{"natural":"tree"}},"type":"Feature"},
	{"geometry":{"coordinates":[130.427516,33.610837],"type":"Point"},"properties":{"osm_id":"6929679879","tag":{"natural":"tree"}},"type":"Feature"},
	{"geometry":{"coordinates":[130.427476,33.611152],"type":"Point"},"properties":{"osm_id":"6929679880","tag":{"natural":"tree"}},"type":"Feature"},
	{"geometry":{"coordinates":[130.427394,33.611091],"type":"Point"},"properties":{"osm_id":"6929679881","tag":{"natural":"tree"}},"type":"Feature"},
	{"geometry":{"coordinates":[130.427481,33.610999],"type":"Point"},"properties":{"osm_id":"6929679882","tag":{"natural":"tree"}},"type":"Feature"},
	{"geometry":{"coordinates":[130.416257,33.617412],"type":"Point"},"properties":{"osm_id":"6933206556","tag":{"natural":"tree"}},"type":"Feature"},
	{"geometry":{"coordinates":[130.416429,33.617639],"type":"Point"},"properties":{"osm_id":"6933206557","tag":{"natural":"tree"}},"type":"Feature"},
	{"geometry":{"coordinates":[130.416485,33.617685],"type":"Point"},"properties":{"osm_id":"6933206558","tag":{"natural":"tree"}},"type":"Feature"},
	{"geometry":{"coordinates":[130.416413,33.617586],"type":"Point"},"properties":{"osm_id":"6933206559","tag":{"natural":"tree"}},"type":"Feature"},
	{"geometry":{"coordinates":[130.416377,33.617548],"type":"Point"},"properties":{"osm_id":"6933206560","tag":{"natural":"tree"}},"type":"Feature"},
	{"geometry":{"coordinates":[130.416225,33.617624],"type":"Point"},"properties":{"osm_id":"6933206561","tag":{"natural":"tree"}},"type":"Feature"},
	{"geometry":{"coordinates":[130.416182,33.617673],"type":"Point"},"properties":{"osm_id":"6933206562","tag":{"natural":"tree"}},"type":"Feature"},
	{"geometry":{"coordinates":[130.416171,33.617597],"type":"Point"},"properties":{"osm_id":"6933206563","tag":{"natural":"tree"}},"type":"Feature"},
	{"geometry":{"coordinates":[130.416252,33.617553],"type":"Point"},"properties":{"osm_id":"6933206564","tag":{"natural":"tree"}},"type":"Feature"},
	{"geometry":{"coordinates":[130.416165,33.617551],"type":"Point"},"properties":{"osm_id":"6933206565","tag":{"natural":"tree"}},"type":"Feature"},
	{"geometry":{"coordinates":[130.416114,33.617554],"type":"Point"},"properties":{"osm_id":"6933206566","tag":{"natural":"tree"}},"type":"Feature"},
	{"geometry":{"coordinates":[130.416122,33.617604],"type":"Point"},"properties":{"osm_id":"6933206567","tag":{"natural":"tree"}},"type":"Feature"},
	{"geometry":{"coordinates":[130.416108,33.617671],"type":"Point"},"properties":{"osm_id":"6933206568","tag":{"natural":"tree"}},"type":"Feature"},
	{"geometry":{"coordinates":[130.416052,33.617674],"type":"Point"},"properties":{"osm_id":"6933206569","tag":{"natural":"tree"}},"type":"Feature"},
	{"geometry":{"coordinates":[130.41606,33.617605],"type":"Point"},"properties":{"osm_id":"6933206570","tag":{"natural":"tree"}},"type":"Feature"},
	{"geometry":{"coordinates":[130.416056,33.61754],"type":"Point"},"properties":{"osm_id":"6933206571","tag":{"natural":"tree"}},"type":"Feature"},
	{"geometry":{"coordinates":[130.416118,33.617387],"type":"Point"},"properties":{"osm_id":"6933206572","tag":{"natural":"tree"}},"type":"Feature"},
	{"geometry":{"coordinates":[130.415968,33.617453],"type":"Point"},"properties":{"osm_id":"6933206573","tag":{"natural":"tree"}},"type":"Feature"},
	{"geometry":{"coordinates":[130.416023,33.617432],"type":"Point"},"properties":{"osm_id":"6933206574","tag":{"natural":"tree"}},"type":"Feature"},
	{"geometry":{"coordinates":[130.419234,33.634719],"type":"Point"},"properties":{"osm_id":"6939367662","tag":{"natural":"tree"}},"type":"Feature"},
	{"geometry":{"coordinates":[130.419381,33.634968],"type":"Point"},"properties":{"osm_id":"6939367663","tag":{"natural":"tree"}},"type":"Feature"},
	{"geometry":{"coordinates":[130.419252,33.634949],"type":"Point"},"properties":{"osm_id":"6939367664","tag":{"natural":"tree"}},"type":"Feature"},
	{"geometry":{"coordinates":[130.419239,33.63504],"type":"Point"},"properties":{"osm_id":"6939367665","tag":{"natural":"tree"}},"type":"Feature"},
	{"geometry":{"coordinates":[130.418909,33.634855],"type":"Point"},"properties":{"osm_id":"6939367666","tag":{"natural":"tree"}},"type":"Feature"},
	{"geometry":{"coordinates":[130.419134,33.63488],"type":"Point"},"properties":{"osm_id":"6939367667","tag":{"natural":"tree"}},"type":"Feature"},
	{"geometry":{"coordinates":[130.419194,33.634901],"type":"Point"},"properties":{"osm_id":"6939367668","tag":{"natural":"tree"}},"type":"Feature"},
	{"geometry":{"coordinates":[130.419167,33.634993],"type":"Point"},"properties":{"osm_id":"6939367669","tag":{"natural":"tree"}},"type":"Feature"},
	{"geometry":{"coordinates":[130.419086,33.634947],"type":"Point"},"properties":{"osm_id":"6939367670","tag":{"natural":"tree"}},"type":"Feature"},
	{"geometry":{"coordinates":[130.418844,33.634784],"type":"Point"},"properties":{"osm_id":"6939367671","tag":{"natural":"tree"}},"type":"Feature"},
	{"geometry":{"coordinates":[130.419123,33.634728],"type":"Point"},"properties":{"osm_id":"6939367672","tag":{"natural":"tree"}},"type":"Feature"},
	{"geometry":{"coordinates":[130.419016,33.634716],"type":"Point"},"properties":{"osm_id":"6939367673","tag":{"natural":"tree"}},"type":"Feature"},
	{"geometry":{"coordinates":[130.418533,33.63447],"type":"Point"},"properties":{"osm_id":"6939367674","tag":{"natural":"tree"}},"type":"Feature"},
	{"geometry":{"coordinates":[130.41829,33.634099],"type":"Point"},"properties":{"osm_id":"6939367675","tag":{"natural":"tree"}},"type":"Feature"},
	{"geometry":{"coordinates":[130.418297,33.634125],"type":"Point"},"properties":{"osm_id":"6939367676","tag":{"natural":"tree"}},"type":"Feature"},
	{"geometry":{"coordinates":[130.418339,33.634115],"type":"Point"},"properties":{"osm_id":"6939367677","tag":{"natural":"tree"}},"type":"Feature"},
	{"geometry":{"coordinates":[130.418333,33.634094],"type":"Point"},"properties":{"osm_id":"6939367678","tag":{"natural":"tree"}},"type":"Feature"},
	{"geometry":{"coordinates":[130.418332,33.633989],"type":"Point"},"properties":{"osm_id":"6939367679","tag":{"natural":"tree"}},"type":"Feature"},
	{"geometry":{"coordinates":[130.41852,33.634002],"type":"Point"},"properties":{"osm_id":"6939367680","tag":{"natural":"tree"}},"type":"Feature"},
	{"geometry":{"coordinates":[130.418603,33.634008],"type":"Point"},"properties":{"osm_id":"6939367681","tag":{"natural":"tree"}},"type":"Feature"},
	{"geometry":{"coordinates":[130.418575,33.634037],"type":"Point"},"properties":{"osm_id":"6939367682","tag":{"natural":"tree"}},"type":"Feature"},
	{"geometry":{"coordinates":[130.418538,33.63403],"type":"Point"},"properties":{"osm_id":"6939367683","tag":{"natural":"tree"}},"type":"Feature"},
	{"geometry":{"coordinates":[130.418521,33.634067],"type":"Point"},"properties":{"osm_id":"6939367684","tag":{"natural":"tree"}},"type":"Feature"},
	{"geometry":{"coordinates":[130.418501,33.634033],"type":"Point"},"properties":{"osm_id":"6939367785","tag":{"natural":"tree"}},"type":"Feature"},
	{"geometry":{"coordinates":[130.418564,33.633991],"type":"Point"},"properties":{"osm_id":"6939367786","tag":{"natural":"tree"}},"type":"Feature"},
	{"geometry":{"coordinates":[130.418803,33.633836],"type":"Point"},"properties":{"osm_id":"6939367787","tag":{"natural":"tree"}},"type":"Feature"},
	{"geometry":{"coordinates":[130.418819,33.633879],"type":"Point"},"properties":{"osm_id":"6939367788","tag":{"natural":"tree"}},"type":"Feature"},
	{"geometry":{"coordinates":[130.418851,33.63393],"type":"Point"},"properties":{"osm_id":"6939367789","tag":{"natural":"tree"}},"type":"Feature"},
	{"geometry":{"coordinates":[130.418769,33.634085],"type":"Point"},"properties":{"osm_id":"6939367790","tag":{"natural":"tree"}},"type":"Feature"},
	{"geometry":{"coordinates":[130.418721,33.634056],"type":"Point"},"properties":{"osm_id":"6939367791","tag":{"natural":"tree"}},"type":"Feature"},
	{"geometry":{"coordinates":[130.418694,33.634067],"type":"Point"},"properties":{"osm_id":"6939367792","tag":{"natural":"tree"}},"type":"Feature"},
	{"geometry":{"coordinates":[130.418703,33.634103],"type":"Point"},"properties":{"osm_id":"6939367793","tag":{"natural":"tree"}},"type":"Feature"},
	{"geometry":{"coordinates":[130.418832,33.634007],"type":"Point"},"properties":{"osm_id":"6939367794","tag":{"natural":"tree"}},"type":"Feature"},
	{"geometry":{"coordinates":[130.41885,33.634068],"type":"Point"},"properties":{"osm_id":"6939367795","tag":{"natural":"tree"}},"type":"Feature"},
	{"geometry":{"coordinates":[130.418884,33.634122],"type":"Point"},"properties":{"osm_id":"6939367796","tag":{"natural":"tree"}},"type":"Feature"},
	{"geometry":{"coordinates":[130.418926,33.634224],"type":"Point"},"properties":{"osm_id":"6939367797","tag":{"natural":"tree"}},"type":"Feature"},
	{"geometry":{"coordinates":[130.418968,33.634397],"type":"Point"},"properties":{"osm_id":"6939367798","tag":{"natural":"tree"}},"type":"Feature"},
	{"geometry":{"coordinates":[130.418934,33.634324],"type":"Point"},"properties":{"osm_id":"6939367799","tag":{"natural":"tree"}},"type":"Feature"},
	{"geometry":{"coordinates":[130.418993,33.634353],"type":"Point"},"properties":{"osm_id":"6939367800","tag":{"natural":"tree"}},"type":"Feature"},
	{"geometry":{"coordinates":[130.419029,33.634441],"type":"Point"},"properties":{"osm_id":"6939367801","tag":{"natural":"tree"}},"type":"Feature"},
	{"geometry":{"coordinates":[130.418533,33.634418],"type":"Point"},"properties":{"osm_id":"6939367802","tag":{"natural":"tree"}},"type":"Feature"},
	{"geometry":{"coordinates":[130.418406,33.634295],"type":"Point"},"properties":{"osm_id":"6939367803","tag":{"natural":"tree"}},"type":"Feature"},
	{"geometry":{"coordinates":[130.418443,33.634329],"type":"Point"},"properties":{"osm_id":"6939367804","tag":{"natural":"tree"}},"type":"Feature"},
	{"geometry":{"coordinates":[130.418396,33.634341],"type":"Point"},"properties":{"osm_id":"6939367805","tag":{"natural":"tree"}},"type":"Feature"},
	{"geometry":{"coordinates":[130.418428,33.634378],"type":"Point"},"properties":{"osm_id":"6939367806","tag":{"natural":"tree"}},"type":"Feature"},
	{"geometry":{"coordinates":[130.418764,33.634399],"type":"Point"},"properties":{"osm_id":"6939367807","tag":{"natural":"tree"}},"type":"Feature"},
	{"geometry":{"coordinates":[130.418707,33.634423],"type":"Point"},"properties":{"osm_id":"6939367808","tag":{"natural":"tree"}},"type":"Feature"},
	{"geometry":{"coordinates":[130.418738,33.634432],"type":"Point"},"properties":{"osm_id":"6939367809","tag":{"natural":"tree"}},"type":"Feature"},
	{"geometry":{"coordinates":[130.418715,33.634385],"type":"Point"},"properties":{"osm_id":"6939367810","tag":{"natural":"tree"}},"type":"Feature"},
	{"geometry":{"coordinates":[130.418816,33.634221],"type":"Point"},"properties":{"osm_id":"6939367811","tag":{"natural":"tree"}},"type":"Feature"},
	{"geometry":{"coordinates":[130.418788,33.634221],"type":"Point"},"properties":{"osm_id":"6939367812","tag":{"natural":"tree"}},"type":"Feature"},
	{"geometry":{"coordinates":[130.418768,33.634193],"type":"Point"},"properties":{"osm_id":"6939367813","tag":{"natural":"tree"}},"type":"Feature"},
	{"geometry":{"coordinates":[130.418817,33.634189],"type":"Point"},"properties":{"osm_id":"6939367814","tag":{"natural":"tree"}},"type":"Feature"},
	{"geometry":{"coordinates":[130.418686,33.63436],"type":"Point"},"properties":{"osm_id":"6939367815","tag":{"natural":"tree"}},"type":"Feature"},
	{"geometry":{"coordinates":[130.419226,33.649237],"type":"Point"},"properties":{"osm_id":"6989111085","tag":{"natural":"tree"}},"type":"Feature"},
	{"geometry":{"coordinates":[130.419197,33.649304],"type":"Point"},"properties":{"osm_id":"6989111086","tag":{"natural":"tree"}},"type":"Feature"},
	{"geometry":{"coordinates":[130.419104,33.649429],"type":"Point"},"properties":{"osm_id":"6989111087","tag":{"natural":"tree"}},"type":"Feature"},
	{"geometry":{"coordinates":[130.419072,33.649355],"type":"Point"},"properties":{"osm_id":"6989111088","tag":{"natural":"tree"}},"type":"Feature"},
	{"geometry":{"coordinates":[130.418866,33.649413],"type":"Point"},"properties":{"osm_id":"6989111089","tag":{"natural":"tree"}},"type":"Feature"},
	{"geometry":{"coordinates":[130.418694,33.649424],"type":"Point"},"properties":{"osm_id":"6989111090","tag":{"natural":"tree"}},"type":"Feature"},
	{"geometry":{"coordinates":[130.418547,33.649452],"type":"Point"},"properties":{"osm_id":"6989111091","tag":{"natural":"tree"}},"type":"Feature"},
	{"geometry":{"coordinates":[130.418478,33.650295],"type":"Point"},"properties":{"osm_id":"6989111092","tag":{"natural":"tree"}},"type":"Feature"},
	{"geometry":{"coordinates":[130.418034,33.650655],"type":"Point"},"properties":{"osm_id":"6989111093","tag":{"natural":"tree"}},"type":"Feature"},
	{"geometry":{"coordinates":[130.417897,33.650598],"type":"Point"},"properties":{"osm_id":"6989111094","tag":{"natural":"tree"}},"type":"Feature"},
	{"geometry":{"coordinates":[130.418199,33.650543],"type":"Point"},"properties":{"osm_id":"6989111095","tag":{"natural":"tree"}},"type":"Feature"},
	{"geometry":{"coordinates":[130.418071,33.650503],"type":"Point"},"properties":{"osm_id":"6989111096","tag":{"natural":"tree"}},"type":"Feature"},
	{"geometry":{"coordinates":[130.41803,33.650426],"type":"Point"},"properties":{"osm_id":"6989111097","tag":{"natural":"tree"}},"type":"Feature"},
	{"geometry":{"coordinates":[130.417995,33.65045],"type":"Point"},"properties":{"osm_id":"6989111098","tag":{"natural":"tree"}},"type":"Feature"},
	{"geometry":{"coordinates":[130.417954,33.650398],"type":"Point"},"properties":{"osm_id":"6989111099","tag":{"natural":"tree"}},"type":"Feature"},
	{"geometry":{"coordinates":[130.417909,33.650361],"type":"Point"},"properties":{"osm_id":"6989111100","tag":{"natural":"tree"}},"type":"Feature"},
	{"geometry":{"coordinates":[130.417869,33.650294],"type":"Point"},"properties":{"osm_id":"6989111101","tag":{"natural":"tree"}},"type":"Feature"},
	{"geometry":{"coordinates":[130.417884,33.650412],"type":"Point"},"properties":{"osm_id":"6989111102","tag":{"natural":"tree"}},"type":"Feature"},
	{"geometry":{"coordinates":[130.41782,33.650346],"type":"Point"},"properties":{"osm_id":"6989111103","tag":{"natural":"tree"}},"type":"Feature"},
	{"geometry":{"coordinates":[130.417758,33.650318],"type":"Point"},"properties":{"osm_id":"6989111104","tag":{"natural":"tree"}},"type":"Feature"},
	{"geometry":{"coordinates":[130.417715,33.650305],"type":"Point"},"properties":{"osm_id":"6989111105","tag":{"natural":"tree"}},"type":"Feature"},
	{"geometry":{"coordinates":[130.417711,33.650244],"type":"Point"},"properties":{"osm_id":"6989111106","tag":{"natural":"tree"}},"type":"Feature"},
	{"geometry":{"coordinates":[130.417699,33.650187],"type":"Point"},"properties":{"osm_id":"6989111107","tag":{"natural":"tree"}},"type":"Feature"},
	{"geometry":{"coordinates":[130.417641,33.65019],"type":"Point"},"properties":{"osm_id":"6989111108","tag":{"natural":"tree"}},"type":"Feature"},
	{"geometry":{"coordinates":[130.417702,33.650088],"type":"Point"},"properties":{"osm_id":"6989111109","tag":{"natural":"tree"}},"type":"Feature"},
	{"geometry":{"coordinates":[130.417512,33.650052],"type":"Point"},"properties":{"osm_id":"6989111110","tag":{"natural":"tree"}},"type":"Feature"},
	{"geometry":{"coordinates":[130.417628,33.650133],"type":"Point"},"properties":{"osm_id":"6989111111","tag":{"natural":"tree"}},"type":"Feature"},
	{"geometry":{"coordinates":[130.417524,33.650132],"type":"Point"},"properties":{"osm_id":"6989111112","tag":{"natural":"tree"}},"type":"Feature"},
	{"geometry":{"coordinates":[130.417592,33.650076],"type":"Point"},"properties":{"osm_id":"6989111113","tag":{"natural":"tree"}},"type":"Feature"},
	{"geometry":{"coordinates":[130.417505,33.649977],"type":"Point"},"properties":{"osm_id":"6989111114","tag":{"natural":"tree"}},"type":"Feature"},
	{"geometry":{"coordinates":[130.417419,33.650082],"type":"Point"},"properties":{"osm_id":"6989111115","tag":{"natural":"tree"}},"type":"Feature"},
	{"geometry":{"coordinates":[130.41738,33.649981],"type":"Point"},"properties":{"osm_id":"6989111116","tag":{"natural":"tree"}},"type":"Feature"},
	{"geometry":{"coordinates":[130.417478,33.650003],"type":"Point"},"properties":{"osm_id":"6989111117","tag":{"natural":"tree"}},"type":"Feature"},
	{"geometry":{"coordinates":[130.417511,33.649933],"type":"Point"},"properties":{"osm_id":"6989111118","tag":{"natural":"tree"}},"type":"Feature"},
	{"geometry":{"coordinates":[130.417455,33.649907],"type":"Point"},"properties":{"osm_id":"6989111119","tag":{"natural":"tree"}},"type":"Feature"},
	{"geometry":{"coordinates":[130.417334,33.649851],"type":"Point"},"properties":{"osm_id":"6989111120","tag":{"natural":"tree"}},"type":"Feature"},
	{"geometry":{"coordinates":[130.41727,33.649904],"type":"Point"},"properties":{"osm_id":"6989111121","tag":{"natural":"tree"}},"type":"Feature"},
	{"geometry":{"coordinates":[130.417125,33.649609],"type":"Point"},"properties":{"osm_id":"6989111122","tag":{"natural":"tree"}},"type":"Feature"},
	{"geometry":{"coordinates":[130.41712,33.649836],"type":"Point"},"properties":{"osm_id":"6989111123","tag":{"natural":"tree"}},"type":"Feature"},
	{"geometry":{"coordinates":[130.417103,33.649796],"type":"Point"},"properties":{"osm_id":"6989111124","tag":{"natural":"tree"}},"type":"Feature"},
	{"geometry":{"coordinates":[130.41693,33.649739],"type":"Point"},"properties":{"osm_id":"6989111125","tag":{"natural":"tree"}},"type":"Feature"},
	{"geometry":{"coordinates":[130.416991,33.649826],"type":"Point"},"properties":{"osm_id":"6989111126","tag":{"natural":"tree"}},"type":"Feature"},
	{"geometry":{"coordinates":[130.417049,33.649797],"type":"Point"},"properties":{"osm_id":"6989111127","tag":{"natural":"tree"}},"type":"Feature"},
	{"geometry":{"coordinates":[130.416931,33.649782],"type":"Point"},"properties":{"osm_id":"6989111128","tag":{"natural":"tree"}},"type":"Feature"},
	{"geometry":{"coordinates":[130.4172,33.649795],"type":"Point"},"properties":{"osm_id":"6989111129","tag":{"natural":"tree"}},"type":"Feature"},
	{"geometry":{"coordinates":[130.417105,33.649748],"type":"Point"},"properties":{"osm_id":"6989111130","tag":{"natural":"tree"}},"type":"Feature"},
	{"geometry":{"coordinates":[130.416868,33.64973],"type":"Point"},"properties":{"osm_id":"6989111131","tag":{"natural":"tree"}},"type":"Feature"},
	{"geometry":{"coordinates":[130.416841,33.649711],"type":"Point"},"properties":{"osm_id":"6989111132","tag":{"natural":"tree"}},"type":"Feature"},
	{"geometry":{"coordinates":[130.416753,33.649701],"type":"Point"},"properties":{"osm_id":"6989111133","tag":{"natural":"tree"}},"type":"Feature"},
	{"geometry":{"coordinates":[130.416998,33.649715],"type":"Point"},"properties":{"osm_id":"6989111134","tag":{"natural":"tree"}},"type":"Feature"},
	{"geometry":{"coordinates":[130.416839,33.649644],"type":"Point"},"properties":{"osm_id":"6989111135","tag":{"natural":"tree"}},"type":"Feature"},
	{"geometry":{"coordinates":[130.41676,33.649649],"type":"Point"},"properties":{"osm_id":"6989111136","tag":{"natural":"tree"}},"type":"Feature"},
	{"geometry":{"coordinates":[130.416711,33.649667],"type":"Point"},"properties":{"osm_id":"6989111137","tag":{"natural":"tree"}},"type":"Feature"},
	{"geometry":{"coordinates":[130.416793,33.649736],"type":"Point"},"properties":{"osm_id":"6989111138","tag":{"natural":"tree"}},"type":"Feature"},
	{"geometry":{"coordinates":[130.416908,33.649757],"type":"Point"},"properties":{"osm_id":"6989111139","tag":{"natural":"tree"}},"type":"Feature"},
	{"geometry":{"coordinates":[130.416586,33.649561],"type":"Point"},"properties":{"osm_id":"6989111140","tag":{"natural":"tree"}},"type":"Feature"},
	{"geometry":{"coordinates":[130.416704,33.649594],"type":"Point"},"properties":{"osm_id":"6989111141","tag":{"natural":"tree"}},"type":"Feature"},
	{"geometry":{"coordinates":[130.416598,33.649608],"type":"Point"},"properties":{"osm_id":"6989111142","tag":{"natural":"tree"}},"type":"Feature"},
	{"geometry":{"coordinates":[130.416607,33.649661],"type":"Point"},"properties":{"osm_id":"6989111143","tag":{"natural":"tree"}},"type":"Feature"},
	{"geometry":{"coordinates":[130.416641,33.649696],"type":"Point"},"properties":{"osm_id":"6989111144","tag":{"natural":"tree"}},"type":"Feature"},
	{"geometry":{"coordinates":[130.41892,33.649958],"type":"Point"},"properties":{"osm_id":"6989163158","tag":{"natural":"tree"}},"type":"Feature"},
	{"geometry":{"coordinates":[130.418982,33.649976],"type":"Point"},"properties":{"osm_id":"6989163159","tag":{"natural":"tree"}},"type":"Feature"},
	{"geometry":{"coordinates":[130.419,33.650025],"type":"Point"},"properties":{"osm_id":"6989163160","tag":{"natural":"tree"}},"type":"Feature"},
	{"geometry":{"coordinates":[130.419998,33.650435],"type":"Point"},"properties":{"osm_id":"6989163161","tag":{"natural":"tree"}},"type":"Feature"},
	{"geometry":{"coordinates":[130.419287,33.650579],"type":"Point"},"properties":{"osm_id":"6989163162","tag":{"natural":"tree"}},"type":"Feature"},
	{"geometry":{"coordinates":[130.419198,33.650595],"type":"Point"},"properties":{"osm_id":"6989163163","tag":{"natural":"tree"}},"type":"Feature"},
	{"geometry":{"coordinates":[130.419023,33.650633],"type":"Point"},"properties":{"osm_id":"6989163164","tag":{"natural":"tree"}},"type":"Feature"},
	{"geometry":{"coordinates":[130.419195,33.650289],"type":"Point"},"properties":{"osm_id":"6989163165","tag":{"natural":"tree"}},"type":"Feature"},
	{"geometry":{"coordinates":[130.419913,33.650067],"type":"Point"},"properties":{"osm_id":"6989163166","tag":{"natural":"tree"}},"type":"Feature"},
	{"geometry":{"coordinates":[130.420341,33.650384],"type":"Point"},"properties":{"osm_id":"6989163167","tag":{"natural":"tree"}},"type":"Feature"},
	{"geometry":{"coordinates":[130.42004,33.650373],"type":"Point"},"properties":{"osm_id":"6989163168","tag":{"natural":"tree"}},"type":"Feature"},
	{"geometry":{"coordinates":[130.420138,33.650366],"type":"Point"},"properties":{"osm_id":"6989163169","tag":{"natural":"tree"}},"type":"Feature"},
	{"geometry":{"coordinates":[130.420451,33.650262],"type":"Point"},"properties":{"osm_id":"6989163170","tag":{"natural":"tree"}},"type":"Feature"},
	{"geometry":{"coordinates":[130.420247,33.650213],"type":"Point"},"properties":{"osm_id":"6989163171","tag":{"natural":"tree"}},"type":"Feature"},
	{"geometry":{"coordinates":[130.420549,33.649971],"type":"Point"},"properties":{"osm_id":"6989163172","tag":{"natural":"tree"}},"type":"Feature"},
	{"geometry":{"coordinates":[130.420273,33.650019],"type":"Point"},"properties":{"osm_id":"6989163173","tag":{"natural":"tree"}},"type":"Feature"},
	{"geometry":{"coordinates":[130.420172,33.649653],"type":"Point"},"properties":{"osm_id":"6989163174","tag":{"natural":"tree"}},"type":"Feature"},
	{"geometry":{"coordinates":[130.419638,33.648995],"type":"Point"},"properties":{"osm_id":"6989163175","tag":{"natural":"tree"}},"type":"Feature"},
	{"geometry":{"coordinates":[130.41957,33.648927],"type":"Point"},"properties":{"osm_id":"6989163176","tag":{"natural":"tree"}},"type":"Feature"},
	{"geometry":{"coordinates":[130.419707,33.649042],"type":"Point"},"properties":{"osm_id":"6989163177","tag":{"natural":"tree"}},"type":"Feature"},
	{"geometry":{"coordinates":[130.419527,33.648882],"type":"Point"},"properties":{"osm_id":"6989163178","tag":{"natural":"tree"}},"type":"Feature"},
	{"geometry":{"coordinates":[130.419774,33.649081],"type":"Point"},"properties":{"osm_id":"6989163179","tag":{"natural":"tree"}},"type":"Feature"},
	{"geometry":{"coordinates":[130.419823,33.649107],"type":"Point"},"properties":{"osm_id":"6989163180","tag":{"natural":"tree"}},"type":"Feature"},
	{"geometry":{"coordinates":[130.420027,33.649389],"type":"Point"},"properties":{"osm_id":"6989163181","tag":{"natural":"tree"}},"type":"Feature"},
	{"geometry":{"coordinates":[130.420165,33.649405],"type":"Point"},"properties":{"osm_id":"6989163182","tag":{"natural":"tree"}},"type":"Feature"},
	{"geometry":{"coordinates":[130.420537,33.649473],"type":"Point"},"properties":{"osm_id":"6989163183","tag":{"natural":"tree"}},"type":"Feature"},
	{"geometry":{"coordinates":[130.4204,33.649242],"type":"Point"},"properties":{"osm_id":"6989163184","tag":{"natural":"tree"}},"type":"Feature"},
	{"geometry":{"coordinates":[130.421544,33.649184],"type":"Point"},"properties":{"osm_id":"6989167685","tag":{"natural":"tree"}},"type":"Feature"},
	{"geometry":{"coordinates":[130.421525,33.649137],"type":"Point"},"properties":{"osm_id":"6989167686","tag":{"natural":"tree"}},"type":"Feature"},
	{"geometry":{"coordinates":[130.420808,33.648938],"type":"Point"},"properties":{"osm_id":"6989167687","tag":{"natural":"tree"}},"type":"Feature"},
	{"geometry":{"coordinates":[130.421331,33.648853],"type":"Point"},"properties":{"osm_id":"6989167688","tag":{"natural":"tree"}},"type":"Feature"},
	{"geometry":{"coordinates":[130.421241,33.64882],"type":"Point"},"properties":{"osm_id":"6989167689","tag":{"natural":"tree"}},"type":"Feature"},
	{"geometry":{"coordinates":[130.421138,33.648819],"type":"Point"},"properties":{"osm_id":"6989167690","tag":{"natural":"tree"}},"type":"Feature"},
	{"geometry":{"coordinates":[130.421333,33.649082],"type":"Point"},"properties":{"osm_id":"6989167691","tag":{"natural":"tree"}},"type":"Feature"},
	{"geometry":{"coordinates":[130.421146,33.649007],"type":"Point"},"properties":{"osm_id":"6989167692","tag":{"natural":"tree"}},"type":"Feature"},
	{"geometry":{"coordinates":[130.421545,33.649374],"type":"Point"},"properties":{"osm_id":"6989167693","tag":{"natural":"tree"}},"type":"Feature"},
	{"geometry":{"coordinates":[130.421529,33.649336],"type":"Point"},"properties":{"osm_id":"6989167694","tag":{"natural":"tree"}},"type":"Feature"},
	{"geometry":{"coordinates":[130.421441,33.64939],"type":"Point"},"properties":{"osm_id":"6989167695","tag":{"natural":"tree"}},"type":"Feature"},
	{"geometry":{"coordinates":[130.421386,33.649469],"type":"Point"},"properties":{"osm_id":"6989167696","tag":{"natural":"tree"}},"type":"Feature"},
	{"geometry":{"coordinates":[130.421306,33.649527],"type":"Point"},"properties":{"osm_id":"6989167697","tag":{"natural":"tree"}},"type":"Feature"},
	{"geometry":{"coordinates":[130.421265,33.649579],"type":"Point"},"properties":{"osm_id":"6989167698","tag":{"natural":"tree"}},"type":"Feature"},
	{"geometry":{"coordinates":[130.421453,33.649688],"type":"Point"},"properties":{"osm_id":"6989167699","tag":{"natural":"tree"}},"type":"Feature"},
	{"geometry":{"coordinates":[130.421327,33.649801],"type":"Point"},"properties":{"osm_id":"6989167700","tag":{"natural":"tree"}},"type":"Feature"},
	{"geometry":{"coordinates":[130.421309,33.649742],"type":"Point"},"properties":{"osm_id":"6989167701","tag":{"natural":"tree"}},"type":"Feature"},
	{"geometry":{"coordinates":[130.421243,33.649797],"type":"Point"},"properties":{"osm_id":"6989167702","tag":{"natural":"tree"}},"type":"Feature"},
	{"geometry":{"coordinates":[130.42116,33.649808],"type":"Point"},"properties":{"osm_id":"6989167703","tag":{"natural":"tree"}},"type":"Feature"},
	{"geometry":{"coordinates":[130.421151,33.649684],"type":"Point"},"properties":{"osm_id":"6989167704","tag":{"natural":"tree"}},"type":"Feature"},
	{"geometry":{"coordinates":[130.421096,33.649703],"type":"Point"},"properties":{"osm_id":"6989167705","tag":{"natural":"tree"}},"type":"Feature"},
	{"geometry":{"coordinates":[130.421068,33.649778],"type":"Point"},"properties":{"osm_id":"6989167706","tag":{"natural":"tree"}},"type":"Feature"},
	{"geometry":{"coordinates":[130.420974,33.64984],"type":"Point"},"properties":{"osm_id":"6989167707","tag":{"natural":"tree"}},"type":"Feature"},
	{"geometry":{"coordinates":[130.42096,33.649926],"type":"Point"},"properties":{"osm_id":"6989167708","tag":{"natural":"tree"}},"type":"Feature"},
	{"geometry":{"coordinates":[130.42092,33.649924],"type":"Point"},"properties":{"osm_id":"6989167709","tag":{"natural":"tree"}},"type":"Feature"},
	{"geometry":{"coordinates":[130.420876,33.649883],"type":"Point"},"properties":{"osm_id":"6989167710","tag":{"natural":"tree"}},"type":"Feature"},
	{"geometry":{"coordinates":[130.420816,33.649835],"type":"Point"},"properties":{"osm_id":"6989167711","tag":{"natural":"tree"}},"type":"Feature"},
	{"geometry":{"coordinates":[130.420161,33.649822],"type":"Point"},"properties":{"osm_id":"6989167712","tag":{"natural":"tree"}},"type":"Feature"},
	{"geometry":{"coordinates":[130.420754,33.650055],"type":"Point"},"properties":{"osm_id":"6989167713","tag":{"natural":"tree"}},"type":"Feature"},
	{"geometry":{"coordinates":[130.420719,33.650021],"type":"Point"},"properties":{"osm_id":"6989167714","tag":{"natural":"tree"}},"type":"Feature"},
	{"geometry":{"coordinates":[130.420687,33.649979],"type":"Point"},"properties":{"osm_id":"6989167715","tag":{"natural":"tree"}},"type":"Feature"},
	{"geometry":{"coordinates":[130.420652,33.649933],"type":"Point"},"properties":{"osm_id":"6989167716","tag":{"natural":"tree"}},"type":"Feature"},
	{"geometry":{"coordinates":[130.420631,33.649904],"type":"Point"},"properties":{"osm_id":"6989167717","tag":{"natural":"tree"}},"type":"Feature"},
	{"geometry":{"coordinates":[130.420597,33.649869],"type":"Point"},"properties":{"osm_id":"6989167718","tag":{"natural":"tree"}},"type":"Feature"},
	{"geometry":{"coordinates":[130.420568,33.649829],"type":"Point"},"properties":{"osm_id":"6989167719","tag":{"natural":"tree"}},"type":"Feature"},
	{"geometry":{"coordinates":[130.420535,33.64979],"type":"Point"},"properties":{"osm_id":"6989167720","tag":{"natural":"tree"}},"type":"Feature"},
	{"geometry":{"coordinates":[130.420463,33.649694],"type":"Point"},"properties":{"osm_id":"6989167721","tag":{"natural":"tree"}},"type":"Feature"},
	{"geometry":{"coordinates":[130.420423,33.649657],"type":"Point"},"properties":{"osm_id":"6989167722","tag":{"natural":"tree"}},"type":"Feature"},
	{"geometry":{"coordinates":[130.4204,33.649617],"type":"Point"},"properties":{"osm_id":"6989167723","tag":{"natural":"tree"}},"type":"Feature"},
	{"geometry":{"coordinates":[130.420365,33.649575],"type":"Point"},"properties":{"osm_id":"6989167724","tag":{"natural":"tree"}},"type":"Feature"},
	{"geometry":{"coordinates":[130.420327,33.649527],"type":"Point"},"properties":{"osm_id":"6989167725","tag":{"natural":"tree"}},"type":"Feature"},
	{"geometry":{"coordinates":[130.420286,33.649472],"type":"Point"},"properties":{"osm_id":"6989167726","tag":{"natural":"tree"}},"type":"Feature"},
	{"geometry":{"coordinates":[130.420254,33.649417],"type":"Point"},"properties":{"osm_id":"6989167727","tag":{"natural":"tree"}},"type":"Feature"},
	{"geometry":{"coordinates":[130.420204,33.649367],"type":"Point"},"properties":{"osm_id":"6989167728","tag":{"natural":"tree"}},"type":"Feature"},
	{"geometry":{"coordinates":[130.420173,33.64932],"type":"Point"},"properties":{"osm_id":"6989167729","tag":{"natural":"tree"}},"type":"Feature"},
	{"geometry":{"coordinates":[130.419731,33.648776],"type":"Point"},"properties":{"osm_id":"6989167730","tag":{"natural":"tree"}},"type":"Feature"},
	{"geometry":{"coordinates":[130.420022,33.64904],"type":"Point"},"properties":{"osm_id":"6989167731","tag":{"natural":"tree"}},"type":"Feature"},
	{"geometry":{"coordinates":[130.419898,33.648958],"type":"Point"},"properties":{"osm_id":"6989167732","tag":{"natural":"tree"}},"type":"Feature"},
	{"geometry":{"coordinates":[130.419786,33.648909],"type":"Point"},"properties":{"osm_id":"6989167733","tag":{"natural":"tree"}},"type":"Feature"},
	{"geometry":{"coordinates":[130.419666,33.648863],"type":"Point"},"properties":{"osm_id":"6989167734","tag":{"natural":"tree"}},"type":"Feature"},
	{"geometry":{"coordinates":[130.419853,33.649936],"type":"Point"},"properties":{"osm_id":"6989167737","tag":{"natural":"tree"}},"type":"Feature"},
	{"geometry":{"coordinates":[130.419784,33.649661],"type":"Point"},"properties":{"osm_id":"6989167738","tag":{"natural":"tree"}},"type":"Feature"},
	{"geometry":{"coordinates":[130.419922,33.649616],"type":"Point"},"properties":{"osm_id":"6989167739","tag":{"natural":"tree"}},"type":"Feature"},
	{"geometry":{"coordinates":[130.419949,33.649693],"type":"Point"},"properties":{"osm_id":"6989167740","tag":{"natural":"tree"}},"type":"Feature"},
	{"geometry":{"coordinates":[130.419676,33.649423],"type":"Point"},"properties":{"osm_id":"6989167741","tag":{"natural":"tree"}},"type":"Feature"},
	{"geometry":{"coordinates":[130.41953,33.649403],"type":"Point"},"properties":{"osm_id":"6989167742","tag":{"natural":"tree"}},"type":"Feature"},
	{"geometry":{"coordinates":[130.41944,33.649402],"type":"Point"},"properties":{"osm_id":"6989167743","tag":{"natural":"tree"}},"type":"Feature"},
	{"geometry":{"coordinates":[130.4193,33.64945],"type":"Point"},"properties":{"osm_id":"6989167744","tag":{"natural":"tree"}},"type":"Feature"},
	{"geometry":{"coordinates":[130.419224,33.649486],"type":"Point"},"properties":{"osm_id":"6989167745","tag":{"natural":"tree"}},"type":"Feature"},
	{"geometry":{"coordinates":[130.419218,33.650367],"type":"Point"},"properties":{"osm_id":"6989167746","tag":{"natural":"tree"}},"type":"Feature"},
	{"geometry":{"coordinates":[130.419271,33.650349],"type":"Point"},"properties":{"osm_id":"6989167747","tag":{"natural":"tree"}},"type":"Feature"},
	{"geometry":{"coordinates":[130.41842,33.650697],"type":"Point"},"properties":{"osm_id":"6989167748","tag":{"natural":"tree"}},"type":"Feature"},
	{"geometry":{"coordinates":[130.418932,33.650565],"type":"Point"},"properties":{"osm_id":"6989167749","tag":{"natural":"tree"}},"type":"Feature"},
	{"geometry":{"coordinates":[130.419027,33.650529],"type":"Point"},"properties":{"osm_id":"6989167750","tag":{"natural":"tree"}},"type":"Feature"},
	{"geometry":{"coordinates":[130.419732,33.650478],"type":"Point"},"properties":{"osm_id":"6989167751","tag":{"natural":"tree"}},"type":"Feature"},
	{"geometry":{"coordinates":[130.4199,33.650449],"type":"Point"},"properties":{"osm_id":"6989167752","tag":{"natural":"tree"}},"type":"Feature"},
	{"geometry":{"coordinates":[130.419948,33.650383],"type":"Point"},"properties":{"osm_id":"6989167753","tag":{"natural":"tree"}},"type":"Feature"},
	{"geometry":{"coordinates":[130.419823,33.650404],"type":"Point"},"properties":{"osm_id":"6989167754","tag":{"natural":"tree"}},"type":"Feature"},
	{"geometry":{"coordinates":[130.419743,33.650423],"type":"Point"},"properties":{"osm_id":"6989167755","tag":{"natural":"tree"}},"type":"Feature"},
	{"geometry":{"coordinates":[130.419642,33.650451],"type":"Point"},"properties":{"osm_id":"6989167756","tag":{"natural":"tree"}},"type":"Feature"},
	{"geometry":{"coordinates":[130.419652,33.650333],"type":"Point"},"properties":{"osm_id":"6989167757","tag":{"natural":"tree"}},"type":"Feature"},
	{"geometry":{"coordinates":[130.419557,33.650338],"type":"Point"},"properties":{"osm_id":"6989167758","tag":{"natural":"tree"}},"type":"Feature"},
	{"geometry":{"coordinates":[130.419458,33.65034],"type":"Point"},"properties":{"osm_id":"6989167759","tag":{"natural":"tree"}},"type":"Feature"},
	{"geometry":{"coordinates":[130.419497,33.650478],"type":"Point"},"properties":{"osm_id":"6989167760","tag":{"natural":"tree"}},"type":"Feature"},
	{"geometry":{"coordinates":[130.419366,33.650471],"type":"Point"},"properties":{"osm_id":"6989167761","tag":{"natural":"tree"}},"type":"Feature"},
	{"geometry":{"coordinates":[130.419226,33.650476],"type":"Point"},"properties":{"osm_id":"6989167762","tag":{"natural":"tree"}},"type":"Feature"},
	{"geometry":{"coordinates":[130.418527,33.650683],"type":"Point"},"properties":{"osm_id":"6989167763","tag":{"natural":"tree"}},"type":"Feature"},
	{"geometry":{"coordinates":[130.418644,33.65068],"type":"Point"},"properties":{"osm_id":"6989167764","tag":{"natural":"tree"}},"type":"Feature"},
	{"geometry":{"coordinates":[130.418746,33.650656],"type":"Point"},"properties":{"osm_id":"6989167765","tag":{"natural":"tree"}},"type":"Feature"},
	{"geometry":{"coordinates":[130.419069,33.650568],"type":"Point"},"properties":{"osm_id":"6989167766","tag":{"natural":"tree"}},"type":"Feature"},
	{"geometry":{"coordinates":[130.418952,33.650647],"type":"Point"},"properties":{"osm_id":"6989167767","tag":{"natural":"tree"}},"type":"Feature"},
	{"geometry":{"coordinates":[130.418866,33.650661],"type":"Point"},"properties":{"osm_id":"6989167768","tag":{"natural":"tree"}},"type":"Feature"},
	{"geometry":{"coordinates":[130.41919,33.650249],"type":"Point"},"properties":{"osm_id":"6989167769","tag":{"natural":"tree"}},"type":"Feature"},
	{"geometry":{"coordinates":[130.41915,33.649997],"type":"Point"},"properties":{"osm_id":"6989167770","tag":{"natural":"tree"}},"type":"Feature"},
	{"geometry":{"coordinates":[130.419025,33.649927],"type":"Point"},"properties":{"osm_id":"6989167771","tag":{"natural":"tree"}},"type":"Feature"},
	{"geometry":{"coordinates":[130.418956,33.649909],"type":"Point"},"properties":{"osm_id":"6989167772","tag":{"natural":"tree"}},"type":"Feature"},
	{"geometry":{"coordinates":[130.418785,33.650032],"type":"Point"},"properties":{"osm_id":"6989167773","tag":{"natural":"tree"}},"type":"Feature"},
	{"geometry":{"coordinates":[130.418732,33.650057],"type":"Point"},"properties":{"osm_id":"6989167774","tag":{"natural":"tree"}},"type":"Feature"},
	{"geometry":{"coordinates":[130.418689,33.65011],"type":"Point"},"properties":{"osm_id":"6989167775","tag":{"natural":"tree"}},"type":"Feature"},
	{"geometry":{"coordinates":[130.419035,33.650052],"type":"Point"},"properties":{"osm_id":"6989167776","tag":{"natural":"tree"}},"type":"Feature"},
	{"geometry":{"coordinates":[130.419092,33.650154],"type":"Point"},"properties":{"osm_id":"6989167777","tag":{"natural":"tree"}},"type":"Feature"},
	{"geometry":{"coordinates":[130.419094,33.650217],"type":"Point"},"properties":{"osm_id":"6989167778","tag":{"natural":"tree"}},"type":"Feature"},
	{"geometry":{"coordinates":[130.419076,33.650294],"type":"Point"},"properties":{"osm_id":"6989167779","tag":{"natural":"tree"}},"type":"Feature"},
	{"geometry":{"coordinates":[130.419011,33.650354],"type":"Point"},"properties":{"osm_id":"6989167780","tag":{"natural":"tree"}},"type":"Feature"},
	{"geometry":{"coordinates":[130.418933,33.650388],"type":"Point"},"properties":{"osm_id":"6989167781","tag":{"natural":"tree"}},"type":"Feature"},
	{"geometry":{"coordinates":[130.41884,33.650396],"type":"Point"},"properties":{"osm_id":"6989167782","tag":{"natural":"tree"}},"type":"Feature"},
	{"geometry":{"coordinates":[130.418776,33.650378],"type":"Point"},"properties":{"osm_id":"6989167783","tag":{"natural":"tree"}},"type":"Feature"},
	{"geometry":{"coordinates":[130.418641,33.650191],"type":"Point"},"properties":{"osm_id":"6989167784","tag":{"natural":"tree"}},"type":"Feature"},
	{"geometry":{"coordinates":[130.418647,33.650268],"type":"Point"},"properties":{"osm_id":"6989167785","tag":{"natural":"tree"}},"type":"Feature"},
	{"geometry":{"coordinates":[130.418693,33.650338],"type":"Point"},"properties":{"osm_id":"6989167786","tag":{"natural":"tree"}},"type":"Feature"},
	{"geometry":{"coordinates":[130.41863,33.650528],"type":"Point"},"properties":{"osm_id":"6989167787","tag":{"natural":"tree"}},"type":"Feature"},
	{"geometry":{"coordinates":[130.415103,33.649074],"type":"Point"},"properties":{"osm_id":"6989167788","tag":{"natural":"tree"}},"type":"Feature"},
	{"geometry":{"coordinates":[130.415415,33.649036],"type":"Point"},"properties":{"osm_id":"6989167789","tag":{"natural":"tree"}},"type":"Feature"},
	{"geometry":{"coordinates":[130.415255,33.648988],"type":"Point"},"properties":{"osm_id":"6989167790","tag":{"natural":"tree"}},"type":"Feature"},
	{"geometry":{"coordinates":[130.415164,33.64898],"type":"Point"},"properties":{"osm_id":"6989167791","tag":{"natural":"tree"}},"type":"Feature"},
	{"geometry":{"coordinates":[130.414331,33.648914],"type":"Point"},"properties":{"osm_id":"6989167792","tag":{"natural":"tree"}},"type":"Feature"},
	{"geometry":{"coordinates":[130.414317,33.649109],"type":"Point"},"properties":{"osm_id":"6989167797","tag":{"natural":"tree"}},"type":"Feature"},
	{"geometry":{"coordinates":[130.414237,33.648654],"type":"Point"},"properties":{"osm_id":"6989167809","tag":{"natural":"tree"}},"type":"Feature"},
	{"geometry":{"coordinates":[130.414036,33.648412],"type":"Point"},"properties":{"osm_id":"6989167816","tag":{"natural":"tree"}},"type":"Feature"},
	{"geometry":{"coordinates":[130.413964,33.648219],"type":"Point"},"properties":{"osm_id":"6989167817","tag":{"natural":"tree"}},"type":"Feature"},
	{"geometry":{"coordinates":[130.413818,33.648292],"type":"Point"},"properties":{"osm_id":"6989167818","tag":{"natural":"tree"}},"type":"Feature"},
	{"geometry":{"coordinates":[130.413842,33.648188],"type":"Point"},"properties":{"osm_id":"6989167819","tag":{"natural":"tree"}},"type":"Feature"},
	{"geometry":{"coordinates":[130.413666,33.648103],"type":"Point"},"properties":{"osm_id":"6989167820","tag":{"natural":"tree"}},"type":"Feature"},
	{"geometry":{"coordinates":[130.413614,33.648198],"type":"Point"},"properties":{"osm_id":"6989167821","tag":{"natural":"tree"}},"type":"Feature"},
	{"geometry":{"coordinates":[130.41446,33.649602],"type":"Point"},"properties":{"osm_id":"6989167822","tag":{"natural":"tree"}},"type":"Feature"},
	{"geometry":{"coordinates":[130.414368,33.649639],"type":"Point"},"properties":{"osm_id":"6989167823","tag":{"natural":"tree"}},"type":"Feature"},
	{"geometry":{"coordinates":[130.413928,33.64978],"type":"Point"},"properties":{"osm_id":"6989167824","tag":{"natural":"tree"}},"type":"Feature"},
	{"geometry":{"coordinates":[130.413839,33.649742],"type":"Point"},"properties":{"osm_id":"6989167825","tag":{"natural":"tree"}},"type":"Feature"},
	{"geometry":{"coordinates":[130.413779,33.649713],"type":"Point"},"properties":{"osm_id":"6989167826","tag":{"natural":"tree"}},"type":"Feature"},
	{"geometry":{"coordinates":[130.413782,33.649767],"type":"Point"},"properties":{"osm_id":"6989167827","tag":{"natural":"tree"}},"type":"Feature"},
	{"geometry":{"coordinates":[130.41384,33.649323],"type":"Point"},"properties":{"osm_id":"6989167828","tag":{"natural":"tree"}},"type":"Feature"},
	{"geometry":{"coordinates":[130.414006,33.649339],"type":"Point"},"properties":{"osm_id":"6989167829","tag":{"natural":"tree"}},"type":"Feature"},
	{"geometry":{"coordinates":[130.413551,33.648618],"type":"Point"},"properties":{"osm_id":"6989167830","tag":{"natural":"tree"}},"type":"Feature"},
	{"geometry":{"coordinates":[130.413786,33.649653],"type":"Point"},"properties":{"osm_id":"6989167831","tag":{"natural":"tree"}},"type":"Feature"},
	{"geometry":{"coordinates":[130.413869,33.649632],"type":"Point"},"properties":{"osm_id":"6989167832","tag":{"natural":"tree"}},"type":"Feature"},
	{"geometry":{"coordinates":[130.414527,33.64958],"type":"Point"},"properties":{"osm_id":"6989167833","tag":{"natural":"tree"}},"type":"Feature"},
	{"geometry":{"coordinates":[130.41472,33.649422],"type":"Point"},"properties":{"osm_id":"6989167834","tag":{"natural":"tree"}},"type":"Feature"},
	{"geometry":{"coordinates":[130.41474,33.649479],"type":"Point"},"properties":{"osm_id":"6989167835","tag":{"natural":"tree"}},"type":"Feature"},
	{"geometry":{"coordinates":[130.414299,33.649376],"type":"Point"},"properties":{"osm_id":"6989167836","tag":{"natural":"tree"}},"type":"Feature"},
	{"geometry":{"coordinates":[130.414236,33.649648],"type":"Point"},"properties":{"osm_id":"6989167837","tag":{"natural":"tree"}},"type":"Feature"},
	{"geometry":{"coordinates":[130.414291,33.649664],"type":"Point"},"properties":{"osm_id":"6989167838","tag":{"natural":"tree"}},"type":"Feature"},
	{"geometry":{"coordinates":[130.414374,33.649591],"type":"Point"},"properties":{"osm_id":"6989167839","tag":{"natural":"tree"}},"type":"Feature"},
	{"geometry":{"coordinates":[130.414301,33.649614],"type":"Point"},"properties":{"osm_id":"6989167840","tag":{"natural":"tree"}},"type":"Feature"},
	{"geometry":{"coordinates":[130.414371,33.649547],"type":"Point"},"properties":{"osm_id":"6989167841","tag":{"natural":"tree"}},"type":"Feature"},
	{"geometry":{"coordinates":[130.414317,33.649543],"type":"Point"},"properties":{"osm_id":"6989167842","tag":{"natural":"tree"}},"type":"Feature"},
	{"geometry":{"coordinates":[130.414178,33.649565],"type":"Point"},"properties":{"osm_id":"6989167843","tag":{"natural":"tree"}},"type":"Feature"},
	{"geometry":{"coordinates":[130.414164,33.649666],"type":"Point"},"properties":{"osm_id":"6989167844","tag":{"natural":"tree"}},"type":"Feature"},
	{"geometry":{"coordinates":[130.414185,33.6497],"type":"Point"},"properties":{"osm_id":"6989167845","tag":{"natural":"tree"}},"type":"Feature"},
	{"geometry":{"coordinates":[130.413785,33.649597],"type":"Point"},"properties":{"osm_id":"6989167846","tag":{"natural":"tree"}},"type":"Feature"},
	{"geometry":{"coordinates":[130.413584,33.649245],"type":"Point"},"properties":{"osm_id":"6989167847","tag":{"natural":"tree"}},"type":"Feature"},
	{"geometry":{"coordinates":[130.413413,33.648968],"type":"Point"},"properties":{"osm_id":"6989167848","tag":{"natural":"tree"}},"type":"Feature"},
	{"geometry":{"coordinates":[130.41345,33.649058],"type":"Point"},"properties":{"osm_id":"6989167849","tag":{"natural":"tree"}},"type":"Feature"},
	{"geometry":{"coordinates":[130.413505,33.649062],"type":"Point"},"properties":{"osm_id":"6989167850","tag":{"natural":"tree"}},"type":"Feature"},
	{"geometry":{"coordinates":[130.413533,33.648967],"type":"Point"},"properties":{"osm_id":"6989167851","tag":{"natural":"tree"}},"type":"Feature"},
	{"geometry":{"coordinates":[130.413816,33.649117],"type":"Point"},"properties":{"osm_id":"6989167852","tag":{"natural":"tree"}},"type":"Feature"},
	{"geometry":{"coordinates":[130.413718,33.649035],"type":"Point"},"properties":{"osm_id":"6989167853","tag":{"natural":"tree"}},"type":"Feature"},
	{"geometry":{"coordinates":[130.413661,33.648985],"type":"Point"},"properties":{"osm_id":"6989167854","tag":{"natural":"tree"}},"type":"Feature"},
	{"geometry":{"coordinates":[130.413668,33.649045],"type":"Point"},"properties":{"osm_id":"6989167855","tag":{"natural":"tree"}},"type":"Feature"},
	{"geometry":{"coordinates":[130.413574,33.648566],"type":"Point"},"properties":{"osm_id":"6989167856","tag":{"natural":"tree"}},"type":"Feature"},
	{"geometry":{"coordinates":[130.413871,33.648809],"type":"Point"},"properties":{"osm_id":"6989167857","tag":{"natural":"tree"}},"type":"Feature"},
	{"geometry":{"coordinates":[130.413802,33.648768],"type":"Point"},"properties":{"osm_id":"6989167858","tag":{"natural":"tree"}},"type":"Feature"},
	{"geometry":{"coordinates":[130.414195,33.648979],"type":"Point"},"properties":{"osm_id":"6989167859","tag":{"natural":"tree"}},"type":"Feature"},
	{"geometry":{"coordinates":[130.414239,33.649032],"type":"Point"},"properties":{"osm_id":"6989167860","tag":{"natural":"tree"}},"type":"Feature"},
	{"geometry":{"coordinates":[130.414105,33.649321],"type":"Point"},"properties":{"osm_id":"6989167861","tag":{"natural":"tree"}},"type":"Feature"},
	{"geometry":{"coordinates":[130.414449,33.649248],"type":"Point"},"properties":{"osm_id":"6989167862","tag":{"natural":"tree"}},"type":"Feature"},
	{"geometry":{"coordinates":[130.414578,33.649002],"type":"Point"},"properties":{"osm_id":"6989167863","tag":{"natural":"tree"}},"type":"Feature"},
	{"geometry":{"coordinates":[130.413713,33.64927],"type":"Point"},"properties":{"osm_id":"6989167864","tag":{"natural":"tree"}},"type":"Feature"},
	{"geometry":{"coordinates":[130.414407,33.649133],"type":"Point"},"properties":{"osm_id":"6989167865","tag":{"natural":"tree"}},"type":"Feature"},
	{"geometry":{"coordinates":[130.415302,33.64911],"type":"Point"},"properties":{"osm_id":"6989167866","tag":{"natural":"tree"}},"type":"Feature"},
	{"geometry":{"coordinates":[130.415125,33.649162],"type":"Point"},"properties":{"osm_id":"6989167867","tag":{"natural":"tree"}},"type":"Feature"},
	{"geometry":{"coordinates":[130.415487,33.649216],"type":"Point"},"properties":{"osm_id":"6989167868","tag":{"natural":"tree"}},"type":"Feature"},
	{"geometry":{"coordinates":[130.415053,33.649361],"type":"Point"},"properties":{"osm_id":"6989167869","tag":{"natural":"tree"}},"type":"Feature"},
	{"geometry":{"coordinates":[130.415096,33.649326],"type":"Point"},"properties":{"osm_id":"6989167870","tag":{"natural":"tree"}},"type":"Feature"},
	{"geometry":{"coordinates":[130.4148,33.648917],"type":"Point"},"properties":{"osm_id":"6989167871","tag":{"natural":"tree"}},"type":"Feature"},
	{"geometry":{"coordinates":[130.414928,33.648928],"type":"Point"},"properties":{"osm_id":"6989167872","tag":{"natural":"tree"}},"type":"Feature"},
	{"geometry":{"coordinates":[130.414978,33.649176],"type":"Point"},"properties":{"osm_id":"6989167873","tag":{"natural":"tree"}},"type":"Feature"},
	{"geometry":{"coordinates":[130.416663,33.649621],"type":"Point"},"properties":{"osm_id":"6989167874","tag":{"natural":"tree"}},"type":"Feature"},
	{"geometry":{"coordinates":[130.413709,33.64952],"type":"Point"},"properties":{"osm_id":"6989901192","tag":{"natural":"tree"}},"type":"Feature"},
	{"geometry":{"coordinates":[130.414244,33.649346],"type":"Point"},"properties":{"osm_id":"6989901193","tag":{"natural":"tree"}},"type":"Feature"},
	{"geometry":{"coordinates":[130.41405,33.649288],"type":"Point"},"properties":{"osm_id":"6989901194","tag":{"natural":"tree"}},"type":"Feature"},
	{"geometry":{"coordinates":[130.41554,33.649192],"type":"Point"},"properties":{"osm_id":"6989901196","tag":{"natural":"tree"}},"type":"Feature"},
	{"geometry":{"coordinates":[130.41959,33.649327],"type":"Point"},"properties":{"osm_id":"6989901197","tag":{"natural":"tree"}},"type":"Feature"},
	{"geometry":{"coordinates":[130.419489,33.649318],"type":"Point"},"properties":{"osm_id":"6989901198","tag":{"natural":"tree"}},"type":"Feature"},
	{"geometry":{"coordinates":[130.413886,33.648732],"type":"Point"},"properties":{"osm_id":"6990200335","tag":{"natural":"tree"}},"type":"Feature"},
	{"geometry":{"coordinates":[130.413916,33.64857],"type":"Point"},"properties":{"osm_id":"6990200336","tag":{"natural":"tree"}},"type":"Feature"},
	{"geometry":{"coordinates":[130.414113,33.649004],"type":"Point"},"properties":{"osm_id":"6991140649","tag":{"natural":"tree"}},"type":"Feature"},
	{"geometry":{"coordinates":[130.414136,33.648974],"type":"Point"},"properties":{"osm_id":"6991140650","tag":{"natural":"tree"}},"type":"Feature"},
	{"geometry":{"coordinates":[130.414228,33.649005],"type":"Point"},"properties":{"osm_id":"6991140651","tag":{"natural":"tree"}},"type":"Feature"},
	{"geometry":{"coordinates":[130.414942,33.64894],"type":"Point"},"properties":{"osm_id":"6991158333","tag":{"natural":"tree"}},"type":"Feature"},
	{"geometry":{"coordinates":[130.414857,33.648931],"type":"Point"},"properties":{"osm_id":"6991158334","tag":{"natural":"tree"}},"type":"Feature"},
	{"geometry":{"coordinates":[130.41475,33.648908],"type":"Point"},"properties":{"osm_id":"6991158335","tag":{"natural":"tree"}},"type":"Feature"},
	{"geometry":{"coordinates":[130.414793,33.648887],"type":"Point"},"properties":{"osm_id":"6991158336","tag":{"natural":"tree"}},"type":"Feature"},
	{"geometry":{"coordinates":[130.41489,33.648914],"type":"Point"},"properties":{"osm_id":"6991158337","tag":{"natural":"tree"}},"type":"Feature"},
	{"geometry":{"coordinates":[130.413886,33.648523],"type":"Point"},"properties":{"osm_id":"6991231655","tag":{"natural":"tree"}},"type":"Feature"},
	{"geometry":{"coordinates":[130.413895,33.648373],"type":"Point"},"properties":{"osm_id":"6991231656","tag":{"natural":"tree"}},"type":"Feature"},
	{"geometry":{"coordinates":[130.414001,33.648354],"type":"Point"},"properties":{"osm_id":"6991231657","tag":{"natural":"tree"}},"type":"Feature"},
	{"geometry":{"coordinates":[130.413482,33.648459],"type":"Point"},"properties":{"osm_id":"6991240353","tag":{"natural":"tree"}},"type":"Feature"},
	{"geometry":{"coordinates":[130.413877,33.649196],"type":"Point"},"properties":{"osm_id":"6991240397","tag":{"natural":"tree"}},"type":"Feature"},
	{"geometry":{"coordinates":[130.413909,33.649228],"type":"Point"},"properties":{"osm_id":"6991240398","tag":{"natural":"tree"}},"type":"Feature"},
	{"geometry":{"coordinates":[130.414193,33.649219],"type":"Point"},"properties":{"osm_id":"6991240399","tag":{"natural":"tree"}},"type":"Feature"},
	{"geometry":{"coordinates":[130.414328,33.649095],"type":"Point"},"properties":{"osm_id":"6991240400","tag":{"natural":"tree"}},"type":"Feature"},
	{"geometry":{"coordinates":[130.414631,33.649012],"type":"Point"},"properties":{"osm_id":"6991240401","tag":{"natural":"tree"}},"type":"Feature"},
	{"geometry":{"coordinates":[130.414402,33.64911],"type":"Point"},"properties":{"osm_id":"6991240402","tag":{"natural":"tree"}},"type":"Feature"},
	{"geometry":{"coordinates":[130.414461,33.649113],"type":"Point"},"properties":{"osm_id":"6991240403","tag":{"natural":"tree"}},"type":"Feature"},
	{"geometry":{"coordinates":[130.414525,33.648983],"type":"Point"},"properties":{"osm_id":"6991240404","tag":{"natural":"tree"}},"type":"Feature"},
	{"geometry":{"coordinates":[130.413682,33.648812],"type":"Point"},"properties":{"osm_id":"6991275374","tag":{"natural":"tree"}},"type":"Feature"},
	{"geometry":{"coordinates":[130.413704,33.64878],"type":"Point"},"properties":{"osm_id":"6991275375","tag":{"natural":"tree"}},"type":"Feature"},
	{"geometry":{"coordinates":[130.41368,33.648731],"type":"Point"},"properties":{"osm_id":"6991275376","tag":{"natural":"tree"}},"type":"Feature"},
	{"geometry":{"coordinates":[130.414629,33.648877],"type":"Point"},"properties":{"osm_id":"6991275377","tag":{"natural":"tree"}},"type":"Feature"},
	{"geometry":{"coordinates":[130.41463,33.648901],"type":"Point"},"properties":{"osm_id":"6991275378","tag":{"natural":"tree"}},"type":"Feature"},
	{"geometry":{"coordinates":[130.414457,33.648748],"type":"Point"},"properties":{"osm_id":"6991275379","tag":{"natural":"tree"}},"type":"Feature"},
	{"geometry":{"coordinates":[130.414455,33.648835],"type":"Point"},"properties":{"osm_id":"6991275380","tag":{"natural":"tree"}},"type":"Feature"},
	{"geometry":{"coordinates":[130.414452,33.648808],"type":"Point"},"properties":{"osm_id":"6991275381","tag":{"natural":"tree"}},"type":"Feature"},
	{"geometry":{"coordinates":[130.414375,33.648824],"type":"Point"},"properties":{"osm_id":"6991275382","tag":{"natural":"tree"}},"type":"Feature"},
	{"geometry":{"coordinates":[130.414333,33.648811],"type":"Point"},"properties":{"osm_id":"6991275383","tag":{"natural":"tree"}},"type":"Feature"},
	{"geometry":{"coordinates":[130.414117,33.648912],"type":"Point"},"properties":{"osm_id":"6991275384","tag":{"natural":"tree"}},"type":"Feature"},
	{"geometry":{"coordinates":[130.413667,33.649097],"type":"Point"},"properties":{"osm_id":"6991728940","tag":{"natural":"tree"}},"type":"Feature"},
	{"geometry":{"coordinates":[130.413744,33.649222],"type":"Point"},"properties":{"osm_id":"6991728941","tag":{"natural":"tree"}},"type":"Feature"},
	{"geometry":{"coordinates":[130.414015,33.649412],"type":"Point"},"properties":{"osm_id":"6991728942","tag":{"natural":"tree"}},"type":"Feature"},
	{"geometry":{"coordinates":[130.413938,33.649428],"type":"Point"},"properties":{"osm_id":"6991728943","tag":{"natural":"tree"}},"type":"Feature"},
	{"geometry":{"coordinates":[130.413924,33.649407],"type":"Point"},"properties":{"osm_id":"6991728944","tag":{"natural":"tree"}},"type":"Feature"},
	{"geometry":{"coordinates":[130.4145,33.649285],"type":"Point"},"properties":{"osm_id":"6991728945","tag":{"natural":"tree"}},"type":"Feature"},
	{"geometry":{"coordinates":[130.414525,33.649212],"type":"Point"},"properties":{"osm_id":"6991728949","tag":{"natural":"tree"}},"type":"Feature"},
	{"geometry":{"coordinates":[130.41458,33.649213],"type":"Point"},"properties":{"osm_id":"6991728950","tag":{"natural":"tree"}},"type":"Feature"},
	{"geometry":{"coordinates":[130.414562,33.649261],"type":"Point"},"properties":{"osm_id":"6991728951","tag":{"natural":"tree"}},"type":"Feature"},
	{"geometry":{"coordinates":[130.414494,33.649238],"type":"Point"},"properties":{"osm_id":"6991728952","tag":{"natural":"tree"}},"type":"Feature"},
	{"geometry":{"coordinates":[130.415158,33.649308],"type":"Point"},"properties":{"osm_id":"6991737612","tag":{"natural":"tree"}},"type":"Feature"},
	{"geometry":{"coordinates":[130.414928,33.649426],"type":"Point"},"properties":{"osm_id":"6991737613","tag":{"natural":"tree"}},"type":"Feature"},
	{"geometry":{"coordinates":[130.414881,33.649431],"type":"Point"},"properties":{"osm_id":"6991737614","tag":{"natural":"tree"}},"type":"Feature"},
	{"geometry":{"coordinates":[130.414818,33.649365],"type":"Point"},"properties":{"osm_id":"6991737615","tag":{"natural":"tree"}},"type":"Feature"},
	{"geometry":{"coordinates":[130.414849,33.649378],"type":"Point"},"properties":{"osm_id":"6991737616","tag":{"natural":"tree"}},"type":"Feature"},
	{"geometry":{"coordinates":[130.41497,33.649236],"type":"Point"},"properties":{"osm_id":"6991737617","tag":{"natural":"tree"}},"type":"Feature"},
	{"geometry":{"coordinates":[130.414769,33.649295],"type":"Point"},"properties":{"osm_id":"6991737618","tag":{"natural":"tree"}},"type":"Feature"},
	{"geometry":{"coordinates":[130.41486,33.649269],"type":"Point"},"properties":{"osm_id":"6991737619","tag":{"natural":"tree"}},"type":"Feature"},
	{"geometry":{"coordinates":[130.414848,33.649317],"type":"Point"},"properties":{"osm_id":"6991737620","tag":{"natural":"tree"}},"type":"Feature"},
	{"geometry":{"coordinates":[130.419653,33.650358],"type":"Point"},"properties":{"osm_id":"6992263718","tag":{"natural":"tree"}},"type":"Feature"},
	{"geometry":{"coordinates":[130.419664,33.650304],"type":"Point"},"properties":{"osm_id":"6992263719","tag":{"natural":"tree"}},"type":"Feature"},
	{"geometry":{"coordinates":[130.419837,33.650311],"type":"Point"},"properties":{"osm_id":"6992263720","tag":{"natural":"tree"}},"type":"Feature"},
	{"geometry":{"coordinates":[130.419905,33.650258],"type":"Point"},"properties":{"osm_id":"6992263721","tag":{"natural":"tree"}},"type":"Feature"},
	{"geometry":{"coordinates":[130.420045,33.649729],"type":"Point"},"properties":{"osm_id":"6992263722","tag":{"natural":"tree"}},"type":"Feature"},
	{"geometry":{"coordinates":[130.419981,33.649923],"type":"Point"},"properties":{"osm_id":"6992263723","tag":{"natural":"tree"}},"type":"Feature"},
	{"geometry":{"coordinates":[130.419972,33.649875],"type":"Point"},"properties":{"osm_id":"6992263724","tag":{"natural":"tree"}},"type":"Feature"},
	{"geometry":{"coordinates":[130.420163,33.649947],"type":"Point"},"properties":{"osm_id":"6992263725","tag":{"natural":"tree"}},"type":"Feature"},
	{"geometry":{"coordinates":[130.420122,33.64973],"type":"Point"},"properties":{"osm_id":"6992263726","tag":{"natural":"tree"}},"type":"Feature"},
	{"geometry":{"coordinates":[130.420059,33.649193],"type":"Point"},"properties":{"osm_id":"6992263734","tag":{"natural":"tree"}},"type":"Feature"},
	{"geometry":{"coordinates":[130.420016,33.649148],"type":"Point"},"properties":{"osm_id":"6992263735","tag":{"natural":"tree"}},"type":"Feature"},
	{"geometry":{"coordinates":[130.419622,33.649036],"type":"Point"},"properties":{"osm_id":"6992263736","tag":{"natural":"tree"}},"type":"Feature"},
	{"geometry":{"coordinates":[130.419572,33.649001],"type":"Point"},"properties":{"osm_id":"6992263737","tag":{"natural":"tree"}},"type":"Feature"},
	{"geometry":{"coordinates":[130.419499,33.648939],"type":"Point"},"properties":{"osm_id":"6992263738","tag":{"natural":"tree"}},"type":"Feature"},
	{"geometry":{"coordinates":[130.419133,33.649643],"type":"Point"},"properties":{"osm_id":"6992263739","tag":{"natural":"tree"}},"type":"Feature"},
	{"geometry":{"coordinates":[130.418441,33.649536],"type":"Point"},"properties":{"osm_id":"6992263740","tag":{"natural":"tree"}},"type":"Feature"},
	{"geometry":{"coordinates":[130.419044,33.649413],"type":"Point"},"properties":{"osm_id":"6992263741","tag":{"natural":"tree"}},"type":"Feature"},
	{"geometry":{"coordinates":[130.419888,33.649101],"type":"Point"},"properties":{"osm_id":"6992263742","tag":{"natural":"tree"}},"type":"Feature"},
	{"geometry":{"coordinates":[130.417961,33.650642],"type":"Point"},"properties":{"osm_id":"6992264098","tag":{"natural":"tree"}},"type":"Feature"},
	{"geometry":{"coordinates":[130.418762,33.650691],"type":"Point"},"properties":{"osm_id":"6992264099","tag":{"natural":"tree"}},"type":"Feature"},
	{"geometry":{"coordinates":[130.419592,33.650521],"type":"Point"},"properties":{"osm_id":"6992264100","tag":{"natural":"tree"}},"type":"Feature"},
	{"geometry":{"coordinates":[130.419452,33.650544],"type":"Point"},"properties":{"osm_id":"6992264101","tag":{"natural":"tree"}},"type":"Feature"},
	{"geometry":{"coordinates":[130.419401,33.65056],"type":"Point"},"properties":{"osm_id":"6992264102","tag":{"natural":"tree"}},"type":"Feature"},
	{"geometry":{"coordinates":[130.419247,33.650336],"type":"Point"},"properties":{"osm_id":"6992264103","tag":{"natural":"tree"}},"type":"Feature"},
	{"geometry":{"coordinates":[130.419234,33.650215],"type":"Point"},"properties":{"osm_id":"6992264104","tag":{"natural":"tree"}},"type":"Feature"},
	{"geometry":{"coordinates":[130.419066,33.650086],"type":"Point"},"properties":{"osm_id":"6992264105","tag":{"natural":"tree"}},"type":"Feature"},
	{"geometry":{"coordinates":[130.419098,33.650047],"type":"Point"},"properties":{"osm_id":"6992264106","tag":{"natural":"tree"}},"type":"Feature"},
	{"geometry":{"coordinates":[130.419019,33.649951],"type":"Point"},"properties":{"osm_id":"6992264107","tag":{"natural":"tree"}},"type":"Feature"},
	{"geometry":{"coordinates":[130.419058,33.649935],"type":"Point"},"properties":{"osm_id":"6992264108","tag":{"natural":"tree"}},"type":"Feature"},
	{"geometry":{"coordinates":[130.419204,33.650008],"type":"Point"},"properties":{"osm_id":"6992264109","tag":{"natural":"tree"}},"type":"Feature"},
	{"geometry":{"coordinates":[130.419216,33.649971],"type":"Point"},"properties":{"osm_id":"6992264110","tag":{"natural":"tree"}},"type":"Feature"},
	{"geometry":{"coordinates":[130.419207,33.649956],"type":"Point"},"properties":{"osm_id":"6992264111","tag":{"natural":"tree"}},"type":"Feature"},
	{"geometry":{"coordinates":[130.419135,33.649803],"type":"Point"},"properties":{"osm_id":"6992264112","tag":{"natural":"tree"}},"type":"Feature"},
	{"geometry":{"coordinates":[130.419145,33.649888],"type":"Point"},"properties":{"osm_id":"6992264113","tag":{"natural":"tree"}},"type":"Feature"},
	{"geometry":{"coordinates":[130.418711,33.650507],"type":"Point"},"properties":{"osm_id":"6992264114","tag":{"natural":"tree"}},"type":"Feature"},
	{"geometry":{"coordinates":[130.418663,33.650552],"type":"Point"},"properties":{"osm_id":"6992264115","tag":{"natural":"tree"}},"type":"Feature"},
	{"geometry":{"coordinates":[130.418083,33.650453],"type":"Point"},"properties":{"osm_id":"6992264127","tag":{"natural":"tree"}},"type":"Feature"},
	{"geometry":{"coordinates":[130.418021,33.650381],"type":"Point"},"properties":{"osm_id":"6992264128","tag":{"natural":"tree"}},"type":"Feature"},
	{"geometry":{"coordinates":[130.417992,33.650328],"type":"Point"},"properties":{"osm_id":"6992264129","tag":{"natural":"tree"}},"type":"Feature"},
	{"geometry":{"coordinates":[130.417928,33.650307],"type":"Point"},"properties":{"osm_id":"6992264130","tag":{"natural":"tree"}},"type":"Feature"},
	{"geometry":{"coordinates":[130.417889,33.650254],"type":"Point"},"properties":{"osm_id":"6992264131","tag":{"natural":"tree"}},"type":"Feature"},
	{"geometry":{"coordinates":[130.417814,33.650289],"type":"Point"},"properties":{"osm_id":"6992264132","tag":{"natural":"tree"}},"type":"Feature"},
	{"geometry":{"coordinates":[130.41766,33.650221],"type":"Point"},"properties":{"osm_id":"6992264133","tag":{"natural":"tree"}},"type":"Feature"},
	{"geometry":{"coordinates":[130.417739,33.650151],"type":"Point"},"properties":{"osm_id":"6992264134","tag":{"natural":"tree"}},"type":"Feature"},
	{"geometry":{"coordinates":[130.416656,33.64959],"type":"Point"},"properties":{"osm_id":"6992264135","tag":{"natural":"tree"}},"type":"Feature"},
	{"geometry":{"coordinates":[130.418909,33.650446],"type":"Point"},"properties":{"osm_id":"6992264148","tag":{"natural":"tree"}},"type":"Feature"},
	{"geometry":{"coordinates":[130.419159,33.650315],"type":"Point"},"properties":{"osm_id":"6992264149","tag":{"natural":"tree"}},"type":"Feature"},
	{"geometry":{"coordinates":[130.419313,33.650287],"type":"Point"},"properties":{"osm_id":"6992264150","tag":{"natural":"tree"}},"type":"Feature"},
	{"geometry":{"coordinates":[130.419319,33.650322],"type":"Point"},"properties":{"osm_id":"6992264151","tag":{"natural":"tree"}},"type":"Feature"},
	{"geometry":{"coordinates":[130.419185,33.650168],"type":"Point"},"properties":{"osm_id":"6992264152","tag":{"natural":"tree"}},"type":"Feature"},
	{"geometry":{"coordinates":[130.419182,33.650208],"type":"Point"},"properties":{"osm_id":"6992264153","tag":{"natural":"tree"}},"type":"Feature"},
	{"geometry":{"coordinates":[130.419247,33.650261],"type":"Point"},"properties":{"osm_id":"6992264154","tag":{"natural":"tree"}},"type":"Feature"},
	{"geometry":{"coordinates":[130.418966,33.649776],"type":"Point"},"properties":{"osm_id":"6992264183","tag":{"natural":"tree"}},"type":"Feature"},
	{"geometry":{"coordinates":[130.418979,33.649826],"type":"Point"},"properties":{"osm_id":"6992264184","tag":{"natural":"tree"}},"type":"Feature"},
	{"geometry":{"coordinates":[130.418967,33.649877],"type":"Point"},"properties":{"osm_id":"6992264185","tag":{"natural":"tree"}},"type":"Feature"},
	{"geometry":{"coordinates":[130.418883,33.649994],"type":"Point"},"properties":{"osm_id":"6992264186","tag":{"natural":"tree"}},"type":"Feature"},
	{"geometry":{"coordinates":[130.418818,33.650008],"type":"Point"},"properties":{"osm_id":"6992264187","tag":{"natural":"tree"}},"type":"Feature"},
	{"geometry":{"coordinates":[130.418699,33.650018],"type":"Point"},"properties":{"osm_id":"6992264188","tag":{"natural":"tree"}},"type":"Feature"},
	{"geometry":{"coordinates":[130.418648,33.650008],"type":"Point"},"properties":{"osm_id":"6992264189","tag":{"natural":"tree"}},"type":"Feature"},
	{"geometry":{"coordinates":[130.418626,33.649997],"type":"Point"},"properties":{"osm_id":"6992264190","tag":{"natural":"tree"}},"type":"Feature"},
	{"geometry":{"coordinates":[130.418591,33.649976],"type":"Point"},"properties":{"osm_id":"6992264191","tag":{"natural":"tree"}},"type":"Feature"},
	{"geometry":{"coordinates":[130.418559,33.649955],"type":"Point"},"properties":{"osm_id":"6992264192","tag":{"natural":"tree"}},"type":"Feature"},
	{"geometry":{"coordinates":[130.418544,33.649939],"type":"Point"},"properties":{"osm_id":"6992264193","tag":{"natural":"tree"}},"type":"Feature"},
	{"geometry":{"coordinates":[130.418527,33.64991],"type":"Point"},"properties":{"osm_id":"6992264194","tag":{"natural":"tree"}},"type":"Feature"},
	{"geometry":{"coordinates":[130.418517,33.649883],"type":"Point"},"properties":{"osm_id":"6992264195","tag":{"natural":"tree"}},"type":"Feature"},
	{"geometry":{"coordinates":[130.41851,33.649864],"type":"Point"},"properties":{"osm_id":"6992264196","tag":{"natural":"tree"}},"type":"Feature"},
	{"geometry":{"coordinates":[130.418508,33.649831],"type":"Point"},"properties":{"osm_id":"6992264197","tag":{"natural":"tree"}},"type":"Feature"},
	{"geometry":{"coordinates":[130.418513,33.649803],"type":"Point"},"properties":{"osm_id":"6992264198","tag":{"natural":"tree"}},"type":"Feature"},
	{"geometry":{"coordinates":[130.418532,33.649749],"type":"Point"},"properties":{"osm_id":"6992264199","tag":{"natural":"tree"}},"type":"Feature"},
	{"geometry":{"coordinates":[130.418523,33.649775],"type":"Point"},"properties":{"osm_id":"6992264200","tag":{"natural":"tree"}},"type":"Feature"},
	{"geometry":{"coordinates":[130.418562,33.649708],"type":"Point"},"properties":{"osm_id":"6992264201","tag":{"natural":"tree"}},"type":"Feature"},
	{"geometry":{"coordinates":[130.418546,33.649725],"type":"Point"},"properties":{"osm_id":"6992264202","tag":{"natural":"tree"}},"type":"Feature"},
	{"geometry":{"coordinates":[130.418585,33.649689],"type":"Point"},"properties":{"osm_id":"6992264203","tag":{"natural":"tree"}},"type":"Feature"},
	{"geometry":{"coordinates":[130.41876,33.649639],"type":"Point"},"properties":{"osm_id":"6992264204","tag":{"natural":"tree"}},"type":"Feature"},
	{"geometry":{"coordinates":[130.418691,33.649644],"type":"Point"},"properties":{"osm_id":"6992264205","tag":{"natural":"tree"}},"type":"Feature"},
	{"geometry":{"coordinates":[130.41863,33.649662],"type":"Point"},"properties":{"osm_id":"6992264206","tag":{"natural":"tree"}},"type":"Feature"},
	{"geometry":{"coordinates":[130.41872,33.649642],"type":"Point"},"properties":{"osm_id":"6992264207","tag":{"natural":"tree"}},"type":"Feature"},
	{"geometry":{"coordinates":[130.418656,33.649651],"type":"Point"},"properties":{"osm_id":"6992264208","tag":{"natural":"tree"}},"type":"Feature"},
	{"geometry":{"coordinates":[130.418606,33.649675],"type":"Point"},"properties":{"osm_id":"6992264209","tag":{"natural":"tree"}},"type":"Feature"},
	{"geometry":{"coordinates":[130.41889,33.649682],"type":"Point"},"properties":{"osm_id":"6992264210","tag":{"natural":"tree"}},"type":"Feature"},
	{"geometry":{"coordinates":[130.418911,33.649697],"type":"Point"},"properties":{"osm_id":"6992264211","tag":{"natural":"tree"}},"type":"Feature"},
	{"geometry":{"coordinates":[130.418943,33.649733],"type":"Point"},"properties":{"osm_id":"6992264212","tag":{"natural":"tree"}},"type":"Feature"},
	{"geometry":{"coordinates":[130.418803,33.649644],"type":"Point"},"properties":{"osm_id":"6992264213","tag":{"natural":"tree"}},"type":"Feature"},
	{"geometry":{"coordinates":[130.41886,33.649662],"type":"Point"},"properties":{"osm_id":"6992264214","tag":{"natural":"tree"}},"type":"Feature"},
	{"geometry":{"coordinates":[130.419118,33.649574],"type":"Point"},"properties":{"osm_id":"6992264215","tag":{"natural":"tree"}},"type":"Feature"},
	{"geometry":{"coordinates":[130.419089,33.649629],"type":"Point"},"properties":{"osm_id":"6992264216","tag":{"natural":"tree"}},"type":"Feature"},
	{"geometry":{"coordinates":[130.419066,33.649693],"type":"Point"},"properties":{"osm_id":"6992264217","tag":{"natural":"tree"}},"type":"Feature"},
	{"geometry":{"coordinates":[130.419038,33.649755],"type":"Point"},"properties":{"osm_id":"6992264218","tag":{"natural":"tree"}},"type":"Feature"},
	{"geometry":{"coordinates":[130.419184,33.649735],"type":"Point"},"properties":{"osm_id":"6992264219","tag":{"natural":"tree"}},"type":"Feature"},
	{"geometry":{"coordinates":[130.419117,33.649725],"type":"Point"},"properties":{"osm_id":"6992264220","tag":{"natural":"tree"}},"type":"Feature"},
	{"geometry":{"coordinates":[130.419132,33.649693],"type":"Point"},"properties":{"osm_id":"6992264221","tag":{"natural":"tree"}},"type":"Feature"},
	{"geometry":{"coordinates":[130.419177,33.649581],"type":"Point"},"properties":{"osm_id":"6992264222","tag":{"natural":"tree"}},"type":"Feature"},
	{"geometry":{"coordinates":[130.419185,33.649524],"type":"Point"},"properties":{"osm_id":"6992264223","tag":{"natural":"tree"}},"type":"Feature"},
	{"geometry":{"coordinates":[130.419353,33.649424],"type":"Point"},"properties":{"osm_id":"6992264224","tag":{"natural":"tree"}},"type":"Feature"},
	{"geometry":{"coordinates":[130.419884,33.649569],"type":"Point"},"properties":{"osm_id":"6992264225","tag":{"natural":"tree"}},"type":"Feature"},
	{"geometry":{"coordinates":[130.419837,33.649514],"type":"Point"},"properties":{"osm_id":"6992264226","tag":{"natural":"tree"}},"type":"Feature"},
	{"geometry":{"coordinates":[130.419819,33.649549],"type":"Point"},"properties":{"osm_id":"6992264227","tag":{"natural":"tree"}},"type":"Feature"},
	{"geometry":{"coordinates":[130.419848,33.649619],"type":"Point"},"properties":{"osm_id":"6992264228","tag":{"natural":"tree"}},"type":"Feature"},
	{"geometry":{"coordinates":[130.418964,33.649381],"type":"Point"},"properties":{"osm_id":"6992264259","tag":{"natural":"tree"}},"type":"Feature"},
	{"geometry":{"coordinates":[130.418805,33.649342],"type":"Point"},"properties":{"osm_id":"6992264260","tag":{"natural":"tree"}},"type":"Feature"},
	{"geometry":{"coordinates":[130.418824,33.649319],"type":"Point"},"properties":{"osm_id":"6992264261","tag":{"natural":"tree"}},"type":"Feature"},
	{"geometry":{"coordinates":[130.418836,33.649266],"type":"Point"},"properties":{"osm_id":"6992264262","tag":{"natural":"tree"}},"type":"Feature"},
	{"geometry":{"coordinates":[130.418898,33.649361],"type":"Point"},"properties":{"osm_id":"6992264263","tag":{"natural":"tree"}},"type":"Feature"},
	{"geometry":{"coordinates":[130.418217,33.649227],"type":"Point"},"properties":{"osm_id":"6992264264","tag":{"natural":"tree"}},"type":"Feature"},
	{"geometry":{"coordinates":[130.418207,33.649323],"type":"Point"},"properties":{"osm_id":"6992264265","tag":{"natural":"tree"}},"type":"Feature"},
	{"geometry":{"coordinates":[130.418245,33.649188],"type":"Point"},"properties":{"osm_id":"6992264266","tag":{"natural":"tree"}},"type":"Feature"},
	{"geometry":{"coordinates":[130.418337,33.64915],"type":"Point"},"properties":{"osm_id":"6992264267","tag":{"natural":"tree"}},"type":"Feature"},
	{"geometry":{"coordinates":[130.41864,33.649007],"type":"Point"},"properties":{"osm_id":"6992264268","tag":{"natural":"tree"}},"type":"Feature"},
	{"geometry":{"coordinates":[130.418538,33.64903],"type":"Point"},"properties":{"osm_id":"6992264269","tag":{"natural":"tree"}},"type":"Feature"},
	{"geometry":{"coordinates":[130.418525,33.649111],"type":"Point"},"properties":{"osm_id":"6992264270","tag":{"natural":"tree"}},"type":"Feature"},
	{"geometry":{"coordinates":[130.415058,33.649396],"type":"Point"},"properties":{"osm_id":"6992264291","tag":{"natural":"tree"}},"type":"Feature"},
	{"geometry":{"coordinates":[130.415033,33.649668],"type":"Point"},"properties":{"osm_id":"6992264292","tag":{"natural":"tree"}},"type":"Feature"},
	{"geometry":{"coordinates":[130.41498,33.649681],"type":"Point"},"properties":{"osm_id":"6992264293","tag":{"natural":"tree"}},"type":"Feature"},
	{"geometry":{"coordinates":[130.414916,33.649698],"type":"Point"},"properties":{"osm_id":"6992264294","tag":{"natural":"tree"}},"type":"Feature"},
	{"geometry":{"coordinates":[130.414868,33.649711],"type":"Point"},"properties":{"osm_id":"6992264295","tag":{"natural":"tree"}},"type":"Feature"},
	{"geometry":{"coordinates":[130.414823,33.649724],"type":"Point"},"properties":{"osm_id":"6992264296","tag":{"natural":"tree"}},"type":"Feature"},
	{"geometry":{"coordinates":[130.414777,33.649735],"type":"Point"},"properties":{"osm_id":"6992264297","tag":{"natural":"tree"}},"type":"Feature"},
	{"geometry":{"coordinates":[130.41472,33.649754],"type":"Point"},"properties":{"osm_id":"6992264298","tag":{"natural":"tree"}},"type":"Feature"},
	{"geometry":{"coordinates":[130.414671,33.649767],"type":"Point"},"properties":{"osm_id":"6992264299","tag":{"natural":"tree"}},"type":"Feature"},
	{"geometry":{"coordinates":[130.414614,33.649781],"type":"Point"},"properties":{"osm_id":"6992264300","tag":{"natural":"tree"}},"type":"Feature"},
	{"geometry":{"coordinates":[130.414507,33.649812],"type":"Point"},"properties":{"osm_id":"6992264301","tag":{"natural":"tree"}},"type":"Feature"},
	{"geometry":{"coordinates":[130.414458,33.649829],"type":"Point"},"properties":{"osm_id":"6992264302","tag":{"natural":"tree"}},"type":"Feature"},
	{"geometry":{"coordinates":[130.414412,33.649843],"type":"Point"},"properties":{"osm_id":"6992264303","tag":{"natural":"tree"}},"type":"Feature"},
	{"geometry":{"coordinates":[130.414353,33.649861],"type":"Point"},"properties":{"osm_id":"6992264304","tag":{"natural":"tree"}},"type":"Feature"},
	{"geometry":{"coordinates":[130.414237,33.649854],"type":"Point"},"properties":{"osm_id":"6992264305","tag":{"natural":"tree"}},"type":"Feature"},
	{"geometry":{"coordinates":[130.413843,33.649827],"type":"Point"},"properties":{"osm_id":"6992264306","tag":{"natural":"tree"}},"type":"Feature"},
	{"geometry":{"coordinates":[130.413839,33.649913],"type":"Point"},"properties":{"osm_id":"6992264307","tag":{"natural":"tree"}},"type":"Feature"},
	{"geometry":{"coordinates":[130.413994,33.649902],"type":"Point"},"properties":{"osm_id":"6992264308","tag":{"natural":"tree"}},"type":"Feature"},
	{"geometry":{"coordinates":[130.414137,33.649706],"type":"Point"},"properties":{"osm_id":"6992264309","tag":{"natural":"tree"}},"type":"Feature"},
	{"geometry":{"coordinates":[130.415312,33.649355],"type":"Point"},"properties":{"osm_id":"6992264317","tag":{"natural":"tree"}},"type":"Feature"},
	{"geometry":{"coordinates":[130.415246,33.64932],"type":"Point"},"properties":{"osm_id":"6992264318","tag":{"natural":"tree"}},"type":"Feature"},
	{"geometry":{"coordinates":[130.41521,33.649334],"type":"Point"},"properties":{"osm_id":"6992264319","tag":{"natural":"tree"}},"type":"Feature"},
	{"geometry":{"coordinates":[130.414598,33.649481],"type":"Point"},"properties":{"osm_id":"6992264368","tag":{"natural":"tree"}},"type":"Feature"},
	{"geometry":{"coordinates":[130.414566,33.649513],"type":"Point"},"properties":{"osm_id":"6992264369","tag":{"natural":"tree"}},"type":"Feature"},
	{"geometry":{"coordinates":[130.414428,33.649623],"type":"Point"},"properties":{"osm_id":"6992264370","tag":{"natural":"tree"}},"type":"Feature"},
	{"geometry":{"coordinates":[130.414184,33.649629],"type":"Point"},"properties":{"osm_id":"6992264371","tag":{"natural":"tree"}},"type":"Feature"},
	{"geometry":{"coordinates":[130.41341,33.648242],"type":"Point"},"properties":{"osm_id":"6992472457","tag":{"natural":"tree"}},"type":"Feature"},
	{"geometry":{"coordinates":[130.413499,33.648176],"type":"Point"},"properties":{"osm_id":"6992472458","tag":{"natural":"tree"}},"type":"Feature"},
	{"geometry":{"coordinates":[130.413527,33.648215],"type":"Point"},"properties":{"osm_id":"6992472459","tag":{"natural":"tree"}},"type":"Feature"},
	{"geometry":{"coordinates":[130.413621,33.648125],"type":"Point"},"properties":{"osm_id":"6992472460","tag":{"natural":"tree"}},"type":"Feature"},
	{"geometry":{"coordinates":[130.413542,33.648162],"type":"Point"},"properties":{"osm_id":"6992472461","tag":{"natural":"tree"}},"type":"Feature"},
	{"geometry":{"coordinates":[130.413412,33.648277],"type":"Point"},"properties":{"osm_id":"6992497798","tag":{"natural":"tree"}},"type":"Feature"},
	{"geometry":{"coordinates":[130.413358,33.648241],"type":"Point"},"properties":{"osm_id":"6992497799","tag":{"natural":"tree"}},"type":"Feature"},
	{"geometry":{"coordinates":[130.413293,33.648146],"type":"Point"},"properties":{"osm_id":"6992497800","tag":{"natural":"tree"}},"type":"Feature"},
	{"geometry":{"coordinates":[130.414644,33.649556],"type":"Point"},"properties":{"osm_id":"6992497801","tag":{"natural":"tree"}},"type":"Feature"},
	{"geometry":{"coordinates":[130.414714,33.649547],"type":"Point"},"properties":{"osm_id":"6992497802","tag":{"natural":"tree"}},"type":"Feature"},
	{"geometry":{"coordinates":[130.414661,33.649522],"type":"Point"},"properties":{"osm_id":"6992497803","tag":{"natural":"tree"}},"type":"Feature"},
	{"geometry":{"coordinates":[130.414562,33.649563],"type":"Point"},"properties":{"osm_id":"6992497804","tag":{"natural":"tree"}},"type":"Feature"},
	{"geometry":{"coordinates":[130.413987,33.648982],"type":"Point"},"properties":{"osm_id":"6992497805","tag":{"natural":"tree"}},"type":"Feature"},
	{"geometry":{"coordinates":[130.413933,33.648977],"type":"Point"},"properties":{"osm_id":"6992497806","tag":{"natural":"tree"}},"type":"Feature"},
	{"geometry":{"coordinates":[130.413704,33.648708],"type":"Point"},"properties":{"osm_id":"6992497807","tag":{"natural":"tree"}},"type":"Feature"},
	{"geometry":{"coordinates":[130.414038,33.648587],"type":"Point"},"properties":{"osm_id":"6992497808","tag":{"natural":"tree"}},"type":"Feature"},
	{"geometry":{"coordinates":[130.413827,33.648601],"type":"Point"},"properties":{"osm_id":"6992497809","tag":{"natural":"tree"}},"type":"Feature"},
	{"geometry":{"coordinates":[130.413536,33.648506],"type":"Point"},"properties":{"osm_id":"6992497810","tag":{"natural":"tree"}},"type":"Feature"},
	{"geometry":{"coordinates":[130.413478,33.648537],"type":"Point"},"properties":{"osm_id":"6992497811","tag":{"natural":"tree"}},"type":"Feature"},
	{"geometry":{"coordinates":[130.413509,33.648399],"type":"Point"},"properties":{"osm_id":"6992497812","tag":{"natural":"tree"}},"type":"Feature"},
	{"geometry":{"coordinates":[130.413378,33.648483],"type":"Point"},"properties":{"osm_id":"6992497813","tag":{"natural":"tree"}},"type":"Feature"},
	{"geometry":{"coordinates":[130.413209,33.648445],"type":"Point"},"properties":{"osm_id":"6992497814","tag":{"natural":"tree"}},"type":"Feature"},
	{"geometry":{"coordinates":[130.413063,33.648103],"type":"Point"},"properties":{"osm_id":"6992497815","tag":{"natural":"tree"}},"type":"Feature"},
	{"geometry":{"coordinates":[130.413145,33.648092],"type":"Point"},"properties":{"osm_id":"6992497816","tag":{"natural":"tree"}},"type":"Feature"},
	{"geometry":{"coordinates":[130.413195,33.648114],"type":"Point"},"properties":{"osm_id":"6992497817","tag":{"natural":"tree"}},"type":"Feature"},
	{"geometry":{"coordinates":[130.413343,33.648196],"type":"Point"},"properties":{"osm_id":"6992497818","tag":{"natural":"tree"}},"type":"Feature"},
	{"geometry":{"coordinates":[130.413446,33.648288],"type":"Point"},"properties":{"osm_id":"6992497819","tag":{"natural":"tree"}},"type":"Feature"},
	{"geometry":{"coordinates":[130.413228,33.648274],"type":"Point"},"properties":{"osm_id":"6992497820","tag":{"natural":"tree"}},"type":"Feature"},
	{"geometry":{"coordinates":[130.413254,33.648247],"type":"Point"},"properties":{"osm_id":"6992497821","tag":{"natural":"tree"}},"type":"Feature"},
	{"geometry":{"coordinates":[130.413208,33.648224],"type":"Point"},"properties":{"osm_id":"6992497822","tag":{"natural":"tree"}},"type":"Feature"},
	{"geometry":{"coordinates":[130.413224,33.648179],"type":"Point"},"properties":{"osm_id":"6992497823","tag":{"natural":"tree"}},"type":"Feature"},
	{"geometry":{"coordinates":[130.413183,33.648151],"type":"Point"},"properties":{"osm_id":"6992497824","tag":{"natural":"tree"}},"type":"Feature"},
	{"geometry":{"coordinates":[130.41313,33.648139],"type":"Point"},"properties":{"osm_id":"6992497825","tag":{"natural":"tree"}},"type":"Feature"},
	{"geometry":{"coordinates":[130.413143,33.648205],"type":"Point"},"properties":{"osm_id":"6992497826","tag":{"natural":"tree"}},"type":"Feature"},
	{"geometry":{"coordinates":[130.413163,33.648272],"type":"Point"},"properties":{"osm_id":"6992497827","tag":{"natural":"tree"}},"type":"Feature"},
	{"geometry":{"coordinates":[130.413393,33.648392],"type":"Point"},"properties":{"osm_id":"6992497828","tag":{"natural":"tree"}},"type":"Feature"},
	{"geometry":{"coordinates":[130.413437,33.648369],"type":"Point"},"properties":{"osm_id":"6992497829","tag":{"natural":"tree"}},"type":"Feature"},
	{"geometry":{"coordinates":[130.413426,33.648447],"type":"Point"},"properties":{"osm_id":"6992497830","tag":{"natural":"tree"}},"type":"Feature"},
	{"geometry":{"coordinates":[130.413385,33.648335],"type":"Point"},"properties":{"osm_id":"6992497831","tag":{"natural":"tree"}},"type":"Feature"},
	{"geometry":{"coordinates":[130.413342,33.64831],"type":"Point"},"properties":{"osm_id":"6992497832","tag":{"natural":"tree"}},"type":"Feature"},
	{"geometry":{"coordinates":[130.413257,33.648368],"type":"Point"},"properties":{"osm_id":"6992497833","tag":{"natural":"tree"}},"type":"Feature"},
	{"geometry":{"coordinates":[130.413296,33.648385],"type":"Point"},"properties":{"osm_id":"6992497834","tag":{"natural":"tree"}},"type":"Feature"},
	{"geometry":{"coordinates":[130.413225,33.648398],"type":"Point"},"properties":{"osm_id":"6992497835","tag":{"natural":"tree"}},"type":"Feature"},
	{"geometry":{"coordinates":[130.413193,33.648341],"type":"Point"},"properties":{"osm_id":"6992497836","tag":{"natural":"tree"}},"type":"Feature"},
	{"geometry":{"coordinates":[130.413264,33.648307],"type":"Point"},"properties":{"osm_id":"6992497837","tag":{"natural":"tree"}},"type":"Feature"},
	{"geometry":{"coordinates":[130.413477,33.648612],"type":"Point"},"properties":{"osm_id":"6992497838","tag":{"natural":"tree"}},"type":"Feature"},
	{"geometry":{"coordinates":[130.413441,33.648565],"type":"Point"},"properties":{"osm_id":"6992497839","tag":{"natural":"tree"}},"type":"Feature"},
	{"geometry":{"coordinates":[130.413391,33.648697],"type":"Point"},"properties":{"osm_id":"6992497840","tag":{"natural":"tree"}},"type":"Feature"},
	{"geometry":{"coordinates":[130.413327,33.648684],"type":"Point"},"properties":{"osm_id":"6992497841","tag":{"natural":"tree"}},"type":"Feature"},
	{"geometry":{"coordinates":[130.413367,33.648746],"type":"Point"},"properties":{"osm_id":"6992497842","tag":{"natural":"tree"}},"type":"Feature"},
	{"geometry":{"coordinates":[130.413527,33.648832],"type":"Point"},"properties":{"osm_id":"6992497843","tag":{"natural":"tree"}},"type":"Feature"},
	{"geometry":{"coordinates":[130.413391,33.648815],"type":"Point"},"properties":{"osm_id":"6992497844","tag":{"natural":"tree"}},"type":"Feature"},
	{"geometry":{"coordinates":[130.413487,33.649022],"type":"Point"},"properties":{"osm_id":"6992497845","tag":{"natural":"tree"}},"type":"Feature"},
	{"geometry":{"coordinates":[130.413453,33.648938],"type":"Point"},"properties":{"osm_id":"6992497846","tag":{"natural":"tree"}},"type":"Feature"},
	{"geometry":{"coordinates":[130.41347,33.648903],"type":"Point"},"properties":{"osm_id":"6992497847","tag":{"natural":"tree"}},"type":"Feature"},
	{"geometry":{"coordinates":[130.413415,33.64889],"type":"Point"},"properties":{"osm_id":"6992497848","tag":{"natural":"tree"}},"type":"Feature"},
	{"geometry":{"coordinates":[130.41345,33.64885],"type":"Point"},"properties":{"osm_id":"6992497849","tag":{"natural":"tree"}},"type":"Feature"},
	{"geometry":{"coordinates":[130.413444,33.648782],"type":"Point"},"properties":{"osm_id":"6992497850","tag":{"natural":"tree"}},"type":"Feature"},
	{"geometry":{"coordinates":[130.41363,33.648831],"type":"Point"},"properties":{"osm_id":"6992497851","tag":{"natural":"tree"}},"type":"Feature"},
	{"geometry":{"coordinates":[130.413635,33.648801],"type":"Point"},"properties":{"osm_id":"6992497852","tag":{"natural":"tree"}},"type":"Feature"},
	{"geometry":{"coordinates":[130.413631,33.648767],"type":"Point"},"properties":{"osm_id":"6992497853","tag":{"natural":"tree"}},"type":"Feature"},
	{"geometry":{"coordinates":[130.413653,33.648774],"type":"Point"},"properties":{"osm_id":"6992497854","tag":{"natural":"tree"}},"type":"Feature"},
	{"geometry":{"coordinates":[130.413677,33.648687],"type":"Point"},"properties":{"osm_id":"6992497855","tag":{"natural":"tree"}},"type":"Feature"},
	{"geometry":{"coordinates":[130.413637,33.648717],"type":"Point"},"properties":{"osm_id":"6992497856","tag":{"natural":"tree"}},"type":"Feature"},
	{"geometry":{"coordinates":[130.413528,33.648736],"type":"Point"},"properties":{"osm_id":"6992497857","tag":{"natural":"tree"}},"type":"Feature"},
	{"geometry":{"coordinates":[130.41348,33.64867],"type":"Point"},"properties":{"osm_id":"6992497858","tag":{"natural":"tree"}},"type":"Feature"},
	{"geometry":{"coordinates":[130.413344,33.648522],"type":"Point"},"properties":{"osm_id":"6992497859","tag":{"natural":"tree"}},"type":"Feature"},
	{"geometry":{"coordinates":[130.413273,33.648428],"type":"Point"},"properties":{"osm_id":"6992497860","tag":{"natural":"tree"}},"type":"Feature"},
	{"geometry":{"coordinates":[130.413322,33.648447],"type":"Point"},"properties":{"osm_id":"6992497861","tag":{"natural":"tree"}},"type":"Feature"},
	{"geometry":{"coordinates":[130.413246,33.648473],"type":"Point"},"properties":{"osm_id":"6992497862","tag":{"natural":"tree"}},"type":"Feature"},
	{"geometry":{"coordinates":[130.4133,33.648502],"type":"Point"},"properties":{"osm_id":"6992497863","tag":{"natural":"tree"}},"type":"Feature"},
	{"geometry":{"coordinates":[130.413308,33.648589],"type":"Point"},"properties":{"osm_id":"6992497864","tag":{"natural":"tree"}},"type":"Feature"},
	{"geometry":{"coordinates":[130.413474,33.649137],"type":"Point"},"properties":{"osm_id":"6992497865","tag":{"natural":"tree"}},"type":"Feature"},
	{"geometry":{"coordinates":[130.413546,33.649314],"type":"Point"},"properties":{"osm_id":"6992497866","tag":{"natural":"tree"}},"type":"Feature"},
	{"geometry":{"coordinates":[130.413583,33.649402],"type":"Point"},"properties":{"osm_id":"6992497867","tag":{"natural":"tree"}},"type":"Feature"},
	{"geometry":{"coordinates":[130.413642,33.649433],"type":"Point"},"properties":{"osm_id":"6992497868","tag":{"natural":"tree"}},"type":"Feature"},
	{"geometry":{"coordinates":[130.413657,33.649399],"type":"Point"},"properties":{"osm_id":"6992497869","tag":{"natural":"tree"}},"type":"Feature"},
	{"geometry":{"coordinates":[130.413601,33.649312],"type":"Point"},"properties":{"osm_id":"6992497870","tag":{"natural":"tree"}},"type":"Feature"},
	{"geometry":{"coordinates":[130.413505,33.64921],"type":"Point"},"properties":{"osm_id":"6992497871","tag":{"natural":"tree"}},"type":"Feature"},
	{"geometry":{"coordinates":[130.413531,33.649165],"type":"Point"},"properties":{"osm_id":"6992497872","tag":{"natural":"tree"}},"type":"Feature"},
	{"geometry":{"coordinates":[130.413515,33.649098],"type":"Point"},"properties":{"osm_id":"6992497873","tag":{"natural":"tree"}},"type":"Feature"},
	{"geometry":{"coordinates":[130.41372,33.649747],"type":"Point"},"properties":{"osm_id":"6992497874","tag":{"natural":"tree"}},"type":"Feature"},
	{"geometry":{"coordinates":[130.413842,33.649711],"type":"Point"},"properties":{"osm_id":"6992497875","tag":{"natural":"tree"}},"type":"Feature"},
	{"geometry":{"coordinates":[130.413857,33.649693],"type":"Point"},"properties":{"osm_id":"6992497876","tag":{"natural":"tree"}},"type":"Feature"},
	{"geometry":{"coordinates":[130.41391,33.649721],"type":"Point"},"properties":{"osm_id":"6992497877","tag":{"natural":"tree"}},"type":"Feature"},
	{"geometry":{"coordinates":[130.413834,33.649589],"type":"Point"},"properties":{"osm_id":"6992497878","tag":{"natural":"tree"}},"type":"Feature"},
	{"geometry":{"coordinates":[130.413822,33.649542],"type":"Point"},"properties":{"osm_id":"6992497879","tag":{"natural":"tree"}},"type":"Feature"},
	{"geometry":{"coordinates":[130.413765,33.649529],"type":"Point"},"properties":{"osm_id":"6992497880","tag":{"natural":"tree"}},"type":"Feature"},
	{"geometry":{"coordinates":[130.41376,33.649498],"type":"Point"},"properties":{"osm_id":"6992497881","tag":{"natural":"tree"}},"type":"Feature"},
	{"geometry":{"coordinates":[130.413883,33.649549],"type":"Point"},"properties":{"osm_id":"6992497882","tag":{"natural":"tree"}},"type":"Feature"},
	{"geometry":{"coordinates":[130.413886,33.649668],"type":"Point"},"properties":{"osm_id":"6992497883","tag":{"natural":"tree"}},"type":"Feature"},
	{"geometry":{"coordinates":[130.413747,33.649706],"type":"Point"},"properties":{"osm_id":"6992497884","tag":{"natural":"tree"}},"type":"Feature"},
	{"geometry":{"coordinates":[130.413729,33.649644],"type":"Point"},"properties":{"osm_id":"6992498485","tag":{"natural":"tree"}},"type":"Feature"},
	{"geometry":{"coordinates":[130.413708,33.649579],"type":"Point"},"properties":{"osm_id":"6992498486","tag":{"natural":"tree"}},"type":"Feature"},
	{"geometry":{"coordinates":[130.41387,33.649092],"type":"Point"},"properties":{"osm_id":"6992498487","tag":{"natural":"tree"}},"type":"Feature"},
	{"geometry":{"coordinates":[130.413853,33.649066],"type":"Point"},"properties":{"osm_id":"6992498488","tag":{"natural":"tree"}},"type":"Feature"},
	{"geometry":{"coordinates":[130.414067,33.649415],"type":"Point"},"properties":{"osm_id":"6992498489","tag":{"natural":"tree"}},"type":"Feature"},
	{"geometry":{"coordinates":[130.413886,33.649417],"type":"Point"},"properties":{"osm_id":"6992498490","tag":{"natural":"tree"}},"type":"Feature"},
	{"geometry":{"coordinates":[130.413763,33.64933],"type":"Point"},"properties":{"osm_id":"6992498491","tag":{"natural":"tree"}},"type":"Feature"},
	{"geometry":{"coordinates":[130.413992,33.649272],"type":"Point"},"properties":{"osm_id":"6992498492","tag":{"natural":"tree"}},"type":"Feature"},
	{"geometry":{"coordinates":[130.421734,33.651194],"type":"Point"},"properties":{"osm_id":"6992521046","tag":{"natural":"tree"}},"type":"Feature"},
	{"geometry":{"coordinates":[130.421557,33.65098],"type":"Point"},"properties":{"osm_id":"6992521058","tag":{"natural":"tree"}},"type":"Feature"},
	{"geometry":{"coordinates":[130.421638,33.651124],"type":"Point"},"properties":{"osm_id":"6992521059","tag":{"natural":"tree"}},"type":"Feature"},
	{"geometry":{"coordinates":[130.421644,33.651065],"type":"Point"},"properties":{"osm_id":"6992521060","tag":{"natural":"tree"}},"type":"Feature"},
	{"geometry":{"coordinates":[130.42165,33.650999],"type":"Point"},"properties":{"osm_id":"6992521061","tag":{"natural":"tree"}},"type":"Feature"},
	{"geometry":{"coordinates":[130.421396,33.651094],"type":"Point"},"properties":{"osm_id":"6992521065","tag":{"natural":"tree"}},"type":"Feature"},
	{"geometry":{"coordinates":[130.421496,33.651174],"type":"Point"},"properties":{"osm_id":"6992521066","tag":{"natural":"tree"}},"type":"Feature"},
	{"geometry":{"coordinates":[130.421533,33.651121],"type":"Point"},"properties":{"osm_id":"6992521067","tag":{"natural":"tree"}},"type":"Feature"},
	{"geometry":{"coordinates":[130.421467,33.651071],"type":"Point"},"properties":{"osm_id":"6992521068","tag":{"natural":"tree"}},"type":"Feature"},
	{"geometry":{"coordinates":[130.421376,33.651011],"type":"Point"},"properties":{"osm_id":"6992521069","tag":{"natural":"tree"}},"type":"Feature"},
	{"geometry":{"coordinates":[130.421425,33.650915],"type":"Point"},"properties":{"osm_id":"6992521070","tag":{"natural":"tree"}},"type":"Feature"},
	{"geometry":{"coordinates":[130.421481,33.650865],"type":"Point"},"properties":{"osm_id":"6992521071","tag":{"natural":"tree"}},"type":"Feature"},
	{"geometry":{"coordinates":[130.42147,33.650777],"type":"Point"},"properties":{"osm_id":"6992521072","tag":{"natural":"tree"}},"type":"Feature"},
	{"geometry":{"coordinates":[130.421504,33.650708],"type":"Point"},"properties":{"osm_id":"6992521073","tag":{"natural":"tree"}},"type":"Feature"},
	{"geometry":{"coordinates":[130.421343,33.650584],"type":"Point"},"properties":{"osm_id":"6992521074","tag":{"natural":"tree"}},"type":"Feature"},
	{"geometry":{"coordinates":[130.421321,33.650554],"type":"Point"},"properties":{"osm_id":"6992521075","tag":{"natural":"tree"}},"type":"Feature"},
	{"geometry":{"coordinates":[130.4213,33.650622],"type":"Point"},"properties":{"osm_id":"6992521076","tag":{"natural":"tree"}},"type":"Feature"},
	{"geometry":{"coordinates":[130.421429,33.650716],"type":"Point"},"properties":{"osm_id":"6992521077","tag":{"natural":"tree"}},"type":"Feature"},
	{"geometry":{"coordinates":[130.421277,33.650978],"type":"Point"},"properties":{"osm_id":"6992521078","tag":{"natural":"tree"}},"type":"Feature"},
	{"geometry":{"coordinates":[130.421315,33.650905],"type":"Point"},"properties":{"osm_id":"6992521079","tag":{"natural":"tree"}},"type":"Feature"},
	{"geometry":{"coordinates":[130.421286,33.650834],"type":"Point"},"properties":{"osm_id":"6992521080","tag":{"natural":"tree"}},"type":"Feature"},
	{"geometry":{"coordinates":[130.421235,33.650881],"type":"Point"},"properties":{"osm_id":"6992521081","tag":{"natural":"tree"}},"type":"Feature"},
	{"geometry":{"coordinates":[130.421175,33.650852],"type":"Point"},"properties":{"osm_id":"6992521082","tag":{"natural":"tree"}},"type":"Feature"},
	{"geometry":{"coordinates":[130.42107,33.650719],"type":"Point"},"properties":{"osm_id":"6992521083","tag":{"natural":"tree"}},"type":"Feature"},
	{"geometry":{"coordinates":[130.421127,33.650521],"type":"Point"},"properties":{"osm_id":"6992521084","tag":{"natural":"tree"}},"type":"Feature"},
	{"geometry":{"coordinates":[130.421128,33.650491],"type":"Point"},"properties":{"osm_id":"6992527885","tag":{"natural":"tree"}},"type":"Feature"},
	{"geometry":{"coordinates":[130.42114,33.650628],"type":"Point"},"properties":{"osm_id":"6992527886","tag":{"natural":"tree"}},"type":"Feature"},
	{"geometry":{"coordinates":[130.421072,33.650582],"type":"Point"},"properties":{"osm_id":"6992527887","tag":{"natural":"tree"}},"type":"Feature"},
	{"geometry":{"coordinates":[130.420993,33.650548],"type":"Point"},"properties":{"osm_id":"6992527888","tag":{"natural":"tree"}},"type":"Feature"},
	{"geometry":{"coordinates":[130.420927,33.650525],"type":"Point"},"properties":{"osm_id":"6992527889","tag":{"natural":"tree"}},"type":"Feature"},
	{"geometry":{"coordinates":[130.420924,33.650449],"type":"Point"},"properties":{"osm_id":"6992527890","tag":{"natural":"tree"}},"type":"Feature"},
	{"geometry":{"coordinates":[130.420897,33.650356],"type":"Point"},"properties":{"osm_id":"6992527891","tag":{"natural":"tree"}},"type":"Feature"},
	{"geometry":{"coordinates":[130.421015,33.650395],"type":"Point"},"properties":{"osm_id":"6992527892","tag":{"natural":"tree"}},"type":"Feature"},
	{"geometry":{"coordinates":[130.421087,33.650398],"type":"Point"},"properties":{"osm_id":"6992527893","tag":{"natural":"tree"}},"type":"Feature"},
	{"geometry":{"coordinates":[130.421078,33.650348],"type":"Point"},"properties":{"osm_id":"6992527894","tag":{"natural":"tree"}},"type":"Feature"},
	{"geometry":{"coordinates":[130.421009,33.650327],"type":"Point"},"properties":{"osm_id":"6992527895","tag":{"natural":"tree"}},"type":"Feature"},
	{"geometry":{"coordinates":[130.420962,33.650288],"type":"Point"},"properties":{"osm_id":"6992527896","tag":{"natural":"tree"}},"type":"Feature"},
	{"geometry":{"coordinates":[130.420926,33.650306],"type":"Point"},"properties":{"osm_id":"6992527897","tag":{"natural":"tree"}},"type":"Feature"},
	{"geometry":{"coordinates":[130.418685,33.65111],"type":"Point"},"properties":{"osm_id":"6992958553","tag":{"natural":"tree"}},"type":"Feature"},
	{"geometry":{"coordinates":[130.41839,33.651197],"type":"Point"},"properties":{"osm_id":"6992958558","tag":{"natural":"tree"}},"type":"Feature"},
	{"geometry":{"coordinates":[130.4183,33.650746],"type":"Point"},"properties":{"osm_id":"6992958559","tag":{"natural":"tree"}},"type":"Feature"},
	{"geometry":{"coordinates":[130.418229,33.650768],"type":"Point"},"properties":{"osm_id":"6992958560","tag":{"natural":"tree"}},"type":"Feature"},
	{"geometry":{"coordinates":[130.418109,33.650703],"type":"Point"},"properties":{"osm_id":"6992958561","tag":{"natural":"tree"}},"type":"Feature"},
	{"geometry":{"coordinates":[130.4179,33.650745],"type":"Point"},"properties":{"osm_id":"6992958562","tag":{"natural":"tree"}},"type":"Feature"},
	{"geometry":{"coordinates":[130.417959,33.650771],"type":"Point"},"properties":{"osm_id":"6992958563","tag":{"natural":"tree"}},"type":"Feature"},
	{"geometry":{"coordinates":[130.418029,33.65079],"type":"Point"},"properties":{"osm_id":"6992958564","tag":{"natural":"tree"}},"type":"Feature"},
	{"geometry":{"coordinates":[130.413883,33.596746],"type":"Point"},"properties":{"osm_id":"7168546385","tag":{"natural":"tree"}},"type":"Feature"},
	{"geometry":{"coordinates":[130.428199,33.57828],"type":"Point"},"properties":{"osm_id":"8244256287","tag":{"natural":"tree"}},"type":"Feature"},
	{"geometry":{"coordinates":[130.428148,33.578326],"type":"Point"},"properties":{"osm_id":"8244256288","tag":{"natural":"tree"}},"type":"Feature"},
	{"geometry":{"coordinates":[130.428102,33.57837],"type":"Point"},"properties":{"osm_id":"8244256289","tag":{"natural":"tree"}},"type":"Feature"},
	{"geometry":{"coordinates":[130.428074,33.578343],"type":"Point"},"properties":{"osm_id":"8244256290","tag":{"natural":"tree"}},"type":"Feature"},
	{"geometry":{"coordinates":[130.428125,33.578159],"type":"Point"},"properties":{"osm_id":"8244256291","tag":{"natural":"tree"}},"type":"Feature"},
	{"geometry":{"coordinates":[130.428235,33.578235],"type":"Point"},"properties":{"osm_id":"8244259075","tag":{"natural":"tree"}},"type":"Feature"},
	{"geometry":{"coordinates":[130.426395,33.58576],"type":"Point"},"properties":{"osm_id":"8296480498","tag":{"natural":"tree"}},"type":"Feature"},
	{"geometry":{"coordinates":[130.426605,33.585761],"type":"Point"},"properties":{"osm_id":"8296556069","tag":{"natural":"tree"}},"type":"Feature"}
]
}
