{
"type": "FeatureCollection",
"features": [
	{"geometry":{"coordinates":[5.820347,53.208282],"type":"Point"},"properties":{"osm_id":"1157421894","tag":{"amenity":"recycling","recycling:clothes":"yes","recycling_type":"container"}},"type":"Feature"},
	{"geometry":{"coordinates":[5.805678,53.217374],"type":"Point"},"properties":{"osm_id":"1505721958","tag":{"amenity":"recycling","recycling:cans":"yes","recycling:paper":"yes","recycling_type":"container"}},"type":"Feature"},
	{"geometry":{"coordinates":[5.850813,53.179344],"type":"Point"},"properties":{"osm_id":"5076641035","tag":{"amenity":"waste_basket"}},"type":"Feature"},
	{"geometry":{"coordinates":[5.850594,53.178367],"type":"Point"},"properties":{"osm_id":"5076641036","tag":{"amenity":"waste_basket"}},"type":"Feature"},
	{"geometry":{"coordinates":[5.812982,53.200247],"type":"Point"},"properties":{"osm_id":"5084234585","tag":{"amenity":"waste_basket"}},"type":"Feature"},
	{"geometry":{"coordinates":[5.801677,53.208416],"type":"Point"},"properties":{"osm_id":"5126970895","tag":{"amenity":"waste_basket"}},"type":"Feature"},
	{"geometry":{"coordinates":[5.807153,53.194544],"type":"Point"},"properties":{"osm_id":"5338676378","tag":{"amenity":"waste_basket"}},"type":"Feature"},
	{"geometry":{"coordinates":[5.807246,53.192928],"type":"Point"},"properties":{"osm_id":"5338789827","tag":{"amenity":"recycling","operator":"Omrin","recycling:cardboard":"yes","recycling:paper":"yes","recycling_type":"container"}},"type":"Feature"},
	{"geometry":{"coordinates":[5.807246,53.19295],"type":"Point"},"properties":{"osm_id":"5338789828","tag":{"amenity":"recycling","operator":"Omrin","recycling:glass":"yes","recycling_type":"container"}},"type":"Feature"},
	{"geometry":{"coordinates":[5.807245,53.192983],"type":"Point"},"properties":{"osm_id":"5338789829","tag":{"amenity":"recycling","operator":"Leger des Heils","recycling:clothes":"yes","recycling_type":"container"}},"type":"Feature"},
	{"geometry":{"coordinates":[5.804738,53.197792],"type":"Point"},"properties":{"osm_id":"5352417211","tag":{"amenity":"waste_basket"}},"type":"Feature"},
	{"geometry":{"coordinates":[5.805523,53.197959],"type":"Point"},"properties":{"osm_id":"5352417223","tag":{"amenity":"recycling","recycling:cardboard":"yes","recycling:paper":"yes","recycling_type":"container"}},"type":"Feature"},
	{"geometry":{"coordinates":[5.80557,53.197965],"type":"Point"},"properties":{"osm_id":"5352417224","tag":{"amenity":"recycling","recycling:glass":"yes","recycling_type":"container"}},"type":"Feature"},
	{"geometry":{"coordinates":[5.839736,53.189649],"type":"Point"},"properties":{"osm_id":"5352836297","tag":{"amenity":"waste_basket"}},"type":"Feature"},
	{"geometry":{"coordinates":[5.852665,53.189286],"type":"Point"},"properties":{"osm_id":"5352836304","tag":{"amenity":"waste_basket"}},"type":"Feature"},
	{"geometry":{"coordinates":[5.808541,53.198],"type":"Point"},"properties":{"osm_id":"5353133199","tag":{"amenity":"waste_basket"}},"type":"Feature"},
	{"geometry":{"coordinates":[5.828945,53.196341],"type":"Point"},"properties":{"barrier":"gate","osm_id":"5356340789","tag":{"access":"yes"}},"type":"Feature"},
	{"geometry":{"coordinates":[5.828922,53.196296],"type":"Point"},"properties":{"barrier":"gate","osm_id":"5356340804","tag":{"access":"yes"}},"type":"Feature"},
	{"geometry":{"coordinates":[5.815425,53.199443],"type":"Point"},"properties":{"osm_id":"5356665928","tag":{"amenity":"recycling","recycling:clothes":"yes","recycling:shoes":"yes","recycling_type":"container"}},"type":"Feature"},
	{"geometry":{"coordinates":[5.815389,53.199441],"type":"Point"},"properties":{"osm_id":"5356665929","tag":{"amenity":"recycling","recycling:cardboard":"yes","recycling:paper":"yes","recycling_type":"container"}},"type":"Feature"},
	{"geometry":{"coordinates":[5.815354,53.199438],"type":"Point"},"properties":{"osm_id":"5356665930","tag":{"amenity":"recycling","recycling:glass":"yes","recycling_type":"container"}},"type":"Feature"},
	{"geometry":{"coordinates":[5.815318,53.199435],"type":"Point"},"properties":{"osm_id":"5356665931","tag":{"amenity":"recycling","recycling:glass":"yes","recycling_type":"container"}},"type":"Feature"},
	{"geometry":{"coordinates":[5.823632,53.194958],"type":"Point"},"properties":{"osm_id":"5362050388","tag":{"amenity":"waste_basket"}},"type":"Feature"},
	{"geometry":{"coordinates":[5.805059,53.216017],"type":"Point"},"properties":{"osm_id":"5368440618","tag":{"amenity":"waste_basket"}},"type":"Feature"},
	{"geometry":{"coordinates":[5.800787,53.195775],"type":"Point"},"properties":{"osm_id":"5520259930","tag":{"amenity":"waste_basket","waste":"trash"}},"type":"Feature"},
	{"geometry":{"coordinates":[5.810023,53.196273],"type":"Point"},"properties":{"osm_id":"5590711229","tag":{"amenity":"waste_basket","waste":"dog_excrement"}},"type":"Feature"},
	{"geometry":{"coordinates":[5.81018,53.196835],"type":"Point"},"properties":{"osm_id":"5590711249","tag":{"amenity":"waste_basket","waste":"trash"}},"type":"Feature"},
	{"geometry":{"coordinates":[5.800984,53.190856],"type":"Point"},"properties":{"osm_id":"5594956921","tag":{"amenity":"waste_basket","waste":"trash"}},"type":"Feature"},
	{"geometry":{"coordinates":[5.813699,53.194375],"type":"Point"},"properties":{"osm_id":"5598109550","tag":{"amenity":"waste_basket","waste":"dog_excrement"}},"type":"Feature"},
	{"geometry":{"coordinates":[5.83747,53.187573],"type":"Point"},"properties":{"osm_id":"5904026426","tag":{"amenity":"waste_basket","waste":"trash"}},"type":"Feature"},
	{"geometry":{"coordinates":[5.832076,53.183085],"type":"Point"},"properties":{"osm_id":"5907036353","tag":{"amenity":"waste_basket","waste":"dog_excrement"}},"type":"Feature"},
	{"geometry":{"coordinates":[5.814876,53.184612],"type":"Point"},"properties":{"osm_id":"5958439045","tag":{"amenity":"waste_basket","waste":"trash"}},"type":"Feature"},
	{"geometry":{"coordinates":[5.816104,53.192007],"type":"Point"},"properties":{"osm_id":"5960167184","tag":{"amenity":"waste_basket","waste":"trash"}},"type":"Feature"},
	{"geometry":{"coordinates":[5.831946,53.203907],"type":"Point"},"properties":{"osm_id":"6005152627","tag":{"amenity":"waste_basket","waste_basket":"trash"}},"type":"Feature"},
	{"geometry":{"coordinates":[5.831684,53.20398],"type":"Point"},"properties":{"osm_id":"6005152628","tag":{"amenity":"waste_basket","waste_basket":"trash"}},"type":"Feature"},
	{"geometry":{"coordinates":[5.831856,53.203712],"type":"Point"},"properties":{"osm_id":"6007696665","tag":{"amenity":"waste_basket","waste_basket":"trash"}},"type":"Feature"},
	{"geometry":{"coordinates":[5.83183,53.203762],"type":"Point"},"properties":{"osm_id":"6007696666","tag":{"amenity":"waste_basket","waste_basket":"trash"}},"type":"Feature"},
	{"geometry":{"coordinates":[5.832145,53.203637],"type":"Point"},"properties":{"osm_id":"6007696667","tag":{"amenity":"waste_basket","waste_basket":"trash"}},"type":"Feature"},
	{"geometry":{"coordinates":[5.832601,53.203749],"type":"Point"},"properties":{"osm_id":"6007696668","tag":{"amenity":"waste_basket","waste_basket":"trash"}},"type":"Feature"},
	{"geometry":{"coordinates":[5.83248,53.203757],"type":"Point"},"properties":{"osm_id":"6007696669","tag":{"amenity":"waste_basket","waste_basket":"trash"}},"type":"Feature"},
	{"geometry":{"coordinates":[5.832349,53.203767],"type":"Point"},"properties":{"osm_id":"6007696670","tag":{"amenity":"waste_basket","waste_basket":"trash"}},"type":"Feature"},
	{"geometry":{"coordinates":[5.83228,53.203669],"type":"Point"},"properties":{"osm_id":"6007696673","tag":{"amenity":"waste_basket","waste_basket":"trash"}},"type":"Feature"},
	{"geometry":{"coordinates":[5.83045,53.204199],"type":"Point"},"properties":{"osm_id":"6007696946","tag":{"amenity":"waste_basket","waste_basket":"trash"}},"type":"Feature"},
	{"geometry":{"coordinates":[5.849446,53.205777],"type":"Point"},"properties":{"osm_id":"6010897497","tag":{"amenity":"recycling","recycling:clothes":"yes","recycling_type":"container"}},"type":"Feature"},
	{"geometry":{"coordinates":[5.84938,53.205815],"type":"Point"},"properties":{"osm_id":"6010897498","tag":{"amenity":"recycling","recycling:glass_bottles":"yes","recycling_type":"container"}},"type":"Feature"},
	{"geometry":{"coordinates":[5.849408,53.205798],"type":"Point"},"properties":{"osm_id":"6010897499","tag":{"amenity":"recycling","recycling:clothes":"yes","recycling_type":"container"}},"type":"Feature"},
	{"geometry":{"coordinates":[5.84936,53.205827],"type":"Point"},"properties":{"osm_id":"6010897500","tag":{"amenity":"recycling","recycling:paper":"yes","recycling_type":"container"}},"type":"Feature"},
	{"geometry":{"coordinates":[5.828797,53.218723],"type":"Point"},"properties":{"osm_id":"6042664960","tag":{"amenity":"waste_basket","waste":"trash"}},"type":"Feature"},
	{"geometry":{"coordinates":[5.828799,53.219157],"type":"Point"},"properties":{"osm_id":"6042664963","tag":{"amenity":"waste_basket","waste":"trash"}},"type":"Feature"},
	{"geometry":{"coordinates":[5.856348,53.211401],"type":"Point"},"properties":{"osm_id":"6061684380","tag":{"amenity":"waste_basket","waste":"dog_excrement"}},"type":"Feature"},
	{"geometry":{"coordinates":[5.851697,53.216733],"type":"Point"},"properties":{"osm_id":"6061684381","tag":{"amenity":"waste_basket","waste":"dog_excrement"}},"type":"Feature"},
	{"geometry":{"coordinates":[5.857476,53.216177],"type":"Point"},"properties":{"osm_id":"6061688733","tag":{"amenity":"waste_basket","waste":"dog_excrement"}},"type":"Feature"},
	{"geometry":{"coordinates":[5.828171,53.188808],"type":"Point"},"properties":{"osm_id":"6088933978","tag":{"amenity":"recycling","recycling:clothes":"yes","recycling_type":"container"}},"type":"Feature"},
	{"geometry":{"coordinates":[5.828204,53.188812],"type":"Point"},"properties":{"osm_id":"6088933979","tag":{"amenity":"recycling","recycling:paper":"yes","recycling_type":"container"}},"type":"Feature"},
	{"geometry":{"coordinates":[5.828233,53.188817],"type":"Point"},"properties":{"osm_id":"6088933980","tag":{"amenity":"recycling","recycling:paper":"yes","recycling_type":"container"}},"type":"Feature"},
	{"geometry":{"coordinates":[5.828256,53.18882],"type":"Point"},"properties":{"osm_id":"6088933981","tag":{"amenity":"recycling","recycling:glass_bottles":"yes","recycling_type":"container"}},"type":"Feature"},
	{"geometry":{"coordinates":[5.82831,53.188795],"type":"Point"},"properties":{"osm_id":"6088933982","tag":{"amenity":"waste_basket"}},"type":"Feature"},
	{"geometry":{"coordinates":[5.829433,53.189272],"type":"Point"},"properties":{"osm_id":"6088934687","tag":{"amenity":"waste_basket"}},"type":"Feature"},
	{"geometry":{"coordinates":[5.829629,53.189302],"type":"Point"},"properties":{"osm_id":"6088934688","tag":{"amenity":"waste_basket"}},"type":"Feature"},
	{"geometry":{"coordinates":[5.803434,53.203965],"type":"Point"},"properties":{"osm_id":"6214329571","tag":{"amenity":"recycling","recycling:glass":"yes","recycling_type":"container"}},"type":"Feature"},
	{"geometry":{"coordinates":[5.803432,53.203946],"type":"Point"},"properties":{"osm_id":"6214329572","tag":{"amenity":"recycling","recycling:paper":"yes","recycling_type":"container"}},"type":"Feature"},
	{"geometry":{"coordinates":[5.812337,53.186063],"type":"Point"},"properties":{"osm_id":"6324177867","tag":{"amenity":"waste_basket","waste":"dog_excrement"}},"type":"Feature"},
	{"geometry":{"coordinates":[5.813709,53.186969],"type":"Point"},"properties":{"osm_id":"6324177910","tag":{"amenity":"waste_basket","waste":"trash"}},"type":"Feature"},
	{"geometry":{"coordinates":[5.813829,53.186653],"type":"Point"},"properties":{"osm_id":"6324177912","tag":{"amenity":"recycling","recycling:paper":"yes","recycling_type":"container"}},"type":"Feature"},
	{"geometry":{"coordinates":[5.842052,53.202099],"type":"Point"},"properties":{"osm_id":"6343313359","tag":{"amenity":"waste_basket"}},"type":"Feature"},
	{"geometry":{"coordinates":[5.84229,53.202126],"type":"Point"},"properties":{"osm_id":"6343313362","tag":{"amenity":"waste_basket"}},"type":"Feature"},
	{"geometry":{"coordinates":[5.843145,53.202227],"type":"Point"},"properties":{"osm_id":"6343313364","tag":{"amenity":"waste_basket"}},"type":"Feature"},
	{"geometry":{"coordinates":[5.842868,53.202194],"type":"Point"},"properties":{"osm_id":"6343313365","tag":{"amenity":"waste_basket"}},"type":"Feature"},
	{"geometry":{"coordinates":[5.842441,53.201951],"type":"Point"},"properties":{"osm_id":"6343313373","tag":{"amenity":"waste_basket"}},"type":"Feature"},
	{"geometry":{"coordinates":[5.817469,53.186799],"type":"Point"},"properties":{"osm_id":"6372301948","tag":{"amenity":"waste_basket"}},"type":"Feature"},
	{"geometry":{"coordinates":[5.817396,53.187216],"type":"Point"},"properties":{"osm_id":"6372301960","tag":{"amenity":"waste_basket"}},"type":"Feature"},
	{"geometry":{"coordinates":[5.817143,53.187767],"type":"Point"},"properties":{"osm_id":"6372301962","tag":{"amenity":"waste_basket"}},"type":"Feature"},
	{"geometry":{"coordinates":[5.80617,53.19226],"type":"Point"},"properties":{"osm_id":"6394799387","tag":{"amenity":"waste_basket","waste":"dog_excrement"}},"type":"Feature"},
	{"geometry":{"coordinates":[5.805629,53.191756],"type":"Point"},"properties":{"osm_id":"6394799402","tag":{"amenity":"waste_basket","waste":"trash"}},"type":"Feature"},
	{"geometry":{"coordinates":[5.801169,53.19141],"type":"Point"},"properties":{"osm_id":"6394799448","tag":{"amenity":"recycling","recycling:waste":"yes","recycling_type":"container"}},"type":"Feature"},
	{"geometry":{"coordinates":[5.801166,53.19139],"type":"Point"},"properties":{"osm_id":"6394799449","tag":{"amenity":"recycling","recycling:cardboard":"yes","recycling:paper":"yes","recycling_type":"container"}},"type":"Feature"},
	{"geometry":{"coordinates":[5.803357,53.191842],"type":"Point"},"properties":{"osm_id":"6394799479","tag":{"amenity":"waste_basket","waste":"trash"}},"type":"Feature"},
	{"geometry":{"coordinates":[5.818313,53.201964],"type":"Point"},"properties":{"osm_id":"6419152091","tag":{"amenity":"waste_basket","operator":"Kentucky Fried Chicken","waste":"trash"}},"type":"Feature"},
	{"geometry":{"coordinates":[5.812662,53.209343],"type":"Point"},"properties":{"osm_id":"6419288715","tag":{"amenity":"waste_basket","waste":"trash"}},"type":"Feature"},
	{"geometry":{"coordinates":[5.812643,53.209304],"type":"Point"},"properties":{"osm_id":"6419288717","tag":{"amenity":"waste_basket","waste":"trash"}},"type":"Feature"},
	{"geometry":{"coordinates":[5.817575,53.204009],"type":"Point"},"properties":{"osm_id":"6419375260","tag":{"amenity":"waste_basket","waste":"trash"}},"type":"Feature"},
	{"geometry":{"coordinates":[5.80763,53.199327],"type":"Point"},"properties":{"osm_id":"6421363359","tag":{"amenity":"waste_basket","waste":"dog_excrement"}},"type":"Feature"},
	{"geometry":{"coordinates":[5.813824,53.199067],"type":"Point"},"properties":{"osm_id":"6421363373","tag":{"amenity":"waste_basket","waste":"trash"}},"type":"Feature"},
	{"geometry":{"coordinates":[5.813775,53.199062],"type":"Point"},"properties":{"osm_id":"6421363374","tag":{"amenity":"waste_basket","waste":"dog_excrement"}},"type":"Feature"},
	{"geometry":{"coordinates":[5.812391,53.202416],"type":"Point"},"properties":{"osm_id":"6426877175","tag":{"amenity":"waste_basket","waste":"trash"}},"type":"Feature"},
	{"geometry":{"coordinates":[5.81315,53.201803],"type":"Point"},"properties":{"osm_id":"6426877176","tag":{"amenity":"recycling","recycling:waste":"yes","recycling_type":"container"}},"type":"Feature"},
	{"geometry":{"coordinates":[5.813247,53.201339],"type":"Point"},"properties":{"osm_id":"6426877315","tag":{"amenity":"recycling","recycling:waste":"yes","recycling_type":"container"}},"type":"Feature"},
	{"geometry":{"coordinates":[5.814996,53.20099],"type":"Point"},"properties":{"osm_id":"6426877322","tag":{"amenity":"recycling","recycling:waste":"yes","recycling_type":"container"}},"type":"Feature"},
	{"geometry":{"coordinates":[5.814493,53.200892],"type":"Point"},"properties":{"osm_id":"6426877323","tag":{"amenity":"recycling","recycling:waste":"yes","recycling_type":"container"}},"type":"Feature"},
	{"geometry":{"coordinates":[5.814675,53.202647],"type":"Point"},"properties":{"osm_id":"6426877347","tag":{"amenity":"recycling","recycling:waste":"yes","recycling_type":"container"}},"type":"Feature"},
	{"geometry":{"coordinates":[5.814647,53.20265],"type":"Point"},"properties":{"osm_id":"6426877348","tag":{"amenity":"recycling","recycling:waste":"yes","recycling_type":"container"}},"type":"Feature"},
	{"geometry":{"coordinates":[5.81637,53.201069],"type":"Point"},"properties":{"osm_id":"6426877449","tag":{"amenity":"recycling","recycling:waste":"yes","recycling_type":"container"}},"type":"Feature"},
	{"geometry":{"coordinates":[5.817704,53.202015],"type":"Point"},"properties":{"osm_id":"6426877459","tag":{"amenity":"waste_basket","waste":"dog_excrement"}},"type":"Feature"},
	{"geometry":{"coordinates":[5.813139,53.204833],"type":"Point"},"properties":{"osm_id":"6427632022","tag":{"amenity":"recycling","recycling:cardboard":"yes","recycling:paper":"yes","recycling_type":"container"}},"type":"Feature"},
	{"geometry":{"coordinates":[5.813136,53.204877],"type":"Point"},"properties":{"osm_id":"6427632023","tag":{"amenity":"recycling","recycling:clothes":"yes","recycling:shoes":"yes","recycling_type":"container"}},"type":"Feature"},
	{"geometry":{"coordinates":[5.813138,53.204855],"type":"Point"},"properties":{"osm_id":"6427632024","tag":{"amenity":"recycling","recycling:glass":"yes","recycling_type":"container"}},"type":"Feature"},
	{"geometry":{"coordinates":[5.812763,53.206408],"type":"Point"},"properties":{"osm_id":"6427632962","tag":{"amenity":"recycling","recycling:clothes":"yes","recycling:shoes":"yes","recycling_type":"container"}},"type":"Feature"},
	{"geometry":{"coordinates":[5.812799,53.206436],"type":"Point"},"properties":{"osm_id":"6427632963","tag":{"amenity":"recycling","recycling:glass":"yes","recycling_type":"container"}},"type":"Feature"},
	{"geometry":{"coordinates":[5.812834,53.206437],"type":"Point"},"properties":{"osm_id":"6427632964","tag":{"amenity":"recycling","recycling:cardboard":"yes","recycling:paper":"yes","recycling_type":"container"}},"type":"Feature"},
	{"geometry":{"coordinates":[5.83843,53.211599],"type":"Point"},"properties":{"osm_id":"6429007392","tag":{"amenity":"recycling","recycling:clothes":"yes","recycling:shoes":"yes","recycling_type":"container"}},"type":"Feature"},
	{"geometry":{"coordinates":[5.838459,53.211599],"type":"Point"},"properties":{"osm_id":"6429007393","tag":{"amenity":"recycling","recycling:clothes":"yes","recycling:shoes":"yes","recycling_type":"container"}},"type":"Feature"},
	{"geometry":{"coordinates":[5.838489,53.211623],"type":"Point"},"properties":{"osm_id":"6429007394","tag":{"amenity":"recycling","recycling:glass_bottles":"yes","recycling_type":"container"}},"type":"Feature"},
	{"geometry":{"coordinates":[5.838489,53.211641],"type":"Point"},"properties":{"osm_id":"6429007395","tag":{"amenity":"recycling","recycling:cardboard":"yes","recycling:paper":"yes","recycling_type":"container"}},"type":"Feature"},
	{"geometry":{"coordinates":[5.838488,53.211661],"type":"Point"},"properties":{"osm_id":"6429007396","tag":{"amenity":"recycling","recycling:cardboard":"yes","recycling:paper":"yes","recycling_type":"container"}},"type":"Feature"},
	{"geometry":{"coordinates":[5.81418,53.211639],"type":"Point"},"properties":{"osm_id":"6431587477","tag":{"amenity":"waste_basket","waste":"trash"}},"type":"Feature"},
	{"geometry":{"coordinates":[5.8053,53.20406],"type":"Point"},"properties":{"osm_id":"6439739262","tag":{"amenity":"recycling","recycling:waste":"yes","recycling_type":"container"}},"type":"Feature"},
	{"geometry":{"coordinates":[5.816385,53.20326],"type":"Point"},"properties":{"osm_id":"6444065835","tag":{"amenity":"recycling","recycling:waste":"yes","recycling_type":"container"}},"type":"Feature"},
	{"geometry":{"coordinates":[5.804563,53.213485],"type":"Point"},"properties":{"osm_id":"6568769767","tag":{"amenity":"recycling","recycling_type":"container"}},"type":"Feature"},
	{"geometry":{"coordinates":[5.804536,53.213495],"type":"Point"},"properties":{"osm_id":"6568769768","tag":{"amenity":"recycling","recycling:glass":"yes","recycling_type":"container"}},"type":"Feature"},
	{"geometry":{"coordinates":[5.804503,53.213507],"type":"Point"},"properties":{"osm_id":"6568769882","tag":{"amenity":"recycling","recycling:waste":"yes","recycling_type":"container"}},"type":"Feature"},
	{"geometry":{"coordinates":[5.80448,53.213516],"type":"Point"},"properties":{"osm_id":"6568769883","tag":{"amenity":"recycling","recycling:waste":"yes","recycling_type":"container"}},"type":"Feature"},
	{"geometry":{"coordinates":[5.866251,53.205786],"type":"Point"},"properties":{"osm_id":"6764290886","tag":{"amenity":"waste_basket"}},"type":"Feature"},
	{"geometry":{"coordinates":[5.80367,53.216716],"type":"Point"},"properties":{"osm_id":"6814584880","tag":{"amenity":"waste_basket","waste":"dog_excrement"}},"type":"Feature"},
	{"geometry":{"coordinates":[5.820308,53.208241],"type":"Point"},"properties":{"osm_id":"6975130576","tag":{"amenity":"recycling","recycling:glass_bottles":"yes","recycling_type":"container"}},"type":"Feature"},
	{"geometry":{"coordinates":[5.82029,53.208257],"type":"Point"},"properties":{"osm_id":"6975130577","tag":{"amenity":"recycling","recycling_type":"container"}},"type":"Feature"},
	{"geometry":{"coordinates":[5.820364,53.208268],"type":"Point"},"properties":{"osm_id":"6975130578","tag":{"amenity":"waste_basket"}},"type":"Feature"},
	{"geometry":{"coordinates":[5.819953,53.204543],"type":"Point"},"properties":{"osm_id":"6977613090","tag":{"amenity":"waste_basket"}},"type":"Feature"},
	{"geometry":{"coordinates":[5.817323,53.202753],"type":"Point"},"properties":{"osm_id":"7035780194","tag":{"amenity":"recycling","recycling:clothes":"yes","recycling:paper":"yes","recycling_type":"container"}},"type":"Feature"},
	{"geometry":{"coordinates":[5.816721,53.202748],"type":"Point"},"properties":{"osm_id":"7035791605","tag":{"amenity":"recycling","recycling_type":"container","waste":"household"}},"type":"Feature"},
	{"geometry":{"coordinates":[5.80137,53.205659],"type":"Point"},"properties":{"osm_id":"7058116014","tag":{"amenity":"recycling","recycling:glass_bottles":"yes","recycling_type":"container"}},"type":"Feature"},
	{"geometry":{"coordinates":[5.841619,53.183595],"type":"Point"},"properties":{"osm_id":"7419048059","tag":{"amenity":"waste_basket","waste":"dog_excrement"}},"type":"Feature"},
	{"geometry":{"coordinates":[5.841737,53.183323],"type":"Point"},"properties":{"osm_id":"7419048082","tag":{"amenity":"waste_basket","waste":"trash"}},"type":"Feature"},
	{"geometry":{"coordinates":[5.839682,53.206958],"type":"Point"},"properties":{"osm_id":"7446199231","tag":{"amenity":"recycling","recycling:paper":"yes","recycling_type":"container"}},"type":"Feature"},
	{"geometry":{"coordinates":[5.839723,53.206959],"type":"Point"},"properties":{"osm_id":"7446199232","tag":{"amenity":"recycling","recycling:glass_bottles":"yes","recycling_type":"container"}},"type":"Feature"},
	{"geometry":{"coordinates":[5.807471,53.179039],"type":"Point"},"properties":{"osm_id":"7519196667","tag":{"amenity":"waste_basket","waste":"trash"}},"type":"Feature"},
	{"geometry":{"coordinates":[5.806743,53.187407],"type":"Point"},"properties":{"osm_id":"7553492667","tag":{"amenity":"waste_basket","waste":"dog_excrement"}},"type":"Feature"},
	{"geometry":{"coordinates":[5.81472,53.217795],"type":"Point"},"properties":{"osm_id":"7617600392","tag":{"amenity":"waste_basket","waste":"trash"}},"type":"Feature"},
	{"geometry":{"coordinates":[5.807706,53.199058],"type":"Point"},"properties":{"osm_id":"7635074313","tag":{"amenity":"waste_basket","waste":"trash"}},"type":"Feature"},
	{"geometry":{"coordinates":[5.807773,53.199338],"type":"Point"},"properties":{"osm_id":"7635074372","tag":{"amenity":"waste_basket","waste":"trash"}},"type":"Feature"},
	{"geometry":{"coordinates":[5.853246,53.208838],"type":"Point"},"properties":{"osm_id":"7688032940","tag":{"amenity":"waste_basket","waste":"trash"}},"type":"Feature"},
	{"geometry":{"coordinates":[5.824885,53.179564],"type":"Point"},"properties":{"osm_id":"7731838148","tag":{"amenity":"recycling","recycling:glass":"yes","recycling_type":"container"}},"type":"Feature"},
	{"geometry":{"coordinates":[5.824852,53.179575],"type":"Point"},"properties":{"osm_id":"7731838149","tag":{"amenity":"recycling","recycling:glass":"yes","recycling_type":"container"}},"type":"Feature"},
	{"geometry":{"coordinates":[5.82482,53.179586],"type":"Point"},"properties":{"osm_id":"7731838150","tag":{"amenity":"recycling","recycling:clothes":"yes","recycling:shoes":"yes","recycling_type":"container"}},"type":"Feature"},
	{"geometry":{"coordinates":[5.82477,53.179603],"type":"Point"},"properties":{"osm_id":"7731838151","tag":{"amenity":"recycling","recycling:cardboard":"yes","recycling:paper":"yes","recycling_type":"container"}},"type":"Feature"},
	{"geometry":{"coordinates":[5.824739,53.179614],"type":"Point"},"properties":{"osm_id":"7731838152","tag":{"amenity":"recycling","recycling:clothes":"yes","recycling:shoes":"yes","recycling_type":"container"}},"type":"Feature"},
	{"geometry":{"coordinates":[5.831296,53.190064],"type":"Point"},"properties":{"osm_id":"7826797089","tag":{"amenity":"waste_basket","waste":"trash"}},"type":"Feature"}
]
}
