{
"type": "FeatureCollection",
"features": [
	{"geometry":{"coordinates":[5.825414,51.999097],"type":"Point"},"properties":{"osm_id":"1427381995","tag":{"addr:city":"Oosterbeek","addr:street":"Bilderberglaan","amenity":"waste_basket","leisure":"park"}},"type":"Feature"},
	{"geometry":{"coordinates":[5.87966,52.009542],"type":"Point"},"properties":{"osm_id":"3337662535","tag":{"amenity":"recycling","recycling:clothes":"yes","recycling_type":"container"}},"type":"Feature"},
	{"geometry":{"coordinates":[5.879688,52.009516],"type":"Point"},"properties":{"osm_id":"3402803452","tag":{"amenity":"recycling","recycling:glass_bottles":"yes","recycling_type":"container"}},"type":"Feature"},
	{"geometry":{"coordinates":[5.819165,52.000187],"type":"Point"},"properties":{"osm_id":"3596904131","tag":{"amenity":"waste_basket"}},"type":"Feature"},
	{"geometry":{"coordinates":[5.885197,52.042052],"type":"Point"},"properties":{"osm_id":"6646052822","tag":{"amenity":"waste_basket"}},"type":"Feature"},
	{"geometry":{"coordinates":[5.819713,52.011263],"type":"Point"},"properties":{"osm_id":"6698018089","tag":{"amenity":"waste_basket"}},"type":"Feature"}
]
}
