{
"type": "FeatureCollection",
"features": [
	{"geometry":{"coordinates":[5.870485,51.965974],"type":"Point"},"properties":{"osm_id":"773287557","tag":{"amenity":"waste_basket"}},"type":"Feature"},
	{"geometry":{"coordinates":[5.874067,51.966552],"type":"Point"},"properties":{"osm_id":"775288308","tag":{"amenity":"waste_basket"}},"type":"Feature"},
	{"geometry":{"coordinates":[5.860104,51.960362],"type":"Point"},"properties":{"osm_id":"777302038","tag":{"amenity":"recycling","recycling:glass_bottles":"yes","recycling_type":"container"}},"type":"Feature"},
	{"geometry":{"coordinates":[5.860282,51.960276],"type":"Point"},"properties":{"osm_id":"777302458","tag":{"amenity":"recycling","recycling:paper":"yes","recycling_type":"container"}},"type":"Feature"},
	{"geometry":{"coordinates":[5.861676,51.948618],"type":"Point"},"properties":{"osm_id":"1892993467","tag":{"amenity":"waste_disposal"}},"type":"Feature"},
	{"geometry":{"coordinates":[5.865764,51.957747],"type":"Point"},"properties":{"osm_id":"1892993798","tag":{"amenity":"waste_basket"}},"type":"Feature"},
	{"geometry":{"coordinates":[5.869569,51.966522],"type":"Point"},"properties":{"osm_id":"2494886563","tag":{"amenity":"waste_basket"}},"type":"Feature"},
	{"geometry":{"coordinates":[5.867778,51.94862],"type":"Point"},"properties":{"osm_id":"3337662510","tag":{"amenity":"recycling","recycling:clothes":"yes","recycling_type":"container"}},"type":"Feature"},
	{"geometry":{"coordinates":[5.843843,51.950015],"type":"Point"},"properties":{"osm_id":"3337662511","tag":{"amenity":"recycling","recycling:clothes":"yes","recycling_type":"container"}},"type":"Feature"},
	{"geometry":{"coordinates":[5.858847,51.951156],"type":"Point"},"properties":{"osm_id":"3337662512","tag":{"amenity":"recycling","recycling:clothes":"yes","recycling_type":"container"}},"type":"Feature"},
	{"geometry":{"coordinates":[5.887249,51.953831],"type":"Point"},"properties":{"osm_id":"3337662514","tag":{"amenity":"recycling","recycling:clothes":"yes","recycling_type":"container"}},"type":"Feature"},
	{"geometry":{"coordinates":[5.882187,51.958228],"type":"Point"},"properties":{"osm_id":"3337662516","tag":{"amenity":"recycling","recycling:clothes":"yes","recycling_type":"container"}},"type":"Feature"},
	{"geometry":{"coordinates":[5.882335,51.986381],"type":"Point"},"properties":{"osm_id":"3337662525","tag":{"amenity":"recycling","recycling:clothes":"yes","recycling_type":"container"}},"type":"Feature"},
	{"geometry":{"coordinates":[5.879248,51.996077],"type":"Point"},"properties":{"osm_id":"3337662530","tag":{"amenity":"recycling","recycling:clothes":"yes","recycling_type":"container"}},"type":"Feature"},
	{"geometry":{"coordinates":[5.859112,51.956647],"type":"Point"},"properties":{"osm_id":"3369306730","tag":{"amenity":"recycling","recycling:glass_bottles":"yes","recycling_type":"container"}},"type":"Feature"},
	{"geometry":{"coordinates":[5.863952,51.963756],"type":"Point"},"properties":{"osm_id":"3369306734","tag":{"amenity":"recycling","recycling:glass_bottles":"yes","recycling_type":"container"}},"type":"Feature"},
	{"geometry":{"coordinates":[5.870471,51.945262],"type":"Point"},"properties":{"osm_id":"3369307099","tag":{"amenity":"recycling","recycling:glass_bottles":"yes","recycling_type":"container"}},"type":"Feature"},
	{"geometry":{"coordinates":[5.860507,51.94588],"type":"Point"},"properties":{"osm_id":"3369307104","tag":{"amenity":"recycling","recycling:glass_bottles":"yes","recycling_type":"container"}},"type":"Feature"},
	{"geometry":{"coordinates":[5.875886,51.946251],"type":"Point"},"properties":{"osm_id":"3369307106","tag":{"amenity":"recycling","recycling:glass_bottles":"yes","recycling_type":"container"}},"type":"Feature"},
	{"geometry":{"coordinates":[5.867577,51.948574],"type":"Point"},"properties":{"osm_id":"3369307393","tag":{"amenity":"recycling","recycling:glass_bottles":"yes","recycling_type":"container"}},"type":"Feature"},
	{"geometry":{"coordinates":[5.885602,51.95001],"type":"Point"},"properties":{"osm_id":"3369307394","tag":{"amenity":"recycling","recycling:glass_bottles":"yes","recycling_type":"container"}},"type":"Feature"},
	{"geometry":{"coordinates":[5.858694,51.951219],"type":"Point"},"properties":{"osm_id":"3369307397","tag":{"amenity":"recycling","recycling:glass_bottles":"yes","recycling_type":"container"}},"type":"Feature"},
	{"geometry":{"coordinates":[5.878028,51.995832],"type":"Point"},"properties":{"osm_id":"3369611497","tag":{"amenity":"recycling","recycling:glass_bottles":"yes","recycling_type":"container"}},"type":"Feature"},
	{"geometry":{"coordinates":[5.88229,51.986382],"type":"Point"},"properties":{"osm_id":"3372357297","tag":{"amenity":"recycling","recycling:glass_bottles":"yes","recycling_type":"container"}},"type":"Feature"},
	{"geometry":{"coordinates":[5.882144,51.958249],"type":"Point"},"properties":{"osm_id":"3372380929","tag":{"amenity":"recycling","recycling:glass_bottles":"yes","recycling_type":"container"}},"type":"Feature"},
	{"geometry":{"coordinates":[5.855793,51.959418],"type":"Point"},"properties":{"osm_id":"3372380931","tag":{"amenity":"recycling","recycling:glass_bottles":"yes","recycling_type":"container"}},"type":"Feature"},
	{"geometry":{"coordinates":[5.870286,51.961799],"type":"Point"},"properties":{"osm_id":"3372380935","tag":{"amenity":"recycling","recycling:glass_bottles":"yes","recycling_type":"container"}},"type":"Feature"},
	{"geometry":{"coordinates":[5.843907,51.95001],"type":"Point"},"properties":{"osm_id":"3372423166","tag":{"amenity":"recycling","recycling:glass_bottles":"yes","recycling_type":"container"}},"type":"Feature"},
	{"geometry":{"coordinates":[5.887305,51.953829],"type":"Point"},"properties":{"osm_id":"3372423169","tag":{"amenity":"recycling","recycling:glass_bottles":"yes","recycling_type":"container"}},"type":"Feature"},
	{"geometry":{"coordinates":[5.883633,51.949101],"type":"Point"},"properties":{"osm_id":"3391829551","tag":{"amenity":"recycling","recycling:glass_bottles":"yes","recycling_type":"container"}},"type":"Feature"},
	{"geometry":{"coordinates":[5.864072,51.955768],"type":"Point"},"properties":{"osm_id":"3391829552","tag":{"amenity":"recycling","recycling:glass_bottles":"yes","recycling_type":"container"}},"type":"Feature"},
	{"geometry":{"coordinates":[5.880496,51.992041],"type":"Point"},"properties":{"osm_id":"3391829558","tag":{"amenity":"recycling","recycling:glass_bottles":"yes","recycling_type":"container"}},"type":"Feature"},
	{"geometry":{"coordinates":[5.855587,51.948475],"type":"Point"},"properties":{"osm_id":"3402776943","tag":{"amenity":"recycling","recycling:glass_bottles":"yes","recycling_type":"container"}},"type":"Feature"},
	{"geometry":{"coordinates":[5.867622,51.94856],"type":"Point"},"properties":{"osm_id":"3402776944","tag":{"amenity":"recycling","recycling:glass_bottles":"yes","recycling_type":"container"}},"type":"Feature"},
	{"geometry":{"coordinates":[5.844205,51.950397],"type":"Point"},"properties":{"osm_id":"3402776945","tag":{"amenity":"recycling","recycling:glass_bottles":"yes","recycling_type":"container"}},"type":"Feature"},
	{"geometry":{"coordinates":[5.844216,51.950421],"type":"Point"},"properties":{"osm_id":"3402776946","tag":{"amenity":"recycling","recycling:glass_bottles":"yes","recycling_type":"container"}},"type":"Feature"},
	{"geometry":{"coordinates":[5.856954,51.956786],"type":"Point"},"properties":{"osm_id":"3402776947","tag":{"amenity":"recycling","recycling:glass_bottles":"yes","recycling_type":"container"}},"type":"Feature"},
	{"geometry":{"coordinates":[5.863041,51.94991],"type":"Point"},"properties":{"osm_id":"3402805674","tag":{"amenity":"recycling","recycling:glass_bottles":"yes","recycling_type":"container"}},"type":"Feature"},
	{"geometry":{"coordinates":[5.859348,51.961452],"type":"Point"},"properties":{"osm_id":"3402805677","tag":{"amenity":"recycling","recycling:glass_bottles":"yes","recycling_type":"container"}},"type":"Feature"},
	{"geometry":{"coordinates":[5.879712,51.982916],"type":"Point"},"properties":{"osm_id":"3402805679","tag":{"amenity":"recycling","recycling:glass_bottles":"yes","recycling_type":"container"}},"type":"Feature"},
	{"geometry":{"coordinates":[5.833948,51.955162],"type":"Point"},"properties":{"osm_id":"4012156600","tag":{"amenity":"recycling","description":"Ondergrondse container","location":"underground","recycling_type":"container"}},"type":"Feature"},
	{"geometry":{"coordinates":[5.883519,51.99041],"type":"Point"},"properties":{"osm_id":"4048823127","tag":{"amenity":"waste_basket"}},"type":"Feature"},
	{"geometry":{"coordinates":[5.886614,51.957904],"type":"Point"},"properties":{"osm_id":"4341697844","tag":{"amenity":"waste_basket"}},"type":"Feature"},
	{"geometry":{"coordinates":[5.883092,51.956031],"type":"Point"},"properties":{"osm_id":"4341697846","tag":{"amenity":"waste_basket"}},"type":"Feature"},
	{"geometry":{"coordinates":[5.878246,51.96335],"type":"Point"},"properties":{"osm_id":"4341697848","tag":{"amenity":"waste_basket"}},"type":"Feature"},
	{"geometry":{"coordinates":[5.881533,51.964016],"type":"Point"},"properties":{"osm_id":"4341697853","tag":{"amenity":"waste_basket"}},"type":"Feature"},
	{"geometry":{"coordinates":[5.888661,51.961013],"type":"Point"},"properties":{"osm_id":"4341697858","tag":{"amenity":"waste_basket"}},"type":"Feature"},
	{"geometry":{"coordinates":[5.882889,51.958481],"type":"Point"},"properties":{"osm_id":"4366957889","tag":{"amenity":"waste_basket"}},"type":"Feature"},
	{"geometry":{"coordinates":[5.88344,51.958279],"type":"Point"},"properties":{"osm_id":"4366957895","tag":{"amenity":"waste_basket"}},"type":"Feature"},
	{"geometry":{"coordinates":[5.851364,51.994503],"type":"Point"},"properties":{"osm_id":"4737757990","tag":{"amenity":"waste_basket"}},"type":"Feature"},
	{"geometry":{"coordinates":[5.859282,51.987831],"type":"Point"},"properties":{"osm_id":"4738135192","tag":{"amenity":"waste_basket"}},"type":"Feature"},
	{"geometry":{"coordinates":[5.823879,51.975038],"type":"Point"},"properties":{"osm_id":"4738601744","tag":{"amenity":"waste_basket"}},"type":"Feature"},
	{"geometry":{"coordinates":[5.836889,51.988205],"type":"Point"},"properties":{"osm_id":"4738601748","tag":{"amenity":"waste_basket"}},"type":"Feature"},
	{"geometry":{"coordinates":[5.823639,51.974093],"type":"Point"},"properties":{"osm_id":"4738663580","tag":{"amenity":"waste_basket"}},"type":"Feature"},
	{"geometry":{"coordinates":[5.823501,51.973989],"type":"Point"},"properties":{"osm_id":"4738663581","tag":{"amenity":"waste_basket"}},"type":"Feature"},
	{"geometry":{"coordinates":[5.823388,51.973909],"type":"Point"},"properties":{"osm_id":"4738663582","tag":{"amenity":"waste_basket"}},"type":"Feature"},
	{"geometry":{"coordinates":[5.823082,51.973838],"type":"Point"},"properties":{"osm_id":"4738663583","tag":{"amenity":"waste_basket"}},"type":"Feature"},
	{"geometry":{"coordinates":[5.822912,51.973804],"type":"Point"},"properties":{"osm_id":"4738663584","tag":{"amenity":"waste_basket"}},"type":"Feature"},
	{"geometry":{"coordinates":[5.847565,51.953254],"type":"Point"},"properties":{"osm_id":"4914320303","tag":{"amenity":"recycling","recycling:clothes":"yes","recycling:shoes":"yes","recycling_type":"container"}},"type":"Feature"},
	{"geometry":{"coordinates":[5.847539,51.953203],"type":"Point"},"properties":{"osm_id":"4914320304","tag":{"amenity":"recycling","recycling:glass":"yes","recycling:glass_bottles":"yes","recycling_type":"container"}},"type":"Feature"},
	{"geometry":{"coordinates":[5.842786,51.987773],"type":"Point"},"properties":{"osm_id":"5363816278","tag":{"amenity":"waste_basket"}},"type":"Feature"},
	{"geometry":{"coordinates":[5.842799,51.987814],"type":"Point"},"properties":{"osm_id":"5363816279","tag":{"amenity":"recycling","recycling_type":"container"}},"type":"Feature"},
	{"geometry":{"coordinates":[5.840552,51.994691],"type":"Point"},"properties":{"osm_id":"5588656402","tag":{"amenity":"waste_basket"}},"type":"Feature"},
	{"geometry":{"coordinates":[5.872873,51.949949],"type":"Point"},"properties":{"osm_id":"6249254812","tag":{"amenity":"recycling","recycling:waste":"yes","recycling_type":"container"}},"type":"Feature"},
	{"geometry":{"coordinates":[5.882075,51.983916],"type":"Point"},"properties":{"osm_id":"6455412571","tag":{"amenity":"recycling","recycling:paper":"yes","recycling:waste":"yes","recycling_type":"container"}},"type":"Feature"},
	{"geometry":{"coordinates":[5.870558,51.951135],"type":"Point"},"properties":{"osm_id":"6544765145","tag":{"amenity":"recycling","material":"waste","recycling_type":"container"}},"type":"Feature"},
	{"geometry":{"coordinates":[5.872085,51.951257],"type":"Point"},"properties":{"osm_id":"6544785808","tag":{"amenity":"recycling","material":"waste","recycling_type":"container"}},"type":"Feature"},
	{"geometry":{"coordinates":[5.85549,51.952561],"type":"Point"},"properties":{"osm_id":"6703440893","tag":{"amenity":"recycling","recycling:waste":"yes","recycling_type":"container"}},"type":"Feature"},
	{"geometry":{"coordinates":[5.865654,51.961143],"type":"Point"},"properties":{"osm_id":"7051211977","tag":{"amenity":"recycling","recycling:waste":"yes","recycling_type":"container"}},"type":"Feature"},
	{"geometry":{"coordinates":[5.867661,51.962375],"type":"Point"},"properties":{"osm_id":"7051211978","tag":{"amenity":"recycling","recycling:waste":"yes","recycling_type":"container"}},"type":"Feature"},
	{"geometry":{"coordinates":[5.870176,51.963034],"type":"Point"},"properties":{"osm_id":"7161007034","tag":{"access":"residents","amenity":"recycling","location":"underground","operator":"Gemeente Arnhem","recycling:waste":"yes","recycling_type":"container"}},"type":"Feature"},
	{"geometry":{"coordinates":[5.86925,51.963384],"type":"Point"},"properties":{"osm_id":"7161007035","tag":{"access":"residents","amenity":"recycling","location":"underground","operator":"Gemeente Arnhem","recycling:waste":"yes","recycling_type":"container"}},"type":"Feature"},
	{"geometry":{"coordinates":[5.870309,51.963837],"type":"Point"},"properties":{"osm_id":"7161007036","tag":{"access":"residents","amenity":"recycling","location":"underground","operator":"Gemeente Arnhem","recycling:waste":"yes","recycling_type":"container"}},"type":"Feature"},
	{"geometry":{"coordinates":[5.839707,51.982193],"type":"Point"},"properties":{"osm_id":"7372257703","tag":{"amenity":"recycling","recycling:glass":"yes","recycling_type":"container"}},"type":"Feature"},
	{"geometry":{"coordinates":[5.848984,51.980717],"type":"Point"},"properties":{"osm_id":"7372292493","tag":{"amenity":"recycling","recycling:glass":"yes","recycling_type":"container"}},"type":"Feature"},
	{"geometry":{"coordinates":[5.842307,51.981166],"type":"Point"},"properties":{"osm_id":"7374651034","tag":{"amenity":"waste_basket","waste":"dog_excrement"}},"type":"Feature"},
	{"geometry":{"coordinates":[5.841962,51.982105],"type":"Point"},"properties":{"osm_id":"7374651035","tag":{"amenity":"waste_basket","waste":"dog_excrement"}},"type":"Feature"},
	{"geometry":{"coordinates":[5.845418,51.983538],"type":"Point"},"properties":{"osm_id":"7374651036","tag":{"amenity":"waste_basket","waste":"dog_excrement"}},"type":"Feature"},
	{"geometry":{"coordinates":[5.845331,51.981338],"type":"Point"},"properties":{"osm_id":"7374651038","tag":{"amenity":"waste_basket","waste":"dog_excrement"}},"type":"Feature"},
	{"geometry":{"coordinates":[5.882375,51.958182],"type":"Point"},"properties":{"osm_id":"7434355645","tag":{"amenity":"waste_basket"}},"type":"Feature"},
	{"geometry":{"coordinates":[5.880797,51.958882],"type":"Point"},"properties":{"osm_id":"7434355646","tag":{"amenity":"waste_basket","waste":"dog_excrement"}},"type":"Feature"},
	{"geometry":{"coordinates":[5.88484,51.946032],"type":"Point"},"properties":{"osm_id":"7629529466","tag":{"amenity":"recycling","recycling:paper":"yes","recycling:plastic":"yes","recycling_type":"container"}},"type":"Feature"},
	{"geometry":{"coordinates":[5.867105,51.963479],"type":"Point"},"properties":{"osm_id":"7757190828","tag":{"amenity":"waste_basket","waste":"trash"}},"type":"Feature"},
	{"geometry":{"coordinates":[5.85653,51.948895],"type":"Point"},"properties":{"osm_id":"7901945057","tag":{"amenity":"waste_basket","colour":"navy"}},"type":"Feature"}
]
}
