{
"type": "FeatureCollection",
"features": [
	{"geometry":{"coordinates":[5.84776,51.850577],"type":"Point"},"properties":{"osm_id":"417128895","tag":{"amenity":"recycling","recycling:glass":"yes","recycling_type":"container"}},"type":"Feature"},
	{"geometry":{"coordinates":[5.825085,51.88113],"type":"Point"},"properties":{"osm_id":"453603396","tag":{"amenity":"recycling","recycling:batteries":"yes","recycling:glass":"yes","recycling_type":"centre"}},"type":"Feature"},
	{"geometry":{"coordinates":[5.856342,51.839439],"type":"Point"},"properties":{"osm_id":"492065034","tag":{"amenity":"recycling","recycling_type":"container"}},"type":"Feature"},
	{"geometry":{"coordinates":[5.874377,51.838634],"type":"Point"},"properties":{"osm_id":"584218232","tag":{"amenity":"recycling","recycling_type":"container"}},"type":"Feature"},
	{"geometry":{"coordinates":[5.866252,51.840702],"type":"Point"},"properties":{"osm_id":"1303263958","tag":{"amenity":"recycling","recycling:cans":"yes","recycling:glass":"yes","recycling_type":"container"}},"type":"Feature"},
	{"geometry":{"coordinates":[5.819568,51.87631],"type":"Point"},"properties":{"osm_id":"1827389566","tag":{"amenity":"waste_basket"}},"type":"Feature"},
	{"geometry":{"coordinates":[5.838431,51.879102],"type":"Point"},"properties":{"osm_id":"1996997431","tag":{"amenity":"recycling","recycling_type":"container"}},"type":"Feature"},
	{"geometry":{"coordinates":[5.860706,51.846923],"type":"Point"},"properties":{"osm_id":"2036671297","tag":{"amenity":"recycling","recycling:glass_bottles":"yes","recycling_type":"container"}},"type":"Feature"},
	{"geometry":{"coordinates":[5.874112,51.849495],"type":"Point"},"properties":{"osm_id":"2879696262","tag":{"amenity":"waste_basket"}},"type":"Feature"},
	{"geometry":{"coordinates":[5.873484,51.849281],"type":"Point"},"properties":{"osm_id":"2905306271","tag":{"amenity":"waste_basket","designation":"Afval bakken Stadswaard"}},"type":"Feature"},
	{"geometry":{"coordinates":[5.877738,51.849132],"type":"Point"},"properties":{"osm_id":"3177040961","tag":{"amenity":"waste_basket"}},"type":"Feature"},
	{"geometry":{"coordinates":[5.877018,51.847013],"type":"Point"},"properties":{"osm_id":"3177041402","tag":{"amenity":"waste_basket"}},"type":"Feature"},
	{"geometry":{"coordinates":[5.873562,51.848699],"type":"Point"},"properties":{"osm_id":"3177044857","tag":{"amenity":"waste_basket"}},"type":"Feature"},
	{"geometry":{"coordinates":[5.873283,51.848797],"type":"Point"},"properties":{"osm_id":"3177044859","tag":{"amenity":"waste_basket"}},"type":"Feature"},
	{"geometry":{"coordinates":[5.884089,51.86934],"type":"Point"},"properties":{"osm_id":"4078012419","tag":{"amenity":"waste_basket"}},"type":"Feature"},
	{"geometry":{"coordinates":[5.859473,51.840435],"type":"Point"},"properties":{"osm_id":"4802540546","tag":{"amenity":"waste_basket"}},"type":"Feature"},
	{"geometry":{"coordinates":[5.839723,51.879033],"type":"Point"},"properties":{"osm_id":"4854546524","tag":{"amenity":"waste_basket"}},"type":"Feature"},
	{"geometry":{"coordinates":[5.840687,51.879868],"type":"Point"},"properties":{"osm_id":"4854575125","tag":{"amenity":"waste_basket"}},"type":"Feature"},
	{"geometry":{"coordinates":[5.841378,51.881096],"type":"Point"},"properties":{"osm_id":"4854578536","tag":{"amenity":"waste_basket"}},"type":"Feature"},
	{"geometry":{"coordinates":[5.86485,51.86991],"type":"Point"},"properties":{"osm_id":"5110890879","tag":{"amenity":"recycling","recycling:clothes":"yes","recycling:glass_bottles":"yes","recycling_type":"container"}},"type":"Feature"},
	{"geometry":{"coordinates":[5.869568,51.845118],"type":"Point"},"properties":{"osm_id":"5126826166","tag":{"amenity":"recycling","recycling:clothes":"yes","recycling:glass_bottles":"yes","recycling_type":"container"}},"type":"Feature"},
	{"geometry":{"coordinates":[5.859973,51.844317],"type":"Point"},"properties":{"osm_id":"5126826167","tag":{"amenity":"recycling","recycling:glass":"yes","recycling_type":"container"}},"type":"Feature"},
	{"geometry":{"coordinates":[5.867048,51.847195],"type":"Point"},"properties":{"osm_id":"5126826168","tag":{"amenity":"recycling","recycling:clothes":"yes","recycling:glass":"yes","recycling_type":"container"}},"type":"Feature"},
	{"geometry":{"coordinates":[5.843442,51.845018],"type":"Point"},"properties":{"osm_id":"5128922821","tag":{"amenity":"recycling","recycling:glass":"yes","recycling_type":"container"}},"type":"Feature"},
	{"geometry":{"coordinates":[5.873241,51.849407],"type":"Point"},"properties":{"osm_id":"5617178417","tag":{"amenity":"waste_basket"}},"type":"Feature"},
	{"geometry":{"coordinates":[5.858343,51.848244],"type":"Point"},"properties":{"osm_id":"5981545203","tag":{"amenity":"waste_basket"}},"type":"Feature"},
	{"geometry":{"coordinates":[5.860882,51.850311],"type":"Point"},"properties":{"osm_id":"6122259143","tag":{"amenity":"waste_basket"}},"type":"Feature"},
	{"geometry":{"coordinates":[5.858759,51.854589],"type":"Point"},"properties":{"osm_id":"6538090336","tag":{"amenity":"waste_disposal","waste":"trash"}},"type":"Feature"},
	{"geometry":{"coordinates":[5.858765,51.854208],"type":"Point"},"properties":{"osm_id":"6538090344","tag":{"amenity":"waste_basket"}},"type":"Feature"},
	{"geometry":{"coordinates":[5.842588,51.88222],"type":"Point"},"properties":{"osm_id":"6540254673","tag":{"amenity":"waste_basket"}},"type":"Feature"},
	{"geometry":{"coordinates":[5.839581,51.884888],"type":"Point"},"properties":{"osm_id":"6540254679","tag":{"amenity":"waste_basket"}},"type":"Feature"},
	{"geometry":{"coordinates":[5.843485,51.882655],"type":"Point"},"properties":{"osm_id":"6540254681","tag":{"amenity":"waste_basket"}},"type":"Feature"},
	{"geometry":{"coordinates":[5.842941,51.880363],"type":"Point"},"properties":{"osm_id":"6540254683","tag":{"amenity":"waste_basket"}},"type":"Feature"},
	{"geometry":{"coordinates":[5.839911,51.884198],"type":"Point"},"properties":{"osm_id":"6540254684","tag":{"amenity":"recycling","recycling_type":"container","type":"clothes"}},"type":"Feature"},
	{"geometry":{"coordinates":[5.839071,51.885647],"type":"Point"},"properties":{"osm_id":"6540257286","tag":{"amenity":"waste_basket"}},"type":"Feature"},
	{"geometry":{"coordinates":[5.844494,51.881124],"type":"Point"},"properties":{"osm_id":"6540257288","tag":{"amenity":"waste_basket"}},"type":"Feature"},
	{"geometry":{"coordinates":[5.837869,51.87698],"type":"Point"},"properties":{"osm_id":"6540257290","tag":{"amenity":"waste_basket"}},"type":"Feature"},
	{"geometry":{"coordinates":[5.839538,51.884307],"type":"Point"},"properties":{"osm_id":"6540257291","tag":{"amenity":"waste_basket"}},"type":"Feature"},
	{"geometry":{"coordinates":[5.841844,51.88358],"type":"Point"},"properties":{"osm_id":"6540257293","tag":{"amenity":"waste_basket"}},"type":"Feature"},
	{"geometry":{"coordinates":[5.84385,51.877167],"type":"Point"},"properties":{"osm_id":"6570215391","tag":{"amenity":"waste_basket"}},"type":"Feature"},
	{"geometry":{"coordinates":[5.84415,51.87726],"type":"Point"},"properties":{"osm_id":"6570215393","tag":{"amenity":"waste_basket"}},"type":"Feature"},
	{"geometry":{"coordinates":[5.863951,51.843699],"type":"Point"},"properties":{"osm_id":"6720925588","tag":{"amenity":"recycling","recycling:glass_bottles":"yes","recycling_type":"container"}},"type":"Feature"},
	{"geometry":{"coordinates":[5.85376,51.84419],"type":"Point"},"properties":{"osm_id":"6974669633","tag":{"amenity":"recycling","recycling:glass_bottles":"yes","recycling:paper":"yes","recycling:plastic":"yes","recycling_type":"container"}},"type":"Feature"},
	{"geometry":{"coordinates":[5.842966,51.836921],"type":"Point"},"properties":{"osm_id":"7316165209","tag":{"amenity":"waste_basket"}},"type":"Feature"},
	{"geometry":{"coordinates":[5.855797,51.843507],"type":"Point"},"properties":{"osm_id":"7331468326","tag":{"amenity":"waste_basket","colour":"Grey","material":"concrete","waste":"organic"}},"type":"Feature"},
	{"geometry":{"coordinates":[5.869294,51.84783],"type":"Point"},"properties":{"osm_id":"7446734668","tag":{"amenity":"waste_basket"}},"type":"Feature"},
	{"geometry":{"coordinates":[5.869287,51.847622],"type":"Point"},"properties":{"osm_id":"7446734669","tag":{"amenity":"waste_basket"}},"type":"Feature"},
	{"geometry":{"coordinates":[5.870208,51.847371],"type":"Point"},"properties":{"osm_id":"7446734674","tag":{"amenity":"waste_basket"}},"type":"Feature"},
	{"geometry":{"coordinates":[5.869725,51.847288],"type":"Point"},"properties":{"osm_id":"7446734676","tag":{"amenity":"waste_basket"}},"type":"Feature"},
	{"geometry":{"coordinates":[5.869051,51.847168],"type":"Point"},"properties":{"osm_id":"7446734677","tag":{"amenity":"waste_basket"}},"type":"Feature"}
]
}
