{
"type": "FeatureCollection",
"features": [
	{"geometry":{"coordinates":[5.838381,51.809172],"type":"Point"},"properties":{"osm_id":"930749624","tag":{"amenity":"waste_basket"}},"type":"Feature"},
	{"geometry":{"coordinates":[5.867763,51.834283],"type":"Point"},"properties":{"osm_id":"933247633","tag":{"amenity":"recycling","recycling:glass_bottles":"yes","recycling_type":"container"}},"type":"Feature"},
	{"geometry":{"coordinates":[5.876462,51.81009],"type":"Point"},"properties":{"osm_id":"939517885","tag":{"amenity":"waste_basket","precision":"estimation","waste":"dog_excrement"}},"type":"Feature"},
	{"geometry":{"coordinates":[5.818441,51.818807],"type":"Point"},"properties":{"osm_id":"949678021","tag":{"amenity":"waste_basket"}},"type":"Feature"},
	{"geometry":{"coordinates":[5.818356,51.818719],"type":"Point"},"properties":{"osm_id":"949678087","tag":{"amenity":"waste_basket"}},"type":"Feature"},
	{"geometry":{"coordinates":[5.814063,51.813535],"type":"Point"},"properties":{"osm_id":"1989693270","tag":{"amenity":"waste_basket"}},"type":"Feature"},
	{"geometry":{"coordinates":[5.813415,51.815056],"type":"Point"},"properties":{"osm_id":"1989693273","tag":{"amenity":"waste_basket"}},"type":"Feature"},
	{"geometry":{"coordinates":[5.807908,51.830763],"type":"Point"},"properties":{"osm_id":"1989693281","tag":{"amenity":"waste_basket"}},"type":"Feature"},
	{"geometry":{"coordinates":[5.808133,51.833115],"type":"Point"},"properties":{"osm_id":"1989693284","tag":{"amenity":"waste_basket"}},"type":"Feature"},
	{"geometry":{"coordinates":[5.849447,51.83067],"type":"Point"},"properties":{"osm_id":"2087864676","tag":{"amenity":"recycling","recycling:glass_bottles":"yes","recycling_type":"container"}},"type":"Feature"},
	{"geometry":{"coordinates":[5.848652,51.825072],"type":"Point"},"properties":{"osm_id":"2095365193","tag":{"amenity":"recycling","recycling:cans":"yes","recycling_type":"container"}},"type":"Feature"},
	{"geometry":{"coordinates":[5.847028,51.812638],"type":"Point"},"properties":{"osm_id":"2097733344","tag":{"amenity":"recycling","location":"underground","recycling:cans":"yes","recycling:clothes":"yes","recycling_type":"container"}},"type":"Feature"},
	{"geometry":{"coordinates":[5.839745,51.826048],"type":"Point"},"properties":{"osm_id":"2636975311","tag":{"amenity":"waste_basket"}},"type":"Feature"},
	{"geometry":{"coordinates":[5.839572,51.825976],"type":"Point"},"properties":{"osm_id":"2636975314","tag":{"amenity":"waste_basket"}},"type":"Feature"},
	{"geometry":{"coordinates":[5.839644,51.826209],"type":"Point"},"properties":{"osm_id":"2636975316","tag":{"amenity":"waste_basket"}},"type":"Feature"},
	{"geometry":{"coordinates":[5.840615,51.826434],"type":"Point"},"properties":{"osm_id":"2636975326","tag":{"amenity":"waste_basket"}},"type":"Feature"},
	{"geometry":{"coordinates":[5.840581,51.826641],"type":"Point"},"properties":{"osm_id":"2636975328","tag":{"amenity":"waste_basket"}},"type":"Feature"},
	{"geometry":{"coordinates":[5.808221,51.809297],"type":"Point"},"properties":{"osm_id":"2866568477","tag":{"amenity":"recycling","location":"underground","recycling:clothes":"yes","recycling:glass":"yes","recycling_type":"container"}},"type":"Feature"},
	{"geometry":{"coordinates":[5.880787,51.834264],"type":"Point"},"properties":{"osm_id":"3601296636","tag":{"amenity":"recycling","recycling_type":"container"}},"type":"Feature"},
	{"geometry":{"coordinates":[5.838978,51.81815],"type":"Point"},"properties":{"osm_id":"4071652474","tag":{"amenity":"waste_basket"}},"type":"Feature"},
	{"geometry":{"coordinates":[5.802263,51.830466],"type":"Point"},"properties":{"osm_id":"4251311833","tag":{"amenity":"recycling","recycling:glass_bottles":"yes","recycling_type":"container"}},"type":"Feature"},
	{"geometry":{"coordinates":[5.802493,51.830524],"type":"Point"},"properties":{"osm_id":"4251311837","tag":{"amenity":"recycling","recycling:clothes":"yes","recycling_type":"container"}},"type":"Feature"},
	{"geometry":{"coordinates":[5.823422,51.821591],"type":"Point"},"properties":{"osm_id":"4553821775","tag":{"amenity":"recycling","recycling:clothes":"yes","recycling_type":"container"}},"type":"Feature"},
	{"geometry":{"coordinates":[5.855779,51.828128],"type":"Point"},"properties":{"osm_id":"4757366464","tag":{"amenity":"waste_basket"}},"type":"Feature"},
	{"geometry":{"coordinates":[5.855714,51.827968],"type":"Point"},"properties":{"osm_id":"4757366465","tag":{"amenity":"waste_basket"}},"type":"Feature"},
	{"geometry":{"coordinates":[5.84716,51.828744],"type":"Point"},"properties":{"osm_id":"4759036221","tag":{"amenity":"waste_basket"}},"type":"Feature"},
	{"geometry":{"coordinates":[5.841309,51.826773],"type":"Point"},"properties":{"osm_id":"4763466629","tag":{"amenity":"waste_basket"}},"type":"Feature"},
	{"geometry":{"coordinates":[5.841205,51.82604],"type":"Point"},"properties":{"osm_id":"4763466630","tag":{"amenity":"waste_basket"}},"type":"Feature"},
	{"geometry":{"coordinates":[5.841301,51.825975],"type":"Point"},"properties":{"osm_id":"4763466632","tag":{"amenity":"waste_basket"}},"type":"Feature"},
	{"geometry":{"coordinates":[5.840325,51.825406],"type":"Point"},"properties":{"osm_id":"4763466635","tag":{"amenity":"waste_basket"}},"type":"Feature"},
	{"geometry":{"coordinates":[5.838626,51.826308],"type":"Point"},"properties":{"osm_id":"4791657615","tag":{"amenity":"waste_basket"}},"type":"Feature"},
	{"geometry":{"coordinates":[5.824952,51.807153],"type":"Point"},"properties":{"osm_id":"5044119990","tag":{"amenity":"recycling","location":"underground","recycling:glass_bottles":"yes","recycling_type":"container"}},"type":"Feature"},
	{"geometry":{"coordinates":[5.823532,51.811261],"type":"Point"},"properties":{"osm_id":"5059534118","tag":{"amenity":"waste_basket","waste":"dog_excrement"}},"type":"Feature"},
	{"geometry":{"coordinates":[5.825748,51.811057],"type":"Point"},"properties":{"osm_id":"5077063374","tag":{"amenity":"waste_basket","waste":"dog_excrement"}},"type":"Feature"},
	{"geometry":{"coordinates":[5.825972,51.830458],"type":"Point"},"properties":{"osm_id":"5126826169","tag":{"amenity":"recycling","recycling:glass":"yes","recycling_type":"container"}},"type":"Feature"},
	{"geometry":{"coordinates":[5.819676,51.808539],"type":"Point"},"properties":{"osm_id":"5150092917","tag":{"amenity":"waste_basket","waste":"dog_excrement"}},"type":"Feature"},
	{"geometry":{"coordinates":[5.827287,51.81302],"type":"Point"},"properties":{"osm_id":"5151637697","tag":{"amenity":"waste_basket","waste":"dog_excrement"}},"type":"Feature"},
	{"geometry":{"coordinates":[5.822125,51.808879],"type":"Point"},"properties":{"osm_id":"5153259643","tag":{"amenity":"waste_basket","waste":"dog_excrement"}},"type":"Feature"},
	{"geometry":{"coordinates":[5.801768,51.816323],"type":"Point"},"properties":{"osm_id":"5372683667","tag":{"amenity":"waste_basket"}},"type":"Feature"},
	{"geometry":{"coordinates":[5.803894,51.82894],"type":"Point"},"properties":{"osm_id":"6023241039","tag":{"amenity":"waste_basket"}},"type":"Feature"},
	{"geometry":{"coordinates":[5.824819,51.811987],"type":"Point"},"properties":{"osm_id":"6110352539","tag":{"amenity":"waste_basket","vending":"excrement_bags","waste":"dog_excrement"}},"type":"Feature"},
	{"geometry":{"coordinates":[5.86738,51.813361],"type":"Point"},"properties":{"osm_id":"6282469434","tag":{"amenity":"recycling","recycling:clothes":"yes","recycling_type":"container"}},"type":"Feature"},
	{"geometry":{"coordinates":[5.825489,51.807433],"type":"Point"},"properties":{"osm_id":"6371795924","tag":{"amenity":"recycling","recycling:clothes":"yes","recycling_type":"container"}},"type":"Feature"},
	{"geometry":{"coordinates":[5.844643,51.830912],"type":"Point"},"properties":{"osm_id":"6616633205","tag":{"amenity":"recycling","recycling:clothes":"yes","recycling:glass":"yes","recycling_type":"container"}},"type":"Feature"},
	{"geometry":{"coordinates":[5.864694,51.828153],"type":"Point"},"properties":{"osm_id":"6708004545","tag":{"amenity":"waste_disposal"}},"type":"Feature"},
	{"geometry":{"coordinates":[5.86467,51.828141],"type":"Point"},"properties":{"osm_id":"6708004546","tag":{"amenity":"waste_disposal"}},"type":"Feature"},
	{"geometry":{"coordinates":[5.864694,51.828129],"type":"Point"},"properties":{"osm_id":"6708004547","tag":{"amenity":"waste_disposal"}},"type":"Feature"},
	{"geometry":{"coordinates":[5.804757,51.82631],"type":"Point"},"properties":{"osm_id":"6722885383","tag":{"amenity":"waste_basket"}},"type":"Feature"},
	{"geometry":{"coordinates":[5.863387,51.812763],"type":"Point"},"properties":{"osm_id":"6778980400","tag":{"amenity":"waste_basket"}},"type":"Feature"},
	{"geometry":{"coordinates":[5.861049,51.813353],"type":"Point"},"properties":{"osm_id":"6778980402","tag":{"amenity":"recycling","recycling:glass_bottles":"yes","recycling_type":"container"}},"type":"Feature"},
	{"geometry":{"coordinates":[5.863156,51.812001],"type":"Point"},"properties":{"osm_id":"6778980412","tag":{"amenity":"waste_basket"}},"type":"Feature"},
	{"geometry":{"coordinates":[5.863322,51.812623],"type":"Point"},"properties":{"osm_id":"6778980418","tag":{"amenity":"waste_basket"}},"type":"Feature"},
	{"geometry":{"coordinates":[5.864953,51.811903],"type":"Point"},"properties":{"osm_id":"6778980434","tag":{"amenity":"waste_basket"}},"type":"Feature"},
	{"geometry":{"coordinates":[5.856017,51.812372],"type":"Point"},"properties":{"osm_id":"6794654196","tag":{"amenity":"waste_basket"}},"type":"Feature"},
	{"geometry":{"coordinates":[5.857718,51.823168],"type":"Point"},"properties":{"osm_id":"7118795749","tag":{"amenity":"waste_basket"}},"type":"Feature"},
	{"geometry":{"coordinates":[5.857773,51.821712],"type":"Point"},"properties":{"osm_id":"7118795751","tag":{"amenity":"waste_basket"}},"type":"Feature"},
	{"geometry":{"coordinates":[5.857964,51.823836],"type":"Point"},"properties":{"osm_id":"7118795754","tag":{"amenity":"waste_basket"}},"type":"Feature"},
	{"geometry":{"coordinates":[5.81228,51.804611],"type":"Point"},"properties":{"osm_id":"7201403463","tag":{"amenity":"waste_basket","waste":"dog_excrement"}},"type":"Feature"},
	{"geometry":{"coordinates":[5.877425,51.826469],"type":"Point"},"properties":{"osm_id":"7213741109","tag":{"amenity":"recycling","recycling:clothes":"yes","recycling_type":"container"}},"type":"Feature"},
	{"geometry":{"coordinates":[5.876087,51.826355],"type":"Point"},"properties":{"osm_id":"7213741119","tag":{"amenity":"waste_basket"}},"type":"Feature"},
	{"geometry":{"coordinates":[5.806622,51.827669],"type":"Point"},"properties":{"osm_id":"7340210793","tag":{"amenity":"waste_basket"}},"type":"Feature"},
	{"geometry":{"coordinates":[5.806459,51.829233],"type":"Point"},"properties":{"osm_id":"7403252238","tag":{"amenity":"waste_basket"}},"type":"Feature"},
	{"geometry":{"coordinates":[5.806838,51.827639],"type":"Point"},"properties":{"osm_id":"7403252239","tag":{"amenity":"waste_basket"}},"type":"Feature"},
	{"geometry":{"coordinates":[5.805982,51.82216],"type":"Point"},"properties":{"osm_id":"7489356771","tag":{"amenity":"waste_basket"}},"type":"Feature"},
	{"geometry":{"coordinates":[5.807967,51.82454],"type":"Point"},"properties":{"osm_id":"7489370992","tag":{"amenity":"waste_basket"}},"type":"Feature"},
	{"geometry":{"coordinates":[5.80362,51.822305],"type":"Point"},"properties":{"osm_id":"7489370993","tag":{"amenity":"waste_basket"}},"type":"Feature"},
	{"geometry":{"coordinates":[5.800912,51.822428],"type":"Point"},"properties":{"osm_id":"7489370995","tag":{"amenity":"waste_basket"}},"type":"Feature"},
	{"geometry":{"coordinates":[5.803568,51.832332],"type":"Point"},"properties":{"osm_id":"7489398862","tag":{"amenity":"waste_basket"}},"type":"Feature"},
	{"geometry":{"coordinates":[5.853673,51.782864],"type":"Point"},"properties":{"osm_id":"7544075050","tag":{"amenity":"recycling","location":"underground","recycling:clothes":"yes","recycling:glass":"yes","recycling_type":"container"}},"type":"Feature"},
	{"geometry":{"coordinates":[5.840048,51.813226],"type":"Point"},"properties":{"osm_id":"7573304015","tag":{"amenity":"waste_basket","waste":"dog_excrement"}},"type":"Feature"},
	{"geometry":{"coordinates":[5.824383,51.802755],"type":"Point"},"properties":{"osm_id":"7573304016","tag":{"amenity":"waste_basket","waste":"dog_excrement"}},"type":"Feature"},
	{"geometry":{"coordinates":[5.832639,51.806936],"type":"Point"},"properties":{"osm_id":"7573304017","tag":{"amenity":"waste_basket","waste":"dog_excrement"}},"type":"Feature"},
	{"geometry":{"coordinates":[5.826134,51.808063],"type":"Point"},"properties":{"osm_id":"7573304022","tag":{"amenity":"waste_basket","waste":"dog_excrement"}},"type":"Feature"},
	{"geometry":{"coordinates":[5.825577,51.806347],"type":"Point"},"properties":{"osm_id":"7573304025","tag":{"amenity":"waste_basket","waste":"dog_excrement"}},"type":"Feature"},
	{"geometry":{"coordinates":[5.83431,51.809587],"type":"Point"},"properties":{"osm_id":"7573304031","tag":{"amenity":"waste_basket","waste":"dog_excrement"}},"type":"Feature"},
	{"geometry":{"coordinates":[5.843174,51.811113],"type":"Point"},"properties":{"osm_id":"7573304036","tag":{"amenity":"waste_basket","waste":"dog_excrement"}},"type":"Feature"},
	{"geometry":{"coordinates":[5.844436,51.810899],"type":"Point"},"properties":{"osm_id":"7573304040","tag":{"amenity":"waste_basket","waste":"dog_excrement"}},"type":"Feature"},
	{"geometry":{"coordinates":[5.85053,51.809653],"type":"Point"},"properties":{"osm_id":"7573304041","tag":{"amenity":"waste_basket","waste":"dog_excrement"}},"type":"Feature"},
	{"geometry":{"coordinates":[5.871319,51.825501],"type":"Point"},"properties":{"osm_id":"7606742733","tag":{"amenity":"recycling","recycling:paper":"yes","recycling:plastic":"yes","recycling_type":"container"}},"type":"Feature"},
	{"geometry":{"coordinates":[5.870785,51.825858],"type":"Point"},"properties":{"osm_id":"7606742734","tag":{"amenity":"recycling","recycling:paper":"yes","recycling:plastic":"yes","recycling:waste":"yes","recycling_type":"container"}},"type":"Feature"},
	{"geometry":{"coordinates":[5.870006,51.826632],"type":"Point"},"properties":{"osm_id":"7606742735","tag":{"amenity":"recycling","recycling:glass_bottles":"yes","recycling:paper":"yes","recycling:plastic":"yes","recycling:waste":"yes","recycling_type":"container"}},"type":"Feature"},
	{"geometry":{"coordinates":[5.870161,51.82689],"type":"Point"},"properties":{"osm_id":"7606742736","tag":{"amenity":"recycling","recycling:paper":"yes","recycling_type":"container"}},"type":"Feature"},
	{"geometry":{"coordinates":[5.878898,51.83326],"type":"Point"},"properties":{"osm_id":"7677653330","tag":{"amenity":"recycling","recycling:paper":"yes","recycling_type":"container"}},"type":"Feature"}
]
}
