{
"type": "FeatureCollection",
"lastupdate": "2020-08-04T00:00:00Z",
"features": [
	{"geometry":{"coordinates":[5.847667,51.781123],"type":"Point"},"properties":{"osm_id":"1774502413","tag":{"amenity":"recycling","recycling_type":"centre"}},"type":"Feature"},
	{"geometry":{"coordinates":[5.886785,51.731803],"type":"Point"},"properties":{"osm_id":"1911596240","tag":{"amenity":"waste_basket"}},"type":"Feature"},
	{"geometry":{"coordinates":[5.8638,51.756304],"type":"Point"},"properties":{"osm_id":"3735097503","tag":{"amenity":"waste_basket","colour":"green","operator":"Gemeente Cuijk"}},"type":"Feature"},
	{"geometry":{"coordinates":[5.862255,51.750901],"type":"Point"},"properties":{"osm_id":"3735127265","tag":{"amenity":"waste_basket","colour":"green","operator":"Gemeente Cuijk"}},"type":"Feature"},
	{"geometry":{"coordinates":[5.870948,51.753157],"type":"Point"},"properties":{"osm_id":"3735249181","tag":{"amenity":"waste_basket","colour":"green"}},"type":"Feature"},
	{"geometry":{"coordinates":[5.814423,51.750644],"type":"Point"},"properties":{"osm_id":"5171581925","tag":{"amenity":"waste_basket"}},"type":"Feature"},
	{"geometry":{"coordinates":[5.853715,51.781243],"type":"Point"},"properties":{"osm_id":"7544075048","tag":{"amenity":"recycling","location":"underground","recycling:clothes":"yes","recycling:glass":"yes","recycling_type":"container"}},"type":"Feature"},
	{"geometry":{"coordinates":[5.872558,51.767706],"type":"Point"},"properties":{"osm_id":"7544467612","tag":{"amenity":"recycling","location":"underground","recycling:glass":"yes","recycling_type":"container"}},"type":"Feature"}
]
}
