{
"type": "FeatureCollection",
"features": [
	{"geometry":{"coordinates":[5.824767,50.870572],"type":"Point"},"properties":{"osm_id":"771231337","tag":{"amenity":"waste_basket"}},"type":"Feature"},
	{"geometry":{"coordinates":[5.824289,50.870687],"type":"Point"},"properties":{"osm_id":"771231338","tag":{"amenity":"recycling","recycling_type":"container"}},"type":"Feature"},
	{"geometry":{"coordinates":[5.824309,50.870892],"type":"Point"},"properties":{"osm_id":"771231340","tag":{"amenity":"waste_basket"}},"type":"Feature"},
	{"geometry":{"coordinates":[5.818127,50.848037],"type":"Point"},"properties":{"osm_id":"772309571","tag":{"amenity":"waste_basket"}},"type":"Feature"},
	{"geometry":{"coordinates":[5.82861,50.861017],"type":"Point"},"properties":{"osm_id":"772326894","tag":{"amenity":"waste_basket"}},"type":"Feature"},
	{"geometry":{"coordinates":[5.82248,50.857717],"type":"Point"},"properties":{"osm_id":"772328297","tag":{"amenity":"recycling","recycling_type":"container"}},"type":"Feature"},
	{"geometry":{"coordinates":[5.838305,50.86851],"type":"Point"},"properties":{"osm_id":"942347189","tag":{"amenity":"recycling","recycling:glass_bottles":"yes","recycling_type":"container"}},"type":"Feature"},
	{"geometry":{"coordinates":[5.83285,50.86346],"type":"Point"},"properties":{"osm_id":"1177713753","tag":{"amenity":"waste_basket"}},"type":"Feature"},
	{"geometry":{"coordinates":[5.883755,50.877558],"type":"Point"},"properties":{"osm_id":"1816174211","tag":{"amenity":"waste_basket"}},"type":"Feature"},
	{"geometry":{"coordinates":[5.827928,50.8643],"type":"Point"},"properties":{"osm_id":"2314087968","tag":{"amenity":"waste_basket"}},"type":"Feature"},
	{"geometry":{"coordinates":[5.845331,50.862301],"type":"Point"},"properties":{"osm_id":"3598765787","tag":{"amenity":"waste_basket"}},"type":"Feature"},
	{"geometry":{"coordinates":[5.825056,50.86143],"type":"Point"},"properties":{"osm_id":"4327414151","tag":{"amenity":"waste_basket"}},"type":"Feature"},
	{"geometry":{"coordinates":[5.818256,50.848167],"type":"Point"},"properties":{"osm_id":"4328099693","tag":{"amenity":"waste_basket"}},"type":"Feature"},
	{"geometry":{"coordinates":[5.820967,50.851404],"type":"Point"},"properties":{"osm_id":"4328099703","tag":{"amenity":"waste_basket"}},"type":"Feature"},
	{"geometry":{"coordinates":[5.826896,50.852479],"type":"Point"},"properties":{"osm_id":"4328099720","tag":{"amenity":"waste_basket"}},"type":"Feature"},
	{"geometry":{"coordinates":[5.831173,50.856466],"type":"Point"},"properties":{"osm_id":"4328099729","tag":{"amenity":"waste_basket"}},"type":"Feature"},
	{"geometry":{"coordinates":[5.815919,50.867035],"type":"Point"},"properties":{"osm_id":"4328258006","tag":{"amenity":"waste_basket"}},"type":"Feature"},
	{"geometry":{"coordinates":[5.813306,50.862402],"type":"Point"},"properties":{"osm_id":"4328268419","tag":{"amenity":"waste_basket"}},"type":"Feature"},
	{"geometry":{"coordinates":[5.870543,50.851586],"type":"Point"},"properties":{"osm_id":"4513926494","tag":{"amenity":"waste_basket"}},"type":"Feature"},
	{"geometry":{"coordinates":[5.884233,50.902675],"type":"Point"},"properties":{"osm_id":"5935127977","tag":{"amenity":"waste_basket"}},"type":"Feature"},
	{"geometry":{"coordinates":[5.885177,50.876983],"type":"Point"},"properties":{"osm_id":"5994017561","tag":{"amenity":"waste_basket"}},"type":"Feature"},
	{"geometry":{"coordinates":[5.830562,50.864662],"type":"Point"},"properties":{"osm_id":"5995988052","tag":{"amenity":"waste_basket"}},"type":"Feature"},
	{"geometry":{"coordinates":[5.830488,50.86476],"type":"Point"},"properties":{"osm_id":"5995988057","tag":{"amenity":"waste_basket"}},"type":"Feature"},
	{"geometry":{"coordinates":[5.830349,50.864431],"type":"Point"},"properties":{"osm_id":"5995988077","tag":{"amenity":"waste_basket"}},"type":"Feature"},
	{"geometry":{"coordinates":[5.830297,50.86394],"type":"Point"},"properties":{"osm_id":"5995988079","tag":{"amenity":"waste_basket"}},"type":"Feature"},
	{"geometry":{"coordinates":[5.829996,50.863859],"type":"Point"},"properties":{"osm_id":"5995988713","tag":{"amenity":"waste_basket"}},"type":"Feature"},
	{"geometry":{"coordinates":[5.832152,50.862118],"type":"Point"},"properties":{"osm_id":"5996325846","tag":{"amenity":"waste_basket"}},"type":"Feature"},
	{"geometry":{"coordinates":[5.833177,50.864098],"type":"Point"},"properties":{"osm_id":"5996334836","tag":{"amenity":"waste_basket"}},"type":"Feature"},
	{"geometry":{"coordinates":[5.832755,50.865003],"type":"Point"},"properties":{"osm_id":"5998837030","tag":{"amenity":"waste_basket"}},"type":"Feature"},
	{"geometry":{"coordinates":[5.832405,50.864853],"type":"Point"},"properties":{"osm_id":"5998837044","tag":{"amenity":"waste_basket"}},"type":"Feature"},
	{"geometry":{"coordinates":[5.832596,50.864396],"type":"Point"},"properties":{"osm_id":"5998837047","tag":{"amenity":"waste_basket"}},"type":"Feature"},
	{"geometry":{"coordinates":[5.831152,50.86509],"type":"Point"},"properties":{"osm_id":"5998837068","tag":{"amenity":"waste_basket"}},"type":"Feature"},
	{"geometry":{"coordinates":[5.833352,50.865192],"type":"Point"},"properties":{"osm_id":"5998837074","tag":{"amenity":"waste_basket"}},"type":"Feature"},
	{"geometry":{"coordinates":[5.834165,50.864922],"type":"Point"},"properties":{"osm_id":"5998837079","tag":{"amenity":"waste_basket"}},"type":"Feature"},
	{"geometry":{"coordinates":[5.834362,50.864823],"type":"Point"},"properties":{"osm_id":"5998837080","tag":{"amenity":"waste_basket"}},"type":"Feature"},
	{"geometry":{"coordinates":[5.833315,50.865099],"type":"Point"},"properties":{"osm_id":"5998837084","tag":{"amenity":"waste_basket"}},"type":"Feature"},
	{"geometry":{"coordinates":[5.833063,50.865291],"type":"Point"},"properties":{"osm_id":"5998847089","tag":{"amenity":"waste_basket"}},"type":"Feature"},
	{"geometry":{"coordinates":[5.8328,50.865303],"type":"Point"},"properties":{"osm_id":"5998847090","tag":{"amenity":"waste_basket"}},"type":"Feature"},
	{"geometry":{"coordinates":[5.818169,50.870764],"type":"Point"},"properties":{"osm_id":"6013682421","tag":{"amenity":"waste_basket"}},"type":"Feature"},
	{"geometry":{"coordinates":[5.886156,50.877686],"type":"Point"},"properties":{"osm_id":"6193524628","tag":{"amenity":"waste_basket"}},"type":"Feature"},
	{"geometry":{"coordinates":[5.885527,50.877588],"type":"Point"},"properties":{"osm_id":"6193524637","tag":{"amenity":"waste_basket","waste":"trash"}},"type":"Feature"},
	{"geometry":{"coordinates":[5.885831,50.877668],"type":"Point"},"properties":{"osm_id":"6193524638","tag":{"amenity":"waste_basket"}},"type":"Feature"},
	{"geometry":{"coordinates":[5.849293,50.866349],"type":"Point"},"properties":{"osm_id":"6615761346","tag":{"amenity":"waste_basket"}},"type":"Feature"},
	{"geometry":{"coordinates":[5.86526,50.858474],"type":"Point"},"properties":{"osm_id":"7033890375","tag":{"access":"customers","amenity":"waste_disposal"}},"type":"Feature"},
	{"geometry":{"coordinates":[5.86581,50.857115],"type":"Point"},"properties":{"osm_id":"7034076003","tag":{"amenity":"waste_basket","waste":"dog_excrement"}},"type":"Feature"},
	{"geometry":{"coordinates":[5.865584,50.857642],"type":"Point"},"properties":{"osm_id":"7036456321","tag":{"amenity":"waste_disposal"}},"type":"Feature"},
	{"geometry":{"coordinates":[5.865622,50.857522],"type":"Point"},"properties":{"osm_id":"7036456322","tag":{"amenity":"recycling","opening_hours":"24/7","recycling:glass_bottles":"yes","recycling_type":"container","wheelchair":"yes"}},"type":"Feature"},
	{"geometry":{"coordinates":[5.86561,50.857563],"type":"Point"},"properties":{"osm_id":"7036456323","tag":{"amenity":"recycling","opening_hours":"24/7","recycling:paper":"yes","recycling_type":"container","wheelchair":"yes"}},"type":"Feature"},
	{"geometry":{"coordinates":[5.865597,50.857609],"type":"Point"},"properties":{"osm_id":"7036456324","tag":{"amenity":"waste_disposal"}},"type":"Feature"},
	{"geometry":{"coordinates":[5.865755,50.857504],"type":"Point"},"properties":{"osm_id":"7036573771","tag":{"amenity":"waste_basket","waste":"trash"}},"type":"Feature"}
]
}
