{
"type": "FeatureCollection",
"features": [
	{"geometry":{"coordinates":[5.832652,50.820887],"type":"Point"},"properties":{"osm_id":"524058020","tag":{"amenity":"recycling","recycling_type":"centre"}},"type":"Feature"},
	{"geometry":{"coordinates":[5.819079,50.822219],"type":"Point"},"properties":{"osm_id":"1433298486","tag":{"amenity":"recycling","recycling_type":"container"}},"type":"Feature"},
	{"geometry":{"coordinates":[5.823521,50.820284],"type":"Point"},"properties":{"osm_id":"1433298502","tag":{"amenity":"recycling","recycling_type":"container"}},"type":"Feature"},
	{"geometry":{"coordinates":[5.806968,50.832468],"type":"Point"},"properties":{"osm_id":"1960431352","tag":{"amenity":"waste_basket"}},"type":"Feature"},
	{"geometry":{"coordinates":[5.802358,50.802316],"type":"Point"},"properties":{"osm_id":"3406741401","tag":{"amenity":"waste_basket"}},"type":"Feature"},
	{"geometry":{"coordinates":[5.814563,50.821845],"type":"Point"},"properties":{"osm_id":"3416389435","tag":{"amenity":"waste_basket"}},"type":"Feature"},
	{"geometry":{"coordinates":[5.81809,50.811451],"type":"Point"},"properties":{"osm_id":"3416389439","tag":{"amenity":"waste_basket"}},"type":"Feature"},
	{"geometry":{"coordinates":[5.803067,50.80058],"type":"Point"},"properties":{"osm_id":"3416422731","tag":{"amenity":"waste_basket"}},"type":"Feature"},
	{"geometry":{"coordinates":[5.823715,50.794011],"type":"Point"},"properties":{"osm_id":"3824129780","tag":{"amenity":"waste_basket"}},"type":"Feature"},
	{"geometry":{"coordinates":[5.879159,50.805276],"type":"Point"},"properties":{"osm_id":"5029657971","tag":{"amenity":"waste_basket"}},"type":"Feature"},
	{"geometry":{"coordinates":[5.876495,50.803254],"type":"Point"},"properties":{"osm_id":"5029657996","tag":{"amenity":"waste_basket"}},"type":"Feature"},
	{"geometry":{"coordinates":[5.884614,50.803373],"type":"Point"},"properties":{"osm_id":"5030294336","tag":{"amenity":"waste_basket"}},"type":"Feature"},
	{"geometry":{"coordinates":[5.804207,50.798436],"type":"Point"},"properties":{"osm_id":"5084791354","tag":{"amenity":"waste_basket"}},"type":"Feature"},
	{"geometry":{"coordinates":[5.875618,50.820488],"type":"Point"},"properties":{"osm_id":"5166585009","tag":{"amenity":"waste_basket"}},"type":"Feature"},
	{"geometry":{"coordinates":[5.888638,50.83589],"type":"Point"},"properties":{"osm_id":"5171796372","tag":{"amenity":"waste_basket"}},"type":"Feature"},
	{"geometry":{"coordinates":[5.884082,50.813899],"type":"Point"},"properties":{"osm_id":"6179648412","tag":{"amenity":"waste_basket"}},"type":"Feature"}
]
}
