{
"type": "FeatureCollection",
"features": [
	{"geometry":{"coordinates":[5.814772,50.721505],"type":"Point"},"properties":{"osm_id":"704390231","tag":{"amenity":"waste_basket"}},"type":"Feature"},
	{"geometry":{"coordinates":[5.818609,50.710824],"type":"Point"},"properties":{"osm_id":"747994648","tag":{"amenity":"waste_basket"}},"type":"Feature"},
	{"geometry":{"coordinates":[5.812912,50.697489],"type":"Point"},"properties":{"osm_id":"748049721","tag":{"amenity":"waste_basket"}},"type":"Feature"},
	{"geometry":{"coordinates":[5.816113,50.702998],"type":"Point"},"properties":{"osm_id":"748049724","tag":{"amenity":"waste_basket","natural":"tree"}},"type":"Feature"},
	{"geometry":{"coordinates":[5.813386,50.704968],"type":"Point"},"properties":{"osm_id":"782214924","tag":{"amenity":"waste_basket"}},"type":"Feature"},
	{"geometry":{"coordinates":[5.828837,50.698269],"type":"Point"},"properties":{"osm_id":"1517968027","tag":{"amenity":"waste_basket"}},"type":"Feature"},
	{"geometry":{"coordinates":[5.801696,50.70097],"type":"Point"},"properties":{"osm_id":"1518020602","tag":{"amenity":"waste_basket"}},"type":"Feature"},
	{"geometry":{"coordinates":[5.812696,50.729698],"type":"Point"},"properties":{"osm_id":"1528655563","tag":{"amenity":"waste_basket"}},"type":"Feature"},
	{"geometry":{"coordinates":[5.86035,50.703369],"type":"Point"},"properties":{"osm_id":"2813241736","tag":{"amenity":"waste_basket"}},"type":"Feature"},
	{"geometry":{"coordinates":[5.848605,50.689926],"type":"Point"},"properties":{"osm_id":"2859895758","tag":{"amenity":"waste_basket"}},"type":"Feature"},
	{"geometry":{"coordinates":[5.830484,50.687826],"type":"Point"},"properties":{"osm_id":"2859895759","tag":{"amenity":"waste_basket"}},"type":"Feature"},
	{"geometry":{"coordinates":[5.83596,50.685376],"type":"Point"},"properties":{"osm_id":"2859895812","tag":{"amenity":"waste_basket"}},"type":"Feature"},
	{"geometry":{"coordinates":[5.828696,50.706569],"type":"Point"},"properties":{"osm_id":"2860539452","tag":{"amenity":"waste_basket"}},"type":"Feature"},
	{"geometry":{"coordinates":[5.836012,50.711904],"type":"Point"},"properties":{"osm_id":"2860572061","tag":{"amenity":"waste_basket"}},"type":"Feature"},
	{"geometry":{"coordinates":[5.86102,50.723484],"type":"Point"},"properties":{"osm_id":"7926098270","tag":{"amenity":"waste_basket"}},"type":"Feature"},
	{"geometry":{"coordinates":[5.860305,50.722328],"type":"Point"},"properties":{"osm_id":"7926098272","tag":{"amenity":"waste_basket"}},"type":"Feature"},
	{"geometry":{"coordinates":[5.820898,50.73499],"type":"Point"},"properties":{"osm_id":"7926274425","tag":{"amenity":"waste_basket"}},"type":"Feature"}
]
}
