{
"type": "FeatureCollection",
"features": [
	{"geometry":{"coordinates":[5.813456,50.05926],"type":"Point"},"properties":{"osm_id":"1297576017","tag":{"amenity":"recycling","recycling:glass":"yes"}},"type":"Feature"},
	{"geometry":{"coordinates":[5.813594,50.059292],"type":"Point"},"properties":{"osm_id":"1297576055","tag":{"amenity":"recycling","recycling:cans":"yes","recycling:cartons":"yes","recycling:plastic_bottles":"yes"}},"type":"Feature"},
	{"geometry":{"coordinates":[5.885357,50.009632],"type":"Point"},"properties":{"osm_id":"3663249020","tag":{"amenity":"recycling","recycling:glass":"yes","recycling_type":"container"}},"type":"Feature"},
	{"geometry":{"coordinates":[5.836249,50.024909],"type":"Point"},"properties":{"osm_id":"6770014576","tag":{"amenity":"recycling","recycling:glass":"yes","recycling_type":"container"}},"type":"Feature"},
	{"geometry":{"coordinates":[5.80189,50.054941],"type":"Point"},"properties":{"osm_id":"7823940149","tag":{"amenity":"waste_basket"}},"type":"Feature"},
	{"geometry":{"coordinates":[5.814634,50.059903],"type":"Point"},"properties":{"osm_id":"7823949048","tag":{"amenity":"waste_basket"}},"type":"Feature"},
	{"geometry":{"coordinates":[5.814092,50.059514],"type":"Point"},"properties":{"osm_id":"7823954123","tag":{"amenity":"waste_basket"}},"type":"Feature"}
]
}
