{
"type": "FeatureCollection",
"features": [
	{"geometry":{"coordinates":[5.881436,49.595053],"type":"Point"},"properties":{"osm_id":"411398024","tag":{"amenity":"recycling","recycling:clothes":"yes","recycling:glass":"yes"}},"type":"Feature"},
	{"geometry":{"coordinates":[5.87424,49.555892],"type":"Point"},"properties":{"osm_id":"493207068","tag":{"amenity":"recycling","recycling:clothes":"yes"}},"type":"Feature"},
	{"geometry":{"coordinates":[5.885752,49.565192],"type":"Point"},"properties":{"osm_id":"927892990","tag":{"amenity":"waste_basket"}},"type":"Feature"},
	{"geometry":{"coordinates":[5.880595,49.563053],"type":"Point"},"properties":{"osm_id":"927901447","tag":{"amenity":"waste_basket"}},"type":"Feature"},
	{"geometry":{"coordinates":[5.880378,49.562926],"type":"Point"},"properties":{"osm_id":"927901451","tag":{"amenity":"waste_basket"}},"type":"Feature"},
	{"geometry":{"coordinates":[5.842783,49.554076],"type":"Point"},"properties":{"name":"Centre de recyclage","osm_id":"983719998","tag":{"amenity":"recycling","recycling_type":"centre"}},"type":"Feature"},
	{"geometry":{"coordinates":[5.882005,49.558389],"type":"Point"},"properties":{"osm_id":"1396361141","tag":{"amenity":"waste_basket"}},"type":"Feature"},
	{"geometry":{"coordinates":[5.87593,49.559178],"type":"Point"},"properties":{"osm_id":"1433738600","tag":{"amenity":"waste_basket"}},"type":"Feature"},
	{"geometry":{"coordinates":[5.861831,49.553804],"type":"Point"},"properties":{"osm_id":"1467600772","tag":{"amenity":"waste_basket"}},"type":"Feature"},
	{"geometry":{"coordinates":[5.862233,49.553925],"type":"Point"},"properties":{"osm_id":"1467600774","tag":{"amenity":"waste_basket"}},"type":"Feature"},
	{"geometry":{"coordinates":[5.880271,49.59599],"type":"Point"},"properties":{"osm_id":"1899846623","tag":{"amenity":"waste_basket"}},"type":"Feature"},
	{"geometry":{"coordinates":[5.884593,49.559571],"type":"Point"},"properties":{"osm_id":"2419580516","tag":{"amenity":"waste_basket"}},"type":"Feature"},
	{"geometry":{"coordinates":[5.828821,49.564393],"type":"Point"},"properties":{"osm_id":"3259320309","tag":{"amenity":"recycling","opening_hours":"24/7","operator":"IDELUX-Environnement","recycling:clothes":"yes","recycling:glass_bottles":"yes","recycling_type":"container"}},"type":"Feature"},
	{"geometry":{"coordinates":[5.850799,49.609928],"type":"Point"},"properties":{"osm_id":"3261051211","tag":{"amenity":"recycling","opening_hours":"24/7","operator":"IDELUX-Environnement","recycling:glass_bottles":"yes","recycling_type":"container"}},"type":"Feature"},
	{"geometry":{"coordinates":[5.879573,49.554404],"type":"Point"},"properties":{"osm_id":"3721328982","tag":{"amenity":"waste_basket"}},"type":"Feature"},
	{"geometry":{"coordinates":[5.83354,49.578128],"type":"Point"},"properties":{"osm_id":"4525492799","tag":{"amenity":"recycling","opening_hours":"24/7","operator":"IDELUX-Environnement","recycling:glass_bottles":"yes","recycling_type":"container"}},"type":"Feature"},
	{"geometry":{"coordinates":[5.883559,49.573769],"type":"Point"},"properties":{"osm_id":"5363986938","tag":{"amenity":"waste_basket"}},"type":"Feature"},
	{"geometry":{"coordinates":[5.88212,49.568241],"type":"Point"},"properties":{"osm_id":"5363986939","tag":{"amenity":"waste_basket"}},"type":"Feature"},
	{"geometry":{"coordinates":[5.877065,49.608932],"type":"Point"},"properties":{"osm_id":"5647634139","tag":{"amenity":"waste_basket"}},"type":"Feature"},
	{"geometry":{"coordinates":[5.879875,49.596183],"type":"Point"},"properties":{"osm_id":"5647634144","tag":{"amenity":"waste_basket"}},"type":"Feature"},
	{"geometry":{"coordinates":[5.877837,49.598725],"type":"Point"},"properties":{"osm_id":"5647634153","tag":{"amenity":"waste_basket"}},"type":"Feature"},
	{"geometry":{"coordinates":[5.880476,49.595865],"type":"Point"},"properties":{"osm_id":"5852163648","tag":{"amenity":"waste_basket"}},"type":"Feature"},
	{"geometry":{"coordinates":[5.850833,49.609928],"type":"Point"},"properties":{"osm_id":"6179365921","tag":{"amenity":"recycling","recycling:clothes":"yes","recycling_type":"container"}},"type":"Feature"},
	{"geometry":{"coordinates":[5.833229,49.563962],"type":"Point"},"properties":{"osm_id":"6228202618","tag":{"amenity":"recycling","recycling:glass_bottles":"yes","recycling_type":"container"}},"type":"Feature"},
	{"geometry":{"coordinates":[5.844619,49.572922],"type":"Point"},"properties":{"osm_id":"6228230770","tag":{"amenity":"recycling","opening_hours":"24/7","operator":"IDELUX-Environnement","recycling:glass_bottles":"yes","recycling_type":"container"}},"type":"Feature"},
	{"geometry":{"coordinates":[5.824196,49.564053],"type":"Point"},"properties":{"osm_id":"6228250435","tag":{"amenity":"recycling","recycling:glass_bottles":"yes","recycling_type":"container"}},"type":"Feature"},
	{"geometry":{"coordinates":[5.8346,49.558432],"type":"Point"},"properties":{"osm_id":"6228253622","tag":{"amenity":"recycling","opening_hours":"24/7","operator":"IDELUX-Environnement","recycling:clothes":"yes","recycling:glass_bottles":"yes","recycling_type":"container"}},"type":"Feature"},
	{"geometry":{"coordinates":[5.805849,49.569028],"type":"Point"},"properties":{"osm_id":"6677204333","tag":{"amenity":"recycling","opening_hours":"24/7","operator":"IDELUX-Environnement","recycling:clothes":"yes","recycling:glass_bottles":"yes","recycling_type":"container","wheelchair":"yes"}},"type":"Feature"},
	{"geometry":{"coordinates":[5.814376,49.56479],"type":"Point"},"properties":{"osm_id":"6680031468","tag":{"amenity":"recycling","opening_hours":"24/7","operator":"IDELUX-Environnement","recycling:clothes":"yes","recycling:glass_bottles":"yes","recycling_type":"container","wheelchair":"yes"}},"type":"Feature"},
	{"geometry":{"coordinates":[5.838471,49.56756],"type":"Point"},"properties":{"osm_id":"7177528329","tag":{"amenity":"recycling","opening_hours":"24/7","operator":"IDELUX-Environnement / Terre","recycling:clothes":"yes","recycling:glass_bottles":"yes","recycling_type":"container"}},"type":"Feature"},
	{"geometry":{"coordinates":[5.834037,49.571517],"type":"Point"},"properties":{"osm_id":"7177528331","tag":{"amenity":"recycling","location":"overground","opening_hours":"24/7","operator":"IDELUX-Environnement","recycling:glass_bottles":"yes","recycling_type":"container"}},"type":"Feature"},
	{"geometry":{"coordinates":[5.818252,49.592906],"type":"Point"},"properties":{"osm_id":"7177528347","tag":{"amenity":"recycling","opening_hours":"24/7","operator":"IDELUX-Environnement","recycling:glass_bottles":"yes","recycling_type":"container"}},"type":"Feature"},
	{"geometry":{"coordinates":[5.813173,49.598953],"type":"Point"},"properties":{"osm_id":"7177528348","tag":{"amenity":"recycling","opening_hours":"24/7","operator":"IDELUX-Environnement","recycling:glass_bottles":"yes","recycling_type":"container"}},"type":"Feature"},
	{"geometry":{"coordinates":[5.80885,49.565569],"type":"Point"},"properties":{"osm_id":"7183757531","tag":{"amenity":"recycling","opening_hours":"24/7","operator":"IDELUX-Environnement","recycling:clothes":"yes","recycling:glass_bottles":"yes","recycling_type":"container"}},"type":"Feature"},
	{"geometry":{"coordinates":[5.829066,49.573024],"type":"Point"},"properties":{"osm_id":"7183757532","tag":{"amenity":"recycling","opening_hours":"24/7","operator":"IDELUX-Environnement","recycling:clothes":"yes","recycling:glass_bottles":"yes","recycling_type":"container"}},"type":"Feature"},
	{"geometry":{"coordinates":[5.834904,49.563689],"type":"Point"},"properties":{"osm_id":"7183757533","tag":{"amenity":"recycling","opening_hours":"24/7","operator":"IDELUX-Environnement","recycling:glass_bottles":"yes","recycling_type":"container"}},"type":"Feature"},
	{"geometry":{"coordinates":[5.855103,49.581811],"type":"Point"},"properties":{"osm_id":"7183757534","tag":{"amenity":"recycling","opening_hours":"24/7","operator":"IDELUX-Environnement","recycling:glass_bottles":"yes","recycling_type":"container"}},"type":"Feature"},
	{"geometry":{"coordinates":[5.861632,49.553831],"type":"Point"},"properties":{"osm_id":"7248342657","tag":{"amenity":"waste_basket"}},"type":"Feature"},
	{"geometry":{"coordinates":[5.879217,49.564844],"type":"Point"},"properties":{"osm_id":"7425825833","tag":{"amenity":"waste_basket","material":"metal"}},"type":"Feature"},
	{"geometry":{"coordinates":[5.879954,49.566646],"type":"Point"},"properties":{"osm_id":"7425825834","tag":{"amenity":"waste_basket"}},"type":"Feature"}
]
}
