{
"type": "FeatureCollection",
"features": [
	{"geometry":{"coordinates":[5.827027,48.822254],"type":"Point"},"properties":{"osm_id":"5035610382","ref":"166","tag":{"amenity":"recycling","operator":"Communaut\u00c3\u00a9 de communes Terres Touloises","recycling:glass_bottles":"yes","recycling_type":"container"}},"type":"Feature"},
	{"geometry":{"coordinates":[5.826996,48.822245],"type":"Point"},"properties":{"osm_id":"5035610383","ref":"166","tag":{"amenity":"recycling","operator":"Communaut\u00c3\u00a9 de communes Terres Touloises","recycling:cans":"yes","recycling:cardboard":"yes","recycling:paper":"yes","recycling:plastic_bottles":"yes","recycling_type":"container"}},"type":"Feature"},
	{"geometry":{"coordinates":[5.826969,48.822237],"type":"Point"},"properties":{"osm_id":"5035610384","ref":"166","tag":{"amenity":"recycling","operator":"Communaut\u00c3\u00a9 de communes Terres Touloises","recycling:cans":"yes","recycling:cardboard":"yes","recycling:paper":"yes","recycling:plastic_bottles":"yes","recycling_type":"container"}},"type":"Feature"},
	{"geometry":{"coordinates":[5.813804,48.827439],"type":"Point"},"properties":{"osm_id":"5270843195","tag":{"amenity":"waste_basket"}},"type":"Feature"},
	{"geometry":{"coordinates":[5.886251,48.839791],"type":"Point"},"properties":{"osm_id":"5446271762","ref":"52223","tag":{"amenity":"recycling","operator":"Le Relais","recycling:clothes":"yes","recycling:shoes":"yes","recycling_type":"container"}},"type":"Feature"},
	{"geometry":{"coordinates":[5.843896,48.83234],"type":"Point"},"properties":{"osm_id":"5785083227","ref":"168","tag":{"amenity":"recycling","operator":"Communaut\u00c3\u00a9 de communes Terres Touloises","operator:type":"public","recycling:glass_bottles":"yes","recycling_type":"container"}},"type":"Feature"},
	{"geometry":{"coordinates":[5.843938,48.832317],"type":"Point"},"properties":{"osm_id":"5785083228","ref":"168","tag":{"amenity":"recycling","operator":"Communaut\u00c3\u00a9 de communes Terres Touloises","operator:type":"public","recycling:cans":"yes","recycling:cardboard":"yes","recycling:paper":"yes","recycling:plastic_bottles":"yes","recycling_type":"container"}},"type":"Feature"},
	{"geometry":{"coordinates":[5.843917,48.832329],"type":"Point"},"properties":{"osm_id":"5785083229","ref":"168","tag":{"amenity":"recycling","operator":"Communaut\u00c3\u00a9 de communes Terres Touloises","operator:type":"public","recycling:cans":"yes","recycling:cardboard":"yes","recycling:paper":"yes","recycling:plastic_bottles":"yes","recycling_type":"container"}},"type":"Feature"},
	{"geometry":{"coordinates":[5.886581,48.819215],"type":"Point"},"properties":{"osm_id":"5932695348","ref":"171","tag":{"amenity":"recycling","operator":"Communaut\u00c3\u00a9 de communes Terres Touloises","recycling:cans":"yes","recycling:cardboard":"yes","recycling:paper":"yes","recycling:plastic_bottles":"yes","recycling_type":"container"}},"type":"Feature"},
	{"geometry":{"coordinates":[5.886547,48.819208],"type":"Point"},"properties":{"osm_id":"5932695349","ref":"171","tag":{"amenity":"recycling","operator":"Communaut\u00c3\u00a9 de communes Terres Touloises","recycling:cans":"yes","recycling:cardboard":"yes","recycling:paper":"yes","recycling:plastic_bottles":"yes","recycling_type":"container"}},"type":"Feature"},
	{"geometry":{"coordinates":[5.886513,48.8192],"type":"Point"},"properties":{"osm_id":"5932695350","ref":"171","tag":{"amenity":"recycling","operator":"Communaut\u00c3\u00a9 de communes Terres Touloises","recycling:cans":"yes","recycling:cardboard":"yes","recycling:paper":"yes","recycling:plastic_bottles":"yes","recycling_type":"container"}},"type":"Feature"},
	{"geometry":{"coordinates":[5.886476,48.819192],"type":"Point"},"properties":{"osm_id":"5932695351","ref":"171","tag":{"amenity":"recycling","operator":"Communaut\u00c3\u00a9 de communes Terres Touloises","recycling:glass_bottles":"yes","recycling_type":"container"}},"type":"Feature"},
	{"geometry":{"coordinates":[5.886442,48.819185],"type":"Point"},"properties":{"osm_id":"5932695352","ref":"171","tag":{"amenity":"recycling","operator":"Communaut\u00c3\u00a9 de communes Terres Touloises","recycling:glass_bottles":"yes","recycling_type":"container"}},"type":"Feature"},
	{"geometry":{"coordinates":[5.881941,48.838973],"type":"Point"},"properties":{"osm_id":"7072170432","ref":"169","tag":{"amenity":"recycling","operator":"Communaut\u00c3\u00a9 de communes Terres Touloises","recycling:glass_bottles":"yes","recycling_type":"container"}},"type":"Feature"},
	{"geometry":{"coordinates":[5.881911,48.838967],"type":"Point"},"properties":{"osm_id":"7072170433","ref":"169","tag":{"amenity":"recycling","operator":"Communaut\u00c3\u00a9 de communes Terres Touloises","recycling:glass_bottles":"yes","recycling_type":"container"}},"type":"Feature"},
	{"geometry":{"coordinates":[5.881881,48.838963],"type":"Point"},"properties":{"osm_id":"7072170434","ref":"169","tag":{"amenity":"recycling","operator":"Communaut\u00c3\u00a9 de communes Terres Touloises","recycling:cans":"yes","recycling:cardboard":"yes","recycling:plastic_bottles":"yes","recycling_type":"container"}},"type":"Feature"},
	{"geometry":{"coordinates":[5.881856,48.838959],"type":"Point"},"properties":{"osm_id":"7072170435","ref":"169","tag":{"amenity":"recycling","operator":"Communaut\u00c3\u00a9 de communes Terres Touloises","recycling:cans":"yes","recycling:cardboard":"yes","recycling:plastic_bottles":"yes","recycling_type":"container"}},"type":"Feature"}
]
}
