{
"type": "FeatureCollection",
"lastupdate": "2020-07-31T00:00:00Z",
"features": [
	{"geometry":{"coordinates":[5.862399,48.766481],"type":"Point"},"properties":{"osm_id":"1661306035","ref":"161","tag":{"amenity":"recycling","operator":"Communaut\u00e9 de communes Terres Touloises","operator:type":"public","recycling:glass_bottles":"yes","recycling_type":"container"}},"type":"Feature"},
	{"geometry":{"coordinates":[5.862405,48.766508],"type":"Point"},"properties":{"osm_id":"1661306043","ref":"161","tag":{"amenity":"recycling","operator":"Communaut\u00e9 de communes Terres Touloises","operator:type":"public","recycling:cans":"yes","recycling:cardboard":"yes","recycling:paper":"yes","recycling:plastic_bottles":"yes","recycling_type":"container"}},"type":"Feature"},
	{"geometry":{"coordinates":[5.862411,48.766531],"type":"Point"},"properties":{"osm_id":"1661306076","ref":"161","tag":{"amenity":"recycling","operator":"Communaut\u00e9 de communes Terres Touloises","operator:type":"public","recycling:cans":"yes","recycling:cardboard":"yes","recycling:paper":"yes","recycling:plastic_bottles":"yes","recycling_type":"container"}},"type":"Feature"},
	{"geometry":{"coordinates":[5.884187,48.764447],"type":"Point"},"properties":{"osm_id":"2477879793","ref":"163","tag":{"amenity":"recycling","operator":"Communaut\u00e9 de communes Terres Touloises","recycling:glass_bottles":"yes","recycling_type":"container"}},"type":"Feature"},
	{"geometry":{"coordinates":[5.884202,48.764468],"type":"Point"},"properties":{"osm_id":"2477879797","ref":"163","tag":{"amenity":"recycling","operator":"Communaut\u00e9 de communes Terres Touloises","operator:type":"public","recycling:cans":"yes","recycling:cardboard":"yes","recycling:paper":"yes","recycling:plastic_bottles":"yes","recycling_type":"container"}},"type":"Feature"},
	{"geometry":{"coordinates":[5.884215,48.764488],"type":"Point"},"properties":{"osm_id":"2477879802","ref":"163","tag":{"amenity":"recycling","operator":"Communaut\u00e9 de communes Terres Touloises","operator:type":"public","recycling:cans":"yes","recycling:cardboard":"yes","recycling:paper":"yes","recycling:plastic_bottles":"yes","recycling_type":"container"}},"type":"Feature"},
	{"geometry":{"coordinates":[5.863376,48.76565],"type":"Point"},"properties":{"osm_id":"2477879816","tag":{"amenity":"waste_basket"}},"type":"Feature"},
	{"geometry":{"coordinates":[5.866035,48.767646],"type":"Point"},"properties":{"osm_id":"5481255313","ref":"162","tag":{"amenity":"recycling","operator":"Communaut\u00e9 de communes Terres Touloises","operator:type":"public","recycling:cans":"yes","recycling:cardboard":"yes","recycling:paper":"yes","recycling:plastic_bottles":"no","recycling_type":"container"}},"type":"Feature"},
	{"geometry":{"coordinates":[5.866027,48.767663],"type":"Point"},"properties":{"osm_id":"5481255314","ref":"162","tag":{"amenity":"recycling","operator":"Communaut\u00e9 de communes Terres Touloises","operator:type":"public","recycling:cans":"yes","recycling:cardboard":"yes","recycling:paper":"yes","recycling:plastic_bottles":"yes","recycling_type":"container"}},"type":"Feature"},
	{"geometry":{"coordinates":[5.866047,48.767622],"type":"Point"},"properties":{"osm_id":"5481255315","ref":"162","tag":{"amenity":"recycling","operator":"Communaut\u00e9 de communes Terres Touloises","operator:type":"public","recycling:glass_bottles":"yes","recycling_type":"container"}},"type":"Feature"},
	{"geometry":{"coordinates":[5.870646,48.778968],"type":"Point"},"properties":{"osm_id":"5503862981","ref":"165","tag":{"amenity":"recycling","operator":"Communaut\u00e9 de communes Terres Touloises","recycling:cans":"yes","recycling:cardboard":"yes","recycling:paper":"yes","recycling:plastic_bottles":"yes","recycling_type":"container"}},"type":"Feature"},
	{"geometry":{"coordinates":[5.870622,48.778951],"type":"Point"},"properties":{"osm_id":"5503862982","ref":"165","tag":{"amenity":"recycling","operator":"Communaut\u00e9 de communes Terres Touloises","recycling:cans":"yes","recycling:cardboard":"yes","recycling:paper":"yes","recycling:plastic_bottles":"yes","recycling_type":"container"}},"type":"Feature"},
	{"geometry":{"coordinates":[5.870599,48.778935],"type":"Point"},"properties":{"osm_id":"5503862983","ref":"165","tag":{"amenity":"recycling","operator":"Communaut\u00e9 de communes Terres Touloises","recycling:glass_bottles":"yes","recycling_type":"container"}},"type":"Feature"},
	{"geometry":{"coordinates":[5.870572,48.778915],"type":"Point"},"properties":{"osm_id":"5503862984","tag":{"amenity":"recycling","operator":"Le Relais","recycling:clothes":"yes","recycling:shoes":"yes","recycling_type":"container"}},"type":"Feature"},
	{"geometry":{"coordinates":[5.881198,48.766858],"type":"Point"},"properties":{"osm_id":"5721160620","ref":"164","tag":{"amenity":"recycling","operator":"Communaut\u00e9 de communes Terres Touloises","operator:type":"public","recycling:cans":"yes","recycling:cardboard":"yes","recycling:paper":"yes","recycling:plastic_bottles":"yes","recycling_type":"container"}},"type":"Feature"},
	{"geometry":{"coordinates":[5.881211,48.766839],"type":"Point"},"properties":{"osm_id":"5721163721","ref":"164","tag":{"amenity":"recycling","operator":"Communaut\u00e9 de communes Terres Touloises","recycling:glass_bottles":"yes","recycling_type":"container"}},"type":"Feature"},
	{"geometry":{"coordinates":[5.83995,48.772023],"type":"Point"},"properties":{"osm_id":"5784898789","ref":"160","tag":{"amenity":"recycling","operator":"Communaut\u00e9 de communes Terres Touloises","operator:type":"public","recycling:glass_bottles":"yes","recycling_type":"container"}},"type":"Feature"},
	{"geometry":{"coordinates":[5.840015,48.77203],"type":"Point"},"properties":{"osm_id":"5784898790","ref":"160","tag":{"amenity":"recycling","operator":"Communaut\u00e9 de communes Terres Touloises","operator:type":"public","recycling:cans":"yes","recycling:cardboard":"yes","recycling:paper":"yes","recycling:plastic_bottles":"yes","recycling_type":"container"}},"type":"Feature"},
	{"geometry":{"coordinates":[5.839983,48.772026],"type":"Point"},"properties":{"osm_id":"5784898791","ref":"160","tag":{"amenity":"recycling","operator":"Communaut\u00e9 de communes Terres Touloises","operator:type":"public","recycling:cans":"yes","recycling:cardboard":"yes","recycling:paper":"yes","recycling:plastic_bottles":"yes","recycling_type":"container"}},"type":"Feature"},
	{"geometry":{"coordinates":[5.866178,48.77978],"type":"Point"},"properties":{"osm_id":"5973059777","ref":"201","tag":{"amenity":"recycling","operator":"Communaut\u00e9 de communes Terres Touloises","operator:type":"public","recycling:glass_bottles":"yes","recycling_type":"container"}},"type":"Feature"},
	{"geometry":{"coordinates":[5.866167,48.779801],"type":"Point"},"properties":{"osm_id":"5973060146","ref":"201","tag":{"amenity":"recycling","operator":"Communaut\u00e9 de communes Terres Touloises","operator:type":"public","recycling:cans":"yes","recycling:cardboard":"yes","recycling:paper":"yes","recycling:plastic_bottles":"yes","recycling_type":"container"}},"type":"Feature"},
	{"geometry":{"coordinates":[5.866189,48.779761],"type":"Point"},"properties":{"osm_id":"5973060537","ref":"201","tag":{"amenity":"recycling","operator":"Communaut\u00e9 de communes Terres Touloises","operator:type":"public","recycling:cans":"yes","recycling:cardboard":"yes","recycling:paper":"yes","recycling:plastic_bottles":"yes","recycling_type":"container"}},"type":"Feature"},
	{"geometry":{"coordinates":[5.835043,48.769392],"type":"Point"},"properties":{"osm_id":"6294505115","tag":{"amenity":"recycling","recycling:green_waste":"yes","recycling:organic":"yes","recycling_type":"container"}},"type":"Feature"},
	{"geometry":{"coordinates":[5.835051,48.769382],"type":"Point"},"properties":{"osm_id":"6294505116","tag":{"amenity":"recycling","recycling:green_waste":"yes","recycling:organic":"yes","recycling_type":"container"}},"type":"Feature"},
	{"geometry":{"coordinates":[5.86193,48.766378],"type":"Point"},"properties":{"osm_id":"6333169435","tag":{"amenity":"recycling","recycling:garden_waste":"yes","recycling:green_waste":"yes","recycling:organic":"yes","recycling_type":"container"}},"type":"Feature"}
]
}
