{
"type": "FeatureCollection",
"lastupdate": "2020-07-31T00:00:00Z",
"features": [
	{"geometry":{"coordinates":[5.832172,48.719418],"type":"Point"},"properties":{"osm_id":"1486219716","ref":"155","tag":{"amenity":"recycling","operator":"Communaut\u00e9 de communes Terres Touloises","operator:type":"public","recycling:cans":"yes","recycling:cardboard":"yes","recycling:paper":"yes","recycling:plastic_bottles":"yes","recycling_type":"container"}},"type":"Feature"},
	{"geometry":{"coordinates":[5.839471,48.732444],"type":"Point"},"properties":{"osm_id":"1661305264","ref":"176","tag":{"amenity":"recycling","operator":"Communaut\u00e9 de communes Terres Touloises","operator:type":"public","recycling:cans":"yes","recycling:cardboard":"yes","recycling:paper":"yes","recycling:plastic_bottles":"yes","recycling_type":"container"}},"type":"Feature"},
	{"geometry":{"coordinates":[5.839443,48.732457],"type":"Point"},"properties":{"osm_id":"1661305282","ref":"176","tag":{"amenity":"recycling","operator":"Communaut\u00e9 de communes Terres Touloises","operator:type":"public","recycling:cans":"yes","recycling:cardboard":"yes","recycling:paper":"yes","recycling:plastic_bottles":"yes","recycling_type":"container"}},"type":"Feature"},
	{"geometry":{"coordinates":[5.839408,48.732471],"type":"Point"},"properties":{"osm_id":"1661305301","ref":"176","tag":{"amenity":"recycling","operator":"Communaut\u00e9 de communes Terres Touloises","recycling:glass_bottles":"yes","recycling_type":"container"}},"type":"Feature"},
	{"geometry":{"coordinates":[5.887861,48.70361],"type":"Point"},"properties":{"osm_id":"1698430605","ref":"215","tag":{"amenity":"recycling","operator":"Communaut\u00e9 de communes Terres Touloises","operator:type":"public","recycling:glass_bottles":"yes","recycling_type":"container"}},"type":"Feature"},
	{"geometry":{"coordinates":[5.887864,48.70363],"type":"Point"},"properties":{"osm_id":"1698430610","ref":"215","tag":{"amenity":"recycling","operator":"Communaut\u00e9 de communes Terres Touloises","operator:type":"public","recycling:glass_bottles":"yes","recycling_type":"container"}},"type":"Feature"},
	{"geometry":{"coordinates":[5.887867,48.703652],"type":"Point"},"properties":{"osm_id":"1698430622","ref":"215","tag":{"amenity":"recycling","operator":"Communaut\u00e9 de communes Terres Touloises","operator:type":"public","recycling:cans":"yes","recycling:cardboard":"yes","recycling:paper":"yes","recycling:plastic_bottles":"yes","recycling_type":"container"}},"type":"Feature"},
	{"geometry":{"coordinates":[5.88787,48.703671],"type":"Point"},"properties":{"osm_id":"1698430633","ref":"215","tag":{"amenity":"recycling","operator":"Communaut\u00e9 de communes Terres Touloises","operator:type":"public","recycling:cans":"yes","recycling:cardboard":"yes","recycling:paper":"yes","recycling:plastic_bottles":"yes","recycling_type":"container"}},"type":"Feature"},
	{"geometry":{"coordinates":[5.887873,48.703691],"type":"Point"},"properties":{"osm_id":"1698430646","ref":"215","tag":{"amenity":"recycling","operator":"Communaut\u00e9 de communes Terres Touloises","operator:type":"public","recycling:cans":"yes","recycling:cardboard":"yes","recycling:paper":"yes","recycling:plastic_bottles":"yes","recycling_type":"container"}},"type":"Feature"},
	{"geometry":{"coordinates":[5.887875,48.703711],"type":"Point"},"properties":{"osm_id":"1698430661","ref":"215","tag":{"amenity":"recycling","operator":"Communaut\u00e9 de communes Terres Touloises","operator:type":"public","recycling:cans":"yes","recycling:cardboard":"yes","recycling:paper":"yes","recycling:plastic_bottles":"yes","recycling_type":"container"}},"type":"Feature"},
	{"geometry":{"coordinates":[5.855214,48.706451],"type":"Point"},"properties":{"osm_id":"1931252732","tag":{"amenity":"waste_basket"}},"type":"Feature"},
	{"geometry":{"coordinates":[5.855598,48.706473],"type":"Point"},"properties":{"osm_id":"1931252735","tag":{"amenity":"waste_basket"}},"type":"Feature"},
	{"geometry":{"coordinates":[5.850602,48.706153],"type":"Point"},"properties":{"osm_id":"1934086183","ref":"153","tag":{"amenity":"recycling","operator":"Communaut\u00e9 de communes Terres Touloises","operator:type":"public","recycling:cans":"yes","recycling:cardboard":"yes","recycling:paper":"yes","recycling:plastic_bottles":"yes","recycling_type":"container"}},"type":"Feature"},
	{"geometry":{"coordinates":[5.850567,48.706155],"type":"Point"},"properties":{"osm_id":"1934086188","ref":"153","tag":{"amenity":"recycling","operator":"Communaut\u00e9 de communes Terres Touloises","operator:type":"public","recycling:cans":"yes","recycling:cardboard":"yes","recycling:paper":"yes","recycling:plastic_bottles":"yes","recycling_type":"container"}},"type":"Feature"},
	{"geometry":{"coordinates":[5.850598,48.706183],"type":"Point"},"properties":{"osm_id":"1934086210","ref":"153","tag":{"amenity":"recycling","operator":"Communaut\u00e9 de communes Terres Touloises","operator:type":"public","recycling:cans":"yes","recycling:cardboard":"yes","recycling:paper":"yes","recycling:plastic_bottles":"yes","recycling_type":"container"}},"type":"Feature"},
	{"geometry":{"coordinates":[5.85056,48.706186],"type":"Point"},"properties":{"osm_id":"1934086216","ref":"153","tag":{"amenity":"recycling","operator":"Communaut\u00e9 de communes Terres Touloises","operator:type":"public","recycling:glass_bottles":"yes","recycling_type":"container"}},"type":"Feature"},
	{"geometry":{"coordinates":[5.832203,48.719428],"type":"Point"},"properties":{"osm_id":"2020283660","ref":"155","tag":{"amenity":"recycling","operator":"Communaut\u00e9 de communes Terres Touloises","operator:type":"public","recycling:cans":"yes","recycling:cardboard":"yes","recycling:paper":"yes","recycling:plastic_bottles":"yes","recycling_type":"container"}},"type":"Feature"},
	{"geometry":{"coordinates":[5.832227,48.719437],"type":"Point"},"properties":{"osm_id":"2020283664","ref":"155","tag":{"amenity":"recycling","operator":"Communaut\u00e9 de communes Terres Touloises","operator:type":"public","recycling:cans":"yes","recycling:cardboard":"yes","recycling:paper":"yes","recycling:plastic_bottles":"yes","recycling_type":"container"}},"type":"Feature"},
	{"geometry":{"coordinates":[5.832252,48.719446],"type":"Point"},"properties":{"osm_id":"2020283669","ref":"155","tag":{"amenity":"recycling","operator":"Communaut\u00e9 de communes Terres Touloises","recycling:glass_bottles":"yes","recycling_type":"container"}},"type":"Feature"},
	{"geometry":{"coordinates":[5.832274,48.719454],"type":"Point"},"properties":{"osm_id":"2020283673","ref":"155","tag":{"amenity":"recycling","operator":"Communaut\u00e9 de communes Terres Touloises","recycling:glass_bottles":"yes","recycling_type":"container"}},"type":"Feature"},
	{"geometry":{"coordinates":[5.880331,48.740039],"type":"Point"},"properties":{"osm_id":"2296119856","ref":"177","tag":{"amenity":"recycling","operator":"Communaut\u00e9 de communes Terres Touloises","recycling:glass_bottles":"yes","recycling_type":"container"}},"type":"Feature"},
	{"geometry":{"coordinates":[5.880331,48.740066],"type":"Point"},"properties":{"osm_id":"2296119862","ref":"177","tag":{"amenity":"recycling","operator":"Communaut\u00e9 de communes Terres Touloises","operator:type":"public","recycling:cans":"yes","recycling:cardboard":"yes","recycling:paper":"yes","recycling:plastic_bottles":"yes","recycling_type":"container"}},"type":"Feature"},
	{"geometry":{"coordinates":[5.880331,48.74009],"type":"Point"},"properties":{"osm_id":"2296119870","ref":"177","tag":{"amenity":"recycling","operator":"Communaut\u00e9 de communes Terres Touloises","operator:type":"public","recycling:cans":"yes","recycling:cardboard":"yes","recycling:paper":"yes","recycling:plastic_bottles":"yes","recycling_type":"container"}},"type":"Feature"},
	{"geometry":{"coordinates":[5.880643,48.741202],"type":"Point"},"properties":{"osm_id":"2296119893","tag":{"amenity":"waste_basket"}},"type":"Feature"},
	{"geometry":{"coordinates":[5.846655,48.694759],"type":"Point"},"properties":{"osm_id":"2472357473","ref":"151","tag":{"amenity":"recycling","operator":"Communaut\u00e9 de communes Terres Touloises","recycling:glass_bottles":"yes","recycling_type":"container"}},"type":"Feature"},
	{"geometry":{"coordinates":[5.846621,48.694761],"type":"Point"},"properties":{"osm_id":"2472357474","ref":"151","tag":{"amenity":"recycling","operator":"Communaut\u00e9 de communes Terres Touloises","recycling:cans":"yes","recycling:cardboard":"yes","recycling:paper":"yes","recycling:plastic_bottles":"yes","recycling_type":"container"}},"type":"Feature"},
	{"geometry":{"coordinates":[5.846588,48.694763],"type":"Point"},"properties":{"osm_id":"2472357475","ref":"151","tag":{"amenity":"recycling","operator":"Communaut\u00e9 de communes Terres Touloises","recycling:cans":"yes","recycling:cardboard":"yes","recycling:paper":"yes","recycling:plastic_bottles":"yes","recycling_type":"container"}},"type":"Feature"},
	{"geometry":{"coordinates":[5.832954,48.73389],"type":"Point"},"properties":{"osm_id":"2711263666","ref":"175","tag":{"amenity":"recycling","operator":"Communaut\u00e9 de communes Terres Touloises","recycling:glass_bottles":"yes","recycling_type":"container"}},"type":"Feature"},
	{"geometry":{"coordinates":[5.832961,48.73391],"type":"Point"},"properties":{"osm_id":"2711263668","ref":"175","tag":{"amenity":"recycling","operator":"Communaut\u00e9 de communes Terres Touloises","operator:type":"public","recycling:cans":"yes","recycling:cardboard":"yes","recycling:paper":"yes","recycling:plastic_bottles":"yes","recycling_type":"container"}},"type":"Feature"},
	{"geometry":{"coordinates":[5.832966,48.733931],"type":"Point"},"properties":{"osm_id":"2711263669","ref":"175","tag":{"amenity":"recycling","operator":"Communaut\u00e9 de communes Terres Touloises","operator:type":"public","recycling:cans":"yes","recycling:cardboard":"yes","recycling:paper":"yes","recycling:plastic_bottles":"yes","recycling_type":"container"}},"type":"Feature"},
	{"geometry":{"coordinates":[5.846561,48.694765],"type":"Point"},"properties":{"osm_id":"5405799965","tag":{"amenity":"recycling","operator":"Le Relais","recycling:clothes":"yes","recycling:shoes":"yes","recycling_type":"container"}},"type":"Feature"},
	{"geometry":{"coordinates":[5.844528,48.724128],"type":"Point"},"properties":{"osm_id":"5536317547","tag":{"amenity":"recycling","operator":"Le Relais","recycling:clothes":"yes","recycling:shoes":"yes","recycling_type":"container"}},"type":"Feature"},
	{"geometry":{"coordinates":[5.843972,48.72334],"type":"Point"},"properties":{"osm_id":"5758566602","ref":"154","tag":{"amenity":"recycling","operator":"Communaut\u00e9 de communes Terres Touloises","recycling:glass_bottles":"yes","recycling_type":"container"}},"type":"Feature"},
	{"geometry":{"coordinates":[5.843957,48.723353],"type":"Point"},"properties":{"osm_id":"5758566603","ref":"154","tag":{"amenity":"recycling","operator":"Communaut\u00e9 de communes Terres Touloises","operator:type":"public","recycling:cans":"yes","recycling:cardboard":"yes","recycling:paper":"yes","recycling:plastic_bottles":"yes","recycling_type":"container"}},"type":"Feature"},
	{"geometry":{"coordinates":[5.84394,48.723369],"type":"Point"},"properties":{"osm_id":"5758566604","ref":"154","tag":{"amenity":"recycling","operator":"Communaut\u00e9 de communes Terres Touloises","operator:type":"public","recycling:cans":"yes","recycling:cardboard":"yes","recycling:paper":"yes","recycling:plastic_bottles":"yes","recycling_type":"container"}},"type":"Feature"},
	{"geometry":{"coordinates":[5.804598,48.70769],"type":"Point"},"properties":{"osm_id":"5784898770","ref":"156","tag":{"amenity":"recycling","operator":"Communaut\u00e9 de communes Terres Touloises","operator:type":"public","recycling:glass_bottles":"yes","recycling_type":"container"}},"type":"Feature"},
	{"geometry":{"coordinates":[5.804591,48.707711],"type":"Point"},"properties":{"osm_id":"5784898771","ref":"156","tag":{"amenity":"recycling","operator":"Communaut\u00e9 de communes Terres Touloises","operator:type":"public","recycling:cans":"yes","recycling:cardboard":"yes","recycling:paper":"yes","recycling:plastic_bottles":"yes","recycling_type":"container"}},"type":"Feature"},
	{"geometry":{"coordinates":[5.804607,48.707666],"type":"Point"},"properties":{"osm_id":"5784898772","ref":"156","tag":{"amenity":"recycling","operator":"Communaut\u00e9 de communes Terres Touloises","operator:type":"public","recycling:cans":"yes","recycling:cardboard":"yes","recycling:paper":"yes","recycling:plastic_bottles":"yes","recycling_type":"container"}},"type":"Feature"},
	{"geometry":{"coordinates":[5.855917,48.706404],"type":"Point"},"properties":{"osm_id":"5882826550","tag":{"amenity":"recycling","operator":"Le Relais","recycling:clothes":"yes","recycling:shoes":"yes","recycling_type":"container"}},"type":"Feature"},
	{"geometry":{"coordinates":[5.882191,48.741619],"type":"Point"},"properties":{"osm_id":"6333169442","tag":{"amenity":"recycling","recycling:garden_waste":"yes","recycling:green_waste":"yes","recycling:organic":"yes","recycling_type":"container"}},"type":"Feature"},
	{"geometry":{"coordinates":[5.887858,48.703587],"type":"Point"},"properties":{"osm_id":"7054538597","tag":{"amenity":"recycling","operator":"Le Relais","operator:type":"public","recycling:clothes":"yes","recycling:shoes":"yes","recycling_type":"container"}},"type":"Feature"},
	{"geometry":{"coordinates":[5.858142,48.706675],"type":"Point"},"properties":{"osm_id":"7061632451","ref":"152","tag":{"amenity":"recycling","operator":"Communaut\u00e9 de communes Terres Touloises","operator:type":"public","recycling:cans":"yes","recycling:cardboard":"yes","recycling:paper":"yes","recycling:plastic_bottles":"yes","recycling_type":"container"}},"type":"Feature"},
	{"geometry":{"coordinates":[5.858167,48.706677],"type":"Point"},"properties":{"osm_id":"7061632452","ref":"152","tag":{"amenity":"recycling","operator":"Communaut\u00e9 de communes Terres Touloises","recycling:glass_bottles":"yes","recycling_type":"container"}},"type":"Feature"},
	{"geometry":{"coordinates":[5.858153,48.706699],"type":"Point"},"properties":{"osm_id":"7061632453","ref":"152","tag":{"amenity":"recycling","operator":"Communaut\u00e9 de communes Terres Touloises","operator:type":"public","recycling:cans":"yes","recycling:cardboard":"yes","recycling:paper":"yes","recycling:plastic_bottles":"yes","recycling_type":"container"}},"type":"Feature"},
	{"geometry":{"coordinates":[5.805176,48.707186],"type":"Point"},"properties":{"osm_id":"7159098239","tag":{"amenity":"waste_basket"}},"type":"Feature"},
	{"geometry":{"coordinates":[5.804501,48.707967],"type":"Point"},"properties":{"osm_id":"7159098257","tag":{"amenity":"recycling","recycling:green_waste":"yes","recycling_type":"container"}},"type":"Feature"}
]
}
