{
"type": "FeatureCollection",
"features": [
	{"geometry":{"coordinates":[5.885147,48.683164],"type":"Point"},"properties":{"osm_id":"1139606206","tag":{"amenity":"recycling"}},"type":"Feature"},
	{"geometry":{"coordinates":[5.886008,48.674186],"type":"Point"},"properties":{"osm_id":"1153102062","ref":"2","tag":{"amenity":"waste_disposal","operator":"Communaut\u00c3\u00a9 de communes Terres Touloises","operator:type":"public","waste":"trash"}},"type":"Feature"},
	{"geometry":{"coordinates":[5.88398,48.668446],"type":"Point"},"properties":{"osm_id":"1283216317","ref":"98","tag":{"amenity":"recycling","operator":"Communaut\u00c3\u00a9 de communes Terres Touloises","recycling:glass_bottles":"yes","recycling_type":"container"}},"type":"Feature"},
	{"geometry":{"coordinates":[5.887683,48.664966],"type":"Point"},"properties":{"osm_id":"1283975279","ref":"220","tag":{"amenity":"recycling","operator":"Communaut\u00c3\u00a9 de communes Terres Touloises","operator:type":"public","recycling:cans":"yes","recycling:cardboard":"yes","recycling:paper":"yes","recycling:plastic_bottles":"yes","recycling_type":"container"}},"type":"Feature"},
	{"geometry":{"coordinates":[5.881951,48.678346],"type":"Point"},"properties":{"osm_id":"1335998236","ref":"233","tag":{"amenity":"recycling","operator":"Communaut\u00c3\u00a9 de communes Terres Touloises","operator:type":"public","recycling:glass_bottles":"yes","recycling_type":"container"}},"type":"Feature"},
	{"geometry":{"coordinates":[5.869936,48.683994],"type":"Point"},"properties":{"osm_id":"1339567697","ref":"210","tag":{"amenity":"recycling","operator":"Communaut\u00c3\u00a9 de communes Terres Touloises","recycling:glass_bottles":"yes","recycling_type":"container"}},"type":"Feature"},
	{"geometry":{"coordinates":[5.835799,48.683566],"type":"Point"},"properties":{"osm_id":"1451084322","tag":{"amenity":"waste_basket"}},"type":"Feature"},
	{"geometry":{"coordinates":[5.879521,48.664713],"type":"Point"},"properties":{"osm_id":"1481656974","ref":"224","tag":{"amenity":"recycling","operator":"Communaut\u00c3\u00a9 de communes Terres Touloises","recycling:cans":"yes","recycling:cardboard":"yes","recycling:plastic_bottles":"yes","recycling_type":"container"}},"type":"Feature"},
	{"geometry":{"coordinates":[5.887514,48.687573],"type":"Point"},"properties":{"osm_id":"1501649107","ref":"65","tag":{"amenity":"recycling","operator":"Communaut\u00c3\u00a9 de communes Terres Touloises","operator:type":"public","recycling:cans":"yes","recycling:cardboard":"yes","recycling:paper":"yes","recycling:plastic_bottles":"yes","recycling_type":"container"}},"type":"Feature"},
	{"geometry":{"coordinates":[5.880697,48.675979],"type":"Point"},"properties":{"osm_id":"1503156069","ref":"232","tag":{"amenity":"recycling","operator":"Communaut\u00c3\u00a9 de communes Terres Touloises","operator:type":"public","recycling:glass_bottles":"yes","recycling_type":"container"}},"type":"Feature"},
	{"geometry":{"coordinates":[5.816049,48.663391],"type":"Point"},"properties":{"osm_id":"1589999365","ref":"188","tag":{"amenity":"recycling","operator":"Communaut\u00c3\u00a9 de communes Terres Touloises","operator:type":"public","recycling:cans":"yes","recycling:cardboard":"yes","recycling:paper":"yes","recycling:plastic_bottles":"yes","recycling_type":"container"}},"type":"Feature"},
	{"geometry":{"coordinates":[5.867905,48.669943],"type":"Point"},"properties":{"osm_id":"1590000163","ref":"213","tag":{"amenity":"recycling","operator":"Communaut\u00c3\u00a9 de communes Terres Touloises","operator:type":"public","recycling:cans":"yes","recycling:cardboard":"yes","recycling:paper":"yes","recycling:plastic_bottles":"yes","recycling_type":"container"}},"type":"Feature"},
	{"geometry":{"coordinates":[5.867874,48.669938],"type":"Point"},"properties":{"osm_id":"1590000179","ref":"213","tag":{"amenity":"recycling","operator":"Communaut\u00c3\u00a9 de communes Terres Touloises","operator:type":"public","recycling:glass_bottles":"yes","recycling_type":"container"}},"type":"Feature"},
	{"geometry":{"coordinates":[5.867856,48.669995],"type":"Point"},"properties":{"osm_id":"1590000182","tag":{"amenity":"recycling","operator":"Le Relais","recycling:clothes":"yes","recycling:shoes":"yes","recycling_type":"container"}},"type":"Feature"},
	{"geometry":{"coordinates":[5.850985,48.662546],"type":"Point"},"properties":{"osm_id":"1609329153","ref":"190","tag":{"amenity":"recycling","operator":"Communaut\u00c3\u00a9 de communes Terres Touloises","operator:type":"public","recycling:cans":"yes","recycling:cardboard":"yes","recycling:paper":"yes","recycling:plastic_bottles":"yes","recycling_type":"container"}},"type":"Feature"},
	{"geometry":{"coordinates":[5.851028,48.662551],"type":"Point"},"properties":{"osm_id":"1609329157","ref":"190","tag":{"amenity":"recycling","operator":"Communaut\u00c3\u00a9 de communes Terres Touloises","operator:type":"public","recycling:cans":"yes","recycling:cardboard":"yes","recycling:paper":"yes","recycling:plastic_bottles":"yes","recycling_type":"container"}},"type":"Feature"},
	{"geometry":{"coordinates":[5.851077,48.662557],"type":"Point"},"properties":{"osm_id":"1609329159","ref":"190","tag":{"amenity":"recycling","operator":"Communaut\u00c3\u00a9 de communes Terres Touloises","operator:type":"public","recycling:glass_bottles":"yes","recycling_type":"container"}},"type":"Feature"},
	{"geometry":{"coordinates":[5.815947,48.663365],"type":"Point"},"properties":{"osm_id":"1893874055","ref":"188","tag":{"amenity":"recycling","operator":"Communaut\u00c3\u00a9 de communes Terres Touloises","operator:type":"public","recycling:glass_bottles":"yes","recycling_type":"container"}},"type":"Feature"},
	{"geometry":{"coordinates":[5.815983,48.663374],"type":"Point"},"properties":{"osm_id":"1893874056","ref":"188","tag":{"amenity":"recycling","operator":"Communaut\u00c3\u00a9 de communes Terres Touloises","operator:type":"public","recycling:cans":"yes","recycling:cardboard":"yes","recycling:paper":"yes","recycling:plastic_bottles":"yes","recycling_type":"container"}},"type":"Feature"},
	{"geometry":{"coordinates":[5.816016,48.663382],"type":"Point"},"properties":{"osm_id":"1893874057","ref":"188","tag":{"amenity":"recycling","operator":"Communaut\u00c3\u00a9 de communes Terres Touloises","operator:type":"public","recycling:cans":"yes","recycling:cardboard":"yes","recycling:paper":"yes","recycling:plastic_bottles":"yes","recycling_type":"container"}},"type":"Feature"},
	{"geometry":{"coordinates":[5.85171,48.690591],"type":"Point"},"properties":{"osm_id":"1929557322","ref":"150","tag":{"amenity":"recycling","operator":"Communaut\u00c3\u00a9 de communes Terres Touloises","recycling:glass_bottles":"yes","recycling_type":"container"}},"type":"Feature"},
	{"geometry":{"coordinates":[5.851678,48.690601],"type":"Point"},"properties":{"osm_id":"1929557337","ref":"150","tag":{"amenity":"recycling","operator":"Communaut\u00c3\u00a9 de communes Terres Touloises","operator:type":"public","recycling:cans":"yes","recycling:cardboard":"yes","recycling:paper":"yes","recycling:plastic_bottles":"yes","recycling_type":"container"}},"type":"Feature"},
	{"geometry":{"coordinates":[5.851651,48.690609],"type":"Point"},"properties":{"osm_id":"1929557344","ref":"150","tag":{"amenity":"recycling","operator":"Communaut\u00c3\u00a9 de communes Terres Touloises","operator:type":"public","recycling:cans":"yes","recycling:cardboard":"yes","recycling:paper":"yes","recycling:plastic_bottles":"yes","recycling_type":"container"}},"type":"Feature"},
	{"geometry":{"coordinates":[5.840008,48.681144],"type":"Point"},"properties":{"osm_id":"2007236947","ref":"207","tag":{"amenity":"recycling","operator":"Communaut\u00c3\u00a9 de communes Terres Touloises","operator:type":"public","recycling:glass_bottles":"yes","recycling_type":"container"}},"type":"Feature"},
	{"geometry":{"coordinates":[5.840038,48.681155],"type":"Point"},"properties":{"osm_id":"2007236948","ref":"207","tag":{"amenity":"recycling","operator":"Communaut\u00c3\u00a9 de communes Terres Touloises","operator:type":"public","recycling:cans":"yes","recycling:cardboard":"yes","recycling:paper":"yes","recycling:plastic_bottles":"yes","recycling_type":"container"}},"type":"Feature"},
	{"geometry":{"coordinates":[5.840067,48.681166],"type":"Point"},"properties":{"osm_id":"2007236949","ref":"207","tag":{"amenity":"recycling","operator":"Communaut\u00c3\u00a9 de communes Terres Touloises","operator:type":"public","recycling:cans":"yes","recycling:cardboard":"yes","recycling:paper":"yes","recycling:plastic_bottles":"yes","recycling_type":"container"}},"type":"Feature"},
	{"geometry":{"coordinates":[5.84488,48.680776],"type":"Point"},"properties":{"osm_id":"2008598014","ref":"208","tag":{"amenity":"recycling","operator":"Le Relais","recycling:clothes":"yes","recycling:shoes":"yes","recycling_type":"container"}},"type":"Feature"},
	{"geometry":{"coordinates":[5.844858,48.680788],"type":"Point"},"properties":{"osm_id":"2008598019","ref":"208","tag":{"amenity":"recycling","operator":"Communaut\u00c3\u00a9 de communes Terres Touloises","operator:type":"public","recycling:cans":"yes","recycling:cardboard":"yes","recycling:paper":"yes","recycling:plastic_bottles":"yes","recycling_type":"container"}},"type":"Feature"},
	{"geometry":{"coordinates":[5.844832,48.680802],"type":"Point"},"properties":{"osm_id":"2008598028","ref":"208","tag":{"amenity":"recycling","operator":"Communaut\u00c3\u00a9 de communes Terres Touloises","operator:type":"public","recycling:glass_bottles":"yes","recycling_type":"container"}},"type":"Feature"},
	{"geometry":{"coordinates":[5.844806,48.680816],"type":"Point"},"properties":{"osm_id":"2008598037","ref":"208","tag":{"amenity":"recycling","operator":"Communaut\u00c3\u00a9 de communes Terres Touloises","operator:type":"public","recycling:cans":"yes","recycling:cardboard":"yes","recycling:paper":"yes","recycling:plastic_bottles":"yes","recycling_type":"container"}},"type":"Feature"},
	{"geometry":{"coordinates":[5.871521,48.68099],"type":"Point"},"properties":{"osm_id":"2030964667","tag":{"amenity":"waste_basket"}},"type":"Feature"},
	{"geometry":{"coordinates":[5.871494,48.68122],"type":"Point"},"properties":{"osm_id":"2030964700","tag":{"amenity":"waste_basket"}},"type":"Feature"},
	{"geometry":{"coordinates":[5.869973,48.683999],"type":"Point"},"properties":{"osm_id":"2032826704","ref":"210","tag":{"amenity":"recycling","operator":"Communaut\u00c3\u00a9 de communes Terres Touloises","operator:type":"public","recycling:cans":"yes","recycling:cardboard":"yes","recycling:paper":"yes","recycling:plastic_bottles":"yes","recycling_type":"container"}},"type":"Feature"},
	{"geometry":{"coordinates":[5.870006,48.684003],"type":"Point"},"properties":{"osm_id":"2032826707","ref":"210","tag":{"amenity":"recycling","operator":"Communaut\u00c3\u00a9 de communes Terres Touloises","operator:type":"public","recycling:cans":"yes","recycling:cardboard":"yes","recycling:paper":"yes","recycling:plastic_bottles":"yes","recycling_type":"container"}},"type":"Feature"},
	{"geometry":{"coordinates":[5.870037,48.684008],"type":"Point"},"properties":{"osm_id":"2032826709","ref":"210","tag":{"amenity":"recycling","operator":"Communaut\u00c3\u00a9 de communes Terres Touloises","recycling:glass_bottles":"yes","recycling_type":"container"}},"type":"Feature"},
	{"geometry":{"coordinates":[5.870075,48.684013],"type":"Point"},"properties":{"osm_id":"2032826715","ref":"210","tag":{"amenity":"recycling","operator":"Communaut\u00c3\u00a9 de communes Terres Touloises","operator:type":"public","recycling:cans":"yes","recycling:cardboard":"yes","recycling:paper":"yes","recycling:plastic_bottles":"yes","recycling_type":"container"}},"type":"Feature"},
	{"geometry":{"coordinates":[5.869906,48.683989],"type":"Point"},"properties":{"osm_id":"2032826720","tag":{"amenity":"recycling","operator":"Le Relais","recycling:clothes":"yes","recycling_type":"container"}},"type":"Feature"},
	{"geometry":{"coordinates":[5.88865,48.6756],"type":"Point"},"properties":{"osm_id":"2048586405","ref":"22","tag":{"amenity":"recycling","operator":"Communaut\u00c3\u00a9 de communes Terres Touloises","operator:type":"public","recycling:cans":"yes","recycling:cardboard":"yes","recycling:paper":"yes","recycling:plastic_bottles":"yes","recycling_type":"container"}},"type":"Feature"},
	{"geometry":{"coordinates":[5.830463,48.648801],"type":"Point"},"properties":{"osm_id":"2092825823","tag":{"amenity":"waste_basket"}},"type":"Feature"},
	{"geometry":{"coordinates":[5.823342,48.662803],"type":"Point"},"properties":{"osm_id":"2095582025","tag":{"amenity":"waste_basket"}},"type":"Feature"},
	{"geometry":{"coordinates":[5.866676,48.684058],"type":"Point"},"properties":{"osm_id":"2121072550","tag":{"amenity":"waste_basket"}},"type":"Feature"},
	{"geometry":{"coordinates":[5.888059,48.674587],"type":"Point"},"properties":{"osm_id":"2148810823","ref":"24","tag":{"amenity":"waste_disposal","operator":"Communaut\u00c3\u00a9 de Communes du Toulois","waste":"trash"}},"type":"Feature"},
	{"geometry":{"coordinates":[5.888628,48.675603],"type":"Point"},"properties":{"osm_id":"2169444461","ref":"22","tag":{"amenity":"waste_disposal","operator":"Communaut\u00c3\u00a9 de communes Terres Touloises","waste":"trash"}},"type":"Feature"},
	{"geometry":{"coordinates":[5.88861,48.675606],"type":"Point"},"properties":{"osm_id":"2169444463","ref":"22","tag":{"amenity":"recycling","operator":"Communaut\u00c3\u00a9 de communes Terres Touloises","operator:type":"public","recycling:cans":"yes","recycling:cardboard":"yes","recycling:paper":"yes","recycling:plastic_bottles":"yes","recycling_type":"container"}},"type":"Feature"},
	{"geometry":{"coordinates":[5.888653,48.675614],"type":"Point"},"properties":{"osm_id":"2169444464","ref":"22","tag":{"amenity":"recycling","operator":"Communaut\u00c3\u00a9 de communes Terres Touloises","recycling:glass_bottles":"yes","recycling_type":"container"}},"type":"Feature"},
	{"geometry":{"coordinates":[5.888632,48.675617],"type":"Point"},"properties":{"osm_id":"2169444465","ref":"22","tag":{"amenity":"waste_disposal","operator":"Communaut\u00c3\u00a9 de Communes du Toulois","waste":"trash"}},"type":"Feature"},
	{"geometry":{"coordinates":[5.8878,48.672779],"type":"Point"},"properties":{"osm_id":"2286088643","ref":"4","tag":{"amenity":"waste_disposal","operator":"Communaut\u00c3\u00a9 de Communes Terres Touloises","waste":"trash"}},"type":"Feature"},
	{"geometry":{"coordinates":[5.887857,48.672873],"type":"Point"},"properties":{"osm_id":"2286088646","tag":{"amenity":"waste_basket"}},"type":"Feature"},
	{"geometry":{"coordinates":[5.885849,48.673643],"type":"Point"},"properties":{"osm_id":"2286088650","ref":"1","tag":{"amenity":"recycling","operator":"Communaut\u00c3\u00a9 de Communes Terres Touloises","operator:type":"public","recycling:glass_bottles":"yes","recycling_type":"container"}},"type":"Feature"},
	{"geometry":{"coordinates":[5.885835,48.673661],"type":"Point"},"properties":{"osm_id":"2286088652","ref":"1","tag":{"amenity":"recycling","operator":"Communaut\u00c3\u00a9 de communes Terres Touloises","operator:type":"public","recycling:cans":"yes","recycling:cardboard":"yes","recycling:paper":"yes","recycling:plastic_bottles":"yes","recycling_type":"container"}},"type":"Feature"},
	{"geometry":{"coordinates":[5.885822,48.673677],"type":"Point"},"properties":{"osm_id":"2286088653","ref":"1","tag":{"amenity":"recycling","operator":"Communaut\u00c3\u00a9 de communes Terres Touloises","operator:type":"public","recycling:cans":"yes","recycling:cardboard":"yes","recycling:paper":"yes","recycling:plastic_bottles":"yes","recycling_type":"container"}},"type":"Feature"},
	{"geometry":{"coordinates":[5.88581,48.673692],"type":"Point"},"properties":{"osm_id":"2286088654","ref":"1","tag":{"amenity":"waste_disposal","operator":"Communaut\u00c3\u00a9 de communes Terres Touloises","operator:type":"public","waste":"trash"}},"type":"Feature"},
	{"geometry":{"coordinates":[5.885175,48.674595],"type":"Point"},"properties":{"osm_id":"2286088663","tag":{"amenity":"waste_basket"}},"type":"Feature"},
	{"geometry":{"coordinates":[5.885064,48.674827],"type":"Point"},"properties":{"osm_id":"2286088666","tag":{"amenity":"waste_basket"}},"type":"Feature"},
	{"geometry":{"coordinates":[5.885003,48.675048],"type":"Point"},"properties":{"osm_id":"2286088671","tag":{"amenity":"waste_basket"}},"type":"Feature"},
	{"geometry":{"coordinates":[5.884778,48.675084],"type":"Point"},"properties":{"osm_id":"2286088673","tag":{"amenity":"waste_basket"}},"type":"Feature"},
	{"geometry":{"coordinates":[5.88455,48.675311],"type":"Point"},"properties":{"osm_id":"2286088676","tag":{"amenity":"waste_basket"}},"type":"Feature"},
	{"geometry":{"coordinates":[5.884446,48.675651],"type":"Point"},"properties":{"osm_id":"2286088681","tag":{"amenity":"waste_basket"}},"type":"Feature"},
	{"geometry":{"coordinates":[5.884218,48.67572],"type":"Point"},"properties":{"osm_id":"2286088684","ref":"38","tag":{"amenity":"waste_disposal","operator":"Communaut\u00c3\u00a9 de communes Terres Touloises","waste":"trash"}},"type":"Feature"},
	{"geometry":{"coordinates":[5.884217,48.675741],"type":"Point"},"properties":{"osm_id":"2286088685","ref":"38","tag":{"amenity":"waste_disposal","operator":"Communaut\u00c3\u00a9 de communes Terres Touloises","waste":"trash"}},"type":"Feature"},
	{"geometry":{"coordinates":[5.884216,48.675757],"type":"Point"},"properties":{"osm_id":"2286088686","ref":"38","tag":{"amenity":"recycling","operator":"Communaut\u00c3\u00a9 de communes Terres Touloises","operator:type":"public","recycling:glass_bottles":"yes","recycling_type":"container"}},"type":"Feature"},
	{"geometry":{"coordinates":[5.884215,48.675777],"type":"Point"},"properties":{"osm_id":"2286088687","ref":"38","tag":{"amenity":"recycling","operator":"Communaut\u00c3\u00a9 de communes Terres Touloises","operator:type":"public","recycling:cans":"yes","recycling:cardboard":"yes","recycling:paper":"yes","recycling:plastic_bottles":"yes","recycling_type":"container"}},"type":"Feature"},
	{"geometry":{"coordinates":[5.883293,48.676804],"type":"Point"},"properties":{"osm_id":"2286088693","ref":"39","tag":{"amenity":"waste_disposal","operator":"Communaut\u00c3\u00a9 de Communes Terres Touloises","waste":"trash"}},"type":"Feature"},
	{"geometry":{"coordinates":[5.883277,48.676824],"type":"Point"},"properties":{"osm_id":"2286088695","ref":"39","tag":{"amenity":"recycling","operator":"Communaut\u00c3\u00a9 de communes Terres Touloises","operator:type":"public","recycling:glass_bottles":"yes","recycling_type":"container"}},"type":"Feature"},
	{"geometry":{"coordinates":[5.888287,48.672173],"type":"Point"},"properties":{"osm_id":"2287145583","tag":{"amenity":"waste_basket"}},"type":"Feature"},
	{"geometry":{"coordinates":[5.88842,48.672669],"type":"Point"},"properties":{"osm_id":"2287145591","tag":{"amenity":"waste_basket"}},"type":"Feature"},
	{"geometry":{"coordinates":[5.88822,48.672758],"type":"Point"},"properties":{"osm_id":"2287145594","tag":{"amenity":"waste_basket"}},"type":"Feature"},
	{"geometry":{"coordinates":[5.887606,48.673703],"type":"Point"},"properties":{"osm_id":"2287145596","ref":"3","tag":{"amenity":"waste_disposal","operator":"Communaut\u00c3\u00a9 de Communes du Toulois","waste":"trash"}},"type":"Feature"},
	{"geometry":{"coordinates":[5.887618,48.67372],"type":"Point"},"properties":{"osm_id":"2287145597","ref":"3","tag":{"amenity":"recycling","operator":"Communaut\u00c3\u00a9 de communes Terres Touloises","operator:type":"public","recycling:cans":"yes","recycling:cardboard":"yes","recycling:paper":"yes","recycling:plastic_bottles":"yes","recycling_type":"container"}},"type":"Feature"},
	{"geometry":{"coordinates":[5.887585,48.673722],"type":"Point"},"properties":{"osm_id":"2287145598","ref":"3","tag":{"amenity":"recycling","operator":"Communaut\u00c3\u00a9 de communes Terres Touloises","operator:type":"public","recycling:glass_bottles":"yes","recycling_type":"container"}},"type":"Feature"},
	{"geometry":{"coordinates":[5.887758,48.673779],"type":"Point"},"properties":{"osm_id":"2287145601","tag":{"amenity":"waste_basket"}},"type":"Feature"},
	{"geometry":{"coordinates":[5.884438,48.675821],"type":"Point"},"properties":{"osm_id":"2287145615","tag":{"amenity":"waste_basket"}},"type":"Feature"},
	{"geometry":{"coordinates":[5.884126,48.677202],"type":"Point"},"properties":{"osm_id":"2287145624","tag":{"amenity":"waste_basket"}},"type":"Feature"},
	{"geometry":{"coordinates":[5.884747,48.677398],"type":"Point"},"properties":{"osm_id":"2287145629","tag":{"amenity":"waste_basket"}},"type":"Feature"},
	{"geometry":{"coordinates":[5.886813,48.676203],"type":"Point"},"properties":{"osm_id":"2304180694","ref":"37","tag":{"amenity":"waste_disposal","operator":"Communaut\u00c3\u00a9 de Communes Terres Touloises","waste":"trash"}},"type":"Feature"},
	{"geometry":{"coordinates":[5.886826,48.676219],"type":"Point"},"properties":{"osm_id":"2304180695","ref":"37","tag":{"amenity":"recycling","operator":"Communaut\u00c3\u00a9 de communes Terres Touloises","operator:type":"public","recycling:cans":"yes","recycling:cardboard":"yes","recycling:paper":"yes","recycling:plastic_bottles":"yes","recycling_type":"container"}},"type":"Feature"},
	{"geometry":{"coordinates":[5.88684,48.676235],"type":"Point"},"properties":{"osm_id":"2304180696","ref":"37","tag":{"amenity":"recycling","operator":"Communaut\u00c3\u00a9 de communes Terres Touloises","operator:type":"public","recycling:glass_bottles":"yes","recycling_type":"container"}},"type":"Feature"},
	{"geometry":{"coordinates":[5.874431,48.673296],"type":"Point"},"properties":{"osm_id":"2305591546","ref":"111","tag":{"amenity":"waste_disposal","operator":"Communaut\u00c3\u00a9 de communes Terres Touloises","waste":"trash"}},"type":"Feature"},
	{"geometry":{"coordinates":[5.872873,48.673955],"type":"Point"},"properties":{"osm_id":"2305591558","tag":{"amenity":"recycling","operator":"Le Relais","recycling:clothes":"yes","recycling:shoes":"yes","recycling_type":"container"}},"type":"Feature"},
	{"geometry":{"coordinates":[5.872901,48.673949],"type":"Point"},"properties":{"osm_id":"2305591560","ref":"212","tag":{"amenity":"recycling","operator":"Communaut\u00c3\u00a9 de communes Terres Touloises","operator:type":"public","recycling:cans":"yes","recycling:cardboard":"yes","recycling:paper":"yes","recycling:plastic_bottles":"yes","recycling_type":"container"}},"type":"Feature"},
	{"geometry":{"coordinates":[5.872931,48.673944],"type":"Point"},"properties":{"osm_id":"2305591561","ref":"212","tag":{"amenity":"recycling","operator":"Communaut\u00c3\u00a9 de communes Terres Touloises","operator:type":"public","recycling:cans":"yes","recycling:cardboard":"yes","recycling:paper":"yes","recycling:plastic_bottles":"yes","recycling_type":"container"}},"type":"Feature"},
	{"geometry":{"coordinates":[5.872963,48.67394],"type":"Point"},"properties":{"osm_id":"2305591562","ref":"212","tag":{"amenity":"recycling","operator":"Communaut\u00c3\u00a9 de communes Terres Touloises","operator:type":"public","recycling:glass_bottles":"yes","recycling_type":"container"}},"type":"Feature"},
	{"geometry":{"coordinates":[5.887586,48.675494],"type":"Point"},"properties":{"osm_id":"2317581316","ref":"23","tag":{"amenity":"waste_disposal","operator":"Communaut\u00c3\u00a9 de Communes du Toulois","waste":"trash"}},"type":"Feature"},
	{"geometry":{"coordinates":[5.886026,48.674304],"type":"Point"},"properties":{"osm_id":"2319754287","tag":{"amenity":"waste_basket"}},"type":"Feature"},
	{"geometry":{"coordinates":[5.886298,48.674526],"type":"Point"},"properties":{"osm_id":"2319754294","tag":{"amenity":"waste_basket"}},"type":"Feature"},
	{"geometry":{"coordinates":[5.888656,48.67582],"type":"Point"},"properties":{"osm_id":"2319754344","tag":{"amenity":"waste_basket"}},"type":"Feature"},
	{"geometry":{"coordinates":[5.881857,48.667857],"type":"Point"},"properties":{"osm_id":"2522474349","ref":"99","tag":{"amenity":"waste_disposal","operator":"Communaut\u00c3\u00a9 de Communes Terres Touloises","waste":"trash"}},"type":"Feature"},
	{"geometry":{"coordinates":[5.883957,48.668408],"type":"Point"},"properties":{"osm_id":"2524218182","ref":"98","tag":{"amenity":"waste_disposal","operator":"Communaut\u00c3\u00a9 de communes Terres Touloises","waste":"trash"}},"type":"Feature"},
	{"geometry":{"coordinates":[5.883968,48.668427],"type":"Point"},"properties":{"osm_id":"2524218183","ref":"98","tag":{"amenity":"recycling","operator":"Communaut\u00c3\u00a9 de communes Terres Touloises","operator:type":"public","recycling:cans":"yes","recycling:cardboard":"yes","recycling:paper":"yes","recycling:plastic_bottles":"yes","recycling_type":"container"}},"type":"Feature"},
	{"geometry":{"coordinates":[5.888479,48.680287],"type":"Point"},"properties":{"osm_id":"2682235156","ref":"115","tag":{"amenity":"recycling","operator":"Communaut\u00c3\u00a9 de communes Terres Touloises","recycling:glass_bottles":"yes","recycling_type":"container"}},"type":"Feature"},
	{"geometry":{"coordinates":[5.888501,48.680296],"type":"Point"},"properties":{"osm_id":"2682235159","ref":"115","tag":{"amenity":"recycling","operator":"Communaut\u00c3\u00a9 de communes Terres Touloises","operator:type":"public","recycling:cans":"yes","recycling:cardboard":"yes","recycling:paper":"yes","recycling:plastic_bottles":"yes","recycling_type":"container"}},"type":"Feature"},
	{"geometry":{"coordinates":[5.888525,48.680304],"type":"Point"},"properties":{"osm_id":"2682235162","ref":"115","tag":{"amenity":"waste_disposal","operator":"Communaut\u00c3\u00a9 de Communes Terres Touloises","waste":"trash"}},"type":"Feature"},
	{"geometry":{"coordinates":[5.884506,48.677218],"type":"Point"},"properties":{"osm_id":"2790783472","tag":{"amenity":"waste_basket"}},"type":"Feature"},
	{"geometry":{"coordinates":[5.884732,48.677262],"type":"Point"},"properties":{"osm_id":"2790783478","tag":{"amenity":"waste_basket"}},"type":"Feature"},
	{"geometry":{"coordinates":[5.884294,48.677288],"type":"Point"},"properties":{"osm_id":"2790783480","tag":{"amenity":"waste_basket"}},"type":"Feature"},
	{"geometry":{"coordinates":[5.887971,48.682165],"type":"Point"},"properties":{"osm_id":"2974967508","tag":{"amenity":"waste_basket"}},"type":"Feature"},
	{"geometry":{"coordinates":[5.878346,48.68352],"type":"Point"},"properties":{"osm_id":"2974967513","tag":{"amenity":"waste_basket"}},"type":"Feature"},
	{"geometry":{"coordinates":[5.880684,48.684915],"type":"Point"},"properties":{"osm_id":"2974967521","tag":{"amenity":"waste_basket"}},"type":"Feature"},
	{"geometry":{"coordinates":[5.88771,48.664926],"type":"Point"},"properties":{"osm_id":"3659393005","ref":"220","tag":{"amenity":"recycling","operator":"Communaut\u00c3\u00a9 de communes Terres Touloises","operator:type":"public","recycling:glass_bottles":"yes","recycling_type":"container"}},"type":"Feature"},
	{"geometry":{"coordinates":[5.887669,48.664993],"type":"Point"},"properties":{"osm_id":"3659393006","ref":"72053","tag":{"amenity":"recycling","operator":"Le Relais","recycling:clothes":"yes","recycling:shoes":"yes","recycling_type":"container"}},"type":"Feature"},
	{"geometry":{"coordinates":[5.874409,48.66348],"type":"Point"},"properties":{"osm_id":"4300856431","ref":"107","tag":{"amenity":"waste_disposal","operator":"Communaut\u00c3\u00a9 de communes Terres Touloises","waste":"trash"}},"type":"Feature"},
	{"geometry":{"coordinates":[5.874387,48.663633],"type":"Point"},"properties":{"osm_id":"4300856432","ref":"106","tag":{"amenity":"waste_disposal","operator":"Communaut\u00c3\u00a9 de communes Terres Touloises","waste":"trash"}},"type":"Feature"},
	{"geometry":{"coordinates":[5.873328,48.663811],"type":"Point"},"properties":{"osm_id":"4300856433","ref":"105","tag":{"amenity":"waste_disposal","operator":"Communaut\u00c3\u00a9 de communes Terres Touloises","waste":"trash"}},"type":"Feature"},
	{"geometry":{"coordinates":[5.873641,48.664432],"type":"Point"},"properties":{"osm_id":"4300856434","ref":"104","tag":{"amenity":"waste_disposal","operator":"Communaut\u00c3\u00a9 de communes Terres Touloises","waste":"trash"}},"type":"Feature"},
	{"geometry":{"coordinates":[5.875098,48.664706],"type":"Point"},"properties":{"osm_id":"4300856435","ref":"102","tag":{"amenity":"waste_disposal","operator":"Communaut\u00c3\u00a9 de communes Terres Touloises","waste":"trash"}},"type":"Feature"},
	{"geometry":{"coordinates":[5.875161,48.664862],"type":"Point"},"properties":{"osm_id":"4300856436","ref":"103","tag":{"amenity":"waste_disposal","operator":"Communaut\u00c3\u00a9 de communes Terres Touloises","waste":"trash"}},"type":"Feature"},
	{"geometry":{"coordinates":[5.874101,48.665011],"type":"Point"},"properties":{"osm_id":"4300856437","ref":"101","tag":{"amenity":"waste_disposal","operator":"Communaut\u00c3\u00a9 de communes Terres Touloises","waste":"trash"}},"type":"Feature"},
	{"geometry":{"coordinates":[5.873849,48.665264],"type":"Point"},"properties":{"osm_id":"4300856444","ref":"100","tag":{"amenity":"waste_disposal","operator":"Communaut\u00c3\u00a9 de communes Terres Touloises","waste":"trash"}},"type":"Feature"},
	{"geometry":{"coordinates":[5.876694,48.679965],"type":"Point"},"properties":{"osm_id":"4300856488","ref":"90","tag":{"amenity":"waste_disposal","operator":"Communaut\u00c3\u00a9 de communes Terres Touloises","waste":"trash"}},"type":"Feature"},
	{"geometry":{"coordinates":[5.866947,48.680444],"type":"Point"},"properties":{"osm_id":"4300857598","ref":"87","tag":{"amenity":"recycling","operator":"Communaut\u00c3\u00a9 de communes Terres Touloises","recycling:glass_bottles":"yes","recycling_type":"container"}},"type":"Feature"},
	{"geometry":{"coordinates":[5.866986,48.680451],"type":"Point"},"properties":{"osm_id":"4300857599","ref":"87","tag":{"amenity":"waste_disposal","operator":"Communaut\u00c3\u00a9 de communes Terres Touloises","waste":"trash"}},"type":"Feature"},
	{"geometry":{"coordinates":[5.866947,48.680462],"type":"Point"},"properties":{"osm_id":"4300857600","ref":"87","tag":{"amenity":"recycling","operator":"Communaut\u00c3\u00a9 de communes Terres Touloises","operator:type":"public","recycling:cans":"yes","recycling:cardboard":"yes","recycling:paper":"yes","recycling:plastic_bottles":"yes","recycling_type":"container"}},"type":"Feature"},
	{"geometry":{"coordinates":[5.866987,48.680473],"type":"Point"},"properties":{"osm_id":"4300857601","ref":"87","tag":{"amenity":"waste_disposal","operator":"Communaut\u00c3\u00a9 de communes Terres Touloises","waste":"trash"}},"type":"Feature"},
	{"geometry":{"coordinates":[5.866947,48.680482],"type":"Point"},"properties":{"osm_id":"4300857602","ref":"87","tag":{"amenity":"recycling","operator":"Communaut\u00c3\u00a9 de communes Terres Touloises","operator:type":"public","recycling:cans":"yes","recycling:cardboard":"yes","recycling:paper":"yes","recycling:plastic_bottles":"yes","recycling_type":"container"}},"type":"Feature"},
	{"geometry":{"coordinates":[5.862155,48.681661],"type":"Point"},"properties":{"osm_id":"4300857613","ref":"85","tag":{"amenity":"waste_disposal","operator":"Communaut\u00c3\u00a9 de communes Terres Touloises","waste":"trash"}},"type":"Feature"},
	{"geometry":{"coordinates":[5.887562,48.687557],"type":"Point"},"properties":{"osm_id":"4300857615","ref":"65","tag":{"amenity":"waste_disposal","operator":"Communaut\u00c3\u00a9 de communes Terres Touloises","waste":"trash"}},"type":"Feature"},
	{"geometry":{"coordinates":[5.88754,48.687565],"type":"Point"},"properties":{"osm_id":"4300857616","ref":"65","tag":{"amenity":"recycling","operator":"Communaut\u00c3\u00a9 de communes Terres Touloises","operator:type":"public","recycling:glass_bottles":"yes","recycling_type":"container"}},"type":"Feature"},
	{"geometry":{"coordinates":[5.888062,48.688511],"type":"Point"},"properties":{"osm_id":"4300857628","ref":"64","tag":{"amenity":"waste_disposal","operator":"Communaut\u00c3\u00a9 de communes Terres Touloises","waste":"trash"}},"type":"Feature"},
	{"geometry":{"coordinates":[5.888084,48.69015],"type":"Point"},"properties":{"osm_id":"4300857698","ref":"63","tag":{"amenity":"waste_disposal","operator":"Communaut\u00c3\u00a9 de communes Terres Touloises","waste":"trash"}},"type":"Feature"},
	{"geometry":{"coordinates":[5.888089,48.690169],"type":"Point"},"properties":{"osm_id":"4300857700","ref":"63","tag":{"amenity":"recycling","operator":"Communaut\u00c3\u00a9 de communes Terres Touloises","operator:type":"public","recycling:cans":"yes","recycling:cardboard":"yes","recycling:paper":"yes","recycling:plastic_bottles":"yes","recycling_type":"container"}},"type":"Feature"},
	{"geometry":{"coordinates":[5.888096,48.690189],"type":"Point"},"properties":{"osm_id":"4300857704","ref":"63","tag":{"amenity":"recycling","operator":"Communaut\u00c3\u00a9 de communes Terres Touloises","operator:type":"public","recycling:glass_bottles":"yes","recycling_type":"container"}},"type":"Feature"},
	{"geometry":{"coordinates":[5.888291,48.690733],"type":"Point"},"properties":{"osm_id":"4300857731","ref":"62","tag":{"amenity":"waste_disposal","operator":"Communaut\u00c3\u00a9 de communes Terres Touloises","waste":"trash"}},"type":"Feature"},
	{"geometry":{"coordinates":[5.888315,48.690746],"type":"Point"},"properties":{"osm_id":"4300857733","ref":"62","tag":{"amenity":"recycling","operator":"Communaut\u00c3\u00a9 de communes Terres Touloises","operator:type":"public","recycling:cans":"yes","recycling:cardboard":"yes","recycling:paper":"yes","recycling:plastic_bottles":"yes","recycling_type":"container"}},"type":"Feature"},
	{"geometry":{"coordinates":[5.888337,48.690757],"type":"Point"},"properties":{"osm_id":"4300857734","ref":"62","tag":{"amenity":"recycling","operator":"Communaut\u00c3\u00a9 de communes Terres Touloises","operator:type":"public","recycling:glass_bottles":"yes","recycling_type":"container"}},"type":"Feature"},
	{"geometry":{"coordinates":[5.888556,48.680174],"type":"Point"},"properties":{"osm_id":"4311846254","tag":{"amenity":"waste_basket"}},"type":"Feature"},
	{"geometry":{"coordinates":[5.822255,48.679135],"type":"Point"},"properties":{"osm_id":"5739804279","ref":"53175","tag":{"amenity":"recycling","operator":"Le Relais","recycling:clothes":"yes","recycling:shoes":"yes","recycling_type":"container"}},"type":"Feature"},
	{"geometry":{"coordinates":[5.822203,48.679117],"type":"Point"},"properties":{"osm_id":"5739804280","ref":"206","tag":{"amenity":"recycling","operator":"Communaut\u00c3\u00a9 de communes Terres Touloises","operator:type":"public","recycling:glass_bottles":"yes","recycling_type":"container"}},"type":"Feature"},
	{"geometry":{"coordinates":[5.822171,48.679112],"type":"Point"},"properties":{"osm_id":"5739804281","ref":"206","tag":{"amenity":"recycling","operator":"Communaut\u00c3\u00a9 de communes Terres Touloises","operator:type":"public","recycling:cans":"yes","recycling:cardboard":"yes","recycling:paper":"yes","recycling:plastic_bottles":"yes","recycling_type":"container"}},"type":"Feature"},
	{"geometry":{"coordinates":[5.822197,48.679136],"type":"Point"},"properties":{"osm_id":"5739804282","ref":"206","tag":{"amenity":"recycling","operator":"Communaut\u00c3\u00a9 de communes Terres Touloises","operator:type":"public","recycling:cans":"yes","recycling:cardboard":"yes","recycling:paper":"yes","recycling:plastic_bottles":"yes","recycling_type":"container"}},"type":"Feature"},
	{"geometry":{"coordinates":[5.822165,48.679131],"type":"Point"},"properties":{"osm_id":"5739804283","ref":"206","tag":{"amenity":"recycling","operator":"Communaut\u00c3\u00a9 de communes Terres Touloises","operator:type":"public","recycling:cans":"yes","recycling:cardboard":"yes","recycling:paper":"yes","recycling:plastic_bottles":"yes","recycling_type":"container"}},"type":"Feature"},
	{"geometry":{"coordinates":[5.872249,48.672378],"type":"Point"},"properties":{"osm_id":"5741956953","ref":"114","tag":{"amenity":"waste_disposal","operator":"Communaut\u00c3\u00a9 de communes Terres Touloises","waste":"trash"}},"type":"Feature"},
	{"geometry":{"coordinates":[5.872101,48.673077],"type":"Point"},"properties":{"osm_id":"5741956954","ref":"113","tag":{"amenity":"waste_disposal","operator":"Communaut\u00c3\u00a9 de communes Terres Touloises","waste":"trash"}},"type":"Feature"},
	{"geometry":{"coordinates":[5.873078,48.673812],"type":"Point"},"properties":{"osm_id":"5741956955","ref":"112","tag":{"amenity":"waste_disposal","operator":"Communaut\u00c3\u00a9 de communes Terres Touloises","waste":"trash"}},"type":"Feature"},
	{"geometry":{"coordinates":[5.872629,48.671666],"type":"Point"},"properties":{"osm_id":"5741956956","ref":"108","tag":{"amenity":"waste_disposal","operator":"Communaut\u00c3\u00a9 de communes Terres Touloises","waste":"trash"}},"type":"Feature"},
	{"geometry":{"coordinates":[5.873424,48.672074],"type":"Point"},"properties":{"osm_id":"5741956957","ref":"110","tag":{"amenity":"waste_disposal","operator":"Communaut\u00c3\u00a9 de communes Terres Touloises","waste":"trash"}},"type":"Feature"},
	{"geometry":{"coordinates":[5.873265,48.684085],"type":"Point"},"properties":{"osm_id":"5744397333","ref":"88","tag":{"amenity":"waste_disposal","operator":"Communaut\u00c3\u00a9 de communes Terres Touloises","waste":"trash"}},"type":"Feature"},
	{"geometry":{"coordinates":[5.872059,48.683965],"type":"Point"},"properties":{"osm_id":"5744397334","ref":"89","tag":{"amenity":"waste_disposal","operator":"Communaut\u00c3\u00a9 de communes Terres Touloises","waste":"trash"}},"type":"Feature"},
	{"geometry":{"coordinates":[5.881935,48.678366],"type":"Point"},"properties":{"osm_id":"5744397351","ref":"233","tag":{"amenity":"recycling","operator":"Communaut\u00c3\u00a9 de communes Terres Touloises","operator:type":"public","recycling:cans":"yes","recycling:cardboard":"yes","recycling:paper":"yes","recycling:plastic_bottles":"yes","recycling_type":"container"}},"type":"Feature"},
	{"geometry":{"coordinates":[5.828285,48.663158],"type":"Point"},"properties":{"osm_id":"5749401456","tag":{"amenity":"recycling","operator":"Le Relais","recycling:clothes":"yes","recycling:shoes":"yes","recycling_type":"container"}},"type":"Feature"},
	{"geometry":{"coordinates":[5.82825,48.663129],"type":"Point"},"properties":{"osm_id":"5749401457","ref":"189","tag":{"amenity":"recycling","operator":"Communaut\u00c3\u00a9 de communes Terres Touloises","operator:type":"public","recycling:glass_bottles":"yes","recycling_type":"container"}},"type":"Feature"},
	{"geometry":{"coordinates":[5.828228,48.663115],"type":"Point"},"properties":{"osm_id":"5749401458","ref":"189","tag":{"amenity":"recycling","operator":"Communaut\u00c3\u00a9 de communes Terres Touloises","operator:type":"public","recycling:glass_bottles":"yes","recycling_type":"container"}},"type":"Feature"},
	{"geometry":{"coordinates":[5.828208,48.663102],"type":"Point"},"properties":{"osm_id":"5749401459","ref":"189","tag":{"amenity":"recycling","operator":"Communaut\u00c3\u00a9 de communes Terres Touloises","operator:type":"public","recycling:cans":"yes","recycling:cardboard":"yes","recycling:paper":"yes","recycling:plastic_bottles":"yes","recycling_type":"container"}},"type":"Feature"},
	{"geometry":{"coordinates":[5.828169,48.663088],"type":"Point"},"properties":{"osm_id":"5749401460","ref":"189","tag":{"amenity":"recycling","operator":"Communaut\u00c3\u00a9 de communes Terres Touloises","operator:type":"public","recycling:cans":"yes","recycling:cardboard":"yes","recycling:paper":"yes","recycling:plastic_bottles":"yes","recycling_type":"container"}},"type":"Feature"},
	{"geometry":{"coordinates":[5.828144,48.663103],"type":"Point"},"properties":{"osm_id":"5749401461","ref":"189","tag":{"amenity":"recycling","operator":"Communaut\u00c3\u00a9 de communes Terres Touloises","operator:type":"public","recycling:cans":"yes","recycling:cardboard":"yes","recycling:paper":"yes","recycling:plastic_bottles":"yes","recycling_type":"container"}},"type":"Feature"},
	{"geometry":{"coordinates":[5.82812,48.663117],"type":"Point"},"properties":{"osm_id":"5749401462","ref":"189","tag":{"amenity":"recycling","operator":"Communaut\u00c3\u00a9 de communes Terres Touloises","operator:type":"public","recycling:cans":"yes","recycling:cardboard":"yes","recycling:paper":"yes","recycling:plastic_bottles":"yes","recycling_type":"container"}},"type":"Feature"},
	{"geometry":{"coordinates":[5.828096,48.663131],"type":"Point"},"properties":{"osm_id":"5749401463","ref":"189","tag":{"amenity":"recycling","operator":"Communaut\u00c3\u00a9 de communes Terres Touloises","operator:type":"public","recycling:cans":"yes","recycling:cardboard":"yes","recycling:paper":"yes","recycling:plastic_bottles":"yes","recycling_type":"container"}},"type":"Feature"},
	{"geometry":{"coordinates":[5.868689,48.679193],"type":"Point"},"properties":{"osm_id":"5758567133","ref":"53621","tag":{"amenity":"recycling","operator":"Le Relais","recycling:clothes":"yes","recycling:shoes":"yes","recycling_type":"container"}},"type":"Feature"},
	{"geometry":{"coordinates":[5.868687,48.679179],"type":"Point"},"properties":{"osm_id":"5758567134","ref":"53257","tag":{"amenity":"recycling","operator":"Le Relais","recycling:clothes":"yes","recycling:shoes":"yes","recycling_type":"container"}},"type":"Feature"},
	{"geometry":{"coordinates":[5.868684,48.679162],"type":"Point"},"properties":{"osm_id":"5758567135","ref":"209","tag":{"amenity":"recycling","operator":"Communaut\u00c3\u00a9 de communes Terres Touloises","operator:type":"public","recycling:cans":"yes","recycling:cardboard":"yes","recycling:paper":"yes","recycling:plastic_bottles":"yes","recycling_type":"container"}},"type":"Feature"},
	{"geometry":{"coordinates":[5.868682,48.679146],"type":"Point"},"properties":{"osm_id":"5758567136","ref":"209","tag":{"amenity":"recycling","operator":"Communaut\u00c3\u00a9 de communes Terres Touloises","operator:type":"public","recycling:glass_bottles":"yes","recycling_type":"container"}},"type":"Feature"},
	{"geometry":{"coordinates":[5.868679,48.679129],"type":"Point"},"properties":{"osm_id":"5758567137","ref":"209","tag":{"amenity":"recycling","operator":"Communaut\u00c3\u00a9 de communes Terres Touloises","operator:type":"public","recycling:cans":"yes","recycling:cardboard":"yes","recycling:paper":"yes","recycling:plastic_bottles":"yes","recycling_type":"container"}},"type":"Feature"},
	{"geometry":{"coordinates":[5.868676,48.67911],"type":"Point"},"properties":{"osm_id":"5758567138","ref":"209","tag":{"amenity":"recycling","operator":"Communaut\u00c3\u00a9 de communes Terres Touloises","operator:type":"public","recycling:cans":"yes","recycling:cardboard":"yes","recycling:paper":"yes","recycling:plastic_bottles":"yes","recycling_type":"container"}},"type":"Feature"},
	{"geometry":{"coordinates":[5.868672,48.679087],"type":"Point"},"properties":{"osm_id":"5758567139","ref":"209","tag":{"amenity":"recycling","operator":"Communaut\u00c3\u00a9 de communes Terres Touloises","operator:type":"public","recycling:glass_bottles":"yes","recycling_type":"container"}},"type":"Feature"},
	{"geometry":{"coordinates":[5.868669,48.679069],"type":"Point"},"properties":{"osm_id":"5758567140","ref":"209","tag":{"amenity":"recycling","operator":"Communaut\u00c3\u00a9 de communes Terres Touloises","operator:type":"public","recycling:cans":"yes","recycling:cardboard":"yes","recycling:paper":"yes","recycling:plastic_bottles":"yes","recycling_type":"container"}},"type":"Feature"},
	{"geometry":{"coordinates":[5.867841,48.66993],"type":"Point"},"properties":{"osm_id":"5785083218","ref":"213","tag":{"amenity":"recycling","operator":"Communaut\u00c3\u00a9 de communes Terres Touloises","operator:type":"public","recycling:cans":"yes","recycling:cardboard":"yes","recycling:paper":"yes","recycling:plastic_bottles":"yes","recycling_type":"container"}},"type":"Feature"},
	{"geometry":{"coordinates":[5.858287,48.678612],"type":"Point"},"properties":{"osm_id":"5785083219","tag":{"amenity":"recycling","operator":"Le Relais","recycling:clothes":"yes","recycling:shoes":"yes","recycling_type":"container"}},"type":"Feature"},
	{"geometry":{"coordinates":[5.858269,48.678608],"type":"Point"},"properties":{"osm_id":"5785083220","tag":{"amenity":"recycling","operator":"Le Relais","recycling:clothes":"yes","recycling:shoes":"yes","recycling_type":"container"}},"type":"Feature"},
	{"geometry":{"coordinates":[5.858238,48.678601],"type":"Point"},"properties":{"osm_id":"5785083221","ref":"226","tag":{"amenity":"recycling","operator":"Communaut\u00c3\u00a9 de communes Terres Touloises","operator:type":"public","recycling:cans":"yes","recycling:cardboard":"yes","recycling:paper":"yes","recycling:plastic_bottles":"yes","recycling_type":"container"}},"type":"Feature"},
	{"geometry":{"coordinates":[5.858212,48.678595],"type":"Point"},"properties":{"osm_id":"5785083222","ref":"226","tag":{"amenity":"recycling","operator":"Communaut\u00c3\u00a9 de communes Terres Touloises","operator:type":"public","recycling:cans":"yes","recycling:cardboard":"yes","recycling:paper":"yes","recycling:plastic_bottles":"yes","recycling_type":"container"}},"type":"Feature"},
	{"geometry":{"coordinates":[5.858127,48.678576],"type":"Point"},"properties":{"osm_id":"5785083223","ref":"226","tag":{"amenity":"recycling","operator":"Communaut\u00c3\u00a9 de communes Terres Touloises","operator:type":"public","recycling:glass_bottles":"yes","recycling_type":"container"}},"type":"Feature"},
	{"geometry":{"coordinates":[5.858095,48.678568],"type":"Point"},"properties":{"osm_id":"5785083224","ref":"226","tag":{"amenity":"recycling","operator":"Communaut\u00c3\u00a9 de communes Terres Touloises","operator:type":"public","recycling:glass_bottles":"yes","recycling_type":"container"}},"type":"Feature"},
	{"geometry":{"coordinates":[5.858183,48.678589],"type":"Point"},"properties":{"osm_id":"5785083225","ref":"226","tag":{"amenity":"recycling","operator":"Communaut\u00c3\u00a9 de communes Terres Touloises","operator:type":"public","recycling:cans":"yes","recycling:cardboard":"yes","recycling:paper":"yes","recycling:plastic_bottles":"yes","recycling_type":"container"}},"type":"Feature"},
	{"geometry":{"coordinates":[5.858153,48.678582],"type":"Point"},"properties":{"osm_id":"5785083226","ref":"226","tag":{"amenity":"recycling","operator":"Communaut\u00c3\u00a9 de communes Terres Touloises","operator:type":"public","recycling:cans":"yes","recycling:cardboard":"yes","recycling:paper":"yes","recycling:plastic_bottles":"yes","recycling_type":"container"}},"type":"Feature"},
	{"geometry":{"coordinates":[5.835595,48.645072],"type":"Point"},"properties":{"osm_id":"5785083232","ref":"191","tag":{"amenity":"recycling","operator":"Communaut\u00c3\u00a9 de communes Terres Touloises","operator:type":"public","recycling:cans":"yes","recycling:cardboard":"yes","recycling:paper":"yes","recycling:plastic_bottles":"yes","recycling_type":"container"}},"type":"Feature"},
	{"geometry":{"coordinates":[5.835623,48.64499],"type":"Point"},"properties":{"osm_id":"5785083233","ref":"191","tag":{"amenity":"recycling","operator":"Communaut\u00c3\u00a9 de communes Terres Touloises","operator:type":"public","recycling:cans":"yes","recycling:cardboard":"yes","recycling:paper":"yes","recycling:plastic_bottles":"yes","recycling_type":"container"}},"type":"Feature"},
	{"geometry":{"coordinates":[5.835609,48.64503],"type":"Point"},"properties":{"osm_id":"5785083234","ref":"191","tag":{"amenity":"recycling","operator":"Communaut\u00c3\u00a9 de communes Terres Touloises","operator:type":"public","recycling:cans":"yes","recycling:cardboard":"yes","recycling:paper":"yes","recycling:plastic_bottles":"yes","recycling_type":"container"}},"type":"Feature"},
	{"geometry":{"coordinates":[5.835631,48.644968],"type":"Point"},"properties":{"osm_id":"5785083235","ref":"191","tag":{"amenity":"recycling","operator":"Communaut\u00c3\u00a9 de communes Terres Touloises","operator:type":"public","recycling:cans":"yes","recycling:cardboard":"yes","recycling:paper":"yes","recycling:plastic_bottles":"yes","recycling_type":"container"}},"type":"Feature"},
	{"geometry":{"coordinates":[5.835588,48.645092],"type":"Point"},"properties":{"osm_id":"5785083236","ref":"191","tag":{"amenity":"recycling","operator":"Communaut\u00c3\u00a9 de communes Terres Touloises","operator:type":"public","recycling:glass_bottles":"yes","recycling_type":"container"}},"type":"Feature"},
	{"geometry":{"coordinates":[5.835581,48.645113],"type":"Point"},"properties":{"osm_id":"5785083237","ref":"191","tag":{"amenity":"recycling","operator":"Communaut\u00c3\u00a9 de communes Terres Touloises","operator:type":"public","recycling:glass_bottles":"yes","recycling_type":"container"}},"type":"Feature"},
	{"geometry":{"coordinates":[5.835574,48.645133],"type":"Point"},"properties":{"osm_id":"5785083238","ref":"191","tag":{"amenity":"recycling","operator":"Communaut\u00c3\u00a9 de communes Terres Touloises","operator:type":"public","recycling:glass_bottles":"yes","recycling_type":"container"}},"type":"Feature"},
	{"geometry":{"coordinates":[5.835602,48.645053],"type":"Point"},"properties":{"osm_id":"5785083239","ref":"191","tag":{"amenity":"recycling","operator":"Communaut\u00c3\u00a9 de communes Terres Touloises","operator:type":"public","recycling:cans":"yes","recycling:cardboard":"yes","recycling:paper":"yes","recycling:plastic_bottles":"yes","recycling_type":"container"}},"type":"Feature"},
	{"geometry":{"coordinates":[5.835638,48.644947],"type":"Point"},"properties":{"osm_id":"5785083240","tag":{"amenity":"recycling","operator":"Le Relais","recycling:clothes":"yes","recycling:shoes":"yes","recycling_type":"container"}},"type":"Feature"},
	{"geometry":{"coordinates":[5.835617,48.645009],"type":"Point"},"properties":{"osm_id":"5785083241","ref":"191","tag":{"amenity":"recycling","operator":"Communaut\u00c3\u00a9 de communes Terres Touloises","operator:type":"public","recycling:cans":"yes","recycling:cardboard":"yes","recycling:paper":"yes","recycling:plastic_bottles":"yes","recycling_type":"container"}},"type":"Feature"},
	{"geometry":{"coordinates":[5.887696,48.664947],"type":"Point"},"properties":{"osm_id":"5787651954","ref":"220","tag":{"amenity":"recycling","operator":"Communaut\u00c3\u00a9 de communes Terres Touloises","operator:type":"public","recycling:cans":"yes","recycling:cardboard":"yes","recycling:paper":"yes","recycling:plastic_bottles":"yes","recycling_type":"container"}},"type":"Feature"},
	{"geometry":{"coordinates":[5.887062,48.667694],"type":"Point"},"properties":{"osm_id":"5787651955","ref":"221","tag":{"amenity":"recycling","operator":"Communaut\u00c3\u00a9 de communes Terres Touloises","operator:type":"public","recycling:cans":"yes","recycling:cardboard":"yes","recycling:paper":"yes","recycling:plastic_bottles":"yes","recycling_type":"container"}},"type":"Feature"},
	{"geometry":{"coordinates":[5.887036,48.667686],"type":"Point"},"properties":{"osm_id":"5787651956","ref":"221","tag":{"amenity":"recycling","operator":"Communaut\u00c3\u00a9 de communes Terres Touloises","operator:type":"public","recycling:glass_bottles":"yes","recycling_type":"container"}},"type":"Feature"},
	{"geometry":{"coordinates":[5.887013,48.66768],"type":"Point"},"properties":{"osm_id":"5787651957","ref":"221","tag":{"amenity":"recycling","operator":"Communaut\u00c3\u00a9 de communes Terres Touloises","operator:type":"public","recycling:cans":"yes","recycling:cardboard":"yes","recycling:paper":"yes","recycling:plastic_bottles":"yes","recycling_type":"container"}},"type":"Feature"},
	{"geometry":{"coordinates":[5.872248,48.67121],"type":"Point"},"properties":{"osm_id":"5869394050","ref":"211","tag":{"amenity":"recycling","operator":"Communaut\u00c3\u00a9 de communes Terres Touloises","operator:type":"public","recycling:cans":"yes","recycling:cardboard":"yes","recycling:paper":"yes","recycling:plastic_bottles":"yes","recycling_type":"container"}},"type":"Feature"},
	{"geometry":{"coordinates":[5.872261,48.671178],"type":"Point"},"properties":{"osm_id":"5869394051","ref":"211","tag":{"amenity":"recycling","operator":"Communaut\u00c3\u00a9 de communes Terres Touloises","operator:type":"public","recycling:cans":"yes","recycling:cardboard":"yes","recycling:paper":"yes","recycling:plastic_bottles":"yes","recycling_type":"container"}},"type":"Feature"},
	{"geometry":{"coordinates":[5.87222,48.671205],"type":"Point"},"properties":{"osm_id":"5869394052","ref":"211","tag":{"amenity":"recycling","operator":"Communaut\u00c3\u00a9 de communes Terres Touloises","operator:type":"public","recycling:glass_bottles":"yes","recycling_type":"container"}},"type":"Feature"},
	{"geometry":{"coordinates":[5.872237,48.671174],"type":"Point"},"properties":{"osm_id":"5869394053","ref":"211","tag":{"amenity":"recycling","operator":"Communaut\u00c3\u00a9 de communes Terres Touloises","operator:type":"public","recycling:cans":"yes","recycling:cardboard":"yes","recycling:paper":"yes","recycling:plastic_bottles":"yes","recycling_type":"container"}},"type":"Feature"},
	{"geometry":{"coordinates":[5.884383,48.659925],"type":"Point"},"properties":{"osm_id":"5869394054","ref":"222","tag":{"amenity":"recycling","operator":"Communaut\u00c3\u00a9 de communes Terres Touloises","recycling:cans":"yes","recycling:cardboard":"yes","recycling:plastic_bottles":"yes","recycling_type":"container"}},"type":"Feature"},
	{"geometry":{"coordinates":[5.884348,48.659913],"type":"Point"},"properties":{"osm_id":"5869394055","ref":"222","tag":{"amenity":"recycling","operator":"Communaut\u00c3\u00a9 de communes Terres Touloises","recycling:cans":"yes","recycling:cardboard":"yes","recycling:plastic_bottles":"yes","recycling_type":"container"}},"type":"Feature"},
	{"geometry":{"coordinates":[5.884313,48.659902],"type":"Point"},"properties":{"osm_id":"5869394056","ref":"222","tag":{"amenity":"recycling","operator":"Communaut\u00c3\u00a9 de communes Terres Touloises","recycling:glass_bottles":"yes","recycling_type":"container"}},"type":"Feature"},
	{"geometry":{"coordinates":[5.879574,48.664671],"type":"Point"},"properties":{"osm_id":"5869394063","ref":"224","tag":{"amenity":"recycling","operator":"Communaut\u00c3\u00a9 de communes Terres Touloises","recycling:glass_bottles":"yes","recycling_type":"container"}},"type":"Feature"},
	{"geometry":{"coordinates":[5.879586,48.664689],"type":"Point"},"properties":{"osm_id":"5869394064","ref":"224","tag":{"amenity":"recycling","operator":"Communaut\u00c3\u00a9 de communes Terres Touloises","recycling:glass_bottles":"yes","recycling_type":"container"}},"type":"Feature"},
	{"geometry":{"coordinates":[5.879553,48.664701],"type":"Point"},"properties":{"osm_id":"5869394065","ref":"224","tag":{"amenity":"recycling","operator":"Communaut\u00c3\u00a9 de communes Terres Touloises","recycling:cans":"yes","recycling:cardboard":"yes","recycling:plastic_bottles":"yes","recycling_type":"container"}},"type":"Feature"},
	{"geometry":{"coordinates":[5.87954,48.664683],"type":"Point"},"properties":{"osm_id":"5869394066","ref":"224","tag":{"amenity":"recycling","operator":"Communaut\u00c3\u00a9 de communes Terres Touloises","recycling:cans":"yes","recycling:cardboard":"yes","recycling:plastic_bottles":"yes","recycling_type":"container"}},"type":"Feature"},
	{"geometry":{"coordinates":[5.879508,48.664695],"type":"Point"},"properties":{"osm_id":"5869394067","ref":"224","tag":{"amenity":"recycling","operator":"Communaut\u00c3\u00a9 de communes Terres Touloises","recycling:cans":"yes","recycling:cardboard":"yes","recycling:plastic_bottles":"yes","recycling_type":"container"}},"type":"Feature"},
	{"geometry":{"coordinates":[5.880694,48.675932],"type":"Point"},"properties":{"osm_id":"5882826562","ref":"232","tag":{"amenity":"recycling","operator":"Communaut\u00c3\u00a9 de communes Terres Touloises","operator:type":"public","recycling:cans":"yes","recycling:cardboard":"yes","recycling:paper":"yes","recycling:plastic_bottles":"yes","recycling_type":"container"}},"type":"Feature"},
	{"geometry":{"coordinates":[5.880663,48.675909],"type":"Point"},"properties":{"osm_id":"5882826563","tag":{"amenity":"recycling","operator":"Le Relais","operator:type":"public","recycling:clothes":"yes","recycling:shoes":"yes","recycling_type":"container"}},"type":"Feature"},
	{"geometry":{"coordinates":[5.880696,48.675956],"type":"Point"},"properties":{"osm_id":"5882826564","ref":"232","tag":{"amenity":"recycling","operator":"Communaut\u00c3\u00a9 de communes Terres Touloises","operator:type":"public","recycling:cans":"yes","recycling:cardboard":"yes","recycling:paper":"yes","recycling:plastic_bottles":"yes","recycling_type":"container"}},"type":"Feature"},
	{"geometry":{"coordinates":[5.83291,48.638156],"type":"Point"},"properties":{"osm_id":"5973059416","ref":"192","tag":{"amenity":"recycling","operator":"Communaut\u00c3\u00a9 de communes Terres Touloises","recycling:cans":"yes","recycling:cardboard":"yes","recycling:paper":"yes","recycling:plastic_bottles":"yes","recycling_type":"container"}},"type":"Feature"},
	{"geometry":{"coordinates":[5.88352,48.67124],"type":"Point"},"properties":{"osm_id":"5973059427","ref":"237","tag":{"amenity":"recycling","operator":"Communaut\u00c3\u00a9 de communes Terres Touloises","operator:type":"public","recycling:cans":"yes","recycling:cardboard":"yes","recycling:paper":"yes","recycling:plastic_bottles":"yes","recycling_type":"container"}},"type":"Feature"},
	{"geometry":{"coordinates":[5.83293,48.638167],"type":"Point"},"properties":{"osm_id":"5973059431","ref":"192","tag":{"amenity":"recycling","operator":"Communaut\u00c3\u00a9 de communes Terres Touloises","recycling:glass_bottles":"yes","recycling_type":"container"}},"type":"Feature"},
	{"geometry":{"coordinates":[5.87506,48.665587],"type":"Point"},"properties":{"osm_id":"5973059443","ref":"235","tag":{"amenity":"recycling","operator":"Communaut\u00c3\u00a9 de communes Terres Touloises","operator:type":"public","recycling:cans":"yes","recycling:cardboard":"yes","recycling:paper":"yes","recycling:plastic_bottles":"yes","recycling_type":"container"}},"type":"Feature"},
	{"geometry":{"coordinates":[5.875048,48.665567],"type":"Point"},"properties":{"osm_id":"5973059461","ref":"235","tag":{"amenity":"recycling","operator":"Communaut\u00c3\u00a9 de communes Terres Touloises","operator:type":"public","recycling:cans":"yes","recycling:cardboard":"yes","recycling:paper":"yes","recycling:plastic_bottles":"yes","recycling_type":"container"}},"type":"Feature"},
	{"geometry":{"coordinates":[5.880173,48.663433],"type":"Point"},"properties":{"osm_id":"5973059713","ref":"223","tag":{"amenity":"recycling","operator":"Communaut\u00c3\u00a9 de communes Terres Touloises","operator:type":"public","recycling:cans":"yes","recycling:cardboard":"yes","recycling:paper":"yes","recycling:plastic_bottles":"yes","recycling_type":"container"}},"type":"Feature"},
	{"geometry":{"coordinates":[5.849077,48.679451],"type":"Point"},"properties":{"osm_id":"5973059722","ref":"239","tag":{"amenity":"recycling","operator":"Communaut\u00c3\u00a9 de communes Terres Touloises","recycling:glass_bottles":"yes","recycling_type":"container"}},"type":"Feature"},
	{"geometry":{"coordinates":[5.883493,48.671228],"type":"Point"},"properties":{"osm_id":"5973060120","ref":"237","tag":{"amenity":"recycling","operator":"Communaut\u00c3\u00a9 de communes Terres Touloises","operator:type":"public","recycling:glass_bottles":"yes","recycling_type":"container"}},"type":"Feature"},
	{"geometry":{"coordinates":[5.87504,48.665553],"type":"Point"},"properties":{"osm_id":"5973060153","ref":"235","tag":{"amenity":"recycling","operator":"Communaut\u00c3\u00a9 de communes Terres Touloises","operator:type":"public","recycling:glass_bottles":"yes","recycling_type":"container"}},"type":"Feature"},
	{"geometry":{"coordinates":[5.832886,48.638143],"type":"Point"},"properties":{"osm_id":"5973060177","ref":"192","tag":{"amenity":"recycling","operator":"Communaut\u00c3\u00a9 de communes Terres Touloises","recycling:cans":"yes","recycling:cardboard":"yes","recycling:paper":"yes","recycling:plastic_bottles":"yes","recycling_type":"container"}},"type":"Feature"},
	{"geometry":{"coordinates":[5.883544,48.671247],"type":"Point"},"properties":{"osm_id":"5973060388","ref":"237","tag":{"amenity":"recycling","operator":"Communaut\u00c3\u00a9 de communes Terres Touloises","operator:type":"public","recycling:cans":"yes","recycling:cardboard":"yes","recycling:paper":"yes","recycling:plastic_bottles":"yes","recycling_type":"container"}},"type":"Feature"},
	{"geometry":{"coordinates":[5.880165,48.663412],"type":"Point"},"properties":{"osm_id":"5973060457","ref":"223","tag":{"amenity":"recycling","operator":"Communaut\u00c3\u00a9 de communes Terres Touloises","operator:type":"public","recycling:glass_bottles":"yes","recycling_type":"container"}},"type":"Feature"},
	{"geometry":{"coordinates":[5.880158,48.663392],"type":"Point"},"properties":{"osm_id":"5973060474","ref":"223","tag":{"amenity":"recycling","operator":"Communaut\u00c3\u00a9 de communes Terres Touloises","operator:type":"public","recycling:cans":"yes","recycling:cardboard":"yes","recycling:paper":"yes","recycling:plastic_bottles":"yes","recycling_type":"container"}},"type":"Feature"},
	{"geometry":{"coordinates":[5.872242,48.671227],"type":"Point"},"properties":{"osm_id":"5973060500","tag":{"amenity":"waste_basket"}},"type":"Feature"},
	{"geometry":{"coordinates":[5.883473,48.671216],"type":"Point"},"properties":{"osm_id":"5973060527","tag":{"amenity":"waste_basket"}},"type":"Feature"},
	{"geometry":{"coordinates":[5.87632,48.680415],"type":"Point"},"properties":{"osm_id":"6333169445","tag":{"amenity":"recycling","recycling:garden_waste":"yes","recycling:green_waste":"yes","recycling:organic":"yes","recycling_type":"container"}},"type":"Feature"},
	{"geometry":{"coordinates":[5.881434,48.66793],"type":"Point"},"properties":{"osm_id":"6333169446","tag":{"amenity":"recycling","recycling:garden_waste":"yes","recycling:green_waste":"yes","recycling:organic":"yes","recycling_type":"container"}},"type":"Feature"},
	{"geometry":{"coordinates":[5.861645,48.682045],"type":"Point"},"properties":{"osm_id":"6333169452","tag":{"amenity":"recycling","recycling:garden_waste":"yes","recycling:green_waste":"yes","recycling:organic":"yes","recycling_type":"container"}},"type":"Feature"},
	{"geometry":{"coordinates":[5.884819,48.669791],"type":"Point"},"properties":{"osm_id":"6333169454","tag":{"amenity":"recycling","recycling:garden_waste":"yes","recycling:green_waste":"yes","recycling:organic":"yes","recycling_type":"container"}},"type":"Feature"},
	{"geometry":{"coordinates":[5.884811,48.677214],"type":"Point"},"properties":{"osm_id":"6333169455","tag":{"amenity":"recycling","recycling:garden_waste":"yes","recycling:green_waste":"yes","recycling:organic":"yes","recycling_type":"container"}},"type":"Feature"},
	{"geometry":{"coordinates":[5.884875,48.67773],"type":"Point"},"properties":{"osm_id":"6427402595","tag":{"amenity":"waste_basket"}},"type":"Feature"},
	{"geometry":{"coordinates":[5.885235,48.676941],"type":"Point"},"properties":{"osm_id":"6427402613","tag":{"amenity":"waste_basket"}},"type":"Feature"},
	{"geometry":{"coordinates":[5.884782,48.676612],"type":"Point"},"properties":{"osm_id":"6427402621","tag":{"amenity":"waste_basket"}},"type":"Feature"},
	{"geometry":{"coordinates":[5.884722,48.67659],"type":"Point"},"properties":{"osm_id":"6427402622","tag":{"amenity":"waste_basket"}},"type":"Feature"},
	{"geometry":{"coordinates":[5.872656,48.671661],"type":"Point"},"properties":{"osm_id":"7057955582","ref":"108","tag":{"amenity":"waste_disposal","operator":"Communaut\u00c3\u00a9 de communes Terres Touloises","waste":"trash"}},"type":"Feature"},
	{"geometry":{"coordinates":[5.872451,48.671819],"type":"Point"},"properties":{"osm_id":"7057955583","ref":"109","tag":{"amenity":"waste_disposal","operator":"Communaut\u00c3\u00a9 de communes Terres Touloises","waste":"trash"}},"type":"Feature"},
	{"geometry":{"coordinates":[5.871916,48.669918],"type":"Point"},"properties":{"osm_id":"7061632454","tag":{"amenity":"waste_disposal","operator":"Communaut\u00c3\u00a9 de communes Terres Touloises","waste":"trash"}},"type":"Feature"},
	{"geometry":{"coordinates":[5.873389,48.670078],"type":"Point"},"properties":{"osm_id":"7061632455","ref":"120","tag":{"amenity":"recycling","operator":"Communaut\u00c3\u00a9 de communes Terres Touloises","operator:type":"public","recycling:cans":"yes","recycling:cardboard":"yes","recycling:paper":"yes","recycling:plastic_bottles":"yes","recycling_type":"container"}},"type":"Feature"},
	{"geometry":{"coordinates":[5.873375,48.670058],"type":"Point"},"properties":{"osm_id":"7061632456","ref":"120","tag":{"amenity":"recycling","operator":"Communaut\u00c3\u00a9 de communes Terres Touloises","recycling:glass_bottles":"yes","recycling_type":"container"}},"type":"Feature"},
	{"geometry":{"coordinates":[5.873402,48.670098],"type":"Point"},"properties":{"osm_id":"7061632457","ref":"120","tag":{"amenity":"recycling","operator":"Communaut\u00c3\u00a9 de communes Terres Touloises","operator:type":"public","recycling:cans":"yes","recycling:cardboard":"yes","recycling:paper":"yes","recycling:plastic_bottles":"yes","recycling_type":"container"}},"type":"Feature"},
	{"geometry":{"coordinates":[5.873416,48.670118],"type":"Point"},"properties":{"osm_id":"7061632458","ref":"120","tag":{"amenity":"waste_disposal","operator":"Communaut\u00c3\u00a9 de communes Terres Touloises","waste":"trash"}},"type":"Feature"},
	{"geometry":{"coordinates":[5.861035,48.680637],"type":"Point"},"properties":{"osm_id":"7149743181","tag":{"amenity":"waste_basket"}},"type":"Feature"},
	{"geometry":{"coordinates":[5.815352,48.663048],"type":"Point"},"properties":{"osm_id":"7671764028","tag":{"amenity":"waste_basket"}},"type":"Feature"}
]
}
