{
"type": "FeatureCollection",
"features": [
	{"geometry":{"coordinates":[5.852171,46.380176],"type":"Point"},"properties":{"osm_id":"3168825463","tag":{"amenity":"waste_basket"}},"type":"Feature"},
	{"geometry":{"coordinates":[5.882893,46.386036],"type":"Point"},"properties":{"osm_id":"5860994611","tag":{"amenity":"waste_disposal"}},"type":"Feature"},
	{"geometry":{"coordinates":[5.882882,46.386056],"type":"Point"},"properties":{"osm_id":"5860994612","tag":{"amenity":"recycling","recycling_type":"container"}},"type":"Feature"},
	{"geometry":{"coordinates":[5.882875,46.386074],"type":"Point"},"properties":{"osm_id":"5860994613","tag":{"amenity":"recycling","recycling_type":"container"}},"type":"Feature"},
	{"geometry":{"coordinates":[5.882863,46.386089],"type":"Point"},"properties":{"name":"Verre","osm_id":"5860994614","tag":{"amenity":"recycling","recycling:glass":"yes","recycling:glass_bottles":"yes","recycling_type":"container"}},"type":"Feature"},
	{"geometry":{"coordinates":[5.856216,46.380942],"type":"Point"},"properties":{"name":"Verre","osm_id":"6285681410","tag":{"amenity":"recycling","recycling:glass":"yes","recycling:glass_bottles":"yes","recycling_type":"container"}},"type":"Feature"},
	{"geometry":{"coordinates":[5.865734,46.387853],"type":"Point"},"properties":{"osm_id":"6331122056","tag":{"amenity":"recycling","recycling:waste":"yes","recycling_type":"container"}},"type":"Feature"},
	{"geometry":{"coordinates":[5.865764,46.387857],"type":"Point"},"properties":{"osm_id":"6331122063","tag":{"amenity":"recycling","recycling:cans":"yes","recycling:cardboard":"yes","recycling:paper":"yes","recycling:plastic":"yes","recycling:plastic_bottles":"yes","recycling:plastic_packaging":"yes","recycling_type":"container"}},"type":"Feature"},
	{"geometry":{"coordinates":[5.863055,46.394892],"type":"Point"},"properties":{"osm_id":"6331230650","tag":{"amenity":"recycling","recycling_type":"container"}},"type":"Feature"},
	{"geometry":{"coordinates":[5.863048,46.394873],"type":"Point"},"properties":{"osm_id":"6331230653","tag":{"amenity":"recycling","recycling_type":"container"}},"type":"Feature"},
	{"geometry":{"coordinates":[5.863033,46.394837],"type":"Point"},"properties":{"osm_id":"6331233885","tag":{"amenity":"recycling","recycling_type":"container"}},"type":"Feature"},
	{"geometry":{"coordinates":[5.86304,46.394855],"type":"Point"},"properties":{"osm_id":"6331233891","tag":{"amenity":"recycling","recycling_type":"container"}},"type":"Feature"},
	{"geometry":{"coordinates":[5.813423,46.41086],"type":"Point"},"properties":{"osm_id":"6385965512","tag":{"amenity":"recycling","recycling:glass_bottles":"yes","recycling_type":"container"}},"type":"Feature"},
	{"geometry":{"coordinates":[5.863043,46.389949],"type":"Point"},"properties":{"osm_id":"6437164463","tag":{"amenity":"waste_basket"}},"type":"Feature"},
	{"geometry":{"coordinates":[5.864271,46.392605],"type":"Point"},"properties":{"osm_id":"6437164593","tag":{"amenity":"waste_basket"}},"type":"Feature"},
	{"geometry":{"coordinates":[5.864352,46.39092],"type":"Point"},"properties":{"osm_id":"6437164879","tag":{"amenity":"waste_basket"}},"type":"Feature"},
	{"geometry":{"coordinates":[5.864642,46.390911],"type":"Point"},"properties":{"osm_id":"6437164990","tag":{"amenity":"waste_basket"}},"type":"Feature"},
	{"geometry":{"coordinates":[5.823934,46.380657],"type":"Point"},"properties":{"osm_id":"6542298938","tag":{"amenity":"recycling","recycling:waste":"yes","recycling_type":"container"}},"type":"Feature"},
	{"geometry":{"coordinates":[5.823928,46.380677],"type":"Point"},"properties":{"osm_id":"6542298939","tag":{"amenity":"recycling","recycling_type":"container"}},"type":"Feature"},
	{"geometry":{"coordinates":[5.873575,46.377545],"type":"Point"},"properties":{"osm_id":"6544227271","tag":{"amenity":"recycling","colour":"blue","recycling_type":"container"}},"type":"Feature"},
	{"geometry":{"coordinates":[5.873552,46.37753],"type":"Point"},"properties":{"osm_id":"6544227272","tag":{"amenity":"recycling","colour":"black","recycling:waste":"yes","recycling_type":"container"}},"type":"Feature"},
	{"geometry":{"coordinates":[5.873511,46.377511],"type":"Point"},"properties":{"name":"Conteneur \u00c3\u00a0 verre","osm_id":"6544227273","tag":{"amenity":"recycling","colour":"green","recycling:glass_bottles":"yes","recycling_type":"container"}},"type":"Feature"},
	{"geometry":{"coordinates":[5.868259,46.38543],"type":"Point"},"properties":{"osm_id":"6544308519","tag":{"amenity":"waste_basket"}},"type":"Feature"},
	{"geometry":{"coordinates":[5.869086,46.384781],"type":"Point"},"properties":{"osm_id":"6544308522","tag":{"amenity":"waste_basket"}},"type":"Feature"},
	{"geometry":{"coordinates":[5.867585,46.386216],"type":"Point"},"properties":{"osm_id":"6544308528","tag":{"amenity":"waste_basket"}},"type":"Feature"},
	{"geometry":{"coordinates":[5.865688,46.386913],"type":"Point"},"properties":{"osm_id":"6544319813","tag":{"amenity":"waste_basket"}},"type":"Feature"},
	{"geometry":{"coordinates":[5.863022,46.421872],"type":"Point"},"properties":{"osm_id":"6555495462","tag":{"amenity":"recycling","colour":"blue","recycling_type":"container"}},"type":"Feature"},
	{"geometry":{"coordinates":[5.863039,46.421858],"type":"Point"},"properties":{"osm_id":"6555495463","tag":{"amenity":"recycling","colour":"black","recycling_type":"container"}},"type":"Feature"},
	{"geometry":{"coordinates":[5.863056,46.421844],"type":"Point"},"properties":{"osm_id":"6555495464","tag":{"amenity":"recycling","colour":"black","recycling_type":"container"}},"type":"Feature"},
	{"geometry":{"coordinates":[5.863084,46.421819],"type":"Point"},"properties":{"osm_id":"6555495465","tag":{"amenity":"recycling","colour":"green","recycling:glass_bottles":"yes","recycling_type":"container"}},"type":"Feature"},
	{"geometry":{"coordinates":[5.808044,46.432409],"type":"Point"},"properties":{"osm_id":"6716467400","tag":{"amenity":"recycling","recycling:glass":"yes","recycling:glass_bottles":"yes","recycling_type":"container"}},"type":"Feature"},
	{"geometry":{"coordinates":[5.860472,46.390111],"type":"Point"},"properties":{"osm_id":"7850879922","tag":{"amenity":"waste_basket"}},"type":"Feature"},
	{"geometry":{"coordinates":[5.860673,46.389766],"type":"Point"},"properties":{"osm_id":"7850891633","tag":{"amenity":"waste_basket"}},"type":"Feature"},
	{"geometry":{"coordinates":[5.860559,46.389789],"type":"Point"},"properties":{"osm_id":"7850908505","tag":{"amenity":"waste_basket"}},"type":"Feature"}
]
}
