{
"type": "FeatureCollection",
"features": [
	{"geometry":{"coordinates":[5.872635,46.377049],"type":"Point"},"properties":{"osm_id":"6544278595","tag":{"amenity":"waste_basket"}},"type":"Feature"},
	{"geometry":{"coordinates":[5.874934,46.369694],"type":"Point"},"properties":{"name":"Conteneur \u00c3\u00a0 verre","osm_id":"6544366370","tag":{"amenity":"recycling","colour":"green","recycling:glass_bottles":"yes","recycling_type":"container"}},"type":"Feature"},
	{"geometry":{"coordinates":[5.874942,46.369672],"type":"Point"},"properties":{"osm_id":"6544366371","tag":{"amenity":"recycling","colour":"black","recycling:waste":"yes","recycling_type":"container"}},"type":"Feature"},
	{"geometry":{"coordinates":[5.874958,46.369652],"type":"Point"},"properties":{"osm_id":"6544366372","tag":{"amenity":"recycling","colour":"black","recycling:waste":"yes","recycling_type":"container"}},"type":"Feature"},
	{"geometry":{"coordinates":[5.874968,46.369636],"type":"Point"},"properties":{"osm_id":"6544366373","tag":{"amenity":"recycling","colour":"blue","recycling_type":"container"}},"type":"Feature"},
	{"geometry":{"coordinates":[5.874982,46.369619],"type":"Point"},"properties":{"osm_id":"6544366374","tag":{"amenity":"recycling","colour":"blue","recycling_type":"container"}},"type":"Feature"},
	{"geometry":{"coordinates":[5.875009,46.369599],"type":"Point"},"properties":{"osm_id":"6544366375","tag":{"amenity":"recycling","operator":"Association Saint Michel le Haut","recycling:clothes":"yes","recycling:shoes":"yes","recycling_type":"container"}},"type":"Feature"},
	{"geometry":{"coordinates":[5.881944,46.367857],"type":"Point"},"properties":{"osm_id":"6544425705","tag":{"amenity":"recycling","colour":"black","recycling:waste":"yes","recycling_type":"container"}},"type":"Feature"},
	{"geometry":{"coordinates":[5.881973,46.367849],"type":"Point"},"properties":{"osm_id":"6544425706","tag":{"amenity":"recycling","colour":"blue","recycling_type":"container"}},"type":"Feature"}
]
}
