{
"type": "FeatureCollection",
"features": [
	{"geometry":{"coordinates":[5.826142,46.109005],"type":"Point"},"properties":{"name":"Containers Tri s\u00c3\u00a9lectif","osm_id":"1446804506","tag":{"amenity":"recycling","recycling_type":"container"}},"type":"Feature"},
	{"geometry":{"coordinates":[5.827092,46.115117],"type":"Point"},"properties":{"osm_id":"3287101832","tag":{"amenity":"recycling","recycling:glass":"yes","recycling_type":"container"}},"type":"Feature"},
	{"geometry":{"coordinates":[5.832524,46.123835],"type":"Point"},"properties":{"osm_id":"3287101848","tag":{"amenity":"recycling","recycling:glass":"yes","recycling:paper":"yes","recycling_type":"container"}},"type":"Feature"},
	{"geometry":{"coordinates":[5.862062,46.091613],"type":"Point"},"properties":{"osm_id":"5487328609","tag":{"amenity":"recycling","recycling_type":"container"}},"type":"Feature"},
	{"geometry":{"coordinates":[5.814111,46.119642],"type":"Point"},"properties":{"osm_id":"7019600206","tag":{"amenity":"waste_basket"}},"type":"Feature"},
	{"geometry":{"coordinates":[5.813791,46.119346],"type":"Point"},"properties":{"osm_id":"7019606217","tag":{"amenity":"waste_basket"}},"type":"Feature"},
	{"geometry":{"coordinates":[5.813694,46.119334],"type":"Point"},"properties":{"osm_id":"7019606218","tag":{"amenity":"waste_basket"}},"type":"Feature"},
	{"geometry":{"coordinates":[5.813414,46.119019],"type":"Point"},"properties":{"osm_id":"7019606219","tag":{"amenity":"waste_basket"}},"type":"Feature"},
	{"geometry":{"coordinates":[5.813492,46.118914],"type":"Point"},"properties":{"osm_id":"7019606220","tag":{"amenity":"recycling","recycling_type":"container"}},"type":"Feature"},
	{"geometry":{"coordinates":[5.813115,46.118714],"type":"Point"},"properties":{"osm_id":"7019612253","tag":{"amenity":"waste_basket"}},"type":"Feature"},
	{"geometry":{"coordinates":[5.81311,46.118579],"type":"Point"},"properties":{"osm_id":"7019612254","tag":{"amenity":"waste_basket"}},"type":"Feature"},
	{"geometry":{"coordinates":[5.81293,46.119091],"type":"Point"},"properties":{"osm_id":"7019633776","tag":{"amenity":"recycling","recycling:glass":"yes","recycling:glass_bottles":"yes","recycling:paper":"yes","recycling:plastic":"yes","recycling:plastic_bottles":"yes","recycling_type":"container"}},"type":"Feature"},
	{"geometry":{"coordinates":[5.81422,46.119808],"type":"Point"},"properties":{"osm_id":"7054693949","tag":{"amenity":"waste_basket"}},"type":"Feature"},
	{"geometry":{"coordinates":[5.813868,46.119536],"type":"Point"},"properties":{"osm_id":"7054693950","tag":{"amenity":"waste_basket"}},"type":"Feature"},
	{"geometry":{"coordinates":[5.813398,46.119199],"type":"Point"},"properties":{"osm_id":"7054708266","tag":{"amenity":"waste_basket"}},"type":"Feature"},
	{"geometry":{"coordinates":[5.815716,46.114568],"type":"Point"},"properties":{"osm_id":"7054733516","tag":{"amenity":"recycling","recycling_type":"container"}},"type":"Feature"},
	{"geometry":{"coordinates":[5.811979,46.119237],"type":"Point"},"properties":{"osm_id":"7054737220","tag":{"amenity":"waste_basket"}},"type":"Feature"},
	{"geometry":{"coordinates":[5.811809,46.121072],"type":"Point"},"properties":{"osm_id":"7054737221","tag":{"amenity":"waste_basket"}},"type":"Feature"},
	{"geometry":{"coordinates":[5.811674,46.122843],"type":"Point"},"properties":{"osm_id":"7069209167","tag":{"amenity":"recycling","recycling:glass":"yes","recycling_type":"container"}},"type":"Feature"},
	{"geometry":{"coordinates":[5.827903,46.125503],"type":"Point"},"properties":{"osm_id":"7518802736","tag":{"amenity":"recycling","recycling_type":"container"}},"type":"Feature"},
	{"geometry":{"coordinates":[5.825351,46.125749],"type":"Point"},"properties":{"osm_id":"7741775683","tag":{"amenity":"waste_basket"}},"type":"Feature"},
	{"geometry":{"coordinates":[5.825343,46.120618],"type":"Point"},"properties":{"osm_id":"7741775697","tag":{"amenity":"waste_basket"}},"type":"Feature"},
	{"geometry":{"coordinates":[5.824833,46.120823],"type":"Point"},"properties":{"osm_id":"7741775699","tag":{"amenity":"waste_basket"}},"type":"Feature"},
	{"geometry":{"coordinates":[5.834099,46.124258],"type":"Point"},"properties":{"osm_id":"7768006973","tag":{"amenity":"waste_basket"}},"type":"Feature"}
]
}
