{
"type": "FeatureCollection",
"features": [
	{"geometry":{"coordinates":[5.807689,45.214413],"type":"Point"},"properties":{"osm_id":"550267623","tag":{"amenity":"recycling","recycling:glass_bottles":"yes","recycling_type":"container"}},"type":"Feature"},
	{"geometry":{"coordinates":[5.811689,45.220205],"type":"Point"},"properties":{"osm_id":"550267817","tag":{"amenity":"recycling","recycling:glass_bottles":"yes","recycling_type":"container"}},"type":"Feature"},
	{"geometry":{"coordinates":[5.80897,45.217282],"type":"Point"},"properties":{"osm_id":"610232119","tag":{"amenity":"recycling","location":"overground","recycling:clothes":"yes","recycling:shoes":"yes","recycling_type":"container"}},"type":"Feature"},
	{"geometry":{"coordinates":[5.804697,45.228677],"type":"Point"},"properties":{"osm_id":"642455550","tag":{"amenity":"recycling","recycling:glass_bottles":"yes","recycling_type":"container"}},"type":"Feature"},
	{"geometry":{"coordinates":[5.818136,45.224127],"type":"Point"},"properties":{"osm_id":"2031581239","tag":{"amenity":"waste_basket"}},"type":"Feature"},
	{"geometry":{"coordinates":[5.808102,45.213444],"type":"Point"},"properties":{"osm_id":"2031635406","tag":{"amenity":"waste_basket"}},"type":"Feature"},
	{"geometry":{"coordinates":[5.808236,45.213464],"type":"Point"},"properties":{"osm_id":"2031635429","tag":{"amenity":"waste_basket"}},"type":"Feature"},
	{"geometry":{"coordinates":[5.810784,45.214361],"type":"Point"},"properties":{"osm_id":"4256125041","tag":{"addr:city":"Montbonnot-Saint-Martin","addr:postcode":"38330","addr:street":"Rue Blaise Pascal","amenity":"recycling","recycling:glass_bottles":"yes","recycling_type":"container"}},"type":"Feature"},
	{"geometry":{"coordinates":[5.869732,45.273012],"type":"Point"},"properties":{"osm_id":"4909268217","tag":{"amenity":"recycling","recycling:glass":"yes","recycling:glass_bottles":"yes","recycling_type":"container"}},"type":"Feature"},
	{"geometry":{"coordinates":[5.869711,45.273009],"type":"Point"},"properties":{"osm_id":"4909268218","tag":{"amenity":"recycling","recycling:magazines":"yes","recycling:newspaper":"yes","recycling:paper":"yes","recycling:paper_packaging":"yes","recycling_type":"container"}},"type":"Feature"},
	{"geometry":{"coordinates":[5.839679,45.225321],"type":"Point"},"properties":{"osm_id":"5635609774","tag":{"amenity":"waste_basket"}},"type":"Feature"},
	{"geometry":{"coordinates":[5.839693,45.225571],"type":"Point"},"properties":{"osm_id":"5635609775","tag":{"amenity":"waste_basket"}},"type":"Feature"},
	{"geometry":{"coordinates":[5.838741,45.224567],"type":"Point"},"properties":{"osm_id":"5635609776","tag":{"amenity":"recycling","recycling:glass":"yes","recycling_type":"container"}},"type":"Feature"},
	{"geometry":{"coordinates":[5.838775,45.22461],"type":"Point"},"properties":{"osm_id":"5635609778","tag":{"amenity":"waste_basket"}},"type":"Feature"},
	{"geometry":{"coordinates":[5.838549,45.224986],"type":"Point"},"properties":{"osm_id":"5635609783","tag":{"amenity":"waste_basket"}},"type":"Feature"},
	{"geometry":{"coordinates":[5.838407,45.224895],"type":"Point"},"properties":{"osm_id":"5635609784","tag":{"amenity":"waste_basket"}},"type":"Feature"},
	{"geometry":{"coordinates":[5.838238,45.225183],"type":"Point"},"properties":{"osm_id":"5635609785","tag":{"amenity":"waste_basket"}},"type":"Feature"},
	{"geometry":{"coordinates":[5.838154,45.225457],"type":"Point"},"properties":{"osm_id":"5635609786","tag":{"amenity":"waste_basket"}},"type":"Feature"},
	{"geometry":{"coordinates":[5.838866,45.225636],"type":"Point"},"properties":{"osm_id":"5635609787","tag":{"amenity":"waste_basket"}},"type":"Feature"},
	{"geometry":{"coordinates":[5.839104,45.225911],"type":"Point"},"properties":{"osm_id":"5635609789","tag":{"amenity":"waste_basket"}},"type":"Feature"},
	{"geometry":{"coordinates":[5.839609,45.226226],"type":"Point"},"properties":{"osm_id":"5635609794","tag":{"amenity":"waste_basket"}},"type":"Feature"},
	{"geometry":{"coordinates":[5.839292,45.226616],"type":"Point"},"properties":{"osm_id":"5635609810","tag":{"amenity":"waste_basket"}},"type":"Feature"},
	{"geometry":{"coordinates":[5.839128,45.22671],"type":"Point"},"properties":{"osm_id":"5635609811","tag":{"amenity":"waste_basket"}},"type":"Feature"},
	{"geometry":{"coordinates":[5.838825,45.226755],"type":"Point"},"properties":{"osm_id":"5635609812","tag":{"amenity":"waste_basket"}},"type":"Feature"},
	{"geometry":{"coordinates":[5.838523,45.226605],"type":"Point"},"properties":{"osm_id":"5635609813","tag":{"amenity":"waste_basket"}},"type":"Feature"},
	{"geometry":{"coordinates":[5.838465,45.226394],"type":"Point"},"properties":{"osm_id":"5635609814","tag":{"amenity":"waste_basket"}},"type":"Feature"},
	{"geometry":{"coordinates":[5.838616,45.226216],"type":"Point"},"properties":{"osm_id":"5635609815","tag":{"amenity":"waste_basket"}},"type":"Feature"},
	{"geometry":{"coordinates":[5.81364,45.219407],"type":"Point"},"properties":{"osm_id":"6332625421","tag":{"amenity":"waste_basket"}},"type":"Feature"},
	{"geometry":{"coordinates":[5.851411,45.249709],"type":"Point"},"properties":{"osm_id":"6534986586","tag":{"amenity":"recycling","recycling:glass_bottles":"yes","recycling:paper":"yes","recycling_type":"container"}},"type":"Feature"},
	{"geometry":{"coordinates":[5.875049,45.273782],"type":"Point"},"properties":{"osm_id":"7366840698","tag":{"amenity":"recycling","operator":"Communaut\u00c3\u00a9 de commune du Gr\u00c3\u00a9sivaudan","recycling:glass_bottles":"yes","recycling:paper":"yes","recycling:plastic":"no","recycling:plastic_packaging":"yes","recycling_type":"container"}},"type":"Feature"},
	{"geometry":{"coordinates":[5.80171,45.214269],"type":"Point"},"properties":{"osm_id":"7659228512","tag":{"amenity":"waste_basket"}},"type":"Feature"},
	{"geometry":{"coordinates":[5.8873,45.234487],"type":"Point"},"properties":{"osm_id":"7929090287","tag":{"amenity":"recycling","recycling:clothes":"yes","recycling:glass_bottles":"yes","recycling:paper":"yes","recycling:plastic":"yes","recycling_type":"container","survey:date":"2020-09-21"}},"type":"Feature"},
	{"geometry":{"coordinates":[5.886161,45.236147],"type":"Point"},"properties":{"osm_id":"7929090291","tag":{"amenity":"recycling","recycling:clothes":"no","recycling:glass_bottles":"yes","recycling:paper":"yes","recycling:plastic":"yes","recycling_type":"container","survey:date":"2020-09-21"}},"type":"Feature"},
	{"geometry":{"coordinates":[5.883789,45.23529],"type":"Point"},"properties":{"osm_id":"7929090386","tag":{"amenity":"recycling","recycling:clothes":"no","recycling:glass_bottles":"yes","recycling:paper":"yes","recycling:plastic":"yes","recycling_type":"container","survey:date":"2020-09-21"}},"type":"Feature"},
	{"geometry":{"coordinates":[5.883837,45.233074],"type":"Point"},"properties":{"osm_id":"7929090485","tag":{"amenity":"recycling","recycling:clothes":"no","recycling:glass_bottles":"yes","recycling:paper":"yes","recycling:plastic":"yes","recycling_type":"container","survey:date":"2020-09-21"}},"type":"Feature"},
	{"geometry":{"coordinates":[5.883171,45.233668],"type":"Point"},"properties":{"osm_id":"7929090585","tag":{"amenity":"recycling","recycling:clothes":"no","recycling:glass_bottles":"yes","recycling:paper":"yes","recycling:plastic":"yes","recycling_type":"container","survey:date":"2020-09-21"}},"type":"Feature"},
	{"geometry":{"coordinates":[5.88531,45.236867],"type":"Point"},"properties":{"osm_id":"7929090786","tag":{"amenity":"recycling","recycling:paper":"yes","recycling:plastic":"yes","recycling_type":"container","survey:date":"2020-09-21"}},"type":"Feature"},
	{"geometry":{"coordinates":[5.885646,45.237192],"type":"Point"},"properties":{"osm_id":"7929090887","tag":{"amenity":"recycling","recycling:glass_bottles":"yes","recycling:paper":"yes","recycling:plastic":"yes","recycling_type":"container","survey:date":"2020-09-21"}},"type":"Feature"}
]
}
