{
"type": "FeatureCollection",
"features": [
	{"geometry":{"coordinates":[5.88663,43.96636],"type":"Point"},"properties":{"osm_id":"6948141035","tag":{"amenity":"recycling","recycling:green_waste":"yes","recycling_type":"container"}},"type":"Feature"},
	{"geometry":{"coordinates":[5.887402,43.966754],"type":"Point"},"properties":{"osm_id":"8445433668","tag":{"amenity":"recycling","opening_hours":"24/7","recycling:glass_bottles":"yes","recycling_type":"container","wheelchair":"limited"}},"type":"Feature"},
	{"geometry":{"coordinates":[5.887436,43.966769],"type":"Point"},"properties":{"osm_id":"8445433681","tag":{"amenity":"recycling","opening_hours":"24/7","recycling:PET":"yes","recycling:plastic_bottles":"yes","recycling:plastic_packaging":"yes","recycling_type":"container","wheelchair":"limited"}},"type":"Feature"},
	{"geometry":{"coordinates":[5.887473,43.966767],"type":"Point"},"properties":{"osm_id":"8445433685","tag":{"amenity":"recycling","opening_hours":"24/7","recycling:paper":"yes","recycling_type":"container","wheelchair":"limited"}},"type":"Feature"}
]
}
