{
"type": "FeatureCollection",
"features": [
	{"geometry":{"coordinates":[5.806229,43.829384],"type":"Point"},"properties":{"osm_id":"2622374537","tag":{"amenity":"recycling","recycling:cans":"yes","recycling:clothes":"no","recycling:glass":"yes","recycling:paper":"yes"}},"type":"Feature"},
	{"geometry":{"coordinates":[5.80527,43.829669],"type":"Point"},"properties":{"osm_id":"2623508505","tag":{"amenity":"waste_disposal"}},"type":"Feature"},
	{"geometry":{"coordinates":[5.804186,43.829674],"type":"Point"},"properties":{"osm_id":"2829051260","tag":{"amenity":"recycling"}},"type":"Feature"},
	{"geometry":{"coordinates":[5.802502,43.830038],"type":"Point"},"properties":{"osm_id":"2856045892","tag":{"amenity":"waste_basket"}},"type":"Feature"},
	{"geometry":{"coordinates":[5.801704,43.82985],"type":"Point"},"properties":{"osm_id":"2856045894","tag":{"amenity":"waste_basket"}},"type":"Feature"},
	{"geometry":{"coordinates":[5.800814,43.822084],"type":"Point"},"properties":{"osm_id":"2856049463","tag":{"amenity":"waste_basket"}},"type":"Feature"},
	{"geometry":{"coordinates":[5.818704,43.803813],"type":"Point"},"properties":{"osm_id":"2975947198","tag":{"amenity":"recycling","recycling:cans":"yes","recycling:glass":"yes","recycling:paper":"yes"}},"type":"Feature"},
	{"geometry":{"coordinates":[5.806948,43.829767],"type":"Point"},"properties":{"osm_id":"3110958442","tag":{"amenity":"waste_basket"}},"type":"Feature"},
	{"geometry":{"coordinates":[5.805855,43.829864],"type":"Point"},"properties":{"osm_id":"3110958444","tag":{"amenity":"waste_basket"}},"type":"Feature"},
	{"geometry":{"coordinates":[5.801688,43.834396],"type":"Point"},"properties":{"osm_id":"3413085335","tag":{"amenity":"recycling","recycling:cans":"yes","recycling:glass":"yes","recycling:paper":"yes"}},"type":"Feature"},
	{"geometry":{"coordinates":[5.800785,43.827879],"type":"Point"},"properties":{"osm_id":"3506649561","tag":{"amenity":"waste_basket"}},"type":"Feature"},
	{"geometry":{"coordinates":[5.839595,43.832171],"type":"Point"},"properties":{"osm_id":"4215638529","tag":{"amenity":"waste_basket"}},"type":"Feature"},
	{"geometry":{"coordinates":[5.840012,43.832253],"type":"Point"},"properties":{"osm_id":"4215638530","tag":{"amenity":"waste_basket"}},"type":"Feature"},
	{"geometry":{"coordinates":[5.840624,43.83235],"type":"Point"},"properties":{"osm_id":"4215638531","tag":{"amenity":"waste_basket"}},"type":"Feature"},
	{"geometry":{"coordinates":[5.841068,43.832336],"type":"Point"},"properties":{"osm_id":"4215638532","tag":{"amenity":"waste_basket"}},"type":"Feature"},
	{"geometry":{"coordinates":[5.841539,43.832175],"type":"Point"},"properties":{"osm_id":"4215638533","tag":{"amenity":"waste_basket"}},"type":"Feature"},
	{"geometry":{"coordinates":[5.808677,43.790684],"type":"Point"},"properties":{"name":"V\u00c3\u00a9olia Propret\u00c3\u00a9 - Centre de Tri Multimat\u00c3\u00a9riaux","osm_id":"4420075386","tag":{"amenity":"recycling","recycling_type":"centre"}},"type":"Feature"},
	{"geometry":{"coordinates":[5.805312,43.831242],"type":"Point"},"properties":{"osm_id":"4471655290","tag":{"amenity":"recycling"}},"type":"Feature"},
	{"geometry":{"coordinates":[5.805308,43.831203],"type":"Point"},"properties":{"osm_id":"4472276153","tag":{"amenity":"waste_disposal"}},"type":"Feature"},
	{"geometry":{"coordinates":[5.804684,43.829231],"type":"Point"},"properties":{"osm_id":"4753205961","tag":{"amenity":"waste_basket"}},"type":"Feature"},
	{"geometry":{"coordinates":[5.804695,43.829466],"type":"Point"},"properties":{"osm_id":"4753207773","tag":{"amenity":"waste_basket"}},"type":"Feature"},
	{"geometry":{"coordinates":[5.80492,43.829018],"type":"Point"},"properties":{"osm_id":"4753225138","tag":{"amenity":"waste_basket"}},"type":"Feature"},
	{"geometry":{"coordinates":[5.8048,43.828622],"type":"Point"},"properties":{"osm_id":"4753225139","tag":{"amenity":"waste_basket"}},"type":"Feature"},
	{"geometry":{"coordinates":[5.810917,43.791817],"type":"Point"},"properties":{"osm_id":"5343503777","tag":{"amenity":"waste_disposal"}},"type":"Feature"},
	{"geometry":{"coordinates":[5.811183,43.792188],"type":"Point"},"properties":{"osm_id":"5343503780","tag":{"amenity":"waste_disposal"}},"type":"Feature"},
	{"geometry":{"coordinates":[5.80853,43.816274],"type":"Point"},"properties":{"osm_id":"7120162797","tag":{"amenity":"waste_disposal"}},"type":"Feature"}
]
}
