{
"type": "FeatureCollection",
"features": [
	{"geometry":{"coordinates":[5.848768,43.140291],"type":"Point"},"properties":{"osm_id":"457333956","tag":{"amenity":"recycling"}},"type":"Feature"},
	{"geometry":{"coordinates":[5.84754,43.140094],"type":"Point"},"properties":{"osm_id":"457333958","tag":{"amenity":"recycling"}},"type":"Feature"},
	{"geometry":{"coordinates":[5.851084,43.13786],"type":"Point"},"properties":{"osm_id":"2377798475","tag":{"amenity":"recycling"}},"type":"Feature"},
	{"geometry":{"coordinates":[5.886083,43.143032],"type":"Point"},"properties":{"osm_id":"3042008840","tag":{"amenity":"recycling","recycling:glass_bottles":"yes","recycling_type":"container"}},"type":"Feature"},
	{"geometry":{"coordinates":[5.884648,43.144685],"type":"Point"},"properties":{"osm_id":"3042008846","tag":{"amenity":"recycling","recycling:glass":"yes"}},"type":"Feature"},
	{"geometry":{"coordinates":[5.883725,43.139629],"type":"Point"},"properties":{"osm_id":"3061344715","tag":{"amenity":"waste_basket"}},"type":"Feature"},
	{"geometry":{"coordinates":[5.846236,43.163952],"type":"Point"},"properties":{"osm_id":"4349074907","tag":{"amenity":"recycling"}},"type":"Feature"},
	{"geometry":{"coordinates":[5.846247,43.163939],"type":"Point"},"properties":{"osm_id":"4349123293","tag":{"amenity":"waste_disposal"}},"type":"Feature"},
	{"geometry":{"coordinates":[5.848417,43.136181],"type":"Point"},"properties":{"osm_id":"7433020985","tag":{"amenity":"recycling","recycling:batteries":"yes","recycling:cans":"yes","recycling:glass_bottles":"yes","recycling:paper":"yes","recycling_type":"container"}},"type":"Feature"},
	{"geometry":{"coordinates":[5.85042,43.137688],"type":"Point"},"properties":{"osm_id":"7944360917","tag":{"amenity":"waste_basket","material":"metal"}},"type":"Feature"}
]
}
