{
"type": "FeatureCollection",
"features": [
	{"geometry":{"coordinates":[5.882694,43.099312],"type":"Point"},"properties":{"osm_id":"288861220","tag":{"amenity":"recycling","recycling:cans":"yes","recycling:cardboard":"yes","recycling:glass_bottles":"yes","recycling:paper":"yes","recycling:plastic":"yes"}},"type":"Feature"},
	{"geometry":{"coordinates":[5.856101,43.084157],"type":"Point"},"properties":{"osm_id":"288865604","tag":{"amenity":"recycling"}},"type":"Feature"},
	{"geometry":{"coordinates":[5.88061,43.085355],"type":"Point"},"properties":{"osm_id":"289248212","tag":{"amenity":"recycling","recycling:cans":"yes","recycling:cardboard":"yes","recycling:glass_bottles":"yes","recycling:paper":"yes"}},"type":"Feature"},
	{"geometry":{"coordinates":[5.885357,43.101111],"type":"Point"},"properties":{"osm_id":"291447834","tag":{"amenity":"recycling","location":"overground","recycling:glass_bottles":"yes","recycling_type":"container"}},"type":"Feature"},
	{"geometry":{"coordinates":[5.876688,43.09626],"type":"Point"},"properties":{"osm_id":"291447864","tag":{"amenity":"recycling","recycling:cardboard":"yes","recycling:glass_bottles":"yes","recycling:paper":"yes","recycling:plastic":"yes"}},"type":"Feature"},
	{"geometry":{"coordinates":[5.880779,43.085455],"type":"Point"},"properties":{"osm_id":"293180364","tag":{"amenity":"recycling","recycling:clothes":"yes"}},"type":"Feature"},
	{"geometry":{"coordinates":[5.873975,43.124465],"type":"Point"},"properties":{"osm_id":"293996970","tag":{"amenity":"recycling","recycling:cardboard":"yes","recycling:glass_bottles":"yes","recycling:paper":"yes","recycling:plastic":"yes"}},"type":"Feature"},
	{"geometry":{"coordinates":[5.877624,43.111498],"type":"Point"},"properties":{"osm_id":"295791790","tag":{"amenity":"recycling","recycling:cardboard":"yes","recycling:glass_bottles":"yes","recycling:paper":"yes","recycling:plastic":"yes"}},"type":"Feature"},
	{"geometry":{"coordinates":[5.882079,43.098783],"type":"Point"},"properties":{"osm_id":"295992137","tag":{"amenity":"recycling","recycling:glass_bottles":"yes"}},"type":"Feature"},
	{"geometry":{"coordinates":[5.858848,43.080255],"type":"Point"},"properties":{"osm_id":"295992139","tag":{"amenity":"recycling","recycling:glass_bottles":"yes"}},"type":"Feature"},
	{"geometry":{"coordinates":[5.86231,43.083109],"type":"Point"},"properties":{"osm_id":"295992175","tag":{"amenity":"recycling","recycling:glass_bottles":"yes"}},"type":"Feature"},
	{"geometry":{"coordinates":[5.857317,43.113186],"type":"Point"},"properties":{"osm_id":"297474102","tag":{"amenity":"recycling","recycling:cardboard":"yes","recycling:glass_bottles":"yes","recycling:paper":"yes","recycling:plastic":"yes"}},"type":"Feature"},
	{"geometry":{"coordinates":[5.888235,43.084797],"type":"Point"},"properties":{"osm_id":"297614947","tag":{"amenity":"recycling","recycling:cardboard":"yes","recycling:clothes":"yes","recycling:glass_bottles":"yes","recycling:paper":"yes","recycling:plastic":"yes","recycling:shoes":"yes"}},"type":"Feature"},
	{"geometry":{"coordinates":[5.872072,43.071974],"type":"Point"},"properties":{"osm_id":"297614977","tag":{"amenity":"recycling","recycling:glass_bottles":"yes"}},"type":"Feature"},
	{"geometry":{"coordinates":[5.854224,43.071149],"type":"Point"},"properties":{"osm_id":"297615318","tag":{"amenity":"recycling","recycling:glass_bottles":"yes","recycling:plastic":"yes"}},"type":"Feature"},
	{"geometry":{"coordinates":[5.854577,43.071005],"type":"Point"},"properties":{"osm_id":"297615323","tag":{"amenity":"recycling","recycling:glass_bottles":"yes"}},"type":"Feature"},
	{"geometry":{"coordinates":[5.879647,43.079222],"type":"Point"},"properties":{"osm_id":"522125229","tag":{"amenity":"recycling","recycling:glass_bottles":"yes"}},"type":"Feature"},
	{"geometry":{"coordinates":[5.807408,43.076079],"type":"Point"},"properties":{"osm_id":"1265155544","tag":{"amenity":"recycling"}},"type":"Feature"},
	{"geometry":{"coordinates":[5.882304,43.085485],"type":"Point"},"properties":{"osm_id":"1314158271","tag":{"amenity":"recycling"}},"type":"Feature"},
	{"geometry":{"coordinates":[5.818946,43.103744],"type":"Point"},"properties":{"osm_id":"2329272740","tag":{"amenity":"recycling","recycling:cans":"yes","recycling:clothes":"no","recycling:glass":"yes","recycling:paper":"yes","recycling_type":"container"}},"type":"Feature"},
	{"geometry":{"coordinates":[5.814021,43.107328],"type":"Point"},"properties":{"osm_id":"2348395868","tag":{"amenity":"waste_basket"}},"type":"Feature"},
	{"geometry":{"coordinates":[5.812961,43.109505],"type":"Point"},"properties":{"osm_id":"2348395870","tag":{"amenity":"waste_basket"}},"type":"Feature"},
	{"geometry":{"coordinates":[5.883922,43.101494],"type":"Point"},"properties":{"osm_id":"2379194333","tag":{"amenity":"waste_disposal"}},"type":"Feature"},
	{"geometry":{"coordinates":[5.883929,43.101504],"type":"Point"},"properties":{"osm_id":"2379194334","tag":{"amenity":"waste_disposal"}},"type":"Feature"},
	{"geometry":{"coordinates":[5.88391,43.101512],"type":"Point"},"properties":{"osm_id":"2379194335","tag":{"amenity":"recycling","description":"Conteneur de recyclage jaune","recycling:cans":"yes","recycling:cartons":"yes","recycling:paper_packaging":"yes","recycling:plastic_bottles":"yes","recycling:plastic_packaging":"yes","recycling_type":"container"}},"type":"Feature"},
	{"geometry":{"coordinates":[5.883885,43.101518],"type":"Point"},"properties":{"osm_id":"2379194337","tag":{"amenity":"waste_disposal"}},"type":"Feature"},
	{"geometry":{"coordinates":[5.88386,43.101527],"type":"Point"},"properties":{"osm_id":"2379194338","tag":{"amenity":"recycling","description":"Conteneur de recyclage verte","recycling:glass":"yes","recycling:glass_bottles":"yes","recycling_type":"container"}},"type":"Feature"},
	{"geometry":{"coordinates":[5.826359,43.097929],"type":"Point"},"properties":{"osm_id":"3047104293","tag":{"amenity":"recycling","recycling:cans":"yes","recycling:clothes":"yes","recycling:glass":"yes","recycling:paper":"yes"}},"type":"Feature"},
	{"geometry":{"coordinates":[5.831309,43.098466],"type":"Point"},"properties":{"osm_id":"3068944552","tag":{"amenity":"recycling","recycling:cans":"no","recycling:glass":"no","recycling:paper":"yes"}},"type":"Feature"},
	{"geometry":{"coordinates":[5.849094,43.117],"type":"Point"},"properties":{"osm_id":"3079041957","tag":{"amenity":"recycling","recycling:clothes":"no","recycling:glass":"yes","recycling:paper":"yes"}},"type":"Feature"},
	{"geometry":{"coordinates":[5.848986,43.117291],"type":"Point"},"properties":{"osm_id":"3079041958","tag":{"amenity":"recycling","recycling:cans":"no","recycling:clothes":"no","recycling:glass":"yes","recycling:paper":"no"}},"type":"Feature"},
	{"geometry":{"coordinates":[5.81384,43.109808],"type":"Point"},"properties":{"osm_id":"3087558963","tag":{"amenity":"recycling","recycling:cans":"yes","recycling:glass":"yes","recycling:paper":"yes"}},"type":"Feature"},
	{"geometry":{"coordinates":[5.815063,43.099942],"type":"Point"},"properties":{"osm_id":"3087558964","tag":{"amenity":"recycling","recycling:cans":"no","recycling:paper":"yes"}},"type":"Feature"},
	{"geometry":{"coordinates":[5.852102,43.093882],"type":"Point"},"properties":{"osm_id":"3091568205","tag":{"amenity":"recycling"}},"type":"Feature"},
	{"geometry":{"coordinates":[5.869691,43.125225],"type":"Point"},"properties":{"osm_id":"5642586555","tag":{"amenity":"waste_basket"}},"type":"Feature"},
	{"geometry":{"coordinates":[5.869182,43.125359],"type":"Point"},"properties":{"osm_id":"5642586556","tag":{"amenity":"waste_basket"}},"type":"Feature"},
	{"geometry":{"coordinates":[5.86936,43.125427],"type":"Point"},"properties":{"osm_id":"5657161519","tag":{"amenity":"waste_basket"}},"type":"Feature"},
	{"geometry":{"coordinates":[5.868953,43.125453],"type":"Point"},"properties":{"osm_id":"5657161520","tag":{"amenity":"waste_basket"}},"type":"Feature"},
	{"geometry":{"coordinates":[5.868945,43.125267],"type":"Point"},"properties":{"osm_id":"5657161721","tag":{"amenity":"waste_basket"}},"type":"Feature"},
	{"geometry":{"coordinates":[5.870519,43.126595],"type":"Point"},"properties":{"osm_id":"5670387534","tag":{"amenity":"waste_basket"}},"type":"Feature"},
	{"geometry":{"coordinates":[5.870718,43.126722],"type":"Point"},"properties":{"osm_id":"5670387535","tag":{"amenity":"waste_basket"}},"type":"Feature"},
	{"geometry":{"coordinates":[5.869961,43.126618],"type":"Point"},"properties":{"osm_id":"5670387536","tag":{"amenity":"waste_basket"}},"type":"Feature"},
	{"geometry":{"coordinates":[5.88015,43.128327],"type":"Point"},"properties":{"osm_id":"5670387542","tag":{"amenity":"waste_basket"}},"type":"Feature"},
	{"geometry":{"coordinates":[5.879728,43.128529],"type":"Point"},"properties":{"osm_id":"5670388023","tag":{"amenity":"waste_basket"}},"type":"Feature"},
	{"geometry":{"coordinates":[5.887546,43.128713],"type":"Point"},"properties":{"osm_id":"5670388026","tag":{"amenity":"waste_basket"}},"type":"Feature"},
	{"geometry":{"coordinates":[5.879981,43.128484],"type":"Point"},"properties":{"osm_id":"5670389023","tag":{"amenity":"waste_basket"}},"type":"Feature"},
	{"geometry":{"coordinates":[5.842493,43.114259],"type":"Point"},"properties":{"osm_id":"6634767785","tag":{"amenity":"waste_disposal","operator":"D\u00c3\u00a9chets Verts"}},"type":"Feature"},
	{"geometry":{"coordinates":[5.842389,43.114335],"type":"Point"},"properties":{"barrier":"gate","osm_id":"6702424413"},"type":"Feature"},
	{"geometry":{"coordinates":[5.842401,43.114235],"type":"Point"},"properties":{"barrier":"gate","osm_id":"6702424421"},"type":"Feature"},
	{"geometry":{"coordinates":[5.844426,43.132724],"type":"Point"},"properties":{"osm_id":"7791903750","tag":{"amenity":"recycling","recycling_type":"container"}},"type":"Feature"},
	{"geometry":{"coordinates":[5.844513,43.132768],"type":"Point"},"properties":{"osm_id":"7791903751","tag":{"access":"yes","amenity":"waste_disposal"}},"type":"Feature"},
	{"geometry":{"coordinates":[5.843745,43.132575],"type":"Point"},"properties":{"osm_id":"7791903754","tag":{"amenity":"waste_disposal"}},"type":"Feature"},
	{"geometry":{"coordinates":[5.842477,43.111256],"type":"Point"},"properties":{"osm_id":"7948610259","tag":{"amenity":"recycling","location":"overground","recycling:glass_bottles":"yes","recycling_type":"container"}},"type":"Feature"}
]
}
