{
"type": "FeatureCollection",
"features": [
	{"geometry":{"coordinates":[135.709159,34.959075],"type":"Point"},"properties":{"osm_id":"2162824642","tag":{"amenity":"recycling","recycling:cans":"yes","recycling:glass":"yes","recycling:scrap_metal":"yes"}},"type":"Feature"},
	{"geometry":{"coordinates":[135.707808,34.958687],"type":"Point"},"properties":{"osm_id":"2168185757","tag":{"amenity":"recycling","recycling:cans":"yes","recycling:glass":"yes","recycling:scrap_metal":"yes"}},"type":"Feature"},
	{"geometry":{"coordinates":[135.706422,34.958007],"type":"Point"},"properties":{"osm_id":"2175001045","tag":{"amenity":"recycling","recycling:batteries":"no","recycling:cans":"yes","recycling:clothes":"no","recycling:glass":"yes","recycling:scrap_metal":"yes"}},"type":"Feature"},
	{"geometry":{"coordinates":[135.703923,34.958776],"type":"Point"},"properties":{"osm_id":"2180712478","tag":{"amenity":"recycling","recycling:cans":"yes","recycling:glass":"yes","recycling:scrap_metal":"yes"}},"type":"Feature"},
	{"geometry":{"coordinates":[135.704614,34.959644],"type":"Point"},"properties":{"osm_id":"2180712488","tag":{"amenity":"recycling","recycling:cans":"yes","recycling:glass":"yes","recycling:scrap_metal":"yes"}},"type":"Feature"},
	{"geometry":{"coordinates":[135.706084,34.960257],"type":"Point"},"properties":{"osm_id":"2180712499","tag":{"amenity":"recycling","recycling:cans":"yes","recycling:glass":"yes","recycling:scrap_metal":"yes"}},"type":"Feature"},
	{"geometry":{"coordinates":[135.703397,34.958416],"type":"Point"},"properties":{"osm_id":"2193468772","tag":{"amenity":"recycling","recycling:cans":"yes","recycling:glass":"yes","recycling:scrap_metal":"yes"}},"type":"Feature"},
	{"geometry":{"coordinates":[135.703303,34.958815],"type":"Point"},"properties":{"osm_id":"2193468823","tag":{"amenity":"recycling","recycling:cans":"yes","recycling:glass":"yes","recycling:scrap_metal":"yes"}},"type":"Feature"},
	{"geometry":{"coordinates":[135.703869,34.961005],"type":"Point"},"properties":{"osm_id":"2801019098","tag":{"amenity":"recycling","recycling:cans":"yes","recycling:glass":"yes","recycling:glass_bottles":"yes","recycling:plastic":"yes","recycling:plastic_bottles":"yes","recycling:plastic_packaging":"yes","recycling:scrap_metal":"yes","recycling_type":"container"}},"type":"Feature"},
	{"geometry":{"coordinates":[135.783968,35.012183],"type":"Point"},"properties":{"osm_id":"2959430135","tag":{"amenity":"waste_basket"}},"type":"Feature"},
	{"geometry":{"coordinates":[135.784212,35.013692],"type":"Point"},"properties":{"osm_id":"3065368499","tag":{"amenity":"waste_basket","recycling:cans":"yes","recycling:plastic_bottles":"yes"}},"type":"Feature"},
	{"geometry":{"coordinates":[135.788447,35.018795],"type":"Point"},"properties":{"name":"\u00e6\u0089\u008b\u00e6\u00a1\u00b6\u00e7\u00bd\u00ae\u00e5\u00a0\u00b4","osm_id":"3365897573","tag":{"amenity":"recycling","description":"\u00e6\u0089\u008b\u00e6\u00a1\u00b6/\u00e3\u0083\u0090\u00e3\u0082\u00b1\u00e3\u0083\u0084/\u00e3\u0081\u00bb\u00e3\u0081\u0086\u00e3\u0081\u008d","recycling_type":"container"}},"type":"Feature"},
	{"geometry":{"coordinates":[135.706016,34.962645],"type":"Point"},"properties":{"osm_id":"3414415518","tag":{"amenity":"recycling","recycling:cans":"yes","recycling:glass":"yes","recycling:scrap_metal":"yes"}},"type":"Feature"},
	{"geometry":{"coordinates":[135.782981,34.995494],"type":"Point"},"properties":{"osm_id":"3464136472","tag":{"amenity":"waste_basket"}},"type":"Feature"},
	{"geometry":{"coordinates":[135.782972,34.995621],"type":"Point"},"properties":{"osm_id":"3464136483","tag":{"amenity":"waste_basket"}},"type":"Feature"},
	{"geometry":{"coordinates":[135.784072,34.994854],"type":"Point"},"properties":{"osm_id":"3475015546","tag":{"amenity":"waste_basket"}},"type":"Feature"},
	{"geometry":{"coordinates":[135.785507,34.995004],"type":"Point"},"properties":{"osm_id":"3475118097","tag":{"amenity":"waste_basket"}},"type":"Feature"},
	{"geometry":{"coordinates":[135.746644,34.98173],"type":"Point"},"properties":{"osm_id":"3645345393","tag":{"amenity":"waste_basket"}},"type":"Feature"},
	{"geometry":{"coordinates":[135.7474,34.981797],"type":"Point"},"properties":{"osm_id":"3645353293","tag":{"amenity":"waste_basket"}},"type":"Feature"},
	{"geometry":{"coordinates":[135.748496,34.980359],"type":"Point"},"properties":{"osm_id":"3645361594","tag":{"amenity":"waste_basket"}},"type":"Feature"},
	{"geometry":{"coordinates":[135.748167,34.980751],"type":"Point"},"properties":{"osm_id":"3645361595","tag":{"amenity":"waste_basket"}},"type":"Feature"},
	{"geometry":{"coordinates":[135.748883,34.980394],"type":"Point"},"properties":{"osm_id":"3645598055","tag":{"amenity":"waste_basket"}},"type":"Feature"},
	{"geometry":{"coordinates":[135.748467,34.980867],"type":"Point"},"properties":{"osm_id":"3647142044","tag":{"amenity":"waste_basket"}},"type":"Feature"},
	{"geometry":{"coordinates":[135.74856,34.97942],"type":"Point"},"properties":{"osm_id":"3650844330","tag":{"amenity":"waste_basket"}},"type":"Feature"},
	{"geometry":{"coordinates":[135.749208,34.980215],"type":"Point"},"properties":{"osm_id":"3677202701","tag":{"amenity":"waste_basket"}},"type":"Feature"},
	{"geometry":{"coordinates":[135.74921,34.980223],"type":"Point"},"properties":{"osm_id":"3677202702","tag":{"amenity":"waste_basket"}},"type":"Feature"},
	{"geometry":{"coordinates":[135.749213,34.981211],"type":"Point"},"properties":{"osm_id":"3677202705","tag":{"amenity":"waste_basket"}},"type":"Feature"},
	{"geometry":{"coordinates":[135.748934,34.982283],"type":"Point"},"properties":{"osm_id":"3677532851","tag":{"amenity":"waste_basket"}},"type":"Feature"},
	{"geometry":{"coordinates":[135.747766,34.983297],"type":"Point"},"properties":{"osm_id":"3677615843","tag":{"amenity":"waste_basket"}},"type":"Feature"},
	{"geometry":{"coordinates":[135.746981,34.979362],"type":"Point"},"properties":{"osm_id":"3682587431","tag":{"amenity":"waste_basket"}},"type":"Feature"},
	{"geometry":{"coordinates":[135.746985,34.979362],"type":"Point"},"properties":{"osm_id":"3682587433","tag":{"amenity":"waste_basket"}},"type":"Feature"},
	{"geometry":{"coordinates":[135.748571,34.979421],"type":"Point"},"properties":{"osm_id":"3682587441","tag":{"amenity":"waste_basket"}},"type":"Feature"},
	{"geometry":{"coordinates":[135.747919,34.981203],"type":"Point"},"properties":{"osm_id":"3696207803","tag":{"amenity":"waste_basket"}},"type":"Feature"},
	{"geometry":{"coordinates":[135.751249,34.990526],"type":"Point"},"properties":{"osm_id":"3770147149","tag":{"amenity":"waste_basket"}},"type":"Feature"},
	{"geometry":{"coordinates":[135.751316,34.990526],"type":"Point"},"properties":{"osm_id":"3770147150","tag":{"amenity":"waste_basket"}},"type":"Feature"},
	{"geometry":{"coordinates":[135.752007,34.991295],"type":"Point"},"properties":{"osm_id":"3770149003","tag":{"amenity":"waste_basket"}},"type":"Feature"},
	{"geometry":{"coordinates":[135.752003,34.991513],"type":"Point"},"properties":{"osm_id":"3770206473","tag":{"amenity":"waste_basket"}},"type":"Feature"},
	{"geometry":{"coordinates":[135.713582,35.028136],"type":"Point"},"properties":{"osm_id":"3780487809","tag":{"amenity":"waste_basket"}},"type":"Feature"},
	{"geometry":{"coordinates":[135.716037,35.028414],"type":"Point"},"properties":{"osm_id":"3789909426","tag":{"amenity":"waste_basket"}},"type":"Feature"},
	{"geometry":{"coordinates":[135.716041,35.028416],"type":"Point"},"properties":{"osm_id":"3789909427","tag":{"amenity":"waste_basket"}},"type":"Feature"},
	{"geometry":{"coordinates":[135.715612,35.02895],"type":"Point"},"properties":{"osm_id":"3789915135","tag":{"amenity":"waste_basket"}},"type":"Feature"},
	{"geometry":{"coordinates":[135.71561,35.028957],"type":"Point"},"properties":{"osm_id":"3789915136","tag":{"amenity":"waste_basket"}},"type":"Feature"},
	{"geometry":{"coordinates":[135.714148,35.02801],"type":"Point"},"properties":{"osm_id":"3790096183","tag":{"amenity":"waste_basket"}},"type":"Feature"},
	{"geometry":{"coordinates":[135.713581,35.028129],"type":"Point"},"properties":{"osm_id":"3790096207","tag":{"amenity":"waste_basket"}},"type":"Feature"},
	{"geometry":{"coordinates":[135.713975,35.029761],"type":"Point"},"properties":{"osm_id":"3790488846","tag":{"amenity":"waste_basket"}},"type":"Feature"},
	{"geometry":{"coordinates":[135.713917,35.029865],"type":"Point"},"properties":{"osm_id":"3790488851","tag":{"amenity":"waste_basket"}},"type":"Feature"},
	{"geometry":{"coordinates":[135.751363,35.013388],"type":"Point"},"properties":{"osm_id":"3814972222","tag":{"amenity":"waste_basket"}},"type":"Feature"},
	{"geometry":{"coordinates":[135.747996,35.012952],"type":"Point"},"properties":{"osm_id":"3824534909","tag":{"amenity":"waste_basket"}},"type":"Feature"},
	{"geometry":{"coordinates":[135.748984,35.014794],"type":"Point"},"properties":{"osm_id":"3826718275","tag":{"amenity":"waste_basket"}},"type":"Feature"},
	{"geometry":{"coordinates":[135.748968,35.014841],"type":"Point"},"properties":{"osm_id":"3826718277","tag":{"amenity":"waste_basket"}},"type":"Feature"},
	{"geometry":{"coordinates":[135.750492,35.012942],"type":"Point"},"properties":{"osm_id":"3835233316","tag":{"amenity":"waste_basket"}},"type":"Feature"},
	{"geometry":{"coordinates":[135.750491,35.01295],"type":"Point"},"properties":{"osm_id":"3835233318","tag":{"amenity":"waste_basket"}},"type":"Feature"},
	{"geometry":{"coordinates":[135.746341,35.014252],"type":"Point"},"properties":{"osm_id":"3835660472","tag":{"amenity":"waste_basket"}},"type":"Feature"},
	{"geometry":{"coordinates":[135.746333,35.014288],"type":"Point"},"properties":{"osm_id":"3835660474","tag":{"amenity":"waste_basket"}},"type":"Feature"},
	{"geometry":{"coordinates":[135.746334,35.014295],"type":"Point"},"properties":{"osm_id":"3835660475","tag":{"amenity":"waste_basket"}},"type":"Feature"},
	{"geometry":{"coordinates":[135.747975,35.012953],"type":"Point"},"properties":{"osm_id":"3841124538","tag":{"amenity":"waste_basket"}},"type":"Feature"},
	{"geometry":{"coordinates":[135.746313,35.014313],"type":"Point"},"properties":{"osm_id":"3841125507","tag":{"amenity":"waste_basket"}},"type":"Feature"},
	{"geometry":{"coordinates":[135.746306,35.014314],"type":"Point"},"properties":{"osm_id":"3841125508","tag":{"amenity":"waste_basket"}},"type":"Feature"},
	{"geometry":{"coordinates":[135.7463,35.014315],"type":"Point"},"properties":{"osm_id":"3841125509","tag":{"amenity":"waste_basket"}},"type":"Feature"},
	{"geometry":{"coordinates":[135.782073,35.015385],"type":"Point"},"properties":{"osm_id":"4260899252","tag":{"amenity":"waste_basket"}},"type":"Feature"},
	{"geometry":{"coordinates":[135.781856,35.012716],"type":"Point"},"properties":{"osm_id":"4319686760","tag":{"amenity":"waste_basket"}},"type":"Feature"},
	{"geometry":{"coordinates":[135.781855,35.012726],"type":"Point"},"properties":{"osm_id":"4319686765","tag":{"amenity":"waste_basket"}},"type":"Feature"},
	{"geometry":{"coordinates":[135.78205,35.013235],"type":"Point"},"properties":{"osm_id":"4328536957","tag":{"amenity":"waste_basket"}},"type":"Feature"},
	{"geometry":{"coordinates":[135.78205,35.01325],"type":"Point"},"properties":{"osm_id":"4328536962","tag":{"amenity":"waste_basket"}},"type":"Feature"},
	{"geometry":{"coordinates":[135.78205,35.013258],"type":"Point"},"properties":{"osm_id":"4328536963","tag":{"amenity":"waste_basket"}},"type":"Feature"},
	{"geometry":{"coordinates":[135.78205,35.013274],"type":"Point"},"properties":{"osm_id":"4328536966","tag":{"amenity":"waste_basket"}},"type":"Feature"},
	{"geometry":{"coordinates":[135.767868,34.968258],"type":"Point"},"properties":{"osm_id":"4377426889","tag":{"amenity":"waste_basket"}},"type":"Feature"},
	{"geometry":{"coordinates":[135.782632,35.01168],"type":"Point"},"properties":{"osm_id":"4933503721","tag":{"amenity":"waste_basket"}},"type":"Feature"},
	{"geometry":{"coordinates":[135.780813,34.998407],"type":"Point"},"properties":{"osm_id":"5273139140","tag":{"amenity":"waste_basket"}},"type":"Feature"},
	{"geometry":{"coordinates":[135.78008,34.999598],"type":"Point"},"properties":{"osm_id":"5273140616","tag":{"amenity":"waste_basket","smoking":"yes","waste":"cigarettes"}},"type":"Feature"},
	{"geometry":{"coordinates":[135.767561,35.004907],"type":"Point"},"properties":{"osm_id":"5287494126","tag":{"amenity":"waste_basket"}},"type":"Feature"},
	{"geometry":{"coordinates":[135.767838,35.005022],"type":"Point"},"properties":{"osm_id":"5287494127","tag":{"amenity":"waste_basket"}},"type":"Feature"},
	{"geometry":{"coordinates":[135.767716,35.004907],"type":"Point"},"properties":{"osm_id":"5287494198","tag":{"amenity":"waste_basket","waste":"cigarettes"}},"type":"Feature"},
	{"geometry":{"coordinates":[135.767739,35.004908],"type":"Point"},"properties":{"osm_id":"5287494199","tag":{"amenity":"waste_basket","waste":"cigarettes"}},"type":"Feature"},
	{"geometry":{"coordinates":[135.767697,35.004907],"type":"Point"},"properties":{"osm_id":"5287494200","tag":{"amenity":"waste_basket","waste":"cigarettes"}},"type":"Feature"},
	{"geometry":{"coordinates":[135.784119,34.994831],"type":"Point"},"properties":{"osm_id":"5468727781","tag":{"amenity":"waste_basket","waste":"trash"}},"type":"Feature"},
	{"geometry":{"coordinates":[135.784113,34.994833],"type":"Point"},"properties":{"osm_id":"5468727782","tag":{"amenity":"waste_basket","waste":"trash"}},"type":"Feature"},
	{"geometry":{"coordinates":[135.784108,34.994835],"type":"Point"},"properties":{"osm_id":"5468727783","tag":{"amenity":"waste_basket","waste":"trash"}},"type":"Feature"},
	{"geometry":{"coordinates":[135.784104,34.994836],"type":"Point"},"properties":{"osm_id":"5468727784","tag":{"amenity":"waste_basket","waste":"trash"}},"type":"Feature"},
	{"geometry":{"coordinates":[135.760346,35.018245],"type":"Point"},"properties":{"osm_id":"6017277048","tag":{"amenity":"waste_basket","vending":"drinks","waste":"trash"}},"type":"Feature"},
	{"geometry":{"coordinates":[135.760016,34.989054],"type":"Point"},"properties":{"osm_id":"6033923585","tag":{"amenity":"waste_basket"}},"type":"Feature"},
	{"geometry":{"coordinates":[135.77482,34.989643],"type":"Point"},"properties":{"osm_id":"7025156986","tag":{"amenity":"waste_basket"}},"type":"Feature"},
	{"geometry":{"coordinates":[135.770005,34.967865],"type":"Point"},"properties":{"osm_id":"7342978885","tag":{"amenity":"waste_disposal"}},"type":"Feature"},
	{"geometry":{"coordinates":[135.770028,34.96786],"type":"Point"},"properties":{"osm_id":"7342978886","tag":{"amenity":"waste_disposal"}},"type":"Feature"},
	{"geometry":{"coordinates":[135.770052,34.967854],"type":"Point"},"properties":{"osm_id":"7342978887","tag":{"amenity":"waste_disposal"}},"type":"Feature"},
	{"geometry":{"coordinates":[135.774035,35.001047],"type":"Point"},"properties":{"osm_id":"7930579482","tag":{"amenity":"waste_basket"}},"type":"Feature"}
]
}
