{
"type": "FeatureCollection",
"features": [
	{"geometry":{"coordinates":[0.699035,49.863132],"type":"Point"},"properties":{"osm_id":"2355229724","tag":{"amenity":"recycling","recycling:glass":"yes","recycling:paper":"yes"}},"type":"Feature"},
	{"geometry":{"coordinates":[0.701675,49.861336],"type":"Point"},"properties":{"osm_id":"4621009979","tag":{"access":"yes","amenity":"recycling","fee":"no","operator":"Communaut\u00c3\u00a9 de communes de la c\u00c3\u00b4te d'Alb\u00c3\u00a2tre","recycling:glass":"yes","recycling_type":"container","wheelchair":"no"}},"type":"Feature"},
	{"geometry":{"coordinates":[0.701638,49.861364],"type":"Point"},"properties":{"osm_id":"4621009980","tag":{"access":"yes","amenity":"recycling","fee":"no","operator":"Communaut\u00c3\u00a9 de communes de la c\u00c3\u00b4te d'Alb\u00c3\u00a2tre","recycling:cans":"yes","recycling:plastic":"yes","recycling_type":"container","wheelchair":"no"}},"type":"Feature"},
	{"geometry":{"coordinates":[0.701602,49.86139],"type":"Point"},"properties":{"osm_id":"4621009981","tag":{"access":"yes","amenity":"recycling","fee":"no","operator":"Communaut\u00c3\u00a9 de communes de la c\u00c3\u00b4te d'Alb\u00c3\u00a2tre","recycling:cardboard":"yes","recycling:paper":"yes","recycling_type":"container","wheelchair":"no"}},"type":"Feature"},
	{"geometry":{"coordinates":[0.697147,49.864102],"type":"Point"},"properties":{"osm_id":"5832704536","tag":{"amenity":"waste_basket","wheelchair":"yes"}},"type":"Feature"}
]
}
