{
"type": "FeatureCollection",
"features": [
	{"geometry":{"coordinates":[0.669537,47.404885],"type":"Point"},"properties":{"osm_id":"530718112","tag":{"amenity":"recycling","description":"Container \u00c3\u00a0 verre","location":"overground","recycling:glass_bottles":"yes","recycling_type":"container"}},"type":"Feature"},
	{"geometry":{"coordinates":[0.688724,47.406427],"type":"Point"},"properties":{"osm_id":"1302739075","tag":{"amenity":"recycling","recycling:glass_bottles":"yes","recycling_type":"container"}},"type":"Feature"},
	{"geometry":{"coordinates":[0.692896,47.402032],"type":"Point"},"properties":{"osm_id":"1756406836","tag":{"amenity":"recycling","location":"underground","recycling:cans":"yes","recycling:cardboard":"yes","recycling:glass_bottles":"yes","recycling:paper":"yes","recycling:plastic_bottles":"yes","recycling:plastic_packaging":"yes","recycling:waste":"yes","recycling_type":"container"}},"type":"Feature"},
	{"geometry":{"coordinates":[0.694348,47.402384],"type":"Point"},"properties":{"osm_id":"1756406847","tag":{"amenity":"recycling","location":"underground","recycling:cans":"yes","recycling:paper":"yes","recycling:plastic_bottles":"yes","recycling:waste":"yes","recycling_type":"container"}},"type":"Feature"},
	{"geometry":{"coordinates":[0.694339,47.410936],"type":"Point"},"properties":{"osm_id":"1756640886","tag":{"amenity":"recycling","recycling:glass_bottles":"yes","recycling_type":"container"}},"type":"Feature"},
	{"geometry":{"coordinates":[0.696503,47.412399],"type":"Point"},"properties":{"osm_id":"1756640919","tag":{"amenity":"recycling","location":"overground","recycling:glass_bottles":"yes","recycling_type":"container"}},"type":"Feature"},
	{"geometry":{"coordinates":[0.694212,47.411335],"type":"Point"},"properties":{"osm_id":"2023880205","tag":{"amenity":"recycling","recycling:glass_bottles":"yes","recycling_type":"container"}},"type":"Feature"},
	{"geometry":{"coordinates":[0.695611,47.410912],"type":"Point"},"properties":{"osm_id":"2023926375","tag":{"amenity":"waste_basket"}},"type":"Feature"},
	{"geometry":{"coordinates":[0.688748,47.413649],"type":"Point"},"properties":{"osm_id":"2094231324","tag":{"amenity":"recycling","location":"underground","recycling:cans":"yes","recycling:glass_bottles":"yes","recycling:paper":"yes","recycling:plastic_bottles":"yes","recycling:waste":"yes","recycling_type":"container"}},"type":"Feature"},
	{"geometry":{"coordinates":[0.655817,47.425726],"type":"Point"},"properties":{"osm_id":"2100172071","tag":{"amenity":"recycling","capacity":"2","location":"overground","recycling:glass_bottles":"yes","recycling_type":"container"}},"type":"Feature"},
	{"geometry":{"coordinates":[0.693995,47.416619],"type":"Point"},"properties":{"osm_id":"2198880747","tag":{"amenity":"recycling","recycling:cans":"yes","recycling:glass_bottles":"yes","recycling:paper":"yes","recycling:plastic_bottles":"yes","recycling:recyclable":"yes","recycling:waste":"yes","recycling_type":"container"}},"type":"Feature"},
	{"geometry":{"coordinates":[0.701249,47.412683],"type":"Point"},"properties":{"name":"Container Relais (v\u00c3\u00aatements)","osm_id":"2744641402","tag":{"amenity":"recycling","recycling:clothes":"yes","recycling_type":"container"}},"type":"Feature"},
	{"geometry":{"coordinates":[0.680337,47.411836],"type":"Point"},"properties":{"osm_id":"3406599404","tag":{"amenity":"recycling","location":"overground","recycling:glass_bottles":"yes","recycling_type":"container"}},"type":"Feature"},
	{"geometry":{"coordinates":[0.650242,47.403697],"type":"Point"},"properties":{"osm_id":"3450307621","tag":{"amenity":"recycling","recycling:glass_bottles":"yes","recycling_type":"container"}},"type":"Feature"},
	{"geometry":{"coordinates":[0.666263,47.399802],"type":"Point"},"properties":{"osm_id":"3450547053","tag":{"amenity":"waste_basket"}},"type":"Feature"},
	{"geometry":{"coordinates":[0.685817,47.413805],"type":"Point"},"properties":{"osm_id":"3669532481","tag":{"amenity":"waste_basket"}},"type":"Feature"},
	{"geometry":{"coordinates":[0.686213,47.41386],"type":"Point"},"properties":{"osm_id":"3669532482","tag":{"amenity":"waste_basket"}},"type":"Feature"},
	{"geometry":{"coordinates":[0.687231,47.414473],"type":"Point"},"properties":{"osm_id":"3733742959","tag":{"amenity":"waste_basket"}},"type":"Feature"},
	{"geometry":{"coordinates":[0.693034,47.425556],"type":"Point"},"properties":{"osm_id":"3878022015","tag":{"amenity":"recycling","capacity":"2","recycling:clothes":"yes","recycling_type":"container"}},"type":"Feature"},
	{"geometry":{"coordinates":[0.692675,47.401959],"type":"Point"},"properties":{"osm_id":"4000632857","tag":{"amenity":"waste_basket"}},"type":"Feature"},
	{"geometry":{"coordinates":[0.684007,47.40995],"type":"Point"},"properties":{"osm_id":"4027862990","tag":{"amenity":"waste_basket"}},"type":"Feature"},
	{"geometry":{"coordinates":[0.694951,47.401934],"type":"Point"},"properties":{"osm_id":"4059630691","tag":{"amenity":"waste_basket"}},"type":"Feature"},
	{"geometry":{"coordinates":[0.690555,47.401767],"type":"Point"},"properties":{"osm_id":"4059689589","tag":{"amenity":"waste_basket"}},"type":"Feature"},
	{"geometry":{"coordinates":[0.660046,47.422384],"type":"Point"},"properties":{"osm_id":"4236980453","tag":{"amenity":"recycling","location":"overground","recycling:glass_bottles":"yes","recycling_type":"container"}},"type":"Feature"},
	{"geometry":{"coordinates":[0.695557,47.422582],"type":"Point"},"properties":{"osm_id":"4382323254","tag":{"amenity":"recycling","recycling:cardboard":"yes","recycling:glass_bottles":"yes","recycling:paper":"yes","recycling:plastic_bottles":"yes","recycling:plastic_packaging":"yes","recycling:waste":"yes","recycling_type":"container"}},"type":"Feature"},
	{"geometry":{"coordinates":[0.695331,47.423459],"type":"Point"},"properties":{"osm_id":"4382323255","tag":{"amenity":"recycling","recycling:cardboard":"yes","recycling:glass_bottles":"no","recycling:paper":"yes","recycling:plastic_bottles":"yes","recycling:plastic_packaging":"yes","recycling:waste":"yes","recycling_type":"container"}},"type":"Feature"},
	{"geometry":{"coordinates":[0.69526,47.423881],"type":"Point"},"properties":{"osm_id":"4382323261","tag":{"amenity":"waste_basket"}},"type":"Feature"},
	{"geometry":{"coordinates":[0.695889,47.423964],"type":"Point"},"properties":{"osm_id":"4382323272","tag":{"amenity":"waste_basket"}},"type":"Feature"},
	{"geometry":{"coordinates":[0.702343,47.403477],"type":"Point"},"properties":{"osm_id":"4383895543","tag":{"amenity":"recycling","recycling:glass_bottles":"yes","recycling_type":"container"}},"type":"Feature"},
	{"geometry":{"coordinates":[0.695942,47.419594],"type":"Point"},"properties":{"osm_id":"4440261027","tag":{"amenity":"recycling","operator":"Tours M\u00c3\u00a9tropole","recycling:cans":"yes","recycling:cardboard":"yes","recycling:paper":"yes","recycling:plastic":"yes","recycling:plastic_bottles":"yes","recycling:plastic_packaging":"yes","recycling_type":"container"}},"type":"Feature"},
	{"geometry":{"coordinates":[0.697393,47.419622],"type":"Point"},"properties":{"osm_id":"4440261028","tag":{"amenity":"recycling","operator":"Tours M\u00c3\u00a9tropole","recycling:glass_bottles":"yes","recycling_type":"container"}},"type":"Feature"},
	{"geometry":{"coordinates":[0.697334,47.419624],"type":"Point"},"properties":{"osm_id":"4440261029","tag":{"amenity":"recycling","operator":"Tours M\u00c3\u00a9tropole","recycling:cans":"yes","recycling:cardboard":"yes","recycling:paper":"yes","recycling:plastic":"yes","recycling:plastic_bottles":"yes","recycling:plastic_packaging":"yes","recycling_type":"container"}},"type":"Feature"},
	{"geometry":{"coordinates":[0.697275,47.419631],"type":"Point"},"properties":{"osm_id":"4440261030","tag":{"amenity":"waste_disposal","operator":"Tours M\u00c3\u00a9tropole"}},"type":"Feature"},
	{"geometry":{"coordinates":[0.695954,47.419633],"type":"Point"},"properties":{"osm_id":"4440261032","tag":{"amenity":"waste_disposal"}},"type":"Feature"},
	{"geometry":{"coordinates":[0.69722,47.419611],"type":"Point"},"properties":{"osm_id":"4451050840","tag":{"amenity":"waste_basket"}},"type":"Feature"},
	{"geometry":{"coordinates":[0.696679,47.419661],"type":"Point"},"properties":{"osm_id":"4451050845","tag":{"amenity":"waste_basket"}},"type":"Feature"},
	{"geometry":{"coordinates":[0.697775,47.423408],"type":"Point"},"properties":{"osm_id":"4451050859","tag":{"amenity":"waste_basket"}},"type":"Feature"},
	{"geometry":{"coordinates":[0.697557,47.423696],"type":"Point"},"properties":{"osm_id":"4451050860","tag":{"amenity":"waste_basket"}},"type":"Feature"},
	{"geometry":{"coordinates":[0.69953,47.424413],"type":"Point"},"properties":{"osm_id":"4451050866","tag":{"amenity":"waste_basket"}},"type":"Feature"},
	{"geometry":{"coordinates":[0.700037,47.424516],"type":"Point"},"properties":{"osm_id":"4451050867","tag":{"amenity":"waste_basket"}},"type":"Feature"},
	{"geometry":{"coordinates":[0.702252,47.425901],"type":"Point"},"properties":{"osm_id":"4451050874","tag":{"amenity":"waste_basket"}},"type":"Feature"},
	{"geometry":{"coordinates":[0.7022,47.426153],"type":"Point"},"properties":{"osm_id":"4451050875","tag":{"amenity":"waste_basket"}},"type":"Feature"},
	{"geometry":{"coordinates":[0.702753,47.426263],"type":"Point"},"properties":{"osm_id":"4451050878","tag":{"amenity":"waste_basket"}},"type":"Feature"},
	{"geometry":{"coordinates":[0.702837,47.426551],"type":"Point"},"properties":{"osm_id":"4451050882","tag":{"amenity":"waste_basket"}},"type":"Feature"},
	{"geometry":{"coordinates":[0.702507,47.433207],"type":"Point"},"properties":{"osm_id":"4456722463","tag":{"amenity":"waste_basket"}},"type":"Feature"},
	{"geometry":{"coordinates":[0.700875,47.43379],"type":"Point"},"properties":{"osm_id":"4456722466","tag":{"amenity":"recycling","location":"overground","recycling:glass_bottles":"yes","recycling_type":"container"}},"type":"Feature"},
	{"geometry":{"coordinates":[0.703072,47.434757],"type":"Point"},"properties":{"osm_id":"4456722480","tag":{"amenity":"waste_basket"}},"type":"Feature"},
	{"geometry":{"coordinates":[0.68052,47.409426],"type":"Point"},"properties":{"osm_id":"4535696351","tag":{"amenity":"recycling","recycling:glass_bottles":"yes","recycling_type":"container"}},"type":"Feature"},
	{"geometry":{"coordinates":[0.682751,47.405589],"type":"Point"},"properties":{"osm_id":"4682902993","tag":{"amenity":"waste_basket"}},"type":"Feature"},
	{"geometry":{"coordinates":[0.675201,47.411101],"type":"Point"},"properties":{"osm_id":"4683800994","tag":{"amenity":"waste_disposal","recycling_type":"container"}},"type":"Feature"},
	{"geometry":{"coordinates":[0.675195,47.41112],"type":"Point"},"properties":{"osm_id":"4683800995","tag":{"amenity":"recycling","recycling:paper":"yes","recycling_type":"container"}},"type":"Feature"},
	{"geometry":{"coordinates":[0.67519,47.41114],"type":"Point"},"properties":{"osm_id":"4683800996","tag":{"amenity":"recycling","recycling:paper":"yes","recycling_type":"container"}},"type":"Feature"},
	{"geometry":{"coordinates":[0.682503,47.426113],"type":"Point"},"properties":{"osm_id":"4691826096","tag":{"amenity":"waste_basket"}},"type":"Feature"},
	{"geometry":{"coordinates":[0.688945,47.401776],"type":"Point"},"properties":{"osm_id":"4714004548","tag":{"amenity":"waste_basket"}},"type":"Feature"},
	{"geometry":{"coordinates":[0.685718,47.411951],"type":"Point"},"properties":{"osm_id":"4740581305","tag":{"amenity":"waste_basket"}},"type":"Feature"},
	{"geometry":{"coordinates":[0.68357,47.42212],"type":"Point"},"properties":{"osm_id":"4895074846","tag":{"amenity":"waste_basket","recycling:cans":"yes","recycling:paper":"yes"}},"type":"Feature"},
	{"geometry":{"coordinates":[0.629237,47.401677],"type":"Point"},"properties":{"osm_id":"5018584337","tag":{"amenity":"waste_basket"}},"type":"Feature"},
	{"geometry":{"coordinates":[0.628244,47.402739],"type":"Point"},"properties":{"osm_id":"5018586580","tag":{"amenity":"waste_basket"}},"type":"Feature"},
	{"geometry":{"coordinates":[0.628183,47.402942],"type":"Point"},"properties":{"osm_id":"5018595260","tag":{"amenity":"waste_basket"}},"type":"Feature"},
	{"geometry":{"coordinates":[0.620445,47.404095],"type":"Point"},"properties":{"osm_id":"5018623734","tag":{"amenity":"recycling","recycling:clothes":"yes","recycling:shoes":"yes","recycling_type":"container"}},"type":"Feature"},
	{"geometry":{"coordinates":[0.678913,47.42519],"type":"Point"},"properties":{"osm_id":"5168632941","tag":{"amenity":"waste_basket"}},"type":"Feature"},
	{"geometry":{"coordinates":[0.678801,47.424815],"type":"Point"},"properties":{"osm_id":"5168635027","tag":{"amenity":"waste_basket"}},"type":"Feature"},
	{"geometry":{"coordinates":[0.682933,47.423452],"type":"Point"},"properties":{"osm_id":"5174983622","tag":{"amenity":"recycling","recycling:glass":"yes","recycling:glass_bottles":"yes","recycling_type":"container","wheelchair":"yes"}},"type":"Feature"},
	{"geometry":{"coordinates":[0.698144,47.423388],"type":"Point"},"properties":{"osm_id":"5296114597","tag":{"amenity":"waste_basket"}},"type":"Feature"},
	{"geometry":{"coordinates":[0.689202,47.423632],"type":"Point"},"properties":{"osm_id":"5301826282","tag":{"amenity":"recycling","recycling:cans":"yes","recycling:cardboard":"yes","recycling:glass_bottles":"yes","recycling:paper":"yes","recycling:plastic_bottles":"yes","recycling:plastic_packaging":"yes","recycling:waste":"yes","recycling_type":"container"}},"type":"Feature"},
	{"geometry":{"coordinates":[0.692772,47.423972],"type":"Point"},"properties":{"osm_id":"5301826283","tag":{"amenity":"recycling","recycling:cans":"yes","recycling:cardboard":"yes","recycling:glass_bottles":"yes","recycling:paper":"yes","recycling:plastic_bottles":"yes","recycling:plastic_packaging":"yes","recycling:waste":"yes","recycling_type":"container"}},"type":"Feature"},
	{"geometry":{"coordinates":[0.629927,47.434348],"type":"Point"},"properties":{"osm_id":"5304664935","tag":{"amenity":"recycling","location":"overground","recycling:glass_bottles":"yes","recycling_type":"container"}},"type":"Feature"},
	{"geometry":{"coordinates":[0.692237,47.425066],"type":"Point"},"properties":{"osm_id":"5482043221","tag":{"amenity":"waste_basket"}},"type":"Feature"},
	{"geometry":{"coordinates":[0.665844,47.423392],"type":"Point"},"properties":{"name":"Compostou","osm_id":"5552520002","tag":{"amenity":"recycling","description":"Composteur partag\u00c3\u00a9 Touraine Propre","recycling:organic":"yes","recycling_type":"container"}},"type":"Feature"},
	{"geometry":{"coordinates":[0.680676,47.423187],"type":"Point"},"properties":{"osm_id":"5863121942","tag":{"amenity":"waste_basket"}},"type":"Feature"},
	{"geometry":{"coordinates":[0.6762,47.421567],"type":"Point"},"properties":{"osm_id":"5863157676","tag":{"amenity":"recycling","recycling:glass_bottles":"yes","recycling_type":"container"}},"type":"Feature"},
	{"geometry":{"coordinates":[0.679861,47.422331],"type":"Point"},"properties":{"osm_id":"5863161498","tag":{"amenity":"recycling","recycling:glass_bottles":"yes","recycling_type":"container"}},"type":"Feature"},
	{"geometry":{"coordinates":[0.677969,47.421142],"type":"Point"},"properties":{"osm_id":"5863167630","tag":{"amenity":"waste_basket"}},"type":"Feature"},
	{"geometry":{"coordinates":[0.642622,47.439713],"type":"Point"},"properties":{"osm_id":"6070456692","tag":{"amenity":"waste_basket"}},"type":"Feature"},
	{"geometry":{"coordinates":[0.641968,47.440193],"type":"Point"},"properties":{"osm_id":"6070461734","tag":{"amenity":"waste_basket"}},"type":"Feature"},
	{"geometry":{"coordinates":[0.642021,47.440392],"type":"Point"},"properties":{"osm_id":"6070467748","tag":{"amenity":"waste_basket"}},"type":"Feature"},
	{"geometry":{"coordinates":[0.641906,47.440575],"type":"Point"},"properties":{"osm_id":"6070467825","tag":{"amenity":"waste_basket"}},"type":"Feature"},
	{"geometry":{"coordinates":[0.641145,47.440623],"type":"Point"},"properties":{"osm_id":"6070467826","tag":{"amenity":"recycling","location":"overground","recycling:glass_bottles":"yes","recycling_type":"container"}},"type":"Feature"},
	{"geometry":{"coordinates":[0.639511,47.440521],"type":"Point"},"properties":{"osm_id":"6070472085","tag":{"amenity":"recycling","location":"overground","recycling:glass_bottles":"yes","recycling_type":"container"}},"type":"Feature"},
	{"geometry":{"coordinates":[0.679455,47.400358],"type":"Point"},"properties":{"osm_id":"6234426659","tag":{"amenity":"recycling","recycling:glass_bottles":"yes","recycling_type":"container"}},"type":"Feature"},
	{"geometry":{"coordinates":[0.679071,47.398368],"type":"Point"},"properties":{"osm_id":"6343303957","tag":{"amenity":"waste_basket"}},"type":"Feature"},
	{"geometry":{"coordinates":[0.679093,47.398538],"type":"Point"},"properties":{"osm_id":"6343303958","tag":{"amenity":"waste_basket"}},"type":"Feature"},
	{"geometry":{"coordinates":[0.673896,47.408117],"type":"Point"},"properties":{"osm_id":"6374671879","tag":{"amenity":"recycling","recycling:cans":"yes","recycling:paper":"yes","recycling:plastic_bottles":"yes","recycling:waste":"yes","recycling_type":"container"}},"type":"Feature"},
	{"geometry":{"coordinates":[0.659195,47.402468],"type":"Point"},"properties":{"osm_id":"6374709185","tag":{"amenity":"recycling","recycling:cans":"yes","recycling:paper":"yes","recycling:plastic_bottles":"yes","recycling:waste":"yes","recycling_type":"container"}},"type":"Feature"},
	{"geometry":{"coordinates":[0.657922,47.402806],"type":"Point"},"properties":{"osm_id":"6374709186","tag":{"amenity":"recycling","recycling:cans":"yes","recycling:paper":"yes","recycling:plastic_bottles":"yes","recycling:waste":"yes","recycling_type":"container"}},"type":"Feature"},
	{"geometry":{"coordinates":[0.672807,47.424384],"type":"Point"},"properties":{"osm_id":"6389421862","tag":{"amenity":"recycling","capacity":"3","location":"overground","recycling:glass_bottles":"yes","recycling_type":"container"}},"type":"Feature"},
	{"geometry":{"coordinates":[0.697171,47.423781],"type":"Point"},"properties":{"osm_id":"6390177366","tag":{"amenity":"waste_basket"}},"type":"Feature"},
	{"geometry":{"coordinates":[0.697452,47.423623],"type":"Point"},"properties":{"osm_id":"6428746951","tag":{"amenity":"waste_basket"}},"type":"Feature"},
	{"geometry":{"coordinates":[0.69752,47.4278],"type":"Point"},"properties":{"osm_id":"6429944581","tag":{"amenity":"recycling","recycling:glass_bottles":"yes","recycling_type":"container"}},"type":"Feature"},
	{"geometry":{"coordinates":[0.651652,47.450455],"type":"Point"},"properties":{"osm_id":"6434060679","tag":{"amenity":"recycling","recycling:glass_bottles":"yes","recycling_type":"container"}},"type":"Feature"},
	{"geometry":{"coordinates":[0.650736,47.451686],"type":"Point"},"properties":{"osm_id":"6434067630","tag":{"amenity":"waste_basket"}},"type":"Feature"},
	{"geometry":{"coordinates":[0.650645,47.451917],"type":"Point"},"properties":{"osm_id":"6434067631","tag":{"amenity":"waste_basket"}},"type":"Feature"},
	{"geometry":{"coordinates":[0.644804,47.450333],"type":"Point"},"properties":{"osm_id":"6434110468","tag":{"amenity":"recycling","recycling:glass_bottles":"yes","recycling_type":"container"}},"type":"Feature"},
	{"geometry":{"coordinates":[0.697853,47.432856],"type":"Point"},"properties":{"osm_id":"6442123181","tag":{"amenity":"waste_basket","waste":"trash"}},"type":"Feature"},
	{"geometry":{"coordinates":[0.697309,47.430523],"type":"Point"},"properties":{"osm_id":"6442123182","tag":{"amenity":"waste_basket","waste":"trash"}},"type":"Feature"},
	{"geometry":{"coordinates":[0.697613,47.432835],"type":"Point"},"properties":{"osm_id":"6442123183","tag":{"amenity":"waste_basket","waste":"trash"}},"type":"Feature"},
	{"geometry":{"coordinates":[0.684571,47.409628],"type":"Point"},"properties":{"osm_id":"6611817890","tag":{"amenity":"recycling","recycling:cans":"yes","recycling:glass_bottles":"yes","recycling:paper":"yes","recycling:plastic_bottles":"yes","recycling:waste":"yes","recycling_type":"container"}},"type":"Feature"},
	{"geometry":{"coordinates":[0.695737,47.418211],"type":"Point"},"properties":{"osm_id":"6654946557","tag":{"amenity":"waste_disposal"}},"type":"Feature"},
	{"geometry":{"coordinates":[0.695737,47.418193],"type":"Point"},"properties":{"osm_id":"6654946558","tag":{"amenity":"recycling","operator":"Tours M\u00c3\u00a9tropole","recycling:cans":"yes","recycling:cardboard":"yes","recycling:paper":"yes","recycling:plastic":"yes","recycling:plastic_bottles":"yes","recycling_type":"container"}},"type":"Feature"},
	{"geometry":{"coordinates":[0.69578,47.418445],"type":"Point"},"properties":{"osm_id":"6654946559","tag":{"amenity":"waste_disposal","operator":"Tours M\u00c3\u00a9tropole"}},"type":"Feature"},
	{"geometry":{"coordinates":[0.695784,47.41847],"type":"Point"},"properties":{"osm_id":"6654946560","tag":{"amenity":"recycling","operator":"Tours M\u00c3\u00a9tropole","recycling:cans":"yes","recycling:cardboard":"yes","recycling:paper":"yes","recycling:plastic":"yes","recycling:plastic_packaging":"yes","recycling_type":"container"}},"type":"Feature"},
	{"geometry":{"coordinates":[0.694888,47.418096],"type":"Point"},"properties":{"osm_id":"6654946561","tag":{"amenity":"recycling","operator":"Tours M\u00c3\u00a9tropole","recycling:cans":"yes","recycling:cardboard":"yes","recycling:paper":"yes","recycling:plastic":"yes","recycling:plastic_bottles":"yes","recycling_type":"container"}},"type":"Feature"},
	{"geometry":{"coordinates":[0.694853,47.418099],"type":"Point"},"properties":{"osm_id":"6654946562","tag":{"amenity":"waste_disposal","operator":"Tours M\u00c3\u00a9tropole"}},"type":"Feature"},
	{"geometry":{"coordinates":[0.694826,47.418101],"type":"Point"},"properties":{"osm_id":"6654946563","tag":{"amenity":"recycling","operator":"Tours M\u00c3\u00a9tropole","recycling:glass_bottles":"yes","recycling_type":"container"}},"type":"Feature"},
	{"geometry":{"coordinates":[0.693432,47.416539],"type":"Point"},"properties":{"osm_id":"6654946564","tag":{"amenity":"recycling","operator":"Le Relais","recycling:clothes":"yes","recycling:shoes":"yes","recycling_type":"container"}},"type":"Feature"},
	{"geometry":{"coordinates":[0.690423,47.426653],"type":"Point"},"properties":{"osm_id":"6786137008","tag":{"amenity":"recycling","location":"underground","recycling:cans":"yes","recycling:paper":"yes","recycling:plastic_bottles":"yes","recycling:waste":"yes","recycling_type":"container"}},"type":"Feature"},
	{"geometry":{"coordinates":[0.690653,47.425681],"type":"Point"},"properties":{"osm_id":"6786137009","tag":{"amenity":"recycling","location":"underground","recycling:cans":"yes","recycling:glass_bottles":"yes","recycling:paper":"yes","recycling:plastic_bottles":"yes","recycling:waste":"yes","recycling_type":"container"}},"type":"Feature"},
	{"geometry":{"coordinates":[0.698129,47.408482],"type":"Point"},"properties":{"osm_id":"6794029650","tag":{"amenity":"recycling","operator":"Active","recycling:clothes":"yes","recycling:shoes":"yes","recycling_type":"container"}},"type":"Feature"},
	{"geometry":{"coordinates":[0.698101,47.408429],"type":"Point"},"properties":{"osm_id":"6794029651","tag":{"amenity":"recycling","location":"overground","recycling:glass_bottles":"yes","recycling_type":"container"}},"type":"Feature"},
	{"geometry":{"coordinates":[0.698708,47.418886],"type":"Point"},"properties":{"osm_id":"6794080456","tag":{"amenity":"recycling","recycling:cans":"yes","recycling:paper":"yes","recycling:plastic_bottles":"yes","recycling:waste":"yes","recycling_type":"container"}},"type":"Feature"},
	{"geometry":{"coordinates":[0.693343,47.418511],"type":"Point"},"properties":{"osm_id":"6794080461","tag":{"amenity":"recycling","recycling:cans":"yes","recycling:glass_bottles":"yes","recycling:paper":"yes","recycling:plastic_bottles":"yes","recycling_type":"container"}},"type":"Feature"},
	{"geometry":{"coordinates":[0.694214,47.419329],"type":"Point"},"properties":{"osm_id":"6794080464","tag":{"amenity":"recycling","recycling:cans":"yes","recycling:glass_bottles":"yes","recycling:paper":"yes","recycling:plastic_bottles":"yes","recycling:waste":"yes","recycling_type":"container"}},"type":"Feature"},
	{"geometry":{"coordinates":[0.691555,47.411149],"type":"Point"},"properties":{"osm_id":"6794113908","tag":{"amenity":"recycling","location":"underground","recycling:glass_bottles":"yes","recycling_type":"container"}},"type":"Feature"},
	{"geometry":{"coordinates":[0.68903,47.406479],"type":"Point"},"properties":{"osm_id":"6794113909","tag":{"amenity":"recycling","location":"underground","recycling:glass_bottles":"yes","recycling_type":"container"}},"type":"Feature"},
	{"geometry":{"coordinates":[0.685292,47.410264],"type":"Point"},"properties":{"osm_id":"6794113910","tag":{"amenity":"recycling","recycling:cans":"yes","recycling:paper":"yes","recycling:plastic_bottles":"yes","recycling:waste":"yes","recycling_type":"container"}},"type":"Feature"},
	{"geometry":{"coordinates":[0.687748,47.41374],"type":"Point"},"properties":{"osm_id":"6794128622","tag":{"amenity":"recycling","recycling:cans":"yes","recycling:paper":"yes","recycling:plastic_bottles":"yes","recycling:waste":"yes","recycling_type":"container"}},"type":"Feature"},
	{"geometry":{"coordinates":[0.686261,47.414599],"type":"Point"},"properties":{"osm_id":"6794128625","tag":{"amenity":"recycling","location":"underground","recycling:cans":"yes","recycling:glass_bottles":"yes","recycling:paper":"yes","recycling:plastic_bottles":"yes","recycling:waste":"yes","recycling_type":"container"}},"type":"Feature"},
	{"geometry":{"coordinates":[0.693322,47.415972],"type":"Point"},"properties":{"osm_id":"6794184261","tag":{"amenity":"recycling","recycling:cans":"yes","recycling:paper":"yes","recycling:plastic_bottles":"yes","recycling:waste":"yes","recycling_type":"container"}},"type":"Feature"},
	{"geometry":{"coordinates":[0.691776,47.413126],"type":"Point"},"properties":{"osm_id":"6794184264","tag":{"amenity":"recycling","recycling:cans":"yes","recycling:glass_bottles":"yes","recycling:paper":"yes","recycling:plastic_bottles":"yes","recycling:waste":"yes","recycling_type":"container"}},"type":"Feature"},
	{"geometry":{"coordinates":[0.692771,47.412409],"type":"Point"},"properties":{"osm_id":"6794184267","tag":{"amenity":"recycling","recycling:cans":"yes","recycling:glass_bottles":"yes","recycling:paper":"yes","recycling:plastic_bottles":"yes","recycling:waste":"yes","recycling_type":"container"}},"type":"Feature"},
	{"geometry":{"coordinates":[0.692871,47.413176],"type":"Point"},"properties":{"osm_id":"6794184268","tag":{"amenity":"recycling","recycling:cans":"yes","recycling:paper":"yes","recycling:plastic_bottles":"yes","recycling:waste":"yes","recycling_type":"container"}},"type":"Feature"},
	{"geometry":{"coordinates":[0.692693,47.411805],"type":"Point"},"properties":{"osm_id":"6794184269","tag":{"amenity":"recycling","recycling:cans":"yes","recycling:paper":"yes","recycling:plastic_bottles":"yes","recycling:waste":"yes","recycling_type":"container"}},"type":"Feature"},
	{"geometry":{"coordinates":[0.693226,47.411025],"type":"Point"},"properties":{"osm_id":"6794184270","tag":{"amenity":"recycling","recycling:cans":"yes","recycling:paper":"yes","recycling:plastic_bottles":"yes","recycling:waste":"yes","recycling_type":"container"}},"type":"Feature"},
	{"geometry":{"coordinates":[0.693855,47.410575],"type":"Point"},"properties":{"osm_id":"6794184271","tag":{"amenity":"recycling","recycling:cans":"yes","recycling:glass_bottles":"yes","recycling:paper":"yes","recycling:plastic_bottles":"yes","recycling:waste":"yes","recycling_type":"container"}},"type":"Feature"},
	{"geometry":{"coordinates":[0.691978,47.410694],"type":"Point"},"properties":{"osm_id":"6794184272","tag":{"amenity":"recycling","recycling:cans":"yes","recycling:paper":"yes","recycling:plastic_bottles":"yes","recycling:waste":"yes","recycling_type":"container"}},"type":"Feature"},
	{"geometry":{"coordinates":[0.694112,47.412944],"type":"Point"},"properties":{"osm_id":"6794184273","tag":{"amenity":"recycling","recycling:cans":"yes","recycling:glass_bottles":"yes","recycling:paper":"yes","recycling:plastic_bottles":"yes","recycling:waste":"yes","recycling_type":"container"}},"type":"Feature"},
	{"geometry":{"coordinates":[0.694677,47.413676],"type":"Point"},"properties":{"osm_id":"6794184277","tag":{"amenity":"recycling","recycling:cans":"yes","recycling:paper":"yes","recycling:plastic_bottles":"yes","recycling:waste":"yes","recycling_type":"container"}},"type":"Feature"},
	{"geometry":{"coordinates":[0.698834,47.418401],"type":"Point"},"properties":{"osm_id":"6794195785","tag":{"amenity":"recycling","recycling:cans":"yes","recycling:paper":"yes","recycling:plastic_bottles":"yes","recycling:waste":"yes","recycling_type":"container"}},"type":"Feature"},
	{"geometry":{"coordinates":[0.69809,47.418438],"type":"Point"},"properties":{"osm_id":"6794195786","tag":{"amenity":"recycling","recycling:cans":"yes","recycling:paper":"yes","recycling:plastic_bottles":"yes","recycling:waste":"yes","recycling_type":"container"}},"type":"Feature"},
	{"geometry":{"coordinates":[0.699143,47.418381],"type":"Point"},"properties":{"osm_id":"6794195787","tag":{"amenity":"recycling","recycling:cans":"yes","recycling:paper":"yes","recycling:plastic_bottles":"yes","recycling:waste":"yes","recycling_type":"container"}},"type":"Feature"},
	{"geometry":{"coordinates":[0.691185,47.414583],"type":"Point"},"properties":{"osm_id":"6794195788","tag":{"amenity":"recycling","recycling:cans":"yes","recycling:paper":"yes","recycling:plastic_bottles":"yes","recycling:waste":"yes","recycling_type":"container"}},"type":"Feature"},
	{"geometry":{"coordinates":[0.68693,47.413055],"type":"Point"},"properties":{"osm_id":"6794195789","tag":{"amenity":"recycling","recycling:cans":"yes","recycling:paper":"yes","recycling:plastic_bottles":"yes","recycling:waste":"yes","recycling_type":"container"}},"type":"Feature"},
	{"geometry":{"coordinates":[0.683193,47.420347],"type":"Point"},"properties":{"osm_id":"6801679162","tag":{"amenity":"recycling","recycling:cans":"yes","recycling:paper":"yes","recycling:plastic_bottles":"yes","recycling:waste":"yes","recycling_type":"container"}},"type":"Feature"},
	{"geometry":{"coordinates":[0.681995,47.420433],"type":"Point"},"properties":{"osm_id":"6801679164","tag":{"amenity":"recycling","recycling:cans":"yes","recycling:glass_bottles":"yes","recycling:paper":"yes","recycling:plastic_bottles":"yes","recycling:waste":"yes","recycling_type":"container"}},"type":"Feature"},
	{"geometry":{"coordinates":[0.681812,47.420849],"type":"Point"},"properties":{"osm_id":"6801679166","tag":{"amenity":"recycling","recycling:cans":"yes","recycling:paper":"yes","recycling:plastic_bottles":"yes","recycling:waste":"yes","recycling_type":"container"}},"type":"Feature"},
	{"geometry":{"coordinates":[0.684101,47.420514],"type":"Point"},"properties":{"osm_id":"6801679179","tag":{"amenity":"recycling","location":"underground","recycling:cans":"yes","recycling:glass_bottles":"yes","recycling:paper":"yes","recycling:plastic_bottles":"yes","recycling:waste":"yes","recycling_type":"container"}},"type":"Feature"},
	{"geometry":{"coordinates":[0.684744,47.421386],"type":"Point"},"properties":{"osm_id":"6801679181","tag":{"amenity":"recycling","location":"underground","recycling:cans":"yes","recycling:paper":"yes","recycling:plastic_bottles":"yes","recycling:waste":"yes","recycling_type":"container"}},"type":"Feature"},
	{"geometry":{"coordinates":[0.685937,47.42157],"type":"Point"},"properties":{"osm_id":"6801679182","tag":{"amenity":"recycling","location":"underground","recycling:cans":"yes","recycling:glass_bottles":"yes","recycling:paper":"yes","recycling:plastic_bottles":"yes","recycling:waste":"yes","recycling_type":"container"}},"type":"Feature"},
	{"geometry":{"coordinates":[0.686118,47.420795],"type":"Point"},"properties":{"osm_id":"6801679183","tag":{"amenity":"recycling","location":"underground","recycling:cans":"yes","recycling:glass_bottles":"yes","recycling:paper":"yes","recycling:plastic_bottles":"yes","recycling:waste":"yes","recycling_type":"container"}},"type":"Feature"},
	{"geometry":{"coordinates":[0.68561,47.422357],"type":"Point"},"properties":{"osm_id":"6801679184","tag":{"amenity":"recycling","location":"underground","recycling:cans":"yes","recycling:glass_bottles":"yes","recycling:paper":"yes","recycling:plastic_bottles":"yes","recycling:waste":"yes","recycling_type":"container"}},"type":"Feature"},
	{"geometry":{"coordinates":[0.686516,47.422478],"type":"Point"},"properties":{"osm_id":"6801706798","tag":{"amenity":"recycling","location":"underground","recycling:cans":"yes","recycling:glass_bottles":"yes","recycling:paper":"yes","recycling:plastic_bottles":"yes","recycling:waste":"yes","recycling_type":"container"}},"type":"Feature"},
	{"geometry":{"coordinates":[0.6877,47.422658],"type":"Point"},"properties":{"osm_id":"6801706799","tag":{"amenity":"recycling","location":"underground","recycling:cans":"yes","recycling:paper":"yes","recycling:plastic_bottles":"yes","recycling:waste":"yes","recycling_type":"container"}},"type":"Feature"},
	{"geometry":{"coordinates":[0.69003,47.422912],"type":"Point"},"properties":{"osm_id":"6801706800","tag":{"amenity":"recycling","location":"underground","recycling:cans":"yes","recycling:paper":"yes","recycling:plastic_bottles":"yes","recycling:waste":"yes","recycling_type":"container"}},"type":"Feature"},
	{"geometry":{"coordinates":[0.691222,47.423],"type":"Point"},"properties":{"osm_id":"6801706801","tag":{"amenity":"recycling","location":"underground","recycling:cans":"yes","recycling:glass_bottles":"yes","recycling:paper":"yes","recycling:plastic_bottles":"yes","recycling:waste":"yes","recycling_type":"container"}},"type":"Feature"},
	{"geometry":{"coordinates":[0.69252,47.423185],"type":"Point"},"properties":{"osm_id":"6801706803","tag":{"amenity":"recycling","location":"underground","recycling:cans":"yes","recycling:paper":"yes","recycling:plastic_bottles":"yes","recycling:waste":"yes","recycling_type":"container"}},"type":"Feature"},
	{"geometry":{"coordinates":[0.693635,47.423267],"type":"Point"},"properties":{"osm_id":"6801706804","tag":{"amenity":"recycling","location":"underground","recycling:cans":"yes","recycling:glass_bottles":"yes","recycling:paper":"yes","recycling:plastic_bottles":"yes","recycling:waste":"yes","recycling_type":"container"}},"type":"Feature"},
	{"geometry":{"coordinates":[0.694468,47.423247],"type":"Point"},"properties":{"osm_id":"6801706805","tag":{"amenity":"recycling","location":"underground","recycling:cans":"yes","recycling:glass_bottles":"yes","recycling:paper":"yes","recycling:plastic_bottles":"yes","recycling:waste":"yes","recycling_type":"container"}},"type":"Feature"},
	{"geometry":{"coordinates":[0.685512,47.401337],"type":"Point"},"properties":{"osm_id":"6812747761","tag":{"amenity":"recycling","location":"overground","recycling:glass_bottles":"yes","recycling_type":"container"}},"type":"Feature"},
	{"geometry":{"coordinates":[0.694327,47.402148],"type":"Point"},"properties":{"osm_id":"6812810065","tag":{"amenity":"recycling","location":"overground","recycling:glass_bottles":"yes","recycling_type":"container"}},"type":"Feature"},
	{"geometry":{"coordinates":[0.691701,47.426793],"type":"Point"},"properties":{"osm_id":"6816872311","tag":{"amenity":"recycling","location":"underground","recycling:cans":"yes","recycling:glass_bottles":"yes","recycling:paper":"yes","recycling:plastic_bottles":"yes","recycling:waste":"yes","recycling_type":"container"}},"type":"Feature"},
	{"geometry":{"coordinates":[0.690822,47.427099],"type":"Point"},"properties":{"osm_id":"6816872312","tag":{"amenity":"recycling","location":"underground","recycling:cans":"yes","recycling:glass_bottles":"yes","recycling:paper":"yes","recycling:waste":"yes","recycling_type":"container"}},"type":"Feature"},
	{"geometry":{"coordinates":[0.690523,47.425546],"type":"Point"},"properties":{"osm_id":"6816872315","tag":{"amenity":"recycling","location":"underground","recycling:cans":"yes","recycling:glass_bottles":"yes","recycling:paper":"yes","recycling:plastic_bottles":"yes","recycling:waste":"yes","recycling_type":"container"}},"type":"Feature"},
	{"geometry":{"coordinates":[0.69034,47.42632],"type":"Point"},"properties":{"osm_id":"6816872317","tag":{"amenity":"recycling","location":"underground","recycling:cans":"yes","recycling:paper":"yes","recycling:plastic_bottles":"yes","recycling:waste":"yes","recycling_type":"container"}},"type":"Feature"},
	{"geometry":{"coordinates":[0.689243,47.425953],"type":"Point"},"properties":{"osm_id":"6816872318","tag":{"amenity":"recycling","location":"underground","recycling:cans":"yes","recycling:glass_bottles":"yes","recycling:paper":"yes","recycling:plastic_bottles":"yes","recycling:waste":"yes","recycling_type":"container"}},"type":"Feature"},
	{"geometry":{"coordinates":[0.679356,47.435021],"type":"Point"},"properties":{"osm_id":"6817282382","tag":{"amenity":"recycling","location":"overground","recycling:glass_bottles":"yes","recycling_type":"container"}},"type":"Feature"},
	{"geometry":{"coordinates":[0.681219,47.421253],"type":"Point"},"properties":{"osm_id":"6817366737","tag":{"amenity":"recycling","location":"overground","recycling:cans":"yes","recycling:paper":"yes","recycling:plastic_bottles":"yes","recycling:waste":"yes","recycling_type":"container"}},"type":"Feature"},
	{"geometry":{"coordinates":[0.682456,47.422069],"type":"Point"},"properties":{"osm_id":"6817366739","tag":{"amenity":"recycling","location":"overground","recycling:cans":"yes","recycling:paper":"yes","recycling:plastic_bottles":"yes","recycling:waste":"yes","recycling_type":"container"}},"type":"Feature"},
	{"geometry":{"coordinates":[0.681673,47.422013],"type":"Point"},"properties":{"osm_id":"6817366741","tag":{"amenity":"recycling","location":"overground","recycling:cans":"yes","recycling:glass_bottles":"yes","recycling:paper":"yes","recycling:plastic_bottles":"yes","recycling:waste":"yes","recycling_type":"container"}},"type":"Feature"},
	{"geometry":{"coordinates":[0.6454,47.399236],"type":"Point"},"properties":{"osm_id":"6818305288","tag":{"amenity":"recycling","location":"underground","recycling:glass_bottles":"yes","recycling_type":"container"}},"type":"Feature"},
	{"geometry":{"coordinates":[0.668917,47.423336],"type":"Point"},"properties":{"osm_id":"6860310807","tag":{"amenity":"recycling","location":"overground","recycling:glass_bottles":"yes","recycling_type":"container"}},"type":"Feature"},
	{"geometry":{"coordinates":[0.683102,47.422819],"type":"Point"},"properties":{"osm_id":"6918760985","tag":{"amenity":"recycling","recycling:cans":"yes","recycling:cardboard":"yes","recycling:glass_bottles":"yes","recycling:paper":"yes","recycling:plastic":"yes","recycling:plastic_bottles":"yes","recycling:plastic_packaging":"yes","recycling:waste":"yes","recycling_type":"container"}},"type":"Feature"},
	{"geometry":{"coordinates":[0.624874,47.408382],"type":"Point"},"properties":{"name":"D\u00c3\u00a9ch\u00c3\u00a8terie\u00c2\u00a0la\u00c2\u00a0Haute\u00c2\u00a0Limoug\u00c3\u00a8re","osm_id":"6960408949","tag":{"amenity":"recycling","operator":"Tours\u00c2\u00a0M\u00c3\u00a9tropole\u00c2\u00a0Val\u00c2\u00a0de\u00c2\u00a0Loire","phone":"+33 2 47 49 97 32","recycling_type":"centre","ref:FR:SINOE":"3406","start_date":"2001"}},"type":"Feature"},
	{"geometry":{"coordinates":[0.692725,47.41375],"type":"Point"},"properties":{"osm_id":"7007666133","tag":{"amenity":"recycling","location":"underground","recycling:cans":"yes","recycling:paper":"yes","recycling:plastic_bottles":"yes","recycling:waste":"yes","recycling_type":"container"}},"type":"Feature"},
	{"geometry":{"coordinates":[0.693593,47.413697],"type":"Point"},"properties":{"osm_id":"7007666134","tag":{"amenity":"recycling","location":"underground","recycling:cans":"yes","recycling:paper":"yes","recycling:plastic_bottles":"yes","recycling:waste":"yes","recycling_type":"container"}},"type":"Feature"},
	{"geometry":{"coordinates":[0.700949,47.420935],"type":"Point"},"properties":{"osm_id":"7007666136","tag":{"amenity":"recycling","location":"underground","recycling:cans":"yes","recycling:paper":"yes","recycling:plastic_bottles":"yes","recycling:waste":"yes","recycling_type":"container"}},"type":"Feature"},
	{"geometry":{"coordinates":[0.697713,47.418977],"type":"Point"},"properties":{"osm_id":"7007666137","tag":{"amenity":"recycling","location":"underground","recycling:cans":"yes","recycling:glass_bottles":"yes","recycling:paper":"yes","recycling:plastic_bottles":"yes","recycling:waste":"yes","recycling_type":"container"}},"type":"Feature"},
	{"geometry":{"coordinates":[0.693806,47.424105],"type":"Point"},"properties":{"osm_id":"7007666138","tag":{"amenity":"recycling","location":"underground","recycling:cans":"yes","recycling:glass_bottles":"yes","recycling:paper":"yes","recycling:plastic_bottles":"yes","recycling:waste":"yes","recycling_type":"container"}},"type":"Feature"},
	{"geometry":{"coordinates":[0.692037,47.425416],"type":"Point"},"properties":{"osm_id":"7007666139","tag":{"amenity":"recycling","location":"underground","recycling:cans":"yes","recycling:glass_bottles":"yes","recycling:paper":"yes","recycling:plastic_bottles":"yes","recycling:waste":"yes","recycling_type":"container"}},"type":"Feature"},
	{"geometry":{"coordinates":[0.69116,47.424979],"type":"Point"},"properties":{"osm_id":"7007666140","tag":{"amenity":"recycling","location":"underground","recycling:cans":"yes","recycling:paper":"yes","recycling:plastic_bottles":"yes","recycling:waste":"yes","recycling_type":"container"}},"type":"Feature"},
	{"geometry":{"coordinates":[0.689389,47.423569],"type":"Point"},"properties":{"osm_id":"7007666141","tag":{"amenity":"recycling","location":"underground","recycling:cans":"yes","recycling:glass_bottles":"yes","recycling:paper":"yes","recycling:plastic_bottles":"yes","recycling:waste":"yes","recycling_type":"container"}},"type":"Feature"},
	{"geometry":{"coordinates":[0.68888,47.422738],"type":"Point"},"properties":{"osm_id":"7007666142","tag":{"amenity":"recycling","location":"underground","recycling:cans":"yes","recycling:glass_bottles":"yes","recycling:paper":"yes","recycling:plastic_bottles":"yes","recycling:waste":"yes","recycling_type":"container"}},"type":"Feature"},
	{"geometry":{"coordinates":[0.684435,47.423375],"type":"Point"},"properties":{"osm_id":"7007666143","tag":{"amenity":"recycling","location":"underground","recycling:cans":"yes","recycling:paper":"yes","recycling:plastic_bottles":"yes","recycling:waste":"yes","recycling_type":"container"}},"type":"Feature"},
	{"geometry":{"coordinates":[0.682054,47.423239],"type":"Point"},"properties":{"osm_id":"7007666144","tag":{"amenity":"recycling","location":"underground","recycling:cans":"yes","recycling:glass_bottles":"yes","recycling:paper":"yes","recycling:plastic_bottles":"yes","recycling:waste":"yes","recycling_type":"container"}},"type":"Feature"},
	{"geometry":{"coordinates":[0.681254,47.422765],"type":"Point"},"properties":{"osm_id":"7007666145","tag":{"amenity":"recycling","location":"underground","recycling:cans":"yes","recycling:glass_bottles":"yes","recycling:paper":"yes","recycling:plastic_bottles":"yes","recycling:waste":"yes","recycling_type":"container"}},"type":"Feature"},
	{"geometry":{"coordinates":[0.683902,47.42322],"type":"Point"},"properties":{"osm_id":"7007666146","tag":{"amenity":"recycling","location":"underground","recycling:cans":"yes","recycling:glass_bottles":"yes","recycling:paper":"yes","recycling:plastic_bottles":"yes","recycling:waste":"yes","recycling_type":"container"}},"type":"Feature"},
	{"geometry":{"coordinates":[0.687976,47.423534],"type":"Point"},"properties":{"osm_id":"7007666147","tag":{"amenity":"recycling","location":"underground","recycling:cans":"yes","recycling:paper":"yes","recycling:plastic_bottles":"yes","recycling:waste":"yes","recycling_type":"container"}},"type":"Feature"},
	{"geometry":{"coordinates":[0.686989,47.423418],"type":"Point"},"properties":{"osm_id":"7007666148","tag":{"amenity":"recycling","location":"underground","recycling:cans":"yes","recycling:glass_bottles":"yes","recycling:paper":"yes","recycling:plastic_bottles":"yes","recycling:waste":"yes","recycling_type":"container"}},"type":"Feature"},
	{"geometry":{"coordinates":[0.685688,47.423242],"type":"Point"},"properties":{"osm_id":"7007666149","tag":{"amenity":"recycling","location":"underground","recycling:cans":"yes","recycling:paper":"yes","recycling:plastic_bottles":"yes","recycling:waste":"yes","recycling_type":"container"}},"type":"Feature"},
	{"geometry":{"coordinates":[0.685565,47.423068],"type":"Point"},"properties":{"osm_id":"7007666150","tag":{"amenity":"recycling","location":"underground","recycling:cans":"yes","recycling:glass_bottles":"yes","recycling:paper":"yes","recycling:plastic_bottles":"yes","recycling:waste":"yes","recycling_type":"container"}},"type":"Feature"},
	{"geometry":{"coordinates":[0.684883,47.420736],"type":"Point"},"properties":{"osm_id":"7007666151","tag":{"amenity":"recycling","location":"underground","recycling:cans":"yes","recycling:glass_bottles":"yes","recycling:paper":"yes","recycling:plastic_bottles":"yes","recycling:waste":"yes","recycling_type":"container"}},"type":"Feature"},
	{"geometry":{"coordinates":[0.684551,47.421261],"type":"Point"},"properties":{"osm_id":"7007666152","tag":{"amenity":"recycling","location":"underground","recycling:cans":"yes","recycling:glass_bottles":"yes","recycling:paper":"yes","recycling:plastic_bottles":"yes","recycling:waste":"yes","recycling_type":"container"}},"type":"Feature"},
	{"geometry":{"coordinates":[0.684473,47.422451],"type":"Point"},"properties":{"osm_id":"7007666153","tag":{"amenity":"recycling","location":"underground","recycling:cans":"yes","recycling:paper":"yes","recycling:plastic_bottles":"yes","recycling:waste":"yes","recycling_type":"container"}},"type":"Feature"},
	{"geometry":{"coordinates":[0.6831,47.421175],"type":"Point"},"properties":{"osm_id":"7007666154","tag":{"amenity":"recycling","location":"underground","recycling:cans":"yes","recycling:glass_bottles":"yes","recycling:paper":"yes","recycling:plastic_bottles":"yes","recycling:waste":"yes","recycling_type":"container"}},"type":"Feature"},
	{"geometry":{"coordinates":[0.68248,47.41999],"type":"Point"},"properties":{"osm_id":"7007666155","tag":{"amenity":"recycling","location":"underground","recycling:cans":"yes","recycling:glass_bottles":"yes","recycling:paper":"yes","recycling:plastic_bottles":"yes","recycling:waste":"yes","recycling_type":"container"}},"type":"Feature"},
	{"geometry":{"coordinates":[0.68459,47.414668],"type":"Point"},"properties":{"osm_id":"7007666156","tag":{"amenity":"recycling","location":"underground","recycling:cans":"yes","recycling:paper":"yes","recycling:plastic_bottles":"yes","recycling:waste":"yes","recycling_type":"container"}},"type":"Feature"},
	{"geometry":{"coordinates":[0.682778,47.415874],"type":"Point"},"properties":{"osm_id":"7007666157","tag":{"amenity":"recycling","location":"underground","recycling:cans":"yes","recycling:paper":"yes","recycling:plastic_bottles":"yes","recycling:waste":"yes","recycling_type":"container"}},"type":"Feature"},
	{"geometry":{"coordinates":[0.684779,47.415009],"type":"Point"},"properties":{"osm_id":"7007666158","tag":{"amenity":"recycling","location":"underground","recycling:cans":"yes","recycling:paper":"yes","recycling:plastic_bottles":"yes","recycling:waste":"yes","recycling_type":"container"}},"type":"Feature"},
	{"geometry":{"coordinates":[0.686782,47.412433],"type":"Point"},"properties":{"osm_id":"7007666160","tag":{"amenity":"recycling","location":"underground","recycling:cans":"yes","recycling:paper":"yes","recycling:plastic_bottles":"yes","recycling:waste":"yes","recycling_type":"container"}},"type":"Feature"},
	{"geometry":{"coordinates":[0.687016,47.412099],"type":"Point"},"properties":{"osm_id":"7007666161","tag":{"amenity":"recycling","location":"underground","recycling:cans":"yes","recycling:paper":"yes","recycling:plastic_bottles":"yes","recycling:waste":"yes","recycling_type":"container"}},"type":"Feature"},
	{"geometry":{"coordinates":[0.684352,47.410549],"type":"Point"},"properties":{"osm_id":"7007666162","tag":{"amenity":"recycling","location":"underground","recycling:cans":"yes","recycling:glass_bottles":"yes","recycling:paper":"yes","recycling:plastic_bottles":"yes","recycling:waste":"yes","recycling_type":"container"}},"type":"Feature"},
	{"geometry":{"coordinates":[0.675772,47.41054],"type":"Point"},"properties":{"osm_id":"7007666163","tag":{"amenity":"recycling","location":"underground","recycling:cans":"yes","recycling:paper":"yes","recycling:plastic_bottles":"yes","recycling:waste":"yes","recycling_type":"container"}},"type":"Feature"},
	{"geometry":{"coordinates":[0.674557,47.408342],"type":"Point"},"properties":{"osm_id":"7007666164","tag":{"amenity":"recycling","location":"underground","recycling:cans":"yes","recycling:paper":"yes","recycling:plastic_bottles":"yes","recycling:waste":"yes","recycling_type":"container"}},"type":"Feature"},
	{"geometry":{"coordinates":[0.673127,47.408277],"type":"Point"},"properties":{"osm_id":"7007666165","tag":{"amenity":"recycling","location":"underground","recycling:cans":"yes","recycling:paper":"yes","recycling:plastic_bottles":"yes","recycling:waste":"yes","recycling_type":"container"}},"type":"Feature"},
	{"geometry":{"coordinates":[0.670572,47.40836],"type":"Point"},"properties":{"osm_id":"7007666166","tag":{"amenity":"recycling","location":"underground","recycling:cans":"yes","recycling:paper":"yes","recycling:plastic_bottles":"yes","recycling:waste":"yes","recycling_type":"container"}},"type":"Feature"},
	{"geometry":{"coordinates":[0.670546,47.407649],"type":"Point"},"properties":{"osm_id":"7007666167","tag":{"amenity":"recycling","location":"underground","recycling:cans":"yes","recycling:paper":"yes","recycling:plastic_bottles":"yes","recycling:waste":"yes","recycling_type":"container"}},"type":"Feature"},
	{"geometry":{"coordinates":[0.668402,47.402713],"type":"Point"},"properties":{"osm_id":"7007666168","tag":{"amenity":"recycling","location":"underground","recycling:cans":"yes","recycling:paper":"yes","recycling:plastic_bottles":"yes","recycling:waste":"yes","recycling_type":"container"}},"type":"Feature"},
	{"geometry":{"coordinates":[0.669056,47.40171],"type":"Point"},"properties":{"osm_id":"7007666169","tag":{"amenity":"recycling","location":"underground","recycling:cans":"yes","recycling:paper":"yes","recycling:plastic_bottles":"yes","recycling:waste":"yes","recycling_type":"container"}},"type":"Feature"},
	{"geometry":{"coordinates":[0.66599,47.399615],"type":"Point"},"properties":{"osm_id":"7007666170","tag":{"amenity":"recycling","location":"underground","recycling:cans":"yes","recycling:paper":"yes","recycling:plastic_bottles":"yes","recycling:waste":"yes","recycling_type":"container"}},"type":"Feature"},
	{"geometry":{"coordinates":[0.657804,47.404133],"type":"Point"},"properties":{"osm_id":"7007721415","tag":{"amenity":"recycling","location":"underground","recycling:cans":"yes","recycling:glass_bottles":"yes","recycling:paper":"yes","recycling:plastic_bottles":"yes","recycling:waste":"yes","recycling_type":"container"}},"type":"Feature"},
	{"geometry":{"coordinates":[0.69238,47.41505],"type":"Point"},"properties":{"osm_id":"7007721510","tag":{"amenity":"recycling","location":"underground","recycling:cans":"yes","recycling:paper":"yes","recycling:plastic_bottles":"yes","recycling:waste":"yes","recycling_type":"container"}},"type":"Feature"},
	{"geometry":{"coordinates":[0.669821,47.424944],"type":"Point"},"properties":{"osm_id":"7007721511","tag":{"amenity":"recycling","location":"underground","recycling:cans":"yes","recycling:paper":"yes","recycling:plastic_bottles":"yes","recycling:waste":"yes","recycling_type":"container"}},"type":"Feature"},
	{"geometry":{"coordinates":[0.669901,47.42439],"type":"Point"},"properties":{"osm_id":"7007721512","tag":{"amenity":"recycling","location":"underground","recycling:cans":"yes","recycling:paper":"yes","recycling:plastic_bottles":"yes","recycling:waste":"yes","recycling_type":"container"}},"type":"Feature"},
	{"geometry":{"coordinates":[0.670076,47.423761],"type":"Point"},"properties":{"osm_id":"7007721513","tag":{"amenity":"recycling","location":"underground","recycling:cans":"yes","recycling:paper":"yes","recycling:plastic_bottles":"yes","recycling:waste":"yes","recycling_type":"container"}},"type":"Feature"},
	{"geometry":{"coordinates":[0.655847,47.414444],"type":"Point"},"properties":{"osm_id":"7010802286","tag":{"amenity":"recycling","location":"overground","recycling:glass_bottles":"yes","recycling_type":"container"}},"type":"Feature"},
	{"geometry":{"coordinates":[0.656945,47.415117],"type":"Point"},"properties":{"osm_id":"7010802287","tag":{"amenity":"recycling","location":"overground","recycling:glass_bottles":"yes","recycling_type":"container"}},"type":"Feature"},
	{"geometry":{"coordinates":[0.651599,47.418614],"type":"Point"},"properties":{"osm_id":"7010802288","tag":{"amenity":"recycling","location":"overground","recycling:glass_bottles":"yes","recycling_type":"container"}},"type":"Feature"},
	{"geometry":{"coordinates":[0.653928,47.419889],"type":"Point"},"properties":{"osm_id":"7010802289","tag":{"amenity":"recycling","location":"overground","recycling:glass_bottles":"yes","recycling_type":"container"}},"type":"Feature"},
	{"geometry":{"coordinates":[0.648129,47.421372],"type":"Point"},"properties":{"osm_id":"7010802290","tag":{"amenity":"recycling","capacity":"2","location":"overground","recycling:glass_bottles":"yes","recycling_type":"container"}},"type":"Feature"},
	{"geometry":{"coordinates":[0.625711,47.422736],"type":"Point"},"properties":{"osm_id":"7010802291","tag":{"amenity":"recycling","location":"overground","recycling:glass_bottles":"yes","recycling_type":"container"}},"type":"Feature"},
	{"geometry":{"coordinates":[0.650827,47.430531],"type":"Point"},"properties":{"osm_id":"7010802292","tag":{"amenity":"recycling","location":"overground","recycling:glass_bottles":"yes","recycling_type":"container"}},"type":"Feature"},
	{"geometry":{"coordinates":[0.638678,47.436447],"type":"Point"},"properties":{"osm_id":"7010802293","tag":{"amenity":"recycling","capacity":"2","location":"overground","recycling:glass_bottles":"yes","recycling_type":"container"}},"type":"Feature"},
	{"geometry":{"coordinates":[0.626417,47.439239],"type":"Point"},"properties":{"osm_id":"7010802294","tag":{"amenity":"recycling","location":"overground","recycling:glass_bottles":"yes","recycling_type":"container"}},"type":"Feature"},
	{"geometry":{"coordinates":[0.632866,47.440383],"type":"Point"},"properties":{"osm_id":"7010802295","tag":{"amenity":"recycling","location":"overground","recycling:glass_bottles":"yes","recycling_type":"container"}},"type":"Feature"},
	{"geometry":{"coordinates":[0.69733,47.417799],"type":"Point"},"properties":{"osm_id":"7013569692","tag":{"amenity":"recycling","recycling:green_waste":"yes","recycling_type":"container"}},"type":"Feature"},
	{"geometry":{"coordinates":[0.6402,47.417617],"type":"Point"},"properties":{"osm_id":"7047891405","tag":{"amenity":"waste_basket"}},"type":"Feature"},
	{"geometry":{"coordinates":[0.659766,47.41137],"type":"Point"},"properties":{"osm_id":"7047891428","tag":{"amenity":"recycling","location":"underground","recycling:glass_bottles":"yes","recycling_type":"container"}},"type":"Feature"},
	{"geometry":{"coordinates":[0.669606,47.409884],"type":"Point"},"properties":{"osm_id":"7047891446","tag":{"amenity":"recycling","capacity":"2","location":"underground","recycling:glass_bottles":"yes","recycling_type":"container"}},"type":"Feature"},
	{"geometry":{"coordinates":[0.65574,47.425692],"type":"Point"},"properties":{"osm_id":"7054371340","tag":{"amenity":"recycling","capacity":"2","location":"overground","operator":"Le Relais","recycling:clothes":"yes","recycling_type":"container"}},"type":"Feature"},
	{"geometry":{"coordinates":[0.650308,47.403738],"type":"Point"},"properties":{"osm_id":"7066694168","tag":{"amenity":"recycling","operator":"Le Relais","recycling:clothes":"yes","recycling_type":"container"}},"type":"Feature"},
	{"geometry":{"coordinates":[0.673931,47.407642],"type":"Point"},"properties":{"osm_id":"7257273928","tag":{"amenity":"recycling","location":"overground","operator":"Active","recycling:clothes":"yes","recycling_type":"container"}},"type":"Feature"},
	{"geometry":{"coordinates":[0.673956,47.407644],"type":"Point"},"properties":{"osm_id":"7257273929","tag":{"amenity":"recycling","location":"overground","recycling:glass_bottles":"yes","recycling_type":"container"}},"type":"Feature"},
	{"geometry":{"coordinates":[0.669435,47.410354],"type":"Point"},"properties":{"osm_id":"7260723319","tag":{"amenity":"recycling","operator":"Le Relais","recycling:clothes":"yes","recycling_type":"container"}},"type":"Feature"},
	{"geometry":{"coordinates":[0.698938,47.41899],"type":"Point"},"properties":{"osm_id":"7326737220","tag":{"amenity":"waste_basket","waste":"trash"}},"type":"Feature"},
	{"geometry":{"coordinates":[0.645747,47.399288],"type":"Point"},"properties":{"osm_id":"7546241191","tag":{"amenity":"recycling","location":"overground","recycling:glass_bottles":"yes","recycling_type":"container"}},"type":"Feature"},
	{"geometry":{"coordinates":[0.700745,47.418538],"type":"Point"},"properties":{"osm_id":"7603590147","tag":{"amenity":"recycling","recycling:cans":"yes","recycling:paper":"yes","recycling:plastic_bottles":"yes","recycling:waste":"yes","recycling_type":"container"}},"type":"Feature"},
	{"geometry":{"coordinates":[0.700751,47.41858],"type":"Point"},"properties":{"osm_id":"7603590148","tag":{"amenity":"recycling","recycling:cans":"yes","recycling:paper":"yes","recycling:plastic_bottles":"yes","recycling:waste":"yes","recycling_type":"container"}},"type":"Feature"},
	{"geometry":{"coordinates":[0.689084,47.434767],"type":"Point"},"properties":{"osm_id":"7947382098","tag":{"amenity":"recycling","recycling:glass":"yes","recycling:glass_bottles":"yes","recycling_type":"container"}},"type":"Feature"}
]
}
