{
"type": "FeatureCollection",
"features": [
	{"geometry":{"coordinates":[0.620002,44.443687],"type":"Point"},"properties":{"osm_id":"4435758339","tag":{"amenity":"recycling","location":"underground","recycling_type":"container"}},"type":"Feature"},
	{"geometry":{"coordinates":[0.619456,44.445969],"type":"Point"},"properties":{"osm_id":"4436157910","tag":{"amenity":"recycling","location":"underground","recycling_type":"container"}},"type":"Feature"},
	{"geometry":{"coordinates":[0.6937,44.403185],"type":"Point"},"properties":{"osm_id":"4464562740","tag":{"amenity":"recycling","recycling_type":"container"}},"type":"Feature"},
	{"geometry":{"coordinates":[0.677307,44.405003],"type":"Point"},"properties":{"osm_id":"7248726602","tag":{"amenity":"recycling","operator":"Auchan","recycling:plastic_bottles":"yes","recycling_type":"container"}},"type":"Feature"},
	{"geometry":{"coordinates":[0.672164,44.429474],"type":"Point"},"properties":{"name":"D\u00c3\u00a9ch\u00c3\u00a8terie du L\u00c3\u00a9dat","osm_id":"8267327250","tag":{"amenity":"recycling","opening_hours":"Mo-Sa 09:00-12:00,14:00-18:00","operator":"Communaut\u00c3\u00a9 d'Agglom\u00c3\u00a9ration du Grand Villeneuvois","operator:wikidata":"Q132251","recycling_type":"centre"}},"type":"Feature"}
]
}
