{
"type": "FeatureCollection",
"features": [
	{"geometry":{"coordinates":[0.638691,44.210196],"type":"Point"},"properties":{"osm_id":"4222230894","tag":{"amenity":"recycling","recycling:glass_bottles":"yes","recycling:paper":"yes","recycling_type":"container"}},"type":"Feature"},
	{"geometry":{"coordinates":[0.619755,44.206915],"type":"Point"},"properties":{"osm_id":"4222281904","tag":{"amenity":"recycling","recycling:glass_bottles":"yes","recycling:paper":"yes","recycling_type":"container"}},"type":"Feature"},
	{"geometry":{"coordinates":[0.620051,44.204105],"type":"Point"},"properties":{"osm_id":"4401018451","tag":{"amenity":"recycling","recycling:glass_bottles":"yes","recycling_type":"container"}},"type":"Feature"},
	{"geometry":{"coordinates":[0.620042,44.204094],"type":"Point"},"properties":{"osm_id":"4401018452","tag":{"amenity":"recycling","recycling:paper":"yes","recycling_type":"container"}},"type":"Feature"},
	{"geometry":{"coordinates":[0.626763,44.202641],"type":"Point"},"properties":{"name":"point d'apport volontaire VERRE - PAPIER","osm_id":"5623231923","tag":{"amenity":"recycling","location":"overground","name:en":"GLASS - PAPER Collection Banks","recycling_type":"container"}},"type":"Feature"},
	{"geometry":{"coordinates":[0.623857,44.171754],"type":"Point"},"properties":{"osm_id":"6917907788","tag":{"amenity":"waste_basket"}},"type":"Feature"},
	{"geometry":{"coordinates":[0.629467,44.191053],"type":"Point"},"properties":{"osm_id":"7077591887","tag":{"amenity":"recycling","recycling_type":"container","survey:date":"2019-12-22"}},"type":"Feature"},
	{"geometry":{"coordinates":[0.627011,44.187413],"type":"Point"},"properties":{"osm_id":"7080486686","tag":{"amenity":"recycling","recycling:clothes":"no","recycling:glass_bottles":"yes","recycling:paper":"yes","recycling:plastic":"no","recycling_type":"container","survey:date":"2019-12-23"}},"type":"Feature"},
	{"geometry":{"coordinates":[0.61565,44.204563],"type":"Point"},"properties":{"osm_id":"7610379225","tag":{"amenity":"waste_basket"}},"type":"Feature"},
	{"geometry":{"coordinates":[0.616445,44.204752],"type":"Point"},"properties":{"osm_id":"7610379227","tag":{"amenity":"waste_basket"}},"type":"Feature"},
	{"geometry":{"coordinates":[0.616463,44.204666],"type":"Point"},"properties":{"osm_id":"7610379229","tag":{"amenity":"waste_basket"}},"type":"Feature"},
	{"geometry":{"coordinates":[0.616969,44.204845],"type":"Point"},"properties":{"osm_id":"7610379253","tag":{"amenity":"waste_basket"}},"type":"Feature"},
	{"geometry":{"coordinates":[0.617156,44.205096],"type":"Point"},"properties":{"osm_id":"7610379259","tag":{"amenity":"waste_basket"}},"type":"Feature"},
	{"geometry":{"coordinates":[0.61768,44.204889],"type":"Point"},"properties":{"osm_id":"7610379271","tag":{"amenity":"waste_basket"}},"type":"Feature"},
	{"geometry":{"coordinates":[0.618328,44.204799],"type":"Point"},"properties":{"osm_id":"7610379279","tag":{"amenity":"waste_basket"}},"type":"Feature"},
	{"geometry":{"coordinates":[0.618383,44.204876],"type":"Point"},"properties":{"osm_id":"7610379281","tag":{"amenity":"waste_basket"}},"type":"Feature"},
	{"geometry":{"coordinates":[0.618902,44.205055],"type":"Point"},"properties":{"osm_id":"7610388689","tag":{"amenity":"waste_basket"}},"type":"Feature"},
	{"geometry":{"coordinates":[0.619254,44.205097],"type":"Point"},"properties":{"osm_id":"7610388694","tag":{"amenity":"waste_basket"}},"type":"Feature"},
	{"geometry":{"coordinates":[0.619614,44.20515],"type":"Point"},"properties":{"osm_id":"7610388699","tag":{"amenity":"waste_basket"}},"type":"Feature"},
	{"geometry":{"coordinates":[0.619867,44.205173],"type":"Point"},"properties":{"osm_id":"7610388700","tag":{"amenity":"waste_basket"}},"type":"Feature"},
	{"geometry":{"coordinates":[0.620355,44.205241],"type":"Point"},"properties":{"osm_id":"7610388706","tag":{"amenity":"waste_basket"}},"type":"Feature"},
	{"geometry":{"coordinates":[0.622705,44.205586],"type":"Point"},"properties":{"osm_id":"7612184073","tag":{"amenity":"waste_basket"}},"type":"Feature"},
	{"geometry":{"coordinates":[0.622659,44.205456],"type":"Point"},"properties":{"osm_id":"7612184079","tag":{"amenity":"waste_basket"}},"type":"Feature"},
	{"geometry":{"coordinates":[0.622453,44.205523],"type":"Point"},"properties":{"osm_id":"7612184080","tag":{"amenity":"waste_basket"}},"type":"Feature"},
	{"geometry":{"coordinates":[0.622997,44.205555],"type":"Point"},"properties":{"osm_id":"7612190783","tag":{"amenity":"waste_basket"}},"type":"Feature"},
	{"geometry":{"coordinates":[0.622958,44.205514],"type":"Point"},"properties":{"osm_id":"7612190784","tag":{"amenity":"waste_basket"}},"type":"Feature"},
	{"geometry":{"coordinates":[0.621014,44.205324],"type":"Point"},"properties":{"osm_id":"7612211788","tag":{"amenity":"waste_basket"}},"type":"Feature"},
	{"geometry":{"coordinates":[0.621618,44.205393],"type":"Point"},"properties":{"osm_id":"7612211797","tag":{"amenity":"waste_basket"}},"type":"Feature"},
	{"geometry":{"coordinates":[0.621954,44.205449],"type":"Point"},"properties":{"osm_id":"7612211800","tag":{"amenity":"waste_basket"}},"type":"Feature"},
	{"geometry":{"coordinates":[0.62337,44.205425],"type":"Point"},"properties":{"osm_id":"7615615409","tag":{"amenity":"waste_basket"}},"type":"Feature"},
	{"geometry":{"coordinates":[0.623411,44.205479],"type":"Point"},"properties":{"osm_id":"7615615410","tag":{"amenity":"waste_basket"}},"type":"Feature"},
	{"geometry":{"coordinates":[0.623686,44.205436],"type":"Point"},"properties":{"osm_id":"7615615418","tag":{"amenity":"waste_basket"}},"type":"Feature"},
	{"geometry":{"coordinates":[0.624183,44.205373],"type":"Point"},"properties":{"osm_id":"7615615426","tag":{"amenity":"waste_basket"}},"type":"Feature"},
	{"geometry":{"coordinates":[0.62428,44.205319],"type":"Point"},"properties":{"osm_id":"7615615427","tag":{"amenity":"waste_basket"}},"type":"Feature"},
	{"geometry":{"coordinates":[0.624629,44.205325],"type":"Point"},"properties":{"osm_id":"7615615432","tag":{"amenity":"waste_basket"}},"type":"Feature"},
	{"geometry":{"coordinates":[0.624664,44.205281],"type":"Point"},"properties":{"osm_id":"7615615434","tag":{"amenity":"waste_basket"}},"type":"Feature"},
	{"geometry":{"coordinates":[0.624989,44.205286],"type":"Point"},"properties":{"osm_id":"7615615436","tag":{"amenity":"waste_basket"}},"type":"Feature"},
	{"geometry":{"coordinates":[0.625046,44.20524],"type":"Point"},"properties":{"osm_id":"7615615437","tag":{"amenity":"waste_basket"}},"type":"Feature"},
	{"geometry":{"coordinates":[0.625516,44.205282],"type":"Point"},"properties":{"osm_id":"7615615441","tag":{"amenity":"waste_basket"}},"type":"Feature"},
	{"geometry":{"coordinates":[0.625401,44.205121],"type":"Point"},"properties":{"osm_id":"7615615443","tag":{"amenity":"waste_basket"}},"type":"Feature"},
	{"geometry":{"coordinates":[0.62386,44.205371],"type":"Point"},"properties":{"osm_id":"7615615448","tag":{"amenity":"waste_basket"}},"type":"Feature"},
	{"geometry":{"coordinates":[0.616796,44.204415],"type":"Point"},"properties":{"osm_id":"7615700305","tag":{"amenity":"waste_basket"}},"type":"Feature"},
	{"geometry":{"coordinates":[0.619687,44.20466],"type":"Point"},"properties":{"osm_id":"7615763696","tag":{"amenity":"waste_basket"}},"type":"Feature"},
	{"geometry":{"coordinates":[0.616187,44.207351],"type":"Point"},"properties":{"osm_id":"7617669628","tag":{"amenity":"waste_basket"}},"type":"Feature"}
]
}
