{
"type": "FeatureCollection",
"features": [
	{"geometry":{"coordinates":[0.622561,41.626626],"type":"Point"},"properties":{"osm_id":"1460189900","tag":{"amenity":"recycling","recycling:glass_bottles":"yes","recycling:paper":"yes","recycling:plastic":"yes","recycling_type":"container"}},"type":"Feature"},
	{"geometry":{"coordinates":[0.620928,41.62717],"type":"Point"},"properties":{"osm_id":"1460189903","tag":{"amenity":"recycling","recycling:glass_bottles":"yes","recycling:paper":"yes","recycling:plastic":"yes","recycling_type":"container"}},"type":"Feature"},
	{"geometry":{"coordinates":[0.620403,41.627732],"type":"Point"},"properties":{"osm_id":"1460189907","tag":{"amenity":"recycling","recycling:glass_bottles":"yes","recycling:paper":"yes","recycling:plastic":"yes","recycling_type":"container"}},"type":"Feature"},
	{"geometry":{"coordinates":[0.622374,41.627837],"type":"Point"},"properties":{"osm_id":"1460189911","tag":{"amenity":"recycling","recycling:glass_bottles":"yes","recycling:paper":"yes","recycling:plastic":"yes","recycling_type":"container"}},"type":"Feature"},
	{"geometry":{"coordinates":[0.621222,41.628596],"type":"Point"},"properties":{"osm_id":"1460189917","tag":{"amenity":"recycling"}},"type":"Feature"},
	{"geometry":{"coordinates":[0.625311,41.623819],"type":"Point"},"properties":{"name":"Taca d'oli","osm_id":"2278872013","tag":{"amenity":"recycling","recycling_type":"centre"}},"type":"Feature"},
	{"geometry":{"coordinates":[0.631804,41.612366],"type":"Point"},"properties":{"osm_id":"2917632119","tag":{"amenity":"recycling","recycling:cans":"yes","recycling:clothes":"no","recycling:glass_bottles":"yes","recycling:paper":"yes","recycling_type":"container"}},"type":"Feature"},
	{"geometry":{"coordinates":[0.629479,41.610253],"type":"Point"},"properties":{"osm_id":"2918367979","tag":{"amenity":"recycling","recycling:batteries":"yes"}},"type":"Feature"},
	{"geometry":{"coordinates":[0.626341,41.623377],"type":"Point"},"properties":{"osm_id":"2929635591","tag":{"amenity":"recycling","recycling:cans":"yes","recycling:clothes":"no","recycling:glass_bottles":"yes","recycling:paper":"yes"}},"type":"Feature"},
	{"geometry":{"coordinates":[0.632965,41.611357],"type":"Point"},"properties":{"osm_id":"3439850620","tag":{"amenity":"recycling","recycling:cans":"yes","recycling:clothes":"no","recycling_type":"container"}},"type":"Feature"},
	{"geometry":{"coordinates":[0.630401,41.612284],"type":"Point"},"properties":{"osm_id":"3439858619","tag":{"amenity":"recycling","recycling:cans":"yes","recycling:clothes":"no","recycling:glass_bottles":"yes","recycling:paper":"yes","recycling_type":"container"}},"type":"Feature"},
	{"geometry":{"coordinates":[0.62865,41.612067],"type":"Point"},"properties":{"osm_id":"3439858620","tag":{"amenity":"recycling","recycling:cans":"yes","recycling:clothes":"yes","recycling:glass_bottles":"yes","recycling:organic":"yes","recycling:paper":"yes","recycling:plastic_packaging":"yes","recycling:waste":"yes","recycling_type":"container"}},"type":"Feature"},
	{"geometry":{"coordinates":[0.63351,41.612498],"type":"Point"},"properties":{"osm_id":"3439858621","tag":{"amenity":"recycling","recycling:cans":"yes","recycling:clothes":"no","recycling:glass_bottles":"yes","recycling:paper":"yes","recycling_type":"container"}},"type":"Feature"},
	{"geometry":{"coordinates":[0.633579,41.612505],"type":"Point"},"properties":{"osm_id":"3439858622","tag":{"amenity":"waste_disposal"}},"type":"Feature"},
	{"geometry":{"coordinates":[0.632446,41.612238],"type":"Point"},"properties":{"osm_id":"3442575072","tag":{"amenity":"waste_disposal"}},"type":"Feature"},
	{"geometry":{"coordinates":[0.632346,41.612283],"type":"Point"},"properties":{"osm_id":"3442575073","tag":{"amenity":"waste_basket"}},"type":"Feature"},
	{"geometry":{"coordinates":[0.629299,41.610347],"type":"Point"},"properties":{"osm_id":"3444660988","tag":{"amenity":"recycling","recycling_type":"container"}},"type":"Feature"},
	{"geometry":{"coordinates":[0.629315,41.610349],"type":"Point"},"properties":{"osm_id":"3444660989","tag":{"amenity":"recycling","recycling_type":"container"}},"type":"Feature"},
	{"geometry":{"coordinates":[0.629332,41.610351],"type":"Point"},"properties":{"osm_id":"3444660990","tag":{"amenity":"recycling","recycling_type":"container"}},"type":"Feature"},
	{"geometry":{"coordinates":[0.632976,41.611363],"type":"Point"},"properties":{"osm_id":"3993888556","tag":{"amenity":"recycling","recycling:cans":"yes","recycling:clothes":"no","recycling:glass_bottles":"yes","recycling_type":"container"}},"type":"Feature"},
	{"geometry":{"coordinates":[0.632944,41.611348],"type":"Point"},"properties":{"osm_id":"3993888857","tag":{"amenity":"recycling","recycling:clothes":"no","recycling:paper":"yes","recycling_type":"container"}},"type":"Feature"},
	{"geometry":{"coordinates":[0.632955,41.611353],"type":"Point"},"properties":{"osm_id":"3993888858","tag":{"amenity":"recycling","recycling:cans":"yes","recycling:clothes":"no","recycling_type":"container"}},"type":"Feature"},
	{"geometry":{"coordinates":[0.632932,41.611344],"type":"Point"},"properties":{"osm_id":"3993888859","tag":{"amenity":"waste_disposal"}},"type":"Feature"},
	{"geometry":{"coordinates":[0.625387,41.610135],"type":"Point"},"properties":{"osm_id":"4174290686","tag":{"amenity":"waste_basket"}},"type":"Feature"},
	{"geometry":{"coordinates":[0.623189,41.622984],"type":"Point"},"properties":{"name":"Assoc. Nueva Frontera","osm_id":"4597895793","tag":{"amenity":"recycling","name:ca":"Assoc. Nueva Frontera"}},"type":"Feature"},
	{"geometry":{"coordinates":[0.625032,41.613102],"type":"Point"},"properties":{"osm_id":"6109801056","tag":{"amenity":"recycling","recycling_type":"container"}},"type":"Feature"},
	{"geometry":{"coordinates":[0.627563,41.612149],"type":"Point"},"properties":{"osm_id":"6115943541","tag":{"amenity":"waste_basket"}},"type":"Feature"},
	{"geometry":{"coordinates":[0.631979,41.609783],"type":"Point"},"properties":{"osm_id":"6118760299","tag":{"amenity":"waste_basket"}},"type":"Feature"},
	{"geometry":{"coordinates":[0.632323,41.60958],"type":"Point"},"properties":{"osm_id":"6118760300","tag":{"amenity":"waste_basket"}},"type":"Feature"},
	{"geometry":{"coordinates":[0.62867,41.613759],"type":"Point"},"properties":{"osm_id":"6142039659","tag":{"amenity":"waste_basket"}},"type":"Feature"},
	{"geometry":{"coordinates":[0.628701,41.61379],"type":"Point"},"properties":{"osm_id":"6142039660","tag":{"amenity":"waste_basket"}},"type":"Feature"},
	{"geometry":{"coordinates":[0.627868,41.612615],"type":"Point"},"properties":{"osm_id":"6535538429","tag":{"amenity":"waste_basket"}},"type":"Feature"},
	{"geometry":{"coordinates":[0.629466,41.614164],"type":"Point"},"properties":{"osm_id":"6535538430","tag":{"amenity":"waste_basket"}},"type":"Feature"},
	{"geometry":{"coordinates":[0.629937,41.613933],"type":"Point"},"properties":{"osm_id":"6535538431","tag":{"amenity":"waste_basket"}},"type":"Feature"},
	{"geometry":{"coordinates":[0.629808,41.613824],"type":"Point"},"properties":{"osm_id":"6535538432","tag":{"amenity":"waste_basket"}},"type":"Feature"},
	{"geometry":{"coordinates":[0.631077,41.612882],"type":"Point"},"properties":{"osm_id":"6535538433","tag":{"amenity":"waste_basket"}},"type":"Feature"},
	{"geometry":{"coordinates":[0.631292,41.61238],"type":"Point"},"properties":{"osm_id":"6535538434","tag":{"amenity":"waste_basket"}},"type":"Feature"},
	{"geometry":{"coordinates":[0.631587,41.612206],"type":"Point"},"properties":{"osm_id":"6535538435","tag":{"amenity":"waste_basket"}},"type":"Feature"},
	{"geometry":{"coordinates":[0.631602,41.61189],"type":"Point"},"properties":{"osm_id":"6535538436","tag":{"amenity":"waste_basket"}},"type":"Feature"}
]
}
