{
"type": "FeatureCollection",
"features": [
	{"geometry":{"coordinates":[10.735862,44.145526],"type":"Point"},"properties":{"name":"Faggio","osm_id":"5190396304","ref":"91","tag":{"circumference":"3.5","denotation":"natural_monument","height":"24","monument":"yes","name:it":"Faggio","natural":"tree","start_date":"1810","survey:date":"2005-05-09"}},"type":"Feature"},
	{"geometry":{"coordinates":[10.736029,44.145244],"type":"Point"},"properties":{"name":"Salicone","osm_id":"5190396305","ref":"92","tag":{"circumference":"2.47","denotation":"natural_monument","height":"12","monument":"yes","name:it":"Salicone","natural":"tree","start_date":"1910","survey:date":"2005-05-09"}},"type":"Feature"},
	{"geometry":{"coordinates":[10.735769,44.145329],"type":"Point"},"properties":{"name":"Acero montano","osm_id":"5190396306","ref":"93","tag":{"circumference":"3.08","denotation":"natural_monument","height":"25","monument":"yes","name:it":"Acero montano","natural":"tree","start_date":"1810","survey:date":"2005-05-09"}},"type":"Feature"},
	{"geometry":{"coordinates":[10.734634,44.143708],"type":"Point"},"properties":{"name":"Ciliegio","osm_id":"5190396307","ref":"94","tag":{"circumference":"2.73","denotation":"natural_monument","height":"18","monument":"yes","name:it":"Ciliegio","natural":"tree","start_date":"1910","survey:date":"2005-05-09"}},"type":"Feature"},
	{"geometry":{"coordinates":[10.733643,44.143615],"type":"Point"},"properties":{"name":"Faggio","osm_id":"5190396308","ref":"90","tag":{"circumference":"4.24","denotation":"natural_monument","height":"23","monument":"yes","name:it":"Faggio","natural":"tree","start_date":"1810","survey:date":"2005-05-09"}},"type":"Feature"},
	{"geometry":{"coordinates":[10.733332,44.143647],"type":"Point"},"properties":{"name":"Acero montano","osm_id":"5190396309","ref":"95","tag":{"circumference":"3.5","denotation":"natural_monument","height":"25","monument":"yes","name:it":"Acero montano","natural":"tree","start_date":"1810","survey:date":"2005-05-09"}},"type":"Feature"},
	{"geometry":{"coordinates":[10.758908,44.130453],"type":"Point"},"properties":{"name":"Faggio","osm_id":"5190555596","ref":"4","tag":{"access":"private","circumference":"2.82","denotation":"natural_monument","height":"25","monument":"yes","name:it":"Faggio","natural":"tree","operator":"Corsini Giuseppe","phone":"+390573629091","start_date":"1790","survey:date":"2004-07-15"}},"type":"Feature"},
	{"geometry":{"coordinates":[10.73011,44.106117],"type":"Point"},"properties":{"name":"Faggio","osm_id":"5214791636","ref":"47","tag":{"access":"yes","circumference":"2","denotation":"natural_monument","height":"18","monument":"yes","name:it":"Faggio","natural":"tree","start_date":"1900","survey:date":"2004-07-15"}},"type":"Feature"},
	{"geometry":{"coordinates":[10.756416,44.098675],"type":"Point"},"properties":{"name":"Acero di monte","osm_id":"5214792136","ref":"2","tag":{"access":"yes","circumference":"5.27","denotation":"natural_monument","height":"26","monument":"yes","name:it":"Acero di monte","natural":"tree","operator":"Comune di Cutigliano","start_date":"1800","survey:date":"2004-07-15"}},"type":"Feature"}
]
}
