{
"type": "FeatureCollection",
"features": [
	{"geometry":{"coordinates":[10.730994,44.058459],"type":"Point"},"properties":{"name":"Faggio","osm_id":"5190210982","ref":"32","tag":{"circumference":"7.82","denotation":"natural_monument","height":"23","monument":"yes","name:it":"Faggio","natural":"tree","start_date":"1689","survey:date":"2004-10-13"}},"type":"Feature"},
	{"geometry":{"coordinates":[10.730777,44.0583],"type":"Point"},"properties":{"name":"Abete rosso","osm_id":"5190210983","ref":"31","tag":{"circumference":"6.45","denotation":"natural_monument","height":"21","monument":"yes","name:it":"Abete rosso","natural":"tree","start_date":"1589","survey:date":"2004-10-13"}},"type":"Feature"},
	{"geometry":{"coordinates":[10.790482,44.056362],"type":"Point"},"properties":{"name":"Leccio","osm_id":"5190231029","ref":"53","tag":{"circumference":"3.11","denotation":"natural_monument","height":"28","monument":"yes","name:it":"Leccio","natural":"tree","operator":"Andrea Dazzi","phone":"+390573630122","start_date":"1830","survey:date":"2004-07-23"}},"type":"Feature"},
	{"geometry":{"coordinates":[10.790433,44.056381],"type":"Point"},"properties":{"name":"Farnia","osm_id":"5190231030","ref":"52","tag":{"circumference":"3.62","denotation":"natural_monument","height":"32","monument":"yes","name:it":"Farnia","natural":"tree","operator":"Andrea Dazzi","phone":"+390573630122","start_date":"1800","survey:date":"2004-07-23"}},"type":"Feature"},
	{"geometry":{"coordinates":[10.790938,44.056977],"type":"Point"},"properties":{"name":"Acero di monte","osm_id":"5190231031","ref":"51","tag":{"circumference":"3.09","denotation":"natural_monument","height":"25","monument":"yes","name:it":"Acero di monte","natural":"tree","operator":"Andrea Dazzi","phone":"+390573630122","start_date":"1900","survey:date":"2004-07-23"}},"type":"Feature"},
	{"geometry":{"coordinates":[10.79075,44.056952],"type":"Point"},"properties":{"name":"Agrifoglio","osm_id":"5190231032","ref":"50","tag":{"circumference":"1.54","denotation":"natural_monument","height":"22","monument":"yes","name:it":"Agrifoglio","natural":"tree","operator":"Andrea Dazzi","phone":"+390573630122","start_date":"1850","survey:date":"2004-07-23"}},"type":"Feature"},
	{"geometry":{"coordinates":[10.790397,44.057273],"type":"Point"},"properties":{"name":"Tiglio","osm_id":"5190231033","ref":"49","tag":{"circumference":"2.65","denotation":"natural_monument","height":"32","monument":"yes","name:it":"Tiglio","natural":"tree","operator":"Andrea Dazzi","phone":"+390573630122","start_date":"1850","survey:date":"2004-07-23"}},"type":"Feature"},
	{"geometry":{"coordinates":[10.790285,44.057284],"type":"Point"},"properties":{"name":"Tasso","osm_id":"5190231034","ref":"7","tag":{"circumference":"3.1","denotation":"natural_monument","height":"11","monument":"yes","name:it":"Tasso","natural":"tree","operator":"Andrea Dazzi","phone":"+390573630122","start_date":"1840","survey:date":"2004-07-23"}},"type":"Feature"},
	{"geometry":{"coordinates":[10.789411,44.057253],"type":"Point"},"properties":{"name":"Cedro dell'Atlante","osm_id":"5190231035","ref":"48","tag":{"circumference":"4.1","denotation":"natural_monument","height":"30","monument":"yes","name:it":"Cedro dell'Atlante","natural":"tree","operator":"Andrea Dazzi","phone":"+390573630122","start_date":"1830","survey:date":"2004-07-22"}},"type":"Feature"},
	{"geometry":{"coordinates":[10.789911,44.056038],"type":"Point"},"properties":{"name":"Acero campestre","osm_id":"5190231036","ref":"54","tag":{"circumference":"2.7","denotation":"natural_monument","height":"23","monument":"yes","name:it":"Acero campestre","natural":"tree","operator":"Andrea Dazzi","phone":"+390573630122","start_date":"1850","survey:date":"2004-07-27"}},"type":"Feature"},
	{"geometry":{"coordinates":[10.789302,44.056975],"type":"Point"},"properties":{"name":"Cerro","osm_id":"5190231037","ref":"6","tag":{"circumference":"6.11","denotation":"natural_monument","height":"31","monument":"yes","name:it":"Cerro","natural":"tree","operator":"Andrea Dazzi","phone":"+390573630122","start_date":"1390","survey:date":"2004-07-22"}},"type":"Feature"},
	{"geometry":{"coordinates":[10.794298,44.056627],"type":"Point"},"properties":{"name":"Araucaria","osm_id":"5190249891","ref":"26","tag":{"access":"private","circumference":"2.16","denotation":"natural_monument","height":"14","monument":"yes","name:it":"Araucaria","natural":"tree","operator":"Andrea Tozzi","phone":"+390573630120","start_date":"1900","survey:date":"2004-07-23"}},"type":"Feature"},
	{"geometry":{"coordinates":[10.794265,44.057194],"type":"Point"},"properties":{"name":"Thuja","osm_id":"5190249892","ref":"25","tag":{"access":"private","circumference":"6.1","denotation":"natural_monument","height":"26","monument":"yes","name:it":"Thuja","natural":"tree","operator":"Andrea Tozzi","phone":"+390573630120","start_date":"1870","survey:date":"2004-07-23"}},"type":"Feature"},
	{"geometry":{"coordinates":[10.809946,44.068273],"type":"Point"},"properties":{"name":"Castagno","osm_id":"5190295794","ref":"36","tag":{"access":"private","circumference":"5.12","denotation":"natural_monument","height":"14","monument":"yes","name:it":"Castagno","natural":"tree","operator":"A.G.E.S.C.I","phone":"+390573977300","start_date":"1690","survey:date":"2004-07-27"}},"type":"Feature"},
	{"geometry":{"coordinates":[10.809895,44.06822],"type":"Point"},"properties":{"name":"Castagno","osm_id":"5190295795","ref":"35","tag":{"access":"private","circumference":"4.25","denotation":"natural_monument","height":"15","monument":"yes","name:it":"Castagno","natural":"tree","operator":"A.G.E.S.C.I","phone":"+390573977300","start_date":"1690","survey:date":"2004-07-27"}},"type":"Feature"},
	{"geometry":{"coordinates":[10.793995,44.080058],"type":"Point"},"properties":{"name":"Cerro","osm_id":"5190300290","ref":"8","tag":{"access":"yes","circumference":"5.04","denotation":"natural_monument","height":"21","monument":"yes","name:it":"Cerro","natural":"tree","start_date":"1590","survey:date":"2004-07-22"}},"type":"Feature"},
	{"geometry":{"coordinates":[10.792571,44.077577],"type":"Point"},"properties":{"name":"Cerro","osm_id":"5190300291","ref":"10","tag":{"access":"yes","circumference":"5.02","denotation":"natural_monument","height":"23","monument":"yes","name:it":"Cerro","natural":"tree","operator":"Comunit\u00c3\u00a0 Montana Appennino Pistoiese","start_date":"1590","survey:date":"2004-07-22"}},"type":"Feature"}
]
}
