{
"type": "FeatureCollection",
"features": [
	{"geometry":{"coordinates":[31.143432,3.43634],"type":"Point"},"properties":{"name":"Kenyanga Primary School Rubbish Pit","osm_id":"5561536225","tag":{"addr:county":"Aringa","addr:district":"Yumbe","addr:parish":"Nyori","addr:subcounty":"Lodonga","addr:village":"Keynanga","amenity":"waste_disposal","fee":"no","lit":"no","operator:type":"government","source:form":"Sanitation;v3.0.2","start_date":"2018-05-01","waste":"domestic_waste"}},"type":"Feature"},
	{"geometry":{"coordinates":[31.120305,3.445369],"type":"Point"},"properties":{"name":"Abiriga Swaibu","osm_id":"5561536249","tag":{"addr:county":"Aringa","addr:district":"Yumbe","addr:parish":"Rembetta","addr:subcounty":"Lodonga","addr:village":"Gotri","amenity":"waste_disposal","fee":"no","lit":"no","operator:type":"community","source:form":"Sanitation;v3.0.2","start_date":"2009-03-01","waste":"domestic_waste"}},"type":"Feature"},
	{"geometry":{"coordinates":[31.190605,3.441752],"type":"Point"},"properties":{"name":"Al-Hira Nursery/Primary School Rubish Pit","osm_id":"5573574341","tag":{"addr:county":"Aringa","addr:district":"Yumbe","addr:parish":"Omba","addr:subcounty":"Kuru","addr:village":"Manduru","amenity":"waste_disposal","fee":"no","lit":"no","operator:type":"community","source:form":"Sanitation;v3.0.2","start_date":"2016-01-01","waste":"Domestic"}},"type":"Feature"},
	{"geometry":{"coordinates":[31.191175,3.456278],"type":"Point"},"properties":{"name":"Langi Primary School Rubbish Pit","osm_id":"5573574348","tag":{"addr:county":"Aringa","addr:district":"Yumbe","addr:parish":"Imuenga","addr:subcounty":"Kuru","addr:village":"Langi","amenity":"waste_disposal","fee":"yes","lit":"no","operator:type":"community","source:form":"Sanitation;v3.0.2","start_date":"2017-04-01","waste":"Domestic"}},"type":"Feature"},
	{"geometry":{"coordinates":[31.18337,3.473452],"type":"Point"},"properties":{"name":"Imvenga Primary School Rubbish Pit","osm_id":"5573574375","tag":{"addr:county":"Aringa","addr:district":"Yumbe","addr:parish":"Imuenga","addr:subcounty":"Kuru","addr:village":"Imvenga","amenity":"waste_disposal","fee":"no","lit":"no","operator:type":"community","source:form":"Sanitation;v3.0.2","start_date":"2017-04-01","waste":"Domestic"}},"type":"Feature"},
	{"geometry":{"coordinates":[31.178577,3.438567],"type":"Point"},"properties":{"name":"Kuru Secondary School Rubish Pit","osm_id":"5573574381","tag":{"addr:county":"Aringa","addr:district":"Yumbe","addr:parish":"Omba","addr:subcounty":"Kuru","addr:village":"Atipili","amenity":"waste_disposal","fee":"no","lit":"no","operator:type":"government","source:form":"Sanitation;v3.0.2","start_date":"2008-06-01","waste":"Domestic"}},"type":"Feature"},
	{"geometry":{"coordinates":[31.17695,3.433963],"type":"Point"},"properties":{"name":"Kuru Primary School Rubish Pit","osm_id":"5573574383","tag":{"addr:county":"Aringa","addr:district":"Yumbe","addr:parish":"Omba","addr:subcounty":"Kuru","addr:village":"Omba","amenity":"waste_disposal","fee":"no","lit":"no","operator:type":"government","source:form":"Sanitation;v3.0.2","start_date":"2017-08-01","waste":"Domestic"}},"type":"Feature"},
	{"geometry":{"coordinates":[31.148277,3.455061],"type":"Point"},"properties":{"name":"Ablibani Domestic Disposal Point","osm_id":"5573574388","tag":{"addr:county":"Aringa","addr:district":"Yumbe","addr:parish":"Alinga","addr:subcounty":"Kuru","addr:village":"Gobirikocho","amenity":"waste_disposal","fee":"no","lit":"no","operator:type":"community","source:form":"Sanitation;v3.0.2","start_date":"2015-03-01","waste":"Domestic"}},"type":"Feature"},
	{"geometry":{"coordinates":[31.186635,3.441632],"type":"Point"},"properties":{"name":"Yumbe Hospital OPD Placenta Pit","osm_id":"5573574401","tag":{"addr:county":"Aringa","addr:district":"Yumbe","addr:parish":"Omba","addr:subcounty":"Kuru","addr:village":"Renenga","amenity":"waste_disposal","fee":"no","lit":"no","operator:type":"government","source:form":"Sanitation;v3.0.2","start_date":"2018-02-01","waste":"Medical"}},"type":"Feature"},
	{"geometry":{"coordinates":[31.186628,3.44166],"type":"Point"},"properties":{"name":"Yumbe Hospital OPD Rubbish Pit","osm_id":"5573574402","tag":{"addr:county":"Aringa","addr:district":"Yumbe","addr:parish":"Omba","addr:subcounty":"Kuru","addr:village":"Renenga","amenity":"waste_disposal","fee":"no","lit":"no","operator:type":"government","source:form":"Sanitation;v3.0.2","start_date":"2017-12-01","waste":"Medical"}},"type":"Feature"}
]
}
