{
"type": "FeatureCollection",
"features": [
	{"geometry":{"coordinates":[31.188217,3.418091],"type":"Point"},"properties":{"name":"Paduru Primary School Rabish Pit","osm_id":"5561536233","tag":{"addr:county":"Aringa","addr:district":"Yumbe","addr:parish":"Orogbo","addr:subcounty":"Lodonga","addr:village":"Paduru","amenity":"waste_disposal","fee":"no","lit":"no","operator:type":"community","source:form":"Sanitation;v3.0.2","start_date":"2016-03-01","waste":"domestic_waste"}},"type":"Feature"},
	{"geometry":{"coordinates":[31.18556,3.418193],"type":"Point"},"properties":{"name":"Abuja Domestic Disposal Point","osm_id":"5561536236","tag":{"addr:county":"Aringa","addr:district":"Yumbe","addr:parish":"Orogbo","addr:subcounty":"Lodonga","addr:village":"Ichikitibo","amenity":"waste_disposal","fee":"no","lit":"no","operator:type":"community","source:form":"Sanitation;v3.0.2","start_date":"2015-04-01","waste":"domestic_waste"}},"type":"Feature"},
	{"geometry":{"coordinates":[31.121375,3.418521],"type":"Point"},"properties":{"name":"Mango Market Disposable Pit","osm_id":"5561536241","tag":{"addr:county":"Aringa","addr:district":"Yumbe","addr:parish":"Yiba","addr:subcounty":"Lodonga","addr:village":"Basilica","amenity":"waste_disposal","fee":"no","lit":"no","operator:type":"community","source:form":"Sanitation;v3.0.2","start_date":"2017-05-01","waste":"domestic_waste"}},"type":"Feature"},
	{"geometry":{"coordinates":[31.113693,3.41702],"type":"Point"},"properties":{"name":"Pit","osm_id":"5561536251","tag":{"addr:county":"Aringa","addr:district":"Yumbe","addr:parish":"Yiba","addr:subcounty":"Lodonga","addr:village":"Yengenji","amenity":"waste_disposal","fee":"no","lit":"no","operator:type":"community","source:form":"Sanitation;v3.0.2","start_date":"2011-04-01","waste":"domestic_waste"}},"type":"Feature"},
	{"geometry":{"coordinates":[31.114532,3.417392],"type":"Point"},"properties":{"name":"Polytechnic Waste Disposable Pit","osm_id":"5561536253","tag":{"addr:county":"Aringa","addr:district":"Yumbe","addr:parish":"Yiba","addr:subcounty":"Lodonga","addr:village":"Basilica","amenity":"waste_disposal","fee":"no","lit":"no","operator:type":"community","source:form":"Sanitation;v3.0.2","start_date":"2015-04-01","waste":"domestic_waste"}},"type":"Feature"},
	{"geometry":{"coordinates":[31.118413,3.418452],"type":"Point"},"properties":{"name":"St John Bosco Waste Basket","osm_id":"5561536254","tag":{"addr:county":"Aringa","addr:district":"Yumbe","addr:parish":"Yiba","addr:subcounty":"Lodonga","addr:village":"Basilica","amenity":"waste_basket","fee":"no","lit":"no","operator:type":"community","source:form":"Sanitation;v3.0.2","start_date":"2016-04-01","waste":"domestic_waste"}},"type":"Feature"},
	{"geometry":{"coordinates":[31.119723,3.416842],"type":"Point"},"properties":{"name":"Lodonga Girls Deposable Pit","osm_id":"5561536256","tag":{"addr:county":"Aringa","addr:district":"Yumbe","addr:parish":"Yiba","addr:subcounty":"Lodonga","addr:village":"Basilica","amenity":"waste_disposal","fee":"no","lit":"no","operator:type":"community","source:form":"Sanitation;v3.0.2","start_date":"2018-04-01","waste":"domestic_waste"}},"type":"Feature"},
	{"geometry":{"coordinates":[31.118282,3.419765],"type":"Point"},"properties":{"name":"St John Bosco Pit","osm_id":"5561536261","tag":{"addr:county":"Aringa","addr:district":"Yumbe","addr:parish":"Yiba","addr:subcounty":"Lodonga","addr:village":"Basilica","amenity":"waste_disposal","fee":"no","lit":"no","operator:type":"community","source:form":"Sanitation;v3.0.2","start_date":"1945-04-01","waste":"domestic_waste"}},"type":"Feature"},
	{"geometry":{"coordinates":[31.116987,3.417405],"type":"Point"},"properties":{"name":"Lodonga Demonstration Disposable Pit","osm_id":"5561536264","tag":{"addr:county":"Aringa","addr:district":"Yumbe","addr:parish":"Yiba","addr:subcounty":"Lodonga","addr:village":"Basilica","amenity":"waste_disposal","fee":"no","lit":"no","operator:type":"community","source:form":"Sanitation;v3.0.2","start_date":"2017-04-01","waste":"domestic_waste"}},"type":"Feature"},
	{"geometry":{"coordinates":[31.12223,3.397352],"type":"Point"},"properties":{"name":"Global Nursery And Primary School Disposable Pit","osm_id":"5561536286","tag":{"addr:county":"Aringa","addr:district":"Yumbe","addr:parish":"Yiba","addr:subcounty":"Lodonga","addr:village":"Yiba","amenity":"waste_disposal","fee":"no","lit":"no","operator:type":"community","source:form":"Sanitation;v3.0.2","start_date":"2015-06-01","waste":"domestic_waste"}},"type":"Feature"},
	{"geometry":{"coordinates":[31.123023,3.40111],"type":"Point"},"properties":{"name":"Yiba Primary Disposable Pit","osm_id":"5561536290","tag":{"addr:county":"Aringa","addr:district":"Yumbe","addr:parish":"Yiba","addr:subcounty":"Lodonga","addr:village":"Yiba","amenity":"waste_basket","fee":"no","lit":"no","operator:type":"community","source:form":"Sanitation;v3.0.2","start_date":"2016-09-01","waste":"domestic_waste"}},"type":"Feature"}
]
}
