{
"type": "FeatureCollection",
"features": [
	{"geometry":{"coordinates":[31.172652,3.183977],"type":"Point"},"properties":{"osm_id":"5322076836","tag":{"addr:block":"Block 06","addr:district":"Arua","addr:settlement":"Rhino Camp","addr:village":"Tank 06","addr:zone":"Omugo","amenity":"waste_disposal","operator":"Community","waste":"general"}},"type":"Feature"},
	{"geometry":{"coordinates":[31.169297,3.19136],"type":"Point"},"properties":{"osm_id":"5322076847","tag":{"addr:block":"Block 09","addr:district":"Arua","addr:settlement":"Rhino Camp","addr:village":"Tank 07","addr:zone":"Omugo","amenity":"waste_disposal","operator":"Community","waste":"all_waste"}},"type":"Feature"},
	{"geometry":{"coordinates":[31.163963,3.193422],"type":"Point"},"properties":{"osm_id":"5322076851","tag":{"addr:block":"Block 01","addr:district":"Arua","addr:settlement":"Rhino Camp","addr:village":"Tank 08","addr:zone":"Omugo","amenity":"waste_disposal","operator":"Community","waste":"all_waste"}},"type":"Feature"},
	{"geometry":{"coordinates":[31.169486,3.19462],"type":"Point"},"properties":{"osm_id":"5322076878","tag":{"addr:block":"Tank 02","addr:district":"Arua","addr:settlement":"Rhino Camp","addr:village":"Omugo II","addr:zone":"Omugo","amenity":"waste_disposal","operator:type":"ngo","waste":"solid_waste"}},"type":"Feature"},
	{"geometry":{"coordinates":[31.172813,3.184362],"type":"Point"},"properties":{"osm_id":"5322076887","tag":{"addr:block":"Block 07","addr:district":"Arua","addr:settlement":"Rhino Camp","addr:village":"Tank 06","addr:zone":"Omugo","amenity":"waste_disposal","operator":"Community","waste":"dust_pit"}},"type":"Feature"},
	{"geometry":{"coordinates":[31.178142,3.180405],"type":"Point"},"properties":{"osm_id":"5322077324","tag":{"addr:block":"Block 04","addr:district":"Arua","addr:settlement":"Rhino Camp","addr:village":"Reception Centre","addr:zone":"Omugo","amenity":"waste_disposal","operator:type":"government","waste":"mixed"}},"type":"Feature"},
	{"geometry":{"coordinates":[31.173753,3.186873],"type":"Point"},"properties":{"name":"Dust pit","osm_id":"5322077329","tag":{"addr:block":"Tank 03","addr:district":"Arua","addr:settlement":"Rhino Camp","addr:village":"Omugo I","addr:zone":"Omugo","amenity":"waste_disposal","operator":"Community","start_date":"2017-11-01","waste":"convenience"}},"type":"Feature"},
	{"geometry":{"coordinates":[31.184352,3.175708],"type":"Point"},"properties":{"osm_id":"5322077339","tag":{"addr:block":"Tank 19","addr:district":"Arua","addr:settlement":"Rhino Camp","addr:village":"Omugo I","addr:zone":"Omugo","amenity":"waste_disposal","operator":"Community","start_date":"2017-11-01","waste":"convenience"}},"type":"Feature"},
	{"geometry":{"coordinates":[31.182164,3.173763],"type":"Point"},"properties":{"name":"Dugged pit","osm_id":"5322077343","tag":{"addr:district":"Arua","addr:settlement":"Rhino Camp","addr:village":"Omugo I","addr:zone":"Omugo","amenity":"recycling","operator":"Community","recycling_type":"container","start_date":"2017-11-01"}},"type":"Feature"},
	{"geometry":{"coordinates":[31.168967,3.191785],"type":"Point"},"properties":{"osm_id":"5322077355","tag":{"addr:block":"Block 09","addr:district":"Arua","addr:settlement":"Rhino Camp","addr:village":"Tank 7","addr:zone":"Omugo","amenity":"waste_disposal","operator":"Community","waste":"all_waste"}},"type":"Feature"},
	{"geometry":{"coordinates":[31.173125,3.183933],"type":"Point"},"properties":{"osm_id":"5322077369","tag":{"addr:block":"Block 06","addr:district":"Arua","addr:settlement":"Rhino Camp","addr:village":"Tank 06","addr:zone":"Omugo","amenity":"recycling","operator":"Community","recycling_type":"container","waste":"general"}},"type":"Feature"},
	{"geometry":{"coordinates":[31.173137,3.184655],"type":"Point"},"properties":{"osm_id":"5322077378","tag":{"addr:block":"Block 06","addr:district":"Arua","addr:settlement":"Rhino Camp","addr:village":"Tank 06","addr:zone":"Omugo","amenity":"waste_disposal","operator":"Community","waste":"all_waste"}},"type":"Feature"}
]
}
