{
"type": "FeatureCollection",
"features": [
	{"geometry":{"coordinates":[31.118412,0.335328],"type":"Point"},"properties":{"name":"Waste disposal","osm_id":"6227598177","tag":{"addr:country":"UG","addr:district":"Kyegegwa","addr:settlement":"Kyaka II Refugee Settlement","addr:village":"Kaborogota B","addr:zone":"Kaborogota","amenity":"waste_disposal","community":"no","fee":"no","lit":"Unlit","opening_date":"2018-04-04","operational_status":"yes","operator":"community","toilets:access":"customers","waste_flooding":"yes"}},"type":"Feature"},
	{"geometry":{"coordinates":[31.11846,0.33536],"type":"Point"},"properties":{"name":"Waste basket","osm_id":"6227598178","tag":{"addr:country":"UG","addr:district":"Kyegegwa","addr:settlement":"Kyaka II Refugee Settlement","addr:village":"Kaborogota B","addr:zone":"Kaborogota","amenity":"waste_basket","community":"no","fee":"no","lit":"Unlit","opening_date":"2018-04-04","operational_status":"yes","operator":"ngo","operator_name":"AHA","toilets:access":"customers"}},"type":"Feature"},
	{"geometry":{"coordinates":[31.118383,0.33539],"type":"Point"},"properties":{"name":"Kaborogota kasoko","osm_id":"6227602298","tag":{"addr:country":"UG","addr:district":"Kyegegwa","addr:settlement":"Kyaka II Refugee Settlement","addr:village":"Kaborogota A","addr:zone":"Kaborogota","amenity":"waste_disposal","community":"yes","fee":"no","lit":"Unlit","opening_date":"2018-01-10","operational_status":"yes","operator":"community","toilets:access":"public","waste_flooding":"yes"}},"type":"Feature"},
	{"geometry":{"coordinates":[31.118452,0.335325],"type":"Point"},"properties":{"name":"Kaborogota nusary school","osm_id":"6227602299","tag":{"addr:country":"UG","addr:district":"Kyegegwa","addr:settlement":"Kyaka II Refugee Settlement","addr:village":"Kaborogota A","addr:zone":"Kaborogota","amenity":"waste_disposal","community":"no","fee":"no","lit":"Unlit","opening_date":"2017-02-17","operational_status":"yes","operator":"community","toilets:access":"public","waste_flooding":"yes"}},"type":"Feature"}
]
}
