{
"type": "FeatureCollection",
"lastupdate": "2020-08-05T00:00:00Z",
"features": [
	{"geometry":{"coordinates":[-3.393183,47.995421],"type":"Point"},"properties":{"osm_id":"440745421","tag":{"amenity":"recycling","operator":"Syndicat de traitement des d\u00e9chets du Sud-Est Morbihan","recycling:cans":"no","recycling:clothes":"no","recycling:glass":"yes","recycling:glass_bottles":"yes","recycling:paper":"no","recycling:plastic":"no","recycling_type":"container","wheelchair":"no"}},"type":"Feature"},
	{"geometry":{"coordinates":[-3.391291,47.991846],"type":"Point"},"properties":{"osm_id":"440746030","tag":{"amenity":"recycling"}},"type":"Feature"},
	{"geometry":{"coordinates":[-3.393195,47.995454],"type":"Point"},"properties":{"osm_id":"3864474867","tag":{"amenity":"recycling","operator":"Syndicat de traitement des d\u00e9chets du Sud-Est Morbihan","recycling:cans":"no","recycling:clothes":"no","recycling:glass":"yes","recycling:glass_bottles":"yes","recycling:paper":"no","recycling:plastic":"no","recycling_type":"container","wheelchair":"no"}},"type":"Feature"},
	{"geometry":{"coordinates":[-3.393213,47.99549],"type":"Point"},"properties":{"osm_id":"3864474868","tag":{"amenity":"recycling","operator":"Le Relais","recycling:cans":"no","recycling:clothes":"yes","recycling:glass":"no","recycling:glass_bottles":"no","recycling:paper":"no","recycling:plastic":"no","recycling_type":"container","wheelchair":"no"}},"type":"Feature"},
	{"geometry":{"coordinates":[-3.351092,48.037663],"type":"Point"},"properties":{"osm_id":"7324083175","tag":{"amenity":"waste_basket"}},"type":"Feature"},
	{"geometry":{"coordinates":[-3.351141,48.037619],"type":"Point"},"properties":{"osm_id":"7324083176","tag":{"amenity":"recycling","recycling_type":"container"}},"type":"Feature"},
	{"geometry":{"coordinates":[-3.351137,48.037641],"type":"Point"},"properties":{"osm_id":"7324083177","tag":{"amenity":"recycling","recycling_type":"container"}},"type":"Feature"},
	{"geometry":{"coordinates":[-3.391817,47.996832],"type":"Point"},"properties":{"osm_id":"7779438206","tag":{"amenity":"waste_basket"}},"type":"Feature"}
]
}
