{
"type": "FeatureCollection",
"features": [
	{"geometry":{"coordinates":[-3.355371,42.038984],"type":"Point"},"properties":{"osm_id":"1727167054","tag":{"amenity":"recycling","recycling_type":"container"}},"type":"Feature"},
	{"geometry":{"coordinates":[-3.357272,42.039516],"type":"Point"},"properties":{"osm_id":"1727167191","tag":{"amenity":"recycling","recycling_type":"container"}},"type":"Feature"},
	{"geometry":{"coordinates":[-3.423718,42.067885],"type":"Point"},"properties":{"osm_id":"5918686273","tag":{"amenity":"recycling"}},"type":"Feature"},
	{"geometry":{"coordinates":[-3.358736,42.039491],"type":"Point"},"properties":{"osm_id":"6295711820","tag":{"amenity":"recycling","recycling:paper":"yes"}},"type":"Feature"},
	{"geometry":{"coordinates":[-3.358572,42.039012],"type":"Point"},"properties":{"osm_id":"6295711835","tag":{"amenity":"recycling","recycling:glass_bottles":"yes"}},"type":"Feature"},
	{"geometry":{"coordinates":[-3.356765,42.040005],"type":"Point"},"properties":{"osm_id":"6295741836","tag":{"amenity":"recycling","recycling:glass_bottles":"yes"}},"type":"Feature"},
	{"geometry":{"coordinates":[-3.397312,42.061616],"type":"Point"},"properties":{"osm_id":"6861277253","tag":{"amenity":"recycling"}},"type":"Feature"},
	{"geometry":{"coordinates":[-3.42767,42.068927],"type":"Point"},"properties":{"osm_id":"6955895341","tag":{"amenity":"recycling"}},"type":"Feature"},
	{"geometry":{"coordinates":[-3.427066,42.066611],"type":"Point"},"properties":{"osm_id":"6958424668","tag":{"amenity":"recycling","mapillary":"RgcVz6jv94takQ71u8ZsIQ","recycling:glass_bottles":"yes","recycling_type":"container","survey:date":"2019-05-11"}},"type":"Feature"},
	{"geometry":{"coordinates":[-3.361406,42.084763],"type":"Point"},"properties":{"osm_id":"7131742775","tag":{"amenity":"recycling"}},"type":"Feature"},
	{"geometry":{"coordinates":[-3.358198,42.085143],"type":"Point"},"properties":{"osm_id":"7228487304","tag":{"amenity":"recycling","recycling:glass_bottles":"yes"}},"type":"Feature"}
]
}
