{
"type": "FeatureCollection",
"features": [
	{"geometry":{"coordinates":[-3.370946,40.477136],"type":"Point"},"properties":{"osm_id":"1475566266","tag":{"amenity":"recycling","recycling:cans":"yes","recycling_type":"container"}},"type":"Feature"},
	{"geometry":{"coordinates":[-3.367368,40.511056],"type":"Point"},"properties":{"osm_id":"2270974210","tag":{"amenity":"recycling","recycling:cans":"yes","recycling:glass_bottles":"yes","recycling:paper":"yes","recycling_type":"container"}},"type":"Feature"},
	{"geometry":{"coordinates":[-3.359831,40.511661],"type":"Point"},"properties":{"osm_id":"2839930330","tag":{"amenity":"recycling","recycling:cans":"no","recycling:clothes":"no","recycling:glass_bottles":"yes","recycling:paper":"yes","recycling_type":"container"}},"type":"Feature"},
	{"geometry":{"coordinates":[-3.360506,40.511362],"type":"Point"},"properties":{"osm_id":"2839931355","tag":{"amenity":"recycling","recycling:cans":"no","recycling:clothes":"no","recycling:glass_bottles":"yes","recycling:paper":"yes","recycling_type":"container"}},"type":"Feature"},
	{"geometry":{"coordinates":[-3.372555,40.472573],"type":"Point"},"properties":{"osm_id":"3758864002","tag":{"amenity":"recycling","recycling_type":"container"}},"type":"Feature"},
	{"geometry":{"coordinates":[-3.346079,40.485165],"type":"Point"},"properties":{"osm_id":"3839218286","tag":{"addr:city":"Alcal\u00c3\u00a1 de Henares","addr:street":"Calle Zaragoza","amenity":"recycling","recycling:glass_bottles":"yes","recycling:organic_waste":"yes","recycling:paper":"yes","recycling:plastic_packaging":"yes","recycling_type":"container"}},"type":"Feature"},
	{"geometry":{"coordinates":[-3.345662,40.485389],"type":"Point"},"properties":{"osm_id":"3839218287","tag":{"addr:city":"Alcal\u00c3\u00a1 de Henares","addr:postcode":"28804","addr:street":"Calle Zaragoza","amenity":"recycling","recycling:cans":"yes","recycling:plastic":"yes","recycling_type":"container"}},"type":"Feature"},
	{"geometry":{"coordinates":[-3.370634,40.470915],"type":"Point"},"properties":{"osm_id":"3841832398","tag":{"addr:street":"Calle R\u00c3\u00ado Arlanza","amenity":"recycling","recycling:cans":"yes","recycling_type":"container"}},"type":"Feature"},
	{"geometry":{"coordinates":[-3.348117,40.485085],"type":"Point"},"properties":{"osm_id":"3852085230","tag":{"addr:city":"Alcal\u00c3\u00a1 de Henares","addr:postcode":"28804","addr:street":"Avenida de Valladolid","amenity":"recycling","recycling:cans":"yes","recycling:clothes":"yes","recycling:glass_bottles":"yes","recycling:paper":"yes","recycling:plastic":"yes","recycling_type":"container"}},"type":"Feature"},
	{"geometry":{"coordinates":[-3.36031,40.477669],"type":"Point"},"properties":{"osm_id":"4069160394","tag":{"amenity":"recycling","recycling:cans":"yes","recycling:clothes":"yes","recycling:glass_bottles":"yes","recycling:paper":"yes","recycling_type":"container"}},"type":"Feature"},
	{"geometry":{"coordinates":[-3.364078,40.480089],"type":"Point"},"properties":{"osm_id":"4069160456","tag":{"amenity":"recycling","recycling:cans":"yes","recycling:glass_bottles":"yes","recycling:paper":"yes","recycling_type":"container"}},"type":"Feature"},
	{"geometry":{"coordinates":[-3.350471,40.487572],"type":"Point"},"properties":{"osm_id":"4927278511","tag":{"amenity":"recycling","recycling:organic_waste":"yes","recycling:plastic_packaging":"yes","recycling_type":"container"}},"type":"Feature"},
	{"geometry":{"coordinates":[-3.353135,40.484198],"type":"Point"},"properties":{"osm_id":"4942616823","tag":{"amenity":"recycling","recycling_type":"container"}},"type":"Feature"},
	{"geometry":{"coordinates":[-3.339899,40.493094],"type":"Point"},"properties":{"osm_id":"4946879722","tag":{"amenity":"waste_basket"}},"type":"Feature"},
	{"geometry":{"coordinates":[-3.345318,40.4845],"type":"Point"},"properties":{"osm_id":"4947083722","tag":{"amenity":"waste_basket"}},"type":"Feature"},
	{"geometry":{"coordinates":[-3.344628,40.483933],"type":"Point"},"properties":{"osm_id":"4955057934","tag":{"amenity":"recycling","recycling:organic_waste":"yes","recycling:plastic_bottles":"yes","recycling:plastic_packaging":"yes","recycling_type":"container"}},"type":"Feature"},
	{"geometry":{"coordinates":[-3.366512,40.502421],"type":"Point"},"properties":{"osm_id":"4963459321","tag":{"amenity":"recycling","recycling:clothes":"yes","recycling:cooking_oil":"yes","recycling:shoes":"yes","recycling_type":"container"}},"type":"Feature"},
	{"geometry":{"coordinates":[-3.340214,40.48584],"type":"Point"},"properties":{"osm_id":"4986415424","tag":{"amenity":"recycling","location":"overground","recycling_type":"container"}},"type":"Feature"},
	{"geometry":{"coordinates":[-3.371793,40.50338],"type":"Point"},"properties":{"osm_id":"5107045049","tag":{"amenity":"recycling","recycling:fluorescent_tubes":"yes","recycling_type":"container"}},"type":"Feature"},
	{"geometry":{"coordinates":[-3.374538,40.496584],"type":"Point"},"properties":{"osm_id":"5376846077","tag":{"amenity":"recycling","recycling:glass_bottles":"yes","recycling:paper":"yes","recycling_type":"container"}},"type":"Feature"},
	{"geometry":{"coordinates":[-3.360262,40.494656],"type":"Point"},"properties":{"osm_id":"6332010788","tag":{"amenity":"recycling","recycling:clothes":"yes","recycling:oil":"yes","recycling_type":"container"}},"type":"Feature"},
	{"geometry":{"coordinates":[-3.395314,40.483278],"type":"Point"},"properties":{"osm_id":"6334092747","tag":{"amenity":"recycling","recycling:clothes":"yes","recycling:glass_bottles":"yes","recycling:paper":"yes","recycling:plastic_packaging":"yes","recycling_type":"container"}},"type":"Feature"},
	{"geometry":{"coordinates":[-3.346154,40.483653],"type":"Point"},"properties":{"osm_id":"7086357653","tag":{"amenity":"waste_disposal"}},"type":"Feature"},
	{"geometry":{"coordinates":[-3.350009,40.501413],"type":"Point"},"properties":{"osm_id":"7154232453","tag":{"amenity":"recycling","recycling_type":"container"}},"type":"Feature"},
	{"geometry":{"coordinates":[-3.359804,40.463344],"type":"Point"},"properties":{"osm_id":"9183986172","tag":{"amenity":"recycling","recycling:plastic_packaging":"yes","recycling_type":"container"}},"type":"Feature"}
]
}
