{
"type": "FeatureCollection",
"features": [
	{"geometry":{"coordinates":[-3.407243,36.8969],"type":"Point"},"properties":{"osm_id":"3470896203","tag":{"amenity":"waste_disposal"}},"type":"Feature"},
	{"geometry":{"coordinates":[-3.422551,36.898469],"type":"Point"},"properties":{"osm_id":"5817831362","tag":{"amenity":"waste_disposal"}},"type":"Feature"},
	{"geometry":{"coordinates":[-3.421601,36.897878],"type":"Point"},"properties":{"osm_id":"5817831365","tag":{"amenity":"waste_disposal"}},"type":"Feature"},
	{"geometry":{"coordinates":[-3.361088,36.939719],"type":"Point"},"properties":{"osm_id":"6001733770","tag":{"amenity":"recycling","recycling:plastic":"yes","recycling_type":"container"}},"type":"Feature"},
	{"geometry":{"coordinates":[-3.3611,36.939711],"type":"Point"},"properties":{"osm_id":"6268810505","tag":{"amenity":"recycling","recycling:glass_bottles":"yes","recycling_type":"container"}},"type":"Feature"},
	{"geometry":{"coordinates":[-3.361113,36.939698],"type":"Point"},"properties":{"osm_id":"6268810506","tag":{"amenity":"recycling","recycling:cartons":"yes","recycling:paper":"yes","recycling_type":"container"}},"type":"Feature"}
]
}
