{
"type": "FeatureCollection",
"features": [
	{"geometry":{"coordinates":[34.052662,35.01546],"type":"Point"},"properties":{"osm_id":"946023911","tag":{"amenity":"waste_basket"}},"type":"Feature"},
	{"geometry":{"coordinates":[34.050946,35.01657],"type":"Point"},"properties":{"osm_id":"947267264","tag":{"amenity":"waste_basket"}},"type":"Feature"},
	{"geometry":{"coordinates":[34.050841,35.01663],"type":"Point"},"properties":{"osm_id":"947267481","tag":{"amenity":"recycling"}},"type":"Feature"},
	{"geometry":{"coordinates":[34.050745,35.016703],"type":"Point"},"properties":{"osm_id":"947267651","tag":{"amenity":"waste_basket"}},"type":"Feature"},
	{"geometry":{"coordinates":[34.051556,35.015927],"type":"Point"},"properties":{"osm_id":"947267758","tag":{"amenity":"waste_basket"}},"type":"Feature"},
	{"geometry":{"coordinates":[34.051344,35.016338],"type":"Point"},"properties":{"osm_id":"947267863","tag":{"amenity":"waste_basket"}},"type":"Feature"},
	{"geometry":{"coordinates":[34.053205,35.014716],"type":"Point"},"properties":{"osm_id":"948448995","tag":{"amenity":"waste_basket"}},"type":"Feature"},
	{"geometry":{"coordinates":[34.05274,35.015393],"type":"Point"},"properties":{"osm_id":"948669103","tag":{"amenity":"waste_basket"}},"type":"Feature"},
	{"geometry":{"coordinates":[34.053021,35.015188],"type":"Point"},"properties":{"osm_id":"948669218","tag":{"amenity":"waste_basket"}},"type":"Feature"},
	{"geometry":{"coordinates":[34.052799,35.015356],"type":"Point"},"properties":{"osm_id":"948669289","tag":{"amenity":"waste_basket"}},"type":"Feature"},
	{"geometry":{"coordinates":[34.052966,35.015225],"type":"Point"},"properties":{"osm_id":"948669392","tag":{"amenity":"waste_basket"}},"type":"Feature"},
	{"geometry":{"coordinates":[34.054721,35.013605],"type":"Point"},"properties":{"osm_id":"948919254","tag":{"amenity":"waste_basket"}},"type":"Feature"},
	{"geometry":{"coordinates":[34.056155,35.012055],"type":"Point"},"properties":{"osm_id":"948919284","tag":{"amenity":"waste_basket"}},"type":"Feature"},
	{"geometry":{"coordinates":[34.056022,35.012138],"type":"Point"},"properties":{"osm_id":"948919310","tag":{"amenity":"waste_basket"}},"type":"Feature"},
	{"geometry":{"coordinates":[34.055103,35.013042],"type":"Point"},"properties":{"osm_id":"948919335","tag":{"amenity":"waste_basket"}},"type":"Feature"},
	{"geometry":{"coordinates":[34.054185,35.013936],"type":"Point"},"properties":{"osm_id":"948919410","tag":{"amenity":"waste_basket"}},"type":"Feature"},
	{"geometry":{"coordinates":[34.056352,35.011932],"type":"Point"},"properties":{"osm_id":"948919431","tag":{"amenity":"recycling"}},"type":"Feature"},
	{"geometry":{"coordinates":[34.050314,35.016841],"type":"Point"},"properties":{"osm_id":"948919433","tag":{"amenity":"waste_basket"}},"type":"Feature"},
	{"geometry":{"coordinates":[34.054018,35.014076],"type":"Point"},"properties":{"osm_id":"948919477","tag":{"amenity":"waste_basket"}},"type":"Feature"},
	{"geometry":{"coordinates":[34.056303,35.011982],"type":"Point"},"properties":{"osm_id":"948919488","tag":{"amenity":"waste_basket"}},"type":"Feature"},
	{"geometry":{"coordinates":[34.054593,35.013718],"type":"Point"},"properties":{"osm_id":"948919528","tag":{"amenity":"waste_basket"}},"type":"Feature"},
	{"geometry":{"coordinates":[34.056314,35.011762],"type":"Point"},"properties":{"osm_id":"950713452","tag":{"amenity":"waste_basket"}},"type":"Feature"},
	{"geometry":{"coordinates":[34.05708,35.011039],"type":"Point"},"properties":{"osm_id":"950713487","tag":{"amenity":"waste_basket"}},"type":"Feature"},
	{"geometry":{"coordinates":[34.057015,35.011111],"type":"Point"},"properties":{"osm_id":"950713509","tag":{"amenity":"waste_basket"}},"type":"Feature"},
	{"geometry":{"coordinates":[34.057078,35.010626],"type":"Point"},"properties":{"osm_id":"950713538","tag":{"amenity":"waste_basket"}},"type":"Feature"},
	{"geometry":{"coordinates":[34.056422,35.010987],"type":"Point"},"properties":{"osm_id":"950786105","tag":{"amenity":"waste_disposal"}},"type":"Feature"},
	{"geometry":{"coordinates":[34.05525,35.010522],"type":"Point"},"properties":{"osm_id":"950786114","tag":{"amenity":"waste_basket"}},"type":"Feature"},
	{"geometry":{"coordinates":[34.04964,35.013853],"type":"Point"},"properties":{"osm_id":"950786183","tag":{"amenity":"waste_basket"}},"type":"Feature"},
	{"geometry":{"coordinates":[34.056193,35.011208],"type":"Point"},"properties":{"osm_id":"950786282","tag":{"amenity":"waste_disposal"}},"type":"Feature"},
	{"geometry":{"coordinates":[34.056486,35.010506],"type":"Point"},"properties":{"osm_id":"950786303","tag":{"amenity":"waste_disposal"}},"type":"Feature"},
	{"geometry":{"coordinates":[34.050914,35.012773],"type":"Point"},"properties":{"osm_id":"950786471","tag":{"amenity":"waste_basket"}},"type":"Feature"},
	{"geometry":{"coordinates":[34.054186,35.010689],"type":"Point"},"properties":{"osm_id":"950786489","tag":{"amenity":"waste_disposal"}},"type":"Feature"},
	{"geometry":{"coordinates":[34.049006,35.014735],"type":"Point"},"properties":{"osm_id":"952464129","tag":{"amenity":"waste_disposal"}},"type":"Feature"},
	{"geometry":{"coordinates":[34.046188,35.017882],"type":"Point"},"properties":{"osm_id":"952464296","tag":{"amenity":"waste_disposal"}},"type":"Feature"},
	{"geometry":{"coordinates":[34.047288,35.017651],"type":"Point"},"properties":{"osm_id":"952464360","tag":{"amenity":"waste_basket"}},"type":"Feature"},
	{"geometry":{"coordinates":[34.04644,35.017227],"type":"Point"},"properties":{"osm_id":"952464542","tag":{"amenity":"waste_basket"}},"type":"Feature"},
	{"geometry":{"coordinates":[34.048591,35.014835],"type":"Point"},"properties":{"osm_id":"952464694","tag":{"amenity":"waste_basket"}},"type":"Feature"},
	{"geometry":{"coordinates":[34.046573,35.016873],"type":"Point"},"properties":{"osm_id":"952464786","tag":{"amenity":"waste_disposal"}},"type":"Feature"},
	{"geometry":{"coordinates":[34.048962,35.014785],"type":"Point"},"properties":{"osm_id":"952464978","tag":{"amenity":"waste_basket"}},"type":"Feature"},
	{"geometry":{"coordinates":[34.046785,35.017253],"type":"Point"},"properties":{"osm_id":"952465014","tag":{"amenity":"waste_disposal"}},"type":"Feature"},
	{"geometry":{"coordinates":[34.048131,35.017419],"type":"Point"},"properties":{"osm_id":"952465353","tag":{"amenity":"waste_basket"}},"type":"Feature"},
	{"geometry":{"coordinates":[34.047616,35.017693],"type":"Point"},"properties":{"osm_id":"952465429","tag":{"amenity":"waste_basket"}},"type":"Feature"},
	{"geometry":{"coordinates":[34.048885,35.017054],"type":"Point"},"properties":{"osm_id":"952658623","tag":{"amenity":"waste_basket"}},"type":"Feature"},
	{"geometry":{"coordinates":[34.049183,35.0168],"type":"Point"},"properties":{"osm_id":"952658687","tag":{"amenity":"waste_disposal"}},"type":"Feature"},
	{"geometry":{"coordinates":[34.049129,35.016907],"type":"Point"},"properties":{"osm_id":"952658733","tag":{"amenity":"recycling"}},"type":"Feature"},
	{"geometry":{"coordinates":[34.04999,35.01684],"type":"Point"},"properties":{"osm_id":"952766367","tag":{"amenity":"waste_basket"}},"type":"Feature"},
	{"geometry":{"coordinates":[34.050731,35.01653],"type":"Point"},"properties":{"osm_id":"952766387","tag":{"amenity":"waste_basket"}},"type":"Feature"},
	{"geometry":{"coordinates":[34.05651,35.011837],"type":"Point"},"properties":{"osm_id":"956400903","tag":{"amenity":"waste_basket"}},"type":"Feature"},
	{"geometry":{"coordinates":[34.056501,35.011926],"type":"Point"},"properties":{"osm_id":"956400936","tag":{"amenity":"waste_disposal"}},"type":"Feature"},
	{"geometry":{"coordinates":[34.057798,35.010231],"type":"Point"},"properties":{"osm_id":"956400962","tag":{"amenity":"waste_basket"}},"type":"Feature"},
	{"geometry":{"coordinates":[34.056515,35.011882],"type":"Point"},"properties":{"osm_id":"956400968","tag":{"amenity":"recycling"}},"type":"Feature"},
	{"geometry":{"coordinates":[34.056621,35.011674],"type":"Point"},"properties":{"osm_id":"956400999","tag":{"amenity":"waste_basket"}},"type":"Feature"},
	{"geometry":{"coordinates":[34.058273,35.005295],"type":"Point"},"properties":{"osm_id":"957286095","tag":{"amenity":"waste_disposal"}},"type":"Feature"},
	{"geometry":{"coordinates":[34.058664,35.007679],"type":"Point"},"properties":{"osm_id":"957286281","tag":{"amenity":"waste_basket"}},"type":"Feature"},
	{"geometry":{"coordinates":[34.058382,35.006122],"type":"Point"},"properties":{"osm_id":"957286318","tag":{"amenity":"waste_basket"}},"type":"Feature"},
	{"geometry":{"coordinates":[34.06154,35.000929],"type":"Point"},"properties":{"osm_id":"957644158","tag":{"amenity":"waste_basket"}},"type":"Feature"},
	{"geometry":{"coordinates":[34.061653,35.001042],"type":"Point"},"properties":{"osm_id":"957645034","tag":{"amenity":"waste_basket"}},"type":"Feature"},
	{"geometry":{"coordinates":[34.060029,35.002354],"type":"Point"},"properties":{"osm_id":"957645283","tag":{"amenity":"waste_basket"}},"type":"Feature"},
	{"geometry":{"coordinates":[34.063514,34.999679],"type":"Point"},"properties":{"osm_id":"958527703","tag":{"amenity":"waste_disposal"}},"type":"Feature"},
	{"geometry":{"coordinates":[34.064064,34.998781],"type":"Point"},"properties":{"osm_id":"958527926","tag":{"amenity":"waste_disposal"}},"type":"Feature"},
	{"geometry":{"coordinates":[34.065195,35.001389],"type":"Point"},"properties":{"osm_id":"958528427","tag":{"amenity":"recycling"}},"type":"Feature"},
	{"geometry":{"coordinates":[34.054904,35.004519],"type":"Point"},"properties":{"osm_id":"958553383","tag":{"amenity":"waste_basket"}},"type":"Feature"},
	{"geometry":{"coordinates":[34.058478,35.01289],"type":"Point"},"properties":{"osm_id":"958758259","tag":{"amenity":"waste_basket"}},"type":"Feature"},
	{"geometry":{"coordinates":[34.058433,35.012953],"type":"Point"},"properties":{"osm_id":"958758287","tag":{"amenity":"waste_basket"}},"type":"Feature"},
	{"geometry":{"coordinates":[34.05708,35.012224],"type":"Point"},"properties":{"osm_id":"958758311","tag":{"amenity":"recycling"}},"type":"Feature"},
	{"geometry":{"coordinates":[34.057347,35.013819],"type":"Point"},"properties":{"osm_id":"958758325","tag":{"amenity":"waste_basket"}},"type":"Feature"},
	{"geometry":{"coordinates":[34.057267,35.013861],"type":"Point"},"properties":{"osm_id":"958758390","tag":{"amenity":"recycling"}},"type":"Feature"},
	{"geometry":{"coordinates":[34.056476,35.012126],"type":"Point"},"properties":{"osm_id":"958758394","tag":{"amenity":"waste_basket"}},"type":"Feature"},
	{"geometry":{"coordinates":[34.057973,35.013272],"type":"Point"},"properties":{"osm_id":"958758624","tag":{"amenity":"waste_basket"}},"type":"Feature"},
	{"geometry":{"coordinates":[34.040761,35.019551],"type":"Point"},"properties":{"osm_id":"962316483","tag":{"amenity":"recycling"}},"type":"Feature"},
	{"geometry":{"coordinates":[34.041826,35.019346],"type":"Point"},"properties":{"osm_id":"962316545","tag":{"amenity":"waste_basket"}},"type":"Feature"},
	{"geometry":{"coordinates":[34.058242,35.011681],"type":"Point"},"properties":{"name":"RECYCLING STATION","osm_id":"1548545669","tag":{"amenity":"recycling"}},"type":"Feature"},
	{"geometry":{"coordinates":[34.071362,34.988968],"type":"Point"},"properties":{"osm_id":"2096943067","tag":{"amenity":"waste_disposal"}},"type":"Feature"},
	{"geometry":{"coordinates":[34.073173,34.970012],"type":"Point"},"properties":{"osm_id":"2097834430","tag":{"amenity":"waste_disposal"}},"type":"Feature"},
	{"geometry":{"coordinates":[34.080568,34.962815],"type":"Point"},"properties":{"osm_id":"2098709711","tag":{"amenity":"waste_basket"}},"type":"Feature"},
	{"geometry":{"coordinates":[34.08132,34.963541],"type":"Point"},"properties":{"osm_id":"2098709721","tag":{"amenity":"waste_basket"}},"type":"Feature"},
	{"geometry":{"coordinates":[34.077057,34.965257],"type":"Point"},"properties":{"osm_id":"2098709835","tag":{"amenity":"waste_basket"}},"type":"Feature"},
	{"geometry":{"coordinates":[34.079734,34.96589],"type":"Point"},"properties":{"osm_id":"2098709887","tag":{"amenity":"waste_basket"}},"type":"Feature"},
	{"geometry":{"coordinates":[34.07104,34.970475],"type":"Point"},"properties":{"osm_id":"2098748923","tag":{"amenity":"waste_basket"}},"type":"Feature"},
	{"geometry":{"coordinates":[34.067831,34.963165],"type":"Point"},"properties":{"osm_id":"2098905832","tag":{"amenity":"waste_basket"}},"type":"Feature"},
	{"geometry":{"coordinates":[34.065439,34.961972],"type":"Point"},"properties":{"osm_id":"2099032759","tag":{"amenity":"waste_basket"}},"type":"Feature"},
	{"geometry":{"coordinates":[34.065348,34.962073],"type":"Point"},"properties":{"osm_id":"2099032765","tag":{"amenity":"waste_basket"}},"type":"Feature"},
	{"geometry":{"coordinates":[34.075965,34.975395],"type":"Point"},"properties":{"osm_id":"2099032836","tag":{"amenity":"waste_disposal"}},"type":"Feature"},
	{"geometry":{"coordinates":[34.076059,34.975469],"type":"Point"},"properties":{"osm_id":"2099032838","tag":{"amenity":"waste_basket"}},"type":"Feature"},
	{"geometry":{"coordinates":[34.07605,34.975801],"type":"Point"},"properties":{"osm_id":"2099032864","tag":{"amenity":"waste_basket"}},"type":"Feature"},
	{"geometry":{"coordinates":[34.041133,35.002124],"type":"Point"},"properties":{"osm_id":"2558563846","tag":{"amenity":"waste_basket"}},"type":"Feature"},
	{"geometry":{"coordinates":[34.076004,34.973028],"type":"Point"},"properties":{"osm_id":"4405623290","tag":{"amenity":"waste_disposal"}},"type":"Feature"},
	{"geometry":{"coordinates":[34.044674,35.028703],"type":"Point"},"properties":{"osm_id":"5405288211","tag":{"amenity":"recycling"}},"type":"Feature"},
	{"geometry":{"coordinates":[34.047017,35.028283],"type":"Point"},"properties":{"osm_id":"5405289249","tag":{"amenity":"recycling"}},"type":"Feature"}
]
}
