{
"type": "FeatureCollection",
"features": [
	{"geometry":{"coordinates":[4.918768,52.664523],"type":"Point"},"properties":{"osm_id":"900838400","tag":{"amenity":"waste_basket","leisure":"picnic_table","tourism":"picnic_site"}},"type":"Feature"},
	{"geometry":{"coordinates":[4.90668,52.673611],"type":"Point"},"properties":{"osm_id":"2551905211","tag":{"amenity":"waste_basket","waste_basket":"dog_waste"}},"type":"Feature"},
	{"geometry":{"coordinates":[4.908738,52.673762],"type":"Point"},"properties":{"osm_id":"2551905212","tag":{"amenity":"waste_basket","waste_basket":"dog_waste"}},"type":"Feature"},
	{"geometry":{"coordinates":[4.910805,52.67468],"type":"Point"},"properties":{"osm_id":"2551905213","tag":{"amenity":"waste_basket","waste_basket":"dog_waste"}},"type":"Feature"},
	{"geometry":{"coordinates":[4.907698,52.675472],"type":"Point"},"properties":{"osm_id":"2551905236","tag":{"amenity":"waste_basket"}},"type":"Feature"},
	{"geometry":{"coordinates":[4.857575,52.676361],"type":"Point"},"properties":{"osm_id":"5907395756","tag":{"amenity":"waste_basket"}},"type":"Feature"},
	{"geometry":{"coordinates":[4.85557,52.675674],"type":"Point"},"properties":{"osm_id":"5918425625","tag":{"amenity":"waste_basket"}},"type":"Feature"},
	{"geometry":{"coordinates":[4.855777,52.675268],"type":"Point"},"properties":{"osm_id":"5918425705","tag":{"amenity":"waste_basket"}},"type":"Feature"},
	{"geometry":{"coordinates":[4.842781,52.671425],"type":"Point"},"properties":{"osm_id":"5946208894","tag":{"amenity":"waste_basket"}},"type":"Feature"},
	{"geometry":{"coordinates":[4.858302,52.674629],"type":"Point"},"properties":{"osm_id":"5947198436","tag":{"amenity":"waste_basket"}},"type":"Feature"},
	{"geometry":{"coordinates":[4.897473,52.675982],"type":"Point"},"properties":{"osm_id":"6699414276","tag":{"amenity":"waste_basket"}},"type":"Feature"},
	{"geometry":{"coordinates":[4.858313,52.658791],"type":"Point"},"properties":{"name":"Gemeentewerf Heerhugowaard","osm_id":"6964569406","tag":{"addr:city":"Heerhugowaard","addr:housenumber":"25","addr:postcode":"1701DA","addr:street":"Beukenlaan","amenity":"recycling","contact:phone":"14072","description":"Opened on public holidays except Kingsday (Koningsdag April 27), Ascension Day (Hemelvaartsdag May 30) and Whit Monday (2e pinksterdag June 10)","opening_hours":"Mo-Sa 08:00-16:00","operator":"Heerhugowaard","operator:type":"government","recycling_type":"centre"}},"type":"Feature"},
	{"geometry":{"coordinates":[4.847074,52.676422],"type":"Point"},"properties":{"osm_id":"7090781743","tag":{"amenity":"waste_basket","waste":"dog_excrement"}},"type":"Feature"},
	{"geometry":{"coordinates":[4.8396,52.675338],"type":"Point"},"properties":{"osm_id":"7090845623","tag":{"amenity":"waste_basket","waste":"trash"}},"type":"Feature"},
	{"geometry":{"coordinates":[4.849111,52.674471],"type":"Point"},"properties":{"osm_id":"7091103260","tag":{"amenity":"waste_basket"}},"type":"Feature"},
	{"geometry":{"coordinates":[4.852881,52.675165],"type":"Point"},"properties":{"osm_id":"7091123478","tag":{"amenity":"waste_basket"}},"type":"Feature"},
	{"geometry":{"coordinates":[4.852644,52.677766],"type":"Point"},"properties":{"osm_id":"7091222845","tag":{"amenity":"waste_basket","waste":"dog_excrement"}},"type":"Feature"},
	{"geometry":{"coordinates":[4.85119,52.673107],"type":"Point"},"properties":{"osm_id":"7091231524","tag":{"amenity":"waste_basket"}},"type":"Feature"},
	{"geometry":{"coordinates":[4.849593,52.676634],"type":"Point"},"properties":{"osm_id":"7091232733","tag":{"amenity":"waste_basket","waste":"dog_excrement"}},"type":"Feature"},
	{"geometry":{"coordinates":[4.856209,52.675167],"type":"Point"},"properties":{"osm_id":"7091233014","tag":{"amenity":"waste_basket"}},"type":"Feature"},
	{"geometry":{"coordinates":[4.856685,52.675435],"type":"Point"},"properties":{"osm_id":"7091302699","tag":{"amenity":"waste_basket"}},"type":"Feature"},
	{"geometry":{"coordinates":[4.853744,52.677768],"type":"Point"},"properties":{"osm_id":"7091318598","tag":{"amenity":"waste_basket"}},"type":"Feature"},
	{"geometry":{"coordinates":[4.855466,52.674851],"type":"Point"},"properties":{"osm_id":"7091330150","tag":{"amenity":"waste_basket"}},"type":"Feature"},
	{"geometry":{"coordinates":[4.855151,52.677674],"type":"Point"},"properties":{"osm_id":"7091330265","tag":{"amenity":"waste_basket","waste":"dog_excrement"}},"type":"Feature"},
	{"geometry":{"coordinates":[4.858755,52.677599],"type":"Point"},"properties":{"osm_id":"7091364426","tag":{"amenity":"waste_basket"}},"type":"Feature"},
	{"geometry":{"coordinates":[4.856237,52.677682],"type":"Point"},"properties":{"osm_id":"7091394565","tag":{"amenity":"waste_basket"}},"type":"Feature"},
	{"geometry":{"coordinates":[4.851037,52.671794],"type":"Point"},"properties":{"osm_id":"7091557450","tag":{"amenity":"waste_basket"}},"type":"Feature"},
	{"geometry":{"coordinates":[4.860212,52.674029],"type":"Point"},"properties":{"osm_id":"7091579150","tag":{"amenity":"waste_basket"}},"type":"Feature"},
	{"geometry":{"coordinates":[4.858319,52.674119],"type":"Point"},"properties":{"osm_id":"7106719873","tag":{"amenity":"waste_basket","waste":"dog_excrement"}},"type":"Feature"},
	{"geometry":{"coordinates":[4.856677,52.67474],"type":"Point"},"properties":{"osm_id":"7106730720","tag":{"amenity":"waste_basket"}},"type":"Feature"},
	{"geometry":{"coordinates":[4.908491,52.675076],"type":"Point"},"properties":{"osm_id":"7575389133","tag":{"amenity":"recycling","recycling:glass_bottles":"yes","recycling_type":"container"}},"type":"Feature"}
]
}
