{
"type": "FeatureCollection",
"features": [
	{"geometry":{"coordinates":[4.878497,52.437209],"type":"Point"},"properties":{"osm_id":"319496827","tag":{"amenity":"recycling","recycling:glass_bottles":"yes","recycling:paper":"no"}},"type":"Feature"},
	{"geometry":{"coordinates":[4.853427,52.435857],"type":"Point"},"properties":{"osm_id":"457500416","tag":{"amenity":"recycling","recycling_type":"container"}},"type":"Feature"},
	{"geometry":{"coordinates":[4.845074,52.435478],"type":"Point"},"properties":{"osm_id":"457500421","tag":{"amenity":"recycling","recycling_type":"container"}},"type":"Feature"},
	{"geometry":{"coordinates":[4.868125,52.437387],"type":"Point"},"properties":{"osm_id":"462636130","tag":{"amenity":"recycling","recycling:cans":"yes","recycling:glass_bottles":"yes","recycling_type":"container"}},"type":"Feature"},
	{"geometry":{"coordinates":[4.868146,52.43736],"type":"Point"},"properties":{"osm_id":"462636132","tag":{"amenity":"recycling","recycling:cans":"yes","recycling:glass_bottles":"yes","recycling_type":"container"}},"type":"Feature"},
	{"geometry":{"coordinates":[4.86808,52.437372],"type":"Point"},"properties":{"osm_id":"462636133","tag":{"amenity":"recycling","recycling_type":"container"}},"type":"Feature"},
	{"geometry":{"coordinates":[4.84464,52.435827],"type":"Point"},"properties":{"osm_id":"463772441","tag":{"amenity":"recycling","recycling_type":"container"}},"type":"Feature"},
	{"geometry":{"coordinates":[4.834813,52.46778],"type":"Point"},"properties":{"osm_id":"3639854213","tag":{"amenity":"waste_basket","colour":"dark_grey"}},"type":"Feature"},
	{"geometry":{"coordinates":[4.835577,52.468161],"type":"Point"},"properties":{"osm_id":"3639943852","tag":{"amenity":"waste_basket","colour":"dark_grey"}},"type":"Feature"},
	{"geometry":{"coordinates":[4.835482,52.468167],"type":"Point"},"properties":{"osm_id":"3639943853","tag":{"amenity":"waste_basket","colour":"grey"}},"type":"Feature"},
	{"geometry":{"coordinates":[4.845098,52.470012],"type":"Point"},"properties":{"osm_id":"3645260624","tag":{"amenity":"recycling","opening_hours":"24/7","recycling:green_waste":"yes","recycling_type":"container","wheelchair":"yes"}},"type":"Feature"},
	{"geometry":{"coordinates":[4.845082,52.470018],"type":"Point"},"properties":{"osm_id":"3645260625","tag":{"amenity":"recycling","opening_hours":"24/7","recycling:glass":"yes","recycling:glass_bottles":"yes","recycling_type":"container"}},"type":"Feature"},
	{"geometry":{"coordinates":[4.845063,52.470026],"type":"Point"},"properties":{"osm_id":"3645260626","tag":{"amenity":"recycling","recycling:cardboard":"yes","recycling:paper":"yes","recycling_type":"container"}},"type":"Feature"},
	{"geometry":{"coordinates":[4.843188,52.468443],"type":"Point"},"properties":{"osm_id":"3646682100","tag":{"amenity":"recycling","opening_hours":"24/7","recycling:cardboard":"yes","recycling:paper":"yes","recycling_type":"container","wheelchair":"yes"}},"type":"Feature"},
	{"geometry":{"coordinates":[4.843224,52.468453],"type":"Point"},"properties":{"osm_id":"3646682101","tag":{"amenity":"recycling","opening_hours":"24/7","recycling:cans":"yes","recycling:glass":"yes","recycling:glass_bottles":"yes","recycling_type":"container","wheelchair":"yes"}},"type":"Feature"},
	{"geometry":{"coordinates":[4.83776,52.469092],"type":"Point"},"properties":{"osm_id":"3647460303","tag":{"amenity":"recycling","opening_hours":"24/7","recycling:waste":"yes","recycling_type":"container","wheelchair":"yes"}},"type":"Feature"},
	{"geometry":{"coordinates":[4.83776,52.469102],"type":"Point"},"properties":{"osm_id":"3647460304","tag":{"amenity":"recycling","opening_hours":"24/7","recycling:waste":"yes","recycling_type":"container","wheelchair":"yes"}},"type":"Feature"},
	{"geometry":{"coordinates":[4.837849,52.468862],"type":"Point"},"properties":{"osm_id":"3647518379","tag":{"amenity":"recycling","opening_hours":"24/7","recycling:waste":"yes","recycling_type":"container","wheelchair":"yes"}},"type":"Feature"},
	{"geometry":{"coordinates":[4.837865,52.468864],"type":"Point"},"properties":{"osm_id":"3647518380","tag":{"amenity":"recycling","opening_hours":"24/7","recycling:waste":"yes","recycling_type":"container","wheelchair":"yes"}},"type":"Feature"},
	{"geometry":{"coordinates":[4.83784,52.468884],"type":"Point"},"properties":{"osm_id":"3647518381","tag":{"amenity":"recycling","opening_hours":"24/7","recycling:waste":"yes","recycling_type":"container","wheelchair":"yes"}},"type":"Feature"},
	{"geometry":{"coordinates":[4.837856,52.468886],"type":"Point"},"properties":{"osm_id":"3647518382","tag":{"amenity":"recycling","opening_hours":"24/7","recycling:waste":"yes","recycling_type":"container","wheelchair":"yes"}},"type":"Feature"},
	{"geometry":{"coordinates":[4.838029,52.467075],"type":"Point"},"properties":{"osm_id":"3647943254","tag":{"amenity":"waste_basket","waste_basket:colour":"red"}},"type":"Feature"},
	{"geometry":{"coordinates":[4.83835,52.467522],"type":"Point"},"properties":{"osm_id":"3647946186","tag":{"amenity":"recycling","opening_hours":"24/7","recycling:waste":"yes","recycling_type":"container","wheelchair":"yes"}},"type":"Feature"},
	{"geometry":{"coordinates":[4.838358,52.467531],"type":"Point"},"properties":{"osm_id":"3647946187","tag":{"amenity":"recycling","opening_hours":"24/7","recycling:waste":"yes","recycling_type":"container","wheelchair":"yes"}},"type":"Feature"},
	{"geometry":{"coordinates":[4.838502,52.467882],"type":"Point"},"properties":{"osm_id":"3647946188","tag":{"amenity":"recycling","opening_hours":"24/7","recycling:waste":"yes","recycling_type":"container","wheelchair":"yes"}},"type":"Feature"},
	{"geometry":{"coordinates":[4.838467,52.467889],"type":"Point"},"properties":{"osm_id":"3647946189","tag":{"amenity":"recycling","opening_hours":"24/7","recycling:waste":"yes","recycling_type":"container","wheelchair":"yes"}},"type":"Feature"},
	{"geometry":{"coordinates":[4.83851,52.467892],"type":"Point"},"properties":{"osm_id":"3647946190","tag":{"amenity":"recycling","opening_hours":"24/7","recycling:waste":"yes","recycling_type":"container","wheelchair":"yes"}},"type":"Feature"},
	{"geometry":{"coordinates":[4.838475,52.467898],"type":"Point"},"properties":{"osm_id":"3647946191","tag":{"amenity":"recycling","opening_hours":"24/7","recycling:waste":"yes","recycling_type":"container","wheelchair":"yes"}},"type":"Feature"},
	{"geometry":{"coordinates":[4.836865,52.467592],"type":"Point"},"properties":{"osm_id":"3649459920","tag":{"amenity":"recycling","opening_hours":"24/7","recycling:waste":"yes","recycling_type":"container","wheelchair":"yes"}},"type":"Feature"},
	{"geometry":{"coordinates":[4.836882,52.467594],"type":"Point"},"properties":{"osm_id":"3649459921","tag":{"amenity":"recycling","opening_hours":"24/7","recycling:waste":"yes","recycling_type":"container","wheelchair":"yes"}},"type":"Feature"},
	{"geometry":{"coordinates":[4.836187,52.467578],"type":"Point"},"properties":{"osm_id":"3649550972","tag":{"amenity":"recycling","opening_hours":"24/7","operator":"hetgoed","recycling:clothes":"yes","recycling_type":"container","website":"https://www.hetgoed.nl/","wheelchair":"yes"}},"type":"Feature"},
	{"geometry":{"coordinates":[4.836204,52.46758],"type":"Point"},"properties":{"osm_id":"3649550973","tag":{"amenity":"recycling","opening_hours":"24/7","operator":"hetgoed","recycling:clothes":"yes","recycling_type":"container","website":"https://www.hetgoed.nl/","wheelchair":"yes"}},"type":"Feature"},
	{"geometry":{"coordinates":[4.834334,52.429772],"type":"Point"},"properties":{"osm_id":"4123842158","tag":{"amenity":"recycling","opening_hours":"24/7","operator":"HVC","recycling:waste":"yes","recycling_type":"container","underground":"yes","website":"https://www.hvcgroep.nl/","wheelchair":"yes"}},"type":"Feature"},
	{"geometry":{"coordinates":[4.834363,52.429781],"type":"Point"},"properties":{"osm_id":"4123842159","tag":{"amenity":"recycling","opening_hours":"24/7","operator":"HVC","recycling:waste":"yes","recycling_type":"container","underground":"yes","website":"https://www.hvcgroep.nl/","wheelchair":"yes"}},"type":"Feature"},
	{"geometry":{"coordinates":[4.834318,52.429793],"type":"Point"},"properties":{"osm_id":"4123842160","tag":{"amenity":"recycling","opening_hours":"24/7","operator":"HVC","recycling:waste":"yes","recycling_type":"container","underground":"yes","website":"https://www.hvcgroep.nl/","wheelchair":"yes"}},"type":"Feature"},
	{"geometry":{"coordinates":[4.834347,52.429799],"type":"Point"},"properties":{"osm_id":"4123842161","tag":{"amenity":"recycling","opening_hours":"24/7","operator":"HVC","recycling:waste":"yes","recycling_type":"container","underground":"yes","website":"https://www.hvcgroep.nl/","wheelchair":"yes"}},"type":"Feature"},
	{"geometry":{"coordinates":[4.867925,52.454777],"type":"Point"},"properties":{"osm_id":"4224536398","tag":{"amenity":"recycling","opening_hours":"24/7","recycling:cans":"yes","recycling:glass":"yes","recycling:glass_bottles":"yes","recycling_type":"container","wheelchair":"yes"}},"type":"Feature"},
	{"geometry":{"coordinates":[4.878001,52.460185],"type":"Point"},"properties":{"osm_id":"4449756852","tag":{"amenity":"waste_basket"}},"type":"Feature"},
	{"geometry":{"coordinates":[4.893122,52.438824],"type":"Point"},"properties":{"osm_id":"4449837946","tag":{"amenity":"waste_basket"}},"type":"Feature"},
	{"geometry":{"coordinates":[4.893132,52.438824],"type":"Point"},"properties":{"osm_id":"4449837947","tag":{"amenity":"waste_basket"}},"type":"Feature"},
	{"geometry":{"coordinates":[4.892665,52.438848],"type":"Point"},"properties":{"osm_id":"4449837948","tag":{"amenity":"waste_basket"}},"type":"Feature"},
	{"geometry":{"coordinates":[4.892674,52.438848],"type":"Point"},"properties":{"osm_id":"4449837949","tag":{"amenity":"waste_basket"}},"type":"Feature"},
	{"geometry":{"coordinates":[4.893611,52.438797],"type":"Point"},"properties":{"osm_id":"4449838627","tag":{"amenity":"waste_basket"}},"type":"Feature"},
	{"geometry":{"coordinates":[4.89362,52.438797],"type":"Point"},"properties":{"osm_id":"4449838628","tag":{"amenity":"waste_basket"}},"type":"Feature"},
	{"geometry":{"coordinates":[4.894074,52.438772],"type":"Point"},"properties":{"osm_id":"4449838639","tag":{"amenity":"waste_basket"}},"type":"Feature"},
	{"geometry":{"coordinates":[4.894084,52.438772],"type":"Point"},"properties":{"osm_id":"4449838640","tag":{"amenity":"waste_basket"}},"type":"Feature"},
	{"geometry":{"coordinates":[4.894452,52.438753],"type":"Point"},"properties":{"osm_id":"4449839026","tag":{"amenity":"waste_basket"}},"type":"Feature"},
	{"geometry":{"coordinates":[4.894462,52.438753],"type":"Point"},"properties":{"osm_id":"4449839027","tag":{"amenity":"waste_basket"}},"type":"Feature"},
	{"geometry":{"coordinates":[4.895476,52.439207],"type":"Point"},"properties":{"osm_id":"4449839028","tag":{"amenity":"waste_basket"}},"type":"Feature"},
	{"geometry":{"coordinates":[4.895475,52.439213],"type":"Point"},"properties":{"osm_id":"4449839029","tag":{"amenity":"waste_basket"}},"type":"Feature"},
	{"geometry":{"coordinates":[4.89555,52.439541],"type":"Point"},"properties":{"osm_id":"4449839030","tag":{"amenity":"waste_basket"}},"type":"Feature"},
	{"geometry":{"coordinates":[4.895549,52.439547],"type":"Point"},"properties":{"osm_id":"4449839031","tag":{"amenity":"waste_basket"}},"type":"Feature"},
	{"geometry":{"coordinates":[4.842069,52.451538],"type":"Point"},"properties":{"osm_id":"4450975206","tag":{"amenity":"recycling","operator":"Gemeente Zaanstad","recycling_type":"container"}},"type":"Feature"},
	{"geometry":{"coordinates":[4.842108,52.451542],"type":"Point"},"properties":{"osm_id":"4450975207","tag":{"amenity":"recycling","recycling_type":"container"}},"type":"Feature"},
	{"geometry":{"coordinates":[4.842143,52.451546],"type":"Point"},"properties":{"osm_id":"4450975208","tag":{"amenity":"recycling","recycling_type":"container"}},"type":"Feature"},
	{"geometry":{"coordinates":[4.842178,52.45155],"type":"Point"},"properties":{"osm_id":"4450975209","tag":{"amenity":"recycling","operator":"Gemeente Zaanstad","recycling_type":"container"}},"type":"Feature"},
	{"geometry":{"coordinates":[4.843544,52.450215],"type":"Point"},"properties":{"osm_id":"4456371788","tag":{"amenity":"recycling","opening_hours":"24/7","operator":"Gemeente Zaanstad","recycling:waste":"yes","recycling_type":"container","wheelchair":"yes"}},"type":"Feature"},
	{"geometry":{"coordinates":[4.843571,52.45022],"type":"Point"},"properties":{"osm_id":"4456372289","tag":{"amenity":"recycling","opening_hours":"24/7","operator":"Gemeente Zaanstad","recycling:waste":"yes","recycling_type":"container","wheelchair":"yes"}},"type":"Feature"},
	{"geometry":{"coordinates":[4.846046,52.447024],"type":"Point"},"properties":{"osm_id":"4456949494","tag":{"amenity":"recycling","opening_hours":"24/7","operator":"Gemeente Zaanstad","recycling:waste":"yes","recycling_type":"container","wheelchair":"yes"}},"type":"Feature"},
	{"geometry":{"coordinates":[4.846079,52.447027],"type":"Point"},"properties":{"osm_id":"4456949495","tag":{"amenity":"recycling","opening_hours":"24/7","recycling:waste":"yes","recycling_type":"container","wheelchair":"yes"}},"type":"Feature"},
	{"geometry":{"coordinates":[4.84611,52.44703],"type":"Point"},"properties":{"osm_id":"4456949496","tag":{"amenity":"recycling","opening_hours":"24/7","recycling:waste":"yes","recycling_type":"container","wheelchair":"yes"}},"type":"Feature"},
	{"geometry":{"coordinates":[4.846145,52.447033],"type":"Point"},"properties":{"osm_id":"4456949497","tag":{"amenity":"recycling","opening_hours":"24/7","operator":"Gemeente Zaanstad","recycling:waste":"yes","recycling_type":"container","wheelchair":"yes"}},"type":"Feature"},
	{"geometry":{"coordinates":[4.845279,52.447503],"type":"Point"},"properties":{"osm_id":"4456970224","tag":{"amenity":"recycling","opening_hours":"24/7","operator":"Gemeente Zaanstad","recycling:waste":"yes","recycling_type":"container","wheelchair":"yes"}},"type":"Feature"},
	{"geometry":{"coordinates":[4.845312,52.447506],"type":"Point"},"properties":{"osm_id":"4456970225","tag":{"amenity":"recycling","opening_hours":"24/7","recycling:waste":"yes","recycling_type":"container","wheelchair":"yes"}},"type":"Feature"},
	{"geometry":{"coordinates":[4.845343,52.447509],"type":"Point"},"properties":{"osm_id":"4456970226","tag":{"amenity":"recycling","opening_hours":"24/7","recycling:waste":"yes","recycling_type":"container","wheelchair":"yes"}},"type":"Feature"},
	{"geometry":{"coordinates":[4.845378,52.447512],"type":"Point"},"properties":{"osm_id":"4456970227","tag":{"amenity":"recycling","opening_hours":"24/7","operator":"Gemeente Zaanstad","recycling:waste":"yes","recycling_type":"container","wheelchair":"yes"}},"type":"Feature"},
	{"geometry":{"coordinates":[4.908895,52.451048],"type":"Point"},"properties":{"osm_id":"4466588663","tag":{"amenity":"recycling","recycling:glass_bottles":"yes","recycling_type":"container"}},"type":"Feature"},
	{"geometry":{"coordinates":[4.908887,52.451063],"type":"Point"},"properties":{"osm_id":"4466588664","tag":{"amenity":"recycling","recycling:clothes":"yes","recycling_type":"container"}},"type":"Feature"},
	{"geometry":{"coordinates":[4.838764,52.45953],"type":"Point"},"properties":{"osm_id":"4495206345","tag":{"amenity":"waste_basket"}},"type":"Feature"},
	{"geometry":{"coordinates":[4.839309,52.459448],"type":"Point"},"properties":{"osm_id":"4495206346","tag":{"amenity":"waste_basket"}},"type":"Feature"},
	{"geometry":{"coordinates":[4.841608,52.468719],"type":"Point"},"properties":{"osm_id":"4575440225","tag":{"amenity":"waste_basket","waste_basket:colour":"red"}},"type":"Feature"},
	{"geometry":{"coordinates":[4.862687,52.432175],"type":"Point"},"properties":{"osm_id":"4636129318","tag":{"amenity":"waste_disposal"}},"type":"Feature"},
	{"geometry":{"coordinates":[4.901531,52.431335],"type":"Point"},"properties":{"osm_id":"5028350535","tag":{"amenity":"waste_basket"}},"type":"Feature"},
	{"geometry":{"coordinates":[4.912701,52.429554],"type":"Point"},"properties":{"osm_id":"5634847990","tag":{"amenity":"recycling","recycling:glass_bottles":"yes","recycling_type":"container"}},"type":"Feature"},
	{"geometry":{"coordinates":[4.912765,52.429562],"type":"Point"},"properties":{"osm_id":"5634847991","tag":{"amenity":"recycling","recycling:paper":"yes","recycling_type":"container"}},"type":"Feature"},
	{"geometry":{"coordinates":[4.912733,52.429559],"type":"Point"},"properties":{"osm_id":"5634847992","tag":{"amenity":"recycling","recycling:glass_bottles":"yes","recycling_type":"container"}},"type":"Feature"},
	{"geometry":{"coordinates":[4.907845,52.432507],"type":"Point"},"properties":{"osm_id":"6066644207","tag":{"amenity":"waste_basket"}},"type":"Feature"},
	{"geometry":{"coordinates":[4.908771,52.432717],"type":"Point"},"properties":{"osm_id":"6066644209","tag":{"amenity":"waste_basket"}},"type":"Feature"},
	{"geometry":{"coordinates":[4.839773,52.435216],"type":"Point"},"properties":{"osm_id":"7120468417","tag":{"amenity":"waste_disposal"}},"type":"Feature"},
	{"geometry":{"coordinates":[4.840528,52.435536],"type":"Point"},"properties":{"osm_id":"7120468418","tag":{"amenity":"waste_disposal"}},"type":"Feature"},
	{"geometry":{"coordinates":[4.840561,52.436492],"type":"Point"},"properties":{"osm_id":"7120468419","tag":{"amenity":"waste_disposal"}},"type":"Feature"},
	{"geometry":{"coordinates":[4.837905,52.435665],"type":"Point"},"properties":{"osm_id":"7120468420","tag":{"amenity":"waste_disposal"}},"type":"Feature"},
	{"geometry":{"coordinates":[4.838126,52.435977],"type":"Point"},"properties":{"osm_id":"7120468421","tag":{"amenity":"waste_disposal"}},"type":"Feature"},
	{"geometry":{"coordinates":[4.838414,52.434937],"type":"Point"},"properties":{"osm_id":"7120468422","tag":{"amenity":"waste_disposal"}},"type":"Feature"},
	{"geometry":{"coordinates":[4.839899,52.434867],"type":"Point"},"properties":{"osm_id":"7120468423","tag":{"amenity":"recycling","recycling:paper":"yes","recycling_type":"container"}},"type":"Feature"},
	{"geometry":{"coordinates":[4.837488,52.435567],"type":"Point"},"properties":{"osm_id":"7120468424","tag":{"amenity":"recycling","recycling:plastic":"yes","recycling_type":"container"}},"type":"Feature"},
	{"geometry":{"coordinates":[4.83748,52.435598],"type":"Point"},"properties":{"osm_id":"7120468425","tag":{"amenity":"waste_disposal"}},"type":"Feature"},
	{"geometry":{"coordinates":[4.84163,52.430648],"type":"Point"},"properties":{"osm_id":"7120483765","tag":{"amenity":"waste_basket"}},"type":"Feature"},
	{"geometry":{"coordinates":[4.83806,52.433613],"type":"Point"},"properties":{"osm_id":"7393565367","tag":{"amenity":"recycling","operator":"HVC","recycling:paper":"yes","recycling_type":"container"}},"type":"Feature"},
	{"geometry":{"coordinates":[4.838095,52.433624],"type":"Point"},"properties":{"osm_id":"7393565368","tag":{"amenity":"recycling","operator":"HVC","recycling:plastic":"yes","recycling_type":"container"}},"type":"Feature"},
	{"geometry":{"coordinates":[4.838036,52.433634],"type":"Point"},"properties":{"osm_id":"7393565369","tag":{"amenity":"recycling","operator":"HVC","recycling:waste":"yes","recycling_type":"container"}},"type":"Feature"},
	{"geometry":{"coordinates":[4.840149,52.433066],"type":"Point"},"properties":{"osm_id":"7393565370","tag":{"amenity":"recycling","operator":"HVC","recycling:waste":"yes","recycling_type":"container"}},"type":"Feature"},
	{"geometry":{"coordinates":[4.840622,52.432555],"type":"Point"},"properties":{"osm_id":"7393565371","tag":{"amenity":"recycling","operator":"HVC","recycling:waste":"yes","recycling_type":"container"}},"type":"Feature"},
	{"geometry":{"coordinates":[4.840627,52.431987],"type":"Point"},"properties":{"osm_id":"7393565372","tag":{"amenity":"recycling","operator":"HVC","recycling:waste":"yes","recycling_type":"container"}},"type":"Feature"},
	{"geometry":{"coordinates":[4.840858,52.430673],"type":"Point"},"properties":{"osm_id":"7393565373","tag":{"amenity":"recycling","operator":"HVC","recycling:waste":"yes","recycling_type":"container"}},"type":"Feature"},
	{"geometry":{"coordinates":[4.842545,52.43136],"type":"Point"},"properties":{"osm_id":"7393565374","tag":{"amenity":"recycling","operator":"HVC","recycling:waste":"yes","recycling_type":"container"}},"type":"Feature"},
	{"geometry":{"coordinates":[4.84306,52.430794],"type":"Point"},"properties":{"osm_id":"7393565375","tag":{"amenity":"recycling","operator":"HVC","recycling:waste":"yes","recycling_type":"container"}},"type":"Feature"},
	{"geometry":{"coordinates":[4.843073,52.430777],"type":"Point"},"properties":{"osm_id":"7393565376","tag":{"amenity":"recycling","operator":"HVC","recycling:waste":"yes","recycling_type":"container"}},"type":"Feature"},
	{"geometry":{"coordinates":[4.842592,52.43157],"type":"Point"},"properties":{"osm_id":"7393565377","tag":{"amenity":"recycling","operator":"HVC","recycling:glass":"yes","recycling_type":"container"}},"type":"Feature"},
	{"geometry":{"coordinates":[4.843711,52.431836],"type":"Point"},"properties":{"osm_id":"7393565378","tag":{"amenity":"recycling","operator":"HVC","recycling:waste":"yes","recycling_type":"container"}},"type":"Feature"},
	{"geometry":{"coordinates":[4.843724,52.431816],"type":"Point"},"properties":{"osm_id":"7393565379","tag":{"amenity":"recycling","operator":"HVC","recycling:waste":"yes","recycling_type":"container"}},"type":"Feature"},
	{"geometry":{"coordinates":[4.844287,52.43117],"type":"Point"},"properties":{"osm_id":"7393565380","tag":{"amenity":"recycling","operator":"HVC","recycling:waste":"yes","recycling_type":"container"}},"type":"Feature"},
	{"geometry":{"coordinates":[4.845009,52.432053],"type":"Point"},"properties":{"osm_id":"7393565381","tag":{"amenity":"recycling","operator":"HVC","recycling:waste":"yes","recycling_type":"container"}},"type":"Feature"},
	{"geometry":{"coordinates":[4.837442,52.430756],"type":"Point"},"properties":{"osm_id":"7393565382","tag":{"amenity":"recycling","operator":"HVC","recycling:waste":"yes","recycling_type":"container"}},"type":"Feature"},
	{"geometry":{"coordinates":[4.83761,52.435011],"type":"Point"},"properties":{"osm_id":"7393565383","tag":{"amenity":"recycling","operator":"HVC","recycling:waste":"yes","recycling_type":"container"}},"type":"Feature"},
	{"geometry":{"coordinates":[4.837075,52.434371],"type":"Point"},"properties":{"osm_id":"7393565384","tag":{"amenity":"recycling","operator":"HVC","recycling:waste":"yes","recycling_type":"container"}},"type":"Feature"},
	{"geometry":{"coordinates":[4.837476,52.435547],"type":"Point"},"properties":{"osm_id":"7393629485","tag":{"amenity":"recycling","operator":"HVC","recycling:waste":"yes","recycling_type":"container"}},"type":"Feature"},
	{"geometry":{"coordinates":[4.836258,52.433541],"type":"Point"},"properties":{"osm_id":"7393629486","tag":{"amenity":"recycling","operator":"HVC","recycling:waste":"yes","recycling_type":"container"}},"type":"Feature"},
	{"geometry":{"coordinates":[4.836293,52.432457],"type":"Point"},"properties":{"osm_id":"7393629487","tag":{"amenity":"recycling","operator":"HVC","recycling:plastic":"yes","recycling_type":"container"}},"type":"Feature"},
	{"geometry":{"coordinates":[4.843117,52.436611],"type":"Point"},"properties":{"osm_id":"7393648110","tag":{"amenity":"waste_basket","waste":"trash"}},"type":"Feature"},
	{"geometry":{"coordinates":[4.850278,52.43984],"type":"Point"},"properties":{"osm_id":"7924409803","tag":{"amenity":"recycling","recycling_type":"container"}},"type":"Feature"},
	{"geometry":{"coordinates":[4.850567,52.438837],"type":"Point"},"properties":{"osm_id":"7924409804","tag":{"amenity":"recycling","operator":"Gemeente Zaanstad","recycling:glass_bottles":"yes","recycling_type":"container"}},"type":"Feature"},
	{"geometry":{"coordinates":[4.850601,52.43884],"type":"Point"},"properties":{"osm_id":"7924409805","tag":{"amenity":"recycling","operator":"Gemeente Zaanstad","recycling:plastic":"yes","recycling_type":"container"}},"type":"Feature"}
]
}
