{
"type": "FeatureCollection",
"features": [
	{"geometry":{"coordinates":[4.87171,52.260283],"type":"Point"},"properties":{"osm_id":"512221788","tag":{"amenity":"recycling","recycling_type":"container"}},"type":"Feature"},
	{"geometry":{"coordinates":[4.912689,52.254359],"type":"Point"},"properties":{"osm_id":"1488881245","tag":{"amenity":"recycling","recycling:glass_bottles":"yes","recycling:paper":"yes","recycling_type":"container"}},"type":"Feature"},
	{"geometry":{"coordinates":[4.872301,52.259798],"type":"Point"},"properties":{"osm_id":"1489146777","tag":{"amenity":"waste_basket"}},"type":"Feature"},
	{"geometry":{"coordinates":[4.870824,52.26049],"type":"Point"},"properties":{"osm_id":"1489146782","tag":{"amenity":"waste_basket"}},"type":"Feature"},
	{"geometry":{"coordinates":[4.836366,52.234647],"type":"Point"},"properties":{"osm_id":"1492904423","tag":{"amenity":"waste_basket"}},"type":"Feature"},
	{"geometry":{"coordinates":[4.837151,52.23517],"type":"Point"},"properties":{"osm_id":"1492904428","tag":{"amenity":"waste_basket"}},"type":"Feature"},
	{"geometry":{"coordinates":[4.83784,52.235597],"type":"Point"},"properties":{"osm_id":"1492904433","tag":{"amenity":"waste_basket"}},"type":"Feature"},
	{"geometry":{"coordinates":[4.839685,52.235944],"type":"Point"},"properties":{"osm_id":"1492904438","tag":{"amenity":"waste_basket"}},"type":"Feature"},
	{"geometry":{"coordinates":[4.839543,52.236003],"type":"Point"},"properties":{"osm_id":"1492904441","tag":{"amenity":"waste_basket"}},"type":"Feature"},
	{"geometry":{"coordinates":[4.852746,52.242277],"type":"Point"},"properties":{"osm_id":"1492904465","tag":{"amenity":"waste_basket"}},"type":"Feature"},
	{"geometry":{"coordinates":[4.856778,52.247567],"type":"Point"},"properties":{"osm_id":"1492904468","tag":{"amenity":"waste_basket"}},"type":"Feature"},
	{"geometry":{"coordinates":[4.867261,52.250854],"type":"Point"},"properties":{"osm_id":"1492904487","tag":{"amenity":"waste_basket"}},"type":"Feature"},
	{"geometry":{"coordinates":[4.864476,52.214852],"type":"Point"},"properties":{"osm_id":"4910715386","tag":{"amenity":"waste_basket"}},"type":"Feature"},
	{"geometry":{"coordinates":[4.864415,52.214746],"type":"Point"},"properties":{"osm_id":"4910715390","tag":{"amenity":"waste_basket"}},"type":"Feature"},
	{"geometry":{"coordinates":[4.86827,52.250766],"type":"Point"},"properties":{"osm_id":"7395757632","tag":{"amenity":"recycling","mapillary":"nziwQN8RzzvcdrkvSY3wcg","recycling:glass":"no","recycling:glass_bottles":"yes","recycling_type":"container","survey:date":"2017-08-05"}},"type":"Feature"},
	{"geometry":{"coordinates":[4.868187,52.250767],"type":"Point"},"properties":{"osm_id":"7395757633","tag":{"amenity":"recycling","recycling:clothes":"yes","recycling_type":"container"}},"type":"Feature"}
]
}
