{
"type": "FeatureCollection",
"features": [
	{"geometry":{"coordinates":[4.902464,52.090045],"type":"Point"},"properties":{"osm_id":"130238767","tag":{"amenity":"recycling","recycling:glass_bottles":"yes","recycling_type":"container"}},"type":"Feature"},
	{"geometry":{"coordinates":[4.917231,52.060644],"type":"Point"},"properties":{"osm_id":"732318422","tag":{"amenity":"recycling","opening_hours":"Fr 13:00-24:00; Sa 00:00-11:00; PH off","recycling:paper":"yes","recycling_type":"container"}},"type":"Feature"},
	{"geometry":{"coordinates":[4.909503,52.083329],"type":"Point"},"properties":{"osm_id":"930163427","tag":{"amenity":"waste_basket"}},"type":"Feature"},
	{"geometry":{"coordinates":[4.909604,52.08248],"type":"Point"},"properties":{"osm_id":"930163431","tag":{"amenity":"waste_basket"}},"type":"Feature"},
	{"geometry":{"coordinates":[4.908341,52.081508],"type":"Point"},"properties":{"osm_id":"930163438","tag":{"amenity":"waste_basket"}},"type":"Feature"},
	{"geometry":{"coordinates":[4.910308,52.083076],"type":"Point"},"properties":{"osm_id":"930163439","tag":{"amenity":"waste_basket"}},"type":"Feature"},
	{"geometry":{"coordinates":[4.90628,52.080686],"type":"Point"},"properties":{"osm_id":"930163440","tag":{"amenity":"recycling","recycling:aluminium":"yes","recycling:beverage_cartons":"yes","recycling:cans":"yes","recycling:clothes":"yes","recycling:glass_bottles":"yes","recycling:plastic_packaging":"yes","recycling_type":"container"}},"type":"Feature"},
	{"geometry":{"coordinates":[4.909097,52.083992],"type":"Point"},"properties":{"osm_id":"930164759","tag":{"amenity":"waste_basket"}},"type":"Feature"},
	{"geometry":{"coordinates":[4.900428,52.084631],"type":"Point"},"properties":{"osm_id":"1429150232","tag":{"amenity":"waste_basket"}},"type":"Feature"},
	{"geometry":{"coordinates":[4.911735,52.088038],"type":"Point"},"properties":{"osm_id":"2312019451","tag":{"amenity":"waste_basket"}},"type":"Feature"},
	{"geometry":{"coordinates":[4.913919,52.088328],"type":"Point"},"properties":{"osm_id":"2312019455","tag":{"amenity":"waste_basket"}},"type":"Feature"},
	{"geometry":{"coordinates":[4.913179,52.087566],"type":"Point"},"properties":{"osm_id":"2312019458","tag":{"amenity":"waste_basket"}},"type":"Feature"},
	{"geometry":{"coordinates":[4.913594,52.086001],"type":"Point"},"properties":{"osm_id":"2312019461","tag":{"amenity":"waste_basket"}},"type":"Feature"},
	{"geometry":{"coordinates":[4.916208,52.086175],"type":"Point"},"properties":{"osm_id":"2312019464","tag":{"amenity":"waste_basket"}},"type":"Feature"},
	{"geometry":{"coordinates":[4.917086,52.086631],"type":"Point"},"properties":{"osm_id":"2312019467","tag":{"amenity":"waste_basket"}},"type":"Feature"},
	{"geometry":{"coordinates":[4.916747,52.087011],"type":"Point"},"properties":{"osm_id":"2312019470","tag":{"amenity":"waste_basket"}},"type":"Feature"},
	{"geometry":{"coordinates":[4.837295,52.081779],"type":"Point"},"properties":{"osm_id":"2359051871","tag":{"amenity":"waste_basket"}},"type":"Feature"},
	{"geometry":{"coordinates":[4.913618,52.086013],"type":"Point"},"properties":{"osm_id":"2700129114","tag":{"amenity":"waste_basket"}},"type":"Feature"},
	{"geometry":{"coordinates":[4.913644,52.086025],"type":"Point"},"properties":{"osm_id":"2700129116","tag":{"amenity":"waste_basket"}},"type":"Feature"},
	{"geometry":{"coordinates":[4.913672,52.086036],"type":"Point"},"properties":{"osm_id":"2700129117","tag":{"amenity":"waste_basket"}},"type":"Feature"},
	{"geometry":{"coordinates":[4.885669,52.084689],"type":"Point"},"properties":{"osm_id":"3363377363","tag":{"amenity":"recycling","recycling_type":"container"}},"type":"Feature"},
	{"geometry":{"coordinates":[4.885699,52.084685],"type":"Point"},"properties":{"osm_id":"3363377364","tag":{"amenity":"recycling","recycling_type":"container"}},"type":"Feature"},
	{"geometry":{"coordinates":[4.885662,52.084671],"type":"Point"},"properties":{"osm_id":"3363377365","tag":{"amenity":"recycling","recycling:glass_bottles":"yes","recycling_type":"container"}},"type":"Feature"},
	{"geometry":{"coordinates":[4.885692,52.084667],"type":"Point"},"properties":{"osm_id":"3363377366","tag":{"amenity":"recycling","recycling:glass_bottles":"yes","recycling_type":"container"}},"type":"Feature"},
	{"geometry":{"coordinates":[4.885785,52.084545],"type":"Point"},"properties":{"osm_id":"3363377367","tag":{"amenity":"recycling","recycling:clothes":"yes","recycling_type":"container"}},"type":"Feature"},
	{"geometry":{"coordinates":[4.882856,52.086794],"type":"Point"},"properties":{"osm_id":"3363474999","tag":{"amenity":"recycling","location":"underground","recycling:glass_bottles":"yes","recycling_type":"container"}},"type":"Feature"},
	{"geometry":{"coordinates":[4.882848,52.086784],"type":"Point"},"properties":{"osm_id":"3363475000","tag":{"amenity":"recycling","location":"underground","recycling:glass_bottles":"yes","recycling_type":"container"}},"type":"Feature"},
	{"geometry":{"coordinates":[4.882838,52.086774],"type":"Point"},"properties":{"osm_id":"3363475001","tag":{"amenity":"recycling","location":"underground","recycling:waste":"yes","recycling_type":"container"}},"type":"Feature"},
	{"geometry":{"coordinates":[4.882829,52.086764],"type":"Point"},"properties":{"osm_id":"3363475002","tag":{"amenity":"recycling","location":"underground","recycling:waste":"yes","recycling_type":"container"}},"type":"Feature"},
	{"geometry":{"coordinates":[4.885083,52.087981],"type":"Point"},"properties":{"osm_id":"3363563524","tag":{"amenity":"recycling","location":"underground","recycling:waste":"yes","recycling_type":"container"}},"type":"Feature"},
	{"geometry":{"coordinates":[4.899331,52.082589],"type":"Point"},"properties":{"osm_id":"3632504685","tag":{"amenity":"recycling","recycling:cans":"no","recycling:clothes":"no","recycling:glass_bottles":"yes","recycling:paper":"no","recycling_type":"container"}},"type":"Feature"},
	{"geometry":{"coordinates":[4.899311,52.082619],"type":"Point"},"properties":{"osm_id":"3632504686","tag":{"amenity":"recycling","recycling:cans":"yes","recycling:clothes":"no","recycling:glass":"no","recycling:paper":"no","recycling_type":"container"}},"type":"Feature"},
	{"geometry":{"coordinates":[4.903541,52.085739],"type":"Point"},"properties":{"osm_id":"3632504687","tag":{"amenity":"recycling","description":"Kledinginzameling","recycling:cans":"no","recycling:clothes":"yes","recycling:glass":"no","recycling:paper":"no","recycling_type":"container"}},"type":"Feature"},
	{"geometry":{"coordinates":[4.879187,52.081266],"type":"Point"},"properties":{"osm_id":"4217411160","tag":{"amenity":"waste_basket"}},"type":"Feature"},
	{"geometry":{"coordinates":[4.897861,52.0776],"type":"Point"},"properties":{"osm_id":"4217524005","tag":{"amenity":"waste_basket"}},"type":"Feature"},
	{"geometry":{"coordinates":[4.897641,52.077858],"type":"Point"},"properties":{"osm_id":"4217524006","tag":{"amenity":"waste_basket"}},"type":"Feature"},
	{"geometry":{"coordinates":[4.902269,52.090306],"type":"Point"},"properties":{"osm_id":"4323512293","tag":{"amenity":"recycling","recycling:clothes":"yes","recycling_type":"container"}},"type":"Feature"},
	{"geometry":{"coordinates":[4.909413,52.060764],"type":"Point"},"properties":{"osm_id":"4488407037","tag":{"amenity":"waste_basket"}},"type":"Feature"},
	{"geometry":{"coordinates":[4.902194,52.085253],"type":"Point"},"properties":{"osm_id":"6007399277","tag":{"amenity":"waste_basket"}},"type":"Feature"},
	{"geometry":{"coordinates":[4.916673,52.061317],"type":"Point"},"properties":{"osm_id":"6360463568","tag":{"amenity":"waste_basket"}},"type":"Feature"},
	{"geometry":{"coordinates":[4.919976,52.060842],"type":"Point"},"properties":{"osm_id":"6390824507","tag":{"amenity":"waste_basket"}},"type":"Feature"},
	{"geometry":{"coordinates":[4.917692,52.061464],"type":"Point"},"properties":{"osm_id":"6433579163","tag":{"amenity":"waste_basket"}},"type":"Feature"},
	{"geometry":{"coordinates":[4.912226,52.061547],"type":"Point"},"properties":{"osm_id":"6440572189","tag":{"amenity":"recycling","recycling:plastic":"yes","recycling_type":"container"}},"type":"Feature"},
	{"geometry":{"coordinates":[4.912237,52.061571],"type":"Point"},"properties":{"osm_id":"6440572190","tag":{"amenity":"recycling","recycling:glass":"yes","recycling_type":"container"}},"type":"Feature"},
	{"geometry":{"coordinates":[4.912211,52.061574],"type":"Point"},"properties":{"osm_id":"6440572191","tag":{"amenity":"recycling","recycling:clothes":"yes","recycling_type":"container"}},"type":"Feature"},
	{"geometry":{"coordinates":[4.912227,52.06156],"type":"Point"},"properties":{"osm_id":"6440572192","tag":{"amenity":"recycling","recycling:diapers":"yes","recycling_type":"container"}},"type":"Feature"},
	{"geometry":{"coordinates":[4.892304,52.085178],"type":"Point"},"properties":{"osm_id":"6641439711","tag":{"amenity":"waste_basket"}},"type":"Feature"},
	{"geometry":{"coordinates":[4.907276,52.080607],"type":"Point"},"properties":{"osm_id":"7548961325","tag":{"amenity":"waste_basket"}},"type":"Feature"}
]
}
