{
"type": "FeatureCollection",
"features": [
	{"geometry":{"coordinates":[4.880967,51.941032],"type":"Point"},"properties":{"osm_id":"2333109742","tag":{"amenity":"waste_basket"}},"type":"Feature"},
	{"geometry":{"coordinates":[4.883579,51.941264],"type":"Point"},"properties":{"osm_id":"2333109744","tag":{"amenity":"waste_basket"}},"type":"Feature"},
	{"geometry":{"coordinates":[4.902367,51.943997],"type":"Point"},"properties":{"osm_id":"2333109751","tag":{"amenity":"waste_basket"}},"type":"Feature"},
	{"geometry":{"coordinates":[4.843827,51.902212],"type":"Point"},"properties":{"osm_id":"4464950567","tag":{"amenity":"waste_basket"}},"type":"Feature"},
	{"geometry":{"coordinates":[4.894359,51.902177],"type":"Point"},"properties":{"osm_id":"6949392255","tag":{"access":"yes","amenity":"waste_disposal","collection_times":"We","operator":"Waardlanden","waste":"glass;trash;clothing"}},"type":"Feature"},
	{"geometry":{"coordinates":[4.860016,51.890322],"type":"Point"},"properties":{"osm_id":"8510055877","tag":{"amenity":"waste_basket","colour":"green","material":"metal"}},"type":"Feature"},
	{"geometry":{"coordinates":[4.857691,51.890629],"type":"Point"},"properties":{"osm_id":"8510055884","tag":{"amenity":"waste_basket","colour":"green","material":"metal"}},"type":"Feature"},
	{"geometry":{"coordinates":[4.877089,51.893252],"type":"Point"},"properties":{"osm_id":"8537919207","tag":{"amenity":"recycling","recycling_type":"container"}},"type":"Feature"},
	{"geometry":{"coordinates":[4.886983,51.897113],"type":"Point"},"properties":{"osm_id":"8537959684","tag":{"amenity":"waste_basket","colour":"green","material":"metal"}},"type":"Feature"}
]
}
