{
"type": "FeatureCollection",
"features": [
	{"geometry":{"coordinates":[4.835034,51.060624],"type":"Point"},"properties":{"osm_id":"2266316073","tag":{"amenity":"waste_basket"}},"type":"Feature"},
	{"geometry":{"coordinates":[4.920045,51.032103],"type":"Point"},"properties":{"osm_id":"3889078392","tag":{"amenity":"waste_basket"}},"type":"Feature"},
	{"geometry":{"coordinates":[4.880589,51.053787],"type":"Point"},"properties":{"osm_id":"3935838749","tag":{"amenity":"waste_basket"}},"type":"Feature"},
	{"geometry":{"coordinates":[4.881886,51.047158],"type":"Point"},"properties":{"osm_id":"4189734399","tag":{"amenity":"waste_basket"}},"type":"Feature"},
	{"geometry":{"coordinates":[4.883644,51.052847],"type":"Point"},"properties":{"osm_id":"4192256053","tag":{"amenity":"recycling","operator":"V.H.S. Europ","recycling:clothes":"yes","recycling_type":"container"}},"type":"Feature"},
	{"geometry":{"coordinates":[4.845576,51.026321],"type":"Point"},"properties":{"osm_id":"4308755996","tag":{"amenity":"waste_basket"}},"type":"Feature"},
	{"geometry":{"coordinates":[4.845538,51.026673],"type":"Point"},"properties":{"osm_id":"4308756003","tag":{"amenity":"recycling","operator":"v.z.w. Hulpverleningsgroep De Schakel","recycling:clothes":"yes","recycling_type":"container"}},"type":"Feature"},
	{"geometry":{"coordinates":[4.845988,51.026853],"type":"Point"},"properties":{"osm_id":"4308756009","tag":{"amenity":"waste_basket"}},"type":"Feature"},
	{"geometry":{"coordinates":[4.834802,51.027527],"type":"Point"},"properties":{"osm_id":"4310958422","tag":{"amenity":"waste_basket"}},"type":"Feature"},
	{"geometry":{"coordinates":[4.835201,51.030702],"type":"Point"},"properties":{"osm_id":"4319340835","tag":{"amenity":"waste_basket"}},"type":"Feature"},
	{"geometry":{"coordinates":[4.834319,51.030853],"type":"Point"},"properties":{"osm_id":"4319340841","tag":{"amenity":"recycling","operator":"Vlaams Inzamel Centrum Textiel","recycling:clothes":"yes","recycling_type":"container"}},"type":"Feature"},
	{"geometry":{"coordinates":[4.887381,51.059952],"type":"Point"},"properties":{"osm_id":"5353146685","tag":{"amenity":"waste_basket"}},"type":"Feature"},
	{"geometry":{"coordinates":[4.883349,51.05571],"type":"Point"},"properties":{"osm_id":"5829292797","tag":{"amenity":"recycling","recycling:clothes":"yes","recycling_type":"container"}},"type":"Feature"},
	{"geometry":{"coordinates":[4.883271,51.055681],"type":"Point"},"properties":{"osm_id":"5829292798","tag":{"amenity":"recycling","mapillary":"https://www.mapillary.com/map/im/WwM-CrHSzE7EuuttgUGp4Q","recycling:glass":"yes","recycling_type":"container"}},"type":"Feature"}
]
}
