{
"type": "FeatureCollection",
"features": [
	{"geometry":{"coordinates":[4.83655,51.00436],"type":"Point"},"properties":{"osm_id":"275554873","tag":{"amenity":"recycling","recycling:clothes":"yes"}},"type":"Feature"},
	{"geometry":{"coordinates":[4.850934,50.980199],"type":"Point"},"properties":{"osm_id":"278526676","tag":{"amenity":"recycling","recycling:clothes":"yes"}},"type":"Feature"},
	{"geometry":{"coordinates":[4.918005,51.010319],"type":"Point"},"properties":{"osm_id":"467808374","tag":{"amenity":"recycling","recycling:clothes":"yes","recycling:glass":"yes"}},"type":"Feature"},
	{"geometry":{"coordinates":[4.878382,51.005965],"type":"Point"},"properties":{"osm_id":"467808379","tag":{"amenity":"recycling","recycling:glass":"yes"}},"type":"Feature"},
	{"geometry":{"coordinates":[4.906135,50.977952],"type":"Point"},"properties":{"osm_id":"471174652","tag":{"amenity":"recycling","recycling:clothes":"yes","recycling:glass":"yes"}},"type":"Feature"},
	{"geometry":{"coordinates":[4.836589,50.966139],"type":"Point"},"properties":{"osm_id":"1514471041","tag":{"amenity":"recycling","recycling:clothes":"yes"}},"type":"Feature"},
	{"geometry":{"coordinates":[4.836637,50.966269],"type":"Point"},"properties":{"osm_id":"1514471180","tag":{"amenity":"waste_basket"}},"type":"Feature"},
	{"geometry":{"coordinates":[4.834708,50.983569],"type":"Point"},"properties":{"osm_id":"1514473538","tag":{"amenity":"waste_basket"}},"type":"Feature"},
	{"geometry":{"coordinates":[4.894253,50.968212],"type":"Point"},"properties":{"osm_id":"1740500211","tag":{"amenity":"recycling","recycling:clothes":"yes","recycling_type":"container"}},"type":"Feature"},
	{"geometry":{"coordinates":[4.85452,50.979697],"type":"Point"},"properties":{"osm_id":"1741294528","tag":{"amenity":"recycling","recycling:clothes":"yes","recycling_type":"container"}},"type":"Feature"},
	{"geometry":{"coordinates":[4.835031,50.985542],"type":"Point"},"properties":{"osm_id":"1907021357","tag":{"amenity":"waste_basket"}},"type":"Feature"},
	{"geometry":{"coordinates":[4.839142,50.987448],"type":"Point"},"properties":{"osm_id":"1907031200","tag":{"amenity":"waste_basket"}},"type":"Feature"},
	{"geometry":{"coordinates":[4.840061,50.988332],"type":"Point"},"properties":{"osm_id":"1907040782","tag":{"amenity":"waste_basket"}},"type":"Feature"},
	{"geometry":{"coordinates":[4.840068,50.988455],"type":"Point"},"properties":{"osm_id":"1907040791","tag":{"amenity":"waste_basket"}},"type":"Feature"},
	{"geometry":{"coordinates":[4.838299,50.993502],"type":"Point"},"properties":{"osm_id":"2113019093","tag":{"amenity":"recycling","recycling:clothes":"yes","recycling_type":"container"}},"type":"Feature"},
	{"geometry":{"coordinates":[4.842562,50.987597],"type":"Point"},"properties":{"osm_id":"2465540061","tag":{"amenity":"waste_basket"}},"type":"Feature"},
	{"geometry":{"coordinates":[4.864013,50.99159],"type":"Point"},"properties":{"osm_id":"4043349544","tag":{"amenity":"waste_basket"}},"type":"Feature"},
	{"geometry":{"coordinates":[4.918046,51.01035],"type":"Point"},"properties":{"osm_id":"4078081195","tag":{"amenity":"recycling","operator":"Curitas n.v.","recycling:clothes":"yes","recycling_type":"container"}},"type":"Feature"},
	{"geometry":{"coordinates":[4.917962,51.010395],"type":"Point"},"properties":{"osm_id":"4078081202","tag":{"amenity":"recycling","recycling:glass_bottles":"yes","recycling_type":"container"}},"type":"Feature"},
	{"geometry":{"coordinates":[4.919863,50.968882],"type":"Point"},"properties":{"osm_id":"6251644562","tag":{"amenity":"recycling","recycling:glass":"yes","recycling_type":"container"}},"type":"Feature"},
	{"geometry":{"coordinates":[4.895116,50.97011],"type":"Point"},"properties":{"osm_id":"6251685901","tag":{"amenity":"recycling","recycling:glass":"yes","recycling_type":"container"}},"type":"Feature"},
	{"geometry":{"coordinates":[4.905756,50.979626],"type":"Point"},"properties":{"osm_id":"6251685902","tag":{"amenity":"recycling","recycling:glass":"yes","recycling_type":"container"}},"type":"Feature"},
	{"geometry":{"coordinates":[4.905699,50.979683],"type":"Point"},"properties":{"osm_id":"6251685903","tag":{"amenity":"recycling","recycling:clothes":"yes","recycling_type":"container"}},"type":"Feature"},
	{"geometry":{"coordinates":[4.919845,50.968955],"type":"Point"},"properties":{"osm_id":"6251685904","tag":{"amenity":"recycling","recycling:clothes":"yes","recycling_type":"container"}},"type":"Feature"}
]
}
