{
"type": "FeatureCollection",
"features": [
	{"geometry":{"coordinates":[4.909676,50.943995],"type":"Point"},"properties":{"osm_id":"278519473","tag":{"amenity":"recycling","recycling:clothes":"yes","recycling_type":"container"}},"type":"Feature"},
	{"geometry":{"coordinates":[4.859124,50.904287],"type":"Point"},"properties":{"osm_id":"1519406835","tag":{"amenity":"recycling","recycling:clothes":"yes","recycling_type":"container"}},"type":"Feature"},
	{"geometry":{"coordinates":[4.867033,50.906048],"type":"Point"},"properties":{"osm_id":"1519406872","tag":{"amenity":"recycling","recycling:glass_bottles":"yes","recycling:glass_bottles:colour":"green;brown","recycling_type":"container"}},"type":"Feature"},
	{"geometry":{"coordinates":[4.869125,50.9065],"type":"Point"},"properties":{"osm_id":"1519406913","tag":{"amenity":"recycling","recycling:clothes":"yes","recycling_type":"container"}},"type":"Feature"},
	{"geometry":{"coordinates":[4.858265,50.932598],"type":"Point"},"properties":{"osm_id":"1519430955","tag":{"amenity":"recycling","operator":"Curitas","recycling:clothes":"yes","recycling:glass":"yes","recycling_type":"container"}},"type":"Feature"},
	{"geometry":{"coordinates":[4.838389,50.953788],"type":"Point"},"properties":{"osm_id":"1639245314","tag":{"amenity":"recycling","recycling:clothes":"yes","recycling:glass":"yes","recycling_type":"container"}},"type":"Feature"},
	{"geometry":{"coordinates":[4.877538,50.906184],"type":"Point"},"properties":{"osm_id":"1639286644","tag":{"amenity":"recycling","recycling:glass_bottles":"yes","recycling:glass_bottles:colour":"green;brown","recycling_type":"container"}},"type":"Feature"},
	{"geometry":{"coordinates":[4.88081,50.907068],"type":"Point"},"properties":{"osm_id":"1639286700","tag":{"amenity":"recycling","recycling:clothes":"yes","recycling_type":"container"}},"type":"Feature"},
	{"geometry":{"coordinates":[4.89713,50.956332],"type":"Point"},"properties":{"osm_id":"1739481239","tag":{"amenity":"recycling","recycling:clothes":"yes","recycling_type":"container"}},"type":"Feature"},
	{"geometry":{"coordinates":[4.875433,50.907728],"type":"Point"},"properties":{"osm_id":"1928761939","tag":{"amenity":"waste_basket"}},"type":"Feature"},
	{"geometry":{"coordinates":[4.899637,50.95051],"type":"Point"},"properties":{"osm_id":"1937603898","tag":{"amenity":"waste_basket"}},"type":"Feature"},
	{"geometry":{"coordinates":[4.909029,50.935819],"type":"Point"},"properties":{"osm_id":"2047273393","tag":{"amenity":"waste_basket"}},"type":"Feature"},
	{"geometry":{"coordinates":[4.909272,50.935857],"type":"Point"},"properties":{"osm_id":"2047273396","tag":{"amenity":"waste_basket"}},"type":"Feature"},
	{"geometry":{"coordinates":[4.903454,50.937725],"type":"Point"},"properties":{"osm_id":"2047273446","tag":{"amenity":"recycling","recycling:clothes":"yes"}},"type":"Feature"},
	{"geometry":{"coordinates":[4.911386,50.939119],"type":"Point"},"properties":{"osm_id":"2047273529","tag":{"amenity":"waste_basket"}},"type":"Feature"},
	{"geometry":{"coordinates":[4.90248,50.940376],"type":"Point"},"properties":{"osm_id":"2047273603","tag":{"amenity":"waste_basket"}},"type":"Feature"},
	{"geometry":{"coordinates":[4.904201,50.940969],"type":"Point"},"properties":{"osm_id":"2047273644","tag":{"amenity":"waste_basket"}},"type":"Feature"},
	{"geometry":{"coordinates":[4.90426,50.94105],"type":"Point"},"properties":{"osm_id":"2047273648","tag":{"amenity":"waste_basket"}},"type":"Feature"},
	{"geometry":{"coordinates":[4.916576,50.926688],"type":"Point"},"properties":{"osm_id":"2070907018","tag":{"amenity":"waste_basket"}},"type":"Feature"},
	{"geometry":{"coordinates":[4.913717,50.930278],"type":"Point"},"properties":{"osm_id":"2070907023","tag":{"amenity":"waste_basket"}},"type":"Feature"},
	{"geometry":{"coordinates":[4.913242,50.930584],"type":"Point"},"properties":{"osm_id":"2070907029","tag":{"amenity":"waste_basket"}},"type":"Feature"},
	{"geometry":{"coordinates":[4.915924,50.933835],"type":"Point"},"properties":{"osm_id":"2070907074","tag":{"amenity":"waste_basket"}},"type":"Feature"},
	{"geometry":{"coordinates":[4.835839,50.950787],"type":"Point"},"properties":{"osm_id":"2204682622","tag":{"amenity":"recycling","recycling:clothes":"yes","recycling_type":"container"}},"type":"Feature"},
	{"geometry":{"coordinates":[4.853197,50.940261],"type":"Point"},"properties":{"osm_id":"2663200063","tag":{"amenity":"waste_basket"}},"type":"Feature"},
	{"geometry":{"coordinates":[4.907282,50.934265],"type":"Point"},"properties":{"osm_id":"3993330090","tag":{"amenity":"waste_basket"}},"type":"Feature"},
	{"geometry":{"coordinates":[4.860613,50.934223],"type":"Point"},"properties":{"osm_id":"4173237248","tag":{"amenity":"recycling","operator":"Caritas n.v.","recycling:clothes":"yes","recycling_type":"container"}},"type":"Feature"},
	{"geometry":{"coordinates":[4.860601,50.934247],"type":"Point"},"properties":{"osm_id":"4173237252","tag":{"amenity":"waste_basket"}},"type":"Feature"},
	{"geometry":{"coordinates":[4.870168,50.905656],"type":"Point"},"properties":{"osm_id":"4348672190","tag":{"amenity":"waste_basket"}},"type":"Feature"},
	{"geometry":{"coordinates":[4.855262,50.915864],"type":"Point"},"properties":{"osm_id":"5169803196","tag":{"amenity":"waste_basket"}},"type":"Feature"},
	{"geometry":{"coordinates":[4.855258,50.918072],"type":"Point"},"properties":{"osm_id":"5169803203","tag":{"amenity":"waste_basket"}},"type":"Feature"},
	{"geometry":{"coordinates":[4.901999,50.924966],"type":"Point"},"properties":{"osm_id":"5839449357","tag":{"amenity":"waste_basket"}},"type":"Feature"},
	{"geometry":{"coordinates":[4.884608,50.909757],"type":"Point"},"properties":{"osm_id":"8137166117","tag":{"amenity":"waste_basket"}},"type":"Feature"},
	{"geometry":{"coordinates":[4.866951,50.906043],"type":"Point"},"properties":{"osm_id":"8670813587","tag":{"amenity":"recycling","recycling:clothes":"yes","recycling_type":"container"}},"type":"Feature"},
	{"geometry":{"coordinates":[4.866966,50.906047],"type":"Point"},"properties":{"osm_id":"8670813588","tag":{"amenity":"recycling","recycling:clothes":"yes","recycling_type":"container"}},"type":"Feature"},
	{"geometry":{"coordinates":[4.866982,50.906052],"type":"Point"},"properties":{"osm_id":"8670813589","tag":{"amenity":"recycling","recycling:clothes":"yes","recycling_type":"container"}},"type":"Feature"},
	{"geometry":{"coordinates":[4.86706,50.906046],"type":"Point"},"properties":{"osm_id":"8670813590","tag":{"amenity":"recycling","recycling:glass_bottles":"yes","recycling:glass_bottles:colour":"green;brown","recycling_type":"container"}},"type":"Feature"},
	{"geometry":{"coordinates":[4.867102,50.906032],"type":"Point"},"properties":{"osm_id":"8670813591","tag":{"amenity":"recycling","recycling:glass_bottles":"yes","recycling:glass_bottles:colour":"white","recycling_type":"container"}},"type":"Feature"},
	{"geometry":{"coordinates":[4.867082,50.906041],"type":"Point"},"properties":{"osm_id":"8670813592","tag":{"amenity":"recycling","recycling:glass_bottles":"yes","recycling:glass_bottles:colour":"white","recycling_type":"container"}},"type":"Feature"},
	{"geometry":{"coordinates":[4.877458,50.906176],"type":"Point"},"properties":{"osm_id":"8670815570","tag":{"amenity":"recycling","operator":"Curitas","recycling:clothes":"yes","recycling_type":"container"}},"type":"Feature"},
	{"geometry":{"coordinates":[4.877443,50.906177],"type":"Point"},"properties":{"osm_id":"8670815571","tag":{"amenity":"recycling","operator":"Curitas","recycling:clothes":"yes","recycling_type":"container"}},"type":"Feature"},
	{"geometry":{"coordinates":[4.877564,50.906185],"type":"Point"},"properties":{"osm_id":"8670815572","tag":{"amenity":"recycling","recycling:glass_bottles":"yes","recycling:glass_bottles:colour":"green;brown","recycling_type":"container"}},"type":"Feature"},
	{"geometry":{"coordinates":[4.877514,50.906181],"type":"Point"},"properties":{"osm_id":"8670815573","tag":{"amenity":"recycling","recycling:glass_bottles":"yes","recycling:glass_bottles:colour":"white","recycling_type":"container"}},"type":"Feature"},
	{"geometry":{"coordinates":[4.877487,50.90618],"type":"Point"},"properties":{"osm_id":"8670815574","tag":{"amenity":"recycling","recycling:glass_bottles":"yes","recycling:glass_bottles:colour":"white","recycling_type":"container"}},"type":"Feature"},
	{"geometry":{"coordinates":[4.915819,50.956963],"type":"Point"},"properties":{"osm_id":"8833493851","tag":{"amenity":"waste_basket"}},"type":"Feature"}
]
}
