{
"type": "FeatureCollection",
"features": [
	{"geometry":{"coordinates":[4.84014,50.84556],"type":"Point"},"properties":{"osm_id":"315894508","tag":{"amenity":"recycling"}},"type":"Feature"},
	{"geometry":{"coordinates":[4.860388,50.834188],"type":"Point"},"properties":{"osm_id":"315986055","tag":{"amenity":"recycling","recycling:glass":"yes","recycling:glass_bottles":"yes"}},"type":"Feature"},
	{"geometry":{"coordinates":[4.885143,50.835324],"type":"Point"},"properties":{"osm_id":"315986755","tag":{"amenity":"recycling"}},"type":"Feature"},
	{"geometry":{"coordinates":[4.893333,50.829214],"type":"Point"},"properties":{"osm_id":"1314191866","tag":{"amenity":"waste_basket"}},"type":"Feature"},
	{"geometry":{"coordinates":[4.868204,50.829694],"type":"Point"},"properties":{"osm_id":"1616032824","tag":{"amenity":"waste_basket"}},"type":"Feature"},
	{"geometry":{"coordinates":[4.867996,50.829913],"type":"Point"},"properties":{"osm_id":"1616044704","tag":{"amenity":"waste_basket"}},"type":"Feature"},
	{"geometry":{"coordinates":[4.891415,50.82638],"type":"Point"},"properties":{"osm_id":"1748905969","tag":{"amenity":"waste_basket","tourism":"picnic_site"}},"type":"Feature"},
	{"geometry":{"coordinates":[4.886995,50.815525],"type":"Point"},"properties":{"osm_id":"1827739193","tag":{"amenity":"recycling","recycling:cans":"yes","recycling:glass_bottles":"yes","recycling_type":"container"}},"type":"Feature"},
	{"geometry":{"coordinates":[4.849905,50.84015],"type":"Point"},"properties":{"osm_id":"1872410457","tag":{"amenity":"waste_basket"}},"type":"Feature"},
	{"geometry":{"coordinates":[4.848552,50.844374],"type":"Point"},"properties":{"osm_id":"1872410459","tag":{"amenity":"waste_basket"}},"type":"Feature"},
	{"geometry":{"coordinates":[4.910976,50.83561],"type":"Point"},"properties":{"osm_id":"1925504623","tag":{"amenity":"waste_basket"}},"type":"Feature"},
	{"geometry":{"coordinates":[4.891181,50.799367],"type":"Point"},"properties":{"osm_id":"1995023405","tag":{"amenity":"waste_basket"}},"type":"Feature"},
	{"geometry":{"coordinates":[4.917094,50.83055],"type":"Point"},"properties":{"osm_id":"2006238837","tag":{"amenity":"waste_basket"}},"type":"Feature"},
	{"geometry":{"coordinates":[4.911779,50.83554],"type":"Point"},"properties":{"osm_id":"2006238849","tag":{"amenity":"recycling","recycling:cans":"yes","recycling:clothes":"yes"}},"type":"Feature"},
	{"geometry":{"coordinates":[4.860352,50.834152],"type":"Point"},"properties":{"osm_id":"2164180177","tag":{"amenity":"recycling","operator":"Vlaams Inzamel Centrum Textiel","recycling:clothes":"yes","recycling_type":"container"}},"type":"Feature"},
	{"geometry":{"coordinates":[4.860379,50.834168],"type":"Point"},"properties":{"osm_id":"2164180178","tag":{"amenity":"recycling","recycling:glass_bottles":"yes","recycling_type":"container"}},"type":"Feature"},
	{"geometry":{"coordinates":[4.846513,50.845838],"type":"Point"},"properties":{"osm_id":"2164180203","tag":{"amenity":"recycling","operator":"Vlaams Inzamel Centrum Textiel","recycling:clothes":"yes","recycling_type":"container"}},"type":"Feature"},
	{"geometry":{"coordinates":[4.846507,50.845866],"type":"Point"},"properties":{"osm_id":"2164180207","tag":{"amenity":"waste_basket"}},"type":"Feature"},
	{"geometry":{"coordinates":[4.887594,50.818948],"type":"Point"},"properties":{"osm_id":"2166203299","tag":{"amenity":"waste_basket"}},"type":"Feature"},
	{"geometry":{"coordinates":[4.887349,50.819348],"type":"Point"},"properties":{"osm_id":"2166203307","tag":{"amenity":"waste_basket"}},"type":"Feature"},
	{"geometry":{"coordinates":[4.846167,50.836897],"type":"Point"},"properties":{"osm_id":"2287957376","tag":{"amenity":"recycling","recycling:clothes":"yes","recycling_type":"container"}},"type":"Feature"},
	{"geometry":{"coordinates":[4.915783,50.814128],"type":"Point"},"properties":{"osm_id":"2287984091","tag":{"amenity":"recycling","recycling:cans":"no","recycling:clothes":"yes","recycling:glass":"no","recycling:paper":"no","recycling_type":"container"}},"type":"Feature"},
	{"geometry":{"coordinates":[4.875275,50.80336],"type":"Point"},"properties":{"osm_id":"2636581295","tag":{"amenity":"recycling","recycling:glass_bottles":"yes","recycling_type":"container"}},"type":"Feature"},
	{"geometry":{"coordinates":[4.875279,50.803402],"type":"Point"},"properties":{"osm_id":"2636581296","tag":{"amenity":"recycling","operator":"De Kringwinkel","recycling:clothes":"yes","recycling_type":"container"}},"type":"Feature"},
	{"geometry":{"coordinates":[4.859278,50.83261],"type":"Point"},"properties":{"osm_id":"3377744835","tag":{"amenity":"waste_basket"}},"type":"Feature"},
	{"geometry":{"coordinates":[4.883482,50.824857],"type":"Point"},"properties":{"osm_id":"3378469410","tag":{"amenity":"waste_basket"}},"type":"Feature"},
	{"geometry":{"coordinates":[4.862734,50.833128],"type":"Point"},"properties":{"osm_id":"3378469911","tag":{"amenity":"waste_basket"}},"type":"Feature"},
	{"geometry":{"coordinates":[4.840883,50.844784],"type":"Point"},"properties":{"osm_id":"4171409879","tag":{"amenity":"recycling","operator":"WNH","recycling:clothes":"yes","recycling_type":"container"}},"type":"Feature"},
	{"geometry":{"coordinates":[4.84087,50.844796],"type":"Point"},"properties":{"osm_id":"4171409880","tag":{"amenity":"recycling","operator":"Kringwinkel","recycling:clothes":"yes","recycling_type":"container"}},"type":"Feature"},
	{"geometry":{"coordinates":[4.84085,50.844812],"type":"Point"},"properties":{"osm_id":"4171410154","tag":{"amenity":"recycling","operator":"Kringwinkel","recycling:clothes":"yes","recycling_type":"container"}},"type":"Feature"},
	{"geometry":{"coordinates":[4.874222,50.801753],"type":"Point"},"properties":{"osm_id":"4749402772","tag":{"amenity":"waste_basket"}},"type":"Feature"},
	{"geometry":{"coordinates":[4.839188,50.840523],"type":"Point"},"properties":{"osm_id":"5201793674","tag":{"amenity":"waste_basket"}},"type":"Feature"},
	{"geometry":{"coordinates":[4.8348,50.82976],"type":"Point"},"properties":{"osm_id":"7419419848","tag":{"amenity":"waste_basket"}},"type":"Feature"},
	{"geometry":{"coordinates":[4.883716,50.83406],"type":"Point"},"properties":{"osm_id":"7528463654","tag":{"amenity":"waste_basket"}},"type":"Feature"},
	{"geometry":{"coordinates":[4.91714,50.830572],"type":"Point"},"properties":{"osm_id":"7682404957","tag":{"amenity":"waste_basket"}},"type":"Feature"}
]
}
