{
"type": "FeatureCollection",
"features": [
	{"geometry":{"coordinates":[4.877635,49.437146],"type":"Point"},"properties":{"osm_id":"6799958481","tag":{"amenity":"recycling","recycling:glass_bottles":"yes","recycling_type":"container"}},"type":"Feature"},
	{"geometry":{"coordinates":[4.877633,49.437164],"type":"Point"},"properties":{"osm_id":"6799958482","tag":{"amenity":"recycling","recycling_type":"container"}},"type":"Feature"},
	{"geometry":{"coordinates":[4.877631,49.437189],"type":"Point"},"properties":{"osm_id":"6799958483","tag":{"amenity":"recycling","recycling_type":"container"}},"type":"Feature"},
	{"geometry":{"coordinates":[4.842625,49.430902],"type":"Point"},"properties":{"name":"Le Valhalla des Bouchons","osm_id":"7550917766","tag":{"addr:city":"Boult-aux-Bois","addr:housenumber":"4","addr:postcode":"08240","addr:street":"Rue de la Cadeti\u00c3\u00a8re","amenity":"recycling","building":"farm","description":"Le Valhalla des Bouchons - Collecte de li\u00c3\u00a8ge -  Association de la Maison  d'Activit\u00c3\u00a9s Rurales et Solidaires","email":"m.a.r.s@laposte.net","phone":"0777378394 (Sylvain)","recycling:cork":"yes","recycling:corks":"yes","recycling_type":"centre","website":"https://www.facebook.com/Le-valhalla-des-bouchons-115738436474117/"}},"type":"Feature"}
]
}
