{
"type": "FeatureCollection",
"features": [
	{"geometry":{"coordinates":[4.91293,48.031471],"type":"Point"},"properties":{"osm_id":"7791270568","tag":{"amenity":"waste_basket","material":"metal","operator":"Intermarch\u00e9","waste":"trash"}},"type":"Feature"},
	{"geometry":{"coordinates":[4.913207,48.031627],"type":"Point"},"properties":{"osm_id":"7791270569","tag":{"amenity":"waste_basket","material":"concrete","waste":"trash"}},"type":"Feature"},
	{"geometry":{"coordinates":[4.913354,48.03163],"type":"Point"},"properties":{"osm_id":"7791270570","tag":{"amenity":"waste_basket","material":"concrete","waste":"trash"}},"type":"Feature"},
	{"geometry":{"coordinates":[4.913438,48.031634],"type":"Point"},"properties":{"osm_id":"7791270572","tag":{"amenity":"waste_basket","material":"concrete","waste":"trash"}},"type":"Feature"},
	{"geometry":{"coordinates":[4.921522,48.032779],"type":"Point"},"properties":{"osm_id":"7811214175","tag":{"amenity":"waste_basket","waste":"litter"}},"type":"Feature"},
	{"geometry":{"coordinates":[4.915035,48.038755],"type":"Point"},"properties":{"osm_id":"7887279120","tag":{"access":"yes","amenity":"waste_disposal","waste":"trash"}},"type":"Feature"},
	{"geometry":{"coordinates":[4.915049,48.038767],"type":"Point"},"properties":{"osm_id":"7887279121","tag":{"access":"yes","amenity":"waste_disposal","waste":"recycling"}},"type":"Feature"},
	{"geometry":{"coordinates":[4.914832,48.038918],"type":"Point"},"properties":{"osm_id":"7887424399","tag":{"access":"yes","amenity":"waste_disposal","waste":"recycling"}},"type":"Feature"},
	{"geometry":{"coordinates":[4.91481,48.038928],"type":"Point"},"properties":{"osm_id":"7887424400","tag":{"access":"yes","amenity":"waste_disposal","waste":"trash"}},"type":"Feature"}
]
}
