{
"type": "FeatureCollection",
"features": [
	{"geometry":{"coordinates":[4.915514,47.010166],"type":"Point"},"properties":{"osm_id":"370628902","tag":{"amenity":"recycling","recycling:batteries":"yes","recycling:cans":"yes","recycling:glass":"yes","recycling:paper":"yes","recycling:scrap_metal":"yes","recycling_type":"centre"}},"type":"Feature"},
	{"geometry":{"coordinates":[4.847584,47.03847],"type":"Point"},"properties":{"osm_id":"1859987886","tag":{"amenity":"recycling","location":"overground","recycling_type":"container"}},"type":"Feature"},
	{"geometry":{"coordinates":[4.85578,47.019154],"type":"Point"},"properties":{"osm_id":"2469254295","tag":{"amenity":"recycling","recycling:clothes":"yes","recycling:glass":"yes","recycling_type":"container"}},"type":"Feature"},
	{"geometry":{"coordinates":[4.853436,46.99928],"type":"Point"},"properties":{"osm_id":"2496734435","tag":{"amenity":"recycling","recycling:glass":"yes","recycling:paper":"yes","recycling_type":"container"}},"type":"Feature"},
	{"geometry":{"coordinates":[4.847821,47.024035],"type":"Point"},"properties":{"osm_id":"2842085548","tag":{"amenity":"waste_basket"}},"type":"Feature"},
	{"geometry":{"coordinates":[4.842106,46.993736],"type":"Point"},"properties":{"osm_id":"2870512281","tag":{"amenity":"waste_basket"}},"type":"Feature"},
	{"geometry":{"coordinates":[4.870387,46.995],"type":"Point"},"properties":{"osm_id":"2884208391","tag":{"amenity":"waste_basket"}},"type":"Feature"},
	{"geometry":{"coordinates":[4.84378,46.992677],"type":"Point"},"properties":{"osm_id":"2884208421","tag":{"amenity":"waste_basket"}},"type":"Feature"},
	{"geometry":{"coordinates":[4.836508,47.017451],"type":"Point"},"properties":{"osm_id":"2919515310","tag":{"amenity":"waste_disposal","drinking_water":"yes","power_supply":"cee_17_blue"}},"type":"Feature"},
	{"geometry":{"coordinates":[4.841478,47.02412],"type":"Point"},"properties":{"osm_id":"2963187894","tag":{"amenity":"recycling","location":"underground","recycling:glass":"yes","recycling_type":"container"}},"type":"Feature"},
	{"geometry":{"coordinates":[4.836882,47.017604],"type":"Point"},"properties":{"osm_id":"2989869263","tag":{"amenity":"waste_disposal","waste":"trash"}},"type":"Feature"},
	{"geometry":{"coordinates":[4.836535,47.017844],"type":"Point"},"properties":{"osm_id":"2989869266","tag":{"amenity":"waste_basket"}},"type":"Feature"},
	{"geometry":{"coordinates":[4.837123,47.018291],"type":"Point"},"properties":{"osm_id":"2989869269","tag":{"amenity":"waste_basket"}},"type":"Feature"},
	{"geometry":{"coordinates":[4.848515,47.034518],"type":"Point"},"properties":{"osm_id":"3024855016","tag":{"amenity":"recycling","recycling:clothes":"yes","recycling:glass_bottles":"yes","recycling:paper":"yes","recycling_type":"container"}},"type":"Feature"},
	{"geometry":{"coordinates":[4.854047,47.031101],"type":"Point"},"properties":{"osm_id":"3024855024","tag":{"amenity":"recycling","recycling:glass_bottles":"yes","recycling:paper":"yes","recycling_type":"container"}},"type":"Feature"},
	{"geometry":{"coordinates":[4.847726,47.026634],"type":"Point"},"properties":{"osm_id":"3024855025","tag":{"amenity":"recycling","recycling:glass_bottles":"yes","recycling:paper":"yes","recycling_type":"container"}},"type":"Feature"},
	{"geometry":{"coordinates":[4.847963,47.023007],"type":"Point"},"properties":{"osm_id":"3052333216","tag":{"amenity":"waste_basket"}},"type":"Feature"},
	{"geometry":{"coordinates":[4.847608,47.022167],"type":"Point"},"properties":{"osm_id":"3052333219","tag":{"amenity":"recycling","recycling:clothes":"yes","recycling:glass_bottles":"yes","recycling:paper":"yes","recycling_type":"container"}},"type":"Feature"},
	{"geometry":{"coordinates":[4.834814,47.025026],"type":"Point"},"properties":{"osm_id":"3095922167","tag":{"amenity":"recycling","location":"underground","recycling:glass":"yes","recycling:paper":"yes","recycling_type":"container"}},"type":"Feature"},
	{"geometry":{"coordinates":[4.835089,47.021798],"type":"Point"},"properties":{"osm_id":"3100912457","tag":{"amenity":"recycling","recycling:glass":"yes","recycling_type":"container"}},"type":"Feature"},
	{"geometry":{"coordinates":[4.847029,47.01792],"type":"Point"},"properties":{"osm_id":"3190315066","tag":{"amenity":"waste_basket"}},"type":"Feature"},
	{"geometry":{"coordinates":[4.849133,47.01541],"type":"Point"},"properties":{"osm_id":"3191943599","tag":{"amenity":"waste_basket"}},"type":"Feature"},
	{"geometry":{"coordinates":[4.847505,47.017432],"type":"Point"},"properties":{"osm_id":"3191943605","tag":{"amenity":"waste_basket"}},"type":"Feature"},
	{"geometry":{"coordinates":[4.846922,47.018935],"type":"Point"},"properties":{"osm_id":"3191943608","tag":{"amenity":"waste_basket"}},"type":"Feature"},
	{"geometry":{"coordinates":[4.846373,47.01978],"type":"Point"},"properties":{"osm_id":"3191943613","tag":{"amenity":"waste_basket"}},"type":"Feature"},
	{"geometry":{"coordinates":[4.849312,47.020114],"type":"Point"},"properties":{"osm_id":"3191943616","tag":{"amenity":"waste_basket"}},"type":"Feature"},
	{"geometry":{"coordinates":[4.846376,47.004722],"type":"Point"},"properties":{"osm_id":"3466238384","tag":{"amenity":"waste_basket"}},"type":"Feature"},
	{"geometry":{"coordinates":[4.847409,47.005934],"type":"Point"},"properties":{"osm_id":"3466238386","tag":{"amenity":"waste_basket"}},"type":"Feature"},
	{"geometry":{"coordinates":[4.889333,47.029899],"type":"Point"},"properties":{"osm_id":"3466241612","tag":{"amenity":"waste_basket"}},"type":"Feature"},
	{"geometry":{"coordinates":[4.841455,46.993726],"type":"Point"},"properties":{"osm_id":"3473588323","tag":{"amenity":"waste_basket"}},"type":"Feature"},
	{"geometry":{"coordinates":[4.847695,46.99081],"type":"Point"},"properties":{"osm_id":"4332708513","tag":{"amenity":"recycling","recycling:beverage_cartons":"yes","recycling:glass":"yes","recycling:paper":"yes","recycling:plastic_bottles":"yes"}},"type":"Feature"},
	{"geometry":{"coordinates":[4.914837,47.007182],"type":"Point"},"properties":{"osm_id":"5723440704","tag":{"amenity":"recycling","recycling_type":"centre"}},"type":"Feature"},
	{"geometry":{"coordinates":[4.838311,47.024489],"type":"Point"},"properties":{"osm_id":"5824062726","tag":{"amenity":"waste_basket"}},"type":"Feature"}
]
}
