{
"type": "FeatureCollection",
"features": [
	{"geometry":{"coordinates":[4.858301,45.845804],"type":"Point"},"properties":{"osm_id":"330135825","tag":{"amenity":"recycling","recycling:cans":"yes","recycling:glass":"yes","recycling:paper":"yes"}},"type":"Feature"},
	{"geometry":{"coordinates":[4.855976,45.839331],"type":"Point"},"properties":{"osm_id":"330280135","tag":{"amenity":"recycling","location":"overground","recycling:cans":"yes","recycling:glass":"yes","recycling:paper":"yes","recycling_type":"container"}},"type":"Feature"},
	{"geometry":{"coordinates":[4.854482,45.849382],"type":"Point"},"properties":{"osm_id":"330280177","tag":{"amenity":"recycling","recycling:cans":"yes","recycling:glass":"yes","recycling:paper":"yes"}},"type":"Feature"},
	{"geometry":{"coordinates":[4.863498,45.849353],"type":"Point"},"properties":{"osm_id":"330351803","tag":{"amenity":"recycling","recycling:batteries":"no","recycling:cans":"yes","recycling:clothes":"no","recycling:glass":"yes","recycling:paper":"yes"}},"type":"Feature"},
	{"geometry":{"coordinates":[4.917017,45.870178],"type":"Point"},"properties":{"osm_id":"601446340","tag":{"amenity":"recycling"}},"type":"Feature"},
	{"geometry":{"coordinates":[4.912003,45.872816],"type":"Point"},"properties":{"osm_id":"943307309","tag":{"amenity":"recycling","recycling:glass":"yes"}},"type":"Feature"},
	{"geometry":{"coordinates":[4.877841,45.856801],"type":"Point"},"properties":{"osm_id":"1895077305","tag":{"amenity":"recycling","recycling:glass_bottles":"yes","recycling_type":"container"}},"type":"Feature"},
	{"geometry":{"coordinates":[4.913711,45.865468],"type":"Point"},"properties":{"osm_id":"2589193910","tag":{"amenity":"recycling","recycling:clothes":"yes"}},"type":"Feature"},
	{"geometry":{"coordinates":[4.834633,45.856236],"type":"Point"},"properties":{"osm_id":"2885690350","tag":{"amenity":"recycling","recycling:glass":"yes","recycling:paper":"yes","recycling_type":"container"}},"type":"Feature"},
	{"geometry":{"coordinates":[4.835567,45.836277],"type":"Point"},"properties":{"osm_id":"3615054043","tag":{"amenity":"recycling","location":"overground","recycling:glass":"yes","recycling_type":"container"}},"type":"Feature"},
	{"geometry":{"coordinates":[4.91073,45.874934],"type":"Point"},"properties":{"osm_id":"3728023970","tag":{"amenity":"waste_basket"}},"type":"Feature"},
	{"geometry":{"coordinates":[4.910705,45.874467],"type":"Point"},"properties":{"osm_id":"3728038191","tag":{"amenity":"waste_basket"}},"type":"Feature"},
	{"geometry":{"coordinates":[4.910866,45.874495],"type":"Point"},"properties":{"osm_id":"3728038270","tag":{"amenity":"waste_basket"}},"type":"Feature"},
	{"geometry":{"coordinates":[4.910569,45.874909],"type":"Point"},"properties":{"osm_id":"3728040144","tag":{"amenity":"waste_basket"}},"type":"Feature"},
	{"geometry":{"coordinates":[4.910434,45.875348],"type":"Point"},"properties":{"osm_id":"3728040145","tag":{"amenity":"waste_basket"}},"type":"Feature"},
	{"geometry":{"coordinates":[4.910596,45.875374],"type":"Point"},"properties":{"osm_id":"3728040146","tag":{"amenity":"waste_basket"}},"type":"Feature"},
	{"geometry":{"coordinates":[4.889993,45.83055],"type":"Point"},"properties":{"osm_id":"4614750793","tag":{"amenity":"waste_disposal","operator":"dechetterie"}},"type":"Feature"},
	{"geometry":{"coordinates":[4.846095,45.861428],"type":"Point"},"properties":{"osm_id":"5262676590","tag":{"amenity":"recycling","recycling:glass_bottles":"yes","recycling_type":"container"}},"type":"Feature"},
	{"geometry":{"coordinates":[4.844733,45.861787],"type":"Point"},"properties":{"osm_id":"5262676598","tag":{"amenity":"recycling","recycling:glass_bottles":"yes","recycling_type":"container"}},"type":"Feature"},
	{"geometry":{"coordinates":[4.844759,45.861774],"type":"Point"},"properties":{"osm_id":"5262676599","tag":{"amenity":"recycling","operator":"Le Relais","recycling:clothes":"yes","recycling_type":"container"}},"type":"Feature"},
	{"geometry":{"coordinates":[4.851546,45.832037],"type":"Point"},"properties":{"osm_id":"7326511171","tag":{"amenity":"recycling","recycling:glass_bottles":"yes","recycling_type":"container"}},"type":"Feature"},
	{"geometry":{"coordinates":[4.869826,45.831033],"type":"Point"},"properties":{"osm_id":"7573125227","tag":{"amenity":"recycling","recycling:glass_bottles":"yes","recycling_type":"container"}},"type":"Feature"}
]
}
