{
"type": "FeatureCollection",
"lastupdate": "2020-08-03T00:00:00Z",
"features": [
	{"geometry":{"coordinates":[4.849227,45.666019],"type":"Point"},"properties":{"osm_id":"672130789","tag":{"amenity":"recycling","recycling:glass":"yes"}},"type":"Feature"},
	{"geometry":{"coordinates":[4.914318,45.70461],"type":"Point"},"properties":{"osm_id":"1262373733","tag":{"amenity":"waste_basket"}},"type":"Feature"},
	{"geometry":{"coordinates":[4.87202,45.691862],"type":"Point"},"properties":{"osm_id":"1357967356","tag":{"amenity":"recycling","recycling:glass_bottles":"yes","recycling_type":"container"}},"type":"Feature"},
	{"geometry":{"coordinates":[4.863934,45.692099],"type":"Point"},"properties":{"osm_id":"1357967359","tag":{"amenity":"recycling","recycling:glass":"yes"}},"type":"Feature"},
	{"geometry":{"coordinates":[4.868276,45.695079],"type":"Point"},"properties":{"osm_id":"1357967559","tag":{"amenity":"recycling","recycling:glass":"yes"}},"type":"Feature"},
	{"geometry":{"coordinates":[4.894909,45.661613],"type":"Point"},"properties":{"osm_id":"1879038994","tag":{"amenity":"recycling","recycling:glass_bottles":"yes","recycling_type":"container"}},"type":"Feature"},
	{"geometry":{"coordinates":[4.919546,45.67386],"type":"Point"},"properties":{"osm_id":"1880367560","tag":{"amenity":"recycling","recycling:glass_bottles":"yes","recycling_type":"container"}},"type":"Feature"},
	{"geometry":{"coordinates":[4.911532,45.670783],"type":"Point"},"properties":{"osm_id":"1880367562","tag":{"amenity":"recycling","recycling:glass_bottles":"yes","recycling_type":"container"}},"type":"Feature"},
	{"geometry":{"coordinates":[4.911458,45.663635],"type":"Point"},"properties":{"osm_id":"1884902647","tag":{"amenity":"recycling","recycling:glass_bottles":"yes","recycling_type":"container"}},"type":"Feature"},
	{"geometry":{"coordinates":[4.900868,45.675439],"type":"Point"},"properties":{"osm_id":"2100252186","tag":{"amenity":"recycling","recycling:glass_bottles":"yes","recycling_type":"container"}},"type":"Feature"},
	{"geometry":{"coordinates":[4.908299,45.660433],"type":"Point"},"properties":{"osm_id":"2136986276","tag":{"amenity":"recycling","recycling:glass_bottles":"yes","recycling_type":"container"}},"type":"Feature"},
	{"geometry":{"coordinates":[4.901164,45.65568],"type":"Point"},"properties":{"osm_id":"2407312004","tag":{"amenity":"recycling","recycling:glass_bottles":"yes","recycling_type":"container"}},"type":"Feature"},
	{"geometry":{"coordinates":[4.901965,45.663101],"type":"Point"},"properties":{"osm_id":"2407312005","tag":{"amenity":"recycling","recycling:glass_bottles":"yes","recycling_type":"container"}},"type":"Feature"},
	{"geometry":{"coordinates":[4.894295,45.664868],"type":"Point"},"properties":{"osm_id":"2407312006","tag":{"amenity":"recycling","recycling:glass_bottles":"yes","recycling_type":"container"}},"type":"Feature"},
	{"geometry":{"coordinates":[4.897434,45.665025],"type":"Point"},"properties":{"osm_id":"2407312007","tag":{"amenity":"recycling","recycling:glass_bottles":"yes","recycling_type":"container"}},"type":"Feature"},
	{"geometry":{"coordinates":[4.903536,45.667029],"type":"Point"},"properties":{"osm_id":"2407312008","tag":{"amenity":"recycling","recycling:glass_bottles":"yes","recycling_type":"container"}},"type":"Feature"},
	{"geometry":{"coordinates":[4.897157,45.669796],"type":"Point"},"properties":{"osm_id":"2407312009","tag":{"amenity":"recycling","recycling:glass_bottles":"yes","recycling_type":"container"}},"type":"Feature"},
	{"geometry":{"coordinates":[4.89959,45.671166],"type":"Point"},"properties":{"osm_id":"2407312010","tag":{"amenity":"recycling","recycling:glass_bottles":"yes","recycling_type":"container"}},"type":"Feature"},
	{"geometry":{"coordinates":[4.918106,45.67803],"type":"Point"},"properties":{"osm_id":"2407312011","tag":{"amenity":"recycling","recycling:glass_bottles":"yes","recycling_type":"container"}},"type":"Feature"},
	{"geometry":{"coordinates":[4.883695,45.697139],"type":"Point"},"properties":{"osm_id":"2443654024","tag":{"amenity":"recycling","recycling:glass_bottles":"yes","recycling_type":"container"}},"type":"Feature"},
	{"geometry":{"coordinates":[4.868069,45.689593],"type":"Point"},"properties":{"osm_id":"2443677556","tag":{"amenity":"recycling","recycling:glass_bottles":"yes","recycling_type":"container"}},"type":"Feature"},
	{"geometry":{"coordinates":[4.886639,45.70282],"type":"Point"},"properties":{"osm_id":"2545240920","tag":{"amenity":"recycling","recycling:glass_bottles":"yes","recycling_type":"container"}},"type":"Feature"},
	{"geometry":{"coordinates":[4.904302,45.65944],"type":"Point"},"properties":{"osm_id":"2700318683","tag":{"amenity":"recycling","recycling:glass_bottles":"yes","recycling_type":"container"}},"type":"Feature"},
	{"geometry":{"coordinates":[4.890693,45.66624],"type":"Point"},"properties":{"osm_id":"3012075848","tag":{"amenity":"recycling","recycling:glass_bottles":"yes","recycling_type":"container"}},"type":"Feature"},
	{"geometry":{"coordinates":[4.870834,45.690749],"type":"Point"},"properties":{"osm_id":"3851861707","tag":{"amenity":"recycling","recycling:glass_bottles":"yes","recycling_type":"container"}},"type":"Feature"},
	{"geometry":{"coordinates":[4.836159,45.671294],"type":"Point"},"properties":{"osm_id":"3907986452","tag":{"amenity":"waste_basket"}},"type":"Feature"},
	{"geometry":{"coordinates":[4.836002,45.671317],"type":"Point"},"properties":{"osm_id":"3907986454","tag":{"amenity":"waste_basket"}},"type":"Feature"},
	{"geometry":{"coordinates":[4.834597,45.672283],"type":"Point"},"properties":{"osm_id":"3912228677","tag":{"amenity":"waste_basket"}},"type":"Feature"},
	{"geometry":{"coordinates":[4.834945,45.673348],"type":"Point"},"properties":{"osm_id":"3912228679","tag":{"amenity":"waste_basket"}},"type":"Feature"},
	{"geometry":{"coordinates":[4.835288,45.67427],"type":"Point"},"properties":{"osm_id":"3912228681","tag":{"amenity":"waste_basket"}},"type":"Feature"},
	{"geometry":{"coordinates":[4.899098,45.705035],"type":"Point"},"properties":{"osm_id":"4714921696","tag":{"amenity":"waste_basket"}},"type":"Feature"},
	{"geometry":{"coordinates":[4.875984,45.676061],"type":"Point"},"properties":{"osm_id":"4841820965","tag":{"amenity":"waste_basket"}},"type":"Feature"},
	{"geometry":{"coordinates":[4.921839,45.7051],"type":"Point"},"properties":{"osm_id":"5191515649","tag":{"amenity":"waste_basket"}},"type":"Feature"},
	{"geometry":{"coordinates":[4.876081,45.673773],"type":"Point"},"properties":{"osm_id":"5549093190","tag":{"amenity":"waste_basket"}},"type":"Feature"},
	{"geometry":{"coordinates":[4.885797,45.6656],"type":"Point"},"properties":{"osm_id":"5553395373","tag":{"amenity":"waste_basket"}},"type":"Feature"},
	{"geometry":{"coordinates":[4.871067,45.683611],"type":"Point"},"properties":{"osm_id":"5553395550","tag":{"amenity":"waste_basket"}},"type":"Feature"},
	{"geometry":{"coordinates":[4.87122,45.683549],"type":"Point"},"properties":{"osm_id":"5553395551","tag":{"amenity":"waste_basket"}},"type":"Feature"},
	{"geometry":{"coordinates":[4.871264,45.683756],"type":"Point"},"properties":{"osm_id":"5553395553","tag":{"amenity":"waste_basket"}},"type":"Feature"},
	{"geometry":{"coordinates":[4.894693,45.679495],"type":"Point"},"properties":{"osm_id":"5562037295","tag":{"amenity":"recycling","recycling:glass_bottles":"yes","recycling_type":"container"}},"type":"Feature"},
	{"geometry":{"coordinates":[4.894448,45.679126],"type":"Point"},"properties":{"osm_id":"5563028244","tag":{"amenity":"waste_basket"}},"type":"Feature"},
	{"geometry":{"coordinates":[4.882002,45.699625],"type":"Point"},"properties":{"osm_id":"5573305902","tag":{"amenity":"recycling","recycling:organic":"yes","recycling_type":"container"}},"type":"Feature"},
	{"geometry":{"coordinates":[4.870155,45.705906],"type":"Point"},"properties":{"osm_id":"5573320605","tag":{"amenity":"recycling","recycling:organic":"yes","recycling_type":"container"}},"type":"Feature"},
	{"geometry":{"coordinates":[4.863647,45.673686],"type":"Point"},"properties":{"barrier":"gate","osm_id":"5573719187"},"type":"Feature"},
	{"geometry":{"coordinates":[4.916859,45.645202],"type":"Point"},"properties":{"osm_id":"6168612644","tag":{"amenity":"waste_basket"}},"type":"Feature"},
	{"geometry":{"coordinates":[4.903542,45.665455],"type":"Point"},"properties":{"osm_id":"6347064481","tag":{"amenity":"waste_basket"}},"type":"Feature"},
	{"geometry":{"coordinates":[4.895064,45.697802],"type":"Point"},"properties":{"osm_id":"6814472249","tag":{"amenity":"recycling","recycling:glass":"yes","recycling_type":"container"}},"type":"Feature"},
	{"geometry":{"coordinates":[4.896843,45.696571],"type":"Point"},"properties":{"osm_id":"6814482797","tag":{"amenity":"recycling","recycling:glass":"yes","recycling_type":"container"}},"type":"Feature"}
]
}
