{
"type": "FeatureCollection",
"features": [
	{"geometry":{"coordinates":[4.843444,45.637684],"type":"Point"},"properties":{"osm_id":"473094771","tag":{"amenity":"recycling"}},"type":"Feature"},
	{"geometry":{"coordinates":[4.856834,45.592822],"type":"Point"},"properties":{"osm_id":"4317580269","tag":{"amenity":"waste_basket"}},"type":"Feature"},
	{"geometry":{"coordinates":[4.85619,45.593173],"type":"Point"},"properties":{"osm_id":"4317580278","tag":{"amenity":"waste_basket"}},"type":"Feature"},
	{"geometry":{"coordinates":[4.855301,45.59357],"type":"Point"},"properties":{"osm_id":"4317580284","tag":{"amenity":"waste_basket"}},"type":"Feature"},
	{"geometry":{"coordinates":[4.858974,45.591284],"type":"Point"},"properties":{"osm_id":"4318835340","tag":{"amenity":"recycling","email":"contact@sitom-sudrhone.com","operator":"SITOM","phone":"+33 4 72319088","recycling:cans":"no","recycling:cardboard":"yes","recycling:glass_bottles":"yes","recycling:paper":"yes","recycling:plastic_bottles":"yes","recycling_type":"container","website":"https://www.sitom-sud-rhone.com/"}},"type":"Feature"},
	{"geometry":{"coordinates":[4.879973,45.58577],"type":"Point"},"properties":{"osm_id":"4492828335","tag":{"amenity":"recycling","recycling:clothes":"yes","recycling_type":"container"}},"type":"Feature"},
	{"geometry":{"coordinates":[4.880014,45.585773],"type":"Point"},"properties":{"osm_id":"4492828336","tag":{"amenity":"recycling","recycling:cans":"yes","recycling:cardboard":"yes","recycling:glass_bottles":"yes","recycling:paper":"yes","recycling:plastic_bottles":"yes","recycling_type":"container"}},"type":"Feature"},
	{"geometry":{"coordinates":[4.917961,45.621032],"type":"Point"},"properties":{"osm_id":"5016149216","tag":{"amenity":"recycling","recycling:clothes":"yes","recycling:glass_bottles":"yes","recycling_type":"container"}},"type":"Feature"},
	{"geometry":{"coordinates":[4.859222,45.632457],"type":"Point"},"properties":{"osm_id":"5471839780","tag":{"amenity":"waste_basket"}},"type":"Feature"},
	{"geometry":{"coordinates":[4.859984,45.632972],"type":"Point"},"properties":{"osm_id":"5471840001","tag":{"amenity":"recycling","recycling:glass_bottles":"yes","recycling_type":"container"}},"type":"Feature"},
	{"geometry":{"coordinates":[4.863425,45.631017],"type":"Point"},"properties":{"osm_id":"5473837226","tag":{"amenity":"waste_basket"}},"type":"Feature"},
	{"geometry":{"coordinates":[4.864491,45.63227],"type":"Point"},"properties":{"osm_id":"5474382607","tag":{"amenity":"waste_basket","waste":"trash"}},"type":"Feature"},
	{"geometry":{"coordinates":[4.921079,45.633341],"type":"Point"},"properties":{"osm_id":"6030923139","tag":{"amenity":"waste_basket"}},"type":"Feature"},
	{"geometry":{"coordinates":[4.872675,45.619901],"type":"Point"},"properties":{"osm_id":"6632991786","tag":{"amenity":"waste_basket"}},"type":"Feature"},
	{"geometry":{"coordinates":[4.872282,45.620179],"type":"Point"},"properties":{"osm_id":"6633026486","tag":{"amenity":"waste_basket"}},"type":"Feature"},
	{"geometry":{"coordinates":[4.872003,45.620376],"type":"Point"},"properties":{"osm_id":"6633037086","tag":{"amenity":"waste_basket"}},"type":"Feature"},
	{"geometry":{"coordinates":[4.87201,45.62045],"type":"Point"},"properties":{"osm_id":"6633037885","tag":{"amenity":"waste_basket"}},"type":"Feature"},
	{"geometry":{"coordinates":[4.872077,45.620657],"type":"Point"},"properties":{"osm_id":"6633037888","tag":{"amenity":"waste_basket"}},"type":"Feature"},
	{"geometry":{"coordinates":[4.876234,45.616296],"type":"Point"},"properties":{"osm_id":"6634265847","tag":{"amenity":"waste_basket"}},"type":"Feature"},
	{"geometry":{"coordinates":[4.872057,45.620562],"type":"Point"},"properties":{"osm_id":"6634270132","tag":{"amenity":"recycling","recycling:clothes":"yes","recycling_type":"container"}},"type":"Feature"},
	{"geometry":{"coordinates":[4.871986,45.620577],"type":"Point"},"properties":{"osm_id":"6634320745","tag":{"amenity":"waste_basket"}},"type":"Feature"},
	{"geometry":{"coordinates":[4.872674,45.618725],"type":"Point"},"properties":{"osm_id":"6634417045","tag":{"amenity":"waste_basket"}},"type":"Feature"},
	{"geometry":{"coordinates":[4.886722,45.63933],"type":"Point"},"properties":{"name":"D\u00c3\u00a9cheterie de Saint-Symphorien D'ozon","osm_id":"6809953095","tag":{"amenity":"recycling","operator":"Sitom","recycling_type":"centre"}},"type":"Feature"}
]
}
