{
"type": "FeatureCollection",
"features": [
	{"geometry":{"coordinates":[4.874799,45.53314],"type":"Point"},"properties":{"osm_id":"341309391","tag":{"amenity":"recycling","recycling:paper":"yes","recycling:plastic_bottles":"yes","recycling:plastic_packaging":"yes","recycling_type":"container"}},"type":"Feature"},
	{"geometry":{"coordinates":[4.874999,45.534342],"type":"Point"},"properties":{"osm_id":"341333191","tag":{"amenity":"recycling","recycling:paper":"yes","recycling:plastic_bottles":"yes","recycling:plastic_packaging":"yes","recycling:scrap_metal":"no","recycling_type":"container"}},"type":"Feature"},
	{"geometry":{"coordinates":[4.845215,45.560417],"type":"Point"},"properties":{"osm_id":"1490803165","tag":{"amenity":"recycling","recycling_type":"container"}},"type":"Feature"},
	{"geometry":{"coordinates":[4.857577,45.557833],"type":"Point"},"properties":{"osm_id":"1491747958","tag":{"amenity":"recycling","recycling_type":"container"}},"type":"Feature"},
	{"geometry":{"coordinates":[4.843275,45.558355],"type":"Point"},"properties":{"osm_id":"1491751543","tag":{"amenity":"recycling","recycling_type":"container"}},"type":"Feature"},
	{"geometry":{"coordinates":[4.87276,45.523013],"type":"Point"},"properties":{"osm_id":"2552778553","tag":{"amenity":"recycling","opening_hours":"24/7","recycling:PET":"yes","recycling:cans":"yes","recycling:cardboard":"yes","recycling:glass_bottles":"yes","recycling:paper":"yes","recycling:plastic":"yes","recycling:plastic_bottles":"yes","recycling:plastic_packaging":"yes","recycling:waste":"yes","recycling_type":"container","wheelchair":"yes"}},"type":"Feature"},
	{"geometry":{"coordinates":[4.871271,45.523285],"type":"Point"},"properties":{"osm_id":"2552778555","tag":{"amenity":"recycling","recycling:glass_bottles":"yes","recycling_type":"container"}},"type":"Feature"},
	{"geometry":{"coordinates":[4.875186,45.527429],"type":"Point"},"properties":{"osm_id":"2733383236","tag":{"amenity":"recycling","recycling:aluminium":"yes","recycling:cartons":"yes","recycling:glass_bottles":"yes","recycling:paper":"yes","recycling:plastic":"yes","recycling:scrap_metal":"yes","recycling_type":"container"}},"type":"Feature"},
	{"geometry":{"coordinates":[4.862781,45.542725],"type":"Point"},"properties":{"osm_id":"4512281890","tag":{"amenity":"recycling","recycling_type":"container"}},"type":"Feature"},
	{"geometry":{"coordinates":[4.861559,45.539743],"type":"Point"},"properties":{"osm_id":"4512281914","tag":{"amenity":"recycling","recycling:cans":"yes","recycling:glass_bottles":"yes","recycling_type":"container"}},"type":"Feature"},
	{"geometry":{"coordinates":[4.871491,45.539068],"type":"Point"},"properties":{"osm_id":"4524944935","tag":{"amenity":"recycling","recycling:cans":"yes","recycling:cardboard":"yes","recycling:glass_bottles":"yes","recycling:paper":"yes","recycling:plastic":"yes","recycling:plastic_bottles":"yes","recycling_type":"container"}},"type":"Feature"},
	{"geometry":{"coordinates":[4.869365,45.526598],"type":"Point"},"properties":{"osm_id":"4649011186","tag":{"amenity":"recycling","recycling:glass_bottles":"yes","recycling_type":"container"}},"type":"Feature"},
	{"geometry":{"coordinates":[4.867357,45.528014],"type":"Point"},"properties":{"osm_id":"4649011712","tag":{"amenity":"recycling","recycling:glass_bottles":"yes","recycling_type":"container"}},"type":"Feature"},
	{"geometry":{"coordinates":[4.869133,45.526034],"type":"Point"},"properties":{"osm_id":"4649011785","tag":{"amenity":"waste_basket"}},"type":"Feature"},
	{"geometry":{"coordinates":[4.864757,45.530982],"type":"Point"},"properties":{"osm_id":"4697535932","tag":{"amenity":"waste_basket"}},"type":"Feature"},
	{"geometry":{"coordinates":[4.864784,45.530835],"type":"Point"},"properties":{"osm_id":"4697535933","tag":{"amenity":"waste_basket"}},"type":"Feature"},
	{"geometry":{"coordinates":[4.864802,45.530772],"type":"Point"},"properties":{"osm_id":"4697535934","tag":{"amenity":"waste_basket"}},"type":"Feature"},
	{"geometry":{"coordinates":[4.864825,45.530573],"type":"Point"},"properties":{"osm_id":"4697535935","tag":{"amenity":"waste_basket"}},"type":"Feature"},
	{"geometry":{"coordinates":[4.865653,45.530572],"type":"Point"},"properties":{"osm_id":"4697669541","tag":{"amenity":"waste_basket"}},"type":"Feature"},
	{"geometry":{"coordinates":[4.865771,45.530537],"type":"Point"},"properties":{"osm_id":"4697669542","tag":{"amenity":"waste_basket"}},"type":"Feature"},
	{"geometry":{"coordinates":[4.865779,45.530472],"type":"Point"},"properties":{"osm_id":"4697669543","tag":{"amenity":"waste_basket"}},"type":"Feature"},
	{"geometry":{"coordinates":[4.866228,45.530141],"type":"Point"},"properties":{"osm_id":"4697669544","tag":{"amenity":"waste_basket"}},"type":"Feature"},
	{"geometry":{"coordinates":[4.86596,45.530331],"type":"Point"},"properties":{"osm_id":"4697669545","tag":{"amenity":"waste_basket"}},"type":"Feature"},
	{"geometry":{"coordinates":[4.865872,45.530443],"type":"Point"},"properties":{"osm_id":"4697669546","tag":{"amenity":"waste_basket"}},"type":"Feature"},
	{"geometry":{"coordinates":[4.865758,45.5304],"type":"Point"},"properties":{"osm_id":"4697669547","tag":{"amenity":"waste_basket"}},"type":"Feature"},
	{"geometry":{"coordinates":[4.858189,45.536147],"type":"Point"},"properties":{"osm_id":"4701303910","tag":{"amenity":"waste_basket"}},"type":"Feature"},
	{"geometry":{"coordinates":[4.85843,45.536133],"type":"Point"},"properties":{"osm_id":"4701303911","tag":{"amenity":"waste_basket"}},"type":"Feature"},
	{"geometry":{"coordinates":[4.858417,45.536117],"type":"Point"},"properties":{"osm_id":"4701303912","tag":{"amenity":"waste_basket"}},"type":"Feature"},
	{"geometry":{"coordinates":[4.868269,45.52503],"type":"Point"},"properties":{"osm_id":"4719971412","tag":{"amenity":"waste_basket"}},"type":"Feature"},
	{"geometry":{"coordinates":[4.88022,45.525602],"type":"Point"},"properties":{"osm_id":"5462732560","tag":{"amenity":"waste_basket","waste":"trash"}},"type":"Feature"},
	{"geometry":{"coordinates":[4.881206,45.525159],"type":"Point"},"properties":{"osm_id":"5462732562","tag":{"amenity":"waste_basket","waste":"trash"}},"type":"Feature"},
	{"geometry":{"coordinates":[4.875403,45.526739],"type":"Point"},"properties":{"osm_id":"5843734638","tag":{"amenity":"recycling","recycling:PET":"yes","recycling:aluminium":"yes","recycling:cans":"yes","recycling:cardboard":"yes","recycling:cartons":"yes","recycling:glass_bottles":"yes","recycling:paper":"yes","recycling:plastic":"yes","recycling:plastic_bottles":"yes","recycling:scrap_metal":"yes","recycling:waste":"yes","recycling_type":"container"}},"type":"Feature"},
	{"geometry":{"coordinates":[4.875284,45.52465],"type":"Point"},"properties":{"osm_id":"5894605455","tag":{"amenity":"recycling","recycling:aluminium":"yes","recycling:cartons":"yes","recycling:glass_bottles":"yes","recycling:paper":"yes","recycling:plastic":"yes","recycling:scrap_metal":"yes","recycling_type":"container"}},"type":"Feature"},
	{"geometry":{"coordinates":[4.874083,45.525217],"type":"Point"},"properties":{"osm_id":"5958943186","tag":{"amenity":"recycling","recycling:aluminium":"yes","recycling:cartons":"yes","recycling:glass_bottles":"yes","recycling:paper":"yes","recycling:plastic":"yes","recycling:scrap_metal":"yes","recycling:waste":"yes","recycling_type":"container"}},"type":"Feature"},
	{"geometry":{"coordinates":[4.871591,45.529703],"type":"Point"},"properties":{"osm_id":"5998824752","tag":{"amenity":"waste_basket"}},"type":"Feature"},
	{"geometry":{"coordinates":[4.868838,45.537243],"type":"Point"},"properties":{"osm_id":"6087607197","tag":{"amenity":"recycling","recycling:clothes":"yes","recycling:glass_bottles":"yes","recycling:shoes":"yes","recycling_type":"container"}},"type":"Feature"},
	{"geometry":{"coordinates":[4.874362,45.523661],"type":"Point"},"properties":{"osm_id":"6402609556","tag":{"amenity":"waste_basket","waste":"trash"}},"type":"Feature"},
	{"geometry":{"coordinates":[4.869318,45.525873],"type":"Point"},"properties":{"osm_id":"6509350242","tag":{"amenity":"recycling","recycling:cardboard":"no","recycling:glass_bottles":"yes","recycling:paper":"yes","recycling_type":"container"}},"type":"Feature"},
	{"geometry":{"coordinates":[4.86959,45.526275],"type":"Point"},"properties":{"osm_id":"6691096849","tag":{"amenity":"waste_basket"}},"type":"Feature"},
	{"geometry":{"coordinates":[4.869486,45.52614],"type":"Point"},"properties":{"osm_id":"6691096850","tag":{"amenity":"waste_basket"}},"type":"Feature"},
	{"geometry":{"coordinates":[4.869282,45.525845],"type":"Point"},"properties":{"osm_id":"6691096851","tag":{"amenity":"waste_basket"}},"type":"Feature"},
	{"geometry":{"coordinates":[4.869377,45.526486],"type":"Point"},"properties":{"osm_id":"6691096864","tag":{"amenity":"recycling","recycling:glass_bottles":"yes","recycling_type":"container"}},"type":"Feature"},
	{"geometry":{"coordinates":[4.874986,45.523943],"type":"Point"},"properties":{"osm_id":"7592498127","tag":{"amenity":"recycling","recycling:aluminium":"yes","recycling:cartons":"yes","recycling:glass_bottles":"yes","recycling:paper":"yes","recycling:plastic":"yes","recycling:scrap_metal":"yes","recycling_type":"container"}},"type":"Feature"},
	{"geometry":{"coordinates":[4.875229,45.528379],"type":"Point"},"properties":{"osm_id":"7635668394","tag":{"amenity":"waste_basket"}},"type":"Feature"},
	{"geometry":{"coordinates":[4.875916,45.52844],"type":"Point"},"properties":{"osm_id":"7635668395","tag":{"amenity":"waste_basket","level":"0.5"}},"type":"Feature"},
	{"geometry":{"coordinates":[4.875187,45.528266],"type":"Point"},"properties":{"osm_id":"7637549590","tag":{"amenity":"waste_basket"}},"type":"Feature"},
	{"geometry":{"coordinates":[4.904211,45.534034],"type":"Point"},"properties":{"osm_id":"8309441309","tag":{"amenity":"recycling","recycling:clothes":"yes","recycling_type":"container"}},"type":"Feature"},
	{"geometry":{"coordinates":[4.904203,45.534028],"type":"Point"},"properties":{"osm_id":"8309441310","tag":{"amenity":"recycling","recycling:glass_bottles":"yes","recycling_type":"container"}},"type":"Feature"},
	{"geometry":{"coordinates":[4.875159,45.528205],"type":"Point"},"properties":{"osm_id":"8672280378","tag":{"access":"yes","amenity":"waste_disposal","waste":"recycling;organic;glass"}},"type":"Feature"},
	{"geometry":{"coordinates":[4.875002,45.522643],"type":"Point"},"properties":{"osm_id":"8702467556","tag":{"amenity":"recycling","recycling:aluminium":"yes","recycling:cartons":"yes","recycling:glass_bottles":"yes","recycling:paper":"yes","recycling:plastic":"yes","recycling:scrap_metal":"yes","recycling:waste":"yes","recycling_type":"container"}},"type":"Feature"},
	{"geometry":{"coordinates":[4.872564,45.521812],"type":"Point"},"properties":{"osm_id":"8814503325","tag":{"amenity":"waste_basket"}},"type":"Feature"},
	{"geometry":{"coordinates":[4.872238,45.521877],"type":"Point"},"properties":{"osm_id":"8814503347","tag":{"amenity":"waste_basket"}},"type":"Feature"},
	{"geometry":{"coordinates":[4.871381,45.522057],"type":"Point"},"properties":{"osm_id":"8814503355","tag":{"amenity":"waste_basket"}},"type":"Feature"},
	{"geometry":{"coordinates":[4.871859,45.521938],"type":"Point"},"properties":{"osm_id":"8814503362","tag":{"amenity":"waste_basket"}},"type":"Feature"},
	{"geometry":{"coordinates":[4.868649,45.522022],"type":"Point"},"properties":{"osm_id":"8815257211","tag":{"amenity":"recycling","check_date:recycling":"2020-10-24","recycling:glass_bottles":"yes","recycling_type":"container"}},"type":"Feature"},
	{"geometry":{"coordinates":[4.87,45.52201],"type":"Point"},"properties":{"osm_id":"8815257213","tag":{"amenity":"waste_basket"}},"type":"Feature"},
	{"geometry":{"coordinates":[4.873441,45.523785],"type":"Point"},"properties":{"osm_id":"8822094719","tag":{"amenity":"waste_basket","waste":"trash"}},"type":"Feature"},
	{"geometry":{"coordinates":[4.872956,45.522783],"type":"Point"},"properties":{"osm_id":"8822094720","tag":{"amenity":"waste_basket"}},"type":"Feature"},
	{"geometry":{"coordinates":[4.873951,45.52264],"type":"Point"},"properties":{"osm_id":"8822094721","tag":{"amenity":"waste_basket"}},"type":"Feature"},
	{"geometry":{"coordinates":[4.873202,45.522923],"type":"Point"},"properties":{"osm_id":"8822094723","tag":{"amenity":"waste_basket"}},"type":"Feature"},
	{"geometry":{"coordinates":[4.872892,45.522769],"type":"Point"},"properties":{"osm_id":"8822094724","tag":{"amenity":"waste_basket"}},"type":"Feature"},
	{"geometry":{"coordinates":[4.873043,45.522657],"type":"Point"},"properties":{"osm_id":"8822094725","tag":{"amenity":"waste_basket"}},"type":"Feature"},
	{"geometry":{"coordinates":[4.872929,45.523],"type":"Point"},"properties":{"osm_id":"8822094726","tag":{"amenity":"waste_basket"}},"type":"Feature"},
	{"geometry":{"coordinates":[4.872959,45.522876],"type":"Point"},"properties":{"osm_id":"8822094727","tag":{"amenity":"waste_basket"}},"type":"Feature"},
	{"geometry":{"coordinates":[4.873286,45.52279],"type":"Point"},"properties":{"osm_id":"8822094729","tag":{"amenity":"waste_basket"}},"type":"Feature"},
	{"geometry":{"coordinates":[4.871629,45.521794],"type":"Point"},"properties":{"osm_id":"8825995805","tag":{"amenity":"waste_basket"}},"type":"Feature"},
	{"geometry":{"coordinates":[4.872781,45.521756],"type":"Point"},"properties":{"osm_id":"8831459563","tag":{"amenity":"waste_basket"}},"type":"Feature"},
	{"geometry":{"coordinates":[4.874213,45.525207],"type":"Point"},"properties":{"osm_id":"8831715722","tag":{"amenity":"waste_basket"}},"type":"Feature"},
	{"geometry":{"coordinates":[4.874361,45.525152],"type":"Point"},"properties":{"osm_id":"8831715723","tag":{"amenity":"waste_basket"}},"type":"Feature"},
	{"geometry":{"coordinates":[4.874612,45.527242],"type":"Point"},"properties":{"osm_id":"8833535305","tag":{"amenity":"waste_basket"}},"type":"Feature"},
	{"geometry":{"coordinates":[4.875727,45.526281],"type":"Point"},"properties":{"osm_id":"8833535308","tag":{"amenity":"waste_basket"}},"type":"Feature"},
	{"geometry":{"coordinates":[4.874352,45.526936],"type":"Point"},"properties":{"osm_id":"8833535309","tag":{"amenity":"waste_basket"}},"type":"Feature"},
	{"geometry":{"coordinates":[4.875416,45.526897],"type":"Point"},"properties":{"osm_id":"8833535310","tag":{"amenity":"waste_basket"}},"type":"Feature"},
	{"geometry":{"coordinates":[4.871541,45.524581],"type":"Point"},"properties":{"osm_id":"8842894530","tag":{"amenity":"waste_basket"}},"type":"Feature"},
	{"geometry":{"coordinates":[4.871064,45.524669],"type":"Point"},"properties":{"osm_id":"8842894531","tag":{"amenity":"waste_basket"}},"type":"Feature"},
	{"geometry":{"coordinates":[4.87375,45.524612],"type":"Point"},"properties":{"osm_id":"8845759180","tag":{"amenity":"waste_basket","waste":"trash"}},"type":"Feature"},
	{"geometry":{"coordinates":[4.875342,45.52459],"type":"Point"},"properties":{"osm_id":"8847707558","tag":{"amenity":"waste_basket","waste":"trash"}},"type":"Feature"},
	{"geometry":{"coordinates":[4.875266,45.524995],"type":"Point"},"properties":{"osm_id":"8847707559","tag":{"amenity":"waste_basket","waste":"trash"}},"type":"Feature"},
	{"geometry":{"coordinates":[4.875373,45.524422],"type":"Point"},"properties":{"osm_id":"8847707560","tag":{"amenity":"waste_basket","waste":"trash"}},"type":"Feature"},
	{"geometry":{"coordinates":[4.875326,45.524679],"type":"Point"},"properties":{"osm_id":"8847707562","tag":{"amenity":"waste_basket","waste":"trash"}},"type":"Feature"},
	{"geometry":{"coordinates":[4.872341,45.524174],"type":"Point"},"properties":{"osm_id":"8861904801","tag":{"amenity":"waste_basket"}},"type":"Feature"},
	{"geometry":{"coordinates":[4.870148,45.522307],"type":"Point"},"properties":{"osm_id":"8863126884","tag":{"amenity":"waste_basket"}},"type":"Feature"},
	{"geometry":{"coordinates":[4.873001,45.525756],"type":"Point"},"properties":{"osm_id":"8864009015","tag":{"amenity":"waste_basket"}},"type":"Feature"},
	{"geometry":{"coordinates":[4.872148,45.525638],"type":"Point"},"properties":{"osm_id":"8864304830","tag":{"amenity":"recycling","recycling:clothes":"yes","recycling:shoes":"yes","recycling_type":"container"}},"type":"Feature"},
	{"geometry":{"coordinates":[4.873449,45.527033],"type":"Point"},"properties":{"osm_id":"8865381876","tag":{"amenity":"waste_basket"}},"type":"Feature"},
	{"geometry":{"coordinates":[4.875446,45.52673],"type":"Point"},"properties":{"osm_id":"8868095565","tag":{"amenity":"waste_basket","waste":"trash"}},"type":"Feature"},
	{"geometry":{"coordinates":[4.875138,45.525966],"type":"Point"},"properties":{"osm_id":"8868722588","tag":{"amenity":"waste_basket","waste":"trash"}},"type":"Feature"},
	{"geometry":{"coordinates":[4.875458,45.525973],"type":"Point"},"properties":{"osm_id":"8868722589","tag":{"amenity":"waste_basket","waste":"trash"}},"type":"Feature"},
	{"geometry":{"coordinates":[4.871022,45.523049],"type":"Point"},"properties":{"osm_id":"8869303750","tag":{"amenity":"waste_basket","waste":"trash"}},"type":"Feature"},
	{"geometry":{"coordinates":[4.875711,45.525826],"type":"Point"},"properties":{"osm_id":"8869303751","tag":{"amenity":"waste_basket","waste":"trash"}},"type":"Feature"},
	{"geometry":{"coordinates":[4.876713,45.525824],"type":"Point"},"properties":{"osm_id":"8875083427","tag":{"amenity":"recycling","opening_hours":"24/7","recycling:PET":"yes","recycling:beverage_cartons":"yes","recycling:cans":"yes","recycling:cardboard":"yes","recycling:glass_bottles":"yes","recycling:magazines":"yes","recycling:newspaper":"yes","recycling:paper":"yes","recycling:paper_packaging":"yes","recycling:plastic":"yes","recycling:plastic_bottles":"yes","recycling:plastic_packaging":"yes","recycling:scrap_metal":"no","recycling:waste":"yes","recycling_type":"container","wheelchair":"yes"}},"type":"Feature"},
	{"geometry":{"coordinates":[4.875669,45.524969],"type":"Point"},"properties":{"osm_id":"8878098479","tag":{"amenity":"waste_basket","waste":"trash"}},"type":"Feature"},
	{"geometry":{"coordinates":[4.875117,45.525413],"type":"Point"},"properties":{"osm_id":"8878098485","tag":{"amenity":"waste_basket","waste":"trash"}},"type":"Feature"},
	{"geometry":{"coordinates":[4.875501,45.525382],"type":"Point"},"properties":{"osm_id":"8879370220","tag":{"amenity":"recycling","opening_hours":"24/7","recycling:PET":"yes","recycling:cans":"yes","recycling:cardboard":"yes","recycling:glass_bottles":"yes","recycling:paper":"yes","recycling:plastic":"yes","recycling:plastic_bottles":"yes","recycling:plastic_packaging":"yes","recycling:waste":"yes","recycling_type":"container","wheelchair":"yes"}},"type":"Feature"},
	{"geometry":{"coordinates":[4.86906,45.522444],"type":"Point"},"properties":{"osm_id":"8893145388","tag":{"amenity":"waste_basket","waste":"trash"}},"type":"Feature"},
	{"geometry":{"coordinates":[4.868841,45.522224],"type":"Point"},"properties":{"osm_id":"8893145389","tag":{"amenity":"waste_basket","waste":"trash"}},"type":"Feature"},
	{"geometry":{"coordinates":[4.872471,45.522212],"type":"Point"},"properties":{"osm_id":"8901661518","tag":{"amenity":"waste_basket","waste":"trash"}},"type":"Feature"},
	{"geometry":{"coordinates":[4.873137,45.52455],"type":"Point"},"properties":{"osm_id":"8906651708","tag":{"amenity":"waste_basket","waste":"trash"}},"type":"Feature"},
	{"geometry":{"coordinates":[4.873569,45.524464],"type":"Point"},"properties":{"osm_id":"8907295972","tag":{"amenity":"waste_basket","waste":"trash"}},"type":"Feature"},
	{"geometry":{"coordinates":[4.873379,45.52447],"type":"Point"},"properties":{"osm_id":"8907295982","tag":{"amenity":"waste_basket","waste":"trash"}},"type":"Feature"},
	{"geometry":{"coordinates":[4.876539,45.524363],"type":"Point"},"properties":{"osm_id":"8908014184","tag":{"amenity":"waste_basket","waste":"trash"}},"type":"Feature"},
	{"geometry":{"coordinates":[4.876687,45.524579],"type":"Point"},"properties":{"osm_id":"8908014188","tag":{"amenity":"waste_basket","waste":"trash"}},"type":"Feature"},
	{"geometry":{"coordinates":[4.876825,45.524721],"type":"Point"},"properties":{"osm_id":"8908014189","tag":{"amenity":"waste_basket","waste":"trash"}},"type":"Feature"},
	{"geometry":{"coordinates":[4.875161,45.524542],"type":"Point"},"properties":{"osm_id":"8928033197","tag":{"amenity":"waste_basket","waste":"trash"}},"type":"Feature"},
	{"geometry":{"coordinates":[4.875998,45.525466],"type":"Point"},"properties":{"osm_id":"8936697022","tag":{"amenity":"waste_basket","waste":"trash"}},"type":"Feature"},
	{"geometry":{"coordinates":[4.875976,45.525593],"type":"Point"},"properties":{"osm_id":"8936697024","tag":{"amenity":"waste_basket","waste":"trash"}},"type":"Feature"},
	{"geometry":{"coordinates":[4.874262,45.523326],"type":"Point"},"properties":{"osm_id":"8936787350","tag":{"amenity":"waste_basket","waste":"trash"}},"type":"Feature"},
	{"geometry":{"coordinates":[4.874163,45.522552],"type":"Point"},"properties":{"osm_id":"8936787362","tag":{"amenity":"waste_basket","waste":"trash"}},"type":"Feature"},
	{"geometry":{"coordinates":[4.87436,45.52377],"type":"Point"},"properties":{"osm_id":"8936787363","tag":{"amenity":"waste_basket","waste":"trash"}},"type":"Feature"},
	{"geometry":{"coordinates":[4.874055,45.52231],"type":"Point"},"properties":{"osm_id":"8936787364","tag":{"amenity":"waste_basket","waste":"trash"}},"type":"Feature"},
	{"geometry":{"coordinates":[4.876871,45.524919],"type":"Point"},"properties":{"osm_id":"8939373087","tag":{"amenity":"waste_basket","waste":"trash"}},"type":"Feature"},
	{"geometry":{"coordinates":[4.875818,45.525171],"type":"Point"},"properties":{"osm_id":"8944328275","tag":{"amenity":"waste_basket","waste":"trash"}},"type":"Feature"},
	{"geometry":{"coordinates":[4.875759,45.525234],"type":"Point"},"properties":{"osm_id":"8944328286","tag":{"amenity":"waste_basket","waste":"trash"}},"type":"Feature"},
	{"geometry":{"coordinates":[4.875491,45.525458],"type":"Point"},"properties":{"osm_id":"8944328287","tag":{"amenity":"waste_basket","waste":"trash"}},"type":"Feature"},
	{"geometry":{"coordinates":[4.87592,45.524568],"type":"Point"},"properties":{"osm_id":"8962595907","tag":{"amenity":"waste_basket","waste":"trash"}},"type":"Feature"},
	{"geometry":{"coordinates":[4.875829,45.524694],"type":"Point"},"properties":{"osm_id":"8962595908","tag":{"amenity":"waste_basket","waste":"trash"}},"type":"Feature"},
	{"geometry":{"coordinates":[4.876191,45.524734],"type":"Point"},"properties":{"osm_id":"8962595916","tag":{"amenity":"waste_basket","waste":"trash"}},"type":"Feature"},
	{"geometry":{"coordinates":[4.875948,45.524807],"type":"Point"},"properties":{"osm_id":"8962606317","tag":{"amenity":"waste_basket","waste":"trash"}},"type":"Feature"},
	{"geometry":{"coordinates":[4.876221,45.525019],"type":"Point"},"properties":{"osm_id":"8962606320","tag":{"amenity":"waste_basket","waste":"trash"}},"type":"Feature"},
	{"geometry":{"coordinates":[4.876411,45.525055],"type":"Point"},"properties":{"osm_id":"8962606324","tag":{"amenity":"waste_basket","waste":"cigarettes"}},"type":"Feature"},
	{"geometry":{"coordinates":[4.876449,45.524926],"type":"Point"},"properties":{"osm_id":"8962606325","tag":{"amenity":"waste_basket","waste":"trash"}},"type":"Feature"},
	{"geometry":{"coordinates":[4.879728,45.524729],"type":"Point"},"properties":{"osm_id":"8989502680","tag":{"amenity":"waste_basket","waste":"trash"}},"type":"Feature"},
	{"geometry":{"coordinates":[4.880019,45.524786],"type":"Point"},"properties":{"osm_id":"8989502681","tag":{"amenity":"waste_basket","waste":"trash"}},"type":"Feature"},
	{"geometry":{"coordinates":[4.879856,45.525],"type":"Point"},"properties":{"osm_id":"8989502683","tag":{"amenity":"waste_basket","waste":"trash"}},"type":"Feature"},
	{"geometry":{"coordinates":[4.880049,45.524664],"type":"Point"},"properties":{"osm_id":"8990843183","tag":{"amenity":"waste_basket","waste":"trash"}},"type":"Feature"},
	{"geometry":{"coordinates":[4.876137,45.524549],"type":"Point"},"properties":{"osm_id":"8992393623","tag":{"amenity":"waste_basket","waste":"trash"}},"type":"Feature"},
	{"geometry":{"coordinates":[4.875797,45.524513],"type":"Point"},"properties":{"osm_id":"8992393626","tag":{"amenity":"waste_basket","waste":"trash"}},"type":"Feature"}
]
}
