{
"type": "FeatureCollection",
"features": [
	{"geometry":{"coordinates":[4.883555,44.958584],"type":"Point"},"properties":{"osm_id":"695805061","tag":{"amenity":"recycling","operator":"\u00c3\u0089cotextile","phone":"+33 8 10 11 88 35","recycling:clothes":"yes","recycling_type":"container"}},"type":"Feature"},
	{"geometry":{"coordinates":[4.901345,44.961057],"type":"Point"},"properties":{"osm_id":"702313546","tag":{"amenity":"recycling","recycling:clothes":"yes","recycling:glass_bottles":"yes","recycling_type":"container"}},"type":"Feature"},
	{"geometry":{"coordinates":[4.839345,44.944143],"type":"Point"},"properties":{"osm_id":"1239943440","tag":{"amenity":"recycling","covered":"no","indoor":"no","level":"0","recycling:glass_bottles":"yes","recycling_type":"container"}},"type":"Feature"},
	{"geometry":{"coordinates":[4.847855,44.945573],"type":"Point"},"properties":{"osm_id":"1865254719","tag":{"amenity":"recycling","recycling_type":"container"}},"type":"Feature"},
	{"geometry":{"coordinates":[4.845903,44.944808],"type":"Point"},"properties":{"osm_id":"1868751513","tag":{"amenity":"waste_basket"}},"type":"Feature"},
	{"geometry":{"coordinates":[4.886179,44.920012],"type":"Point"},"properties":{"osm_id":"3442441567","tag":{"amenity":"recycling","recycling:cans":"no","recycling:clothes":"no","recycling:glass_bottles":"yes","recycling:paper":"no","recycling_type":"container"}},"type":"Feature"},
	{"geometry":{"coordinates":[4.917197,44.954407],"type":"Point"},"properties":{"osm_id":"3964559220","tag":{"amenity":"waste_basket"}},"type":"Feature"},
	{"geometry":{"coordinates":[4.889772,44.933834],"type":"Point"},"properties":{"osm_id":"4792388929","tag":{"amenity":"recycling","recycling:organic":"yes","recycling_type":"container"}},"type":"Feature"},
	{"geometry":{"coordinates":[4.847387,44.960142],"type":"Point"},"properties":{"osm_id":"4855228420","tag":{"amenity":"waste_disposal"}},"type":"Feature"},
	{"geometry":{"coordinates":[4.91309,44.911893],"type":"Point"},"properties":{"osm_id":"5885224398","tag":{"amenity":"recycling","recycling:bulbs":"yes","recycling_type":"container"}},"type":"Feature"},
	{"geometry":{"coordinates":[4.913412,44.916732],"type":"Point"},"properties":{"osm_id":"5906247649","tag":{"amenity":"waste_basket"}},"type":"Feature"},
	{"geometry":{"coordinates":[4.913164,44.917082],"type":"Point"},"properties":{"osm_id":"5906247656","tag":{"amenity":"waste_basket"}},"type":"Feature"},
	{"geometry":{"coordinates":[4.895058,44.928467],"type":"Point"},"properties":{"osm_id":"5910923289","tag":{"amenity":"waste_basket"}},"type":"Feature"},
	{"geometry":{"coordinates":[4.913061,44.917158],"type":"Point"},"properties":{"osm_id":"5915837320","tag":{"amenity":"waste_basket"}},"type":"Feature"},
	{"geometry":{"coordinates":[4.88468,44.929939],"type":"Point"},"properties":{"osm_id":"5933984469","tag":{"amenity":"waste_basket"}},"type":"Feature"},
	{"geometry":{"coordinates":[4.886,44.929441],"type":"Point"},"properties":{"osm_id":"5933984471","tag":{"amenity":"waste_basket"}},"type":"Feature"},
	{"geometry":{"coordinates":[4.886258,44.929742],"type":"Point"},"properties":{"osm_id":"5933984473","tag":{"amenity":"waste_basket"}},"type":"Feature"},
	{"geometry":{"coordinates":[4.886465,44.929871],"type":"Point"},"properties":{"osm_id":"5933984480","tag":{"amenity":"waste_basket"}},"type":"Feature"},
	{"geometry":{"coordinates":[4.884699,44.930136],"type":"Point"},"properties":{"osm_id":"5933984481","tag":{"amenity":"waste_basket"}},"type":"Feature"},
	{"geometry":{"coordinates":[4.886586,44.930256],"type":"Point"},"properties":{"osm_id":"5933984482","tag":{"amenity":"waste_basket"}},"type":"Feature"},
	{"geometry":{"coordinates":[4.884679,44.929801],"type":"Point"},"properties":{"osm_id":"5933989087","tag":{"amenity":"waste_basket"}},"type":"Feature"},
	{"geometry":{"coordinates":[4.886663,44.930339],"type":"Point"},"properties":{"osm_id":"5933989090","tag":{"amenity":"waste_basket"}},"type":"Feature"},
	{"geometry":{"coordinates":[4.88502,44.930086],"type":"Point"},"properties":{"osm_id":"5933989091","tag":{"amenity":"waste_basket"}},"type":"Feature"},
	{"geometry":{"coordinates":[4.891469,44.934674],"type":"Point"},"properties":{"osm_id":"5938667614","tag":{"amenity":"waste_basket"}},"type":"Feature"},
	{"geometry":{"coordinates":[4.915478,44.917216],"type":"Point"},"properties":{"osm_id":"5940156209","tag":{"amenity":"waste_basket"}},"type":"Feature"},
	{"geometry":{"coordinates":[4.915418,44.917145],"type":"Point"},"properties":{"osm_id":"5940156210","tag":{"amenity":"waste_basket"}},"type":"Feature"},
	{"geometry":{"coordinates":[4.893306,44.927927],"type":"Point"},"properties":{"osm_id":"5974159968","tag":{"amenity":"waste_basket"}},"type":"Feature"},
	{"geometry":{"coordinates":[4.893163,44.92796],"type":"Point"},"properties":{"osm_id":"5974159971","tag":{"amenity":"waste_basket"}},"type":"Feature"},
	{"geometry":{"coordinates":[4.890269,44.930579],"type":"Point"},"properties":{"osm_id":"5974159972","tag":{"amenity":"waste_basket"}},"type":"Feature"},
	{"geometry":{"coordinates":[4.891708,44.933483],"type":"Point"},"properties":{"osm_id":"6046381006","tag":{"amenity":"recycling","recycling_type":"container"}},"type":"Feature"},
	{"geometry":{"coordinates":[4.891693,44.933464],"type":"Point"},"properties":{"osm_id":"6046381007","tag":{"amenity":"recycling","recycling:glass_bottles":"yes","recycling_type":"container"}},"type":"Feature"},
	{"geometry":{"coordinates":[4.887611,44.930232],"type":"Point"},"properties":{"osm_id":"6281263577","tag":{"amenity":"waste_basket"}},"type":"Feature"},
	{"geometry":{"coordinates":[4.887822,44.930288],"type":"Point"},"properties":{"osm_id":"6281263581","tag":{"amenity":"waste_basket"}},"type":"Feature"},
	{"geometry":{"coordinates":[4.887667,44.929487],"type":"Point"},"properties":{"osm_id":"6281263582","tag":{"amenity":"waste_basket"}},"type":"Feature"},
	{"geometry":{"coordinates":[4.887045,44.93011],"type":"Point"},"properties":{"osm_id":"6281263583","tag":{"amenity":"waste_basket"}},"type":"Feature"},
	{"geometry":{"coordinates":[4.887749,44.930078],"type":"Point"},"properties":{"osm_id":"6281263584","tag":{"amenity":"waste_basket"}},"type":"Feature"},
	{"geometry":{"coordinates":[4.887218,44.92994],"type":"Point"},"properties":{"osm_id":"6281266086","tag":{"amenity":"waste_basket"}},"type":"Feature"},
	{"geometry":{"coordinates":[4.887183,44.930397],"type":"Point"},"properties":{"osm_id":"6281266091","tag":{"amenity":"waste_basket"}},"type":"Feature"},
	{"geometry":{"coordinates":[4.887621,44.92941],"type":"Point"},"properties":{"osm_id":"6281266101","tag":{"amenity":"waste_basket"}},"type":"Feature"},
	{"geometry":{"coordinates":[4.890274,44.931441],"type":"Point"},"properties":{"osm_id":"6284524576","tag":{"amenity":"waste_basket"}},"type":"Feature"},
	{"geometry":{"coordinates":[4.889405,44.931242],"type":"Point"},"properties":{"osm_id":"6284527564","tag":{"amenity":"waste_basket"}},"type":"Feature"},
	{"geometry":{"coordinates":[4.889752,44.931217],"type":"Point"},"properties":{"osm_id":"6284527567","tag":{"amenity":"waste_basket"}},"type":"Feature"},
	{"geometry":{"coordinates":[4.88952,44.931419],"type":"Point"},"properties":{"osm_id":"6284527569","tag":{"amenity":"waste_basket"}},"type":"Feature"},
	{"geometry":{"coordinates":[4.8837,44.93008],"type":"Point"},"properties":{"osm_id":"6284551112","tag":{"amenity":"waste_basket"}},"type":"Feature"},
	{"geometry":{"coordinates":[4.883478,44.929767],"type":"Point"},"properties":{"osm_id":"6284551115","tag":{"amenity":"waste_basket"}},"type":"Feature"},
	{"geometry":{"coordinates":[4.888321,44.929514],"type":"Point"},"properties":{"osm_id":"6284566410","tag":{"amenity":"waste_basket"}},"type":"Feature"},
	{"geometry":{"coordinates":[4.894986,44.931224],"type":"Point"},"properties":{"osm_id":"6312279969","tag":{"amenity":"waste_basket"}},"type":"Feature"},
	{"geometry":{"coordinates":[4.895182,44.93128],"type":"Point"},"properties":{"osm_id":"6312279972","tag":{"amenity":"waste_basket"}},"type":"Feature"},
	{"geometry":{"coordinates":[4.893815,44.930469],"type":"Point"},"properties":{"osm_id":"6315709006","tag":{"amenity":"recycling","recycling:glass_bottles":"yes","recycling_type":"container"}},"type":"Feature"},
	{"geometry":{"coordinates":[4.897451,44.932241],"type":"Point"},"properties":{"osm_id":"6327214788","tag":{"amenity":"waste_basket"}},"type":"Feature"},
	{"geometry":{"coordinates":[4.897779,44.9323],"type":"Point"},"properties":{"osm_id":"6327214789","tag":{"amenity":"waste_basket"}},"type":"Feature"},
	{"geometry":{"coordinates":[4.890164,44.929375],"type":"Point"},"properties":{"osm_id":"6329131737","tag":{"amenity":"waste_basket"}},"type":"Feature"},
	{"geometry":{"coordinates":[4.890037,44.929277],"type":"Point"},"properties":{"osm_id":"6329131740","tag":{"amenity":"waste_basket"}},"type":"Feature"},
	{"geometry":{"coordinates":[4.88992,44.92918],"type":"Point"},"properties":{"osm_id":"6329131744","tag":{"amenity":"waste_basket"}},"type":"Feature"},
	{"geometry":{"coordinates":[4.890162,44.930286],"type":"Point"},"properties":{"osm_id":"6329131747","tag":{"amenity":"waste_basket"}},"type":"Feature"},
	{"geometry":{"coordinates":[4.889895,44.928998],"type":"Point"},"properties":{"osm_id":"6329131748","tag":{"amenity":"waste_basket"}},"type":"Feature"},
	{"geometry":{"coordinates":[4.890086,44.929393],"type":"Point"},"properties":{"osm_id":"6329131749","tag":{"amenity":"waste_basket"}},"type":"Feature"},
	{"geometry":{"coordinates":[4.889334,44.928943],"type":"Point"},"properties":{"osm_id":"6329142056","tag":{"amenity":"waste_basket"}},"type":"Feature"},
	{"geometry":{"coordinates":[4.889541,44.929126],"type":"Point"},"properties":{"osm_id":"6329142057","tag":{"amenity":"waste_basket"}},"type":"Feature"},
	{"geometry":{"coordinates":[4.888787,44.928528],"type":"Point"},"properties":{"osm_id":"6329148992","tag":{"amenity":"waste_basket"}},"type":"Feature"},
	{"geometry":{"coordinates":[4.888885,44.928719],"type":"Point"},"properties":{"osm_id":"6329148997","tag":{"amenity":"waste_basket"}},"type":"Feature"},
	{"geometry":{"coordinates":[4.888987,44.928897],"type":"Point"},"properties":{"osm_id":"6329148998","tag":{"amenity":"waste_basket"}},"type":"Feature"},
	{"geometry":{"coordinates":[4.894816,44.930345],"type":"Point"},"properties":{"osm_id":"6329167930","tag":{"amenity":"waste_basket"}},"type":"Feature"},
	{"geometry":{"coordinates":[4.89686,44.92899],"type":"Point"},"properties":{"osm_id":"6329194958","tag":{"amenity":"waste_basket"}},"type":"Feature"},
	{"geometry":{"coordinates":[4.897646,44.928475],"type":"Point"},"properties":{"osm_id":"6329201748","tag":{"amenity":"waste_basket"}},"type":"Feature"},
	{"geometry":{"coordinates":[4.902609,44.933308],"type":"Point"},"properties":{"osm_id":"6337688489","tag":{"amenity":"waste_basket"}},"type":"Feature"},
	{"geometry":{"coordinates":[4.902254,44.93317],"type":"Point"},"properties":{"osm_id":"6337688492","tag":{"amenity":"waste_basket"}},"type":"Feature"},
	{"geometry":{"coordinates":[4.901452,44.933314],"type":"Point"},"properties":{"osm_id":"6337695075","tag":{"amenity":"waste_basket"}},"type":"Feature"},
	{"geometry":{"coordinates":[4.901482,44.933338],"type":"Point"},"properties":{"osm_id":"6337695079","tag":{"amenity":"waste_basket"}},"type":"Feature"},
	{"geometry":{"coordinates":[4.901806,44.925918],"type":"Point"},"properties":{"osm_id":"6356403051","tag":{"amenity":"waste_basket"}},"type":"Feature"},
	{"geometry":{"coordinates":[4.901934,44.925998],"type":"Point"},"properties":{"osm_id":"6356403056","tag":{"amenity":"waste_basket"}},"type":"Feature"},
	{"geometry":{"coordinates":[4.900182,44.929841],"type":"Point"},"properties":{"osm_id":"6360265041","tag":{"amenity":"recycling","recycling:glass":"yes","recycling_type":"container"}},"type":"Feature"},
	{"geometry":{"coordinates":[4.89162,44.927576],"type":"Point"},"properties":{"osm_id":"6404638225","tag":{"amenity":"waste_basket"}},"type":"Feature"},
	{"geometry":{"coordinates":[4.890065,44.928118],"type":"Point"},"properties":{"osm_id":"6404638226","tag":{"amenity":"waste_basket"}},"type":"Feature"},
	{"geometry":{"coordinates":[4.890986,44.927753],"type":"Point"},"properties":{"osm_id":"6404638228","tag":{"amenity":"waste_basket"}},"type":"Feature"},
	{"geometry":{"coordinates":[4.891674,44.927517],"type":"Point"},"properties":{"osm_id":"6404638232","tag":{"amenity":"recycling","recycling:glass":"yes","recycling_type":"container"}},"type":"Feature"},
	{"geometry":{"coordinates":[4.91536,44.914336],"type":"Point"},"properties":{"osm_id":"6459156964","tag":{"amenity":"recycling","recycling:glass":"yes","recycling_type":"container"}},"type":"Feature"},
	{"geometry":{"coordinates":[4.89245,44.931488],"type":"Point"},"properties":{"osm_id":"6476459405","tag":{"amenity":"recycling","location":"underground","recycling:glass_bottles":"yes","recycling_type":"container"}},"type":"Feature"},
	{"geometry":{"coordinates":[4.89242,44.931495],"type":"Point"},"properties":{"osm_id":"6476459406","tag":{"amenity":"recycling","location":"underground","recycling:glass_bottles":"yes","recycling_type":"container"}},"type":"Feature"},
	{"geometry":{"coordinates":[4.892394,44.9315],"type":"Point"},"properties":{"osm_id":"6476459407","tag":{"amenity":"recycling","location":"underground","recycling:packaging":"yes","recycling_type":"container"}},"type":"Feature"},
	{"geometry":{"coordinates":[4.892363,44.931507],"type":"Point"},"properties":{"osm_id":"6476459408","tag":{"amenity":"recycling","location":"underground","recycling:newspaper":"yes","recycling_type":"container"}},"type":"Feature"},
	{"geometry":{"coordinates":[4.879992,44.931351],"type":"Point"},"properties":{"osm_id":"6510564891","tag":{"amenity":"recycling","recycling_type":"container"}},"type":"Feature"},
	{"geometry":{"coordinates":[4.913674,44.927793],"type":"Point"},"properties":{"osm_id":"6530448298","tag":{"amenity":"recycling","recycling:glass":"yes","recycling_type":"container"}},"type":"Feature"},
	{"geometry":{"coordinates":[4.892917,44.933542],"type":"Point"},"properties":{"osm_id":"6549036885","tag":{"amenity":"waste_basket"}},"type":"Feature"},
	{"geometry":{"coordinates":[4.892346,44.931515],"type":"Point"},"properties":{"osm_id":"6549037185","tag":{"amenity":"waste_basket"}},"type":"Feature"},
	{"geometry":{"coordinates":[4.840409,44.945614],"type":"Point"},"properties":{"osm_id":"6598825464","tag":{"amenity":"recycling","covered":"no","indoor":"no","level":"0","recycling:beverage_carton":"yes","recycling:cans":"yes","recycling:glass_bottles":"yes","recycling:paper":"yes","recycling:plastic_bottles":"yes","recycling_type":"container"}},"type":"Feature"},
	{"geometry":{"coordinates":[4.844196,44.945227],"type":"Point"},"properties":{"osm_id":"6618771381","tag":{"amenity":"recycling","colour":"#00FF00","covered":"no","indoor":"no","level":"0","material":"plastic","recycling:glass_bottles":"yes","recycling_type":"container"}},"type":"Feature"},
	{"geometry":{"coordinates":[4.841427,44.94589],"type":"Point"},"properties":{"osm_id":"6795291950","tag":{"amenity":"recycling","covered":"no","indoor":"no","level":"0","lit":"no","manufacturer":"Yapluka Crussol en Transition","material":"wood","operator":"Yapluka Crussol en Transition","recycling:green_waste":"yes","recycling_type":"container"}},"type":"Feature"},
	{"geometry":{"coordinates":[4.84139,44.944915],"type":"Point"},"properties":{"osm_id":"6795477797","tag":{"amenity":"waste_basket","covered":"no","indoor":"no","level":"0","material":"plastic"}},"type":"Feature"},
	{"geometry":{"coordinates":[4.841227,44.945304],"type":"Point"},"properties":{"osm_id":"6795477799","tag":{"amenity":"waste_basket","covered":"no","indoor":"no","level":"0","material":"plastic"}},"type":"Feature"},
	{"geometry":{"coordinates":[4.841586,44.945719],"type":"Point"},"properties":{"osm_id":"6804080001","tag":{"amenity":"waste_basket","covered":"no","indoor":"no","level":"0","material":"plastic"}},"type":"Feature"},
	{"geometry":{"coordinates":[4.837051,44.9332],"type":"Point"},"properties":{"osm_id":"6807859708","tag":{"amenity":"waste_basket","covered":"no","indoor":"no","level":"0","material":"plastic"}},"type":"Feature"},
	{"geometry":{"coordinates":[4.840815,44.939861],"type":"Point"},"properties":{"osm_id":"6807859709","tag":{"amenity":"waste_basket","covered":"no","indoor":"no","level":"0","material":"wood"}},"type":"Feature"},
	{"geometry":{"coordinates":[4.840071,44.939195],"type":"Point"},"properties":{"osm_id":"6807859710","tag":{"amenity":"waste_basket","covered":"no","indoor":"no","level":"0","material":"wood"}},"type":"Feature"},
	{"geometry":{"coordinates":[4.838541,44.93634],"type":"Point"},"properties":{"osm_id":"6807859713","tag":{"amenity":"waste_basket","covered":"no","indoor":"no","level":"0","material":"wood"}},"type":"Feature"},
	{"geometry":{"coordinates":[4.838725,44.936726],"type":"Point"},"properties":{"osm_id":"6807859729","tag":{"amenity":"recycling","covered":"no","indoor":"no","level":"0","material":"plastic","recycling:glass_bottles":"yes","recycling_type":"container"}},"type":"Feature"},
	{"geometry":{"coordinates":[4.836619,44.933035],"type":"Point"},"properties":{"osm_id":"6811524004","tag":{"amenity":"waste_basket","covered":"no","indoor":"no","level":"0","material":"wood"}},"type":"Feature"},
	{"geometry":{"coordinates":[4.837515,44.933927],"type":"Point"},"properties":{"osm_id":"6811524005","tag":{"amenity":"waste_basket","covered":"no","indoor":"no","level":"0","material":"wood"}},"type":"Feature"},
	{"geometry":{"coordinates":[4.839868,44.945058],"type":"Point"},"properties":{"osm_id":"6813645160","tag":{"amenity":"waste_basket","covered":"no","indoor":"no","level":"0","material":"wood"}},"type":"Feature"},
	{"geometry":{"coordinates":[4.844591,44.94396],"type":"Point"},"properties":{"osm_id":"6817619364","tag":{"amenity":"recycling","covered":"no","indoor":"no","level":"0","recycling:glass_bottles":"yes","recycling_type":"container"}},"type":"Feature"},
	{"geometry":{"coordinates":[4.844565,44.943974],"type":"Point"},"properties":{"osm_id":"6817619365","tag":{"amenity":"recycling","covered":"no","indoor":"no","level":"0","recycling:clothes":"yes","recycling:shoes":"yes","recycling_type":"container"}},"type":"Feature"},
	{"geometry":{"coordinates":[4.839881,44.939792],"type":"Point"},"properties":{"osm_id":"6821261759","tag":{"amenity":"waste_basket","covered":"no","indoor":"no","level":"0","material":"wood"}},"type":"Feature"},
	{"geometry":{"coordinates":[4.837245,44.934486],"type":"Point"},"properties":{"osm_id":"6821261765","tag":{"amenity":"waste_basket","covered":"no","indoor":"no","level":"0","material":"wood"}},"type":"Feature"},
	{"geometry":{"coordinates":[4.841756,44.941729],"type":"Point"},"properties":{"osm_id":"6821261772","tag":{"amenity":"waste_basket","covered":"no","indoor":"no","level":"0","material":"plastic"}},"type":"Feature"},
	{"geometry":{"coordinates":[4.841605,44.941403],"type":"Point"},"properties":{"osm_id":"6821261773","tag":{"amenity":"waste_basket","covered":"no","indoor":"no","level":"0","material":"plastic"}},"type":"Feature"},
	{"geometry":{"coordinates":[4.844064,44.943658],"type":"Point"},"properties":{"osm_id":"6821261776","tag":{"amenity":"waste_basket","covered":"no","indoor":"no","level":"0","material":"plastic"}},"type":"Feature"},
	{"geometry":{"coordinates":[4.841878,44.942334],"type":"Point"},"properties":{"osm_id":"6821274944","tag":{"amenity":"waste_basket","covered":"no","indoor":"no","level":"0","material":"plastic"}},"type":"Feature"},
	{"geometry":{"coordinates":[4.841579,44.942474],"type":"Point"},"properties":{"osm_id":"6821274945","tag":{"amenity":"waste_basket","covered":"no","indoor":"no","level":"0","material":"plastic"}},"type":"Feature"},
	{"geometry":{"coordinates":[4.842312,44.944063],"type":"Point"},"properties":{"osm_id":"6844286524","tag":{"amenity":"waste_basket","covered":"no","indoor":"no","level":"0","material":"plastic"}},"type":"Feature"},
	{"geometry":{"coordinates":[4.889587,44.929303],"type":"Point"},"properties":{"osm_id":"6852539981","tag":{"amenity":"recycling","recycling_type":"container"}},"type":"Feature"},
	{"geometry":{"coordinates":[4.841927,44.944154],"type":"Point"},"properties":{"osm_id":"6861679834","tag":{"amenity":"waste_basket","covered":"no","indoor":"no","level":"0","material":"metal"}},"type":"Feature"},
	{"geometry":{"coordinates":[4.840771,44.944299],"type":"Point"},"properties":{"osm_id":"6861679836","tag":{"amenity":"waste_basket","covered":"no","indoor":"no","level":"0","material":"steel"}},"type":"Feature"},
	{"geometry":{"coordinates":[4.913126,44.911941],"type":"Point"},"properties":{"osm_id":"6886600056","tag":{"amenity":"waste_basket"}},"type":"Feature"},
	{"geometry":{"coordinates":[4.913142,44.911899],"type":"Point"},"properties":{"osm_id":"6886600057","tag":{"amenity":"waste_basket"}},"type":"Feature"},
	{"geometry":{"coordinates":[4.913726,44.914031],"type":"Point"},"properties":{"osm_id":"6886684920","tag":{"amenity":"waste_basket"}},"type":"Feature"},
	{"geometry":{"coordinates":[4.913753,44.913974],"type":"Point"},"properties":{"osm_id":"6886684921","tag":{"amenity":"waste_basket"}},"type":"Feature"},
	{"geometry":{"coordinates":[4.913397,44.914049],"type":"Point"},"properties":{"osm_id":"6886684922","tag":{"amenity":"recycling","recycling:verre":"yes","recycling_type":"container"}},"type":"Feature"},
	{"geometry":{"coordinates":[4.913409,44.914035],"type":"Point"},"properties":{"osm_id":"6886684923","tag":{"amenity":"recycling","recycling:glass":"yes","recycling_type":"container"}},"type":"Feature"},
	{"geometry":{"coordinates":[4.840381,44.945612],"type":"Point"},"properties":{"osm_id":"6918095645","tag":{"amenity":"recycling","covered":"no","indoor":"no","level":"0","recycling:carton":"yes","recycling:paper":"yes","recycling_type":"container"}},"type":"Feature"},
	{"geometry":{"coordinates":[4.840352,44.94561],"type":"Point"},"properties":{"osm_id":"6918095646","tag":{"amenity":"recycling","covered":"no","indoor":"no","level":"0","recycling:plastic_bottles":"yes","recycling:plastic_packaging":"yes","recycling_type":"container"}},"type":"Feature"},
	{"geometry":{"coordinates":[4.839665,44.945136],"type":"Point"},"properties":{"osm_id":"6969348369","tag":{"amenity":"waste_basket","covered":"no","indoor":"no","material":"steel","waste":"trash"}},"type":"Feature"},
	{"geometry":{"coordinates":[4.885314,44.917349],"type":"Point"},"properties":{"osm_id":"7251562139","tag":{"amenity":"recycling"}},"type":"Feature"},
	{"geometry":{"coordinates":[4.882888,44.958532],"type":"Point"},"properties":{"osm_id":"7252577870","tag":{"amenity":"recycling","capacity:clothes":"2","recycling:clothes":"yes","recycling_type":"container"}},"type":"Feature"},
	{"geometry":{"coordinates":[4.882892,44.958579],"type":"Point"},"properties":{"osm_id":"7252577871","tag":{"amenity":"recycling","capacity:glass_bottles":"2","recycling:cans":"yes","recycling:glass_bottles":"yes","recycling:magazines":"yes","recycling:paper":"yes","recycling:plastic_bottles":"yes","recycling:plastic_packaging":"yes","recycling_type":"container"}},"type":"Feature"},
	{"geometry":{"coordinates":[4.882758,44.962634],"type":"Point"},"properties":{"name":"D\u00c3\u00a9chetterie intercommunale","osm_id":"7252659623","tag":{"amenity":"recycling","contact:phone":"+33 4 75830296","opening_hours":"Mo-Fr 08:30-12:00,14:00-18:00; Th off; Sa 08:30-18:00","recycling_type":"centre"}},"type":"Feature"},
	{"geometry":{"coordinates":[4.883155,44.962969],"type":"Point"},"properties":{"osm_id":"7252659624","tag":{"amenity":"recycling","capacity:glass_bottles":"2","recycling:cans":"yes","recycling:glass":"no","recycling:glass_bottles":"yes","recycling:magazines":"yes","recycling:paper":"yes","recycling:plastic_bottles":"no","recycling:plastic_packaging":"yes","recycling_type":"container"}},"type":"Feature"},
	{"geometry":{"coordinates":[4.884039,44.938296],"type":"Point"},"properties":{"osm_id":"7620307142","tag":{"amenity":"waste_basket"}},"type":"Feature"},
	{"geometry":{"coordinates":[4.891466,44.925274],"type":"Point"},"properties":{"osm_id":"7881763714","tag":{"amenity":"recycling","colour":"#000","covered":"no","operator":"Croix Rouge","recycling:clothes":"yes","recycling_type":"container"}},"type":"Feature"}
]
}
