{
"type": "FeatureCollection",
"features": [
	{"geometry":{"coordinates":[4.870772,44.033304],"type":"Point"},"properties":{"osm_id":"2503705814","tag":{"amenity":"recycling","operator":"CCPRO","recycling:clothes":"no","recycling:glass":"yes","recycling_type":"container"}},"type":"Feature"},
	{"geometry":{"coordinates":[4.884111,44.041632],"type":"Point"},"properties":{"osm_id":"2605945722","tag":{"amenity":"recycling","operator":"CCPRO","recycling:clothes":"no","recycling_type":"container"}},"type":"Feature"},
	{"geometry":{"coordinates":[4.895743,44.038981],"type":"Point"},"properties":{"osm_id":"2712609523","tag":{"amenity":"recycling","location":"overground","operator":"CCPRO","recycling:clothes":"no","recycling:glass":"no","recycling:glass_bottles":"yes","recycling_type":"container","wheelchair":"no"}},"type":"Feature"},
	{"geometry":{"coordinates":[4.898568,44.038317],"type":"Point"},"properties":{"osm_id":"2712621822","tag":{"amenity":"waste_basket","material":"wood","operator":"Ville de B\u00c3\u00a9darrides","waste":"trash"}},"type":"Feature"},
	{"geometry":{"coordinates":[4.835087,44.055935],"type":"Point"},"properties":{"osm_id":"2859706386","tag":{"amenity":"recycling","recycling:glass_bottles":"yes","recycling_type":"container"}},"type":"Feature"},
	{"geometry":{"coordinates":[4.835726,44.049065],"type":"Point"},"properties":{"osm_id":"2908862243","tag":{"amenity":"recycling","recycling_type":"container"}},"type":"Feature"},
	{"geometry":{"coordinates":[4.880459,44.081509],"type":"Point"},"properties":{"osm_id":"3117093016","tag":{"amenity":"recycling","container:material":"metal","operator":"CCPRO","recycling:glass_bottles":"yes","recycling:paper":"no","recycling_type":"container"}},"type":"Feature"},
	{"geometry":{"coordinates":[4.898112,44.043744],"type":"Point"},"properties":{"osm_id":"3328208108","tag":{"amenity":"recycling","recycling:glass":"yes","recycling:paper":"yes","recycling_type":"container"}},"type":"Feature"},
	{"geometry":{"coordinates":[4.890457,44.050029],"type":"Point"},"properties":{"osm_id":"3328222704","ref":"BED6","tag":{"amenity":"recycling","recycling:glass":"yes","recycling_type":"container"}},"type":"Feature"},
	{"geometry":{"coordinates":[4.888943,44.084717],"type":"Point"},"properties":{"osm_id":"3328241069","tag":{"amenity":"recycling","recycling:glass_bottles":"yes","recycling:paper":"yes","recycling_type":"container"}},"type":"Feature"},
	{"geometry":{"coordinates":[4.88484,44.084992],"type":"Point"},"properties":{"osm_id":"3384131999","tag":{"amenity":"recycling","mapillary":"yfSbv1PG761EQghCqBhM5A","operator":"CCPRO","recycling:glass_bottles":"yes","recycling_type":"container","wheelchair":"no"}},"type":"Feature"},
	{"geometry":{"coordinates":[4.892987,44.040994],"type":"Point"},"properties":{"osm_id":"3833829735","tag":{"amenity":"waste_basket","operator":"CCPRO","recycling":"yes","waste":"trash","waste_basket:position":"green"}},"type":"Feature"},
	{"geometry":{"coordinates":[4.893213,44.041085],"type":"Point"},"properties":{"osm_id":"3895521273","tag":{"amenity":"waste_basket","operator":"CCPRO","recycling":"yes","waste":"trash"}},"type":"Feature"},
	{"geometry":{"coordinates":[4.9013,44.04172],"type":"Point"},"properties":{"osm_id":"4408088673","tag":{"amenity":"recycling","mapillary":"pH74_NFr_a7srBupq2oc0A","recycling:glass_bottles":"yes","recycling_type":"container"}},"type":"Feature"},
	{"geometry":{"coordinates":[4.900876,44.043533],"type":"Point"},"properties":{"osm_id":"4408096369","tag":{"amenity":"recycling","mapillary":"Kf-TgFw9_8haKU9hdkVBsQ","recycling:glass_bottles":"yes","recycling_type":"container"}},"type":"Feature"},
	{"geometry":{"coordinates":[4.893402,44.041442],"type":"Point"},"properties":{"osm_id":"4443973673","tag":{"amenity":"recycling","operator":"CCPRO","recycling:cans":"no","recycling:clothes":"no","recycling:glass":"yes","recycling:glass_bottles":"yes","recycling:paper":"no","recycling:plastic":"no","recycling_type":"container"}},"type":"Feature"},
	{"geometry":{"coordinates":[4.885427,44.085844],"type":"Point"},"properties":{"osm_id":"4490387258","tag":{"amenity":"waste_basket","colour":"brown","covered":"yes","mapillary":"c_FAejLzxHja_5wvTbVuzA"}},"type":"Feature"},
	{"geometry":{"coordinates":[4.884635,44.086172],"type":"Point"},"properties":{"osm_id":"4490475081","tag":{"amenity":"waste_disposal","mapillary":"QvpXzN0y_ZwUzLN88Kt6HA"}},"type":"Feature"},
	{"geometry":{"coordinates":[4.882992,44.085722],"type":"Point"},"properties":{"osm_id":"4490487692","tag":{"amenity":"waste_basket","colour":"brown","covered":"yes","mapillary":"q_ZQq3YwD3WEsVuSi0HAig"}},"type":"Feature"},
	{"geometry":{"coordinates":[4.882563,44.085599],"type":"Point"},"properties":{"osm_id":"4490502720","tag":{"amenity":"waste_basket","colour":"brown","covered":"yes","mapillary":"SXAMKTngsDrhzStOJ8VSZg"}},"type":"Feature"},
	{"geometry":{"coordinates":[4.835327,44.056142],"type":"Point"},"properties":{"osm_id":"4494685698","tag":{"amenity":"recycling","mapillary":"-zR8STErbMPADHWHDHpFhw","recycling:glass_bottles":"yes","recycling:paper":"yes"}},"type":"Feature"},
	{"geometry":{"coordinates":[4.894112,44.040778],"type":"Point"},"properties":{"osm_id":"4513737616","tag":{"amenity":"waste_disposal","covered":"no","mapillary":"bTH_fJKFp_-PLSt1Koa1gA","material":"metal"}},"type":"Feature"},
	{"geometry":{"coordinates":[4.894978,44.040517],"type":"Point"},"properties":{"osm_id":"4514087843","tag":{"amenity":"waste_disposal","colour":"grey","covered":"no","mapillary":"v_ixYxezpb_1yVNosSCmfQ","material":"metal"}},"type":"Feature"},
	{"geometry":{"coordinates":[4.896205,44.03989],"type":"Point"},"properties":{"osm_id":"4514095829","tag":{"amenity":"waste_disposal","covered":"no","mapillary":"y9AezBUBEy6rciwO4PFDEg","material":"metal"}},"type":"Feature"},
	{"geometry":{"coordinates":[4.89663,44.03937],"type":"Point"},"properties":{"osm_id":"4514095830","tag":{"amenity":"waste_disposal","covered":"no","mapillary":"21cH2rfd7_onWGZzTyhyLA","material":"metal"}},"type":"Feature"},
	{"geometry":{"coordinates":[4.896964,44.039312],"type":"Point"},"properties":{"osm_id":"4514095831","tag":{"amenity":"waste_disposal","covered":"no","mapillary":"luvtw_Eo2S9zLsI5iDb5ug","material":"metal"}},"type":"Feature"},
	{"geometry":{"coordinates":[4.898407,44.039155],"type":"Point"},"properties":{"osm_id":"4514095832","tag":{"amenity":"waste_disposal","covered":"no","mapillary":"VPcuRqzwh6HUvONvCo6CvQ","material":"metal"}},"type":"Feature"},
	{"geometry":{"coordinates":[4.889292,44.037622],"type":"Point"},"properties":{"osm_id":"4585247476","tag":{"amenity":"recycling","material":"plastic","operator":"CCPRO","recycling:cans":"no","recycling:clothes":"no","recycling:glass_bottles":"yes","recycling:paper":"no","recycling:plastic":"no","recycling_type":"container","wheelchair":"no"}},"type":"Feature"},
	{"geometry":{"coordinates":[4.884863,44.085013],"type":"Point"},"properties":{"osm_id":"5321582731","tag":{"amenity":"recycling","mapillary":"yfSbv1PG761EQghCqBhM5A","operator":"CCPRO","recycling:paper":"yes","recycling_type":"container","wheelchair":"no"}},"type":"Feature"},
	{"geometry":{"coordinates":[4.880452,44.081477],"type":"Point"},"properties":{"osm_id":"5710309346","tag":{"amenity":"recycling","container:material":"plastic","operator":"CCPRO","recycling:glass":"no","recycling:paper":"yes","recycling_type":"container"}},"type":"Feature"},
	{"geometry":{"coordinates":[4.882953,44.08515],"type":"Point"},"properties":{"osm_id":"6549313473","tag":{"amenity":"waste_disposal"}},"type":"Feature"},
	{"geometry":{"coordinates":[4.882107,44.085794],"type":"Point"},"properties":{"osm_id":"6550845714","tag":{"amenity":"waste_basket","colour":"brown"}},"type":"Feature"},
	{"geometry":{"coordinates":[4.881913,44.086261],"type":"Point"},"properties":{"osm_id":"6550845715","tag":{"amenity":"waste_basket","colour":"brown"}},"type":"Feature"},
	{"geometry":{"coordinates":[4.875766,44.078214],"type":"Point"},"properties":{"osm_id":"6698686854","tag":{"amenity":"recycling","recycling_type":"container"}},"type":"Feature"}
]
}
