{
"type": "FeatureCollection",
"features": [
	{"geometry":{"coordinates":[4.875514,44.008421],"type":"Point"},"properties":{"osm_id":"1487538591","tag":{"amenity":"recycling","operator":"CCPRO","recycling:clothes":"no","recycling:glass":"yes","recycling_type":"container"}},"type":"Feature"},
	{"geometry":{"coordinates":[4.879672,43.981477],"type":"Point"},"properties":{"osm_id":"2400508139","tag":{"amenity":"waste_basket","level":"0"}},"type":"Feature"},
	{"geometry":{"coordinates":[4.881427,43.982175],"type":"Point"},"properties":{"osm_id":"2402544651","tag":{"amenity":"waste_basket","indoor":"yes","level":"0"}},"type":"Feature"},
	{"geometry":{"coordinates":[4.883697,43.997284],"type":"Point"},"properties":{"osm_id":"2449891801","tag":{"amenity":"recycling","operator":"CCPRO","recycling:clothes":"no","recycling:glass":"yes","recycling_type":"container"}},"type":"Feature"},
	{"geometry":{"coordinates":[4.871165,44.014154],"type":"Point"},"properties":{"osm_id":"2626866021","tag":{"amenity":"waste_basket","operator":"CCPRO","waste":"trash"}},"type":"Feature"},
	{"geometry":{"coordinates":[4.896517,43.989216],"type":"Point"},"properties":{"osm_id":"2689561385","tag":{"amenity":"recycling","operator":"CCPRO","recycling:batteries":"no","recycling:cans":"no","recycling:cardboard":"no","recycling:clothes":"no","recycling:electrical_appliances":"no","recycling:glass":"no","recycling:glass_bottles":"yes","recycling:green_waste":"no","recycling:paper":"no","recycling:plastic":"no","recycling:plastic_bottles":"no","recycling:plastic_packaging":"no","recycling:scrap_metal":"no","recycling:shoes":"no","recycling:small_appliances":"no","recycling:waste":"no","recycling_type":"container","wheelchair":"no"}},"type":"Feature"},
	{"geometry":{"coordinates":[4.872701,43.97692],"type":"Point"},"properties":{"osm_id":"2874214843","tag":{"amenity":"recycling","colour":"green","material":"plastic","operator":"Grand Avignon","recycling:bottles":"yes"}},"type":"Feature"},
	{"geometry":{"coordinates":[4.866045,44.021085],"type":"Point"},"properties":{"osm_id":"2908793277","tag":{"amenity":"recycling","recycling:glass_bottles":"yes","recycling_type":"container"}},"type":"Feature"},
	{"geometry":{"coordinates":[4.870908,44.01349],"type":"Point"},"properties":{"osm_id":"3002236777","tag":{"amenity":"recycling","recycling:glass_bottles":"yes","recycling_type":"container"}},"type":"Feature"},
	{"geometry":{"coordinates":[4.873466,44.010036],"type":"Point"},"properties":{"osm_id":"3045351743","tag":{"amenity":"recycling","recycling:cans":"yes","recycling:glass_bottles":"yes","recycling:paper":"yes","recycling_type":"container"}},"type":"Feature"},
	{"geometry":{"coordinates":[4.885225,44.01837],"type":"Point"},"properties":{"osm_id":"3059267178","tag":{"amenity":"recycling","recycling:batteries":"no","recycling:cans":"no","recycling:cardboard":"no","recycling:clothes":"no","recycling:glass":"yes","recycling:glass_bottles":"yes","recycling:green_waste":"no","recycling:paper":"yes","recycling:plastic":"no","recycling:scrap_metal":"no","recycling_type":"container"}},"type":"Feature"},
	{"geometry":{"coordinates":[4.871071,44.006118],"type":"Point"},"properties":{"osm_id":"3073097444","tag":{"amenity":"waste_basket","colour":"grey","operator":"CCPRO","waste":"trash"}},"type":"Feature"},
	{"geometry":{"coordinates":[4.873475,44.0074],"type":"Point"},"properties":{"osm_id":"3104020676","tag":{"amenity":"recycling","recycling:glass_bottles":"yes","recycling_type":"container"}},"type":"Feature"},
	{"geometry":{"coordinates":[4.874802,44.008748],"type":"Point"},"properties":{"osm_id":"3105651618","tag":{"amenity":"recycling","recycling:glass_bottles":"yes","recycling_type":"container"}},"type":"Feature"},
	{"geometry":{"coordinates":[4.876635,44.018408],"type":"Point"},"properties":{"osm_id":"3109199453","tag":{"amenity":"recycling","recycling:glass_bottles":"yes","recycling_type":"container"}},"type":"Feature"},
	{"geometry":{"coordinates":[4.860996,44.016168],"type":"Point"},"properties":{"osm_id":"3147087708","tag":{"amenity":"recycling","recycling:glass_bottles":"yes","recycling_type":"container"}},"type":"Feature"},
	{"geometry":{"coordinates":[4.863664,44.017973],"type":"Point"},"properties":{"osm_id":"3152149681","tag":{"amenity":"recycling","recycling:cans":"no","recycling:clothes":"yes","recycling:glass_bottles":"yes","recycling:paper":"yes","recycling_type":"container","wheelchair":"no"}},"type":"Feature"},
	{"geometry":{"coordinates":[4.876407,44.004004],"type":"Point"},"properties":{"osm_id":"3429795707","tag":{"amenity":"recycling","recycling:cans":"yes","recycling:glass_bottles":"yes","recycling:paper":"yes","recycling:plastic":"no","recycling:plastic_packaging":"yes","recycling_type":"container"}},"type":"Feature"},
	{"geometry":{"coordinates":[4.871773,44.009184],"type":"Point"},"properties":{"osm_id":"3477422235","tag":{"amenity":"recycling","recycling:glass_bottles":"yes","recycling_type":"container"}},"type":"Feature"},
	{"geometry":{"coordinates":[4.861351,44.016521],"type":"Point"},"properties":{"osm_id":"3569187293","tag":{"amenity":"recycling","recycling_type":"container"}},"type":"Feature"},
	{"geometry":{"coordinates":[4.889066,43.978861],"type":"Point"},"properties":{"osm_id":"4454899778","tag":{"amenity":"waste_basket"}},"type":"Feature"},
	{"geometry":{"coordinates":[4.863218,44.012208],"type":"Point"},"properties":{"osm_id":"4889695722","tag":{"amenity":"recycling","recycling_type":"container"}},"type":"Feature"},
	{"geometry":{"coordinates":[4.911315,43.973787],"type":"Point"},"properties":{"name":"Sas Dereso","osm_id":"4975593622","tag":{"addr:housenumber":"553","amenity":"recycling","contact:phone":"+33659520069","opening_hours":"Mo-Fr 09:00-12:00, 14:00-18:00","website":"http://www.dereso.fr/"}},"type":"Feature"},
	{"geometry":{"coordinates":[4.87041,44.004715],"type":"Point"},"properties":{"osm_id":"5562246723","tag":{"amenity":"recycling","container:material":"metal","operator":"CCSC","recycling:glass":"yes","recycling:paper":"no","recycling_type":"container","survey:date":"2019-12-08"}},"type":"Feature"},
	{"geometry":{"coordinates":[4.870374,44.004712],"type":"Point"},"properties":{"osm_id":"5562318622","tag":{"amenity":"recycling","container:material":"metal","operator":"CCSC","recycling:glass":"no","recycling:paper":"yes","recycling_type":"container","survey:date":"2019-12-08"}},"type":"Feature"},
	{"geometry":{"coordinates":[4.871013,44.009973],"type":"Point"},"properties":{"osm_id":"5710336175","tag":{"amenity":"recycling","container:material":"metal","operator":"CCPRO","recycling:glass":"yes","recycling_type":"container"}},"type":"Feature"},
	{"geometry":{"coordinates":[4.874983,44.005159],"type":"Point"},"properties":{"osm_id":"5710344130","tag":{"amenity":"recycling","container:material":"plastic","location":"overground","operator":"CCSC","recycling:glass":"no","recycling:paper":"yes","recycling_type":"container","survey:date":"2019-12-11"}},"type":"Feature"},
	{"geometry":{"coordinates":[4.874958,44.00519],"type":"Point"},"properties":{"osm_id":"5710344131","tag":{"amenity":"recycling","container:material":"plastic","location":"overground","operator":"CCSC","recycling:glass":"yes","recycling:paper":"no","recycling_type":"container","survey:date":"2019-12-08"}},"type":"Feature"},
	{"geometry":{"coordinates":[4.871792,44.009193],"type":"Point"},"properties":{"osm_id":"5799415713","tag":{"amenity":"recycling","recycling:batteries":"no","recycling:clothes":"no","recycling:glass":"no","recycling:glass_bottles":"no","recycling:paper":"yes","recycling:plastic":"yes","recycling:scrap_metal":"no","recycling:waste":"no","recycling_type":"container"}},"type":"Feature"},
	{"geometry":{"coordinates":[4.88979,44.022901],"type":"Point"},"properties":{"osm_id":"6016416986","tag":{"amenity":"waste_basket"}},"type":"Feature"},
	{"geometry":{"coordinates":[4.873695,44.008491],"type":"Point"},"properties":{"osm_id":"6364218689","tag":{"amenity":"recycling","recycling:paper":"yes","recycling_type":"container"}},"type":"Feature"},
	{"geometry":{"coordinates":[4.874204,43.983072],"type":"Point"},"properties":{"osm_id":"7014703373","tag":{"amenity":"waste_basket"}},"type":"Feature"}
]
}
