{
"type": "FeatureCollection",
"features": [
	{"geometry":{"coordinates":[-34.900072,-8.132244],"type":"Point"},"properties":{"osm_id":"6535939476","tag":{"amenity":"recycling","recycling_type":"centre"}},"type":"Feature"},
	{"geometry":{"coordinates":[-34.968828,-8.117214],"type":"Point"},"properties":{"osm_id":"7692015641","tag":{"amenity":"waste_basket"}},"type":"Feature"},
	{"geometry":{"coordinates":[-34.968642,-8.117147],"type":"Point"},"properties":{"osm_id":"7692015642","tag":{"amenity":"waste_basket"}},"type":"Feature"},
	{"geometry":{"coordinates":[-34.96837,-8.118102],"type":"Point"},"properties":{"osm_id":"7692015650","tag":{"amenity":"waste_basket"}},"type":"Feature"},
	{"geometry":{"coordinates":[-34.896636,-8.11307],"type":"Point"},"properties":{"osm_id":"7985538436","tag":{"amenity":"waste_basket","waste":"dog_excrement"}},"type":"Feature"},
	{"geometry":{"coordinates":[-34.973798,-8.136336],"type":"Point"},"properties":{"osm_id":"8100636009","tag":{"amenity":"waste_basket","material":"concrete","waste":"trash;mixed"}},"type":"Feature"},
	{"geometry":{"coordinates":[-34.974344,-8.136145],"type":"Point"},"properties":{"osm_id":"8100636010","tag":{"amenity":"waste_basket","waste":"trash;mixed"}},"type":"Feature"},
	{"geometry":{"coordinates":[-34.974842,-8.132971],"type":"Point"},"properties":{"osm_id":"8100636011","tag":{"amenity":"waste_basket","waste":"trash;mixed"}},"type":"Feature"},
	{"geometry":{"coordinates":[-34.975677,-8.133114],"type":"Point"},"properties":{"osm_id":"8100636012","tag":{"amenity":"waste_basket","waste":"trash;mixed"}},"type":"Feature"},
	{"geometry":{"coordinates":[-34.97649,-8.133354],"type":"Point"},"properties":{"osm_id":"8100636013","tag":{"amenity":"waste_basket","waste":"trash;mixed"}},"type":"Feature"},
	{"geometry":{"coordinates":[-34.976644,-8.134067],"type":"Point"},"properties":{"osm_id":"8100636014","tag":{"amenity":"waste_basket","waste":"trash;mixed"}},"type":"Feature"},
	{"geometry":{"coordinates":[-34.977028,-8.13428],"type":"Point"},"properties":{"osm_id":"8100636015","tag":{"amenity":"waste_basket","waste":"trash;mixed"}},"type":"Feature"},
	{"geometry":{"coordinates":[-34.977071,-8.135006],"type":"Point"},"properties":{"osm_id":"8100636016","tag":{"amenity":"waste_basket","waste":"trash;mixed"}},"type":"Feature"},
	{"geometry":{"coordinates":[-34.968629,-8.139197],"type":"Point"},"properties":{"osm_id":"8222122224","tag":{"amenity":"waste_basket"}},"type":"Feature"},
	{"geometry":{"coordinates":[-34.915298,-8.096581],"type":"Point"},"properties":{"osm_id":"8241961128","tag":{"amenity":"recycling","recycling_type":"container"}},"type":"Feature"}
]
}
