{
"type": "FeatureCollection",
"features": [
	{"geometry":{"coordinates":[10.984378,59.244029],"type":"Point"},"properties":{"osm_id":"3110057426","tag":{"amenity":"recycling","operator":"Idrettsinnsamlingen","recycling:clothes":"yes","recycling_type":"container"}},"type":"Feature"},
	{"geometry":{"coordinates":[10.98341,59.244342],"type":"Point"},"properties":{"osm_id":"3110057427","tag":{"amenity":"recycling","recycling:glass":"yes","recycling_type":"container","wheelchair":"yes"}},"type":"Feature"},
	{"geometry":{"coordinates":[10.985407,59.244855],"type":"Point"},"properties":{"osm_id":"3110057428","tag":{"amenity":"recycling","operator":"UFF","recycling:clothes":"yes","recycling_type":"container"}},"type":"Feature"},
	{"geometry":{"coordinates":[10.983363,59.24436],"type":"Point"},"properties":{"osm_id":"3466005040","tag":{"amenity":"recycling","operator":"Fretex","recycling:clothes":"yes","recycling_type":"container"}},"type":"Feature"},
	{"geometry":{"coordinates":[10.946967,59.229791],"type":"Point"},"properties":{"osm_id":"3665739189","tag":{"amenity":"waste_basket"}},"type":"Feature"},
	{"geometry":{"coordinates":[10.948539,59.232244],"type":"Point"},"properties":{"osm_id":"3665749375","tag":{"amenity":"waste_basket"}},"type":"Feature"},
	{"geometry":{"coordinates":[10.958876,59.237161],"type":"Point"},"properties":{"osm_id":"3665750303","tag":{"amenity":"waste_basket"}},"type":"Feature"},
	{"geometry":{"coordinates":[10.950791,59.229613],"type":"Point"},"properties":{"osm_id":"3671685898","tag":{"amenity":"waste_basket"}},"type":"Feature"},
	{"geometry":{"coordinates":[10.96122,59.245272],"type":"Point"},"properties":{"osm_id":"3861289495","tag":{"amenity":"waste_basket"}},"type":"Feature"},
	{"geometry":{"coordinates":[10.907554,59.23376],"type":"Point"},"properties":{"osm_id":"4736786723","tag":{"amenity":"recycling","description":"RIMI \u00c3\u0098rebekk","recycling:clothes":"yes","recycling:glass_bottles":"yes","recycling_type":"container","ref:sortere":"16001"}},"type":"Feature"},
	{"geometry":{"coordinates":[10.907574,59.233769],"type":"Point"},"properties":{"osm_id":"4736786724","tag":{"amenity":"recycling","recycling:cans":"yes","recycling:glass":"yes","recycling:glass_bottles":"yes","recycling_type":"container","wheelchair":"yes"}},"type":"Feature"},
	{"geometry":{"coordinates":[10.9076,59.23378],"type":"Point"},"properties":{"osm_id":"4736786725","tag":{"amenity":"recycling","operator":"Fretex","recycling:clothes":"yes","recycling_type":"container"}},"type":"Feature"},
	{"geometry":{"coordinates":[10.943671,59.226818],"type":"Point"},"properties":{"osm_id":"5139415718","tag":{"amenity":"waste_basket"}},"type":"Feature"},
	{"geometry":{"coordinates":[10.94429,59.227922],"type":"Point"},"properties":{"osm_id":"5143023493","tag":{"amenity":"waste_basket"}},"type":"Feature"},
	{"geometry":{"coordinates":[10.950439,59.236178],"type":"Point"},"properties":{"osm_id":"5143023517","tag":{"amenity":"waste_basket"}},"type":"Feature"},
	{"geometry":{"coordinates":[10.976125,59.238103],"type":"Point"},"properties":{"osm_id":"5169090761","tag":{"amenity":"recycling","recycling:cans":"yes","recycling:glass_bottles":"yes","recycling_type":"container","wheelchair":"yes"}},"type":"Feature"},
	{"geometry":{"coordinates":[10.971483,59.231605],"type":"Point"},"properties":{"osm_id":"5555203120","tag":{"amenity":"recycling","description":"Lisleby all\u00c3\u00a8, ved Sentralidrettsanlegget","recycling:clothes":"yes","recycling:glass_bottles":"yes","recycling_type":"container","ref:sortere":"16038"}},"type":"Feature"},
	{"geometry":{"coordinates":[10.931546,59.221074],"type":"Point"},"properties":{"osm_id":"5555203229","tag":{"amenity":"recycling","description":"KIWI Frydenberg (Sonjas Mathus)","recycling:glass_bottles":"yes","recycling_type":"container","ref:sortere":"16032"}},"type":"Feature"},
	{"geometry":{"coordinates":[10.930725,59.224923],"type":"Point"},"properties":{"osm_id":"5555203231","tag":{"amenity":"recycling","description":"RIMI Christianslund","recycling:glass_bottles":"yes","recycling_type":"container","ref:sortere":"16030"}},"type":"Feature"},
	{"geometry":{"coordinates":[10.981803,59.243354],"type":"Point"},"properties":{"osm_id":"5555203264","tag":{"amenity":"recycling","description":"Dikeveien 2, Rolvs\u00c3\u00b8y","recycling:glass_bottles":"yes","recycling_type":"container","ref:sortere":"16003"}},"type":"Feature"},
	{"geometry":{"coordinates":[10.910413,59.23042],"type":"Point"},"properties":{"osm_id":"5555203295","tag":{"amenity":"recycling","description":"Meny \u00c3\u0098rebekk","recycling:clothes":"yes","recycling:glass_bottles":"yes","recycling_type":"container","ref:sortere":"15986"}},"type":"Feature"},
	{"geometry":{"coordinates":[10.929482,59.243024],"type":"Point"},"properties":{"osm_id":"6195511345","tag":{"amenity":"recycling","description":"Ambj\u00c3\u00b8rnr\u00c3\u00b8dveien/Skogstrandveien","recycling_type":"container","ref:sortere":"20281"}},"type":"Feature"},
	{"geometry":{"coordinates":[10.946919,59.232865],"type":"Point"},"properties":{"osm_id":"7739933957","tag":{"amenity":"recycling"}},"type":"Feature"}
]
}
