{
"type": "FeatureCollection",
"features": [
	{"geometry":{"coordinates":[10.95393,54.371747],"type":"Point"},"properties":{"osm_id":"1111964966","tag":{"amenity":"recycling","recycling:glass_bottles":"yes","recycling:paper":"yes","recycling_type":"container"}},"type":"Feature"},
	{"geometry":{"coordinates":[10.968799,54.372733],"type":"Point"},"properties":{"osm_id":"2285743202","tag":{"amenity":"recycling","recycling:clothes":"yes","recycling:glass_bottles":"yes","recycling_type":"container"}},"type":"Feature"},
	{"geometry":{"coordinates":[10.957829,54.381471],"type":"Point"},"properties":{"osm_id":"2486833375","tag":{"amenity":"recycling","mapillary":"qkjgUjMwRLVZs2DZcO49xA","recycling:glass_bottles":"yes","recycling_type":"container","survey:date":"2019-04-26"}},"type":"Feature"},
	{"geometry":{"coordinates":[10.967155,54.380046],"type":"Point"},"properties":{"name":"recycling","osm_id":"2486833390","tag":{"amenity":"recycling","mapillary":"btd10BMxebdLQEqz0rBANg","recycling_type":"container","survey:date":"2019-04-26"}},"type":"Feature"},
	{"geometry":{"coordinates":[10.967427,54.381322],"type":"Point"},"properties":{"osm_id":"4435082835","tag":{"amenity":"waste_basket"}},"type":"Feature"},
	{"geometry":{"coordinates":[10.962377,54.38136],"type":"Point"},"properties":{"osm_id":"4435082846","tag":{"amenity":"waste_basket"}},"type":"Feature"},
	{"geometry":{"coordinates":[10.961534,54.381399],"type":"Point"},"properties":{"osm_id":"4435082860","tag":{"amenity":"waste_basket"}},"type":"Feature"},
	{"geometry":{"coordinates":[10.960871,54.381427],"type":"Point"},"properties":{"osm_id":"4435082867","tag":{"amenity":"waste_basket"}},"type":"Feature"},
	{"geometry":{"coordinates":[10.959861,54.38147],"type":"Point"},"properties":{"osm_id":"4435082881","tag":{"amenity":"waste_basket"}},"type":"Feature"},
	{"geometry":{"coordinates":[10.959344,54.381538],"type":"Point"},"properties":{"osm_id":"4435083094","tag":{"amenity":"waste_basket"}},"type":"Feature"},
	{"geometry":{"coordinates":[10.958678,54.381608],"type":"Point"},"properties":{"osm_id":"4435083098","tag":{"amenity":"waste_basket"}},"type":"Feature"},
	{"geometry":{"coordinates":[10.958305,54.381657],"type":"Point"},"properties":{"osm_id":"4435083100","tag":{"amenity":"waste_basket"}},"type":"Feature"},
	{"geometry":{"coordinates":[10.957144,54.381762],"type":"Point"},"properties":{"osm_id":"4435083102","tag":{"amenity":"waste_basket"}},"type":"Feature"},
	{"geometry":{"coordinates":[10.93755,54.381878],"type":"Point"},"properties":{"osm_id":"6747278085","tag":{"amenity":"waste_disposal"}},"type":"Feature"},
	{"geometry":{"coordinates":[10.954042,54.377994],"type":"Point"},"properties":{"osm_id":"7133003245","tag":{"amenity":"waste_disposal"}},"type":"Feature"},
	{"geometry":{"coordinates":[10.980162,54.375545],"type":"Point"},"properties":{"osm_id":"7733830977","tag":{"amenity":"waste_basket","waste":"trash"}},"type":"Feature"}
]
}
