{
"type": "FeatureCollection",
"features": [
	{"geometry":{"coordinates":[10.94581,51.804394],"type":"Point"},"properties":{"name":"Blankenburg Regenstein B81","osm_id":"409791266","tag":{"amenity":"waste_basket","bench":"yes","bus":"yes","operator":"Harzer Verkehrsbetriebe GmbH","public_transport":"platform","shelter":"yes","tactile_paving":"no","wheelchair":"no"}},"type":"Feature"},
	{"geometry":{"coordinates":[10.95246,51.796031],"type":"Point"},"properties":{"osm_id":"523865752","tag":{"amenity":"waste_basket","bench":"yes","shelter":"yes","tactile_paving":"no"}},"type":"Feature"},
	{"geometry":{"coordinates":[10.953049,51.798927],"type":"Point"},"properties":{"osm_id":"735424178","tag":{"amenity":"recycling","recycling:glass_bottles":"yes","recycling_type":"container"}},"type":"Feature"},
	{"geometry":{"coordinates":[10.961865,51.788577],"type":"Point"},"properties":{"osm_id":"795606671","tag":{"amenity":"recycling","location":"overground","recycling_type":"container"}},"type":"Feature"},
	{"geometry":{"coordinates":[10.940275,51.795615],"type":"Point"},"properties":{"osm_id":"795606672","tag":{"amenity":"recycling","recycling_type":"container"}},"type":"Feature"},
	{"geometry":{"coordinates":[10.94427,51.801224],"type":"Point"},"properties":{"osm_id":"795606673","tag":{"amenity":"recycling"}},"type":"Feature"},
	{"geometry":{"coordinates":[10.944827,51.805468],"type":"Point"},"properties":{"name":"Blankenburg Regenstein B81","osm_id":"1726409397","tag":{"amenity":"waste_basket","bench":"yes","bus":"yes","operator":"Harzer Verkehrsbetriebe GmbH","public_transport":"platform","shelter":"yes","tactile_paving":"no","wheelchair":"no"}},"type":"Feature"},
	{"geometry":{"coordinates":[10.958652,51.798445],"type":"Point"},"properties":{"osm_id":"4567212983","tag":{"amenity":"recycling","recycling:glass_bottles":"yes","recycling_type":"container"}},"type":"Feature"},
	{"geometry":{"coordinates":[10.914391,51.80828],"type":"Point"},"properties":{"osm_id":"6203201155","tag":{"amenity":"waste_basket"}},"type":"Feature"},
	{"geometry":{"coordinates":[10.913885,51.807962],"type":"Point"},"properties":{"osm_id":"6203201156","tag":{"amenity":"waste_basket"}},"type":"Feature"},
	{"geometry":{"coordinates":[10.913725,51.808255],"type":"Point"},"properties":{"osm_id":"6203201157","tag":{"amenity":"waste_basket"}},"type":"Feature"},
	{"geometry":{"coordinates":[10.913295,51.807839],"type":"Point"},"properties":{"osm_id":"6203201158","tag":{"amenity":"waste_basket"}},"type":"Feature"},
	{"geometry":{"coordinates":[10.914208,51.826047],"type":"Point"},"properties":{"osm_id":"7796336091","tag":{"amenity":"recycling","recycling:clothes":"yes","recycling_type":"container"}},"type":"Feature"},
	{"geometry":{"coordinates":[10.914123,51.826045],"type":"Point"},"properties":{"osm_id":"7796336092","tag":{"amenity":"recycling","recycling:glass":"yes","recycling_type":"container"}},"type":"Feature"},
	{"geometry":{"coordinates":[10.914165,51.826061],"type":"Point"},"properties":{"osm_id":"7796336093","tag":{"amenity":"recycling","recycling:glass":"yes","recycling_type":"container"}},"type":"Feature"},
	{"geometry":{"coordinates":[10.98087,51.809908],"type":"Point"},"properties":{"osm_id":"7899867240","tag":{"amenity":"waste_basket"}},"type":"Feature"},
	{"geometry":{"coordinates":[10.978537,51.810428],"type":"Point"},"properties":{"osm_id":"7899867241","tag":{"amenity":"waste_basket"}},"type":"Feature"}
]
}
