{
"type": "FeatureCollection",
"features": [
	{"geometry":{"coordinates":[10.912826,50.917027],"type":"Point"},"properties":{"osm_id":"291628803","tag":{"amenity":"recycling","location":"overground","recycling:cardboard":"yes","recycling:clothes":"yes","recycling:glass_bottles":"yes","recycling:magazines":"yes","recycling:newspaper":"yes","recycling:paper":"yes","recycling:paper_packaging":"yes","recycling:shoes":"yes","recycling_type":"container"}},"type":"Feature"},
	{"geometry":{"coordinates":[10.908273,50.910602],"type":"Point"},"properties":{"osm_id":"348223764","tag":{"amenity":"recycling","recycling:clothes":"yes","recycling_type":"container"}},"type":"Feature"},
	{"geometry":{"coordinates":[10.912581,50.909661],"type":"Point"},"properties":{"osm_id":"463167791","tag":{"amenity":"recycling","recycling:clothes":"yes","recycling:glass_bottles":"yes","recycling:paper":"yes","recycling:shoes":"yes","recycling_type":"container"}},"type":"Feature"},
	{"geometry":{"coordinates":[10.908767,50.907189],"type":"Point"},"properties":{"osm_id":"463167792","tag":{"amenity":"recycling","operator":"Remondis","recycling:cardboard":"yes","recycling:glass_bottles":"yes","recycling:newspaper":"yes","recycling:paper":"yes","recycling:paper_packaging":"yes","recycling_type":"container"}},"type":"Feature"},
	{"geometry":{"coordinates":[10.913738,50.909508],"type":"Point"},"properties":{"osm_id":"948340685","tag":{"amenity":"recycling","recycling:glass_bottles":"yes","recycling:paper":"yes","recycling_type":"container"}},"type":"Feature"},
	{"geometry":{"coordinates":[10.917403,50.903552],"type":"Point"},"properties":{"osm_id":"1616585168","tag":{"amenity":"recycling","recycling:cardboard":"yes","recycling:clothes":"yes","recycling:glass_bottles":"yes","recycling:magazines":"yes","recycling:newspaper":"yes","recycling:paper":"yes","recycling:paper_packaging":"yes","recycling:shoes":"yes","recycling_type":"container"}},"type":"Feature"},
	{"geometry":{"coordinates":[10.913644,50.909269],"type":"Point"},"properties":{"osm_id":"3250955769","tag":{"amenity":"recycling","check_date:recycling":"2020-09-21","recycling:clothes":"yes","recycling:shoes":"yes","recycling_type":"container"}},"type":"Feature"},
	{"geometry":{"coordinates":[10.941819,50.923299],"type":"Point"},"properties":{"osm_id":"3507372328","tag":{"amenity":"recycling","recycling:cardboard":"yes","recycling:clothes":"yes","recycling:glass_bottles":"yes","recycling:paper":"yes","recycling_type":"container"}},"type":"Feature"},
	{"geometry":{"coordinates":[10.936766,50.921235],"type":"Point"},"properties":{"osm_id":"3507393771","tag":{"amenity":"recycling","recycling:clothes":"yes","recycling:shoes":"yes","recycling_type":"container"}},"type":"Feature"},
	{"geometry":{"coordinates":[10.936794,50.919251],"type":"Point"},"properties":{"osm_id":"3647316041","tag":{"amenity":"recycling","recycling:cardboard":"yes","recycling:clothes":"yes","recycling:glass_bottles":"yes","recycling:paper":"yes","recycling:shoes":"yes","recycling_type":"container"}},"type":"Feature"},
	{"geometry":{"coordinates":[10.970207,50.951899],"type":"Point"},"properties":{"osm_id":"3664676438","tag":{"amenity":"recycling","recycling:cardboard":"yes","recycling:glass_bottles":"yes","recycling:newspaper":"yes","recycling:paper":"yes","recycling:paper_packaging":"yes","recycling_type":"container"}},"type":"Feature"},
	{"geometry":{"coordinates":[10.906774,50.911695],"type":"Point"},"properties":{"osm_id":"3667308823","tag":{"amenity":"recycling","recycling:cardboard":"yes","recycling:glass_bottles":"yes","recycling:magazines":"yes","recycling:newspaper":"yes","recycling:paper":"yes","recycling:paper_packaging":"yes","recycling_type":"container"}},"type":"Feature"},
	{"geometry":{"coordinates":[10.90672,50.950646],"type":"Point"},"properties":{"osm_id":"3824763474","tag":{"amenity":"recycling","recycling:clothes":"yes","recycling_type":"container"}},"type":"Feature"},
	{"geometry":{"coordinates":[10.90924,50.956401],"type":"Point"},"properties":{"osm_id":"3824844069","tag":{"amenity":"recycling","recycling:cardboard":"yes","recycling:glass_bottles":"yes","recycling:paper":"yes","recycling_type":"container"}},"type":"Feature"},
	{"geometry":{"coordinates":[10.907182,50.956617],"type":"Point"},"properties":{"osm_id":"3824854682","tag":{"amenity":"recycling","recycling:clothes":"yes","recycling_type":"container"}},"type":"Feature"},
	{"geometry":{"coordinates":[10.905657,50.951456],"type":"Point"},"properties":{"osm_id":"3826802090","tag":{"amenity":"recycling","recycling:cardboard":"yes","recycling:clothes":"yes","recycling:glass_bottles":"yes","recycling:paper":"yes","recycling:shoes":"yes","recycling_type":"container"}},"type":"Feature"},
	{"geometry":{"coordinates":[10.97277,50.957625],"type":"Point"},"properties":{"osm_id":"4138849879","tag":{"amenity":"recycling","recycling:cans":"no","recycling:clothes":"no","recycling:glass":"yes","recycling:glass_bottles":"yes","recycling:paper":"no","recycling:plastic":"no","recycling_type":"container"}},"type":"Feature"},
	{"geometry":{"coordinates":[10.934641,50.91922],"type":"Point"},"properties":{"osm_id":"4237499976","tag":{"amenity":"recycling","recycling:clothes":"yes"}},"type":"Feature"},
	{"geometry":{"coordinates":[10.976251,50.926843],"type":"Point"},"properties":{"osm_id":"4692085326","tag":{"amenity":"waste_basket"}},"type":"Feature"},
	{"geometry":{"coordinates":[10.906683,50.91025],"type":"Point"},"properties":{"osm_id":"5017467904","tag":{"amenity":"recycling","operator":"Deutsches Rotes Kreuz","recycling:clothes":"yes","recycling_type":"container"}},"type":"Feature"},
	{"geometry":{"coordinates":[10.90633,50.910781],"type":"Point"},"properties":{"osm_id":"5017467905","tag":{"amenity":"recycling","recycling:paper":"yes","recycling_type":"container"}},"type":"Feature"},
	{"geometry":{"coordinates":[10.906144,50.911166],"type":"Point"},"properties":{"osm_id":"5017467906","tag":{"amenity":"recycling","recycling:cardboard":"yes","recycling:paper":"yes","recycling_type":"container"}},"type":"Feature"},
	{"geometry":{"coordinates":[10.97295,50.95471],"type":"Point"},"properties":{"osm_id":"5152055024","tag":{"amenity":"waste_basket"}},"type":"Feature"},
	{"geometry":{"coordinates":[10.906118,50.911179],"type":"Point"},"properties":{"osm_id":"7352062258","tag":{"access":"private","amenity":"waste_disposal"}},"type":"Feature"},
	{"geometry":{"coordinates":[10.906314,50.910802],"type":"Point"},"properties":{"osm_id":"7352062259","tag":{"access":"private","amenity":"waste_disposal"}},"type":"Feature"},
	{"geometry":{"coordinates":[10.906317,50.910804],"type":"Point"},"properties":{"osm_id":"7934556059","tag":{"amenity":"recycling","location":"overground","recycling:waste":"private","recycling_type":"container"}},"type":"Feature"},
	{"geometry":{"coordinates":[10.906667,50.910293],"type":"Point"},"properties":{"osm_id":"7934556060","tag":{"amenity":"recycling","location":"overground","recycling:waste":"private","recycling_type":"container"}},"type":"Feature"},
	{"geometry":{"coordinates":[10.913743,50.913808],"type":"Point"},"properties":{"osm_id":"8000733098","tag":{"amenity":"recycling","recycling:clothes":"yes","recycling:shoes":"yes","recycling_type":"container"}},"type":"Feature"},
	{"geometry":{"coordinates":[10.914197,50.913083],"type":"Point"},"properties":{"osm_id":"8047580471","tag":{"amenity":"waste_basket","waste":"trash"}},"type":"Feature"},
	{"geometry":{"coordinates":[10.911674,50.914359],"type":"Point"},"properties":{"osm_id":"8047580472","tag":{"amenity":"waste_basket","waste":"trash"}},"type":"Feature"},
	{"geometry":{"coordinates":[10.913443,50.912622],"type":"Point"},"properties":{"osm_id":"8047624933","tag":{"amenity":"waste_basket","waste":"trash"}},"type":"Feature"},
	{"geometry":{"coordinates":[10.912856,50.914522],"type":"Point"},"properties":{"osm_id":"8047624934","tag":{"amenity":"waste_basket","waste":"trash"}},"type":"Feature"},
	{"geometry":{"coordinates":[10.91281,50.914629],"type":"Point"},"properties":{"osm_id":"8047624935","tag":{"amenity":"waste_basket","waste":"trash"}},"type":"Feature"},
	{"geometry":{"coordinates":[10.912784,50.914274],"type":"Point"},"properties":{"osm_id":"8047624936","tag":{"amenity":"waste_basket","waste":"trash"}},"type":"Feature"},
	{"geometry":{"coordinates":[10.913292,50.913729],"type":"Point"},"properties":{"osm_id":"8047630232","tag":{"amenity":"waste_basket","waste":"trash"}},"type":"Feature"},
	{"geometry":{"coordinates":[10.913027,50.904401],"type":"Point"},"properties":{"osm_id":"8090851032","tag":{"amenity":"waste_basket","waste":"trash"}},"type":"Feature"},
	{"geometry":{"coordinates":[10.908833,50.907202],"type":"Point"},"properties":{"osm_id":"8090876261","tag":{"amenity":"recycling","operator":"DRK","recycling:clothes":"yes","recycling:shoes":"yes","recycling_type":"container"}},"type":"Feature"},
	{"geometry":{"coordinates":[10.908714,50.907176],"type":"Point"},"properties":{"osm_id":"8090876262","tag":{"amenity":"recycling","operator":"Texaid","recycling:clothes":"yes","recycling:shoes":"yes","recycling_type":"container"}},"type":"Feature"},
	{"geometry":{"coordinates":[10.912692,50.905423],"type":"Point"},"properties":{"osm_id":"8090892446","tag":{"amenity":"waste_basket","waste":"trash"}},"type":"Feature"},
	{"geometry":{"coordinates":[10.905395,50.906301],"type":"Point"},"properties":{"osm_id":"8090895446","tag":{"amenity":"waste_basket","waste":"trash"}},"type":"Feature"},
	{"geometry":{"coordinates":[10.913497,50.91044],"type":"Point"},"properties":{"osm_id":"8220034096","tag":{"amenity":"waste_basket","waste":"trash"}},"type":"Feature"},
	{"geometry":{"coordinates":[10.913677,50.910504],"type":"Point"},"properties":{"osm_id":"8220034097","tag":{"amenity":"waste_basket","waste":"trash"}},"type":"Feature"},
	{"geometry":{"coordinates":[10.908821,50.909025],"type":"Point"},"properties":{"osm_id":"8220125849","tag":{"amenity":"waste_basket","waste":"trash"}},"type":"Feature"},
	{"geometry":{"coordinates":[10.910606,50.909016],"type":"Point"},"properties":{"osm_id":"8220125850","tag":{"amenity":"waste_basket","waste":"trash"}},"type":"Feature"},
	{"geometry":{"coordinates":[10.907915,50.90953],"type":"Point"},"properties":{"osm_id":"8220153180","tag":{"amenity":"waste_basket","waste":"trash"}},"type":"Feature"},
	{"geometry":{"coordinates":[10.906445,50.91142],"type":"Point"},"properties":{"osm_id":"8220236584","tag":{"amenity":"waste_basket","waste":"trash"}},"type":"Feature"},
	{"geometry":{"coordinates":[10.907127,50.910342],"type":"Point"},"properties":{"osm_id":"8220252663","tag":{"amenity":"waste_basket","waste":"trash"}},"type":"Feature"},
	{"geometry":{"coordinates":[10.906677,50.910297],"type":"Point"},"properties":{"osm_id":"8220252667","tag":{"access":"private","amenity":"waste_disposal"}},"type":"Feature"},
	{"geometry":{"coordinates":[10.906659,50.910304],"type":"Point"},"properties":{"osm_id":"8220252667","tag":{"access":"private","amenity":"waste_disposal"}},"type":"Feature"},
	{"geometry":{"coordinates":[10.906839,50.909981],"type":"Point"},"properties":{"osm_id":"8220252668","tag":{"access":"private","amenity":"waste_disposal"}},"type":"Feature"},
	{"geometry":{"coordinates":[10.906149,50.910567],"type":"Point"},"properties":{"osm_id":"8220256118","tag":{"amenity":"waste_basket","waste":"trash"}},"type":"Feature"},
	{"geometry":{"coordinates":[10.906615,50.910879],"type":"Point"},"properties":{"osm_id":"8220272976","tag":{"amenity":"waste_basket","waste":"trash"}},"type":"Feature"},
	{"geometry":{"coordinates":[10.906317,50.910806],"type":"Point"},"properties":{"osm_id":"8220272986","tag":{"access":"private","amenity":"waste_disposal"}},"type":"Feature"},
	{"geometry":{"coordinates":[10.906863,50.911714],"type":"Point"},"properties":{"osm_id":"8220284996","tag":{"amenity":"recycling","recycling:clothes":"yes","recycling:shoes":"yes","recycling_type":"container"}},"type":"Feature"},
	{"geometry":{"coordinates":[10.906863,50.911714],"type":"Point"},"properties":{"osm_id":"8220284996","tag":{"amenity":"recycling","operator":"Texaid","recycling:clothes":"yes","recycling:shoes":"yes","recycling_type":"container"}},"type":"Feature"},
	{"geometry":{"coordinates":[10.909989,50.91184],"type":"Point"},"properties":{"osm_id":"8220330187","tag":{"access":"private","amenity":"waste_disposal"}},"type":"Feature"},
	{"geometry":{"coordinates":[10.911406,50.912443],"type":"Point"},"properties":{"osm_id":"8220332570","tag":{"amenity":"waste_basket","waste":"trash"}},"type":"Feature"},
	{"geometry":{"coordinates":[10.914181,50.910197],"type":"Point"},"properties":{"osm_id":"8220403773","tag":{"amenity":"waste_basket","waste":"trash"}},"type":"Feature"},
	{"geometry":{"coordinates":[10.913951,50.910407],"type":"Point"},"properties":{"osm_id":"8220403774","tag":{"amenity":"waste_basket","waste":"trash"}},"type":"Feature"},
	{"geometry":{"coordinates":[10.913435,50.911158],"type":"Point"},"properties":{"osm_id":"8220403775","tag":{"amenity":"waste_basket","waste":"trash"}},"type":"Feature"},
	{"geometry":{"coordinates":[10.912786,50.910817],"type":"Point"},"properties":{"osm_id":"8220403776","tag":{"amenity":"waste_basket","waste":"trash"}},"type":"Feature"},
	{"geometry":{"coordinates":[10.912824,50.910945],"type":"Point"},"properties":{"osm_id":"8220403777","tag":{"amenity":"waste_basket","waste":"trash"}},"type":"Feature"},
	{"geometry":{"coordinates":[10.912714,50.911047],"type":"Point"},"properties":{"osm_id":"8220403778","tag":{"amenity":"waste_basket","waste":"trash"}},"type":"Feature"}
]
}
