{
"type": "FeatureCollection",
"features": [
	{"geometry":{"coordinates":[10.948755,50.838889],"type":"Point"},"properties":{"osm_id":"349019792","tag":{"amenity":"recycling","recycling:clothes":"yes","recycling:glass_bottles":"yes","recycling:shoes":"yes","recycling_type":"container"}},"type":"Feature"},
	{"geometry":{"coordinates":[10.928432,50.804312],"type":"Point"},"properties":{"osm_id":"354610912","tag":{"amenity":"recycling","location":"overground","recycling:cardboard":"yes","recycling:clothes":"yes","recycling:glass_bottles":"yes","recycling:magazines":"yes","recycling:newspaper":"yes","recycling:paper":"yes","recycling:paper_packaging":"yes","recycling:shoes":"yes","recycling_type":"container"}},"type":"Feature"},
	{"geometry":{"coordinates":[10.948589,50.838825],"type":"Point"},"properties":{"osm_id":"693728181","tag":{"amenity":"waste_disposal","waste":"trash"}},"type":"Feature"},
	{"geometry":{"coordinates":[10.947079,50.836899],"type":"Point"},"properties":{"osm_id":"2936009532","tag":{"amenity":"recycling","recycling:cardboard":"yes","recycling:clothes":"yes","recycling:glass_bottles":"yes","recycling:paper":"yes","recycling_type":"container"}},"type":"Feature"},
	{"geometry":{"coordinates":[10.948498,50.843531],"type":"Point"},"properties":{"osm_id":"2968900290","tag":{"amenity":"recycling","location":"overground","recycling:cardboard":"yes","recycling:clothes":"yes","recycling:glass_bottles":"yes","recycling:paper":"yes","recycling:shoes":"yes","recycling_type":"container"}},"type":"Feature"},
	{"geometry":{"coordinates":[10.936418,50.82733],"type":"Point"},"properties":{"osm_id":"2979931083","tag":{"amenity":"waste_basket"}},"type":"Feature"},
	{"geometry":{"coordinates":[10.936067,50.827545],"type":"Point"},"properties":{"osm_id":"2979931084","tag":{"amenity":"waste_basket"}},"type":"Feature"},
	{"geometry":{"coordinates":[10.961378,50.840066],"type":"Point"},"properties":{"osm_id":"3037143483","tag":{"amenity":"recycling","recycling:cans":"yes","recycling:cardboard":"yes","recycling:clothes":"no","recycling:glass_bottles":"yes","recycling:paper":"yes","recycling:shoes":"no","recycling_type":"container"}},"type":"Feature"},
	{"geometry":{"coordinates":[10.960935,50.839913],"type":"Point"},"properties":{"osm_id":"3042077434","tag":{"amenity":"recycling","operator":"Malteser;Kolping;DRK","recycling:clothes":"yes","recycling:shoes":"yes","recycling_type":"container"}},"type":"Feature"},
	{"geometry":{"coordinates":[10.947279,50.821691],"type":"Point"},"properties":{"osm_id":"3063887263","tag":{"amenity":"recycling","recycling_type":"container"}},"type":"Feature"},
	{"geometry":{"coordinates":[10.912492,50.794593],"type":"Point"},"properties":{"osm_id":"3176181138","tag":{"amenity":"waste_basket","check_date":"2021-10-09"}},"type":"Feature"},
	{"geometry":{"coordinates":[10.912731,50.794618],"type":"Point"},"properties":{"osm_id":"3176181140","tag":{"amenity":"waste_basket","check_date":"2021-10-09"}},"type":"Feature"},
	{"geometry":{"coordinates":[10.947435,50.837215],"type":"Point"},"properties":{"osm_id":"4084723459","tag":{"amenity":"waste_basket","check_date":"2021-05-08"}},"type":"Feature"},
	{"geometry":{"coordinates":[10.957086,50.829998],"type":"Point"},"properties":{"osm_id":"4185779357","tag":{"amenity":"recycling","operator":"Malteser;DRK;Kolping","recycling:clothes":"yes","recycling:plastic":"yes","recycling:shoes":"yes","recycling_type":"container"}},"type":"Feature"},
	{"geometry":{"coordinates":[10.964048,50.82409],"type":"Point"},"properties":{"osm_id":"4185823135","tag":{"amenity":"recycling","recycling:cardboard":"yes","recycling:clothes":"yes","recycling:glass_bottles":"yes","recycling:paper":"yes","recycling:shoes":"yes","recycling_type":"container"}},"type":"Feature"},
	{"geometry":{"coordinates":[10.955612,50.824953],"type":"Point"},"properties":{"osm_id":"4185878870","tag":{"amenity":"recycling","recycling:cardboard":"yes","recycling:glass_bottles":"yes","recycling:paper":"yes","recycling_type":"container"}},"type":"Feature"},
	{"geometry":{"coordinates":[10.952961,50.825904],"type":"Point"},"properties":{"osm_id":"4185881142","tag":{"amenity":"recycling","recycling:clothes":"yes"}},"type":"Feature"},
	{"geometry":{"coordinates":[10.955359,50.826774],"type":"Point"},"properties":{"osm_id":"4185881148","tag":{"amenity":"recycling","recycling:cardboard":"yes","recycling:clothes":"yes","recycling:glass_bottles":"yes","recycling:paper":"yes","recycling:shoes":"yes","recycling_type":"container"}},"type":"Feature"},
	{"geometry":{"coordinates":[10.94618,50.843166],"type":"Point"},"properties":{"osm_id":"4185971666","tag":{"amenity":"recycling","recycling:cardboard":"yes","recycling:clothes":"yes","recycling:glass_bottles":"yes","recycling:paper":"yes","recycling:shoes":"yes","recycling_type":"container"}},"type":"Feature"},
	{"geometry":{"coordinates":[10.95078,50.835568],"type":"Point"},"properties":{"osm_id":"4698094561","tag":{"amenity":"waste_basket"}},"type":"Feature"},
	{"geometry":{"coordinates":[10.950224,50.835213],"type":"Point"},"properties":{"osm_id":"4698094565","tag":{"amenity":"waste_basket"}},"type":"Feature"},
	{"geometry":{"coordinates":[10.946899,50.834317],"type":"Point"},"properties":{"osm_id":"4698094566","tag":{"amenity":"waste_basket","check_date":"2021-04-17"}},"type":"Feature"},
	{"geometry":{"coordinates":[10.947054,50.834199],"type":"Point"},"properties":{"osm_id":"4698094567","tag":{"amenity":"waste_basket","check_date":"2021-05-07"}},"type":"Feature"},
	{"geometry":{"coordinates":[10.947471,50.834568],"type":"Point"},"properties":{"osm_id":"4698094573","tag":{"amenity":"waste_basket","check_date":"2021-05-08"}},"type":"Feature"},
	{"geometry":{"coordinates":[10.947458,50.83476],"type":"Point"},"properties":{"osm_id":"4698094586","tag":{"amenity":"waste_basket"}},"type":"Feature"},
	{"geometry":{"coordinates":[10.947523,50.835007],"type":"Point"},"properties":{"osm_id":"4698094588","tag":{"amenity":"waste_basket"}},"type":"Feature"},
	{"geometry":{"coordinates":[10.947582,50.835293],"type":"Point"},"properties":{"osm_id":"4698094590","tag":{"amenity":"waste_basket","check_date":"2021-05-05"}},"type":"Feature"},
	{"geometry":{"coordinates":[10.945546,50.833503],"type":"Point"},"properties":{"osm_id":"4698094595","tag":{"amenity":"waste_basket","check_date":"2021-04-17"}},"type":"Feature"},
	{"geometry":{"coordinates":[10.931734,50.841447],"type":"Point"},"properties":{"osm_id":"5139763564","tag":{"amenity":"recycling","recycling:clothes":"yes","recycling:glass_bottles":"yes","recycling:paper":"yes","recycling_type":"container"}},"type":"Feature"},
	{"geometry":{"coordinates":[10.943375,50.831716],"type":"Point"},"properties":{"osm_id":"5799860447","tag":{"amenity":"recycling","recycling:cardboard":"yes","recycling:glass_bottles":"yes","recycling:paper":"yes","recycling_type":"container"}},"type":"Feature"},
	{"geometry":{"coordinates":[10.938848,50.833587],"type":"Point"},"properties":{"osm_id":"5799878694","tag":{"amenity":"recycling","mapillary":"JWAoRyKNdNSEQIEvAu9yGA","recycling:cardboard":"yes","recycling:glass_bottles":"yes","recycling:paper":"yes","recycling_type":"container","survey:date":"2016-10-31"}},"type":"Feature"},
	{"geometry":{"coordinates":[10.946241,50.834099],"type":"Point"},"properties":{"osm_id":"5899685045","tag":{"amenity":"waste_basket"}},"type":"Feature"},
	{"geometry":{"coordinates":[10.94712,50.834196],"type":"Point"},"properties":{"osm_id":"5899685049","tag":{"amenity":"waste_basket"}},"type":"Feature"},
	{"geometry":{"coordinates":[10.949805,50.836953],"type":"Point"},"properties":{"osm_id":"5900248870","tag":{"amenity":"waste_basket"}},"type":"Feature"},
	{"geometry":{"coordinates":[10.949783,50.837208],"type":"Point"},"properties":{"osm_id":"5900248872","tag":{"amenity":"waste_basket"}},"type":"Feature"},
	{"geometry":{"coordinates":[10.950116,50.836646],"type":"Point"},"properties":{"osm_id":"5900248873","tag":{"amenity":"waste_basket"}},"type":"Feature"},
	{"geometry":{"coordinates":[10.950452,50.836573],"type":"Point"},"properties":{"osm_id":"5900248874","tag":{"amenity":"waste_basket"}},"type":"Feature"},
	{"geometry":{"coordinates":[10.951076,50.836397],"type":"Point"},"properties":{"osm_id":"5900248875","tag":{"amenity":"waste_basket"}},"type":"Feature"},
	{"geometry":{"coordinates":[10.942753,50.834676],"type":"Point"},"properties":{"osm_id":"6724772636","tag":{"amenity":"waste_basket","colour":"black","material":"metal"}},"type":"Feature"},
	{"geometry":{"coordinates":[10.943604,50.834278],"type":"Point"},"properties":{"osm_id":"6734809091","tag":{"amenity":"waste_basket","material":"metal"}},"type":"Feature"},
	{"geometry":{"coordinates":[10.943506,50.834059],"type":"Point"},"properties":{"osm_id":"6738071857","tag":{"amenity":"waste_basket","material":"metal"}},"type":"Feature"},
	{"geometry":{"coordinates":[10.959139,50.835022],"type":"Point"},"properties":{"osm_id":"6757138114","tag":{"amenity":"recycling","recycling:cardboard":"yes","recycling:glass_bottles":"yes","recycling:paper":"yes","recycling_type":"container"}},"type":"Feature"},
	{"geometry":{"coordinates":[10.959108,50.834984],"type":"Point"},"properties":{"osm_id":"6757138121","tag":{"amenity":"recycling","recycling:clothes":"yes","recycling:shoes":"yes","recycling_type":"container"}},"type":"Feature"},
	{"geometry":{"coordinates":[10.954526,50.834108],"type":"Point"},"properties":{"osm_id":"6757138122","tag":{"amenity":"recycling","recycling:clothes":"yes","recycling:shoes":"yes","recycling_type":"container"}},"type":"Feature"},
	{"geometry":{"coordinates":[10.954483,50.834068],"type":"Point"},"properties":{"osm_id":"6757138128","tag":{"amenity":"recycling","recycling:cardboard":"yes","recycling:glass_bottles":"yes","recycling:paper":"yes","recycling_type":"container"}},"type":"Feature"},
	{"geometry":{"coordinates":[10.962623,50.831225],"type":"Point"},"properties":{"osm_id":"6757690565","tag":{"amenity":"recycling","recycling:clothes":"yes","recycling_type":"container"}},"type":"Feature"},
	{"geometry":{"coordinates":[10.942793,50.836655],"type":"Point"},"properties":{"osm_id":"6772934432","tag":{"amenity":"recycling","recycling:glass_bottles":"yes","recycling_type":"container"}},"type":"Feature"},
	{"geometry":{"coordinates":[10.942864,50.836676],"type":"Point"},"properties":{"osm_id":"6772934437","tag":{"amenity":"recycling","recycling:cardboard":"yes","recycling:paper":"yes","recycling_type":"container"}},"type":"Feature"},
	{"geometry":{"coordinates":[10.94687,50.835028],"type":"Point"},"properties":{"osm_id":"6772934446","tag":{"amenity":"waste_basket"}},"type":"Feature"},
	{"geometry":{"coordinates":[10.946503,50.835025],"type":"Point"},"properties":{"osm_id":"6772934447","tag":{"amenity":"waste_basket","material":"steel"}},"type":"Feature"},
	{"geometry":{"coordinates":[10.942905,50.839813],"type":"Point"},"properties":{"osm_id":"7373128288","tag":{"amenity":"waste_basket"}},"type":"Feature"},
	{"geometry":{"coordinates":[10.942246,50.839941],"type":"Point"},"properties":{"osm_id":"7373170479","tag":{"amenity":"waste_basket"}},"type":"Feature"},
	{"geometry":{"coordinates":[10.942154,50.840017],"type":"Point"},"properties":{"osm_id":"7373170480","tag":{"amenity":"waste_basket"}},"type":"Feature"},
	{"geometry":{"coordinates":[10.941262,50.837086],"type":"Point"},"properties":{"osm_id":"8342436456","tag":{"amenity":"waste_basket"}},"type":"Feature"},
	{"geometry":{"coordinates":[10.968971,50.829801],"type":"Point"},"properties":{"osm_id":"8387255404","tag":{"amenity":"waste_basket"}},"type":"Feature"},
	{"geometry":{"coordinates":[10.96803,50.829807],"type":"Point"},"properties":{"osm_id":"8387255405","tag":{"amenity":"waste_basket"}},"type":"Feature"},
	{"geometry":{"coordinates":[10.968318,50.829931],"type":"Point"},"properties":{"osm_id":"8387255406","tag":{"amenity":"waste_basket"}},"type":"Feature"},
	{"geometry":{"coordinates":[10.94157,50.815215],"type":"Point"},"properties":{"osm_id":"8393713609","tag":{"amenity":"waste_basket"}},"type":"Feature"},
	{"geometry":{"coordinates":[10.982938,50.79793],"type":"Point"},"properties":{"osm_id":"8416333277","tag":{"amenity":"recycling","recycling:clothes":"yes","recycling:glass_bottles":"yes","recycling:paper":"yes","recycling_type":"container"}},"type":"Feature"},
	{"geometry":{"coordinates":[10.936454,50.846225],"type":"Point"},"properties":{"name":"Werkstatt am Kesselbrunn","osm_id":"8446915587","tag":{"addr:city":"Arnstadt","addr:housenumber":"46b","addr:postcode":"99310","addr:street":"Am Kesselbrunn","amenity":"recycling","building":"yes","opening_hours":"Mo-Fr 09:00-17:00","operator":"Marienstift Arnstadt","recycling:batteries":"yes","recycling:cartons":"yes","recycling:clothes":"yes","recycling:glass":"yes","recycling:glass_bottles":"yes","recycling:rubble":"no","recycling:small_appliances":"yes","recycling_type":"centre","website":"https://aik.ilm-kreis.de/Service/Entsorgungsanlagen/Wertstoffhof-Arnstadt/","wood":"no"}},"type":"Feature"},
	{"geometry":{"coordinates":[10.962654,50.834128],"type":"Point"},"properties":{"osm_id":"8456701283","tag":{"amenity":"recycling","recycling:glass_bottles":"yes","recycling:paper":"yes","recycling_type":"container"}},"type":"Feature"},
	{"geometry":{"coordinates":[10.968908,50.823942],"type":"Point"},"properties":{"osm_id":"8457408607","tag":{"amenity":"recycling","recycling:beverage_cartons":"yes","recycling:books":"yes","recycling:cardboard":"yes","recycling:cartons":"yes","recycling:glass_bottles":"yes","recycling:magazines":"yes","recycling:newspaper":"yes","recycling:paper":"yes","recycling:paper_packaging":"yes","recycling_type":"container"}},"type":"Feature"},
	{"geometry":{"coordinates":[10.899805,50.840019],"type":"Point"},"properties":{"osm_id":"8569361761","tag":{"amenity":"waste_basket"}},"type":"Feature"},
	{"geometry":{"coordinates":[10.921236,50.81125],"type":"Point"},"properties":{"osm_id":"8582687692","tag":{"amenity":"waste_basket"}},"type":"Feature"},
	{"geometry":{"coordinates":[10.952016,50.837024],"type":"Point"},"properties":{"osm_id":"8621583332","tag":{"amenity":"waste_basket","material":"steel","waste":"trash;dog_excrement"}},"type":"Feature"},
	{"geometry":{"coordinates":[10.944879,50.83379],"type":"Point"},"properties":{"osm_id":"8656341602","tag":{"amenity":"waste_basket"}},"type":"Feature"},
	{"geometry":{"coordinates":[10.954881,50.834425],"type":"Point"},"properties":{"osm_id":"8711928249","tag":{"amenity":"waste_basket","waste":"trash"}},"type":"Feature"},
	{"geometry":{"coordinates":[10.943217,50.818232],"type":"Point"},"properties":{"osm_id":"8729357607","tag":{"amenity":"waste_basket","waste":"trash"}},"type":"Feature"}
]
}
