{
"type": "FeatureCollection",
"features": [
	{"geometry":{"coordinates":[10.981212,50.694147],"type":"Point"},"properties":{"osm_id":"199165900","tag":{"amenity":"recycling","location":"overground","recycling:glass_brown":"yes","recycling:glass_green":"yes","recycling_type":"container"}},"type":"Feature"},
	{"geometry":{"coordinates":[10.932495,50.682244],"type":"Point"},"properties":{"osm_id":"267280402","tag":{"amenity":"recycling","location":"overground","recycling:cans":"yes","recycling:glass":"yes","recycling:paper":"yes","recycling:waste":"yes","recycling_type":"container"}},"type":"Feature"},
	{"geometry":{"coordinates":[10.913953,50.683459],"type":"Point"},"properties":{"osm_id":"267415373","tag":{"amenity":"recycling","recycling:glass":"yes","recycling_type":"container"}},"type":"Feature"},
	{"geometry":{"coordinates":[10.933791,50.681219],"type":"Point"},"properties":{"osm_id":"268048075","tag":{"amenity":"recycling","location":"overground","recycling:cans":"yes","recycling:glass":"yes","recycling:paper":"yes","recycling:plastic_packaging":"yes","recycling:waste":"yes","recycling_type":"container"}},"type":"Feature"},
	{"geometry":{"coordinates":[10.932509,50.68291],"type":"Point"},"properties":{"osm_id":"268051695","tag":{"amenity":"recycling","location":"overground","recycling:cans":"yes","recycling:glass":"no","recycling:waste":"yes","recycling_type":"container"}},"type":"Feature"},
	{"geometry":{"coordinates":[10.918738,50.685285],"type":"Point"},"properties":{"osm_id":"269907323","tag":{"amenity":"recycling","location":"overground","recycling:glass":"yes","recycling_type":"container"}},"type":"Feature"},
	{"geometry":{"coordinates":[10.972966,50.684511],"type":"Point"},"properties":{"osm_id":"274491777","tag":{"amenity":"recycling"}},"type":"Feature"},
	{"geometry":{"coordinates":[10.90519,50.681541],"type":"Point"},"properties":{"osm_id":"275905817","tag":{"amenity":"recycling","recycling:glass":"yes","recycling:paper":"yes"}},"type":"Feature"},
	{"geometry":{"coordinates":[10.905112,50.681537],"type":"Point"},"properties":{"osm_id":"275905819","tag":{"amenity":"waste_disposal"}},"type":"Feature"},
	{"geometry":{"coordinates":[10.92869,50.681409],"type":"Point"},"properties":{"osm_id":"294631953","tag":{"amenity":"recycling","mapillary":"yVKGVzS-2ra2YFZJfQ1w0w","recycling:glass":"yes","recycling_type":"container","survey:date":"2017-03-29"}},"type":"Feature"},
	{"geometry":{"coordinates":[10.94156,50.684168],"type":"Point"},"properties":{"osm_id":"417640531","tag":{"amenity":"waste_disposal","location":"overground"}},"type":"Feature"},
	{"geometry":{"coordinates":[10.94387,50.684867],"type":"Point"},"properties":{"osm_id":"417640552","tag":{"amenity":"recycling","location":"overground","recycling_type":"container"}},"type":"Feature"},
	{"geometry":{"coordinates":[10.923146,50.686439],"type":"Point"},"properties":{"osm_id":"452268933","tag":{"amenity":"recycling","location":"overground","recycling:clothes":"yes","recycling:glass":"yes","recycling_type":"container"}},"type":"Feature"},
	{"geometry":{"coordinates":[10.912879,50.68207],"type":"Point"},"properties":{"osm_id":"476810485","tag":{"amenity":"recycling","recycling:glass":"yes","recycling:paper":"yes"}},"type":"Feature"},
	{"geometry":{"coordinates":[10.937259,50.682721],"type":"Point"},"properties":{"osm_id":"499645315","tag":{"amenity":"waste_basket"}},"type":"Feature"},
	{"geometry":{"coordinates":[10.937785,50.682613],"type":"Point"},"properties":{"osm_id":"499645317","tag":{"amenity":"waste_basket"}},"type":"Feature"},
	{"geometry":{"coordinates":[10.923671,50.695093],"type":"Point"},"properties":{"osm_id":"560597853","tag":{"amenity":"recycling","location":"overground","recycling:clothes":"yes","recycling:glass_bottles":"yes","recycling:paper":"yes","recycling_type":"container"}},"type":"Feature"},
	{"geometry":{"coordinates":[10.929018,50.684271],"type":"Point"},"properties":{"osm_id":"773889263","tag":{"amenity":"waste_basket"}},"type":"Feature"},
	{"geometry":{"coordinates":[10.926059,50.686026],"type":"Point"},"properties":{"osm_id":"773889277","tag":{"amenity":"waste_basket"}},"type":"Feature"},
	{"geometry":{"coordinates":[10.927175,50.686103],"type":"Point"},"properties":{"osm_id":"775725251","tag":{"amenity":"waste_basket"}},"type":"Feature"},
	{"geometry":{"coordinates":[10.926748,50.686451],"type":"Point"},"properties":{"osm_id":"775725252","tag":{"amenity":"waste_basket"}},"type":"Feature"},
	{"geometry":{"coordinates":[10.927798,50.686339],"type":"Point"},"properties":{"osm_id":"798971742","tag":{"amenity":"waste_basket"}},"type":"Feature"},
	{"geometry":{"coordinates":[10.918053,50.701562],"type":"Point"},"properties":{"osm_id":"816075434","tag":{"amenity":"recycling","recycling:clothes":"yes","recycling:glass":"yes","recycling:paper":"yes"}},"type":"Feature"},
	{"geometry":{"coordinates":[10.92457,50.691527],"type":"Point"},"properties":{"osm_id":"848059022","tag":{"amenity":"waste_basket"}},"type":"Feature"},
	{"geometry":{"coordinates":[10.924209,50.691664],"type":"Point"},"properties":{"osm_id":"919686392","tag":{"amenity":"waste_basket"}},"type":"Feature"},
	{"geometry":{"coordinates":[10.924648,50.6914],"type":"Point"},"properties":{"osm_id":"919686482","tag":{"amenity":"waste_basket"}},"type":"Feature"},
	{"geometry":{"coordinates":[10.924584,50.691448],"type":"Point"},"properties":{"osm_id":"919686584","tag":{"amenity":"waste_basket"}},"type":"Feature"},
	{"geometry":{"coordinates":[10.932586,50.684006],"type":"Point"},"properties":{"osm_id":"1096242672","tag":{"amenity":"waste_basket"}},"type":"Feature"},
	{"geometry":{"coordinates":[10.935363,50.733708],"type":"Point"},"properties":{"osm_id":"1322957121","tag":{"amenity":"waste_basket"}},"type":"Feature"},
	{"geometry":{"coordinates":[10.937059,50.731128],"type":"Point"},"properties":{"osm_id":"1322957280","tag":{"amenity":"waste_basket"}},"type":"Feature"},
	{"geometry":{"coordinates":[10.935202,50.734259],"type":"Point"},"properties":{"osm_id":"1323011829","tag":{"amenity":"waste_basket"}},"type":"Feature"},
	{"geometry":{"coordinates":[10.934079,50.682948],"type":"Point"},"properties":{"osm_id":"1410760431","tag":{"amenity":"waste_basket"}},"type":"Feature"},
	{"geometry":{"coordinates":[10.912704,50.688226],"type":"Point"},"properties":{"osm_id":"1529373946","tag":{"amenity":"recycling","recycling_type":"container"}},"type":"Feature"},
	{"geometry":{"coordinates":[10.912595,50.68388],"type":"Point"},"properties":{"osm_id":"1662232892","tag":{"amenity":"waste_basket"}},"type":"Feature"},
	{"geometry":{"coordinates":[10.941671,50.682451],"type":"Point"},"properties":{"osm_id":"1690409540","tag":{"amenity":"waste_basket"}},"type":"Feature"},
	{"geometry":{"coordinates":[10.941245,50.68259],"type":"Point"},"properties":{"osm_id":"1690409555","tag":{"amenity":"waste_basket"}},"type":"Feature"},
	{"geometry":{"coordinates":[10.940556,50.682155],"type":"Point"},"properties":{"osm_id":"1887914997","tag":{"amenity":"recycling","opening_hours":"24/7","recycling:cardboard":"yes","recycling:glass":"yes","recycling:green_waste":"yes","recycling:paper":"yes","recycling:plastic":"yes","recycling:small_electrical_appliances":"yes","recycling:waste":"yes","recycling_type":"container"}},"type":"Feature"},
	{"geometry":{"coordinates":[10.951605,50.690369],"type":"Point"},"properties":{"osm_id":"2008958176","tag":{"amenity":"recycling","recycling_type":"container"}},"type":"Feature"},
	{"geometry":{"coordinates":[10.953359,50.690691],"type":"Point"},"properties":{"osm_id":"2008958206","tag":{"amenity":"recycling","recycling_type":"container"}},"type":"Feature"},
	{"geometry":{"coordinates":[10.950942,50.691099],"type":"Point"},"properties":{"osm_id":"2008958227","tag":{"amenity":"recycling","recycling_type":"container"}},"type":"Feature"},
	{"geometry":{"coordinates":[10.935339,50.683849],"type":"Point"},"properties":{"osm_id":"2146916179","tag":{"amenity":"waste_basket"}},"type":"Feature"},
	{"geometry":{"coordinates":[10.92677,50.685678],"type":"Point"},"properties":{"osm_id":"2327301095","tag":{"amenity":"waste_basket"}},"type":"Feature"},
	{"geometry":{"coordinates":[10.963947,50.684327],"type":"Point"},"properties":{"osm_id":"2448010775","tag":{"amenity":"waste_basket"}},"type":"Feature"},
	{"geometry":{"coordinates":[10.912652,50.684097],"type":"Point"},"properties":{"osm_id":"2563687966","tag":{"amenity":"waste_basket"}},"type":"Feature"},
	{"geometry":{"coordinates":[10.911329,50.683641],"type":"Point"},"properties":{"osm_id":"2689016633","tag":{"amenity":"waste_basket"}},"type":"Feature"},
	{"geometry":{"coordinates":[10.911545,50.683808],"type":"Point"},"properties":{"osm_id":"2689016636","tag":{"amenity":"waste_basket"}},"type":"Feature"},
	{"geometry":{"coordinates":[10.912235,50.683857],"type":"Point"},"properties":{"osm_id":"2689016637","tag":{"amenity":"waste_basket"}},"type":"Feature"},
	{"geometry":{"coordinates":[10.912969,50.684554],"type":"Point"},"properties":{"osm_id":"2689016638","tag":{"amenity":"waste_basket"}},"type":"Feature"},
	{"geometry":{"coordinates":[10.912982,50.684625],"type":"Point"},"properties":{"osm_id":"2689016639","tag":{"amenity":"waste_basket"}},"type":"Feature"},
	{"geometry":{"coordinates":[10.912793,50.684662],"type":"Point"},"properties":{"osm_id":"2689016640","tag":{"amenity":"waste_basket"}},"type":"Feature"},
	{"geometry":{"coordinates":[10.926984,50.685448],"type":"Point"},"properties":{"osm_id":"2973865929","tag":{"amenity":"waste_basket","waste":"dog_excrement","waste_basket:excrement_bags":"yes"}},"type":"Feature"},
	{"geometry":{"coordinates":[10.922933,50.69475],"type":"Point"},"properties":{"osm_id":"2973866309","tag":{"amenity":"waste_basket"}},"type":"Feature"},
	{"geometry":{"coordinates":[10.920169,50.695164],"type":"Point"},"properties":{"osm_id":"2973866329","tag":{"amenity":"waste_basket","waste":"dog_excrement","waste_basket:excrement_bags":"yes"}},"type":"Feature"},
	{"geometry":{"coordinates":[10.910902,50.685135],"type":"Point"},"properties":{"osm_id":"3043155198","tag":{"amenity":"waste_basket"}},"type":"Feature"},
	{"geometry":{"coordinates":[10.921785,50.684455],"type":"Point"},"properties":{"osm_id":"3046051703","tag":{"amenity":"waste_basket"}},"type":"Feature"},
	{"geometry":{"coordinates":[10.921687,50.684508],"type":"Point"},"properties":{"osm_id":"3046051705","tag":{"amenity":"waste_basket"}},"type":"Feature"},
	{"geometry":{"coordinates":[10.921606,50.684545],"type":"Point"},"properties":{"osm_id":"3046051707","tag":{"amenity":"waste_basket"}},"type":"Feature"},
	{"geometry":{"coordinates":[10.921344,50.690253],"type":"Point"},"properties":{"name":"Metallschrott","osm_id":"3782157976","tag":{"amenity":"recycling","recycling_type":"centre"}},"type":"Feature"},
	{"geometry":{"coordinates":[10.921306,50.690297],"type":"Point"},"properties":{"name":"Elektroschrott","osm_id":"3782157978","tag":{"amenity":"recycling"}},"type":"Feature"},
	{"geometry":{"coordinates":[10.9214,50.690206],"type":"Point"},"properties":{"name":"Pappe","osm_id":"3782157979","tag":{"amenity":"recycling","recycling:cans":"no","recycling:clothes":"no","recycling:glass":"no","recycling:glass_bottles":"no","recycling:paper":"no","recycling:plastic":"no","recycling_type":"container"}},"type":"Feature"},
	{"geometry":{"coordinates":[10.921534,50.690418],"type":"Point"},"properties":{"name":"Wei\u00c3\u009fe Ware (K\u00c3\u00bcchenger\u00c3\u00a4te)","osm_id":"3782157980","tag":{"amenity":"recycling","recycling_type":"centre"}},"type":"Feature"},
	{"geometry":{"coordinates":[10.921741,50.690447],"type":"Point"},"properties":{"name":"Kunststoffe","osm_id":"3782157981","tag":{"amenity":"recycling"}},"type":"Feature"},
	{"geometry":{"coordinates":[10.921682,50.690274],"type":"Point"},"properties":{"name":"Leuchtstoffr\u00c3\u00b6hren","osm_id":"3782157982","tag":{"amenity":"recycling"}},"type":"Feature"},
	{"geometry":{"coordinates":[10.924251,50.697186],"type":"Point"},"properties":{"osm_id":"4050326562","tag":{"amenity":"recycling","location":"overground","recycling:cans":"no","recycling:glass":"no","recycling:glass_bottles":"no","recycling:paper":"yes","recycling:plastic":"yes","recycling_type":"container"}},"type":"Feature"},
	{"geometry":{"coordinates":[10.924152,50.697146],"type":"Point"},"properties":{"osm_id":"4050326563","tag":{"amenity":"recycling","location":"overground","recycling:glass":"yes","recycling:glass_bottles":"yes","recycling:paper":"no","recycling:plastic":"no","recycling_type":"container"}},"type":"Feature"},
	{"geometry":{"coordinates":[10.975467,50.715135],"type":"Point"},"properties":{"osm_id":"4338987262","tag":{"amenity":"recycling","recycling:cardboard":"yes","recycling:clothes":"yes","recycling:glass":"yes","recycling:glass_bottles":"yes","recycling:paper":"yes","recycling:shoes":"yes","recycling_type":"container"}},"type":"Feature"},
	{"geometry":{"coordinates":[10.975579,50.710949],"type":"Point"},"properties":{"osm_id":"4419328070","tag":{"amenity":"waste_basket"}},"type":"Feature"},
	{"geometry":{"coordinates":[10.975725,50.711299],"type":"Point"},"properties":{"osm_id":"4419328077","tag":{"amenity":"waste_basket"}},"type":"Feature"},
	{"geometry":{"coordinates":[10.976098,50.711821],"type":"Point"},"properties":{"osm_id":"4419328093","tag":{"amenity":"waste_basket"}},"type":"Feature"},
	{"geometry":{"coordinates":[10.977043,50.696585],"type":"Point"},"properties":{"osm_id":"4421090872","tag":{"amenity":"waste_basket"}},"type":"Feature"},
	{"geometry":{"coordinates":[10.980465,50.701552],"type":"Point"},"properties":{"osm_id":"4421090885","tag":{"amenity":"waste_basket"}},"type":"Feature"},
	{"geometry":{"coordinates":[10.981089,50.702101],"type":"Point"},"properties":{"osm_id":"4421090886","tag":{"amenity":"waste_basket"}},"type":"Feature"},
	{"geometry":{"coordinates":[10.978258,50.708084],"type":"Point"},"properties":{"osm_id":"4421090899","tag":{"amenity":"waste_basket"}},"type":"Feature"},
	{"geometry":{"coordinates":[10.981322,50.713814],"type":"Point"},"properties":{"osm_id":"4421090995","tag":{"amenity":"waste_basket"}},"type":"Feature"},
	{"geometry":{"coordinates":[10.977893,50.709968],"type":"Point"},"properties":{"osm_id":"4422726133","tag":{"amenity":"waste_basket"}},"type":"Feature"},
	{"geometry":{"coordinates":[10.982259,50.71418],"type":"Point"},"properties":{"osm_id":"4423693824","tag":{"amenity":"waste_basket"}},"type":"Feature"},
	{"geometry":{"coordinates":[10.916839,50.68946],"type":"Point"},"properties":{"osm_id":"4685575156","tag":{"amenity":"waste_basket"}},"type":"Feature"},
	{"geometry":{"coordinates":[10.920926,50.684693],"type":"Point"},"properties":{"osm_id":"5637168901","tag":{"amenity":"waste_basket"}},"type":"Feature"},
	{"geometry":{"coordinates":[10.92817,50.705927],"type":"Point"},"properties":{"osm_id":"5804819299","tag":{"amenity":"recycling","recycling:glass":"yes","recycling_type":"container"}},"type":"Feature"},
	{"geometry":{"coordinates":[10.981239,50.694157],"type":"Point"},"properties":{"osm_id":"6973773861","tag":{"amenity":"recycling","location":"overground","recycling:glass_white":"yes","recycling_type":"container"}},"type":"Feature"},
	{"geometry":{"coordinates":[10.981267,50.694168],"type":"Point"},"properties":{"osm_id":"6973773862","tag":{"amenity":"recycling","location":"overground","recycling:clothes":"yes","recycling_type":"container"}},"type":"Feature"},
	{"geometry":{"coordinates":[10.943413,50.686238],"type":"Point"},"properties":{"osm_id":"7172497526","tag":{"amenity":"waste_basket"}},"type":"Feature"},
	{"geometry":{"coordinates":[10.902118,50.680851],"type":"Point"},"properties":{"osm_id":"7398064717","tag":{"amenity":"waste_basket"}},"type":"Feature"},
	{"geometry":{"coordinates":[10.902499,50.681161],"type":"Point"},"properties":{"osm_id":"7398064722","tag":{"amenity":"waste_basket"}},"type":"Feature"},
	{"geometry":{"coordinates":[10.902408,50.681212],"type":"Point"},"properties":{"osm_id":"7398064723","tag":{"amenity":"waste_basket"}},"type":"Feature"},
	{"geometry":{"coordinates":[10.902299,50.681273],"type":"Point"},"properties":{"osm_id":"7398064730","tag":{"amenity":"waste_basket"}},"type":"Feature"},
	{"geometry":{"coordinates":[10.902246,50.681506],"type":"Point"},"properties":{"osm_id":"7398064731","tag":{"amenity":"waste_basket"}},"type":"Feature"},
	{"geometry":{"coordinates":[10.901272,50.68172],"type":"Point"},"properties":{"osm_id":"7398064736","tag":{"amenity":"waste_basket"}},"type":"Feature"},
	{"geometry":{"coordinates":[10.899892,50.681318],"type":"Point"},"properties":{"osm_id":"7398064738","tag":{"amenity":"waste_basket"}},"type":"Feature"},
	{"geometry":{"coordinates":[10.899649,50.681203],"type":"Point"},"properties":{"osm_id":"7398064740","tag":{"amenity":"waste_basket"}},"type":"Feature"},
	{"geometry":{"coordinates":[10.913597,50.681036],"type":"Point"},"properties":{"osm_id":"7747666836","tag":{"amenity":"waste_basket","waste":"trash"}},"type":"Feature"}
]
}
