{
"type": "FeatureCollection",
"features": [
	{"geometry":{"coordinates":[10.941464,49.957882],"type":"Point"},"properties":{"osm_id":"29756460","tag":{"amenity":"recycling","recycling:glass_bottles":"yes","recycling_type":"container"}},"type":"Feature"},
	{"geometry":{"coordinates":[10.901144,49.978655],"type":"Point"},"properties":{"osm_id":"746290300","tag":{"amenity":"recycling","recycling:clothes":"yes","recycling:glass_bottles":"yes","recycling:scrap_metal":"yes","recycling_type":"container"}},"type":"Feature"},
	{"geometry":{"coordinates":[10.939389,49.979984],"type":"Point"},"properties":{"osm_id":"1515137397","tag":{"amenity":"recycling","recycling:glass_bottles":"yes","recycling_type":"container"}},"type":"Feature"},
	{"geometry":{"coordinates":[10.961023,49.958412],"type":"Point"},"properties":{"osm_id":"1587367250","tag":{"amenity":"recycling","recycling:cans":"yes","recycling:clothes":"yes","recycling:glass_bottles":"yes","recycling_type":"container"}},"type":"Feature"},
	{"geometry":{"coordinates":[10.960849,49.958405],"type":"Point"},"properties":{"osm_id":"2229318247","tag":{"amenity":"waste_basket"}},"type":"Feature"},
	{"geometry":{"coordinates":[10.96062,49.95841],"type":"Point"},"properties":{"osm_id":"2229318248","tag":{"amenity":"waste_basket"}},"type":"Feature"},
	{"geometry":{"coordinates":[10.96039,49.958415],"type":"Point"},"properties":{"osm_id":"2229318249","tag":{"amenity":"waste_basket"}},"type":"Feature"},
	{"geometry":{"coordinates":[10.96016,49.95842],"type":"Point"},"properties":{"osm_id":"2229318250","tag":{"amenity":"waste_basket"}},"type":"Feature"},
	{"geometry":{"coordinates":[10.956013,49.958488],"type":"Point"},"properties":{"osm_id":"2374571752","tag":{"amenity":"waste_basket"}},"type":"Feature"},
	{"geometry":{"coordinates":[10.943036,49.960108],"type":"Point"},"properties":{"osm_id":"2573399931","tag":{"amenity":"waste_basket"}},"type":"Feature"},
	{"geometry":{"coordinates":[10.940492,49.958643],"type":"Point"},"properties":{"osm_id":"2573416696","tag":{"amenity":"waste_basket"}},"type":"Feature"},
	{"geometry":{"coordinates":[10.980564,49.955884],"type":"Point"},"properties":{"osm_id":"2596002267","tag":{"amenity":"recycling","recycling:cans":"yes","recycling:glass_bottles":"yes","recycling_type":"container"}},"type":"Feature"},
	{"geometry":{"coordinates":[10.983093,49.972071],"type":"Point"},"properties":{"osm_id":"2671631770","tag":{"amenity":"recycling","recycling:cans":"yes","recycling:glass_bottles":"yes","recycling_type":"container"}},"type":"Feature"},
	{"geometry":{"coordinates":[10.949401,49.959105],"type":"Point"},"properties":{"osm_id":"2750304134","tag":{"amenity":"waste_basket"}},"type":"Feature"},
	{"geometry":{"coordinates":[10.952686,49.965796],"type":"Point"},"properties":{"osm_id":"2750304354","tag":{"amenity":"waste_basket"}},"type":"Feature"},
	{"geometry":{"coordinates":[10.903639,49.979848],"type":"Point"},"properties":{"osm_id":"2914582376","tag":{"amenity":"waste_basket"}},"type":"Feature"},
	{"geometry":{"coordinates":[10.906901,49.982589],"type":"Point"},"properties":{"osm_id":"2914582617","tag":{"amenity":"waste_basket"}},"type":"Feature"},
	{"geometry":{"coordinates":[10.913854,49.988661],"type":"Point"},"properties":{"osm_id":"2914582653","tag":{"amenity":"waste_basket"}},"type":"Feature"},
	{"geometry":{"coordinates":[10.929711,49.968132],"type":"Point"},"properties":{"osm_id":"3395691664","tag":{"amenity":"recycling","recycling:cans":"yes","recycling:clothes":"yes","recycling:glass_bottles":"yes","recycling_type":"container"}},"type":"Feature"},
	{"geometry":{"coordinates":[10.981353,49.956396],"type":"Point"},"properties":{"osm_id":"3879290463","tag":{"amenity":"recycling","recycling:cans":"yes","recycling:glass_bottles":"yes","recycling_type":"container"}},"type":"Feature"},
	{"geometry":{"coordinates":[10.914123,50.001625],"type":"Point"},"properties":{"osm_id":"4510930306","tag":{"amenity":"waste_basket"}},"type":"Feature"},
	{"geometry":{"coordinates":[10.900029,49.970643],"type":"Point"},"properties":{"osm_id":"4782953190","tag":{"amenity":"waste_basket"}},"type":"Feature"},
	{"geometry":{"coordinates":[10.938341,50.006248],"type":"Point"},"properties":{"osm_id":"4783175122","tag":{"amenity":"waste_basket"}},"type":"Feature"},
	{"geometry":{"coordinates":[10.94378,50.002859],"type":"Point"},"properties":{"osm_id":"4783175130","tag":{"amenity":"waste_basket"}},"type":"Feature"},
	{"geometry":{"coordinates":[10.898846,49.975025],"type":"Point"},"properties":{"name":"Hundekot station","osm_id":"6307171818","tag":{"amenity":"waste_basket","waste":"dog_excrement"}},"type":"Feature"},
	{"geometry":{"coordinates":[10.903922,49.969736],"type":"Point"},"properties":{"name":"Hundekot station","osm_id":"6308557576","tag":{"amenity":"waste_basket","waste":"dog_excrement"}},"type":"Feature"},
	{"geometry":{"coordinates":[10.901314,49.978682],"type":"Point"},"properties":{"name":"Hundekot station","osm_id":"6310757101","tag":{"amenity":"waste_basket","waste":"dog_excrement"}},"type":"Feature"},
	{"geometry":{"coordinates":[10.900293,49.976961],"type":"Point"},"properties":{"name":"Hundekot station","osm_id":"6310780407","tag":{"amenity":"waste_basket","waste":"dog_excrement"}},"type":"Feature"}
]
}
