{
"type": "FeatureCollection",
"features": [
	{"geometry":{"coordinates":[10.921626,49.931933],"type":"Point"},"properties":{"osm_id":"271912297","tag":{"amenity":"recycling"}},"type":"Feature"},
	{"geometry":{"coordinates":[10.970737,49.918726],"type":"Point"},"properties":{"osm_id":"342232071","tag":{"amenity":"recycling","recycling:cans":"yes","recycling:glass":"yes","recycling:paper":"yes","recycling:scrap_metal":"yes","recycling_type":"centre"}},"type":"Feature"},
	{"geometry":{"coordinates":[10.90003,49.904348],"type":"Point"},"properties":{"osm_id":"350032114","tag":{"amenity":"recycling","recycling:clothes":"yes","recycling:glass_bottles":"yes","recycling:shoes":"yes","recycling_type":"container"}},"type":"Feature"},
	{"geometry":{"coordinates":[10.899621,49.907032],"type":"Point"},"properties":{"osm_id":"352654307","tag":{"amenity":"recycling","recycling:glass_bottles":"yes","recycling_type":"container"}},"type":"Feature"},
	{"geometry":{"coordinates":[10.909184,49.910507],"type":"Point"},"properties":{"osm_id":"352655596","tag":{"amenity":"recycling","recycling:clothes":"yes","recycling:glass_bottles":"yes","recycling_type":"container"}},"type":"Feature"},
	{"geometry":{"coordinates":[10.902892,49.905126],"type":"Point"},"properties":{"osm_id":"353183940","tag":{"amenity":"recycling","recycling:clothes":"yes","recycling:glass_bottles":"yes","recycling_type":"container"}},"type":"Feature"},
	{"geometry":{"coordinates":[10.916016,49.908459],"type":"Point"},"properties":{"osm_id":"353196631","tag":{"amenity":"recycling","recycling:clothes":"yes","recycling:glass_bottles":"yes","recycling_type":"container"}},"type":"Feature"},
	{"geometry":{"coordinates":[10.914197,49.910706],"type":"Point"},"properties":{"osm_id":"353210798","tag":{"amenity":"recycling","recycling:clothes":"yes","recycling:glass_bottles":"yes","recycling_type":"container"}},"type":"Feature"},
	{"geometry":{"coordinates":[10.907063,49.905667],"type":"Point"},"properties":{"osm_id":"354386937","tag":{"amenity":"recycling","recycling:glass_bottles":"yes","recycling_type":"container"}},"type":"Feature"},
	{"geometry":{"coordinates":[10.902791,49.899913],"type":"Point"},"properties":{"osm_id":"354871999","tag":{"amenity":"recycling","recycling:clothes":"yes","recycling:glass_bottles":"yes","recycling:shoes":"yes","recycling_type":"container"}},"type":"Feature"},
	{"geometry":{"coordinates":[10.907048,49.901488],"type":"Point"},"properties":{"osm_id":"354900482","tag":{"amenity":"recycling","recycling:clothes":"yes","recycling:glass_bottles":"yes","recycling_type":"container"}},"type":"Feature"},
	{"geometry":{"coordinates":[10.915497,49.901316],"type":"Point"},"properties":{"osm_id":"355184749","tag":{"amenity":"recycling","recycling:glass_bottles":"yes","recycling_type":"container"}},"type":"Feature"},
	{"geometry":{"coordinates":[10.912937,49.901891],"type":"Point"},"properties":{"osm_id":"355187374","tag":{"amenity":"recycling","recycling:clothes":"yes","recycling:glass_bottles":"yes","recycling_type":"container"}},"type":"Feature"},
	{"geometry":{"coordinates":[10.911708,49.900791],"type":"Point"},"properties":{"osm_id":"355505652","tag":{"amenity":"recycling","recycling:glass_bottles":"yes","recycling_type":"container"}},"type":"Feature"},
	{"geometry":{"coordinates":[10.909411,49.913772],"type":"Point"},"properties":{"osm_id":"359997271","tag":{"amenity":"recycling","recycling:clothes":"yes","recycling:glass_bottles":"yes","recycling_type":"container"}},"type":"Feature"},
	{"geometry":{"coordinates":[10.901619,49.91212],"type":"Point"},"properties":{"osm_id":"360007191","tag":{"amenity":"recycling","recycling:clothes":"yes","recycling:glass_bottles":"yes","recycling:shoes":"yes","recycling_type":"container"}},"type":"Feature"},
	{"geometry":{"coordinates":[10.926486,49.901643],"type":"Point"},"properties":{"osm_id":"365092499","tag":{"amenity":"recycling","recycling:clothes":"yes","recycling:glass_bottles":"yes","recycling_type":"container"}},"type":"Feature"},
	{"geometry":{"coordinates":[10.915112,49.91225],"type":"Point"},"properties":{"osm_id":"366320292","tag":{"amenity":"recycling","recycling:glass_bottles":"yes","recycling_type":"container"}},"type":"Feature"},
	{"geometry":{"coordinates":[10.922338,49.90809],"type":"Point"},"properties":{"osm_id":"370628097","tag":{"amenity":"recycling","recycling:clothes":"yes","recycling:glass_bottles":"yes","recycling_type":"container"}},"type":"Feature"},
	{"geometry":{"coordinates":[10.924473,49.911696],"type":"Point"},"properties":{"osm_id":"370636104","tag":{"amenity":"recycling","recycling:glass_bottles":"yes","recycling_type":"container"}},"type":"Feature"},
	{"geometry":{"coordinates":[10.920923,49.913194],"type":"Point"},"properties":{"osm_id":"371152396","tag":{"amenity":"recycling","recycling:clothes":"yes","recycling:glass_bottles":"yes","recycling_type":"container"}},"type":"Feature"},
	{"geometry":{"coordinates":[10.912624,49.89766],"type":"Point"},"properties":{"osm_id":"417659856","tag":{"amenity":"recycling","recycling:clothes":"yes","recycling:glass_bottles":"yes","recycling_type":"container"}},"type":"Feature"},
	{"geometry":{"coordinates":[10.917263,49.942372],"type":"Point"},"properties":{"osm_id":"419152590","tag":{"amenity":"recycling","recycling:cans":"yes","recycling:glass_bottles":"yes","recycling_type":"container"}},"type":"Feature"},
	{"geometry":{"coordinates":[10.925173,49.934704],"type":"Point"},"properties":{"osm_id":"419621207","tag":{"amenity":"recycling","recycling:cans":"yes","recycling:clothes":"yes","recycling:glass_bottles":"yes","recycling_type":"container"}},"type":"Feature"},
	{"geometry":{"coordinates":[10.926669,49.939144],"type":"Point"},"properties":{"osm_id":"419628172","tag":{"amenity":"recycling","recycling:cans":"yes","recycling:glass_bottles":"yes","recycling_type":"container"}},"type":"Feature"},
	{"geometry":{"coordinates":[10.900807,49.894684],"type":"Point"},"properties":{"osm_id":"425440767","tag":{"amenity":"recycling","recycling:clothes":"yes","recycling:glass_bottles":"yes","recycling_type":"container"}},"type":"Feature"},
	{"geometry":{"coordinates":[10.960866,49.926258],"type":"Point"},"properties":{"barrier":"cycle_barrier","osm_id":"549676431"},"type":"Feature"},
	{"geometry":{"coordinates":[10.961667,49.92646],"type":"Point"},"properties":{"barrier":"bollard","osm_id":"549676555","tag":{"bicycle":"yes","foot":"yes"}},"type":"Feature"},
	{"geometry":{"coordinates":[10.911226,49.908744],"type":"Point"},"properties":{"osm_id":"665781585","tag":{"amenity":"recycling","recycling:clothes":"yes","recycling:glass_bottles":"yes","recycling_type":"container"}},"type":"Feature"},
	{"geometry":{"coordinates":[10.971543,49.941992],"type":"Point"},"properties":{"osm_id":"691988645","tag":{"amenity":"recycling","recycling:cans":"yes","recycling:clothes":"yes","recycling:glass_bottles":"yes","recycling_type":"container"}},"type":"Feature"},
	{"geometry":{"coordinates":[10.908543,49.899501],"type":"Point"},"properties":{"osm_id":"713169120","tag":{"amenity":"recycling","recycling:clothes":"yes","recycling:glass_bottles":"yes","recycling_type":"container"}},"type":"Feature"},
	{"geometry":{"coordinates":[10.917362,49.898593],"type":"Point"},"properties":{"osm_id":"715215848","tag":{"amenity":"recycling","recycling:glass_bottles":"yes","recycling_type":"container"}},"type":"Feature"},
	{"geometry":{"coordinates":[10.905736,49.912433],"type":"Point"},"properties":{"osm_id":"864961418","tag":{"amenity":"recycling","recycling:clothes":"yes","recycling:glass_bottles":"yes","recycling_type":"container"}},"type":"Feature"},
	{"geometry":{"coordinates":[10.903098,49.89654],"type":"Point"},"properties":{"osm_id":"1260509425","tag":{"amenity":"recycling","recycling:glass_bottles":"yes","recycling_type":"container"}},"type":"Feature"},
	{"geometry":{"coordinates":[10.906018,49.907616],"type":"Point"},"properties":{"osm_id":"1430174539","tag":{"amenity":"recycling","recycling:clothes":"yes","recycling:glass_bottles":"yes","recycling_type":"container"}},"type":"Feature"},
	{"geometry":{"coordinates":[10.899075,49.910668],"type":"Point"},"properties":{"osm_id":"1588480035","tag":{"amenity":"recycling","recycling:glass_bottles":"yes","recycling_type":"container"}},"type":"Feature"},
	{"geometry":{"coordinates":[10.923175,49.898315],"type":"Point"},"properties":{"osm_id":"1643144136","tag":{"amenity":"waste_basket"}},"type":"Feature"},
	{"geometry":{"coordinates":[10.910751,49.900754],"type":"Point"},"properties":{"osm_id":"1643208470","tag":{"amenity":"recycling","recycling:clothes":"yes","recycling_type":"container"}},"type":"Feature"},
	{"geometry":{"coordinates":[10.905116,49.894879],"type":"Point"},"properties":{"osm_id":"1650111626","tag":{"amenity":"recycling","recycling:glass_bottles":"yes","recycling_type":"container"}},"type":"Feature"},
	{"geometry":{"coordinates":[10.91414,49.910697],"type":"Point"},"properties":{"osm_id":"1652908131","tag":{"amenity":"waste_basket"}},"type":"Feature"},
	{"geometry":{"coordinates":[10.906611,49.907061],"type":"Point"},"properties":{"osm_id":"1652915523","tag":{"amenity":"waste_basket"}},"type":"Feature"},
	{"geometry":{"coordinates":[10.907029,49.907384],"type":"Point"},"properties":{"osm_id":"1652915530","tag":{"amenity":"waste_basket"}},"type":"Feature"},
	{"geometry":{"coordinates":[10.908013,49.907663],"type":"Point"},"properties":{"osm_id":"1652915533","tag":{"amenity":"waste_basket"}},"type":"Feature"},
	{"geometry":{"coordinates":[10.908519,49.907855],"type":"Point"},"properties":{"osm_id":"1652915535","tag":{"amenity":"waste_basket"}},"type":"Feature"},
	{"geometry":{"coordinates":[10.909422,49.908998],"type":"Point"},"properties":{"osm_id":"1652915549","tag":{"amenity":"waste_basket"}},"type":"Feature"},
	{"geometry":{"coordinates":[10.90945,49.909017],"type":"Point"},"properties":{"osm_id":"1652915550","tag":{"amenity":"recycling","recycling:clothes":"yes","recycling:glass_bottles":"yes","recycling_type":"container"}},"type":"Feature"},
	{"geometry":{"coordinates":[10.907479,49.907257],"type":"Point"},"properties":{"osm_id":"1656266068","tag":{"amenity":"waste_basket"}},"type":"Feature"},
	{"geometry":{"coordinates":[10.907828,49.907338],"type":"Point"},"properties":{"osm_id":"1656266070","tag":{"amenity":"waste_basket"}},"type":"Feature"},
	{"geometry":{"coordinates":[10.908665,49.907464],"type":"Point"},"properties":{"osm_id":"1656266073","tag":{"amenity":"waste_basket"}},"type":"Feature"},
	{"geometry":{"coordinates":[10.90948,49.907579],"type":"Point"},"properties":{"osm_id":"1656266076","tag":{"amenity":"waste_basket"}},"type":"Feature"},
	{"geometry":{"coordinates":[10.90148,49.897975],"type":"Point"},"properties":{"osm_id":"1656308118","tag":{"amenity":"waste_basket"}},"type":"Feature"},
	{"geometry":{"coordinates":[10.908875,49.89885],"type":"Point"},"properties":{"osm_id":"1656308185","tag":{"amenity":"waste_basket"}},"type":"Feature"},
	{"geometry":{"coordinates":[10.93084,49.922989],"type":"Point"},"properties":{"osm_id":"1702890253","tag":{"amenity":"waste_basket"}},"type":"Feature"},
	{"geometry":{"coordinates":[10.929736,49.9235],"type":"Point"},"properties":{"osm_id":"1702890290","tag":{"amenity":"waste_basket"}},"type":"Feature"},
	{"geometry":{"coordinates":[10.928004,49.924228],"type":"Point"},"properties":{"osm_id":"1702890306","tag":{"amenity":"waste_basket"}},"type":"Feature"},
	{"geometry":{"coordinates":[10.900794,49.894699],"type":"Point"},"properties":{"osm_id":"1704152020","tag":{"amenity":"waste_basket"}},"type":"Feature"},
	{"geometry":{"coordinates":[10.909199,49.910473],"type":"Point"},"properties":{"osm_id":"1707042751","tag":{"amenity":"waste_basket"}},"type":"Feature"},
	{"geometry":{"coordinates":[10.907687,49.912266],"type":"Point"},"properties":{"osm_id":"1707042758","tag":{"amenity":"recycling","recycling:clothes":"yes","recycling_type":"container"}},"type":"Feature"},
	{"geometry":{"coordinates":[10.905759,49.912407],"type":"Point"},"properties":{"osm_id":"1707042759","tag":{"amenity":"waste_basket"}},"type":"Feature"},
	{"geometry":{"coordinates":[10.917981,49.913075],"type":"Point"},"properties":{"osm_id":"1710201398","tag":{"amenity":"recycling","recycling:clothes":"yes","recycling_type":"container"}},"type":"Feature"},
	{"geometry":{"coordinates":[10.956084,49.927159],"type":"Point"},"properties":{"osm_id":"1724434307","tag":{"amenity":"waste_basket"}},"type":"Feature"},
	{"geometry":{"coordinates":[10.955559,49.927946],"type":"Point"},"properties":{"osm_id":"1724434311","tag":{"amenity":"waste_basket"}},"type":"Feature"},
	{"geometry":{"coordinates":[10.954428,49.929013],"type":"Point"},"properties":{"osm_id":"1724434316","tag":{"amenity":"waste_basket"}},"type":"Feature"},
	{"geometry":{"coordinates":[10.980327,49.928742],"type":"Point"},"properties":{"osm_id":"1724453453","tag":{"amenity":"recycling","recycling:cans":"yes","recycling:glass_bottles":"yes","recycling_type":"container"}},"type":"Feature"},
	{"geometry":{"coordinates":[10.964461,49.928431],"type":"Point"},"properties":{"osm_id":"1724472497","tag":{"amenity":"waste_basket"}},"type":"Feature"},
	{"geometry":{"coordinates":[10.956095,49.929207],"type":"Point"},"properties":{"osm_id":"1724490911","tag":{"amenity":"waste_basket"}},"type":"Feature"},
	{"geometry":{"coordinates":[10.965074,49.937612],"type":"Point"},"properties":{"osm_id":"1958695525","tag":{"amenity":"recycling","recycling:cans":"yes","recycling:clothes":"yes","recycling:glass_bottles":"yes","recycling_type":"container"}},"type":"Feature"},
	{"geometry":{"coordinates":[10.905311,49.899134],"type":"Point"},"properties":{"osm_id":"1998856020","tag":{"amenity":"waste_basket"}},"type":"Feature"},
	{"geometry":{"coordinates":[10.907714,49.900431],"type":"Point"},"properties":{"osm_id":"1998856023","tag":{"amenity":"waste_basket"}},"type":"Feature"},
	{"geometry":{"coordinates":[10.907017,49.901538],"type":"Point"},"properties":{"osm_id":"1998856028","tag":{"amenity":"waste_basket"}},"type":"Feature"},
	{"geometry":{"coordinates":[10.902441,49.90344],"type":"Point"},"properties":{"osm_id":"1998856042","tag":{"amenity":"waste_basket"}},"type":"Feature"},
	{"geometry":{"coordinates":[10.899426,49.895234],"type":"Point"},"properties":{"osm_id":"2021915077","tag":{"amenity":"waste_basket"}},"type":"Feature"},
	{"geometry":{"coordinates":[10.90164,49.912098],"type":"Point"},"properties":{"osm_id":"2026678787","tag":{"amenity":"waste_basket"}},"type":"Feature"},
	{"geometry":{"coordinates":[10.901225,49.898048],"type":"Point"},"properties":{"osm_id":"2038457865","tag":{"amenity":"waste_basket"}},"type":"Feature"},
	{"geometry":{"coordinates":[10.909104,49.8977],"type":"Point"},"properties":{"osm_id":"2038538864","tag":{"amenity":"waste_basket"}},"type":"Feature"},
	{"geometry":{"coordinates":[10.912139,49.897739],"type":"Point"},"properties":{"osm_id":"2038538867","tag":{"amenity":"waste_basket"}},"type":"Feature"},
	{"geometry":{"coordinates":[10.907435,49.898299],"type":"Point"},"properties":{"osm_id":"2038538907","tag":{"amenity":"waste_basket"}},"type":"Feature"},
	{"geometry":{"coordinates":[10.908799,49.898453],"type":"Point"},"properties":{"osm_id":"2038538913","tag":{"amenity":"waste_basket"}},"type":"Feature"},
	{"geometry":{"coordinates":[10.911218,49.898567],"type":"Point"},"properties":{"osm_id":"2038538916","tag":{"amenity":"waste_basket"}},"type":"Feature"},
	{"geometry":{"coordinates":[10.90853,49.899998],"type":"Point"},"properties":{"osm_id":"2038538993","tag":{"amenity":"waste_basket"}},"type":"Feature"},
	{"geometry":{"coordinates":[10.900915,49.901014],"type":"Point"},"properties":{"osm_id":"2039585253","tag":{"amenity":"waste_basket"}},"type":"Feature"},
	{"geometry":{"coordinates":[10.91142,49.900715],"type":"Point"},"properties":{"osm_id":"2051469692","tag":{"amenity":"waste_basket"}},"type":"Feature"},
	{"geometry":{"coordinates":[10.920474,49.901444],"type":"Point"},"properties":{"osm_id":"2051508260","tag":{"amenity":"recycling","recycling:clothes":"yes","recycling_type":"container"}},"type":"Feature"},
	{"geometry":{"coordinates":[10.923638,49.902745],"type":"Point"},"properties":{"osm_id":"2051508281","tag":{"amenity":"waste_basket"}},"type":"Feature"},
	{"geometry":{"coordinates":[10.900371,49.897568],"type":"Point"},"properties":{"osm_id":"2061118204","tag":{"amenity":"waste_basket"}},"type":"Feature"},
	{"geometry":{"coordinates":[10.912542,49.897634],"type":"Point"},"properties":{"osm_id":"2091210020","tag":{"amenity":"waste_basket"}},"type":"Feature"},
	{"geometry":{"coordinates":[10.919885,49.898299],"type":"Point"},"properties":{"osm_id":"2115195849","tag":{"amenity":"waste_basket"}},"type":"Feature"},
	{"geometry":{"coordinates":[10.917308,49.898644],"type":"Point"},"properties":{"osm_id":"2115195861","tag":{"amenity":"waste_basket"}},"type":"Feature"},
	{"geometry":{"coordinates":[10.909796,49.895662],"type":"Point"},"properties":{"osm_id":"2130327496","tag":{"amenity":"waste_basket"}},"type":"Feature"},
	{"geometry":{"coordinates":[10.909463,49.897356],"type":"Point"},"properties":{"osm_id":"2130327497","tag":{"amenity":"waste_basket"}},"type":"Feature"},
	{"geometry":{"coordinates":[10.965155,49.932003],"type":"Point"},"properties":{"osm_id":"2192840912","tag":{"amenity":"waste_basket"}},"type":"Feature"},
	{"geometry":{"coordinates":[10.967438,49.93204],"type":"Point"},"properties":{"osm_id":"2192840915","tag":{"amenity":"waste_basket"}},"type":"Feature"},
	{"geometry":{"coordinates":[10.969756,49.932492],"type":"Point"},"properties":{"osm_id":"2192840925","tag":{"amenity":"waste_basket"}},"type":"Feature"},
	{"geometry":{"coordinates":[10.963574,49.938444],"type":"Point"},"properties":{"osm_id":"2192899983","tag":{"amenity":"waste_basket"}},"type":"Feature"},
	{"geometry":{"coordinates":[10.959954,49.936204],"type":"Point"},"properties":{"osm_id":"2192916265","tag":{"amenity":"waste_basket"}},"type":"Feature"},
	{"geometry":{"coordinates":[10.952846,49.932165],"type":"Point"},"properties":{"osm_id":"2193961078","tag":{"amenity":"waste_basket"}},"type":"Feature"},
	{"geometry":{"coordinates":[10.953686,49.931845],"type":"Point"},"properties":{"osm_id":"2193992871","tag":{"amenity":"waste_basket"}},"type":"Feature"},
	{"geometry":{"coordinates":[10.920387,49.934452],"type":"Point"},"properties":{"osm_id":"2214888883","tag":{"amenity":"waste_basket"}},"type":"Feature"},
	{"geometry":{"coordinates":[10.920333,49.9346],"type":"Point"},"properties":{"osm_id":"2214888888","tag":{"amenity":"waste_basket"}},"type":"Feature"},
	{"geometry":{"coordinates":[10.951683,49.940702],"type":"Point"},"properties":{"osm_id":"2229283853","tag":{"amenity":"waste_basket"}},"type":"Feature"},
	{"geometry":{"coordinates":[10.950011,49.947487],"type":"Point"},"properties":{"osm_id":"2229283882","tag":{"amenity":"waste_basket"}},"type":"Feature"},
	{"geometry":{"coordinates":[10.967341,49.948893],"type":"Point"},"properties":{"osm_id":"2229307659","tag":{"amenity":"waste_basket"}},"type":"Feature"},
	{"geometry":{"coordinates":[10.906541,49.921867],"type":"Point"},"properties":{"osm_id":"2261109379","tag":{"amenity":"recycling","recycling:glass_bottles":"yes","recycling_type":"container"}},"type":"Feature"},
	{"geometry":{"coordinates":[10.985346,49.935706],"type":"Point"},"properties":{"osm_id":"2277930455","tag":{"amenity":"waste_basket"}},"type":"Feature"},
	{"geometry":{"coordinates":[10.931567,49.925753],"type":"Point"},"properties":{"osm_id":"2365884793","tag":{"amenity":"waste_basket"}},"type":"Feature"},
	{"geometry":{"coordinates":[10.955111,49.933586],"type":"Point"},"properties":{"osm_id":"2668262279","tag":{"amenity":"waste_basket"}},"type":"Feature"},
	{"geometry":{"coordinates":[10.961207,49.946176],"type":"Point"},"properties":{"osm_id":"2794847522","tag":{"amenity":"waste_basket"}},"type":"Feature"},
	{"geometry":{"coordinates":[10.953457,49.933142],"type":"Point"},"properties":{"osm_id":"2795037760","tag":{"amenity":"waste_basket"}},"type":"Feature"},
	{"geometry":{"coordinates":[10.927958,49.934887],"type":"Point"},"properties":{"osm_id":"2860419345","tag":{"amenity":"waste_basket"}},"type":"Feature"},
	{"geometry":{"coordinates":[10.952861,49.932584],"type":"Point"},"properties":{"osm_id":"2860501912","tag":{"amenity":"waste_basket"}},"type":"Feature"},
	{"geometry":{"coordinates":[10.95298,49.932811],"type":"Point"},"properties":{"osm_id":"2860501914","tag":{"amenity":"waste_basket"}},"type":"Feature"},
	{"geometry":{"coordinates":[10.921017,49.936582],"type":"Point"},"properties":{"osm_id":"2866436432","tag":{"amenity":"waste_basket"}},"type":"Feature"},
	{"geometry":{"coordinates":[10.922963,49.936593],"type":"Point"},"properties":{"osm_id":"2866436433","tag":{"amenity":"waste_basket"}},"type":"Feature"},
	{"geometry":{"coordinates":[10.920243,49.940247],"type":"Point"},"properties":{"osm_id":"2874562081","tag":{"amenity":"waste_basket"}},"type":"Feature"},
	{"geometry":{"coordinates":[10.934195,49.939591],"type":"Point"},"properties":{"osm_id":"2917441121","tag":{"amenity":"waste_basket"}},"type":"Feature"},
	{"geometry":{"coordinates":[10.922454,49.908082],"type":"Point"},"properties":{"osm_id":"3022892613","tag":{"amenity":"waste_basket"}},"type":"Feature"},
	{"geometry":{"coordinates":[10.922711,49.914518],"type":"Point"},"properties":{"osm_id":"3022931574","tag":{"amenity":"waste_basket"}},"type":"Feature"},
	{"geometry":{"coordinates":[10.901126,49.90772],"type":"Point"},"properties":{"osm_id":"3022955725","tag":{"amenity":"waste_basket"}},"type":"Feature"},
	{"geometry":{"coordinates":[10.930447,49.939209],"type":"Point"},"properties":{"osm_id":"3041553212","tag":{"amenity":"waste_basket"}},"type":"Feature"},
	{"geometry":{"coordinates":[10.920134,49.936425],"type":"Point"},"properties":{"osm_id":"3050745285","tag":{"amenity":"waste_basket"}},"type":"Feature"},
	{"geometry":{"coordinates":[10.921887,49.913832],"type":"Point"},"properties":{"osm_id":"3113159768","tag":{"amenity":"waste_basket"}},"type":"Feature"},
	{"geometry":{"coordinates":[10.915208,49.912607],"type":"Point"},"properties":{"osm_id":"3141949307","tag":{"amenity":"waste_basket"}},"type":"Feature"},
	{"geometry":{"coordinates":[10.916852,49.898935],"type":"Point"},"properties":{"osm_id":"3155775104","tag":{"amenity":"waste_basket"}},"type":"Feature"},
	{"geometry":{"coordinates":[10.954156,49.92996],"type":"Point"},"properties":{"osm_id":"3209277455","tag":{"amenity":"waste_basket"}},"type":"Feature"},
	{"geometry":{"coordinates":[10.904725,49.906434],"type":"Point"},"properties":{"osm_id":"3272629831","tag":{"amenity":"waste_basket"}},"type":"Feature"},
	{"geometry":{"coordinates":[10.90466,49.906572],"type":"Point"},"properties":{"osm_id":"3272629834","tag":{"amenity":"waste_basket"}},"type":"Feature"},
	{"geometry":{"coordinates":[10.904411,49.906832],"type":"Point"},"properties":{"osm_id":"3272629838","tag":{"amenity":"waste_basket"}},"type":"Feature"},
	{"geometry":{"coordinates":[10.903738,49.906969],"type":"Point"},"properties":{"osm_id":"3272629840","tag":{"amenity":"waste_basket"}},"type":"Feature"},
	{"geometry":{"coordinates":[10.904173,49.907032],"type":"Point"},"properties":{"osm_id":"3272629843","tag":{"amenity":"waste_basket"}},"type":"Feature"},
	{"geometry":{"coordinates":[10.904069,49.906998],"type":"Point"},"properties":{"osm_id":"3272629847","tag":{"amenity":"waste_basket"}},"type":"Feature"},
	{"geometry":{"coordinates":[10.904127,49.9072],"type":"Point"},"properties":{"osm_id":"3272629853","tag":{"amenity":"waste_basket"}},"type":"Feature"},
	{"geometry":{"coordinates":[10.908809,49.897007],"type":"Point"},"properties":{"osm_id":"3326565336","tag":{"amenity":"waste_basket"}},"type":"Feature"},
	{"geometry":{"coordinates":[10.923884,49.898368],"type":"Point"},"properties":{"osm_id":"3344510919","tag":{"amenity":"waste_basket"}},"type":"Feature"},
	{"geometry":{"coordinates":[10.927812,49.899801],"type":"Point"},"properties":{"osm_id":"3344510925","tag":{"amenity":"waste_basket"}},"type":"Feature"},
	{"geometry":{"coordinates":[10.917672,49.899183],"type":"Point"},"properties":{"osm_id":"3344523856","tag":{"amenity":"waste_basket"}},"type":"Feature"},
	{"geometry":{"coordinates":[10.918306,49.899264],"type":"Point"},"properties":{"osm_id":"3344523858","tag":{"amenity":"waste_basket"}},"type":"Feature"},
	{"geometry":{"coordinates":[10.927564,49.941863],"type":"Point"},"properties":{"osm_id":"3354332925","tag":{"amenity":"waste_basket"}},"type":"Feature"},
	{"geometry":{"coordinates":[10.913685,49.894996],"type":"Point"},"properties":{"osm_id":"3394161896","tag":{"amenity":"waste_basket"}},"type":"Feature"},
	{"geometry":{"coordinates":[10.905815,49.907089],"type":"Point"},"properties":{"osm_id":"3469847450","tag":{"amenity":"waste_basket"}},"type":"Feature"},
	{"geometry":{"coordinates":[10.904017,49.898712],"type":"Point"},"properties":{"osm_id":"3472548358","tag":{"amenity":"waste_basket"}},"type":"Feature"},
	{"geometry":{"coordinates":[10.907149,49.903165],"type":"Point"},"properties":{"osm_id":"3473481633","tag":{"amenity":"waste_basket"}},"type":"Feature"},
	{"geometry":{"coordinates":[10.929311,49.925447],"type":"Point"},"properties":{"osm_id":"3544603756","tag":{"amenity":"recycling","recycling:cans":"yes","recycling:glass_bottles":"yes","recycling_type":"container"}},"type":"Feature"},
	{"geometry":{"coordinates":[10.924318,49.937009],"type":"Point"},"properties":{"osm_id":"3544660602","tag":{"amenity":"recycling","recycling:clothes":"yes","recycling_type":"container"}},"type":"Feature"},
	{"geometry":{"coordinates":[10.911805,49.90944],"type":"Point"},"properties":{"osm_id":"3550868651","tag":{"amenity":"waste_basket"}},"type":"Feature"},
	{"geometry":{"coordinates":[10.913733,49.910078],"type":"Point"},"properties":{"osm_id":"3550868653","tag":{"amenity":"waste_basket"}},"type":"Feature"},
	{"geometry":{"coordinates":[10.914786,49.910322],"type":"Point"},"properties":{"osm_id":"3550868655","tag":{"amenity":"waste_basket"}},"type":"Feature"},
	{"geometry":{"coordinates":[10.899561,49.90052],"type":"Point"},"properties":{"osm_id":"3729111090","tag":{"amenity":"waste_basket","level":"-1"}},"type":"Feature"},
	{"geometry":{"coordinates":[10.899443,49.900536],"type":"Point"},"properties":{"osm_id":"3729111091","tag":{"amenity":"waste_basket","level":"-1"}},"type":"Feature"},
	{"geometry":{"coordinates":[10.899513,49.900559],"type":"Point"},"properties":{"osm_id":"3729111092","tag":{"amenity":"waste_basket","level":"-1"}},"type":"Feature"},
	{"geometry":{"coordinates":[10.899686,49.90063],"type":"Point"},"properties":{"osm_id":"3729111093","tag":{"amenity":"waste_basket","level":"-1"}},"type":"Feature"},
	{"geometry":{"coordinates":[10.899229,49.900747],"type":"Point"},"properties":{"osm_id":"3729111094","tag":{"amenity":"waste_basket","level":"0"}},"type":"Feature"},
	{"geometry":{"coordinates":[10.899917,49.900683],"type":"Point"},"properties":{"osm_id":"3729111095","tag":{"amenity":"waste_basket","level":"-1"}},"type":"Feature"},
	{"geometry":{"coordinates":[10.900036,49.900786],"type":"Point"},"properties":{"osm_id":"3729111096","tag":{"amenity":"waste_basket","level":"-1"}},"type":"Feature"},
	{"geometry":{"coordinates":[10.900397,49.900903],"type":"Point"},"properties":{"osm_id":"3729111097","tag":{"amenity":"waste_basket","level":"-1"}},"type":"Feature"},
	{"geometry":{"coordinates":[10.899891,49.900382],"type":"Point"},"properties":{"osm_id":"3900348336","tag":{"amenity":"waste_basket","level":"0"}},"type":"Feature"},
	{"geometry":{"coordinates":[10.900071,49.900455],"type":"Point"},"properties":{"osm_id":"3901909740","tag":{"amenity":"waste_basket","level":"0"}},"type":"Feature"},
	{"geometry":{"coordinates":[10.900245,49.900543],"type":"Point"},"properties":{"osm_id":"3901910458","tag":{"amenity":"waste_basket"}},"type":"Feature"},
	{"geometry":{"coordinates":[10.899618,49.90062],"type":"Point"},"properties":{"osm_id":"3901910466","tag":{"amenity":"waste_basket"}},"type":"Feature"},
	{"geometry":{"coordinates":[10.920393,49.917573],"type":"Point"},"properties":{"osm_id":"3962546449","tag":{"amenity":"recycling","recycling:clothes":"yes","recycling:glass_bottles":"yes","recycling_type":"container"}},"type":"Feature"},
	{"geometry":{"coordinates":[10.90908,49.909318],"type":"Point"},"properties":{"osm_id":"3982230856","tag":{"amenity":"recycling","recycling:clothes":"yes","recycling_type":"container"}},"type":"Feature"},
	{"geometry":{"coordinates":[10.921662,49.935662],"type":"Point"},"properties":{"osm_id":"4147018019","tag":{"amenity":"waste_basket"}},"type":"Feature"},
	{"geometry":{"coordinates":[10.919717,49.936658],"type":"Point"},"properties":{"osm_id":"4148403491","tag":{"amenity":"waste_basket"}},"type":"Feature"},
	{"geometry":{"coordinates":[10.914563,49.896233],"type":"Point"},"properties":{"osm_id":"4286095994","tag":{"amenity":"waste_basket"}},"type":"Feature"},
	{"geometry":{"coordinates":[10.915806,49.896713],"type":"Point"},"properties":{"osm_id":"4286095999","tag":{"amenity":"waste_basket"}},"type":"Feature"},
	{"geometry":{"coordinates":[10.915839,49.896795],"type":"Point"},"properties":{"osm_id":"4286096008","tag":{"amenity":"waste_basket"}},"type":"Feature"},
	{"geometry":{"coordinates":[10.91583,49.896824],"type":"Point"},"properties":{"osm_id":"4286096010","tag":{"amenity":"waste_basket"}},"type":"Feature"},
	{"geometry":{"coordinates":[10.91601,49.897128],"type":"Point"},"properties":{"osm_id":"4286096020","tag":{"amenity":"waste_basket"}},"type":"Feature"},
	{"geometry":{"coordinates":[10.916969,49.897817],"type":"Point"},"properties":{"osm_id":"4286096046","tag":{"amenity":"waste_basket"}},"type":"Feature"},
	{"geometry":{"coordinates":[10.946264,49.925593],"type":"Point"},"properties":{"osm_id":"4346001126","tag":{"amenity":"waste_basket"}},"type":"Feature"},
	{"geometry":{"coordinates":[10.97202,49.945923],"type":"Point"},"properties":{"osm_id":"4357353734","tag":{"amenity":"waste_basket"}},"type":"Feature"},
	{"geometry":{"coordinates":[10.971941,49.94612],"type":"Point"},"properties":{"osm_id":"4357353739","tag":{"amenity":"waste_basket"}},"type":"Feature"},
	{"geometry":{"coordinates":[10.95281,49.932289],"type":"Point"},"properties":{"osm_id":"4419510589","tag":{"amenity":"waste_basket"}},"type":"Feature"},
	{"geometry":{"coordinates":[10.898901,49.900394],"type":"Point"},"properties":{"osm_id":"4502268866","tag":{"amenity":"waste_basket","level":"0"}},"type":"Feature"},
	{"geometry":{"coordinates":[10.898713,49.900526],"type":"Point"},"properties":{"osm_id":"4502268867","tag":{"amenity":"waste_basket","level":"0"}},"type":"Feature"},
	{"geometry":{"coordinates":[10.91505,49.898276],"type":"Point"},"properties":{"osm_id":"4603957876","tag":{"amenity":"waste_basket"}},"type":"Feature"},
	{"geometry":{"coordinates":[10.920389,49.913445],"type":"Point"},"properties":{"osm_id":"4618517988","tag":{"amenity":"waste_basket"}},"type":"Feature"},
	{"geometry":{"coordinates":[10.91199,49.907146],"type":"Point"},"properties":{"osm_id":"4635360199","tag":{"amenity":"waste_basket"}},"type":"Feature"},
	{"geometry":{"coordinates":[10.899444,49.900761],"type":"Point"},"properties":{"osm_id":"4784346402","tag":{"amenity":"waste_basket","level":"0"}},"type":"Feature"},
	{"geometry":{"coordinates":[10.89963,49.900835],"type":"Point"},"properties":{"osm_id":"4784346403","tag":{"amenity":"waste_basket","level":"0"}},"type":"Feature"},
	{"geometry":{"coordinates":[10.8998,49.900916],"type":"Point"},"properties":{"osm_id":"4784346404","tag":{"amenity":"waste_basket","level":"0"}},"type":"Feature"},
	{"geometry":{"coordinates":[10.899328,49.90941],"type":"Point"},"properties":{"osm_id":"4791696425","tag":{"amenity":"waste_basket"}},"type":"Feature"},
	{"geometry":{"coordinates":[10.899828,49.90439],"type":"Point"},"properties":{"osm_id":"5347033710","tag":{"amenity":"recycling","recycling:clothes":"yes","recycling:shoes":"yes","recycling_type":"container"}},"type":"Feature"},
	{"geometry":{"coordinates":[10.899997,49.901318],"type":"Point"},"properties":{"osm_id":"5367894266","tag":{"amenity":"waste_basket"}},"type":"Feature"},
	{"geometry":{"coordinates":[10.927851,49.899279],"type":"Point"},"properties":{"osm_id":"5482905677","tag":{"amenity":"waste_basket"}},"type":"Feature"},
	{"geometry":{"coordinates":[10.928124,49.898508],"type":"Point"},"properties":{"osm_id":"5482905678","tag":{"amenity":"waste_basket"}},"type":"Feature"},
	{"geometry":{"coordinates":[10.970927,49.942266],"type":"Point"},"properties":{"osm_id":"5647633198","tag":{"amenity":"waste_basket"}},"type":"Feature"},
	{"geometry":{"coordinates":[10.97053,49.942385],"type":"Point"},"properties":{"osm_id":"5647633199","tag":{"amenity":"waste_basket"}},"type":"Feature"},
	{"geometry":{"coordinates":[10.926886,49.899644],"type":"Point"},"properties":{"osm_id":"6573940912","tag":{"amenity":"waste_basket"}},"type":"Feature"},
	{"geometry":{"coordinates":[10.927058,49.899369],"type":"Point"},"properties":{"osm_id":"6573940913","tag":{"amenity":"waste_basket"}},"type":"Feature"},
	{"geometry":{"coordinates":[10.909429,49.895913],"type":"Point"},"properties":{"osm_id":"7096022510","tag":{"amenity":"recycling","recycling:clothes":"yes","recycling:glass_bottles":"yes","recycling:shoes":"yes","recycling_type":"container"}},"type":"Feature"},
	{"geometry":{"coordinates":[10.9219,49.898281],"type":"Point"},"properties":{"osm_id":"7125943184","tag":{"amenity":"waste_basket"}},"type":"Feature"},
	{"geometry":{"coordinates":[10.898863,49.900175],"type":"Point"},"properties":{"osm_id":"7126119282","tag":{"amenity":"waste_basket"}},"type":"Feature"},
	{"geometry":{"coordinates":[10.910132,49.900469],"type":"Point"},"properties":{"osm_id":"7126127653","tag":{"amenity":"waste_basket"}},"type":"Feature"},
	{"geometry":{"coordinates":[10.906618,49.907087],"type":"Point"},"properties":{"osm_id":"7165357744","tag":{"amenity":"waste_basket"}},"type":"Feature"},
	{"geometry":{"coordinates":[10.90586,49.90748],"type":"Point"},"properties":{"osm_id":"7165360157","tag":{"amenity":"waste_basket"}},"type":"Feature"},
	{"geometry":{"coordinates":[10.907344,49.907656],"type":"Point"},"properties":{"osm_id":"7165360158","tag":{"amenity":"waste_basket"}},"type":"Feature"},
	{"geometry":{"coordinates":[10.90936,49.908119],"type":"Point"},"properties":{"osm_id":"7165360176","tag":{"amenity":"waste_basket"}},"type":"Feature"},
	{"geometry":{"coordinates":[10.910184,49.908456],"type":"Point"},"properties":{"osm_id":"7165360177","tag":{"amenity":"waste_basket"}},"type":"Feature"},
	{"geometry":{"coordinates":[10.910652,49.908642],"type":"Point"},"properties":{"osm_id":"7165360178","tag":{"amenity":"waste_basket"}},"type":"Feature"},
	{"geometry":{"coordinates":[10.916599,49.943998],"type":"Point"},"properties":{"osm_id":"7227389303","tag":{"amenity":"waste_basket"}},"type":"Feature"},
	{"geometry":{"coordinates":[10.952997,49.932575],"type":"Point"},"properties":{"osm_id":"7235313634","tag":{"amenity":"waste_basket"}},"type":"Feature"},
	{"geometry":{"coordinates":[10.956089,49.935408],"type":"Point"},"properties":{"osm_id":"7235313667","tag":{"amenity":"recycling","recycling:cans":"yes","recycling:clothes":"yes","recycling:glass_bottles":"yes","recycling:shoes":"yes","recycling_type":"container"}},"type":"Feature"},
	{"geometry":{"coordinates":[10.958036,49.934933],"type":"Point"},"properties":{"osm_id":"7235313670","tag":{"amenity":"waste_basket"}},"type":"Feature"},
	{"geometry":{"coordinates":[10.959996,49.934804],"type":"Point"},"properties":{"osm_id":"7235342087","tag":{"amenity":"waste_basket"}},"type":"Feature"},
	{"geometry":{"coordinates":[10.95626,49.932502],"type":"Point"},"properties":{"osm_id":"7235342111","tag":{"amenity":"waste_disposal"}},"type":"Feature"},
	{"geometry":{"coordinates":[10.97177,49.942053],"type":"Point"},"properties":{"osm_id":"7643198996","tag":{"amenity":"waste_basket"}},"type":"Feature"},
	{"geometry":{"coordinates":[10.951398,49.930761],"type":"Point"},"properties":{"osm_id":"7742914779","tag":{"amenity":"waste_basket"}},"type":"Feature"},
	{"geometry":{"coordinates":[10.95289,49.929423],"type":"Point"},"properties":{"osm_id":"7742914780","tag":{"amenity":"waste_basket"}},"type":"Feature"},
	{"geometry":{"coordinates":[10.899668,49.897415],"type":"Point"},"properties":{"osm_id":"7847157704","tag":{"amenity":"waste_basket"}},"type":"Feature"},
	{"geometry":{"coordinates":[10.8986,49.900069],"type":"Point"},"properties":{"osm_id":"7877927710","tag":{"amenity":"waste_basket"}},"type":"Feature"},
	{"geometry":{"coordinates":[10.89885,49.89535],"type":"Point"},"properties":{"osm_id":"7887793475","tag":{"amenity":"waste_basket"}},"type":"Feature"},
	{"geometry":{"coordinates":[10.898948,49.895313],"type":"Point"},"properties":{"osm_id":"7887793476","tag":{"amenity":"waste_basket"}},"type":"Feature"},
	{"geometry":{"coordinates":[10.90375,49.906759],"type":"Point"},"properties":{"osm_id":"7947842521","tag":{"amenity":"waste_basket"}},"type":"Feature"},
	{"geometry":{"coordinates":[10.903841,49.906837],"type":"Point"},"properties":{"osm_id":"7947842522","tag":{"amenity":"waste_basket"}},"type":"Feature"},
	{"geometry":{"coordinates":[10.903824,49.906914],"type":"Point"},"properties":{"osm_id":"7947842523","tag":{"amenity":"waste_basket"}},"type":"Feature"},
	{"geometry":{"coordinates":[10.904026,49.906846],"type":"Point"},"properties":{"osm_id":"7947842525","tag":{"amenity":"waste_basket"}},"type":"Feature"},
	{"geometry":{"coordinates":[10.904102,49.906889],"type":"Point"},"properties":{"osm_id":"7947842526","tag":{"amenity":"waste_basket"}},"type":"Feature"},
	{"geometry":{"coordinates":[10.904109,49.906947],"type":"Point"},"properties":{"osm_id":"7947842534","tag":{"amenity":"waste_basket"}},"type":"Feature"},
	{"geometry":{"coordinates":[10.904071,49.907183],"type":"Point"},"properties":{"osm_id":"7947842541","tag":{"amenity":"waste_basket"}},"type":"Feature"}
]
}
