{
"type": "FeatureCollection",
"features": [
	{"geometry":{"coordinates":[10.915795,49.882047],"type":"Point"},"properties":{"osm_id":"372708714","tag":{"amenity":"recycling","recycling:clothes":"yes","recycling:glass_bottles":"yes","recycling_type":"container"}},"type":"Feature"},
	{"geometry":{"coordinates":[10.915569,49.883697],"type":"Point"},"properties":{"osm_id":"372775208","tag":{"amenity":"recycling","recycling:clothes":"yes","recycling:glass_bottles":"yes","recycling:shoes":"yes","recycling_type":"container"}},"type":"Feature"},
	{"geometry":{"coordinates":[10.923633,49.894463],"type":"Point"},"properties":{"osm_id":"389004003","tag":{"amenity":"recycling","recycling:glass_bottles":"yes","recycling_type":"container"}},"type":"Feature"},
	{"geometry":{"coordinates":[10.923238,49.892288],"type":"Point"},"properties":{"osm_id":"394850100","tag":{"amenity":"recycling","recycling:clothes":"yes","recycling:glass_bottles":"yes","recycling_type":"container"}},"type":"Feature"},
	{"geometry":{"coordinates":[10.907984,49.891829],"type":"Point"},"properties":{"osm_id":"422702723","tag":{"amenity":"recycling","recycling:clothes":"yes","recycling:glass_bottles":"yes","recycling_type":"container"}},"type":"Feature"},
	{"geometry":{"coordinates":[10.900326,49.893231],"type":"Point"},"properties":{"osm_id":"423962272","tag":{"amenity":"recycling","recycling:glass_bottles":"yes","recycling_type":"container"}},"type":"Feature"},
	{"geometry":{"coordinates":[10.905877,49.887385],"type":"Point"},"properties":{"osm_id":"428450121","tag":{"amenity":"recycling","recycling:clothes":"yes","recycling:glass_bottles":"yes","recycling:shoes":"yes","recycling_type":"container"}},"type":"Feature"},
	{"geometry":{"coordinates":[10.905119,49.889673],"type":"Point"},"properties":{"osm_id":"428467388","tag":{"amenity":"recycling","recycling:clothes":"yes","recycling:glass_bottles":"yes","recycling_type":"container"}},"type":"Feature"},
	{"geometry":{"coordinates":[10.91464,49.887764],"type":"Point"},"properties":{"osm_id":"429459758","tag":{"amenity":"recycling","recycling:clothes":"yes","recycling:glass_bottles":"yes","recycling_type":"container"}},"type":"Feature"},
	{"geometry":{"coordinates":[10.910204,49.890998],"type":"Point"},"properties":{"osm_id":"429459780","tag":{"amenity":"recycling","recycling:clothes":"yes","recycling:glass_bottles":"yes","recycling_type":"container"}},"type":"Feature"},
	{"geometry":{"coordinates":[10.908521,49.88695],"type":"Point"},"properties":{"osm_id":"439210922","tag":{"amenity":"recycling","recycling:clothes":"yes","recycling:glass_bottles":"yes","recycling_type":"container"}},"type":"Feature"},
	{"geometry":{"coordinates":[10.902381,49.885945],"type":"Point"},"properties":{"osm_id":"440663201","tag":{"amenity":"recycling","recycling:clothes":"yes","recycling:glass_bottles":"yes","recycling_type":"container"}},"type":"Feature"},
	{"geometry":{"coordinates":[10.899297,49.88139],"type":"Point"},"properties":{"osm_id":"446763619","tag":{"amenity":"recycling","recycling:clothes":"yes","recycling:glass_bottles":"yes","recycling_type":"container"}},"type":"Feature"},
	{"geometry":{"coordinates":[10.907855,49.867301],"type":"Point"},"properties":{"osm_id":"455439230","tag":{"amenity":"recycling","recycling:clothes":"yes","recycling:glass_bottles":"yes","recycling_type":"container"}},"type":"Feature"},
	{"geometry":{"coordinates":[10.920694,49.883141],"type":"Point"},"properties":{"osm_id":"479223938","tag":{"amenity":"recycling","recycling:clothes":"yes","recycling:glass_bottles":"yes","recycling_type":"container"}},"type":"Feature"},
	{"geometry":{"coordinates":[10.908286,49.885889],"type":"Point"},"properties":{"osm_id":"814716463","tag":{"amenity":"recycling","recycling:clothes":"yes","recycling:glass_bottles":"yes","recycling:shoes":"yes","recycling_type":"container"}},"type":"Feature"},
	{"geometry":{"coordinates":[10.923636,49.894359],"type":"Point"},"properties":{"osm_id":"864936469","tag":{"amenity":"recycling","recycling:clothes":"yes","recycling_type":"container"}},"type":"Feature"},
	{"geometry":{"coordinates":[10.919588,49.894196],"type":"Point"},"properties":{"osm_id":"869977408","tag":{"amenity":"recycling","recycling:clothes":"yes","recycling_type":"container"}},"type":"Feature"},
	{"geometry":{"coordinates":[10.974251,49.847936],"type":"Point"},"properties":{"osm_id":"1029943659","tag":{"amenity":"recycling","location":"overground","recycling_type":"container"}},"type":"Feature"},
	{"geometry":{"coordinates":[10.912762,49.885906],"type":"Point"},"properties":{"osm_id":"1639152521","tag":{"amenity":"recycling","recycling:clothes":"yes","recycling:glass_bottles":"yes","recycling_type":"container"}},"type":"Feature"},
	{"geometry":{"coordinates":[10.902992,49.886655],"type":"Point"},"properties":{"osm_id":"1639173591","tag":{"amenity":"waste_basket"}},"type":"Feature"},
	{"geometry":{"coordinates":[10.902385,49.88814],"type":"Point"},"properties":{"osm_id":"1639173593","tag":{"amenity":"waste_basket"}},"type":"Feature"},
	{"geometry":{"coordinates":[10.900736,49.890103],"type":"Point"},"properties":{"osm_id":"1639173599","tag":{"amenity":"waste_basket"}},"type":"Feature"},
	{"geometry":{"coordinates":[10.899631,49.891139],"type":"Point"},"properties":{"osm_id":"1639173601","tag":{"amenity":"waste_basket"}},"type":"Feature"},
	{"geometry":{"coordinates":[10.899064,49.891532],"type":"Point"},"properties":{"osm_id":"1639173604","tag":{"amenity":"waste_basket"}},"type":"Feature"},
	{"geometry":{"coordinates":[10.90376,49.888783],"type":"Point"},"properties":{"osm_id":"1645656406","tag":{"amenity":"waste_basket"}},"type":"Feature"},
	{"geometry":{"coordinates":[10.903149,49.889366],"type":"Point"},"properties":{"osm_id":"1645656409","tag":{"amenity":"waste_basket"}},"type":"Feature"},
	{"geometry":{"coordinates":[10.90253,49.890014],"type":"Point"},"properties":{"osm_id":"1645656418","tag":{"amenity":"waste_basket"}},"type":"Feature"},
	{"geometry":{"coordinates":[10.901801,49.890766],"type":"Point"},"properties":{"osm_id":"1645656427","tag":{"amenity":"waste_basket"}},"type":"Feature"},
	{"geometry":{"coordinates":[10.900755,49.891563],"type":"Point"},"properties":{"osm_id":"1645656431","tag":{"amenity":"waste_basket"}},"type":"Feature"},
	{"geometry":{"coordinates":[10.899858,49.89231],"type":"Point"},"properties":{"osm_id":"1645656443","tag":{"amenity":"waste_basket"}},"type":"Feature"},
	{"geometry":{"coordinates":[10.898952,49.892842],"type":"Point"},"properties":{"osm_id":"1645656448","tag":{"amenity":"waste_basket"}},"type":"Feature"},
	{"geometry":{"coordinates":[10.902227,49.884093],"type":"Point"},"properties":{"osm_id":"1645678597","tag":{"amenity":"waste_basket"}},"type":"Feature"},
	{"geometry":{"coordinates":[10.904751,49.879545],"type":"Point"},"properties":{"osm_id":"1646884789","tag":{"amenity":"waste_basket"}},"type":"Feature"},
	{"geometry":{"coordinates":[10.904357,49.882224],"type":"Point"},"properties":{"osm_id":"1646884806","tag":{"amenity":"waste_basket"}},"type":"Feature"},
	{"geometry":{"coordinates":[10.903463,49.882759],"type":"Point"},"properties":{"osm_id":"1646884808","tag":{"amenity":"waste_basket"}},"type":"Feature"},
	{"geometry":{"coordinates":[10.900839,49.88927],"type":"Point"},"properties":{"osm_id":"1651698604","tag":{"amenity":"recycling","recycling:clothes":"yes","recycling:glass_bottles":"yes","recycling_type":"container"}},"type":"Feature"},
	{"geometry":{"coordinates":[10.908005,49.891849],"type":"Point"},"properties":{"osm_id":"1660853148","tag":{"amenity":"waste_basket"}},"type":"Feature"},
	{"geometry":{"coordinates":[10.908555,49.886943],"type":"Point"},"properties":{"osm_id":"1686053508","tag":{"amenity":"waste_basket"}},"type":"Feature"},
	{"geometry":{"coordinates":[10.917911,49.881957],"type":"Point"},"properties":{"osm_id":"1704189896","tag":{"amenity":"recycling","recycling:clothes":"yes","recycling:glass_bottles":"yes","recycling:shoes":"yes","recycling_type":"container"}},"type":"Feature"},
	{"geometry":{"coordinates":[10.902686,49.878345],"type":"Point"},"properties":{"osm_id":"1704198441","tag":{"amenity":"waste_basket"}},"type":"Feature"},
	{"geometry":{"coordinates":[10.901763,49.88044],"type":"Point"},"properties":{"osm_id":"1704198476","tag":{"amenity":"waste_basket"}},"type":"Feature"},
	{"geometry":{"coordinates":[10.901665,49.881021],"type":"Point"},"properties":{"osm_id":"1704198478","tag":{"amenity":"waste_basket"}},"type":"Feature"},
	{"geometry":{"coordinates":[10.902348,49.886009],"type":"Point"},"properties":{"osm_id":"1704220603","tag":{"amenity":"waste_basket"}},"type":"Feature"},
	{"geometry":{"coordinates":[10.902271,49.886411],"type":"Point"},"properties":{"osm_id":"1704220605","tag":{"amenity":"waste_basket"}},"type":"Feature"},
	{"geometry":{"coordinates":[10.900756,49.882357],"type":"Point"},"properties":{"osm_id":"1805148717","tag":{"amenity":"waste_basket"}},"type":"Feature"},
	{"geometry":{"coordinates":[10.909954,49.885179],"type":"Point"},"properties":{"osm_id":"1985577032","tag":{"amenity":"waste_basket"}},"type":"Feature"},
	{"geometry":{"coordinates":[10.906949,49.88678],"type":"Point"},"properties":{"osm_id":"1985577041","tag":{"amenity":"waste_basket"}},"type":"Feature"},
	{"geometry":{"coordinates":[10.900521,49.893373],"type":"Point"},"properties":{"osm_id":"1988509094","tag":{"amenity":"waste_basket"}},"type":"Feature"},
	{"geometry":{"coordinates":[10.900473,49.893436],"type":"Point"},"properties":{"osm_id":"1988509100","tag":{"amenity":"waste_basket"}},"type":"Feature"},
	{"geometry":{"coordinates":[10.916452,49.881759],"type":"Point"},"properties":{"osm_id":"2000306289","tag":{"amenity":"waste_basket"}},"type":"Feature"},
	{"geometry":{"coordinates":[10.923065,49.893576],"type":"Point"},"properties":{"osm_id":"2094570069","tag":{"amenity":"waste_basket"}},"type":"Feature"},
	{"geometry":{"coordinates":[10.92385,49.894221],"type":"Point"},"properties":{"osm_id":"2094570127","tag":{"amenity":"waste_basket"}},"type":"Feature"},
	{"geometry":{"coordinates":[10.921049,49.882705],"type":"Point"},"properties":{"osm_id":"2098203961","tag":{"amenity":"recycling","recycling:clothes":"yes","recycling_type":"container"}},"type":"Feature"},
	{"geometry":{"coordinates":[10.914549,49.887844],"type":"Point"},"properties":{"osm_id":"2098203993","tag":{"amenity":"waste_basket"}},"type":"Feature"},
	{"geometry":{"coordinates":[10.902787,49.890177],"type":"Point"},"properties":{"osm_id":"2117348586","tag":{"amenity":"waste_basket"}},"type":"Feature"},
	{"geometry":{"coordinates":[10.907845,49.86721],"type":"Point"},"properties":{"osm_id":"2133325157","tag":{"amenity":"waste_basket"}},"type":"Feature"},
	{"geometry":{"coordinates":[10.907259,49.883334],"type":"Point"},"properties":{"osm_id":"2144977993","tag":{"amenity":"waste_basket"}},"type":"Feature"},
	{"geometry":{"coordinates":[10.906634,49.884453],"type":"Point"},"properties":{"osm_id":"2144977995","tag":{"amenity":"waste_basket"}},"type":"Feature"},
	{"geometry":{"coordinates":[10.906077,49.885456],"type":"Point"},"properties":{"osm_id":"2144977997","tag":{"amenity":"waste_basket"}},"type":"Feature"},
	{"geometry":{"coordinates":[10.90503,49.887152],"type":"Point"},"properties":{"osm_id":"2144977999","tag":{"amenity":"waste_basket"}},"type":"Feature"},
	{"geometry":{"coordinates":[10.898728,49.894468],"type":"Point"},"properties":{"osm_id":"2171698791","tag":{"amenity":"waste_basket"}},"type":"Feature"},
	{"geometry":{"coordinates":[10.919683,49.881127],"type":"Point"},"properties":{"osm_id":"2213158292","tag":{"amenity":"waste_basket"}},"type":"Feature"},
	{"geometry":{"coordinates":[10.917922,49.881834],"type":"Point"},"properties":{"osm_id":"2213158300","tag":{"amenity":"waste_basket"}},"type":"Feature"},
	{"geometry":{"coordinates":[10.915869,49.883221],"type":"Point"},"properties":{"osm_id":"2213158321","tag":{"amenity":"waste_basket"}},"type":"Feature"},
	{"geometry":{"coordinates":[10.912117,49.886252],"type":"Point"},"properties":{"osm_id":"2213158334","tag":{"amenity":"waste_basket"}},"type":"Feature"},
	{"geometry":{"coordinates":[10.898741,49.879759],"type":"Point"},"properties":{"osm_id":"2339662476","tag":{"amenity":"waste_basket"}},"type":"Feature"},
	{"geometry":{"coordinates":[10.900544,49.877],"type":"Point"},"properties":{"osm_id":"2342169440","tag":{"amenity":"waste_basket"}},"type":"Feature"},
	{"geometry":{"coordinates":[10.89867,49.880299],"type":"Point"},"properties":{"osm_id":"2342169442","tag":{"amenity":"waste_basket"}},"type":"Feature"},
	{"geometry":{"coordinates":[10.903929,49.875687],"type":"Point"},"properties":{"osm_id":"2419631921","tag":{"amenity":"waste_basket"}},"type":"Feature"},
	{"geometry":{"coordinates":[10.904311,49.876669],"type":"Point"},"properties":{"osm_id":"2419631924","tag":{"amenity":"waste_basket"}},"type":"Feature"},
	{"geometry":{"coordinates":[10.90476,49.878014],"type":"Point"},"properties":{"osm_id":"2419631925","tag":{"amenity":"waste_basket"}},"type":"Feature"},
	{"geometry":{"coordinates":[10.966892,49.842354],"type":"Point"},"properties":{"osm_id":"2527552040","tag":{"amenity":"recycling","recycling:cans":"yes","recycling:glass_bottles":"yes","recycling_type":"container"}},"type":"Feature"},
	{"geometry":{"coordinates":[10.91544,49.867903],"type":"Point"},"properties":{"osm_id":"2973188302","tag":{"amenity":"waste_basket"}},"type":"Feature"},
	{"geometry":{"coordinates":[10.906522,49.874914],"type":"Point"},"properties":{"osm_id":"2973191673","tag":{"amenity":"waste_basket"}},"type":"Feature"},
	{"geometry":{"coordinates":[10.911162,49.88479],"type":"Point"},"properties":{"osm_id":"3145712682","tag":{"amenity":"waste_basket"}},"type":"Feature"},
	{"geometry":{"coordinates":[10.899373,49.880879],"type":"Point"},"properties":{"osm_id":"3348198377","tag":{"amenity":"waste_basket"}},"type":"Feature"},
	{"geometry":{"coordinates":[10.901754,49.883166],"type":"Point"},"properties":{"osm_id":"3348198382","tag":{"amenity":"waste_basket"}},"type":"Feature"},
	{"geometry":{"coordinates":[10.905771,49.89021],"type":"Point"},"properties":{"osm_id":"3350305571","tag":{"amenity":"waste_basket"}},"type":"Feature"},
	{"geometry":{"coordinates":[10.973366,49.840442],"type":"Point"},"properties":{"osm_id":"3368859056","tag":{"amenity":"recycling","recycling:clothes":"yes","recycling_type":"container"}},"type":"Feature"},
	{"geometry":{"coordinates":[10.970266,49.845033],"type":"Point"},"properties":{"osm_id":"3397005790","tag":{"amenity":"waste_basket"}},"type":"Feature"},
	{"geometry":{"coordinates":[10.96248,49.845323],"type":"Point"},"properties":{"osm_id":"3397006896","tag":{"amenity":"waste_basket"}},"type":"Feature"},
	{"geometry":{"coordinates":[10.915555,49.88371],"type":"Point"},"properties":{"osm_id":"3471681694","tag":{"amenity":"waste_basket"}},"type":"Feature"},
	{"geometry":{"coordinates":[10.902136,49.879491],"type":"Point"},"properties":{"osm_id":"3657652386","tag":{"amenity":"waste_basket"}},"type":"Feature"},
	{"geometry":{"coordinates":[10.900779,49.880137],"type":"Point"},"properties":{"osm_id":"3657652390","tag":{"amenity":"waste_basket"}},"type":"Feature"},
	{"geometry":{"coordinates":[10.911304,49.886844],"type":"Point"},"properties":{"osm_id":"3667140683","tag":{"amenity":"waste_basket"}},"type":"Feature"},
	{"geometry":{"coordinates":[10.983378,49.842217],"type":"Point"},"properties":{"osm_id":"4026369447","tag":{"amenity":"waste_basket"}},"type":"Feature"},
	{"geometry":{"coordinates":[10.904351,49.871897],"type":"Point"},"properties":{"osm_id":"4130738105","tag":{"amenity":"waste_basket"}},"type":"Feature"},
	{"geometry":{"coordinates":[10.904232,49.872149],"type":"Point"},"properties":{"osm_id":"4130738106","tag":{"amenity":"waste_basket"}},"type":"Feature"},
	{"geometry":{"coordinates":[10.905184,49.872228],"type":"Point"},"properties":{"osm_id":"4130738107","tag":{"amenity":"waste_basket"}},"type":"Feature"},
	{"geometry":{"coordinates":[10.905374,49.874167],"type":"Point"},"properties":{"osm_id":"4130738114","tag":{"amenity":"waste_basket"}},"type":"Feature"},
	{"geometry":{"coordinates":[10.902848,49.874806],"type":"Point"},"properties":{"osm_id":"4130738118","tag":{"amenity":"waste_basket"}},"type":"Feature"},
	{"geometry":{"coordinates":[10.905186,49.876074],"type":"Point"},"properties":{"osm_id":"4130738125","tag":{"amenity":"waste_basket"}},"type":"Feature"},
	{"geometry":{"coordinates":[10.901099,49.878194],"type":"Point"},"properties":{"osm_id":"4130738135","tag":{"amenity":"waste_basket"}},"type":"Feature"},
	{"geometry":{"coordinates":[10.966275,49.842384],"type":"Point"},"properties":{"osm_id":"4136126944","tag":{"amenity":"waste_basket"}},"type":"Feature"},
	{"geometry":{"coordinates":[10.939209,49.847149],"type":"Point"},"properties":{"osm_id":"4136237737","tag":{"amenity":"waste_basket"}},"type":"Feature"},
	{"geometry":{"coordinates":[10.941745,49.849514],"type":"Point"},"properties":{"osm_id":"4339532175","tag":{"amenity":"waste_basket"}},"type":"Feature"},
	{"geometry":{"coordinates":[10.908231,49.886167],"type":"Point"},"properties":{"osm_id":"4347302675","tag":{"amenity":"waste_basket"}},"type":"Feature"},
	{"geometry":{"coordinates":[10.905284,49.890211],"type":"Point"},"properties":{"osm_id":"4348487568","tag":{"amenity":"waste_basket"}},"type":"Feature"},
	{"geometry":{"coordinates":[10.905719,49.889934],"type":"Point"},"properties":{"osm_id":"4352646493","tag":{"amenity":"waste_basket"}},"type":"Feature"},
	{"geometry":{"coordinates":[10.908116,49.888817],"type":"Point"},"properties":{"osm_id":"4556518918","tag":{"amenity":"waste_basket"}},"type":"Feature"},
	{"geometry":{"coordinates":[10.903088,49.87342],"type":"Point"},"properties":{"osm_id":"4756230296","tag":{"amenity":"waste_basket"}},"type":"Feature"},
	{"geometry":{"coordinates":[10.901987,49.87527],"type":"Point"},"properties":{"osm_id":"4756230300","tag":{"amenity":"waste_basket"}},"type":"Feature"},
	{"geometry":{"coordinates":[10.899139,49.87827],"type":"Point"},"properties":{"osm_id":"4756230306","tag":{"amenity":"waste_basket"}},"type":"Feature"},
	{"geometry":{"coordinates":[10.902998,49.885753],"type":"Point"},"properties":{"osm_id":"4764604052","tag":{"amenity":"waste_disposal","description":"M\u00c3\u00bcll und Recycling f\u00c3\u00bcr Wohnmobile","fee":"yes"}},"type":"Feature"},
	{"geometry":{"coordinates":[10.899512,49.879537],"type":"Point"},"properties":{"osm_id":"4938903738","tag":{"amenity":"waste_basket"}},"type":"Feature"},
	{"geometry":{"coordinates":[10.961989,49.845122],"type":"Point"},"properties":{"osm_id":"6010363948","tag":{"amenity":"waste_basket","layer":"-1","level":"-1"}},"type":"Feature"},
	{"geometry":{"coordinates":[10.962136,49.845204],"type":"Point"},"properties":{"osm_id":"6010363949","tag":{"amenity":"waste_basket","layer":"-1","level":"-1"}},"type":"Feature"},
	{"geometry":{"coordinates":[10.956267,49.846211],"type":"Point"},"properties":{"osm_id":"6010383767","tag":{"amenity":"waste_basket"}},"type":"Feature"},
	{"geometry":{"coordinates":[10.956834,49.845527],"type":"Point"},"properties":{"osm_id":"6010383769","tag":{"amenity":"waste_basket"}},"type":"Feature"},
	{"geometry":{"coordinates":[10.957318,49.845145],"type":"Point"},"properties":{"osm_id":"6010383770","tag":{"amenity":"waste_basket"}},"type":"Feature"},
	{"geometry":{"coordinates":[10.957869,49.844896],"type":"Point"},"properties":{"osm_id":"6010383772","tag":{"amenity":"waste_basket"}},"type":"Feature"},
	{"geometry":{"coordinates":[10.901347,49.877664],"type":"Point"},"properties":{"osm_id":"6372580017","tag":{"amenity":"waste_basket"}},"type":"Feature"},
	{"geometry":{"coordinates":[10.904897,49.875655],"type":"Point"},"properties":{"osm_id":"6372580021","tag":{"amenity":"waste_basket"}},"type":"Feature"},
	{"geometry":{"coordinates":[10.911473,49.86613],"type":"Point"},"properties":{"osm_id":"6482028787","tag":{"amenity":"recycling","location":"overground","recycling:clothes":"yes","recycling_type":"container"}},"type":"Feature"},
	{"geometry":{"coordinates":[10.917138,49.861239],"type":"Point"},"properties":{"osm_id":"6482052576","tag":{"amenity":"recycling"}},"type":"Feature"},
	{"geometry":{"coordinates":[10.903562,49.878506],"type":"Point"},"properties":{"osm_id":"6504327547","tag":{"amenity":"waste_basket"}},"type":"Feature"},
	{"geometry":{"coordinates":[10.905465,49.886429],"type":"Point"},"properties":{"osm_id":"6990075420","tag":{"amenity":"waste_basket"}},"type":"Feature"},
	{"geometry":{"coordinates":[10.906107,49.886082],"type":"Point"},"properties":{"osm_id":"6990113350","tag":{"amenity":"waste_basket"}},"type":"Feature"},
	{"geometry":{"coordinates":[10.902314,49.881781],"type":"Point"},"properties":{"osm_id":"6990218810","tag":{"amenity":"waste_basket"}},"type":"Feature"},
	{"geometry":{"coordinates":[10.902249,49.881553],"type":"Point"},"properties":{"osm_id":"6990218811","tag":{"amenity":"waste_basket"}},"type":"Feature"},
	{"geometry":{"coordinates":[10.903909,49.881107],"type":"Point"},"properties":{"osm_id":"6990218847","tag":{"amenity":"waste_basket"}},"type":"Feature"},
	{"geometry":{"coordinates":[10.903662,49.881455],"type":"Point"},"properties":{"osm_id":"6990218866","tag":{"amenity":"waste_basket"}},"type":"Feature"},
	{"geometry":{"coordinates":[10.90038,49.878339],"type":"Point"},"properties":{"osm_id":"7008797357","tag":{"amenity":"waste_basket"}},"type":"Feature"},
	{"geometry":{"coordinates":[10.904466,49.871977],"type":"Point"},"properties":{"osm_id":"7008797362","tag":{"amenity":"waste_basket"}},"type":"Feature"},
	{"geometry":{"coordinates":[10.904355,49.881145],"type":"Point"},"properties":{"osm_id":"7009156848","tag":{"amenity":"waste_basket"}},"type":"Feature"},
	{"geometry":{"coordinates":[10.903164,49.881095],"type":"Point"},"properties":{"osm_id":"7009156867","tag":{"amenity":"waste_basket"}},"type":"Feature"},
	{"geometry":{"coordinates":[10.903186,49.880409],"type":"Point"},"properties":{"osm_id":"7009162800","tag":{"amenity":"waste_basket"}},"type":"Feature"},
	{"geometry":{"coordinates":[10.902832,49.880218],"type":"Point"},"properties":{"osm_id":"7009162806","tag":{"amenity":"waste_basket"}},"type":"Feature"},
	{"geometry":{"coordinates":[10.902797,49.880161],"type":"Point"},"properties":{"osm_id":"7009162807","tag":{"amenity":"waste_basket"}},"type":"Feature"},
	{"geometry":{"coordinates":[10.901565,49.88049],"type":"Point"},"properties":{"osm_id":"7009162815","tag":{"amenity":"waste_basket"}},"type":"Feature"},
	{"geometry":{"coordinates":[10.901589,49.880673],"type":"Point"},"properties":{"osm_id":"7009162816","tag":{"amenity":"waste_basket"}},"type":"Feature"},
	{"geometry":{"coordinates":[10.902296,49.879085],"type":"Point"},"properties":{"osm_id":"7009162820","tag":{"amenity":"waste_basket"}},"type":"Feature"},
	{"geometry":{"coordinates":[10.901799,49.876796],"type":"Point"},"properties":{"osm_id":"7023311723","tag":{"amenity":"waste_basket"}},"type":"Feature"},
	{"geometry":{"coordinates":[10.908221,49.885982],"type":"Point"},"properties":{"osm_id":"7027674530","tag":{"amenity":"waste_basket"}},"type":"Feature"},
	{"geometry":{"coordinates":[10.901747,49.888856],"type":"Point"},"properties":{"osm_id":"7027692617","tag":{"amenity":"waste_basket"}},"type":"Feature"},
	{"geometry":{"coordinates":[10.898518,49.891787],"type":"Point"},"properties":{"osm_id":"7027692618","tag":{"amenity":"waste_basket"}},"type":"Feature"},
	{"geometry":{"coordinates":[10.89862,49.891713],"type":"Point"},"properties":{"osm_id":"7027692619","tag":{"amenity":"waste_basket"}},"type":"Feature"},
	{"geometry":{"coordinates":[10.898684,49.891666],"type":"Point"},"properties":{"osm_id":"7027692620","tag":{"amenity":"waste_basket"}},"type":"Feature"},
	{"geometry":{"coordinates":[10.904644,49.890047],"type":"Point"},"properties":{"osm_id":"7035228362","tag":{"amenity":"waste_basket"}},"type":"Feature"},
	{"geometry":{"coordinates":[10.904644,49.89016],"type":"Point"},"properties":{"osm_id":"7035228363","tag":{"amenity":"waste_basket"}},"type":"Feature"},
	{"geometry":{"coordinates":[10.912149,49.88567],"type":"Point"},"properties":{"osm_id":"7035243091","tag":{"amenity":"waste_basket"}},"type":"Feature"},
	{"geometry":{"coordinates":[10.909783,49.885593],"type":"Point"},"properties":{"osm_id":"7035243096","tag":{"amenity":"waste_basket"}},"type":"Feature"},
	{"geometry":{"coordinates":[10.900298,49.893225],"type":"Point"},"properties":{"osm_id":"7096038418","tag":{"amenity":"waste_basket"}},"type":"Feature"},
	{"geometry":{"coordinates":[10.907892,49.892606],"type":"Point"},"properties":{"osm_id":"7125723827","tag":{"amenity":"waste_basket"}},"type":"Feature"},
	{"geometry":{"coordinates":[10.907478,49.89267],"type":"Point"},"properties":{"osm_id":"7125723830","tag":{"amenity":"waste_basket"}},"type":"Feature"},
	{"geometry":{"coordinates":[10.906576,49.893206],"type":"Point"},"properties":{"osm_id":"7125723832","tag":{"amenity":"waste_basket"}},"type":"Feature"},
	{"geometry":{"coordinates":[10.91738,49.892267],"type":"Point"},"properties":{"osm_id":"7126006426","tag":{"amenity":"waste_basket"}},"type":"Feature"},
	{"geometry":{"coordinates":[10.919951,49.880325],"type":"Point"},"properties":{"osm_id":"7136987429","tag":{"amenity":"waste_basket"}},"type":"Feature"},
	{"geometry":{"coordinates":[10.902033,49.883646],"type":"Point"},"properties":{"osm_id":"7148401906","tag":{"amenity":"waste_basket"}},"type":"Feature"},
	{"geometry":{"coordinates":[10.901487,49.887512],"type":"Point"},"properties":{"osm_id":"7148401914","tag":{"amenity":"waste_basket"}},"type":"Feature"},
	{"geometry":{"coordinates":[10.904291,49.876191],"type":"Point"},"properties":{"osm_id":"7153543417","tag":{"amenity":"waste_basket"}},"type":"Feature"},
	{"geometry":{"coordinates":[10.903512,49.880016],"type":"Point"},"properties":{"osm_id":"7160389221","tag":{"amenity":"waste_basket"}},"type":"Feature"},
	{"geometry":{"coordinates":[10.903416,49.880097],"type":"Point"},"properties":{"osm_id":"7160389226","tag":{"amenity":"waste_basket"}},"type":"Feature"},
	{"geometry":{"coordinates":[10.902976,49.879266],"type":"Point"},"properties":{"osm_id":"7160389228","tag":{"amenity":"waste_basket"}},"type":"Feature"},
	{"geometry":{"coordinates":[10.90296,49.877733],"type":"Point"},"properties":{"osm_id":"7160389241","tag":{"amenity":"waste_basket"}},"type":"Feature"},
	{"geometry":{"coordinates":[10.902649,49.884992],"type":"Point"},"properties":{"osm_id":"7160392781","tag":{"amenity":"waste_basket"}},"type":"Feature"}
]
}
