{
"type": "FeatureCollection",
"features": [
	{"geometry":{"coordinates":[10.977632,49.587305],"type":"Point"},"properties":{"osm_id":"301903508","tag":{"amenity":"recycling","location":"overground","recycling:cans":"yes","recycling:clothes":"yes","recycling:glass_bottles":"yes","recycling_type":"container"}},"type":"Feature"},
	{"geometry":{"coordinates":[10.964075,49.559842],"type":"Point"},"properties":{"name":"Kompostierungsanlage","osm_id":"310296416","tag":{"addr:city":"Erlangen","addr:housename":"Kompostierungsanlage der Stadt Erlangen","addr:housenumber":"11","addr:postcode":"91056","addr:street":"Neuenweiherstra\u00c3\u009fe","amenity":"recycling","description":"Bietet Kompost lose oder in S\u00c3\u00a4cken an.","opening_hours":"Mar-Nov Mo-Fr 7:00-12:00,13:00-15:45; Sa 07:00-13:00","operator":"Stadt Erlangen","operator:type":"government","phone":"+49 9131 990180","recycling:green_waste":"yes","recycling:wood":"yes","recycling_type":"centre","shop":"compost","website":"https://www.erlangen.de/kompost"}},"type":"Feature"},
	{"geometry":{"coordinates":[10.983185,49.605632],"type":"Point"},"properties":{"osm_id":"320160037","tag":{"amenity":"recycling","location":"overground","recycling:cans":"no","recycling:glass_bottles":"yes","recycling_type":"container"}},"type":"Feature"},
	{"geometry":{"coordinates":[10.908494,49.56671],"type":"Point"},"properties":{"osm_id":"332474206","tag":{"amenity":"recycling","location":"overground","recycling:cans":"yes","recycling:glass_bottles":"yes","recycling_type":"container"}},"type":"Feature"},
	{"geometry":{"coordinates":[10.962038,49.596167],"type":"Point"},"properties":{"osm_id":"424241026","tag":{"amenity":"recycling","location":"overground","recycling:glass":"yes","recycling_type":"container"}},"type":"Feature"},
	{"geometry":{"coordinates":[10.957968,49.598596],"type":"Point"},"properties":{"osm_id":"467878659","tag":{"amenity":"waste_basket"}},"type":"Feature"},
	{"geometry":{"coordinates":[10.968578,49.583926],"type":"Point"},"properties":{"name":"M\u00c3\u00bcllumladestation Erlangen","osm_id":"472378464","tag":{"addr:city":"Erlangen","addr:country":"DE","addr:housenumber":"5a","addr:postcode":"91056","addr:street":"Am Hafen","amenity":"recycling","contact:email":"info@zva-erlangen.de","contact:fax":"+49 9131 9959127","contact:phone":"+49 9131 992600","contact:website":"https://www.zva-erlangen.de/html/anl-er.php","opening_hours":"Mo-Fr 07:00-12:00,13:00-17:00; Sa 08:00-14:00","operator":"Zweckverband Abfallwirtschaft Stadt Erlangen Landkreis Erlangen-H\u00c3\u00b6chstadt","recycling:aluminium":"yes","recycling:animal_waste":"no","recycling:batteries":"yes","recycling:cans":"yes","recycling:car_batteries":"yes","recycling:cardboard":"yes","recycling:cds":"yes","recycling:clothes":"yes","recycling:cooking_oil":"yes","recycling:cork":"yes","recycling:electrical_appliances":"yes","recycling:electrical_items":"yes","recycling:engine_oil":"yes","recycling:fluorescent_tubes":"yes","recycling:foil":"yes","recycling:furniture":"yes","recycling:garden_waste":"yes","recycling:gas_bottles":"no","recycling:glass":"yes","recycling:green_waste":"yes","recycling:hardcore":"yes","recycling:hazardous_waste":"yes","recycling:low_energy_bulbs":"yes","recycling:paint":"yes","recycling:paper":"yes","recycling:rubble":"yes","recycling:scrap_metal":"yes","recycling:shoes":"yes","recycling:styrofoam":"yes","recycling:tyres":"yes","recycling:waste":"yes","recycling:wood":"yes","recycling_type":"centre","wheelchair":"yes"}},"type":"Feature"},
	{"geometry":{"coordinates":[10.973959,49.585442],"type":"Point"},"properties":{"osm_id":"502962854","tag":{"amenity":"recycling","location":"overground","recycling:cans":"yes","recycling:clothes":"yes","recycling:glass_bottles":"yes","recycling_type":"container"}},"type":"Feature"},
	{"geometry":{"coordinates":[10.980754,49.598321],"type":"Point"},"properties":{"osm_id":"546879316","tag":{"amenity":"recycling","location":"overground","recycling:clothes":"yes","recycling:glass_bottles":"yes","recycling_type":"container"}},"type":"Feature"},
	{"geometry":{"coordinates":[10.973951,49.576492],"type":"Point"},"properties":{"osm_id":"549258949","tag":{"amenity":"recycling","recycling:cans":"yes","recycling:clothes":"yes","recycling:glass":"yes","recycling_type":"container"}},"type":"Feature"},
	{"geometry":{"coordinates":[10.952035,49.556575],"type":"Point"},"properties":{"osm_id":"568528180","tag":{"amenity":"recycling","recycling:cans":"yes","recycling:clothes":"yes","recycling:glass_bottles":"yes","recycling:paper":"yes","recycling:scrap_metal":"yes","recycling_type":"container"}},"type":"Feature"},
	{"geometry":{"coordinates":[10.952661,49.569919],"type":"Point"},"properties":{"osm_id":"571197518","tag":{"amenity":"recycling","recycling:cans":"yes","recycling:clothes":"yes","recycling:glass":"yes","recycling:paper":"yes","recycling:scrap_metal":"yes"}},"type":"Feature"},
	{"geometry":{"coordinates":[10.9616,49.570099],"type":"Point"},"properties":{"osm_id":"593910758","tag":{"amenity":"recycling","recycling:batteries":"no","recycling:cans":"yes","recycling:clothes":"yes","recycling:glass":"yes","recycling:paper":"yes","recycling:scrap_metal":"yes"}},"type":"Feature"},
	{"geometry":{"coordinates":[10.965969,49.596883],"type":"Point"},"properties":{"osm_id":"619452308","tag":{"amenity":"recycling","location":"overground","recycling:batteries":"no","recycling:cans":"yes","recycling:clothes":"yes","recycling:glass":"no","recycling:glass_bottles":"yes","recycling:paper":"yes","recycling:scrap_metal":"yes","recycling_type":"container"}},"type":"Feature"},
	{"geometry":{"coordinates":[10.9699,49.589857],"type":"Point"},"properties":{"osm_id":"690377774","tag":{"amenity":"recycling","recycling:glass":"yes","recycling:scrap_metal":"yes","recycling_type":"container"}},"type":"Feature"},
	{"geometry":{"coordinates":[10.919357,49.563622],"type":"Point"},"properties":{"osm_id":"1117364100","tag":{"amenity":"recycling","location":"overground","recycling:cans":"yes","recycling:clothes":"yes","recycling:glass":"yes","recycling:glass_bottles":"yes","recycling_type":"container"}},"type":"Feature"},
	{"geometry":{"coordinates":[10.903653,49.569843],"type":"Point"},"properties":{"osm_id":"1237340358","tag":{"amenity":"recycling","location":"overground","recycling:cans":"yes","recycling:clothes":"yes","recycling:glass_bottles":"yes","recycling_type":"container"}},"type":"Feature"},
	{"geometry":{"coordinates":[10.925074,49.588959],"type":"Point"},"properties":{"osm_id":"1237722465","tag":{"amenity":"recycling","recycling:glass_bottles":"yes","recycling:scrap_metal":"yes","recycling_type":"container"}},"type":"Feature"},
	{"geometry":{"coordinates":[10.966873,49.601145],"type":"Point"},"properties":{"osm_id":"1317121034","tag":{"amenity":"waste_basket"}},"type":"Feature"},
	{"geometry":{"coordinates":[10.975674,49.599297],"type":"Point"},"properties":{"osm_id":"1392338505","tag":{"amenity":"recycling","recycling:books":"no","recycling:cardboard":"no","recycling:cartons":"no","recycling:clothes":"yes","recycling:electrical_appliances":"no","recycling:glass_bottles":"yes","recycling:green_waste":"no","recycling:magazines":"no","recycling:newspaper":"no","recycling:paper":"no","recycling:paper_packaging":"no","recycling:scrap_metal":"no","recycling:small_appliances":"no","recycling:small_electrical_appliances":"yes","recycling:waste":"no","recycling:wood":"no","recycling_type":"container"}},"type":"Feature"},
	{"geometry":{"coordinates":[10.973958,49.594695],"type":"Point"},"properties":{"osm_id":"1392341109","tag":{"amenity":"recycling","recycling:batteries":"no","recycling:books":"no","recycling:cans":"yes","recycling:cardboard":"no","recycling:cartons":"no","recycling:clothes":"no","recycling:electrical_appliances":"no","recycling:glass":"yes","recycling:glass_bottles":"yes","recycling:green_waste":"no","recycling:magazines":"no","recycling:newspaper":"no","recycling:paper":"no","recycling:paper_packaging":"no","recycling:plastic":"no","recycling:plastic_bottles":"no","recycling:plastic_packaging":"no","recycling:scrap_metal":"no","recycling:small_appliances":"no","recycling:waste":"no","recycling:wood":"no","recycling_type":"container"}},"type":"Feature"},
	{"geometry":{"coordinates":[10.985397,49.586411],"type":"Point"},"properties":{"osm_id":"1846165171","tag":{"amenity":"waste_basket"}},"type":"Feature"},
	{"geometry":{"coordinates":[10.984493,49.587148],"type":"Point"},"properties":{"osm_id":"1846165180","tag":{"amenity":"waste_basket"}},"type":"Feature"},
	{"geometry":{"coordinates":[10.977964,49.593488],"type":"Point"},"properties":{"osm_id":"2312053303","tag":{"amenity":"waste_basket"}},"type":"Feature"},
	{"geometry":{"coordinates":[10.9782,49.593742],"type":"Point"},"properties":{"osm_id":"2312053306","tag":{"amenity":"waste_basket"}},"type":"Feature"},
	{"geometry":{"coordinates":[10.958403,49.557766],"type":"Point"},"properties":{"osm_id":"2659291928","tag":{"amenity":"recycling","recycling_type":"container"}},"type":"Feature"},
	{"geometry":{"coordinates":[10.979873,49.59406],"type":"Point"},"properties":{"osm_id":"2901103217","tag":{"amenity":"recycling","check_date":"2017-07-20","recycling:glass_bottles":"yes","recycling_type":"container"}},"type":"Feature"},
	{"geometry":{"coordinates":[10.915647,49.560067],"type":"Point"},"properties":{"osm_id":"2939611702","tag":{"amenity":"recycling","recycling:cans":"yes","recycling:clothes":"yes","recycling:glass":"yes","recycling_type":"container"}},"type":"Feature"},
	{"geometry":{"coordinates":[10.898576,49.565483],"type":"Point"},"properties":{"osm_id":"2939611705","tag":{"amenity":"recycling","recycling:cans":"yes","recycling:glass_bottles":"yes","recycling_type":"container"}},"type":"Feature"},
	{"geometry":{"coordinates":[10.918904,49.558409],"type":"Point"},"properties":{"osm_id":"2948578733","tag":{"amenity":"recycling","recycling:cans":"yes","recycling:clothes":"yes","recycling:glass_bottles":"yes","recycling_type":"container"}},"type":"Feature"},
	{"geometry":{"coordinates":[10.915905,49.563771],"type":"Point"},"properties":{"osm_id":"3346104737","tag":{"amenity":"recycling","location":"overground","recycling_type":"container"}},"type":"Feature"},
	{"geometry":{"coordinates":[10.947367,49.594255],"type":"Point"},"properties":{"osm_id":"3542200592","tag":{"amenity":"recycling","location":"overground","recycling:cans":"yes","recycling:glass":"no","recycling:glass_bottles":"yes","recycling:scrap_metal":"yes","recycling_type":"container"}},"type":"Feature"},
	{"geometry":{"coordinates":[10.955632,49.590947],"type":"Point"},"properties":{"osm_id":"4049568888","tag":{"amenity":"recycling","recycling:cans":"yes","recycling:clothes":"yes","recycling:glass_bottles":"yes","recycling_type":"container"}},"type":"Feature"},
	{"geometry":{"coordinates":[10.937391,49.60103],"type":"Point"},"properties":{"osm_id":"4049569818","tag":{"amenity":"recycling","recycling:cans":"yes","recycling:clothes":"yes","recycling:glass_bottles":"yes","recycling_type":"container"}},"type":"Feature"},
	{"geometry":{"coordinates":[10.986027,49.606373],"type":"Point"},"properties":{"osm_id":"4056370630","tag":{"amenity":"recycling","check_date":"2016-03-01","operator":"Kolping (FWS Altkleider Container Service, Bremen)","recycling:clothes":"yes","recycling_type":"container"}},"type":"Feature"},
	{"geometry":{"coordinates":[10.964612,49.583424],"type":"Point"},"properties":{"osm_id":"4337606967","tag":{"amenity":"recycling","recycling:cans":"yes","recycling:glass":"yes","recycling_type":"container"}},"type":"Feature"},
	{"geometry":{"coordinates":[10.903992,49.576136],"type":"Point"},"properties":{"name":"belloo","osm_id":"4850269813","tag":{"amenity":"waste_basket"}},"type":"Feature"},
	{"geometry":{"coordinates":[10.900768,49.576336],"type":"Point"},"properties":{"osm_id":"4850270676","tag":{"amenity":"waste_basket"}},"type":"Feature"},
	{"geometry":{"coordinates":[10.904783,49.575611],"type":"Point"},"properties":{"osm_id":"4850270677","tag":{"amenity":"waste_basket"}},"type":"Feature"},
	{"geometry":{"coordinates":[10.900172,49.575745],"type":"Point"},"properties":{"osm_id":"4850270678","tag":{"amenity":"waste_basket"}},"type":"Feature"},
	{"geometry":{"coordinates":[10.901193,49.577151],"type":"Point"},"properties":{"osm_id":"4850272021","tag":{"amenity":"waste_basket"}},"type":"Feature"},
	{"geometry":{"coordinates":[10.909383,49.573669],"type":"Point"},"properties":{"osm_id":"4966406937","tag":{"amenity":"waste_basket"}},"type":"Feature"},
	{"geometry":{"coordinates":[10.910399,49.575607],"type":"Point"},"properties":{"osm_id":"4966721053","tag":{"amenity":"waste_basket"}},"type":"Feature"},
	{"geometry":{"coordinates":[10.909425,49.57585],"type":"Point"},"properties":{"osm_id":"4966721054","tag":{"amenity":"waste_basket"}},"type":"Feature"},
	{"geometry":{"coordinates":[10.905801,49.57582],"type":"Point"},"properties":{"osm_id":"4966721062","tag":{"amenity":"waste_basket"}},"type":"Feature"},
	{"geometry":{"coordinates":[10.907041,49.575836],"type":"Point"},"properties":{"osm_id":"4966721063","tag":{"amenity":"waste_basket"}},"type":"Feature"},
	{"geometry":{"coordinates":[10.904658,49.575811],"type":"Point"},"properties":{"osm_id":"4966721091","tag":{"amenity":"waste_basket"}},"type":"Feature"},
	{"geometry":{"coordinates":[10.912189,49.575905],"type":"Point"},"properties":{"osm_id":"4966721098","tag":{"amenity":"waste_basket"}},"type":"Feature"},
	{"geometry":{"coordinates":[10.973025,49.608279],"type":"Point"},"properties":{"osm_id":"5059606046","tag":{"amenity":"waste_basket"}},"type":"Feature"},
	{"geometry":{"coordinates":[10.907603,49.573383],"type":"Point"},"properties":{"osm_id":"5496023494","tag":{"amenity":"waste_basket"}},"type":"Feature"},
	{"geometry":{"coordinates":[10.96494,49.606099],"type":"Point"},"properties":{"osm_id":"5510630663","tag":{"amenity":"recycling","recycling_type":"container"}},"type":"Feature"},
	{"geometry":{"coordinates":[10.978575,49.587981],"type":"Point"},"properties":{"osm_id":"5848402495","tag":{"amenity":"waste_basket"}},"type":"Feature"},
	{"geometry":{"coordinates":[10.915609,49.558754],"type":"Point"},"properties":{"osm_id":"5901149783","tag":{"amenity":"recycling","recycling:clothes":"yes","recycling:glass":"yes","recycling_type":"container"}},"type":"Feature"},
	{"geometry":{"coordinates":[10.969803,49.593804],"type":"Point"},"properties":{"osm_id":"6145782802","tag":{"amenity":"recycling","recycling:glass_bottles":"yes","recycling:scrap_metal":"yes","recycling_type":"container"}},"type":"Feature"},
	{"geometry":{"coordinates":[10.950273,49.591432],"type":"Point"},"properties":{"osm_id":"6512953437","tag":{"amenity":"waste_basket"}},"type":"Feature"},
	{"geometry":{"coordinates":[10.950486,49.592076],"type":"Point"},"properties":{"osm_id":"6512953441","tag":{"amenity":"waste_basket"}},"type":"Feature"},
	{"geometry":{"coordinates":[10.950516,49.592335],"type":"Point"},"properties":{"osm_id":"6512953443","tag":{"amenity":"waste_basket"}},"type":"Feature"},
	{"geometry":{"coordinates":[10.950665,49.592559],"type":"Point"},"properties":{"osm_id":"6512953445","tag":{"amenity":"waste_basket"}},"type":"Feature"},
	{"geometry":{"coordinates":[10.950644,49.593009],"type":"Point"},"properties":{"osm_id":"6512953447","tag":{"amenity":"waste_basket"}},"type":"Feature"},
	{"geometry":{"coordinates":[10.95076,49.593628],"type":"Point"},"properties":{"osm_id":"6512953449","tag":{"amenity":"waste_basket"}},"type":"Feature"},
	{"geometry":{"coordinates":[10.950152,49.593043],"type":"Point"},"properties":{"osm_id":"6512953450","tag":{"amenity":"waste_basket"}},"type":"Feature"},
	{"geometry":{"coordinates":[10.980045,49.609689],"type":"Point"},"properties":{"osm_id":"6516791253","tag":{"amenity":"waste_basket"}},"type":"Feature"},
	{"geometry":{"coordinates":[10.978658,49.599154],"type":"Point"},"properties":{"osm_id":"6592042904","tag":{"amenity":"waste_basket"}},"type":"Feature"},
	{"geometry":{"coordinates":[10.981247,49.590433],"type":"Point"},"properties":{"osm_id":"6592050556","tag":{"amenity":"waste_basket"}},"type":"Feature"},
	{"geometry":{"coordinates":[10.960328,49.602422],"type":"Point"},"properties":{"osm_id":"6595174435","tag":{"amenity":"waste_basket"}},"type":"Feature"},
	{"geometry":{"coordinates":[10.96096,49.602818],"type":"Point"},"properties":{"osm_id":"6595187520","tag":{"amenity":"recycling","location":"overground","opening_hours":"Mo-Sa 07:00-19:00; PH off","recycling:cans":"yes","recycling:clothes":"yes","recycling:glass_bottles":"yes","recycling:small_electrical_appliances":"yes","recycling_type":"container"}},"type":"Feature"},
	{"geometry":{"coordinates":[10.985675,49.607076],"type":"Point"},"properties":{"osm_id":"6634263606","tag":{"amenity":"recycling","recycling:cans":"yes","recycling:glass_bottles":"yes","recycling_type":"container"}},"type":"Feature"},
	{"geometry":{"coordinates":[10.971986,49.585345],"type":"Point"},"properties":{"osm_id":"6745706337","tag":{"amenity":"waste_basket"}},"type":"Feature"},
	{"geometry":{"coordinates":[10.92163,49.588688],"type":"Point"},"properties":{"osm_id":"6770015880","tag":{"amenity":"waste_basket"}},"type":"Feature"},
	{"geometry":{"coordinates":[10.962868,49.566602],"type":"Point"},"properties":{"osm_id":"6789277519","tag":{"amenity":"recycling","covered":"no","indoor":"no","level":"0","recycling:electrical_appliances":"yes","recycling:glass":"yes","recycling_type":"container"}},"type":"Feature"},
	{"geometry":{"coordinates":[10.967959,49.56576],"type":"Point"},"properties":{"osm_id":"6789286988","tag":{"amenity":"recycling","covered":"no","recycling:clothes":"yes","recycling_type":"container"}},"type":"Feature"},
	{"geometry":{"coordinates":[10.976974,49.588431],"type":"Point"},"properties":{"osm_id":"6818445036","tag":{"amenity":"waste_basket"}},"type":"Feature"},
	{"geometry":{"coordinates":[10.977074,49.588422],"type":"Point"},"properties":{"osm_id":"6818445037","tag":{"amenity":"waste_basket"}},"type":"Feature"},
	{"geometry":{"coordinates":[10.977107,49.588567],"type":"Point"},"properties":{"osm_id":"6818445038","tag":{"amenity":"waste_basket"}},"type":"Feature"},
	{"geometry":{"coordinates":[10.977005,49.588576],"type":"Point"},"properties":{"osm_id":"6818445039","tag":{"amenity":"waste_basket"}},"type":"Feature"},
	{"geometry":{"coordinates":[10.955411,49.600033],"type":"Point"},"properties":{"osm_id":"7171867893","tag":{"amenity":"waste_basket"}},"type":"Feature"},
	{"geometry":{"coordinates":[10.955934,49.599647],"type":"Point"},"properties":{"osm_id":"7171867894","tag":{"amenity":"waste_basket"}},"type":"Feature"},
	{"geometry":{"coordinates":[10.956315,49.595146],"type":"Point"},"properties":{"osm_id":"7247051525","tag":{"amenity":"waste_basket"}},"type":"Feature"},
	{"geometry":{"coordinates":[10.954325,49.594563],"type":"Point"},"properties":{"osm_id":"7457500740","tag":{"amenity":"waste_basket"}},"type":"Feature"},
	{"geometry":{"coordinates":[10.912898,49.572707],"type":"Point"},"properties":{"osm_id":"8118449830","tag":{"amenity":"waste_basket"}},"type":"Feature"},
	{"geometry":{"coordinates":[10.915044,49.568844],"type":"Point"},"properties":{"osm_id":"8118459484","tag":{"amenity":"waste_basket"}},"type":"Feature"},
	{"geometry":{"coordinates":[10.945068,49.596145],"type":"Point"},"properties":{"osm_id":"8154642714","tag":{"amenity":"recycling","location":"overground","recycling:cans":"yes","recycling:glass":"no","recycling:glass_bottles":"yes","recycling:scrap_metal":"yes","recycling_type":"container"}},"type":"Feature"},
	{"geometry":{"coordinates":[10.901701,49.56128],"type":"Point"},"properties":{"osm_id":"8228960684","tag":{"amenity":"recycling","location":"overground","recycling:cans":"yes","recycling:clothes":"yes","recycling:glass_bottles":"yes","recycling_type":"container"}},"type":"Feature"},
	{"geometry":{"coordinates":[10.944859,49.597707],"type":"Point"},"properties":{"osm_id":"8238900547","tag":{"amenity":"waste_basket","material":"metal","waste":"trash"}},"type":"Feature"},
	{"geometry":{"coordinates":[10.944677,49.597523],"type":"Point"},"properties":{"osm_id":"8238900548","tag":{"amenity":"waste_basket","material":"metal","waste":"trash"}},"type":"Feature"},
	{"geometry":{"coordinates":[10.94418,49.597321],"type":"Point"},"properties":{"osm_id":"8238900549","tag":{"amenity":"waste_basket","material":"metal","waste":"trash"}},"type":"Feature"},
	{"geometry":{"coordinates":[10.944669,49.597671],"type":"Point"},"properties":{"osm_id":"8238900550","tag":{"amenity":"waste_basket","material":"metal","waste":"trash"}},"type":"Feature"},
	{"geometry":{"coordinates":[10.944958,49.598849],"type":"Point"},"properties":{"osm_id":"8238906446","tag":{"amenity":"waste_basket","material":"metal","waste":"trash"}},"type":"Feature"},
	{"geometry":{"coordinates":[10.945234,49.59891],"type":"Point"},"properties":{"osm_id":"8238906447","tag":{"amenity":"waste_basket","material":"metal","waste":"trash"}},"type":"Feature"},
	{"geometry":{"coordinates":[10.963007,49.58891],"type":"Point"},"properties":{"osm_id":"8537889064","tag":{"amenity":"recycling","operator":"Kolping Recycling GmbH","recycling:clothes":"yes","recycling_type":"container"}},"type":"Feature"},
	{"geometry":{"coordinates":[10.902487,49.566772],"type":"Point"},"properties":{"osm_id":"8550416149","tag":{"amenity":"recycling","recycling:cans":"yes","recycling:glass_bottles":"yes","recycling_type":"container"}},"type":"Feature"},
	{"geometry":{"coordinates":[10.944558,49.576428],"type":"Point"},"properties":{"osm_id":"8589949226","tag":{"amenity":"recycling","recycling:clothes":"yes","recycling:glass_bottles":"yes","recycling:small_appliances":"yes","recycling_type":"container"}},"type":"Feature"},
	{"geometry":{"coordinates":[10.933852,49.599773],"type":"Point"},"properties":{"osm_id":"8589992395","tag":{"amenity":"waste_basket","waste":"trash"}},"type":"Feature"},
	{"geometry":{"coordinates":[10.933901,49.600046],"type":"Point"},"properties":{"osm_id":"8589992402","tag":{"amenity":"waste_basket","waste":"trash"}},"type":"Feature"},
	{"geometry":{"coordinates":[10.983161,49.60567],"type":"Point"},"properties":{"osm_id":"8699049469","tag":{"amenity":"recycling","operator":"Malteser / Kolping","recycling:clothes":"yes","recycling_type":"container"}},"type":"Feature"},
	{"geometry":{"coordinates":[10.983176,49.605656],"type":"Point"},"properties":{"osm_id":"8699049470","tag":{"amenity":"recycling","recycling:clothes":"yes","recycling_type":"container"}},"type":"Feature"},
	{"geometry":{"coordinates":[10.983098,49.605684],"type":"Point"},"properties":{"osm_id":"8699049471","tag":{"amenity":"recycling","recycling:small_appliances":"yes","recycling_type":"container"}},"type":"Feature"},
	{"geometry":{"coordinates":[10.898487,49.565508],"type":"Point"},"properties":{"osm_id":"8779573512","tag":{"amenity":"recycling","capacity":"2","operator":"Kolping","recycling:clothes":"yes","recycling_type":"container","website":"https://vor-ort.kolping.de/kolpingsfamilie-herzogenaurach/altkleidersammlung/"}},"type":"Feature"},
	{"geometry":{"coordinates":[10.961353,49.563227],"type":"Point"},"properties":{"osm_id":"8846461135","tag":{"amenity":"recycling","recycling:cans":"no","recycling:clothes":"yes","recycling:glass_bottles":"yes","recycling:small_electrical_appliances":"yes","recycling_type":"container"}},"type":"Feature"},
	{"geometry":{"coordinates":[10.972212,49.591689],"type":"Point"},"properties":{"osm_id":"9043161901","tag":{"amenity":"waste_basket"}},"type":"Feature"},
	{"geometry":{"coordinates":[10.97014,49.55379],"type":"Point"},"properties":{"osm_id":"9043172109","tag":{"amenity":"waste_basket"}},"type":"Feature"}
]
}
