{
"type": "FeatureCollection",
"lastupdate": "2020-08-04T00:00:00Z",
"features": [
	{"geometry":{"coordinates":[10.914393,48.401618],"type":"Point"},"properties":{"osm_id":"664446131","tag":{"amenity":"recycling"}},"type":"Feature"},
	{"geometry":{"coordinates":[10.910742,48.402465],"type":"Point"},"properties":{"osm_id":"1629981853","tag":{"amenity":"recycling","operator":"Remondis","recycling:glass":"yes","recycling_type":"container"}},"type":"Feature"},
	{"geometry":{"coordinates":[10.914973,48.40493],"type":"Point"},"properties":{"osm_id":"1629981914","tag":{"amenity":"recycling","operator":"Remondis","recycling:glass":"yes","recycling_type":"container"}},"type":"Feature"},
	{"geometry":{"coordinates":[10.91078,48.402392],"type":"Point"},"properties":{"osm_id":"1823778060","tag":{"amenity":"recycling","opening_hours":"Mo-Sa 07:00-12:00,14:00-20:00; PH off","operator":"Stadt Augsburg (AWS)","recycling:small_appliances":"yes","recycling_type":"container"}},"type":"Feature"},
	{"geometry":{"coordinates":[10.910746,48.402425],"type":"Point"},"properties":{"osm_id":"1823778077","tag":{"amenity":"recycling","recycling:clothes":"yes","recycling:shoes":"yes","recycling_type":"container"}},"type":"Feature"},
	{"geometry":{"coordinates":[10.899085,48.409591],"type":"Point"},"properties":{"osm_id":"1823778128","tag":{"amenity":"recycling","operator":"Aktion Hoffnung","recycling:clothes":"yes","recycling:shoes":"yes","recycling_type":"container"}},"type":"Feature"},
	{"geometry":{"coordinates":[10.899047,48.409593],"type":"Point"},"properties":{"osm_id":"1823778132","tag":{"amenity":"recycling","operator":"REMONDIS","recycling:glass":"yes","recycling_type":"container"}},"type":"Feature"},
	{"geometry":{"coordinates":[10.89899,48.409595],"type":"Point"},"properties":{"osm_id":"1823778135","tag":{"amenity":"recycling","opening_hours":"Mo-Sa 07:00-12:00,14:00-20:00; PH off","operator":"Stadt Augsburg (AWS)","recycling:small_appliances":"yes","recycling_type":"container"}},"type":"Feature"},
	{"geometry":{"coordinates":[10.931937,48.402096],"type":"Point"},"properties":{"name":"AVA Abfallverwertung Augsburg Kleinmengenanahmestelle","osm_id":"2310410698","tag":{"amenity":"recycling","recycling_type":"centre"}},"type":"Feature"},
	{"geometry":{"coordinates":[10.981,48.456391],"type":"Point"},"properties":{"osm_id":"2333695135","tag":{"amenity":"recycling","recycling:cans":"yes","recycling:glass":"yes","recycling:scrap_metal":"no","recycling_type":"container"}},"type":"Feature"},
	{"geometry":{"coordinates":[10.967187,48.44398],"type":"Point"},"properties":{"osm_id":"4763125598","tag":{"amenity":"recycling","recycling:glass_bottles":"yes","recycling_type":"container"}},"type":"Feature"},
	{"geometry":{"coordinates":[10.95805,48.408075],"type":"Point"},"properties":{"osm_id":"5282843232","tag":{"amenity":"recycling","recycling:cans":"yes","recycling:clothes":"yes","recycling:glass":"yes","recycling:glass_bottles":"yes","recycling:paper":"no","recycling:plastic":"no","recycling:shoes":"yes","recycling_type":"container"}},"type":"Feature"},
	{"geometry":{"coordinates":[10.974463,48.406888],"type":"Point"},"properties":{"osm_id":"5838585098","tag":{"amenity":"waste_basket"}},"type":"Feature"},
	{"geometry":{"coordinates":[10.971377,48.407951],"type":"Point"},"properties":{"osm_id":"6024288019","tag":{"amenity":"recycling","recycling:glass":"yes","recycling_type":"container"}},"type":"Feature"}
]
}
