{
"type": "FeatureCollection",
"features": [
	{"geometry":{"coordinates":[10.98133,48.350239],"type":"Point"},"properties":{"osm_id":"278469663","tag":{"amenity":"recycling","mapillary":"JAfX98pMoK5RTU8AcDUcJA","recycling:clothes":"yes","recycling:glass":"yes","recycling_type":"container","survey:date":"2016-10-30"}},"type":"Feature"},
	{"geometry":{"coordinates":[10.909246,48.368983],"type":"Point"},"properties":{"osm_id":"431329602","tag":{"amenity":"recycling","operator":"REMONDIS","recycling:glass_bottles":"yes","recycling_type":"container"}},"type":"Feature"},
	{"geometry":{"coordinates":[10.973761,48.398748],"type":"Point"},"properties":{"name":"Wertstoffhof","osm_id":"510909310","tag":{"amenity":"recycling","recycling:glass":"yes","recycling:paper":"yes","recycling:scrap_metal":"yes","recycling_type":"centre"}},"type":"Feature"},
	{"geometry":{"coordinates":[10.946698,48.357018],"type":"Point"},"properties":{"osm_id":"649247108","tag":{"amenity":"recycling","recycling:clothes":"yes","recycling:shoes":"yes","recycling_type":"container"}},"type":"Feature"},
	{"geometry":{"coordinates":[10.905854,48.38252],"type":"Point"},"properties":{"osm_id":"660384247","tag":{"amenity":"recycling","recycling:glass":"yes"}},"type":"Feature"},
	{"geometry":{"coordinates":[10.918661,48.379324],"type":"Point"},"properties":{"osm_id":"662892789","tag":{"amenity":"recycling","recycling:glass":"yes","recycling_type":"container"}},"type":"Feature"},
	{"geometry":{"coordinates":[10.925763,48.382807],"type":"Point"},"properties":{"osm_id":"663089742","tag":{"amenity":"recycling","recycling:glass":"yes","recycling_type":"container"}},"type":"Feature"},
	{"geometry":{"coordinates":[10.927829,48.383254],"type":"Point"},"properties":{"osm_id":"663089784","tag":{"amenity":"recycling","recycling:clothes":"yes","recycling:shoes":"yes","recycling_type":"container"}},"type":"Feature"},
	{"geometry":{"coordinates":[10.940549,48.375507],"type":"Point"},"properties":{"osm_id":"663102823","tag":{"amenity":"recycling","recycling:clothes":"yes","recycling:glass":"yes","recycling:small_electrical_appliances":"yes","recycling_type":"container"}},"type":"Feature"},
	{"geometry":{"coordinates":[10.947124,48.37329],"type":"Point"},"properties":{"osm_id":"663102830","tag":{"amenity":"recycling","recycling:clothes":"yes","recycling:shoes":"yes"}},"type":"Feature"},
	{"geometry":{"coordinates":[10.944538,48.349467],"type":"Point"},"properties":{"osm_id":"665105739","tag":{"amenity":"recycling","recycling:clothes":"yes","recycling:glass":"yes","recycling:shoes":"yes","recycling_type":"container"}},"type":"Feature"},
	{"geometry":{"coordinates":[10.902263,48.359827],"type":"Point"},"properties":{"osm_id":"671551830","tag":{"amenity":"recycling","recycling:glass":"no","recycling:glass_bottles":"yes","recycling_type":"container"}},"type":"Feature"},
	{"geometry":{"coordinates":[10.899494,48.365183],"type":"Point"},"properties":{"osm_id":"687951432","tag":{"amenity":"waste_basket"}},"type":"Feature"},
	{"geometry":{"coordinates":[10.899096,48.365656],"type":"Point"},"properties":{"osm_id":"687951433","tag":{"amenity":"waste_basket"}},"type":"Feature"},
	{"geometry":{"coordinates":[10.907244,48.38754],"type":"Point"},"properties":{"osm_id":"734877169","tag":{"amenity":"recycling","recycling:glass":"yes","recycling_type":"container"}},"type":"Feature"},
	{"geometry":{"coordinates":[10.90458,48.387502],"type":"Point"},"properties":{"osm_id":"741608525","tag":{"amenity":"recycling","recycling:glass":"yes","recycling_type":"container"}},"type":"Feature"},
	{"geometry":{"coordinates":[10.936964,48.36523],"type":"Point"},"properties":{"osm_id":"755837412","tag":{"amenity":"recycling","operator":"REMONDIS","recycling:glass":"yes","recycling_type":"container"}},"type":"Feature"},
	{"geometry":{"coordinates":[10.936929,48.365214],"type":"Point"},"properties":{"osm_id":"755837436","tag":{"amenity":"recycling","operator":"Aktion Hoffnung","recycling:clothes":"yes","recycling:shoes":"yes","recycling_type":"container"}},"type":"Feature"},
	{"geometry":{"coordinates":[10.939505,48.344843],"type":"Point"},"properties":{"osm_id":"810998489","tag":{"amenity":"recycling","operator":"REMONDIS","recycling:glass":"yes","recycling_type":"container"}},"type":"Feature"},
	{"geometry":{"coordinates":[10.899134,48.370428],"type":"Point"},"properties":{"osm_id":"820227830","tag":{"amenity":"recycling","operator":"REMONDIS","recycling:glass":"yes","recycling_type":"container"}},"type":"Feature"},
	{"geometry":{"coordinates":[10.900492,48.348952],"type":"Point"},"properties":{"osm_id":"837198482","tag":{"amenity":"recycling","recycling:glass":"yes","recycling_type":"container"}},"type":"Feature"},
	{"geometry":{"coordinates":[10.925694,48.354096],"type":"Point"},"properties":{"osm_id":"842144757","tag":{"amenity":"recycling","check_date":"2014-05-10","operator":"Aktion Hoffnung","recycling:clothes":"yes","recycling:shoes":"yes","recycling_type":"container"}},"type":"Feature"},
	{"geometry":{"coordinates":[10.922286,48.367262],"type":"Point"},"properties":{"osm_id":"842568799","tag":{"amenity":"recycling","recycling:glass":"yes","recycling_type":"container"}},"type":"Feature"},
	{"geometry":{"coordinates":[10.901416,48.365174],"type":"Point"},"properties":{"osm_id":"845696361","tag":{"amenity":"recycling","recycling:glass":"yes","recycling_type":"container"}},"type":"Feature"},
	{"geometry":{"coordinates":[10.909854,48.379425],"type":"Point"},"properties":{"osm_id":"848264096","tag":{"amenity":"recycling"}},"type":"Feature"},
	{"geometry":{"coordinates":[10.90307,48.364926],"type":"Point"},"properties":{"osm_id":"853170056","tag":{"amenity":"recycling","check_date":"2015-08-22","operator":"REMONDIS","recycling:glass":"yes","recycling_type":"container"}},"type":"Feature"},
	{"geometry":{"coordinates":[10.906952,48.374634],"type":"Point"},"properties":{"osm_id":"859708391","tag":{"amenity":"recycling","operator":"REMONDIS","recycling:glass_bottles":"yes","recycling_type":"container"}},"type":"Feature"},
	{"geometry":{"coordinates":[10.949669,48.34193],"type":"Point"},"properties":{"osm_id":"860274065","tag":{"amenity":"recycling","operator":"REMONDIS","recycling:glass":"yes","recycling_type":"container"}},"type":"Feature"},
	{"geometry":{"coordinates":[10.947488,48.343566],"type":"Point"},"properties":{"osm_id":"860274066","tag":{"amenity":"recycling","recycling:clothes":"yes","recycling:glass":"yes","recycling_type":"container"}},"type":"Feature"},
	{"geometry":{"coordinates":[10.947094,48.344653],"type":"Point"},"properties":{"osm_id":"860274067","tag":{"amenity":"recycling","check_date":"2014-05-10","operator":"REMONDIS","recycling:glass":"yes","recycling_type":"container"}},"type":"Feature"},
	{"geometry":{"coordinates":[10.942784,48.344346],"type":"Point"},"properties":{"osm_id":"860274072","tag":{"amenity":"recycling","check_date":"2014-05-10","operator":"REMONDIS","recycling:glass":"yes","recycling_type":"container"}},"type":"Feature"},
	{"geometry":{"coordinates":[10.950776,48.348106],"type":"Point"},"properties":{"osm_id":"860285632","tag":{"amenity":"recycling","recycling:glass":"yes","recycling_type":"container"}},"type":"Feature"},
	{"geometry":{"coordinates":[10.947175,48.34923],"type":"Point"},"properties":{"osm_id":"860333381","tag":{"amenity":"recycling","recycling:clothes":"yes","recycling:glass":"no","recycling_type":"container"}},"type":"Feature"},
	{"geometry":{"coordinates":[10.90401,48.373653],"type":"Point"},"properties":{"osm_id":"860935975","tag":{"amenity":"recycling","operator":"Aktion Hoffnung","recycling:clothes":"yes","recycling:shoes":"yes","recycling_type":"container"}},"type":"Feature"},
	{"geometry":{"coordinates":[10.908507,48.37219],"type":"Point"},"properties":{"osm_id":"860960946","tag":{"amenity":"recycling","operator":"REMONDIS","recycling:glass_bottles":"yes","recycling_type":"container"}},"type":"Feature"},
	{"geometry":{"coordinates":[10.90852,48.372167],"type":"Point"},"properties":{"osm_id":"860961033","tag":{"amenity":"recycling","operator":"Aktion Hoffnung","recycling:clothes":"yes","recycling:shoes":"yes","recycling_type":"container"}},"type":"Feature"},
	{"geometry":{"coordinates":[10.925743,48.35409],"type":"Point"},"properties":{"osm_id":"868279644","tag":{"amenity":"recycling","check_date":"2014-05-10","operator":"REMONDIS","recycling:glass":"yes","recycling_type":"container"}},"type":"Feature"},
	{"geometry":{"coordinates":[10.928422,48.362332],"type":"Point"},"properties":{"osm_id":"868642762","tag":{"amenity":"recycling","recycling:shoes":"yes"}},"type":"Feature"},
	{"geometry":{"coordinates":[10.927254,48.363228],"type":"Point"},"properties":{"osm_id":"868642860","tag":{"amenity":"recycling","operator":"REMONDIS","recycling:glass":"yes"}},"type":"Feature"},
	{"geometry":{"coordinates":[10.900469,48.377151],"type":"Point"},"properties":{"osm_id":"871638625","tag":{"amenity":"recycling","operator":"REMONDIS","recycling:glass":"yes","recycling_type":"container"}},"type":"Feature"},
	{"geometry":{"coordinates":[10.915906,48.360998],"type":"Point"},"properties":{"osm_id":"919627953","tag":{"amenity":"recycling","check_date":"2015-08-22","operator":"REMONDIS","recycling:glass":"yes","recycling_type":"container"}},"type":"Feature"},
	{"geometry":{"coordinates":[10.917227,48.361893],"type":"Point"},"properties":{"osm_id":"919677876","tag":{"amenity":"recycling","operator":"Schuhentsorgung Sedita (SE)","recycling:shoes":"yes","recycling_type":"container","website":"https://www.mario-seditagmbh.de/"}},"type":"Feature"},
	{"geometry":{"coordinates":[10.911155,48.38439],"type":"Point"},"properties":{"osm_id":"921155579","tag":{"amenity":"recycling","operator":"Aktion Hoffnung","recycling:clothes":"yes","recycling:shoes":"yes","recycling_type":"container"}},"type":"Feature"},
	{"geometry":{"coordinates":[10.91032,48.384415],"type":"Point"},"properties":{"osm_id":"921155587","tag":{"amenity":"recycling","operator":"REMONDIS","recycling:glass":"yes","recycling_type":"container"}},"type":"Feature"},
	{"geometry":{"coordinates":[10.913675,48.395704],"type":"Point"},"properties":{"osm_id":"921173860","tag":{"amenity":"recycling","operator":"R+S Textil Handels GmbH, Denkendorf","recycling:clothes":"yes","recycling_type":"container"}},"type":"Feature"},
	{"geometry":{"coordinates":[10.913667,48.39572],"type":"Point"},"properties":{"osm_id":"921173863","tag":{"amenity":"recycling","operator":"Resales, Denkendorf","recycling:clothes":"yes","recycling_type":"container"}},"type":"Feature"},
	{"geometry":{"coordinates":[10.913651,48.39576],"type":"Point"},"properties":{"osm_id":"921173880","tag":{"amenity":"recycling","operator":"Kolping","recycling:clothes":"yes","recycling_type":"container"}},"type":"Feature"},
	{"geometry":{"coordinates":[10.903963,48.366196],"type":"Point"},"properties":{"osm_id":"941945686","tag":{"amenity":"recycling","recycling:glass":"yes","recycling_type":"container"}},"type":"Feature"},
	{"geometry":{"coordinates":[10.899824,48.343725],"type":"Point"},"properties":{"osm_id":"994033426","tag":{"amenity":"recycling","recycling:glass":"yes","recycling_type":"container"}},"type":"Feature"},
	{"geometry":{"coordinates":[10.898963,48.344296],"type":"Point"},"properties":{"osm_id":"994641282","tag":{"amenity":"waste_basket"}},"type":"Feature"},
	{"geometry":{"coordinates":[10.914573,48.35471],"type":"Point"},"properties":{"osm_id":"1094522301","tag":{"amenity":"recycling","operator":"REMONDIS","recycling:glass":"yes","recycling_type":"container"}},"type":"Feature"},
	{"geometry":{"coordinates":[10.90304,48.36492],"type":"Point"},"properties":{"osm_id":"1177728183","tag":{"amenity":"recycling","check_date":"2015-08-22","operator":"Aktion Hoffnung","recycling:clothes":"yes","recycling:shoes":"yes","recycling_type":"container"}},"type":"Feature"},
	{"geometry":{"coordinates":[10.948763,48.353151],"type":"Point"},"properties":{"osm_id":"1201320641","tag":{"amenity":"recycling","recycling:clothes":"yes","recycling:glass":"yes","recycling_type":"container"}},"type":"Feature"},
	{"geometry":{"coordinates":[10.928577,48.373193],"type":"Point"},"properties":{"osm_id":"1247422556","tag":{"amenity":"recycling","recycling:glass":"yes","recycling_type":"container"}},"type":"Feature"},
	{"geometry":{"coordinates":[10.927432,48.371161],"type":"Point"},"properties":{"osm_id":"1247430101","tag":{"amenity":"recycling","recycling:glass":"yes","recycling_type":"container"}},"type":"Feature"},
	{"geometry":{"coordinates":[10.929536,48.369828],"type":"Point"},"properties":{"osm_id":"1257929983","tag":{"amenity":"recycling","recycling:clothes":"yes","recycling:glass":"yes","recycling_type":"container"}},"type":"Feature"},
	{"geometry":{"coordinates":[10.934878,48.344738],"type":"Point"},"properties":{"osm_id":"1287738186","tag":{"amenity":"waste_basket"}},"type":"Feature"},
	{"geometry":{"coordinates":[10.933213,48.342385],"type":"Point"},"properties":{"osm_id":"1287738232","tag":{"amenity":"waste_basket"}},"type":"Feature"},
	{"geometry":{"coordinates":[10.93539,48.344623],"type":"Point"},"properties":{"osm_id":"1287738244","tag":{"amenity":"waste_basket"}},"type":"Feature"},
	{"geometry":{"coordinates":[10.952082,48.355688],"type":"Point"},"properties":{"osm_id":"1314917758","tag":{"amenity":"recycling","recycling:clothes":"yes","recycling_type":"container"}},"type":"Feature"},
	{"geometry":{"coordinates":[10.952873,48.356127],"type":"Point"},"properties":{"osm_id":"1314917759","tag":{"amenity":"recycling","recycling:clothes":"yes","recycling:glass_bottles":"yes","recycling_type":"container"}},"type":"Feature"},
	{"geometry":{"coordinates":[10.948924,48.362664],"type":"Point"},"properties":{"osm_id":"1314917761","tag":{"amenity":"recycling","recycling:glass":"yes","recycling_type":"container"}},"type":"Feature"},
	{"geometry":{"coordinates":[10.948076,48.365424],"type":"Point"},"properties":{"osm_id":"1314917762","tag":{"amenity":"recycling","operator":"REMONDIS","recycling:glass":"yes","recycling_type":"container"}},"type":"Feature"},
	{"geometry":{"coordinates":[10.91186,48.360883],"type":"Point"},"properties":{"osm_id":"1427483581","tag":{"amenity":"recycling","recycling:clothes":"yes","recycling:glass":"yes","recycling_type":"container"}},"type":"Feature"},
	{"geometry":{"coordinates":[10.919016,48.397484],"type":"Point"},"properties":{"osm_id":"1431258913","tag":{"amenity":"recycling","operator":"Aktion Hoffnung","recycling:clothes":"yes","recycling:shoes":"yes","recycling_type":"container"}},"type":"Feature"},
	{"geometry":{"coordinates":[10.919035,48.397512],"type":"Point"},"properties":{"osm_id":"1431258916","tag":{"amenity":"recycling","operator":"REMONDIS","recycling:glass":"yes","recycling_type":"container"}},"type":"Feature"},
	{"geometry":{"coordinates":[10.915493,48.392178],"type":"Point"},"properties":{"osm_id":"1431274926","tag":{"amenity":"recycling","operator":"Aktion Hoffnung","recycling:clothes":"yes","recycling:shoes":"yes"}},"type":"Feature"},
	{"geometry":{"coordinates":[10.903143,48.390633],"type":"Point"},"properties":{"osm_id":"1479978635","tag":{"amenity":"recycling","operator":"REMONDIS","recycling:glass":"yes","recycling_type":"container"}},"type":"Feature"},
	{"geometry":{"coordinates":[10.938255,48.356312],"type":"Point"},"properties":{"osm_id":"1488658998","tag":{"amenity":"recycling","operator":"REMONDIS","recycling:glass":"yes","recycling_type":"container"}},"type":"Feature"},
	{"geometry":{"coordinates":[10.938278,48.356333],"type":"Point"},"properties":{"osm_id":"1488658999","tag":{"amenity":"recycling","operator":"Aktion Hoffnung","recycling:clothes":"yes","recycling:shoes":"yes","recycling_type":"container"}},"type":"Feature"},
	{"geometry":{"coordinates":[10.903656,48.368384],"type":"Point"},"properties":{"osm_id":"1514501774","tag":{"amenity":"recycling","recycling:glass":"yes","recycling_type":"container"}},"type":"Feature"},
	{"geometry":{"coordinates":[10.910613,48.369959],"type":"Point"},"properties":{"osm_id":"1531555443","tag":{"amenity":"recycling","mapillary":"5IjYiAWQda9gbW4Hy5LLNw","operator":"REMONDIS","recycling:glass":"no","recycling:glass_bottles":"yes","recycling_type":"container","survey:date":"2018-02-20"}},"type":"Feature"},
	{"geometry":{"coordinates":[10.920147,48.392944],"type":"Point"},"properties":{"osm_id":"1541660878","tag":{"amenity":"recycling","recycling:clothes":"yes","recycling_type":"container"}},"type":"Feature"},
	{"geometry":{"coordinates":[10.921006,48.384167],"type":"Point"},"properties":{"osm_id":"1590115861","tag":{"amenity":"recycling","recycling:glass":"yes","recycling_type":"container"}},"type":"Feature"},
	{"geometry":{"coordinates":[10.916929,48.372707],"type":"Point"},"properties":{"name":"Wertstoffsammelstelle Depot Ost","osm_id":"1634969359","tag":{"addr:city":"Augsburg","addr:country":"DE","addr:housenumber":"29","addr:postcode":"86153","addr:street":"Johannes-Haag-Stra\u00c3\u009fe","amenity":"recycling","opening_hours":"Mo-We 08:00-15:00; Th 08:00-18:00; Fr 08:00-12:00; Sa 09:00-13:00","recycling_type":"centre"}},"type":"Feature"},
	{"geometry":{"coordinates":[10.950513,48.345425],"type":"Point"},"properties":{"osm_id":"1647832987","tag":{"amenity":"recycling","recycling:glass":"yes","recycling_type":"container"}},"type":"Feature"},
	{"geometry":{"coordinates":[10.923167,48.379402],"type":"Point"},"properties":{"osm_id":"1657368818","tag":{"amenity":"recycling","recycling:clothes":"yes","recycling:glass":"yes","recycling_type":"container"}},"type":"Feature"},
	{"geometry":{"coordinates":[10.927093,48.378702],"type":"Point"},"properties":{"osm_id":"1659463556","tag":{"amenity":"recycling","check_date":"2014-05-10","operator":"REMONDIS","recycling:glass":"yes","recycling_type":"container"}},"type":"Feature"},
	{"geometry":{"coordinates":[10.944883,48.344316],"type":"Point"},"properties":{"osm_id":"1691533070","tag":{"amenity":"recycling","operator":"Aktion Hoffnung","recycling:clothes":"yes","recycling:shoes":"yes","recycling_type":"container"}},"type":"Feature"},
	{"geometry":{"coordinates":[10.923941,48.359662],"type":"Point"},"properties":{"osm_id":"1768383813","tag":{"amenity":"recycling","operator":"REMONDIS","recycling:glass":"yes","recycling_type":"container"}},"type":"Feature"},
	{"geometry":{"coordinates":[10.923871,48.35971],"type":"Point"},"properties":{"osm_id":"1768383822","tag":{"amenity":"recycling","operator":"Aktion Hoffnung","recycling:clothes":"yes","recycling:shoes":"yes","recycling_type":"container"}},"type":"Feature"},
	{"geometry":{"coordinates":[10.9031,48.364931],"type":"Point"},"properties":{"osm_id":"1773521746","tag":{"amenity":"recycling","check_date":"2015-08-22","opening_hours":"Mo-Sa 07:00-12:00,14:00-20:00; PH off","operator":"Stadt Augsburg (AWS)","recycling:small_appliances":"yes","recycling_type":"container"}},"type":"Feature"},
	{"geometry":{"coordinates":[10.89972,48.343721],"type":"Point"},"properties":{"osm_id":"1773534961","tag":{"amenity":"recycling","opening_hours":"Mo-Sa 07:00-12:00,14:00-20:00; PH off","operator":"Stadt Augsburg (AWS)","recycling:small_appliances":"yes","recycling_type":"container"}},"type":"Feature"},
	{"geometry":{"coordinates":[10.94968,48.34191],"type":"Point"},"properties":{"osm_id":"1823124500","tag":{"amenity":"recycling","opening_hours":"Mo-Sa 07:00-12:00,14:00-20:00; PH off","operator":"Stadt Augsburg (AWS)","recycling:small_appliances":"yes","recycling_type":"container"}},"type":"Feature"},
	{"geometry":{"coordinates":[10.925663,48.354102],"type":"Point"},"properties":{"osm_id":"1823124501","tag":{"amenity":"recycling","check_date":"2014-05-10","opening_hours":"Mo-Sa 07:00-12:00,14:00-20:00; PH off","operator":"Stadt Augsburg (AWS)","recycling:small_appliances":"yes","recycling_type":"container"}},"type":"Feature"},
	{"geometry":{"coordinates":[10.936992,48.365243],"type":"Point"},"properties":{"osm_id":"1823124502","tag":{"amenity":"recycling","opening_hours":"Mo-Sa 07:00-12:00,14:00-20:00; PH off","operator":"Stadt Augsburg (AWS)","recycling:small_appliances":"yes","recycling_type":"container"}},"type":"Feature"},
	{"geometry":{"coordinates":[10.948086,48.36545],"type":"Point"},"properties":{"osm_id":"1823124503","tag":{"amenity":"recycling","operator":"Aktion Hoffnung","recycling:clothes":"yes","recycling:shoes":"yes","recycling_type":"container"}},"type":"Feature"},
	{"geometry":{"coordinates":[10.948096,48.365477],"type":"Point"},"properties":{"osm_id":"1823124504","tag":{"amenity":"recycling","opening_hours":"Mo-Sa 07:00-12:00,14:00-20:00; PH off","operator":"Stadt Augsburg (AWS)","recycling:small_appliances":"yes","recycling_type":"container"}},"type":"Feature"},
	{"geometry":{"coordinates":[10.952507,48.380429],"type":"Point"},"properties":{"osm_id":"1823124506","tag":{"amenity":"recycling","operator":"REMONDIS","recycling:glass":"yes","recycling_type":"container"}},"type":"Feature"},
	{"geometry":{"coordinates":[10.952548,48.380437],"type":"Point"},"properties":{"osm_id":"1823124507","tag":{"amenity":"recycling","opening_hours":"Mo-Sa 07:00-12:00,14:00-20:00; PH off","operator":"Stadt Augsburg (AWS)","recycling:small_appliances":"yes","recycling_type":"container"}},"type":"Feature"},
	{"geometry":{"coordinates":[10.952612,48.380448],"type":"Point"},"properties":{"osm_id":"1823124508","tag":{"amenity":"recycling","recycling:clothes":"yes","recycling:shoes":"yes","recycling_type":"container"}},"type":"Feature"},
	{"geometry":{"coordinates":[10.902068,48.376274],"type":"Point"},"properties":{"osm_id":"1823777973","tag":{"amenity":"recycling","operator":"REMONDIS","recycling:glass_bottles":"yes","recycling_type":"container"}},"type":"Feature"},
	{"geometry":{"coordinates":[10.902062,48.376344],"type":"Point"},"properties":{"osm_id":"1823777976","tag":{"amenity":"recycling","opening_hours":"Mo-Sa 07:00-12:00,14:00-20:00; PH off","operator":"Stadt Augsburg (AWS)","recycling:small_appliances":"yes","recycling_type":"container"}},"type":"Feature"},
	{"geometry":{"coordinates":[10.902053,48.376372],"type":"Point"},"properties":{"osm_id":"1823777980","tag":{"amenity":"recycling","operator":"Aktion Hoffnung","recycling:clothes":"yes","recycling:shoes":"yes","recycling_type":"container"}},"type":"Feature"},
	{"geometry":{"coordinates":[10.903379,48.383777],"type":"Point"},"properties":{"osm_id":"1823777995","tag":{"amenity":"recycling","operator":"Aktion Hoffnung","recycling:clothes":"yes","recycling:shoes":"yes","recycling_type":"container"}},"type":"Feature"},
	{"geometry":{"coordinates":[10.903371,48.383793],"type":"Point"},"properties":{"osm_id":"1823777996","tag":{"amenity":"recycling","opening_hours":"Mo-Sa 07:00-12:00,14:00-20:00; PH off","operator":"Stadt Augsburg (AWS)","recycling:small_appliances":"yes","recycling_type":"container"}},"type":"Feature"},
	{"geometry":{"coordinates":[10.903385,48.383825],"type":"Point"},"properties":{"osm_id":"1823777998","tag":{"amenity":"recycling","operator":"REMONDIS","recycling:glass":"yes","recycling_type":"container"}},"type":"Feature"},
	{"geometry":{"coordinates":[10.919055,48.397537],"type":"Point"},"properties":{"osm_id":"1823778050","tag":{"amenity":"recycling","opening_hours":"Mo-Sa 07:00-12:00,14:00-20:00; PH off","operator":"Stadt Augsburg (AWS)","recycling:small_appliances":"yes","recycling_type":"container"}},"type":"Feature"},
	{"geometry":{"coordinates":[10.904684,48.396404],"type":"Point"},"properties":{"osm_id":"2072666046","tag":{"amenity":"recycling","recycling:glass":"yes","recycling_type":"container"}},"type":"Feature"},
	{"geometry":{"coordinates":[10.904612,48.35752],"type":"Point"},"properties":{"osm_id":"2298378858","tag":{"amenity":"recycling","operator":"Aktion Hoffnung","recycling:clothes":"yes","recycling:shoes":"yes","recycling_type":"container"}},"type":"Feature"},
	{"geometry":{"coordinates":[10.904594,48.357532],"type":"Point"},"properties":{"osm_id":"2298378859","tag":{"amenity":"recycling","recycling:glass":"no","recycling:glass_bottles":"yes","recycling_type":"container"}},"type":"Feature"},
	{"geometry":{"coordinates":[10.929299,48.360717],"type":"Point"},"properties":{"osm_id":"2373363994","tag":{"amenity":"recycling","recycling:clothes":"yes","recycling:shoes":"yes","recycling_type":"container"}},"type":"Feature"},
	{"geometry":{"coordinates":[10.918745,48.361969],"type":"Point"},"properties":{"osm_id":"2382838529","tag":{"amenity":"recycling","operator":"REMONDIS","recycling:glass":"yes","recycling_type":"container"}},"type":"Feature"},
	{"geometry":{"coordinates":[10.918703,48.36197],"type":"Point"},"properties":{"osm_id":"2382838530","tag":{"amenity":"recycling","opening_hours":"Mo-Sa 07:00-12:00,14:00-20:00; PH off","operator":"Stadt Augsburg (AWS)","recycling:small_appliances":"yes","recycling_type":"container"}},"type":"Feature"},
	{"geometry":{"coordinates":[10.922363,48.367476],"type":"Point"},"properties":{"osm_id":"2382838577","tag":{"amenity":"recycling","recycling:clothes":"yes","recycling:electrical_appliances":"yes","recycling:shoes":"yes","recycling_type":"container"}},"type":"Feature"},
	{"geometry":{"coordinates":[10.933759,48.378041],"type":"Point"},"properties":{"osm_id":"2382838621","tag":{"amenity":"recycling","recycling:clothes":"yes","recycling:shoes":"yes","recycling_type":"container"}},"type":"Feature"},
	{"geometry":{"coordinates":[10.900997,48.351405],"type":"Point"},"properties":{"osm_id":"2455123527","tag":{"amenity":"recycling","recycling:clothes":"yes","recycling:glass":"yes","recycling_type":"container"}},"type":"Feature"},
	{"geometry":{"coordinates":[10.899891,48.344324],"type":"Point"},"properties":{"osm_id":"2503476775","tag":{"amenity":"waste_basket"}},"type":"Feature"},
	{"geometry":{"coordinates":[10.898559,48.354848],"type":"Point"},"properties":{"osm_id":"2503476780","tag":{"amenity":"waste_basket"}},"type":"Feature"},
	{"geometry":{"coordinates":[10.898986,48.370384],"type":"Point"},"properties":{"osm_id":"2542009880","tag":{"amenity":"recycling","opening_hours":"Mo-Sa 07:00-12:00,14:00-20:00; PH off","operator":"Stadt Augsburg (AWS)","recycling:small_appliances":"yes","recycling_type":"container"}},"type":"Feature"},
	{"geometry":{"coordinates":[10.90235,48.35659],"type":"Point"},"properties":{"osm_id":"2569359595","tag":{"amenity":"waste_basket"}},"type":"Feature"},
	{"geometry":{"coordinates":[10.905146,48.357109],"type":"Point"},"properties":{"osm_id":"2569359597","tag":{"amenity":"waste_basket"}},"type":"Feature"},
	{"geometry":{"coordinates":[10.902866,48.357725],"type":"Point"},"properties":{"osm_id":"2569359603","tag":{"amenity":"waste_basket"}},"type":"Feature"},
	{"geometry":{"coordinates":[10.9031,48.357849],"type":"Point"},"properties":{"osm_id":"2569359608","tag":{"amenity":"waste_basket"}},"type":"Feature"},
	{"geometry":{"coordinates":[10.902814,48.357865],"type":"Point"},"properties":{"osm_id":"2569359609","tag":{"amenity":"waste_basket"}},"type":"Feature"},
	{"geometry":{"coordinates":[10.902456,48.357886],"type":"Point"},"properties":{"osm_id":"2569359611","tag":{"amenity":"waste_basket"}},"type":"Feature"},
	{"geometry":{"coordinates":[10.916491,48.35731],"type":"Point"},"properties":{"osm_id":"2617258452","tag":{"amenity":"recycling","mapillary":"akWQoDWzXAFR75ALuhqbzg","operator":"REMONDIS","recycling:glass":"no","recycling:glass_bottles":"yes","recycling_type":"container","survey:date":"2018-03-12"}},"type":"Feature"},
	{"geometry":{"coordinates":[10.916516,48.357348],"type":"Point"},"properties":{"osm_id":"2617258453","tag":{"amenity":"recycling","check_date":"2018-03-12","opening_hours":"Mo-Sa 07:00-12:00,14:00-20:00; PH off","operator":"Stadt Augsburg (AWS)","recycling:small_appliances":"yes","recycling_type":"container"}},"type":"Feature"},
	{"geometry":{"coordinates":[10.916534,48.357379],"type":"Point"},"properties":{"osm_id":"2617258454","tag":{"amenity":"recycling","check_date":"2018-03-12","operator":"Aktion Hoffnung","recycling:clothes":"yes","recycling:shoes":"yes","recycling_type":"container"}},"type":"Feature"},
	{"geometry":{"coordinates":[10.914544,48.354708],"type":"Point"},"properties":{"osm_id":"2848564180","tag":{"amenity":"recycling","opening_hours":"Mo-Sa 07:00-12:00,14:00-20:00; PH off","operator":"Stadt Augsburg (AWS)","recycling:small_appliances":"yes","recycling_type":"container"}},"type":"Feature"},
	{"geometry":{"coordinates":[10.942816,48.344346],"type":"Point"},"properties":{"osm_id":"2848746407","tag":{"amenity":"recycling","check_date":"2014-05-10","operator":"Aktion Hoffnung","recycling:clothes":"yes","recycling:shoes":"yes","recycling_type":"container"}},"type":"Feature"},
	{"geometry":{"coordinates":[10.942848,48.344358],"type":"Point"},"properties":{"osm_id":"2848746409","tag":{"amenity":"recycling","check_date":"2014-05-10","opening_hours":"Mo-Sa 07:00-12:00,14:00-20:00; PH off","operator":"Stadt Augsburg (AWS)","recycling:small_appliances":"yes","recycling_type":"container"}},"type":"Feature"},
	{"geometry":{"coordinates":[10.939541,48.344846],"type":"Point"},"properties":{"osm_id":"2848746423","tag":{"amenity":"recycling","opening_hours":"Mo-Sa 07:00-12:00,14:00-20:00; PH off","operator":"Stadt Augsburg (AWS)","recycling:small_appliances":"yes","recycling_type":"container"}},"type":"Feature"},
	{"geometry":{"coordinates":[10.939564,48.344847],"type":"Point"},"properties":{"osm_id":"2848746424","tag":{"amenity":"recycling","operator":"Aktion Hoffnung","recycling:clothes":"yes","recycling:shoes":"yes","recycling_type":"container"}},"type":"Feature"},
	{"geometry":{"coordinates":[10.92379,48.352253],"type":"Point"},"properties":{"osm_id":"2848746450","tag":{"amenity":"recycling","check_date":"2014-05-10","operator":"REMONDIS","recycling:glass":"yes","recycling_type":"container"}},"type":"Feature"},
	{"geometry":{"coordinates":[10.923756,48.352267],"type":"Point"},"properties":{"osm_id":"2848746451","tag":{"amenity":"recycling","check_date":"2014-05-10","opening_hours":"Mo-Sa 07:00-12:00,14:00-20:00; PH off","operator":"Stadt Augsburg (AWS)","recycling:small_appliances":"yes","recycling_type":"container"}},"type":"Feature"},
	{"geometry":{"coordinates":[10.923736,48.352276],"type":"Point"},"properties":{"osm_id":"2848746452","tag":{"amenity":"recycling","check_date":"2014-05-10","operator":"Aktion Hoffnung","recycling:clothes":"yes","recycling:shoes":"yes","recycling_type":"container"}},"type":"Feature"},
	{"geometry":{"coordinates":[10.929684,48.353668],"type":"Point"},"properties":{"osm_id":"2848746463","tag":{"amenity":"recycling","check_date":"2016-07","operator":"REMONDIS","recycling:glass_bottles":"yes","recycling_type":"container"}},"type":"Feature"},
	{"geometry":{"coordinates":[10.929647,48.353697],"type":"Point"},"properties":{"osm_id":"2848746464","tag":{"amenity":"recycling","check_date":"2014-05-10","operator":"Aktion Hoffnung","recycling:clothes":"yes","recycling:shoes":"yes","recycling_type":"container"}},"type":"Feature"},
	{"geometry":{"coordinates":[10.94705,48.344652],"type":"Point"},"properties":{"osm_id":"2849840183","tag":{"amenity":"recycling","check_date":"2014-05-10","opening_hours":"Mo-Sa 07:00-12:00,14:00-20:00; PH off","operator":"Stadt Augsburg (AWS)","recycling:small_appliances":"yes","recycling_type":"container"}},"type":"Feature"},
	{"geometry":{"coordinates":[10.903798,48.345809],"type":"Point"},"properties":{"osm_id":"2849840199","tag":{"amenity":"recycling","operator":"ScaTex","recycling:clothes":"yes","recycling:shoes":"yes","recycling_type":"container"}},"type":"Feature"},
	{"geometry":{"coordinates":[10.901511,48.34679],"type":"Point"},"properties":{"osm_id":"2849840316","tag":{"amenity":"recycling","operator":"Stadt Augsburg (AWS)","recycling:glass":"yes","recycling_type":"container"}},"type":"Feature"},
	{"geometry":{"coordinates":[10.918046,48.375328],"type":"Point"},"properties":{"osm_id":"2849913592","tag":{"amenity":"recycling","check_date":"2014-05-10","operator":"Aktion Hoffnung","recycling:clothes":"yes","recycling:shoes":"yes","recycling_type":"container"}},"type":"Feature"},
	{"geometry":{"coordinates":[10.918053,48.375346],"type":"Point"},"properties":{"osm_id":"2849913593","tag":{"amenity":"recycling","check_date":"2014-05-10","opening_hours":"Mo-Sa 07:00-12:00,14:00-20:00; PH off","operator":"Stadt Augsburg (AWS)","recycling:small_appliances":"yes","recycling_type":"container"}},"type":"Feature"},
	{"geometry":{"coordinates":[10.918032,48.375308],"type":"Point"},"properties":{"osm_id":"2849913594","tag":{"amenity":"recycling","check_date":"2014-05-10","operator":"REMONDIS","recycling:glass":"yes","recycling_type":"container"}},"type":"Feature"},
	{"geometry":{"coordinates":[10.927118,48.378692],"type":"Point"},"properties":{"osm_id":"2849913708","tag":{"amenity":"recycling","check_date":"2014-05-10","operator":"Aktion Hoffnung","recycling:clothes":"yes","recycling:shoes":"yes","recycling_type":"container"}},"type":"Feature"},
	{"geometry":{"coordinates":[10.927064,48.378725],"type":"Point"},"properties":{"osm_id":"2849913709","tag":{"amenity":"recycling","last_checked":"2014-05-10","opening_hours":"Mo-Sa 07:00-12:00,14:00-20:00; PH off","operator":"Stadt Augsburg (AWS)","recycling:small_appliances":"yes","recycling_type":"container"}},"type":"Feature"},
	{"geometry":{"coordinates":[10.944522,48.353824],"type":"Point"},"properties":{"osm_id":"2852217304","tag":{"amenity":"recycling","opening_hours":"Mo-Sa 07:00-12:00,14:00-20:00; PH off","operator":"Stadt Augsburg (AWS)","recycling:small_appliances":"yes","recycling_type":"container"}},"type":"Feature"},
	{"geometry":{"coordinates":[10.944509,48.353854],"type":"Point"},"properties":{"osm_id":"2852217305","tag":{"amenity":"recycling","operator":"REMONDIS","recycling:glass":"yes","recycling_type":"container"}},"type":"Feature"},
	{"geometry":{"coordinates":[10.94439,48.354132],"type":"Point"},"properties":{"osm_id":"2852217306","tag":{"amenity":"recycling","operator":"Aktion Hoffnung","recycling:clothes":"yes","recycling:shoes":"yes","recycling_type":"container"}},"type":"Feature"},
	{"geometry":{"coordinates":[10.940954,48.359381],"type":"Point"},"properties":{"osm_id":"2852232381","tag":{"amenity":"recycling","opening_hours":"Mo-Sa 07:00-12:00,14:00-20:00; PH off","operator":"Stadt Augsburg (AWS)","recycling:small_appliances":"yes","recycling_type":"container"}},"type":"Feature"},
	{"geometry":{"coordinates":[10.940016,48.359482],"type":"Point"},"properties":{"osm_id":"2852232390","tag":{"amenity":"recycling","operator":"REMONDIS","recycling:glass":"yes","recycling_type":"container"}},"type":"Feature"},
	{"geometry":{"coordinates":[10.936455,48.361412],"type":"Point"},"properties":{"osm_id":"2852232394","tag":{"amenity":"recycling","operator":"REMONDIS","recycling:glass":"yes","recycling_type":"container"}},"type":"Feature"},
	{"geometry":{"coordinates":[10.934734,48.364065],"type":"Point"},"properties":{"osm_id":"2852232502","tag":{"amenity":"recycling","operator":"Aktion Hoffnung","recycling:clothes":"yes","recycling:shoes":"yes","recycling_type":"container"}},"type":"Feature"},
	{"geometry":{"coordinates":[10.927364,48.344562],"type":"Point"},"properties":{"osm_id":"2880167201","tag":{"amenity":"waste_basket"}},"type":"Feature"},
	{"geometry":{"coordinates":[10.914046,48.394892],"type":"Point"},"properties":{"osm_id":"2976240521","tag":{"amenity":"recycling","recycling:clothes":"yes","recycling:glass":"yes","recycling_type":"container"}},"type":"Feature"},
	{"geometry":{"coordinates":[10.920074,48.392943],"type":"Point"},"properties":{"osm_id":"2981030365","tag":{"amenity":"recycling","opening_hours":"Mo-Sa 07:00-12:00,14:00-20:00; PH off","operator":"Stadt Augsburg (AWS)","recycling:small_appliances":"yes","recycling_type":"container"}},"type":"Feature"},
	{"geometry":{"coordinates":[10.928016,48.380501],"type":"Point"},"properties":{"osm_id":"2986109554","tag":{"amenity":"recycling","opening_hours":"Mo-Sa 07:00-12:00,14:00-20:00; PH off","operator":"Stadt Augsburg (AWS)","recycling:small_appliances":"yes","recycling_type":"container"}},"type":"Feature"},
	{"geometry":{"coordinates":[10.938232,48.356291],"type":"Point"},"properties":{"osm_id":"2991294346","tag":{"amenity":"recycling","opening_hours":"Mo-Sa 07:00-12:00,14:00-20:00; PH off","operator":"Stadt Augsburg (AWS)","recycling:small_appliances":"yes","recycling_type":"container"}},"type":"Feature"},
	{"geometry":{"coordinates":[10.904629,48.357508],"type":"Point"},"properties":{"osm_id":"2992327690","tag":{"amenity":"recycling","opening_hours":"Mo-Sa 07:00-12:00,14:00-20:00; PH off","operator":"Stadt Augsburg (AWS)","recycling:small_appliances":"yes","recycling_type":"container"}},"type":"Feature"},
	{"geometry":{"coordinates":[10.906319,48.396641],"type":"Point"},"properties":{"osm_id":"3094858170","tag":{"amenity":"recycling","recycling:clothes":"yes","recycling_type":"container"}},"type":"Feature"},
	{"geometry":{"coordinates":[10.906317,48.396658],"type":"Point"},"properties":{"osm_id":"3094858171","tag":{"amenity":"recycling","opening_hours":"Mo-Sa 07:00-12:00,14:00-20:00; PH off","operator":"Stadt Augsburg (AWS)","recycling:small_appliances":"yes","recycling_type":"container"}},"type":"Feature"},
	{"geometry":{"coordinates":[10.912671,48.386387],"type":"Point"},"properties":{"osm_id":"3166382607","tag":{"amenity":"recycling"}},"type":"Feature"},
	{"geometry":{"coordinates":[10.975703,48.356719],"type":"Point"},"properties":{"osm_id":"3220516933","tag":{"amenity":"waste_basket"}},"type":"Feature"},
	{"geometry":{"coordinates":[10.905859,48.382491],"type":"Point"},"properties":{"osm_id":"3282136609","tag":{"amenity":"recycling","recycling:clothes":"yes"}},"type":"Feature"},
	{"geometry":{"coordinates":[10.927991,48.380469],"type":"Point"},"properties":{"osm_id":"3286687120","tag":{"amenity":"recycling","recycling:glass":"yes","recycling_type":"container"}},"type":"Feature"},
	{"geometry":{"coordinates":[10.925732,48.382836],"type":"Point"},"properties":{"osm_id":"3286687126","tag":{"amenity":"recycling","recycling:clothes":"yes","recycling_type":"container"}},"type":"Feature"},
	{"geometry":{"coordinates":[10.92011,48.392944],"type":"Point"},"properties":{"osm_id":"3387891212","tag":{"amenity":"recycling","recycling:glass":"yes","recycling_type":"container"}},"type":"Feature"},
	{"geometry":{"coordinates":[10.899115,48.368907],"type":"Point"},"properties":{"osm_id":"3709076431","tag":{"amenity":"waste_basket"}},"type":"Feature"},
	{"geometry":{"coordinates":[10.899509,48.368912],"type":"Point"},"properties":{"osm_id":"3709076433","tag":{"amenity":"waste_disposal"}},"type":"Feature"},
	{"geometry":{"coordinates":[10.911875,48.360932],"type":"Point"},"properties":{"osm_id":"3710512304","tag":{"amenity":"recycling","operator":"REMONDIS","recycling:glass":"yes","recycling_type":"container"}},"type":"Feature"},
	{"geometry":{"coordinates":[10.911854,48.360953],"type":"Point"},"properties":{"osm_id":"3710512305","tag":{"amenity":"recycling","operator":"REMONDIS","recycling:clothes":"yes","recycling:shoes":"yes","recycling_type":"container"}},"type":"Feature"},
	{"geometry":{"coordinates":[10.915909,48.36102],"type":"Point"},"properties":{"osm_id":"3710512306","tag":{"amenity":"recycling","check_date":"2015-08-22","operator":"Aktion Hoffnung","recycling:clothes":"yes","recycling:shoes":"yes","recycling_type":"container"}},"type":"Feature"},
	{"geometry":{"coordinates":[10.915914,48.36104],"type":"Point"},"properties":{"osm_id":"3710512307","tag":{"amenity":"recycling","check_date":"2015-08-22","opening_hours":"Mo-Sa 07:00-12:00,14:00-20:00; PH off","operator":"Stadt Augsburg (AWS)","recycling:small_appliances":"yes","recycling_type":"container"}},"type":"Feature"},
	{"geometry":{"coordinates":[10.90478,48.363617],"type":"Point"},"properties":{"osm_id":"3710512324","tag":{"amenity":"recycling","operator":"Aktion Hoffnung","recycling:clothes":"yes","recycling:shoes":"yes","recycling_type":"container"}},"type":"Feature"},
	{"geometry":{"coordinates":[10.904841,48.363623],"type":"Point"},"properties":{"osm_id":"3710515226","tag":{"amenity":"recycling","operator":"REMONDIS","recycling:glass":"yes","recycling_type":"container"}},"type":"Feature"},
	{"geometry":{"coordinates":[10.89949,48.368627],"type":"Point"},"properties":{"osm_id":"3731389448","tag":{"amenity":"waste_basket"}},"type":"Feature"},
	{"geometry":{"coordinates":[10.949036,48.342831],"type":"Point"},"properties":{"osm_id":"3814102468","tag":{"amenity":"recycling","recycling:plastic_packaging":"yes","recycling:waste":"yes","recycling_type":"container","wheelchair":"yes"}},"type":"Feature"},
	{"geometry":{"coordinates":[10.898485,48.354383],"type":"Point"},"properties":{"osm_id":"3878990489","tag":{"amenity":"recycling","check_date":"2018-05-19","operator":"Stadt Augsburg (AWS)","recycling:electrical_appliances":"yes","recycling:small_appliances":"yes","recycling_type":"container"}},"type":"Feature"},
	{"geometry":{"coordinates":[10.898485,48.354367],"type":"Point"},"properties":{"osm_id":"3878990490","tag":{"amenity":"recycling","check_date":"2018-05-19","operator":"Fa. Remondis","recycling:glass":"yes","recycling_type":"container"}},"type":"Feature"},
	{"geometry":{"coordinates":[10.960125,48.351804],"type":"Point"},"properties":{"osm_id":"3906168887","tag":{"amenity":"recycling","operator":"Remondis","recycling:glass":"yes","recycling_type":"container"}},"type":"Feature"},
	{"geometry":{"coordinates":[10.960124,48.351832],"type":"Point"},"properties":{"osm_id":"3906168888","tag":{"amenity":"recycling","operator":"K\u00c3\u00bchl, Gersthofen","recycling:cans":"yes","recycling_type":"container"}},"type":"Feature"},
	{"geometry":{"coordinates":[10.960133,48.351856],"type":"Point"},"properties":{"osm_id":"3906168889","tag":{"amenity":"recycling","operator":"Ibeko, Neus\u00c3\u00a4\u00c3\u009f","recycling:clothes":"yes","recycling:shoes":"yes","recycling_type":"container"}},"type":"Feature"},
	{"geometry":{"coordinates":[10.979057,48.354721],"type":"Point"},"properties":{"osm_id":"3978395880","tag":{"amenity":"waste_basket"}},"type":"Feature"},
	{"geometry":{"coordinates":[10.978876,48.354818],"type":"Point"},"properties":{"osm_id":"3978395886","tag":{"amenity":"waste_basket"}},"type":"Feature"},
	{"geometry":{"coordinates":[10.978117,48.354838],"type":"Point"},"properties":{"osm_id":"3978395892","tag":{"amenity":"waste_basket"}},"type":"Feature"},
	{"geometry":{"coordinates":[10.980275,48.354905],"type":"Point"},"properties":{"osm_id":"3978395893","tag":{"amenity":"waste_basket"}},"type":"Feature"},
	{"geometry":{"coordinates":[10.97888,48.355099],"type":"Point"},"properties":{"osm_id":"3978395906","tag":{"amenity":"waste_basket"}},"type":"Feature"},
	{"geometry":{"coordinates":[10.977878,48.355193],"type":"Point"},"properties":{"osm_id":"3978395917","tag":{"amenity":"waste_basket"}},"type":"Feature"},
	{"geometry":{"coordinates":[10.981492,48.355232],"type":"Point"},"properties":{"osm_id":"3978395923","tag":{"amenity":"waste_basket"}},"type":"Feature"},
	{"geometry":{"coordinates":[10.978802,48.355299],"type":"Point"},"properties":{"osm_id":"3978395927","tag":{"amenity":"waste_basket"}},"type":"Feature"},
	{"geometry":{"coordinates":[10.981519,48.355397],"type":"Point"},"properties":{"osm_id":"3978395933","tag":{"amenity":"waste_basket"}},"type":"Feature"},
	{"geometry":{"coordinates":[10.982187,48.355418],"type":"Point"},"properties":{"osm_id":"3978395937","tag":{"amenity":"waste_basket"}},"type":"Feature"},
	{"geometry":{"coordinates":[10.978069,48.35544],"type":"Point"},"properties":{"osm_id":"3978395944","tag":{"amenity":"waste_basket"}},"type":"Feature"},
	{"geometry":{"coordinates":[10.983208,48.355456],"type":"Point"},"properties":{"osm_id":"3978395962","tag":{"amenity":"waste_basket"}},"type":"Feature"},
	{"geometry":{"coordinates":[10.982143,48.355516],"type":"Point"},"properties":{"osm_id":"3978395966","tag":{"amenity":"waste_basket"}},"type":"Feature"},
	{"geometry":{"coordinates":[10.978555,48.355524],"type":"Point"},"properties":{"osm_id":"3978395969","tag":{"amenity":"waste_basket"}},"type":"Feature"},
	{"geometry":{"coordinates":[10.98365,48.355577],"type":"Point"},"properties":{"osm_id":"3978395982","tag":{"amenity":"waste_basket"}},"type":"Feature"},
	{"geometry":{"coordinates":[10.983697,48.355581],"type":"Point"},"properties":{"osm_id":"3978395983","tag":{"amenity":"waste_basket"}},"type":"Feature"},
	{"geometry":{"coordinates":[10.983066,48.355585],"type":"Point"},"properties":{"osm_id":"3978395985","tag":{"amenity":"waste_basket"}},"type":"Feature"},
	{"geometry":{"coordinates":[10.983953,48.355574],"type":"Point"},"properties":{"osm_id":"3978395987","tag":{"amenity":"waste_basket"}},"type":"Feature"},
	{"geometry":{"coordinates":[10.984038,48.355575],"type":"Point"},"properties":{"osm_id":"3978395990","tag":{"amenity":"waste_basket"}},"type":"Feature"},
	{"geometry":{"coordinates":[10.912096,48.365661],"type":"Point"},"properties":{"osm_id":"4265735611","tag":{"amenity":"waste_basket"}},"type":"Feature"},
	{"geometry":{"coordinates":[10.901743,48.355092],"type":"Point"},"properties":{"osm_id":"4539747536","tag":{"amenity":"waste_basket","level":"1"}},"type":"Feature"},
	{"geometry":{"coordinates":[10.978766,48.358225],"type":"Point"},"properties":{"osm_id":"4862751887","tag":{"amenity":"waste_basket"}},"type":"Feature"},
	{"geometry":{"coordinates":[10.978479,48.358106],"type":"Point"},"properties":{"osm_id":"4862751904","tag":{"amenity":"waste_basket"}},"type":"Feature"},
	{"geometry":{"coordinates":[10.977566,48.35754],"type":"Point"},"properties":{"osm_id":"4862751909","tag":{"amenity":"waste_basket"}},"type":"Feature"},
	{"geometry":{"coordinates":[10.977606,48.356826],"type":"Point"},"properties":{"osm_id":"4862751917","tag":{"amenity":"waste_basket"}},"type":"Feature"},
	{"geometry":{"coordinates":[10.978157,48.357381],"type":"Point"},"properties":{"osm_id":"4862751920","tag":{"amenity":"waste_basket"}},"type":"Feature"},
	{"geometry":{"coordinates":[10.977785,48.356726],"type":"Point"},"properties":{"osm_id":"4862765729","tag":{"amenity":"waste_basket"}},"type":"Feature"},
	{"geometry":{"coordinates":[10.980952,48.35605],"type":"Point"},"properties":{"osm_id":"4862765784","tag":{"amenity":"waste_basket"}},"type":"Feature"},
	{"geometry":{"coordinates":[10.982473,48.355346],"type":"Point"},"properties":{"osm_id":"4862765812","tag":{"amenity":"waste_basket"}},"type":"Feature"},
	{"geometry":{"coordinates":[10.979955,48.357105],"type":"Point"},"properties":{"osm_id":"4862766260","tag":{"amenity":"waste_basket"}},"type":"Feature"},
	{"geometry":{"coordinates":[10.979032,48.358479],"type":"Point"},"properties":{"osm_id":"4862766288","tag":{"amenity":"waste_basket"}},"type":"Feature"},
	{"geometry":{"coordinates":[10.914758,48.38055],"type":"Point"},"properties":{"osm_id":"4911630284","tag":{"amenity":"recycling","mapillary":"UQ72fEnT2PKr0V6lU_QaIA","recycling:clothes":"yes","recycling:glass":"no","recycling:glass_bottles":"yes","recycling_type":"container","survey:date":"2020-03-13"}},"type":"Feature"},
	{"geometry":{"coordinates":[10.903335,48.364716],"type":"Point"},"properties":{"osm_id":"5057708211","tag":{"amenity":"recycling","operator":"Aktion Hoffung","recycling:clothes":"yes","recycling:shoes":"yes","recycling_type":"container"}},"type":"Feature"},
	{"geometry":{"coordinates":[10.900228,48.370908],"type":"Point"},"properties":{"osm_id":"5338188138","tag":{"amenity":"waste_basket"}},"type":"Feature"},
	{"geometry":{"coordinates":[10.898488,48.354403],"type":"Point"},"properties":{"osm_id":"5643154071","tag":{"amenity":"recycling","check_date":"2018-05-19","operator":"Aktion Hoffnung","recycling:clothes":"yes","recycling:shoes":"yes","recycling_type":"container"}},"type":"Feature"},
	{"geometry":{"coordinates":[10.981586,48.350296],"type":"Point"},"properties":{"osm_id":"5658921955","tag":{"amenity":"recycling","recycling:clothes":"yes","recycling_type":"container"}},"type":"Feature"},
	{"geometry":{"coordinates":[10.911899,48.363203],"type":"Point"},"properties":{"osm_id":"5679598920","tag":{"amenity":"waste_basket"}},"type":"Feature"},
	{"geometry":{"coordinates":[10.904918,48.36505],"type":"Point"},"properties":{"osm_id":"6203976320","tag":{"amenity":"waste_basket"}},"type":"Feature"},
	{"geometry":{"coordinates":[10.963277,48.345041],"type":"Point"},"properties":{"osm_id":"6225464965","tag":{"amenity":"waste_basket"}},"type":"Feature"},
	{"geometry":{"coordinates":[10.964267,48.351707],"type":"Point"},"properties":{"osm_id":"6225507136","tag":{"amenity":"waste_basket"}},"type":"Feature"},
	{"geometry":{"coordinates":[10.899612,48.364429],"type":"Point"},"properties":{"osm_id":"6525013516","tag":{"amenity":"waste_basket"}},"type":"Feature"},
	{"geometry":{"coordinates":[10.977035,48.354159],"type":"Point"},"properties":{"osm_id":"6759238712","tag":{"amenity":"waste_basket","waste":"trash"}},"type":"Feature"},
	{"geometry":{"coordinates":[10.935567,48.354632],"type":"Point"},"properties":{"osm_id":"6767010039","tag":{"amenity":"recycling","recycling:clothes":"yes","recycling:shoes":"yes","recycling_type":"container"}},"type":"Feature"},
	{"geometry":{"coordinates":[10.935548,48.354656],"type":"Point"},"properties":{"osm_id":"6767010040","tag":{"amenity":"recycling","recycling:glass_bottles":"yes","recycling_type":"container"}},"type":"Feature"},
	{"geometry":{"coordinates":[10.986026,48.392781],"type":"Point"},"properties":{"osm_id":"6772522946","tag":{"amenity":"waste_basket","waste":"trash;dog_excrement"}},"type":"Feature"},
	{"geometry":{"coordinates":[10.945493,48.35425],"type":"Point"},"properties":{"osm_id":"7037805182","tag":{"amenity":"waste_basket"}},"type":"Feature"},
	{"geometry":{"coordinates":[10.977593,48.359086],"type":"Point"},"properties":{"osm_id":"7358548905","tag":{"amenity":"waste_basket"}},"type":"Feature"},
	{"geometry":{"coordinates":[10.91726,48.350645],"type":"Point"},"properties":{"osm_id":"7656370020","tag":{"amenity":"recycling","operator":"Stadt Augsburg","recycling:clothes":"yes","recycling_type":"container"}},"type":"Feature"},
	{"geometry":{"coordinates":[10.917238,48.350642],"type":"Point"},"properties":{"osm_id":"7656370021","tag":{"amenity":"recycling","operator":"Remondis","recycling:glass_bottles":"yes","recycling_type":"container"}},"type":"Feature"},
	{"geometry":{"coordinates":[10.944022,48.352501],"type":"Point"},"properties":{"osm_id":"7711658724","tag":{"amenity":"waste_basket"}},"type":"Feature"},
	{"geometry":{"coordinates":[10.919572,48.367224],"type":"Point"},"properties":{"osm_id":"7721761045","tag":{"amenity":"waste_basket"}},"type":"Feature"},
	{"geometry":{"coordinates":[10.981359,48.345526],"type":"Point"},"properties":{"osm_id":"7728640171","tag":{"amenity":"waste_basket"}},"type":"Feature"},
	{"geometry":{"coordinates":[10.981479,48.345615],"type":"Point"},"properties":{"osm_id":"7728640172","tag":{"amenity":"waste_basket"}},"type":"Feature"},
	{"geometry":{"coordinates":[10.98208,48.354655],"type":"Point"},"properties":{"osm_id":"7787317534","tag":{"amenity":"waste_basket"}},"type":"Feature"}
]
}
