{
"type": "FeatureCollection",
"features": [
	{"geometry":{"coordinates":[10.900072,48.297948],"type":"Point"},"properties":{"osm_id":"333644458","tag":{"amenity":"recycling","recycling:clothes":"yes","recycling:glass_bottles":"yes","recycling_type":"container"}},"type":"Feature"},
	{"geometry":{"coordinates":[10.906135,48.333938],"type":"Point"},"properties":{"osm_id":"413486410","tag":{"amenity":"recycling","operator":"REMONDIS","recycling:glass_bottles":"yes","recycling_type":"container"}},"type":"Feature"},
	{"geometry":{"coordinates":[10.904141,48.333785],"type":"Point"},"properties":{"osm_id":"472272031","tag":{"amenity":"recycling","recycling:clothes":"yes","recycling:glass":"yes","recycling_type":"container"}},"type":"Feature"},
	{"geometry":{"coordinates":[10.899061,48.331936],"type":"Point"},"properties":{"osm_id":"520151091","tag":{"amenity":"recycling","recycling:glass_bottles":"yes","recycling_type":"container"}},"type":"Feature"},
	{"geometry":{"coordinates":[10.904234,48.327725],"type":"Point"},"properties":{"osm_id":"638435836","tag":{"amenity":"recycling","opening_hours":"Mo-Sa 07:00-12:00,14:00-19:00; PH off","operator":"REMONDIS","phone":"+49 821 490030","recycling:glass_bottles":"yes","recycling_type":"container"}},"type":"Feature"},
	{"geometry":{"coordinates":[10.903808,48.336672],"type":"Point"},"properties":{"osm_id":"638451916","tag":{"amenity":"recycling","operator":"REMONDIS","recycling:glass_bottles":"yes","recycling_type":"container"}},"type":"Feature"},
	{"geometry":{"coordinates":[10.907274,48.302793],"type":"Point"},"properties":{"osm_id":"638943647","tag":{"amenity":"recycling","recycling:clothes":"yes","recycling:glass":"yes","recycling:shoes":"yes","recycling_type":"container"}},"type":"Feature"},
	{"geometry":{"coordinates":[10.901454,48.307929],"type":"Point"},"properties":{"osm_id":"638943759","tag":{"amenity":"recycling","operator":"REMONDIS","recycling:glass":"yes","recycling_type":"container"}},"type":"Feature"},
	{"geometry":{"coordinates":[10.911573,48.307914],"type":"Point"},"properties":{"osm_id":"638943771","tag":{"amenity":"recycling","operator":"REMONDIS","recycling:glass":"yes","recycling_type":"container"}},"type":"Feature"},
	{"geometry":{"coordinates":[10.917254,48.307712],"type":"Point"},"properties":{"osm_id":"638943773","tag":{"amenity":"recycling","recycling:clothes":"yes","recycling:glass":"yes","recycling:shoes":"yes","recycling_type":"container"}},"type":"Feature"},
	{"geometry":{"coordinates":[10.908934,48.317314],"type":"Point"},"properties":{"osm_id":"665077615","tag":{"amenity":"recycling","recycling:clothes":"yes","recycling:glass":"yes","recycling_type":"container"}},"type":"Feature"},
	{"geometry":{"coordinates":[10.905645,48.320571],"type":"Point"},"properties":{"osm_id":"708339202","tag":{"amenity":"recycling","check_date":"2017-03-17","recycling:clothes":"yes","recycling:shoes":"yes","recycling_type":"container"}},"type":"Feature"},
	{"geometry":{"coordinates":[10.937721,48.290062],"type":"Point"},"properties":{"osm_id":"712904026","tag":{"amenity":"waste_basket"}},"type":"Feature"},
	{"geometry":{"coordinates":[10.944855,48.337992],"type":"Point"},"properties":{"osm_id":"860274064","tag":{"amenity":"recycling","operator":"REMONDIS","recycling:glass":"yes","recycling_type":"container"}},"type":"Feature"},
	{"geometry":{"coordinates":[10.940913,48.341254],"type":"Point"},"properties":{"osm_id":"885889668","tag":{"amenity":"recycling","recycling:glass_bottles":"yes","recycling_type":"container"}},"type":"Feature"},
	{"geometry":{"coordinates":[10.93833,48.285127],"type":"Point"},"properties":{"osm_id":"978700566","tag":{"amenity":"waste_basket"}},"type":"Feature"},
	{"geometry":{"coordinates":[10.922205,48.329568],"type":"Point"},"properties":{"osm_id":"1288969221","tag":{"amenity":"waste_basket"}},"type":"Feature"},
	{"geometry":{"coordinates":[10.920683,48.328468],"type":"Point"},"properties":{"osm_id":"1288969290","tag":{"amenity":"waste_basket"}},"type":"Feature"},
	{"geometry":{"coordinates":[10.924401,48.330622],"type":"Point"},"properties":{"osm_id":"1288969293","tag":{"amenity":"waste_basket"}},"type":"Feature"},
	{"geometry":{"coordinates":[10.904381,48.326217],"type":"Point"},"properties":{"osm_id":"1472242865","tag":{"amenity":"recycling","operator":"Aktion Hoffnung","recycling:clothes":"yes","recycling:shoes":"yes","recycling_type":"container"}},"type":"Feature"},
	{"geometry":{"coordinates":[10.904385,48.326234],"type":"Point"},"properties":{"osm_id":"1472242867","tag":{"amenity":"recycling","operator":"REMONDIS","recycling:glass":"yes","recycling_type":"container"}},"type":"Feature"},
	{"geometry":{"coordinates":[10.900314,48.337073],"type":"Point"},"properties":{"osm_id":"1472242895","tag":{"amenity":"recycling","operator":"REMONDIS","recycling:glass":"yes","recycling_type":"container"}},"type":"Feature"},
	{"geometry":{"coordinates":[10.900283,48.337088],"type":"Point"},"properties":{"osm_id":"1472242897","tag":{"amenity":"recycling","operator":"Aktion Hoffnung","recycling:clothes":"yes","recycling:shoes":"yes","recycling_type":"container"}},"type":"Feature"},
	{"geometry":{"coordinates":[10.962505,48.30394],"type":"Point"},"properties":{"osm_id":"1478094885","tag":{"amenity":"recycling"}},"type":"Feature"},
	{"geometry":{"coordinates":[10.962181,48.312805],"type":"Point"},"properties":{"osm_id":"1478097653","tag":{"amenity":"recycling","location":"overground","recycling_type":"container"}},"type":"Feature"},
	{"geometry":{"coordinates":[10.977663,48.305762],"type":"Point"},"properties":{"osm_id":"1574705622","tag":{"amenity":"recycling","recycling_type":"container"}},"type":"Feature"},
	{"geometry":{"coordinates":[10.903906,48.313507],"type":"Point"},"properties":{"osm_id":"1602462864","tag":{"amenity":"recycling","operator":"RWE Umwelt","recycling:glass":"yes","recycling_type":"container"}},"type":"Feature"},
	{"geometry":{"coordinates":[10.907411,48.318752],"type":"Point"},"properties":{"osm_id":"1660815797","tag":{"amenity":"recycling","location":"overground","recycling:glass":"yes","recycling_type":"container"}},"type":"Feature"},
	{"geometry":{"coordinates":[10.902288,48.30439],"type":"Point"},"properties":{"osm_id":"1666029725","tag":{"amenity":"recycling","operator":"Aktion Hoffnung","recycling:clothes":"yes","recycling:shoes":"yes","recycling_type":"container"}},"type":"Feature"},
	{"geometry":{"coordinates":[10.90864,48.327009],"type":"Point"},"properties":{"osm_id":"1672176756","tag":{"amenity":"recycling","operator":"Remondis; Aktion Hoffnung","recycling:clothes":"yes","recycling:glass":"yes","recycling:shoes":"yes","recycling_type":"container"}},"type":"Feature"},
	{"geometry":{"coordinates":[10.900178,48.327664],"type":"Point"},"properties":{"osm_id":"1680151159","tag":{"amenity":"recycling","recycling:glass":"yes","recycling_type":"container"}},"type":"Feature"},
	{"geometry":{"coordinates":[10.903199,48.297424],"type":"Point"},"properties":{"osm_id":"1734998499","tag":{"amenity":"recycling","recycling:clothes":"yes","recycling:glass":"yes","recycling_type":"container"}},"type":"Feature"},
	{"geometry":{"coordinates":[10.912045,48.296154],"type":"Point"},"properties":{"osm_id":"1743184250","tag":{"amenity":"waste_basket"}},"type":"Feature"},
	{"geometry":{"coordinates":[10.904968,48.297614],"type":"Point"},"properties":{"osm_id":"1743184251","tag":{"amenity":"waste_basket"}},"type":"Feature"},
	{"geometry":{"coordinates":[10.968195,48.310746],"type":"Point"},"properties":{"osm_id":"1770937783","tag":{"amenity":"recycling","location":"overground","recycling:clothes":"yes","recycling_type":"container"}},"type":"Feature"},
	{"geometry":{"coordinates":[10.96827,48.310779],"type":"Point"},"properties":{"osm_id":"1770937784","tag":{"amenity":"recycling","location":"overground","recycling:glass_bottles":"yes","recycling_type":"container"}},"type":"Feature"},
	{"geometry":{"coordinates":[10.944826,48.337992],"type":"Point"},"properties":{"osm_id":"1823124495","tag":{"amenity":"recycling","opening_hours":"Mo-Sa 07:00-12:00,14:00-20:00; PH off","operator":"Stadt Augsburg (AWS)","recycling:small_appliances":"yes","recycling_type":"container"}},"type":"Feature"},
	{"geometry":{"coordinates":[10.944799,48.337996],"type":"Point"},"properties":{"osm_id":"1823124496","tag":{"amenity":"recycling","recycling:clothes":"yes","recycling:shoes":"yes","recycling_type":"container"}},"type":"Feature"},
	{"geometry":{"coordinates":[10.910064,48.33952],"type":"Point"},"properties":{"osm_id":"1823124497","tag":{"amenity":"recycling","opening_hours":"Mo-Sa 07:00-12:00,14:00-20:00; PH off","operator":"Stadt Augsburg (AWS)","recycling:small_appliances":"yes","recycling_type":"container"}},"type":"Feature"},
	{"geometry":{"coordinates":[10.910072,48.339543],"type":"Point"},"properties":{"osm_id":"1823124498","tag":{"amenity":"recycling","operator":"REMONDIS","recycling:glass":"yes","recycling_type":"container"}},"type":"Feature"},
	{"geometry":{"coordinates":[10.903899,48.313526],"type":"Point"},"properties":{"osm_id":"1973181071","tag":{"amenity":"recycling","operator":"Aktion Hoffnung","recycling:clothes":"yes","recycling_type":"container"}},"type":"Feature"},
	{"geometry":{"coordinates":[10.908591,48.327615],"type":"Point"},"properties":{"osm_id":"2064325963","tag":{"amenity":"recycling","recycling:shoes":"yes","recycling_type":"container"}},"type":"Feature"},
	{"geometry":{"coordinates":[10.918672,48.286644],"type":"Point"},"properties":{"osm_id":"2119659454","tag":{"amenity":"waste_basket"}},"type":"Feature"},
	{"geometry":{"coordinates":[10.918512,48.289105],"type":"Point"},"properties":{"osm_id":"2119659457","tag":{"amenity":"waste_basket"}},"type":"Feature"},
	{"geometry":{"coordinates":[10.92042,48.294527],"type":"Point"},"properties":{"osm_id":"2119659462","tag":{"amenity":"waste_basket"}},"type":"Feature"},
	{"geometry":{"coordinates":[10.899989,48.288562],"type":"Point"},"properties":{"osm_id":"2260153331","tag":{"amenity":"recycling","recycling:cans":"yes","recycling:glass":"yes","recycling_type":"container"}},"type":"Feature"},
	{"geometry":{"coordinates":[10.918808,48.300615],"type":"Point"},"properties":{"osm_id":"2317394675","tag":{"amenity":"waste_basket"}},"type":"Feature"},
	{"geometry":{"coordinates":[10.919206,48.3016],"type":"Point"},"properties":{"osm_id":"2317394679","tag":{"amenity":"waste_basket"}},"type":"Feature"},
	{"geometry":{"coordinates":[10.919748,48.302571],"type":"Point"},"properties":{"osm_id":"2317394682","tag":{"amenity":"waste_basket"}},"type":"Feature"},
	{"geometry":{"coordinates":[10.936311,48.325201],"type":"Point"},"properties":{"osm_id":"2317394688","tag":{"amenity":"waste_basket"}},"type":"Feature"},
	{"geometry":{"coordinates":[10.906544,48.28703],"type":"Point"},"properties":{"osm_id":"2324537229","tag":{"amenity":"waste_basket"}},"type":"Feature"},
	{"geometry":{"coordinates":[10.904418,48.293096],"type":"Point"},"properties":{"osm_id":"2324537240","tag":{"amenity":"waste_basket"}},"type":"Feature"},
	{"geometry":{"coordinates":[10.910057,48.339497],"type":"Point"},"properties":{"osm_id":"2336062628","tag":{"amenity":"waste_basket"}},"type":"Feature"},
	{"geometry":{"coordinates":[10.903808,48.336692],"type":"Point"},"properties":{"osm_id":"2375568632","tag":{"amenity":"recycling","opening_hours":"Mo-Sa 07:00-12:00,14:00-20:00; PH off","operator":"Stadt Augsburg (AWS)","recycling:small_appliances":"yes","recycling_type":"container"}},"type":"Feature"},
	{"geometry":{"coordinates":[10.903809,48.336654],"type":"Point"},"properties":{"osm_id":"2375568634","tag":{"amenity":"recycling","operator":"Aktion Hoffnung","recycling:clothes":"yes","recycling:shoes":"yes","recycling_type":"container"}},"type":"Feature"},
	{"geometry":{"coordinates":[10.901031,48.337067],"type":"Point"},"properties":{"osm_id":"2375568696","tag":{"amenity":"recycling","recycling:shoes":"yes","recycling_type":"container"}},"type":"Feature"},
	{"geometry":{"coordinates":[10.906473,48.340456],"type":"Point"},"properties":{"osm_id":"2382102318","tag":{"amenity":"waste_basket"}},"type":"Feature"},
	{"geometry":{"coordinates":[10.90644,48.340578],"type":"Point"},"properties":{"osm_id":"2382102325","tag":{"amenity":"waste_basket"}},"type":"Feature"},
	{"geometry":{"coordinates":[10.906002,48.29973],"type":"Point"},"properties":{"osm_id":"2394115853","tag":{"amenity":"waste_basket"}},"type":"Feature"},
	{"geometry":{"coordinates":[10.899933,48.298239],"type":"Point"},"properties":{"osm_id":"2424457986","tag":{"amenity":"waste_basket"}},"type":"Feature"},
	{"geometry":{"coordinates":[10.89846,48.296518],"type":"Point"},"properties":{"osm_id":"2440620910","tag":{"amenity":"waste_basket"}},"type":"Feature"},
	{"geometry":{"coordinates":[10.903564,48.284211],"type":"Point"},"properties":{"osm_id":"2443918648","tag":{"amenity":"waste_basket"}},"type":"Feature"},
	{"geometry":{"coordinates":[10.89934,48.290199],"type":"Point"},"properties":{"osm_id":"2466371753","tag":{"amenity":"waste_basket"}},"type":"Feature"},
	{"geometry":{"coordinates":[10.908773,48.321283],"type":"Point"},"properties":{"osm_id":"2571269560","tag":{"amenity":"waste_basket"}},"type":"Feature"},
	{"geometry":{"coordinates":[10.908472,48.323814],"type":"Point"},"properties":{"osm_id":"2571269575","tag":{"amenity":"waste_basket"}},"type":"Feature"},
	{"geometry":{"coordinates":[10.905549,48.334214],"type":"Point"},"properties":{"osm_id":"2609254796","tag":{"amenity":"recycling","recycling:clothes":"yes","recycling_type":"container"}},"type":"Feature"},
	{"geometry":{"coordinates":[10.899044,48.330094],"type":"Point"},"properties":{"osm_id":"2617219953","tag":{"amenity":"recycling","opening_hours":"Mo-Sa 07:00-12:00,14:00-20:00; PH off","operator":"Stadt Augsburg (AWS)","recycling:small_appliances":"yes","recycling_type":"container"}},"type":"Feature"},
	{"geometry":{"coordinates":[10.899044,48.33012],"type":"Point"},"properties":{"osm_id":"2617219954","tag":{"amenity":"recycling","operator":"Aktion Hoffnung","recycling:clothes":"yes","recycling:shoes":"yes","recycling_type":"container"}},"type":"Feature"},
	{"geometry":{"coordinates":[10.899045,48.330149],"type":"Point"},"properties":{"osm_id":"2617219955","tag":{"amenity":"recycling","operator":"REMONDIS","recycling:glass_bottles":"yes","recycling_type":"container"}},"type":"Feature"},
	{"geometry":{"coordinates":[10.904186,48.327727],"type":"Point"},"properties":{"osm_id":"2672540484","tag":{"amenity":"recycling","opening_hours":"Mo-Sa 07:00-12:00,14:00-20:00; PH off","operator":"Stadt Augsburg (AWS)","phone":"+49 821 324 4884","recycling:small_appliances":"yes","recycling_type":"container"}},"type":"Feature"},
	{"geometry":{"coordinates":[10.906149,48.333919],"type":"Point"},"properties":{"osm_id":"2677154327","tag":{"amenity":"recycling","recycling:clothes":"yes","recycling_type":"container"}},"type":"Feature"},
	{"geometry":{"coordinates":[10.977889,48.313461],"type":"Point"},"properties":{"osm_id":"2928277787","tag":{"amenity":"waste_basket"}},"type":"Feature"},
	{"geometry":{"coordinates":[10.903148,48.297438],"type":"Point"},"properties":{"osm_id":"2936635716","tag":{"amenity":"recycling","opening_hours":"Mo-Sa 07:00-12:00,14:00-20:00; PH off","operator":"Stadt Augsburg (AWS)","recycling:small_appliances":"yes","recycling_type":"container"}},"type":"Feature"},
	{"geometry":{"coordinates":[10.90726,48.302772],"type":"Point"},"properties":{"osm_id":"2936635717","tag":{"amenity":"recycling","opening_hours":"Mo-Sa 07:00-12:00,14:00-20:00; PH off","operator":"Stadt Augsburg (AWS)","recycling:small_appliances":"yes","recycling_type":"container"}},"type":"Feature"},
	{"geometry":{"coordinates":[10.962902,48.301653],"type":"Point"},"properties":{"osm_id":"3957436664","tag":{"amenity":"recycling","recycling:glass":"yes","recycling_type":"container"}},"type":"Feature"},
	{"geometry":{"coordinates":[10.960722,48.301787],"type":"Point"},"properties":{"osm_id":"3957436667","tag":{"amenity":"recycling","recycling:clothes":"yes","recycling:glass":"yes","recycling_type":"container"}},"type":"Feature"},
	{"geometry":{"coordinates":[10.903797,48.336758],"type":"Point"},"properties":{"osm_id":"4138823425","tag":{"amenity":"recycling","recycling:clothes":"yes","recycling:shoes":"yes","recycling_type":"container"}},"type":"Feature"},
	{"geometry":{"coordinates":[10.914221,48.313169],"type":"Point"},"properties":{"osm_id":"4286370782","tag":{"amenity":"waste_basket","waste":"excrements"}},"type":"Feature"},
	{"geometry":{"coordinates":[10.901772,48.301759],"type":"Point"},"properties":{"osm_id":"4307994807","tag":{"amenity":"recycling","operator":"Bayerisches Rotes Kreuz Kreisverband Augsburg-Stadt","recycling:clothes":"yes","recycling:shoes":"yes","recycling_type":"container"}},"type":"Feature"},
	{"geometry":{"coordinates":[10.959345,48.30122],"type":"Point"},"properties":{"osm_id":"4420118642","tag":{"amenity":"waste_basket"}},"type":"Feature"},
	{"geometry":{"coordinates":[10.959515,48.301232],"type":"Point"},"properties":{"osm_id":"4420118643","tag":{"amenity":"waste_basket"}},"type":"Feature"},
	{"geometry":{"coordinates":[10.959307,48.301415],"type":"Point"},"properties":{"osm_id":"4420118648","tag":{"amenity":"waste_basket"}},"type":"Feature"},
	{"geometry":{"coordinates":[10.95948,48.301431],"type":"Point"},"properties":{"osm_id":"4420118652","tag":{"amenity":"waste_basket"}},"type":"Feature"},
	{"geometry":{"coordinates":[10.959707,48.302847],"type":"Point"},"properties":{"osm_id":"4420118663","tag":{"amenity":"waste_basket"}},"type":"Feature"},
	{"geometry":{"coordinates":[10.969373,48.341087],"type":"Point"},"properties":{"osm_id":"4558615466","tag":{"amenity":"waste_basket"}},"type":"Feature"},
	{"geometry":{"coordinates":[10.969164,48.341337],"type":"Point"},"properties":{"osm_id":"5693384021","tag":{"amenity":"waste_basket"}},"type":"Feature"},
	{"geometry":{"coordinates":[10.909817,48.337667],"type":"Point"},"properties":{"osm_id":"5888402123","tag":{"amenity":"waste_basket"}},"type":"Feature"},
	{"geometry":{"coordinates":[10.950596,48.291262],"type":"Point"},"properties":{"osm_id":"6225258402","tag":{"amenity":"waste_basket"}},"type":"Feature"},
	{"geometry":{"coordinates":[10.951084,48.290485],"type":"Point"},"properties":{"osm_id":"6225258404","tag":{"amenity":"waste_basket"}},"type":"Feature"},
	{"geometry":{"coordinates":[10.951387,48.289866],"type":"Point"},"properties":{"osm_id":"6225258408","tag":{"amenity":"waste_basket"}},"type":"Feature"},
	{"geometry":{"coordinates":[10.951718,48.288903],"type":"Point"},"properties":{"osm_id":"6225258411","tag":{"amenity":"waste_basket"}},"type":"Feature"},
	{"geometry":{"coordinates":[10.952012,48.287387],"type":"Point"},"properties":{"osm_id":"6225258416","tag":{"amenity":"waste_basket"}},"type":"Feature"},
	{"geometry":{"coordinates":[10.89869,48.333133],"type":"Point"},"properties":{"osm_id":"6472392909","tag":{"amenity":"waste_disposal"}},"type":"Feature"},
	{"geometry":{"coordinates":[10.898487,48.333262],"type":"Point"},"properties":{"osm_id":"6472392936","tag":{"amenity":"waste_basket"}},"type":"Feature"},
	{"geometry":{"coordinates":[10.898692,48.333806],"type":"Point"},"properties":{"osm_id":"6472407629","tag":{"amenity":"waste_basket"}},"type":"Feature"},
	{"geometry":{"coordinates":[10.898458,48.333722],"type":"Point"},"properties":{"osm_id":"6472407630","tag":{"amenity":"waste_basket"}},"type":"Feature"},
	{"geometry":{"coordinates":[10.89869,48.333862],"type":"Point"},"properties":{"osm_id":"6472407632","tag":{"amenity":"waste_basket"}},"type":"Feature"},
	{"geometry":{"coordinates":[10.898538,48.333604],"type":"Point"},"properties":{"osm_id":"6472496644","tag":{"amenity":"waste_basket"}},"type":"Feature"},
	{"geometry":{"coordinates":[10.922648,48.307011],"type":"Point"},"properties":{"osm_id":"6512824657","tag":{"amenity":"waste_basket"}},"type":"Feature"},
	{"geometry":{"coordinates":[10.985758,48.297591],"type":"Point"},"properties":{"osm_id":"6593074848","tag":{"amenity":"waste_basket","vending":"excrement_bags","waste":"dog_excrement"}},"type":"Feature"},
	{"geometry":{"coordinates":[10.984152,48.29513],"type":"Point"},"properties":{"osm_id":"7159085657","tag":{"amenity":"recycling","recycling:glass_bottles":"yes","recycling_type":"container"}},"type":"Feature"},
	{"geometry":{"coordinates":[10.984185,48.295132],"type":"Point"},"properties":{"osm_id":"7159085658","tag":{"amenity":"recycling","recycling:clothes":"yes","recycling_type":"container"}},"type":"Feature"},
	{"geometry":{"coordinates":[10.963523,48.297188],"type":"Point"},"properties":{"osm_id":"7297130574","tag":{"amenity":"recycling","check_date":"2020-03-15","contact:phone":"+49 7361 931418","contact:website":"https://www.mario-seditagmbh.de/","operator":"Mario Sedita GmbH","recycling:clothes":"yes","recycling:shoes":"yes","recycling_type":"container"}},"type":"Feature"},
	{"geometry":{"coordinates":[10.938333,48.323548],"type":"Point"},"properties":{"osm_id":"7410254155","tag":{"amenity":"waste_basket"}},"type":"Feature"},
	{"geometry":{"coordinates":[10.921052,48.335633],"type":"Point"},"properties":{"osm_id":"7447352802","tag":{"amenity":"waste_basket","material":"steel"}},"type":"Feature"},
	{"geometry":{"coordinates":[10.919133,48.335598],"type":"Point"},"properties":{"osm_id":"7447352806","tag":{"amenity":"waste_basket","material":"steel"}},"type":"Feature"},
	{"geometry":{"coordinates":[10.981223,48.307714],"type":"Point"},"properties":{"osm_id":"7640858585","tag":{"amenity":"recycling","recycling_type":"container"}},"type":"Feature"},
	{"geometry":{"coordinates":[10.973084,48.310773],"type":"Point"},"properties":{"osm_id":"7640858586","tag":{"amenity":"waste_basket","waste":"dog_excrement"}},"type":"Feature"},
	{"geometry":{"coordinates":[10.963583,48.312335],"type":"Point"},"properties":{"osm_id":"7640858587","tag":{"amenity":"waste_basket","waste":"dog_excrement"}},"type":"Feature"},
	{"geometry":{"coordinates":[10.929237,48.337837],"type":"Point"},"properties":{"osm_id":"7894341962","tag":{"amenity":"waste_basket"}},"type":"Feature"},
	{"geometry":{"coordinates":[10.929716,48.338716],"type":"Point"},"properties":{"osm_id":"7894356909","tag":{"amenity":"waste_basket"}},"type":"Feature"}
]
}
