{
"type": "FeatureCollection",
"features": [
	{"geometry":{"coordinates":[10.915822,45.390299],"type":"Point"},"properties":{"osm_id":"4697121553","tag":{"amenity":"recycling","operator":"Caritas","recycling:clothes":"yes","recycling_type":"container"}},"type":"Feature"},
	{"geometry":{"coordinates":[10.91955,45.380381],"type":"Point"},"properties":{"osm_id":"5985533270","tag":{"amenity":"recycling","recycling:glass":"yes","recycling_type":"container"}},"type":"Feature"},
	{"geometry":{"coordinates":[10.925462,45.34511],"type":"Point"},"properties":{"osm_id":"7523366851","tag":{"amenity":"waste_basket"}},"type":"Feature"},
	{"geometry":{"coordinates":[10.958301,45.349797],"type":"Point"},"properties":{"osm_id":"7523425115","tag":{"amenity":"waste_basket"}},"type":"Feature"},
	{"geometry":{"coordinates":[10.943289,45.34892],"type":"Point"},"properties":{"osm_id":"7669818729","tag":{"amenity":"waste_basket"}},"type":"Feature"},
	{"geometry":{"coordinates":[10.915767,45.388529],"type":"Point"},"properties":{"osm_id":"7883465398","tag":{"amenity":"recycling","recycling:glass":"no","recycling:glass_bottles":"yes","recycling_type":"container"}},"type":"Feature"}
]
}
