{
"type": "FeatureCollection",
"features": [
	{"geometry":{"coordinates":[14.727264,51.556596],"type":"Point"},"properties":{"name":"D\u00c4\u0085b Odyna - Odinseichen","osm_id":"197663196","tag":{"genus":"Quercus","genus:de":"Eiche","monument":"yes","name:de":"Odinseichen","name:pl":"D\u00c4\u0085b Odyna","name:ru":"\u00d0\u0094\u00d1\u0083\u00d0\u00b1 \u00d0\u009e\u00d0\u00b4\u00d0\u00b8\u00d0\u00bd\u00d0\u00b0","natural":"tree","tourism":"attraction"}},"type":"Feature"},
	{"geometry":{"coordinates":[14.72427,51.555949],"type":"Point"},"properties":{"name":"Dab Hermanna - Hermannseiche","osm_id":"197953474","tag":{"genus":"Quercus","genus:de":"Eiche","leaf_type":"broadleaved","monument":"yes","name:de":"Hermannseiche","name:pl":"Dab Hermanna","name:ru":"\u00d0\u0094\u00d1\u0083\u00d0\u00b1 \u00d0\u0093\u00d0\u00b5\u00d1\u0080\u00d0\u00bc\u00d0\u00b0\u00d0\u00bd\u00d0\u00b0","natural":"tree","tourism":"attraction"}},"type":"Feature"},
	{"geometry":{"coordinates":[14.715885,51.519076],"type":"Point"},"properties":{"osm_id":"464083236","tag":{"genus":"Quercus","genus:de":"Eiche","genus:en":"Oak","leaf_cycle":"deciduous","leaf_type":"broadleaved","natural":"tree"}},"type":"Feature"},
	{"geometry":{"coordinates":[14.716973,51.516388],"type":"Point"},"properties":{"osm_id":"471316970","tag":{"genus":"Quercus","genus:de":"Eiche","genus:en":"Oak","leaf_cycle":"deciduous","leaf_type":"broadleaved","natural":"tree"}},"type":"Feature"},
	{"geometry":{"coordinates":[14.72088,51.544385],"type":"Point"},"properties":{"osm_id":"479140548","tag":{"natural":"tree"}},"type":"Feature"},
	{"geometry":{"coordinates":[14.709264,51.556627],"type":"Point"},"properties":{"osm_id":"578320641","tag":{"natural":"tree"}},"type":"Feature"},
	{"geometry":{"coordinates":[14.735642,51.549202],"type":"Point"},"properties":{"osm_id":"1401424794","tag":{"genus":"Tilia","natural":"tree"}},"type":"Feature"},
	{"geometry":{"coordinates":[14.731723,51.546764],"type":"Point"},"properties":{"name":"D\u00c4\u0085b Klementyny - Clementineneiche","osm_id":"2157504773","tag":{"genus":"Quercus","genus:de":"Eiche","monument":"yes","name:de":"Clementineneiche","name:pl":"D\u00c4\u0085b Klementyny","name:ru":"\u00d0\u0094\u00d1\u0083\u00d0\u00b1 \u00d0\u009a\u00d0\u00bb\u00d0\u00b5\u00d0\u00bc\u00d0\u00b5\u00d0\u00bd\u00d1\u0082\u00d0\u00b8\u00d0\u00bd\u00d1\u008b","natural":"tree","tourism":"attraction","url":"https://dolny-slask.org.pl/6991393,foto.html?idEntity=6991391"}},"type":"Feature"},
	{"geometry":{"coordinates":[14.721526,51.553247],"type":"Point"},"properties":{"name":"Georgseiche","osm_id":"2157504774","tag":{"genus":"Quercus","genus:de":"Eiche","name:ru":"\u00d0\u0094\u00d1\u0083\u00d0\u00b1 \u00d0\u0093\u00d0\u00b5\u00d0\u00be\u00d1\u0080\u00d0\u00b3\u00d0\u00b0","natural":"tree","tourism":"attraction"}},"type":"Feature"},
	{"geometry":{"coordinates":[14.725075,51.546118],"type":"Point"},"properties":{"osm_id":"2158974486","tag":{"natural":"tree"}},"type":"Feature"},
	{"geometry":{"coordinates":[14.725525,51.546108],"type":"Point"},"properties":{"osm_id":"2158974492","tag":{"natural":"tree"}},"type":"Feature"},
	{"geometry":{"coordinates":[14.722159,51.552988],"type":"Point"},"properties":{"osm_id":"2499146032","tag":{"natural":"tree"}},"type":"Feature"},
	{"geometry":{"coordinates":[14.742924,51.554133],"type":"Point"},"properties":{"osm_id":"2504307058","tag":{"natural":"tree"}},"type":"Feature"},
	{"geometry":{"coordinates":[14.75327,51.554834],"type":"Point"},"properties":{"osm_id":"2504307067","tag":{"natural":"tree"}},"type":"Feature"},
	{"geometry":{"coordinates":[14.749773,51.555649],"type":"Point"},"properties":{"osm_id":"2504307073","tag":{"natural":"tree"}},"type":"Feature"},
	{"geometry":{"coordinates":[14.757004,51.556184],"type":"Point"},"properties":{"osm_id":"2504307076","tag":{"natural":"tree"}},"type":"Feature"},
	{"geometry":{"coordinates":[14.754234,51.556481],"type":"Point"},"properties":{"osm_id":"2504307077","tag":{"natural":"tree"}},"type":"Feature"},
	{"geometry":{"coordinates":[14.732968,51.556684],"type":"Point"},"properties":{"osm_id":"2504307082","tag":{"genus":"Fagus","genus:de":"Buche","natural":"tree"}},"type":"Feature"},
	{"geometry":{"coordinates":[14.729575,51.55694],"type":"Point"},"properties":{"osm_id":"2504307092","tag":{"genus":"Fagus","genus:de":"Buche","natural":"tree"}},"type":"Feature"},
	{"geometry":{"coordinates":[14.758969,51.557028],"type":"Point"},"properties":{"osm_id":"2504307097","tag":{"natural":"tree"}},"type":"Feature"},
	{"geometry":{"coordinates":[14.758519,51.558363],"type":"Point"},"properties":{"osm_id":"2504307102","tag":{"natural":"tree"}},"type":"Feature"},
	{"geometry":{"coordinates":[14.719486,51.559074],"type":"Point"},"properties":{"osm_id":"2504307113","tag":{"description:de":"Eiche","genus":"Quercus","genus:de":"Eiche","natural":"tree"}},"type":"Feature"},
	{"geometry":{"coordinates":[14.750693,51.562051],"type":"Point"},"properties":{"osm_id":"2504307142","tag":{"natural":"tree"}},"type":"Feature"},
	{"geometry":{"coordinates":[14.730995,51.540527],"type":"Point"},"properties":{"osm_id":"2770137858","tag":{"natural":"tree"}},"type":"Feature"},
	{"geometry":{"coordinates":[14.731376,51.54118],"type":"Point"},"properties":{"osm_id":"2770159157","tag":{"natural":"tree"}},"type":"Feature"},
	{"geometry":{"coordinates":[14.731473,51.541356],"type":"Point"},"properties":{"osm_id":"2770159225","tag":{"natural":"tree"}},"type":"Feature"},
	{"geometry":{"coordinates":[14.72384,51.55113],"type":"Point"},"properties":{"name":"Herthaeiche - D\u00c4\u0085b Herty","osm_id":"2857654989","tag":{"name:de":"Herthaeiche","name:pl":"D\u00c4\u0085b Herty","name:ru":"\u00d0\u0094\u00d1\u0083\u00d0\u00b1 \u00d0\u0093\u00d1\u0080\u00d0\u00b5\u00d1\u0082\u00d1\u0082\u00d1\u008b","natural":"tree","species":"Quercus robur"}},"type":"Feature"},
	{"geometry":{"coordinates":[14.722803,51.55273],"type":"Point"},"properties":{"name":"Georgeiche - D\u00c4\u0085b Georga","osm_id":"2857654990","tag":{"name:de":"Georgeiche","name:pl":"D\u00c4\u0085b Georga","name:ru":"\u00d0\u0094\u00d1\u0083\u00d0\u00b1 \u00d0\u0093\u00d0\u00b5\u00d0\u00be\u00d1\u0080\u00d0\u00b3\u00d0\u00b0","natural":"tree","species":"Quercus robur"}},"type":"Feature"},
	{"geometry":{"coordinates":[14.714037,51.559488],"type":"Point"},"properties":{"name":"D\u00c4\u0085b Strzelc\u00c3\u00b3w - Sch\u00c3\u00bctzeneiche","osm_id":"2857654991","tag":{"name:de":"Sch\u00c3\u00bctzeneiche","name:pl":"D\u00c4\u0085b Strzelc\u00c3\u00b3w","natural":"tree","species":"Quercus robur"}},"type":"Feature"},
	{"geometry":{"coordinates":[14.722048,51.560375],"type":"Point"},"properties":{"name":"D\u00c4\u0085b Tora - Thoreiche","osm_id":"2857654992","tag":{"name:de":"Thoreiche","name:pl":"D\u00c4\u0085b Tora","name:ru":"\u00d0\u0094\u00d1\u0083\u00d0\u00b1 \u00d0\u00a2\u00d0\u00be\u00d1\u0080\u00d0\u00b0","natural":"tree","species":"Quercus robur"}},"type":"Feature"},
	{"geometry":{"coordinates":[14.727591,51.558845],"type":"Point"},"properties":{"name":"D\u00c4\u0085b Bli\u00c5\u00baniaczy - Zwillingseiche","osm_id":"2857654994","tag":{"name:de":"Zwillingseiche","name:pl":"D\u00c4\u0085b Bli\u00c5\u00baniaczy","name:ru":"\u00d0\u0094\u00d1\u0083\u00d0\u00b1 \u00d0\u0091\u00d0\u00bb\u00d0\u00b8\u00d0\u00b7\u00d0\u00bd\u00d0\u00b5\u00d1\u0086\u00d1\u008b","natural":"tree","species":"Quercus robur"}},"type":"Feature"},
	{"geometry":{"coordinates":[14.731255,51.554561],"type":"Point"},"properties":{"name":"D\u00c4\u0099by Si\u00c3\u00b3stra\u00c3\u009fe","osm_id":"2857684139","tag":{"natural":"tree","species":"Quercus robur"}},"type":"Feature"},
	{"geometry":{"coordinates":[14.73113,51.554328],"type":"Point"},"properties":{"name":"D\u00c4\u0085b przy widoku na Jaz","osm_id":"2857684140","tag":{"natural":"tree","species":"Quercus robur"}},"type":"Feature"},
	{"geometry":{"coordinates":[14.718428,51.513152],"type":"Point"},"properties":{"osm_id":"4999396889","tag":{"leaf_cycle":"deciduous","leaf_type":"broadleaved","natural":"tree"}},"type":"Feature"},
	{"geometry":{"coordinates":[14.718685,51.512998],"type":"Point"},"properties":{"osm_id":"4999396890","tag":{"leaf_cycle":"deciduous","leaf_type":"broadleaved","natural":"tree"}},"type":"Feature"},
	{"geometry":{"coordinates":[14.718646,51.513085],"type":"Point"},"properties":{"osm_id":"4999396891","tag":{"leaf_cycle":"deciduous","leaf_type":"broadleaved","natural":"tree"}},"type":"Feature"},
	{"geometry":{"coordinates":[14.718647,51.513186],"type":"Point"},"properties":{"osm_id":"4999396892","tag":{"leaf_cycle":"deciduous","leaf_type":"broadleaved","natural":"tree"}},"type":"Feature"},
	{"geometry":{"coordinates":[14.718934,51.513166],"type":"Point"},"properties":{"osm_id":"4999396893","tag":{"leaf_cycle":"deciduous","leaf_type":"broadleaved","natural":"tree"}},"type":"Feature"},
	{"geometry":{"coordinates":[14.719142,51.5129],"type":"Point"},"properties":{"osm_id":"4999396894","tag":{"leaf_cycle":"deciduous","leaf_type":"broadleaved","natural":"tree"}},"type":"Feature"},
	{"geometry":{"coordinates":[14.719375,51.512945],"type":"Point"},"properties":{"osm_id":"4999396895","tag":{"leaf_cycle":"deciduous","leaf_type":"broadleaved","natural":"tree"}},"type":"Feature"},
	{"geometry":{"coordinates":[14.719442,51.512882],"type":"Point"},"properties":{"osm_id":"4999396896","tag":{"leaf_cycle":"deciduous","leaf_type":"broadleaved","natural":"tree"}},"type":"Feature"},
	{"geometry":{"coordinates":[14.721153,51.51265],"type":"Point"},"properties":{"osm_id":"4999396897","tag":{"leaf_cycle":"deciduous","leaf_type":"broadleaved","natural":"tree"}},"type":"Feature"},
	{"geometry":{"coordinates":[14.717789,51.513818],"type":"Point"},"properties":{"osm_id":"4999396899","tag":{"leaf_cycle":"deciduous","leaf_type":"broadleaved","natural":"tree"}},"type":"Feature"},
	{"geometry":{"coordinates":[14.708711,51.555111],"type":"Point"},"properties":{"osm_id":"4999510539","tag":{"leaf_cycle":"deciduous","leaf_type":"broadleaved","natural":"tree"}},"type":"Feature"},
	{"geometry":{"coordinates":[14.719893,51.549494],"type":"Point"},"properties":{"osm_id":"5368483699","tag":{"leaf_cycle":"deciduous","leaf_type":"broadleaved","natural":"tree"}},"type":"Feature"},
	{"geometry":{"coordinates":[14.720478,51.549514],"type":"Point"},"properties":{"osm_id":"5368483700","tag":{"leaf_cycle":"deciduous","leaf_type":"broadleaved","natural":"tree"}},"type":"Feature"},
	{"geometry":{"coordinates":[14.720735,51.549308],"type":"Point"},"properties":{"osm_id":"5368483701","tag":{"leaf_cycle":"deciduous","leaf_type":"broadleaved","natural":"tree"}},"type":"Feature"},
	{"geometry":{"coordinates":[14.721476,51.549214],"type":"Point"},"properties":{"osm_id":"5368483702","tag":{"leaf_cycle":"deciduous","leaf_type":"broadleaved","natural":"tree"}},"type":"Feature"},
	{"geometry":{"coordinates":[14.720623,51.551349],"type":"Point"},"properties":{"osm_id":"5368483703","tag":{"leaf_cycle":"deciduous","leaf_type":"broadleaved","natural":"tree"}},"type":"Feature"},
	{"geometry":{"coordinates":[14.72272,51.550185],"type":"Point"},"properties":{"osm_id":"5368483704","tag":{"leaf_cycle":"deciduous","leaf_type":"broadleaved","natural":"tree"}},"type":"Feature"},
	{"geometry":{"coordinates":[14.723096,51.550292],"type":"Point"},"properties":{"osm_id":"5368483705","tag":{"leaf_cycle":"deciduous","leaf_type":"broadleaved","natural":"tree"}},"type":"Feature"},
	{"geometry":{"coordinates":[14.724716,51.551633],"type":"Point"},"properties":{"osm_id":"5368483706","tag":{"leaf_cycle":"deciduous","leaf_type":"broadleaved","natural":"tree"}},"type":"Feature"},
	{"geometry":{"coordinates":[14.724667,51.551299],"type":"Point"},"properties":{"osm_id":"5368483707","tag":{"leaf_cycle":"deciduous","leaf_type":"broadleaved","natural":"tree"}},"type":"Feature"},
	{"geometry":{"coordinates":[14.725713,51.550769],"type":"Point"},"properties":{"osm_id":"5368483708","tag":{"leaf_cycle":"deciduous","leaf_type":"broadleaved","natural":"tree"}},"type":"Feature"},
	{"geometry":{"coordinates":[14.725949,51.550642],"type":"Point"},"properties":{"osm_id":"5368483709","tag":{"leaf_cycle":"deciduous","leaf_type":"broadleaved","natural":"tree"}},"type":"Feature"},
	{"geometry":{"coordinates":[14.725456,51.551169],"type":"Point"},"properties":{"osm_id":"5368483710","tag":{"leaf_cycle":"deciduous","leaf_type":"broadleaved","natural":"tree"}},"type":"Feature"},
	{"geometry":{"coordinates":[14.728777,51.549691],"type":"Point"},"properties":{"osm_id":"5368483711","tag":{"leaf_cycle":"deciduous","leaf_type":"broadleaved","natural":"tree"}},"type":"Feature"},
	{"geometry":{"coordinates":[14.72846,51.549488],"type":"Point"},"properties":{"osm_id":"5368483712","tag":{"leaf_cycle":"deciduous","leaf_type":"broadleaved","natural":"tree"}},"type":"Feature"},
	{"geometry":{"coordinates":[14.72692,51.54845],"type":"Point"},"properties":{"osm_id":"5368483713","tag":{"leaf_cycle":"deciduous","leaf_type":"broadleaved","natural":"tree"}},"type":"Feature"},
	{"geometry":{"coordinates":[14.727623,51.548544],"type":"Point"},"properties":{"osm_id":"5368483714","tag":{"leaf_cycle":"deciduous","leaf_type":"broadleaved","natural":"tree"}},"type":"Feature"},
	{"geometry":{"coordinates":[14.727891,51.546819],"type":"Point"},"properties":{"osm_id":"5368483715","tag":{"leaf_cycle":"deciduous","leaf_type":"broadleaved","natural":"tree"}},"type":"Feature"},
	{"geometry":{"coordinates":[14.727988,51.546946],"type":"Point"},"properties":{"osm_id":"5368483716","tag":{"leaf_cycle":"deciduous","leaf_type":"broadleaved","natural":"tree"}},"type":"Feature"},
	{"geometry":{"coordinates":[14.727451,51.547957],"type":"Point"},"properties":{"osm_id":"5368483717","tag":{"leaf_cycle":"deciduous","leaf_type":"broadleaved","natural":"tree"}},"type":"Feature"},
	{"geometry":{"coordinates":[14.727012,51.547803],"type":"Point"},"properties":{"osm_id":"5368483718","tag":{"leaf_cycle":"deciduous","leaf_type":"broadleaved","natural":"tree"}},"type":"Feature"},
	{"geometry":{"coordinates":[14.724614,51.547283],"type":"Point"},"properties":{"osm_id":"5368483719","tag":{"leaf_cycle":"deciduous","leaf_type":"broadleaved","natural":"tree"}},"type":"Feature"},
	{"geometry":{"coordinates":[14.725778,51.54767],"type":"Point"},"properties":{"osm_id":"5368483720","tag":{"leaf_cycle":"deciduous","leaf_type":"broadleaved","natural":"tree"}},"type":"Feature"},
	{"geometry":{"coordinates":[14.726277,51.547393],"type":"Point"},"properties":{"osm_id":"5368484721","tag":{"leaf_cycle":"deciduous","leaf_type":"broadleaved","natural":"tree"}},"type":"Feature"},
	{"geometry":{"coordinates":[14.730238,51.54384],"type":"Point"},"properties":{"osm_id":"5368484722","tag":{"leaf_cycle":"deciduous","leaf_type":"broadleaved","natural":"tree"}},"type":"Feature"},
	{"geometry":{"coordinates":[14.731354,51.543373],"type":"Point"},"properties":{"osm_id":"5368484723","tag":{"leaf_cycle":"deciduous","leaf_type":"broadleaved","natural":"tree"}},"type":"Feature"},
	{"geometry":{"coordinates":[14.732322,51.543523],"type":"Point"},"properties":{"osm_id":"5368484724","tag":{"leaf_cycle":"deciduous","leaf_type":"broadleaved","natural":"tree"}},"type":"Feature"},
	{"geometry":{"coordinates":[14.731845,51.543635],"type":"Point"},"properties":{"osm_id":"5368484725","tag":{"leaf_cycle":"deciduous","leaf_type":"broadleaved","natural":"tree"}},"type":"Feature"},
	{"geometry":{"coordinates":[14.7317,51.543846],"type":"Point"},"properties":{"osm_id":"5368484726","tag":{"leaf_cycle":"deciduous","leaf_type":"broadleaved","natural":"tree"}},"type":"Feature"},
	{"geometry":{"coordinates":[14.732094,51.544195],"type":"Point"},"properties":{"osm_id":"5368484727","tag":{"leaf_cycle":"deciduous","leaf_type":"broadleaved","natural":"tree"}},"type":"Feature"},
	{"geometry":{"coordinates":[14.732156,51.544569],"type":"Point"},"properties":{"osm_id":"5368484728","tag":{"leaf_cycle":"deciduous","leaf_type":"broadleaved","natural":"tree"}},"type":"Feature"},
	{"geometry":{"coordinates":[14.731907,51.544469],"type":"Point"},"properties":{"osm_id":"5368484729","tag":{"leaf_cycle":"deciduous","leaf_type":"broadleaved","natural":"tree"}},"type":"Feature"},
	{"geometry":{"coordinates":[14.731794,51.544842],"type":"Point"},"properties":{"osm_id":"5368484730","tag":{"leaf_cycle":"deciduous","leaf_type":"broadleaved","natural":"tree"}},"type":"Feature"},
	{"geometry":{"coordinates":[14.730706,51.54409],"type":"Point"},"properties":{"osm_id":"5368484864","tag":{"leaf_cycle":"deciduous","leaf_type":"broadleaved","natural":"tree"}},"type":"Feature"},
	{"geometry":{"coordinates":[14.729719,51.545038],"type":"Point"},"properties":{"osm_id":"5368484865","tag":{"leaf_cycle":"deciduous","leaf_type":"broadleaved","natural":"tree"}},"type":"Feature"},
	{"geometry":{"coordinates":[14.730867,51.545451],"type":"Point"},"properties":{"osm_id":"5368484866","tag":{"leaf_cycle":"deciduous","leaf_type":"broadleaved","natural":"tree"}},"type":"Feature"},
	{"geometry":{"coordinates":[14.730888,51.545304],"type":"Point"},"properties":{"osm_id":"5368484867","tag":{"leaf_cycle":"deciduous","leaf_type":"broadleaved","natural":"tree"}},"type":"Feature"},
	{"geometry":{"coordinates":[14.730539,51.544851],"type":"Point"},"properties":{"osm_id":"5368484868","tag":{"leaf_cycle":"deciduous","leaf_type":"broadleaved","natural":"tree"}},"type":"Feature"},
	{"geometry":{"coordinates":[14.730325,51.545007],"type":"Point"},"properties":{"osm_id":"5368484869","tag":{"leaf_cycle":"deciduous","leaf_type":"broadleaved","natural":"tree"}},"type":"Feature"},
	{"geometry":{"coordinates":[14.730572,51.545328],"type":"Point"},"properties":{"osm_id":"5368484870","tag":{"leaf_cycle":"deciduous","leaf_type":"broadleaved","natural":"tree"}},"type":"Feature"},
	{"geometry":{"coordinates":[14.722589,51.548657],"type":"Point"},"properties":{"osm_id":"5368524052","tag":{"leaf_cycle":"deciduous","leaf_type":"broadleaved","natural":"tree"}},"type":"Feature"},
	{"geometry":{"coordinates":[14.721022,51.552413],"type":"Point"},"properties":{"osm_id":"5368524053","tag":{"leaf_cycle":"deciduous","leaf_type":"broadleaved","natural":"tree"}},"type":"Feature"},
	{"geometry":{"coordinates":[14.719472,51.552009],"type":"Point"},"properties":{"osm_id":"5368524054","tag":{"leaf_cycle":"deciduous","leaf_type":"broadleaved","natural":"tree"}},"type":"Feature"},
	{"geometry":{"coordinates":[14.722068,51.551626],"type":"Point"},"properties":{"osm_id":"5368524055","tag":{"leaf_cycle":"deciduous","leaf_type":"broadleaved","natural":"tree"}},"type":"Feature"},
	{"geometry":{"coordinates":[14.721779,51.551626],"type":"Point"},"properties":{"osm_id":"5368524056","tag":{"leaf_cycle":"deciduous","leaf_type":"broadleaved","natural":"tree"}},"type":"Feature"},
	{"geometry":{"coordinates":[14.720561,51.550428],"type":"Point"},"properties":{"osm_id":"5368524057","tag":{"leaf_cycle":"deciduous","leaf_type":"broadleaved","natural":"tree"}},"type":"Feature"},
	{"geometry":{"coordinates":[14.720448,51.550125],"type":"Point"},"properties":{"osm_id":"5368524058","tag":{"leaf_cycle":"deciduous","leaf_type":"broadleaved","natural":"tree"}},"type":"Feature"},
	{"geometry":{"coordinates":[14.727775,51.550579],"type":"Point"},"properties":{"osm_id":"5368554469","tag":{"leaf_cycle":"deciduous","leaf_type":"broadleaved","natural":"tree"}},"type":"Feature"},
	{"geometry":{"coordinates":[14.727255,51.551062],"type":"Point"},"properties":{"osm_id":"5368554470","tag":{"leaf_cycle":"deciduous","leaf_type":"broadleaved","natural":"tree"}},"type":"Feature"},
	{"geometry":{"coordinates":[14.726086,51.551089],"type":"Point"},"properties":{"osm_id":"5368554471","tag":{"leaf_cycle":"deciduous","leaf_type":"broadleaved","natural":"tree"}},"type":"Feature"},
	{"geometry":{"coordinates":[14.724883,51.54964],"type":"Point"},"properties":{"osm_id":"5368555744","tag":{"leaf_cycle":"deciduous","leaf_type":"broadleaved","natural":"tree"}},"type":"Feature"},
	{"geometry":{"coordinates":[14.723386,51.54971],"type":"Point"},"properties":{"osm_id":"5368555745","tag":{"leaf_cycle":"deciduous","leaf_type":"broadleaved","natural":"tree"}},"type":"Feature"},
	{"geometry":{"coordinates":[14.72359,51.549893],"type":"Point"},"properties":{"osm_id":"5368555746","tag":{"leaf_cycle":"deciduous","leaf_type":"broadleaved","natural":"tree"}},"type":"Feature"},
	{"geometry":{"coordinates":[14.72057,51.552148],"type":"Point"},"properties":{"osm_id":"5368555747","tag":{"leaf_cycle":"deciduous","leaf_type":"broadleaved","natural":"tree"}},"type":"Feature"},
	{"geometry":{"coordinates":[14.730407,51.546897],"type":"Point"},"properties":{"name":"D\u00c4\u0085b Jana Paw\u00c5\u0082a II (d\u00c4\u0085b papieski) nr 436","osm_id":"5448354789","tag":{"leaf_cycle":"deciduous","leaf_type":"broadleaved","name:de":"Eiche f\u00c3\u00bcr Johannes Paul II. (Papst-Eiche) Nr. 436","natural":"tree","species":"Quercus robur","tourism":"attraction","url":"https://dolny-slask.org.pl/3960584,Leknica,Dab_Jana_Pawla_II_dab_papieski_nr_436.html"}},"type":"Feature"},
	{"geometry":{"coordinates":[14.700337,51.520936],"type":"Point"},"properties":{"osm_id":"5575063594","tag":{"leaf_type":"needleleaved","natural":"tree"}},"type":"Feature"},
	{"geometry":{"coordinates":[14.718252,51.514716],"type":"Point"},"properties":{"osm_id":"7092908137","tag":{"genus":"Eiche","leaf_type":"broadleaved","natural":"tree"}},"type":"Feature"},
	{"geometry":{"coordinates":[14.7635,51.516346],"type":"Point"},"properties":{"osm_id":"7312019376","tag":{"leaf_cycle":"deciduous","leaf_type":"broadleaved","natural":"tree"}},"type":"Feature"},
	{"geometry":{"coordinates":[14.763402,51.516353],"type":"Point"},"properties":{"osm_id":"7312019377","tag":{"leaf_cycle":"deciduous","leaf_type":"broadleaved","natural":"tree"}},"type":"Feature"},
	{"geometry":{"coordinates":[14.763312,51.516335],"type":"Point"},"properties":{"osm_id":"7312019378","tag":{"leaf_cycle":"deciduous","leaf_type":"broadleaved","natural":"tree"}},"type":"Feature"},
	{"geometry":{"coordinates":[14.763276,51.51639],"type":"Point"},"properties":{"osm_id":"7312019379","tag":{"leaf_cycle":"deciduous","leaf_type":"broadleaved","natural":"tree"}},"type":"Feature"},
	{"geometry":{"coordinates":[14.763183,51.516374],"type":"Point"},"properties":{"osm_id":"7312019380","tag":{"leaf_cycle":"deciduous","leaf_type":"broadleaved","natural":"tree"}},"type":"Feature"},
	{"geometry":{"coordinates":[14.763151,51.516422],"type":"Point"},"properties":{"osm_id":"7312019381","tag":{"leaf_cycle":"deciduous","leaf_type":"broadleaved","natural":"tree"}},"type":"Feature"},
	{"geometry":{"coordinates":[14.762981,51.516458],"type":"Point"},"properties":{"osm_id":"7312019382","tag":{"leaf_cycle":"deciduous","leaf_type":"broadleaved","natural":"tree"}},"type":"Feature"},
	{"geometry":{"coordinates":[14.763568,51.515995],"type":"Point"},"properties":{"osm_id":"7312019402","tag":{"denotation":"landmark","leaf_cycle":"deciduous","leaf_type":"broadleaved","natural":"tree"}},"type":"Feature"},
	{"geometry":{"coordinates":[14.759203,51.515437],"type":"Point"},"properties":{"osm_id":"7312046982","tag":{"leaf_cycle":"deciduous","leaf_type":"broadleaved","natural":"tree"}},"type":"Feature"},
	{"geometry":{"coordinates":[14.72233,51.548041],"type":"Point"},"properties":{"osm_id":"7964802897","tag":{"natural":"tree"}},"type":"Feature"},
	{"geometry":{"coordinates":[14.725484,51.546048],"type":"Point"},"properties":{"osm_id":"7964809409","tag":{"natural":"tree"}},"type":"Feature"}
]
}
