{
"type": "FeatureCollection",
"features": [
	{"geometry":{"coordinates":[14.742427,44.687038],"type":"Point"},"properties":{"osm_id":"4320128352","tag":{"leaf_type":"broadleaved","monument":"yes","name:en":"Olive tree - 1600 years","natural":"tree"}},"type":"Feature"},
	{"geometry":{"coordinates":[14.746264,44.686126],"type":"Point"},"properties":{"osm_id":"4966845708","tag":{"denotation":"natural_monument","genus":"Olea","name:en":"Olive tree - 2000 years","natural":"tree","species":"Olea europaea"}},"type":"Feature"},
	{"geometry":{"coordinates":[14.743368,44.687172],"type":"Point"},"properties":{"osm_id":"4966845833","tag":{"denotation":"natural_monument","genus":"Olea","name:en":"Olive tree - 1000 years","natural":"tree","species":"Olea europaea"}},"type":"Feature"},
	{"geometry":{"coordinates":[14.744816,44.687631],"type":"Point"},"properties":{"osm_id":"4966845857","tag":{"denotation":"natural_monument","genus":"Olea","name:en":"Olive tree - 1200 years","natural":"tree","species":"Olea europaea"}},"type":"Feature"},
	{"geometry":{"coordinates":[14.74142,44.688602],"type":"Point"},"properties":{"osm_id":"4966845859","tag":{"denotation":"natural_monument","genus":"Olea","name:en":"Olive tree - 1100 years","natural":"tree","species":"Olea europaea"}},"type":"Feature"},
	{"geometry":{"coordinates":[14.753071,44.681514],"type":"Point"},"properties":{"name":"Lunjska \u00c4\u008dipka","osm_id":"5755478456","tag":{"natural":"tree"}},"type":"Feature"},
	{"geometry":{"coordinates":[14.742429,44.687039],"type":"Point"},"properties":{"name":"Old Olive Tree","osm_id":"5858908435","tag":{"description":"1600 years","natural":"tree"}},"type":"Feature"}
]
}
