{
"type": "FeatureCollection",
"features": [
	{"geometry":{"coordinates":[-6.910698,53.158283],"type":"Point"},"properties":{"osm_id":"799264199","tag":{"amenity":"recycling","recycling:glass_bottles":"yes"}},"type":"Feature"},
	{"geometry":{"coordinates":[-6.916463,53.155986],"type":"Point"},"properties":{"osm_id":"2138169977","tag":{"amenity":"recycling"}},"type":"Feature"},
	{"geometry":{"coordinates":[-6.907443,53.159773],"type":"Point"},"properties":{"osm_id":"9130408004","tag":{"amenity":"waste_basket","colour":"black","waste":"trash"}},"type":"Feature"},
	{"geometry":{"coordinates":[-6.907443,53.159773],"type":"Point"},"properties":{"osm_id":"9130408004","tag":{"amenity":"waste_basket","colour":"black","operator":"Kildare County Council","waste":"trash"}},"type":"Feature"},
	{"geometry":{"coordinates":[-6.904597,53.159906],"type":"Point"},"properties":{"osm_id":"9130507759","tag":{"amenity":"waste_basket","colour":"black","operator":"Kildare County Council","waste":"trash"}},"type":"Feature"},
	{"geometry":{"coordinates":[-6.91205,53.163283],"type":"Point"},"properties":{"osm_id":"9130507770","tag":{"amenity":"waste_basket","colour":"black","operator":"Kildare County Council","waste":"trash"}},"type":"Feature"},
	{"geometry":{"coordinates":[-6.913021,53.169563],"type":"Point"},"properties":{"osm_id":"9130619563","tag":{"amenity":"waste_basket","colour":"black","operator":"Kildare County Council","waste":"trash"}},"type":"Feature"}
]
}
