{
"type": "FeatureCollection",
"lastupdate": "2020-07-31T00:00:00Z",
"features": [
	{"geometry":{"coordinates":[-16.935348,32.637001],"type":"Point"},"properties":{"osm_id":"1309520700","tag":{"amenity":"waste_basket"}},"type":"Feature"},
	{"geometry":{"coordinates":[-16.934051,32.637277],"type":"Point"},"properties":{"osm_id":"1309520701","tag":{"amenity":"waste_basket"}},"type":"Feature"},
	{"geometry":{"coordinates":[-16.93438,32.636831],"type":"Point"},"properties":{"osm_id":"1309520704","tag":{"amenity":"waste_basket"}},"type":"Feature"},
	{"geometry":{"coordinates":[-16.93546,32.636892],"type":"Point"},"properties":{"osm_id":"1309520711","tag":{"amenity":"waste_basket"}},"type":"Feature"},
	{"geometry":{"coordinates":[-16.899326,32.67615],"type":"Point"},"properties":{"osm_id":"1316062473","tag":{"amenity":"recycling","recycling:glass":"yes","recycling:paper":"yes"}},"type":"Feature"},
	{"geometry":{"coordinates":[-16.935957,32.637862],"type":"Point"},"properties":{"osm_id":"1316227029","tag":{"amenity":"waste_basket"}},"type":"Feature"},
	{"geometry":{"coordinates":[-16.935503,32.637905],"type":"Point"},"properties":{"osm_id":"1316227044","tag":{"amenity":"waste_basket"}},"type":"Feature"},
	{"geometry":{"coordinates":[-16.933809,32.638226],"type":"Point"},"properties":{"osm_id":"1316259585","tag":{"amenity":"waste_basket"}},"type":"Feature"},
	{"geometry":{"coordinates":[-16.934766,32.637938],"type":"Point"},"properties":{"osm_id":"1316307645","tag":{"amenity":"waste_basket"}},"type":"Feature"},
	{"geometry":{"coordinates":[-16.934267,32.638065],"type":"Point"},"properties":{"osm_id":"1316307653","tag":{"amenity":"waste_basket"}},"type":"Feature"},
	{"geometry":{"coordinates":[-16.946025,32.639356],"type":"Point"},"properties":{"osm_id":"1316328753","tag":{"amenity":"recycling","recycling:glass":"yes","recycling:paper":"yes","recycling_type":"container"}},"type":"Feature"},
	{"geometry":{"coordinates":[-16.904936,32.649331],"type":"Point"},"properties":{"osm_id":"1319910722","tag":{"amenity":"waste_basket"}},"type":"Feature"},
	{"geometry":{"coordinates":[-16.946196,32.63947],"type":"Point"},"properties":{"osm_id":"1319910751","tag":{"amenity":"waste_basket"}},"type":"Feature"},
	{"geometry":{"coordinates":[-16.912706,32.666146],"type":"Point"},"properties":{"osm_id":"1474973239","tag":{"amenity":"recycling","recycling:glass":"yes","recycling:paper":"yes","recycling:plastic":"yes"}},"type":"Feature"},
	{"geometry":{"coordinates":[-16.882567,32.659481],"type":"Point"},"properties":{"osm_id":"1494297009","tag":{"amenity":"recycling","mapillary":"vtDrD3N-ZjS9gO0ExMFjIA","recycling:batteries":"no","recycling:cans":"yes","recycling:glass":"yes","recycling:paper":"yes","recycling_type":"container","survey:date":"2018-05-31"}},"type":"Feature"},
	{"geometry":{"coordinates":[-16.882402,32.660613],"type":"Point"},"properties":{"osm_id":"1494297021","tag":{"amenity":"waste_basket"}},"type":"Feature"},
	{"geometry":{"coordinates":[-16.938419,32.66363],"type":"Point"},"properties":{"osm_id":"1768810805","tag":{"amenity":"recycling","recycling:batteries":"yes","recycling:glass":"yes","recycling:paper":"yes","recycling_type":"container"}},"type":"Feature"},
	{"geometry":{"coordinates":[-16.877835,32.654526],"type":"Point"},"properties":{"osm_id":"1771316451","tag":{"amenity":"waste_basket"}},"type":"Feature"},
	{"geometry":{"coordinates":[-16.945799,32.643254],"type":"Point"},"properties":{"osm_id":"1772891400","tag":{"amenity":"waste_basket"}},"type":"Feature"},
	{"geometry":{"coordinates":[-16.945942,32.643255],"type":"Point"},"properties":{"osm_id":"1772891401","tag":{"amenity":"waste_basket"}},"type":"Feature"},
	{"geometry":{"coordinates":[-16.945713,32.643327],"type":"Point"},"properties":{"osm_id":"1772891431","tag":{"amenity":"waste_basket"}},"type":"Feature"},
	{"geometry":{"coordinates":[-16.945872,32.643831],"type":"Point"},"properties":{"osm_id":"1772891453","tag":{"amenity":"waste_basket"}},"type":"Feature"},
	{"geometry":{"coordinates":[-16.945758,32.64425],"type":"Point"},"properties":{"osm_id":"1772891472","tag":{"amenity":"waste_basket"}},"type":"Feature"},
	{"geometry":{"coordinates":[-16.945833,32.644728],"type":"Point"},"properties":{"osm_id":"1772891504","tag":{"amenity":"waste_basket"}},"type":"Feature"},
	{"geometry":{"coordinates":[-16.945668,32.64495],"type":"Point"},"properties":{"osm_id":"1772891539","tag":{"amenity":"waste_basket"}},"type":"Feature"},
	{"geometry":{"coordinates":[-16.945683,32.645135],"type":"Point"},"properties":{"osm_id":"1772891580","tag":{"amenity":"waste_basket"}},"type":"Feature"},
	{"geometry":{"coordinates":[-16.943044,32.648576],"type":"Point"},"properties":{"osm_id":"1772891682","tag":{"amenity":"waste_basket"}},"type":"Feature"},
	{"geometry":{"coordinates":[-16.942759,32.648774],"type":"Point"},"properties":{"osm_id":"1772891722","tag":{"amenity":"waste_basket"}},"type":"Feature"},
	{"geometry":{"coordinates":[-16.943145,32.649091],"type":"Point"},"properties":{"osm_id":"1772891908","tag":{"amenity":"waste_basket"}},"type":"Feature"},
	{"geometry":{"coordinates":[-16.955762,32.64233],"type":"Point"},"properties":{"osm_id":"1773098394","tag":{"amenity":"recycling","recycling_type":"centre"}},"type":"Feature"},
	{"geometry":{"coordinates":[-16.904007,32.694835],"type":"Point"},"properties":{"osm_id":"1813780057","tag":{"amenity":"recycling","recycling_type":"container"}},"type":"Feature"},
	{"geometry":{"coordinates":[-16.944328,32.638283],"type":"Point"},"properties":{"osm_id":"2284444024","tag":{"amenity":"waste_basket"}},"type":"Feature"},
	{"geometry":{"coordinates":[-16.949198,32.656244],"type":"Point"},"properties":{"osm_id":"3736252025","tag":{"amenity":"recycling"}},"type":"Feature"},
	{"geometry":{"coordinates":[-16.92855,32.647758],"type":"Point"},"properties":{"osm_id":"3736253328","tag":{"amenity":"recycling","location":"overground","recycling_type":"container"}},"type":"Feature"},
	{"geometry":{"coordinates":[-16.909839,32.660647],"type":"Point"},"properties":{"osm_id":"3873165464","tag":{"amenity":"recycling","recycling:glass":"yes","recycling:paper":"yes","recycling:plastic":"yes","recycling_type":"container"}},"type":"Feature"},
	{"geometry":{"coordinates":[-16.901817,32.650843],"type":"Point"},"properties":{"osm_id":"3878815033","tag":{"amenity":"recycling","location":"overground","recycling_type":"container"}},"type":"Feature"},
	{"geometry":{"coordinates":[-16.905791,32.661827],"type":"Point"},"properties":{"osm_id":"3883436010","tag":{"amenity":"recycling","recycling:cans":"yes","recycling:clothes":"no","recycling:glass":"yes","recycling:glass_bottles":"yes","recycling:paper":"yes","recycling:plastic":"yes","recycling_type":"container"}},"type":"Feature"},
	{"geometry":{"coordinates":[-16.905267,32.664422],"type":"Point"},"properties":{"osm_id":"3884434417","tag":{"amenity":"waste_basket"}},"type":"Feature"},
	{"geometry":{"coordinates":[-16.877949,32.654943],"type":"Point"},"properties":{"osm_id":"3884772725","tag":{"amenity":"waste_basket"}},"type":"Feature"},
	{"geometry":{"coordinates":[-16.910975,32.669401],"type":"Point"},"properties":{"osm_id":"3885889826","tag":{"amenity":"recycling"}},"type":"Feature"},
	{"geometry":{"coordinates":[-16.903726,32.676642],"type":"Point"},"properties":{"osm_id":"3887293984","tag":{"amenity":"recycling","opening_hours":"24/7","recycling_type":"container"}},"type":"Feature"},
	{"geometry":{"coordinates":[-16.945294,32.658432],"type":"Point"},"properties":{"osm_id":"3887717057","tag":{"amenity":"recycling","recycling_type":"container"}},"type":"Feature"},
	{"geometry":{"coordinates":[-16.946992,32.657814],"type":"Point"},"properties":{"osm_id":"3887717157","tag":{"amenity":"recycling","recycling_type":"container"}},"type":"Feature"},
	{"geometry":{"coordinates":[-16.879081,32.649858],"type":"Point"},"properties":{"osm_id":"3895363008","tag":{"amenity":"recycling","recycling_type":"container"}},"type":"Feature"},
	{"geometry":{"coordinates":[-16.899255,32.676152],"type":"Point"},"properties":{"osm_id":"3895927573","tag":{"amenity":"waste_basket"}},"type":"Feature"},
	{"geometry":{"coordinates":[-16.908637,32.650979],"type":"Point"},"properties":{"osm_id":"3896288330","tag":{"amenity":"recycling","recycling_type":"container"}},"type":"Feature"},
	{"geometry":{"coordinates":[-16.877866,32.650625],"type":"Point"},"properties":{"osm_id":"3916291357","tag":{"amenity":"recycling","recycling_type":"container"}},"type":"Feature"},
	{"geometry":{"coordinates":[-16.911264,32.671433],"type":"Point"},"properties":{"osm_id":"4073292608","tag":{"amenity":"recycling","recycling:cardboard":"no","recycling:glass":"yes","recycling:paper":"yes","recycling:plastic":"yes","recycling_type":"container"}},"type":"Feature"},
	{"geometry":{"coordinates":[-16.913198,32.671461],"type":"Point"},"properties":{"osm_id":"4073292609","tag":{"amenity":"recycling","recycling:cans":"yes","recycling:glass":"yes","recycling:glass_bottles":"yes","recycling:plastic":"yes","recycling_type":"container"}},"type":"Feature"},
	{"geometry":{"coordinates":[-16.910001,32.671749],"type":"Point"},"properties":{"osm_id":"4073292610","tag":{"amenity":"recycling","recycling:cardboard":"no","recycling:glass":"yes","recycling:paper":"yes","recycling:plastic":"yes","recycling_type":"container"}},"type":"Feature"},
	{"geometry":{"coordinates":[-16.908182,32.649881],"type":"Point"},"properties":{"osm_id":"4319341802","tag":{"amenity":"waste_basket"}},"type":"Feature"},
	{"geometry":{"coordinates":[-16.908087,32.649998],"type":"Point"},"properties":{"osm_id":"4319341810","tag":{"amenity":"waste_basket"}},"type":"Feature"},
	{"geometry":{"coordinates":[-16.907937,32.649987],"type":"Point"},"properties":{"osm_id":"4319622451","tag":{"amenity":"waste_basket"}},"type":"Feature"},
	{"geometry":{"coordinates":[-16.955093,32.66298],"type":"Point"},"properties":{"osm_id":"4324326399","tag":{"amenity":"recycling","recycling_type":"container"}},"type":"Feature"},
	{"geometry":{"coordinates":[-16.902094,32.647355],"type":"Point"},"properties":{"osm_id":"4393973891","tag":{"amenity":"waste_basket"}},"type":"Feature"},
	{"geometry":{"coordinates":[-16.90129,32.647398],"type":"Point"},"properties":{"osm_id":"4394124391","tag":{"amenity":"waste_basket"}},"type":"Feature"},
	{"geometry":{"coordinates":[-16.901446,32.646925],"type":"Point"},"properties":{"osm_id":"4394136791","tag":{"amenity":"waste_basket"}},"type":"Feature"},
	{"geometry":{"coordinates":[-16.900967,32.647126],"type":"Point"},"properties":{"osm_id":"4394161790","tag":{"amenity":"waste_basket"}},"type":"Feature"},
	{"geometry":{"coordinates":[-16.90654,32.645814],"type":"Point"},"properties":{"osm_id":"4451781466","tag":{"amenity":"waste_basket"}},"type":"Feature"},
	{"geometry":{"coordinates":[-16.902047,32.64699],"type":"Point"},"properties":{"osm_id":"4453106359","tag":{"amenity":"waste_basket"}},"type":"Feature"},
	{"geometry":{"coordinates":[-16.901792,32.647168],"type":"Point"},"properties":{"osm_id":"4453106362","tag":{"amenity":"waste_basket"}},"type":"Feature"},
	{"geometry":{"coordinates":[-16.902389,32.647389],"type":"Point"},"properties":{"osm_id":"4453106368","tag":{"amenity":"waste_basket"}},"type":"Feature"},
	{"geometry":{"coordinates":[-16.901863,32.647649],"type":"Point"},"properties":{"osm_id":"4461916357","tag":{"amenity":"waste_basket"}},"type":"Feature"},
	{"geometry":{"coordinates":[-16.904517,32.646774],"type":"Point"},"properties":{"osm_id":"4467741572","tag":{"amenity":"waste_basket"}},"type":"Feature"},
	{"geometry":{"coordinates":[-16.906893,32.646788],"type":"Point"},"properties":{"osm_id":"4467741577","tag":{"amenity":"waste_basket"}},"type":"Feature"},
	{"geometry":{"coordinates":[-16.906017,32.645761],"type":"Point"},"properties":{"osm_id":"4504116316","tag":{"amenity":"waste_basket"}},"type":"Feature"},
	{"geometry":{"coordinates":[-16.901599,32.647406],"type":"Point"},"properties":{"osm_id":"4506056055","tag":{"amenity":"waste_basket"}},"type":"Feature"},
	{"geometry":{"coordinates":[-16.902729,32.646864],"type":"Point"},"properties":{"osm_id":"4506060876","tag":{"amenity":"waste_basket"}},"type":"Feature"},
	{"geometry":{"coordinates":[-16.903934,32.646776],"type":"Point"},"properties":{"osm_id":"4506063827","tag":{"amenity":"waste_basket"}},"type":"Feature"},
	{"geometry":{"coordinates":[-16.9032,32.64678],"type":"Point"},"properties":{"osm_id":"4506063828","tag":{"amenity":"waste_basket"}},"type":"Feature"},
	{"geometry":{"coordinates":[-16.90929,32.646486],"type":"Point"},"properties":{"osm_id":"4506125319","tag":{"amenity":"waste_basket"}},"type":"Feature"},
	{"geometry":{"coordinates":[-16.909049,32.645573],"type":"Point"},"properties":{"osm_id":"4506126940","tag":{"amenity":"waste_basket"}},"type":"Feature"},
	{"geometry":{"coordinates":[-16.909153,32.64556],"type":"Point"},"properties":{"osm_id":"4506126941","tag":{"amenity":"waste_basket"}},"type":"Feature"},
	{"geometry":{"coordinates":[-16.909114,32.645818],"type":"Point"},"properties":{"osm_id":"4506126942","tag":{"amenity":"waste_basket"}},"type":"Feature"},
	{"geometry":{"coordinates":[-16.909206,32.645803],"type":"Point"},"properties":{"osm_id":"4506126943","tag":{"amenity":"waste_basket"}},"type":"Feature"},
	{"geometry":{"coordinates":[-16.909201,32.646121],"type":"Point"},"properties":{"osm_id":"4506128267","tag":{"amenity":"waste_basket"}},"type":"Feature"},
	{"geometry":{"coordinates":[-16.909286,32.646106],"type":"Point"},"properties":{"osm_id":"4506128268","tag":{"amenity":"waste_basket"}},"type":"Feature"},
	{"geometry":{"coordinates":[-16.909447,32.646551],"type":"Point"},"properties":{"osm_id":"4506128654","tag":{"amenity":"waste_basket"}},"type":"Feature"},
	{"geometry":{"coordinates":[-16.910652,32.646297],"type":"Point"},"properties":{"osm_id":"4506130549","tag":{"amenity":"waste_basket"}},"type":"Feature"},
	{"geometry":{"coordinates":[-16.910345,32.646369],"type":"Point"},"properties":{"osm_id":"4506130551","tag":{"amenity":"waste_basket"}},"type":"Feature"},
	{"geometry":{"coordinates":[-16.909768,32.646488],"type":"Point"},"properties":{"osm_id":"4506130553","tag":{"amenity":"waste_basket"}},"type":"Feature"},
	{"geometry":{"coordinates":[-16.91097,32.646206],"type":"Point"},"properties":{"osm_id":"4506132903","tag":{"amenity":"recycling","recycling:glass":"yes","recycling:paper":"yes","recycling:plastic_packaging":"yes","recycling_type":"centre"}},"type":"Feature"},
	{"geometry":{"coordinates":[-16.911018,32.646192],"type":"Point"},"properties":{"osm_id":"4506132904","tag":{"amenity":"waste_basket"}},"type":"Feature"},
	{"geometry":{"coordinates":[-16.911372,32.646068],"type":"Point"},"properties":{"osm_id":"4506132992","tag":{"amenity":"waste_basket"}},"type":"Feature"},
	{"geometry":{"coordinates":[-16.907034,32.646116],"type":"Point"},"properties":{"osm_id":"4565117272","tag":{"amenity":"waste_basket"}},"type":"Feature"},
	{"geometry":{"coordinates":[-16.9067,32.645617],"type":"Point"},"properties":{"osm_id":"4565117273","tag":{"amenity":"waste_basket"}},"type":"Feature"},
	{"geometry":{"coordinates":[-16.906779,32.646154],"type":"Point"},"properties":{"osm_id":"4565117274","tag":{"amenity":"waste_basket"}},"type":"Feature"},
	{"geometry":{"coordinates":[-16.908528,32.645942],"type":"Point"},"properties":{"osm_id":"4565118663","tag":{"amenity":"waste_basket"}},"type":"Feature"},
	{"geometry":{"coordinates":[-16.907977,32.645971],"type":"Point"},"properties":{"osm_id":"4565118785","tag":{"amenity":"waste_basket"}},"type":"Feature"},
	{"geometry":{"coordinates":[-16.906579,32.646858],"type":"Point"},"properties":{"osm_id":"4565125391","tag":{"amenity":"waste_basket"}},"type":"Feature"},
	{"geometry":{"coordinates":[-16.906476,32.646776],"type":"Point"},"properties":{"osm_id":"4565125392","tag":{"amenity":"waste_basket"}},"type":"Feature"},
	{"geometry":{"coordinates":[-16.906575,32.646841],"type":"Point"},"properties":{"osm_id":"4565125393","tag":{"amenity":"recycling","recycling:paper":"yes","recycling:plastic":"yes","recycling:waste":"yes","recycling_type":"container"}},"type":"Feature"},
	{"geometry":{"coordinates":[-16.906301,32.64622],"type":"Point"},"properties":{"osm_id":"4565127535","tag":{"amenity":"waste_basket"}},"type":"Feature"},
	{"geometry":{"coordinates":[-16.905446,32.646635],"type":"Point"},"properties":{"osm_id":"4565133103","tag":{"amenity":"waste_basket"}},"type":"Feature"},
	{"geometry":{"coordinates":[-16.905797,32.646355],"type":"Point"},"properties":{"osm_id":"4565133106","tag":{"amenity":"waste_basket"}},"type":"Feature"},
	{"geometry":{"coordinates":[-16.905243,32.646518],"type":"Point"},"properties":{"osm_id":"4565133107","tag":{"amenity":"waste_basket"}},"type":"Feature"},
	{"geometry":{"coordinates":[-16.905501,32.646474],"type":"Point"},"properties":{"osm_id":"4565133108","tag":{"amenity":"waste_basket"}},"type":"Feature"},
	{"geometry":{"coordinates":[-16.906051,32.646525],"type":"Point"},"properties":{"osm_id":"4565133109","tag":{"amenity":"waste_basket"}},"type":"Feature"},
	{"geometry":{"coordinates":[-16.906264,32.648701],"type":"Point"},"properties":{"osm_id":"4581548578","tag":{"amenity":"waste_basket"}},"type":"Feature"},
	{"geometry":{"coordinates":[-16.901277,32.647615],"type":"Point"},"properties":{"osm_id":"4581548582","tag":{"amenity":"waste_basket"}},"type":"Feature"},
	{"geometry":{"coordinates":[-16.903596,32.647691],"type":"Point"},"properties":{"osm_id":"4581548583","tag":{"amenity":"waste_basket"}},"type":"Feature"},
	{"geometry":{"coordinates":[-16.903606,32.647475],"type":"Point"},"properties":{"osm_id":"4581548584","tag":{"amenity":"waste_basket"}},"type":"Feature"},
	{"geometry":{"coordinates":[-16.903606,32.647375],"type":"Point"},"properties":{"osm_id":"4581548585","tag":{"amenity":"waste_basket"}},"type":"Feature"},
	{"geometry":{"coordinates":[-16.903618,32.647225],"type":"Point"},"properties":{"osm_id":"4581548586","tag":{"amenity":"waste_basket"}},"type":"Feature"},
	{"geometry":{"coordinates":[-16.903897,32.647165],"type":"Point"},"properties":{"osm_id":"4581548587","tag":{"amenity":"waste_basket"}},"type":"Feature"},
	{"geometry":{"coordinates":[-16.903998,32.647168],"type":"Point"},"properties":{"osm_id":"4581548588","tag":{"amenity":"waste_basket"}},"type":"Feature"},
	{"geometry":{"coordinates":[-16.904193,32.647174],"type":"Point"},"properties":{"osm_id":"4581549289","tag":{"amenity":"waste_basket"}},"type":"Feature"},
	{"geometry":{"coordinates":[-16.904552,32.647149],"type":"Point"},"properties":{"osm_id":"4581549290","tag":{"amenity":"waste_basket"}},"type":"Feature"},
	{"geometry":{"coordinates":[-16.904599,32.647251],"type":"Point"},"properties":{"osm_id":"4581549291","tag":{"amenity":"waste_basket"}},"type":"Feature"},
	{"geometry":{"coordinates":[-16.904576,32.647441],"type":"Point"},"properties":{"osm_id":"4581549292","tag":{"amenity":"waste_basket"}},"type":"Feature"},
	{"geometry":{"coordinates":[-16.904571,32.64752],"type":"Point"},"properties":{"osm_id":"4581549293","tag":{"amenity":"waste_basket"}},"type":"Feature"},
	{"geometry":{"coordinates":[-16.905191,32.647719],"type":"Point"},"properties":{"osm_id":"4581549295","tag":{"amenity":"waste_basket"}},"type":"Feature"},
	{"geometry":{"coordinates":[-16.905213,32.647735],"type":"Point"},"properties":{"osm_id":"4581549296","tag":{"amenity":"waste_basket"}},"type":"Feature"},
	{"geometry":{"coordinates":[-16.905248,32.64778],"type":"Point"},"properties":{"osm_id":"4581549297","tag":{"amenity":"waste_basket"}},"type":"Feature"},
	{"geometry":{"coordinates":[-16.905283,32.647814],"type":"Point"},"properties":{"osm_id":"4581549298","tag":{"amenity":"waste_basket"}},"type":"Feature"},
	{"geometry":{"coordinates":[-16.905536,32.648113],"type":"Point"},"properties":{"osm_id":"4581549299","tag":{"amenity":"waste_basket"}},"type":"Feature"},
	{"geometry":{"coordinates":[-16.905781,32.64832],"type":"Point"},"properties":{"osm_id":"4581549300","tag":{"amenity":"waste_basket"}},"type":"Feature"},
	{"geometry":{"coordinates":[-16.906516,32.649007],"type":"Point"},"properties":{"osm_id":"4581549301","tag":{"amenity":"waste_basket"}},"type":"Feature"},
	{"geometry":{"coordinates":[-16.907071,32.649725],"type":"Point"},"properties":{"osm_id":"4581549302","tag":{"amenity":"waste_basket"}},"type":"Feature"},
	{"geometry":{"coordinates":[-16.907559,32.650285],"type":"Point"},"properties":{"osm_id":"4581549303","tag":{"amenity":"waste_basket"}},"type":"Feature"},
	{"geometry":{"coordinates":[-16.907753,32.650535],"type":"Point"},"properties":{"osm_id":"4581549304","tag":{"amenity":"waste_basket"}},"type":"Feature"},
	{"geometry":{"coordinates":[-16.907883,32.650706],"type":"Point"},"properties":{"osm_id":"4581549305","tag":{"amenity":"waste_basket"}},"type":"Feature"},
	{"geometry":{"coordinates":[-16.907949,32.650804],"type":"Point"},"properties":{"osm_id":"4581549306","tag":{"amenity":"waste_basket"}},"type":"Feature"},
	{"geometry":{"coordinates":[-16.908159,32.651021],"type":"Point"},"properties":{"osm_id":"4581549307","tag":{"amenity":"waste_basket"}},"type":"Feature"},
	{"geometry":{"coordinates":[-16.908343,32.651244],"type":"Point"},"properties":{"osm_id":"4581549310","tag":{"amenity":"waste_basket"}},"type":"Feature"},
	{"geometry":{"coordinates":[-16.909012,32.65205],"type":"Point"},"properties":{"osm_id":"4581549311","tag":{"amenity":"waste_basket"}},"type":"Feature"},
	{"geometry":{"coordinates":[-16.909589,32.653336],"type":"Point"},"properties":{"osm_id":"4581549312","tag":{"amenity":"waste_basket"}},"type":"Feature"},
	{"geometry":{"coordinates":[-16.910276,32.653498],"type":"Point"},"properties":{"osm_id":"4581549313","tag":{"amenity":"waste_basket"}},"type":"Feature"},
	{"geometry":{"coordinates":[-16.910516,32.653495],"type":"Point"},"properties":{"osm_id":"4581549314","tag":{"amenity":"waste_basket"}},"type":"Feature"},
	{"geometry":{"coordinates":[-16.911222,32.653933],"type":"Point"},"properties":{"osm_id":"4581549315","tag":{"amenity":"waste_basket"}},"type":"Feature"},
	{"geometry":{"coordinates":[-16.911272,32.6534],"type":"Point"},"properties":{"osm_id":"4581555617","tag":{"amenity":"waste_basket"}},"type":"Feature"},
	{"geometry":{"coordinates":[-16.911047,32.653344],"type":"Point"},"properties":{"osm_id":"4581555618","tag":{"amenity":"waste_basket"}},"type":"Feature"},
	{"geometry":{"coordinates":[-16.896719,32.649505],"type":"Point"},"properties":{"osm_id":"4582625057","tag":{"amenity":"waste_basket"}},"type":"Feature"},
	{"geometry":{"coordinates":[-16.898108,32.650163],"type":"Point"},"properties":{"osm_id":"4582625058","tag":{"amenity":"waste_basket"}},"type":"Feature"},
	{"geometry":{"coordinates":[-16.899221,32.650072],"type":"Point"},"properties":{"osm_id":"4582625060","tag":{"amenity":"waste_basket"}},"type":"Feature"},
	{"geometry":{"coordinates":[-16.900632,32.650157],"type":"Point"},"properties":{"osm_id":"4582625061","tag":{"amenity":"waste_basket"}},"type":"Feature"},
	{"geometry":{"coordinates":[-16.901133,32.650317],"type":"Point"},"properties":{"osm_id":"4582625062","tag":{"amenity":"waste_basket"}},"type":"Feature"},
	{"geometry":{"coordinates":[-16.901862,32.650743],"type":"Point"},"properties":{"osm_id":"4582625063","tag":{"amenity":"waste_basket"}},"type":"Feature"},
	{"geometry":{"coordinates":[-16.902769,32.651128],"type":"Point"},"properties":{"osm_id":"4582625064","tag":{"amenity":"waste_basket"}},"type":"Feature"},
	{"geometry":{"coordinates":[-16.906202,32.647904],"type":"Point"},"properties":{"osm_id":"4582630129","tag":{"amenity":"waste_basket"}},"type":"Feature"},
	{"geometry":{"coordinates":[-16.908617,32.649396],"type":"Point"},"properties":{"osm_id":"4582630130","tag":{"amenity":"waste_basket"}},"type":"Feature"},
	{"geometry":{"coordinates":[-16.908078,32.649775],"type":"Point"},"properties":{"osm_id":"4582630131","tag":{"amenity":"waste_basket"}},"type":"Feature"},
	{"geometry":{"coordinates":[-16.908161,32.649644],"type":"Point"},"properties":{"osm_id":"4582630132","tag":{"amenity":"waste_basket"}},"type":"Feature"},
	{"geometry":{"coordinates":[-16.908442,32.65027],"type":"Point"},"properties":{"osm_id":"4582630133","tag":{"amenity":"waste_basket"}},"type":"Feature"},
	{"geometry":{"coordinates":[-16.908322,32.650196],"type":"Point"},"properties":{"osm_id":"4582630134","tag":{"amenity":"waste_basket"}},"type":"Feature"},
	{"geometry":{"coordinates":[-16.908191,32.650116],"type":"Point"},"properties":{"osm_id":"4582630135","tag":{"amenity":"waste_basket"}},"type":"Feature"},
	{"geometry":{"coordinates":[-16.903793,32.651275],"type":"Point"},"properties":{"osm_id":"4582630136","tag":{"amenity":"waste_basket"}},"type":"Feature"},
	{"geometry":{"coordinates":[-16.8947,32.648306],"type":"Point"},"properties":{"osm_id":"4582630145","tag":{"amenity":"waste_basket"}},"type":"Feature"},
	{"geometry":{"coordinates":[-16.896064,32.649143],"type":"Point"},"properties":{"osm_id":"4582630146","tag":{"amenity":"waste_basket"}},"type":"Feature"},
	{"geometry":{"coordinates":[-16.905006,32.651442],"type":"Point"},"properties":{"osm_id":"4582630147","tag":{"amenity":"waste_basket"}},"type":"Feature"},
	{"geometry":{"coordinates":[-16.894617,32.648152],"type":"Point"},"properties":{"osm_id":"4586670572","tag":{"addr:street":"Avenida Santiago Menor","amenity":"waste_basket"}},"type":"Feature"},
	{"geometry":{"coordinates":[-16.897444,32.646887],"type":"Point"},"properties":{"osm_id":"4595335325","tag":{"amenity":"waste_basket"}},"type":"Feature"},
	{"geometry":{"coordinates":[-16.897546,32.646803],"type":"Point"},"properties":{"osm_id":"4717099241","tag":{"amenity":"recycling","recycling:glass":"yes","recycling:paper":"yes","recycling:plastic":"yes","recycling_type":"container"}},"type":"Feature"},
	{"geometry":{"coordinates":[-16.911616,32.653965],"type":"Point"},"properties":{"osm_id":"4732219901","tag":{"amenity":"waste_basket"}},"type":"Feature"},
	{"geometry":{"coordinates":[-16.913283,32.644933],"type":"Point"},"properties":{"osm_id":"4741583314","tag":{"amenity":"recycling","recycling:paper":"yes","recycling:plastic":"yes","recycling:waste":"yes","recycling_type":"container"}},"type":"Feature"},
	{"geometry":{"coordinates":[-16.913428,32.6448],"type":"Point"},"properties":{"osm_id":"4741583315","tag":{"amenity":"waste_basket"}},"type":"Feature"},
	{"geometry":{"coordinates":[-16.912833,32.645413],"type":"Point"},"properties":{"osm_id":"4741583316","tag":{"amenity":"waste_basket"}},"type":"Feature"},
	{"geometry":{"coordinates":[-16.907622,32.645955],"type":"Point"},"properties":{"osm_id":"4747154703","tag":{"amenity":"waste_basket"}},"type":"Feature"},
	{"geometry":{"coordinates":[-16.908768,32.64582],"type":"Point"},"properties":{"osm_id":"4747154704","tag":{"amenity":"waste_basket"}},"type":"Feature"},
	{"geometry":{"coordinates":[-16.90822,32.64587],"type":"Point"},"properties":{"osm_id":"4747154705","tag":{"amenity":"waste_basket"}},"type":"Feature"},
	{"geometry":{"coordinates":[-16.907089,32.646026],"type":"Point"},"properties":{"osm_id":"4747154706","tag":{"amenity":"waste_basket"}},"type":"Feature"},
	{"geometry":{"coordinates":[-16.926768,32.657791],"type":"Point"},"properties":{"osm_id":"4782360550","tag":{"amenity":"recycling","recycling:glass":"yes","recycling:paper":"yes","recycling:waste":"yes","recycling_type":"container"}},"type":"Feature"},
	{"geometry":{"coordinates":[-16.926758,32.657999],"type":"Point"},"properties":{"osm_id":"4782362595","tag":{"amenity":"waste_basket"}},"type":"Feature"},
	{"geometry":{"coordinates":[-16.902358,32.654286],"type":"Point"},"properties":{"osm_id":"5010920324","tag":{"amenity":"recycling","recycling:batteries":"yes","recycling:glass":"yes","recycling:paper":"yes","recycling:plastic":"yes","recycling:waste":"yes","recycling_type":"container"}},"type":"Feature"},
	{"geometry":{"coordinates":[-16.934756,32.662835],"type":"Point"},"properties":{"osm_id":"5016835950","tag":{"amenity":"waste_basket"}},"type":"Feature"},
	{"geometry":{"coordinates":[-16.915902,32.64768],"type":"Point"},"properties":{"osm_id":"5143017655","tag":{"amenity":"waste_basket"}},"type":"Feature"},
	{"geometry":{"coordinates":[-16.916032,32.647737],"type":"Point"},"properties":{"osm_id":"5143017656","tag":{"amenity":"waste_basket"}},"type":"Feature"},
	{"geometry":{"coordinates":[-16.915977,32.647712],"type":"Point"},"properties":{"osm_id":"5143017657","tag":{"amenity":"waste_basket"}},"type":"Feature"},
	{"geometry":{"coordinates":[-16.916098,32.647767],"type":"Point"},"properties":{"osm_id":"5145707072","tag":{"amenity":"waste_basket"}},"type":"Feature"},
	{"geometry":{"coordinates":[-16.905614,32.646527],"type":"Point"},"properties":{"osm_id":"5258755467","tag":{"amenity":"waste_basket"}},"type":"Feature"},
	{"geometry":{"coordinates":[-16.934327,32.636769],"type":"Point"},"properties":{"osm_id":"5278255299","tag":{"amenity":"recycling","recycling_type":"container"}},"type":"Feature"},
	{"geometry":{"coordinates":[-16.90104,32.647614],"type":"Point"},"properties":{"osm_id":"5283022361","tag":{"amenity":"recycling","recycling:glass":"yes","recycling_type":"container"}},"type":"Feature"},
	{"geometry":{"coordinates":[-16.900849,32.647509],"type":"Point"},"properties":{"osm_id":"5283022362","tag":{"amenity":"recycling","recycling:aluminium":"yes","recycling:batteries":"yes","recycling:paper":"yes","recycling:plastic":"yes","recycling_type":"container"}},"type":"Feature"},
	{"geometry":{"coordinates":[-16.915637,32.649123],"type":"Point"},"properties":{"osm_id":"5283022365","tag":{"amenity":"recycling","recycling:glass":"yes","recycling:metal":"yes","recycling:paper":"yes","recycling_type":"container"}},"type":"Feature"},
	{"geometry":{"coordinates":[-16.917825,32.649361],"type":"Point"},"properties":{"osm_id":"5283022366","tag":{"amenity":"recycling","recycling:glass":"yes","recycling:metal":"yes","recycling:paper":"yes","recycling_type":"container"}},"type":"Feature"},
	{"geometry":{"coordinates":[-16.935007,32.656292],"type":"Point"},"properties":{"osm_id":"5283022414","tag":{"amenity":"recycling","recycling:glass":"yes","recycling:metal":"yes","recycling:paper":"yes","recycling:plastic":"yes","recycling_type":"container"}},"type":"Feature"},
	{"geometry":{"coordinates":[-16.907036,32.649219],"type":"Point"},"properties":{"osm_id":"5508255194","tag":{"amenity":"waste_basket"}},"type":"Feature"},
	{"geometry":{"coordinates":[-16.931726,32.636185],"type":"Point"},"properties":{"osm_id":"5981213539","tag":{"amenity":"waste_basket"}},"type":"Feature"},
	{"geometry":{"coordinates":[-16.933205,32.635962],"type":"Point"},"properties":{"osm_id":"5981213809","tag":{"amenity":"waste_basket"}},"type":"Feature"},
	{"geometry":{"coordinates":[-16.932772,32.635895],"type":"Point"},"properties":{"osm_id":"5981213816","tag":{"amenity":"waste_basket"}},"type":"Feature"},
	{"geometry":{"coordinates":[-16.932583,32.636016],"type":"Point"},"properties":{"osm_id":"5981213817","tag":{"amenity":"waste_basket"}},"type":"Feature"},
	{"geometry":{"coordinates":[-16.932315,32.636026],"type":"Point"},"properties":{"osm_id":"5981213837","tag":{"amenity":"waste_basket"}},"type":"Feature"},
	{"geometry":{"coordinates":[-16.933733,32.636059],"type":"Point"},"properties":{"osm_id":"5981214298","tag":{"amenity":"waste_basket"}},"type":"Feature"},
	{"geometry":{"coordinates":[-16.907259,32.648347],"type":"Point"},"properties":{"osm_id":"5983439043","tag":{"amenity":"waste_basket"}},"type":"Feature"},
	{"geometry":{"coordinates":[-16.909076,32.649408],"type":"Point"},"properties":{"osm_id":"5983445324","tag":{"amenity":"waste_basket"}},"type":"Feature"},
	{"geometry":{"coordinates":[-16.909481,32.649326],"type":"Point"},"properties":{"osm_id":"5983445354","tag":{"amenity":"waste_basket"}},"type":"Feature"},
	{"geometry":{"coordinates":[-16.909761,32.64924],"type":"Point"},"properties":{"osm_id":"5983445355","tag":{"amenity":"waste_basket"}},"type":"Feature"},
	{"geometry":{"coordinates":[-16.910061,32.64919],"type":"Point"},"properties":{"osm_id":"5983445356","tag":{"amenity":"waste_basket"}},"type":"Feature"},
	{"geometry":{"coordinates":[-16.910104,32.648946],"type":"Point"},"properties":{"osm_id":"5983445357","tag":{"amenity":"waste_basket"}},"type":"Feature"},
	{"geometry":{"coordinates":[-16.910423,32.648982],"type":"Point"},"properties":{"osm_id":"5983445358","tag":{"amenity":"waste_basket"}},"type":"Feature"},
	{"geometry":{"coordinates":[-16.910941,32.648869],"type":"Point"},"properties":{"osm_id":"5983445359","tag":{"amenity":"waste_basket"}},"type":"Feature"},
	{"geometry":{"coordinates":[-16.910847,32.648986],"type":"Point"},"properties":{"osm_id":"5983445360","tag":{"amenity":"waste_basket"}},"type":"Feature"},
	{"geometry":{"coordinates":[-16.911213,32.648794],"type":"Point"},"properties":{"osm_id":"5983445361","tag":{"amenity":"waste_basket"}},"type":"Feature"},
	{"geometry":{"coordinates":[-16.907154,32.648155],"type":"Point"},"properties":{"osm_id":"5983445385","tag":{"amenity":"waste_basket"}},"type":"Feature"},
	{"geometry":{"coordinates":[-16.906887,32.648166],"type":"Point"},"properties":{"osm_id":"5983445386","tag":{"amenity":"waste_basket"}},"type":"Feature"},
	{"geometry":{"coordinates":[-16.906949,32.648302],"type":"Point"},"properties":{"osm_id":"5983445387","tag":{"amenity":"waste_basket"}},"type":"Feature"},
	{"geometry":{"coordinates":[-16.906912,32.648835],"type":"Point"},"properties":{"osm_id":"5983445388","tag":{"amenity":"waste_basket"}},"type":"Feature"},
	{"geometry":{"coordinates":[-16.907011,32.648867],"type":"Point"},"properties":{"osm_id":"5983445389","tag":{"amenity":"waste_basket"}},"type":"Feature"},
	{"geometry":{"coordinates":[-16.907532,32.648906],"type":"Point"},"properties":{"osm_id":"5983445390","tag":{"amenity":"waste_basket"}},"type":"Feature"},
	{"geometry":{"coordinates":[-16.907365,32.648959],"type":"Point"},"properties":{"osm_id":"5983445391","tag":{"amenity":"waste_basket"}},"type":"Feature"},
	{"geometry":{"coordinates":[-16.907398,32.649062],"type":"Point"},"properties":{"osm_id":"5983445392","tag":{"amenity":"waste_basket"}},"type":"Feature"},
	{"geometry":{"coordinates":[-16.907456,32.649075],"type":"Point"},"properties":{"osm_id":"5983445393","tag":{"amenity":"waste_basket"}},"type":"Feature"},
	{"geometry":{"coordinates":[-16.907604,32.648847],"type":"Point"},"properties":{"osm_id":"5983445394","tag":{"amenity":"waste_basket"}},"type":"Feature"},
	{"geometry":{"coordinates":[-16.907707,32.649225],"type":"Point"},"properties":{"osm_id":"5983445395","tag":{"amenity":"waste_basket"}},"type":"Feature"},
	{"geometry":{"coordinates":[-16.907929,32.649364],"type":"Point"},"properties":{"osm_id":"5983445396","tag":{"amenity":"waste_basket"}},"type":"Feature"},
	{"geometry":{"coordinates":[-16.907949,32.64945],"type":"Point"},"properties":{"osm_id":"5983445397","tag":{"amenity":"waste_basket"}},"type":"Feature"},
	{"geometry":{"coordinates":[-16.909037,32.649574],"type":"Point"},"properties":{"osm_id":"5983445399","tag":{"amenity":"waste_basket"}},"type":"Feature"},
	{"geometry":{"coordinates":[-16.909284,32.649452],"type":"Point"},"properties":{"osm_id":"5983445400","tag":{"amenity":"waste_basket"}},"type":"Feature"},
	{"geometry":{"coordinates":[-16.902938,32.647666],"type":"Point"},"properties":{"osm_id":"6148089177","tag":{"amenity":"recycling","recycling:cardboard":"yes","recycling:glass":"yes","recycling:metal":"yes","recycling:paper_packaging":"yes","recycling:plastic_packaging":"yes","recycling_type":"container"}},"type":"Feature"},
	{"geometry":{"coordinates":[-16.914392,32.645109],"type":"Point"},"properties":{"osm_id":"6731873539","tag":{"amenity":"waste_basket"}},"type":"Feature"},
	{"geometry":{"coordinates":[-16.914161,32.645229],"type":"Point"},"properties":{"osm_id":"6731883974","tag":{"amenity":"waste_basket"}},"type":"Feature"},
	{"geometry":{"coordinates":[-16.913846,32.645094],"type":"Point"},"properties":{"osm_id":"6731883975","tag":{"amenity":"waste_basket"}},"type":"Feature"},
	{"geometry":{"coordinates":[-16.913664,32.645327],"type":"Point"},"properties":{"osm_id":"6731883976","tag":{"amenity":"waste_basket"}},"type":"Feature"},
	{"geometry":{"coordinates":[-16.913443,32.645504],"type":"Point"},"properties":{"osm_id":"6731883977","tag":{"amenity":"waste_basket"}},"type":"Feature"},
	{"geometry":{"coordinates":[-16.913744,32.646061],"type":"Point"},"properties":{"osm_id":"6731883978","tag":{"amenity":"waste_basket"}},"type":"Feature"},
	{"geometry":{"coordinates":[-16.914222,32.645911],"type":"Point"},"properties":{"osm_id":"6731883979","tag":{"amenity":"waste_basket"}},"type":"Feature"},
	{"geometry":{"coordinates":[-16.914694,32.64567],"type":"Point"},"properties":{"osm_id":"6731883980","tag":{"amenity":"waste_basket"}},"type":"Feature"},
	{"geometry":{"coordinates":[-16.914824,32.645706],"type":"Point"},"properties":{"osm_id":"6731883981","tag":{"amenity":"waste_basket"}},"type":"Feature"},
	{"geometry":{"coordinates":[-16.915018,32.645643],"type":"Point"},"properties":{"osm_id":"6731883982","tag":{"amenity":"waste_basket"}},"type":"Feature"},
	{"geometry":{"coordinates":[-16.915177,32.645483],"type":"Point"},"properties":{"osm_id":"6731883983","tag":{"amenity":"waste_basket"}},"type":"Feature"},
	{"geometry":{"coordinates":[-16.915257,32.645389],"type":"Point"},"properties":{"osm_id":"6731883984","tag":{"amenity":"waste_basket"}},"type":"Feature"},
	{"geometry":{"coordinates":[-16.915409,32.64558],"type":"Point"},"properties":{"osm_id":"6731902385","tag":{"amenity":"waste_basket"}},"type":"Feature"},
	{"geometry":{"coordinates":[-16.915323,32.645104],"type":"Point"},"properties":{"osm_id":"6731902386","tag":{"amenity":"waste_basket"}},"type":"Feature"},
	{"geometry":{"coordinates":[-16.915107,32.64483],"type":"Point"},"properties":{"osm_id":"6731902387","tag":{"amenity":"waste_basket"}},"type":"Feature"},
	{"geometry":{"coordinates":[-16.914988,32.645055],"type":"Point"},"properties":{"osm_id":"6731902388","tag":{"amenity":"waste_basket"}},"type":"Feature"},
	{"geometry":{"coordinates":[-16.914856,32.644995],"type":"Point"},"properties":{"osm_id":"6731902389","tag":{"amenity":"waste_basket"}},"type":"Feature"},
	{"geometry":{"coordinates":[-16.914879,32.64515],"type":"Point"},"properties":{"osm_id":"6731902390","tag":{"amenity":"waste_basket"}},"type":"Feature"},
	{"geometry":{"coordinates":[-16.915009,32.645549],"type":"Point"},"properties":{"osm_id":"6731902391","tag":{"amenity":"waste_basket"}},"type":"Feature"},
	{"geometry":{"coordinates":[-16.914917,32.645352],"type":"Point"},"properties":{"osm_id":"6731902392","tag":{"amenity":"waste_basket"}},"type":"Feature"},
	{"geometry":{"coordinates":[-16.914864,32.644928],"type":"Point"},"properties":{"osm_id":"6731902393","tag":{"amenity":"waste_basket"}},"type":"Feature"},
	{"geometry":{"coordinates":[-16.914395,32.645112],"type":"Point"},"properties":{"osm_id":"6731902394","tag":{"amenity":"waste_basket"}},"type":"Feature"},
	{"geometry":{"coordinates":[-16.914219,32.644932],"type":"Point"},"properties":{"osm_id":"6731902395","tag":{"amenity":"waste_basket"}},"type":"Feature"},
	{"geometry":{"coordinates":[-16.914282,32.644609],"type":"Point"},"properties":{"osm_id":"6731902396","tag":{"amenity":"waste_basket"}},"type":"Feature"},
	{"geometry":{"coordinates":[-16.913735,32.645382],"type":"Point"},"properties":{"osm_id":"6731902397","tag":{"amenity":"waste_basket"}},"type":"Feature"},
	{"geometry":{"coordinates":[-16.91349,32.645399],"type":"Point"},"properties":{"osm_id":"6731902398","tag":{"amenity":"waste_basket"}},"type":"Feature"},
	{"geometry":{"coordinates":[-16.912957,32.645805],"type":"Point"},"properties":{"osm_id":"6731902400","tag":{"amenity":"waste_basket"}},"type":"Feature"},
	{"geometry":{"coordinates":[-16.913051,32.645776],"type":"Point"},"properties":{"osm_id":"6731992478","tag":{"amenity":"waste_basket"}},"type":"Feature"},
	{"geometry":{"coordinates":[-16.902646,32.675497],"type":"Point"},"properties":{"osm_id":"6788341400","tag":{"amenity":"waste_basket","waste":"trash"}},"type":"Feature"},
	{"geometry":{"coordinates":[-16.90361,32.647411],"type":"Point"},"properties":{"osm_id":"7139547392","tag":{"amenity":"waste_basket"}},"type":"Feature"},
	{"geometry":{"coordinates":[-16.904432,32.647762],"type":"Point"},"properties":{"osm_id":"7139603087","tag":{"amenity":"waste_basket"}},"type":"Feature"},
	{"geometry":{"coordinates":[-16.936169,32.671923],"type":"Point"},"properties":{"osm_id":"7207330814","tag":{"amenity":"waste_basket"}},"type":"Feature"},
	{"geometry":{"coordinates":[-16.938251,32.671197],"type":"Point"},"properties":{"osm_id":"7207361397","tag":{"amenity":"waste_basket"}},"type":"Feature"},
	{"geometry":{"coordinates":[-16.946669,32.669281],"type":"Point"},"properties":{"osm_id":"7209335346","tag":{"amenity":"waste_basket"}},"type":"Feature"},
	{"geometry":{"coordinates":[-16.94485,32.670787],"type":"Point"},"properties":{"osm_id":"7209335366","tag":{"amenity":"waste_basket"}},"type":"Feature"},
	{"geometry":{"coordinates":[-16.944694,32.670554],"type":"Point"},"properties":{"osm_id":"7209335367","tag":{"amenity":"recycling","recycling_type":"container"}},"type":"Feature"},
	{"geometry":{"coordinates":[-16.924171,32.656045],"type":"Point"},"properties":{"osm_id":"7212694455","tag":{"amenity":"recycling","recycling_type":"container"}},"type":"Feature"},
	{"geometry":{"coordinates":[-16.924168,32.65607],"type":"Point"},"properties":{"osm_id":"7212694456","tag":{"amenity":"waste_basket"}},"type":"Feature"}
]
}
