{
"type": "FeatureCollection",
"features": [
	{"geometry":{"coordinates":[11.852283,55.96038],"type":"Point"},"properties":{"osm_id":"2395641061","tag":{"amenity":"waste_basket"}},"type":"Feature"},
	{"geometry":{"coordinates":[11.851736,55.961426],"type":"Point"},"properties":{"osm_id":"2395641063","tag":{"amenity":"waste_basket"}},"type":"Feature"},
	{"geometry":{"coordinates":[11.849068,55.969967],"type":"Point"},"properties":{"osm_id":"5856753064","tag":{"amenity":"waste_basket"}},"type":"Feature"},
	{"geometry":{"coordinates":[11.849145,55.969728],"type":"Point"},"properties":{"osm_id":"5856753065","tag":{"amenity":"waste_basket"}},"type":"Feature"},
	{"geometry":{"coordinates":[11.84921,55.969522],"type":"Point"},"properties":{"osm_id":"5856753066","tag":{"amenity":"waste_basket"}},"type":"Feature"},
	{"geometry":{"coordinates":[11.846291,55.965406],"type":"Point"},"properties":{"osm_id":"6707450130","tag":{"amenity":"recycling","recycling_type":"container","seamark:small_craft_facility:category":"refuse_bin","seamark:type":"small_craft_facility"}},"type":"Feature"}
]
}
