{
"type": "FeatureCollection",
"features": [
	{"geometry":{"coordinates":[11.859712,52.595969],"type":"Point"},"properties":{"osm_id":"330754444","tag":{"amenity":"recycling","location":"overground","recycling:glass":"yes","recycling_type":"container"}},"type":"Feature"},
	{"geometry":{"coordinates":[11.853743,52.623392],"type":"Point"},"properties":{"osm_id":"463155341","tag":{"amenity":"recycling","recycling:glass":"yes","recycling_type":"container"}},"type":"Feature"},
	{"geometry":{"coordinates":[11.86131,52.598433],"type":"Point"},"properties":{"osm_id":"1002590853","tag":{"amenity":"recycling","location":"overground","recycling_type":"container"}},"type":"Feature"},
	{"geometry":{"coordinates":[11.833583,52.595003],"type":"Point"},"properties":{"osm_id":"1038401782","tag":{"amenity":"recycling","recycling_type":"container"}},"type":"Feature"},
	{"geometry":{"coordinates":[11.836697,52.601305],"type":"Point"},"properties":{"osm_id":"1073269739","tag":{"amenity":"recycling","recycling:glass_bottles":"yes","recycling_type":"container"}},"type":"Feature"},
	{"geometry":{"coordinates":[11.839369,52.601653],"type":"Point"},"properties":{"osm_id":"1073269749","tag":{"amenity":"recycling","recycling:glass_bottles":"yes","recycling_type":"container"}},"type":"Feature"},
	{"geometry":{"coordinates":[11.842011,52.601206],"type":"Point"},"properties":{"osm_id":"1080419810","tag":{"amenity":"recycling","recycling:glass":"no","recycling:glass_bottles":"yes","recycling_type":"container"}},"type":"Feature"},
	{"geometry":{"coordinates":[11.840685,52.604637],"type":"Point"},"properties":{"osm_id":"1080419811","tag":{"amenity":"recycling","recycling:glass":"no","recycling:glass_bottles":"yes","recycling_type":"container"}},"type":"Feature"},
	{"geometry":{"coordinates":[11.830912,52.596535],"type":"Point"},"properties":{"osm_id":"1106006592","tag":{"amenity":"recycling","recycling_type":"container"}},"type":"Feature"},
	{"geometry":{"coordinates":[11.831326,52.594576],"type":"Point"},"properties":{"osm_id":"1106006599","tag":{"amenity":"recycling","recycling_type":"container"}},"type":"Feature"},
	{"geometry":{"coordinates":[11.855471,52.59915],"type":"Point"},"properties":{"osm_id":"1145912695","tag":{"amenity":"recycling","location":"overground","recycling_type":"container"}},"type":"Feature"},
	{"geometry":{"coordinates":[11.834463,52.59656],"type":"Point"},"properties":{"osm_id":"1164029044","tag":{"amenity":"recycling","recycling:glass_bottles":"yes","recycling_type":"container"}},"type":"Feature"},
	{"geometry":{"coordinates":[11.85159,52.597492],"type":"Point"},"properties":{"osm_id":"1175312948","tag":{"amenity":"recycling","location":"overground","recycling:glass_bottles":"yes","recycling_type":"container"}},"type":"Feature"},
	{"geometry":{"coordinates":[11.847198,52.60179],"type":"Point"},"properties":{"osm_id":"1265011772","tag":{"amenity":"recycling","recycling:glass_bottles":"yes","recycling_type":"container"}},"type":"Feature"},
	{"geometry":{"coordinates":[11.84534,52.607593],"type":"Point"},"properties":{"osm_id":"1286919593","tag":{"amenity":"recycling","recycling:glass_bottles":"yes","recycling_type":"container"}},"type":"Feature"},
	{"geometry":{"coordinates":[11.835376,52.59762],"type":"Point"},"properties":{"osm_id":"1337168392","tag":{"amenity":"recycling","recycling:glass":"yes","recycling_type":"container"}},"type":"Feature"},
	{"geometry":{"coordinates":[11.832987,52.600112],"type":"Point"},"properties":{"osm_id":"1337243602","tag":{"amenity":"recycling","recycling:glass":"no","recycling:glass_bottles":"yes","recycling_type":"container"}},"type":"Feature"},
	{"geometry":{"coordinates":[11.848012,52.59152],"type":"Point"},"properties":{"osm_id":"1354030799","tag":{"amenity":"recycling","recycling:glass":"yes","recycling_type":"container"}},"type":"Feature"},
	{"geometry":{"coordinates":[11.844189,52.600129],"type":"Point"},"properties":{"osm_id":"1396689148","tag":{"amenity":"recycling","check_date:recycling":"2020-10-04","recycling:glass":"no","recycling:glass_bottles":"yes","recycling_type":"container"}},"type":"Feature"},
	{"geometry":{"coordinates":[11.81191,52.618127],"type":"Point"},"properties":{"osm_id":"1399123860","tag":{"amenity":"recycling","recycling:glass":"yes","recycling_type":"container"}},"type":"Feature"},
	{"geometry":{"coordinates":[11.852522,52.602206],"type":"Point"},"properties":{"osm_id":"1478012389","tag":{"amenity":"recycling","recycling:paper":"yes","recycling:plastic":"no","recycling:plastic_packaging":"yes","recycling_type":"container"}},"type":"Feature"},
	{"geometry":{"coordinates":[11.848537,52.60847],"type":"Point"},"properties":{"osm_id":"1478012390","tag":{"amenity":"recycling","recycling:glass":"yes","recycling_type":"container"}},"type":"Feature"},
	{"geometry":{"coordinates":[11.843269,52.598195],"type":"Point"},"properties":{"osm_id":"1502859902","tag":{"amenity":"recycling","recycling:glass_bottles":"yes","recycling_type":"container"}},"type":"Feature"},
	{"geometry":{"coordinates":[11.844351,52.598969],"type":"Point"},"properties":{"osm_id":"1502859906","tag":{"amenity":"recycling","recycling:plastic":"no","recycling:plastic_packaging":"yes","recycling_type":"container"}},"type":"Feature"},
	{"geometry":{"coordinates":[11.839141,52.598587],"type":"Point"},"properties":{"osm_id":"1950383867","tag":{"amenity":"recycling","recycling:glass":"no","recycling:glass_bottles":"yes","recycling_type":"container"}},"type":"Feature"},
	{"geometry":{"coordinates":[11.858017,52.61727],"type":"Point"},"properties":{"osm_id":"3398457883","tag":{"amenity":"recycling","recycling:glass":"yes","recycling_type":"container"}},"type":"Feature"},
	{"geometry":{"coordinates":[11.856071,52.622439],"type":"Point"},"properties":{"osm_id":"4594874556","tag":{"amenity":"recycling","recycling:glass":"yes","recycling_type":"container"}},"type":"Feature"},
	{"geometry":{"coordinates":[11.852843,52.604579],"type":"Point"},"properties":{"osm_id":"5230868521","tag":{"amenity":"waste_basket"}},"type":"Feature"},
	{"geometry":{"coordinates":[11.848675,52.604598],"type":"Point"},"properties":{"osm_id":"5264265311","tag":{"amenity":"recycling","recycling:glass":"no","recycling:glass_bottles":"yes","recycling_type":"container"}},"type":"Feature"},
	{"geometry":{"coordinates":[11.829197,52.591463],"type":"Point"},"properties":{"osm_id":"5292262088","tag":{"amenity":"recycling","recycling:glass":"yes","recycling_type":"container"}},"type":"Feature"},
	{"geometry":{"coordinates":[11.858182,52.600498],"type":"Point"},"properties":{"osm_id":"5859300483","tag":{"amenity":"waste_basket"}},"type":"Feature"},
	{"geometry":{"coordinates":[11.857557,52.598126],"type":"Point"},"properties":{"osm_id":"5859310652","tag":{"amenity":"waste_basket"}},"type":"Feature"},
	{"geometry":{"coordinates":[11.859148,52.600074],"type":"Point"},"properties":{"osm_id":"9064277982","tag":{"amenity":"waste_basket"}},"type":"Feature"},
	{"geometry":{"coordinates":[11.859475,52.604943],"type":"Point"},"properties":{"osm_id":"9135387865","tag":{"amenity":"waste_basket"}},"type":"Feature"},
	{"geometry":{"coordinates":[11.859134,52.60526],"type":"Point"},"properties":{"osm_id":"9135387866","tag":{"amenity":"waste_basket"}},"type":"Feature"},
	{"geometry":{"coordinates":[11.854472,52.603232],"type":"Point"},"properties":{"osm_id":"9135402815","tag":{"amenity":"waste_basket"}},"type":"Feature"},
	{"geometry":{"coordinates":[11.858985,52.605154],"type":"Point"},"properties":{"osm_id":"9135411525","tag":{"amenity":"waste_basket"}},"type":"Feature"},
	{"geometry":{"coordinates":[11.859045,52.605094],"type":"Point"},"properties":{"osm_id":"9135411526","tag":{"amenity":"waste_basket"}},"type":"Feature"},
	{"geometry":{"coordinates":[11.85915,52.604992],"type":"Point"},"properties":{"osm_id":"9135411527","tag":{"amenity":"waste_basket"}},"type":"Feature"},
	{"geometry":{"coordinates":[11.859202,52.604936],"type":"Point"},"properties":{"osm_id":"9135411528","tag":{"amenity":"waste_basket"}},"type":"Feature"},
	{"geometry":{"coordinates":[11.853976,52.603499],"type":"Point"},"properties":{"osm_id":"9135412558","tag":{"amenity":"waste_basket"}},"type":"Feature"},
	{"geometry":{"coordinates":[11.853934,52.603626],"type":"Point"},"properties":{"osm_id":"9135412559","tag":{"amenity":"waste_basket"}},"type":"Feature"},
	{"geometry":{"coordinates":[11.855553,52.603724],"type":"Point"},"properties":{"osm_id":"9135422708","tag":{"amenity":"waste_basket"}},"type":"Feature"},
	{"geometry":{"coordinates":[11.855671,52.603548],"type":"Point"},"properties":{"osm_id":"9135422709","tag":{"amenity":"waste_basket"}},"type":"Feature"},
	{"geometry":{"coordinates":[11.855147,52.60333],"type":"Point"},"properties":{"osm_id":"9135422710","tag":{"amenity":"waste_basket"}},"type":"Feature"},
	{"geometry":{"coordinates":[11.853624,52.603256],"type":"Point"},"properties":{"osm_id":"9135423599","tag":{"amenity":"waste_basket"}},"type":"Feature"},
	{"geometry":{"coordinates":[11.853539,52.603189],"type":"Point"},"properties":{"osm_id":"9135423600","tag":{"amenity":"waste_basket"}},"type":"Feature"},
	{"geometry":{"coordinates":[11.852909,52.603416],"type":"Point"},"properties":{"osm_id":"9135430824","tag":{"amenity":"waste_basket"}},"type":"Feature"},
	{"geometry":{"coordinates":[11.854007,52.60332],"type":"Point"},"properties":{"osm_id":"9135450831","tag":{"amenity":"waste_basket"}},"type":"Feature"},
	{"geometry":{"coordinates":[11.857717,52.59559],"type":"Point"},"properties":{"osm_id":"9135453211","tag":{"amenity":"waste_basket"}},"type":"Feature"},
	{"geometry":{"coordinates":[11.856765,52.601309],"type":"Point"},"properties":{"osm_id":"9135456852","tag":{"amenity":"waste_basket"}},"type":"Feature"},
	{"geometry":{"coordinates":[11.85758,52.597956],"type":"Point"},"properties":{"osm_id":"9135460344","tag":{"amenity":"waste_basket"}},"type":"Feature"},
	{"geometry":{"coordinates":[11.855598,52.602375],"type":"Point"},"properties":{"osm_id":"9135461657","tag":{"amenity":"waste_basket"}},"type":"Feature"},
	{"geometry":{"coordinates":[11.858867,52.600196],"type":"Point"},"properties":{"osm_id":"9135463281","tag":{"amenity":"waste_basket"}},"type":"Feature"},
	{"geometry":{"coordinates":[11.857897,52.60063],"type":"Point"},"properties":{"osm_id":"9135466022","tag":{"amenity":"waste_basket"}},"type":"Feature"},
	{"geometry":{"coordinates":[11.857709,52.600719],"type":"Point"},"properties":{"osm_id":"9135466023","tag":{"amenity":"waste_basket"}},"type":"Feature"},
	{"geometry":{"coordinates":[11.855049,52.595157],"type":"Point"},"properties":{"osm_id":"9135467158","tag":{"amenity":"waste_basket"}},"type":"Feature"},
	{"geometry":{"coordinates":[11.859965,52.599686],"type":"Point"},"properties":{"osm_id":"9135487425","tag":{"amenity":"waste_basket"}},"type":"Feature"},
	{"geometry":{"coordinates":[11.854651,52.595294],"type":"Point"},"properties":{"osm_id":"9135492291","tag":{"amenity":"waste_basket"}},"type":"Feature"},
	{"geometry":{"coordinates":[11.857835,52.598001],"type":"Point"},"properties":{"osm_id":"9135503364","tag":{"amenity":"waste_basket"}},"type":"Feature"},
	{"geometry":{"coordinates":[11.857745,52.59795],"type":"Point"},"properties":{"osm_id":"9135503365","tag":{"amenity":"waste_basket"}},"type":"Feature"},
	{"geometry":{"coordinates":[11.857499,52.597912],"type":"Point"},"properties":{"osm_id":"9135503366","tag":{"amenity":"waste_basket"}},"type":"Feature"},
	{"geometry":{"coordinates":[11.857349,52.597856],"type":"Point"},"properties":{"osm_id":"9135503367","tag":{"amenity":"waste_basket"}},"type":"Feature"},
	{"geometry":{"coordinates":[11.857441,52.598249],"type":"Point"},"properties":{"osm_id":"9135503368","tag":{"amenity":"waste_basket"}},"type":"Feature"},
	{"geometry":{"coordinates":[11.858539,52.595687],"type":"Point"},"properties":{"osm_id":"9135519881","tag":{"amenity":"waste_basket"}},"type":"Feature"},
	{"geometry":{"coordinates":[11.857805,52.595694],"type":"Point"},"properties":{"osm_id":"9135519882","tag":{"amenity":"waste_basket"}},"type":"Feature"},
	{"geometry":{"coordinates":[11.859286,52.595981],"type":"Point"},"properties":{"osm_id":"9135528659","tag":{"amenity":"waste_basket"}},"type":"Feature"},
	{"geometry":{"coordinates":[11.858761,52.595809],"type":"Point"},"properties":{"osm_id":"9135528660","tag":{"amenity":"waste_basket"}},"type":"Feature"},
	{"geometry":{"coordinates":[11.856545,52.595488],"type":"Point"},"properties":{"osm_id":"9135533837","tag":{"amenity":"waste_basket"}},"type":"Feature"},
	{"geometry":{"coordinates":[11.856386,52.595473],"type":"Point"},"properties":{"osm_id":"9135533838","tag":{"amenity":"waste_basket"}},"type":"Feature"},
	{"geometry":{"coordinates":[11.855466,52.595459],"type":"Point"},"properties":{"osm_id":"9135537041","tag":{"amenity":"waste_basket"}},"type":"Feature"},
	{"geometry":{"coordinates":[11.855319,52.595367],"type":"Point"},"properties":{"osm_id":"9135537042","tag":{"amenity":"waste_basket"}},"type":"Feature"},
	{"geometry":{"coordinates":[11.85483,52.595285],"type":"Point"},"properties":{"osm_id":"9135541713","tag":{"amenity":"waste_basket"}},"type":"Feature"},
	{"geometry":{"coordinates":[11.843862,52.595548],"type":"Point"},"properties":{"osm_id":"9135575459","tag":{"amenity":"waste_basket"}},"type":"Feature"},
	{"geometry":{"coordinates":[11.847357,52.596646],"type":"Point"},"properties":{"osm_id":"9136048306","tag":{"amenity":"waste_basket"}},"type":"Feature"},
	{"geometry":{"coordinates":[11.845717,52.595891],"type":"Point"},"properties":{"osm_id":"9136055284","tag":{"amenity":"waste_basket"}},"type":"Feature"},
	{"geometry":{"coordinates":[11.845548,52.596115],"type":"Point"},"properties":{"osm_id":"9136084652","tag":{"amenity":"waste_basket"}},"type":"Feature"},
	{"geometry":{"coordinates":[11.84805,52.596949],"type":"Point"},"properties":{"osm_id":"9136091315","tag":{"amenity":"waste_basket"}},"type":"Feature"},
	{"geometry":{"coordinates":[11.848121,52.59687],"type":"Point"},"properties":{"osm_id":"9136091316","tag":{"amenity":"waste_basket"}},"type":"Feature"},
	{"geometry":{"coordinates":[11.850148,52.597762],"type":"Point"},"properties":{"osm_id":"9136157681","tag":{"amenity":"waste_basket"}},"type":"Feature"},
	{"geometry":{"coordinates":[11.85992,52.600963],"type":"Point"},"properties":{"osm_id":"9136178605","tag":{"amenity":"waste_basket"}},"type":"Feature"},
	{"geometry":{"coordinates":[11.859874,52.600799],"type":"Point"},"properties":{"osm_id":"9136178606","tag":{"amenity":"waste_basket"}},"type":"Feature"},
	{"geometry":{"coordinates":[11.848468,52.597214],"type":"Point"},"properties":{"osm_id":"9136189998","tag":{"amenity":"waste_basket"}},"type":"Feature"},
	{"geometry":{"coordinates":[11.860145,52.601094],"type":"Point"},"properties":{"osm_id":"9136202902","tag":{"amenity":"waste_basket"}},"type":"Feature"},
	{"geometry":{"coordinates":[11.859935,52.601056],"type":"Point"},"properties":{"osm_id":"9136202903","tag":{"amenity":"waste_basket"}},"type":"Feature"},
	{"geometry":{"coordinates":[11.859853,52.601156],"type":"Point"},"properties":{"osm_id":"9136211995","tag":{"amenity":"waste_basket"}},"type":"Feature"},
	{"geometry":{"coordinates":[11.859438,52.600928],"type":"Point"},"properties":{"osm_id":"9136239830","tag":{"amenity":"waste_basket"}},"type":"Feature"}
]
}
