{
"type": "FeatureCollection",
"lastupdate": "2020-08-02T00:00:00Z",
"features": [
	{"geometry":{"coordinates":[11.859529,50.903031],"type":"Point"},"properties":{"osm_id":"1086798226","tag":{"amenity":"recycling","recycling:clothes":"yes","recycling:glass":"yes","recycling:paper":"yes","recycling_type":"container"}},"type":"Feature"},
	{"geometry":{"coordinates":[11.808678,50.87692],"type":"Point"},"properties":{"osm_id":"2958292234","tag":{"amenity":"waste_basket"}},"type":"Feature"},
	{"geometry":{"coordinates":[11.808404,50.877005],"type":"Point"},"properties":{"osm_id":"2958292644","tag":{"amenity":"waste_basket"}},"type":"Feature"},
	{"geometry":{"coordinates":[11.808874,50.877226],"type":"Point"},"properties":{"osm_id":"2958294633","tag":{"amenity":"recycling","recycling:glass":"yes","recycling:glass_bottles":"yes","recycling_type":"container"}},"type":"Feature"},
	{"geometry":{"coordinates":[11.809295,50.877192],"type":"Point"},"properties":{"osm_id":"2958298333","tag":{"amenity":"waste_basket"}},"type":"Feature"},
	{"geometry":{"coordinates":[11.808965,50.877291],"type":"Point"},"properties":{"osm_id":"2958298334","tag":{"amenity":"waste_basket"}},"type":"Feature"},
	{"geometry":{"coordinates":[11.80937,50.877111],"type":"Point"},"properties":{"osm_id":"2958298733","tag":{"amenity":"waste_basket"}},"type":"Feature"},
	{"geometry":{"coordinates":[11.807991,50.877255],"type":"Point"},"properties":{"osm_id":"2958298734","tag":{"amenity":"waste_basket"}},"type":"Feature"},
	{"geometry":{"coordinates":[11.80853,50.877309],"type":"Point"},"properties":{"osm_id":"2958298735","tag":{"amenity":"waste_basket"}},"type":"Feature"},
	{"geometry":{"coordinates":[11.809166,50.876994],"type":"Point"},"properties":{"osm_id":"2958300233","tag":{"amenity":"waste_basket"}},"type":"Feature"},
	{"geometry":{"coordinates":[11.808892,50.877433],"type":"Point"},"properties":{"osm_id":"2958300234","tag":{"amenity":"waste_basket"}},"type":"Feature"},
	{"geometry":{"coordinates":[11.808724,50.876933],"type":"Point"},"properties":{"osm_id":"2958301933","tag":{"amenity":"waste_basket"}},"type":"Feature"},
	{"geometry":{"coordinates":[11.807833,50.877238],"type":"Point"},"properties":{"osm_id":"2958302733","tag":{"amenity":"waste_basket"}},"type":"Feature"},
	{"geometry":{"coordinates":[11.808402,50.877101],"type":"Point"},"properties":{"osm_id":"2958309733","tag":{"amenity":"waste_basket"}},"type":"Feature"},
	{"geometry":{"coordinates":[11.80883,50.875826],"type":"Point"},"properties":{"osm_id":"2961515749","tag":{"amenity":"waste_basket"}},"type":"Feature"},
	{"geometry":{"coordinates":[11.808342,50.875956],"type":"Point"},"properties":{"osm_id":"2961516036","tag":{"amenity":"waste_basket"}},"type":"Feature"},
	{"geometry":{"coordinates":[11.808259,50.876029],"type":"Point"},"properties":{"osm_id":"2961516534","tag":{"amenity":"waste_basket"}},"type":"Feature"},
	{"geometry":{"coordinates":[11.80868,50.875883],"type":"Point"},"properties":{"osm_id":"2961523233","tag":{"amenity":"recycling","recycling:glass":"yes","recycling:glass_bottles":"yes","recycling_type":"container"}},"type":"Feature"},
	{"geometry":{"coordinates":[11.810392,50.876339],"type":"Point"},"properties":{"osm_id":"2961532934","tag":{"amenity":"waste_basket"}},"type":"Feature"},
	{"geometry":{"coordinates":[11.810186,50.876204],"type":"Point"},"properties":{"osm_id":"2961541333","tag":{"amenity":"waste_basket"}},"type":"Feature"},
	{"geometry":{"coordinates":[11.824531,50.888874],"type":"Point"},"properties":{"osm_id":"3915308440","tag":{"amenity":"recycling","recycling:cans":"yes","recycling:glass":"yes","recycling:glass_bottles":"yes","recycling_type":"container"}},"type":"Feature"},
	{"geometry":{"coordinates":[11.856244,50.898535],"type":"Point"},"properties":{"osm_id":"4350095794","tag":{"amenity":"recycling","recycling:clothes":"yes","recycling:glass":"yes","recycling:glass_bottles":"yes","recycling_type":"container"}},"type":"Feature"},
	{"geometry":{"coordinates":[11.85626,50.894657],"type":"Point"},"properties":{"osm_id":"5068326475","tag":{"amenity":"recycling","recycling:glass_bottles":"green","recycling_type":"container"}},"type":"Feature"},
	{"geometry":{"coordinates":[11.856285,50.894655],"type":"Point"},"properties":{"osm_id":"5068326476","tag":{"amenity":"recycling","recycling:glass_bottles":"brown","recycling_type":"container"}},"type":"Feature"},
	{"geometry":{"coordinates":[11.856311,50.894655],"type":"Point"},"properties":{"osm_id":"5068326477","tag":{"amenity":"recycling","recycling:glass_bottles":"brown","recycling_type":"container"}},"type":"Feature"},
	{"geometry":{"coordinates":[11.852997,50.88641],"type":"Point"},"properties":{"osm_id":"5356102606","tag":{"amenity":"recycling","recycling:clothes":"yes","recycling:glass":"yes","recycling_type":"container"}},"type":"Feature"},
	{"geometry":{"coordinates":[11.788458,50.878315],"type":"Point"},"properties":{"osm_id":"7542469502","tag":{"amenity":"recycling","recycling:clothes":"yes","recycling:glass_bottles":"yes","recycling_type":"container"}},"type":"Feature"}
]
}
