{
"type": "FeatureCollection",
"features": [
	{"geometry":{"coordinates":[11.813272,46.152883],"type":"Point"},"properties":{"osm_id":"1358239291","tag":{"amenity":"waste_basket"}},"type":"Feature"},
	{"geometry":{"coordinates":[11.81347,46.153165],"type":"Point"},"properties":{"osm_id":"1358239298","tag":{"amenity":"waste_basket"}},"type":"Feature"},
	{"geometry":{"coordinates":[11.806163,46.154401],"type":"Point"},"properties":{"osm_id":"1358269036","tag":{"amenity":"waste_basket"}},"type":"Feature"},
	{"geometry":{"coordinates":[11.83103,46.175807],"type":"Point"},"properties":{"osm_id":"1358273546","tag":{"amenity":"waste_basket"}},"type":"Feature"},
	{"geometry":{"coordinates":[11.831237,46.176152],"type":"Point"},"properties":{"osm_id":"1358273547","tag":{"amenity":"waste_basket"}},"type":"Feature"},
	{"geometry":{"coordinates":[11.831258,46.176524],"type":"Point"},"properties":{"osm_id":"1358273556","tag":{"amenity":"waste_basket"}},"type":"Feature"},
	{"geometry":{"coordinates":[11.829141,46.174282],"type":"Point"},"properties":{"osm_id":"1886707082","tag":{"amenity":"recycling","recycling:glass":"yes","recycling:paper":"yes","recycling_type":"container"}},"type":"Feature"},
	{"geometry":{"coordinates":[11.812292,46.155489],"type":"Point"},"properties":{"osm_id":"2169733480","tag":{"amenity":"recycling"}},"type":"Feature"},
	{"geometry":{"coordinates":[11.840348,46.18077],"type":"Point"},"properties":{"osm_id":"2175692295","tag":{"amenity":"recycling"}},"type":"Feature"},
	{"geometry":{"coordinates":[11.840007,46.181829],"type":"Point"},"properties":{"osm_id":"2175692479","tag":{"amenity":"waste_basket"}},"type":"Feature"},
	{"geometry":{"coordinates":[11.840518,46.182007],"type":"Point"},"properties":{"osm_id":"2175692556","tag":{"amenity":"waste_basket"}},"type":"Feature"},
	{"geometry":{"coordinates":[11.84001,46.184134],"type":"Point"},"properties":{"osm_id":"2177140025","tag":{"amenity":"recycling"}},"type":"Feature"},
	{"geometry":{"coordinates":[11.838443,46.182739],"type":"Point"},"properties":{"osm_id":"2177503717","tag":{"amenity":"recycling"}},"type":"Feature"},
	{"geometry":{"coordinates":[11.833057,46.188551],"type":"Point"},"properties":{"osm_id":"2177503893","tag":{"amenity":"recycling"}},"type":"Feature"},
	{"geometry":{"coordinates":[11.829715,46.188749],"type":"Point"},"properties":{"osm_id":"2177503894","tag":{"amenity":"recycling"}},"type":"Feature"},
	{"geometry":{"coordinates":[11.827547,46.17338],"type":"Point"},"properties":{"osm_id":"2394661716","tag":{"amenity":"recycling","recycling:paper":"yes","recycling_type":"container"}},"type":"Feature"},
	{"geometry":{"coordinates":[11.829991,46.175624],"type":"Point"},"properties":{"osm_id":"2394661720","tag":{"amenity":"recycling","recycling:drugs":"yes","recycling_type":"container"}},"type":"Feature"},
	{"geometry":{"coordinates":[11.829656,46.174127],"type":"Point"},"properties":{"osm_id":"2394794514","tag":{"amenity":"waste_basket"}},"type":"Feature"},
	{"geometry":{"coordinates":[11.827785,46.174721],"type":"Point"},"properties":{"osm_id":"2394794515","tag":{"amenity":"waste_basket"}},"type":"Feature"},
	{"geometry":{"coordinates":[11.797427,46.15124],"type":"Point"},"properties":{"osm_id":"2434545383","tag":{"amenity":"recycling"}},"type":"Feature"},
	{"geometry":{"coordinates":[11.799309,46.150842],"type":"Point"},"properties":{"osm_id":"3075301458","tag":{"amenity":"recycling","recycling:cans":"yes","recycling:glass":"yes","recycling:paper":"yes","recycling_type":"container"}},"type":"Feature"},
	{"geometry":{"coordinates":[11.813578,46.153498],"type":"Point"},"properties":{"osm_id":"4362921667","tag":{"amenity":"waste_basket"}},"type":"Feature"},
	{"geometry":{"coordinates":[11.806338,46.152994],"type":"Point"},"properties":{"osm_id":"4364298816","tag":{"amenity":"recycling","recycling:aluminium":"yes","recycling:beverage_cartons":"yes","recycling:cans":"yes","recycling:glass":"yes","recycling:paper":"yes","recycling:plastic_bottles":"yes"}},"type":"Feature"},
	{"geometry":{"coordinates":[11.814263,46.152946],"type":"Point"},"properties":{"osm_id":"4364306100","tag":{"amenity":"recycling"}},"type":"Feature"},
	{"geometry":{"coordinates":[11.809041,46.153447],"type":"Point"},"properties":{"osm_id":"4384924186","tag":{"amenity":"recycling"}},"type":"Feature"},
	{"geometry":{"coordinates":[11.83097,46.174603],"type":"Point"},"properties":{"osm_id":"4449253284","tag":{"addr:city":"Primiero San Martino di Castrozza","addr:postcode":"38054","addr:street":"Via Isolabella","amenity":"recycling"}},"type":"Feature"},
	{"geometry":{"coordinates":[11.834453,46.179767],"type":"Point"},"properties":{"osm_id":"4449262936","tag":{"addr:city":"Primiero San Martino","addr:postcode":"38054","addr:street":"Via Falzeni","amenity":"recycling"}},"type":"Feature"},
	{"geometry":{"coordinates":[11.827271,46.172896],"type":"Point"},"properties":{"osm_id":"6312635916","tag":{"amenity":"waste_basket","waste":"dog_excrement"}},"type":"Feature"},
	{"geometry":{"coordinates":[11.828822,46.173265],"type":"Point"},"properties":{"osm_id":"6312635917","tag":{"amenity":"waste_basket","waste":"dog_excrement"}},"type":"Feature"},
	{"geometry":{"coordinates":[11.823288,46.172636],"type":"Point"},"properties":{"osm_id":"6312635918","tag":{"amenity":"waste_basket","waste":"dog_excrement"}},"type":"Feature"},
	{"geometry":{"coordinates":[11.827477,46.175121],"type":"Point"},"properties":{"osm_id":"6312635919","tag":{"amenity":"waste_basket","waste":"dog_excrement"}},"type":"Feature"},
	{"geometry":{"coordinates":[11.830545,46.175646],"type":"Point"},"properties":{"osm_id":"6312635920","tag":{"amenity":"waste_basket","waste":"dog_excrement"}},"type":"Feature"},
	{"geometry":{"coordinates":[11.832082,46.176351],"type":"Point"},"properties":{"osm_id":"6312635921","tag":{"amenity":"waste_basket","waste":"dog_excrement"}},"type":"Feature"},
	{"geometry":{"coordinates":[11.833447,46.174141],"type":"Point"},"properties":{"osm_id":"6312666187","tag":{"amenity":"waste_basket","waste":"dog_excrement"}},"type":"Feature"},
	{"geometry":{"coordinates":[11.832049,46.1731],"type":"Point"},"properties":{"osm_id":"6312666188","tag":{"amenity":"waste_basket","waste":"dog_excrement"}},"type":"Feature"},
	{"geometry":{"coordinates":[11.827123,46.171285],"type":"Point"},"properties":{"osm_id":"6312666189","tag":{"amenity":"waste_basket","waste":"dog_excrement"}},"type":"Feature"},
	{"geometry":{"coordinates":[11.830037,46.18247],"type":"Point"},"properties":{"osm_id":"6312666190","tag":{"amenity":"waste_basket","waste":"dog_excrement"}},"type":"Feature"},
	{"geometry":{"coordinates":[11.83097,46.179496],"type":"Point"},"properties":{"osm_id":"6312666191","tag":{"amenity":"waste_basket","waste":"dog_excrement"}},"type":"Feature"},
	{"geometry":{"coordinates":[11.828956,46.187461],"type":"Point"},"properties":{"osm_id":"6312666192","tag":{"amenity":"waste_basket","waste":"dog_excrement"}},"type":"Feature"},
	{"geometry":{"coordinates":[11.816056,46.16003],"type":"Point"},"properties":{"osm_id":"6312666193","tag":{"amenity":"waste_basket","waste":"dog_excrement"}},"type":"Feature"},
	{"geometry":{"coordinates":[11.836418,46.173361],"type":"Point"},"properties":{"osm_id":"6929767460","tag":{"amenity":"waste_basket","waste":"dog_excrement"}},"type":"Feature"}
]
}
