{
"type": "FeatureCollection",
"lastupdate": "2020-08-05T00:00:00Z",
"features": [
	{"geometry":{"coordinates":[11.779159,45.767944],"type":"Point"},"properties":{"name":"Ecocentro Fellette","osm_id":"498121898","tag":{"amenity":"recycling"}},"type":"Feature"},
	{"geometry":{"coordinates":[11.839449,45.773694],"type":"Point"},"properties":{"name":"Ecocentro di San Zenone","osm_id":"1421384660","tag":{"amenity":"recycling"}},"type":"Feature"},
	{"geometry":{"coordinates":[11.853024,45.825602],"type":"Point"},"properties":{"osm_id":"1904387520","tag":{"amenity":"waste_basket"}},"type":"Feature"},
	{"geometry":{"coordinates":[11.852962,45.82564],"type":"Point"},"properties":{"name":"Eco centro","osm_id":"1904391098","tag":{"amenity":"recycling","recycling_type":"container"}},"type":"Feature"},
	{"geometry":{"coordinates":[11.809214,45.813382],"type":"Point"},"properties":{"osm_id":"1941468929","tag":{"amenity":"recycling"}},"type":"Feature"},
	{"geometry":{"coordinates":[11.827696,45.81653],"type":"Point"},"properties":{"osm_id":"2415883509","tag":{"amenity":"recycling"}},"type":"Feature"},
	{"geometry":{"coordinates":[11.841552,45.778073],"type":"Point"},"properties":{"osm_id":"2452884324","tag":{"amenity":"waste_basket"}},"type":"Feature"}
]
}
