{
"type": "FeatureCollection",
"features": [
	{"geometry":{"coordinates":[11.806332,45.763477],"type":"Point"},"properties":{"name":"Ecocentro Mussolente","osm_id":"498121881","tag":{"amenity":"recycling","recycling_type":"centre"}},"type":"Feature"},
	{"geometry":{"coordinates":[11.794427,45.729464],"type":"Point"},"properties":{"name":"Ecocentro di Cassola","osm_id":"1720748155","tag":{"amenity":"recycling","recycling_type":"centre"}},"type":"Feature"},
	{"geometry":{"coordinates":[11.798072,45.750356],"type":"Point"},"properties":{"osm_id":"2022845581","tag":{"amenity":"waste_basket"}},"type":"Feature"},
	{"geometry":{"coordinates":[11.864789,45.727139],"type":"Point"},"properties":{"osm_id":"3991204414","tag":{"amenity":"waste_basket"}},"type":"Feature"},
	{"geometry":{"coordinates":[11.828654,45.741915],"type":"Point"},"properties":{"osm_id":"9022435554","tag":{"amenity":"waste_basket","waste":"trash"}},"type":"Feature"},
	{"geometry":{"coordinates":[11.826291,45.744618],"type":"Point"},"properties":{"osm_id":"9022455593","tag":{"amenity":"waste_basket","waste":"trash"}},"type":"Feature"},
	{"geometry":{"coordinates":[11.829331,45.750316],"type":"Point"},"properties":{"osm_id":"9023602637","tag":{"amenity":"waste_basket"}},"type":"Feature"},
	{"geometry":{"coordinates":[11.823808,45.74852],"type":"Point"},"properties":{"osm_id":"9051537857","tag":{"amenity":"waste_basket","waste":"trash"}},"type":"Feature"},
	{"geometry":{"coordinates":[11.813532,45.747546],"type":"Point"},"properties":{"osm_id":"9051538424","tag":{"amenity":"waste_basket","waste":"trash"}},"type":"Feature"},
	{"geometry":{"coordinates":[11.820284,45.75373],"type":"Point"},"properties":{"osm_id":"9054209591","tag":{"amenity":"waste_basket","waste":"trash"}},"type":"Feature"},
	{"geometry":{"coordinates":[11.801743,45.761581],"type":"Point"},"properties":{"osm_id":"9054209592","tag":{"amenity":"waste_basket","waste":"trash"}},"type":"Feature"}
]
}
