{
"type": "FeatureCollection",
"features": [
	{"geometry":{"coordinates":[11.857855,45.407157],"type":"Point"},"properties":{"highway":"bus_stop","name":"Via Palestro / Monte Cengio","osm_id":"595260105","ref":"28018","tag":{"amenity":"waste_basket","bus":"yes","operator":"APS","public_transport":"platform","route_ref":"9","shelter":"no","towards":"Via Ippodromo"}},"type":"Feature"},
	{"geometry":{"coordinates":[11.857543,45.406647],"type":"Point"},"properties":{"osm_id":"691859362","tag":{"amenity":"recycling","location":"overground","recycling:waste":"yes","recycling_type":"container"}},"type":"Feature"},
	{"geometry":{"coordinates":[11.857547,45.406686],"type":"Point"},"properties":{"osm_id":"691859366","tag":{"amenity":"recycling","location":"overground","recycling:garden_waste":"yes","recycling:green_waste":"yes","recycling_type":"container"}},"type":"Feature"},
	{"geometry":{"coordinates":[11.857529,45.406888],"type":"Point"},"properties":{"osm_id":"691859369","tag":{"amenity":"recycling","location":"overground","recycling:beverage_cartons":"yes","recycling:books":"yes","recycling:cartons":"yes","recycling:paper":"yes","recycling:paper_packaging":"yes","recycling_type":"container"}},"type":"Feature"},
	{"geometry":{"coordinates":[11.857528,45.406839],"type":"Point"},"properties":{"osm_id":"691859372","tag":{"amenity":"recycling","location":"overground","recycling:aluminium":"yes","recycling:cans":"yes","recycling:glass":"yes","recycling:glass_bottles":"yes","recycling:plastic":"yes","recycling_type":"container"}},"type":"Feature"},
	{"geometry":{"coordinates":[11.859749,45.407159],"type":"Point"},"properties":{"osm_id":"1427330971","tag":{"amenity":"recycling","location":"overground","recycling_type":"container"}},"type":"Feature"},
	{"geometry":{"coordinates":[11.85342,45.407424],"type":"Point"},"properties":{"osm_id":"1461252490","tag":{"amenity":"recycling","recycling:batteries":"no","recycling:cans":"yes","recycling:clothes":"yes","recycling:glass":"yes","recycling:green_waste":"yes","recycling:paper":"yes","recycling_type":"container"}},"type":"Feature"},
	{"geometry":{"coordinates":[11.853055,45.407442],"type":"Point"},"properties":{"osm_id":"1461252494","tag":{"amenity":"recycling","recycling:batteries":"no","recycling:cans":"yes","recycling:glass":"yes","recycling:paper":"yes","recycling_type":"container"}},"type":"Feature"},
	{"geometry":{"coordinates":[11.855367,45.408292],"type":"Point"},"properties":{"osm_id":"1642019577","tag":{"amenity":"recycling","location":"overground","recycling_type":"container"}},"type":"Feature"},
	{"geometry":{"coordinates":[11.855796,45.409685],"type":"Point"},"properties":{"osm_id":"1642019588","tag":{"amenity":"recycling","location":"overground","recycling_type":"container"}},"type":"Feature"},
	{"geometry":{"coordinates":[11.858767,45.407717],"type":"Point"},"properties":{"osm_id":"1655268872","tag":{"amenity":"recycling","recycling:cans":"yes","recycling:glass":"yes","recycling:green_waste":"yes","recycling:paper":"yes","recycling_type":"container"}},"type":"Feature"},
	{"geometry":{"coordinates":[11.85825,45.405904],"type":"Point"},"properties":{"osm_id":"1988584418","tag":{"amenity":"recycling","recycling:cans":"yes","recycling:glass":"yes","recycling:paper":"yes","recycling:plastic":"yes","recycling:scrap_metal":"yes","recycling_type":"container"}},"type":"Feature"},
	{"geometry":{"coordinates":[11.861039,45.403044],"type":"Point"},"properties":{"osm_id":"2254237773","tag":{"amenity":"waste_basket"}},"type":"Feature"},
	{"geometry":{"coordinates":[11.796935,45.429732],"type":"Point"},"properties":{"osm_id":"3586725829","tag":{"amenity":"waste_basket"}},"type":"Feature"},
	{"geometry":{"coordinates":[11.796824,45.429566],"type":"Point"},"properties":{"osm_id":"3586737882","tag":{"amenity":"waste_basket"}},"type":"Feature"},
	{"geometry":{"coordinates":[11.789342,45.427184],"type":"Point"},"properties":{"osm_id":"3900396855","tag":{"amenity":"recycling","recycling_type":"centre"}},"type":"Feature"},
	{"geometry":{"coordinates":[11.787565,45.43661],"type":"Point"},"properties":{"osm_id":"4395486866","tag":{"amenity":"waste_basket"}},"type":"Feature"},
	{"geometry":{"coordinates":[11.788426,45.437657],"type":"Point"},"properties":{"osm_id":"4395486890","tag":{"amenity":"recycling","recycling_type":"container"}},"type":"Feature"},
	{"geometry":{"coordinates":[11.860434,45.407593],"type":"Point"},"properties":{"osm_id":"4504481940","tag":{"amenity":"recycling","recycling:cans":"yes","recycling:glass":"yes","recycling:glass_bottles":"yes","recycling:metal":"yes","recycling:plastic":"yes","recycling:plastic_bottles":"yes","recycling_type":"container"}},"type":"Feature"},
	{"geometry":{"coordinates":[11.812694,45.414315],"type":"Point"},"properties":{"osm_id":"4546694613","tag":{"amenity":"waste_basket"}},"type":"Feature"},
	{"geometry":{"coordinates":[11.863881,45.45373],"type":"Point"},"properties":{"osm_id":"4736961237","tag":{"amenity":"waste_basket"}},"type":"Feature"},
	{"geometry":{"coordinates":[11.795204,45.429797],"type":"Point"},"properties":{"osm_id":"5272309964","tag":{"amenity":"waste_basket"}},"type":"Feature"},
	{"geometry":{"coordinates":[11.797192,45.429694],"type":"Point"},"properties":{"osm_id":"5403585705","tag":{"amenity":"waste_basket"}},"type":"Feature"},
	{"geometry":{"coordinates":[11.787213,45.427521],"type":"Point"},"properties":{"osm_id":"5434587560","tag":{"amenity":"waste_basket"}},"type":"Feature"},
	{"geometry":{"coordinates":[11.79459,45.430751],"type":"Point"},"properties":{"osm_id":"5435506624","tag":{"amenity":"waste_basket"}},"type":"Feature"},
	{"geometry":{"coordinates":[11.795589,45.427848],"type":"Point"},"properties":{"osm_id":"5464995403","tag":{"amenity":"waste_basket"}},"type":"Feature"},
	{"geometry":{"coordinates":[11.795102,45.427536],"type":"Point"},"properties":{"osm_id":"5465009508","tag":{"amenity":"waste_basket"}},"type":"Feature"},
	{"geometry":{"coordinates":[11.794889,45.427563],"type":"Point"},"properties":{"osm_id":"5465026320","tag":{"amenity":"waste_basket"}},"type":"Feature"},
	{"geometry":{"coordinates":[11.794763,45.4277],"type":"Point"},"properties":{"osm_id":"5465101519","tag":{"amenity":"recycling","recycling_type":"container"}},"type":"Feature"},
	{"geometry":{"coordinates":[11.795791,45.430365],"type":"Point"},"properties":{"osm_id":"5481965616","tag":{"amenity":"waste_disposal","waste":"trash"}},"type":"Feature"},
	{"geometry":{"coordinates":[11.795766,45.430257],"type":"Point"},"properties":{"osm_id":"5481965617","tag":{"amenity":"recycling","recycling:cartons":"yes","recycling:paper":"yes","recycling_type":"container"}},"type":"Feature"},
	{"geometry":{"coordinates":[11.795788,45.430341],"type":"Point"},"properties":{"osm_id":"5481965618","tag":{"amenity":"recycling","location":"underground","recycling:glass":"yes","recycling_type":"container"}},"type":"Feature"},
	{"geometry":{"coordinates":[11.795784,45.430321],"type":"Point"},"properties":{"osm_id":"5481965619","tag":{"amenity":"recycling","location":"underground","recycling:plastic":"yes","recycling_type":"container"}},"type":"Feature"},
	{"geometry":{"coordinates":[11.795778,45.430301],"type":"Point"},"properties":{"osm_id":"5481965620","tag":{"amenity":"recycling","location":"underground","recycling:plastic":"yes","recycling_type":"container"}},"type":"Feature"},
	{"geometry":{"coordinates":[11.795775,45.430281],"type":"Point"},"properties":{"osm_id":"5481965921","tag":{"amenity":"recycling","location":"underground","recycling:plastic":"yes","recycling_type":"container"}},"type":"Feature"},
	{"geometry":{"coordinates":[11.80936,45.42806],"type":"Point"},"properties":{"osm_id":"5482987654","tag":{"amenity":"waste_basket"}},"type":"Feature"},
	{"geometry":{"coordinates":[11.788043,45.426908],"type":"Point"},"properties":{"osm_id":"5497522710","tag":{"amenity":"waste_basket","waste":"drugs"}},"type":"Feature"},
	{"geometry":{"coordinates":[11.78802,45.426755],"type":"Point"},"properties":{"osm_id":"5497529970","tag":{"amenity":"waste_basket"}},"type":"Feature"},
	{"geometry":{"coordinates":[11.788162,45.426821],"type":"Point"},"properties":{"osm_id":"5497530045","tag":{"amenity":"waste_basket"}},"type":"Feature"},
	{"geometry":{"coordinates":[11.809418,45.426492],"type":"Point"},"properties":{"osm_id":"5552784498","tag":{"amenity":"waste_basket"}},"type":"Feature"},
	{"geometry":{"coordinates":[11.824708,45.42058],"type":"Point"},"properties":{"osm_id":"5570592035","tag":{"amenity":"waste_disposal"}},"type":"Feature"},
	{"geometry":{"coordinates":[11.825605,45.422164],"type":"Point"},"properties":{"osm_id":"5574700798","tag":{"amenity":"waste_basket"}},"type":"Feature"},
	{"geometry":{"coordinates":[11.825354,45.422209],"type":"Point"},"properties":{"osm_id":"5574700806","tag":{"amenity":"waste_basket"}},"type":"Feature"},
	{"geometry":{"coordinates":[11.826044,45.419656],"type":"Point"},"properties":{"osm_id":"5579797519","tag":{"amenity":"waste_basket"}},"type":"Feature"},
	{"geometry":{"coordinates":[11.795045,45.430968],"type":"Point"},"properties":{"osm_id":"6139834682","tag":{"amenity":"waste_basket","waste":"trash"}},"type":"Feature"},
	{"geometry":{"coordinates":[11.79388,45.429851],"type":"Point"},"properties":{"osm_id":"6154805978","tag":{"amenity":"waste_basket","waste":"trash"}},"type":"Feature"},
	{"geometry":{"coordinates":[11.79318,45.428992],"type":"Point"},"properties":{"osm_id":"6167231330","tag":{"amenity":"waste_basket"}},"type":"Feature"},
	{"geometry":{"coordinates":[11.790907,45.42821],"type":"Point"},"properties":{"osm_id":"6167591998","tag":{"amenity":"waste_basket","waste":"trash"}},"type":"Feature"},
	{"geometry":{"coordinates":[11.795304,45.430068],"type":"Point"},"properties":{"osm_id":"6282996751","tag":{"amenity":"waste_basket","waste":"trash"}},"type":"Feature"},
	{"geometry":{"coordinates":[11.791729,45.428692],"type":"Point"},"properties":{"osm_id":"6283531057","tag":{"amenity":"waste_basket","waste":"trash"}},"type":"Feature"},
	{"geometry":{"coordinates":[11.788138,45.426918],"type":"Point"},"properties":{"osm_id":"6296036278","tag":{"amenity":"waste_basket","waste":"drugs"}},"type":"Feature"},
	{"geometry":{"coordinates":[11.839481,45.406458],"type":"Point"},"properties":{"osm_id":"6570058082","tag":{"amenity":"waste_basket","operator":"APS"}},"type":"Feature"},
	{"geometry":{"coordinates":[11.848834,45.400151],"type":"Point"},"properties":{"osm_id":"6690553104","tag":{"amenity":"recycling","recycling:cooking_oil":"yes","recycling_type":"container"}},"type":"Feature"},
	{"geometry":{"coordinates":[11.864003,45.412655],"type":"Point"},"properties":{"osm_id":"6697056279","tag":{"amenity":"recycling","recycling_type":"container"}},"type":"Feature"},
	{"geometry":{"coordinates":[11.849647,45.426228],"type":"Point"},"properties":{"osm_id":"7004958629","tag":{"access":"private","amenity":"recycling","recycling_type":"container"}},"type":"Feature"},
	{"geometry":{"coordinates":[11.798473,45.431134],"type":"Point"},"properties":{"osm_id":"7085640124","tag":{"amenity":"waste_basket","waste":"trash"}},"type":"Feature"},
	{"geometry":{"coordinates":[11.798703,45.429846],"type":"Point"},"properties":{"osm_id":"7097490153","tag":{"amenity":"waste_basket","waste":"trash"}},"type":"Feature"},
	{"geometry":{"coordinates":[11.859411,45.408272],"type":"Point"},"properties":{"osm_id":"7515758285","tag":{"amenity":"recycling"}},"type":"Feature"},
	{"geometry":{"coordinates":[11.864187,45.404507],"type":"Point"},"properties":{"osm_id":"7515769585","tag":{"amenity":"recycling"}},"type":"Feature"},
	{"geometry":{"coordinates":[11.865075,45.414801],"type":"Point"},"properties":{"osm_id":"7519399887","tag":{"amenity":"recycling"}},"type":"Feature"},
	{"geometry":{"coordinates":[11.864922,45.413229],"type":"Point"},"properties":{"osm_id":"7519452685","tag":{"amenity":"recycling"}},"type":"Feature"},
	{"geometry":{"coordinates":[11.865091,45.412389],"type":"Point"},"properties":{"osm_id":"7519455385","tag":{"amenity":"recycling"}},"type":"Feature"},
	{"geometry":{"coordinates":[11.864745,45.406818],"type":"Point"},"properties":{"osm_id":"7529739100","tag":{"amenity":"waste_disposal"}},"type":"Feature"},
	{"geometry":{"coordinates":[11.864555,45.402368],"type":"Point"},"properties":{"osm_id":"7529739101","tag":{"amenity":"waste_disposal"}},"type":"Feature"},
	{"geometry":{"coordinates":[11.864399,45.40337],"type":"Point"},"properties":{"osm_id":"7529740986","tag":{"amenity":"waste_disposal"}},"type":"Feature"},
	{"geometry":{"coordinates":[11.864473,45.399735],"type":"Point"},"properties":{"osm_id":"7529806286","tag":{"amenity":"recycling"}},"type":"Feature"},
	{"geometry":{"coordinates":[11.861732,45.400875],"type":"Point"},"properties":{"osm_id":"7552179491","tag":{"amenity":"recycling"}},"type":"Feature"},
	{"geometry":{"coordinates":[11.856026,45.398759],"type":"Point"},"properties":{"osm_id":"7552179887","tag":{"amenity":"recycling"}},"type":"Feature"},
	{"geometry":{"coordinates":[11.861787,45.401767],"type":"Point"},"properties":{"osm_id":"7552179892","tag":{"amenity":"recycling"}},"type":"Feature"},
	{"geometry":{"coordinates":[11.862209,45.398855],"type":"Point"},"properties":{"osm_id":"7552180285","tag":{"amenity":"recycling"}},"type":"Feature"},
	{"geometry":{"coordinates":[11.860117,45.399379],"type":"Point"},"properties":{"osm_id":"7552180293","tag":{"amenity":"recycling"}},"type":"Feature"},
	{"geometry":{"coordinates":[11.860171,45.399011],"type":"Point"},"properties":{"osm_id":"7552180294","tag":{"amenity":"recycling"}},"type":"Feature"},
	{"geometry":{"coordinates":[11.86078,45.40066],"type":"Point"},"properties":{"osm_id":"7552180295","tag":{"amenity":"recycling"}},"type":"Feature"},
	{"geometry":{"coordinates":[11.861696,45.403074],"type":"Point"},"properties":{"osm_id":"7552180586","tag":{"amenity":"recycling"}},"type":"Feature"},
	{"geometry":{"coordinates":[11.863013,45.414764],"type":"Point"},"properties":{"osm_id":"7552408786","tag":{"amenity":"recycling"}},"type":"Feature"},
	{"geometry":{"coordinates":[11.857958,45.412748],"type":"Point"},"properties":{"osm_id":"7552408787","tag":{"amenity":"recycling"}},"type":"Feature"},
	{"geometry":{"coordinates":[11.863459,45.41584],"type":"Point"},"properties":{"osm_id":"7552408885","tag":{"amenity":"recycling"}},"type":"Feature"},
	{"geometry":{"coordinates":[11.863549,45.414715],"type":"Point"},"properties":{"osm_id":"7552409485","tag":{"amenity":"recycling"}},"type":"Feature"},
	{"geometry":{"coordinates":[11.857184,45.400685],"type":"Point"},"properties":{"osm_id":"7575663586","tag":{"amenity":"recycling"}},"type":"Feature"},
	{"geometry":{"coordinates":[11.858915,45.400065],"type":"Point"},"properties":{"osm_id":"7575663587","tag":{"amenity":"recycling"}},"type":"Feature"},
	{"geometry":{"coordinates":[11.858682,45.399068],"type":"Point"},"properties":{"osm_id":"7575663588","tag":{"amenity":"recycling"}},"type":"Feature"},
	{"geometry":{"coordinates":[11.857931,45.400869],"type":"Point"},"properties":{"osm_id":"7575663685","tag":{"amenity":"recycling"}},"type":"Feature"},
	{"geometry":{"coordinates":[11.856018,45.399773],"type":"Point"},"properties":{"osm_id":"7807716186","tag":{"amenity":"recycling","recycling_type":"container"}},"type":"Feature"},
	{"geometry":{"coordinates":[11.785332,45.426543],"type":"Point"},"properties":{"osm_id":"7843878248","tag":{"amenity":"waste_basket","waste":"trash"}},"type":"Feature"},
	{"geometry":{"coordinates":[11.78514,45.426677],"type":"Point"},"properties":{"osm_id":"7843878252","tag":{"amenity":"waste_basket","waste":"trash"}},"type":"Feature"},
	{"geometry":{"coordinates":[11.790047,45.434146],"type":"Point"},"properties":{"osm_id":"7843883509","tag":{"amenity":"waste_basket","waste":"trash"}},"type":"Feature"},
	{"geometry":{"coordinates":[11.861619,45.399652],"type":"Point"},"properties":{"osm_id":"7908257119","tag":{"amenity":"recycling","recycling_type":"container"}},"type":"Feature"}
]
}
