{
"type": "FeatureCollection",
"features": [
	{"geometry":{"coordinates":[11.832392,45.388927],"type":"Point"},"properties":{"osm_id":"1689197709","tag":{"amenity":"recycling"}},"type":"Feature"},
	{"geometry":{"coordinates":[11.854912,45.390631],"type":"Point"},"properties":{"osm_id":"1691678270","tag":{"amenity":"waste_basket"}},"type":"Feature"},
	{"geometry":{"coordinates":[11.862677,45.395214],"type":"Point"},"properties":{"osm_id":"1927319598","tag":{"amenity":"recycling","location":"overground","recycling_type":"container"}},"type":"Feature"},
	{"geometry":{"coordinates":[11.862857,45.396106],"type":"Point"},"properties":{"osm_id":"1927319624","tag":{"amenity":"recycling","recycling:cans":"yes","recycling:glass":"yes","recycling:green_waste":"yes","recycling:paper":"yes","recycling_type":"container"}},"type":"Feature"},
	{"geometry":{"coordinates":[11.832846,45.398184],"type":"Point"},"properties":{"osm_id":"2192809623","tag":{"amenity":"recycling"}},"type":"Feature"},
	{"geometry":{"coordinates":[11.856705,45.386381],"type":"Point"},"properties":{"osm_id":"3801729057","tag":{"amenity":"recycling","recycling_type":"container"}},"type":"Feature"},
	{"geometry":{"coordinates":[11.78559,45.348652],"type":"Point"},"properties":{"osm_id":"5488584195","tag":{"amenity":"waste_basket"}},"type":"Feature"},
	{"geometry":{"coordinates":[11.829272,45.372183],"type":"Point"},"properties":{"osm_id":"6088413722","tag":{"amenity":"waste_disposal"}},"type":"Feature"},
	{"geometry":{"coordinates":[11.829306,45.372171],"type":"Point"},"properties":{"osm_id":"6088413723","tag":{"amenity":"waste_disposal"}},"type":"Feature"},
	{"geometry":{"coordinates":[11.82934,45.372157],"type":"Point"},"properties":{"osm_id":"6088413724","tag":{"amenity":"waste_basket"}},"type":"Feature"},
	{"geometry":{"coordinates":[11.829356,45.372185],"type":"Point"},"properties":{"osm_id":"6088413725","tag":{"amenity":"waste_basket"}},"type":"Feature"},
	{"geometry":{"coordinates":[11.829321,45.372196],"type":"Point"},"properties":{"osm_id":"6088413726","tag":{"amenity":"waste_basket"}},"type":"Feature"},
	{"geometry":{"coordinates":[11.829362,45.372145],"type":"Point"},"properties":{"osm_id":"6088413727","tag":{"amenity":"waste_basket"}},"type":"Feature"},
	{"geometry":{"coordinates":[11.829539,45.371947],"type":"Point"},"properties":{"osm_id":"6088413728","tag":{"amenity":"waste_basket"}},"type":"Feature"},
	{"geometry":{"coordinates":[11.829229,45.371887],"type":"Point"},"properties":{"osm_id":"6088413729","tag":{"amenity":"waste_basket"}},"type":"Feature"},
	{"geometry":{"coordinates":[11.829333,45.371666],"type":"Point"},"properties":{"osm_id":"6088413738","tag":{"amenity":"waste_basket"}},"type":"Feature"},
	{"geometry":{"coordinates":[11.829021,45.371614],"type":"Point"},"properties":{"osm_id":"6088413739","tag":{"amenity":"waste_basket"}},"type":"Feature"},
	{"geometry":{"coordinates":[11.829318,45.371366],"type":"Point"},"properties":{"osm_id":"6088413740","tag":{"amenity":"waste_basket"}},"type":"Feature"},
	{"geometry":{"coordinates":[11.826022,45.371969],"type":"Point"},"properties":{"osm_id":"6088414048","tag":{"amenity":"waste_basket"}},"type":"Feature"},
	{"geometry":{"coordinates":[11.829633,45.371776],"type":"Point"},"properties":{"osm_id":"6088961420","tag":{"amenity":"waste_basket"}},"type":"Feature"},
	{"geometry":{"coordinates":[11.829595,45.371735],"type":"Point"},"properties":{"osm_id":"6088961427","tag":{"amenity":"waste_basket","lamp_type":"electric"}},"type":"Feature"},
	{"geometry":{"coordinates":[11.829649,45.371329],"type":"Point"},"properties":{"osm_id":"6088961432","tag":{"amenity":"waste_basket"}},"type":"Feature"},
	{"geometry":{"coordinates":[11.83032,45.37169],"type":"Point"},"properties":{"osm_id":"6088961474","tag":{"amenity":"waste_basket"}},"type":"Feature"},
	{"geometry":{"coordinates":[11.830221,45.371527],"type":"Point"},"properties":{"osm_id":"6088961475","tag":{"amenity":"waste_basket"}},"type":"Feature"},
	{"geometry":{"coordinates":[11.830225,45.371327],"type":"Point"},"properties":{"osm_id":"6088961476","tag":{"amenity":"waste_basket"}},"type":"Feature"},
	{"geometry":{"coordinates":[11.830344,45.371327],"type":"Point"},"properties":{"osm_id":"6088961477","tag":{"amenity":"waste_basket"}},"type":"Feature"},
	{"geometry":{"coordinates":[11.828753,45.370867],"type":"Point"},"properties":{"osm_id":"6088962095","tag":{"amenity":"waste_basket"}},"type":"Feature"},
	{"geometry":{"coordinates":[11.828819,45.37079],"type":"Point"},"properties":{"osm_id":"6088962096","tag":{"amenity":"waste_basket"}},"type":"Feature"},
	{"geometry":{"coordinates":[11.828882,45.370631],"type":"Point"},"properties":{"osm_id":"6088962097","tag":{"amenity":"waste_basket"}},"type":"Feature"},
	{"geometry":{"coordinates":[11.828812,45.370432],"type":"Point"},"properties":{"osm_id":"6088962098","tag":{"amenity":"waste_basket"}},"type":"Feature"},
	{"geometry":{"coordinates":[11.829159,45.370447],"type":"Point"},"properties":{"osm_id":"6088962121","tag":{"amenity":"waste_basket"}},"type":"Feature"},
	{"geometry":{"coordinates":[11.829289,45.370367],"type":"Point"},"properties":{"osm_id":"6088962132","tag":{"amenity":"waste_basket"}},"type":"Feature"},
	{"geometry":{"coordinates":[11.829438,45.370308],"type":"Point"},"properties":{"osm_id":"6088962133","tag":{"amenity":"waste_basket"}},"type":"Feature"},
	{"geometry":{"coordinates":[11.829516,45.370195],"type":"Point"},"properties":{"osm_id":"6088962138","tag":{"amenity":"waste_basket"}},"type":"Feature"},
	{"geometry":{"coordinates":[11.828955,45.370234],"type":"Point"},"properties":{"osm_id":"6088962145","tag":{"amenity":"waste_basket"}},"type":"Feature"},
	{"geometry":{"coordinates":[11.828859,45.370132],"type":"Point"},"properties":{"osm_id":"6088962159","tag":{"amenity":"waste_basket"}},"type":"Feature"},
	{"geometry":{"coordinates":[11.828636,45.37006],"type":"Point"},"properties":{"osm_id":"6088962160","tag":{"amenity":"waste_basket"}},"type":"Feature"},
	{"geometry":{"coordinates":[11.828458,45.370366],"type":"Point"},"properties":{"osm_id":"6088962161","tag":{"amenity":"waste_basket"}},"type":"Feature"},
	{"geometry":{"coordinates":[11.828607,45.370039],"type":"Point"},"properties":{"osm_id":"6088962177","tag":{"amenity":"waste_basket"}},"type":"Feature"},
	{"geometry":{"coordinates":[11.828468,45.370043],"type":"Point"},"properties":{"osm_id":"6088962182","tag":{"amenity":"waste_basket"}},"type":"Feature"},
	{"geometry":{"coordinates":[11.851869,45.381835],"type":"Point"},"properties":{"osm_id":"6466616548","tag":{"amenity":"waste_basket","waste":"trash"}},"type":"Feature"},
	{"geometry":{"coordinates":[11.855449,45.382263],"type":"Point"},"properties":{"osm_id":"6466670915","tag":{"amenity":"recycling","recycling:drugs":"yes","recycling_type":"container"}},"type":"Feature"},
	{"geometry":{"coordinates":[11.861909,45.385024],"type":"Point"},"properties":{"osm_id":"6466686806","tag":{"amenity":"waste_basket","waste":"trash"}},"type":"Feature"},
	{"geometry":{"coordinates":[11.862679,45.393367],"type":"Point"},"properties":{"osm_id":"6574195497","tag":{"amenity":"waste_basket","waste":"trash"}},"type":"Feature"},
	{"geometry":{"coordinates":[11.862644,45.393436],"type":"Point"},"properties":{"osm_id":"6574195498","tag":{"amenity":"waste_basket","waste":"trash"}},"type":"Feature"},
	{"geometry":{"coordinates":[11.86442,45.398296],"type":"Point"},"properties":{"osm_id":"7099589290","tag":{"amenity":"recycling","recycling_type":"container"}},"type":"Feature"},
	{"geometry":{"coordinates":[11.790617,45.35164],"type":"Point"},"properties":{"osm_id":"7383355729","tag":{"amenity":"recycling","recycling_type":"container"}},"type":"Feature"},
	{"geometry":{"coordinates":[11.785701,45.347369],"type":"Point"},"properties":{"osm_id":"7406634372","tag":{"amenity":"waste_basket","waste":"dog_excrement"}},"type":"Feature"},
	{"geometry":{"coordinates":[11.787585,45.346955],"type":"Point"},"properties":{"osm_id":"7406657983","tag":{"amenity":"waste_basket","waste":"trash"}},"type":"Feature"},
	{"geometry":{"coordinates":[11.786087,45.349253],"type":"Point"},"properties":{"osm_id":"7420769043","tag":{"amenity":"waste_basket","waste":"trash"}},"type":"Feature"},
	{"geometry":{"coordinates":[11.859424,45.396741],"type":"Point"},"properties":{"osm_id":"7552179487","tag":{"amenity":"recycling"}},"type":"Feature"},
	{"geometry":{"coordinates":[11.858578,45.396505],"type":"Point"},"properties":{"osm_id":"7552179488","tag":{"amenity":"recycling"}},"type":"Feature"},
	{"geometry":{"coordinates":[11.859503,45.395934],"type":"Point"},"properties":{"osm_id":"7552179489","tag":{"amenity":"recycling"}},"type":"Feature"},
	{"geometry":{"coordinates":[11.862197,45.396891],"type":"Point"},"properties":{"osm_id":"7552179490","tag":{"amenity":"recycling"}},"type":"Feature"},
	{"geometry":{"coordinates":[11.856141,45.396944],"type":"Point"},"properties":{"osm_id":"7552179886","tag":{"amenity":"recycling"}},"type":"Feature"},
	{"geometry":{"coordinates":[11.859409,45.397058],"type":"Point"},"properties":{"osm_id":"7552179888","tag":{"amenity":"recycling"}},"type":"Feature"},
	{"geometry":{"coordinates":[11.860264,45.395018],"type":"Point"},"properties":{"osm_id":"7552179889","tag":{"amenity":"recycling"}},"type":"Feature"},
	{"geometry":{"coordinates":[11.860695,45.395684],"type":"Point"},"properties":{"osm_id":"7552179890","tag":{"amenity":"recycling"}},"type":"Feature"},
	{"geometry":{"coordinates":[11.861937,45.397609],"type":"Point"},"properties":{"osm_id":"7552179891","tag":{"amenity":"recycling"}},"type":"Feature"},
	{"geometry":{"coordinates":[11.861474,45.398435],"type":"Point"},"properties":{"osm_id":"7552179986","tag":{"amenity":"recycling"}},"type":"Feature"},
	{"geometry":{"coordinates":[11.858417,45.39632],"type":"Point"},"properties":{"osm_id":"7552179987","tag":{"amenity":"recycling"}},"type":"Feature"},
	{"geometry":{"coordinates":[11.859474,45.394978],"type":"Point"},"properties":{"osm_id":"7552179988","tag":{"amenity":"recycling"}},"type":"Feature"},
	{"geometry":{"coordinates":[11.859868,45.398051],"type":"Point"},"properties":{"osm_id":"7552180286","tag":{"amenity":"recycling"}},"type":"Feature"},
	{"geometry":{"coordinates":[11.858158,45.397515],"type":"Point"},"properties":{"osm_id":"7552180287","tag":{"amenity":"recycling"}},"type":"Feature"},
	{"geometry":{"coordinates":[11.861158,45.395697],"type":"Point"},"properties":{"osm_id":"7552180288","tag":{"amenity":"recycling"}},"type":"Feature"},
	{"geometry":{"coordinates":[11.86177,45.395967],"type":"Point"},"properties":{"osm_id":"7552180289","tag":{"amenity":"recycling"}},"type":"Feature"},
	{"geometry":{"coordinates":[11.8621,45.397009],"type":"Point"},"properties":{"osm_id":"7552180290","tag":{"amenity":"recycling"}},"type":"Feature"},
	{"geometry":{"coordinates":[11.862023,45.397952],"type":"Point"},"properties":{"osm_id":"7552180291","tag":{"amenity":"recycling"}},"type":"Feature"},
	{"geometry":{"coordinates":[11.861923,45.397918],"type":"Point"},"properties":{"osm_id":"7552180292","tag":{"amenity":"recycling"}},"type":"Feature"},
	{"geometry":{"coordinates":[11.859616,45.395224],"type":"Point"},"properties":{"osm_id":"7552180385","tag":{"amenity":"recycling"}},"type":"Feature"},
	{"geometry":{"coordinates":[11.863592,45.39606],"type":"Point"},"properties":{"osm_id":"7552180386","tag":{"amenity":"recycling"}},"type":"Feature"},
	{"geometry":{"coordinates":[11.862225,45.39675],"type":"Point"},"properties":{"osm_id":"7552180387","tag":{"amenity":"recycling"}},"type":"Feature"},
	{"geometry":{"coordinates":[11.861017,45.396746],"type":"Point"},"properties":{"osm_id":"7552180388","tag":{"amenity":"recycling"}},"type":"Feature"},
	{"geometry":{"coordinates":[11.859853,45.397458],"type":"Point"},"properties":{"osm_id":"7552180389","tag":{"amenity":"recycling"}},"type":"Feature"},
	{"geometry":{"coordinates":[11.862004,45.39734],"type":"Point"},"properties":{"osm_id":"7552180585","tag":{"amenity":"recycling"}},"type":"Feature"},
	{"geometry":{"coordinates":[11.860985,45.395084],"type":"Point"},"properties":{"osm_id":"7552590986","tag":{"amenity":"recycling"}},"type":"Feature"},
	{"geometry":{"coordinates":[11.861342,45.394358],"type":"Point"},"properties":{"osm_id":"7552590987","tag":{"amenity":"recycling"}},"type":"Feature"},
	{"geometry":{"coordinates":[11.862605,45.394268],"type":"Point"},"properties":{"osm_id":"7552590988","tag":{"amenity":"recycling"}},"type":"Feature"},
	{"geometry":{"coordinates":[11.862981,45.393292],"type":"Point"},"properties":{"osm_id":"7552590989","tag":{"amenity":"recycling"}},"type":"Feature"},
	{"geometry":{"coordinates":[11.863574,45.392018],"type":"Point"},"properties":{"osm_id":"7552590990","tag":{"amenity":"recycling"}},"type":"Feature"},
	{"geometry":{"coordinates":[11.856013,45.39664],"type":"Point"},"properties":{"osm_id":"7552611485","tag":{"amenity":"recycling"}},"type":"Feature"},
	{"geometry":{"coordinates":[11.862207,45.39035],"type":"Point"},"properties":{"osm_id":"7552611486","tag":{"amenity":"recycling"}},"type":"Feature"},
	{"geometry":{"coordinates":[11.857139,45.394782],"type":"Point"},"properties":{"osm_id":"7552611585","tag":{"amenity":"recycling"}},"type":"Feature"},
	{"geometry":{"coordinates":[11.862757,45.393743],"type":"Point"},"properties":{"osm_id":"7552611586","tag":{"amenity":"recycling"}},"type":"Feature"},
	{"geometry":{"coordinates":[11.863792,45.389548],"type":"Point"},"properties":{"osm_id":"7552611587","tag":{"amenity":"recycling"}},"type":"Feature"},
	{"geometry":{"coordinates":[11.865077,45.395359],"type":"Point"},"properties":{"osm_id":"7552611590","tag":{"amenity":"recycling"}},"type":"Feature"},
	{"geometry":{"coordinates":[11.864469,45.398346],"type":"Point"},"properties":{"osm_id":"7552611591","tag":{"amenity":"recycling"}},"type":"Feature"},
	{"geometry":{"coordinates":[11.864429,45.391127],"type":"Point"},"properties":{"osm_id":"7552611785","tag":{"amenity":"recycling"}},"type":"Feature"},
	{"geometry":{"coordinates":[11.835516,45.396038],"type":"Point"},"properties":{"osm_id":"7560846084","tag":{"amenity":"waste_basket"}},"type":"Feature"},
	{"geometry":{"coordinates":[11.834916,45.395974],"type":"Point"},"properties":{"osm_id":"7560866687","tag":{"amenity":"waste_basket"}},"type":"Feature"},
	{"geometry":{"coordinates":[11.858801,45.389614],"type":"Point"},"properties":{"osm_id":"7575663785","tag":{"amenity":"recycling"}},"type":"Feature"},
	{"geometry":{"coordinates":[11.857418,45.389169],"type":"Point"},"properties":{"osm_id":"7575663885","tag":{"amenity":"recycling"}},"type":"Feature"},
	{"geometry":{"coordinates":[11.857731,45.388297],"type":"Point"},"properties":{"osm_id":"7575663886","tag":{"amenity":"recycling"}},"type":"Feature"},
	{"geometry":{"coordinates":[11.858069,45.387694],"type":"Point"},"properties":{"osm_id":"7575663985","tag":{"amenity":"recycling"}},"type":"Feature"},
	{"geometry":{"coordinates":[11.863963,45.38931],"type":"Point"},"properties":{"osm_id":"7801398618","tag":{"amenity":"waste_basket"}},"type":"Feature"},
	{"geometry":{"coordinates":[11.861883,45.393203],"type":"Point"},"properties":{"osm_id":"7804549126","tag":{"amenity":"recycling","recycling_type":"container"}},"type":"Feature"},
	{"geometry":{"coordinates":[11.862944,45.393177],"type":"Point"},"properties":{"osm_id":"7804549127","tag":{"amenity":"waste_basket"}},"type":"Feature"},
	{"geometry":{"coordinates":[11.857172,45.394659],"type":"Point"},"properties":{"osm_id":"7807286579","tag":{"amenity":"recycling","recycling_type":"container"}},"type":"Feature"},
	{"geometry":{"coordinates":[11.863801,45.384593],"type":"Point"},"properties":{"osm_id":"7839362029","tag":{"amenity":"recycling","recycling_type":"container"}},"type":"Feature"}
]
}
