{
"type": "FeatureCollection",
"lastupdate": "2020-08-02T00:00:00Z",
"features": [
	{"geometry":{"coordinates":[55.852294,56.299201],"type":"Point"},"properties":{"name":"\u00d0\u00a2\u00d0\u00b0\u00d1\u0082\u00d1\u008b\u00d1\u0088\u00d0\u00bb\u00d1\u008b \u00d0\u00ad\u00d0\u00ba\u00d0\u00be\u00d0\u00a1\u00d0\u00b5\u00d1\u0080\u00d0\u00b2\u00d0\u00b8\u00d1\u0081","osm_id":"5327792713","tag":{"addr:city":"\u0412\u0435\u0440\u0445\u043d\u0438\u0435 \u0422\u0430\u0442\u044b\u0448\u043b\u044b","addr:housenumber":"113","addr:postcode":"452830","addr:street":"\u0443\u043b\u0438\u0446\u0430 \u041b\u0435\u043d\u0438\u043d\u0430","amenity":"recycling","description":"\u041e\u0431\u0449\u0435\u0441\u0442\u0432\u043e \u0441 \u043e\u0433\u0440\u0430\u043d\u0438\u0447\u0435\u043d\u043d\u043e\u0439 \u043e\u0442\u0432\u0435\u0442\u0441\u0442\u0432\u0435\u043d\u043d\u043e\u0441\u0442\u044c\u044e \u0422\u0430\u0442\u044b\u0448\u043b\u044b \u042d\u043a\u043e\u0441\u0435\u0440\u0432\u0438\u0441","phone":"+7 (34778) 2-15-22","recycling:paper":"yes","recycling:plastic":"yes","recycling_type":"container","website":"verkhnie-tatyshly.1-top.ru","wheelchair":"no"}},"type":"Feature"}
]
}
