{
"type": "FeatureCollection",
"features": [
	{"geometry":{"coordinates":[55.838168,54.713517],"type":"Point"},"properties":{"osm_id":"1369638289","tag":{"amenity":"waste_disposal","waste":"trash"}},"type":"Feature"},
	{"geometry":{"coordinates":[55.838816,54.714249],"type":"Point"},"properties":{"osm_id":"1369638290","tag":{"amenity":"waste_disposal","waste":"trash"}},"type":"Feature"},
	{"geometry":{"coordinates":[55.837602,54.71139],"type":"Point"},"properties":{"osm_id":"1369638332","tag":{"amenity":"waste_disposal","waste":"trash"}},"type":"Feature"},
	{"geometry":{"coordinates":[55.828093,54.711097],"type":"Point"},"properties":{"osm_id":"1369638532","tag":{"amenity":"waste_disposal","waste":"trash"}},"type":"Feature"},
	{"geometry":{"coordinates":[55.831316,54.70628],"type":"Point"},"properties":{"osm_id":"1369666634","tag":{"amenity":"waste_disposal","waste":"trash"}},"type":"Feature"},
	{"geometry":{"coordinates":[55.840032,54.712632],"type":"Point"},"properties":{"osm_id":"1369670220","tag":{"amenity":"waste_disposal","waste":"trash"}},"type":"Feature"},
	{"geometry":{"coordinates":[55.837629,54.708689],"type":"Point"},"properties":{"osm_id":"1376414259","tag":{"amenity":"waste_disposal","waste":"trash"}},"type":"Feature"},
	{"geometry":{"coordinates":[55.835915,54.707979],"type":"Point"},"properties":{"osm_id":"1377285828","tag":{"amenity":"waste_disposal","waste":"trash"}},"type":"Feature"},
	{"geometry":{"coordinates":[55.826054,54.702952],"type":"Point"},"properties":{"osm_id":"1377294698","tag":{"amenity":"waste_disposal","waste":"trash"}},"type":"Feature"},
	{"geometry":{"coordinates":[55.833647,54.70382],"type":"Point"},"properties":{"osm_id":"1381275076","tag":{"amenity":"waste_disposal","waste":"trash"}},"type":"Feature"},
	{"geometry":{"coordinates":[55.836049,54.706393],"type":"Point"},"properties":{"osm_id":"1381275085","tag":{"amenity":"waste_disposal","waste":"trash"}},"type":"Feature"},
	{"geometry":{"coordinates":[55.84128,54.706255],"type":"Point"},"properties":{"osm_id":"1381287916","tag":{"amenity":"waste_disposal","waste":"trash"}},"type":"Feature"},
	{"geometry":{"coordinates":[55.832372,54.711691],"type":"Point"},"properties":{"osm_id":"1383273738","tag":{"amenity":"waste_disposal","waste":"trash"}},"type":"Feature"},
	{"geometry":{"coordinates":[55.817736,54.703719],"type":"Point"},"properties":{"osm_id":"1383308892","tag":{"amenity":"waste_disposal","waste":"trash"}},"type":"Feature"},
	{"geometry":{"coordinates":[55.81327,54.706411],"type":"Point"},"properties":{"osm_id":"1383308958","tag":{"amenity":"waste_disposal","waste":"trash"}},"type":"Feature"},
	{"geometry":{"coordinates":[55.813071,54.709338],"type":"Point"},"properties":{"osm_id":"1383309000","tag":{"amenity":"waste_disposal","waste":"trash"}},"type":"Feature"},
	{"geometry":{"coordinates":[55.815793,54.710738],"type":"Point"},"properties":{"osm_id":"1383309019","tag":{"amenity":"waste_disposal","waste":"trash"}},"type":"Feature"},
	{"geometry":{"coordinates":[55.816706,54.710806],"type":"Point"},"properties":{"osm_id":"1383309030","tag":{"amenity":"waste_disposal","waste":"trash"}},"type":"Feature"},
	{"geometry":{"coordinates":[55.828642,54.713632],"type":"Point"},"properties":{"osm_id":"1383309064","tag":{"amenity":"waste_disposal","waste":"trash"}},"type":"Feature"},
	{"geometry":{"coordinates":[55.835776,54.705435],"type":"Point"},"properties":{"osm_id":"1383931838","tag":{"amenity":"waste_disposal","waste":"trash"}},"type":"Feature"},
	{"geometry":{"coordinates":[55.82734,54.70673],"type":"Point"},"properties":{"osm_id":"1383943966","tag":{"amenity":"waste_disposal","waste":"trash"}},"type":"Feature"},
	{"geometry":{"coordinates":[55.82002,54.704398],"type":"Point"},"properties":{"osm_id":"1383957845","tag":{"amenity":"waste_disposal","waste":"trash"}},"type":"Feature"},
	{"geometry":{"coordinates":[55.822619,54.704749],"type":"Point"},"properties":{"osm_id":"1383957867","tag":{"amenity":"waste_disposal","waste":"trash"}},"type":"Feature"},
	{"geometry":{"coordinates":[55.820725,54.708316],"type":"Point"},"properties":{"osm_id":"1383957912","tag":{"amenity":"waste_disposal","waste":"trash"}},"type":"Feature"},
	{"geometry":{"coordinates":[55.825283,54.709832],"type":"Point"},"properties":{"osm_id":"1383968031","tag":{"amenity":"waste_disposal","waste":"trash"}},"type":"Feature"},
	{"geometry":{"coordinates":[55.815877,54.693529],"type":"Point"},"properties":{"osm_id":"1385609603","tag":{"amenity":"waste_disposal","waste":"trash"}},"type":"Feature"},
	{"geometry":{"coordinates":[55.820637,54.694111],"type":"Point"},"properties":{"osm_id":"1385609633","tag":{"amenity":"waste_disposal","waste":"trash"}},"type":"Feature"},
	{"geometry":{"coordinates":[55.81228,54.694591],"type":"Point"},"properties":{"osm_id":"1385609672","tag":{"amenity":"waste_disposal","waste":"trash"}},"type":"Feature"},
	{"geometry":{"coordinates":[55.82871,54.708836],"type":"Point"},"properties":{"osm_id":"1385663439","tag":{"amenity":"waste_disposal","waste":"trash"}},"type":"Feature"},
	{"geometry":{"coordinates":[55.834483,54.711412],"type":"Point"},"properties":{"osm_id":"1390368328","tag":{"amenity":"waste_disposal","waste":"trash"}},"type":"Feature"},
	{"geometry":{"coordinates":[55.836657,54.712238],"type":"Point"},"properties":{"osm_id":"1390368338","tag":{"amenity":"waste_disposal","waste":"trash"}},"type":"Feature"},
	{"geometry":{"coordinates":[55.835943,54.71343],"type":"Point"},"properties":{"osm_id":"1390368347","tag":{"amenity":"waste_disposal","waste":"trash"}},"type":"Feature"},
	{"geometry":{"coordinates":[55.825199,54.697776],"type":"Point"},"properties":{"osm_id":"1390375890","tag":{"amenity":"waste_disposal","waste":"trash"}},"type":"Feature"},
	{"geometry":{"coordinates":[55.827876,54.699699],"type":"Point"},"properties":{"osm_id":"1390377705","tag":{"amenity":"waste_disposal","waste":"trash"}},"type":"Feature"},
	{"geometry":{"coordinates":[55.826042,54.701092],"type":"Point"},"properties":{"osm_id":"1390377737","tag":{"amenity":"waste_disposal","waste":"trash"}},"type":"Feature"},
	{"geometry":{"coordinates":[55.824919,54.704514],"type":"Point"},"properties":{"osm_id":"1390378413","tag":{"amenity":"waste_disposal","waste":"trash"}},"type":"Feature"},
	{"geometry":{"coordinates":[55.828812,54.71143],"type":"Point"},"properties":{"osm_id":"1390386408","tag":{"amenity":"waste_disposal","waste":"trash"}},"type":"Feature"},
	{"geometry":{"coordinates":[55.82926,54.712895],"type":"Point"},"properties":{"osm_id":"1390386451","tag":{"amenity":"waste_disposal","waste":"trash"}},"type":"Feature"},
	{"geometry":{"coordinates":[55.830646,54.712654],"type":"Point"},"properties":{"osm_id":"1390401918","tag":{"amenity":"waste_disposal","waste":"trash"}},"type":"Feature"},
	{"geometry":{"coordinates":[55.823327,54.710075],"type":"Point"},"properties":{"osm_id":"1390420577","tag":{"amenity":"waste_disposal","waste":"trash"}},"type":"Feature"},
	{"geometry":{"coordinates":[55.822923,54.710247],"type":"Point"},"properties":{"osm_id":"1390420592","tag":{"amenity":"waste_disposal","waste":"trash"}},"type":"Feature"},
	{"geometry":{"coordinates":[55.823696,54.710418],"type":"Point"},"properties":{"osm_id":"1390420602","tag":{"amenity":"waste_disposal","waste":"trash"}},"type":"Feature"},
	{"geometry":{"coordinates":[55.822913,54.71206],"type":"Point"},"properties":{"osm_id":"1390420641","tag":{"amenity":"waste_disposal","waste":"trash"}},"type":"Feature"},
	{"geometry":{"coordinates":[55.822829,54.712236],"type":"Point"},"properties":{"osm_id":"1390420665","tag":{"amenity":"waste_disposal","waste":"trash"}},"type":"Feature"},
	{"geometry":{"coordinates":[55.821794,54.707143],"type":"Point"},"properties":{"osm_id":"1390447646","tag":{"amenity":"waste_disposal","waste":"trash"}},"type":"Feature"},
	{"geometry":{"coordinates":[55.835215,54.700992],"type":"Point"},"properties":{"osm_id":"1390469049","tag":{"amenity":"waste_disposal","waste":"trash"}},"type":"Feature"},
	{"geometry":{"coordinates":[55.839496,54.707448],"type":"Point"},"properties":{"osm_id":"1390469098","tag":{"amenity":"waste_disposal","waste":"trash"}},"type":"Feature"},
	{"geometry":{"coordinates":[55.817044,54.694747],"type":"Point"},"properties":{"osm_id":"1391221370","tag":{"amenity":"waste_disposal"}},"type":"Feature"},
	{"geometry":{"coordinates":[55.818888,54.695475],"type":"Point"},"properties":{"osm_id":"1391221524","tag":{"amenity":"waste_disposal","description":"\u00d0\u0096\u00d0\u00ad\u00d0\u00a3 \"\u00d0\u009a\u00d0\u00b0\u00d0\u00bf\u00d0\u00b8\u00d1\u0082\u00d0\u00b0\u00d0\u00bb\u00d1\u0081\u00d1\u0082\u00d1\u0080\u00d0\u00be\u00d0\u00b9\"","waste":"trash"}},"type":"Feature"},
	{"geometry":{"coordinates":[55.840698,54.702334],"type":"Point"},"properties":{"osm_id":"1394420005","tag":{"amenity":"waste_disposal","waste":"trash"}},"type":"Feature"},
	{"geometry":{"coordinates":[55.839097,54.702836],"type":"Point"},"properties":{"osm_id":"1394420065","tag":{"amenity":"waste_disposal","waste":"trash"}},"type":"Feature"},
	{"geometry":{"coordinates":[55.838008,54.703019],"type":"Point"},"properties":{"osm_id":"1394420080","tag":{"amenity":"waste_disposal","waste":"trash"}},"type":"Feature"},
	{"geometry":{"coordinates":[55.842471,54.703486],"type":"Point"},"properties":{"osm_id":"1394420178","tag":{"amenity":"waste_disposal","waste":"trash"}},"type":"Feature"},
	{"geometry":{"coordinates":[55.835805,54.702705],"type":"Point"},"properties":{"osm_id":"1394484414","tag":{"amenity":"waste_disposal","waste":"trash"}},"type":"Feature"},
	{"geometry":{"coordinates":[55.815181,54.707842],"type":"Point"},"properties":{"osm_id":"1394505312","tag":{"amenity":"waste_disposal","waste":"trash"}},"type":"Feature"},
	{"geometry":{"coordinates":[55.813644,54.706988],"type":"Point"},"properties":{"osm_id":"1394511264","tag":{"amenity":"waste_disposal","waste":"trash"}},"type":"Feature"},
	{"geometry":{"coordinates":[55.825271,54.697996],"type":"Point"},"properties":{"osm_id":"1401263795","tag":{"amenity":"waste_disposal","waste":"trash"}},"type":"Feature"},
	{"geometry":{"coordinates":[55.827946,54.698876],"type":"Point"},"properties":{"osm_id":"1401263838","tag":{"amenity":"waste_disposal","waste":"trash"}},"type":"Feature"},
	{"geometry":{"coordinates":[55.823866,54.700111],"type":"Point"},"properties":{"osm_id":"1401263857","tag":{"amenity":"waste_disposal","waste":"trash"}},"type":"Feature"},
	{"geometry":{"coordinates":[55.831093,54.70358],"type":"Point"},"properties":{"osm_id":"1409373318","tag":{"amenity":"waste_disposal","waste":"trash"}},"type":"Feature"},
	{"geometry":{"coordinates":[55.822107,54.711967],"type":"Point"},"properties":{"osm_id":"1409373463","tag":{"amenity":"waste_disposal","waste":"trash"}},"type":"Feature"},
	{"geometry":{"coordinates":[55.83722,54.704229],"type":"Point"},"properties":{"osm_id":"1411840282","tag":{"amenity":"waste_disposal","waste":"trash"}},"type":"Feature"},
	{"geometry":{"coordinates":[55.818408,54.697462],"type":"Point"},"properties":{"osm_id":"1544100043","tag":{"amenity":"waste_disposal"}},"type":"Feature"},
	{"geometry":{"coordinates":[55.81886,54.69546],"type":"Point"},"properties":{"osm_id":"1551593894","tag":{"amenity":"waste_disposal","description":"\u00d0\u0096\u00d0\u00ad\u00d0\u00a3 \u00e2\u0084\u009670","waste":"trash"}},"type":"Feature"},
	{"geometry":{"coordinates":[55.817476,54.6952],"type":"Point"},"properties":{"osm_id":"1551594373","tag":{"amenity":"waste_basket"}},"type":"Feature"},
	{"geometry":{"coordinates":[55.817554,54.695238],"type":"Point"},"properties":{"osm_id":"1551594419","tag":{"amenity":"waste_basket"}},"type":"Feature"},
	{"geometry":{"coordinates":[55.817531,54.695318],"type":"Point"},"properties":{"osm_id":"1551594455","tag":{"amenity":"waste_basket"}},"type":"Feature"},
	{"geometry":{"coordinates":[55.833322,54.706458],"type":"Point"},"properties":{"osm_id":"1792930590","tag":{"amenity":"waste_disposal","waste":"trash"}},"type":"Feature"},
	{"geometry":{"coordinates":[55.83375,54.712633],"type":"Point"},"properties":{"osm_id":"3280471651","tag":{"amenity":"waste_disposal","waste":"trash"}},"type":"Feature"},
	{"geometry":{"coordinates":[55.833446,54.713201],"type":"Point"},"properties":{"osm_id":"3280471659","tag":{"amenity":"waste_disposal","waste":"trash"}},"type":"Feature"}
]
}
