{
"type": "FeatureCollection",
"features": [
	{"geometry":{"coordinates":[137.401315,34.802712],"type":"Point"},"properties":{"name":"\u00e7\u00be\u00bd\u00e8\u00a1\u00a3\u00e3\u0081\u00ae\u00e6\u009d\u00be","osm_id":"3870876674","tag":{"name:ja":"\u00e7\u00be\u00bd\u00e8\u00a1\u00a3\u00e3\u0081\u00ae\u00e6\u009d\u00be","name:ja-Hira":"\u00e3\u0081\u00af\u00e3\u0081\u0094\u00e3\u0082\u008d\u00e3\u0082\u0082\u00e3\u0081\u00ae\u00e3\u0081\u00be\u00e3\u0081\u00a4","name:ja-Latn":"Hagoromo-no-Matsu","natural":"tree"}},"type":"Feature"},
	{"geometry":{"coordinates":[137.380297,34.807319],"type":"Point"},"properties":{"name":"\u00e7\u0089\u009b\u00e4\u00b9\u0085\u00e4\u00bf\u009d\u00e3\u0081\u00ae\u00e3\u0083\u008a\u00e3\u0082\u00ae","osm_id":"3871727755","tag":{"natural":"tree"}},"type":"Feature"},
	{"geometry":{"coordinates":[137.383633,34.768396],"type":"Point"},"properties":{"osm_id":"4394290387","tag":{"natural":"tree"}},"type":"Feature"},
	{"geometry":{"coordinates":[137.392895,34.770496],"type":"Point"},"properties":{"name":"\u00e8\u00b1\u008a\u00e6\u00a9\u008b\u00e5\u0085\u00ac\u00e5\u009c\u0092\u00e3\u0081\u00ae\u00e3\u0082\u00a4\u00e3\u0082\u00b9\u00e3\u0083\u008e\u00e3\u0082\u00ad","osm_id":"4394410916","tag":{"genus":"\u00e3\u0082\u00a4\u00e3\u0082\u00b9\u00e3\u0083\u008e\u00e3\u0082\u00ad","height":"15.8","natural":"tree"}},"type":"Feature"},
	{"geometry":{"coordinates":[137.394712,34.767715],"type":"Point"},"properties":{"osm_id":"4397664571","tag":{"natural":"tree"}},"type":"Feature"},
	{"geometry":{"coordinates":[137.394777,34.76776],"type":"Point"},"properties":{"osm_id":"4397664577","tag":{"natural":"tree"}},"type":"Feature"},
	{"geometry":{"coordinates":[137.394725,34.767787],"type":"Point"},"properties":{"osm_id":"4397664580","tag":{"natural":"tree"}},"type":"Feature"},
	{"geometry":{"coordinates":[137.394748,34.767874],"type":"Point"},"properties":{"osm_id":"4397664583","tag":{"natural":"tree"}},"type":"Feature"},
	{"geometry":{"coordinates":[137.394576,34.767879],"type":"Point"},"properties":{"osm_id":"4397664584","tag":{"natural":"tree"}},"type":"Feature"},
	{"geometry":{"coordinates":[137.394766,34.767954],"type":"Point"},"properties":{"osm_id":"4397665089","tag":{"natural":"tree"}},"type":"Feature"},
	{"geometry":{"coordinates":[137.386954,34.766728],"type":"Point"},"properties":{"osm_id":"4405694005","tag":{"natural":"tree"}},"type":"Feature"},
	{"geometry":{"coordinates":[137.386894,34.766769],"type":"Point"},"properties":{"osm_id":"4405694009","tag":{"natural":"tree"}},"type":"Feature"},
	{"geometry":{"coordinates":[137.38703,34.766785],"type":"Point"},"properties":{"osm_id":"4405694011","tag":{"natural":"tree"}},"type":"Feature"},
	{"geometry":{"coordinates":[137.387044,34.76682],"type":"Point"},"properties":{"osm_id":"4405694014","tag":{"natural":"tree"}},"type":"Feature"},
	{"geometry":{"coordinates":[137.387046,34.766831],"type":"Point"},"properties":{"osm_id":"4405694015","tag":{"natural":"tree"}},"type":"Feature"},
	{"geometry":{"coordinates":[137.387053,34.766874],"type":"Point"},"properties":{"osm_id":"4405694019","tag":{"natural":"tree"}},"type":"Feature"},
	{"geometry":{"coordinates":[137.386994,34.766883],"type":"Point"},"properties":{"osm_id":"4405694020","tag":{"natural":"tree"}},"type":"Feature"},
	{"geometry":{"coordinates":[137.384157,34.765828],"type":"Point"},"properties":{"osm_id":"4408159192","tag":{"height":"7","natural":"tree"}},"type":"Feature"},
	{"geometry":{"coordinates":[137.383477,34.767802],"type":"Point"},"properties":{"osm_id":"4434480988","tag":{"height":"3.5","natural":"tree"}},"type":"Feature"},
	{"geometry":{"coordinates":[137.383535,34.767803],"type":"Point"},"properties":{"osm_id":"4434481089","tag":{"height":"3.5","natural":"tree"}},"type":"Feature"},
	{"geometry":{"coordinates":[137.383424,34.767836],"type":"Point"},"properties":{"osm_id":"4434481097","tag":{"height":"3.5","natural":"tree"}},"type":"Feature"},
	{"geometry":{"coordinates":[137.383542,34.767839],"type":"Point"},"properties":{"osm_id":"4434481098","tag":{"height":"3.5","natural":"tree"}},"type":"Feature"},
	{"geometry":{"coordinates":[137.383479,34.76784],"type":"Point"},"properties":{"osm_id":"4434481099","tag":{"height":"3.5","natural":"tree"}},"type":"Feature"},
	{"geometry":{"coordinates":[137.383423,34.767872],"type":"Point"},"properties":{"osm_id":"4434481106","tag":{"height":"3.5","natural":"tree"}},"type":"Feature"},
	{"geometry":{"coordinates":[137.383484,34.767874],"type":"Point"},"properties":{"osm_id":"4434481107","tag":{"height":"3.5","natural":"tree"}},"type":"Feature"},
	{"geometry":{"coordinates":[137.383545,34.767876],"type":"Point"},"properties":{"osm_id":"4434481108","tag":{"height":"3.5","natural":"tree"}},"type":"Feature"},
	{"geometry":{"coordinates":[137.387099,34.741944],"type":"Point"},"properties":{"osm_id":"4497965957","tag":{"natural":"tree"}},"type":"Feature"},
	{"geometry":{"coordinates":[137.38741,34.741938],"type":"Point"},"properties":{"osm_id":"4497965973","tag":{"natural":"tree"}},"type":"Feature"},
	{"geometry":{"coordinates":[137.388359,34.742534],"type":"Point"},"properties":{"name":"\u00e6\u0084\u009b\u00e7\u009f\u00a5\u00e5\u00a4\u00a7\u00e5\u00ad\u00a6\u00e3\u0081\u00ae\u00e3\u0082\u00af\u00e3\u0083\u00ad\u00e3\u0083\u009e\u00e3\u0083\u0084","osm_id":"4497965975","tag":{"genus":"Pinus","height":"28","leaf_cycle":"evergreen","leaf_type":"needleleaved","name:en":"Japanese Black Pine at Aichi University","name:ja":"\u00e6\u0084\u009b\u00e7\u009f\u00a5\u00e5\u00a4\u00a7\u00e5\u00ad\u00a6\u00e3\u0081\u00ae\u00e3\u0082\u00af\u00e3\u0083\u00ad\u00e3\u0083\u009e\u00e3\u0083\u0084","name:ja-Hira":"\u00e3\u0081\u0082\u00e3\u0081\u0084\u00e3\u0081\u00a1\u00e3\u0081\u00a0\u00e3\u0081\u0084\u00e3\u0081\u008c\u00e3\u0081\u008f\u00e3\u0081\u00ae\u00e3\u0081\u008f\u00e3\u0082\u008d\u00e3\u0081\u00be\u00e3\u0081\u00a4","name:ja-Latn":"Aichi Daigaku no Kuromatsu","natural":"tree","type":"conifer","wood":"coniferous"}},"type":"Feature"},
	{"geometry":{"coordinates":[137.386857,34.741949],"type":"Point"},"properties":{"osm_id":"4497966290","tag":{"natural":"tree"}},"type":"Feature"},
	{"geometry":{"coordinates":[137.386938,34.741948],"type":"Point"},"properties":{"osm_id":"4497966295","tag":{"natural":"tree"}},"type":"Feature"},
	{"geometry":{"coordinates":[137.387329,34.74194],"type":"Point"},"properties":{"osm_id":"4497966327","tag":{"natural":"tree"}},"type":"Feature"},
	{"geometry":{"coordinates":[137.388,34.741927],"type":"Point"},"properties":{"osm_id":"4497966330","tag":{"natural":"tree"}},"type":"Feature"},
	{"geometry":{"coordinates":[137.387496,34.741937],"type":"Point"},"properties":{"osm_id":"4497966359","tag":{"natural":"tree"}},"type":"Feature"},
	{"geometry":{"coordinates":[137.387254,34.741941],"type":"Point"},"properties":{"osm_id":"4497966364","tag":{"natural":"tree"}},"type":"Feature"},
	{"geometry":{"coordinates":[137.387018,34.741946],"type":"Point"},"properties":{"osm_id":"4497966373","tag":{"natural":"tree"}},"type":"Feature"},
	{"geometry":{"coordinates":[137.387174,34.741943],"type":"Point"},"properties":{"osm_id":"4497966381","tag":{"natural":"tree"}},"type":"Feature"},
	{"geometry":{"coordinates":[137.386634,34.74243],"type":"Point"},"properties":{"osm_id":"4498316506","tag":{"natural":"tree"}},"type":"Feature"},
	{"geometry":{"coordinates":[137.386639,34.742192],"type":"Point"},"properties":{"osm_id":"4498316520","tag":{"natural":"tree"}},"type":"Feature"},
	{"geometry":{"coordinates":[137.386408,34.742351],"type":"Point"},"properties":{"osm_id":"4498316546","tag":{"natural":"tree"}},"type":"Feature"},
	{"geometry":{"coordinates":[137.38643,34.74254],"type":"Point"},"properties":{"osm_id":"4498316572","tag":{"natural":"tree"}},"type":"Feature"},
	{"geometry":{"coordinates":[137.386268,34.742395],"type":"Point"},"properties":{"osm_id":"4509947276","tag":{"natural":"tree"}},"type":"Feature"},
	{"geometry":{"coordinates":[137.386482,34.742602],"type":"Point"},"properties":{"osm_id":"4509947282","tag":{"natural":"tree"}},"type":"Feature"},
	{"geometry":{"coordinates":[137.386371,34.742624],"type":"Point"},"properties":{"osm_id":"4509947399","tag":{"natural":"tree"}},"type":"Feature"},
	{"geometry":{"coordinates":[137.386365,34.742291],"type":"Point"},"properties":{"osm_id":"4509947428","tag":{"natural":"tree"}},"type":"Feature"},
	{"geometry":{"coordinates":[137.386606,34.742069],"type":"Point"},"properties":{"osm_id":"4509947435","tag":{"natural":"tree"}},"type":"Feature"},
	{"geometry":{"coordinates":[137.386268,34.742549],"type":"Point"},"properties":{"osm_id":"4509947440","tag":{"natural":"tree"}},"type":"Feature"},
	{"geometry":{"coordinates":[137.386582,34.742128],"type":"Point"},"properties":{"osm_id":"4509947462","tag":{"natural":"tree"}},"type":"Feature"},
	{"geometry":{"coordinates":[137.386458,34.742044],"type":"Point"},"properties":{"osm_id":"4509947467","tag":{"natural":"tree"}},"type":"Feature"},
	{"geometry":{"coordinates":[137.386627,34.742335],"type":"Point"},"properties":{"osm_id":"4509947469","tag":{"natural":"tree"}},"type":"Feature"},
	{"geometry":{"coordinates":[137.386585,34.742499],"type":"Point"},"properties":{"osm_id":"4509947503","tag":{"natural":"tree"}},"type":"Feature"},
	{"geometry":{"coordinates":[137.386686,34.742558],"type":"Point"},"properties":{"osm_id":"4509947504","tag":{"natural":"tree"}},"type":"Feature"},
	{"geometry":{"coordinates":[137.386697,34.742122],"type":"Point"},"properties":{"osm_id":"4509947529","tag":{"natural":"tree"}},"type":"Feature"},
	{"geometry":{"coordinates":[137.386494,34.742289],"type":"Point"},"properties":{"osm_id":"4509947535","tag":{"natural":"tree"}},"type":"Feature"},
	{"geometry":{"coordinates":[137.38667,34.742064],"type":"Point"},"properties":{"osm_id":"4509947573","tag":{"natural":"tree"}},"type":"Feature"},
	{"geometry":{"coordinates":[137.386383,34.742106],"type":"Point"},"properties":{"osm_id":"4509947580","tag":{"natural":"tree"}},"type":"Feature"},
	{"geometry":{"coordinates":[137.386587,34.742368],"type":"Point"},"properties":{"osm_id":"4509947583","tag":{"natural":"tree"}},"type":"Feature"},
	{"geometry":{"coordinates":[137.386438,34.742448],"type":"Point"},"properties":{"osm_id":"4509947715","tag":{"natural":"tree"}},"type":"Feature"},
	{"geometry":{"coordinates":[137.386472,34.742128],"type":"Point"},"properties":{"osm_id":"4509947732","tag":{"natural":"tree"}},"type":"Feature"},
	{"geometry":{"coordinates":[137.403488,34.809208],"type":"Point"},"properties":{"osm_id":"5002387589","tag":{"natural":"tree"}},"type":"Feature"},
	{"geometry":{"coordinates":[137.403605,34.809293],"type":"Point"},"properties":{"osm_id":"5002387597","tag":{"natural":"tree"}},"type":"Feature"},
	{"geometry":{"coordinates":[137.404725,34.809528],"type":"Point"},"properties":{"osm_id":"5002968800","tag":{"natural":"tree"}},"type":"Feature"},
	{"geometry":{"coordinates":[137.404659,34.80954],"type":"Point"},"properties":{"osm_id":"5002968826","tag":{"natural":"tree"}},"type":"Feature"},
	{"geometry":{"coordinates":[137.373052,34.744114],"type":"Point"},"properties":{"osm_id":"5052528980","tag":{"natural":"tree"}},"type":"Feature"},
	{"geometry":{"coordinates":[137.417809,34.813122],"type":"Point"},"properties":{"osm_id":"5106345196","tag":{"natural":"tree"}},"type":"Feature"},
	{"geometry":{"coordinates":[137.417793,34.813153],"type":"Point"},"properties":{"osm_id":"5106345203","tag":{"natural":"tree"}},"type":"Feature"},
	{"geometry":{"coordinates":[137.417672,34.813232],"type":"Point"},"properties":{"osm_id":"5106345210","tag":{"natural":"tree"}},"type":"Feature"},
	{"geometry":{"coordinates":[137.41772,34.813279],"type":"Point"},"properties":{"osm_id":"5106346623","tag":{"natural":"tree"}},"type":"Feature"},
	{"geometry":{"coordinates":[137.410555,34.811472],"type":"Point"},"properties":{"osm_id":"5108962239","tag":{"natural":"tree"}},"type":"Feature"},
	{"geometry":{"coordinates":[137.410608,34.811488],"type":"Point"},"properties":{"osm_id":"5108962243","tag":{"natural":"tree"}},"type":"Feature"},
	{"geometry":{"coordinates":[137.410459,34.811444],"type":"Point"},"properties":{"osm_id":"5108962256","tag":{"natural":"tree"}},"type":"Feature"},
	{"geometry":{"coordinates":[137.410561,34.811619],"type":"Point"},"properties":{"osm_id":"5108962263","tag":{"natural":"tree"}},"type":"Feature"},
	{"geometry":{"coordinates":[137.410289,34.811393],"type":"Point"},"properties":{"osm_id":"5108962273","tag":{"natural":"tree"}},"type":"Feature"},
	{"geometry":{"coordinates":[137.410168,34.811357],"type":"Point"},"properties":{"osm_id":"5108962281","tag":{"natural":"tree"}},"type":"Feature"},
	{"geometry":{"coordinates":[137.410506,34.811458],"type":"Point"},"properties":{"osm_id":"5108962287","tag":{"natural":"tree"}},"type":"Feature"},
	{"geometry":{"coordinates":[137.410082,34.811474],"type":"Point"},"properties":{"osm_id":"5108962289","tag":{"natural":"tree"}},"type":"Feature"},
	{"geometry":{"coordinates":[137.410407,34.811428],"type":"Point"},"properties":{"osm_id":"5108962293","tag":{"natural":"tree"}},"type":"Feature"},
	{"geometry":{"coordinates":[137.410346,34.81141],"type":"Point"},"properties":{"osm_id":"5108962315","tag":{"natural":"tree"}},"type":"Feature"},
	{"geometry":{"coordinates":[137.410228,34.811374],"type":"Point"},"properties":{"osm_id":"5108962316","tag":{"natural":"tree"}},"type":"Feature"},
	{"geometry":{"coordinates":[137.410488,34.811596],"type":"Point"},"properties":{"osm_id":"5108962428","tag":{"natural":"tree"}},"type":"Feature"},
	{"geometry":{"coordinates":[137.412079,34.812474],"type":"Point"},"properties":{"osm_id":"5109693134","tag":{"natural":"tree"}},"type":"Feature"},
	{"geometry":{"coordinates":[137.412116,34.812376],"type":"Point"},"properties":{"osm_id":"5109693155","tag":{"natural":"tree"}},"type":"Feature"},
	{"geometry":{"coordinates":[137.412262,34.812318],"type":"Point"},"properties":{"osm_id":"5109693163","tag":{"natural":"tree"}},"type":"Feature"},
	{"geometry":{"coordinates":[137.412184,34.812171],"type":"Point"},"properties":{"osm_id":"5109693168","tag":{"natural":"tree"}},"type":"Feature"},
	{"geometry":{"coordinates":[137.412164,34.812222],"type":"Point"},"properties":{"osm_id":"5109693172","tag":{"natural":"tree"}},"type":"Feature"},
	{"geometry":{"coordinates":[137.412217,34.812378],"type":"Point"},"properties":{"osm_id":"5109693191","tag":{"natural":"tree"}},"type":"Feature"},
	{"geometry":{"coordinates":[137.412228,34.812206],"type":"Point"},"properties":{"osm_id":"5109693204","tag":{"natural":"tree"}},"type":"Feature"},
	{"geometry":{"coordinates":[137.412141,34.812263],"type":"Point"},"properties":{"osm_id":"5109693205","tag":{"natural":"tree"}},"type":"Feature"},
	{"geometry":{"coordinates":[137.414779,34.769605],"type":"Point"},"properties":{"name":"\u00e9\u00bb\u0092\u00e6\u009d\u00be","osm_id":"5273089165","tag":{"genus":"\u00e3\u0083\u009e\u00e3\u0083\u0084","height":"10","natural":"tree"}},"type":"Feature"},
	{"geometry":{"coordinates":[137.410258,34.769947],"type":"Point"},"properties":{"osm_id":"5273115531","tag":{"genus":"ginkgo","leaf_type":"broadleaved","natural":"tree","species:ja":"\u00e3\u0082\u00a4\u00e3\u0083\u0081\u00e3\u0083\u00a7\u00e3\u0082\u00a6"}},"type":"Feature"},
	{"geometry":{"coordinates":[137.450162,34.762171],"type":"Point"},"properties":{"osm_id":"5277663190","tag":{"height":"3","natural":"tree"}},"type":"Feature"},
	{"geometry":{"coordinates":[137.450786,34.762177],"type":"Point"},"properties":{"osm_id":"5277663191","tag":{"height":"20","natural":"tree"}},"type":"Feature"},
	{"geometry":{"coordinates":[137.450152,34.762254],"type":"Point"},"properties":{"osm_id":"5277663197","tag":{"height":"3","natural":"tree"}},"type":"Feature"},
	{"geometry":{"coordinates":[137.450449,34.762408],"type":"Point"},"properties":{"osm_id":"5277663207","tag":{"height":"5","natural":"tree"}},"type":"Feature"},
	{"geometry":{"coordinates":[137.450296,34.762416],"type":"Point"},"properties":{"osm_id":"5277663210","tag":{"height":"10","natural":"tree"}},"type":"Feature"},
	{"geometry":{"coordinates":[137.450669,34.762454],"type":"Point"},"properties":{"osm_id":"5277663215","tag":{"height":"12","natural":"tree"}},"type":"Feature"},
	{"geometry":{"coordinates":[137.450149,34.762318],"type":"Point"},"properties":{"name":"3","osm_id":"5277664080","tag":{"natural":"tree"}},"type":"Feature"},
	{"geometry":{"coordinates":[137.450093,34.762437],"type":"Point"},"properties":{"name":"4","osm_id":"5277664081","tag":{"natural":"tree"}},"type":"Feature"},
	{"geometry":{"coordinates":[137.450588,34.762462],"type":"Point"},"properties":{"name":"7","osm_id":"5277664082","tag":{"fee":"no","female":"yes","male":"yes","natural":"tree","operator":"Toyohashi city","toilets:position":"seated;urinal","unisex":"yes"}},"type":"Feature"},
	{"geometry":{"coordinates":[137.450776,34.762692],"type":"Point"},"properties":{"name":"\u00e6\u009d\u00be","osm_id":"5279541272","tag":{"height":"20","natural":"tree"}},"type":"Feature"},
	{"geometry":{"coordinates":[137.385753,34.767276],"type":"Point"},"properties":{"osm_id":"5287647773","tag":{"natural":"tree"}},"type":"Feature"},
	{"geometry":{"coordinates":[137.385762,34.767362],"type":"Point"},"properties":{"osm_id":"5287647774","tag":{"natural":"tree"}},"type":"Feature"},
	{"geometry":{"coordinates":[137.385674,34.767494],"type":"Point"},"properties":{"osm_id":"5287647775","tag":{"natural":"tree"}},"type":"Feature"},
	{"geometry":{"coordinates":[137.385296,34.76756],"type":"Point"},"properties":{"osm_id":"5287647776","tag":{"natural":"tree"}},"type":"Feature"},
	{"geometry":{"coordinates":[137.385379,34.767568],"type":"Point"},"properties":{"osm_id":"5287647777","tag":{"natural":"tree"}},"type":"Feature"},
	{"geometry":{"coordinates":[137.385454,34.767568],"type":"Point"},"properties":{"osm_id":"5287647778","tag":{"natural":"tree"}},"type":"Feature"},
	{"geometry":{"coordinates":[137.385209,34.767575],"type":"Point"},"properties":{"osm_id":"5287647779","tag":{"natural":"tree"}},"type":"Feature"},
	{"geometry":{"coordinates":[137.391398,34.801561],"type":"Point"},"properties":{"osm_id":"5439538690","tag":{"natural":"tree"}},"type":"Feature"},
	{"geometry":{"coordinates":[137.400586,34.808697],"type":"Point"},"properties":{"osm_id":"5447012246","tag":{"natural":"tree"}},"type":"Feature"},
	{"geometry":{"coordinates":[137.396012,34.804111],"type":"Point"},"properties":{"osm_id":"5451451442","tag":{"natural":"tree"}},"type":"Feature"},
	{"geometry":{"coordinates":[137.39613,34.804103],"type":"Point"},"properties":{"osm_id":"5451451443","tag":{"natural":"tree"}},"type":"Feature"},
	{"geometry":{"coordinates":[137.396182,34.804118],"type":"Point"},"properties":{"osm_id":"5451451490","tag":{"natural":"tree"}},"type":"Feature"},
	{"geometry":{"coordinates":[137.375972,34.765325],"type":"Point"},"properties":{"osm_id":"5552644453","tag":{"natural":"tree"}},"type":"Feature"},
	{"geometry":{"coordinates":[137.37592,34.765307],"type":"Point"},"properties":{"osm_id":"5552644454","tag":{"natural":"tree"}},"type":"Feature"},
	{"geometry":{"coordinates":[137.376107,34.765627],"type":"Point"},"properties":{"osm_id":"5552644455","tag":{"natural":"tree"}},"type":"Feature"},
	{"geometry":{"coordinates":[137.376145,34.765722],"type":"Point"},"properties":{"osm_id":"5552644456","tag":{"natural":"tree"}},"type":"Feature"},
	{"geometry":{"coordinates":[137.376043,34.76572],"type":"Point"},"properties":{"osm_id":"5552644457","tag":{"natural":"tree"}},"type":"Feature"},
	{"geometry":{"coordinates":[137.376284,34.765591],"type":"Point"},"properties":{"name":"\u00e5\u00be\u00a1\u00e7\u00a5\u009e\u00e6\u009c\u00a8","osm_id":"5552644458","tag":{"natural":"tree"}},"type":"Feature"},
	{"geometry":{"coordinates":[137.396682,34.755891],"type":"Point"},"properties":{"osm_id":"5572535925","tag":{"natural":"tree"}},"type":"Feature"},
	{"geometry":{"coordinates":[137.396894,34.755656],"type":"Point"},"properties":{"osm_id":"5572535926","tag":{"natural":"tree"}},"type":"Feature"},
	{"geometry":{"coordinates":[137.39685,34.755804],"type":"Point"},"properties":{"osm_id":"5572535927","tag":{"natural":"tree"}},"type":"Feature"},
	{"geometry":{"coordinates":[137.396901,34.75591],"type":"Point"},"properties":{"osm_id":"5572535928","tag":{"natural":"tree"}},"type":"Feature"},
	{"geometry":{"coordinates":[137.397227,34.755765],"type":"Point"},"properties":{"osm_id":"5572535929","tag":{"natural":"tree"}},"type":"Feature"},
	{"geometry":{"coordinates":[137.399118,34.751876],"type":"Point"},"properties":{"osm_id":"5572535935","tag":{"natural":"tree"}},"type":"Feature"},
	{"geometry":{"coordinates":[137.385175,34.754838],"type":"Point"},"properties":{"osm_id":"5640827876","tag":{"natural":"tree"}},"type":"Feature"},
	{"geometry":{"coordinates":[137.385071,34.754957],"type":"Point"},"properties":{"osm_id":"5640827877","tag":{"natural":"tree"}},"type":"Feature"},
	{"geometry":{"coordinates":[137.385002,34.755065],"type":"Point"},"properties":{"osm_id":"5640827878","tag":{"natural":"tree"}},"type":"Feature"},
	{"geometry":{"coordinates":[137.384786,34.75518],"type":"Point"},"properties":{"osm_id":"5640827879","tag":{"natural":"tree"}},"type":"Feature"},
	{"geometry":{"coordinates":[137.384716,34.755547],"type":"Point"},"properties":{"osm_id":"5640827880","tag":{"natural":"tree"}},"type":"Feature"},
	{"geometry":{"coordinates":[137.375495,34.744308],"type":"Point"},"properties":{"osm_id":"5665536839","tag":{"natural":"tree"}},"type":"Feature"},
	{"geometry":{"coordinates":[137.375607,34.744188],"type":"Point"},"properties":{"osm_id":"5665536840","tag":{"natural":"tree"}},"type":"Feature"},
	{"geometry":{"coordinates":[137.376338,34.744231],"type":"Point"},"properties":{"osm_id":"5665537126","tag":{"natural":"tree"}},"type":"Feature"},
	{"geometry":{"coordinates":[137.37926,34.743768],"type":"Point"},"properties":{"osm_id":"5667804055","tag":{"natural":"tree"}},"type":"Feature"},
	{"geometry":{"coordinates":[137.379209,34.743724],"type":"Point"},"properties":{"osm_id":"5667804056","tag":{"natural":"tree"}},"type":"Feature"},
	{"geometry":{"coordinates":[137.379039,34.743372],"type":"Point"},"properties":{"osm_id":"5667804057","tag":{"natural":"tree"}},"type":"Feature"},
	{"geometry":{"coordinates":[137.379148,34.743452],"type":"Point"},"properties":{"osm_id":"5667804058","tag":{"natural":"tree"}},"type":"Feature"},
	{"geometry":{"coordinates":[137.379091,34.743532],"type":"Point"},"properties":{"osm_id":"5667804059","tag":{"natural":"tree"}},"type":"Feature"},
	{"geometry":{"coordinates":[137.379272,34.743558],"type":"Point"},"properties":{"osm_id":"5667804060","tag":{"natural":"tree"}},"type":"Feature"},
	{"geometry":{"coordinates":[137.379223,34.743512],"type":"Point"},"properties":{"osm_id":"5667804061","tag":{"natural":"tree"}},"type":"Feature"},
	{"geometry":{"coordinates":[137.379172,34.743469],"type":"Point"},"properties":{"osm_id":"5667804062","tag":{"natural":"tree"}},"type":"Feature"},
	{"geometry":{"coordinates":[137.379693,34.744163],"type":"Point"},"properties":{"osm_id":"5667804069","tag":{"natural":"tree"}},"type":"Feature"},
	{"geometry":{"coordinates":[137.378556,34.744001],"type":"Point"},"properties":{"osm_id":"5667804070","tag":{"natural":"tree"}},"type":"Feature"},
	{"geometry":{"coordinates":[137.378496,34.743922],"type":"Point"},"properties":{"osm_id":"5667804071","tag":{"natural":"tree"}},"type":"Feature"},
	{"geometry":{"coordinates":[137.378464,34.74387],"type":"Point"},"properties":{"osm_id":"5667804072","tag":{"natural":"tree"}},"type":"Feature"},
	{"geometry":{"coordinates":[137.378338,34.743684],"type":"Point"},"properties":{"osm_id":"5667804073","tag":{"natural":"tree"}},"type":"Feature"},
	{"geometry":{"coordinates":[137.378458,34.743641],"type":"Point"},"properties":{"osm_id":"5667804074","tag":{"natural":"tree"}},"type":"Feature"},
	{"geometry":{"coordinates":[137.378808,34.743433],"type":"Point"},"properties":{"osm_id":"5667804075","tag":{"natural":"tree"}},"type":"Feature"},
	{"geometry":{"coordinates":[137.378701,34.743493],"type":"Point"},"properties":{"osm_id":"5667804076","tag":{"natural":"tree"}},"type":"Feature"},
	{"geometry":{"coordinates":[137.378736,34.74353],"type":"Point"},"properties":{"osm_id":"5667804077","tag":{"natural":"tree"}},"type":"Feature"},
	{"geometry":{"coordinates":[137.378804,34.743488],"type":"Point"},"properties":{"osm_id":"5667804078","tag":{"natural":"tree"}},"type":"Feature"},
	{"geometry":{"coordinates":[137.378858,34.743472],"type":"Point"},"properties":{"osm_id":"5667804079","tag":{"natural":"tree"}},"type":"Feature"},
	{"geometry":{"coordinates":[137.378916,34.743497],"type":"Point"},"properties":{"osm_id":"5667804080","tag":{"natural":"tree"}},"type":"Feature"},
	{"geometry":{"coordinates":[137.379046,34.743592],"type":"Point"},"properties":{"osm_id":"5667804081","tag":{"natural":"tree"}},"type":"Feature"},
	{"geometry":{"coordinates":[137.379125,34.743647],"type":"Point"},"properties":{"osm_id":"5667804082","tag":{"natural":"tree"}},"type":"Feature"},
	{"geometry":{"coordinates":[137.379027,34.743429],"type":"Point"},"properties":{"osm_id":"5667804083","tag":{"natural":"tree"}},"type":"Feature"},
	{"geometry":{"coordinates":[137.379197,34.743583],"type":"Point"},"properties":{"osm_id":"5667804084","tag":{"natural":"tree"}},"type":"Feature"},
	{"geometry":{"coordinates":[137.37896,34.744287],"type":"Point"},"properties":{"osm_id":"5667804085","tag":{"natural":"tree"}},"type":"Feature"},
	{"geometry":{"coordinates":[137.378866,34.744292],"type":"Point"},"properties":{"osm_id":"5667804086","tag":{"natural":"tree"}},"type":"Feature"},
	{"geometry":{"coordinates":[137.379174,34.744322],"type":"Point"},"properties":{"osm_id":"5667804087","tag":{"natural":"tree"}},"type":"Feature"},
	{"geometry":{"coordinates":[137.379602,34.744202],"type":"Point"},"properties":{"osm_id":"5667804088","tag":{"natural":"tree"}},"type":"Feature"},
	{"geometry":{"coordinates":[137.379431,34.744163],"type":"Point"},"properties":{"osm_id":"5667804089","tag":{"natural":"tree"}},"type":"Feature"},
	{"geometry":{"coordinates":[137.379312,34.744174],"type":"Point"},"properties":{"osm_id":"5667804090","tag":{"natural":"tree"}},"type":"Feature"},
	{"geometry":{"coordinates":[137.37922,34.744139],"type":"Point"},"properties":{"osm_id":"5667804091","tag":{"natural":"tree"}},"type":"Feature"},
	{"geometry":{"coordinates":[137.379158,34.744067],"type":"Point"},"properties":{"osm_id":"5667804092","tag":{"natural":"tree"}},"type":"Feature"},
	{"geometry":{"coordinates":[137.379156,34.744134],"type":"Point"},"properties":{"osm_id":"5667804093","tag":{"natural":"tree"}},"type":"Feature"},
	{"geometry":{"coordinates":[137.379247,34.744018],"type":"Point"},"properties":{"osm_id":"5667804094","tag":{"natural":"tree"}},"type":"Feature"},
	{"geometry":{"coordinates":[137.405329,34.764139],"type":"Point"},"properties":{"osm_id":"5672463664","tag":{"natural":"tree"}},"type":"Feature"},
	{"geometry":{"coordinates":[137.405201,34.764219],"type":"Point"},"properties":{"osm_id":"5672463665","tag":{"natural":"tree"}},"type":"Feature"},
	{"geometry":{"coordinates":[137.41874,34.810718],"type":"Point"},"properties":{"osm_id":"5910303639","tag":{"natural":"tree"}},"type":"Feature"},
	{"geometry":{"coordinates":[137.394817,34.768013],"type":"Point"},"properties":{"name":"\u00e6\u009d\u00b1\u00e7\u0085\u00a7\u00e5\u00ae\u00ae\u00ef\u00bc\u0088\u00e5\u00ae\u00b6\u00e5\u00ba\u00b7\u00e5\u0085\u00ac\u00ef\u00bc\u0089\u00e5\u00be\u00a1\u00e8\u0085\u00b0\u00e6\u008e\u009b\u00e6\u009d\u00be","osm_id":"7055904577","tag":{"natural":"tree"}},"type":"Feature"},
	{"geometry":{"coordinates":[137.395311,34.770764],"type":"Point"},"properties":{"osm_id":"7055962912","tag":{"natural":"tree"}},"type":"Feature"},
	{"geometry":{"coordinates":[137.396168,34.769976],"type":"Point"},"properties":{"osm_id":"7055963331","tag":{"natural":"tree"}},"type":"Feature"},
	{"geometry":{"coordinates":[137.395669,34.770524],"type":"Point"},"properties":{"osm_id":"7055963332","tag":{"natural":"tree"}},"type":"Feature"},
	{"geometry":{"coordinates":[137.394662,34.767629],"type":"Point"},"properties":{"osm_id":"7056014290","tag":{"natural":"tree"}},"type":"Feature"},
	{"geometry":{"coordinates":[137.401603,34.770687],"type":"Point"},"properties":{"osm_id":"7056021915","tag":{"natural":"tree"}},"type":"Feature"},
	{"geometry":{"coordinates":[137.401608,34.770701],"type":"Point"},"properties":{"osm_id":"7056021916","tag":{"natural":"tree"}},"type":"Feature"},
	{"geometry":{"coordinates":[137.397133,34.764359],"type":"Point"},"properties":{"osm_id":"7056025296","tag":{"natural":"tree"}},"type":"Feature"},
	{"geometry":{"coordinates":[137.397131,34.764232],"type":"Point"},"properties":{"osm_id":"7056037364","tag":{"natural":"tree"}},"type":"Feature"},
	{"geometry":{"coordinates":[137.397178,34.764394],"type":"Point"},"properties":{"osm_id":"7056063213","tag":{"natural":"tree"}},"type":"Feature"},
	{"geometry":{"coordinates":[137.39464,34.7682],"type":"Point"},"properties":{"osm_id":"7056082289","tag":{"genus":"Pinus","leaf_cycle":"evergreen","leaf_type":"needleleaved","natural":"tree","species":"Pinus thunbergii","species:en":"Japanese Black Pine","species:ja":"\u00e3\u0082\u00af\u00e3\u0083\u00ad\u00e3\u0083\u009e\u00e3\u0083\u0084","taxon":"Pinus thunbergii"}},"type":"Feature"},
	{"geometry":{"coordinates":[137.390292,34.770414],"type":"Point"},"properties":{"osm_id":"7057279595","tag":{"natural":"tree"}},"type":"Feature"},
	{"geometry":{"coordinates":[137.389805,34.770158],"type":"Point"},"properties":{"osm_id":"7057279614","tag":{"natural":"tree"}},"type":"Feature"},
	{"geometry":{"coordinates":[137.39034,34.770079],"type":"Point"},"properties":{"osm_id":"7057279716","tag":{"natural":"tree"}},"type":"Feature"},
	{"geometry":{"coordinates":[137.389827,34.770215],"type":"Point"},"properties":{"osm_id":"7057279756","tag":{"natural":"tree"}},"type":"Feature"},
	{"geometry":{"coordinates":[137.38996,34.77004],"type":"Point"},"properties":{"osm_id":"7057279757","tag":{"natural":"tree"}},"type":"Feature"},
	{"geometry":{"coordinates":[137.390012,34.770146],"type":"Point"},"properties":{"osm_id":"7057279758","tag":{"natural":"tree"}},"type":"Feature"},
	{"geometry":{"coordinates":[137.389794,34.770091],"type":"Point"},"properties":{"osm_id":"7057279759","tag":{"natural":"tree"}},"type":"Feature"}
]
}
