{
"type": "FeatureCollection",
"features": [
	{"geometry":{"coordinates":[137.386108,34.739998],"type":"Point"},"properties":{"name":"\u00e7\u009a\u0087\u00e5\u00a4\u00aa\u00e5\u00ad\u0090\u00e8\u00a3\u0095\u00e4\u00bb\u0081\u00e8\u00a6\u00aa\u00e7\u008e\u008b\u00e6\u00ae\u00bf\u00e4\u00b8\u008b\u00e5\u00be\u00a1\u00e6\u0089\u008b\u00e6\u00a4\u008d\u00e6\u009d\u00be","osm_id":"4497965986","tag":{"genus":"Pinus","leaf_cycle":"evergreen","leaf_type":"needleleaved","name:ja":"\u00e7\u009a\u0087\u00e5\u00a4\u00aa\u00e5\u00ad\u0090\u00e8\u00a3\u0095\u00e4\u00bb\u0081\u00e8\u00a6\u00aa\u00e7\u008e\u008b\u00e6\u00ae\u00bf\u00e4\u00b8\u008b\u00e5\u00be\u00a1\u00e6\u0089\u008b\u00e6\u00a4\u008d\u00e6\u009d\u00be","name:ja-Hira":"\u00e3\u0081\u0093\u00e3\u0081\u0086\u00e3\u0081\u009f\u00e3\u0081\u0084\u00e3\u0081\u0097\u00e3\u0081\u00b2\u00e3\u0082\u008d\u00e3\u0081\u00b2\u00e3\u0081\u00a8\u00e3\u0081\u0097\u00e3\u0082\u0093\u00e3\u0081\u00ae\u00e3\u0081\u0086\u00e3\u0081\u00a7\u00e3\u0082\u0093\u00e3\u0081\u008b\u00e3\u0081\u008a\u00e3\u0081\u00a6\u00e3\u0081\u0086\u00e3\u0081\u0088\u00e3\u0081\u00be\u00e3\u0081\u00a4","name:ja-Latn":"K\u00c5\u008dtaishi Hirohito Shin'n\u00c5\u008d Denka Oteue Matsu","natural":"tree","type":"conifer","wood":"coniferous"}},"type":"Feature"},
	{"geometry":{"coordinates":[137.38612,34.73986],"type":"Point"},"properties":{"name":"\u00e4\u00b9\u0085\u00e9\u0082\u0087\u00e5\u00ae\u00ae\u00e9\u0082\u00a6\u00e5\u00bd\u00a6\u00e7\u008e\u008b\u00e6\u00ae\u00bf\u00e4\u00b8\u008b\u00e5\u00be\u00a1\u00e6\u0089\u008b\u00e6\u00a4\u008d\u00e6\u009d\u00be","osm_id":"4498316547","tag":{"genus":"Pinus","leaf_cycle":"evergreen","leaf_type":"needleleaved","name:ja":"\u00e4\u00b9\u0085\u00e9\u0082\u0087\u00e5\u00ae\u00ae\u00e9\u0082\u00a6\u00e5\u00bd\u00a6\u00e7\u008e\u008b\u00e6\u00ae\u00bf\u00e4\u00b8\u008b\u00e5\u00be\u00a1\u00e6\u0089\u008b\u00e6\u00a4\u008d\u00e6\u009d\u00be","name:ja-Hira":"\u00e3\u0081\u008f\u00e3\u0081\u00ab\u00e3\u0081\u00ae\u00e3\u0081\u00bf\u00e3\u0082\u0084\u00e3\u0081\u008f\u00e3\u0081\u00ab\u00e3\u0082\u0088\u00e3\u0081\u0097\u00e3\u0081\u008a\u00e3\u0081\u0086\u00e3\u0081\u00a7\u00e3\u0082\u0093\u00e3\u0081\u008b\u00e3\u0081\u008a\u00e3\u0081\u00a6\u00e3\u0081\u0086\u00e3\u0081\u0088\u00e3\u0081\u00be\u00e3\u0081\u00a4","name:ja-Latn":"Kuninomiya Kuniyoshi\u00c5\u008d Denka Oteue Matsu","natural":"tree","type":"conifer","wood":"coniferous"}},"type":"Feature"},
	{"geometry":{"coordinates":[137.385569,34.731679],"type":"Point"},"properties":{"name":"\u00e9\u00ab\u0098\u00e5\u00b8\u00ab\u00e7\u00b7\u0091\u00e5\u009c\u00b0\u00e3\u0081\u00ae\u00e3\u0082\u00a2\u00e3\u0082\u00ab\u00e3\u0083\u009e\u00e3\u0083\u0084","osm_id":"4500551694","tag":{"genus":"Pinus","height":"9.3","leaf_cycle":"evergreen","leaf_type":"needleleaved","name:ja":"\u00e9\u00ab\u0098\u00e5\u00b8\u00ab\u00e7\u00b7\u0091\u00e5\u009c\u00b0\u00e3\u0081\u00ae\u00e3\u0082\u00a2\u00e3\u0082\u00ab\u00e3\u0083\u009e\u00e3\u0083\u0084","name:ja-Hira":"\u00e3\u0081\u009f\u00e3\u0081\u008b\u00e3\u0081\u0097\u00e3\u0082\u008a\u00e3\u0082\u0087\u00e3\u0081\u008f\u00e3\u0081\u00a1\u00e3\u0081\u00ae\u00e3\u0081\u0082\u00e3\u0081\u008b\u00e3\u0081\u00be\u00e3\u0081\u00a4","name:ja-Latn":"Takashi Ryokuchi no Akamatsu","natural":"tree","type":"conifer","wood":"coniferous"}},"type":"Feature"},
	{"geometry":{"coordinates":[137.380621,34.73299],"type":"Point"},"properties":{"osm_id":"4503867846","tag":{"natural":"tree"}},"type":"Feature"},
	{"geometry":{"coordinates":[137.381163,34.731206],"type":"Point"},"properties":{"osm_id":"4503868030","tag":{"natural":"tree"}},"type":"Feature"},
	{"geometry":{"coordinates":[137.381024,34.731116],"type":"Point"},"properties":{"osm_id":"4503868152","tag":{"natural":"tree"}},"type":"Feature"},
	{"geometry":{"coordinates":[137.384229,34.738416],"type":"Point"},"properties":{"osm_id":"4507193903","tag":{"natural":"tree"}},"type":"Feature"},
	{"geometry":{"coordinates":[137.384073,34.738526],"type":"Point"},"properties":{"osm_id":"4507193981","tag":{"natural":"tree"}},"type":"Feature"},
	{"geometry":{"coordinates":[137.384144,34.738584],"type":"Point"},"properties":{"osm_id":"4507194039","tag":{"natural":"tree"}},"type":"Feature"},
	{"geometry":{"coordinates":[137.381205,34.741478],"type":"Point"},"properties":{"osm_id":"4509728842","tag":{"natural":"tree"}},"type":"Feature"},
	{"geometry":{"coordinates":[137.38172,34.740861],"type":"Point"},"properties":{"osm_id":"4509728871","tag":{"natural":"tree"}},"type":"Feature"},
	{"geometry":{"coordinates":[137.3812,34.741566],"type":"Point"},"properties":{"osm_id":"4509729736","tag":{"natural":"tree"}},"type":"Feature"},
	{"geometry":{"coordinates":[137.410516,34.737876],"type":"Point"},"properties":{"osm_id":"5858748995","tag":{"denotation":"park","natural":"tree"}},"type":"Feature"},
	{"geometry":{"coordinates":[137.410539,34.737967],"type":"Point"},"properties":{"osm_id":"5858748996","tag":{"denotation":"park","natural":"tree"}},"type":"Feature"},
	{"geometry":{"coordinates":[137.410546,34.738047],"type":"Point"},"properties":{"osm_id":"5858748997","tag":{"denotation":"park","natural":"tree"}},"type":"Feature"},
	{"geometry":{"coordinates":[137.410908,34.738368],"type":"Point"},"properties":{"osm_id":"5858748998","tag":{"denotation":"park","natural":"tree"}},"type":"Feature"},
	{"geometry":{"coordinates":[137.410812,34.738322],"type":"Point"},"properties":{"osm_id":"5858748999","tag":{"denotation":"park","natural":"tree"}},"type":"Feature"},
	{"geometry":{"coordinates":[137.410728,34.73828],"type":"Point"},"properties":{"osm_id":"5858749000","tag":{"denotation":"park","natural":"tree"}},"type":"Feature"},
	{"geometry":{"coordinates":[137.410651,34.738233],"type":"Point"},"properties":{"osm_id":"5858749001","tag":{"denotation":"park","natural":"tree"}},"type":"Feature"},
	{"geometry":{"coordinates":[137.410643,34.738175],"type":"Point"},"properties":{"osm_id":"5858749002","tag":{"denotation":"park","natural":"tree"}},"type":"Feature"},
	{"geometry":{"coordinates":[137.413017,34.739087],"type":"Point"},"properties":{"osm_id":"5858785513","tag":{"natural":"tree"}},"type":"Feature"},
	{"geometry":{"coordinates":[137.412545,34.738965],"type":"Point"},"properties":{"osm_id":"5858785514","tag":{"natural":"tree"}},"type":"Feature"},
	{"geometry":{"coordinates":[137.412998,34.738981],"type":"Point"},"properties":{"osm_id":"5858785515","tag":{"natural":"tree"}},"type":"Feature"},
	{"geometry":{"coordinates":[137.412816,34.738646],"type":"Point"},"properties":{"osm_id":"5858785516","tag":{"natural":"tree"}},"type":"Feature"},
	{"geometry":{"coordinates":[137.412931,34.738672],"type":"Point"},"properties":{"osm_id":"5858785517","tag":{"natural":"tree"}},"type":"Feature"},
	{"geometry":{"coordinates":[137.41203,34.73813],"type":"Point"},"properties":{"osm_id":"5858785518","tag":{"natural":"tree"}},"type":"Feature"},
	{"geometry":{"coordinates":[137.410882,34.738494],"type":"Point"},"properties":{"osm_id":"5858785519","tag":{"denotation":"park","natural":"tree"}},"type":"Feature"},
	{"geometry":{"coordinates":[137.409187,34.738888],"type":"Point"},"properties":{"osm_id":"5858785532","tag":{"denotation":"park","natural":"tree"}},"type":"Feature"},
	{"geometry":{"coordinates":[137.409058,34.738776],"type":"Point"},"properties":{"osm_id":"5858785533","tag":{"denotation":"park","natural":"tree"}},"type":"Feature"},
	{"geometry":{"coordinates":[137.409018,34.738584],"type":"Point"},"properties":{"osm_id":"5858785534","tag":{"denotation":"park","natural":"tree"}},"type":"Feature"},
	{"geometry":{"coordinates":[137.408897,34.738445],"type":"Point"},"properties":{"osm_id":"5858785535","tag":{"denotation":"park","natural":"tree"}},"type":"Feature"},
	{"geometry":{"coordinates":[137.408962,34.738101],"type":"Point"},"properties":{"osm_id":"5858785536","tag":{"denotation":"park","natural":"tree"}},"type":"Feature"},
	{"geometry":{"coordinates":[137.408903,34.738304],"type":"Point"},"properties":{"osm_id":"5858785537","tag":{"denotation":"park","natural":"tree"}},"type":"Feature"},
	{"geometry":{"coordinates":[137.408793,34.738141],"type":"Point"},"properties":{"osm_id":"5858785538","tag":{"denotation":"park","natural":"tree"}},"type":"Feature"},
	{"geometry":{"coordinates":[137.408769,34.737515],"type":"Point"},"properties":{"osm_id":"5858785539","tag":{"denotation":"park","natural":"tree"}},"type":"Feature"},
	{"geometry":{"coordinates":[137.408353,34.737506],"type":"Point"},"properties":{"osm_id":"5858785540","tag":{"denotation":"park","natural":"tree"}},"type":"Feature"},
	{"geometry":{"coordinates":[137.410713,34.738839],"type":"Point"},"properties":{"osm_id":"5858785549","tag":{"denotation":"park","natural":"tree"}},"type":"Feature"},
	{"geometry":{"coordinates":[137.434919,34.720485],"type":"Point"},"properties":{"osm_id":"6172359310","tag":{"natural":"tree"}},"type":"Feature"},
	{"geometry":{"coordinates":[137.435031,34.720565],"type":"Point"},"properties":{"osm_id":"6172359311","tag":{"natural":"tree"}},"type":"Feature"},
	{"geometry":{"coordinates":[137.435256,34.720697],"type":"Point"},"properties":{"osm_id":"6172359312","tag":{"natural":"tree"}},"type":"Feature"},
	{"geometry":{"coordinates":[137.435158,34.720675],"type":"Point"},"properties":{"osm_id":"6172359313","tag":{"natural":"tree"}},"type":"Feature"},
	{"geometry":{"coordinates":[137.435495,34.720542],"type":"Point"},"properties":{"osm_id":"6172359314","tag":{"natural":"tree"}},"type":"Feature"},
	{"geometry":{"coordinates":[137.435613,34.720585],"type":"Point"},"properties":{"osm_id":"6172359315","tag":{"natural":"tree"}},"type":"Feature"},
	{"geometry":{"coordinates":[137.435519,34.720739],"type":"Point"},"properties":{"osm_id":"6172359316","tag":{"natural":"tree"}},"type":"Feature"},
	{"geometry":{"coordinates":[137.433925,34.71985],"type":"Point"},"properties":{"osm_id":"6187445502","tag":{"natural":"tree"}},"type":"Feature"},
	{"geometry":{"coordinates":[137.435221,34.720957],"type":"Point"},"properties":{"osm_id":"6202695777","tag":{"natural":"tree"}},"type":"Feature"},
	{"geometry":{"coordinates":[137.435191,34.721026],"type":"Point"},"properties":{"osm_id":"6202695778","tag":{"natural":"tree"}},"type":"Feature"},
	{"geometry":{"coordinates":[137.434113,34.721291],"type":"Point"},"properties":{"name":"\u00e3\u0082\u00aa\u00e3\u0082\u00aa\u00e3\u0082\u00b7\u00e3\u0083\u009e\u00e3\u0082\u00b6\u00e3\u0082\u00af\u00e3\u0083\u00a9","osm_id":"6202719790","tag":{"natural":"tree"}},"type":"Feature"},
	{"geometry":{"coordinates":[137.432531,34.720425],"type":"Point"},"properties":{"osm_id":"6204828131","tag":{"natural":"tree"}},"type":"Feature"},
	{"geometry":{"coordinates":[137.432623,34.720375],"type":"Point"},"properties":{"osm_id":"6204828132","tag":{"natural":"tree"}},"type":"Feature"},
	{"geometry":{"coordinates":[137.43269,34.720208],"type":"Point"},"properties":{"osm_id":"6204828133","tag":{"natural":"tree"}},"type":"Feature"},
	{"geometry":{"coordinates":[137.432652,34.720124],"type":"Point"},"properties":{"osm_id":"6204828134","tag":{"natural":"tree"}},"type":"Feature"},
	{"geometry":{"coordinates":[137.432573,34.720061],"type":"Point"},"properties":{"osm_id":"6204828135","tag":{"natural":"tree"}},"type":"Feature"},
	{"geometry":{"coordinates":[137.432469,34.720033],"type":"Point"},"properties":{"osm_id":"6204828136","tag":{"natural":"tree"}},"type":"Feature"},
	{"geometry":{"coordinates":[137.43236,34.720044],"type":"Point"},"properties":{"osm_id":"6204828137","tag":{"natural":"tree"}},"type":"Feature"},
	{"geometry":{"coordinates":[137.432268,34.720094],"type":"Point"},"properties":{"osm_id":"6204828138","tag":{"natural":"tree"}},"type":"Feature"},
	{"geometry":{"coordinates":[137.432201,34.720261],"type":"Point"},"properties":{"osm_id":"6204828139","tag":{"natural":"tree"}},"type":"Feature"},
	{"geometry":{"coordinates":[137.432239,34.720346],"type":"Point"},"properties":{"osm_id":"6204828140","tag":{"natural":"tree"}},"type":"Feature"},
	{"geometry":{"coordinates":[137.432318,34.720408],"type":"Point"},"properties":{"osm_id":"6204828141","tag":{"natural":"tree"}},"type":"Feature"},
	{"geometry":{"coordinates":[137.432423,34.720437],"type":"Point"},"properties":{"osm_id":"6204828142","tag":{"natural":"tree"}},"type":"Feature"},
	{"geometry":{"coordinates":[137.43541,34.720019],"type":"Point"},"properties":{"osm_id":"6206982357","tag":{"natural":"tree"}},"type":"Feature"},
	{"geometry":{"coordinates":[137.43567,34.72003],"type":"Point"},"properties":{"osm_id":"6206982358","tag":{"natural":"tree"}},"type":"Feature"},
	{"geometry":{"coordinates":[137.43552,34.720289],"type":"Point"},"properties":{"osm_id":"6206982359","tag":{"natural":"tree"}},"type":"Feature"},
	{"geometry":{"coordinates":[137.434916,34.719467],"type":"Point"},"properties":{"osm_id":"6206982988","tag":{"natural":"tree"}},"type":"Feature"},
	{"geometry":{"coordinates":[137.43485,34.719661],"type":"Point"},"properties":{"osm_id":"6206982989","tag":{"natural":"tree"}},"type":"Feature"},
	{"geometry":{"coordinates":[137.434805,34.719581],"type":"Point"},"properties":{"osm_id":"6206982990","tag":{"natural":"tree"}},"type":"Feature"},
	{"geometry":{"coordinates":[137.434997,34.719503],"type":"Point"},"properties":{"osm_id":"6206982991","tag":{"natural":"tree"}},"type":"Feature"},
	{"geometry":{"coordinates":[137.435038,34.719427],"type":"Point"},"properties":{"osm_id":"6206982992","tag":{"natural":"tree"}},"type":"Feature"},
	{"geometry":{"coordinates":[137.434958,34.720475],"type":"Point"},"properties":{"osm_id":"6206983600","tag":{"natural":"tree"}},"type":"Feature"},
	{"geometry":{"coordinates":[137.433488,34.719189],"type":"Point"},"properties":{"osm_id":"6206983613","tag":{"natural":"tree"}},"type":"Feature"},
	{"geometry":{"coordinates":[137.433621,34.719301],"type":"Point"},"properties":{"osm_id":"6206983614","tag":{"natural":"tree"}},"type":"Feature"},
	{"geometry":{"coordinates":[137.433708,34.71942],"type":"Point"},"properties":{"osm_id":"6206983615","tag":{"natural":"tree"}},"type":"Feature"},
	{"geometry":{"coordinates":[137.43381,34.719404],"type":"Point"},"properties":{"osm_id":"6206983616","tag":{"natural":"tree"}},"type":"Feature"},
	{"geometry":{"coordinates":[137.433726,34.719749],"type":"Point"},"properties":{"osm_id":"6206983617","tag":{"natural":"tree"}},"type":"Feature"},
	{"geometry":{"coordinates":[137.434051,34.71954],"type":"Point"},"properties":{"osm_id":"6206983618","tag":{"natural":"tree"}},"type":"Feature"},
	{"geometry":{"coordinates":[137.434107,34.719627],"type":"Point"},"properties":{"osm_id":"6206983619","tag":{"natural":"tree"}},"type":"Feature"},
	{"geometry":{"coordinates":[137.433952,34.7197],"type":"Point"},"properties":{"osm_id":"6206983620","tag":{"natural":"tree"}},"type":"Feature"},
	{"geometry":{"coordinates":[137.433877,34.719637],"type":"Point"},"properties":{"osm_id":"6206983621","tag":{"natural":"tree"}},"type":"Feature"},
	{"geometry":{"coordinates":[137.434617,34.719797],"type":"Point"},"properties":{"osm_id":"6206984024","tag":{"natural":"tree"}},"type":"Feature"},
	{"geometry":{"coordinates":[137.434461,34.719566],"type":"Point"},"properties":{"osm_id":"6206984047","tag":{"natural":"tree"}},"type":"Feature"},
	{"geometry":{"coordinates":[137.434745,34.720273],"type":"Point"},"properties":{"osm_id":"6206984048","tag":{"natural":"tree"}},"type":"Feature"},
	{"geometry":{"coordinates":[137.434294,34.720551],"type":"Point"},"properties":{"osm_id":"6206984049","tag":{"natural":"tree"}},"type":"Feature"},
	{"geometry":{"coordinates":[137.448955,34.725796],"type":"Point"},"properties":{"osm_id":"7215637864","tag":{"natural":"tree"}},"type":"Feature"},
	{"geometry":{"coordinates":[137.448919,34.725931],"type":"Point"},"properties":{"osm_id":"7215637865","tag":{"natural":"tree"}},"type":"Feature"}
]
}
