{
"type": "FeatureCollection",
"features": [
	{"geometry":{"coordinates":[-75.239355,40.004761],"type":"Point"},"properties":{"highway":"turning_circle","osm_id":"638863211"},"type":"Feature"},
	{"geometry":{"coordinates":[-75.238414,40.039986],"type":"Point"},"properties":{"name":"Northwest Drop-Off Center","osm_id":"3648076785","tag":{"addr:street":"Domino Lane","amenity":"recycling","opening_hours":"Mo-Sa 08:00-18:00","recycling:computers":"yes","recycling:tv_monitor":"yes","recycling_type":"centre"}},"type":"Feature"},
	{"geometry":{"coordinates":[-75.278832,40.023015],"type":"Point"},"properties":{"osm_id":"5759019148","tag":{"amenity":"waste_basket","waste":"dog_excrement"}},"type":"Feature"},
	{"geometry":{"coordinates":[-75.27833,40.023103],"type":"Point"},"properties":{"osm_id":"5759030810","tag":{"amenity":"waste_basket","waste":"dog_excrement"}},"type":"Feature"},
	{"geometry":{"coordinates":[-75.302063,40.004401],"type":"Point"},"properties":{"osm_id":"7734817295","tag":{"amenity":"waste_disposal"}},"type":"Feature"},
	{"geometry":{"coordinates":[-75.302549,40.005222],"type":"Point"},"properties":{"osm_id":"7734817296","tag":{"amenity":"waste_disposal"}},"type":"Feature"},
	{"geometry":{"coordinates":[-75.303152,40.005758],"type":"Point"},"properties":{"osm_id":"7734817297","tag":{"amenity":"waste_disposal"}},"type":"Feature"},
	{"geometry":{"coordinates":[-75.303372,40.0057],"type":"Point"},"properties":{"osm_id":"7734817298","tag":{"amenity":"waste_disposal"}},"type":"Feature"},
	{"geometry":{"coordinates":[-75.305064,40.004753],"type":"Point"},"properties":{"osm_id":"7734817299","tag":{"amenity":"waste_disposal"}},"type":"Feature"},
	{"geometry":{"coordinates":[-75.304563,40.004123],"type":"Point"},"properties":{"osm_id":"7734817300","tag":{"amenity":"waste_disposal"}},"type":"Feature"},
	{"geometry":{"coordinates":[-75.304743,40.005142],"type":"Point"},"properties":{"osm_id":"7734817301","tag":{"amenity":"waste_disposal"}},"type":"Feature"},
	{"geometry":{"coordinates":[-75.303909,40.005481],"type":"Point"},"properties":{"osm_id":"7734817302","tag":{"amenity":"waste_disposal"}},"type":"Feature"},
	{"geometry":{"coordinates":[-75.306924,40.01159],"type":"Point"},"properties":{"osm_id":"7741514645","tag":{"amenity":"waste_basket"}},"type":"Feature"}
]
}
