{
"type": "FeatureCollection",
"features": [
	{"geometry":{"coordinates":[6.797075,52.203043],"type":"Point"},"properties":{"osm_id":"1825827279","tag":{"amenity":"recycling","recycling:clothes":"yes","recycling:plastic":"yes","recycling_type":"container"}},"type":"Feature"},
	{"geometry":{"coordinates":[6.796996,52.203175],"type":"Point"},"properties":{"osm_id":"1825827280","tag":{"amenity":"recycling","recycling:glass":"yes","recycling_type":"container"}},"type":"Feature"},
	{"geometry":{"coordinates":[6.791148,52.166104],"type":"Point"},"properties":{"osm_id":"2143240638","tag":{"amenity":"waste_basket"}},"type":"Feature"},
	{"geometry":{"coordinates":[6.778099,52.187068],"type":"Point"},"properties":{"osm_id":"2396740021","tag":{"amenity":"waste_basket"}},"type":"Feature"},
	{"geometry":{"coordinates":[6.827721,52.181195],"type":"Point"},"properties":{"osm_id":"2493145053","tag":{"amenity":"waste_basket"}},"type":"Feature"},
	{"geometry":{"coordinates":[6.806952,52.198196],"type":"Point"},"properties":{"osm_id":"2542303720","tag":{"amenity":"waste_basket"}},"type":"Feature"},
	{"geometry":{"coordinates":[6.787666,52.213412],"type":"Point"},"properties":{"osm_id":"2562132717","tag":{"amenity":"waste_basket"}},"type":"Feature"},
	{"geometry":{"coordinates":[6.842876,52.179398],"type":"Point"},"properties":{"osm_id":"3565289021","tag":{"amenity":"waste_basket"}},"type":"Feature"},
	{"geometry":{"coordinates":[6.815982,52.172704],"type":"Point"},"properties":{"osm_id":"3806634437","tag":{"amenity":"waste_basket"}},"type":"Feature"},
	{"geometry":{"coordinates":[6.790577,52.201438],"type":"Point"},"properties":{"osm_id":"3980728883","tag":{"amenity":"waste_basket"}},"type":"Feature"},
	{"geometry":{"coordinates":[6.840155,52.176643],"type":"Point"},"properties":{"osm_id":"4107276900","tag":{"amenity":"waste_basket"}},"type":"Feature"},
	{"geometry":{"coordinates":[6.838972,52.176691],"type":"Point"},"properties":{"osm_id":"4107281391","tag":{"amenity":"waste_basket"}},"type":"Feature"},
	{"geometry":{"coordinates":[6.836421,52.173165],"type":"Point"},"properties":{"osm_id":"4218949423","tag":{"amenity":"waste_basket","colour":"yellow"}},"type":"Feature"},
	{"geometry":{"coordinates":[6.836575,52.173287],"type":"Point"},"properties":{"osm_id":"4218949425","tag":{"amenity":"waste_basket"}},"type":"Feature"},
	{"geometry":{"coordinates":[6.836027,52.175319],"type":"Point"},"properties":{"osm_id":"4218949427","tag":{"amenity":"waste_basket","colour":"yellow"}},"type":"Feature"},
	{"geometry":{"coordinates":[6.833514,52.176164],"type":"Point"},"properties":{"osm_id":"4218949431","tag":{"amenity":"waste_basket","colour":"yellow"}},"type":"Feature"},
	{"geometry":{"coordinates":[6.83171,52.176566],"type":"Point"},"properties":{"osm_id":"4274053901","tag":{"amenity":"waste_basket"}},"type":"Feature"},
	{"geometry":{"coordinates":[6.831815,52.177209],"type":"Point"},"properties":{"osm_id":"4274053902","tag":{"amenity":"waste_basket"}},"type":"Feature"},
	{"geometry":{"coordinates":[6.803026,52.212832],"type":"Point"},"properties":{"osm_id":"4348900206","tag":{"amenity":"waste_basket"}},"type":"Feature"},
	{"geometry":{"coordinates":[6.786293,52.192393],"type":"Point"},"properties":{"osm_id":"5120418184","tag":{"amenity":"waste_basket"}},"type":"Feature"},
	{"geometry":{"coordinates":[6.834014,52.177873],"type":"Point"},"properties":{"osm_id":"6698722379","tag":{"amenity":"waste_basket","colour":"red","waste":"trash"}},"type":"Feature"},
	{"geometry":{"coordinates":[6.836195,52.173024],"type":"Point"},"properties":{"osm_id":"6698787786","tag":{"amenity":"waste_basket","waste":"trash"}},"type":"Feature"},
	{"geometry":{"coordinates":[6.844974,52.181294],"type":"Point"},"properties":{"osm_id":"6698787789","tag":{"amenity":"waste_basket","colour":"brown","waste":"trash"}},"type":"Feature"},
	{"geometry":{"coordinates":[6.84266,52.183434],"type":"Point"},"properties":{"osm_id":"6698787795","tag":{"amenity":"waste_basket","colour":"green","waste":"trash"}},"type":"Feature"},
	{"geometry":{"coordinates":[6.842104,52.183846],"type":"Point"},"properties":{"osm_id":"6698787797","tag":{"amenity":"waste_basket","colour":"green","waste":"trash"}},"type":"Feature"},
	{"geometry":{"coordinates":[6.841776,52.183279],"type":"Point"},"properties":{"osm_id":"6698787798","tag":{"amenity":"waste_basket","colour":"green","waste":"trash"}},"type":"Feature"},
	{"geometry":{"coordinates":[6.841119,52.182902],"type":"Point"},"properties":{"osm_id":"6698787800","tag":{"amenity":"waste_basket","colour":"green","waste":"trash"}},"type":"Feature"},
	{"geometry":{"coordinates":[6.840057,52.182755],"type":"Point"},"properties":{"osm_id":"6698787802","tag":{"amenity":"waste_basket","colour":"green","waste":"trash"}},"type":"Feature"},
	{"geometry":{"coordinates":[6.840352,52.182402],"type":"Point"},"properties":{"osm_id":"6698787805","tag":{"amenity":"waste_basket","colour":"green","waste":"trash"}},"type":"Feature"},
	{"geometry":{"coordinates":[6.840686,52.181732],"type":"Point"},"properties":{"osm_id":"6698787807","tag":{"amenity":"waste_basket","colour":"green","waste":"trash"}},"type":"Feature"},
	{"geometry":{"coordinates":[6.840981,52.18085],"type":"Point"},"properties":{"osm_id":"6698787809","tag":{"amenity":"waste_basket","colour":"purple","waste":"trash"}},"type":"Feature"},
	{"geometry":{"coordinates":[6.83977,52.18073],"type":"Point"},"properties":{"osm_id":"6698787812","tag":{"amenity":"waste_basket","colour":"purple","waste":"trash"}},"type":"Feature"},
	{"geometry":{"coordinates":[6.838763,52.180777],"type":"Point"},"properties":{"osm_id":"6698787820","tag":{"amenity":"waste_basket","colour":"purple","waste":"trash"}},"type":"Feature"},
	{"geometry":{"coordinates":[6.838256,52.180694],"type":"Point"},"properties":{"osm_id":"6698787824","tag":{"amenity":"waste_basket","colour":"purple","waste":"trash"}},"type":"Feature"},
	{"geometry":{"coordinates":[6.838601,52.180396],"type":"Point"},"properties":{"osm_id":"6698787828","tag":{"amenity":"waste_basket","colour":"purple","waste":"trash"}},"type":"Feature"},
	{"geometry":{"coordinates":[6.839308,52.179837],"type":"Point"},"properties":{"osm_id":"6698787829","tag":{"amenity":"waste_basket","colour":"purple","waste":"trash"}},"type":"Feature"},
	{"geometry":{"coordinates":[6.839831,52.179035],"type":"Point"},"properties":{"osm_id":"6698787832","tag":{"amenity":"waste_basket","colour":"purple","waste":"trash"}},"type":"Feature"},
	{"geometry":{"coordinates":[6.83793,52.179303],"type":"Point"},"properties":{"osm_id":"6698787835","tag":{"amenity":"waste_basket","colour":"blue","waste":"trash"}},"type":"Feature"},
	{"geometry":{"coordinates":[6.837779,52.177929],"type":"Point"},"properties":{"osm_id":"6698787836","tag":{"amenity":"waste_basket","colour":"blue","waste":"trash"}},"type":"Feature"},
	{"geometry":{"coordinates":[6.836755,52.18104],"type":"Point"},"properties":{"osm_id":"6700067864","tag":{"amenity":"waste_basket","colour":"blue","waste":"trash"}},"type":"Feature"},
	{"geometry":{"coordinates":[6.838024,52.179915],"type":"Point"},"properties":{"osm_id":"6700067877","tag":{"amenity":"waste_basket","colour":"blue","waste":"trash"}},"type":"Feature"},
	{"geometry":{"coordinates":[6.838308,52.179967],"type":"Point"},"properties":{"osm_id":"6700067879","tag":{"amenity":"waste_basket","colour":"blue","waste":"trash"}},"type":"Feature"},
	{"geometry":{"coordinates":[6.838484,52.179876],"type":"Point"},"properties":{"osm_id":"6700067881","tag":{"amenity":"waste_basket","colour":"blue","waste":"trash"}},"type":"Feature"},
	{"geometry":{"coordinates":[6.83859,52.179633],"type":"Point"},"properties":{"osm_id":"6700067883","tag":{"amenity":"waste_basket","colour":"blue","waste":"trash"}},"type":"Feature"},
	{"geometry":{"coordinates":[6.838053,52.179586],"type":"Point"},"properties":{"osm_id":"6700111085","tag":{"amenity":"waste_basket","colour":"blue","waste":"trash"}},"type":"Feature"},
	{"geometry":{"coordinates":[6.837188,52.179906],"type":"Point"},"properties":{"osm_id":"6700111089","tag":{"amenity":"waste_basket","colour":"blue","waste":"trash"}},"type":"Feature"},
	{"geometry":{"coordinates":[6.837192,52.180233],"type":"Point"},"properties":{"osm_id":"6700111092","tag":{"amenity":"waste_basket","colour":"blue","waste":"trash"}},"type":"Feature"},
	{"geometry":{"coordinates":[6.836661,52.180264],"type":"Point"},"properties":{"osm_id":"6700111093","tag":{"amenity":"waste_basket","colour":"blue","waste":"trash"}},"type":"Feature"},
	{"geometry":{"coordinates":[6.835824,52.180156],"type":"Point"},"properties":{"osm_id":"6700111095","tag":{"amenity":"waste_basket","colour":"blue","waste":"trash"}},"type":"Feature"},
	{"geometry":{"coordinates":[6.834886,52.179759],"type":"Point"},"properties":{"osm_id":"6700111099","tag":{"amenity":"waste_basket","colour":"blue","waste":"trash"}},"type":"Feature"},
	{"geometry":{"coordinates":[6.833933,52.180535],"type":"Point"},"properties":{"osm_id":"6700111101","tag":{"amenity":"waste_basket","colour":"red"}},"type":"Feature"},
	{"geometry":{"coordinates":[6.832651,52.180563],"type":"Point"},"properties":{"osm_id":"6700111105","tag":{"amenity":"waste_basket","colour":"red","waste":"trash"}},"type":"Feature"},
	{"geometry":{"coordinates":[6.832396,52.180379],"type":"Point"},"properties":{"osm_id":"6700111106","tag":{"amenity":"waste_basket","colour":"red","waste":"trash"}},"type":"Feature"},
	{"geometry":{"coordinates":[6.831793,52.180259],"type":"Point"},"properties":{"osm_id":"6700111109","tag":{"amenity":"waste_basket","colour":"red","waste":"trash"}},"type":"Feature"},
	{"geometry":{"coordinates":[6.831023,52.180106],"type":"Point"},"properties":{"osm_id":"6700111111","tag":{"amenity":"waste_basket","colour":"red","waste":"trash"}},"type":"Feature"},
	{"geometry":{"coordinates":[6.830626,52.179042],"type":"Point"},"properties":{"osm_id":"6700111116","tag":{"amenity":"waste_basket","colour":"red","waste":"trash"}},"type":"Feature"},
	{"geometry":{"coordinates":[6.832001,52.178213],"type":"Point"},"properties":{"osm_id":"6700111119","tag":{"amenity":"waste_basket","colour":"red","waste":"trash"}},"type":"Feature"},
	{"geometry":{"coordinates":[6.834707,52.182458],"type":"Point"},"properties":{"osm_id":"6709973371","tag":{"amenity":"waste_basket","waste":"trash"}},"type":"Feature"}
]
}
