{
"type": "FeatureCollection",
"features": [
	{"geometry":{"coordinates":[6.807881,51.884104],"type":"Point"},"properties":{"osm_id":"540356122","tag":{"amenity":"recycling","recycling:glass":"yes"}},"type":"Feature"},
	{"geometry":{"coordinates":[6.832191,51.836093],"type":"Point"},"properties":{"osm_id":"599187915","tag":{"amenity":"recycling","recycling:clothes":"yes","recycling:glass_bottles":"yes","recycling_type":"container"}},"type":"Feature"},
	{"geometry":{"coordinates":[6.839919,51.836067],"type":"Point"},"properties":{"osm_id":"624231536","ref":"Glas, Altkleider","tag":{"amenity":"recycling","recycling:clothes":"yes","recycling:glass_bottles":"yes","recycling_type":"container"}},"type":"Feature"},
	{"geometry":{"coordinates":[6.842404,51.846024],"type":"Point"},"properties":{"osm_id":"5226391672","tag":{"amenity":"recycling","recycling:clothes":"yes","recycling:glass_bottles":"yes","recycling_type":"container"}},"type":"Feature"},
	{"geometry":{"coordinates":[6.85404,51.851758],"type":"Point"},"properties":{"osm_id":"7065257112","tag":{"amenity":"waste_basket"}},"type":"Feature"},
	{"geometry":{"coordinates":[6.854606,51.851233],"type":"Point"},"properties":{"osm_id":"7065257114","tag":{"amenity":"waste_basket"}},"type":"Feature"},
	{"geometry":{"coordinates":[6.854137,51.851018],"type":"Point"},"properties":{"osm_id":"7065257117","tag":{"amenity":"waste_basket"}},"type":"Feature"},
	{"geometry":{"coordinates":[6.852896,51.848133],"type":"Point"},"properties":{"osm_id":"7065257120","tag":{"amenity":"waste_basket"}},"type":"Feature"},
	{"geometry":{"coordinates":[6.853672,51.843353],"type":"Point"},"properties":{"osm_id":"7065257142","tag":{"amenity":"waste_basket","waste":"dog_excrement"}},"type":"Feature"},
	{"geometry":{"coordinates":[6.85453,51.856051],"type":"Point"},"properties":{"osm_id":"8081163741","tag":{"amenity":"waste_basket"}},"type":"Feature"},
	{"geometry":{"coordinates":[6.854079,51.83808],"type":"Point"},"properties":{"osm_id":"8085308816","tag":{"amenity":"waste_basket"}},"type":"Feature"},
	{"geometry":{"coordinates":[6.853766,51.856151],"type":"Point"},"properties":{"osm_id":"8259421396","tag":{"amenity":"waste_basket"}},"type":"Feature"},
	{"geometry":{"coordinates":[6.85398,51.856212],"type":"Point"},"properties":{"osm_id":"8259421397","tag":{"amenity":"waste_basket"}},"type":"Feature"},
	{"geometry":{"coordinates":[6.854097,51.856482],"type":"Point"},"properties":{"osm_id":"8259421398","tag":{"amenity":"waste_basket"}},"type":"Feature"},
	{"geometry":{"coordinates":[6.854414,51.856995],"type":"Point"},"properties":{"osm_id":"8259450741","tag":{"amenity":"waste_basket"}},"type":"Feature"}
]
}
