{
"type": "FeatureCollection",
"features": [
	{"geometry":{"coordinates":[6.851401,51.539467],"type":"Point"},"properties":{"osm_id":"264488767","tag":{"amenity":"recycling","recycling:glass_bottles":"yes","recycling_type":"container"}},"type":"Feature"},
	{"geometry":{"coordinates":[6.842787,51.53141],"type":"Point"},"properties":{"osm_id":"313688049","tag":{"amenity":"recycling","recycling:cartons":"yes","recycling:clothes":"yes","recycling:glass_bottles":"yes","recycling:paper":"yes","recycling:paper_packaging":"yes","recycling_type":"container"}},"type":"Feature"},
	{"geometry":{"coordinates":[6.78497,51.556904],"type":"Point"},"properties":{"osm_id":"429843605","tag":{"amenity":"recycling","recycling:glass":"yes"}},"type":"Feature"},
	{"geometry":{"coordinates":[6.779948,51.54888],"type":"Point"},"properties":{"osm_id":"461849949","tag":{"amenity":"recycling","recycling:glass":"yes","recycling_type":"container"}},"type":"Feature"},
	{"geometry":{"coordinates":[6.837203,51.522846],"type":"Point"},"properties":{"osm_id":"1305192751","tag":{"amenity":"waste_basket"}},"type":"Feature"},
	{"geometry":{"coordinates":[6.842338,51.516748],"type":"Point"},"properties":{"osm_id":"1305193082","tag":{"amenity":"waste_basket"}},"type":"Feature"},
	{"geometry":{"coordinates":[6.838657,51.521714],"type":"Point"},"properties":{"osm_id":"1305193103","tag":{"amenity":"waste_basket"}},"type":"Feature"},
	{"geometry":{"coordinates":[6.81406,51.560209],"type":"Point"},"properties":{"osm_id":"1477952706","tag":{"amenity":"recycling","recycling:clothes":"yes","recycling_type":"container"}},"type":"Feature"},
	{"geometry":{"coordinates":[6.813041,51.556053],"type":"Point"},"properties":{"osm_id":"1690712936","tag":{"amenity":"recycling","recycling_type":"container"}},"type":"Feature"},
	{"geometry":{"coordinates":[6.825016,51.547328],"type":"Point"},"properties":{"osm_id":"1690712947","tag":{"amenity":"recycling","recycling:batteries":"no","recycling:books":"yes","recycling:cans":"no","recycling:cartons":"yes","recycling:clothes":"no","recycling:electrical_appliances":"no","recycling:glass":"yes","recycling:glass_bottles":"yes","recycling:green_waste":"no","recycling:magazines":"yes","recycling:newspaper":"yes","recycling:paper":"yes","recycling:paper_packaging":"yes","recycling:plastic":"no","recycling:plastic_bottles":"no","recycling:plastic_packaging":"no","recycling:scrap_metal":"no","recycling:small_appliances":"no","recycling:waste":"no","recycling:wood":"no","recycling_type":"container"}},"type":"Feature"},
	{"geometry":{"coordinates":[6.827743,51.544704],"type":"Point"},"properties":{"osm_id":"1690712949","tag":{"amenity":"recycling","recycling:glass_bottles":"yes","recycling_type":"container"}},"type":"Feature"},
	{"geometry":{"coordinates":[6.785639,51.541624],"type":"Point"},"properties":{"osm_id":"1701453325","tag":{"amenity":"recycling","check_date":"2021-08-14","recycling:glass":"yes","recycling_type":"container"}},"type":"Feature"},
	{"geometry":{"coordinates":[6.793017,51.527583],"type":"Point"},"properties":{"osm_id":"1702480650","tag":{"amenity":"recycling","recycling:clothes":"yes","recycling:glass":"yes","recycling:paper":"yes","recycling_type":"container"}},"type":"Feature"},
	{"geometry":{"coordinates":[6.775165,51.525186],"type":"Point"},"properties":{"osm_id":"1707679643","tag":{"amenity":"recycling","recycling:clothes":"yes","recycling:glass":"yes","recycling:paper":"yes","recycling_type":"container"}},"type":"Feature"},
	{"geometry":{"coordinates":[6.844157,51.551878],"type":"Point"},"properties":{"osm_id":"1819469124","tag":{"amenity":"recycling","recycling_type":"container"}},"type":"Feature"},
	{"geometry":{"coordinates":[6.841585,51.555512],"type":"Point"},"properties":{"osm_id":"1819469125","tag":{"amenity":"recycling","recycling_type":"container"}},"type":"Feature"},
	{"geometry":{"coordinates":[6.769845,51.52816],"type":"Point"},"properties":{"osm_id":"1837545989","tag":{"amenity":"waste_basket"}},"type":"Feature"},
	{"geometry":{"coordinates":[6.829911,51.554053],"type":"Point"},"properties":{"osm_id":"2339820080","tag":{"amenity":"recycling","recycling:batteries":"no","recycling:books":"no","recycling:cans":"no","recycling:cardboard":"no","recycling:cartons":"no","recycling:clothes":"no","recycling:electrical_appliances":"no","recycling:glass":"yes","recycling:glass_bottles":"yes","recycling:green_waste":"no","recycling:magazines":"no","recycling:newspaper":"no","recycling:paper":"no","recycling:paper_packaging":"no","recycling:plastic":"no","recycling:plastic_bottles":"no","recycling:plastic_packaging":"no","recycling:scrap_metal":"no","recycling:small_appliances":"no","recycling:waste":"no","recycling:wood":"no","recycling_type":"container"}},"type":"Feature"},
	{"geometry":{"coordinates":[6.851456,51.515374],"type":"Point"},"properties":{"osm_id":"2828420220","tag":{"amenity":"recycling","recycling:paper":"yes"}},"type":"Feature"},
	{"geometry":{"coordinates":[6.795589,51.543882],"type":"Point"},"properties":{"osm_id":"4622274740","tag":{"amenity":"waste_basket"}},"type":"Feature"},
	{"geometry":{"coordinates":[6.812183,51.534948],"type":"Point"},"properties":{"osm_id":"4909336060","tag":{"amenity":"recycling","recycling:cardboard":"yes","recycling:glass_bottles":"yes","recycling:paper":"yes","recycling_type":"container"}},"type":"Feature"},
	{"geometry":{"coordinates":[6.84547,51.518921],"type":"Point"},"properties":{"osm_id":"6441306443","tag":{"amenity":"recycling","recycling:glass_bottles":"yes","recycling_type":"container"}},"type":"Feature"},
	{"geometry":{"coordinates":[6.774788,51.510812],"type":"Point"},"properties":{"osm_id":"6681959182","tag":{"amenity":"recycling","material":"glass","recycling_type":"container"}},"type":"Feature"},
	{"geometry":{"coordinates":[6.837107,51.517111],"type":"Point"},"properties":{"osm_id":"7204359930","tag":{"amenity":"recycling","material":"metal","operator":"Wirtschaftsbetriebe Oberhausen GmbH","operator:short":"WBO","recycling:cardboard":"yes","recycling:clothes":"yes","recycling:glass_bottles":"yes","recycling:paper":"yes","recycling_type":"container"}},"type":"Feature"},
	{"geometry":{"coordinates":[6.778076,51.538006],"type":"Point"},"properties":{"osm_id":"7549176377","tag":{"amenity":"recycling","operator":"Stadt Dinslaken","recycling:clothes":"yes","recycling_type":"container"}},"type":"Feature"},
	{"geometry":{"coordinates":[6.778058,51.53798],"type":"Point"},"properties":{"osm_id":"7549176378","tag":{"amenity":"recycling","recycling:glass_bottles":"yes","recycling_type":"container"}},"type":"Feature"},
	{"geometry":{"coordinates":[6.76914,51.534913],"type":"Point"},"properties":{"osm_id":"7549197424","tag":{"amenity":"recycling","recycling:clothes":"yes","recycling_type":"container"}},"type":"Feature"},
	{"geometry":{"coordinates":[6.830188,51.559061],"type":"Point"},"properties":{"osm_id":"7551675424","tag":{"amenity":"recycling","recycling:glass_bottles":"yes","recycling_type":"container"}},"type":"Feature"},
	{"geometry":{"coordinates":[6.830144,51.559071],"type":"Point"},"properties":{"osm_id":"7551675425","tag":{"amenity":"recycling","recycling:clothes":"yes","recycling_type":"container"}},"type":"Feature"},
	{"geometry":{"coordinates":[6.827775,51.544726],"type":"Point"},"properties":{"osm_id":"7551687047","tag":{"amenity":"recycling","recycling:clothes":"yes","recycling_type":"container"}},"type":"Feature"},
	{"geometry":{"coordinates":[6.824899,51.547372],"type":"Point"},"properties":{"osm_id":"7551720743","tag":{"amenity":"recycling","recycling:clothes":"yes","recycling_type":"container"}},"type":"Feature"},
	{"geometry":{"coordinates":[6.791574,51.547314],"type":"Point"},"properties":{"osm_id":"7951342979","tag":{"amenity":"recycling","recycling:clothes":"yes","recycling:glass_bottles":"yes","recycling_type":"container"}},"type":"Feature"},
	{"geometry":{"coordinates":[6.769785,51.527846],"type":"Point"},"properties":{"osm_id":"8149177554","tag":{"amenity":"waste_basket"}},"type":"Feature"},
	{"geometry":{"coordinates":[6.769903,51.527772],"type":"Point"},"properties":{"osm_id":"8149183303","tag":{"amenity":"waste_basket"}},"type":"Feature"},
	{"geometry":{"coordinates":[6.827928,51.544007],"type":"Point"},"properties":{"osm_id":"8236878122","tag":{"amenity":"waste_disposal","operator":"WBO","waste":"recycling"}},"type":"Feature"},
	{"geometry":{"coordinates":[6.82795,51.544004],"type":"Point"},"properties":{"osm_id":"8236878123","tag":{"amenity":"waste_disposal","operator":"WBO","waste":"recycling"}},"type":"Feature"},
	{"geometry":{"coordinates":[6.827877,51.544015],"type":"Point"},"properties":{"osm_id":"8236878124","tag":{"amenity":"waste_disposal","operator":"WBO","waste":"household"}},"type":"Feature"},
	{"geometry":{"coordinates":[6.827994,51.543977],"type":"Point"},"properties":{"osm_id":"8236891723","tag":{"amenity":"waste_disposal","operator":"WBO","waste":"papier"}},"type":"Feature"},
	{"geometry":{"coordinates":[6.82799,51.543992],"type":"Point"},"properties":{"osm_id":"8236891724","tag":{"amenity":"waste_disposal","operator":"WBO","waste":"papier"}},"type":"Feature"},
	{"geometry":{"coordinates":[6.827971,51.543998],"type":"Point"},"properties":{"osm_id":"8236891725","tag":{"amenity":"waste_disposal","operator":"WBO","waste":"household"}},"type":"Feature"},
	{"geometry":{"coordinates":[6.834557,51.547009],"type":"Point"},"properties":{"osm_id":"8314961874","tag":{"amenity":"recycling","recycling:glass_bottles":"yes","recycling_type":"container"}},"type":"Feature"},
	{"geometry":{"coordinates":[6.834625,51.547032],"type":"Point"},"properties":{"osm_id":"8314961875","tag":{"amenity":"recycling","recycling:clothes":"yes","recycling_type":"container"}},"type":"Feature"},
	{"geometry":{"coordinates":[6.854013,51.532599],"type":"Point"},"properties":{"osm_id":"8314961876","tag":{"amenity":"recycling","recycling:glass_bottles":"yes","recycling_type":"container"}},"type":"Feature"},
	{"geometry":{"coordinates":[6.849994,51.529132],"type":"Point"},"properties":{"osm_id":"8314961877","tag":{"amenity":"recycling","recycling:glass_bottles":"yes","recycling_type":"container"}},"type":"Feature"},
	{"geometry":{"coordinates":[6.831273,51.529875],"type":"Point"},"properties":{"osm_id":"8315209158","tag":{"amenity":"recycling","recycling:glass_bottles":"yes","recycling_type":"container"}},"type":"Feature"},
	{"geometry":{"coordinates":[6.836558,51.531919],"type":"Point"},"properties":{"osm_id":"8315209159","tag":{"amenity":"recycling","recycling:glass_bottles":"yes","recycling_type":"container"}},"type":"Feature"},
	{"geometry":{"coordinates":[6.811718,51.542681],"type":"Point"},"properties":{"osm_id":"8315209160","tag":{"amenity":"recycling","recycling:glass_bottles":"yes","recycling_type":"container"}},"type":"Feature"},
	{"geometry":{"coordinates":[6.80112,51.537297],"type":"Point"},"properties":{"osm_id":"8315209161","tag":{"amenity":"recycling","recycling:glass_bottles":"yes","recycling_type":"container"}},"type":"Feature"},
	{"geometry":{"coordinates":[6.815519,51.541165],"type":"Point"},"properties":{"osm_id":"8315209162","tag":{"amenity":"recycling","recycling:glass_bottles":"yes","recycling_type":"container"}},"type":"Feature"},
	{"geometry":{"coordinates":[6.787689,51.521839],"type":"Point"},"properties":{"osm_id":"8315209163","tag":{"amenity":"recycling","recycling:glass_bottles":"yes","recycling_type":"container"}},"type":"Feature"},
	{"geometry":{"coordinates":[6.81278,51.511487],"type":"Point"},"properties":{"osm_id":"8315209164","tag":{"amenity":"recycling","recycling:glass_bottles":"yes","recycling_type":"container"}},"type":"Feature"},
	{"geometry":{"coordinates":[6.820091,51.514148],"type":"Point"},"properties":{"osm_id":"8315209165","tag":{"amenity":"recycling","recycling:glass_bottles":"yes","recycling_type":"container"}},"type":"Feature"},
	{"geometry":{"coordinates":[6.823825,51.519054],"type":"Point"},"properties":{"osm_id":"8315209166","tag":{"amenity":"recycling","recycling:glass_bottles":"yes","recycling_type":"container"}},"type":"Feature"},
	{"geometry":{"coordinates":[6.843628,51.51438],"type":"Point"},"properties":{"osm_id":"8315209167","tag":{"amenity":"recycling","recycling:glass_bottles":"yes","recycling_type":"container"}},"type":"Feature"},
	{"geometry":{"coordinates":[6.836964,51.510477],"type":"Point"},"properties":{"osm_id":"8315209168","tag":{"amenity":"recycling","recycling:glass_bottles":"yes","recycling_type":"container"}},"type":"Feature"},
	{"geometry":{"coordinates":[6.852452,51.509465],"type":"Point"},"properties":{"osm_id":"8315209178","tag":{"amenity":"recycling","recycling:glass_bottles":"yes","recycling_type":"container"}},"type":"Feature"},
	{"geometry":{"coordinates":[6.834683,51.521582],"type":"Point"},"properties":{"osm_id":"8740471283","tag":{"amenity":"waste_basket","material":"steel","waste":"trash"}},"type":"Feature"},
	{"geometry":{"coordinates":[6.808891,51.533466],"type":"Point"},"properties":{"osm_id":"8740490821","tag":{"amenity":"waste_basket","colour":"darkgrey","material":"steel","waste":"trash"}},"type":"Feature"},
	{"geometry":{"coordinates":[6.795353,51.532263],"type":"Point"},"properties":{"osm_id":"8740490828","tag":{"amenity":"waste_basket","waste":"trash"}},"type":"Feature"}
]
}
