{
"type": "FeatureCollection",
"features": [
	{"geometry":{"coordinates":[6.837709,51.468784],"type":"Point"},"properties":{"osm_id":"282844400","tag":{"amenity":"recycling","check_date":"2017-06-14","opening_hours":"Mo-Sa 07:00-20:00","operator":"Wirtschaftsbetriebe Oberhausen","recycling:clothes":"yes","recycling:glass_bottles":"yes","recycling_type":"container"}},"type":"Feature"},
	{"geometry":{"coordinates":[6.834289,51.461424],"type":"Point"},"properties":{"osm_id":"282845198","tag":{"amenity":"recycling","check_date":"2017-06-14","opening_hours":"Mo-Sa 07:00-20:00","operator":"Wirtschaftsbetriebe Oberhausen","recycling:clothes":"yes","recycling:glass_bottles":"yes","recycling_type":"container"}},"type":"Feature"},
	{"geometry":{"coordinates":[6.843714,51.473014],"type":"Point"},"properties":{"osm_id":"296572643","tag":{"amenity":"recycling","check_date":"2017-06-14","opening_hours":"Mo-Sa 07:00-20:00","operator":"Wirtschaftsbetriebe Oberhausen","recycling:clothes":"yes","recycling:glass_bottles":"yes","recycling:paper":"yes","recycling_type":"container"}},"type":"Feature"},
	{"geometry":{"coordinates":[6.792175,51.467567],"type":"Point"},"properties":{"osm_id":"305432494","tag":{"amenity":"recycling","recycling_type":"container"}},"type":"Feature"},
	{"geometry":{"coordinates":[6.797808,51.495882],"type":"Point"},"properties":{"osm_id":"718402832","tag":{"amenity":"recycling"}},"type":"Feature"},
	{"geometry":{"coordinates":[6.836443,51.499963],"type":"Point"},"properties":{"name":"Buschhausener Stra\u00c3\u009fe","osm_id":"1097896302","tag":{"amenity":"recycling","location":"overground","recycling:cardboard":"yes","recycling:cartons":"yes","recycling:clothes":"yes","recycling:glass":"yes","recycling:glass_bottles":"yes","recycling:magazines":"yes","recycling:newspaper":"yes","recycling:paper":"yes","recycling:shoes":"yes","recycling_type":"container"}},"type":"Feature"},
	{"geometry":{"coordinates":[6.812915,51.476986],"type":"Point"},"properties":{"osm_id":"1106690555","tag":{"amenity":"waste_basket"}},"type":"Feature"},
	{"geometry":{"coordinates":[6.791577,51.454255],"type":"Point"},"properties":{"osm_id":"1112758578","tag":{"amenity":"recycling","recycling:glass_bottles":"yes"}},"type":"Feature"},
	{"geometry":{"coordinates":[6.800485,51.491707],"type":"Point"},"properties":{"osm_id":"1646482734","tag":{"amenity":"waste_basket"}},"type":"Feature"},
	{"geometry":{"coordinates":[6.852273,51.472209],"type":"Point"},"properties":{"osm_id":"1681266617","tag":{"amenity":"recycling","opening_hours":"Mo-Sa 07:00-19:00; PH off","recycling:clothes":"yes","recycling:glass_bottles":"yes","recycling_type":"container"}},"type":"Feature"},
	{"geometry":{"coordinates":[6.849095,51.471756],"type":"Point"},"properties":{"osm_id":"1681271537","tag":{"amenity":"recycling","recycling:glass_bottles":"yes","recycling_type":"container"}},"type":"Feature"},
	{"geometry":{"coordinates":[6.843681,51.46775],"type":"Point"},"properties":{"osm_id":"1681277340","tag":{"amenity":"recycling","check_date":"2017-06-14","opening_hours":"Mo-Sa 07:00-20:00","operator":"Wirtschaftsbetriebe Oberhausen","recycling:glass_bottles":"yes","recycling:paper":"yes","recycling_type":"container"}},"type":"Feature"},
	{"geometry":{"coordinates":[6.792503,51.492958],"type":"Point"},"properties":{"osm_id":"3068429488","tag":{"amenity":"recycling","recycling:clothes":"yes","recycling:glass_bottles":"yes","recycling_type":"container"}},"type":"Feature"},
	{"geometry":{"coordinates":[6.796716,51.493787],"type":"Point"},"properties":{"osm_id":"3069010802","tag":{"amenity":"recycling","recycling:clothes":"yes","recycling:glass_bottles":"yes","recycling_type":"container"}},"type":"Feature"},
	{"geometry":{"coordinates":[6.818572,51.458404],"type":"Point"},"properties":{"osm_id":"3714845122","tag":{"amenity":"waste_basket"}},"type":"Feature"},
	{"geometry":{"coordinates":[6.853614,51.462107],"type":"Point"},"properties":{"osm_id":"4141130198","tag":{"amenity":"recycling","opening_hours":"Mo-Sa 07:00-20:00; PH off","recycling:glass_bottles":"yes","recycling_type":"container"}},"type":"Feature"},
	{"geometry":{"coordinates":[6.850293,51.456496],"type":"Point"},"properties":{"osm_id":"4153142589","tag":{"amenity":"recycling","opening_hours":"Mo-Sa 07:00-20:00; PH off","recycling:clothes":"yes","recycling:glass_bottles":"yes","recycling:paper":"yes","recycling_type":"container"}},"type":"Feature"},
	{"geometry":{"coordinates":[6.852681,51.46531],"type":"Point"},"properties":{"osm_id":"4155872190","tag":{"amenity":"recycling","opening_hours":"Mo-Sa 07:00-20:00; PH off","recycling:clothes":"yes","recycling:glass_bottles":"yes","recycling:paper":"yes","recycling_type":"container"}},"type":"Feature"},
	{"geometry":{"coordinates":[6.826166,51.476819],"type":"Point"},"properties":{"osm_id":"4436669981","tag":{"amenity":"recycling","recycling:clothes":"yes","recycling:glass_bottles":"yes","recycling_type":"container"}},"type":"Feature"},
	{"geometry":{"coordinates":[6.853577,51.462442],"type":"Point"},"properties":{"osm_id":"4453883715","tag":{"amenity":"waste_basket"}},"type":"Feature"},
	{"geometry":{"coordinates":[6.85354,51.462307],"type":"Point"},"properties":{"osm_id":"4453883716","tag":{"amenity":"waste_basket"}},"type":"Feature"},
	{"geometry":{"coordinates":[6.85369,51.462209],"type":"Point"},"properties":{"osm_id":"4453883717","tag":{"amenity":"waste_basket"}},"type":"Feature"},
	{"geometry":{"coordinates":[6.851996,51.461854],"type":"Point"},"properties":{"osm_id":"4453958498","tag":{"amenity":"waste_basket"}},"type":"Feature"},
	{"geometry":{"coordinates":[6.851792,51.461783],"type":"Point"},"properties":{"osm_id":"4453958499","tag":{"amenity":"waste_basket"}},"type":"Feature"},
	{"geometry":{"coordinates":[6.851097,51.456276],"type":"Point"},"properties":{"osm_id":"4454072255","tag":{"amenity":"waste_basket"}},"type":"Feature"},
	{"geometry":{"coordinates":[6.853454,51.461609],"type":"Point"},"properties":{"osm_id":"4458842248","tag":{"amenity":"waste_basket"}},"type":"Feature"},
	{"geometry":{"coordinates":[6.853621,51.461571],"type":"Point"},"properties":{"osm_id":"4458842250","tag":{"amenity":"waste_basket"}},"type":"Feature"},
	{"geometry":{"coordinates":[6.853665,51.461701],"type":"Point"},"properties":{"osm_id":"4458842254","tag":{"amenity":"waste_basket"}},"type":"Feature"},
	{"geometry":{"coordinates":[6.852169,51.461598],"type":"Point"},"properties":{"osm_id":"4460439838","tag":{"amenity":"waste_basket"}},"type":"Feature"},
	{"geometry":{"coordinates":[6.852025,51.461941],"type":"Point"},"properties":{"osm_id":"4460439841","tag":{"amenity":"waste_basket"}},"type":"Feature"},
	{"geometry":{"coordinates":[6.852144,51.461977],"type":"Point"},"properties":{"osm_id":"4460439843","tag":{"amenity":"waste_basket"}},"type":"Feature"},
	{"geometry":{"coordinates":[6.851433,51.464405],"type":"Point"},"properties":{"osm_id":"4471143716","tag":{"amenity":"waste_basket"}},"type":"Feature"},
	{"geometry":{"coordinates":[6.851269,51.464095],"type":"Point"},"properties":{"osm_id":"4471144868","tag":{"amenity":"waste_basket"}},"type":"Feature"},
	{"geometry":{"coordinates":[6.850824,51.475143],"type":"Point"},"properties":{"osm_id":"4488644149","tag":{"amenity":"waste_basket"}},"type":"Feature"},
	{"geometry":{"coordinates":[6.854327,51.472212],"type":"Point"},"properties":{"osm_id":"4488653819","tag":{"amenity":"waste_basket"}},"type":"Feature"},
	{"geometry":{"coordinates":[6.854428,51.472187],"type":"Point"},"properties":{"osm_id":"4488653820","tag":{"amenity":"waste_basket"}},"type":"Feature"},
	{"geometry":{"coordinates":[6.85003,51.4749],"type":"Point"},"properties":{"osm_id":"4492217314","tag":{"amenity":"waste_basket"}},"type":"Feature"},
	{"geometry":{"coordinates":[6.850765,51.47539],"type":"Point"},"properties":{"osm_id":"4492217356","tag":{"amenity":"waste_basket"}},"type":"Feature"},
	{"geometry":{"coordinates":[6.821902,51.468946],"type":"Point"},"properties":{"osm_id":"4518879338","tag":{"amenity":"recycling","recycling:clothes":"yes","recycling:glass_bottles":"yes","recycling_type":"container"}},"type":"Feature"},
	{"geometry":{"coordinates":[6.835355,51.458907],"type":"Point"},"properties":{"osm_id":"4759791340","tag":{"amenity":"recycling","recycling:clothes":"no","recycling:glass_bottles":"yes","recycling:paper":"no","recycling_type":"container"}},"type":"Feature"},
	{"geometry":{"coordinates":[6.848356,51.459296],"type":"Point"},"properties":{"osm_id":"4759818605","tag":{"amenity":"recycling","recycling:clothes":"yes","recycling:glass_bottles":"yes","recycling:paper":"no","recycling_type":"container"}},"type":"Feature"},
	{"geometry":{"coordinates":[6.842498,51.462916],"type":"Point"},"properties":{"osm_id":"4761529752","tag":{"amenity":"recycling","opening_hours":"Mo-Sa 07:00-20:00; PH off","recycling:clothes":"no","recycling:glass_bottles":"yes","recycling:paper":"no","recycling_type":"container"}},"type":"Feature"},
	{"geometry":{"coordinates":[6.779329,51.504541],"type":"Point"},"properties":{"barrier":"gate","osm_id":"5012752463"},"type":"Feature"},
	{"geometry":{"coordinates":[6.837632,51.473105],"type":"Point"},"properties":{"osm_id":"5213148648","tag":{"amenity":"waste_basket"}},"type":"Feature"},
	{"geometry":{"coordinates":[6.837782,51.47302],"type":"Point"},"properties":{"osm_id":"5213148649","tag":{"amenity":"waste_basket"}},"type":"Feature"},
	{"geometry":{"coordinates":[6.778857,51.489946],"type":"Point"},"properties":{"osm_id":"6342938238","tag":{"amenity":"recycling"}},"type":"Feature"},
	{"geometry":{"coordinates":[6.794497,51.508719],"type":"Point"},"properties":{"osm_id":"6806471000","tag":{"amenity":"waste_disposal","recycling_type":"container","waste":"glass"}},"type":"Feature"},
	{"geometry":{"coordinates":[6.778313,51.504372],"type":"Point"},"properties":{"barrier":"gate","osm_id":"7004690862"},"type":"Feature"},
	{"geometry":{"coordinates":[6.778626,51.504424],"type":"Point"},"properties":{"barrier":"gate","osm_id":"7004690863"},"type":"Feature"},
	{"geometry":{"coordinates":[6.779469,51.504564],"type":"Point"},"properties":{"barrier":"gate","osm_id":"7004690873"},"type":"Feature"},
	{"geometry":{"coordinates":[6.779262,51.467554],"type":"Point"},"properties":{"osm_id":"7292316182","tag":{"amenity":"waste_basket","indoor":"yes"}},"type":"Feature"},
	{"geometry":{"coordinates":[6.779221,51.467548],"type":"Point"},"properties":{"osm_id":"7292316183","tag":{"amenity":"waste_basket","indoor":"yes"}},"type":"Feature"},
	{"geometry":{"coordinates":[6.778825,51.467521],"type":"Point"},"properties":{"osm_id":"7292342403","tag":{"amenity":"waste_basket","indoor":"yes"}},"type":"Feature"},
	{"geometry":{"coordinates":[6.778788,51.467518],"type":"Point"},"properties":{"osm_id":"7292342405","tag":{"amenity":"waste_basket","indoor":"yes"}},"type":"Feature"},
	{"geometry":{"coordinates":[6.780542,51.467793],"type":"Point"},"properties":{"osm_id":"7292342413","tag":{"amenity":"waste_basket"}},"type":"Feature"},
	{"geometry":{"coordinates":[6.78058,51.467759],"type":"Point"},"properties":{"osm_id":"7292342414","tag":{"amenity":"waste_basket"}},"type":"Feature"},
	{"geometry":{"coordinates":[6.780222,51.467668],"type":"Point"},"properties":{"osm_id":"7292342415","tag":{"amenity":"waste_basket"}},"type":"Feature"},
	{"geometry":{"coordinates":[6.779966,51.467705],"type":"Point"},"properties":{"osm_id":"7292342416","tag":{"amenity":"waste_basket"}},"type":"Feature"},
	{"geometry":{"coordinates":[6.779988,51.467636],"type":"Point"},"properties":{"osm_id":"7292342417","tag":{"amenity":"waste_basket"}},"type":"Feature"},
	{"geometry":{"coordinates":[6.780313,51.467697],"type":"Point"},"properties":{"osm_id":"7292342418","tag":{"amenity":"waste_basket"}},"type":"Feature"},
	{"geometry":{"coordinates":[6.779587,51.467618],"type":"Point"},"properties":{"osm_id":"7292349444","tag":{"amenity":"waste_basket","indoor":"yes"}},"type":"Feature"},
	{"geometry":{"coordinates":[6.779551,51.467613],"type":"Point"},"properties":{"osm_id":"7292349446","tag":{"amenity":"waste_basket","indoor":"yes"}},"type":"Feature"},
	{"geometry":{"coordinates":[6.772536,51.465512],"type":"Point"},"properties":{"osm_id":"7305450093","tag":{"amenity":"waste_basket","indoor":"yes","layer":"-2","level":"-2"}},"type":"Feature"},
	{"geometry":{"coordinates":[6.772928,51.465891],"type":"Point"},"properties":{"osm_id":"7305450126","tag":{"amenity":"waste_basket","indoor":"yes","layer":"-2","level":"-2"}},"type":"Feature"},
	{"geometry":{"coordinates":[6.772967,51.465921],"type":"Point"},"properties":{"osm_id":"7305450127","tag":{"amenity":"waste_basket","indoor":"yes","layer":"-2","level":"-2"}},"type":"Feature"},
	{"geometry":{"coordinates":[6.773016,51.465897],"type":"Point"},"properties":{"osm_id":"7305450129","tag":{"amenity":"waste_basket","indoor":"yes","layer":"-2","level":"-2"}},"type":"Feature"},
	{"geometry":{"coordinates":[6.772976,51.465867],"type":"Point"},"properties":{"osm_id":"7305450130","tag":{"amenity":"waste_basket","indoor":"yes","layer":"-2","level":"-2"}},"type":"Feature"},
	{"geometry":{"coordinates":[6.773066,51.465967],"type":"Point"},"properties":{"osm_id":"7305450141","tag":{"amenity":"waste_basket","indoor":"yes","layer":"-2","level":"-2"}},"type":"Feature"},
	{"geometry":{"coordinates":[6.773097,51.465989],"type":"Point"},"properties":{"osm_id":"7305450142","tag":{"amenity":"waste_basket","indoor":"yes","layer":"-2","level":"-2"}},"type":"Feature"},
	{"geometry":{"coordinates":[6.77284,51.465763],"type":"Point"},"properties":{"osm_id":"7305500491","tag":{"amenity":"waste_basket"}},"type":"Feature"},
	{"geometry":{"coordinates":[6.772568,51.465859],"type":"Point"},"properties":{"osm_id":"7305500492","tag":{"amenity":"waste_basket"}},"type":"Feature"},
	{"geometry":{"coordinates":[6.810222,51.463194],"type":"Point"},"properties":{"osm_id":"7392112403","tag":{"amenity":"recycling","recycling:glass_bottles":"yes","recycling_type":"container"}},"type":"Feature"},
	{"geometry":{"coordinates":[6.815874,51.498976],"type":"Point"},"properties":{"osm_id":"7538190475","tag":{"amenity":"recycling","recycling:clothes":"yes","recycling:glass":"yes","recycling_type":"container"}},"type":"Feature"},
	{"geometry":{"coordinates":[6.796864,51.461883],"type":"Point"},"properties":{"osm_id":"7575764777","tag":{"amenity":"recycling","recycling:clothes":"yes","recycling:glass":"yes","recycling_type":"container"}},"type":"Feature"},
	{"geometry":{"coordinates":[6.818618,51.457886],"type":"Point"},"properties":{"osm_id":"7702928522","tag":{"amenity":"waste_basket"}},"type":"Feature"},
	{"geometry":{"coordinates":[6.812478,51.457775],"type":"Point"},"properties":{"osm_id":"7702973208","tag":{"amenity":"waste_basket"}},"type":"Feature"},
	{"geometry":{"coordinates":[6.818238,51.457345],"type":"Point"},"properties":{"osm_id":"7702982629","tag":{"amenity":"waste_basket"}},"type":"Feature"},
	{"geometry":{"coordinates":[6.816222,51.45757],"type":"Point"},"properties":{"osm_id":"7702999558","tag":{"amenity":"waste_basket"}},"type":"Feature"},
	{"geometry":{"coordinates":[6.814746,51.457718],"type":"Point"},"properties":{"osm_id":"7703006892","tag":{"amenity":"waste_basket"}},"type":"Feature"},
	{"geometry":{"coordinates":[6.81331,51.459472],"type":"Point"},"properties":{"osm_id":"7703007251","tag":{"amenity":"waste_basket"}},"type":"Feature"},
	{"geometry":{"coordinates":[6.816936,51.457452],"type":"Point"},"properties":{"osm_id":"7703011817","tag":{"amenity":"waste_basket"}},"type":"Feature"},
	{"geometry":{"coordinates":[6.81663,51.457501],"type":"Point"},"properties":{"osm_id":"7703012029","tag":{"amenity":"waste_basket"}},"type":"Feature"},
	{"geometry":{"coordinates":[6.815555,51.45766],"type":"Point"},"properties":{"osm_id":"7703012311","tag":{"amenity":"waste_basket"}},"type":"Feature"},
	{"geometry":{"coordinates":[6.81835,51.457256],"type":"Point"},"properties":{"osm_id":"7703012312","tag":{"amenity":"waste_basket"}},"type":"Feature"}
]
}
