{
"type": "FeatureCollection",
"features": [
	{"geometry":{"coordinates":[6.808492,51.391901],"type":"Point"},"properties":{"osm_id":"288811717","tag":{"amenity":"recycling","recycling:clothes":"yes","recycling:glass_bottles":"yes","recycling_type":"container"}},"type":"Feature"},
	{"geometry":{"coordinates":[6.802082,51.390781],"type":"Point"},"properties":{"osm_id":"288815310","tag":{"amenity":"recycling","recycling:clothes":"yes","recycling:glass":"no","recycling:glass_bottles":"yes","recycling:paper":"no","recycling_type":"container"}},"type":"Feature"},
	{"geometry":{"coordinates":[6.824802,51.345175],"type":"Point"},"properties":{"osm_id":"321810139","tag":{"amenity":"recycling","recycling_type":"container"}},"type":"Feature"},
	{"geometry":{"coordinates":[6.832767,51.346873],"type":"Point"},"properties":{"osm_id":"321810144","tag":{"amenity":"recycling"}},"type":"Feature"},
	{"geometry":{"coordinates":[6.776483,51.365411],"type":"Point"},"properties":{"osm_id":"559825778","tag":{"addr:city":"Duisburg","addr:country":"DE","addr:postcode":"47269","addr:street":"Albert-Hahn-Stra\u00c3\u009fe","amenity":"recycling","location":"overground","recycling:glass_bottles":"yes","recycling_type":"container"}},"type":"Feature"},
	{"geometry":{"coordinates":[6.77843,51.361979],"type":"Point"},"properties":{"osm_id":"561205989","tag":{"amenity":"waste_basket"}},"type":"Feature"},
	{"geometry":{"coordinates":[6.820094,51.377096],"type":"Point"},"properties":{"osm_id":"1118381636","tag":{"amenity":"waste_basket"}},"type":"Feature"},
	{"geometry":{"coordinates":[6.814571,51.361741],"type":"Point"},"properties":{"osm_id":"1121355711","tag":{"amenity":"waste_basket"}},"type":"Feature"},
	{"geometry":{"coordinates":[6.794221,51.366989],"type":"Point"},"properties":{"osm_id":"1121943186","tag":{"amenity":"waste_basket"}},"type":"Feature"},
	{"geometry":{"coordinates":[6.812406,51.391969],"type":"Point"},"properties":{"osm_id":"1129307499","tag":{"amenity":"recycling","location":"overground","recycling_type":"container"}},"type":"Feature"},
	{"geometry":{"coordinates":[6.787343,51.350541],"type":"Point"},"properties":{"osm_id":"1343063161","tag":{"amenity":"recycling","recycling:glass_bottles":"yes","recycling_type":"container"}},"type":"Feature"},
	{"geometry":{"coordinates":[6.784255,51.352275],"type":"Point"},"properties":{"osm_id":"1343063162","tag":{"amenity":"recycling","location":"underground","recycling:glass_bottles":"yes","recycling_type":"container"}},"type":"Feature"},
	{"geometry":{"coordinates":[6.828067,51.381871],"type":"Point"},"properties":{"osm_id":"3181674320","tag":{"amenity":"waste_basket"}},"type":"Feature"},
	{"geometry":{"coordinates":[6.85516,51.395486],"type":"Point"},"properties":{"osm_id":"3285589091","tag":{"amenity":"waste_basket"}},"type":"Feature"},
	{"geometry":{"coordinates":[6.853528,51.398826],"type":"Point"},"properties":{"osm_id":"3285589099","tag":{"amenity":"waste_basket"}},"type":"Feature"},
	{"geometry":{"coordinates":[6.787795,51.391248],"type":"Point"},"properties":{"osm_id":"3819625398","tag":{"amenity":"recycling","recycling:clothes":"yes","recycling:glass":"no","recycling:glass_bottles":"yes","recycling_type":"container"}},"type":"Feature"},
	{"geometry":{"coordinates":[6.780506,51.386683],"type":"Point"},"properties":{"osm_id":"3837103704","tag":{"amenity":"recycling","location":"overground","recycling:clothes":"yes","recycling:glass":"no","recycling:glass_bottles":"yes","recycling_type":"container"}},"type":"Feature"},
	{"geometry":{"coordinates":[6.813555,51.377212],"type":"Point"},"properties":{"osm_id":"4110387057","tag":{"amenity":"waste_basket"}},"type":"Feature"},
	{"geometry":{"coordinates":[6.805471,51.381991],"type":"Point"},"properties":{"osm_id":"6699394686","tag":{"amenity":"recycling","location":"overground","recycling:bottles":"yes","recycling_type":"container"}},"type":"Feature"},
	{"geometry":{"coordinates":[6.801902,51.390977],"type":"Point"},"properties":{"osm_id":"6753458280","tag":{"amenity":"recycling","location":"overground","recycling:clothes":"yes","recycling:shoes":"yes","recycling_type":"container"}},"type":"Feature"},
	{"geometry":{"coordinates":[6.791338,51.394272],"type":"Point"},"properties":{"osm_id":"6919827795","tag":{"amenity":"recycling","location":"overground","recycling:clothes":"yes","recycling_type":"container"}},"type":"Feature"},
	{"geometry":{"coordinates":[6.794029,51.393411],"type":"Point"},"properties":{"osm_id":"6959882073","tag":{"amenity":"recycling","capacity":"2","location":"overground","recycling:clothes":"yes","recycling_type":"container"}},"type":"Feature"},
	{"geometry":{"coordinates":[6.778574,51.372176],"type":"Point"},"properties":{"osm_id":"6959893948","tag":{"amenity":"waste_basket"}},"type":"Feature"},
	{"geometry":{"coordinates":[6.778553,51.372359],"type":"Point"},"properties":{"osm_id":"6959901106","tag":{"amenity":"waste_basket"}},"type":"Feature"},
	{"geometry":{"coordinates":[6.793982,51.393394],"type":"Point"},"properties":{"osm_id":"6959903678","tag":{"amenity":"recycling","capacity":"6","location":"overground","recycling:bottles":"yes","recycling_type":"container"}},"type":"Feature"},
	{"geometry":{"coordinates":[6.785012,51.372796],"type":"Point"},"properties":{"osm_id":"7029359545","tag":{"amenity":"recycling","location":"overground","recycling:clothes":"yes","recycling_type":"container"}},"type":"Feature"},
	{"geometry":{"coordinates":[6.779454,51.387546],"type":"Point"},"properties":{"osm_id":"7096221247","tag":{"amenity":"recycling","location":"overground","recycling:clothes":"yes","recycling_type":"container"}},"type":"Feature"},
	{"geometry":{"coordinates":[6.796413,51.389848],"type":"Point"},"properties":{"osm_id":"7223465979","tag":{"amenity":"waste_basket"}},"type":"Feature"},
	{"geometry":{"coordinates":[6.800725,51.397076],"type":"Point"},"properties":{"osm_id":"7223477297","tag":{"amenity":"waste_basket"}},"type":"Feature"},
	{"geometry":{"coordinates":[6.799466,51.397184],"type":"Point"},"properties":{"osm_id":"7223479623","tag":{"amenity":"waste_basket"}},"type":"Feature"},
	{"geometry":{"coordinates":[6.800744,51.396622],"type":"Point"},"properties":{"osm_id":"7223499321","tag":{"amenity":"waste_basket"}},"type":"Feature"},
	{"geometry":{"coordinates":[6.79942,51.396854],"type":"Point"},"properties":{"osm_id":"7223499414","tag":{"amenity":"recycling","location":"overground","recycling:clothes":"yes","recycling_type":"container"}},"type":"Feature"},
	{"geometry":{"coordinates":[6.797285,51.394454],"type":"Point"},"properties":{"osm_id":"7255743653","tag":{"amenity":"waste_basket"}},"type":"Feature"},
	{"geometry":{"coordinates":[6.796923,51.392156],"type":"Point"},"properties":{"osm_id":"7255793435","tag":{"amenity":"waste_basket"}},"type":"Feature"},
	{"geometry":{"coordinates":[6.796514,51.391874],"type":"Point"},"properties":{"osm_id":"7255804450","tag":{"amenity":"waste_basket"}},"type":"Feature"},
	{"geometry":{"coordinates":[6.79715,51.392224],"type":"Point"},"properties":{"osm_id":"7255805478","tag":{"amenity":"waste_basket"}},"type":"Feature"},
	{"geometry":{"coordinates":[6.792406,51.384434],"type":"Point"},"properties":{"osm_id":"7260861962","tag":{"amenity":"waste_basket"}},"type":"Feature"},
	{"geometry":{"coordinates":[6.799276,51.386184],"type":"Point"},"properties":{"osm_id":"7260861963","tag":{"amenity":"waste_basket"}},"type":"Feature"},
	{"geometry":{"coordinates":[6.797907,51.387141],"type":"Point"},"properties":{"osm_id":"7260861964","tag":{"amenity":"waste_basket"}},"type":"Feature"},
	{"geometry":{"coordinates":[6.797617,51.387777],"type":"Point"},"properties":{"osm_id":"7260876646","tag":{"amenity":"waste_basket"}},"type":"Feature"},
	{"geometry":{"coordinates":[6.797965,51.387374],"type":"Point"},"properties":{"osm_id":"7260883014","tag":{"amenity":"waste_basket"}},"type":"Feature"},
	{"geometry":{"coordinates":[6.792527,51.384673],"type":"Point"},"properties":{"osm_id":"7260883562","tag":{"amenity":"waste_basket"}},"type":"Feature"},
	{"geometry":{"coordinates":[6.798525,51.386748],"type":"Point"},"properties":{"osm_id":"7260884256","tag":{"amenity":"waste_basket"}},"type":"Feature"},
	{"geometry":{"coordinates":[6.787066,51.386264],"type":"Point"},"properties":{"osm_id":"7260888934","tag":{"amenity":"waste_basket"}},"type":"Feature"},
	{"geometry":{"coordinates":[6.799809,51.38563],"type":"Point"},"properties":{"osm_id":"7260892084","tag":{"amenity":"waste_basket"}},"type":"Feature"},
	{"geometry":{"coordinates":[6.798907,51.386431],"type":"Point"},"properties":{"osm_id":"7260893128","tag":{"amenity":"waste_basket"}},"type":"Feature"},
	{"geometry":{"coordinates":[6.792493,51.384597],"type":"Point"},"properties":{"osm_id":"7260896641","tag":{"amenity":"waste_basket"}},"type":"Feature"},
	{"geometry":{"coordinates":[6.788782,51.38601],"type":"Point"},"properties":{"osm_id":"7260901706","tag":{"amenity":"waste_basket"}},"type":"Feature"},
	{"geometry":{"coordinates":[6.79523,51.384033],"type":"Point"},"properties":{"osm_id":"7260912947","tag":{"amenity":"waste_basket"}},"type":"Feature"},
	{"geometry":{"coordinates":[6.794326,51.38353],"type":"Point"},"properties":{"osm_id":"7260913920","tag":{"amenity":"waste_basket"}},"type":"Feature"},
	{"geometry":{"coordinates":[6.793105,51.384967],"type":"Point"},"properties":{"osm_id":"7260917170","tag":{"amenity":"waste_basket","backrest":"yes"}},"type":"Feature"},
	{"geometry":{"coordinates":[6.799165,51.384703],"type":"Point"},"properties":{"osm_id":"7260930908","tag":{"amenity":"waste_basket"}},"type":"Feature"},
	{"geometry":{"coordinates":[6.792978,51.384079],"type":"Point"},"properties":{"osm_id":"7260931837","tag":{"amenity":"waste_basket"}},"type":"Feature"},
	{"geometry":{"coordinates":[6.797231,51.388086],"type":"Point"},"properties":{"osm_id":"7260932499","tag":{"amenity":"waste_basket"}},"type":"Feature"},
	{"geometry":{"coordinates":[6.796274,51.389574],"type":"Point"},"properties":{"osm_id":"7260935381","tag":{"amenity":"waste_basket"}},"type":"Feature"},
	{"geometry":{"coordinates":[6.792607,51.384859],"type":"Point"},"properties":{"osm_id":"7260937502","tag":{"amenity":"waste_basket"}},"type":"Feature"},
	{"geometry":{"coordinates":[6.800069,51.384919],"type":"Point"},"properties":{"osm_id":"7260938232","tag":{"amenity":"waste_basket"}},"type":"Feature"},
	{"geometry":{"coordinates":[6.792639,51.384942],"type":"Point"},"properties":{"osm_id":"7260938494","tag":{"amenity":"waste_basket"}},"type":"Feature"},
	{"geometry":{"coordinates":[6.794471,51.383195],"type":"Point"},"properties":{"osm_id":"7260938662","tag":{"amenity":"waste_basket"}},"type":"Feature"},
	{"geometry":{"coordinates":[6.796038,51.389746],"type":"Point"},"properties":{"osm_id":"7260938892","tag":{"amenity":"waste_basket"}},"type":"Feature"},
	{"geometry":{"coordinates":[6.792323,51.385291],"type":"Point"},"properties":{"osm_id":"7260939760","tag":{"amenity":"waste_basket"}},"type":"Feature"},
	{"geometry":{"coordinates":[6.792568,51.384766],"type":"Point"},"properties":{"osm_id":"7260939761","tag":{"amenity":"waste_basket"}},"type":"Feature"},
	{"geometry":{"coordinates":[6.791966,51.374981],"type":"Point"},"properties":{"osm_id":"7476212943","tag":{"amenity":"waste_basket"}},"type":"Feature"},
	{"geometry":{"coordinates":[6.794012,51.380152],"type":"Point"},"properties":{"osm_id":"7476217007","tag":{"amenity":"waste_basket"}},"type":"Feature"},
	{"geometry":{"coordinates":[6.790853,51.376662],"type":"Point"},"properties":{"osm_id":"7476258714","tag":{"amenity":"waste_basket"}},"type":"Feature"},
	{"geometry":{"coordinates":[6.791386,51.379715],"type":"Point"},"properties":{"osm_id":"7476265467","tag":{"amenity":"waste_basket"}},"type":"Feature"},
	{"geometry":{"coordinates":[6.790172,51.379344],"type":"Point"},"properties":{"osm_id":"7476276363","tag":{"amenity":"waste_basket"}},"type":"Feature"},
	{"geometry":{"coordinates":[6.790218,51.379414],"type":"Point"},"properties":{"osm_id":"7476276375","tag":{"amenity":"waste_basket"}},"type":"Feature"},
	{"geometry":{"coordinates":[6.792379,51.379843],"type":"Point"},"properties":{"osm_id":"7476286128","tag":{"amenity":"waste_basket"}},"type":"Feature"},
	{"geometry":{"coordinates":[6.793315,51.379971],"type":"Point"},"properties":{"osm_id":"7476288188","tag":{"amenity":"waste_basket"}},"type":"Feature"},
	{"geometry":{"coordinates":[6.804793,51.382986],"type":"Point"},"properties":{"osm_id":"7638612241","tag":{"amenity":"waste_basket"}},"type":"Feature"},
	{"geometry":{"coordinates":[6.789395,51.380483],"type":"Point"},"properties":{"osm_id":"7638613058","tag":{"amenity":"waste_basket"}},"type":"Feature"},
	{"geometry":{"coordinates":[6.791146,51.371945],"type":"Point"},"properties":{"osm_id":"7638619760","tag":{"amenity":"waste_basket"}},"type":"Feature"},
	{"geometry":{"coordinates":[6.7906,51.383899],"type":"Point"},"properties":{"osm_id":"7638625238","tag":{"amenity":"waste_basket"}},"type":"Feature"},
	{"geometry":{"coordinates":[6.794507,51.383958],"type":"Point"},"properties":{"osm_id":"7638632061","tag":{"amenity":"waste_basket"}},"type":"Feature"},
	{"geometry":{"coordinates":[6.800469,51.379411],"type":"Point"},"properties":{"osm_id":"7638634156","tag":{"amenity":"waste_basket"}},"type":"Feature"},
	{"geometry":{"coordinates":[6.792687,51.372022],"type":"Point"},"properties":{"osm_id":"7638634157","tag":{"amenity":"waste_basket"}},"type":"Feature"},
	{"geometry":{"coordinates":[6.80602,51.383541],"type":"Point"},"properties":{"osm_id":"7638634383","tag":{"amenity":"waste_basket"}},"type":"Feature"},
	{"geometry":{"coordinates":[6.79929,51.376491],"type":"Point"},"properties":{"osm_id":"7638635037","tag":{"amenity":"waste_basket"}},"type":"Feature"},
	{"geometry":{"coordinates":[6.801969,51.383451],"type":"Point"},"properties":{"osm_id":"7638635690","tag":{"amenity":"waste_basket"}},"type":"Feature"},
	{"geometry":{"coordinates":[6.791252,51.371425],"type":"Point"},"properties":{"osm_id":"7638636308","tag":{"amenity":"waste_basket"}},"type":"Feature"},
	{"geometry":{"coordinates":[6.799447,51.376006],"type":"Point"},"properties":{"osm_id":"7638637106","tag":{"amenity":"waste_basket"}},"type":"Feature"},
	{"geometry":{"coordinates":[6.796782,51.374733],"type":"Point"},"properties":{"osm_id":"7638640626","tag":{"amenity":"waste_basket"}},"type":"Feature"},
	{"geometry":{"coordinates":[6.800835,51.379524],"type":"Point"},"properties":{"osm_id":"7638642742","tag":{"amenity":"waste_basket"}},"type":"Feature"},
	{"geometry":{"coordinates":[6.804956,51.383641],"type":"Point"},"properties":{"osm_id":"7638643595","tag":{"amenity":"waste_basket"}},"type":"Feature"},
	{"geometry":{"coordinates":[6.795945,51.374814],"type":"Point"},"properties":{"osm_id":"7638643597","tag":{"amenity":"waste_basket"}},"type":"Feature"},
	{"geometry":{"coordinates":[6.798936,51.377825],"type":"Point"},"properties":{"osm_id":"7638646322","tag":{"amenity":"waste_basket"}},"type":"Feature"},
	{"geometry":{"coordinates":[6.799147,51.375068],"type":"Point"},"properties":{"osm_id":"7638647343","tag":{"amenity":"waste_basket"}},"type":"Feature"},
	{"geometry":{"coordinates":[6.795092,51.371154],"type":"Point"},"properties":{"osm_id":"7638647566","tag":{"amenity":"waste_basket"}},"type":"Feature"},
	{"geometry":{"coordinates":[6.800355,51.379365],"type":"Point"},"properties":{"osm_id":"7638647887","tag":{"amenity":"waste_basket"}},"type":"Feature"},
	{"geometry":{"coordinates":[6.807417,51.383292],"type":"Point"},"properties":{"osm_id":"7638650155","tag":{"amenity":"waste_basket"}},"type":"Feature"},
	{"geometry":{"coordinates":[6.801087,51.378198],"type":"Point"},"properties":{"osm_id":"7638650907","tag":{"amenity":"waste_basket"}},"type":"Feature"},
	{"geometry":{"coordinates":[6.79907,51.37706],"type":"Point"},"properties":{"osm_id":"7638651935","tag":{"amenity":"waste_basket"}},"type":"Feature"},
	{"geometry":{"coordinates":[6.788952,51.38367],"type":"Point"},"properties":{"osm_id":"7638651936","tag":{"amenity":"waste_basket"}},"type":"Feature"},
	{"geometry":{"coordinates":[6.787548,51.382597],"type":"Point"},"properties":{"osm_id":"7638654610","tag":{"amenity":"waste_basket"}},"type":"Feature"},
	{"geometry":{"coordinates":[6.77539,51.382983],"type":"Point"},"properties":{"osm_id":"7655422638","tag":{"amenity":"waste_basket","covered":"yes"}},"type":"Feature"},
	{"geometry":{"coordinates":[6.775444,51.382596],"type":"Point"},"properties":{"osm_id":"7655422639","tag":{"amenity":"waste_basket"}},"type":"Feature"},
	{"geometry":{"coordinates":[6.77544,51.382642],"type":"Point"},"properties":{"osm_id":"7655422640","tag":{"amenity":"waste_basket"}},"type":"Feature"},
	{"geometry":{"coordinates":[6.775342,51.383342],"type":"Point"},"properties":{"osm_id":"7655422649","tag":{"amenity":"waste_basket"}},"type":"Feature"},
	{"geometry":{"coordinates":[6.816098,51.369257],"type":"Point"},"properties":{"osm_id":"7688415966","tag":{"amenity":"waste_basket"}},"type":"Feature"}
]
}
