{
"type": "FeatureCollection",
"features": [
	{"geometry":{"coordinates":[6.837038,51.122255],"type":"Point"},"properties":{"osm_id":"259740467","tag":{"amenity":"recycling","recycling:glass":"yes","recycling_type":"container"}},"type":"Feature"},
	{"geometry":{"coordinates":[6.851882,51.123977],"type":"Point"},"properties":{"osm_id":"259741372","tag":{"amenity":"recycling","recycling:glass":"yes","recycling_type":"container"}},"type":"Feature"},
	{"geometry":{"coordinates":[6.840656,51.118288],"type":"Point"},"properties":{"osm_id":"259743372","tag":{"amenity":"recycling"}},"type":"Feature"},
	{"geometry":{"coordinates":[6.842259,51.12298],"type":"Point"},"properties":{"osm_id":"259743373","tag":{"amenity":"recycling"}},"type":"Feature"},
	{"geometry":{"coordinates":[6.772152,51.082008],"type":"Point"},"properties":{"osm_id":"299458631","tag":{"amenity":"recycling","recycling:clothes":"yes","recycling:glass_bottles":"yes"}},"type":"Feature"},
	{"geometry":{"coordinates":[6.769649,51.114959],"type":"Point"},"properties":{"osm_id":"300609206","tag":{"amenity":"recycling","recycling:clothes":"yes","recycling:glass_bottles":"yes"}},"type":"Feature"},
	{"geometry":{"coordinates":[6.785369,51.075103],"type":"Point"},"properties":{"osm_id":"306002714","tag":{"amenity":"recycling","recycling:clothes":"yes","recycling:glass_bottles":"yes"}},"type":"Feature"},
	{"geometry":{"coordinates":[6.782777,51.079762],"type":"Point"},"properties":{"osm_id":"306003552","tag":{"amenity":"recycling","recycling:clothes":"no","recycling:glass_bottles":"yes","recycling_type":"container"}},"type":"Feature"},
	{"geometry":{"coordinates":[6.770349,51.077853],"type":"Point"},"properties":{"osm_id":"306005481","tag":{"amenity":"recycling","recycling:clothes":"yes","recycling:glass_bottles":"yes"}},"type":"Feature"},
	{"geometry":{"coordinates":[6.770909,51.077337],"type":"Point"},"properties":{"osm_id":"354878900","tag":{"amenity":"recycling"}},"type":"Feature"},
	{"geometry":{"coordinates":[6.798436,51.078959],"type":"Point"},"properties":{"osm_id":"385185777","tag":{"amenity":"waste_basket"}},"type":"Feature"},
	{"geometry":{"coordinates":[6.789463,51.081594],"type":"Point"},"properties":{"osm_id":"386774926","tag":{"amenity":"waste_basket"}},"type":"Feature"},
	{"geometry":{"coordinates":[6.798762,51.071859],"type":"Point"},"properties":{"osm_id":"386776019","tag":{"amenity":"waste_basket"}},"type":"Feature"},
	{"geometry":{"coordinates":[6.819565,51.089395],"type":"Point"},"properties":{"osm_id":"388509224","tag":{"amenity":"waste_basket"}},"type":"Feature"},
	{"geometry":{"coordinates":[6.82024,51.089733],"type":"Point"},"properties":{"osm_id":"388509225","tag":{"amenity":"waste_basket"}},"type":"Feature"},
	{"geometry":{"coordinates":[6.830795,51.088774],"type":"Point"},"properties":{"osm_id":"388976249","tag":{"amenity":"recycling","recycling:clothes":"yes"}},"type":"Feature"},
	{"geometry":{"coordinates":[6.831462,51.089826],"type":"Point"},"properties":{"osm_id":"408870366","tag":{"amenity":"recycling","recycling:glass":"yes"}},"type":"Feature"},
	{"geometry":{"coordinates":[6.788003,51.078919],"type":"Point"},"properties":{"osm_id":"420547060","tag":{"amenity":"waste_basket"}},"type":"Feature"},
	{"geometry":{"coordinates":[6.834986,51.098952],"type":"Point"},"properties":{"osm_id":"433593130","tag":{"amenity":"recycling","recycling:glass":"yes"}},"type":"Feature"},
	{"geometry":{"coordinates":[6.837412,51.095262],"type":"Point"},"properties":{"osm_id":"433593136","tag":{"amenity":"recycling","recycling:glass":"yes","recycling_type":"container"}},"type":"Feature"},
	{"geometry":{"coordinates":[6.826992,51.123572],"type":"Point"},"properties":{"osm_id":"445848447","tag":{"amenity":"waste_basket"}},"type":"Feature"},
	{"geometry":{"coordinates":[6.825056,51.122464],"type":"Point"},"properties":{"osm_id":"445852917","tag":{"amenity":"waste_basket"}},"type":"Feature"},
	{"geometry":{"coordinates":[6.844054,51.097687],"type":"Point"},"properties":{"osm_id":"619173750","tag":{"amenity":"recycling","recycling:clothes":"yes","recycling:glass":"yes","recycling_type":"container"}},"type":"Feature"},
	{"geometry":{"coordinates":[6.831557,51.089816],"type":"Point"},"properties":{"osm_id":"690903444","tag":{"amenity":"recycling","operator":"Malteser","recycling:clothes":"yes"}},"type":"Feature"},
	{"geometry":{"coordinates":[6.828449,51.09718],"type":"Point"},"properties":{"osm_id":"725429600","tag":{"amenity":"recycling","recycling:clothes":"yes"}},"type":"Feature"},
	{"geometry":{"coordinates":[6.828394,51.097157],"type":"Point"},"properties":{"osm_id":"725429601","tag":{"amenity":"recycling","recycling:glass":"yes"}},"type":"Feature"},
	{"geometry":{"coordinates":[6.836625,51.098842],"type":"Point"},"properties":{"osm_id":"726513038","tag":{"amenity":"waste_basket"}},"type":"Feature"},
	{"geometry":{"coordinates":[6.821508,51.097215],"type":"Point"},"properties":{"osm_id":"726587413","tag":{"amenity":"waste_basket"}},"type":"Feature"},
	{"geometry":{"coordinates":[6.837478,51.09384],"type":"Point"},"properties":{"osm_id":"727743924","tag":{"amenity":"waste_basket"}},"type":"Feature"},
	{"geometry":{"coordinates":[6.83103,51.093319],"type":"Point"},"properties":{"osm_id":"727761233","tag":{"amenity":"recycling","recycling:glass":"yes","recycling_type":"container"}},"type":"Feature"},
	{"geometry":{"coordinates":[6.828063,51.094781],"type":"Point"},"properties":{"osm_id":"728478608","tag":{"amenity":"waste_basket"}},"type":"Feature"},
	{"geometry":{"coordinates":[6.821516,51.097419],"type":"Point"},"properties":{"osm_id":"748971411","tag":{"amenity":"waste_basket"}},"type":"Feature"},
	{"geometry":{"coordinates":[6.82648,51.095701],"type":"Point"},"properties":{"osm_id":"918808106","tag":{"amenity":"recycling","recycling:clothes":"yes","recycling:shoes":"yes"}},"type":"Feature"},
	{"geometry":{"coordinates":[6.821862,51.097205],"type":"Point"},"properties":{"osm_id":"941679566","tag":{"amenity":"waste_basket"}},"type":"Feature"},
	{"geometry":{"coordinates":[6.837876,51.094553],"type":"Point"},"properties":{"osm_id":"958679505","tag":{"amenity":"waste_basket"}},"type":"Feature"},
	{"geometry":{"coordinates":[6.820536,51.092043],"type":"Point"},"properties":{"osm_id":"1053710400","tag":{"amenity":"recycling","operator":"Sch\u00c3\u00b6nmackers Umweltdienste GmbH & Co. KG","recycling:glass":"yes","recycling_type":"container"}},"type":"Feature"},
	{"geometry":{"coordinates":[6.822841,51.097346],"type":"Point"},"properties":{"osm_id":"1103720940","tag":{"amenity":"recycling","operator":"Malteser","recycling:clothes":"yes"}},"type":"Feature"},
	{"geometry":{"coordinates":[6.822084,51.097637],"type":"Point"},"properties":{"osm_id":"1228161683","tag":{"amenity":"waste_basket"}},"type":"Feature"},
	{"geometry":{"coordinates":[6.821999,51.097584],"type":"Point"},"properties":{"osm_id":"1228161711","tag":{"amenity":"waste_basket"}},"type":"Feature"},
	{"geometry":{"coordinates":[6.822024,51.097672],"type":"Point"},"properties":{"osm_id":"1228161715","tag":{"amenity":"waste_basket"}},"type":"Feature"},
	{"geometry":{"coordinates":[6.822065,51.097491],"type":"Point"},"properties":{"osm_id":"1228161738","tag":{"amenity":"waste_basket"}},"type":"Feature"},
	{"geometry":{"coordinates":[6.810236,51.094158],"type":"Point"},"properties":{"osm_id":"1265508764","tag":{"amenity":"waste_basket"}},"type":"Feature"},
	{"geometry":{"coordinates":[6.810121,51.094134],"type":"Point"},"properties":{"osm_id":"1265509480","tag":{"amenity":"waste_basket"}},"type":"Feature"},
	{"geometry":{"coordinates":[6.848236,51.118935],"type":"Point"},"properties":{"osm_id":"1304950479","tag":{"amenity":"waste_basket"}},"type":"Feature"},
	{"geometry":{"coordinates":[6.851888,51.123907],"type":"Point"},"properties":{"osm_id":"1305023267","tag":{"amenity":"recycling","recycling:clothes":"yes","recycling_type":"container"}},"type":"Feature"},
	{"geometry":{"coordinates":[6.783505,51.123516],"type":"Point"},"properties":{"osm_id":"1305581346","tag":{"amenity":"waste_basket"}},"type":"Feature"},
	{"geometry":{"coordinates":[6.781929,51.122412],"type":"Point"},"properties":{"osm_id":"1305610256","tag":{"amenity":"waste_basket"}},"type":"Feature"},
	{"geometry":{"coordinates":[6.812784,51.095531],"type":"Point"},"properties":{"osm_id":"1370357967","tag":{"amenity":"recycling","recycling:clothes":"yes","recycling:glass":"yes","recycling_type":"container"}},"type":"Feature"},
	{"geometry":{"coordinates":[6.778087,51.121001],"type":"Point"},"properties":{"osm_id":"1381462871","tag":{"amenity":"recycling","recycling:glass_bottles":"yes","recycling_type":"container"}},"type":"Feature"},
	{"geometry":{"coordinates":[6.813554,51.102311],"type":"Point"},"properties":{"osm_id":"1431917277","tag":{"amenity":"recycling","recycling:glass":"yes","recycling_type":"container"}},"type":"Feature"},
	{"geometry":{"coordinates":[6.831936,51.095632],"type":"Point"},"properties":{"osm_id":"1503068871","tag":{"amenity":"waste_basket"}},"type":"Feature"},
	{"geometry":{"coordinates":[6.83216,51.095649],"type":"Point"},"properties":{"osm_id":"1503068875","tag":{"amenity":"waste_basket"}},"type":"Feature"},
	{"geometry":{"coordinates":[6.844049,51.090521],"type":"Point"},"properties":{"osm_id":"1539854945","tag":{"amenity":"waste_basket"}},"type":"Feature"},
	{"geometry":{"coordinates":[6.844135,51.090556],"type":"Point"},"properties":{"osm_id":"1539854971","tag":{"amenity":"waste_basket"}},"type":"Feature"},
	{"geometry":{"coordinates":[6.783628,51.123894],"type":"Point"},"properties":{"osm_id":"1556463717","tag":{"amenity":"recycling","recycling:clothes":"yes"}},"type":"Feature"},
	{"geometry":{"coordinates":[6.813646,51.093418],"type":"Point"},"properties":{"osm_id":"1620138187","tag":{"amenity":"waste_basket"}},"type":"Feature"},
	{"geometry":{"coordinates":[6.7707,51.115791],"type":"Point"},"properties":{"osm_id":"1647282404","tag":{"amenity":"recycling","recycling:clothes":"yes","recycling:shoes":"yes"}},"type":"Feature"},
	{"geometry":{"coordinates":[6.782258,51.123779],"type":"Point"},"properties":{"osm_id":"1688957813","tag":{"amenity":"recycling","recycling:clothes":"yes"}},"type":"Feature"},
	{"geometry":{"coordinates":[6.833037,51.122665],"type":"Point"},"properties":{"osm_id":"1706432023","tag":{"amenity":"waste_basket"}},"type":"Feature"},
	{"geometry":{"coordinates":[6.830811,51.121328],"type":"Point"},"properties":{"osm_id":"1743671626","tag":{"amenity":"waste_basket"}},"type":"Feature"},
	{"geometry":{"coordinates":[6.767617,51.120938],"type":"Point"},"properties":{"osm_id":"1826801217","tag":{"amenity":"waste_basket"}},"type":"Feature"},
	{"geometry":{"coordinates":[6.802406,51.079763],"type":"Point"},"properties":{"osm_id":"1919434432","tag":{"amenity":"waste_basket"}},"type":"Feature"},
	{"geometry":{"coordinates":[6.848835,51.085711],"type":"Point"},"properties":{"osm_id":"1925134424","tag":{"amenity":"waste_basket"}},"type":"Feature"},
	{"geometry":{"coordinates":[6.843836,51.097929],"type":"Point"},"properties":{"osm_id":"1931455275","tag":{"amenity":"waste_basket"}},"type":"Feature"},
	{"geometry":{"coordinates":[6.843677,51.098101],"type":"Point"},"properties":{"osm_id":"1931455279","tag":{"amenity":"waste_basket"}},"type":"Feature"},
	{"geometry":{"coordinates":[6.815356,51.09972],"type":"Point"},"properties":{"osm_id":"1961724306","tag":{"amenity":"recycling","recycling:glass":"yes","recycling_type":"container"}},"type":"Feature"},
	{"geometry":{"coordinates":[6.85035,51.118985],"type":"Point"},"properties":{"osm_id":"2014587794","tag":{"amenity":"waste_basket"}},"type":"Feature"},
	{"geometry":{"coordinates":[6.845219,51.121656],"type":"Point"},"properties":{"osm_id":"2014587802","tag":{"amenity":"recycling","recycling:glass":"yes","recycling_type":"container"}},"type":"Feature"},
	{"geometry":{"coordinates":[6.822654,51.10165],"type":"Point"},"properties":{"osm_id":"2328506209","tag":{"amenity":"waste_basket"}},"type":"Feature"},
	{"geometry":{"coordinates":[6.823744,51.102175],"type":"Point"},"properties":{"osm_id":"2328506232","tag":{"amenity":"recycling","recycling:glass":"yes","recycling_type":"container"}},"type":"Feature"},
	{"geometry":{"coordinates":[6.841021,51.097312],"type":"Point"},"properties":{"osm_id":"2396964956","tag":{"amenity":"recycling"}},"type":"Feature"},
	{"geometry":{"coordinates":[6.779831,51.082451],"type":"Point"},"properties":{"osm_id":"2401489358","tag":{"amenity":"recycling"}},"type":"Feature"},
	{"geometry":{"coordinates":[6.841721,51.118255],"type":"Point"},"properties":{"osm_id":"2405497529","tag":{"amenity":"waste_basket"}},"type":"Feature"},
	{"geometry":{"coordinates":[6.782976,51.123532],"type":"Point"},"properties":{"osm_id":"2406169668","tag":{"amenity":"waste_basket"}},"type":"Feature"},
	{"geometry":{"coordinates":[6.782464,51.123888],"type":"Point"},"properties":{"osm_id":"2406169669","tag":{"amenity":"waste_basket"}},"type":"Feature"},
	{"geometry":{"coordinates":[6.850751,51.123986],"type":"Point"},"properties":{"osm_id":"2456270156","tag":{"amenity":"waste_basket"}},"type":"Feature"},
	{"geometry":{"coordinates":[6.81705,51.099206],"type":"Point"},"properties":{"osm_id":"2459629373","tag":{"amenity":"waste_basket"}},"type":"Feature"},
	{"geometry":{"coordinates":[6.816825,51.099336],"type":"Point"},"properties":{"osm_id":"2459629385","tag":{"amenity":"waste_basket"}},"type":"Feature"},
	{"geometry":{"coordinates":[6.816953,51.099398],"type":"Point"},"properties":{"osm_id":"2459629389","tag":{"amenity":"waste_basket"}},"type":"Feature"},
	{"geometry":{"coordinates":[6.817107,51.099474],"type":"Point"},"properties":{"osm_id":"2459629394","tag":{"amenity":"waste_basket"}},"type":"Feature"},
	{"geometry":{"coordinates":[6.853114,51.103544],"type":"Point"},"properties":{"osm_id":"2581825625","tag":{"amenity":"waste_basket"}},"type":"Feature"},
	{"geometry":{"coordinates":[6.851737,51.120646],"type":"Point"},"properties":{"osm_id":"2754147687","tag":{"amenity":"waste_basket"}},"type":"Feature"},
	{"geometry":{"coordinates":[6.851739,51.12074],"type":"Point"},"properties":{"osm_id":"2754147690","tag":{"amenity":"waste_basket"}},"type":"Feature"},
	{"geometry":{"coordinates":[6.851284,51.122863],"type":"Point"},"properties":{"osm_id":"2754470889","tag":{"amenity":"waste_basket"}},"type":"Feature"},
	{"geometry":{"coordinates":[6.851218,51.122965],"type":"Point"},"properties":{"osm_id":"2754470893","tag":{"amenity":"waste_basket"}},"type":"Feature"},
	{"geometry":{"coordinates":[6.842835,51.084327],"type":"Point"},"properties":{"osm_id":"3027944354","tag":{"amenity":"waste_basket"}},"type":"Feature"},
	{"geometry":{"coordinates":[6.842673,51.08464],"type":"Point"},"properties":{"osm_id":"3027944355","tag":{"amenity":"waste_basket"}},"type":"Feature"},
	{"geometry":{"coordinates":[6.842095,51.086281],"type":"Point"},"properties":{"osm_id":"3027944356","tag":{"amenity":"waste_basket"}},"type":"Feature"},
	{"geometry":{"coordinates":[6.842081,51.086309],"type":"Point"},"properties":{"osm_id":"3027944358","tag":{"amenity":"waste_basket"}},"type":"Feature"},
	{"geometry":{"coordinates":[6.842148,51.086212],"type":"Point"},"properties":{"osm_id":"3038852127","tag":{"amenity":"waste_basket"}},"type":"Feature"},
	{"geometry":{"coordinates":[6.839674,51.093428],"type":"Point"},"properties":{"osm_id":"3049523448","tag":{"amenity":"waste_basket"}},"type":"Feature"},
	{"geometry":{"coordinates":[6.826998,51.091835],"type":"Point"},"properties":{"osm_id":"3099096965","tag":{"amenity":"waste_basket"}},"type":"Feature"},
	{"geometry":{"coordinates":[6.849825,51.119037],"type":"Point"},"properties":{"osm_id":"3113704111","tag":{"amenity":"waste_basket"}},"type":"Feature"},
	{"geometry":{"coordinates":[6.848275,51.119892],"type":"Point"},"properties":{"osm_id":"3113704113","tag":{"amenity":"waste_basket"}},"type":"Feature"},
	{"geometry":{"coordinates":[6.847347,51.119952],"type":"Point"},"properties":{"osm_id":"3113704114","tag":{"amenity":"waste_basket"}},"type":"Feature"},
	{"geometry":{"coordinates":[6.847789,51.120013],"type":"Point"},"properties":{"osm_id":"3113704118","tag":{"amenity":"waste_basket"}},"type":"Feature"},
	{"geometry":{"coordinates":[6.848241,51.120045],"type":"Point"},"properties":{"osm_id":"3113704120","tag":{"amenity":"waste_basket"}},"type":"Feature"},
	{"geometry":{"coordinates":[6.848053,51.120052],"type":"Point"},"properties":{"osm_id":"3113704121","tag":{"amenity":"waste_basket"}},"type":"Feature"},
	{"geometry":{"coordinates":[6.845221,51.085988],"type":"Point"},"properties":{"osm_id":"3118712476","tag":{"amenity":"waste_basket"}},"type":"Feature"},
	{"geometry":{"coordinates":[6.791443,51.083045],"type":"Point"},"properties":{"osm_id":"3495355941","tag":{"amenity":"waste_basket"}},"type":"Feature"},
	{"geometry":{"coordinates":[6.791443,51.083155],"type":"Point"},"properties":{"osm_id":"3495355985","tag":{"amenity":"waste_basket"}},"type":"Feature"},
	{"geometry":{"coordinates":[6.836928,51.122152],"type":"Point"},"properties":{"osm_id":"3602665563","tag":{"amenity":"waste_basket"}},"type":"Feature"},
	{"geometry":{"coordinates":[6.813867,51.099699],"type":"Point"},"properties":{"osm_id":"3607511326","tag":{"amenity":"waste_basket"}},"type":"Feature"},
	{"geometry":{"coordinates":[6.844451,51.088736],"type":"Point"},"properties":{"osm_id":"3777201480","tag":{"amenity":"recycling","recycling:clothes":"yes","recycling:shoes":"yes","recycling_type":"container"}},"type":"Feature"},
	{"geometry":{"coordinates":[6.814986,51.099947],"type":"Point"},"properties":{"osm_id":"3786779178","tag":{"amenity":"waste_basket"}},"type":"Feature"},
	{"geometry":{"coordinates":[6.822033,51.105098],"type":"Point"},"properties":{"osm_id":"3790232877","tag":{"amenity":"waste_basket"}},"type":"Feature"},
	{"geometry":{"coordinates":[6.789987,51.082769],"type":"Point"},"properties":{"osm_id":"3797130062","tag":{"amenity":"waste_basket"}},"type":"Feature"},
	{"geometry":{"coordinates":[6.793959,51.082771],"type":"Point"},"properties":{"osm_id":"3797130063","tag":{"amenity":"waste_basket"}},"type":"Feature"},
	{"geometry":{"coordinates":[6.792053,51.082781],"type":"Point"},"properties":{"osm_id":"3797130067","tag":{"amenity":"waste_basket"}},"type":"Feature"},
	{"geometry":{"coordinates":[6.787326,51.084505],"type":"Point"},"properties":{"osm_id":"3797130082","tag":{"amenity":"waste_basket"}},"type":"Feature"},
	{"geometry":{"coordinates":[6.842586,51.092525],"type":"Point"},"properties":{"osm_id":"3801064076","tag":{"amenity":"waste_basket"}},"type":"Feature"},
	{"geometry":{"coordinates":[6.814214,51.093106],"type":"Point"},"properties":{"osm_id":"3802089961","tag":{"amenity":"recycling","operator":"Humana","recycling:clothes":"yes","recycling:shoes":"yes","recycling_type":"container"}},"type":"Feature"},
	{"geometry":{"coordinates":[6.811133,51.094299],"type":"Point"},"properties":{"osm_id":"3821461538","tag":{"amenity":"waste_basket"}},"type":"Feature"},
	{"geometry":{"coordinates":[6.811196,51.094303],"type":"Point"},"properties":{"osm_id":"3821461539","tag":{"amenity":"waste_basket"}},"type":"Feature"},
	{"geometry":{"coordinates":[6.811353,51.094335],"type":"Point"},"properties":{"osm_id":"3821461540","tag":{"amenity":"waste_basket"}},"type":"Feature"},
	{"geometry":{"coordinates":[6.789935,51.083064],"type":"Point"},"properties":{"osm_id":"3887383551","tag":{"amenity":"waste_basket"}},"type":"Feature"},
	{"geometry":{"coordinates":[6.851271,51.12094],"type":"Point"},"properties":{"osm_id":"3926054514","tag":{"amenity":"waste_basket"}},"type":"Feature"},
	{"geometry":{"coordinates":[6.851498,51.120961],"type":"Point"},"properties":{"osm_id":"3926054517","tag":{"amenity":"waste_basket"}},"type":"Feature"},
	{"geometry":{"coordinates":[6.85168,51.121171],"type":"Point"},"properties":{"osm_id":"3926054522","tag":{"amenity":"waste_basket"}},"type":"Feature"},
	{"geometry":{"coordinates":[6.848668,51.09902],"type":"Point"},"properties":{"osm_id":"3927934026","tag":{"amenity":"waste_basket"}},"type":"Feature"},
	{"geometry":{"coordinates":[6.829694,51.092712],"type":"Point"},"properties":{"osm_id":"4244820477","tag":{"amenity":"waste_basket"}},"type":"Feature"},
	{"geometry":{"coordinates":[6.806168,51.097619],"type":"Point"},"properties":{"osm_id":"4296748882","tag":{"amenity":"recycling","recycling:glass":"yes","recycling:glass_bottles":"yes","recycling:paper":"yes","recycling_type":"container"}},"type":"Feature"},
	{"geometry":{"coordinates":[6.782678,51.079552],"type":"Point"},"properties":{"osm_id":"4736590934","tag":{"amenity":"recycling","recycling:clothes":"yes","recycling:shoes":"yes","recycling_type":"container"}},"type":"Feature"},
	{"geometry":{"coordinates":[6.788328,51.082426],"type":"Point"},"properties":{"osm_id":"4736590973","tag":{"amenity":"waste_basket"}},"type":"Feature"},
	{"geometry":{"coordinates":[6.788905,51.082416],"type":"Point"},"properties":{"osm_id":"4736591272","tag":{"amenity":"waste_basket"}},"type":"Feature"},
	{"geometry":{"coordinates":[6.841407,51.093578],"type":"Point"},"properties":{"osm_id":"5054632172","tag":{"amenity":"waste_basket"}},"type":"Feature"},
	{"geometry":{"coordinates":[6.81834,51.099883],"type":"Point"},"properties":{"osm_id":"5694535165","tag":{"amenity":"recycling","lastcheck":"2018-05-13","recycling:clothes":"yes","recycling:shoes":"yes","recycling_type":"container"}},"type":"Feature"},
	{"geometry":{"coordinates":[6.818364,51.099858],"type":"Point"},"properties":{"osm_id":"5694535166","tag":{"amenity":"recycling","lastcheck":"2018-05-13","recycling:glass":"yes","recycling:glass_bottles":"yes","recycling_type":"container"}},"type":"Feature"},
	{"geometry":{"coordinates":[6.816799,51.095229],"type":"Point"},"properties":{"osm_id":"5836790154","tag":{"amenity":"waste_basket","waste":"trash"}},"type":"Feature"},
	{"geometry":{"coordinates":[6.836215,51.118853],"type":"Point"},"properties":{"osm_id":"6432788116","tag":{"amenity":"waste_basket"}},"type":"Feature"},
	{"geometry":{"coordinates":[6.836513,51.119176],"type":"Point"},"properties":{"osm_id":"6432788117","tag":{"amenity":"waste_basket"}},"type":"Feature"},
	{"geometry":{"coordinates":[6.841554,51.093323],"type":"Point"},"properties":{"osm_id":"7325551285","tag":{"amenity":"waste_basket"}},"type":"Feature"},
	{"geometry":{"coordinates":[6.812744,51.070377],"type":"Point"},"properties":{"osm_id":"7430989250","tag":{"amenity":"waste_basket"}},"type":"Feature"},
	{"geometry":{"coordinates":[6.793822,51.07835],"type":"Point"},"properties":{"osm_id":"7556625652","tag":{"amenity":"waste_basket"}},"type":"Feature"},
	{"geometry":{"coordinates":[6.790072,51.082761],"type":"Point"},"properties":{"osm_id":"7556951721","tag":{"amenity":"waste_basket"}},"type":"Feature"},
	{"geometry":{"coordinates":[6.79007,51.083082],"type":"Point"},"properties":{"osm_id":"7556961005","tag":{"amenity":"waste_basket"}},"type":"Feature"},
	{"geometry":{"coordinates":[6.772625,51.10025],"type":"Point"},"properties":{"osm_id":"7710594328","tag":{"amenity":"waste_basket"}},"type":"Feature"},
	{"geometry":{"coordinates":[6.795179,51.082348],"type":"Point"},"properties":{"osm_id":"7772857916","tag":{"amenity":"waste_basket"}},"type":"Feature"},
	{"geometry":{"coordinates":[6.825135,51.107802],"type":"Point"},"properties":{"osm_id":"7774322685","tag":{"amenity":"waste_basket"}},"type":"Feature"}
]
}
