{
"type": "FeatureCollection",
"features": [
	{"geometry":{"coordinates":[6.812743,51.018342],"type":"Point"},"properties":{"osm_id":"254616127","tag":{"amenity":"recycling","recycling:glass":"no","recycling:glass_bottles":"yes","recycling_type":"container"}},"type":"Feature"},
	{"geometry":{"coordinates":[6.810532,51.023867],"type":"Point"},"properties":{"osm_id":"254616128","tag":{"amenity":"recycling","recycling:glass_bottles":"yes","recycling_type":"container"}},"type":"Feature"},
	{"geometry":{"coordinates":[6.821301,51.022571],"type":"Point"},"properties":{"osm_id":"254616129","tag":{"amenity":"recycling","recycling:glass":"yes","recycling_type":"container"}},"type":"Feature"},
	{"geometry":{"coordinates":[6.816352,51.022919],"type":"Point"},"properties":{"osm_id":"255462081","tag":{"amenity":"recycling","recycling:glass_bottles":"yes","recycling_type":"container"}},"type":"Feature"},
	{"geometry":{"coordinates":[6.850559,51.051694],"type":"Point"},"properties":{"osm_id":"267098970","tag":{"amenity":"recycling","location":"overground","recycling_type":"container"}},"type":"Feature"},
	{"geometry":{"coordinates":[6.848998,51.049542],"type":"Point"},"properties":{"osm_id":"267098987","tag":{"amenity":"recycling"}},"type":"Feature"},
	{"geometry":{"coordinates":[6.85064,51.059728],"type":"Point"},"properties":{"osm_id":"963229102","tag":{"amenity":"recycling","operator":"Remondis","recycling:clothes":"yes","recycling:glass_bottles":"yes","recycling_type":"container"}},"type":"Feature"},
	{"geometry":{"coordinates":[6.851166,51.060024],"type":"Point"},"properties":{"osm_id":"963229116","tag":{"amenity":"recycling","operator":"Humana","recycling:clothes":"yes","recycling_type":"container"}},"type":"Feature"},
	{"geometry":{"coordinates":[6.844978,51.044474],"type":"Point"},"properties":{"osm_id":"1350617646","tag":{"amenity":"recycling"}},"type":"Feature"},
	{"geometry":{"coordinates":[6.811127,51.023263],"type":"Point"},"properties":{"osm_id":"1716290211","tag":{"amenity":"recycling","recycling:clothes":"yes","recycling_type":"container"}},"type":"Feature"},
	{"geometry":{"coordinates":[6.851236,51.024481],"type":"Point"},"properties":{"osm_id":"2827084238","tag":{"amenity":"waste_basket"}},"type":"Feature"},
	{"geometry":{"coordinates":[6.850994,51.024616],"type":"Point"},"properties":{"osm_id":"2827084239","tag":{"amenity":"waste_basket"}},"type":"Feature"},
	{"geometry":{"coordinates":[6.850788,51.024735],"type":"Point"},"properties":{"osm_id":"2827084240","tag":{"amenity":"waste_basket"}},"type":"Feature"},
	{"geometry":{"coordinates":[6.850617,51.024848],"type":"Point"},"properties":{"osm_id":"2827084241","tag":{"amenity":"waste_basket"}},"type":"Feature"},
	{"geometry":{"coordinates":[6.85041,51.024986],"type":"Point"},"properties":{"osm_id":"2827084244","tag":{"amenity":"waste_basket"}},"type":"Feature"},
	{"geometry":{"coordinates":[6.8502,51.02513],"type":"Point"},"properties":{"osm_id":"2827084248","tag":{"amenity":"waste_basket"}},"type":"Feature"},
	{"geometry":{"coordinates":[6.850035,51.025258],"type":"Point"},"properties":{"osm_id":"2827084250","tag":{"amenity":"waste_basket"}},"type":"Feature"},
	{"geometry":{"coordinates":[6.849846,51.025384],"type":"Point"},"properties":{"osm_id":"2827084251","tag":{"amenity":"waste_basket"}},"type":"Feature"},
	{"geometry":{"coordinates":[6.849654,51.025524],"type":"Point"},"properties":{"osm_id":"2827084252","tag":{"amenity":"waste_basket"}},"type":"Feature"},
	{"geometry":{"coordinates":[6.849471,51.025676],"type":"Point"},"properties":{"osm_id":"2827084254","tag":{"amenity":"waste_basket"}},"type":"Feature"},
	{"geometry":{"coordinates":[6.849269,51.025817],"type":"Point"},"properties":{"osm_id":"2827084255","tag":{"amenity":"waste_basket"}},"type":"Feature"},
	{"geometry":{"coordinates":[6.849132,51.025942],"type":"Point"},"properties":{"osm_id":"2827084256","tag":{"amenity":"waste_basket"}},"type":"Feature"},
	{"geometry":{"coordinates":[6.848979,51.026073],"type":"Point"},"properties":{"osm_id":"2827084257","tag":{"amenity":"waste_basket"}},"type":"Feature"},
	{"geometry":{"coordinates":[6.85249,51.02451],"type":"Point"},"properties":{"osm_id":"3797364257","tag":{"amenity":"waste_basket"}},"type":"Feature"},
	{"geometry":{"coordinates":[6.852092,51.024791],"type":"Point"},"properties":{"osm_id":"3797364259","tag":{"amenity":"waste_basket"}},"type":"Feature"},
	{"geometry":{"coordinates":[6.851713,51.025051],"type":"Point"},"properties":{"osm_id":"3797364261","tag":{"amenity":"waste_basket"}},"type":"Feature"},
	{"geometry":{"coordinates":[6.821059,51.01891],"type":"Point"},"properties":{"osm_id":"4765214086","tag":{"amenity":"waste_basket"}},"type":"Feature"},
	{"geometry":{"coordinates":[6.845797,51.047851],"type":"Point"},"properties":{"osm_id":"6064540653","tag":{"amenity":"waste_basket"}},"type":"Feature"},
	{"geometry":{"coordinates":[6.846266,51.048572],"type":"Point"},"properties":{"osm_id":"6064540654","tag":{"amenity":"waste_basket"}},"type":"Feature"},
	{"geometry":{"coordinates":[6.846601,51.049069],"type":"Point"},"properties":{"osm_id":"6064540655","tag":{"amenity":"waste_basket"}},"type":"Feature"},
	{"geometry":{"coordinates":[6.821521,51.018465],"type":"Point"},"properties":{"osm_id":"6680164233","tag":{"amenity":"waste_basket"}},"type":"Feature"},
	{"geometry":{"coordinates":[6.825123,51.022085],"type":"Point"},"properties":{"osm_id":"6814373739","tag":{"amenity":"recycling","recycling:glass_bottles":"yes","recycling_type":"container"}},"type":"Feature"},
	{"geometry":{"coordinates":[6.85307,51.014527],"type":"Point"},"properties":{"osm_id":"7342681090","tag":{"amenity":"waste_basket"}},"type":"Feature"},
	{"geometry":{"coordinates":[6.85288,51.014661],"type":"Point"},"properties":{"osm_id":"7342681101","tag":{"amenity":"waste_basket"}},"type":"Feature"},
	{"geometry":{"coordinates":[6.846403,51.014565],"type":"Point"},"properties":{"osm_id":"7369307417","tag":{"amenity":"waste_basket"}},"type":"Feature"},
	{"geometry":{"coordinates":[6.847521,51.014568],"type":"Point"},"properties":{"osm_id":"7369307422","tag":{"amenity":"waste_basket"}},"type":"Feature"},
	{"geometry":{"coordinates":[6.851449,51.014851],"type":"Point"},"properties":{"osm_id":"7369346474","tag":{"amenity":"waste_basket"}},"type":"Feature"},
	{"geometry":{"coordinates":[6.851165,51.01456],"type":"Point"},"properties":{"osm_id":"7369358225","tag":{"amenity":"recycling","recycling:glass_bottles":"yes","recycling_type":"container"}},"type":"Feature"},
	{"geometry":{"coordinates":[6.851385,51.015004],"type":"Point"},"properties":{"osm_id":"7369416686","tag":{"amenity":"waste_basket"}},"type":"Feature"},
	{"geometry":{"coordinates":[6.85246,51.014641],"type":"Point"},"properties":{"osm_id":"7369416687","tag":{"amenity":"waste_basket"}},"type":"Feature"},
	{"geometry":{"coordinates":[6.848307,51.016409],"type":"Point"},"properties":{"osm_id":"7369453686","tag":{"amenity":"waste_basket"}},"type":"Feature"},
	{"geometry":{"coordinates":[6.84826,51.016364],"type":"Point"},"properties":{"osm_id":"7369453691","tag":{"amenity":"waste_basket"}},"type":"Feature"},
	{"geometry":{"coordinates":[6.852022,51.014389],"type":"Point"},"properties":{"osm_id":"7369491627","tag":{"amenity":"waste_basket"}},"type":"Feature"},
	{"geometry":{"coordinates":[6.854414,51.013983],"type":"Point"},"properties":{"osm_id":"7398920279","tag":{"amenity":"waste_basket"}},"type":"Feature"},
	{"geometry":{"coordinates":[6.774993,51.052838],"type":"Point"},"properties":{"osm_id":"8811732810","tag":{"amenity":"waste_basket","waste":"trash"}},"type":"Feature"},
	{"geometry":{"coordinates":[6.808287,51.013962],"type":"Point"},"properties":{"osm_id":"9025981884","tag":{"amenity":"waste_basket"}},"type":"Feature"},
	{"geometry":{"coordinates":[6.80562,51.029741],"type":"Point"},"properties":{"osm_id":"9025981892","tag":{"amenity":"waste_basket"}},"type":"Feature"}
]
}
