{
"type": "FeatureCollection",
"features": [
	{"geometry":{"coordinates":[6.797572,50.997175],"type":"Point"},"properties":{"osm_id":"254092662","tag":{"amenity":"recycling"}},"type":"Feature"},
	{"geometry":{"coordinates":[6.80616,51.006863],"type":"Point"},"properties":{"osm_id":"256882114","tag":{"amenity":"recycling"}},"type":"Feature"},
	{"geometry":{"coordinates":[6.804131,51.009723],"type":"Point"},"properties":{"osm_id":"276801061","tag":{"amenity":"recycling","collection_times":"Werktags bis 20 Uhr","recycling:cardboard":"yes","recycling:glass_bottles":"yes","recycling:paper":"yes","recycling_type":"container"}},"type":"Feature"},
	{"geometry":{"coordinates":[6.798663,51.010174],"type":"Point"},"properties":{"osm_id":"278269984","tag":{"amenity":"recycling","collection_times":"Werktags bis 20 Uhr","location":"overground","recycling:cardboard":"yes","recycling:glass_bottles":"yes","recycling:paper":"yes","recycling_type":"container"}},"type":"Feature"},
	{"geometry":{"coordinates":[6.792002,50.98074],"type":"Point"},"properties":{"osm_id":"279544372","tag":{"amenity":"recycling","recycling:clothes":"yes","recycling:glass":"yes","recycling:paper":"yes","recycling_type":"container"}},"type":"Feature"},
	{"geometry":{"coordinates":[6.781134,50.98182],"type":"Point"},"properties":{"osm_id":"279544874","tag":{"amenity":"recycling","recycling:clothes":"yes","recycling:glass":"yes","recycling:paper":"yes","recycling:shoes":"yes","recycling_type":"container"}},"type":"Feature"},
	{"geometry":{"coordinates":[6.774802,50.958836],"type":"Point"},"properties":{"osm_id":"367064181","tag":{"amenity":"recycling","recycling:glass":"yes","recycling:paper":"yes","recycling_type":"container"}},"type":"Feature"},
	{"geometry":{"coordinates":[6.773803,50.962187],"type":"Point"},"properties":{"osm_id":"453456650","tag":{"amenity":"recycling","recycling:clothes":"yes","recycling:glass":"yes","recycling:paper":"yes"}},"type":"Feature"},
	{"geometry":{"coordinates":[6.809582,50.994079],"type":"Point"},"properties":{"osm_id":"482708658","tag":{"amenity":"recycling","recycling:glass_bottles":"yes","recycling:paper":"yes","recycling_type":"container"}},"type":"Feature"},
	{"geometry":{"coordinates":[6.809493,50.994129],"type":"Point"},"properties":{"osm_id":"482708659","tag":{"amenity":"recycling","recycling:clothes":"yes","recycling_type":"centre"}},"type":"Feature"},
	{"geometry":{"coordinates":[6.80924,51.000558],"type":"Point"},"properties":{"osm_id":"623064071","tag":{"amenity":"recycling","location":"overground","recycling:glass":"yes","recycling_type":"container"}},"type":"Feature"},
	{"geometry":{"coordinates":[6.813416,51.000882],"type":"Point"},"properties":{"osm_id":"623415293","tag":{"amenity":"recycling","mapillary":"BLh-rGOFJ9wl0WYo5JAwBQ","recycling:clothes":"yes","recycling:glass":"yes","recycling:paper":"yes","recycling_type":"container","survey:date":"2019-06-05"}},"type":"Feature"},
	{"geometry":{"coordinates":[6.808181,50.998837],"type":"Point"},"properties":{"osm_id":"649003489","tag":{"amenity":"recycling","location":"overground","recycling:clothes":"yes","recycling:glass":"yes","recycling_type":"container"}},"type":"Feature"},
	{"geometry":{"coordinates":[6.806821,51.001042],"type":"Point"},"properties":{"osm_id":"649003497","tag":{"amenity":"recycling","location":"overground","recycling:clothes":"yes","recycling_type":"container"}},"type":"Feature"},
	{"geometry":{"coordinates":[6.811271,51.002621],"type":"Point"},"properties":{"osm_id":"649003526","tag":{"amenity":"recycling","mapillary":"PZX49JYItcfoHJQCN1VrWA","recycling:clothes":"yes","recycling_type":"container","survey:date":"2019-06-05"}},"type":"Feature"},
	{"geometry":{"coordinates":[6.779071,50.972901],"type":"Point"},"properties":{"osm_id":"672926952","tag":{"amenity":"recycling"}},"type":"Feature"},
	{"geometry":{"coordinates":[6.799146,50.99623],"type":"Point"},"properties":{"osm_id":"672935696","tag":{"amenity":"recycling","recycling:glass_bottles":"yes","recycling:paper":"yes","recycling_type":"container"}},"type":"Feature"},
	{"geometry":{"coordinates":[6.795158,50.959726],"type":"Point"},"properties":{"osm_id":"828671046","tag":{"amenity":"recycling","operator":"Stadt Pulheim","recycling:cans":"no","recycling:clothes":"yes","recycling:glass":"yes","recycling:paper":"yes"}},"type":"Feature"},
	{"geometry":{"coordinates":[6.781254,50.977918],"type":"Point"},"properties":{"osm_id":"847650630","tag":{"amenity":"recycling","recycling:clothes":"no","recycling:glass_bottles":"yes","recycling:paper":"yes","recycling_type":"container"}},"type":"Feature"},
	{"geometry":{"coordinates":[6.784024,50.9813],"type":"Point"},"properties":{"osm_id":"848523532","tag":{"amenity":"waste_basket"}},"type":"Feature"},
	{"geometry":{"coordinates":[6.773033,50.976049],"type":"Point"},"properties":{"osm_id":"848724160","tag":{"amenity":"recycling","recycling:glass_bottles":"yes","recycling:paper":"yes","recycling_type":"container"}},"type":"Feature"},
	{"geometry":{"coordinates":[6.783796,50.97968],"type":"Point"},"properties":{"osm_id":"906803462","tag":{"amenity":"waste_basket"}},"type":"Feature"},
	{"geometry":{"coordinates":[6.780938,50.98103],"type":"Point"},"properties":{"osm_id":"906803555","tag":{"amenity":"waste_basket"}},"type":"Feature"},
	{"geometry":{"coordinates":[6.78264,50.978726],"type":"Point"},"properties":{"osm_id":"906803621","tag":{"amenity":"waste_basket"}},"type":"Feature"},
	{"geometry":{"coordinates":[6.784063,50.981356],"type":"Point"},"properties":{"osm_id":"906837361","tag":{"amenity":"recycling","recycling:paper":"yes","recycling:shoes":"yes","recycling_type":"container"}},"type":"Feature"},
	{"geometry":{"coordinates":[6.783943,50.981244],"type":"Point"},"properties":{"osm_id":"906837388","tag":{"amenity":"recycling","recycling:clothes":"yes","recycling:glass":"yes","recycling_type":"container"}},"type":"Feature"},
	{"geometry":{"coordinates":[6.783229,50.980421],"type":"Point"},"properties":{"osm_id":"906837405","tag":{"amenity":"waste_basket"}},"type":"Feature"},
	{"geometry":{"coordinates":[6.784135,50.981422],"type":"Point"},"properties":{"osm_id":"906837408","tag":{"amenity":"waste_basket"}},"type":"Feature"},
	{"geometry":{"coordinates":[6.783706,50.980846],"type":"Point"},"properties":{"osm_id":"906837440","tag":{"amenity":"waste_basket"}},"type":"Feature"},
	{"geometry":{"coordinates":[6.77547,50.98606],"type":"Point"},"properties":{"osm_id":"907160169","tag":{"amenity":"waste_basket"}},"type":"Feature"},
	{"geometry":{"coordinates":[6.769222,50.987755],"type":"Point"},"properties":{"osm_id":"907160236","tag":{"amenity":"waste_basket"}},"type":"Feature"},
	{"geometry":{"coordinates":[6.813263,51.003984],"type":"Point"},"properties":{"osm_id":"1195389629","tag":{"amenity":"recycling","location":"overground","recycling:clothes":"yes","recycling:glass":"no","recycling:glass_bottles":"yes","recycling:paper":"yes","recycling_type":"container"}},"type":"Feature"},
	{"geometry":{"coordinates":[6.790632,51.007887],"type":"Point"},"properties":{"osm_id":"1200523184","tag":{"amenity":"recycling","collection_times":"Werktags bis 20 Uhr","location":"overground","recycling:cardboard":"yes","recycling:clothes":"yes","recycling:glass":"no","recycling:glass_bottles":"yes","recycling:paper":"yes","recycling_type":"container"}},"type":"Feature"},
	{"geometry":{"coordinates":[6.815862,50.988939],"type":"Point"},"properties":{"name":"Fa. Steinhaus Metallrecycling","osm_id":"1659161951","tag":{"amenity":"recycling","recycling_type":"centre"}},"type":"Feature"},
	{"geometry":{"coordinates":[6.832318,50.960713],"type":"Point"},"properties":{"osm_id":"1707311720","tag":{"amenity":"waste_basket"}},"type":"Feature"},
	{"geometry":{"coordinates":[6.829404,50.960504],"type":"Point"},"properties":{"osm_id":"2145110680","tag":{"amenity":"waste_disposal"}},"type":"Feature"},
	{"geometry":{"coordinates":[6.781888,50.961918],"type":"Point"},"properties":{"osm_id":"2450696630","tag":{"amenity":"waste_basket"}},"type":"Feature"},
	{"geometry":{"coordinates":[6.782068,50.961587],"type":"Point"},"properties":{"osm_id":"3248788797","tag":{"amenity":"waste_basket"}},"type":"Feature"},
	{"geometry":{"coordinates":[6.852148,50.964089],"type":"Point"},"properties":{"osm_id":"3657874559","tag":{"amenity":"waste_basket"}},"type":"Feature"},
	{"geometry":{"coordinates":[6.835897,50.96545],"type":"Point"},"properties":{"osm_id":"3933939028","tag":{"amenity":"recycling","recycling:glass_bottles":"yes","recycling_type":"container"}},"type":"Feature"},
	{"geometry":{"coordinates":[6.839754,50.987771],"type":"Point"},"properties":{"osm_id":"4264318373","tag":{"amenity":"waste_basket"}},"type":"Feature"},
	{"geometry":{"coordinates":[6.840345,50.988326],"type":"Point"},"properties":{"osm_id":"4264318375","tag":{"amenity":"waste_basket"}},"type":"Feature"},
	{"geometry":{"coordinates":[6.840409,50.989492],"type":"Point"},"properties":{"osm_id":"4264318378","tag":{"amenity":"waste_basket"}},"type":"Feature"},
	{"geometry":{"coordinates":[6.852856,51.000759],"type":"Point"},"properties":{"osm_id":"4304647250","tag":{"amenity":"recycling","location":"overground","recycling:glass_bottles":"yes","recycling_type":"container"}},"type":"Feature"},
	{"geometry":{"coordinates":[6.781136,50.960447],"type":"Point"},"properties":{"osm_id":"4396430858","tag":{"amenity":"recycling","opening_hours":"24/7","recycling:clothes":"yes","recycling_type":"container"}},"type":"Feature"},
	{"geometry":{"coordinates":[6.781331,50.960594],"type":"Point"},"properties":{"osm_id":"4396430862","tag":{"amenity":"waste_basket"}},"type":"Feature"},
	{"geometry":{"coordinates":[6.83519,50.973676],"type":"Point"},"properties":{"osm_id":"4554461925","tag":{"amenity":"waste_basket"}},"type":"Feature"},
	{"geometry":{"coordinates":[6.820214,51.004485],"type":"Point"},"properties":{"osm_id":"4765107928","tag":{"amenity":"waste_basket"}},"type":"Feature"},
	{"geometry":{"coordinates":[6.797132,50.999531],"type":"Point"},"properties":{"osm_id":"4765154332","tag":{"amenity":"recycling","recycling:glass_bottles":"yes","recycling:paper":"yes","recycling_type":"container"}},"type":"Feature"},
	{"geometry":{"coordinates":[6.838055,50.97238],"type":"Point"},"properties":{"osm_id":"5615354008","tag":{"amenity":"waste_basket"}},"type":"Feature"},
	{"geometry":{"coordinates":[6.844355,50.966088],"type":"Point"},"properties":{"osm_id":"5615442069","tag":{"amenity":"waste_basket"}},"type":"Feature"},
	{"geometry":{"coordinates":[6.832672,50.965459],"type":"Point"},"properties":{"osm_id":"5615442075","tag":{"amenity":"waste_basket"}},"type":"Feature"},
	{"geometry":{"coordinates":[6.832666,50.965207],"type":"Point"},"properties":{"osm_id":"5615442077","tag":{"amenity":"waste_basket"}},"type":"Feature"},
	{"geometry":{"coordinates":[6.829199,50.964689],"type":"Point"},"properties":{"osm_id":"5620708638","tag":{"amenity":"waste_basket"}},"type":"Feature"},
	{"geometry":{"coordinates":[6.831215,50.966865],"type":"Point"},"properties":{"osm_id":"5620708640","tag":{"amenity":"waste_basket"}},"type":"Feature"},
	{"geometry":{"coordinates":[6.831037,50.967091],"type":"Point"},"properties":{"osm_id":"5620708642","tag":{"amenity":"waste_basket"}},"type":"Feature"},
	{"geometry":{"coordinates":[6.828743,50.964601],"type":"Point"},"properties":{"osm_id":"5620708643","tag":{"amenity":"waste_basket"}},"type":"Feature"},
	{"geometry":{"coordinates":[6.840335,50.96119],"type":"Point"},"properties":{"osm_id":"5625171173","tag":{"amenity":"recycling","operator":"AWB K\u00c3\u00b6ln","recycling:clothes":"yes","recycling:shoes":"yes","recycling_type":"container"}},"type":"Feature"},
	{"geometry":{"coordinates":[6.840525,50.960964],"type":"Point"},"properties":{"osm_id":"5625171176","tag":{"amenity":"recycling","operator":"L.G.R. Recycling GmbH","recycling:clothes":"yes","recycling:shoes":"yes","recycling_type":"container"}},"type":"Feature"},
	{"geometry":{"coordinates":[6.830383,50.96781],"type":"Point"},"properties":{"osm_id":"5625376979","tag":{"amenity":"recycling","operator":"AWB K\u00c3\u00b6ln","recycling:clothes":"yes","recycling:shoes":"yes","recycling_type":"container"}},"type":"Feature"},
	{"geometry":{"coordinates":[6.833184,50.969363],"type":"Point"},"properties":{"osm_id":"5625376980","tag":{"amenity":"recycling","operator":"HUMANA Kleidersammlung GmbH","recycling:clothes":"yes","recycling:shoes":"yes","recycling_type":"container"}},"type":"Feature"},
	{"geometry":{"coordinates":[6.832922,50.969724],"type":"Point"},"properties":{"osm_id":"5625376981","tag":{"amenity":"recycling","recycling:glass":"yes","recycling:glass_bottles":"yes","recycling_type":"container"}},"type":"Feature"},
	{"geometry":{"coordinates":[6.830052,50.968008],"type":"Point"},"properties":{"osm_id":"5625376982","tag":{"amenity":"waste_basket"}},"type":"Feature"},
	{"geometry":{"coordinates":[6.833885,50.96869],"type":"Point"},"properties":{"osm_id":"5629428180","tag":{"amenity":"waste_basket"}},"type":"Feature"},
	{"geometry":{"coordinates":[6.838981,50.967775],"type":"Point"},"properties":{"osm_id":"5629428181","tag":{"amenity":"waste_basket"}},"type":"Feature"},
	{"geometry":{"coordinates":[6.837362,50.967208],"type":"Point"},"properties":{"osm_id":"5629455501","tag":{"amenity":"waste_basket"}},"type":"Feature"},
	{"geometry":{"coordinates":[6.829347,50.969525],"type":"Point"},"properties":{"osm_id":"5630161127","tag":{"amenity":"waste_basket"}},"type":"Feature"},
	{"geometry":{"coordinates":[6.829624,50.969385],"type":"Point"},"properties":{"osm_id":"5630187144","tag":{"amenity":"waste_basket"}},"type":"Feature"},
	{"geometry":{"coordinates":[6.840715,50.968977],"type":"Point"},"properties":{"osm_id":"5630670455","tag":{"amenity":"recycling","recycling:glass_bottles":"yes","recycling_type":"container"}},"type":"Feature"},
	{"geometry":{"coordinates":[6.839363,50.967702],"type":"Point"},"properties":{"osm_id":"5630670457","tag":{"amenity":"recycling","operator":"L.G.R. Recycling GmbH","recycling:clothes":"yes","recycling:shoes":"yes","recycling_type":"container"}},"type":"Feature"},
	{"geometry":{"coordinates":[6.839926,50.968161],"type":"Point"},"properties":{"osm_id":"5630670462","tag":{"amenity":"waste_basket"}},"type":"Feature"},
	{"geometry":{"coordinates":[6.835282,50.969673],"type":"Point"},"properties":{"osm_id":"5630670470","tag":{"amenity":"waste_basket"}},"type":"Feature"},
	{"geometry":{"coordinates":[6.833062,50.969572],"type":"Point"},"properties":{"osm_id":"5630670474","tag":{"amenity":"waste_basket"}},"type":"Feature"},
	{"geometry":{"coordinates":[6.841484,50.964877],"type":"Point"},"properties":{"osm_id":"5630829105","tag":{"amenity":"waste_basket"}},"type":"Feature"},
	{"geometry":{"coordinates":[6.84078,50.964889],"type":"Point"},"properties":{"osm_id":"5630829106","tag":{"amenity":"waste_basket"}},"type":"Feature"},
	{"geometry":{"coordinates":[6.842657,50.9682],"type":"Point"},"properties":{"osm_id":"5630829108","tag":{"amenity":"waste_basket"}},"type":"Feature"},
	{"geometry":{"coordinates":[6.840336,50.96579],"type":"Point"},"properties":{"osm_id":"5630832224","tag":{"amenity":"waste_basket"}},"type":"Feature"},
	{"geometry":{"coordinates":[6.841232,50.964848],"type":"Point"},"properties":{"osm_id":"5630832225","tag":{"amenity":"waste_basket"}},"type":"Feature"},
	{"geometry":{"coordinates":[6.841762,50.968136],"type":"Point"},"properties":{"osm_id":"5630832228","tag":{"amenity":"waste_basket"}},"type":"Feature"},
	{"geometry":{"coordinates":[6.841871,50.96352],"type":"Point"},"properties":{"osm_id":"5630863212","tag":{"amenity":"waste_basket"}},"type":"Feature"},
	{"geometry":{"coordinates":[6.840718,50.962902],"type":"Point"},"properties":{"osm_id":"5630898403","tag":{"amenity":"waste_basket"}},"type":"Feature"},
	{"geometry":{"coordinates":[6.836219,50.961368],"type":"Point"},"properties":{"osm_id":"5630898404","tag":{"amenity":"waste_basket"}},"type":"Feature"},
	{"geometry":{"coordinates":[6.842465,50.965007],"type":"Point"},"properties":{"osm_id":"5630898405","tag":{"amenity":"waste_basket"}},"type":"Feature"},
	{"geometry":{"coordinates":[6.842475,50.965167],"type":"Point"},"properties":{"osm_id":"5630898407","tag":{"amenity":"waste_basket"}},"type":"Feature"},
	{"geometry":{"coordinates":[6.83772,50.961846],"type":"Point"},"properties":{"osm_id":"5630898408","tag":{"amenity":"waste_basket"}},"type":"Feature"},
	{"geometry":{"coordinates":[6.840564,50.963114],"type":"Point"},"properties":{"osm_id":"5630898409","tag":{"amenity":"waste_basket"}},"type":"Feature"},
	{"geometry":{"coordinates":[6.836433,50.961188],"type":"Point"},"properties":{"osm_id":"5630898410","tag":{"amenity":"waste_basket"}},"type":"Feature"},
	{"geometry":{"coordinates":[6.840119,50.965552],"type":"Point"},"properties":{"osm_id":"5632314405","tag":{"amenity":"waste_basket"}},"type":"Feature"},
	{"geometry":{"coordinates":[6.838156,50.963705],"type":"Point"},"properties":{"osm_id":"5632314409","tag":{"amenity":"waste_basket"}},"type":"Feature"},
	{"geometry":{"coordinates":[6.838341,50.966499],"type":"Point"},"properties":{"osm_id":"5632314410","tag":{"amenity":"waste_basket"}},"type":"Feature"},
	{"geometry":{"coordinates":[6.836625,50.965164],"type":"Point"},"properties":{"osm_id":"5632314414","tag":{"amenity":"waste_basket"}},"type":"Feature"},
	{"geometry":{"coordinates":[6.839364,50.966195],"type":"Point"},"properties":{"osm_id":"5632314927","tag":{"amenity":"waste_basket"}},"type":"Feature"},
	{"geometry":{"coordinates":[6.839497,50.964146],"type":"Point"},"properties":{"osm_id":"5632314929","tag":{"amenity":"waste_basket"}},"type":"Feature"},
	{"geometry":{"coordinates":[6.837202,50.965293],"type":"Point"},"properties":{"osm_id":"5632314930","tag":{"amenity":"waste_basket"}},"type":"Feature"},
	{"geometry":{"coordinates":[6.837999,50.963486],"type":"Point"},"properties":{"osm_id":"5632314934","tag":{"amenity":"waste_basket"}},"type":"Feature"},
	{"geometry":{"coordinates":[6.830921,50.959689],"type":"Point"},"properties":{"osm_id":"5632343817","tag":{"amenity":"recycling","recycling:glass":"yes","recycling:glass_bottles":"yes","recycling_type":"container"}},"type":"Feature"},
	{"geometry":{"coordinates":[6.83194,50.959789],"type":"Point"},"properties":{"osm_id":"5632343818","tag":{"amenity":"waste_basket"}},"type":"Feature"},
	{"geometry":{"coordinates":[6.832156,50.959592],"type":"Point"},"properties":{"osm_id":"5632343819","tag":{"amenity":"waste_basket"}},"type":"Feature"},
	{"geometry":{"coordinates":[6.830344,50.963608],"type":"Point"},"properties":{"osm_id":"5632858939","tag":{"amenity":"waste_basket"}},"type":"Feature"},
	{"geometry":{"coordinates":[6.830259,50.963634],"type":"Point"},"properties":{"osm_id":"5632858943","tag":{"amenity":"waste_basket"}},"type":"Feature"},
	{"geometry":{"coordinates":[6.83636,50.964971],"type":"Point"},"properties":{"osm_id":"5632883180","tag":{"amenity":"waste_basket"}},"type":"Feature"},
	{"geometry":{"coordinates":[6.827073,50.961185],"type":"Point"},"properties":{"osm_id":"5652195449","tag":{"amenity":"waste_basket"}},"type":"Feature"},
	{"geometry":{"coordinates":[6.826796,50.961262],"type":"Point"},"properties":{"osm_id":"5652195455","tag":{"amenity":"waste_basket"}},"type":"Feature"},
	{"geometry":{"coordinates":[6.827451,50.961938],"type":"Point"},"properties":{"osm_id":"5652195464","tag":{"amenity":"recycling","operator":"AWB K\u00c3\u00b6ln","recycling:clothes":"yes","recycling:shoes":"yes","recycling_type":"container"}},"type":"Feature"},
	{"geometry":{"coordinates":[6.826831,50.961339],"type":"Point"},"properties":{"osm_id":"5652195465","tag":{"amenity":"waste_basket"}},"type":"Feature"},
	{"geometry":{"coordinates":[6.798402,50.962436],"type":"Point"},"properties":{"osm_id":"5679028357","tag":{"amenity":"waste_basket"}},"type":"Feature"},
	{"geometry":{"coordinates":[6.808713,50.962733],"type":"Point"},"properties":{"osm_id":"5679258008","tag":{"amenity":"waste_basket"}},"type":"Feature"},
	{"geometry":{"coordinates":[6.800202,50.960551],"type":"Point"},"properties":{"osm_id":"5679258009","tag":{"amenity":"waste_basket"}},"type":"Feature"},
	{"geometry":{"coordinates":[6.799067,50.960739],"type":"Point"},"properties":{"osm_id":"5679258017","tag":{"amenity":"waste_basket"}},"type":"Feature"},
	{"geometry":{"coordinates":[6.791611,50.961737],"type":"Point"},"properties":{"osm_id":"5679343830","tag":{"amenity":"waste_basket"}},"type":"Feature"},
	{"geometry":{"coordinates":[6.792013,50.961726],"type":"Point"},"properties":{"osm_id":"5679343833","tag":{"amenity":"waste_basket"}},"type":"Feature"},
	{"geometry":{"coordinates":[6.795061,50.963976],"type":"Point"},"properties":{"osm_id":"5679343834","tag":{"amenity":"waste_basket"}},"type":"Feature"},
	{"geometry":{"coordinates":[6.836375,50.973511],"type":"Point"},"properties":{"osm_id":"5694796328","tag":{"amenity":"waste_basket"}},"type":"Feature"},
	{"geometry":{"coordinates":[6.794006,50.963986],"type":"Point"},"properties":{"osm_id":"5694796329","tag":{"amenity":"recycling","recycling:glass":"yes","recycling:paper":"yes","recycling_type":"container"}},"type":"Feature"},
	{"geometry":{"coordinates":[6.789267,50.96506],"type":"Point"},"properties":{"osm_id":"5694835099","tag":{"amenity":"waste_basket"}},"type":"Feature"},
	{"geometry":{"coordinates":[6.789455,50.964506],"type":"Point"},"properties":{"osm_id":"5694835101","tag":{"amenity":"waste_basket"}},"type":"Feature"},
	{"geometry":{"coordinates":[6.788434,50.963985],"type":"Point"},"properties":{"osm_id":"5694846262","tag":{"amenity":"waste_basket"}},"type":"Feature"},
	{"geometry":{"coordinates":[6.789644,50.963974],"type":"Point"},"properties":{"osm_id":"5694846264","tag":{"amenity":"waste_basket"}},"type":"Feature"},
	{"geometry":{"coordinates":[6.789082,50.964944],"type":"Point"},"properties":{"osm_id":"5694846267","tag":{"amenity":"waste_basket"}},"type":"Feature"},
	{"geometry":{"coordinates":[6.782392,50.96446],"type":"Point"},"properties":{"osm_id":"5694958647","tag":{"amenity":"waste_basket"}},"type":"Feature"},
	{"geometry":{"coordinates":[6.777623,50.965111],"type":"Point"},"properties":{"osm_id":"5695218802","tag":{"amenity":"recycling","recycling:glass":"yes","recycling:paper":"yes","recycling_type":"container"}},"type":"Feature"},
	{"geometry":{"coordinates":[6.83398,50.966168],"type":"Point"},"properties":{"osm_id":"5695447048","tag":{"amenity":"waste_basket"}},"type":"Feature"},
	{"geometry":{"coordinates":[6.776529,50.963469],"type":"Point"},"properties":{"osm_id":"5695915547","tag":{"amenity":"waste_basket"}},"type":"Feature"},
	{"geometry":{"coordinates":[6.777649,50.963062],"type":"Point"},"properties":{"osm_id":"5695943969","tag":{"amenity":"recycling","recycling:clothes":"yes","recycling:glass":"yes","recycling:paper":"yes","recycling_type":"container"}},"type":"Feature"},
	{"geometry":{"coordinates":[6.777081,50.965699],"type":"Point"},"properties":{"osm_id":"5695943970","tag":{"amenity":"waste_basket"}},"type":"Feature"},
	{"geometry":{"coordinates":[6.775145,50.965337],"type":"Point"},"properties":{"osm_id":"5695943974","tag":{"amenity":"waste_basket"}},"type":"Feature"},
	{"geometry":{"coordinates":[6.77369,50.965003],"type":"Point"},"properties":{"osm_id":"5696020702","tag":{"amenity":"waste_basket"}},"type":"Feature"},
	{"geometry":{"coordinates":[6.792051,50.961359],"type":"Point"},"properties":{"osm_id":"5696020704","tag":{"amenity":"waste_basket"}},"type":"Feature"},
	{"geometry":{"coordinates":[6.792489,50.960785],"type":"Point"},"properties":{"osm_id":"5696020707","tag":{"amenity":"waste_basket"}},"type":"Feature"},
	{"geometry":{"coordinates":[6.788817,50.960974],"type":"Point"},"properties":{"osm_id":"5696062979","tag":{"amenity":"waste_basket"}},"type":"Feature"},
	{"geometry":{"coordinates":[6.785602,50.961689],"type":"Point"},"properties":{"osm_id":"5696062981","tag":{"amenity":"waste_basket"}},"type":"Feature"},
	{"geometry":{"coordinates":[6.788867,50.960578],"type":"Point"},"properties":{"osm_id":"5696062987","tag":{"amenity":"waste_basket"}},"type":"Feature"},
	{"geometry":{"coordinates":[6.785357,50.961426],"type":"Point"},"properties":{"osm_id":"5696062988","tag":{"amenity":"waste_basket"}},"type":"Feature"},
	{"geometry":{"coordinates":[6.785924,50.960843],"type":"Point"},"properties":{"osm_id":"5696062989","tag":{"amenity":"waste_basket"}},"type":"Feature"},
	{"geometry":{"coordinates":[6.783348,50.961849],"type":"Point"},"properties":{"osm_id":"5696096651","tag":{"amenity":"waste_basket"}},"type":"Feature"},
	{"geometry":{"coordinates":[6.785455,50.960764],"type":"Point"},"properties":{"osm_id":"5696096652","tag":{"amenity":"waste_basket"}},"type":"Feature"},
	{"geometry":{"coordinates":[6.782034,50.962305],"type":"Point"},"properties":{"osm_id":"5696096655","tag":{"amenity":"waste_basket"}},"type":"Feature"},
	{"geometry":{"coordinates":[6.784794,50.960753],"type":"Point"},"properties":{"osm_id":"5696096658","tag":{"amenity":"waste_basket"}},"type":"Feature"},
	{"geometry":{"coordinates":[6.783738,50.96168],"type":"Point"},"properties":{"osm_id":"5696096659","tag":{"amenity":"waste_basket"}},"type":"Feature"},
	{"geometry":{"coordinates":[6.783844,50.96105],"type":"Point"},"properties":{"osm_id":"5696096663","tag":{"amenity":"waste_basket"}},"type":"Feature"},
	{"geometry":{"coordinates":[6.788624,50.960141],"type":"Point"},"properties":{"osm_id":"5696125917","tag":{"amenity":"waste_basket"}},"type":"Feature"},
	{"geometry":{"coordinates":[6.784244,50.96336],"type":"Point"},"properties":{"osm_id":"5696125919","tag":{"amenity":"waste_basket"}},"type":"Feature"},
	{"geometry":{"coordinates":[6.784627,50.962863],"type":"Point"},"properties":{"osm_id":"5696125920","tag":{"amenity":"waste_basket"}},"type":"Feature"},
	{"geometry":{"coordinates":[6.7887,50.960141],"type":"Point"},"properties":{"osm_id":"5696126221","tag":{"amenity":"waste_basket"}},"type":"Feature"},
	{"geometry":{"coordinates":[6.783287,50.962905],"type":"Point"},"properties":{"osm_id":"5696126222","tag":{"amenity":"waste_basket"}},"type":"Feature"},
	{"geometry":{"coordinates":[6.78788,50.959114],"type":"Point"},"properties":{"osm_id":"5696142393","tag":{"amenity":"waste_basket"}},"type":"Feature"},
	{"geometry":{"coordinates":[6.840581,50.967557],"type":"Point"},"properties":{"osm_id":"5715572082","tag":{"amenity":"recycling","recycling:glass_bottles":"yes","recycling_type":"container"}},"type":"Feature"},
	{"geometry":{"coordinates":[6.793699,50.959227],"type":"Point"},"properties":{"osm_id":"5730376864","tag":{"amenity":"waste_basket"}},"type":"Feature"},
	{"geometry":{"coordinates":[6.794132,50.959541],"type":"Point"},"properties":{"osm_id":"5730376870","tag":{"amenity":"waste_basket"}},"type":"Feature"},
	{"geometry":{"coordinates":[6.782477,50.960738],"type":"Point"},"properties":{"osm_id":"5734460736","tag":{"amenity":"waste_basket"}},"type":"Feature"},
	{"geometry":{"coordinates":[6.774103,50.959951],"type":"Point"},"properties":{"osm_id":"5747446678","tag":{"amenity":"waste_basket"}},"type":"Feature"},
	{"geometry":{"coordinates":[6.79023,50.978901],"type":"Point"},"properties":{"osm_id":"5809894424","tag":{"amenity":"waste_basket"}},"type":"Feature"},
	{"geometry":{"coordinates":[6.769593,50.958751],"type":"Point"},"properties":{"osm_id":"5809951433","tag":{"amenity":"waste_basket"}},"type":"Feature"},
	{"geometry":{"coordinates":[6.769394,50.958802],"type":"Point"},"properties":{"osm_id":"5809951439","tag":{"amenity":"waste_basket"}},"type":"Feature"},
	{"geometry":{"coordinates":[6.767703,50.960766],"type":"Point"},"properties":{"osm_id":"5810085078","tag":{"amenity":"waste_basket"}},"type":"Feature"},
	{"geometry":{"coordinates":[6.786334,50.972924],"type":"Point"},"properties":{"osm_id":"5839414373","tag":{"amenity":"waste_basket"}},"type":"Feature"},
	{"geometry":{"coordinates":[6.825013,50.98769],"type":"Point"},"properties":{"osm_id":"5888541808","tag":{"amenity":"waste_basket"}},"type":"Feature"},
	{"geometry":{"coordinates":[6.782079,50.9758],"type":"Point"},"properties":{"osm_id":"5964384671","tag":{"amenity":"waste_basket"}},"type":"Feature"},
	{"geometry":{"coordinates":[6.780188,50.975688],"type":"Point"},"properties":{"osm_id":"5982733419","tag":{"amenity":"waste_basket"}},"type":"Feature"},
	{"geometry":{"coordinates":[6.784019,50.977546],"type":"Point"},"properties":{"osm_id":"5988656496","tag":{"amenity":"waste_basket"}},"type":"Feature"},
	{"geometry":{"coordinates":[6.776289,50.972583],"type":"Point"},"properties":{"osm_id":"5989165851","tag":{"amenity":"waste_basket"}},"type":"Feature"},
	{"geometry":{"coordinates":[6.776333,50.972533],"type":"Point"},"properties":{"osm_id":"5989165860","tag":{"amenity":"waste_basket"}},"type":"Feature"},
	{"geometry":{"coordinates":[6.782102,50.971237],"type":"Point"},"properties":{"osm_id":"5992630199","tag":{"amenity":"waste_basket"}},"type":"Feature"},
	{"geometry":{"coordinates":[6.781579,50.973365],"type":"Point"},"properties":{"osm_id":"5992630206","tag":{"amenity":"waste_basket"}},"type":"Feature"},
	{"geometry":{"coordinates":[6.778651,50.971822],"type":"Point"},"properties":{"osm_id":"5992669725","tag":{"amenity":"waste_basket"}},"type":"Feature"},
	{"geometry":{"coordinates":[6.791955,50.980797],"type":"Point"},"properties":{"osm_id":"5993115784","tag":{"amenity":"waste_basket"}},"type":"Feature"},
	{"geometry":{"coordinates":[6.790422,50.981197],"type":"Point"},"properties":{"osm_id":"5993115991","tag":{"amenity":"waste_basket"}},"type":"Feature"},
	{"geometry":{"coordinates":[6.788662,50.981819],"type":"Point"},"properties":{"osm_id":"5993173891","tag":{"amenity":"recycling","recycling:clothes":"yes","recycling:shoes":"yes","recycling_type":"container"}},"type":"Feature"},
	{"geometry":{"coordinates":[6.787482,50.98232],"type":"Point"},"properties":{"osm_id":"5993310509","tag":{"amenity":"waste_basket"}},"type":"Feature"},
	{"geometry":{"coordinates":[6.791166,50.982534],"type":"Point"},"properties":{"osm_id":"5993388185","tag":{"amenity":"waste_basket"}},"type":"Feature"},
	{"geometry":{"coordinates":[6.784944,50.980961],"type":"Point"},"properties":{"osm_id":"5993521133","tag":{"amenity":"waste_basket"}},"type":"Feature"},
	{"geometry":{"coordinates":[6.783536,50.984511],"type":"Point"},"properties":{"osm_id":"5996215029","tag":{"amenity":"waste_basket"}},"type":"Feature"},
	{"geometry":{"coordinates":[6.784781,50.98651],"type":"Point"},"properties":{"osm_id":"5996270123","tag":{"amenity":"waste_basket"}},"type":"Feature"},
	{"geometry":{"coordinates":[6.78601,50.985072],"type":"Point"},"properties":{"osm_id":"5996308488","tag":{"amenity":"recycling","recycling:glass":"yes","recycling:paper":"yes","recycling_type":"container"}},"type":"Feature"},
	{"geometry":{"coordinates":[6.802729,50.992931],"type":"Point"},"properties":{"osm_id":"5997652175","tag":{"amenity":"recycling","recycling:glass":"yes","recycling:paper":"yes","recycling_type":"container"}},"type":"Feature"},
	{"geometry":{"coordinates":[6.789332,50.988973],"type":"Point"},"properties":{"osm_id":"6000731006","tag":{"amenity":"waste_basket"}},"type":"Feature"},
	{"geometry":{"coordinates":[6.788127,51.001832],"type":"Point"},"properties":{"osm_id":"6000817107","tag":{"amenity":"waste_basket"}},"type":"Feature"},
	{"geometry":{"coordinates":[6.769135,50.98768],"type":"Point"},"properties":{"osm_id":"6002586660","tag":{"amenity":"waste_basket"}},"type":"Feature"},
	{"geometry":{"coordinates":[6.769467,50.988545],"type":"Point"},"properties":{"osm_id":"6002609851","tag":{"amenity":"recycling","recycling:clothes":"yes","recycling:glass_bottles":"yes","recycling:paper":"yes","recycling:shoes":"yes","recycling_type":"container"}},"type":"Feature"},
	{"geometry":{"coordinates":[6.77279,50.97928],"type":"Point"},"properties":{"osm_id":"6005437521","tag":{"amenity":"waste_basket"}},"type":"Feature"},
	{"geometry":{"coordinates":[6.791542,50.962127],"type":"Point"},"properties":{"osm_id":"6036992037","tag":{"amenity":"waste_basket"}},"type":"Feature"},
	{"geometry":{"coordinates":[6.786139,50.962196],"type":"Point"},"properties":{"osm_id":"6166431331","tag":{"amenity":"waste_basket"}},"type":"Feature"},
	{"geometry":{"coordinates":[6.799119,50.959536],"type":"Point"},"properties":{"osm_id":"6388642576","tag":{"amenity":"waste_basket"}},"type":"Feature"},
	{"geometry":{"coordinates":[6.796656,50.959975],"type":"Point"},"properties":{"osm_id":"6388662881","tag":{"amenity":"waste_basket"}},"type":"Feature"},
	{"geometry":{"coordinates":[6.830321,50.96139],"type":"Point"},"properties":{"osm_id":"6404525317","tag":{"amenity":"waste_basket"}},"type":"Feature"},
	{"geometry":{"coordinates":[6.830541,50.961381],"type":"Point"},"properties":{"osm_id":"6404525319","tag":{"amenity":"waste_basket"}},"type":"Feature"},
	{"geometry":{"coordinates":[6.795311,51.008735],"type":"Point"},"properties":{"osm_id":"6441646485","tag":{"amenity":"recycling","collection_times":"Werktags bis 20 Uhr","recycling:cardboard":"yes","recycling:glass_bottles":"yes","recycling:paper":"yes","recycling_type":"container"}},"type":"Feature"},
	{"geometry":{"coordinates":[6.798078,51.005871],"type":"Point"},"properties":{"osm_id":"6441646486","tag":{"amenity":"recycling","collection_times":"Werktags bis 20 Uhr","recycling:cardboard":"yes","recycling:glass":"yes","recycling:glass_bottles":"yes","recycling:paper":"yes","recycling_type":"container"}},"type":"Feature"},
	{"geometry":{"coordinates":[6.813086,51.009439],"type":"Point"},"properties":{"osm_id":"6441647426","tag":{"amenity":"recycling","collection_times":"Werktags bis 20 Uhr","recycling:cardboard":"yes","recycling:glass_bottles":"yes","recycling:paper":"yes","recycling_type":"container"}},"type":"Feature"},
	{"geometry":{"coordinates":[6.795447,51.000798],"type":"Point"},"properties":{"osm_id":"6445799094","tag":{"amenity":"recycling","recycling:cardboard":"yes","recycling:glass_bottles":"yes","recycling:paper":"yes","recycling_type":"container"}},"type":"Feature"},
	{"geometry":{"coordinates":[6.798172,51.006174],"type":"Point"},"properties":{"osm_id":"6452343919","tag":{"amenity":"waste_basket"}},"type":"Feature"},
	{"geometry":{"coordinates":[6.798022,51.005686],"type":"Point"},"properties":{"osm_id":"6452343920","tag":{"amenity":"waste_basket"}},"type":"Feature"},
	{"geometry":{"coordinates":[6.798262,51.006448],"type":"Point"},"properties":{"osm_id":"6452343921","tag":{"amenity":"waste_basket"}},"type":"Feature"},
	{"geometry":{"coordinates":[6.812124,51.007548],"type":"Point"},"properties":{"osm_id":"6452765222","tag":{"amenity":"recycling","recycling:clothes":"yes","recycling:glass_bottles":"yes","recycling:paper":"yes","recycling_type":"container"}},"type":"Feature"},
	{"geometry":{"coordinates":[6.802011,51.00078],"type":"Point"},"properties":{"osm_id":"6454495568","tag":{"amenity":"waste_basket"}},"type":"Feature"},
	{"geometry":{"coordinates":[6.798115,51.006635],"type":"Point"},"properties":{"osm_id":"6454529879","tag":{"amenity":"waste_basket"}},"type":"Feature"},
	{"geometry":{"coordinates":[6.794599,51.001396],"type":"Point"},"properties":{"osm_id":"6454557069","tag":{"amenity":"waste_basket"}},"type":"Feature"},
	{"geometry":{"coordinates":[6.796073,51.001401],"type":"Point"},"properties":{"osm_id":"6454575014","tag":{"amenity":"waste_basket"}},"type":"Feature"},
	{"geometry":{"coordinates":[6.795279,51.002055],"type":"Point"},"properties":{"osm_id":"6454595309","tag":{"amenity":"waste_basket"}},"type":"Feature"},
	{"geometry":{"coordinates":[6.807127,51.004134],"type":"Point"},"properties":{"osm_id":"6466805048","tag":{"amenity":"waste_basket"}},"type":"Feature"},
	{"geometry":{"coordinates":[6.807449,51.003993],"type":"Point"},"properties":{"osm_id":"6466805049","tag":{"amenity":"waste_basket"}},"type":"Feature"},
	{"geometry":{"coordinates":[6.778139,50.960674],"type":"Point"},"properties":{"osm_id":"6515974617","tag":{"amenity":"waste_basket"}},"type":"Feature"},
	{"geometry":{"coordinates":[6.778676,50.960712],"type":"Point"},"properties":{"osm_id":"6515974618","tag":{"amenity":"waste_basket"}},"type":"Feature"},
	{"geometry":{"coordinates":[6.791565,50.958547],"type":"Point"},"properties":{"osm_id":"6564731549","tag":{"amenity":"waste_basket"}},"type":"Feature"},
	{"geometry":{"coordinates":[6.836147,50.98522],"type":"Point"},"properties":{"osm_id":"6593350688","tag":{"amenity":"waste_basket"}},"type":"Feature"},
	{"geometry":{"coordinates":[6.836316,50.985136],"type":"Point"},"properties":{"osm_id":"6593350692","tag":{"amenity":"waste_basket"}},"type":"Feature"},
	{"geometry":{"coordinates":[6.824688,50.994859],"type":"Point"},"properties":{"osm_id":"6593360086","tag":{"amenity":"waste_basket"}},"type":"Feature"},
	{"geometry":{"coordinates":[6.849081,50.981416],"type":"Point"},"properties":{"osm_id":"6593423450","tag":{"amenity":"waste_basket"}},"type":"Feature"},
	{"geometry":{"coordinates":[6.847671,50.980156],"type":"Point"},"properties":{"osm_id":"6593423451","tag":{"amenity":"waste_basket"}},"type":"Feature"},
	{"geometry":{"coordinates":[6.822436,50.996815],"type":"Point"},"properties":{"osm_id":"6593509933","tag":{"amenity":"waste_basket"}},"type":"Feature"},
	{"geometry":{"coordinates":[6.852794,50.998662],"type":"Point"},"properties":{"osm_id":"6635194916","tag":{"amenity":"waste_basket"}},"type":"Feature"},
	{"geometry":{"coordinates":[6.850644,51.000272],"type":"Point"},"properties":{"osm_id":"6635256085","tag":{"amenity":"waste_basket"}},"type":"Feature"},
	{"geometry":{"coordinates":[6.852773,51.000926],"type":"Point"},"properties":{"osm_id":"6635256086","tag":{"amenity":"recycling","recycling:clothes":"yes","recycling_type":"container"}},"type":"Feature"},
	{"geometry":{"coordinates":[6.851773,51.002683],"type":"Point"},"properties":{"osm_id":"6635257600","tag":{"amenity":"recycling","recycling:clothes":"yes","recycling:glass_bottles":"yes","recycling_type":"container"}},"type":"Feature"},
	{"geometry":{"coordinates":[6.851853,51.002593],"type":"Point"},"properties":{"osm_id":"6635257601","tag":{"amenity":"waste_basket"}},"type":"Feature"},
	{"geometry":{"coordinates":[6.85475,51.007216],"type":"Point"},"properties":{"osm_id":"6679762000","tag":{"amenity":"waste_basket"}},"type":"Feature"},
	{"geometry":{"coordinates":[6.854885,51.007401],"type":"Point"},"properties":{"osm_id":"6679762001","tag":{"amenity":"waste_basket"}},"type":"Feature"},
	{"geometry":{"coordinates":[6.826808,51.01179],"type":"Point"},"properties":{"osm_id":"6680164231","tag":{"amenity":"waste_basket"}},"type":"Feature"},
	{"geometry":{"coordinates":[6.851912,51.00886],"type":"Point"},"properties":{"osm_id":"6680236751","tag":{"amenity":"waste_basket"}},"type":"Feature"},
	{"geometry":{"coordinates":[6.854522,51.010811],"type":"Point"},"properties":{"osm_id":"6680236777","tag":{"amenity":"recycling","recycling:clothes":"yes","recycling:glass_bottles":"yes","recycling_type":"container"}},"type":"Feature"},
	{"geometry":{"coordinates":[6.853082,51.004784],"type":"Point"},"properties":{"osm_id":"6680276528","tag":{"amenity":"waste_basket"}},"type":"Feature"},
	{"geometry":{"coordinates":[6.853022,51.002553],"type":"Point"},"properties":{"osm_id":"6699887433","tag":{"amenity":"waste_basket"}},"type":"Feature"},
	{"geometry":{"coordinates":[6.852884,51.002678],"type":"Point"},"properties":{"osm_id":"6699887435","tag":{"amenity":"waste_basket"}},"type":"Feature"},
	{"geometry":{"coordinates":[6.854403,51.003502],"type":"Point"},"properties":{"osm_id":"6700427807","tag":{"amenity":"waste_basket"}},"type":"Feature"},
	{"geometry":{"coordinates":[6.854459,51.003388],"type":"Point"},"properties":{"osm_id":"6700427815","tag":{"amenity":"waste_basket"}},"type":"Feature"},
	{"geometry":{"coordinates":[6.852787,51.002917],"type":"Point"},"properties":{"osm_id":"6700506419","tag":{"amenity":"waste_basket"}},"type":"Feature"},
	{"geometry":{"coordinates":[6.852807,51.002826],"type":"Point"},"properties":{"osm_id":"6700506425","tag":{"amenity":"waste_basket"}},"type":"Feature"},
	{"geometry":{"coordinates":[6.821654,51.001201],"type":"Point"},"properties":{"osm_id":"6814247886","tag":{"amenity":"waste_basket"}},"type":"Feature"},
	{"geometry":{"coordinates":[6.807668,50.997902],"type":"Point"},"properties":{"osm_id":"7072498896","tag":{"amenity":"recycling","recycling:clothes":"yes","recycling_type":"container"}},"type":"Feature"},
	{"geometry":{"coordinates":[6.84696,51.013276],"type":"Point"},"properties":{"osm_id":"7369310101","tag":{"amenity":"waste_basket"}},"type":"Feature"},
	{"geometry":{"coordinates":[6.853965,51.011811],"type":"Point"},"properties":{"osm_id":"7398790338","tag":{"amenity":"waste_basket"}},"type":"Feature"},
	{"geometry":{"coordinates":[6.85389,51.011146],"type":"Point"},"properties":{"osm_id":"7398790347","tag":{"amenity":"waste_basket"}},"type":"Feature"},
	{"geometry":{"coordinates":[6.853078,51.01219],"type":"Point"},"properties":{"osm_id":"7398833326","tag":{"amenity":"waste_basket"}},"type":"Feature"},
	{"geometry":{"coordinates":[6.854651,51.012942],"type":"Point"},"properties":{"osm_id":"7398920283","tag":{"amenity":"waste_basket"}},"type":"Feature"},
	{"geometry":{"coordinates":[6.855333,51.013606],"type":"Point"},"properties":{"osm_id":"7398959885","tag":{"amenity":"waste_basket"}},"type":"Feature"},
	{"geometry":{"coordinates":[6.854609,51.012833],"type":"Point"},"properties":{"osm_id":"7398959887","tag":{"amenity":"waste_basket"}},"type":"Feature"},
	{"geometry":{"coordinates":[6.837533,50.986116],"type":"Point"},"properties":{"osm_id":"7405123904","tag":{"amenity":"waste_basket"}},"type":"Feature"},
	{"geometry":{"coordinates":[6.833531,50.968536],"type":"Point"},"properties":{"osm_id":"7416782615","tag":{"amenity":"waste_basket"}},"type":"Feature"},
	{"geometry":{"coordinates":[6.833662,50.968479],"type":"Point"},"properties":{"osm_id":"7416782637","tag":{"amenity":"waste_basket"}},"type":"Feature"},
	{"geometry":{"coordinates":[6.813686,50.993041],"type":"Point"},"properties":{"osm_id":"7491423517","tag":{"amenity":"recycling","recycling:glass":"yes","recycling:paper":"yes"}},"type":"Feature"},
	{"geometry":{"coordinates":[6.817533,51.005154],"type":"Point"},"properties":{"osm_id":"7491423691","tag":{"amenity":"recycling","location":"overground","recycling:clothes":"yes","recycling:glass":"no","recycling:glass_bottles":"yes","recycling:paper":"yes","recycling_type":"container"}},"type":"Feature"},
	{"geometry":{"coordinates":[6.799851,51.00001],"type":"Point"},"properties":{"osm_id":"7745081738","tag":{"amenity":"waste_basket"}},"type":"Feature"},
	{"geometry":{"coordinates":[6.799444,50.999935],"type":"Point"},"properties":{"osm_id":"7745081739","tag":{"amenity":"waste_basket"}},"type":"Feature"},
	{"geometry":{"coordinates":[6.798523,51.00038],"type":"Point"},"properties":{"osm_id":"7745081740","tag":{"amenity":"waste_basket"}},"type":"Feature"},
	{"geometry":{"coordinates":[6.797696,51.001551],"type":"Point"},"properties":{"osm_id":"7745081742","tag":{"amenity":"waste_basket"}},"type":"Feature"},
	{"geometry":{"coordinates":[6.790517,51.000485],"type":"Point"},"properties":{"osm_id":"7767211100","tag":{"amenity":"recycling","recycling:glass":"yes","recycling:paper":"yes"}},"type":"Feature"},
	{"geometry":{"coordinates":[6.830637,50.967927],"type":"Point"},"properties":{"osm_id":"8069262164","tag":{"amenity":"recycling","recycling:glass_bottles":"yes","recycling_type":"container"}},"type":"Feature"},
	{"geometry":{"coordinates":[6.843104,50.964086],"type":"Point"},"properties":{"osm_id":"8069271787","tag":{"amenity":"recycling","opening_hours":"Mo-Sa 07:00-20:00","recycling:glass_bottles":"yes","recycling_type":"container"}},"type":"Feature"},
	{"geometry":{"coordinates":[6.832812,50.969862],"type":"Point"},"properties":{"osm_id":"8088653405","tag":{"amenity":"recycling","operator":"AWB K\u00c3\u00b6ln","recycling:clothes":"yes","recycling:shoes":"yes","recycling_type":"container"}},"type":"Feature"}
]
}
