{
"type": "FeatureCollection",
"features": [
	{"geometry":{"coordinates":[6.799663,50.906202],"type":"Point"},"properties":{"osm_id":"254510309","tag":{"amenity":"recycling","recycling:glass_bottles":"yes"}},"type":"Feature"},
	{"geometry":{"coordinates":[6.783261,50.938327],"type":"Point"},"properties":{"osm_id":"305209028","tag":{"amenity":"recycling"}},"type":"Feature"},
	{"geometry":{"coordinates":[6.777233,50.956428],"type":"Point"},"properties":{"osm_id":"453456937","tag":{"amenity":"recycling","recycling:glass":"yes","recycling:paper":"yes","recycling_type":"container"}},"type":"Feature"},
	{"geometry":{"coordinates":[6.801438,50.911958],"type":"Point"},"properties":{"osm_id":"527368612","tag":{"amenity":"recycling"}},"type":"Feature"},
	{"geometry":{"coordinates":[6.809975,50.90781],"type":"Point"},"properties":{"osm_id":"569703544","tag":{"amenity":"recycling","location":"overground","recycling:glass_bottles":"yes","recycling_type":"container"}},"type":"Feature"},
	{"geometry":{"coordinates":[6.80357,50.907906],"type":"Point"},"properties":{"osm_id":"594791178","tag":{"amenity":"recycling","recycling_type":"container"}},"type":"Feature"},
	{"geometry":{"coordinates":[6.809923,50.906164],"type":"Point"},"properties":{"osm_id":"836215866","tag":{"amenity":"recycling"}},"type":"Feature"},
	{"geometry":{"coordinates":[6.772664,50.934177],"type":"Point"},"properties":{"osm_id":"1248369806","tag":{"amenity":"waste_basket"}},"type":"Feature"},
	{"geometry":{"coordinates":[6.775544,50.933473],"type":"Point"},"properties":{"osm_id":"1248369809","tag":{"amenity":"recycling","recycling:glass":"yes","recycling_type":"container"}},"type":"Feature"},
	{"geometry":{"coordinates":[6.820841,50.922961],"type":"Point"},"properties":{"osm_id":"1471340935","tag":{"amenity":"recycling","recycling:glass_bottles":"yes","recycling_type":"container"}},"type":"Feature"},
	{"geometry":{"coordinates":[6.82242,50.912248],"type":"Point"},"properties":{"osm_id":"1491019530","tag":{"amenity":"recycling","recycling:clothes":"yes","recycling:glass_bottles":"yes","recycling_type":"container"}},"type":"Feature"},
	{"geometry":{"coordinates":[6.819762,50.920767],"type":"Point"},"properties":{"osm_id":"1491019559","ref":"K1448","tag":{"amenity":"recycling","operator":"Humana","recycling:clothes":"yes","recycling_type":"container"}},"type":"Feature"},
	{"geometry":{"coordinates":[6.824532,50.932168],"type":"Point"},"properties":{"osm_id":"1491019578","tag":{"amenity":"recycling","operator":"Humana","recycling:clothes":"yes","recycling_type":"container"}},"type":"Feature"},
	{"geometry":{"coordinates":[6.846512,50.917863],"type":"Point"},"properties":{"osm_id":"2214589372","tag":{"amenity":"recycling","recycling:glass":"yes","recycling_type":"container","website":"https://www.awbkoeln.de/private-haushalte/abfall-trennen-entsorgen/glas/"}},"type":"Feature"},
	{"geometry":{"coordinates":[6.850004,50.932788],"type":"Point"},"properties":{"osm_id":"2214589382","tag":{"amenity":"recycling","recycling:glass":"yes","recycling_type":"container","website":"https://www.awbkoeln.de/private-haushalte/abfall-trennen-entsorgen/glas/"}},"type":"Feature"},
	{"geometry":{"coordinates":[6.853824,50.93554],"type":"Point"},"properties":{"osm_id":"2214589384","tag":{"amenity":"recycling","recycling:glass":"yes","recycling_type":"container","website":"https://www.awbkoeln.de/private-haushalte/abfall-trennen-entsorgen/glas/"}},"type":"Feature"},
	{"geometry":{"coordinates":[6.819266,50.923878],"type":"Point"},"properties":{"osm_id":"2364392325","tag":{"amenity":"recycling","operator":"Humana","recycling:clothes":"yes","recycling:shoes":"yes","recycling_type":"container"}},"type":"Feature"},
	{"geometry":{"coordinates":[6.816623,50.922937],"type":"Point"},"properties":{"name":"Humana","osm_id":"2392169244","ref":"K1965","tag":{"amenity":"recycling","recycling:clothes":"yes","recycling_type":"container"}},"type":"Feature"},
	{"geometry":{"coordinates":[6.807546,50.916255],"type":"Point"},"properties":{"osm_id":"2392169245","tag":{"amenity":"recycling","recycling:glass":"no","recycling:glass_bottles":"yes","recycling_type":"container"}},"type":"Feature"},
	{"geometry":{"coordinates":[6.7913,50.956297],"type":"Point"},"properties":{"osm_id":"2418875518","tag":{"amenity":"waste_basket"}},"type":"Feature"},
	{"geometry":{"coordinates":[6.783414,50.937283],"type":"Point"},"properties":{"osm_id":"2923512750","tag":{"amenity":"recycling","recycling:clothes":"yes","recycling_type":"container"}},"type":"Feature"},
	{"geometry":{"coordinates":[6.801749,50.907093],"type":"Point"},"properties":{"osm_id":"2966407955","tag":{"amenity":"recycling","recycling_type":"container"}},"type":"Feature"},
	{"geometry":{"coordinates":[6.819275,50.922893],"type":"Point"},"properties":{"osm_id":"3464900400","tag":{"amenity":"waste_basket"}},"type":"Feature"},
	{"geometry":{"coordinates":[6.81697,50.911956],"type":"Point"},"properties":{"name":"Humana","osm_id":"3470880951","tag":{"amenity":"recycling","recycling:clothes":"yes","recycling_type":"container"}},"type":"Feature"},
	{"geometry":{"coordinates":[6.8223,50.91233],"type":"Point"},"properties":{"name":"Humana","osm_id":"3527303935","tag":{"amenity":"recycling","recycling:clothes":"yes","recycling_type":"container"}},"type":"Feature"},
	{"geometry":{"coordinates":[6.851195,50.916806],"type":"Point"},"properties":{"osm_id":"3611729014","tag":{"amenity":"recycling","operator":"Humana","recycling:clothes":"yes","recycling_type":"container"}},"type":"Feature"},
	{"geometry":{"coordinates":[6.82255,50.916957],"type":"Point"},"properties":{"name":"Humana","osm_id":"3722577777","tag":{"amenity":"recycling","recycling:clothes":"yes","recycling_type":"container"}},"type":"Feature"},
	{"geometry":{"coordinates":[6.825509,50.91982],"type":"Point"},"properties":{"name":"Humana","osm_id":"3722577778","tag":{"amenity":"recycling","recycling:clothes":"yes","recycling_type":"container"}},"type":"Feature"},
	{"geometry":{"coordinates":[6.836516,50.938442],"type":"Point"},"properties":{"osm_id":"3781282414","tag":{"amenity":"waste_basket"}},"type":"Feature"},
	{"geometry":{"coordinates":[6.835774,50.938467],"type":"Point"},"properties":{"osm_id":"3781282416","tag":{"amenity":"waste_basket"}},"type":"Feature"},
	{"geometry":{"coordinates":[6.854087,50.9564],"type":"Point"},"properties":{"osm_id":"3933939043","tag":{"amenity":"waste_basket"}},"type":"Feature"},
	{"geometry":{"coordinates":[6.831104,50.950163],"type":"Point"},"properties":{"osm_id":"4529754533","tag":{"amenity":"waste_basket"}},"type":"Feature"},
	{"geometry":{"coordinates":[6.806167,50.906161],"type":"Point"},"properties":{"osm_id":"4568565015","tag":{"amenity":"recycling","operator":"AWO","recycling:clothes":"yes","recycling:shoes":"yes","recycling_type":"container"}},"type":"Feature"},
	{"geometry":{"coordinates":[6.818344,50.919432],"type":"Point"},"properties":{"osm_id":"4617344007","tag":{"amenity":"waste_basket"}},"type":"Feature"},
	{"geometry":{"coordinates":[6.81837,50.919468],"type":"Point"},"properties":{"osm_id":"4617344008","tag":{"amenity":"waste_basket"}},"type":"Feature"},
	{"geometry":{"coordinates":[6.820187,50.920699],"type":"Point"},"properties":{"osm_id":"4617344009","tag":{"amenity":"waste_basket"}},"type":"Feature"},
	{"geometry":{"coordinates":[6.819644,50.92282],"type":"Point"},"properties":{"osm_id":"4680412312","tag":{"amenity":"waste_basket"}},"type":"Feature"},
	{"geometry":{"coordinates":[6.818346,50.91939],"type":"Point"},"properties":{"osm_id":"4680412313","tag":{"amenity":"waste_basket"}},"type":"Feature"},
	{"geometry":{"coordinates":[6.818037,50.919531],"type":"Point"},"properties":{"osm_id":"4680412314","tag":{"amenity":"waste_basket"}},"type":"Feature"},
	{"geometry":{"coordinates":[6.829337,50.942176],"type":"Point"},"properties":{"osm_id":"4696107521","tag":{"amenity":"recycling","recycling:clothes":"yes","recycling:glass":"yes","recycling_type":"container"}},"type":"Feature"},
	{"geometry":{"coordinates":[6.818684,50.946227],"type":"Point"},"properties":{"osm_id":"4849615336","tag":{"amenity":"recycling","description":"Leerung/Bewirtschaftung durch AWB K\u00c3\u00b6ln","recycling:clothes":"yes","recycling:glass_bottles":"yes","recycling_type":"container"}},"type":"Feature"},
	{"geometry":{"coordinates":[6.832491,50.933617],"type":"Point"},"properties":{"osm_id":"4934060464","tag":{"amenity":"recycling","recycling:clothes":"yes","recycling:glass":"yes","recycling_type":"container"}},"type":"Feature"},
	{"geometry":{"coordinates":[6.818437,50.919344],"type":"Point"},"properties":{"osm_id":"4999591936","tag":{"amenity":"waste_basket"}},"type":"Feature"},
	{"geometry":{"coordinates":[6.818389,50.919366],"type":"Point"},"properties":{"osm_id":"4999591937","tag":{"amenity":"waste_basket"}},"type":"Feature"},
	{"geometry":{"coordinates":[6.818584,50.919559],"type":"Point"},"properties":{"osm_id":"4999591938","tag":{"amenity":"waste_basket"}},"type":"Feature"},
	{"geometry":{"coordinates":[6.822774,50.911273],"type":"Point"},"properties":{"osm_id":"5022911700","tag":{"amenity":"recycling","operator":"Humana","recycling:clothes":"yes","recycling_type":"container"}},"type":"Feature"},
	{"geometry":{"coordinates":[6.818753,50.910741],"type":"Point"},"properties":{"osm_id":"5022911703","tag":{"amenity":"recycling","recycling":"clothes","recycling:clothes":"yes","recycling:shoes":"yes","recycling_type":"container"}},"type":"Feature"},
	{"geometry":{"coordinates":[6.818758,50.910731],"type":"Point"},"properties":{"osm_id":"5022911704","tag":{"amenity":"recycling","recycling":"clothes","recycling:clothes":"yes","recycling:shoes":"yes","recycling_type":"container"}},"type":"Feature"},
	{"geometry":{"coordinates":[6.851624,50.92357],"type":"Point"},"properties":{"osm_id":"5031212591","tag":{"amenity":"recycling","operator":"Humana","recycling:clothes":"yes","recycling:shoes":"yes","recycling_type":"container"}},"type":"Feature"},
	{"geometry":{"coordinates":[6.851606,50.923566],"type":"Point"},"properties":{"osm_id":"5031212592","tag":{"amenity":"recycling","operator":"Humana","recycling:clothes":"yes","recycling:shoes":"yes","recycling_type":"container"}},"type":"Feature"},
	{"geometry":{"coordinates":[6.851589,50.923563],"type":"Point"},"properties":{"osm_id":"5031212593","tag":{"amenity":"recycling","operator":"Humana","recycling:clothes":"yes","recycling:shoes":"yes","recycling_type":"container"}},"type":"Feature"},
	{"geometry":{"coordinates":[6.851571,50.92356],"type":"Point"},"properties":{"osm_id":"5031212594","tag":{"amenity":"recycling","operator":"Humana","recycling:clothes":"yes","recycling:shoes":"yes","recycling_type":"container"}},"type":"Feature"},
	{"geometry":{"coordinates":[6.851554,50.923556],"type":"Point"},"properties":{"osm_id":"5031212595","tag":{"amenity":"recycling","operator":"Humana","recycling:clothes":"yes","recycling:shoes":"yes","recycling_type":"container"}},"type":"Feature"},
	{"geometry":{"coordinates":[6.851536,50.923553],"type":"Point"},"properties":{"osm_id":"5031212596","tag":{"amenity":"recycling","operator":"Humana","recycling:clothes":"yes","recycling:shoes":"yes","recycling_type":"container"}},"type":"Feature"},
	{"geometry":{"coordinates":[6.848435,50.920236],"type":"Point"},"properties":{"osm_id":"5031212598","tag":{"amenity":"recycling","operator":"Redmondis","recycling:glass_bottles":"yes","recycling_type":"container"}},"type":"Feature"},
	{"geometry":{"coordinates":[6.848426,50.92025],"type":"Point"},"properties":{"osm_id":"5031212599","tag":{"amenity":"recycling","operator":"Redmondis","recycling:glass_bottles":"yes","recycling_type":"container"}},"type":"Feature"},
	{"geometry":{"coordinates":[6.848442,50.920225],"type":"Point"},"properties":{"osm_id":"5031212600","tag":{"amenity":"recycling","recycling:clothes":"yes","recycling_type":"container"}},"type":"Feature"},
	{"geometry":{"coordinates":[6.819273,50.923892],"type":"Point"},"properties":{"osm_id":"5031212908","tag":{"amenity":"recycling","operator":"Humana","recycling:clothes":"yes","recycling:shoes":"yes","recycling_type":"container"}},"type":"Feature"},
	{"geometry":{"coordinates":[6.82003,50.922854],"type":"Point"},"properties":{"osm_id":"5031212911","tag":{"amenity":"waste_basket"}},"type":"Feature"},
	{"geometry":{"coordinates":[6.820492,50.922899],"type":"Point"},"properties":{"osm_id":"5031212912","tag":{"amenity":"waste_basket"}},"type":"Feature"},
	{"geometry":{"coordinates":[6.820664,50.92293],"type":"Point"},"properties":{"osm_id":"5031212913","tag":{"amenity":"waste_basket"}},"type":"Feature"},
	{"geometry":{"coordinates":[6.835908,50.920617],"type":"Point"},"properties":{"osm_id":"5031213122","tag":{"amenity":"waste_basket"}},"type":"Feature"},
	{"geometry":{"coordinates":[6.832719,50.925894],"type":"Point"},"properties":{"osm_id":"5031213145","tag":{"amenity":"recycling","operator":"Humana","recycling:clothes":"yes","recycling_type":"container"}},"type":"Feature"},
	{"geometry":{"coordinates":[6.85439,50.921484],"type":"Point"},"properties":{"osm_id":"5040234066","tag":{"amenity":"recycling","operator":"Humana","recycling:clothes":"yes","recycling:shoes":"yes","recycling_type":"container"}},"type":"Feature"},
	{"geometry":{"coordinates":[6.854373,50.921481],"type":"Point"},"properties":{"osm_id":"5040234067","tag":{"amenity":"recycling","operator":"Humana","recycling:clothes":"yes","recycling:shoes":"yes","recycling_type":"container"}},"type":"Feature"},
	{"geometry":{"coordinates":[6.854356,50.921478],"type":"Point"},"properties":{"osm_id":"5040234068","tag":{"amenity":"recycling","operator":"Humana","recycling:clothes":"yes","recycling:shoes":"yes","recycling_type":"container"}},"type":"Feature"},
	{"geometry":{"coordinates":[6.851517,50.92355],"type":"Point"},"properties":{"osm_id":"5040234079","tag":{"amenity":"recycling","operator":"Humana","recycling:clothes":"yes","recycling:shoes":"yes","recycling_type":"container"}},"type":"Feature"},
	{"geometry":{"coordinates":[6.844891,50.940482],"type":"Point"},"properties":{"osm_id":"5567842984","tag":{"amenity":"waste_basket"}},"type":"Feature"},
	{"geometry":{"coordinates":[6.835305,50.95098],"type":"Point"},"properties":{"osm_id":"5713311352","tag":{"amenity":"waste_basket"}},"type":"Feature"},
	{"geometry":{"coordinates":[6.852768,50.939154],"type":"Point"},"properties":{"osm_id":"5713311354","tag":{"amenity":"waste_basket"}},"type":"Feature"},
	{"geometry":{"coordinates":[6.852502,50.938201],"type":"Point"},"properties":{"osm_id":"5713311361","tag":{"amenity":"waste_basket"}},"type":"Feature"},
	{"geometry":{"coordinates":[6.782262,50.951546],"type":"Point"},"properties":{"osm_id":"5730530983","tag":{"amenity":"waste_basket"}},"type":"Feature"},
	{"geometry":{"coordinates":[6.775104,50.945686],"type":"Point"},"properties":{"osm_id":"5731805706","tag":{"amenity":"waste_basket"}},"type":"Feature"},
	{"geometry":{"coordinates":[6.823944,50.949765],"type":"Point"},"properties":{"osm_id":"5745429210","tag":{"amenity":"recycling","recycling:clothes":"yes","recycling:shoes":"yes","recycling_type":"container"}},"type":"Feature"},
	{"geometry":{"coordinates":[6.827397,50.94944],"type":"Point"},"properties":{"osm_id":"5745429212","tag":{"amenity":"recycling","recycling:clothes":"yes","recycling:glass_bottles":"yes","recycling_type":"container"}},"type":"Feature"},
	{"geometry":{"coordinates":[6.828833,50.953976],"type":"Point"},"properties":{"osm_id":"5746460459","tag":{"amenity":"waste_basket"}},"type":"Feature"},
	{"geometry":{"coordinates":[6.846606,50.940535],"type":"Point"},"properties":{"osm_id":"5771606804","tag":{"amenity":"waste_basket"}},"type":"Feature"},
	{"geometry":{"coordinates":[6.770452,50.957455],"type":"Point"},"properties":{"osm_id":"5810123355","tag":{"amenity":"waste_basket"}},"type":"Feature"},
	{"geometry":{"coordinates":[6.770242,50.957495],"type":"Point"},"properties":{"osm_id":"5810123356","tag":{"amenity":"waste_basket"}},"type":"Feature"},
	{"geometry":{"coordinates":[6.776624,50.943492],"type":"Point"},"properties":{"osm_id":"5840129046","tag":{"amenity":"recycling","recycling:clothes":"yes","recycling_type":"container"}},"type":"Feature"},
	{"geometry":{"coordinates":[6.769548,50.941704],"type":"Point"},"properties":{"osm_id":"5840129048","tag":{"amenity":"waste_basket"}},"type":"Feature"},
	{"geometry":{"coordinates":[6.780648,50.944127],"type":"Point"},"properties":{"osm_id":"5840129054","tag":{"amenity":"waste_basket"}},"type":"Feature"},
	{"geometry":{"coordinates":[6.799078,50.952979],"type":"Point"},"properties":{"osm_id":"5840190213","tag":{"amenity":"waste_basket"}},"type":"Feature"},
	{"geometry":{"coordinates":[6.811849,50.922091],"type":"Point"},"properties":{"osm_id":"5863067189","tag":{"amenity":"waste_basket"}},"type":"Feature"},
	{"geometry":{"coordinates":[6.812341,50.922064],"type":"Point"},"properties":{"osm_id":"5863086908","tag":{"amenity":"waste_basket"}},"type":"Feature"},
	{"geometry":{"coordinates":[6.812834,50.922267],"type":"Point"},"properties":{"osm_id":"5863090585","tag":{"amenity":"waste_basket"}},"type":"Feature"},
	{"geometry":{"coordinates":[6.81041,50.921925],"type":"Point"},"properties":{"osm_id":"5863098086","tag":{"amenity":"waste_basket"}},"type":"Feature"},
	{"geometry":{"coordinates":[6.809399,50.921812],"type":"Point"},"properties":{"osm_id":"5863098088","tag":{"amenity":"waste_basket"}},"type":"Feature"},
	{"geometry":{"coordinates":[6.809258,50.921724],"type":"Point"},"properties":{"osm_id":"5863098585","tag":{"amenity":"waste_basket"}},"type":"Feature"},
	{"geometry":{"coordinates":[6.851108,50.947807],"type":"Point"},"properties":{"osm_id":"5937030233","tag":{"amenity":"waste_basket"}},"type":"Feature"},
	{"geometry":{"coordinates":[6.831709,50.950675],"type":"Point"},"properties":{"osm_id":"6151349115","tag":{"amenity":"recycling","recycling:glass_bottles":"yes","recycling_type":"container"}},"type":"Feature"},
	{"geometry":{"coordinates":[6.76965,50.955618],"type":"Point"},"properties":{"osm_id":"6178385238","tag":{"amenity":"waste_basket"}},"type":"Feature"},
	{"geometry":{"coordinates":[6.844468,50.936682],"type":"Point"},"properties":{"osm_id":"6202847716","tag":{"amenity":"recycling"}},"type":"Feature"},
	{"geometry":{"coordinates":[6.848859,50.942201],"type":"Point"},"properties":{"osm_id":"6274346663","tag":{"amenity":"recycling","recycling:glass_bottles":"yes","recycling_type":"container"}},"type":"Feature"},
	{"geometry":{"coordinates":[6.844371,50.941956],"type":"Point"},"properties":{"osm_id":"6274346664","tag":{"amenity":"recycling","recycling:clothes":"yes","recycling:glass_bottles":"yes","recycling_type":"container"}},"type":"Feature"},
	{"geometry":{"coordinates":[6.852799,50.945413],"type":"Point"},"properties":{"osm_id":"6448600802","tag":{"amenity":"recycling","operator":"Remondis","recycling:glass_bottles":"yes","recycling_type":"container"}},"type":"Feature"},
	{"geometry":{"coordinates":[6.852768,50.945413],"type":"Point"},"properties":{"osm_id":"6448600803","tag":{"amenity":"recycling","operator":"AWB","recycling:clothes":"yes","recycling_type":"container"}},"type":"Feature"},
	{"geometry":{"coordinates":[6.835271,50.940314],"type":"Point"},"properties":{"osm_id":"6465236922","tag":{"amenity":"recycling","recycling:glass_bottles":"yes","recycling_type":"container"}},"type":"Feature"},
	{"geometry":{"coordinates":[6.832177,50.946499],"type":"Point"},"properties":{"osm_id":"6467668677","tag":{"amenity":"waste_basket"}},"type":"Feature"},
	{"geometry":{"coordinates":[6.839134,50.946974],"type":"Point"},"properties":{"osm_id":"6467749121","tag":{"amenity":"recycling","recycling:clothes":"yes","recycling:shoes":"yes","recycling_type":"container"}},"type":"Feature"},
	{"geometry":{"coordinates":[6.838216,50.946905],"type":"Point"},"properties":{"osm_id":"6467759897","tag":{"amenity":"recycling","recycling:clothes":"yes","recycling:glass_bottles":"yes","recycling_type":"container"}},"type":"Feature"},
	{"geometry":{"coordinates":[6.818161,50.91571],"type":"Point"},"properties":{"osm_id":"6468486474","tag":{"amenity":"recycling","operator":"Humana","recycling:clothes":"yes","recycling:shoes":"yes","recycling_type":"container"}},"type":"Feature"},
	{"geometry":{"coordinates":[6.808528,50.921568],"type":"Point"},"properties":{"osm_id":"6498654171","tag":{"amenity":"waste_basket"}},"type":"Feature"},
	{"geometry":{"coordinates":[6.812767,50.922457],"type":"Point"},"properties":{"osm_id":"6498654380","tag":{"amenity":"waste_basket"}},"type":"Feature"},
	{"geometry":{"coordinates":[6.812903,50.922179],"type":"Point"},"properties":{"osm_id":"6498654382","tag":{"amenity":"waste_basket"}},"type":"Feature"},
	{"geometry":{"coordinates":[6.821611,50.950444],"type":"Point"},"properties":{"osm_id":"6511677492","tag":{"amenity":"recycling","recycling:clothes":"yes","recycling:glass_bottles":"yes","recycling_type":"container"}},"type":"Feature"},
	{"geometry":{"coordinates":[6.820362,50.949494],"type":"Point"},"properties":{"osm_id":"6511737509","tag":{"amenity":"waste_basket"}},"type":"Feature"},
	{"geometry":{"coordinates":[6.820537,50.949551],"type":"Point"},"properties":{"osm_id":"6511737510","tag":{"amenity":"waste_basket"}},"type":"Feature"},
	{"geometry":{"coordinates":[6.826003,50.95077],"type":"Point"},"properties":{"osm_id":"6511813516","tag":{"amenity":"waste_basket"}},"type":"Feature"},
	{"geometry":{"coordinates":[6.826368,50.950457],"type":"Point"},"properties":{"osm_id":"6511813522","tag":{"amenity":"waste_basket"}},"type":"Feature"},
	{"geometry":{"coordinates":[6.825851,50.948228],"type":"Point"},"properties":{"osm_id":"6511813523","tag":{"amenity":"waste_basket"}},"type":"Feature"},
	{"geometry":{"coordinates":[6.824064,50.949089],"type":"Point"},"properties":{"osm_id":"6511813525","tag":{"amenity":"waste_basket"}},"type":"Feature"},
	{"geometry":{"coordinates":[6.826112,50.948138],"type":"Point"},"properties":{"osm_id":"6511813527","tag":{"amenity":"recycling","recycling:clothes":"yes","recycling:glass_bottles":"yes","recycling_type":"container"}},"type":"Feature"},
	{"geometry":{"coordinates":[6.830122,50.947092],"type":"Point"},"properties":{"osm_id":"6511858819","tag":{"amenity":"waste_basket"}},"type":"Feature"},
	{"geometry":{"coordinates":[6.810225,50.91085],"type":"Point"},"properties":{"osm_id":"6564854770","tag":{"amenity":"recycling","material":"steel","recycling:glass_bottles":"yes","recycling_type":"container"}},"type":"Feature"},
	{"geometry":{"coordinates":[6.822294,50.949686],"type":"Point"},"properties":{"osm_id":"6565780514","tag":{"amenity":"waste_basket"}},"type":"Feature"},
	{"geometry":{"coordinates":[6.818358,50.947866],"type":"Point"},"properties":{"osm_id":"6565803204","tag":{"amenity":"waste_basket"}},"type":"Feature"},
	{"geometry":{"coordinates":[6.81813,50.947617],"type":"Point"},"properties":{"osm_id":"6565806203","tag":{"amenity":"waste_basket"}},"type":"Feature"},
	{"geometry":{"coordinates":[6.829761,50.945501],"type":"Point"},"properties":{"osm_id":"6570508205","tag":{"amenity":"waste_basket","waste":"trash"}},"type":"Feature"},
	{"geometry":{"coordinates":[6.830294,50.945797],"type":"Point"},"properties":{"osm_id":"6570508209","tag":{"amenity":"waste_basket","waste":"trash"}},"type":"Feature"},
	{"geometry":{"coordinates":[6.830168,50.945848],"type":"Point"},"properties":{"osm_id":"6570508213","tag":{"amenity":"waste_basket","waste":"trash"}},"type":"Feature"},
	{"geometry":{"coordinates":[6.829478,50.945536],"type":"Point"},"properties":{"osm_id":"6570596124","tag":{"amenity":"recycling","recycling:clothes":"yes","recycling:glass_bottles":"yes","recycling_type":"container"}},"type":"Feature"},
	{"geometry":{"coordinates":[6.835427,50.942307],"type":"Point"},"properties":{"osm_id":"6573037136","tag":{"amenity":"waste_basket"}},"type":"Feature"},
	{"geometry":{"coordinates":[6.835399,50.942256],"type":"Point"},"properties":{"osm_id":"6573037152","tag":{"amenity":"waste_basket"}},"type":"Feature"},
	{"geometry":{"coordinates":[6.826651,50.947463],"type":"Point"},"properties":{"osm_id":"6577062941","tag":{"amenity":"waste_basket"}},"type":"Feature"},
	{"geometry":{"coordinates":[6.820193,50.944705],"type":"Point"},"properties":{"osm_id":"6577163709","tag":{"amenity":"waste_basket"}},"type":"Feature"},
	{"geometry":{"coordinates":[6.820301,50.944848],"type":"Point"},"properties":{"osm_id":"6577163713","tag":{"amenity":"waste_basket"}},"type":"Feature"},
	{"geometry":{"coordinates":[6.823053,50.943643],"type":"Point"},"properties":{"osm_id":"6578323902","tag":{"amenity":"waste_basket"}},"type":"Feature"},
	{"geometry":{"coordinates":[6.819305,50.942334],"type":"Point"},"properties":{"osm_id":"6578476783","tag":{"amenity":"waste_basket"}},"type":"Feature"},
	{"geometry":{"coordinates":[6.832414,50.943781],"type":"Point"},"properties":{"osm_id":"6578517432","tag":{"amenity":"waste_basket"}},"type":"Feature"},
	{"geometry":{"coordinates":[6.836679,50.936907],"type":"Point"},"properties":{"osm_id":"6579615500","tag":{"amenity":"waste_basket"}},"type":"Feature"},
	{"geometry":{"coordinates":[6.836968,50.936204],"type":"Point"},"properties":{"osm_id":"6579615505","tag":{"amenity":"waste_basket"}},"type":"Feature"},
	{"geometry":{"coordinates":[6.836566,50.936373],"type":"Point"},"properties":{"osm_id":"6579615506","tag":{"amenity":"waste_basket"}},"type":"Feature"},
	{"geometry":{"coordinates":[6.836773,50.936378],"type":"Point"},"properties":{"osm_id":"6579615507","tag":{"amenity":"waste_basket"}},"type":"Feature"},
	{"geometry":{"coordinates":[6.83691,50.936503],"type":"Point"},"properties":{"osm_id":"6579615508","tag":{"amenity":"waste_basket"}},"type":"Feature"},
	{"geometry":{"coordinates":[6.836943,50.936679],"type":"Point"},"properties":{"osm_id":"6579615510","tag":{"amenity":"waste_basket"}},"type":"Feature"},
	{"geometry":{"coordinates":[6.836965,50.936872],"type":"Point"},"properties":{"osm_id":"6579615512","tag":{"amenity":"waste_basket"}},"type":"Feature"},
	{"geometry":{"coordinates":[6.834822,50.93577],"type":"Point"},"properties":{"osm_id":"6579661707","tag":{"amenity":"recycling","recycling:clothes":"yes","recycling_type":"container"}},"type":"Feature"},
	{"geometry":{"coordinates":[6.833226,50.936198],"type":"Point"},"properties":{"osm_id":"6579709248","tag":{"amenity":"waste_basket"}},"type":"Feature"},
	{"geometry":{"coordinates":[6.820291,50.943007],"type":"Point"},"properties":{"osm_id":"6580019753","tag":{"amenity":"waste_basket"}},"type":"Feature"},
	{"geometry":{"coordinates":[6.820392,50.943046],"type":"Point"},"properties":{"osm_id":"6580019759","tag":{"amenity":"waste_basket"}},"type":"Feature"},
	{"geometry":{"coordinates":[6.819765,50.942849],"type":"Point"},"properties":{"osm_id":"6580097359","tag":{"amenity":"waste_basket"}},"type":"Feature"},
	{"geometry":{"coordinates":[6.77818,50.948597],"type":"Point"},"properties":{"osm_id":"6595161162","tag":{"amenity":"waste_basket"}},"type":"Feature"},
	{"geometry":{"coordinates":[6.853416,50.942215],"type":"Point"},"properties":{"osm_id":"6760311784","tag":{"amenity":"waste_basket"}},"type":"Feature"},
	{"geometry":{"coordinates":[6.854168,50.942054],"type":"Point"},"properties":{"osm_id":"6760315090","tag":{"amenity":"waste_basket"}},"type":"Feature"},
	{"geometry":{"coordinates":[6.810084,50.920626],"type":"Point"},"properties":{"osm_id":"6815541527","tag":{"amenity":"waste_basket"}},"type":"Feature"},
	{"geometry":{"coordinates":[6.811451,50.920665],"type":"Point"},"properties":{"osm_id":"6834482484","tag":{"amenity":"recycling","operator":"Humana","recycling:clothes":"yes","recycling:shoes":"yes","recycling_type":"container"}},"type":"Feature"},
	{"geometry":{"coordinates":[6.810458,50.918986],"type":"Point"},"properties":{"osm_id":"6835281544","tag":{"amenity":"waste_basket"}},"type":"Feature"},
	{"geometry":{"coordinates":[6.808313,50.923864],"type":"Point"},"properties":{"osm_id":"6847180665","tag":{"amenity":"waste_basket"}},"type":"Feature"},
	{"geometry":{"coordinates":[6.816691,50.922956],"type":"Point"},"properties":{"osm_id":"6847180670","tag":{"amenity":"waste_basket"}},"type":"Feature"},
	{"geometry":{"coordinates":[6.808843,50.923747],"type":"Point"},"properties":{"osm_id":"6848181534","tag":{"amenity":"waste_basket","image":"https://westnordost.de/p/4022.jpg"}},"type":"Feature"},
	{"geometry":{"coordinates":[6.811028,50.91001],"type":"Point"},"properties":{"osm_id":"6982712893","tag":{"amenity":"waste_basket"}},"type":"Feature"},
	{"geometry":{"coordinates":[6.829948,50.945495],"type":"Point"},"properties":{"osm_id":"7049778755","tag":{"amenity":"waste_basket","waste":"trash"}},"type":"Feature"},
	{"geometry":{"coordinates":[6.836189,50.939988],"type":"Point"},"properties":{"osm_id":"7380406773","tag":{"amenity":"waste_basket"}},"type":"Feature"},
	{"geometry":{"coordinates":[6.836256,50.938931],"type":"Point"},"properties":{"osm_id":"7380406774","tag":{"amenity":"waste_basket"}},"type":"Feature"},
	{"geometry":{"coordinates":[6.836417,50.938786],"type":"Point"},"properties":{"osm_id":"7380406778","tag":{"amenity":"waste_basket"}},"type":"Feature"},
	{"geometry":{"coordinates":[6.834573,50.938487],"type":"Point"},"properties":{"osm_id":"7380406781","tag":{"amenity":"waste_basket"}},"type":"Feature"},
	{"geometry":{"coordinates":[6.836336,50.939788],"type":"Point"},"properties":{"osm_id":"7380406782","tag":{"amenity":"waste_basket"}},"type":"Feature"},
	{"geometry":{"coordinates":[6.832236,50.941149],"type":"Point"},"properties":{"osm_id":"7380476702","tag":{"amenity":"waste_basket"}},"type":"Feature"},
	{"geometry":{"coordinates":[6.826686,50.939336],"type":"Point"},"properties":{"osm_id":"7380517355","tag":{"amenity":"waste_basket"}},"type":"Feature"},
	{"geometry":{"coordinates":[6.826644,50.938778],"type":"Point"},"properties":{"osm_id":"7380517357","tag":{"amenity":"waste_basket"}},"type":"Feature"},
	{"geometry":{"coordinates":[6.825405,50.940823],"type":"Point"},"properties":{"osm_id":"7380517358","tag":{"amenity":"waste_basket"}},"type":"Feature"},
	{"geometry":{"coordinates":[6.822403,50.940518],"type":"Point"},"properties":{"osm_id":"7380540133","tag":{"amenity":"waste_basket"}},"type":"Feature"},
	{"geometry":{"coordinates":[6.828497,50.941615],"type":"Point"},"properties":{"osm_id":"7380540134","tag":{"amenity":"waste_basket"}},"type":"Feature"},
	{"geometry":{"coordinates":[6.828582,50.941854],"type":"Point"},"properties":{"osm_id":"7380540136","tag":{"amenity":"waste_basket"}},"type":"Feature"},
	{"geometry":{"coordinates":[6.82988,50.944219],"type":"Point"},"properties":{"osm_id":"7380582241","tag":{"amenity":"waste_basket"}},"type":"Feature"},
	{"geometry":{"coordinates":[6.848522,50.940471],"type":"Point"},"properties":{"osm_id":"7386272832","tag":{"amenity":"waste_basket"}},"type":"Feature"},
	{"geometry":{"coordinates":[6.83949,50.943123],"type":"Point"},"properties":{"osm_id":"7386376580","tag":{"amenity":"recycling","recycling:glass_bottles":"yes","recycling_type":"container"}},"type":"Feature"},
	{"geometry":{"coordinates":[6.850078,50.943565],"type":"Point"},"properties":{"osm_id":"7392844905","tag":{"amenity":"waste_basket"}},"type":"Feature"},
	{"geometry":{"coordinates":[6.78731,50.938921],"type":"Point"},"properties":{"osm_id":"7482029664","tag":{"amenity":"waste_basket"}},"type":"Feature"},
	{"geometry":{"coordinates":[6.785787,50.941958],"type":"Point"},"properties":{"osm_id":"7482588659","tag":{"amenity":"waste_basket"}},"type":"Feature"},
	{"geometry":{"coordinates":[6.830036,50.910953],"type":"Point"},"properties":{"osm_id":"7625135790","tag":{"amenity":"recycling","recycling:clothes":"yes","recycling_type":"container"}},"type":"Feature"},
	{"geometry":{"coordinates":[6.815047,50.9191],"type":"Point"},"properties":{"osm_id":"7655408486","tag":{"amenity":"waste_basket"}},"type":"Feature"},
	{"geometry":{"coordinates":[6.781419,50.942701],"type":"Point"},"properties":{"osm_id":"7891032895","tag":{"amenity":"waste_basket"}},"type":"Feature"},
	{"geometry":{"coordinates":[6.782196,50.942198],"type":"Point"},"properties":{"osm_id":"7891032896","tag":{"amenity":"waste_basket"}},"type":"Feature"},
	{"geometry":{"coordinates":[6.781877,50.942167],"type":"Point"},"properties":{"osm_id":"7891032897","tag":{"amenity":"waste_basket"}},"type":"Feature"},
	{"geometry":{"coordinates":[6.78246,50.942384],"type":"Point"},"properties":{"osm_id":"7891032898","tag":{"amenity":"waste_basket"}},"type":"Feature"},
	{"geometry":{"coordinates":[6.781256,50.943163],"type":"Point"},"properties":{"osm_id":"7891037983","tag":{"amenity":"waste_basket"}},"type":"Feature"},
	{"geometry":{"coordinates":[6.781025,50.943619],"type":"Point"},"properties":{"osm_id":"7891055969","tag":{"amenity":"waste_basket"}},"type":"Feature"},
	{"geometry":{"coordinates":[6.778679,50.942912],"type":"Point"},"properties":{"osm_id":"7891065611","tag":{"amenity":"waste_basket"}},"type":"Feature"},
	{"geometry":{"coordinates":[6.781539,50.942506],"type":"Point"},"properties":{"osm_id":"7891065614","tag":{"amenity":"waste_basket"}},"type":"Feature"},
	{"geometry":{"coordinates":[6.779716,50.943124],"type":"Point"},"properties":{"osm_id":"7891065617","tag":{"amenity":"waste_basket"}},"type":"Feature"},
	{"geometry":{"coordinates":[6.780271,50.943239],"type":"Point"},"properties":{"osm_id":"7891081887","tag":{"amenity":"waste_basket"}},"type":"Feature"},
	{"geometry":{"coordinates":[6.780615,50.943922],"type":"Point"},"properties":{"osm_id":"7909812566","tag":{"amenity":"recycling","collection_times":"Mo-Sa 07:00-19:00","recycling:glass_bottles":"yes","recycling_type":"container"}},"type":"Feature"},
	{"geometry":{"coordinates":[6.776899,50.942943],"type":"Point"},"properties":{"osm_id":"7909937349","tag":{"amenity":"waste_basket"}},"type":"Feature"},
	{"geometry":{"coordinates":[6.78561,50.942168],"type":"Point"},"properties":{"osm_id":"7928729522","tag":{"amenity":"waste_basket"}},"type":"Feature"}
]
}
