{
"type": "FeatureCollection",
"features": [
	{"geometry":{"coordinates":[6.841684,50.892956],"type":"Point"},"properties":{"osm_id":"280956419","tag":{"amenity":"recycling","recycling:clothes":"yes"}},"type":"Feature"},
	{"geometry":{"coordinates":[6.81693,50.897536],"type":"Point"},"properties":{"osm_id":"356422228","tag":{"amenity":"recycling","recycling:glass":"yes"}},"type":"Feature"},
	{"geometry":{"coordinates":[6.816891,50.868169],"type":"Point"},"properties":{"osm_id":"426932578","tag":{"amenity":"recycling","recycling:glass":"yes"}},"type":"Feature"},
	{"geometry":{"coordinates":[6.820876,50.887586],"type":"Point"},"properties":{"osm_id":"560666060","tag":{"amenity":"recycling","recycling:clothes":"yes","recycling:glass_bottles":"yes"}},"type":"Feature"},
	{"geometry":{"coordinates":[6.771765,50.850801],"type":"Point"},"properties":{"osm_id":"706722804","tag":{"amenity":"recycling","recycling:glass":"yes","recycling_type":"container"}},"type":"Feature"},
	{"geometry":{"coordinates":[6.780559,50.848357],"type":"Point"},"properties":{"osm_id":"706722809","tag":{"amenity":"recycling","recycling:glass":"yes","recycling_type":"container"}},"type":"Feature"},
	{"geometry":{"coordinates":[6.812905,50.901902],"type":"Point"},"properties":{"osm_id":"836216408","tag":{"amenity":"recycling"}},"type":"Feature"},
	{"geometry":{"coordinates":[6.835467,50.885553],"type":"Point"},"properties":{"osm_id":"1153158156","tag":{"amenity":"recycling","recycling:glass_bottles":"yes","recycling_type":"container"}},"type":"Feature"},
	{"geometry":{"coordinates":[6.827289,50.86507],"type":"Point"},"properties":{"name":"Braunkohleveredelung RWE (ehem. Rheinbraun)","osm_id":"1201578927","tag":{"amenity":"recycling"}},"type":"Feature"},
	{"geometry":{"coordinates":[6.83487,50.86041],"type":"Point"},"properties":{"name":"Papierfabrik Rheinpapier","osm_id":"1201579416","tag":{"amenity":"recycling"}},"type":"Feature"},
	{"geometry":{"coordinates":[6.840708,50.895937],"type":"Point"},"properties":{"osm_id":"1203324282","tag":{"amenity":"recycling","recycling:glass":"yes"}},"type":"Feature"},
	{"geometry":{"coordinates":[6.804025,50.85731],"type":"Point"},"properties":{"osm_id":"1256757889","tag":{"amenity":"recycling","location":"overground","recycling:glass":"yes","recycling_type":"container"}},"type":"Feature"},
	{"geometry":{"coordinates":[6.80656,50.858122],"type":"Point"},"properties":{"osm_id":"1257009689","tag":{"amenity":"recycling","location":"overground","recycling:glass":"yes","recycling_type":"container"}},"type":"Feature"},
	{"geometry":{"coordinates":[6.807684,50.902312],"type":"Point"},"properties":{"osm_id":"4568565077","tag":{"amenity":"recycling","recycling:clothes":"yes","recycling_type":"container"}},"type":"Feature"},
	{"geometry":{"coordinates":[6.841872,50.887066],"type":"Point"},"properties":{"osm_id":"7103238237","tag":{"amenity":"recycling","description":"Altglas ","recycling_type":"container"}},"type":"Feature"},
	{"geometry":{"coordinates":[6.814338,50.87397],"type":"Point"},"properties":{"osm_id":"7103689326","tag":{"amenity":"recycling","recycling_type":"container"}},"type":"Feature"}
]
}
