{
"type": "FeatureCollection",
"features": [
	{"geometry":{"coordinates":[6.813746,50.701898],"type":"Point"},"properties":{"osm_id":"830622999","tag":{"amenity":"recycling","recycling:clothes":"yes","recycling_type":"container"}},"type":"Feature"},
	{"geometry":{"coordinates":[6.813749,50.701854],"type":"Point"},"properties":{"osm_id":"830623000","tag":{"amenity":"recycling","recycling:glass":"yes","recycling_type":"container"}},"type":"Feature"},
	{"geometry":{"coordinates":[6.815108,50.688054],"type":"Point"},"properties":{"osm_id":"837946964","tag":{"amenity":"recycling","description":"2 Altglascontainer. 1\u00c3\u0097 Braunglas, 1\u00c3\u0097 Gr\u00c3\u00bcnglas, 2\u00c3\u0097 Wei\u00c3\u009fglas (Einw\u00c3\u00bcrfe).","operator":"Sch\u00c3\u00b6nmackers","recycling:glass_bottles":"yes","recycling_type":"container"}},"type":"Feature"},
	{"geometry":{"coordinates":[6.817469,50.688601],"type":"Point"},"properties":{"osm_id":"837999092","tag":{"amenity":"recycling","description":"4 Altglascontainer und 1 Kolping-Altkleidercontainer","recycling:clothes":"yes","recycling:glass_bottles":"yes","recycling_type":"container"}},"type":"Feature"},
	{"geometry":{"coordinates":[6.817254,50.710098],"type":"Point"},"properties":{"osm_id":"921810816","tag":{"amenity":"recycling","recycling:clothes":"yes","recycling_type":"container"}},"type":"Feature"},
	{"geometry":{"coordinates":[6.817264,50.709105],"type":"Point"},"properties":{"osm_id":"921812011","tag":{"amenity":"recycling","recycling:glass":"yes","recycling_type":"container"}},"type":"Feature"},
	{"geometry":{"coordinates":[6.79265,50.707272],"type":"Point"},"properties":{"osm_id":"923881054","tag":{"amenity":"recycling","recycling:clothes":"yes","recycling:glass":"yes","recycling_type":"container"}},"type":"Feature"},
	{"geometry":{"coordinates":[6.776525,50.691423],"type":"Point"},"properties":{"osm_id":"1797620383","tag":{"amenity":"waste_basket","material":"stone"}},"type":"Feature"},
	{"geometry":{"coordinates":[6.817538,50.704185],"type":"Point"},"properties":{"barrier":"gate","osm_id":"2361489455"},"type":"Feature"},
	{"geometry":{"coordinates":[6.816108,50.687051],"type":"Point"},"properties":{"osm_id":"3050245263","tag":{"amenity":"waste_basket","colour":"gray","material":"metal"}},"type":"Feature"},
	{"geometry":{"coordinates":[6.831932,50.731787],"type":"Point"},"properties":{"osm_id":"3060083057","tag":{"amenity":"waste_basket"}},"type":"Feature"},
	{"geometry":{"coordinates":[6.815146,50.68824],"type":"Point"},"properties":{"osm_id":"4401247317","tag":{"amenity":"waste_basket"}},"type":"Feature"},
	{"geometry":{"coordinates":[6.833207,50.685356],"type":"Point"},"properties":{"osm_id":"4756313534","tag":{"amenity":"recycling","contact:phone":"+49 800 8884373","description":"2 Altglascontainer. 1\u00c3\u0097 Braunglas, 1\u00c3\u0097 Gr\u00c3\u00bcnglas, 2\u00c3\u0097 Wei\u00c3\u009fglas (Einw\u00c3\u00bcrfe). Deckel sind erlaubt. Sauber und ohne Inhaltsreste einwerfen. Einwurf werktags 7.00-20.00 Uhr","operator":"Sch\u00c3\u00b6nmackers","recycling:glass":"no","recycling:glass_bottles":"yes","recycling_type":"container"}},"type":"Feature"},
	{"geometry":{"coordinates":[6.824385,50.686002],"type":"Point"},"properties":{"osm_id":"4825510335","tag":{"amenity":"waste_basket"}},"type":"Feature"},
	{"geometry":{"coordinates":[6.822956,50.687145],"type":"Point"},"properties":{"osm_id":"4825510416","tag":{"amenity":"waste_basket"}},"type":"Feature"},
	{"geometry":{"coordinates":[6.821159,50.688274],"type":"Point"},"properties":{"osm_id":"4825510456","tag":{"amenity":"waste_basket"}},"type":"Feature"},
	{"geometry":{"coordinates":[6.822414,50.688605],"type":"Point"},"properties":{"osm_id":"4825510460","tag":{"amenity":"waste_basket"}},"type":"Feature"},
	{"geometry":{"coordinates":[6.820223,50.68888],"type":"Point"},"properties":{"osm_id":"4825510506","tag":{"amenity":"waste_basket"}},"type":"Feature"},
	{"geometry":{"coordinates":[6.821031,50.689192],"type":"Point"},"properties":{"osm_id":"4825510507","tag":{"amenity":"waste_basket"}},"type":"Feature"},
	{"geometry":{"coordinates":[6.820928,50.689871],"type":"Point"},"properties":{"osm_id":"4825510508","tag":{"amenity":"waste_basket"}},"type":"Feature"},
	{"geometry":{"coordinates":[6.816986,50.707371],"type":"Point"},"properties":{"osm_id":"4975643472","tag":{"amenity":"waste_basket"}},"type":"Feature"},
	{"geometry":{"coordinates":[6.818868,50.692376],"type":"Point"},"properties":{"osm_id":"5554295106","tag":{"amenity":"waste_basket","colour":"gray","material":"metal"}},"type":"Feature"},
	{"geometry":{"coordinates":[6.824695,50.682056],"type":"Point"},"properties":{"osm_id":"5670182799","tag":{"amenity":"waste_basket"}},"type":"Feature"},
	{"geometry":{"coordinates":[6.818725,50.686974],"type":"Point"},"properties":{"osm_id":"5670340772","tag":{"amenity":"waste_basket","material":"metal","start_date":"2018-05"}},"type":"Feature"},
	{"geometry":{"coordinates":[6.811437,50.689905],"type":"Point"},"properties":{"osm_id":"5679777376","tag":{"amenity":"waste_basket","colour":"gray","material":"metal"}},"type":"Feature"},
	{"geometry":{"coordinates":[6.828554,50.682014],"type":"Point"},"properties":{"osm_id":"5703025003","tag":{"amenity":"waste_basket","material":"metal","start_date":"2018-05"}},"type":"Feature"},
	{"geometry":{"coordinates":[6.828431,50.694453],"type":"Point"},"properties":{"osm_id":"5747101990","tag":{"access":"private","amenity":"waste_basket","colour":"gray","material":"metal"}},"type":"Feature"},
	{"geometry":{"coordinates":[6.828403,50.694403],"type":"Point"},"properties":{"osm_id":"5747101991","tag":{"access":"private","amenity":"waste_basket","colour":"gray","material":"metal"}},"type":"Feature"},
	{"geometry":{"coordinates":[6.828276,50.695687],"type":"Point"},"properties":{"osm_id":"5747101992","tag":{"access":"private","amenity":"waste_basket","colour":"gray","material":"metal"}},"type":"Feature"},
	{"geometry":{"coordinates":[6.82835,50.695713],"type":"Point"},"properties":{"osm_id":"5747101993","tag":{"access":"private","amenity":"waste_basket","colour":"gray","material":"metal"}},"type":"Feature"},
	{"geometry":{"coordinates":[6.828971,50.694871],"type":"Point"},"properties":{"osm_id":"5747101994","tag":{"access":"private","amenity":"waste_basket","colour":"gray","material":"metal"}},"type":"Feature"},
	{"geometry":{"coordinates":[6.829039,50.694905],"type":"Point"},"properties":{"osm_id":"5747101995","tag":{"access":"private","amenity":"waste_basket","colour":"gray","material":"metal"}},"type":"Feature"},
	{"geometry":{"coordinates":[6.816283,50.687004],"type":"Point"},"properties":{"osm_id":"5844173430","tag":{"amenity":"waste_basket","colour":"gray","material":"metal"}},"type":"Feature"},
	{"geometry":{"coordinates":[6.816286,50.686775],"type":"Point"},"properties":{"osm_id":"5844173432","tag":{"amenity":"waste_basket","colour":"gray","material":"metal"}},"type":"Feature"},
	{"geometry":{"coordinates":[6.816329,50.687082],"type":"Point"},"properties":{"osm_id":"5844173433","tag":{"amenity":"waste_basket","colour":"gray","material":"metal"}},"type":"Feature"},
	{"geometry":{"coordinates":[6.816094,50.687225],"type":"Point"},"properties":{"osm_id":"5844173436","tag":{"amenity":"waste_basket","colour":"gray","material":"metal"}},"type":"Feature"},
	{"geometry":{"coordinates":[6.819427,50.689801],"type":"Point"},"properties":{"osm_id":"6052740724","tag":{"amenity":"waste_basket","colour":"black","material":"metal"}},"type":"Feature"},
	{"geometry":{"coordinates":[6.819793,50.689927],"type":"Point"},"properties":{"osm_id":"6052740725","tag":{"amenity":"waste_basket","colour":"black","material":"metal"}},"type":"Feature"},
	{"geometry":{"coordinates":[6.817941,50.688815],"type":"Point"},"properties":{"osm_id":"6052740762","tag":{"amenity":"waste_basket","material":"metal"}},"type":"Feature"},
	{"geometry":{"coordinates":[6.835894,50.689876],"type":"Point"},"properties":{"osm_id":"6090119169","tag":{"amenity":"waste_disposal"}},"type":"Feature"},
	{"geometry":{"coordinates":[6.827238,50.694235],"type":"Point"},"properties":{"osm_id":"6482369121","tag":{"access":"private","amenity":"waste_basket","colour":"gray","material":"metal"}},"type":"Feature"},
	{"geometry":{"coordinates":[6.827273,50.694249],"type":"Point"},"properties":{"osm_id":"6482369122","tag":{"access":"private","amenity":"waste_basket","colour":"gray","material":"metal"}},"type":"Feature"},
	{"geometry":{"coordinates":[6.827414,50.694308],"type":"Point"},"properties":{"osm_id":"6482369123","tag":{"access":"private","amenity":"waste_basket","colour":"gray","material":"metal"}},"type":"Feature"},
	{"geometry":{"coordinates":[6.828287,50.69527],"type":"Point"},"properties":{"osm_id":"6482369136","tag":{"access":"private","amenity":"waste_basket","colour":"gray","material":"metal"}},"type":"Feature"},
	{"geometry":{"coordinates":[6.833449,50.692223],"type":"Point"},"properties":{"osm_id":"7395438206","tag":{"amenity":"waste_disposal"}},"type":"Feature"}
]
}
