{
"type": "FeatureCollection",
"features": [
	{"geometry":{"coordinates":[6.838982,50.657595],"type":"Point"},"properties":{"osm_id":"282879724","tag":{"amenity":"recycling","description":"2 Altglascontainer und 1 AWO-Altkleidercontainer","recycling:clothes":"yes","recycling:glass_bottles":"yes","recycling_type":"container"}},"type":"Feature"},
	{"geometry":{"coordinates":[6.830918,50.674153],"type":"Point"},"properties":{"osm_id":"283162473","tag":{"amenity":"recycling","contact:phone":"+49 800 8884373","description":"2 Altglascontainer. 1\u00c3\u0097 Braunglas, 1\u00c3\u0097 Gr\u00c3\u00bcnglas, 2\u00c3\u0097 Wei\u00c3\u009fglas (Einw\u00c3\u00bcrfe). Deckel sind erlaubt. Sauber und ohne Inhaltsreste einwerfen. Einwurf werktags 7.00-20.00 Uhr","opening_hours":"Mo-Fr 07:00-20:00","operator":"Sch\u00c3\u00b6nmackers","recycling:glass":"no","recycling:glass_bottles":"yes","recycling_type":"container"}},"type":"Feature"},
	{"geometry":{"coordinates":[6.784702,50.663973],"type":"Point"},"properties":{"osm_id":"291719675","tag":{"amenity":"recycling","description":"4 Glascontainer","recycling:glass_bottles":"yes","recycling_type":"container"}},"type":"Feature"},
	{"geometry":{"coordinates":[6.778872,50.668318],"type":"Point"},"properties":{"osm_id":"291726582","tag":{"amenity":"recycling","recycling:glass_bottles":"yes","recycling_type":"container"}},"type":"Feature"},
	{"geometry":{"coordinates":[6.802563,50.653007],"type":"Point"},"properties":{"osm_id":"291727512","tag":{"amenity":"recycling","operator":"Remondis","recycling:glass_bottles":"yes","recycling_type":"container"}},"type":"Feature"},
	{"geometry":{"coordinates":[6.780317,50.664452],"type":"Point"},"properties":{"osm_id":"291727843","tag":{"amenity":"recycling","recycling:glass_bottles":"yes","recycling_type":"container"}},"type":"Feature"},
	{"geometry":{"coordinates":[6.767736,50.668042],"type":"Point"},"properties":{"osm_id":"292036466","tag":{"amenity":"recycling","recycling:glass_bottles":"yes","recycling_type":"container"}},"type":"Feature"},
	{"geometry":{"coordinates":[6.79043,50.661056],"type":"Point"},"properties":{"osm_id":"302864079","tag":{"amenity":"recycling","recycling:glass_bottles":"yes","recycling_type":"container"}},"type":"Feature"},
	{"geometry":{"coordinates":[6.780492,50.658026],"type":"Point"},"properties":{"osm_id":"302864101","tag":{"amenity":"recycling","description":"2 Glascontainer","recycling:glass_bottles":"yes","recycling_type":"container"}},"type":"Feature"},
	{"geometry":{"coordinates":[6.793087,50.661794],"type":"Point"},"properties":{"osm_id":"403557007","tag":{"amenity":"recycling","recycling:glass_bottles":"yes","recycling_type":"container"}},"type":"Feature"},
	{"geometry":{"coordinates":[6.787247,50.654089],"type":"Point"},"properties":{"osm_id":"419258557","tag":{"amenity":"recycling","recycling:glass_bottles":"yes","recycling_type":"container"}},"type":"Feature"},
	{"geometry":{"coordinates":[6.827856,50.651082],"type":"Point"},"properties":{"osm_id":"430326155","tag":{"amenity":"recycling","description":"3 Altglascontainer","recycling:glass_bottles":"yes","recycling_type":"container"}},"type":"Feature"},
	{"geometry":{"coordinates":[6.790303,50.649051],"type":"Point"},"properties":{"osm_id":"735448684","tag":{"amenity":"recycling","recycling:glass_bottles":"yes","recycling_type":"container"}},"type":"Feature"},
	{"geometry":{"coordinates":[6.79258,50.6438],"type":"Point"},"properties":{"osm_id":"735448693","tag":{"amenity":"recycling","recycling:glass_bottles":"yes","recycling_type":"container"}},"type":"Feature"},
	{"geometry":{"coordinates":[6.774677,50.651479],"type":"Point"},"properties":{"osm_id":"735463702","tag":{"amenity":"recycling","recycling:glass_bottles":"yes","recycling_type":"container"}},"type":"Feature"},
	{"geometry":{"coordinates":[6.792193,50.65105],"type":"Point"},"properties":{"osm_id":"735463968","tag":{"amenity":"recycling","recycling:clothes":"yes","recycling_type":"container"}},"type":"Feature"},
	{"geometry":{"coordinates":[6.795653,50.669946],"type":"Point"},"properties":{"osm_id":"814034149","tag":{"amenity":"waste_basket"}},"type":"Feature"},
	{"geometry":{"coordinates":[6.794729,50.671212],"type":"Point"},"properties":{"osm_id":"814034167","tag":{"amenity":"waste_basket"}},"type":"Feature"},
	{"geometry":{"coordinates":[6.799349,50.664328],"type":"Point"},"properties":{"osm_id":"820998617","tag":{"amenity":"recycling","recycling:glass_bottles":"yes","recycling_type":"container"}},"type":"Feature"},
	{"geometry":{"coordinates":[6.798519,50.666339],"type":"Point"},"properties":{"osm_id":"830580441","tag":{"amenity":"recycling","recycling:clothes":"yes","recycling_type":"container"}},"type":"Feature"},
	{"geometry":{"coordinates":[6.795956,50.680263],"type":"Point"},"properties":{"osm_id":"839208034","tag":{"amenity":"recycling","description":"2 Altglascontainer","recycling:glass_bottles":"yes","recycling_type":"container"}},"type":"Feature"},
	{"geometry":{"coordinates":[6.812005,50.662611],"type":"Point"},"properties":{"osm_id":"848143226","tag":{"amenity":"recycling","recycling:cans":"no","recycling:clothes":"yes","recycling:glass":"no","recycling:paper":"no","recycling_type":"container"}},"type":"Feature"},
	{"geometry":{"coordinates":[6.793843,50.672077],"type":"Point"},"properties":{"osm_id":"923260222","tag":{"amenity":"recycling","description":"u.a. Wei\u00c3\u009f- und Gr\u00c3\u00bcnglas","recycling:glass_bottles":"yes","recycling_type":"container"}},"type":"Feature"},
	{"geometry":{"coordinates":[6.798566,50.664304],"type":"Point"},"properties":{"osm_id":"926648354","tag":{"amenity":"recycling","recycling:clothes":"yes","recycling_type":"container"}},"type":"Feature"},
	{"geometry":{"coordinates":[6.797534,50.664188],"type":"Point"},"properties":{"osm_id":"926654189","tag":{"amenity":"recycling","recycling:clothes":"yes","recycling_type":"container"}},"type":"Feature"},
	{"geometry":{"coordinates":[6.792162,50.664624],"type":"Point"},"properties":{"osm_id":"926729964","tag":{"amenity":"recycling","recycling:glass_bottles":"yes","recycling_type":"container"}},"type":"Feature"},
	{"geometry":{"coordinates":[6.783803,50.666332],"type":"Point"},"properties":{"osm_id":"929304183","tag":{"amenity":"recycling","recycling:clothes":"yes","recycling:glass_bottles":"yes","recycling:paper":"yes","recycling_type":"container"}},"type":"Feature"},
	{"geometry":{"coordinates":[6.780118,50.664554],"type":"Point"},"properties":{"osm_id":"929313695","tag":{"amenity":"recycling","recycling:clothes":"yes","recycling_type":"container"}},"type":"Feature"},
	{"geometry":{"coordinates":[6.777091,50.657707],"type":"Point"},"properties":{"osm_id":"944417228","tag":{"amenity":"recycling","recycling:clothes":"yes","recycling_type":"container"}},"type":"Feature"},
	{"geometry":{"coordinates":[6.811422,50.631586],"type":"Point"},"properties":{"osm_id":"954736647","tag":{"amenity":"recycling","recycling:glass_bottles":"yes","recycling_type":"container"}},"type":"Feature"},
	{"geometry":{"coordinates":[6.785465,50.670485],"type":"Point"},"properties":{"osm_id":"1067896526","tag":{"amenity":"recycling","colour":"red","operator":"Deutsches Rotes Kreuz Kreisverband Euskirchen e.V.","recycling:clothes":"yes","recycling_type":"container"}},"type":"Feature"},
	{"geometry":{"coordinates":[6.775258,50.670686],"type":"Point"},"properties":{"osm_id":"1067912763","tag":{"amenity":"recycling","recycling:glass_bottles":"yes","recycling_type":"container"}},"type":"Feature"},
	{"geometry":{"coordinates":[6.779847,50.668019],"type":"Point"},"properties":{"osm_id":"1820869598","tag":{"amenity":"waste_basket"}},"type":"Feature"},
	{"geometry":{"coordinates":[6.780238,50.668118],"type":"Point"},"properties":{"osm_id":"1820869650","tag":{"amenity":"waste_basket"}},"type":"Feature"},
	{"geometry":{"coordinates":[6.781218,50.668338],"type":"Point"},"properties":{"osm_id":"1820869767","tag":{"amenity":"waste_basket"}},"type":"Feature"},
	{"geometry":{"coordinates":[6.795023,50.648865],"type":"Point"},"properties":{"osm_id":"1831148891","tag":{"amenity":"recycling","recycling:glass_bottles":"yes","recycling_type":"container"}},"type":"Feature"},
	{"geometry":{"coordinates":[6.795007,50.648889],"type":"Point"},"properties":{"osm_id":"1831148892","tag":{"amenity":"recycling","recycling:glass_bottles":"yes","recycling_type":"container"}},"type":"Feature"},
	{"geometry":{"coordinates":[6.804585,50.661006],"type":"Point"},"properties":{"osm_id":"2809040677","tag":{"amenity":"recycling","recycling:clothes":"yes","recycling_type":"container"}},"type":"Feature"},
	{"geometry":{"coordinates":[6.791959,50.657315],"type":"Point"},"properties":{"osm_id":"2964978128","tag":{"amenity":"waste_basket"}},"type":"Feature"},
	{"geometry":{"coordinates":[6.792075,50.657611],"type":"Point"},"properties":{"osm_id":"2964978751","tag":{"amenity":"waste_basket","level":"1","mapillary":"KHsavbg3LsPmk0DEfGA4ag"}},"type":"Feature"},
	{"geometry":{"coordinates":[6.792542,50.657727],"type":"Point"},"properties":{"osm_id":"2964978774","tag":{"amenity":"waste_basket","level":"1","mapillary":"TIeEeh4vJ-YLL8z71E2VdQ"}},"type":"Feature"},
	{"geometry":{"coordinates":[6.792095,50.658298],"type":"Point"},"properties":{"osm_id":"2964978858","tag":{"amenity":"waste_basket"}},"type":"Feature"},
	{"geometry":{"coordinates":[6.792457,50.656114],"type":"Point"},"properties":{"osm_id":"3048881617","tag":{"amenity":"recycling","recycling:glass_bottles":"yes","recycling_type":"container"}},"type":"Feature"},
	{"geometry":{"coordinates":[6.811118,50.634235],"type":"Point"},"properties":{"osm_id":"3057934869","tag":{"amenity":"waste_basket"}},"type":"Feature"},
	{"geometry":{"coordinates":[6.791442,50.658092],"type":"Point"},"properties":{"osm_id":"3148187075","tag":{"amenity":"waste_basket"}},"type":"Feature"},
	{"geometry":{"coordinates":[6.807926,50.645961],"type":"Point"},"properties":{"osm_id":"3463715304","tag":{"amenity":"recycling","recycling:glass_bottles":"yes","recycling_type":"container"}},"type":"Feature"},
	{"geometry":{"coordinates":[6.797657,50.663123],"type":"Point"},"properties":{"osm_id":"3856661475","tag":{"amenity":"waste_basket"}},"type":"Feature"},
	{"geometry":{"coordinates":[6.800114,50.6617],"type":"Point"},"properties":{"osm_id":"4060120209","tag":{"amenity":"waste_basket","colour":"yellow","material":"metal"}},"type":"Feature"},
	{"geometry":{"coordinates":[6.799628,50.661758],"type":"Point"},"properties":{"osm_id":"4060120210","tag":{"amenity":"waste_basket","colour":"yellow","material":"metal"}},"type":"Feature"},
	{"geometry":{"coordinates":[6.800422,50.662194],"type":"Point"},"properties":{"osm_id":"4060120214","tag":{"amenity":"waste_basket","colour":"gray","material":"metal"}},"type":"Feature"},
	{"geometry":{"coordinates":[6.799469,50.66232],"type":"Point"},"properties":{"osm_id":"4060120219","tag":{"amenity":"waste_basket","colour":"gray","material":"metal"}},"type":"Feature"},
	{"geometry":{"coordinates":[6.800562,50.662413],"type":"Point"},"properties":{"osm_id":"4060120220","tag":{"amenity":"waste_basket","colour":"yellow","material":"metal"}},"type":"Feature"},
	{"geometry":{"coordinates":[6.779443,50.628726],"type":"Point"},"properties":{"osm_id":"4120897501","tag":{"amenity":"recycling","description":"2 Altglascontainer","recycling:glass_bottles":"yes","recycling_type":"container"}},"type":"Feature"},
	{"geometry":{"coordinates":[6.810974,50.637582],"type":"Point"},"properties":{"osm_id":"4120897502","tag":{"amenity":"recycling","description":"1 AWO-Altkleidercontainer","recycling:clothes":"yes","recycling_type":"container"}},"type":"Feature"},
	{"geometry":{"coordinates":[6.802405,50.653031],"type":"Point"},"properties":{"osm_id":"4230559505","tag":{"amenity":"recycling","recycling:clothes":"yes","recycling_type":"container"}},"type":"Feature"},
	{"geometry":{"coordinates":[6.802124,50.653109],"type":"Point"},"properties":{"osm_id":"4230559506","tag":{"amenity":"recycling","description":"1 Altkleidercontainer","recycling:clothes":"yes","recycling_type":"container"}},"type":"Feature"},
	{"geometry":{"coordinates":[6.835438,50.655071],"type":"Point"},"properties":{"osm_id":"4235495448","tag":{"amenity":"recycling","colour":"white","operator":"AWO","recycling:clothes":"yes","recycling_type":"container"}},"type":"Feature"},
	{"geometry":{"coordinates":[6.787765,50.667747],"type":"Point"},"properties":{"osm_id":"4364710503","tag":{"amenity":"recycling","recycling:clothes":"yes","recycling_type":"container"}},"type":"Feature"},
	{"geometry":{"coordinates":[6.827544,50.673856],"type":"Point"},"properties":{"osm_id":"4423835690","tag":{"amenity":"waste_basket"}},"type":"Feature"},
	{"geometry":{"coordinates":[6.791161,50.659538],"type":"Point"},"properties":{"osm_id":"4424010093","tag":{"amenity":"waste_basket","colour":"gray","material":"metal"}},"type":"Feature"},
	{"geometry":{"coordinates":[6.795367,50.660235],"type":"Point"},"properties":{"osm_id":"4424029393","tag":{"amenity":"waste_basket"}},"type":"Feature"},
	{"geometry":{"coordinates":[6.783427,50.661265],"type":"Point"},"properties":{"osm_id":"4424078390","tag":{"amenity":"waste_basket"}},"type":"Feature"},
	{"geometry":{"coordinates":[6.794452,50.662515],"type":"Point"},"properties":{"osm_id":"4424087792","tag":{"amenity":"waste_basket"}},"type":"Feature"},
	{"geometry":{"coordinates":[6.784238,50.661455],"type":"Point"},"properties":{"osm_id":"4424087889","tag":{"amenity":"waste_basket"}},"type":"Feature"},
	{"geometry":{"coordinates":[6.786267,50.662169],"type":"Point"},"properties":{"osm_id":"4424087992","tag":{"amenity":"waste_basket"}},"type":"Feature"},
	{"geometry":{"coordinates":[6.790802,50.662124],"type":"Point"},"properties":{"osm_id":"4424088589","tag":{"amenity":"waste_basket"}},"type":"Feature"},
	{"geometry":{"coordinates":[6.791302,50.658018],"type":"Point"},"properties":{"osm_id":"4469980323","tag":{"amenity":"waste_basket"}},"type":"Feature"},
	{"geometry":{"coordinates":[6.791332,50.658042],"type":"Point"},"properties":{"osm_id":"4469980330","tag":{"amenity":"waste_basket"}},"type":"Feature"},
	{"geometry":{"coordinates":[6.791888,50.658049],"type":"Point"},"properties":{"osm_id":"4469980342","tag":{"amenity":"waste_basket"}},"type":"Feature"},
	{"geometry":{"coordinates":[6.791474,50.658118],"type":"Point"},"properties":{"osm_id":"4469980344","tag":{"amenity":"waste_basket"}},"type":"Feature"},
	{"geometry":{"coordinates":[6.791995,50.658075],"type":"Point"},"properties":{"osm_id":"4469980345","tag":{"amenity":"waste_basket","description":"Ascher f\u00c3\u00bcr Zigaretten"}},"type":"Feature"},
	{"geometry":{"coordinates":[6.79215,50.65829],"type":"Point"},"properties":{"osm_id":"4469980361","tag":{"amenity":"waste_basket"}},"type":"Feature"},
	{"geometry":{"coordinates":[6.792312,50.658296],"type":"Point"},"properties":{"osm_id":"4469980364","tag":{"amenity":"waste_basket"}},"type":"Feature"},
	{"geometry":{"coordinates":[6.792665,50.658303],"type":"Point"},"properties":{"osm_id":"4469980370","tag":{"amenity":"waste_basket"}},"type":"Feature"},
	{"geometry":{"coordinates":[6.801715,50.664459],"type":"Point"},"properties":{"osm_id":"4474902640","tag":{"amenity":"waste_basket"}},"type":"Feature"},
	{"geometry":{"coordinates":[6.801179,50.664608],"type":"Point"},"properties":{"osm_id":"4474902649","tag":{"amenity":"waste_basket"}},"type":"Feature"},
	{"geometry":{"coordinates":[6.834219,50.65798],"type":"Point"},"properties":{"name":"Gr\u00c3\u00bcnschnittannahme","osm_id":"4535494636","tag":{"amenity":"recycling","contact:email":"info@gruenschnitt-euskirchen.de","contact:phone":"+49 2251 125226","contact:website":"http://gruenschnitt-euskirchen.de/","description":"Annahme von Baumschnitt, Geh\u00c3\u00b6lzschnitt, Strauchschnitt bis 60cm Durchmesser. Annahme ganzj\u00c3\u00a4hrig nach telefonischer Absprache. Keine Annahme von Wurzeln und Rasenschnitt.","opening_hours":"Mo-Sa \"bis 19:00\"","operator":"Markus Braun","recycling:green_waste":"yes","recycling_type":"centre"}},"type":"Feature"},
	{"geometry":{"coordinates":[6.778101,50.629314],"type":"Point"},"properties":{"osm_id":"4549146649","tag":{"amenity":"waste_basket","material":"metal"}},"type":"Feature"},
	{"geometry":{"coordinates":[6.785711,50.668627],"type":"Point"},"properties":{"osm_id":"4594474829","tag":{"amenity":"recycling","recycling:glass_bottles":"yes","recycling_type":"container"}},"type":"Feature"},
	{"geometry":{"coordinates":[6.785688,50.668641],"type":"Point"},"properties":{"osm_id":"4594474830","tag":{"amenity":"recycling","recycling:glass_bottles":"yes","recycling_type":"container"}},"type":"Feature"},
	{"geometry":{"coordinates":[6.803043,50.651246],"type":"Point"},"properties":{"osm_id":"4610096408","tag":{"amenity":"waste_basket"}},"type":"Feature"},
	{"geometry":{"coordinates":[6.802884,50.651189],"type":"Point"},"properties":{"osm_id":"4610096414","tag":{"amenity":"waste_basket"}},"type":"Feature"},
	{"geometry":{"coordinates":[6.805659,50.656929],"type":"Point"},"properties":{"name":"SSG Altmetallhandel GbR","osm_id":"4610168524","tag":{"addr:city":"Euskirchen","addr:country":"DE","addr:housenumber":"52","addr:postcode":"53879","addr:street":"Alfred-Nobel-Stra\u00c3\u009fe","amenity":"recycling","contact:phone":"+49 163 1415427","contact:website":"https://www.ssg-altmetallhandel.de/","opening_hours":"Mo-Fr 09:00-16:00; Sa 09:00-12:00","recycling:scrap_metal":"yes","recycling_type":"centre"}},"type":"Feature"},
	{"geometry":{"coordinates":[6.788252,50.659533],"type":"Point"},"properties":{"osm_id":"4621155890","tag":{"amenity":"waste_basket"}},"type":"Feature"},
	{"geometry":{"coordinates":[6.784893,50.656821],"type":"Point"},"properties":{"osm_id":"4621155894","tag":{"amenity":"waste_basket"}},"type":"Feature"},
	{"geometry":{"coordinates":[6.786588,50.656791],"type":"Point"},"properties":{"osm_id":"4621155899","tag":{"amenity":"waste_basket"}},"type":"Feature"},
	{"geometry":{"coordinates":[6.776122,50.654698],"type":"Point"},"properties":{"osm_id":"4621155908","tag":{"amenity":"waste_basket"}},"type":"Feature"},
	{"geometry":{"coordinates":[6.788034,50.659701],"type":"Point"},"properties":{"osm_id":"4621157392","tag":{"amenity":"waste_basket"}},"type":"Feature"},
	{"geometry":{"coordinates":[6.784833,50.657128],"type":"Point"},"properties":{"osm_id":"4621157394","tag":{"amenity":"waste_basket"}},"type":"Feature"},
	{"geometry":{"coordinates":[6.772804,50.655082],"type":"Point"},"properties":{"osm_id":"4621157398","tag":{"amenity":"waste_basket"}},"type":"Feature"},
	{"geometry":{"coordinates":[6.776842,50.655924],"type":"Point"},"properties":{"osm_id":"4621166492","tag":{"amenity":"waste_basket"}},"type":"Feature"},
	{"geometry":{"coordinates":[6.776716,50.655675],"type":"Point"},"properties":{"osm_id":"4621179091","tag":{"amenity":"waste_basket"}},"type":"Feature"},
	{"geometry":{"coordinates":[6.77733,50.656013],"type":"Point"},"properties":{"osm_id":"4621179097","tag":{"amenity":"waste_basket"}},"type":"Feature"},
	{"geometry":{"coordinates":[6.773866,50.654272],"type":"Point"},"properties":{"osm_id":"4621193697","tag":{"amenity":"waste_basket"}},"type":"Feature"},
	{"geometry":{"coordinates":[6.775238,50.655433],"type":"Point"},"properties":{"osm_id":"4621193700","tag":{"amenity":"waste_basket"}},"type":"Feature"},
	{"geometry":{"coordinates":[6.77692,50.65596],"type":"Point"},"properties":{"osm_id":"4621195792","tag":{"amenity":"waste_basket"}},"type":"Feature"},
	{"geometry":{"coordinates":[6.777415,50.655797],"type":"Point"},"properties":{"osm_id":"4621195793","tag":{"amenity":"waste_basket"}},"type":"Feature"},
	{"geometry":{"coordinates":[6.788371,50.659764],"type":"Point"},"properties":{"osm_id":"4621196689","tag":{"amenity":"waste_basket","material":"metal"}},"type":"Feature"},
	{"geometry":{"coordinates":[6.788842,50.659548],"type":"Point"},"properties":{"osm_id":"4621196989","tag":{"amenity":"waste_basket"}},"type":"Feature"},
	{"geometry":{"coordinates":[6.784569,50.656391],"type":"Point"},"properties":{"osm_id":"4621196991","tag":{"amenity":"waste_basket"}},"type":"Feature"},
	{"geometry":{"coordinates":[6.785967,50.6566],"type":"Point"},"properties":{"osm_id":"4621196992","tag":{"amenity":"waste_basket"}},"type":"Feature"},
	{"geometry":{"coordinates":[6.774997,50.654674],"type":"Point"},"properties":{"osm_id":"4621196998","tag":{"amenity":"waste_basket"}},"type":"Feature"},
	{"geometry":{"coordinates":[6.77546,50.654906],"type":"Point"},"properties":{"osm_id":"4621197891","tag":{"amenity":"waste_basket"}},"type":"Feature"},
	{"geometry":{"coordinates":[6.784733,50.656889],"type":"Point"},"properties":{"osm_id":"4621198989","tag":{"amenity":"waste_basket"}},"type":"Feature"},
	{"geometry":{"coordinates":[6.775546,50.655356],"type":"Point"},"properties":{"osm_id":"4621198997","tag":{"amenity":"waste_basket"}},"type":"Feature"},
	{"geometry":{"coordinates":[6.784748,50.656525],"type":"Point"},"properties":{"osm_id":"4621200690","tag":{"amenity":"waste_basket"}},"type":"Feature"},
	{"geometry":{"coordinates":[6.784457,50.656584],"type":"Point"},"properties":{"osm_id":"4621200691","tag":{"amenity":"waste_basket"}},"type":"Feature"},
	{"geometry":{"coordinates":[6.786612,50.657014],"type":"Point"},"properties":{"osm_id":"4621203789","tag":{"amenity":"waste_basket"}},"type":"Feature"},
	{"geometry":{"coordinates":[6.776573,50.655169],"type":"Point"},"properties":{"osm_id":"4621207490","tag":{"amenity":"waste_basket"}},"type":"Feature"},
	{"geometry":{"coordinates":[6.77688,50.655141],"type":"Point"},"properties":{"osm_id":"4621207491","tag":{"amenity":"waste_basket"}},"type":"Feature"},
	{"geometry":{"coordinates":[6.774469,50.653893],"type":"Point"},"properties":{"osm_id":"4621207590","tag":{"amenity":"waste_basket"}},"type":"Feature"},
	{"geometry":{"coordinates":[6.770846,50.656214],"type":"Point"},"properties":{"osm_id":"4621215989","tag":{"amenity":"recycling","recycling:glass_bottles":"yes","recycling_type":"container"}},"type":"Feature"},
	{"geometry":{"coordinates":[6.774943,50.654926],"type":"Point"},"properties":{"osm_id":"4621413089","tag":{"amenity":"waste_basket"}},"type":"Feature"},
	{"geometry":{"coordinates":[6.787735,50.661442],"type":"Point"},"properties":{"osm_id":"4729146856","tag":{"amenity":"waste_basket"}},"type":"Feature"},
	{"geometry":{"coordinates":[6.78813,50.66205],"type":"Point"},"properties":{"osm_id":"4729146867","tag":{"amenity":"waste_basket"}},"type":"Feature"},
	{"geometry":{"coordinates":[6.787977,50.66049],"type":"Point"},"properties":{"osm_id":"4729199333","tag":{"amenity":"waste_basket"}},"type":"Feature"},
	{"geometry":{"coordinates":[6.787436,50.660851],"type":"Point"},"properties":{"osm_id":"4729199349","tag":{"amenity":"waste_basket"}},"type":"Feature"},
	{"geometry":{"coordinates":[6.787637,50.660057],"type":"Point"},"properties":{"osm_id":"4729235619","tag":{"amenity":"waste_basket"}},"type":"Feature"},
	{"geometry":{"coordinates":[6.787849,50.659012],"type":"Point"},"properties":{"osm_id":"4729250040","tag":{"amenity":"waste_basket"}},"type":"Feature"},
	{"geometry":{"coordinates":[6.788938,50.66084],"type":"Point"},"properties":{"osm_id":"4729304524","tag":{"amenity":"waste_basket"}},"type":"Feature"},
	{"geometry":{"coordinates":[6.789328,50.660517],"type":"Point"},"properties":{"osm_id":"4729304526","tag":{"amenity":"waste_basket"}},"type":"Feature"},
	{"geometry":{"coordinates":[6.78999,50.66026],"type":"Point"},"properties":{"osm_id":"4729304528","tag":{"amenity":"waste_basket"}},"type":"Feature"},
	{"geometry":{"coordinates":[6.79036,50.660103],"type":"Point"},"properties":{"osm_id":"4729304532","tag":{"amenity":"waste_basket"}},"type":"Feature"},
	{"geometry":{"coordinates":[6.815991,50.629837],"type":"Point"},"properties":{"osm_id":"4907600642","tag":{"amenity":"waste_basket"}},"type":"Feature"},
	{"geometry":{"coordinates":[6.771799,50.655305],"type":"Point"},"properties":{"osm_id":"4919036169","tag":{"amenity":"recycling","recycling:glass_bottles":"yes","recycling_type":"container"}},"type":"Feature"},
	{"geometry":{"coordinates":[6.783329,50.660164],"type":"Point"},"properties":{"osm_id":"4942390154","tag":{"amenity":"waste_basket"}},"type":"Feature"},
	{"geometry":{"coordinates":[6.822973,50.675207],"type":"Point"},"properties":{"osm_id":"4949341670","tag":{"amenity":"waste_basket","colour":"#8a3f48","material":"metal"}},"type":"Feature"},
	{"geometry":{"coordinates":[6.822907,50.675324],"type":"Point"},"properties":{"osm_id":"4949341671","tag":{"amenity":"waste_basket","colour":"#8a3f48","material":"metal"}},"type":"Feature"},
	{"geometry":{"coordinates":[6.822927,50.675093],"type":"Point"},"properties":{"osm_id":"4949341703","tag":{"amenity":"waste_basket","colour":"#8a3f48","material":"metal"}},"type":"Feature"},
	{"geometry":{"coordinates":[6.806483,50.65518],"type":"Point"},"properties":{"name":"Sammelstelle Stadtbetrieb Technische Dienste","osm_id":"4977884118","tag":{"access":"customers","addr:city":"Euskirchen","addr:country":"DE","addr:housenumber":"17","addr:postcode":"53879","addr:street":"Von-Siemens-Stra\u00c3\u009fe","amenity":"recycling","contact:website":"https://www.euskirchen.de/service/abfallinformationen/sammelstellen-containerplatz-und-stadtbetrieb-technische-dienste/","opening_hours":"Mo-Th 08:00-16:00; Fr 08:00-12:00","operator":"Stadtbetrieb Technische Dienste Euskirchen","recycling:batteries":"yes","recycling:car_batteries":"no","recycling:cds":"yes","recycling:cork":"yes","recycling:electrical_appliances":"yes","recycling:electrical_items":"yes","recycling:low_energy_bulbs":"yes","recycling_type":"centre"}},"type":"Feature"},
	{"geometry":{"coordinates":[6.806306,50.655096],"type":"Point"},"properties":{"name":"Sammelstelle Containerplatz","osm_id":"4977884922","tag":{"access":"customers","addr:city":"Euskirchen","addr:country":"DE","addr:housenumber":"17","addr:postcode":"53879","addr:street":"Von-Siemens-Stra\u00c3\u009fe","amenity":"recycling","contact:website":"https://www.euskirchen.de/service/abfallinformationen/sammelstellen-containerplatz-und-stadtbetrieb-technische-dienste/","opening_hours":"Mo-Th 08:00-16:00; Fr 08:00-15:00; Sa 07:00-15:00","operator":"Stadtbetrieb Technische Dienste Euskirchen","recycling:glass_bottles":"yes","recycling:paper":"yes","recycling_type":"container"}},"type":"Feature"},
	{"geometry":{"coordinates":[6.804447,50.662883],"type":"Point"},"properties":{"osm_id":"4983047764","tag":{"amenity":"waste_basket"}},"type":"Feature"},
	{"geometry":{"coordinates":[6.80433,50.662955],"type":"Point"},"properties":{"osm_id":"4983047765","tag":{"amenity":"waste_basket"}},"type":"Feature"},
	{"geometry":{"coordinates":[6.801829,50.665226],"type":"Point"},"properties":{"osm_id":"4983047766","tag":{"amenity":"waste_basket"}},"type":"Feature"},
	{"geometry":{"coordinates":[6.800922,50.665788],"type":"Point"},"properties":{"osm_id":"4983047767","tag":{"amenity":"waste_basket"}},"type":"Feature"},
	{"geometry":{"coordinates":[6.797965,50.667875],"type":"Point"},"properties":{"osm_id":"4983047786","tag":{"amenity":"waste_basket"}},"type":"Feature"},
	{"geometry":{"coordinates":[6.797039,50.668755],"type":"Point"},"properties":{"osm_id":"4983047787","tag":{"amenity":"waste_basket"}},"type":"Feature"},
	{"geometry":{"coordinates":[6.796246,50.669448],"type":"Point"},"properties":{"osm_id":"4983047792","tag":{"amenity":"waste_basket"}},"type":"Feature"},
	{"geometry":{"coordinates":[6.804372,50.667962],"type":"Point"},"properties":{"osm_id":"4983178040","tag":{"amenity":"waste_basket"}},"type":"Feature"},
	{"geometry":{"coordinates":[6.804302,50.668204],"type":"Point"},"properties":{"osm_id":"4983178044","tag":{"amenity":"waste_basket"}},"type":"Feature"},
	{"geometry":{"coordinates":[6.805159,50.669058],"type":"Point"},"properties":{"osm_id":"4983178045","tag":{"amenity":"waste_basket"}},"type":"Feature"},
	{"geometry":{"coordinates":[6.805079,50.668748],"type":"Point"},"properties":{"osm_id":"4983178050","tag":{"amenity":"waste_basket"}},"type":"Feature"},
	{"geometry":{"coordinates":[6.804919,50.668462],"type":"Point"},"properties":{"osm_id":"4983178051","tag":{"amenity":"waste_basket"}},"type":"Feature"},
	{"geometry":{"coordinates":[6.804461,50.668896],"type":"Point"},"properties":{"osm_id":"4983178052","tag":{"amenity":"waste_basket"}},"type":"Feature"},
	{"geometry":{"coordinates":[6.80439,50.668601],"type":"Point"},"properties":{"osm_id":"4983178053","tag":{"amenity":"waste_basket"}},"type":"Feature"},
	{"geometry":{"coordinates":[6.8301,50.675796],"type":"Point"},"properties":{"osm_id":"5005214779","tag":{"amenity":"waste_basket","colour":"orange","material":"metal"}},"type":"Feature"},
	{"geometry":{"coordinates":[6.829601,50.675851],"type":"Point"},"properties":{"osm_id":"5005214783","tag":{"amenity":"waste_basket","colour":"orange","material":"metal"}},"type":"Feature"},
	{"geometry":{"coordinates":[6.830849,50.655442],"type":"Point"},"properties":{"osm_id":"5009489176","tag":{"amenity":"recycling","description":"1 gelber Altkleidercontainer","recycling:clothes":"yes","recycling_type":"container"}},"type":"Feature"},
	{"geometry":{"coordinates":[6.838596,50.660618],"type":"Point"},"properties":{"osm_id":"5046263136","tag":{"amenity":"waste_basket"}},"type":"Feature"},
	{"geometry":{"coordinates":[6.802331,50.66383],"type":"Point"},"properties":{"osm_id":"5052071180","tag":{"amenity":"waste_basket","mapillary":"i7-kOiBkQhJ-Sr8Iw3vB3Q"}},"type":"Feature"},
	{"geometry":{"coordinates":[6.792029,50.657738],"type":"Point"},"properties":{"osm_id":"5055212037","tag":{"amenity":"waste_basket","level":"1","mapillary":"xHyl3VkSt3cj-HGRvje3lg"}},"type":"Feature"},
	{"geometry":{"coordinates":[6.792487,50.657857],"type":"Point"},"properties":{"osm_id":"5055212038","tag":{"amenity":"waste_basket","level":"1","mapillary":"I98g0Pq78q0VreatbKhXtw"}},"type":"Feature"},
	{"geometry":{"coordinates":[6.792748,50.657919],"type":"Point"},"properties":{"osm_id":"5055212047","tag":{"amenity":"waste_basket","level":"1","mapillary":"SM3OF265HK9saaxMTQpIiA"}},"type":"Feature"},
	{"geometry":{"coordinates":[6.7928,50.657788],"type":"Point"},"properties":{"osm_id":"5056822853","tag":{"amenity":"waste_basket","level":"1","mapillary":"Wh6reio1Wr6JJMaw7EzDvQ"}},"type":"Feature"},
	{"geometry":{"coordinates":[6.812855,50.631489],"type":"Point"},"properties":{"osm_id":"5200324239","tag":{"amenity":"recycling","description":"Kleider- und Schuhsammlung","recycling:clothes":"yes","recycling_type":"container"}},"type":"Feature"},
	{"geometry":{"coordinates":[6.827231,50.649983],"type":"Point"},"properties":{"osm_id":"5201882476","tag":{"amenity":"waste_basket"}},"type":"Feature"},
	{"geometry":{"coordinates":[6.82738,50.650045],"type":"Point"},"properties":{"osm_id":"5201882477","tag":{"amenity":"waste_basket"}},"type":"Feature"},
	{"geometry":{"coordinates":[6.804302,50.649134],"type":"Point"},"properties":{"osm_id":"5273629513","tag":{"amenity":"recycling","recycling:clothes":"yes","recycling:shoes":"yes","recycling_type":"container"}},"type":"Feature"},
	{"geometry":{"coordinates":[6.804289,50.649139],"type":"Point"},"properties":{"osm_id":"5273629514","tag":{"amenity":"recycling","recycling:clothes":"yes","recycling:shoes":"yes","recycling_type":"container"}},"type":"Feature"},
	{"geometry":{"coordinates":[6.793381,50.658311],"type":"Point"},"properties":{"osm_id":"5290050031","tag":{"amenity":"recycling","recycling:clothes":"yes","recycling:shoes":"yes","recycling_type":"container"}},"type":"Feature"},
	{"geometry":{"coordinates":[6.79356,50.658647],"type":"Point"},"properties":{"osm_id":"5290087939","tag":{"amenity":"waste_basket","colour":"red","material":"metal"}},"type":"Feature"},
	{"geometry":{"coordinates":[6.792262,50.658303],"type":"Point"},"properties":{"osm_id":"5300672509","tag":{"amenity":"waste_basket"}},"type":"Feature"},
	{"geometry":{"coordinates":[6.792612,50.658312],"type":"Point"},"properties":{"osm_id":"5300672512","tag":{"amenity":"waste_basket"}},"type":"Feature"},
	{"geometry":{"coordinates":[6.791722,50.658008],"type":"Point"},"properties":{"osm_id":"5323534609","tag":{"amenity":"waste_basket"}},"type":"Feature"},
	{"geometry":{"coordinates":[6.789633,50.65865],"type":"Point"},"properties":{"osm_id":"5323641985","tag":{"amenity":"waste_basket"}},"type":"Feature"},
	{"geometry":{"coordinates":[6.813219,50.656947],"type":"Point"},"properties":{"osm_id":"5327773998","tag":{"amenity":"waste_basket"}},"type":"Feature"},
	{"geometry":{"coordinates":[6.791432,50.658976],"type":"Point"},"properties":{"osm_id":"5361778320","tag":{"amenity":"waste_basket","colour":"gray","material":"metal"}},"type":"Feature"},
	{"geometry":{"coordinates":[6.790918,50.659625],"type":"Point"},"properties":{"osm_id":"5361779022","tag":{"amenity":"waste_basket","colour":"gray","material":"metal"}},"type":"Feature"},
	{"geometry":{"coordinates":[6.791292,50.659208],"type":"Point"},"properties":{"osm_id":"5361779039","tag":{"amenity":"waste_basket","colour":"gray","material":"metal"}},"type":"Feature"},
	{"geometry":{"coordinates":[6.791698,50.658545],"type":"Point"},"properties":{"osm_id":"5361779069","tag":{"amenity":"waste_basket","colour":"gray","material":"metal"}},"type":"Feature"},
	{"geometry":{"coordinates":[6.80097,50.663002],"type":"Point"},"properties":{"osm_id":"5386517013","tag":{"amenity":"waste_basket","colour":"gray","material":"metal"}},"type":"Feature"},
	{"geometry":{"coordinates":[6.798301,50.663426],"type":"Point"},"properties":{"osm_id":"5386517014","tag":{"amenity":"waste_basket","colour":"gray","material":"metal"}},"type":"Feature"},
	{"geometry":{"coordinates":[6.798766,50.663928],"type":"Point"},"properties":{"osm_id":"5386517015","tag":{"amenity":"waste_basket","colour":"gray","material":"metal"}},"type":"Feature"},
	{"geometry":{"coordinates":[6.799234,50.663919],"type":"Point"},"properties":{"osm_id":"5386517016","tag":{"amenity":"waste_basket","colour":"gray","material":"metal"}},"type":"Feature"},
	{"geometry":{"coordinates":[6.799458,50.663861],"type":"Point"},"properties":{"osm_id":"5386517017","tag":{"amenity":"waste_basket","colour":"gray","material":"metal"}},"type":"Feature"},
	{"geometry":{"coordinates":[6.799657,50.663809],"type":"Point"},"properties":{"osm_id":"5386517018","tag":{"amenity":"waste_basket","colour":"gray","material":"metal"}},"type":"Feature"},
	{"geometry":{"coordinates":[6.799823,50.663773],"type":"Point"},"properties":{"osm_id":"5386517019","tag":{"amenity":"waste_basket","colour":"gray","material":"metal"}},"type":"Feature"},
	{"geometry":{"coordinates":[6.799962,50.663729],"type":"Point"},"properties":{"osm_id":"5386517020","tag":{"amenity":"waste_basket","colour":"gray","material":"metal"}},"type":"Feature"},
	{"geometry":{"coordinates":[6.800141,50.663684],"type":"Point"},"properties":{"osm_id":"5386519121","tag":{"amenity":"waste_basket","colour":"gray","material":"metal"}},"type":"Feature"},
	{"geometry":{"coordinates":[6.80028,50.663648],"type":"Point"},"properties":{"osm_id":"5386519122","tag":{"amenity":"waste_basket","colour":"gray","material":"metal"}},"type":"Feature"},
	{"geometry":{"coordinates":[6.768373,50.637999],"type":"Point"},"properties":{"osm_id":"5403468080","tag":{"amenity":"recycling","recycling:glass_bottles":"yes","recycling_type":"container"}},"type":"Feature"},
	{"geometry":{"coordinates":[6.799597,50.662527],"type":"Point"},"properties":{"osm_id":"5405258671","tag":{"amenity":"waste_basket"}},"type":"Feature"},
	{"geometry":{"coordinates":[6.785028,50.650863],"type":"Point"},"properties":{"osm_id":"5420327102","tag":{"amenity":"recycling","colour":"red","operator":"Deutsches Rotes Kreuz Kreisverband Euskirchen e.V.","recycling:clothes":"yes","recycling_type":"container"}},"type":"Feature"},
	{"geometry":{"coordinates":[6.783793,50.659996],"type":"Point"},"properties":{"osm_id":"5443553002","tag":{"amenity":"waste_basket"}},"type":"Feature"},
	{"geometry":{"coordinates":[6.811473,50.631988],"type":"Point"},"properties":{"osm_id":"5484476921","tag":{"amenity":"waste_basket"}},"type":"Feature"},
	{"geometry":{"coordinates":[6.836194,50.649115],"type":"Point"},"properties":{"osm_id":"5516281911","tag":{"amenity":"recycling","recycling:clothes":"yes","recycling_type":"container"}},"type":"Feature"},
	{"geometry":{"coordinates":[6.823241,50.648114],"type":"Point"},"properties":{"osm_id":"5562612515","tag":{"amenity":"waste_basket"}},"type":"Feature"},
	{"geometry":{"coordinates":[6.846528,50.65802],"type":"Point"},"properties":{"osm_id":"5569375988","tag":{"amenity":"waste_basket","material":"metal"}},"type":"Feature"},
	{"geometry":{"coordinates":[6.794633,50.660223],"type":"Point"},"properties":{"osm_id":"5569443694","tag":{"amenity":"waste_basket","colour":"gray","material":"metal"}},"type":"Feature"},
	{"geometry":{"coordinates":[6.801884,50.664119],"type":"Point"},"properties":{"osm_id":"5580871778","tag":{"amenity":"waste_basket","material":"metal"}},"type":"Feature"},
	{"geometry":{"coordinates":[6.802541,50.664031],"type":"Point"},"properties":{"osm_id":"5585908505","tag":{"amenity":"waste_basket"}},"type":"Feature"},
	{"geometry":{"coordinates":[6.803047,50.664468],"type":"Point"},"properties":{"osm_id":"5585910249","tag":{"amenity":"waste_basket"}},"type":"Feature"},
	{"geometry":{"coordinates":[6.837383,50.647263],"type":"Point"},"properties":{"osm_id":"5602588295","tag":{"amenity":"recycling","description":"Wei\u00c3\u009f-, Braun- und Gr\u00c3\u00bcnglas","recycling:glass_bottles":"yes","recycling_type":"container"}},"type":"Feature"},
	{"geometry":{"coordinates":[6.802416,50.663992],"type":"Point"},"properties":{"osm_id":"5607521819","tag":{"amenity":"waste_basket"}},"type":"Feature"},
	{"geometry":{"coordinates":[6.813429,50.627172],"type":"Point"},"properties":{"osm_id":"5611687174","tag":{"amenity":"waste_basket"}},"type":"Feature"},
	{"geometry":{"coordinates":[6.835969,50.6461],"type":"Point"},"properties":{"osm_id":"5611955514","tag":{"amenity":"waste_basket"}},"type":"Feature"},
	{"geometry":{"coordinates":[6.829565,50.646119],"type":"Point"},"properties":{"osm_id":"5613511932","tag":{"amenity":"waste_basket"}},"type":"Feature"},
	{"geometry":{"coordinates":[6.773938,50.657701],"type":"Point"},"properties":{"osm_id":"5628568808","tag":{"amenity":"recycling","colour":"blue","recycling:clothes":"yes","recycling_type":"container"}},"type":"Feature"},
	{"geometry":{"coordinates":[6.804535,50.626046],"type":"Point"},"properties":{"osm_id":"5630670083","tag":{"amenity":"waste_basket"}},"type":"Feature"},
	{"geometry":{"coordinates":[6.792225,50.641609],"type":"Point"},"properties":{"osm_id":"5682898861","tag":{"amenity":"waste_basket"}},"type":"Feature"},
	{"geometry":{"coordinates":[6.770525,50.668375],"type":"Point"},"properties":{"osm_id":"5688531235","tag":{"amenity":"waste_basket"}},"type":"Feature"},
	{"geometry":{"coordinates":[6.770582,50.668702],"type":"Point"},"properties":{"osm_id":"5688531240","tag":{"amenity":"waste_basket"}},"type":"Feature"},
	{"geometry":{"coordinates":[6.770751,50.668572],"type":"Point"},"properties":{"osm_id":"5688531241","tag":{"amenity":"waste_basket"}},"type":"Feature"},
	{"geometry":{"coordinates":[6.792233,50.642313],"type":"Point"},"properties":{"osm_id":"5706059821","tag":{"amenity":"waste_basket"}},"type":"Feature"},
	{"geometry":{"coordinates":[6.792371,50.642432],"type":"Point"},"properties":{"osm_id":"5706059822","tag":{"amenity":"waste_basket","colour":"gray","material":"metal"}},"type":"Feature"},
	{"geometry":{"coordinates":[6.809002,50.644606],"type":"Point"},"properties":{"osm_id":"5715646425","tag":{"amenity":"waste_basket","colour":"gray","material":"metal"}},"type":"Feature"},
	{"geometry":{"coordinates":[6.805698,50.661598],"type":"Point"},"properties":{"osm_id":"5715646426","tag":{"amenity":"waste_basket"}},"type":"Feature"},
	{"geometry":{"coordinates":[6.803631,50.652636],"type":"Point"},"properties":{"osm_id":"5715695662","tag":{"amenity":"waste_basket","colour":"orange","material":"plastic"}},"type":"Feature"},
	{"geometry":{"coordinates":[6.803452,50.652313],"type":"Point"},"properties":{"osm_id":"5715695669","tag":{"amenity":"waste_basket","colour":"orange","material":"plastic"}},"type":"Feature"},
	{"geometry":{"coordinates":[6.802481,50.652076],"type":"Point"},"properties":{"osm_id":"5715695688","tag":{"amenity":"waste_basket","colour":"orange","material":"plastic"}},"type":"Feature"},
	{"geometry":{"coordinates":[6.803294,50.652044],"type":"Point"},"properties":{"osm_id":"5744216531","tag":{"amenity":"waste_basket","colour":"orange","material":"plastic"}},"type":"Feature"},
	{"geometry":{"coordinates":[6.827794,50.651095],"type":"Point"},"properties":{"osm_id":"5851749755","tag":{"amenity":"recycling","description":"Kolping-Altkleidercontainer","recycling:clothes":"yes","recycling_type":"container"}},"type":"Feature"},
	{"geometry":{"coordinates":[6.827462,50.65111],"type":"Point"},"properties":{"osm_id":"5851749756","tag":{"amenity":"waste_basket","colour":"gray","material":"metal"}},"type":"Feature"},
	{"geometry":{"coordinates":[6.796502,50.661415],"type":"Point"},"properties":{"osm_id":"5853631200","tag":{"amenity":"waste_basket","colour":"gray","material":"metal"}},"type":"Feature"},
	{"geometry":{"coordinates":[6.79649,50.661262],"type":"Point"},"properties":{"osm_id":"5853631201","tag":{"amenity":"waste_basket","colour":"gray","material":"metal"}},"type":"Feature"},
	{"geometry":{"coordinates":[6.778084,50.656125],"type":"Point"},"properties":{"osm_id":"5853667931","tag":{"amenity":"waste_basket","colour":"gray","material":"metal"}},"type":"Feature"},
	{"geometry":{"coordinates":[6.795375,50.67683],"type":"Point"},"properties":{"osm_id":"5863443009","tag":{"amenity":"waste_basket","material":"metal"}},"type":"Feature"},
	{"geometry":{"coordinates":[6.824477,50.648953],"type":"Point"},"properties":{"osm_id":"5892883603","tag":{"amenity":"waste_basket","material":"metal"}},"type":"Feature"},
	{"geometry":{"coordinates":[6.823929,50.648554],"type":"Point"},"properties":{"osm_id":"5892883607","tag":{"amenity":"waste_basket"}},"type":"Feature"},
	{"geometry":{"coordinates":[6.824016,50.648704],"type":"Point"},"properties":{"osm_id":"5892883609","tag":{"amenity":"waste_basket"}},"type":"Feature"},
	{"geometry":{"coordinates":[6.846565,50.625113],"type":"Point"},"properties":{"osm_id":"5908354679","tag":{"amenity":"waste_basket","colour":"black","operator":"trinkgut Steilen"}},"type":"Feature"},
	{"geometry":{"coordinates":[6.787288,50.661484],"type":"Point"},"properties":{"osm_id":"5933654622","tag":{"amenity":"waste_basket","colour":"black","material":"metal"}},"type":"Feature"},
	{"geometry":{"coordinates":[6.811874,50.626358],"type":"Point"},"properties":{"osm_id":"5941031559","tag":{"amenity":"waste_basket","colour":"gray","material":"metal"}},"type":"Feature"},
	{"geometry":{"coordinates":[6.780146,50.62805],"type":"Point"},"properties":{"osm_id":"5941107888","tag":{"amenity":"waste_basket","colour":"gray","material":"metal"}},"type":"Feature"},
	{"geometry":{"coordinates":[6.780206,50.628121],"type":"Point"},"properties":{"osm_id":"5941107890","tag":{"amenity":"waste_basket","colour":"gray","material":"metal"}},"type":"Feature"},
	{"geometry":{"coordinates":[6.790607,50.647464],"type":"Point"},"properties":{"osm_id":"5941273212","tag":{"amenity":"waste_basket","colour":"gray","material":"metal"}},"type":"Feature"},
	{"geometry":{"coordinates":[6.797647,50.646403],"type":"Point"},"properties":{"osm_id":"5941273230","tag":{"amenity":"recycling","colour":"gray","description":"2 Altkleider + Schuhe-Container aus grauem Metall","material":"metal","recycling:clothes":"yes","recycling:shoes":"yes","recycling_type":"container"}},"type":"Feature"},
	{"geometry":{"coordinates":[6.790716,50.646536],"type":"Point"},"properties":{"osm_id":"5941273248","tag":{"amenity":"waste_basket","colour":"yellow","material":"metal"}},"type":"Feature"},
	{"geometry":{"coordinates":[6.809269,50.676503],"type":"Point"},"properties":{"osm_id":"5970064486","tag":{"amenity":"waste_basket"}},"type":"Feature"},
	{"geometry":{"coordinates":[6.788119,50.660203],"type":"Point"},"properties":{"osm_id":"5983805850","tag":{"amenity":"waste_basket"}},"type":"Feature"},
	{"geometry":{"coordinates":[6.790963,50.660338],"type":"Point"},"properties":{"osm_id":"5995392031","tag":{"amenity":"waste_basket","colour":"black","material":"metal"}},"type":"Feature"},
	{"geometry":{"coordinates":[6.831837,50.646856],"type":"Point"},"properties":{"osm_id":"6000854758","tag":{"amenity":"waste_basket","colour":"gray","material":"metal"}},"type":"Feature"},
	{"geometry":{"coordinates":[6.790648,50.659756],"type":"Point"},"properties":{"osm_id":"6012559069","tag":{"amenity":"waste_basket","colour":"black","material":"metal"}},"type":"Feature"},
	{"geometry":{"coordinates":[6.792005,50.657189],"type":"Point"},"properties":{"osm_id":"6015657999","tag":{"amenity":"waste_basket"}},"type":"Feature"},
	{"geometry":{"coordinates":[6.806415,50.642625],"type":"Point"},"properties":{"osm_id":"6051224682","tag":{"amenity":"waste_basket"}},"type":"Feature"},
	{"geometry":{"coordinates":[6.805006,50.641973],"type":"Point"},"properties":{"osm_id":"6051224683","tag":{"amenity":"waste_basket"}},"type":"Feature"},
	{"geometry":{"coordinates":[6.806411,50.641953],"type":"Point"},"properties":{"osm_id":"6051225887","tag":{"amenity":"waste_basket"}},"type":"Feature"},
	{"geometry":{"coordinates":[6.805747,50.64196],"type":"Point"},"properties":{"osm_id":"6051225888","tag":{"amenity":"waste_basket"}},"type":"Feature"},
	{"geometry":{"coordinates":[6.806105,50.64263],"type":"Point"},"properties":{"osm_id":"6051225895","tag":{"amenity":"waste_basket"}},"type":"Feature"},
	{"geometry":{"coordinates":[6.805507,50.642639],"type":"Point"},"properties":{"osm_id":"6051225896","tag":{"amenity":"waste_basket"}},"type":"Feature"},
	{"geometry":{"coordinates":[6.80474,50.630754],"type":"Point"},"properties":{"osm_id":"6051225897","tag":{"amenity":"waste_basket"}},"type":"Feature"},
	{"geometry":{"coordinates":[6.804728,50.630274],"type":"Point"},"properties":{"osm_id":"6051225898","tag":{"amenity":"waste_basket"}},"type":"Feature"},
	{"geometry":{"coordinates":[6.803546,50.630799],"type":"Point"},"properties":{"osm_id":"6051225899","tag":{"amenity":"waste_basket"}},"type":"Feature"},
	{"geometry":{"coordinates":[6.803535,50.630284],"type":"Point"},"properties":{"osm_id":"6051225900","tag":{"amenity":"waste_basket"}},"type":"Feature"},
	{"geometry":{"coordinates":[6.829459,50.648872],"type":"Point"},"properties":{"osm_id":"6090444332","tag":{"amenity":"recycling","colour":"red","operator":"Deutsches Rotes Kreuz Kreisverband Euskirchen e.V.","recycling:clothes":"yes","recycling_type":"container"}},"type":"Feature"},
	{"geometry":{"coordinates":[6.808283,50.651148],"type":"Point"},"properties":{"osm_id":"6090444333","tag":{"amenity":"recycling","colour":"red","operator":"Deutsches Rotes Kreuz Kreisverband Euskirchen e.V.","recycling:clothes":"yes","recycling_type":"container"}},"type":"Feature"},
	{"geometry":{"coordinates":[6.806307,50.642702],"type":"Point"},"properties":{"osm_id":"6090652987","tag":{"amenity":"waste_basket","colour":"yellow","material":"metal"}},"type":"Feature"},
	{"geometry":{"coordinates":[6.779389,50.653281],"type":"Point"},"properties":{"osm_id":"6116683030","tag":{"amenity":"waste_basket"}},"type":"Feature"},
	{"geometry":{"coordinates":[6.803447,50.64629],"type":"Point"},"properties":{"osm_id":"6146206678","tag":{"amenity":"waste_basket","colour":"gray","material":"metal"}},"type":"Feature"},
	{"geometry":{"coordinates":[6.803903,50.646691],"type":"Point"},"properties":{"osm_id":"6146208396","tag":{"amenity":"waste_basket","colour":"gray","material":"metal"}},"type":"Feature"},
	{"geometry":{"coordinates":[6.803175,50.646707],"type":"Point"},"properties":{"osm_id":"6146208397","tag":{"amenity":"waste_basket","colour":"gray","material":"metal"}},"type":"Feature"},
	{"geometry":{"coordinates":[6.802789,50.646434],"type":"Point"},"properties":{"osm_id":"6146208408","tag":{"amenity":"waste_basket","colour":"gray","material":"metal"}},"type":"Feature"},
	{"geometry":{"coordinates":[6.84967,50.625774],"type":"Point"},"properties":{"osm_id":"6171121552","tag":{"amenity":"waste_basket"}},"type":"Feature"},
	{"geometry":{"coordinates":[6.804215,50.666825],"type":"Point"},"properties":{"osm_id":"6284527250","tag":{"amenity":"waste_basket"}},"type":"Feature"},
	{"geometry":{"coordinates":[6.803925,50.667051],"type":"Point"},"properties":{"osm_id":"6284527251","tag":{"amenity":"waste_basket"}},"type":"Feature"},
	{"geometry":{"coordinates":[6.804068,50.666945],"type":"Point"},"properties":{"osm_id":"6284527252","tag":{"amenity":"waste_basket"}},"type":"Feature"},
	{"geometry":{"coordinates":[6.793153,50.673921],"type":"Point"},"properties":{"osm_id":"6284561994","tag":{"amenity":"recycling","recycling:clothes":"yes","recycling_type":"container"}},"type":"Feature"},
	{"geometry":{"coordinates":[6.793254,50.638321],"type":"Point"},"properties":{"osm_id":"6299269942","tag":{"amenity":"waste_basket","material":"metal"}},"type":"Feature"},
	{"geometry":{"coordinates":[6.793235,50.638194],"type":"Point"},"properties":{"osm_id":"6299269943","tag":{"amenity":"waste_basket","material":"metal"}},"type":"Feature"},
	{"geometry":{"coordinates":[6.78048,50.647887],"type":"Point"},"properties":{"osm_id":"6299365935","tag":{"amenity":"waste_basket"}},"type":"Feature"},
	{"geometry":{"coordinates":[6.780191,50.647792],"type":"Point"},"properties":{"osm_id":"6299365936","tag":{"amenity":"waste_basket"}},"type":"Feature"},
	{"geometry":{"coordinates":[6.779908,50.648105],"type":"Point"},"properties":{"osm_id":"6299365951","tag":{"amenity":"waste_basket"}},"type":"Feature"},
	{"geometry":{"coordinates":[6.792774,50.665846],"type":"Point"},"properties":{"osm_id":"6299448914","tag":{"amenity":"waste_basket","material":"metal"}},"type":"Feature"},
	{"geometry":{"coordinates":[6.792501,50.665454],"type":"Point"},"properties":{"osm_id":"6299448916","tag":{"amenity":"waste_basket"}},"type":"Feature"},
	{"geometry":{"coordinates":[6.792428,50.665092],"type":"Point"},"properties":{"osm_id":"6299448917","tag":{"amenity":"waste_basket"}},"type":"Feature"},
	{"geometry":{"coordinates":[6.792567,50.663531],"type":"Point"},"properties":{"osm_id":"6299448919","tag":{"amenity":"waste_basket"}},"type":"Feature"},
	{"geometry":{"coordinates":[6.806673,50.642824],"type":"Point"},"properties":{"osm_id":"6314762044","tag":{"amenity":"waste_basket"}},"type":"Feature"},
	{"geometry":{"coordinates":[6.823657,50.648361],"type":"Point"},"properties":{"osm_id":"6336087989","tag":{"amenity":"waste_basket"}},"type":"Feature"},
	{"geometry":{"coordinates":[6.824931,50.648388],"type":"Point"},"properties":{"osm_id":"6336158237","tag":{"amenity":"waste_basket","colour":"gray","material":"metal"}},"type":"Feature"},
	{"geometry":{"coordinates":[6.824718,50.64839],"type":"Point"},"properties":{"osm_id":"6336158259","tag":{"amenity":"waste_basket","colour":"gray","material":"metal"}},"type":"Feature"},
	{"geometry":{"coordinates":[6.787711,50.654298],"type":"Point"},"properties":{"osm_id":"6413912087","tag":{"amenity":"waste_basket"}},"type":"Feature"},
	{"geometry":{"coordinates":[6.787648,50.654283],"type":"Point"},"properties":{"osm_id":"6413912088","tag":{"amenity":"waste_basket"}},"type":"Feature"},
	{"geometry":{"coordinates":[6.78759,50.654273],"type":"Point"},"properties":{"osm_id":"6413912089","tag":{"amenity":"waste_basket"}},"type":"Feature"},
	{"geometry":{"coordinates":[6.787252,50.654141],"type":"Point"},"properties":{"osm_id":"6413912093","tag":{"amenity":"recycling","recycling:clothes":"yes","recycling_type":"container"}},"type":"Feature"},
	{"geometry":{"coordinates":[6.796781,50.668254],"type":"Point"},"properties":{"osm_id":"6560457922","tag":{"amenity":"waste_basket","colour":"yellow","material":"metal"}},"type":"Feature"},
	{"geometry":{"coordinates":[6.796498,50.668408],"type":"Point"},"properties":{"osm_id":"6560457931","tag":{"amenity":"waste_basket","material":"metal"}},"type":"Feature"},
	{"geometry":{"coordinates":[6.796177,50.668204],"type":"Point"},"properties":{"osm_id":"6560457932","tag":{"amenity":"waste_basket","material":"metal"}},"type":"Feature"},
	{"geometry":{"coordinates":[6.796231,50.668073],"type":"Point"},"properties":{"osm_id":"6560457934","tag":{"amenity":"waste_basket","material":"metal"}},"type":"Feature"},
	{"geometry":{"coordinates":[6.795652,50.66792],"type":"Point"},"properties":{"osm_id":"6560457951","tag":{"amenity":"waste_basket","material":"metal"}},"type":"Feature"},
	{"geometry":{"coordinates":[6.793544,50.666293],"type":"Point"},"properties":{"osm_id":"6560457972","tag":{"amenity":"waste_basket","material":"metal"}},"type":"Feature"},
	{"geometry":{"coordinates":[6.793566,50.666984],"type":"Point"},"properties":{"osm_id":"6560458053","tag":{"amenity":"waste_basket","material":"metal"}},"type":"Feature"},
	{"geometry":{"coordinates":[6.794173,50.667171],"type":"Point"},"properties":{"osm_id":"6560458055","tag":{"amenity":"waste_basket","material":"metal"}},"type":"Feature"},
	{"geometry":{"coordinates":[6.7948,50.667424],"type":"Point"},"properties":{"osm_id":"6560458058","tag":{"amenity":"waste_basket","material":"metal"}},"type":"Feature"},
	{"geometry":{"coordinates":[6.795983,50.668636],"type":"Point"},"properties":{"osm_id":"6560458070","tag":{"amenity":"waste_basket","colour":"yellow","material":"metal"}},"type":"Feature"},
	{"geometry":{"coordinates":[6.796472,50.66877],"type":"Point"},"properties":{"osm_id":"6560458164","tag":{"amenity":"waste_basket","material":"metal"}},"type":"Feature"},
	{"geometry":{"coordinates":[6.80333,50.652559],"type":"Point"},"properties":{"osm_id":"6592916133","tag":{"amenity":"waste_basket"}},"type":"Feature"},
	{"geometry":{"coordinates":[6.803305,50.652565],"type":"Point"},"properties":{"osm_id":"6592916134","tag":{"amenity":"waste_basket"}},"type":"Feature"},
	{"geometry":{"coordinates":[6.805853,50.668067],"type":"Point"},"properties":{"osm_id":"6611844252","tag":{"amenity":"recycling","recycling:clothes":"yes","recycling_type":"container"}},"type":"Feature"},
	{"geometry":{"coordinates":[6.792211,50.651052],"type":"Point"},"properties":{"osm_id":"6611844260","tag":{"amenity":"recycling","recycling:clothes":"yes","recycling_type":"container"}},"type":"Feature"},
	{"geometry":{"coordinates":[6.839959,50.661697],"type":"Point"},"properties":{"osm_id":"6624716655","tag":{"amenity":"waste_basket","colour":"orange","material":"metal"}},"type":"Feature"},
	{"geometry":{"coordinates":[6.84001,50.661919],"type":"Point"},"properties":{"osm_id":"6624716660","tag":{"amenity":"waste_basket","colour":"orange","material":"metal"}},"type":"Feature"},
	{"geometry":{"coordinates":[6.791984,50.660706],"type":"Point"},"properties":{"osm_id":"6820556853","tag":{"amenity":"waste_basket","waste":"trash"}},"type":"Feature"},
	{"geometry":{"coordinates":[6.792532,50.661102],"type":"Point"},"properties":{"osm_id":"6820556854","tag":{"amenity":"waste_basket","waste":"trash"}},"type":"Feature"},
	{"geometry":{"coordinates":[6.792991,50.661466],"type":"Point"},"properties":{"osm_id":"6820556855","tag":{"amenity":"waste_basket","waste":"trash"}},"type":"Feature"},
	{"geometry":{"coordinates":[6.809788,50.649534],"type":"Point"},"properties":{"osm_id":"6832943927","tag":{"amenity":"waste_basket","colour":"gray","material":"metal"}},"type":"Feature"},
	{"geometry":{"coordinates":[6.806999,50.644155],"type":"Point"},"properties":{"osm_id":"6832989250","tag":{"amenity":"waste_basket","colour":"gray","material":"metal"}},"type":"Feature"},
	{"geometry":{"coordinates":[6.807296,50.644083],"type":"Point"},"properties":{"osm_id":"6832989255","tag":{"amenity":"waste_basket","colour":"gray","material":"metal"}},"type":"Feature"},
	{"geometry":{"coordinates":[6.807911,50.645942],"type":"Point"},"properties":{"osm_id":"6832989302","tag":{"amenity":"recycling","recycling:glass_bottles":"yes","recycling_type":"container"}},"type":"Feature"},
	{"geometry":{"coordinates":[6.807916,50.646297],"type":"Point"},"properties":{"osm_id":"6832989306","tag":{"amenity":"waste_basket","material":"metal"}},"type":"Feature"},
	{"geometry":{"coordinates":[6.768393,50.638016],"type":"Point"},"properties":{"osm_id":"6833149161","tag":{"amenity":"recycling","recycling:glass_bottles":"yes","recycling_type":"container"}},"type":"Feature"},
	{"geometry":{"coordinates":[6.769135,50.63909],"type":"Point"},"properties":{"osm_id":"6833149172","tag":{"amenity":"waste_basket","colour":"green","material":"metal"}},"type":"Feature"},
	{"geometry":{"coordinates":[6.829838,50.652945],"type":"Point"},"properties":{"osm_id":"6909837877","tag":{"amenity":"waste_basket","colour":"gray"}},"type":"Feature"},
	{"geometry":{"coordinates":[6.829951,50.653124],"type":"Point"},"properties":{"osm_id":"6909837882","tag":{"amenity":"waste_basket","colour":"gray"}},"type":"Feature"},
	{"geometry":{"coordinates":[6.810881,50.63772],"type":"Point"},"properties":{"osm_id":"6952202635","tag":{"amenity":"waste_basket","colour":"orange","material":"metal"}},"type":"Feature"},
	{"geometry":{"coordinates":[6.817331,50.625624],"type":"Point"},"properties":{"osm_id":"6952202642","tag":{"amenity":"waste_basket"}},"type":"Feature"},
	{"geometry":{"coordinates":[6.817197,50.625734],"type":"Point"},"properties":{"osm_id":"6952202643","tag":{"amenity":"waste_basket"}},"type":"Feature"},
	{"geometry":{"coordinates":[6.807126,50.630934],"type":"Point"},"properties":{"osm_id":"6952202647","tag":{"amenity":"waste_basket","colour":"orange","material":"metal"}},"type":"Feature"},
	{"geometry":{"coordinates":[6.786179,50.660139],"type":"Point"},"properties":{"osm_id":"7149600060","tag":{"amenity":"waste_basket","colour":"gray","material":"metal"}},"type":"Feature"},
	{"geometry":{"coordinates":[6.837426,50.647259],"type":"Point"},"properties":{"osm_id":"7211057363","tag":{"amenity":"recycling","description":"Wei\u00c3\u009f-, Braun- und Gr\u00c3\u00bcnglas","recycling:glass_bottles":"yes","recycling_type":"container"}},"type":"Feature"},
	{"geometry":{"coordinates":[6.837404,50.647261],"type":"Point"},"properties":{"osm_id":"7211057364","tag":{"amenity":"recycling","description":"Wei\u00c3\u009f-, Braun- und Gr\u00c3\u00bcnglas","recycling:glass_bottles":"yes","recycling_type":"container"}},"type":"Feature"},
	{"geometry":{"coordinates":[6.792544,50.652092],"type":"Point"},"properties":{"osm_id":"7222325998","tag":{"amenity":"waste_basket","colour":"orange","material":"plastic"}},"type":"Feature"},
	{"geometry":{"coordinates":[6.788363,50.672096],"type":"Point"},"properties":{"osm_id":"7239208146","tag":{"amenity":"waste_basket"}},"type":"Feature"},
	{"geometry":{"coordinates":[6.793845,50.672092],"type":"Point"},"properties":{"osm_id":"7311759173","tag":{"amenity":"recycling","description":"u.a. Wei\u00c3\u009f- und Gr\u00c3\u00bcnglas","recycling:glass_bottles":"yes","recycling_type":"container"}},"type":"Feature"},
	{"geometry":{"coordinates":[6.846355,50.625082],"type":"Point"},"properties":{"osm_id":"7364468490","tag":{"amenity":"recycling","description":"gelber Container der Kleider- und Schuhsammlung","recycling:clothes":"yes","recycling:shoes":"yes","recycling_type":"container"}},"type":"Feature"},
	{"geometry":{"coordinates":[6.767775,50.668069],"type":"Point"},"properties":{"osm_id":"7369578599","tag":{"amenity":"recycling","description":"AWO-Altkleidercontainer","recycling:clothes":"yes","recycling_type":"container"}},"type":"Feature"},
	{"geometry":{"coordinates":[6.767761,50.668054],"type":"Point"},"properties":{"osm_id":"7369578600","tag":{"amenity":"recycling","recycling:glass_bottles":"yes","recycling_type":"container"}},"type":"Feature"},
	{"geometry":{"coordinates":[6.774643,50.651495],"type":"Point"},"properties":{"osm_id":"7379654430","tag":{"amenity":"recycling","recycling:clothes":"yes","recycling_type":"container"}},"type":"Feature"},
	{"geometry":{"coordinates":[6.774657,50.651487],"type":"Point"},"properties":{"osm_id":"7379654431","tag":{"amenity":"recycling","recycling:glass_bottles":"yes","recycling_type":"container"}},"type":"Feature"},
	{"geometry":{"coordinates":[6.811418,50.631628],"type":"Point"},"properties":{"osm_id":"7381006862","tag":{"amenity":"recycling","recycling:glass_bottles":"yes","recycling_type":"container"}},"type":"Feature"},
	{"geometry":{"coordinates":[6.811419,50.631614],"type":"Point"},"properties":{"osm_id":"7381006863","tag":{"amenity":"recycling","recycling:glass_bottles":"yes","recycling_type":"container"}},"type":"Feature"},
	{"geometry":{"coordinates":[6.811421,50.631601],"type":"Point"},"properties":{"osm_id":"7381006864","tag":{"amenity":"recycling","recycling:glass_bottles":"yes","recycling_type":"container"}},"type":"Feature"},
	{"geometry":{"coordinates":[6.83658,50.646925],"type":"Point"},"properties":{"osm_id":"7389638293","tag":{"amenity":"waste_basket"}},"type":"Feature"},
	{"geometry":{"coordinates":[6.836255,50.646975],"type":"Point"},"properties":{"osm_id":"7389638296","tag":{"amenity":"waste_basket"}},"type":"Feature"},
	{"geometry":{"coordinates":[6.79309,50.661817],"type":"Point"},"properties":{"osm_id":"7394551603","tag":{"amenity":"recycling","recycling:glass_bottles":"yes","recycling_type":"container"}},"type":"Feature"},
	{"geometry":{"coordinates":[6.790886,50.660069],"type":"Point"},"properties":{"osm_id":"7395743114","tag":{"amenity":"waste_basket"}},"type":"Feature"},
	{"geometry":{"coordinates":[6.790927,50.660094],"type":"Point"},"properties":{"osm_id":"7395743115","tag":{"amenity":"waste_basket"}},"type":"Feature"},
	{"geometry":{"coordinates":[6.790424,50.661043],"type":"Point"},"properties":{"osm_id":"7395743116","tag":{"amenity":"recycling","recycling:glass_bottles":"yes","recycling_type":"container"}},"type":"Feature"},
	{"geometry":{"coordinates":[6.778913,50.668285],"type":"Point"},"properties":{"osm_id":"7399358364","tag":{"amenity":"recycling","recycling:glass_bottles":"yes","recycling_type":"container"}},"type":"Feature"},
	{"geometry":{"coordinates":[6.778899,50.668295],"type":"Point"},"properties":{"osm_id":"7399358365","tag":{"amenity":"recycling","recycling:glass_bottles":"yes","recycling_type":"container"}},"type":"Feature"},
	{"geometry":{"coordinates":[6.778886,50.668307],"type":"Point"},"properties":{"osm_id":"7399358366","tag":{"amenity":"recycling","recycling:glass_bottles":"yes","recycling_type":"container"}},"type":"Feature"},
	{"geometry":{"coordinates":[6.778931,50.668268],"type":"Point"},"properties":{"osm_id":"7399358367","tag":{"amenity":"recycling","description":"Altkleidercontainer (AWO)","recycling:clothes":"yes","recycling_type":"container"}},"type":"Feature"},
	{"geometry":{"coordinates":[6.799389,50.664305],"type":"Point"},"properties":{"osm_id":"7402926185","tag":{"amenity":"recycling","recycling:glass_bottles":"yes","recycling_type":"container"}},"type":"Feature"},
	{"geometry":{"coordinates":[6.799402,50.664316],"type":"Point"},"properties":{"osm_id":"7402926186","tag":{"amenity":"recycling","recycling:glass_bottles":"yes","recycling_type":"container"}},"type":"Feature"},
	{"geometry":{"coordinates":[6.799417,50.664326],"type":"Point"},"properties":{"osm_id":"7402926187","tag":{"amenity":"recycling","recycling:glass_bottles":"yes","recycling_type":"container"}},"type":"Feature"},
	{"geometry":{"coordinates":[6.799378,50.664348],"type":"Point"},"properties":{"osm_id":"7402926188","tag":{"amenity":"recycling","recycling:glass_bottles":"yes","recycling_type":"container"}},"type":"Feature"},
	{"geometry":{"coordinates":[6.799364,50.664338],"type":"Point"},"properties":{"osm_id":"7402926189","tag":{"amenity":"recycling","recycling:glass_bottles":"yes","recycling_type":"container"}},"type":"Feature"},
	{"geometry":{"coordinates":[6.79262,50.64383],"type":"Point"},"properties":{"osm_id":"7402984637","tag":{"amenity":"recycling","recycling:clothes":"yes","recycling_type":"container"}},"type":"Feature"},
	{"geometry":{"coordinates":[6.792602,50.643814],"type":"Point"},"properties":{"osm_id":"7402984638","tag":{"amenity":"recycling","recycling:glass_bottles":"yes","recycling_type":"container"}},"type":"Feature"},
	{"geometry":{"coordinates":[6.802452,50.653019],"type":"Point"},"properties":{"osm_id":"7405086947","tag":{"amenity":"recycling","recycling:clothes":"yes","recycling_type":"container"}},"type":"Feature"},
	{"geometry":{"coordinates":[6.802435,50.653023],"type":"Point"},"properties":{"osm_id":"7405086948","tag":{"amenity":"recycling","recycling:clothes":"yes","recycling_type":"container"}},"type":"Feature"},
	{"geometry":{"coordinates":[6.802419,50.653027],"type":"Point"},"properties":{"osm_id":"7405086949","tag":{"amenity":"recycling","recycling:clothes":"yes","recycling_type":"container"}},"type":"Feature"},
	{"geometry":{"coordinates":[6.802603,50.653073],"type":"Point"},"properties":{"osm_id":"7405086950","tag":{"amenity":"recycling","operator":"Remondis","recycling:glass_bottles":"yes","recycling_type":"container"}},"type":"Feature"},
	{"geometry":{"coordinates":[6.802594,50.65306],"type":"Point"},"properties":{"osm_id":"7405086951","tag":{"amenity":"recycling","operator":"Remondis","recycling:glass_bottles":"yes","recycling_type":"container"}},"type":"Feature"},
	{"geometry":{"coordinates":[6.802587,50.653046],"type":"Point"},"properties":{"osm_id":"7405086952","tag":{"amenity":"recycling","operator":"Remondis","recycling:glass_bottles":"yes","recycling_type":"container"}},"type":"Feature"},
	{"geometry":{"coordinates":[6.802578,50.653033],"type":"Point"},"properties":{"osm_id":"7405086953","tag":{"amenity":"recycling","operator":"Remondis","recycling:glass_bottles":"yes","recycling_type":"container"}},"type":"Feature"},
	{"geometry":{"coordinates":[6.802571,50.65302],"type":"Point"},"properties":{"osm_id":"7405086954","tag":{"amenity":"recycling","operator":"Remondis","recycling:glass_bottles":"yes","recycling_type":"container"}},"type":"Feature"},
	{"geometry":{"coordinates":[6.792487,50.656117],"type":"Point"},"properties":{"osm_id":"7405779469","tag":{"amenity":"recycling","recycling:glass_bottles":"yes","recycling_type":"container"}},"type":"Feature"},
	{"geometry":{"coordinates":[6.80386,50.667463],"type":"Point"},"properties":{"osm_id":"7406381807","tag":{"amenity":"waste_basket"}},"type":"Feature"},
	{"geometry":{"coordinates":[6.803742,50.667212],"type":"Point"},"properties":{"osm_id":"7406381808","tag":{"amenity":"waste_basket"}},"type":"Feature"},
	{"geometry":{"coordinates":[6.812718,50.646051],"type":"Point"},"properties":{"osm_id":"7553894430","tag":{"amenity":"recycling","recycling:clothes":"yes","recycling:shoes":"yes","recycling_type":"container"}},"type":"Feature"},
	{"geometry":{"coordinates":[6.812718,50.646062],"type":"Point"},"properties":{"osm_id":"7553894431","tag":{"amenity":"recycling","recycling:clothes":"yes","recycling:shoes":"yes","recycling_type":"container"}},"type":"Feature"},
	{"geometry":{"coordinates":[6.812416,50.635933],"type":"Point"},"properties":{"osm_id":"7554312648","tag":{"amenity":"recycling","recycling:clothes":"yes","recycling:shoes":"yes","recycling_type":"container"}},"type":"Feature"},
	{"geometry":{"coordinates":[6.785125,50.659944],"type":"Point"},"properties":{"osm_id":"7663789648","tag":{"amenity":"waste_basket","colour":"black","material":"metal"}},"type":"Feature"},
	{"geometry":{"coordinates":[6.827963,50.674236],"type":"Point"},"properties":{"osm_id":"7705302507","tag":{"amenity":"waste_basket","start_date":"2020-07-11"}},"type":"Feature"},
	{"geometry":{"coordinates":[6.796932,50.662258],"type":"Point"},"properties":{"osm_id":"7889261578","tag":{"amenity":"waste_basket","colour":"green","material":"metal"}},"type":"Feature"},
	{"geometry":{"coordinates":[6.796939,50.662645],"type":"Point"},"properties":{"osm_id":"7889273290","tag":{"amenity":"waste_basket","colour":"gray","material":"metal"}},"type":"Feature"},
	{"geometry":{"coordinates":[6.796797,50.662469],"type":"Point"},"properties":{"osm_id":"7889273293","tag":{"amenity":"waste_basket","colour":"gray","material":"metal"}},"type":"Feature"},
	{"geometry":{"coordinates":[6.796433,50.663102],"type":"Point"},"properties":{"osm_id":"7889273301","tag":{"amenity":"waste_basket","colour":"gray","material":"metal"}},"type":"Feature"},
	{"geometry":{"coordinates":[6.84169,50.660837],"type":"Point"},"properties":{"osm_id":"7900248132","tag":{"amenity":"waste_basket","colour":"yellow","material":"metal"}},"type":"Feature"},
	{"geometry":{"coordinates":[6.841903,50.660861],"type":"Point"},"properties":{"osm_id":"7900248140","tag":{"amenity":"waste_basket","colour":"yellow","material":"metal"}},"type":"Feature"},
	{"geometry":{"coordinates":[6.842181,50.661072],"type":"Point"},"properties":{"osm_id":"7900248142","tag":{"amenity":"waste_basket","colour":"yellow","material":"metal"}},"type":"Feature"}
]
}
