{
"type": "FeatureCollection",
"features": [
	{"geometry":{"coordinates":[6.853745,50.622707],"type":"Point"},"properties":{"osm_id":"265494717","tag":{"amenity":"recycling","description":"2 Altglascontainer","recycling:glass_bottles":"yes","recycling_type":"container"}},"type":"Feature"},
	{"geometry":{"coordinates":[6.786518,50.597255],"type":"Point"},"properties":{"osm_id":"278788011","tag":{"amenity":"recycling","operator":"Texaid","recycling:clothes":"yes","recycling_type":"container"}},"type":"Feature"},
	{"geometry":{"coordinates":[6.786477,50.597229],"type":"Point"},"properties":{"osm_id":"278788012","tag":{"amenity":"recycling","recycling:glass":"yes","recycling_type":"container"}},"type":"Feature"},
	{"geometry":{"coordinates":[6.771568,50.582519],"type":"Point"},"properties":{"osm_id":"702038426","tag":{"amenity":"recycling","recycling:glass":"yes"}},"type":"Feature"},
	{"geometry":{"coordinates":[6.818837,50.624574],"type":"Point"},"properties":{"osm_id":"1563593732","tag":{"amenity":"recycling","description":"2 Altglascontainer und 1 AWO-Altkleidercontainer","recycling:clothes":"yes","recycling:glass_bottles":"yes","recycling_type":"container"}},"type":"Feature"},
	{"geometry":{"coordinates":[6.832004,50.624239],"type":"Point"},"properties":{"osm_id":"1835702271","tag":{"amenity":"recycling","recycling:glass_bottles":"yes","recycling_type":"container"}},"type":"Feature"},
	{"geometry":{"coordinates":[6.796153,50.613161],"type":"Point"},"properties":{"osm_id":"3050289434","tag":{"amenity":"waste_basket"}},"type":"Feature"},
	{"geometry":{"coordinates":[6.786653,50.597566],"type":"Point"},"properties":{"osm_id":"3096541982","tag":{"amenity":"waste_basket"}},"type":"Feature"},
	{"geometry":{"coordinates":[6.786936,50.597804],"type":"Point"},"properties":{"osm_id":"3096541984","tag":{"amenity":"waste_basket"}},"type":"Feature"},
	{"geometry":{"coordinates":[6.771444,50.586909],"type":"Point"},"properties":{"osm_id":"3108205248","tag":{"amenity":"waste_basket"}},"type":"Feature"},
	{"geometry":{"coordinates":[6.786365,50.597345],"type":"Point"},"properties":{"osm_id":"3108205551","tag":{"amenity":"waste_basket"}},"type":"Feature"},
	{"geometry":{"coordinates":[6.7691,50.582595],"type":"Point"},"properties":{"osm_id":"3111509917","tag":{"amenity":"waste_basket"}},"type":"Feature"},
	{"geometry":{"coordinates":[6.769147,50.582747],"type":"Point"},"properties":{"osm_id":"3111509918","tag":{"amenity":"waste_basket"}},"type":"Feature"},
	{"geometry":{"coordinates":[6.769247,50.583065],"type":"Point"},"properties":{"osm_id":"3111509925","tag":{"amenity":"waste_basket"}},"type":"Feature"},
	{"geometry":{"coordinates":[6.830963,50.588933],"type":"Point"},"properties":{"osm_id":"3489139907","tag":{"amenity":"waste_basket"}},"type":"Feature"},
	{"geometry":{"coordinates":[6.832655,50.589547],"type":"Point"},"properties":{"osm_id":"3489139908","tag":{"amenity":"waste_basket"}},"type":"Feature"},
	{"geometry":{"coordinates":[6.835043,50.590748],"type":"Point"},"properties":{"osm_id":"3489139909","tag":{"amenity":"waste_basket"}},"type":"Feature"},
	{"geometry":{"coordinates":[6.835415,50.591376],"type":"Point"},"properties":{"osm_id":"3489139910","tag":{"amenity":"waste_basket"}},"type":"Feature"},
	{"geometry":{"coordinates":[6.835452,50.591937],"type":"Point"},"properties":{"osm_id":"3489139911","tag":{"amenity":"waste_basket"}},"type":"Feature"},
	{"geometry":{"coordinates":[6.835554,50.592362],"type":"Point"},"properties":{"osm_id":"3489139912","tag":{"amenity":"waste_basket"}},"type":"Feature"},
	{"geometry":{"coordinates":[6.836735,50.593631],"type":"Point"},"properties":{"osm_id":"3489139913","tag":{"amenity":"waste_basket"}},"type":"Feature"},
	{"geometry":{"coordinates":[6.837231,50.594196],"type":"Point"},"properties":{"osm_id":"3489139914","tag":{"amenity":"waste_basket"}},"type":"Feature"},
	{"geometry":{"coordinates":[6.837563,50.594219],"type":"Point"},"properties":{"osm_id":"3489139915","tag":{"amenity":"waste_basket"}},"type":"Feature"},
	{"geometry":{"coordinates":[6.837947,50.594232],"type":"Point"},"properties":{"osm_id":"3489139916","tag":{"amenity":"waste_basket","colour":"green"}},"type":"Feature"},
	{"geometry":{"coordinates":[6.83668,50.604183],"type":"Point"},"properties":{"osm_id":"4120897497","tag":{"amenity":"recycling","description":"3 Altglascontainer","recycling:glass_bottles":"yes","recycling_type":"container"}},"type":"Feature"},
	{"geometry":{"coordinates":[6.792706,50.612805],"type":"Point"},"properties":{"osm_id":"4120897498","tag":{"amenity":"recycling","description":"2 Altglascontainer","recycling:glass_bottles":"yes","recycling_type":"container"}},"type":"Feature"},
	{"geometry":{"coordinates":[6.798856,50.620717],"type":"Point"},"properties":{"osm_id":"4120897499","tag":{"amenity":"recycling","description":"2 Altglascontainer","recycling:glass_bottles":"yes","recycling_type":"container"}},"type":"Feature"},
	{"geometry":{"coordinates":[6.776513,50.574041],"type":"Point"},"properties":{"osm_id":"4343286181","tag":{"amenity":"waste_basket"}},"type":"Feature"},
	{"geometry":{"coordinates":[6.776288,50.574268],"type":"Point"},"properties":{"osm_id":"4343286184","tag":{"amenity":"waste_basket"}},"type":"Feature"},
	{"geometry":{"coordinates":[6.776351,50.574565],"type":"Point"},"properties":{"osm_id":"4343286186","tag":{"amenity":"waste_basket"}},"type":"Feature"},
	{"geometry":{"coordinates":[6.846365,50.625067],"type":"Point"},"properties":{"osm_id":"4997711608","tag":{"amenity":"recycling","description":"gelber Container der Kleider- und Schuhsammlung","recycling:clothes":"yes","recycling:shoes":"yes","recycling_type":"container"}},"type":"Feature"},
	{"geometry":{"coordinates":[6.831534,50.609711],"type":"Point"},"properties":{"osm_id":"5316681909","tag":{"amenity":"recycling","recycling:clothes":"yes","recycling_type":"container"}},"type":"Feature"},
	{"geometry":{"coordinates":[6.82902,50.587054],"type":"Point"},"properties":{"osm_id":"5316683307","tag":{"amenity":"recycling","recycling:glass_bottles":"yes","recycling_type":"container"}},"type":"Feature"},
	{"geometry":{"coordinates":[6.832398,50.622442],"type":"Point"},"properties":{"osm_id":"5609206817","tag":{"amenity":"waste_basket"}},"type":"Feature"},
	{"geometry":{"coordinates":[6.855212,50.624761],"type":"Point"},"properties":{"osm_id":"5611807898","tag":{"amenity":"waste_basket"}},"type":"Feature"},
	{"geometry":{"coordinates":[6.854295,50.624396],"type":"Point"},"properties":{"osm_id":"5611807899","tag":{"amenity":"waste_basket"}},"type":"Feature"},
	{"geometry":{"coordinates":[6.854218,50.624172],"type":"Point"},"properties":{"osm_id":"5611807900","tag":{"amenity":"waste_basket"}},"type":"Feature"},
	{"geometry":{"coordinates":[6.854325,50.624135],"type":"Point"},"properties":{"osm_id":"5611807901","tag":{"amenity":"waste_basket"}},"type":"Feature"},
	{"geometry":{"coordinates":[6.853709,50.62048],"type":"Point"},"properties":{"osm_id":"5611808340","tag":{"amenity":"waste_basket"}},"type":"Feature"},
	{"geometry":{"coordinates":[6.850045,50.622217],"type":"Point"},"properties":{"osm_id":"5611808400","tag":{"amenity":"waste_basket"}},"type":"Feature"},
	{"geometry":{"coordinates":[6.788927,50.614203],"type":"Point"},"properties":{"osm_id":"5630670104","tag":{"amenity":"waste_basket","colour":"orange","material":"metal"}},"type":"Feature"},
	{"geometry":{"coordinates":[6.808721,50.623685],"type":"Point"},"properties":{"osm_id":"5656815767","tag":{"amenity":"waste_basket","colour":"green","material":"metal"}},"type":"Feature"},
	{"geometry":{"coordinates":[6.830536,50.610733],"type":"Point"},"properties":{"osm_id":"5673276813","tag":{"amenity":"waste_basket"}},"type":"Feature"},
	{"geometry":{"coordinates":[6.842358,50.620336],"type":"Point"},"properties":{"osm_id":"5723653392","tag":{"amenity":"waste_basket"}},"type":"Feature"},
	{"geometry":{"coordinates":[6.850611,50.623373],"type":"Point"},"properties":{"osm_id":"5746877934","tag":{"amenity":"waste_basket"}},"type":"Feature"},
	{"geometry":{"coordinates":[6.850539,50.623204],"type":"Point"},"properties":{"osm_id":"5746877936","tag":{"amenity":"waste_basket"}},"type":"Feature"},
	{"geometry":{"coordinates":[6.836178,50.593074],"type":"Point"},"properties":{"osm_id":"5851893846","tag":{"amenity":"waste_basket"}},"type":"Feature"},
	{"geometry":{"coordinates":[6.838158,50.594206],"type":"Point"},"properties":{"osm_id":"5851894343","tag":{"amenity":"waste_basket"}},"type":"Feature"},
	{"geometry":{"coordinates":[6.831075,50.588329],"type":"Point"},"properties":{"osm_id":"5852063923","tag":{"amenity":"waste_basket"}},"type":"Feature"},
	{"geometry":{"coordinates":[6.805525,50.613248],"type":"Point"},"properties":{"osm_id":"5940923186","tag":{"amenity":"waste_basket"}},"type":"Feature"},
	{"geometry":{"coordinates":[6.814023,50.615322],"type":"Point"},"properties":{"osm_id":"5940923208","tag":{"amenity":"waste_basket","colour":"gray","material":"metal"}},"type":"Feature"},
	{"geometry":{"coordinates":[6.83267,50.618586],"type":"Point"},"properties":{"osm_id":"6002735795","tag":{"amenity":"waste_basket"}},"type":"Feature"},
	{"geometry":{"coordinates":[6.836035,50.602755],"type":"Point"},"properties":{"osm_id":"6061421027","tag":{"amenity":"waste_basket"}},"type":"Feature"},
	{"geometry":{"coordinates":[6.836803,50.602894],"type":"Point"},"properties":{"osm_id":"6061421028","tag":{"amenity":"waste_basket"}},"type":"Feature"},
	{"geometry":{"coordinates":[6.844828,50.622402],"type":"Point"},"properties":{"osm_id":"6509141745","tag":{"amenity":"waste_basket","colour":"orange","material":"metal"}},"type":"Feature"},
	{"geometry":{"coordinates":[6.844582,50.622302],"type":"Point"},"properties":{"osm_id":"6509141746","tag":{"amenity":"waste_basket","colour":"orange","material":"metal"}},"type":"Feature"},
	{"geometry":{"coordinates":[6.83034,50.607242],"type":"Point"},"properties":{"osm_id":"6874103799","tag":{"amenity":"waste_basket","material":"metal"}},"type":"Feature"},
	{"geometry":{"coordinates":[6.828841,50.58677],"type":"Point"},"properties":{"osm_id":"6875629818","tag":{"amenity":"waste_basket"}},"type":"Feature"},
	{"geometry":{"coordinates":[6.808226,50.62388],"type":"Point"},"properties":{"osm_id":"6952202627","tag":{"amenity":"waste_basket","colour":"green","material":"metal"}},"type":"Feature"},
	{"geometry":{"coordinates":[6.83298,50.588694],"type":"Point"},"properties":{"osm_id":"7238531855","tag":{"amenity":"waste_basket","colour":"green"}},"type":"Feature"},
	{"geometry":{"coordinates":[6.832521,50.58763],"type":"Point"},"properties":{"osm_id":"7238531856","tag":{"amenity":"waste_basket","colour":"green"}},"type":"Feature"},
	{"geometry":{"coordinates":[6.831927,50.587495],"type":"Point"},"properties":{"osm_id":"7238531857","tag":{"amenity":"waste_basket","colour":"green"}},"type":"Feature"},
	{"geometry":{"coordinates":[6.83175,50.58769],"type":"Point"},"properties":{"osm_id":"7238531858","tag":{"amenity":"waste_basket","colour":"green"}},"type":"Feature"},
	{"geometry":{"coordinates":[6.831656,50.58757],"type":"Point"},"properties":{"osm_id":"7238531859","tag":{"amenity":"waste_basket","colour":"green"}},"type":"Feature"},
	{"geometry":{"coordinates":[6.831378,50.587562],"type":"Point"},"properties":{"osm_id":"7238531860","tag":{"amenity":"waste_basket","colour":"green"}},"type":"Feature"},
	{"geometry":{"coordinates":[6.831174,50.587645],"type":"Point"},"properties":{"osm_id":"7238531861","tag":{"amenity":"waste_basket","colour":"green"}},"type":"Feature"},
	{"geometry":{"coordinates":[6.831298,50.587765],"type":"Point"},"properties":{"osm_id":"7238531862","tag":{"amenity":"waste_basket","colour":"green"}},"type":"Feature"},
	{"geometry":{"coordinates":[6.83152,50.587739],"type":"Point"},"properties":{"osm_id":"7238531863","tag":{"amenity":"waste_basket","colour":"green"}},"type":"Feature"},
	{"geometry":{"coordinates":[6.831728,50.587865],"type":"Point"},"properties":{"osm_id":"7238531864","tag":{"amenity":"waste_basket","colour":"green"}},"type":"Feature"},
	{"geometry":{"coordinates":[6.831684,50.588017],"type":"Point"},"properties":{"osm_id":"7238531865","tag":{"amenity":"waste_basket","colour":"green"}},"type":"Feature"},
	{"geometry":{"coordinates":[6.831692,50.588189],"type":"Point"},"properties":{"osm_id":"7238531866","tag":{"amenity":"waste_basket","colour":"green"}},"type":"Feature"},
	{"geometry":{"coordinates":[6.831596,50.588316],"type":"Point"},"properties":{"osm_id":"7238531867","tag":{"amenity":"waste_basket","colour":"green"}},"type":"Feature"},
	{"geometry":{"coordinates":[6.832194,50.58904],"type":"Point"},"properties":{"osm_id":"7238531868","tag":{"amenity":"waste_basket","colour":"green"}},"type":"Feature"},
	{"geometry":{"coordinates":[6.831925,50.588886],"type":"Point"},"properties":{"osm_id":"7238531869","tag":{"amenity":"waste_basket","colour":"green"}},"type":"Feature"},
	{"geometry":{"coordinates":[6.832174,50.588841],"type":"Point"},"properties":{"osm_id":"7238531870","tag":{"amenity":"waste_basket","colour":"green"}},"type":"Feature"},
	{"geometry":{"coordinates":[6.831877,50.588711],"type":"Point"},"properties":{"osm_id":"7238531871","tag":{"amenity":"waste_basket","colour":"green"}},"type":"Feature"},
	{"geometry":{"coordinates":[6.831627,50.588599],"type":"Point"},"properties":{"osm_id":"7238531872","tag":{"amenity":"waste_basket","colour":"green"}},"type":"Feature"},
	{"geometry":{"coordinates":[6.832038,50.624242],"type":"Point"},"properties":{"osm_id":"7369726115","tag":{"amenity":"recycling","recycling:glass_bottles":"yes","recycling_type":"container"}},"type":"Feature"},
	{"geometry":{"coordinates":[6.837964,50.590288],"type":"Point"},"properties":{"osm_id":"7556109040","tag":{"amenity":"waste_basket","waste":"trash"}},"type":"Feature"},
	{"geometry":{"coordinates":[6.792368,50.612416],"type":"Point"},"properties":{"osm_id":"7702642234","tag":{"amenity":"recycling","recycling:glass_bottles":"yes","recycling_type":"container"}},"type":"Feature"},
	{"geometry":{"coordinates":[6.79236,50.612439],"type":"Point"},"properties":{"osm_id":"7702642235","tag":{"amenity":"recycling","recycling:glass_bottles":"yes","recycling_type":"container"}},"type":"Feature"},
	{"geometry":{"coordinates":[6.796034,50.616813],"type":"Point"},"properties":{"osm_id":"7828617610","tag":{"amenity":"waste_basket","colour":"gray","material":"metal"}},"type":"Feature"},
	{"geometry":{"coordinates":[6.787495,50.611799],"type":"Point"},"properties":{"osm_id":"7828617639","tag":{"amenity":"waste_basket","colour":"gray","material":"metal"}},"type":"Feature"},
	{"geometry":{"coordinates":[6.787117,50.607507],"type":"Point"},"properties":{"osm_id":"7828617642","tag":{"amenity":"waste_basket","colour":"gray","material":"metal"}},"type":"Feature"},
	{"geometry":{"coordinates":[6.784664,50.618901],"type":"Point"},"properties":{"osm_id":"7835787479","tag":{"amenity":"waste_basket"}},"type":"Feature"}
]
}
