{
"type": "FeatureCollection",
"features": [
	{"geometry":{"coordinates":[6.808796,50.444462],"type":"Point"},"properties":{"osm_id":"538350638","tag":{"amenity":"waste_basket"}},"type":"Feature"},
	{"geometry":{"coordinates":[6.799494,50.445353],"type":"Point"},"properties":{"name":"HKB1","osm_id":"6709804607","tag":{"amenity":"waste_basket","collection_times":"alle 2-3 Wochen","colour":"black","operator":"Wershofen Aktiv"}},"type":"Feature"},
	{"geometry":{"coordinates":[6.811885,50.445298],"type":"Point"},"properties":{"osm_id":"6709804609","tag":{"amenity":"waste_basket","collection_times":"alle 2-3 Wochen","colour":"black","operator":"Wershofen Aktiv"}},"type":"Feature"},
	{"geometry":{"coordinates":[6.814604,50.445813],"type":"Point"},"properties":{"osm_id":"6709804610","tag":{"amenity":"waste_basket","collection_times":"alle 2-3 Wochen","colour":"black","operator":"Wershofen Aktiv"}},"type":"Feature"},
	{"geometry":{"coordinates":[6.817125,50.446325],"type":"Point"},"properties":{"osm_id":"6709804611","tag":{"amenity":"waste_basket","collection_times":"alle 2-3 Wochen","colour":"black","operator":"Wershofen Aktiv"}},"type":"Feature"},
	{"geometry":{"coordinates":[6.818575,50.449924],"type":"Point"},"properties":{"osm_id":"6709804612","tag":{"amenity":"waste_basket","collection_times":"alle 2-3 Wochen","colour":"sxhwarz","operator":"Wershofen Aktiv"}},"type":"Feature"},
	{"geometry":{"coordinates":[6.818875,50.444858],"type":"Point"},"properties":{"osm_id":"6709804613","tag":{"amenity":"waste_basket","collection_times":"alle 2-3 Wochen","colour":"black","operator":"Wershofen aktiv"}},"type":"Feature"},
	{"geometry":{"coordinates":[6.821832,50.445076],"type":"Point"},"properties":{"osm_id":"6709804614","tag":{"amenity":"waste_basket","collection_times":"alle 2-3 Wochen","colour":"black","operator":"Wershofen aktiv"}},"type":"Feature"},
	{"geometry":{"coordinates":[6.832648,50.445634],"type":"Point"},"properties":{"osm_id":"6709804615","tag":{"amenity":"waste_basket","collection_times":"alle 2-3Wochen","colour":"black","operator":"Wershofen Aktiv"}},"type":"Feature"},
	{"geometry":{"coordinates":[6.819899,50.443369],"type":"Point"},"properties":{"osm_id":"6709804616","tag":{"amenity":"waste_basket","collection_times":"alle 2-3 Woxchen","colour":"black","operator":"Wershofen Aktiv"}},"type":"Feature"},
	{"geometry":{"coordinates":[6.813086,50.441748],"type":"Point"},"properties":{"osm_id":"6709804617","tag":{"amenity":"waste_basket","collection_times":"alle 2-3 Wochen","colour":"black","operator":"Wershofen aktiv"}},"type":"Feature"},
	{"geometry":{"coordinates":[6.813288,50.44072],"type":"Point"},"properties":{"osm_id":"6709804618","tag":{"amenity":"waste_basket","collection_times":"alle 2-3 Wochen","colour":"black","operator":"Wershofen Aktiv"}},"type":"Feature"},
	{"geometry":{"coordinates":[6.80975,50.443434],"type":"Point"},"properties":{"osm_id":"6709804619","tag":{"amenity":"waste_basket","collection_times":"alle 2-3 Wochen","colour":"black","operator":"Wershofen aktiv"}},"type":"Feature"},
	{"geometry":{"coordinates":[6.808712,50.446168],"type":"Point"},"properties":{"osm_id":"6709804620","tag":{"amenity":"waste_basket","collection_times":"alle 2-3 Wochen","colour":"Sxhwarz","operator":"Wershofen Aktiv"}},"type":"Feature"},
	{"geometry":{"coordinates":[6.80591,50.445304],"type":"Point"},"properties":{"osm_id":"6709804621","tag":{"amenity":"waste_basket","collection_times":"alle 2-3 Wwochen","colour":"black","operator":"Wershofen aktiv"}},"type":"Feature"}
]
}
