{
"type": "FeatureCollection",
"features": [
	{"geometry":{"coordinates":[6.830489,50.197527],"type":"Point"},"properties":{"osm_id":"480348466","tag":{"amenity":"waste_basket"}},"type":"Feature"},
	{"geometry":{"coordinates":[6.83081,50.197631],"type":"Point"},"properties":{"osm_id":"480348471","tag":{"amenity":"waste_basket"}},"type":"Feature"},
	{"geometry":{"coordinates":[6.831159,50.197481],"type":"Point"},"properties":{"osm_id":"480348472","tag":{"amenity":"waste_basket"}},"type":"Feature"},
	{"geometry":{"coordinates":[6.832148,50.196995],"type":"Point"},"properties":{"osm_id":"480348507","tag":{"amenity":"waste_basket"}},"type":"Feature"},
	{"geometry":{"coordinates":[6.830403,50.195826],"type":"Point"},"properties":{"osm_id":"489591180","tag":{"amenity":"waste_basket"}},"type":"Feature"},
	{"geometry":{"coordinates":[6.829595,50.192697],"type":"Point"},"properties":{"osm_id":"489591201","tag":{"amenity":"waste_basket"}},"type":"Feature"},
	{"geometry":{"coordinates":[6.826707,50.192964],"type":"Point"},"properties":{"osm_id":"489591212","tag":{"amenity":"waste_basket"}},"type":"Feature"},
	{"geometry":{"coordinates":[6.827417,50.199751],"type":"Point"},"properties":{"osm_id":"489591279","tag":{"amenity":"waste_basket"}},"type":"Feature"},
	{"geometry":{"coordinates":[6.826995,50.200002],"type":"Point"},"properties":{"osm_id":"489591280","tag":{"amenity":"waste_basket"}},"type":"Feature"},
	{"geometry":{"coordinates":[6.828412,50.199156],"type":"Point"},"properties":{"osm_id":"489591289","tag":{"amenity":"waste_basket"}},"type":"Feature"},
	{"geometry":{"coordinates":[6.825892,50.190042],"type":"Point"},"properties":{"osm_id":"489591294","tag":{"amenity":"waste_basket"}},"type":"Feature"},
	{"geometry":{"coordinates":[6.835257,50.205609],"type":"Point"},"properties":{"osm_id":"595285872","tag":{"amenity":"recycling","opening_hours":"Mo-Sa 07:00-20:00; PH,Su off","operator":"Zweckverband Abfallwirtschaft Region Trier","recycling:glass_bottles":"yes","recycling_type":"container"}},"type":"Feature"},
	{"geometry":{"coordinates":[6.797254,50.231482],"type":"Point"},"properties":{"osm_id":"775385432","tag":{"amenity":"recycling","opening_hours":"Mo-Sa 07:00-20:00; Su,PH off","operator":"Zweckverband Abfallwirtschaft Region Trier","recycling:glass_bottles":"yes","recycling_type":"container","wheelchair":"yes"}},"type":"Feature"},
	{"geometry":{"coordinates":[6.839165,50.186919],"type":"Point"},"properties":{"osm_id":"858312696","tag":{"amenity":"waste_basket"}},"type":"Feature"},
	{"geometry":{"coordinates":[6.828928,50.19038],"type":"Point"},"properties":{"osm_id":"1979210719","tag":{"amenity":"waste_basket"}},"type":"Feature"},
	{"geometry":{"coordinates":[6.819268,50.202888],"type":"Point"},"properties":{"osm_id":"2254988555","tag":{"amenity":"waste_basket"}},"type":"Feature"},
	{"geometry":{"coordinates":[6.818582,50.205731],"type":"Point"},"properties":{"osm_id":"2254988658","tag":{"amenity":"waste_basket"}},"type":"Feature"},
	{"geometry":{"coordinates":[6.853345,50.178465],"type":"Point"},"properties":{"osm_id":"2303871318","tag":{"amenity":"waste_basket"}},"type":"Feature"},
	{"geometry":{"coordinates":[6.797711,50.230022],"type":"Point"},"properties":{"osm_id":"4350017783","tag":{"amenity":"waste_basket"}},"type":"Feature"},
	{"geometry":{"coordinates":[6.795269,50.230191],"type":"Point"},"properties":{"osm_id":"4350017810","tag":{"amenity":"waste_basket"}},"type":"Feature"},
	{"geometry":{"coordinates":[6.797297,50.231338],"type":"Point"},"properties":{"osm_id":"4350018039","tag":{"amenity":"waste_basket"}},"type":"Feature"},
	{"geometry":{"coordinates":[6.797275,50.23145],"type":"Point"},"properties":{"osm_id":"4350018042","tag":{"amenity":"recycling","operator":"WGS Merzig","recycling:clothes":"yes","recycling:shoes":"yes","recycling_type":"container","wheelchair":"yes"}},"type":"Feature"},
	{"geometry":{"coordinates":[6.795372,50.227022],"type":"Point"},"properties":{"osm_id":"4356457613","tag":{"amenity":"waste_basket"}},"type":"Feature"},
	{"geometry":{"coordinates":[6.797287,50.229741],"type":"Point"},"properties":{"osm_id":"4356457832","tag":{"amenity":"waste_basket"}},"type":"Feature"},
	{"geometry":{"coordinates":[6.79989,50.229785],"type":"Point"},"properties":{"osm_id":"4357962465","tag":{"amenity":"waste_basket"}},"type":"Feature"},
	{"geometry":{"coordinates":[6.827564,50.205747],"type":"Point"},"properties":{"osm_id":"4375975568","tag":{"amenity":"waste_basket"}},"type":"Feature"},
	{"geometry":{"coordinates":[6.833288,50.193489],"type":"Point"},"properties":{"osm_id":"4622196991","tag":{"amenity":"waste_basket"}},"type":"Feature"},
	{"geometry":{"coordinates":[6.82896,50.196106],"type":"Point"},"properties":{"osm_id":"4622196993","tag":{"amenity":"waste_basket"}},"type":"Feature"},
	{"geometry":{"coordinates":[6.834367,50.18089],"type":"Point"},"properties":{"osm_id":"4622197291","tag":{"amenity":"waste_basket"}},"type":"Feature"},
	{"geometry":{"coordinates":[6.840622,50.193417],"type":"Point"},"properties":{"osm_id":"4622215890","tag":{"amenity":"waste_basket"}},"type":"Feature"},
	{"geometry":{"coordinates":[6.836577,50.179749],"type":"Point"},"properties":{"osm_id":"4622286589","tag":{"amenity":"waste_basket"}},"type":"Feature"},
	{"geometry":{"coordinates":[6.831904,50.195181],"type":"Point"},"properties":{"osm_id":"4622287389","tag":{"amenity":"waste_basket"}},"type":"Feature"},
	{"geometry":{"coordinates":[6.829997,50.195756],"type":"Point"},"properties":{"osm_id":"4622287889","tag":{"amenity":"waste_basket"}},"type":"Feature"},
	{"geometry":{"coordinates":[6.80345,50.199814],"type":"Point"},"properties":{"osm_id":"4784935423","tag":{"amenity":"waste_basket"}},"type":"Feature"},
	{"geometry":{"coordinates":[6.805297,50.195735],"type":"Point"},"properties":{"osm_id":"4784935445","tag":{"amenity":"waste_basket"}},"type":"Feature"},
	{"geometry":{"coordinates":[6.785407,50.232801],"type":"Point"},"properties":{"osm_id":"5032994136","tag":{"amenity":"waste_basket"}},"type":"Feature"},
	{"geometry":{"coordinates":[6.841311,50.223221],"type":"Point"},"properties":{"osm_id":"5032994211","tag":{"amenity":"waste_basket"}},"type":"Feature"},
	{"geometry":{"coordinates":[6.835106,50.205527],"type":"Point"},"properties":{"osm_id":"5111361520","tag":{"amenity":"recycling","operator":"DRK Kreisverband Vulkaneifel e.V.","recycling:clothes":"yes","recycling:shoes":"yes","recycling_type":"container"}},"type":"Feature"},
	{"geometry":{"coordinates":[6.822138,50.199161],"type":"Point"},"properties":{"osm_id":"5604788089","tag":{"amenity":"waste_basket","waste":"trash"}},"type":"Feature"},
	{"geometry":{"coordinates":[6.822924,50.19973],"type":"Point"},"properties":{"osm_id":"5604788728","tag":{"amenity":"waste_basket","waste":"trash"}},"type":"Feature"},
	{"geometry":{"coordinates":[6.824831,50.199413],"type":"Point"},"properties":{"osm_id":"5634937924","tag":{"amenity":"waste_basket","waste":"trash"}},"type":"Feature"},
	{"geometry":{"coordinates":[6.825881,50.20008],"type":"Point"},"properties":{"osm_id":"5634937930","tag":{"amenity":"waste_basket","waste":"trash"}},"type":"Feature"},
	{"geometry":{"coordinates":[6.821387,50.201663],"type":"Point"},"properties":{"osm_id":"5647990276","tag":{"amenity":"waste_basket","waste":"trash"}},"type":"Feature"},
	{"geometry":{"coordinates":[6.819937,50.200697],"type":"Point"},"properties":{"osm_id":"5647990292","tag":{"amenity":"waste_basket","waste":"trash"}},"type":"Feature"},
	{"geometry":{"coordinates":[6.834389,50.194126],"type":"Point"},"properties":{"osm_id":"5792125682","tag":{"amenity":"recycling","recycling:clothes":"yes","recycling:shoes":"yes","recycling_type":"container"}},"type":"Feature"},
	{"geometry":{"coordinates":[6.83517,50.193609],"type":"Point"},"properties":{"osm_id":"5792125683","tag":{"amenity":"recycling","recycling:clothes":"yes","recycling:shoes":"yes","recycling_type":"container"}},"type":"Feature"},
	{"geometry":{"coordinates":[6.835159,50.193629],"type":"Point"},"properties":{"osm_id":"5792619350","tag":{"amenity":"recycling","opening_hours":"Mo-Sa 07:00-20:00; PH closed","operator":"Zweckverband Abfallwirtschaft Region Trier","recycling:glass_bottles":"yes","recycling_type":"container","wheelchair":"limited"}},"type":"Feature"},
	{"geometry":{"coordinates":[6.826641,50.198128],"type":"Point"},"properties":{"osm_id":"5911638352","tag":{"amenity":"waste_basket","waste":"trash"}},"type":"Feature"},
	{"geometry":{"coordinates":[6.826475,50.198284],"type":"Point"},"properties":{"osm_id":"5911638358","tag":{"amenity":"waste_basket","waste":"trash"}},"type":"Feature"},
	{"geometry":{"coordinates":[6.825908,50.196752],"type":"Point"},"properties":{"osm_id":"5926433693","tag":{"amenity":"waste_basket","waste":"trash"}},"type":"Feature"},
	{"geometry":{"coordinates":[6.822915,50.198765],"type":"Point"},"properties":{"osm_id":"5926433697","tag":{"amenity":"waste_basket","waste":"trash"}},"type":"Feature"},
	{"geometry":{"coordinates":[6.824518,50.196748],"type":"Point"},"properties":{"osm_id":"5926433712","tag":{"amenity":"waste_basket","waste":"trash"}},"type":"Feature"},
	{"geometry":{"coordinates":[6.823455,50.198213],"type":"Point"},"properties":{"osm_id":"5926433734","tag":{"amenity":"waste_basket","waste":"trash"}},"type":"Feature"},
	{"geometry":{"coordinates":[6.825346,50.197838],"type":"Point"},"properties":{"osm_id":"5927392797","tag":{"amenity":"waste_basket"}},"type":"Feature"},
	{"geometry":{"coordinates":[6.819795,50.201965],"type":"Point"},"properties":{"osm_id":"5966235105","tag":{"amenity":"waste_basket","waste":"trash"}},"type":"Feature"},
	{"geometry":{"coordinates":[6.826413,50.200334],"type":"Point"},"properties":{"osm_id":"6054776225","tag":{"amenity":"waste_basket","waste":"trash"}},"type":"Feature"},
	{"geometry":{"coordinates":[6.824278,50.199245],"type":"Point"},"properties":{"osm_id":"6092657441","tag":{"amenity":"waste_basket","waste":"trash"}},"type":"Feature"},
	{"geometry":{"coordinates":[6.826992,50.198498],"type":"Point"},"properties":{"osm_id":"6092657442","tag":{"amenity":"waste_basket","waste":"trash"}},"type":"Feature"},
	{"geometry":{"coordinates":[6.824044,50.19941],"type":"Point"},"properties":{"osm_id":"6092657444","tag":{"amenity":"waste_basket","waste":"trash"}},"type":"Feature"},
	{"geometry":{"coordinates":[6.826803,50.199501],"type":"Point"},"properties":{"osm_id":"6092657447","tag":{"amenity":"recycling","opening_hours":"24/7","recycling:clothes":"yes","recycling:shoes":"yes","recycling_type":"container","wheelchair":"yes"}},"type":"Feature"},
	{"geometry":{"coordinates":[6.824444,50.199123],"type":"Point"},"properties":{"osm_id":"6092657448","tag":{"amenity":"waste_basket","waste":"trash"}},"type":"Feature"},
	{"geometry":{"coordinates":[6.824048,50.199388],"type":"Point"},"properties":{"osm_id":"6092657453","tag":{"amenity":"waste_basket","waste":"trash"}},"type":"Feature"},
	{"geometry":{"coordinates":[6.824296,50.199282],"type":"Point"},"properties":{"osm_id":"6092657465","tag":{"amenity":"waste_basket","waste":"trash"}},"type":"Feature"},
	{"geometry":{"coordinates":[6.824456,50.199154],"type":"Point"},"properties":{"osm_id":"6092657466","tag":{"amenity":"waste_basket","waste":"trash"}},"type":"Feature"},
	{"geometry":{"coordinates":[6.826124,50.193915],"type":"Point"},"properties":{"osm_id":"7935193041","tag":{"amenity":"waste_basket"}},"type":"Feature"},
	{"geometry":{"coordinates":[6.814591,50.197439],"type":"Point"},"properties":{"osm_id":"7935193044","tag":{"amenity":"waste_basket"}},"type":"Feature"},
	{"geometry":{"coordinates":[6.82679,50.194357],"type":"Point"},"properties":{"osm_id":"7935251920","tag":{"amenity":"waste_basket"}},"type":"Feature"},
	{"geometry":{"coordinates":[6.833849,50.181243],"type":"Point"},"properties":{"osm_id":"7937485825","tag":{"amenity":"waste_basket"}},"type":"Feature"},
	{"geometry":{"coordinates":[6.827778,50.192457],"type":"Point"},"properties":{"osm_id":"7937485830","tag":{"amenity":"waste_basket"}},"type":"Feature"},
	{"geometry":{"coordinates":[6.830218,50.186459],"type":"Point"},"properties":{"osm_id":"7937485834","tag":{"amenity":"waste_basket"}},"type":"Feature"}
]
}
