{
"type": "FeatureCollection",
"features": [
	{"geometry":{"coordinates":[6.852067,49.897816],"type":"Point"},"properties":{"osm_id":"1157963641","tag":{"amenity":"recycling","recycling:clothes":"yes","recycling:glass":"yes","recycling_type":"container"}},"type":"Feature"},
	{"geometry":{"coordinates":[6.850945,49.895497],"type":"Point"},"properties":{"osm_id":"1180534227","tag":{"amenity":"waste_basket"}},"type":"Feature"},
	{"geometry":{"coordinates":[6.848447,49.897189],"type":"Point"},"properties":{"osm_id":"1193862779","tag":{"amenity":"waste_basket"}},"type":"Feature"},
	{"geometry":{"coordinates":[6.846872,49.943078],"type":"Point"},"properties":{"osm_id":"1823300168","tag":{"amenity":"waste_basket"}},"type":"Feature"},
	{"geometry":{"coordinates":[6.836947,49.922603],"type":"Point"},"properties":{"osm_id":"2081270792","tag":{"amenity":"recycling","recycling:clothes":"yes","recycling:shoes":"no","recycling_type":"container"}},"type":"Feature"},
	{"geometry":{"coordinates":[6.831521,49.948952],"type":"Point"},"properties":{"osm_id":"2311709970","tag":{"amenity":"waste_basket"}},"type":"Feature"},
	{"geometry":{"coordinates":[6.819442,49.937681],"type":"Point"},"properties":{"osm_id":"2426673818","tag":{"amenity":"recycling","operator":"Zweckverband Abfallwirtschaft Region Trier","recycling:glass_bottles":"yes","recycling_type":"container"}},"type":"Feature"},
	{"geometry":{"coordinates":[6.819765,49.93814],"type":"Point"},"properties":{"osm_id":"2427892597","tag":{"amenity":"recycling","operator":"Malteser Hilfsdienst e.V.","recycling:clothes":"yes","recycling_type":"container"}},"type":"Feature"},
	{"geometry":{"coordinates":[6.852,49.917157],"type":"Point"},"properties":{"osm_id":"2441220446","tag":{"amenity":"waste_basket"}},"type":"Feature"},
	{"geometry":{"coordinates":[6.849012,49.920961],"type":"Point"},"properties":{"osm_id":"2441220529","tag":{"amenity":"waste_basket"}},"type":"Feature"},
	{"geometry":{"coordinates":[6.840379,49.921718],"type":"Point"},"properties":{"osm_id":"2441796414","tag":{"amenity":"waste_basket"}},"type":"Feature"},
	{"geometry":{"coordinates":[6.846291,49.92255],"type":"Point"},"properties":{"osm_id":"2441796460","tag":{"amenity":"waste_basket"}},"type":"Feature"},
	{"geometry":{"coordinates":[6.836279,49.917092],"type":"Point"},"properties":{"osm_id":"2476945502","tag":{"amenity":"waste_basket"}},"type":"Feature"},
	{"geometry":{"coordinates":[6.828621,49.902858],"type":"Point"},"properties":{"osm_id":"3163457930","tag":{"amenity":"waste_basket"}},"type":"Feature"},
	{"geometry":{"coordinates":[6.837206,49.923043],"type":"Point"},"properties":{"osm_id":"4519498089","tag":{"amenity":"recycling","recycling:clothes":"yes","recycling_type":"container"}},"type":"Feature"},
	{"geometry":{"coordinates":[6.848101,49.925826],"type":"Point"},"properties":{"osm_id":"4703285538","tag":{"amenity":"recycling","opening_hours":"Mo-Sa 07:00-20:00; Su,PH off","operator":"Zweckverband Abfallwirtschaft Region Trier","recycling:glass_bottles":"yes","recycling_type":"container","wheelchair":"yes"}},"type":"Feature"},
	{"geometry":{"coordinates":[6.848085,49.925814],"type":"Point"},"properties":{"osm_id":"5157325824","tag":{"amenity":"recycling","opening_hours":"24/7","recycling:clothes":"yes","recycling:shoes":"yes","recycling_type":"container","wheelchair":"yes"}},"type":"Feature"},
	{"geometry":{"coordinates":[6.834975,49.90111],"type":"Point"},"properties":{"osm_id":"5471747821","tag":{"amenity":"recycling","recycling:clothes":"yes","recycling:glass":"yes","recycling_type":"container"}},"type":"Feature"},
	{"geometry":{"coordinates":[6.768733,49.935776],"type":"Point"},"properties":{"osm_id":"7777447932","tag":{"amenity":"recycling","opening_hours":"Mo-Sa 07:00-20:00; PH,Su off","operator":"Zweckverband Abfallwirtschaft Region Trier","operator:wikidata":"Q82980882","recycling:glass_bottles":"yes","recycling:green_waste":"yes","recycling_type":"container","wheelchair":"limited"}},"type":"Feature"}
]
}
