{
"type": "FeatureCollection",
"features": [
	{"geometry":{"coordinates":[6.841595,49.286862],"type":"Point"},"properties":{"osm_id":"278910862","tag":{"amenity":"recycling"}},"type":"Feature"},
	{"geometry":{"coordinates":[6.798185,49.281484],"type":"Point"},"properties":{"osm_id":"416358255","tag":{"amenity":"recycling","location":"overground","recycling:glass":"yes","recycling:paper":"yes","recycling_type":"container"}},"type":"Feature"},
	{"geometry":{"coordinates":[6.81353,49.273638],"type":"Point"},"properties":{"osm_id":"601131526","tag":{"amenity":"recycling","location":"overground","recycling:clothes":"yes","recycling:glass":"yes","recycling:paper":"yes","recycling_type":"container"}},"type":"Feature"},
	{"geometry":{"coordinates":[6.853771,49.322884],"type":"Point"},"properties":{"osm_id":"829663722","tag":{"amenity":"recycling","recycling:glass":"yes","recycling:paper":"yes","recycling_type":"container"}},"type":"Feature"},
	{"geometry":{"coordinates":[6.826283,49.289333],"type":"Point"},"properties":{"osm_id":"981481729","tag":{"amenity":"recycling","mapillary":"VqtSkfylxLrP7qRXpce9rg","recycling:glass":"yes","recycling:paper":"yes","recycling_type":"container","survey:date":"2018-01-13"}},"type":"Feature"},
	{"geometry":{"coordinates":[6.838762,49.273028],"type":"Point"},"properties":{"osm_id":"988622306","tag":{"amenity":"recycling","recycling:glass":"yes","recycling:paper":"yes"}},"type":"Feature"},
	{"geometry":{"coordinates":[6.816698,49.2804],"type":"Point"},"properties":{"osm_id":"1105127483","tag":{"amenity":"recycling"}},"type":"Feature"},
	{"geometry":{"coordinates":[6.81737,49.318174],"type":"Point"},"properties":{"osm_id":"1301965690","tag":{"amenity":"recycling","recycling:glass":"yes","recycling:paper":"yes"}},"type":"Feature"},
	{"geometry":{"coordinates":[6.849572,49.312504],"type":"Point"},"properties":{"osm_id":"1468413053","tag":{"amenity":"waste_basket"}},"type":"Feature"},
	{"geometry":{"coordinates":[6.850567,49.312926],"type":"Point"},"properties":{"osm_id":"1468413063","tag":{"amenity":"waste_basket"}},"type":"Feature"},
	{"geometry":{"coordinates":[6.842433,49.3177],"type":"Point"},"properties":{"osm_id":"2420057928","tag":{"amenity":"waste_basket"}},"type":"Feature"},
	{"geometry":{"coordinates":[6.804124,49.268882],"type":"Point"},"properties":{"osm_id":"3421969022","tag":{"amenity":"waste_basket"}},"type":"Feature"},
	{"geometry":{"coordinates":[6.788588,49.268865],"type":"Point"},"properties":{"osm_id":"4436792538","tag":{"amenity":"recycling","recycling_type":"container"}},"type":"Feature"},
	{"geometry":{"coordinates":[6.846888,49.282117],"type":"Point"},"properties":{"osm_id":"5895786020","tag":{"amenity":"waste_basket"}},"type":"Feature"},
	{"geometry":{"coordinates":[6.826723,49.287163],"type":"Point"},"properties":{"osm_id":"5895786027","tag":{"amenity":"waste_basket"}},"type":"Feature"},
	{"geometry":{"coordinates":[6.842371,49.308158],"type":"Point"},"properties":{"osm_id":"6592732635","tag":{"amenity":"waste_basket"}},"type":"Feature"},
	{"geometry":{"coordinates":[6.828002,49.307105],"type":"Point"},"properties":{"osm_id":"6592793405","tag":{"amenity":"recycling","recycling:glass_bottles":"yes","recycling:paper":"yes","recycling_type":"container"}},"type":"Feature"},
	{"geometry":{"coordinates":[6.828243,49.30661],"type":"Point"},"properties":{"osm_id":"6592793406","tag":{"amenity":"waste_basket"}},"type":"Feature"},
	{"geometry":{"coordinates":[6.781115,49.307282],"type":"Point"},"properties":{"osm_id":"6601086622","tag":{"amenity":"recycling","recycling:glass_bottles":"yes","recycling:paper":"yes","recycling_type":"container"}},"type":"Feature"},
	{"geometry":{"coordinates":[6.779865,49.293723],"type":"Point"},"properties":{"osm_id":"6662725521","tag":{"amenity":"recycling","recycling:glass_bottles":"yes","recycling:paper":"yes","recycling_type":"container"}},"type":"Feature"},
	{"geometry":{"coordinates":[6.780851,49.293645],"type":"Point"},"properties":{"osm_id":"6662725888","tag":{"amenity":"recycling","recycling:clothes":"yes","recycling_type":"container"}},"type":"Feature"},
	{"geometry":{"coordinates":[6.848739,49.302046],"type":"Point"},"properties":{"osm_id":"7446656633","tag":{"amenity":"recycling","recycling:clothes":"yes","recycling:glass_bottles":"yes","recycling:paper":"yes","recycling_type":"container"}},"type":"Feature"},
	{"geometry":{"coordinates":[6.769151,49.324538],"type":"Point"},"properties":{"osm_id":"7880465844","tag":{"amenity":"waste_basket"}},"type":"Feature"},
	{"geometry":{"coordinates":[6.824102,49.31578],"type":"Point"},"properties":{"osm_id":"8072295994","tag":{"amenity":"waste_basket"}},"type":"Feature"},
	{"geometry":{"coordinates":[6.812942,49.324428],"type":"Point"},"properties":{"osm_id":"8072617529","tag":{"amenity":"waste_basket"}},"type":"Feature"},
	{"geometry":{"coordinates":[6.81438,49.324635],"type":"Point"},"properties":{"osm_id":"8072617530","tag":{"amenity":"waste_basket"}},"type":"Feature"},
	{"geometry":{"coordinates":[6.830294,49.324039],"type":"Point"},"properties":{"osm_id":"8072617595","tag":{"amenity":"waste_basket"}},"type":"Feature"},
	{"geometry":{"coordinates":[6.824675,49.322594],"type":"Point"},"properties":{"osm_id":"8072617603","tag":{"amenity":"recycling","recycling:glass_bottles":"yes","recycling:paper":"yes","recycling_type":"container"}},"type":"Feature"}
]
}
