{
"type": "FeatureCollection",
"features": [
	{"geometry":{"coordinates":[6.830422,47.60608],"type":"Point"},"properties":{"osm_id":"486240625","tag":{"amenity":"recycling","recycling:cans":"yes","recycling:glass":"yes","recycling:paper":"yes"}},"type":"Feature"},
	{"geometry":{"coordinates":[6.82397,47.633154],"type":"Point"},"properties":{"osm_id":"1476774731","tag":{"amenity":"recycling","recycling:cans":"yes","recycling:glass":"yes","recycling:paper":"yes","recycling_type":"container"}},"type":"Feature"},
	{"geometry":{"coordinates":[6.846075,47.614271],"type":"Point"},"properties":{"name":"D\u00c3\u00a9chetterie de la Communaut\u00c3\u00a9 d'Aglom\u00c3\u00a9ration Belfortaine","osm_id":"1496240506","tag":{"amenity":"recycling","recycling:batteries":"yes","recycling:cans":"yes","recycling:cardboard":"yes","recycling:electrical_appliances":"yes","recycling:glass":"yes","recycling:glass_bottles":"yes","recycling:green_waste":"yes","recycling:paper":"yes","recycling:plastic":"yes","recycling:plastic_bottles":"yes","recycling:plastic_packaging":"yes","recycling:scrap_metal":"yes","recycling:shoes":"yes","recycling:small_appliances":"yes","recycling_type":"centre"}},"type":"Feature"},
	{"geometry":{"coordinates":[6.841746,47.607786],"type":"Point"},"properties":{"osm_id":"1575538775","tag":{"amenity":"recycling","recycling:glass_bottles":"yes","recycling_type":"container"}},"type":"Feature"},
	{"geometry":{"coordinates":[6.847537,47.632493],"type":"Point"},"properties":{"osm_id":"1914991842","tag":{"amenity":"recycling","recycling_type":"container"}},"type":"Feature"},
	{"geometry":{"coordinates":[6.843864,47.635495],"type":"Point"},"properties":{"osm_id":"2601926070","tag":{"amenity":"recycling","recycling:glass":"yes","recycling:paper":"yes","recycling_type":"container"}},"type":"Feature"},
	{"geometry":{"coordinates":[6.84962,47.632595],"type":"Point"},"properties":{"osm_id":"2694429121","tag":{"amenity":"waste_basket"}},"type":"Feature"},
	{"geometry":{"coordinates":[6.853642,47.634678],"type":"Point"},"properties":{"osm_id":"2710916326","tag":{"amenity":"recycling","recycling:cans":"yes","recycling:glass":"yes","recycling:paper":"yes","recycling_type":"container"}},"type":"Feature"},
	{"geometry":{"coordinates":[6.853426,47.634247],"type":"Point"},"properties":{"osm_id":"2711332443","tag":{"amenity":"waste_basket"}},"type":"Feature"},
	{"geometry":{"coordinates":[6.854766,47.632416],"type":"Point"},"properties":{"osm_id":"2711573264","tag":{"amenity":"waste_basket"}},"type":"Feature"},
	{"geometry":{"coordinates":[6.854781,47.632659],"type":"Point"},"properties":{"osm_id":"2711573310","tag":{"amenity":"waste_basket"}},"type":"Feature"},
	{"geometry":{"coordinates":[6.854655,47.632818],"type":"Point"},"properties":{"osm_id":"2711573348","tag":{"amenity":"waste_basket"}},"type":"Feature"},
	{"geometry":{"coordinates":[6.839227,47.6323],"type":"Point"},"properties":{"osm_id":"2712505375","tag":{"amenity":"recycling","recycling_type":"container"}},"type":"Feature"},
	{"geometry":{"coordinates":[6.838395,47.632381],"type":"Point"},"properties":{"osm_id":"2712505376","tag":{"amenity":"recycling"}},"type":"Feature"},
	{"geometry":{"coordinates":[6.847523,47.633972],"type":"Point"},"properties":{"osm_id":"2714904008","tag":{"amenity":"recycling","recycling:cans":"yes","recycling:glass":"yes","recycling:paper":"yes","recycling_type":"container"}},"type":"Feature"},
	{"geometry":{"coordinates":[6.845821,47.634847],"type":"Point"},"properties":{"osm_id":"2714904048","tag":{"amenity":"recycling","recycling:cans":"yes","recycling:glass":"yes","recycling:paper":"yes","recycling_type":"container"}},"type":"Feature"},
	{"geometry":{"coordinates":[6.854084,47.633995],"type":"Point"},"properties":{"osm_id":"2715476281","tag":{"amenity":"waste_basket"}},"type":"Feature"},
	{"geometry":{"coordinates":[6.85386,47.634207],"type":"Point"},"properties":{"osm_id":"2715476285","tag":{"amenity":"waste_basket"}},"type":"Feature"},
	{"geometry":{"coordinates":[6.853564,47.63443],"type":"Point"},"properties":{"osm_id":"2715476286","tag":{"amenity":"waste_basket"}},"type":"Feature"},
	{"geometry":{"coordinates":[6.849958,47.633028],"type":"Point"},"properties":{"osm_id":"2716307954","tag":{"amenity":"waste_basket"}},"type":"Feature"},
	{"geometry":{"coordinates":[6.849841,47.633126],"type":"Point"},"properties":{"osm_id":"2716307956","tag":{"amenity":"waste_basket"}},"type":"Feature"},
	{"geometry":{"coordinates":[6.84096,47.632759],"type":"Point"},"properties":{"osm_id":"2716327822","tag":{"amenity":"waste_basket"}},"type":"Feature"},
	{"geometry":{"coordinates":[6.846641,47.633591],"type":"Point"},"properties":{"osm_id":"2716327853","tag":{"amenity":"recycling","recycling:paper":"yes","recycling_type":"container"}},"type":"Feature"},
	{"geometry":{"coordinates":[6.844921,47.633857],"type":"Point"},"properties":{"osm_id":"2716327862","tag":{"amenity":"recycling","recycling:glass":"no","recycling:paper":"yes","recycling_type":"container"}},"type":"Feature"},
	{"geometry":{"coordinates":[6.843591,47.633955],"type":"Point"},"properties":{"osm_id":"2716327864","tag":{"amenity":"recycling"}},"type":"Feature"},
	{"geometry":{"coordinates":[6.844174,47.634596],"type":"Point"},"properties":{"osm_id":"2737981828","tag":{"amenity":"waste_basket"}},"type":"Feature"},
	{"geometry":{"coordinates":[6.85351,47.634792],"type":"Point"},"properties":{"osm_id":"2748142446","tag":{"amenity":"waste_basket"}},"type":"Feature"},
	{"geometry":{"coordinates":[6.853346,47.634443],"type":"Point"},"properties":{"osm_id":"2752821674","tag":{"amenity":"waste_basket"}},"type":"Feature"},
	{"geometry":{"coordinates":[6.852997,47.635114],"type":"Point"},"properties":{"osm_id":"2752821689","tag":{"amenity":"waste_basket"}},"type":"Feature"},
	{"geometry":{"coordinates":[6.853834,47.635199],"type":"Point"},"properties":{"osm_id":"2752821693","tag":{"amenity":"waste_basket"}},"type":"Feature"},
	{"geometry":{"coordinates":[6.853139,47.635521],"type":"Point"},"properties":{"osm_id":"2752821706","tag":{"amenity":"waste_basket"}},"type":"Feature"},
	{"geometry":{"coordinates":[6.853413,47.635657],"type":"Point"},"properties":{"osm_id":"2752821709","tag":{"amenity":"recycling","recycling:glass_bottles":"yes","recycling_type":"container"}},"type":"Feature"},
	{"geometry":{"coordinates":[6.848746,47.630584],"type":"Point"},"properties":{"osm_id":"2762644809","tag":{"amenity":"waste_basket"}},"type":"Feature"},
	{"geometry":{"coordinates":[6.847292,47.631273],"type":"Point"},"properties":{"osm_id":"2830519101","tag":{"amenity":"recycling","recycling:glass":"yes","recycling_type":"container"}},"type":"Feature"},
	{"geometry":{"coordinates":[6.85507,47.632],"type":"Point"},"properties":{"osm_id":"2836915603","tag":{"amenity":"recycling","recycling:glass":"yes","recycling:paper":"yes","recycling_type":"container"}},"type":"Feature"},
	{"geometry":{"coordinates":[6.8523,47.632657],"type":"Point"},"properties":{"osm_id":"2892423105","tag":{"amenity":"recycling","recycling:glass":"yes","recycling:paper":"yes","recycling_type":"container"}},"type":"Feature"},
	{"geometry":{"coordinates":[6.834585,47.626643],"type":"Point"},"properties":{"osm_id":"2988533138","tag":{"amenity":"recycling","recycling:clothes":"yes","recycling:glass":"yes","recycling_type":"container"}},"type":"Feature"},
	{"geometry":{"coordinates":[6.84124,47.61687],"type":"Point"},"properties":{"osm_id":"3020705021","tag":{"amenity":"recycling","recycling:glass_bottles":"yes"}},"type":"Feature"},
	{"geometry":{"coordinates":[6.829314,47.632035],"type":"Point"},"properties":{"osm_id":"3021018788","tag":{"amenity":"recycling","recycling:garden_waste":"yes","recycling:glass":"no"}},"type":"Feature"},
	{"geometry":{"coordinates":[6.845657,47.592401],"type":"Point"},"properties":{"osm_id":"3913247475","tag":{"amenity":"recycling","recycling:glass_bottles":"yes","recycling_type":"container"}},"type":"Feature"},
	{"geometry":{"coordinates":[6.850149,47.619032],"type":"Point"},"properties":{"osm_id":"5081472606","tag":{"amenity":"waste_basket"}},"type":"Feature"},
	{"geometry":{"coordinates":[6.842883,47.634932],"type":"Point"},"properties":{"osm_id":"5594353879","tag":{"amenity":"recycling","recycling_type":"container"}},"type":"Feature"},
	{"geometry":{"coordinates":[6.850799,47.626279],"type":"Point"},"properties":{"osm_id":"5597320766","tag":{"amenity":"waste_basket"}},"type":"Feature"},
	{"geometry":{"coordinates":[6.853443,47.626538],"type":"Point"},"properties":{"osm_id":"5597320782","tag":{"amenity":"waste_basket"}},"type":"Feature"},
	{"geometry":{"coordinates":[6.849589,47.621477],"type":"Point"},"properties":{"osm_id":"5597335002","tag":{"amenity":"waste_basket"}},"type":"Feature"},
	{"geometry":{"coordinates":[6.850227,47.621487],"type":"Point"},"properties":{"osm_id":"5597335007","tag":{"amenity":"recycling","recycling:cardboard":"yes","recycling:glass_bottles":"yes","recycling:plastic":"yes","recycling_type":"container"}},"type":"Feature"},
	{"geometry":{"coordinates":[6.850246,47.621385],"type":"Point"},"properties":{"osm_id":"5597335009","tag":{"amenity":"waste_basket"}},"type":"Feature"},
	{"geometry":{"coordinates":[6.850351,47.635006],"type":"Point"},"properties":{"osm_id":"5682915562","tag":{"amenity":"waste_basket"}},"type":"Feature"},
	{"geometry":{"coordinates":[6.850246,47.634931],"type":"Point"},"properties":{"osm_id":"5682915567","tag":{"amenity":"waste_basket"}},"type":"Feature"},
	{"geometry":{"coordinates":[6.854744,47.626567],"type":"Point"},"properties":{"osm_id":"5700379132","tag":{"amenity":"recycling","recycling:glass_bottles":"yes","recycling_type":"container"}},"type":"Feature"},
	{"geometry":{"coordinates":[6.852413,47.624797],"type":"Point"},"properties":{"osm_id":"5700379135","tag":{"amenity":"recycling","recycling:glass_bottles":"yes","recycling_type":"container"}},"type":"Feature"},
	{"geometry":{"coordinates":[6.853589,47.621399],"type":"Point"},"properties":{"osm_id":"6390373614","tag":{"amenity":"recycling","recycling:clothes":"yes","recycling_type":"container"}},"type":"Feature"},
	{"geometry":{"coordinates":[6.853573,47.621378],"type":"Point"},"properties":{"osm_id":"6390373615","tag":{"amenity":"recycling","recycling:glass_bottles":"yes","recycling_type":"container"}},"type":"Feature"},
	{"geometry":{"coordinates":[6.847223,47.605537],"type":"Point"},"properties":{"osm_id":"6485676894","tag":{"addr:city":"Andelnans","amenity":"recycling","recycling:glass_bottles":"yes","recycling_type":"container"}},"type":"Feature"},
	{"geometry":{"coordinates":[6.852205,47.630234],"type":"Point"},"properties":{"osm_id":"7467273277","tag":{"amenity":"recycling","recycling_type":"container"}},"type":"Feature"},
	{"geometry":{"coordinates":[6.844319,47.633222],"type":"Point"},"properties":{"osm_id":"7828757322","tag":{"amenity":"recycling","recycling:books":"yes","recycling:cans":"yes","recycling:cardboard":"yes","recycling:magazines":"yes","recycling:newspaper":"yes","recycling:paper":"yes","recycling:paper_packaging":"yes","recycling:plastic":"yes","recycling:plastic_bottles":"yes","recycling:plastic_packaging":"yes","recycling_type":"container"}},"type":"Feature"},
	{"geometry":{"coordinates":[6.837038,47.619105],"type":"Point"},"properties":{"osm_id":"8505998164","tag":{"amenity":"recycling","colour":"green","opening_hours":"24/7","recycling:glass_bottles":"yes","recycling_type":"container"}},"type":"Feature"},
	{"geometry":{"coordinates":[6.840195,47.632621],"type":"Point"},"properties":{"osm_id":"8516600392","tag":{"amenity":"waste_basket"}},"type":"Feature"},
	{"geometry":{"coordinates":[6.839386,47.63353],"type":"Point"},"properties":{"osm_id":"8517709204","tag":{"amenity":"waste_basket"}},"type":"Feature"},
	{"geometry":{"coordinates":[6.838999,47.633407],"type":"Point"},"properties":{"osm_id":"8517709210","tag":{"amenity":"waste_basket"}},"type":"Feature"},
	{"geometry":{"coordinates":[6.839033,47.633165],"type":"Point"},"properties":{"osm_id":"8517709211","tag":{"amenity":"waste_basket"}},"type":"Feature"},
	{"geometry":{"coordinates":[6.839233,47.632966],"type":"Point"},"properties":{"osm_id":"8517709212","tag":{"amenity":"waste_basket"}},"type":"Feature"},
	{"geometry":{"coordinates":[6.840353,47.632046],"type":"Point"},"properties":{"osm_id":"8517752530","tag":{"amenity":"waste_basket"}},"type":"Feature"},
	{"geometry":{"coordinates":[6.843041,47.629732],"type":"Point"},"properties":{"osm_id":"8517752536","tag":{"amenity":"waste_basket","colour":"grey","material":"metal","waste":"trash"}},"type":"Feature"},
	{"geometry":{"coordinates":[6.808032,47.635627],"type":"Point"},"properties":{"osm_id":"8526149195","tag":{"amenity":"recycling","recycling:glass_bottles":"yes","recycling_type":"container"}},"type":"Feature"},
	{"geometry":{"coordinates":[6.830817,47.621848],"type":"Point"},"properties":{"osm_id":"8529267670","tag":{"amenity":"waste_basket","colour":"grey","material":"metal"}},"type":"Feature"},
	{"geometry":{"coordinates":[6.832827,47.621042],"type":"Point"},"properties":{"osm_id":"8536024330","tag":{"amenity":"waste_basket","colour":"grey","material":"metal","waste":"trash"}},"type":"Feature"},
	{"geometry":{"coordinates":[6.842594,47.629539],"type":"Point"},"properties":{"osm_id":"8540420804","tag":{"amenity":"waste_basket","colour":"black","material":"metal","waste":"trash"}},"type":"Feature"},
	{"geometry":{"coordinates":[6.843271,47.628404],"type":"Point"},"properties":{"osm_id":"8540420805","tag":{"amenity":"waste_basket","colour":"grey","material":"metal","waste":"trash"}},"type":"Feature"},
	{"geometry":{"coordinates":[6.843678,47.628531],"type":"Point"},"properties":{"osm_id":"8540420806","tag":{"amenity":"waste_basket","colour":"grey","material":"metal","waste":"trash"}},"type":"Feature"},
	{"geometry":{"coordinates":[6.843225,47.629384],"type":"Point"},"properties":{"osm_id":"8540420807","tag":{"amenity":"waste_basket","colour":"grey","material":"metal","waste":"trash"}},"type":"Feature"},
	{"geometry":{"coordinates":[6.845579,47.629225],"type":"Point"},"properties":{"osm_id":"8541432119","tag":{"amenity":"recycling","opening_hours":"24/7","recycling:glass_bottles":"yes","recycling_type":"container"}},"type":"Feature"},
	{"geometry":{"coordinates":[6.8453,47.629319],"type":"Point"},"properties":{"osm_id":"8541432120","tag":{"amenity":"waste_basket"}},"type":"Feature"},
	{"geometry":{"coordinates":[6.845821,47.629686],"type":"Point"},"properties":{"osm_id":"8541432121","tag":{"amenity":"waste_basket"}},"type":"Feature"},
	{"geometry":{"coordinates":[6.845582,47.629863],"type":"Point"},"properties":{"osm_id":"8541432122","tag":{"amenity":"waste_basket"}},"type":"Feature"},
	{"geometry":{"coordinates":[6.84529,47.630069],"type":"Point"},"properties":{"osm_id":"8541432127","tag":{"amenity":"waste_basket"}},"type":"Feature"},
	{"geometry":{"coordinates":[6.844885,47.630319],"type":"Point"},"properties":{"osm_id":"8541432128","tag":{"amenity":"waste_basket"}},"type":"Feature"},
	{"geometry":{"coordinates":[6.847214,47.631365],"type":"Point"},"properties":{"osm_id":"8541906444","tag":{"amenity":"waste_basket","colour":"black","material":"metal"}},"type":"Feature"},
	{"geometry":{"coordinates":[6.847261,47.631358],"type":"Point"},"properties":{"osm_id":"8541906446","tag":{"amenity":"waste_basket","colour":"grey","material":"metal"}},"type":"Feature"},
	{"geometry":{"coordinates":[6.845954,47.632214],"type":"Point"},"properties":{"osm_id":"8541906447","tag":{"amenity":"waste_basket","colour":"grey","material":"metal"}},"type":"Feature"},
	{"geometry":{"coordinates":[6.845583,47.627744],"type":"Point"},"properties":{"osm_id":"8543737897","tag":{"amenity":"waste_basket"}},"type":"Feature"},
	{"geometry":{"coordinates":[6.845755,47.629276],"type":"Point"},"properties":{"osm_id":"8543737898","tag":{"amenity":"waste_basket"}},"type":"Feature"},
	{"geometry":{"coordinates":[6.849072,47.631271],"type":"Point"},"properties":{"osm_id":"8543799726","tag":{"amenity":"waste_basket"}},"type":"Feature"},
	{"geometry":{"coordinates":[6.848781,47.630809],"type":"Point"},"properties":{"osm_id":"8543799727","tag":{"amenity":"waste_basket"}},"type":"Feature"},
	{"geometry":{"coordinates":[6.852432,47.635355],"type":"Point"},"properties":{"osm_id":"8544081890","tag":{"amenity":"waste_basket"}},"type":"Feature"},
	{"geometry":{"coordinates":[6.852156,47.635107],"type":"Point"},"properties":{"osm_id":"8544081892","tag":{"amenity":"waste_basket"}},"type":"Feature"},
	{"geometry":{"coordinates":[6.853392,47.63565],"type":"Point"},"properties":{"osm_id":"8544194493","tag":{"amenity":"waste_disposal"}},"type":"Feature"},
	{"geometry":{"coordinates":[6.841824,47.608093],"type":"Point"},"properties":{"osm_id":"8551850282","tag":{"amenity":"waste_basket"}},"type":"Feature"},
	{"geometry":{"coordinates":[6.839663,47.628836],"type":"Point"},"properties":{"osm_id":"8567399241","tag":{"amenity":"waste_basket","colour":"grey","material":"metal"}},"type":"Feature"},
	{"geometry":{"coordinates":[6.839258,47.628908],"type":"Point"},"properties":{"osm_id":"8567399242","tag":{"amenity":"waste_basket","colour":"grey","material":"metal"}},"type":"Feature"},
	{"geometry":{"coordinates":[6.785444,47.614267],"type":"Point"},"properties":{"osm_id":"8573183888","tag":{"amenity":"waste_basket"}},"type":"Feature"},
	{"geometry":{"coordinates":[6.808425,47.608252],"type":"Point"},"properties":{"osm_id":"8573200107","tag":{"amenity":"recycling","recycling:glass_bottles":"yes","recycling_type":"container"}},"type":"Feature"},
	{"geometry":{"coordinates":[6.808509,47.608117],"type":"Point"},"properties":{"osm_id":"8574527478","tag":{"amenity":"waste_basket"}},"type":"Feature"},
	{"geometry":{"coordinates":[6.849385,47.631765],"type":"Point"},"properties":{"osm_id":"8579356628","tag":{"amenity":"waste_basket","colour":"grey","material":"metal","waste":"trash"}},"type":"Feature"},
	{"geometry":{"coordinates":[6.828658,47.623661],"type":"Point"},"properties":{"osm_id":"8591378298","tag":{"amenity":"waste_basket"}},"type":"Feature"},
	{"geometry":{"coordinates":[6.828845,47.612449],"type":"Point"},"properties":{"osm_id":"8592816903","tag":{"amenity":"recycling","recycling:glass_bottles":"yes","recycling_type":"container"}},"type":"Feature"},
	{"geometry":{"coordinates":[6.821886,47.604018],"type":"Point"},"properties":{"osm_id":"8592858982","tag":{"amenity":"recycling","recycling:glass_bottles":"yes","recycling_type":"container"}},"type":"Feature"},
	{"geometry":{"coordinates":[6.841742,47.618048],"type":"Point"},"properties":{"osm_id":"8689789246","tag":{"amenity":"recycling","covered":"no","indoor":"no","recycling:cans":"yes","recycling:cardboard":"yes","recycling:paper":"yes","recycling:plastic":"yes","recycling:plastic_bottles":"yes","recycling_type":"container"}},"type":"Feature"}
]
}
