{
"type": "FeatureCollection",
"features": [
	{"geometry":{"coordinates":[6.789314,47.512372],"type":"Point"},"properties":{"osm_id":"365925794","tag":{"amenity":"recycling","location":"overground","recycling:glass":"yes","recycling_type":"container"}},"type":"Feature"},
	{"geometry":{"coordinates":[6.790338,47.496678],"type":"Point"},"properties":{"osm_id":"1315994900","tag":{"amenity":"recycling"}},"type":"Feature"},
	{"geometry":{"coordinates":[6.798423,47.497982],"type":"Point"},"properties":{"osm_id":"1315994905","tag":{"amenity":"recycling","location":"overground","recycling_type":"container"}},"type":"Feature"},
	{"geometry":{"coordinates":[6.836793,47.479495],"type":"Point"},"properties":{"osm_id":"1460503619","tag":{"amenity":"waste_basket"}},"type":"Feature"},
	{"geometry":{"coordinates":[6.836957,47.479729],"type":"Point"},"properties":{"osm_id":"1460503632","tag":{"amenity":"waste_basket"}},"type":"Feature"},
	{"geometry":{"coordinates":[6.840438,47.480215],"type":"Point"},"properties":{"osm_id":"1460503648","tag":{"amenity":"waste_basket"}},"type":"Feature"},
	{"geometry":{"coordinates":[6.840342,47.474768],"type":"Point"},"properties":{"osm_id":"1661190719","tag":{"amenity":"recycling","recycling:glass":"yes"}},"type":"Feature"},
	{"geometry":{"coordinates":[6.837979,47.481581],"type":"Point"},"properties":{"osm_id":"1661190907","tag":{"amenity":"waste_basket"}},"type":"Feature"},
	{"geometry":{"coordinates":[6.841441,47.482175],"type":"Point"},"properties":{"osm_id":"1661190939","tag":{"amenity":"waste_basket"}},"type":"Feature"},
	{"geometry":{"coordinates":[6.841495,47.482243],"type":"Point"},"properties":{"osm_id":"1661190965","tag":{"amenity":"waste_basket"}},"type":"Feature"},
	{"geometry":{"coordinates":[6.838693,47.483671],"type":"Point"},"properties":{"osm_id":"1661191179","tag":{"amenity":"waste_basket"}},"type":"Feature"},
	{"geometry":{"coordinates":[6.85346,47.483641],"type":"Point"},"properties":{"osm_id":"1685210234","tag":{"amenity":"recycling","recycling:glass_bottles":"yes","recycling:paper":"yes","recycling_type":"container"}},"type":"Feature"},
	{"geometry":{"coordinates":[6.816959,47.481791],"type":"Point"},"properties":{"name":"D\u00c3\u00a9cheterie","osm_id":"2005595655","tag":{"amenity":"recycling","recycling_type":"centre"}},"type":"Feature"},
	{"geometry":{"coordinates":[6.809305,47.486824],"type":"Point"},"properties":{"osm_id":"2255927090","tag":{"amenity":"recycling"}},"type":"Feature"},
	{"geometry":{"coordinates":[6.853895,47.499378],"type":"Point"},"properties":{"osm_id":"2276492364","tag":{"amenity":"recycling"}},"type":"Feature"},
	{"geometry":{"coordinates":[6.782178,47.463933],"type":"Point"},"properties":{"osm_id":"5562512722","tag":{"amenity":"waste_basket"}},"type":"Feature"},
	{"geometry":{"coordinates":[6.828256,47.503392],"type":"Point"},"properties":{"osm_id":"6320258623","tag":{"amenity":"recycling","recycling_type":"container"}},"type":"Feature"},
	{"geometry":{"coordinates":[6.791161,47.484061],"type":"Point"},"properties":{"osm_id":"6497252675","tag":{"amenity":"recycling","recycling_type":"container"}},"type":"Feature"},
	{"geometry":{"coordinates":[6.842187,47.500116],"type":"Point"},"properties":{"osm_id":"6504157678","tag":{"amenity":"recycling","recycling_type":"container"}},"type":"Feature"},
	{"geometry":{"coordinates":[6.80278,47.507708],"type":"Point"},"properties":{"osm_id":"6734630955","tag":{"amenity":"recycling","recycling_type":"container"}},"type":"Feature"},
	{"geometry":{"coordinates":[6.772112,47.500649],"type":"Point"},"properties":{"osm_id":"7093171270","tag":{"amenity":"waste_basket"}},"type":"Feature"},
	{"geometry":{"coordinates":[6.773668,47.500792],"type":"Point"},"properties":{"osm_id":"7149698398","tag":{"amenity":"waste_basket"}},"type":"Feature"},
	{"geometry":{"coordinates":[6.787642,47.505933],"type":"Point"},"properties":{"osm_id":"7367140642","tag":{"amenity":"recycling","recycling_type":"container"}},"type":"Feature"},
	{"geometry":{"coordinates":[6.783078,47.50593],"type":"Point"},"properties":{"osm_id":"7367144890","tag":{"amenity":"waste_basket"}},"type":"Feature"},
	{"geometry":{"coordinates":[6.794599,47.510593],"type":"Point"},"properties":{"osm_id":"7367316581","tag":{"amenity":"recycling","recycling_type":"container"}},"type":"Feature"},
	{"geometry":{"coordinates":[6.7966,47.515342],"type":"Point"},"properties":{"osm_id":"7379324402","tag":{"amenity":"recycling","recycling_type":"container"}},"type":"Feature"},
	{"geometry":{"coordinates":[6.833714,47.467862],"type":"Point"},"properties":{"osm_id":"7475759932","tag":{"amenity":"recycling","recycling_type":"container"}},"type":"Feature"},
	{"geometry":{"coordinates":[6.798195,47.49948],"type":"Point"},"properties":{"osm_id":"7490343258","tag":{"amenity":"recycling","recycling_type":"container"}},"type":"Feature"},
	{"geometry":{"coordinates":[6.849164,47.49686],"type":"Point"},"properties":{"osm_id":"7490484201","tag":{"amenity":"recycling","recycling_type":"container"}},"type":"Feature"},
	{"geometry":{"coordinates":[6.782347,47.482875],"type":"Point"},"properties":{"osm_id":"7500867057","tag":{"amenity":"recycling","recycling_type":"container"}},"type":"Feature"},
	{"geometry":{"coordinates":[6.783826,47.514342],"type":"Point"},"properties":{"osm_id":"7501002175","tag":{"amenity":"recycling","recycling_type":"container"}},"type":"Feature"},
	{"geometry":{"coordinates":[6.780093,47.516311],"type":"Point"},"properties":{"osm_id":"7501567644","tag":{"amenity":"recycling","recycling_type":"container"}},"type":"Feature"},
	{"geometry":{"coordinates":[6.785169,47.516834],"type":"Point"},"properties":{"osm_id":"7501570804","tag":{"amenity":"recycling","recycling_type":"container"}},"type":"Feature"},
	{"geometry":{"coordinates":[6.855221,47.504945],"type":"Point"},"properties":{"osm_id":"7555652138","tag":{"amenity":"recycling","recycling_type":"container"}},"type":"Feature"},
	{"geometry":{"coordinates":[6.828749,47.503611],"type":"Point"},"properties":{"osm_id":"7555725696","tag":{"amenity":"waste_basket"}},"type":"Feature"},
	{"geometry":{"coordinates":[6.779031,47.509374],"type":"Point"},"properties":{"osm_id":"7595489314","tag":{"amenity":"recycling","recycling_type":"container"}},"type":"Feature"}
]
}
