{
"type": "FeatureCollection",
"features": [
	{"geometry":{"coordinates":[6.824048,47.105017],"type":"Point"},"properties":{"osm_id":"260747130","tag":{"amenity":"recycling","location":"underground","recycling:aluminium":"yes","recycling:batteries":"yes","recycling:clothes":"yes","recycling:cooking_oil":"yes","recycling:engine_oil":"yes","recycling:glass":"yes","recycling:paper":"yes","recycling:sheet_metal":"yes","recycling_type":"container"}},"type":"Feature"},
	{"geometry":{"coordinates":[6.829164,47.108918],"type":"Point"},"properties":{"osm_id":"260747131","tag":{"amenity":"recycling","recycling:aluminium":"yes","recycling:cans":"yes","recycling:clothes":"yes","recycling:engine_oil":"yes","recycling:glass":"no","recycling:glass_bottles":"yes","recycling:paper":"yes","recycling:vegetable_oil":"yes","recycling:waste":"yes","recycling:white_alloy":"yes","recycling_type":"container"}},"type":"Feature"},
	{"geometry":{"coordinates":[6.769074,47.105935],"type":"Point"},"properties":{"osm_id":"305737001","tag":{"amenity":"recycling","recycling:glass":"yes","recycling_type":"container"}},"type":"Feature"},
	{"geometry":{"coordinates":[6.828765,47.110527],"type":"Point"},"properties":{"osm_id":"375982398","tag":{"amenity":"recycling","location":"overground","recycling:plastic_bottles":"yes","recycling_type":"container"}},"type":"Feature"},
	{"geometry":{"coordinates":[6.831685,47.104066],"type":"Point"},"properties":{"osm_id":"415860463","tag":{"amenity":"recycling","location":"underground","recycling:cans":"no","recycling:clothes":"yes","recycling:glass":"yes","recycling:paper":"yes","recycling:scrap_metal":"yes","recycling_type":"container"}},"type":"Feature"},
	{"geometry":{"coordinates":[6.837299,47.106705],"type":"Point"},"properties":{"barrier":"bump_gate","osm_id":"417093901","tag":{"bicycle":"no","foot":"no","motorcar":"no"}},"type":"Feature"},
	{"geometry":{"coordinates":[6.789401,47.137285],"type":"Point"},"properties":{"osm_id":"5913251448","tag":{"amenity":"recycling"}},"type":"Feature"},
	{"geometry":{"coordinates":[6.823903,47.107992],"type":"Point"},"properties":{"osm_id":"6424113616","tag":{"amenity":"waste_disposal","waste":"trash"}},"type":"Feature"},
	{"geometry":{"coordinates":[6.823655,47.107515],"type":"Point"},"properties":{"osm_id":"6424113654","tag":{"amenity":"waste_disposal","waste":"trash"}},"type":"Feature"},
	{"geometry":{"coordinates":[6.830268,47.105963],"type":"Point"},"properties":{"osm_id":"6910585509","tag":{"amenity":"recycling","location":"underground","recycling:glass":"no","recycling:paper":"no","recycling:waste":"yes","recycling_type":"container"}},"type":"Feature"},
	{"geometry":{"coordinates":[6.842875,47.104194],"type":"Point"},"properties":{"osm_id":"6910585514","tag":{"amenity":"recycling","recycling:waste":"yes","recycling_type":"container"}},"type":"Feature"},
	{"geometry":{"coordinates":[6.842011,47.106096],"type":"Point"},"properties":{"osm_id":"6910585525","tag":{"amenity":"recycling","recycling:waste":"yes","recycling_type":"container"}},"type":"Feature"},
	{"geometry":{"coordinates":[6.838227,47.104444],"type":"Point"},"properties":{"osm_id":"6910585530","tag":{"amenity":"waste_disposal","recycling:waste":"yes","waste":"trash"}},"type":"Feature"},
	{"geometry":{"coordinates":[6.834706,47.105092],"type":"Point"},"properties":{"osm_id":"6910585557","tag":{"amenity":"recycling","recycling:waste":"yes","recycling_type":"container"}},"type":"Feature"},
	{"geometry":{"coordinates":[6.839653,47.14925],"type":"Point"},"properties":{"osm_id":"7668045501","tag":{"amenity":"waste_disposal","waste":"trash"}},"type":"Feature"},
	{"geometry":{"coordinates":[6.821383,47.106188],"type":"Point"},"properties":{"osm_id":"8018601306","tag":{"amenity":"recycling","recycling:plastic_bottles":"yes","recycling_type":"container"}},"type":"Feature"},
	{"geometry":{"coordinates":[6.822763,47.110232],"type":"Point"},"properties":{"osm_id":"8120433874","tag":{"amenity":"waste_disposal"}},"type":"Feature"},
	{"geometry":{"coordinates":[6.823087,47.113253],"type":"Point"},"properties":{"osm_id":"8120433877","tag":{"amenity":"waste_basket"}},"type":"Feature"},
	{"geometry":{"coordinates":[6.811207,47.108526],"type":"Point"},"properties":{"osm_id":"8120644935","tag":{"amenity":"waste_disposal"}},"type":"Feature"},
	{"geometry":{"coordinates":[6.824961,47.112129],"type":"Point"},"properties":{"osm_id":"8120657451","tag":{"amenity":"waste_disposal","waste":"trash"}},"type":"Feature"},
	{"geometry":{"coordinates":[6.826658,47.110215],"type":"Point"},"properties":{"osm_id":"8120657481","tag":{"amenity":"waste_disposal","waste":"trash"}},"type":"Feature"},
	{"geometry":{"coordinates":[6.822398,47.108579],"type":"Point"},"properties":{"osm_id":"8120657482","tag":{"amenity":"waste_disposal","waste":"trash"}},"type":"Feature"},
	{"geometry":{"coordinates":[6.827774,47.111169],"type":"Point"},"properties":{"osm_id":"8120657487","tag":{"amenity":"waste_disposal"}},"type":"Feature"},
	{"geometry":{"coordinates":[6.826561,47.11257],"type":"Point"},"properties":{"osm_id":"8120657492","tag":{"amenity":"waste_disposal"}},"type":"Feature"},
	{"geometry":{"coordinates":[6.828987,47.108805],"type":"Point"},"properties":{"osm_id":"8137302029","tag":{"amenity":"waste_disposal","waste":"trash"}},"type":"Feature"},
	{"geometry":{"coordinates":[6.830831,47.107633],"type":"Point"},"properties":{"osm_id":"8140040895","tag":{"amenity":"waste_disposal","waste":"trash"}},"type":"Feature"},
	{"geometry":{"coordinates":[6.833787,47.100613],"type":"Point"},"properties":{"osm_id":"8147457416","tag":{"amenity":"waste_disposal","waste":"trash"}},"type":"Feature"},
	{"geometry":{"coordinates":[6.825989,47.111884],"type":"Point"},"properties":{"osm_id":"8147469456","tag":{"amenity":"waste_disposal","waste":"trash"}},"type":"Feature"},
	{"geometry":{"coordinates":[6.834361,47.115931],"type":"Point"},"properties":{"osm_id":"8150935167","tag":{"amenity":"waste_disposal","waste":"trash"}},"type":"Feature"},
	{"geometry":{"coordinates":[6.835706,47.114189],"type":"Point"},"properties":{"osm_id":"8150935168","tag":{"amenity":"waste_disposal","waste":"trash"}},"type":"Feature"},
	{"geometry":{"coordinates":[6.815939,47.106424],"type":"Point"},"properties":{"osm_id":"8761513568","tag":{"amenity":"waste_basket"}},"type":"Feature"},
	{"geometry":{"coordinates":[6.822712,47.115886],"type":"Point"},"properties":{"osm_id":"8761513569","tag":{"amenity":"waste_basket"}},"type":"Feature"},
	{"geometry":{"coordinates":[6.830938,47.111957],"type":"Point"},"properties":{"osm_id":"8806934962","tag":{"amenity":"waste_disposal","waste":"trash"}},"type":"Feature"},
	{"geometry":{"coordinates":[6.829158,47.10517],"type":"Point"},"properties":{"osm_id":"8807209810","tag":{"amenity":"waste_disposal","waste":"trash"}},"type":"Feature"},
	{"geometry":{"coordinates":[6.82887,47.100308],"type":"Point"},"properties":{"osm_id":"8808412852","tag":{"amenity":"waste_disposal","waste":"trash"}},"type":"Feature"},
	{"geometry":{"coordinates":[6.838319,47.103237],"type":"Point"},"properties":{"osm_id":"8979541529","tag":{"amenity":"waste_disposal","waste":"trash"}},"type":"Feature"},
	{"geometry":{"coordinates":[6.82913,47.106514],"type":"Point"},"properties":{"osm_id":"8983936371","tag":{"amenity":"waste_disposal","waste":"trash"}},"type":"Feature"},
	{"geometry":{"coordinates":[6.837969,47.101129],"type":"Point"},"properties":{"osm_id":"8985498685","tag":{"amenity":"waste_basket","waste":"dog_excrement"}},"type":"Feature"},
	{"geometry":{"coordinates":[6.82658,47.104819],"type":"Point"},"properties":{"osm_id":"8985498715","tag":{"amenity":"waste_disposal","waste":"trash"}},"type":"Feature"},
	{"geometry":{"coordinates":[6.827934,47.102737],"type":"Point"},"properties":{"osm_id":"8988143327","tag":{"amenity":"waste_disposal","waste":"trash"}},"type":"Feature"},
	{"geometry":{"coordinates":[6.8304,47.101927],"type":"Point"},"properties":{"osm_id":"8988949188","tag":{"amenity":"waste_disposal","waste":"trash"}},"type":"Feature"},
	{"geometry":{"coordinates":[6.832538,47.110695],"type":"Point"},"properties":{"osm_id":"9124792152","tag":{"amenity":"waste_disposal","waste":"trash"}},"type":"Feature"}
]
}
