{
"type": "FeatureCollection",
"features": [
	{"geometry":{"coordinates":[6.853342,46.946789],"type":"Point"},"properties":{"osm_id":"426930926","tag":{"amenity":"recycling","recycling:batteries":"yes","recycling:cans":"yes","recycling:clothes":"yes","recycling:glass":"yes","recycling:paper":"yes"}},"type":"Feature"},
	{"geometry":{"coordinates":[6.846788,46.96824],"type":"Point"},"properties":{"osm_id":"442338919","tag":{"amenity":"recycling","recycling:clothes":"yes","recycling:glass":"yes"}},"type":"Feature"},
	{"geometry":{"coordinates":[6.840139,46.949328],"type":"Point"},"properties":{"osm_id":"469627324","tag":{"amenity":"recycling"}},"type":"Feature"},
	{"geometry":{"coordinates":[6.824406,46.95541],"type":"Point"},"properties":{"osm_id":"471195319","tag":{"amenity":"recycling"}},"type":"Feature"},
	{"geometry":{"coordinates":[6.844128,46.944281],"type":"Point"},"properties":{"osm_id":"471608809","tag":{"amenity":"recycling","recycling:cans":"yes","recycling:clothes":"yes","recycling:glass":"yes","recycling:paper":"yes"}},"type":"Feature"},
	{"geometry":{"coordinates":[6.815037,46.934456],"type":"Point"},"properties":{"osm_id":"1299485862","tag":{"amenity":"recycling","recycling_type":"centre"}},"type":"Feature"},
	{"geometry":{"coordinates":[6.812816,46.928581],"type":"Point"},"properties":{"osm_id":"1299485863","tag":{"amenity":"recycling"}},"type":"Feature"},
	{"geometry":{"coordinates":[6.817655,46.932581],"type":"Point"},"properties":{"osm_id":"1299485864","tag":{"amenity":"recycling"}},"type":"Feature"},
	{"geometry":{"coordinates":[6.841154,46.94795],"type":"Point"},"properties":{"name":"D\u00c3\u00a9chetterie intercommunale","osm_id":"1729156800","tag":{"amenity":"recycling"}},"type":"Feature"},
	{"geometry":{"coordinates":[6.775434,46.959745],"type":"Point"},"properties":{"osm_id":"2712991618","tag":{"amenity":"recycling","recycling_type":"container"}},"type":"Feature"},
	{"geometry":{"coordinates":[6.838922,46.949451],"type":"Point"},"properties":{"osm_id":"6844570343","tag":{"amenity":"waste_basket"}},"type":"Feature"},
	{"geometry":{"coordinates":[6.837913,46.949335],"type":"Point"},"properties":{"osm_id":"6844578683","tag":{"amenity":"waste_basket"}},"type":"Feature"},
	{"geometry":{"coordinates":[6.814685,46.970693],"type":"Point"},"properties":{"osm_id":"7799192024","tag":{"amenity":"waste_basket"}},"type":"Feature"},
	{"geometry":{"coordinates":[6.810946,46.928986],"type":"Point"},"properties":{"osm_id":"7813915765","tag":{"amenity":"waste_basket"}},"type":"Feature"},
	{"geometry":{"coordinates":[6.83355,46.948264],"type":"Point"},"properties":{"osm_id":"7813925485","tag":{"amenity":"waste_basket"}},"type":"Feature"},
	{"geometry":{"coordinates":[6.836041,46.952056],"type":"Point"},"properties":{"osm_id":"7813925491","tag":{"amenity":"waste_basket"}},"type":"Feature"},
	{"geometry":{"coordinates":[6.809255,46.931768],"type":"Point"},"properties":{"osm_id":"7813961454","tag":{"amenity":"waste_basket"}},"type":"Feature"},
	{"geometry":{"coordinates":[6.811556,46.930139],"type":"Point"},"properties":{"osm_id":"7813961886","tag":{"amenity":"waste_basket"}},"type":"Feature"}
]
}
