{
"type": "FeatureCollection",
"features": [
	{"geometry":{"coordinates":[6.835709,46.828882],"type":"Point"},"properties":{"osm_id":"498750429","tag":{"amenity":"recycling"}},"type":"Feature"},
	{"geometry":{"coordinates":[6.848792,46.816889],"type":"Point"},"properties":{"osm_id":"3702005834","tag":{"amenity":"recycling"}},"type":"Feature"},
	{"geometry":{"coordinates":[6.82217,46.823755],"type":"Point"},"properties":{"name":"Composti\u00c3\u00a8re Le P\u00c3\u00a9chau","osm_id":"8836971856","tag":{"addr:city":"Ch\u00c3\u00a2bles","addr:housenumber":"91","addr:postcode":"1474","addr:street":"Route de Mussillens","amenity":"recycling","opening_hours":"Mo-Sa 06:30-19:00","phone":"+41 26 663 56 60","recycling:vegetal":"yes","recycling_type":"centre","website":"https://www.lepechau.ch/compostiere/"}},"type":"Feature"},
	{"geometry":{"coordinates":[6.843783,46.850518],"type":"Point"},"properties":{"osm_id":"8846399418","tag":{"amenity":"waste_basket"}},"type":"Feature"},
	{"geometry":{"coordinates":[6.842703,46.851334],"type":"Point"},"properties":{"osm_id":"8846408317","tag":{"amenity":"waste_basket"}},"type":"Feature"},
	{"geometry":{"coordinates":[6.84313,46.844553],"type":"Point"},"properties":{"osm_id":"8848931685","tag":{"amenity":"waste_basket"}},"type":"Feature"},
	{"geometry":{"coordinates":[6.843477,46.851646],"type":"Point"},"properties":{"osm_id":"8848951675","tag":{"amenity":"waste_basket"}},"type":"Feature"},
	{"geometry":{"coordinates":[6.788534,46.818603],"type":"Point"},"properties":{"osm_id":"8872934240","tag":{"amenity":"waste_basket"}},"type":"Feature"},
	{"geometry":{"coordinates":[6.77376,46.80922],"type":"Point"},"properties":{"osm_id":"8911221017","tag":{"amenity":"waste_basket"}},"type":"Feature"},
	{"geometry":{"coordinates":[6.845398,46.846551],"type":"Point"},"properties":{"osm_id":"8911391343","tag":{"amenity":"recycling","location":"underground","recycling_type":"container"}},"type":"Feature"},
	{"geometry":{"coordinates":[6.845418,46.846565],"type":"Point"},"properties":{"osm_id":"8911391344","tag":{"amenity":"recycling","location":"underground","recycling_type":"container"}},"type":"Feature"}
]
}
