{
"type": "FeatureCollection",
"features": [
	{"geometry":{"coordinates":[6.853257,46.458762],"type":"Point"},"properties":{"osm_id":"362766295","tag":{"amenity":"recycling","recycling:batteries":"no","recycling:cans":"yes","recycling:clothes":"no","recycling:glass":"yes","recycling:paper":"no","recycling:plastic_bottles":"yes","recycling:scrap_metal":"no"}},"type":"Feature"},
	{"geometry":{"coordinates":[6.843494,46.466497],"type":"Point"},"properties":{"osm_id":"362767066","tag":{"amenity":"recycling","recycling:batteries":"no","recycling:cans":"no","recycling:clothes":"no","recycling:glass":"yes","recycling:paper":"yes","recycling:scrap_metal":"no"}},"type":"Feature"},
	{"geometry":{"coordinates":[6.85125,46.469683],"type":"Point"},"properties":{"osm_id":"364055078","tag":{"amenity":"recycling","recycling:batteries":"no","recycling:cans":"yes","recycling:clothes":"no","recycling:glass":"yes","recycling:paper":"no","recycling:plastic_bottles":"yes","recycling:scrap_metal":"no"}},"type":"Feature"},
	{"geometry":{"coordinates":[6.85009,46.466757],"type":"Point"},"properties":{"osm_id":"364055244","tag":{"amenity":"recycling","recycling:batteries":"no","recycling:cans":"yes","recycling:clothes":"no","recycling:glass":"yes","recycling:paper":"no","recycling:plastic_bottles":"yes","recycling:scrap_metal":"no"}},"type":"Feature"},
	{"geometry":{"coordinates":[6.84856,46.466376],"type":"Point"},"properties":{"osm_id":"364055245","tag":{"amenity":"recycling","recycling:batteries":"no","recycling:cans":"yes","recycling:clothes":"no","recycling:glass":"yes","recycling:paper":"no","recycling:plastic_bottles":"yes","recycling:scrap_metal":"no"}},"type":"Feature"},
	{"geometry":{"coordinates":[6.848205,46.463603],"type":"Point"},"properties":{"osm_id":"364055384","tag":{"amenity":"recycling","location":"overground","recycling:batteries":"yes","recycling:cans":"yes","recycling:clothes":"no","recycling:glass":"yes","recycling:paper":"no","recycling:plastic_bottles":"yes","recycling:scrap_metal":"no","recycling_type":"container"}},"type":"Feature"},
	{"geometry":{"coordinates":[6.846403,46.459758],"type":"Point"},"properties":{"osm_id":"368294443","tag":{"amenity":"recycling","location":"overground","recycling:batteries":"yes","recycling:cans":"yes","recycling:glass":"yes","recycling:green_waste":"yes","recycling:plastic_bottles":"yes","recycling:waste_oil":"yes","recycling_type":"container"}},"type":"Feature"},
	{"geometry":{"coordinates":[6.849668,46.458836],"type":"Point"},"properties":{"osm_id":"368294483","tag":{"amenity":"recycling","recycling:batteries":"yes","recycling:cans":"yes","recycling:glass":"yes","recycling:plastic_bottles":"yes"}},"type":"Feature"},
	{"geometry":{"coordinates":[6.847006,46.465255],"type":"Point"},"properties":{"osm_id":"369779932","tag":{"amenity":"recycling","recycling:batteries":"no","recycling:cans":"yes","recycling:clothes":"no","recycling:glass":"yes","recycling:oil":"yes","recycling:paper":"no","recycling:plastic_bottles":"yes","recycling:scrap_metal":"no"}},"type":"Feature"},
	{"geometry":{"coordinates":[6.837276,46.464385],"type":"Point"},"properties":{"osm_id":"370382416","tag":{"amenity":"recycling","recycling:batteries":"yes","recycling:cans":"yes","recycling:glass":"yes","recycling:green_waste":"yes"}},"type":"Feature"},
	{"geometry":{"coordinates":[6.836948,46.462125],"type":"Point"},"properties":{"osm_id":"370382787","tag":{"amenity":"recycling","recycling:glass":"yes"}},"type":"Feature"},
	{"geometry":{"coordinates":[6.838477,46.470997],"type":"Point"},"properties":{"osm_id":"412723838","tag":{"amenity":"recycling","recycling:glass":"yes","recycling:oil":"yes"}},"type":"Feature"},
	{"geometry":{"coordinates":[6.855466,46.458443],"type":"Point"},"properties":{"osm_id":"470920905","tag":{"amenity":"recycling","recycling:cans":"yes","recycling:glass":"yes","recycling:plastic_bottles":"yes"}},"type":"Feature"},
	{"geometry":{"coordinates":[6.854972,46.461083],"type":"Point"},"properties":{"osm_id":"471293402","tag":{"amenity":"recycling","recycling:aluminium":"yes","recycling:glass":"yes","recycling:green_waste":"yes","recycling_type":"container"}},"type":"Feature"},
	{"geometry":{"coordinates":[6.782163,46.474475],"type":"Point"},"properties":{"osm_id":"1617084946","tag":{"amenity":"recycling"}},"type":"Feature"},
	{"geometry":{"coordinates":[6.841051,46.466791],"type":"Point"},"properties":{"osm_id":"2543098415","tag":{"amenity":"waste_disposal"}},"type":"Feature"},
	{"geometry":{"coordinates":[6.839264,46.46782],"type":"Point"},"properties":{"osm_id":"2543119112","tag":{"amenity":"recycling","recycling:glass":"yes"}},"type":"Feature"},
	{"geometry":{"coordinates":[6.837825,46.461252],"type":"Point"},"properties":{"osm_id":"2585140578","tag":{"amenity":"recycling","recycling:cans":"yes","recycling:glass":"yes"}},"type":"Feature"},
	{"geometry":{"coordinates":[6.849702,46.477058],"type":"Point"},"properties":{"osm_id":"4325993679","tag":{"amenity":"waste_disposal"}},"type":"Feature"},
	{"geometry":{"coordinates":[6.842139,46.477994],"type":"Point"},"properties":{"osm_id":"4326019959","tag":{"amenity":"recycling","recycling:paper":"yes","recycling_type":"container"}},"type":"Feature"},
	{"geometry":{"coordinates":[6.842125,46.478029],"type":"Point"},"properties":{"osm_id":"4326019960","tag":{"amenity":"waste_disposal"}},"type":"Feature"},
	{"geometry":{"coordinates":[6.841647,46.478918],"type":"Point"},"properties":{"osm_id":"4326019961","tag":{"amenity":"recycling","recycling:paper":"yes","recycling_type":"container"}},"type":"Feature"},
	{"geometry":{"coordinates":[6.841616,46.478945],"type":"Point"},"properties":{"osm_id":"4326019962","tag":{"amenity":"waste_disposal"}},"type":"Feature"},
	{"geometry":{"coordinates":[6.841864,46.479161],"type":"Point"},"properties":{"osm_id":"4326019963","tag":{"amenity":"recycling","recycling:glass":"yes","recycling_type":"container"}},"type":"Feature"},
	{"geometry":{"coordinates":[6.84494,46.481911],"type":"Point"},"properties":{"osm_id":"4326019964","tag":{"amenity":"recycling","recycling:paper":"yes","recycling_type":"container"}},"type":"Feature"},
	{"geometry":{"coordinates":[6.844984,46.481905],"type":"Point"},"properties":{"osm_id":"4326019965","tag":{"amenity":"waste_disposal"}},"type":"Feature"},
	{"geometry":{"coordinates":[6.843699,46.483603],"type":"Point"},"properties":{"osm_id":"4326019966","tag":{"amenity":"waste_disposal"}},"type":"Feature"},
	{"geometry":{"coordinates":[6.849011,46.4838],"type":"Point"},"properties":{"osm_id":"4326019967","tag":{"amenity":"recycling","recycling:paper":"yes","recycling_type":"container"}},"type":"Feature"},
	{"geometry":{"coordinates":[6.848999,46.483823],"type":"Point"},"properties":{"osm_id":"4326019968","tag":{"amenity":"waste_disposal"}},"type":"Feature"},
	{"geometry":{"coordinates":[6.846274,46.484029],"type":"Point"},"properties":{"osm_id":"4326019969","tag":{"amenity":"recycling","recycling:paper":"yes","recycling_type":"container"}},"type":"Feature"},
	{"geometry":{"coordinates":[6.848504,46.484335],"type":"Point"},"properties":{"osm_id":"4326019970","tag":{"amenity":"recycling","recycling:paper":"yes","recycling_type":"container"}},"type":"Feature"},
	{"geometry":{"coordinates":[6.854191,46.454445],"type":"Point"},"properties":{"osm_id":"5052076522","tag":{"amenity":"recycling","recycling_type":"centre"}},"type":"Feature"},
	{"geometry":{"coordinates":[6.77892,46.481409],"type":"Point"},"properties":{"osm_id":"5402509119","tag":{"amenity":"waste_disposal"}},"type":"Feature"},
	{"geometry":{"coordinates":[6.777146,46.481132],"type":"Point"},"properties":{"osm_id":"5402509120","tag":{"amenity":"recycling","recycling:glass":"yes","recycling_type":"container"}},"type":"Feature"},
	{"geometry":{"coordinates":[6.841378,46.467464],"type":"Point"},"properties":{"osm_id":"6289072280","tag":{"amenity":"recycling","recycling:organic":"yes","recycling_type":"bin"}},"type":"Feature"},
	{"geometry":{"coordinates":[6.841342,46.467509],"type":"Point"},"properties":{"osm_id":"6289072281","tag":{"amenity":"recycling","recycling:glass":"yes","recycling_type":"underfloor-container"}},"type":"Feature"},
	{"geometry":{"coordinates":[6.841322,46.467529],"type":"Point"},"properties":{"osm_id":"6289072282","tag":{"amenity":"recycling","recycling:aluminium":"yes","recycling_type":"bin"}},"type":"Feature"},
	{"geometry":{"coordinates":[6.841411,46.467448],"type":"Point"},"properties":{"osm_id":"6290722111","tag":{"amenity":"recycling","recycling:textiles":"yes","recycling_type":"container"}},"type":"Feature"},
	{"geometry":{"coordinates":[6.838837,46.466617],"type":"Point"},"properties":{"osm_id":"6881394675","tag":{"entrance":"yes"}},"type":"Feature"},
	{"geometry":{"coordinates":[6.843754,46.460086],"type":"Point"},"properties":{"osm_id":"7121655725","tag":{"amenity":"waste_basket"}},"type":"Feature"},
	{"geometry":{"coordinates":[6.843005,46.460194],"type":"Point"},"properties":{"osm_id":"7121798513","tag":{"amenity":"waste_basket","location":"overground"}},"type":"Feature"},
	{"geometry":{"coordinates":[6.843003,46.460228],"type":"Point"},"properties":{"osm_id":"7121800799","tag":{"amenity":"waste_basket","location":"overground"}},"type":"Feature"},
	{"geometry":{"coordinates":[6.842147,46.460475],"type":"Point"},"properties":{"osm_id":"7121803504","tag":{"amenity":"recycling","location":"overground","recycling:cans":"yes","recycling:clothes":"yes","recycling:organic":"yes"}},"type":"Feature"},
	{"geometry":{"coordinates":[6.842368,46.462933],"type":"Point"},"properties":{"osm_id":"7136744777","tag":{"amenity":"waste_basket"}},"type":"Feature"},
	{"geometry":{"coordinates":[6.842468,46.46246],"type":"Point"},"properties":{"osm_id":"7136753796","tag":{"amenity":"waste_basket"}},"type":"Feature"},
	{"geometry":{"coordinates":[6.842668,46.462582],"type":"Point"},"properties":{"osm_id":"7136756992","tag":{"amenity":"waste_basket"}},"type":"Feature"},
	{"geometry":{"coordinates":[6.844426,46.462418],"type":"Point"},"properties":{"osm_id":"7138675738","tag":{"amenity":"waste_basket"}},"type":"Feature"},
	{"geometry":{"coordinates":[6.844287,46.462163],"type":"Point"},"properties":{"osm_id":"7138686693","tag":{"amenity":"waste_basket"}},"type":"Feature"},
	{"geometry":{"coordinates":[6.843784,46.461867],"type":"Point"},"properties":{"osm_id":"7165559261","tag":{"amenity":"waste_basket"}},"type":"Feature"},
	{"geometry":{"coordinates":[6.845201,46.460261],"type":"Point"},"properties":{"osm_id":"7183829825","tag":{"amenity":"recycling","level":"-1","location":"overground","recycling:PET":"yes","recycling:batteries":"yes","recycling:plastic_bottles":"yes","recycling_type":"container"}},"type":"Feature"},
	{"geometry":{"coordinates":[6.845328,46.458006],"type":"Point"},"properties":{"osm_id":"7434392193","tag":{"amenity":"waste_basket","waste":"trash"}},"type":"Feature"},
	{"geometry":{"coordinates":[6.84582,46.457931],"type":"Point"},"properties":{"osm_id":"7434392197","tag":{"amenity":"waste_basket","waste":"trash"}},"type":"Feature"},
	{"geometry":{"coordinates":[6.845644,46.458111],"type":"Point"},"properties":{"osm_id":"7434392201","tag":{"amenity":"waste_basket"}},"type":"Feature"},
	{"geometry":{"coordinates":[6.840807,46.458789],"type":"Point"},"properties":{"osm_id":"7474408040","tag":{"amenity":"waste_basket"}},"type":"Feature"},
	{"geometry":{"coordinates":[6.843889,46.460625],"type":"Point"},"properties":{"osm_id":"7477834931","tag":{"amenity":"recycling","location":"underground","recycling:cartons":"yes","recycling:paper":"yes","recycling_type":"container"}},"type":"Feature"},
	{"geometry":{"coordinates":[6.840052,46.460212],"type":"Point"},"properties":{"osm_id":"7484460547","tag":{"amenity":"waste_basket"}},"type":"Feature"},
	{"geometry":{"coordinates":[6.840178,46.460723],"type":"Point"},"properties":{"osm_id":"7484461738","tag":{"amenity":"waste_basket"}},"type":"Feature"},
	{"geometry":{"coordinates":[6.84281,46.459325],"type":"Point"},"properties":{"osm_id":"7505315942","tag":{"amenity":"waste_basket"}},"type":"Feature"},
	{"geometry":{"coordinates":[6.844214,46.458344],"type":"Point"},"properties":{"osm_id":"7505337143","tag":{"amenity":"waste_basket"}},"type":"Feature"},
	{"geometry":{"coordinates":[6.851764,46.457132],"type":"Point"},"properties":{"osm_id":"7505345458","tag":{"amenity":"waste_basket"}},"type":"Feature"},
	{"geometry":{"coordinates":[6.851777,46.456886],"type":"Point"},"properties":{"osm_id":"7505364808","tag":{"amenity":"waste_basket"}},"type":"Feature"},
	{"geometry":{"coordinates":[6.847958,46.458686],"type":"Point"},"properties":{"osm_id":"7505373332","tag":{"amenity":"waste_basket"}},"type":"Feature"},
	{"geometry":{"coordinates":[6.848078,46.45852],"type":"Point"},"properties":{"osm_id":"7505373683","tag":{"amenity":"waste_basket"}},"type":"Feature"},
	{"geometry":{"coordinates":[6.847098,46.458557],"type":"Point"},"properties":{"osm_id":"7505407359","tag":{"amenity":"waste_basket"}},"type":"Feature"},
	{"geometry":{"coordinates":[6.846534,46.458888],"type":"Point"},"properties":{"osm_id":"7505407360","tag":{"amenity":"waste_basket"}},"type":"Feature"},
	{"geometry":{"coordinates":[6.847093,46.458803],"type":"Point"},"properties":{"osm_id":"7505411564","tag":{"amenity":"waste_basket"}},"type":"Feature"},
	{"geometry":{"coordinates":[6.844671,46.458982],"type":"Point"},"properties":{"osm_id":"7505413147","tag":{"amenity":"waste_basket"}},"type":"Feature"},
	{"geometry":{"coordinates":[6.84252,46.458986],"type":"Point"},"properties":{"osm_id":"7505547246","tag":{"amenity":"waste_basket"}},"type":"Feature"},
	{"geometry":{"coordinates":[6.84187,46.460942],"type":"Point"},"properties":{"osm_id":"7525300016","tag":{"amenity":"waste_basket"}},"type":"Feature"},
	{"geometry":{"coordinates":[6.844069,46.459062],"type":"Point"},"properties":{"osm_id":"7588042987","tag":{"amenity":"waste_basket"}},"type":"Feature"},
	{"geometry":{"coordinates":[6.84625,46.458943],"type":"Point"},"properties":{"osm_id":"7588088592","tag":{"amenity":"waste_basket"}},"type":"Feature"},
	{"geometry":{"coordinates":[6.842574,46.460737],"type":"Point"},"properties":{"osm_id":"7588935971","tag":{"amenity":"waste_basket"}},"type":"Feature"},
	{"geometry":{"coordinates":[6.844862,46.460211],"type":"Point"},"properties":{"osm_id":"7599869787","tag":{"amenity":"waste_basket"}},"type":"Feature"},
	{"geometry":{"coordinates":[6.836077,46.468576],"type":"Point"},"properties":{"osm_id":"7603237699","tag":{"amenity":"waste_basket"}},"type":"Feature"},
	{"geometry":{"coordinates":[6.836061,46.468711],"type":"Point"},"properties":{"osm_id":"7603272310","tag":{"amenity":"recycling","recycling:clothes":"yes"}},"type":"Feature"},
	{"geometry":{"coordinates":[6.844756,46.459229],"type":"Point"},"properties":{"osm_id":"7606927690","tag":{"amenity":"waste_basket"}},"type":"Feature"},
	{"geometry":{"coordinates":[6.842939,46.461397],"type":"Point"},"properties":{"osm_id":"7731908377","tag":{"amenity":"waste_basket"}},"type":"Feature"},
	{"geometry":{"coordinates":[6.842275,46.460471],"type":"Point"},"properties":{"osm_id":"7781188369","tag":{"amenity":"recycling","location":"underground","recycling:glass_bottles":"yes","recycling:waste":"yes","recycling_type":"container"}},"type":"Feature"}
]
}
