{
"type": "FeatureCollection",
"features": [
	{"geometry":{"coordinates":[6.853408,46.383372],"type":"Point"},"properties":{"osm_id":"2365184201","tag":{"amenity":"recycling","recycling:glass":"yes","recycling_type":"container"}},"type":"Feature"},
	{"geometry":{"coordinates":[6.801523,46.39355],"type":"Point"},"properties":{"osm_id":"3964634304","tag":{"amenity":"waste_basket"}},"type":"Feature"},
	{"geometry":{"coordinates":[6.802223,46.393552],"type":"Point"},"properties":{"osm_id":"3964647771","tag":{"amenity":"recycling","location":"underground","recycling_type":"container"}},"type":"Feature"},
	{"geometry":{"coordinates":[6.85261,46.382226],"type":"Point"},"properties":{"osm_id":"5812694510","tag":{"amenity":"recycling","location":"underground","recycling:glass_bottles":"yes","recycling_type":"container"}},"type":"Feature"},
	{"geometry":{"coordinates":[6.852602,46.382269],"type":"Point"},"properties":{"osm_id":"5812694511","tag":{"amenity":"recycling","location":"underground","recycling:waste":"yes","recycling_type":"container"}},"type":"Feature"},
	{"geometry":{"coordinates":[6.853892,46.382273],"type":"Point"},"properties":{"osm_id":"5814930642","tag":{"amenity":"waste_disposal","waste":"trash"}},"type":"Feature"},
	{"geometry":{"coordinates":[6.855199,46.380443],"type":"Point"},"properties":{"osm_id":"5814930643","tag":{"amenity":"waste_disposal","waste":"trash"}},"type":"Feature"},
	{"geometry":{"coordinates":[6.852592,46.386617],"type":"Point"},"properties":{"osm_id":"5814932584","tag":{"amenity":"waste_basket","waste":"trash"}},"type":"Feature"},
	{"geometry":{"coordinates":[6.850772,46.386827],"type":"Point"},"properties":{"osm_id":"5814932591","tag":{"amenity":"waste_basket","waste":"trash"}},"type":"Feature"},
	{"geometry":{"coordinates":[6.848829,46.38716],"type":"Point"},"properties":{"osm_id":"5814932596","tag":{"amenity":"waste_disposal","waste":"glass"}},"type":"Feature"},
	{"geometry":{"coordinates":[6.847386,46.387573],"type":"Point"},"properties":{"osm_id":"5814932608","tag":{"amenity":"waste_disposal","waste":"trash"}},"type":"Feature"},
	{"geometry":{"coordinates":[6.852146,46.386385],"type":"Point"},"properties":{"osm_id":"5814932627","tag":{"amenity":"waste_disposal","waste":"trash"}},"type":"Feature"},
	{"geometry":{"coordinates":[6.85214,46.386392],"type":"Point"},"properties":{"osm_id":"5814932628","tag":{"amenity":"waste_basket","waste":"trash"}},"type":"Feature"},
	{"geometry":{"coordinates":[6.853211,46.385097],"type":"Point"},"properties":{"osm_id":"5814932631","tag":{"amenity":"waste_basket","waste":"trash"}},"type":"Feature"},
	{"geometry":{"coordinates":[6.853377,46.38443],"type":"Point"},"properties":{"osm_id":"5814932637","tag":{"amenity":"waste_basket","waste":"trash"}},"type":"Feature"},
	{"geometry":{"coordinates":[6.853382,46.384461],"type":"Point"},"properties":{"osm_id":"5814932638","tag":{"amenity":"waste_disposal","waste":"trash"}},"type":"Feature"},
	{"geometry":{"coordinates":[6.852652,46.384083],"type":"Point"},"properties":{"osm_id":"5814932639","tag":{"amenity":"waste_basket","waste":"trash"}},"type":"Feature"},
	{"geometry":{"coordinates":[6.850859,46.385273],"type":"Point"},"properties":{"osm_id":"5814932641","tag":{"amenity":"waste_basket","waste":"trash"}},"type":"Feature"},
	{"geometry":{"coordinates":[6.852597,46.381956],"type":"Point"},"properties":{"osm_id":"5814932645","tag":{"amenity":"waste_basket","waste":"trash"}},"type":"Feature"},
	{"geometry":{"coordinates":[6.801477,46.393729],"type":"Point"},"properties":{"osm_id":"6586935247","tag":{"amenity":"recycling","location":"underground","recycling_type":"container"}},"type":"Feature"}
]
}
