{
"type": "FeatureCollection",
"features": [
	{"geometry":{"coordinates":[6.834743,46.278744],"type":"Point"},"properties":{"osm_id":"1453884716","tag":{"amenity":"recycling","recycling:glass_bottles":"yes","recycling:paper":"yes","recycling_type":"container"}},"type":"Feature"},
	{"geometry":{"coordinates":[6.837683,46.270047],"type":"Point"},"properties":{"osm_id":"1453896841","tag":{"amenity":"recycling","location":"underground","recycling:glass_bottles":"yes","recycling:paper":"yes","recycling_type":"container"}},"type":"Feature"},
	{"geometry":{"coordinates":[6.840999,46.26615],"type":"Point"},"properties":{"osm_id":"2473539613","tag":{"amenity":"waste_basket"}},"type":"Feature"},
	{"geometry":{"coordinates":[6.841188,46.267235],"type":"Point"},"properties":{"osm_id":"2473539618","tag":{"amenity":"waste_basket"}},"type":"Feature"},
	{"geometry":{"coordinates":[6.841051,46.267243],"type":"Point"},"properties":{"osm_id":"2473539621","tag":{"amenity":"waste_basket"}},"type":"Feature"},
	{"geometry":{"coordinates":[6.840879,46.267306],"type":"Point"},"properties":{"osm_id":"2473539623","tag":{"amenity":"waste_basket"}},"type":"Feature"},
	{"geometry":{"coordinates":[6.841216,46.267322],"type":"Point"},"properties":{"osm_id":"2473539625","tag":{"amenity":"waste_basket"}},"type":"Feature"},
	{"geometry":{"coordinates":[6.840426,46.26788],"type":"Point"},"properties":{"osm_id":"2473539638","tag":{"amenity":"waste_basket"}},"type":"Feature"},
	{"geometry":{"coordinates":[6.840165,46.267898],"type":"Point"},"properties":{"osm_id":"2473539642","tag":{"amenity":"waste_basket"}},"type":"Feature"},
	{"geometry":{"coordinates":[6.840165,46.268044],"type":"Point"},"properties":{"osm_id":"2473539645","tag":{"amenity":"waste_basket"}},"type":"Feature"},
	{"geometry":{"coordinates":[6.840558,46.26806],"type":"Point"},"properties":{"osm_id":"2473539650","tag":{"amenity":"waste_basket"}},"type":"Feature"},
	{"geometry":{"coordinates":[6.841568,46.275598],"type":"Point"},"properties":{"osm_id":"2791433816","tag":{"amenity":"recycling","recycling_type":"container"}},"type":"Feature"},
	{"geometry":{"coordinates":[6.837514,46.273479],"type":"Point"},"properties":{"osm_id":"3855251475","tag":{"amenity":"recycling","recycling_type":"container"}},"type":"Feature"},
	{"geometry":{"coordinates":[6.788978,46.295325],"type":"Point"},"properties":{"osm_id":"3974922623","tag":{"amenity":"waste_basket"}},"type":"Feature"},
	{"geometry":{"coordinates":[6.832138,46.256382],"type":"Point"},"properties":{"osm_id":"4089106641","tag":{"amenity":"recycling","recycling_type":"container"}},"type":"Feature"},
	{"geometry":{"coordinates":[6.839521,46.274857],"type":"Point"},"properties":{"osm_id":"4231720206","tag":{"amenity":"recycling","recycling_type":"container"}},"type":"Feature"},
	{"geometry":{"coordinates":[6.800022,46.291664],"type":"Point"},"properties":{"osm_id":"4393180050","tag":{"amenity":"recycling","location":"underground","recycling_type":"container"}},"type":"Feature"},
	{"geometry":{"coordinates":[6.841072,46.26672],"type":"Point"},"properties":{"osm_id":"6187661549","tag":{"amenity":"recycling","recycling_type":"container"}},"type":"Feature"},
	{"geometry":{"coordinates":[6.788727,46.2952],"type":"Point"},"properties":{"osm_id":"6239355900","tag":{"amenity":"waste_disposal"}},"type":"Feature"},
	{"geometry":{"coordinates":[6.788739,46.295227],"type":"Point"},"properties":{"osm_id":"6239355902","tag":{"amenity":"waste_basket"}},"type":"Feature"},
	{"geometry":{"coordinates":[6.788127,46.295389],"type":"Point"},"properties":{"osm_id":"6239355926","tag":{"amenity":"waste_basket"}},"type":"Feature"},
	{"geometry":{"coordinates":[6.792491,46.29446],"type":"Point"},"properties":{"osm_id":"6239558701","tag":{"amenity":"recycling","location":"underground","recycling_type":"container"}},"type":"Feature"},
	{"geometry":{"coordinates":[6.848124,46.314661],"type":"Point"},"properties":{"osm_id":"6374400293","tag":{"amenity":"waste_basket","waste":"trash"}},"type":"Feature"},
	{"geometry":{"coordinates":[6.841484,46.265662],"type":"Point"},"properties":{"osm_id":"6533498163","tag":{"amenity":"recycling","recycling_type":"container"}},"type":"Feature"},
	{"geometry":{"coordinates":[6.841519,46.264273],"type":"Point"},"properties":{"osm_id":"6533526610","tag":{"amenity":"recycling","recycling_type":"container"}},"type":"Feature"},
	{"geometry":{"coordinates":[6.840642,46.260687],"type":"Point"},"properties":{"osm_id":"6533743802","tag":{"amenity":"recycling","recycling_type":"container"}},"type":"Feature"},
	{"geometry":{"coordinates":[6.840746,46.259752],"type":"Point"},"properties":{"osm_id":"6560270060","tag":{"amenity":"recycling","recycling_type":"container"}},"type":"Feature"},
	{"geometry":{"coordinates":[6.83701,46.276961],"type":"Point"},"properties":{"osm_id":"7631858575","tag":{"amenity":"recycling","recycling:glass_bottles":"yes","recycling:paper":"yes","recycling:waste":"yes","recycling_type":"container"}},"type":"Feature"},
	{"geometry":{"coordinates":[6.821553,46.278158],"type":"Point"},"properties":{"osm_id":"7726175171","tag":{"amenity":"recycling","recycling:glass_bottles":"yes","recycling_type":"container"}},"type":"Feature"}
]
}
