{
"type": "FeatureCollection",
"features": [
	{"geometry":{"coordinates":[6.770278,45.534446],"type":"Point"},"properties":{"osm_id":"2435532275","tag":{"amenity":"recycling","recycling_type":"container"}},"type":"Feature"},
	{"geometry":{"coordinates":[6.770309,45.534446],"type":"Point"},"properties":{"osm_id":"2435532279","tag":{"amenity":"waste_disposal"}},"type":"Feature"},
	{"geometry":{"coordinates":[6.782023,45.578893],"type":"Point"},"properties":{"name":"D\u00c3\u00a9chetterie des Arcs 1800","osm_id":"4569593405","tag":{"amenity":"recycling","recycling_type":"centre"}},"type":"Feature"},
	{"geometry":{"coordinates":[6.776522,45.573751],"type":"Point"},"properties":{"osm_id":"4774033351","tag":{"amenity":"recycling","recycling:glass":"yes","recycling_type":"container"}},"type":"Feature"},
	{"geometry":{"coordinates":[6.778011,45.571637],"type":"Point"},"properties":{"osm_id":"4798010198","tag":{"amenity":"recycling","recycling:glass_bottles":"yes","recycling_type":"container"}},"type":"Feature"},
	{"geometry":{"coordinates":[6.777977,45.573637],"type":"Point"},"properties":{"osm_id":"4798010203","tag":{"amenity":"recycling","recycling:glass":"yes","recycling_type":"container"}},"type":"Feature"},
	{"geometry":{"coordinates":[6.777945,45.56956],"type":"Point"},"properties":{"osm_id":"4798010204","tag":{"amenity":"recycling","recycling:glass":"yes","recycling_type":"container"}},"type":"Feature"},
	{"geometry":{"coordinates":[6.779933,45.575804],"type":"Point"},"properties":{"osm_id":"4935134286","tag":{"amenity":"recycling","recycling_type":"container"}},"type":"Feature"},
	{"geometry":{"coordinates":[6.832604,45.572843],"type":"Point"},"properties":{"osm_id":"5579003791","tag":{"amenity":"recycling","recycling:glass":"yes","recycling:waste":"yes","recycling_type":"container"}},"type":"Feature"},
	{"geometry":{"coordinates":[6.83271,45.572862],"type":"Point"},"properties":{"osm_id":"5579003792","tag":{"amenity":"recycling","recycling:waste":"yes","recycling_type":"container"}},"type":"Feature"},
	{"geometry":{"coordinates":[6.832739,45.573654],"type":"Point"},"properties":{"osm_id":"5579005534","tag":{"amenity":"recycling","recycling:glass":"yes","recycling:paper":"yes","recycling:waste":"yes","recycling_type":"container"}},"type":"Feature"},
	{"geometry":{"coordinates":[6.831534,45.572538],"type":"Point"},"properties":{"osm_id":"5579005552","tag":{"amenity":"recycling","recycling:glass":"yes","recycling:paper":"yes","recycling:waste":"yes","recycling_type":"container"}},"type":"Feature"},
	{"geometry":{"coordinates":[6.83118,45.571983],"type":"Point"},"properties":{"osm_id":"5579005553","tag":{"amenity":"recycling","recycling:paper":"yes","recycling:waste":"yes","recycling_type":"container"}},"type":"Feature"},
	{"geometry":{"coordinates":[6.78601,45.575269],"type":"Point"},"properties":{"osm_id":"6229760485","tag":{"amenity":"recycling","recycling_type":"container"}},"type":"Feature"},
	{"geometry":{"coordinates":[6.785603,45.574744],"type":"Point"},"properties":{"osm_id":"7781692341","tag":{"amenity":"recycling","recycling:glass":"no","recycling:glass_bottles":"yes","recycling:paper":"yes","recycling_type":"container"}},"type":"Feature"},
	{"geometry":{"coordinates":[6.784738,45.57509],"type":"Point"},"properties":{"osm_id":"7781812199","tag":{"amenity":"recycling","recycling:glass":"yes","recycling:paper":"yes","recycling_type":"container"}},"type":"Feature"},
	{"geometry":{"coordinates":[6.786396,45.57529],"type":"Point"},"properties":{"osm_id":"7781833309","tag":{"amenity":"recycling","recycling:glass":"yes","recycling:paper":"yes","recycling_type":"container"}},"type":"Feature"},
	{"geometry":{"coordinates":[6.77827,45.569743],"type":"Point"},"properties":{"osm_id":"7782058475","tag":{"amenity":"recycling","recycling:glass":"yes","recycling_type":"container"}},"type":"Feature"},
	{"geometry":{"coordinates":[6.777216,45.571197],"type":"Point"},"properties":{"osm_id":"7782058476","tag":{"amenity":"recycling","recycling:glass_bottles":"yes","recycling_type":"container"}},"type":"Feature"},
	{"geometry":{"coordinates":[6.776114,45.568225],"type":"Point"},"properties":{"osm_id":"7795363223","tag":{"amenity":"recycling","recycling:glass":"yes","recycling:paper":"yes","recycling_type":"container"}},"type":"Feature"},
	{"geometry":{"coordinates":[6.781954,45.577898],"type":"Point"},"properties":{"osm_id":"7795369638","tag":{"amenity":"recycling","recycling:glass":"yes","recycling:paper":"yes","recycling_type":"container"}},"type":"Feature"},
	{"geometry":{"coordinates":[6.780765,45.578319],"type":"Point"},"properties":{"osm_id":"7795369639","tag":{"amenity":"recycling","recycling:glass":"yes","recycling:paper":"yes","recycling_type":"container"}},"type":"Feature"},
	{"geometry":{"coordinates":[6.781694,45.576525],"type":"Point"},"properties":{"osm_id":"8986327206","tag":{"amenity":"recycling","recycling_type":"container"}},"type":"Feature"},
	{"geometry":{"coordinates":[6.789258,45.576267],"type":"Point"},"properties":{"osm_id":"8986336029","tag":{"amenity":"recycling","recycling_type":"container"}},"type":"Feature"},
	{"geometry":{"coordinates":[6.777048,45.567949],"type":"Point"},"properties":{"osm_id":"8986336030","tag":{"amenity":"recycling","recycling_type":"container"}},"type":"Feature"},
	{"geometry":{"coordinates":[6.780665,45.577617],"type":"Point"},"properties":{"osm_id":"8999184789","tag":{"amenity":"recycling","recycling_type":"container"}},"type":"Feature"},
	{"geometry":{"coordinates":[6.78067,45.577607],"type":"Point"},"properties":{"osm_id":"8999382932","tag":{"amenity":"waste_disposal"}},"type":"Feature"},
	{"geometry":{"coordinates":[6.779876,45.575752],"type":"Point"},"properties":{"osm_id":"9004910033","tag":{"amenity":"waste_disposal"}},"type":"Feature"},
	{"geometry":{"coordinates":[6.780565,45.57634],"type":"Point"},"properties":{"osm_id":"9004910034","tag":{"amenity":"waste_disposal"}},"type":"Feature"},
	{"geometry":{"coordinates":[6.780609,45.576393],"type":"Point"},"properties":{"osm_id":"9004910035","tag":{"amenity":"recycling","recycling_type":"container"}},"type":"Feature"},
	{"geometry":{"coordinates":[6.779532,45.577603],"type":"Point"},"properties":{"osm_id":"9016355617","tag":{"amenity":"waste_basket"}},"type":"Feature"},
	{"geometry":{"coordinates":[6.779574,45.577421],"type":"Point"},"properties":{"osm_id":"9016378217","tag":{"amenity":"waste_basket"}},"type":"Feature"},
	{"geometry":{"coordinates":[6.779413,45.577665],"type":"Point"},"properties":{"osm_id":"9016378218","tag":{"amenity":"waste_basket"}},"type":"Feature"},
	{"geometry":{"coordinates":[6.776755,45.533307],"type":"Point"},"properties":{"osm_id":"9021216632","tag":{"amenity":"waste_basket","waste":"trash"}},"type":"Feature"}
]
}
