{
"type": "FeatureCollection",
"features": [
	{"geometry":{"coordinates":[6.793342,44.756758],"type":"Point"},"properties":{"osm_id":"2392767942","tag":{"amenity":"waste_basket"}},"type":"Feature"},
	{"geometry":{"coordinates":[6.798612,44.758114],"type":"Point"},"properties":{"osm_id":"2995519260","tag":{"amenity":"recycling","recycling:cans":"yes","recycling:glass":"yes","recycling:paper":"yes","recycling_type":"container"}},"type":"Feature"},
	{"geometry":{"coordinates":[6.822164,44.761217],"type":"Point"},"properties":{"osm_id":"5353547235","tag":{"amenity":"recycling","location":"underground","recycling_type":"container"}},"type":"Feature"},
	{"geometry":{"coordinates":[6.834405,44.735998],"type":"Point"},"properties":{"osm_id":"5840097093","tag":{"amenity":"recycling","recycling_type":"container"}},"type":"Feature"},
	{"geometry":{"coordinates":[6.844313,44.728544],"type":"Point"},"properties":{"osm_id":"5840097095","tag":{"amenity":"recycling","recycling_type":"container"}},"type":"Feature"},
	{"geometry":{"coordinates":[6.847575,44.720128],"type":"Point"},"properties":{"osm_id":"5840097102","tag":{"amenity":"recycling","recycling_type":"container"}},"type":"Feature"},
	{"geometry":{"coordinates":[6.821511,44.76251],"type":"Point"},"properties":{"osm_id":"5840097105","tag":{"amenity":"recycling","recycling_type":"container"}},"type":"Feature"},
	{"geometry":{"coordinates":[6.767708,44.776076],"type":"Point"},"properties":{"osm_id":"7900370115","tag":{"amenity":"waste_basket"}},"type":"Feature"}
]
}
