{
"type": "FeatureCollection",
"features": [
	{"geometry":{"coordinates":[6.827594,43.608653],"type":"Point"},"properties":{"osm_id":"2788390749","tag":{"amenity":"waste_basket"}},"type":"Feature"},
	{"geometry":{"coordinates":[6.827575,43.609076],"type":"Point"},"properties":{"osm_id":"2788390764","tag":{"amenity":"recycling","recycling_type":"container"}},"type":"Feature"},
	{"geometry":{"coordinates":[6.767807,43.621134],"type":"Point"},"properties":{"osm_id":"2953801549","tag":{"amenity":"waste_basket","description":"containers avec d\u00c3\u00a9pots sauvages . camera ?"}},"type":"Feature"},
	{"geometry":{"coordinates":[6.808484,43.581789],"type":"Point"},"properties":{"osm_id":"4960068738","tag":{"amenity":"waste_disposal"}},"type":"Feature"},
	{"geometry":{"coordinates":[6.828666,43.642573],"type":"Point"},"properties":{"osm_id":"5717865047","tag":{"amenity":"recycling","recycling:glass":"yes","recycling:paper":"yes","recycling:plastic":"yes","recycling_type":"container"}},"type":"Feature"},
	{"geometry":{"coordinates":[6.852372,43.639677],"type":"Point"},"properties":{"osm_id":"5908178234","tag":{"amenity":"waste_disposal"}},"type":"Feature"},
	{"geometry":{"coordinates":[6.843602,43.629312],"type":"Point"},"properties":{"osm_id":"7117830666","tag":{"amenity":"waste_disposal"}},"type":"Feature"},
	{"geometry":{"coordinates":[6.853087,43.642477],"type":"Point"},"properties":{"osm_id":"7119075972","tag":{"amenity":"waste_disposal"}},"type":"Feature"},
	{"geometry":{"coordinates":[6.854376,43.641356],"type":"Point"},"properties":{"osm_id":"7119075976","tag":{"amenity":"waste_disposal"}},"type":"Feature"},
	{"geometry":{"coordinates":[6.852972,43.640678],"type":"Point"},"properties":{"osm_id":"7119075977","tag":{"amenity":"waste_disposal"}},"type":"Feature"},
	{"geometry":{"coordinates":[6.852366,43.639647],"type":"Point"},"properties":{"osm_id":"7119075979","tag":{"amenity":"recycling","recycling_type":"container"}},"type":"Feature"}
]
}
