{
"type": "FeatureCollection",
"features": [
	{"geometry":{"coordinates":[24.488271,61.020389],"type":"Point"},"properties":{"osm_id":"5405121004","tag":{"amenity":"waste_basket"}},"type":"Feature"},
	{"geometry":{"coordinates":[24.457673,61.023771],"type":"Point"},"properties":{"osm_id":"5595756327","tag":{"amenity":"waste_basket"}},"type":"Feature"},
	{"geometry":{"coordinates":[24.454523,61.021694],"type":"Point"},"properties":{"osm_id":"5595756329","tag":{"amenity":"waste_basket"}},"type":"Feature"},
	{"geometry":{"coordinates":[24.455103,61.021584],"type":"Point"},"properties":{"osm_id":"5595756331","tag":{"amenity":"waste_basket"}},"type":"Feature"},
	{"geometry":{"coordinates":[24.467028,61.022673],"type":"Point"},"properties":{"osm_id":"5595756336","tag":{"amenity":"waste_basket"}},"type":"Feature"},
	{"geometry":{"coordinates":[24.467752,61.022952],"type":"Point"},"properties":{"osm_id":"5595756337","tag":{"amenity":"waste_basket"}},"type":"Feature"},
	{"geometry":{"coordinates":[24.468817,61.022438],"type":"Point"},"properties":{"osm_id":"5595756339","tag":{"amenity":"waste_basket"}},"type":"Feature"},
	{"geometry":{"coordinates":[24.463439,61.021777],"type":"Point"},"properties":{"osm_id":"5595756340","tag":{"amenity":"waste_basket"}},"type":"Feature"},
	{"geometry":{"coordinates":[24.461923,61.02848],"type":"Point"},"properties":{"osm_id":"5595756343","tag":{"amenity":"waste_basket"}},"type":"Feature"},
	{"geometry":{"coordinates":[24.444371,61.021791],"type":"Point"},"properties":{"osm_id":"5792809705","tag":{"amenity":"waste_basket"}},"type":"Feature"},
	{"geometry":{"coordinates":[24.497612,61.018838],"type":"Point"},"properties":{"osm_id":"5877763114","tag":{"amenity":"waste_basket"}},"type":"Feature"},
	{"geometry":{"coordinates":[24.496464,61.019333],"type":"Point"},"properties":{"osm_id":"5877763115","tag":{"amenity":"waste_basket"}},"type":"Feature"},
	{"geometry":{"coordinates":[24.439147,61.05073],"type":"Point"},"properties":{"name":"Rinki-ekopiste","osm_id":"7026219316","tag":{"addr:housenumber":"681","addr:street":"Aulangontie","amenity":"recycling","operator":"Rinki Oy","recycling:cans":"yes","recycling:cardboard":"yes","recycling:glass":"yes","recycling:paper":"yes","recycling:plastic":"yes","recycling:scrap_metal":"yes","recycling_type":"container"}},"type":"Feature"}
]
}
