{
"type": "FeatureCollection",
"features": [
	{"geometry":{"coordinates":[24.448402,61.014895],"type":"Point"},"properties":{"osm_id":"1974222425","tag":{"amenity":"waste_basket"}},"type":"Feature"},
	{"geometry":{"coordinates":[24.433654,60.99496],"type":"Point"},"properties":{"osm_id":"3465769887","tag":{"amenity":"waste_basket"}},"type":"Feature"},
	{"geometry":{"coordinates":[24.447288,60.992965],"type":"Point"},"properties":{"osm_id":"3466083297","tag":{"amenity":"waste_basket"}},"type":"Feature"},
	{"geometry":{"coordinates":[24.450937,60.993764],"type":"Point"},"properties":{"osm_id":"3466083300","tag":{"amenity":"waste_basket"}},"type":"Feature"},
	{"geometry":{"coordinates":[24.451161,60.99381],"type":"Point"},"properties":{"osm_id":"3466083301","tag":{"amenity":"waste_basket"}},"type":"Feature"},
	{"geometry":{"coordinates":[24.441845,60.996647],"type":"Point"},"properties":{"osm_id":"3466083305","tag":{"amenity":"waste_basket"}},"type":"Feature"},
	{"geometry":{"coordinates":[24.44055,60.995299],"type":"Point"},"properties":{"osm_id":"3473107628","tag":{"amenity":"waste_basket"}},"type":"Feature"},
	{"geometry":{"coordinates":[24.46266,60.995637],"type":"Point"},"properties":{"osm_id":"5109588987","tag":{"amenity":"waste_basket"}},"type":"Feature"},
	{"geometry":{"coordinates":[24.465877,60.994804],"type":"Point"},"properties":{"osm_id":"5146060322","tag":{"amenity":"waste_basket"}},"type":"Feature"},
	{"geometry":{"coordinates":[24.478221,60.980306],"type":"Point"},"properties":{"osm_id":"5178331001","tag":{"amenity":"waste_basket"}},"type":"Feature"},
	{"geometry":{"coordinates":[24.472868,60.976303],"type":"Point"},"properties":{"osm_id":"5234770567","tag":{"amenity":"waste_basket"}},"type":"Feature"},
	{"geometry":{"coordinates":[24.461561,61.000654],"type":"Point"},"properties":{"osm_id":"5314559922","tag":{"amenity":"waste_basket"}},"type":"Feature"},
	{"geometry":{"coordinates":[24.460676,61.000292],"type":"Point"},"properties":{"osm_id":"5314586721","tag":{"amenity":"waste_basket"}},"type":"Feature"},
	{"geometry":{"coordinates":[24.473275,60.976626],"type":"Point"},"properties":{"name":"Fida vaateker\u00c3\u00a4ys","osm_id":"5567453462","tag":{"amenity":"recycling","operator":"Fida","recycling:clothes":"yes","recycling_type":"container"}},"type":"Feature"},
	{"geometry":{"coordinates":[24.472271,60.997666],"type":"Point"},"properties":{"osm_id":"5694949102","tag":{"amenity":"waste_basket"}},"type":"Feature"},
	{"geometry":{"coordinates":[24.474328,60.998102],"type":"Point"},"properties":{"osm_id":"5694949112","tag":{"amenity":"waste_basket"}},"type":"Feature"},
	{"geometry":{"coordinates":[24.473268,60.997866],"type":"Point"},"properties":{"osm_id":"5694949117","tag":{"amenity":"waste_basket"}},"type":"Feature"},
	{"geometry":{"coordinates":[24.475544,60.999973],"type":"Point"},"properties":{"osm_id":"5694956112","tag":{"amenity":"waste_basket"}},"type":"Feature"},
	{"geometry":{"coordinates":[24.474892,60.999489],"type":"Point"},"properties":{"osm_id":"5694956113","tag":{"amenity":"waste_basket"}},"type":"Feature"},
	{"geometry":{"coordinates":[24.472989,60.998468],"type":"Point"},"properties":{"osm_id":"5694959674","tag":{"amenity":"waste_basket"}},"type":"Feature"},
	{"geometry":{"coordinates":[24.471432,60.997561],"type":"Point"},"properties":{"osm_id":"5695354341","tag":{"amenity":"waste_basket"}},"type":"Feature"},
	{"geometry":{"coordinates":[24.472898,60.99674],"type":"Point"},"properties":{"osm_id":"5695414301","tag":{"amenity":"waste_basket"}},"type":"Feature"},
	{"geometry":{"coordinates":[24.472197,60.99683],"type":"Point"},"properties":{"osm_id":"5695414302","tag":{"amenity":"waste_basket"}},"type":"Feature"},
	{"geometry":{"coordinates":[24.4718,60.996859],"type":"Point"},"properties":{"osm_id":"5695414303","tag":{"amenity":"waste_basket"}},"type":"Feature"},
	{"geometry":{"coordinates":[24.472475,60.997169],"type":"Point"},"properties":{"osm_id":"5695414304","tag":{"amenity":"waste_basket"}},"type":"Feature"},
	{"geometry":{"coordinates":[24.472209,60.997379],"type":"Point"},"properties":{"osm_id":"5695414305","tag":{"amenity":"waste_basket"}},"type":"Feature"},
	{"geometry":{"coordinates":[24.471855,60.997713],"type":"Point"},"properties":{"osm_id":"5695415215","tag":{"amenity":"waste_basket"}},"type":"Feature"},
	{"geometry":{"coordinates":[24.471613,60.997859],"type":"Point"},"properties":{"osm_id":"5695415216","tag":{"amenity":"waste_basket"}},"type":"Feature"},
	{"geometry":{"coordinates":[24.471392,60.998024],"type":"Point"},"properties":{"osm_id":"5695415217","tag":{"amenity":"waste_basket"}},"type":"Feature"},
	{"geometry":{"coordinates":[24.471208,60.998178],"type":"Point"},"properties":{"osm_id":"5695415218","tag":{"amenity":"waste_basket"}},"type":"Feature"},
	{"geometry":{"coordinates":[24.470925,60.998619],"type":"Point"},"properties":{"osm_id":"5695415219","tag":{"amenity":"waste_basket"}},"type":"Feature"},
	{"geometry":{"coordinates":[24.470744,60.998854],"type":"Point"},"properties":{"osm_id":"5695415220","tag":{"amenity":"waste_basket"}},"type":"Feature"},
	{"geometry":{"coordinates":[24.470479,60.999168],"type":"Point"},"properties":{"osm_id":"5695418221","tag":{"amenity":"waste_basket"}},"type":"Feature"},
	{"geometry":{"coordinates":[24.469718,60.999328],"type":"Point"},"properties":{"osm_id":"5695418222","tag":{"amenity":"waste_basket"}},"type":"Feature"},
	{"geometry":{"coordinates":[24.46721,60.999909],"type":"Point"},"properties":{"osm_id":"5695418408","tag":{"amenity":"waste_basket"}},"type":"Feature"},
	{"geometry":{"coordinates":[24.466451,61.000241],"type":"Point"},"properties":{"osm_id":"5695418409","tag":{"amenity":"waste_basket"}},"type":"Feature"},
	{"geometry":{"coordinates":[24.4676,61.000124],"type":"Point"},"properties":{"osm_id":"5695418410","tag":{"amenity":"waste_basket"}},"type":"Feature"},
	{"geometry":{"coordinates":[24.467716,60.999858],"type":"Point"},"properties":{"osm_id":"5695418411","tag":{"amenity":"waste_basket"}},"type":"Feature"},
	{"geometry":{"coordinates":[24.480071,60.978838],"type":"Point"},"properties":{"osm_id":"5741564910","tag":{"amenity":"waste_basket"}},"type":"Feature"},
	{"geometry":{"coordinates":[24.480541,60.978672],"type":"Point"},"properties":{"osm_id":"5741564911","tag":{"amenity":"waste_basket"}},"type":"Feature"},
	{"geometry":{"coordinates":[24.469766,60.980477],"type":"Point"},"properties":{"osm_id":"5741582578","tag":{"amenity":"waste_basket"}},"type":"Feature"},
	{"geometry":{"coordinates":[24.465004,60.985296],"type":"Point"},"properties":{"osm_id":"5741582579","tag":{"amenity":"waste_basket"}},"type":"Feature"},
	{"geometry":{"coordinates":[24.46044,60.989443],"type":"Point"},"properties":{"osm_id":"5741582580","tag":{"amenity":"waste_basket"}},"type":"Feature"},
	{"geometry":{"coordinates":[24.461302,60.988211],"type":"Point"},"properties":{"osm_id":"5741582581","tag":{"amenity":"waste_basket"}},"type":"Feature"},
	{"geometry":{"coordinates":[24.461955,60.987458],"type":"Point"},"properties":{"osm_id":"5741582582","tag":{"amenity":"waste_basket"}},"type":"Feature"},
	{"geometry":{"coordinates":[24.459688,60.990556],"type":"Point"},"properties":{"osm_id":"5741601038","tag":{"amenity":"waste_basket"}},"type":"Feature"},
	{"geometry":{"coordinates":[24.46035,60.991188],"type":"Point"},"properties":{"osm_id":"5741601039","tag":{"amenity":"waste_basket"}},"type":"Feature"},
	{"geometry":{"coordinates":[24.461388,60.990846],"type":"Point"},"properties":{"osm_id":"5741601040","tag":{"amenity":"waste_basket"}},"type":"Feature"},
	{"geometry":{"coordinates":[24.459948,60.991006],"type":"Point"},"properties":{"osm_id":"5741601041","tag":{"amenity":"waste_basket"}},"type":"Feature"},
	{"geometry":{"coordinates":[24.459523,60.991002],"type":"Point"},"properties":{"osm_id":"5741601042","tag":{"amenity":"waste_basket"}},"type":"Feature"},
	{"geometry":{"coordinates":[24.459808,60.991951],"type":"Point"},"properties":{"osm_id":"5741612632","tag":{"amenity":"waste_basket"}},"type":"Feature"},
	{"geometry":{"coordinates":[24.45961,60.992645],"type":"Point"},"properties":{"osm_id":"5741618845","tag":{"amenity":"waste_basket"}},"type":"Feature"},
	{"geometry":{"coordinates":[24.459114,60.993256],"type":"Point"},"properties":{"osm_id":"5741618846","tag":{"amenity":"waste_basket","material":"metal","waste":"trash"}},"type":"Feature"},
	{"geometry":{"coordinates":[24.460625,60.993363],"type":"Point"},"properties":{"osm_id":"5741618847","tag":{"amenity":"waste_basket"}},"type":"Feature"},
	{"geometry":{"coordinates":[24.467065,60.996977],"type":"Point"},"properties":{"osm_id":"5806333212","tag":{"amenity":"waste_basket"}},"type":"Feature"},
	{"geometry":{"coordinates":[24.466998,60.99709],"type":"Point"},"properties":{"osm_id":"5806335715","tag":{"amenity":"waste_basket"}},"type":"Feature"},
	{"geometry":{"coordinates":[24.466474,60.997162],"type":"Point"},"properties":{"osm_id":"5806371353","tag":{"amenity":"waste_basket"}},"type":"Feature"},
	{"geometry":{"coordinates":[24.466427,60.996988],"type":"Point"},"properties":{"osm_id":"5806372810","tag":{"amenity":"waste_basket"}},"type":"Feature"},
	{"geometry":{"coordinates":[24.466531,60.996845],"type":"Point"},"properties":{"osm_id":"5806372811","tag":{"amenity":"waste_basket"}},"type":"Feature"},
	{"geometry":{"coordinates":[24.467033,60.997307],"type":"Point"},"properties":{"osm_id":"5807325624","tag":{"amenity":"waste_disposal"}},"type":"Feature"},
	{"geometry":{"coordinates":[24.456851,60.999049],"type":"Point"},"properties":{"osm_id":"5808674370","tag":{"amenity":"waste_basket"}},"type":"Feature"},
	{"geometry":{"coordinates":[24.48458,60.97684],"type":"Point"},"properties":{"osm_id":"5808952128","tag":{"amenity":"waste_basket"}},"type":"Feature"},
	{"geometry":{"coordinates":[24.466349,60.992726],"type":"Point"},"properties":{"name":"Fida vaateker\u00c3\u00a4ys","osm_id":"6010364494","tag":{"addr:city":"H\u00c3\u00a4meenlinna","addr:housenumber":"1","addr:postcode":"13100","addr:street":"Uimarintie","amenity":"recycling","operator":"Fida","recycling:clothes":"yes","recycling_type":"container"}},"type":"Feature"},
	{"geometry":{"coordinates":[24.463654,60.978588],"type":"Point"},"properties":{"name":"UFF Vaateker\u00c3\u00a4ys","osm_id":"6049406198","tag":{"addr:city":"H\u00c3\u00a4meenlinna","addr:housenumber":"15","addr:postcode":"13100","addr:street":"Kanakouluntie","amenity":"recycling","operator":"UFF","recycling:clothes":"yes","recycling:shoes":"yes","recycling_type":"container"}},"type":"Feature"},
	{"geometry":{"coordinates":[24.461064,60.987002],"type":"Point"},"properties":{"name":"UFF Vaateker\u00c3\u00a4ys","osm_id":"6079986652","tag":{"amenity":"recycling","operator":"UFF","recycling:clothes":"yes","recycling:shoes":"yes","recycling_type":"container"}},"type":"Feature"},
	{"geometry":{"coordinates":[24.473168,60.976615],"type":"Point"},"properties":{"name":"Rinki-ekopiste","osm_id":"6130899846","tag":{"amenity":"recycling","recycling:cartons":"yes","recycling:glass":"yes","recycling:paper":"yes","recycling:scrap_metal":"yes","recycling_type":"container"}},"type":"Feature"},
	{"geometry":{"coordinates":[24.462312,60.994595],"type":"Point"},"properties":{"osm_id":"6343308371","tag":{"amenity":"waste_basket"}},"type":"Feature"},
	{"geometry":{"coordinates":[24.480253,60.977496],"type":"Point"},"properties":{"osm_id":"6352624290","tag":{"amenity":"waste_basket"}},"type":"Feature"},
	{"geometry":{"coordinates":[24.479446,60.976319],"type":"Point"},"properties":{"osm_id":"6360959818","tag":{"amenity":"waste_basket"}},"type":"Feature"},
	{"geometry":{"coordinates":[24.4793,60.976156],"type":"Point"},"properties":{"osm_id":"6360962472","tag":{"amenity":"waste_basket"}},"type":"Feature"},
	{"geometry":{"coordinates":[24.465303,60.994444],"type":"Point"},"properties":{"osm_id":"6374271531","tag":{"amenity":"waste_basket"}},"type":"Feature"},
	{"geometry":{"coordinates":[24.473346,60.976635],"type":"Point"},"properties":{"osm_id":"6378687545","tag":{"amenity":"waste_basket"}},"type":"Feature"},
	{"geometry":{"coordinates":[24.468168,60.977851],"type":"Point"},"properties":{"osm_id":"6378699776","tag":{"amenity":"waste_basket"}},"type":"Feature"},
	{"geometry":{"coordinates":[24.447871,60.996748],"type":"Point"},"properties":{"osm_id":"6398616153","tag":{"amenity":"waste_basket"}},"type":"Feature"},
	{"geometry":{"coordinates":[24.461808,61.002201],"type":"Point"},"properties":{"osm_id":"6418930990","tag":{"amenity":"waste_basket"}},"type":"Feature"},
	{"geometry":{"coordinates":[24.462081,61.002334],"type":"Point"},"properties":{"osm_id":"6418930993","tag":{"amenity":"waste_basket"}},"type":"Feature"},
	{"geometry":{"coordinates":[24.461616,61.002489],"type":"Point"},"properties":{"osm_id":"6418946485","tag":{"amenity":"waste_basket"}},"type":"Feature"},
	{"geometry":{"coordinates":[24.462402,61.002558],"type":"Point"},"properties":{"osm_id":"6418946488","tag":{"amenity":"waste_basket"}},"type":"Feature"},
	{"geometry":{"coordinates":[24.458025,60.995564],"type":"Point"},"properties":{"osm_id":"6430837134","tag":{"amenity":"waste_basket"}},"type":"Feature"},
	{"geometry":{"coordinates":[24.459105,60.995555],"type":"Point"},"properties":{"osm_id":"6430837732","tag":{"amenity":"waste_basket"}},"type":"Feature"},
	{"geometry":{"coordinates":[24.478511,60.978976],"type":"Point"},"properties":{"osm_id":"6533640658","tag":{"amenity":"waste_basket"}},"type":"Feature"},
	{"geometry":{"coordinates":[24.469354,61.002338],"type":"Point"},"properties":{"osm_id":"6751148146","tag":{"amenity":"waste_basket"}},"type":"Feature"},
	{"geometry":{"coordinates":[24.458697,60.997236],"type":"Point"},"properties":{"osm_id":"6769415827","tag":{"access":"private","amenity":"waste_disposal"}},"type":"Feature"},
	{"geometry":{"coordinates":[24.464333,60.991235],"type":"Point"},"properties":{"osm_id":"6770253198","tag":{"amenity":"waste_basket","material":"metal"}},"type":"Feature"},
	{"geometry":{"coordinates":[24.464596,60.991146],"type":"Point"},"properties":{"osm_id":"6770253199","tag":{"amenity":"waste_basket","material":"metal"}},"type":"Feature"},
	{"geometry":{"coordinates":[24.457894,60.976617],"type":"Point"},"properties":{"osm_id":"6906098870","tag":{"amenity":"waste_basket"}},"type":"Feature"},
	{"geometry":{"coordinates":[24.476991,60.97961],"type":"Point"},"properties":{"osm_id":"6951118991","tag":{"access":"private","amenity":"waste_disposal"}},"type":"Feature"},
	{"geometry":{"coordinates":[24.476734,60.97974],"type":"Point"},"properties":{"osm_id":"6951118994","tag":{"access":"private","amenity":"waste_disposal"}},"type":"Feature"},
	{"geometry":{"coordinates":[24.477181,60.978604],"type":"Point"},"properties":{"osm_id":"6951529880","tag":{"amenity":"waste_basket"}},"type":"Feature"},
	{"geometry":{"coordinates":[24.495147,60.993],"type":"Point"},"properties":{"name":"Luotsin Rakennuskierr\u00c3\u00a4tys","osm_id":"7044355998","tag":{"addr:city":"H\u00c3\u00a4meenlinna","addr:housenumber":"4","addr:postcode":"13110","addr:street":"Suosaarentie","amenity":"recycling","operator":"Luotsin Rakennuskierr\u00c3\u00a4tys","operator:type":"community","recycling_type":"centre","website":"https://www.luotsinrakennuskierratys.fi/"}},"type":"Feature"},
	{"geometry":{"coordinates":[24.496175,61.015166],"type":"Point"},"properties":{"osm_id":"7366001489","tag":{"amenity":"waste_basket"}},"type":"Feature"},
	{"geometry":{"coordinates":[24.495105,61.014703],"type":"Point"},"properties":{"osm_id":"7366001490","tag":{"amenity":"waste_basket"}},"type":"Feature"},
	{"geometry":{"coordinates":[24.450443,61.010949],"type":"Point"},"properties":{"osm_id":"7375385329","tag":{"amenity":"waste_basket","waste_basket":"molok"}},"type":"Feature"},
	{"geometry":{"coordinates":[24.451168,61.010665],"type":"Point"},"properties":{"osm_id":"7375385331","tag":{"amenity":"waste_basket"}},"type":"Feature"},
	{"geometry":{"coordinates":[24.450589,61.010906],"type":"Point"},"properties":{"osm_id":"7375385333","tag":{"amenity":"waste_basket"}},"type":"Feature"},
	{"geometry":{"coordinates":[24.45209,61.011144],"type":"Point"},"properties":{"osm_id":"7380606766","tag":{"amenity":"waste_basket"}},"type":"Feature"},
	{"geometry":{"coordinates":[24.466172,60.992955],"type":"Point"},"properties":{"osm_id":"7383064708","tag":{"amenity":"waste_basket"}},"type":"Feature"},
	{"geometry":{"coordinates":[24.46588,60.992894],"type":"Point"},"properties":{"osm_id":"7383064709","tag":{"amenity":"waste_basket"}},"type":"Feature"},
	{"geometry":{"coordinates":[24.466415,60.993002],"type":"Point"},"properties":{"osm_id":"7383064710","tag":{"amenity":"waste_basket"}},"type":"Feature"},
	{"geometry":{"coordinates":[24.461602,61.010034],"type":"Point"},"properties":{"osm_id":"7393067535","tag":{"amenity":"waste_basket"}},"type":"Feature"},
	{"geometry":{"coordinates":[24.467096,61.004455],"type":"Point"},"properties":{"osm_id":"7393078885","tag":{"amenity":"waste_basket"}},"type":"Feature"},
	{"geometry":{"coordinates":[24.469884,61.005353],"type":"Point"},"properties":{"osm_id":"7393078934","tag":{"amenity":"waste_basket"}},"type":"Feature"},
	{"geometry":{"coordinates":[24.464702,61.007815],"type":"Point"},"properties":{"osm_id":"7393078948","tag":{"amenity":"waste_basket"}},"type":"Feature"},
	{"geometry":{"coordinates":[24.455117,61.013401],"type":"Point"},"properties":{"osm_id":"7393122280","tag":{"amenity":"waste_basket"}},"type":"Feature"},
	{"geometry":{"coordinates":[24.448435,61.014543],"type":"Point"},"properties":{"osm_id":"7393122281","tag":{"amenity":"waste_basket"}},"type":"Feature"},
	{"geometry":{"coordinates":[24.445516,61.014917],"type":"Point"},"properties":{"osm_id":"7393141592","tag":{"amenity":"waste_basket"}},"type":"Feature"},
	{"geometry":{"coordinates":[24.452741,61.012038],"type":"Point"},"properties":{"osm_id":"7393141595","tag":{"amenity":"waste_basket"}},"type":"Feature"},
	{"geometry":{"coordinates":[24.4539,61.010995],"type":"Point"},"properties":{"osm_id":"7393141596","tag":{"amenity":"waste_basket"}},"type":"Feature"},
	{"geometry":{"coordinates":[24.454373,61.007773],"type":"Point"},"properties":{"osm_id":"7393141613","tag":{"amenity":"waste_basket"}},"type":"Feature"},
	{"geometry":{"coordinates":[24.456603,61.007021],"type":"Point"},"properties":{"osm_id":"7393141622","tag":{"amenity":"waste_basket"}},"type":"Feature"},
	{"geometry":{"coordinates":[24.458078,61.005253],"type":"Point"},"properties":{"osm_id":"7393141640","tag":{"amenity":"waste_basket"}},"type":"Feature"},
	{"geometry":{"coordinates":[24.462252,61.001423],"type":"Point"},"properties":{"osm_id":"7393192363","tag":{"amenity":"waste_basket"}},"type":"Feature"},
	{"geometry":{"coordinates":[24.462482,61.00102],"type":"Point"},"properties":{"osm_id":"7393192365","tag":{"amenity":"waste_basket"}},"type":"Feature"},
	{"geometry":{"coordinates":[24.461001,61.001858],"type":"Point"},"properties":{"osm_id":"7393192370","tag":{"amenity":"waste_basket"}},"type":"Feature"},
	{"geometry":{"coordinates":[24.464277,61.000256],"type":"Point"},"properties":{"osm_id":"7393192382","tag":{"amenity":"waste_basket","waste_basket":"molok"}},"type":"Feature"},
	{"geometry":{"coordinates":[24.465072,61.000247],"type":"Point"},"properties":{"osm_id":"7393336486","tag":{"amenity":"waste_basket"}},"type":"Feature"},
	{"geometry":{"coordinates":[24.473333,60.976341],"type":"Point"},"properties":{"osm_id":"7410389863","tag":{"amenity":"waste_basket"}},"type":"Feature"},
	{"geometry":{"coordinates":[24.466077,60.999367],"type":"Point"},"properties":{"osm_id":"7834939799","tag":{"amenity":"waste_basket"}},"type":"Feature"},
	{"geometry":{"coordinates":[24.466267,60.999409],"type":"Point"},"properties":{"osm_id":"7834939800","tag":{"amenity":"waste_basket"}},"type":"Feature"},
	{"geometry":{"coordinates":[24.466512,60.999477],"type":"Point"},"properties":{"osm_id":"7834939808","tag":{"amenity":"waste_basket"}},"type":"Feature"}
]
}
