{
"type": "FeatureCollection",
"lastupdate": "2020-07-31T00:00:00Z",
"features": [
	{"geometry":{"coordinates":[24.45938,60.953895],"type":"Point"},"properties":{"osm_id":"5809027916","tag":{"amenity":"waste_basket"}},"type":"Feature"},
	{"geometry":{"coordinates":[24.483173,60.942085],"type":"Point"},"properties":{"name":"Karanojan j\u00c3\u00a4tteidenk\u00c3\u00a4sittelyalue","osm_id":"5940242731","tag":{"addr:city":"H\u00e4meenlinna","addr:housenumber":"145","addr:postcode":"13430","addr:street":"Karanojantie","amenity":"recycling","opening_hours":"Mo-Fr 07:00-19:00","operator":"Kiertokapula Oy","recycling:animal_waste":"yes","recycling:asbestos":"yes","recycling:asphalt":"yes","recycling:batteries":"yes","recycling:brick":"yes","recycling:cardboard":"yes","recycling:cars":"yes","recycling:concrete":"yes","recycling:construction_materials":"yes","recycling:construction_waste":"yes","recycling:electrical_appliances":"yes","recycling:explosives":"no","recycling:finished_wood":"yes","recycling:garden_waste":"yes","recycling:glass":"yes","recycling:green_waste":"yes","recycling:hazardous_waste":"yes","recycling:organic":"yes","recycling:paper":"yes","recycling:scrap_metal":"yes","recycling:small_appliances":"yes","recycling:tyres":"yes","recycling:uranium":"no","recycling:waste":"yes","recycling:wood":"yes","recycling_type":"centre","website":"https://www.kiertokapula.fi/palvelut/jatteiden-vastaanotto/jatteidenkasittelyalueet/karanoja/","wikidata":"Q56401799","wikipedia":"fi:Karanojan j\u00e4tteenk\u00e4sittelyalue"}},"type":"Feature"},
	{"geometry":{"coordinates":[24.499707,60.968307],"type":"Point"},"properties":{"osm_id":"6414347873","tag":{"amenity":"waste_basket"}},"type":"Feature"}
]
}
