{
"type": "FeatureCollection",
"features": [
	{"geometry":{"coordinates":[24.494285,58.3909],"type":"Point"},"properties":{"osm_id":"1059444502","tag":{"amenity":"recycling"}},"type":"Feature"},
	{"geometry":{"coordinates":[24.49393,58.392046],"type":"Point"},"properties":{"osm_id":"1059444559","tag":{"amenity":"recycling"}},"type":"Feature"},
	{"geometry":{"coordinates":[24.491302,58.386798],"type":"Point"},"properties":{"osm_id":"2682027734","tag":{"amenity":"recycling","recycling:glass_bottles":"yes","recycling_type":"container"}},"type":"Feature"},
	{"geometry":{"coordinates":[24.458315,58.3953],"type":"Point"},"properties":{"name":"Taara punkt","osm_id":"4364204389","tag":{"amenity":"recycling","name:et":"Taara punkt","recycling:cans":"yes","recycling:glass":"no","recycling:glass_bottles":"yes","recycling:plastic_bottles":"yes","recycling_type":"centre"}},"type":"Feature"},
	{"geometry":{"coordinates":[24.50169,58.378489],"type":"Point"},"properties":{"osm_id":"6898305923","tag":{"amenity":"waste_disposal"}},"type":"Feature"},
	{"geometry":{"coordinates":[24.494133,58.390148],"type":"Point"},"properties":{"osm_id":"7512141285","tag":{"amenity":"recycling","recycling_type":"container"}},"type":"Feature"}
]
}
