{
"type": "FeatureCollection",
"features": [
	{"geometry":{"coordinates":[-87.087355,41.479316],"type":"Point"},"properties":{"name":"Valparaiso Compost & Recycling Site","osm_id":"8689510338","tag":{"addr:city":"Valparaiso","addr:housenumber":"2150","addr:postcode":"46385","addr:state":"IN","addr:street":"W Lincolnway","amenity":"recycling","description":"Drop off site for yard waste, household recyclables, plastic bags, electronics, batteries, CFL, toner cartridges, and smoke detectors.  Pick up mulch, compost, and firewood. Free for Porter County residents.  Fees for others.","opening_hours":"Mo-Sa 08:00-17:00","opening_hours:covid19":"same","operator":"City of Valparaiso and Porter County Recycling & Waste Reduction","operator:type":"government","phone":"+1 219 465 3694","recycling_type":"centre","website":"https://portercountyrecycling.org/compost-sites/"}},"type":"Feature"},
	{"geometry":{"coordinates":[-87.067286,41.4641],"type":"Point"},"properties":{"name":"L&S Metal Recycling","osm_id":"8689529301","tag":{"addr:housenumber":"551","addr:street":"Factory Street","amenity":"recycling","opening_hours":"Mo-Sa 08:00-17:00","phone":"+1 219 465 1538","website":"http://landsmetal.com/"}},"type":"Feature"}
]
}
