{
"type": "FeatureCollection",
"features": [
	{"geometry":{"coordinates":[16.2521,49.84177],"type":"Point"},"properties":{"name":"l\u00c3\u00adpa velkolist\u00c3\u00a1, \"Svobody\" (Tilia platyphyllos)","osm_id":"3381673804","tag":{"addr:city":"Doln\u00c3\u00ad \u00c3\u009ajezd","leaf_cycle":"deciduous","leaf_type":"broadleaved","natural":"tree"}},"type":"Feature"},
	{"geometry":{"coordinates":[16.192767,49.85607],"type":"Point"},"properties":{"name":"l\u00c3\u00adpa srd\u00c4\u008dit\u00c3\u00a1 (Tilia cordata)","osm_id":"3385110992","tag":{"addr:city":"Makov","genus":"Tilia","leaf_cycle":"deciduous","leaf_type":"broadleaved","natural":"tree","species":"Cordata","taxon":"Tilia Cordata","taxon:cs":"L\u00c3\u00adpa Malolist\u00c3\u00a1"}},"type":"Feature"},
	{"geometry":{"coordinates":[16.189601,49.85507],"type":"Point"},"properties":{"name":"l\u00c3\u00adpa srd\u00c4\u008dit\u00c3\u00a1 (Tilia cordata)","osm_id":"3385112593","tag":{"addr:city":"Makov","genus":"Tilia","leaf_cycle":"deciduous","leaf_type":"broadleaved","natural":"tree","species":"Cordata","taxon":"Tilia Cordata","taxon:cs":"L\u00c3\u00adpa Malolist\u00c3\u00a1"}},"type":"Feature"},
	{"geometry":{"coordinates":[16.209811,49.83815],"type":"Point"},"properties":{"name":"l\u00c3\u00adpa srd\u00c4\u008dit\u00c3\u00a1 (Tilia cordata)","osm_id":"3386618772","tag":{"addr:city":"Vidlat\u00c3\u00a1 Se\u00c4\u008d","leaf_cycle":"deciduous","leaf_type":"broadleaved","natural":"tree"}},"type":"Feature"},
	{"geometry":{"coordinates":[16.209006,49.838592],"type":"Point"},"properties":{"name":"l\u00c3\u00adpa srd\u00c4\u008dit\u00c3\u00a1 (Tilia cordata)","osm_id":"3386618773","tag":{"addr:city":"Vidlat\u00c3\u00a1 Se\u00c4\u008d","leaf_cycle":"deciduous","leaf_type":"broadleaved","natural":"tree"}},"type":"Feature"},
	{"geometry":{"coordinates":[16.256521,49.864448],"type":"Point"},"properties":{"name":"30 vrb ko\u00c5\u00a1\u00c3\u00adk\u00c3\u00a1\u00c5\u0099sk\u00c3\u00bdch (Salix viminalis)","osm_id":"3386702938","tag":{"addr:city":"\u00c5\u0098\u00c3\u00adkovice","leaf_cycle":"deciduous","leaf_type":"broadleaved","natural":"tree"}},"type":"Feature"},
	{"geometry":{"coordinates":[16.254512,49.860088],"type":"Point"},"properties":{"name":"l\u00c3\u00adpa srd\u00c4\u008dit\u00c3\u00a1 (Tilia cordata)","osm_id":"3386702939","tag":{"addr:city":"\u00c5\u0098ikovice","leaf_cycle":"deciduous","leaf_type":"broadleaved","natural":"tree"}},"type":"Feature"},
	{"geometry":{"coordinates":[16.242302,49.859779],"type":"Point"},"properties":{"name":"dub letn\u00c3\u00ad (Quercus robus)","osm_id":"3386702940","tag":{"addr:city":"La\u00c5\u00beany","leaf_cycle":"deciduous","leaf_type":"broadleaved","natural":"tree"}},"type":"Feature"},
	{"geometry":{"coordinates":[16.242673,49.860166],"type":"Point"},"properties":{"name":"l\u00c3\u00adpa srd\u00c4\u008dit\u00c3\u00a1 (Tilia cordata)","osm_id":"3386702941","tag":{"addr:city":"La\u00c5\u00beany","leaf_cycle":"deciduous","leaf_type":"broadleaved","natural":"tree"}},"type":"Feature"},
	{"geometry":{"coordinates":[16.243802,49.860691],"type":"Point"},"properties":{"name":"vrba b\u00c3\u00adl\u00c3\u00a1 (Salix alba)","osm_id":"3386702942","tag":{"addr:city":"La\u00c5\u00beany","leaf_cycle":"deciduous","leaf_type":"broadleaved","natural":"tree"}},"type":"Feature"},
	{"geometry":{"coordinates":[16.244903,49.862015],"type":"Point"},"properties":{"name":"dub letn\u00c3\u00ad (Quercus robus)","osm_id":"3386702943","tag":{"addr:city":"La\u00c5\u00beany","leaf_cycle":"deciduous","leaf_type":"broadleaved","natural":"tree"}},"type":"Feature"},
	{"geometry":{"coordinates":[16.245282,49.861827],"type":"Point"},"properties":{"name":"dub letn\u00c3\u00ad (Quercus robus)","osm_id":"3386702944","tag":{"addr:city":"La\u00c5\u00beany","leaf_cycle":"deciduous","leaf_type":"broadleaved","natural":"tree"}},"type":"Feature"},
	{"geometry":{"coordinates":[16.24595,49.862887],"type":"Point"},"properties":{"name":"dub letn\u00c3\u00ad (Quercus robus)","osm_id":"3386702945","tag":{"addr:city":"La\u00c5\u00beany","leaf_cycle":"deciduous","leaf_type":"broadleaved","natural":"tree"}},"type":"Feature"},
	{"geometry":{"coordinates":[16.233607,49.869375],"type":"Point"},"properties":{"osm_id":"3386702946","tag":{"addr:city":"Mora\u00c5\u00a1ice","height":"12","leaf_cycle":"deciduous","leaf_type":"broadleaved","natural":"tree","taxon":"Tilia cordata"}},"type":"Feature"},
	{"geometry":{"coordinates":[16.233548,49.869309],"type":"Point"},"properties":{"osm_id":"3386702947","tag":{"addr:city":"Mora\u00c5\u00a1ice","height":"12","leaf_cycle":"deciduous","leaf_type":"broadleaved","natural":"tree","taxon":"Tilia cordata"}},"type":"Feature"}
]
}
