{
"type": "FeatureCollection",
"features": [
	{"geometry":{"coordinates":[16.255835,49.827886],"type":"Point"},"properties":{"name":"l\u00c3\u00adpa srd\u00c4\u008dit\u00c3\u00a1 (Tilia cordata)","osm_id":"3381673799","tag":{"addr:city":"Doln\u00c3\u00ad \u00c3\u009ajezd","denotation":"natural_monument","leaf_cycle":"deciduous","leaf_type":"broadleaved","natural":"tree"}},"type":"Feature"},
	{"geometry":{"coordinates":[16.252673,49.815723],"type":"Point"},"properties":{"name":"l\u00c3\u00adpa srd\u00c4\u008dit\u00c3\u00a1 (Tilia cordata)","osm_id":"3381673800","tag":{"addr:city":"Doln\u00c3\u00ad \u00c3\u009ajezd","leaf_cycle":"deciduous","leaf_type":"broadleaved","natural":"tree"}},"type":"Feature"},
	{"geometry":{"coordinates":[16.255405,49.821652],"type":"Point"},"properties":{"name":"l\u00c3\u00adpa velkolist\u00c3\u00a1 (Tilia platyphyllos)","osm_id":"3381673801","tag":{"addr:city":"Doln\u00c3\u00ad \u00c3\u009ajezd","leaf_cycle":"deciduous","leaf_type":"broadleaved","natural":"tree"}},"type":"Feature"},
	{"geometry":{"coordinates":[16.228865,49.812134],"type":"Point"},"properties":{"name":"l\u00c3\u00adpa srd\u00c4\u008dit\u00c3\u00a1 (Tilia cordata)","osm_id":"3385073826","tag":{"addr:city":"Desn\u00c3\u00a1","leaf_cycle":"deciduous","leaf_type":"broadleaved","natural":"tree"}},"type":"Feature"},
	{"geometry":{"coordinates":[16.228444,49.811393],"type":"Point"},"properties":{"name":"l\u00c3\u00adpa (pravd\u00c4\u009bpodobn\u00c4\u009b velkolist\u00c3\u00a1) (Tilia platyphyllos)","osm_id":"3385073827","tag":{"addr:city":"Desn\u00c3\u00a1","leaf_cycle":"deciduous","leaf_type":"broadleaved","natural":"tree"}},"type":"Feature"},
	{"geometry":{"coordinates":[16.223015,49.806828],"type":"Point"},"properties":{"name":"4 l\u00c3\u00adpy velkolist\u00c3\u00a9 (Tilia platyphyllos)","osm_id":"3385073828","tag":{"addr:city":"Desn\u00c3\u00a1","leaf_cycle":"deciduous","leaf_type":"broadleaved","natural":"tree"}},"type":"Feature"},
	{"geometry":{"coordinates":[16.222592,49.807395],"type":"Point"},"properties":{"name":"2 l\u00c3\u00adpy velkolist\u00c3\u00a9 (Tilia platyphyllos)","osm_id":"3385073829","tag":{"addr:city":"Desn\u00c3\u00a1","addr:housenumber":"150","leaf_cycle":"deciduous","leaf_type":"broadleaved","natural":"tree"}},"type":"Feature"},
	{"geometry":{"coordinates":[16.225338,49.80667],"type":"Point"},"properties":{"name":"l\u00c3\u00adpa velkolist\u00c3\u00a1 (Tilia cordata)","osm_id":"3385073830","tag":{"addr:city":"Desn\u00c3\u00a1","leaf_cycle":"deciduous","leaf_type":"broadleaved","natural":"tree"}},"type":"Feature"},
	{"geometry":{"coordinates":[16.242493,49.808896],"type":"Point"},"properties":{"name":"l\u00c3\u00adpa velkolist\u00c3\u00a1 (Tilia platyphyllos)","osm_id":"3385078781","tag":{"addr:city":"Horn\u00c3\u00ad \u00c3\u009ajezd","leaf_cycle":"deciduous","leaf_type":"broadleaved","natural":"tree"}},"type":"Feature"},
	{"geometry":{"coordinates":[16.232812,49.803256],"type":"Point"},"properties":{"name":"5 lip velk\u00c3\u00bdch (Tilia platyphyllos)","osm_id":"3385078782","tag":{"addr:city":"Horn\u00c3\u00ad \u00c3\u009ajezd","leaf_cycle":"deciduous","leaf_type":"broadleaved","natural":"tree"}},"type":"Feature"},
	{"geometry":{"coordinates":[16.200862,49.836009],"type":"Point"},"properties":{"name":"l\u00c3\u00adpa srd\u00c4\u008dit\u00c3\u00a1 (Tilia cordata)","osm_id":"3386618771","tag":{"addr:city":"Vidlat\u00c3\u00a1 Se\u00c4\u008d","leaf_cycle":"deciduous","leaf_type":"broadleaved","natural":"tree"}},"type":"Feature"},
	{"geometry":{"coordinates":[16.191499,49.798185],"type":"Point"},"properties":{"osm_id":"4901892658","tag":{"leaf_cycle":"evergreen","leaf_type":"needleleaved","natural":"tree"}},"type":"Feature"},
	{"geometry":{"coordinates":[16.197236,49.800946],"type":"Point"},"properties":{"osm_id":"4902001428","tag":{"leaf_cycle":"deciduous","leaf_type":"broadleaved","natural":"tree"}},"type":"Feature"},
	{"geometry":{"coordinates":[16.254647,49.825548],"type":"Point"},"properties":{"osm_id":"6813188161","tag":{"denotation":"urban","leaf_cycle":"deciduous","leaf_type":"broadleaved","natural":"tree"}},"type":"Feature"},
	{"geometry":{"coordinates":[16.254647,49.825602],"type":"Point"},"properties":{"osm_id":"6813188162","tag":{"denotation":"urban","leaf_cycle":"deciduous","leaf_type":"broadleaved","natural":"tree"}},"type":"Feature"},
	{"geometry":{"coordinates":[16.253296,49.825462],"type":"Point"},"properties":{"osm_id":"6813188188","tag":{"leaf_cycle":"deciduous","leaf_type":"broadleaved","natural":"tree"}},"type":"Feature"}
]
}
