{
"type": "FeatureCollection",
"features": [
	{"geometry":{"coordinates":[110.428679,-6.974357],"type":"Point"},"properties":{"osm_id":"3477951890","tag":{"amenity":"waste_disposal"}},"type":"Feature"},
	{"geometry":{"coordinates":[110.404014,-6.990802],"type":"Point"},"properties":{"osm_id":"4978552419","tag":{"amenity":"recycling","recycling_type":"centre"}},"type":"Feature"},
	{"geometry":{"coordinates":[110.403743,-6.991474],"type":"Point"},"properties":{"osm_id":"4978565727","tag":{"amenity":"recycling","recycling_type":"centre"}},"type":"Feature"},
	{"geometry":{"coordinates":[110.403979,-6.992451],"type":"Point"},"properties":{"osm_id":"4978565735","tag":{"amenity":"recycling","recycling_type":"centre"}},"type":"Feature"},
	{"geometry":{"coordinates":[110.394361,-6.971373],"type":"Point"},"properties":{"osm_id":"4978847595","tag":{"amenity":"waste_disposal"}},"type":"Feature"},
	{"geometry":{"coordinates":[110.397023,-7.001831],"type":"Point"},"properties":{"osm_id":"4979566785","tag":{"amenity":"waste_disposal"}},"type":"Feature"},
	{"geometry":{"coordinates":[110.394162,-6.998092],"type":"Point"},"properties":{"name":"Bank sampah RW 4","osm_id":"4979585385","tag":{"amenity":"recycling","recycling_type":"centre"}},"type":"Feature"},
	{"geometry":{"coordinates":[110.403754,-6.983534],"type":"Point"},"properties":{"name":"Bank Sampah","osm_id":"4985186841","tag":{"amenity":"recycling","operator":"Bank Sampah","recycling:glass":"yes","recycling:glass_bottles":"yes","recycling:plastic":"yes","recycling:plastic_bottles":"yes","recycling:plastic_packaging":"yes","recycling_type":"container"}},"type":"Feature"},
	{"geometry":{"coordinates":[110.402676,-6.969273],"type":"Point"},"properties":{"osm_id":"4986316733","tag":{"amenity":"recycling","operator":"Bank Sampah","recycling:cans":"yes","recycling:paper":"yes","recycling:plastic":"yes","recycling:plastic_bottles":"yes","recycling_type":"container"}},"type":"Feature"}
]
}
