{
"type": "FeatureCollection",
"features": [
	{"geometry":{"coordinates":[46.343546,39.511255],"type":"Point"},"properties":{"name":"\u00d5\u0084\u00d5\u00a1\u00d6\u0084\u00d5\u00b8\u00d6\u0082\u00d6\u0080 \u00d4\u00b3\u00d5\u00b8\u00d6\u0080\u00d5\u00ab\u00d5\u00bd \u00d5\u0080\u00d4\u00bf","osm_id":"5887814323","tag":{"addr:city":"\u00d4\u00b3\u00d5\u00b8\u00d6\u0080\u00d5\u00ab\u00d5\u00bd","addr:housenumber":"1/1","addr:street":"\u00d4\u00b2\u00d5\u00a1\u00d5\u00af\u00d5\u00b8\u00d6\u0082\u00d5\u00b6\u00d6\u0081 \u00d6\u0083\u00d5\u00b8\u00d5\u00b2\u00d5\u00b8\u00d6\u0081","amenity":"recycling","name:en":"\"Clear Goris\"","recycling:plastic":"yes","recycling_type":"centre","website":"https://www.facebook.com/maqurgorishk"}},"type":"Feature"},
	{"geometry":{"coordinates":[46.349028,39.507338],"type":"Point"},"properties":{"osm_id":"6875885080","tag":{"amenity":"waste_basket"}},"type":"Feature"},
	{"geometry":{"coordinates":[46.350054,39.506384],"type":"Point"},"properties":{"osm_id":"6875885082","tag":{"amenity":"waste_basket"}},"type":"Feature"},
	{"geometry":{"coordinates":[46.382007,39.506938],"type":"Point"},"properties":{"osm_id":"6897468971","tag":{"amenity":"waste_disposal"}},"type":"Feature"}
]
}
