{
"type": "FeatureCollection",
"features": [
	{"geometry":{"coordinates":[18.4847,54.4668],"type":"Point"},"properties":{"osm_id":"1761520821","tag":{"natural":"tree"}},"type":"Feature"},
	{"geometry":{"coordinates":[18.484837,54.466908],"type":"Point"},"properties":{"osm_id":"1761520823","tag":{"natural":"tree"}},"type":"Feature"},
	{"geometry":{"coordinates":[18.484156,54.46493],"type":"Point"},"properties":{"osm_id":"1761565326","tag":{"natural":"tree"}},"type":"Feature"},
	{"geometry":{"coordinates":[18.482085,54.466094],"type":"Point"},"properties":{"osm_id":"1762229373","tag":{"natural":"tree"}},"type":"Feature"},
	{"geometry":{"coordinates":[18.484745,54.466835],"type":"Point"},"properties":{"osm_id":"1767559390","tag":{"natural":"tree"}},"type":"Feature"},
	{"geometry":{"coordinates":[18.48479,54.466871],"type":"Point"},"properties":{"osm_id":"1767559391","tag":{"natural":"tree"}},"type":"Feature"},
	{"geometry":{"coordinates":[18.484437,54.46703],"type":"Point"},"properties":{"osm_id":"1769477249","tag":{"natural":"tree"}},"type":"Feature"},
	{"geometry":{"coordinates":[18.484328,54.467044],"type":"Point"},"properties":{"osm_id":"1769477252","tag":{"natural":"tree"}},"type":"Feature"},
	{"geometry":{"coordinates":[18.471779,54.463654],"type":"Point"},"properties":{"name":"Daglezja","osm_id":"1773265655","ref":"POM262","tag":{"denotation":"natural_monument","genus":"Pseudotsuga","is_in:city":"Gdynia","leaf_type":"needleleaved","name:botanical":"Pseudotsuga Carriere","name:en":"Douglas-fir","name:lt":"Poc\u00c5\u00abg\u00c4\u0097","name:pl":"Daglezja","name:uk":"\u00d0\u009f\u00d1\u0081\u00d0\u00b5\u00d0\u00b2\u00d0\u00b4\u00d0\u00be\u00d1\u0082\u00d1\u0081\u00d1\u0083\u00d0\u00b3\u00d0\u00b0","natural":"tree","opening_hours":"24/7","species:wikidata":"Q158771","species:wikipedia":"pl:Daglezja","taxon":"Pseudotsuga Carriere","taxon:genus:en":"Douglas-fir","taxon:genus:pl":"Daglezja"}},"type":"Feature"},
	{"geometry":{"coordinates":[18.479133,54.453755],"type":"Point"},"properties":{"name":"Pomnik Przyrody","osm_id":"1773283660","ref":"POM302","tag":{"denotation":"natural_monument","description":"easy to spot from a track","is_in:city":"Gdynia","leaf_type":"broadleaved","name:en":"monument of nature","natural":"tree","opening_hours":"24/7","taxon:genus:en":"Oak","taxon:genus:pl":"D\u00c4\u0085b","tourism":"attraction"}},"type":"Feature"},
	{"geometry":{"coordinates":[18.489191,54.445297],"type":"Point"},"properties":{"name":"D\u00c4\u0085b szypu\u00c5\u0082kowy \"Dewajtis\"","osm_id":"1773289235","ref":"POM301","tag":{"denotation":"natural_monument","is_in:city":"Gdynia","leaf_type":"broadleaved","name:en":"Monument of Nature 'Dewajtis Oak'","natural":"tree","opening_hours":"24/7","taxon:genus:en":"Oak","taxon:genus:pl":"D\u00c4\u0085b","tourism":"attraction"}},"type":"Feature"},
	{"geometry":{"coordinates":[18.491757,54.444384],"type":"Point"},"properties":{"name":"\u00c5\u00bbywotnik olbrzymi \"K\u00c4\u0099pa \u00c5\u00bcywotnika\"","osm_id":"1773309430","ref":"POM369","tag":{"denotation":"natural_monument","genus":"Thuja","is_in:city":"Gdynia","leaf_type":"needleleaved","natural":"tree","opening_hours":"24/7","species":"Thuja plicata Donn ex D.Don","species:wikidata":"Q147417","species:wikipedia":"pl:\u00c5\u00bbywotnik olbrzymi","taxon":"Thuja plicata","taxon:genus:en":"Giant Cedar","taxon:genus:pl":"\u00c5\u00bbywotnik Olbrzymi","tourism":"attraction"}},"type":"Feature"},
	{"geometry":{"coordinates":[18.480391,54.43505],"type":"Point"},"properties":{"is_in":"Gdynia","name":"Pomnik Przyrody","osm_id":"1773455237","ref":"POM308","tag":{"denotation":"natural_monument","natural":"tree"}},"type":"Feature"},
	{"geometry":{"coordinates":[18.524011,54.446154],"type":"Point"},"properties":{"name":"sosna i buk","osm_id":"1773475040","ref":"28(965) / POM303","tag":{"circumference":"3,77","denotation":"natural_monument","height":"30","leaf_cycle":"deciduous","leaf_type":"needleleaved","natural":"tree","species":"sosna zwyczajna"}},"type":"Feature"},
	{"geometry":{"coordinates":[18.484644,54.466564],"type":"Point"},"properties":{"osm_id":"1773603071","tag":{"natural":"tree"}},"type":"Feature"},
	{"geometry":{"coordinates":[18.485781,54.461019],"type":"Point"},"properties":{"osm_id":"1773612210","tag":{"natural":"tree"}},"type":"Feature"},
	{"geometry":{"coordinates":[18.483091,54.467237],"type":"Point"},"properties":{"osm_id":"1777831738","tag":{"natural":"tree"}},"type":"Feature"},
	{"geometry":{"coordinates":[18.483078,54.467367],"type":"Point"},"properties":{"osm_id":"1777831749","tag":{"natural":"tree"}},"type":"Feature"},
	{"geometry":{"coordinates":[18.483179,54.467534],"type":"Point"},"properties":{"osm_id":"1777831765","tag":{"natural":"tree"}},"type":"Feature"},
	{"geometry":{"coordinates":[18.483196,54.46756],"type":"Point"},"properties":{"osm_id":"1777831767","tag":{"natural":"tree"}},"type":"Feature"},
	{"geometry":{"coordinates":[18.482064,54.465802],"type":"Point"},"properties":{"osm_id":"1778009945","tag":{"genus":"Betula","genus:en":"Birch","genus:pl":"Brzoza","leaf_type":"broadleaved","natural":"tree"}},"type":"Feature"},
	{"geometry":{"coordinates":[18.482372,54.465826],"type":"Point"},"properties":{"osm_id":"1778009946","tag":{"genus":"Quercus","genus:en":"Oak","genus:pl":"D\u00c4\u0085b","leaf_type":"broadleaved","natural":"tree"}},"type":"Feature"},
	{"geometry":{"coordinates":[18.486019,54.467872],"type":"Point"},"properties":{"osm_id":"1779218172","tag":{"leaf_type":"broadleaved","natural":"tree"}},"type":"Feature"},
	{"geometry":{"coordinates":[18.4873,54.467844],"type":"Point"},"properties":{"osm_id":"1779218173","tag":{"natural":"tree"}},"type":"Feature"},
	{"geometry":{"coordinates":[18.486969,54.467844],"type":"Point"},"properties":{"osm_id":"1779218174","tag":{"natural":"tree"}},"type":"Feature"},
	{"geometry":{"coordinates":[18.487332,54.467854],"type":"Point"},"properties":{"osm_id":"1779218176","tag":{"natural":"tree"}},"type":"Feature"},
	{"geometry":{"coordinates":[18.486986,54.467863],"type":"Point"},"properties":{"osm_id":"1779218178","tag":{"natural":"tree"}},"type":"Feature"},
	{"geometry":{"coordinates":[18.487472,54.467885],"type":"Point"},"properties":{"osm_id":"1779218187","tag":{"natural":"tree"}},"type":"Feature"},
	{"geometry":{"coordinates":[18.487004,54.467884],"type":"Point"},"properties":{"osm_id":"1779218189","tag":{"natural":"tree"}},"type":"Feature"},
	{"geometry":{"coordinates":[18.487512,54.467894],"type":"Point"},"properties":{"osm_id":"1779218190","tag":{"natural":"tree"}},"type":"Feature"},
	{"geometry":{"coordinates":[18.487551,54.467903],"type":"Point"},"properties":{"osm_id":"1779218196","tag":{"natural":"tree"}},"type":"Feature"},
	{"geometry":{"coordinates":[18.486029,54.467899],"type":"Point"},"properties":{"osm_id":"1779218204","tag":{"leaf_type":"broadleaved","natural":"tree"}},"type":"Feature"},
	{"geometry":{"coordinates":[18.487023,54.467906],"type":"Point"},"properties":{"osm_id":"1779218206","tag":{"natural":"tree"}},"type":"Feature"},
	{"geometry":{"coordinates":[18.487261,54.467913],"type":"Point"},"properties":{"osm_id":"1779218209","tag":{"natural":"tree"}},"type":"Feature"},
	{"geometry":{"coordinates":[18.487604,54.467915],"type":"Point"},"properties":{"osm_id":"1779218213","tag":{"natural":"tree"}},"type":"Feature"},
	{"geometry":{"coordinates":[18.487655,54.467926],"type":"Point"},"properties":{"osm_id":"1779218220","tag":{"natural":"tree"}},"type":"Feature"},
	{"geometry":{"coordinates":[18.487042,54.467927],"type":"Point"},"properties":{"osm_id":"1779218224","tag":{"natural":"tree"}},"type":"Feature"},
	{"geometry":{"coordinates":[18.487309,54.46794],"type":"Point"},"properties":{"osm_id":"1779218228","tag":{"natural":"tree"}},"type":"Feature"},
	{"geometry":{"coordinates":[18.487724,54.467942],"type":"Point"},"properties":{"osm_id":"1779218229","tag":{"natural":"tree"}},"type":"Feature"},
	{"geometry":{"coordinates":[18.487064,54.467952],"type":"Point"},"properties":{"osm_id":"1779218234","tag":{"natural":"tree"}},"type":"Feature"},
	{"geometry":{"coordinates":[18.487784,54.467956],"type":"Point"},"properties":{"osm_id":"1779218235","tag":{"natural":"tree"}},"type":"Feature"},
	{"geometry":{"coordinates":[18.487269,54.467963],"type":"Point"},"properties":{"osm_id":"1779218236","tag":{"natural":"tree"}},"type":"Feature"},
	{"geometry":{"coordinates":[18.487827,54.467965],"type":"Point"},"properties":{"osm_id":"1779218239","tag":{"natural":"tree"}},"type":"Feature"},
	{"geometry":{"coordinates":[18.487872,54.467976],"type":"Point"},"properties":{"osm_id":"1779218242","tag":{"natural":"tree"}},"type":"Feature"},
	{"geometry":{"coordinates":[18.487084,54.467975],"type":"Point"},"properties":{"osm_id":"1779218244","tag":{"natural":"tree"}},"type":"Feature"},
	{"geometry":{"coordinates":[18.48711,54.468005],"type":"Point"},"properties":{"osm_id":"1779218255","tag":{"natural":"tree"}},"type":"Feature"},
	{"geometry":{"coordinates":[18.487131,54.468028],"type":"Point"},"properties":{"osm_id":"1779218262","tag":{"natural":"tree"}},"type":"Feature"},
	{"geometry":{"coordinates":[18.487152,54.468053],"type":"Point"},"properties":{"osm_id":"1779218266","tag":{"natural":"tree"}},"type":"Feature"},
	{"geometry":{"coordinates":[18.486999,54.469409],"type":"Point"},"properties":{"osm_id":"1786511066","tag":{"natural":"tree"}},"type":"Feature"},
	{"geometry":{"coordinates":[18.462466,54.449989],"type":"Point"},"properties":{"osm_id":"1797220463","tag":{"natural":"tree"}},"type":"Feature"},
	{"geometry":{"coordinates":[18.462534,54.449991],"type":"Point"},"properties":{"osm_id":"1797220464","tag":{"natural":"tree"}},"type":"Feature"},
	{"geometry":{"coordinates":[18.462407,54.449996],"type":"Point"},"properties":{"osm_id":"1797220465","tag":{"natural":"tree"}},"type":"Feature"},
	{"geometry":{"coordinates":[18.462333,54.450005],"type":"Point"},"properties":{"osm_id":"1797220466","tag":{"natural":"tree"}},"type":"Feature"},
	{"geometry":{"coordinates":[18.462767,54.450008],"type":"Point"},"properties":{"osm_id":"1797220467","tag":{"natural":"tree"}},"type":"Feature"},
	{"geometry":{"coordinates":[18.462187,54.450021],"type":"Point"},"properties":{"osm_id":"1797220468","tag":{"natural":"tree"}},"type":"Feature"},
	{"geometry":{"coordinates":[18.462825,54.450031],"type":"Point"},"properties":{"osm_id":"1797220469","tag":{"natural":"tree"}},"type":"Feature"},
	{"geometry":{"coordinates":[18.462012,54.450049],"type":"Point"},"properties":{"osm_id":"1797220470","tag":{"natural":"tree"}},"type":"Feature"},
	{"geometry":{"coordinates":[18.461951,54.450056],"type":"Point"},"properties":{"osm_id":"1797220471","tag":{"natural":"tree"}},"type":"Feature"},
	{"geometry":{"coordinates":[18.461873,54.450069],"type":"Point"},"properties":{"osm_id":"1797220472","tag":{"natural":"tree"}},"type":"Feature"},
	{"geometry":{"coordinates":[18.461979,54.450903],"type":"Point"},"properties":{"osm_id":"1797220473","tag":{"natural":"tree"}},"type":"Feature"},
	{"geometry":{"coordinates":[18.461842,54.450909],"type":"Point"},"properties":{"osm_id":"1797220474","tag":{"natural":"tree"}},"type":"Feature"},
	{"geometry":{"coordinates":[18.461674,54.450925],"type":"Point"},"properties":{"osm_id":"1797220475","tag":{"natural":"tree"}},"type":"Feature"},
	{"geometry":{"coordinates":[18.461576,54.450935],"type":"Point"},"properties":{"osm_id":"1797220476","tag":{"natural":"tree"}},"type":"Feature"},
	{"geometry":{"coordinates":[18.47192,54.446453],"type":"Point"},"properties":{"osm_id":"1833326496","tag":{"denotation":"natural_monument","leaf_type":"broadleaved","natural":"tree"}},"type":"Feature"},
	{"geometry":{"coordinates":[18.483107,54.467417],"type":"Point"},"properties":{"osm_id":"2616450585","tag":{"natural":"tree"}},"type":"Feature"},
	{"geometry":{"coordinates":[18.483143,54.467474],"type":"Point"},"properties":{"osm_id":"2616450592","tag":{"natural":"tree"}},"type":"Feature"},
	{"geometry":{"coordinates":[18.483216,54.467591],"type":"Point"},"properties":{"osm_id":"2616450624","tag":{"natural":"tree"}},"type":"Feature"},
	{"geometry":{"coordinates":[18.48335,54.467665],"type":"Point"},"properties":{"osm_id":"2616450633","tag":{"natural":"tree"}},"type":"Feature"},
	{"geometry":{"coordinates":[18.483256,54.467677],"type":"Point"},"properties":{"osm_id":"2616450637","tag":{"natural":"tree"}},"type":"Feature"},
	{"geometry":{"coordinates":[18.54375,54.430374],"type":"Point"},"properties":{"name":"D\u00c4\u0085b Esperantyst\u00c3\u00b3w","osm_id":"2928099107","tag":{"natural":"tree"}},"type":"Feature"},
	{"geometry":{"coordinates":[18.487705,54.448051],"type":"Point"},"properties":{"name":"Pomnik Przyrody","osm_id":"3499675601","tag":{"denotation":"natural_monument","natural":"tree"}},"type":"Feature"},
	{"geometry":{"coordinates":[18.460458,54.425012],"type":"Point"},"properties":{"osm_id":"3889350827","tag":{"leaf_cycle":"evergreen","leaf_type":"needleleaved","natural":"tree"}},"type":"Feature"},
	{"geometry":{"coordinates":[18.460517,54.425051],"type":"Point"},"properties":{"osm_id":"3889350831","tag":{"leaf_cycle":"evergreen","leaf_type":"needleleaved","natural":"tree"}},"type":"Feature"},
	{"geometry":{"coordinates":[18.460576,54.425082],"type":"Point"},"properties":{"osm_id":"3889350836","tag":{"leaf_cycle":"evergreen","leaf_type":"needleleaved","natural":"tree"}},"type":"Feature"},
	{"geometry":{"coordinates":[18.460608,54.425146],"type":"Point"},"properties":{"osm_id":"3889350849","tag":{"leaf_cycle":"evergreen","leaf_type":"needleleaved","natural":"tree"}},"type":"Feature"},
	{"geometry":{"coordinates":[18.460663,54.425176],"type":"Point"},"properties":{"osm_id":"3889350855","tag":{"leaf_cycle":"evergreen","leaf_type":"needleleaved","natural":"tree"}},"type":"Feature"},
	{"geometry":{"coordinates":[18.460713,54.425218],"type":"Point"},"properties":{"osm_id":"3889350960","tag":{"leaf_cycle":"evergreen","leaf_type":"needleleaved","natural":"tree"}},"type":"Feature"},
	{"geometry":{"coordinates":[18.460758,54.425251],"type":"Point"},"properties":{"osm_id":"3889350963","tag":{"leaf_cycle":"evergreen","leaf_type":"needleleaved","natural":"tree"}},"type":"Feature"},
	{"geometry":{"coordinates":[18.460882,54.425354],"type":"Point"},"properties":{"osm_id":"3889350975","tag":{"leaf_cycle":"evergreen","leaf_type":"needleleaved","natural":"tree"}},"type":"Feature"},
	{"geometry":{"coordinates":[18.460298,54.452318],"type":"Point"},"properties":{"osm_id":"4050072068","tag":{"natural":"tree"}},"type":"Feature"},
	{"geometry":{"coordinates":[18.460395,54.452327],"type":"Point"},"properties":{"osm_id":"4050072069","tag":{"natural":"tree"}},"type":"Feature"},
	{"geometry":{"coordinates":[18.458045,54.425422],"type":"Point"},"properties":{"osm_id":"5325985625","tag":{"natural":"tree"}},"type":"Feature"},
	{"geometry":{"coordinates":[18.458148,54.42553],"type":"Point"},"properties":{"osm_id":"5325985626","tag":{"natural":"tree"}},"type":"Feature"},
	{"geometry":{"coordinates":[18.458266,54.425526],"type":"Point"},"properties":{"osm_id":"5325985627","tag":{"natural":"tree"}},"type":"Feature"},
	{"geometry":{"coordinates":[18.458552,54.425765],"type":"Point"},"properties":{"osm_id":"5325985628","tag":{"natural":"tree"}},"type":"Feature"},
	{"geometry":{"coordinates":[18.459204,54.426333],"type":"Point"},"properties":{"osm_id":"5325985629","tag":{"natural":"tree"}},"type":"Feature"},
	{"geometry":{"coordinates":[18.459266,54.426382],"type":"Point"},"properties":{"osm_id":"5325985630","tag":{"natural":"tree"}},"type":"Feature"},
	{"geometry":{"coordinates":[18.467471,54.426596],"type":"Point"},"properties":{"osm_id":"5329629259","tag":{"natural":"tree"}},"type":"Feature"},
	{"geometry":{"coordinates":[18.468035,54.428644],"type":"Point"},"properties":{"osm_id":"5329629294","tag":{"leaf_type":"needleleaved","natural":"tree"}},"type":"Feature"},
	{"geometry":{"coordinates":[18.482427,54.427986],"type":"Point"},"properties":{"osm_id":"5329887336","tag":{"natural":"tree"}},"type":"Feature"},
	{"geometry":{"coordinates":[18.460025,54.427213],"type":"Point"},"properties":{"osm_id":"5337101850","tag":{"natural":"tree"}},"type":"Feature"},
	{"geometry":{"coordinates":[18.459763,54.427377],"type":"Point"},"properties":{"osm_id":"5337101851","tag":{"natural":"tree"}},"type":"Feature"},
	{"geometry":{"coordinates":[18.459432,54.427411],"type":"Point"},"properties":{"osm_id":"5337101852","tag":{"natural":"tree"}},"type":"Feature"},
	{"geometry":{"coordinates":[18.4791,54.430459],"type":"Point"},"properties":{"osm_id":"5337783730","tag":{"natural":"tree"}},"type":"Feature"},
	{"geometry":{"coordinates":[18.476676,54.4298],"type":"Point"},"properties":{"osm_id":"5337783731","tag":{"natural":"tree"}},"type":"Feature"},
	{"geometry":{"coordinates":[18.476121,54.429973],"type":"Point"},"properties":{"osm_id":"5337783732","tag":{"natural":"tree"}},"type":"Feature"},
	{"geometry":{"coordinates":[18.471118,54.432396],"type":"Point"},"properties":{"osm_id":"5337783734","tag":{"natural":"tree"}},"type":"Feature"},
	{"geometry":{"coordinates":[18.465832,54.435025],"type":"Point"},"properties":{"osm_id":"5337783735","tag":{"natural":"tree"}},"type":"Feature"},
	{"geometry":{"coordinates":[18.465987,54.434953],"type":"Point"},"properties":{"osm_id":"5337783736","tag":{"natural":"tree"}},"type":"Feature"},
	{"geometry":{"coordinates":[18.465676,54.435095],"type":"Point"},"properties":{"osm_id":"5337783737","tag":{"natural":"tree"}},"type":"Feature"},
	{"geometry":{"coordinates":[18.464665,54.435593],"type":"Point"},"properties":{"osm_id":"5337783738","tag":{"natural":"tree"}},"type":"Feature"},
	{"geometry":{"coordinates":[18.464512,54.435667],"type":"Point"},"properties":{"osm_id":"5337783739","tag":{"natural":"tree"}},"type":"Feature"},
	{"geometry":{"coordinates":[18.464198,54.435825],"type":"Point"},"properties":{"osm_id":"5337783740","tag":{"natural":"tree"}},"type":"Feature"},
	{"geometry":{"coordinates":[18.463263,54.436362],"type":"Point"},"properties":{"osm_id":"5337783741","tag":{"natural":"tree"}},"type":"Feature"},
	{"geometry":{"coordinates":[18.463469,54.436201],"type":"Point"},"properties":{"osm_id":"5337783742","tag":{"natural":"tree"}},"type":"Feature"},
	{"geometry":{"coordinates":[18.463801,54.436146],"type":"Point"},"properties":{"osm_id":"5337783743","tag":{"natural":"tree"}},"type":"Feature"},
	{"geometry":{"coordinates":[18.463178,54.436681],"type":"Point"},"properties":{"osm_id":"5337783744","tag":{"natural":"tree"}},"type":"Feature"},
	{"geometry":{"coordinates":[18.462982,54.436701],"type":"Point"},"properties":{"osm_id":"5337783745","tag":{"natural":"tree"}},"type":"Feature"},
	{"geometry":{"coordinates":[18.462036,54.438115],"type":"Point"},"properties":{"osm_id":"5337783746","tag":{"natural":"tree"}},"type":"Feature"},
	{"geometry":{"coordinates":[18.469357,54.433289],"type":"Point"},"properties":{"osm_id":"5337783751","tag":{"natural":"tree"}},"type":"Feature"},
	{"geometry":{"coordinates":[18.469646,54.433148],"type":"Point"},"properties":{"osm_id":"5337783752","tag":{"natural":"tree"}},"type":"Feature"},
	{"geometry":{"coordinates":[18.470521,54.432805],"type":"Point"},"properties":{"osm_id":"5337783753","tag":{"natural":"tree"}},"type":"Feature"},
	{"geometry":{"coordinates":[18.47036,54.432882],"type":"Point"},"properties":{"osm_id":"5337783754","tag":{"natural":"tree"}},"type":"Feature"},
	{"geometry":{"coordinates":[18.474034,54.431093],"type":"Point"},"properties":{"osm_id":"5337783755","tag":{"natural":"tree"}},"type":"Feature"},
	{"geometry":{"coordinates":[18.474188,54.43087],"type":"Point"},"properties":{"osm_id":"5337783756","tag":{"natural":"tree"}},"type":"Feature"},
	{"geometry":{"coordinates":[18.476766,54.429752],"type":"Point"},"properties":{"osm_id":"5337783757","tag":{"natural":"tree"}},"type":"Feature"},
	{"geometry":{"coordinates":[18.466278,54.434804],"type":"Point"},"properties":{"osm_id":"5339190877","tag":{"natural":"tree"}},"type":"Feature"},
	{"geometry":{"coordinates":[18.461054,54.438558],"type":"Point"},"properties":{"osm_id":"5339416860","tag":{"natural":"tree"}},"type":"Feature"},
	{"geometry":{"coordinates":[18.471126,54.426106],"type":"Point"},"properties":{"osm_id":"5341502535","tag":{"leaf_type":"broadleaved","natural":"tree"}},"type":"Feature"},
	{"geometry":{"coordinates":[18.468343,54.428851],"type":"Point"},"properties":{"osm_id":"5347802656","tag":{"leaf_type":"needleleaved","natural":"tree"}},"type":"Feature"},
	{"geometry":{"coordinates":[18.467665,54.428395],"type":"Point"},"properties":{"osm_id":"5347802661","tag":{"leaf_type":"broadleaved","natural":"tree"}},"type":"Feature"},
	{"geometry":{"coordinates":[18.467556,54.428301],"type":"Point"},"properties":{"osm_id":"5347802662","tag":{"leaf_type":"broadleaved","natural":"tree"}},"type":"Feature"},
	{"geometry":{"coordinates":[18.464875,54.426894],"type":"Point"},"properties":{"osm_id":"5347802687","tag":{"leaf_type":"broadleaved","natural":"tree"}},"type":"Feature"},
	{"geometry":{"coordinates":[18.466228,54.426849],"type":"Point"},"properties":{"osm_id":"5347802696","tag":{"leaf_type":"broadleaved","natural":"tree"}},"type":"Feature"},
	{"geometry":{"coordinates":[18.485839,54.419367],"type":"Point"},"properties":{"osm_id":"5347857528","tag":{"natural":"tree"}},"type":"Feature"},
	{"geometry":{"coordinates":[18.467521,54.426722],"type":"Point"},"properties":{"osm_id":"5350829082","tag":{"leaf_type":"needleleaved","natural":"tree"}},"type":"Feature"},
	{"geometry":{"coordinates":[18.467905,54.427052],"type":"Point"},"properties":{"osm_id":"5351020437","tag":{"leaf_type":"needleleaved","natural":"tree"}},"type":"Feature"},
	{"geometry":{"coordinates":[18.467716,54.426904],"type":"Point"},"properties":{"osm_id":"5351020438","tag":{"leaf_type":"needleleaved","natural":"tree"}},"type":"Feature"},
	{"geometry":{"coordinates":[18.467751,54.426882],"type":"Point"},"properties":{"osm_id":"5351020439","tag":{"leaf_type":"needleleaved","natural":"tree"}},"type":"Feature"},
	{"geometry":{"coordinates":[18.467677,54.426826],"type":"Point"},"properties":{"osm_id":"5351020440","tag":{"leaf_type":"needleleaved","natural":"tree"}},"type":"Feature"},
	{"geometry":{"coordinates":[18.463906,54.427325],"type":"Point"},"properties":{"osm_id":"5351487032","tag":{"leaf_type":"needleleaved","natural":"tree"}},"type":"Feature"},
	{"geometry":{"coordinates":[18.465338,54.427002],"type":"Point"},"properties":{"osm_id":"5351488071","tag":{"leaf_type":"needleleaved","natural":"tree"}},"type":"Feature"},
	{"geometry":{"coordinates":[18.465158,54.427003],"type":"Point"},"properties":{"osm_id":"5351488072","tag":{"leaf_type":"needleleaved","natural":"tree"}},"type":"Feature"},
	{"geometry":{"coordinates":[18.46491,54.426848],"type":"Point"},"properties":{"osm_id":"5351488073","tag":{"leaf_type":"needleleaved","natural":"tree"}},"type":"Feature"},
	{"geometry":{"coordinates":[18.465195,54.426784],"type":"Point"},"properties":{"osm_id":"5351488074","tag":{"leaf_type":"needleleaved","natural":"tree"}},"type":"Feature"},
	{"geometry":{"coordinates":[18.46575,54.426765],"type":"Point"},"properties":{"osm_id":"5351488075","tag":{"leaf_type":"broadleaved","natural":"tree"}},"type":"Feature"},
	{"geometry":{"coordinates":[18.465924,54.426754],"type":"Point"},"properties":{"osm_id":"5351488076","tag":{"leaf_type":"broadleaved","natural":"tree"}},"type":"Feature"},
	{"geometry":{"coordinates":[18.466026,54.426717],"type":"Point"},"properties":{"osm_id":"5351488077","tag":{"leaf_type":"broadleaved","natural":"tree"}},"type":"Feature"},
	{"geometry":{"coordinates":[18.469279,54.426064],"type":"Point"},"properties":{"osm_id":"5351488078","tag":{"leaf_type":"needleleaved","natural":"tree"}},"type":"Feature"},
	{"geometry":{"coordinates":[18.469229,54.426028],"type":"Point"},"properties":{"osm_id":"5351488079","tag":{"leaf_type":"needleleaved","natural":"tree"}},"type":"Feature"},
	{"geometry":{"coordinates":[18.469032,54.426144],"type":"Point"},"properties":{"osm_id":"5351488080","tag":{"leaf_type":"needleleaved","natural":"tree"}},"type":"Feature"},
	{"geometry":{"coordinates":[18.468601,54.426056],"type":"Point"},"properties":{"osm_id":"5351488081","tag":{"leaf_type":"needleleaved","natural":"tree"}},"type":"Feature"},
	{"geometry":{"coordinates":[18.46846,54.426108],"type":"Point"},"properties":{"osm_id":"5351488082","tag":{"leaf_type":"needleleaved","natural":"tree"}},"type":"Feature"},
	{"geometry":{"coordinates":[18.468554,54.426289],"type":"Point"},"properties":{"osm_id":"5351488083","tag":{"leaf_type":"broadleaved","natural":"tree"}},"type":"Feature"},
	{"geometry":{"coordinates":[18.468205,54.426523],"type":"Point"},"properties":{"osm_id":"5351488084","tag":{"leaf_type":"needleleaved","natural":"tree"}},"type":"Feature"},
	{"geometry":{"coordinates":[18.468214,54.426469],"type":"Point"},"properties":{"osm_id":"5351488085","tag":{"leaf_type":"needleleaved","natural":"tree"}},"type":"Feature"},
	{"geometry":{"coordinates":[18.468161,54.426492],"type":"Point"},"properties":{"osm_id":"5351488086","tag":{"leaf_type":"needleleaved","natural":"tree"}},"type":"Feature"},
	{"geometry":{"coordinates":[18.467912,54.426361],"type":"Point"},"properties":{"osm_id":"5351488087","tag":{"leaf_type":"needleleaved","natural":"tree"}},"type":"Feature"},
	{"geometry":{"coordinates":[18.468137,54.426753],"type":"Point"},"properties":{"osm_id":"5351488088","tag":{"leaf_type":"broadleaved","natural":"tree"}},"type":"Feature"},
	{"geometry":{"coordinates":[18.468157,54.426977],"type":"Point"},"properties":{"osm_id":"5351488089","tag":{"leaf_type":"broadleaved","natural":"tree"}},"type":"Feature"},
	{"geometry":{"coordinates":[18.470873,54.426883],"type":"Point"},"properties":{"osm_id":"5351607509","tag":{"leaf_type":"needleleaved","natural":"tree"}},"type":"Feature"},
	{"geometry":{"coordinates":[18.468822,54.427987],"type":"Point"},"properties":{"osm_id":"5351727971","tag":{"leaf_type":"broadleaved","natural":"tree"}},"type":"Feature"},
	{"geometry":{"coordinates":[18.468789,54.428103],"type":"Point"},"properties":{"osm_id":"5351727972","tag":{"leaf_type":"broadleaved","natural":"tree"}},"type":"Feature"},
	{"geometry":{"coordinates":[18.469382,54.427713],"type":"Point"},"properties":{"osm_id":"5351727981","tag":{"leaf_type":"broadleaved","natural":"tree"}},"type":"Feature"},
	{"geometry":{"coordinates":[18.469574,54.427497],"type":"Point"},"properties":{"osm_id":"5351727982","tag":{"leaf_type":"broadleaved","natural":"tree"}},"type":"Feature"},
	{"geometry":{"coordinates":[18.468471,54.426569],"type":"Point"},"properties":{"osm_id":"5351727985","tag":{"leaf_type":"broadleaved","natural":"tree"}},"type":"Feature"},
	{"geometry":{"coordinates":[18.46867,54.426725],"type":"Point"},"properties":{"osm_id":"5351727986","tag":{"leaf_type":"broadleaved","natural":"tree"}},"type":"Feature"},
	{"geometry":{"coordinates":[18.468621,54.426746],"type":"Point"},"properties":{"osm_id":"5351727987","tag":{"leaf_type":"broadleaved","natural":"tree"}},"type":"Feature"},
	{"geometry":{"coordinates":[18.46857,54.426771],"type":"Point"},"properties":{"osm_id":"5351727988","tag":{"leaf_type":"broadleaved","natural":"tree"}},"type":"Feature"},
	{"geometry":{"coordinates":[18.469697,54.427565],"type":"Point"},"properties":{"osm_id":"5351727994","tag":{"leaf_type":"needleleaved","natural":"tree"}},"type":"Feature"},
	{"geometry":{"coordinates":[18.46825,54.428421],"type":"Point"},"properties":{"osm_id":"5351743119","tag":{"leaf_type":"broadleaved","natural":"tree"}},"type":"Feature"},
	{"geometry":{"coordinates":[18.468101,54.428365],"type":"Point"},"properties":{"osm_id":"5351743120","tag":{"leaf_type":"broadleaved","natural":"tree"}},"type":"Feature"},
	{"geometry":{"coordinates":[18.468789,54.428204],"type":"Point"},"properties":{"osm_id":"5351743333","tag":{"leaf_type":"needleleaved","natural":"tree"}},"type":"Feature"},
	{"geometry":{"coordinates":[18.468435,54.428304],"type":"Point"},"properties":{"osm_id":"5351743334","tag":{"leaf_type":"broadleaved","natural":"tree"}},"type":"Feature"},
	{"geometry":{"coordinates":[18.466161,54.427258],"type":"Point"},"properties":{"osm_id":"5352352363","tag":{"leaf_type":"broadleaved","natural":"tree"}},"type":"Feature"},
	{"geometry":{"coordinates":[18.466046,54.427518],"type":"Point"},"properties":{"osm_id":"5352352364","tag":{"leaf_type":"broadleaved","natural":"tree"}},"type":"Feature"},
	{"geometry":{"coordinates":[18.466523,54.427499],"type":"Point"},"properties":{"osm_id":"5352352365","tag":{"leaf_type":"needleleaved","natural":"tree"}},"type":"Feature"},
	{"geometry":{"coordinates":[18.466687,54.4276],"type":"Point"},"properties":{"osm_id":"5352352366","tag":{"leaf_type":"needleleaved","natural":"tree"}},"type":"Feature"},
	{"geometry":{"coordinates":[18.463028,54.42869],"type":"Point"},"properties":{"osm_id":"5352690529","tag":{"leaf_type":"broadleaved","natural":"tree"}},"type":"Feature"},
	{"geometry":{"coordinates":[18.463546,54.428421],"type":"Point"},"properties":{"osm_id":"5352690530","tag":{"leaf_type":"needleleaved","natural":"tree"}},"type":"Feature"},
	{"geometry":{"coordinates":[18.463287,54.428379],"type":"Point"},"properties":{"osm_id":"5352690531","tag":{"leaf_type":"needleleaved","natural":"tree"}},"type":"Feature"},
	{"geometry":{"coordinates":[18.464133,54.428015],"type":"Point"},"properties":{"osm_id":"5352690535","tag":{"leaf_type":"broadleaved","natural":"tree"}},"type":"Feature"},
	{"geometry":{"coordinates":[18.464263,54.427951],"type":"Point"},"properties":{"osm_id":"5352690536","tag":{"leaf_type":"broadleaved","natural":"tree"}},"type":"Feature"},
	{"geometry":{"coordinates":[18.464432,54.428018],"type":"Point"},"properties":{"osm_id":"5352690537","tag":{"leaf_type":"needleleaved","natural":"tree"}},"type":"Feature"},
	{"geometry":{"coordinates":[18.46459,54.427698],"type":"Point"},"properties":{"osm_id":"5352690540","tag":{"leaf_type":"needleleaved","natural":"tree"}},"type":"Feature"},
	{"geometry":{"coordinates":[18.464792,54.427575],"type":"Point"},"properties":{"osm_id":"5352690541","tag":{"leaf_type":"broadleaved","natural":"tree"}},"type":"Feature"},
	{"geometry":{"coordinates":[18.465443,54.427489],"type":"Point"},"properties":{"osm_id":"5352690554","tag":{"leaf_type":"broadleaved","natural":"tree"}},"type":"Feature"},
	{"geometry":{"coordinates":[18.465389,54.427272],"type":"Point"},"properties":{"osm_id":"5352690555","tag":{"leaf_type":"needleleaved","natural":"tree"}},"type":"Feature"},
	{"geometry":{"coordinates":[18.462414,54.428672],"type":"Point"},"properties":{"osm_id":"5353030182","tag":{"leaf_type":"broadleaved","natural":"tree"}},"type":"Feature"},
	{"geometry":{"coordinates":[18.460982,54.42793],"type":"Point"},"properties":{"osm_id":"5353070723","tag":{"leaf_type":"broadleaved","natural":"tree"}},"type":"Feature"},
	{"geometry":{"coordinates":[18.4634,54.427588],"type":"Point"},"properties":{"osm_id":"5353070724","tag":{"leaf_type":"needleleaved","natural":"tree"}},"type":"Feature"},
	{"geometry":{"coordinates":[18.463136,54.427663],"type":"Point"},"properties":{"osm_id":"5353070725","tag":{"leaf_type":"needleleaved","natural":"tree"}},"type":"Feature"},
	{"geometry":{"coordinates":[18.462933,54.427695],"type":"Point"},"properties":{"osm_id":"5353070726","tag":{"leaf_type":"needleleaved","natural":"tree"}},"type":"Feature"},
	{"geometry":{"coordinates":[18.462442,54.42775],"type":"Point"},"properties":{"osm_id":"5353070727","tag":{"leaf_type":"needleleaved","natural":"tree"}},"type":"Feature"},
	{"geometry":{"coordinates":[18.46186,54.427834],"type":"Point"},"properties":{"osm_id":"5353070728","tag":{"leaf_type":"needleleaved","natural":"tree"}},"type":"Feature"},
	{"geometry":{"coordinates":[18.461568,54.428326],"type":"Point"},"properties":{"osm_id":"5353070729","tag":{"leaf_type":"broadleaved","natural":"tree"}},"type":"Feature"},
	{"geometry":{"coordinates":[18.46238,54.428121],"type":"Point"},"properties":{"osm_id":"5353070731","tag":{"leaf_type":"broadleaved","natural":"tree"}},"type":"Feature"},
	{"geometry":{"coordinates":[18.462061,54.428322],"type":"Point"},"properties":{"osm_id":"5353070732","tag":{"leaf_type":"needleleaved","natural":"tree"}},"type":"Feature"},
	{"geometry":{"coordinates":[18.462436,54.42828],"type":"Point"},"properties":{"osm_id":"5353070733","tag":{"leaf_type":"broadleaved","natural":"tree"}},"type":"Feature"},
	{"geometry":{"coordinates":[18.462292,54.428637],"type":"Point"},"properties":{"osm_id":"5353070736","tag":{"leaf_type":"broadleaved","natural":"tree"}},"type":"Feature"},
	{"geometry":{"coordinates":[18.462361,54.428516],"type":"Point"},"properties":{"osm_id":"5353070737","tag":{"leaf_type":"needleleaved","natural":"tree"}},"type":"Feature"},
	{"geometry":{"coordinates":[18.4624,54.428621],"type":"Point"},"properties":{"osm_id":"5353070738","tag":{"leaf_type":"needleleaved","natural":"tree"}},"type":"Feature"},
	{"geometry":{"coordinates":[18.462764,54.428629],"type":"Point"},"properties":{"osm_id":"5353070740","tag":{"leaf_type":"needleleaved","natural":"tree"}},"type":"Feature"},
	{"geometry":{"coordinates":[18.462634,54.42864],"type":"Point"},"properties":{"osm_id":"5353070741","tag":{"leaf_type":"needleleaved","natural":"tree"}},"type":"Feature"},
	{"geometry":{"coordinates":[18.46249,54.428653],"type":"Point"},"properties":{"osm_id":"5353070742","tag":{"leaf_type":"broadleaved","natural":"tree"}},"type":"Feature"},
	{"geometry":{"coordinates":[18.464401,54.426887],"type":"Point"},"properties":{"osm_id":"5353083745","tag":{"leaf_type":"broadleaved","natural":"tree"}},"type":"Feature"},
	{"geometry":{"coordinates":[18.464385,54.42674],"type":"Point"},"properties":{"osm_id":"5353083746","tag":{"leaf_type":"broadleaved","natural":"tree"}},"type":"Feature"},
	{"geometry":{"coordinates":[18.464922,54.428472],"type":"Point"},"properties":{"osm_id":"5354290833","tag":{"leaf_type":"needleleaved","natural":"tree"}},"type":"Feature"},
	{"geometry":{"coordinates":[18.465158,54.428361],"type":"Point"},"properties":{"osm_id":"5354290834","tag":{"leaf_type":"needleleaved","natural":"tree"}},"type":"Feature"},
	{"geometry":{"coordinates":[18.465274,54.428274],"type":"Point"},"properties":{"osm_id":"5354290839","tag":{"leaf_type":"needleleaved","natural":"tree"}},"type":"Feature"},
	{"geometry":{"coordinates":[18.465594,54.42838],"type":"Point"},"properties":{"osm_id":"5354290840","tag":{"leaf_type":"needleleaved","natural":"tree"}},"type":"Feature"},
	{"geometry":{"coordinates":[18.465479,54.428193],"type":"Point"},"properties":{"osm_id":"5354290841","tag":{"leaf_type":"needleleaved","natural":"tree"}},"type":"Feature"},
	{"geometry":{"coordinates":[18.465768,54.42824],"type":"Point"},"properties":{"osm_id":"5354290844","tag":{"leaf_type":"broadleaved","natural":"tree"}},"type":"Feature"},
	{"geometry":{"coordinates":[18.465744,54.428063],"type":"Point"},"properties":{"osm_id":"5354290845","tag":{"leaf_type":"needleleaved","natural":"tree"}},"type":"Feature"},
	{"geometry":{"coordinates":[18.466372,54.428031],"type":"Point"},"properties":{"osm_id":"5354290857","tag":{"leaf_type":"needleleaved","natural":"tree"}},"type":"Feature"},
	{"geometry":{"coordinates":[18.463064,54.429485],"type":"Point"},"properties":{"osm_id":"5354335167","tag":{"leaf_type":"needleleaved","natural":"tree"}},"type":"Feature"},
	{"geometry":{"coordinates":[18.463297,54.429338],"type":"Point"},"properties":{"osm_id":"5354335170","tag":{"leaf_type":"needleleaved","natural":"tree"}},"type":"Feature"},
	{"geometry":{"coordinates":[18.46376,54.428825],"type":"Point"},"properties":{"osm_id":"5354335179","tag":{"leaf_type":"broadleaved","natural":"tree"}},"type":"Feature"},
	{"geometry":{"coordinates":[18.464211,54.428886],"type":"Point"},"properties":{"osm_id":"5354335195","tag":{"leaf_type":"needleleaved","natural":"tree"}},"type":"Feature"},
	{"geometry":{"coordinates":[18.464095,54.428915],"type":"Point"},"properties":{"osm_id":"5354335196","tag":{"leaf_type":"needleleaved","natural":"tree"}},"type":"Feature"},
	{"geometry":{"coordinates":[18.464246,54.428823],"type":"Point"},"properties":{"osm_id":"5354335197","tag":{"leaf_type":"needleleaved","natural":"tree"}},"type":"Feature"},
	{"geometry":{"coordinates":[18.464531,54.42888],"type":"Point"},"properties":{"osm_id":"5354335198","tag":{"leaf_type":"broadleaved","natural":"tree"}},"type":"Feature"},
	{"geometry":{"coordinates":[18.46436,54.428868],"type":"Point"},"properties":{"osm_id":"5354335199","tag":{"leaf_type":"broadleaved","natural":"tree"}},"type":"Feature"},
	{"geometry":{"coordinates":[18.464508,54.428793],"type":"Point"},"properties":{"osm_id":"5354335200","tag":{"leaf_type":"broadleaved","natural":"tree"}},"type":"Feature"},
	{"geometry":{"coordinates":[18.464832,54.428795],"type":"Point"},"properties":{"osm_id":"5354335201","tag":{"leaf_type":"needleleaved","natural":"tree"}},"type":"Feature"},
	{"geometry":{"coordinates":[18.464706,54.428786],"type":"Point"},"properties":{"osm_id":"5354335202","tag":{"leaf_type":"broadleaved","natural":"tree"}},"type":"Feature"},
	{"geometry":{"coordinates":[18.464661,54.42871],"type":"Point"},"properties":{"osm_id":"5354335205","tag":{"leaf_type":"broadleaved","natural":"tree"}},"type":"Feature"},
	{"geometry":{"coordinates":[18.464808,54.428639],"type":"Point"},"properties":{"osm_id":"5354335206","tag":{"leaf_type":"broadleaved","natural":"tree"}},"type":"Feature"},
	{"geometry":{"coordinates":[18.464702,54.428573],"type":"Point"},"properties":{"osm_id":"5354335207","tag":{"leaf_type":"broadleaved","natural":"tree"}},"type":"Feature"},
	{"geometry":{"coordinates":[18.46504,54.42869],"type":"Point"},"properties":{"osm_id":"5354335208","tag":{"leaf_type":"needleleaved","natural":"tree"}},"type":"Feature"},
	{"geometry":{"coordinates":[18.464883,54.428693],"type":"Point"},"properties":{"osm_id":"5354335209","tag":{"leaf_type":"broadleaved","natural":"tree"}},"type":"Feature"},
	{"geometry":{"coordinates":[18.46497,54.428648],"type":"Point"},"properties":{"osm_id":"5354335210","tag":{"leaf_type":"broadleaved","natural":"tree"}},"type":"Feature"},
	{"geometry":{"coordinates":[18.462708,54.429286],"type":"Point"},"properties":{"osm_id":"5354349840","tag":{"leaf_type":"broadleaved","natural":"tree"}},"type":"Feature"},
	{"geometry":{"coordinates":[18.462785,54.429383],"type":"Point"},"properties":{"osm_id":"5354349841","tag":{"leaf_type":"broadleaved","natural":"tree"}},"type":"Feature"},
	{"geometry":{"coordinates":[18.462652,54.429403],"type":"Point"},"properties":{"osm_id":"5354349842","tag":{"leaf_type":"needleleaved","natural":"tree"}},"type":"Feature"},
	{"geometry":{"coordinates":[18.462577,54.429315],"type":"Point"},"properties":{"osm_id":"5354349843","tag":{"leaf_type":"needleleaved","natural":"tree"}},"type":"Feature"},
	{"geometry":{"coordinates":[18.462636,54.429493],"type":"Point"},"properties":{"osm_id":"5354349844","tag":{"leaf_type":"needleleaved","natural":"tree"}},"type":"Feature"},
	{"geometry":{"coordinates":[18.46313,54.430604],"type":"Point"},"properties":{"osm_id":"5354419859","tag":{"leaf_type":"broadleaved","natural":"tree"}},"type":"Feature"},
	{"geometry":{"coordinates":[18.463059,54.430512],"type":"Point"},"properties":{"osm_id":"5354419860","tag":{"leaf_type":"needleleaved","natural":"tree"}},"type":"Feature"},
	{"geometry":{"coordinates":[18.46327,54.430505],"type":"Point"},"properties":{"osm_id":"5354419861","tag":{"leaf_type":"needleleaved","natural":"tree"}},"type":"Feature"},
	{"geometry":{"coordinates":[18.463315,54.430455],"type":"Point"},"properties":{"osm_id":"5354419862","tag":{"leaf_type":"needleleaved","natural":"tree"}},"type":"Feature"},
	{"geometry":{"coordinates":[18.463962,54.430125],"type":"Point"},"properties":{"osm_id":"5354419867","tag":{"leaf_type":"needleleaved","natural":"tree"}},"type":"Feature"},
	{"geometry":{"coordinates":[18.464001,54.430167],"type":"Point"},"properties":{"osm_id":"5354419868","tag":{"leaf_type":"needleleaved","natural":"tree"}},"type":"Feature"},
	{"geometry":{"coordinates":[18.463688,54.430258],"type":"Point"},"properties":{"osm_id":"5354419869","tag":{"leaf_type":"needleleaved","natural":"tree"}},"type":"Feature"},
	{"geometry":{"coordinates":[18.464172,54.430167],"type":"Point"},"properties":{"osm_id":"5354419872","tag":{"leaf_type":"broadleaved","natural":"tree"}},"type":"Feature"},
	{"geometry":{"coordinates":[18.463387,54.430108],"type":"Point"},"properties":{"osm_id":"5354419873","tag":{"leaf_type":"broadleaved","natural":"tree"}},"type":"Feature"},
	{"geometry":{"coordinates":[18.463601,54.430018],"type":"Point"},"properties":{"osm_id":"5354419874","tag":{"leaf_type":"needleleaved","natural":"tree"}},"type":"Feature"},
	{"geometry":{"coordinates":[18.463589,54.430005],"type":"Point"},"properties":{"osm_id":"5354419875","tag":{"leaf_type":"needleleaved","natural":"tree"}},"type":"Feature"},
	{"geometry":{"coordinates":[18.463331,54.430056],"type":"Point"},"properties":{"osm_id":"5354419878","tag":{"leaf_type":"broadleaved","natural":"tree"}},"type":"Feature"},
	{"geometry":{"coordinates":[18.463389,54.429864],"type":"Point"},"properties":{"osm_id":"5354419879","tag":{"leaf_type":"needleleaved","natural":"tree"}},"type":"Feature"},
	{"geometry":{"coordinates":[18.463402,54.429979],"type":"Point"},"properties":{"osm_id":"5354419880","tag":{"leaf_type":"broadleaved","natural":"tree"}},"type":"Feature"},
	{"geometry":{"coordinates":[18.463277,54.42985],"type":"Point"},"properties":{"osm_id":"5354419881","tag":{"leaf_type":"broadleaved","natural":"tree"}},"type":"Feature"},
	{"geometry":{"coordinates":[18.462938,54.42979],"type":"Point"},"properties":{"osm_id":"5354419882","tag":{"leaf_type":"needleleaved","natural":"tree"}},"type":"Feature"},
	{"geometry":{"coordinates":[18.463315,54.429785],"type":"Point"},"properties":{"osm_id":"5354419883","tag":{"leaf_type":"broadleaved","natural":"tree"}},"type":"Feature"},
	{"geometry":{"coordinates":[18.462815,54.429716],"type":"Point"},"properties":{"osm_id":"5354419885","tag":{"leaf_type":"needleleaved","natural":"tree"}},"type":"Feature"},
	{"geometry":{"coordinates":[18.462405,54.429466],"type":"Point"},"properties":{"osm_id":"5354419886","tag":{"leaf_type":"needleleaved","natural":"tree"}},"type":"Feature"},
	{"geometry":{"coordinates":[18.4623,54.429004],"type":"Point"},"properties":{"osm_id":"5354419888","tag":{"leaf_type":"needleleaved","natural":"tree"}},"type":"Feature"},
	{"geometry":{"coordinates":[18.462229,54.42894],"type":"Point"},"properties":{"osm_id":"5354419889","tag":{"leaf_type":"needleleaved","natural":"tree"}},"type":"Feature"},
	{"geometry":{"coordinates":[18.462159,54.428784],"type":"Point"},"properties":{"osm_id":"5354419890","tag":{"leaf_type":"broadleaved","natural":"tree"}},"type":"Feature"},
	{"geometry":{"coordinates":[18.462237,54.428776],"type":"Point"},"properties":{"osm_id":"5354419891","tag":{"leaf_type":"broadleaved","natural":"tree"}},"type":"Feature"},
	{"geometry":{"coordinates":[18.462137,54.428747],"type":"Point"},"properties":{"osm_id":"5354419892","tag":{"leaf_type":"needleleaved","natural":"tree"}},"type":"Feature"},
	{"geometry":{"coordinates":[18.462136,54.428692],"type":"Point"},"properties":{"osm_id":"5354419893","tag":{"leaf_type":"needleleaved","natural":"tree"}},"type":"Feature"},
	{"geometry":{"coordinates":[18.462942,54.428431],"type":"Point"},"properties":{"osm_id":"5354419894","tag":{"leaf_type":"needleleaved","natural":"tree"}},"type":"Feature"},
	{"geometry":{"coordinates":[18.461683,54.428637],"type":"Point"},"properties":{"osm_id":"5354460311","tag":{"leaf_type":"broadleaved","natural":"tree"}},"type":"Feature"},
	{"geometry":{"coordinates":[18.461454,54.429377],"type":"Point"},"properties":{"osm_id":"5354466629","tag":{"leaf_type":"needleleaved","natural":"tree"}},"type":"Feature"},
	{"geometry":{"coordinates":[18.461504,54.429453],"type":"Point"},"properties":{"osm_id":"5354466630","tag":{"leaf_type":"needleleaved","natural":"tree"}},"type":"Feature"},
	{"geometry":{"coordinates":[18.461552,54.429498],"type":"Point"},"properties":{"osm_id":"5354466631","tag":{"leaf_type":"needleleaved","natural":"tree"}},"type":"Feature"},
	{"geometry":{"coordinates":[18.46166,54.429666],"type":"Point"},"properties":{"osm_id":"5354466633","tag":{"leaf_type":"broadleaved","natural":"tree"}},"type":"Feature"},
	{"geometry":{"coordinates":[18.463431,54.429546],"type":"Point"},"properties":{"osm_id":"5354468828","tag":{"leaf_type":"broadleaved","natural":"tree"}},"type":"Feature"},
	{"geometry":{"coordinates":[18.463505,54.429571],"type":"Point"},"properties":{"osm_id":"5354468829","tag":{"leaf_type":"broadleaved","natural":"tree"}},"type":"Feature"},
	{"geometry":{"coordinates":[18.463352,54.429577],"type":"Point"},"properties":{"osm_id":"5354468830","tag":{"leaf_type":"broadleaved","natural":"tree"}},"type":"Feature"},
	{"geometry":{"coordinates":[18.463207,54.42965],"type":"Point"},"properties":{"osm_id":"5354468831","tag":{"leaf_type":"broadleaved","natural":"tree"}},"type":"Feature"},
	{"geometry":{"coordinates":[18.463195,54.42968],"type":"Point"},"properties":{"osm_id":"5354468832","tag":{"leaf_type":"broadleaved","natural":"tree"}},"type":"Feature"},
	{"geometry":{"coordinates":[18.474934,54.424222],"type":"Point"},"properties":{"osm_id":"5354803075","tag":{"leaf_type":"broadleaved","natural":"tree"}},"type":"Feature"},
	{"geometry":{"coordinates":[18.467383,54.427383],"type":"Point"},"properties":{"osm_id":"5355327383","tag":{"leaf_type":"needleleaved","natural":"tree"}},"type":"Feature"},
	{"geometry":{"coordinates":[18.467291,54.42742],"type":"Point"},"properties":{"osm_id":"5355327384","tag":{"leaf_type":"broadleaved","natural":"tree"}},"type":"Feature"},
	{"geometry":{"coordinates":[18.468018,54.428545],"type":"Point"},"properties":{"osm_id":"5355327385","tag":{"leaf_type":"broadleaved","natural":"tree"}},"type":"Feature"},
	{"geometry":{"coordinates":[18.468194,54.428493],"type":"Point"},"properties":{"osm_id":"5355327386","tag":{"leaf_type":"broadleaved","natural":"tree"}},"type":"Feature"},
	{"geometry":{"coordinates":[18.468272,54.428196],"type":"Point"},"properties":{"osm_id":"5355327387","tag":{"leaf_type":"needleleaved","natural":"tree"}},"type":"Feature"},
	{"geometry":{"coordinates":[18.468036,54.427628],"type":"Point"},"properties":{"osm_id":"5355327388","tag":{"leaf_type":"needleleaved","natural":"tree"}},"type":"Feature"},
	{"geometry":{"coordinates":[18.468202,54.427587],"type":"Point"},"properties":{"osm_id":"5355327389","tag":{"leaf_type":"needleleaved","natural":"tree"}},"type":"Feature"},
	{"geometry":{"coordinates":[18.468358,54.427667],"type":"Point"},"properties":{"osm_id":"5355327390","tag":{"leaf_type":"needleleaved","natural":"tree"}},"type":"Feature"},
	{"geometry":{"coordinates":[18.467939,54.42753],"type":"Point"},"properties":{"osm_id":"5355327391","tag":{"leaf_type":"broadleaved","natural":"tree"}},"type":"Feature"},
	{"geometry":{"coordinates":[18.469121,54.427364],"type":"Point"},"properties":{"osm_id":"5355327392","tag":{"leaf_type":"needleleaved","natural":"tree"}},"type":"Feature"},
	{"geometry":{"coordinates":[18.469164,54.427333],"type":"Point"},"properties":{"osm_id":"5355327393","tag":{"leaf_type":"needleleaved","natural":"tree"}},"type":"Feature"},
	{"geometry":{"coordinates":[18.468725,54.427059],"type":"Point"},"properties":{"osm_id":"5355327394","tag":{"leaf_type":"needleleaved","natural":"tree"}},"type":"Feature"},
	{"geometry":{"coordinates":[18.468993,54.426976],"type":"Point"},"properties":{"osm_id":"5355327395","tag":{"leaf_type":"broadleaved","natural":"tree"}},"type":"Feature"},
	{"geometry":{"coordinates":[18.468979,54.426864],"type":"Point"},"properties":{"osm_id":"5355327396","tag":{"leaf_type":"broadleaved","natural":"tree"}},"type":"Feature"},
	{"geometry":{"coordinates":[18.467843,54.427518],"type":"Point"},"properties":{"osm_id":"5355327397","tag":{"leaf_type":"broadleaved","natural":"tree"}},"type":"Feature"},
	{"geometry":{"coordinates":[18.468067,54.427402],"type":"Point"},"properties":{"osm_id":"5355327398","tag":{"leaf_type":"needleleaved","natural":"tree"}},"type":"Feature"},
	{"geometry":{"coordinates":[18.4704,54.42741],"type":"Point"},"properties":{"osm_id":"5355327399","tag":{"leaf_type":"broadleaved","natural":"tree"}},"type":"Feature"},
	{"geometry":{"coordinates":[18.470481,54.427289],"type":"Point"},"properties":{"osm_id":"5355327400","tag":{"leaf_type":"broadleaved","natural":"tree"}},"type":"Feature"},
	{"geometry":{"coordinates":[18.469803,54.426765],"type":"Point"},"properties":{"osm_id":"5355327401","tag":{"leaf_type":"needleleaved","natural":"tree"}},"type":"Feature"},
	{"geometry":{"coordinates":[18.470008,54.426886],"type":"Point"},"properties":{"osm_id":"5355327402","tag":{"leaf_type":"needleleaved","natural":"tree"}},"type":"Feature"},
	{"geometry":{"coordinates":[18.470177,54.426871],"type":"Point"},"properties":{"osm_id":"5355327403","tag":{"leaf_type":"needleleaved","natural":"tree"}},"type":"Feature"},
	{"geometry":{"coordinates":[18.469852,54.426458],"type":"Point"},"properties":{"osm_id":"5355327404","tag":{"leaf_type":"broadleaved","natural":"tree"}},"type":"Feature"},
	{"geometry":{"coordinates":[18.469658,54.426588],"type":"Point"},"properties":{"osm_id":"5355327405","tag":{"leaf_type":"broadleaved","natural":"tree"}},"type":"Feature"},
	{"geometry":{"coordinates":[18.481388,54.424365],"type":"Point"},"properties":{"osm_id":"5378827526","tag":{"leaf_type":"needleleaved","natural":"tree"}},"type":"Feature"},
	{"geometry":{"coordinates":[18.481852,54.424334],"type":"Point"},"properties":{"osm_id":"5378827527","tag":{"leaf_type":"broadleaved","natural":"tree"}},"type":"Feature"},
	{"geometry":{"coordinates":[18.479404,54.424551],"type":"Point"},"properties":{"osm_id":"5378827528","tag":{"leaf_type":"broadleaved","natural":"tree"}},"type":"Feature"},
	{"geometry":{"coordinates":[18.479506,54.424343],"type":"Point"},"properties":{"osm_id":"5378827529","tag":{"leaf_type":"broadleaved","natural":"tree"}},"type":"Feature"},
	{"geometry":{"coordinates":[18.539242,54.460629],"type":"Point"},"properties":{"name":"Buk zwyczajny","osm_id":"5514671171","tag":{"denotation":"natural_monument","leaf_type":"broadleaved","natural":"tree"}},"type":"Feature"},
	{"geometry":{"coordinates":[18.544439,54.461387],"type":"Point"},"properties":{"name":"Buk zwyczajny","osm_id":"5514671172","tag":{"denotation":"natural_monument","leaf_type":"broadleaved","natural":"tree"}},"type":"Feature"},
	{"geometry":{"coordinates":[18.472065,54.420287],"type":"Point"},"properties":{"osm_id":"6162107599","tag":{"natural":"tree"}},"type":"Feature"},
	{"geometry":{"coordinates":[18.472031,54.42022],"type":"Point"},"properties":{"osm_id":"6162107600","tag":{"natural":"tree"}},"type":"Feature"},
	{"geometry":{"coordinates":[18.472438,54.4205],"type":"Point"},"properties":{"osm_id":"6162107605","tag":{"natural":"tree"}},"type":"Feature"},
	{"geometry":{"coordinates":[18.472452,54.42045],"type":"Point"},"properties":{"osm_id":"6162107606","tag":{"natural":"tree"}},"type":"Feature"},
	{"geometry":{"coordinates":[18.472381,54.42049],"type":"Point"},"properties":{"osm_id":"6162107607","tag":{"natural":"tree"}},"type":"Feature"},
	{"geometry":{"coordinates":[18.472324,54.420516],"type":"Point"},"properties":{"osm_id":"6162107608","tag":{"natural":"tree"}},"type":"Feature"},
	{"geometry":{"coordinates":[18.47231,54.42046],"type":"Point"},"properties":{"osm_id":"6162107609","tag":{"natural":"tree"}},"type":"Feature"},
	{"geometry":{"coordinates":[18.473379,54.421498],"type":"Point"},"properties":{"osm_id":"6206438192","tag":{"natural":"tree"}},"type":"Feature"},
	{"geometry":{"coordinates":[18.473434,54.42162],"type":"Point"},"properties":{"osm_id":"6206438193","tag":{"natural":"tree"}},"type":"Feature"},
	{"geometry":{"coordinates":[18.473533,54.421615],"type":"Point"},"properties":{"osm_id":"6206438198","tag":{"leaf_type":"broadleaved","natural":"tree"}},"type":"Feature"},
	{"geometry":{"coordinates":[18.481752,54.46758],"type":"Point"},"properties":{"name":"Buk zwyczajny","osm_id":"6832934422","tag":{"denotation":"natural_monument","leaf_type":"broadleaved","natural":"tree"}},"type":"Feature"},
	{"geometry":{"coordinates":[18.492812,54.460217],"type":"Point"},"properties":{"name":"Lipa drobnolistna","osm_id":"6832934423","tag":{"denotation":"natural_monument","leaf_type":"broadleaved","natural":"tree"}},"type":"Feature"},
	{"geometry":{"coordinates":[18.464327,54.421323],"type":"Point"},"properties":{"osm_id":"7112669827","tag":{"natural":"tree"}},"type":"Feature"},
	{"geometry":{"coordinates":[18.464328,54.421312],"type":"Point"},"properties":{"osm_id":"7112669828","tag":{"natural":"tree"}},"type":"Feature"},
	{"geometry":{"coordinates":[18.464346,54.421303],"type":"Point"},"properties":{"osm_id":"7112669829","tag":{"natural":"tree"}},"type":"Feature"},
	{"geometry":{"coordinates":[18.464397,54.421274],"type":"Point"},"properties":{"osm_id":"7112669830","tag":{"natural":"tree"}},"type":"Feature"},
	{"geometry":{"coordinates":[18.464424,54.42127],"type":"Point"},"properties":{"osm_id":"7112669831","tag":{"natural":"tree"}},"type":"Feature"},
	{"geometry":{"coordinates":[18.464428,54.421257],"type":"Point"},"properties":{"osm_id":"7112669832","tag":{"natural":"tree"}},"type":"Feature"},
	{"geometry":{"coordinates":[18.464449,54.421256],"type":"Point"},"properties":{"osm_id":"7112669833","tag":{"natural":"tree"}},"type":"Feature"},
	{"geometry":{"coordinates":[18.464449,54.421242],"type":"Point"},"properties":{"osm_id":"7112669834","tag":{"natural":"tree"}},"type":"Feature"},
	{"geometry":{"coordinates":[18.464468,54.421237],"type":"Point"},"properties":{"osm_id":"7112669835","tag":{"natural":"tree"}},"type":"Feature"},
	{"geometry":{"coordinates":[18.464565,54.421174],"type":"Point"},"properties":{"osm_id":"7112669836","tag":{"natural":"tree"}},"type":"Feature"},
	{"geometry":{"coordinates":[18.464572,54.421192],"type":"Point"},"properties":{"osm_id":"7112669837","tag":{"natural":"tree"}},"type":"Feature"},
	{"geometry":{"coordinates":[18.464594,54.421166],"type":"Point"},"properties":{"osm_id":"7112669838","tag":{"natural":"tree"}},"type":"Feature"},
	{"geometry":{"coordinates":[18.4647,54.421125],"type":"Point"},"properties":{"osm_id":"7112669839","tag":{"natural":"tree"}},"type":"Feature"},
	{"geometry":{"coordinates":[18.464704,54.421106],"type":"Point"},"properties":{"osm_id":"7112669840","tag":{"natural":"tree"}},"type":"Feature"},
	{"geometry":{"coordinates":[18.464744,54.421102],"type":"Point"},"properties":{"osm_id":"7112669841","tag":{"natural":"tree"}},"type":"Feature"},
	{"geometry":{"coordinates":[18.464744,54.421085],"type":"Point"},"properties":{"osm_id":"7112669842","tag":{"natural":"tree"}},"type":"Feature"},
	{"geometry":{"coordinates":[18.464779,54.421073],"type":"Point"},"properties":{"osm_id":"7112669843","tag":{"natural":"tree"}},"type":"Feature"},
	{"geometry":{"coordinates":[18.464842,54.421028],"type":"Point"},"properties":{"osm_id":"7112669844","tag":{"natural":"tree"}},"type":"Feature"},
	{"geometry":{"coordinates":[18.464872,54.421019],"type":"Point"},"properties":{"osm_id":"7112669845","tag":{"natural":"tree"}},"type":"Feature"},
	{"geometry":{"coordinates":[18.464884,54.420995],"type":"Point"},"properties":{"osm_id":"7112669846","tag":{"natural":"tree"}},"type":"Feature"},
	{"geometry":{"coordinates":[18.464908,54.420994],"type":"Point"},"properties":{"osm_id":"7112669847","tag":{"natural":"tree"}},"type":"Feature"},
	{"geometry":{"coordinates":[18.464929,54.420977],"type":"Point"},"properties":{"osm_id":"7112669848","tag":{"natural":"tree"}},"type":"Feature"},
	{"geometry":{"coordinates":[18.541347,54.421705],"type":"Point"},"properties":{"name":"Lipny Zakr\u00c4\u0099t","osm_id":"7427743828","place":"locality","tag":{"genus":"lipa","leaf_type":"broadleaved","name:de":"Linden Curve","name:pl":"Lipny Zakr\u00c4\u0099t","natural":"tree","source:name":"Pharus-Plan des Zoppot-Olivaer Waldes","species":"lipa"}},"type":"Feature"},
	{"geometry":{"coordinates":[18.470967,54.421103],"type":"Point"},"properties":{"osm_id":"7471969767","tag":{"leaf_type":"broadleaved","natural":"tree"}},"type":"Feature"},
	{"geometry":{"coordinates":[18.470995,54.421167],"type":"Point"},"properties":{"osm_id":"7471969768","tag":{"leaf_type":"broadleaved","natural":"tree"}},"type":"Feature"},
	{"geometry":{"coordinates":[18.471015,54.421225],"type":"Point"},"properties":{"osm_id":"7471969769","tag":{"leaf_type":"broadleaved","natural":"tree"}},"type":"Feature"},
	{"geometry":{"coordinates":[18.471047,54.421306],"type":"Point"},"properties":{"osm_id":"7471969770","tag":{"leaf_type":"broadleaved","natural":"tree"}},"type":"Feature"},
	{"geometry":{"coordinates":[18.471404,54.422101],"type":"Point"},"properties":{"osm_id":"7471969771","tag":{"leaf_type":"broadleaved","natural":"tree"}},"type":"Feature"},
	{"geometry":{"coordinates":[18.471451,54.422191],"type":"Point"},"properties":{"osm_id":"7471969772","tag":{"leaf_type":"broadleaved","natural":"tree"}},"type":"Feature"},
	{"geometry":{"coordinates":[18.47153,54.422357],"type":"Point"},"properties":{"osm_id":"7471969773","tag":{"leaf_type":"broadleaved","natural":"tree"}},"type":"Feature"},
	{"geometry":{"coordinates":[18.471623,54.422502],"type":"Point"},"properties":{"osm_id":"7471969774","tag":{"leaf_type":"broadleaved","natural":"tree"}},"type":"Feature"},
	{"geometry":{"coordinates":[18.47178,54.422792],"type":"Point"},"properties":{"osm_id":"7471969775","tag":{"leaf_type":"broadleaved","natural":"tree"}},"type":"Feature"},
	{"geometry":{"coordinates":[18.4718,54.42285],"type":"Point"},"properties":{"osm_id":"7471969776","tag":{"leaf_type":"broadleaved","natural":"tree"}},"type":"Feature"},
	{"geometry":{"coordinates":[18.471866,54.423014],"type":"Point"},"properties":{"osm_id":"7471969777","tag":{"leaf_type":"broadleaved","natural":"tree"}},"type":"Feature"},
	{"geometry":{"coordinates":[18.471896,54.423081],"type":"Point"},"properties":{"osm_id":"7471969778","tag":{"leaf_type":"broadleaved","natural":"tree"}},"type":"Feature"},
	{"geometry":{"coordinates":[18.471896,54.423169],"type":"Point"},"properties":{"osm_id":"7471969779","tag":{"leaf_type":"broadleaved","natural":"tree"}},"type":"Feature"},
	{"geometry":{"coordinates":[18.458837,54.419369],"type":"Point"},"properties":{"osm_id":"7476815539","tag":{"leaf_type":"broadleaved","natural":"tree"}},"type":"Feature"},
	{"geometry":{"coordinates":[18.458919,54.419438],"type":"Point"},"properties":{"osm_id":"7476815540","tag":{"leaf_type":"broadleaved","natural":"tree"}},"type":"Feature"},
	{"geometry":{"coordinates":[18.458986,54.419494],"type":"Point"},"properties":{"osm_id":"7476815541","tag":{"leaf_type":"broadleaved","natural":"tree"}},"type":"Feature"},
	{"geometry":{"coordinates":[18.45966,54.420137],"type":"Point"},"properties":{"osm_id":"7476815542","tag":{"leaf_type":"broadleaved","natural":"tree"}},"type":"Feature"},
	{"geometry":{"coordinates":[18.459711,54.420183],"type":"Point"},"properties":{"osm_id":"7476815543","tag":{"leaf_type":"broadleaved","natural":"tree"}},"type":"Feature"},
	{"geometry":{"coordinates":[18.459796,54.420255],"type":"Point"},"properties":{"osm_id":"7476815544","tag":{"leaf_type":"broadleaved","natural":"tree"}},"type":"Feature"},
	{"geometry":{"coordinates":[18.459998,54.420431],"type":"Point"},"properties":{"osm_id":"7476815545","tag":{"leaf_type":"broadleaved","natural":"tree"}},"type":"Feature"},
	{"geometry":{"coordinates":[18.460026,54.420459],"type":"Point"},"properties":{"osm_id":"7476815546","tag":{"leaf_type":"broadleaved","natural":"tree"}},"type":"Feature"},
	{"geometry":{"coordinates":[18.460905,54.421227],"type":"Point"},"properties":{"osm_id":"7476815547","tag":{"leaf_type":"broadleaved","natural":"tree"}},"type":"Feature"},
	{"geometry":{"coordinates":[18.460986,54.4213],"type":"Point"},"properties":{"osm_id":"7476815548","tag":{"leaf_type":"broadleaved","natural":"tree"}},"type":"Feature"},
	{"geometry":{"coordinates":[18.461742,54.421996],"type":"Point"},"properties":{"osm_id":"7476815549","tag":{"leaf_type":"broadleaved","natural":"tree"}},"type":"Feature"},
	{"geometry":{"coordinates":[18.461796,54.42205],"type":"Point"},"properties":{"osm_id":"7476815550","tag":{"leaf_type":"broadleaved","natural":"tree"}},"type":"Feature"},
	{"geometry":{"coordinates":[18.461889,54.422157],"type":"Point"},"properties":{"osm_id":"7476815551","tag":{"leaf_type":"broadleaved","natural":"tree"}},"type":"Feature"},
	{"geometry":{"coordinates":[18.461998,54.422292],"type":"Point"},"properties":{"osm_id":"7476815552","tag":{"leaf_type":"broadleaved","natural":"tree"}},"type":"Feature"},
	{"geometry":{"coordinates":[18.459333,54.419616],"type":"Point"},"properties":{"osm_id":"7476815560","tag":{"leaf_type":"broadleaved","natural":"tree"}},"type":"Feature"},
	{"geometry":{"coordinates":[18.459748,54.419979],"type":"Point"},"properties":{"osm_id":"7476815561","tag":{"leaf_type":"broadleaved","natural":"tree"}},"type":"Feature"},
	{"geometry":{"coordinates":[18.461046,54.421096],"type":"Point"},"properties":{"osm_id":"7476815562","tag":{"leaf_type":"broadleaved","natural":"tree"}},"type":"Feature"},
	{"geometry":{"coordinates":[18.461285,54.421304],"type":"Point"},"properties":{"osm_id":"7476815563","tag":{"leaf_type":"broadleaved","natural":"tree"}},"type":"Feature"},
	{"geometry":{"coordinates":[18.461329,54.421346],"type":"Point"},"properties":{"osm_id":"7476815564","tag":{"leaf_type":"broadleaved","natural":"tree"}},"type":"Feature"},
	{"geometry":{"coordinates":[18.461406,54.421412],"type":"Point"},"properties":{"osm_id":"7476815565","tag":{"leaf_type":"broadleaved","natural":"tree"}},"type":"Feature"},
	{"geometry":{"coordinates":[18.461453,54.421454],"type":"Point"},"properties":{"osm_id":"7476815566","tag":{"leaf_type":"broadleaved","natural":"tree"}},"type":"Feature"}
]
}
