{
"type": "FeatureCollection",
"features": [
	{"geometry":{"coordinates":[77.575333,13.01236],"type":"Point"},"properties":{"osm_id":"1526002073","tag":{"amenity":"waste_basket"}},"type":"Feature"},
	{"geometry":{"coordinates":[77.563543,13.01758],"type":"Point"},"properties":{"osm_id":"3696421498","tag":{"amenity":"waste_disposal"}},"type":"Feature"},
	{"geometry":{"coordinates":[77.564318,13.017618],"type":"Point"},"properties":{"osm_id":"3699307375","tag":{"amenity":"waste_disposal"}},"type":"Feature"},
	{"geometry":{"coordinates":[77.562789,13.018733],"type":"Point"},"properties":{"osm_id":"4228867128","tag":{"amenity":"waste_basket"}},"type":"Feature"},
	{"geometry":{"coordinates":[77.562677,13.018781],"type":"Point"},"properties":{"osm_id":"4228867129","tag":{"amenity":"waste_basket"}},"type":"Feature"},
	{"geometry":{"coordinates":[77.58953,13.060465],"type":"Point"},"properties":{"osm_id":"4320934745","tag":{"amenity":"waste_basket"}},"type":"Feature"},
	{"geometry":{"coordinates":[77.603912,13.026124],"type":"Point"},"properties":{"name":"Omshakti Paper Mart","osm_id":"4386506500","tag":{"amenity":"recycling"}},"type":"Feature"},
	{"geometry":{"coordinates":[77.60326,13.02409],"type":"Point"},"properties":{"name":"Murugan Old Paper Mart","osm_id":"4386506989","tag":{"amenity":"recycling"}},"type":"Feature"},
	{"geometry":{"coordinates":[77.549638,12.999471],"type":"Point"},"properties":{"osm_id":"6645712425","tag":{"amenity":"waste_basket"}},"type":"Feature"},
	{"geometry":{"coordinates":[77.561078,13.018215],"type":"Point"},"properties":{"osm_id":"6645712426","tag":{"amenity":"waste_basket"}},"type":"Feature"},
	{"geometry":{"coordinates":[77.550055,13.00007],"type":"Point"},"properties":{"osm_id":"6657262760","tag":{"amenity":"waste_basket"}},"type":"Feature"},
	{"geometry":{"coordinates":[77.553931,13.014147],"type":"Point"},"properties":{"osm_id":"7215550018","tag":{"amenity":"waste_basket"}},"type":"Feature"},
	{"geometry":{"coordinates":[77.55441,13.01332],"type":"Point"},"properties":{"osm_id":"7291611583","tag":{"amenity":"waste_basket"}},"type":"Feature"}
]
}
