{
"type": "FeatureCollection",
"features": [
	{"geometry":{"coordinates":[-140.093093,-8.885255],"type":"Point"},"properties":{"osm_id":"5907107085","tag":{"amenity":"waste_disposal"}},"type":"Feature"},
	{"geometry":{"coordinates":[-140.096376,-8.908246],"type":"Point"},"properties":{"name":"Centre de recyclage","osm_id":"7259138788","tag":{"amenity":"recycling"}},"type":"Feature"},
	{"geometry":{"coordinates":[-140.092781,-8.920396],"type":"Point"},"properties":{"osm_id":"7290830987","tag":{"amenity":"waste_disposal"}},"type":"Feature"},
	{"geometry":{"coordinates":[-140.093836,-8.921021],"type":"Point"},"properties":{"osm_id":"7290830988","tag":{"amenity":"waste_disposal"}},"type":"Feature"},
	{"geometry":{"coordinates":[-140.094886,-8.914557],"type":"Point"},"properties":{"osm_id":"7290831086","tag":{"amenity":"waste_disposal"}},"type":"Feature"},
	{"geometry":{"coordinates":[-140.097525,-8.912296],"type":"Point"},"properties":{"osm_id":"7290831087","tag":{"amenity":"waste_disposal"}},"type":"Feature"},
	{"geometry":{"coordinates":[-140.027478,-8.888671],"type":"Point"},"properties":{"osm_id":"7316879086","tag":{"amenity":"recycling"}},"type":"Feature"}
]
}
