{
"type": "FeatureCollection",
"features": [
	{"geometry":{"coordinates":[36.742301,56.33251],"type":"Point"},"properties":{"osm_id":"1263098338","tag":{"amenity":"waste_disposal"}},"type":"Feature"},
	{"geometry":{"coordinates":[36.750593,56.355636],"type":"Point"},"properties":{"osm_id":"1263351459","tag":{"amenity":"waste_disposal"}},"type":"Feature"},
	{"geometry":{"coordinates":[36.754513,56.359469],"type":"Point"},"properties":{"osm_id":"1263351463","tag":{"amenity":"waste_disposal"}},"type":"Feature"},
	{"geometry":{"coordinates":[36.749366,56.334549],"type":"Point"},"properties":{"osm_id":"1728132991","tag":{"amenity":"waste_disposal"}},"type":"Feature"},
	{"geometry":{"coordinates":[36.748419,56.337467],"type":"Point"},"properties":{"osm_id":"1755144080","tag":{"amenity":"waste_disposal"}},"type":"Feature"},
	{"geometry":{"coordinates":[36.813514,56.316831],"type":"Point"},"properties":{"osm_id":"2320164179","tag":{"amenity":"waste_disposal","waste":"trash"}},"type":"Feature"},
	{"geometry":{"coordinates":[36.812154,56.320385],"type":"Point"},"properties":{"osm_id":"2320164180","tag":{"amenity":"waste_basket"}},"type":"Feature"},
	{"geometry":{"coordinates":[36.807915,56.317108],"type":"Point"},"properties":{"osm_id":"2321129475","tag":{"amenity":"waste_basket"}},"type":"Feature"}
]
}
