{
"type": "FeatureCollection",
"features": [
	{"geometry":{"coordinates":[36.815807,-1.233496],"type":"Point"},"properties":{"osm_id":"582828546","tag":{"amenity":"waste_basket"}},"type":"Feature"},
	{"geometry":{"coordinates":[36.778583,-1.315454],"type":"Point"},"properties":{"osm_id":"612007889","tag":{"amenity":"recycling","notes":"Gabbage collection"}},"type":"Feature"},
	{"geometry":{"coordinates":[36.794074,-1.31755],"type":"Point"},"properties":{"osm_id":"612008386","tag":{"amenity":"recycling"}},"type":"Feature"},
	{"geometry":{"coordinates":[36.797042,-1.311352],"type":"Point"},"properties":{"osm_id":"612008490","tag":{"amenity":"recycling","recycling:batteries":"yes","recycling:cans":"yes","recycling:glass":"yes","recycling:scrap_metal":"yes"}},"type":"Feature"},
	{"geometry":{"coordinates":[36.800821,-1.317496],"type":"Point"},"properties":{"name":"Recycling","osm_id":"612009055","tag":{"amenity":"recycling","opening_hours":"Mo-Su 06:00-21:00","operator:description":"Silanga Youth Group","operator:type":"self_help","recycling:paper":"yes"}},"type":"Feature"},
	{"geometry":{"coordinates":[36.777978,-1.31553],"type":"Point"},"properties":{"osm_id":"769069108","tag":{"amenity":"waste_disposal","operational_status":"bad","watsan:dumping_site":"yes"}},"type":"Feature"},
	{"geometry":{"coordinates":[36.788975,-1.311955],"type":"Point"},"properties":{"osm_id":"769097859","tag":{"amenity":"waste_disposal","operational_status":"operational","operator:type":"private","watsan:dumping_site":"yes"}},"type":"Feature"},
	{"geometry":{"coordinates":[36.786647,-1.31179],"type":"Point"},"properties":{"osm_id":"769097864","tag":{"amenity":"waste_disposal","media:video_device_number":"10","media:video_number":"4","operational_status":"operational","watsan:dumping_site":"yes"}},"type":"Feature"},
	{"geometry":{"coordinates":[36.774351,-1.313588],"type":"Point"},"properties":{"osm_id":"769112772","tag":{"amenity":"waste_disposal","dumping_site":"yes","opening_hours":"24/7","operational_status":"operational","operator:type":"public","watsan:dumping_site":"yes"}},"type":"Feature"},
	{"geometry":{"coordinates":[36.779361,-1.315313],"type":"Point"},"properties":{"osm_id":"769145326","tag":{"amenity":"waste_disposal","opening_hours":"07:00-18:00","operational_status":"operational","operator:type":"private","watsan:dumping_site":"yes"}},"type":"Feature"},
	{"geometry":{"coordinates":[36.778407,-1.318161],"type":"Point"},"properties":{"osm_id":"769158957","tag":{"amenity":"waste_disposal","media:camera_device_number":"1","media:camera_number":"100-0024,100-0025","operational_status":"bad","operator:type":"private","watsan:dumping_site":"yes"}},"type":"Feature"},
	{"geometry":{"coordinates":[36.778597,-1.317305],"type":"Point"},"properties":{"osm_id":"769158960","tag":{"amenity":"waste_disposal","operational_status":"bad","operator:type":"private","watsan:dumping_site":"yes"}},"type":"Feature"},
	{"geometry":{"coordinates":[36.7854,-1.306753],"type":"Point"},"properties":{"osm_id":"769158964","tag":{"amenity":"waste_disposal","operational_status":"bad","operator:type":"private","watsan:dumping_site":"yes"}},"type":"Feature"},
	{"geometry":{"coordinates":[36.778492,-1.317661],"type":"Point"},"properties":{"osm_id":"769158967","tag":{"amenity":"waste_disposal","operational_status":"bad","operator:type":"private","watsan:dumping_site":"yes"}},"type":"Feature"},
	{"geometry":{"coordinates":[36.779517,-1.310716],"type":"Point"},"properties":{"osm_id":"769158969","tag":{"amenity":"waste_disposal","media:camera_device_number":"1","media:camera_number":"100-0020,100-0021","operational_status":"bad","watsan:dumping_site":"yes"}},"type":"Feature"},
	{"geometry":{"coordinates":[36.797761,-1.312187],"type":"Point"},"properties":{"osm_id":"771235527","tag":{"amenity":"waste_disposal","operational_status":"bad","watsan:description":"a terrace(starting point)and there is alot of trash dump on it","watsan:dumping_site":"yes","watsan:other":"no"}},"type":"Feature"},
	{"geometry":{"coordinates":[36.77719,-1.311699],"type":"Point"},"properties":{"osm_id":"772439549","tag":{"amenity":"waste_disposal","operational_status":"bad","watsan:dumping_site":"yes"}},"type":"Feature"},
	{"geometry":{"coordinates":[36.776997,-1.310981],"type":"Point"},"properties":{"osm_id":"772439550","tag":{"amenity":"waste_disposal","media:video_device_number":"09","media:video_number":"9","operational_status":"bad","watsan:dumping_site":"yes"}},"type":"Feature"},
	{"geometry":{"coordinates":[36.778158,-1.313219],"type":"Point"},"properties":{"name":"Self-Help Group","osm_id":"772439562","tag":{"amenity":"recycling","media:video_device_number":"09","media:video_number":"7","opening_hours":"06:00-18:00","operational_status":"operational","operator:description":"runs by youth","operator:type":"ngo_cbo","watsan:description":"car wash and carpets","watsan:recycling":"yes"}},"type":"Feature"},
	{"geometry":{"coordinates":[36.783318,-1.306585],"type":"Point"},"properties":{"osm_id":"772458371","tag":{"amenity":"waste_disposal","media:video_device_number":"09","media:video_number":"8","operational_status":"operational","watsan:dumping_site":"yes"}},"type":"Feature"},
	{"geometry":{"coordinates":[36.778625,-1.311197],"type":"Point"},"properties":{"osm_id":"772458373","tag":{"amenity":"waste_disposal","media:video_device_number":"09","media:video_number":"11","operational_status":"operational","watsan:dumping_site":"yes"}},"type":"Feature"},
	{"geometry":{"coordinates":[36.781465,-1.308624],"type":"Point"},"properties":{"name":"Makina","osm_id":"772458374","tag":{"amenity":"waste_disposal","mapillary":"N4Q7fvupsJJhnigWAR9hSQ","opening_hours":"24/7","operational_status":"bad","survey:date":"2018-02-13","watsan:dumping_site":"yes"}},"type":"Feature"},
	{"geometry":{"coordinates":[36.779195,-1.315291],"type":"Point"},"properties":{"osm_id":"772551850","tag":{"amenity":"waste_disposal","media:camera_device_number":"02","media:camera_number":"100-0018","operational_status":"operational","watsan:dumping_site":"yes"}},"type":"Feature"},
	{"geometry":{"coordinates":[36.786982,-1.310316],"type":"Point"},"properties":{"osm_id":"772551865","tag":{"amenity":"waste_disposal","operational_status":"operational","operator:type":"private","watsan:dumping_site":"yes"}},"type":"Feature"},
	{"geometry":{"coordinates":[36.786715,-1.311378],"type":"Point"},"properties":{"osm_id":"775527630","tag":{"amenity":"waste_disposal","opening_hours":"24/7","operational_status":"operational","operator:type":"public","watsan:dumping_site":"yes"}},"type":"Feature"},
	{"geometry":{"coordinates":[36.780885,-1.310221],"type":"Point"},"properties":{"name":"Temporary Garbage Collection Site","osm_id":"775537375","tag":{"amenity":"waste_disposal","mapillary":"qbpLoVjM6AKBfAXyn9JaUA","opening_hours":"Mo; Fr","operational_status":"operational","operator:type":"private","survey:date":"2018-02-12","watsan:cost":"300 per month","watsan:description":"the place is set for temporary dumping before they are collected and taken to the main dumping areas","watsan:dumping_site":"yes"}},"type":"Feature"},
	{"geometry":{"coordinates":[36.798056,-1.312354],"type":"Point"},"properties":{"osm_id":"781274704","tag":{"amenity":"waste_disposal","operational_status":"bad","watsan:description":"the end point of the terrace","watsan:dumping_site":"yes"}},"type":"Feature"},
	{"geometry":{"coordinates":[36.796161,-1.312981],"type":"Point"},"properties":{"osm_id":"795683902","tag":{"amenity":"waste_disposal","watsan:description":"Thiis is where people dump their waste products","watsan:dumping_site":"yes"}},"type":"Feature"},
	{"geometry":{"coordinates":[36.799402,-1.313518],"type":"Point"},"properties":{"osm_id":"795764942","tag":{"amenity":"waste_disposal","watsan:description":"it is located a long the river.People do throw their waste products in the river.","watsan:dumping_site":"yes"}},"type":"Feature"},
	{"geometry":{"coordinates":[36.793514,-1.316596],"type":"Point"},"properties":{"osm_id":"795800074","tag":{"amenity":"waste_disposal","opening_hours":"24/7","operational_status":"bad","operator:type":"unknown","watsan:dumping_site":"yes"}},"type":"Feature"},
	{"geometry":{"coordinates":[36.794167,-1.317745],"type":"Point"},"properties":{"osm_id":"795850349","tag":{"amenity":"waste_disposal","opening_hours":"24/7","operational_status":"operational","operator:type":"unknown","watsan:dumping_site":"yes"}},"type":"Feature"},
	{"geometry":{"coordinates":[36.787199,-1.315426],"type":"Point"},"properties":{"osm_id":"941479919","tag":{"amenity":"waste_disposal","fee":"no","operator:type":"private","watsan:dumping_site":"yes"}},"type":"Feature"},
	{"geometry":{"coordinates":[36.794015,-1.312208],"type":"Point"},"properties":{"name":"Ushirika","osm_id":"941479988","tag":{"amenity":"recycling","opening_hours":"Mo-Fr 05:00-20:00","operational_status":"operational","operator":"Ushirika","operator:type":"ngo_cbo","watsan:description":"It also produces bio gas energy","watsan:recycling":"yes"}},"type":"Feature"},
	{"geometry":{"coordinates":[36.77672,-1.314695],"type":"Point"},"properties":{"osm_id":"941480083","tag":{"amenity":"waste_disposal","media:camera_device_number":"01","media:camera_number":"100-0013,100-0014","operational_status":"operational","operator:type":"ngo_cbo","watsan:cost":"100sh per month","watsan:dumping_site":"yes","watsan:users_per_day":"50"}},"type":"Feature"},
	{"geometry":{"coordinates":[36.779101,-1.315319],"type":"Point"},"properties":{"osm_id":"941480103","tag":{"amenity":"waste_disposal","media:camera_device_number":"1","media:camera_number":"100-0018,100-0031,100-0032","operational_status":"bad","operator:type":"private","watsan:dumping_site":"yes"}},"type":"Feature"},
	{"geometry":{"coordinates":[36.771878,-1.309407],"type":"Point"},"properties":{"osm_id":"941480243","tag":{"amenity":"waste_disposal","opening_hours":"24/7","operational_status":"operational","operator:type":"public","watsan:dumping_site":"yes"}},"type":"Feature"},
	{"geometry":{"coordinates":[36.779654,-1.315546],"type":"Point"},"properties":{"osm_id":"941480336","tag":{"amenity":"waste_disposal","media:camera_device_number":"02","media:camera_number":"100-00016","operational_status":"operational","watsan:dumping_site":"yes"}},"type":"Feature"},
	{"geometry":{"coordinates":[36.824941,-1.234231],"type":"Point"},"properties":{"name":"27","osm_id":"1554843748","tag":{"amenity":"waste_basket","information":"guidepost","tourism":"information"}},"type":"Feature"},
	{"geometry":{"coordinates":[36.774495,-1.311169],"type":"Point"},"properties":{"osm_id":"1809764851","tag":{"amenity":"recycling","recycling:cans":"yes","recycling:glass":"yes","recycling:paper":"yes","recycling:scrap_metal":"yes","recycling_type":"Taka ni Pato Centre"}},"type":"Feature"},
	{"geometry":{"coordinates":[36.796405,-1.310568],"type":"Point"},"properties":{"name":"Dumping site","osm_id":"2117408675","tag":{"amenity":"waste_disposal","watsan:dumping_site":"yes"}},"type":"Feature"},
	{"geometry":{"coordinates":[36.804853,-1.314659],"type":"Point"},"properties":{"name":"Dumping site","osm_id":"2117408677","tag":{"amenity":"waste_disposal","watsan:dumping_site":"yes"}},"type":"Feature"},
	{"geometry":{"coordinates":[36.797383,-1.313602],"type":"Point"},"properties":{"name":"dumping_site","osm_id":"2117408707","tag":{"amenity":"waste_disposal","watsan:dumping_site":"yes"}},"type":"Feature"},
	{"geometry":{"coordinates":[36.806079,-1.311942],"type":"Point"},"properties":{"osm_id":"2117408708","tag":{"amenity":"recycling","recycling:batteries":"yes","recycling:cans":"yes","recycling:glass":"yes","recycling:scrap_metal":"yes"}},"type":"Feature"},
	{"geometry":{"coordinates":[36.77432,-1.312493],"type":"Point"},"properties":{"osm_id":"2433643008","tag":{"amenity":"waste_disposal","dumping_site":"yes"}},"type":"Feature"},
	{"geometry":{"coordinates":[36.77548,-1.313191],"type":"Point"},"properties":{"osm_id":"2438886399","tag":{"amenity":"waste_disposal","dumping_site":"yes"}},"type":"Feature"},
	{"geometry":{"coordinates":[36.776076,-1.312618],"type":"Point"},"properties":{"osm_id":"2438933720","tag":{"amenity":"waste_disposal","dumping_site":"yes"}},"type":"Feature"},
	{"geometry":{"coordinates":[36.77613,-1.312763],"type":"Point"},"properties":{"osm_id":"2438933725","tag":{"amenity":"waste_disposal","dumping_site":"yes"}},"type":"Feature"},
	{"geometry":{"coordinates":[36.780628,-1.31482],"type":"Point"},"properties":{"osm_id":"2444373404","tag":{"amenity":"waste_disposal"}},"type":"Feature"},
	{"geometry":{"coordinates":[36.7794,-1.31572],"type":"Point"},"properties":{"osm_id":"2452557809","tag":{"amenity":"waste_disposal","dumping_site":"yes"}},"type":"Feature"},
	{"geometry":{"coordinates":[36.781701,-1.316314],"type":"Point"},"properties":{"osm_id":"2452608449","tag":{"amenity":"waste_disposal","dumping_site":"yes"}},"type":"Feature"},
	{"geometry":{"coordinates":[36.782997,-1.31678],"type":"Point"},"properties":{"osm_id":"2452608490","tag":{"amenity":"waste_disposal","dumping_site":"yes"}},"type":"Feature"},
	{"geometry":{"coordinates":[36.772504,-1.309484],"type":"Point"},"properties":{"osm_id":"2452615150","tag":{"amenity":"waste_disposal","dumping_site":"yes"}},"type":"Feature"},
	{"geometry":{"coordinates":[36.772584,-1.310157],"type":"Point"},"properties":{"osm_id":"2452639895","tag":{"amenity":"waste_disposal","dumping_site":"yes"}},"type":"Feature"},
	{"geometry":{"coordinates":[36.773657,-1.310663],"type":"Point"},"properties":{"osm_id":"2452639915","tag":{"amenity":"waste_disposal","dumping_site":"yes"}},"type":"Feature"},
	{"geometry":{"coordinates":[36.772665,-1.311414],"type":"Point"},"properties":{"osm_id":"2452639938","tag":{"amenity":"waste_disposal","dumping_site":"yes"}},"type":"Feature"},
	{"geometry":{"coordinates":[36.772486,-1.311479],"type":"Point"},"properties":{"osm_id":"2452639941","tag":{"amenity":"waste_disposal","dumping_site":"yes"}},"type":"Feature"},
	{"geometry":{"coordinates":[36.788259,-1.31509],"type":"Point"},"properties":{"osm_id":"2452885323","tag":{"amenity":"waste_disposal"}},"type":"Feature"},
	{"geometry":{"coordinates":[36.783384,-1.315405],"type":"Point"},"properties":{"osm_id":"2452885343","tag":{"amenity":"waste_disposal","dumping_site":"yes"}},"type":"Feature"},
	{"geometry":{"coordinates":[36.816345,-1.27976],"type":"Point"},"properties":{"osm_id":"4435945967","tag":{"access":"yes","amenity":"waste_basket"}},"type":"Feature"},
	{"geometry":{"coordinates":[36.816248,-1.279991],"type":"Point"},"properties":{"osm_id":"4435945969","tag":{"access":"yes","amenity":"waste_basket"}},"type":"Feature"},
	{"geometry":{"coordinates":[36.816922,-1.279827],"type":"Point"},"properties":{"osm_id":"4435948029","tag":{"amenity":"waste_basket"}},"type":"Feature"},
	{"geometry":{"coordinates":[36.816643,-1.280419],"type":"Point"},"properties":{"osm_id":"4435948031","tag":{"amenity":"waste_basket"}},"type":"Feature"},
	{"geometry":{"coordinates":[36.816987,-1.279691],"type":"Point"},"properties":{"osm_id":"4435950572","tag":{"access":"yes","amenity":"waste_basket"}},"type":"Feature"},
	{"geometry":{"coordinates":[36.816679,-1.280208],"type":"Point"},"properties":{"osm_id":"4435950573","tag":{"access":"yes","amenity":"waste_basket"}},"type":"Feature"},
	{"geometry":{"coordinates":[36.817089,-1.279724],"type":"Point"},"properties":{"osm_id":"4435950574","tag":{"access":"yes","amenity":"waste_basket"}},"type":"Feature"},
	{"geometry":{"coordinates":[36.812827,-1.282688],"type":"Point"},"properties":{"osm_id":"4453274995","tag":{"amenity":"waste_basket"}},"type":"Feature"},
	{"geometry":{"coordinates":[36.812587,-1.28298],"type":"Point"},"properties":{"osm_id":"4453282845","tag":{"amenity":"waste_basket"}},"type":"Feature"},
	{"geometry":{"coordinates":[36.812997,-1.282785],"type":"Point"},"properties":{"osm_id":"4453286583","tag":{"amenity":"waste_basket"}},"type":"Feature"},
	{"geometry":{"coordinates":[36.814643,-1.274484],"type":"Point"},"properties":{"osm_id":"5372971925","tag":{"amenity":"waste_basket"}},"type":"Feature"}
]
}
