{
"type": "FeatureCollection",
"features": [
	{"geometry":{"coordinates":[22.324568,60.428625],"type":"Point"},"properties":{"osm_id":"380517034","tag":{"amenity":"recycling","location":"overground","operator":"Rinki","operator:type":"public","recycling:cardboard":"yes","recycling:clothes":"yes","recycling:metal":"yes","recycling:plastic":"yes","recycling_type":"centre"}},"type":"Feature"},
	{"geometry":{"coordinates":[22.373732,60.455937],"type":"Point"},"properties":{"osm_id":"1377831202","tag":{"amenity":"recycling","recycling_type":"container"}},"type":"Feature"},
	{"geometry":{"coordinates":[22.390629,60.445091],"type":"Point"},"properties":{"osm_id":"1385095624","tag":{"amenity":"recycling","recycling_type":"container"}},"type":"Feature"},
	{"geometry":{"coordinates":[22.404929,60.446291],"type":"Point"},"properties":{"osm_id":"1385095656","tag":{"amenity":"recycling","recycling_type":"container"}},"type":"Feature"},
	{"geometry":{"coordinates":[22.384671,60.446439],"type":"Point"},"properties":{"osm_id":"1385095658","tag":{"amenity":"recycling","recycling_type":"container"}},"type":"Feature"},
	{"geometry":{"coordinates":[22.405669,60.450194],"type":"Point"},"properties":{"osm_id":"4825192128","tag":{"amenity":"recycling","recycling_type":"container"}},"type":"Feature"},
	{"geometry":{"coordinates":[22.40385,60.451039],"type":"Point"},"properties":{"osm_id":"5267081917","tag":{"access":"residents","amenity":"recycling","recycling_type":"container"}},"type":"Feature"},
	{"geometry":{"coordinates":[22.403859,60.451428],"type":"Point"},"properties":{"osm_id":"5267081918","tag":{"access":"residents","amenity":"recycling","recycling_type":"container"}},"type":"Feature"},
	{"geometry":{"coordinates":[22.405236,60.450755],"type":"Point"},"properties":{"osm_id":"5267081919","tag":{"access":"residents","amenity":"recycling","recycling:paper":"yes","recycling_type":"container"}},"type":"Feature"},
	{"geometry":{"coordinates":[22.405076,60.449488],"type":"Point"},"properties":{"osm_id":"5449430387","tag":{"access":"residents","amenity":"waste_disposal"}},"type":"Feature"},
	{"geometry":{"coordinates":[22.326642,60.434704],"type":"Point"},"properties":{"name":"J\u00c3\u00a4tehuolto","osm_id":"7143069501","tag":{"amenity":"waste_disposal"}},"type":"Feature"}
]
}
