{
"type": "FeatureCollection",
"features": [
	{"geometry":{"coordinates":[22.348197,57.50949],"type":"Point"},"properties":{"osm_id":"2342049948","tag":{"amenity":"recycling","recycling:glass":"yes","recycling:plastic":"yes","recycling_type":"centre"}},"type":"Feature"},
	{"geometry":{"coordinates":[22.349708,57.509295],"type":"Point"},"properties":{"osm_id":"2342049953","tag":{"amenity":"recycling","recycling:glass_bottles":"yes","recycling_type":"container"}},"type":"Feature"},
	{"geometry":{"coordinates":[22.35078,57.511176],"type":"Point"},"properties":{"osm_id":"2728336308","tag":{"amenity":"recycling","recycling_type":"container"}},"type":"Feature"},
	{"geometry":{"coordinates":[22.342106,57.508641],"type":"Point"},"properties":{"name":"Metko met\u00c4\u0081ll\u00c5\u00ab\u00c5\u00be\u00c5\u0086u pie\u00c5\u0086em\u00c5\u00a1anas punkts","osm_id":"3547223086","tag":{"amenity":"recycling","opening_hours":"Mo-Fr 08:00-12:00,13:00-17:00","operator":"SIA Metko","recycling:metal":"yes","recycling_type":"centre","website":"http://www.metko.lv"}},"type":"Feature"}
]
}
