{
"type": "FeatureCollection",
"features": [
	{"geometry":{"coordinates":[22.328888,49.210774],"type":"Point"},"properties":{"osm_id":"2611262190","tag":{"amenity":"waste_basket"}},"type":"Feature"},
	{"geometry":{"coordinates":[22.329574,49.210846],"type":"Point"},"properties":{"osm_id":"2611262191","tag":{"amenity":"waste_basket"}},"type":"Feature"},
	{"geometry":{"coordinates":[22.328913,49.210862],"type":"Point"},"properties":{"osm_id":"2611262192","tag":{"amenity":"waste_basket"}},"type":"Feature"},
	{"geometry":{"coordinates":[22.329414,49.211054],"type":"Point"},"properties":{"osm_id":"2611262193","tag":{"amenity":"waste_basket"}},"type":"Feature"},
	{"geometry":{"coordinates":[22.329067,49.211234],"type":"Point"},"properties":{"osm_id":"2611262194","tag":{"amenity":"waste_basket"}},"type":"Feature"},
	{"geometry":{"coordinates":[22.328908,49.211525],"type":"Point"},"properties":{"osm_id":"2611262195","tag":{"amenity":"waste_basket"}},"type":"Feature"},
	{"geometry":{"coordinates":[22.329104,49.211539],"type":"Point"},"properties":{"osm_id":"2611262196","tag":{"amenity":"waste_basket"}},"type":"Feature"},
	{"geometry":{"coordinates":[22.328526,49.212278],"type":"Point"},"properties":{"osm_id":"2611262198","tag":{"amenity":"waste_basket"}},"type":"Feature"},
	{"geometry":{"coordinates":[22.328316,49.212692],"type":"Point"},"properties":{"osm_id":"2611262200","tag":{"amenity":"waste_basket"}},"type":"Feature"},
	{"geometry":{"coordinates":[22.328014,49.213405],"type":"Point"},"properties":{"osm_id":"2611262204","tag":{"amenity":"waste_basket"}},"type":"Feature"},
	{"geometry":{"coordinates":[22.382725,49.265387],"type":"Point"},"properties":{"osm_id":"4312455416","tag":{"amenity":"waste_basket","description":"kosz na \u00c5\u009bmieci z klap\u00c4\u0085 zabezpieczon\u00c4\u0085 przed otwarciem przez zwierz\u00c4\u0099ta"}},"type":"Feature"},
	{"geometry":{"coordinates":[22.356079,49.223719],"type":"Point"},"properties":{"osm_id":"4312710105","tag":{"amenity":"recycling","recycling:glass_bottles":"yes","recycling:plastic":"yes","recycling_type":"container"}},"type":"Feature"}
]
}
