{
"type": "FeatureCollection",
"features": [
	{"geometry":{"coordinates":[22.408561,39.637779],"type":"Point"},"properties":{"osm_id":"4401507751","tag":{"amenity":"recycling","recycling:cardboard":"yes","recycling:glass":"yes","recycling:plastic":"yes","recycling:plastic_packaging":"yes","recycling_type":"container"}},"type":"Feature"},
	{"geometry":{"coordinates":[22.409109,39.637653],"type":"Point"},"properties":{"osm_id":"4401507752","tag":{"amenity":"recycling","recycling:cardboard":"yes","recycling:glass":"yes","recycling:plastic":"yes","recycling:plastic_packaging":"yes","recycling_type":"container"}},"type":"Feature"},
	{"geometry":{"coordinates":[22.4087,39.636587],"type":"Point"},"properties":{"osm_id":"4401507753","tag":{"amenity":"recycling","opening_hours":"24/7","recycling:cans":"yes","recycling:cardboard":"yes","recycling:glass":"yes","recycling:glass_bottles":"yes","recycling:magazines":"yes","recycling:newspaper":"yes","recycling:paper":"yes","recycling:paper_packaging":"yes","recycling:plastic":"yes","recycling:plastic_bottles":"yes","recycling:plastic_packaging":"yes","recycling_type":"container"}},"type":"Feature"},
	{"geometry":{"coordinates":[22.408471,39.637458],"type":"Point"},"properties":{"osm_id":"4401507755","tag":{"amenity":"waste_disposal"}},"type":"Feature"},
	{"geometry":{"coordinates":[22.408722,39.636582],"type":"Point"},"properties":{"osm_id":"4441699444","tag":{"amenity":"waste_disposal","waste":"trash"}},"type":"Feature"},
	{"geometry":{"coordinates":[22.405859,39.634809],"type":"Point"},"properties":{"osm_id":"4444474918","tag":{"amenity":"waste_basket"}},"type":"Feature"},
	{"geometry":{"coordinates":[22.408792,39.636649],"type":"Point"},"properties":{"osm_id":"4778975929","tag":{"amenity":"recycling","recycling:cans":"yes","recycling:cardboard":"yes","recycling:glass":"yes","recycling:glass_bottles":"yes","recycling:magazines":"yes","recycling:newspaper":"yes","recycling:paper":"yes","recycling:paper_packaging":"yes","recycling:plastic":"yes","recycling:plastic_bottles":"yes","recycling:plastic_packaging":"yes","recycling_type":"container"}},"type":"Feature"},
	{"geometry":{"coordinates":[22.408788,39.636661],"type":"Point"},"properties":{"osm_id":"4778975930","tag":{"amenity":"recycling","recycling:cans":"yes","recycling:cardboard":"yes","recycling:glass":"yes","recycling:glass_bottles":"yes","recycling:magazines":"yes","recycling:newspaper":"yes","recycling:paper":"yes","recycling:paper_packaging":"yes","recycling:plastic":"yes","recycling:plastic_bottles":"yes","recycling:plastic_packaging":"yes","recycling_type":"container"}},"type":"Feature"},
	{"geometry":{"coordinates":[22.408785,39.636672],"type":"Point"},"properties":{"osm_id":"4778975931","tag":{"amenity":"recycling","recycling:cans":"yes","recycling:cardboard":"yes","recycling:glass":"yes","recycling:glass_bottles":"yes","recycling:magazines":"yes","recycling:newspaper":"yes","recycling:paper":"yes","recycling:paper_packaging":"yes","recycling:plastic":"yes","recycling:plastic_bottles":"yes","recycling:plastic_packaging":"yes","recycling_type":"container"}},"type":"Feature"},
	{"geometry":{"coordinates":[22.408783,39.636684],"type":"Point"},"properties":{"osm_id":"4778975932","tag":{"amenity":"recycling","opening_hours":"24/7","recycling:cans":"yes","recycling:cardboard":"yes","recycling:glass":"yes","recycling:glass_bottles":"yes","recycling:magazines":"yes","recycling:newspaper":"yes","recycling:paper":"yes","recycling:paper_packaging":"yes","recycling:plastic":"yes","recycling:plastic_bottles":"yes","recycling:plastic_packaging":"yes","recycling_type":"container","wheelchair":"limited"}},"type":"Feature"},
	{"geometry":{"coordinates":[22.408633,39.637759],"type":"Point"},"properties":{"osm_id":"4778975933","tag":{"amenity":"waste_disposal"}},"type":"Feature"},
	{"geometry":{"coordinates":[22.409134,39.637653],"type":"Point"},"properties":{"osm_id":"4778975934","tag":{"amenity":"waste_disposal","waste":"trash"}},"type":"Feature"},
	{"geometry":{"coordinates":[22.408454,39.637753],"type":"Point"},"properties":{"osm_id":"4778975944","tag":{"amenity":"waste_disposal","waste":"trash"}},"type":"Feature"},
	{"geometry":{"coordinates":[22.408456,39.637734],"type":"Point"},"properties":{"osm_id":"4778975945","tag":{"amenity":"waste_disposal"}},"type":"Feature"},
	{"geometry":{"coordinates":[22.408714,39.638237],"type":"Point"},"properties":{"osm_id":"4778975946","tag":{"amenity":"recycling","recycling:cardboard":"yes","recycling:glass":"yes","recycling:plastic":"yes","recycling:plastic_packaging":"yes","recycling_type":"container"}},"type":"Feature"},
	{"geometry":{"coordinates":[22.40762,39.634479],"type":"Point"},"properties":{"osm_id":"4784189122","tag":{"amenity":"waste_basket"}},"type":"Feature"},
	{"geometry":{"coordinates":[22.407415,39.633935],"type":"Point"},"properties":{"osm_id":"4784189321","tag":{"amenity":"waste_basket"}},"type":"Feature"},
	{"geometry":{"coordinates":[22.407882,39.634811],"type":"Point"},"properties":{"osm_id":"4784189421","tag":{"amenity":"waste_basket"}},"type":"Feature"},
	{"geometry":{"coordinates":[22.38293,39.627966],"type":"Point"},"properties":{"osm_id":"4855732778","tag":{"amenity":"waste_basket"}},"type":"Feature"},
	{"geometry":{"coordinates":[22.382981,39.627907],"type":"Point"},"properties":{"osm_id":"4855732779","tag":{"amenity":"waste_basket"}},"type":"Feature"},
	{"geometry":{"coordinates":[22.408819,39.636293],"type":"Point"},"properties":{"osm_id":"5598481419","tag":{"amenity":"recycling","opening_hours":"24/7","operator":"Texcycle","recycling:clothes":"yes","recycling_type":"container","wheelchair":"limited"}},"type":"Feature"},
	{"geometry":{"coordinates":[22.397778,39.62569],"type":"Point"},"properties":{"osm_id":"5598481420","tag":{"amenity":"recycling","opening_hours":"24/7","recycling:clothes":"yes","recycling_type":"container","wheelchair":"limited"}},"type":"Feature"},
	{"geometry":{"coordinates":[22.397733,39.625709],"type":"Point"},"properties":{"osm_id":"5598481421","tag":{"amenity":"recycling","opening_hours":"24/7","recycling:batteries":"yes","recycling:electrical_appliances":"yes","recycling_type":"container","wheelchair":"yes"}},"type":"Feature"},
	{"geometry":{"coordinates":[22.397847,39.62574],"type":"Point"},"properties":{"osm_id":"5600178007","tag":{"amenity":"recycling","opening_hours":"24/7","recycling:clothes":"yes","recycling_type":"container","wheelchair":"limited"}},"type":"Feature"},
	{"geometry":{"coordinates":[22.397754,39.625698],"type":"Point"},"properties":{"osm_id":"5600178008","tag":{"amenity":"recycling","opening_hours":"24/7","recycling:batteries":"yes","recycling:electrical_appliances":"yes","recycling_type":"container","wheelchair":"yes"}},"type":"Feature"},
	{"geometry":{"coordinates":[22.397706,39.625725],"type":"Point"},"properties":{"osm_id":"5600178009","tag":{"amenity":"recycling","opening_hours":"24/7","recycling:glass_bottles":"yes","recycling_type":"container","wheelchair":"limited"}},"type":"Feature"},
	{"geometry":{"coordinates":[22.397676,39.625755],"type":"Point"},"properties":{"osm_id":"5600178010","tag":{"amenity":"waste_disposal","waste":"trash"}},"type":"Feature"},
	{"geometry":{"coordinates":[22.397713,39.625885],"type":"Point"},"properties":{"osm_id":"5694479788","tag":{"amenity":"recycling","opening_hours":"24/7","recycling:glass_bottles":"yes","recycling_type":"container","wheelchair":"limited"}},"type":"Feature"},
	{"geometry":{"coordinates":[22.397683,39.625865],"type":"Point"},"properties":{"osm_id":"5694479789","tag":{"amenity":"waste_disposal","waste":"trash"}},"type":"Feature"},
	{"geometry":{"coordinates":[22.408779,39.636697],"type":"Point"},"properties":{"osm_id":"5694484020","tag":{"amenity":"waste_disposal","waste":"trash"}},"type":"Feature"},
	{"geometry":{"coordinates":[22.397035,39.631021],"type":"Point"},"properties":{"osm_id":"5928463429","tag":{"amenity":"recycling","operator":"Texcycle","recycling:clothes":"yes","recycling_type":"container"}},"type":"Feature"},
	{"geometry":{"coordinates":[22.397706,39.625923],"type":"Point"},"properties":{"osm_id":"5928468426","tag":{"amenity":"recycling","operator":"Texcycle","recycling:clothes":"yes","recycling_type":"container"}},"type":"Feature"}
]
}
