{
"type": "FeatureCollection",
"features": [
	{"geometry":{"coordinates":[-84.341195,39.265336],"type":"Point"},"properties":{"osm_id":"3248310786","tag":{"access":"private","amenity":"waste_disposal","description":"Dumpster"}},"type":"Feature"},
	{"geometry":{"coordinates":[-84.319621,39.300164],"type":"Point"},"properties":{"osm_id":"6154792896","tag":{"amenity":"waste_disposal"}},"type":"Feature"},
	{"geometry":{"coordinates":[-84.315993,39.298586],"type":"Point"},"properties":{"osm_id":"6186778529","tag":{"amenity":"waste_disposal"}},"type":"Feature"},
	{"geometry":{"coordinates":[-84.315943,39.298587],"type":"Point"},"properties":{"osm_id":"6186778530","tag":{"amenity":"waste_disposal"}},"type":"Feature"},
	{"geometry":{"coordinates":[-84.317024,39.300139],"type":"Point"},"properties":{"osm_id":"6186778544","tag":{"amenity":"waste_disposal"}},"type":"Feature"},
	{"geometry":{"coordinates":[-84.328282,39.272593],"type":"Point"},"properties":{"osm_id":"6243651203","tag":{"amenity":"waste_disposal"}},"type":"Feature"},
	{"geometry":{"coordinates":[-84.330419,39.267378],"type":"Point"},"properties":{"osm_id":"6243705295","tag":{"amenity":"waste_disposal"}},"type":"Feature"},
	{"geometry":{"coordinates":[-84.3681,39.241252],"type":"Point"},"properties":{"osm_id":"6282222833","tag":{"amenity":"waste_disposal"}},"type":"Feature"},
	{"geometry":{"coordinates":[-84.294837,39.253733],"type":"Point"},"properties":{"osm_id":"6387166429","tag":{"amenity":"waste_disposal"}},"type":"Feature"},
	{"geometry":{"coordinates":[-84.295142,39.253481],"type":"Point"},"properties":{"osm_id":"6387166430","tag":{"amenity":"waste_disposal"}},"type":"Feature"},
	{"geometry":{"coordinates":[-84.295336,39.250798],"type":"Point"},"properties":{"osm_id":"6387166481","tag":{"amenity":"waste_disposal"}},"type":"Feature"},
	{"geometry":{"coordinates":[-84.334289,39.268967],"type":"Point"},"properties":{"osm_id":"6388704446","tag":{"amenity":"waste_disposal"}},"type":"Feature"},
	{"geometry":{"coordinates":[-84.333149,39.27035],"type":"Point"},"properties":{"osm_id":"6388704485","tag":{"amenity":"waste_disposal"}},"type":"Feature"},
	{"geometry":{"coordinates":[-84.331491,39.268746],"type":"Point"},"properties":{"osm_id":"6388704532","tag":{"amenity":"waste_disposal"}},"type":"Feature"},
	{"geometry":{"coordinates":[-84.354466,39.298112],"type":"Point"},"properties":{"osm_id":"6401961798","tag":{"amenity":"waste_disposal"}},"type":"Feature"},
	{"geometry":{"coordinates":[-84.340825,39.25841],"type":"Point"},"properties":{"osm_id":"6415389287","tag":{"amenity":"waste_disposal"}},"type":"Feature"},
	{"geometry":{"coordinates":[-84.370051,39.249143],"type":"Point"},"properties":{"osm_id":"6487587317","tag":{"amenity":"waste_disposal"}},"type":"Feature"},
	{"geometry":{"coordinates":[-84.373899,39.272407],"type":"Point"},"properties":{"osm_id":"6487587508","tag":{"amenity":"waste_disposal"}},"type":"Feature"},
	{"geometry":{"coordinates":[-84.29764,39.251047],"type":"Point"},"properties":{"osm_id":"6501092319","tag":{"amenity":"waste_disposal"}},"type":"Feature"},
	{"geometry":{"coordinates":[-84.294625,39.255336],"type":"Point"},"properties":{"osm_id":"6501721860","tag":{"amenity":"waste_disposal"}},"type":"Feature"},
	{"geometry":{"coordinates":[-84.294228,39.256044],"type":"Point"},"properties":{"osm_id":"6501721876","tag":{"amenity":"waste_disposal"}},"type":"Feature"},
	{"geometry":{"coordinates":[-84.295623,39.254863],"type":"Point"},"properties":{"osm_id":"6501814814","tag":{"amenity":"waste_basket"}},"type":"Feature"},
	{"geometry":{"coordinates":[-84.297046,39.252788],"type":"Point"},"properties":{"osm_id":"6501814816","tag":{"amenity":"waste_disposal"}},"type":"Feature"},
	{"geometry":{"coordinates":[-84.296504,39.254554],"type":"Point"},"properties":{"osm_id":"6501814817","tag":{"amenity":"waste_disposal"}},"type":"Feature"},
	{"geometry":{"coordinates":[-84.295353,39.256074],"type":"Point"},"properties":{"osm_id":"6501814818","tag":{"amenity":"waste_disposal"}},"type":"Feature"},
	{"geometry":{"coordinates":[-84.300805,39.277312],"type":"Point"},"properties":{"osm_id":"6612870987","tag":{"amenity":"waste_disposal"}},"type":"Feature"},
	{"geometry":{"coordinates":[-84.350188,39.235235],"type":"Point"},"properties":{"osm_id":"6837130375","tag":{"amenity":"waste_disposal"}},"type":"Feature"},
	{"geometry":{"coordinates":[-84.315681,39.297314],"type":"Point"},"properties":{"osm_id":"6840094164","tag":{"amenity":"waste_disposal"}},"type":"Feature"},
	{"geometry":{"coordinates":[-84.316051,39.296104],"type":"Point"},"properties":{"osm_id":"6840094175","tag":{"amenity":"waste_disposal"}},"type":"Feature"},
	{"geometry":{"coordinates":[-84.31586,39.296585],"type":"Point"},"properties":{"osm_id":"6840097507","tag":{"amenity":"waste_disposal"}},"type":"Feature"},
	{"geometry":{"coordinates":[-84.316789,39.296145],"type":"Point"},"properties":{"osm_id":"6840097513","tag":{"amenity":"waste_disposal"}},"type":"Feature"},
	{"geometry":{"coordinates":[-84.317462,39.296168],"type":"Point"},"properties":{"osm_id":"6840097514","tag":{"amenity":"waste_disposal"}},"type":"Feature"},
	{"geometry":{"coordinates":[-84.318942,39.296889],"type":"Point"},"properties":{"osm_id":"6840097515","tag":{"amenity":"waste_disposal"}},"type":"Feature"},
	{"geometry":{"coordinates":[-84.318494,39.294821],"type":"Point"},"properties":{"osm_id":"6840097516","tag":{"amenity":"waste_disposal"}},"type":"Feature"},
	{"geometry":{"coordinates":[-84.316962,39.294785],"type":"Point"},"properties":{"osm_id":"6841812338","tag":{"amenity":"waste_disposal"}},"type":"Feature"},
	{"geometry":{"coordinates":[-84.317137,39.293656],"type":"Point"},"properties":{"osm_id":"6841812339","tag":{"amenity":"waste_disposal"}},"type":"Feature"},
	{"geometry":{"coordinates":[-84.320656,39.293687],"type":"Point"},"properties":{"osm_id":"6841812340","tag":{"amenity":"waste_disposal"}},"type":"Feature"},
	{"geometry":{"coordinates":[-84.313507,39.296446],"type":"Point"},"properties":{"osm_id":"6841812341","tag":{"amenity":"waste_disposal"}},"type":"Feature"},
	{"geometry":{"coordinates":[-84.314009,39.299601],"type":"Point"},"properties":{"osm_id":"6841812342","tag":{"amenity":"waste_disposal"}},"type":"Feature"},
	{"geometry":{"coordinates":[-84.309605,39.299987],"type":"Point"},"properties":{"osm_id":"6841812349","tag":{"amenity":"waste_disposal"}},"type":"Feature"},
	{"geometry":{"coordinates":[-84.366603,39.286433],"type":"Point"},"properties":{"osm_id":"6848952356","tag":{"amenity":"waste_disposal"}},"type":"Feature"},
	{"geometry":{"coordinates":[-84.368992,39.286103],"type":"Point"},"properties":{"osm_id":"6848952360","tag":{"amenity":"waste_disposal"}},"type":"Feature"},
	{"geometry":{"coordinates":[-84.36797,39.28466],"type":"Point"},"properties":{"osm_id":"6848952368","tag":{"amenity":"waste_disposal"}},"type":"Feature"},
	{"geometry":{"coordinates":[-84.366986,39.28369],"type":"Point"},"properties":{"osm_id":"6848952375","tag":{"amenity":"waste_disposal"}},"type":"Feature"},
	{"geometry":{"coordinates":[-84.365927,39.282866],"type":"Point"},"properties":{"osm_id":"6848952376","tag":{"amenity":"waste_disposal"}},"type":"Feature"},
	{"geometry":{"coordinates":[-84.364352,39.286173],"type":"Point"},"properties":{"osm_id":"6848952377","tag":{"amenity":"waste_disposal"}},"type":"Feature"},
	{"geometry":{"coordinates":[-84.364427,39.286181],"type":"Point"},"properties":{"osm_id":"6848952378","tag":{"amenity":"waste_disposal"}},"type":"Feature"},
	{"geometry":{"coordinates":[-84.356556,39.277917],"type":"Point"},"properties":{"osm_id":"6848986999","tag":{"amenity":"waste_disposal"}},"type":"Feature"},
	{"geometry":{"coordinates":[-84.348621,39.274434],"type":"Point"},"properties":{"osm_id":"6848987090","tag":{"amenity":"waste_disposal"}},"type":"Feature"},
	{"geometry":{"coordinates":[-84.348782,39.276768],"type":"Point"},"properties":{"osm_id":"6848987101","tag":{"amenity":"waste_disposal"}},"type":"Feature"},
	{"geometry":{"coordinates":[-84.373942,39.271389],"type":"Point"},"properties":{"osm_id":"6848987191","tag":{"amenity":"waste_disposal"}},"type":"Feature"},
	{"geometry":{"coordinates":[-84.373802,39.271449],"type":"Point"},"properties":{"osm_id":"6848987192","tag":{"amenity":"waste_disposal"}},"type":"Feature"},
	{"geometry":{"coordinates":[-84.373548,39.272651],"type":"Point"},"properties":{"osm_id":"6848987193","tag":{"amenity":"waste_disposal"}},"type":"Feature"},
	{"geometry":{"coordinates":[-84.371581,39.27283],"type":"Point"},"properties":{"osm_id":"6848987194","tag":{"amenity":"waste_disposal"}},"type":"Feature"},
	{"geometry":{"coordinates":[-84.373813,39.269247],"type":"Point"},"properties":{"osm_id":"6848987237","tag":{"amenity":"waste_disposal"}},"type":"Feature"},
	{"geometry":{"coordinates":[-84.372064,39.269058],"type":"Point"},"properties":{"osm_id":"6848987238","tag":{"amenity":"waste_disposal"}},"type":"Feature"},
	{"geometry":{"coordinates":[-84.371176,39.268867],"type":"Point"},"properties":{"osm_id":"6848987239","tag":{"amenity":"waste_disposal"}},"type":"Feature"},
	{"geometry":{"coordinates":[-84.374765,39.267678],"type":"Point"},"properties":{"osm_id":"6848987240","tag":{"amenity":"waste_disposal"}},"type":"Feature"},
	{"geometry":{"coordinates":[-84.371696,39.267585],"type":"Point"},"properties":{"osm_id":"6848987241","tag":{"amenity":"waste_disposal"}},"type":"Feature"},
	{"geometry":{"coordinates":[-84.371525,39.268281],"type":"Point"},"properties":{"osm_id":"6848987242","tag":{"amenity":"waste_disposal"}},"type":"Feature"},
	{"geometry":{"coordinates":[-84.370637,39.269032],"type":"Point"},"properties":{"osm_id":"6848987243","tag":{"amenity":"waste_disposal"}},"type":"Feature"},
	{"geometry":{"coordinates":[-84.369548,39.270413],"type":"Point"},"properties":{"osm_id":"6848987244","tag":{"amenity":"waste_disposal"}},"type":"Feature"},
	{"geometry":{"coordinates":[-84.300877,39.291363],"type":"Point"},"properties":{"osm_id":"6856308056","tag":{"amenity":"waste_disposal"}},"type":"Feature"},
	{"geometry":{"coordinates":[-84.298415,39.290383],"type":"Point"},"properties":{"osm_id":"6856308062","tag":{"amenity":"waste_disposal"}},"type":"Feature"},
	{"geometry":{"coordinates":[-84.293673,39.293659],"type":"Point"},"properties":{"osm_id":"6856308065","tag":{"amenity":"waste_disposal"}},"type":"Feature"},
	{"geometry":{"coordinates":[-84.295397,39.294456],"type":"Point"},"properties":{"osm_id":"6856350801","tag":{"amenity":"waste_disposal"}},"type":"Feature"},
	{"geometry":{"coordinates":[-84.296022,39.293885],"type":"Point"},"properties":{"osm_id":"6856350802","tag":{"amenity":"waste_disposal"}},"type":"Feature"},
	{"geometry":{"coordinates":[-84.29663,39.293458],"type":"Point"},"properties":{"osm_id":"6856350833","tag":{"amenity":"waste_disposal"}},"type":"Feature"},
	{"geometry":{"coordinates":[-84.297148,39.29293],"type":"Point"},"properties":{"osm_id":"6856350834","tag":{"amenity":"waste_disposal"}},"type":"Feature"},
	{"geometry":{"coordinates":[-84.297173,39.29136],"type":"Point"},"properties":{"osm_id":"6856350835","tag":{"amenity":"waste_disposal"}},"type":"Feature"},
	{"geometry":{"coordinates":[-84.297546,39.290917],"type":"Point"},"properties":{"osm_id":"6856350836","tag":{"amenity":"waste_disposal"}},"type":"Feature"},
	{"geometry":{"coordinates":[-84.296031,39.291729],"type":"Point"},"properties":{"osm_id":"6856350837","tag":{"amenity":"waste_disposal"}},"type":"Feature"},
	{"geometry":{"coordinates":[-84.296299,39.291993],"type":"Point"},"properties":{"osm_id":"6856350838","tag":{"amenity":"waste_disposal"}},"type":"Feature"},
	{"geometry":{"coordinates":[-84.2948,39.293172],"type":"Point"},"properties":{"osm_id":"6856350839","tag":{"amenity":"waste_disposal"}},"type":"Feature"},
	{"geometry":{"coordinates":[-84.294773,39.293238],"type":"Point"},"properties":{"osm_id":"6856350840","tag":{"amenity":"waste_disposal"}},"type":"Feature"},
	{"geometry":{"coordinates":[-84.29893,39.28952],"type":"Point"},"properties":{"osm_id":"6856350841","tag":{"amenity":"waste_disposal"}},"type":"Feature"},
	{"geometry":{"coordinates":[-84.300768,39.288306],"type":"Point"},"properties":{"osm_id":"6856350842","tag":{"amenity":"waste_disposal"}},"type":"Feature"},
	{"geometry":{"coordinates":[-84.302329,39.289057],"type":"Point"},"properties":{"osm_id":"6856350843","tag":{"amenity":"waste_disposal"}},"type":"Feature"},
	{"geometry":{"coordinates":[-84.302342,39.289122],"type":"Point"},"properties":{"osm_id":"6856350844","tag":{"amenity":"waste_disposal"}},"type":"Feature"},
	{"geometry":{"coordinates":[-84.301811,39.289782],"type":"Point"},"properties":{"osm_id":"6856350845","tag":{"amenity":"waste_disposal"}},"type":"Feature"},
	{"geometry":{"coordinates":[-84.301114,39.29044],"type":"Point"},"properties":{"osm_id":"6856350846","tag":{"amenity":"waste_disposal"}},"type":"Feature"},
	{"geometry":{"coordinates":[-84.309946,39.290728],"type":"Point"},"properties":{"osm_id":"6856350896","tag":{"amenity":"waste_disposal"}},"type":"Feature"},
	{"geometry":{"coordinates":[-84.310305,39.290666],"type":"Point"},"properties":{"osm_id":"6856350897","tag":{"amenity":"waste_disposal"}},"type":"Feature"},
	{"geometry":{"coordinates":[-84.311738,39.291835],"type":"Point"},"properties":{"osm_id":"6856350898","tag":{"amenity":"waste_disposal"}},"type":"Feature"},
	{"geometry":{"coordinates":[-84.310679,39.291947],"type":"Point"},"properties":{"osm_id":"6856350907","tag":{"amenity":"waste_disposal"}},"type":"Feature"},
	{"geometry":{"coordinates":[-84.309963,39.291746],"type":"Point"},"properties":{"osm_id":"6856350908","tag":{"amenity":"waste_disposal"}},"type":"Feature"},
	{"geometry":{"coordinates":[-84.312878,39.292059],"type":"Point"},"properties":{"osm_id":"6856350909","tag":{"amenity":"waste_disposal"}},"type":"Feature"},
	{"geometry":{"coordinates":[-84.313519,39.291827],"type":"Point"},"properties":{"osm_id":"6856350933","tag":{"amenity":"waste_disposal"}},"type":"Feature"},
	{"geometry":{"coordinates":[-84.314426,39.291887],"type":"Point"},"properties":{"osm_id":"6856350934","tag":{"amenity":"waste_disposal"}},"type":"Feature"},
	{"geometry":{"coordinates":[-84.314627,39.291881],"type":"Point"},"properties":{"osm_id":"6856350935","tag":{"amenity":"waste_disposal"}},"type":"Feature"},
	{"geometry":{"coordinates":[-84.314501,39.291816],"type":"Point"},"properties":{"osm_id":"6856350939","tag":{"amenity":"waste_disposal"}},"type":"Feature"},
	{"geometry":{"coordinates":[-84.314262,39.290772],"type":"Point"},"properties":{"osm_id":"6856350953","tag":{"amenity":"waste_disposal"}},"type":"Feature"},
	{"geometry":{"coordinates":[-84.314942,39.29215],"type":"Point"},"properties":{"osm_id":"6856350967","tag":{"amenity":"waste_disposal"}},"type":"Feature"},
	{"geometry":{"coordinates":[-84.373641,39.275164],"type":"Point"},"properties":{"osm_id":"6923602032","tag":{"amenity":"waste_disposal"}},"type":"Feature"},
	{"geometry":{"coordinates":[-84.363026,39.276986],"type":"Point"},"properties":{"osm_id":"6923613456","tag":{"amenity":"waste_disposal"}},"type":"Feature"},
	{"geometry":{"coordinates":[-84.366987,39.278673],"type":"Point"},"properties":{"osm_id":"6923616094","tag":{"amenity":"waste_disposal"}},"type":"Feature"},
	{"geometry":{"coordinates":[-84.366534,39.272441],"type":"Point"},"properties":{"osm_id":"6923616098","tag":{"amenity":"waste_disposal"}},"type":"Feature"},
	{"geometry":{"coordinates":[-84.353263,39.233166],"type":"Point"},"properties":{"osm_id":"6923616770","tag":{"amenity":"waste_disposal"}},"type":"Feature"},
	{"geometry":{"coordinates":[-84.374931,39.276598],"type":"Point"},"properties":{"osm_id":"6923628226","tag":{"amenity":"waste_disposal"}},"type":"Feature"},
	{"geometry":{"coordinates":[-84.348934,39.237299],"type":"Point"},"properties":{"osm_id":"6923628678","tag":{"amenity":"waste_disposal"}},"type":"Feature"},
	{"geometry":{"coordinates":[-84.348205,39.238166],"type":"Point"},"properties":{"osm_id":"6923635297","tag":{"amenity":"waste_disposal"}},"type":"Feature"},
	{"geometry":{"coordinates":[-84.34866,39.237353],"type":"Point"},"properties":{"osm_id":"6923635298","tag":{"amenity":"waste_disposal","operator":"Republic Services","operator:wikidata":"Q7314415","waste":"trash"}},"type":"Feature"},
	{"geometry":{"coordinates":[-84.351209,39.235822],"type":"Point"},"properties":{"osm_id":"6923655029","tag":{"amenity":"waste_disposal"}},"type":"Feature"},
	{"geometry":{"coordinates":[-84.328557,39.294961],"type":"Point"},"properties":{"osm_id":"6929394710","tag":{"amenity":"waste_disposal"}},"type":"Feature"},
	{"geometry":{"coordinates":[-84.370291,39.261875],"type":"Point"},"properties":{"osm_id":"6973985036","tag":{"amenity":"waste_disposal"}},"type":"Feature"}
]
}
