{
"type": "FeatureCollection",
"features": [
	{"geometry":{"coordinates":[9.92456,54.737926],"type":"Point"},"properties":{"osm_id":"395495413","tag":{"amenity":"recycling","recycling:glass":"yes","recycling_type":"container"}},"type":"Feature"},
	{"geometry":{"coordinates":[9.886896,54.736619],"type":"Point"},"properties":{"osm_id":"5913337737","tag":{"amenity":"waste_basket"}},"type":"Feature"},
	{"geometry":{"coordinates":[9.89147,54.740405],"type":"Point"},"properties":{"osm_id":"5913337741","tag":{"amenity":"waste_basket"}},"type":"Feature"},
	{"geometry":{"coordinates":[9.895348,54.746353],"type":"Point"},"properties":{"osm_id":"5913337743","tag":{"amenity":"waste_basket"}},"type":"Feature"},
	{"geometry":{"coordinates":[9.883857,54.737976],"type":"Point"},"properties":{"osm_id":"5913337744","tag":{"amenity":"waste_basket"}},"type":"Feature"},
	{"geometry":{"coordinates":[9.893283,54.741617],"type":"Point"},"properties":{"osm_id":"5913337746","tag":{"amenity":"waste_basket"}},"type":"Feature"},
	{"geometry":{"coordinates":[9.872807,54.744679],"type":"Point"},"properties":{"osm_id":"5923442611","tag":{"amenity":"waste_basket"}},"type":"Feature"},
	{"geometry":{"coordinates":[9.907339,54.769102],"type":"Point"},"properties":{"osm_id":"5940912526","tag":{"amenity":"waste_basket"}},"type":"Feature"},
	{"geometry":{"coordinates":[9.878777,54.755568],"type":"Point"},"properties":{"osm_id":"6202322933","tag":{"amenity":"waste_disposal"}},"type":"Feature"},
	{"geometry":{"coordinates":[9.929082,54.771255],"type":"Point"},"properties":{"osm_id":"6818171117","tag":{"amenity":"recycling","recycling:glass":"yes","recycling_type":"container"}},"type":"Feature"},
	{"geometry":{"coordinates":[9.89062,54.746433],"type":"Point"},"properties":{"osm_id":"7560791623","tag":{"amenity":"recycling","brand":"Deutsches Rotes Kreuz","check_date":"2020-05","operator":"Deutsches Rotes Kreuz","recycling:clothes":"yes","recycling:shoes":"yes","recycling_type":"container"}},"type":"Feature"},
	{"geometry":{"coordinates":[9.890485,54.746374],"type":"Point"},"properties":{"osm_id":"7560791624","tag":{"amenity":"recycling","check_date":"2020-05","recycling:clothes":"yes","recycling:shoes":"yes","recycling_type":"container"}},"type":"Feature"},
	{"geometry":{"coordinates":[9.890386,54.746576],"type":"Point"},"properties":{"osm_id":"7560791625","tag":{"amenity":"recycling","check_date":"2020-05","recycling:glass_bottles":"yes","recycling_type":"container"}},"type":"Feature"}
]
}
