{
"type": "FeatureCollection",
"features": [
	{"geometry":{"coordinates":[9.910329,53.729407],"type":"Point"},"properties":{"osm_id":"485220982","tag":{"amenity":"recycling","recycling:glass_bottles":"yes","recycling:paper":"yes","recycling_type":"container"}},"type":"Feature"},
	{"geometry":{"coordinates":[9.926959,53.723627],"type":"Point"},"properties":{"osm_id":"504322476","tag":{"amenity":"recycling","recycling:glass_bottles":"yes","recycling:paper":"yes","recycling_type":"container"}},"type":"Feature"},
	{"geometry":{"coordinates":[9.927869,53.727543],"type":"Point"},"properties":{"osm_id":"619397227","tag":{"amenity":"recycling","recycling:glass_bottles":"yes","recycling:paper":"yes","recycling_type":"container"}},"type":"Feature"},
	{"geometry":{"coordinates":[9.900846,53.721654],"type":"Point"},"properties":{"osm_id":"1581834336","tag":{"amenity":"recycling","recycling:clothes":"yes","recycling:glass_bottles":"yes","recycling:paper":"yes","recycling_type":"container"}},"type":"Feature"},
	{"geometry":{"coordinates":[9.890959,53.72806],"type":"Point"},"properties":{"osm_id":"1851721102","tag":{"amenity":"recycling","recycling:clothes":"yes","recycling:glass_bottles":"yes","recycling:paper":"yes","recycling_type":"container"}},"type":"Feature"},
	{"geometry":{"coordinates":[9.885836,53.715287],"type":"Point"},"properties":{"osm_id":"1857921567","tag":{"amenity":"waste_basket"}},"type":"Feature"},
	{"geometry":{"coordinates":[9.897528,53.715288],"type":"Point"},"properties":{"osm_id":"1901395003","tag":{"amenity":"waste_basket"}},"type":"Feature"},
	{"geometry":{"coordinates":[9.894385,53.723673],"type":"Point"},"properties":{"osm_id":"1901395008","tag":{"amenity":"waste_basket"}},"type":"Feature"},
	{"geometry":{"coordinates":[9.929408,53.727132],"type":"Point"},"properties":{"osm_id":"1901395011","tag":{"amenity":"waste_basket"}},"type":"Feature"},
	{"geometry":{"coordinates":[9.888266,53.739177],"type":"Point"},"properties":{"osm_id":"1901395041","tag":{"amenity":"waste_basket"}},"type":"Feature"},
	{"geometry":{"coordinates":[9.873866,53.741029],"type":"Point"},"properties":{"osm_id":"1907665115","tag":{"amenity":"waste_basket"}},"type":"Feature"},
	{"geometry":{"coordinates":[9.924185,53.721144],"type":"Point"},"properties":{"osm_id":"1912582721","tag":{"amenity":"waste_basket"}},"type":"Feature"},
	{"geometry":{"coordinates":[9.895628,53.727066],"type":"Point"},"properties":{"osm_id":"2179109788","tag":{"amenity":"waste_basket"}},"type":"Feature"},
	{"geometry":{"coordinates":[9.884235,53.7301],"type":"Point"},"properties":{"osm_id":"2180514567","tag":{"amenity":"waste_basket"}},"type":"Feature"},
	{"geometry":{"coordinates":[9.885978,53.736153],"type":"Point"},"properties":{"osm_id":"2180514601","tag":{"amenity":"waste_basket"}},"type":"Feature"},
	{"geometry":{"coordinates":[9.895046,53.724361],"type":"Point"},"properties":{"osm_id":"2515611247","tag":{"amenity":"waste_basket"}},"type":"Feature"},
	{"geometry":{"coordinates":[9.891846,53.724714],"type":"Point"},"properties":{"osm_id":"2515611249","tag":{"amenity":"waste_basket"}},"type":"Feature"},
	{"geometry":{"coordinates":[9.896845,53.725556],"type":"Point"},"properties":{"osm_id":"2515611254","tag":{"amenity":"waste_basket"}},"type":"Feature"},
	{"geometry":{"coordinates":[9.908585,53.727447],"type":"Point"},"properties":{"osm_id":"2882307879","tag":{"amenity":"waste_basket"}},"type":"Feature"},
	{"geometry":{"coordinates":[9.913853,53.726539],"type":"Point"},"properties":{"osm_id":"3508225344","tag":{"amenity":"recycling","opening_hours":"Mo-Fr 07:00-19:00; PH off","recycling:glass_bottles":"yes","recycling:paper":"yes","recycling_type":"container","wheelchair":"limited"}},"type":"Feature"},
	{"geometry":{"coordinates":[9.905298,53.732145],"type":"Point"},"properties":{"osm_id":"3508225346","tag":{"amenity":"recycling","recycling:glass_bottles":"yes","recycling_type":"container"}},"type":"Feature"},
	{"geometry":{"coordinates":[9.906058,53.742033],"type":"Point"},"properties":{"osm_id":"6868035383","tag":{"amenity":"waste_basket"}},"type":"Feature"},
	{"geometry":{"coordinates":[9.915455,53.697848],"type":"Point"},"properties":{"osm_id":"7133555682","tag":{"amenity":"waste_basket","waste":"dog_excrement"}},"type":"Feature"},
	{"geometry":{"coordinates":[9.872364,53.741501],"type":"Point"},"properties":{"osm_id":"7241097690","tag":{"amenity":"waste_basket"}},"type":"Feature"},
	{"geometry":{"coordinates":[9.872375,53.741514],"type":"Point"},"properties":{"osm_id":"7241097691","tag":{"amenity":"waste_basket"}},"type":"Feature"},
	{"geometry":{"coordinates":[9.877787,53.742008],"type":"Point"},"properties":{"osm_id":"7300436694","tag":{"amenity":"waste_basket","waste":"dog_excrement"}},"type":"Feature"},
	{"geometry":{"coordinates":[9.905138,53.732144],"type":"Point"},"properties":{"osm_id":"7454381346","tag":{"amenity":"recycling","recycling:clothes":"yes","recycling_type":"container"}},"type":"Feature"}
]
}
