{
"type": "FeatureCollection",
"features": [
	{"geometry":{"coordinates":[9.896443,53.472537],"type":"Point"},"properties":{"osm_id":"275627473","tag":{"amenity":"recycling","recycling:glass_bottles":"yes","recycling:paper":"yes","recycling_type":"container"}},"type":"Feature"},
	{"geometry":{"coordinates":[9.88416,53.47196],"type":"Point"},"properties":{"osm_id":"281303536","tag":{"amenity":"recycling","recycling:glass_bottles":"yes","recycling:paper":"yes","recycling_type":"container"}},"type":"Feature"},
	{"geometry":{"coordinates":[9.881585,53.442538],"type":"Point"},"properties":{"osm_id":"1233737500","tag":{"amenity":"waste_basket"}},"type":"Feature"},
	{"geometry":{"coordinates":[9.854294,53.468849],"type":"Point"},"properties":{"osm_id":"1234639944","tag":{"amenity":"waste_basket"}},"type":"Feature"},
	{"geometry":{"coordinates":[9.883798,53.477475],"type":"Point"},"properties":{"osm_id":"1255446383","tag":{"amenity":"recycling","check_date":"2020-02-22","operator":"Stadtreinigung Hamburg","recycling:clothes":"yes","recycling:glass_bottles":"yes","recycling:paper":"yes","recycling:small_appliances":"yes","recycling:small_electrical_appliances":"yes","recycling_type":"container"}},"type":"Feature"},
	{"geometry":{"coordinates":[9.877448,53.477458],"type":"Point"},"properties":{"osm_id":"1255686486","tag":{"amenity":"recycling","recycling:glass_bottles":"yes","recycling:paper":"yes","recycling_type":"container"}},"type":"Feature"},
	{"geometry":{"coordinates":[9.885962,53.47414],"type":"Point"},"properties":{"osm_id":"1550015742","tag":{"amenity":"recycling","recycling:paper":"yes","recycling_type":"container"}},"type":"Feature"},
	{"geometry":{"coordinates":[9.868145,53.44934],"type":"Point"},"properties":{"osm_id":"2275506418","tag":{"amenity":"recycling","recycling:books":"yes","recycling:cartons":"yes","recycling:glass_bottles":"yes","recycling:magazines":"yes","recycling:newspaper":"yes","recycling:paper":"yes","recycling:paper_packaging":"yes","recycling_type":"container"}},"type":"Feature"},
	{"geometry":{"coordinates":[9.866581,53.458646],"type":"Point"},"properties":{"osm_id":"2275863143","tag":{"amenity":"recycling","recycling:books":"yes","recycling:cartons":"yes","recycling:glass_bottles":"yes","recycling:magazines":"yes","recycling:newspaper":"yes","recycling:paper":"yes","recycling:paper_packaging":"yes","recycling_type":"container"}},"type":"Feature"},
	{"geometry":{"coordinates":[9.866554,53.485396],"type":"Point"},"properties":{"osm_id":"2414399048","tag":{"amenity":"recycling","recycling:glass_bottles":"yes","recycling:paper":"no","recycling_type":"container"}},"type":"Feature"},
	{"geometry":{"coordinates":[9.865352,53.476915],"type":"Point"},"properties":{"osm_id":"3006804510","tag":{"amenity":"recycling","recycling:glass_bottles":"yes","recycling:paper":"yes","recycling_type":"container"}},"type":"Feature"},
	{"geometry":{"coordinates":[9.85134,53.46985],"type":"Point"},"properties":{"osm_id":"3251322610","tag":{"amenity":"recycling","check_date":"2020-02-22","operator":"Stadtreinigung Hamburg","recycling:clothes":"yes","recycling:glass_bottles":"yes","recycling:paper":"yes","recycling:small_appliances":"yes","recycling:small_electrical_appliances":"yes","recycling_type":"container"}},"type":"Feature"},
	{"geometry":{"coordinates":[9.877106,53.473816],"type":"Point"},"properties":{"osm_id":"3494111125","tag":{"amenity":"recycling","recycling:glass_bottles":"yes","recycling:paper":"yes","recycling_type":"container"}},"type":"Feature"},
	{"geometry":{"coordinates":[9.874691,53.478142],"type":"Point"},"properties":{"osm_id":"3494111126","tag":{"amenity":"recycling","check_date":"2020-02-22","operator":"Stadtreinigung Hamburg","recycling:glass_bottles":"yes","recycling:paper":"yes","recycling:small_appliances":"yes","recycling:small_electrical_appliances":"yes","recycling_type":"container"}},"type":"Feature"},
	{"geometry":{"coordinates":[9.850357,53.470273],"type":"Point"},"properties":{"osm_id":"3758560236","tag":{"amenity":"waste_basket"}},"type":"Feature"},
	{"geometry":{"coordinates":[9.850439,53.471794],"type":"Point"},"properties":{"osm_id":"3758560237","tag":{"amenity":"waste_basket"}},"type":"Feature"},
	{"geometry":{"coordinates":[9.850935,53.470037],"type":"Point"},"properties":{"osm_id":"3758566389","tag":{"amenity":"waste_basket"}},"type":"Feature"},
	{"geometry":{"coordinates":[9.851624,53.459509],"type":"Point"},"properties":{"osm_id":"3780738758","tag":{"amenity":"recycling","recycling:paper":"yes","recycling_type":"container"}},"type":"Feature"},
	{"geometry":{"coordinates":[9.873112,53.480646],"type":"Point"},"properties":{"osm_id":"4167294097","tag":{"amenity":"recycling","check_date":"2020-02-22","operator":"Stadtreinigung Hamburg","recycling:clothes":"yes","recycling:glass_bottles":"yes","recycling:paper":"yes","recycling:small_appliances":"yes","recycling:small_electrical_appliances":"yes","recycling_type":"container"}},"type":"Feature"},
	{"geometry":{"coordinates":[9.859753,53.476276],"type":"Point"},"properties":{"osm_id":"4173465079","tag":{"amenity":"recycling","recycling:glass_bottles":"yes","recycling:paper":"yes","recycling_type":"container"}},"type":"Feature"},
	{"geometry":{"coordinates":[9.872211,53.476802],"type":"Point"},"properties":{"osm_id":"4173465080","tag":{"amenity":"recycling","recycling:glass_bottles":"yes","recycling_type":"container"}},"type":"Feature"},
	{"geometry":{"coordinates":[9.848092,53.471962],"type":"Point"},"properties":{"osm_id":"4173465290","tag":{"amenity":"recycling","recycling:glass_bottles":"yes","recycling_type":"container"}},"type":"Feature"},
	{"geometry":{"coordinates":[9.847645,53.471978],"type":"Point"},"properties":{"osm_id":"4173465291","tag":{"amenity":"recycling","recycling:paper":"yes","recycling_type":"container"}},"type":"Feature"},
	{"geometry":{"coordinates":[9.885331,53.442258],"type":"Point"},"properties":{"osm_id":"5235010186","tag":{"amenity":"waste_basket"}},"type":"Feature"},
	{"geometry":{"coordinates":[9.873287,53.477307],"type":"Point"},"properties":{"osm_id":"5816489800","tag":{"amenity":"waste_disposal"}},"type":"Feature"},
	{"geometry":{"coordinates":[9.8838,53.477491],"type":"Point"},"properties":{"osm_id":"5934017167","tag":{"amenity":"recycling","recycling:clothes":"yes","recycling:shoes":"yes","recycling_type":"container"}},"type":"Feature"},
	{"geometry":{"coordinates":[9.893951,53.471565],"type":"Point"},"properties":{"osm_id":"6205545224","tag":{"amenity":"recycling","opening_hours":"24/7","operator":"Textilrecycling Kursun GmbH","recycling:clothes":"yes","recycling:shoes":"yes","recycling_type":"container","wheelchair":"no"}},"type":"Feature"},
	{"geometry":{"coordinates":[9.907042,53.48218],"type":"Point"},"properties":{"osm_id":"6296184383","tag":{"amenity":"recycling","recycling_type":"container"}},"type":"Feature"},
	{"geometry":{"coordinates":[9.929603,53.475862],"type":"Point"},"properties":{"osm_id":"6641790582","tag":{"amenity":"waste_basket"}},"type":"Feature"},
	{"geometry":{"coordinates":[9.874689,53.477581],"type":"Point"},"properties":{"osm_id":"6775406511","tag":{"amenity":"waste_disposal"}},"type":"Feature"},
	{"geometry":{"coordinates":[9.886704,53.475886],"type":"Point"},"properties":{"osm_id":"7326953186","tag":{"amenity":"waste_basket","colour":"red","waste":"trash"}},"type":"Feature"},
	{"geometry":{"coordinates":[9.879426,53.472911],"type":"Point"},"properties":{"osm_id":"7394841044","tag":{"amenity":"waste_basket","layer":"-1","level":"-1","waste":"trash"}},"type":"Feature"},
	{"geometry":{"coordinates":[9.856661,53.466927],"type":"Point"},"properties":{"osm_id":"7671903098","tag":{"amenity":"waste_basket","waste":"trash"}},"type":"Feature"},
	{"geometry":{"coordinates":[9.896037,53.440961],"type":"Point"},"properties":{"osm_id":"7837966086","tag":{"amenity":"waste_basket"}},"type":"Feature"},
	{"geometry":{"coordinates":[9.890378,53.441465],"type":"Point"},"properties":{"osm_id":"7837966091","tag":{"amenity":"waste_basket"}},"type":"Feature"},
	{"geometry":{"coordinates":[9.894545,53.443141],"type":"Point"},"properties":{"osm_id":"7837966093","tag":{"amenity":"waste_basket"}},"type":"Feature"},
	{"geometry":{"coordinates":[9.902485,53.440501],"type":"Point"},"properties":{"osm_id":"7859473795","tag":{"amenity":"waste_basket"}},"type":"Feature"},
	{"geometry":{"coordinates":[9.903268,53.43655],"type":"Point"},"properties":{"osm_id":"7859494332","tag":{"amenity":"recycling","recycling:glass":"yes","recycling:glass_bottles":"yes","recycling_type":"container"}},"type":"Feature"},
	{"geometry":{"coordinates":[9.903097,53.436659],"type":"Point"},"properties":{"osm_id":"7859494333","tag":{"amenity":"waste_basket"}},"type":"Feature"}
]
}
