{
"type": "FeatureCollection",
"features": [
	{"geometry":{"coordinates":[9.857092,52.399146],"type":"Point"},"properties":{"osm_id":"349216563","tag":{"amenity":"recycling","recycling:glass":"yes","recycling_type":"container"}},"type":"Feature"},
	{"geometry":{"coordinates":[9.849943,52.395685],"type":"Point"},"properties":{"osm_id":"349216574","tag":{"amenity":"recycling","recycling:glass":"yes"}},"type":"Feature"},
	{"geometry":{"coordinates":[9.847059,52.392062],"type":"Point"},"properties":{"osm_id":"349216577","tag":{"amenity":"recycling","recycling:glass":"yes"}},"type":"Feature"},
	{"geometry":{"coordinates":[9.857271,52.41151],"type":"Point"},"properties":{"name":"aha - Zentraldeponie Hannover","osm_id":"457874816","tag":{"amenity":"recycling","recycling_type":"centre"}},"type":"Feature"},
	{"geometry":{"coordinates":[9.861403,52.385011],"type":"Point"},"properties":{"osm_id":"520520738","tag":{"amenity":"recycling","recycling:clothes":"yes","recycling:scrap_metal":"no"}},"type":"Feature"},
	{"geometry":{"coordinates":[9.853223,52.389974],"type":"Point"},"properties":{"osm_id":"692183215","tag":{"amenity":"recycling"}},"type":"Feature"},
	{"geometry":{"coordinates":[9.845079,52.387486],"type":"Point"},"properties":{"osm_id":"692183216","tag":{"amenity":"recycling","image":"https://storage2.openstreetcam.org/files/photo/2017/3/13/lth/53940_c2214_58c7130e52bad.jpg","recycling_type":"container","survey:date":"2017-03-13"}},"type":"Feature"},
	{"geometry":{"coordinates":[9.852733,52.389887],"type":"Point"},"properties":{"osm_id":"2079002710","tag":{"amenity":"waste_basket"}},"type":"Feature"},
	{"geometry":{"coordinates":[9.859792,52.428863],"type":"Point"},"properties":{"osm_id":"2704173852","tag":{"amenity":"recycling","recycling:glass_bottles":"yes","recycling_type":"container"}},"type":"Feature"},
	{"geometry":{"coordinates":[9.848138,52.390433],"type":"Point"},"properties":{"osm_id":"4166975936","tag":{"addr:city":"Hannover","addr:postcode":"30629","addr:street":"Hannoversche Stra\u00c3\u009fe","amenity":"recycling","recycling:clothes":"yes","recycling:glass":"yes","recycling_type":"container"}},"type":"Feature"},
	{"geometry":{"coordinates":[9.872026,52.402965],"type":"Point"},"properties":{"osm_id":"7562980354","tag":{"access":"private","amenity":"waste_disposal"}},"type":"Feature"}
]
}
