{
"type": "FeatureCollection",
"features": [
	{"geometry":{"coordinates":[9.865932,51.666756],"type":"Point"},"properties":{"osm_id":"3799749665","tag":{"amenity":"waste_basket","survey:date":"2015-10-23"}},"type":"Feature"},
	{"geometry":{"coordinates":[9.86513,51.666773],"type":"Point"},"properties":{"osm_id":"3799749672","tag":{"amenity":"waste_basket","survey:date":"2015-10-23"}},"type":"Feature"},
	{"geometry":{"coordinates":[9.930208,51.62465],"type":"Point"},"properties":{"osm_id":"5510564023","tag":{"amenity":"waste_basket"}},"type":"Feature"},
	{"geometry":{"coordinates":[9.930254,51.624827],"type":"Point"},"properties":{"osm_id":"5510564024","tag":{"amenity":"waste_basket"}},"type":"Feature"},
	{"geometry":{"coordinates":[9.858747,51.642166],"type":"Point"},"properties":{"osm_id":"5732734326","tag":{"amenity":"waste_basket","survey:date":"2018-07-01"}},"type":"Feature"},
	{"geometry":{"coordinates":[9.85885,51.64179],"type":"Point"},"properties":{"osm_id":"5732734330","tag":{"amenity":"waste_basket","survey:date":"2018-07-01"}},"type":"Feature"}
]
}
