{
"type": "FeatureCollection",
"features": [
	{"geometry":{"coordinates":[9.929896,51.534407],"type":"Point"},"properties":{"osm_id":"270972414","ref":"Neustadt","tag":{"amenity":"recycling","operator":"GEB","recycling:paper":"yes","recycling_type":"container"}},"type":"Feature"},
	{"geometry":{"coordinates":[9.894722,51.52788],"type":"Point"},"properties":{"osm_id":"309554572","tag":{"amenity":"recycling","operator":"Toruntex GmbH","recycling:clothes":"yes","recycling:shoes":"yes","recycling_type":"container","survey:date":"2019-02-13"}},"type":"Feature"},
	{"geometry":{"coordinates":[9.877139,51.549381],"type":"Point"},"properties":{"osm_id":"310608721","ref":"Am Burggraben, Ost","tag":{"amenity":"recycling","operator":"GEB","recycling:clothes":"yes","recycling:glass_bottles":"yes","recycling:shoes":"yes","recycling_type":"container","survey:date":"2014-06-14"}},"type":"Feature"},
	{"geometry":{"coordinates":[9.869151,51.547717],"type":"Point"},"properties":{"osm_id":"310608723","ref":"Am Burggraben, West","tag":{"amenity":"recycling","opening_hours":"Mo-Sa 07:00-13:00,15:00-19:00; PH off","operator":"GEB","recycling:glass_bottles":"yes","recycling_type":"container","survey:date":"2017-05-03"}},"type":"Feature"},
	{"geometry":{"coordinates":[9.869542,51.55086],"type":"Point"},"properties":{"osm_id":"310608725","ref":"Diedersh\u00c3\u00a4user Stra\u00c3\u009fe","tag":{"amenity":"recycling","opening_hours":"Mo-Sa 07:00-13:00,15:00-19:00; PH off","operator":"GEB","recycling:clothes":"yes","recycling:glass_bottles":"yes","recycling:paper":"no","recycling:shoes":"yes","recycling_type":"container","survey:date":"2017-05-03"}},"type":"Feature"},
	{"geometry":{"coordinates":[9.848837,51.562971],"type":"Point"},"properties":{"osm_id":"310608730","ref":"Am Steinborn","tag":{"amenity":"recycling","operator":"GEB","recycling:clothes":"yes","recycling:glass_bottles":"yes","recycling:paper":"no","recycling:shoes":"yes","recycling_type":"container"}},"type":"Feature"},
	{"geometry":{"coordinates":[9.864577,51.518345],"type":"Point"},"properties":{"osm_id":"310608733","ref":"Wiesentalsweg","tag":{"amenity":"recycling","operator":"GEB","recycling:clothes":"yes","recycling:glass_bottles":"yes","recycling:paper":"no","recycling:shoes":"yes","recycling_type":"container","survey:date":"2015-04-05"}},"type":"Feature"},
	{"geometry":{"coordinates":[9.870855,51.51929],"type":"Point"},"properties":{"osm_id":"310608736","ref":"Zum Sonsfelde","tag":{"amenity":"recycling","opening_hours":"Mo-Sa 07:00-13:00,15:00-19:00; PH off","operator":"GEB","recycling:clothes":"no","recycling:glass_bottles":"yes","recycling:paper":"no","recycling_type":"container"}},"type":"Feature"},
	{"geometry":{"coordinates":[9.926652,51.526321],"type":"Point"},"properties":{"osm_id":"310608774","ref":"Brauweg","tag":{"amenity":"recycling","description":"Container leicht verteilt (12m); trotzdem nur ein POI","operator":"GEB","recycling:clothes":"yes","recycling:glass":"no","recycling:glass_bottles":"yes","recycling:paper":"no","recycling:shoes":"yes","recycling_type":"container","survey:date":"2018-12-16"}},"type":"Feature"},
	{"geometry":{"coordinates":[9.92748,51.531406],"type":"Point"},"properties":{"osm_id":"310608798","ref":"Gartenstra\u00c3\u009fe","tag":{"amenity":"recycling","opening_hours":"Mo-Sa 07:00-13:00,15:00-19:00; PH off","operator":"GEB","recycling:clothes":"no","recycling:glass_bottles":"yes","recycling:paper":"no","recycling_type":"container","survey:date":"2015-01-18"}},"type":"Feature"},
	{"geometry":{"coordinates":[9.927597,51.532978],"type":"Point"},"properties":{"osm_id":"310608807","ref":"Groner-Tor-Stra\u00c3\u009fe","tag":{"amenity":"recycling","operator":"GEB","recycling:clothes":"yes","recycling:glass":"no","recycling:glass_bottles":"yes","recycling:paper":"yes","recycling:shoes":"yes","recycling_type":"container","survey:date":"2019-01-20"}},"type":"Feature"},
	{"geometry":{"coordinates":[9.925947,51.531366],"type":"Point"},"properties":{"osm_id":"310608813","ref":"Hasengraben","tag":{"amenity":"recycling","opening_hours":"Mo-Sa 07:00-19:00; PH off","operator":"GEB","recycling:clothes":"no","recycling:glass":"no","recycling:glass_bottles":"yes","recycling:paper":"no","recycling:shoes":"yes","recycling_type":"container"}},"type":"Feature"},
	{"geometry":{"coordinates":[9.924424,51.560076],"type":"Point"},"properties":{"osm_id":"310608817","ref":"Gro\u00c3\u009fe Breite","tag":{"amenity":"recycling","operator":"GEB","recycling:clothes":"yes","recycling:glass":"no","recycling:glass_bottles":"yes","recycling:paper":"no","recycling:shoes":"yes","recycling_type":"container","survey:date":"2019-01-19"}},"type":"Feature"},
	{"geometry":{"coordinates":[9.929685,51.52911],"type":"Point"},"properties":{"osm_id":"310608918","ref":"Wiesenstra\u00c3\u009fe, Ost","tag":{"amenity":"recycling","opening_hours":"Mo-Sa 07:00-13:00,15:00-19:00; PH off","operator":"GEB","recycling:clothes":"no","recycling:glass":"no","recycling:glass_bottles":"yes","recycling:paper":"no","recycling:shoes":"yes","recycling_type":"container","survey:date":"2015-02-06"}},"type":"Feature"},
	{"geometry":{"coordinates":[9.931582,51.536653],"type":"Point"},"properties":{"osm_id":"310608920","ref":"Waageplatz","tag":{"amenity":"recycling","opening_hours":"Mo-Sa 07:00-13:00,15:00-19:00; PH off","operator":"GEB","recycling:clothes":"yes","recycling:glass_bottles":"yes","recycling:paper":"yes","recycling:shoes":"yes","recycling_type":"container","survey:date":"2020-01-18"}},"type":"Feature"},
	{"geometry":{"coordinates":[9.895942,51.532317],"type":"Point"},"properties":{"osm_id":"310608931","ref":"Backhausstra\u00c3\u009fe","tag":{"amenity":"recycling","opening_hours":"Mo-Sa 07:00-19:00; PH off","operator":"GEB","recycling:clothes":"yes","recycling:glass":"no","recycling:glass_bottles":"yes","recycling:paper":"no","recycling:shoes":"yes","recycling_type":"container","survey:date":"2019-02-13"}},"type":"Feature"},
	{"geometry":{"coordinates":[9.914629,51.538582],"type":"Point"},"properties":{"osm_id":"310608934","ref":"Bebelstra\u00c3\u009fe (Schule)","tag":{"amenity":"recycling","opening_hours":"Mo-Sa 07:00-13:00,15:00-19:00; PH off","operator":"GEB","recycling:clothes":"no","recycling:glass_bottles":"yes","recycling:paper":"no","recycling_type":"container"}},"type":"Feature"},
	{"geometry":{"coordinates":[9.916035,51.526622],"type":"Point"},"properties":{"osm_id":"310608939","ref":"Allerstra\u00c3\u009fe","tag":{"amenity":"recycling","operator":"GEB","recycling:clothes":"yes","recycling:glass":"no","recycling:glass_bottles":"yes","recycling:shoes":"yes","recycling_type":"container","survey:date":"2019-02-09"}},"type":"Feature"},
	{"geometry":{"coordinates":[9.926629,51.528864],"type":"Point"},"properties":{"osm_id":"310608949","ref":"Wiesenstra\u00c3\u009fe, West","tag":{"amenity":"recycling","opening_hours":"Mo-Sa 07:00-13:00,15:00-19:00; PH off","operator":"GEB","recycling:clothes":"yes","recycling:glass":"no","recycling:glass_bottles":"yes","recycling:paper":"no","recycling:shoes":"yes","recycling_type":"container","survey:date":"2018-12-16"}},"type":"Feature"},
	{"geometry":{"coordinates":[9.894266,51.527444],"type":"Point"},"properties":{"osm_id":"310608953","ref":"Harzstra\u00c3\u009fe","tag":{"amenity":"recycling","opening_hours":"Mo-Sa 07:00-13:00,15:00-19:00; PH off","operator":"GEB","recycling:clothes":"yes","recycling:glass":"no","recycling:glass_bottles":"yes","recycling:paper":"no","recycling:shoes":"yes","recycling_type":"container","survey:date":"2019-02-13"}},"type":"Feature"},
	{"geometry":{"coordinates":[9.902576,51.537573],"type":"Point"},"properties":{"osm_id":"310608956","ref":"Greitweg","tag":{"amenity":"recycling","opening_hours":"Mo-Sa 07:00-13:00,15:00-19:00; PH off","operator":"GEB","recycling:clothes":"yes","recycling:glass_bottles":"yes","recycling:paper":"no","recycling:shoes":"yes","recycling_type":"container","survey:date":"2015-04-06"}},"type":"Feature"},
	{"geometry":{"coordinates":[9.90506,51.560896],"type":"Point"},"properties":{"osm_id":"310608959","ref":"Genfstra\u00c3\u009fe","tag":{"amenity":"recycling","operator":"GEB","recycling:clothes":"yes","recycling:glass_bottles":"yes","recycling:paper":"no","recycling:shoes":"yes","recycling_type":"container"}},"type":"Feature"},
	{"geometry":{"coordinates":[9.902071,51.529523],"type":"Point"},"properties":{"osm_id":"310608963","ref":"Elmweg/Ecke Rodeweg","tag":{"amenity":"recycling","operator":"GEB","recycling:clothes":"no","recycling:glass":"no","recycling:glass_bottles":"yes","recycling:paper":"no","recycling:shoes":"yes","recycling_type":"container","survey:date":"2019-02-13"}},"type":"Feature"},
	{"geometry":{"coordinates":[9.900914,51.527409],"type":"Point"},"properties":{"osm_id":"310608965","ref":"Elmweg/Ecke Deisterstra\u00c3\u009fe","tag":{"amenity":"recycling","operator":"GEB","recycling:clothes":"no","recycling:glass":"no","recycling:glass_bottles":"yes","recycling:paper":"no","recycling:shoes":"yes","recycling_type":"container","survey:date":"2019-02-13"}},"type":"Feature"},
	{"geometry":{"coordinates":[9.899806,51.528334],"type":"Point"},"properties":{"osm_id":"310608968","ref":"Deisterstra\u00c3\u009fe","tag":{"amenity":"recycling","opening_hours":"Mo-Sa 07:00-19:00; PH off","operator":"GEB","recycling:clothes":"yes","recycling:glass":"no","recycling:glass_bottles":"yes","recycling:paper":"no","recycling:shoes":"yes","recycling_type":"container","survey:date":"2019-02-13"}},"type":"Feature"},
	{"geometry":{"coordinates":[9.900648,51.562023],"type":"Point"},"properties":{"osm_id":"310608970","ref":"Br\u00c3\u00bcsselstra\u00c3\u009fe","tag":{"amenity":"recycling","opening_hours":"Mo-Sa 07:00-13:00,15:00-19:00; PH off","operator":"GEB","recycling:clothes":"yes","recycling:glass_bottles":"yes","recycling:paper":"no","recycling:shoes":"yes","recycling_type":"container","survey:date":"2015-02-11"}},"type":"Feature"},
	{"geometry":{"coordinates":[9.914508,51.54058],"type":"Point"},"properties":{"osm_id":"310608973","ref":"Bebelstra\u00c3\u009fe/Ecke Karl-Marx-Stra\u00c3\u009fe","tag":{"amenity":"recycling","opening_hours":"Mo-Sa 07:00-13:00,15:00-19:00; PH off","operator":"GEB","recycling:clothes":"yes","recycling:glass_bottles":"yes","recycling:paper":"no","recycling:shoes":"yes","recycling_type":"container"}},"type":"Feature"},
	{"geometry":{"coordinates":[9.902261,51.559881],"type":"Point"},"properties":{"osm_id":"310608976","ref":"Luxemburgstra\u00c3\u009fe","tag":{"amenity":"recycling","opening_hours":"Mo-Sa 07:00-13:00,15:00-19:00; PH off","operator":"GEB","recycling:clothes":"no","recycling:glass_bottles":"yes","recycling:paper":"no","recycling_type":"container","survey:date":"2017-05-06"}},"type":"Feature"},
	{"geometry":{"coordinates":[9.908031,51.553168],"type":"Point"},"properties":{"osm_id":"310608981","ref":"Lindenweg","tag":{"amenity":"recycling","operator":"GEB","recycling:clothes":"no","recycling:glass_bottles":"yes","recycling:paper":"no","recycling_type":"container","survey:date":"2020-03-19"}},"type":"Feature"},
	{"geometry":{"coordinates":[9.892457,51.539444],"type":"Point"},"properties":{"osm_id":"310608984","ref":"Lichtenwalder Stra\u00c3\u009fe","tag":{"amenity":"recycling","operator":"GEB","recycling:clothes":"yes","recycling:glass_bottles":"yes","recycling:paper":"no","recycling:shoes":"yes","recycling_type":"container","survey:date":"2017-06-17"}},"type":"Feature"},
	{"geometry":{"coordinates":[9.911323,51.54033],"type":"Point"},"properties":{"osm_id":"310608987","ref":"K\u00c3\u00b6nigsstieg","tag":{"amenity":"recycling","opening_hours":"Mo-Sa 07:00-13:00,15:00-19:00; PH off","operator":"GEB","recycling:clothes":"yes","recycling:glass":"no","recycling:glass_bottles":"yes","recycling:paper":"no","recycling:shoes":"yes","recycling_type":"container","survey:date":"2015-01-23"}},"type":"Feature"},
	{"geometry":{"coordinates":[9.909305,51.548986],"type":"Point"},"properties":{"osm_id":"310608990","ref":"K\u00c3\u00b6nigsallee/Am Supermarkt","tag":{"amenity":"recycling","opening_hours":"Mo-Sa 07:00-13:00,15:00-19:00; PH off","operator":"GEB","recycling:clothes":"yes","recycling:glass_bottles":"yes","recycling:paper":"no","recycling:shoes":"yes","recycling_type":"container","survey:date":"2015-01-01"}},"type":"Feature"},
	{"geometry":{"coordinates":[9.917788,51.538238],"type":"Point"},"properties":{"osm_id":"310608997","ref":"K\u00c3\u00b6nigsallee","tag":{"amenity":"recycling","operator":"GEB","recycling:clothes":"yes","recycling:glass_bottles":"yes","recycling:paper":"no","recycling:shoes":"yes","recycling_type":"container"}},"type":"Feature"},
	{"geometry":{"coordinates":[9.916712,51.532758],"type":"Point"},"properties":{"osm_id":"310609005","ref":"Jheringstra\u00c3\u009fe","tag":{"amenity":"recycling","operator":"GEB","recycling:clothes":"yes","recycling:glass":"no","recycling:glass_bottles":"yes","recycling:paper":"no","recycling:shoes":"yes","recycling_type":"container","survey:date":"2019-02-14"}},"type":"Feature"},
	{"geometry":{"coordinates":[9.894238,51.532642],"type":"Point"},"properties":{"osm_id":"310609010","ref":"St.-Heinrich-Stra\u00c3\u009fe, Ost","tag":{"amenity":"recycling","opening_hours":"Mo-Sa 07:00-19:00; PH off","recycling:clothes":"yes","recycling:glass":"no","recycling:glass_bottles":"yes","recycling:paper":"no","recycling:shoes":"yes","recycling_type":"container","survey:date":"2019-02-13"}},"type":"Feature"},
	{"geometry":{"coordinates":[9.892581,51.531753],"type":"Point"},"properties":{"osm_id":"310609017","ref":"St.-Heinrich-Stra\u00c3\u009fe, West","tag":{"amenity":"recycling","opening_hours":"Mo-Sa 07:00-19:00; PH off","operator":"GEB","recycling:clothes":"yes","recycling:glass":"no","recycling:glass_bottles":"yes","recycling:paper":"no","recycling:shoes":"yes","recycling_type":"container","survey:date":"2019-02-13"}},"type":"Feature"},
	{"geometry":{"coordinates":[9.918109,51.52864],"type":"Point"},"properties":{"osm_id":"310609027","ref":"Weserstra\u00c3\u009fe, Ost","tag":{"amenity":"recycling","operator":"GEB","recycling:clothes":"yes","recycling:glass":"no","recycling:glass_bottles":"yes","recycling:paper":"no","recycling:shoes":"yes","recycling_type":"container","survey:date":"2019-02-09"}},"type":"Feature"},
	{"geometry":{"coordinates":[9.913523,51.527302],"type":"Point"},"properties":{"osm_id":"310609033","ref":"Weserstra\u00c3\u009fe, Mitte","tag":{"amenity":"recycling","opening_hours":"Mo-Sa 07:00-13:00,15:00-19:00; PH off","operator":"GEB","recycling:clothes":"yes","recycling:glass":"no","recycling:glass_bottles":"yes","recycling:paper":"no","recycling:shoes":"yes","recycling_type":"container","survey:date":"2019-02-09"}},"type":"Feature"},
	{"geometry":{"coordinates":[9.911788,51.524273],"type":"Point"},"properties":{"osm_id":"310609041","ref":"Weserstra\u00c3\u009fe, West","tag":{"amenity":"recycling","operator":"GEB","recycling:clothes":"yes","recycling:glass":"no","recycling:glass_bottles":"yes","recycling:paper":"no","recycling:shoes":"yes","recycling_type":"container","survey:date":"2019-02-09"}},"type":"Feature"},
	{"geometry":{"coordinates":[9.904282,51.555869],"type":"Point"},"properties":{"osm_id":"310609055","ref":"Nu\u00c3\u009fanger","tag":{"amenity":"recycling","operator":"GEB","recycling:clothes":"yes","recycling:glass_bottles":"yes","recycling:paper":"no","recycling:shoes":"yes","recycling_type":"container"}},"type":"Feature"},
	{"geometry":{"coordinates":[9.905686,51.559783],"type":"Point"},"properties":{"osm_id":"310609064","ref":"Romstra\u00c3\u009fe","tag":{"amenity":"recycling","opening_hours":"Mo-Sa 07:00-13:00,15:00-19:00; PH off","operator":"GEB","recycling:clothes":"no","recycling:glass_bottles":"yes","recycling:paper":"no","recycling_type":"container","survey:date":"2015-02-11"}},"type":"Feature"},
	{"geometry":{"coordinates":[9.898641,51.535923],"type":"Point"},"properties":{"osm_id":"310609070","ref":"Sch\u00c3\u00bclerstieg","tag":{"amenity":"recycling","operator":"GEB","recycling:clothes":"yes","recycling:glass_bottles":"yes","recycling:paper":"no","recycling:shoes":"yes","recycling_type":"container"}},"type":"Feature"},
	{"geometry":{"coordinates":[9.897571,51.525663],"type":"Point"},"properties":{"osm_id":"310609077","ref":"Sollingstra\u00c3\u009fe, Ost","tag":{"amenity":"recycling","opening_hours":"Mo-Sa 07:00-19:00; PH off","operator":"GEB","recycling:clothes":"yes","recycling:glass":"no","recycling:glass_bottles":"yes","recycling:paper":"no","recycling:shoes":"yes","recycling_type":"container","survey:date":"2019-02-13"}},"type":"Feature"},
	{"geometry":{"coordinates":[9.894762,51.525879],"type":"Point"},"properties":{"osm_id":"310609079","ref":"Sollingstra\u00c3\u009fe, West","tag":{"amenity":"recycling","opening_hours":"Mo-Fr 08:00-13:00,15:00-20:00; Su,PH off","operator":"GEB","recycling:clothes":"yes","recycling:glass":"no","recycling:glass_bottles":"yes","recycling:paper":"no","recycling:shoes":"yes","recycling_type":"container","survey:date":"2019-02-13"}},"type":"Feature"},
	{"geometry":{"coordinates":[9.860141,51.532646],"type":"Point"},"properties":{"osm_id":"310609096","ref":"In der Straut","tag":{"amenity":"recycling","operator":"GEB","recycling:clothes":"yes","recycling:glass_bottles":"yes","recycling:paper":"no","recycling:shoes":"yes","recycling_type":"container","survey:date":"2020-04-05"}},"type":"Feature"},
	{"geometry":{"coordinates":[9.851142,51.534739],"type":"Point"},"properties":{"osm_id":"310609103","ref":"Am Winterberg","tag":{"amenity":"recycling","operator":"GEB","recycling:clothes":"yes","recycling:glass_bottles":"yes","recycling:paper":"no","recycling:shoes":"yes","recycling_type":"container"}},"type":"Feature"},
	{"geometry":{"coordinates":[9.894678,51.559559],"type":"Point"},"properties":{"osm_id":"310609114","ref":"Dom\u00c3\u00a4nenweg","tag":{"amenity":"recycling","opening_hours":"Mo-Sa 07:00-13:00,15:00-19:00; PH off","operator":"GEB","recycling:clothes":"yes","recycling:glass":"no","recycling:glass_bottles":"yes","recycling:paper":"no","recycling:shoes":"yes","recycling_type":"container","survey:date":"2019-04-22"}},"type":"Feature"},
	{"geometry":{"coordinates":[9.882074,51.530258],"type":"Point"},"properties":{"osm_id":"418376893","tag":{"amenity":"recycling","mapillary":"3ohQAx7XSBb8xaTPkcGxWA","opening_hours":"Mo-Fr 07:00-13:00,15:00-19:00; PH off","recycling:glass":"yes","recycling_type":"container","survey:date":"2017-09-19"}},"type":"Feature"},
	{"geometry":{"coordinates":[9.874378,51.544818],"type":"Point"},"properties":{"osm_id":"618267114","ref":"Zum Gallb\u00c3\u00bchl","tag":{"amenity":"recycling","operator":"GEB","recycling:glass_bottles":"yes","recycling:shoes":"yes","recycling_type":"container","survey:date":"2019-04-18"}},"type":"Feature"},
	{"geometry":{"coordinates":[9.917028,51.528476],"type":"Point"},"properties":{"osm_id":"757425444","tag":{"amenity":"waste_basket"}},"type":"Feature"},
	{"geometry":{"coordinates":[9.928841,51.563362],"type":"Point"},"properties":{"osm_id":"900906651","tag":{"amenity":"waste_basket","survey:date":"2013-10-31"}},"type":"Feature"},
	{"geometry":{"coordinates":[9.914715,51.529058],"type":"Point"},"properties":{"osm_id":"942952250","tag":{"amenity":"waste_basket","survey:date":"2013-11-04"}},"type":"Feature"},
	{"geometry":{"coordinates":[9.917248,51.548381],"type":"Point"},"properties":{"osm_id":"1289101998","tag":{"amenity":"waste_basket","survey:date":"2017-12-24"}},"type":"Feature"},
	{"geometry":{"coordinates":[9.917564,51.546973],"type":"Point"},"properties":{"osm_id":"1289102000","tag":{"amenity":"waste_basket","survey:date":"2017-12-24"}},"type":"Feature"},
	{"geometry":{"coordinates":[9.918942,51.542563],"type":"Point"},"properties":{"osm_id":"1289102002","tag":{"amenity":"waste_basket"}},"type":"Feature"},
	{"geometry":{"coordinates":[9.917459,51.547638],"type":"Point"},"properties":{"osm_id":"1289102004","tag":{"amenity":"waste_basket","survey:date":"2017-12-24"}},"type":"Feature"},
	{"geometry":{"coordinates":[9.918112,51.545194],"type":"Point"},"properties":{"osm_id":"1289102005","tag":{"amenity":"waste_basket","survey:date":"2017-12-24"}},"type":"Feature"},
	{"geometry":{"coordinates":[9.919226,51.54202],"type":"Point"},"properties":{"osm_id":"1289102008","tag":{"amenity":"waste_basket"}},"type":"Feature"},
	{"geometry":{"coordinates":[9.918929,51.542993],"type":"Point"},"properties":{"osm_id":"1289102015","tag":{"amenity":"waste_basket"}},"type":"Feature"},
	{"geometry":{"coordinates":[9.918363,51.544026],"type":"Point"},"properties":{"osm_id":"1289102017","tag":{"amenity":"waste_basket","survey:date":"2017-12-24"}},"type":"Feature"},
	{"geometry":{"coordinates":[9.918202,51.544814],"type":"Point"},"properties":{"osm_id":"1289115302","tag":{"amenity":"waste_basket"}},"type":"Feature"},
	{"geometry":{"coordinates":[9.927615,51.531239],"type":"Point"},"properties":{"osm_id":"1289278340","ref":"Gartenstra\u00c3\u009fe","tag":{"amenity":"recycling","operator":"GEB","recycling:clothes":"yes","recycling:glass":"no","recycling:paper":"no","recycling:shoes":"yes","recycling_type":"container","survey:date":"2015-01-18"}},"type":"Feature"},
	{"geometry":{"coordinates":[9.930625,51.542221],"type":"Point"},"properties":{"osm_id":"1360143545","tag":{"amenity":"recycling","location":"overground","recycling_type":"container"}},"type":"Feature"},
	{"geometry":{"coordinates":[9.895986,51.553214],"type":"Point"},"properties":{"barrier":"gate","osm_id":"1717932093"},"type":"Feature"},
	{"geometry":{"coordinates":[9.896258,51.509006],"type":"Point"},"properties":{"osm_id":"2293351611","ref":"395;420","tag":{"amenity":"recycling","operator":"Fehr","recycling:glass":"no","recycling:glass_bottles":"yes","recycling_type":"container","survey:date":"2020-01-15"}},"type":"Feature"},
	{"geometry":{"coordinates":[9.921364,51.540497],"type":"Point"},"properties":{"osm_id":"2423627255","tag":{"amenity":"waste_basket","survey:date":"2018-02-10"}},"type":"Feature"},
	{"geometry":{"coordinates":[9.923228,51.539932],"type":"Point"},"properties":{"osm_id":"2424871498","tag":{"amenity":"waste_basket","survey:date":"2019-09-15"}},"type":"Feature"},
	{"geometry":{"coordinates":[9.918484,51.534547],"type":"Point"},"properties":{"osm_id":"2427507095","tag":{"amenity":"waste_basket","survey:date":"2013-08-21"}},"type":"Feature"},
	{"geometry":{"coordinates":[9.909093,51.524639],"type":"Point"},"properties":{"osm_id":"2427522693","tag":{"amenity":"waste_basket","survey:date":"2013-08-21"}},"type":"Feature"},
	{"geometry":{"coordinates":[9.916223,51.525649],"type":"Point"},"properties":{"osm_id":"2471576228","tag":{"amenity":"waste_basket","survey:date":"2013-09-23"}},"type":"Feature"},
	{"geometry":{"coordinates":[9.893652,51.523101],"type":"Point"},"properties":{"osm_id":"2471605762","tag":{"amenity":"waste_basket","survey:date":"2013-09-23"}},"type":"Feature"},
	{"geometry":{"coordinates":[9.894811,51.523373],"type":"Point"},"properties":{"osm_id":"2471605766","tag":{"amenity":"waste_basket","survey:date":"2013-09-23"}},"type":"Feature"},
	{"geometry":{"coordinates":[9.897715,51.524463],"type":"Point"},"properties":{"osm_id":"2471605779","tag":{"amenity":"waste_basket","survey:date":"2013-09-23"}},"type":"Feature"},
	{"geometry":{"coordinates":[9.900947,51.525479],"type":"Point"},"properties":{"osm_id":"2471605788","tag":{"amenity":"waste_basket","survey:date":"2013-09-23"}},"type":"Feature"},
	{"geometry":{"coordinates":[9.9008,51.525525],"type":"Point"},"properties":{"osm_id":"2471605789","tag":{"amenity":"waste_basket","material":"metal","survey:date":"2016-06-19"}},"type":"Feature"},
	{"geometry":{"coordinates":[9.917519,51.53384],"type":"Point"},"properties":{"osm_id":"2471614770","tag":{"amenity":"waste_basket","survey:date":"2013-09-23"}},"type":"Feature"},
	{"geometry":{"coordinates":[9.917216,51.533372],"type":"Point"},"properties":{"osm_id":"2471637173","tag":{"amenity":"waste_basket","survey:date":"2013-09-23"}},"type":"Feature"},
	{"geometry":{"coordinates":[9.882557,51.531299],"type":"Point"},"properties":{"osm_id":"2478354704","tag":{"amenity":"waste_basket","survey:date":"2015-04-04"}},"type":"Feature"},
	{"geometry":{"coordinates":[9.893744,51.535007],"type":"Point"},"properties":{"osm_id":"2494532962","tag":{"amenity":"waste_basket","survey:date":"2013-09-27"}},"type":"Feature"},
	{"geometry":{"coordinates":[9.893538,51.535073],"type":"Point"},"properties":{"osm_id":"2494532966","tag":{"amenity":"waste_basket","survey:date":"2013-09-27"}},"type":"Feature"},
	{"geometry":{"coordinates":[9.893858,51.535094],"type":"Point"},"properties":{"osm_id":"2494532972","tag":{"amenity":"waste_basket","survey:date":"2013-09-27"}},"type":"Feature"},
	{"geometry":{"coordinates":[9.895992,51.534297],"type":"Point"},"properties":{"osm_id":"2494559195","tag":{"amenity":"waste_basket","survey:date":"2013-09-27"}},"type":"Feature"},
	{"geometry":{"coordinates":[9.896133,51.534757],"type":"Point"},"properties":{"osm_id":"2494559208","tag":{"amenity":"waste_basket","survey:date":"2013-09-27"}},"type":"Feature"},
	{"geometry":{"coordinates":[9.897912,51.532493],"type":"Point"},"properties":{"osm_id":"2494563153","tag":{"amenity":"waste_basket","survey:date":"2013-09-27"}},"type":"Feature"},
	{"geometry":{"coordinates":[9.899585,51.53352],"type":"Point"},"properties":{"osm_id":"2494563169","tag":{"amenity":"waste_basket","survey:date":"2013-09-27"}},"type":"Feature"},
	{"geometry":{"coordinates":[9.901003,51.533828],"type":"Point"},"properties":{"osm_id":"2494563176","tag":{"amenity":"waste_basket","survey:date":"2013-09-27"}},"type":"Feature"},
	{"geometry":{"coordinates":[9.90076,51.533983],"type":"Point"},"properties":{"osm_id":"2494563181","tag":{"amenity":"waste_basket","survey:date":"2013-09-27"}},"type":"Feature"},
	{"geometry":{"coordinates":[9.907384,51.538223],"type":"Point"},"properties":{"osm_id":"2494610073","tag":{"amenity":"waste_basket","survey:date":"2015-01-23"}},"type":"Feature"},
	{"geometry":{"coordinates":[9.907573,51.540358],"type":"Point"},"properties":{"osm_id":"2494610085","tag":{"amenity":"waste_basket","survey:date":"2013-09-27"}},"type":"Feature"},
	{"geometry":{"coordinates":[9.908394,51.542509],"type":"Point"},"properties":{"osm_id":"2494610094","tag":{"amenity":"waste_basket","survey:date":"2013-09-27"}},"type":"Feature"},
	{"geometry":{"coordinates":[9.93164,51.534521],"type":"Point"},"properties":{"osm_id":"2495739080","tag":{"amenity":"waste_basket","survey:date":"2015-12-26"}},"type":"Feature"},
	{"geometry":{"coordinates":[9.8903,51.52934],"type":"Point"},"properties":{"osm_id":"2495748001","tag":{"amenity":"waste_basket","survey:date":"2013-10-13"}},"type":"Feature"},
	{"geometry":{"coordinates":[9.925437,51.534748],"type":"Point"},"properties":{"osm_id":"2500055924","tag":{"amenity":"waste_basket","survey:date":"2013-10-17"}},"type":"Feature"},
	{"geometry":{"coordinates":[9.891839,51.529742],"type":"Point"},"properties":{"osm_id":"2500164287","tag":{"amenity":"waste_basket","survey:date":"2013-10-13"}},"type":"Feature"},
	{"geometry":{"coordinates":[9.894341,51.53057],"type":"Point"},"properties":{"osm_id":"2500164297","tag":{"amenity":"waste_basket","survey:date":"2013-10-13"}},"type":"Feature"},
	{"geometry":{"coordinates":[9.895274,51.531126],"type":"Point"},"properties":{"osm_id":"2500164367","tag":{"amenity":"waste_basket","survey:date":"2020-03-21"}},"type":"Feature"},
	{"geometry":{"coordinates":[9.895978,51.531436],"type":"Point"},"properties":{"osm_id":"2500164408","tag":{"amenity":"waste_basket","survey:date":"2020-03-21"}},"type":"Feature"},
	{"geometry":{"coordinates":[9.896528,51.53151],"type":"Point"},"properties":{"osm_id":"2500164415","tag":{"amenity":"waste_basket","survey:date":"2013-10-13"}},"type":"Feature"},
	{"geometry":{"coordinates":[9.894661,51.530757],"type":"Point"},"properties":{"osm_id":"2500168848","tag":{"amenity":"waste_basket","survey:date":"2013-10-13"}},"type":"Feature"},
	{"geometry":{"coordinates":[9.894157,51.531075],"type":"Point"},"properties":{"osm_id":"2500168862","tag":{"amenity":"waste_basket","survey:date":"2013-10-13"}},"type":"Feature"},
	{"geometry":{"coordinates":[9.891157,51.531237],"type":"Point"},"properties":{"osm_id":"2500173788","tag":{"amenity":"waste_basket","survey:date":"2015-01-23"}},"type":"Feature"},
	{"geometry":{"coordinates":[9.892573,51.522648],"type":"Point"},"properties":{"osm_id":"2500235468","tag":{"amenity":"waste_basket","survey:date":"2013-10-13"}},"type":"Feature"},
	{"geometry":{"coordinates":[9.908824,51.523643],"type":"Point"},"properties":{"osm_id":"2500235472","tag":{"amenity":"waste_basket","survey:date":"2013-10-13"}},"type":"Feature"},
	{"geometry":{"coordinates":[9.899213,51.52496],"type":"Point"},"properties":{"osm_id":"2500235475","tag":{"amenity":"waste_basket","survey:date":"2013-10-13"}},"type":"Feature"},
	{"geometry":{"coordinates":[9.909541,51.525442],"type":"Point"},"properties":{"osm_id":"2500235478","tag":{"amenity":"waste_basket","survey:date":"2013-10-13"}},"type":"Feature"},
	{"geometry":{"coordinates":[9.909676,51.525763],"type":"Point"},"properties":{"osm_id":"2500235482","tag":{"amenity":"waste_basket","survey:date":"2013-10-13"}},"type":"Feature"},
	{"geometry":{"coordinates":[9.902125,51.525913],"type":"Point"},"properties":{"osm_id":"2500235485","tag":{"amenity":"waste_basket","survey:date":"2013-10-13"}},"type":"Feature"},
	{"geometry":{"coordinates":[9.905609,51.527141],"type":"Point"},"properties":{"osm_id":"2500235486","tag":{"amenity":"waste_basket","survey:date":"2013-10-13"}},"type":"Feature"},
	{"geometry":{"coordinates":[9.9097,51.545142],"type":"Point"},"properties":{"osm_id":"2500250306","tag":{"amenity":"waste_basket","survey:date":"2013-10-10"}},"type":"Feature"},
	{"geometry":{"coordinates":[9.929262,51.561915],"type":"Point"},"properties":{"osm_id":"2515500791","tag":{"amenity":"waste_basket","survey:date":"2013-10-31"}},"type":"Feature"},
	{"geometry":{"coordinates":[9.929701,51.562009],"type":"Point"},"properties":{"osm_id":"2515500798","tag":{"amenity":"waste_basket","survey:date":"2013-10-31"}},"type":"Feature"},
	{"geometry":{"coordinates":[9.93025,51.562169],"type":"Point"},"properties":{"osm_id":"2515500804","tag":{"amenity":"waste_basket","survey:date":"2013-10-31"}},"type":"Feature"},
	{"geometry":{"coordinates":[9.928859,51.562283],"type":"Point"},"properties":{"osm_id":"2515500810","tag":{"amenity":"waste_basket","survey:date":"2013-10-31"}},"type":"Feature"},
	{"geometry":{"coordinates":[9.927554,51.562765],"type":"Point"},"properties":{"osm_id":"2515500814","tag":{"amenity":"waste_basket","survey:date":"2013-10-31"}},"type":"Feature"},
	{"geometry":{"coordinates":[9.921173,51.549259],"type":"Point"},"properties":{"osm_id":"2515606231","tag":{"amenity":"waste_basket","survey:date":"2015-02-10"}},"type":"Feature"},
	{"geometry":{"coordinates":[9.892662,51.550821],"type":"Point"},"properties":{"osm_id":"2515641855","tag":{"amenity":"waste_basket","survey:date":"2015-02-10"}},"type":"Feature"},
	{"geometry":{"coordinates":[9.892406,51.551456],"type":"Point"},"properties":{"osm_id":"2515641873","tag":{"amenity":"waste_basket","survey:date":"2018-05-17"}},"type":"Feature"},
	{"geometry":{"coordinates":[9.892272,51.552993],"type":"Point"},"properties":{"osm_id":"2515641902","tag":{"amenity":"waste_basket","survey:date":"2013-10-31"}},"type":"Feature"},
	{"geometry":{"coordinates":[9.885186,51.545088],"type":"Point"},"properties":{"osm_id":"2515692730","tag":{"amenity":"waste_basket","survey:date":"2013-10-31"}},"type":"Feature"},
	{"geometry":{"coordinates":[9.888539,51.548188],"type":"Point"},"properties":{"osm_id":"2515705249","tag":{"amenity":"waste_basket"}},"type":"Feature"},
	{"geometry":{"coordinates":[9.899662,51.548135],"type":"Point"},"properties":{"osm_id":"2515755760","tag":{"amenity":"waste_basket","survey:date":"2015-12-09"}},"type":"Feature"},
	{"geometry":{"coordinates":[9.907793,51.543879],"type":"Point"},"properties":{"osm_id":"2515757266","tag":{"amenity":"waste_basket","survey:date":"2013-10-31"}},"type":"Feature"},
	{"geometry":{"coordinates":[9.907465,51.544141],"type":"Point"},"properties":{"osm_id":"2515757269","tag":{"amenity":"waste_basket","survey:date":"2013-10-31"}},"type":"Feature"},
	{"geometry":{"coordinates":[9.908976,51.544188],"type":"Point"},"properties":{"osm_id":"2515757270","tag":{"amenity":"waste_basket","survey:date":"2013-10-31"}},"type":"Feature"},
	{"geometry":{"coordinates":[9.909784,51.544282],"type":"Point"},"properties":{"osm_id":"2515757273","tag":{"amenity":"waste_basket","survey:date":"2013-10-31"}},"type":"Feature"},
	{"geometry":{"coordinates":[9.907529,51.544644],"type":"Point"},"properties":{"osm_id":"2515757278","tag":{"amenity":"waste_basket","survey:date":"2013-10-31"}},"type":"Feature"},
	{"geometry":{"coordinates":[9.90874,51.544849],"type":"Point"},"properties":{"osm_id":"2515757282","tag":{"amenity":"waste_basket","survey:date":"2013-10-31"}},"type":"Feature"},
	{"geometry":{"coordinates":[9.908022,51.544961],"type":"Point"},"properties":{"osm_id":"2515757283","tag":{"amenity":"waste_basket","survey:date":"2013-10-31"}},"type":"Feature"},
	{"geometry":{"coordinates":[9.908657,51.545197],"type":"Point"},"properties":{"osm_id":"2515757284","tag":{"amenity":"waste_basket","survey:date":"2013-10-31"}},"type":"Feature"},
	{"geometry":{"coordinates":[9.922266,51.543795],"type":"Point"},"properties":{"osm_id":"2558516592","tag":{"amenity":"waste_basket"}},"type":"Feature"},
	{"geometry":{"coordinates":[9.92222,51.54403],"type":"Point"},"properties":{"osm_id":"2558516594","tag":{"amenity":"waste_basket"}},"type":"Feature"},
	{"geometry":{"coordinates":[9.931371,51.547614],"type":"Point"},"properties":{"osm_id":"2596132882","tag":{"amenity":"waste_basket","survey:date":"2014-02-09"}},"type":"Feature"},
	{"geometry":{"coordinates":[9.887855,51.52763],"type":"Point"},"properties":{"osm_id":"2602344116","tag":{"amenity":"waste_basket","survey:date":"2016-04-09"}},"type":"Feature"},
	{"geometry":{"coordinates":[9.902051,51.531945],"type":"Point"},"properties":{"osm_id":"2602344141","tag":{"amenity":"waste_basket","survey:date":"2015-01-18"}},"type":"Feature"},
	{"geometry":{"coordinates":[9.926986,51.532941],"type":"Point"},"properties":{"osm_id":"2602344146","tag":{"amenity":"waste_basket","survey:date":"2017-07-23"}},"type":"Feature"},
	{"geometry":{"coordinates":[9.927047,51.533272],"type":"Point"},"properties":{"osm_id":"2602344148","tag":{"amenity":"waste_basket","survey:date":"2013-12-30"}},"type":"Feature"},
	{"geometry":{"coordinates":[9.908903,51.533716],"type":"Point"},"properties":{"osm_id":"2602344150","tag":{"amenity":"waste_basket","survey:date":"2015-12-27"}},"type":"Feature"},
	{"geometry":{"coordinates":[9.92712,51.533725],"type":"Point"},"properties":{"osm_id":"2602344152","tag":{"amenity":"waste_basket","survey:date":"2015-01-18"}},"type":"Feature"},
	{"geometry":{"coordinates":[9.908255,51.533782],"type":"Point"},"properties":{"osm_id":"2602344154","tag":{"amenity":"waste_basket","survey:date":"2013-12-30"}},"type":"Feature"},
	{"geometry":{"coordinates":[9.912321,51.535003],"type":"Point"},"properties":{"osm_id":"2602344155","tag":{"amenity":"waste_basket","survey:date":"2016-02-06"}},"type":"Feature"},
	{"geometry":{"coordinates":[9.915041,51.535157],"type":"Point"},"properties":{"osm_id":"2602344160","tag":{"amenity":"waste_basket","survey:date":"2013-12-30"}},"type":"Feature"},
	{"geometry":{"coordinates":[9.920186,51.535361],"type":"Point"},"properties":{"osm_id":"2602344162","tag":{"amenity":"waste_basket","survey:date":"2014-06-11"}},"type":"Feature"},
	{"geometry":{"coordinates":[9.917653,51.529994],"type":"Point"},"properties":{"osm_id":"2612428034","tag":{"amenity":"waste_basket"}},"type":"Feature"},
	{"geometry":{"coordinates":[9.919999,51.530587],"type":"Point"},"properties":{"osm_id":"2612428037","tag":{"amenity":"waste_basket","survey:date":"2013-11-04"}},"type":"Feature"},
	{"geometry":{"coordinates":[9.913957,51.52858],"type":"Point"},"properties":{"osm_id":"2612567721","tag":{"amenity":"waste_basket","survey:date":"2013-11-04"}},"type":"Feature"},
	{"geometry":{"coordinates":[9.914619,51.528927],"type":"Point"},"properties":{"osm_id":"2612567730","tag":{"amenity":"waste_basket","survey:date":"2013-11-04"}},"type":"Feature"},
	{"geometry":{"coordinates":[9.914819,51.528931],"type":"Point"},"properties":{"osm_id":"2612567731","tag":{"amenity":"waste_basket","survey:date":"2013-11-04"}},"type":"Feature"},
	{"geometry":{"coordinates":[9.913555,51.541281],"type":"Point"},"properties":{"osm_id":"2613148566","tag":{"amenity":"waste_basket","survey:date":"2014-01-05"}},"type":"Feature"},
	{"geometry":{"coordinates":[9.912295,51.543135],"type":"Point"},"properties":{"osm_id":"2613148632","tag":{"amenity":"waste_basket","survey:date":"2015-01-23"}},"type":"Feature"},
	{"geometry":{"coordinates":[9.909651,51.558916],"type":"Point"},"properties":{"osm_id":"2614426496","tag":{"amenity":"waste_basket","survey:date":"2017-05-06"}},"type":"Feature"},
	{"geometry":{"coordinates":[9.899658,51.562297],"type":"Point"},"properties":{"osm_id":"2614541046","tag":{"amenity":"waste_basket","survey:date":"2014-01-07"}},"type":"Feature"},
	{"geometry":{"coordinates":[9.900836,51.562576],"type":"Point"},"properties":{"osm_id":"2614541052","tag":{"amenity":"waste_basket","survey:date":"2014-01-07"}},"type":"Feature"},
	{"geometry":{"coordinates":[9.891995,51.561791],"type":"Point"},"properties":{"osm_id":"2614740974","tag":{"amenity":"waste_basket","survey:date":"2015-01-19"}},"type":"Feature"},
	{"geometry":{"coordinates":[9.888371,51.562409],"type":"Point"},"properties":{"osm_id":"2614740980","tag":{"amenity":"waste_basket","survey:date":"2015-01-19"}},"type":"Feature"},
	{"geometry":{"coordinates":[9.893352,51.559652],"type":"Point"},"properties":{"osm_id":"2614763796","tag":{"amenity":"waste_basket","survey:date":"2014-01-07"}},"type":"Feature"},
	{"geometry":{"coordinates":[9.892416,51.561464],"type":"Point"},"properties":{"osm_id":"2614763819","tag":{"amenity":"waste_basket","survey:date":"2014-01-07"}},"type":"Feature"},
	{"geometry":{"coordinates":[9.892275,51.561475],"type":"Point"},"properties":{"osm_id":"2614763823","tag":{"amenity":"waste_basket","survey:date":"2014-01-07"}},"type":"Feature"},
	{"geometry":{"coordinates":[9.875559,51.551824],"type":"Point"},"properties":{"osm_id":"2614920176","tag":{"amenity":"waste_basket","survey:date":"2014-01-07"}},"type":"Feature"},
	{"geometry":{"coordinates":[9.871943,51.562372],"type":"Point"},"properties":{"osm_id":"2614949675","tag":{"amenity":"waste_basket","survey:date":"2014-01-07"}},"type":"Feature"},
	{"geometry":{"coordinates":[9.90558,51.528845],"type":"Point"},"properties":{"osm_id":"2616018220","tag":{"amenity":"waste_basket","survey:date":"2013-11-25"}},"type":"Feature"},
	{"geometry":{"coordinates":[9.927366,51.534212],"type":"Point"},"properties":{"osm_id":"2616018231","tag":{"amenity":"waste_basket","survey:date":"2013-11-25"}},"type":"Feature"},
	{"geometry":{"coordinates":[9.92778,51.534832],"type":"Point"},"properties":{"osm_id":"2616018233","tag":{"amenity":"waste_basket","survey:date":"2013-11-25"}},"type":"Feature"},
	{"geometry":{"coordinates":[9.928597,51.535889],"type":"Point"},"properties":{"osm_id":"2616018244","tag":{"amenity":"waste_basket","survey:date":"2013-11-25"}},"type":"Feature"},
	{"geometry":{"coordinates":[9.929566,51.536594],"type":"Point"},"properties":{"osm_id":"2616018246","tag":{"amenity":"waste_basket","survey:date":"2013-11-25"}},"type":"Feature"},
	{"geometry":{"coordinates":[9.930484,51.536957],"type":"Point"},"properties":{"osm_id":"2616018247","tag":{"amenity":"waste_basket","survey:date":"2013-11-25"}},"type":"Feature"},
	{"geometry":{"coordinates":[9.924745,51.537792],"type":"Point"},"properties":{"osm_id":"2616044739","tag":{"amenity":"waste_basket","survey:date":"2013-08-21"}},"type":"Feature"},
	{"geometry":{"coordinates":[9.921665,51.539195],"type":"Point"},"properties":{"osm_id":"2616044784","tag":{"amenity":"waste_basket","survey:date":"2013-08-21"}},"type":"Feature"},
	{"geometry":{"coordinates":[9.921633,51.539288],"type":"Point"},"properties":{"osm_id":"2616044801","tag":{"amenity":"waste_basket","survey:date":"2013-08-21"}},"type":"Feature"},
	{"geometry":{"coordinates":[9.914402,51.547445],"type":"Point"},"properties":{"osm_id":"2616044809","tag":{"amenity":"waste_basket","survey:date":"2013-08-21"}},"type":"Feature"},
	{"geometry":{"coordinates":[9.914513,51.547477],"type":"Point"},"properties":{"osm_id":"2616044812","tag":{"amenity":"waste_basket","survey:date":"2013-08-21"}},"type":"Feature"},
	{"geometry":{"coordinates":[9.912357,51.553469],"type":"Point"},"properties":{"osm_id":"2627743529","tag":{"amenity":"waste_basket","survey:date":"2014-01-18"}},"type":"Feature"},
	{"geometry":{"coordinates":[9.911505,51.554328],"type":"Point"},"properties":{"osm_id":"2627755409","tag":{"amenity":"waste_basket","survey:date":"2014-01-18"}},"type":"Feature"},
	{"geometry":{"coordinates":[9.911494,51.554536],"type":"Point"},"properties":{"osm_id":"2627755418","tag":{"amenity":"waste_basket","survey:date":"2014-01-18"}},"type":"Feature"},
	{"geometry":{"coordinates":[9.899505,51.560428],"type":"Point"},"properties":{"osm_id":"2627828253","tag":{"amenity":"waste_basket","survey:date":"2014-01-18"}},"type":"Feature"},
	{"geometry":{"coordinates":[9.904026,51.559753],"type":"Point"},"properties":{"osm_id":"2628299770","tag":{"amenity":"waste_basket","survey:date":"2014-01-18"}},"type":"Feature"},
	{"geometry":{"coordinates":[9.906021,51.559861],"type":"Point"},"properties":{"osm_id":"2628299784","tag":{"amenity":"waste_basket","survey:date":"2014-01-18"}},"type":"Feature"},
	{"geometry":{"coordinates":[9.904046,51.55996],"type":"Point"},"properties":{"osm_id":"2628299795","tag":{"amenity":"waste_basket","survey:date":"2014-01-18"}},"type":"Feature"},
	{"geometry":{"coordinates":[9.904343,51.559971],"type":"Point"},"properties":{"osm_id":"2628299796","tag":{"amenity":"waste_basket","material":"metal","survey:date":"2020-03-21"}},"type":"Feature"},
	{"geometry":{"coordinates":[9.904664,51.560055],"type":"Point"},"properties":{"osm_id":"2628299800","tag":{"amenity":"waste_basket","material":"metal","survey:date":"2020-03-21"}},"type":"Feature"},
	{"geometry":{"coordinates":[9.904468,51.560116],"type":"Point"},"properties":{"osm_id":"2628299802","tag":{"amenity":"waste_basket","survey:date":"2014-01-18"}},"type":"Feature"},
	{"geometry":{"coordinates":[9.904664,51.56019],"type":"Point"},"properties":{"osm_id":"2628299805","tag":{"amenity":"waste_basket","material":"metal","survey:date":"2020-03-21"}},"type":"Feature"},
	{"geometry":{"coordinates":[9.901434,51.560404],"type":"Point"},"properties":{"osm_id":"2628299809","tag":{"amenity":"waste_basket","survey:date":"2014-01-18"}},"type":"Feature"},
	{"geometry":{"coordinates":[9.903375,51.560426],"type":"Point"},"properties":{"osm_id":"2628312120","tag":{"amenity":"waste_basket","survey:date":"2015-01-18"}},"type":"Feature"},
	{"geometry":{"coordinates":[9.904582,51.560781],"type":"Point"},"properties":{"osm_id":"2628368718","tag":{"amenity":"waste_basket","survey:date":"2014-01-18"}},"type":"Feature"},
	{"geometry":{"coordinates":[9.90448,51.560894],"type":"Point"},"properties":{"osm_id":"2628368724","tag":{"amenity":"waste_basket","survey:date":"2014-01-18"}},"type":"Feature"},
	{"geometry":{"coordinates":[9.901487,51.562206],"type":"Point"},"properties":{"osm_id":"2628368751","tag":{"amenity":"waste_basket","survey:date":"2014-01-18"}},"type":"Feature"},
	{"geometry":{"coordinates":[9.907251,51.563192],"type":"Point"},"properties":{"osm_id":"2628368757","tag":{"amenity":"waste_basket","survey:date":"2014-01-18"}},"type":"Feature"},
	{"geometry":{"coordinates":[9.903313,51.557994],"type":"Point"},"properties":{"osm_id":"2628439954","tag":{"amenity":"waste_basket","survey:date":"2014-01-18"}},"type":"Feature"},
	{"geometry":{"coordinates":[9.903499,51.553982],"type":"Point"},"properties":{"osm_id":"2630273998","tag":{"amenity":"waste_basket","survey:date":"2019-10-06"}},"type":"Feature"},
	{"geometry":{"coordinates":[9.902851,51.554552],"type":"Point"},"properties":{"osm_id":"2630273999","tag":{"amenity":"waste_basket","survey:date":"2015-01-19"}},"type":"Feature"},
	{"geometry":{"coordinates":[9.90356,51.5588],"type":"Point"},"properties":{"osm_id":"2630274000","tag":{"amenity":"waste_basket","survey:date":"2014-01-20"}},"type":"Feature"},
	{"geometry":{"coordinates":[9.902869,51.562527],"type":"Point"},"properties":{"osm_id":"2630274052","tag":{"amenity":"waste_basket","survey:date":"2015-01-19"}},"type":"Feature"},
	{"geometry":{"coordinates":[9.905846,51.562994],"type":"Point"},"properties":{"osm_id":"2630274059","tag":{"amenity":"waste_basket","survey:date":"2015-01-18"}},"type":"Feature"},
	{"geometry":{"coordinates":[9.908456,51.553628],"type":"Point"},"properties":{"osm_id":"2630308232","tag":{"amenity":"waste_basket","survey:date":"2015-01-23"}},"type":"Feature"},
	{"geometry":{"coordinates":[9.907486,51.554068],"type":"Point"},"properties":{"osm_id":"2630308233","tag":{"amenity":"waste_basket","survey:date":"2014-01-20"}},"type":"Feature"},
	{"geometry":{"coordinates":[9.902985,51.555081],"type":"Point"},"properties":{"osm_id":"2630308234","tag":{"amenity":"waste_basket","survey:date":"2015-01-23"}},"type":"Feature"},
	{"geometry":{"coordinates":[9.903297,51.555414],"type":"Point"},"properties":{"osm_id":"2630308237","tag":{"amenity":"waste_basket","survey:date":"2015-01-23"}},"type":"Feature"},
	{"geometry":{"coordinates":[9.905907,51.560935],"type":"Point"},"properties":{"osm_id":"2631486466","tag":{"amenity":"waste_basket","survey:date":"2014-01-21"}},"type":"Feature"},
	{"geometry":{"coordinates":[9.902658,51.559749],"type":"Point"},"properties":{"osm_id":"2631788166","tag":{"amenity":"waste_basket","material":"metal","survey:date":"2020-03-21"}},"type":"Feature"},
	{"geometry":{"coordinates":[9.902621,51.560011],"type":"Point"},"properties":{"osm_id":"2631788183","tag":{"amenity":"waste_basket","survey:date":"2014-01-21"}},"type":"Feature"},
	{"geometry":{"coordinates":[9.902433,51.560019],"type":"Point"},"properties":{"osm_id":"2631788185","tag":{"amenity":"waste_basket","survey:date":"2014-01-21"}},"type":"Feature"},
	{"geometry":{"coordinates":[9.902103,51.561509],"type":"Point"},"properties":{"osm_id":"2631788209","tag":{"amenity":"waste_basket","survey:date":"2014-01-21"}},"type":"Feature"},
	{"geometry":{"coordinates":[9.903752,51.561739],"type":"Point"},"properties":{"osm_id":"2631788223","tag":{"amenity":"waste_basket","survey:date":"2014-01-21"}},"type":"Feature"},
	{"geometry":{"coordinates":[9.903644,51.56184],"type":"Point"},"properties":{"osm_id":"2631788229","tag":{"amenity":"waste_basket","survey:date":"2014-01-21"}},"type":"Feature"},
	{"geometry":{"coordinates":[9.902572,51.559317],"type":"Point"},"properties":{"osm_id":"2631803200","tag":{"amenity":"waste_basket","survey:date":"2014-01-21"}},"type":"Feature"},
	{"geometry":{"coordinates":[9.909419,51.551991],"type":"Point"},"properties":{"osm_id":"2631874687","tag":{"amenity":"waste_basket","survey:date":"2014-01-21"}},"type":"Feature"},
	{"geometry":{"coordinates":[9.909343,51.552086],"type":"Point"},"properties":{"osm_id":"2631874690","tag":{"amenity":"waste_basket","survey:date":"2014-01-21"}},"type":"Feature"},
	{"geometry":{"coordinates":[9.898209,51.530006],"type":"Point"},"properties":{"osm_id":"2635071327","tag":{"amenity":"waste_basket","survey:date":"2013-10-26"}},"type":"Feature"},
	{"geometry":{"coordinates":[9.927502,51.563347],"type":"Point"},"properties":{"osm_id":"2635071330","tag":{"amenity":"waste_basket"}},"type":"Feature"},
	{"geometry":{"coordinates":[9.931006,51.548045],"type":"Point"},"properties":{"osm_id":"2664394450","tag":{"amenity":"waste_basket","survey:date":"2015-02-05"}},"type":"Feature"},
	{"geometry":{"coordinates":[9.910893,51.554533],"type":"Point"},"properties":{"osm_id":"2685984695","tag":{"amenity":"waste_basket"}},"type":"Feature"},
	{"geometry":{"coordinates":[9.931371,51.529358],"type":"Point"},"properties":{"osm_id":"2693138684","tag":{"amenity":"waste_basket","survey:date":"2014-02-27"}},"type":"Feature"},
	{"geometry":{"coordinates":[9.931301,51.530034],"type":"Point"},"properties":{"osm_id":"2693138706","tag":{"amenity":"waste_basket","survey:date":"2015-05-30"}},"type":"Feature"},
	{"geometry":{"coordinates":[9.903716,51.526637],"type":"Point"},"properties":{"osm_id":"2693155368","tag":{"amenity":"waste_basket"}},"type":"Feature"},
	{"geometry":{"coordinates":[9.903109,51.526763],"type":"Point"},"properties":{"osm_id":"2693155381","tag":{"amenity":"waste_basket","survey:date":"2015-08-09"}},"type":"Feature"},
	{"geometry":{"coordinates":[9.912474,51.551664],"type":"Point"},"properties":{"osm_id":"2703996408","tag":{"amenity":"waste_basket","survey:date":"2014-03-06"}},"type":"Feature"},
	{"geometry":{"coordinates":[9.92016,51.536233],"type":"Point"},"properties":{"osm_id":"2704334538","tag":{"amenity":"waste_basket","survey:date":"2017-04-14"}},"type":"Feature"},
	{"geometry":{"coordinates":[9.920856,51.537135],"type":"Point"},"properties":{"osm_id":"2704334546","tag":{"amenity":"waste_basket","survey:date":"2014-03-06"}},"type":"Feature"},
	{"geometry":{"coordinates":[9.920624,51.538335],"type":"Point"},"properties":{"osm_id":"2704334549","tag":{"amenity":"waste_basket","survey:date":"2014-03-06"}},"type":"Feature"},
	{"geometry":{"coordinates":[9.910229,51.529754],"type":"Point"},"properties":{"osm_id":"2704420369","tag":{"amenity":"recycling","operator":"Stadtfriedhof G\u00c3\u00b6ttingen","recycling:green_waste":"yes"}},"type":"Feature"},
	{"geometry":{"coordinates":[9.91021,51.529769],"type":"Point"},"properties":{"osm_id":"2704420372","tag":{"amenity":"waste_disposal"}},"type":"Feature"},
	{"geometry":{"coordinates":[9.906828,51.529818],"type":"Point"},"properties":{"osm_id":"2704420388","tag":{"amenity":"waste_disposal","survey:date":"2014-03-06"}},"type":"Feature"},
	{"geometry":{"coordinates":[9.906814,51.529829],"type":"Point"},"properties":{"osm_id":"2704420392","tag":{"amenity":"recycling","operator":"Stadtfriedhof G\u00c3\u00b6ttingen","recycling:green_waste":"yes","survey:date":"2014-03-06"}},"type":"Feature"},
	{"geometry":{"coordinates":[9.909735,51.530447],"type":"Point"},"properties":{"osm_id":"2704420502","tag":{"amenity":"waste_disposal","survey:date":"2014-03-06"}},"type":"Feature"},
	{"geometry":{"coordinates":[9.909758,51.530448],"type":"Point"},"properties":{"osm_id":"2704420506","tag":{"amenity":"recycling","operator":"Stadtfriedhof G\u00c3\u00b6ttingen","recycling:green_waste":"yes","survey:date":"2014-03-06"}},"type":"Feature"},
	{"geometry":{"coordinates":[9.906278,51.530722],"type":"Point"},"properties":{"osm_id":"2704420529","tag":{"amenity":"recycling","operator":"Stadtfriedhof G\u00c3\u00b6ttingen","recycling:green_waste":"yes","survey:date":"2014-03-06"}},"type":"Feature"},
	{"geometry":{"coordinates":[9.906256,51.530726],"type":"Point"},"properties":{"osm_id":"2704420531","tag":{"amenity":"waste_disposal","survey:date":"2014-03-06"}},"type":"Feature"},
	{"geometry":{"coordinates":[9.910397,51.530575],"type":"Point"},"properties":{"osm_id":"2704441779","tag":{"amenity":"recycling","operator":"Stadtfriedhof G\u00c3\u00b6ttingen","recycling:green_waste":"yes"}},"type":"Feature"},
	{"geometry":{"coordinates":[9.910406,51.530586],"type":"Point"},"properties":{"osm_id":"2704441780","tag":{"amenity":"waste_disposal"}},"type":"Feature"},
	{"geometry":{"coordinates":[9.911766,51.532177],"type":"Point"},"properties":{"osm_id":"2704441806","tag":{"amenity":"waste_disposal","survey:date":"2014-03-06"}},"type":"Feature"},
	{"geometry":{"coordinates":[9.911771,51.532189],"type":"Point"},"properties":{"osm_id":"2704441807","tag":{"amenity":"recycling","operator":"Stadtfriedhof G\u00c3\u00b6ttingen","recycling:green_waste":"yes","survey:date":"2014-03-06"}},"type":"Feature"},
	{"geometry":{"coordinates":[9.909833,51.532691],"type":"Point"},"properties":{"osm_id":"2704441826","tag":{"amenity":"waste_basket","survey:date":"2014-03-06"}},"type":"Feature"},
	{"geometry":{"coordinates":[9.911446,51.53278],"type":"Point"},"properties":{"osm_id":"2704441827","tag":{"amenity":"recycling","operator":"Stadtfriedhof G\u00c3\u00b6ttingen","recycling:green_waste":"yes","survey:date":"2014-03-06"}},"type":"Feature"},
	{"geometry":{"coordinates":[9.911427,51.532783],"type":"Point"},"properties":{"osm_id":"2704441828","tag":{"amenity":"waste_disposal","survey:date":"2014-03-06"}},"type":"Feature"},
	{"geometry":{"coordinates":[9.918215,51.533018],"type":"Point"},"properties":{"osm_id":"2707377746","tag":{"amenity":"waste_basket","survey:date":"2014-03-06"}},"type":"Feature"},
	{"geometry":{"coordinates":[9.907063,51.530957],"type":"Point"},"properties":{"osm_id":"2708361251","tag":{"amenity":"waste_disposal","survey:date":"2014-03-06"}},"type":"Feature"},
	{"geometry":{"coordinates":[9.907064,51.53097],"type":"Point"},"properties":{"osm_id":"2708361252","tag":{"amenity":"recycling","operator":"Stadtfriedhof G\u00c3\u00b6ttingen","recycling:green_waste":"yes","survey:date":"2014-03-06"}},"type":"Feature"},
	{"geometry":{"coordinates":[9.905601,51.531434],"type":"Point"},"properties":{"osm_id":"2708361257","tag":{"amenity":"waste_disposal","survey:date":"2014-03-06"}},"type":"Feature"},
	{"geometry":{"coordinates":[9.905619,51.531439],"type":"Point"},"properties":{"osm_id":"2708361259","tag":{"amenity":"recycling","operator":"Stadtfriedhof G\u00c3\u00b6ttingen","recycling:green_waste":"yes","survey:date":"2014-03-06"}},"type":"Feature"},
	{"geometry":{"coordinates":[9.908582,51.531514],"type":"Point"},"properties":{"osm_id":"2708361263","tag":{"amenity":"waste_disposal","survey:date":"2014-03-06"}},"type":"Feature"},
	{"geometry":{"coordinates":[9.908599,51.531518],"type":"Point"},"properties":{"osm_id":"2708361264","tag":{"amenity":"recycling","operator":"Stadtfriedhof G\u00c3\u00b6ttingen","recycling:green_waste":"yes","survey:date":"2014-03-06"}},"type":"Feature"},
	{"geometry":{"coordinates":[9.906527,51.531708],"type":"Point"},"properties":{"osm_id":"2708361271","tag":{"amenity":"waste_disposal","survey:date":"2014-03-06"}},"type":"Feature"},
	{"geometry":{"coordinates":[9.906552,51.531709],"type":"Point"},"properties":{"osm_id":"2708361272","tag":{"amenity":"recycling","operator":"Stadtfriedhof G\u00c3\u00b6ttingen","recycling:green_waste":"yes","survey:date":"2014-03-06"}},"type":"Feature"},
	{"geometry":{"coordinates":[9.907851,51.531919],"type":"Point"},"properties":{"osm_id":"2708361279","tag":{"amenity":"recycling","operator":"Stadtfriedhof G\u00c3\u00b6ttingen","recycling:green_waste":"yes","survey:date":"2014-03-06"}},"type":"Feature"},
	{"geometry":{"coordinates":[9.907829,51.531922],"type":"Point"},"properties":{"osm_id":"2708361280","tag":{"amenity":"waste_disposal","survey:date":"2014-03-06"}},"type":"Feature"},
	{"geometry":{"coordinates":[9.905518,51.532064],"type":"Point"},"properties":{"osm_id":"2708361286","tag":{"amenity":"recycling","operator":"Stadtfriedhof G\u00c3\u00b6ttingen","recycling:green_waste":"yes","survey:date":"2014-03-06"}},"type":"Feature"},
	{"geometry":{"coordinates":[9.905521,51.53208],"type":"Point"},"properties":{"osm_id":"2708361288","tag":{"amenity":"waste_disposal","survey:date":"2014-03-06"}},"type":"Feature"},
	{"geometry":{"coordinates":[9.906238,51.532104],"type":"Point"},"properties":{"osm_id":"2708361290","tag":{"amenity":"recycling","operator":"Stadtfriedhof G\u00c3\u00b6ttingen","recycling:green_waste":"yes","survey:date":"2014-03-06"}},"type":"Feature"},
	{"geometry":{"coordinates":[9.906217,51.532107],"type":"Point"},"properties":{"osm_id":"2708361292","tag":{"amenity":"waste_disposal","survey:date":"2014-03-06"}},"type":"Feature"},
	{"geometry":{"coordinates":[9.906921,51.532264],"type":"Point"},"properties":{"osm_id":"2708361294","tag":{"amenity":"recycling","operator":"Stadtfriedhof G\u00c3\u00b6ttingen","recycling:green_waste":"yes","survey:date":"2014-03-06"}},"type":"Feature"},
	{"geometry":{"coordinates":[9.906909,51.53228],"type":"Point"},"properties":{"osm_id":"2708361296","tag":{"amenity":"waste_disposal","survey:date":"2014-03-06"}},"type":"Feature"},
	{"geometry":{"coordinates":[9.907517,51.532456],"type":"Point"},"properties":{"osm_id":"2708361305","tag":{"amenity":"recycling","operator":"Stadtfriedhof G\u00c3\u00b6ttingen","recycling:green_waste":"yes","survey:date":"2014-03-06"}},"type":"Feature"},
	{"geometry":{"coordinates":[9.907513,51.532473],"type":"Point"},"properties":{"osm_id":"2708361307","tag":{"amenity":"waste_disposal","survey:date":"2014-03-06"}},"type":"Feature"},
	{"geometry":{"coordinates":[9.90871,51.53254],"type":"Point"},"properties":{"osm_id":"2708361309","tag":{"amenity":"waste_disposal","survey:date":"2014-03-06"}},"type":"Feature"},
	{"geometry":{"coordinates":[9.908713,51.532557],"type":"Point"},"properties":{"osm_id":"2708361310","tag":{"amenity":"recycling","operator":"Stadtfriedhof G\u00c3\u00b6ttingen","recycling:green_waste":"yes","survey:date":"2014-03-06"}},"type":"Feature"},
	{"geometry":{"coordinates":[9.906916,51.532713],"type":"Point"},"properties":{"osm_id":"2708361316","tag":{"amenity":"waste_disposal","survey:date":"2014-03-06"}},"type":"Feature"},
	{"geometry":{"coordinates":[9.906936,51.532723],"type":"Point"},"properties":{"osm_id":"2708361318","tag":{"amenity":"recycling","operator":"Stadtfriedhof G\u00c3\u00b6ttingen","recycling:green_waste":"yes","survey:date":"2014-03-06"}},"type":"Feature"},
	{"geometry":{"coordinates":[9.90755,51.532812],"type":"Point"},"properties":{"osm_id":"2708361320","tag":{"amenity":"recycling","operator":"Stadtfriedhof G\u00c3\u00b6ttingen","recycling:green_waste":"yes","survey:date":"2014-03-06"}},"type":"Feature"},
	{"geometry":{"coordinates":[9.907528,51.532816],"type":"Point"},"properties":{"osm_id":"2708361322","tag":{"amenity":"waste_disposal","survey:date":"2014-03-06"}},"type":"Feature"},
	{"geometry":{"coordinates":[9.911126,51.533042],"type":"Point"},"properties":{"osm_id":"2708361328","tag":{"amenity":"waste_disposal","survey:date":"2014-03-06"}},"type":"Feature"},
	{"geometry":{"coordinates":[9.911128,51.533055],"type":"Point"},"properties":{"osm_id":"2708361329","tag":{"amenity":"recycling","operator":"Stadtfriedhof G\u00c3\u00b6ttingen","recycling:green_waste":"yes","survey:date":"2014-03-06"}},"type":"Feature"},
	{"geometry":{"coordinates":[9.908225,51.533344],"type":"Point"},"properties":{"osm_id":"2708361334","tag":{"amenity":"recycling","operator":"Stadtfriedhof G\u00c3\u00b6ttingen","recycling:green_waste":"yes","survey:date":"2014-03-06"}},"type":"Feature"},
	{"geometry":{"coordinates":[9.908203,51.533348],"type":"Point"},"properties":{"osm_id":"2708361335","tag":{"amenity":"waste_disposal","survey:date":"2014-03-06"}},"type":"Feature"},
	{"geometry":{"coordinates":[9.910139,51.533356],"type":"Point"},"properties":{"osm_id":"2708361336","tag":{"amenity":"waste_disposal","survey:date":"2014-03-06"}},"type":"Feature"},
	{"geometry":{"coordinates":[9.910164,51.533358],"type":"Point"},"properties":{"osm_id":"2708361337","tag":{"amenity":"recycling","operator":"Stadtfriedhof G\u00c3\u00b6ttingen","recycling:green_waste":"yes","survey:date":"2014-03-06"}},"type":"Feature"},
	{"geometry":{"coordinates":[9.910273,51.533967],"type":"Point"},"properties":{"osm_id":"2708361353","tag":{"amenity":"waste_disposal","survey:date":"2014-03-06"}},"type":"Feature"},
	{"geometry":{"coordinates":[9.910298,51.533968],"type":"Point"},"properties":{"osm_id":"2708361354","tag":{"amenity":"recycling","operator":"Stadtfriedhof G\u00c3\u00b6ttingen","recycling:green_waste":"yes","survey:date":"2014-03-06"}},"type":"Feature"},
	{"geometry":{"coordinates":[9.913478,51.531059],"type":"Point"},"properties":{"osm_id":"2708419485","tag":{"amenity":"recycling","operator":"Stadtfriedhof G\u00c3\u00b6ttingen","recycling:green_waste":"yes","survey:date":"2014-03-06"}},"type":"Feature"},
	{"geometry":{"coordinates":[9.913468,51.531071],"type":"Point"},"properties":{"osm_id":"2708419491","tag":{"amenity":"waste_disposal","survey:date":"2014-03-06"}},"type":"Feature"},
	{"geometry":{"coordinates":[9.915013,51.531517],"type":"Point"},"properties":{"osm_id":"2708419550","tag":{"amenity":"recycling","operator":"Stadtfriedhof G\u00c3\u00b6ttingen","recycling:green_waste":"yes","survey:date":"2014-03-06"}},"type":"Feature"},
	{"geometry":{"coordinates":[9.915006,51.531529],"type":"Point"},"properties":{"osm_id":"2708419558","tag":{"amenity":"waste_disposal","survey:date":"2014-03-06"}},"type":"Feature"},
	{"geometry":{"coordinates":[9.913956,51.53161],"type":"Point"},"properties":{"osm_id":"2708419570","tag":{"amenity":"recycling","operator":"Stadtfriedhof G\u00c3\u00b6ttingen","recycling:green_waste":"yes","survey:date":"2014-03-06"}},"type":"Feature"},
	{"geometry":{"coordinates":[9.913953,51.531618],"type":"Point"},"properties":{"osm_id":"2708419575","tag":{"amenity":"waste_disposal","survey:date":"2014-03-06"}},"type":"Feature"},
	{"geometry":{"coordinates":[9.915726,51.531796],"type":"Point"},"properties":{"osm_id":"2708419591","tag":{"amenity":"waste_disposal","survey:date":"2014-03-06"}},"type":"Feature"},
	{"geometry":{"coordinates":[9.915755,51.531801],"type":"Point"},"properties":{"osm_id":"2708419597","tag":{"amenity":"recycling","operator":"Stadtfriedhof G\u00c3\u00b6ttingen","recycling:green_waste":"yes","survey:date":"2014-03-06"}},"type":"Feature"},
	{"geometry":{"coordinates":[9.909761,51.531954],"type":"Point"},"properties":{"osm_id":"2708419614","tag":{"amenity":"waste_disposal","survey:date":"2014-03-06"}},"type":"Feature"},
	{"geometry":{"coordinates":[9.909786,51.531955],"type":"Point"},"properties":{"osm_id":"2708419626","tag":{"amenity":"recycling","operator":"Stadtfriedhof G\u00c3\u00b6ttingen","recycling:green_waste":"yes","survey:date":"2014-03-06"}},"type":"Feature"},
	{"geometry":{"coordinates":[9.912649,51.531959],"type":"Point"},"properties":{"osm_id":"2708419629","tag":{"amenity":"waste_disposal","survey:date":"2014-03-06"}},"type":"Feature"},
	{"geometry":{"coordinates":[9.912674,51.53196],"type":"Point"},"properties":{"osm_id":"2708419632","tag":{"amenity":"recycling","operator":"Stadtfriedhof G\u00c3\u00b6ttingen","recycling:green_waste":"yes","survey:date":"2014-03-06"}},"type":"Feature"},
	{"geometry":{"coordinates":[9.911069,51.532292],"type":"Point"},"properties":{"osm_id":"2708419665","tag":{"amenity":"waste_disposal","survey:date":"2014-03-06"}},"type":"Feature"},
	{"geometry":{"coordinates":[9.911094,51.532293],"type":"Point"},"properties":{"osm_id":"2708419668","tag":{"amenity":"recycling","operator":"Stadtfriedhof G\u00c3\u00b6ttingen","recycling:green_waste":"yes","survey:date":"2014-03-06"}},"type":"Feature"},
	{"geometry":{"coordinates":[9.910568,51.532803],"type":"Point"},"properties":{"osm_id":"2708419718","tag":{"amenity":"waste_disposal","survey:date":"2014-03-06"}},"type":"Feature"},
	{"geometry":{"coordinates":[9.910594,51.532804],"type":"Point"},"properties":{"osm_id":"2708419721","tag":{"amenity":"recycling","operator":"Stadtfriedhof G\u00c3\u00b6ttingen","recycling:green_waste":"yes","survey:date":"2014-03-06"}},"type":"Feature"},
	{"geometry":{"coordinates":[9.906779,51.52787],"type":"Point"},"properties":{"osm_id":"2708464526","tag":{"amenity":"waste_disposal","survey:date":"2014-03-06"}},"type":"Feature"},
	{"geometry":{"coordinates":[9.9068,51.527871],"type":"Point"},"properties":{"osm_id":"2708464529","tag":{"amenity":"recycling","operator":"Stadtfriedhof G\u00c3\u00b6ttingen","recycling:green_waste":"yes","survey:date":"2014-03-06"}},"type":"Feature"},
	{"geometry":{"coordinates":[9.907744,51.528625],"type":"Point"},"properties":{"osm_id":"2708464533","tag":{"amenity":"recycling","operator":"Stadtfriedhof G\u00c3\u00b6ttingen","recycling:green_waste":"yes","survey:date":"2014-03-06"}},"type":"Feature"},
	{"geometry":{"coordinates":[9.907747,51.528635],"type":"Point"},"properties":{"osm_id":"2708464537","tag":{"amenity":"waste_disposal","survey:date":"2014-03-06"}},"type":"Feature"},
	{"geometry":{"coordinates":[9.910702,51.52918],"type":"Point"},"properties":{"osm_id":"2708464553","tag":{"amenity":"waste_disposal","survey:date":"2014-03-06"}},"type":"Feature"},
	{"geometry":{"coordinates":[9.910727,51.529181],"type":"Point"},"properties":{"osm_id":"2708464558","tag":{"amenity":"recycling","operator":"Stadtfriedhof G\u00c3\u00b6ttingen","recycling:green_waste":"yes","survey:date":"2014-03-06"}},"type":"Feature"},
	{"geometry":{"coordinates":[9.909756,51.531416],"type":"Point"},"properties":{"osm_id":"2708464606","tag":{"amenity":"recycling","operator":"Stadtfriedhof G\u00c3\u00b6ttingen","recycling:green_waste":"yes","survey:date":"2014-03-06"}},"type":"Feature"},
	{"geometry":{"coordinates":[9.909747,51.531427],"type":"Point"},"properties":{"osm_id":"2708464610","tag":{"amenity":"waste_disposal","survey:date":"2014-03-06"}},"type":"Feature"},
	{"geometry":{"coordinates":[9.91169,51.531439],"type":"Point"},"properties":{"osm_id":"2708464613","tag":{"amenity":"recycling","operator":"Stadtfriedhof G\u00c3\u00b6ttingen","recycling:green_waste":"yes","survey:date":"2014-03-06"}},"type":"Feature"},
	{"geometry":{"coordinates":[9.911682,51.53145],"type":"Point"},"properties":{"osm_id":"2708464616","tag":{"amenity":"waste_disposal","survey:date":"2014-03-06"}},"type":"Feature"},
	{"geometry":{"coordinates":[9.912839,51.526663],"type":"Point"},"properties":{"osm_id":"2708598555","tag":{"amenity":"waste_basket","survey:date":"2015-02-06"}},"type":"Feature"},
	{"geometry":{"coordinates":[9.910782,51.551192],"type":"Point"},"properties":{"osm_id":"2752434438","tag":{"amenity":"waste_basket","survey:date":"2015-01-23"}},"type":"Feature"},
	{"geometry":{"coordinates":[9.910455,51.551643],"type":"Point"},"properties":{"osm_id":"2752434439","tag":{"amenity":"waste_basket","survey:date":"2015-01-23"}},"type":"Feature"},
	{"geometry":{"coordinates":[9.916761,51.541635],"type":"Point"},"properties":{"osm_id":"2752685784","tag":{"amenity":"waste_basket","survey:date":"2015-01-19"}},"type":"Feature"},
	{"geometry":{"coordinates":[9.921906,51.541411],"type":"Point"},"properties":{"osm_id":"2752719518","tag":{"amenity":"waste_basket","survey:date":"2014-03-29"}},"type":"Feature"},
	{"geometry":{"coordinates":[9.921967,51.541572],"type":"Point"},"properties":{"osm_id":"2752719527","tag":{"amenity":"waste_basket","survey:date":"2014-03-29"}},"type":"Feature"},
	{"geometry":{"coordinates":[9.892859,51.531628],"type":"Point"},"properties":{"osm_id":"2754615993","tag":{"amenity":"waste_basket","survey:date":"2017-06-17"}},"type":"Feature"},
	{"geometry":{"coordinates":[9.89385,51.531822],"type":"Point"},"properties":{"osm_id":"2754615996","tag":{"amenity":"waste_basket","survey:date":"2014-03-30"}},"type":"Feature"},
	{"geometry":{"coordinates":[9.893542,51.531841],"type":"Point"},"properties":{"osm_id":"2754615999","tag":{"amenity":"waste_basket","survey:date":"2014-03-30"}},"type":"Feature"},
	{"geometry":{"coordinates":[9.893324,51.531868],"type":"Point"},"properties":{"osm_id":"2754616005","tag":{"amenity":"waste_basket","survey:date":"2016-08-16"}},"type":"Feature"},
	{"geometry":{"coordinates":[9.89458,51.532003],"type":"Point"},"properties":{"osm_id":"2754616013","tag":{"amenity":"waste_basket","survey:date":"2014-03-30"}},"type":"Feature"},
	{"geometry":{"coordinates":[9.89469,51.532377],"type":"Point"},"properties":{"osm_id":"2754738661","tag":{"amenity":"waste_basket"}},"type":"Feature"},
	{"geometry":{"coordinates":[9.89471,51.532509],"type":"Point"},"properties":{"osm_id":"2754738662","tag":{"amenity":"waste_basket","survey:date":"2015-01-23"}},"type":"Feature"},
	{"geometry":{"coordinates":[9.910204,51.544543],"type":"Point"},"properties":{"osm_id":"2754842682","tag":{"amenity":"waste_basket","survey:date":"2014-03-30"}},"type":"Feature"},
	{"geometry":{"coordinates":[9.90102,51.53715],"type":"Point"},"properties":{"osm_id":"2754949615","tag":{"amenity":"waste_basket","survey:date":"2015-01-23"}},"type":"Feature"},
	{"geometry":{"coordinates":[9.900571,51.53713],"type":"Point"},"properties":{"osm_id":"2754949616","tag":{"amenity":"waste_basket","survey:date":"2015-01-23"}},"type":"Feature"},
	{"geometry":{"coordinates":[9.929311,51.537921],"type":"Point"},"properties":{"osm_id":"2754949617","tag":{"amenity":"waste_basket","survey:date":"2015-01-18"}},"type":"Feature"},
	{"geometry":{"coordinates":[9.929495,51.53805],"type":"Point"},"properties":{"osm_id":"2754949618","tag":{"amenity":"waste_basket","survey:date":"2015-01-18"}},"type":"Feature"},
	{"geometry":{"coordinates":[9.915638,51.544623],"type":"Point"},"properties":{"osm_id":"2754949620","tag":{"amenity":"waste_basket","survey:date":"2015-01-23"}},"type":"Feature"},
	{"geometry":{"coordinates":[9.929845,51.522515],"type":"Point"},"properties":{"osm_id":"2772033411","tag":{"amenity":"waste_basket","survey:date":"2015-01-23"}},"type":"Feature"},
	{"geometry":{"coordinates":[9.898405,51.559764],"type":"Point"},"properties":{"osm_id":"2813173258","tag":{"amenity":"waste_basket","survey:date":"2014-04-19"}},"type":"Feature"},
	{"geometry":{"coordinates":[9.918472,51.51384],"type":"Point"},"properties":{"osm_id":"2836734418","tag":{"amenity":"waste_basket","survey:date":"2014-05-04"}},"type":"Feature"},
	{"geometry":{"coordinates":[9.921954,51.514348],"type":"Point"},"properties":{"osm_id":"2836734422","tag":{"amenity":"waste_basket","survey:date":"2014-05-04"}},"type":"Feature"},
	{"geometry":{"coordinates":[9.923474,51.515715],"type":"Point"},"properties":{"osm_id":"2836734423","tag":{"amenity":"waste_basket","survey:date":"2014-05-04"}},"type":"Feature"},
	{"geometry":{"coordinates":[9.922866,51.516362],"type":"Point"},"properties":{"osm_id":"2836734427","tag":{"amenity":"waste_basket","survey:date":"2014-05-04"}},"type":"Feature"},
	{"geometry":{"coordinates":[9.921927,51.51693],"type":"Point"},"properties":{"osm_id":"2836734432","tag":{"amenity":"waste_basket","survey:date":"2014-05-04"}},"type":"Feature"},
	{"geometry":{"coordinates":[9.921998,51.517055],"type":"Point"},"properties":{"osm_id":"2836734435","tag":{"amenity":"waste_basket","survey:date":"2014-05-04"}},"type":"Feature"},
	{"geometry":{"coordinates":[9.922367,51.517553],"type":"Point"},"properties":{"osm_id":"2836734436","tag":{"amenity":"waste_basket","survey:date":"2014-05-04"}},"type":"Feature"},
	{"geometry":{"coordinates":[9.922402,51.517942],"type":"Point"},"properties":{"osm_id":"2836734438","tag":{"amenity":"waste_basket","survey:date":"2014-05-04"}},"type":"Feature"},
	{"geometry":{"coordinates":[9.922549,51.517997],"type":"Point"},"properties":{"osm_id":"2836734439","tag":{"amenity":"waste_basket","survey:date":"2014-05-04"}},"type":"Feature"},
	{"geometry":{"coordinates":[9.922814,51.518533],"type":"Point"},"properties":{"osm_id":"2836734442","tag":{"amenity":"waste_basket","survey:date":"2014-05-04"}},"type":"Feature"},
	{"geometry":{"coordinates":[9.922816,51.518557],"type":"Point"},"properties":{"osm_id":"2836734443","tag":{"amenity":"waste_basket","survey:date":"2014-05-04"}},"type":"Feature"},
	{"geometry":{"coordinates":[9.922901,51.518821],"type":"Point"},"properties":{"osm_id":"2836734445","tag":{"amenity":"waste_basket","survey:date":"2014-05-04","waste":"ash"}},"type":"Feature"},
	{"geometry":{"coordinates":[9.923309,51.519],"type":"Point"},"properties":{"osm_id":"2836734446","tag":{"amenity":"waste_basket","survey:date":"2014-05-04"}},"type":"Feature"},
	{"geometry":{"coordinates":[9.923326,51.519],"type":"Point"},"properties":{"osm_id":"2836734447","tag":{"amenity":"waste_basket","survey:date":"2014-05-04"}},"type":"Feature"},
	{"geometry":{"coordinates":[9.924005,51.519018],"type":"Point"},"properties":{"osm_id":"2836734448","tag":{"amenity":"waste_basket","survey:date":"2014-05-04"}},"type":"Feature"},
	{"geometry":{"coordinates":[9.923987,51.519052],"type":"Point"},"properties":{"osm_id":"2836734449","tag":{"amenity":"waste_basket","survey:date":"2014-05-04"}},"type":"Feature"},
	{"geometry":{"coordinates":[9.923979,51.519075],"type":"Point"},"properties":{"osm_id":"2836734450","tag":{"amenity":"waste_basket","survey:date":"2014-05-04"}},"type":"Feature"},
	{"geometry":{"coordinates":[9.924042,51.519327],"type":"Point"},"properties":{"osm_id":"2836734452","tag":{"amenity":"waste_basket","survey:date":"2014-05-04"}},"type":"Feature"},
	{"geometry":{"coordinates":[9.924063,51.519472],"type":"Point"},"properties":{"osm_id":"2836734454","tag":{"amenity":"waste_basket","survey:date":"2014-05-04"}},"type":"Feature"},
	{"geometry":{"coordinates":[9.919763,51.519575],"type":"Point"},"properties":{"osm_id":"2836734456","tag":{"amenity":"waste_basket","survey:date":"2018-12-16"}},"type":"Feature"},
	{"geometry":{"coordinates":[9.920261,51.520238],"type":"Point"},"properties":{"osm_id":"2836734462","tag":{"amenity":"waste_basket","survey:date":"2014-05-04"}},"type":"Feature"},
	{"geometry":{"coordinates":[9.924363,51.520444],"type":"Point"},"properties":{"osm_id":"2836734466","tag":{"amenity":"waste_basket","survey:date":"2014-05-04"}},"type":"Feature"},
	{"geometry":{"coordinates":[9.924164,51.520542],"type":"Point"},"properties":{"osm_id":"2836734469","tag":{"amenity":"waste_basket","survey:date":"2014-05-04"}},"type":"Feature"},
	{"geometry":{"coordinates":[9.920559,51.520625],"type":"Point"},"properties":{"osm_id":"2836734470","tag":{"amenity":"waste_basket","survey:date":"2014-05-04"}},"type":"Feature"},
	{"geometry":{"coordinates":[9.920967,51.520748],"type":"Point"},"properties":{"osm_id":"2836734471","tag":{"amenity":"waste_basket","survey:date":"2017-03-07"}},"type":"Feature"},
	{"geometry":{"coordinates":[9.921982,51.52079],"type":"Point"},"properties":{"osm_id":"2836734475","tag":{"amenity":"waste_basket","survey:date":"2014-05-04"}},"type":"Feature"},
	{"geometry":{"coordinates":[9.922141,51.520793],"type":"Point"},"properties":{"osm_id":"2836734476","tag":{"amenity":"waste_basket","survey:date":"2014-05-04"}},"type":"Feature"},
	{"geometry":{"coordinates":[9.922445,51.520804],"type":"Point"},"properties":{"osm_id":"2836734477","tag":{"amenity":"waste_basket","survey:date":"2014-05-04"}},"type":"Feature"},
	{"geometry":{"coordinates":[9.923505,51.520824],"type":"Point"},"properties":{"osm_id":"2836734478","tag":{"amenity":"waste_basket","survey:date":"2014-05-04"}},"type":"Feature"},
	{"geometry":{"coordinates":[9.9231,51.520837],"type":"Point"},"properties":{"osm_id":"2836734479","tag":{"amenity":"waste_basket","survey:date":"2014-05-04"}},"type":"Feature"},
	{"geometry":{"coordinates":[9.918021,51.514294],"type":"Point"},"properties":{"osm_id":"2836784587","tag":{"amenity":"waste_basket","survey:date":"2014-05-04"}},"type":"Feature"},
	{"geometry":{"coordinates":[9.922786,51.514611],"type":"Point"},"properties":{"osm_id":"2836784590","tag":{"amenity":"waste_basket","survey:date":"2014-05-04"}},"type":"Feature"},
	{"geometry":{"coordinates":[9.91835,51.515016],"type":"Point"},"properties":{"osm_id":"2836784592","tag":{"amenity":"waste_basket","survey:date":"2014-05-04"}},"type":"Feature"},
	{"geometry":{"coordinates":[9.918924,51.515215],"type":"Point"},"properties":{"osm_id":"2836784593","tag":{"amenity":"waste_basket","survey:date":"2014-05-04"}},"type":"Feature"},
	{"geometry":{"coordinates":[9.919208,51.515283],"type":"Point"},"properties":{"osm_id":"2836784595","tag":{"amenity":"waste_basket","survey:date":"2014-05-04"}},"type":"Feature"},
	{"geometry":{"coordinates":[9.919761,51.515901],"type":"Point"},"properties":{"osm_id":"2836784597","tag":{"amenity":"waste_basket","survey:date":"2014-05-04"}},"type":"Feature"},
	{"geometry":{"coordinates":[9.918825,51.516485],"type":"Point"},"properties":{"osm_id":"2836787401","tag":{"amenity":"waste_basket","survey:date":"2014-05-04"}},"type":"Feature"},
	{"geometry":{"coordinates":[9.918825,51.516677],"type":"Point"},"properties":{"osm_id":"2836787411","tag":{"amenity":"waste_basket","survey:date":"2014-05-04"}},"type":"Feature"},
	{"geometry":{"coordinates":[9.919595,51.516915],"type":"Point"},"properties":{"osm_id":"2836787413","tag":{"amenity":"waste_basket","survey:date":"2014-05-04"}},"type":"Feature"},
	{"geometry":{"coordinates":[9.923902,51.516957],"type":"Point"},"properties":{"osm_id":"2836787415","tag":{"amenity":"waste_basket","survey:date":"2014-05-04"}},"type":"Feature"},
	{"geometry":{"coordinates":[9.918698,51.516998],"type":"Point"},"properties":{"osm_id":"2836787416","tag":{"amenity":"waste_basket","survey:date":"2014-05-04"}},"type":"Feature"},
	{"geometry":{"coordinates":[9.923961,51.517279],"type":"Point"},"properties":{"osm_id":"2836787418","tag":{"amenity":"waste_basket","survey:date":"2014-05-04"}},"type":"Feature"},
	{"geometry":{"coordinates":[9.924114,51.517578],"type":"Point"},"properties":{"osm_id":"2836787421","tag":{"amenity":"waste_basket","survey:date":"2014-05-04"}},"type":"Feature"},
	{"geometry":{"coordinates":[9.918941,51.517648],"type":"Point"},"properties":{"osm_id":"2836787422","tag":{"amenity":"waste_basket","survey:date":"2014-05-04"}},"type":"Feature"},
	{"geometry":{"coordinates":[9.923529,51.517727],"type":"Point"},"properties":{"osm_id":"2836787423","tag":{"amenity":"waste_basket","survey:date":"2014-05-04"}},"type":"Feature"},
	{"geometry":{"coordinates":[9.924193,51.518573],"type":"Point"},"properties":{"osm_id":"2836787429","tag":{"amenity":"waste_basket","survey:date":"2014-05-04"}},"type":"Feature"},
	{"geometry":{"coordinates":[9.923072,51.514228],"type":"Point"},"properties":{"osm_id":"2836809204","tag":{"amenity":"waste_basket","survey:date":"2014-05-04"}},"type":"Feature"},
	{"geometry":{"coordinates":[9.923128,51.514323],"type":"Point"},"properties":{"osm_id":"2836809206","tag":{"amenity":"waste_basket","survey:date":"2014-05-04"}},"type":"Feature"},
	{"geometry":{"coordinates":[9.891625,51.526718],"type":"Point"},"properties":{"osm_id":"2911095290","tag":{"amenity":"waste_basket","survey:date":"2015-01-23"}},"type":"Feature"},
	{"geometry":{"coordinates":[9.881858,51.526905],"type":"Point"},"properties":{"osm_id":"2911095298","tag":{"amenity":"waste_basket","survey:date":"2014-06-11"}},"type":"Feature"},
	{"geometry":{"coordinates":[9.882169,51.527098],"type":"Point"},"properties":{"osm_id":"2911097004","tag":{"amenity":"waste_basket","survey:date":"2014-12-27"}},"type":"Feature"},
	{"geometry":{"coordinates":[9.88217,51.527451],"type":"Point"},"properties":{"osm_id":"2911097017","tag":{"amenity":"waste_basket","survey:date":"2014-06-11"}},"type":"Feature"},
	{"geometry":{"coordinates":[9.882154,51.527494],"type":"Point"},"properties":{"osm_id":"2911097022","tag":{"amenity":"waste_basket","survey:date":"2015-12-17"}},"type":"Feature"},
	{"geometry":{"coordinates":[9.882291,51.527588],"type":"Point"},"properties":{"osm_id":"2911097024","tag":{"amenity":"waste_basket","survey:date":"2015-04-06"}},"type":"Feature"},
	{"geometry":{"coordinates":[9.898917,51.529321],"type":"Point"},"properties":{"osm_id":"2911097028","tag":{"amenity":"waste_basket","survey:date":"2014-06-11"}},"type":"Feature"},
	{"geometry":{"coordinates":[9.890169,51.530913],"type":"Point"},"properties":{"osm_id":"2911097030","tag":{"amenity":"waste_basket","survey:date":"2015-01-23"}},"type":"Feature"},
	{"geometry":{"coordinates":[9.89781,51.531468],"type":"Point"},"properties":{"osm_id":"2911097037","tag":{"amenity":"waste_basket","survey:date":"2015-01-23"}},"type":"Feature"},
	{"geometry":{"coordinates":[9.897663,51.532359],"type":"Point"},"properties":{"osm_id":"2911097046","tag":{"amenity":"waste_basket","survey:date":"2015-12-17"}},"type":"Feature"},
	{"geometry":{"coordinates":[9.929276,51.532464],"type":"Point"},"properties":{"osm_id":"2911097047","tag":{"amenity":"waste_basket","survey:date":"2015-12-26"}},"type":"Feature"},
	{"geometry":{"coordinates":[9.92915,51.532619],"type":"Point"},"properties":{"osm_id":"2911097049","tag":{"amenity":"waste_basket","survey:date":"2015-12-26"}},"type":"Feature"},
	{"geometry":{"coordinates":[9.920005,51.535133],"type":"Point"},"properties":{"osm_id":"2911097055","tag":{"amenity":"waste_basket","survey:date":"2014-06-11"}},"type":"Feature"},
	{"geometry":{"coordinates":[9.914026,51.556508],"type":"Point"},"properties":{"osm_id":"2914380950","tag":{"amenity":"waste_basket","survey:date":"2014-06-13"}},"type":"Feature"},
	{"geometry":{"coordinates":[9.871894,51.550348],"type":"Point"},"properties":{"osm_id":"2915587565","tag":{"amenity":"waste_basket","survey:date":"2014-06-13"}},"type":"Feature"},
	{"geometry":{"coordinates":[9.87108,51.550926],"type":"Point"},"properties":{"osm_id":"2915587571","tag":{"amenity":"waste_basket","survey:date":"2014-06-13"}},"type":"Feature"},
	{"geometry":{"coordinates":[9.870984,51.551095],"type":"Point"},"properties":{"osm_id":"2915587572","tag":{"amenity":"waste_basket","survey:date":"2014-06-13"}},"type":"Feature"},
	{"geometry":{"coordinates":[9.870639,51.552022],"type":"Point"},"properties":{"osm_id":"2915587575","tag":{"amenity":"waste_basket","survey:date":"2014-06-13"}},"type":"Feature"},
	{"geometry":{"coordinates":[9.873427,51.543881],"type":"Point"},"properties":{"osm_id":"2916218490","tag":{"amenity":"waste_basket","survey:date":"2014-06-14"}},"type":"Feature"},
	{"geometry":{"coordinates":[9.926876,51.528806],"type":"Point"},"properties":{"osm_id":"2917970521","tag":{"amenity":"waste_basket","survey:date":"2015-12-28"}},"type":"Feature"},
	{"geometry":{"coordinates":[9.929647,51.529047],"type":"Point"},"properties":{"osm_id":"2917970522","tag":{"amenity":"waste_basket","survey:date":"2015-02-06"}},"type":"Feature"},
	{"geometry":{"coordinates":[9.922366,51.531145],"type":"Point"},"properties":{"osm_id":"2917970533","tag":{"amenity":"waste_basket","survey:date":"2014-06-15"}},"type":"Feature"},
	{"geometry":{"coordinates":[9.921852,51.53135],"type":"Point"},"properties":{"osm_id":"2917970539","tag":{"amenity":"waste_basket","survey:date":"2014-06-15"}},"type":"Feature"},
	{"geometry":{"coordinates":[9.9092,51.542772],"type":"Point"},"properties":{"osm_id":"2921176555","tag":{"amenity":"waste_basket","survey:date":"2015-01-23"}},"type":"Feature"},
	{"geometry":{"coordinates":[9.910047,51.543434],"type":"Point"},"properties":{"osm_id":"2921176556","tag":{"amenity":"waste_basket","survey:date":"2014-06-16"}},"type":"Feature"},
	{"geometry":{"coordinates":[9.918681,51.51704],"type":"Point"},"properties":{"osm_id":"2924500766","tag":{"amenity":"waste_basket","waste":"ash"}},"type":"Feature"},
	{"geometry":{"coordinates":[9.930142,51.522655],"type":"Point"},"properties":{"osm_id":"2927564250","tag":{"amenity":"waste_basket","survey:date":"2015-01-23"}},"type":"Feature"},
	{"geometry":{"coordinates":[9.914465,51.547971],"type":"Point"},"properties":{"osm_id":"2928572103","tag":{"amenity":"waste_basket","survey:date":"2014-06-16"}},"type":"Feature"},
	{"geometry":{"coordinates":[9.914835,51.548186],"type":"Point"},"properties":{"osm_id":"2928572118","tag":{"amenity":"waste_basket","survey:date":"2014-06-16"}},"type":"Feature"},
	{"geometry":{"coordinates":[9.931065,51.540996],"type":"Point"},"properties":{"osm_id":"2936841260","tag":{"amenity":"waste_basket","survey:date":"2014-06-27"}},"type":"Feature"},
	{"geometry":{"coordinates":[9.931523,51.541442],"type":"Point"},"properties":{"osm_id":"2936841264","tag":{"amenity":"waste_basket","survey:date":"2014-06-27"}},"type":"Feature"},
	{"geometry":{"coordinates":[9.912434,51.521523],"type":"Point"},"properties":{"osm_id":"2937586256","tag":{"amenity":"waste_basket","survey:date":"2014-06-27"}},"type":"Feature"},
	{"geometry":{"coordinates":[9.919165,51.532635],"type":"Point"},"properties":{"osm_id":"2937600909","tag":{"amenity":"waste_basket","survey:date":"2014-06-27"}},"type":"Feature"},
	{"geometry":{"coordinates":[9.918745,51.548546],"type":"Point"},"properties":{"osm_id":"3095269730","tag":{"amenity":"waste_basket"}},"type":"Feature"},
	{"geometry":{"coordinates":[9.911032,51.541883],"type":"Point"},"properties":{"osm_id":"3095269827","tag":{"amenity":"waste_basket"}},"type":"Feature"},
	{"geometry":{"coordinates":[9.922976,51.527672],"type":"Point"},"properties":{"osm_id":"3095275485","tag":{"amenity":"waste_basket"}},"type":"Feature"},
	{"geometry":{"coordinates":[9.916226,51.543228],"type":"Point"},"properties":{"osm_id":"3103574813","ref":"Pfalz-Grona-Breite","tag":{"amenity":"recycling","opening_hours":"Mo-Sa 07:00-13:00,15:00-19:00; PH off","operator":"GEB","recycling:clothes":"yes","recycling:glass":"no","recycling:glass_bottles":"yes","recycling:paper":"no","recycling:shoes":"yes","recycling_type":"container","survey:date":"2019-02-23"}},"type":"Feature"},
	{"geometry":{"coordinates":[9.910484,51.547677],"type":"Point"},"properties":{"osm_id":"3128531249","ref":"K\u00c3\u00b6nigsallee/Am Supermarkt","tag":{"amenity":"recycling","operator":"Darbo Recycling","recycling:clothes":"yes","recycling:shoes":"yes","recycling_type":"container"}},"type":"Feature"},
	{"geometry":{"coordinates":[9.917491,51.522937],"type":"Point"},"properties":{"osm_id":"3138795006","tag":{"amenity":"waste_basket","survey:date":"2014-10-19"}},"type":"Feature"},
	{"geometry":{"coordinates":[9.916221,51.523143],"type":"Point"},"properties":{"osm_id":"3138795009","tag":{"amenity":"waste_basket","survey:date":"2014-10-19"}},"type":"Feature"},
	{"geometry":{"coordinates":[9.921067,51.530539],"type":"Point"},"properties":{"osm_id":"3138900161","tag":{"amenity":"waste_basket","survey:date":"2018-05-10"}},"type":"Feature"},
	{"geometry":{"coordinates":[9.928669,51.561452],"type":"Point"},"properties":{"osm_id":"3139070219","ref":"Wagenstieg","tag":{"amenity":"recycling","operator":"DGW Deutsche Gesellschaft f\u00c3\u00bcr Recycling mbH Schuhe und Textilien","recycling:clothes":"yes","recycling:glass":"no","recycling:paper":"no","recycling:shoes":"yes","recycling_type":"container","survey:date":"2015-04-06"}},"type":"Feature"},
	{"geometry":{"coordinates":[9.925248,51.536836],"type":"Point"},"properties":{"osm_id":"3153077519","tag":{"amenity":"waste_basket"}},"type":"Feature"},
	{"geometry":{"coordinates":[9.925143,51.537062],"type":"Point"},"properties":{"osm_id":"3153077520","tag":{"amenity":"waste_basket"}},"type":"Feature"},
	{"geometry":{"coordinates":[9.925444,51.537068],"type":"Point"},"properties":{"osm_id":"3153077521","tag":{"amenity":"waste_basket","survey:date":"2015-01-18"}},"type":"Feature"},
	{"geometry":{"coordinates":[9.909031,51.548934],"type":"Point"},"properties":{"osm_id":"3162650147","tag":{"amenity":"recycling","operator":"ZUUM","recycling:clothes":"yes","recycling:glass":"no","recycling:paper":"no","recycling:shoes":"yes","recycling_type":"container","survey:date":"2015-01-01"}},"type":"Feature"},
	{"geometry":{"coordinates":[9.916963,51.528398],"type":"Point"},"properties":{"osm_id":"3235318911","tag":{"amenity":"recycling","operator":"DGW Deutsche Gesellschaft f\u00c3\u00bcr Recycling mbH Schuhe und Textilien","recycling:clothes":"yes","recycling:shoes":"yes","recycling_type":"container","survey:date":"2019-02-09"}},"type":"Feature"},
	{"geometry":{"coordinates":[9.913012,51.527141],"type":"Point"},"properties":{"osm_id":"3235441213","tag":{"amenity":"waste_basket","survey:date":"2014-12-14"}},"type":"Feature"},
	{"geometry":{"coordinates":[9.91655,51.527584],"type":"Point"},"properties":{"osm_id":"3235441239","tag":{"amenity":"waste_basket","survey:date":"2014-12-14"}},"type":"Feature"},
	{"geometry":{"coordinates":[9.916592,51.527636],"type":"Point"},"properties":{"osm_id":"3235441245","tag":{"amenity":"waste_basket","survey:date":"2014-12-14"}},"type":"Feature"},
	{"geometry":{"coordinates":[9.914851,51.526791],"type":"Point"},"properties":{"osm_id":"3235464810","tag":{"amenity":"waste_basket","survey:date":"2014-12-14"}},"type":"Feature"},
	{"geometry":{"coordinates":[9.912505,51.526636],"type":"Point"},"properties":{"osm_id":"3243400542","tag":{"amenity":"waste_basket","survey:date":"2015-02-06"}},"type":"Feature"},
	{"geometry":{"coordinates":[9.914597,51.527165],"type":"Point"},"properties":{"osm_id":"3243546656","tag":{"amenity":"waste_basket","survey:date":"2014-12-19"}},"type":"Feature"},
	{"geometry":{"coordinates":[9.931012,51.521077],"type":"Point"},"properties":{"osm_id":"3251030648","tag":{"amenity":"waste_basket","survey:date":"2014-12-23"}},"type":"Feature"},
	{"geometry":{"coordinates":[9.930325,51.521205],"type":"Point"},"properties":{"osm_id":"3251030649","tag":{"amenity":"waste_basket","survey:date":"2014-12-23"}},"type":"Feature"},
	{"geometry":{"coordinates":[9.930846,51.521226],"type":"Point"},"properties":{"osm_id":"3251030651","tag":{"amenity":"waste_basket","survey:date":"2014-12-23"}},"type":"Feature"},
	{"geometry":{"coordinates":[9.930891,51.521376],"type":"Point"},"properties":{"osm_id":"3251030652","tag":{"amenity":"waste_basket","survey:date":"2014-12-23"}},"type":"Feature"},
	{"geometry":{"coordinates":[9.930048,51.521461],"type":"Point"},"properties":{"osm_id":"3251030653","tag":{"amenity":"waste_basket","survey:date":"2014-12-23"}},"type":"Feature"},
	{"geometry":{"coordinates":[9.93004,51.521607],"type":"Point"},"properties":{"osm_id":"3251030654","tag":{"amenity":"waste_basket","survey:date":"2014-12-23"}},"type":"Feature"},
	{"geometry":{"coordinates":[9.924064,51.525392],"type":"Point"},"properties":{"osm_id":"3251030655","tag":{"amenity":"waste_basket","survey:date":"2014-12-23"}},"type":"Feature"},
	{"geometry":{"coordinates":[9.915863,51.525908],"type":"Point"},"properties":{"osm_id":"3251031812","tag":{"amenity":"waste_basket","survey:date":"2014-12-23"}},"type":"Feature"},
	{"geometry":{"coordinates":[9.916437,51.52665],"type":"Point"},"properties":{"osm_id":"3251032009","tag":{"amenity":"waste_basket","survey:date":"2014-12-23"}},"type":"Feature"},
	{"geometry":{"coordinates":[9.919908,51.537048],"type":"Point"},"properties":{"osm_id":"3251050363","tag":{"amenity":"waste_basket","survey:date":"2014-12-23"}},"type":"Feature"},
	{"geometry":{"coordinates":[9.883208,51.527087],"type":"Point"},"properties":{"osm_id":"3262156299","tag":{"amenity":"waste_basket","survey:date":"2014-12-27"}},"type":"Feature"},
	{"geometry":{"coordinates":[9.882545,51.527094],"type":"Point"},"properties":{"osm_id":"3262156303","tag":{"amenity":"waste_basket","survey:date":"2014-12-27"}},"type":"Feature"},
	{"geometry":{"coordinates":[9.881975,51.52827],"type":"Point"},"properties":{"osm_id":"3262156329","tag":{"amenity":"waste_basket","survey:date":"2014-12-27"}},"type":"Feature"},
	{"geometry":{"coordinates":[9.881994,51.529206],"type":"Point"},"properties":{"osm_id":"3262156353","tag":{"amenity":"waste_basket","survey:date":"2014-12-27"}},"type":"Feature"},
	{"geometry":{"coordinates":[9.869813,51.544497],"type":"Point"},"properties":{"osm_id":"3262397333","tag":{"amenity":"waste_basket","survey:date":"2015-12-09"}},"type":"Feature"},
	{"geometry":{"coordinates":[9.87389,51.544755],"type":"Point"},"properties":{"osm_id":"3262397357","tag":{"amenity":"waste_basket","survey:date":"2015-12-09"}},"type":"Feature"},
	{"geometry":{"coordinates":[9.869789,51.545518],"type":"Point"},"properties":{"osm_id":"3263851545","tag":{"amenity":"waste_basket","survey:date":"2015-01-01"}},"type":"Feature"},
	{"geometry":{"coordinates":[9.870491,51.545538],"type":"Point"},"properties":{"osm_id":"3263851547","tag":{"amenity":"waste_basket","survey:date":"2015-01-01"}},"type":"Feature"},
	{"geometry":{"coordinates":[9.870137,51.545694],"type":"Point"},"properties":{"osm_id":"3263851562","tag":{"amenity":"waste_basket","survey:date":"2015-01-01"}},"type":"Feature"},
	{"geometry":{"coordinates":[9.886367,51.54657],"type":"Point"},"properties":{"osm_id":"3264239263","tag":{"amenity":"waste_basket","survey:date":"2015-02-10"}},"type":"Feature"},
	{"geometry":{"coordinates":[9.908651,51.548862],"type":"Point"},"properties":{"osm_id":"3264468071","tag":{"amenity":"recycling","operator":"Johanniter/Sammelb\u00c3\u00bcro Peine","recycling:clothes":"yes","recycling:glass":"no","recycling:paper":"no","recycling:shoes":"yes","recycling_type":"container","survey:date":"2015-01-01"}},"type":"Feature"},
	{"geometry":{"coordinates":[9.916027,51.541376],"type":"Point"},"properties":{"osm_id":"3264550313","tag":{"amenity":"waste_basket","survey:date":"2015-01-01"}},"type":"Feature"},
	{"geometry":{"coordinates":[9.92993,51.538398],"type":"Point"},"properties":{"osm_id":"3264573173","tag":{"amenity":"waste_basket","survey:date":"2015-01-01"}},"type":"Feature"},
	{"geometry":{"coordinates":[9.930253,51.538768],"type":"Point"},"properties":{"osm_id":"3264573185","tag":{"amenity":"waste_basket","survey:date":"2015-01-01"}},"type":"Feature"},
	{"geometry":{"coordinates":[9.93078,51.539076],"type":"Point"},"properties":{"osm_id":"3264573189","tag":{"amenity":"waste_basket","survey:date":"2015-01-01"}},"type":"Feature"},
	{"geometry":{"coordinates":[9.931523,51.523911],"type":"Point"},"properties":{"osm_id":"3264593409","tag":{"amenity":"waste_basket","survey:date":"2015-01-01"}},"type":"Feature"},
	{"geometry":{"coordinates":[9.9316,51.524062],"type":"Point"},"properties":{"osm_id":"3264593424","tag":{"amenity":"waste_basket","survey:date":"2015-01-01"}},"type":"Feature"},
	{"geometry":{"coordinates":[9.931074,51.524342],"type":"Point"},"properties":{"osm_id":"3264593456","tag":{"amenity":"waste_basket","survey:date":"2015-01-01"}},"type":"Feature"},
	{"geometry":{"coordinates":[9.908855,51.549181],"type":"Point"},"properties":{"osm_id":"3267185533","tag":{"amenity":"waste_basket","survey:date":"2015-01-23"}},"type":"Feature"},
	{"geometry":{"coordinates":[9.866126,51.547551],"type":"Point"},"properties":{"osm_id":"3271028526","tag":{"amenity":"waste_basket","survey:date":"2015-01-05"}},"type":"Feature"},
	{"geometry":{"coordinates":[9.865305,51.547592],"type":"Point"},"properties":{"osm_id":"3271028529","tag":{"amenity":"waste_basket","survey:date":"2015-01-05"}},"type":"Feature"},
	{"geometry":{"coordinates":[9.867395,51.547716],"type":"Point"},"properties":{"osm_id":"3271028550","tag":{"amenity":"waste_basket","survey:date":"2015-12-09"}},"type":"Feature"},
	{"geometry":{"coordinates":[9.867629,51.54774],"type":"Point"},"properties":{"osm_id":"3271028554","tag":{"amenity":"waste_basket","survey:date":"2017-05-03"}},"type":"Feature"},
	{"geometry":{"coordinates":[9.867487,51.547787],"type":"Point"},"properties":{"osm_id":"3271028558","tag":{"amenity":"waste_basket","survey:date":"2015-12-09"}},"type":"Feature"},
	{"geometry":{"coordinates":[9.867962,51.547935],"type":"Point"},"properties":{"osm_id":"3271028559","tag":{"amenity":"waste_basket","survey:date":"2017-05-03"}},"type":"Feature"},
	{"geometry":{"coordinates":[9.867135,51.549694],"type":"Point"},"properties":{"osm_id":"3271029096","tag":{"amenity":"waste_basket","survey:date":"2015-01-05"}},"type":"Feature"},
	{"geometry":{"coordinates":[9.845474,51.562734],"type":"Point"},"properties":{"osm_id":"3271029123","tag":{"amenity":"waste_basket","survey:date":"2015-01-05"}},"type":"Feature"},
	{"geometry":{"coordinates":[9.844988,51.563164],"type":"Point"},"properties":{"osm_id":"3271029130","tag":{"amenity":"waste_basket","survey:date":"2015-01-05"}},"type":"Feature"},
	{"geometry":{"coordinates":[9.930485,51.538791],"type":"Point"},"properties":{"osm_id":"3290264375","tag":{"amenity":"waste_basket"}},"type":"Feature"},
	{"geometry":{"coordinates":[9.925295,51.536902],"type":"Point"},"properties":{"osm_id":"3297523118","tag":{"amenity":"waste_basket","survey:date":"2015-01-18"}},"type":"Feature"},
	{"geometry":{"coordinates":[9.924524,51.53697],"type":"Point"},"properties":{"osm_id":"3297523121","tag":{"amenity":"waste_basket","survey:date":"2015-01-18"}},"type":"Feature"},
	{"geometry":{"coordinates":[9.925247,51.536989],"type":"Point"},"properties":{"osm_id":"3297523122","tag":{"amenity":"waste_basket","survey:date":"2015-01-18"}},"type":"Feature"},
	{"geometry":{"coordinates":[9.925108,51.537148],"type":"Point"},"properties":{"osm_id":"3297523125","tag":{"amenity":"waste_basket","survey:date":"2015-01-18"}},"type":"Feature"},
	{"geometry":{"coordinates":[9.925234,51.537158],"type":"Point"},"properties":{"osm_id":"3297523127","tag":{"amenity":"waste_basket","survey:date":"2015-01-18"}},"type":"Feature"},
	{"geometry":{"coordinates":[9.924185,51.537202],"type":"Point"},"properties":{"osm_id":"3297523132","tag":{"amenity":"waste_basket","survey:date":"2015-01-18"}},"type":"Feature"},
	{"geometry":{"coordinates":[9.924735,51.537224],"type":"Point"},"properties":{"osm_id":"3297523136","tag":{"amenity":"waste_basket","survey:date":"2015-01-18"}},"type":"Feature"},
	{"geometry":{"coordinates":[9.92451,51.537302],"type":"Point"},"properties":{"osm_id":"3297523139","tag":{"amenity":"waste_basket","survey:date":"2015-01-18"}},"type":"Feature"},
	{"geometry":{"coordinates":[9.924388,51.537391],"type":"Point"},"properties":{"osm_id":"3297523146","tag":{"amenity":"waste_basket","survey:date":"2015-01-18"}},"type":"Feature"},
	{"geometry":{"coordinates":[9.924864,51.53759],"type":"Point"},"properties":{"osm_id":"3297545442","tag":{"amenity":"waste_basket","survey:date":"2015-01-18"}},"type":"Feature"},
	{"geometry":{"coordinates":[9.863248,51.517936],"type":"Point"},"properties":{"osm_id":"3298860744","tag":{"amenity":"waste_basket","survey:date":"2015-01-18"}},"type":"Feature"},
	{"geometry":{"coordinates":[9.866363,51.519838],"type":"Point"},"properties":{"osm_id":"3298862314","tag":{"amenity":"waste_basket","survey:date":"2015-01-18"}},"type":"Feature"},
	{"geometry":{"coordinates":[9.862607,51.519933],"type":"Point"},"properties":{"osm_id":"3298862343","tag":{"amenity":"waste_basket","survey:date":"2015-01-18"}},"type":"Feature"},
	{"geometry":{"coordinates":[9.86496,51.520804],"type":"Point"},"properties":{"osm_id":"3298862667","tag":{"amenity":"waste_basket","survey:date":"2015-01-18"}},"type":"Feature"},
	{"geometry":{"coordinates":[9.86772,51.521892],"type":"Point"},"properties":{"osm_id":"3298862680","tag":{"amenity":"waste_basket","survey:date":"2015-01-18"}},"type":"Feature"},
	{"geometry":{"coordinates":[9.849638,51.534402],"type":"Point"},"properties":{"osm_id":"3299110509","tag":{"amenity":"waste_basket","survey:date":"2015-01-18"}},"type":"Feature"},
	{"geometry":{"coordinates":[9.858963,51.531424],"type":"Point"},"properties":{"osm_id":"3299179391","tag":{"amenity":"waste_basket","survey:date":"2015-01-18"}},"type":"Feature"},
	{"geometry":{"coordinates":[9.849307,51.536438],"type":"Point"},"properties":{"osm_id":"3299179403","tag":{"amenity":"waste_basket","survey:date":"2015-01-18"}},"type":"Feature"},
	{"geometry":{"coordinates":[9.881838,51.527343],"type":"Point"},"properties":{"osm_id":"3299525879","tag":{"amenity":"waste_basket","survey:date":"2015-01-18"}},"type":"Feature"},
	{"geometry":{"coordinates":[9.922709,51.540383],"type":"Point"},"properties":{"osm_id":"3299534665","tag":{"amenity":"waste_basket","survey:date":"2015-01-18"}},"type":"Feature"},
	{"geometry":{"coordinates":[9.916744,51.541075],"type":"Point"},"properties":{"osm_id":"3302582090","tag":{"amenity":"waste_basket","survey:date":"2015-01-23"}},"type":"Feature"},
	{"geometry":{"coordinates":[9.917512,51.541338],"type":"Point"},"properties":{"osm_id":"3302582093","tag":{"amenity":"waste_basket","survey:date":"2015-01-23"}},"type":"Feature"},
	{"geometry":{"coordinates":[9.908676,51.550559],"type":"Point"},"properties":{"osm_id":"3302582106","tag":{"amenity":"waste_basket","survey:date":"2015-01-23"}},"type":"Feature"},
	{"geometry":{"coordinates":[9.906593,51.552172],"type":"Point"},"properties":{"osm_id":"3302593234","tag":{"amenity":"waste_basket","survey:date":"2015-01-19"}},"type":"Feature"},
	{"geometry":{"coordinates":[9.90691,51.552179],"type":"Point"},"properties":{"osm_id":"3302593235","tag":{"amenity":"waste_basket","survey:date":"2015-01-19"}},"type":"Feature"},
	{"geometry":{"coordinates":[9.902134,51.554978],"type":"Point"},"properties":{"osm_id":"3302593239","tag":{"amenity":"waste_basket","survey:date":"2015-01-19"}},"type":"Feature"},
	{"geometry":{"coordinates":[9.903102,51.560639],"type":"Point"},"properties":{"osm_id":"3302603583","tag":{"amenity":"waste_basket","survey:date":"2015-01-19"}},"type":"Feature"},
	{"geometry":{"coordinates":[9.929933,51.520063],"type":"Point"},"properties":{"osm_id":"3306390750","tag":{"amenity":"waste_basket","survey:date":"2015-01-23"}},"type":"Feature"},
	{"geometry":{"coordinates":[9.926851,51.520322],"type":"Point"},"properties":{"osm_id":"3306390751","tag":{"amenity":"waste_basket","survey:date":"2015-01-23"}},"type":"Feature"},
	{"geometry":{"coordinates":[9.901322,51.510803],"type":"Point"},"properties":{"osm_id":"3306767076","tag":{"amenity":"waste_basket","survey:date":"2015-10-18"}},"type":"Feature"},
	{"geometry":{"coordinates":[9.890779,51.52628],"type":"Point"},"properties":{"osm_id":"3309456954","tag":{"amenity":"waste_basket","survey:date":"2015-01-23"}},"type":"Feature"},
	{"geometry":{"coordinates":[9.89112,51.526586],"type":"Point"},"properties":{"osm_id":"3309456956","tag":{"amenity":"waste_basket","survey:date":"2015-01-23"}},"type":"Feature"},
	{"geometry":{"coordinates":[9.892414,51.527024],"type":"Point"},"properties":{"osm_id":"3309456960","tag":{"amenity":"waste_basket","material":"metal","survey:date":"2016-08-16"}},"type":"Feature"},
	{"geometry":{"coordinates":[9.892774,51.525808],"type":"Point"},"properties":{"osm_id":"3309531124","tag":{"amenity":"waste_basket","survey:date":"2015-01-23"}},"type":"Feature"},
	{"geometry":{"coordinates":[9.893315,51.525852],"type":"Point"},"properties":{"osm_id":"3309531129","tag":{"amenity":"waste_basket","survey:date":"2015-01-23"}},"type":"Feature"},
	{"geometry":{"coordinates":[9.900604,51.527066],"type":"Point"},"properties":{"osm_id":"3309531136","tag":{"amenity":"waste_basket","survey:date":"2015-01-23"}},"type":"Feature"},
	{"geometry":{"coordinates":[9.899775,51.527467],"type":"Point"},"properties":{"osm_id":"3309531147","tag":{"amenity":"waste_basket","survey:date":"2015-01-23"}},"type":"Feature"},
	{"geometry":{"coordinates":[9.90031,51.527478],"type":"Point"},"properties":{"osm_id":"3309531148","tag":{"amenity":"waste_basket","material":"metal","survey:date":"2016-06-19"}},"type":"Feature"},
	{"geometry":{"coordinates":[9.899742,51.527525],"type":"Point"},"properties":{"osm_id":"3309531150","tag":{"amenity":"waste_basket","survey:date":"2015-01-23"}},"type":"Feature"},
	{"geometry":{"coordinates":[9.899872,51.527565],"type":"Point"},"properties":{"osm_id":"3309531154","tag":{"amenity":"waste_basket","survey:date":"2015-01-23"}},"type":"Feature"},
	{"geometry":{"coordinates":[9.900023,51.52761],"type":"Point"},"properties":{"osm_id":"3309531156","tag":{"amenity":"waste_basket","survey:date":"2015-01-23"}},"type":"Feature"},
	{"geometry":{"coordinates":[9.911665,51.545667],"type":"Point"},"properties":{"osm_id":"3309786515","ref":"K\u00c3\u00b6nigsallee","tag":{"amenity":"recycling","opening_hours":"Mo-Sa 07:00-13:00,15:00-19:00; PH off","recycling:clothes":"no","recycling:glass":"no","recycling:glass_bottles":"yes","recycling:paper":"no","recycling:shoes":"no","recycling_type":"container","survey:date":"2015-04-06"}},"type":"Feature"},
	{"geometry":{"coordinates":[9.897524,51.536328],"type":"Point"},"properties":{"osm_id":"3309786527","tag":{"amenity":"waste_basket","survey:date":"2015-01-23"}},"type":"Feature"},
	{"geometry":{"coordinates":[9.896317,51.536713],"type":"Point"},"properties":{"osm_id":"3309786536","tag":{"amenity":"waste_basket","survey:date":"2015-01-23"}},"type":"Feature"},
	{"geometry":{"coordinates":[9.906804,51.538091],"type":"Point"},"properties":{"osm_id":"3309786551","tag":{"amenity":"waste_basket","survey:date":"2015-01-23"}},"type":"Feature"},
	{"geometry":{"coordinates":[9.89392,51.539357],"type":"Point"},"properties":{"osm_id":"3309790879","tag":{"amenity":"waste_basket","survey:date":"2015-01-23"}},"type":"Feature"},
	{"geometry":{"coordinates":[9.894088,51.53938],"type":"Point"},"properties":{"osm_id":"3309790880","tag":{"amenity":"waste_basket","survey:date":"2015-01-23"}},"type":"Feature"},
	{"geometry":{"coordinates":[9.923614,51.540303],"type":"Point"},"properties":{"osm_id":"3309790883","tag":{"amenity":"waste_basket","survey:date":"2015-01-23"}},"type":"Feature"},
	{"geometry":{"coordinates":[9.913554,51.541159],"type":"Point"},"properties":{"osm_id":"3309790899","tag":{"amenity":"waste_basket","survey:date":"2015-01-23"}},"type":"Feature"},
	{"geometry":{"coordinates":[9.925625,51.529335],"type":"Point"},"properties":{"osm_id":"3338713299","tag":{"amenity":"waste_basket","survey:date":"2015-02-06"}},"type":"Feature"},
	{"geometry":{"coordinates":[9.918834,51.525604],"type":"Point"},"properties":{"osm_id":"3338756500","tag":{"amenity":"waste_basket","survey:date":"2015-02-06"}},"type":"Feature"},
	{"geometry":{"coordinates":[9.911982,51.522752],"type":"Point"},"properties":{"osm_id":"3338790978","tag":{"amenity":"waste_basket","survey:date":"2015-02-06"}},"type":"Feature"},
	{"geometry":{"coordinates":[9.91753,51.527714],"type":"Point"},"properties":{"osm_id":"3338790991","tag":{"amenity":"waste_basket","survey:date":"2015-02-06"}},"type":"Feature"},
	{"geometry":{"coordinates":[9.908806,51.510668],"type":"Point"},"properties":{"osm_id":"3338803359","tag":{"amenity":"waste_basket","survey:date":"2015-10-18"}},"type":"Feature"},
	{"geometry":{"coordinates":[9.907573,51.510769],"type":"Point"},"properties":{"osm_id":"3338803360","tag":{"amenity":"waste_basket","survey:date":"2015-10-18"}},"type":"Feature"},
	{"geometry":{"coordinates":[9.928252,51.559879],"type":"Point"},"properties":{"osm_id":"3343914165","tag":{"amenity":"waste_basket"}},"type":"Feature"},
	{"geometry":{"coordinates":[9.89812,51.548385],"type":"Point"},"properties":{"osm_id":"3344031962","tag":{"amenity":"waste_basket","survey:date":"2020-05-27"}},"type":"Feature"},
	{"geometry":{"coordinates":[9.886298,51.546668],"type":"Point"},"properties":{"osm_id":"3344851554","tag":{"amenity":"waste_basket","survey:date":"2015-02-10"}},"type":"Feature"},
	{"geometry":{"coordinates":[9.897961,51.553065],"type":"Point"},"properties":{"osm_id":"3344908514","tag":{"amenity":"waste_basket","survey:date":"2015-02-10"}},"type":"Feature"},
	{"geometry":{"coordinates":[9.907005,51.559827],"type":"Point"},"properties":{"osm_id":"3344932892","tag":{"amenity":"waste_basket","survey:date":"2017-05-06"}},"type":"Feature"},
	{"geometry":{"coordinates":[9.906495,51.561626],"type":"Point"},"properties":{"osm_id":"3344943247","tag":{"amenity":"waste_basket","survey:date":"2015-02-11"}},"type":"Feature"},
	{"geometry":{"coordinates":[9.926211,51.517943],"type":"Point"},"properties":{"osm_id":"3346034783","tag":{"amenity":"waste_basket","survey:date":"2015-02-12"}},"type":"Feature"},
	{"geometry":{"coordinates":[9.90953,51.540477],"type":"Point"},"properties":{"osm_id":"3423895620","tag":{"amenity":"waste_basket","survey:date":"2015-03-28"}},"type":"Feature"},
	{"geometry":{"coordinates":[9.909073,51.540694],"type":"Point"},"properties":{"osm_id":"3423895628","tag":{"amenity":"waste_basket","survey:date":"2015-03-28"}},"type":"Feature"},
	{"geometry":{"coordinates":[9.909754,51.541179],"type":"Point"},"properties":{"osm_id":"3423895640","tag":{"amenity":"waste_basket","survey:date":"2020-08-22"}},"type":"Feature"},
	{"geometry":{"coordinates":[9.909378,51.541192],"type":"Point"},"properties":{"osm_id":"3423895641","tag":{"amenity":"waste_basket","survey:date":"2020-08-22"}},"type":"Feature"},
	{"geometry":{"coordinates":[9.909551,51.54122],"type":"Point"},"properties":{"osm_id":"3423895643","tag":{"amenity":"waste_basket","survey:date":"2020-08-22"}},"type":"Feature"},
	{"geometry":{"coordinates":[9.910099,51.5415],"type":"Point"},"properties":{"osm_id":"3423895661","tag":{"amenity":"waste_basket","survey:date":"2015-03-28"}},"type":"Feature"},
	{"geometry":{"coordinates":[9.909734,51.54157],"type":"Point"},"properties":{"osm_id":"3423895678","tag":{"amenity":"waste_basket","survey:date":"2020-08-22"}},"type":"Feature"},
	{"geometry":{"coordinates":[9.909196,51.541591],"type":"Point"},"properties":{"osm_id":"3423895683","tag":{"amenity":"waste_basket","survey:date":"2015-03-28"}},"type":"Feature"},
	{"geometry":{"coordinates":[9.9094,51.541601],"type":"Point"},"properties":{"osm_id":"3423895685","tag":{"amenity":"waste_basket","survey:date":"2015-03-28"}},"type":"Feature"},
	{"geometry":{"coordinates":[9.909699,51.541722],"type":"Point"},"properties":{"osm_id":"3423895802","tag":{"amenity":"waste_basket","survey:date":"2015-03-28"}},"type":"Feature"},
	{"geometry":{"coordinates":[9.909698,51.541949],"type":"Point"},"properties":{"osm_id":"3423895823","tag":{"amenity":"waste_basket","survey:date":"2015-03-28"}},"type":"Feature"},
	{"geometry":{"coordinates":[9.909931,51.541807],"type":"Point"},"properties":{"osm_id":"3423908282","tag":{"amenity":"waste_basket","survey:date":"2015-03-28"}},"type":"Feature"},
	{"geometry":{"coordinates":[9.909573,51.542125],"type":"Point"},"properties":{"osm_id":"3423908283","tag":{"amenity":"waste_basket","survey:date":"2015-03-28"}},"type":"Feature"},
	{"geometry":{"coordinates":[9.909978,51.542164],"type":"Point"},"properties":{"osm_id":"3423908284","tag":{"amenity":"waste_basket","survey:date":"2015-03-28"}},"type":"Feature"},
	{"geometry":{"coordinates":[9.910329,51.542243],"type":"Point"},"properties":{"osm_id":"3423908287","tag":{"amenity":"waste_basket","survey:date":"2019-04-20"}},"type":"Feature"},
	{"geometry":{"coordinates":[9.909963,51.542327],"type":"Point"},"properties":{"osm_id":"3423908288","tag":{"amenity":"waste_basket","survey:date":"2015-03-28"}},"type":"Feature"},
	{"geometry":{"coordinates":[9.909939,51.542506],"type":"Point"},"properties":{"osm_id":"3423908395","tag":{"amenity":"waste_basket","survey:date":"2015-03-28"}},"type":"Feature"},
	{"geometry":{"coordinates":[9.915149,51.521472],"type":"Point"},"properties":{"osm_id":"3436085672","tag":{"amenity":"waste_basket","survey:date":"2015-04-03"}},"type":"Feature"},
	{"geometry":{"coordinates":[9.918781,51.521702],"type":"Point"},"properties":{"osm_id":"3436085676","tag":{"amenity":"waste_basket","survey:date":"2015-04-03"}},"type":"Feature"},
	{"geometry":{"coordinates":[9.915229,51.522065],"type":"Point"},"properties":{"osm_id":"3436085687","tag":{"amenity":"waste_basket","survey:date":"2015-04-03"}},"type":"Feature"},
	{"geometry":{"coordinates":[9.914925,51.52344],"type":"Point"},"properties":{"osm_id":"3436087312","tag":{"amenity":"waste_basket","survey:date":"2015-04-03"}},"type":"Feature"},
	{"geometry":{"coordinates":[9.914989,51.524343],"type":"Point"},"properties":{"osm_id":"3436093396","tag":{"amenity":"waste_basket","survey:date":"2015-04-03"}},"type":"Feature"},
	{"geometry":{"coordinates":[9.915144,51.524469],"type":"Point"},"properties":{"osm_id":"3436093399","tag":{"amenity":"waste_basket","survey:date":"2015-04-03"}},"type":"Feature"},
	{"geometry":{"coordinates":[9.915538,51.524695],"type":"Point"},"properties":{"osm_id":"3436093403","tag":{"amenity":"waste_basket","survey:date":"2015-04-03"}},"type":"Feature"},
	{"geometry":{"coordinates":[9.918172,51.525215],"type":"Point"},"properties":{"osm_id":"3436093405","tag":{"amenity":"waste_basket","material":"metal","survey:date":"2020-07-19"}},"type":"Feature"},
	{"geometry":{"coordinates":[9.918648,51.525296],"type":"Point"},"properties":{"osm_id":"3436093409","tag":{"amenity":"waste_basket","survey:date":"2015-04-03"}},"type":"Feature"},
	{"geometry":{"coordinates":[9.921769,51.526163],"type":"Point"},"properties":{"osm_id":"3436096858","tag":{"amenity":"waste_basket","survey:date":"2015-04-03"}},"type":"Feature"},
	{"geometry":{"coordinates":[9.866136,51.526465],"type":"Point"},"properties":{"osm_id":"3437173474","tag":{"amenity":"waste_basket","survey:date":"2015-03-28"}},"type":"Feature"},
	{"geometry":{"coordinates":[9.862941,51.526924],"type":"Point"},"properties":{"osm_id":"3437173479","tag":{"amenity":"waste_basket","survey:date":"2015-03-28"}},"type":"Feature"},
	{"geometry":{"coordinates":[9.863514,51.527056],"type":"Point"},"properties":{"osm_id":"3437173481","tag":{"amenity":"waste_basket","survey:date":"2015-03-28"}},"type":"Feature"},
	{"geometry":{"coordinates":[9.909647,51.542589],"type":"Point"},"properties":{"osm_id":"3438065458","tag":{"amenity":"waste_basket","survey:date":"2014-01-05"}},"type":"Feature"},
	{"geometry":{"coordinates":[9.881552,51.53064],"type":"Point"},"properties":{"osm_id":"3439433825","tag":{"amenity":"waste_basket","survey:date":"2015-04-06"}},"type":"Feature"},
	{"geometry":{"coordinates":[9.8803,51.52733],"type":"Point"},"properties":{"osm_id":"3441350067","tag":{"amenity":"waste_basket","survey:date":"2015-04-05"}},"type":"Feature"},
	{"geometry":{"coordinates":[9.882488,51.527621],"type":"Point"},"properties":{"osm_id":"3441494433","tag":{"amenity":"waste_basket","survey:date":"2015-04-06"}},"type":"Feature"},
	{"geometry":{"coordinates":[9.882781,51.527683],"type":"Point"},"properties":{"osm_id":"3441494434","tag":{"amenity":"waste_basket","survey:date":"2015-04-06"}},"type":"Feature"},
	{"geometry":{"coordinates":[9.919418,51.539074],"type":"Point"},"properties":{"osm_id":"3448889877","tag":{"amenity":"waste_basket","survey:date":"2020-03-08"}},"type":"Feature"},
	{"geometry":{"coordinates":[9.846327,51.561741],"type":"Point"},"properties":{"osm_id":"3449087074","tag":{"amenity":"waste_basket","survey:date":"2015-04-10"}},"type":"Feature"},
	{"geometry":{"coordinates":[9.84687,51.561855],"type":"Point"},"properties":{"osm_id":"3449087076","tag":{"amenity":"waste_basket","survey:date":"2015-04-10"}},"type":"Feature"},
	{"geometry":{"coordinates":[9.846981,51.561976],"type":"Point"},"properties":{"osm_id":"3449091254","tag":{"amenity":"waste_basket","survey:date":"2015-04-10"}},"type":"Feature"},
	{"geometry":{"coordinates":[9.855139,51.539438],"type":"Point"},"properties":{"osm_id":"3455404638","tag":{"amenity":"waste_basket","survey:date":"2017-05-01"}},"type":"Feature"},
	{"geometry":{"coordinates":[9.889828,51.560476],"type":"Point"},"properties":{"osm_id":"3466091712","tag":{"amenity":"waste_basket","survey:date":"2020-03-21"}},"type":"Feature"},
	{"geometry":{"coordinates":[9.876005,51.551801],"type":"Point"},"properties":{"osm_id":"3498720511","tag":{"amenity":"waste_basket","survey:date":"2015-04-13"}},"type":"Feature"},
	{"geometry":{"coordinates":[9.87618,51.55191],"type":"Point"},"properties":{"osm_id":"3498720512","tag":{"amenity":"waste_basket","survey:date":"2015-04-13"}},"type":"Feature"},
	{"geometry":{"coordinates":[9.929585,51.521962],"type":"Point"},"properties":{"osm_id":"3517536409","tag":{"amenity":"waste_basket","survey:date":"2015-05-14"}},"type":"Feature"},
	{"geometry":{"coordinates":[9.929771,51.530484],"type":"Point"},"properties":{"osm_id":"3559507903","tag":{"amenity":"waste_basket","survey:date":"2015-05-30"}},"type":"Feature"},
	{"geometry":{"coordinates":[9.927572,51.533374],"type":"Point"},"properties":{"osm_id":"3559507940","tag":{"amenity":"waste_basket","survey:date":"2015-05-30"}},"type":"Feature"},
	{"geometry":{"coordinates":[9.92769,51.534252],"type":"Point"},"properties":{"osm_id":"3559507949","tag":{"amenity":"waste_basket","survey:date":"2015-05-30"}},"type":"Feature"},
	{"geometry":{"coordinates":[9.928277,51.535143],"type":"Point"},"properties":{"osm_id":"3559507960","tag":{"amenity":"waste_basket","survey:date":"2015-05-30"}},"type":"Feature"},
	{"geometry":{"coordinates":[9.928954,51.535881],"type":"Point"},"properties":{"osm_id":"3559507982","tag":{"amenity":"waste_basket","survey:date":"2015-05-30"}},"type":"Feature"},
	{"geometry":{"coordinates":[9.929635,51.536447],"type":"Point"},"properties":{"osm_id":"3559507989","tag":{"amenity":"waste_basket","survey:date":"2015-05-30"}},"type":"Feature"},
	{"geometry":{"coordinates":[9.931403,51.536802],"type":"Point"},"properties":{"osm_id":"3559508005","tag":{"amenity":"waste_basket","survey:date":"2015-05-30"}},"type":"Feature"},
	{"geometry":{"coordinates":[9.910714,51.53982],"type":"Point"},"properties":{"osm_id":"3563518004","tag":{"amenity":"waste_basket","survey:date":"2015-05-31"}},"type":"Feature"},
	{"geometry":{"coordinates":[9.910654,51.540123],"type":"Point"},"properties":{"osm_id":"3563518007","tag":{"amenity":"waste_basket","survey:date":"2015-05-31"}},"type":"Feature"},
	{"geometry":{"coordinates":[9.925155,51.538967],"type":"Point"},"properties":{"osm_id":"3594708554","tag":{"amenity":"waste_basket","survey:date":"2015-06-13"}},"type":"Feature"},
	{"geometry":{"coordinates":[9.925299,51.539127],"type":"Point"},"properties":{"osm_id":"3594708555","tag":{"amenity":"waste_basket","survey:date":"2015-06-13"}},"type":"Feature"},
	{"geometry":{"coordinates":[9.93134,51.525495],"type":"Point"},"properties":{"osm_id":"3596331695","tag":{"amenity":"waste_basket","survey:date":"2015-06-14"}},"type":"Feature"},
	{"geometry":{"coordinates":[9.931365,51.525738],"type":"Point"},"properties":{"osm_id":"3596331706","tag":{"amenity":"waste_basket","survey:date":"2015-06-14"}},"type":"Feature"},
	{"geometry":{"coordinates":[9.931093,51.525885],"type":"Point"},"properties":{"osm_id":"3596331717","tag":{"amenity":"waste_basket","survey:date":"2015-06-14"}},"type":"Feature"},
	{"geometry":{"coordinates":[9.923592,51.544589],"type":"Point"},"properties":{"osm_id":"3597349402","tag":{"amenity":"waste_basket","survey:date":"2015-06-15"}},"type":"Feature"},
	{"geometry":{"coordinates":[9.868683,51.547685],"type":"Point"},"properties":{"osm_id":"3619198923","tag":{"amenity":"waste_basket","survey:date":"2015-06-26"}},"type":"Feature"},
	{"geometry":{"coordinates":[9.866815,51.549327],"type":"Point"},"properties":{"osm_id":"3619271676","tag":{"amenity":"waste_basket","survey:date":"2015-06-26"}},"type":"Feature"},
	{"geometry":{"coordinates":[9.866443,51.549498],"type":"Point"},"properties":{"osm_id":"3619271689","tag":{"amenity":"waste_basket","survey:date":"2015-06-26"}},"type":"Feature"},
	{"geometry":{"coordinates":[9.904161,51.547862],"type":"Point"},"properties":{"osm_id":"3654841804","tag":{"amenity":"recycling","operator":"Humana","recycling:clothes":"yes","recycling:shoes":"yes","recycling_type":"container","survey:date":"2018-10-05"}},"type":"Feature"},
	{"geometry":{"coordinates":[9.931311,51.530202],"type":"Point"},"properties":{"osm_id":"3675552026","tag":{"amenity":"waste_basket","survey:date":"2015-07-29"}},"type":"Feature"},
	{"geometry":{"coordinates":[9.883361,51.55232],"type":"Point"},"properties":{"barrier":"gate","osm_id":"3677214579"},"type":"Feature"},
	{"geometry":{"coordinates":[9.917495,51.521613],"type":"Point"},"properties":{"osm_id":"3736366202","tag":{"amenity":"waste_basket","survey:date":"2015-09-09"}},"type":"Feature"},
	{"geometry":{"coordinates":[9.894324,51.509624],"type":"Point"},"properties":{"osm_id":"3736508415","tag":{"amenity":"recycling","recycling:clothes":"yes","recycling:shoes":"yes","recycling_type":"container","survey:date":"2015-09-09"}},"type":"Feature"},
	{"geometry":{"coordinates":[9.930431,51.538853],"type":"Point"},"properties":{"osm_id":"3740137129","tag":{"amenity":"waste_basket"}},"type":"Feature"},
	{"geometry":{"coordinates":[9.907911,51.55729],"type":"Point"},"properties":{"osm_id":"3775354307","tag":{"amenity":"waste_basket","survey:date":"2015-10-03"}},"type":"Feature"},
	{"geometry":{"coordinates":[9.908028,51.557484],"type":"Point"},"properties":{"osm_id":"3775354311","tag":{"amenity":"waste_basket","survey:date":"2015-10-03"}},"type":"Feature"},
	{"geometry":{"coordinates":[9.893719,51.544371],"type":"Point"},"properties":{"osm_id":"3776565371","tag":{"amenity":"waste_basket","survey:date":"2015-10-05"}},"type":"Feature"},
	{"geometry":{"coordinates":[9.890541,51.548038],"type":"Point"},"properties":{"osm_id":"3779969767","tag":{"amenity":"recycling","operator":"Humana Kleidersammlung GmbH","recycling:clothes":"yes","recycling:shoes":"yes","recycling_type":"container","survey:date":"2015-10-04"}},"type":"Feature"},
	{"geometry":{"coordinates":[9.895176,51.530044],"type":"Point"},"properties":{"osm_id":"3824684163","tag":{"amenity":"waste_basket","survey:date":"2015-11-08"}},"type":"Feature"},
	{"geometry":{"coordinates":[9.904258,51.541716],"type":"Point"},"properties":{"osm_id":"3824703871","tag":{"amenity":"waste_basket","survey:date":"2015-11-08"}},"type":"Feature"},
	{"geometry":{"coordinates":[9.900396,51.533963],"type":"Point"},"properties":{"osm_id":"3865297667","tag":{"amenity":"waste_basket","material":"metal","survey:date":"2020-04-01"}},"type":"Feature"},
	{"geometry":{"coordinates":[9.900523,51.533961],"type":"Point"},"properties":{"osm_id":"3865297669","tag":{"amenity":"waste_basket","material":"metal","survey:date":"2020-04-01"}},"type":"Feature"},
	{"geometry":{"coordinates":[9.902136,51.548033],"type":"Point"},"properties":{"osm_id":"3885300515","tag":{"amenity":"waste_basket","survey:date":"2015-12-09"}},"type":"Feature"},
	{"geometry":{"coordinates":[9.873137,51.549561],"type":"Point"},"properties":{"osm_id":"3885320560","tag":{"amenity":"waste_basket","survey:date":"2015-12-09"}},"type":"Feature"},
	{"geometry":{"coordinates":[9.931382,51.556447],"type":"Point"},"properties":{"osm_id":"3896844750","tag":{"amenity":"waste_basket","survey:date":"2015-12-24"}},"type":"Feature"},
	{"geometry":{"coordinates":[9.906931,51.534411],"type":"Point"},"properties":{"osm_id":"3896995431","tag":{"amenity":"waste_basket","survey:date":"2015-12-17"}},"type":"Feature"},
	{"geometry":{"coordinates":[9.906913,51.534439],"type":"Point"},"properties":{"osm_id":"3896995432","tag":{"amenity":"waste_basket","survey:date":"2015-12-17"}},"type":"Feature"},
	{"geometry":{"coordinates":[9.913901,51.53506],"type":"Point"},"properties":{"osm_id":"3897018432","tag":{"amenity":"waste_basket","survey:date":"2015-12-17"}},"type":"Feature"},
	{"geometry":{"coordinates":[9.931032,51.549484],"type":"Point"},"properties":{"osm_id":"3908616669","tag":{"amenity":"waste_basket","survey:date":"2015-12-24"}},"type":"Feature"},
	{"geometry":{"coordinates":[9.931154,51.551745],"type":"Point"},"properties":{"osm_id":"3908616723","tag":{"amenity":"waste_basket","survey:date":"2015-12-24"}},"type":"Feature"},
	{"geometry":{"coordinates":[9.901582,51.529164],"type":"Point"},"properties":{"osm_id":"3915392533","tag":{"amenity":"waste_basket","survey:date":"2015-12-27"}},"type":"Feature"},
	{"geometry":{"coordinates":[9.930262,51.548659],"type":"Point"},"properties":{"osm_id":"3921718788","tag":{"amenity":"waste_basket","survey:date":"2013-09-13"}},"type":"Feature"},
	{"geometry":{"coordinates":[9.902947,51.526893],"type":"Point"},"properties":{"osm_id":"3922425504","tag":{"amenity":"waste_basket","survey:date":"2015-08-09"}},"type":"Feature"},
	{"geometry":{"coordinates":[9.903372,51.526955],"type":"Point"},"properties":{"osm_id":"3922425507","tag":{"amenity":"waste_basket","survey:date":"2015-08-09"}},"type":"Feature"},
	{"geometry":{"coordinates":[9.902617,51.527037],"type":"Point"},"properties":{"osm_id":"3922425517","tag":{"amenity":"waste_basket","survey:date":"2015-08-09"}},"type":"Feature"},
	{"geometry":{"coordinates":[9.902984,51.527045],"type":"Point"},"properties":{"osm_id":"3922425518","tag":{"amenity":"waste_basket","survey:date":"2015-08-09"}},"type":"Feature"},
	{"geometry":{"coordinates":[9.9033,51.527114],"type":"Point"},"properties":{"osm_id":"3922425524","tag":{"amenity":"waste_basket","survey:date":"2015-08-09"}},"type":"Feature"},
	{"geometry":{"coordinates":[9.903103,51.527372],"type":"Point"},"properties":{"osm_id":"3922425552","tag":{"amenity":"waste_basket","survey:date":"2015-08-09"}},"type":"Feature"},
	{"geometry":{"coordinates":[9.9035,51.527498],"type":"Point"},"properties":{"osm_id":"3922426558","tag":{"amenity":"waste_basket","survey:date":"2015-08-09"}},"type":"Feature"},
	{"geometry":{"coordinates":[9.930323,51.538997],"type":"Point"},"properties":{"osm_id":"3936133598","tag":{"amenity":"waste_basket","survey:date":"2015-12-26"}},"type":"Feature"},
	{"geometry":{"coordinates":[9.930504,51.539205],"type":"Point"},"properties":{"osm_id":"3936133610","tag":{"amenity":"waste_basket","survey:date":"2015-12-26"}},"type":"Feature"},
	{"geometry":{"coordinates":[9.930451,51.539693],"type":"Point"},"properties":{"osm_id":"3936133615","tag":{"amenity":"waste_basket","survey:date":"2015-12-26"}},"type":"Feature"},
	{"geometry":{"coordinates":[9.898733,51.530699],"type":"Point"},"properties":{"osm_id":"3994290446","tag":{"amenity":"waste_basket","survey:date":"2016-02-06"}},"type":"Feature"},
	{"geometry":{"coordinates":[9.902842,51.531929],"type":"Point"},"properties":{"osm_id":"3994290447","tag":{"amenity":"waste_basket","survey:date":"2019-02-13"}},"type":"Feature"},
	{"geometry":{"coordinates":[9.927418,51.55988],"type":"Point"},"properties":{"osm_id":"4004572043","tag":{"amenity":"waste_basket","survey:date":"2016-02-13"}},"type":"Feature"},
	{"geometry":{"coordinates":[9.923827,51.56318],"type":"Point"},"properties":{"osm_id":"4004617302","tag":{"amenity":"waste_basket","survey:date":"2016-02-13"}},"type":"Feature"},
	{"geometry":{"coordinates":[9.924245,51.563191],"type":"Point"},"properties":{"osm_id":"4004617305","tag":{"amenity":"waste_basket","survey:date":"2016-02-13"}},"type":"Feature"},
	{"geometry":{"coordinates":[9.922842,51.563274],"type":"Point"},"properties":{"osm_id":"4004617310","tag":{"amenity":"waste_basket","survey:date":"2016-02-13"}},"type":"Feature"},
	{"geometry":{"coordinates":[9.923369,51.563358],"type":"Point"},"properties":{"osm_id":"4004617315","tag":{"amenity":"waste_basket","survey:date":"2016-02-13"}},"type":"Feature"},
	{"geometry":{"coordinates":[9.922863,51.56341],"type":"Point"},"properties":{"osm_id":"4004617322","tag":{"amenity":"waste_basket","survey:date":"2016-02-13"}},"type":"Feature"},
	{"geometry":{"coordinates":[9.92607,51.557961],"type":"Point"},"properties":{"osm_id":"4004669533","tag":{"amenity":"waste_basket","survey:date":"2016-02-13"}},"type":"Feature"},
	{"geometry":{"coordinates":[9.931598,51.559994],"type":"Point"},"properties":{"osm_id":"4031637789","tag":{"amenity":"waste_basket","survey:date":"2016-02-27"}},"type":"Feature"},
	{"geometry":{"coordinates":[9.900641,51.527304],"type":"Point"},"properties":{"osm_id":"4110090251","tag":{"amenity":"waste_basket","material":"metal","survey:date":"2016-06-19"}},"type":"Feature"},
	{"geometry":{"coordinates":[9.901259,51.527899],"type":"Point"},"properties":{"osm_id":"4110090277","tag":{"amenity":"waste_basket","survey:date":"2016-04-09"}},"type":"Feature"},
	{"geometry":{"coordinates":[9.90147,51.528058],"type":"Point"},"properties":{"osm_id":"4110090794","tag":{"amenity":"waste_basket","survey:date":"2016-04-09"}},"type":"Feature"},
	{"geometry":{"coordinates":[9.90042,51.528321],"type":"Point"},"properties":{"osm_id":"4110090813","tag":{"amenity":"waste_basket","survey:date":"2016-04-09"}},"type":"Feature"},
	{"geometry":{"coordinates":[9.901696,51.528849],"type":"Point"},"properties":{"osm_id":"4110090826","tag":{"amenity":"waste_basket","survey:date":"2016-04-09"}},"type":"Feature"},
	{"geometry":{"coordinates":[9.898518,51.526625],"type":"Point"},"properties":{"osm_id":"4110194533","tag":{"amenity":"waste_basket","survey:date":"2016-04-09"}},"type":"Feature"},
	{"geometry":{"coordinates":[9.898541,51.526816],"type":"Point"},"properties":{"osm_id":"4110194552","tag":{"amenity":"waste_basket","survey:date":"2016-04-09"}},"type":"Feature"},
	{"geometry":{"coordinates":[9.898355,51.526909],"type":"Point"},"properties":{"osm_id":"4110194557","tag":{"amenity":"waste_basket","survey:date":"2016-04-09"}},"type":"Feature"},
	{"geometry":{"coordinates":[9.898922,51.527395],"type":"Point"},"properties":{"osm_id":"4110194573","tag":{"amenity":"waste_basket","survey:date":"2016-04-09"}},"type":"Feature"},
	{"geometry":{"coordinates":[9.898963,51.527544],"type":"Point"},"properties":{"osm_id":"4110194579","tag":{"amenity":"waste_basket","survey:date":"2016-04-09"}},"type":"Feature"},
	{"geometry":{"coordinates":[9.920468,51.546919],"type":"Point"},"properties":{"osm_id":"4159676456","tag":{"amenity":"waste_basket","survey:date":"2016-04-30"}},"type":"Feature"},
	{"geometry":{"coordinates":[9.929612,51.518283],"type":"Point"},"properties":{"osm_id":"4168009573","tag":{"amenity":"waste_basket","survey:date":"2020-03-19"}},"type":"Feature"},
	{"geometry":{"coordinates":[9.930059,51.518711],"type":"Point"},"properties":{"osm_id":"4168009587","tag":{"amenity":"waste_basket","survey:date":"2015-05-05"}},"type":"Feature"},
	{"geometry":{"coordinates":[9.930084,51.518878],"type":"Point"},"properties":{"osm_id":"4168009588","tag":{"amenity":"waste_basket","survey:date":"2015-05-05"}},"type":"Feature"},
	{"geometry":{"coordinates":[9.930187,51.518927],"type":"Point"},"properties":{"osm_id":"4168011092","tag":{"amenity":"waste_basket","survey:date":"2015-05-05"}},"type":"Feature"},
	{"geometry":{"coordinates":[9.915976,51.535663],"type":"Point"},"properties":{"osm_id":"4186056983","tag":{"amenity":"waste_basket"}},"type":"Feature"},
	{"geometry":{"coordinates":[9.923779,51.535792],"type":"Point"},"properties":{"osm_id":"4186128595","tag":{"amenity":"waste_basket","survey:date":"2016-05-12"}},"type":"Feature"},
	{"geometry":{"coordinates":[9.923888,51.536116],"type":"Point"},"properties":{"osm_id":"4186128597","tag":{"amenity":"waste_basket","survey:date":"2016-05-12"}},"type":"Feature"},
	{"geometry":{"coordinates":[9.890101,51.537115],"type":"Point"},"properties":{"osm_id":"4200826548","tag":{"amenity":"waste_basket","survey:date":"2016-05-22"}},"type":"Feature"},
	{"geometry":{"coordinates":[9.890048,51.537189],"type":"Point"},"properties":{"osm_id":"4200826551","tag":{"amenity":"waste_basket","survey:date":"2016-05-22"}},"type":"Feature"},
	{"geometry":{"coordinates":[9.923934,51.530865],"type":"Point"},"properties":{"osm_id":"4212341393","tag":{"amenity":"waste_basket","survey:date":"2016-07-31"}},"type":"Feature"},
	{"geometry":{"coordinates":[9.921417,51.531261],"type":"Point"},"properties":{"osm_id":"4253320577","tag":{"amenity":"waste_basket","survey:date":"2016-06-19"}},"type":"Feature"},
	{"geometry":{"coordinates":[9.896713,51.526129],"type":"Point"},"properties":{"osm_id":"4253342658","tag":{"amenity":"waste_basket","survey:date":"2016-06-19"}},"type":"Feature"},
	{"geometry":{"coordinates":[9.896656,51.526129],"type":"Point"},"properties":{"osm_id":"4253342659","tag":{"amenity":"waste_basket","survey:date":"2016-06-19"}},"type":"Feature"},
	{"geometry":{"coordinates":[9.895928,51.527572],"type":"Point"},"properties":{"osm_id":"4253342673","tag":{"amenity":"waste_basket","survey:date":"2016-06-19"}},"type":"Feature"},
	{"geometry":{"coordinates":[9.896141,51.527652],"type":"Point"},"properties":{"osm_id":"4253342674","tag":{"amenity":"waste_basket","survey:date":"2016-06-19"}},"type":"Feature"},
	{"geometry":{"coordinates":[9.899223,51.527775],"type":"Point"},"properties":{"osm_id":"4253342678","tag":{"amenity":"waste_basket","survey:date":"2016-06-19"}},"type":"Feature"},
	{"geometry":{"coordinates":[9.893736,51.524946],"type":"Point"},"properties":{"osm_id":"4253466566","tag":{"amenity":"waste_basket","survey:date":"2016-06-19"}},"type":"Feature"},
	{"geometry":{"coordinates":[9.895036,51.525296],"type":"Point"},"properties":{"osm_id":"4253466603","tag":{"amenity":"waste_basket","survey:date":"2016-06-19"}},"type":"Feature"},
	{"geometry":{"coordinates":[9.893375,51.526597],"type":"Point"},"properties":{"osm_id":"4265860310","tag":{"amenity":"waste_basket","survey:date":"2016-06-19"}},"type":"Feature"},
	{"geometry":{"coordinates":[9.893335,51.526653],"type":"Point"},"properties":{"osm_id":"4265860313","tag":{"amenity":"waste_basket","survey:date":"2016-06-19"}},"type":"Feature"},
	{"geometry":{"coordinates":[9.893549,51.526727],"type":"Point"},"properties":{"osm_id":"4265860319","tag":{"amenity":"waste_basket","survey:date":"2016-06-19"}},"type":"Feature"},
	{"geometry":{"coordinates":[9.896925,51.525572],"type":"Point"},"properties":{"osm_id":"4265888888","tag":{"amenity":"waste_basket","survey:date":"2016-06-19"}},"type":"Feature"},
	{"geometry":{"coordinates":[9.895671,51.524371],"type":"Point"},"properties":{"osm_id":"4277391373","tag":{"amenity":"waste_basket","survey:date":"2016-07-01"}},"type":"Feature"},
	{"geometry":{"coordinates":[9.926385,51.531749],"type":"Point"},"properties":{"osm_id":"4329280137","tag":{"amenity":"waste_basket","survey:date":"2016-07-31"}},"type":"Feature"},
	{"geometry":{"coordinates":[9.931191,51.534696],"type":"Point"},"properties":{"osm_id":"4349099705","tag":{"amenity":"waste_basket","survey:date":"2016-08-13"}},"type":"Feature"},
	{"geometry":{"coordinates":[9.929963,51.534846],"type":"Point"},"properties":{"osm_id":"4349099706","tag":{"amenity":"waste_basket","survey:date":"2016-08-13"}},"type":"Feature"},
	{"geometry":{"coordinates":[9.908931,51.509337],"type":"Point"},"properties":{"osm_id":"4350621666","tag":{"amenity":"recycling","operator":"FKK","recycling:clothes":"yes","recycling:shoes":"yes","recycling_type":"container","survey:date":"2016-08-14"}},"type":"Feature"},
	{"geometry":{"coordinates":[9.908755,51.509212],"type":"Point"},"properties":{"osm_id":"4350640870","tag":{"amenity":"recycling","operator":"RMK Recycling GmbH","recycling:clothes":"yes","recycling:shoes":"yes","recycling_type":"container","survey:date":"2020-04-09"}},"type":"Feature"},
	{"geometry":{"coordinates":[9.891681,51.532295],"type":"Point"},"properties":{"osm_id":"4352546246","tag":{"amenity":"waste_basket","material":"metal","survey:date":"2016-06-19"}},"type":"Feature"},
	{"geometry":{"coordinates":[9.90084,51.525787],"type":"Point"},"properties":{"osm_id":"4352652085","tag":{"amenity":"waste_basket","material":"metal","survey:date":"2016-06-19"}},"type":"Feature"},
	{"geometry":{"coordinates":[9.900545,51.525828],"type":"Point"},"properties":{"osm_id":"4352652086","tag":{"amenity":"waste_basket","material":"metal","survey:date":"2016-06-19"}},"type":"Feature"},
	{"geometry":{"coordinates":[9.898487,51.526149],"type":"Point"},"properties":{"osm_id":"4352653194","tag":{"amenity":"waste_basket","material":"metal","survey:date":"2016-06-19"}},"type":"Feature"},
	{"geometry":{"coordinates":[9.898279,51.52623],"type":"Point"},"properties":{"osm_id":"4352653214","tag":{"amenity":"waste_basket","material":"metal","survey:date":"2016-06-19"}},"type":"Feature"},
	{"geometry":{"coordinates":[9.898552,51.526309],"type":"Point"},"properties":{"osm_id":"4352653227","tag":{"amenity":"waste_basket","material":"metal","survey:date":"2016-06-19"}},"type":"Feature"},
	{"geometry":{"coordinates":[9.890771,51.530409],"type":"Point"},"properties":{"osm_id":"4352653258","tag":{"amenity":"waste_basket","material":"metal","survey:date":"2016-06-19"}},"type":"Feature"},
	{"geometry":{"coordinates":[9.893741,51.531153],"type":"Point"},"properties":{"osm_id":"4352653264","tag":{"amenity":"waste_basket","material":"metal","survey:date":"2016-06-19"}},"type":"Feature"},
	{"geometry":{"coordinates":[9.895985,51.532944],"type":"Point"},"properties":{"osm_id":"4352653274","tag":{"amenity":"waste_basket","material":"metal","survey:date":"2016-06-19"}},"type":"Feature"},
	{"geometry":{"coordinates":[9.894464,51.52751],"type":"Point"},"properties":{"osm_id":"4352984334","tag":{"amenity":"waste_basket","material":"metal","survey:date":"2016-08-16"}},"type":"Feature"},
	{"geometry":{"coordinates":[9.894347,51.527585],"type":"Point"},"properties":{"osm_id":"4352984335","tag":{"amenity":"waste_basket","material":"metal","survey:date":"2016-08-16"}},"type":"Feature"},
	{"geometry":{"coordinates":[9.897021,51.528373],"type":"Point"},"properties":{"osm_id":"4352985415","tag":{"amenity":"waste_basket","material":"metal","survey:date":"2016-08-16"}},"type":"Feature"},
	{"geometry":{"coordinates":[9.897924,51.532316],"type":"Point"},"properties":{"osm_id":"4353142516","tag":{"amenity":"recycling","operator":"Darbo Recycling","recycling:clothes":"yes","recycling:shoes":"yes","recycling_type":"container","survey:date":"2019-02-13"}},"type":"Feature"},
	{"geometry":{"coordinates":[9.892072,51.561809],"type":"Point"},"properties":{"osm_id":"4356562591","tag":{"amenity":"waste_basket","survey:date":"2016-08-16"}},"type":"Feature"},
	{"geometry":{"coordinates":[9.888752,51.562073],"type":"Point"},"properties":{"osm_id":"4356562597","tag":{"amenity":"waste_basket","survey:date":"2016-08-16"}},"type":"Feature"},
	{"geometry":{"coordinates":[9.907095,51.552395],"type":"Point"},"properties":{"osm_id":"4356591950","tag":{"amenity":"recycling","operator":"SOEX","recycling:clothes":"yes","recycling:shoes":"yes","recycling_type":"container","survey:date":"2020-03-19"}},"type":"Feature"},
	{"geometry":{"coordinates":[9.899252,51.536809],"type":"Point"},"properties":{"osm_id":"4357921004","tag":{"amenity":"recycling","operator":"Allgemeiner Rettungsverband S\u00c3\u00bcdniedersachsen e. V.","recycling:clothes":"yes","recycling:shoes":"yes","recycling_type":"container","survey:date":"2016-08-19"}},"type":"Feature"},
	{"geometry":{"coordinates":[9.925585,51.56293],"type":"Point"},"properties":{"osm_id":"4430879448","tag":{"amenity":"waste_basket"}},"type":"Feature"},
	{"geometry":{"coordinates":[9.930484,51.532849],"type":"Point"},"properties":{"osm_id":"4573962330","tag":{"amenity":"waste_basket","survey:date":"2016-12-26"}},"type":"Feature"},
	{"geometry":{"coordinates":[9.930167,51.527085],"type":"Point"},"properties":{"osm_id":"4638835383","tag":{"amenity":"recycling","recycling:glass_bottles":"yes","recycling_type":"container","survey:date":"2017-01-21"}},"type":"Feature"},
	{"geometry":{"coordinates":[9.928624,51.526844],"type":"Point"},"properties":{"osm_id":"4638869015","tag":{"amenity":"waste_basket","survey:date":"2017-01-21"}},"type":"Feature"},
	{"geometry":{"coordinates":[9.926385,51.531109],"type":"Point"},"properties":{"osm_id":"4723353546","tag":{"amenity":"waste_basket","survey:date":"2017-03-07"}},"type":"Feature"},
	{"geometry":{"coordinates":[9.927515,51.555432],"type":"Point"},"properties":{"osm_id":"4779877047","ref":"H-2512","tag":{"amenity":"recycling","operator":"Humana","recycling:clothes":"yes","recycling:shoes":"yes","recycling_type":"container","survey:date":"2017-04-05"}},"type":"Feature"},
	{"geometry":{"coordinates":[9.92752,51.555416],"type":"Point"},"properties":{"osm_id":"4779877048","ref":"H-2161","tag":{"amenity":"recycling","operator":"Humana","recycling:clothes":"yes","recycling:shoes":"yes","recycling_type":"container","survey:date":"2017-04-05"}},"type":"Feature"},
	{"geometry":{"coordinates":[9.914773,51.546908],"type":"Point"},"properties":{"osm_id":"4779912146","tag":{"amenity":"waste_basket","survey:date":"2017-04-05"}},"type":"Feature"},
	{"geometry":{"coordinates":[9.92588,51.561924],"type":"Point"},"properties":{"osm_id":"4783488898","tag":{"amenity":"waste_basket","survey:date":"2017-04-08"}},"type":"Feature"},
	{"geometry":{"coordinates":[9.920363,51.542451],"type":"Point"},"properties":{"osm_id":"4792327436","tag":{"amenity":"waste_basket","survey:date":"2017-04-13"}},"type":"Feature"},
	{"geometry":{"coordinates":[9.896644,51.535971],"type":"Point"},"properties":{"osm_id":"4792391984","tag":{"amenity":"waste_basket","operator":"GEB","survey:date":"2019-02-13"}},"type":"Feature"},
	{"geometry":{"coordinates":[9.91115,51.538583],"type":"Point"},"properties":{"osm_id":"4799784253","tag":{"amenity":"waste_basket","survey:date":"2017-04-17"}},"type":"Feature"},
	{"geometry":{"coordinates":[9.919255,51.51918],"type":"Point"},"properties":{"osm_id":"4810036379","tag":{"amenity":"waste_basket","survey:date":"2017-04-22"}},"type":"Feature"},
	{"geometry":{"coordinates":[9.907633,51.511246],"type":"Point"},"properties":{"osm_id":"4810092242","tag":{"amenity":"waste_basket","survey:date":"2017-04-22"}},"type":"Feature"},
	{"geometry":{"coordinates":[9.907848,51.511145],"type":"Point"},"properties":{"osm_id":"4810092243","tag":{"amenity":"waste_basket","survey:date":"2017-04-22"}},"type":"Feature"},
	{"geometry":{"coordinates":[9.897509,51.527523],"type":"Point"},"properties":{"osm_id":"4827641111","tag":{"amenity":"waste_basket","survey:date":"2017-04-22"}},"type":"Feature"},
	{"geometry":{"coordinates":[9.896415,51.526441],"type":"Point"},"properties":{"osm_id":"4827647063","tag":{"amenity":"waste_basket","survey:date":"2017-04-22"}},"type":"Feature"},
	{"geometry":{"coordinates":[9.845897,51.537614],"type":"Point"},"properties":{"osm_id":"4829729434","tag":{"amenity":"waste_basket","survey:date":"2017-05-01"}},"type":"Feature"},
	{"geometry":{"coordinates":[9.851019,51.538137],"type":"Point"},"properties":{"osm_id":"4829729653","tag":{"amenity":"waste_basket","survey:date":"2017-05-01"}},"type":"Feature"},
	{"geometry":{"coordinates":[9.864066,51.517406],"type":"Point"},"properties":{"osm_id":"4831686938","tag":{"amenity":"waste_basket","survey:date":"2017-05-01"}},"type":"Feature"},
	{"geometry":{"coordinates":[9.861978,51.518603],"type":"Point"},"properties":{"osm_id":"4831687757","tag":{"amenity":"waste_basket","survey:date":"2017-05-01"}},"type":"Feature"},
	{"geometry":{"coordinates":[9.861866,51.518582],"type":"Point"},"properties":{"osm_id":"4831687760","tag":{"amenity":"waste_basket","survey:date":"2017-05-01"}},"type":"Feature"},
	{"geometry":{"coordinates":[9.860409,51.532678],"type":"Point"},"properties":{"osm_id":"4838216741","tag":{"amenity":"waste_basket","survey:date":"2017-05-01"}},"type":"Feature"},
	{"geometry":{"coordinates":[9.875602,51.551976],"type":"Point"},"properties":{"osm_id":"4839249562","tag":{"amenity":"waste_basket","survey:date":"2017-05-03"}},"type":"Feature"},
	{"geometry":{"coordinates":[9.900581,51.559328],"type":"Point"},"properties":{"osm_id":"4839785367","tag":{"amenity":"waste_basket","survey:date":"2017-05-06"}},"type":"Feature"},
	{"geometry":{"coordinates":[9.906776,51.560407],"type":"Point"},"properties":{"osm_id":"4839930773","tag":{"amenity":"waste_basket","survey:date":"2017-05-06"}},"type":"Feature"},
	{"geometry":{"coordinates":[9.906284,51.560456],"type":"Point"},"properties":{"osm_id":"4839930774","tag":{"amenity":"waste_basket","survey:date":"2017-05-06"}},"type":"Feature"},
	{"geometry":{"coordinates":[9.90671,51.556976],"type":"Point"},"properties":{"osm_id":"4909732598","tag":{"amenity":"waste_basket","survey:date":"2017-06-11"}},"type":"Feature"},
	{"geometry":{"coordinates":[9.907469,51.510123],"type":"Point"},"properties":{"osm_id":"4919857440","tag":{"amenity":"waste_basket","survey:date":"2020-05-07"}},"type":"Feature"},
	{"geometry":{"coordinates":[9.931298,51.532089],"type":"Point"},"properties":{"osm_id":"4920267375","tag":{"amenity":"waste_basket","survey:date":"2017-06-16"}},"type":"Feature"},
	{"geometry":{"coordinates":[9.894829,51.529897],"type":"Point"},"properties":{"osm_id":"4921665659","tag":{"amenity":"waste_basket","survey:date":"2017-06-17"}},"type":"Feature"},
	{"geometry":{"coordinates":[9.894547,51.53376],"type":"Point"},"properties":{"osm_id":"4921673689","tag":{"amenity":"waste_basket","survey:date":"2017-06-17"}},"type":"Feature"},
	{"geometry":{"coordinates":[9.891682,51.530849],"type":"Point"},"properties":{"osm_id":"4921695370","tag":{"amenity":"waste_basket","level":"1","survey:date":"2017-06-17"}},"type":"Feature"},
	{"geometry":{"coordinates":[9.892113,51.531059],"type":"Point"},"properties":{"osm_id":"4921695371","tag":{"amenity":"waste_basket","survey:date":"2017-06-17"}},"type":"Feature"},
	{"geometry":{"coordinates":[9.892027,51.530681],"type":"Point"},"properties":{"osm_id":"4921695372","tag":{"amenity":"waste_basket","survey:date":"2017-06-17"}},"type":"Feature"},
	{"geometry":{"coordinates":[9.897307,51.532703],"type":"Point"},"properties":{"osm_id":"4921696126","tag":{"amenity":"waste_basket","survey:date":"2017-06-17"}},"type":"Feature"},
	{"geometry":{"coordinates":[9.900184,51.532514],"type":"Point"},"properties":{"osm_id":"4921696135","tag":{"amenity":"waste_basket","survey:date":"2017-06-17"}},"type":"Feature"},
	{"geometry":{"coordinates":[9.891893,51.536916],"type":"Point"},"properties":{"osm_id":"4921794725","tag":{"amenity":"waste_basket","survey:date":"2017-06-17"}},"type":"Feature"},
	{"geometry":{"coordinates":[9.891325,51.536419],"type":"Point"},"properties":{"osm_id":"4921794728","tag":{"amenity":"waste_basket","survey:date":"2017-06-17"}},"type":"Feature"},
	{"geometry":{"coordinates":[9.890949,51.536343],"type":"Point"},"properties":{"osm_id":"4921794730","tag":{"amenity":"waste_basket","survey:date":"2017-06-17"}},"type":"Feature"},
	{"geometry":{"coordinates":[9.891128,51.536734],"type":"Point"},"properties":{"osm_id":"4921794735","tag":{"amenity":"waste_basket","survey:date":"2017-06-17"}},"type":"Feature"},
	{"geometry":{"coordinates":[9.890889,51.537024],"type":"Point"},"properties":{"osm_id":"4921794739","tag":{"amenity":"waste_basket","survey:date":"2017-06-17"}},"type":"Feature"},
	{"geometry":{"coordinates":[9.892089,51.537261],"type":"Point"},"properties":{"osm_id":"4921794743","tag":{"amenity":"waste_basket","survey:date":"2017-06-17"}},"type":"Feature"},
	{"geometry":{"coordinates":[9.892322,51.536767],"type":"Point"},"properties":{"osm_id":"4921794744","tag":{"amenity":"waste_basket","survey:date":"2017-06-17"}},"type":"Feature"},
	{"geometry":{"coordinates":[9.892048,51.536535],"type":"Point"},"properties":{"osm_id":"4921794746","tag":{"amenity":"waste_basket","survey:date":"2017-06-17"}},"type":"Feature"},
	{"geometry":{"coordinates":[9.89201,51.536281],"type":"Point"},"properties":{"osm_id":"4921794748","tag":{"amenity":"waste_basket","survey:date":"2017-06-17"}},"type":"Feature"},
	{"geometry":{"coordinates":[9.893158,51.536339],"type":"Point"},"properties":{"osm_id":"4921794750","tag":{"amenity":"waste_basket","survey:date":"2017-06-17"}},"type":"Feature"},
	{"geometry":{"coordinates":[9.892815,51.536376],"type":"Point"},"properties":{"osm_id":"4921794752","tag":{"amenity":"waste_basket","survey:date":"2017-06-17"}},"type":"Feature"},
	{"geometry":{"coordinates":[9.892508,51.537003],"type":"Point"},"properties":{"osm_id":"4921794755","tag":{"amenity":"waste_basket","survey:date":"2017-06-17"}},"type":"Feature"},
	{"geometry":{"coordinates":[9.892844,51.537431],"type":"Point"},"properties":{"osm_id":"4921794756","tag":{"amenity":"waste_basket","survey:date":"2017-06-17"}},"type":"Feature"},
	{"geometry":{"coordinates":[9.893045,51.537005],"type":"Point"},"properties":{"osm_id":"4921794758","tag":{"amenity":"waste_basket","survey:date":"2017-06-17"}},"type":"Feature"},
	{"geometry":{"coordinates":[9.893497,51.536015],"type":"Point"},"properties":{"osm_id":"4921794790","tag":{"amenity":"waste_basket","survey:date":"2017-06-17"}},"type":"Feature"},
	{"geometry":{"coordinates":[9.892557,51.539819],"type":"Point"},"properties":{"osm_id":"4921813336","tag":{"amenity":"recycling","operator":"Deutsche Gewerkschaft f\u00c3\u00bcr Recycling mbH","recycling:clothes":"yes","recycling:shoes":"yes","recycling_type":"container","survey:date":"2019-04-20"}},"type":"Feature"},
	{"geometry":{"coordinates":[9.928055,51.536941],"type":"Point"},"properties":{"osm_id":"4921885723","tag":{"amenity":"waste_basket","survey:date":"2017-06-17"}},"type":"Feature"},
	{"geometry":{"coordinates":[9.927868,51.53701],"type":"Point"},"properties":{"osm_id":"4921885725","tag":{"amenity":"waste_basket","survey:date":"2017-06-17"}},"type":"Feature"},
	{"geometry":{"coordinates":[9.927257,51.536798],"type":"Point"},"properties":{"osm_id":"4921885729","tag":{"amenity":"waste_basket","survey:date":"2017-06-17"}},"type":"Feature"},
	{"geometry":{"coordinates":[9.902934,51.534444],"type":"Point"},"properties":{"osm_id":"4921891953","tag":{"amenity":"waste_basket","survey:date":"2017-06-17"}},"type":"Feature"},
	{"geometry":{"coordinates":[9.914265,51.540165],"type":"Point"},"properties":{"osm_id":"5003922730","tag":{"amenity":"waste_basket"}},"type":"Feature"},
	{"geometry":{"coordinates":[9.927788,51.519168],"type":"Point"},"properties":{"osm_id":"5003940043","tag":{"amenity":"waste_basket","survey:date":"2017-06-23"}},"type":"Feature"},
	{"geometry":{"coordinates":[9.927767,51.519103],"type":"Point"},"properties":{"osm_id":"5003940044","tag":{"amenity":"waste_basket","survey:date":"2017-06-23"}},"type":"Feature"},
	{"geometry":{"coordinates":[9.915958,51.523339],"type":"Point"},"properties":{"osm_id":"5171281006","tag":{"amenity":"waste_basket"}},"type":"Feature"},
	{"geometry":{"coordinates":[9.922172,51.537822],"type":"Point"},"properties":{"osm_id":"5172950360","tag":{"amenity":"waste_basket","survey:date":"2017-10-16"}},"type":"Feature"},
	{"geometry":{"coordinates":[9.921529,51.538057],"type":"Point"},"properties":{"osm_id":"5172950361","tag":{"amenity":"waste_basket","survey:date":"2017-10-16"}},"type":"Feature"},
	{"geometry":{"coordinates":[9.924268,51.535801],"type":"Point"},"properties":{"osm_id":"5172950368","tag":{"amenity":"waste_basket","survey:date":"2017-10-16"}},"type":"Feature"},
	{"geometry":{"coordinates":[9.89723,51.544378],"type":"Point"},"properties":{"osm_id":"5172975835","tag":{"amenity":"waste_basket","survey:date":"2017-10-16"}},"type":"Feature"},
	{"geometry":{"coordinates":[9.891769,51.553826],"type":"Point"},"properties":{"osm_id":"5172987080","tag":{"amenity":"waste_basket","survey:date":"2017-10-16"}},"type":"Feature"},
	{"geometry":{"coordinates":[9.912008,51.554074],"type":"Point"},"properties":{"osm_id":"5173329323","tag":{"amenity":"waste_basket","survey:date":"2017-10-17","waste":"ash"}},"type":"Feature"},
	{"geometry":{"coordinates":[9.908467,51.5535],"type":"Point"},"properties":{"osm_id":"5177329408","tag":{"amenity":"waste_basket","survey:date":"2017-10-19"}},"type":"Feature"},
	{"geometry":{"coordinates":[9.924311,51.547187],"type":"Point"},"properties":{"osm_id":"5256340853","tag":{"amenity":"waste_basket"}},"type":"Feature"},
	{"geometry":{"coordinates":[9.924972,51.546525],"type":"Point"},"properties":{"osm_id":"5256340854","tag":{"amenity":"waste_basket","survey:date":"2018-02-08"}},"type":"Feature"},
	{"geometry":{"coordinates":[9.918462,51.54379],"type":"Point"},"properties":{"osm_id":"5314896575","tag":{"amenity":"waste_basket","survey:date":"2017-12-24"}},"type":"Feature"},
	{"geometry":{"coordinates":[9.929348,51.538429],"type":"Point"},"properties":{"osm_id":"5340535418","tag":{"amenity":"waste_basket","survey:date":"2018-01-14"}},"type":"Feature"},
	{"geometry":{"coordinates":[9.920776,51.538777],"type":"Point"},"properties":{"osm_id":"5350018299","tag":{"amenity":"waste_basket","material":"metal"}},"type":"Feature"},
	{"geometry":{"coordinates":[9.920362,51.539276],"type":"Point"},"properties":{"osm_id":"5350018300","tag":{"amenity":"waste_basket","material":"metal"}},"type":"Feature"},
	{"geometry":{"coordinates":[9.920362,51.540669],"type":"Point"},"properties":{"osm_id":"5350018301","tag":{"amenity":"waste_basket","material":"metal","survey:date":"2020-03-08"}},"type":"Feature"},
	{"geometry":{"coordinates":[9.90349,51.544],"type":"Point"},"properties":{"osm_id":"5404053062","tag":{"amenity":"waste_basket","survey:date":"2018-02-10"}},"type":"Feature"},
	{"geometry":{"coordinates":[9.92223,51.527094],"type":"Point"},"properties":{"osm_id":"5420930839","tag":{"amenity":"waste_basket"}},"type":"Feature"},
	{"geometry":{"coordinates":[9.888191,51.547988],"type":"Point"},"properties":{"osm_id":"5556413477","tag":{"amenity":"waste_basket"}},"type":"Feature"},
	{"geometry":{"coordinates":[9.920083,51.524101],"type":"Point"},"properties":{"osm_id":"5611412199","tag":{"amenity":"waste_basket","survey:date":"2018-05-10"}},"type":"Feature"},
	{"geometry":{"coordinates":[9.921049,51.530498],"type":"Point"},"properties":{"osm_id":"5611412209","tag":{"amenity":"waste_basket","survey:date":"2018-05-10","waste":"ash"}},"type":"Feature"},
	{"geometry":{"coordinates":[9.909904,51.544747],"type":"Point"},"properties":{"osm_id":"5625605426","tag":{"amenity":"waste_basket","survey:date":"2020-04-27","waste":"ash"}},"type":"Feature"},
	{"geometry":{"coordinates":[9.889601,51.561741],"type":"Point"},"properties":{"osm_id":"5722902745","tag":{"amenity":"recycling","operator":"RMK Recycling GmbH","recycling:clothes":"yes","recycling:shoes":"yes","recycling_type":"container","survey:date":"2019-04-22"}},"type":"Feature"},
	{"geometry":{"coordinates":[9.928789,51.560084],"type":"Point"},"properties":{"osm_id":"5749739454","tag":{"amenity":"waste_basket","survey:date":"2018-07-08"}},"type":"Feature"},
	{"geometry":{"coordinates":[9.930096,51.559802],"type":"Point"},"properties":{"osm_id":"5749739455","tag":{"amenity":"waste_basket","survey:date":"2018-07-08"}},"type":"Feature"},
	{"geometry":{"coordinates":[9.862179,51.533938],"type":"Point"},"properties":{"osm_id":"5941310419","tag":{"amenity":"recycling","recycling:green_waste":"yes","recycling_type":"container","survey:date":"2018-09-30"}},"type":"Feature"},
	{"geometry":{"coordinates":[9.926108,51.533605],"type":"Point"},"properties":{"osm_id":"6140233557","tag":{"amenity":"waste_basket","survey:date":"2018-12-13"}},"type":"Feature"},
	{"geometry":{"coordinates":[9.925956,51.533624],"type":"Point"},"properties":{"osm_id":"6140233558","tag":{"amenity":"waste_basket","survey:date":"2018-12-13"}},"type":"Feature"},
	{"geometry":{"coordinates":[9.928939,51.520083],"type":"Point"},"properties":{"osm_id":"6140800787","tag":{"amenity":"waste_basket","survey:date":"2018-12-16"}},"type":"Feature"},
	{"geometry":{"coordinates":[9.930876,51.550037],"type":"Point"},"properties":{"osm_id":"6221579068","tag":{"amenity":"waste_basket","survey:date":"2019-01-19"}},"type":"Feature"},
	{"geometry":{"coordinates":[9.930953,51.550182],"type":"Point"},"properties":{"osm_id":"6221579069","tag":{"amenity":"waste_basket","survey:date":"2019-01-19"}},"type":"Feature"},
	{"geometry":{"coordinates":[9.894021,51.533562],"type":"Point"},"properties":{"osm_id":"6277540933","tag":{"amenity":"waste_basket","survey:date":"2019-02-13"}},"type":"Feature"},
	{"geometry":{"coordinates":[9.916775,51.523521],"type":"Point"},"properties":{"osm_id":"6279795441","tag":{"amenity":"waste_basket","survey:date":"2019-02-14"}},"type":"Feature"},
	{"geometry":{"coordinates":[9.89854,51.550103],"type":"Point"},"properties":{"osm_id":"6284799183","tag":{"amenity":"recycling","operator":"Darbo Recycling","recycling:clothes":"yes","recycling:shoes":"yes","recycling_type":"container","survey:date":"2019-02-17"}},"type":"Feature"},
	{"geometry":{"coordinates":[9.898532,51.55],"type":"Point"},"properties":{"osm_id":"6284799184","tag":{"amenity":"recycling","recycling:clothes":"yes","recycling:shoes":"yes","recycling_type":"container","survey:date":"2019-02-17"}},"type":"Feature"},
	{"geometry":{"coordinates":[9.922969,51.53777],"type":"Point"},"properties":{"osm_id":"6298777213","tag":{"amenity":"waste_basket","survey:date":"2019-02-23"}},"type":"Feature"},
	{"geometry":{"coordinates":[9.920471,51.542155],"type":"Point"},"properties":{"osm_id":"6298777240","tag":{"amenity":"waste_basket","survey:date":"2019-02-23"}},"type":"Feature"},
	{"geometry":{"coordinates":[9.920888,51.542447],"type":"Point"},"properties":{"osm_id":"6298777242","tag":{"amenity":"waste_basket","survey:date":"2019-02-23"}},"type":"Feature"},
	{"geometry":{"coordinates":[9.910178,51.543728],"type":"Point"},"properties":{"osm_id":"6414216480","tag":{"amenity":"waste_basket","survey:date":"2019-04-17"}},"type":"Feature"},
	{"geometry":{"coordinates":[9.903669,51.542082],"type":"Point"},"properties":{"osm_id":"6420460492","tag":{"amenity":"waste_basket","survey:date":"2019-04-20"}},"type":"Feature"},
	{"geometry":{"coordinates":[9.903651,51.542123],"type":"Point"},"properties":{"osm_id":"6420460493","tag":{"amenity":"waste_basket","survey:date":"2019-04-20"}},"type":"Feature"},
	{"geometry":{"coordinates":[9.903485,51.542071],"type":"Point"},"properties":{"osm_id":"6420460495","tag":{"amenity":"waste_basket","survey:date":"2019-04-20"}},"type":"Feature"},
	{"geometry":{"coordinates":[9.908467,51.542067],"type":"Point"},"properties":{"osm_id":"6420538686","tag":{"amenity":"waste_basket","survey:date":"2019-04-20"}},"type":"Feature"},
	{"geometry":{"coordinates":[9.908676,51.541869],"type":"Point"},"properties":{"osm_id":"6420538688","tag":{"amenity":"waste_basket","survey:date":"2019-04-20"}},"type":"Feature"},
	{"geometry":{"coordinates":[9.910364,51.54277],"type":"Point"},"properties":{"osm_id":"6420538711","tag":{"amenity":"waste_basket","survey:date":"2019-04-20"}},"type":"Feature"},
	{"geometry":{"coordinates":[9.91043,51.542482],"type":"Point"},"properties":{"osm_id":"6420538712","tag":{"amenity":"waste_basket","survey:date":"2019-04-20"}},"type":"Feature"},
	{"geometry":{"coordinates":[9.909264,51.542057],"type":"Point"},"properties":{"osm_id":"6420538713","tag":{"amenity":"waste_basket","survey:date":"2019-04-20"}},"type":"Feature"},
	{"geometry":{"coordinates":[9.909174,51.542343],"type":"Point"},"properties":{"osm_id":"6420538714","tag":{"amenity":"waste_basket","survey:date":"2019-04-20"}},"type":"Feature"},
	{"geometry":{"coordinates":[9.909179,51.542168],"type":"Point"},"properties":{"osm_id":"6420538715","tag":{"amenity":"waste_basket","survey:date":"2019-04-20"}},"type":"Feature"},
	{"geometry":{"coordinates":[9.909183,51.542082],"type":"Point"},"properties":{"osm_id":"6420538716","tag":{"amenity":"waste_basket","survey:date":"2019-04-20"}},"type":"Feature"},
	{"geometry":{"coordinates":[9.904863,51.542065],"type":"Point"},"properties":{"osm_id":"6420538785","tag":{"amenity":"waste_basket","survey:date":"2019-04-20"}},"type":"Feature"},
	{"geometry":{"coordinates":[9.931293,51.510183],"type":"Point"},"properties":{"osm_id":"6773278999","tag":{"amenity":"waste_basket","survey:date":"2019-09-04"}},"type":"Feature"},
	{"geometry":{"coordinates":[9.922921,51.539594],"type":"Point"},"properties":{"osm_id":"6885935538","tag":{"amenity":"waste_basket","survey:date":"2019-09-15"}},"type":"Feature"},
	{"geometry":{"coordinates":[9.922982,51.539407],"type":"Point"},"properties":{"osm_id":"6885935542","tag":{"amenity":"waste_basket","survey:date":"2019-09-15"}},"type":"Feature"},
	{"geometry":{"coordinates":[9.92324,51.538939],"type":"Point"},"properties":{"osm_id":"6885935554","tag":{"amenity":"waste_basket","survey:date":"2019-09-15"}},"type":"Feature"},
	{"geometry":{"coordinates":[9.922631,51.539016],"type":"Point"},"properties":{"osm_id":"6885935556","tag":{"amenity":"waste_basket","survey:date":"2019-09-15"}},"type":"Feature"},
	{"geometry":{"coordinates":[9.922777,51.539119],"type":"Point"},"properties":{"osm_id":"6885935560","tag":{"amenity":"waste_basket","survey:date":"2019-09-15"}},"type":"Feature"},
	{"geometry":{"coordinates":[9.922292,51.539342],"type":"Point"},"properties":{"osm_id":"6885935562","tag":{"amenity":"waste_basket","survey:date":"2019-09-15"}},"type":"Feature"},
	{"geometry":{"coordinates":[9.922849,51.539519],"type":"Point"},"properties":{"osm_id":"6885935564","tag":{"amenity":"waste_basket","survey:date":"2019-09-15"}},"type":"Feature"},
	{"geometry":{"coordinates":[9.903834,51.545108],"type":"Point"},"properties":{"osm_id":"7094041206","tag":{"amenity":"recycling","recycling:glass":"no","recycling:glass_bottles":"yes","recycling_type":"container","survey:date":"2019-11-30"}},"type":"Feature"},
	{"geometry":{"coordinates":[9.917394,51.513327],"type":"Point"},"properties":{"osm_id":"7134857017","tag":{"amenity":"waste_basket","survey:date":"2020-01-15"}},"type":"Feature"},
	{"geometry":{"coordinates":[9.91238,51.512538],"type":"Point"},"properties":{"osm_id":"7134879235","tag":{"amenity":"waste_basket","survey:date":"2020-01-15"}},"type":"Feature"},
	{"geometry":{"coordinates":[9.913873,51.513494],"type":"Point"},"properties":{"osm_id":"7134879243","tag":{"amenity":"waste_basket","survey:date":"2020-01-15"}},"type":"Feature"},
	{"geometry":{"coordinates":[9.912954,51.513394],"type":"Point"},"properties":{"osm_id":"7134879248","tag":{"amenity":"waste_basket","survey:date":"2020-01-15"}},"type":"Feature"},
	{"geometry":{"coordinates":[9.900941,51.510236],"type":"Point"},"properties":{"osm_id":"7135829570","tag":{"amenity":"waste_basket","survey:date":"2020-01-15"}},"type":"Feature"},
	{"geometry":{"coordinates":[9.895137,51.511173],"type":"Point"},"properties":{"osm_id":"7135829603","tag":{"amenity":"waste_basket","survey:date":"2020-01-15"}},"type":"Feature"},
	{"geometry":{"coordinates":[9.907399,51.510709],"type":"Point"},"properties":{"osm_id":"7135829779","tag":{"amenity":"recycling","operator":"Darbo Recycling","recycling:clothes":"yes","recycling:shoes":"yes","recycling_type":"container","survey:date":"2020-01-15"}},"type":"Feature"},
	{"geometry":{"coordinates":[9.920898,51.542246],"type":"Point"},"properties":{"osm_id":"7248469390","tag":{"amenity":"waste_basket","survey:date":"2020-02-27"}},"type":"Feature"},
	{"geometry":{"coordinates":[9.910779,51.54784],"type":"Point"},"properties":{"osm_id":"7248469418","tag":{"amenity":"recycling","recycling:clothes":"yes","recycling:shoes":"yes","recycling_type":"container","survey:date":"2020-02-27"}},"type":"Feature"},
	{"geometry":{"coordinates":[9.914587,51.548447],"type":"Point"},"properties":{"osm_id":"7248469427","tag":{"amenity":"waste_basket","survey:date":"2020-02-27"}},"type":"Feature"},
	{"geometry":{"coordinates":[9.922119,51.547834],"type":"Point"},"properties":{"osm_id":"7248469454","tag":{"amenity":"waste_basket","survey:date":"2020-02-27"}},"type":"Feature"},
	{"geometry":{"coordinates":[9.921379,51.548083],"type":"Point"},"properties":{"osm_id":"7248469456","tag":{"amenity":"waste_basket","survey:date":"2020-02-27"}},"type":"Feature"},
	{"geometry":{"coordinates":[9.916025,51.535232],"type":"Point"},"properties":{"osm_id":"7253369601","tag":{"amenity":"waste_basket","survey:date":"2020-02-29"}},"type":"Feature"},
	{"geometry":{"coordinates":[9.919719,51.538235],"type":"Point"},"properties":{"osm_id":"7276645097","tag":{"amenity":"waste_basket","survey:date":"2020-03-08"}},"type":"Feature"},
	{"geometry":{"coordinates":[9.919406,51.540555],"type":"Point"},"properties":{"osm_id":"7276645163","tag":{"amenity":"waste_basket","survey:date":"2020-03-08"}},"type":"Feature"},
	{"geometry":{"coordinates":[9.921122,51.528912],"type":"Point"},"properties":{"osm_id":"7276645245","tag":{"amenity":"waste_basket","survey:date":"2020-03-08"}},"type":"Feature"},
	{"geometry":{"coordinates":[9.924015,51.52616],"type":"Point"},"properties":{"osm_id":"7276645268","tag":{"amenity":"waste_basket","survey:date":"2020-03-08"}},"type":"Feature"},
	{"geometry":{"coordinates":[9.923474,51.527364],"type":"Point"},"properties":{"osm_id":"7276645272","tag":{"amenity":"waste_basket","survey:date":"2020-03-08"}},"type":"Feature"},
	{"geometry":{"coordinates":[9.912141,51.551044],"type":"Point"},"properties":{"osm_id":"7310533068","tag":{"amenity":"waste_basket","survey:date":"2020-03-19"}},"type":"Feature"},
	{"geometry":{"coordinates":[9.908126,51.553249],"type":"Point"},"properties":{"osm_id":"7310613198","tag":{"amenity":"recycling","operator":"GEB","recycling:clothes":"yes","recycling:shoes":"yes","recycling_type":"container","survey:date":"2020-03-19"}},"type":"Feature"},
	{"geometry":{"coordinates":[9.929248,51.518524],"type":"Point"},"properties":{"osm_id":"7311977843","tag":{"amenity":"waste_basket","survey:date":"2020-03-19"}},"type":"Feature"},
	{"geometry":{"coordinates":[9.929542,51.518375],"type":"Point"},"properties":{"osm_id":"7311977848","tag":{"amenity":"waste_basket","survey:date":"2020-03-19"}},"type":"Feature"},
	{"geometry":{"coordinates":[9.896188,51.53166],"type":"Point"},"properties":{"osm_id":"7316335084","tag":{"amenity":"waste_basket","survey:date":"2020-03-21"}},"type":"Feature"},
	{"geometry":{"coordinates":[9.904549,51.561401],"type":"Point"},"properties":{"osm_id":"7318268918","tag":{"amenity":"waste_basket","survey:date":"2020-03-21"}},"type":"Feature"},
	{"geometry":{"coordinates":[9.902642,51.559648],"type":"Point"},"properties":{"osm_id":"7318269250","tag":{"amenity":"waste_basket","material":"metal","survey:date":"2020-03-21"}},"type":"Feature"},
	{"geometry":{"coordinates":[9.902008,51.535548],"type":"Point"},"properties":{"osm_id":"7360122361","tag":{"amenity":"waste_basket","material":"metal","support":"pole","survey:date":"2020-04-01"}},"type":"Feature"},
	{"geometry":{"coordinates":[9.900812,51.536326],"type":"Point"},"properties":{"osm_id":"7360122367","tag":{"amenity":"waste_basket","material":"metal","support":"pole","survey:date":"2020-04-01"}},"type":"Feature"},
	{"geometry":{"coordinates":[9.896859,51.536444],"type":"Point"},"properties":{"osm_id":"7360130596","tag":{"amenity":"waste_basket","survey:date":"2020-04-01"}},"type":"Feature"},
	{"geometry":{"coordinates":[9.903595,51.526811],"type":"Point"},"properties":{"osm_id":"7367351557","tag":{"amenity":"waste_basket","survey:date":"2020-04-04","waste":"ash"}},"type":"Feature"},
	{"geometry":{"coordinates":[9.872369,51.547805],"type":"Point"},"properties":{"osm_id":"7373192795","tag":{"amenity":"waste_basket","material":"metal","survey:date":"2020-04-06"}},"type":"Feature"},
	{"geometry":{"coordinates":[9.872515,51.547676],"type":"Point"},"properties":{"osm_id":"7373192803","tag":{"amenity":"waste_basket","material":"metal","survey:date":"2020-04-06"}},"type":"Feature"},
	{"geometry":{"coordinates":[9.8738,51.548716],"type":"Point"},"properties":{"osm_id":"7373192814","tag":{"amenity":"waste_basket","material":"metal","survey:date":"2020-04-06"}},"type":"Feature"},
	{"geometry":{"coordinates":[9.895101,51.508747],"type":"Point"},"properties":{"osm_id":"7492455133","tag":{"amenity":"waste_basket","survey:date":"2020-05-06"}},"type":"Feature"},
	{"geometry":{"coordinates":[9.924101,51.517884],"type":"Point"},"properties":{"osm_id":"7544923600","tag":{"amenity":"waste_basket","material":"metal","survey:date":"2020-05-20"}},"type":"Feature"},
	{"geometry":{"coordinates":[9.920258,51.520543],"type":"Point"},"properties":{"osm_id":"7544923612","tag":{"amenity":"waste_basket","material":"metal","survey:date":"2020-05-20"}},"type":"Feature"},
	{"geometry":{"coordinates":[9.916304,51.512294],"type":"Point"},"properties":{"osm_id":"7544923614","tag":{"amenity":"waste_basket","material":"metal","survey:date":"2020-05-20"}},"type":"Feature"},
	{"geometry":{"coordinates":[9.917879,51.524987],"type":"Point"},"properties":{"osm_id":"7732359527","tag":{"amenity":"waste_basket","material":"metal","survey:date":"2020-07-19"}},"type":"Feature"},
	{"geometry":{"coordinates":[9.898431,51.539055],"type":"Point"},"properties":{"osm_id":"7799312360","tag":{"amenity":"waste_basket","material":"metal","support":"pole","survey:date":"2020-08-09"}},"type":"Feature"},
	{"geometry":{"coordinates":[9.894776,51.537604],"type":"Point"},"properties":{"osm_id":"7799312362","tag":{"amenity":"waste_basket","material":"metal","survey:date":"2020-08-09"}},"type":"Feature"},
	{"geometry":{"coordinates":[9.897253,51.540069],"type":"Point"},"properties":{"osm_id":"7799312363","tag":{"amenity":"waste_basket","material":"metal","support":"pole","survey:date":"2020-08-09"}},"type":"Feature"},
	{"geometry":{"coordinates":[9.906199,51.509092],"type":"Point"},"properties":{"osm_id":"7841336499","tag":{"amenity":"recycling","recycling:clothes":"yes","recycling:shoes":"yes","recycling_type":"container","survey:date":"2020-08-24"}},"type":"Feature"},
	{"geometry":{"coordinates":[9.884469,51.547015],"type":"Point"},"properties":{"name":"W. Morawietz GmbH","osm_id":"7857201637","tag":{"amenity":"recycling","contact:phone":"+49 551 29348695","contact:website":"http://morawietz-gmbh.de/","description":"\"Dienstleistungen im Bereich Recycling, Lagerung und Umschlag von fl\u00c3\u00bcssigen Abf\u00c3\u00a4llen, wie Alt\u00c3\u00b6len und gebrauchten L\u00c3\u00b6sungsmitteln\"","recycling:engine_oil":"yes","recycling:paint":"yes","recycling_type":"centre","survey:date":"2015-10-07"}},"type":"Feature"},
	{"geometry":{"coordinates":[9.910702,51.54267],"type":"Point"},"properties":{"osm_id":"7857222950","tag":{"amenity":"waste_basket","material":"metal","survey:date":"2020-08-29"}},"type":"Feature"}
]
}
