{
"type": "FeatureCollection",
"features": [
	{"geometry":{"coordinates":[9.902498,51.443193],"type":"Point"},"properties":{"osm_id":"181304293","tag":{"amenity":"recycling","recycling:glass_bottles":"yes","recycling_type":"container"}},"type":"Feature"},
	{"geometry":{"coordinates":[9.912345,51.416012],"type":"Point"},"properties":{"osm_id":"300810352","tag":{"amenity":"recycling","recycling:glass_bottles":"yes","recycling_type":"container"}},"type":"Feature"},
	{"geometry":{"coordinates":[9.900889,51.408638],"type":"Point"},"properties":{"osm_id":"540332899","tag":{"amenity":"recycling","recycling:clothes":"yes","recycling:glass":"yes","recycling:glass_bottles":"yes","recycling:shoes":"yes","recycling_type":"container","survey:date":"2016-02-23"}},"type":"Feature"},
	{"geometry":{"coordinates":[9.863427,51.42094],"type":"Point"},"properties":{"osm_id":"567541466","tag":{"amenity":"recycling","recycling:glass":"yes"}},"type":"Feature"},
	{"geometry":{"coordinates":[9.912891,51.420034],"type":"Point"},"properties":{"osm_id":"568763911","tag":{"amenity":"recycling","recycling:clothes":"yes","recycling:glass":"yes","recycling_type":"container"}},"type":"Feature"},
	{"geometry":{"coordinates":[9.864931,51.433925],"type":"Point"},"properties":{"osm_id":"2036019820","tag":{"amenity":"recycling","recycling_type":"container"}},"type":"Feature"},
	{"geometry":{"coordinates":[9.864352,51.433296],"type":"Point"},"properties":{"osm_id":"2036019867","tag":{"amenity":"recycling","recycling_type":"container"}},"type":"Feature"},
	{"geometry":{"coordinates":[9.908843,51.415367],"type":"Point"},"properties":{"osm_id":"3494561122","tag":{"amenity":"waste_basket","survey:date":"2015-04-13"}},"type":"Feature"},
	{"geometry":{"coordinates":[9.90967,51.415676],"type":"Point"},"properties":{"osm_id":"3494561134","tag":{"amenity":"waste_basket","survey:date":"2015-04-13"}},"type":"Feature"},
	{"geometry":{"coordinates":[9.908145,51.415711],"type":"Point"},"properties":{"osm_id":"3494561139","tag":{"amenity":"waste_basket","survey:date":"2015-04-13"}},"type":"Feature"},
	{"geometry":{"coordinates":[9.90949,51.415738],"type":"Point"},"properties":{"osm_id":"3494561143","tag":{"amenity":"waste_basket","survey:date":"2015-04-13"}},"type":"Feature"},
	{"geometry":{"coordinates":[9.9083,51.416041],"type":"Point"},"properties":{"osm_id":"3494561148","tag":{"amenity":"waste_basket","survey:date":"2015-04-13"}},"type":"Feature"},
	{"geometry":{"coordinates":[9.906994,51.416127],"type":"Point"},"properties":{"osm_id":"3494561153","tag":{"amenity":"waste_basket","survey:date":"2015-04-13"}},"type":"Feature"},
	{"geometry":{"coordinates":[9.908629,51.416144],"type":"Point"},"properties":{"osm_id":"3494561157","tag":{"amenity":"waste_basket","survey:date":"2015-04-13"}},"type":"Feature"},
	{"geometry":{"coordinates":[9.907706,51.416152],"type":"Point"},"properties":{"osm_id":"3494561160","tag":{"amenity":"waste_basket","survey:date":"2015-04-13"}},"type":"Feature"},
	{"geometry":{"coordinates":[9.931479,51.438552],"type":"Point"},"properties":{"osm_id":"3922290813","tag":{"amenity":"waste_basket","survey:date":"2020-07-26"}},"type":"Feature"},
	{"geometry":{"coordinates":[9.888985,51.423082],"type":"Point"},"properties":{"osm_id":"3922338293","tag":{"amenity":"recycling","recycling:glass_bottles":"yes","recycling_type":"container","survey:date":"2016-01-01"}},"type":"Feature"},
	{"geometry":{"coordinates":[9.867279,51.446029],"type":"Point"},"properties":{"osm_id":"4095690581","tag":{"amenity":"waste_basket","survey:date":"2016-04-03"}},"type":"Feature"},
	{"geometry":{"coordinates":[9.915468,51.421005],"type":"Point"},"properties":{"osm_id":"5109618735","tag":{"amenity":"waste_basket","survey:date":"2017-09-10"}},"type":"Feature"},
	{"geometry":{"coordinates":[9.915823,51.421016],"type":"Point"},"properties":{"osm_id":"5109618764","tag":{"amenity":"waste_basket","survey:date":"2017-09-10"}},"type":"Feature"},
	{"geometry":{"coordinates":[9.915514,51.421285],"type":"Point"},"properties":{"osm_id":"5109618796","tag":{"amenity":"waste_basket","survey:date":"2017-09-10"}},"type":"Feature"},
	{"geometry":{"coordinates":[9.914472,51.4214],"type":"Point"},"properties":{"osm_id":"5109618821","tag":{"amenity":"waste_basket","survey:date":"2017-09-10"}},"type":"Feature"},
	{"geometry":{"coordinates":[9.914472,51.421356],"type":"Point"},"properties":{"osm_id":"5109618822","tag":{"amenity":"waste_basket","survey:date":"2017-09-10"}},"type":"Feature"},
	{"geometry":{"coordinates":[9.914735,51.421276],"type":"Point"},"properties":{"osm_id":"5109618823","tag":{"amenity":"waste_basket","survey:date":"2017-09-10"}},"type":"Feature"},
	{"geometry":{"coordinates":[9.914901,51.421271],"type":"Point"},"properties":{"osm_id":"5109618824","tag":{"amenity":"waste_basket","survey:date":"2017-09-10"}},"type":"Feature"},
	{"geometry":{"coordinates":[9.915119,51.421102],"type":"Point"},"properties":{"osm_id":"5109618825","tag":{"amenity":"waste_basket","survey:date":"2017-09-10"}},"type":"Feature"},
	{"geometry":{"coordinates":[9.915087,51.421012],"type":"Point"},"properties":{"osm_id":"5109618843","tag":{"amenity":"waste_basket","survey:date":"2017-09-10"}},"type":"Feature"},
	{"geometry":{"coordinates":[9.913717,51.422502],"type":"Point"},"properties":{"osm_id":"5109618852","tag":{"amenity":"waste_basket","survey:date":"2017-09-10"}},"type":"Feature"},
	{"geometry":{"coordinates":[9.912752,51.422878],"type":"Point"},"properties":{"osm_id":"5109618897","tag":{"amenity":"waste_basket","survey:date":"2017-09-10"}},"type":"Feature"},
	{"geometry":{"coordinates":[9.912667,51.422887],"type":"Point"},"properties":{"osm_id":"5109618899","tag":{"amenity":"waste_basket","survey:date":"2017-09-10"}},"type":"Feature"},
	{"geometry":{"coordinates":[9.912348,51.422711],"type":"Point"},"properties":{"osm_id":"5109618900","tag":{"amenity":"waste_basket","survey:date":"2017-09-10"}},"type":"Feature"},
	{"geometry":{"coordinates":[9.882329,51.453228],"type":"Point"},"properties":{"osm_id":"5611566904","tag":{"amenity":"waste_basket","survey:date":"2018-05-06"}},"type":"Feature"},
	{"geometry":{"coordinates":[9.882461,51.453064],"type":"Point"},"properties":{"osm_id":"5611566905","tag":{"amenity":"waste_basket","survey:date":"2018-05-06"}},"type":"Feature"},
	{"geometry":{"coordinates":[9.878434,51.451982],"type":"Point"},"properties":{"osm_id":"5611566915","tag":{"amenity":"waste_basket","survey:date":"2018-05-06"}},"type":"Feature"},
	{"geometry":{"coordinates":[9.874963,51.452961],"type":"Point"},"properties":{"osm_id":"5611635723","tag":{"amenity":"waste_basket","survey:date":"2018-05-06"}},"type":"Feature"},
	{"geometry":{"coordinates":[9.875553,51.452696],"type":"Point"},"properties":{"osm_id":"5611635730","tag":{"amenity":"waste_basket","survey:date":"2018-05-06"}},"type":"Feature"},
	{"geometry":{"coordinates":[9.875522,51.452846],"type":"Point"},"properties":{"osm_id":"5611635731","tag":{"amenity":"waste_basket","survey:date":"2018-05-06"}},"type":"Feature"},
	{"geometry":{"coordinates":[9.875443,51.452821],"type":"Point"},"properties":{"osm_id":"5611635733","tag":{"amenity":"waste_basket","survey:date":"2018-05-06"}},"type":"Feature"},
	{"geometry":{"coordinates":[9.858478,51.425702],"type":"Point"},"properties":{"osm_id":"5865385398","tag":{"amenity":"waste_basket","survey:date":"2018-08-26"}},"type":"Feature"},
	{"geometry":{"coordinates":[9.904316,51.443998],"type":"Point"},"properties":{"osm_id":"6943383970","tag":{"amenity":"waste_basket"}},"type":"Feature"},
	{"geometry":{"coordinates":[9.912234,51.421281],"type":"Point"},"properties":{"osm_id":"7096679932","tag":{"amenity":"waste_basket","survey:date":"2019-12-30"}},"type":"Feature"},
	{"geometry":{"coordinates":[9.912598,51.420758],"type":"Point"},"properties":{"osm_id":"7096679956","tag":{"amenity":"waste_basket","survey:date":"2019-12-30"}},"type":"Feature"},
	{"geometry":{"coordinates":[9.90605,51.416439],"type":"Point"},"properties":{"osm_id":"7483558518","tag":{"amenity":"waste_basket","waste":"trash"}},"type":"Feature"},
	{"geometry":{"coordinates":[9.906837,51.417236],"type":"Point"},"properties":{"osm_id":"7483558519","tag":{"amenity":"waste_basket","waste":"trash"}},"type":"Feature"},
	{"geometry":{"coordinates":[9.906515,51.417155],"type":"Point"},"properties":{"osm_id":"7483558520","tag":{"amenity":"waste_basket","waste":"trash"}},"type":"Feature"},
	{"geometry":{"coordinates":[9.931458,51.437617],"type":"Point"},"properties":{"osm_id":"7762884997","tag":{"amenity":"recycling","operator":"Volz GmbH","recycling:clothes":"yes","recycling:shoes":"yes","recycling_type":"container","survey:date":"2020-07-26"}},"type":"Feature"},
	{"geometry":{"coordinates":[9.930505,51.433978],"type":"Point"},"properties":{"osm_id":"7765764461","tag":{"amenity":"waste_basket","material":"metal","survey:date":"2020-07-26"}},"type":"Feature"},
	{"geometry":{"coordinates":[9.924136,51.438138],"type":"Point"},"properties":{"osm_id":"7833865160","tag":{"amenity":"waste_basket","material":"metal","survey:date":"2020-08-21"}},"type":"Feature"},
	{"geometry":{"coordinates":[9.924163,51.43834],"type":"Point"},"properties":{"osm_id":"7833865161","tag":{"amenity":"waste_basket","material":"metal","survey:date":"2020-08-21"}},"type":"Feature"},
	{"geometry":{"coordinates":[9.927077,51.438063],"type":"Point"},"properties":{"osm_id":"7833888744","ref":"171","tag":{"amenity":"recycling","operator":"Fehr","recycling:glass":"no","recycling:glass_bottles":"yes","recycling_type":"container","survey:date":"2020-08-21"}},"type":"Feature"}
]
}
