{
"type": "FeatureCollection",
"features": [
	{"geometry":{"coordinates":[9.862021,49.841545],"type":"Point"},"properties":{"osm_id":"248793107","tag":{"amenity":"recycling","mapillary":"MY5O8xCrARkg4V7fxY8iBw","recycling_type":"container","survey:date":"2018-09-16"}},"type":"Feature"},
	{"geometry":{"coordinates":[9.85914,49.84238],"type":"Point"},"properties":{"osm_id":"252790304","tag":{"amenity":"recycling","mapillary":"ZgA1RKUff7fFWvfsPHCeeA","recycling:glass":"yes","recycling_type":"container","survey:date":"2018-09-16"}},"type":"Feature"},
	{"geometry":{"coordinates":[9.846187,49.859113],"type":"Point"},"properties":{"osm_id":"310038252","tag":{"amenity":"recycling","mapillary":"KvsEFiEpdy5JW06myUU7PQ","recycling_type":"container","survey:date":"2019-08-22"}},"type":"Feature"},
	{"geometry":{"coordinates":[9.907787,49.874107],"type":"Point"},"properties":{"osm_id":"380536804","tag":{"amenity":"recycling","recycling:glass":"yes"}},"type":"Feature"},
	{"geometry":{"coordinates":[9.898427,49.872133],"type":"Point"},"properties":{"osm_id":"380644157","tag":{"amenity":"recycling","recycling:clothes":"yes","recycling_type":"container"}},"type":"Feature"},
	{"geometry":{"coordinates":[9.892695,49.872782],"type":"Point"},"properties":{"osm_id":"382030012","tag":{"amenity":"recycling","recycling:glass":"yes","recycling_type":"container"}},"type":"Feature"},
	{"geometry":{"coordinates":[9.857533,49.850166],"type":"Point"},"properties":{"osm_id":"451643152","tag":{"amenity":"recycling","recycling:cans":"yes","recycling:paper":"yes"}},"type":"Feature"},
	{"geometry":{"coordinates":[9.852964,49.853572],"type":"Point"},"properties":{"osm_id":"451643154","tag":{"amenity":"recycling","recycling:cans":"yes","recycling:paper":"yes"}},"type":"Feature"},
	{"geometry":{"coordinates":[9.85562,49.851539],"type":"Point"},"properties":{"osm_id":"519684810","tag":{"amenity":"recycling","recycling:cans":"yes","recycling:paper":"yes"}},"type":"Feature"},
	{"geometry":{"coordinates":[9.854271,49.852131],"type":"Point"},"properties":{"osm_id":"519684813","tag":{"amenity":"recycling","recycling:cans":"yes","recycling:paper":"yes"}},"type":"Feature"},
	{"geometry":{"coordinates":[9.861121,49.841375],"type":"Point"},"properties":{"osm_id":"655313704","tag":{"amenity":"waste_basket"}},"type":"Feature"},
	{"geometry":{"coordinates":[9.860889,49.842078],"type":"Point"},"properties":{"osm_id":"655313710","tag":{"amenity":"waste_basket"}},"type":"Feature"},
	{"geometry":{"coordinates":[9.860559,49.841986],"type":"Point"},"properties":{"osm_id":"655313711","tag":{"amenity":"waste_basket"}},"type":"Feature"},
	{"geometry":{"coordinates":[9.863895,49.847049],"type":"Point"},"properties":{"osm_id":"700170603","tag":{"amenity":"waste_basket"}},"type":"Feature"},
	{"geometry":{"coordinates":[9.873224,49.843414],"type":"Point"},"properties":{"osm_id":"3779277468","tag":{"amenity":"recycling","recycling:glass_bottles":"yes","recycling_type":"container"}},"type":"Feature"}
]
}
