{
"type": "FeatureCollection",
"features": [
	{"geometry":{"coordinates":[9.86481,49.8264],"type":"Point"},"properties":{"osm_id":"251589397","tag":{"amenity":"recycling","mapillary":"OpS8mg-zUufiMxOaOzgyvw","recycling_type":"container","survey:date":"2018-08-19"}},"type":"Feature"},
	{"geometry":{"coordinates":[9.863782,49.831524],"type":"Point"},"properties":{"name":"Bauhof","osm_id":"251589420","tag":{"amenity":"recycling","mapillary":"Rj8ANmTuI6CJqCX9kuKqKA","opening_hours":"Fr 15:00-18:00","recycling_type":"centre","survey:date":"2018-09-16"}},"type":"Feature"},
	{"geometry":{"coordinates":[9.862199,49.834007],"type":"Point"},"properties":{"osm_id":"251589741","tag":{"amenity":"recycling","mapillary":"H2bpPGWBjJ5-vD7bqE71BA","recycling:glass":"yes","recycling_type":"container","survey:date":"2018-09-16"}},"type":"Feature"},
	{"geometry":{"coordinates":[9.862137,49.81694],"type":"Point"},"properties":{"osm_id":"262959823","tag":{"amenity":"recycling"}},"type":"Feature"},
	{"geometry":{"coordinates":[9.882264,49.831121],"type":"Point"},"properties":{"osm_id":"265566608","tag":{"amenity":"recycling","mapillary":"De5Ti5Zvjc0ZI4e_thZGYA","recycling:clothes":"yes","recycling:glass_bottles":"yes","recycling:shoes":"yes","recycling_type":"container","survey:date":"2018-08-15"}},"type":"Feature"},
	{"geometry":{"coordinates":[9.851381,49.785018],"type":"Point"},"properties":{"osm_id":"289665528","tag":{"amenity":"recycling","recycling:clothes":"yes","recycling:glass":"yes","recycling_type":"container"}},"type":"Feature"},
	{"geometry":{"coordinates":[9.917392,49.800426],"type":"Point"},"properties":{"osm_id":"290468020","tag":{"amenity":"recycling","location":"overground","recycling:clothes":"yes","recycling:glass":"yes","recycling_type":"container"}},"type":"Feature"},
	{"geometry":{"coordinates":[9.91059,49.798951],"type":"Point"},"properties":{"osm_id":"290468028","tag":{"amenity":"recycling","contact:phone":"+49 800 1889966","opening_hours":"Mo-Sa 07:00-19:00; Su, PH closed","operator":"SITA Ost GmbH & Co. KG","recycling:glass":"yes","recycling_type":"container"}},"type":"Feature"},
	{"geometry":{"coordinates":[9.9107,49.79658],"type":"Point"},"properties":{"osm_id":"290485364","tag":{"amenity":"recycling","location":"overground","recycling:glass":"yes","recycling_type":"container"}},"type":"Feature"},
	{"geometry":{"coordinates":[9.895547,49.79408],"type":"Point"},"properties":{"osm_id":"290487879","tag":{"amenity":"recycling","recycling:glass":"yes","recycling:glass_bottles":"yes","recycling_type":"container"}},"type":"Feature"},
	{"geometry":{"coordinates":[9.908667,49.795076],"type":"Point"},"properties":{"osm_id":"290791769","tag":{"amenity":"recycling","mapillary":"iGgts1CSunTLGvJnhCikXw","recycling:glass":"yes","recycling_type":"container","survey:date":"2018-05-22"}},"type":"Feature"},
	{"geometry":{"coordinates":[9.907312,49.796362],"type":"Point"},"properties":{"osm_id":"290791776","tag":{"amenity":"recycling","location":"overground","recycling:glass":"yes","recycling_type":"container"}},"type":"Feature"},
	{"geometry":{"coordinates":[9.915977,49.795815],"type":"Point"},"properties":{"osm_id":"290817596","tag":{"amenity":"recycling","mapillary":"7tv9Q2BMqJDEsHCXfmmh0Q","recycling:clothes":"yes","recycling:glass":"yes","recycling_type":"container","survey:date":"2018-05-22"}},"type":"Feature"},
	{"geometry":{"coordinates":[9.901202,49.795601],"type":"Point"},"properties":{"osm_id":"295542941","tag":{"amenity":"recycling","location":"overground","recycling:glass":"yes","recycling_type":"container"}},"type":"Feature"},
	{"geometry":{"coordinates":[9.894998,49.795917],"type":"Point"},"properties":{"osm_id":"295548277","tag":{"amenity":"recycling","location":"overground","recycling:glass":"yes","recycling_type":"container"}},"type":"Feature"},
	{"geometry":{"coordinates":[9.917527,49.794244],"type":"Point"},"properties":{"osm_id":"295710230","tag":{"amenity":"recycling","location":"overground","recycling:clothes":"yes","recycling:glass":"yes","recycling_type":"container"}},"type":"Feature"},
	{"geometry":{"coordinates":[9.919889,49.794993],"type":"Point"},"properties":{"osm_id":"295710237","tag":{"amenity":"recycling","location":"overground","recycling:glass":"yes","recycling_type":"container"}},"type":"Feature"},
	{"geometry":{"coordinates":[9.886022,49.7896],"type":"Point"},"properties":{"osm_id":"306991873","tag":{"amenity":"recycling","recycling:glass_bottles":"yes","recycling_type":"container"}},"type":"Feature"},
	{"geometry":{"coordinates":[9.891809,49.789106],"type":"Point"},"properties":{"osm_id":"306991876","tag":{"amenity":"recycling","mapillary":"FH6v5YoLODTYtxtM-YG4Pw","recycling:glass":"yes","recycling_type":"container","survey:date":"2018-08-11"}},"type":"Feature"},
	{"geometry":{"coordinates":[9.86594,49.783798],"type":"Point"},"properties":{"osm_id":"310240353","tag":{"amenity":"recycling","recycling:glass":"yes"}},"type":"Feature"},
	{"geometry":{"coordinates":[9.926206,49.824474],"type":"Point"},"properties":{"osm_id":"311649053","tag":{"amenity":"recycling","location":"overground","mapillary":"s3VPRgNDa0xkWguEDx0q8Q","recycling:clothes":"yes","recycling:glass":"no","recycling:glass_bottles":"yes","recycling_type":"container","survey:date":"2018-06-27"}},"type":"Feature"},
	{"geometry":{"coordinates":[9.927784,49.793184],"type":"Point"},"properties":{"osm_id":"313188267","tag":{"amenity":"recycling","recycling:glass":"yes","recycling_type":"container"}},"type":"Feature"},
	{"geometry":{"coordinates":[9.871329,49.785],"type":"Point"},"properties":{"osm_id":"313477683","tag":{"amenity":"recycling","mapillary":"Qj8T18R3wOz4fkHwz7aTtw","recycling:glass":"no","recycling:glass_bottles":"yes","recycling_type":"container","survey:date":"2018-08-14"}},"type":"Feature"},
	{"geometry":{"coordinates":[9.88244,49.78909],"type":"Point"},"properties":{"osm_id":"313477772","tag":{"amenity":"recycling","recycling:clothes":"yes","recycling:glass":"yes"}},"type":"Feature"},
	{"geometry":{"coordinates":[9.92623,49.798044],"type":"Point"},"properties":{"osm_id":"316735541","tag":{"amenity":"recycling","recycling:glass":"yes","recycling_type":"container"}},"type":"Feature"},
	{"geometry":{"coordinates":[9.892451,49.832527],"type":"Point"},"properties":{"osm_id":"345587410","tag":{"amenity":"recycling","recycling:glass":"yes"}},"type":"Feature"},
	{"geometry":{"coordinates":[9.894108,49.828501],"type":"Point"},"properties":{"osm_id":"345608693","tag":{"amenity":"recycling","recycling:clothes":"yes","recycling:glass":"yes"}},"type":"Feature"},
	{"geometry":{"coordinates":[9.881031,49.824085],"type":"Point"},"properties":{"osm_id":"345708065","tag":{"amenity":"recycling","location":"overground","recycling:clothes":"yes","recycling:glass":"yes","recycling:shoes":"yes","recycling_type":"container"}},"type":"Feature"},
	{"geometry":{"coordinates":[9.930815,49.790394],"type":"Point"},"properties":{"osm_id":"345717220","tag":{"amenity":"recycling","recycling:glass":"yes","recycling_type":"container"}},"type":"Feature"},
	{"geometry":{"coordinates":[9.878884,49.828136],"type":"Point"},"properties":{"osm_id":"345725328","tag":{"amenity":"recycling","location":"overground","recycling:glass":"yes","recycling:shoes":"yes","recycling_type":"container"}},"type":"Feature"},
	{"geometry":{"coordinates":[9.876465,49.823815],"type":"Point"},"properties":{"osm_id":"345747645","tag":{"amenity":"recycling","recycling:clothes":"yes","recycling:glass":"yes","recycling:glass_bottles":"yes","recycling:shoes":"yes","recycling_type":"container"}},"type":"Feature"},
	{"geometry":{"coordinates":[9.870615,49.829667],"type":"Point"},"properties":{"osm_id":"346783731","tag":{"amenity":"recycling","recycling:glass":"yes","recycling_type":"container"}},"type":"Feature"},
	{"geometry":{"coordinates":[9.883307,49.833116],"type":"Point"},"properties":{"osm_id":"352938151","tag":{"amenity":"recycling","recycling:glass":"yes","recycling_type":"container"}},"type":"Feature"},
	{"geometry":{"coordinates":[9.872667,49.835395],"type":"Point"},"properties":{"osm_id":"354594484","tag":{"amenity":"recycling","location":"overground","recycling:clothes":"yes","recycling:glass":"yes","recycling_type":"container"}},"type":"Feature"},
	{"geometry":{"coordinates":[9.922462,49.802979],"type":"Point"},"properties":{"osm_id":"355589340","tag":{"amenity":"recycling","location":"overground","recycling:clothes":"yes","recycling:glass":"no","recycling:glass_bottles":"yes","recycling:shoes":"yes","recycling_type":"container"}},"type":"Feature"},
	{"geometry":{"coordinates":[9.919255,49.820892],"type":"Point"},"properties":{"osm_id":"356315913","tag":{"amenity":"recycling","location":"overground","recycling:glass_bottles":"yes","recycling_type":"container"}},"type":"Feature"},
	{"geometry":{"coordinates":[9.917819,49.787546],"type":"Point"},"properties":{"osm_id":"364409233","tag":{"amenity":"recycling","recycling:glass":"yes","recycling_type":"container"}},"type":"Feature"},
	{"geometry":{"coordinates":[9.920596,49.826353],"type":"Point"},"properties":{"osm_id":"364907645","tag":{"amenity":"recycling","location":"overground","recycling:glass":"yes","recycling_type":"container"}},"type":"Feature"},
	{"geometry":{"coordinates":[9.929595,49.820689],"type":"Point"},"properties":{"osm_id":"440467160","tag":{"amenity":"recycling","location":"overground","mapillary":"0BtioSzDc9ddzdvPg3mQTA","recycling:glass":"no","recycling:glass_bottles":"yes","recycling_type":"container","survey:date":"2019-08-26"}},"type":"Feature"},
	{"geometry":{"coordinates":[9.920604,49.790749],"type":"Point"},"properties":{"osm_id":"661053725","tag":{"amenity":"waste_basket"}},"type":"Feature"},
	{"geometry":{"coordinates":[9.919804,49.7927],"type":"Point"},"properties":{"osm_id":"661053733","tag":{"amenity":"waste_basket"}},"type":"Feature"},
	{"geometry":{"coordinates":[9.916186,49.789791],"type":"Point"},"properties":{"osm_id":"666947268","tag":{"amenity":"waste_basket"}},"type":"Feature"},
	{"geometry":{"coordinates":[9.916083,49.789891],"type":"Point"},"properties":{"osm_id":"666947269","tag":{"amenity":"waste_basket"}},"type":"Feature"},
	{"geometry":{"coordinates":[9.916323,49.790029],"type":"Point"},"properties":{"osm_id":"666947276","tag":{"amenity":"waste_basket"}},"type":"Feature"},
	{"geometry":{"coordinates":[9.916483,49.790001],"type":"Point"},"properties":{"osm_id":"666947277","tag":{"amenity":"waste_basket"}},"type":"Feature"},
	{"geometry":{"coordinates":[9.916031,49.790166],"type":"Point"},"properties":{"osm_id":"666947307","tag":{"amenity":"waste_basket"}},"type":"Feature"},
	{"geometry":{"coordinates":[9.915315,49.790764],"type":"Point"},"properties":{"osm_id":"666947318","tag":{"amenity":"waste_basket"}},"type":"Feature"},
	{"geometry":{"coordinates":[9.915672,49.789531],"type":"Point"},"properties":{"osm_id":"666975397","tag":{"amenity":"waste_basket"}},"type":"Feature"},
	{"geometry":{"coordinates":[9.915332,49.789724],"type":"Point"},"properties":{"osm_id":"666975399","tag":{"amenity":"waste_basket"}},"type":"Feature"},
	{"geometry":{"coordinates":[9.917491,49.792406],"type":"Point"},"properties":{"osm_id":"669144382","tag":{"amenity":"waste_basket"}},"type":"Feature"},
	{"geometry":{"coordinates":[9.917531,49.792717],"type":"Point"},"properties":{"osm_id":"669144385","tag":{"amenity":"waste_basket"}},"type":"Feature"},
	{"geometry":{"coordinates":[9.917905,49.792541],"type":"Point"},"properties":{"osm_id":"669144389","tag":{"amenity":"waste_basket"}},"type":"Feature"},
	{"geometry":{"coordinates":[9.86671,49.836734],"type":"Point"},"properties":{"osm_id":"696591477","tag":{"amenity":"waste_basket"}},"type":"Feature"},
	{"geometry":{"coordinates":[9.866732,49.836863],"type":"Point"},"properties":{"osm_id":"696591492","tag":{"amenity":"waste_basket"}},"type":"Feature"},
	{"geometry":{"coordinates":[9.86876,49.835884],"type":"Point"},"properties":{"osm_id":"696591516","tag":{"amenity":"waste_basket"}},"type":"Feature"},
	{"geometry":{"coordinates":[9.868984,49.835051],"type":"Point"},"properties":{"osm_id":"696591614","tag":{"amenity":"waste_basket"}},"type":"Feature"},
	{"geometry":{"coordinates":[9.931183,49.79707],"type":"Point"},"properties":{"osm_id":"731597026","tag":{"amenity":"waste_basket"}},"type":"Feature"},
	{"geometry":{"coordinates":[9.930931,49.79426],"type":"Point"},"properties":{"osm_id":"731597030","tag":{"amenity":"waste_basket"}},"type":"Feature"},
	{"geometry":{"coordinates":[9.93094,49.794114],"type":"Point"},"properties":{"osm_id":"731597037","tag":{"amenity":"waste_basket"}},"type":"Feature"},
	{"geometry":{"coordinates":[9.887453,49.785238],"type":"Point"},"properties":{"osm_id":"732593273","tag":{"amenity":"waste_basket"}},"type":"Feature"},
	{"geometry":{"coordinates":[9.884691,49.788243],"type":"Point"},"properties":{"osm_id":"732593307","tag":{"amenity":"waste_basket"}},"type":"Feature"},
	{"geometry":{"coordinates":[9.859642,49.784708],"type":"Point"},"properties":{"osm_id":"733201452","tag":{"amenity":"waste_basket"}},"type":"Feature"},
	{"geometry":{"coordinates":[9.919196,49.793723],"type":"Point"},"properties":{"osm_id":"753695652","tag":{"amenity":"waste_basket"}},"type":"Feature"},
	{"geometry":{"coordinates":[9.918903,49.793364],"type":"Point"},"properties":{"osm_id":"753695660","tag":{"amenity":"waste_basket"}},"type":"Feature"},
	{"geometry":{"coordinates":[9.921057,49.7922],"type":"Point"},"properties":{"osm_id":"753695667","tag":{"amenity":"waste_basket"}},"type":"Feature"},
	{"geometry":{"coordinates":[9.91887,49.792935],"type":"Point"},"properties":{"osm_id":"753695759","tag":{"amenity":"waste_basket"}},"type":"Feature"},
	{"geometry":{"coordinates":[9.921437,49.792187],"type":"Point"},"properties":{"osm_id":"753695831","tag":{"amenity":"waste_basket"}},"type":"Feature"},
	{"geometry":{"coordinates":[9.918934,49.793442],"type":"Point"},"properties":{"osm_id":"753695911","tag":{"amenity":"waste_basket"}},"type":"Feature"},
	{"geometry":{"coordinates":[9.919302,49.793486],"type":"Point"},"properties":{"osm_id":"753695999","tag":{"amenity":"waste_basket"}},"type":"Feature"},
	{"geometry":{"coordinates":[9.918939,49.793623],"type":"Point"},"properties":{"osm_id":"753696069","tag":{"amenity":"waste_basket"}},"type":"Feature"},
	{"geometry":{"coordinates":[9.918735,49.790921],"type":"Point"},"properties":{"osm_id":"753696079","tag":{"amenity":"waste_basket","waste":"trash"}},"type":"Feature"},
	{"geometry":{"coordinates":[9.91892,49.793238],"type":"Point"},"properties":{"osm_id":"753696086","tag":{"amenity":"waste_basket"}},"type":"Feature"},
	{"geometry":{"coordinates":[9.846379,49.833548],"type":"Point"},"properties":{"osm_id":"822985610","tag":{"amenity":"waste_basket","tourism":"picnic_site"}},"type":"Feature"},
	{"geometry":{"coordinates":[9.881598,49.784269],"type":"Point"},"properties":{"osm_id":"866711485","tag":{"amenity":"recycling","mapillary":"uwG06Sto8Qsqjsq-ZgQ6mA","recycling_type":"container","survey:date":"2018-07-22"}},"type":"Feature"},
	{"geometry":{"coordinates":[9.914335,49.792909],"type":"Point"},"properties":{"osm_id":"994478096","tag":{"amenity":"recycling","mapillary":"9yLShoKPJRw5iozenzBgww","recycling:batteries":"no","recycling:cans":"no","recycling:clothes":"yes","recycling:glass":"yes","recycling:paper":"no","recycling:scrap_metal":"no","recycling_type":"container","survey:date":"2019-02-05"}},"type":"Feature"},
	{"geometry":{"coordinates":[9.927795,49.798102],"type":"Point"},"properties":{"osm_id":"1002798696","tag":{"amenity":"recycling","recycling:glass":"yes","recycling_type":"container"}},"type":"Feature"},
	{"geometry":{"coordinates":[9.920172,49.828941],"type":"Point"},"properties":{"osm_id":"1281181470","tag":{"amenity":"recycling","recycling:glass":"yes"}},"type":"Feature"},
	{"geometry":{"coordinates":[9.913863,49.799997],"type":"Point"},"properties":{"osm_id":"1942518302","tag":{"amenity":"recycling","recycling:glass":"yes","recycling_type":"container"}},"type":"Feature"},
	{"geometry":{"coordinates":[9.880992,49.784247],"type":"Point"},"properties":{"osm_id":"2016710773","tag":{"amenity":"waste_basket"}},"type":"Feature"},
	{"geometry":{"coordinates":[9.911239,49.797604],"type":"Point"},"properties":{"osm_id":"2050253928","tag":{"amenity":"waste_basket"}},"type":"Feature"},
	{"geometry":{"coordinates":[9.910585,49.798962],"type":"Point"},"properties":{"osm_id":"2051842041","tag":{"amenity":"recycling","contact:phone":"+49 7376 96211-21","operator":"Striebel Textil GmbH, In der Au 19, 88515 Langenenslingen","recycling:clothes":"yes","recycling:shoes":"yes","recycling_type":"container"}},"type":"Feature"},
	{"geometry":{"coordinates":[9.910579,49.798976],"type":"Point"},"properties":{"osm_id":"2051842043","tag":{"amenity":"waste_basket"}},"type":"Feature"},
	{"geometry":{"coordinates":[9.909146,49.797907],"type":"Point"},"properties":{"osm_id":"2096471823","tag":{"amenity":"waste_basket"}},"type":"Feature"},
	{"geometry":{"coordinates":[9.90903,49.798265],"type":"Point"},"properties":{"osm_id":"2096471860","tag":{"amenity":"waste_basket"}},"type":"Feature"},
	{"geometry":{"coordinates":[9.907846,49.798627],"type":"Point"},"properties":{"osm_id":"2100529821","tag":{"amenity":"waste_basket"}},"type":"Feature"},
	{"geometry":{"coordinates":[9.917541,49.79688],"type":"Point"},"properties":{"osm_id":"2126874669","tag":{"amenity":"waste_basket"}},"type":"Feature"},
	{"geometry":{"coordinates":[9.910816,49.792414],"type":"Point"},"properties":{"osm_id":"2155824919","tag":{"amenity":"recycling","recycling:glass":"yes","recycling:glass_bottles":"yes","recycling_type":"container"}},"type":"Feature"},
	{"geometry":{"coordinates":[9.90056,49.79376],"type":"Point"},"properties":{"osm_id":"2155824923","tag":{"amenity":"recycling","recycling:glass":"yes","recycling:glass_bottles":"yes","recycling_type":"container"}},"type":"Feature"},
	{"geometry":{"coordinates":[9.916603,49.797366],"type":"Point"},"properties":{"osm_id":"2187739859","tag":{"amenity":"waste_basket"}},"type":"Feature"},
	{"geometry":{"coordinates":[9.917104,49.796949],"type":"Point"},"properties":{"osm_id":"2268346504","tag":{"amenity":"waste_basket"}},"type":"Feature"},
	{"geometry":{"coordinates":[9.918091,49.797174],"type":"Point"},"properties":{"osm_id":"2268346510","tag":{"amenity":"waste_basket"}},"type":"Feature"},
	{"geometry":{"coordinates":[9.917297,49.797163],"type":"Point"},"properties":{"osm_id":"2268346512","tag":{"amenity":"waste_basket"}},"type":"Feature"},
	{"geometry":{"coordinates":[9.917816,49.797225],"type":"Point"},"properties":{"osm_id":"2268346514","tag":{"amenity":"waste_basket"}},"type":"Feature"},
	{"geometry":{"coordinates":[9.917087,49.796869],"type":"Point"},"properties":{"osm_id":"2269918546","tag":{"amenity":"waste_basket"}},"type":"Feature"},
	{"geometry":{"coordinates":[9.924415,49.788609],"type":"Point"},"properties":{"osm_id":"2298602575","tag":{"amenity":"waste_basket"}},"type":"Feature"},
	{"geometry":{"coordinates":[9.924431,49.78887],"type":"Point"},"properties":{"osm_id":"2298602628","tag":{"amenity":"waste_basket"}},"type":"Feature"},
	{"geometry":{"coordinates":[9.918291,49.789858],"type":"Point"},"properties":{"osm_id":"2425629058","tag":{"amenity":"waste_basket"}},"type":"Feature"},
	{"geometry":{"coordinates":[9.9248,49.788299],"type":"Point"},"properties":{"osm_id":"2467157520","tag":{"amenity":"recycling","recycling:clothes":"yes","recycling:glass":"yes","recycling_type":"container"}},"type":"Feature"},
	{"geometry":{"coordinates":[9.926784,49.796311],"type":"Point"},"properties":{"osm_id":"2559178584","tag":{"amenity":"waste_basket"}},"type":"Feature"},
	{"geometry":{"coordinates":[9.895251,49.836622],"type":"Point"},"properties":{"osm_id":"2906801271","tag":{"amenity":"recycling","mapillary":"GHTZSjrThTYQGRfnOGDkmw","recycling:cans":"yes","recycling:clothes":"yes","recycling:glass":"yes","recycling_type":"container","survey:date":"2018-08-15"}},"type":"Feature"},
	{"geometry":{"coordinates":[9.854393,49.832162],"type":"Point"},"properties":{"osm_id":"2951215414","tag":{"amenity":"waste_basket"}},"type":"Feature"},
	{"geometry":{"coordinates":[9.931081,49.796248],"type":"Point"},"properties":{"osm_id":"3023400156","tag":{"amenity":"waste_basket"}},"type":"Feature"},
	{"geometry":{"coordinates":[9.93067,49.798474],"type":"Point"},"properties":{"osm_id":"3023400176","tag":{"amenity":"waste_basket"}},"type":"Feature"},
	{"geometry":{"coordinates":[9.864963,49.820032],"type":"Point"},"properties":{"osm_id":"3388276967","tag":{"amenity":"recycling","recycling_type":"container"}},"type":"Feature"},
	{"geometry":{"coordinates":[9.924364,49.792825],"type":"Point"},"properties":{"osm_id":"3562313889","tag":{"amenity":"recycling","recycling:clothes":"yes","recycling:glass":"yes","recycling:glass_bottles":"yes","recycling_type":"container"}},"type":"Feature"},
	{"geometry":{"coordinates":[9.928964,49.78317],"type":"Point"},"properties":{"osm_id":"3613059772","tag":{"amenity":"recycling","contact:phone":"+49 800 1889966","contact:website":"www.suez.de","opening_hours":"Mo-Sa 07:00-19:00; Su, PH off","operator":"suez","recycling:glass_bottles":"yes","recycling_type":"container"}},"type":"Feature"},
	{"geometry":{"coordinates":[9.903016,49.808031],"type":"Point"},"properties":{"osm_id":"3693700832","tag":{"amenity":"recycling","recycling:clothes":"yes","recycling:glass":"yes","recycling_type":"container"}},"type":"Feature"},
	{"geometry":{"coordinates":[9.917333,49.814515],"type":"Point"},"properties":{"osm_id":"3745609625","tag":{"amenity":"recycling","recycling:glass_bottles":"yes","recycling_type":"container"}},"type":"Feature"},
	{"geometry":{"coordinates":[9.873638,49.823964],"type":"Point"},"properties":{"osm_id":"4643675178","tag":{"amenity":"recycling","recycling:clothes":"yes","recycling:shoes":"yes","recycling_type":"container"}},"type":"Feature"},
	{"geometry":{"coordinates":[9.890298,49.781814],"type":"Point"},"properties":{"osm_id":"4736224749","tag":{"amenity":"waste_basket"}},"type":"Feature"},
	{"geometry":{"coordinates":[9.893289,49.781922],"type":"Point"},"properties":{"osm_id":"4736224751","tag":{"amenity":"waste_basket"}},"type":"Feature"},
	{"geometry":{"coordinates":[9.906994,49.781705],"type":"Point"},"properties":{"osm_id":"4736224752","tag":{"amenity":"waste_basket"}},"type":"Feature"},
	{"geometry":{"coordinates":[9.871046,49.784977],"type":"Point"},"properties":{"osm_id":"4772657577","tag":{"amenity":"waste_basket"}},"type":"Feature"},
	{"geometry":{"coordinates":[9.931029,49.798285],"type":"Point"},"properties":{"osm_id":"4815329146","tag":{"amenity":"waste_basket"}},"type":"Feature"},
	{"geometry":{"coordinates":[9.931295,49.798281],"type":"Point"},"properties":{"osm_id":"4815329147","tag":{"amenity":"waste_basket"}},"type":"Feature"},
	{"geometry":{"coordinates":[9.931497,49.798488],"type":"Point"},"properties":{"osm_id":"4815329163","tag":{"amenity":"waste_basket"}},"type":"Feature"},
	{"geometry":{"coordinates":[9.919345,49.794196],"type":"Point"},"properties":{"osm_id":"4849406495","tag":{"amenity":"waste_basket"}},"type":"Feature"},
	{"geometry":{"coordinates":[9.873126,49.811328],"type":"Point"},"properties":{"osm_id":"4963153271","tag":{"amenity":"waste_basket"}},"type":"Feature"},
	{"geometry":{"coordinates":[9.918881,49.803674],"type":"Point"},"properties":{"osm_id":"4976125934","tag":{"amenity":"waste_disposal"}},"type":"Feature"},
	{"geometry":{"coordinates":[9.917759,49.787549],"type":"Point"},"properties":{"osm_id":"5514638665","tag":{"amenity":"recycling","recycling:clothes":"yes","recycling_type":"container"}},"type":"Feature"},
	{"geometry":{"coordinates":[9.899011,49.797383],"type":"Point"},"properties":{"osm_id":"5522158694","tag":{"amenity":"recycling","recycling:glass":"yes","recycling_type":"container"}},"type":"Feature"},
	{"geometry":{"coordinates":[9.845751,49.789358],"type":"Point"},"properties":{"osm_id":"5536108416","tag":{"amenity":"waste_basket"}},"type":"Feature"},
	{"geometry":{"coordinates":[9.846344,49.78983],"type":"Point"},"properties":{"osm_id":"5536108417","tag":{"amenity":"waste_basket"}},"type":"Feature"},
	{"geometry":{"coordinates":[9.928627,49.7993],"type":"Point"},"properties":{"osm_id":"5889195686","tag":{"amenity":"waste_disposal"}},"type":"Feature"},
	{"geometry":{"coordinates":[9.928662,49.799304],"type":"Point"},"properties":{"osm_id":"5889195687","tag":{"amenity":"waste_disposal"}},"type":"Feature"},
	{"geometry":{"coordinates":[9.849993,49.784674],"type":"Point"},"properties":{"osm_id":"5966008286","tag":{"amenity":"waste_basket"}},"type":"Feature"},
	{"geometry":{"coordinates":[9.848574,49.785314],"type":"Point"},"properties":{"osm_id":"5966011124","tag":{"amenity":"waste_basket"}},"type":"Feature"},
	{"geometry":{"coordinates":[9.847916,49.785163],"type":"Point"},"properties":{"osm_id":"5966011127","tag":{"amenity":"waste_basket"}},"type":"Feature"},
	{"geometry":{"coordinates":[9.90577,49.782501],"type":"Point"},"properties":{"osm_id":"5978943156","tag":{"amenity":"recycling","opening_hours":"Mo-Fr 07:00-19:00","recycling:glass_bottles":"yes","recycling_type":"container"}},"type":"Feature"},
	{"geometry":{"coordinates":[9.917959,49.794253],"type":"Point"},"properties":{"osm_id":"6387942558","tag":{"amenity":"waste_basket"}},"type":"Feature"},
	{"geometry":{"coordinates":[9.916941,49.794919],"type":"Point"},"properties":{"osm_id":"6387944679","tag":{"amenity":"waste_basket"}},"type":"Feature"},
	{"geometry":{"coordinates":[9.918503,49.794052],"type":"Point"},"properties":{"osm_id":"6387950171","tag":{"amenity":"waste_basket"}},"type":"Feature"},
	{"geometry":{"coordinates":[9.919886,49.795884],"type":"Point"},"properties":{"osm_id":"6387961917","tag":{"amenity":"waste_basket"}},"type":"Feature"},
	{"geometry":{"coordinates":[9.853587,49.78857],"type":"Point"},"properties":{"osm_id":"6418964004","tag":{"amenity":"waste_basket"}},"type":"Feature"},
	{"geometry":{"coordinates":[9.878705,49.781769],"type":"Point"},"properties":{"osm_id":"6438007315","tag":{"amenity":"waste_basket"}},"type":"Feature"},
	{"geometry":{"coordinates":[9.92019,49.796204],"type":"Point"},"properties":{"osm_id":"6490822917","tag":{"amenity":"waste_basket","waste":"trash"}},"type":"Feature"},
	{"geometry":{"coordinates":[9.920351,49.796155],"type":"Point"},"properties":{"osm_id":"6490822918","tag":{"amenity":"waste_basket","waste":"trash"}},"type":"Feature"},
	{"geometry":{"coordinates":[9.920224,49.796321],"type":"Point"},"properties":{"osm_id":"6490822919","tag":{"amenity":"waste_basket","waste":"trash"}},"type":"Feature"},
	{"geometry":{"coordinates":[9.931614,49.790394],"type":"Point"},"properties":{"osm_id":"6531931605","tag":{"amenity":"recycling","opening_hours":"Mo-Sa 07:00-23:00; Su,PH off","recycling:clothes":"no","recycling:glass":"yes","recycling:glass_bottles":"yes","recycling:shoes":"no","recycling_type":"container"}},"type":"Feature"},
	{"geometry":{"coordinates":[9.931338,49.796199],"type":"Point"},"properties":{"osm_id":"6612075104","tag":{"amenity":"waste_basket"}},"type":"Feature"},
	{"geometry":{"coordinates":[9.931263,49.796478],"type":"Point"},"properties":{"osm_id":"6612075105","tag":{"amenity":"waste_basket"}},"type":"Feature"},
	{"geometry":{"coordinates":[9.931081,49.796461],"type":"Point"},"properties":{"osm_id":"6612075109","tag":{"amenity":"waste_basket"}},"type":"Feature"},
	{"geometry":{"coordinates":[9.930967,49.796437],"type":"Point"},"properties":{"osm_id":"6612075110","tag":{"amenity":"waste_basket"}},"type":"Feature"},
	{"geometry":{"coordinates":[9.887519,49.781322],"type":"Point"},"properties":{"osm_id":"6694354844","tag":{"amenity":"waste_basket"}},"type":"Feature"},
	{"geometry":{"coordinates":[9.928952,49.783187],"type":"Point"},"properties":{"osm_id":"6792639938","tag":{"amenity":"recycling","contact:email":"info@fws.de","contact:fax":"+49 421 342079","contact:phone":"+49 421 346250","contact:website":"http://www.fws.de","location":"overground","opening_hours":"24/7","operator":"FWS","recycling:clothes":"yes","recycling:shoes":"yes","recycling_type":"container"}},"type":"Feature"},
	{"geometry":{"coordinates":[9.931382,49.786236],"type":"Point"},"properties":{"osm_id":"6924585905","tag":{"amenity":"waste_basket"}},"type":"Feature"},
	{"geometry":{"coordinates":[9.931085,49.785794],"type":"Point"},"properties":{"osm_id":"6924591208","tag":{"amenity":"waste_basket"}},"type":"Feature"},
	{"geometry":{"coordinates":[9.931377,49.786311],"type":"Point"},"properties":{"osm_id":"6924593640","tag":{"amenity":"waste_basket"}},"type":"Feature"},
	{"geometry":{"coordinates":[9.931611,49.785922],"type":"Point"},"properties":{"osm_id":"6924596576","tag":{"amenity":"waste_basket"}},"type":"Feature"},
	{"geometry":{"coordinates":[9.919347,49.791022],"type":"Point"},"properties":{"osm_id":"6943288443","tag":{"amenity":"waste_basket","waste":"trash"}},"type":"Feature"},
	{"geometry":{"coordinates":[9.87912,49.782476],"type":"Point"},"properties":{"osm_id":"7519197201","tag":{"amenity":"waste_basket"}},"type":"Feature"},
	{"geometry":{"coordinates":[9.9188,49.796189],"type":"Point"},"properties":{"osm_id":"7606303467","tag":{"amenity":"waste_basket","waste":"trash"}},"type":"Feature"},
	{"geometry":{"coordinates":[9.918736,49.796426],"type":"Point"},"properties":{"osm_id":"7606303468","tag":{"amenity":"waste_basket","waste":"trash"}},"type":"Feature"},
	{"geometry":{"coordinates":[9.920469,49.79686],"type":"Point"},"properties":{"osm_id":"7618519129","tag":{"amenity":"waste_basket","waste":"trash"}},"type":"Feature"},
	{"geometry":{"coordinates":[9.848645,49.795836],"type":"Point"},"properties":{"osm_id":"7951193725","tag":{"amenity":"recycling","recycling:clothes":"yes","recycling_type":"container"}},"type":"Feature"}
]
}
