{
"type": "FeatureCollection",
"features": [
	{"geometry":{"coordinates":[9.901364,49.775766],"type":"Point"},"properties":{"osm_id":"355661627","tag":{"amenity":"recycling","recycling:glass":"yes"}},"type":"Feature"},
	{"geometry":{"coordinates":[9.913561,49.770826],"type":"Point"},"properties":{"osm_id":"355668894","tag":{"amenity":"recycling","location":"overground","recycling:clothes":"yes","recycling:glass":"yes","recycling_type":"container"}},"type":"Feature"},
	{"geometry":{"coordinates":[9.89636,49.768395],"type":"Point"},"properties":{"osm_id":"361499580","tag":{"amenity":"recycling","location":"underground","recycling:glass_bottles":"yes","recycling_type":"container"}},"type":"Feature"},
	{"geometry":{"coordinates":[9.927202,49.7742],"type":"Point"},"properties":{"osm_id":"363609043","tag":{"amenity":"recycling","mapillary":"KvfH3f2E_wzv6XjiCQx4xw","recycling:glass_bottles":"yes","recycling_type":"container","survey:date":"2018-06-23"}},"type":"Feature"},
	{"geometry":{"coordinates":[9.844929,49.7413],"type":"Point"},"properties":{"osm_id":"572658885","tag":{"amenity":"recycling","recycling:clothes":"yes","recycling:glass":"yes","recycling_type":"container"}},"type":"Feature"},
	{"geometry":{"coordinates":[9.848946,49.775346],"type":"Point"},"properties":{"osm_id":"732658733","tag":{"amenity":"waste_basket"}},"type":"Feature"},
	{"geometry":{"coordinates":[9.854641,49.776085],"type":"Point"},"properties":{"osm_id":"733201460","tag":{"amenity":"waste_basket"}},"type":"Feature"},
	{"geometry":{"coordinates":[9.928389,49.778439],"type":"Point"},"properties":{"osm_id":"1001026208","tag":{"amenity":"recycling","mapillary":"ZGmoIvUaCrw9dsF8Fo6OqA","recycling:glass":"yes","recycling_type":"container","survey:date":"2018-05-20"}},"type":"Feature"},
	{"geometry":{"coordinates":[9.876968,49.780561],"type":"Point"},"properties":{"osm_id":"3469884589","tag":{"amenity":"waste_basket"}},"type":"Feature"},
	{"geometry":{"coordinates":[9.844962,49.741401],"type":"Point"},"properties":{"osm_id":"3865980158","tag":{"amenity":"waste_basket","waste":"dog_excrement"}},"type":"Feature"},
	{"geometry":{"coordinates":[9.877753,49.77965],"type":"Point"},"properties":{"osm_id":"3932960633","tag":{"amenity":"waste_basket"}},"type":"Feature"},
	{"geometry":{"coordinates":[9.877361,49.780203],"type":"Point"},"properties":{"osm_id":"3932968426","tag":{"amenity":"waste_basket"}},"type":"Feature"},
	{"geometry":{"coordinates":[9.877211,49.780306],"type":"Point"},"properties":{"osm_id":"3932968427","tag":{"amenity":"waste_basket"}},"type":"Feature"},
	{"geometry":{"coordinates":[9.87811,49.777287],"type":"Point"},"properties":{"osm_id":"3932991195","tag":{"amenity":"recycling","mapillary":"_tshqdXf4fMHBsoXogpOTQ","recycling_type":"container","survey:date":"2018-07-22"}},"type":"Feature"},
	{"geometry":{"coordinates":[9.884662,49.779941],"type":"Point"},"properties":{"osm_id":"3988001405","tag":{"amenity":"waste_basket"}},"type":"Feature"},
	{"geometry":{"coordinates":[9.869128,49.772127],"type":"Point"},"properties":{"osm_id":"4736352214","tag":{"amenity":"waste_basket"}},"type":"Feature"},
	{"geometry":{"coordinates":[9.87546,49.779112],"type":"Point"},"properties":{"osm_id":"4785728274","tag":{"amenity":"waste_basket"}},"type":"Feature"},
	{"geometry":{"coordinates":[9.874041,49.778658],"type":"Point"},"properties":{"osm_id":"4785728277","tag":{"amenity":"waste_basket"}},"type":"Feature"},
	{"geometry":{"coordinates":[9.874416,49.778873],"type":"Point"},"properties":{"osm_id":"4785728278","tag":{"amenity":"waste_basket"}},"type":"Feature"},
	{"geometry":{"coordinates":[9.875813,49.780058],"type":"Point"},"properties":{"osm_id":"4785728280","tag":{"amenity":"waste_basket"}},"type":"Feature"},
	{"geometry":{"coordinates":[9.8576,49.775214],"type":"Point"},"properties":{"osm_id":"4788447835","tag":{"amenity":"waste_basket"}},"type":"Feature"},
	{"geometry":{"coordinates":[9.872745,49.772786],"type":"Point"},"properties":{"osm_id":"6422708240","tag":{"entrance":"yes"}},"type":"Feature"},
	{"geometry":{"coordinates":[9.872264,49.772783],"type":"Point"},"properties":{"osm_id":"6422708241","tag":{"entrance":"yes"}},"type":"Feature"},
	{"geometry":{"coordinates":[9.871899,49.770615],"type":"Point"},"properties":{"osm_id":"6424938469","tag":{"amenity":"waste_basket"}},"type":"Feature"},
	{"geometry":{"coordinates":[9.857995,49.775234],"type":"Point"},"properties":{"osm_id":"6561518073","tag":{"amenity":"waste_basket"}},"type":"Feature"},
	{"geometry":{"coordinates":[9.929965,49.780533],"type":"Point"},"properties":{"osm_id":"6912589539","tag":{"amenity":"waste_basket"}},"type":"Feature"},
	{"geometry":{"coordinates":[9.929811,49.7808],"type":"Point"},"properties":{"osm_id":"6912590923","tag":{"amenity":"waste_basket"}},"type":"Feature"}
]
}
