{
"type": "FeatureCollection",
"features": [
	{"geometry":{"coordinates":[9.86468,49.042648],"type":"Point"},"properties":{"osm_id":"360960328","tag":{"amenity":"recycling","recycling:glass":"yes","recycling:paper":"yes"}},"type":"Feature"},
	{"geometry":{"coordinates":[9.858158,49.03915],"type":"Point"},"properties":{"osm_id":"360960632","tag":{"amenity":"recycling","recycling:glass":"yes"}},"type":"Feature"},
	{"geometry":{"coordinates":[9.902474,49.039322],"type":"Point"},"properties":{"osm_id":"390077776","tag":{"amenity":"recycling","recycling:glass":"yes","recycling_type":"container"}},"type":"Feature"},
	{"geometry":{"coordinates":[9.916255,49.042164],"type":"Point"},"properties":{"osm_id":"403757796","tag":{"amenity":"recycling","recycling:clothes":"yes","recycling:glass":"yes","recycling_type":"container"}},"type":"Feature"},
	{"geometry":{"coordinates":[9.905907,49.042931],"type":"Point"},"properties":{"osm_id":"403757992","tag":{"amenity":"recycling","recycling:glass":"yes","recycling_type":"container"}},"type":"Feature"},
	{"geometry":{"coordinates":[9.92111,49.064131],"type":"Point"},"properties":{"osm_id":"528652783","tag":{"amenity":"recycling","recycling:green_waste":"yes","recycling:wood":"yes"}},"type":"Feature"},
	{"geometry":{"coordinates":[9.881807,49.090748],"type":"Point"},"properties":{"osm_id":"8723679089","tag":{"amenity":"recycling","opening_hours":"Mo-Sa 08:00-12:00,14:00-18:00","operator":"ALBA Heilbronn-Franken plc & Co. KG","recycling:glass":"yes","recycling:glass_bottles":"yes","recycling_type":"container"}},"type":"Feature"}
]
}
