{
"type": "FeatureCollection",
"features": [
	{"geometry":{"coordinates":[9.913959,48.415375],"type":"Point"},"properties":{"osm_id":"273336249","tag":{"amenity":"recycling","recycling_type":"container"}},"type":"Feature"},
	{"geometry":{"coordinates":[9.891541,48.443892],"type":"Point"},"properties":{"osm_id":"282542188","tag":{"amenity":"recycling","recycling_type":"container"}},"type":"Feature"},
	{"geometry":{"coordinates":[9.905367,48.423748],"type":"Point"},"properties":{"name":"Wertstoffhof Herrlingen","osm_id":"282723276","tag":{"amenity":"recycling","recycling_type":"centre"}},"type":"Feature"},
	{"geometry":{"coordinates":[9.888523,48.421461],"type":"Point"},"properties":{"osm_id":"287624199","tag":{"amenity":"recycling","recycling_type":"container"}},"type":"Feature"},
	{"geometry":{"coordinates":[9.865671,48.425997],"type":"Point"},"properties":{"osm_id":"293348177","tag":{"amenity":"recycling","recycling:batteries":"yes","recycling:cans":"yes","recycling:glass_bottles":"yes","recycling:paper":"yes","recycling_type":"container"}},"type":"Feature"},
	{"geometry":{"coordinates":[9.908164,48.455966],"type":"Point"},"properties":{"osm_id":"693109774","tag":{"amenity":"recycling","recycling:glass_bottles":"yes","recycling:paper":"yes","recycling_type":"container"}},"type":"Feature"},
	{"geometry":{"coordinates":[9.862604,48.445851],"type":"Point"},"properties":{"osm_id":"2597113484","tag":{"amenity":"recycling","recycling:clothes":"yes","recycling:glass_bottles":"yes","recycling_type":"container"}},"type":"Feature"},
	{"geometry":{"coordinates":[9.92171,48.417239],"type":"Point"},"properties":{"osm_id":"3054361128","tag":{"amenity":"waste_basket"}},"type":"Feature"},
	{"geometry":{"coordinates":[9.923414,48.417216],"type":"Point"},"properties":{"osm_id":"3060166612","tag":{"amenity":"waste_basket"}},"type":"Feature"},
	{"geometry":{"coordinates":[9.923653,48.417217],"type":"Point"},"properties":{"osm_id":"3060166613","tag":{"amenity":"waste_basket"}},"type":"Feature"},
	{"geometry":{"coordinates":[9.920417,48.415197],"type":"Point"},"properties":{"osm_id":"3074977237","tag":{"amenity":"waste_basket"}},"type":"Feature"},
	{"geometry":{"coordinates":[9.921253,48.414061],"type":"Point"},"properties":{"osm_id":"3075081072","tag":{"amenity":"waste_basket"}},"type":"Feature"},
	{"geometry":{"coordinates":[9.920792,48.414328],"type":"Point"},"properties":{"osm_id":"3075081073","tag":{"amenity":"waste_basket"}},"type":"Feature"},
	{"geometry":{"coordinates":[9.91806,48.417076],"type":"Point"},"properties":{"osm_id":"3498785472","tag":{"amenity":"waste_basket"}},"type":"Feature"},
	{"geometry":{"coordinates":[9.873582,48.41468],"type":"Point"},"properties":{"osm_id":"4366423086","tag":{"amenity":"recycling","recycling_type":"container"}},"type":"Feature"},
	{"geometry":{"coordinates":[9.881985,48.41443],"type":"Point"},"properties":{"osm_id":"4366471987","tag":{"amenity":"recycling","recycling_type":"container"}},"type":"Feature"},
	{"geometry":{"coordinates":[9.900607,48.417815],"type":"Point"},"properties":{"osm_id":"4555023381","tag":{"amenity":"waste_basket"}},"type":"Feature"},
	{"geometry":{"coordinates":[9.917631,48.420536],"type":"Point"},"properties":{"osm_id":"4555335731","tag":{"amenity":"waste_basket"}},"type":"Feature"},
	{"geometry":{"coordinates":[9.923673,48.41243],"type":"Point"},"properties":{"osm_id":"4555335734","tag":{"amenity":"waste_basket"}},"type":"Feature"},
	{"geometry":{"coordinates":[9.896059,48.42041],"type":"Point"},"properties":{"osm_id":"4693503529","tag":{"amenity":"waste_basket"}},"type":"Feature"},
	{"geometry":{"coordinates":[9.900546,48.418757],"type":"Point"},"properties":{"osm_id":"4907292105","tag":{"amenity":"waste_basket"}},"type":"Feature"},
	{"geometry":{"coordinates":[9.916274,48.414635],"type":"Point"},"properties":{"osm_id":"5178669737","tag":{"amenity":"waste_basket"}},"type":"Feature"},
	{"geometry":{"coordinates":[9.907941,48.418482],"type":"Point"},"properties":{"osm_id":"5178669749","tag":{"amenity":"waste_basket"}},"type":"Feature"},
	{"geometry":{"coordinates":[9.917171,48.417803],"type":"Point"},"properties":{"osm_id":"5695807360","tag":{"amenity":"waste_basket"}},"type":"Feature"},
	{"geometry":{"coordinates":[9.91743,48.417514],"type":"Point"},"properties":{"osm_id":"5695807362","tag":{"amenity":"waste_basket"}},"type":"Feature"},
	{"geometry":{"coordinates":[9.907057,48.431209],"type":"Point"},"properties":{"osm_id":"5695904676","tag":{"amenity":"waste_basket"}},"type":"Feature"},
	{"geometry":{"coordinates":[9.865632,48.425924],"type":"Point"},"properties":{"osm_id":"6906479044","tag":{"amenity":"recycling","recycling:clothes":"yes","recycling_type":"container"}},"type":"Feature"}
]
}
