{
"type": "FeatureCollection",
"features": [
	{"geometry":{"coordinates":[9.895385,48.187286],"type":"Point"},"properties":{"osm_id":"1775880102","tag":{"amenity":"recycling","recycling_type":"centre"}},"type":"Feature"},
	{"geometry":{"coordinates":[9.8672,48.174111],"type":"Point"},"properties":{"osm_id":"7724028297","tag":{"amenity":"waste_basket","material":"metal","waste":"mixed"}},"type":"Feature"},
	{"geometry":{"coordinates":[9.884001,48.220192],"type":"Point"},"properties":{"osm_id":"8303317591","tag":{"amenity":"waste_basket"}},"type":"Feature"},
	{"geometry":{"coordinates":[9.883911,48.219291],"type":"Point"},"properties":{"osm_id":"8303366919","tag":{"amenity":"waste_basket"}},"type":"Feature"},
	{"geometry":{"coordinates":[9.884091,48.219785],"type":"Point"},"properties":{"osm_id":"8303366934","tag":{"amenity":"waste_basket"}},"type":"Feature"},
	{"geometry":{"coordinates":[9.884083,48.219843],"type":"Point"},"properties":{"osm_id":"8303366935","tag":{"amenity":"waste_basket"}},"type":"Feature"},
	{"geometry":{"coordinates":[9.885754,48.221009],"type":"Point"},"properties":{"osm_id":"8303366940","tag":{"amenity":"waste_basket"}},"type":"Feature"}
]
}
