{
"type": "FeatureCollection",
"features": [
	{"geometry":{"coordinates":[9.927699,47.606835],"type":"Point"},"properties":{"name":"Werkstoffhof","osm_id":"268257985","tag":{"amenity":"recycling","opening_hours":"Mo-Fr 14:00-17:30; Th 08:00-12:00,14:00-18:00; Sa 09:00-12:00","recycling_type":"centre"}},"type":"Feature"},
	{"geometry":{"coordinates":[9.857323,47.585556],"type":"Point"},"properties":{"name":"Werkstoffhof Scheidegg","osm_id":"275345184","tag":{"amenity":"recycling","recycling_type":"centre"}},"type":"Feature"},
	{"geometry":{"coordinates":[9.889983,47.598816],"type":"Point"},"properties":{"osm_id":"297853733","tag":{"amenity":"recycling"}},"type":"Feature"},
	{"geometry":{"coordinates":[9.893248,47.603756],"type":"Point"},"properties":{"osm_id":"299165301","tag":{"amenity":"recycling"}},"type":"Feature"},
	{"geometry":{"coordinates":[9.896285,47.600795],"type":"Point"},"properties":{"osm_id":"299165323","tag":{"amenity":"recycling","recycling:cans":"yes","recycling:clothes":"yes","recycling:glass":"yes","recycling:glass_bottles":"yes","recycling:paper":"yes","recycling:shoes":"yes"}},"type":"Feature"},
	{"geometry":{"coordinates":[9.881516,47.604733],"type":"Point"},"properties":{"osm_id":"299165503","tag":{"amenity":"recycling"}},"type":"Feature"},
	{"geometry":{"coordinates":[9.892288,47.606702],"type":"Point"},"properties":{"osm_id":"299165523","tag":{"amenity":"recycling","recycling_type":"container"}},"type":"Feature"},
	{"geometry":{"coordinates":[9.851017,47.582575],"type":"Point"},"properties":{"osm_id":"299166005","tag":{"amenity":"recycling"}},"type":"Feature"},
	{"geometry":{"coordinates":[9.862783,47.578343],"type":"Point"},"properties":{"osm_id":"301098288","tag":{"amenity":"recycling","recycling_type":"container"}},"type":"Feature"},
	{"geometry":{"coordinates":[9.880891,47.588195],"type":"Point"},"properties":{"osm_id":"302287108","tag":{"amenity":"recycling","recycling:glass_bottles":"yes","recycling:paper":"yes","recycling_type":"container"}},"type":"Feature"},
	{"geometry":{"coordinates":[9.873784,47.596718],"type":"Point"},"properties":{"osm_id":"302287359","tag":{"amenity":"recycling","recycling:cans":"yes","recycling:cardboard":"yes","recycling:glass_bottles":"yes","recycling:paper":"yes","recycling_type":"container"}},"type":"Feature"},
	{"geometry":{"coordinates":[9.880563,47.599346],"type":"Point"},"properties":{"osm_id":"302288367","tag":{"amenity":"recycling"}},"type":"Feature"},
	{"geometry":{"coordinates":[9.845353,47.580348],"type":"Point"},"properties":{"osm_id":"303055131","tag":{"amenity":"recycling","recycling_type":"container"}},"type":"Feature"},
	{"geometry":{"coordinates":[9.85679,47.58558],"type":"Point"},"properties":{"osm_id":"303055242","tag":{"amenity":"recycling","recycling_type":"container"}},"type":"Feature"},
	{"geometry":{"coordinates":[9.8587,47.624871],"type":"Point"},"properties":{"osm_id":"308136855","tag":{"amenity":"recycling"}},"type":"Feature"},
	{"geometry":{"coordinates":[9.856229,47.579763],"type":"Point"},"properties":{"osm_id":"308672291","tag":{"amenity":"recycling","recycling_type":"container"}},"type":"Feature"},
	{"geometry":{"coordinates":[9.88498,47.604053],"type":"Point"},"properties":{"osm_id":"309564598","tag":{"amenity":"recycling"}},"type":"Feature"},
	{"geometry":{"coordinates":[9.892461,47.609031],"type":"Point"},"properties":{"osm_id":"309987784","tag":{"amenity":"recycling"}},"type":"Feature"},
	{"geometry":{"coordinates":[9.87464,47.599289],"type":"Point"},"properties":{"osm_id":"309988258","tag":{"amenity":"recycling"}},"type":"Feature"},
	{"geometry":{"coordinates":[9.887571,47.607166],"type":"Point"},"properties":{"osm_id":"310086918","tag":{"amenity":"recycling"}},"type":"Feature"},
	{"geometry":{"coordinates":[9.896466,47.604029],"type":"Point"},"properties":{"osm_id":"311380146","tag":{"amenity":"recycling"}},"type":"Feature"},
	{"geometry":{"coordinates":[9.899149,47.604536],"type":"Point"},"properties":{"osm_id":"311380213","tag":{"amenity":"recycling"}},"type":"Feature"},
	{"geometry":{"coordinates":[9.899058,47.611089],"type":"Point"},"properties":{"osm_id":"311380231","tag":{"amenity":"recycling"}},"type":"Feature"},
	{"geometry":{"coordinates":[9.899968,47.599298],"type":"Point"},"properties":{"osm_id":"406369173","tag":{"amenity":"recycling","recycling:cans":"yes","recycling:glass_bottles":"yes","recycling:paper":"yes","recycling:scrap_metal":"no"}},"type":"Feature"},
	{"geometry":{"coordinates":[9.915814,47.580777],"type":"Point"},"properties":{"osm_id":"418611163","tag":{"amenity":"recycling","recycling:cans":"yes","recycling:glass_bottles":"yes","recycling:paper":"yes","recycling_type":"container"}},"type":"Feature"},
	{"geometry":{"coordinates":[9.896592,47.613227],"type":"Point"},"properties":{"osm_id":"453478567","tag":{"amenity":"recycling"}},"type":"Feature"},
	{"geometry":{"coordinates":[9.897658,47.581104],"type":"Point"},"properties":{"osm_id":"481341909","tag":{"amenity":"recycling","recycling:cans":"yes","recycling:clothes":"yes","recycling:glass_bottles":"yes","recycling:shoes":"yes","recycling_type":"container"}},"type":"Feature"},
	{"geometry":{"coordinates":[9.91748,47.581223],"type":"Point"},"properties":{"osm_id":"481342069","tag":{"amenity":"recycling","recycling:glass_bottles":"yes","recycling_type":"container"}},"type":"Feature"},
	{"geometry":{"coordinates":[9.929431,47.619604],"type":"Point"},"properties":{"osm_id":"485201983","tag":{"amenity":"recycling"}},"type":"Feature"},
	{"geometry":{"coordinates":[9.923236,47.586231],"type":"Point"},"properties":{"osm_id":"582833634","tag":{"amenity":"recycling"}},"type":"Feature"},
	{"geometry":{"coordinates":[9.849767,47.577068],"type":"Point"},"properties":{"osm_id":"892154961","tag":{"amenity":"waste_basket"}},"type":"Feature"},
	{"geometry":{"coordinates":[9.84953,47.584763],"type":"Point"},"properties":{"osm_id":"907088122","tag":{"amenity":"recycling"}},"type":"Feature"},
	{"geometry":{"coordinates":[9.903316,47.62999],"type":"Point"},"properties":{"osm_id":"1055351921","tag":{"addr:street":"Rathausstra\u00c3\u009fe","amenity":"recycling","operator":"ZAK Kempten","recycling:cans":"yes","recycling:clothes":"yes","recycling:glass_bottles":"yes","recycling:paper":"yes"}},"type":"Feature"},
	{"geometry":{"coordinates":[9.916433,47.585869],"type":"Point"},"properties":{"osm_id":"1367601646","tag":{"amenity":"recycling","recycling:glass_bottles":"yes","recycling:paper":"yes","recycling:scrap_metal":"yes","recycling_type":"container"}},"type":"Feature"},
	{"geometry":{"coordinates":[9.910262,47.58414],"type":"Point"},"properties":{"osm_id":"1472201886","tag":{"amenity":"recycling","recycling:paper":"yes","recycling_type":"container"}},"type":"Feature"},
	{"geometry":{"coordinates":[9.863406,47.594497],"type":"Point"},"properties":{"osm_id":"1676072417","tag":{"amenity":"waste_basket"}},"type":"Feature"},
	{"geometry":{"coordinates":[9.921789,47.59084],"type":"Point"},"properties":{"osm_id":"2329919933","tag":{"amenity":"waste_basket"}},"type":"Feature"},
	{"geometry":{"coordinates":[9.902967,47.576739],"type":"Point"},"properties":{"osm_id":"3256876446","tag":{"amenity":"recycling","recycling_type":"container"}},"type":"Feature"},
	{"geometry":{"coordinates":[9.881893,47.597329],"type":"Point"},"properties":{"osm_id":"3890511618","tag":{"amenity":"recycling","recycling:cans":"yes","recycling:cardboard":"yes","recycling:glass":"yes","recycling:glass_bottles":"yes","recycling:paper":"yes","recycling_type":"container"}},"type":"Feature"},
	{"geometry":{"coordinates":[9.917508,47.581161],"type":"Point"},"properties":{"osm_id":"4485480845","tag":{"amenity":"recycling","recycling:paper":"yes","recycling_type":"container"}},"type":"Feature"},
	{"geometry":{"coordinates":[9.917503,47.581171],"type":"Point"},"properties":{"osm_id":"4485480847","tag":{"amenity":"recycling","recycling:paper":"yes","recycling_type":"container"}},"type":"Feature"},
	{"geometry":{"coordinates":[9.917498,47.581181],"type":"Point"},"properties":{"osm_id":"4485480849","tag":{"amenity":"recycling","recycling_type":"container"}},"type":"Feature"},
	{"geometry":{"coordinates":[9.917494,47.581192],"type":"Point"},"properties":{"osm_id":"4485480850","tag":{"amenity":"recycling","recycling_type":"container"}},"type":"Feature"},
	{"geometry":{"coordinates":[9.917489,47.581202],"type":"Point"},"properties":{"osm_id":"4485480851","tag":{"amenity":"recycling","recycling:glass_bottles":"yes","recycling_type":"container"}},"type":"Feature"},
	{"geometry":{"coordinates":[9.917484,47.581212],"type":"Point"},"properties":{"osm_id":"4485480853","tag":{"amenity":"recycling","recycling:glass_bottles":"yes","recycling_type":"container"}},"type":"Feature"},
	{"geometry":{"coordinates":[9.915799,47.581795],"type":"Point"},"properties":{"osm_id":"4498710449","tag":{"amenity":"waste_basket"}},"type":"Feature"},
	{"geometry":{"coordinates":[9.91538,47.581783],"type":"Point"},"properties":{"osm_id":"4498710451","tag":{"amenity":"waste_basket"}},"type":"Feature"},
	{"geometry":{"coordinates":[9.915208,47.581782],"type":"Point"},"properties":{"osm_id":"4498710452","tag":{"amenity":"waste_basket"}},"type":"Feature"},
	{"geometry":{"coordinates":[9.917173,47.582404],"type":"Point"},"properties":{"osm_id":"5001075571","tag":{"amenity":"waste_basket"}},"type":"Feature"},
	{"geometry":{"coordinates":[9.90274,47.579386],"type":"Point"},"properties":{"osm_id":"5008036315","tag":{"amenity":"waste_basket"}},"type":"Feature"},
	{"geometry":{"coordinates":[9.904702,47.580868],"type":"Point"},"properties":{"osm_id":"5008184773","tag":{"amenity":"waste_basket"}},"type":"Feature"},
	{"geometry":{"coordinates":[9.918116,47.586224],"type":"Point"},"properties":{"osm_id":"5008257959","tag":{"amenity":"recycling","recycling:glass_bottles":"brown","recycling_type":"container"}},"type":"Feature"},
	{"geometry":{"coordinates":[9.918124,47.586235],"type":"Point"},"properties":{"osm_id":"5008257960","tag":{"amenity":"recycling","recycling:glass_bottles":"green","recycling_type":"container"}},"type":"Feature"},
	{"geometry":{"coordinates":[9.918131,47.586246],"type":"Point"},"properties":{"osm_id":"5008257961","tag":{"amenity":"recycling","recycling:glass_bottles":"white","recycling_type":"container"}},"type":"Feature"},
	{"geometry":{"coordinates":[9.918139,47.586256],"type":"Point"},"properties":{"osm_id":"5008257962","tag":{"amenity":"recycling","recycling:plastic":"yes","recycling_type":"container"}},"type":"Feature"},
	{"geometry":{"coordinates":[9.918146,47.586267],"type":"Point"},"properties":{"osm_id":"5008257963","tag":{"amenity":"recycling","recycling:cans":"yes","recycling_type":"container"}},"type":"Feature"},
	{"geometry":{"coordinates":[9.918154,47.586278],"type":"Point"},"properties":{"osm_id":"5008257964","tag":{"amenity":"recycling","recycling:paper":"yes","recycling_type":"container"}},"type":"Feature"},
	{"geometry":{"coordinates":[9.918161,47.586289],"type":"Point"},"properties":{"osm_id":"5008257965","tag":{"amenity":"recycling","recycling:paper":"yes","recycling_type":"container"}},"type":"Feature"},
	{"geometry":{"coordinates":[9.918109,47.586213],"type":"Point"},"properties":{"osm_id":"5008257966","tag":{"amenity":"recycling","operator":"Kolping","recycling:clothes":"yes","recycling:shoes":"yes","recycling_type":"container"}},"type":"Feature"},
	{"geometry":{"coordinates":[9.913422,47.584803],"type":"Point"},"properties":{"osm_id":"5008257982","tag":{"amenity":"waste_basket"}},"type":"Feature"},
	{"geometry":{"coordinates":[9.910139,47.584113],"type":"Point"},"properties":{"osm_id":"5165626380","tag":{"amenity":"recycling","operator":"Kolping","recycling:clothes":"yes","recycling:shoes":"yes","recycling_type":"container"}},"type":"Feature"},
	{"geometry":{"coordinates":[9.910154,47.584116],"type":"Point"},"properties":{"osm_id":"5165626381","tag":{"amenity":"recycling","recycling:glass_bottles":"white","recycling_type":"container"}},"type":"Feature"},
	{"geometry":{"coordinates":[9.910185,47.584123],"type":"Point"},"properties":{"osm_id":"5165626382","tag":{"amenity":"recycling","recycling:glass_bottles":"brown","recycling_type":"container"}},"type":"Feature"},
	{"geometry":{"coordinates":[9.910169,47.58412],"type":"Point"},"properties":{"osm_id":"5165626383","tag":{"amenity":"recycling","recycling:glass_bottles":"green","recycling_type":"container"}},"type":"Feature"},
	{"geometry":{"coordinates":[9.9102,47.584126],"type":"Point"},"properties":{"osm_id":"5165626384","tag":{"amenity":"recycling","recycling:beverage_cartons":"yes","recycling_type":"container"}},"type":"Feature"},
	{"geometry":{"coordinates":[9.910215,47.58413],"type":"Point"},"properties":{"osm_id":"5165626385","tag":{"amenity":"recycling","recycling:cans":"yes","recycling_type":"container"}},"type":"Feature"},
	{"geometry":{"coordinates":[9.910231,47.584133],"type":"Point"},"properties":{"osm_id":"5165626386","tag":{"amenity":"recycling","recycling:paper":"yes","recycling_type":"container"}},"type":"Feature"},
	{"geometry":{"coordinates":[9.910246,47.584136],"type":"Point"},"properties":{"osm_id":"5165626387","tag":{"amenity":"recycling","recycling:paper":"yes","recycling_type":"container"}},"type":"Feature"},
	{"geometry":{"coordinates":[9.918565,47.584451],"type":"Point"},"properties":{"osm_id":"6238280230","tag":{"amenity":"recycling","recycling:cans":"yes","recycling:glass":"yes","recycling_type":"container"}},"type":"Feature"},
	{"geometry":{"coordinates":[9.919089,47.585337],"type":"Point"},"properties":{"osm_id":"6318965254","tag":{"amenity":"waste_basket"}},"type":"Feature"},
	{"geometry":{"coordinates":[9.922316,47.588229],"type":"Point"},"properties":{"osm_id":"6318965255","tag":{"amenity":"waste_basket","waste":"dog_excrement"}},"type":"Feature"},
	{"geometry":{"coordinates":[9.922737,47.584525],"type":"Point"},"properties":{"osm_id":"6374156372","tag":{"amenity":"recycling","recycling:beverage_cartons":"yes","recycling:cans":"yes","recycling:glass":"yes","recycling:glass_bottles":"yes","recycling:paper":"yes","recycling:plastic":"yes","recycling:plastic_bottles":"yes","recycling:plastic_packaging":"yes","recycling_type":"container"}},"type":"Feature"},
	{"geometry":{"coordinates":[9.917777,47.583893],"type":"Point"},"properties":{"osm_id":"6379198724","tag":{"amenity":"waste_basket"}},"type":"Feature"},
	{"geometry":{"coordinates":[9.877928,47.606505],"type":"Point"},"properties":{"osm_id":"6470557577","tag":{"amenity":"waste_basket","waste":"dog_excrement"}},"type":"Feature"},
	{"geometry":{"coordinates":[9.878331,47.603901],"type":"Point"},"properties":{"osm_id":"6470557580","tag":{"amenity":"waste_basket","waste":"trash"}},"type":"Feature"},
	{"geometry":{"coordinates":[9.878172,47.604132],"type":"Point"},"properties":{"osm_id":"6470557581","tag":{"amenity":"waste_basket","waste":"dog_excrement"}},"type":"Feature"},
	{"geometry":{"coordinates":[9.922026,47.595923],"type":"Point"},"properties":{"osm_id":"6680427228","tag":{"amenity":"waste_basket","waste":"dog_excrement"}},"type":"Feature"},
	{"geometry":{"coordinates":[9.916531,47.591019],"type":"Point"},"properties":{"osm_id":"6680427230","tag":{"amenity":"waste_basket","waste":"dog_excrement"}},"type":"Feature"},
	{"geometry":{"coordinates":[9.871617,47.58044],"type":"Point"},"properties":{"osm_id":"7079634462","tag":{"amenity":"waste_basket"}},"type":"Feature"}
]
}
