{
"type": "FeatureCollection",
"features": [
	{"geometry":{"coordinates":[9.895143,47.415327],"type":"Point"},"properties":{"name":"Altstoffsammelstelle","osm_id":"1834893658","tag":{"addr:city":"Andelsbuch","addr:housenumber":"432","addr:postcode":"6866","addr:street":"Hof","amenity":"recycling","operator":"Gemeinde Andelsbuch","recycling_type":"centre"}},"type":"Feature"},
	{"geometry":{"coordinates":[9.879553,47.452872],"type":"Point"},"properties":{"osm_id":"5577041980","tag":{"amenity":"recycling","recycling_type":"container"}},"type":"Feature"},
	{"geometry":{"coordinates":[9.888458,47.414406],"type":"Point"},"properties":{"osm_id":"9100673774","tag":{"amenity":"waste_basket","waste":"dog_excrement"}},"type":"Feature"},
	{"geometry":{"coordinates":[9.887419,47.413298],"type":"Point"},"properties":{"osm_id":"9100673775","tag":{"amenity":"waste_basket","waste":"dog_excrement"}},"type":"Feature"},
	{"geometry":{"coordinates":[9.88608,47.411628],"type":"Point"},"properties":{"osm_id":"9100673776","tag":{"amenity":"waste_basket","waste":"dog_excrement"}},"type":"Feature"},
	{"geometry":{"coordinates":[9.88014,47.412452],"type":"Point"},"properties":{"osm_id":"9100673777","tag":{"amenity":"waste_basket","waste":"dog_excrement"}},"type":"Feature"},
	{"geometry":{"coordinates":[9.878116,47.41011],"type":"Point"},"properties":{"osm_id":"9100673778","tag":{"amenity":"waste_basket","waste":"dog_excrement"}},"type":"Feature"},
	{"geometry":{"coordinates":[9.889671,47.42196],"type":"Point"},"properties":{"osm_id":"9100673779","tag":{"amenity":"waste_basket","waste":"dog_excrement"}},"type":"Feature"},
	{"geometry":{"coordinates":[9.879181,47.402156],"type":"Point"},"properties":{"osm_id":"9100673780","tag":{"amenity":"waste_basket","waste":"dog_excrement"}},"type":"Feature"},
	{"geometry":{"coordinates":[9.867273,47.400859],"type":"Point"},"properties":{"osm_id":"9100673781","tag":{"amenity":"waste_basket","waste":"dog_excrement"}},"type":"Feature"},
	{"geometry":{"coordinates":[9.853892,47.399088],"type":"Point"},"properties":{"osm_id":"9100673782","tag":{"amenity":"waste_basket","waste":"dog_excrement"}},"type":"Feature"},
	{"geometry":{"coordinates":[9.889058,47.40801],"type":"Point"},"properties":{"osm_id":"9100673783","tag":{"amenity":"waste_basket","waste":"dog_excrement"}},"type":"Feature"},
	{"geometry":{"coordinates":[9.892731,47.410708],"type":"Point"},"properties":{"osm_id":"9100673784","tag":{"amenity":"waste_basket","waste":"dog_excrement"}},"type":"Feature"},
	{"geometry":{"coordinates":[9.897968,47.414884],"type":"Point"},"properties":{"osm_id":"9100673785","tag":{"amenity":"waste_basket","waste":"dog_excrement"}},"type":"Feature"},
	{"geometry":{"coordinates":[9.903166,47.412409],"type":"Point"},"properties":{"osm_id":"9100673786","tag":{"amenity":"waste_basket","waste":"dog_excrement"}},"type":"Feature"},
	{"geometry":{"coordinates":[9.883915,47.403274],"type":"Point"},"properties":{"osm_id":"9107653791","tag":{"amenity":"waste_basket","waste":"dog_excrement"}},"type":"Feature"}
]
}
