{
"type": "FeatureCollection",
"lastupdate": "2020-08-05T00:00:00Z",
"features": [
	{"geometry":{"coordinates":[9.926617,45.540034],"type":"Point"},"properties":{"osm_id":"5432464066","tag":{"amenity":"waste_basket"}},"type":"Feature"},
	{"geometry":{"coordinates":[9.926739,45.540127],"type":"Point"},"properties":{"osm_id":"5432464067","tag":{"amenity":"waste_basket","layer":"-1"}},"type":"Feature"},
	{"geometry":{"coordinates":[9.926753,45.540067],"type":"Point"},"properties":{"osm_id":"5432464068","tag":{"amenity":"waste_basket"}},"type":"Feature"},
	{"geometry":{"coordinates":[9.926573,45.540151],"type":"Point"},"properties":{"osm_id":"5432464069","tag":{"amenity":"waste_basket"}},"type":"Feature"},
	{"geometry":{"coordinates":[9.914697,45.535934],"type":"Point"},"properties":{"name":"Isola ecologica","osm_id":"6200932963","tag":{"addr:housenumber":"36","addr:street":"Via Silvio Pellico","amenity":"recycling","opening_hours":"Mo-Sa 09:00-12:00,14:00-18:00","operator":"Chiari Servizi","recycling_type":"centre"}},"type":"Feature"}
]
}
