{
"type": "FeatureCollection",
"lastupdate": "2020-08-03T00:00:00Z",
"features": [
	{"geometry":{"coordinates":[12.054059,57.756396],"type":"Point"},"properties":{"osm_id":"60701655","tag":{"amenity":"recycling"}},"type":"Feature"},
	{"geometry":{"coordinates":[12.055006,57.757804],"type":"Point"},"properties":{"osm_id":"60701656","tag":{"amenity":"recycling"}},"type":"Feature"},
	{"geometry":{"coordinates":[12.055972,57.754212],"type":"Point"},"properties":{"osm_id":"60729036","tag":{"amenity":"recycling"}},"type":"Feature"},
	{"geometry":{"coordinates":[12.063091,57.751197],"type":"Point"},"properties":{"osm_id":"69018161","tag":{"amenity":"recycling"}},"type":"Feature"},
	{"geometry":{"coordinates":[12.050785,57.761856],"type":"Point"},"properties":{"osm_id":"267109891","tag":{"amenity":"recycling"}},"type":"Feature"},
	{"geometry":{"coordinates":[12.07354,57.757708],"type":"Point"},"properties":{"osm_id":"366659400","tag":{"amenity":"recycling"}},"type":"Feature"},
	{"geometry":{"coordinates":[12.062451,57.776878],"type":"Point"},"properties":{"osm_id":"454708526","tag":{"amenity":"recycling"}},"type":"Feature"},
	{"geometry":{"coordinates":[12.051487,57.756538],"type":"Point"},"properties":{"osm_id":"765796301","tag":{"amenity":"recycling"}},"type":"Feature"},
	{"geometry":{"coordinates":[12.041215,57.763556],"type":"Point"},"properties":{"osm_id":"2708814423","tag":{"amenity":"recycling","recycling:cans":"yes","recycling:clothes":"no","recycling:glass":"yes","recycling:paper":"yes"}},"type":"Feature"},
	{"geometry":{"coordinates":[12.044058,57.757732],"type":"Point"},"properties":{"osm_id":"2729293701","tag":{"amenity":"recycling","recycling:cans":"yes","recycling:glass":"yes","recycling:paper":"yes"}},"type":"Feature"},
	{"geometry":{"coordinates":[12.060095,57.757304],"type":"Point"},"properties":{"osm_id":"2967330318","tag":{"amenity":"recycling"}},"type":"Feature"},
	{"geometry":{"coordinates":[12.05447,57.797844],"type":"Point"},"properties":{"osm_id":"4717373719","tag":{"amenity":"waste_basket"}},"type":"Feature"},
	{"geometry":{"coordinates":[12.053858,57.796781],"type":"Point"},"properties":{"osm_id":"4717373721","tag":{"amenity":"waste_basket"}},"type":"Feature"},
	{"geometry":{"coordinates":[12.053204,57.796934],"type":"Point"},"properties":{"osm_id":"4717373722","tag":{"amenity":"waste_basket"}},"type":"Feature"},
	{"geometry":{"coordinates":[12.053951,57.795682],"type":"Point"},"properties":{"osm_id":"4717373726","tag":{"amenity":"waste_basket"}},"type":"Feature"},
	{"geometry":{"coordinates":[12.054445,57.795741],"type":"Point"},"properties":{"osm_id":"4717373727","tag":{"amenity":"waste_basket"}},"type":"Feature"},
	{"geometry":{"coordinates":[12.055249,57.795928],"type":"Point"},"properties":{"osm_id":"4717373730","tag":{"amenity":"waste_basket"}},"type":"Feature"},
	{"geometry":{"coordinates":[12.050755,57.796213],"type":"Point"},"properties":{"osm_id":"4717373737","tag":{"amenity":"waste_basket"}},"type":"Feature"},
	{"geometry":{"coordinates":[12.051629,57.794595],"type":"Point"},"properties":{"osm_id":"4722251366","tag":{"amenity":"waste_basket"}},"type":"Feature"},
	{"geometry":{"coordinates":[12.050868,57.795376],"type":"Point"},"properties":{"osm_id":"4722251378","tag":{"amenity":"waste_basket"}},"type":"Feature"},
	{"geometry":{"coordinates":[12.049295,57.795374],"type":"Point"},"properties":{"osm_id":"4722251404","tag":{"amenity":"waste_basket"}},"type":"Feature"},
	{"geometry":{"coordinates":[12.052117,57.795912],"type":"Point"},"properties":{"osm_id":"4788762382","tag":{"amenity":"waste_basket"}},"type":"Feature"},
	{"geometry":{"coordinates":[12.060502,57.762883],"type":"Point"},"properties":{"osm_id":"4848005260","tag":{"addr:city":"G\u00f6teborg","addr:country":"SE","addr:housenumber":"4","addr:postcode":"41518","addr:street":"Teleskopgatan","amenity":"recycling","contact:phone":"+46 200-88 03 11","contact:website":"https://goo.gl/FAuqHR","email":"kundservice@kretsloppochvatten.goteborg.se","opening_hours":"24/7","operator":"FTI, 0200-88 03 11","recycling:aluminium":"yes","recycling:batteries":"yes","recycling:beverage_cartons":"yes","recycling:cans":"yes","recycling:cartons":"yes","recycling:glass":"yes","recycling:glass_bottles":"yes","recycling:magazines":"yes","recycling:newspaper":"yes","recycling:paper":"yes","recycling:paper_packaging":"yes","recycling:plastic_bottles":"yes","recycling:plastic_packaging":"yes","recycling_type":"centre"}},"type":"Feature"},
	{"geometry":{"coordinates":[12.05578,57.796432],"type":"Point"},"properties":{"osm_id":"4951134337","tag":{"amenity":"waste_basket"}},"type":"Feature"},
	{"geometry":{"coordinates":[12.054378,57.79494],"type":"Point"},"properties":{"osm_id":"5008943766","tag":{"amenity":"waste_basket"}},"type":"Feature"},
	{"geometry":{"coordinates":[12.072876,57.757614],"type":"Point"},"properties":{"osm_id":"6302309306","tag":{"amenity":"waste_basket"}},"type":"Feature"},
	{"geometry":{"coordinates":[12.073016,57.757652],"type":"Point"},"properties":{"osm_id":"6302897716","tag":{"amenity":"waste_basket"}},"type":"Feature"}
]
}
