{
"type": "FeatureCollection",
"features": [
	{"geometry":{"coordinates":[12.068882,57.748813],"type":"Point"},"properties":{"osm_id":"69042352","tag":{"amenity":"recycling"}},"type":"Feature"},
	{"geometry":{"coordinates":[12.049344,57.745637],"type":"Point"},"properties":{"osm_id":"267247912","tag":{"amenity":"recycling"}},"type":"Feature"},
	{"geometry":{"coordinates":[12.093359,57.735192],"type":"Point"},"properties":{"osm_id":"308048417","tag":{"amenity":"recycling"}},"type":"Feature"},
	{"geometry":{"coordinates":[12.069844,57.718253],"type":"Point"},"properties":{"osm_id":"456214409","tag":{"amenity":"recycling"}},"type":"Feature"},
	{"geometry":{"coordinates":[12.0627,57.740708],"type":"Point"},"properties":{"osm_id":"622670300","tag":{"amenity":"recycling"}},"type":"Feature"},
	{"geometry":{"coordinates":[12.045387,57.735406],"type":"Point"},"properties":{"osm_id":"1185348374","tag":{"amenity":"waste_basket"}},"type":"Feature"},
	{"geometry":{"coordinates":[12.086145,57.72933],"type":"Point"},"properties":{"osm_id":"2329429707","tag":{"amenity":"recycling"}},"type":"Feature"},
	{"geometry":{"coordinates":[12.088004,57.725517],"type":"Point"},"properties":{"osm_id":"2343691148","tag":{"amenity":"recycling","recycling:cans":"yes","recycling:clothes":"yes","recycling:glass_bottles":"yes","recycling:paper":"yes","recycling:plastic":"yes","recycling_type":"container","website":"https://www.ftiab.se/"}},"type":"Feature"},
	{"geometry":{"coordinates":[12.089133,57.723267],"type":"Point"},"properties":{"osm_id":"2347488107","tag":{"amenity":"recycling","recycling:cans":"yes","recycling:clothes":"yes","recycling:glass":"no","recycling:glass_bottles":"yes","recycling:paper":"yes","website":"https://www.ftiab.se/"}},"type":"Feature"},
	{"geometry":{"coordinates":[12.078939,57.733589],"type":"Point"},"properties":{"osm_id":"2357370942","tag":{"amenity":"recycling","recycling:cans":"yes","recycling:clothes":"yes","recycling:glass":"no","recycling:glass_bottles":"yes","recycling:paper":"yes","recycling:plastic":"yes","recycling_type":"container","website":"https://www.ftiab.se/"}},"type":"Feature"},
	{"geometry":{"coordinates":[12.077939,57.725641],"type":"Point"},"properties":{"osm_id":"2383627105","tag":{"amenity":"recycling","location":"overground","recycling_type":"container"}},"type":"Feature"},
	{"geometry":{"coordinates":[12.127743,57.725596],"type":"Point"},"properties":{"osm_id":"2393136196","tag":{"amenity":"recycling","recycling:clothes":"yes","recycling:glass":"yes","recycling:paper":"yes"}},"type":"Feature"},
	{"geometry":{"coordinates":[12.054996,57.710298],"type":"Point"},"properties":{"osm_id":"2394164703","tag":{"amenity":"waste_basket","fireproof":"yes"}},"type":"Feature"},
	{"geometry":{"coordinates":[12.055044,57.710364],"type":"Point"},"properties":{"osm_id":"2394164705","tag":{"amenity":"waste_disposal"}},"type":"Feature"},
	{"geometry":{"coordinates":[12.125982,57.726985],"type":"Point"},"properties":{"osm_id":"2394170043","tag":{"amenity":"recycling"}},"type":"Feature"},
	{"geometry":{"coordinates":[12.118676,57.730539],"type":"Point"},"properties":{"osm_id":"2397338490","tag":{"amenity":"recycling","location":"overground","recycling_type":"container"}},"type":"Feature"},
	{"geometry":{"coordinates":[12.110264,57.731153],"type":"Point"},"properties":{"osm_id":"2399426053","tag":{"amenity":"recycling","location":"overground","recycling:batteries":"yes","recycling:cans":"yes","recycling:clothes":"yes","recycling:glass_bottles":"yes","recycling:paper":"yes","recycling:plastic":"no","recycling:plastic_packaging":"yes","recycling_type":"container"}},"type":"Feature"},
	{"geometry":{"coordinates":[12.107269,57.733835],"type":"Point"},"properties":{"osm_id":"2399446436","tag":{"amenity":"recycling","location":"overground","recycling_type":"container"}},"type":"Feature"},
	{"geometry":{"coordinates":[12.108199,57.730683],"type":"Point"},"properties":{"osm_id":"2400637043","tag":{"amenity":"recycling","location":"overground","recycling_type":"container"}},"type":"Feature"},
	{"geometry":{"coordinates":[12.055781,57.716865],"type":"Point"},"properties":{"osm_id":"2463104453","tag":{"amenity":"recycling","check_date":"2021-06-15","recycling_type":"container"}},"type":"Feature"},
	{"geometry":{"coordinates":[12.053156,57.715915],"type":"Point"},"properties":{"osm_id":"2463957685","tag":{"amenity":"recycling","recycling_type":"container"}},"type":"Feature"},
	{"geometry":{"coordinates":[12.106386,57.736065],"type":"Point"},"properties":{"osm_id":"2494681013","tag":{"amenity":"recycling","location":"overground","recycling_type":"container"}},"type":"Feature"},
	{"geometry":{"coordinates":[12.051285,57.72836],"type":"Point"},"properties":{"osm_id":"2543358123","tag":{"amenity":"recycling","recycling_type":"container"}},"type":"Feature"},
	{"geometry":{"coordinates":[12.043074,57.713273],"type":"Point"},"properties":{"osm_id":"2543447926","tag":{"amenity":"recycling","recycling_type":"container"}},"type":"Feature"},
	{"geometry":{"coordinates":[12.056366,57.720402],"type":"Point"},"properties":{"osm_id":"2543447931","tag":{"amenity":"recycling","recycling_type":"container"}},"type":"Feature"},
	{"geometry":{"coordinates":[12.047307,57.715379],"type":"Point"},"properties":{"osm_id":"2543447936","tag":{"amenity":"recycling","recycling_type":"container"}},"type":"Feature"},
	{"geometry":{"coordinates":[12.070514,57.740044],"type":"Point"},"properties":{"name":"\u00c3\u0085tervinningstation Fj\u00c3\u00a4llbogatan","osm_id":"2957658699","tag":{"amenity":"recycling","location":"overground","recycling_type":"container"}},"type":"Feature"},
	{"geometry":{"coordinates":[12.077899,57.715664],"type":"Point"},"properties":{"osm_id":"3104801050","tag":{"amenity":"recycling","location":"overground","recycling:glass":"yes","recycling:paper":"yes","recycling_type":"container"}},"type":"Feature"},
	{"geometry":{"coordinates":[12.121006,57.744811],"type":"Point"},"properties":{"osm_id":"4916915842","tag":{"amenity":"recycling","recycling_type":"container"}},"type":"Feature"},
	{"geometry":{"coordinates":[12.098532,57.740101],"type":"Point"},"properties":{"name":"\u00c3\u0085tervinningstation","osm_id":"5310326793","tag":{"amenity":"recycling","operator":"F\u00c3\u00b6rpacknings & tidnngsinsamlingen, www.fritab.se","recycling:cans":"yes","recycling:clothes":"yes","recycling:glass_bottles":"yes","recycling:paper":"yes","recycling:plastic":"yes"}},"type":"Feature"},
	{"geometry":{"coordinates":[12.108573,57.741019],"type":"Point"},"properties":{"name":"\u00c3\u0085tervinningstation","osm_id":"5310331971","tag":{"amenity":"recycling","location":"overground","recycling:cans":"yes","recycling:clothes":"yes","recycling:glass_bottles":"yes","recycling:paper":"yes","recycling:plastic":"yes","recycling_type":"container"}},"type":"Feature"},
	{"geometry":{"coordinates":[12.077101,57.719658],"type":"Point"},"properties":{"osm_id":"5321075969","tag":{"amenity":"recycling","recycling:cans":"yes","recycling:clothes":"no","recycling:glass_bottles":"yes","recycling:paper":"yes","recycling:plastic":"yes","recycling_type":"container","website":"https://www.ftiab.se/"}},"type":"Feature"},
	{"geometry":{"coordinates":[12.075965,57.717733],"type":"Point"},"properties":{"osm_id":"8976098815","tag":{"amenity":"waste_basket"}},"type":"Feature"},
	{"geometry":{"coordinates":[12.074043,57.716678],"type":"Point"},"properties":{"osm_id":"8976102670","tag":{"amenity":"waste_basket"}},"type":"Feature"},
	{"geometry":{"coordinates":[12.075049,57.716768],"type":"Point"},"properties":{"osm_id":"8976103364","tag":{"amenity":"waste_basket"}},"type":"Feature"},
	{"geometry":{"coordinates":[12.05009,57.720006],"type":"Point"},"properties":{"osm_id":"9171839949","tag":{"amenity":"waste_basket"}},"type":"Feature"},
	{"geometry":{"coordinates":[12.07705,57.714101],"type":"Point"},"properties":{"osm_id":"9173775642","tag":{"amenity":"waste_basket"}},"type":"Feature"}
]
}
