{
"type": "FeatureCollection",
"features": [
	{"geometry":{"coordinates":[12.083403,54.17834],"type":"Point"},"properties":{"osm_id":"349907433","tag":{"amenity":"recycling","location":"underground","recycling:paper":"yes","recycling_type":"container"}},"type":"Feature"},
	{"geometry":{"coordinates":[12.092125,54.173243],"type":"Point"},"properties":{"osm_id":"349907435","tag":{"amenity":"recycling","location":"overground","recycling:clothes":"yes","recycling:glass":"yes","recycling_type":"container"}},"type":"Feature"},
	{"geometry":{"coordinates":[12.067168,54.176954],"type":"Point"},"properties":{"osm_id":"353293466","tag":{"amenity":"recycling","location":"overground","recycling:glass":"yes","recycling_type":"container"}},"type":"Feature"},
	{"geometry":{"coordinates":[12.073885,54.176575],"type":"Point"},"properties":{"osm_id":"353293471","tag":{"amenity":"recycling","location":"overground","recycling:clothes":"yes","recycling:glass":"yes","recycling_type":"container"}},"type":"Feature"},
	{"geometry":{"coordinates":[12.045756,54.173201],"type":"Point"},"properties":{"osm_id":"353325675","tag":{"amenity":"waste_basket"}},"type":"Feature"},
	{"geometry":{"coordinates":[12.078457,54.173296],"type":"Point"},"properties":{"osm_id":"365140686","tag":{"amenity":"recycling","recycling:clothes":"yes","recycling:glass":"yes","recycling:paper":"yes"}},"type":"Feature"},
	{"geometry":{"coordinates":[12.100952,54.176425],"type":"Point"},"properties":{"osm_id":"747820547","tag":{"amenity":"recycling","recycling:glass_bottles":"yes","recycling_type":"container"}},"type":"Feature"},
	{"geometry":{"coordinates":[12.103915,54.173689],"type":"Point"},"properties":{"osm_id":"851415401","tag":{"amenity":"recycling","recycling:glass":"yes"}},"type":"Feature"},
	{"geometry":{"coordinates":[12.09664,54.180584],"type":"Point"},"properties":{"osm_id":"1311950630","tag":{"amenity":"recycling","recycling:glass":"yes"}},"type":"Feature"},
	{"geometry":{"coordinates":[12.100591,54.179062],"type":"Point"},"properties":{"osm_id":"1311950632","tag":{"amenity":"recycling","recycling:glass":"yes"}},"type":"Feature"},
	{"geometry":{"coordinates":[12.096211,54.180784],"type":"Point"},"properties":{"osm_id":"1311950634","tag":{"amenity":"recycling","recycling:glass":"yes"}},"type":"Feature"},
	{"geometry":{"coordinates":[12.097195,54.180371],"type":"Point"},"properties":{"osm_id":"1311950635","tag":{"amenity":"recycling","recycling:glass":"yes"}},"type":"Feature"},
	{"geometry":{"coordinates":[12.100915,54.178923],"type":"Point"},"properties":{"osm_id":"1311950641","tag":{"amenity":"recycling","recycling:glass":"yes"}},"type":"Feature"},
	{"geometry":{"coordinates":[12.079808,54.177849],"type":"Point"},"properties":{"osm_id":"2147982618","tag":{"amenity":"waste_basket"}},"type":"Feature"},
	{"geometry":{"coordinates":[12.078878,54.178908],"type":"Point"},"properties":{"osm_id":"2147982746","tag":{"amenity":"waste_basket","colour":"orange"}},"type":"Feature"},
	{"geometry":{"coordinates":[12.077982,54.179405],"type":"Point"},"properties":{"osm_id":"2148127139","tag":{"amenity":"waste_basket"}},"type":"Feature"},
	{"geometry":{"coordinates":[12.076658,54.179053],"type":"Point"},"properties":{"osm_id":"2148867009","tag":{"amenity":"waste_basket"}},"type":"Feature"},
	{"geometry":{"coordinates":[12.080324,54.179923],"type":"Point"},"properties":{"osm_id":"2148867108","tag":{"amenity":"waste_basket"}},"type":"Feature"},
	{"geometry":{"coordinates":[12.083268,54.18069],"type":"Point"},"properties":{"osm_id":"2148867180","tag":{"amenity":"waste_basket"}},"type":"Feature"},
	{"geometry":{"coordinates":[12.083351,54.18071],"type":"Point"},"properties":{"osm_id":"2148867181","tag":{"amenity":"waste_basket"}},"type":"Feature"},
	{"geometry":{"coordinates":[12.083541,54.18047],"type":"Point"},"properties":{"osm_id":"2150447055","tag":{"amenity":"waste_basket","colour":"orange"}},"type":"Feature"},
	{"geometry":{"coordinates":[12.085717,54.181166],"type":"Point"},"properties":{"osm_id":"2151520454","tag":{"amenity":"waste_basket"}},"type":"Feature"},
	{"geometry":{"coordinates":[12.085937,54.181484],"type":"Point"},"properties":{"osm_id":"2151520461","tag":{"amenity":"waste_basket"}},"type":"Feature"},
	{"geometry":{"coordinates":[12.086504,54.181755],"type":"Point"},"properties":{"osm_id":"2151520466","tag":{"amenity":"waste_basket","colour":"orange"}},"type":"Feature"},
	{"geometry":{"coordinates":[12.08648,54.181799],"type":"Point"},"properties":{"osm_id":"2151520467","tag":{"amenity":"waste_basket","colour":"orange"}},"type":"Feature"},
	{"geometry":{"coordinates":[12.085208,54.181368],"type":"Point"},"properties":{"osm_id":"2151603366","tag":{"amenity":"waste_basket"}},"type":"Feature"},
	{"geometry":{"coordinates":[12.085385,54.181407],"type":"Point"},"properties":{"osm_id":"2151603368","tag":{"amenity":"waste_basket"}},"type":"Feature"},
	{"geometry":{"coordinates":[12.087944,54.177619],"type":"Point"},"properties":{"osm_id":"2151706335","tag":{"amenity":"waste_basket"}},"type":"Feature"},
	{"geometry":{"coordinates":[12.087487,54.179025],"type":"Point"},"properties":{"osm_id":"2151706389","tag":{"amenity":"waste_basket"}},"type":"Feature"},
	{"geometry":{"coordinates":[12.087472,54.179068],"type":"Point"},"properties":{"osm_id":"2151706403","tag":{"amenity":"waste_basket"}},"type":"Feature"},
	{"geometry":{"coordinates":[12.086975,54.1815],"type":"Point"},"properties":{"osm_id":"2151706459","tag":{"amenity":"waste_basket"}},"type":"Feature"},
	{"geometry":{"coordinates":[12.086977,54.181516],"type":"Point"},"properties":{"osm_id":"2151706461","tag":{"amenity":"waste_basket"}},"type":"Feature"},
	{"geometry":{"coordinates":[12.08707,54.181868],"type":"Point"},"properties":{"osm_id":"2151706491","tag":{"amenity":"waste_basket"}},"type":"Feature"},
	{"geometry":{"coordinates":[12.09036,54.177113],"type":"Point"},"properties":{"osm_id":"2151890056","tag":{"amenity":"waste_basket"}},"type":"Feature"},
	{"geometry":{"coordinates":[12.07788,54.171444],"type":"Point"},"properties":{"osm_id":"2269085828","tag":{"amenity":"waste_basket"}},"type":"Feature"},
	{"geometry":{"coordinates":[12.077803,54.171449],"type":"Point"},"properties":{"osm_id":"2269085829","tag":{"amenity":"waste_basket"}},"type":"Feature"},
	{"geometry":{"coordinates":[12.087352,54.176698],"type":"Point"},"properties":{"osm_id":"2932792606","tag":{"amenity":"waste_basket"}},"type":"Feature"},
	{"geometry":{"coordinates":[12.087256,54.176808],"type":"Point"},"properties":{"osm_id":"2932792614","tag":{"amenity":"waste_basket"}},"type":"Feature"},
	{"geometry":{"coordinates":[12.086891,54.17688],"type":"Point"},"properties":{"osm_id":"2932792621","tag":{"amenity":"waste_basket"}},"type":"Feature"},
	{"geometry":{"coordinates":[12.086507,54.176975],"type":"Point"},"properties":{"osm_id":"2932792645","tag":{"amenity":"waste_basket"}},"type":"Feature"},
	{"geometry":{"coordinates":[12.08666,54.176915],"type":"Point"},"properties":{"osm_id":"3163743005","tag":{"amenity":"waste_basket"}},"type":"Feature"},
	{"geometry":{"coordinates":[12.084462,54.176512],"type":"Point"},"properties":{"osm_id":"3704731093","tag":{"amenity":"waste_basket"}},"type":"Feature"},
	{"geometry":{"coordinates":[12.084168,54.176483],"type":"Point"},"properties":{"osm_id":"3704731105","tag":{"amenity":"waste_basket"}},"type":"Feature"},
	{"geometry":{"coordinates":[12.085523,54.176598],"type":"Point"},"properties":{"osm_id":"3704731227","tag":{"amenity":"waste_basket"}},"type":"Feature"},
	{"geometry":{"coordinates":[12.084152,54.177038],"type":"Point"},"properties":{"osm_id":"3704731391","tag":{"amenity":"waste_basket"}},"type":"Feature"},
	{"geometry":{"coordinates":[12.085907,54.177053],"type":"Point"},"properties":{"osm_id":"3704731398","tag":{"amenity":"waste_basket"}},"type":"Feature"},
	{"geometry":{"coordinates":[12.085313,54.177132],"type":"Point"},"properties":{"osm_id":"3704731424","tag":{"amenity":"waste_basket"}},"type":"Feature"},
	{"geometry":{"coordinates":[12.084641,54.1812],"type":"Point"},"properties":{"osm_id":"3728034304","tag":{"amenity":"waste_basket"}},"type":"Feature"},
	{"geometry":{"coordinates":[12.078785,54.180223],"type":"Point"},"properties":{"osm_id":"4325270996","tag":{"amenity":"waste_basket"}},"type":"Feature"},
	{"geometry":{"coordinates":[12.078695,54.180339],"type":"Point"},"properties":{"osm_id":"4325270997","tag":{"amenity":"waste_basket"}},"type":"Feature"},
	{"geometry":{"coordinates":[12.081518,54.180339],"type":"Point"},"properties":{"osm_id":"4325314501","tag":{"amenity":"waste_basket"}},"type":"Feature"},
	{"geometry":{"coordinates":[12.082808,54.180673],"type":"Point"},"properties":{"osm_id":"4325315006","tag":{"amenity":"waste_basket"}},"type":"Feature"},
	{"geometry":{"coordinates":[12.087197,54.179576],"type":"Point"},"properties":{"osm_id":"4325315007","tag":{"amenity":"waste_basket"}},"type":"Feature"},
	{"geometry":{"coordinates":[12.089488,54.177039],"type":"Point"},"properties":{"osm_id":"4325328595","tag":{"amenity":"waste_basket"}},"type":"Feature"},
	{"geometry":{"coordinates":[12.089365,54.176973],"type":"Point"},"properties":{"osm_id":"4325329001","tag":{"amenity":"waste_basket"}},"type":"Feature"},
	{"geometry":{"coordinates":[12.089392,54.176904],"type":"Point"},"properties":{"osm_id":"4325329002","tag":{"amenity":"waste_basket"}},"type":"Feature"},
	{"geometry":{"coordinates":[12.087694,54.178308],"type":"Point"},"properties":{"osm_id":"4325329709","tag":{"amenity":"waste_basket"}},"type":"Feature"},
	{"geometry":{"coordinates":[12.088344,54.176854],"type":"Point"},"properties":{"osm_id":"4325367191","tag":{"amenity":"waste_basket"}},"type":"Feature"},
	{"geometry":{"coordinates":[12.087504,54.178426],"type":"Point"},"properties":{"osm_id":"4325369393","tag":{"amenity":"waste_basket"}},"type":"Feature"},
	{"geometry":{"coordinates":[12.087104,54.180004],"type":"Point"},"properties":{"osm_id":"4325421629","tag":{"amenity":"waste_basket"}},"type":"Feature"},
	{"geometry":{"coordinates":[12.086938,54.180922],"type":"Point"},"properties":{"osm_id":"4325535691","tag":{"amenity":"waste_basket"}},"type":"Feature"},
	{"geometry":{"coordinates":[12.086219,54.173195],"type":"Point"},"properties":{"osm_id":"6052853966","tag":{"amenity":"waste_basket"}},"type":"Feature"},
	{"geometry":{"coordinates":[12.085837,54.173042],"type":"Point"},"properties":{"osm_id":"6052853967","tag":{"amenity":"waste_basket"}},"type":"Feature"},
	{"geometry":{"coordinates":[12.08446,54.176593],"type":"Point"},"properties":{"osm_id":"6052853971","tag":{"amenity":"recycling","recycling:glass":"yes","recycling:glass_bottles":"yes","recycling_type":"container"}},"type":"Feature"},
	{"geometry":{"coordinates":[12.084431,54.176591],"type":"Point"},"properties":{"osm_id":"6052853972","tag":{"amenity":"recycling","recycling:glass":"yes","recycling:glass_bottles":"yes","recycling_type":"container"}},"type":"Feature"},
	{"geometry":{"coordinates":[12.08205,54.177416],"type":"Point"},"properties":{"osm_id":"6053015103","tag":{"amenity":"waste_basket"}},"type":"Feature"},
	{"geometry":{"coordinates":[12.08177,54.169598],"type":"Point"},"properties":{"osm_id":"6360332108","tag":{"amenity":"recycling","recycling:clothes":"yes","recycling:shoes":"yes","recycling_type":"container"}},"type":"Feature"},
	{"geometry":{"coordinates":[12.087236,54.173635],"type":"Point"},"properties":{"osm_id":"6360382181","tag":{"amenity":"waste_basket","waste":"trash"}},"type":"Feature"},
	{"geometry":{"coordinates":[12.086364,54.173023],"type":"Point"},"properties":{"osm_id":"6360382183","tag":{"amenity":"waste_basket","waste":"trash"}},"type":"Feature"},
	{"geometry":{"coordinates":[12.084709,54.171837],"type":"Point"},"properties":{"osm_id":"6360382885","tag":{"amenity":"waste_basket","waste":"trash"}},"type":"Feature"},
	{"geometry":{"coordinates":[12.092031,54.173036],"type":"Point"},"properties":{"osm_id":"6360740081","tag":{"amenity":"recycling","opening_hours":"24/7","recycling:glass_bottles":"yes","recycling_type":"container","wheelchair":"yes"}},"type":"Feature"},
	{"geometry":{"coordinates":[12.09201,54.173003],"type":"Point"},"properties":{"osm_id":"6360740082","tag":{"amenity":"recycling","opening_hours":"24/7","recycling:clothes":"yes","recycling:shoes":"yes","recycling_type":"container","wheelchair":"yes"}},"type":"Feature"},
	{"geometry":{"coordinates":[12.081339,54.179263],"type":"Point"},"properties":{"osm_id":"6809879117","tag":{"amenity":"waste_basket"}},"type":"Feature"},
	{"geometry":{"coordinates":[12.081468,54.179287],"type":"Point"},"properties":{"osm_id":"6809879118","tag":{"amenity":"waste_basket"}},"type":"Feature"},
	{"geometry":{"coordinates":[12.042157,54.166664],"type":"Point"},"properties":{"osm_id":"7301722014","tag":{"amenity":"recycling","opening_hours":"Mo-Fr 07:00-20:00; Sa 07:00-13:00; PH off","recycling:clothes":"yes","recycling:glass":"yes","recycling:shoes":"yes","recycling_type":"container"}},"type":"Feature"},
	{"geometry":{"coordinates":[12.085095,54.169154],"type":"Point"},"properties":{"osm_id":"7406482886","tag":{"amenity":"waste_basket","waste":"rubbish"}},"type":"Feature"},
	{"geometry":{"coordinates":[12.084589,54.168949],"type":"Point"},"properties":{"osm_id":"7406482888","tag":{"amenity":"waste_basket","waste":"rubbish"}},"type":"Feature"},
	{"geometry":{"coordinates":[12.085591,54.169367],"type":"Point"},"properties":{"osm_id":"7411765920","tag":{"amenity":"waste_basket","waste":"rubbish"}},"type":"Feature"},
	{"geometry":{"coordinates":[12.085508,54.169331],"type":"Point"},"properties":{"osm_id":"7411765921","tag":{"amenity":"waste_basket","waste":"rubbish"}},"type":"Feature"}
]
}
