{
"type": "FeatureCollection",
"features": [
	{"geometry":{"coordinates":[12.074128,54.134472],"type":"Point"},"properties":{"osm_id":"369175622","tag":{"amenity":"recycling","recycling:glass":"yes","recycling_type":"container"}},"type":"Feature"},
	{"geometry":{"coordinates":[12.072188,54.130739],"type":"Point"},"properties":{"osm_id":"369175691","tag":{"amenity":"recycling","recycling:clothes":"yes","recycling:glass":"yes","recycling_type":"container"}},"type":"Feature"},
	{"geometry":{"coordinates":[12.07581,54.136021],"type":"Point"},"properties":{"osm_id":"395213942","tag":{"amenity":"recycling","recycling:clothes":"yes","recycling_type":"container"}},"type":"Feature"},
	{"geometry":{"coordinates":[12.073695,54.136564],"type":"Point"},"properties":{"osm_id":"395213957","tag":{"amenity":"recycling","recycling:glass":"yes","recycling_type":"container"}},"type":"Feature"},
	{"geometry":{"coordinates":[12.073583,54.135462],"type":"Point"},"properties":{"osm_id":"395213993","tag":{"amenity":"recycling","recycling:clothes":"yes","recycling_type":"container"}},"type":"Feature"},
	{"geometry":{"coordinates":[12.074242,54.129135],"type":"Point"},"properties":{"osm_id":"408457734","tag":{"amenity":"recycling","recycling:glass":"yes","recycling_type":"container"}},"type":"Feature"},
	{"geometry":{"coordinates":[12.07005,54.131453],"type":"Point"},"properties":{"osm_id":"411677595","tag":{"amenity":"recycling","recycling:glass":"yes","recycling_type":"container"}},"type":"Feature"},
	{"geometry":{"coordinates":[12.067685,54.13026],"type":"Point"},"properties":{"osm_id":"411677609","tag":{"amenity":"recycling","recycling:clothes":"yes","recycling_type":"container"}},"type":"Feature"},
	{"geometry":{"coordinates":[12.07013,54.129509],"type":"Point"},"properties":{"osm_id":"411677612","tag":{"amenity":"recycling","recycling:clothes":"yes","recycling_type":"container"}},"type":"Feature"},
	{"geometry":{"coordinates":[12.071173,54.128967],"type":"Point"},"properties":{"osm_id":"411677626","tag":{"amenity":"recycling","recycling:clothes":"yes","recycling_type":"container"}},"type":"Feature"},
	{"geometry":{"coordinates":[12.067688,54.127668],"type":"Point"},"properties":{"osm_id":"411677631","tag":{"amenity":"recycling","recycling:glass":"yes","recycling_type":"container"}},"type":"Feature"},
	{"geometry":{"coordinates":[12.070412,54.134125],"type":"Point"},"properties":{"osm_id":"418116853","tag":{"amenity":"recycling","recycling:clothes":"yes","recycling:glass":"yes","recycling_type":"container"}},"type":"Feature"},
	{"geometry":{"coordinates":[12.076756,54.133029],"type":"Point"},"properties":{"osm_id":"418116854","tag":{"amenity":"recycling","recycling:glass":"yes","recycling_type":"container"}},"type":"Feature"},
	{"geometry":{"coordinates":[12.056632,54.137638],"type":"Point"},"properties":{"osm_id":"510726314","tag":{"amenity":"recycling","recycling:clothes":"yes","recycling:glass":"yes","recycling:paper":"yes","recycling_type":"container"}},"type":"Feature"},
	{"geometry":{"coordinates":[12.050474,54.137157],"type":"Point"},"properties":{"osm_id":"510726357","tag":{"amenity":"recycling","recycling_type":"container"}},"type":"Feature"},
	{"geometry":{"coordinates":[12.054482,54.139387],"type":"Point"},"properties":{"osm_id":"725570103","tag":{"amenity":"recycling","recycling:paper":"yes"}},"type":"Feature"},
	{"geometry":{"coordinates":[12.063979,54.124147],"type":"Point"},"properties":{"osm_id":"732050350","tag":{"amenity":"recycling","location":"overground","recycling:clothes":"yes","recycling:glass":"yes","recycling_type":"container"}},"type":"Feature"},
	{"geometry":{"coordinates":[12.053236,54.135873],"type":"Point"},"properties":{"osm_id":"947021371","tag":{"amenity":"recycling","recycling:clothes":"yes","recycling_type":"container"}},"type":"Feature"},
	{"geometry":{"coordinates":[12.045685,54.141695],"type":"Point"},"properties":{"osm_id":"1098480269","tag":{"amenity":"recycling","recycling:clothes":"yes","recycling_type":"container"}},"type":"Feature"},
	{"geometry":{"coordinates":[12.045705,54.140573],"type":"Point"},"properties":{"osm_id":"1098480357","tag":{"amenity":"recycling","recycling:glass":"yes","recycling:paper":"yes","recycling_type":"container"}},"type":"Feature"},
	{"geometry":{"coordinates":[12.061583,54.111217],"type":"Point"},"properties":{"osm_id":"1139402440","tag":{"amenity":"recycling","recycling:glass":"yes","recycling:paper":"yes","recycling_type":"container"}},"type":"Feature"},
	{"geometry":{"coordinates":[12.057451,54.114169],"type":"Point"},"properties":{"osm_id":"1150980475","tag":{"amenity":"recycling","recycling:clothes":"yes","recycling:glass":"yes","recycling_type":"container"}},"type":"Feature"},
	{"geometry":{"coordinates":[12.051236,54.120026],"type":"Point"},"properties":{"osm_id":"1175225831","tag":{"amenity":"recycling","recycling:clothes":"yes","recycling_type":"container"}},"type":"Feature"},
	{"geometry":{"coordinates":[12.050855,54.119807],"type":"Point"},"properties":{"osm_id":"1175226418","tag":{"amenity":"recycling","recycling:glass":"yes"}},"type":"Feature"},
	{"geometry":{"coordinates":[12.052239,54.122361],"type":"Point"},"properties":{"osm_id":"1175226724","tag":{"amenity":"recycling","recycling:paper":"yes","recycling_type":"container"}},"type":"Feature"},
	{"geometry":{"coordinates":[12.042842,54.123805],"type":"Point"},"properties":{"osm_id":"1177455507","tag":{"amenity":"recycling","recycling:clothes":"yes","recycling:glass":"yes","recycling_type":"container"}},"type":"Feature"},
	{"geometry":{"coordinates":[12.053739,54.118707],"type":"Point"},"properties":{"osm_id":"1179193520","tag":{"amenity":"recycling","recycling:glass":"yes","recycling_type":"container"}},"type":"Feature"},
	{"geometry":{"coordinates":[12.055713,54.12081],"type":"Point"},"properties":{"osm_id":"1179193596","tag":{"amenity":"recycling","recycling:clothes":"yes"}},"type":"Feature"},
	{"geometry":{"coordinates":[12.057977,54.116239],"type":"Point"},"properties":{"osm_id":"1179193637","tag":{"amenity":"recycling","location":"overground","recycling:clothes":"yes","recycling:glass":"yes","recycling_type":"container"}},"type":"Feature"},
	{"geometry":{"coordinates":[12.05542,54.120196],"type":"Point"},"properties":{"osm_id":"1179193661","tag":{"amenity":"recycling","recycling:glass":"yes","recycling:paper":"yes","recycling_type":"container"}},"type":"Feature"},
	{"geometry":{"coordinates":[12.056025,54.122315],"type":"Point"},"properties":{"osm_id":"1179193703","tag":{"amenity":"recycling","collection_times":"Mo-Fr 07:00-20:00, Sa 12:00-13:00","recycling:glass":"yes","recycling_type":"centre"}},"type":"Feature"},
	{"geometry":{"coordinates":[12.05531,54.124474],"type":"Point"},"properties":{"osm_id":"1179193738","tag":{"amenity":"recycling","location":"overground","recycling:clothes":"yes","recycling_type":"container"}},"type":"Feature"},
	{"geometry":{"coordinates":[12.055014,54.117109],"type":"Point"},"properties":{"osm_id":"1179193750","tag":{"amenity":"recycling","recycling:clothes":"yes","recycling_type":"container"}},"type":"Feature"},
	{"geometry":{"coordinates":[12.05392,54.124487],"type":"Point"},"properties":{"osm_id":"1179194230","tag":{"amenity":"recycling","recycling:clothes":"yes","recycling_type":"container"}},"type":"Feature"},
	{"geometry":{"coordinates":[12.060755,54.122801],"type":"Point"},"properties":{"osm_id":"1187055514","tag":{"amenity":"recycling","recycling:clothes":"yes","recycling:glass":"yes","recycling_type":"container"}},"type":"Feature"},
	{"geometry":{"coordinates":[12.059395,54.128499],"type":"Point"},"properties":{"name":"Glascontainer","osm_id":"1187169769","tag":{"amenity":"recycling","mapillary":"j_zRxZFYBGKqPJ-792FQPA","name:en":"bottle bank","recycling:glass":"yes","recycling_type":"container","survey:date":"2019-09-26"}},"type":"Feature"},
	{"geometry":{"coordinates":[12.062387,54.156436],"type":"Point"},"properties":{"osm_id":"1198343034","tag":{"amenity":"recycling","recycling:glass":"yes","recycling_type":"container"}},"type":"Feature"},
	{"geometry":{"coordinates":[12.068497,54.156792],"type":"Point"},"properties":{"osm_id":"1198343128","tag":{"amenity":"recycling","recycling_type":"container"}},"type":"Feature"},
	{"geometry":{"coordinates":[12.063982,54.154937],"type":"Point"},"properties":{"osm_id":"1198343547","tag":{"amenity":"recycling","recycling:batteries":"no","recycling:books":"yes","recycling:cans":"no","recycling:cardboard":"no","recycling:cartons":"yes","recycling:clothes":"no","recycling:electrical_appliances":"no","recycling:glass":"yes","recycling:glass_bottles":"yes","recycling:green_waste":"no","recycling:magazines":"yes","recycling:newspaper":"yes","recycling:paper":"yes","recycling:paper_packaging":"yes","recycling:plastic":"no","recycling:plastic_bottles":"no","recycling:plastic_packaging":"no","recycling:scrap_metal":"no","recycling:small_appliances":"no","recycling:waste":"no","recycling:wood":"no","recycling_type":"container"}},"type":"Feature"},
	{"geometry":{"coordinates":[12.064211,54.153525],"type":"Point"},"properties":{"osm_id":"1198668258","tag":{"amenity":"recycling","recycling:paper":"yes","recycling_type":"container"}},"type":"Feature"},
	{"geometry":{"coordinates":[12.063504,54.155652],"type":"Point"},"properties":{"osm_id":"1198668281","tag":{"amenity":"recycling","recycling:glass":"yes","recycling:paper":"yes","recycling_type":"container"}},"type":"Feature"},
	{"geometry":{"coordinates":[12.063485,54.154187],"type":"Point"},"properties":{"osm_id":"1198668592","tag":{"amenity":"recycling","recycling:clothes":"yes"}},"type":"Feature"},
	{"geometry":{"coordinates":[12.059405,54.148574],"type":"Point"},"properties":{"osm_id":"1200011846","tag":{"amenity":"recycling","recycling:glass":"yes","recycling:paper":"yes","recycling_type":"container"}},"type":"Feature"},
	{"geometry":{"coordinates":[12.061375,54.152235],"type":"Point"},"properties":{"osm_id":"1200081089","tag":{"amenity":"recycling","recycling:glass":"yes","recycling_type":"container"}},"type":"Feature"},
	{"geometry":{"coordinates":[12.060907,54.14952],"type":"Point"},"properties":{"osm_id":"1203560720","tag":{"amenity":"recycling","recycling:clothes":"yes","recycling_type":"container"}},"type":"Feature"},
	{"geometry":{"coordinates":[12.05402,54.142382],"type":"Point"},"properties":{"osm_id":"1203681987","tag":{"amenity":"recycling","recycling:clothes":"yes","recycling:glass":"yes","recycling_type":"container"}},"type":"Feature"},
	{"geometry":{"coordinates":[12.057241,54.12349],"type":"Point"},"properties":{"osm_id":"1697675840","tag":{"amenity":"recycling","location":"overground","recycling:clothes":"yes","recycling:glass":"yes","recycling:glass_bottles":"yes","recycling_type":"container"}},"type":"Feature"},
	{"geometry":{"coordinates":[12.065829,54.155177],"type":"Point"},"properties":{"osm_id":"1765626765","tag":{"amenity":"recycling","recycling:batteries":"no","recycling:books":"yes","recycling:cans":"yes","recycling:cartons":"yes","recycling:clothes":"no","recycling:electrical_appliances":"no","recycling:glass":"no","recycling:glass_bottles":"no","recycling:green_waste":"yes","recycling:magazines":"yes","recycling:newspaper":"yes","recycling:paper":"yes","recycling:paper_packaging":"yes","recycling:plastic":"yes","recycling:plastic_bottles":"yes","recycling:plastic_packaging":"yes","recycling:scrap_metal":"yes","recycling:small_appliances":"yes","recycling:waste":"yes","recycling:wood":"yes","recycling_type":"container"}},"type":"Feature"},
	{"geometry":{"coordinates":[12.049519,54.153734],"type":"Point"},"properties":{"osm_id":"1781825630","tag":{"amenity":"recycling","recycling:glass":"yes","recycling:paper":"yes","recycling_type":"container"}},"type":"Feature"},
	{"geometry":{"coordinates":[12.063169,54.123015],"type":"Point"},"properties":{"osm_id":"1943143134","tag":{"amenity":"waste_basket"}},"type":"Feature"},
	{"geometry":{"coordinates":[12.049551,54.139271],"type":"Point"},"properties":{"osm_id":"2287954082","tag":{"amenity":"waste_basket"}},"type":"Feature"},
	{"geometry":{"coordinates":[12.049714,54.13922],"type":"Point"},"properties":{"osm_id":"2287954088","tag":{"amenity":"waste_basket"}},"type":"Feature"},
	{"geometry":{"coordinates":[12.057054,54.132624],"type":"Point"},"properties":{"osm_id":"2287954103","tag":{"amenity":"waste_basket"}},"type":"Feature"},
	{"geometry":{"coordinates":[12.057229,54.132601],"type":"Point"},"properties":{"osm_id":"2287954105","tag":{"amenity":"waste_basket"}},"type":"Feature"},
	{"geometry":{"coordinates":[12.056952,54.136108],"type":"Point"},"properties":{"osm_id":"2287954108","tag":{"amenity":"waste_basket"}},"type":"Feature"},
	{"geometry":{"coordinates":[12.057164,54.13516],"type":"Point"},"properties":{"osm_id":"2287954112","tag":{"amenity":"waste_basket"}},"type":"Feature"},
	{"geometry":{"coordinates":[12.057445,54.128955],"type":"Point"},"properties":{"osm_id":"2287954115","tag":{"amenity":"waste_basket"}},"type":"Feature"},
	{"geometry":{"coordinates":[12.057274,54.128989],"type":"Point"},"properties":{"osm_id":"2287954118","tag":{"amenity":"waste_basket"}},"type":"Feature"},
	{"geometry":{"coordinates":[12.050042,54.140028],"type":"Point"},"properties":{"osm_id":"2510396931","tag":{"amenity":"recycling","recycling_type":"container"}},"type":"Feature"},
	{"geometry":{"coordinates":[12.066268,54.155524],"type":"Point"},"properties":{"osm_id":"2809648094","tag":{"amenity":"recycling","recycling_type":"container"}},"type":"Feature"},
	{"geometry":{"coordinates":[12.063863,54.154475],"type":"Point"},"properties":{"osm_id":"2809648314","tag":{"amenity":"recycling"}},"type":"Feature"},
	{"geometry":{"coordinates":[12.053961,54.155923],"type":"Point"},"properties":{"osm_id":"2813327600","tag":{"amenity":"recycling","recycling_type":"container"}},"type":"Feature"},
	{"geometry":{"coordinates":[12.058634,54.154744],"type":"Point"},"properties":{"osm_id":"2813388655","tag":{"amenity":"recycling","recycling_type":"container"}},"type":"Feature"},
	{"geometry":{"coordinates":[12.056909,54.153289],"type":"Point"},"properties":{"osm_id":"2824743965","tag":{"amenity":"recycling","recycling_type":"container"}},"type":"Feature"},
	{"geometry":{"coordinates":[12.057597,54.153127],"type":"Point"},"properties":{"osm_id":"2824743966","tag":{"amenity":"recycling","recycling_type":"container"}},"type":"Feature"},
	{"geometry":{"coordinates":[12.058105,54.152137],"type":"Point"},"properties":{"osm_id":"2824743967","tag":{"amenity":"recycling","recycling_type":"container"}},"type":"Feature"},
	{"geometry":{"coordinates":[12.066954,54.141616],"type":"Point"},"properties":{"osm_id":"2966854433","tag":{"amenity":"recycling","recycling:glass":"yes","recycling_type":"container"}},"type":"Feature"},
	{"geometry":{"coordinates":[12.071494,54.151557],"type":"Point"},"properties":{"highway":"street_lamp","osm_id":"3189787317","tag":{"amenity":"waste_basket","lamp_operator":"Hansestadt Rostock","lamp_ref":"11254"}},"type":"Feature"},
	{"geometry":{"coordinates":[12.086558,54.14018],"type":"Point"},"properties":{"osm_id":"3638480602","tag":{"amenity":"waste_basket"}},"type":"Feature"},
	{"geometry":{"coordinates":[12.077316,54.151167],"type":"Point"},"properties":{"osm_id":"3662295236","tag":{"amenity":"recycling","recycling:glass":"yes","recycling_type":"container"}},"type":"Feature"},
	{"geometry":{"coordinates":[12.073463,54.152983],"type":"Point"},"properties":{"osm_id":"3662295249","tag":{"amenity":"recycling","recycling:glass":"yes","recycling_type":"container"}},"type":"Feature"},
	{"geometry":{"coordinates":[12.075658,54.153796],"type":"Point"},"properties":{"osm_id":"3662295257","tag":{"amenity":"recycling","recycling:glass":"yes","recycling_type":"container"}},"type":"Feature"},
	{"geometry":{"coordinates":[12.09948,54.143995],"type":"Point"},"properties":{"osm_id":"3733426776","tag":{"amenity":"waste_basket"}},"type":"Feature"},
	{"geometry":{"coordinates":[12.070466,54.126384],"type":"Point"},"properties":{"name":"wupa","osm_id":"3769470008","tag":{"amenity":"recycling","opening_hours":"Mo 10:00-18:00; We 10:00-14:00; Fr 10:00-18:00","recycling:paper":"yes","recycling_type":"centre","website":"https://www.wupa-mv.de/index.php/annahmestellen.html"}},"type":"Feature"},
	{"geometry":{"coordinates":[12.070817,54.127043],"type":"Point"},"properties":{"osm_id":"3860421457","tag":{"amenity":"recycling","recycling_type":"container"}},"type":"Feature"},
	{"geometry":{"coordinates":[12.105089,54.113074],"type":"Point"},"properties":{"osm_id":"4712998535","tag":{"amenity":"recycling","recycling:cardboard":"yes","recycling:clothes":"yes","recycling:paper":"yes","recycling:shoes":"yes","recycling_type":"container"}},"type":"Feature"},
	{"geometry":{"coordinates":[12.079131,54.13924],"type":"Point"},"properties":{"osm_id":"4800760744","tag":{"amenity":"waste_basket"}},"type":"Feature"},
	{"geometry":{"coordinates":[12.079018,54.13947],"type":"Point"},"properties":{"osm_id":"4800776437","tag":{"amenity":"waste_basket"}},"type":"Feature"},
	{"geometry":{"coordinates":[12.057814,54.121658],"type":"Point"},"properties":{"osm_id":"4827677121","tag":{"amenity":"waste_basket"}},"type":"Feature"},
	{"geometry":{"coordinates":[12.059469,54.118284],"type":"Point"},"properties":{"osm_id":"4827803850","tag":{"amenity":"waste_basket"}},"type":"Feature"},
	{"geometry":{"coordinates":[12.058417,54.153088],"type":"Point"},"properties":{"osm_id":"4828763322","tag":{"amenity":"waste_disposal"}},"type":"Feature"},
	{"geometry":{"coordinates":[12.101499,54.112459],"type":"Point"},"properties":{"osm_id":"4857254147","tag":{"amenity":"waste_basket"}},"type":"Feature"},
	{"geometry":{"coordinates":[12.058717,54.119328],"type":"Point"},"properties":{"osm_id":"4865537777","tag":{"amenity":"waste_basket"}},"type":"Feature"},
	{"geometry":{"coordinates":[12.086921,54.139827],"type":"Point"},"properties":{"osm_id":"4926671549","tag":{"amenity":"waste_basket"}},"type":"Feature"},
	{"geometry":{"coordinates":[12.057181,54.124681],"type":"Point"},"properties":{"osm_id":"4978369937","tag":{"amenity":"waste_basket"}},"type":"Feature"},
	{"geometry":{"coordinates":[12.057275,54.124965],"type":"Point"},"properties":{"osm_id":"4978369938","tag":{"amenity":"waste_basket"}},"type":"Feature"},
	{"geometry":{"coordinates":[12.0573,54.124776],"type":"Point"},"properties":{"osm_id":"4978369939","tag":{"amenity":"waste_basket"}},"type":"Feature"},
	{"geometry":{"coordinates":[12.055044,54.124703],"type":"Point"},"properties":{"osm_id":"4978369941","tag":{"amenity":"waste_basket"}},"type":"Feature"},
	{"geometry":{"coordinates":[12.05516,54.124757],"type":"Point"},"properties":{"osm_id":"4978369943","tag":{"amenity":"waste_basket"}},"type":"Feature"},
	{"geometry":{"coordinates":[12.057927,54.121537],"type":"Point"},"properties":{"osm_id":"4978369974","tag":{"amenity":"waste_basket"}},"type":"Feature"},
	{"geometry":{"coordinates":[12.058104,54.121531],"type":"Point"},"properties":{"osm_id":"4978369975","tag":{"amenity":"waste_basket"}},"type":"Feature"},
	{"geometry":{"coordinates":[12.062128,54.125951],"type":"Point"},"properties":{"osm_id":"5023106117","tag":{"amenity":"recycling","recycling:clothes":"yes","recycling:glass":"yes","recycling_type":"container"}},"type":"Feature"},
	{"geometry":{"coordinates":[12.061971,54.126454],"type":"Point"},"properties":{"osm_id":"5023106626","tag":{"amenity":"recycling","recycling:clothes":"yes","recycling_type":"container"}},"type":"Feature"},
	{"geometry":{"coordinates":[12.060946,54.127096],"type":"Point"},"properties":{"osm_id":"5023106645","tag":{"amenity":"waste_basket"}},"type":"Feature"},
	{"geometry":{"coordinates":[12.062879,54.129643],"type":"Point"},"properties":{"osm_id":"5023106649","tag":{"amenity":"waste_basket"}},"type":"Feature"},
	{"geometry":{"coordinates":[12.063101,54.12891],"type":"Point"},"properties":{"osm_id":"5023106651","tag":{"amenity":"waste_basket"}},"type":"Feature"},
	{"geometry":{"coordinates":[12.05689,54.13866],"type":"Point"},"properties":{"osm_id":"5024493165","tag":{"amenity":"waste_basket"}},"type":"Feature"},
	{"geometry":{"coordinates":[12.053876,54.123764],"type":"Point"},"properties":{"osm_id":"5057417578","tag":{"amenity":"waste_basket"}},"type":"Feature"},
	{"geometry":{"coordinates":[12.053751,54.123849],"type":"Point"},"properties":{"osm_id":"5057417581","tag":{"amenity":"waste_basket"}},"type":"Feature"},
	{"geometry":{"coordinates":[12.052955,54.123225],"type":"Point"},"properties":{"osm_id":"5057417598","tag":{"amenity":"recycling","recycling:clothes":"yes","recycling_type":"container"}},"type":"Feature"},
	{"geometry":{"coordinates":[12.062869,54.144096],"type":"Point"},"properties":{"osm_id":"5217967756","tag":{"amenity":"waste_disposal"}},"type":"Feature"},
	{"geometry":{"coordinates":[12.059079,54.119573],"type":"Point"},"properties":{"osm_id":"5237560899","tag":{"amenity":"waste_basket"}},"type":"Feature"},
	{"geometry":{"coordinates":[12.059467,54.119545],"type":"Point"},"properties":{"osm_id":"5237560905","tag":{"amenity":"waste_basket"}},"type":"Feature"},
	{"geometry":{"coordinates":[12.060273,54.11927],"type":"Point"},"properties":{"osm_id":"5237560907","tag":{"amenity":"recycling","recycling:clothes":"yes","recycling_type":"container"}},"type":"Feature"},
	{"geometry":{"coordinates":[12.0676,54.134891],"type":"Point"},"properties":{"osm_id":"5562603841","tag":{"amenity":"waste_basket"}},"type":"Feature"},
	{"geometry":{"coordinates":[12.066395,54.135601],"type":"Point"},"properties":{"osm_id":"5562603842","tag":{"amenity":"waste_basket"}},"type":"Feature"},
	{"geometry":{"coordinates":[12.06351,54.133053],"type":"Point"},"properties":{"osm_id":"5788008619","tag":{"amenity":"waste_basket"}},"type":"Feature"},
	{"geometry":{"coordinates":[12.063848,54.133268],"type":"Point"},"properties":{"osm_id":"5788010920","tag":{"amenity":"waste_basket"}},"type":"Feature"},
	{"geometry":{"coordinates":[12.06397,54.133341],"type":"Point"},"properties":{"osm_id":"5788010921","tag":{"amenity":"waste_basket"}},"type":"Feature"},
	{"geometry":{"coordinates":[12.064102,54.13309],"type":"Point"},"properties":{"osm_id":"5788010922","tag":{"amenity":"waste_basket"}},"type":"Feature"},
	{"geometry":{"coordinates":[12.064483,54.132693],"type":"Point"},"properties":{"osm_id":"5788013249","tag":{"amenity":"waste_disposal"}},"type":"Feature"},
	{"geometry":{"coordinates":[12.064027,54.133079],"type":"Point"},"properties":{"osm_id":"5788013480","tag":{"amenity":"waste_basket"}},"type":"Feature"},
	{"geometry":{"coordinates":[12.06415,54.13268],"type":"Point"},"properties":{"osm_id":"5788013481","tag":{"amenity":"waste_basket"}},"type":"Feature"},
	{"geometry":{"coordinates":[12.064515,54.132197],"type":"Point"},"properties":{"osm_id":"5788014292","tag":{"amenity":"waste_basket"}},"type":"Feature"},
	{"geometry":{"coordinates":[12.06423,54.131974],"type":"Point"},"properties":{"osm_id":"5788014933","tag":{"amenity":"waste_basket"}},"type":"Feature"},
	{"geometry":{"coordinates":[12.057084,54.121967],"type":"Point"},"properties":{"osm_id":"5790649191","tag":{"amenity":"waste_basket"}},"type":"Feature"},
	{"geometry":{"coordinates":[12.101943,54.112555],"type":"Point"},"properties":{"osm_id":"6033787040","tag":{"amenity":"waste_basket"}},"type":"Feature"},
	{"geometry":{"coordinates":[12.071961,54.135325],"type":"Point"},"properties":{"osm_id":"6037164663","tag":{"amenity":"recycling","opening_hours":"24/7","operator":"East-West","recycling:clothes":"yes","recycling:shoes":"yes","recycling_type":"container"}},"type":"Feature"},
	{"geometry":{"coordinates":[12.073385,54.147421],"type":"Point"},"properties":{"osm_id":"6037572222","tag":{"amenity":"recycling","operator":"East-West","recycling:clothes":"yes","recycling:shoes":"yes","recycling_type":"container"}},"type":"Feature"},
	{"geometry":{"coordinates":[12.073405,54.147444],"type":"Point"},"properties":{"osm_id":"6037572223","tag":{"amenity":"recycling","recycling:glass_bottles":"yes","recycling_type":"container"}},"type":"Feature"},
	{"geometry":{"coordinates":[12.074702,54.147907],"type":"Point"},"properties":{"osm_id":"6037604184","tag":{"amenity":"recycling","recycling:glass_bottles":"yes","recycling_type":"container"}},"type":"Feature"},
	{"geometry":{"coordinates":[12.073515,54.151482],"type":"Point"},"properties":{"osm_id":"6037648613","tag":{"amenity":"recycling","opening_hours":"24/7","operator":"Veolia","recycling:clothes":"yes","recycling:shoes":"yes","recycling_type":"container"}},"type":"Feature"},
	{"geometry":{"coordinates":[12.0777,54.155707],"type":"Point"},"properties":{"osm_id":"6037727325","tag":{"amenity":"recycling","recycling:cardboard":"yes","recycling:paper":"yes","recycling_type":"container"}},"type":"Feature"},
	{"geometry":{"coordinates":[12.077742,54.155722],"type":"Point"},"properties":{"osm_id":"6037727326","tag":{"amenity":"recycling","recycling:glass_bottles":"yes","recycling_type":"container"}},"type":"Feature"},
	{"geometry":{"coordinates":[12.069413,54.156032],"type":"Point"},"properties":{"osm_id":"6053003198","tag":{"amenity":"waste_basket"}},"type":"Feature"},
	{"geometry":{"coordinates":[12.049294,54.13248],"type":"Point"},"properties":{"osm_id":"6150369073","tag":{"amenity":"waste_basket"}},"type":"Feature"},
	{"geometry":{"coordinates":[12.051431,54.134531],"type":"Point"},"properties":{"osm_id":"6150369074","tag":{"amenity":"recycling"}},"type":"Feature"},
	{"geometry":{"coordinates":[12.052709,54.133608],"type":"Point"},"properties":{"osm_id":"6150369896","tag":{"amenity":"waste_basket"}},"type":"Feature"},
	{"geometry":{"coordinates":[12.053935,54.13427],"type":"Point"},"properties":{"osm_id":"6150369897","tag":{"amenity":"waste_basket"}},"type":"Feature"},
	{"geometry":{"coordinates":[12.053265,54.134286],"type":"Point"},"properties":{"osm_id":"6150369922","tag":{"amenity":"waste_basket"}},"type":"Feature"},
	{"geometry":{"coordinates":[12.052216,54.134023],"type":"Point"},"properties":{"osm_id":"6150370149","tag":{"amenity":"recycling"}},"type":"Feature"},
	{"geometry":{"coordinates":[12.053514,54.133553],"type":"Point"},"properties":{"osm_id":"6150370169","tag":{"amenity":"recycling","location":"overground","recycling:clothes":"yes","recycling:glass_bottles":"yes","recycling:shoes":"yes","recycling_type":"container"}},"type":"Feature"},
	{"geometry":{"coordinates":[12.052824,54.135935],"type":"Point"},"properties":{"osm_id":"6150370270","tag":{"amenity":"waste_basket"}},"type":"Feature"},
	{"geometry":{"coordinates":[12.052394,54.136111],"type":"Point"},"properties":{"osm_id":"6150370271","tag":{"amenity":"waste_disposal"}},"type":"Feature"},
	{"geometry":{"coordinates":[12.05236,54.137017],"type":"Point"},"properties":{"osm_id":"6150370280","tag":{"amenity":"waste_disposal"}},"type":"Feature"},
	{"geometry":{"coordinates":[12.052245,54.134826],"type":"Point"},"properties":{"osm_id":"6150370313","tag":{"amenity":"waste_basket"}},"type":"Feature"},
	{"geometry":{"coordinates":[12.052354,54.135773],"type":"Point"},"properties":{"osm_id":"6150370412","tag":{"amenity":"waste_disposal"}},"type":"Feature"},
	{"geometry":{"coordinates":[12.05239,54.136577],"type":"Point"},"properties":{"osm_id":"6150370413","tag":{"amenity":"waste_disposal"}},"type":"Feature"},
	{"geometry":{"coordinates":[12.053079,54.117657],"type":"Point"},"properties":{"osm_id":"6206285579","tag":{"amenity":"recycling","collection_times":"Mo-Fr 7:00-20:00; Sa 7:00-13:00","recycling:clothes":"yes","recycling:glass":"yes","recycling_type":"container"}},"type":"Feature"},
	{"geometry":{"coordinates":[12.055567,54.118573],"type":"Point"},"properties":{"osm_id":"6206285581","tag":{"amenity":"waste_basket"}},"type":"Feature"},
	{"geometry":{"coordinates":[12.057497,54.133146],"type":"Point"},"properties":{"osm_id":"6256048281","tag":{"amenity":"recycling","recycling:clothes":"yes","recycling:shoes":"yes","recycling_type":"container"}},"type":"Feature"},
	{"geometry":{"coordinates":[12.048675,54.144866],"type":"Point"},"properties":{"osm_id":"6256404962","tag":{"amenity":"waste_basket","waste":"trash"}},"type":"Feature"},
	{"geometry":{"coordinates":[12.071315,54.1514],"type":"Point"},"properties":{"osm_id":"6256665756","tag":{"amenity":"waste_basket","waste":"trash"}},"type":"Feature"},
	{"geometry":{"coordinates":[12.068394,54.126151],"type":"Point"},"properties":{"osm_id":"6624671149","tag":{"amenity":"waste_basket"}},"type":"Feature"},
	{"geometry":{"coordinates":[12.066575,54.135468],"type":"Point"},"properties":{"osm_id":"6624681838","tag":{"amenity":"waste_basket"}},"type":"Feature"},
	{"geometry":{"coordinates":[12.071811,54.151069],"type":"Point"},"properties":{"osm_id":"6624682172","tag":{"amenity":"waste_basket"}},"type":"Feature"},
	{"geometry":{"coordinates":[12.067544,54.144058],"type":"Point"},"properties":{"osm_id":"6624686718","tag":{"amenity":"waste_basket"}},"type":"Feature"},
	{"geometry":{"coordinates":[12.068415,54.125704],"type":"Point"},"properties":{"osm_id":"6624688177","tag":{"amenity":"waste_basket"}},"type":"Feature"},
	{"geometry":{"coordinates":[12.06879,54.123954],"type":"Point"},"properties":{"osm_id":"6624693025","tag":{"amenity":"waste_basket"}},"type":"Feature"},
	{"geometry":{"coordinates":[12.065337,54.136647],"type":"Point"},"properties":{"osm_id":"6624693768","tag":{"amenity":"waste_basket"}},"type":"Feature"},
	{"geometry":{"coordinates":[12.07198,54.150964],"type":"Point"},"properties":{"osm_id":"6624694417","tag":{"amenity":"waste_basket"}},"type":"Feature"},
	{"geometry":{"coordinates":[12.105919,54.114945],"type":"Point"},"properties":{"osm_id":"7318585845","tag":{"amenity":"waste_basket","waste":"trash"}},"type":"Feature"},
	{"geometry":{"coordinates":[12.105676,54.11493],"type":"Point"},"properties":{"osm_id":"7318658550","tag":{"amenity":"waste_basket","waste":"trash"}},"type":"Feature"},
	{"geometry":{"coordinates":[12.068456,54.123666],"type":"Point"},"properties":{"osm_id":"7398927937","tag":{"amenity":"waste_basket"}},"type":"Feature"},
	{"geometry":{"coordinates":[12.068464,54.123568],"type":"Point"},"properties":{"osm_id":"7398927938","tag":{"amenity":"waste_basket"}},"type":"Feature"},
	{"geometry":{"coordinates":[12.068569,54.123528],"type":"Point"},"properties":{"osm_id":"7398927939","tag":{"amenity":"waste_basket"}},"type":"Feature"},
	{"geometry":{"coordinates":[12.068578,54.123436],"type":"Point"},"properties":{"osm_id":"7398927947","tag":{"amenity":"waste_basket"}},"type":"Feature"},
	{"geometry":{"coordinates":[12.068664,54.12337],"type":"Point"},"properties":{"osm_id":"7398927950","tag":{"amenity":"waste_basket"}},"type":"Feature"},
	{"geometry":{"coordinates":[12.068685,54.123296],"type":"Point"},"properties":{"osm_id":"7398927954","tag":{"amenity":"waste_basket"}},"type":"Feature"},
	{"geometry":{"coordinates":[12.069034,54.122907],"type":"Point"},"properties":{"osm_id":"7398927961","tag":{"amenity":"waste_basket"}},"type":"Feature"},
	{"geometry":{"coordinates":[12.069037,54.122902],"type":"Point"},"properties":{"osm_id":"7398927962","tag":{"amenity":"waste_basket"}},"type":"Feature"},
	{"geometry":{"coordinates":[12.079772,54.112042],"type":"Point"},"properties":{"osm_id":"7398983593","tag":{"amenity":"waste_basket"}},"type":"Feature"},
	{"geometry":{"coordinates":[12.079981,54.111825],"type":"Point"},"properties":{"osm_id":"7398983600","tag":{"amenity":"waste_basket"}},"type":"Feature"},
	{"geometry":{"coordinates":[12.08007,54.11175],"type":"Point"},"properties":{"osm_id":"7398983601","tag":{"amenity":"waste_basket"}},"type":"Feature"},
	{"geometry":{"coordinates":[12.08016,54.111671],"type":"Point"},"properties":{"osm_id":"7398983606","tag":{"amenity":"waste_basket"}},"type":"Feature"},
	{"geometry":{"coordinates":[12.080169,54.111636],"type":"Point"},"properties":{"osm_id":"7398983607","tag":{"amenity":"waste_basket"}},"type":"Feature"},
	{"geometry":{"coordinates":[12.068124,54.124044],"type":"Point"},"properties":{"osm_id":"7399182768","tag":{"amenity":"waste_basket"}},"type":"Feature"},
	{"geometry":{"coordinates":[12.064813,54.138571],"type":"Point"},"properties":{"osm_id":"7403176878","tag":{"amenity":"waste_basket","waste":"rubbish"}},"type":"Feature"},
	{"geometry":{"coordinates":[12.064759,54.138149],"type":"Point"},"properties":{"osm_id":"7403176884","tag":{"amenity":"waste_basket","waste":"rubbish"}},"type":"Feature"},
	{"geometry":{"coordinates":[12.064796,54.13789],"type":"Point"},"properties":{"osm_id":"7403204489","tag":{"amenity":"waste_basket","waste":"rubbish"}},"type":"Feature"},
	{"geometry":{"coordinates":[12.064796,54.138049],"type":"Point"},"properties":{"osm_id":"7403204492","tag":{"amenity":"waste_basket","waste":"rubbish"}},"type":"Feature"},
	{"geometry":{"coordinates":[12.070922,54.152604],"type":"Point"},"properties":{"osm_id":"7406211241","tag":{"amenity":"waste_basket","waste":"rubbish"}},"type":"Feature"},
	{"geometry":{"coordinates":[12.07091,54.152438],"type":"Point"},"properties":{"osm_id":"7406211248","tag":{"amenity":"waste_basket","waste":"rubbish"}},"type":"Feature"},
	{"geometry":{"coordinates":[12.070804,54.152343],"type":"Point"},"properties":{"osm_id":"7406211254","tag":{"amenity":"waste_basket","waste":"rubbish"}},"type":"Feature"},
	{"geometry":{"coordinates":[12.070859,54.152282],"type":"Point"},"properties":{"osm_id":"7406211256","tag":{"amenity":"waste_basket","waste":"rubbish"}},"type":"Feature"},
	{"geometry":{"coordinates":[12.070737,54.152136],"type":"Point"},"properties":{"osm_id":"7406211258","tag":{"amenity":"waste_basket","waste":"rubbish"}},"type":"Feature"},
	{"geometry":{"coordinates":[12.070799,54.152074],"type":"Point"},"properties":{"osm_id":"7406211259","tag":{"amenity":"waste_basket","waste":"rubbish"}},"type":"Feature"},
	{"geometry":{"coordinates":[12.070696,54.152021],"type":"Point"},"properties":{"osm_id":"7406211261","tag":{"amenity":"waste_basket","waste":"rubbish"}},"type":"Feature"},
	{"geometry":{"coordinates":[12.070767,54.151963],"type":"Point"},"properties":{"osm_id":"7406211262","tag":{"amenity":"waste_basket","waste":"rubbish"}},"type":"Feature"},
	{"geometry":{"coordinates":[12.070638,54.151863],"type":"Point"},"properties":{"osm_id":"7406211267","tag":{"amenity":"waste_basket","waste":"rubbish"}},"type":"Feature"},
	{"geometry":{"coordinates":[12.065179,54.138083],"type":"Point"},"properties":{"osm_id":"7415170074","tag":{"amenity":"waste_basket","waste":"rubbish"}},"type":"Feature"},
	{"geometry":{"coordinates":[12.065331,54.138317],"type":"Point"},"properties":{"osm_id":"7415170076","tag":{"amenity":"waste_basket","waste":"rubbish"}},"type":"Feature"},
	{"geometry":{"coordinates":[12.065182,54.138378],"type":"Point"},"properties":{"osm_id":"7415170079","tag":{"amenity":"waste_basket","waste":"rubbish"}},"type":"Feature"},
	{"geometry":{"coordinates":[12.0652,54.138731],"type":"Point"},"properties":{"osm_id":"7415244992","tag":{"amenity":"waste_basket","waste":"rubbish"}},"type":"Feature"},
	{"geometry":{"coordinates":[12.077829,54.145231],"type":"Point"},"properties":{"osm_id":"7529832165","tag":{"amenity":"recycling","recycling:clothes":"yes","recycling:shoes":"yes","recycling_type":"container"}},"type":"Feature"},
	{"geometry":{"coordinates":[12.081363,54.147223],"type":"Point"},"properties":{"osm_id":"7529888948","tag":{"amenity":"recycling","opening_hours":"Mo-Fr 07:00-20:00; Sa 07:00-13:00","recycling:glass_bottles":"yes","recycling_type":"container"}},"type":"Feature"},
	{"geometry":{"coordinates":[12.081348,54.147183],"type":"Point"},"properties":{"osm_id":"7529888949","tag":{"amenity":"recycling","recycling:clothes":"yes","recycling:shoes":"yes","recycling_type":"container"}},"type":"Feature"},
	{"geometry":{"coordinates":[12.080686,54.151847],"type":"Point"},"properties":{"osm_id":"7529996136","tag":{"amenity":"recycling","opening_hours":"Mo-Fr 07:00-20:00; Sa 07:00-13:00","recycling:glass_bottles":"yes","recycling_type":"container"}},"type":"Feature"},
	{"geometry":{"coordinates":[12.053835,54.13588],"type":"Point"},"properties":{"osm_id":"7541630694","tag":{"amenity":"recycling","recycling:clothes":"yes","recycling:shoes":"yes","recycling_type":"container"}},"type":"Feature"},
	{"geometry":{"coordinates":[12.054944,54.132173],"type":"Point"},"properties":{"osm_id":"7541645683","tag":{"amenity":"recycling","power":"substation","recycling:paper":"yes","recycling_type":"container"}},"type":"Feature"},
	{"geometry":{"coordinates":[12.054946,54.132146],"type":"Point"},"properties":{"osm_id":"7541645684","tag":{"amenity":"recycling","opening_hours":"Mo-Fr 07:00-20:00; Sa 07:00-13:00","recycling:glass_bottles":"yes","recycling_type":"container"}},"type":"Feature"}
]
}
