{
"type": "FeatureCollection",
"features": [
	{"geometry":{"coordinates":[12.048384,51.510085],"type":"Point"},"properties":{"osm_id":"730876078","tag":{"amenity":"recycling","recycling_type":"container"}},"type":"Feature"},
	{"geometry":{"coordinates":[12.093281,51.549335],"type":"Point"},"properties":{"osm_id":"930303019","tag":{"amenity":"recycling"}},"type":"Feature"},
	{"geometry":{"coordinates":[12.057109,51.538454],"type":"Point"},"properties":{"osm_id":"2659096012","tag":{"amenity":"recycling","opening_hours":"Mo-Fr 07:00-20:00; PH off","recycling:glass_bottles":"yes","recycling_type":"container"}},"type":"Feature"},
	{"geometry":{"coordinates":[12.063334,51.53474],"type":"Point"},"properties":{"osm_id":"2659291649","tag":{"amenity":"recycling","recycling_type":"container"}},"type":"Feature"},
	{"geometry":{"coordinates":[12.05998,51.535891],"type":"Point"},"properties":{"osm_id":"2753535392","tag":{"amenity":"waste_basket"}},"type":"Feature"},
	{"geometry":{"coordinates":[12.059955,51.521395],"type":"Point"},"properties":{"osm_id":"2754447557","tag":{"amenity":"recycling","recycling:clothes":"yes","recycling:glass_bottles":"yes","recycling_type":"container"}},"type":"Feature"},
	{"geometry":{"coordinates":[12.055316,51.54789],"type":"Point"},"properties":{"osm_id":"2896526724","tag":{"amenity":"recycling","recycling:clothes":"no","recycling:glass_bottles":"yes","recycling_type":"container"}},"type":"Feature"},
	{"geometry":{"coordinates":[12.091204,51.551396],"type":"Point"},"properties":{"osm_id":"2947668258","tag":{"amenity":"recycling","recycling:clothes":"yes"}},"type":"Feature"},
	{"geometry":{"coordinates":[12.053542,51.511912],"type":"Point"},"properties":{"osm_id":"2995291751","tag":{"amenity":"waste_basket"}},"type":"Feature"},
	{"geometry":{"coordinates":[12.064099,51.53406],"type":"Point"},"properties":{"osm_id":"3953145992","tag":{"amenity":"waste_basket"}},"type":"Feature"},
	{"geometry":{"coordinates":[12.064722,51.534427],"type":"Point"},"properties":{"osm_id":"3953145993","tag":{"amenity":"waste_basket"}},"type":"Feature"},
	{"geometry":{"coordinates":[12.049298,51.511582],"type":"Point"},"properties":{"osm_id":"3954598167","tag":{"amenity":"waste_basket"}},"type":"Feature"},
	{"geometry":{"coordinates":[12.051621,51.512009],"type":"Point"},"properties":{"osm_id":"3954598178","tag":{"amenity":"waste_basket"}},"type":"Feature"},
	{"geometry":{"coordinates":[12.050762,51.512013],"type":"Point"},"properties":{"osm_id":"3954598179","tag":{"amenity":"waste_basket"}},"type":"Feature"},
	{"geometry":{"coordinates":[12.050975,51.512055],"type":"Point"},"properties":{"osm_id":"3954598185","tag":{"amenity":"waste_basket"}},"type":"Feature"},
	{"geometry":{"coordinates":[12.051196,51.512091],"type":"Point"},"properties":{"osm_id":"3954598188","tag":{"amenity":"waste_basket"}},"type":"Feature"},
	{"geometry":{"coordinates":[12.090686,51.550097],"type":"Point"},"properties":{"osm_id":"3954679691","tag":{"amenity":"waste_basket"}},"type":"Feature"},
	{"geometry":{"coordinates":[12.059053,51.522492],"type":"Point"},"properties":{"osm_id":"6926473163","tag":{"amenity":"waste_basket"}},"type":"Feature"},
	{"geometry":{"coordinates":[12.05926,51.522566],"type":"Point"},"properties":{"osm_id":"6926473164","tag":{"amenity":"waste_basket"}},"type":"Feature"}
]
}
