{
"type": "FeatureCollection",
"features": [
	{"geometry":{"coordinates":[12.045692,51.475394],"type":"Point"},"properties":{"osm_id":"1277105491","tag":{"amenity":"recycling","recycling:clothes":"yes","recycling:glass":"yes","recycling_type":"container"}},"type":"Feature"},
	{"geometry":{"coordinates":[12.047732,51.482663],"type":"Point"},"properties":{"osm_id":"1426492137","tag":{"amenity":"recycling","recycling:clothes":"yes","recycling:glass_bottles":"yes","recycling:small_appliances":"yes","recycling_type":"container"}},"type":"Feature"},
	{"geometry":{"coordinates":[12.047333,51.481853],"type":"Point"},"properties":{"osm_id":"1427387956","tag":{"amenity":"recycling","recycling:clothes":"yes","recycling:glass_bottles":"yes","recycling_type":"container"}},"type":"Feature"},
	{"geometry":{"coordinates":[12.108634,51.455128],"type":"Point"},"properties":{"osm_id":"1782506825","tag":{"amenity":"waste_basket"}},"type":"Feature"},
	{"geometry":{"coordinates":[12.108517,51.45518],"type":"Point"},"properties":{"osm_id":"1782506835","tag":{"amenity":"waste_basket"}},"type":"Feature"},
	{"geometry":{"coordinates":[12.108397,51.455234],"type":"Point"},"properties":{"osm_id":"1782506837","tag":{"amenity":"waste_basket"}},"type":"Feature"},
	{"geometry":{"coordinates":[12.108492,51.455381],"type":"Point"},"properties":{"osm_id":"1782506839","tag":{"amenity":"waste_basket"}},"type":"Feature"},
	{"geometry":{"coordinates":[12.108747,51.455071],"type":"Point"},"properties":{"osm_id":"1916730495","tag":{"amenity":"waste_basket"}},"type":"Feature"},
	{"geometry":{"coordinates":[12.109051,51.455148],"type":"Point"},"properties":{"osm_id":"1916730504","tag":{"amenity":"waste_basket"}},"type":"Feature"},
	{"geometry":{"coordinates":[12.111008,51.455985],"type":"Point"},"properties":{"osm_id":"1916730542","tag":{"amenity":"waste_basket"}},"type":"Feature"},
	{"geometry":{"coordinates":[12.110444,51.456212],"type":"Point"},"properties":{"osm_id":"1916730567","tag":{"amenity":"waste_basket"}},"type":"Feature"},
	{"geometry":{"coordinates":[12.047262,51.499582],"type":"Point"},"properties":{"osm_id":"2951941150","tag":{"amenity":"waste_basket"}},"type":"Feature"},
	{"geometry":{"coordinates":[12.04535,51.482965],"type":"Point"},"properties":{"osm_id":"2951941166","tag":{"amenity":"waste_basket"}},"type":"Feature"},
	{"geometry":{"coordinates":[12.045397,51.48303],"type":"Point"},"properties":{"osm_id":"2951941167","tag":{"amenity":"waste_basket"}},"type":"Feature"},
	{"geometry":{"coordinates":[12.108976,51.455313],"type":"Point"},"properties":{"osm_id":"4303446502","tag":{"amenity":"waste_basket"}},"type":"Feature"},
	{"geometry":{"coordinates":[12.047535,51.49932],"type":"Point"},"properties":{"osm_id":"4544261614","tag":{"amenity":"waste_basket"}},"type":"Feature"},
	{"geometry":{"coordinates":[12.047845,51.499325],"type":"Point"},"properties":{"osm_id":"4544261615","tag":{"amenity":"recycling","recycling:clothes":"yes","recycling:glass_bottles":"yes","recycling_type":"container"}},"type":"Feature"},
	{"geometry":{"coordinates":[12.121922,51.467502],"type":"Point"},"properties":{"osm_id":"5967666445","tag":{"amenity":"recycling","recycling_type":"container"}},"type":"Feature"},
	{"geometry":{"coordinates":[12.044087,51.488158],"type":"Point"},"properties":{"osm_id":"7418608371","tag":{"amenity":"recycling","recycling:glass_bottles":"yes","recycling_type":"container","wheelchair":"limited"}},"type":"Feature"}
]
}
