{
"type": "FeatureCollection",
"features": [
	{"geometry":{"coordinates":[12.046202,51.447051],"type":"Point"},"properties":{"osm_id":"3945915375","tag":{"amenity":"recycling","recycling:glass":"yes","recycling_type":"container"}},"type":"Feature"},
	{"geometry":{"coordinates":[12.051611,51.44498],"type":"Point"},"properties":{"osm_id":"4197910731","tag":{"amenity":"recycling","recycling_type":"container"}},"type":"Feature"},
	{"geometry":{"coordinates":[12.12146,51.436081],"type":"Point"},"properties":{"osm_id":"4285809965","tag":{"amenity":"recycling"}},"type":"Feature"},
	{"geometry":{"coordinates":[12.043747,51.435417],"type":"Point"},"properties":{"osm_id":"4310085811","tag":{"amenity":"recycling"}},"type":"Feature"},
	{"geometry":{"coordinates":[12.11849,51.428625],"type":"Point"},"properties":{"highway":"bus_stop","name":"Gr\u00c3\u00b6bers Schule","osm_id":"9075171504","ref":"1","tag":{"addr:country":"DE","addr:postcode":"06184","addr:street":"Schulstra\u00c3\u009fe","addr:suburb":"Gr\u00c3\u00b6bers","amenity":"waste_basket","bench":"no","bin":"yes","bus":"yes","departures_board":"timetable","network":"MDV","network:wikidata":"Q1742463","network:wikipedia":"de:Mitteldeutscher Verkehrsverbund","operator":"Gemeinde Kabelsketal","public_transport":"platform","shelter":"yes","tactile_paving":"no","wheelchair":"no"}},"type":"Feature"},
	{"geometry":{"coordinates":[12.127598,51.435637],"type":"Point"},"properties":{"osm_id":"9180335744","tag":{"amenity":"recycling","recycling:glass_bottles":"yes","recycling_type":"container"}},"type":"Feature"}
]
}
