{
"type": "FeatureCollection",
"features": [
	{"geometry":{"coordinates":[12.101081,50.655697],"type":"Point"},"properties":{"osm_id":"4307683225","tag":{"amenity":"recycling","recycling:glass_bottles":"green","recycling_type":"container"}},"type":"Feature"},
	{"geometry":{"coordinates":[12.101064,50.65569],"type":"Point"},"properties":{"osm_id":"4307683226","tag":{"amenity":"recycling","recycling:glass_bottles":"green","recycling_type":"container"}},"type":"Feature"},
	{"geometry":{"coordinates":[12.1011,50.655706],"type":"Point"},"properties":{"osm_id":"4307683227","tag":{"amenity":"recycling","colour":"green","recycling:glass_bottles":"brown","recycling_type":"container"}},"type":"Feature"},
	{"geometry":{"coordinates":[12.09991,50.655897],"type":"Point"},"properties":{"osm_id":"4307689000","tag":{"amenity":"waste_basket"}},"type":"Feature"},
	{"geometry":{"coordinates":[12.09966,50.65588],"type":"Point"},"properties":{"osm_id":"4329536118","tag":{"amenity":"waste_basket"}},"type":"Feature"},
	{"geometry":{"coordinates":[12.10394,50.655841],"type":"Point"},"properties":{"osm_id":"4329570494","tag":{"amenity":"recycling","colour":"green","recycling:plastic":"yes","recycling:plastic_packaging":"yes","recycling_type":"container"}},"type":"Feature"},
	{"geometry":{"coordinates":[12.10396,50.655832],"type":"Point"},"properties":{"osm_id":"4329570495","tag":{"amenity":"recycling","colour":"black","recycling_type":"container"}},"type":"Feature"},
	{"geometry":{"coordinates":[12.103977,50.655824],"type":"Point"},"properties":{"osm_id":"4329570496","tag":{"amenity":"recycling","colour":"black","recycling_type":"container"}},"type":"Feature"},
	{"geometry":{"coordinates":[12.103996,50.655815],"type":"Point"},"properties":{"osm_id":"4329570497","tag":{"amenity":"recycling","colour":"blue","recycling_type":"container"}},"type":"Feature"},
	{"geometry":{"coordinates":[12.104016,50.655806],"type":"Point"},"properties":{"osm_id":"4329570498","tag":{"amenity":"recycling","colour":"black","description":"Klasse 1","recycling:paper":"yes","recycling_type":"container"}},"type":"Feature"},
	{"geometry":{"coordinates":[12.104033,50.655798],"type":"Point"},"properties":{"osm_id":"4329570499","tag":{"amenity":"recycling","colour":"black","description":"Klasse 2a","recycling_type":"container"}},"type":"Feature"},
	{"geometry":{"coordinates":[12.10405,50.65579],"type":"Point"},"properties":{"osm_id":"4329570500","tag":{"amenity":"recycling","colour":"blue","description":"Klasse 2b","recycling_type":"container"}},"type":"Feature"},
	{"geometry":{"coordinates":[12.104067,50.655783],"type":"Point"},"properties":{"osm_id":"4329570501","tag":{"amenity":"recycling","colour":"black","recycling:paper":"yes","recycling_type":"container"}},"type":"Feature"},
	{"geometry":{"coordinates":[12.103921,50.655849],"type":"Point"},"properties":{"osm_id":"4329570502","tag":{"amenity":"recycling","colour":"green","recycling:cardboard":"yes","recycling:paper":"yes","recycling_type":"container"}},"type":"Feature"},
	{"geometry":{"coordinates":[12.059953,50.661376],"type":"Point"},"properties":{"osm_id":"4329669245","tag":{"amenity":"recycling","recycling:clothes":"yes","recycling_type":"container"}},"type":"Feature"},
	{"geometry":{"coordinates":[12.059974,50.661377],"type":"Point"},"properties":{"osm_id":"4329669246","tag":{"amenity":"recycling","recycling_type":"container"}},"type":"Feature"},
	{"geometry":{"coordinates":[12.060039,50.66138],"type":"Point"},"properties":{"osm_id":"4329669247","tag":{"amenity":"recycling","recycling_type":"container"}},"type":"Feature"},
	{"geometry":{"coordinates":[12.060062,50.66138],"type":"Point"},"properties":{"osm_id":"4329669248","tag":{"amenity":"recycling","recycling:clothes":"yes","recycling_type":"container"}},"type":"Feature"},
	{"geometry":{"coordinates":[12.059995,50.661379],"type":"Point"},"properties":{"osm_id":"4329669249","tag":{"amenity":"recycling","recycling_type":"container"}},"type":"Feature"},
	{"geometry":{"coordinates":[12.060016,50.661379],"type":"Point"},"properties":{"osm_id":"4382925870","tag":{"amenity":"recycling","recycling_type":"container"}},"type":"Feature"},
	{"geometry":{"coordinates":[12.073811,50.662722],"type":"Point"},"properties":{"osm_id":"4388202116","tag":{"amenity":"recycling","recycling:clothes":"yes","recycling_type":"container"}},"type":"Feature"},
	{"geometry":{"coordinates":[12.073814,50.662672],"type":"Point"},"properties":{"osm_id":"4388214361","tag":{"amenity":"recycling","colour":"white","recycling:glass_bottles":"yes","recycling_type":"container"}},"type":"Feature"},
	{"geometry":{"coordinates":[12.073825,50.662658],"type":"Point"},"properties":{"osm_id":"4388231202","tag":{"amenity":"recycling","colour":"white","recycling:glass_bottles":"yes","recycling_type":"container"}},"type":"Feature"},
	{"geometry":{"coordinates":[12.073803,50.662686],"type":"Point"},"properties":{"osm_id":"4388231282","tag":{"amenity":"recycling","colour":"green","recycling:glass_bottles":"yes","recycling_type":"container"}},"type":"Feature"},
	{"geometry":{"coordinates":[12.073795,50.6627],"type":"Point"},"properties":{"osm_id":"4388233463","tag":{"amenity":"recycling","colour":"brown","recycling:glass_bottles":"yes","recycling_type":"container"}},"type":"Feature"},
	{"geometry":{"coordinates":[12.105013,50.65586],"type":"Point"},"properties":{"osm_id":"4693817939","tag":{"amenity":"waste_basket"}},"type":"Feature"},
	{"geometry":{"coordinates":[12.105414,50.655959],"type":"Point"},"properties":{"osm_id":"4693822384","tag":{"amenity":"waste_basket"}},"type":"Feature"},
	{"geometry":{"coordinates":[12.097054,50.628727],"type":"Point"},"properties":{"osm_id":"4694079968","tag":{"amenity":"waste_basket"}},"type":"Feature"},
	{"geometry":{"coordinates":[12.093232,50.680071],"type":"Point"},"properties":{"osm_id":"4719624128","tag":{"amenity":"waste_basket"}},"type":"Feature"},
	{"geometry":{"coordinates":[12.09329,50.679812],"type":"Point"},"properties":{"osm_id":"4719624129","tag":{"amenity":"waste_basket"}},"type":"Feature"},
	{"geometry":{"coordinates":[12.09718,50.676541],"type":"Point"},"properties":{"osm_id":"4719627111","tag":{"amenity":"waste_basket"}},"type":"Feature"},
	{"geometry":{"coordinates":[12.101117,50.655712],"type":"Point"},"properties":{"osm_id":"5422595905","tag":{"amenity":"recycling","colour":"white","operator":"Humana","recycling:clothes":"yes","recycling:shoes":"yes","recycling_type":"container"}},"type":"Feature"},
	{"geometry":{"coordinates":[12.101047,50.655682],"type":"Point"},"properties":{"osm_id":"5422595906","tag":{"amenity":"recycling","colour":"green","recycling:glass_bottles":"white","recycling_type":"container"}},"type":"Feature"},
	{"geometry":{"coordinates":[12.090898,50.629224],"type":"Point"},"properties":{"osm_id":"5970616043","tag":{"amenity":"waste_basket"}},"type":"Feature"},
	{"geometry":{"coordinates":[12.104659,50.640803],"type":"Point"},"properties":{"osm_id":"6600229223","tag":{"amenity":"waste_basket"}},"type":"Feature"},
	{"geometry":{"coordinates":[12.10408,50.655777],"type":"Point"},"properties":{"osm_id":"7340926677","tag":{"amenity":"recycling","colour":"blue","recycling_type":"container"}},"type":"Feature"},
	{"geometry":{"coordinates":[12.1039,50.655859],"type":"Point"},"properties":{"osm_id":"7340926678","tag":{"amenity":"recycling","colour":"green","recycling:cans":"yes","recycling_type":"container"}},"type":"Feature"},
	{"geometry":{"coordinates":[12.101016,50.655667],"type":"Point"},"properties":{"osm_id":"7340926679","tag":{"amenity":"recycling","colour":"white","operator":"Arbeiter-Samariter-Bund","recycling:clothes":"yes","recycling:shoes":"yes","recycling_type":"container"}},"type":"Feature"},
	{"geometry":{"coordinates":[12.10103,50.655674],"type":"Point"},"properties":{"osm_id":"7340926680","tag":{"amenity":"recycling","colour":"green","recycling:glass_bottles":"white","recycling_type":"container"}},"type":"Feature"}
]
}
