{
"type": "FeatureCollection",
"features": [
	{"geometry":{"coordinates":[12.089172,49.058125],"type":"Point"},"properties":{"name":"Gr\u00c3\u00bcngutsammelstelle","osm_id":"60024609","tag":{"amenity":"recycling","recycling:garden_waste":"yes","recycling:green_waste":"yes","recycling_type":"centre"}},"type":"Feature"},
	{"geometry":{"coordinates":[12.089281,49.057892],"type":"Point"},"properties":{"name":"Wertstoffhof","osm_id":"129548500","tag":{"addr:city":"Lappersdorf","addr:housenumber":"22","addr:postcode":"93138","addr:street":"Industriestra\u00c3\u009fe","amenity":"recycling","opening_hours":"Mo,Fr 09:00-12:00,15:00-18:00; We,Sa 09:00-12:00","recycling:aluminium":"yes","recycling:batteries":"yes","recycling:cans":"yes","recycling:glass":"yes","recycling:paper":"yes","recycling:plastic":"yes","recycling:plastic_bottles":"yes","recycling:plastic_packaging":"yes","recycling:scrap_metal":"yes","recycling:small_appliances":"yes","recycling:tv_monitor":"yes","recycling:white_goods":"yes","recycling_type":"centre"}},"type":"Feature"},
	{"geometry":{"coordinates":[12.10269,49.046467],"type":"Point"},"properties":{"highway":"bus_stop","name":"Gallingkofen","osm_id":"134422354","tag":{"amenity":"waste_basket","bench":"no","shelter":"no"}},"type":"Feature"},
	{"geometry":{"coordinates":[12.111061,49.047567],"type":"Point"},"properties":{"highway":"bus_stop","name":"K\u00c3\u00b6tztinger Stra\u00c3\u009fe","osm_id":"134422443","tag":{"amenity":"waste_basket","bench":"yes","shelter":"yes"}},"type":"Feature"},
	{"geometry":{"coordinates":[12.092106,49.05742],"type":"Point"},"properties":{"osm_id":"325709024","tag":{"amenity":"recycling","location":"overground","recycling:glass":"yes","recycling_type":"container"}},"type":"Feature"},
	{"geometry":{"coordinates":[12.12527,49.040408],"type":"Point"},"properties":{"osm_id":"343460643","tag":{"amenity":"recycling","recycling:clothes":"no","recycling:glass":"yes","recycling:glass_bottles":"yes","recycling_type":"container"}},"type":"Feature"},
	{"geometry":{"coordinates":[12.116953,49.041871],"type":"Point"},"properties":{"osm_id":"343491140","tag":{"amenity":"recycling","location":"overground","recycling:clothes":"no","recycling:glass":"yes","recycling_type":"container"}},"type":"Feature"},
	{"geometry":{"coordinates":[12.125203,49.050152],"type":"Point"},"properties":{"osm_id":"357392375","tag":{"amenity":"recycling","recycling:glass":"yes"}},"type":"Feature"},
	{"geometry":{"coordinates":[12.123998,49.050796],"type":"Point"},"properties":{"highway":"bus_stop","name":"Haselbachweg","osm_id":"357392379","tag":{"amenity":"waste_basket","bench":"no","shelter":"no"}},"type":"Feature"},
	{"geometry":{"coordinates":[12.120273,49.060754],"type":"Point"},"properties":{"osm_id":"658464301","tag":{"amenity":"recycling","recycling:green_waste":"yes"}},"type":"Feature"},
	{"geometry":{"coordinates":[12.111569,49.047514],"type":"Point"},"properties":{"highway":"bus_stop","name":"K\u00c3\u00b6tztinger Stra\u00c3\u009fe","osm_id":"1443204653","tag":{"amenity":"waste_basket","bench":"no","shelter":"no"}},"type":"Feature"},
	{"geometry":{"coordinates":[12.119424,49.046126],"type":"Point"},"properties":{"osm_id":"1591046609","tag":{"amenity":"recycling","recycling:clothes":"yes","recycling:glass":"yes"}},"type":"Feature"},
	{"geometry":{"coordinates":[12.103625,49.04696],"type":"Point"},"properties":{"highway":"bus_stop","name":"Gallingkofen","osm_id":"1717908087","tag":{"amenity":"waste_basket","bench":"no","shelter":"yes"}},"type":"Feature"},
	{"geometry":{"coordinates":[12.061086,49.091495],"type":"Point"},"properties":{"osm_id":"1870637715","tag":{"amenity":"waste_basket"}},"type":"Feature"},
	{"geometry":{"coordinates":[12.124312,49.050848],"type":"Point"},"properties":{"highway":"bus_stop","name":"Haselbachweg","osm_id":"1911804001","tag":{"amenity":"waste_basket","bench":"no","shelter":"no"}},"type":"Feature"},
	{"geometry":{"coordinates":[12.114666,49.039376],"type":"Point"},"properties":{"osm_id":"2829396091","tag":{"amenity":"recycling","description":"Schnittgutsammelstelle","recycling:green_waste":"yes"}},"type":"Feature"},
	{"geometry":{"coordinates":[12.114437,49.039483],"type":"Point"},"properties":{"osm_id":"2829396092","tag":{"amenity":"recycling","recycling:clothes":"yes","recycling:glass":"yes","recycling:organic":"yes","recycling_type":"container"}},"type":"Feature"},
	{"geometry":{"coordinates":[12.108926,49.092209],"type":"Point"},"properties":{"osm_id":"3531387865","tag":{"amenity":"recycling","recycling:glass_bottles":"yes","recycling_type":"container"}},"type":"Feature"},
	{"geometry":{"coordinates":[12.119019,49.04818],"type":"Point"},"properties":{"osm_id":"4535745191","tag":{"amenity":"recycling"}},"type":"Feature"},
	{"geometry":{"coordinates":[12.11454,49.038596],"type":"Point"},"properties":{"osm_id":"5061000588","tag":{"amenity":"waste_basket"}},"type":"Feature"},
	{"geometry":{"coordinates":[12.114639,49.038518],"type":"Point"},"properties":{"osm_id":"5061000589","tag":{"amenity":"waste_basket"}},"type":"Feature"},
	{"geometry":{"coordinates":[12.082828,49.041959],"type":"Point"},"properties":{"osm_id":"6109442341","tag":{"amenity":"waste_basket"}},"type":"Feature"}
]
}
