{
"type": "FeatureCollection",
"features": [
	{"geometry":{"coordinates":[12.12332,49.026056],"type":"Point"},"properties":{"osm_id":"281160544","tag":{"amenity":"recycling","recycling:glass_bottles":"yes","recycling_type":"container"}},"type":"Feature"},
	{"geometry":{"coordinates":[12.105621,49.009303],"type":"Point"},"properties":{"osm_id":"281579648","tag":{"amenity":"recycling","location":"overground","recycling:clothes":"yes","recycling:glass":"yes","recycling:green_waste":"yes","recycling_type":"container"}},"type":"Feature"},
	{"geometry":{"coordinates":[12.071169,48.988513],"type":"Point"},"properties":{"name":"St\u00c3\u00a4dtische Gr\u00c3\u00bcngutsammelstelle","osm_id":"287771583","tag":{"amenity":"recycling","recycling:green_waste":"yes"}},"type":"Feature"},
	{"geometry":{"coordinates":[12.071303,48.988383],"type":"Point"},"properties":{"osm_id":"287771585","tag":{"amenity":"recycling","location":"overground","recycling:clothes":"yes","recycling:glass":"yes","recycling_type":"container"}},"type":"Feature"},
	{"geometry":{"coordinates":[12.098743,48.982294],"type":"Point"},"properties":{"highway":"bus_stop","name":"Lieperkingstra\u00c3\u009fe","osm_id":"287771613","tag":{"amenity":"waste_basket","bench":"yes","bus":"no","public_transport":"platform","shelter":"yes","tactile_paving":"no"}},"type":"Feature"},
	{"geometry":{"coordinates":[12.046741,49.012737],"type":"Point"},"properties":{"osm_id":"304192474","tag":{"amenity":"recycling","recycling:glass_bottles":"yes","recycling_type":"container"}},"type":"Feature"},
	{"geometry":{"coordinates":[12.114803,49.033478],"type":"Point"},"properties":{"osm_id":"366652843","tag":{"amenity":"recycling","recycling:clothes":"yes","recycling:glass":"yes","recycling_type":"container"}},"type":"Feature"},
	{"geometry":{"coordinates":[12.12069,49.035069],"type":"Point"},"properties":{"osm_id":"366841849","tag":{"amenity":"recycling","recycling:glass":"yes","recycling_type":"container"}},"type":"Feature"},
	{"geometry":{"coordinates":[12.11298,49.023429],"type":"Point"},"properties":{"osm_id":"370637853","tag":{"amenity":"recycling","recycling:garden_waste":"yes","recycling_type":"container"}},"type":"Feature"},
	{"geometry":{"coordinates":[12.098933,49.025718],"type":"Point"},"properties":{"osm_id":"376858659","tag":{"amenity":"recycling","recycling:clothes":"yes","recycling:glass_bottles":"yes","recycling_type":"container"}},"type":"Feature"},
	{"geometry":{"coordinates":[12.057663,49.018905],"type":"Point"},"properties":{"osm_id":"410593639","tag":{"amenity":"recycling","location":"overground","recycling:clothes":"yes","recycling:glass":"yes","recycling_type":"container"}},"type":"Feature"},
	{"geometry":{"coordinates":[12.064975,49.026042],"type":"Point"},"properties":{"osm_id":"413898110","tag":{"amenity":"recycling","recycling:glass":"yes","recycling_type":"container"}},"type":"Feature"},
	{"geometry":{"coordinates":[12.123992,49.033793],"type":"Point"},"properties":{"osm_id":"416037479","tag":{"amenity":"recycling","recycling:clothes":"yes","recycling:glass":"yes","recycling_type":"container"}},"type":"Feature"},
	{"geometry":{"coordinates":[12.088566,49.02196],"type":"Point"},"properties":{"osm_id":"443458336","tag":{"amenity":"recycling","recycling:glass":"yes","recycling_type":"container"}},"type":"Feature"},
	{"geometry":{"coordinates":[12.061627,49.015131],"type":"Point"},"properties":{"osm_id":"445614442","tag":{"amenity":"recycling","recycling:glass":"yes","recycling_type":"container"}},"type":"Feature"},
	{"geometry":{"coordinates":[12.091142,49.021742],"type":"Point"},"properties":{"osm_id":"445649157","tag":{"amenity":"recycling","recycling:glass":"yes","recycling_type":"container"}},"type":"Feature"},
	{"geometry":{"coordinates":[12.070972,49.021039],"type":"Point"},"properties":{"osm_id":"451719411","tag":{"amenity":"recycling","recycling:clothes":"yes","recycling:glass":"yes","recycling_type":"container"}},"type":"Feature"},
	{"geometry":{"coordinates":[12.085422,49.020376],"type":"Point"},"properties":{"osm_id":"452501024","tag":{"amenity":"recycling","recycling:glass":"yes","recycling_type":"container"}},"type":"Feature"},
	{"geometry":{"coordinates":[12.063187,49.01269],"type":"Point"},"properties":{"osm_id":"457403656","tag":{"amenity":"recycling","recycling:glass":"yes","recycling:green_waste":"yes","recycling_type":"container"}},"type":"Feature"},
	{"geometry":{"coordinates":[12.062716,49.025233],"type":"Point"},"properties":{"osm_id":"458347668","tag":{"amenity":"recycling","recycling:clothes":"yes","recycling:glass":"yes","recycling:green_waste":"yes","recycling_type":"container"}},"type":"Feature"},
	{"geometry":{"coordinates":[12.100015,49.025835],"type":"Point"},"properties":{"osm_id":"458728132","tag":{"amenity":"recycling","recycling:green_waste":"yes","recycling_type":"container"}},"type":"Feature"},
	{"geometry":{"coordinates":[12.073291,49.009823],"type":"Point"},"properties":{"osm_id":"597616061","tag":{"amenity":"recycling","recycling:glass":"yes","recycling_type":"container"}},"type":"Feature"},
	{"geometry":{"coordinates":[12.073149,49.009675],"type":"Point"},"properties":{"osm_id":"597616062","tag":{"amenity":"recycling","recycling:clothes":"yes","recycling_type":"container"}},"type":"Feature"},
	{"geometry":{"coordinates":[12.079296,49.00715],"type":"Point"},"properties":{"osm_id":"597622063","tag":{"amenity":"recycling","recycling:glass":"yes","recycling_type":"container"}},"type":"Feature"},
	{"geometry":{"coordinates":[12.126524,48.997123],"type":"Point"},"properties":{"osm_id":"697296580","tag":{"amenity":"recycling","recycling:clothes":"yes","recycling:glass":"yes","recycling_type":"container"}},"type":"Feature"},
	{"geometry":{"coordinates":[12.071342,49.002328],"type":"Point"},"properties":{"osm_id":"724223002","tag":{"amenity":"recycling","location":"overground","recycling:glass":"yes","recycling_type":"container"}},"type":"Feature"},
	{"geometry":{"coordinates":[12.087984,49.023524],"type":"Point"},"properties":{"osm_id":"742189768","tag":{"amenity":"recycling","recycling_type":"container"}},"type":"Feature"},
	{"geometry":{"coordinates":[12.054612,49.018333],"type":"Point"},"properties":{"osm_id":"767907601","tag":{"amenity":"recycling","location":"overground","recycling:cans":"no","recycling:clothes":"yes","recycling:glass":"yes","recycling:paper":"no","recycling_type":"container"}},"type":"Feature"},
	{"geometry":{"coordinates":[12.091718,48.982318],"type":"Point"},"properties":{"osm_id":"861558591","tag":{"amenity":"recycling","recycling:glass_bottles":"yes","recycling:green_waste":"yes"}},"type":"Feature"},
	{"geometry":{"coordinates":[12.109404,49.00779],"type":"Point"},"properties":{"osm_id":"895295676","tag":{"amenity":"recycling","recycling:clothes":"yes","recycling:glass":"yes","recycling_type":"container"}},"type":"Feature"},
	{"geometry":{"coordinates":[12.111998,48.982783],"type":"Point"},"properties":{"osm_id":"906737143","tag":{"amenity":"recycling","recycling:clothes":"yes","recycling:glass":"yes"}},"type":"Feature"},
	{"geometry":{"coordinates":[12.118952,48.996442],"type":"Point"},"properties":{"osm_id":"942564265","tag":{"amenity":"waste_basket"}},"type":"Feature"},
	{"geometry":{"coordinates":[12.10863,49.010569],"type":"Point"},"properties":{"osm_id":"945657744","tag":{"amenity":"recycling","recycling:glass":"yes","recycling_type":"container"}},"type":"Feature"},
	{"geometry":{"coordinates":[12.054222,49.032887],"type":"Point"},"properties":{"osm_id":"963274265","tag":{"amenity":"recycling","recycling_type":"container"}},"type":"Feature"},
	{"geometry":{"coordinates":[12.10951,48.996965],"type":"Point"},"properties":{"osm_id":"983455459","tag":{"amenity":"recycling","recycling:glass":"yes","recycling_type":"container"}},"type":"Feature"},
	{"geometry":{"coordinates":[12.107222,49.002799],"type":"Point"},"properties":{"osm_id":"983587233","tag":{"amenity":"recycling","recycling:glass":"yes","recycling_type":"container"}},"type":"Feature"},
	{"geometry":{"coordinates":[12.067215,48.994787],"type":"Point"},"properties":{"osm_id":"1072972983","tag":{"amenity":"recycling","recycling:clothes":"yes","recycling_type":"container"}},"type":"Feature"},
	{"geometry":{"coordinates":[12.081942,48.996694],"type":"Point"},"properties":{"osm_id":"1077183411","tag":{"amenity":"recycling","recycling:clothes":"yes","recycling:glass":"yes","recycling_type":"container"}},"type":"Feature"},
	{"geometry":{"coordinates":[12.09819,49.012387],"type":"Point"},"properties":{"osm_id":"1083647632","ref":"Bahnhofstr. 16","tag":{"amenity":"waste_disposal","collection_times":"Mo-Fr 16:30,18:00,19:30; Sa 13:45; Su 11:45","operator":"Deutsche Post AG","postal_code":"93047"}},"type":"Feature"},
	{"geometry":{"coordinates":[12.077866,49.001991],"type":"Point"},"properties":{"osm_id":"1086097945","tag":{"amenity":"recycling","location":"overground","recycling:glass":"yes","recycling:green_waste":"yes","recycling_type":"container","source:ref":"http://stadtplan2.regensburg.de/biotonnen/"}},"type":"Feature"},
	{"geometry":{"coordinates":[12.112997,49.014659],"type":"Point"},"properties":{"osm_id":"1123281952","tag":{"amenity":"recycling","recycling:clothes":"yes","recycling:glass":"yes","recycling_type":"container"}},"type":"Feature"},
	{"geometry":{"coordinates":[12.064545,49.023625],"type":"Point"},"properties":{"osm_id":"1128004586","tag":{"amenity":"recycling","recycling:clothes":"yes","recycling_type":"container"}},"type":"Feature"},
	{"geometry":{"coordinates":[12.08568,49.018628],"type":"Point"},"properties":{"osm_id":"1131014093","tag":{"amenity":"recycling","recycling:glass":"yes","recycling_type":"container"}},"type":"Feature"},
	{"geometry":{"coordinates":[12.115305,49.018238],"type":"Point"},"properties":{"osm_id":"1140743290","tag":{"amenity":"recycling","recycling:glass":"yes","recycling_type":"container"}},"type":"Feature"},
	{"geometry":{"coordinates":[12.081994,48.994863],"type":"Point"},"properties":{"osm_id":"1159302100","tag":{"amenity":"waste_basket"}},"type":"Feature"},
	{"geometry":{"coordinates":[12.080429,48.994427],"type":"Point"},"properties":{"osm_id":"1159302138","tag":{"amenity":"waste_basket"}},"type":"Feature"},
	{"geometry":{"coordinates":[12.079937,48.993752],"type":"Point"},"properties":{"osm_id":"1159302149","tag":{"amenity":"waste_basket"}},"type":"Feature"},
	{"geometry":{"coordinates":[12.079733,48.993489],"type":"Point"},"properties":{"osm_id":"1159302152","tag":{"amenity":"waste_basket"}},"type":"Feature"},
	{"geometry":{"coordinates":[12.080119,48.993223],"type":"Point"},"properties":{"osm_id":"1159302162","tag":{"amenity":"waste_basket"}},"type":"Feature"},
	{"geometry":{"coordinates":[12.079359,48.993101],"type":"Point"},"properties":{"osm_id":"1159302163","tag":{"amenity":"waste_basket"}},"type":"Feature"},
	{"geometry":{"coordinates":[12.073547,48.992958],"type":"Point"},"properties":{"osm_id":"1159302201","tag":{"amenity":"waste_basket"}},"type":"Feature"},
	{"geometry":{"coordinates":[12.082369,48.99472],"type":"Point"},"properties":{"osm_id":"1185593061","tag":{"amenity":"waste_basket"}},"type":"Feature"},
	{"geometry":{"coordinates":[12.114543,49.005673],"type":"Point"},"properties":{"osm_id":"1192481407","tag":{"amenity":"recycling","recycling:glass_bottles":"yes","recycling:plastic_bottles":"yes","recycling_type":"container"}},"type":"Feature"},
	{"geometry":{"coordinates":[12.079267,48.996135],"type":"Point"},"properties":{"osm_id":"1243446361","tag":{"amenity":"recycling","recycling:clothes":"yes","recycling_type":"container"}},"type":"Feature"},
	{"geometry":{"coordinates":[12.07734,48.995744],"type":"Point"},"properties":{"osm_id":"1249813209","tag":{"amenity":"recycling","recycling:clothes":"yes","recycling:glass":"yes","recycling_type":"container"}},"type":"Feature"},
	{"geometry":{"coordinates":[12.106355,49.035305],"type":"Point"},"properties":{"osm_id":"1361387699","tag":{"amenity":"recycling","recycling_type":"container"}},"type":"Feature"},
	{"geometry":{"coordinates":[12.119456,49.016001],"type":"Point"},"properties":{"osm_id":"1408201373","tag":{"amenity":"recycling","recycling:glass":"yes","recycling_type":"container"}},"type":"Feature"},
	{"geometry":{"coordinates":[12.057462,49.014991],"type":"Point"},"properties":{"osm_id":"1411284894","tag":{"amenity":"waste_basket"}},"type":"Feature"},
	{"geometry":{"coordinates":[12.057473,49.014546],"type":"Point"},"properties":{"osm_id":"1411285254","tag":{"amenity":"waste_basket"}},"type":"Feature"},
	{"geometry":{"coordinates":[12.056755,49.022654],"type":"Point"},"properties":{"osm_id":"1411468045","tag":{"amenity":"waste_basket"}},"type":"Feature"},
	{"geometry":{"coordinates":[12.057539,49.018131],"type":"Point"},"properties":{"osm_id":"1411471826","tag":{"amenity":"waste_basket"}},"type":"Feature"},
	{"geometry":{"coordinates":[12.057279,49.017172],"type":"Point"},"properties":{"osm_id":"1411472213","tag":{"amenity":"waste_basket"}},"type":"Feature"},
	{"geometry":{"coordinates":[12.057276,49.017095],"type":"Point"},"properties":{"osm_id":"1411472333","tag":{"amenity":"waste_basket"}},"type":"Feature"},
	{"geometry":{"coordinates":[12.089496,49.019606],"type":"Point"},"properties":{"osm_id":"1417161422","tag":{"amenity":"waste_basket"}},"type":"Feature"},
	{"geometry":{"coordinates":[12.089658,49.019985],"type":"Point"},"properties":{"osm_id":"1417167020","tag":{"amenity":"waste_basket"}},"type":"Feature"},
	{"geometry":{"coordinates":[12.089892,49.019903],"type":"Point"},"properties":{"osm_id":"1417167770","tag":{"amenity":"waste_basket"}},"type":"Feature"},
	{"geometry":{"coordinates":[12.096839,49.021007],"type":"Point"},"properties":{"osm_id":"1417177214","tag":{"amenity":"waste_basket"}},"type":"Feature"},
	{"geometry":{"coordinates":[12.096985,49.021014],"type":"Point"},"properties":{"osm_id":"1417177860","tag":{"amenity":"waste_basket"}},"type":"Feature"},
	{"geometry":{"coordinates":[12.101809,49.013504],"type":"Point"},"properties":{"osm_id":"1417189749","tag":{"amenity":"waste_basket"}},"type":"Feature"},
	{"geometry":{"coordinates":[12.101706,49.0135],"type":"Point"},"properties":{"osm_id":"1417190647","tag":{"amenity":"waste_basket"}},"type":"Feature"},
	{"geometry":{"coordinates":[12.101551,49.009927],"type":"Point"},"properties":{"osm_id":"1417196811","tag":{"amenity":"waste_basket"}},"type":"Feature"},
	{"geometry":{"coordinates":[12.075264,49.0171],"type":"Point"},"properties":{"osm_id":"1417275774","tag":{"amenity":"waste_basket"}},"type":"Feature"},
	{"geometry":{"coordinates":[12.075183,49.017022],"type":"Point"},"properties":{"osm_id":"1417276201","tag":{"amenity":"waste_basket"}},"type":"Feature"},
	{"geometry":{"coordinates":[12.071756,49.01664],"type":"Point"},"properties":{"osm_id":"1417290754","tag":{"amenity":"waste_basket"}},"type":"Feature"},
	{"geometry":{"coordinates":[12.071986,49.016668],"type":"Point"},"properties":{"osm_id":"1417290972","tag":{"amenity":"waste_basket"}},"type":"Feature"},
	{"geometry":{"coordinates":[12.067857,49.016142],"type":"Point"},"properties":{"osm_id":"1417303544","tag":{"amenity":"waste_basket"}},"type":"Feature"},
	{"geometry":{"coordinates":[12.077675,49.017143],"type":"Point"},"properties":{"osm_id":"1418010001","tag":{"amenity":"waste_basket"}},"type":"Feature"},
	{"geometry":{"coordinates":[12.077017,49.017243],"type":"Point"},"properties":{"osm_id":"1418010213","tag":{"amenity":"waste_basket"}},"type":"Feature"},
	{"geometry":{"coordinates":[12.07462,49.016729],"type":"Point"},"properties":{"osm_id":"1418013063","tag":{"amenity":"waste_basket"}},"type":"Feature"},
	{"geometry":{"coordinates":[12.072837,49.016547],"type":"Point"},"properties":{"osm_id":"1418013144","tag":{"amenity":"waste_basket"}},"type":"Feature"},
	{"geometry":{"coordinates":[12.071813,49.016711],"type":"Point"},"properties":{"osm_id":"1418013173","tag":{"amenity":"waste_basket"}},"type":"Feature"},
	{"geometry":{"coordinates":[12.071826,49.016391],"type":"Point"},"properties":{"osm_id":"1418013188","tag":{"amenity":"waste_basket"}},"type":"Feature"},
	{"geometry":{"coordinates":[12.061403,49.014979],"type":"Point"},"properties":{"osm_id":"1418021143","tag":{"amenity":"recycling","recycling:clothes":"yes","recycling_type":"container"}},"type":"Feature"},
	{"geometry":{"coordinates":[12.049275,49.012391],"type":"Point"},"properties":{"osm_id":"1418080727","tag":{"amenity":"waste_basket"}},"type":"Feature"},
	{"geometry":{"coordinates":[12.065065,49.015711],"type":"Point"},"properties":{"osm_id":"1425300494","tag":{"amenity":"waste_basket"}},"type":"Feature"},
	{"geometry":{"coordinates":[12.082237,49.018193],"type":"Point"},"properties":{"osm_id":"1431194105","tag":{"amenity":"recycling","recycling:clothes":"yes","recycling_type":"container"}},"type":"Feature"},
	{"geometry":{"coordinates":[12.083706,49.002361],"type":"Point"},"properties":{"osm_id":"1469172124","tag":{"amenity":"recycling","recycling:glass_bottles":"yes","recycling:green_waste":"yes","recycling_type":"container"}},"type":"Feature"},
	{"geometry":{"coordinates":[12.088431,49.001233],"type":"Point"},"properties":{"osm_id":"1578904851","tag":{"amenity":"recycling","recycling:glass":"yes","recycling_type":"container"}},"type":"Feature"},
	{"geometry":{"coordinates":[12.100156,48.986066],"type":"Point"},"properties":{"osm_id":"1579758851","tag":{"amenity":"recycling","recycling:green_waste":"yes"}},"type":"Feature"},
	{"geometry":{"coordinates":[12.106706,49.015277],"type":"Point"},"properties":{"osm_id":"1731185390","tag":{"amenity":"recycling","recycling:clothes":"yes","recycling:glass":"yes","recycling_type":"container"}},"type":"Feature"},
	{"geometry":{"coordinates":[12.111353,49.006504],"type":"Point"},"properties":{"osm_id":"1737246690","tag":{"amenity":"recycling","recycling:glass":"yes","recycling:paper":"yes","recycling_type":"container"}},"type":"Feature"},
	{"geometry":{"coordinates":[12.107837,48.983357],"type":"Point"},"properties":{"osm_id":"1775368038","tag":{"amenity":"recycling","recycling:green_waste":"yes"}},"type":"Feature"},
	{"geometry":{"coordinates":[12.102743,48.983318],"type":"Point"},"properties":{"osm_id":"1776491170","tag":{"amenity":"waste_basket"}},"type":"Feature"},
	{"geometry":{"coordinates":[12.08749,48.982361],"type":"Point"},"properties":{"osm_id":"1853363481","tag":{"amenity":"waste_basket"}},"type":"Feature"},
	{"geometry":{"coordinates":[12.09789,48.994355],"type":"Point"},"properties":{"barrier":"gate","osm_id":"2082783980"},"type":"Feature"},
	{"geometry":{"coordinates":[12.098076,48.994994],"type":"Point"},"properties":{"barrier":"gate","osm_id":"2082783992"},"type":"Feature"},
	{"geometry":{"coordinates":[12.065309,48.997639],"type":"Point"},"properties":{"osm_id":"2110420923","tag":{"amenity":"recycling","recycling:glass_bottles":"yes","recycling_type":"container"}},"type":"Feature"},
	{"geometry":{"coordinates":[12.065267,48.99765],"type":"Point"},"properties":{"osm_id":"2110420924","tag":{"amenity":"recycling","recycling:clothes":"yes","recycling_type":"container"}},"type":"Feature"},
	{"geometry":{"coordinates":[12.111956,49.006117],"type":"Point"},"properties":{"osm_id":"2187074737","tag":{"amenity":"waste_disposal","recycling:cans":"yes","recycling:plastic_packaging":"yes","waste":"trash"}},"type":"Feature"},
	{"geometry":{"coordinates":[12.112735,49.0066],"type":"Point"},"properties":{"osm_id":"2187074740","tag":{"amenity":"waste_disposal","waste":"trash"}},"type":"Feature"},
	{"geometry":{"coordinates":[12.111864,49.006844],"type":"Point"},"properties":{"osm_id":"2187074741","tag":{"amenity":"waste_disposal","waste":"trash"}},"type":"Feature"},
	{"geometry":{"coordinates":[12.092958,49.016286],"type":"Point"},"properties":{"osm_id":"2401541881","tag":{"amenity":"recycling","recycling:glass":"yes","recycling_type":"container"}},"type":"Feature"},
	{"geometry":{"coordinates":[12.059989,49.012727],"type":"Point"},"properties":{"osm_id":"2448068314","tag":{"amenity":"recycling","recycling:clothes":"yes","recycling:glass":"yes","recycling_type":"container"}},"type":"Feature"},
	{"geometry":{"coordinates":[12.066492,49.008587],"type":"Point"},"properties":{"osm_id":"2606244634","tag":{"amenity":"recycling","recycling:organic":"yes","recycling_type":"container"}},"type":"Feature"},
	{"geometry":{"coordinates":[12.105316,49.023881],"type":"Point"},"properties":{"osm_id":"2620913998","tag":{"amenity":"waste_basket","waste":"trash"}},"type":"Feature"},
	{"geometry":{"coordinates":[12.103415,49.0238],"type":"Point"},"properties":{"osm_id":"2620913999","tag":{"amenity":"waste_basket","waste":"trash"}},"type":"Feature"},
	{"geometry":{"coordinates":[12.104237,49.024438],"type":"Point"},"properties":{"osm_id":"2620914001","tag":{"amenity":"waste_basket","waste":"trash"}},"type":"Feature"},
	{"geometry":{"coordinates":[12.092873,49.028719],"type":"Point"},"properties":{"osm_id":"2686676727","tag":{"amenity":"recycling","recycling:glass":"yes","recycling_type":"container"}},"type":"Feature"},
	{"geometry":{"coordinates":[12.090696,49.029451],"type":"Point"},"properties":{"osm_id":"2686676734","tag":{"amenity":"recycling","recycling:clothes":"yes","recycling:glass":"yes","recycling_type":"container"}},"type":"Feature"},
	{"geometry":{"coordinates":[12.11721,48.998734],"type":"Point"},"properties":{"osm_id":"2788625672","tag":{"amenity":"recycling","recycling:green_waste":"yes","recycling_type":"container"}},"type":"Feature"},
	{"geometry":{"coordinates":[12.115208,49.001208],"type":"Point"},"properties":{"osm_id":"2788625726","tag":{"amenity":"recycling","recycling:clothes":"yes","recycling:glass":"yes","recycling_type":"container"}},"type":"Feature"},
	{"geometry":{"coordinates":[12.103386,49.022037],"type":"Point"},"properties":{"osm_id":"2867996981","tag":{"amenity":"recycling","recycling_type":"container"}},"type":"Feature"},
	{"geometry":{"coordinates":[12.07512,48.984941],"type":"Point"},"properties":{"name":"St\u00c3\u00a4dtische Gr\u00c3\u00bcngutsammelstelle","osm_id":"2886644442","tag":{"amenity":"recycling","recycling:green_waste":"yes"}},"type":"Feature"},
	{"geometry":{"coordinates":[12.085566,48.994635],"type":"Point"},"properties":{"osm_id":"2932656236","tag":{"amenity":"recycling","recycling:cans":"yes","recycling:glass":"yes","recycling:glass_bottles":"yes","recycling_type":"container"}},"type":"Feature"},
	{"geometry":{"coordinates":[12.042565,49.01897],"type":"Point"},"properties":{"osm_id":"2937733565","tag":{"amenity":"recycling","recycling:clothes":"yes","recycling:glass":"yes","recycling_type":"container"}},"type":"Feature"},
	{"geometry":{"coordinates":[12.108732,49.030858],"type":"Point"},"properties":{"osm_id":"3212107834","tag":{"amenity":"waste_basket"}},"type":"Feature"},
	{"geometry":{"coordinates":[12.119649,49.01613],"type":"Point"},"properties":{"osm_id":"3226526369","tag":{"amenity":"recycling","recycling:cans":"no","recycling:clothes":"no","recycling:glass":"yes","recycling:paper":"no","recycling_type":"container"}},"type":"Feature"},
	{"geometry":{"coordinates":[12.101463,49.014169],"type":"Point"},"properties":{"osm_id":"3541619941","tag":{"amenity":"recycling","recycling:clothes":"yes","recycling:glass":"yes","recycling_type":"container"}},"type":"Feature"},
	{"geometry":{"coordinates":[12.065246,49.027756],"type":"Point"},"properties":{"osm_id":"3812047055","tag":{"amenity":"recycling","recycling:green_waste":"yes","recycling_type":"container"}},"type":"Feature"},
	{"geometry":{"coordinates":[12.127812,49.033825],"type":"Point"},"properties":{"osm_id":"3901155662","tag":{"amenity":"recycling","recycling:clothes":"yes","recycling:glass":"yes","recycling_type":"container"}},"type":"Feature"},
	{"geometry":{"coordinates":[12.086549,49.007281],"type":"Point"},"properties":{"osm_id":"4014858187","tag":{"amenity":"recycling","recycling:glass_bottles":"yes","recycling_type":"container"}},"type":"Feature"},
	{"geometry":{"coordinates":[12.092531,48.992545],"type":"Point"},"properties":{"osm_id":"4130982425","tag":{"access":"private","amenity":"recycling","operator":"Universit\u00c3\u00a4t Regensburg","recycling:green_waste":"yes","recycling_type":"container","source:ref":"http://stadtplan2.regensburg.de/biotonnen/"}},"type":"Feature"},
	{"geometry":{"coordinates":[12.092327,48.995023],"type":"Point"},"properties":{"osm_id":"4130982463","tag":{"amenity":"waste_basket"}},"type":"Feature"},
	{"geometry":{"coordinates":[12.093343,48.998287],"type":"Point"},"properties":{"osm_id":"4130982473","tag":{"amenity":"waste_basket","layer":"-1"}},"type":"Feature"},
	{"geometry":{"coordinates":[12.091372,49.00857],"type":"Point"},"properties":{"osm_id":"4132234030","tag":{"amenity":"recycling","recycling:glass":"no","recycling:glass_bottles":"yes","recycling_type":"container"}},"type":"Feature"},
	{"geometry":{"coordinates":[12.091373,49.008599],"type":"Point"},"properties":{"osm_id":"4132234031","tag":{"amenity":"recycling","recycling:clothes":"yes","recycling_type":"container"}},"type":"Feature"},
	{"geometry":{"coordinates":[12.09759,49.007239],"type":"Point"},"properties":{"osm_id":"4157113783","tag":{"amenity":"recycling","recycling:cardboard":"no","recycling:glass_bottles":"yes","recycling_type":"container"}},"type":"Feature"},
	{"geometry":{"coordinates":[12.098051,49.020979],"type":"Point"},"properties":{"osm_id":"4241276423","tag":{"amenity":"waste_basket"}},"type":"Feature"},
	{"geometry":{"coordinates":[12.098074,49.020974],"type":"Point"},"properties":{"osm_id":"4241276630","tag":{"amenity":"waste_basket"}},"type":"Feature"},
	{"geometry":{"coordinates":[12.127244,49.001082],"type":"Point"},"properties":{"osm_id":"4393238345","tag":{"amenity":"waste_basket"}},"type":"Feature"},
	{"geometry":{"coordinates":[12.126333,49.001936],"type":"Point"},"properties":{"osm_id":"4393238346","tag":{"amenity":"waste_basket"}},"type":"Feature"},
	{"geometry":{"coordinates":[12.122478,49.003398],"type":"Point"},"properties":{"osm_id":"4393238347","tag":{"amenity":"waste_basket"}},"type":"Feature"},
	{"geometry":{"coordinates":[12.121331,49.004327],"type":"Point"},"properties":{"osm_id":"4393238348","tag":{"amenity":"waste_basket"}},"type":"Feature"},
	{"geometry":{"coordinates":[12.117899,49.006216],"type":"Point"},"properties":{"osm_id":"4393238349","tag":{"amenity":"waste_basket"}},"type":"Feature"},
	{"geometry":{"coordinates":[12.118294,49.006215],"type":"Point"},"properties":{"osm_id":"4393238350","tag":{"amenity":"waste_basket"}},"type":"Feature"},
	{"geometry":{"coordinates":[12.114902,49.008213],"type":"Point"},"properties":{"osm_id":"4393238351","tag":{"amenity":"waste_basket"}},"type":"Feature"},
	{"geometry":{"coordinates":[12.113788,49.009249],"type":"Point"},"properties":{"osm_id":"4393238352","tag":{"amenity":"waste_basket"}},"type":"Feature"},
	{"geometry":{"coordinates":[12.113518,49.0094],"type":"Point"},"properties":{"osm_id":"4393238353","tag":{"amenity":"waste_basket"}},"type":"Feature"},
	{"geometry":{"coordinates":[12.111627,49.010173],"type":"Point"},"properties":{"osm_id":"4393238354","tag":{"amenity":"waste_basket"}},"type":"Feature"},
	{"geometry":{"coordinates":[12.112082,49.010211],"type":"Point"},"properties":{"osm_id":"4393238355","tag":{"amenity":"waste_basket"}},"type":"Feature"},
	{"geometry":{"coordinates":[12.108393,49.013452],"type":"Point"},"properties":{"osm_id":"4393238357","tag":{"amenity":"waste_basket"}},"type":"Feature"},
	{"geometry":{"coordinates":[12.107281,49.01339],"type":"Point"},"properties":{"osm_id":"4393238359","tag":{"amenity":"waste_basket"}},"type":"Feature"},
	{"geometry":{"coordinates":[12.107115,49.01342],"type":"Point"},"properties":{"osm_id":"4393238360","tag":{"amenity":"waste_basket"}},"type":"Feature"},
	{"geometry":{"coordinates":[12.101501,49.010372],"type":"Point"},"properties":{"osm_id":"4393238367","tag":{"amenity":"waste_basket"}},"type":"Feature"},
	{"geometry":{"coordinates":[12.099094,48.998464],"type":"Point"},"properties":{"osm_id":"4393238368","tag":{"amenity":"waste_basket"}},"type":"Feature"},
	{"geometry":{"coordinates":[12.099678,48.998898],"type":"Point"},"properties":{"osm_id":"4393238369","tag":{"amenity":"waste_basket"}},"type":"Feature"},
	{"geometry":{"coordinates":[12.099756,48.99798],"type":"Point"},"properties":{"osm_id":"4393238370","tag":{"amenity":"waste_basket"}},"type":"Feature"},
	{"geometry":{"coordinates":[12.102675,48.994494],"type":"Point"},"properties":{"osm_id":"4393238372","tag":{"amenity":"recycling","location":"overground","recycling:clothes":"yes","recycling_type":"container"}},"type":"Feature"},
	{"geometry":{"coordinates":[12.103682,48.994077],"type":"Point"},"properties":{"osm_id":"4393238373","tag":{"amenity":"waste_basket"}},"type":"Feature"},
	{"geometry":{"coordinates":[12.104062,48.994255],"type":"Point"},"properties":{"osm_id":"4393238374","tag":{"amenity":"waste_basket"}},"type":"Feature"},
	{"geometry":{"coordinates":[12.112982,48.995533],"type":"Point"},"properties":{"osm_id":"4393238375","tag":{"amenity":"waste_basket"}},"type":"Feature"},
	{"geometry":{"coordinates":[12.118435,48.9968],"type":"Point"},"properties":{"osm_id":"4393238376","tag":{"amenity":"waste_basket"}},"type":"Feature"},
	{"geometry":{"coordinates":[12.119647,48.997451],"type":"Point"},"properties":{"osm_id":"4393238377","tag":{"amenity":"waste_basket"}},"type":"Feature"},
	{"geometry":{"coordinates":[12.120265,48.997344],"type":"Point"},"properties":{"osm_id":"4393238378","tag":{"amenity":"waste_basket"}},"type":"Feature"},
	{"geometry":{"coordinates":[12.120769,48.997836],"type":"Point"},"properties":{"osm_id":"4393238379","tag":{"amenity":"waste_basket"}},"type":"Feature"},
	{"geometry":{"coordinates":[12.125485,48.996878],"type":"Point"},"properties":{"osm_id":"4393238380","tag":{"amenity":"waste_basket"}},"type":"Feature"},
	{"geometry":{"coordinates":[12.125452,48.996969],"type":"Point"},"properties":{"osm_id":"4393238381","tag":{"amenity":"waste_basket"}},"type":"Feature"},
	{"geometry":{"coordinates":[12.119804,48.997526],"type":"Point"},"properties":{"osm_id":"4394690133","tag":{"amenity":"waste_basket"}},"type":"Feature"},
	{"geometry":{"coordinates":[12.110861,48.995631],"type":"Point"},"properties":{"osm_id":"4394690134","tag":{"amenity":"waste_basket"}},"type":"Feature"},
	{"geometry":{"coordinates":[12.092397,48.998703],"type":"Point"},"properties":{"osm_id":"4394690135","tag":{"amenity":"waste_basket"}},"type":"Feature"},
	{"geometry":{"coordinates":[12.092359,48.998514],"type":"Point"},"properties":{"osm_id":"4394690136","tag":{"amenity":"waste_basket"}},"type":"Feature"},
	{"geometry":{"coordinates":[12.092169,48.998542],"type":"Point"},"properties":{"osm_id":"4394690137","tag":{"amenity":"waste_basket"}},"type":"Feature"},
	{"geometry":{"coordinates":[12.091963,48.998557],"type":"Point"},"properties":{"osm_id":"4394690138","tag":{"amenity":"waste_basket"}},"type":"Feature"},
	{"geometry":{"coordinates":[12.091787,48.998575],"type":"Point"},"properties":{"osm_id":"4394690139","tag":{"amenity":"waste_basket"}},"type":"Feature"},
	{"geometry":{"coordinates":[12.091671,48.998639],"type":"Point"},"properties":{"osm_id":"4394690140","tag":{"amenity":"waste_basket"}},"type":"Feature"},
	{"geometry":{"coordinates":[12.091712,48.998701],"type":"Point"},"properties":{"osm_id":"4394690141","tag":{"amenity":"waste_basket"}},"type":"Feature"},
	{"geometry":{"coordinates":[12.091895,48.998828],"type":"Point"},"properties":{"osm_id":"4394690142","tag":{"amenity":"waste_basket"}},"type":"Feature"},
	{"geometry":{"coordinates":[12.092066,48.998783],"type":"Point"},"properties":{"osm_id":"4394690143","tag":{"amenity":"waste_basket"}},"type":"Feature"},
	{"geometry":{"coordinates":[12.092218,48.99875],"type":"Point"},"properties":{"osm_id":"4394690144","tag":{"amenity":"waste_basket"}},"type":"Feature"},
	{"geometry":{"coordinates":[12.092941,48.999738],"type":"Point"},"properties":{"osm_id":"4394690145","tag":{"amenity":"recycling","location":"overground","recycling:glass":"yes","recycling_type":"container"}},"type":"Feature"},
	{"geometry":{"coordinates":[12.065231,48.997657],"type":"Point"},"properties":{"osm_id":"5141681532","tag":{"amenity":"recycling","recycling:green_waste":"yes","recycling_type":"container","source:ref":"http://stadtplan2.regensburg.de/biotonnen/"}},"type":"Feature"},
	{"geometry":{"coordinates":[12.060892,49.003543],"type":"Point"},"properties":{"osm_id":"5181603052","tag":{"amenity":"recycling","recycling:green_waste":"yes","recycling_type":"container","source:ref":"http://stadtplan2.regensburg.de/biotonnen/"}},"type":"Feature"},
	{"geometry":{"coordinates":[12.071741,49.003941],"type":"Point"},"properties":{"osm_id":"5181603053","tag":{"amenity":"recycling","recycling:green_waste":"yes","recycling_type":"container","source:ref":"https://www.regensburg.de/leben/umwelt/abfall-und-recycling/biomuell-in-regensburg"}},"type":"Feature"},
	{"geometry":{"coordinates":[12.069999,49.001291],"type":"Point"},"properties":{"osm_id":"5181603055","tag":{"amenity":"recycling","recycling:green_waste":"yes","recycling_type":"container","source:ref":"http://stadtplan2.regensburg.de/biotonnen/"}},"type":"Feature"},
	{"geometry":{"coordinates":[12.068351,49.000015],"type":"Point"},"properties":{"osm_id":"5181603057","tag":{"amenity":"recycling","recycling:green_waste":"yes","recycling_type":"container","source:ref":"http://stadtplan2.regensburg.de/biotonnen/"}},"type":"Feature"},
	{"geometry":{"coordinates":[12.067171,48.998778],"type":"Point"},"properties":{"osm_id":"5181603058","tag":{"amenity":"recycling","recycling:green_waste":"yes","recycling_type":"container","source:ref":"http://stadtplan2.regensburg.de/biotonnen/"}},"type":"Feature"},
	{"geometry":{"coordinates":[12.087331,49.002756],"type":"Point"},"properties":{"name":"Biotonne","osm_id":"5186399373","ref":"39","tag":{"amenity":"recycling","recycling:organic":"yes","recycling_type":"container","website":"https://www.regensburg.de/leben/umwelt/abfall-und-recycling/biomuell-in-regensburg"}},"type":"Feature"},
	{"geometry":{"coordinates":[12.098083,49.008186],"type":"Point"},"properties":{"osm_id":"5200883522","tag":{"amenity":"waste_basket"}},"type":"Feature"},
	{"geometry":{"coordinates":[12.086306,49.001082],"type":"Point"},"properties":{"name":"Biotonne","osm_id":"5208381240","ref":"38","tag":{"amenity":"recycling","recycling:organic":"yes","recycling_type":"container","website":"https://www.regensburg.de/leben/umwelt/abfall-und-recycling/biomuell-in-regensburg"}},"type":"Feature"},
	{"geometry":{"coordinates":[12.087493,49.001053],"type":"Point"},"properties":{"name":"Biotonne","osm_id":"5208381241","ref":"101","tag":{"amenity":"recycling","recycling:organic":"yes","recycling_type":"container","website":"https://www.regensburg.de/leben/umwelt/abfall-und-recycling/biomuell-in-regensburg"}},"type":"Feature"},
	{"geometry":{"coordinates":[12.088412,49.001231],"type":"Point"},"properties":{"name":"Biotonne","osm_id":"5208381242","ref":"37","tag":{"amenity":"recycling","recycling:organic":"yes","recycling_type":"container","website":"https://www.regensburg.de/leben/umwelt/abfall-und-recycling/biomuell-in-regensburg"}},"type":"Feature"},
	{"geometry":{"coordinates":[12.090954,49.005088],"type":"Point"},"properties":{"name":"Biotonne","osm_id":"5208381243","ref":"72","tag":{"amenity":"recycling","recycling:organic":"yes","recycling_type":"container","website":"https://www.regensburg.de/leben/umwelt/abfall-und-recycling/biomuell-in-regensburg"}},"type":"Feature"},
	{"geometry":{"coordinates":[12.091697,49.00282],"type":"Point"},"properties":{"name":"Biotonne","osm_id":"5208381244","ref":"41","tag":{"amenity":"recycling","recycling:organic":"yes","recycling_type":"container","website":"https://www.regensburg.de/leben/umwelt/abfall-und-recycling/biomuell-in-regensburg"}},"type":"Feature"},
	{"geometry":{"coordinates":[12.087748,49.004802],"type":"Point"},"properties":{"name":"Biotonne","osm_id":"5208381245","ref":"65","tag":{"amenity":"recycling","recycling:organic":"yes","recycling_type":"container","website":"https://www.regensburg.de/leben/umwelt/abfall-und-recycling/biomuell-in-regensburg"}},"type":"Feature"},
	{"geometry":{"coordinates":[12.089828,49.006772],"type":"Point"},"properties":{"name":"Biotonne","osm_id":"5208381246","ref":"71","tag":{"amenity":"recycling","recycling:organic":"yes","recycling_type":"container","website":"https://www.regensburg.de/leben/umwelt/abfall-und-recycling/biomuell-in-regensburg"}},"type":"Feature"},
	{"geometry":{"coordinates":[12.100835,49.008466],"type":"Point"},"properties":{"osm_id":"5216389222","tag":{"amenity":"waste_basket"}},"type":"Feature"},
	{"geometry":{"coordinates":[12.100943,49.00862],"type":"Point"},"properties":{"osm_id":"5216394723","tag":{"amenity":"waste_basket"}},"type":"Feature"},
	{"geometry":{"coordinates":[12.100788,49.008658],"type":"Point"},"properties":{"osm_id":"5216400821","tag":{"amenity":"waste_basket"}},"type":"Feature"},
	{"geometry":{"coordinates":[12.110646,49.037154],"type":"Point"},"properties":{"osm_id":"5220610061","tag":{"amenity":"recycling","recycling:organic":"yes","recycling_type":"container"}},"type":"Feature"},
	{"geometry":{"coordinates":[12.086305,49.014673],"type":"Point"},"properties":{"osm_id":"5274452321","tag":{"amenity":"waste_basket"}},"type":"Feature"},
	{"geometry":{"coordinates":[12.090233,49.020541],"type":"Point"},"properties":{"osm_id":"5329636844","tag":{"amenity":"recycling","recycling:glass":"yes","recycling:green_waste":"yes","recycling_type":"container"}},"type":"Feature"},
	{"geometry":{"coordinates":[12.071408,49.001268],"type":"Point"},"properties":{"osm_id":"5469946407","tag":{"amenity":"recycling","recycling:green_waste":"yes","recycling_type":"container","source:ref":"http://stadtplan2.regensburg.de/biotonnen/"}},"type":"Feature"},
	{"geometry":{"coordinates":[12.074898,49.000658],"type":"Point"},"properties":{"osm_id":"5469946408","tag":{"amenity":"recycling","recycling:green_waste":"yes","recycling_type":"container","source:ref":"http://stadtplan2.regensburg.de/biotonnen/"}},"type":"Feature"},
	{"geometry":{"coordinates":[12.078948,49.001107],"type":"Point"},"properties":{"osm_id":"5469946409","tag":{"amenity":"recycling","recycling:green_waste":"yes","recycling_type":"container","source:ref":"http://stadtplan2.regensburg.de/biotonnen/"}},"type":"Feature"},
	{"geometry":{"coordinates":[12.074208,48.999289],"type":"Point"},"properties":{"osm_id":"5469946410","tag":{"amenity":"recycling","recycling:green_waste":"yes","recycling_type":"container","source:ref":"http://stadtplan2.regensburg.de/biotonnen/"}},"type":"Feature"},
	{"geometry":{"coordinates":[12.074487,48.999204],"type":"Point"},"properties":{"osm_id":"5469946411","tag":{"amenity":"recycling","recycling:green_waste":"yes","recycling_type":"container","source:ref":"http://stadtplan2.regensburg.de/biotonnen/"}},"type":"Feature"},
	{"geometry":{"coordinates":[12.073648,48.998572],"type":"Point"},"properties":{"osm_id":"5469946412","tag":{"amenity":"recycling","recycling:green_waste":"yes","recycling_type":"container","source:ref":"http://stadtplan2.regensburg.de/biotonnen/"}},"type":"Feature"},
	{"geometry":{"coordinates":[12.069844,48.997308],"type":"Point"},"properties":{"osm_id":"5469946413","tag":{"amenity":"recycling","recycling:green_waste":"yes","recycling_type":"container","source:ref":"http://stadtplan2.regensburg.de/biotonnen/"}},"type":"Feature"},
	{"geometry":{"coordinates":[12.06942,48.997068],"type":"Point"},"properties":{"osm_id":"5469946414","tag":{"amenity":"recycling","recycling:green_waste":"yes","recycling_type":"container","source:ref":"http://stadtplan2.regensburg.de/biotonnen/"}},"type":"Feature"},
	{"geometry":{"coordinates":[12.067382,48.995926],"type":"Point"},"properties":{"osm_id":"5469946415","tag":{"amenity":"recycling","recycling:green_waste":"yes","recycling_type":"container","source:ref":"http://stadtplan2.regensburg.de/biotonnen/"}},"type":"Feature"},
	{"geometry":{"coordinates":[12.06661,48.993141],"type":"Point"},"properties":{"osm_id":"5469946416","tag":{"amenity":"recycling","recycling:clothes":"yes","recycling_type":"container"}},"type":"Feature"},
	{"geometry":{"coordinates":[12.068896,48.992881],"type":"Point"},"properties":{"osm_id":"5469946417","tag":{"amenity":"recycling","recycling:clothes":"yes","recycling_type":"container"}},"type":"Feature"},
	{"geometry":{"coordinates":[12.08173,49.000392],"type":"Point"},"properties":{"osm_id":"5476555009","tag":{"amenity":"recycling","recycling:green_waste":"yes","recycling_type":"container","source:ref":"http://stadtplan2.regensburg.de/biotonnen/"}},"type":"Feature"},
	{"geometry":{"coordinates":[12.079255,48.99997],"type":"Point"},"properties":{"osm_id":"5476555010","tag":{"amenity":"recycling","recycling:green_waste":"yes","recycling_type":"container","source:ref":"http://stadtplan2.regensburg.de/biotonnen/"}},"type":"Feature"},
	{"geometry":{"coordinates":[12.081259,48.998816],"type":"Point"},"properties":{"osm_id":"5476555011","tag":{"amenity":"recycling","recycling:green_waste":"yes","recycling_type":"container","source:ref":"http://stadtplan2.regensburg.de/biotonnen/"}},"type":"Feature"},
	{"geometry":{"coordinates":[12.078901,48.998279],"type":"Point"},"properties":{"osm_id":"5476555012","tag":{"amenity":"recycling","recycling:green_waste":"yes","recycling_type":"container","source:ref":"http://stadtplan2.regensburg.de/biotonnen/"}},"type":"Feature"},
	{"geometry":{"coordinates":[12.076094,48.997752],"type":"Point"},"properties":{"osm_id":"5476555013","tag":{"amenity":"recycling","recycling:green_waste":"yes","recycling_type":"container","source:ref":"http://stadtplan2.regensburg.de/biotonnen/"}},"type":"Feature"},
	{"geometry":{"coordinates":[12.077665,48.995643],"type":"Point"},"properties":{"osm_id":"5476555014","tag":{"amenity":"recycling","recycling:green_waste":"yes","recycling_type":"container","source:ref":"http://stadtplan2.regensburg.de/biotonnen/"}},"type":"Feature"},
	{"geometry":{"coordinates":[12.077263,48.994787],"type":"Point"},"properties":{"osm_id":"5476555015","tag":{"amenity":"recycling","recycling:green_waste":"yes","recycling_type":"container","source:ref":"http://stadtplan2.regensburg.de/biotonnen/"}},"type":"Feature"},
	{"geometry":{"coordinates":[12.075917,48.994879],"type":"Point"},"properties":{"osm_id":"5476555016","tag":{"amenity":"recycling","recycling:green_waste":"yes","recycling_type":"container","source:ref":"http://stadtplan2.regensburg.de/biotonnen/"}},"type":"Feature"},
	{"geometry":{"coordinates":[12.074623,48.995295],"type":"Point"},"properties":{"osm_id":"5476555017","tag":{"amenity":"recycling","recycling:green_waste":"yes","recycling_type":"container","source:ref":"http://stadtplan2.regensburg.de/biotonnen/"}},"type":"Feature"},
	{"geometry":{"coordinates":[12.075008,48.994082],"type":"Point"},"properties":{"osm_id":"5476555018","tag":{"amenity":"recycling","recycling:green_waste":"yes","recycling_type":"container","source:ref":"http://stadtplan2.regensburg.de/biotonnen/"}},"type":"Feature"},
	{"geometry":{"coordinates":[12.072707,48.996664],"type":"Point"},"properties":{"osm_id":"5476555019","tag":{"amenity":"recycling","recycling:green_waste":"yes","recycling_type":"container","source:ref":"http://stadtplan2.regensburg.de/biotonnen/"}},"type":"Feature"},
	{"geometry":{"coordinates":[12.07161,48.995965],"type":"Point"},"properties":{"osm_id":"5476555020","tag":{"amenity":"recycling","recycling:green_waste":"yes","recycling_type":"container","source:ref":"http://stadtplan2.regensburg.de/biotonnen/"}},"type":"Feature"},
	{"geometry":{"coordinates":[12.070706,48.995022],"type":"Point"},"properties":{"osm_id":"5476555021","tag":{"amenity":"recycling","recycling:green_waste":"yes","recycling_type":"container","source:ref":"http://stadtplan2.regensburg.de/biotonnen/"}},"type":"Feature"},
	{"geometry":{"coordinates":[12.079872,48.995519],"type":"Point"},"properties":{"osm_id":"5476555022","tag":{"amenity":"recycling","recycling:green_waste":"yes","recycling_type":"container","source:ref":"http://stadtplan2.regensburg.de/biotonnen/"}},"type":"Feature"},
	{"geometry":{"coordinates":[12.080422,48.994981],"type":"Point"},"properties":{"osm_id":"5476555023","tag":{"amenity":"recycling","recycling:green_waste":"yes","recycling_type":"container","source:ref":"http://stadtplan2.regensburg.de/biotonnen/"}},"type":"Feature"},
	{"geometry":{"coordinates":[12.081561,48.996696],"type":"Point"},"properties":{"osm_id":"5476555024","tag":{"amenity":"recycling","recycling:green_waste":"yes","recycling_type":"container","source:ref":"http://stadtplan2.regensburg.de/biotonnen/"}},"type":"Feature"},
	{"geometry":{"coordinates":[12.084555,48.997839],"type":"Point"},"properties":{"osm_id":"5476555025","tag":{"amenity":"recycling","recycling:green_waste":"yes","recycling_type":"container","source:ref":"http://stadtplan2.regensburg.de/biotonnen/"}},"type":"Feature"},
	{"geometry":{"coordinates":[12.084419,48.996893],"type":"Point"},"properties":{"osm_id":"5476555026","tag":{"amenity":"recycling","recycling:green_waste":"yes","recycling_type":"container","source:ref":"http://stadtplan2.regensburg.de/biotonnen/"}},"type":"Feature"},
	{"geometry":{"coordinates":[12.083031,48.99447],"type":"Point"},"properties":{"osm_id":"5476555027","tag":{"amenity":"recycling","recycling:green_waste":"yes","recycling_type":"container","source:ref":"http://stadtplan2.regensburg.de/biotonnen/"}},"type":"Feature"},
	{"geometry":{"coordinates":[12.08418,48.992989],"type":"Point"},"properties":{"osm_id":"5476555028","tag":{"amenity":"recycling","recycling:green_waste":"yes","recycling_type":"container","source:ref":"http://stadtplan2.regensburg.de/biotonnen/"}},"type":"Feature"},
	{"geometry":{"coordinates":[12.081983,48.992028],"type":"Point"},"properties":{"osm_id":"5476555029","tag":{"amenity":"recycling","recycling:green_waste":"yes","recycling_type":"container","source:ref":"http://stadtplan2.regensburg.de/biotonnen/"}},"type":"Feature"},
	{"geometry":{"coordinates":[12.088657,48.993197],"type":"Point"},"properties":{"osm_id":"5476555030","tag":{"amenity":"recycling","recycling:green_waste":"yes","recycling_type":"container","source:ref":"http://stadtplan2.regensburg.de/biotonnen/"}},"type":"Feature"},
	{"geometry":{"coordinates":[12.061972,49.008886],"type":"Point"},"properties":{"osm_id":"5476555031","tag":{"amenity":"recycling","recycling:organic":"yes","recycling_type":"container"}},"type":"Feature"},
	{"geometry":{"coordinates":[12.066567,49.005173],"type":"Point"},"properties":{"osm_id":"5476555032","tag":{"amenity":"recycling","recycling:organic":"yes","recycling_type":"container","source:ref":"http://stadtplan2.regensburg.de/biotonnen/"}},"type":"Feature"},
	{"geometry":{"coordinates":[12.064804,49.005992],"type":"Point"},"properties":{"osm_id":"5476555033","tag":{"amenity":"recycling","recycling:organic":"yes","recycling_type":"container","source:ref":"http://stadtplan2.regensburg.de/biotonnen/"}},"type":"Feature"},
	{"geometry":{"coordinates":[12.07553,49.008038],"type":"Point"},"properties":{"osm_id":"5476555034","tag":{"amenity":"recycling","recycling:green_waste":"yes","recycling_type":"container","source:ref":"http://stadtplan2.regensburg.de/biotonnen/"}},"type":"Feature"},
	{"geometry":{"coordinates":[12.076039,49.007492],"type":"Point"},"properties":{"osm_id":"5476555035","tag":{"amenity":"recycling","recycling:green_waste":"yes","recycling_type":"container","source:ref":"http://stadtplan2.regensburg.de/biotonnen/"}},"type":"Feature"},
	{"geometry":{"coordinates":[12.077107,49.006459],"type":"Point"},"properties":{"osm_id":"5476555036","tag":{"amenity":"recycling","recycling:green_waste":"yes","recycling_type":"container","source:ref":"http://stadtplan2.regensburg.de/biotonnen/"}},"type":"Feature"},
	{"geometry":{"coordinates":[12.075655,49.00508],"type":"Point"},"properties":{"osm_id":"5476555037","tag":{"amenity":"recycling","recycling:green_waste":"yes","recycling_type":"container","source:ref":"http://stadtplan2.regensburg.de/biotonnen/"}},"type":"Feature"},
	{"geometry":{"coordinates":[12.077804,49.008018],"type":"Point"},"properties":{"osm_id":"5476555038","tag":{"amenity":"recycling","recycling:green_waste":"yes","recycling_type":"container","source:ref":"http://stadtplan2.regensburg.de/biotonnen/"}},"type":"Feature"},
	{"geometry":{"coordinates":[12.079848,49.009333],"type":"Point"},"properties":{"osm_id":"5476555039","tag":{"amenity":"recycling","recycling:green_waste":"yes","recycling_type":"container","source:ref":"http://stadtplan2.regensburg.de/biotonnen/"}},"type":"Feature"},
	{"geometry":{"coordinates":[12.077378,49.009718],"type":"Point"},"properties":{"osm_id":"5476555040","tag":{"amenity":"recycling","recycling:green_waste":"yes","recycling_type":"container","source:ref":"http://stadtplan2.regensburg.de/biotonnen/"}},"type":"Feature"},
	{"geometry":{"coordinates":[12.080938,49.008757],"type":"Point"},"properties":{"osm_id":"5476555041","tag":{"amenity":"recycling","recycling:green_waste":"yes","recycling_type":"container","source:ref":"http://stadtplan2.regensburg.de/biotonnen/"}},"type":"Feature"},
	{"geometry":{"coordinates":[12.081301,49.006705],"type":"Point"},"properties":{"osm_id":"5476555042","tag":{"amenity":"recycling","recycling:green_waste":"yes","recycling_type":"container","source:ref":"http://stadtplan2.regensburg.de/biotonnen/"}},"type":"Feature"},
	{"geometry":{"coordinates":[12.081307,49.005309],"type":"Point"},"properties":{"osm_id":"5476555043","tag":{"amenity":"recycling","recycling:green_waste":"yes","recycling_type":"container","source:ref":"http://stadtplan2.regensburg.de/biotonnen/"}},"type":"Feature"},
	{"geometry":{"coordinates":[12.084248,49.009398],"type":"Point"},"properties":{"osm_id":"5476555044","tag":{"amenity":"recycling","recycling:green_waste":"yes","recycling_type":"container","source:ref":"http://stadtplan2.regensburg.de/biotonnen/"}},"type":"Feature"},
	{"geometry":{"coordinates":[12.087351,49.008406],"type":"Point"},"properties":{"osm_id":"5476555045","tag":{"amenity":"recycling","recycling:green_waste":"yes","recycling_type":"container","source:ref":"http://stadtplan2.regensburg.de/biotonnen/"}},"type":"Feature"},
	{"geometry":{"coordinates":[12.087883,49.006511],"type":"Point"},"properties":{"osm_id":"5476555046","tag":{"amenity":"recycling","recycling:green_waste":"yes","recycling_type":"container","source:ref":"http://stadtplan2.regensburg.de/biotonnen/"}},"type":"Feature"},
	{"geometry":{"coordinates":[12.088862,49.005919],"type":"Point"},"properties":{"osm_id":"5476555047","tag":{"amenity":"recycling","recycling:green_waste":"yes","recycling_type":"container","source:ref":"http://stadtplan2.regensburg.de/biotonnen/"}},"type":"Feature"},
	{"geometry":{"coordinates":[12.087582,49.004266],"type":"Point"},"properties":{"osm_id":"5476555048","tag":{"amenity":"recycling","recycling:green_waste":"yes","recycling_type":"container","source:ref":"http://stadtplan2.regensburg.de/biotonnen/"}},"type":"Feature"},
	{"geometry":{"coordinates":[12.085663,49.004589],"type":"Point"},"properties":{"osm_id":"5476555049","tag":{"amenity":"recycling","recycling:green_waste":"yes","recycling_type":"container","source:ref":"http://stadtplan2.regensburg.de/biotonnen/"}},"type":"Feature"},
	{"geometry":{"coordinates":[12.092882,49.009164],"type":"Point"},"properties":{"osm_id":"5476555050","tag":{"amenity":"recycling","recycling:green_waste":"yes","recycling_type":"container","source:ref":"http://stadtplan2.regensburg.de/biotonnen/"}},"type":"Feature"},
	{"geometry":{"coordinates":[12.093911,49.008357],"type":"Point"},"properties":{"osm_id":"5476555051","tag":{"amenity":"recycling","recycling:green_waste":"yes","recycling_type":"container","source:ref":"http://stadtplan2.regensburg.de/biotonnen/"}},"type":"Feature"},
	{"geometry":{"coordinates":[12.092331,49.006858],"type":"Point"},"properties":{"osm_id":"5476555052","tag":{"amenity":"recycling","recycling:green_waste":"yes","recycling_type":"container","source:ref":"http://stadtplan2.regensburg.de/biotonnen/"}},"type":"Feature"},
	{"geometry":{"coordinates":[12.100359,49.007742],"type":"Point"},"properties":{"osm_id":"5476555053","tag":{"amenity":"recycling","recycling:green_waste":"yes","recycling_type":"container","source:ref":"http://stadtplan2.regensburg.de/biotonnen/"}},"type":"Feature"},
	{"geometry":{"coordinates":[12.098438,49.005485],"type":"Point"},"properties":{"osm_id":"5476555054","tag":{"amenity":"recycling","recycling:green_waste":"yes","recycling_type":"container","source:ref":"http://stadtplan2.regensburg.de/biotonnen/"}},"type":"Feature"},
	{"geometry":{"coordinates":[12.10178,49.009798],"type":"Point"},"properties":{"name":"Biotonne","osm_id":"5706273226","tag":{"amenity":"recycling","recycling:green_waste":"yes","recycling_type":"container","source:ref":"http://stadtplan2.regensburg.de/biotonnen/"}},"type":"Feature"},
	{"geometry":{"coordinates":[12.101431,49.009184],"type":"Point"},"properties":{"name":"Biotonne","osm_id":"5706273227","tag":{"amenity":"recycling","recycling:green_waste":"yes","recycling_type":"container","source:ref":"http://stadtplan2.regensburg.de/biotonnen/"}},"type":"Feature"},
	{"geometry":{"coordinates":[12.099533,49.00682],"type":"Point"},"properties":{"name":"Biotonne","osm_id":"5706273228","tag":{"amenity":"recycling","recycling:green_waste":"yes","recycling_type":"container","source:ref":"http://stadtplan2.regensburg.de/biotonnen/"}},"type":"Feature"},
	{"geometry":{"coordinates":[12.099276,49.004347],"type":"Point"},"properties":{"name":"Biotonne","osm_id":"5706273229","tag":{"amenity":"recycling","recycling:green_waste":"yes","recycling_type":"container","source:ref":"http://stadtplan2.regensburg.de/biotonnen/"}},"type":"Feature"},
	{"geometry":{"coordinates":[12.101206,48.997862],"type":"Point"},"properties":{"name":"Biotonne","osm_id":"5706273230","tag":{"amenity":"recycling","recycling:green_waste":"yes","recycling_type":"container","source:ref":"http://stadtplan2.regensburg.de/biotonnen/"}},"type":"Feature"},
	{"geometry":{"coordinates":[12.103833,49.010801],"type":"Point"},"properties":{"name":"Biotonne","osm_id":"5706273231","tag":{"amenity":"recycling","recycling:green_waste":"yes","recycling_type":"container","source:ref":"http://stadtplan2.regensburg.de/biotonnen/"}},"type":"Feature"},
	{"geometry":{"coordinates":[12.105577,49.010365],"type":"Point"},"properties":{"osm_id":"5706273232","tag":{"amenity":"recycling","recycling:green_waste":"yes","recycling_type":"container"}},"type":"Feature"},
	{"geometry":{"coordinates":[12.104742,49.008637],"type":"Point"},"properties":{"name":"Biotonne","osm_id":"5706273233","tag":{"amenity":"recycling","recycling:green_waste":"yes","recycling_type":"container","source:ref":"http://stadtplan2.regensburg.de/biotonnen/"}},"type":"Feature"},
	{"geometry":{"coordinates":[12.107096,49.006413],"type":"Point"},"properties":{"osm_id":"5706273235","tag":{"amenity":"recycling","recycling:green_waste":"yes","recycling_type":"container"}},"type":"Feature"},
	{"geometry":{"coordinates":[12.105545,49.005696],"type":"Point"},"properties":{"name":"Biotonne","osm_id":"5706273236","tag":{"amenity":"recycling","recycling:green_waste":"yes","recycling_type":"container","source:ref":"http://stadtplan2.regensburg.de/biotonnen/"}},"type":"Feature"},
	{"geometry":{"coordinates":[12.102321,49.005601],"type":"Point"},"properties":{"name":"Biotonne","osm_id":"5706273237","tag":{"amenity":"recycling","recycling:green_waste":"yes","recycling_type":"container","source:ref":"http://stadtplan2.regensburg.de/biotonnen/"}},"type":"Feature"},
	{"geometry":{"coordinates":[12.102321,49.004939],"type":"Point"},"properties":{"name":"Biotonne","osm_id":"5706273238","tag":{"amenity":"recycling","recycling:green_waste":"yes","recycling_type":"container","source:ref":"http://stadtplan2.regensburg.de/biotonnen/"}},"type":"Feature"},
	{"geometry":{"coordinates":[12.102395,49.003752],"type":"Point"},"properties":{"name":"Biotonne","osm_id":"5706273239","tag":{"amenity":"recycling","recycling:green_waste":"yes","recycling_type":"container","source:ref":"http://stadtplan2.regensburg.de/biotonnen/"}},"type":"Feature"},
	{"geometry":{"coordinates":[12.103884,49.003419],"type":"Point"},"properties":{"name":"Biotonne","osm_id":"5706273240","tag":{"amenity":"recycling","recycling:green_waste":"yes","recycling_type":"container","source:ref":"http://stadtplan2.regensburg.de/biotonnen/"}},"type":"Feature"},
	{"geometry":{"coordinates":[12.105002,49.003337],"type":"Point"},"properties":{"name":"Biotonne","osm_id":"5706273241","tag":{"amenity":"recycling","recycling:green_waste":"yes","recycling_type":"container","source:ref":"http://stadtplan2.regensburg.de/biotonnen/"}},"type":"Feature"},
	{"geometry":{"coordinates":[12.105538,49.004017],"type":"Point"},"properties":{"name":"Biotonne","osm_id":"5706273242","tag":{"amenity":"recycling","recycling:green_waste":"yes","recycling_type":"container","source:ref":"http://stadtplan2.regensburg.de/biotonnen/"}},"type":"Feature"},
	{"geometry":{"coordinates":[12.106931,49.001472],"type":"Point"},"properties":{"name":"Biotonne","osm_id":"5706273243","tag":{"amenity":"recycling","recycling:green_waste":"yes","recycling_type":"container","source:ref":"http://stadtplan2.regensburg.de/biotonnen/"}},"type":"Feature"},
	{"geometry":{"coordinates":[12.106052,48.99936],"type":"Point"},"properties":{"name":"Biotonne","osm_id":"5706273244","tag":{"amenity":"recycling","recycling:green_waste":"yes","recycling_type":"container","source:ref":"http://stadtplan2.regensburg.de/biotonnen/"}},"type":"Feature"},
	{"geometry":{"coordinates":[12.104122,48.995543],"type":"Point"},"properties":{"name":"Biotonne","osm_id":"5706273245","tag":{"amenity":"recycling","recycling:green_waste":"yes","recycling_type":"container","source:ref":"http://stadtplan2.regensburg.de/biotonnen/"}},"type":"Feature"},
	{"geometry":{"coordinates":[12.107513,48.99609],"type":"Point"},"properties":{"name":"Biotonne","osm_id":"5706273246","tag":{"amenity":"recycling","recycling:green_waste":"yes","recycling_type":"container","source:ref":"http://stadtplan2.regensburg.de/biotonnen/"}},"type":"Feature"},
	{"geometry":{"coordinates":[12.10948,48.996954],"type":"Point"},"properties":{"name":"Biotonne","osm_id":"5706273247","tag":{"amenity":"recycling","recycling:green_waste":"yes","recycling_type":"container","source:ref":"http://stadtplan2.regensburg.de/biotonnen/"}},"type":"Feature"},
	{"geometry":{"coordinates":[12.111603,48.996759],"type":"Point"},"properties":{"name":"Biotonne","osm_id":"5706273248","tag":{"amenity":"recycling","recycling:green_waste":"yes","recycling_type":"container","source:ref":"http://stadtplan2.regensburg.de/biotonnen/"}},"type":"Feature"},
	{"geometry":{"coordinates":[12.114467,48.997504],"type":"Point"},"properties":{"name":"Biotonne","osm_id":"5706273249","tag":{"amenity":"recycling","recycling:green_waste":"yes","recycling_type":"container","source:ref":"http://stadtplan2.regensburg.de/biotonnen/"}},"type":"Feature"},
	{"geometry":{"coordinates":[12.112678,48.998895],"type":"Point"},"properties":{"name":"Biotonne","osm_id":"5706273250","tag":{"amenity":"recycling","recycling:green_waste":"yes","recycling_type":"container","source:ref":"http://stadtplan2.regensburg.de/biotonnen/"}},"type":"Feature"},
	{"geometry":{"coordinates":[12.111285,48.99895],"type":"Point"},"properties":{"name":"Biotonne","osm_id":"5706273251","tag":{"amenity":"recycling","recycling:green_waste":"yes","recycling_type":"container","source:ref":"http://stadtplan2.regensburg.de/biotonnen/"}},"type":"Feature"},
	{"geometry":{"coordinates":[12.110811,48.998087],"type":"Point"},"properties":{"name":"Biotonne","osm_id":"5706273252","tag":{"amenity":"recycling","recycling:green_waste":"yes","recycling_type":"container","source:ref":"http://stadtplan2.regensburg.de/biotonnen/"}},"type":"Feature"},
	{"geometry":{"coordinates":[12.111157,48.999628],"type":"Point"},"properties":{"name":"Biotonne","osm_id":"5706273253","tag":{"amenity":"recycling","recycling:green_waste":"yes","recycling_type":"container","source:ref":"http://stadtplan2.regensburg.de/biotonnen/"}},"type":"Feature"},
	{"geometry":{"coordinates":[12.112147,49.001034],"type":"Point"},"properties":{"name":"Biotonne","osm_id":"5706273254","tag":{"amenity":"recycling","recycling:green_waste":"yes","recycling_type":"container","source:ref":"http://stadtplan2.regensburg.de/biotonnen/"}},"type":"Feature"},
	{"geometry":{"coordinates":[12.110549,49.001112],"type":"Point"},"properties":{"name":"Biotonne","osm_id":"5706273255","tag":{"amenity":"recycling","recycling:green_waste":"yes","recycling_type":"container","source:ref":"http://stadtplan2.regensburg.de/biotonnen/"}},"type":"Feature"},
	{"geometry":{"coordinates":[12.109814,49.002221],"type":"Point"},"properties":{"name":"Biotonne","osm_id":"5706273256","tag":{"amenity":"recycling","recycling:green_waste":"yes","recycling_type":"container","source:ref":"http://stadtplan2.regensburg.de/biotonnen/"}},"type":"Feature"},
	{"geometry":{"coordinates":[12.114771,49.002091],"type":"Point"},"properties":{"name":"Biotonne","osm_id":"5706273257","tag":{"amenity":"recycling","recycling:green_waste":"yes","recycling_type":"container","source:ref":"http://stadtplan2.regensburg.de/biotonnen/"}},"type":"Feature"},
	{"geometry":{"coordinates":[12.116206,49.003246],"type":"Point"},"properties":{"name":"Biotonne","osm_id":"5706273258","tag":{"amenity":"recycling","recycling:green_waste":"yes","recycling_type":"container","source:ref":"http://stadtplan2.regensburg.de/biotonnen/"}},"type":"Feature"},
	{"geometry":{"coordinates":[12.11528,49.003873],"type":"Point"},"properties":{"name":"Biotonne","osm_id":"5706273259","tag":{"amenity":"recycling","recycling:green_waste":"yes","recycling_type":"container","source:ref":"http://stadtplan2.regensburg.de/biotonnen/"}},"type":"Feature"},
	{"geometry":{"coordinates":[12.112397,49.0047],"type":"Point"},"properties":{"name":"Biotonne","osm_id":"5706273260","tag":{"amenity":"recycling","recycling:green_waste":"yes","recycling_type":"container","source:ref":"http://stadtplan2.regensburg.de/biotonnen/"}},"type":"Feature"},
	{"geometry":{"coordinates":[12.111425,49.005475],"type":"Point"},"properties":{"name":"Biotonne","osm_id":"5706273261","tag":{"amenity":"recycling","recycling:green_waste":"yes","recycling_type":"container","source:ref":"http://stadtplan2.regensburg.de/biotonnen/"}},"type":"Feature"},
	{"geometry":{"coordinates":[12.109669,49.006096],"type":"Point"},"properties":{"name":"Biotonne","osm_id":"5706273262","tag":{"amenity":"recycling","recycling:green_waste":"yes","recycling_type":"container","source:ref":"http://stadtplan2.regensburg.de/biotonnen/"}},"type":"Feature"},
	{"geometry":{"coordinates":[12.110209,49.005218],"type":"Point"},"properties":{"name":"Biotonne","osm_id":"5706273263","tag":{"amenity":"recycling","recycling:green_waste":"yes","recycling_type":"container","source:ref":"http://stadtplan2.regensburg.de/biotonnen/"}},"type":"Feature"},
	{"geometry":{"coordinates":[12.11529,49.006585],"type":"Point"},"properties":{"name":"Biotonne","osm_id":"5706273264","tag":{"amenity":"recycling","recycling:green_waste":"yes","recycling_type":"container","source:ref":"http://stadtplan2.regensburg.de/biotonnen/"}},"type":"Feature"},
	{"geometry":{"coordinates":[12.113497,49.009],"type":"Point"},"properties":{"name":"Biotonne","osm_id":"5706273265","tag":{"amenity":"recycling","recycling:green_waste":"yes","recycling_type":"container","source:ref":"http://stadtplan2.regensburg.de/biotonnen/"}},"type":"Feature"},
	{"geometry":{"coordinates":[12.110208,49.008328],"type":"Point"},"properties":{"name":"Biotonne","osm_id":"5706273266","tag":{"amenity":"recycling","recycling:green_waste":"yes","recycling_type":"container","source:ref":"http://stadtplan2.regensburg.de/biotonnen/"}},"type":"Feature"},
	{"geometry":{"coordinates":[12.117326,49.000956],"type":"Point"},"properties":{"name":"Biotonne","osm_id":"5706273267","tag":{"amenity":"recycling","recycling:green_waste":"yes","recycling_type":"container","source:ref":"http://stadtplan2.regensburg.de/biotonnen/"}},"type":"Feature"},
	{"geometry":{"coordinates":[12.118135,48.999604],"type":"Point"},"properties":{"name":"Biotonne","osm_id":"5706273268","tag":{"amenity":"recycling","recycling:green_waste":"yes","recycling_type":"container","source:ref":"http://stadtplan2.regensburg.de/biotonnen/"}},"type":"Feature"},
	{"geometry":{"coordinates":[12.119487,48.999489],"type":"Point"},"properties":{"name":"Biotonne","osm_id":"5706273269","tag":{"amenity":"recycling","recycling:green_waste":"yes","recycling_type":"container","source:ref":"http://stadtplan2.regensburg.de/biotonnen/"}},"type":"Feature"},
	{"geometry":{"coordinates":[12.120774,49.000287],"type":"Point"},"properties":{"name":"Biotonne","osm_id":"5706273270","tag":{"amenity":"recycling","recycling:green_waste":"yes","recycling_type":"container","source:ref":"http://stadtplan2.regensburg.de/biotonnen/"}},"type":"Feature"},
	{"geometry":{"coordinates":[12.119066,49.003236],"type":"Point"},"properties":{"name":"Biotonne","osm_id":"5706273271","tag":{"amenity":"recycling","recycling:green_waste":"yes","recycling_type":"container","source:ref":"http://stadtplan2.regensburg.de/biotonnen/"}},"type":"Feature"},
	{"geometry":{"coordinates":[12.118901,48.998819],"type":"Point"},"properties":{"osm_id":"5706273272","tag":{"amenity":"recycling","recycling:green_waste":"yes","recycling_type":"container","source:ref":"http://stadtplan2.regensburg.de/biotonnen/"}},"type":"Feature"},
	{"geometry":{"coordinates":[12.120169,48.993848],"type":"Point"},"properties":{"name":"Biotonne","osm_id":"5706273273","tag":{"amenity":"recycling","recycling:green_waste":"yes","recycling_type":"container"}},"type":"Feature"},
	{"geometry":{"coordinates":[12.113231,49.011096],"type":"Point"},"properties":{"name":"Biotonne","osm_id":"5706297621","tag":{"amenity":"recycling","recycling:green_waste":"yes","recycling_type":"container","source:ref":"http://stadtplan2.regensburg.de/biotonnen/"}},"type":"Feature"},
	{"geometry":{"coordinates":[12.117001,49.010672],"type":"Point"},"properties":{"name":"Biotonne","osm_id":"5706297622","tag":{"amenity":"recycling","recycling:green_waste":"yes","recycling_type":"container","source:ref":"http://stadtplan2.regensburg.de/biotonnen/"}},"type":"Feature"},
	{"geometry":{"coordinates":[12.118599,49.010725],"type":"Point"},"properties":{"name":"Biotonne","osm_id":"5706297623","tag":{"amenity":"recycling","recycling:green_waste":"yes","recycling_type":"container","source:ref":"http://stadtplan2.regensburg.de/biotonnen/"}},"type":"Feature"},
	{"geometry":{"coordinates":[12.116525,49.007423],"type":"Point"},"properties":{"name":"Biotonne","osm_id":"5706297624","tag":{"amenity":"recycling","recycling:green_waste":"yes","recycling_type":"container","source:ref":"http://stadtplan2.regensburg.de/biotonnen/"}},"type":"Feature"},
	{"geometry":{"coordinates":[12.12002,49.007487],"type":"Point"},"properties":{"name":"Biotonne","osm_id":"5706297625","tag":{"amenity":"recycling","recycling:green_waste":"yes","recycling_type":"container","source:ref":"http://stadtplan2.regensburg.de/biotonnen/"}},"type":"Feature"},
	{"geometry":{"coordinates":[12.121888,49.00877],"type":"Point"},"properties":{"name":"Biotonne","osm_id":"5706297626","tag":{"amenity":"recycling","recycling:green_waste":"yes","recycling_type":"container","source:ref":"http://stadtplan2.regensburg.de/biotonnen/"}},"type":"Feature"},
	{"geometry":{"coordinates":[12.123317,49.007922],"type":"Point"},"properties":{"name":"Biotonne","osm_id":"5706297627","tag":{"amenity":"recycling","recycling:green_waste":"yes","recycling_type":"container","source:ref":"http://stadtplan2.regensburg.de/biotonnen/"}},"type":"Feature"},
	{"geometry":{"coordinates":[12.125223,49.01285],"type":"Point"},"properties":{"name":"Biotonne","osm_id":"5706297633","tag":{"amenity":"recycling","recycling:green_waste":"yes","recycling_type":"container","source:ref":"http://stadtplan2.regensburg.de/biotonnen/"}},"type":"Feature"},
	{"geometry":{"coordinates":[12.125708,49.013928],"type":"Point"},"properties":{"name":"Biotonne","osm_id":"5706297634","tag":{"amenity":"recycling","recycling:green_waste":"yes","recycling_type":"container","source:ref":"http://stadtplan2.regensburg.de/biotonnen/"}},"type":"Feature"},
	{"geometry":{"coordinates":[12.123631,49.014787],"type":"Point"},"properties":{"name":"Biotonne","osm_id":"5706297635","tag":{"amenity":"recycling","recycling:green_waste":"yes","recycling_type":"container","source:ref":"http://stadtplan2.regensburg.de/biotonnen/"}},"type":"Feature"},
	{"geometry":{"coordinates":[12.11961,49.014355],"type":"Point"},"properties":{"name":"Biotonne","osm_id":"5706297636","tag":{"amenity":"recycling","recycling:green_waste":"yes","recycling_type":"container","source:ref":"http://stadtplan2.regensburg.de/biotonnen/"}},"type":"Feature"},
	{"geometry":{"coordinates":[12.117456,49.014769],"type":"Point"},"properties":{"name":"Biotonne","osm_id":"5706297637","tag":{"amenity":"recycling","recycling:green_waste":"yes","recycling_type":"container","source:ref":"http://stadtplan2.regensburg.de/biotonnen/"}},"type":"Feature"},
	{"geometry":{"coordinates":[12.117004,49.016015],"type":"Point"},"properties":{"name":"Biotonne","osm_id":"5706297638","tag":{"amenity":"recycling","recycling:green_waste":"yes","recycling_type":"container"}},"type":"Feature"},
	{"geometry":{"coordinates":[12.115836,49.015358],"type":"Point"},"properties":{"name":"Biotonne","osm_id":"5706297639","tag":{"amenity":"recycling","recycling:green_waste":"yes","recycling_type":"container","source:ref":"http://stadtplan2.regensburg.de/biotonnen/"}},"type":"Feature"},
	{"geometry":{"coordinates":[12.114971,49.016192],"type":"Point"},"properties":{"osm_id":"5706297640","tag":{"amenity":"recycling","recycling:green_waste":"yes","recycling_type":"container"}},"type":"Feature"},
	{"geometry":{"coordinates":[12.115107,49.016663],"type":"Point"},"properties":{"name":"Biotonne","osm_id":"5706297641","tag":{"amenity":"recycling","recycling:green_waste":"yes","recycling_type":"container","source:ref":"http://stadtplan2.regensburg.de/biotonnen/"}},"type":"Feature"},
	{"geometry":{"coordinates":[12.113491,49.017094],"type":"Point"},"properties":{"name":"Biotonne","osm_id":"5706297642","tag":{"amenity":"recycling","recycling:green_waste":"yes","recycling_type":"container","source:ref":"http://stadtplan2.regensburg.de/biotonnen/"}},"type":"Feature"},
	{"geometry":{"coordinates":[12.113486,49.018119],"type":"Point"},"properties":{"name":"Biotonne","osm_id":"5706297643","tag":{"amenity":"recycling","recycling:green_waste":"yes","recycling_type":"container","source:ref":"http://stadtplan2.regensburg.de/biotonnen/"}},"type":"Feature"},
	{"geometry":{"coordinates":[12.109372,49.018065],"type":"Point"},"properties":{"osm_id":"5706297644","tag":{"amenity":"recycling","recycling:green_waste":"yes","recycling_type":"container"}},"type":"Feature"},
	{"geometry":{"coordinates":[12.109393,49.018705],"type":"Point"},"properties":{"osm_id":"5706297645","tag":{"amenity":"recycling","recycling:green_waste":"yes","recycling_type":"container"}},"type":"Feature"},
	{"geometry":{"coordinates":[12.115217,49.013738],"type":"Point"},"properties":{"name":"Biotonne","osm_id":"5706297646","tag":{"amenity":"recycling","recycling:green_waste":"yes","recycling_type":"container","source:ref":"http://stadtplan2.regensburg.de/biotonnen/"}},"type":"Feature"},
	{"geometry":{"coordinates":[12.112807,49.013273],"type":"Point"},"properties":{"name":"Biotonne","osm_id":"5706297647","tag":{"amenity":"recycling","recycling:green_waste":"yes","recycling_type":"container","source:ref":"http://stadtplan2.regensburg.de/biotonnen/"}},"type":"Feature"},
	{"geometry":{"coordinates":[12.112988,49.01553],"type":"Point"},"properties":{"name":"Biotonne","osm_id":"5706297648","tag":{"amenity":"recycling","recycling:green_waste":"yes","recycling_type":"container","source:ref":"http://stadtplan2.regensburg.de/biotonnen/"}},"type":"Feature"},
	{"geometry":{"coordinates":[12.111568,49.015941],"type":"Point"},"properties":{"name":"Biotonne","osm_id":"5706297649","tag":{"amenity":"recycling","recycling:green_waste":"yes","recycling_type":"container","source:ref":"http://stadtplan2.regensburg.de/biotonnen/"}},"type":"Feature"},
	{"geometry":{"coordinates":[12.111747,49.013705],"type":"Point"},"properties":{"name":"Biotonne","osm_id":"5706297650","tag":{"amenity":"recycling","recycling:green_waste":"yes","recycling_type":"container","source:ref":"http://stadtplan2.regensburg.de/biotonnen/"}},"type":"Feature"},
	{"geometry":{"coordinates":[12.111111,49.01195],"type":"Point"},"properties":{"name":"Biotonne","osm_id":"5706297651","tag":{"amenity":"recycling","recycling:green_waste":"yes","recycling_type":"container","source:ref":"http://stadtplan2.regensburg.de/biotonnen/"}},"type":"Feature"},
	{"geometry":{"coordinates":[12.10239,49.000007],"type":"Point"},"properties":{"osm_id":"5728558046","tag":{"amenity":"waste_basket"}},"type":"Feature"},
	{"geometry":{"coordinates":[12.100015,48.99963],"type":"Point"},"properties":{"osm_id":"5728558049","tag":{"amenity":"waste_basket"}},"type":"Feature"},
	{"geometry":{"coordinates":[12.058191,49.028148],"type":"Point"},"properties":{"osm_id":"5839882857","tag":{"amenity":"recycling","recycling_type":"container"}},"type":"Feature"},
	{"geometry":{"coordinates":[12.109987,49.001652],"type":"Point"},"properties":{"osm_id":"5855259687","tag":{"amenity":"waste_basket"}},"type":"Feature"},
	{"geometry":{"coordinates":[12.106989,49.002091],"type":"Point"},"properties":{"osm_id":"5855259688","tag":{"amenity":"waste_basket"}},"type":"Feature"},
	{"geometry":{"coordinates":[12.063538,49.012694],"type":"Point"},"properties":{"osm_id":"6075680797","tag":{"amenity":"recycling","opening_hours":"24/7","operator":"Stadt Regensburg","recycling:green_waste":"yes","recycling_type":"container"}},"type":"Feature"},
	{"geometry":{"coordinates":[12.074889,49.00073],"type":"Point"},"properties":{"osm_id":"6109535726","tag":{"amenity":"recycling","recycling:clothes":"yes","recycling_type":"container"}},"type":"Feature"},
	{"geometry":{"coordinates":[12.094934,49.00707],"type":"Point"},"properties":{"osm_id":"6158462185","tag":{"amenity":"waste_basket"}},"type":"Feature"},
	{"geometry":{"coordinates":[12.094934,49.007012],"type":"Point"},"properties":{"osm_id":"6158462285","tag":{"amenity":"waste_basket"}},"type":"Feature"},
	{"geometry":{"coordinates":[12.090159,49.006739],"type":"Point"},"properties":{"osm_id":"6158505585","tag":{"amenity":"waste_basket"}},"type":"Feature"},
	{"geometry":{"coordinates":[12.087855,49.005851],"type":"Point"},"properties":{"name":"Biotonne","osm_id":"6158535886","tag":{"amenity":"recycling","recycling:green_waste":"yes","recycling_type":"bin"}},"type":"Feature"},
	{"geometry":{"coordinates":[12.101816,49.018308],"type":"Point"},"properties":{"osm_id":"6182150241","tag":{"amenity":"recycling","recycling:glass_bottles":"yes","recycling_type":"container"}},"type":"Feature"},
	{"geometry":{"coordinates":[12.101725,49.0183],"type":"Point"},"properties":{"name":"Biotonne","osm_id":"6182150258","tag":{"amenity":"recycling","recycling:organic":"yes","recycling_type":"container"}},"type":"Feature"},
	{"geometry":{"coordinates":[12.102503,49.019506],"type":"Point"},"properties":{"name":"Biotonne","osm_id":"6250293560","tag":{"amenity":"recycling","recycling:green_waste":"yes","recycling_type":"container"}},"type":"Feature"},
	{"geometry":{"coordinates":[12.063359,48.980613],"type":"Point"},"properties":{"osm_id":"6255728401","tag":{"amenity":"recycling","recycling:glass":"yes","recycling_type":"container"}},"type":"Feature"},
	{"geometry":{"coordinates":[12.114456,49.031217],"type":"Point"},"properties":{"osm_id":"6339842128","tag":{"amenity":"waste_basket"}},"type":"Feature"},
	{"geometry":{"coordinates":[12.046146,49.021361],"type":"Point"},"properties":{"osm_id":"6377674101","tag":{"amenity":"recycling","recycling:green_waste":"yes","recycling_type":"container"}},"type":"Feature"},
	{"geometry":{"coordinates":[12.057152,49.015859],"type":"Point"},"properties":{"osm_id":"6380372634","tag":{"amenity":"recycling","recycling:glass":"yes","recycling_type":"container"}},"type":"Feature"},
	{"geometry":{"coordinates":[12.099715,49.031866],"type":"Point"},"properties":{"osm_id":"6380585882","tag":{"amenity":"recycling","recycling:clothes":"yes","recycling_type":"container"}},"type":"Feature"},
	{"geometry":{"coordinates":[12.097189,49.017923],"type":"Point"},"properties":{"osm_id":"6558137432","tag":{"amenity":"recycling","recycling:glass_bottles":"yes","recycling_type":"container"}},"type":"Feature"},
	{"geometry":{"coordinates":[12.109224,49.009437],"type":"Point"},"properties":{"osm_id":"6578707523","tag":{"amenity":"waste_basket"}},"type":"Feature"},
	{"geometry":{"coordinates":[12.102868,49.03094],"type":"Point"},"properties":{"osm_id":"6579972810","tag":{"amenity":"recycling","recycling:clothes":"yes","recycling:glass":"yes","recycling_type":"container","waste":"trash"}},"type":"Feature"},
	{"geometry":{"coordinates":[12.102611,49.032711],"type":"Point"},"properties":{"osm_id":"6596480757","tag":{"amenity":"recycling","description":"Sammelstelle f\u00c3\u00bcr kompostierbare Gartenabf\u00c3\u00a4lle","operator":"Stadt Regensburg","recycling:garden_waste":"yes","recycling_type":"container"}},"type":"Feature"},
	{"geometry":{"coordinates":[12.103787,49.020276],"type":"Point"},"properties":{"osm_id":"6661895600","tag":{"amenity":"waste_basket","waste":"trash"}},"type":"Feature"},
	{"geometry":{"coordinates":[12.103852,49.0202],"type":"Point"},"properties":{"osm_id":"6661895617","tag":{"amenity":"waste_basket","waste":"trash"}},"type":"Feature"},
	{"geometry":{"coordinates":[12.117279,49.001003],"type":"Point"},"properties":{"name":"Glascontainer","osm_id":"6678200623","tag":{"amenity":"recycling","recycling:glass_bottles":"yes","recycling_type":"container"}},"type":"Feature"},
	{"geometry":{"coordinates":[12.118048,49.001723],"type":"Point"},"properties":{"name":"Biotonne","osm_id":"6678200624","tag":{"amenity":"recycling","recycling:green_waste":"yes","recycling_type":"container"}},"type":"Feature"},
	{"geometry":{"coordinates":[12.117375,49.001894],"type":"Point"},"properties":{"name":"Biotonne","osm_id":"6678200625","tag":{"amenity":"recycling","recycling:green_waste":"yes","recycling_type":"container"}},"type":"Feature"},
	{"geometry":{"coordinates":[12.095788,49.023199],"type":"Point"},"properties":{"osm_id":"6797282871","tag":{"amenity":"waste_basket","waste":"trash"}},"type":"Feature"},
	{"geometry":{"coordinates":[12.084418,49.006109],"type":"Point"},"properties":{"osm_id":"6946263432","tag":{"amenity":"recycling","recycling:green_waste":"yes","recycling_type":"container"}},"type":"Feature"},
	{"geometry":{"coordinates":[12.083479,49.003968],"type":"Point"},"properties":{"osm_id":"6946273186","tag":{"amenity":"recycling","recycling:green_waste":"yes","recycling_type":"container"}},"type":"Feature"},
	{"geometry":{"coordinates":[12.083048,49.005826],"type":"Point"},"properties":{"osm_id":"6946282192","tag":{"amenity":"recycling","recycling:green_waste":"yes","recycling_type":"container"}},"type":"Feature"},
	{"geometry":{"coordinates":[12.073135,49.027823],"type":"Point"},"properties":{"name":"Kompost","osm_id":"7080017449","tag":{"amenity":"recycling","recycling:green_waste":"yes"}},"type":"Feature"},
	{"geometry":{"coordinates":[12.080451,49.021784],"type":"Point"},"properties":{"osm_id":"7154649134","tag":{"amenity":"recycling","recycling:green_waste":"yes","recycling_type":"container"}},"type":"Feature"},
	{"geometry":{"coordinates":[12.080127,49.021676],"type":"Point"},"properties":{"osm_id":"7154649135","tag":{"amenity":"recycling","recycling:green_waste":"yes","recycling_type":"container"}},"type":"Feature"},
	{"geometry":{"coordinates":[12.079746,49.022198],"type":"Point"},"properties":{"osm_id":"7154649136","tag":{"amenity":"recycling","recycling:green_waste":"yes","recycling_type":"container"}},"type":"Feature"},
	{"geometry":{"coordinates":[12.080909,49.023226],"type":"Point"},"properties":{"osm_id":"7154649138","tag":{"amenity":"recycling","recycling:green_waste":"yes","recycling_type":"container"}},"type":"Feature"},
	{"geometry":{"coordinates":[12.078279,49.020676],"type":"Point"},"properties":{"osm_id":"7154649139","tag":{"amenity":"recycling","recycling:green_waste":"yes","recycling_type":"container"}},"type":"Feature"},
	{"geometry":{"coordinates":[12.083485,49.021617],"type":"Point"},"properties":{"osm_id":"7154649141","tag":{"amenity":"recycling","recycling:glass_bottles":"yes","recycling_type":"container"}},"type":"Feature"},
	{"geometry":{"coordinates":[12.079488,49.024635],"type":"Point"},"properties":{"osm_id":"7154649142","tag":{"amenity":"recycling","recycling:glass_bottles":"yes","recycling_type":"container"}},"type":"Feature"},
	{"geometry":{"coordinates":[12.085605,49.020304],"type":"Point"},"properties":{"osm_id":"7154649143","tag":{"amenity":"recycling","recycling:clothes":"yes","recycling_type":"container"}},"type":"Feature"},
	{"geometry":{"coordinates":[12.085619,49.02029],"type":"Point"},"properties":{"osm_id":"7156030398","tag":{"amenity":"recycling","recycling:green_waste":"yes","recycling_type":"container"}},"type":"Feature"},
	{"geometry":{"coordinates":[12.087349,49.020499],"type":"Point"},"properties":{"osm_id":"7156030399","tag":{"amenity":"recycling","recycling:green_waste":"yes","recycling_type":"container"}},"type":"Feature"},
	{"geometry":{"coordinates":[12.088234,49.02036],"type":"Point"},"properties":{"osm_id":"7156030401","tag":{"amenity":"recycling","recycling:green_waste":"yes","recycling_type":"container"}},"type":"Feature"},
	{"geometry":{"coordinates":[12.089982,49.019778],"type":"Point"},"properties":{"osm_id":"7156030402","tag":{"amenity":"recycling","recycling:green_waste":"yes","recycling_type":"container"}},"type":"Feature"},
	{"geometry":{"coordinates":[12.091147,49.019735],"type":"Point"},"properties":{"osm_id":"7156030403","tag":{"amenity":"recycling","recycling:green_waste":"yes","recycling_type":"container"}},"type":"Feature"},
	{"geometry":{"coordinates":[12.091213,49.018091],"type":"Point"},"properties":{"osm_id":"7156030404","tag":{"amenity":"recycling","recycling:green_waste":"yes","recycling_type":"container"}},"type":"Feature"},
	{"geometry":{"coordinates":[12.09281,49.018507],"type":"Point"},"properties":{"osm_id":"7156445346","tag":{"amenity":"recycling","recycling:green_waste":"yes","recycling_type":"container"}},"type":"Feature"},
	{"geometry":{"coordinates":[12.064967,49.025998],"type":"Point"},"properties":{"osm_id":"7166595211","tag":{"amenity":"recycling","recycling:green_waste":"yes","recycling_type":"container"}},"type":"Feature"},
	{"geometry":{"coordinates":[12.077403,49.025731],"type":"Point"},"properties":{"osm_id":"7184334443","tag":{"amenity":"recycling","recycling:green_waste":"yes","recycling_type":"container"}},"type":"Feature"},
	{"geometry":{"coordinates":[12.085916,49.021768],"type":"Point"},"properties":{"osm_id":"7214519214","tag":{"amenity":"waste_basket","waste":"trash"}},"type":"Feature"},
	{"geometry":{"coordinates":[12.0841,49.021995],"type":"Point"},"properties":{"osm_id":"7214519241","tag":{"amenity":"waste_basket","waste":"trash"}},"type":"Feature"},
	{"geometry":{"coordinates":[12.084251,49.022157],"type":"Point"},"properties":{"osm_id":"7214519248","tag":{"amenity":"waste_basket","waste":"trash"}},"type":"Feature"},
	{"geometry":{"coordinates":[12.088985,49.021951],"type":"Point"},"properties":{"osm_id":"7214519262","tag":{"amenity":"waste_basket","waste":"trash"}},"type":"Feature"},
	{"geometry":{"coordinates":[12.079273,49.007146],"type":"Point"},"properties":{"osm_id":"7238486651","tag":{"amenity":"recycling","recycling:green_waste":"yes","recycling_type":"container"}},"type":"Feature"},
	{"geometry":{"coordinates":[12.046127,49.021384],"type":"Point"},"properties":{"osm_id":"7244814077","tag":{"amenity":"recycling","location":"overground","recycling:cans":"no","recycling:clothes":"yes","recycling:glass":"yes","recycling:paper":"no","recycling_type":"container"}},"type":"Feature"},
	{"geometry":{"coordinates":[12.046111,49.021411],"type":"Point"},"properties":{"osm_id":"7244814078","tag":{"amenity":"recycling","operator":"Biotonne","recycling:green_waste":"yes","recycling_type":"container"}},"type":"Feature"},
	{"geometry":{"coordinates":[12.067568,49.01679],"type":"Point"},"properties":{"name":"Biotonne","osm_id":"7284952060","tag":{"amenity":"recycling","recycling:green_waste":"yes","recycling_type":"container","source:ref":"http://stadtplan2.regensburg.de/biotonnen/"}},"type":"Feature"},
	{"geometry":{"coordinates":[12.07169,49.016874],"type":"Point"},"properties":{"name":"Biotonne","osm_id":"7284952061","tag":{"amenity":"recycling","recycling:green_waste":"yes","recycling_type":"container","source:ref":"http://stadtplan2.regensburg.de/biotonnen/"}},"type":"Feature"},
	{"geometry":{"coordinates":[12.073876,49.016589],"type":"Point"},"properties":{"name":"Biotonne","osm_id":"7284952062","tag":{"amenity":"recycling","recycling:green_waste":"yes","recycling_type":"container","source:ref":"http://stadtplan2.regensburg.de/biotonnen/"}},"type":"Feature"},
	{"geometry":{"coordinates":[12.075252,49.017061],"type":"Point"},"properties":{"name":"Biotonne","osm_id":"7284952063","tag":{"amenity":"recycling","recycling:green_waste":"yes","recycling_type":"container","source:ref":"http://stadtplan2.regensburg.de/biotonnen/"}},"type":"Feature"},
	{"geometry":{"coordinates":[12.077044,49.016546],"type":"Point"},"properties":{"name":"Biotonne","osm_id":"7284952064","tag":{"amenity":"recycling","recycling:green_waste":"yes","recycling_type":"container","source:ref":"http://stadtplan2.regensburg.de/biotonnen/"}},"type":"Feature"},
	{"geometry":{"coordinates":[12.079322,49.017715],"type":"Point"},"properties":{"name":"Biotonne","osm_id":"7284952065","tag":{"amenity":"recycling","recycling:green_waste":"yes","recycling_type":"container","source:ref":"http://stadtplan2.regensburg.de/biotonnen/"}},"type":"Feature"},
	{"geometry":{"coordinates":[12.081766,49.018058],"type":"Point"},"properties":{"name":"Biotonne","osm_id":"7284952066","tag":{"amenity":"recycling","recycling:green_waste":"yes","recycling_type":"container","source:ref":"http://stadtplan2.regensburg.de/biotonnen/"}},"type":"Feature"},
	{"geometry":{"coordinates":[12.083818,49.018106],"type":"Point"},"properties":{"name":"Biotonne","osm_id":"7284952067","tag":{"amenity":"recycling","recycling:green_waste":"yes","recycling_type":"container","source:ref":"http://stadtplan2.regensburg.de/biotonnen/"}},"type":"Feature"},
	{"geometry":{"coordinates":[12.086572,49.018524],"type":"Point"},"properties":{"name":"Biotonne","osm_id":"7284952068","tag":{"amenity":"recycling","recycling:green_waste":"yes","recycling_type":"container","source:ref":"http://stadtplan2.regensburg.de/biotonnen/"}},"type":"Feature"},
	{"geometry":{"coordinates":[12.082152,49.020545],"type":"Point"},"properties":{"name":"Biotonne","osm_id":"7284952069","tag":{"amenity":"recycling","recycling:green_waste":"yes","recycling_type":"container","source:ref":"http://stadtplan2.regensburg.de/biotonnen/"}},"type":"Feature"},
	{"geometry":{"coordinates":[12.084103,49.020789],"type":"Point"},"properties":{"name":"Biotonne","osm_id":"7284952070","tag":{"amenity":"recycling","recycling:green_waste":"yes","recycling_type":"container","source:ref":"http://stadtplan2.regensburg.de/biotonnen/"}},"type":"Feature"},
	{"geometry":{"coordinates":[12.083437,49.021615],"type":"Point"},"properties":{"name":"Biotonne","osm_id":"7284952071","tag":{"amenity":"recycling","recycling:green_waste":"yes","recycling_type":"container","source:ref":"http://stadtplan2.regensburg.de/biotonnen/"}},"type":"Feature"},
	{"geometry":{"coordinates":[12.0794,49.024441],"type":"Point"},"properties":{"name":"Biotonne","osm_id":"7284952072","tag":{"amenity":"recycling","recycling:green_waste":"yes","recycling_type":"container","source:ref":"http://stadtplan2.regensburg.de/biotonnen/"}},"type":"Feature"},
	{"geometry":{"coordinates":[12.07955,49.024595],"type":"Point"},"properties":{"name":"Biotonne","osm_id":"7284952073","tag":{"amenity":"recycling","recycling:green_waste":"yes","recycling_type":"container","source:ref":"http://stadtplan2.regensburg.de/biotonnen/"}},"type":"Feature"},
	{"geometry":{"coordinates":[12.078241,49.022914],"type":"Point"},"properties":{"name":"Biotonne","osm_id":"7284952074","tag":{"amenity":"recycling","recycling:green_waste":"yes","recycling_type":"container","source:ref":"http://stadtplan2.regensburg.de/biotonnen/"}},"type":"Feature"},
	{"geometry":{"coordinates":[12.075055,49.025004],"type":"Point"},"properties":{"name":"Biotonne","osm_id":"7284952075","tag":{"amenity":"recycling","recycling:green_waste":"yes","recycling_type":"container","source:ref":"http://stadtplan2.regensburg.de/biotonnen/"}},"type":"Feature"},
	{"geometry":{"coordinates":[12.07527,49.024785],"type":"Point"},"properties":{"name":"Biotonne","osm_id":"7284952076","tag":{"amenity":"recycling","recycling:green_waste":"yes","recycling_type":"container","source:ref":"http://stadtplan2.regensburg.de/biotonnen/"}},"type":"Feature"},
	{"geometry":{"coordinates":[12.074363,49.024571],"type":"Point"},"properties":{"name":"Biotonne","osm_id":"7284952077","tag":{"amenity":"recycling","recycling:green_waste":"yes","recycling_type":"container","source:ref":"http://stadtplan2.regensburg.de/biotonnen/"}},"type":"Feature"},
	{"geometry":{"coordinates":[12.071337,49.024712],"type":"Point"},"properties":{"name":"Biotonne","osm_id":"7284952078","tag":{"amenity":"recycling","recycling:green_waste":"yes","recycling_type":"container","source:ref":"http://stadtplan2.regensburg.de/biotonnen/"}},"type":"Feature"},
	{"geometry":{"coordinates":[12.072016,49.026219],"type":"Point"},"properties":{"name":"Biotonne","osm_id":"7284952079","tag":{"amenity":"recycling","recycling:green_waste":"yes","recycling_type":"container","source:ref":"http://stadtplan2.regensburg.de/biotonnen/"}},"type":"Feature"},
	{"geometry":{"coordinates":[12.067291,49.027151],"type":"Point"},"properties":{"name":"Biotonne","osm_id":"7284952080","tag":{"amenity":"recycling","recycling:green_waste":"yes","recycling_type":"container","source:ref":"http://stadtplan2.regensburg.de/biotonnen/"}},"type":"Feature"},
	{"geometry":{"coordinates":[12.065985,49.027395],"type":"Point"},"properties":{"name":"Biotonne","osm_id":"7284952081","tag":{"amenity":"recycling","recycling:green_waste":"yes","recycling_type":"container","source:ref":"http://stadtplan2.regensburg.de/biotonnen/"}},"type":"Feature"},
	{"geometry":{"coordinates":[12.058754,49.027804],"type":"Point"},"properties":{"name":"Biotonne","osm_id":"7284952082","tag":{"amenity":"recycling","recycling:green_waste":"yes","recycling_type":"container","source:ref":"http://stadtplan2.regensburg.de/biotonnen/"}},"type":"Feature"},
	{"geometry":{"coordinates":[12.057509,49.02706],"type":"Point"},"properties":{"name":"Biotonne","osm_id":"7284952083","tag":{"amenity":"recycling","recycling:green_waste":"yes","recycling_type":"container","source:ref":"http://stadtplan2.regensburg.de/biotonnen/"}},"type":"Feature"},
	{"geometry":{"coordinates":[12.05899,49.026353],"type":"Point"},"properties":{"name":"Biotonne","osm_id":"7284952084","tag":{"amenity":"recycling","recycling:green_waste":"yes","recycling_type":"container","source:ref":"http://stadtplan2.regensburg.de/biotonnen/"}},"type":"Feature"},
	{"geometry":{"coordinates":[12.058738,49.024695],"type":"Point"},"properties":{"name":"Biotonne","osm_id":"7284954985","tag":{"amenity":"recycling","recycling:green_waste":"yes","recycling_type":"container","source:ref":"http://stadtplan2.regensburg.de/biotonnen/"}},"type":"Feature"},
	{"geometry":{"coordinates":[12.056922,49.024436],"type":"Point"},"properties":{"name":"Biotonne","osm_id":"7284954986","tag":{"amenity":"recycling","recycling:green_waste":"yes","recycling_type":"container","source:ref":"http://stadtplan2.regensburg.de/biotonnen/"}},"type":"Feature"},
	{"geometry":{"coordinates":[12.059636,49.023477],"type":"Point"},"properties":{"name":"Biotonne","osm_id":"7284954987","tag":{"amenity":"recycling","recycling:green_waste":"yes","recycling_type":"container","source:ref":"http://stadtplan2.regensburg.de/biotonnen/"}},"type":"Feature"},
	{"geometry":{"coordinates":[12.061878,49.023718],"type":"Point"},"properties":{"name":"Biotonne","osm_id":"7284954988","tag":{"amenity":"recycling","recycling:green_waste":"yes","recycling_type":"container","source:ref":"http://stadtplan2.regensburg.de/biotonnen/"}},"type":"Feature"},
	{"geometry":{"coordinates":[12.064711,49.024547],"type":"Point"},"properties":{"name":"Biotonne","osm_id":"7284954989","tag":{"amenity":"recycling","recycling:green_waste":"yes","recycling_type":"container","source:ref":"http://stadtplan2.regensburg.de/biotonnen/"}},"type":"Feature"},
	{"geometry":{"coordinates":[12.062375,49.024723],"type":"Point"},"properties":{"name":"Biotonne","osm_id":"7284954990","tag":{"amenity":"recycling","recycling:green_waste":"yes","recycling_type":"container","source:ref":"http://stadtplan2.regensburg.de/biotonnen/"}},"type":"Feature"},
	{"geometry":{"coordinates":[12.064649,49.025917],"type":"Point"},"properties":{"name":"Biotonne","osm_id":"7284954991","tag":{"amenity":"recycling","recycling:green_waste":"yes","recycling_type":"container","source:ref":"http://stadtplan2.regensburg.de/biotonnen/"}},"type":"Feature"},
	{"geometry":{"coordinates":[12.062458,49.026902],"type":"Point"},"properties":{"name":"Biotonne","osm_id":"7284954992","tag":{"amenity":"recycling","recycling:green_waste":"yes","recycling_type":"container","source:ref":"http://stadtplan2.regensburg.de/biotonnen/"}},"type":"Feature"},
	{"geometry":{"coordinates":[12.060942,49.02636],"type":"Point"},"properties":{"name":"Biotonne","osm_id":"7284954993","tag":{"amenity":"recycling","recycling:green_waste":"yes","recycling_type":"container","source:ref":"http://stadtplan2.regensburg.de/biotonnen/"}},"type":"Feature"},
	{"geometry":{"coordinates":[12.076053,49.003945],"type":"Point"},"properties":{"osm_id":"7333047536","tag":{"amenity":"waste_basket"}},"type":"Feature"},
	{"geometry":{"coordinates":[12.071326,49.002848],"type":"Point"},"properties":{"osm_id":"7333047537","tag":{"amenity":"waste_basket"}},"type":"Feature"},
	{"geometry":{"coordinates":[12.065251,49.000834],"type":"Point"},"properties":{"osm_id":"7333047538","tag":{"amenity":"waste_basket"}},"type":"Feature"},
	{"geometry":{"coordinates":[12.065416,48.998833],"type":"Point"},"properties":{"osm_id":"7333047539","tag":{"amenity":"waste_basket"}},"type":"Feature"},
	{"geometry":{"coordinates":[12.065382,48.999628],"type":"Point"},"properties":{"osm_id":"7342850899","tag":{"amenity":"waste_basket"}},"type":"Feature"},
	{"geometry":{"coordinates":[12.065633,49.000642],"type":"Point"},"properties":{"osm_id":"7342850900","tag":{"amenity":"waste_basket"}},"type":"Feature"},
	{"geometry":{"coordinates":[12.074365,49.003199],"type":"Point"},"properties":{"osm_id":"7342850901","tag":{"amenity":"waste_basket"}},"type":"Feature"},
	{"geometry":{"coordinates":[12.077438,49.003518],"type":"Point"},"properties":{"osm_id":"7350544672","tag":{"amenity":"waste_basket"}},"type":"Feature"},
	{"geometry":{"coordinates":[12.077895,49.003743],"type":"Point"},"properties":{"osm_id":"7350544673","tag":{"amenity":"waste_basket"}},"type":"Feature"},
	{"geometry":{"coordinates":[12.074776,49.003682],"type":"Point"},"properties":{"osm_id":"7350544674","tag":{"amenity":"waste_basket"}},"type":"Feature"},
	{"geometry":{"coordinates":[12.076624,49.003896],"type":"Point"},"properties":{"osm_id":"7351244674","tag":{"amenity":"waste_basket"}},"type":"Feature"},
	{"geometry":{"coordinates":[12.071345,49.002347],"type":"Point"},"properties":{"osm_id":"7351244675","tag":{"amenity":"recycling","location":"overground","recycling:clothes":"yes","recycling_type":"container"}},"type":"Feature"},
	{"geometry":{"coordinates":[12.07081,49.001283],"type":"Point"},"properties":{"osm_id":"7351244677","tag":{"amenity":"waste_basket"}},"type":"Feature"},
	{"geometry":{"coordinates":[12.071667,49.000118],"type":"Point"},"properties":{"osm_id":"7351244678","tag":{"amenity":"waste_basket"}},"type":"Feature"},
	{"geometry":{"coordinates":[12.07238,48.999994],"type":"Point"},"properties":{"osm_id":"7351244679","tag":{"amenity":"waste_basket"}},"type":"Feature"},
	{"geometry":{"coordinates":[12.071801,48.999294],"type":"Point"},"properties":{"osm_id":"7351244680","tag":{"amenity":"waste_basket"}},"type":"Feature"},
	{"geometry":{"coordinates":[12.071388,48.999517],"type":"Point"},"properties":{"osm_id":"7351244681","tag":{"amenity":"waste_basket"}},"type":"Feature"},
	{"geometry":{"coordinates":[12.06852,49.001704],"type":"Point"},"properties":{"osm_id":"7351283786","tag":{"amenity":"waste_basket"}},"type":"Feature"},
	{"geometry":{"coordinates":[12.067681,49.001541],"type":"Point"},"properties":{"osm_id":"7351283792","tag":{"amenity":"waste_basket"}},"type":"Feature"},
	{"geometry":{"coordinates":[12.070091,48.998555],"type":"Point"},"properties":{"osm_id":"7351283810","tag":{"amenity":"waste_basket"}},"type":"Feature"},
	{"geometry":{"coordinates":[12.071933,49.000749],"type":"Point"},"properties":{"osm_id":"7351283812","tag":{"amenity":"waste_basket"}},"type":"Feature"},
	{"geometry":{"coordinates":[12.080141,49.003429],"type":"Point"},"properties":{"osm_id":"7351283831","tag":{"amenity":"waste_basket"}},"type":"Feature"},
	{"geometry":{"coordinates":[12.079373,49.003857],"type":"Point"},"properties":{"osm_id":"7351283832","tag":{"amenity":"waste_basket"}},"type":"Feature"},
	{"geometry":{"coordinates":[12.079295,49.002233],"type":"Point"},"properties":{"osm_id":"7351283849","tag":{"amenity":"recycling","recycling:green_waste":"yes","recycling_type":"container","source:ref":"https://www.regensburg.de/leben/umwelt/abfall-und-recycling/biomuell-in-regensburg"}},"type":"Feature"},
	{"geometry":{"coordinates":[12.066408,49.022506],"type":"Point"},"properties":{"osm_id":"7529747094","tag":{"amenity":"recycling","recycling:green_waste":"yes","recycling_type":"container"}},"type":"Feature"},
	{"geometry":{"coordinates":[12.114919,49.024445],"type":"Point"},"properties":{"osm_id":"7579995746","tag":{"amenity":"waste_basket"}},"type":"Feature"},
	{"geometry":{"coordinates":[12.112082,49.023003],"type":"Point"},"properties":{"osm_id":"7580009597","tag":{"amenity":"waste_basket"}},"type":"Feature"},
	{"geometry":{"coordinates":[12.125022,49.023436],"type":"Point"},"properties":{"osm_id":"7580015550","tag":{"amenity":"waste_basket"}},"type":"Feature"},
	{"geometry":{"coordinates":[12.125067,49.023623],"type":"Point"},"properties":{"osm_id":"7580076092","tag":{"amenity":"waste_basket"}},"type":"Feature"},
	{"geometry":{"coordinates":[12.118346,49.022504],"type":"Point"},"properties":{"osm_id":"7580528870","tag":{"amenity":"waste_basket"}},"type":"Feature"},
	{"geometry":{"coordinates":[12.102459,49.021982],"type":"Point"},"properties":{"osm_id":"7588590598","tag":{"amenity":"waste_basket","waste":"trash"}},"type":"Feature"},
	{"geometry":{"coordinates":[12.10246,49.021932],"type":"Point"},"properties":{"osm_id":"7588590601","tag":{"amenity":"waste_basket","waste":"trash"}},"type":"Feature"},
	{"geometry":{"coordinates":[12.113179,49.024233],"type":"Point"},"properties":{"osm_id":"7588590604","tag":{"amenity":"waste_basket","waste":"trash"}},"type":"Feature"},
	{"geometry":{"coordinates":[12.102477,49.021864],"type":"Point"},"properties":{"osm_id":"7588590608","tag":{"amenity":"waste_basket","waste":"trash"}},"type":"Feature"},
	{"geometry":{"coordinates":[12.102053,49.022593],"type":"Point"},"properties":{"osm_id":"7588590611","tag":{"amenity":"waste_basket","waste":"trash"}},"type":"Feature"},
	{"geometry":{"coordinates":[12.103772,49.022872],"type":"Point"},"properties":{"osm_id":"7588590613","tag":{"amenity":"waste_basket","waste":"trash"}},"type":"Feature"},
	{"geometry":{"coordinates":[12.102106,49.023737],"type":"Point"},"properties":{"osm_id":"7588737895","tag":{"amenity":"waste_basket","waste":"trash"}},"type":"Feature"},
	{"geometry":{"coordinates":[12.102439,49.023765],"type":"Point"},"properties":{"osm_id":"7588737897","tag":{"amenity":"waste_basket","waste":"trash"}},"type":"Feature"},
	{"geometry":{"coordinates":[12.10498,49.023869],"type":"Point"},"properties":{"osm_id":"7589086833","tag":{"amenity":"waste_basket","waste":"trash"}},"type":"Feature"},
	{"geometry":{"coordinates":[12.100775,49.025761],"type":"Point"},"properties":{"osm_id":"7589086844","tag":{"amenity":"waste_basket","waste":"trash"}},"type":"Feature"},
	{"geometry":{"coordinates":[12.097454,49.024695],"type":"Point"},"properties":{"osm_id":"7591756023","tag":{"amenity":"waste_basket"}},"type":"Feature"},
	{"geometry":{"coordinates":[12.097145,49.026407],"type":"Point"},"properties":{"osm_id":"7591792147","tag":{"amenity":"waste_basket"}},"type":"Feature"},
	{"geometry":{"coordinates":[12.095824,49.026338],"type":"Point"},"properties":{"osm_id":"7591798001","tag":{"amenity":"waste_basket"}},"type":"Feature"},
	{"geometry":{"coordinates":[12.096228,49.026331],"type":"Point"},"properties":{"osm_id":"7591803439","tag":{"amenity":"waste_basket"}},"type":"Feature"},
	{"geometry":{"coordinates":[12.097211,49.024975],"type":"Point"},"properties":{"osm_id":"7592683911","tag":{"amenity":"waste_basket"}},"type":"Feature"},
	{"geometry":{"coordinates":[12.10215,49.015406],"type":"Point"},"properties":{"osm_id":"7592701081","tag":{"amenity":"waste_basket"}},"type":"Feature"},
	{"geometry":{"coordinates":[12.102296,49.015604],"type":"Point"},"properties":{"osm_id":"7592708245","tag":{"amenity":"waste_basket"}},"type":"Feature"},
	{"geometry":{"coordinates":[12.099047,49.01479],"type":"Point"},"properties":{"osm_id":"7592712932","tag":{"amenity":"waste_basket"}},"type":"Feature"},
	{"geometry":{"coordinates":[12.100508,49.01473],"type":"Point"},"properties":{"osm_id":"7592712933","tag":{"amenity":"waste_basket"}},"type":"Feature"},
	{"geometry":{"coordinates":[12.105434,49.016035],"type":"Point"},"properties":{"osm_id":"7592714269","tag":{"amenity":"waste_basket"}},"type":"Feature"},
	{"geometry":{"coordinates":[12.103364,49.015767],"type":"Point"},"properties":{"osm_id":"7592715495","tag":{"amenity":"waste_basket"}},"type":"Feature"},
	{"geometry":{"coordinates":[12.102648,49.015782],"type":"Point"},"properties":{"osm_id":"7592719138","tag":{"amenity":"waste_basket"}},"type":"Feature"},
	{"geometry":{"coordinates":[12.098777,49.014284],"type":"Point"},"properties":{"osm_id":"7592725064","tag":{"amenity":"waste_basket"}},"type":"Feature"},
	{"geometry":{"coordinates":[12.09815,49.01368],"type":"Point"},"properties":{"osm_id":"7592729317","tag":{"amenity":"waste_basket"}},"type":"Feature"},
	{"geometry":{"coordinates":[12.104863,49.01593],"type":"Point"},"properties":{"osm_id":"7592731098","tag":{"amenity":"waste_basket"}},"type":"Feature"},
	{"geometry":{"coordinates":[12.098508,49.01349],"type":"Point"},"properties":{"osm_id":"7592735156","tag":{"amenity":"waste_basket"}},"type":"Feature"},
	{"geometry":{"coordinates":[12.098775,49.014146],"type":"Point"},"properties":{"osm_id":"7592736380","tag":{"amenity":"waste_basket"}},"type":"Feature"},
	{"geometry":{"coordinates":[12.097928,49.013674],"type":"Point"},"properties":{"osm_id":"7592738216","tag":{"amenity":"waste_basket"}},"type":"Feature"},
	{"geometry":{"coordinates":[12.0972,49.025343],"type":"Point"},"properties":{"osm_id":"7592738406","tag":{"amenity":"waste_basket"}},"type":"Feature"},
	{"geometry":{"coordinates":[12.102976,49.015716],"type":"Point"},"properties":{"osm_id":"7592738537","tag":{"amenity":"waste_basket"}},"type":"Feature"},
	{"geometry":{"coordinates":[12.10219,49.026918],"type":"Point"},"properties":{"osm_id":"7597607336","tag":{"amenity":"waste_basket","waste":"trash"}},"type":"Feature"},
	{"geometry":{"coordinates":[12.102063,49.026679],"type":"Point"},"properties":{"osm_id":"7597666163","tag":{"amenity":"waste_basket","waste":"trash"}},"type":"Feature"},
	{"geometry":{"coordinates":[12.103187,49.028749],"type":"Point"},"properties":{"osm_id":"7599883311","tag":{"amenity":"waste_basket","waste":"trash"}},"type":"Feature"},
	{"geometry":{"coordinates":[12.103187,49.029472],"type":"Point"},"properties":{"osm_id":"7599883312","tag":{"amenity":"waste_basket","waste":"trash"}},"type":"Feature"},
	{"geometry":{"coordinates":[12.101757,49.027823],"type":"Point"},"properties":{"osm_id":"7599883316","tag":{"amenity":"recycling","opening_hours":"Mo-Fr 08:00-20:00","recycling:clothes":"yes","recycling:glass":"yes","recycling:shoes":"yes","recycling_type":"container"}},"type":"Feature"},
	{"geometry":{"coordinates":[12.09558,49.013961],"type":"Point"},"properties":{"osm_id":"7600521785","tag":{"amenity":"waste_basket","waste":"trash"}},"type":"Feature"},
	{"geometry":{"coordinates":[12.098405,49.023948],"type":"Point"},"properties":{"osm_id":"7846761943","tag":{"amenity":"bench","backrest":"yes","material":"wood"}},"type":"Feature"},
	{"geometry":{"coordinates":[12.097882,49.023991],"type":"Point"},"properties":{"osm_id":"7846789687","tag":{"amenity":"waste_basket"}},"type":"Feature"},
	{"geometry":{"coordinates":[12.101168,49.019051],"type":"Point"},"properties":{"osm_id":"7856272305","tag":{"amenity":"waste_basket"}},"type":"Feature"},
	{"geometry":{"coordinates":[12.108897,49.015279],"type":"Point"},"properties":{"name":"Biotonne","osm_id":"7864557642","tag":{"amenity":"recycling","recycling:green_waste":"yes","recycling_type":"container"}},"type":"Feature"},
	{"geometry":{"coordinates":[12.102929,49.017244],"type":"Point"},"properties":{"osm_id":"7948152473","tag":{"amenity":"waste_basket","waste":"trash"}},"type":"Feature"},
	{"geometry":{"coordinates":[12.103157,49.017186],"type":"Point"},"properties":{"osm_id":"7948152475","tag":{"amenity":"waste_basket","waste":"trash"}},"type":"Feature"}
]
}
