{
"type": "FeatureCollection",
"features": [
	{"geometry":{"coordinates":[12.128167,47.845269],"type":"Point"},"properties":{"osm_id":"317575126","tag":{"amenity":"recycling","recycling:cartons":"yes","recycling:glass_bottles":"yes","recycling:green_waste":"yes","recycling:paper":"yes","recycling:paper_packaging":"yes","recycling:plastic":"yes","recycling:plastic_bottles":"yes","recycling:plastic_packaging":"yes","recycling_type":"container"}},"type":"Feature"},
	{"geometry":{"coordinates":[12.108909,47.849998],"type":"Point"},"properties":{"osm_id":"323242334","tag":{"amenity":"recycling","recycling:cans":"yes","recycling:clothes":"yes","recycling:electrical_appliances":"yes","recycling:glass_bottles":"yes","recycling:green_waste":"yes","recycling:paper":"yes","recycling:plastic":"yes","recycling:scrap_metal":"yes","recycling:shoes":"yes","recycling_type":"container"}},"type":"Feature"},
	{"geometry":{"coordinates":[12.11401,47.850061],"type":"Point"},"properties":{"osm_id":"323245287","tag":{"amenity":"recycling","recycling_type":"container"}},"type":"Feature"},
	{"geometry":{"coordinates":[12.119336,47.835222],"type":"Point"},"properties":{"osm_id":"372940582","tag":{"amenity":"recycling","recycling_type":"container"}},"type":"Feature"},
	{"geometry":{"coordinates":[12.106119,47.858357],"type":"Point"},"properties":{"osm_id":"427752235","tag":{"amenity":"recycling","location":"overground","recycling:batteries":"no","recycling:cans":"yes","recycling:clothes":"yes","recycling:glass":"yes","recycling:paper":"yes","recycling_type":"container"}},"type":"Feature"},
	{"geometry":{"coordinates":[12.101725,47.870294],"type":"Point"},"properties":{"osm_id":"433047952","tag":{"amenity":"recycling","recycling:cans":"yes","recycling:glass":"yes","recycling:green_waste":"yes","recycling:paper":"yes","recycling:plastic":"yes","recycling_type":"container"}},"type":"Feature"},
	{"geometry":{"coordinates":[12.05611,47.853651],"type":"Point"},"properties":{"osm_id":"471130240","tag":{"amenity":"recycling","recycling:paper":"yes","recycling_type":"container","wheelchair":"no"}},"type":"Feature"},
	{"geometry":{"coordinates":[12.058727,47.853349],"type":"Point"},"properties":{"osm_id":"510496981","tag":{"amenity":"recycling","recycling_type":"container"}},"type":"Feature"},
	{"geometry":{"coordinates":[12.071525,47.856282],"type":"Point"},"properties":{"osm_id":"510500074","tag":{"amenity":"recycling"}},"type":"Feature"},
	{"geometry":{"coordinates":[12.072348,47.849115],"type":"Point"},"properties":{"osm_id":"510609111","tag":{"amenity":"recycling"}},"type":"Feature"},
	{"geometry":{"coordinates":[12.047234,47.842565],"type":"Point"},"properties":{"osm_id":"510610993","tag":{"amenity":"recycling","location":"overground","recycling_type":"container"}},"type":"Feature"},
	{"geometry":{"coordinates":[12.064819,47.842094],"type":"Point"},"properties":{"osm_id":"510613845","tag":{"amenity":"recycling"}},"type":"Feature"},
	{"geometry":{"coordinates":[12.055357,47.843161],"type":"Point"},"properties":{"osm_id":"510614283","tag":{"amenity":"recycling","recycling:cardboard":"yes","recycling:clothes":"yes","recycling:glass":"yes","recycling:paper":"yes","recycling:shoes":"yes","recycling_type":"container"}},"type":"Feature"},
	{"geometry":{"coordinates":[12.092632,47.848428],"type":"Point"},"properties":{"osm_id":"617065036","tag":{"amenity":"recycling","recycling:cans":"yes","recycling:clothes":"yes","recycling:glass":"yes","recycling:paper":"yes","recycling_type":"container"}},"type":"Feature"},
	{"geometry":{"coordinates":[12.100517,47.851422],"type":"Point"},"properties":{"osm_id":"617511076","tag":{"amenity":"recycling","recycling_type":"container"}},"type":"Feature"},
	{"geometry":{"coordinates":[12.109054,47.840138],"type":"Point"},"properties":{"osm_id":"663592835","tag":{"amenity":"recycling","recycling:cans":"yes","recycling:glass":"yes","recycling:paper":"yes","recycling:scrap_metal":"yes","recycling_type":"container"}},"type":"Feature"},
	{"geometry":{"coordinates":[12.127754,47.839377],"type":"Point"},"properties":{"osm_id":"665812525","tag":{"amenity":"recycling","recycling:cans":"yes","recycling:glass":"yes","recycling:paper":"yes","recycling:scrap_metal":"yes","recycling_type":"container"}},"type":"Feature"},
	{"geometry":{"coordinates":[12.09892,47.844754],"type":"Point"},"properties":{"osm_id":"672608557","tag":{"amenity":"recycling","recycling:glass":"yes","recycling:green_waste":"yes","recycling:paper":"yes","recycling_type":"container"}},"type":"Feature"},
	{"geometry":{"coordinates":[12.065293,47.850988],"type":"Point"},"properties":{"osm_id":"724329654","tag":{"amenity":"recycling","recycling:paper":"yes","recycling_type":"container"}},"type":"Feature"},
	{"geometry":{"coordinates":[12.054253,47.861027],"type":"Point"},"properties":{"osm_id":"748451377","tag":{"amenity":"recycling"}},"type":"Feature"},
	{"geometry":{"coordinates":[12.115863,47.828984],"type":"Point"},"properties":{"osm_id":"815067661","tag":{"amenity":"recycling","location":"overground","recycling:cans":"yes","recycling:clothes":"yes","recycling:glass":"yes","recycling:green_waste":"yes","recycling:paper":"yes","recycling_type":"container"}},"type":"Feature"},
	{"geometry":{"coordinates":[12.11499,47.872055],"type":"Point"},"properties":{"osm_id":"1144359703","tag":{"amenity":"recycling","recycling_type":"container"}},"type":"Feature"},
	{"geometry":{"coordinates":[12.121362,47.839214],"type":"Point"},"properties":{"osm_id":"1176982317","tag":{"amenity":"recycling","recycling_type":"container"}},"type":"Feature"},
	{"geometry":{"coordinates":[12.127926,47.861375],"type":"Point"},"properties":{"osm_id":"1209323991","tag":{"amenity":"recycling","location":"overground","recycling:cans":"yes","recycling:glass":"yes","recycling:paper":"yes","recycling:scrap_metal":"yes","recycling_type":"container"}},"type":"Feature"},
	{"geometry":{"coordinates":[12.127096,47.866319],"type":"Point"},"properties":{"osm_id":"1209323998","tag":{"amenity":"recycling","location":"overground","recycling:cans":"yes","recycling:glass":"yes","recycling:paper":"yes","recycling:scrap_metal":"yes","recycling_type":"container"}},"type":"Feature"},
	{"geometry":{"coordinates":[12.062928,47.850735],"type":"Point"},"properties":{"osm_id":"1241281109","tag":{"amenity":"recycling","recycling:paper":"yes","recycling_type":"container"}},"type":"Feature"},
	{"geometry":{"coordinates":[12.074658,47.852099],"type":"Point"},"properties":{"osm_id":"1269202754","tag":{"amenity":"recycling","recycling_type":"container"}},"type":"Feature"},
	{"geometry":{"coordinates":[12.105911,47.830121],"type":"Point"},"properties":{"osm_id":"1293798037","tag":{"amenity":"recycling","location":"overground","recycling:cans":"yes","recycling:clothes":"yes","recycling:electrical_appliances":"yes","recycling:glass_bottles":"yes","recycling:paper":"yes","recycling:plastic":"yes","recycling:scrap_metal":"yes","recycling:shoes":"yes","recycling_type":"container"}},"type":"Feature"},
	{"geometry":{"coordinates":[12.121902,47.852203],"type":"Point"},"properties":{"osm_id":"1296169899","tag":{"amenity":"waste_basket"}},"type":"Feature"},
	{"geometry":{"coordinates":[12.111671,47.866586],"type":"Point"},"properties":{"osm_id":"1345150644","tag":{"amenity":"recycling","recycling_type":"container"}},"type":"Feature"},
	{"geometry":{"coordinates":[12.115441,47.863557],"type":"Point"},"properties":{"osm_id":"1366883546","tag":{"amenity":"recycling","recycling:electronics":"yes","recycling:glass_bottles":"yes","recycling:green_waste":"yes","recycling:metal":"yes","recycling:paper":"yes","recycling:plastic":"yes","recycling_type":"container"}},"type":"Feature"},
	{"geometry":{"coordinates":[12.119991,47.864682],"type":"Point"},"properties":{"osm_id":"1369258713","tag":{"amenity":"recycling","recycling:cardboard":"yes","recycling:glass_bottles":"yes","recycling:metal_packaging":"yes","recycling:paper":"yes","recycling:paper_packaging":"yes","recycling:plastic_packaging":"yes","recycling_type":"container"}},"type":"Feature"},
	{"geometry":{"coordinates":[12.120601,47.860744],"type":"Point"},"properties":{"osm_id":"1382175604","tag":{"amenity":"recycling","recycling_type":"container"}},"type":"Feature"},
	{"geometry":{"coordinates":[12.104972,47.865536],"type":"Point"},"properties":{"osm_id":"1428984644","tag":{"amenity":"recycling","recycling_type":"container"}},"type":"Feature"},
	{"geometry":{"coordinates":[12.093119,47.849668],"type":"Point"},"properties":{"osm_id":"1640319355","tag":{"amenity":"recycling","recycling:glass":"yes","recycling:paper":"yes","recycling:plastic":"yes","recycling_type":"container"}},"type":"Feature"},
	{"geometry":{"coordinates":[12.08629,47.826822],"type":"Point"},"properties":{"osm_id":"2071714325","tag":{"amenity":"recycling","recycling_type":"container"}},"type":"Feature"},
	{"geometry":{"coordinates":[12.123903,47.851038],"type":"Point"},"properties":{"osm_id":"2556632946","tag":{"amenity":"waste_basket"}},"type":"Feature"},
	{"geometry":{"coordinates":[12.120178,47.853302],"type":"Point"},"properties":{"osm_id":"2564052249","tag":{"amenity":"waste_basket"}},"type":"Feature"},
	{"geometry":{"coordinates":[12.120864,47.853449],"type":"Point"},"properties":{"osm_id":"2564052250","tag":{"amenity":"waste_basket"}},"type":"Feature"},
	{"geometry":{"coordinates":[12.122442,47.854968],"type":"Point"},"properties":{"osm_id":"2566863859","tag":{"amenity":"waste_basket"}},"type":"Feature"},
	{"geometry":{"coordinates":[12.119571,47.855106],"type":"Point"},"properties":{"osm_id":"2566863863","tag":{"amenity":"waste_basket"}},"type":"Feature"},
	{"geometry":{"coordinates":[12.122707,47.855379],"type":"Point"},"properties":{"osm_id":"2566863877","tag":{"amenity":"waste_basket"}},"type":"Feature"},
	{"geometry":{"coordinates":[12.122242,47.855655],"type":"Point"},"properties":{"osm_id":"2566863882","tag":{"amenity":"waste_basket"}},"type":"Feature"},
	{"geometry":{"coordinates":[12.12104,47.856862],"type":"Point"},"properties":{"osm_id":"2571280682","tag":{"amenity":"waste_basket"}},"type":"Feature"},
	{"geometry":{"coordinates":[12.121012,47.856964],"type":"Point"},"properties":{"osm_id":"2571280687","tag":{"amenity":"waste_basket"}},"type":"Feature"},
	{"geometry":{"coordinates":[12.120845,47.857009],"type":"Point"},"properties":{"osm_id":"2571280689","tag":{"amenity":"waste_basket"}},"type":"Feature"},
	{"geometry":{"coordinates":[12.120799,47.857123],"type":"Point"},"properties":{"osm_id":"2571280692","tag":{"amenity":"waste_basket"}},"type":"Feature"},
	{"geometry":{"coordinates":[12.120633,47.857182],"type":"Point"},"properties":{"osm_id":"2571280698","tag":{"amenity":"waste_basket"}},"type":"Feature"},
	{"geometry":{"coordinates":[12.11996,47.857433],"type":"Point"},"properties":{"osm_id":"2571280701","tag":{"amenity":"recycling","recycling:cans":"yes","recycling:clothes":"yes","recycling:glass":"yes","recycling_type":"container"}},"type":"Feature"},
	{"geometry":{"coordinates":[12.120146,47.857558],"type":"Point"},"properties":{"osm_id":"2571280707","tag":{"amenity":"waste_basket"}},"type":"Feature"},
	{"geometry":{"coordinates":[12.119531,47.857888],"type":"Point"},"properties":{"osm_id":"2571280715","tag":{"amenity":"waste_basket"}},"type":"Feature"},
	{"geometry":{"coordinates":[12.128453,47.850306],"type":"Point"},"properties":{"osm_id":"2578379035","tag":{"amenity":"recycling","recycling_type":"container"}},"type":"Feature"},
	{"geometry":{"coordinates":[12.05163,47.840628],"type":"Point"},"properties":{"osm_id":"2733424810","tag":{"amenity":"recycling","recycling:paper":"yes"}},"type":"Feature"},
	{"geometry":{"coordinates":[12.051282,47.842488],"type":"Point"},"properties":{"osm_id":"2733424811","tag":{"amenity":"recycling","recycling:clothes":"yes","recycling:paper":"yes","recycling:shoes":"yes","recycling_type":"container"}},"type":"Feature"},
	{"geometry":{"coordinates":[12.126199,47.853293],"type":"Point"},"properties":{"osm_id":"3008910053","tag":{"amenity":"waste_basket"}},"type":"Feature"},
	{"geometry":{"coordinates":[12.108571,47.862891],"type":"Point"},"properties":{"osm_id":"3256936702","tag":{"amenity":"recycling","recycling:cans":"yes","recycling:clothes":"no","recycling:glass":"yes","recycling:paper":"yes","recycling_type":"container"}},"type":"Feature"},
	{"geometry":{"coordinates":[12.102964,47.863317],"type":"Point"},"properties":{"osm_id":"3350551593","tag":{"amenity":"recycling","location":"overground","recycling:cans":"yes","recycling:glass":"yes","recycling:paper":"yes","recycling_type":"container"}},"type":"Feature"},
	{"geometry":{"coordinates":[12.11282,47.84795],"type":"Point"},"properties":{"osm_id":"3717398696","tag":{"amenity":"waste_basket"}},"type":"Feature"},
	{"geometry":{"coordinates":[12.113265,47.848107],"type":"Point"},"properties":{"osm_id":"3717398697","tag":{"amenity":"waste_basket"}},"type":"Feature"},
	{"geometry":{"coordinates":[12.113227,47.848471],"type":"Point"},"properties":{"osm_id":"3717398699","tag":{"amenity":"waste_basket"}},"type":"Feature"},
	{"geometry":{"coordinates":[12.113378,47.84856],"type":"Point"},"properties":{"osm_id":"3717398706","tag":{"amenity":"waste_basket"}},"type":"Feature"},
	{"geometry":{"coordinates":[12.111803,47.848567],"type":"Point"},"properties":{"osm_id":"3717398708","tag":{"amenity":"waste_basket"}},"type":"Feature"},
	{"geometry":{"coordinates":[12.113198,47.848577],"type":"Point"},"properties":{"osm_id":"3717398709","tag":{"amenity":"waste_basket"}},"type":"Feature"},
	{"geometry":{"coordinates":[12.118685,47.848941],"type":"Point"},"properties":{"osm_id":"3717398711","tag":{"amenity":"waste_basket"}},"type":"Feature"},
	{"geometry":{"coordinates":[12.118894,47.848981],"type":"Point"},"properties":{"osm_id":"3717398713","tag":{"amenity":"waste_basket","layer":"-1"}},"type":"Feature"},
	{"geometry":{"coordinates":[12.112618,47.849327],"type":"Point"},"properties":{"osm_id":"3717398721","tag":{"amenity":"waste_basket"}},"type":"Feature"},
	{"geometry":{"coordinates":[12.112842,47.849382],"type":"Point"},"properties":{"osm_id":"3717398724","tag":{"amenity":"waste_basket"}},"type":"Feature"},
	{"geometry":{"coordinates":[12.119596,47.850705],"type":"Point"},"properties":{"osm_id":"3717399934","tag":{"amenity":"waste_basket"}},"type":"Feature"},
	{"geometry":{"coordinates":[12.119824,47.850589],"type":"Point"},"properties":{"osm_id":"3717399935","tag":{"amenity":"waste_basket"}},"type":"Feature"},
	{"geometry":{"coordinates":[12.054607,47.858136],"type":"Point"},"properties":{"osm_id":"3775318328","tag":{"amenity":"recycling","recycling:paper":"yes","recycling_type":"container"}},"type":"Feature"},
	{"geometry":{"coordinates":[12.122669,47.858898],"type":"Point"},"properties":{"osm_id":"3925635942","tag":{"amenity":"recycling","recycling_type":"container"}},"type":"Feature"},
	{"geometry":{"coordinates":[12.104259,47.866357],"type":"Point"},"properties":{"osm_id":"4518707897","tag":{"amenity":"waste_basket"}},"type":"Feature"},
	{"geometry":{"coordinates":[12.095463,47.847316],"type":"Point"},"properties":{"osm_id":"4546395908","tag":{"amenity":"waste_basket"}},"type":"Feature"},
	{"geometry":{"coordinates":[12.076668,47.847884],"type":"Point"},"properties":{"osm_id":"4547647296","tag":{"amenity":"waste_basket"}},"type":"Feature"},
	{"geometry":{"coordinates":[12.076339,47.847927],"type":"Point"},"properties":{"osm_id":"4547654399","tag":{"amenity":"waste_basket"}},"type":"Feature"},
	{"geometry":{"coordinates":[12.079689,47.848268],"type":"Point"},"properties":{"osm_id":"4547654495","tag":{"amenity":"waste_basket"}},"type":"Feature"},
	{"geometry":{"coordinates":[12.096731,47.847559],"type":"Point"},"properties":{"osm_id":"4547660196","tag":{"amenity":"waste_basket"}},"type":"Feature"},
	{"geometry":{"coordinates":[12.099244,47.847455],"type":"Point"},"properties":{"osm_id":"4547660198","tag":{"amenity":"waste_basket"}},"type":"Feature"},
	{"geometry":{"coordinates":[12.075704,47.848009],"type":"Point"},"properties":{"osm_id":"4547663199","tag":{"amenity":"waste_basket"}},"type":"Feature"},
	{"geometry":{"coordinates":[12.075966,47.847975],"type":"Point"},"properties":{"osm_id":"4547670093","tag":{"amenity":"waste_basket"}},"type":"Feature"},
	{"geometry":{"coordinates":[12.079837,47.847561],"type":"Point"},"properties":{"osm_id":"4547670094","tag":{"amenity":"waste_basket"}},"type":"Feature"},
	{"geometry":{"coordinates":[12.110645,47.847538],"type":"Point"},"properties":{"osm_id":"4547687895","tag":{"amenity":"waste_basket"}},"type":"Feature"},
	{"geometry":{"coordinates":[12.101632,47.84722],"type":"Point"},"properties":{"osm_id":"4547704192","tag":{"amenity":"waste_basket"}},"type":"Feature"},
	{"geometry":{"coordinates":[12.100883,47.847512],"type":"Point"},"properties":{"osm_id":"4547704292","tag":{"amenity":"waste_basket"}},"type":"Feature"},
	{"geometry":{"coordinates":[12.100926,47.847098],"type":"Point"},"properties":{"osm_id":"4547704293","tag":{"amenity":"waste_basket"}},"type":"Feature"},
	{"geometry":{"coordinates":[12.109288,47.847497],"type":"Point"},"properties":{"osm_id":"4547704296","tag":{"amenity":"waste_basket"}},"type":"Feature"},
	{"geometry":{"coordinates":[12.108761,47.847481],"type":"Point"},"properties":{"osm_id":"4547704493","tag":{"amenity":"waste_basket"}},"type":"Feature"},
	{"geometry":{"coordinates":[12.110588,47.84594],"type":"Point"},"properties":{"osm_id":"4547704495","tag":{"amenity":"waste_basket"}},"type":"Feature"},
	{"geometry":{"coordinates":[12.113224,47.845954],"type":"Point"},"properties":{"osm_id":"4547704497","tag":{"amenity":"waste_basket"}},"type":"Feature"},
	{"geometry":{"coordinates":[12.092798,47.847243],"type":"Point"},"properties":{"osm_id":"4547721890","tag":{"amenity":"waste_basket"}},"type":"Feature"},
	{"geometry":{"coordinates":[12.111643,47.844366],"type":"Point"},"properties":{"osm_id":"4547724493","tag":{"amenity":"waste_basket"}},"type":"Feature"},
	{"geometry":{"coordinates":[12.095132,47.847306],"type":"Point"},"properties":{"osm_id":"4547724589","tag":{"amenity":"waste_basket"}},"type":"Feature"},
	{"geometry":{"coordinates":[12.111752,47.844181],"type":"Point"},"properties":{"osm_id":"4547724591","tag":{"amenity":"waste_basket"}},"type":"Feature"},
	{"geometry":{"coordinates":[12.111691,47.843463],"type":"Point"},"properties":{"osm_id":"4547724592","tag":{"amenity":"waste_basket"}},"type":"Feature"},
	{"geometry":{"coordinates":[12.109919,47.845834],"type":"Point"},"properties":{"osm_id":"4547734494","tag":{"amenity":"waste_basket"}},"type":"Feature"},
	{"geometry":{"coordinates":[12.112719,47.840476],"type":"Point"},"properties":{"osm_id":"4547748290","tag":{"amenity":"waste_basket"}},"type":"Feature"},
	{"geometry":{"coordinates":[12.112874,47.840459],"type":"Point"},"properties":{"osm_id":"4547757989","tag":{"amenity":"waste_basket"}},"type":"Feature"},
	{"geometry":{"coordinates":[12.091585,47.846839],"type":"Point"},"properties":{"osm_id":"4553668490","tag":{"amenity":"waste_basket"}},"type":"Feature"},
	{"geometry":{"coordinates":[12.092787,47.846857],"type":"Point"},"properties":{"osm_id":"4553730690","tag":{"amenity":"waste_basket"}},"type":"Feature"},
	{"geometry":{"coordinates":[12.091287,47.847117],"type":"Point"},"properties":{"osm_id":"4553730691","tag":{"amenity":"waste_basket"}},"type":"Feature"},
	{"geometry":{"coordinates":[12.06461,47.842167],"type":"Point"},"properties":{"osm_id":"4565533352","tag":{"amenity":"recycling"}},"type":"Feature"},
	{"geometry":{"coordinates":[12.126333,47.836716],"type":"Point"},"properties":{"osm_id":"4720904821","tag":{"amenity":"recycling","recycling_type":"container"}},"type":"Feature"},
	{"geometry":{"coordinates":[12.101031,47.845574],"type":"Point"},"properties":{"osm_id":"4745087553","tag":{"amenity":"waste_basket"}},"type":"Feature"},
	{"geometry":{"coordinates":[12.042586,47.833841],"type":"Point"},"properties":{"osm_id":"4751149725","tag":{"amenity":"waste_basket"}},"type":"Feature"},
	{"geometry":{"coordinates":[12.05503,47.843978],"type":"Point"},"properties":{"osm_id":"4871438288","tag":{"amenity":"recycling","recycling_type":"container"}},"type":"Feature"},
	{"geometry":{"coordinates":[12.128271,47.846334],"type":"Point"},"properties":{"osm_id":"5132840322","tag":{"amenity":"waste_basket"}},"type":"Feature"},
	{"geometry":{"coordinates":[12.106438,47.858168],"type":"Point"},"properties":{"osm_id":"5266756243","tag":{"amenity":"waste_basket"}},"type":"Feature"},
	{"geometry":{"coordinates":[12.120428,47.858347],"type":"Point"},"properties":{"osm_id":"5282914359","tag":{"amenity":"recycling","recycling:glass":"yes","recycling:paper":"yes","recycling:plastic":"yes","recycling_type":"container"}},"type":"Feature"},
	{"geometry":{"coordinates":[12.113715,47.856104],"type":"Point"},"properties":{"osm_id":"5299811927","tag":{"amenity":"recycling","recycling:batteries":"no","recycling:cans":"yes","recycling:clothes":"yes","recycling:glass":"yes","recycling:paper":"yes","recycling:plastic":"yes","recycling_type":"centre"}},"type":"Feature"},
	{"geometry":{"coordinates":[12.061022,47.854921],"type":"Point"},"properties":{"osm_id":"5368048253","tag":{"amenity":"recycling","recycling:paper":"yes","recycling_type":"container","wheelchair":"no"}},"type":"Feature"},
	{"geometry":{"coordinates":[12.126726,47.838896],"type":"Point"},"properties":{"osm_id":"5504577559","tag":{"amenity":"recycling","recycling:clothes":"yes","recycling_type":"container"}},"type":"Feature"},
	{"geometry":{"coordinates":[12.125282,47.841609],"type":"Point"},"properties":{"osm_id":"5609744318","tag":{"amenity":"recycling","recycling:cans":"yes","recycling:glass":"yes","recycling:paper":"yes","recycling:plastic_packaging":"yes","recycling_type":"container"}},"type":"Feature"},
	{"geometry":{"coordinates":[12.118472,47.850932],"type":"Point"},"properties":{"osm_id":"5718630505","tag":{"amenity":"waste_basket"}},"type":"Feature"},
	{"geometry":{"coordinates":[12.117817,47.851152],"type":"Point"},"properties":{"osm_id":"5718630506","tag":{"amenity":"waste_basket"}},"type":"Feature"},
	{"geometry":{"coordinates":[12.11776,47.851029],"type":"Point"},"properties":{"osm_id":"5718630507","tag":{"amenity":"waste_basket"}},"type":"Feature"},
	{"geometry":{"coordinates":[12.118601,47.851106],"type":"Point"},"properties":{"osm_id":"5718630508","tag":{"amenity":"waste_basket"}},"type":"Feature"},
	{"geometry":{"coordinates":[12.117947,47.851326],"type":"Point"},"properties":{"osm_id":"5718630513","tag":{"amenity":"waste_basket"}},"type":"Feature"},
	{"geometry":{"coordinates":[12.119565,47.850406],"type":"Point"},"properties":{"osm_id":"5721246528","tag":{"amenity":"waste_basket"}},"type":"Feature"},
	{"geometry":{"coordinates":[12.119393,47.8487],"type":"Point"},"properties":{"osm_id":"5721246535","tag":{"amenity":"waste_basket"}},"type":"Feature"},
	{"geometry":{"coordinates":[12.119349,47.848874],"type":"Point"},"properties":{"osm_id":"5721246549","tag":{"amenity":"waste_basket"}},"type":"Feature"},
	{"geometry":{"coordinates":[12.119276,47.848896],"type":"Point"},"properties":{"osm_id":"5721246550","tag":{"amenity":"waste_basket"}},"type":"Feature"},
	{"geometry":{"coordinates":[12.119393,47.851203],"type":"Point"},"properties":{"osm_id":"5725460860","tag":{"amenity":"waste_basket"}},"type":"Feature"},
	{"geometry":{"coordinates":[12.119678,47.851109],"type":"Point"},"properties":{"osm_id":"5725460861","tag":{"amenity":"waste_basket"}},"type":"Feature"},
	{"geometry":{"coordinates":[12.12795,47.853998],"type":"Point"},"properties":{"osm_id":"6331845845","tag":{"amenity":"recycling","recycling:beverage_cartons":"yes","recycling:glass_bottles":"yes","recycling:green_waste":"yes","recycling:metal_packaging":"yes","recycling:paper":"yes","recycling:plastic_packaging":"yes","recycling_type":"container"}},"type":"Feature"},
	{"geometry":{"coordinates":[12.1287,47.853521],"type":"Point"},"properties":{"osm_id":"6775602813","tag":{"amenity":"waste_basket","waste":"trash"}},"type":"Feature"},
	{"geometry":{"coordinates":[12.119472,47.871393],"type":"Point"},"properties":{"osm_id":"6948714965","tag":{"amenity":"recycling","recycling:compost":"yes","recycling_type":"container"}},"type":"Feature"},
	{"geometry":{"coordinates":[12.119439,47.871342],"type":"Point"},"properties":{"osm_id":"6948739036","tag":{"amenity":"recycling","recycling:cardboard":"yes","recycling:paper":"yes","recycling_type":"container"}},"type":"Feature"},
	{"geometry":{"coordinates":[12.119031,47.864811],"type":"Point"},"properties":{"osm_id":"7120165835","tag":{"amenity":"recycling","recycling:green_waste":"yes","recycling_type":"container"}},"type":"Feature"},
	{"geometry":{"coordinates":[12.126554,47.855228],"type":"Point"},"properties":{"osm_id":"7457522920","tag":{"amenity":"waste_basket"}},"type":"Feature"},
	{"geometry":{"coordinates":[12.125307,47.856305],"type":"Point"},"properties":{"osm_id":"7531637074","tag":{"amenity":"waste_basket"}},"type":"Feature"},
	{"geometry":{"coordinates":[12.12292,47.85239],"type":"Point"},"properties":{"osm_id":"7531759196","tag":{"amenity":"recycling","recycling_type":"container"}},"type":"Feature"},
	{"geometry":{"coordinates":[12.128009,47.853402],"type":"Point"},"properties":{"osm_id":"7698624839","tag":{"amenity":"recycling","recycling:paper_packaging":"yes"}},"type":"Feature"},
	{"geometry":{"coordinates":[12.126406,47.857055],"type":"Point"},"properties":{"osm_id":"7716120221","tag":{"amenity":"recycling","recycling:glass":"yes","recycling:paper_packaging":"yes","recycling:plastic":"yes"}},"type":"Feature"}
]
}
