{
"type": "FeatureCollection",
"features": [
	{"geometry":{"coordinates":[12.044643,46.083685],"type":"Point"},"properties":{"osm_id":"7832515573","tag":{"amenity":"waste_disposal"}},"type":"Feature"},
	{"geometry":{"coordinates":[12.063905,46.097107],"type":"Point"},"properties":{"osm_id":"8930039307","tag":{"amenity":"waste_disposal"}},"type":"Feature"},
	{"geometry":{"coordinates":[12.062359,46.082555],"type":"Point"},"properties":{"osm_id":"8986364339","tag":{"amenity":"waste_disposal","colour":"yellow","waste":"paper"}},"type":"Feature"},
	{"geometry":{"coordinates":[12.062402,46.082573],"type":"Point"},"properties":{"osm_id":"8986364340","tag":{"amenity":"waste_disposal","colour":"green","waste":"glass"}},"type":"Feature"},
	{"geometry":{"coordinates":[12.068785,46.089423],"type":"Point"},"properties":{"osm_id":"8986364350","tag":{"amenity":"waste_basket"}},"type":"Feature"},
	{"geometry":{"coordinates":[12.041683,46.085239],"type":"Point"},"properties":{"osm_id":"8989897471","tag":{"amenity":"waste_disposal"}},"type":"Feature"}
]
}
