{
"type": "FeatureCollection",
"features": [
	{"geometry":{"coordinates":[12.098378,42.725615],"type":"Point"},"properties":{"osm_id":"1540598806","tag":{"amenity":"recycling","recycling:cans":"yes","recycling:glass":"yes","recycling:paper":"yes","recycling:scrap_metal":"yes","recycling_type":"container"}},"type":"Feature"},
	{"geometry":{"coordinates":[12.116092,42.716611],"type":"Point"},"properties":{"osm_id":"4972081572","tag":{"amenity":"waste_basket"}},"type":"Feature"},
	{"geometry":{"coordinates":[12.115949,42.716738],"type":"Point"},"properties":{"osm_id":"4972081599","tag":{"amenity":"waste_basket"}},"type":"Feature"},
	{"geometry":{"coordinates":[12.113487,42.716603],"type":"Point"},"properties":{"osm_id":"7726697121","tag":{"amenity":"waste_basket"}},"type":"Feature"},
	{"geometry":{"coordinates":[12.113232,42.716529],"type":"Point"},"properties":{"osm_id":"7726697122","tag":{"amenity":"waste_basket"}},"type":"Feature"},
	{"geometry":{"coordinates":[12.112899,42.716494],"type":"Point"},"properties":{"osm_id":"7726697124","tag":{"amenity":"waste_basket"}},"type":"Feature"}
]
}
