{
"type": "FeatureCollection",
"features": [
	{"geometry":{"coordinates":[-16.26468,28.55662],"type":"Point"},"properties":{"osm_id":"4407103540","tag":{"amenity":"recycling","mapillary":"hM38UJjl9LTR0DTlZ21NyQ","recycling_type":"container","survey:date":"2019-01-26"}},"type":"Feature"},
	{"geometry":{"coordinates":[-16.280737,28.543722],"type":"Point"},"properties":{"osm_id":"5456621211","tag":{"amenity":"waste_disposal"}},"type":"Feature"},
	{"geometry":{"coordinates":[-16.331504,28.566965],"type":"Point"},"properties":{"osm_id":"6153254200","tag":{"amenity":"recycling","recycling_type":"container"}},"type":"Feature"},
	{"geometry":{"coordinates":[-16.331977,28.568187],"type":"Point"},"properties":{"osm_id":"6220683610","tag":{"amenity":"waste_basket"}},"type":"Feature"},
	{"geometry":{"coordinates":[-16.332311,28.568465],"type":"Point"},"properties":{"osm_id":"6220684393","tag":{"amenity":"waste_basket"}},"type":"Feature"},
	{"geometry":{"coordinates":[-16.332257,28.568188],"type":"Point"},"properties":{"osm_id":"6220684398","tag":{"amenity":"waste_basket"}},"type":"Feature"},
	{"geometry":{"coordinates":[-16.331539,28.563736],"type":"Point"},"properties":{"osm_id":"6847040790","tag":{"amenity":"waste_basket"}},"type":"Feature"}
]
}
