{
"type": "FeatureCollection",
"features": [
	{"geometry":{"coordinates":[-88.741716,42.838668],"type":"Point"},"properties":{"osm_id":"6133121923","tag":{"amenity":"waste_disposal"}},"type":"Feature"},
	{"geometry":{"coordinates":[-88.744896,42.839265],"type":"Point"},"properties":{"osm_id":"6136337819","tag":{"amenity":"waste_disposal"}},"type":"Feature"},
	{"geometry":{"coordinates":[-88.746797,42.840381],"type":"Point"},"properties":{"osm_id":"6136337826","tag":{"amenity":"waste_disposal"}},"type":"Feature"},
	{"geometry":{"coordinates":[-88.746922,42.841205],"type":"Point"},"properties":{"osm_id":"6136337831","tag":{"amenity":"waste_disposal"}},"type":"Feature"},
	{"geometry":{"coordinates":[-88.742135,42.83617],"type":"Point"},"properties":{"osm_id":"6136408724","tag":{"amenity":"waste_disposal","waste":"trash;recycling"}},"type":"Feature"},
	{"geometry":{"coordinates":[-88.74436,42.83896],"type":"Point"},"properties":{"osm_id":"6136408725","tag":{"amenity":"waste_disposal"}},"type":"Feature"},
	{"geometry":{"coordinates":[-88.748521,42.839985],"type":"Point"},"properties":{"osm_id":"6136408730","tag":{"amenity":"waste_disposal"}},"type":"Feature"},
	{"geometry":{"coordinates":[-88.747419,42.841998],"type":"Point"},"properties":{"osm_id":"6136408735","tag":{"amenity":"waste_disposal"}},"type":"Feature"},
	{"geometry":{"coordinates":[-88.740697,42.843868],"type":"Point"},"properties":{"osm_id":"6139663108","tag":{"amenity":"waste_disposal"}},"type":"Feature"},
	{"geometry":{"coordinates":[-88.742791,42.837382],"type":"Point"},"properties":{"osm_id":"6180222419","tag":{"amenity":"waste_basket"}},"type":"Feature"},
	{"geometry":{"coordinates":[-88.742224,42.842043],"type":"Point"},"properties":{"osm_id":"6180288574","tag":{"amenity":"waste_basket"}},"type":"Feature"},
	{"geometry":{"coordinates":[-88.739873,42.84352],"type":"Point"},"properties":{"osm_id":"6180288575","tag":{"amenity":"waste_basket"}},"type":"Feature"},
	{"geometry":{"coordinates":[-88.743106,42.837787],"type":"Point"},"properties":{"osm_id":"6193272715","tag":{"amenity":"waste_basket"}},"type":"Feature"},
	{"geometry":{"coordinates":[-88.742989,42.8374],"type":"Point"},"properties":{"osm_id":"6222001495","tag":{"amenity":"waste_basket"}},"type":"Feature"},
	{"geometry":{"coordinates":[-88.741845,42.83923],"type":"Point"},"properties":{"osm_id":"6965083835","tag":{"amenity":"waste_basket","material":"steel","waste":"trash"}},"type":"Feature"},
	{"geometry":{"coordinates":[-88.741015,42.835906],"type":"Point"},"properties":{"osm_id":"6965107561","tag":{"amenity":"waste_basket","operator":"University of Wisconsin-Whitewater","waste":"trash"}},"type":"Feature"},
	{"geometry":{"coordinates":[-88.740587,42.840001],"type":"Point"},"properties":{"osm_id":"6965107562","tag":{"amenity":"waste_basket"}},"type":"Feature"},
	{"geometry":{"coordinates":[-88.74283,42.836137],"type":"Point"},"properties":{"osm_id":"6977124884","tag":{"amenity":"waste_basket","operator":"University of Wisconsin-Whitewater","waste":"trash"}},"type":"Feature"},
	{"geometry":{"coordinates":[-88.741851,42.83902],"type":"Point"},"properties":{"osm_id":"7034824447","tag":{"amenity":"waste_basket","material":"steel"}},"type":"Feature"},
	{"geometry":{"coordinates":[-88.740606,42.842709],"type":"Point"},"properties":{"osm_id":"7076298444","tag":{"amenity":"waste_disposal"}},"type":"Feature"}
]
}
