{
"type": "FeatureCollection",
"features": [
	{"geometry":{"coordinates":[92.795507,55.993985],"type":"Point"},"properties":{"osm_id":"4009065059","tag":{"amenity":"waste_disposal"}},"type":"Feature"},
	{"geometry":{"coordinates":[92.763354,56.012882],"type":"Point"},"properties":{"osm_id":"4056128133","tag":{"amenity":"waste_disposal"}},"type":"Feature"},
	{"geometry":{"coordinates":[92.758276,55.986056],"type":"Point"},"properties":{"osm_id":"4702946989","tag":{"amenity":"waste_disposal"}},"type":"Feature"},
	{"geometry":{"coordinates":[92.755437,55.983308],"type":"Point"},"properties":{"osm_id":"4702955495","tag":{"amenity":"waste_disposal"}},"type":"Feature"},
	{"geometry":{"coordinates":[92.791936,55.994927],"type":"Point"},"properties":{"osm_id":"4943165028","tag":{"amenity":"waste_disposal"}},"type":"Feature"},
	{"geometry":{"coordinates":[92.790028,55.995001],"type":"Point"},"properties":{"osm_id":"4943165221","tag":{"amenity":"waste_disposal","operator":"Borisova 1a"}},"type":"Feature"},
	{"geometry":{"coordinates":[92.811906,56.019214],"type":"Point"},"properties":{"osm_id":"5127616437","tag":{"amenity":"waste_disposal"}},"type":"Feature"},
	{"geometry":{"coordinates":[92.790796,55.997714],"type":"Point"},"properties":{"osm_id":"6927102463","tag":{"amenity":"waste_disposal","waste":"trash"}},"type":"Feature"},
	{"geometry":{"coordinates":[92.78699,55.996172],"type":"Point"},"properties":{"osm_id":"6927102464","tag":{"amenity":"waste_disposal","waste":"trash"}},"type":"Feature"},
	{"geometry":{"coordinates":[92.736194,55.996715],"type":"Point"},"properties":{"osm_id":"7386023144","tag":{"amenity":"waste_disposal"}},"type":"Feature"}
]
}
