{
"type": "FeatureCollection",
"features": [
	{"geometry":{"coordinates":[132.454956,34.39614],"type":"Point"},"properties":{"osm_id":"2480157333","tag":{"amenity":"waste_basket","smoking":"yes","waste":"cigarettes"}},"type":"Feature"},
	{"geometry":{"coordinates":[132.456133,34.394947],"type":"Point"},"properties":{"osm_id":"2482494760","tag":{"amenity":"waste_basket","level":"0","smoking":"yes","waste":"cigarettes"}},"type":"Feature"},
	{"geometry":{"coordinates":[132.45676,34.39444],"type":"Point"},"properties":{"osm_id":"2482494766","tag":{"amenity":"waste_basket","level":"-1","smoking":"yes","waste":"cigarettes"}},"type":"Feature"},
	{"geometry":{"coordinates":[132.484425,34.392609],"type":"Point"},"properties":{"osm_id":"6151265477","tag":{"amenity":"waste_disposal","level":"5"}},"type":"Feature"},
	{"geometry":{"coordinates":[132.454807,34.392658],"type":"Point"},"properties":{"osm_id":"6400534007","tag":{"amenity":"waste_basket"}},"type":"Feature"},
	{"geometry":{"coordinates":[132.458538,34.394913],"type":"Point"},"properties":{"osm_id":"7293529632","tag":{"amenity":"waste_basket"}},"type":"Feature"},
	{"geometry":{"coordinates":[132.453428,34.395962],"type":"Point"},"properties":{"osm_id":"7293594296","tag":{"amenity":"waste_basket"}},"type":"Feature"},
	{"geometry":{"coordinates":[132.453892,34.395954],"type":"Point"},"properties":{"osm_id":"7293655115","tag":{"amenity":"waste_basket"}},"type":"Feature"}
]
}
