{
"type": "FeatureCollection",
"features": [
	{"geometry":{"coordinates":[111.490756,-7.902634],"type":"Point"},"properties":{"name":"Pohon Santai Universitas Darussalam Gontor","osm_id":"4631140214","tag":{"denotation":"natural_monument","leaf_cycle":"semi_evergreen","leaf_type":"leafless","natural":"tree"}},"type":"Feature"},
	{"geometry":{"coordinates":[111.490261,-7.902619],"type":"Point"},"properties":{"name":"Pohon Palem 1","osm_id":"4673355867","tag":{"addr:city":"Ponorogo","addr:housenumber":"Km. 6","addr:postcode":"63471","addr:street":"Jalan Raya Siman","natural":"tree","website":"http://unida.gontor.ac.id"}},"type":"Feature"},
	{"geometry":{"coordinates":[111.4904,-7.902629],"type":"Point"},"properties":{"name":"Pohon Palem 3","osm_id":"4673370624","tag":{"addr:city":"Ponorogo","addr:housenumber":"Km. 6","addr:postcode":"63471","addr:street":"Jalan Raya Siman","natural":"tree","website":"http://unida.gontor.ac.id"}},"type":"Feature"},
	{"geometry":{"coordinates":[111.490329,-7.902625],"type":"Point"},"properties":{"name":"Pohon Palem 2","osm_id":"4673372443","tag":{"addr:city":"Ponorogo","addr:housenumber":"Km. 6","addr:postcode":"63471","addr:street":"Jalan Raya Siman","natural":"tree","website":"http://unida.gontor.ac.id"}},"type":"Feature"},
	{"geometry":{"coordinates":[111.490539,-7.902652],"type":"Point"},"properties":{"name":"Pohon Palem 4","osm_id":"4673385484","tag":{"addr:city":"Ponorogo","addr:housenumber":"Km. 6","addr:postcode":"63471","addr:street":"Jalan raya Siman","natural":"tree","website":"http://unida.gontor.ac.id"}},"type":"Feature"}
]
}
