{
"type": "FeatureCollection",
"features": [
	{"geometry":{"coordinates":[24.732933,60.212491],"type":"Point"},"properties":{"osm_id":"210101275","tag":{"amenity":"recycling","recycling:batteries":"no","recycling:cardboard":"yes","recycling:cartons":"yes","recycling:glass":"yes","recycling:metal":"yes","recycling:paper":"yes","recycling:plastic":"no","recycling:rubble":"no","recycling_type":"container"}},"type":"Feature"},
	{"geometry":{"coordinates":[24.740345,60.227222],"type":"Point"},"properties":{"osm_id":"268687118","tag":{"amenity":"waste_disposal"}},"type":"Feature"},
	{"geometry":{"coordinates":[24.743825,60.231636],"type":"Point"},"properties":{"osm_id":"268765682","tag":{"amenity":"recycling","recycling:clothes":"yes","recycling:paper":"yes"}},"type":"Feature"},
	{"geometry":{"coordinates":[24.741344,60.228481],"type":"Point"},"properties":{"osm_id":"276457364","tag":{"amenity":"recycling","recycling:clothes":"yes"}},"type":"Feature"},
	{"geometry":{"coordinates":[24.762213,60.228495],"type":"Point"},"properties":{"osm_id":"276945425","tag":{"amenity":"recycling","recycling:batteries":"yes","recycling:clothes":"yes","recycling:glass":"yes","recycling:paper":"yes","recycling_type":"container"}},"type":"Feature"},
	{"geometry":{"coordinates":[24.781005,60.218163],"type":"Point"},"properties":{"osm_id":"316492743","tag":{"amenity":"recycling","recycling:beverage_cartons":"yes","recycling:books":"yes","recycling:cans":"yes","recycling:cardboard":"yes","recycling:clothes":"yes","recycling:glass":"yes","recycling:newspaper":"yes","recycling:paper":"yes","recycling:scrap_metal":"yes","recycling:shoes":"yes","recycling:small_appliances":"yes","recycling_type":"container"}},"type":"Feature"},
	{"geometry":{"coordinates":[24.706746,60.198282],"type":"Point"},"properties":{"osm_id":"412272482","tag":{"amenity":"recycling","description":"paper","recycling:paper":"yes","recycling_type":"container"}},"type":"Feature"},
	{"geometry":{"coordinates":[24.704897,60.199474],"type":"Point"},"properties":{"osm_id":"415416227","tag":{"amenity":"recycling","description":"paper"}},"type":"Feature"},
	{"geometry":{"coordinates":[24.729769,60.206677],"type":"Point"},"properties":{"osm_id":"416007834","tag":{"amenity":"recycling","description":"paper"}},"type":"Feature"},
	{"geometry":{"coordinates":[24.735408,60.205385],"type":"Point"},"properties":{"osm_id":"416016238","tag":{"amenity":"recycling","recycling:paper":"yes"}},"type":"Feature"},
	{"geometry":{"coordinates":[24.716314,60.234991],"type":"Point"},"properties":{"osm_id":"662035075","tag":{"amenity":"recycling","recycling:paper":"yes"}},"type":"Feature"},
	{"geometry":{"coordinates":[24.716025,60.229635],"type":"Point"},"properties":{"osm_id":"756779621","tag":{"amenity":"recycling","recycling:bottles":"yes","recycling:cans":"yes"}},"type":"Feature"},
	{"geometry":{"coordinates":[24.715589,60.229268],"type":"Point"},"properties":{"osm_id":"756779628","tag":{"amenity":"recycling","recycling:cardboard":"yes","recycling:glass":"yes","recycling:paper":"yes","recycling:plastic_bags":"yes","recycling:scrap_metal":"yes"}},"type":"Feature"},
	{"geometry":{"coordinates":[24.752776,60.2347],"type":"Point"},"properties":{"osm_id":"1539656134","tag":{"amenity":"recycling"}},"type":"Feature"},
	{"geometry":{"coordinates":[24.758356,60.20945],"type":"Point"},"properties":{"osm_id":"1597916024","tag":{"amenity":"recycling","recycling:batteries":"yes","recycling:car_batteries":"yes","recycling:engine_oil":"yes","recycling:fluorescent_tubes":"yes","recycling:hazardous_waste":"yes","recycling:paint":"yes","recycling_type":"container"}},"type":"Feature"},
	{"geometry":{"coordinates":[24.726158,60.212763],"type":"Point"},"properties":{"osm_id":"2472016606","tag":{"amenity":"waste_basket","traffic_sign":"FI:312","traffic_sign:2":"FI:871","traffic_sign:3":"FI:871"}},"type":"Feature"},
	{"geometry":{"coordinates":[24.724374,60.21309],"type":"Point"},"properties":{"osm_id":"2472016623","tag":{"amenity":"waste_basket","traffic_sign":"FI:644","traffic_sign:2":"FI:644"}},"type":"Feature"},
	{"geometry":{"coordinates":[24.722059,60.213601],"type":"Point"},"properties":{"highway":"street_lamp","osm_id":"2472016658","tag":{"amenity":"waste_basket"}},"type":"Feature"},
	{"geometry":{"coordinates":[24.729348,60.211346],"type":"Point"},"properties":{"osm_id":"2472043277","tag":{"amenity":"waste_basket","traffic_sign":"FI:421"}},"type":"Feature"},
	{"geometry":{"coordinates":[24.729184,60.212453],"type":"Point"},"properties":{"osm_id":"2472043341","tag":{"amenity":"waste_basket","traffic_sign":"FI:511"}},"type":"Feature"},
	{"geometry":{"coordinates":[24.727681,60.212563],"type":"Point"},"properties":{"osm_id":"2472043370","tag":{"amenity":"waste_basket"}},"type":"Feature"},
	{"geometry":{"coordinates":[24.727147,60.212627],"type":"Point"},"properties":{"osm_id":"2472043418","tag":{"amenity":"waste_basket"}},"type":"Feature"},
	{"geometry":{"coordinates":[24.757211,60.200358],"type":"Point"},"properties":{"osm_id":"2472174493","tag":{"amenity":"recycling"}},"type":"Feature"},
	{"geometry":{"coordinates":[24.756939,60.200402],"type":"Point"},"properties":{"osm_id":"2472174504","tag":{"amenity":"waste_basket","traffic_sign":"FI:531"}},"type":"Feature"},
	{"geometry":{"coordinates":[24.765648,60.197251],"type":"Point"},"properties":{"osm_id":"2472263553","tag":{"amenity":"waste_basket","traffic_sign":"FI:531"}},"type":"Feature"},
	{"geometry":{"coordinates":[24.75294,60.210245],"type":"Point"},"properties":{"name":"Kierr\u00c3\u00a4tyskeskus","osm_id":"2817617747","tag":{"amenity":"recycling","name:en":"Reuse centre: Second hand warehouse","opening_hours":"Mo-Fr 11:00-20:00; Sa 11:00-19:00; Su 12:00-18:00","recycling_type":"centre","website":"https://www.kierratyskeskus.fi"}},"type":"Feature"},
	{"geometry":{"coordinates":[24.740656,60.226603],"type":"Point"},"properties":{"osm_id":"4144403563","tag":{"amenity":"recycling","recycling:cans":"yes","recycling:cardboard":"yes","recycling:glass":"yes","recycling:glass_bottles":"no","recycling:paper":"yes","recycling_type":"container"}},"type":"Feature"},
	{"geometry":{"coordinates":[24.740017,60.239073],"type":"Point"},"properties":{"osm_id":"4258962371","tag":{"addr:city":"Espoo","addr:housenumber":"22","addr:postcode":"02720","addr:street":"L\u00c3\u00a4hderannantie","amenity":"recycling","operator":"UFF","recycling:clothes":"yes","recycling:shoes":"yes"}},"type":"Feature"},
	{"geometry":{"coordinates":[24.761054,60.224558],"type":"Point"},"properties":{"osm_id":"4512743026","tag":{"amenity":"recycling","recycling:clothes":"yes","recycling:shoes":"yes","recycling_type":"container"}},"type":"Feature"},
	{"geometry":{"coordinates":[24.773282,60.222102],"type":"Point"},"properties":{"osm_id":"4660987723","tag":{"amenity":"recycling","recycling:paper":"yes","recycling_type":"container"}},"type":"Feature"},
	{"geometry":{"coordinates":[24.773238,60.222184],"type":"Point"},"properties":{"osm_id":"4676378341","tag":{"amenity":"waste_basket"}},"type":"Feature"},
	{"geometry":{"coordinates":[24.765914,60.219919],"type":"Point"},"properties":{"osm_id":"4676378342","tag":{"amenity":"waste_basket"}},"type":"Feature"},
	{"geometry":{"coordinates":[24.781601,60.216557],"type":"Point"},"properties":{"osm_id":"4676392118","tag":{"amenity":"recycling","recycling:beverage_cartons":"yes","recycling:cans":"yes","recycling:cardboard":"yes","recycling:cartons":"yes","recycling:glass":"yes","recycling:glass_bottles":"yes","recycling:magazines":"yes","recycling:newspaper":"yes","recycling:paper":"yes","recycling:scrap_metal":"yes","recycling_type":"container"}},"type":"Feature"},
	{"geometry":{"coordinates":[24.756453,60.203235],"type":"Point"},"properties":{"osm_id":"4706473925","tag":{"amenity":"waste_basket"}},"type":"Feature"},
	{"geometry":{"coordinates":[24.759724,60.224885],"type":"Point"},"properties":{"osm_id":"4908553966","tag":{"amenity":"waste_basket"}},"type":"Feature"},
	{"geometry":{"coordinates":[24.764886,60.22294],"type":"Point"},"properties":{"osm_id":"5156675707","tag":{"amenity":"waste_basket"}},"type":"Feature"},
	{"geometry":{"coordinates":[24.764518,60.222239],"type":"Point"},"properties":{"osm_id":"5205764591","tag":{"amenity":"waste_basket"}},"type":"Feature"},
	{"geometry":{"coordinates":[24.771069,60.221668],"type":"Point"},"properties":{"osm_id":"5205764592","tag":{"amenity":"waste_basket"}},"type":"Feature"},
	{"geometry":{"coordinates":[24.773263,60.221943],"type":"Point"},"properties":{"osm_id":"5205764594","tag":{"amenity":"waste_basket"}},"type":"Feature"},
	{"geometry":{"coordinates":[24.753864,60.231673],"type":"Point"},"properties":{"osm_id":"5448556817","tag":{"amenity":"recycling","recycling_type":"container"}},"type":"Feature"},
	{"geometry":{"coordinates":[24.733848,60.212078],"type":"Point"},"properties":{"osm_id":"6497820346","tag":{"amenity":"waste_basket"}},"type":"Feature"},
	{"geometry":{"coordinates":[24.735612,60.21173],"type":"Point"},"properties":{"osm_id":"6497820347","tag":{"amenity":"waste_basket"}},"type":"Feature"},
	{"geometry":{"coordinates":[24.745217,60.239114],"type":"Point"},"properties":{"osm_id":"7449965636","tag":{"amenity":"recycling","recycling_type":"centre"}},"type":"Feature"},
	{"geometry":{"coordinates":[24.736657,60.212145],"type":"Point"},"properties":{"osm_id":"7509220596","tag":{"amenity":"waste_basket"}},"type":"Feature"},
	{"geometry":{"coordinates":[24.748666,60.223364],"type":"Point"},"properties":{"osm_id":"7509220597","tag":{"amenity":"waste_basket"}},"type":"Feature"},
	{"geometry":{"coordinates":[24.767671,60.211795],"type":"Point"},"properties":{"osm_id":"7554676933","tag":{"amenity":"waste_basket"}},"type":"Feature"},
	{"geometry":{"coordinates":[24.735145,60.221273],"type":"Point"},"properties":{"osm_id":"7596252309","tag":{"amenity":"waste_basket"}},"type":"Feature"},
	{"geometry":{"coordinates":[24.733146,60.217723],"type":"Point"},"properties":{"osm_id":"7596252310","tag":{"amenity":"waste_basket"}},"type":"Feature"},
	{"geometry":{"coordinates":[24.735737,60.218387],"type":"Point"},"properties":{"osm_id":"7596252311","tag":{"amenity":"recycling","recycling_type":"container"}},"type":"Feature"},
	{"geometry":{"coordinates":[24.735696,60.220186],"type":"Point"},"properties":{"osm_id":"7596252312","tag":{"amenity":"waste_basket"}},"type":"Feature"},
	{"geometry":{"coordinates":[24.734699,60.221184],"type":"Point"},"properties":{"osm_id":"7596252313","tag":{"amenity":"waste_basket"}},"type":"Feature"},
	{"geometry":{"coordinates":[24.735759,60.218453],"type":"Point"},"properties":{"osm_id":"7596252316","tag":{"amenity":"waste_basket"}},"type":"Feature"},
	{"geometry":{"coordinates":[24.734359,60.221149],"type":"Point"},"properties":{"osm_id":"7596252319","tag":{"amenity":"waste_basket"}},"type":"Feature"},
	{"geometry":{"coordinates":[24.733297,60.217973],"type":"Point"},"properties":{"osm_id":"7596252320","tag":{"amenity":"waste_basket"}},"type":"Feature"}
]
}
