{
"type": "FeatureCollection",
"features": [
	{"geometry":{"coordinates":[24.776804,60.174796],"type":"Point"},"properties":{"osm_id":"250979625","tag":{"amenity":"recycling","operator":"UFF","recycling:clothes":"yes"}},"type":"Feature"},
	{"geometry":{"coordinates":[24.75317,60.174923],"type":"Point"},"properties":{"osm_id":"256377707","tag":{"amenity":"recycling","recycling_type":"container"}},"type":"Feature"},
	{"geometry":{"coordinates":[24.723601,60.16962],"type":"Point"},"properties":{"osm_id":"266040536","tag":{"amenity":"recycling","location":"overground","operator":"UFF","recycling:clothes":"yes","recycling_type":"container"}},"type":"Feature"},
	{"geometry":{"coordinates":[24.781002,60.162442],"type":"Point"},"properties":{"name":"Fida L\u00c3\u00a4hetystori","osm_id":"398361499","tag":{"amenity":"recycling","recycling:batteries":"no","recycling:cans":"no","recycling:clothes":"yes","recycling:glass":"no","recycling:paper":"no","recycling:scrap_metal":"no"}},"type":"Feature"},
	{"geometry":{"coordinates":[24.721251,60.163196],"type":"Point"},"properties":{"osm_id":"401122511","tag":{"addr:city":"Espoo","addr:country":"FI","addr:postcode":"02240","addr:street":"Friisil\u00c3\u00a4ntie","amenity":"recycling","operator":"UFF","recycling:clothes":"yes","recycling_type":"container"}},"type":"Feature"},
	{"geometry":{"coordinates":[24.721231,60.163189],"type":"Point"},"properties":{"osm_id":"401122519","tag":{"addr:city":"Espoo","addr:country":"FI","addr:postcode":"02240","addr:street":"Friisil\u00c3\u00a4ntie","amenity":"recycling","operator":"Fida L\u00c3\u00a4hetystori","recycling:clothes":"yes","recycling_type":"container"}},"type":"Feature"},
	{"geometry":{"coordinates":[24.738029,60.16199],"type":"Point"},"properties":{"osm_id":"463788268","tag":{"amenity":"recycling","level":"-1","recycling:batteries":"yes","recycling:cans":"yes","recycling:cardboard":"yes","recycling:drink_cartons":"yes","recycling:energy_waste":"yes","recycling:fluorescent_tubes":"yes","recycling:glass":"yes","recycling:scrap_metal":"yes"}},"type":"Feature"},
	{"geometry":{"coordinates":[24.738314,60.162101],"type":"Point"},"properties":{"osm_id":"463825997","tag":{"amenity":"recycling","level":"0","recycling:bottles":"machine","recycling:energy_waste":"yes","recycling:plastic_bags":"yes"}},"type":"Feature"},
	{"geometry":{"coordinates":[24.767203,60.193877],"type":"Point"},"properties":{"osm_id":"497227072","tag":{"amenity":"recycling","recycling:cardboard":"yes","recycling:clothes":"yes","recycling:glass":"yes","recycling:paper":"yes","recycling_type":"container"}},"type":"Feature"},
	{"geometry":{"coordinates":[24.750008,60.175715],"type":"Point"},"properties":{"osm_id":"663556990","tag":{"amenity":"waste_basket"}},"type":"Feature"},
	{"geometry":{"coordinates":[24.732658,60.166279],"type":"Point"},"properties":{"osm_id":"812109481","tag":{"amenity":"recycling","layer":"-1","operator":"SITA Finland","recycling:batteries":"yes","recycling:cardboard":"yes","recycling:cartons":"yes","recycling:fluorescent_tubes":"yes","recycling:foil":"yes","recycling:glass_bottles":"yes","recycling:magazines":"yes","recycling:newspaper":"yes","recycling:paper":"yes","recycling:plastic":"yes","recycling_type":"centre"}},"type":"Feature"},
	{"geometry":{"coordinates":[24.734588,60.17622],"type":"Point"},"properties":{"osm_id":"832813613","tag":{"amenity":"recycling","recycling:batteries":"yes","recycling:clothes":"yes","recycling:glass":"yes"}},"type":"Feature"},
	{"geometry":{"coordinates":[24.734773,60.168385],"type":"Point"},"properties":{"osm_id":"864702856","tag":{"amenity":"recycling","location":"overground","operator":"UFF","recycling:cartons":"no","recycling:clothes":"yes","recycling:energy_waste":"no","recycling:glass":"no","recycling:magazines":"no","recycling:newspaper":"no","recycling:paper":"no","recycling:plastic":"no","recycling:plastic_bags":"no","recycling_type":"container"}},"type":"Feature"},
	{"geometry":{"coordinates":[24.761797,60.182197],"type":"Point"},"properties":{"osm_id":"886010690","tag":{"amenity":"recycling","recycling:paper":"yes"}},"type":"Feature"},
	{"geometry":{"coordinates":[24.724663,60.173381],"type":"Point"},"properties":{"osm_id":"890595733","tag":{"amenity":"recycling","location":"overground","recycling:cartons":"yes","recycling:clothes":"yes","recycling:drink_cartons":"yes","recycling:glass":"yes","recycling_type":"container"}},"type":"Feature"},
	{"geometry":{"coordinates":[24.71302,60.166728],"type":"Point"},"properties":{"osm_id":"943622944","tag":{"amenity":"recycling","recycling:aluminium":"no","recycling:batteries":"no","recycling:bicycles":"no","recycling:books":"yes","recycling:cans":"no","recycling:cardboard":"no","recycling:cartons":"no","recycling:cds":"no","recycling:chipboard":"no","recycling:christmas_trees":"no","recycling:clothes":"no","recycling:computers":"no","recycling:cooking_oil":"no","recycling:cork":"no","recycling:electrical_items":"no","recycling:engine_oil":"no","recycling:fluorescent_tubes":"no","recycling:foil":"no","recycling:garden_waste":"no","recycling:glass":"no","recycling:glass_bottles":"no","recycling:green_waste":"no","recycling:hardcore":"no","recycling:low_energy_bulbs":"no","recycling:magazines":"yes","recycling:mobile_phones":"no","recycling:newspaper":"yes","recycling:paint":"no","recycling:paper":"yes","recycling:paper_packaging":"yes","recycling:plasterboard":"no","recycling:plastic":"no","recycling:plastic_bags":"no","recycling:plastic_bottles":"no","recycling:plastic_packaging":"no","recycling:polyester":"no","recycling:printer_cartridges":"no","recycling:rubble":"no","recycling:scrap_metal":"no","recycling:sheet_metal":"no","recycling:small_appliances":"no","recycling:styrofoam":"no","recycling:tv_monitor":"no","recycling:tyres":"no","recycling:waste":"no","recycling:white_goods":"no","recycling:wood":"no","recycling_type":"container","wheelchair":"limited"}},"type":"Feature"},
	{"geometry":{"coordinates":[24.72908,60.175874],"type":"Point"},"properties":{"osm_id":"951326036","tag":{"amenity":"recycling","recycling:cartons":"yes","recycling:energy_waste":"yes","recycling:magazines":"yes","recycling:newspaper":"yes","recycling:paper":"yes","recycling:plastic":"yes","recycling:plastic_bags":"yes"}},"type":"Feature"},
	{"geometry":{"coordinates":[24.703837,60.162067],"type":"Point"},"properties":{"osm_id":"1856864393","tag":{"amenity":"waste_basket"}},"type":"Feature"},
	{"geometry":{"coordinates":[24.703843,60.162102],"type":"Point"},"properties":{"osm_id":"1856864400","tag":{"amenity":"waste_basket"}},"type":"Feature"},
	{"geometry":{"coordinates":[24.704083,60.161164],"type":"Point"},"properties":{"osm_id":"2004121832","tag":{"amenity":"waste_basket"}},"type":"Feature"},
	{"geometry":{"coordinates":[24.705789,60.162103],"type":"Point"},"properties":{"osm_id":"2004122293","tag":{"amenity":"waste_basket"}},"type":"Feature"},
	{"geometry":{"coordinates":[24.705242,60.161853],"type":"Point"},"properties":{"osm_id":"2004122294","tag":{"amenity":"waste_basket"}},"type":"Feature"},
	{"geometry":{"coordinates":[24.773534,60.154276],"type":"Point"},"properties":{"osm_id":"2906216903","tag":{"amenity":"waste_disposal"}},"type":"Feature"},
	{"geometry":{"coordinates":[24.769377,60.17803],"type":"Point"},"properties":{"osm_id":"3331701562","tag":{"amenity":"recycling","recycling:cans":"yes","recycling:glass":"yes","recycling:paper":"yes"}},"type":"Feature"},
	{"geometry":{"coordinates":[24.720587,60.163673],"type":"Point"},"properties":{"osm_id":"3861029784","tag":{"amenity":"recycling","recycling:paper":"yes","recycling_type":"container"}},"type":"Feature"},
	{"geometry":{"coordinates":[24.744104,60.153635],"type":"Point"},"properties":{"osm_id":"4868169927","tag":{"amenity":"waste_basket"}},"type":"Feature"},
	{"geometry":{"coordinates":[24.762048,60.154731],"type":"Point"},"properties":{"osm_id":"5311953394","tag":{"amenity":"waste_basket"}},"type":"Feature"},
	{"geometry":{"coordinates":[24.762075,60.154815],"type":"Point"},"properties":{"osm_id":"5311953396","tag":{"amenity":"waste_basket"}},"type":"Feature"},
	{"geometry":{"coordinates":[24.745932,60.157729],"type":"Point"},"properties":{"osm_id":"5429047223","tag":{"amenity":"recycling","recycling:cans":"yes","recycling:cooking_oil":"yes","recycling:glass_bottles":"yes","recycling:green_waste":"yes","recycling:paper":"yes","recycling:plastic":"no","recycling:plastic_packaging":"yes","recycling:scrap_metal":"yes","recycling_type":"container"}},"type":"Feature"},
	{"geometry":{"coordinates":[24.784538,60.173846],"type":"Point"},"properties":{"osm_id":"5453591838","tag":{"amenity":"waste_basket"}},"type":"Feature"},
	{"geometry":{"coordinates":[24.752645,60.162763],"type":"Point"},"properties":{"osm_id":"5792550440","tag":{"amenity":"recycling","operator":"Rinki","recycling:cardboard":"yes","recycling:glass":"yes","recycling:paper":"yes","recycling:plastic":"yes","recycling:scrap_metal":"yes","recycling_type":"container"}},"type":"Feature"},
	{"geometry":{"coordinates":[24.746517,60.157179],"type":"Point"},"properties":{"osm_id":"5803411626","tag":{"amenity":"waste_basket"}},"type":"Feature"},
	{"geometry":{"coordinates":[24.783114,60.173971],"type":"Point"},"properties":{"osm_id":"6681807299","tag":{"amenity":"waste_basket"}},"type":"Feature"},
	{"geometry":{"coordinates":[24.779881,60.174433],"type":"Point"},"properties":{"osm_id":"6681807303","tag":{"amenity":"waste_basket"}},"type":"Feature"},
	{"geometry":{"coordinates":[24.778322,60.162026],"type":"Point"},"properties":{"osm_id":"6703089322","tag":{"amenity":"recycling","check_date:recycling":"2021-08-15","operator":"UFF","recycling:clothes":"yes","recycling_type":"container"}},"type":"Feature"},
	{"geometry":{"coordinates":[24.721898,60.159841],"type":"Point"},"properties":{"osm_id":"6942852874","tag":{"amenity":"recycling","recycling:cardboard":"yes","recycling:organic":"yes","recycling:paper":"yes","recycling:waste":"yes","recycling_type":"container"}},"type":"Feature"},
	{"geometry":{"coordinates":[24.725639,60.172971],"type":"Point"},"properties":{"osm_id":"7077484747","tag":{"amenity":"recycling","operator":"Suomen Pakkauskierr\u00c3\u00a4tys RINKI Oy","recycling:cardboard":"yes","recycling:glass":"yes","recycling:glass_bottles":"yes","recycling:magazines":"yes","recycling:newspaper":"yes","recycling:paper":"yes","recycling:plastic":"yes","recycling_type":"container","url":"https://www.kierratys.info/Kuunkehra-2--Kuunkatu-Espoo"}},"type":"Feature"},
	{"geometry":{"coordinates":[24.709546,60.15903],"type":"Point"},"properties":{"osm_id":"7077736636","tag":{"amenity":"recycling","opening_hours":"24/7","operator":"Suomen Pakkauskierr\u00c3\u00a4tys RINKI Oy","recycling:cardboard":"yes","recycling:glass":"yes","recycling:glass_bottles":"yes","recycling:paper":"yes","recycling:plastic":"yes","recycling_type":"container"}},"type":"Feature"},
	{"geometry":{"coordinates":[24.712473,60.16694],"type":"Point"},"properties":{"osm_id":"7702887566","tag":{"amenity":"recycling","operator":"Rinki Oy","recycling:paper":"yes","recycling_type":"container"}},"type":"Feature"},
	{"geometry":{"coordinates":[24.737607,60.184619],"type":"Point"},"properties":{"osm_id":"7995833816","tag":{"amenity":"waste_basket"}},"type":"Feature"},
	{"geometry":{"coordinates":[24.769061,60.169673],"type":"Point"},"properties":{"osm_id":"8014097105","tag":{"amenity":"waste_basket"}},"type":"Feature"},
	{"geometry":{"coordinates":[24.763165,60.169306],"type":"Point"},"properties":{"osm_id":"8078760719","tag":{"amenity":"waste_basket"}},"type":"Feature"},
	{"geometry":{"coordinates":[24.781501,60.169763],"type":"Point"},"properties":{"osm_id":"8079293871","tag":{"amenity":"waste_basket"}},"type":"Feature"},
	{"geometry":{"coordinates":[24.773557,60.169813],"type":"Point"},"properties":{"osm_id":"8242488723","tag":{"amenity":"waste_basket"}},"type":"Feature"},
	{"geometry":{"coordinates":[24.771692,60.170224],"type":"Point"},"properties":{"osm_id":"8828121323","tag":{"amenity":"waste_basket"}},"type":"Feature"},
	{"geometry":{"coordinates":[24.772976,60.155359],"type":"Point"},"properties":{"osm_id":"8901697785","tag":{"amenity":"waste_basket"}},"type":"Feature"},
	{"geometry":{"coordinates":[24.773276,60.170246],"type":"Point"},"properties":{"osm_id":"8912965347","tag":{"amenity":"waste_basket"}},"type":"Feature"},
	{"geometry":{"coordinates":[24.779636,60.171983],"type":"Point"},"properties":{"osm_id":"8912965348","tag":{"amenity":"waste_basket"}},"type":"Feature"},
	{"geometry":{"coordinates":[24.778298,60.171662],"type":"Point"},"properties":{"osm_id":"8912965349","tag":{"amenity":"waste_basket"}},"type":"Feature"},
	{"geometry":{"coordinates":[24.777323,60.171319],"type":"Point"},"properties":{"osm_id":"8912965350","tag":{"amenity":"waste_basket"}},"type":"Feature"},
	{"geometry":{"coordinates":[24.774896,60.170705],"type":"Point"},"properties":{"osm_id":"8912965351","tag":{"amenity":"waste_basket"}},"type":"Feature"},
	{"geometry":{"coordinates":[24.774716,60.170924],"type":"Point"},"properties":{"highway":"street_lamp","osm_id":"8912965353","tag":{"amenity":"waste_basket"}},"type":"Feature"},
	{"geometry":{"coordinates":[24.774289,60.170876],"type":"Point"},"properties":{"highway":"street_lamp","osm_id":"8912965354","tag":{"amenity":"waste_basket"}},"type":"Feature"},
	{"geometry":{"coordinates":[24.773857,60.170824],"type":"Point"},"properties":{"highway":"street_lamp","osm_id":"8912965355","tag":{"amenity":"waste_basket"}},"type":"Feature"},
	{"geometry":{"coordinates":[24.770333,60.170278],"type":"Point"},"properties":{"osm_id":"8912965356","tag":{"amenity":"waste_basket"}},"type":"Feature"},
	{"geometry":{"coordinates":[24.769685,60.170096],"type":"Point"},"properties":{"osm_id":"8912965357","tag":{"amenity":"waste_basket"}},"type":"Feature"},
	{"geometry":{"coordinates":[24.769979,60.170143],"type":"Point"},"properties":{"osm_id":"8912965358","tag":{"amenity":"waste_basket"}},"type":"Feature"},
	{"geometry":{"coordinates":[24.768826,60.169875],"type":"Point"},"properties":{"barrier":"fence","osm_id":"8912965359","tag":{"amenity":"waste_basket","fence_type":"wire"}},"type":"Feature"},
	{"geometry":{"coordinates":[24.763558,60.169849],"type":"Point"},"properties":{"osm_id":"8912965360","tag":{"amenity":"waste_basket"}},"type":"Feature"},
	{"geometry":{"coordinates":[24.762914,60.169888],"type":"Point"},"properties":{"osm_id":"8912965361","tag":{"amenity":"waste_basket"}},"type":"Feature"},
	{"geometry":{"coordinates":[24.763255,60.16977],"type":"Point"},"properties":{"osm_id":"8912965362","tag":{"amenity":"waste_basket"}},"type":"Feature"},
	{"geometry":{"coordinates":[24.771327,60.170115],"type":"Point"},"properties":{"osm_id":"8912965363","tag":{"amenity":"waste_basket"}},"type":"Feature"},
	{"geometry":{"coordinates":[24.768686,60.169832],"type":"Point"},"properties":{"osm_id":"8912965364","tag":{"amenity":"waste_basket"}},"type":"Feature"},
	{"geometry":{"coordinates":[24.735405,60.158683],"type":"Point"},"properties":{"osm_id":"8931051623","tag":{"amenity":"waste_basket"}},"type":"Feature"},
	{"geometry":{"coordinates":[24.720004,60.162022],"type":"Point"},"properties":{"osm_id":"8949254553","tag":{"amenity":"waste_basket"}},"type":"Feature"},
	{"geometry":{"coordinates":[24.719909,60.162009],"type":"Point"},"properties":{"osm_id":"8949254554","tag":{"amenity":"waste_basket"}},"type":"Feature"},
	{"geometry":{"coordinates":[24.775521,60.185734],"type":"Point"},"properties":{"osm_id":"8949254563","tag":{"amenity":"waste_basket"}},"type":"Feature"},
	{"geometry":{"coordinates":[24.773852,60.168385],"type":"Point"},"properties":{"osm_id":"9004450967","tag":{"amenity":"waste_basket"}},"type":"Feature"},
	{"geometry":{"coordinates":[24.777846,60.169764],"type":"Point"},"properties":{"osm_id":"9004736490","tag":{"amenity":"waste_basket"}},"type":"Feature"},
	{"geometry":{"coordinates":[24.775264,60.170475],"type":"Point"},"properties":{"highway":"street_lamp","osm_id":"9010096371"},"type":"Feature"},
	{"geometry":{"coordinates":[24.775855,60.170967],"type":"Point"},"properties":{"highway":"street_lamp","osm_id":"9010109605","tag":{"amenity":"waste_basket"}},"type":"Feature"},
	{"geometry":{"coordinates":[24.77596,60.170781],"type":"Point"},"properties":{"highway":"street_lamp","osm_id":"9010109606","tag":{"amenity":"waste_basket"}},"type":"Feature"},
	{"geometry":{"coordinates":[24.775635,60.170736],"type":"Point"},"properties":{"highway":"street_lamp","osm_id":"9010109607","tag":{"amenity":"waste_basket"}},"type":"Feature"},
	{"geometry":{"coordinates":[24.777263,60.169807],"type":"Point"},"properties":{"osm_id":"9169299586","tag":{"amenity":"waste_basket"}},"type":"Feature"}
]
}
