{
"type": "FeatureCollection",
"features": [
	{"geometry":{"coordinates":[24.750957,60.15008],"type":"Point"},"properties":{"osm_id":"149048164","tag":{"amenity":"recycling"}},"type":"Feature"},
	{"geometry":{"coordinates":[24.715425,60.145446],"type":"Point"},"properties":{"osm_id":"403905084","tag":{"amenity":"recycling","recycling:batteries":"yes","recycling:clothes":"yes","recycling:engine_oil":"yes","recycling:glass":"yes","recycling:paint":"yes","recycling:sails":"yes"}},"type":"Feature"},
	{"geometry":{"coordinates":[24.73333,60.15011],"type":"Point"},"properties":{"osm_id":"1700703646","tag":{"amenity":"recycling","recycling:paper":"yes","recycling_type":"container"}},"type":"Feature"},
	{"geometry":{"coordinates":[24.752728,60.147537],"type":"Point"},"properties":{"osm_id":"2906159436","tag":{"amenity":"recycling"}},"type":"Feature"},
	{"geometry":{"coordinates":[24.73934,60.144927],"type":"Point"},"properties":{"osm_id":"3540877324","tag":{"amenity":"waste_basket"}},"type":"Feature"},
	{"geometry":{"coordinates":[24.749379,60.144143],"type":"Point"},"properties":{"osm_id":"4730457474","tag":{"amenity":"waste_basket"}},"type":"Feature"},
	{"geometry":{"coordinates":[24.742757,60.151381],"type":"Point"},"properties":{"osm_id":"4784659420","tag":{"amenity":"waste_basket"}},"type":"Feature"},
	{"geometry":{"coordinates":[24.697472,60.142826],"type":"Point"},"properties":{"osm_id":"5114809233","tag":{"amenity":"waste_basket"}},"type":"Feature"},
	{"geometry":{"coordinates":[24.745874,60.144552],"type":"Point"},"properties":{"osm_id":"6103757885","tag":{"amenity":"waste_basket"}},"type":"Feature"}
]
}
