{
"type": "FeatureCollection",
"features": [
	{"geometry":{"coordinates":[24.779771,55.238069],"type":"Point"},"properties":{"osm_id":"3889989864","tag":{"amenity":"recycling","recycling_type":"container"}},"type":"Feature"},
	{"geometry":{"coordinates":[24.777247,55.240622],"type":"Point"},"properties":{"osm_id":"3889989874","tag":{"amenity":"recycling","recycling_type":"container"}},"type":"Feature"},
	{"geometry":{"coordinates":[24.781604,55.240724],"type":"Point"},"properties":{"osm_id":"3889989890","tag":{"amenity":"recycling","recycling_type":"container"}},"type":"Feature"},
	{"geometry":{"coordinates":[24.783432,55.241987],"type":"Point"},"properties":{"osm_id":"3889989907","tag":{"amenity":"recycling","recycling_type":"container"}},"type":"Feature"},
	{"geometry":{"coordinates":[24.768991,55.236538],"type":"Point"},"properties":{"osm_id":"3971817661","tag":{"amenity":"recycling","recycling_type":"container"}},"type":"Feature"},
	{"geometry":{"coordinates":[24.768873,55.255675],"type":"Point"},"properties":{"osm_id":"4383641490","tag":{"amenity":"recycling","recycling_type":"container"}},"type":"Feature"},
	{"geometry":{"coordinates":[24.783212,55.23855],"type":"Point"},"properties":{"osm_id":"4403253022","tag":{"amenity":"recycling","recycling_type":"container"}},"type":"Feature"},
	{"geometry":{"coordinates":[24.780619,55.240231],"type":"Point"},"properties":{"osm_id":"4403253027","tag":{"amenity":"recycling","recycling_type":"container"}},"type":"Feature"},
	{"geometry":{"coordinates":[24.766936,55.248343],"type":"Point"},"properties":{"osm_id":"5257350938","tag":{"amenity":"recycling","recycling:glass_bottles":"yes","recycling:paper":"yes","recycling:plastic":"yes","recycling_type":"container"}},"type":"Feature"},
	{"geometry":{"coordinates":[24.784311,55.258975],"type":"Point"},"properties":{"osm_id":"5263352613","tag":{"amenity":"recycling","recycling_type":"container"}},"type":"Feature"},
	{"geometry":{"coordinates":[24.782901,55.260045],"type":"Point"},"properties":{"osm_id":"5263352850","tag":{"amenity":"recycling","recycling_type":"container"}},"type":"Feature"},
	{"geometry":{"coordinates":[24.772801,55.255522],"type":"Point"},"properties":{"osm_id":"5263906190","tag":{"amenity":"recycling","recycling_type":"container"}},"type":"Feature"},
	{"geometry":{"coordinates":[24.777147,55.257894],"type":"Point"},"properties":{"osm_id":"5263906431","tag":{"amenity":"recycling","recycling_type":"container"}},"type":"Feature"},
	{"geometry":{"coordinates":[24.776959,55.240684],"type":"Point"},"properties":{"osm_id":"5277802749","tag":{"amenity":"recycling","recycling_type":"container"}},"type":"Feature"},
	{"geometry":{"coordinates":[24.784191,55.239027],"type":"Point"},"properties":{"osm_id":"5279327023","tag":{"amenity":"recycling","recycling_type":"container"}},"type":"Feature"},
	{"geometry":{"coordinates":[24.784061,55.238959],"type":"Point"},"properties":{"osm_id":"5279327024","tag":{"amenity":"recycling","recycling_type":"container"}},"type":"Feature"},
	{"geometry":{"coordinates":[24.77943,55.238034],"type":"Point"},"properties":{"osm_id":"5279327036","tag":{"amenity":"recycling","recycling_type":"container"}},"type":"Feature"},
	{"geometry":{"coordinates":[24.783307,55.241904],"type":"Point"},"properties":{"osm_id":"5279855265","tag":{"amenity":"recycling","recycling_type":"container"}},"type":"Feature"},
	{"geometry":{"coordinates":[24.783118,55.244044],"type":"Point"},"properties":{"osm_id":"5291697069","tag":{"amenity":"recycling","recycling_type":"container"}},"type":"Feature"},
	{"geometry":{"coordinates":[24.777802,55.234778],"type":"Point"},"properties":{"osm_id":"5292203450","tag":{"amenity":"recycling","recycling_type":"container"}},"type":"Feature"},
	{"geometry":{"coordinates":[24.769342,55.254381],"type":"Point"},"properties":{"osm_id":"5313371259","tag":{"amenity":"recycling","recycling_type":"container"}},"type":"Feature"},
	{"geometry":{"coordinates":[24.775974,55.259169],"type":"Point"},"properties":{"osm_id":"5319980884","tag":{"amenity":"recycling","recycling_type":"container"}},"type":"Feature"},
	{"geometry":{"coordinates":[24.773769,55.258385],"type":"Point"},"properties":{"osm_id":"5319982678","tag":{"amenity":"recycling","recycling_type":"container"}},"type":"Feature"},
	{"geometry":{"coordinates":[24.770895,55.251526],"type":"Point"},"properties":{"osm_id":"5321683824","tag":{"amenity":"recycling","recycling_type":"container"}},"type":"Feature"},
	{"geometry":{"coordinates":[24.764812,55.251374],"type":"Point"},"properties":{"osm_id":"5325593610","tag":{"amenity":"recycling","recycling_type":"container"}},"type":"Feature"},
	{"geometry":{"coordinates":[24.753638,55.248886],"type":"Point"},"properties":{"osm_id":"5340916069","tag":{"amenity":"recycling","recycling_type":"container"}},"type":"Feature"},
	{"geometry":{"coordinates":[24.746616,55.243201],"type":"Point"},"properties":{"osm_id":"5354947973","tag":{"amenity":"recycling","recycling_type":"container"}},"type":"Feature"},
	{"geometry":{"coordinates":[24.743113,55.24548],"type":"Point"},"properties":{"osm_id":"5354947989","tag":{"amenity":"recycling","recycling_type":"container"}},"type":"Feature"},
	{"geometry":{"coordinates":[24.743941,55.24336],"type":"Point"},"properties":{"osm_id":"5354947990","tag":{"amenity":"recycling","recycling:glass_bottles":"yes","recycling:paper":"no","recycling:plastic":"yes","recycling_type":"container"}},"type":"Feature"},
	{"geometry":{"coordinates":[24.734668,55.242963],"type":"Point"},"properties":{"barrier":"gate","osm_id":"5358672504"},"type":"Feature"}
]
}
