{
"type": "FeatureCollection",
"features": [
	{"geometry":{"coordinates":[24.716768,48.926154],"type":"Point"},"properties":{"osm_id":"2160005901","tag":{"amenity":"waste_disposal"}},"type":"Feature"},
	{"geometry":{"coordinates":[24.709627,48.927371],"type":"Point"},"properties":{"osm_id":"2431408801","tag":{"amenity":"waste_basket"}},"type":"Feature"},
	{"geometry":{"coordinates":[24.697408,48.945163],"type":"Point"},"properties":{"osm_id":"4297810592","tag":{"amenity":"waste_disposal"}},"type":"Feature"},
	{"geometry":{"coordinates":[24.697585,48.945169],"type":"Point"},"properties":{"name":"\u00d0\u009f\u00d1\u0083\u00d0\u00bd\u00d0\u00ba\u00d1\u0082 \u00d0\u00bf\u00d1\u0080\u00d0\u00b8\u00d0\u00b9\u00d0\u00be\u00d0\u00bc\u00d1\u0083 \u00d1\u0081\u00d0\u00ba\u00d0\u00bb\u00d0\u00be\u00d1\u0082\u00d0\u00b0\u00d1\u0080\u00d0\u00b8 \u00d1\u0082\u00d0\u00b0 \u00d0\u00bc\u00d0\u00b0\u00d0\u00ba\u00d1\u0083\u00d0\u00bb\u00d0\u00b0\u00d1\u0082\u00d1\u0083\u00d1\u0080\u00d0\u00b8","osm_id":"4298227389","tag":{"amenity":"recycling","recycling_type":"centre","wheelchair":"yes"}},"type":"Feature"},
	{"geometry":{"coordinates":[24.698904,48.933776],"type":"Point"},"properties":{"osm_id":"4705490791","tag":{"amenity":"waste_disposal"}},"type":"Feature"},
	{"geometry":{"coordinates":[24.69925,48.934831],"type":"Point"},"properties":{"osm_id":"4705490792","tag":{"amenity":"waste_disposal"}},"type":"Feature"},
	{"geometry":{"coordinates":[24.697824,48.933534],"type":"Point"},"properties":{"osm_id":"4705529090","tag":{"amenity":"waste_disposal"}},"type":"Feature"},
	{"geometry":{"coordinates":[24.699691,48.933037],"type":"Point"},"properties":{"osm_id":"4705529189","tag":{"amenity":"waste_disposal"}},"type":"Feature"},
	{"geometry":{"coordinates":[24.743567,48.937178],"type":"Point"},"properties":{"osm_id":"4787104921","tag":{"amenity":"waste_disposal"}},"type":"Feature"},
	{"geometry":{"coordinates":[24.747411,48.944443],"type":"Point"},"properties":{"osm_id":"4787789503","tag":{"amenity":"waste_disposal"}},"type":"Feature"},
	{"geometry":{"coordinates":[24.746268,48.94449],"type":"Point"},"properties":{"osm_id":"4787789504","tag":{"amenity":"waste_disposal"}},"type":"Feature"},
	{"geometry":{"coordinates":[24.747059,48.942179],"type":"Point"},"properties":{"osm_id":"4787794636","tag":{"amenity":"waste_disposal"}},"type":"Feature"},
	{"geometry":{"coordinates":[24.704439,48.933036],"type":"Point"},"properties":{"osm_id":"4826755688","tag":{"amenity":"waste_disposal"}},"type":"Feature"},
	{"geometry":{"coordinates":[24.702965,48.931962],"type":"Point"},"properties":{"osm_id":"4826755705","tag":{"amenity":"waste_disposal"}},"type":"Feature"},
	{"geometry":{"coordinates":[24.701632,48.9312],"type":"Point"},"properties":{"osm_id":"4827390575","tag":{"amenity":"waste_disposal"}},"type":"Feature"},
	{"geometry":{"coordinates":[24.702502,48.92976],"type":"Point"},"properties":{"osm_id":"4827390589","tag":{"amenity":"waste_disposal"}},"type":"Feature"},
	{"geometry":{"coordinates":[24.698679,48.930222],"type":"Point"},"properties":{"osm_id":"4827390607","tag":{"amenity":"waste_disposal"}},"type":"Feature"},
	{"geometry":{"coordinates":[24.699813,48.928222],"type":"Point"},"properties":{"osm_id":"4827392139","tag":{"amenity":"waste_disposal"}},"type":"Feature"},
	{"geometry":{"coordinates":[24.69853,48.928297],"type":"Point"},"properties":{"osm_id":"4827392166","tag":{"amenity":"waste_disposal"}},"type":"Feature"},
	{"geometry":{"coordinates":[24.736541,48.930454],"type":"Point"},"properties":{"osm_id":"4872496278","tag":{"amenity":"waste_disposal"}},"type":"Feature"},
	{"geometry":{"coordinates":[24.709121,48.937798],"type":"Point"},"properties":{"osm_id":"4888429601","tag":{"amenity":"waste_disposal"}},"type":"Feature"},
	{"geometry":{"coordinates":[24.706452,48.936009],"type":"Point"},"properties":{"osm_id":"4888429602","tag":{"amenity":"waste_disposal"}},"type":"Feature"},
	{"geometry":{"coordinates":[24.70742,48.934995],"type":"Point"},"properties":{"osm_id":"4888429609","tag":{"amenity":"waste_disposal"}},"type":"Feature"},
	{"geometry":{"coordinates":[24.72948,48.923532],"type":"Point"},"properties":{"osm_id":"4944019756","tag":{"amenity":"waste_disposal"}},"type":"Feature"},
	{"geometry":{"coordinates":[24.721203,48.926671],"type":"Point"},"properties":{"osm_id":"4944716889","tag":{"amenity":"waste_disposal"}},"type":"Feature"},
	{"geometry":{"coordinates":[24.750422,48.959329],"type":"Point"},"properties":{"osm_id":"4985718189","tag":{"amenity":"waste_disposal"}},"type":"Feature"},
	{"geometry":{"coordinates":[24.74183,48.928077],"type":"Point"},"properties":{"osm_id":"5024512004","tag":{"amenity":"waste_disposal"}},"type":"Feature"},
	{"geometry":{"coordinates":[24.737465,48.930779],"type":"Point"},"properties":{"osm_id":"5024512015","tag":{"amenity":"waste_basket"}},"type":"Feature"},
	{"geometry":{"coordinates":[24.737465,48.930797],"type":"Point"},"properties":{"osm_id":"5024512016","tag":{"amenity":"waste_basket"}},"type":"Feature"},
	{"geometry":{"coordinates":[24.754987,48.938024],"type":"Point"},"properties":{"osm_id":"5024660395","tag":{"amenity":"waste_disposal"}},"type":"Feature"},
	{"geometry":{"coordinates":[24.753777,48.934242],"type":"Point"},"properties":{"osm_id":"5024660396","tag":{"amenity":"waste_disposal"}},"type":"Feature"},
	{"geometry":{"coordinates":[24.741988,48.939391],"type":"Point"},"properties":{"osm_id":"5024660404","tag":{"amenity":"waste_disposal"}},"type":"Feature"},
	{"geometry":{"coordinates":[24.744579,48.936835],"type":"Point"},"properties":{"osm_id":"5024660407","tag":{"amenity":"waste_disposal"}},"type":"Feature"},
	{"geometry":{"coordinates":[24.746184,48.93825],"type":"Point"},"properties":{"osm_id":"5024660408","tag":{"amenity":"waste_disposal"}},"type":"Feature"},
	{"geometry":{"coordinates":[24.747626,48.939715],"type":"Point"},"properties":{"osm_id":"5024660409","tag":{"amenity":"waste_disposal"}},"type":"Feature"},
	{"geometry":{"coordinates":[24.743669,48.941057],"type":"Point"},"properties":{"osm_id":"5024660410","tag":{"amenity":"waste_disposal"}},"type":"Feature"},
	{"geometry":{"coordinates":[24.73104,48.932702],"type":"Point"},"properties":{"osm_id":"5024692871","tag":{"amenity":"waste_disposal"}},"type":"Feature"},
	{"geometry":{"coordinates":[24.7305,48.933825],"type":"Point"},"properties":{"osm_id":"5024692878","tag":{"amenity":"recycling","recycling:organic":"yes","recycling:paper":"yes","recycling:plastic":"yes","recycling_type":"container"}},"type":"Feature"},
	{"geometry":{"coordinates":[24.714332,48.928385],"type":"Point"},"properties":{"osm_id":"5026527841","tag":{"amenity":"waste_basket"}},"type":"Feature"},
	{"geometry":{"coordinates":[24.71452,48.928162],"type":"Point"},"properties":{"osm_id":"5026527843","tag":{"amenity":"waste_basket"}},"type":"Feature"},
	{"geometry":{"coordinates":[24.711117,48.923836],"type":"Point"},"properties":{"osm_id":"5026584669","tag":{"amenity":"waste_disposal"}},"type":"Feature"},
	{"geometry":{"coordinates":[24.720191,48.925758],"type":"Point"},"properties":{"osm_id":"5026710515","tag":{"amenity":"waste_basket"}},"type":"Feature"},
	{"geometry":{"coordinates":[24.714987,48.925281],"type":"Point"},"properties":{"osm_id":"5072313730","tag":{"amenity":"waste_basket"}},"type":"Feature"},
	{"geometry":{"coordinates":[24.715591,48.925654],"type":"Point"},"properties":{"osm_id":"5072313744","tag":{"amenity":"waste_basket"}},"type":"Feature"},
	{"geometry":{"coordinates":[24.719694,48.927273],"type":"Point"},"properties":{"osm_id":"5072313766","tag":{"amenity":"recycling","recycling:glass":"yes","recycling:plastic_bottles":"yes","recycling_type":"container"}},"type":"Feature"},
	{"geometry":{"coordinates":[24.719675,48.927298],"type":"Point"},"properties":{"osm_id":"5072313767","tag":{"amenity":"waste_disposal"}},"type":"Feature"},
	{"geometry":{"coordinates":[24.715944,48.924448],"type":"Point"},"properties":{"osm_id":"5072313797","tag":{"amenity":"waste_basket"}},"type":"Feature"},
	{"geometry":{"coordinates":[24.716306,48.925401],"type":"Point"},"properties":{"osm_id":"5072313821","tag":{"amenity":"waste_basket"}},"type":"Feature"},
	{"geometry":{"coordinates":[24.720111,48.928729],"type":"Point"},"properties":{"osm_id":"5072313845","tag":{"amenity":"waste_disposal"}},"type":"Feature"},
	{"geometry":{"coordinates":[24.719997,48.928755],"type":"Point"},"properties":{"osm_id":"5072313848","tag":{"amenity":"waste_basket"}},"type":"Feature"},
	{"geometry":{"coordinates":[24.709555,48.925727],"type":"Point"},"properties":{"osm_id":"5072328631","tag":{"amenity":"waste_basket"}},"type":"Feature"},
	{"geometry":{"coordinates":[24.709523,48.925961],"type":"Point"},"properties":{"osm_id":"5072328640","tag":{"amenity":"waste_basket"}},"type":"Feature"},
	{"geometry":{"coordinates":[24.70942,48.926432],"type":"Point"},"properties":{"osm_id":"5072328642","tag":{"amenity":"waste_basket"}},"type":"Feature"},
	{"geometry":{"coordinates":[24.709478,48.926234],"type":"Point"},"properties":{"osm_id":"5072328644","tag":{"amenity":"waste_basket"}},"type":"Feature"},
	{"geometry":{"coordinates":[24.709371,48.92697],"type":"Point"},"properties":{"osm_id":"5072328646","tag":{"amenity":"waste_basket"}},"type":"Feature"},
	{"geometry":{"coordinates":[24.70909,48.929004],"type":"Point"},"properties":{"osm_id":"5072328669","tag":{"amenity":"waste_basket"}},"type":"Feature"},
	{"geometry":{"coordinates":[24.709114,48.928864],"type":"Point"},"properties":{"osm_id":"5072328671","tag":{"amenity":"waste_basket"}},"type":"Feature"},
	{"geometry":{"coordinates":[24.709134,48.928751],"type":"Point"},"properties":{"osm_id":"5072328673","tag":{"amenity":"waste_basket"}},"type":"Feature"},
	{"geometry":{"coordinates":[24.705962,48.934743],"type":"Point"},"properties":{"osm_id":"5072328694","tag":{"amenity":"waste_basket"}},"type":"Feature"},
	{"geometry":{"coordinates":[24.70583,48.935169],"type":"Point"},"properties":{"osm_id":"5072328697","tag":{"amenity":"waste_basket"}},"type":"Feature"},
	{"geometry":{"coordinates":[24.706763,48.934522],"type":"Point"},"properties":{"osm_id":"5072328703","tag":{"amenity":"waste_basket"}},"type":"Feature"},
	{"geometry":{"coordinates":[24.707266,48.933398],"type":"Point"},"properties":{"osm_id":"5072328716","tag":{"amenity":"waste_basket"}},"type":"Feature"},
	{"geometry":{"coordinates":[24.707532,48.932789],"type":"Point"},"properties":{"osm_id":"5072328733","tag":{"amenity":"waste_basket"}},"type":"Feature"},
	{"geometry":{"coordinates":[24.717083,48.923965],"type":"Point"},"properties":{"osm_id":"5135624718","tag":{"amenity":"waste_disposal"}},"type":"Feature"},
	{"geometry":{"coordinates":[24.722572,48.9271],"type":"Point"},"properties":{"osm_id":"5135643903","tag":{"amenity":"waste_basket"}},"type":"Feature"},
	{"geometry":{"coordinates":[24.722329,48.927537],"type":"Point"},"properties":{"osm_id":"5135643904","tag":{"amenity":"waste_basket"}},"type":"Feature"},
	{"geometry":{"coordinates":[24.721011,48.922524],"type":"Point"},"properties":{"osm_id":"5135660449","tag":{"amenity":"waste_basket"}},"type":"Feature"},
	{"geometry":{"coordinates":[24.722319,48.925818],"type":"Point"},"properties":{"osm_id":"5137800533","tag":{"amenity":"waste_basket"}},"type":"Feature"},
	{"geometry":{"coordinates":[24.721977,48.924021],"type":"Point"},"properties":{"osm_id":"5137800555","tag":{"amenity":"recycling","recycling:plastic":"yes","recycling_type":"container"}},"type":"Feature"},
	{"geometry":{"coordinates":[24.722025,48.924081],"type":"Point"},"properties":{"osm_id":"5137800556","tag":{"amenity":"waste_disposal"}},"type":"Feature"},
	{"geometry":{"coordinates":[24.722199,48.92524],"type":"Point"},"properties":{"osm_id":"5137800574","tag":{"amenity":"recycling","opening_hours":"Mo-Fr 8:00-16:00; Su 9:00-13:00","recycling:glass":"yes","recycling:paper":"yes","recycling_type":"centre","wheelchair":"yes"}},"type":"Feature"},
	{"geometry":{"coordinates":[24.716261,48.928825],"type":"Point"},"properties":{"osm_id":"5137809846","tag":{"amenity":"waste_basket"}},"type":"Feature"},
	{"geometry":{"coordinates":[24.709808,48.926647],"type":"Point"},"properties":{"osm_id":"5138405131","tag":{"amenity":"waste_basket"}},"type":"Feature"},
	{"geometry":{"coordinates":[24.70983,48.92631],"type":"Point"},"properties":{"osm_id":"5138405138","tag":{"amenity":"waste_basket"}},"type":"Feature"},
	{"geometry":{"coordinates":[24.709842,48.926136],"type":"Point"},"properties":{"osm_id":"5138405143","tag":{"amenity":"waste_basket"}},"type":"Feature"},
	{"geometry":{"coordinates":[24.735611,48.931369],"type":"Point"},"properties":{"osm_id":"5200934885","tag":{"amenity":"waste_basket"}},"type":"Feature"},
	{"geometry":{"coordinates":[24.715326,48.924504],"type":"Point"},"properties":{"osm_id":"5202592223","tag":{"amenity":"waste_basket"}},"type":"Feature"},
	{"geometry":{"coordinates":[24.715592,48.924436],"type":"Point"},"properties":{"osm_id":"5202592224","tag":{"amenity":"waste_basket"}},"type":"Feature"},
	{"geometry":{"coordinates":[24.71565,48.924421],"type":"Point"},"properties":{"osm_id":"5202592226","tag":{"amenity":"waste_basket"}},"type":"Feature"},
	{"geometry":{"coordinates":[24.715773,48.924369],"type":"Point"},"properties":{"osm_id":"5202592228","tag":{"amenity":"waste_basket"}},"type":"Feature"},
	{"geometry":{"coordinates":[24.714734,48.92467],"type":"Point"},"properties":{"osm_id":"5202592230","tag":{"amenity":"waste_basket"}},"type":"Feature"},
	{"geometry":{"coordinates":[24.714621,48.92466],"type":"Point"},"properties":{"osm_id":"5202592231","tag":{"amenity":"waste_basket"}},"type":"Feature"},
	{"geometry":{"coordinates":[24.714514,48.924691],"type":"Point"},"properties":{"osm_id":"5202592232","tag":{"amenity":"waste_basket"}},"type":"Feature"},
	{"geometry":{"coordinates":[24.714449,48.92475],"type":"Point"},"properties":{"osm_id":"5202592233","tag":{"amenity":"waste_basket"}},"type":"Feature"},
	{"geometry":{"coordinates":[24.714439,48.924825],"type":"Point"},"properties":{"osm_id":"5202592234","tag":{"amenity":"waste_basket"}},"type":"Feature"},
	{"geometry":{"coordinates":[24.714488,48.924894],"type":"Point"},"properties":{"osm_id":"5202592235","tag":{"amenity":"waste_basket"}},"type":"Feature"},
	{"geometry":{"coordinates":[24.714384,48.925109],"type":"Point"},"properties":{"osm_id":"5202592242","tag":{"amenity":"waste_basket"}},"type":"Feature"},
	{"geometry":{"coordinates":[24.714408,48.924999],"type":"Point"},"properties":{"osm_id":"5202592243","tag":{"amenity":"waste_basket"}},"type":"Feature"},
	{"geometry":{"coordinates":[24.707056,48.936684],"type":"Point"},"properties":{"osm_id":"5202845004","tag":{"amenity":"waste_basket"}},"type":"Feature"},
	{"geometry":{"coordinates":[24.716265,48.93686],"type":"Point"},"properties":{"osm_id":"5202845563","tag":{"amenity":"waste_basket"}},"type":"Feature"},
	{"geometry":{"coordinates":[24.707992,48.929075],"type":"Point"},"properties":{"osm_id":"5203156644","tag":{"amenity":"waste_basket"}},"type":"Feature"},
	{"geometry":{"coordinates":[24.704778,48.927498],"type":"Point"},"properties":{"osm_id":"5203340579","tag":{"amenity":"waste_basket"}},"type":"Feature"},
	{"geometry":{"coordinates":[24.704467,48.926993],"type":"Point"},"properties":{"osm_id":"5203340585","tag":{"amenity":"waste_basket"}},"type":"Feature"},
	{"geometry":{"coordinates":[24.704527,48.92709],"type":"Point"},"properties":{"osm_id":"5203340587","tag":{"amenity":"waste_basket"}},"type":"Feature"},
	{"geometry":{"coordinates":[24.704686,48.927348],"type":"Point"},"properties":{"osm_id":"5203340592","tag":{"amenity":"waste_basket"}},"type":"Feature"},
	{"geometry":{"coordinates":[24.70493,48.927744],"type":"Point"},"properties":{"osm_id":"5203340599","tag":{"amenity":"waste_basket"}},"type":"Feature"},
	{"geometry":{"coordinates":[24.705015,48.927883],"type":"Point"},"properties":{"osm_id":"5203340601","tag":{"amenity":"waste_basket"}},"type":"Feature"},
	{"geometry":{"coordinates":[24.705214,48.928206],"type":"Point"},"properties":{"osm_id":"5203340607","tag":{"amenity":"waste_basket"}},"type":"Feature"},
	{"geometry":{"coordinates":[24.705383,48.928461],"type":"Point"},"properties":{"osm_id":"5203340609","tag":{"amenity":"waste_basket"}},"type":"Feature"},
	{"geometry":{"coordinates":[24.705616,48.928467],"type":"Point"},"properties":{"osm_id":"5203340615","tag":{"amenity":"waste_disposal"}},"type":"Feature"},
	{"geometry":{"coordinates":[24.700761,48.933819],"type":"Point"},"properties":{"osm_id":"5227095465","tag":{"amenity":"waste_disposal"}},"type":"Feature"},
	{"geometry":{"coordinates":[24.700925,48.934205],"type":"Point"},"properties":{"osm_id":"5227095467","tag":{"amenity":"waste_disposal"}},"type":"Feature"},
	{"geometry":{"coordinates":[24.704441,48.929799],"type":"Point"},"properties":{"osm_id":"5227113450","tag":{"amenity":"waste_basket"}},"type":"Feature"},
	{"geometry":{"coordinates":[24.70273,48.931377],"type":"Point"},"properties":{"osm_id":"5227113457","tag":{"amenity":"waste_basket"}},"type":"Feature"},
	{"geometry":{"coordinates":[24.718939,48.926499],"type":"Point"},"properties":{"osm_id":"5256747209","tag":{"amenity":"waste_basket"}},"type":"Feature"},
	{"geometry":{"coordinates":[24.71174,48.930883],"type":"Point"},"properties":{"osm_id":"5269665621","tag":{"amenity":"waste_disposal"}},"type":"Feature"},
	{"geometry":{"coordinates":[24.710339,48.931016],"type":"Point"},"properties":{"osm_id":"5271341221","tag":{"amenity":"waste_disposal"}},"type":"Feature"},
	{"geometry":{"coordinates":[24.72279,48.924998],"type":"Point"},"properties":{"osm_id":"5274900566","tag":{"amenity":"waste_basket"}},"type":"Feature"},
	{"geometry":{"coordinates":[24.711909,48.924394],"type":"Point"},"properties":{"osm_id":"5314092474","tag":{"amenity":"waste_basket"}},"type":"Feature"},
	{"geometry":{"coordinates":[24.714599,48.926987],"type":"Point"},"properties":{"osm_id":"5314092482","tag":{"amenity":"waste_basket"}},"type":"Feature"},
	{"geometry":{"coordinates":[24.712485,48.930278],"type":"Point"},"properties":{"osm_id":"5314092485","tag":{"amenity":"recycling","recycling:paper":"yes","recycling_type":"container"}},"type":"Feature"},
	{"geometry":{"coordinates":[24.731068,48.934046],"type":"Point"},"properties":{"osm_id":"5314092489","tag":{"amenity":"waste_basket"}},"type":"Feature"},
	{"geometry":{"coordinates":[24.73116,48.9341],"type":"Point"},"properties":{"osm_id":"5314092490","tag":{"amenity":"waste_basket"}},"type":"Feature"},
	{"geometry":{"coordinates":[24.718833,48.926725],"type":"Point"},"properties":{"osm_id":"5314092492","tag":{"amenity":"waste_basket"}},"type":"Feature"},
	{"geometry":{"coordinates":[24.72074,48.927888],"type":"Point"},"properties":{"osm_id":"5314092497","tag":{"amenity":"recycling","building":"kiosk","recycling:paper":"yes","recycling_type":"container","wheelchair":"yes"}},"type":"Feature"},
	{"geometry":{"coordinates":[24.710296,48.923598],"type":"Point"},"properties":{"osm_id":"5330130186","tag":{"amenity":"waste_basket"}},"type":"Feature"},
	{"geometry":{"coordinates":[24.711315,48.923456],"type":"Point"},"properties":{"osm_id":"5330130195","tag":{"amenity":"waste_basket"}},"type":"Feature"},
	{"geometry":{"coordinates":[24.711368,48.923496],"type":"Point"},"properties":{"osm_id":"5330130196","tag":{"amenity":"waste_basket"}},"type":"Feature"},
	{"geometry":{"coordinates":[24.711137,48.923475],"type":"Point"},"properties":{"osm_id":"5330130198","tag":{"amenity":"waste_basket"}},"type":"Feature"},
	{"geometry":{"coordinates":[24.710387,48.923588],"type":"Point"},"properties":{"osm_id":"5330130201","tag":{"amenity":"waste_basket"}},"type":"Feature"},
	{"geometry":{"coordinates":[24.710219,48.923607],"type":"Point"},"properties":{"osm_id":"5330130206","tag":{"amenity":"waste_basket"}},"type":"Feature"},
	{"geometry":{"coordinates":[24.710672,48.923556],"type":"Point"},"properties":{"osm_id":"5330130208","tag":{"amenity":"waste_basket"}},"type":"Feature"},
	{"geometry":{"coordinates":[24.71028,48.923654],"type":"Point"},"properties":{"osm_id":"5330130217","tag":{"amenity":"waste_basket"}},"type":"Feature"},
	{"geometry":{"coordinates":[24.710409,48.923644],"type":"Point"},"properties":{"osm_id":"5330130220","tag":{"amenity":"waste_basket"}},"type":"Feature"},
	{"geometry":{"coordinates":[24.71059,48.923625],"type":"Point"},"properties":{"osm_id":"5330130721","tag":{"amenity":"waste_basket"}},"type":"Feature"},
	{"geometry":{"coordinates":[24.710918,48.92358],"type":"Point"},"properties":{"osm_id":"5330130724","tag":{"amenity":"waste_basket"}},"type":"Feature"},
	{"geometry":{"coordinates":[24.711056,48.923557],"type":"Point"},"properties":{"osm_id":"5330130727","tag":{"amenity":"waste_basket"}},"type":"Feature"},
	{"geometry":{"coordinates":[24.729596,48.935218],"type":"Point"},"properties":{"osm_id":"5418388136","tag":{"amenity":"waste_disposal"}},"type":"Feature"},
	{"geometry":{"coordinates":[24.735231,48.937179],"type":"Point"},"properties":{"osm_id":"5443940936","tag":{"amenity":"waste_disposal"}},"type":"Feature"},
	{"geometry":{"coordinates":[24.711016,48.922543],"type":"Point"},"properties":{"osm_id":"5443940942","tag":{"amenity":"waste_basket"}},"type":"Feature"},
	{"geometry":{"coordinates":[24.7302,48.933352],"type":"Point"},"properties":{"osm_id":"5443940980","tag":{"amenity":"waste_basket"}},"type":"Feature"},
	{"geometry":{"coordinates":[24.742542,48.933033],"type":"Point"},"properties":{"osm_id":"5443940986","tag":{"amenity":"recycling","recycling:glass":"yes","recycling:plastic":"yes","recycling_type":"container"}},"type":"Feature"},
	{"geometry":{"coordinates":[24.72952,48.928566],"type":"Point"},"properties":{"osm_id":"5443940989","tag":{"amenity":"recycling","recycling:plastic":"yes","recycling_type":"container"}},"type":"Feature"},
	{"geometry":{"coordinates":[24.734878,48.931317],"type":"Point"},"properties":{"osm_id":"5443940990","tag":{"amenity":"waste_basket"}},"type":"Feature"},
	{"geometry":{"coordinates":[24.743241,48.942899],"type":"Point"},"properties":{"osm_id":"5510309539","tag":{"amenity":"waste_basket"}},"type":"Feature"},
	{"geometry":{"coordinates":[24.744681,48.943519],"type":"Point"},"properties":{"osm_id":"5510309542","tag":{"amenity":"waste_basket"}},"type":"Feature"},
	{"geometry":{"coordinates":[24.743368,48.942969],"type":"Point"},"properties":{"osm_id":"5510309544","tag":{"amenity":"waste_basket"}},"type":"Feature"},
	{"geometry":{"coordinates":[24.743059,48.942425],"type":"Point"},"properties":{"osm_id":"5510309546","tag":{"amenity":"waste_basket"}},"type":"Feature"},
	{"geometry":{"coordinates":[24.742374,48.942124],"type":"Point"},"properties":{"osm_id":"5510309553","tag":{"amenity":"waste_basket"}},"type":"Feature"},
	{"geometry":{"coordinates":[24.739132,48.939325],"type":"Point"},"properties":{"osm_id":"5510309569","tag":{"amenity":"waste_basket"}},"type":"Feature"},
	{"geometry":{"coordinates":[24.739038,48.939241],"type":"Point"},"properties":{"osm_id":"5510309570","tag":{"amenity":"waste_basket"}},"type":"Feature"},
	{"geometry":{"coordinates":[24.740583,48.940362],"type":"Point"},"properties":{"osm_id":"5510309581","tag":{"amenity":"waste_basket"}},"type":"Feature"},
	{"geometry":{"coordinates":[24.740639,48.94041],"type":"Point"},"properties":{"osm_id":"5510309582","tag":{"amenity":"waste_basket"}},"type":"Feature"},
	{"geometry":{"coordinates":[24.747084,48.944892],"type":"Point"},"properties":{"osm_id":"5510550252","tag":{"amenity":"waste_basket"}},"type":"Feature"},
	{"geometry":{"coordinates":[24.734419,48.938738],"type":"Point"},"properties":{"osm_id":"5519250136","tag":{"amenity":"waste_disposal"}},"type":"Feature"},
	{"geometry":{"coordinates":[24.734446,48.938762],"type":"Point"},"properties":{"osm_id":"5519250137","tag":{"amenity":"recycling","recycling:plastic_bottles":"yes","recycling_type":"container"}},"type":"Feature"},
	{"geometry":{"coordinates":[24.700403,48.926887],"type":"Point"},"properties":{"osm_id":"5519487988","tag":{"amenity":"waste_basket"}},"type":"Feature"},
	{"geometry":{"coordinates":[24.700737,48.926798],"type":"Point"},"properties":{"osm_id":"5519487993","tag":{"amenity":"waste_basket"}},"type":"Feature"},
	{"geometry":{"coordinates":[24.723972,48.942583],"type":"Point"},"properties":{"name":"\u00d0\u00bf\u00d1\u0080\u00d0\u00b8\u00d0\u00b9\u00d0\u00be\u00d0\u00bc \u00d0\u00b2\u00d0\u00b5\u00d0\u00bb\u00d0\u00b8\u00d0\u00ba\u00d0\u00be\u00d0\u00b3\u00d0\u00b0\u00d0\u00b1\u00d0\u00b0\u00d1\u0080\u00d0\u00b8\u00d1\u0082\u00d0\u00bd\u00d0\u00b8\u00d1\u0085 \u00d0\u00b2\u00d1\u0096\u00d0\u00b4\u00d1\u0085\u00d0\u00be\u00d0\u00b4\u00d1\u0096\u00d0\u00b2","osm_id":"5519489138","tag":{"amenity":"recycling","opening_hours":"Mo-Sa 9:00-18:00","recycling_type":"centre"}},"type":"Feature"},
	{"geometry":{"coordinates":[24.702265,48.927417],"type":"Point"},"properties":{"osm_id":"5519493479","tag":{"amenity":"waste_disposal"}},"type":"Feature"},
	{"geometry":{"coordinates":[24.702213,48.927433],"type":"Point"},"properties":{"osm_id":"5519493487","tag":{"amenity":"recycling","recycling:plastic_bottles":"yes","recycling_type":"container"}},"type":"Feature"},
	{"geometry":{"coordinates":[24.750804,48.938021],"type":"Point"},"properties":{"osm_id":"5519493489","tag":{"amenity":"recycling","recycling:glass":"yes","recycling:plastic_bottles":"yes","recycling_type":"container"}},"type":"Feature"},
	{"geometry":{"coordinates":[24.749886,48.937478],"type":"Point"},"properties":{"osm_id":"5519493499","tag":{"amenity":"recycling","recycling:plastic_bottles":"yes","recycling_type":"container"}},"type":"Feature"},
	{"geometry":{"coordinates":[24.737822,48.927204],"type":"Point"},"properties":{"osm_id":"5589171749","tag":{"amenity":"recycling","recycling:plastic_bottles":"yes","recycling_type":"container"}},"type":"Feature"},
	{"geometry":{"coordinates":[24.737724,48.92719],"type":"Point"},"properties":{"osm_id":"5589171761","tag":{"amenity":"waste_disposal"}},"type":"Feature"},
	{"geometry":{"coordinates":[24.72599,48.931513],"type":"Point"},"properties":{"osm_id":"5589171769","tag":{"amenity":"waste_disposal"}},"type":"Feature"},
	{"geometry":{"coordinates":[24.721056,48.925817],"type":"Point"},"properties":{"osm_id":"5589175242","tag":{"amenity":"waste_basket"}},"type":"Feature"},
	{"geometry":{"coordinates":[24.729562,48.928533],"type":"Point"},"properties":{"osm_id":"5603930506","tag":{"amenity":"waste_disposal"}},"type":"Feature"},
	{"geometry":{"coordinates":[24.724386,48.935004],"type":"Point"},"properties":{"osm_id":"5603930507","tag":{"amenity":"waste_disposal"}},"type":"Feature"},
	{"geometry":{"coordinates":[24.719187,48.936804],"type":"Point"},"properties":{"osm_id":"5603930508","tag":{"amenity":"waste_disposal"}},"type":"Feature"},
	{"geometry":{"coordinates":[24.720944,48.932734],"type":"Point"},"properties":{"osm_id":"5603930509","tag":{"amenity":"waste_disposal"}},"type":"Feature"},
	{"geometry":{"coordinates":[24.721444,48.93143],"type":"Point"},"properties":{"osm_id":"5603930510","tag":{"amenity":"waste_disposal"}},"type":"Feature"},
	{"geometry":{"coordinates":[24.721882,48.928015],"type":"Point"},"properties":{"osm_id":"5635923322","tag":{"amenity":"waste_basket"}},"type":"Feature"},
	{"geometry":{"coordinates":[24.721931,48.927975],"type":"Point"},"properties":{"osm_id":"5635923323","tag":{"amenity":"waste_basket"}},"type":"Feature"},
	{"geometry":{"coordinates":[24.710604,48.926367],"type":"Point"},"properties":{"osm_id":"5635923325","tag":{"amenity":"waste_disposal"}},"type":"Feature"},
	{"geometry":{"coordinates":[24.712151,48.923206],"type":"Point"},"properties":{"osm_id":"5635923330","tag":{"amenity":"waste_disposal"}},"type":"Feature"},
	{"geometry":{"coordinates":[24.746257,48.938313],"type":"Point"},"properties":{"osm_id":"5654765698","tag":{"amenity":"recycling","recycling:plastic_bottles":"yes","recycling_type":"container"}},"type":"Feature"},
	{"geometry":{"coordinates":[24.744634,48.936882],"type":"Point"},"properties":{"osm_id":"5654765707","tag":{"amenity":"recycling","recycling:plastic_bottles":"yes","recycling_type":"container"}},"type":"Feature"},
	{"geometry":{"coordinates":[24.747692,48.939776],"type":"Point"},"properties":{"osm_id":"5654765710","tag":{"amenity":"recycling","recycling:plastic_bottles":"yes","recycling_type":"container"}},"type":"Feature"},
	{"geometry":{"coordinates":[24.74262,48.933033],"type":"Point"},"properties":{"osm_id":"5654765715","tag":{"amenity":"waste_disposal"}},"type":"Feature"},
	{"geometry":{"coordinates":[24.711073,48.927447],"type":"Point"},"properties":{"osm_id":"5753531051","tag":{"amenity":"waste_disposal"}},"type":"Feature"},
	{"geometry":{"coordinates":[24.70658,48.922708],"type":"Point"},"properties":{"osm_id":"5798146321","tag":{"amenity":"waste_basket"}},"type":"Feature"},
	{"geometry":{"coordinates":[24.706541,48.922659],"type":"Point"},"properties":{"osm_id":"5798146322","tag":{"amenity":"waste_basket"}},"type":"Feature"},
	{"geometry":{"coordinates":[24.708587,48.924809],"type":"Point"},"properties":{"osm_id":"5798146337","tag":{"amenity":"waste_basket"}},"type":"Feature"},
	{"geometry":{"coordinates":[24.739418,48.937367],"type":"Point"},"properties":{"osm_id":"5886968796","tag":{"amenity":"waste_basket"}},"type":"Feature"},
	{"geometry":{"coordinates":[24.699569,48.924016],"type":"Point"},"properties":{"osm_id":"5941367871","tag":{"amenity":"waste_disposal"}},"type":"Feature"},
	{"geometry":{"coordinates":[24.743204,48.933597],"type":"Point"},"properties":{"osm_id":"5941429752","tag":{"amenity":"waste_disposal"}},"type":"Feature"},
	{"geometry":{"coordinates":[24.743205,48.933564],"type":"Point"},"properties":{"osm_id":"5941429753","tag":{"amenity":"recycling","recycling:plastic_bottles":"yes","recycling_type":"container"}},"type":"Feature"},
	{"geometry":{"coordinates":[24.746298,48.933668],"type":"Point"},"properties":{"osm_id":"6111442466","tag":{"amenity":"waste_basket"}},"type":"Feature"},
	{"geometry":{"coordinates":[24.706876,48.927893],"type":"Point"},"properties":{"osm_id":"6175354899","tag":{"amenity":"waste_disposal"}},"type":"Feature"},
	{"geometry":{"coordinates":[24.746254,48.933559],"type":"Point"},"properties":{"osm_id":"6175354919","tag":{"amenity":"waste_basket"}},"type":"Feature"},
	{"geometry":{"coordinates":[24.749665,48.932145],"type":"Point"},"properties":{"osm_id":"6309136023","tag":{"amenity":"waste_disposal"}},"type":"Feature"},
	{"geometry":{"coordinates":[24.741513,48.931],"type":"Point"},"properties":{"osm_id":"6309265405","tag":{"amenity":"recycling","recycling:plastic_bottles":"yes","recycling_type":"container"}},"type":"Feature"},
	{"geometry":{"coordinates":[24.741396,48.930999],"type":"Point"},"properties":{"osm_id":"6309265406","tag":{"amenity":"waste_disposal"}},"type":"Feature"},
	{"geometry":{"coordinates":[24.740353,48.930763],"type":"Point"},"properties":{"osm_id":"6309265407","tag":{"amenity":"recycling","recycling:plastic_bottles":"yes","recycling_type":"container"}},"type":"Feature"},
	{"geometry":{"coordinates":[24.740354,48.930709],"type":"Point"},"properties":{"osm_id":"6309265408","tag":{"amenity":"waste_disposal"}},"type":"Feature"},
	{"geometry":{"coordinates":[24.741958,48.939364],"type":"Point"},"properties":{"osm_id":"6309265432","tag":{"amenity":"recycling","recycling:glass":"yes","recycling:plastic_bottles":"yes","recycling_type":"container"}},"type":"Feature"},
	{"geometry":{"coordinates":[24.74038,48.92519],"type":"Point"},"properties":{"osm_id":"6309265504","tag":{"amenity":"waste_basket"}},"type":"Feature"},
	{"geometry":{"coordinates":[24.737258,48.927313],"type":"Point"},"properties":{"osm_id":"6309265515","tag":{"amenity":"waste_basket"}},"type":"Feature"},
	{"geometry":{"coordinates":[24.737418,48.927225],"type":"Point"},"properties":{"osm_id":"6309265517","tag":{"amenity":"waste_basket"}},"type":"Feature"},
	{"geometry":{"coordinates":[24.741299,48.928722],"type":"Point"},"properties":{"osm_id":"6309265520","tag":{"amenity":"waste_basket"}},"type":"Feature"},
	{"geometry":{"coordinates":[24.740706,48.931817],"type":"Point"},"properties":{"osm_id":"6309265521","tag":{"amenity":"waste_basket"}},"type":"Feature"},
	{"geometry":{"coordinates":[24.732336,48.933826],"type":"Point"},"properties":{"osm_id":"6309265524","tag":{"amenity":"waste_disposal"}},"type":"Feature"},
	{"geometry":{"coordinates":[24.746221,48.937948],"type":"Point"},"properties":{"osm_id":"6936061038","tag":{"amenity":"waste_basket"}},"type":"Feature"},
	{"geometry":{"coordinates":[24.738767,48.940071],"type":"Point"},"properties":{"osm_id":"6936061040","tag":{"amenity":"waste_disposal"}},"type":"Feature"},
	{"geometry":{"coordinates":[24.738793,48.940093],"type":"Point"},"properties":{"osm_id":"6936061041","tag":{"amenity":"recycling","recycling:plastic_bottles":"yes","recycling_type":"container"}},"type":"Feature"},
	{"geometry":{"coordinates":[24.698429,48.924717],"type":"Point"},"properties":{"osm_id":"6936061060","tag":{"amenity":"waste_basket"}},"type":"Feature"},
	{"geometry":{"coordinates":[24.731225,48.934786],"type":"Point"},"properties":{"osm_id":"6936061100","tag":{"amenity":"waste_disposal"}},"type":"Feature"},
	{"geometry":{"coordinates":[24.731155,48.934788],"type":"Point"},"properties":{"osm_id":"6936061101","tag":{"amenity":"recycling","recycling:plastic_bottles":"yes","recycling_type":"container"}},"type":"Feature"},
	{"geometry":{"coordinates":[24.734955,48.934894],"type":"Point"},"properties":{"osm_id":"6936061103","tag":{"amenity":"waste_disposal"}},"type":"Feature"},
	{"geometry":{"coordinates":[24.734902,48.93491],"type":"Point"},"properties":{"osm_id":"6936061104","tag":{"amenity":"recycling","recycling:plastic_bottles":"yes","recycling_type":"container"}},"type":"Feature"},
	{"geometry":{"coordinates":[24.736155,48.934534],"type":"Point"},"properties":{"osm_id":"6936061105","tag":{"amenity":"recycling","recycling:plastic_bottles":"yes","recycling_type":"container"}},"type":"Feature"},
	{"geometry":{"coordinates":[24.736208,48.934517],"type":"Point"},"properties":{"osm_id":"6936061106","tag":{"amenity":"waste_disposal"}},"type":"Feature"},
	{"geometry":{"coordinates":[24.738182,48.937558],"type":"Point"},"properties":{"osm_id":"6936061130","tag":{"amenity":"waste_disposal"}},"type":"Feature"},
	{"geometry":{"coordinates":[24.738125,48.937577],"type":"Point"},"properties":{"osm_id":"6936061131","tag":{"amenity":"recycling","recycling:plastic_bottles":"yes","recycling_type":"container"}},"type":"Feature"},
	{"geometry":{"coordinates":[24.73902,48.938215],"type":"Point"},"properties":{"osm_id":"6936061132","tag":{"amenity":"waste_basket"}},"type":"Feature"},
	{"geometry":{"coordinates":[24.735818,48.935705],"type":"Point"},"properties":{"osm_id":"6936061139","tag":{"amenity":"waste_disposal"}},"type":"Feature"},
	{"geometry":{"coordinates":[24.735848,48.93573],"type":"Point"},"properties":{"osm_id":"6936061140","tag":{"amenity":"recycling","recycling:plastic_bottles":"yes","recycling_type":"container"}},"type":"Feature"},
	{"geometry":{"coordinates":[24.724278,48.929198],"type":"Point"},"properties":{"osm_id":"6936061199","tag":{"amenity":"waste_disposal"}},"type":"Feature"},
	{"geometry":{"coordinates":[24.724137,48.929461],"type":"Point"},"properties":{"osm_id":"6936061208","tag":{"amenity":"waste_basket"}},"type":"Feature"},
	{"geometry":{"coordinates":[24.747698,48.934674],"type":"Point"},"properties":{"osm_id":"7441691046","tag":{"amenity":"waste_basket"}},"type":"Feature"},
	{"geometry":{"coordinates":[24.747929,48.934669],"type":"Point"},"properties":{"osm_id":"7441691047","tag":{"amenity":"waste_basket"}},"type":"Feature"},
	{"geometry":{"coordinates":[24.748077,48.934682],"type":"Point"},"properties":{"osm_id":"7441691048","tag":{"amenity":"waste_basket"}},"type":"Feature"},
	{"geometry":{"coordinates":[24.748194,48.934694],"type":"Point"},"properties":{"osm_id":"7441691049","tag":{"amenity":"waste_basket"}},"type":"Feature"},
	{"geometry":{"coordinates":[24.747589,48.934668],"type":"Point"},"properties":{"osm_id":"7441691050","tag":{"amenity":"waste_basket"}},"type":"Feature"},
	{"geometry":{"coordinates":[24.747475,48.934643],"type":"Point"},"properties":{"osm_id":"7441691052","tag":{"amenity":"waste_basket"}},"type":"Feature"}
]
}
