{
"type": "FeatureCollection",
"features": [
	{"geometry":{"coordinates":[24.715034,48.916037],"type":"Point"},"properties":{"osm_id":"3522298754","tag":{"amenity":"waste_disposal"}},"type":"Feature"},
	{"geometry":{"coordinates":[24.702193,48.918718],"type":"Point"},"properties":{"osm_id":"4171426063","tag":{"amenity":"recycling","recycling_type":"container"}},"type":"Feature"},
	{"geometry":{"coordinates":[24.744697,48.909446],"type":"Point"},"properties":{"osm_id":"4576910597","tag":{"amenity":"waste_disposal"}},"type":"Feature"},
	{"geometry":{"coordinates":[24.70062,48.916424],"type":"Point"},"properties":{"osm_id":"4705529089","tag":{"amenity":"waste_disposal"}},"type":"Feature"},
	{"geometry":{"coordinates":[24.70232,48.919718],"type":"Point"},"properties":{"osm_id":"4792284142","tag":{"amenity":"waste_disposal"}},"type":"Feature"},
	{"geometry":{"coordinates":[24.699903,48.919802],"type":"Point"},"properties":{"osm_id":"4792284143","tag":{"amenity":"waste_disposal"}},"type":"Feature"},
	{"geometry":{"coordinates":[24.70088,48.918347],"type":"Point"},"properties":{"osm_id":"4792284165","tag":{"amenity":"waste_disposal"}},"type":"Feature"},
	{"geometry":{"coordinates":[24.6998,48.918196],"type":"Point"},"properties":{"osm_id":"4792284194","tag":{"amenity":"waste_disposal"}},"type":"Feature"},
	{"geometry":{"coordinates":[24.701478,48.92232],"type":"Point"},"properties":{"osm_id":"4827456947","tag":{"amenity":"waste_disposal"}},"type":"Feature"},
	{"geometry":{"coordinates":[24.712637,48.891616],"type":"Point"},"properties":{"osm_id":"4943711788","tag":{"amenity":"waste_basket"}},"type":"Feature"},
	{"geometry":{"coordinates":[24.723517,48.896504],"type":"Point"},"properties":{"osm_id":"4943711792","tag":{"amenity":"waste_basket"}},"type":"Feature"},
	{"geometry":{"coordinates":[24.739034,48.921917],"type":"Point"},"properties":{"osm_id":"4944009357","tag":{"amenity":"waste_basket"}},"type":"Feature"},
	{"geometry":{"coordinates":[24.700663,48.903863],"type":"Point"},"properties":{"osm_id":"4944402329","tag":{"amenity":"waste_disposal"}},"type":"Feature"},
	{"geometry":{"coordinates":[24.703673,48.911876],"type":"Point"},"properties":{"osm_id":"4944759266","tag":{"amenity":"waste_disposal"}},"type":"Feature"},
	{"geometry":{"coordinates":[24.70263,48.912802],"type":"Point"},"properties":{"osm_id":"4944759268","tag":{"amenity":"waste_disposal"}},"type":"Feature"},
	{"geometry":{"coordinates":[24.698825,48.911689],"type":"Point"},"properties":{"osm_id":"4944763959","tag":{"amenity":"waste_disposal"}},"type":"Feature"},
	{"geometry":{"coordinates":[24.713719,48.920771],"type":"Point"},"properties":{"osm_id":"5026710477","tag":{"amenity":"waste_basket"}},"type":"Feature"},
	{"geometry":{"coordinates":[24.714206,48.921641],"type":"Point"},"properties":{"osm_id":"5026710490","tag":{"amenity":"waste_basket"}},"type":"Feature"},
	{"geometry":{"coordinates":[24.714436,48.922006],"type":"Point"},"properties":{"osm_id":"5026710491","tag":{"amenity":"waste_basket"}},"type":"Feature"},
	{"geometry":{"coordinates":[24.712756,48.901182],"type":"Point"},"properties":{"name":"\u00d0\u009f\u00d1\u0080\u00d0\u00b8\u00d0\u00b9\u00d0\u00be\u00d0\u00bc \u00d0\u00bc\u00d0\u00b5\u00d1\u0082\u00d0\u00b0\u00d0\u00bb\u00d0\u00be\u00d0\u00bb\u00d0\u00be\u00d0\u00bc\u00d1\u0083, \u00d0\u00bc\u00d0\u00b0\u00d0\u00ba\u00d1\u0083\u00d0\u00bb\u00d0\u00b0\u00d1\u0082\u00d1\u0083\u00d1\u0080\u00d0\u00b8","osm_id":"5066091626","tag":{"amenity":"recycling","recycling:paper":"yes","recycling:scrap_metal":"yes","recycling_type":"centre"}},"type":"Feature"},
	{"geometry":{"coordinates":[24.715867,48.914278],"type":"Point"},"properties":{"osm_id":"5066109822","tag":{"amenity":"waste_disposal"}},"type":"Feature"},
	{"geometry":{"coordinates":[24.704168,48.918024],"type":"Point"},"properties":{"osm_id":"5072303795","tag":{"amenity":"waste_basket"}},"type":"Feature"},
	{"geometry":{"coordinates":[24.704536,48.918266],"type":"Point"},"properties":{"osm_id":"5072303800","tag":{"amenity":"waste_basket"}},"type":"Feature"},
	{"geometry":{"coordinates":[24.705572,48.919063],"type":"Point"},"properties":{"osm_id":"5072303810","tag":{"amenity":"waste_basket"}},"type":"Feature"},
	{"geometry":{"coordinates":[24.705986,48.919371],"type":"Point"},"properties":{"osm_id":"5072305823","tag":{"amenity":"waste_basket"}},"type":"Feature"},
	{"geometry":{"coordinates":[24.705409,48.918941],"type":"Point"},"properties":{"osm_id":"5072305833","tag":{"amenity":"waste_basket"}},"type":"Feature"},
	{"geometry":{"coordinates":[24.705434,48.91896],"type":"Point"},"properties":{"osm_id":"5072305834","tag":{"amenity":"waste_basket"}},"type":"Feature"},
	{"geometry":{"coordinates":[24.704346,48.918201],"type":"Point"},"properties":{"osm_id":"5072305843","tag":{"amenity":"waste_basket"}},"type":"Feature"},
	{"geometry":{"coordinates":[24.732521,48.920746],"type":"Point"},"properties":{"osm_id":"5072345861","tag":{"amenity":"waste_disposal"}},"type":"Feature"},
	{"geometry":{"coordinates":[24.72909,48.921466],"type":"Point"},"properties":{"osm_id":"5072345870","tag":{"amenity":"waste_disposal"}},"type":"Feature"},
	{"geometry":{"coordinates":[24.710807,48.887552],"type":"Point"},"properties":{"osm_id":"5089222925","tag":{"amenity":"waste_basket"}},"type":"Feature"},
	{"geometry":{"coordinates":[24.714294,48.903457],"type":"Point"},"properties":{"osm_id":"5089224798","tag":{"amenity":"waste_basket"}},"type":"Feature"},
	{"geometry":{"coordinates":[24.714295,48.903511],"type":"Point"},"properties":{"osm_id":"5089224799","tag":{"amenity":"waste_basket"}},"type":"Feature"},
	{"geometry":{"coordinates":[24.704838,48.92074],"type":"Point"},"properties":{"osm_id":"5089373497","tag":{"amenity":"waste_basket"}},"type":"Feature"},
	{"geometry":{"coordinates":[24.704891,48.920749],"type":"Point"},"properties":{"osm_id":"5089373500","tag":{"amenity":"waste_basket"}},"type":"Feature"},
	{"geometry":{"coordinates":[24.704895,48.920732],"type":"Point"},"properties":{"osm_id":"5089373501","tag":{"amenity":"waste_basket"}},"type":"Feature"},
	{"geometry":{"coordinates":[24.705052,48.920672],"type":"Point"},"properties":{"osm_id":"5089373513","tag":{"amenity":"waste_basket"}},"type":"Feature"},
	{"geometry":{"coordinates":[24.70501,48.920659],"type":"Point"},"properties":{"osm_id":"5089373517","tag":{"amenity":"waste_basket"}},"type":"Feature"},
	{"geometry":{"coordinates":[24.705243,48.921],"type":"Point"},"properties":{"osm_id":"5089377230","tag":{"amenity":"waste_basket"}},"type":"Feature"},
	{"geometry":{"coordinates":[24.704991,48.920793],"type":"Point"},"properties":{"osm_id":"5089377255","tag":{"amenity":"waste_basket"}},"type":"Feature"},
	{"geometry":{"coordinates":[24.705465,48.920848],"type":"Point"},"properties":{"osm_id":"5089377262","tag":{"amenity":"waste_basket"}},"type":"Feature"},
	{"geometry":{"coordinates":[24.701616,48.917966],"type":"Point"},"properties":{"osm_id":"5089377271","tag":{"amenity":"waste_basket"}},"type":"Feature"},
	{"geometry":{"coordinates":[24.702618,48.919099],"type":"Point"},"properties":{"osm_id":"5089377280","tag":{"amenity":"waste_basket"}},"type":"Feature"},
	{"geometry":{"coordinates":[24.702798,48.919217],"type":"Point"},"properties":{"osm_id":"5089377281","tag":{"amenity":"waste_basket"}},"type":"Feature"},
	{"geometry":{"coordinates":[24.704966,48.920447],"type":"Point"},"properties":{"osm_id":"5089377312","tag":{"amenity":"waste_basket"}},"type":"Feature"},
	{"geometry":{"coordinates":[24.705057,48.920492],"type":"Point"},"properties":{"osm_id":"5089377313","tag":{"amenity":"waste_basket"}},"type":"Feature"},
	{"geometry":{"coordinates":[24.715477,48.922183],"type":"Point"},"properties":{"osm_id":"5135636948","tag":{"amenity":"waste_basket"}},"type":"Feature"},
	{"geometry":{"coordinates":[24.717326,48.919159],"type":"Point"},"properties":{"osm_id":"5135660425","tag":{"amenity":"waste_disposal"}},"type":"Feature"},
	{"geometry":{"coordinates":[24.713173,48.920383],"type":"Point"},"properties":{"osm_id":"5202420249","tag":{"amenity":"waste_basket"}},"type":"Feature"},
	{"geometry":{"coordinates":[24.713071,48.920469],"type":"Point"},"properties":{"osm_id":"5202420274","tag":{"amenity":"waste_basket"}},"type":"Feature"},
	{"geometry":{"coordinates":[24.741262,48.918528],"type":"Point"},"properties":{"osm_id":"5202646399","tag":{"amenity":"waste_disposal"}},"type":"Feature"},
	{"geometry":{"coordinates":[24.707101,48.91743],"type":"Point"},"properties":{"osm_id":"5202868671","tag":{"amenity":"waste_disposal"}},"type":"Feature"},
	{"geometry":{"coordinates":[24.714404,48.915847],"type":"Point"},"properties":{"osm_id":"5202873019","tag":{"amenity":"waste_basket"}},"type":"Feature"},
	{"geometry":{"coordinates":[24.705076,48.902802],"type":"Point"},"properties":{"osm_id":"5239941787","tag":{"amenity":"recycling","recycling:glass_bottles":"yes","recycling:paper":"yes","recycling_type":"container"}},"type":"Feature"},
	{"geometry":{"coordinates":[24.706276,48.902152],"type":"Point"},"properties":{"osm_id":"5239941798","tag":{"amenity":"waste_basket"}},"type":"Feature"},
	{"geometry":{"coordinates":[24.700512,48.903121],"type":"Point"},"properties":{"osm_id":"5239942223","tag":{"amenity":"waste_basket"}},"type":"Feature"},
	{"geometry":{"coordinates":[24.710701,48.92176],"type":"Point"},"properties":{"osm_id":"5256364121","tag":{"amenity":"waste_basket"}},"type":"Feature"},
	{"geometry":{"coordinates":[24.708858,48.920231],"type":"Point"},"properties":{"osm_id":"5256364122","tag":{"amenity":"waste_basket"}},"type":"Feature"},
	{"geometry":{"coordinates":[24.708774,48.920278],"type":"Point"},"properties":{"osm_id":"5256364123","tag":{"amenity":"waste_basket"}},"type":"Feature"},
	{"geometry":{"coordinates":[24.709825,48.920694],"type":"Point"},"properties":{"osm_id":"5256364421","tag":{"amenity":"waste_basket","operator":"\u00d0\u0090\u00d0\u009b\u00d0\u009b\u00d0\u009e"}},"type":"Feature"},
	{"geometry":{"coordinates":[24.708711,48.920303],"type":"Point"},"properties":{"osm_id":"5256364721","tag":{"amenity":"waste_basket"}},"type":"Feature"},
	{"geometry":{"coordinates":[24.706949,48.91989],"type":"Point"},"properties":{"osm_id":"5256364722","tag":{"amenity":"waste_basket"}},"type":"Feature"},
	{"geometry":{"coordinates":[24.706361,48.919602],"type":"Point"},"properties":{"osm_id":"5256364723","tag":{"amenity":"waste_basket"}},"type":"Feature"},
	{"geometry":{"coordinates":[24.70859,48.920372],"type":"Point"},"properties":{"osm_id":"5256364821","tag":{"amenity":"waste_basket"}},"type":"Feature"},
	{"geometry":{"coordinates":[24.710722,48.921824],"type":"Point"},"properties":{"osm_id":"5256379222","tag":{"amenity":"waste_basket"}},"type":"Feature"},
	{"geometry":{"coordinates":[24.71079,48.914327],"type":"Point"},"properties":{"osm_id":"5256740455","tag":{"amenity":"waste_basket"}},"type":"Feature"},
	{"geometry":{"coordinates":[24.711178,48.914255],"type":"Point"},"properties":{"osm_id":"5256740465","tag":{"amenity":"waste_basket"}},"type":"Feature"},
	{"geometry":{"coordinates":[24.70983,48.915943],"type":"Point"},"properties":{"osm_id":"5256740468","tag":{"amenity":"recycling","recycling:glass":"yes","recycling:plastic_bottles":"yes","recycling_type":"container"}},"type":"Feature"},
	{"geometry":{"coordinates":[24.71095,48.914977],"type":"Point"},"properties":{"osm_id":"5256740481","tag":{"amenity":"waste_basket"}},"type":"Feature"},
	{"geometry":{"coordinates":[24.70982,48.915926],"type":"Point"},"properties":{"osm_id":"5256740639","tag":{"amenity":"waste_disposal"}},"type":"Feature"},
	{"geometry":{"coordinates":[24.710746,48.917226],"type":"Point"},"properties":{"osm_id":"5256740641","tag":{"amenity":"recycling","recycling:batteries":"yes","recycling_type":"container","wheelchair":"no"}},"type":"Feature"},
	{"geometry":{"coordinates":[24.710725,48.917269],"type":"Point"},"properties":{"osm_id":"5256740643","tag":{"amenity":"waste_basket"}},"type":"Feature"},
	{"geometry":{"coordinates":[24.711094,48.917919],"type":"Point"},"properties":{"name":"Brain","osm_id":"5256740669","tag":{"amenity":"recycling","opening_hours":"Mo-Sa 10:00-20:00; Su 11:00-17:00","payment:mastercard":"yes","payment:visa":"yes","recycling:batteries":"yes","recycling_type":"container","shop":"computer","wheelchair":"no"}},"type":"Feature"},
	{"geometry":{"coordinates":[24.712012,48.917765],"type":"Point"},"properties":{"osm_id":"5256740672","tag":{"amenity":"recycling","recycling:plastic":"yes","recycling_type":"container"}},"type":"Feature"},
	{"geometry":{"coordinates":[24.711956,48.917765],"type":"Point"},"properties":{"osm_id":"5256740673","tag":{"amenity":"waste_disposal"}},"type":"Feature"},
	{"geometry":{"coordinates":[24.712927,48.904391],"type":"Point"},"properties":{"osm_id":"5256741050","tag":{"amenity":"waste_basket"}},"type":"Feature"},
	{"geometry":{"coordinates":[24.712928,48.904473],"type":"Point"},"properties":{"osm_id":"5256741051","tag":{"amenity":"waste_basket"}},"type":"Feature"},
	{"geometry":{"coordinates":[24.71291,48.905579],"type":"Point"},"properties":{"osm_id":"5256741065","tag":{"amenity":"waste_basket"}},"type":"Feature"},
	{"geometry":{"coordinates":[24.712763,48.902824],"type":"Point"},"properties":{"osm_id":"5256741078","tag":{"amenity":"waste_basket"}},"type":"Feature"},
	{"geometry":{"coordinates":[24.703064,48.921637],"type":"Point"},"properties":{"osm_id":"5256745220","tag":{"amenity":"waste_basket"}},"type":"Feature"},
	{"geometry":{"coordinates":[24.703223,48.921617],"type":"Point"},"properties":{"osm_id":"5256745321","tag":{"amenity":"waste_basket"}},"type":"Feature"},
	{"geometry":{"coordinates":[24.713373,48.918306],"type":"Point"},"properties":{"osm_id":"5309006855","tag":{"amenity":"recycling","recycling:plastic_bottles":"yes","recycling_type":"container"}},"type":"Feature"},
	{"geometry":{"coordinates":[24.713366,48.918268],"type":"Point"},"properties":{"osm_id":"5309006856","tag":{"amenity":"waste_disposal"}},"type":"Feature"},
	{"geometry":{"coordinates":[24.712179,48.918125],"type":"Point"},"properties":{"osm_id":"5309006877","tag":{"amenity":"waste_disposal"}},"type":"Feature"},
	{"geometry":{"coordinates":[24.71194,48.918302],"type":"Point"},"properties":{"osm_id":"5309006879","tag":{"amenity":"waste_basket"}},"type":"Feature"},
	{"geometry":{"coordinates":[24.718571,48.919584],"type":"Point"},"properties":{"osm_id":"5519487976","tag":{"amenity":"waste_basket"}},"type":"Feature"},
	{"geometry":{"coordinates":[24.702664,48.912784],"type":"Point"},"properties":{"osm_id":"5519493430","tag":{"amenity":"recycling","recycling:plastic_bottles":"yes","recycling_type":"container"}},"type":"Feature"},
	{"geometry":{"coordinates":[24.703656,48.911852],"type":"Point"},"properties":{"osm_id":"5519493431","tag":{"amenity":"recycling","recycling:plastic_bottles":"yes","recycling_type":"container"}},"type":"Feature"},
	{"geometry":{"coordinates":[24.725501,48.919302],"type":"Point"},"properties":{"osm_id":"5519493449","tag":{"amenity":"waste_disposal"}},"type":"Feature"},
	{"geometry":{"coordinates":[24.74125,48.918498],"type":"Point"},"properties":{"osm_id":"5519493455","tag":{"amenity":"recycling","recycling:plastic_bottles":"yes","recycling_type":"container"}},"type":"Feature"},
	{"geometry":{"coordinates":[24.737952,48.919468],"type":"Point"},"properties":{"osm_id":"5519493467","tag":{"amenity":"waste_disposal"}},"type":"Feature"},
	{"geometry":{"coordinates":[24.733154,48.914873],"type":"Point"},"properties":{"osm_id":"5519493471","tag":{"amenity":"waste_disposal"}},"type":"Feature"},
	{"geometry":{"coordinates":[24.737866,48.919508],"type":"Point"},"properties":{"osm_id":"5519493474","tag":{"amenity":"recycling","recycling:plastic_bottles":"yes","recycling_type":"container"}},"type":"Feature"},
	{"geometry":{"coordinates":[24.74068,48.921719],"type":"Point"},"properties":{"osm_id":"5519493482","tag":{"amenity":"waste_disposal"}},"type":"Feature"},
	{"geometry":{"coordinates":[24.740525,48.921739],"type":"Point"},"properties":{"osm_id":"5519493491","tag":{"amenity":"recycling","recycling:plastic_bottles":"yes","recycling_type":"container"}},"type":"Feature"},
	{"geometry":{"coordinates":[24.725465,48.919308],"type":"Point"},"properties":{"osm_id":"5519493497","tag":{"amenity":"recycling","recycling:plastic_bottles":"yes","recycling_type":"container"}},"type":"Feature"},
	{"geometry":{"coordinates":[24.710993,48.907985],"type":"Point"},"properties":{"osm_id":"5589171747","tag":{"amenity":"recycling","recycling:plastic_bottles":"yes","recycling_type":"container"}},"type":"Feature"},
	{"geometry":{"coordinates":[24.711007,48.907953],"type":"Point"},"properties":{"osm_id":"5589171748","tag":{"amenity":"waste_disposal"}},"type":"Feature"},
	{"geometry":{"coordinates":[24.702381,48.905709],"type":"Point"},"properties":{"osm_id":"5589171774","tag":{"amenity":"waste_disposal"}},"type":"Feature"},
	{"geometry":{"coordinates":[24.70239,48.905766],"type":"Point"},"properties":{"osm_id":"5589171786","tag":{"amenity":"recycling","recycling:plastic_bottles":"yes","recycling_type":"container"}},"type":"Feature"},
	{"geometry":{"coordinates":[24.710937,48.904207],"type":"Point"},"properties":{"osm_id":"5589171810","tag":{"amenity":"waste_disposal"}},"type":"Feature"},
	{"geometry":{"coordinates":[24.700679,48.913305],"type":"Point"},"properties":{"osm_id":"5589175265","tag":{"amenity":"waste_basket"}},"type":"Feature"},
	{"geometry":{"coordinates":[24.702493,48.907217],"type":"Point"},"properties":{"osm_id":"5589175278","tag":{"amenity":"waste_basket"}},"type":"Feature"},
	{"geometry":{"coordinates":[24.715888,48.914328],"type":"Point"},"properties":{"osm_id":"5635918920","tag":{"amenity":"recycling","recycling:plastic_bottles":"yes","recycling_type":"container"}},"type":"Feature"},
	{"geometry":{"coordinates":[24.705956,48.920058],"type":"Point"},"properties":{"osm_id":"5635923326","tag":{"amenity":"waste_disposal"}},"type":"Feature"},
	{"geometry":{"coordinates":[24.711171,48.915549],"type":"Point"},"properties":{"osm_id":"5753531060","tag":{"amenity":"waste_basket"}},"type":"Feature"},
	{"geometry":{"coordinates":[24.711121,48.91538],"type":"Point"},"properties":{"osm_id":"5753531061","tag":{"amenity":"waste_basket"}},"type":"Feature"},
	{"geometry":{"coordinates":[24.712615,48.907484],"type":"Point"},"properties":{"osm_id":"5781179124","tag":{"amenity":"waste_basket"}},"type":"Feature"},
	{"geometry":{"coordinates":[24.712637,48.907436],"type":"Point"},"properties":{"osm_id":"5781179126","tag":{"amenity":"waste_basket"}},"type":"Feature"},
	{"geometry":{"coordinates":[24.712191,48.909092],"type":"Point"},"properties":{"osm_id":"5781179866","tag":{"amenity":"recycling","recycling:plastic_bottles":"yes","recycling_type":"container"}},"type":"Feature"},
	{"geometry":{"coordinates":[24.712238,48.909102],"type":"Point"},"properties":{"osm_id":"5781179869","tag":{"amenity":"waste_disposal"}},"type":"Feature"},
	{"geometry":{"coordinates":[24.711428,48.909487],"type":"Point"},"properties":{"osm_id":"5781179874","tag":{"amenity":"waste_basket"}},"type":"Feature"},
	{"geometry":{"coordinates":[24.711288,48.910379],"type":"Point"},"properties":{"osm_id":"5781179878","tag":{"amenity":"waste_basket"}},"type":"Feature"},
	{"geometry":{"coordinates":[24.702204,48.914226],"type":"Point"},"properties":{"osm_id":"5786851999","tag":{"amenity":"waste_basket"}},"type":"Feature"},
	{"geometry":{"coordinates":[24.716603,48.913205],"type":"Point"},"properties":{"osm_id":"5811739058","tag":{"amenity":"waste_basket"}},"type":"Feature"},
	{"geometry":{"coordinates":[24.707666,48.921636],"type":"Point"},"properties":{"osm_id":"5871759499","tag":{"amenity":"waste_disposal"}},"type":"Feature"},
	{"geometry":{"coordinates":[24.701592,48.910423],"type":"Point"},"properties":{"osm_id":"5872260223","tag":{"amenity":"waste_basket"}},"type":"Feature"},
	{"geometry":{"coordinates":[24.700275,48.910313],"type":"Point"},"properties":{"osm_id":"5872317003","tag":{"amenity":"waste_basket"}},"type":"Feature"},
	{"geometry":{"coordinates":[24.709464,48.901998],"type":"Point"},"properties":{"osm_id":"5872317017","tag":{"amenity":"waste_disposal","operator":"\u00d0\u00a1\u00d0\u00bc\u00d1\u0096\u00d1\u0082\u00d1\u0082\u00d1\u0094\u00d0\u00b2\u00d1\u0096 \u00d0\u00b1\u00d0\u00b0\u00d0\u00ba\u00d0\u00b8"}},"type":"Feature"},
	{"geometry":{"coordinates":[24.717683,48.914737],"type":"Point"},"properties":{"osm_id":"5872317037","tag":{"amenity":"waste_basket"}},"type":"Feature"},
	{"geometry":{"coordinates":[24.698078,48.922478],"type":"Point"},"properties":{"osm_id":"5872317045","tag":{"amenity":"waste_basket"}},"type":"Feature"},
	{"geometry":{"coordinates":[24.754456,48.906247],"type":"Point"},"properties":{"osm_id":"5901358792","tag":{"amenity":"recycling","recycling:glass":"yes","recycling:paper":"yes","recycling:plastic":"yes","recycling:plastic_bottles":"yes","recycling_type":"container"}},"type":"Feature"},
	{"geometry":{"coordinates":[24.705743,48.922273],"type":"Point"},"properties":{"osm_id":"5910120917","tag":{"amenity":"waste_basket"}},"type":"Feature"},
	{"geometry":{"coordinates":[24.700428,48.867398],"type":"Point"},"properties":{"osm_id":"5913347002","tag":{"amenity":"recycling","recycling:glass":"yes","recycling:plastic_bottles":"yes","recycling_type":"container"}},"type":"Feature"},
	{"geometry":{"coordinates":[24.715302,48.918494],"type":"Point"},"properties":{"osm_id":"5919949576","tag":{"amenity":"waste_basket"}},"type":"Feature"},
	{"geometry":{"coordinates":[24.773457,48.919563],"type":"Point"},"properties":{"osm_id":"5942073963","tag":{"amenity":"waste_disposal"}},"type":"Feature"},
	{"geometry":{"coordinates":[24.717334,48.908943],"type":"Point"},"properties":{"osm_id":"6111442474","tag":{"amenity":"recycling","recycling:glass":"yes","recycling:plastic_bottles":"yes","recycling_type":"container"}},"type":"Feature"},
	{"geometry":{"coordinates":[24.717327,48.908927],"type":"Point"},"properties":{"osm_id":"6111442475","tag":{"amenity":"waste_disposal"}},"type":"Feature"},
	{"geometry":{"coordinates":[24.698967,48.90386],"type":"Point"},"properties":{"osm_id":"6111453150","tag":{"amenity":"waste_disposal"}},"type":"Feature"},
	{"geometry":{"coordinates":[24.698981,48.903885],"type":"Point"},"properties":{"osm_id":"6111453151","tag":{"amenity":"recycling","recycling:plastic_bottles":"yes","recycling_type":"container"}},"type":"Feature"},
	{"geometry":{"coordinates":[24.711163,48.918235],"type":"Point"},"properties":{"osm_id":"6175354908","tag":{"amenity":"waste_basket"}},"type":"Feature"},
	{"geometry":{"coordinates":[24.707716,48.879263],"type":"Point"},"properties":{"osm_id":"6175362017","tag":{"amenity":"waste_basket"}},"type":"Feature"},
	{"geometry":{"coordinates":[24.71387,48.918727],"type":"Point"},"properties":{"osm_id":"6250521015","tag":{"amenity":"waste_basket"}},"type":"Feature"},
	{"geometry":{"coordinates":[24.712951,48.902183],"type":"Point"},"properties":{"name":"\u00d0\u00a1\u00d0\u00bc\u00d1\u0096\u00d1\u0082\u00d1\u0082\u00d1\u0094\u00d0\u00b2\u00d1\u0096 \u00d0\u00b1\u00d0\u00b0\u00d0\u00ba\u00d0\u00b8","osm_id":"6740017077","tag":{"amenity":"waste_disposal"}},"type":"Feature"},
	{"geometry":{"coordinates":[24.698634,48.904937],"type":"Point"},"properties":{"osm_id":"6936061062","tag":{"amenity":"recycling","recycling:plastic_bottles":"yes","recycling_type":"container"}},"type":"Feature"},
	{"geometry":{"coordinates":[24.698646,48.904988],"type":"Point"},"properties":{"osm_id":"6936061063","tag":{"amenity":"waste_disposal"}},"type":"Feature"},
	{"geometry":{"coordinates":[24.723647,48.916507],"type":"Point"},"properties":{"osm_id":"6936061087","tag":{"amenity":"waste_basket"}},"type":"Feature"},
	{"geometry":{"coordinates":[24.715215,48.904978],"type":"Point"},"properties":{"osm_id":"7098571762","tag":{"amenity":"recycling","recycling:glass":"yes","recycling:plastic_bottles":"yes","recycling_type":"container"}},"type":"Feature"},
	{"geometry":{"coordinates":[24.71523,48.905017],"type":"Point"},"properties":{"osm_id":"7098571763","tag":{"amenity":"waste_disposal"}},"type":"Feature"},
	{"geometry":{"coordinates":[24.716844,48.904182],"type":"Point"},"properties":{"osm_id":"7098584592","tag":{"amenity":"waste_basket"}},"type":"Feature"},
	{"geometry":{"coordinates":[24.717153,48.904975],"type":"Point"},"properties":{"osm_id":"7098584627","tag":{"amenity":"waste_basket"}},"type":"Feature"},
	{"geometry":{"coordinates":[24.715467,48.904565],"type":"Point"},"properties":{"osm_id":"7098584659","tag":{"amenity":"waste_basket"}},"type":"Feature"},
	{"geometry":{"coordinates":[24.716017,48.90553],"type":"Point"},"properties":{"osm_id":"7098584702","tag":{"amenity":"waste_disposal"}},"type":"Feature"},
	{"geometry":{"coordinates":[24.710613,48.912398],"type":"Point"},"properties":{"osm_id":"7176509559","tag":{"amenity":"waste_basket"}},"type":"Feature"},
	{"geometry":{"coordinates":[24.715061,48.887795],"type":"Point"},"properties":{"osm_id":"7352532302","tag":{"amenity":"waste_basket"}},"type":"Feature"},
	{"geometry":{"coordinates":[24.715379,48.888181],"type":"Point"},"properties":{"osm_id":"7352532304","tag":{"amenity":"waste_basket"}},"type":"Feature"}
]
}
