{
"type": "FeatureCollection",
"features": [
	{"geometry":{"coordinates":[77.632296,13.055951],"type":"Point"},"properties":{"osm_id":"387620166","tag":{"natural":"tree"}},"type":"Feature"},
	{"geometry":{"coordinates":[77.66084,12.993742],"type":"Point"},"properties":{"osm_id":"3451568027","tag":{"height":"6","natural":"tree"}},"type":"Feature"},
	{"geometry":{"coordinates":[77.660796,12.99381],"type":"Point"},"properties":{"osm_id":"3451568028","tag":{"height":"6","natural":"tree"}},"type":"Feature"},
	{"geometry":{"coordinates":[77.660763,12.993863],"type":"Point"},"properties":{"osm_id":"3451568029","tag":{"height":"6","natural":"tree"}},"type":"Feature"},
	{"geometry":{"coordinates":[77.660743,12.993923],"type":"Point"},"properties":{"osm_id":"3451568030","tag":{"height":"6","natural":"tree"}},"type":"Feature"},
	{"geometry":{"coordinates":[77.661195,12.993947],"type":"Point"},"properties":{"osm_id":"3451568031","tag":{"height":"6","natural":"tree"}},"type":"Feature"},
	{"geometry":{"coordinates":[77.660716,12.993981],"type":"Point"},"properties":{"osm_id":"3451568032","tag":{"height":"6","natural":"tree"}},"type":"Feature"},
	{"geometry":{"coordinates":[77.661174,12.994],"type":"Point"},"properties":{"osm_id":"3451568033","tag":{"height":"6","natural":"tree"}},"type":"Feature"},
	{"geometry":{"coordinates":[77.660716,12.994032],"type":"Point"},"properties":{"osm_id":"3451568034","tag":{"height":"6","natural":"tree"}},"type":"Feature"},
	{"geometry":{"coordinates":[77.661149,12.99406],"type":"Point"},"properties":{"osm_id":"3451568035","tag":{"height":"6","natural":"tree"}},"type":"Feature"},
	{"geometry":{"coordinates":[77.660726,12.994088],"type":"Point"},"properties":{"osm_id":"3451568036","tag":{"height":"6","natural":"tree"}},"type":"Feature"},
	{"geometry":{"coordinates":[77.661126,12.994103],"type":"Point"},"properties":{"osm_id":"3451568037","tag":{"height":"6","natural":"tree"}},"type":"Feature"},
	{"geometry":{"coordinates":[77.660751,12.994132],"type":"Point"},"properties":{"osm_id":"3451568038","tag":{"height":"6","natural":"tree"}},"type":"Feature"},
	{"geometry":{"coordinates":[77.661089,12.994151],"type":"Point"},"properties":{"osm_id":"3451568040","tag":{"height":"6","natural":"tree"}},"type":"Feature"},
	{"geometry":{"coordinates":[77.661033,12.9942],"type":"Point"},"properties":{"osm_id":"3451568041","tag":{"height":"6","natural":"tree"}},"type":"Feature"},
	{"geometry":{"coordinates":[77.660986,12.994216],"type":"Point"},"properties":{"osm_id":"3451568042","tag":{"height":"6","natural":"tree"}},"type":"Feature"},
	{"geometry":{"coordinates":[77.619712,13.005395],"type":"Point"},"properties":{"osm_id":"3526205719","tag":{"natural":"tree"}},"type":"Feature"},
	{"geometry":{"coordinates":[77.619949,13.005529],"type":"Point"},"properties":{"osm_id":"3526205728","tag":{"natural":"tree"}},"type":"Feature"},
	{"geometry":{"coordinates":[77.623742,13.000408],"type":"Point"},"properties":{"osm_id":"3652796548","tag":{"natural":"tree"}},"type":"Feature"},
	{"geometry":{"coordinates":[77.623793,13.000565],"type":"Point"},"properties":{"osm_id":"3652796549","tag":{"natural":"tree"}},"type":"Feature"},
	{"geometry":{"coordinates":[77.623766,13.000492],"type":"Point"},"properties":{"osm_id":"3652796550","tag":{"natural":"tree"}},"type":"Feature"},
	{"geometry":{"coordinates":[77.623773,13.000393],"type":"Point"},"properties":{"osm_id":"3652796551","tag":{"natural":"tree"}},"type":"Feature"},
	{"geometry":{"coordinates":[77.623825,13.000373],"type":"Point"},"properties":{"osm_id":"3652796552","tag":{"natural":"tree"}},"type":"Feature"},
	{"geometry":{"coordinates":[77.623885,13.000386],"type":"Point"},"properties":{"osm_id":"3652796553","tag":{"natural":"tree"}},"type":"Feature"},
	{"geometry":{"coordinates":[77.62388,13.000421],"type":"Point"},"properties":{"osm_id":"3652796554","tag":{"natural":"tree"}},"type":"Feature"},
	{"geometry":{"coordinates":[77.623893,13.000452],"type":"Point"},"properties":{"osm_id":"3652796555","tag":{"natural":"tree"}},"type":"Feature"},
	{"geometry":{"coordinates":[77.623904,13.000482],"type":"Point"},"properties":{"osm_id":"3652796556","tag":{"natural":"tree"}},"type":"Feature"},
	{"geometry":{"coordinates":[77.623915,13.00051],"type":"Point"},"properties":{"osm_id":"3652796557","tag":{"natural":"tree"}},"type":"Feature"},
	{"geometry":{"coordinates":[77.624091,13.000388],"type":"Point"},"properties":{"osm_id":"3652805839","tag":{"natural":"tree"}},"type":"Feature"},
	{"geometry":{"coordinates":[77.624078,13.000338],"type":"Point"},"properties":{"osm_id":"3652805840","tag":{"natural":"tree"}},"type":"Feature"},
	{"geometry":{"coordinates":[77.624065,13.00032],"type":"Point"},"properties":{"osm_id":"3652805841","tag":{"natural":"tree"}},"type":"Feature"},
	{"geometry":{"coordinates":[77.624037,13.000303],"type":"Point"},"properties":{"osm_id":"3652826807","tag":{"natural":"tree"}},"type":"Feature"},
	{"geometry":{"coordinates":[77.623962,13.000329],"type":"Point"},"properties":{"osm_id":"3652826808","tag":{"natural":"tree"}},"type":"Feature"},
	{"geometry":{"coordinates":[77.623948,13.000332],"type":"Point"},"properties":{"osm_id":"3652826809","tag":{"natural":"tree"}},"type":"Feature"},
	{"geometry":{"coordinates":[77.623796,13.000438],"type":"Point"},"properties":{"osm_id":"3652826810","tag":{"natural":"tree"}},"type":"Feature"},
	{"geometry":{"coordinates":[77.623847,13.000566],"type":"Point"},"properties":{"osm_id":"3652826811","tag":{"natural":"tree"}},"type":"Feature"},
	{"geometry":{"coordinates":[77.623838,13.000559],"type":"Point"},"properties":{"osm_id":"3652826813","tag":{"natural":"tree"}},"type":"Feature"},
	{"geometry":{"coordinates":[77.623886,13.000548],"type":"Point"},"properties":{"osm_id":"3652826815","tag":{"natural":"tree"}},"type":"Feature"},
	{"geometry":{"coordinates":[77.623979,13.000531],"type":"Point"},"properties":{"osm_id":"3652826816","tag":{"natural":"tree"}},"type":"Feature"},
	{"geometry":{"coordinates":[77.624085,13.000423],"type":"Point"},"properties":{"osm_id":"3652826817","tag":{"natural":"tree"}},"type":"Feature"},
	{"geometry":{"coordinates":[77.624092,13.000448],"type":"Point"},"properties":{"osm_id":"3652826818","tag":{"natural":"tree"}},"type":"Feature"},
	{"geometry":{"coordinates":[77.62408,13.000424],"type":"Point"},"properties":{"osm_id":"3652826819","tag":{"natural":"tree"}},"type":"Feature"},
	{"geometry":{"coordinates":[77.62405,13.000506],"type":"Point"},"properties":{"osm_id":"3652826820","tag":{"natural":"tree"}},"type":"Feature"},
	{"geometry":{"coordinates":[77.624006,13.000377],"type":"Point"},"properties":{"osm_id":"3652826821","tag":{"natural":"tree"}},"type":"Feature"},
	{"geometry":{"coordinates":[77.623994,13.000417],"type":"Point"},"properties":{"osm_id":"3652826822","tag":{"natural":"tree"}},"type":"Feature"},
	{"geometry":{"coordinates":[77.624023,13.00044],"type":"Point"},"properties":{"osm_id":"3652826823","tag":{"natural":"tree"}},"type":"Feature"},
	{"geometry":{"coordinates":[77.624014,13.000437],"type":"Point"},"properties":{"osm_id":"3652826824","tag":{"natural":"tree"}},"type":"Feature"},
	{"geometry":{"coordinates":[77.624329,13.000369],"type":"Point"},"properties":{"name":"Coconut","osm_id":"3652850219","tag":{"name:kn":"\u00e0\u00b2\u00a4\u00e0\u00b3\u0086\u00e0\u00b2\u0082\u00e0\u00b2\u0097\u00e0\u00b2\u00bf\u00e0\u00b2\u00a8 \u00e0\u00b2\u00ae\u00e0\u00b2\u00b0","natural":"tree"}},"type":"Feature"},
	{"geometry":{"coordinates":[77.624395,13.00042],"type":"Point"},"properties":{"name":"Coconut","osm_id":"3652850378","tag":{"name:kn":"\u00e0\u00b2\u00a4\u00e0\u00b3\u0086\u00e0\u00b2\u0082\u00e0\u00b2\u0097\u00e0\u00b2\u00bf\u00e0\u00b2\u00a8 \u00e0\u00b2\u00ae\u00e0\u00b2\u00b0","natural":"tree"}},"type":"Feature"},
	{"geometry":{"coordinates":[77.624181,13.000502],"type":"Point"},"properties":{"osm_id":"3652854073","tag":{"natural":"tree"}},"type":"Feature"},
	{"geometry":{"coordinates":[77.624117,13.000527],"type":"Point"},"properties":{"osm_id":"3652854074","tag":{"natural":"tree"}},"type":"Feature"},
	{"geometry":{"coordinates":[77.624151,13.000537],"type":"Point"},"properties":{"osm_id":"3652854075","tag":{"natural":"tree"}},"type":"Feature"},
	{"geometry":{"coordinates":[77.623892,13.000678],"type":"Point"},"properties":{"osm_id":"3652854076","tag":{"natural":"tree"}},"type":"Feature"},
	{"geometry":{"coordinates":[77.623421,13.000742],"type":"Point"},"properties":{"name":"Delonix regia","osm_id":"3652854077","tag":{"leaf_cycle":"deciduous","name:hi":"Gulmohoar","natural":"tree"}},"type":"Feature"},
	{"geometry":{"coordinates":[77.623511,13.000741],"type":"Point"},"properties":{"name":"Coconut","osm_id":"3652856328","tag":{"name:kn":"\u00e0\u00b2\u00a4\u00e0\u00b3\u0086\u00e0\u00b2\u0082\u00e0\u00b2\u0097\u00e0\u00b2\u00bf\u00e0\u00b2\u00a8 \u00e0\u00b2\u00ae\u00e0\u00b2\u00b0","natural":"tree"}},"type":"Feature"},
	{"geometry":{"coordinates":[77.623952,13.000584],"type":"Point"},"properties":{"osm_id":"3652860090","tag":{"natural":"tree"}},"type":"Feature"},
	{"geometry":{"coordinates":[77.624034,13.000557],"type":"Point"},"properties":{"osm_id":"3652860091","tag":{"natural":"tree"}},"type":"Feature"},
	{"geometry":{"coordinates":[77.62378,13.000636],"type":"Point"},"properties":{"osm_id":"3652860092","tag":{"natural":"tree"}},"type":"Feature"},
	{"geometry":{"coordinates":[77.623519,13.00067],"type":"Point"},"properties":{"name":"Coconut","osm_id":"3652860093","tag":{"name:kn":"\u00e0\u00b2\u00a4\u00e0\u00b3\u0086\u00e0\u00b2\u0082\u00e0\u00b2\u0097\u00e0\u00b2\u00bf\u00e0\u00b2\u00a8 \u00e0\u00b2\u00ae\u00e0\u00b2\u00b0","natural":"tree"}},"type":"Feature"},
	{"geometry":{"coordinates":[77.623555,13.000548],"type":"Point"},"properties":{"osm_id":"3652863924","tag":{"natural":"tree"}},"type":"Feature"},
	{"geometry":{"coordinates":[77.623597,13.000711],"type":"Point"},"properties":{"osm_id":"3652866625","tag":{"natural":"tree"}},"type":"Feature"},
	{"geometry":{"coordinates":[77.624191,13.000623],"type":"Point"},"properties":{"name":"Bamboo","osm_id":"3652866626","tag":{"name:kn":"\u00e0\u00b2\u00ac\u00e0\u00b2\u00bf\u00e0\u00b2\u00a6\u00e0\u00b2\u00bf\u00e0\u00b2\u00b0\u00e0\u00b3\u0081","natural":"tree"}},"type":"Feature"},
	{"geometry":{"coordinates":[77.624039,13.001278],"type":"Point"},"properties":{"osm_id":"3652872499","tag":{"natural":"tree"}},"type":"Feature"},
	{"geometry":{"coordinates":[77.624004,13.001139],"type":"Point"},"properties":{"name":"Madhuca","osm_id":"3652872500","tag":{"denotation":"park","leaf_type":"broadleaved","natural":"tree"}},"type":"Feature"},
	{"geometry":{"coordinates":[77.623988,13.001083],"type":"Point"},"properties":{"name":"Chiristmas Tree","osm_id":"3652872501","tag":{"leaf_type":"needleleaved","natural":"tree"}},"type":"Feature"},
	{"geometry":{"coordinates":[77.623944,13.001125],"type":"Point"},"properties":{"osm_id":"3652872502","tag":{"natural":"tree"}},"type":"Feature"},
	{"geometry":{"coordinates":[77.623899,13.001007],"type":"Point"},"properties":{"name":"African Tulip Tree","osm_id":"3652872503","tag":{"denotation":"park","leaf_cycle":"deciduous","leaf_type":"broadleaved","name:kn":"\u00e0\u00b2\u00a8\u00e0\u00b3\u0080\u00e0\u00b2\u00b0\u00e0\u00b3\u0081\u00e0\u00b2\u0095\u00e0\u00b2\u00be\u00e0\u00b2\u00af\u00e0\u00b2\u00bf \u00e0\u00b2\u00ae\u00e0\u00b2\u00b0","natural":"tree"}},"type":"Feature"},
	{"geometry":{"coordinates":[77.623813,13.000757],"type":"Point"},"properties":{"osm_id":"3652872504","tag":{"natural":"tree"}},"type":"Feature"},
	{"geometry":{"coordinates":[77.623892,13.000956],"type":"Point"},"properties":{"name":"Silver Oak","osm_id":"3652872505","tag":{"natural":"tree"}},"type":"Feature"},
	{"geometry":{"coordinates":[77.623897,13.000863],"type":"Point"},"properties":{"name":"Philipine Tung Tree","osm_id":"3652872513","tag":{"denotation":"park","leaf_type":"broadleaved","natural":"tree"}},"type":"Feature"},
	{"geometry":{"coordinates":[77.623916,13.000881],"type":"Point"},"properties":{"name":"Philipine Tung Tree","osm_id":"3652872514","tag":{"leaf_type":"broadleaved","natural":"tree"}},"type":"Feature"},
	{"geometry":{"coordinates":[77.623913,13.000792],"type":"Point"},"properties":{"name":"Indian Beech","osm_id":"3652876853","tag":{"leaf_cycle":"deciduous","leaf_type":"broadleaved","name:hi":"\u00e0\u00a4\u0095\u00e0\u00a4\u00b0\u00e0\u00a4\u0082\u00e0\u00a4\u009c","name:kn":"\u00e0\u00b2\u00b9\u00e0\u00b3\u008a\u00e0\u00b2\u0082\u00e0\u00b2\u0097\u00e0\u00b3\u0086","natural":"tree"}},"type":"Feature"},
	{"geometry":{"coordinates":[77.62401,13.000926],"type":"Point"},"properties":{"name":"Christmas Tree","osm_id":"3652876855","tag":{"denotation":"park","leaf_type":"needleleaved","natural":"tree"}},"type":"Feature"},
	{"geometry":{"coordinates":[77.624173,13.001199],"type":"Point"},"properties":{"name":"Jacaranda","osm_id":"3652876868","tag":{"denotation":"park","leaf_type":"broadleaved","natural":"tree"}},"type":"Feature"},
	{"geometry":{"coordinates":[77.623651,13.006082],"type":"Point"},"properties":{"osm_id":"3694806990","tag":{"natural":"tree"}},"type":"Feature"},
	{"geometry":{"coordinates":[77.622967,13.006345],"type":"Point"},"properties":{"osm_id":"3694806991","tag":{"natural":"tree"}},"type":"Feature"},
	{"geometry":{"coordinates":[77.641203,12.983915],"type":"Point"},"properties":{"osm_id":"3726126346","tag":{"natural":"tree"}},"type":"Feature"},
	{"geometry":{"coordinates":[77.618747,12.987605],"type":"Point"},"properties":{"osm_id":"4227832719","tag":{"natural":"tree"}},"type":"Feature"},
	{"geometry":{"coordinates":[77.634312,12.985434],"type":"Point"},"properties":{"osm_id":"4237298423","tag":{"natural":"tree"}},"type":"Feature"},
	{"geometry":{"coordinates":[77.623658,13.00599],"type":"Point"},"properties":{"osm_id":"4237298425","tag":{"contributed_by":"shvrm","natural":"tree"}},"type":"Feature"},
	{"geometry":{"coordinates":[77.624157,13.001155],"type":"Point"},"properties":{"osm_id":"4817858256","tag":{"denotation":"park","leaf_cycle":"deciduous","leaf_type":"broadleaved","natural":"tree","species":"Spathodea campanulata","species:en":"African Tulip Tree"}},"type":"Feature"},
	{"geometry":{"coordinates":[77.624242,13.001177],"type":"Point"},"properties":{"osm_id":"4817858257","tag":{"denotation":"park","leaf_cycle":"evergreen","leaf_type":"broadleaved","natural":"tree","species":"Filicium decipiens","species:en":"Fern Tree"}},"type":"Feature"},
	{"geometry":{"coordinates":[77.624277,13.001166],"type":"Point"},"properties":{"osm_id":"4817858258","tag":{"denotation":"park","leaf_cycle":"evergreen","leaf_type":"broadleaved","natural":"tree","species":"Filicium decipiens","species:en":"Fern Tree"}},"type":"Feature"},
	{"geometry":{"coordinates":[77.624231,13.00113],"type":"Point"},"properties":{"name":"Rain Tree","osm_id":"4817965463","tag":{"denotation":"park","leaf_type":"broadleaved","natural":"tree"}},"type":"Feature"},
	{"geometry":{"coordinates":[77.624145,13.001097],"type":"Point"},"properties":{"name":"Rain Tree","osm_id":"4817965464","tag":{"denotation":"park","leaf_type":"broadleaved","natural":"tree"}},"type":"Feature"},
	{"geometry":{"coordinates":[77.624204,13.00093],"type":"Point"},"properties":{"osm_id":"4817965465","tag":{"denotation":"park","leaf_cycle":"deciduous","leaf_type":"broadleaved","natural":"tree","species":"Spathodea campanulata","species:en":"African Tulip Tree"}},"type":"Feature"},
	{"geometry":{"coordinates":[77.624188,13.000908],"type":"Point"},"properties":{"name":"Java Plum","osm_id":"4817965466","tag":{"denotation":"park","leaf_type":"broadleaved","name:kn":"\u00e0\u00b2\u00a8\u00e0\u00b3\u0087\u00e0\u00b2\u00b0\u00e0\u00b2\u00b3\u00e0\u00b3\u0086","natural":"tree"}},"type":"Feature"},
	{"geometry":{"coordinates":[77.624186,13.000878],"type":"Point"},"properties":{"name":"Manogany","osm_id":"4817965467","tag":{"denotation":"park","leaf_cycle":"deciduous","leaf_type":"broadleaved","natural":"tree"}},"type":"Feature"},
	{"geometry":{"coordinates":[77.624179,13.000853],"type":"Point"},"properties":{"name":"Bauhinia","osm_id":"4817965468","tag":{"denotation":"park","name:kn":"\u00e0\u00b2\u00ac\u00e0\u00b2\u00b8\u00e0\u00b2\u00b5\u00e0\u00b2\u00a8\u00e0\u00b2\u00aa\u00e0\u00b2\u00be\u00e0\u00b2\u00a6","natural":"tree"}},"type":"Feature"},
	{"geometry":{"coordinates":[77.624166,13.000791],"type":"Point"},"properties":{"osm_id":"4817965469","tag":{"denotation":"park","leaf_cycle":"evergreen","leaf_type":"broadleaved","natural":"tree","species":"Filicium decipiens","species:en":"Fern Tree"}},"type":"Feature"},
	{"geometry":{"coordinates":[77.624174,13.000824],"type":"Point"},"properties":{"name":"Indian Almond","osm_id":"4817965470","tag":{"denotation":"park","leaf_cycle":"deciduous","leaf_type":"broadleaved","natural":"tree"}},"type":"Feature"},
	{"geometry":{"coordinates":[77.624139,13.000724],"type":"Point"},"properties":{"osm_id":"4817965471","tag":{"denotation":"park","leaf_cycle":"evergreen","leaf_type":"broadleaved","natural":"tree","species":"Filicium decipiens","species:en":"Fern Tree"}},"type":"Feature"},
	{"geometry":{"coordinates":[77.62415,13.000772],"type":"Point"},"properties":{"name":"Copper Pod","osm_id":"4817965472","tag":{"denotation":"park","leaf_type":"broadleaved","natural":"tree"}},"type":"Feature"},
	{"geometry":{"coordinates":[77.624122,13.000701],"type":"Point"},"properties":{"name":"Jacaranda","osm_id":"4817965473","tag":{"leaf_type":"broadleaved","natural":"tree"}},"type":"Feature"},
	{"geometry":{"coordinates":[77.624032,13.000735],"type":"Point"},"properties":{"name":"Champaka","osm_id":"4817965474","tag":{"name:kn":"\u00e0\u00b2\u00b8\u00e0\u00b2\u0082\u00e0\u00b2\u00aa\u00e0\u00b2\u00bf\u00e0\u00b2\u0097\u00e0\u00b3\u0086","natural":"tree"}},"type":"Feature"},
	{"geometry":{"coordinates":[77.624042,13.001013],"type":"Point"},"properties":{"name":"Silver Oak","osm_id":"4817965475","tag":{"natural":"tree"}},"type":"Feature"},
	{"geometry":{"coordinates":[77.623885,13.000728],"type":"Point"},"properties":{"name":"Nile Tulip Tree","osm_id":"4817965476","tag":{"denotation":"park","leaf_type":"broadleaved","natural":"tree"}},"type":"Feature"},
	{"geometry":{"coordinates":[77.619109,12.987765],"type":"Point"},"properties":{"osm_id":"4845223690","tag":{"natural":"tree"}},"type":"Feature"},
	{"geometry":{"coordinates":[77.646262,13.008122],"type":"Point"},"properties":{"name":"Silver Oak","osm_id":"5080776900","tag":{"genus":"Grevillea","name:kn":"\u00e0\u00b2\u00b8\u00e0\u00b2\u00bf\u00e0\u00b2\u00b2\u00e0\u00b3\u008d\u00e0\u00b2\u00b5\u00e0\u00b2\u00b0\u00e0\u00b3\u008d \u00e0\u00b2\u00ae\u00e0\u00b2\u00b0","natural":"tree","species":"Proteaceae"}},"type":"Feature"},
	{"geometry":{"coordinates":[77.646293,13.008105],"type":"Point"},"properties":{"name":"Silver Oak","osm_id":"5080776901","tag":{"genus":"Grevillea","natural":"tree","species":"Proteaceae"}},"type":"Feature"},
	{"geometry":{"coordinates":[77.646323,13.008091],"type":"Point"},"properties":{"name":"Silver Oak","osm_id":"5080776902","tag":{"genus":"Grevillea","natural":"tree","species":"Proteaceae"}},"type":"Feature"},
	{"geometry":{"coordinates":[77.646348,13.008077],"type":"Point"},"properties":{"name":"Silver Oak","osm_id":"5080776903","tag":{"genus":"Grevillea","natural":"tree","species":"Proteaceae"}},"type":"Feature"},
	{"geometry":{"coordinates":[77.646231,13.00814],"type":"Point"},"properties":{"name":"Silver Oak","osm_id":"5080776904","tag":{"genus":"Grevillea","natural":"tree","species":"Proteaceae"}},"type":"Feature"},
	{"geometry":{"coordinates":[77.636421,13.032055],"type":"Point"},"properties":{"osm_id":"5155262390","tag":{"denotation":"religious","leaf_cycle":"evergreen","leaf_type":"broadleaved","natural":"tree"}},"type":"Feature"},
	{"geometry":{"coordinates":[77.651679,13.025055],"type":"Point"},"properties":{"name":"Banyan","osm_id":"5644388849","tag":{"natural":"tree"}},"type":"Feature"},
	{"geometry":{"coordinates":[77.646352,12.986386],"type":"Point"},"properties":{"osm_id":"6484704442","tag":{"natural":"tree"}},"type":"Feature"},
	{"geometry":{"coordinates":[77.637057,13.017565],"type":"Point"},"properties":{"osm_id":"6958029592","tag":{"natural":"tree"}},"type":"Feature"},
	{"geometry":{"coordinates":[77.618422,13.004381],"type":"Point"},"properties":{"osm_id":"7840239862","tag":{"height":"24","natural":"tree"}},"type":"Feature"},
	{"geometry":{"coordinates":[77.618382,13.00428],"type":"Point"},"properties":{"osm_id":"7840239863","tag":{"height":"26","natural":"tree"}},"type":"Feature"},
	{"geometry":{"coordinates":[77.618341,13.00416],"type":"Point"},"properties":{"osm_id":"7840239864","tag":{"height":"24","natural":"tree"}},"type":"Feature"},
	{"geometry":{"coordinates":[77.618107,13.003731],"type":"Point"},"properties":{"osm_id":"7840239865","tag":{"natural":"tree"}},"type":"Feature"},
	{"geometry":{"coordinates":[77.61789,13.003826],"type":"Point"},"properties":{"osm_id":"7840239866","tag":{"natural":"tree"}},"type":"Feature"},
	{"geometry":{"coordinates":[77.617827,13.003638],"type":"Point"},"properties":{"osm_id":"7840239867","tag":{"natural":"tree"}},"type":"Feature"},
	{"geometry":{"coordinates":[77.617626,13.004419],"type":"Point"},"properties":{"osm_id":"7840239872","tag":{"height":"22","natural":"tree"}},"type":"Feature"},
	{"geometry":{"coordinates":[77.617754,13.004354],"type":"Point"},"properties":{"osm_id":"7840239873","tag":{"height":"23","natural":"tree"}},"type":"Feature"},
	{"geometry":{"coordinates":[77.617673,13.004171],"type":"Point"},"properties":{"osm_id":"7840239874","tag":{"height":"16","natural":"tree"}},"type":"Feature"},
	{"geometry":{"coordinates":[77.618067,13.003462],"type":"Point"},"properties":{"osm_id":"7840239875","tag":{"natural":"tree"}},"type":"Feature"},
	{"geometry":{"coordinates":[77.617988,13.003261],"type":"Point"},"properties":{"osm_id":"7840239876","tag":{"natural":"tree"}},"type":"Feature"},
	{"geometry":{"coordinates":[77.617822,13.002903],"type":"Point"},"properties":{"osm_id":"7840239879","tag":{"natural":"tree"}},"type":"Feature"},
	{"geometry":{"coordinates":[77.617902,13.002876],"type":"Point"},"properties":{"osm_id":"7840239880","tag":{"natural":"tree"}},"type":"Feature"},
	{"geometry":{"coordinates":[77.617687,13.002597],"type":"Point"},"properties":{"osm_id":"7840256585","tag":{"height":"18","natural":"tree"}},"type":"Feature"},
	{"geometry":{"coordinates":[77.617634,13.00249],"type":"Point"},"properties":{"osm_id":"7840256586","tag":{"natural":"tree"}},"type":"Feature"},
	{"geometry":{"coordinates":[77.61756,13.002314],"type":"Point"},"properties":{"osm_id":"7840256592","tag":{"natural":"tree"}},"type":"Feature"},
	{"geometry":{"coordinates":[77.617475,13.002125],"type":"Point"},"properties":{"osm_id":"7840256593","tag":{"natural":"tree"}},"type":"Feature"},
	{"geometry":{"coordinates":[77.61771,13.002361],"type":"Point"},"properties":{"osm_id":"7840256594","tag":{"natural":"tree"}},"type":"Feature"},
	{"geometry":{"coordinates":[77.617574,13.002036],"type":"Point"},"properties":{"osm_id":"7840256595","tag":{"natural":"tree"}},"type":"Feature"},
	{"geometry":{"coordinates":[77.617779,13.00257],"type":"Point"},"properties":{"osm_id":"7840256604","tag":{"height":"19","natural":"tree"}},"type":"Feature"},
	{"geometry":{"coordinates":[77.61803,13.003105],"type":"Point"},"properties":{"osm_id":"7840256605","tag":{"height":"7","natural":"tree"}},"type":"Feature"},
	{"geometry":{"coordinates":[77.618073,13.003208],"type":"Point"},"properties":{"osm_id":"7840256608","tag":{"height":"15","natural":"tree"}},"type":"Feature"},
	{"geometry":{"coordinates":[77.618104,13.003289],"type":"Point"},"properties":{"osm_id":"7840256609","tag":{"height":"17","natural":"tree"}},"type":"Feature"},
	{"geometry":{"coordinates":[77.618133,13.003359],"type":"Point"},"properties":{"osm_id":"7840256610","tag":{"height":"16","natural":"tree"}},"type":"Feature"},
	{"geometry":{"coordinates":[77.618164,13.003437],"type":"Point"},"properties":{"osm_id":"7840256611","tag":{"height":"18","natural":"tree"}},"type":"Feature"},
	{"geometry":{"coordinates":[77.61904,13.003116],"type":"Point"},"properties":{"osm_id":"7840256612","tag":{"natural":"tree"}},"type":"Feature"},
	{"geometry":{"coordinates":[77.619123,13.003327],"type":"Point"},"properties":{"osm_id":"7840256613","tag":{"natural":"tree"}},"type":"Feature"},
	{"geometry":{"coordinates":[77.618989,13.003392],"type":"Point"},"properties":{"osm_id":"7840256614","tag":{"natural":"tree"}},"type":"Feature"},
	{"geometry":{"coordinates":[77.618867,13.003446],"type":"Point"},"properties":{"osm_id":"7840256615","tag":{"natural":"tree"}},"type":"Feature"},
	{"geometry":{"coordinates":[77.618847,13.003182],"type":"Point"},"properties":{"osm_id":"7840256616","tag":{"natural":"tree"}},"type":"Feature"},
	{"geometry":{"coordinates":[77.618737,13.003211],"type":"Point"},"properties":{"osm_id":"7840256617","tag":{"natural":"tree"}},"type":"Feature"},
	{"geometry":{"coordinates":[77.618662,13.003322],"type":"Point"},"properties":{"osm_id":"7840256618","tag":{"natural":"tree"}},"type":"Feature"},
	{"geometry":{"coordinates":[77.618536,13.00336],"type":"Point"},"properties":{"osm_id":"7840256619","tag":{"natural":"tree"}},"type":"Feature"},
	{"geometry":{"coordinates":[77.618718,13.00353],"type":"Point"},"properties":{"osm_id":"7840256620","tag":{"natural":"tree"}},"type":"Feature"},
	{"geometry":{"coordinates":[77.618608,13.003568],"type":"Point"},"properties":{"osm_id":"7840256621","tag":{"natural":"tree"}},"type":"Feature"},
	{"geometry":{"coordinates":[77.61843,13.003413],"type":"Point"},"properties":{"osm_id":"7840256622","tag":{"natural":"tree"}},"type":"Feature"},
	{"geometry":{"coordinates":[77.61849,13.003622],"type":"Point"},"properties":{"osm_id":"7840256623","tag":{"natural":"tree"}},"type":"Feature"},
	{"geometry":{"coordinates":[77.618364,13.003672],"type":"Point"},"properties":{"osm_id":"7840256624","tag":{"natural":"tree"}},"type":"Feature"},
	{"geometry":{"coordinates":[77.618348,13.003869],"type":"Point"},"properties":{"osm_id":"7840256625","tag":{"natural":"tree"}},"type":"Feature"},
	{"geometry":{"coordinates":[77.618472,13.004143],"type":"Point"},"properties":{"osm_id":"7840256626","tag":{"natural":"tree"}},"type":"Feature"},
	{"geometry":{"coordinates":[77.617312,13.004565],"type":"Point"},"properties":{"osm_id":"7840256627","tag":{"height":"3","natural":"tree"}},"type":"Feature"},
	{"geometry":{"coordinates":[77.617331,13.004614],"type":"Point"},"properties":{"osm_id":"7840256628","tag":{"height":"6","natural":"tree"}},"type":"Feature"},
	{"geometry":{"coordinates":[77.617328,13.00466],"type":"Point"},"properties":{"osm_id":"7840256629","tag":{"circumference":"2.6 m","natural":"tree","species":"Delonix regia"}},"type":"Feature"},
	{"geometry":{"coordinates":[77.617382,13.004638],"type":"Point"},"properties":{"osm_id":"7840256630","tag":{"height":"1","natural":"tree"}},"type":"Feature"},
	{"geometry":{"coordinates":[77.617401,13.004682],"type":"Point"},"properties":{"osm_id":"7840256631","tag":{"height":"2.5","natural":"tree"}},"type":"Feature"},
	{"geometry":{"coordinates":[77.617351,13.004705],"type":"Point"},"properties":{"osm_id":"7840256632","tag":{"circumference":"0.1 m","height":"5","natural":"tree"}},"type":"Feature"},
	{"geometry":{"coordinates":[77.617466,13.004807],"type":"Point"},"properties":{"osm_id":"7840256633","tag":{"height":"22","natural":"tree"}},"type":"Feature"},
	{"geometry":{"coordinates":[77.617567,13.00477],"type":"Point"},"properties":{"osm_id":"7840256634","tag":{"height":"24","natural":"tree"}},"type":"Feature"},
	{"geometry":{"coordinates":[77.617659,13.004737],"type":"Point"},"properties":{"osm_id":"7840256635","tag":{"height":"7","natural":"tree"}},"type":"Feature"},
	{"geometry":{"coordinates":[77.617989,13.004599],"type":"Point"},"properties":{"osm_id":"7840256636","tag":{"natural":"tree"}},"type":"Feature"},
	{"geometry":{"coordinates":[77.618085,13.004561],"type":"Point"},"properties":{"osm_id":"7840256637","tag":{"height":"23","natural":"tree"}},"type":"Feature"},
	{"geometry":{"coordinates":[77.618347,13.00447],"type":"Point"},"properties":{"osm_id":"7840256638","tag":{"height":"21","natural":"tree"}},"type":"Feature"},
	{"geometry":{"coordinates":[77.618563,13.004687],"type":"Point"},"properties":{"osm_id":"7840256639","tag":{"height":"19","natural":"tree"}},"type":"Feature"},
	{"geometry":{"coordinates":[77.618662,13.00464],"type":"Point"},"properties":{"osm_id":"7840256640","tag":{"height":"18","natural":"tree"}},"type":"Feature"},
	{"geometry":{"coordinates":[77.618511,13.004551],"type":"Point"},"properties":{"osm_id":"7840256641","tag":{"height":"2.5","natural":"tree"}},"type":"Feature"},
	{"geometry":{"coordinates":[77.618539,13.004622],"type":"Point"},"properties":{"osm_id":"7840256642","tag":{"height":"7","natural":"tree"}},"type":"Feature"},
	{"geometry":{"coordinates":[77.617648,13.004123],"type":"Point"},"properties":{"osm_id":"7856538016","tag":{"height":"3","natural":"tree"}},"type":"Feature"},
	{"geometry":{"coordinates":[77.617417,13.004762],"type":"Point"},"properties":{"osm_id":"7856538017","tag":{"circumference":"0.45 m","height":"4","natural":"tree"}},"type":"Feature"},
	{"geometry":{"coordinates":[77.617735,13.005517],"type":"Point"},"properties":{"osm_id":"7861976476","tag":{"natural":"tree"}},"type":"Feature"},
	{"geometry":{"coordinates":[77.617731,13.005507],"type":"Point"},"properties":{"osm_id":"7861976477","tag":{"natural":"tree"}},"type":"Feature"},
	{"geometry":{"coordinates":[77.617728,13.005499],"type":"Point"},"properties":{"osm_id":"7861976478","tag":{"natural":"tree"}},"type":"Feature"},
	{"geometry":{"coordinates":[77.617725,13.005492],"type":"Point"},"properties":{"osm_id":"7861976479","tag":{"natural":"tree"}},"type":"Feature"},
	{"geometry":{"coordinates":[77.617721,13.005484],"type":"Point"},"properties":{"osm_id":"7861976480","tag":{"natural":"tree"}},"type":"Feature"},
	{"geometry":{"coordinates":[77.617719,13.005477],"type":"Point"},"properties":{"osm_id":"7861976481","tag":{"natural":"tree"}},"type":"Feature"},
	{"geometry":{"coordinates":[77.617716,13.005469],"type":"Point"},"properties":{"osm_id":"7861976482","tag":{"natural":"tree"}},"type":"Feature"},
	{"geometry":{"coordinates":[77.617713,13.005461],"type":"Point"},"properties":{"osm_id":"7861976483","tag":{"natural":"tree"}},"type":"Feature"},
	{"geometry":{"coordinates":[77.617691,13.00554],"type":"Point"},"properties":{"osm_id":"7861976484","tag":{"natural":"tree"}},"type":"Feature"},
	{"geometry":{"coordinates":[77.617682,13.005524],"type":"Point"},"properties":{"osm_id":"7861978785","tag":{"natural":"tree"}},"type":"Feature"},
	{"geometry":{"coordinates":[77.617678,13.005511],"type":"Point"},"properties":{"osm_id":"7861978786","tag":{"natural":"tree"}},"type":"Feature"},
	{"geometry":{"coordinates":[77.617674,13.005494],"type":"Point"},"properties":{"osm_id":"7861978787","tag":{"natural":"tree"}},"type":"Feature"},
	{"geometry":{"coordinates":[77.617537,13.00552],"type":"Point"},"properties":{"osm_id":"7861978788","tag":{"natural":"tree"}},"type":"Feature"},
	{"geometry":{"coordinates":[77.617529,13.005502],"type":"Point"},"properties":{"osm_id":"7861978789","tag":{"natural":"tree"}},"type":"Feature"},
	{"geometry":{"coordinates":[77.617693,13.005408],"type":"Point"},"properties":{"osm_id":"7861978790","tag":{"natural":"tree"}},"type":"Feature"},
	{"geometry":{"coordinates":[77.617685,13.005394],"type":"Point"},"properties":{"osm_id":"7861978791","tag":{"natural":"tree"}},"type":"Feature"},
	{"geometry":{"coordinates":[77.617679,13.005376],"type":"Point"},"properties":{"osm_id":"7861978792","tag":{"natural":"tree"}},"type":"Feature"},
	{"geometry":{"coordinates":[77.617674,13.005362],"type":"Point"},"properties":{"osm_id":"7861978793","tag":{"natural":"tree"}},"type":"Feature"},
	{"geometry":{"coordinates":[77.617669,13.005348],"type":"Point"},"properties":{"osm_id":"7861978794","tag":{"natural":"tree"}},"type":"Feature"},
	{"geometry":{"coordinates":[77.617662,13.005333],"type":"Point"},"properties":{"osm_id":"7861978795","tag":{"natural":"tree"}},"type":"Feature"},
	{"geometry":{"coordinates":[77.617644,13.00529],"type":"Point"},"properties":{"osm_id":"7861978796","tag":{"natural":"tree"}},"type":"Feature"},
	{"geometry":{"coordinates":[77.617595,13.00531],"type":"Point"},"properties":{"osm_id":"7861978797","tag":{"natural":"tree"}},"type":"Feature"},
	{"geometry":{"coordinates":[77.617454,13.005297],"type":"Point"},"properties":{"osm_id":"7861978798","tag":{"natural":"tree"}},"type":"Feature"},
	{"geometry":{"coordinates":[77.617455,13.005048],"type":"Point"},"properties":{"osm_id":"7861978799","tag":{"natural":"tree"}},"type":"Feature"},
	{"geometry":{"coordinates":[77.617356,13.005039],"type":"Point"},"properties":{"osm_id":"7861978800","tag":{"natural":"tree"}},"type":"Feature"},
	{"geometry":{"coordinates":[77.617378,13.005092],"type":"Point"},"properties":{"osm_id":"7861978801","tag":{"natural":"tree"}},"type":"Feature"},
	{"geometry":{"coordinates":[77.617399,13.005144],"type":"Point"},"properties":{"osm_id":"7861978802","tag":{"natural":"tree"}},"type":"Feature"},
	{"geometry":{"coordinates":[77.617426,13.005196],"type":"Point"},"properties":{"osm_id":"7861978803","tag":{"natural":"tree"}},"type":"Feature"},
	{"geometry":{"coordinates":[77.617453,13.005251],"type":"Point"},"properties":{"osm_id":"7861978804","tag":{"natural":"tree"}},"type":"Feature"},
	{"geometry":{"coordinates":[77.617535,13.005218],"type":"Point"},"properties":{"osm_id":"7861978805","tag":{"natural":"tree"}},"type":"Feature"},
	{"geometry":{"coordinates":[77.617498,13.005131],"type":"Point"},"properties":{"osm_id":"7861978806","tag":{"natural":"tree"}},"type":"Feature"},
	{"geometry":{"coordinates":[77.617244,13.004845],"type":"Point"},"properties":{"osm_id":"7861978807","tag":{"natural":"tree"}},"type":"Feature"},
	{"geometry":{"coordinates":[77.616278,13.005498],"type":"Point"},"properties":{"osm_id":"7861978817","tag":{"natural":"tree"}},"type":"Feature"},
	{"geometry":{"coordinates":[77.616218,13.005525],"type":"Point"},"properties":{"osm_id":"7861978818","tag":{"natural":"tree"}},"type":"Feature"},
	{"geometry":{"coordinates":[77.616302,13.005558],"type":"Point"},"properties":{"osm_id":"7861978819","tag":{"natural":"tree"}},"type":"Feature"},
	{"geometry":{"coordinates":[77.616325,13.005631],"type":"Point"},"properties":{"osm_id":"7861978820","tag":{"natural":"tree"}},"type":"Feature"},
	{"geometry":{"coordinates":[77.616353,13.005704],"type":"Point"},"properties":{"osm_id":"7861978821","tag":{"natural":"tree"}},"type":"Feature"},
	{"geometry":{"coordinates":[77.616404,13.005817],"type":"Point"},"properties":{"osm_id":"7861978822","tag":{"natural":"tree"}},"type":"Feature"},
	{"geometry":{"coordinates":[77.616413,13.006061],"type":"Point"},"properties":{"osm_id":"7861978823","tag":{"natural":"tree"}},"type":"Feature"},
	{"geometry":{"coordinates":[77.616355,13.005951],"type":"Point"},"properties":{"osm_id":"7881321463","tag":{"natural":"tree"}},"type":"Feature"},
	{"geometry":{"coordinates":[77.616315,13.005841],"type":"Point"},"properties":{"osm_id":"7881321464","tag":{"natural":"tree"}},"type":"Feature"},
	{"geometry":{"coordinates":[77.616291,13.005724],"type":"Point"},"properties":{"osm_id":"7881321465","tag":{"natural":"tree"}},"type":"Feature"},
	{"geometry":{"coordinates":[77.616252,13.005635],"type":"Point"},"properties":{"osm_id":"7881321466","tag":{"natural":"tree"}},"type":"Feature"},
	{"geometry":{"coordinates":[77.61577,13.004758],"type":"Point"},"properties":{"osm_id":"7881321480","tag":{"natural":"tree"}},"type":"Feature"},
	{"geometry":{"coordinates":[77.615637,13.004808],"type":"Point"},"properties":{"osm_id":"7881321481","tag":{"natural":"tree"}},"type":"Feature"},
	{"geometry":{"coordinates":[77.615367,13.004916],"type":"Point"},"properties":{"osm_id":"7881321482","tag":{"natural":"tree"}},"type":"Feature"},
	{"geometry":{"coordinates":[77.615172,13.004989],"type":"Point"},"properties":{"osm_id":"7881321483","tag":{"natural":"tree"}},"type":"Feature"},
	{"geometry":{"coordinates":[77.61614,13.005054],"type":"Point"},"properties":{"osm_id":"7881321484","tag":{"natural":"tree"}},"type":"Feature"},
	{"geometry":{"coordinates":[77.616177,13.005152],"type":"Point"},"properties":{"osm_id":"7881335485","tag":{"natural":"tree"}},"type":"Feature"},
	{"geometry":{"coordinates":[77.616223,13.005263],"type":"Point"},"properties":{"osm_id":"7881335486","tag":{"natural":"tree"}},"type":"Feature"},
	{"geometry":{"coordinates":[77.616305,13.005309],"type":"Point"},"properties":{"osm_id":"7881335488","tag":{"natural":"tree"}},"type":"Feature"},
	{"geometry":{"coordinates":[77.616597,13.005206],"type":"Point"},"properties":{"osm_id":"7881335497","tag":{"natural":"tree"}},"type":"Feature"},
	{"geometry":{"coordinates":[77.618613,13.00453],"type":"Point"},"properties":{"osm_id":"7881335504","tag":{"height":"18","natural":"tree"}},"type":"Feature"},
	{"geometry":{"coordinates":[77.618626,13.004906],"type":"Point"},"properties":{"osm_id":"7881335505","tag":{"height":"19","natural":"tree"}},"type":"Feature"},
	{"geometry":{"coordinates":[77.618621,13.004933],"type":"Point"},"properties":{"osm_id":"7881335506","tag":{"height":"19","natural":"tree"}},"type":"Feature"},
	{"geometry":{"coordinates":[77.618728,13.005159],"type":"Point"},"properties":{"osm_id":"7881335507","tag":{"height":"19","natural":"tree"}},"type":"Feature"},
	{"geometry":{"coordinates":[77.618751,13.005162],"type":"Point"},"properties":{"osm_id":"7881335508","tag":{"height":"19","natural":"tree"}},"type":"Feature"},
	{"geometry":{"coordinates":[77.618809,13.005014],"type":"Point"},"properties":{"osm_id":"7881335509","tag":{"height":"19","natural":"tree"}},"type":"Feature"},
	{"geometry":{"coordinates":[77.618848,13.005102],"type":"Point"},"properties":{"osm_id":"7881335510","tag":{"height":"19","natural":"tree"}},"type":"Feature"},
	{"geometry":{"coordinates":[77.618744,13.00515],"type":"Point"},"properties":{"osm_id":"7881335511","tag":{"height":"19","natural":"tree"}},"type":"Feature"},
	{"geometry":{"coordinates":[77.618663,13.005028],"type":"Point"},"properties":{"osm_id":"7881335512","tag":{"height":"19","natural":"tree"}},"type":"Feature"},
	{"geometry":{"coordinates":[77.618688,13.005023],"type":"Point"},"properties":{"osm_id":"7881335513","tag":{"height":"19","natural":"tree"}},"type":"Feature"},
	{"geometry":{"coordinates":[77.618756,13.004876],"type":"Point"},"properties":{"osm_id":"7881335514","tag":{"height":"19","natural":"tree"}},"type":"Feature"},
	{"geometry":{"coordinates":[77.618243,13.002718],"type":"Point"},"properties":{"osm_id":"7902994777","tag":{"natural":"tree"}},"type":"Feature"},
	{"geometry":{"coordinates":[77.618364,13.002671],"type":"Point"},"properties":{"osm_id":"7902994778","tag":{"natural":"tree"}},"type":"Feature"},
	{"geometry":{"coordinates":[77.619011,13.0023],"type":"Point"},"properties":{"osm_id":"7902994779","tag":{"natural":"tree"}},"type":"Feature"},
	{"geometry":{"coordinates":[77.618959,13.002276],"type":"Point"},"properties":{"osm_id":"7902994780","tag":{"natural":"tree"}},"type":"Feature"},
	{"geometry":{"coordinates":[77.618997,13.002271],"type":"Point"},"properties":{"osm_id":"7902994781","tag":{"natural":"tree"}},"type":"Feature"},
	{"geometry":{"coordinates":[77.618978,13.002398],"type":"Point"},"properties":{"osm_id":"7902994782","tag":{"natural":"tree"}},"type":"Feature"},
	{"geometry":{"coordinates":[77.618943,13.002415],"type":"Point"},"properties":{"osm_id":"7902994783","tag":{"natural":"tree"}},"type":"Feature"},
	{"geometry":{"coordinates":[77.619005,13.002385],"type":"Point"},"properties":{"osm_id":"7902994784","tag":{"natural":"tree"}},"type":"Feature"},
	{"geometry":{"coordinates":[77.618743,13.002353],"type":"Point"},"properties":{"osm_id":"7903042789","tag":{"natural":"tree"}},"type":"Feature"},
	{"geometry":{"coordinates":[77.618626,13.002396],"type":"Point"},"properties":{"osm_id":"7903042790","tag":{"natural":"tree"}},"type":"Feature"},
	{"geometry":{"coordinates":[77.618475,13.002464],"type":"Point"},"properties":{"osm_id":"7903042791","tag":{"natural":"tree"}},"type":"Feature"},
	{"geometry":{"coordinates":[77.61839,13.002503],"type":"Point"},"properties":{"osm_id":"7903042792","tag":{"natural":"tree"}},"type":"Feature"},
	{"geometry":{"coordinates":[77.618302,13.002553],"type":"Point"},"properties":{"osm_id":"7903042793","tag":{"natural":"tree"}},"type":"Feature"},
	{"geometry":{"coordinates":[77.618235,13.002575],"type":"Point"},"properties":{"osm_id":"7903042794","tag":{"natural":"tree"}},"type":"Feature"},
	{"geometry":{"coordinates":[77.618117,13.002646],"type":"Point"},"properties":{"osm_id":"7903042803","tag":{"natural":"tree"}},"type":"Feature"},
	{"geometry":{"coordinates":[77.61803,13.002684],"type":"Point"},"properties":{"osm_id":"7903042804","tag":{"natural":"tree"}},"type":"Feature"},
	{"geometry":{"coordinates":[77.618082,13.00266],"type":"Point"},"properties":{"osm_id":"7903042805","tag":{"natural":"tree"}},"type":"Feature"},
	{"geometry":{"coordinates":[77.617948,13.002718],"type":"Point"},"properties":{"osm_id":"7903042806","tag":{"natural":"tree"}},"type":"Feature"},
	{"geometry":{"coordinates":[77.616463,13.002486],"type":"Point"},"properties":{"osm_id":"7938119159","tag":{"natural":"tree"}},"type":"Feature"},
	{"geometry":{"coordinates":[77.616487,13.002552],"type":"Point"},"properties":{"osm_id":"7938119160","tag":{"natural":"tree"}},"type":"Feature"},
	{"geometry":{"coordinates":[77.616515,13.002607],"type":"Point"},"properties":{"osm_id":"7938119161","tag":{"natural":"tree"}},"type":"Feature"},
	{"geometry":{"coordinates":[77.617223,13.0034],"type":"Point"},"properties":{"osm_id":"7938219407","tag":{"natural":"tree"}},"type":"Feature"},
	{"geometry":{"coordinates":[77.617196,13.003409],"type":"Point"},"properties":{"osm_id":"7938219408","tag":{"natural":"tree"}},"type":"Feature"},
	{"geometry":{"coordinates":[77.617117,13.003432],"type":"Point"},"properties":{"osm_id":"7938219409","tag":{"natural":"tree"}},"type":"Feature"},
	{"geometry":{"coordinates":[77.617038,13.003528],"type":"Point"},"properties":{"osm_id":"7938219410","tag":{"natural":"tree"}},"type":"Feature"},
	{"geometry":{"coordinates":[77.616959,13.003563],"type":"Point"},"properties":{"osm_id":"7938219411","tag":{"natural":"tree"}},"type":"Feature"},
	{"geometry":{"coordinates":[77.616715,13.003602],"type":"Point"},"properties":{"osm_id":"7938219412","tag":{"natural":"tree"}},"type":"Feature"},
	{"geometry":{"coordinates":[77.616673,13.00351],"type":"Point"},"properties":{"osm_id":"7938219413","tag":{"natural":"tree"}},"type":"Feature"},
	{"geometry":{"coordinates":[77.616652,13.003472],"type":"Point"},"properties":{"osm_id":"7938219414","tag":{"natural":"tree"}},"type":"Feature"},
	{"geometry":{"coordinates":[77.616908,13.003481],"type":"Point"},"properties":{"osm_id":"7938219419","tag":{"natural":"tree"}},"type":"Feature"},
	{"geometry":{"coordinates":[77.616902,13.003464],"type":"Point"},"properties":{"osm_id":"7938219420","tag":{"natural":"tree"}},"type":"Feature"},
	{"geometry":{"coordinates":[77.616897,13.003453],"type":"Point"},"properties":{"osm_id":"7938219421","tag":{"natural":"tree"}},"type":"Feature"},
	{"geometry":{"coordinates":[77.616894,13.003446],"type":"Point"},"properties":{"osm_id":"7938219422","tag":{"natural":"tree"}},"type":"Feature"},
	{"geometry":{"coordinates":[77.616864,13.003371],"type":"Point"},"properties":{"osm_id":"7938219423","tag":{"natural":"tree"}},"type":"Feature"},
	{"geometry":{"coordinates":[77.616857,13.003356],"type":"Point"},"properties":{"osm_id":"7938219424","tag":{"natural":"tree"}},"type":"Feature"},
	{"geometry":{"coordinates":[77.616377,13.00331],"type":"Point"},"properties":{"osm_id":"7938219428","tag":{"natural":"tree"}},"type":"Feature"},
	{"geometry":{"coordinates":[77.616219,13.003364],"type":"Point"},"properties":{"osm_id":"7938219429","tag":{"natural":"tree"}},"type":"Feature"},
	{"geometry":{"coordinates":[77.61611,13.003405],"type":"Point"},"properties":{"osm_id":"7938219430","tag":{"natural":"tree"}},"type":"Feature"},
	{"geometry":{"coordinates":[77.616168,13.003535],"type":"Point"},"properties":{"osm_id":"7938219431","tag":{"natural":"tree"}},"type":"Feature"},
	{"geometry":{"coordinates":[77.616282,13.00349],"type":"Point"},"properties":{"osm_id":"7938219432","tag":{"natural":"tree"}},"type":"Feature"},
	{"geometry":{"coordinates":[77.616056,13.003573],"type":"Point"},"properties":{"osm_id":"7938219433","tag":{"natural":"tree"}},"type":"Feature"},
	{"geometry":{"coordinates":[77.615962,13.003614],"type":"Point"},"properties":{"osm_id":"7938219434","tag":{"natural":"tree"}},"type":"Feature"},
	{"geometry":{"coordinates":[77.615867,13.003661],"type":"Point"},"properties":{"osm_id":"7938219435","tag":{"natural":"tree"}},"type":"Feature"},
	{"geometry":{"coordinates":[77.615795,13.003699],"type":"Point"},"properties":{"osm_id":"7938219436","tag":{"natural":"tree"}},"type":"Feature"},
	{"geometry":{"coordinates":[77.615694,13.003742],"type":"Point"},"properties":{"osm_id":"7938219437","tag":{"natural":"tree"}},"type":"Feature"},
	{"geometry":{"coordinates":[77.615398,13.003642],"type":"Point"},"properties":{"osm_id":"7938219442","tag":{"natural":"tree"}},"type":"Feature"},
	{"geometry":{"coordinates":[77.615364,13.00357],"type":"Point"},"properties":{"osm_id":"7938219443","tag":{"natural":"tree"}},"type":"Feature"},
	{"geometry":{"coordinates":[77.615329,13.003487],"type":"Point"},"properties":{"osm_id":"7938219444","tag":{"natural":"tree"}},"type":"Feature"},
	{"geometry":{"coordinates":[77.615295,13.003403],"type":"Point"},"properties":{"osm_id":"7938219445","tag":{"natural":"tree"}},"type":"Feature"},
	{"geometry":{"coordinates":[77.615245,13.003282],"type":"Point"},"properties":{"osm_id":"7938219446","tag":{"natural":"tree"}},"type":"Feature"},
	{"geometry":{"coordinates":[77.615153,13.00307],"type":"Point"},"properties":{"osm_id":"7938219447","tag":{"natural":"tree"}},"type":"Feature"},
	{"geometry":{"coordinates":[77.615047,13.002795],"type":"Point"},"properties":{"osm_id":"7938219448","tag":{"natural":"tree"}},"type":"Feature"},
	{"geometry":{"coordinates":[77.614974,13.002605],"type":"Point"},"properties":{"osm_id":"7938219449","tag":{"natural":"tree"}},"type":"Feature"},
	{"geometry":{"coordinates":[77.615145,13.002684],"type":"Point"},"properties":{"osm_id":"7938219450","tag":{"natural":"tree"}},"type":"Feature"},
	{"geometry":{"coordinates":[77.615231,13.00288],"type":"Point"},"properties":{"osm_id":"7938219451","tag":{"natural":"tree"}},"type":"Feature"},
	{"geometry":{"coordinates":[77.615295,13.003039],"type":"Point"},"properties":{"osm_id":"7938219452","tag":{"natural":"tree"}},"type":"Feature"},
	{"geometry":{"coordinates":[77.61536,13.003206],"type":"Point"},"properties":{"osm_id":"7938219453","tag":{"natural":"tree"}},"type":"Feature"},
	{"geometry":{"coordinates":[77.615401,13.003303],"type":"Point"},"properties":{"osm_id":"7938219454","tag":{"natural":"tree"}},"type":"Feature"},
	{"geometry":{"coordinates":[77.615426,13.003368],"type":"Point"},"properties":{"osm_id":"7938219459","tag":{"natural":"tree"}},"type":"Feature"},
	{"geometry":{"coordinates":[77.615452,13.003436],"type":"Point"},"properties":{"osm_id":"7938219460","tag":{"natural":"tree"}},"type":"Feature"},
	{"geometry":{"coordinates":[77.615482,13.003507],"type":"Point"},"properties":{"osm_id":"7938219461","tag":{"natural":"tree"}},"type":"Feature"},
	{"geometry":{"coordinates":[77.615518,13.003593],"type":"Point"},"properties":{"osm_id":"7938219462","tag":{"natural":"tree"}},"type":"Feature"},
	{"geometry":{"coordinates":[77.615371,13.00379],"type":"Point"},"properties":{"osm_id":"7941607038","tag":{"natural":"tree"}},"type":"Feature"},
	{"geometry":{"coordinates":[77.615481,13.003792],"type":"Point"},"properties":{"osm_id":"7941607039","tag":{"natural":"tree"}},"type":"Feature"},
	{"geometry":{"coordinates":[77.615553,13.00376],"type":"Point"},"properties":{"osm_id":"7941607040","tag":{"natural":"tree"}},"type":"Feature"},
	{"geometry":{"coordinates":[77.615531,13.003907],"type":"Point"},"properties":{"osm_id":"7941607041","tag":{"natural":"tree"}},"type":"Feature"},
	{"geometry":{"coordinates":[77.615589,13.00388],"type":"Point"},"properties":{"osm_id":"7941607042","tag":{"natural":"tree"}},"type":"Feature"},
	{"geometry":{"coordinates":[77.615637,13.00402],"type":"Point"},"properties":{"osm_id":"7941607045","tag":{"natural":"tree"}},"type":"Feature"},
	{"geometry":{"coordinates":[77.615576,13.004066],"type":"Point"},"properties":{"osm_id":"7941607046","tag":{"natural":"tree"}},"type":"Feature"},
	{"geometry":{"coordinates":[77.615657,13.004088],"type":"Point"},"properties":{"osm_id":"7941607047","tag":{"natural":"tree"}},"type":"Feature"},
	{"geometry":{"coordinates":[77.615644,13.004191],"type":"Point"},"properties":{"osm_id":"7941607048","tag":{"natural":"tree"}},"type":"Feature"},
	{"geometry":{"coordinates":[77.615677,13.004283],"type":"Point"},"properties":{"osm_id":"7941607049","tag":{"natural":"tree"}},"type":"Feature"},
	{"geometry":{"coordinates":[77.615721,13.004378],"type":"Point"},"properties":{"osm_id":"7941607050","tag":{"natural":"tree"}},"type":"Feature"},
	{"geometry":{"coordinates":[77.615755,13.00447],"type":"Point"},"properties":{"osm_id":"7941607051","tag":{"natural":"tree"}},"type":"Feature"},
	{"geometry":{"coordinates":[77.615759,13.004356],"type":"Point"},"properties":{"osm_id":"7941607052","tag":{"natural":"tree"}},"type":"Feature"},
	{"geometry":{"coordinates":[77.615814,13.0045],"type":"Point"},"properties":{"osm_id":"7941607053","tag":{"natural":"tree"}},"type":"Feature"},
	{"geometry":{"coordinates":[77.615912,13.004482],"type":"Point"},"properties":{"osm_id":"7941607054","tag":{"natural":"tree"}},"type":"Feature"},
	{"geometry":{"coordinates":[77.616109,13.004419],"type":"Point"},"properties":{"osm_id":"7941607055","tag":{"natural":"tree"}},"type":"Feature"},
	{"geometry":{"coordinates":[77.616169,13.004555],"type":"Point"},"properties":{"osm_id":"7941607056","tag":{"natural":"tree"}},"type":"Feature"},
	{"geometry":{"coordinates":[77.616276,13.004014],"type":"Point"},"properties":{"osm_id":"7941607057","tag":{"natural":"tree"}},"type":"Feature"},
	{"geometry":{"coordinates":[77.616262,13.003974],"type":"Point"},"properties":{"osm_id":"7941607058","tag":{"natural":"tree"}},"type":"Feature"},
	{"geometry":{"coordinates":[77.616246,13.003941],"type":"Point"},"properties":{"osm_id":"7941607059","tag":{"natural":"tree"}},"type":"Feature"},
	{"geometry":{"coordinates":[77.616231,13.003869],"type":"Point"},"properties":{"osm_id":"7941607060","tag":{"natural":"tree"}},"type":"Feature"},
	{"geometry":{"coordinates":[77.616266,13.003853],"type":"Point"},"properties":{"osm_id":"7941607061","tag":{"natural":"tree"}},"type":"Feature"},
	{"geometry":{"coordinates":[77.616294,13.003843],"type":"Point"},"properties":{"osm_id":"7941607062","tag":{"natural":"tree"}},"type":"Feature"},
	{"geometry":{"coordinates":[77.616321,13.003827],"type":"Point"},"properties":{"osm_id":"7941607063","tag":{"natural":"tree"}},"type":"Feature"},
	{"geometry":{"coordinates":[77.61701,13.004623],"type":"Point"},"properties":{"osm_id":"7941616188","tag":{"height":"6","natural":"tree"}},"type":"Feature"},
	{"geometry":{"coordinates":[77.617134,13.004626],"type":"Point"},"properties":{"osm_id":"7941616189","tag":{"height":"6","natural":"tree"}},"type":"Feature"},
	{"geometry":{"coordinates":[77.619883,13.003899],"type":"Point"},"properties":{"osm_id":"7942081073","tag":{"height":"18","natural":"tree"}},"type":"Feature"},
	{"geometry":{"coordinates":[77.620193,13.003788],"type":"Point"},"properties":{"osm_id":"7942081074","tag":{"height":"18","natural":"tree"}},"type":"Feature"},
	{"geometry":{"coordinates":[77.620289,13.003741],"type":"Point"},"properties":{"osm_id":"7942081075","tag":{"height":"18","natural":"tree"}},"type":"Feature"},
	{"geometry":{"coordinates":[77.623627,13.001923],"type":"Point"},"properties":{"osm_id":"7944449453","tag":{"natural":"tree"}},"type":"Feature"},
	{"geometry":{"coordinates":[77.623569,13.001957],"type":"Point"},"properties":{"osm_id":"7944449454","tag":{"natural":"tree"}},"type":"Feature"},
	{"geometry":{"coordinates":[77.623487,13.002017],"type":"Point"},"properties":{"osm_id":"7944449455","tag":{"natural":"tree"}},"type":"Feature"},
	{"geometry":{"coordinates":[77.623435,13.002057],"type":"Point"},"properties":{"osm_id":"7944449456","tag":{"natural":"tree"}},"type":"Feature"},
	{"geometry":{"coordinates":[77.623317,13.001987],"type":"Point"},"properties":{"osm_id":"7944449457","tag":{"natural":"tree"}},"type":"Feature"},
	{"geometry":{"coordinates":[77.623258,13.001959],"type":"Point"},"properties":{"osm_id":"7944449458","tag":{"natural":"tree"}},"type":"Feature"},
	{"geometry":{"coordinates":[77.62329,13.001918],"type":"Point"},"properties":{"osm_id":"7944449459","tag":{"natural":"tree"}},"type":"Feature"},
	{"geometry":{"coordinates":[77.623265,13.001837],"type":"Point"},"properties":{"osm_id":"7944449460","tag":{"natural":"tree"}},"type":"Feature"},
	{"geometry":{"coordinates":[77.623238,13.00175],"type":"Point"},"properties":{"osm_id":"7944449461","tag":{"natural":"tree"}},"type":"Feature"},
	{"geometry":{"coordinates":[77.623202,13.001651],"type":"Point"},"properties":{"osm_id":"7944449462","tag":{"natural":"tree"}},"type":"Feature"},
	{"geometry":{"coordinates":[77.623152,13.001671],"type":"Point"},"properties":{"osm_id":"7944449463","tag":{"natural":"tree"}},"type":"Feature"},
	{"geometry":{"coordinates":[77.623192,13.00178],"type":"Point"},"properties":{"osm_id":"7944449464","tag":{"natural":"tree"}},"type":"Feature"},
	{"geometry":{"coordinates":[77.623229,13.001877],"type":"Point"},"properties":{"osm_id":"7944449469","tag":{"natural":"tree"}},"type":"Feature"},
	{"geometry":{"coordinates":[77.62338,13.002087],"type":"Point"},"properties":{"osm_id":"7944449470","tag":{"natural":"tree"}},"type":"Feature"},
	{"geometry":{"coordinates":[77.623297,13.002148],"type":"Point"},"properties":{"osm_id":"7944449471","tag":{"natural":"tree"}},"type":"Feature"},
	{"geometry":{"coordinates":[77.623218,13.002196],"type":"Point"},"properties":{"osm_id":"7944449472","tag":{"natural":"tree"}},"type":"Feature"},
	{"geometry":{"coordinates":[77.622089,13.002896],"type":"Point"},"properties":{"osm_id":"7944449477","tag":{"height":"18","natural":"tree"}},"type":"Feature"},
	{"geometry":{"coordinates":[77.622014,13.002949],"type":"Point"},"properties":{"osm_id":"7944449478","tag":{"height":"18","natural":"tree"}},"type":"Feature"},
	{"geometry":{"coordinates":[77.621969,13.003023],"type":"Point"},"properties":{"osm_id":"7944449479","tag":{"height":"18","natural":"tree"}},"type":"Feature"},
	{"geometry":{"coordinates":[77.621972,13.003032],"type":"Point"},"properties":{"osm_id":"7944449480","tag":{"height":"18","natural":"tree"}},"type":"Feature"},
	{"geometry":{"coordinates":[77.621978,13.003039],"type":"Point"},"properties":{"osm_id":"7944449481","tag":{"height":"18","natural":"tree"}},"type":"Feature"},
	{"geometry":{"coordinates":[77.62198,13.003047],"type":"Point"},"properties":{"osm_id":"7944449482","tag":{"height":"18","natural":"tree"}},"type":"Feature"},
	{"geometry":{"coordinates":[77.621984,13.003052],"type":"Point"},"properties":{"osm_id":"7944449483","tag":{"height":"18","natural":"tree"}},"type":"Feature"},
	{"geometry":{"coordinates":[77.621987,13.003059],"type":"Point"},"properties":{"osm_id":"7944449484","tag":{"height":"18","natural":"tree"}},"type":"Feature"},
	{"geometry":{"coordinates":[77.621086,13.003263],"type":"Point"},"properties":{"osm_id":"7944450089","tag":{"height":"18","natural":"tree"}},"type":"Feature"},
	{"geometry":{"coordinates":[77.620933,13.003329],"type":"Point"},"properties":{"osm_id":"7944450090","tag":{"height":"18","natural":"tree"}},"type":"Feature"},
	{"geometry":{"coordinates":[77.621413,13.003138],"type":"Point"},"properties":{"osm_id":"7944450091","tag":{"height":"18","natural":"tree"}},"type":"Feature"},
	{"geometry":{"coordinates":[77.621462,13.003118],"type":"Point"},"properties":{"osm_id":"7944450092","tag":{"height":"18","natural":"tree"}},"type":"Feature"},
	{"geometry":{"coordinates":[77.621512,13.003087],"type":"Point"},"properties":{"osm_id":"7944450093","tag":{"height":"18","natural":"tree"}},"type":"Feature"},
	{"geometry":{"coordinates":[77.623403,13.001982],"type":"Point"},"properties":{"osm_id":"7944450115","tag":{"natural":"tree"}},"type":"Feature"},
	{"geometry":{"coordinates":[77.623739,13.001709],"type":"Point"},"properties":{"osm_id":"7944450123","tag":{"natural":"tree"}},"type":"Feature"},
	{"geometry":{"coordinates":[77.621991,13.003065],"type":"Point"},"properties":{"osm_id":"7944478685","tag":{"height":"18","natural":"tree"}},"type":"Feature"},
	{"geometry":{"coordinates":[77.621993,13.003071],"type":"Point"},"properties":{"osm_id":"7944478686","tag":{"height":"18","natural":"tree"}},"type":"Feature"},
	{"geometry":{"coordinates":[77.622029,13.003203],"type":"Point"},"properties":{"osm_id":"7944478687","tag":{"height":"18","natural":"tree"}},"type":"Feature"},
	{"geometry":{"coordinates":[77.622058,13.00326],"type":"Point"},"properties":{"osm_id":"7944478688","tag":{"height":"18","natural":"tree"}},"type":"Feature"},
	{"geometry":{"coordinates":[77.622086,13.003303],"type":"Point"},"properties":{"osm_id":"7944478689","tag":{"height":"18","natural":"tree"}},"type":"Feature"},
	{"geometry":{"coordinates":[77.621854,13.00307],"type":"Point"},"properties":{"osm_id":"7944478690","tag":{"height":"18","natural":"tree"}},"type":"Feature"},
	{"geometry":{"coordinates":[77.62293,13.002391],"type":"Point"},"properties":{"osm_id":"7944478691","tag":{"height":"18","natural":"tree"}},"type":"Feature"},
	{"geometry":{"coordinates":[77.622825,13.002454],"type":"Point"},"properties":{"osm_id":"7944478692","tag":{"height":"18","natural":"tree"}},"type":"Feature"},
	{"geometry":{"coordinates":[77.622754,13.002485],"type":"Point"},"properties":{"osm_id":"7944478693","tag":{"height":"18","natural":"tree"}},"type":"Feature"},
	{"geometry":{"coordinates":[77.622688,13.00253],"type":"Point"},"properties":{"osm_id":"7944478694","tag":{"height":"18","natural":"tree"}},"type":"Feature"},
	{"geometry":{"coordinates":[77.62163,13.003175],"type":"Point"},"properties":{"osm_id":"7944523258","tag":{"height":"18","natural":"tree"}},"type":"Feature"},
	{"geometry":{"coordinates":[77.621362,13.003367],"type":"Point"},"properties":{"osm_id":"7944523259","tag":{"height":"18","natural":"tree"}},"type":"Feature"},
	{"geometry":{"coordinates":[77.621263,13.003414],"type":"Point"},"properties":{"osm_id":"7944523260","tag":{"height":"18","natural":"tree"}},"type":"Feature"},
	{"geometry":{"coordinates":[77.621165,13.00347],"type":"Point"},"properties":{"osm_id":"7944523261","tag":{"height":"18","natural":"tree"}},"type":"Feature"},
	{"geometry":{"coordinates":[77.620765,13.003682],"type":"Point"},"properties":{"osm_id":"7944523265","tag":{"height":"18","natural":"tree"}},"type":"Feature"},
	{"geometry":{"coordinates":[77.61874,13.004435],"type":"Point"},"properties":{"osm_id":"7944523273","tag":{"natural":"tree"}},"type":"Feature"},
	{"geometry":{"coordinates":[77.61875,13.004289],"type":"Point"},"properties":{"osm_id":"7944523274","tag":{"natural":"tree"}},"type":"Feature"},
	{"geometry":{"coordinates":[77.618868,13.00424],"type":"Point"},"properties":{"osm_id":"7944523275","tag":{"natural":"tree"}},"type":"Feature"},
	{"geometry":{"coordinates":[77.618979,13.004195],"type":"Point"},"properties":{"osm_id":"7944523276","tag":{"natural":"tree"}},"type":"Feature"},
	{"geometry":{"coordinates":[77.619075,13.004157],"type":"Point"},"properties":{"osm_id":"7944523277","tag":{"natural":"tree"}},"type":"Feature"},
	{"geometry":{"coordinates":[77.619138,13.00428],"type":"Point"},"properties":{"osm_id":"7944523278","tag":{"natural":"tree"}},"type":"Feature"},
	{"geometry":{"coordinates":[77.619218,13.004106],"type":"Point"},"properties":{"osm_id":"7944523279","tag":{"natural":"tree"}},"type":"Feature"},
	{"geometry":{"coordinates":[77.619329,13.004058],"type":"Point"},"properties":{"osm_id":"7944523280","tag":{"natural":"tree"}},"type":"Feature"},
	{"geometry":{"coordinates":[77.6194,13.004026],"type":"Point"},"properties":{"osm_id":"7944523281","tag":{"natural":"tree"}},"type":"Feature"},
	{"geometry":{"coordinates":[77.619458,13.004005],"type":"Point"},"properties":{"osm_id":"7944523282","tag":{"natural":"tree"}},"type":"Feature"},
	{"geometry":{"coordinates":[77.62039,13.004316],"type":"Point"},"properties":{"osm_id":"7944581874","tag":{"natural":"tree"}},"type":"Feature"},
	{"geometry":{"coordinates":[77.620448,13.004431],"type":"Point"},"properties":{"osm_id":"7944581875","tag":{"natural":"tree"}},"type":"Feature"},
	{"geometry":{"coordinates":[77.62071,13.0047],"type":"Point"},"properties":{"osm_id":"7944610806","tag":{"natural":"tree"}},"type":"Feature"},
	{"geometry":{"coordinates":[77.622982,13.004565],"type":"Point"},"properties":{"osm_id":"7950513020","tag":{"natural":"tree"}},"type":"Feature"},
	{"geometry":{"coordinates":[77.622624,13.00464],"type":"Point"},"properties":{"osm_id":"7951293996","tag":{"natural":"tree"}},"type":"Feature"},
	{"geometry":{"coordinates":[77.619964,13.003569],"type":"Point"},"properties":{"osm_id":"7951294051","tag":{"height":"18","natural":"tree"}},"type":"Feature"},
	{"geometry":{"coordinates":[77.620073,13.003706],"type":"Point"},"properties":{"osm_id":"7951294052","tag":{"height":"18","natural":"tree"}},"type":"Feature"},
	{"geometry":{"coordinates":[77.620018,13.003583],"type":"Point"},"properties":{"osm_id":"7951294053","tag":{"height":"18","natural":"tree"}},"type":"Feature"},
	{"geometry":{"coordinates":[77.620002,13.003558],"type":"Point"},"properties":{"osm_id":"7951294054","tag":{"height":"18","natural":"tree"}},"type":"Feature"},
	{"geometry":{"coordinates":[77.619934,13.003415],"type":"Point"},"properties":{"osm_id":"7951294055","tag":{"height":"18","natural":"tree"}},"type":"Feature"},
	{"geometry":{"coordinates":[77.619836,13.003228],"type":"Point"},"properties":{"osm_id":"7951294056","tag":{"height":"18","natural":"tree"}},"type":"Feature"},
	{"geometry":{"coordinates":[77.619768,13.003118],"type":"Point"},"properties":{"osm_id":"7951294057","tag":{"height":"18","natural":"tree"}},"type":"Feature"},
	{"geometry":{"coordinates":[77.617546,13.002979],"type":"Point"},"properties":{"osm_id":"7954170218","tag":{"natural":"tree"}},"type":"Feature"},
	{"geometry":{"coordinates":[77.617482,13.002862],"type":"Point"},"properties":{"osm_id":"7954170219","tag":{"natural":"tree"}},"type":"Feature"},
	{"geometry":{"coordinates":[77.617391,13.003046],"type":"Point"},"properties":{"osm_id":"7954170222","tag":{"natural":"tree"}},"type":"Feature"},
	{"geometry":{"coordinates":[77.617256,13.003085],"type":"Point"},"properties":{"osm_id":"7954170223","tag":{"natural":"tree"}},"type":"Feature"},
	{"geometry":{"coordinates":[77.617243,13.002972],"type":"Point"},"properties":{"osm_id":"7954170224","tag":{"natural":"tree"}},"type":"Feature"},
	{"geometry":{"coordinates":[77.617146,13.003011],"type":"Point"},"properties":{"osm_id":"7954170226","tag":{"natural":"tree"}},"type":"Feature"},
	{"geometry":{"coordinates":[77.617109,13.003135],"type":"Point"},"properties":{"osm_id":"7954170230","tag":{"natural":"tree"}},"type":"Feature"},
	{"geometry":{"coordinates":[77.616999,13.003165],"type":"Point"},"properties":{"osm_id":"7954170231","tag":{"natural":"tree"}},"type":"Feature"},
	{"geometry":{"coordinates":[77.616914,13.003199],"type":"Point"},"properties":{"osm_id":"7954170232","tag":{"natural":"tree"}},"type":"Feature"},
	{"geometry":{"coordinates":[77.616852,13.003225],"type":"Point"},"properties":{"osm_id":"7954170233","tag":{"natural":"tree"}},"type":"Feature"},
	{"geometry":{"coordinates":[77.616495,13.003156],"type":"Point"},"properties":{"osm_id":"7954367409","tag":{"natural":"tree"}},"type":"Feature"},
	{"geometry":{"coordinates":[77.616463,13.003065],"type":"Point"},"properties":{"osm_id":"7954367410","tag":{"natural":"tree"}},"type":"Feature"},
	{"geometry":{"coordinates":[77.616447,13.003018],"type":"Point"},"properties":{"osm_id":"7954367411","tag":{"natural":"tree"}},"type":"Feature"},
	{"geometry":{"coordinates":[77.616422,13.002942],"type":"Point"},"properties":{"osm_id":"7954367412","tag":{"natural":"tree"}},"type":"Feature"},
	{"geometry":{"coordinates":[77.616397,13.002868],"type":"Point"},"properties":{"osm_id":"7954367413","tag":{"natural":"tree"}},"type":"Feature"},
	{"geometry":{"coordinates":[77.616355,13.002777],"type":"Point"},"properties":{"osm_id":"7954367414","tag":{"natural":"tree"}},"type":"Feature"},
	{"geometry":{"coordinates":[77.616318,13.002696],"type":"Point"},"properties":{"osm_id":"7954367415","tag":{"natural":"tree"}},"type":"Feature"},
	{"geometry":{"coordinates":[77.616277,13.002608],"type":"Point"},"properties":{"osm_id":"7954367416","tag":{"natural":"tree"}},"type":"Feature"},
	{"geometry":{"coordinates":[77.616185,13.002408],"type":"Point"},"properties":{"osm_id":"7954367417","tag":{"natural":"tree"}},"type":"Feature"},
	{"geometry":{"coordinates":[77.616244,13.002523],"type":"Point"},"properties":{"osm_id":"7954367419","tag":{"natural":"tree"}},"type":"Feature"},
	{"geometry":{"coordinates":[77.616427,13.002382],"type":"Point"},"properties":{"osm_id":"7954367420","tag":{"natural":"tree"}},"type":"Feature"},
	{"geometry":{"coordinates":[77.616397,13.002183],"type":"Point"},"properties":{"osm_id":"7954367423","tag":{"natural":"tree"}},"type":"Feature"},
	{"geometry":{"coordinates":[77.616574,13.002158],"type":"Point"},"properties":{"osm_id":"7954367424","tag":{"natural":"tree"}},"type":"Feature"},
	{"geometry":{"coordinates":[77.616719,13.00211],"type":"Point"},"properties":{"osm_id":"7954367425","tag":{"natural":"tree"}},"type":"Feature"},
	{"geometry":{"coordinates":[77.617008,13.002169],"type":"Point"},"properties":{"osm_id":"7954367428","tag":{"natural":"tree"}},"type":"Feature"},
	{"geometry":{"coordinates":[77.617123,13.002129],"type":"Point"},"properties":{"osm_id":"7954367429","tag":{"natural":"tree"}},"type":"Feature"},
	{"geometry":{"coordinates":[77.616942,13.002058],"type":"Point"},"properties":{"osm_id":"7954367430","tag":{"natural":"tree"}},"type":"Feature"},
	{"geometry":{"coordinates":[77.61704,13.002031],"type":"Point"},"properties":{"osm_id":"7954367431","tag":{"natural":"tree"}},"type":"Feature"},
	{"geometry":{"coordinates":[77.617219,13.001973],"type":"Point"},"properties":{"osm_id":"7954367432","tag":{"natural":"tree"}},"type":"Feature"},
	{"geometry":{"coordinates":[77.617371,13.001915],"type":"Point"},"properties":{"osm_id":"7954367433","tag":{"natural":"tree"}},"type":"Feature"},
	{"geometry":{"coordinates":[77.617584,13.001956],"type":"Point"},"properties":{"osm_id":"7955018375","tag":{"natural":"tree"}},"type":"Feature"},
	{"geometry":{"coordinates":[77.617709,13.00191],"type":"Point"},"properties":{"osm_id":"7955018376","tag":{"natural":"tree"}},"type":"Feature"},
	{"geometry":{"coordinates":[77.61782,13.00186],"type":"Point"},"properties":{"osm_id":"7955018377","tag":{"natural":"tree"}},"type":"Feature"},
	{"geometry":{"coordinates":[77.617518,13.001869],"type":"Point"},"properties":{"osm_id":"7955018378","tag":{"natural":"tree"}},"type":"Feature"},
	{"geometry":{"coordinates":[77.617668,13.001802],"type":"Point"},"properties":{"osm_id":"7955018379","tag":{"natural":"tree"}},"type":"Feature"},
	{"geometry":{"coordinates":[77.6178,13.001753],"type":"Point"},"properties":{"osm_id":"7955018380","tag":{"natural":"tree"}},"type":"Feature"},
	{"geometry":{"coordinates":[77.617947,13.001809],"type":"Point"},"properties":{"osm_id":"7955018381","tag":{"natural":"tree"}},"type":"Feature"},
	{"geometry":{"coordinates":[77.617913,13.001699],"type":"Point"},"properties":{"osm_id":"7955018382","tag":{"natural":"tree"}},"type":"Feature"},
	{"geometry":{"coordinates":[77.618207,13.001697],"type":"Point"},"properties":{"osm_id":"7955018383","tag":{"natural":"tree"}},"type":"Feature"},
	{"geometry":{"coordinates":[77.61816,13.001603],"type":"Point"},"properties":{"osm_id":"7955018384","tag":{"natural":"tree"}},"type":"Feature"},
	{"geometry":{"coordinates":[77.618283,13.001541],"type":"Point"},"properties":{"osm_id":"7955064185","tag":{"natural":"tree"}},"type":"Feature"},
	{"geometry":{"coordinates":[77.618358,13.001501],"type":"Point"},"properties":{"osm_id":"7955064186","tag":{"natural":"tree"}},"type":"Feature"},
	{"geometry":{"coordinates":[77.618498,13.001439],"type":"Point"},"properties":{"osm_id":"7955064187","tag":{"natural":"tree"}},"type":"Feature"},
	{"geometry":{"coordinates":[77.615428,13.004894],"type":"Point"},"properties":{"osm_id":"7968833573","tag":{"natural":"tree"}},"type":"Feature"},
	{"geometry":{"coordinates":[77.615418,13.004865],"type":"Point"},"properties":{"osm_id":"7968833574","tag":{"natural":"tree"}},"type":"Feature"},
	{"geometry":{"coordinates":[77.614573,13.005158],"type":"Point"},"properties":{"osm_id":"7968833575","tag":{"natural":"tree"}},"type":"Feature"},
	{"geometry":{"coordinates":[77.614647,13.00488],"type":"Point"},"properties":{"osm_id":"7968833580","tag":{"natural":"tree"}},"type":"Feature"},
	{"geometry":{"coordinates":[77.614691,13.004866],"type":"Point"},"properties":{"osm_id":"7968833581","tag":{"natural":"tree"}},"type":"Feature"},
	{"geometry":{"coordinates":[77.61473,13.004857],"type":"Point"},"properties":{"osm_id":"7968833582","tag":{"natural":"tree"}},"type":"Feature"},
	{"geometry":{"coordinates":[77.61469,13.004967],"type":"Point"},"properties":{"osm_id":"7968833583","tag":{"natural":"tree"}},"type":"Feature"},
	{"geometry":{"coordinates":[77.614777,13.004942],"type":"Point"},"properties":{"osm_id":"7968833584","tag":{"natural":"tree"}},"type":"Feature"},
	{"geometry":{"coordinates":[77.61477,13.004841],"type":"Point"},"properties":{"osm_id":"7968927785","tag":{"natural":"tree"}},"type":"Feature"},
	{"geometry":{"coordinates":[77.614778,13.004867],"type":"Point"},"properties":{"osm_id":"7968927786","tag":{"natural":"tree"}},"type":"Feature"},
	{"geometry":{"coordinates":[77.614831,13.00481],"type":"Point"},"properties":{"osm_id":"7968927788","tag":{"natural":"tree"}},"type":"Feature"},
	{"geometry":{"coordinates":[77.614878,13.004796],"type":"Point"},"properties":{"osm_id":"7968927789","tag":{"natural":"tree"}},"type":"Feature"},
	{"geometry":{"coordinates":[77.614862,13.00475],"type":"Point"},"properties":{"osm_id":"7968927790","tag":{"natural":"tree"}},"type":"Feature"},
	{"geometry":{"coordinates":[77.614915,13.004729],"type":"Point"},"properties":{"osm_id":"7968927791","tag":{"natural":"tree"}},"type":"Feature"},
	{"geometry":{"coordinates":[77.614939,13.004778],"type":"Point"},"properties":{"osm_id":"7968927792","tag":{"natural":"tree"}},"type":"Feature"},
	{"geometry":{"coordinates":[77.615012,13.004827],"type":"Point"},"properties":{"osm_id":"7968927795","tag":{"natural":"tree"}},"type":"Feature"},
	{"geometry":{"coordinates":[77.615097,13.004742],"type":"Point"},"properties":{"osm_id":"7968927797","tag":{"natural":"tree"}},"type":"Feature"},
	{"geometry":{"coordinates":[77.615181,13.004729],"type":"Point"},"properties":{"osm_id":"7968927798","tag":{"natural":"tree"}},"type":"Feature"},
	{"geometry":{"coordinates":[77.615168,13.004711],"type":"Point"},"properties":{"osm_id":"7968927799","tag":{"natural":"tree"}},"type":"Feature"},
	{"geometry":{"coordinates":[77.615212,13.004691],"type":"Point"},"properties":{"osm_id":"7968927800","tag":{"natural":"tree"}},"type":"Feature"},
	{"geometry":{"coordinates":[77.61523,13.004714],"type":"Point"},"properties":{"osm_id":"7968927801","tag":{"natural":"tree"}},"type":"Feature"},
	{"geometry":{"coordinates":[77.615271,13.004677],"type":"Point"},"properties":{"osm_id":"7968927802","tag":{"natural":"tree"}},"type":"Feature"},
	{"geometry":{"coordinates":[77.615399,13.004639],"type":"Point"},"properties":{"osm_id":"7968927804","tag":{"natural":"tree"}},"type":"Feature"},
	{"geometry":{"coordinates":[77.615455,13.004566],"type":"Point"},"properties":{"osm_id":"7968927805","tag":{"natural":"tree"}},"type":"Feature"},
	{"geometry":{"coordinates":[77.615474,13.004601],"type":"Point"},"properties":{"osm_id":"7968927806","tag":{"natural":"tree"}},"type":"Feature"},
	{"geometry":{"coordinates":[77.615615,13.004554],"type":"Point"},"properties":{"osm_id":"7968927807","tag":{"natural":"tree"}},"type":"Feature"},
	{"geometry":{"coordinates":[77.615019,13.002318],"type":"Point"},"properties":{"osm_id":"7968928242","tag":{"natural":"tree"}},"type":"Feature"},
	{"geometry":{"coordinates":[77.61511,13.002315],"type":"Point"},"properties":{"osm_id":"7968928243","tag":{"natural":"tree"}},"type":"Feature"},
	{"geometry":{"coordinates":[77.615309,13.002408],"type":"Point"},"properties":{"osm_id":"7968928244","tag":{"natural":"tree"}},"type":"Feature"},
	{"geometry":{"coordinates":[77.615298,13.002294],"type":"Point"},"properties":{"osm_id":"7968928245","tag":{"natural":"tree"}},"type":"Feature"},
	{"geometry":{"coordinates":[77.615202,13.002415],"type":"Point"},"properties":{"osm_id":"7968928246","tag":{"natural":"tree"}},"type":"Feature"},
	{"geometry":{"coordinates":[77.615537,13.002402],"type":"Point"},"properties":{"osm_id":"7968928247","tag":{"natural":"tree"}},"type":"Feature"},
	{"geometry":{"coordinates":[77.61578,13.002282],"type":"Point"},"properties":{"osm_id":"7968928248","tag":{"natural":"tree"}},"type":"Feature"},
	{"geometry":{"coordinates":[77.623796,12.999963],"type":"Point"},"properties":{"osm_id":"8006741416","tag":{"natural":"tree","species":"Delonix regia"}},"type":"Feature"},
	{"geometry":{"coordinates":[77.624826,12.999598],"type":"Point"},"properties":{"osm_id":"8006741426","tag":{"natural":"tree"}},"type":"Feature"},
	{"geometry":{"coordinates":[77.624803,12.999605],"type":"Point"},"properties":{"osm_id":"8006741427","tag":{"natural":"tree"}},"type":"Feature"},
	{"geometry":{"coordinates":[77.624784,12.999612],"type":"Point"},"properties":{"osm_id":"8006741428","tag":{"natural":"tree"}},"type":"Feature"},
	{"geometry":{"coordinates":[77.624766,12.999619],"type":"Point"},"properties":{"osm_id":"8006741429","tag":{"natural":"tree"}},"type":"Feature"},
	{"geometry":{"coordinates":[77.624751,12.999624],"type":"Point"},"properties":{"osm_id":"8006741430","tag":{"natural":"tree"}},"type":"Feature"},
	{"geometry":{"coordinates":[77.624733,12.99963],"type":"Point"},"properties":{"osm_id":"8006741431","tag":{"natural":"tree"}},"type":"Feature"},
	{"geometry":{"coordinates":[77.62471,12.999637],"type":"Point"},"properties":{"osm_id":"8006741432","tag":{"natural":"tree"}},"type":"Feature"},
	{"geometry":{"coordinates":[77.624687,12.999645],"type":"Point"},"properties":{"osm_id":"8006741433","tag":{"natural":"tree"}},"type":"Feature"},
	{"geometry":{"coordinates":[77.624661,12.999654],"type":"Point"},"properties":{"osm_id":"8006741434","tag":{"natural":"tree"}},"type":"Feature"},
	{"geometry":{"coordinates":[77.624517,12.999715],"type":"Point"},"properties":{"osm_id":"8006741435","tag":{"natural":"tree"}},"type":"Feature"},
	{"geometry":{"coordinates":[77.624287,12.999798],"type":"Point"},"properties":{"osm_id":"8006741436","tag":{"natural":"tree"}},"type":"Feature"},
	{"geometry":{"coordinates":[77.624034,12.999978],"type":"Point"},"properties":{"osm_id":"8006741437","tag":{"natural":"tree"}},"type":"Feature"},
	{"geometry":{"coordinates":[77.623704,13.000105],"type":"Point"},"properties":{"osm_id":"8006741438","tag":{"natural":"tree","species":"Delonix regia"}},"type":"Feature"},
	{"geometry":{"coordinates":[77.623669,13.000116],"type":"Point"},"properties":{"osm_id":"8006741439","tag":{"natural":"tree","species":"Delonix regia"}},"type":"Feature"},
	{"geometry":{"coordinates":[77.623509,13.000174],"type":"Point"},"properties":{"osm_id":"8006741440","tag":{"natural":"tree","species":"Delonix regia"}},"type":"Feature"},
	{"geometry":{"coordinates":[77.623079,13.000321],"type":"Point"},"properties":{"osm_id":"8006741443","tag":{"natural":"tree","species":"Delonix regia"}},"type":"Feature"},
	{"geometry":{"coordinates":[77.622679,13.000468],"type":"Point"},"properties":{"osm_id":"8006741444","tag":{"natural":"tree","species":"Delonix regia"}},"type":"Feature"},
	{"geometry":{"coordinates":[77.622569,13.000501],"type":"Point"},"properties":{"osm_id":"8006741449","tag":{"natural":"tree","species":"Delonix regia"}},"type":"Feature"},
	{"geometry":{"coordinates":[77.622443,13.000476],"type":"Point"},"properties":{"osm_id":"8006741450","tag":{"natural":"tree","species":"Delonix regia"}},"type":"Feature"},
	{"geometry":{"coordinates":[77.617191,13.003614],"type":"Point"},"properties":{"osm_id":"8042482420","tag":{"natural":"tree"}},"type":"Feature"},
	{"geometry":{"coordinates":[77.617098,13.003648],"type":"Point"},"properties":{"osm_id":"8042482421","tag":{"natural":"tree"}},"type":"Feature"},
	{"geometry":{"coordinates":[77.61701,13.003682],"type":"Point"},"properties":{"osm_id":"8042482422","tag":{"natural":"tree"}},"type":"Feature"},
	{"geometry":{"coordinates":[77.616851,13.003747],"type":"Point"},"properties":{"osm_id":"8042482423","tag":{"natural":"tree"}},"type":"Feature"},
	{"geometry":{"coordinates":[77.616499,13.00388],"type":"Point"},"properties":{"osm_id":"8042482424","tag":{"natural":"tree"}},"type":"Feature"},
	{"geometry":{"coordinates":[77.617049,13.004453],"type":"Point"},"properties":{"osm_id":"8042482425","tag":{"natural":"tree"}},"type":"Feature"},
	{"geometry":{"coordinates":[77.616938,13.004494],"type":"Point"},"properties":{"osm_id":"8042482426","tag":{"natural":"tree"}},"type":"Feature"},
	{"geometry":{"coordinates":[77.617129,13.004422],"type":"Point"},"properties":{"osm_id":"8042482427","tag":{"natural":"tree"}},"type":"Feature"},
	{"geometry":{"coordinates":[77.617293,13.004359],"type":"Point"},"properties":{"osm_id":"8042482428","tag":{"natural":"tree"}},"type":"Feature"},
	{"geometry":{"coordinates":[77.617539,13.004267],"type":"Point"},"properties":{"osm_id":"8042482429","tag":{"natural":"tree"}},"type":"Feature"},
	{"geometry":{"coordinates":[77.616587,13.004491],"type":"Point"},"properties":{"osm_id":"8042482430","tag":{"natural":"tree"}},"type":"Feature"},
	{"geometry":{"coordinates":[77.616567,13.003857],"type":"Point"},"properties":{"osm_id":"8042482431","tag":{"natural":"tree"}},"type":"Feature"},
	{"geometry":{"coordinates":[77.616665,13.00382],"type":"Point"},"properties":{"osm_id":"8042482432","tag":{"natural":"tree"}},"type":"Feature"},
	{"geometry":{"coordinates":[77.616755,13.003783],"type":"Point"},"properties":{"osm_id":"8042482433","tag":{"natural":"tree"}},"type":"Feature"},
	{"geometry":{"coordinates":[77.617453,13.003935],"type":"Point"},"properties":{"osm_id":"8042482434","tag":{"natural":"tree"}},"type":"Feature"},
	{"geometry":{"coordinates":[77.61741,13.003826],"type":"Point"},"properties":{"osm_id":"8042482435","tag":{"natural":"tree"}},"type":"Feature"},
	{"geometry":{"coordinates":[77.617387,13.003767],"type":"Point"},"properties":{"osm_id":"8042482436","tag":{"natural":"tree"}},"type":"Feature"},
	{"geometry":{"coordinates":[77.617355,13.003685],"type":"Point"},"properties":{"osm_id":"8042482437","tag":{"natural":"tree"}},"type":"Feature"},
	{"geometry":{"coordinates":[77.617337,13.003651],"type":"Point"},"properties":{"osm_id":"8042482438","tag":{"natural":"tree"}},"type":"Feature"},
	{"geometry":{"coordinates":[77.622812,13.00204],"type":"Point"},"properties":{"osm_id":"8043992695","tag":{"natural":"tree"}},"type":"Feature"},
	{"geometry":{"coordinates":[77.622781,13.001905],"type":"Point"},"properties":{"osm_id":"8043992696","tag":{"natural":"tree"}},"type":"Feature"},
	{"geometry":{"coordinates":[77.622761,13.001836],"type":"Point"},"properties":{"osm_id":"8043992697","tag":{"natural":"tree"}},"type":"Feature"},
	{"geometry":{"coordinates":[77.622711,13.001641],"type":"Point"},"properties":{"osm_id":"8043992698","tag":{"natural":"tree"}},"type":"Feature"},
	{"geometry":{"coordinates":[77.622698,13.001597],"type":"Point"},"properties":{"osm_id":"8043992699","tag":{"natural":"tree"}},"type":"Feature"},
	{"geometry":{"coordinates":[77.622681,13.001532],"type":"Point"},"properties":{"osm_id":"8043992704","tag":{"natural":"tree"}},"type":"Feature"},
	{"geometry":{"coordinates":[77.622658,13.001453],"type":"Point"},"properties":{"osm_id":"8043992705","tag":{"natural":"tree"}},"type":"Feature"},
	{"geometry":{"coordinates":[77.622648,13.001414],"type":"Point"},"properties":{"osm_id":"8043992706","tag":{"natural":"tree"}},"type":"Feature"},
	{"geometry":{"coordinates":[77.622638,13.001383],"type":"Point"},"properties":{"osm_id":"8043992707","tag":{"natural":"tree"}},"type":"Feature"},
	{"geometry":{"coordinates":[77.622617,13.001311],"type":"Point"},"properties":{"osm_id":"8043992708","tag":{"natural":"tree"}},"type":"Feature"},
	{"geometry":{"coordinates":[77.622589,13.001216],"type":"Point"},"properties":{"osm_id":"8043992713","tag":{"natural":"tree"}},"type":"Feature"},
	{"geometry":{"coordinates":[77.622555,13.001067],"type":"Point"},"properties":{"osm_id":"8043992718","tag":{"natural":"tree"}},"type":"Feature"},
	{"geometry":{"coordinates":[77.622543,13.001035],"type":"Point"},"properties":{"osm_id":"8043992719","tag":{"natural":"tree"}},"type":"Feature"},
	{"geometry":{"coordinates":[77.622517,13.00095],"type":"Point"},"properties":{"osm_id":"8043992720","tag":{"natural":"tree"}},"type":"Feature"},
	{"geometry":{"coordinates":[77.622498,13.000846],"type":"Point"},"properties":{"osm_id":"8043992721","tag":{"natural":"tree"}},"type":"Feature"},
	{"geometry":{"coordinates":[77.622475,13.000764],"type":"Point"},"properties":{"osm_id":"8043992722","tag":{"natural":"tree"}},"type":"Feature"},
	{"geometry":{"coordinates":[77.622449,13.000693],"type":"Point"},"properties":{"osm_id":"8043992723","tag":{"natural":"tree"}},"type":"Feature"},
	{"geometry":{"coordinates":[77.622222,13.000128],"type":"Point"},"properties":{"osm_id":"8043992725","tag":{"natural":"tree","species":"Delonix regia"}},"type":"Feature"},
	{"geometry":{"coordinates":[77.622185,13.000028],"type":"Point"},"properties":{"osm_id":"8043992730","tag":{"natural":"tree","species":"Delonix regia"}},"type":"Feature"},
	{"geometry":{"coordinates":[77.622144,12.999885],"type":"Point"},"properties":{"osm_id":"8043992731","tag":{"natural":"tree","species":"Delonix regia"}},"type":"Feature"},
	{"geometry":{"coordinates":[77.622116,12.999829],"type":"Point"},"properties":{"osm_id":"8043992732","tag":{"natural":"tree","species":"Delonix regia"}},"type":"Feature"},
	{"geometry":{"coordinates":[77.622022,12.999569],"type":"Point"},"properties":{"osm_id":"8043992737","tag":{"natural":"tree","species":"Delonix regia"}},"type":"Feature"},
	{"geometry":{"coordinates":[77.621982,12.999462],"type":"Point"},"properties":{"osm_id":"8043992738","tag":{"natural":"tree","species":"Delonix regia"}},"type":"Feature"},
	{"geometry":{"coordinates":[77.621906,12.99923],"type":"Point"},"properties":{"osm_id":"8043992739","tag":{"natural":"tree","species":"Delonix regia"}},"type":"Feature"},
	{"geometry":{"coordinates":[77.621849,12.999076],"type":"Point"},"properties":{"osm_id":"8043992740","tag":{"natural":"tree","species":"Delonix regia"}},"type":"Feature"},
	{"geometry":{"coordinates":[77.621837,12.999047],"type":"Point"},"properties":{"osm_id":"8043992741","tag":{"natural":"tree","species":"Delonix regia"}},"type":"Feature"},
	{"geometry":{"coordinates":[77.621826,12.999022],"type":"Point"},"properties":{"osm_id":"8043992742","tag":{"natural":"tree","species":"Delonix regia"}},"type":"Feature"},
	{"geometry":{"coordinates":[77.62191,12.99953],"type":"Point"},"properties":{"osm_id":"8047379060","tag":{"natural":"tree","species":"Delonix regia"}},"type":"Feature"},
	{"geometry":{"coordinates":[77.621953,12.999648],"type":"Point"},"properties":{"osm_id":"8047379069","tag":{"natural":"tree","species":"Delonix regia"}},"type":"Feature"},
	{"geometry":{"coordinates":[77.62202,12.999802],"type":"Point"},"properties":{"osm_id":"8047379070","tag":{"natural":"tree","species":"Delonix regia"}},"type":"Feature"},
	{"geometry":{"coordinates":[77.622046,12.999883],"type":"Point"},"properties":{"osm_id":"8047379071","tag":{"natural":"tree","species":"Delonix regia"}},"type":"Feature"},
	{"geometry":{"coordinates":[77.62233,12.999978],"type":"Point"},"properties":{"osm_id":"8047379076","tag":{"natural":"tree","species":"Delonix regia"}},"type":"Feature"},
	{"geometry":{"coordinates":[77.62244,12.999949],"type":"Point"},"properties":{"osm_id":"8047379077","tag":{"natural":"tree","species":"Delonix regia"}},"type":"Feature"},
	{"geometry":{"coordinates":[77.622553,12.999798],"type":"Point"},"properties":{"osm_id":"8047379078","tag":{"natural":"tree","species":"Delonix regia"}},"type":"Feature"},
	{"geometry":{"coordinates":[77.622617,12.99978],"type":"Point"},"properties":{"osm_id":"8047379079","tag":{"natural":"tree","species":"Delonix regia"}},"type":"Feature"},
	{"geometry":{"coordinates":[77.622548,12.99991],"type":"Point"},"properties":{"osm_id":"8047379080","tag":{"natural":"tree","species":"Delonix regia"}},"type":"Feature"},
	{"geometry":{"coordinates":[77.622633,12.999878],"type":"Point"},"properties":{"osm_id":"8047379081","tag":{"natural":"tree","species":"Delonix regia"}},"type":"Feature"},
	{"geometry":{"coordinates":[77.622784,12.999825],"type":"Point"},"properties":{"osm_id":"8047379082","tag":{"natural":"tree","species":"Delonix regia"}},"type":"Feature"},
	{"geometry":{"coordinates":[77.622866,12.999797],"type":"Point"},"properties":{"osm_id":"8047379083","tag":{"natural":"tree","species":"Delonix regia"}},"type":"Feature"},
	{"geometry":{"coordinates":[77.62281,12.999705],"type":"Point"},"properties":{"osm_id":"8047379084","tag":{"natural":"tree","species":"Delonix regia"}},"type":"Feature"},
	{"geometry":{"coordinates":[77.6223,13.000543],"type":"Point"},"properties":{"osm_id":"8047420095","tag":{"natural":"tree","species":"Delonix regia"}},"type":"Feature"},
	{"geometry":{"coordinates":[77.622291,13.000523],"type":"Point"},"properties":{"osm_id":"8047420096","tag":{"natural":"tree","species":"Delonix regia"}},"type":"Feature"},
	{"geometry":{"coordinates":[77.622283,13.000498],"type":"Point"},"properties":{"osm_id":"8047420097","tag":{"natural":"tree","species":"Delonix regia"}},"type":"Feature"},
	{"geometry":{"coordinates":[77.622317,13.000601],"type":"Point"},"properties":{"osm_id":"8047420098","tag":{"natural":"tree","species":"Delonix regia"}},"type":"Feature"},
	{"geometry":{"coordinates":[77.62231,13.000581],"type":"Point"},"properties":{"osm_id":"8047420099","tag":{"natural":"tree","species":"Delonix regia"}},"type":"Feature"},
	{"geometry":{"coordinates":[77.622434,13.000853],"type":"Point"},"properties":{"osm_id":"8047420100","tag":{"natural":"tree","species":"Delonix regia"}},"type":"Feature"},
	{"geometry":{"coordinates":[77.622367,13.000718],"type":"Point"},"properties":{"osm_id":"8047420101","tag":{"natural":"tree","species":"Delonix regia"}},"type":"Feature"},
	{"geometry":{"coordinates":[77.622349,13.000673],"type":"Point"},"properties":{"osm_id":"8047420102","tag":{"natural":"tree","species":"Delonix regia"}},"type":"Feature"},
	{"geometry":{"coordinates":[77.6225,13.001069],"type":"Point"},"properties":{"osm_id":"8047420103","tag":{"natural":"tree"}},"type":"Feature"},
	{"geometry":{"coordinates":[77.622535,13.001166],"type":"Point"},"properties":{"osm_id":"8047420105","tag":{"natural":"tree"}},"type":"Feature"},
	{"geometry":{"coordinates":[77.622782,13.001695],"type":"Point"},"properties":{"osm_id":"8059198322","tag":{"natural":"tree"}},"type":"Feature"},
	{"geometry":{"coordinates":[77.622803,13.001688],"type":"Point"},"properties":{"osm_id":"8059198323","tag":{"natural":"tree"}},"type":"Feature"},
	{"geometry":{"coordinates":[77.622851,13.00167],"type":"Point"},"properties":{"osm_id":"8059198324","tag":{"natural":"tree"}},"type":"Feature"},
	{"geometry":{"coordinates":[77.622994,13.001635],"type":"Point"},"properties":{"osm_id":"8059198325","tag":{"natural":"tree"}},"type":"Feature"},
	{"geometry":{"coordinates":[77.623355,13.001513],"type":"Point"},"properties":{"osm_id":"8059198327","tag":{"natural":"tree"}},"type":"Feature"},
	{"geometry":{"coordinates":[77.623527,13.001453],"type":"Point"},"properties":{"osm_id":"8059198328","tag":{"natural":"tree"}},"type":"Feature"},
	{"geometry":{"coordinates":[77.623823,13.001352],"type":"Point"},"properties":{"osm_id":"8059198336","tag":{"natural":"tree"}},"type":"Feature"},
	{"geometry":{"coordinates":[77.623873,13.001334],"type":"Point"},"properties":{"osm_id":"8059198337","tag":{"natural":"tree"}},"type":"Feature"},
	{"geometry":{"coordinates":[77.623914,13.001323],"type":"Point"},"properties":{"osm_id":"8059198338","tag":{"natural":"tree"}},"type":"Feature"},
	{"geometry":{"coordinates":[77.623954,13.001311],"type":"Point"},"properties":{"osm_id":"8059198339","tag":{"natural":"tree"}},"type":"Feature"},
	{"geometry":{"coordinates":[77.624003,13.001295],"type":"Point"},"properties":{"osm_id":"8059198340","tag":{"natural":"tree"}},"type":"Feature"},
	{"geometry":{"coordinates":[77.624122,13.001244],"type":"Point"},"properties":{"osm_id":"8059198342","tag":{"natural":"tree"}},"type":"Feature"},
	{"geometry":{"coordinates":[77.624516,13.001091],"type":"Point"},"properties":{"osm_id":"8059198347","tag":{"natural":"tree"}},"type":"Feature"},
	{"geometry":{"coordinates":[77.624616,13.001066],"type":"Point"},"properties":{"osm_id":"8059198348","tag":{"natural":"tree"}},"type":"Feature"},
	{"geometry":{"coordinates":[77.624813,13.000989],"type":"Point"},"properties":{"osm_id":"8059198350","tag":{"natural":"tree"}},"type":"Feature"},
	{"geometry":{"coordinates":[77.624886,13.000964],"type":"Point"},"properties":{"osm_id":"8059198351","tag":{"natural":"tree"}},"type":"Feature"},
	{"geometry":{"coordinates":[77.625069,13.000901],"type":"Point"},"properties":{"osm_id":"8059198353","tag":{"natural":"tree"}},"type":"Feature"},
	{"geometry":{"coordinates":[77.625233,13.000852],"type":"Point"},"properties":{"osm_id":"8059198354","tag":{"natural":"tree"}},"type":"Feature"},
	{"geometry":{"coordinates":[77.625363,13.000804],"type":"Point"},"properties":{"osm_id":"8059198355","tag":{"natural":"tree"}},"type":"Feature"},
	{"geometry":{"coordinates":[77.625452,13.000773],"type":"Point"},"properties":{"osm_id":"8059198356","tag":{"natural":"tree"}},"type":"Feature"},
	{"geometry":{"coordinates":[77.62553,13.000746],"type":"Point"},"properties":{"osm_id":"8059198359","tag":{"natural":"tree"}},"type":"Feature"},
	{"geometry":{"coordinates":[77.625608,13.000723],"type":"Point"},"properties":{"osm_id":"8059198360","tag":{"natural":"tree"}},"type":"Feature"},
	{"geometry":{"coordinates":[77.625701,13.000687],"type":"Point"},"properties":{"osm_id":"8059198361","tag":{"natural":"tree"}},"type":"Feature"},
	{"geometry":{"coordinates":[77.625823,13.000646],"type":"Point"},"properties":{"osm_id":"8059198362","tag":{"natural":"tree"}},"type":"Feature"},
	{"geometry":{"coordinates":[77.625905,13.00062],"type":"Point"},"properties":{"osm_id":"8059198363","tag":{"natural":"tree"}},"type":"Feature"},
	{"geometry":{"coordinates":[77.625952,13.000604],"type":"Point"},"properties":{"osm_id":"8059198364","tag":{"natural":"tree"}},"type":"Feature"},
	{"geometry":{"coordinates":[77.626011,13.000588],"type":"Point"},"properties":{"osm_id":"8059198365","tag":{"natural":"tree"}},"type":"Feature"},
	{"geometry":{"coordinates":[77.626067,13.000561],"type":"Point"},"properties":{"osm_id":"8059198366","tag":{"natural":"tree"}},"type":"Feature"},
	{"geometry":{"coordinates":[77.626164,13.000489],"type":"Point"},"properties":{"osm_id":"8059198367","tag":{"natural":"tree"}},"type":"Feature"},
	{"geometry":{"coordinates":[77.625992,13.000777],"type":"Point"},"properties":{"osm_id":"8065071602","tag":{"natural":"tree"}},"type":"Feature"},
	{"geometry":{"coordinates":[77.625838,13.000821],"type":"Point"},"properties":{"osm_id":"8065071604","tag":{"natural":"tree"}},"type":"Feature"},
	{"geometry":{"coordinates":[77.625809,13.000832],"type":"Point"},"properties":{"osm_id":"8065071606","tag":{"natural":"tree"}},"type":"Feature"},
	{"geometry":{"coordinates":[77.625778,13.00084],"type":"Point"},"properties":{"osm_id":"8065071607","tag":{"natural":"tree"}},"type":"Feature"},
	{"geometry":{"coordinates":[77.625765,13.000845],"type":"Point"},"properties":{"osm_id":"8065071608","tag":{"natural":"tree"}},"type":"Feature"},
	{"geometry":{"coordinates":[77.625742,13.000852],"type":"Point"},"properties":{"osm_id":"8065071609","tag":{"natural":"tree"}},"type":"Feature"},
	{"geometry":{"coordinates":[77.625598,13.000893],"type":"Point"},"properties":{"osm_id":"8065071616","tag":{"natural":"tree"}},"type":"Feature"},
	{"geometry":{"coordinates":[77.625544,13.000916],"type":"Point"},"properties":{"osm_id":"8065071619","tag":{"natural":"tree"}},"type":"Feature"},
	{"geometry":{"coordinates":[77.625409,13.00095],"type":"Point"},"properties":{"osm_id":"8065071620","tag":{"natural":"tree"}},"type":"Feature"},
	{"geometry":{"coordinates":[77.625351,13.000968],"type":"Point"},"properties":{"osm_id":"8065071621","tag":{"natural":"tree"}},"type":"Feature"},
	{"geometry":{"coordinates":[77.625307,13.000982],"type":"Point"},"properties":{"osm_id":"8065071622","tag":{"natural":"tree"}},"type":"Feature"},
	{"geometry":{"coordinates":[77.62507,13.001036],"type":"Point"},"properties":{"osm_id":"8065071627","tag":{"natural":"tree"}},"type":"Feature"},
	{"geometry":{"coordinates":[77.625029,13.001051],"type":"Point"},"properties":{"osm_id":"8065071628","tag":{"natural":"tree"}},"type":"Feature"},
	{"geometry":{"coordinates":[77.624933,13.001084],"type":"Point"},"properties":{"osm_id":"8065071629","tag":{"natural":"tree"}},"type":"Feature"},
	{"geometry":{"coordinates":[77.624863,13.001108],"type":"Point"},"properties":{"osm_id":"8065071630","tag":{"natural":"tree"}},"type":"Feature"},
	{"geometry":{"coordinates":[77.624797,13.001131],"type":"Point"},"properties":{"osm_id":"8065071631","tag":{"natural":"tree"}},"type":"Feature"},
	{"geometry":{"coordinates":[77.624749,13.001148],"type":"Point"},"properties":{"osm_id":"8065071632","tag":{"natural":"tree"}},"type":"Feature"},
	{"geometry":{"coordinates":[77.624652,13.001185],"type":"Point"},"properties":{"osm_id":"8065071633","tag":{"natural":"tree"}},"type":"Feature"},
	{"geometry":{"coordinates":[77.624624,13.001196],"type":"Point"},"properties":{"osm_id":"8065071634","tag":{"natural":"tree"}},"type":"Feature"},
	{"geometry":{"coordinates":[77.624586,13.001208],"type":"Point"},"properties":{"osm_id":"8065071635","tag":{"natural":"tree"}},"type":"Feature"},
	{"geometry":{"coordinates":[77.624487,13.001243],"type":"Point"},"properties":{"osm_id":"8065071636","tag":{"natural":"tree"}},"type":"Feature"},
	{"geometry":{"coordinates":[77.624289,13.001305],"type":"Point"},"properties":{"osm_id":"8065071637","tag":{"natural":"tree"}},"type":"Feature"},
	{"geometry":{"coordinates":[77.624051,13.001388],"type":"Point"},"properties":{"osm_id":"8065071642","tag":{"natural":"tree"}},"type":"Feature"},
	{"geometry":{"coordinates":[77.623943,13.001412],"type":"Point"},"properties":{"osm_id":"8065071647","tag":{"natural":"tree"}},"type":"Feature"},
	{"geometry":{"coordinates":[77.623788,13.001459],"type":"Point"},"properties":{"osm_id":"8065071652","tag":{"natural":"tree"}},"type":"Feature"},
	{"geometry":{"coordinates":[77.623668,13.001489],"type":"Point"},"properties":{"osm_id":"8065138988","tag":{"natural":"tree"}},"type":"Feature"},
	{"geometry":{"coordinates":[77.623597,13.00151],"type":"Point"},"properties":{"osm_id":"8065138989","tag":{"natural":"tree"}},"type":"Feature"},
	{"geometry":{"coordinates":[77.623704,13.00159],"type":"Point"},"properties":{"osm_id":"8065138993","tag":{"natural":"tree"}},"type":"Feature"},
	{"geometry":{"coordinates":[77.623745,13.001509],"type":"Point"},"properties":{"osm_id":"8065138994","tag":{"natural":"tree"}},"type":"Feature"},
	{"geometry":{"coordinates":[77.623779,13.001602],"type":"Point"},"properties":{"osm_id":"8065138995","tag":{"natural":"tree"}},"type":"Feature"},
	{"geometry":{"coordinates":[77.623794,13.001681],"type":"Point"},"properties":{"osm_id":"8065138996","tag":{"natural":"tree"}},"type":"Feature"},
	{"geometry":{"coordinates":[77.623313,13.001617],"type":"Point"},"properties":{"osm_id":"8065138997","tag":{"natural":"tree"}},"type":"Feature"},
	{"geometry":{"coordinates":[77.623266,13.001631],"type":"Point"},"properties":{"osm_id":"8065138998","tag":{"natural":"tree"}},"type":"Feature"},
	{"geometry":{"coordinates":[77.623068,13.001463],"type":"Point"},"properties":{"osm_id":"8065139004","tag":{"natural":"tree"}},"type":"Feature"},
	{"geometry":{"coordinates":[77.622955,13.001117],"type":"Point"},"properties":{"osm_id":"8065139009","tag":{"natural":"tree"}},"type":"Feature"},
	{"geometry":{"coordinates":[77.623048,13.001121],"type":"Point"},"properties":{"osm_id":"8065139014","tag":{"natural":"tree"}},"type":"Feature"},
	{"geometry":{"coordinates":[77.623039,13.001097],"type":"Point"},"properties":{"osm_id":"8065139015","tag":{"natural":"tree"}},"type":"Feature"},
	{"geometry":{"coordinates":[77.623029,13.001066],"type":"Point"},"properties":{"osm_id":"8065139016","tag":{"natural":"tree"}},"type":"Feature"},
	{"geometry":{"coordinates":[77.623828,13.001642],"type":"Point"},"properties":{"osm_id":"8065735851","tag":{"natural":"tree"}},"type":"Feature"},
	{"geometry":{"coordinates":[77.623923,13.001607],"type":"Point"},"properties":{"osm_id":"8065735852","tag":{"natural":"tree"}},"type":"Feature"},
	{"geometry":{"coordinates":[77.623675,13.001383],"type":"Point"},"properties":{"osm_id":"8065735863","tag":{"natural":"tree"}},"type":"Feature"},
	{"geometry":{"coordinates":[77.623642,13.001247],"type":"Point"},"properties":{"osm_id":"8065735864","tag":{"natural":"tree"}},"type":"Feature"},
	{"geometry":{"coordinates":[77.623581,13.001261],"type":"Point"},"properties":{"osm_id":"8065735865","tag":{"natural":"tree"}},"type":"Feature"},
	{"geometry":{"coordinates":[77.623551,13.001197],"type":"Point"},"properties":{"osm_id":"8065735870","tag":{"natural":"tree"}},"type":"Feature"},
	{"geometry":{"coordinates":[77.623639,13.001146],"type":"Point"},"properties":{"osm_id":"8065735871","tag":{"natural":"tree"}},"type":"Feature"},
	{"geometry":{"coordinates":[77.623713,13.001124],"type":"Point"},"properties":{"osm_id":"8065735872","tag":{"natural":"tree"}},"type":"Feature"},
	{"geometry":{"coordinates":[77.623758,13.001108],"type":"Point"},"properties":{"osm_id":"8065735877","tag":{"natural":"tree"}},"type":"Feature"},
	{"geometry":{"coordinates":[77.623874,13.001072],"type":"Point"},"properties":{"osm_id":"8065735878","tag":{"natural":"tree"}},"type":"Feature"},
	{"geometry":{"coordinates":[77.623578,13.001074],"type":"Point"},"properties":{"osm_id":"8065765389","tag":{"natural":"tree"}},"type":"Feature"},
	{"geometry":{"coordinates":[77.623546,13.001001],"type":"Point"},"properties":{"osm_id":"8065765390","tag":{"natural":"tree"}},"type":"Feature"},
	{"geometry":{"coordinates":[77.623449,13.000927],"type":"Point"},"properties":{"osm_id":"8065765391","tag":{"natural":"tree"}},"type":"Feature"},
	{"geometry":{"coordinates":[77.622926,13.001045],"type":"Point"},"properties":{"osm_id":"8068098325","tag":{"natural":"tree"}},"type":"Feature"},
	{"geometry":{"coordinates":[77.622878,13.001056],"type":"Point"},"properties":{"osm_id":"8068098326","tag":{"natural":"tree"}},"type":"Feature"},
	{"geometry":{"coordinates":[77.622641,13.001058],"type":"Point"},"properties":{"osm_id":"8068098332","tag":{"natural":"tree"}},"type":"Feature"},
	{"geometry":{"coordinates":[77.622954,13.000943],"type":"Point"},"properties":{"osm_id":"8068098336","tag":{"natural":"tree"}},"type":"Feature"},
	{"geometry":{"coordinates":[77.623691,13.000664],"type":"Point"},"properties":{"osm_id":"8068140796","tag":{"natural":"tree"}},"type":"Feature"},
	{"geometry":{"coordinates":[77.624506,13.000387],"type":"Point"},"properties":{"osm_id":"8068140802","tag":{"natural":"tree"}},"type":"Feature"},
	{"geometry":{"coordinates":[77.624786,13.000435],"type":"Point"},"properties":{"osm_id":"8068153963","tag":{"natural":"tree"}},"type":"Feature"},
	{"geometry":{"coordinates":[77.624753,13.000443],"type":"Point"},"properties":{"osm_id":"8068153964","tag":{"natural":"tree"}},"type":"Feature"},
	{"geometry":{"coordinates":[77.624703,13.000458],"type":"Point"},"properties":{"osm_id":"8068153965","tag":{"natural":"tree"}},"type":"Feature"},
	{"geometry":{"coordinates":[77.624603,13.000466],"type":"Point"},"properties":{"osm_id":"8068153966","tag":{"natural":"tree"}},"type":"Feature"},
	{"geometry":{"coordinates":[77.623963,13.000657],"type":"Point"},"properties":{"osm_id":"8068153971","tag":{"natural":"tree"}},"type":"Feature"},
	{"geometry":{"coordinates":[77.623835,13.000701],"type":"Point"},"properties":{"osm_id":"8068153972","tag":{"natural":"tree"}},"type":"Feature"},
	{"geometry":{"coordinates":[77.623831,13.000703],"type":"Point"},"properties":{"osm_id":"8068153973","tag":{"natural":"tree"}},"type":"Feature"},
	{"geometry":{"coordinates":[77.623768,13.000727],"type":"Point"},"properties":{"osm_id":"8068153974","tag":{"natural":"tree"}},"type":"Feature"},
	{"geometry":{"coordinates":[77.623695,13.00075],"type":"Point"},"properties":{"osm_id":"8068153976","tag":{"natural":"tree"}},"type":"Feature"},
	{"geometry":{"coordinates":[77.623405,13.000709],"type":"Point"},"properties":{"osm_id":"8094098552","tag":{"natural":"tree"}},"type":"Feature"},
	{"geometry":{"coordinates":[77.62338,13.000632],"type":"Point"},"properties":{"osm_id":"8094098554","tag":{"natural":"tree"}},"type":"Feature"},
	{"geometry":{"coordinates":[77.623344,13.000515],"type":"Point"},"properties":{"osm_id":"8094098555","tag":{"natural":"tree"}},"type":"Feature"},
	{"geometry":{"coordinates":[77.623229,13.000134],"type":"Point"},"properties":{"osm_id":"8094098560","tag":{"natural":"tree"}},"type":"Feature"},
	{"geometry":{"coordinates":[77.623217,13.000101],"type":"Point"},"properties":{"osm_id":"8094098562","tag":{"natural":"tree"}},"type":"Feature"},
	{"geometry":{"coordinates":[77.623202,13.000065],"type":"Point"},"properties":{"osm_id":"8094098563","tag":{"natural":"tree"}},"type":"Feature"},
	{"geometry":{"coordinates":[77.62318,13.000007],"type":"Point"},"properties":{"osm_id":"8094098564","tag":{"natural":"tree"}},"type":"Feature"},
	{"geometry":{"coordinates":[77.623126,12.999812],"type":"Point"},"properties":{"osm_id":"8094098573","tag":{"natural":"tree"}},"type":"Feature"},
	{"geometry":{"coordinates":[77.623102,12.999754],"type":"Point"},"properties":{"osm_id":"8094098574","tag":{"natural":"tree"}},"type":"Feature"},
	{"geometry":{"coordinates":[77.62297,12.999417],"type":"Point"},"properties":{"osm_id":"8094098577","tag":{"natural":"tree"}},"type":"Feature"},
	{"geometry":{"coordinates":[77.622945,12.999327],"type":"Point"},"properties":{"osm_id":"8094098579","tag":{"natural":"tree"}},"type":"Feature"},
	{"geometry":{"coordinates":[77.62286,12.999072],"type":"Point"},"properties":{"osm_id":"8094098580","tag":{"natural":"tree"}},"type":"Feature"},
	{"geometry":{"coordinates":[77.622766,12.998929],"type":"Point"},"properties":{"osm_id":"8094098582","tag":{"natural":"tree"}},"type":"Feature"},
	{"geometry":{"coordinates":[77.622742,12.99886],"type":"Point"},"properties":{"osm_id":"8094098583","tag":{"natural":"tree"}},"type":"Feature"},
	{"geometry":{"coordinates":[77.622724,12.998817],"type":"Point"},"properties":{"osm_id":"8094098584","tag":{"natural":"tree"}},"type":"Feature"},
	{"geometry":{"coordinates":[77.62267,12.998688],"type":"Point"},"properties":{"osm_id":"8094098585","tag":{"natural":"tree"}},"type":"Feature"},
	{"geometry":{"coordinates":[77.622618,12.998562],"type":"Point"},"properties":{"osm_id":"8094098586","tag":{"natural":"tree"}},"type":"Feature"},
	{"geometry":{"coordinates":[77.622563,12.998441],"type":"Point"},"properties":{"osm_id":"8094098587","tag":{"natural":"tree"}},"type":"Feature"},
	{"geometry":{"coordinates":[77.622524,12.998356],"type":"Point"},"properties":{"osm_id":"8094098588","tag":{"natural":"tree"}},"type":"Feature"},
	{"geometry":{"coordinates":[77.622466,12.998441],"type":"Point"},"properties":{"osm_id":"8111949235","tag":{"natural":"tree"}},"type":"Feature"},
	{"geometry":{"coordinates":[77.622497,12.998517],"type":"Point"},"properties":{"osm_id":"8111949236","tag":{"natural":"tree"}},"type":"Feature"},
	{"geometry":{"coordinates":[77.622522,12.998574],"type":"Point"},"properties":{"osm_id":"8111949237","tag":{"natural":"tree"}},"type":"Feature"},
	{"geometry":{"coordinates":[77.622556,12.998672],"type":"Point"},"properties":{"osm_id":"8111949238","tag":{"natural":"tree"}},"type":"Feature"},
	{"geometry":{"coordinates":[77.622721,12.999162],"type":"Point"},"properties":{"osm_id":"8120700172","tag":{"natural":"tree"}},"type":"Feature"},
	{"geometry":{"coordinates":[77.622768,12.999275],"type":"Point"},"properties":{"osm_id":"8120700173","tag":{"natural":"tree"}},"type":"Feature"},
	{"geometry":{"coordinates":[77.622823,12.999412],"type":"Point"},"properties":{"osm_id":"8120700180","tag":{"natural":"tree"}},"type":"Feature"},
	{"geometry":{"coordinates":[77.622849,12.999459],"type":"Point"},"properties":{"osm_id":"8120700181","tag":{"natural":"tree"}},"type":"Feature"},
	{"geometry":{"coordinates":[77.622865,12.999501],"type":"Point"},"properties":{"osm_id":"8120700182","tag":{"natural":"tree"}},"type":"Feature"},
	{"geometry":{"coordinates":[77.622879,12.999538],"type":"Point"},"properties":{"osm_id":"8120700183","tag":{"natural":"tree"}},"type":"Feature"},
	{"geometry":{"coordinates":[77.622896,12.999574],"type":"Point"},"properties":{"osm_id":"8120700184","tag":{"natural":"tree"}},"type":"Feature"},
	{"geometry":{"coordinates":[77.622911,12.999627],"type":"Point"},"properties":{"osm_id":"8120700185","tag":{"natural":"tree"}},"type":"Feature"},
	{"geometry":{"coordinates":[77.622997,12.999795],"type":"Point"},"properties":{"osm_id":"8120700188","tag":{"natural":"tree"}},"type":"Feature"},
	{"geometry":{"coordinates":[77.623025,12.999859],"type":"Point"},"properties":{"osm_id":"8120700189","tag":{"natural":"tree"}},"type":"Feature"},
	{"geometry":{"coordinates":[77.623033,12.999884],"type":"Point"},"properties":{"osm_id":"8120700190","tag":{"natural":"tree"}},"type":"Feature"},
	{"geometry":{"coordinates":[77.623049,12.999951],"type":"Point"},"properties":{"osm_id":"8120700191","tag":{"natural":"tree"}},"type":"Feature"},
	{"geometry":{"coordinates":[77.623122,13.000129],"type":"Point"},"properties":{"osm_id":"8120700209","tag":{"natural":"tree"}},"type":"Feature"},
	{"geometry":{"coordinates":[77.623135,13.00017],"type":"Point"},"properties":{"osm_id":"8120700210","tag":{"natural":"tree"}},"type":"Feature"},
	{"geometry":{"coordinates":[77.623184,13.000347],"type":"Point"},"properties":{"osm_id":"8120700211","tag":{"natural":"tree","species":"Delonix regia"}},"type":"Feature"},
	{"geometry":{"coordinates":[77.623208,13.00042],"type":"Point"},"properties":{"osm_id":"8120700213","tag":{"natural":"tree","species":"Delonix regia"}},"type":"Feature"},
	{"geometry":{"coordinates":[77.623298,13.00063],"type":"Point"},"properties":{"osm_id":"8120700214","tag":{"natural":"tree","species":"Delonix regia"}},"type":"Feature"},
	{"geometry":{"coordinates":[77.623329,13.000699],"type":"Point"},"properties":{"osm_id":"8120700215","tag":{"natural":"tree","species":"Delonix regia"}},"type":"Feature"},
	{"geometry":{"coordinates":[77.623348,13.000742],"type":"Point"},"properties":{"osm_id":"8120700216","tag":{"natural":"tree","species":"Delonix regia"}},"type":"Feature"},
	{"geometry":{"coordinates":[77.624334,12.999225],"type":"Point"},"properties":{"osm_id":"8148239616","tag":{"natural":"tree"}},"type":"Feature"},
	{"geometry":{"coordinates":[77.624327,12.999228],"type":"Point"},"properties":{"osm_id":"8148282317","tag":{"natural":"tree"}},"type":"Feature"},
	{"geometry":{"coordinates":[77.624308,12.99924],"type":"Point"},"properties":{"osm_id":"8148282318","tag":{"natural":"tree"}},"type":"Feature"},
	{"geometry":{"coordinates":[77.624296,12.999247],"type":"Point"},"properties":{"osm_id":"8148282319","tag":{"natural":"tree"}},"type":"Feature"},
	{"geometry":{"coordinates":[77.624279,12.999253],"type":"Point"},"properties":{"osm_id":"8148282320","tag":{"natural":"tree"}},"type":"Feature"},
	{"geometry":{"coordinates":[77.62417,12.999283],"type":"Point"},"properties":{"osm_id":"8148282323","tag":{"natural":"tree"}},"type":"Feature"},
	{"geometry":{"coordinates":[77.624144,12.999298],"type":"Point"},"properties":{"osm_id":"8148282324","tag":{"natural":"tree"}},"type":"Feature"},
	{"geometry":{"coordinates":[77.62401,12.999333],"type":"Point"},"properties":{"osm_id":"8148282330","tag":{"natural":"tree"}},"type":"Feature"},
	{"geometry":{"coordinates":[77.623973,12.999345],"type":"Point"},"properties":{"osm_id":"8148282331","tag":{"natural":"tree"}},"type":"Feature"},
	{"geometry":{"coordinates":[77.623787,12.99941],"type":"Point"},"properties":{"osm_id":"8148282338","tag":{"natural":"tree"}},"type":"Feature"},
	{"geometry":{"coordinates":[77.62326,12.999583],"type":"Point"},"properties":{"osm_id":"8148282343","tag":{"natural":"tree"}},"type":"Feature"},
	{"geometry":{"coordinates":[77.624428,12.999288],"type":"Point"},"properties":{"osm_id":"8167814733","tag":{"natural":"tree"}},"type":"Feature"},
	{"geometry":{"coordinates":[77.624391,12.999296],"type":"Point"},"properties":{"osm_id":"8167814734","tag":{"natural":"tree"}},"type":"Feature"},
	{"geometry":{"coordinates":[77.624456,12.999279],"type":"Point"},"properties":{"osm_id":"8167814735","tag":{"natural":"tree"}},"type":"Feature"},
	{"geometry":{"coordinates":[77.624352,12.999311],"type":"Point"},"properties":{"osm_id":"8167814736","tag":{"natural":"tree"}},"type":"Feature"},
	{"geometry":{"coordinates":[77.62431,12.999323],"type":"Point"},"properties":{"osm_id":"8167814737","tag":{"natural":"tree"}},"type":"Feature"},
	{"geometry":{"coordinates":[77.624148,12.999368],"type":"Point"},"properties":{"osm_id":"8167814738","tag":{"natural":"tree"}},"type":"Feature"},
	{"geometry":{"coordinates":[77.624066,12.999393],"type":"Point"},"properties":{"osm_id":"8167814739","tag":{"natural":"tree"}},"type":"Feature"},
	{"geometry":{"coordinates":[77.624029,12.999407],"type":"Point"},"properties":{"osm_id":"8167814740","tag":{"natural":"tree"}},"type":"Feature"},
	{"geometry":{"coordinates":[77.623684,12.999516],"type":"Point"},"properties":{"osm_id":"8167814745","tag":{"natural":"tree"}},"type":"Feature"},
	{"geometry":{"coordinates":[77.623505,12.999572],"type":"Point"},"properties":{"osm_id":"8167814750","tag":{"natural":"tree"}},"type":"Feature"},
	{"geometry":{"coordinates":[77.623409,12.99961],"type":"Point"},"properties":{"osm_id":"8167814751","tag":{"natural":"tree"}},"type":"Feature"},
	{"geometry":{"coordinates":[77.622356,12.999127],"type":"Point"},"properties":{"osm_id":"8168113609","tag":{"natural":"tree","species":"Delonix regia"}},"type":"Feature"},
	{"geometry":{"coordinates":[77.623612,12.998657],"type":"Point"},"properties":{"osm_id":"8168113616","tag":{"natural":"tree"}},"type":"Feature"},
	{"geometry":{"coordinates":[77.623788,12.998658],"type":"Point"},"properties":{"osm_id":"8168120719","tag":{"natural":"tree"}},"type":"Feature"},
	{"geometry":{"coordinates":[77.623531,12.998769],"type":"Point"},"properties":{"osm_id":"8168120721","tag":{"natural":"tree"}},"type":"Feature"},
	{"geometry":{"coordinates":[77.623449,12.998787],"type":"Point"},"properties":{"osm_id":"8168120722","tag":{"natural":"tree"}},"type":"Feature"},
	{"geometry":{"coordinates":[77.623226,12.998886],"type":"Point"},"properties":{"osm_id":"8168120723","tag":{"natural":"tree"}},"type":"Feature"},
	{"geometry":{"coordinates":[77.623141,12.998915],"type":"Point"},"properties":{"osm_id":"8168120724","tag":{"natural":"tree"}},"type":"Feature"},
	{"geometry":{"coordinates":[77.623077,12.998943],"type":"Point"},"properties":{"osm_id":"8168120725","tag":{"natural":"tree"}},"type":"Feature"},
	{"geometry":{"coordinates":[77.622946,12.998976],"type":"Point"},"properties":{"osm_id":"8168120726","tag":{"natural":"tree"}},"type":"Feature"},
	{"geometry":{"coordinates":[77.622876,12.999004],"type":"Point"},"properties":{"osm_id":"8168120727","tag":{"natural":"tree"}},"type":"Feature"},
	{"geometry":{"coordinates":[77.62261,12.999119],"type":"Point"},"properties":{"osm_id":"8168120729","tag":{"natural":"tree"}},"type":"Feature"},
	{"geometry":{"coordinates":[77.622462,12.999166],"type":"Point"},"properties":{"osm_id":"8168120730","tag":{"natural":"tree"}},"type":"Feature"},
	{"geometry":{"coordinates":[77.622371,12.999205],"type":"Point"},"properties":{"osm_id":"8168120735","tag":{"natural":"tree"}},"type":"Feature"},
	{"geometry":{"coordinates":[77.622252,12.999236],"type":"Point"},"properties":{"osm_id":"8168120736","tag":{"natural":"tree"}},"type":"Feature"},
	{"geometry":{"coordinates":[77.622013,12.999338],"type":"Point"},"properties":{"osm_id":"8168120738","tag":{"natural":"tree"}},"type":"Feature"},
	{"geometry":{"coordinates":[77.621962,12.999346],"type":"Point"},"properties":{"osm_id":"8168120739","tag":{"natural":"tree"}},"type":"Feature"},
	{"geometry":{"coordinates":[77.622178,12.999267],"type":"Point"},"properties":{"osm_id":"8168120740","tag":{"natural":"tree"}},"type":"Feature"},
	{"geometry":{"coordinates":[77.622501,12.998202],"type":"Point"},"properties":{"osm_id":"8182518976","tag":{"natural":"tree"}},"type":"Feature"},
	{"geometry":{"coordinates":[77.62233,12.998333],"type":"Point"},"properties":{"osm_id":"8182518977","tag":{"natural":"tree"}},"type":"Feature"},
	{"geometry":{"coordinates":[77.622094,12.99853],"type":"Point"},"properties":{"osm_id":"8182518978","tag":{"natural":"tree"}},"type":"Feature"},
	{"geometry":{"coordinates":[77.622005,12.99861],"type":"Point"},"properties":{"osm_id":"8182518979","tag":{"natural":"tree"}},"type":"Feature"},
	{"geometry":{"coordinates":[77.622052,12.998722],"type":"Point"},"properties":{"osm_id":"8182518980","tag":{"natural":"tree"}},"type":"Feature"},
	{"geometry":{"coordinates":[77.621937,12.998785],"type":"Point"},"properties":{"osm_id":"8182518981","tag":{"natural":"tree"}},"type":"Feature"},
	{"geometry":{"coordinates":[77.621873,12.998831],"type":"Point"},"properties":{"osm_id":"8182518982","tag":{"natural":"tree"}},"type":"Feature"},
	{"geometry":{"coordinates":[77.621817,12.998861],"type":"Point"},"properties":{"osm_id":"8182518983","tag":{"natural":"tree"}},"type":"Feature"},
	{"geometry":{"coordinates":[77.621855,12.998734],"type":"Point"},"properties":{"osm_id":"8182518984","tag":{"natural":"tree"}},"type":"Feature"},
	{"geometry":{"coordinates":[77.621804,12.998781],"type":"Point"},"properties":{"osm_id":"8182518985","tag":{"natural":"tree"}},"type":"Feature"},
	{"geometry":{"coordinates":[77.621604,12.99894],"type":"Point"},"properties":{"osm_id":"8182518986","tag":{"natural":"tree"}},"type":"Feature"},
	{"geometry":{"coordinates":[77.621601,12.998996],"type":"Point"},"properties":{"osm_id":"8182518987","tag":{"natural":"tree"}},"type":"Feature"},
	{"geometry":{"coordinates":[77.621486,12.999089],"type":"Point"},"properties":{"osm_id":"8182518992","tag":{"natural":"tree"}},"type":"Feature"},
	{"geometry":{"coordinates":[77.621469,12.999062],"type":"Point"},"properties":{"osm_id":"8182518993","tag":{"natural":"tree"}},"type":"Feature"},
	{"geometry":{"coordinates":[77.621344,12.999204],"type":"Point"},"properties":{"osm_id":"8182518994","tag":{"natural":"tree"}},"type":"Feature"},
	{"geometry":{"coordinates":[77.621271,12.999255],"type":"Point"},"properties":{"osm_id":"8182518995","tag":{"natural":"tree"}},"type":"Feature"},
	{"geometry":{"coordinates":[77.621357,12.999141],"type":"Point"},"properties":{"osm_id":"8182518996","tag":{"natural":"tree"}},"type":"Feature"},
	{"geometry":{"coordinates":[77.621239,12.999235],"type":"Point"},"properties":{"osm_id":"8182518997","tag":{"natural":"tree"}},"type":"Feature"},
	{"geometry":{"coordinates":[77.621174,12.999293],"type":"Point"},"properties":{"osm_id":"8182518998","tag":{"natural":"tree"}},"type":"Feature"},
	{"geometry":{"coordinates":[77.620935,12.999516],"type":"Point"},"properties":{"osm_id":"8182519007","tag":{"natural":"tree"}},"type":"Feature"},
	{"geometry":{"coordinates":[77.620856,12.999584],"type":"Point"},"properties":{"osm_id":"8182519008","tag":{"natural":"tree"}},"type":"Feature"},
	{"geometry":{"coordinates":[77.622123,13.001592],"type":"Point"},"properties":{"osm_id":"8187720710","tag":{"natural":"tree"}},"type":"Feature"},
	{"geometry":{"coordinates":[77.622152,13.001654],"type":"Point"},"properties":{"osm_id":"8187720711","tag":{"natural":"tree"}},"type":"Feature"},
	{"geometry":{"coordinates":[77.622387,13.002139],"type":"Point"},"properties":{"osm_id":"8187734721","tag":{"natural":"tree"}},"type":"Feature"},
	{"geometry":{"coordinates":[77.621382,12.999749],"type":"Point"},"properties":{"osm_id":"8187756560","tag":{"natural":"tree"}},"type":"Feature"},
	{"geometry":{"coordinates":[77.62187,13.001171],"type":"Point"},"properties":{"osm_id":"8187756561","tag":{"natural":"tree"}},"type":"Feature"},
	{"geometry":{"coordinates":[77.621873,13.001187],"type":"Point"},"properties":{"osm_id":"8187756562","tag":{"natural":"tree"}},"type":"Feature"},
	{"geometry":{"coordinates":[77.621878,13.001201],"type":"Point"},"properties":{"osm_id":"8187756563","tag":{"natural":"tree"}},"type":"Feature"},
	{"geometry":{"coordinates":[77.621889,13.001233],"type":"Point"},"properties":{"osm_id":"8187756564","tag":{"natural":"tree"}},"type":"Feature"},
	{"geometry":{"coordinates":[77.621895,13.001243],"type":"Point"},"properties":{"osm_id":"8187756565","tag":{"natural":"tree"}},"type":"Feature"},
	{"geometry":{"coordinates":[77.621904,13.001268],"type":"Point"},"properties":{"osm_id":"8187756566","tag":{"natural":"tree"}},"type":"Feature"},
	{"geometry":{"coordinates":[77.621908,13.001279],"type":"Point"},"properties":{"osm_id":"8187756567","tag":{"natural":"tree"}},"type":"Feature"},
	{"geometry":{"coordinates":[77.621913,13.001294],"type":"Point"},"properties":{"osm_id":"8187756568","tag":{"natural":"tree"}},"type":"Feature"},
	{"geometry":{"coordinates":[77.621918,13.00131],"type":"Point"},"properties":{"osm_id":"8187756569","tag":{"natural":"tree"}},"type":"Feature"},
	{"geometry":{"coordinates":[77.621923,13.001326],"type":"Point"},"properties":{"osm_id":"8187756570","tag":{"natural":"tree"}},"type":"Feature"},
	{"geometry":{"coordinates":[77.621927,13.001341],"type":"Point"},"properties":{"osm_id":"8187756571","tag":{"natural":"tree"}},"type":"Feature"},
	{"geometry":{"coordinates":[77.62193,13.001355],"type":"Point"},"properties":{"osm_id":"8187756572","tag":{"natural":"tree"}},"type":"Feature"},
	{"geometry":{"coordinates":[77.6219,13.001258],"type":"Point"},"properties":{"osm_id":"8187756573","tag":{"natural":"tree"}},"type":"Feature"},
	{"geometry":{"coordinates":[77.621881,13.001212],"type":"Point"},"properties":{"osm_id":"8187756574","tag":{"natural":"tree"}},"type":"Feature"},
	{"geometry":{"coordinates":[77.621885,13.001224],"type":"Point"},"properties":{"osm_id":"8187756575","tag":{"natural":"tree"}},"type":"Feature"},
	{"geometry":{"coordinates":[77.622017,13.00155],"type":"Point"},"properties":{"osm_id":"8187851444","tag":{"natural":"tree"}},"type":"Feature"},
	{"geometry":{"coordinates":[77.622029,13.001586],"type":"Point"},"properties":{"osm_id":"8187851445","tag":{"natural":"tree"}},"type":"Feature"},
	{"geometry":{"coordinates":[77.622038,13.001619],"type":"Point"},"properties":{"osm_id":"8187851446","tag":{"natural":"tree"}},"type":"Feature"},
	{"geometry":{"coordinates":[77.622048,13.001655],"type":"Point"},"properties":{"osm_id":"8187851447","tag":{"natural":"tree"}},"type":"Feature"},
	{"geometry":{"coordinates":[77.62217,13.001929],"type":"Point"},"properties":{"osm_id":"8187851448","tag":{"natural":"tree"}},"type":"Feature"},
	{"geometry":{"coordinates":[77.622228,13.002054],"type":"Point"},"properties":{"osm_id":"8187851453","tag":{"natural":"tree"}},"type":"Feature"},
	{"geometry":{"coordinates":[77.622239,13.002076],"type":"Point"},"properties":{"osm_id":"8187851454","tag":{"natural":"tree"}},"type":"Feature"},
	{"geometry":{"coordinates":[77.62239,13.002332],"type":"Point"},"properties":{"osm_id":"8187851459","tag":{"natural":"tree"}},"type":"Feature"},
	{"geometry":{"coordinates":[77.622443,13.002396],"type":"Point"},"properties":{"osm_id":"8187851460","tag":{"natural":"tree"}},"type":"Feature"},
	{"geometry":{"coordinates":[77.622488,13.002483],"type":"Point"},"properties":{"osm_id":"8187851461","tag":{"natural":"tree"}},"type":"Feature"},
	{"geometry":{"coordinates":[77.623835,13.001982],"type":"Point"},"properties":{"osm_id":"8201194415","tag":{"natural":"tree"}},"type":"Feature"},
	{"geometry":{"coordinates":[77.623859,13.002095],"type":"Point"},"properties":{"osm_id":"8201194416","tag":{"natural":"tree"}},"type":"Feature"},
	{"geometry":{"coordinates":[77.623937,13.001934],"type":"Point"},"properties":{"osm_id":"8201208723","tag":{"natural":"tree"}},"type":"Feature"},
	{"geometry":{"coordinates":[77.623952,13.002001],"type":"Point"},"properties":{"osm_id":"8201208725","tag":{"natural":"tree"}},"type":"Feature"},
	{"geometry":{"coordinates":[77.623972,13.002052],"type":"Point"},"properties":{"osm_id":"8201208726","tag":{"natural":"tree"}},"type":"Feature"},
	{"geometry":{"coordinates":[77.623981,13.002076],"type":"Point"},"properties":{"osm_id":"8201208727","tag":{"natural":"tree"}},"type":"Feature"},
	{"geometry":{"coordinates":[77.624074,13.002128],"type":"Point"},"properties":{"osm_id":"8201208729","tag":{"natural":"tree"}},"type":"Feature"},
	{"geometry":{"coordinates":[77.624172,13.002092],"type":"Point"},"properties":{"osm_id":"8201208730","tag":{"natural":"tree"}},"type":"Feature"},
	{"geometry":{"coordinates":[77.624367,13.002004],"type":"Point"},"properties":{"osm_id":"8201208731","tag":{"natural":"tree"}},"type":"Feature"},
	{"geometry":{"coordinates":[77.624509,13.001945],"type":"Point"},"properties":{"osm_id":"8201208732","tag":{"natural":"tree"}},"type":"Feature"},
	{"geometry":{"coordinates":[77.624699,13.001872],"type":"Point"},"properties":{"osm_id":"8201208733","tag":{"natural":"tree"}},"type":"Feature"},
	{"geometry":{"coordinates":[77.624807,13.001837],"type":"Point"},"properties":{"osm_id":"8201208735","tag":{"natural":"tree"}},"type":"Feature"},
	{"geometry":{"coordinates":[77.62487,13.001816],"type":"Point"},"properties":{"osm_id":"8201208736","tag":{"natural":"tree"}},"type":"Feature"},
	{"geometry":{"coordinates":[77.625067,13.001734],"type":"Point"},"properties":{"osm_id":"8201208744","tag":{"natural":"tree"}},"type":"Feature"},
	{"geometry":{"coordinates":[77.625365,13.001613],"type":"Point"},"properties":{"osm_id":"8201208747","tag":{"natural":"tree"}},"type":"Feature"},
	{"geometry":{"coordinates":[77.625417,13.001681],"type":"Point"},"properties":{"osm_id":"8201455678","tag":{"natural":"tree"}},"type":"Feature"},
	{"geometry":{"coordinates":[77.625267,13.001752],"type":"Point"},"properties":{"osm_id":"8201455680","tag":{"natural":"tree"}},"type":"Feature"},
	{"geometry":{"coordinates":[77.624924,13.001903],"type":"Point"},"properties":{"osm_id":"8201455681","tag":{"natural":"tree"}},"type":"Feature"},
	{"geometry":{"coordinates":[77.624746,13.001996],"type":"Point"},"properties":{"osm_id":"8201455683","tag":{"natural":"tree"}},"type":"Feature"},
	{"geometry":{"coordinates":[77.624554,13.002066],"type":"Point"},"properties":{"osm_id":"8201455685","tag":{"natural":"tree"}},"type":"Feature"},
	{"geometry":{"coordinates":[77.624445,13.002095],"type":"Point"},"properties":{"osm_id":"8201455688","tag":{"natural":"tree"}},"type":"Feature"},
	{"geometry":{"coordinates":[77.624398,13.002113],"type":"Point"},"properties":{"osm_id":"8201455689","tag":{"natural":"tree"}},"type":"Feature"},
	{"geometry":{"coordinates":[77.624402,13.002112],"type":"Point"},"properties":{"osm_id":"8201455690","tag":{"natural":"tree"}},"type":"Feature"},
	{"geometry":{"coordinates":[77.624179,13.002188],"type":"Point"},"properties":{"osm_id":"8201455692","tag":{"natural":"tree"}},"type":"Feature"},
	{"geometry":{"coordinates":[77.624157,13.002201],"type":"Point"},"properties":{"osm_id":"8201455693","tag":{"natural":"tree"}},"type":"Feature"},
	{"geometry":{"coordinates":[77.619938,13.003238],"type":"Point"},"properties":{"osm_id":"8201690210","tag":{"natural":"tree"}},"type":"Feature"},
	{"geometry":{"coordinates":[77.620081,13.00316],"type":"Point"},"properties":{"osm_id":"8201690211","tag":{"natural":"tree"}},"type":"Feature"}
]
}
