{
"type": "FeatureCollection",
"features": [
	{"geometry":{"coordinates":[19.404011,51.791779],"type":"Point"},"properties":{"osm_id":"1813690825","tag":{"amenity":"recycling","recycling:glass":"yes","recycling:paper":"yes","recycling_type":"container"}},"type":"Feature"},
	{"geometry":{"coordinates":[19.402523,51.791917],"type":"Point"},"properties":{"osm_id":"1813690829","tag":{"amenity":"recycling","recycling:clothes":"yes","recycling:glass":"yes","recycling:paper":"yes","recycling_type":"container"}},"type":"Feature"},
	{"geometry":{"coordinates":[19.398054,51.793451],"type":"Point"},"properties":{"osm_id":"1813690839","tag":{"amenity":"recycling","recycling:clothes":"yes","recycling_type":"container"}},"type":"Feature"},
	{"geometry":{"coordinates":[19.388089,51.795111],"type":"Point"},"properties":{"osm_id":"1813690840","tag":{"amenity":"recycling","recycling:clothes":"yes","recycling_type":"container"}},"type":"Feature"},
	{"geometry":{"coordinates":[19.402858,51.794231],"type":"Point"},"properties":{"osm_id":"1814575305","tag":{"amenity":"recycling","recycling:clothes":"yes","recycling_type":"container"}},"type":"Feature"},
	{"geometry":{"coordinates":[19.402864,51.794256],"type":"Point"},"properties":{"osm_id":"1814575306","tag":{"amenity":"recycling","recycling:glass":"yes","recycling_type":"container"}},"type":"Feature"},
	{"geometry":{"coordinates":[19.394038,51.796663],"type":"Point"},"properties":{"osm_id":"1814632969","tag":{"amenity":"waste_basket"}},"type":"Feature"},
	{"geometry":{"coordinates":[19.39316,51.796717],"type":"Point"},"properties":{"osm_id":"1814632971","tag":{"amenity":"waste_basket"}},"type":"Feature"},
	{"geometry":{"coordinates":[19.394024,51.796895],"type":"Point"},"properties":{"osm_id":"1814632973","tag":{"amenity":"waste_basket"}},"type":"Feature"},
	{"geometry":{"coordinates":[19.388666,51.796947],"type":"Point"},"properties":{"osm_id":"1814632974","tag":{"amenity":"recycling","recycling:paper":"yes","recycling_type":"container"}},"type":"Feature"},
	{"geometry":{"coordinates":[19.384099,51.799038],"type":"Point"},"properties":{"osm_id":"1814633008","tag":{"amenity":"recycling","recycling:glass":"yes","recycling:paper":"yes","recycling_type":"container"}},"type":"Feature"},
	{"geometry":{"coordinates":[19.376444,51.799667],"type":"Point"},"properties":{"osm_id":"1814633025","tag":{"amenity":"recycling","recycling:clothes":"yes","recycling_type":"container"}},"type":"Feature"},
	{"geometry":{"coordinates":[19.418079,51.789852],"type":"Point"},"properties":{"osm_id":"1832882672","tag":{"amenity":"waste_disposal"}},"type":"Feature"},
	{"geometry":{"coordinates":[19.418145,51.7899],"type":"Point"},"properties":{"osm_id":"1832882676","tag":{"amenity":"recycling","location":"overground","recycling:plastic_bottles":"yes","recycling_type":"container"}},"type":"Feature"},
	{"geometry":{"coordinates":[19.417728,51.789723],"type":"Point"},"properties":{"osm_id":"1832882678","tag":{"amenity":"waste_basket"}},"type":"Feature"},
	{"geometry":{"coordinates":[19.418462,51.789234],"type":"Point"},"properties":{"osm_id":"1832882686","tag":{"amenity":"waste_basket"}},"type":"Feature"},
	{"geometry":{"coordinates":[19.417283,51.788205],"type":"Point"},"properties":{"osm_id":"1832891368","tag":{"amenity":"waste_basket"}},"type":"Feature"},
	{"geometry":{"coordinates":[19.41691,51.787802],"type":"Point"},"properties":{"osm_id":"1832891373","tag":{"amenity":"waste_disposal"}},"type":"Feature"},
	{"geometry":{"coordinates":[19.416895,51.787754],"type":"Point"},"properties":{"osm_id":"1832891378","tag":{"amenity":"recycling","recycling:plastic_bottles":"yes","recycling_type":"container"}},"type":"Feature"},
	{"geometry":{"coordinates":[19.416093,51.787727],"type":"Point"},"properties":{"osm_id":"1832891389","tag":{"amenity":"waste_basket"}},"type":"Feature"},
	{"geometry":{"coordinates":[19.414991,51.787157],"type":"Point"},"properties":{"osm_id":"1832891395","tag":{"amenity":"recycling","recycling:plastic_bottles":"yes","recycling_type":"container"}},"type":"Feature"},
	{"geometry":{"coordinates":[19.414981,51.787103],"type":"Point"},"properties":{"osm_id":"1832891407","tag":{"amenity":"waste_disposal"}},"type":"Feature"},
	{"geometry":{"coordinates":[19.415002,51.786687],"type":"Point"},"properties":{"osm_id":"1832892985","tag":{"amenity":"waste_basket"}},"type":"Feature"},
	{"geometry":{"coordinates":[19.417728,51.785665],"type":"Point"},"properties":{"osm_id":"1832904984","tag":{"amenity":"waste_basket"}},"type":"Feature"},
	{"geometry":{"coordinates":[19.423272,51.78465],"type":"Point"},"properties":{"osm_id":"1833286896","tag":{"amenity":"waste_disposal"}},"type":"Feature"},
	{"geometry":{"coordinates":[19.386524,51.798826],"type":"Point"},"properties":{"osm_id":"1833850292","tag":{"amenity":"waste_basket"}},"type":"Feature"},
	{"geometry":{"coordinates":[19.394453,51.795387],"type":"Point"},"properties":{"osm_id":"1874355111","tag":{"amenity":"waste_basket"}},"type":"Feature"},
	{"geometry":{"coordinates":[19.373076,51.797497],"type":"Point"},"properties":{"osm_id":"1885688696","tag":{"amenity":"recycling","recycling:cans":"yes","recycling:glass":"yes","recycling:paper":"yes","recycling_type":"container"}},"type":"Feature"},
	{"geometry":{"coordinates":[19.369338,51.801839],"type":"Point"},"properties":{"osm_id":"1889791405","tag":{"amenity":"waste_basket"}},"type":"Feature"},
	{"geometry":{"coordinates":[19.380893,51.7939],"type":"Point"},"properties":{"osm_id":"1891403058","tag":{"amenity":"recycling","recycling:clothes":"yes","recycling_type":"container"}},"type":"Feature"},
	{"geometry":{"coordinates":[19.382765,51.797323],"type":"Point"},"properties":{"osm_id":"1891414221","tag":{"amenity":"recycling","recycling:paper":"yes","recycling_type":"container"}},"type":"Feature"},
	{"geometry":{"coordinates":[19.382831,51.797272],"type":"Point"},"properties":{"osm_id":"1891414223","tag":{"amenity":"waste_disposal"}},"type":"Feature"},
	{"geometry":{"coordinates":[19.421899,51.800911],"type":"Point"},"properties":{"osm_id":"1905597095","tag":{"amenity":"recycling"}},"type":"Feature"},
	{"geometry":{"coordinates":[19.422272,51.786254],"type":"Point"},"properties":{"osm_id":"1914986118","tag":{"amenity":"recycling","recycling:glass":"yes","recycling:paper":"yes"}},"type":"Feature"},
	{"geometry":{"coordinates":[19.422311,51.786182],"type":"Point"},"properties":{"osm_id":"1914986138","tag":{"amenity":"waste_disposal"}},"type":"Feature"},
	{"geometry":{"coordinates":[19.367836,51.801256],"type":"Point"},"properties":{"osm_id":"1915662534","tag":{"amenity":"recycling","recycling:glass":"yes"}},"type":"Feature"},
	{"geometry":{"coordinates":[19.36959,51.80134],"type":"Point"},"properties":{"osm_id":"1915670163","tag":{"amenity":"recycling","recycling:glass":"yes","recycling:paper":"yes"}},"type":"Feature"},
	{"geometry":{"coordinates":[19.419882,51.790723],"type":"Point"},"properties":{"osm_id":"3599652247","tag":{"amenity":"waste_basket"}},"type":"Feature"},
	{"geometry":{"coordinates":[19.413334,51.787085],"type":"Point"},"properties":{"osm_id":"5007799677","tag":{"amenity":"waste_basket"}},"type":"Feature"},
	{"geometry":{"coordinates":[19.413317,51.787051],"type":"Point"},"properties":{"osm_id":"5007799680","tag":{"amenity":"waste_basket"}},"type":"Feature"},
	{"geometry":{"coordinates":[19.373634,51.798958],"type":"Point"},"properties":{"osm_id":"5371057248","tag":{"amenity":"waste_disposal","waste":"trash"}},"type":"Feature"},
	{"geometry":{"coordinates":[19.417861,51.787003],"type":"Point"},"properties":{"osm_id":"5381638197","tag":{"amenity":"waste_basket"}},"type":"Feature"},
	{"geometry":{"coordinates":[19.418116,51.787028],"type":"Point"},"properties":{"osm_id":"5381638208","tag":{"amenity":"waste_basket"}},"type":"Feature"},
	{"geometry":{"coordinates":[19.419536,51.788752],"type":"Point"},"properties":{"osm_id":"6964523236","tag":{"amenity":"waste_basket"}},"type":"Feature"},
	{"geometry":{"coordinates":[19.373754,51.798935],"type":"Point"},"properties":{"osm_id":"6967388401","tag":{"amenity":"waste_disposal","waste":"trash"}},"type":"Feature"},
	{"geometry":{"coordinates":[19.373734,51.798939],"type":"Point"},"properties":{"osm_id":"6967388402","tag":{"amenity":"waste_disposal","waste":"trash"}},"type":"Feature"},
	{"geometry":{"coordinates":[19.417892,51.818523],"type":"Point"},"properties":{"name":"Polski Czerwony Krzy\u00c5\u00bc","osm_id":"7353987161","tag":{"amenity":"recycling","recycling:clothes":"yes","recycling:shoes":"yes","recycling_type":"container"}},"type":"Feature"},
	{"geometry":{"coordinates":[19.41791,51.818527],"type":"Point"},"properties":{"name":"Polski Czerwony Krzy\u00c5\u00bc","osm_id":"7353987162","tag":{"amenity":"recycling","recycling:clothes":"yes","recycling:shoes":"yes","recycling_type":"container"}},"type":"Feature"},
	{"geometry":{"coordinates":[19.417928,51.818531],"type":"Point"},"properties":{"name":"Polski Czerwony Krzy\u00c5\u00bc","osm_id":"7353987163","tag":{"amenity":"recycling","recycling:clothes":"yes","recycling:shoes":"yes","recycling_type":"container"}},"type":"Feature"},
	{"geometry":{"coordinates":[19.417956,51.818538],"type":"Point"},"properties":{"osm_id":"7353987164","tag":{"amenity":"recycling","recycling:clothes":"yes","recycling:shoes":"yes","recycling_type":"container"}},"type":"Feature"},
	{"geometry":{"coordinates":[19.399266,51.793433],"type":"Point"},"properties":{"osm_id":"7528860813","tag":{"amenity":"waste_basket"}},"type":"Feature"}
]
}
