{
"type": "FeatureCollection",
"features": [
	{"geometry":{"coordinates":[19.337262,50.576424],"type":"Point"},"properties":{"osm_id":"3087408148","tag":{"amenity":"waste_basket"}},"type":"Feature"},
	{"geometry":{"coordinates":[19.339366,50.577234],"type":"Point"},"properties":{"osm_id":"3087408159","tag":{"amenity":"waste_basket"}},"type":"Feature"},
	{"geometry":{"coordinates":[19.365644,50.619119],"type":"Point"},"properties":{"osm_id":"3936998848","tag":{"addr:city":"\u00c5\u00bbarki","addr:city:simc":"0932643","addr:housenumber":"3","addr:postcode":"42-310","addr:street":"Cegielniana","addr:street:sym_ul":"02580","amenity":"recycling","phone":"+4850375208","recycling:scrap_metal":"yes","source:addr":"emuia.gugik.gov.pl"}},"type":"Feature"},
	{"geometry":{"coordinates":[19.351124,50.578124],"type":"Point"},"properties":{"osm_id":"6809899934","tag":{"amenity":"waste_basket","waste":"trash"}},"type":"Feature"},
	{"geometry":{"coordinates":[19.351748,50.577892],"type":"Point"},"properties":{"osm_id":"6809899935","tag":{"amenity":"waste_basket","waste":"trash"}},"type":"Feature"},
	{"geometry":{"coordinates":[19.352387,50.577664],"type":"Point"},"properties":{"osm_id":"6809899940","tag":{"amenity":"waste_basket","waste":"trash"}},"type":"Feature"},
	{"geometry":{"coordinates":[19.350367,50.577722],"type":"Point"},"properties":{"osm_id":"6809899945","tag":{"amenity":"waste_basket","waste":"trash"}},"type":"Feature"},
	{"geometry":{"coordinates":[19.35047,50.577759],"type":"Point"},"properties":{"osm_id":"6809899946","tag":{"amenity":"waste_basket","waste":"trash"}},"type":"Feature"},
	{"geometry":{"coordinates":[19.354889,50.576826],"type":"Point"},"properties":{"osm_id":"8980816605","tag":{"amenity":"waste_basket","waste":"trash"}},"type":"Feature"},
	{"geometry":{"coordinates":[19.354246,50.577034],"type":"Point"},"properties":{"osm_id":"8980816606","tag":{"amenity":"waste_basket","waste":"trash"}},"type":"Feature"},
	{"geometry":{"coordinates":[19.353601,50.577244],"type":"Point"},"properties":{"osm_id":"8980816607","tag":{"amenity":"waste_basket","waste":"trash"}},"type":"Feature"}
]
}
