{
"type": "FeatureCollection",
"features": [
	{"geometry":{"coordinates":[19.355053,49.858448],"type":"Point"},"properties":{"osm_id":"3789323263","tag":{"amenity":"recycling","recycling_type":"container"}},"type":"Feature"},
	{"geometry":{"coordinates":[19.348511,49.858315],"type":"Point"},"properties":{"osm_id":"5365704949","tag":{"amenity":"recycling","recycling_type":"container"}},"type":"Feature"},
	{"geometry":{"coordinates":[19.348687,49.858747],"type":"Point"},"properties":{"osm_id":"5365704950","tag":{"amenity":"recycling","recycling_type":"container"}},"type":"Feature"},
	{"geometry":{"coordinates":[19.348373,49.85851],"type":"Point"},"properties":{"osm_id":"5381641672","tag":{"amenity":"recycling","recycling_type":"container"}},"type":"Feature"},
	{"geometry":{"coordinates":[19.349607,49.859257],"type":"Point"},"properties":{"osm_id":"5412545392","tag":{"amenity":"recycling","recycling_type":"container"}},"type":"Feature"},
	{"geometry":{"coordinates":[19.347869,49.859497],"type":"Point"},"properties":{"osm_id":"5412545407","tag":{"amenity":"recycling","recycling_type":"container"}},"type":"Feature"},
	{"geometry":{"coordinates":[19.352871,49.862488],"type":"Point"},"properties":{"osm_id":"5592982502","tag":{"amenity":"waste_basket"}},"type":"Feature"},
	{"geometry":{"coordinates":[19.352906,49.862483],"type":"Point"},"properties":{"osm_id":"5592982503","tag":{"amenity":"waste_basket"}},"type":"Feature"},
	{"geometry":{"coordinates":[19.351263,49.857833],"type":"Point"},"properties":{"osm_id":"5691061482","tag":{"amenity":"waste_basket"}},"type":"Feature"},
	{"geometry":{"coordinates":[19.351377,49.857837],"type":"Point"},"properties":{"osm_id":"5691061483","tag":{"amenity":"waste_basket"}},"type":"Feature"},
	{"geometry":{"coordinates":[19.351425,49.857861],"type":"Point"},"properties":{"osm_id":"5691061484","tag":{"amenity":"waste_basket"}},"type":"Feature"},
	{"geometry":{"coordinates":[19.351389,49.857901],"type":"Point"},"properties":{"osm_id":"5691061485","tag":{"amenity":"waste_basket"}},"type":"Feature"},
	{"geometry":{"coordinates":[19.351289,49.857949],"type":"Point"},"properties":{"osm_id":"5691061486","tag":{"amenity":"waste_basket"}},"type":"Feature"},
	{"geometry":{"coordinates":[19.351222,49.857959],"type":"Point"},"properties":{"osm_id":"5691061487","tag":{"amenity":"waste_basket"}},"type":"Feature"},
	{"geometry":{"coordinates":[19.351134,49.857941],"type":"Point"},"properties":{"osm_id":"5691061488","tag":{"amenity":"waste_basket"}},"type":"Feature"},
	{"geometry":{"coordinates":[19.351112,49.861803],"type":"Point"},"properties":{"osm_id":"6260832729","tag":{"amenity":"waste_basket"}},"type":"Feature"},
	{"geometry":{"coordinates":[19.350412,49.859915],"type":"Point"},"properties":{"osm_id":"6260832875","tag":{"amenity":"waste_basket"}},"type":"Feature"},
	{"geometry":{"coordinates":[19.34861,49.855737],"type":"Point"},"properties":{"osm_id":"6270452086","tag":{"amenity":"waste_basket"}},"type":"Feature"},
	{"geometry":{"coordinates":[19.349144,49.856915],"type":"Point"},"properties":{"osm_id":"6270452087","tag":{"amenity":"waste_basket"}},"type":"Feature"},
	{"geometry":{"coordinates":[19.349198,49.857651],"type":"Point"},"properties":{"osm_id":"6270452088","tag":{"amenity":"waste_basket"}},"type":"Feature"},
	{"geometry":{"coordinates":[19.349617,49.857805],"type":"Point"},"properties":{"osm_id":"6270452089","tag":{"amenity":"waste_basket"}},"type":"Feature"},
	{"geometry":{"coordinates":[19.350025,49.857629],"type":"Point"},"properties":{"osm_id":"6540835728","tag":{"amenity":"recycling","recycling_type":"container"}},"type":"Feature"},
	{"geometry":{"coordinates":[19.350763,49.858319],"type":"Point"},"properties":{"osm_id":"6550130062","tag":{"amenity":"recycling","recycling_type":"container"}},"type":"Feature"},
	{"geometry":{"coordinates":[19.349146,49.855878],"type":"Point"},"properties":{"osm_id":"6575290717","tag":{"amenity":"waste_basket"}},"type":"Feature"},
	{"geometry":{"coordinates":[19.349188,49.856163],"type":"Point"},"properties":{"osm_id":"6575290718","tag":{"amenity":"waste_basket"}},"type":"Feature"},
	{"geometry":{"coordinates":[19.345859,49.856276],"type":"Point"},"properties":{"osm_id":"7289371101","tag":{"amenity":"recycling","recycling:glass":"yes","recycling:organic":"yes","recycling:paper":"yes","recycling:plastic":"yes","recycling_type":"container"}},"type":"Feature"},
	{"geometry":{"coordinates":[19.346331,49.85631],"type":"Point"},"properties":{"osm_id":"7289371102","tag":{"amenity":"recycling","recycling:glass":"yes","recycling:organic":"yes","recycling:paper":"yes","recycling:plastic":"yes","recycling_type":"container"}},"type":"Feature"},
	{"geometry":{"coordinates":[19.345903,49.857049],"type":"Point"},"properties":{"osm_id":"7289371124","tag":{"amenity":"recycling","recycling:glass":"yes","recycling:organic":"yes","recycling:paper":"yes","recycling:plastic":"yes","recycling_type":"container"}},"type":"Feature"},
	{"geometry":{"coordinates":[19.346493,49.857015],"type":"Point"},"properties":{"osm_id":"7289371149","tag":{"amenity":"recycling","recycling:glass":"yes","recycling:organic":"yes","recycling:paper":"yes","recycling:plastic":"yes","recycling_type":"container"}},"type":"Feature"},
	{"geometry":{"coordinates":[19.346797,49.857586],"type":"Point"},"properties":{"osm_id":"7289371201","tag":{"amenity":"recycling","recycling:glass":"yes","recycling:organic":"yes","recycling:paper":"yes","recycling:plastic":"yes","recycling_type":"container"}},"type":"Feature"},
	{"geometry":{"coordinates":[19.346073,49.857672],"type":"Point"},"properties":{"osm_id":"7289371206","tag":{"amenity":"recycling","recycling:glass":"yes","recycling:organic":"yes","recycling:paper":"yes","recycling:plastic":"yes","recycling_type":"container"}},"type":"Feature"},
	{"geometry":{"coordinates":[19.351292,49.855554],"type":"Point"},"properties":{"osm_id":"7357067706","tag":{"amenity":"waste_basket"}},"type":"Feature"},
	{"geometry":{"coordinates":[19.351127,49.855478],"type":"Point"},"properties":{"osm_id":"7357067709","tag":{"amenity":"waste_basket"}},"type":"Feature"},
	{"geometry":{"coordinates":[19.351061,49.855448],"type":"Point"},"properties":{"osm_id":"7357067712","tag":{"amenity":"waste_basket"}},"type":"Feature"},
	{"geometry":{"coordinates":[19.350893,49.855371],"type":"Point"},"properties":{"osm_id":"7357067714","tag":{"amenity":"waste_basket"}},"type":"Feature"},
	{"geometry":{"coordinates":[19.350687,49.855278],"type":"Point"},"properties":{"osm_id":"7357067719","tag":{"amenity":"waste_basket"}},"type":"Feature"},
	{"geometry":{"coordinates":[19.351372,49.855597],"type":"Point"},"properties":{"osm_id":"7357067720","tag":{"amenity":"waste_basket"}},"type":"Feature"},
	{"geometry":{"coordinates":[19.349828,49.855572],"type":"Point"},"properties":{"osm_id":"7357067723","tag":{"amenity":"waste_basket"}},"type":"Feature"},
	{"geometry":{"coordinates":[19.342498,49.857177],"type":"Point"},"properties":{"osm_id":"7659174684","tag":{"access":"private","amenity":"recycling","recycling:glass_bottles":"yes","recycling:green_waste":"yes","recycling:paper":"yes","recycling:plastic":"yes","recycling:waste":"yes","recycling_type":"container"}},"type":"Feature"},
	{"geometry":{"coordinates":[19.341471,49.856517],"type":"Point"},"properties":{"osm_id":"7659189746","tag":{"access":"private","amenity":"recycling","recycling:glass_bottles":"yes","recycling:green_waste":"yes","recycling:paper":"yes","recycling:plastic":"yes","recycling:waste":"yes","recycling_type":"container"}},"type":"Feature"}
]
}
