{
"type": "FeatureCollection",
"features": [
	{"geometry":{"coordinates":[19.345795,47.597207],"type":"Point"},"properties":{"osm_id":"1237182348","tag":{"amenity":"recycling"}},"type":"Feature"},
	{"geometry":{"coordinates":[19.346139,47.599042],"type":"Point"},"properties":{"osm_id":"1237182359","tag":{"amenity":"recycling"}},"type":"Feature"},
	{"geometry":{"coordinates":[19.37957,47.602323],"type":"Point"},"properties":{"osm_id":"1963751072","tag":{"amenity":"recycling"}},"type":"Feature"},
	{"geometry":{"coordinates":[19.352382,47.589651],"type":"Point"},"properties":{"osm_id":"2939873461","tag":{"amenity":"recycling","recycling:glass_bottles":"yes","recycling_type":"container"}},"type":"Feature"},
	{"geometry":{"coordinates":[19.342132,47.624011],"type":"Point"},"properties":{"osm_id":"2939874083","tag":{"amenity":"recycling","recycling:glass":"yes"}},"type":"Feature"},
	{"geometry":{"coordinates":[19.352365,47.600545],"type":"Point"},"properties":{"osm_id":"2984526756","tag":{"amenity":"recycling","recycling:glass":"yes","recycling:paper":"yes"}},"type":"Feature"},
	{"geometry":{"coordinates":[19.353464,47.602247],"type":"Point"},"properties":{"osm_id":"2984528476","tag":{"amenity":"recycling","recycling:glass":"yes","recycling:paper":"yes"}},"type":"Feature"},
	{"geometry":{"coordinates":[19.383554,47.599132],"type":"Point"},"properties":{"osm_id":"3127770280","tag":{"amenity":"recycling","recycling:glass_bottles":"yes","recycling:paper":"yes","recycling:scrap_metal":"yes","recycling_type":"container"}},"type":"Feature"},
	{"geometry":{"coordinates":[19.350078,47.604781],"type":"Point"},"properties":{"osm_id":"3471890184","tag":{"amenity":"recycling","source:date":"2011-12-29","url":"http://turistautak.hu/poi.php?id=116406"}},"type":"Feature"},
	{"geometry":{"coordinates":[19.355092,47.605173],"type":"Point"},"properties":{"osm_id":"3471890185","tag":{"amenity":"recycling","source:date":"2011-12-29","url":"http://turistautak.hu/poi.php?id=116407"}},"type":"Feature"},
	{"geometry":{"coordinates":[19.348666,47.59879],"type":"Point"},"properties":{"osm_id":"3475440463","tag":{"amenity":"recycling"}},"type":"Feature"},
	{"geometry":{"coordinates":[19.39213,47.612159],"type":"Point"},"properties":{"osm_id":"4109526438","tag":{"amenity":"waste_basket"}},"type":"Feature"},
	{"geometry":{"coordinates":[19.392047,47.612165],"type":"Point"},"properties":{"osm_id":"4109526439","tag":{"amenity":"waste_basket"}},"type":"Feature"},
	{"geometry":{"coordinates":[19.391679,47.61234],"type":"Point"},"properties":{"osm_id":"4109526448","tag":{"amenity":"waste_basket"}},"type":"Feature"},
	{"geometry":{"coordinates":[19.391279,47.612248],"type":"Point"},"properties":{"osm_id":"4109526651","tag":{"amenity":"waste_basket"}},"type":"Feature"},
	{"geometry":{"coordinates":[19.3915,47.612219],"type":"Point"},"properties":{"osm_id":"4109528795","tag":{"amenity":"waste_basket"}},"type":"Feature"},
	{"geometry":{"coordinates":[19.392693,47.612286],"type":"Point"},"properties":{"osm_id":"4109533093","tag":{"amenity":"waste_basket"}},"type":"Feature"},
	{"geometry":{"coordinates":[19.392081,47.612317],"type":"Point"},"properties":{"osm_id":"4109548395","tag":{"amenity":"waste_basket"}},"type":"Feature"},
	{"geometry":{"coordinates":[19.352225,47.595582],"type":"Point"},"properties":{"osm_id":"4355980561","tag":{"amenity":"waste_basket"}},"type":"Feature"},
	{"geometry":{"coordinates":[19.353272,47.59483],"type":"Point"},"properties":{"name":"kuty\u00c3\u00a1knak","osm_id":"4355980562","tag":{"amenity":"waste_basket"}},"type":"Feature"},
	{"geometry":{"coordinates":[19.35633,47.593553],"type":"Point"},"properties":{"osm_id":"4355980563","tag":{"amenity":"waste_basket"}},"type":"Feature"},
	{"geometry":{"coordinates":[19.3573,47.592689],"type":"Point"},"properties":{"osm_id":"4355980564","tag":{"amenity":"waste_basket"}},"type":"Feature"},
	{"geometry":{"coordinates":[19.35734,47.592472],"type":"Point"},"properties":{"osm_id":"4355980581","tag":{"amenity":"waste_basket"}},"type":"Feature"},
	{"geometry":{"coordinates":[19.356968,47.592462],"type":"Point"},"properties":{"osm_id":"4355980587","tag":{"amenity":"waste_basket"}},"type":"Feature"},
	{"geometry":{"coordinates":[19.358523,47.591703],"type":"Point"},"properties":{"osm_id":"4355981102","tag":{"amenity":"waste_basket"}},"type":"Feature"},
	{"geometry":{"coordinates":[19.35862,47.59144],"type":"Point"},"properties":{"osm_id":"4355981104","tag":{"amenity":"waste_basket"}},"type":"Feature"},
	{"geometry":{"coordinates":[19.358683,47.591452],"type":"Point"},"properties":{"osm_id":"4355981133","tag":{"amenity":"waste_basket"}},"type":"Feature"},
	{"geometry":{"coordinates":[19.348183,47.598502],"type":"Point"},"properties":{"osm_id":"4357654753","tag":{"amenity":"waste_basket"}},"type":"Feature"},
	{"geometry":{"coordinates":[19.347926,47.597969],"type":"Point"},"properties":{"osm_id":"4357654758","tag":{"amenity":"waste_basket"}},"type":"Feature"},
	{"geometry":{"coordinates":[19.347945,47.597956],"type":"Point"},"properties":{"osm_id":"4357654759","tag":{"amenity":"waste_disposal"}},"type":"Feature"},
	{"geometry":{"coordinates":[19.348363,47.598314],"type":"Point"},"properties":{"osm_id":"4357654762","tag":{"amenity":"waste_basket"}},"type":"Feature"},
	{"geometry":{"coordinates":[19.348513,47.598262],"type":"Point"},"properties":{"osm_id":"4357654763","tag":{"amenity":"waste_basket"}},"type":"Feature"},
	{"geometry":{"coordinates":[19.348573,47.598218],"type":"Point"},"properties":{"osm_id":"4357654764","tag":{"amenity":"waste_basket"}},"type":"Feature"},
	{"geometry":{"coordinates":[19.348187,47.59787],"type":"Point"},"properties":{"osm_id":"4357654765","tag":{"amenity":"waste_basket"}},"type":"Feature"},
	{"geometry":{"coordinates":[19.348886,47.598157],"type":"Point"},"properties":{"osm_id":"4357654768","tag":{"amenity":"waste_basket"}},"type":"Feature"},
	{"geometry":{"coordinates":[19.347376,47.598411],"type":"Point"},"properties":{"osm_id":"4357654769","tag":{"amenity":"waste_basket"}},"type":"Feature"},
	{"geometry":{"coordinates":[19.347343,47.598289],"type":"Point"},"properties":{"osm_id":"4357654770","tag":{"amenity":"waste_basket"}},"type":"Feature"},
	{"geometry":{"coordinates":[19.347317,47.598407],"type":"Point"},"properties":{"osm_id":"4357654771","tag":{"amenity":"waste_basket"}},"type":"Feature"},
	{"geometry":{"coordinates":[19.346841,47.598078],"type":"Point"},"properties":{"osm_id":"4357654776","tag":{"amenity":"waste_basket"}},"type":"Feature"},
	{"geometry":{"coordinates":[19.346831,47.598325],"type":"Point"},"properties":{"osm_id":"4357654777","tag":{"amenity":"waste_basket"}},"type":"Feature"},
	{"geometry":{"coordinates":[19.347646,47.598473],"type":"Point"},"properties":{"osm_id":"4357677730","tag":{"amenity":"waste_basket"}},"type":"Feature"},
	{"geometry":{"coordinates":[19.347673,47.597609],"type":"Point"},"properties":{"osm_id":"4357677736","tag":{"amenity":"waste_basket"}},"type":"Feature"},
	{"geometry":{"coordinates":[19.348788,47.62482],"type":"Point"},"properties":{"osm_id":"5439293107","tag":{"amenity":"waste_basket"}},"type":"Feature"}
]
}
