{
"type": "FeatureCollection",
"features": [
	{"geometry":{"coordinates":[85.013246,56.474543],"type":"Point"},"properties":{"osm_id":"1211706612","tag":{"amenity":"waste_disposal"}},"type":"Feature"},
	{"geometry":{"coordinates":[85.013242,56.474589],"type":"Point"},"properties":{"osm_id":"1211706734","tag":{"amenity":"waste_disposal"}},"type":"Feature"},
	{"geometry":{"coordinates":[85.001533,56.475377],"type":"Point"},"properties":{"osm_id":"1577027230","tag":{"amenity":"recycling"}},"type":"Feature"},
	{"geometry":{"coordinates":[85.007955,56.476751],"type":"Point"},"properties":{"osm_id":"1725511310","tag":{"amenity":"recycling","recycling_type":"container"}},"type":"Feature"},
	{"geometry":{"coordinates":[85.009097,56.476606],"type":"Point"},"properties":{"osm_id":"1725511313","tag":{"amenity":"recycling","recycling_type":"container"}},"type":"Feature"},
	{"geometry":{"coordinates":[85.009803,56.474314],"type":"Point"},"properties":{"osm_id":"1727842024","tag":{"amenity":"recycling","recycling_type":"container"}},"type":"Feature"},
	{"geometry":{"coordinates":[85.011816,56.477583],"type":"Point"},"properties":{"osm_id":"1728730118","tag":{"amenity":"recycling"}},"type":"Feature"},
	{"geometry":{"coordinates":[85.006233,56.475325],"type":"Point"},"properties":{"osm_id":"1751924795","tag":{"amenity":"recycling","recycling_type":"container"}},"type":"Feature"},
	{"geometry":{"coordinates":[85.008865,56.47857],"type":"Point"},"properties":{"osm_id":"1752549153","tag":{"amenity":"recycling"}},"type":"Feature"},
	{"geometry":{"coordinates":[84.999558,56.477168],"type":"Point"},"properties":{"osm_id":"1754997978","tag":{"amenity":"recycling","recycling_type":"container"}},"type":"Feature"},
	{"geometry":{"coordinates":[84.999566,56.477734],"type":"Point"},"properties":{"osm_id":"1754997979","tag":{"amenity":"recycling","recycling_type":"container"}},"type":"Feature"},
	{"geometry":{"coordinates":[85.00543,56.479412],"type":"Point"},"properties":{"osm_id":"1756173424","tag":{"amenity":"recycling"}},"type":"Feature"},
	{"geometry":{"coordinates":[85.013639,56.479872],"type":"Point"},"properties":{"osm_id":"1757393050","tag":{"amenity":"recycling","recycling_type":"container"}},"type":"Feature"},
	{"geometry":{"coordinates":[85.037227,56.501271],"type":"Point"},"properties":{"osm_id":"1777234832","tag":{"amenity":"recycling","recycling_type":"container"}},"type":"Feature"},
	{"geometry":{"coordinates":[85.000091,56.482433],"type":"Point"},"properties":{"osm_id":"1778848586","tag":{"amenity":"recycling","recycling_type":"container"}},"type":"Feature"},
	{"geometry":{"coordinates":[85.022917,56.50883],"type":"Point"},"properties":{"osm_id":"1796836232","tag":{"amenity":"waste_basket"}},"type":"Feature"},
	{"geometry":{"coordinates":[84.999976,56.484374],"type":"Point"},"properties":{"osm_id":"2031982475","tag":{"amenity":"recycling","recycling_type":"container"}},"type":"Feature"},
	{"geometry":{"coordinates":[84.990486,56.463763],"type":"Point"},"properties":{"osm_id":"2106933101","tag":{"amenity":"waste_disposal"}},"type":"Feature"},
	{"geometry":{"coordinates":[84.993788,56.463956],"type":"Point"},"properties":{"osm_id":"2106933125","tag":{"amenity":"waste_disposal"}},"type":"Feature"},
	{"geometry":{"coordinates":[84.993919,56.463892],"type":"Point"},"properties":{"osm_id":"2106933127","tag":{"amenity":"waste_disposal"}},"type":"Feature"},
	{"geometry":{"coordinates":[85.011685,56.508661],"type":"Point"},"properties":{"osm_id":"2235205929","tag":{"amenity":"waste_disposal"}},"type":"Feature"},
	{"geometry":{"coordinates":[85.005151,56.501346],"type":"Point"},"properties":{"osm_id":"2249109082","tag":{"amenity":"waste_disposal"}},"type":"Feature"},
	{"geometry":{"coordinates":[85.011927,56.505745],"type":"Point"},"properties":{"osm_id":"2249678889","tag":{"amenity":"waste_disposal"}},"type":"Feature"},
	{"geometry":{"coordinates":[85.002744,56.50434],"type":"Point"},"properties":{"osm_id":"2249684062","tag":{"amenity":"waste_disposal"}},"type":"Feature"},
	{"geometry":{"coordinates":[85.011469,56.508238],"type":"Point"},"properties":{"osm_id":"2471245659","tag":{"amenity":"waste_disposal"}},"type":"Feature"},
	{"geometry":{"coordinates":[85.006713,56.510319],"type":"Point"},"properties":{"osm_id":"2471253364","tag":{"amenity":"waste_disposal"}},"type":"Feature"},
	{"geometry":{"coordinates":[85.044784,56.504688],"type":"Point"},"properties":{"osm_id":"2626382488","tag":{"amenity":"waste_disposal"}},"type":"Feature"},
	{"geometry":{"coordinates":[85.00171,56.484036],"type":"Point"},"properties":{"osm_id":"3509480200","tag":{"amenity":"recycling","recycling_type":"container"}},"type":"Feature"},
	{"geometry":{"coordinates":[85.005935,56.483651],"type":"Point"},"properties":{"osm_id":"4187612813","tag":{"amenity":"waste_disposal"}},"type":"Feature"},
	{"geometry":{"coordinates":[85.008835,56.483574],"type":"Point"},"properties":{"osm_id":"4187612814","tag":{"amenity":"waste_disposal"}},"type":"Feature"},
	{"geometry":{"coordinates":[85.005896,56.484468],"type":"Point"},"properties":{"osm_id":"4187612815","tag":{"amenity":"waste_disposal"}},"type":"Feature"},
	{"geometry":{"coordinates":[85.014328,56.506258],"type":"Point"},"properties":{"osm_id":"4240667492","tag":{"amenity":"waste_disposal"}},"type":"Feature"},
	{"geometry":{"coordinates":[84.992913,56.480371],"type":"Point"},"properties":{"osm_id":"5149180749","tag":{"amenity":"waste_disposal"}},"type":"Feature"},
	{"geometry":{"coordinates":[85.055069,56.493123],"type":"Point"},"properties":{"osm_id":"5582897035","tag":{"amenity":"waste_disposal","location":"underground"}},"type":"Feature"},
	{"geometry":{"coordinates":[85.057778,56.492329],"type":"Point"},"properties":{"osm_id":"5582897925","tag":{"amenity":"waste_disposal","location":"underground"}},"type":"Feature"},
	{"geometry":{"coordinates":[85.060628,56.481049],"type":"Point"},"properties":{"osm_id":"5604679101","tag":{"amenity":"waste_disposal","waste":"trash"}},"type":"Feature"},
	{"geometry":{"coordinates":[84.993292,56.48074],"type":"Point"},"properties":{"osm_id":"5903181640","tag":{"amenity":"waste_disposal"}},"type":"Feature"},
	{"geometry":{"coordinates":[84.992984,56.480371],"type":"Point"},"properties":{"osm_id":"5903181641","tag":{"amenity":"recycling","recycling:cans":"yes","recycling:glass":"yes","recycling:plastic":"yes","recycling_type":"container"}},"type":"Feature"},
	{"geometry":{"coordinates":[85.025089,56.510388],"type":"Point"},"properties":{"osm_id":"6568104243","tag":{"amenity":"waste_disposal"}},"type":"Feature"}
]
}
