{
"type": "FeatureCollection",
"features": [
	{"geometry":{"coordinates":[-2.122872,57.131441],"type":"Point"},"properties":{"osm_id":"914803036","tag":{"amenity":"waste_basket"}},"type":"Feature"},
	{"geometry":{"coordinates":[-2.122067,57.130941],"type":"Point"},"properties":{"osm_id":"914803042","tag":{"amenity":"waste_basket"}},"type":"Feature"},
	{"geometry":{"coordinates":[-2.129027,57.130431],"type":"Point"},"properties":{"osm_id":"919034143","tag":{"amenity":"waste_basket","waste":"dog_excrement"}},"type":"Feature"},
	{"geometry":{"coordinates":[-2.130208,57.131039],"type":"Point"},"properties":{"osm_id":"919034208","tag":{"amenity":"waste_basket"}},"type":"Feature"},
	{"geometry":{"coordinates":[-2.123387,57.131916],"type":"Point"},"properties":{"osm_id":"924684966","tag":{"amenity":"waste_basket"}},"type":"Feature"},
	{"geometry":{"coordinates":[-2.12209,57.133959],"type":"Point"},"properties":{"osm_id":"927278278","tag":{"amenity":"waste_basket","waste":"dog_excrement"}},"type":"Feature"},
	{"geometry":{"coordinates":[-2.149568,57.132317],"type":"Point"},"properties":{"osm_id":"1045651780","tag":{"amenity":"recycling"}},"type":"Feature"},
	{"geometry":{"coordinates":[-2.162818,57.135759],"type":"Point"},"properties":{"osm_id":"1079889607","tag":{"amenity":"waste_basket"}},"type":"Feature"},
	{"geometry":{"coordinates":[-2.147031,57.133366],"type":"Point"},"properties":{"osm_id":"1116567594","tag":{"amenity":"waste_basket"}},"type":"Feature"},
	{"geometry":{"coordinates":[-2.164041,57.13369],"type":"Point"},"properties":{"osm_id":"4626575948","tag":{"amenity":"waste_basket"}},"type":"Feature"},
	{"geometry":{"coordinates":[-2.152338,57.135886],"type":"Point"},"properties":{"osm_id":"4900238742","tag":{"amenity":"waste_basket"}},"type":"Feature"},
	{"geometry":{"coordinates":[-2.139925,57.132154],"type":"Point"},"properties":{"osm_id":"4900238751","tag":{"amenity":"waste_basket"}},"type":"Feature"},
	{"geometry":{"coordinates":[-2.115256,57.115945],"type":"Point"},"properties":{"osm_id":"6125274753","tag":{"amenity":"recycling","recycling_type":"container"}},"type":"Feature"},
	{"geometry":{"coordinates":[-2.164163,57.123529],"type":"Point"},"properties":{"osm_id":"6647336185","tag":{"amenity":"waste_basket","waste":"dog_excrement"}},"type":"Feature"},
	{"geometry":{"coordinates":[-2.155486,57.125067],"type":"Point"},"properties":{"osm_id":"6689744463","tag":{"amenity":"waste_basket"}},"type":"Feature"},
	{"geometry":{"coordinates":[-2.163994,57.13382],"type":"Point"},"properties":{"osm_id":"6717320824","tag":{"amenity":"waste_basket","waste":"dog_excrement"}},"type":"Feature"},
	{"geometry":{"coordinates":[-2.148955,57.136006],"type":"Point"},"properties":{"osm_id":"6761413151","tag":{"amenity":"waste_basket"}},"type":"Feature"},
	{"geometry":{"coordinates":[-2.153811,57.131738],"type":"Point"},"properties":{"osm_id":"6833082834","tag":{"amenity":"waste_basket","waste":"dog_excrement"}},"type":"Feature"},
	{"geometry":{"coordinates":[-2.152323,57.136039],"type":"Point"},"properties":{"osm_id":"6835605285","tag":{"amenity":"waste_basket"}},"type":"Feature"},
	{"geometry":{"coordinates":[-2.15026,57.134109],"type":"Point"},"properties":{"osm_id":"6835605286","tag":{"amenity":"waste_basket"}},"type":"Feature"},
	{"geometry":{"coordinates":[-2.140283,57.13245],"type":"Point"},"properties":{"osm_id":"6895753513","tag":{"amenity":"waste_basket","waste":"dog_excrement"}},"type":"Feature"},
	{"geometry":{"coordinates":[-2.135475,57.132188],"type":"Point"},"properties":{"osm_id":"6926976118","tag":{"amenity":"waste_basket"}},"type":"Feature"},
	{"geometry":{"coordinates":[-2.135226,57.132259],"type":"Point"},"properties":{"osm_id":"6926976119","tag":{"amenity":"waste_basket"}},"type":"Feature"},
	{"geometry":{"coordinates":[-2.135009,57.132334],"type":"Point"},"properties":{"osm_id":"6926976120","tag":{"amenity":"waste_basket"}},"type":"Feature"},
	{"geometry":{"coordinates":[-2.158528,57.12009],"type":"Point"},"properties":{"osm_id":"7098881832","tag":{"amenity":"waste_basket"}},"type":"Feature"},
	{"geometry":{"coordinates":[-2.155441,57.120669],"type":"Point"},"properties":{"osm_id":"7098926356","tag":{"amenity":"waste_basket"}},"type":"Feature"},
	{"geometry":{"coordinates":[-2.150282,57.1326],"type":"Point"},"properties":{"osm_id":"7124999577","tag":{"amenity":"waste_basket","waste":"dog_excrement"}},"type":"Feature"},
	{"geometry":{"coordinates":[-2.17808,57.130274],"type":"Point"},"properties":{"osm_id":"7253672889","tag":{"amenity":"waste_basket"}},"type":"Feature"},
	{"geometry":{"coordinates":[-2.151879,57.123373],"type":"Point"},"properties":{"osm_id":"7553414437","tag":{"amenity":"waste_basket"}},"type":"Feature"},
	{"geometry":{"coordinates":[-2.126537,57.120961],"type":"Point"},"properties":{"osm_id":"7608335996","tag":{"amenity":"recycling","recycling:cardboard":"yes","recycling:glass":"yes","recycling:paper":"yes","recycling:plastic":"yes","recycling_type":"container"}},"type":"Feature"},
	{"geometry":{"coordinates":[-2.140397,57.11891],"type":"Point"},"properties":{"osm_id":"7608348607","tag":{"amenity":"recycling","recycling:clothes":"yes","recycling_type":"container"}},"type":"Feature"},
	{"geometry":{"coordinates":[-2.141253,57.135101],"type":"Point"},"properties":{"osm_id":"7778244354","tag":{"amenity":"waste_basket","waste":"dog_excrement"}},"type":"Feature"},
	{"geometry":{"coordinates":[-2.139539,57.135557],"type":"Point"},"properties":{"osm_id":"7778244355","tag":{"amenity":"waste_basket","waste":"dog_excrement"}},"type":"Feature"},
	{"geometry":{"coordinates":[-2.139987,57.134762],"type":"Point"},"properties":{"osm_id":"7778244356","tag":{"amenity":"waste_basket"}},"type":"Feature"},
	{"geometry":{"coordinates":[-2.116712,57.114626],"type":"Point"},"properties":{"barrier":"gate","osm_id":"7941952649","tag":{"access":"permit"}},"type":"Feature"}
]
}
