{
"type": "FeatureCollection",
"features": [
	{"geometry":{"coordinates":[-2.149702,53.898889],"type":"Point"},"properties":{"osm_id":"2334281519","tag":{"amenity":"waste_basket"}},"type":"Feature"},
	{"geometry":{"coordinates":[-2.142999,53.864693],"type":"Point"},"properties":{"osm_id":"8956286338","tag":{"amenity":"waste_basket","colour":"Black","material":"plastic","waste":"mixed"}},"type":"Feature"},
	{"geometry":{"coordinates":[-2.141973,53.856805],"type":"Point"},"properties":{"osm_id":"8986255310","tag":{"amenity":"waste_basket","waste":"dog_excrement"}},"type":"Feature"},
	{"geometry":{"coordinates":[-2.145405,53.862694],"type":"Point"},"properties":{"osm_id":"8986278795","tag":{"amenity":"waste_basket","waste":"dog_excrement"}},"type":"Feature"},
	{"geometry":{"coordinates":[-2.142966,53.85714],"type":"Point"},"properties":{"osm_id":"8986287919","tag":{"amenity":"waste_basket","waste":"trash"}},"type":"Feature"},
	{"geometry":{"coordinates":[-2.143199,53.857415],"type":"Point"},"properties":{"osm_id":"8986287922","tag":{"amenity":"waste_basket","waste":"dog_excrement"}},"type":"Feature"},
	{"geometry":{"coordinates":[-2.14169,53.856419],"type":"Point"},"properties":{"osm_id":"8986287928","tag":{"amenity":"waste_basket","waste":"trash"}},"type":"Feature"},
	{"geometry":{"coordinates":[-2.140736,53.856924],"type":"Point"},"properties":{"osm_id":"8986287941","tag":{"amenity":"waste_basket","waste":"trash"}},"type":"Feature"},
	{"geometry":{"coordinates":[-2.140544,53.857324],"type":"Point"},"properties":{"osm_id":"8986287942","tag":{"amenity":"waste_basket","waste":"trash"}},"type":"Feature"},
	{"geometry":{"coordinates":[-2.138036,53.859723],"type":"Point"},"properties":{"osm_id":"8986287943","tag":{"amenity":"waste_basket","waste":"dog_excrement"}},"type":"Feature"},
	{"geometry":{"coordinates":[-2.135056,53.86066],"type":"Point"},"properties":{"osm_id":"8986287944","tag":{"amenity":"waste_basket","waste":"dog_excrement"}},"type":"Feature"},
	{"geometry":{"coordinates":[-2.134697,53.860688],"type":"Point"},"properties":{"osm_id":"8986287945","tag":{"amenity":"waste_basket","waste":"trash"}},"type":"Feature"},
	{"geometry":{"coordinates":[-2.137712,53.852948],"type":"Point"},"properties":{"osm_id":"9005053079","tag":{"amenity":"waste_basket","waste":"dog_excrement"}},"type":"Feature"}
]
}
