{
"type": "FeatureCollection",
"lastupdate": "2020-07-31T00:00:00Z",
"features": [
	{"geometry":{"coordinates":[-2.177873,53.384646],"type":"Point"},"properties":{"name":"Adswood Eco-Centre","osm_id":"28273291","tag":{"amenity":"recycling","recycling_type":"centre"}},"type":"Feature"},
	{"geometry":{"coordinates":[-2.184696,53.427972],"type":"Point"},"properties":{"osm_id":"367882106","tag":{"amenity":"recycling"}},"type":"Feature"},
	{"geometry":{"coordinates":[-2.152632,53.393969],"type":"Point"},"properties":{"osm_id":"448661216","tag":{"amenity":"recycling","description":"Paper, glass & cans"}},"type":"Feature"},
	{"geometry":{"coordinates":[-2.188071,53.399956],"type":"Point"},"properties":{"osm_id":"497161133","tag":{"amenity":"recycling"}},"type":"Feature"},
	{"geometry":{"coordinates":[-2.126131,53.383408],"type":"Point"},"properties":{"osm_id":"1493828263","tag":{"amenity":"waste_basket"}},"type":"Feature"},
	{"geometry":{"coordinates":[-2.17779,53.435201],"type":"Point"},"properties":{"osm_id":"1909728452","tag":{"amenity":"waste_basket"}},"type":"Feature"},
	{"geometry":{"coordinates":[-2.157445,53.4107],"type":"Point"},"properties":{"osm_id":"3742694539","tag":{"amenity":"waste_basket"}},"type":"Feature"},
	{"geometry":{"coordinates":[-2.170182,53.41158],"type":"Point"},"properties":{"osm_id":"4773764811","tag":{"amenity":"recycling","recycling:clothes":"yes","recycling:shoes":"yes","recycling_type":"container"}},"type":"Feature"},
	{"geometry":{"coordinates":[-2.15547,53.432435],"type":"Point"},"properties":{"osm_id":"6512630518","tag":{"amenity":"waste_basket"}},"type":"Feature"},
	{"geometry":{"coordinates":[-2.155656,53.432087],"type":"Point"},"properties":{"osm_id":"6512630519","tag":{"amenity":"waste_basket"}},"type":"Feature"},
	{"geometry":{"coordinates":[-2.155416,53.432599],"type":"Point"},"properties":{"osm_id":"6512635237","tag":{"amenity":"waste_basket"}},"type":"Feature"},
	{"geometry":{"coordinates":[-2.155935,53.432572],"type":"Point"},"properties":{"osm_id":"6512635238","tag":{"amenity":"waste_basket"}},"type":"Feature"},
	{"geometry":{"coordinates":[-2.194507,53.434082],"type":"Point"},"properties":{"osm_id":"6669883920","tag":{"amenity":"waste_basket"}},"type":"Feature"},
	{"geometry":{"coordinates":[-2.194535,53.434066],"type":"Point"},"properties":{"osm_id":"6669883921","tag":{"amenity":"waste_basket","waste":"dog_excrement"}},"type":"Feature"}
]
}
