{
"type": "FeatureCollection",
"features": [
	{"geometry":{"coordinates":[-2.173971,53.052137],"type":"Point"},"properties":{"osm_id":"616129173","tag":{"amenity":"waste_basket"}},"type":"Feature"},
	{"geometry":{"coordinates":[-2.17171,53.054313],"type":"Point"},"properties":{"highway":"bus_stop","osm_id":"676079228","tag":{"amenity":"waste_basket","bench":"no","shelter":"no"}},"type":"Feature"},
	{"geometry":{"coordinates":[-2.165099,53.060261],"type":"Point"},"properties":{"osm_id":"676079326","tag":{"amenity":"waste_basket"}},"type":"Feature"},
	{"geometry":{"coordinates":[-2.174553,53.051129],"type":"Point"},"properties":{"osm_id":"707416177","tag":{"amenity":"waste_basket"}},"type":"Feature"},
	{"geometry":{"coordinates":[-2.175452,53.050614],"type":"Point"},"properties":{"osm_id":"707416179","tag":{"amenity":"waste_basket"}},"type":"Feature"},
	{"geometry":{"coordinates":[-2.175399,53.052459],"type":"Point"},"properties":{"osm_id":"707416186","tag":{"amenity":"waste_basket","waste":"dog_excrement"}},"type":"Feature"},
	{"geometry":{"coordinates":[-2.175882,53.050283],"type":"Point"},"properties":{"osm_id":"707416187","tag":{"amenity":"waste_basket"}},"type":"Feature"},
	{"geometry":{"coordinates":[-2.184119,53.026045],"type":"Point"},"properties":{"osm_id":"2610724337","tag":{"amenity":"recycling"}},"type":"Feature"},
	{"geometry":{"coordinates":[-2.187982,53.049899],"type":"Point"},"properties":{"osm_id":"3034846692","tag":{"amenity":"waste_basket","waste":"trash"}},"type":"Feature"},
	{"geometry":{"coordinates":[-2.186095,53.042237],"type":"Point"},"properties":{"osm_id":"3409353709","tag":{"amenity":"waste_basket"}},"type":"Feature"},
	{"geometry":{"coordinates":[-2.194975,53.044782],"type":"Point"},"properties":{"osm_id":"3409427775","tag":{"amenity":"waste_basket"}},"type":"Feature"},
	{"geometry":{"coordinates":[-2.194534,53.031158],"type":"Point"},"properties":{"osm_id":"4120423551","tag":{"amenity":"waste_basket"}},"type":"Feature"},
	{"geometry":{"coordinates":[-2.194711,53.031189],"type":"Point"},"properties":{"osm_id":"4120423552","tag":{"amenity":"waste_basket"}},"type":"Feature"},
	{"geometry":{"coordinates":[-2.195976,53.031765],"type":"Point"},"properties":{"osm_id":"4120423553","tag":{"amenity":"waste_basket"}},"type":"Feature"},
	{"geometry":{"coordinates":[-2.194158,53.032132],"type":"Point"},"properties":{"osm_id":"4120423554","tag":{"amenity":"waste_basket"}},"type":"Feature"},
	{"geometry":{"coordinates":[-2.194389,53.03301],"type":"Point"},"properties":{"osm_id":"4120423555","tag":{"amenity":"waste_basket"}},"type":"Feature"},
	{"geometry":{"coordinates":[-2.192972,53.019273],"type":"Point"},"properties":{"osm_id":"4299916274","tag":{"access":"watermate_key","amenity":"waste_disposal","operator":"Canal and River Trust","waste":"trash"}},"type":"Feature"},
	{"geometry":{"coordinates":[-2.192629,53.019342],"type":"Point"},"properties":{"osm_id":"4299916277","tag":{"amenity":"waste_disposal","operator":"Canal and River Trust","waste":"excrement","waterway":"pump_out"}},"type":"Feature"},
	{"geometry":{"coordinates":[-2.19273,53.019355],"type":"Point"},"properties":{"osm_id":"4299916278","tag":{"amenity":"waste_disposal","operator":"Canal and River Trust","waste":"chemical_toilet","waterway":"elsan_disposal"}},"type":"Feature"},
	{"geometry":{"coordinates":[-2.173988,53.048455],"type":"Point"},"properties":{"osm_id":"6121391948","tag":{"amenity":"waste_basket"}},"type":"Feature"},
	{"geometry":{"coordinates":[-2.171693,53.048273],"type":"Point"},"properties":{"osm_id":"6121391949","tag":{"amenity":"waste_basket"}},"type":"Feature"},
	{"geometry":{"coordinates":[-2.174989,53.048482],"type":"Point"},"properties":{"osm_id":"6121392962","tag":{"amenity":"waste_basket"}},"type":"Feature"},
	{"geometry":{"coordinates":[-2.180825,53.0492],"type":"Point"},"properties":{"osm_id":"6133335276","tag":{"amenity":"waste_basket","waste":"trash"}},"type":"Feature"},
	{"geometry":{"coordinates":[-2.177587,53.049006],"type":"Point"},"properties":{"osm_id":"6133337188","tag":{"amenity":"waste_basket"}},"type":"Feature"},
	{"geometry":{"coordinates":[-2.179885,53.048668],"type":"Point"},"properties":{"osm_id":"6141012361","tag":{"amenity":"waste_basket","waste":"trash"}},"type":"Feature"},
	{"geometry":{"coordinates":[-2.169141,53.048377],"type":"Point"},"properties":{"osm_id":"6151845631","tag":{"amenity":"waste_basket"}},"type":"Feature"},
	{"geometry":{"coordinates":[-2.186859,53.047958],"type":"Point"},"properties":{"osm_id":"6236858789","tag":{"amenity":"waste_basket","waste":"trash"}},"type":"Feature"},
	{"geometry":{"coordinates":[-2.173648,53.051643],"type":"Point"},"properties":{"osm_id":"6378231234","tag":{"amenity":"waste_basket"}},"type":"Feature"},
	{"geometry":{"coordinates":[-2.173842,53.051527],"type":"Point"},"properties":{"osm_id":"6378232048","tag":{"amenity":"waste_basket"}},"type":"Feature"},
	{"geometry":{"coordinates":[-2.177807,53.049045],"type":"Point"},"properties":{"osm_id":"6378232049","tag":{"amenity":"waste_basket"}},"type":"Feature"},
	{"geometry":{"coordinates":[-2.184759,53.050994],"type":"Point"},"properties":{"osm_id":"6381630565","tag":{"amenity":"waste_basket"}},"type":"Feature"},
	{"geometry":{"coordinates":[-2.181238,53.048502],"type":"Point"},"properties":{"osm_id":"6381630566","tag":{"amenity":"waste_basket","waste":"trash"}},"type":"Feature"},
	{"geometry":{"coordinates":[-2.184365,53.049985],"type":"Point"},"properties":{"osm_id":"6381630820","tag":{"amenity":"waste_basket","waste":"trash"}},"type":"Feature"},
	{"geometry":{"coordinates":[-2.177024,53.048777],"type":"Point"},"properties":{"osm_id":"6486215453","tag":{"amenity":"waste_basket"}},"type":"Feature"},
	{"geometry":{"coordinates":[-2.188869,53.037148],"type":"Point"},"properties":{"osm_id":"6560928690","tag":{"amenity":"waste_basket"}},"type":"Feature"},
	{"geometry":{"coordinates":[-2.162996,53.048188],"type":"Point"},"properties":{"osm_id":"6572081878","tag":{"amenity":"waste_basket"}},"type":"Feature"},
	{"geometry":{"coordinates":[-2.192072,53.0512],"type":"Point"},"properties":{"osm_id":"6574447516","tag":{"amenity":"waste_basket"}},"type":"Feature"},
	{"geometry":{"coordinates":[-2.195703,53.05759],"type":"Point"},"properties":{"osm_id":"6576760258","tag":{"amenity":"waste_basket","waste":"trash"}},"type":"Feature"},
	{"geometry":{"coordinates":[-2.195452,53.057454],"type":"Point"},"properties":{"osm_id":"6576760259","tag":{"amenity":"waste_basket","waste":"trash"}},"type":"Feature"},
	{"geometry":{"coordinates":[-2.194442,53.05649],"type":"Point"},"properties":{"osm_id":"6576760260","tag":{"amenity":"waste_basket","waste":"trash"}},"type":"Feature"},
	{"geometry":{"coordinates":[-2.177778,53.022452],"type":"Point"},"properties":{"osm_id":"6610389581","tag":{"amenity":"waste_basket"}},"type":"Feature"},
	{"geometry":{"coordinates":[-2.177856,53.022427],"type":"Point"},"properties":{"osm_id":"6610417416","tag":{"amenity":"waste_basket"}},"type":"Feature"},
	{"geometry":{"coordinates":[-2.178155,53.022281],"type":"Point"},"properties":{"osm_id":"6610428011","tag":{"amenity":"waste_basket"}},"type":"Feature"},
	{"geometry":{"coordinates":[-2.189231,53.049354],"type":"Point"},"properties":{"osm_id":"6611634549","tag":{"amenity":"waste_basket","recycling:cans":"yes","recycling:glass":"yes","recycling:plastic":"yes","waste":"trash"}},"type":"Feature"},
	{"geometry":{"coordinates":[-2.184179,53.049183],"type":"Point"},"properties":{"osm_id":"6631926332","tag":{"amenity":"waste_basket","waste":"trash"}},"type":"Feature"},
	{"geometry":{"coordinates":[-2.188027,53.050758],"type":"Point"},"properties":{"osm_id":"6635072883","tag":{"amenity":"waste_basket","waste":"trash"}},"type":"Feature"},
	{"geometry":{"coordinates":[-2.193644,53.064209],"type":"Point"},"properties":{"osm_id":"6712069288","tag":{"amenity":"waste_basket"}},"type":"Feature"},
	{"geometry":{"coordinates":[-2.193574,53.064306],"type":"Point"},"properties":{"osm_id":"6712089413","tag":{"amenity":"waste_basket"}},"type":"Feature"},
	{"geometry":{"coordinates":[-2.187792,53.050621],"type":"Point"},"properties":{"osm_id":"6799346175","tag":{"amenity":"waste_basket","waste":"trash"}},"type":"Feature"},
	{"geometry":{"coordinates":[-2.184067,53.049134],"type":"Point"},"properties":{"osm_id":"6799346176","tag":{"amenity":"waste_basket","waste":"trash"}},"type":"Feature"},
	{"geometry":{"coordinates":[-2.171116,53.048326],"type":"Point"},"properties":{"osm_id":"6824926142","tag":{"amenity":"waste_basket","waste":"dog_excrement"}},"type":"Feature"},
	{"geometry":{"coordinates":[-2.186177,53.051394],"type":"Point"},"properties":{"osm_id":"6913607077","tag":{"amenity":"waste_basket","waste":"trash"}},"type":"Feature"},
	{"geometry":{"coordinates":[-2.18599,53.050363],"type":"Point"},"properties":{"osm_id":"6913607078","tag":{"amenity":"waste_basket","waste":"trash"}},"type":"Feature"},
	{"geometry":{"coordinates":[-2.182853,53.049789],"type":"Point"},"properties":{"osm_id":"6913607079","tag":{"amenity":"waste_basket","waste":"trash"}},"type":"Feature"},
	{"geometry":{"coordinates":[-2.187662,53.049176],"type":"Point"},"properties":{"osm_id":"6926539548","tag":{"amenity":"waste_basket","waste":"trash"}},"type":"Feature"},
	{"geometry":{"coordinates":[-2.185668,53.051521],"type":"Point"},"properties":{"osm_id":"6926539553","tag":{"amenity":"waste_basket","waste":"trash"}},"type":"Feature"},
	{"geometry":{"coordinates":[-2.18401,53.050536],"type":"Point"},"properties":{"osm_id":"6926539559","tag":{"amenity":"waste_basket","waste":"trash"}},"type":"Feature"},
	{"geometry":{"coordinates":[-2.19151,53.046724],"type":"Point"},"properties":{"osm_id":"6958825151","tag":{"amenity":"waste_basket"}},"type":"Feature"},
	{"geometry":{"coordinates":[-2.190838,53.046832],"type":"Point"},"properties":{"osm_id":"6958839723","tag":{"amenity":"waste_basket"}},"type":"Feature"},
	{"geometry":{"coordinates":[-2.193021,53.048018],"type":"Point"},"properties":{"osm_id":"6958849787","tag":{"amenity":"waste_basket"}},"type":"Feature"},
	{"geometry":{"coordinates":[-2.189612,53.047842],"type":"Point"},"properties":{"osm_id":"6975077903","tag":{"amenity":"waste_basket"}},"type":"Feature"},
	{"geometry":{"coordinates":[-2.189731,53.049998],"type":"Point"},"properties":{"osm_id":"6989275491","tag":{"amenity":"waste_basket","waste":"trash"}},"type":"Feature"},
	{"geometry":{"coordinates":[-2.19085,53.059651],"type":"Point"},"properties":{"osm_id":"7026969328","tag":{"amenity":"waste_basket"}},"type":"Feature"},
	{"geometry":{"coordinates":[-2.185988,53.053252],"type":"Point"},"properties":{"osm_id":"7037803221","tag":{"amenity":"waste_basket"}},"type":"Feature"},
	{"geometry":{"coordinates":[-2.176748,53.048294],"type":"Point"},"properties":{"osm_id":"7116233964","tag":{"amenity":"waste_basket"}},"type":"Feature"},
	{"geometry":{"coordinates":[-2.176568,53.048142],"type":"Point"},"properties":{"osm_id":"7116250224","tag":{"amenity":"waste_basket"}},"type":"Feature"},
	{"geometry":{"coordinates":[-2.178227,53.048406],"type":"Point"},"properties":{"osm_id":"7116252488","tag":{"amenity":"waste_basket"}},"type":"Feature"},
	{"geometry":{"coordinates":[-2.172041,53.016246],"type":"Point"},"properties":{"osm_id":"7262080146","tag":{"amenity":"waste_basket"}},"type":"Feature"},
	{"geometry":{"coordinates":[-2.188113,53.048512],"type":"Point"},"properties":{"osm_id":"7359770098","tag":{"amenity":"waste_basket","waste":"trash"}},"type":"Feature"},
	{"geometry":{"coordinates":[-2.188094,53.047748],"type":"Point"},"properties":{"osm_id":"7359770101","tag":{"amenity":"waste_basket","waste":"trash"}},"type":"Feature"},
	{"geometry":{"coordinates":[-2.170257,53.055904],"type":"Point"},"properties":{"osm_id":"7492041678","tag":{"amenity":"waste_basket","waste":"trash"}},"type":"Feature"},
	{"geometry":{"coordinates":[-2.189839,53.02044],"type":"Point"},"properties":{"osm_id":"7643084052","tag":{"amenity":"waste_basket"}},"type":"Feature"},
	{"geometry":{"coordinates":[-2.180192,53.051047],"type":"Point"},"properties":{"osm_id":"7770804683","tag":{"amenity":"waste_basket","waste":"dog_excrement"}},"type":"Feature"},
	{"geometry":{"coordinates":[-2.181404,53.054607],"type":"Point"},"properties":{"osm_id":"7770808648","tag":{"amenity":"waste_basket"}},"type":"Feature"},
	{"geometry":{"coordinates":[-2.180677,53.054045],"type":"Point"},"properties":{"osm_id":"7770823885","tag":{"amenity":"waste_basket","waste":"dog_excrement"}},"type":"Feature"}
]
}
