{
"type": "FeatureCollection",
"lastupdate": "2020-08-04T00:00:00Z",
"features": [
	{"geometry":{"coordinates":[-2.137846,51.375719],"type":"Point"},"properties":{"name":"Melksham Waitrose car park","osm_id":"874584138","tag":{"amenity":"recycling","location":"overground","opening_hours":"24/7","recycling:clothes":"yes","recycling:low_energy_bulbs":"yes","recycling:printer_cartridges":"yes","recycling:shoes":"yes","recycling_type":"container"}},"type":"Feature"},
	{"geometry":{"coordinates":[-2.162538,51.391624],"type":"Point"},"properties":{"name":"Shaw Primary School","osm_id":"1882033966","tag":{"amenity":"recycling"}},"type":"Feature"},
	{"geometry":{"coordinates":[-2.13857,51.365385],"type":"Point"},"properties":{"osm_id":"3149666380","tag":{"amenity":"waste_basket"}},"type":"Feature"},
	{"geometry":{"coordinates":[-2.142332,51.369525],"type":"Point"},"properties":{"osm_id":"4840574884","tag":{"amenity":"waste_basket"}},"type":"Feature"},
	{"geometry":{"coordinates":[-2.136784,51.375826],"type":"Point"},"properties":{"osm_id":"4842439751","tag":{"amenity":"waste_basket"}},"type":"Feature"}
]
}
