{
"type": "FeatureCollection",
"features": [
	{"geometry":{"coordinates":[-2.120058,47.673941],"type":"Point"},"properties":{"osm_id":"4701901587","tag":{"amenity":"recycling","recycling:paper":"yes","recycling_type":"container"}},"type":"Feature"},
	{"geometry":{"coordinates":[-2.186758,47.664363],"type":"Point"},"properties":{"name":"Allaire - Moulin de Quip - 6","osm_id":"4823350657","tag":{"amenity":"recycling","operator":"Communaut\u00c3\u00a9 de Communes du Pays de Redon","recycling:glass_bottles":"yes","recycling_type":"container"}},"type":"Feature"},
	{"geometry":{"coordinates":[-2.150522,47.667228],"type":"Point"},"properties":{"name":"Allaire - Le Passoue - 4","osm_id":"4823350659","tag":{"amenity":"recycling","operator":"Communaut\u00c3\u00a9 de Communes du Pays de Redon","recycling:glass_bottles":"yes","recycling_type":"container"}},"type":"Feature"},
	{"geometry":{"coordinates":[-2.151701,47.637882],"type":"Point"},"properties":{"name":"Allaire-Couesl\u00c3\u00a9-Parking des P\u00c3\u00aacheurs","osm_id":"4823350662","tag":{"amenity":"recycling","operator":"Communaut\u00c3\u00a9 de Communes du Pays de Redon","recycling:glass_bottles":"yes","recycling_type":"container"}},"type":"Feature"},
	{"geometry":{"coordinates":[-2.188566,47.67907],"type":"Point"},"properties":{"name":"Saint-Jacut les Pins - La Gare - 3","osm_id":"4823352127","tag":{"amenity":"recycling","operator":"Communaut\u00c3\u00a9 de Communes du Pays de Redon","recycling:glass_bottles":"yes","recycling_type":"container"}},"type":"Feature"},
	{"geometry":{"coordinates":[-2.112617,47.690303],"type":"Point"},"properties":{"name":"Bains sur Oust - Pont Quenot - 7","osm_id":"4823352134","tag":{"amenity":"recycling","operator":"Communaut\u00c3\u00a9 de Communes du Pays de Redon","recycling:glass_bottles":"yes","recycling_type":"container"}},"type":"Feature"},
	{"geometry":{"coordinates":[-2.151622,47.638075],"type":"Point"},"properties":{"name":"Allaire - Couesl\u00c3\u00a9 - Parking des P\u00c3\u00aacheurs - 9","osm_id":"4823352135","tag":{"amenity":"recycling","operator":"Communaut\u00c3\u00a9 de Communes du Pays de Redon","recycling:glass_bottles":"yes","recycling_type":"container"}},"type":"Feature"},
	{"geometry":{"coordinates":[-2.138025,47.683404],"type":"Point"},"properties":{"name":"Saint-Vincent sur Oust - D\u00c3\u00a9cheterie - 4","osm_id":"4823352145","tag":{"amenity":"recycling","operator":"Communaut\u00c3\u00a9 de Communes du Pays de Redon","recycling:glass_bottles":"yes","recycling_type":"container"}},"type":"Feature"},
	{"geometry":{"coordinates":[-2.124347,47.635868],"type":"Point"},"properties":{"name":"Saint-Jean la Poterie - Place de la Mare - 3","osm_id":"4823352147","tag":{"amenity":"recycling","operator":"Communaut\u00c3\u00a9 de Communes du Pays de Redon","recycling:glass_bottles":"yes","recycling_type":"container"}},"type":"Feature"},
	{"geometry":{"coordinates":[-2.166399,47.643264],"type":"Point"},"properties":{"name":"Allaire - Les Perri\u00c3\u00a8res - 3","osm_id":"4823352158","tag":{"amenity":"recycling","operator":"Communaut\u00c3\u00a9 de Communes du Pays de Redon","recycling:glass_bottles":"yes","recycling_type":"container"}},"type":"Feature"},
	{"geometry":{"coordinates":[-2.122738,47.640768],"type":"Point"},"properties":{"name":"Saint-Jean la Poterie - Gaffre","osm_id":"4823352164","tag":{"amenity":"recycling","operator":"Communaut\u00c3\u00a9 de Communes du Pays de Redon","recycling:glass_bottles":"yes","recycling_type":"container"}},"type":"Feature"},
	{"geometry":{"coordinates":[-2.120025,47.67404],"type":"Point"},"properties":{"name":"Saint-Perreux - Le Val - 2","osm_id":"4823352173","tag":{"amenity":"recycling","operator":"Communaut\u00c3\u00a9 de Communes du Pays de Redon","recycling:glass_bottles":"yes","recycling_type":"container"}},"type":"Feature"},
	{"geometry":{"coordinates":[-2.190058,47.640089],"type":"Point"},"properties":{"name":"Allaire - Le Gros Ch\u00c3\u00aane - 5","osm_id":"4823352175","tag":{"amenity":"recycling","operator":"Communaut\u00c3\u00a9 de Communes du Pays de Redon","recycling:glass_bottles":"yes","recycling_type":"container"}},"type":"Feature"},
	{"geometry":{"coordinates":[-2.121787,47.684975],"type":"Point"},"properties":{"osm_id":"5571621544","tag":{"amenity":"waste_basket"}},"type":"Feature"},
	{"geometry":{"coordinates":[-2.153558,47.638019],"type":"Point"},"properties":{"osm_id":"6218508499","tag":{"amenity":"waste_basket"}},"type":"Feature"},
	{"geometry":{"coordinates":[-2.153245,47.639212],"type":"Point"},"properties":{"osm_id":"6218508522","tag":{"amenity":"waste_basket"}},"type":"Feature"},
	{"geometry":{"coordinates":[-2.15379,47.639167],"type":"Point"},"properties":{"osm_id":"6218508523","tag":{"amenity":"waste_basket"}},"type":"Feature"},
	{"geometry":{"coordinates":[-2.153033,47.63921],"type":"Point"},"properties":{"osm_id":"6218508524","tag":{"amenity":"waste_basket"}},"type":"Feature"},
	{"geometry":{"coordinates":[-2.152868,47.639344],"type":"Point"},"properties":{"osm_id":"6218508525","tag":{"amenity":"waste_basket"}},"type":"Feature"},
	{"geometry":{"coordinates":[-2.149206,47.656823],"type":"Point"},"properties":{"osm_id":"6272298631","tag":{"amenity":"waste_basket"}},"type":"Feature"},
	{"geometry":{"coordinates":[-2.149727,47.656578],"type":"Point"},"properties":{"osm_id":"6272298637","tag":{"amenity":"waste_basket"}},"type":"Feature"}
]
}
