{
"type": "FeatureCollection",
"features": [
	{"geometry":{"coordinates":[-2.157674,47.598792],"type":"Point"},"properties":{"name":"Rieux - Tr\u00c3\u00a9fin - Le Clos Bideau 3","osm_id":"4823350655","tag":{"amenity":"recycling","operator":"Communaut\u00c3\u00a9 de Communes du Pays de Redon","recycling:glass_bottles":"yes","recycling_type":"container"}},"type":"Feature"},
	{"geometry":{"coordinates":[-2.183298,47.606969],"type":"Point"},"properties":{"name":"Allaire - Bocquereux - 7","osm_id":"4823352122","tag":{"amenity":"recycling","operator":"Communaut\u00c3\u00a9 de Communes du Pays de Redon","recycling:glass_bottles":"yes","recycling_type":"container"}},"type":"Feature"},
	{"geometry":{"coordinates":[-2.120906,47.632418],"type":"Point"},"properties":{"name":"Saint-Jean la Poterie - Centre Social - 2","osm_id":"4823352146","tag":{"amenity":"recycling","operator":"Communaut\u00c3\u00a9 de Communes du Pays de Redon","recycling:glass_bottles":"yes","recycling_type":"container"}},"type":"Feature"},
	{"geometry":{"coordinates":[-2.139517,47.598211],"type":"Point"},"properties":{"name":"Rieux - Ganais - 4","osm_id":"4823352155","tag":{"amenity":"recycling","operator":"Communaut\u00c3\u00a9 de Communes du Pays de Redon","recycling:glass_bottles":"yes","recycling_type":"container"}},"type":"Feature"},
	{"geometry":{"coordinates":[-2.162312,47.633738],"type":"Point"},"properties":{"name":"Allaire - Ateliers Municipaux - 8","osm_id":"4823352183","tag":{"amenity":"recycling","operator":"Communaut\u00c3\u00a9 de Communes du Pays de Redon","recycling:glass_bottles":"yes","recycling_type":"container"}},"type":"Feature"},
	{"geometry":{"coordinates":[-2.169186,47.633486],"type":"Point"},"properties":{"osm_id":"6039668595","tag":{"amenity":"waste_basket"}},"type":"Feature"},
	{"geometry":{"coordinates":[-2.121049,47.632733],"type":"Point"},"properties":{"osm_id":"6310464821","tag":{"amenity":"waste_basket"}},"type":"Feature"},
	{"geometry":{"coordinates":[-2.164291,47.626047],"type":"Point"},"properties":{"osm_id":"7545573345","tag":{"amenity":"recycling","recycling_type":"container"}},"type":"Feature"},
	{"geometry":{"coordinates":[-2.164334,47.626044],"type":"Point"},"properties":{"osm_id":"7545573346","tag":{"amenity":"recycling","recycling_type":"container"}},"type":"Feature"},
	{"geometry":{"coordinates":[-2.167977,47.634826],"type":"Point"},"properties":{"osm_id":"7688576089","tag":{"amenity":"recycling","opening_hours":"24/7","operator":"Le Relais France","recycling:clothes":"yes","recycling:leather_goods":"yes","recycling:linen":"yes","recycling:shoes":"yes","recycling_type":"container","website":"https://www.lerelais.org/"}},"type":"Feature"},
	{"geometry":{"coordinates":[-2.167982,47.634816],"type":"Point"},"properties":{"osm_id":"7692143385","tag":{"amenity":"recycling","opening_hours":"24/7","operator":"Le Relais France","recycling:clothes":"yes","recycling:leather_goods":"yes","recycling:linen":"yes","recycling:shoes":"yes","recycling_type":"container","website":"https://www.lerelais.org/"}},"type":"Feature"},
	{"geometry":{"coordinates":[-2.129442,47.581304],"type":"Point"},"properties":{"osm_id":"7867416259","tag":{"amenity":"recycling","recycling_type":"container"}},"type":"Feature"}
]
}
