{
"type": "FeatureCollection",
"features": [
	{"geometry":{"coordinates":[-2.193483,47.300365],"type":"Point"},"properties":{"osm_id":"4975846435","tag":{"amenity":"waste_basket"}},"type":"Feature"},
	{"geometry":{"coordinates":[-2.193154,47.300628],"type":"Point"},"properties":{"osm_id":"5212602204","tag":{"amenity":"recycling","recycling_type":"container"}},"type":"Feature"},
	{"geometry":{"coordinates":[-2.186451,47.309761],"type":"Point"},"properties":{"name":"Emma\u00c3\u00bcs Saint-Nazaire","osm_id":"6653984385","tag":{"amenity":"recycling","charity":"yes","collection_times":"Tu-Sa 08:30-11:30,14:00-16:30","contact:city":"Trignac","contact:housenumber":"43 bis","contact:postcode":"44570","contact:street":"rue Jean Baptiste Marcet","contact:website":"http://www.emmaus44.fr/saintnazaire/","image":"http://www.emmaus44.fr/saintnazaire/wp-content/uploads/emmaus44_Trignac_salle-des-ventes.jpg","opening_hours":"We,Sa 09:30-12:00,14:00-17:30","operator":"Association Emma\u00c3\u00bcs 44","recycling:books":"yes","recycling:clothes":"yes","recycling:computers":"yes","recycling:dishes":"yes","recycling:furniture":"yes","recycling:interior_decoration":"yes","recycling:shoes":"yes","recycling:small_electrical_appliances":"yes","recycling:toys":"yes","recycling_type":"centre","second_hand":"only","shop":"general"}},"type":"Feature"},
	{"geometry":{"coordinates":[-2.16363,47.317647],"type":"Point"},"properties":{"osm_id":"7038146729","tag":{"amenity":"waste_basket","waste":"trash"}},"type":"Feature"},
	{"geometry":{"coordinates":[-2.161793,47.321201],"type":"Point"},"properties":{"osm_id":"7038146736","tag":{"amenity":"recycling","recycling:glass":"yes","recycling_type":"container"}},"type":"Feature"},
	{"geometry":{"coordinates":[-2.156189,47.326776],"type":"Point"},"properties":{"osm_id":"7040241072","tag":{"amenity":"recycling","recycling:glass":"yes","recycling_type":"container"}},"type":"Feature"},
	{"geometry":{"coordinates":[-2.193271,47.300607],"type":"Point"},"properties":{"osm_id":"7692774737","tag":{"amenity":"waste_basket"}},"type":"Feature"},
	{"geometry":{"coordinates":[-2.191034,47.295929],"type":"Point"},"properties":{"osm_id":"7692774749","tag":{"amenity":"waste_basket"}},"type":"Feature"},
	{"geometry":{"coordinates":[-2.195492,47.300448],"type":"Point"},"properties":{"osm_id":"7693031337","tag":{"amenity":"recycling","recycling_type":"container"}},"type":"Feature"},
	{"geometry":{"coordinates":[-2.145569,47.326283],"type":"Point"},"properties":{"osm_id":"7737798517","tag":{"amenity":"waste_basket"}},"type":"Feature"},
	{"geometry":{"coordinates":[-2.152933,47.330411],"type":"Point"},"properties":{"osm_id":"7741502433","tag":{"amenity":"waste_basket"}},"type":"Feature"},
	{"geometry":{"coordinates":[-2.145851,47.330041],"type":"Point"},"properties":{"osm_id":"7741502460","tag":{"amenity":"recycling","recycling_type":"container"}},"type":"Feature"},
	{"geometry":{"coordinates":[-2.146378,47.330609],"type":"Point"},"properties":{"osm_id":"7741502481","tag":{"amenity":"recycling","recycling_type":"container"}},"type":"Feature"}
]
}
