{
"type": "FeatureCollection",
"lastupdate": "2020-08-06T00:00:00Z",
"features": [
	{"geometry":{"coordinates":[-2.16514,47.264143],"type":"Point"},"properties":{"osm_id":"36267009","tag":{"amenity":"recycling","recycling:glass_bottles":"yes"}},"type":"Feature"},
	{"geometry":{"coordinates":[-2.174624,47.227561],"type":"Point"},"properties":{"osm_id":"4189265090","tag":{"amenity":"waste_basket"}},"type":"Feature"},
	{"geometry":{"coordinates":[-2.174808,47.227716],"type":"Point"},"properties":{"osm_id":"4189271289","tag":{"amenity":"waste_basket"}},"type":"Feature"},
	{"geometry":{"coordinates":[-2.16344,47.245127],"type":"Point"},"properties":{"osm_id":"4690910981","tag":{"amenity":"waste_basket"}},"type":"Feature"},
	{"geometry":{"coordinates":[-2.170518,47.23921],"type":"Point"},"properties":{"osm_id":"4715516618","tag":{"amenity":"recycling","recycling:glass_bottles":"yes","recycling_type":"container"}},"type":"Feature"},
	{"geometry":{"coordinates":[-2.175932,47.228916],"type":"Point"},"properties":{"osm_id":"4715516792","tag":{"amenity":"recycling","recycling:glass_bottles":"yes","recycling_type":"container"}},"type":"Feature"},
	{"geometry":{"coordinates":[-2.162719,47.268045],"type":"Point"},"properties":{"osm_id":"5219564725","tag":{"amenity":"waste_basket"}},"type":"Feature"},
	{"geometry":{"coordinates":[-2.16305,47.267549],"type":"Point"},"properties":{"osm_id":"5219595722","tag":{"amenity":"waste_basket"}},"type":"Feature"},
	{"geometry":{"coordinates":[-2.162958,47.2678],"type":"Point"},"properties":{"osm_id":"5219597421","tag":{"amenity":"waste_basket"}},"type":"Feature"},
	{"geometry":{"coordinates":[-2.15181,47.244112],"type":"Point"},"properties":{"name":"D\u00c3\u00a9ch\u00c3\u00a8terie de Saint-Brevin-les-Pins","osm_id":"5232900863","tag":{"addr:city":"Saint-Br\u00e9vin-les-Pins","addr:country":"FR","addr:housenumber":"D\u00e9ch\u00e8terie de Saint-Brevin-les-Pins","addr:postcode":"44250","addr:street":"Route de la Gendarmerie","amenity":"recycling","email":"environnement@cc-sudestuaire.fr","opening_hours":"Mo-Fr 09:00-12:00, 14:00-18:0; Sa 09:00-18:00; Jan 01 off; May 01 off; Dec 25 off","operator":"Communaut\u00e9 de Communes du Sud-Estuaire","phone":"+33240277515","recycling:batteries":"yes","recycling:cans":"yes","recycling:cardboard":"yes","recycling:clothes":"yes","recycling:electrical_appliances":"yes","recycling:glass":"yes","recycling:glass_bottles":"yes","recycling:green_waste":"yes","recycling:paper":"yes","recycling:plastic":"yes","recycling:plastic_bottles":"yes","recycling:plastic_packaging":"yes","recycling:scrap_metal":"yes","recycling:shoes":"yes","recycling:small_appliances":"yes","recycling:waste":"yes","recycling_type":"centre","website":"http://www.cc-sudestuaire.fr/les-decheteries/","wheelchair":"no"}},"type":"Feature"},
	{"geometry":{"coordinates":[-2.166533,47.247186],"type":"Point"},"properties":{"osm_id":"5878472195","tag":{"amenity":"waste_basket"}},"type":"Feature"},
	{"geometry":{"coordinates":[-2.153947,47.240449],"type":"Point"},"properties":{"name":"Atelier du Retz Emploi (Saint-Br\u00c3\u00a9vin)","osm_id":"6580379185","tag":{"amenity":"recycling","charity":"yes","contact:city":"Saint-Br\u00e9vin-Les-Pains","contact:email":"saintbrevin@atelierduretzemploi.org","contact:phone":"+33 2 40 27 69 05","contact:postcode":"44250","contact:street":"Chemin des potences, PA de la Guerche","contact:website":"http://www.atelierduretzemploi.org","description":"Collecte, revente \u00e0 petit prix de ce qui est r\u00e9cup\u00e9rable, tri en vue de recyclage : vaisselle, jouets, livres, disques, \u00e9lectrom\u00e9nager en \u00e9tat. Permanences sur D\u00e9ch\u00e8terie de Saint-Brevin-les-Pins (Route de la gendarmerie)","image":"https://mvistatic.com/photosmvi/2019/02/14/P19330218D3648533G.jpg","opening_hours":"We,Sa 10:00-18:00;Fr 10:00-15:00","operator":"Association Atelier du Retz Emploi","recycling:bicycles":"yes","recycling:books":"yes","recycling:clothes":"yes","recycling:computers":"yes","recycling:dishes":"yes","recycling:furniture":"yes","recycling:interior_decoration":"yes","recycling:shoes":"yes","recycling:small_electrical_appliances":"yes","recycling:toys":"yes","recycling_type":"centre","second_hand":"only","shop":"general","vending":"v\u00e9lo;mobilier;textile;vaisselle;jouet;pu\u00e9riculture;livre;CD;DVD;outillage;mat\u00e9riel \u00e9lectrique"}},"type":"Feature"},
	{"geometry":{"coordinates":[-2.174572,47.229366],"type":"Point"},"properties":{"osm_id":"6652798388","tag":{"amenity":"waste_basket"}},"type":"Feature"},
	{"geometry":{"coordinates":[-2.170091,47.257393],"type":"Point"},"properties":{"osm_id":"6926848398","tag":{"amenity":"waste_basket"}},"type":"Feature"},
	{"geometry":{"coordinates":[-2.169798,47.254042],"type":"Point"},"properties":{"osm_id":"6926858458","tag":{"amenity":"waste_basket"}},"type":"Feature"},
	{"geometry":{"coordinates":[-2.167181,47.268356],"type":"Point"},"properties":{"osm_id":"7238683639","tag":{"amenity":"waste_basket"}},"type":"Feature"}
]
}
