{
"type": "FeatureCollection",
"features": [
	{"geometry":{"coordinates":[-51.40008,-22.130133],"type":"Point"},"properties":{"osm_id":"2031617589","tag":{"amenity":"recycling"}},"type":"Feature"},
	{"geometry":{"coordinates":[-51.408754,-22.116337],"type":"Point"},"properties":{"osm_id":"2338252039","tag":{"amenity":"recycling","recycling:beverage_cartons":"yes","recycling:cans":"yes","recycling:cartons":"yes","recycling:glass_bottles":"yes","recycling:paper":"yes","recycling:plastic_bottles":"yes","recycling_type":"container"}},"type":"Feature"},
	{"geometry":{"coordinates":[-51.410069,-22.129773],"type":"Point"},"properties":{"osm_id":"2616177305","tag":{"amenity":"recycling"}},"type":"Feature"},
	{"geometry":{"coordinates":[-51.409968,-22.129794],"type":"Point"},"properties":{"osm_id":"2616177306","tag":{"amenity":"recycling"}},"type":"Feature"},
	{"geometry":{"coordinates":[-51.414599,-22.120134],"type":"Point"},"properties":{"osm_id":"2626220629","tag":{"amenity":"recycling","recycling:cans":"yes","recycling:glass":"yes","recycling:paper":"yes","recycling:scrap_metal":"no"}},"type":"Feature"},
	{"geometry":{"coordinates":[-51.413749,-22.12051],"type":"Point"},"properties":{"osm_id":"2626220665","tag":{"amenity":"recycling","recycling:cans":"yes","recycling:glass":"yes","recycling:paper":"yes","recycling:scrap_metal":"no"}},"type":"Feature"},
	{"geometry":{"coordinates":[-51.413657,-22.120744],"type":"Point"},"properties":{"osm_id":"2626220689","tag":{"amenity":"waste_basket"}},"type":"Feature"},
	{"geometry":{"coordinates":[-51.379336,-22.12026],"type":"Point"},"properties":{"osm_id":"3577138390","tag":{"amenity":"recycling","recycling_type":"container"}},"type":"Feature"},
	{"geometry":{"coordinates":[-51.380008,-22.120736],"type":"Point"},"properties":{"osm_id":"3577138521","tag":{"amenity":"waste_basket"}},"type":"Feature"},
	{"geometry":{"coordinates":[-51.380059,-22.120801],"type":"Point"},"properties":{"osm_id":"3577138535","tag":{"amenity":"waste_basket"}},"type":"Feature"},
	{"geometry":{"coordinates":[-51.380108,-22.120864],"type":"Point"},"properties":{"osm_id":"3577138546","tag":{"amenity":"waste_basket"}},"type":"Feature"},
	{"geometry":{"coordinates":[-51.379504,-22.120891],"type":"Point"},"properties":{"osm_id":"3577138553","tag":{"amenity":"waste_basket"}},"type":"Feature"},
	{"geometry":{"coordinates":[-51.379607,-22.120916],"type":"Point"},"properties":{"osm_id":"3577138559","tag":{"amenity":"waste_basket"}},"type":"Feature"},
	{"geometry":{"coordinates":[-51.38016,-22.120932],"type":"Point"},"properties":{"osm_id":"3577138562","tag":{"amenity":"waste_basket"}},"type":"Feature"},
	{"geometry":{"coordinates":[-51.379698,-22.120945],"type":"Point"},"properties":{"osm_id":"3577138563","tag":{"amenity":"recycling","recycling_type":"container"}},"type":"Feature"},
	{"geometry":{"coordinates":[-51.4126,-22.115274],"type":"Point"},"properties":{"name":"Esta\u00c3\u00a7\u00c3\u00a3o de Reciclagem","osm_id":"3884558215","tag":{"amenity":"recycling","covered":"yes","level":"0","recycling_type":"container"}},"type":"Feature"}
]
}
