{
"type": "FeatureCollection",
"features": [
	{"geometry":{"coordinates":[-51.34132,-30.075561],"type":"Point"},"properties":{"osm_id":"1304286578","tag":{"amenity":"waste_basket"}},"type":"Feature"},
	{"geometry":{"coordinates":[-51.343517,-30.101331],"type":"Point"},"properties":{"osm_id":"1304286587","tag":{"amenity":"waste_basket"}},"type":"Feature"},
	{"geometry":{"coordinates":[-51.35336,-30.131301],"type":"Point"},"properties":{"osm_id":"1304286658","tag":{"amenity":"waste_basket"}},"type":"Feature"},
	{"geometry":{"coordinates":[-51.343629,-30.102793],"type":"Point"},"properties":{"osm_id":"1304286730","tag":{"amenity":"waste_basket"}},"type":"Feature"},
	{"geometry":{"coordinates":[-51.342851,-30.093897],"type":"Point"},"properties":{"osm_id":"1304286792","tag":{"amenity":"waste_basket"}},"type":"Feature"},
	{"geometry":{"coordinates":[-51.343049,-30.117164],"type":"Point"},"properties":{"name":"Coleta Seletiva Nacional","osm_id":"2207437898","tag":{"amenity":"recycling"}},"type":"Feature"}
]
}
