{
"type": "FeatureCollection",
"features": [
	{"geometry":{"coordinates":[5.991207,52.885392],"type":"Point"},"properties":{"name":"Afvalbrengstation Weststellingwerf","osm_id":"4143100789","tag":{"amenity":"recycling","recycling_type":"centre"}},"type":"Feature"},
	{"geometry":{"coordinates":[6.005268,52.879579],"type":"Point"},"properties":{"osm_id":"5480726845","tag":{"amenity":"waste_basket"}},"type":"Feature"},
	{"geometry":{"coordinates":[6.004857,52.88016],"type":"Point"},"properties":{"osm_id":"5480726852","tag":{"amenity":"waste_basket"}},"type":"Feature"},
	{"geometry":{"coordinates":[6.004531,52.880427],"type":"Point"},"properties":{"osm_id":"5480726854","tag":{"amenity":"waste_basket"}},"type":"Feature"},
	{"geometry":{"coordinates":[6.004437,52.880506],"type":"Point"},"properties":{"osm_id":"5480726855","tag":{"amenity":"waste_basket"}},"type":"Feature"},
	{"geometry":{"coordinates":[6.004041,52.880838],"type":"Point"},"properties":{"osm_id":"5480726857","tag":{"amenity":"waste_basket"}},"type":"Feature"},
	{"geometry":{"coordinates":[6.004195,52.880189],"type":"Point"},"properties":{"osm_id":"5480726861","tag":{"amenity":"waste_basket"}},"type":"Feature"},
	{"geometry":{"coordinates":[6.025358,52.864187],"type":"Point"},"properties":{"osm_id":"6544424375","tag":{"amenity":"waste_basket"}},"type":"Feature"},
	{"geometry":{"coordinates":[6.022811,52.871872],"type":"Point"},"properties":{"osm_id":"6544424377","tag":{"amenity":"waste_basket"}},"type":"Feature"}
]
}
