{
"type": "FeatureCollection",
"features": [
	{"geometry":{"coordinates":[5.984971,52.181585],"type":"Point"},"properties":{"name":"Milieupark Circulus","osm_id":"464737032","tag":{"amenity":"recycling","name:en":"Recycleplein Circulus-Berkel","name:nl":"Recycleplein Circulus-Berkel","operator":"Circulus","phone":"+31 0900 9552","recycling_type":"centre","website":"https://www.circulus-berkel.nl"}},"type":"Feature"},
	{"geometry":{"coordinates":[5.978089,52.191606],"type":"Point"},"properties":{"osm_id":"692718567","tag":{"amenity":"recycling","recycling_type":"container"}},"type":"Feature"},
	{"geometry":{"coordinates":[5.98407,52.211781],"type":"Point"},"properties":{"osm_id":"892900196","tag":{"amenity":"recycling","recycling:drinking_cartons":"yes","recycling:glass":"yes","recycling:paper":"yes","recycling:plastic":"yes","recycling_type":"container"}},"type":"Feature"},
	{"geometry":{"coordinates":[5.98528,52.199708],"type":"Point"},"properties":{"osm_id":"1181572988","tag":{"amenity":"recycling","recycling:cans":"yes","recycling:glass_bottles":"yes","recycling:paper":"yes","recycling:plastic":"yes","recycling:plastic_bottles":"yes","recycling:plastic_packaging":"yes","recycling_type":"container"}},"type":"Feature"},
	{"geometry":{"coordinates":[5.988986,52.20398],"type":"Point"},"properties":{"osm_id":"2409070283","tag":{"amenity":"waste_basket"}},"type":"Feature"},
	{"geometry":{"coordinates":[5.991159,52.202561],"type":"Point"},"properties":{"osm_id":"2409076271","tag":{"amenity":"waste_basket"}},"type":"Feature"},
	{"geometry":{"coordinates":[6.030864,52.213161],"type":"Point"},"properties":{"osm_id":"3616989314","tag":{"amenity":"waste_basket"}},"type":"Feature"},
	{"geometry":{"coordinates":[6.002041,52.191672],"type":"Point"},"properties":{"osm_id":"3667615810","tag":{"amenity":"waste_basket"}},"type":"Feature"},
	{"geometry":{"coordinates":[5.996551,52.196992],"type":"Point"},"properties":{"osm_id":"3667615843","tag":{"amenity":"waste_basket","colour":"darkblue"}},"type":"Feature"},
	{"geometry":{"coordinates":[5.979312,52.204605],"type":"Point"},"properties":{"osm_id":"4014895607","tag":{"amenity":"waste_basket"}},"type":"Feature"},
	{"geometry":{"coordinates":[5.979381,52.204675],"type":"Point"},"properties":{"osm_id":"4014895609","tag":{"amenity":"waste_basket"}},"type":"Feature"},
	{"geometry":{"coordinates":[6.003524,52.214298],"type":"Point"},"properties":{"osm_id":"4260787767","tag":{"amenity":"waste_basket"}},"type":"Feature"},
	{"geometry":{"coordinates":[6.025647,52.212504],"type":"Point"},"properties":{"osm_id":"4796431658","tag":{"amenity":"waste_basket"}},"type":"Feature"},
	{"geometry":{"coordinates":[6.006672,52.195045],"type":"Point"},"properties":{"osm_id":"4960071157","tag":{"amenity":"recycling","recycling:cans":"yes","recycling:glass":"yes","recycling_type":"centre"}},"type":"Feature"},
	{"geometry":{"coordinates":[6.031822,52.187771],"type":"Point"},"properties":{"osm_id":"4960523676","tag":{"amenity":"recycling","recycling:glass":"yes","recycling_type":"container"}},"type":"Feature"},
	{"geometry":{"coordinates":[6.005801,52.195599],"type":"Point"},"properties":{"osm_id":"4964331321","tag":{"amenity":"waste_basket"}},"type":"Feature"},
	{"geometry":{"coordinates":[6.007792,52.195671],"type":"Point"},"properties":{"osm_id":"4964331324","tag":{"amenity":"waste_basket"}},"type":"Feature"},
	{"geometry":{"coordinates":[6.014044,52.197749],"type":"Point"},"properties":{"osm_id":"4966554749","tag":{"amenity":"waste_basket"}},"type":"Feature"},
	{"geometry":{"coordinates":[6.004282,52.193875],"type":"Point"},"properties":{"osm_id":"4968607924","tag":{"amenity":"recycling","recycling:clothes":"yes","recycling_type":"container"}},"type":"Feature"},
	{"geometry":{"coordinates":[6.005794,52.195288],"type":"Point"},"properties":{"osm_id":"4972227683","tag":{"amenity":"waste_basket"}},"type":"Feature"},
	{"geometry":{"coordinates":[6.010176,52.194647],"type":"Point"},"properties":{"osm_id":"4973422860","tag":{"amenity":"waste_basket"}},"type":"Feature"},
	{"geometry":{"coordinates":[6.012808,52.18978],"type":"Point"},"properties":{"osm_id":"4973462929","tag":{"amenity":"waste_basket"}},"type":"Feature"},
	{"geometry":{"coordinates":[6.011937,52.189608],"type":"Point"},"properties":{"osm_id":"4973462931","tag":{"amenity":"waste_basket"}},"type":"Feature"},
	{"geometry":{"coordinates":[6.00791,52.194187],"type":"Point"},"properties":{"osm_id":"4977127630","tag":{"amenity":"waste_basket"}},"type":"Feature"},
	{"geometry":{"coordinates":[6.003392,52.198498],"type":"Point"},"properties":{"osm_id":"4977592781","tag":{"amenity":"waste_basket"}},"type":"Feature"},
	{"geometry":{"coordinates":[6.006601,52.195677],"type":"Point"},"properties":{"osm_id":"4982313372","tag":{"amenity":"waste_basket"}},"type":"Feature"},
	{"geometry":{"coordinates":[6.006403,52.196412],"type":"Point"},"properties":{"osm_id":"4984824032","tag":{"amenity":"waste_basket"}},"type":"Feature"},
	{"geometry":{"coordinates":[6.006953,52.195994],"type":"Point"},"properties":{"osm_id":"4984824033","tag":{"amenity":"waste_basket"}},"type":"Feature"},
	{"geometry":{"coordinates":[6.006572,52.195018],"type":"Point"},"properties":{"osm_id":"4984824037","tag":{"amenity":"waste_basket"}},"type":"Feature"},
	{"geometry":{"coordinates":[6.01395,52.194205],"type":"Point"},"properties":{"osm_id":"4989705139","tag":{"amenity":"waste_basket"}},"type":"Feature"},
	{"geometry":{"coordinates":[6.017651,52.193695],"type":"Point"},"properties":{"osm_id":"4991932757","tag":{"amenity":"waste_basket"}},"type":"Feature"},
	{"geometry":{"coordinates":[6.006111,52.190807],"type":"Point"},"properties":{"osm_id":"4996696497","tag":{"amenity":"waste_basket"}},"type":"Feature"},
	{"geometry":{"coordinates":[6.000914,52.193668],"type":"Point"},"properties":{"osm_id":"4996696512","tag":{"amenity":"waste_basket"}},"type":"Feature"},
	{"geometry":{"coordinates":[6.000503,52.19447],"type":"Point"},"properties":{"osm_id":"4996696513","tag":{"amenity":"waste_basket"}},"type":"Feature"},
	{"geometry":{"coordinates":[6.001624,52.202359],"type":"Point"},"properties":{"osm_id":"4999941686","tag":{"amenity":"waste_basket"}},"type":"Feature"},
	{"geometry":{"coordinates":[5.984459,52.204843],"type":"Point"},"properties":{"osm_id":"5001751169","tag":{"amenity":"recycling","recycling:clothes":"yes","recycling_type":"container"}},"type":"Feature"},
	{"geometry":{"coordinates":[6.005008,52.194907],"type":"Point"},"properties":{"osm_id":"5030474265","tag":{"amenity":"waste_basket"}},"type":"Feature"},
	{"geometry":{"coordinates":[6.004139,52.195448],"type":"Point"},"properties":{"osm_id":"5036438964","tag":{"amenity":"waste_basket"}},"type":"Feature"},
	{"geometry":{"coordinates":[6.002575,52.195054],"type":"Point"},"properties":{"osm_id":"5036853515","tag":{"amenity":"waste_basket"}},"type":"Feature"},
	{"geometry":{"coordinates":[6.000599,52.20521],"type":"Point"},"properties":{"osm_id":"5538508627","tag":{"amenity":"waste_basket"}},"type":"Feature"},
	{"geometry":{"coordinates":[6.000767,52.205154],"type":"Point"},"properties":{"osm_id":"5538508628","tag":{"amenity":"waste_basket"}},"type":"Feature"},
	{"geometry":{"coordinates":[6.000505,52.205233],"type":"Point"},"properties":{"osm_id":"5538508629","tag":{"amenity":"waste_basket"}},"type":"Feature"},
	{"geometry":{"coordinates":[6.001018,52.205059],"type":"Point"},"properties":{"osm_id":"5538508631","tag":{"amenity":"waste_basket"}},"type":"Feature"},
	{"geometry":{"coordinates":[6.001457,52.204909],"type":"Point"},"properties":{"osm_id":"5538508634","tag":{"amenity":"waste_basket"}},"type":"Feature"},
	{"geometry":{"coordinates":[6.052317,52.196898],"type":"Point"},"properties":{"osm_id":"5867719216","tag":{"amenity":"waste_basket"}},"type":"Feature"},
	{"geometry":{"coordinates":[6.006048,52.195856],"type":"Point"},"properties":{"osm_id":"6214276939","tag":{"amenity":"recycling","location":"indoor","operator":"Albert Heijn","recycling:batteries":"yes","recycling:low_energy_bulbs":"yes","recycling:printer_cartridges":"yes","recycling:small_electrical_appliances":"yes","recycling_type":"container","wheelchair":"yes"}},"type":"Feature"},
	{"geometry":{"coordinates":[6.005372,52.195153],"type":"Point"},"properties":{"osm_id":"6223451106","tag":{"amenity":"recycling","location":"indoor","operator":"Dekamarkt","recycling:batteries":"yes","recycling:cans":"yes","recycling:deep-frying_fat":"yes","recycling:low_energy_bulbs":"yes","recycling_type":"container","wheelchair":"yes"}},"type":"Feature"},
	{"geometry":{"coordinates":[6.025872,52.166683],"type":"Point"},"properties":{"osm_id":"6306708489","tag":{"amenity":"waste_basket","waste":"trash"}},"type":"Feature"},
	{"geometry":{"coordinates":[6.028036,52.16902],"type":"Point"},"properties":{"osm_id":"6306708490","tag":{"amenity":"waste_basket","waste":"trash"}},"type":"Feature"},
	{"geometry":{"coordinates":[6.027755,52.16781],"type":"Point"},"properties":{"osm_id":"6306708493","tag":{"amenity":"waste_basket","waste":"trash"}},"type":"Feature"},
	{"geometry":{"coordinates":[6.027929,52.168461],"type":"Point"},"properties":{"osm_id":"6306708494","tag":{"amenity":"waste_basket","waste":"trash"}},"type":"Feature"},
	{"geometry":{"coordinates":[6.028091,52.169565],"type":"Point"},"properties":{"osm_id":"6306708495","tag":{"amenity":"waste_basket","waste":"trash"}},"type":"Feature"},
	{"geometry":{"coordinates":[6.028219,52.171257],"type":"Point"},"properties":{"osm_id":"6306708496","tag":{"amenity":"waste_basket","waste":"trash"}},"type":"Feature"},
	{"geometry":{"coordinates":[6.028513,52.170837],"type":"Point"},"properties":{"osm_id":"6306708501","tag":{"amenity":"waste_basket","waste":"trash"}},"type":"Feature"},
	{"geometry":{"coordinates":[6.028569,52.17116],"type":"Point"},"properties":{"osm_id":"6306708502","tag":{"amenity":"waste_basket","waste":"trash"}},"type":"Feature"},
	{"geometry":{"coordinates":[6.02837,52.170529],"type":"Point"},"properties":{"osm_id":"6306708503","tag":{"amenity":"waste_basket","waste":"trash"}},"type":"Feature"},
	{"geometry":{"coordinates":[6.028292,52.170046],"type":"Point"},"properties":{"osm_id":"6306708505","tag":{"amenity":"waste_basket","waste":"trash"}},"type":"Feature"},
	{"geometry":{"coordinates":[6.016366,52.207659],"type":"Point"},"properties":{"osm_id":"6434044482","tag":{"amenity":"waste_basket","colour":"darkblue"}},"type":"Feature"},
	{"geometry":{"coordinates":[5.994952,52.208373],"type":"Point"},"properties":{"osm_id":"6517774798","tag":{"amenity":"waste_basket","waste":"trash"}},"type":"Feature"},
	{"geometry":{"coordinates":[5.992499,52.211816],"type":"Point"},"properties":{"osm_id":"6539772896","tag":{"amenity":"waste_basket"}},"type":"Feature"},
	{"geometry":{"coordinates":[6.005032,52.206918],"type":"Point"},"properties":{"osm_id":"6552845185","tag":{"amenity":"waste_basket"}},"type":"Feature"},
	{"geometry":{"coordinates":[6.010665,52.208359],"type":"Point"},"properties":{"osm_id":"6555009227","tag":{"amenity":"waste_basket","colour":"darkgreen"}},"type":"Feature"},
	{"geometry":{"coordinates":[6.006472,52.195611],"type":"Point"},"properties":{"osm_id":"6952090412","tag":{"amenity":"waste_basket"}},"type":"Feature"},
	{"geometry":{"coordinates":[6.005744,52.195622],"type":"Point"},"properties":{"osm_id":"7047065515","tag":{"amenity":"waste_basket"}},"type":"Feature"},
	{"geometry":{"coordinates":[6.011445,52.195258],"type":"Point"},"properties":{"osm_id":"7050138346","tag":{"amenity":"waste_basket"}},"type":"Feature"},
	{"geometry":{"coordinates":[6.004085,52.19547],"type":"Point"},"properties":{"osm_id":"7055245282","tag":{"amenity":"waste_basket"}},"type":"Feature"},
	{"geometry":{"coordinates":[5.980307,52.200308],"type":"Point"},"properties":{"osm_id":"7067963946","tag":{"amenity":"recycling","location":"indoor","recycling:batteries":"yes","recycling:low_energy_bulbs":"yes","recycling_type":"container"}},"type":"Feature"},
	{"geometry":{"coordinates":[6.014031,52.193725],"type":"Point"},"properties":{"osm_id":"7139841308","tag":{"amenity":"waste_basket"}},"type":"Feature"},
	{"geometry":{"coordinates":[6.004734,52.195708],"type":"Point"},"properties":{"osm_id":"7158899127","tag":{"amenity":"recycling","location":"indoor","operator":"HEMA","recycling:batteries":"yes","recycling:printer_cartridges":"yes","recycling_type":"container"}},"type":"Feature"},
	{"geometry":{"coordinates":[5.995539,52.203126],"type":"Point"},"properties":{"osm_id":"7228276489","tag":{"amenity":"recycling","location":"indoor","recycling:batteries":"yes","recycling:low_energy_bulbs":"yes","recycling:mobile_phones":"yes","recycling:printer_cartridges":"yes","recycling_type":"container"}},"type":"Feature"},
	{"geometry":{"coordinates":[6.010092,52.196561],"type":"Point"},"properties":{"osm_id":"7325185132","tag":{"amenity":"waste_basket","colour":"darkblue","direction":"45","material":"steel"}},"type":"Feature"},
	{"geometry":{"coordinates":[6.007577,52.186751],"type":"Point"},"properties":{"osm_id":"7387097215","tag":{"amenity":"waste_basket"}},"type":"Feature"},
	{"geometry":{"coordinates":[6.007115,52.185738],"type":"Point"},"properties":{"osm_id":"7394923997","tag":{"amenity":"waste_basket"}},"type":"Feature"},
	{"geometry":{"coordinates":[6.011838,52.185901],"type":"Point"},"properties":{"osm_id":"7394924007","tag":{"amenity":"waste_basket"}},"type":"Feature"},
	{"geometry":{"coordinates":[6.007247,52.186731],"type":"Point"},"properties":{"osm_id":"7404797242","tag":{"amenity":"waste_basket"}},"type":"Feature"},
	{"geometry":{"coordinates":[6.006233,52.18674],"type":"Point"},"properties":{"osm_id":"7404797243","tag":{"amenity":"waste_basket"}},"type":"Feature"},
	{"geometry":{"coordinates":[5.985853,52.190918],"type":"Point"},"properties":{"osm_id":"7414528059","tag":{"amenity":"waste_basket"}},"type":"Feature"},
	{"geometry":{"coordinates":[5.984347,52.191618],"type":"Point"},"properties":{"osm_id":"7414528063","tag":{"amenity":"waste_basket"}},"type":"Feature"},
	{"geometry":{"coordinates":[5.989015,52.191436],"type":"Point"},"properties":{"osm_id":"7414528080","tag":{"amenity":"waste_basket"}},"type":"Feature"},
	{"geometry":{"coordinates":[6.018228,52.207276],"type":"Point"},"properties":{"osm_id":"7480340658","tag":{"amenity":"waste_basket","colour":"darkblue"}},"type":"Feature"},
	{"geometry":{"coordinates":[5.999467,52.191257],"type":"Point"},"properties":{"osm_id":"7485205871","tag":{"amenity":"waste_basket","colour":"darkblue"}},"type":"Feature"},
	{"geometry":{"coordinates":[5.984891,52.181881],"type":"Point"},"properties":{"name":"Apeldoorn","osm_id":"7734712315","tag":{"amenity":"recycling","operator":"Circulus-Berkel","website":"http://www.circulus-Berkel.nl"}},"type":"Feature"},
	{"geometry":{"coordinates":[6.005886,52.214327],"type":"Point"},"properties":{"osm_id":"7804910177","tag":{"amenity":"recycling","location":"underground","operator":"Circulus-Berkel","recycling:paper":"yes","recycling:plastic":"yes","recycling:waste":"yes","recycling_type":"container"}},"type":"Feature"},
	{"geometry":{"coordinates":[6.001505,52.194088],"type":"Point"},"properties":{"osm_id":"7942802939","tag":{"amenity":"waste_basket"}},"type":"Feature"}
]
}
