{
"type": "FeatureCollection",
"features": [
	{"geometry":{"coordinates":[5.992221,51.331944],"type":"Point"},"properties":{"osm_id":"42381613","tag":{"amenity":"waste_basket"}},"type":"Feature"},
	{"geometry":{"coordinates":[5.999265,51.319472],"type":"Point"},"properties":{"osm_id":"324568880","tag":{"amenity":"recycling","recycling:clothes":"yes","recycling:diapers":"yes","recycling:glass":"yes","recycling_type":"container"}},"type":"Feature"},
	{"geometry":{"coordinates":[5.986449,51.319786],"type":"Point"},"properties":{"osm_id":"324568899","tag":{"amenity":"recycling","recycling:glass":"yes","recycling_type":"container"}},"type":"Feature"},
	{"geometry":{"coordinates":[5.980211,51.322898],"type":"Point"},"properties":{"osm_id":"324568903","tag":{"amenity":"recycling","recycling:glass":"yes","recycling_type":"container"}},"type":"Feature"},
	{"geometry":{"coordinates":[5.978795,51.327668],"type":"Point"},"properties":{"osm_id":"324568913","tag":{"amenity":"recycling","recycling:glass":"yes","recycling_type":"container"}},"type":"Feature"},
	{"geometry":{"coordinates":[6.002505,51.322716],"type":"Point"},"properties":{"osm_id":"360220307","tag":{"amenity":"recycling","recycling:glass":"yes","recycling_type":"container"}},"type":"Feature"},
	{"geometry":{"coordinates":[5.997787,51.305043],"type":"Point"},"properties":{"osm_id":"416447588","tag":{"amenity":"waste_basket"}},"type":"Feature"},
	{"geometry":{"coordinates":[5.991533,51.317627],"type":"Point"},"properties":{"osm_id":"419196097","tag":{"amenity":"recycling","recycling:glass":"yes","recycling_type":"container"}},"type":"Feature"},
	{"geometry":{"coordinates":[5.97955,51.289533],"type":"Point"},"properties":{"osm_id":"419196109","tag":{"amenity":"waste_basket"}},"type":"Feature"},
	{"geometry":{"coordinates":[5.990268,51.303669],"type":"Point"},"properties":{"osm_id":"424205534","tag":{"amenity":"waste_basket"}},"type":"Feature"},
	{"geometry":{"coordinates":[5.991627,51.321908],"type":"Point"},"properties":{"osm_id":"537534416","tag":{"amenity":"recycling","recycling:glass":"yes","recycling_type":"container"}},"type":"Feature"},
	{"geometry":{"coordinates":[6.005856,51.323434],"type":"Point"},"properties":{"osm_id":"564778668","tag":{"amenity":"recycling","recycling:glass":"yes","recycling_type":"container"}},"type":"Feature"},
	{"geometry":{"coordinates":[5.979039,51.324725],"type":"Point"},"properties":{"osm_id":"726015806","tag":{"amenity":"recycling","recycling:glass":"yes","recycling_type":"container"}},"type":"Feature"},
	{"geometry":{"coordinates":[5.985623,51.30093],"type":"Point"},"properties":{"osm_id":"2019425675","tag":{"amenity":"waste_basket"}},"type":"Feature"},
	{"geometry":{"coordinates":[5.983062,51.325859],"type":"Point"},"properties":{"osm_id":"4316139237","tag":{"amenity":"recycling","recycling:glass":"yes","recycling_type":"container"}},"type":"Feature"},
	{"geometry":{"coordinates":[5.983339,51.32903],"type":"Point"},"properties":{"osm_id":"4599721503","tag":{"amenity":"recycling","recycling:diapers":"yes","recycling:glass":"yes","recycling_type":"container"}},"type":"Feature"},
	{"geometry":{"coordinates":[5.98852,51.31738],"type":"Point"},"properties":{"osm_id":"5115877895","tag":{"amenity":"waste_basket"}},"type":"Feature"},
	{"geometry":{"coordinates":[5.999882,51.318889],"type":"Point"},"properties":{"osm_id":"5215768308","tag":{"amenity":"waste_basket"}},"type":"Feature"},
	{"geometry":{"coordinates":[5.998999,51.318315],"type":"Point"},"properties":{"osm_id":"5215768309","tag":{"amenity":"waste_basket"}},"type":"Feature"},
	{"geometry":{"coordinates":[5.977835,51.326302],"type":"Point"},"properties":{"osm_id":"5310833687","tag":{"amenity":"waste_basket"}},"type":"Feature"},
	{"geometry":{"coordinates":[5.97687,51.326616],"type":"Point"},"properties":{"osm_id":"5310833702","tag":{"amenity":"waste_basket"}},"type":"Feature"},
	{"geometry":{"coordinates":[6.059854,51.330578],"type":"Point"},"properties":{"name":"134","osm_id":"5314173196","tag":{"amenity":"waste_basket"}},"type":"Feature"},
	{"geometry":{"coordinates":[6.060031,51.330654],"type":"Point"},"properties":{"name":"133","osm_id":"5314173198","tag":{"amenity":"waste_basket"}},"type":"Feature"},
	{"geometry":{"coordinates":[5.983812,51.32208],"type":"Point"},"properties":{"osm_id":"5319130097","tag":{"amenity":"waste_basket"}},"type":"Feature"},
	{"geometry":{"coordinates":[5.990175,51.316676],"type":"Point"},"properties":{"name":"F47","osm_id":"5319132370","tag":{"amenity":"waste_basket"}},"type":"Feature"},
	{"geometry":{"coordinates":[5.978954,51.290066],"type":"Point"},"properties":{"name":"J 19","osm_id":"5319971934","tag":{"amenity":"waste_basket"}},"type":"Feature"},
	{"geometry":{"coordinates":[5.979493,51.289782],"type":"Point"},"properties":{"name":"J 20","osm_id":"5320051306","tag":{"amenity":"waste_basket"}},"type":"Feature"},
	{"geometry":{"coordinates":[6.004564,51.320044],"type":"Point"},"properties":{"osm_id":"5335674622","tag":{"amenity":"waste_basket"}},"type":"Feature"},
	{"geometry":{"coordinates":[6.005008,51.320693],"type":"Point"},"properties":{"osm_id":"5335674638","tag":{"amenity":"waste_basket"}},"type":"Feature"},
	{"geometry":{"coordinates":[6.009934,51.319622],"type":"Point"},"properties":{"name":"J5","osm_id":"5335674681","tag":{"amenity":"waste_basket"}},"type":"Feature"},
	{"geometry":{"coordinates":[6.00658,51.320271],"type":"Point"},"properties":{"osm_id":"5335674683","tag":{"amenity":"waste_basket"}},"type":"Feature"},
	{"geometry":{"coordinates":[6.015014,51.318281],"type":"Point"},"properties":{"osm_id":"5335674689","tag":{"amenity":"waste_basket"}},"type":"Feature"},
	{"geometry":{"coordinates":[6.02128,51.317972],"type":"Point"},"properties":{"name":"J7.4","osm_id":"5335864756","tag":{"amenity":"waste_basket"}},"type":"Feature"},
	{"geometry":{"coordinates":[6.050525,51.316686],"type":"Point"},"properties":{"name":"K 18","osm_id":"5339431900","tag":{"amenity":"waste_basket"}},"type":"Feature"},
	{"geometry":{"coordinates":[5.97968,51.327864],"type":"Point"},"properties":{"name":"A 49","osm_id":"5339541628","tag":{"amenity":"waste_basket"}},"type":"Feature"},
	{"geometry":{"coordinates":[5.980037,51.327952],"type":"Point"},"properties":{"name":"A 48","osm_id":"5339541629","tag":{"amenity":"waste_basket"}},"type":"Feature"},
	{"geometry":{"coordinates":[5.979451,51.328116],"type":"Point"},"properties":{"name":"A 50","osm_id":"5339541634","tag":{"amenity":"waste_basket"}},"type":"Feature"},
	{"geometry":{"coordinates":[5.979946,51.328341],"type":"Point"},"properties":{"name":"A 46","osm_id":"5339541636","tag":{"amenity":"waste_basket"}},"type":"Feature"},
	{"geometry":{"coordinates":[5.98075,51.327734],"type":"Point"},"properties":{"name":"A 38","osm_id":"5339541637","tag":{"amenity":"waste_basket"}},"type":"Feature"},
	{"geometry":{"coordinates":[5.981194,51.32755],"type":"Point"},"properties":{"name":"A 33","osm_id":"5339541639","tag":{"amenity":"waste_basket"}},"type":"Feature"},
	{"geometry":{"coordinates":[5.981236,51.32778],"type":"Point"},"properties":{"name":"A 37","osm_id":"5339541641","tag":{"amenity":"waste_basket"}},"type":"Feature"},
	{"geometry":{"coordinates":[5.981356,51.328012],"type":"Point"},"properties":{"name":"A 41","osm_id":"5339541642","tag":{"amenity":"waste_basket"}},"type":"Feature"},
	{"geometry":{"coordinates":[5.981683,51.328224],"type":"Point"},"properties":{"name":"A 32","osm_id":"5339541645","tag":{"amenity":"waste_basket"}},"type":"Feature"},
	{"geometry":{"coordinates":[5.981456,51.328167],"type":"Point"},"properties":{"name":"A42","osm_id":"5339541646","tag":{"amenity":"waste_basket"}},"type":"Feature"},
	{"geometry":{"coordinates":[5.981173,51.32831],"type":"Point"},"properties":{"name":"A 43","osm_id":"5339541647","tag":{"amenity":"waste_basket"}},"type":"Feature"},
	{"geometry":{"coordinates":[5.981092,51.328366],"type":"Point"},"properties":{"name":"A 44","osm_id":"5339541648","tag":{"amenity":"waste_basket"}},"type":"Feature"},
	{"geometry":{"coordinates":[5.980834,51.328033],"type":"Point"},"properties":{"name":"A 39","osm_id":"5339541649","tag":{"amenity":"waste_basket"}},"type":"Feature"},
	{"geometry":{"coordinates":[6.000233,51.320251],"type":"Point"},"properties":{"osm_id":"7494126787","tag":{"amenity":"waste_basket"}},"type":"Feature"},
	{"geometry":{"coordinates":[5.999826,51.320033],"type":"Point"},"properties":{"osm_id":"7494126789","tag":{"amenity":"waste_basket"}},"type":"Feature"},
	{"geometry":{"coordinates":[6.000147,51.319803],"type":"Point"},"properties":{"osm_id":"7494126792","tag":{"amenity":"waste_basket"}},"type":"Feature"},
	{"geometry":{"coordinates":[6.000364,51.319847],"type":"Point"},"properties":{"osm_id":"7494126794","tag":{"amenity":"waste_basket"}},"type":"Feature"},
	{"geometry":{"coordinates":[6.000488,51.31987],"type":"Point"},"properties":{"osm_id":"7494126795","tag":{"amenity":"waste_basket"}},"type":"Feature"},
	{"geometry":{"coordinates":[6.00088,51.320195],"type":"Point"},"properties":{"osm_id":"7494126803","tag":{"amenity":"waste_basket"}},"type":"Feature"},
	{"geometry":{"coordinates":[5.998359,51.319631],"type":"Point"},"properties":{"osm_id":"7494126809","tag":{"amenity":"waste_basket"}},"type":"Feature"},
	{"geometry":{"coordinates":[6.000498,51.320298],"type":"Point"},"properties":{"osm_id":"7494126810","tag":{"amenity":"waste_basket"}},"type":"Feature"},
	{"geometry":{"coordinates":[6.048716,51.295266],"type":"Point"},"properties":{"osm_id":"7502169631","tag":{"amenity":"waste_basket"}},"type":"Feature"},
	{"geometry":{"coordinates":[6.044912,51.294612],"type":"Point"},"properties":{"osm_id":"7502171012","tag":{"amenity":"waste_basket"}},"type":"Feature"},
	{"geometry":{"coordinates":[6.057704,51.295507],"type":"Point"},"properties":{"osm_id":"7502252676","tag":{"amenity":"waste_basket"}},"type":"Feature"},
	{"geometry":{"coordinates":[6.046307,51.300268],"type":"Point"},"properties":{"osm_id":"7502295801","tag":{"amenity":"waste_basket"}},"type":"Feature"},
	{"geometry":{"coordinates":[5.980592,51.332013],"type":"Point"},"properties":{"osm_id":"7611354910","tag":{"amenity":"waste_basket"}},"type":"Feature"},
	{"geometry":{"coordinates":[5.980758,51.331824],"type":"Point"},"properties":{"osm_id":"7611354914","tag":{"amenity":"waste_basket"}},"type":"Feature"},
	{"geometry":{"coordinates":[5.980688,51.33266],"type":"Point"},"properties":{"osm_id":"7611354915","tag":{"amenity":"waste_basket"}},"type":"Feature"},
	{"geometry":{"coordinates":[5.9803,51.333255],"type":"Point"},"properties":{"osm_id":"7611354916","tag":{"amenity":"waste_basket"}},"type":"Feature"}
]
}
