{
"type": "FeatureCollection",
"lastupdate": "2020-08-02T00:00:00Z",
"features": [
	{"geometry":{"coordinates":[5.995427,51.196559],"type":"Point"},"properties":{"osm_id":"1781383755","tag":{"amenity":"recycling","recycling:glass":"yes","recycling:paper":"yes","recycling:plastic":"yes","recycling_type":"container"}},"type":"Feature"},
	{"geometry":{"coordinates":[6.011561,51.200628],"type":"Point"},"properties":{"osm_id":"2300169092","tag":{"amenity":"recycling","recycling:glass":"yes","recycling:shoes":"yes","recycling_type":"container"}},"type":"Feature"},
	{"geometry":{"coordinates":[5.994078,51.192208],"type":"Point"},"properties":{"osm_id":"4350891489","tag":{"amenity":"waste_basket"}},"type":"Feature"},
	{"geometry":{"coordinates":[5.979685,51.19383],"type":"Point"},"properties":{"osm_id":"4868323509","tag":{"amenity":"waste_basket"}},"type":"Feature"},
	{"geometry":{"coordinates":[5.980567,51.19466],"type":"Point"},"properties":{"osm_id":"4868344274","tag":{"amenity":"waste_basket"}},"type":"Feature"},
	{"geometry":{"coordinates":[5.980383,51.194575],"type":"Point"},"properties":{"osm_id":"4868344284","tag":{"amenity":"waste_basket"}},"type":"Feature"},
	{"geometry":{"coordinates":[6.03684,51.195611],"type":"Point"},"properties":{"osm_id":"5653461938","tag":{"amenity":"waste_basket","waste":"trash"}},"type":"Feature"},
	{"geometry":{"coordinates":[6.033176,51.222113],"type":"Point"},"properties":{"osm_id":"6334647218","tag":{"amenity":"waste_basket"}},"type":"Feature"},
	{"geometry":{"coordinates":[6.039312,51.221989],"type":"Point"},"properties":{"osm_id":"6334647220","tag":{"amenity":"waste_basket"}},"type":"Feature"},
	{"geometry":{"coordinates":[6.036884,51.223413],"type":"Point"},"properties":{"osm_id":"6334647233","tag":{"amenity":"waste_basket"}},"type":"Feature"},
	{"geometry":{"coordinates":[6.031208,51.221657],"type":"Point"},"properties":{"osm_id":"6334647234","tag":{"amenity":"waste_basket"}},"type":"Feature"}
]
}
