{
"type": "FeatureCollection",
"features": [
	{"geometry":{"coordinates":[6.057886,50.922431],"type":"Point"},"properties":{"osm_id":"544504954","tag":{"amenity":"recycling","mapillary":"aw5q3Pi2GrgRxAJE_6yW7A","recycling:clothes":"yes","recycling:glass":"yes","recycling_type":"container","survey:date":"2019-02-20"}},"type":"Feature"},
	{"geometry":{"coordinates":[6.063328,50.940326],"type":"Point"},"properties":{"osm_id":"905568254","tag":{"amenity":"recycling","recycling:clothes":"yes"}},"type":"Feature"},
	{"geometry":{"coordinates":[6.057627,50.939788],"type":"Point"},"properties":{"osm_id":"905568336","tag":{"amenity":"recycling","recycling:glass":"yes"}},"type":"Feature"},
	{"geometry":{"coordinates":[6.042985,50.916191],"type":"Point"},"properties":{"osm_id":"933505136","tag":{"amenity":"recycling","recycling:glass":"yes","recycling_type":"container"}},"type":"Feature"},
	{"geometry":{"coordinates":[5.980811,50.922825],"type":"Point"},"properties":{"osm_id":"1232492466","tag":{"amenity":"waste_basket"}},"type":"Feature"},
	{"geometry":{"coordinates":[6.053379,50.918127],"type":"Point"},"properties":{"osm_id":"1316399891","tag":{"amenity":"recycling","recycling_type":"container"}},"type":"Feature"},
	{"geometry":{"coordinates":[5.98075,50.923722],"type":"Point"},"properties":{"osm_id":"1954580981","tag":{"amenity":"waste_basket"}},"type":"Feature"},
	{"geometry":{"coordinates":[6.018744,50.906998],"type":"Point"},"properties":{"osm_id":"3956762753","tag":{"amenity":"waste_basket"}},"type":"Feature"},
	{"geometry":{"coordinates":[6.024237,50.905518],"type":"Point"},"properties":{"osm_id":"4163580509","tag":{"amenity":"waste_basket"}},"type":"Feature"},
	{"geometry":{"coordinates":[6.024484,50.905507],"type":"Point"},"properties":{"osm_id":"4163650427","tag":{"amenity":"waste_basket"}},"type":"Feature"},
	{"geometry":{"coordinates":[6.02546,50.90527],"type":"Point"},"properties":{"osm_id":"4395668430","tag":{"addr:street":"Bachlaan","amenity":"recycling","recycling:clothes":"yes","recycling:glass":"yes","recycling:paper":"yes","recycling_type":"container"}},"type":"Feature"},
	{"geometry":{"coordinates":[6.030536,50.911888],"type":"Point"},"properties":{"osm_id":"5174736182","tag":{"amenity":"recycling","recycling:glass":"yes","recycling_type":"container"}},"type":"Feature"},
	{"geometry":{"coordinates":[6.031383,50.904081],"type":"Point"},"properties":{"osm_id":"5174736183","tag":{"amenity":"recycling","recycling:glass":"yes","recycling:glass_bottles":"yes","recycling_type":"container"}},"type":"Feature"},
	{"geometry":{"coordinates":[6.055075,50.91062],"type":"Point"},"properties":{"osm_id":"5275550494","tag":{"amenity":"recycling","recycling:glass":"yes","recycling:paper":"yes","recycling_type":"container"}},"type":"Feature"},
	{"geometry":{"coordinates":[6.022681,50.905713],"type":"Point"},"properties":{"osm_id":"5377322691","tag":{"amenity":"recycling","operator":"RD4","recycling:waste":"yes","recycling_type":"container"}},"type":"Feature"},
	{"geometry":{"coordinates":[6.0227,50.905725],"type":"Point"},"properties":{"osm_id":"5377322692","tag":{"amenity":"recycling","operator":"RD4","recycling:clothes":"yes","recycling_type":"container"}},"type":"Feature"},
	{"geometry":{"coordinates":[6.022722,50.905743],"type":"Point"},"properties":{"osm_id":"5377322693","tag":{"amenity":"recycling","operator":"RD4","recycling:paper":"yes","recycling_type":"container"}},"type":"Feature"},
	{"geometry":{"coordinates":[6.02274,50.905758],"type":"Point"},"properties":{"osm_id":"5377322694","tag":{"amenity":"recycling","operator":"RD4","recycling:cans":"yes","recycling_type":"container"}},"type":"Feature"},
	{"geometry":{"coordinates":[6.035838,50.908011],"type":"Point"},"properties":{"osm_id":"5436882740","tag":{"amenity":"recycling","recycling:clothes":"yes","recycling:glass":"yes","recycling:paper":"yes","recycling_type":"container"}},"type":"Feature"},
	{"geometry":{"coordinates":[6.02804,50.907944],"type":"Point"},"properties":{"osm_id":"5497067455","tag":{"amenity":"recycling","recycling:glass":"yes","recycling_type":"container"}},"type":"Feature"},
	{"geometry":{"coordinates":[6.041993,50.904768],"type":"Point"},"properties":{"osm_id":"6205415543","tag":{"amenity":"recycling","recycling:glass_bottles":"yes","recycling_type":"container"}},"type":"Feature"},
	{"geometry":{"coordinates":[6.05142,50.915511],"type":"Point"},"properties":{"osm_id":"7179983861","tag":{"amenity":"recycling","recycling_type":"container"}},"type":"Feature"}
]
}
