{
"type": "FeatureCollection",
"features": [
	{"geometry":{"coordinates":[5.992005,50.873781],"type":"Point"},"properties":{"osm_id":"588656845","tag":{"amenity":"recycling","recycling:glass":"yes","recycling_type":"container"}},"type":"Feature"},
	{"geometry":{"coordinates":[6.025835,50.854026],"type":"Point"},"properties":{"osm_id":"588656859","tag":{"amenity":"recycling","recycling:glass":"yes","recycling_type":"container"}},"type":"Feature"},
	{"geometry":{"coordinates":[6.022279,50.851137],"type":"Point"},"properties":{"osm_id":"1387175043","tag":{"amenity":"recycling","recycling:clothes":"yes","recycling:glass_bottles":"yes","recycling:paper":"yes","recycling_type":"container"}},"type":"Feature"},
	{"geometry":{"coordinates":[5.988402,50.885506],"type":"Point"},"properties":{"osm_id":"2641069185","tag":{"amenity":"waste_basket"}},"type":"Feature"},
	{"geometry":{"coordinates":[5.987857,50.886173],"type":"Point"},"properties":{"osm_id":"2641069214","tag":{"amenity":"waste_basket"}},"type":"Feature"},
	{"geometry":{"coordinates":[5.986457,50.887434],"type":"Point"},"properties":{"osm_id":"2641069266","tag":{"amenity":"waste_basket"}},"type":"Feature"},
	{"geometry":{"coordinates":[6.054423,50.898172],"type":"Point"},"properties":{"osm_id":"4414277579","tag":{"amenity":"recycling","recycling:glass_bottles":"yes","recycling_type":"container"}},"type":"Feature"},
	{"geometry":{"coordinates":[6.057299,50.892867],"type":"Point"},"properties":{"osm_id":"4418459808","tag":{"amenity":"waste_basket"}},"type":"Feature"},
	{"geometry":{"coordinates":[6.020112,50.896733],"type":"Point"},"properties":{"osm_id":"4924386733","tag":{"amenity":"waste_basket","mapillary":"7w9tFPmH3_oJl3aDGID-Cg"}},"type":"Feature"},
	{"geometry":{"coordinates":[6.020062,50.89673],"type":"Point"},"properties":{"osm_id":"4924386734","tag":{"amenity":"waste_basket","mapillary":"dBzgcmOvk92fW-pDXMTYmw"}},"type":"Feature"},
	{"geometry":{"coordinates":[6.020727,50.896505],"type":"Point"},"properties":{"osm_id":"4924386747","tag":{"amenity":"waste_basket","mapillary":"rF1OiucBhZ1JkOVrCIaGwA"}},"type":"Feature"},
	{"geometry":{"coordinates":[6.020519,50.896498],"type":"Point"},"properties":{"osm_id":"4924386749","tag":{"amenity":"waste_basket","mapillary":"1sXnEqJziRY8TgSligqxXg"}},"type":"Feature"},
	{"geometry":{"coordinates":[6.020067,50.896472],"type":"Point"},"properties":{"osm_id":"4924386752","tag":{"amenity":"waste_basket","mapillary":"ihHY6JawHZmpVUOptv-BuA"}},"type":"Feature"},
	{"geometry":{"coordinates":[6.014658,50.871643],"type":"Point"},"properties":{"osm_id":"5056802723","tag":{"amenity":"recycling","recycling_type":"container"}},"type":"Feature"},
	{"geometry":{"coordinates":[6.014664,50.871625],"type":"Point"},"properties":{"osm_id":"5056802724","tag":{"amenity":"recycling","recycling_type":"container"}},"type":"Feature"},
	{"geometry":{"coordinates":[6.01467,50.871606],"type":"Point"},"properties":{"osm_id":"5056802725","tag":{"amenity":"recycling","recycling_type":"container"}},"type":"Feature"},
	{"geometry":{"coordinates":[6.014676,50.871589],"type":"Point"},"properties":{"osm_id":"5056802726","tag":{"amenity":"recycling","recycling_type":"container"}},"type":"Feature"},
	{"geometry":{"coordinates":[6.010759,50.875101],"type":"Point"},"properties":{"osm_id":"5153789033","tag":{"amenity":"waste_basket"}},"type":"Feature"},
	{"geometry":{"coordinates":[5.991189,50.896156],"type":"Point"},"properties":{"osm_id":"5184448265","tag":{"amenity":"recycling","recycling:clothes":"yes","recycling:glass":"yes","recycling:paper":"yes","recycling_type":"container"}},"type":"Feature"},
	{"geometry":{"coordinates":[5.979224,50.882657],"type":"Point"},"properties":{"osm_id":"5268555644","tag":{"amenity":"recycling","recycling:clothes":"yes","recycling:glass":"yes","recycling:paper":"yes","recycling_type":"container"}},"type":"Feature"},
	{"geometry":{"coordinates":[5.982589,50.886074],"type":"Point"},"properties":{"osm_id":"5451105054","tag":{"amenity":"recycling","recycling:paper":"yes","recycling_type":"container"}},"type":"Feature"},
	{"geometry":{"coordinates":[6.024789,50.897161],"type":"Point"},"properties":{"osm_id":"5469744710","tag":{"amenity":"recycling","recycling:glass":"yes","recycling:glass_bottles":"yes","recycling_type":"container"}},"type":"Feature"},
	{"geometry":{"coordinates":[6.05417,50.89204],"type":"Point"},"properties":{"osm_id":"5495321848","tag":{"amenity":"recycling","operator":"RD4","recycling:clothes":"yes","recycling:glass_bottles":"yes","recycling:paper":"no","recycling_type":"container"}},"type":"Feature"},
	{"geometry":{"coordinates":[6.057002,50.873973],"type":"Point"},"properties":{"osm_id":"5785663618","tag":{"amenity":"waste_basket","waste":"trash"}},"type":"Feature"},
	{"geometry":{"coordinates":[6.05098,50.892374],"type":"Point"},"properties":{"osm_id":"5791352967","tag":{"amenity":"waste_disposal"}},"type":"Feature"},
	{"geometry":{"coordinates":[6.05097,50.892388],"type":"Point"},"properties":{"osm_id":"5791352968","tag":{"amenity":"waste_disposal"}},"type":"Feature"},
	{"geometry":{"coordinates":[6.008251,50.871819],"type":"Point"},"properties":{"osm_id":"5832497467","tag":{"amenity":"waste_basket"}},"type":"Feature"},
	{"geometry":{"coordinates":[6.014682,50.871573],"type":"Point"},"properties":{"osm_id":"5832497468","tag":{"amenity":"waste_basket"}},"type":"Feature"},
	{"geometry":{"coordinates":[6.011796,50.870708],"type":"Point"},"properties":{"osm_id":"5832497469","tag":{"amenity":"waste_basket"}},"type":"Feature"},
	{"geometry":{"coordinates":[6.008785,50.872417],"type":"Point"},"properties":{"osm_id":"5832497474","tag":{"amenity":"waste_basket"}},"type":"Feature"},
	{"geometry":{"coordinates":[6.013613,50.870972],"type":"Point"},"properties":{"osm_id":"5832497475","tag":{"amenity":"waste_basket"}},"type":"Feature"},
	{"geometry":{"coordinates":[6.011605,50.871173],"type":"Point"},"properties":{"osm_id":"5832497476","tag":{"amenity":"waste_basket"}},"type":"Feature"},
	{"geometry":{"coordinates":[6.011162,50.871693],"type":"Point"},"properties":{"osm_id":"5832497480","tag":{"amenity":"waste_basket"}},"type":"Feature"},
	{"geometry":{"coordinates":[6.008732,50.873288],"type":"Point"},"properties":{"osm_id":"5832497481","tag":{"amenity":"waste_basket"}},"type":"Feature"},
	{"geometry":{"coordinates":[6.012678,50.870411],"type":"Point"},"properties":{"osm_id":"5832497482","tag":{"amenity":"waste_basket"}},"type":"Feature"},
	{"geometry":{"coordinates":[6.007898,50.874076],"type":"Point"},"properties":{"osm_id":"5832497484","tag":{"amenity":"waste_basket"}},"type":"Feature"},
	{"geometry":{"coordinates":[6.006593,50.866949],"type":"Point"},"properties":{"osm_id":"5832529981","tag":{"amenity":"waste_basket"}},"type":"Feature"},
	{"geometry":{"coordinates":[6.006634,50.867271],"type":"Point"},"properties":{"osm_id":"5832535551","tag":{"amenity":"waste_basket"}},"type":"Feature"},
	{"geometry":{"coordinates":[5.978502,50.863349],"type":"Point"},"properties":{"osm_id":"5876452268","tag":{"amenity":"waste_basket"}},"type":"Feature"},
	{"geometry":{"coordinates":[6.00113,50.887202],"type":"Point"},"properties":{"osm_id":"5899845313","tag":{"amenity":"recycling","recycling:glass":"yes","recycling:paper":"yes","recycling_type":"container"}},"type":"Feature"},
	{"geometry":{"coordinates":[5.996804,50.887859],"type":"Point"},"properties":{"osm_id":"6015526289","tag":{"amenity":"recycling","recycling:glass_bottles":"yes","recycling_type":"container"}},"type":"Feature"},
	{"geometry":{"coordinates":[5.99878,50.870384],"type":"Point"},"properties":{"osm_id":"6224198096","tag":{"amenity":"recycling","operator":"RD4","recycling:cardboard":"no","recycling:glass":"no","recycling:waste":"yes","recycling_type":"container"}},"type":"Feature"},
	{"geometry":{"coordinates":[5.998838,50.870421],"type":"Point"},"properties":{"osm_id":"6224198097","tag":{"amenity":"recycling","operator":"RD4","recycling:glass":"yes","recycling_type":"container"}},"type":"Feature"},
	{"geometry":{"coordinates":[5.998809,50.870403],"type":"Point"},"properties":{"osm_id":"6224198098","tag":{"amenity":"recycling","operator":"RD4","recycling:cardboard":"yes","recycling_type":"container"}},"type":"Feature"},
	{"geometry":{"coordinates":[6.044907,50.876379],"type":"Point"},"properties":{"osm_id":"6383098117","tag":{"amenity":"waste_basket","waste":"trash"}},"type":"Feature"},
	{"geometry":{"coordinates":[6.033636,50.858628],"type":"Point"},"properties":{"osm_id":"7179983901","tag":{"amenity":"recycling","recycling:waste":"yes","recycling_type":"container"}},"type":"Feature"},
	{"geometry":{"coordinates":[6.056282,50.849208],"type":"Point"},"properties":{"osm_id":"7366414516","tag":{"amenity":"waste_basket","waste":"trash"}},"type":"Feature"},
	{"geometry":{"coordinates":[5.988037,50.895657],"type":"Point"},"properties":{"osm_id":"7916131813","tag":{"amenity":"waste_basket"}},"type":"Feature"},
	{"geometry":{"coordinates":[5.987909,50.895657],"type":"Point"},"properties":{"osm_id":"7916131814","tag":{"amenity":"waste_basket"}},"type":"Feature"},
	{"geometry":{"coordinates":[5.984089,50.891277],"type":"Point"},"properties":{"osm_id":"7917731776","tag":{"amenity":"waste_basket"}},"type":"Feature"},
	{"geometry":{"coordinates":[5.984093,50.891295],"type":"Point"},"properties":{"osm_id":"7917731777","tag":{"amenity":"recycling","recycling:cardboard":"yes","recycling:clothes":"yes","recycling:glass":"no","recycling:glass_bottles":"yes","recycling:paper":"yes","recycling:waste":"yes","recycling_type":"container"}},"type":"Feature"}
]
}
