{
"type": "FeatureCollection",
"features": [
	{"geometry":{"coordinates":[6.053753,50.814769],"type":"Point"},"properties":{"osm_id":"290698127","tag":{"amenity":"recycling","recycling:clothes":"yes","recycling:glass_bottles":"yes","recycling_type":"container"}},"type":"Feature"},
	{"geometry":{"coordinates":[6.06396,50.800774],"type":"Point"},"properties":{"osm_id":"317599107","tag":{"amenity":"recycling","recycling:glass_bottles":"yes","recycling_type":"container"}},"type":"Feature"},
	{"geometry":{"coordinates":[6.06185,50.811179],"type":"Point"},"properties":{"osm_id":"317599129","tag":{"amenity":"recycling","recycling:glass_bottles":"yes","recycling_type":"container"}},"type":"Feature"},
	{"geometry":{"coordinates":[6.049476,50.801505],"type":"Point"},"properties":{"osm_id":"530103182","tag":{"amenity":"recycling","recycling:glass_bottles":"yes","recycling_type":"container"}},"type":"Feature"},
	{"geometry":{"coordinates":[5.995921,50.7974],"type":"Point"},"properties":{"osm_id":"530206320","tag":{"amenity":"recycling","recycling:clothes":"yes","recycling:glass_bottles":"yes","recycling_type":"container"}},"type":"Feature"},
	{"geometry":{"coordinates":[6.059615,50.806836],"type":"Point"},"properties":{"osm_id":"534964809","tag":{"amenity":"waste_basket","check_date":"2021-06-21"}},"type":"Feature"},
	{"geometry":{"coordinates":[6.043283,50.812631],"type":"Point"},"properties":{"osm_id":"571525704","tag":{"amenity":"recycling","recycling:glass_bottles":"yes","recycling_type":"container"}},"type":"Feature"},
	{"geometry":{"coordinates":[6.058885,50.797449],"type":"Point"},"properties":{"osm_id":"772979191","tag":{"amenity":"recycling","recycling:clothes":"yes","recycling:glass_bottles":"yes","recycling_type":"container"}},"type":"Feature"},
	{"geometry":{"coordinates":[6.051162,50.80143],"type":"Point"},"properties":{"osm_id":"1017894361","tag":{"amenity":"recycling","recycling:clothes":"yes","recycling_type":"container"}},"type":"Feature"},
	{"geometry":{"coordinates":[6.019147,50.79625],"type":"Point"},"properties":{"osm_id":"1091418755","tag":{"amenity":"waste_basket"}},"type":"Feature"},
	{"geometry":{"coordinates":[6.053372,50.796007],"type":"Point"},"properties":{"osm_id":"1165672628","tag":{"amenity":"recycling","recycling:glass_bottles":"yes","recycling_type":"container"}},"type":"Feature"},
	{"geometry":{"coordinates":[6.053447,50.79607],"type":"Point"},"properties":{"osm_id":"1165672634","tag":{"amenity":"recycling","recycling:clothes":"yes","recycling_type":"container"}},"type":"Feature"},
	{"geometry":{"coordinates":[6.01936,50.845654],"type":"Point"},"properties":{"osm_id":"1235118779","tag":{"amenity":"recycling","mapillary":"nLx6JsAH5aimQgh-V2D2UQ","recycling:glass_bottles":"yes","recycling_type":"container","survey:date":"2019-04-23"}},"type":"Feature"},
	{"geometry":{"coordinates":[6.043315,50.812554],"type":"Point"},"properties":{"osm_id":"1237711996","tag":{"amenity":"recycling","location":"overground","recycling:clothes":"yes","recycling_type":"container"}},"type":"Feature"},
	{"geometry":{"coordinates":[6.057986,50.80245],"type":"Point"},"properties":{"osm_id":"1389718172","tag":{"amenity":"waste_basket"}},"type":"Feature"},
	{"geometry":{"coordinates":[6.051763,50.819652],"type":"Point"},"properties":{"osm_id":"2590506032","tag":{"amenity":"waste_basket"}},"type":"Feature"},
	{"geometry":{"coordinates":[6.057212,50.840454],"type":"Point"},"properties":{"osm_id":"2602277964","tag":{"amenity":"waste_basket"}},"type":"Feature"},
	{"geometry":{"coordinates":[6.042878,50.834928],"type":"Point"},"properties":{"osm_id":"2684290010","tag":{"amenity":"recycling","recycling:glass_bottles":"yes","recycling_type":"container"}},"type":"Feature"},
	{"geometry":{"coordinates":[6.048115,50.836557],"type":"Point"},"properties":{"osm_id":"2684290038","tag":{"amenity":"waste_basket"}},"type":"Feature"},
	{"geometry":{"coordinates":[5.985441,50.84608],"type":"Point"},"properties":{"osm_id":"3837113265","tag":{"amenity":"waste_basket"}},"type":"Feature"},
	{"geometry":{"coordinates":[5.978285,50.83345],"type":"Point"},"properties":{"osm_id":"3837299177","tag":{"amenity":"recycling","opening_hours":"24/7","recycling:waste":"yes","recycling_type":"container","wheelchair":"yes"}},"type":"Feature"},
	{"geometry":{"coordinates":[5.984924,50.833546],"type":"Point"},"properties":{"osm_id":"3838101288","tag":{"amenity":"waste_basket"}},"type":"Feature"},
	{"geometry":{"coordinates":[5.980634,50.835249],"type":"Point"},"properties":{"osm_id":"3838995417","tag":{"amenity":"waste_basket","basket:colour":"blue"}},"type":"Feature"},
	{"geometry":{"coordinates":[5.991635,50.835903],"type":"Point"},"properties":{"osm_id":"3853251893","tag":{"amenity":"recycling","opening_hours":"24/7","recycling:cans":"yes","recycling:glass":"yes","recycling:glass_bottles":"yes","recycling_type":"container","wheelchair":"yes"}},"type":"Feature"},
	{"geometry":{"coordinates":[6.051229,50.811794],"type":"Point"},"properties":{"osm_id":"5250363478","tag":{"amenity":"recycling","check_date:recycling":"2021-05-01","recycling:glass_bottles":"yes","recycling_type":"container"}},"type":"Feature"},
	{"geometry":{"coordinates":[6.040487,50.818647],"type":"Point"},"properties":{"osm_id":"5681022169","tag":{"amenity":"waste_basket"}},"type":"Feature"},
	{"geometry":{"coordinates":[6.010371,50.810891],"type":"Point"},"properties":{"osm_id":"6336525960","tag":{"amenity":"waste_basket"}},"type":"Feature"},
	{"geometry":{"coordinates":[5.999987,50.807458],"type":"Point"},"properties":{"osm_id":"6336526287","tag":{"amenity":"waste_basket"}},"type":"Feature"},
	{"geometry":{"coordinates":[5.985638,50.810534],"type":"Point"},"properties":{"osm_id":"6336526543","tag":{"amenity":"waste_basket"}},"type":"Feature"},
	{"geometry":{"coordinates":[6.00311,50.838268],"type":"Point"},"properties":{"osm_id":"6345890883","tag":{"amenity":"waste_basket"}},"type":"Feature"},
	{"geometry":{"coordinates":[6.005285,50.835387],"type":"Point"},"properties":{"osm_id":"6345890998","tag":{"amenity":"waste_basket"}},"type":"Feature"},
	{"geometry":{"coordinates":[6.009106,50.819286],"type":"Point"},"properties":{"osm_id":"7179983730","tag":{"amenity":"waste_basket"}},"type":"Feature"},
	{"geometry":{"coordinates":[6.0043,50.819585],"type":"Point"},"properties":{"osm_id":"7315009192","tag":{"amenity":"recycling","recycling:glass_bottles":"yes","recycling_type":"container"}},"type":"Feature"},
	{"geometry":{"coordinates":[6.004322,50.819599],"type":"Point"},"properties":{"osm_id":"7315009193","tag":{"access":"permissive","amenity":"waste_disposal"}},"type":"Feature"},
	{"geometry":{"coordinates":[6.003198,50.820651],"type":"Point"},"properties":{"osm_id":"7315009194","tag":{"access":"permissive","amenity":"waste_disposal"}},"type":"Feature"},
	{"geometry":{"coordinates":[5.99866,50.803898],"type":"Point"},"properties":{"osm_id":"7750225915","tag":{"amenity":"waste_basket"}},"type":"Feature"},
	{"geometry":{"coordinates":[5.992737,50.807294],"type":"Point"},"properties":{"osm_id":"7750229786","tag":{"amenity":"waste_basket"}},"type":"Feature"}
]
}
