{
"type": "FeatureCollection",
"features": [
	{"geometry":{"coordinates":[6.025229,50.721143],"type":"Point"},"properties":{"osm_id":"360011806","tag":{"amenity":"recycling","recycling:clothes":"yes","recycling:glass":"yes"}},"type":"Feature"},
	{"geometry":{"coordinates":[6.008524,50.711237],"type":"Point"},"properties":{"osm_id":"539897378","tag":{"amenity":"recycling"}},"type":"Feature"},
	{"geometry":{"coordinates":[6.018795,50.721442],"type":"Point"},"properties":{"osm_id":"733257595","tag":{"amenity":"waste_basket"}},"type":"Feature"},
	{"geometry":{"coordinates":[6.015995,50.721548],"type":"Point"},"properties":{"osm_id":"733257717","tag":{"amenity":"recycling","recycling:clothes":"yes","recycling:glass":"yes"}},"type":"Feature"},
	{"geometry":{"coordinates":[6.010357,50.722434],"type":"Point"},"properties":{"osm_id":"840199353","tag":{"amenity":"recycling","recycling:clothes":"yes","recycling:glass":"yes"}},"type":"Feature"},
	{"geometry":{"coordinates":[6.01565,50.718727],"type":"Point"},"properties":{"osm_id":"840545776","tag":{"amenity":"recycling","recycling:clothes":"yes","recycling:glass":"yes"}},"type":"Feature"},
	{"geometry":{"coordinates":[6.032538,50.711939],"type":"Point"},"properties":{"osm_id":"1328799986","tag":{"amenity":"recycling","recycling:clothes":"yes","recycling:glass":"yes"}},"type":"Feature"},
	{"geometry":{"coordinates":[6.044842,50.692567],"type":"Point"},"properties":{"osm_id":"1374129346","tag":{"amenity":"waste_basket"}},"type":"Feature"},
	{"geometry":{"coordinates":[6.007372,50.731022],"type":"Point"},"properties":{"osm_id":"1420365090","tag":{"amenity":"waste_basket"}},"type":"Feature"},
	{"geometry":{"coordinates":[6.006471,50.732891],"type":"Point"},"properties":{"osm_id":"1420365095","tag":{"amenity":"waste_basket"}},"type":"Feature"},
	{"geometry":{"coordinates":[6.010426,50.734548],"type":"Point"},"properties":{"osm_id":"1420365096","tag":{"amenity":"waste_basket"}},"type":"Feature"},
	{"geometry":{"coordinates":[6.013034,50.735062],"type":"Point"},"properties":{"osm_id":"1420365098","tag":{"amenity":"waste_basket"}},"type":"Feature"},
	{"geometry":{"coordinates":[6.017348,50.736035],"type":"Point"},"properties":{"osm_id":"1420365101","tag":{"amenity":"waste_basket"}},"type":"Feature"},
	{"geometry":{"coordinates":[6.010128,50.690251],"type":"Point"},"properties":{"osm_id":"1432149207","tag":{"amenity":"waste_basket"}},"type":"Feature"},
	{"geometry":{"coordinates":[6.019867,50.691433],"type":"Point"},"properties":{"osm_id":"1432149224","tag":{"amenity":"waste_basket"}},"type":"Feature"},
	{"geometry":{"coordinates":[6.001145,50.692747],"type":"Point"},"properties":{"osm_id":"1432149235","tag":{"amenity":"waste_basket"}},"type":"Feature"},
	{"geometry":{"coordinates":[6.043348,50.695172],"type":"Point"},"properties":{"osm_id":"1432149346","tag":{"amenity":"waste_basket"}},"type":"Feature"},
	{"geometry":{"coordinates":[6.02755,50.709323],"type":"Point"},"properties":{"osm_id":"1432149386","tag":{"amenity":"waste_basket"}},"type":"Feature"},
	{"geometry":{"coordinates":[6.015682,50.710956],"type":"Point"},"properties":{"osm_id":"1432149388","tag":{"amenity":"waste_basket"}},"type":"Feature"},
	{"geometry":{"coordinates":[6.015549,50.711109],"type":"Point"},"properties":{"osm_id":"1432149393","tag":{"amenity":"waste_basket"}},"type":"Feature"},
	{"geometry":{"coordinates":[6.007869,50.687145],"type":"Point"},"properties":{"osm_id":"1445778974","tag":{"amenity":"waste_basket"}},"type":"Feature"},
	{"geometry":{"coordinates":[6.002414,50.706789],"type":"Point"},"properties":{"osm_id":"1454233681","tag":{"amenity":"waste_basket","colour":"gr\u00c3\u00bcn","material":"plastic","operator":"Commune Kelmis"}},"type":"Feature"},
	{"geometry":{"coordinates":[6.005961,50.68831],"type":"Point"},"properties":{"osm_id":"1470007427","tag":{"amenity":"waste_basket"}},"type":"Feature"},
	{"geometry":{"coordinates":[6.020392,50.72952],"type":"Point"},"properties":{"osm_id":"1478176155","tag":{"amenity":"waste_basket","colour":"Gr\u00c3\u00bcn","material":"plastic","operator":"Commune Kelmis","waste":"trash"}},"type":"Feature"},
	{"geometry":{"coordinates":[6.020465,50.729793],"type":"Point"},"properties":{"osm_id":"1478176161","tag":{"amenity":"waste_basket","colour":"Gr\u00c3\u00bcn","material":"plastic","operator":"Commune Kelmis","waste":"trash"}},"type":"Feature"},
	{"geometry":{"coordinates":[6.010813,50.712443],"type":"Point"},"properties":{"osm_id":"1478201242","tag":{"amenity":"recycling","recycling:clothes":"yes","recycling:glass":"yes"}},"type":"Feature"},
	{"geometry":{"coordinates":[5.995908,50.731105],"type":"Point"},"properties":{"osm_id":"1488908767","tag":{"amenity":"waste_basket"}},"type":"Feature"},
	{"geometry":{"coordinates":[5.99587,50.732466],"type":"Point"},"properties":{"osm_id":"1488908769","tag":{"amenity":"recycling","recycling:clothes":"yes","recycling:glass":"yes"}},"type":"Feature"},
	{"geometry":{"coordinates":[6.011294,50.711806],"type":"Point"},"properties":{"osm_id":"3009401365","tag":{"amenity":"waste_basket"}},"type":"Feature"},
	{"geometry":{"coordinates":[6.009432,50.723313],"type":"Point"},"properties":{"osm_id":"7385261705","tag":{"amenity":"recycling","description":"Weis","operator":"Intrabel","recycling:glass":"yes","recycling_type":"container"}},"type":"Feature"},
	{"geometry":{"coordinates":[6.009464,50.723323],"type":"Point"},"properties":{"osm_id":"7385261706","tag":{"amenity":"recycling","description":"bunt","operator":"Intrabel","recycling:glass":"yes","recycling_type":"container"}},"type":"Feature"},
	{"geometry":{"coordinates":[6.008473,50.724278],"type":"Point"},"properties":{"osm_id":"7385261712","tag":{"amenity":"waste_basket","colour":"orange","material":"plastic","operator":"Commune Kelmis"}},"type":"Feature"},
	{"geometry":{"coordinates":[6.003358,50.714096],"type":"Point"},"properties":{"osm_id":"7417363574","tag":{"amenity":"waste_basket","colour":"gr\u00c3\u00bcn","material":"plastic","operator":"Commune Kelmis","waste":"trash"}},"type":"Feature"},
	{"geometry":{"coordinates":[6.012579,50.716893],"type":"Point"},"properties":{"osm_id":"7417363577","tag":{"amenity":"waste_basket","colour":"gr\u00c3\u00bcn","material":"plastic","operator":"Commune Kelmis","waste":"trash"}},"type":"Feature"},
	{"geometry":{"coordinates":[6.008992,50.715373],"type":"Point"},"properties":{"osm_id":"7417367373","tag":{"amenity":"waste_basket","colour":"gr\u00c3\u00bcn","material":"plastic","operator":"Commune Kelmis","waste":"trash"}},"type":"Feature"},
	{"geometry":{"coordinates":[6.005004,50.709449],"type":"Point"},"properties":{"osm_id":"7424816104","tag":{"amenity":"waste_basket","colour":"gr\u00c3\u00bcn","material":"plastic","operator":"Commune Kelmis","waste":"trash"}},"type":"Feature"},
	{"geometry":{"coordinates":[6.002875,50.708824],"type":"Point"},"properties":{"osm_id":"7437391898","tag":{"amenity":"waste_basket","colour":"Gr\u00c3\u00bcn","material":"plastic","operator":"Commune Kelmis","waste":"trash"}},"type":"Feature"},
	{"geometry":{"coordinates":[6.003258,50.709393],"type":"Point"},"properties":{"osm_id":"7437391905","tag":{"amenity":"waste_basket","colour":"Gr\u00c3\u00bcn","material":"plastic","operator":"Commune Kelmis","waste":"trash"}},"type":"Feature"},
	{"geometry":{"coordinates":[6.0035,50.708739],"type":"Point"},"properties":{"osm_id":"7438401343","tag":{"amenity":"waste_basket","operator":"Commune Kelmis"}},"type":"Feature"},
	{"geometry":{"coordinates":[6.004392,50.70882],"type":"Point"},"properties":{"osm_id":"7438401344","tag":{"amenity":"waste_basket","colour":"Gr\u00c3\u00bcn","material":"plastic","waste":"trash"}},"type":"Feature"},
	{"geometry":{"coordinates":[6.026423,50.713634],"type":"Point"},"properties":{"osm_id":"7442250378","tag":{"amenity":"waste_basket","colour":"Gr\u00c3\u00bcn","material":"plastic","operator":"Commune Kelmis","waste":"trash"}},"type":"Feature"},
	{"geometry":{"coordinates":[6.005516,50.714288],"type":"Point"},"properties":{"osm_id":"7459504993","tag":{"amenity":"waste_basket","colour":"Gr\u00c3\u00bcn","material":"plastic","operator":"Commune Kelmis","waste":"trash"}},"type":"Feature"},
	{"geometry":{"coordinates":[6.011104,50.716115],"type":"Point"},"properties":{"osm_id":"7459505101","tag":{"amenity":"waste_basket","colour":"Gr\u00c3\u00bcn","material":"plastic","operator":"Commune Kelmis","waste":"trash"}},"type":"Feature"},
	{"geometry":{"coordinates":[6.013452,50.715944],"type":"Point"},"properties":{"osm_id":"7459505126","tag":{"amenity":"waste_basket","colour":"Gr\u00c3\u00bcn","material":"plastic","operator":"Commune Kelmis","waste":"trash"}},"type":"Feature"},
	{"geometry":{"coordinates":[6.014171,50.714791],"type":"Point"},"properties":{"osm_id":"7459505143","tag":{"amenity":"waste_basket","colour":"Gr\u00c3\u00bcn","material":"plastic","operator":"Commune Kelmis","waste":"trash"}},"type":"Feature"},
	{"geometry":{"coordinates":[6.012563,50.715323],"type":"Point"},"properties":{"osm_id":"7459505151","tag":{"amenity":"waste_basket","colour":"Gr\u00c3\u00bcn","material":"plastic","operator":"Commune Kelmis","waste":"trash"}},"type":"Feature"},
	{"geometry":{"coordinates":[6.011948,50.715571],"type":"Point"},"properties":{"osm_id":"7459505161","tag":{"amenity":"waste_basket","colour":"Gr\u00c3\u00bcn","material":"plastic","operator":"Commune Kelmis","waste":"trash"}},"type":"Feature"},
	{"geometry":{"coordinates":[6.008695,50.717113],"type":"Point"},"properties":{"osm_id":"7459505169","tag":{"amenity":"waste_basket","colour":"Gr\u00c3\u00bcn","material":"plastic","operator":"Commune Kelmis","waste":"trash"}},"type":"Feature"},
	{"geometry":{"coordinates":[6.008376,50.716974],"type":"Point"},"properties":{"osm_id":"7459505170","tag":{"amenity":"waste_basket","colour":"Gr\u00c3\u00bcn","material":"plastic","operator":"Commune Kelmis","waste":"trash"}},"type":"Feature"},
	{"geometry":{"coordinates":[6.010705,50.717759],"type":"Point"},"properties":{"osm_id":"7466672391","tag":{"amenity":"waste_basket","colour":"Gr\u00c3\u00bcn","material":"plastic","operator":"Commune Kelmis","waste":"trash"}},"type":"Feature"},
	{"geometry":{"coordinates":[6.010785,50.717956],"type":"Point"},"properties":{"osm_id":"7466672395","tag":{"amenity":"waste_basket","colour":"Gr\u00c3\u00bcn","material":"plastic","operator":"Commune Kelmis","waste":"trash"}},"type":"Feature"},
	{"geometry":{"coordinates":[6.010458,50.7178],"type":"Point"},"properties":{"osm_id":"7466672424","tag":{"amenity":"waste_basket","colour":"Gr\u00c3\u00bcn","material":"plastic","operator":"Commune Kelmis","waste":"trash"}},"type":"Feature"},
	{"geometry":{"coordinates":[5.986507,50.714931],"type":"Point"},"properties":{"osm_id":"7467791347","tag":{"amenity":"waste_basket","colour":"Rouge","material":"metal","operator":"Commune Plombi\u00c3\u00a8res","waste":"trash"}},"type":"Feature"},
	{"geometry":{"coordinates":[6.013978,50.718963],"type":"Point"},"properties":{"osm_id":"7497213437","tag":{"amenity":"waste_basket","colour":"Gr\u00c3\u00bcn","material":"plastic","operator":"Commune Kelmis"}},"type":"Feature"},
	{"geometry":{"coordinates":[6.011616,50.715522],"type":"Point"},"properties":{"osm_id":"7631754322","tag":{"amenity":"waste_basket","colour":"Gr\u00c3\u00bcn","material":"plastic","operator":"Commune La Calamine","waste":"trash"}},"type":"Feature"}
]
}
