{
"type": "FeatureCollection",
"features": [
	{"geometry":{"coordinates":[5.997522,49.520307],"type":"Point"},"properties":{"name":"Minett kompost","osm_id":"315122003","tag":{"amenity":"recycling","recycling:cans":"no","recycling:clothes":"no","recycling:glass":"no","recycling:paper":"no"}},"type":"Feature"},
	{"geometry":{"coordinates":[6.002746,49.508875],"type":"Point"},"properties":{"osm_id":"1424152684","tag":{"amenity":"waste_basket"}},"type":"Feature"},
	{"geometry":{"coordinates":[6.010772,49.509833],"type":"Point"},"properties":{"osm_id":"1424152691","tag":{"amenity":"waste_basket"}},"type":"Feature"},
	{"geometry":{"coordinates":[6.002483,49.510713],"type":"Point"},"properties":{"osm_id":"1424152726","tag":{"amenity":"waste_basket"}},"type":"Feature"},
	{"geometry":{"coordinates":[6.006736,49.510674],"type":"Point"},"properties":{"osm_id":"1424152730","tag":{"amenity":"waste_basket"}},"type":"Feature"},
	{"geometry":{"coordinates":[6.011221,49.511166],"type":"Point"},"properties":{"osm_id":"1424152764","tag":{"amenity":"waste_basket"}},"type":"Feature"},
	{"geometry":{"coordinates":[6.009438,49.511241],"type":"Point"},"properties":{"osm_id":"1424152766","tag":{"amenity":"waste_basket"}},"type":"Feature"},
	{"geometry":{"coordinates":[6.008931,49.511274],"type":"Point"},"properties":{"osm_id":"1424152769","tag":{"amenity":"waste_basket"}},"type":"Feature"},
	{"geometry":{"coordinates":[6.011233,49.511293],"type":"Point"},"properties":{"osm_id":"1424152771","tag":{"amenity":"waste_basket"}},"type":"Feature"},
	{"geometry":{"coordinates":[6.009235,49.511459],"type":"Point"},"properties":{"osm_id":"1424152782","tag":{"amenity":"waste_basket"}},"type":"Feature"},
	{"geometry":{"coordinates":[6.007826,49.506284],"type":"Point"},"properties":{"osm_id":"1433556969","tag":{"amenity":"waste_basket"}},"type":"Feature"},
	{"geometry":{"coordinates":[6.012906,49.54883],"type":"Point"},"properties":{"osm_id":"1463050135","tag":{"amenity":"waste_basket"}},"type":"Feature"},
	{"geometry":{"coordinates":[6.012718,49.548894],"type":"Point"},"properties":{"osm_id":"1463050137","tag":{"amenity":"waste_basket"}},"type":"Feature"},
	{"geometry":{"coordinates":[6.041241,49.524681],"type":"Point"},"properties":{"osm_id":"1635366993","tag":{"amenity":"recycling"}},"type":"Feature"},
	{"geometry":{"coordinates":[6.051441,49.53644],"type":"Point"},"properties":{"osm_id":"1857275279","tag":{"amenity":"waste_basket"}},"type":"Feature"},
	{"geometry":{"coordinates":[6.050161,49.540114],"type":"Point"},"properties":{"osm_id":"1857275337","tag":{"amenity":"waste_basket"}},"type":"Feature"},
	{"geometry":{"coordinates":[6.055658,49.541834],"type":"Point"},"properties":{"osm_id":"1857275365","tag":{"amenity":"waste_basket"}},"type":"Feature"},
	{"geometry":{"coordinates":[6.05998,49.545021],"type":"Point"},"properties":{"osm_id":"1857275408","tag":{"amenity":"waste_basket"}},"type":"Feature"},
	{"geometry":{"coordinates":[6.015143,49.51408],"type":"Point"},"properties":{"barrier":"gate","name":"Recyclincenter, entr\u00c3\u00a9e clients","osm_id":"2513167165","tag":{"access":"permissive","bicycle":"yes","foot":"no","horse":"no","motor_vehicle":"yes","phone":"+352 549898"}},"type":"Feature"},
	{"geometry":{"coordinates":[6.015366,49.514143],"type":"Point"},"properties":{"barrier":"gate","name":"Recyclingcenter, sortie clients","osm_id":"2513196174","tag":{"access":"private","bicycle":"no","foot":"no","horse":"no","motor_vehicle":"yes","name:de":"Ausgang Recyclingcenter"}},"type":"Feature"},
	{"geometry":{"coordinates":[6.015082,49.514013],"type":"Point"},"properties":{"barrier":"gate","name":"Acc\u00c3\u00a8s camions","osm_id":"2513218873","tag":{"access":"private","bicycle":"no","foot":"no","horse":"no","motor_vehicle":"yes","name:de":"Einfahrt LKW"}},"type":"Feature"},
	{"geometry":{"coordinates":[6.0045,49.512285],"type":"Point"},"properties":{"osm_id":"2591197954","tag":{"amenity":"waste_basket"}},"type":"Feature"},
	{"geometry":{"coordinates":[5.986905,49.496748],"type":"Point"},"properties":{"osm_id":"2678930159","tag":{"amenity":"waste_disposal"}},"type":"Feature"},
	{"geometry":{"coordinates":[6.00906,49.506374],"type":"Point"},"properties":{"osm_id":"3719863536","tag":{"amenity":"waste_basket"}},"type":"Feature"},
	{"geometry":{"coordinates":[6.011544,49.506744],"type":"Point"},"properties":{"osm_id":"3719863540","tag":{"amenity":"waste_basket"}},"type":"Feature"},
	{"geometry":{"coordinates":[6.011299,49.506795],"type":"Point"},"properties":{"osm_id":"3719863541","tag":{"amenity":"waste_basket"}},"type":"Feature"},
	{"geometry":{"coordinates":[6.009941,49.506443],"type":"Point"},"properties":{"osm_id":"3719863740","tag":{"amenity":"waste_basket"}},"type":"Feature"},
	{"geometry":{"coordinates":[6.009969,49.506545],"type":"Point"},"properties":{"osm_id":"3719863741","tag":{"amenity":"waste_basket"}},"type":"Feature"},
	{"geometry":{"coordinates":[6.01634,49.51387],"type":"Point"},"properties":{"barrier":"gate","osm_id":"3876418770"},"type":"Feature"},
	{"geometry":{"coordinates":[6.049746,49.551003],"type":"Point"},"properties":{"osm_id":"4826941548","tag":{"amenity":"waste_basket"}},"type":"Feature"},
	{"geometry":{"coordinates":[6.015741,49.51429],"type":"Point"},"properties":{"barrier":"gate","osm_id":"5398624340","tag":{"access":"private","bicycle":"permissive","foot":"no","horse":"no","motor_vehicle":"permissive"}},"type":"Feature"},
	{"geometry":{"coordinates":[6.006903,49.502725],"type":"Point"},"properties":{"osm_id":"6299543546","tag":{"amenity":"waste_basket"}},"type":"Feature"},
	{"geometry":{"coordinates":[6.006356,49.502019],"type":"Point"},"properties":{"osm_id":"6299543547","tag":{"amenity":"waste_basket"}},"type":"Feature"},
	{"geometry":{"coordinates":[6.015647,49.548988],"type":"Point"},"properties":{"osm_id":"7565842411","tag":{"amenity":"waste_basket"}},"type":"Feature"},
	{"geometry":{"coordinates":[6.020533,49.549633],"type":"Point"},"properties":{"osm_id":"7565842422","tag":{"amenity":"waste_basket","waste":"dog_excrement"}},"type":"Feature"}
]
}
