{
"type": "FeatureCollection",
"features": [
	{"geometry":{"coordinates":[6.064435,49.488855],"type":"Point"},"properties":{"osm_id":"1752616866","ref":"LOL","tag":{"amenity":"waste_basket"}},"type":"Feature"},
	{"geometry":{"coordinates":[5.995457,49.471549],"type":"Point"},"properties":{"osm_id":"1803217830","tag":{"amenity":"waste_basket"}},"type":"Feature"},
	{"geometry":{"coordinates":[5.993932,49.473076],"type":"Point"},"properties":{"osm_id":"1803217832","tag":{"amenity":"waste_basket"}},"type":"Feature"},
	{"geometry":{"coordinates":[5.991756,49.475992],"type":"Point"},"properties":{"osm_id":"1803217838","tag":{"amenity":"waste_basket"}},"type":"Feature"},
	{"geometry":{"coordinates":[5.984579,49.48055],"type":"Point"},"properties":{"osm_id":"1803217859","tag":{"amenity":"waste_basket"}},"type":"Feature"},
	{"geometry":{"coordinates":[5.984205,49.482204],"type":"Point"},"properties":{"osm_id":"1803217864","tag":{"amenity":"waste_basket"}},"type":"Feature"},
	{"geometry":{"coordinates":[5.984461,49.483018],"type":"Point"},"properties":{"osm_id":"1803217868","tag":{"amenity":"waste_basket"}},"type":"Feature"},
	{"geometry":{"coordinates":[5.98606,49.483502],"type":"Point"},"properties":{"osm_id":"1803217871","tag":{"amenity":"waste_basket"}},"type":"Feature"},
	{"geometry":{"coordinates":[5.986117,49.483947],"type":"Point"},"properties":{"osm_id":"1803217873","tag":{"amenity":"waste_basket"}},"type":"Feature"},
	{"geometry":{"coordinates":[5.984452,49.487462],"type":"Point"},"properties":{"osm_id":"1803217882","tag":{"amenity":"waste_basket"}},"type":"Feature"},
	{"geometry":{"coordinates":[5.985429,49.487843],"type":"Point"},"properties":{"osm_id":"1803217884","tag":{"amenity":"waste_basket"}},"type":"Feature"},
	{"geometry":{"coordinates":[5.986487,49.490011],"type":"Point"},"properties":{"osm_id":"1803217894","tag":{"amenity":"waste_basket"}},"type":"Feature"},
	{"geometry":{"coordinates":[5.985988,49.491349],"type":"Point"},"properties":{"osm_id":"1803217912","tag":{"amenity":"waste_basket"}},"type":"Feature"},
	{"geometry":{"coordinates":[5.987166,49.491812],"type":"Point"},"properties":{"osm_id":"1803217923","tag":{"amenity":"waste_basket"}},"type":"Feature"},
	{"geometry":{"coordinates":[5.985537,49.492757],"type":"Point"},"properties":{"osm_id":"1803217932","tag":{"amenity":"waste_basket"}},"type":"Feature"},
	{"geometry":{"coordinates":[5.99298,49.47944],"type":"Point"},"properties":{"osm_id":"2165560269","tag":{"amenity":"waste_basket"}},"type":"Feature"},
	{"geometry":{"coordinates":[5.991842,49.481101],"type":"Point"},"properties":{"osm_id":"2165560308","tag":{"amenity":"waste_basket"}},"type":"Feature"},
	{"geometry":{"coordinates":[5.985949,49.481942],"type":"Point"},"properties":{"osm_id":"2165560345","tag":{"amenity":"waste_basket"}},"type":"Feature"},
	{"geometry":{"coordinates":[6.019493,49.439873],"type":"Point"},"properties":{"osm_id":"2454123998","tag":{"amenity":"recycling"}},"type":"Feature"},
	{"geometry":{"coordinates":[6.020143,49.447494],"type":"Point"},"properties":{"osm_id":"3698494924","tag":{"amenity":"waste_basket"}},"type":"Feature"},
	{"geometry":{"coordinates":[6.020751,49.447825],"type":"Point"},"properties":{"osm_id":"3698494925","tag":{"amenity":"waste_basket"}},"type":"Feature"},
	{"geometry":{"coordinates":[6.040974,49.481116],"type":"Point"},"properties":{"osm_id":"4063798926","tag":{"amenity":"recycling","mapillary":"DXBlXkhjRAwW7waH4Ex-ZA","recycling_type":"container","survey:date":"2017-06-01"}},"type":"Feature"},
	{"geometry":{"coordinates":[6.022301,49.473527],"type":"Point"},"properties":{"osm_id":"4631157049","tag":{"amenity":"waste_basket"}},"type":"Feature"},
	{"geometry":{"coordinates":[5.985509,49.478558],"type":"Point"},"properties":{"osm_id":"4884289957","tag":{"amenity":"waste_basket"}},"type":"Feature"},
	{"geometry":{"coordinates":[6.036879,49.454379],"type":"Point"},"properties":{"osm_id":"4934386738","tag":{"amenity":"waste_basket"}},"type":"Feature"},
	{"geometry":{"coordinates":[6.034102,49.468662],"type":"Point"},"properties":{"osm_id":"5966489679","tag":{"amenity":"recycling"}},"type":"Feature"},
	{"geometry":{"coordinates":[6.041016,49.456696],"type":"Point"},"properties":{"osm_id":"6166642269","tag":{"amenity":"waste_basket"}},"type":"Feature"},
	{"geometry":{"coordinates":[6.006537,49.490438],"type":"Point"},"properties":{"osm_id":"6299543541","tag":{"amenity":"waste_basket"}},"type":"Feature"},
	{"geometry":{"coordinates":[5.990249,49.476033],"type":"Point"},"properties":{"osm_id":"6299567330","tag":{"amenity":"waste_basket"}},"type":"Feature"},
	{"geometry":{"coordinates":[6.010575,49.461691],"type":"Point"},"properties":{"osm_id":"6549540422","tag":{"amenity":"waste_basket"}},"type":"Feature"}
]
}
