{
"type": "FeatureCollection",
"features": [
	{"geometry":{"coordinates":[6.028522,48.978698],"type":"Point"},"properties":{"osm_id":"369693384","tag":{"amenity":"recycling","recycling:glass":"yes","recycling:paper":"yes"}},"type":"Feature"},
	{"geometry":{"coordinates":[6.02529,48.978634],"type":"Point"},"properties":{"osm_id":"6276785063","tag":{"amenity":"waste_basket"}},"type":"Feature"},
	{"geometry":{"coordinates":[6.027619,48.978059],"type":"Point"},"properties":{"osm_id":"6276786190","tag":{"amenity":"recycling","recycling:clothes":"yes","recycling:glass":"yes","recycling:paper":"yes","recycling_type":"container"}},"type":"Feature"},
	{"geometry":{"coordinates":[6.020364,48.979977],"type":"Point"},"properties":{"osm_id":"6434314711","tag":{"amenity":"waste_basket"}},"type":"Feature"},
	{"geometry":{"coordinates":[6.023717,48.980004],"type":"Point"},"properties":{"osm_id":"6434314740","tag":{"amenity":"waste_basket"}},"type":"Feature"},
	{"geometry":{"coordinates":[6.030392,48.977021],"type":"Point"},"properties":{"osm_id":"6503191539","tag":{"amenity":"waste_basket"}},"type":"Feature"},
	{"geometry":{"coordinates":[6.030028,48.976979],"type":"Point"},"properties":{"osm_id":"6503191545","tag":{"amenity":"waste_basket"}},"type":"Feature"},
	{"geometry":{"coordinates":[6.025523,48.976253],"type":"Point"},"properties":{"osm_id":"6531392833","tag":{"amenity":"waste_basket","material":"steel","operator":"Mairie de Pagny-sur-Moselle"}},"type":"Feature"},
	{"geometry":{"coordinates":[6.025333,48.975224],"type":"Point"},"properties":{"osm_id":"6531392870","tag":{"amenity":"waste_basket","material":"plastic","operator":"Mairie de Pagny-sur-Moselle"}},"type":"Feature"},
	{"geometry":{"coordinates":[6.027664,48.975292],"type":"Point"},"properties":{"osm_id":"6531392883","tag":{"amenity":"waste_basket","material":"plastic","operator":"Mairie de Pagny-sur-Moselle"}},"type":"Feature"},
	{"geometry":{"coordinates":[6.027036,48.976229],"type":"Point"},"properties":{"osm_id":"6531405485","tag":{"amenity":"waste_basket","material":"plastic","operator":"Mairie de Pagny-sur-Moselle"}},"type":"Feature"},
	{"geometry":{"coordinates":[6.028457,48.979365],"type":"Point"},"properties":{"osm_id":"6536413186","tag":{"amenity":"waste_basket","material":"wood","operator":"Mairie de Pagny-sur-Moselle"}},"type":"Feature"},
	{"geometry":{"coordinates":[6.02949,48.97975],"type":"Point"},"properties":{"osm_id":"6536413215","tag":{"amenity":"waste_basket","material":"metal","operator":"Mairie de Pagny-sur-Moselle"}},"type":"Feature"},
	{"geometry":{"coordinates":[6.029107,48.979761],"type":"Point"},"properties":{"osm_id":"6536413217","tag":{"amenity":"waste_basket","material":"metal","operator":"Mairie de Pagny-sur-Moselle"}},"type":"Feature"},
	{"geometry":{"coordinates":[6.029037,48.979361],"type":"Point"},"properties":{"osm_id":"6536413223","tag":{"amenity":"waste_basket","material":"metal","operator":"Mairie de Pagny-sur-Moselle"}},"type":"Feature"},
	{"geometry":{"coordinates":[6.029314,48.979359],"type":"Point"},"properties":{"osm_id":"6536413226","tag":{"amenity":"waste_basket","material":"metal","operator":"Mairie de Pagny-sur-Moselle"}},"type":"Feature"},
	{"geometry":{"coordinates":[6.029656,48.979351],"type":"Point"},"properties":{"osm_id":"6536413229","tag":{"amenity":"waste_basket","material":"stone","operator":"Mairie de Pagny-sur-Moselle"}},"type":"Feature"},
	{"geometry":{"coordinates":[6.0298,48.979632],"type":"Point"},"properties":{"osm_id":"6536413239","tag":{"amenity":"waste_basket","material":"metal","operator":"Mairie de Pagny-sur-Moselle"}},"type":"Feature"},
	{"geometry":{"coordinates":[6.026684,48.977928],"type":"Point"},"properties":{"osm_id":"6536413257","tag":{"amenity":"waste_basket","material":"metal","operator":"Mairie de Pagny-sur-Moselle"}},"type":"Feature"},
	{"geometry":{"coordinates":[6.018844,48.979944],"type":"Point"},"properties":{"osm_id":"6612962367","tag":{"amenity":"waste_basket","material":"plastic","operator":"Mairie de Pagny-sur-Moselle"}},"type":"Feature"},
	{"geometry":{"coordinates":[6.019051,48.979893],"type":"Point"},"properties":{"osm_id":"6612962368","tag":{"amenity":"waste_basket","material":"metal","operator":"Mairie de Pagny-sur-Moselle"}},"type":"Feature"},
	{"geometry":{"coordinates":[6.032824,48.952097],"type":"Point"},"properties":{"osm_id":"7148700706","tag":{"amenity":"recycling","recycling:glass":"yes","recycling:paper":"yes","recycling_type":"container"}},"type":"Feature"},
	{"geometry":{"coordinates":[6.037532,48.953476],"type":"Point"},"properties":{"osm_id":"7579770945","tag":{"denotation":"urban","leaf_type":"broadleaved","natural":"tree"}},"type":"Feature"},
	{"geometry":{"coordinates":[6.026639,48.957236],"type":"Point"},"properties":{"osm_id":"7731357672","tag":{"amenity":"waste_basket","material":"concrete","waste":"trash"}},"type":"Feature"},
	{"geometry":{"coordinates":[6.032936,48.977096],"type":"Point"},"properties":{"osm_id":"7779993240","tag":{"amenity":"waste_basket","material":"plastic","waste":"trash"}},"type":"Feature"}
]
}
