{
"type": "FeatureCollection",
"lastupdate": "2020-08-03T00:00:00Z",
"features": [
	{"geometry":{"coordinates":[6.053395,46.325728],"type":"Point"},"properties":{"osm_id":"847254560","tag":{"amenity":"recycling"}},"type":"Feature"},
	{"geometry":{"coordinates":[6.058389,46.337956],"type":"Point"},"properties":{"osm_id":"1177308096","tag":{"amenity":"recycling"}},"type":"Feature"},
	{"geometry":{"coordinates":[6.0632,46.331285],"type":"Point"},"properties":{"osm_id":"4401494392","tag":{"amenity":"waste_basket"}},"type":"Feature"},
	{"geometry":{"coordinates":[6.063268,46.331769],"type":"Point"},"properties":{"osm_id":"4401494393","tag":{"amenity":"waste_basket"}},"type":"Feature"},
	{"geometry":{"coordinates":[6.062419,46.331391],"type":"Point"},"properties":{"osm_id":"4401494394","tag":{"amenity":"waste_basket"}},"type":"Feature"},
	{"geometry":{"coordinates":[5.994556,46.367584],"type":"Point"},"properties":{"osm_id":"6544891204","tag":{"amenity":"recycling","colour":"red","recycling_type":"container"}},"type":"Feature"},
	{"geometry":{"coordinates":[5.994582,46.367571],"type":"Point"},"properties":{"osm_id":"6544891205","tag":{"amenity":"recycling","colour":"red","recycling_type":"container"}},"type":"Feature"},
	{"geometry":{"coordinates":[5.994507,46.36757],"type":"Point"},"properties":{"osm_id":"6544891206","tag":{"amenity":"recycling","colour":"blue","recycling_type":"container"}},"type":"Feature"},
	{"geometry":{"coordinates":[5.994527,46.367556],"type":"Point"},"properties":{"osm_id":"6544891207","tag":{"amenity":"recycling","colour":"yellow","recycling_type":"container"}},"type":"Feature"},
	{"geometry":{"coordinates":[5.994548,46.367545],"type":"Point"},"properties":{"osm_id":"6544891208","tag":{"amenity":"recycling","colour":"green","recycling:glass_bottles":"yes","recycling_type":"container"}},"type":"Feature"},
	{"geometry":{"coordinates":[5.993761,46.365312],"type":"Point"},"properties":{"osm_id":"6544891218","tag":{"amenity":"recycling","colour":"black","recycling_type":"container"}},"type":"Feature"},
	{"geometry":{"coordinates":[5.993777,46.365327],"type":"Point"},"properties":{"osm_id":"6544891219","tag":{"amenity":"recycling","colour":"black","recycling_type":"container"}},"type":"Feature"},
	{"geometry":{"coordinates":[5.993794,46.36534],"type":"Point"},"properties":{"osm_id":"6544891220","tag":{"amenity":"recycling","colour":"black","recycling_type":"container"}},"type":"Feature"},
	{"geometry":{"coordinates":[5.993807,46.365354],"type":"Point"},"properties":{"osm_id":"6544891221","tag":{"amenity":"recycling","colour":"red","recycling_type":"container"}},"type":"Feature"},
	{"geometry":{"coordinates":[5.993832,46.365369],"type":"Point"},"properties":{"osm_id":"6544891222","tag":{"amenity":"recycling","colour":"red","recycling_type":"container"}},"type":"Feature"},
	{"geometry":{"coordinates":[6.05591,46.340637],"type":"Point"},"properties":{"osm_id":"7379099519","tag":{"amenity":"recycling","recycling_type":"container"}},"type":"Feature"},
	{"geometry":{"coordinates":[6.055906,46.340454],"type":"Point"},"properties":{"osm_id":"7379099520","tag":{"amenity":"recycling","recycling_type":"container"}},"type":"Feature"},
	{"geometry":{"coordinates":[6.059629,46.337258],"type":"Point"},"properties":{"osm_id":"7379099521","tag":{"amenity":"recycling","recycling_type":"container"}},"type":"Feature"},
	{"geometry":{"coordinates":[6.063247,46.33367],"type":"Point"},"properties":{"osm_id":"7379144027","tag":{"amenity":"recycling","recycling_type":"container"}},"type":"Feature"}
]
}
