{
"type": "FeatureCollection",
"features": [
	{"geometry":{"coordinates":[6.003436,45.982839],"type":"Point"},"properties":{"osm_id":"1305634004","tag":{"amenity":"recycling","recycling:cans":"yes","recycling:glass":"yes","recycling:paper":"yes"}},"type":"Feature"},
	{"geometry":{"coordinates":[6.013523,45.992955],"type":"Point"},"properties":{"osm_id":"1816270895","tag":{"amenity":"recycling","recycling:glass":"yes","recycling:paper":"yes","recycling_type":"container"}},"type":"Feature"},
	{"geometry":{"coordinates":[5.999304,45.998862],"type":"Point"},"properties":{"osm_id":"2405938253","tag":{"amenity":"waste_disposal"}},"type":"Feature"},
	{"geometry":{"coordinates":[6.051899,45.95127],"type":"Point"},"properties":{"osm_id":"2884942623","tag":{"amenity":"recycling","recycling:clothes":"no","recycling:glass":"yes","recycling:paper":"yes"}},"type":"Feature"},
	{"geometry":{"coordinates":[6.009263,45.9999],"type":"Point"},"properties":{"osm_id":"4399587391","tag":{"amenity":"waste_basket"}},"type":"Feature"},
	{"geometry":{"coordinates":[6.040792,45.958498],"type":"Point"},"properties":{"osm_id":"7277451714","tag":{"amenity":"recycling","recycling_type":"container"}},"type":"Feature"},
	{"geometry":{"coordinates":[6.040777,45.958482],"type":"Point"},"properties":{"osm_id":"7277451715","tag":{"amenity":"recycling","recycling_type":"container"}},"type":"Feature"},
	{"geometry":{"coordinates":[6.040762,45.958466],"type":"Point"},"properties":{"osm_id":"7277451716","tag":{"amenity":"recycling","recycling_type":"container"}},"type":"Feature"},
	{"geometry":{"coordinates":[6.040748,45.95845],"type":"Point"},"properties":{"osm_id":"7277451717","tag":{"amenity":"recycling","recycling_type":"container"}},"type":"Feature"},
	{"geometry":{"coordinates":[6.040733,45.958434],"type":"Point"},"properties":{"osm_id":"7277451718","tag":{"amenity":"recycling","recycling_type":"container"}},"type":"Feature"}
]
}
