{
"type": "FeatureCollection",
"features": [
	{"geometry":{"coordinates":[6.019793,45.562092],"type":"Point"},"properties":{"osm_id":"337883048","tag":{"amenity":"recycling","recycling:glass":"yes","recycling_type":"container"}},"type":"Feature"},
	{"geometry":{"coordinates":[6.023706,45.563903],"type":"Point"},"properties":{"osm_id":"610390328","tag":{"amenity":"recycling","recycling:glass":"yes"}},"type":"Feature"},
	{"geometry":{"coordinates":[5.985604,45.577421],"type":"Point"},"properties":{"osm_id":"1296850873","tag":{"amenity":"recycling","recycling:glass":"yes"}},"type":"Feature"},
	{"geometry":{"coordinates":[5.988088,45.545069],"type":"Point"},"properties":{"osm_id":"4280814264","tag":{"amenity":"waste_disposal"}},"type":"Feature"},
	{"geometry":{"coordinates":[5.985815,45.551764],"type":"Point"},"properties":{"osm_id":"4821534024","tag":{"amenity":"waste_disposal"}},"type":"Feature"},
	{"geometry":{"coordinates":[5.984498,45.553608],"type":"Point"},"properties":{"osm_id":"4821534030","tag":{"amenity":"waste_disposal"}},"type":"Feature"},
	{"geometry":{"coordinates":[5.983505,45.548618],"type":"Point"},"properties":{"osm_id":"4826093321","tag":{"amenity":"recycling","location":"underground","recycling:aluminium":"yes","recycling:beverage_carton":"yes","recycling:cans":"yes","recycling:magazines":"yes","recycling:newspaper":"yes","recycling:paper":"yes","recycling:paper_packaging":"yes","recycling:plastic":"yes","recycling:plastic_bottles":"yes","recycling:plastic_packaging":"yes","recycling_type":"container"}},"type":"Feature"},
	{"geometry":{"coordinates":[5.983518,45.548596],"type":"Point"},"properties":{"osm_id":"5654782366","tag":{"amenity":"recycling","location":"underground","recycling:waste":"yes","recycling_type":"container"}},"type":"Feature"},
	{"geometry":{"coordinates":[5.983527,45.548578],"type":"Point"},"properties":{"osm_id":"5654782367","tag":{"amenity":"recycling","location":"underground","recycling:glass_bottles":"yes","recycling_type":"container"}},"type":"Feature"},
	{"geometry":{"coordinates":[5.9848,45.549034],"type":"Point"},"properties":{"osm_id":"5654782400","tag":{"amenity":"waste_basket"}},"type":"Feature"},
	{"geometry":{"coordinates":[5.995745,45.526928],"type":"Point"},"properties":{"osm_id":"7656483347","tag":{"amenity":"recycling"}},"type":"Feature"},
	{"geometry":{"coordinates":[5.994565,45.531751],"type":"Point"},"properties":{"osm_id":"7667616911","tag":{"amenity":"recycling"}},"type":"Feature"},
	{"geometry":{"coordinates":[5.992207,45.533106],"type":"Point"},"properties":{"osm_id":"7667686312","tag":{"amenity":"recycling"}},"type":"Feature"},
	{"geometry":{"coordinates":[5.992185,45.533303],"type":"Point"},"properties":{"osm_id":"7667686313","tag":{"amenity":"waste_basket"}},"type":"Feature"},
	{"geometry":{"coordinates":[5.992309,45.532818],"type":"Point"},"properties":{"osm_id":"7667686314","tag":{"amenity":"waste_basket"}},"type":"Feature"},
	{"geometry":{"coordinates":[6.056794,45.531314],"type":"Point"},"properties":{"osm_id":"8080803424","tag":{"amenity":"waste_basket"}},"type":"Feature"},
	{"geometry":{"coordinates":[6.009317,45.565937],"type":"Point"},"properties":{"osm_id":"8595902677","tag":{"amenity":"recycling","recycling:glass_bottles":"yes","recycling_type":"container"}},"type":"Feature"},
	{"geometry":{"coordinates":[6.009297,45.565917],"type":"Point"},"properties":{"osm_id":"8595902678","tag":{"amenity":"recycling","recycling:household_trash":"yes","recycling_type":"container"}},"type":"Feature"},
	{"geometry":{"coordinates":[6.009277,45.565898],"type":"Point"},"properties":{"osm_id":"8595902679","tag":{"amenity":"recycling","recycling:cans":"yes","recycling:plastic":"yes","recycling:plastic_bottles":"yes","recycling_type":"container"}},"type":"Feature"},
	{"geometry":{"coordinates":[6.009319,45.565881],"type":"Point"},"properties":{"osm_id":"8595902680","tag":{"amenity":"recycling","recycling:cans":"yes","recycling:plastic":"yes","recycling:plastic_bottles":"yes","recycling_type":"container"}},"type":"Feature"},
	{"geometry":{"coordinates":[6.009337,45.5659],"type":"Point"},"properties":{"osm_id":"8595902681","tag":{"amenity":"recycling","recycling:household_trash":"yes","recycling_type":"container"}},"type":"Feature"},
	{"geometry":{"coordinates":[6.014567,45.564241],"type":"Point"},"properties":{"osm_id":"8596081983","tag":{"amenity":"recycling","recycling:household_trash":"yes","recycling_type":"container"}},"type":"Feature"},
	{"geometry":{"coordinates":[6.014583,45.56422],"type":"Point"},"properties":{"osm_id":"8596081984","tag":{"amenity":"recycling","recycling:cans":"yes","recycling:plastic_bottles":"yes","recycling_type":"container"}},"type":"Feature"},
	{"geometry":{"coordinates":[5.984291,45.55145],"type":"Point"},"properties":{"osm_id":"8603163646","tag":{"amenity":"recycling","recycling_type":"container"}},"type":"Feature"},
	{"geometry":{"coordinates":[5.983083,45.558535],"type":"Point"},"properties":{"osm_id":"8610844638","tag":{"access":"yes","amenity":"waste_disposal"}},"type":"Feature"},
	{"geometry":{"coordinates":[5.985145,45.550365],"type":"Point"},"properties":{"osm_id":"8643505304","tag":{"amenity":"waste_basket","colour":"brown","material":"wood"}},"type":"Feature"},
	{"geometry":{"coordinates":[5.986013,45.550292],"type":"Point"},"properties":{"osm_id":"8643505316","tag":{"amenity":"waste_basket","colour":"brown","material":"wood"}},"type":"Feature"},
	{"geometry":{"coordinates":[5.985987,45.550245],"type":"Point"},"properties":{"osm_id":"8643526717","tag":{"access":"yes","amenity":"waste_disposal"}},"type":"Feature"},
	{"geometry":{"coordinates":[5.977984,45.569733],"type":"Point"},"properties":{"osm_id":"8662382372","tag":{"amenity":"recycling","recycling_type":"container"}},"type":"Feature"},
	{"geometry":{"coordinates":[5.97916,45.571708],"type":"Point"},"properties":{"osm_id":"8665609235","tag":{"amenity":"recycling","recycling_type":"container"}},"type":"Feature"},
	{"geometry":{"coordinates":[5.97748,45.57166],"type":"Point"},"properties":{"osm_id":"8665609292","tag":{"amenity":"recycling","recycling_type":"container"}},"type":"Feature"},
	{"geometry":{"coordinates":[5.97992,45.568777],"type":"Point"},"properties":{"osm_id":"8743724669","tag":{"amenity":"recycling","recycling_type":"container"}},"type":"Feature"}
]
}
