{
"type": "FeatureCollection",
"features": [
	{"geometry":{"coordinates":[6.01509,45.435576],"type":"Point"},"properties":{"osm_id":"171840339","tag":{"amenity":"recycling"}},"type":"Feature"},
	{"geometry":{"coordinates":[6.014443,45.43785],"type":"Point"},"properties":{"osm_id":"191870843","tag":{"amenity":"recycling"}},"type":"Feature"},
	{"geometry":{"coordinates":[6.009549,45.437061],"type":"Point"},"properties":{"osm_id":"191870847","tag":{"amenity":"recycling"}},"type":"Feature"},
	{"geometry":{"coordinates":[6.017069,45.429963],"type":"Point"},"properties":{"osm_id":"191870850","tag":{"amenity":"recycling","recycling:cans":"yes","recycling:cardboard":"yes","recycling:glass":"yes","recycling:glass_bottles":"yes","recycling:paper":"yes","recycling_type":"container"}},"type":"Feature"},
	{"geometry":{"coordinates":[6.012891,45.419187],"type":"Point"},"properties":{"osm_id":"191874122","tag":{"amenity":"recycling","recycling:glass":"yes","recycling:paper":"yes","recycling_type":"container","survey:date":"2020-09-14"}},"type":"Feature"},
	{"geometry":{"coordinates":[6.013509,45.412899],"type":"Point"},"properties":{"osm_id":"247319228","tag":{"amenity":"recycling"}},"type":"Feature"},
	{"geometry":{"coordinates":[6.025129,45.434131],"type":"Point"},"properties":{"osm_id":"1436724238","tag":{"amenity":"recycling","recycling:cans":"yes","recycling:glass":"yes","recycling:paper":"yes","recycling_type":"container"}},"type":"Feature"},
	{"geometry":{"coordinates":[6.027077,45.431334],"type":"Point"},"properties":{"osm_id":"2267614497","tag":{"amenity":"recycling","recycling:glass":"yes","recycling:paper":"yes","recycling_type":"container"}},"type":"Feature"},
	{"geometry":{"coordinates":[6.014841,45.42359],"type":"Point"},"properties":{"osm_id":"5139551474","tag":{"amenity":"waste_basket"}},"type":"Feature"},
	{"geometry":{"coordinates":[6.020279,45.440961],"type":"Point"},"properties":{"osm_id":"5221343479","tag":{"amenity":"waste_basket"}},"type":"Feature"},
	{"geometry":{"coordinates":[6.020061,45.434638],"type":"Point"},"properties":{"osm_id":"5223433401","tag":{"amenity":"waste_basket"}},"type":"Feature"},
	{"geometry":{"coordinates":[6.006283,45.433473],"type":"Point"},"properties":{"osm_id":"5224471106","tag":{"amenity":"waste_basket"}},"type":"Feature"},
	{"geometry":{"coordinates":[6.062603,45.451451],"type":"Point"},"properties":{"osm_id":"5242518386","tag":{"amenity":"recycling","operator":"Le Relais","recycling:clothes":"yes","recycling_type":"container"}},"type":"Feature"},
	{"geometry":{"coordinates":[6.062646,45.451485],"type":"Point"},"properties":{"osm_id":"5242518387","tag":{"amenity":"recycling","recycling:cans":"yes","recycling:cardboard":"yes","recycling:glass":"yes","recycling:glass_bottles":"yes","recycling:paper":"yes","recycling:plastic":"yes","recycling_type":"container"}},"type":"Feature"},
	{"geometry":{"coordinates":[5.980795,45.431641],"type":"Point"},"properties":{"osm_id":"5784906477","tag":{"amenity":"recycling","location":"overground","recycling_type":"container"}},"type":"Feature"},
	{"geometry":{"coordinates":[6.031367,45.429152],"type":"Point"},"properties":{"osm_id":"6501693674","tag":{"amenity":"waste_basket","waste":"trash"}},"type":"Feature"},
	{"geometry":{"coordinates":[6.008912,45.432316],"type":"Point"},"properties":{"osm_id":"6516925414","tag":{"amenity":"recycling","recycling:cans":"yes","recycling:cardboard":"yes","recycling:glass":"yes","recycling:glass_bottles":"yes","recycling:green_waste":"no","recycling:paper":"yes","recycling_type":"container"}},"type":"Feature"},
	{"geometry":{"coordinates":[6.00648,45.435992],"type":"Point"},"properties":{"osm_id":"7846887885","tag":{"amenity":"waste_basket","survey:date":"2020-08-26"}},"type":"Feature"},
	{"geometry":{"coordinates":[6.007106,45.435793],"type":"Point"},"properties":{"osm_id":"7847006385","tag":{"amenity":"waste_basket","survey:date":"2020-08-26"}},"type":"Feature"},
	{"geometry":{"coordinates":[6.037917,45.427809],"type":"Point"},"properties":{"osm_id":"9074278321","tag":{"amenity":"recycling","recycling:green_waste":"yes","recycling_type":"container","survey:date":"2021-09-08"}},"type":"Feature"},
	{"geometry":{"coordinates":[6.037844,45.428654],"type":"Point"},"properties":{"osm_id":"9074278323","tag":{"amenity":"recycling","recycling_type":"container","survey:date":"2021-09-08"}},"type":"Feature"},
	{"geometry":{"coordinates":[6.007759,45.433756],"type":"Point"},"properties":{"osm_id":"9074293524","tag":{"amenity":"waste_basket","survey:date":"2021-09-08"}},"type":"Feature"}
]
}
