{
"type": "FeatureCollection",
"features": [
	{"geometry":{"coordinates":[6.022463,45.367053],"type":"Point"},"properties":{"osm_id":"726833238","tag":{"amenity":"recycling","recycling:glass":"yes"}},"type":"Feature"},
	{"geometry":{"coordinates":[5.982387,45.341643],"type":"Point"},"properties":{"osm_id":"1115976160","tag":{"amenity":"recycling"}},"type":"Feature"},
	{"geometry":{"coordinates":[6.050095,45.370879],"type":"Point"},"properties":{"osm_id":"1591137517","tag":{"amenity":"recycling"}},"type":"Feature"},
	{"geometry":{"coordinates":[6.016522,45.367171],"type":"Point"},"properties":{"osm_id":"1591143826","tag":{"amenity":"recycling","recycling_type":"container"}},"type":"Feature"},
	{"geometry":{"coordinates":[6.041888,45.364736],"type":"Point"},"properties":{"name":"D\u00c3\u00a9chetterie","osm_id":"2762632576","tag":{"amenity":"recycling","recycling_type":"centre"}},"type":"Feature"},
	{"geometry":{"coordinates":[5.978906,45.343782],"type":"Point"},"properties":{"osm_id":"3089749493","tag":{"amenity":"waste_basket"}},"type":"Feature"},
	{"geometry":{"coordinates":[5.983463,45.344362],"type":"Point"},"properties":{"osm_id":"3089749498","tag":{"amenity":"waste_disposal"}},"type":"Feature"},
	{"geometry":{"coordinates":[5.979054,45.341396],"type":"Point"},"properties":{"osm_id":"3092564066","tag":{"amenity":"waste_basket"}},"type":"Feature"},
	{"geometry":{"coordinates":[5.978476,45.343765],"type":"Point"},"properties":{"osm_id":"3092564084","tag":{"amenity":"waste_basket"}},"type":"Feature"},
	{"geometry":{"coordinates":[6.053774,45.3741],"type":"Point"},"properties":{"osm_id":"5167489670","tag":{"amenity":"recycling","recycling:cans":"yes","recycling:cardboard":"yes","recycling:glass":"yes","recycling:glass_bottles":"yes","recycling:paper":"yes","recycling:plastic":"yes","recycling:plastic_bottles":"yes","recycling_type":"container"}},"type":"Feature"},
	{"geometry":{"coordinates":[5.9962,45.357962],"type":"Point"},"properties":{"osm_id":"6499303731","tag":{"amenity":"recycling","recycling:cans":"yes","recycling:cardboard":"yes","recycling:glass":"yes","recycling:paper":"yes","recycling:plastic_bottles":"yes","recycling_type":"container"}},"type":"Feature"},
	{"geometry":{"coordinates":[5.991547,45.372771],"type":"Point"},"properties":{"osm_id":"7825676285","tag":{"amenity":"waste_basket","survey:date":"2020-08-19"}},"type":"Feature"},
	{"geometry":{"coordinates":[5.99142,45.372467],"type":"Point"},"properties":{"osm_id":"7825676286","tag":{"amenity":"waste_basket","survey:date":"2020-08-19"}},"type":"Feature"},
	{"geometry":{"coordinates":[5.992018,45.37047],"type":"Point"},"properties":{"osm_id":"7893221738","tag":{"amenity":"waste_basket"}},"type":"Feature"}
]
}
