{
"type": "FeatureCollection",
"features": [
	{"geometry":{"coordinates":[55.287102,-20.990916],"type":"Point"},"properties":{"name":"D\u00c3\u00a9chetterie de l\u00e2\u0080\u0099\u00c3\u00a9tang Saint-Paul","osm_id":"3240725580","tag":{"addr:city":"Saint-Paul","addr:postcode":"97460","addr:street":"Rue Jacob de la Haye","amenity":"waste_disposal"}},"type":"Feature"},
	{"geometry":{"coordinates":[55.29704,-21.041369],"type":"Point"},"properties":{"osm_id":"5715713645","tag":{"amenity":"waste_disposal","operator":"Mairie de Saint Paul"}},"type":"Feature"},
	{"geometry":{"coordinates":[55.304279,-21.040782],"type":"Point"},"properties":{"osm_id":"6247748785","tag":{"amenity":"waste_disposal","operator":"Stockage \u00c3\u00a0 l'air libre de gravats, terre, d\u00c3\u00a9chets de d\u00c3\u00a9molitions, tuyaux et regards."}},"type":"Feature"},
	{"geometry":{"coordinates":[55.309438,-20.993712],"type":"Point"},"properties":{"osm_id":"8761615636","tag":{"amenity":"recycling"}},"type":"Feature"},
	{"geometry":{"coordinates":[55.309422,-20.993546],"type":"Point"},"properties":{"osm_id":"8761632747","tag":{"amenity":"waste_basket"}},"type":"Feature"},
	{"geometry":{"coordinates":[55.330732,-20.967823],"type":"Point"},"properties":{"name":"Bac \u00c3\u00a0 verre","osm_id":"9172014281","tag":{"amenity":"recycling"}},"type":"Feature"}
]
}
