{
"type": "FeatureCollection",
"features": [
	{"geometry":{"coordinates":[35.188323,48.478832],"type":"Point"},"properties":{"osm_id":"4944036446","tag":{"amenity":"waste_disposal"}},"type":"Feature"},
	{"geometry":{"coordinates":[35.189751,48.472555],"type":"Point"},"properties":{"osm_id":"4944057197","tag":{"amenity":"waste_disposal"}},"type":"Feature"},
	{"geometry":{"coordinates":[35.195161,48.473952],"type":"Point"},"properties":{"osm_id":"4944057198","tag":{"amenity":"waste_disposal","collection_times":"week 02-52 08:00-20:00; week 02-52 Tu,Th,Sa off; week 01-53 Tu-Sa 08:00-20:00; week 01-53 We,Fr off; PH off"}},"type":"Feature"},
	{"geometry":{"coordinates":[35.198283,48.472804],"type":"Point"},"properties":{"osm_id":"4944057199","tag":{"amenity":"waste_disposal","collection_times":"week 02-52 08:00-20:00; week 02-52 Tu,Th,Sa off; week 01-53 Tu-Sa 08:00-20:00; week 01-53 We,Fr off; PH off"}},"type":"Feature"},
	{"geometry":{"coordinates":[35.19511,48.476791],"type":"Point"},"properties":{"osm_id":"4944065084","tag":{"amenity":"waste_disposal"}},"type":"Feature"},
	{"geometry":{"coordinates":[35.192846,48.477448],"type":"Point"},"properties":{"name":"\u00d0\u009c\u00d0\u00b0\u00d0\u00ba\u00d1\u0083\u00d0\u00bb\u00d0\u00b0\u00d1\u0082\u00d1\u0083\u00d1\u0080\u00d0\u00b0","osm_id":"4944205864","tag":{"addr:street":"\u0420\u043e\u043c\u0430\u043d\u043e\u0432\u0441\u044c\u043a\u043e\u0433\u043e \u0432\u0443\u043b\u0438\u0446\u044f","amenity":"recycling","recycling:paper":"yes","recycling_type":"centre"}},"type":"Feature"},
	{"geometry":{"coordinates":[35.189485,48.473751],"type":"Point"},"properties":{"osm_id":"4955057073","tag":{"amenity":"waste_disposal"}},"type":"Feature"},
	{"geometry":{"coordinates":[35.203282,48.467408],"type":"Point"},"properties":{"osm_id":"4956752155","tag":{"amenity":"waste_disposal"}},"type":"Feature"},
	{"geometry":{"coordinates":[35.200141,48.473336],"type":"Point"},"properties":{"osm_id":"4956939120","tag":{"amenity":"waste_disposal"}},"type":"Feature"},
	{"geometry":{"coordinates":[35.160381,48.478529],"type":"Point"},"properties":{"osm_id":"5010112862","tag":{"amenity":"waste_disposal"}},"type":"Feature"},
	{"geometry":{"coordinates":[35.192653,48.477117],"type":"Point"},"properties":{"osm_id":"5239463008","tag":{"amenity":"waste_disposal"}},"type":"Feature"},
	{"geometry":{"coordinates":[35.19745,48.477176],"type":"Point"},"properties":{"osm_id":"6684414682","tag":{"amenity":"waste_disposal"}},"type":"Feature"},
	{"geometry":{"coordinates":[35.201987,48.473972],"type":"Point"},"properties":{"osm_id":"6684414683","tag":{"amenity":"waste_disposal"}},"type":"Feature"},
	{"geometry":{"coordinates":[35.198704,48.475203],"type":"Point"},"properties":{"osm_id":"6909725397","tag":{"amenity":"waste_disposal"}},"type":"Feature"},
	{"geometry":{"coordinates":[35.201636,48.471458],"type":"Point"},"properties":{"osm_id":"6909751531","tag":{"amenity":"waste_disposal"}},"type":"Feature"},
	{"geometry":{"coordinates":[35.198438,48.466048],"type":"Point"},"properties":{"osm_id":"7618386968","tag":{"amenity":"recycling","recycling:plastic":"yes","recycling_type":"container"}},"type":"Feature"},
	{"geometry":{"coordinates":[35.196008,48.476274],"type":"Point"},"properties":{"osm_id":"7618386969","tag":{"amenity":"recycling","recycling:batteries":"yes","recycling_type":"container"}},"type":"Feature"}
]
}
