{
"type": "FeatureCollection",
"features": [
	{"geometry":{"coordinates":[35.208835,32.384262],"type":"Point"},"properties":{"osm_id":"4500169989","tag":{"amenity":"recycling","name:en":"Zahrat El Finjan landfill"}},"type":"Feature"},
	{"geometry":{"coordinates":[35.214599,32.327564],"type":"Point"},"properties":{"name":"\u00d9\u0085\u00d8\u00ae\u00d8\u00a7\u00d8\u00b2\u00d9\u0086 \u00d9\u0088\u00d9\u0085\u00d8\u00b3\u00d8\u00aa\u00d9\u0088\u00d8\u00af\u00d8\u00b9\u00d8\u00a7\u00d8\u00aa \u00d8\u00a7\u00d9\u0084\u00d8\u00ae\u00d8\u00b7\u00d9\u008a\u00d8\u00a8","osm_id":"4738193122","tag":{"amenity":"recycling","name:ar":"\u00d9\u0085\u00d8\u00ae\u00d8\u00a7\u00d8\u00b2\u00d9\u0086 \u00d9\u0088\u00d9\u0085\u00d8\u00b3\u00d8\u00aa\u00d9\u0088\u00d8\u00af\u00d8\u00b9\u00d8\u00a7\u00d8\u00aa \u00d8\u00a7\u00d9\u0084\u00d8\u00ae\u00d8\u00b7\u00d9\u008a\u00d8\u00a8"}},"type":"Feature"},
	{"geometry":{"coordinates":[35.198379,32.393644],"type":"Point"},"properties":{"name":"\u00d9\u0085\u00d8\u00b5\u00d9\u0086\u00d8\u00b9 \u00d9\u0088 \u00d9\u0085\u00d8\u00b9\u00d8\u00b5\u00d8\u00b1\u00d8\u00a9 \u00d8\u00a7\u00d9\u0084\u00d9\u0086\u00d8\u00b2\u00d8\u00a7\u00d8\u00b2\u00d8\u00a9","osm_id":"5083130621","tag":{"amenity":"recycling","name:ar":"\u00d9\u0085\u00d8\u00b5\u00d9\u0086\u00d8\u00b9 \u00d9\u0088 \u00d9\u0085\u00d8\u00b9\u00d8\u00b5\u00d8\u00b1\u00d8\u00a9 \u00d8\u00a7\u00d9\u0084\u00d9\u0086\u00d8\u00b2\u00d8\u00a7\u00d8\u00b2\u00d8\u00a9","name:en":"Al nazzazea","phone":"0599473105"}},"type":"Feature"},
	{"geometry":{"coordinates":[35.205443,32.380737],"type":"Point"},"properties":{"osm_id":"6681176485","tag":{"amenity":"waste_disposal","operator":"\u00d8\u00b2\u00d9\u0087\u00d8\u00b1\u00d8\u00a9 \u00d8\u00a7\u00d9\u0084\u00d9\u0081\u00d9\u0086\u00d8\u00ac\u00d8\u00a7\u00d9\u0086"}},"type":"Feature"},
	{"geometry":{"coordinates":[35.205435,32.381307],"type":"Point"},"properties":{"osm_id":"6705372685","tag":{"amenity":"waste_disposal","operator":"\u00d9\u0088\u00d8\u00b2\u00d8\u00a7\u00d8\u00b1\u00d8\u00a9 \u00d8\u00a7\u00d9\u0084\u00d8\u00ad\u00d9\u0083\u00d9\u0085 \u00d8\u00a7\u00d9\u0084\u00d9\u0085\u00d8\u00ad\u00d9\u0084\u00d9\u008a"}},"type":"Feature"},
	{"geometry":{"coordinates":[35.20542,32.381328],"type":"Point"},"properties":{"osm_id":"6705372785","tag":{"amenity":"waste_disposal","operator":"\u00d9\u0088\u00d8\u00b2\u00d8\u00a7\u00d8\u00b1\u00d8\u00a9 \u00d8\u00a7\u00d9\u0084\u00d8\u00ad\u00d9\u0083\u00d9\u0085 \u00d8\u00a7\u00d9\u0084\u00d9\u0085\u00d8\u00ad\u00d9\u0084\u00d9\u008a"}},"type":"Feature"}
]
}
