{
"type": "FeatureCollection",
"features": [
	{"geometry":{"coordinates":[19.334876,50.581128],"type":"Point"},"properties":{"highway":"bus_stop","osm_id":"3358590705","tag":{"amenity":"waste_basket","bus":"yes","public_transport":"platform"}},"type":"Feature"},
	{"geometry":{"coordinates":[19.334766,50.581028],"type":"Point"},"properties":{"osm_id":"3783071157","tag":{"amenity":"waste_basket"}},"type":"Feature"},
	{"geometry":{"coordinates":[19.328241,50.574827],"type":"Point"},"properties":{"osm_id":"4865905287","tag":{"amenity":"waste_basket"}},"type":"Feature"},
	{"geometry":{"coordinates":[19.328163,50.574711],"type":"Point"},"properties":{"osm_id":"4865905288","tag":{"amenity":"waste_basket"}},"type":"Feature"},
	{"geometry":{"coordinates":[19.326441,50.576704],"type":"Point"},"properties":{"osm_id":"9049421429","tag":{"amenity":"waste_basket","waste":"trash"}},"type":"Feature"},
	{"geometry":{"coordinates":[19.324559,50.576647],"type":"Point"},"properties":{"osm_id":"9049430860","tag":{"amenity":"waste_basket","waste":"trash"}},"type":"Feature"},
	{"geometry":{"coordinates":[19.323776,50.576749],"type":"Point"},"properties":{"osm_id":"9049430861","tag":{"amenity":"waste_basket","waste":"trash"}},"type":"Feature"},
	{"geometry":{"coordinates":[19.32413,50.576707],"type":"Point"},"properties":{"osm_id":"9049430862","tag":{"amenity":"waste_basket","waste":"trash"}},"type":"Feature"},
	{"geometry":{"coordinates":[19.323898,50.576882],"type":"Point"},"properties":{"osm_id":"9049430863","tag":{"amenity":"waste_basket","waste":"trash"}},"type":"Feature"},
	{"geometry":{"coordinates":[19.323739,50.576916],"type":"Point"},"properties":{"osm_id":"9049430864","tag":{"amenity":"waste_basket","waste":"trash"}},"type":"Feature"}
]
}
