{
"type": "FeatureCollection",
"features": [
	{"geometry":{"coordinates":[19.282602,47.686244],"type":"Point"},"properties":{"osm_id":"2916411297","tag":{"amenity":"waste_basket"}},"type":"Feature"},
	{"geometry":{"coordinates":[19.276254,47.682727],"type":"Point"},"properties":{"osm_id":"4792174324","tag":{"amenity":"waste_basket"}},"type":"Feature"},
	{"geometry":{"coordinates":[19.277125,47.68359],"type":"Point"},"properties":{"osm_id":"4990236448","tag":{"amenity":"waste_basket"}},"type":"Feature"},
	{"geometry":{"coordinates":[19.263205,47.687159],"type":"Point"},"properties":{"osm_id":"4990236556","tag":{"amenity":"waste_basket"}},"type":"Feature"},
	{"geometry":{"coordinates":[19.276888,47.68358],"type":"Point"},"properties":{"osm_id":"4990236557","tag":{"amenity":"waste_basket"}},"type":"Feature"},
	{"geometry":{"coordinates":[19.278317,47.684372],"type":"Point"},"properties":{"osm_id":"4990236790","tag":{"amenity":"waste_basket"}},"type":"Feature"},
	{"geometry":{"coordinates":[19.290493,47.694012],"type":"Point"},"properties":{"osm_id":"5001606820","tag":{"amenity":"waste_basket"}},"type":"Feature"},
	{"geometry":{"coordinates":[19.288391,47.646855],"type":"Point"},"properties":{"name":"GAMESZ","osm_id":"5271341721","tag":{"addr:city":"Veresegyh\u00c3\u00a1z","addr:housenumber":"4","addr:postcode":"2112","addr:street":"Sport utca","amenity":"recycling","contact:email":"gamesz@veresegyhaz.hu","contact:fax":"+36 28 586 045","contact:phone":"+36 28 585 190","contact:website":"https://www.veresegyhaz.hu/gamesz-fomenu","description":"Hullad\u00c3\u00a9kok \u00c3\u00a1tv\u00c3\u00a9tel\u00c3\u00a9t (elektronikai, sitt, lom stb) \u00c3\u00a9s v\u00c3\u00a1ros\u00c3\u00bczemeltet\u00c3\u00a9si feladatokat ell\u00c3\u00a1t\u00c3\u00b3 hely.","operator":"Veresegyh\u00c3\u00a1z \u00c3\u0096nkorm\u00c3\u00a1nyzat","recycling_type":"centre"}},"type":"Feature"}
]
}
