{
"type": "FeatureCollection",
"lastupdate": "2020-08-01T00:00:00Z",
"features": [
	{"geometry":{"coordinates":[19.259667,47.399767],"type":"Point"},"properties":{"osm_id":"3471835362","tag":{"addr:street":"Martinivics t\u00e9r Arany J u sarok","amenity":"recycling","recycling:glass_bottles":"yes","recycling:paper":"yes","recycling:plastic_bottles":"yes","recycling_type":"container","source:date":"2011-05-16","url":"http://turistautak.hu/poi.php?id=27720"}},"type":"Feature"},
	{"geometry":{"coordinates":[19.273323,47.403352],"type":"Point"},"properties":{"osm_id":"3471835372","tag":{"amenity":"recycling","source:date":"2008-09-09","url":"http://turistautak.hu/poi.php?id=54692"}},"type":"Feature"},
	{"geometry":{"coordinates":[19.281283,47.407047],"type":"Point"},"properties":{"osm_id":"3471835385","tag":{"amenity":"recycling","source:date":"2008-09-12","url":"http://turistautak.hu/poi.php?id=54693"}},"type":"Feature"},
	{"geometry":{"coordinates":[19.256918,47.407302],"type":"Point"},"properties":{"osm_id":"3471835387","tag":{"addr:street":"L\u0151rinci \u00fat \u00e9s D\u00f3zsa Gy\u00f6rgy \u00fat sark\u00e1n\u00e1l","amenity":"recycling","description":"Apr\u00f3 gy\u0171jt\u0151sziget a vas\u00fati \u00e1tj\u00e1r\u00f3 k\u00f6zel\u00e9ben. \u00dczemelteti a Vet\u00fcsz kft","recycling:glass_bottles":"yes","recycling:paper":"yes","recycling_type":"container","source:date":"2008-08-13","url":"http://turistautak.hu/poi.php?id=27714"}},"type":"Feature"},
	{"geometry":{"coordinates":[19.286435,47.407563],"type":"Point"},"properties":{"osm_id":"3471835388","tag":{"amenity":"recycling","source:date":"2011-05-16","url":"http://turistautak.hu/poi.php?id=54688"}},"type":"Feature"},
	{"geometry":{"coordinates":[19.256352,47.408835],"type":"Point"},"properties":{"osm_id":"3471836693","tag":{"addr:street":"Vecs\u00e9s vas\u00fat\u00e1llom\u00e1s parkol\u00f3ja","amenity":"recycling","source:date":"2010-04-28","url":"http://turistautak.hu/poi.php?id=48163"}},"type":"Feature"},
	{"geometry":{"coordinates":[19.248467,47.40935],"type":"Point"},"properties":{"osm_id":"3471836695","tag":{"addr:street":"Halmy J\u00f3zsef t\u00e9r","amenity":"recycling","description":"H\u00e1rom hagyom\u00e1nyos szemeteskont\u00e9ner form\u00e1j\u00fa","recycling:glass_bottles":"yes","recycling:paper":"yes","recycling:plastic_bottles":"yes","recycling_type":"container","source:date":"2011-05-16","url":"http://turistautak.hu/poi.php?id=1858"}},"type":"Feature"},
	{"geometry":{"coordinates":[19.26,47.411033],"type":"Point"},"properties":{"osm_id":"3471836702","tag":{"addr:city":"Vecs\u00e9s","amenity":"recycling","description":"K\u00e1roly utca Pet\u0151fi t\u00e9r sarok","source:date":"2010-04-28","url":"http://turistautak.hu/poi.php?id=48153"}},"type":"Feature"},
	{"geometry":{"coordinates":[19.26211,47.423324],"type":"Point"},"properties":{"osm_id":"5151298447","tag":{"amenity":"waste_basket"}},"type":"Feature"},
	{"geometry":{"coordinates":[19.262004,47.423266],"type":"Point"},"properties":{"osm_id":"5151298448","tag":{"amenity":"waste_basket"}},"type":"Feature"},
	{"geometry":{"coordinates":[19.262289,47.424715],"type":"Point"},"properties":{"osm_id":"5151298453","tag":{"amenity":"waste_basket"}},"type":"Feature"},
	{"geometry":{"coordinates":[19.262745,47.424824],"type":"Point"},"properties":{"osm_id":"5151298454","tag":{"amenity":"waste_basket"}},"type":"Feature"},
	{"geometry":{"coordinates":[19.263258,47.424329],"type":"Point"},"properties":{"osm_id":"5151298455","tag":{"amenity":"waste_basket"}},"type":"Feature"},
	{"geometry":{"coordinates":[19.33528,47.456827],"type":"Point"},"properties":{"osm_id":"5798143375","tag":{"amenity":"recycling","recycling:batteries":"yes","recycling:small_appliances":"yes","recycling_type":"container"}},"type":"Feature"},
	{"geometry":{"coordinates":[19.322083,47.441836],"type":"Point"},"properties":{"osm_id":"6895136149","tag":{"amenity":"waste_basket"}},"type":"Feature"}
]
}
