{
"type": "FeatureCollection",
"features": [
	{"geometry":{"coordinates":[7.418411,53.731793],"type":"Point"},"properties":{"name":"Strand-M\u00c3\u00bcll-Box","osm_id":"325976424","tag":{"amenity":"waste_basket"}},"type":"Feature"},
	{"geometry":{"coordinates":[7.383389,53.730024],"type":"Point"},"properties":{"osm_id":"531288365","tag":{"amenity":"recycling","recycling:glass_bottles":"yes","recycling_type":"container"}},"type":"Feature"},
	{"geometry":{"coordinates":[7.429535,53.727861],"type":"Point"},"properties":{"name":"Strand-M\u00c3\u00bcll-Box","osm_id":"3002765996","tag":{"amenity":"waste_basket"}},"type":"Feature"},
	{"geometry":{"coordinates":[7.411964,53.732236],"type":"Point"},"properties":{"name":"Strand-M\u00c3\u00bcll-Box","osm_id":"3003540333","tag":{"amenity":"waste_basket"}},"type":"Feature"},
	{"geometry":{"coordinates":[7.405572,53.733127],"type":"Point"},"properties":{"name":"Strand-M\u00c3\u00bcll-Box","osm_id":"3003540433","tag":{"amenity":"waste_basket"}},"type":"Feature"},
	{"geometry":{"coordinates":[7.396559,53.734741],"type":"Point"},"properties":{"name":"Strand-M\u00c3\u00bcll-Box","osm_id":"3003540533","tag":{"amenity":"waste_basket"}},"type":"Feature"},
	{"geometry":{"coordinates":[7.396468,53.730445],"type":"Point"},"properties":{"osm_id":"3014564933","tag":{"amenity":"waste_basket"}},"type":"Feature"},
	{"geometry":{"coordinates":[7.387675,53.729193],"type":"Point"},"properties":{"osm_id":"3014565334","tag":{"amenity":"waste_basket"}},"type":"Feature"},
	{"geometry":{"coordinates":[7.385943,53.72926],"type":"Point"},"properties":{"osm_id":"3014565335","tag":{"amenity":"waste_basket"}},"type":"Feature"},
	{"geometry":{"coordinates":[7.384734,53.729206],"type":"Point"},"properties":{"osm_id":"3014565533","tag":{"amenity":"waste_basket"}},"type":"Feature"},
	{"geometry":{"coordinates":[7.383312,53.729991],"type":"Point"},"properties":{"osm_id":"3014565534","tag":{"amenity":"waste_basket"}},"type":"Feature"},
	{"geometry":{"coordinates":[7.386298,53.727338],"type":"Point"},"properties":{"osm_id":"3016396338","tag":{"amenity":"waste_basket"}},"type":"Feature"},
	{"geometry":{"coordinates":[7.387357,53.724924],"type":"Point"},"properties":{"osm_id":"3016439035","tag":{"amenity":"waste_basket"}},"type":"Feature"},
	{"geometry":{"coordinates":[7.386159,53.727784],"type":"Point"},"properties":{"osm_id":"3016481734","tag":{"amenity":"waste_basket"}},"type":"Feature"},
	{"geometry":{"coordinates":[7.385958,53.728791],"type":"Point"},"properties":{"osm_id":"3016481833","tag":{"amenity":"waste_basket"}},"type":"Feature"},
	{"geometry":{"coordinates":[7.384141,53.729395],"type":"Point"},"properties":{"osm_id":"3017105033","tag":{"amenity":"waste_basket"}},"type":"Feature"},
	{"geometry":{"coordinates":[7.417316,53.725285],"type":"Point"},"properties":{"osm_id":"3020268934","tag":{"amenity":"waste_basket","opening_hours":"2018 Jun-2018 Oct closed \"gesperrt wegen Hornissennest \""}},"type":"Feature"},
	{"geometry":{"coordinates":[7.38867,53.726105],"type":"Point"},"properties":{"osm_id":"5695856176","tag":{"amenity":"waste_basket"}},"type":"Feature"},
	{"geometry":{"coordinates":[7.383995,53.72737],"type":"Point"},"properties":{"osm_id":"5825896392","tag":{"amenity":"waste_basket"}},"type":"Feature"},
	{"geometry":{"coordinates":[7.393599,53.727249],"type":"Point"},"properties":{"osm_id":"5832571869","tag":{"amenity":"waste_basket"}},"type":"Feature"},
	{"geometry":{"coordinates":[7.385748,53.725399],"type":"Point"},"properties":{"osm_id":"6594594368","tag":{"amenity":"waste_basket"}},"type":"Feature"},
	{"geometry":{"coordinates":[7.383806,53.725791],"type":"Point"},"properties":{"osm_id":"6594594378","tag":{"amenity":"waste_basket"}},"type":"Feature"}
]
}
