{
"type": "FeatureCollection",
"features": [
	{"geometry":{"coordinates":[7.457971,53.309199],"type":"Point"},"properties":{"name":"Recyclinghof Moormerland","osm_id":"3909210505","tag":{"addr:city":"Moormerland","addr:housenumber":"9","addr:postcode":"26802","addr:street":"Borgwardring","addr:suburb":"Neermoor","amenity":"recycling","opening_hours":"Fr 13:00-18:00; Sa 08:00-14:00; PH off","operator":"Landkreis Leer","phone":"+49 800 9252423","recycling_type":"centre","website":"https://www.all-leer.de/"}},"type":"Feature"},
	{"geometry":{"coordinates":[7.452297,53.290411],"type":"Point"},"properties":{"osm_id":"4086366196","tag":{"amenity":"waste_basket"}},"type":"Feature"},
	{"geometry":{"coordinates":[7.449237,53.316861],"type":"Point"},"properties":{"osm_id":"5968637804","tag":{"amenity":"waste_basket"}},"type":"Feature"},
	{"geometry":{"coordinates":[7.429353,53.306733],"type":"Point"},"properties":{"osm_id":"7084067559","tag":{"amenity":"waste_basket","waste":"trash"}},"type":"Feature"}
]
}
