{
"type": "FeatureCollection",
"features": [
	{"geometry":{"coordinates":[7.454521,52.114044],"type":"Point"},"properties":{"osm_id":"333720680","tag":{"amenity":"recycling","recycling:glass":"yes"}},"type":"Feature"},
	{"geometry":{"coordinates":[7.392906,52.128264],"type":"Point"},"properties":{"name":"Rathausparkplatz","osm_id":"1449033787","tag":{"amenity":"recycling","opening_hours":"Mo-Sa 07:00-20:00","recycling:clothes":"yes","recycling:glass":"yes","recycling:glass_bottles":"yes"}},"type":"Feature"},
	{"geometry":{"coordinates":[7.405808,52.121599],"type":"Point"},"properties":{"name":"Parkplatz am Fitnessstudio","osm_id":"1449035170","tag":{"amenity":"recycling","opening_hours":"Mo-Sa 07:00-20:00","recycling:clothes":"yes","recycling:glass":"yes","recycling:glass_bottles":"yes","recycling:shoes":"yes"}},"type":"Feature"},
	{"geometry":{"coordinates":[7.401502,52.11014],"type":"Point"},"properties":{"name":"K+K","osm_id":"1449036710","tag":{"amenity":"recycling","location":"overground","opening_hours":"Mo-Sa 07:00-20:00","recycling:glass":"yes","recycling:glass_bottles":"yes","recycling_type":"container"}},"type":"Feature"},
	{"geometry":{"coordinates":[7.398841,52.118458],"type":"Point"},"properties":{"osm_id":"8864424241","tag":{"amenity":"waste_basket","waste":"trash"}},"type":"Feature"},
	{"geometry":{"coordinates":[7.398212,52.118585],"type":"Point"},"properties":{"osm_id":"8864424242","tag":{"amenity":"waste_basket","waste":"trash"}},"type":"Feature"},
	{"geometry":{"coordinates":[7.39794,52.118648],"type":"Point"},"properties":{"osm_id":"8864424246","tag":{"amenity":"waste_basket","waste":"trash"}},"type":"Feature"}
]
}
