{
"type": "FeatureCollection",
"features": [
	{"geometry":{"coordinates":[7.466293,52.04873],"type":"Point"},"properties":{"osm_id":"526859249","tag":{"amenity":"recycling","recycling:glass_bottles":"yes"}},"type":"Feature"},
	{"geometry":{"coordinates":[7.464137,52.046779],"type":"Point"},"properties":{"osm_id":"2889688080","tag":{"amenity":"recycling","recycling:glass_bottles":"yes","recycling_type":"container"}},"type":"Feature"},
	{"geometry":{"coordinates":[7.464123,52.046806],"type":"Point"},"properties":{"osm_id":"2889688081","tag":{"amenity":"recycling","recycling:clothes":"yes","recycling_type":"container"}},"type":"Feature"},
	{"geometry":{"coordinates":[7.458106,52.041902],"type":"Point"},"properties":{"osm_id":"5035648508","tag":{"amenity":"waste_basket","mapillary":"yTBwHMn8U_sk5EgbM3YOCA"}},"type":"Feature"},
	{"geometry":{"coordinates":[7.458453,52.041096],"type":"Point"},"properties":{"osm_id":"6581379201","tag":{"amenity":"waste_basket"}},"type":"Feature"},
	{"geometry":{"coordinates":[7.465834,52.049686],"type":"Point"},"properties":{"osm_id":"6581578448","tag":{"amenity":"waste_basket"}},"type":"Feature"},
	{"geometry":{"coordinates":[7.466078,52.046145],"type":"Point"},"properties":{"osm_id":"7138838034","tag":{"amenity":"waste_basket"}},"type":"Feature"}
]
}
