{
"type": "FeatureCollection",
"features": [
	{"geometry":{"coordinates":[7.433662,51.756728],"type":"Point"},"properties":{"name":"Wertstoffhof","osm_id":"270703443","tag":{"addr:city":"L\u00c3\u00bcdinghausen","addr:housenumber":"22","addr:street":"Robert-Bosch-Stra\u00c3\u009fe","amenity":"recycling","opening_hours":"Tu 09:00-18:00, Th-Fr 14:00-18:00; Sa 09:00-15:00","recycling_type":"centre"}},"type":"Feature"},
	{"geometry":{"coordinates":[7.459409,51.768508],"type":"Point"},"properties":{"osm_id":"436483509","tag":{"amenity":"recycling","recycling:clothes":"yes","recycling:glass":"yes","recycling_type":"container"}},"type":"Feature"},
	{"geometry":{"coordinates":[7.443168,51.762216],"type":"Point"},"properties":{"osm_id":"437465450","tag":{"amenity":"recycling","contact:phone":"+49 2541 94450","operator:clothes":"A&QUA","operator:glass":"Remondis","operator:scrap_metal":"Lohmann GmbH","recycling:clothes":"yes","recycling:glass":"yes","recycling:scrap_metal":"yes","recycling_type":"container"}},"type":"Feature"},
	{"geometry":{"coordinates":[7.455722,51.766952],"type":"Point"},"properties":{"osm_id":"606169028","tag":{"amenity":"recycling","contact:phone":"+49 2541 94450","operator":"Remondis","recycling:glass":"yes","recycling:glass_bottles":"yes","recycling_type":"container"}},"type":"Feature"},
	{"geometry":{"coordinates":[7.440579,51.770141],"type":"Point"},"properties":{"osm_id":"613514021","tag":{"amenity":"recycling","operator":"Deutsches Rotes Kreuz","recycling:clothes":"yes","recycling:glass":"yes","recycling_type":"container"}},"type":"Feature"},
	{"geometry":{"coordinates":[7.433866,51.76959],"type":"Point"},"properties":{"osm_id":"652723766","tag":{"amenity":"recycling","recycling:glass":"yes"}},"type":"Feature"},
	{"geometry":{"coordinates":[7.451531,51.754645],"type":"Point"},"properties":{"osm_id":"670711832","tag":{"amenity":"recycling","contact:phone":"+49 2541 94450","operator:clothes":"A-Qua, Kolping","operator:glass":"Remondis","recycling:glass":"yes","recycling_type":"container"}},"type":"Feature"},
	{"geometry":{"coordinates":[7.453704,51.756635],"type":"Point"},"properties":{"osm_id":"670711834","tag":{"amenity":"recycling","recycling:clothes":"yes","recycling:glass":"yes"}},"type":"Feature"},
	{"geometry":{"coordinates":[7.409469,51.777502],"type":"Point"},"properties":{"osm_id":"673480872","tag":{"amenity":"recycling","recycling:glass_bottles":"yes","recycling_type":"container"}},"type":"Feature"},
	{"geometry":{"coordinates":[7.440866,51.766092],"type":"Point"},"properties":{"osm_id":"683082055","tag":{"amenity":"recycling","recycling:glass":"yes","recycling_type":"container"}},"type":"Feature"},
	{"geometry":{"coordinates":[7.45855,51.755194],"type":"Point"},"properties":{"osm_id":"1859244924","tag":{"amenity":"waste_basket"}},"type":"Feature"},
	{"geometry":{"coordinates":[7.393651,51.758741],"type":"Point"},"properties":{"osm_id":"2019750894","tag":{"amenity":"recycling","recycling:glass":"yes","recycling:glass_bottles":"yes","recycling_type":"container"}},"type":"Feature"},
	{"geometry":{"coordinates":[7.46301,51.773853],"type":"Point"},"properties":{"osm_id":"3937552588","tag":{"amenity":"recycling","contact:phone":"+49 2541 94450","recycling:glass":"yes","recycling_type":"container"}},"type":"Feature"},
	{"geometry":{"coordinates":[7.449746,51.772697],"type":"Point"},"properties":{"osm_id":"4412998190","tag":{"amenity":"recycling","operator":"Deutsches Rotes Kreuz","recycling:clothes":"yes","recycling_type":"container"}},"type":"Feature"},
	{"geometry":{"coordinates":[7.461185,51.76205],"type":"Point"},"properties":{"osm_id":"4415069279","tag":{"amenity":"recycling","operator:clothes":"DRK","recycling:clothes":"yes","recycling:glass":"no","recycling_type":"container"}},"type":"Feature"},
	{"geometry":{"coordinates":[7.455638,51.766962],"type":"Point"},"properties":{"osm_id":"5145366205","tag":{"amenity":"recycling","contact:phone":"+49 2064 4974 514","operator":"Aktion Friedensdorf","recycling:clothes":"yes","recycling_type":"container"}},"type":"Feature"},
	{"geometry":{"coordinates":[7.388133,51.759911],"type":"Point"},"properties":{"osm_id":"5146945675","tag":{"amenity":"recycling","recycling:clothes":"yes","recycling:glass":"yes","recycling:glass_bottles":"yes","recycling:shoes":"yes","recycling_type":"container"}},"type":"Feature"},
	{"geometry":{"coordinates":[7.397714,51.764291],"type":"Point"},"properties":{"osm_id":"5147027599","tag":{"amenity":"recycling","recycling:glass":"yes","recycling:glass_bottles":"yes","recycling_type":"container"}},"type":"Feature"},
	{"geometry":{"coordinates":[7.390027,51.764926],"type":"Point"},"properties":{"osm_id":"5147027600","tag":{"amenity":"recycling","recycling:glass":"yes","recycling:glass_bottles":"yes","recycling_type":"container"}},"type":"Feature"},
	{"geometry":{"coordinates":[7.386805,51.765309],"type":"Point"},"properties":{"osm_id":"5147027601","tag":{"amenity":"recycling","recycling:clothes":"yes","recycling:glass":"yes","recycling:glass_bottles":"yes","recycling:shoes":"yes","recycling_type":"container"}},"type":"Feature"},
	{"geometry":{"coordinates":[7.392667,51.768065],"type":"Point"},"properties":{"osm_id":"5202607303","tag":{"amenity":"waste_basket"}},"type":"Feature"},
	{"geometry":{"coordinates":[7.395483,51.760851],"type":"Point"},"properties":{"osm_id":"5202607306","tag":{"amenity":"waste_basket"}},"type":"Feature"},
	{"geometry":{"coordinates":[7.451092,51.764199],"type":"Point"},"properties":{"osm_id":"5277523014","tag":{"amenity":"waste_basket"}},"type":"Feature"},
	{"geometry":{"coordinates":[7.449458,51.764924],"type":"Point"},"properties":{"osm_id":"5277523015","tag":{"amenity":"waste_basket"}},"type":"Feature"},
	{"geometry":{"coordinates":[7.447042,51.76637],"type":"Point"},"properties":{"osm_id":"5840055812","tag":{"amenity":"waste_basket"}},"type":"Feature"},
	{"geometry":{"coordinates":[7.427441,51.762735],"type":"Point"},"properties":{"name":"ASH Altmetallen","osm_id":"5848244365","tag":{"amenity":"recycling","recycling:metal":"yes","recycling_type":"centre","website":"http://www.altmetallen.de/"}},"type":"Feature"},
	{"geometry":{"coordinates":[7.444165,51.774586],"type":"Point"},"properties":{"osm_id":"5856504259","tag":{"amenity":"waste_basket"}},"type":"Feature"},
	{"geometry":{"coordinates":[7.395526,51.763078],"type":"Point"},"properties":{"osm_id":"6035050445","tag":{"amenity":"recycling","recycling:clothes":"yes","recycling_type":"container"}},"type":"Feature"},
	{"geometry":{"coordinates":[7.45394,51.760204],"type":"Point"},"properties":{"osm_id":"6329056694","tag":{"amenity":"waste_basket"}},"type":"Feature"},
	{"geometry":{"coordinates":[7.442246,51.774543],"type":"Point"},"properties":{"osm_id":"6521522193","tag":{"amenity":"waste_basket"}},"type":"Feature"},
	{"geometry":{"coordinates":[7.44083,51.773643],"type":"Point"},"properties":{"osm_id":"6521522194","tag":{"amenity":"waste_basket"}},"type":"Feature"},
	{"geometry":{"coordinates":[7.440232,51.773925],"type":"Point"},"properties":{"osm_id":"6521522195","tag":{"amenity":"waste_basket"}},"type":"Feature"},
	{"geometry":{"coordinates":[7.440613,51.769918],"type":"Point"},"properties":{"osm_id":"6630768459","tag":{"amenity":"waste_basket"}},"type":"Feature"},
	{"geometry":{"coordinates":[7.440279,51.770376],"type":"Point"},"properties":{"osm_id":"6630768460","tag":{"amenity":"waste_basket"}},"type":"Feature"},
	{"geometry":{"coordinates":[7.444554,51.766292],"type":"Point"},"properties":{"osm_id":"6630832280","tag":{"amenity":"waste_basket"}},"type":"Feature"},
	{"geometry":{"coordinates":[7.443959,51.76171],"type":"Point"},"properties":{"osm_id":"6630832281","tag":{"amenity":"waste_basket"}},"type":"Feature"},
	{"geometry":{"coordinates":[7.444727,51.762625],"type":"Point"},"properties":{"osm_id":"6630832282","tag":{"amenity":"waste_basket"}},"type":"Feature"},
	{"geometry":{"coordinates":[7.45652,51.763232],"type":"Point"},"properties":{"osm_id":"6630832283","tag":{"amenity":"waste_basket"}},"type":"Feature"},
	{"geometry":{"coordinates":[7.460736,51.744599],"type":"Point"},"properties":{"osm_id":"6630832284","tag":{"amenity":"waste_basket"}},"type":"Feature"},
	{"geometry":{"coordinates":[7.45884,51.751838],"type":"Point"},"properties":{"osm_id":"6630833685","tag":{"amenity":"waste_basket"}},"type":"Feature"}
]
}
