{
"type": "FeatureCollection",
"features": [
	{"geometry":{"coordinates":[7.428316,51.474421],"type":"Point"},"properties":{"osm_id":"278597236","tag":{"amenity":"recycling","location":"overground","recycling:glass_bottles":"yes","recycling:paper":"yes","recycling_type":"container"}},"type":"Feature"},
	{"geometry":{"coordinates":[7.442637,51.476598],"type":"Point"},"properties":{"osm_id":"283545876","tag":{"amenity":"recycling","opening_hours":"Mo-Sa 07:00-19:00","operator":"Entsorgung Dortmund GmbH","recycling:clothes":"yes","recycling:glass_bottles":"yes","recycling:paper":"yes","recycling_type":"container"}},"type":"Feature"},
	{"geometry":{"coordinates":[7.427307,51.471333],"type":"Point"},"properties":{"osm_id":"283549241","tag":{"amenity":"recycling"}},"type":"Feature"},
	{"geometry":{"coordinates":[7.411709,51.477235],"type":"Point"},"properties":{"osm_id":"283549434","tag":{"amenity":"recycling","recycling:glass_bottles":"yes","recycling:paper":"yes","recycling_type":"container"}},"type":"Feature"},
	{"geometry":{"coordinates":[7.466251,51.503033],"type":"Point"},"properties":{"osm_id":"290678137","tag":{"amenity":"recycling","location":"overground","recycling_type":"container"}},"type":"Feature"},
	{"geometry":{"coordinates":[7.430145,51.492965],"type":"Point"},"properties":{"osm_id":"292644480","tag":{"amenity":"recycling","location":"overground","recycling:cans":"no","recycling:clothes":"no","recycling:glass":"no","recycling:glass_bottles":"yes","recycling:paper":"no","recycling_type":"container"}},"type":"Feature"},
	{"geometry":{"coordinates":[7.428901,51.493983],"type":"Point"},"properties":{"osm_id":"292644482","tag":{"amenity":"recycling","location":"overground","operator":"Kolping","recycling:clothes":"yes","recycling_type":"container"}},"type":"Feature"},
	{"geometry":{"coordinates":[7.418847,51.50093],"type":"Point"},"properties":{"osm_id":"292660569","tag":{"amenity":"recycling","recycling:glass_bottles":"yes"}},"type":"Feature"},
	{"geometry":{"coordinates":[7.416175,51.481386],"type":"Point"},"properties":{"osm_id":"292726120","tag":{"amenity":"recycling","location":"overground","recycling:glass_bottles":"yes","recycling:paper":"yes","recycling_type":"container"}},"type":"Feature"},
	{"geometry":{"coordinates":[7.468356,51.501624],"type":"Point"},"properties":{"osm_id":"300225106","tag":{"amenity":"recycling"}},"type":"Feature"},
	{"geometry":{"coordinates":[7.468077,51.503191],"type":"Point"},"properties":{"osm_id":"300596630","tag":{"amenity":"recycling"}},"type":"Feature"},
	{"geometry":{"coordinates":[7.465239,51.501116],"type":"Point"},"properties":{"osm_id":"303700242","tag":{"amenity":"recycling","location":"overground","recycling:glass_bottles":"yes","recycling:paper":"yes","recycling_type":"container"}},"type":"Feature"},
	{"geometry":{"coordinates":[7.388325,51.490713],"type":"Point"},"properties":{"osm_id":"311802610","tag":{"amenity":"recycling","mapillary":"mp5DGYxyH4EmSmpi-kBQPA","recycling:clothes":"yes","recycling:glass_bottles":"yes","recycling:paper":"yes","recycling_type":"container","survey:date":"2018-09-25"}},"type":"Feature"},
	{"geometry":{"coordinates":[7.387585,51.49034],"type":"Point"},"properties":{"osm_id":"311802611","tag":{"amenity":"recycling","recycling:clothes":"yes"}},"type":"Feature"},
	{"geometry":{"coordinates":[7.435849,51.487033],"type":"Point"},"properties":{"osm_id":"315321368","tag":{"amenity":"recycling","location":"overground","recycling:glass_bottles":"yes","recycling:paper":"yes","recycling_type":"container"}},"type":"Feature"},
	{"geometry":{"coordinates":[7.419405,51.503084],"type":"Point"},"properties":{"osm_id":"323244356","tag":{"amenity":"recycling","mapillary":"Dch_-behdsGBblJaTVHsUg","recycling_type":"container","survey:date":"2019-01-19"}},"type":"Feature"},
	{"geometry":{"coordinates":[7.425858,51.482258],"type":"Point"},"properties":{"osm_id":"358007062","tag":{"amenity":"recycling","recycling:glass_bottles":"yes","recycling:paper":"yes"}},"type":"Feature"},
	{"geometry":{"coordinates":[7.463451,51.500942],"type":"Point"},"properties":{"osm_id":"370185958","tag":{"amenity":"recycling","location":"overground","recycling:glass_bottles":"yes","recycling:paper":"yes","recycling_type":"container"}},"type":"Feature"},
	{"geometry":{"coordinates":[7.463337,51.454038],"type":"Point"},"properties":{"osm_id":"410581423","tag":{"amenity":"recycling"}},"type":"Feature"},
	{"geometry":{"coordinates":[7.465374,51.460166],"type":"Point"},"properties":{"osm_id":"417792634","tag":{"amenity":"recycling","recycling:glass_bottles":"yes","recycling:paper":"yes"}},"type":"Feature"},
	{"geometry":{"coordinates":[7.420339,51.489474],"type":"Point"},"properties":{"highway":"bus_stop","name":"Gro\u00c3\u009f-Barop","osm_id":"439490091","tag":{"amenity":"waste_basket","bus":"yes","network":"VRR","operator":"DSW21","public_transport":"platform","shelter":"yes","tactile_paving":"no","waste":"trash"}},"type":"Feature"},
	{"geometry":{"coordinates":[7.419851,51.490034],"type":"Point"},"properties":{"name":"Gro\u00c3\u009f-Barop","osm_id":"439490095","tag":{"amenity":"waste_basket","bus":"yes","network":"VRR","operator":"DSW21","public_transport":"platform","shelter":"no","tactile_paving":"no","waste":"trash","wheelchair":"yes"}},"type":"Feature"},
	{"geometry":{"coordinates":[7.444893,51.505489],"type":"Point"},"properties":{"osm_id":"451659449","tag":{"amenity":"recycling","location":"overground","recycling:clothes":"yes","recycling:glass_bottles":"yes","recycling:paper":"yes","recycling:shoes":"yes","recycling_type":"container"}},"type":"Feature"},
	{"geometry":{"coordinates":[7.447458,51.505127],"type":"Point"},"properties":{"osm_id":"451659453","tag":{"amenity":"recycling","location":"overground","recycling:clothes":"yes","recycling:glass_bottles":"yes","recycling:paper":"yes","recycling:shoes":"yes","recycling_type":"container"}},"type":"Feature"},
	{"geometry":{"coordinates":[7.398685,51.474019],"type":"Point"},"properties":{"osm_id":"487068320","tag":{"amenity":"recycling","recycling:glass_bottles":"yes","recycling:paper":"yes"}},"type":"Feature"},
	{"geometry":{"coordinates":[7.433106,51.489946],"type":"Point"},"properties":{"osm_id":"498755058","tag":{"amenity":"recycling","location":"overground","operator":"EDG","recycling:glass":"no","recycling:glass_bottles":"yes","recycling:paper":"yes","recycling_type":"container"}},"type":"Feature"},
	{"geometry":{"coordinates":[7.453606,51.50267],"type":"Point"},"properties":{"osm_id":"498758218","tag":{"amenity":"recycling","location":"overground","recycling:paper":"yes","recycling_type":"container"}},"type":"Feature"},
	{"geometry":{"coordinates":[7.433057,51.489948],"type":"Point"},"properties":{"osm_id":"499389120","tag":{"amenity":"recycling","location":"overground","operator":"EDG","recycling:clothes":"yes","recycling_type":"container"}},"type":"Feature"},
	{"geometry":{"coordinates":[7.438618,51.486491],"type":"Point"},"properties":{"osm_id":"535256135","tag":{"amenity":"recycling","location":"overground","recycling:paper":"yes","recycling_type":"container"}},"type":"Feature"},
	{"geometry":{"coordinates":[7.438873,51.486221],"type":"Point"},"properties":{"osm_id":"551554588","tag":{"amenity":"recycling","location":"overground","recycling:clothes":"yes","recycling_type":"container"}},"type":"Feature"},
	{"geometry":{"coordinates":[7.459067,51.473979],"type":"Point"},"properties":{"osm_id":"600932513","tag":{"amenity":"recycling","location":"overground","recycling:glass_bottles":"yes","recycling:paper":"yes","recycling_type":"container"}},"type":"Feature"},
	{"geometry":{"coordinates":[7.396621,51.47322],"type":"Point"},"properties":{"osm_id":"630662390","tag":{"amenity":"recycling","recycling:clothes":"yes","recycling:shoes":"yes"}},"type":"Feature"},
	{"geometry":{"coordinates":[7.442763,51.483599],"type":"Point"},"properties":{"osm_id":"630662401","tag":{"amenity":"recycling","recycling:glass_bottles":"yes","recycling:paper":"yes"}},"type":"Feature"},
	{"geometry":{"coordinates":[7.45574,51.502651],"type":"Point"},"properties":{"osm_id":"671417716","tag":{"amenity":"recycling","location":"overground","recycling:batteries":"no","recycling:cans":"no","recycling:clothes":"no","recycling:scrap_metal":"no","recycling_type":"container"}},"type":"Feature"},
	{"geometry":{"coordinates":[7.469746,51.507158],"type":"Point"},"properties":{"osm_id":"679149917","tag":{"amenity":"waste_basket"}},"type":"Feature"},
	{"geometry":{"coordinates":[7.469867,51.507387],"type":"Point"},"properties":{"osm_id":"679150027","tag":{"amenity":"waste_basket"}},"type":"Feature"},
	{"geometry":{"coordinates":[7.470552,51.506573],"type":"Point"},"properties":{"osm_id":"679186360","tag":{"amenity":"waste_basket"}},"type":"Feature"},
	{"geometry":{"coordinates":[7.447298,51.472313],"type":"Point"},"properties":{"osm_id":"684260186","tag":{"amenity":"recycling"}},"type":"Feature"},
	{"geometry":{"coordinates":[7.447776,51.471961],"type":"Point"},"properties":{"osm_id":"684260218","tag":{"amenity":"recycling"}},"type":"Feature"},
	{"geometry":{"coordinates":[7.448763,51.472008],"type":"Point"},"properties":{"osm_id":"684260262","tag":{"amenity":"recycling"}},"type":"Feature"},
	{"geometry":{"coordinates":[7.46036,51.475548],"type":"Point"},"properties":{"osm_id":"689229665","tag":{"amenity":"recycling","recycling:glass_bottles":"yes","recycling:paper":"yes","recycling_type":"container"}},"type":"Feature"},
	{"geometry":{"coordinates":[7.404328,51.478316],"type":"Point"},"properties":{"osm_id":"691252384","tag":{"amenity":"recycling"}},"type":"Feature"},
	{"geometry":{"coordinates":[7.435798,51.46984],"type":"Point"},"properties":{"osm_id":"697081374","tag":{"amenity":"recycling","location":"overground","recycling:glass":"no","recycling:glass_bottles":"yes","recycling:paper":"yes","recycling_type":"container"}},"type":"Feature"},
	{"geometry":{"coordinates":[7.45309,51.470189],"type":"Point"},"properties":{"osm_id":"701550503","tag":{"amenity":"recycling","recycling:glass_bottles":"yes"}},"type":"Feature"},
	{"geometry":{"coordinates":[7.453052,51.470179],"type":"Point"},"properties":{"osm_id":"701550642","tag":{"amenity":"recycling","recycling:paper":"yes"}},"type":"Feature"},
	{"geometry":{"coordinates":[7.385255,51.484537],"type":"Point"},"properties":{"osm_id":"745956062","tag":{"amenity":"recycling"}},"type":"Feature"},
	{"geometry":{"coordinates":[7.386125,51.484923],"type":"Point"},"properties":{"osm_id":"745956074","tag":{"amenity":"recycling"}},"type":"Feature"},
	{"geometry":{"coordinates":[7.415811,51.50206],"type":"Point"},"properties":{"osm_id":"760497097","tag":{"amenity":"recycling","location":"overground","recycling:glass_bottles":"yes","recycling:paper":"yes","recycling_type":"container"}},"type":"Feature"},
	{"geometry":{"coordinates":[7.405527,51.49738],"type":"Point"},"properties":{"osm_id":"821847217","tag":{"amenity":"recycling","location":"overground","recycling:clothes":"yes","recycling:glass_bottles":"yes","recycling:paper":"yes","recycling:shoes":"yes","recycling_type":"container"}},"type":"Feature"},
	{"geometry":{"coordinates":[7.464979,51.474203],"type":"Point"},"properties":{"osm_id":"900388701","tag":{"amenity":"recycling","recycling:glass_bottles":"yes","recycling:paper":"yes","recycling_type":"container"}},"type":"Feature"},
	{"geometry":{"coordinates":[7.444924,51.477396],"type":"Point"},"properties":{"osm_id":"947032495","tag":{"amenity":"recycling","location":"underground","recycling:glass":"no","recycling:glass_bottles":"yes","recycling:paper":"yes","recycling_type":"container"}},"type":"Feature"},
	{"geometry":{"coordinates":[7.456228,51.506749],"type":"Point"},"properties":{"name":"Sonnenstra\u00c3\u009fe","osm_id":"973767184","tag":{"amenity":"recycling","location":"overground","recycling:glass_bottles":"yes","recycling:paper":"yes","recycling_type":"container"}},"type":"Feature"},
	{"geometry":{"coordinates":[7.464907,51.501669],"type":"Point"},"properties":{"osm_id":"1107361642","tag":{"amenity":"recycling","recycling:clothes":"yes","recycling:glass_bottles":"yes","recycling:paper":"yes"}},"type":"Feature"},
	{"geometry":{"coordinates":[7.450499,51.506858],"type":"Point"},"properties":{"osm_id":"1252555320","tag":{"amenity":"waste_basket"}},"type":"Feature"},
	{"geometry":{"coordinates":[7.450529,51.506996],"type":"Point"},"properties":{"osm_id":"1252555325","tag":{"amenity":"waste_basket"}},"type":"Feature"},
	{"geometry":{"coordinates":[7.416921,51.491618],"type":"Point"},"properties":{"osm_id":"1634182082","tag":{"amenity":"recycling","operator":"Entsorgung Dortmund GmbH","recycling:glass_bottles":"yes","recycling_type":"container"}},"type":"Feature"},
	{"geometry":{"coordinates":[7.416909,51.491643],"type":"Point"},"properties":{"osm_id":"1634182085","tag":{"amenity":"recycling","operator":"Entsorgung Dortmund GmbH","recycling:glass_bottles":"yes","recycling_type":"container"}},"type":"Feature"},
	{"geometry":{"coordinates":[7.413718,51.482264],"type":"Point"},"properties":{"osm_id":"1635346840","tag":{"amenity":"waste_basket"}},"type":"Feature"},
	{"geometry":{"coordinates":[7.41387,51.48248],"type":"Point"},"properties":{"osm_id":"1635346855","tag":{"amenity":"waste_basket"}},"type":"Feature"},
	{"geometry":{"coordinates":[7.413592,51.482646],"type":"Point"},"properties":{"osm_id":"1635346857","tag":{"amenity":"waste_basket"}},"type":"Feature"},
	{"geometry":{"coordinates":[7.414195,51.482791],"type":"Point"},"properties":{"osm_id":"1635346865","tag":{"amenity":"waste_disposal"}},"type":"Feature"},
	{"geometry":{"coordinates":[7.410438,51.481996],"type":"Point"},"properties":{"osm_id":"1638819097","tag":{"amenity":"recycling","operator":"Entsorgung Dortmund GmbH","recycling:glass_bottles":"yes","recycling_type":"container"}},"type":"Feature"},
	{"geometry":{"coordinates":[7.410426,51.482007],"type":"Point"},"properties":{"osm_id":"1638819100","tag":{"amenity":"recycling","operator":"Entsorgung Dortmund GmbH","recycling:glass_bottles":"yes","recycling_type":"container"}},"type":"Feature"},
	{"geometry":{"coordinates":[7.410414,51.482019],"type":"Point"},"properties":{"osm_id":"1638819105","tag":{"amenity":"recycling","operator":"Entsorgung Dortmund GmbH","recycling:books":"yes","recycling:cardboard":"yes","recycling:magazines":"yes","recycling:newspaper":"yes","recycling:paper":"yes","recycling:paper_packaging":"yes","recycling_type":"container"}},"type":"Feature"},
	{"geometry":{"coordinates":[7.408332,51.487392],"type":"Point"},"properties":{"osm_id":"1640369447","tag":{"amenity":"recycling","recycling:clothes":"yes","recycling:glass_bottles":"yes","recycling:paper":"yes","recycling_type":"container"}},"type":"Feature"},
	{"geometry":{"coordinates":[7.407788,51.481054],"type":"Point"},"properties":{"osm_id":"1641036042","tag":{"amenity":"recycling","recycling:clothes":"yes","recycling_type":"container"}},"type":"Feature"},
	{"geometry":{"coordinates":[7.408047,51.481293],"type":"Point"},"properties":{"osm_id":"1641036048","tag":{"amenity":"recycling","recycling:glass_bottles":"yes","recycling:paper":"yes","recycling_type":"container"}},"type":"Feature"},
	{"geometry":{"coordinates":[7.406104,51.489587],"type":"Point"},"properties":{"osm_id":"1691712469","tag":{"amenity":"waste_basket"}},"type":"Feature"},
	{"geometry":{"coordinates":[7.413477,51.50778],"type":"Point"},"properties":{"osm_id":"1693215575","tag":{"amenity":"recycling","recycling:glass_bottles":"yes","recycling:paper":"yes"}},"type":"Feature"},
	{"geometry":{"coordinates":[7.414343,51.482753],"type":"Point"},"properties":{"osm_id":"1703713464","tag":{"amenity":"waste_basket"}},"type":"Feature"},
	{"geometry":{"coordinates":[7.404256,51.49103],"type":"Point"},"properties":{"osm_id":"2401233815","tag":{"amenity":"waste_basket"}},"type":"Feature"},
	{"geometry":{"coordinates":[7.402028,51.491049],"type":"Point"},"properties":{"osm_id":"2401233819","tag":{"amenity":"waste_basket"}},"type":"Feature"},
	{"geometry":{"coordinates":[7.389545,51.507333],"type":"Point"},"properties":{"osm_id":"2401233822","tag":{"amenity":"waste_basket"}},"type":"Feature"},
	{"geometry":{"coordinates":[7.391436,51.508324],"type":"Point"},"properties":{"osm_id":"2401233829","tag":{"amenity":"waste_basket"}},"type":"Feature"},
	{"geometry":{"coordinates":[7.404274,51.491374],"type":"Point"},"properties":{"osm_id":"2583096470","tag":{"amenity":"waste_basket"}},"type":"Feature"},
	{"geometry":{"coordinates":[7.44813,51.507896],"type":"Point"},"properties":{"osm_id":"3234267268","tag":{"amenity":"recycling","location":"overground","recycling:clothes":"yes","recycling:glass_bottles":"yes","recycling:paper":"yes","recycling_type":"container"}},"type":"Feature"},
	{"geometry":{"coordinates":[7.440356,51.507709],"type":"Point"},"properties":{"osm_id":"3248498973","tag":{"amenity":"recycling","location":"overground","recycling:clothes":"yes","recycling:glass_bottles":"yes","recycling:paper":"yes","recycling_type":"container"}},"type":"Feature"},
	{"geometry":{"coordinates":[7.444317,51.454685],"type":"Point"},"properties":{"osm_id":"3745151991","tag":{"amenity":"recycling","recycling:glass_bottles":"yes","recycling_type":"container"}},"type":"Feature"},
	{"geometry":{"coordinates":[7.444317,51.454707],"type":"Point"},"properties":{"osm_id":"3745151993","tag":{"amenity":"recycling","recycling:glass_bottles":"yes","recycling_type":"container"}},"type":"Feature"},
	{"geometry":{"coordinates":[7.444322,51.454731],"type":"Point"},"properties":{"osm_id":"3745151994","tag":{"amenity":"recycling","recycling:paper":"yes","recycling_type":"container"}},"type":"Feature"},
	{"geometry":{"coordinates":[7.444322,51.454755],"type":"Point"},"properties":{"osm_id":"3745151995","tag":{"amenity":"recycling","recycling:paper":"yes","recycling_type":"container"}},"type":"Feature"},
	{"geometry":{"coordinates":[7.407645,51.489821],"type":"Point"},"properties":{"osm_id":"3783376394","tag":{"amenity":"waste_basket"}},"type":"Feature"},
	{"geometry":{"coordinates":[7.413505,51.454702],"type":"Point"},"properties":{"osm_id":"3880989137","tag":{"amenity":"recycling","recycling:cans":"no","recycling:glass":"yes","recycling:glass_bottles":"yes","recycling:paper":"yes","recycling_type":"container"}},"type":"Feature"},
	{"geometry":{"coordinates":[7.391515,51.454902],"type":"Point"},"properties":{"osm_id":"4199390775","tag":{"amenity":"waste_basket"}},"type":"Feature"},
	{"geometry":{"coordinates":[7.39165,51.455334],"type":"Point"},"properties":{"osm_id":"4199390776","tag":{"amenity":"waste_basket"}},"type":"Feature"},
	{"geometry":{"coordinates":[7.439194,51.47981],"type":"Point"},"properties":{"osm_id":"4435181972","tag":{"amenity":"recycling","recycling:glass_bottles":"yes","recycling:paper":"yes","recycling_type":"container"}},"type":"Feature"},
	{"geometry":{"coordinates":[7.416897,51.491667],"type":"Point"},"properties":{"osm_id":"4683008742","tag":{"amenity":"recycling","operator":"Entsorgung Dortmund GmbH","recycling:glass_bottles":"yes","recycling_type":"container"}},"type":"Feature"},
	{"geometry":{"coordinates":[7.416881,51.491696],"type":"Point"},"properties":{"osm_id":"4683008743","tag":{"amenity":"recycling","operator":"Entsorgung Dortmund GmbH","recycling:glass_bottles":"yes","recycling_type":"container"}},"type":"Feature"},
	{"geometry":{"coordinates":[7.468064,51.506972],"type":"Point"},"properties":{"osm_id":"4697038691","tag":{"amenity":"waste_basket"}},"type":"Feature"},
	{"geometry":{"coordinates":[7.468598,51.508195],"type":"Point"},"properties":{"osm_id":"4697038694","tag":{"amenity":"waste_basket"}},"type":"Feature"},
	{"geometry":{"coordinates":[7.468064,51.506909],"type":"Point"},"properties":{"osm_id":"4697064093","tag":{"amenity":"waste_basket"}},"type":"Feature"},
	{"geometry":{"coordinates":[7.463402,51.471554],"type":"Point"},"properties":{"osm_id":"4949642444","tag":{"amenity":"waste_basket"}},"type":"Feature"},
	{"geometry":{"coordinates":[7.46379,51.471862],"type":"Point"},"properties":{"osm_id":"4949642446","tag":{"amenity":"waste_basket"}},"type":"Feature"},
	{"geometry":{"coordinates":[7.463781,51.471934],"type":"Point"},"properties":{"osm_id":"4949642448","tag":{"amenity":"waste_basket"}},"type":"Feature"},
	{"geometry":{"coordinates":[7.463132,51.472082],"type":"Point"},"properties":{"osm_id":"4949642450","tag":{"amenity":"waste_basket"}},"type":"Feature"},
	{"geometry":{"coordinates":[7.463575,51.471893],"type":"Point"},"properties":{"osm_id":"4949642451","tag":{"addr:street":"Mergelteichstra\u00c3\u009fe","amenity":"waste_basket"}},"type":"Feature"},
	{"geometry":{"coordinates":[7.462945,51.471627],"type":"Point"},"properties":{"osm_id":"4949642454","tag":{"amenity":"waste_basket"}},"type":"Feature"},
	{"geometry":{"coordinates":[7.462774,51.471745],"type":"Point"},"properties":{"osm_id":"4949642455","tag":{"amenity":"waste_basket"}},"type":"Feature"},
	{"geometry":{"coordinates":[7.46315,51.471619],"type":"Point"},"properties":{"osm_id":"4949642456","tag":{"amenity":"waste_basket"}},"type":"Feature"},
	{"geometry":{"coordinates":[7.462846,51.471784],"type":"Point"},"properties":{"osm_id":"4949642460","tag":{"amenity":"waste_basket"}},"type":"Feature"},
	{"geometry":{"coordinates":[7.462763,51.471683],"type":"Point"},"properties":{"osm_id":"4949642461","tag":{"amenity":"waste_basket"}},"type":"Feature"},
	{"geometry":{"coordinates":[7.463615,51.471685],"type":"Point"},"properties":{"osm_id":"4949642465","tag":{"amenity":"waste_basket"}},"type":"Feature"},
	{"geometry":{"coordinates":[7.463535,51.472006],"type":"Point"},"properties":{"osm_id":"4949642466","tag":{"amenity":"waste_basket"}},"type":"Feature"},
	{"geometry":{"coordinates":[7.463647,51.471537],"type":"Point"},"properties":{"osm_id":"4949642468","tag":{"amenity":"waste_basket"}},"type":"Feature"},
	{"geometry":{"coordinates":[7.405915,51.489558],"type":"Point"},"properties":{"osm_id":"5265978576","tag":{"amenity":"waste_basket"}},"type":"Feature"},
	{"geometry":{"coordinates":[7.441586,51.502705],"type":"Point"},"properties":{"osm_id":"5512187321","tag":{"amenity":"recycling","recycling:clothes":"yes","recycling:glass":"yes","recycling:glass_bottles":"yes","recycling_type":"container"}},"type":"Feature"},
	{"geometry":{"coordinates":[7.444123,51.501164],"type":"Point"},"properties":{"osm_id":"5512187322","tag":{"amenity":"recycling","recycling:clothes":"yes","recycling:glass_bottles":"yes","recycling:paper":"yes","recycling_type":"container"}},"type":"Feature"},
	{"geometry":{"coordinates":[7.436847,51.481651],"type":"Point"},"properties":{"osm_id":"5564067218","tag":{"amenity":"recycling","recycling:clothes":"yes","recycling:glass_bottles":"yes","recycling:paper":"yes","recycling_type":"container"}},"type":"Feature"},
	{"geometry":{"coordinates":[7.417507,51.493172],"type":"Point"},"properties":{"osm_id":"5588991883","tag":{"amenity":"waste_basket"}},"type":"Feature"},
	{"geometry":{"coordinates":[7.41751,51.493116],"type":"Point"},"properties":{"osm_id":"5588991884","tag":{"amenity":"waste_basket"}},"type":"Feature"},
	{"geometry":{"coordinates":[7.41745,51.493225],"type":"Point"},"properties":{"osm_id":"5588991886","tag":{"amenity":"waste_basket"}},"type":"Feature"},
	{"geometry":{"coordinates":[7.418407,51.493355],"type":"Point"},"properties":{"osm_id":"5588991888","tag":{"amenity":"waste_basket"}},"type":"Feature"},
	{"geometry":{"coordinates":[7.421159,51.489241],"type":"Point"},"properties":{"osm_id":"5695424477","tag":{"amenity":"waste_basket","waste":"trash"}},"type":"Feature"},
	{"geometry":{"coordinates":[7.420118,51.489801],"type":"Point"},"properties":{"osm_id":"5695424478","tag":{"amenity":"waste_basket","waste":"trash"}},"type":"Feature"},
	{"geometry":{"coordinates":[7.415523,51.456237],"type":"Point"},"properties":{"osm_id":"5822594067","tag":{"amenity":"recycling","location":"overground","recycling:glass_bottles":"yes","recycling:paper":"yes","recycling_type":"container"}},"type":"Feature"},
	{"geometry":{"coordinates":[7.425527,51.505685],"type":"Point"},"properties":{"osm_id":"5922917349","tag":{"amenity":"waste_basket"}},"type":"Feature"},
	{"geometry":{"coordinates":[7.425854,51.504922],"type":"Point"},"properties":{"osm_id":"5922917359","tag":{"amenity":"waste_basket"}},"type":"Feature"},
	{"geometry":{"coordinates":[7.424784,51.504214],"type":"Point"},"properties":{"osm_id":"5922955495","tag":{"amenity":"waste_basket"}},"type":"Feature"},
	{"geometry":{"coordinates":[7.42586,51.503564],"type":"Point"},"properties":{"osm_id":"5922955496","tag":{"amenity":"waste_basket"}},"type":"Feature"},
	{"geometry":{"coordinates":[7.426078,51.503636],"type":"Point"},"properties":{"osm_id":"5922955498","tag":{"amenity":"waste_basket"}},"type":"Feature"},
	{"geometry":{"coordinates":[7.426141,51.503782],"type":"Point"},"properties":{"osm_id":"5922955502","tag":{"amenity":"waste_basket"}},"type":"Feature"},
	{"geometry":{"coordinates":[7.425821,51.503808],"type":"Point"},"properties":{"osm_id":"5922955504","tag":{"amenity":"waste_basket"}},"type":"Feature"},
	{"geometry":{"coordinates":[7.425612,51.50379],"type":"Point"},"properties":{"osm_id":"5922955507","tag":{"amenity":"waste_basket"}},"type":"Feature"},
	{"geometry":{"coordinates":[7.458967,51.502834],"type":"Point"},"properties":{"osm_id":"5928111685","tag":{"amenity":"recycling","recycling:cardboard":"yes","recycling:clothes":"yes","recycling:glass":"yes","recycling:glass_bottles":"yes","recycling:magazines":"yes","recycling:newspaper":"yes","recycling:paper":"yes","recycling:shoes":"yes","recycling_type":"container"}},"type":"Feature"},
	{"geometry":{"coordinates":[7.409559,51.491457],"type":"Point"},"properties":{"osm_id":"6149901707","tag":{"amenity":"waste_basket"}},"type":"Feature"},
	{"geometry":{"coordinates":[7.410356,51.490152],"type":"Point"},"properties":{"osm_id":"6149901708","tag":{"amenity":"waste_basket"}},"type":"Feature"},
	{"geometry":{"coordinates":[7.41757,51.492857],"type":"Point"},"properties":{"osm_id":"6149901709","tag":{"amenity":"waste_basket"}},"type":"Feature"},
	{"geometry":{"coordinates":[7.417474,51.492842],"type":"Point"},"properties":{"osm_id":"6149901710","tag":{"amenity":"waste_basket"}},"type":"Feature"},
	{"geometry":{"coordinates":[7.437078,51.481573],"type":"Point"},"properties":{"osm_id":"6208423190","tag":{"amenity":"recycling","recycling:clothes":"yes","recycling_type":"container"}},"type":"Feature"},
	{"geometry":{"coordinates":[7.406526,51.481421],"type":"Point"},"properties":{"osm_id":"6219736073","tag":{"amenity":"waste_basket"}},"type":"Feature"},
	{"geometry":{"coordinates":[7.41751,51.489092],"type":"Point"},"properties":{"osm_id":"6219736075","tag":{"amenity":"waste_basket"}},"type":"Feature"},
	{"geometry":{"coordinates":[7.414783,51.490985],"type":"Point"},"properties":{"osm_id":"6219736077","tag":{"amenity":"waste_basket"}},"type":"Feature"},
	{"geometry":{"coordinates":[7.414609,51.491102],"type":"Point"},"properties":{"osm_id":"6219736078","tag":{"amenity":"waste_basket"}},"type":"Feature"},
	{"geometry":{"coordinates":[7.414465,51.492454],"type":"Point"},"properties":{"osm_id":"6227385164","tag":{"amenity":"waste_basket"}},"type":"Feature"},
	{"geometry":{"coordinates":[7.413213,51.492216],"type":"Point"},"properties":{"osm_id":"6227385165","tag":{"amenity":"waste_basket"}},"type":"Feature"},
	{"geometry":{"coordinates":[7.412661,51.492188],"type":"Point"},"properties":{"osm_id":"6227385166","tag":{"amenity":"waste_basket"}},"type":"Feature"},
	{"geometry":{"coordinates":[7.410842,51.492085],"type":"Point"},"properties":{"osm_id":"6227385167","tag":{"amenity":"waste_basket"}},"type":"Feature"},
	{"geometry":{"coordinates":[7.410382,51.491969],"type":"Point"},"properties":{"osm_id":"6227385169","tag":{"amenity":"waste_basket"}},"type":"Feature"},
	{"geometry":{"coordinates":[7.418934,51.507854],"type":"Point"},"properties":{"osm_id":"6296778709","tag":{"amenity":"recycling","recycling_type":"container"}},"type":"Feature"},
	{"geometry":{"coordinates":[7.46553,51.466485],"type":"Point"},"properties":{"osm_id":"6300340003","tag":{"amenity":"recycling","recycling_type":"container"}},"type":"Feature"},
	{"geometry":{"coordinates":[7.445874,51.474026],"type":"Point"},"properties":{"osm_id":"6384427212","tag":{"amenity":"recycling","opening_hours":"Mo-Sa 09:00-17:00","operator":"Entsorgung Dortmund GmbH","recycling:cartons":"yes","recycling:clothes":"yes","recycling:glass_bottles":"yes","recycling:paper":"yes","recycling:shoes":"yes","recycling_type":"container"}},"type":"Feature"},
	{"geometry":{"coordinates":[7.442961,51.474107],"type":"Point"},"properties":{"osm_id":"6384439248","tag":{"amenity":"recycling","opening_hours":"Mo-Sa 09:00-17:00","operator":"Entsorgung Dortmund GmbH","recycling:cartons":"yes","recycling:clothes":"yes","recycling:paper":"yes","recycling:plastic_bottles":"yes","recycling:shoes":"yes","recycling_type":"container"}},"type":"Feature"},
	{"geometry":{"coordinates":[7.410622,51.48996],"type":"Point"},"properties":{"osm_id":"6412419173","tag":{"amenity":"waste_basket"}},"type":"Feature"},
	{"geometry":{"coordinates":[7.414347,51.490649],"type":"Point"},"properties":{"osm_id":"6412419174","tag":{"amenity":"waste_basket"}},"type":"Feature"},
	{"geometry":{"coordinates":[7.410861,51.481767],"type":"Point"},"properties":{"osm_id":"6426532672","tag":{"amenity":"waste_basket"}},"type":"Feature"},
	{"geometry":{"coordinates":[7.410449,51.481562],"type":"Point"},"properties":{"osm_id":"6426532673","tag":{"amenity":"waste_basket"}},"type":"Feature"},
	{"geometry":{"coordinates":[7.410439,51.481595],"type":"Point"},"properties":{"osm_id":"6426532674","tag":{"amenity":"recycling","recycling:clothes":"yes","recycling:shoes":"yes","recycling_type":"container"}},"type":"Feature"},
	{"geometry":{"coordinates":[7.406465,51.481632],"type":"Point"},"properties":{"osm_id":"6426532684","tag":{"amenity":"waste_basket"}},"type":"Feature"},
	{"geometry":{"coordinates":[7.403944,51.482015],"type":"Point"},"properties":{"osm_id":"6426535489","tag":{"amenity":"waste_basket"}},"type":"Feature"},
	{"geometry":{"coordinates":[7.403577,51.48205],"type":"Point"},"properties":{"osm_id":"6426535492","tag":{"amenity":"waste_basket"}},"type":"Feature"},
	{"geometry":{"coordinates":[7.415569,51.490744],"type":"Point"},"properties":{"osm_id":"6468620753","tag":{"amenity":"waste_basket"}},"type":"Feature"},
	{"geometry":{"coordinates":[7.413887,51.492416],"type":"Point"},"properties":{"osm_id":"6468620766","tag":{"amenity":"waste_basket"}},"type":"Feature"},
	{"geometry":{"coordinates":[7.413287,51.492344],"type":"Point"},"properties":{"osm_id":"6468620767","tag":{"amenity":"waste_basket"}},"type":"Feature"},
	{"geometry":{"coordinates":[7.40717,51.490227],"type":"Point"},"properties":{"osm_id":"6503555180","tag":{"amenity":"waste_basket"}},"type":"Feature"},
	{"geometry":{"coordinates":[7.417587,51.492737],"type":"Point"},"properties":{"osm_id":"6503555184","tag":{"amenity":"waste_basket"}},"type":"Feature"},
	{"geometry":{"coordinates":[7.409294,51.491104],"type":"Point"},"properties":{"osm_id":"6513896069","tag":{"amenity":"waste_basket"}},"type":"Feature"},
	{"geometry":{"coordinates":[7.414491,51.491519],"type":"Point"},"properties":{"osm_id":"6513896078","tag":{"amenity":"waste_basket"}},"type":"Feature"},
	{"geometry":{"coordinates":[7.414449,51.492008],"type":"Point"},"properties":{"osm_id":"6513896080","tag":{"amenity":"waste_basket"}},"type":"Feature"},
	{"geometry":{"coordinates":[7.415331,51.492658],"type":"Point"},"properties":{"osm_id":"6513896081","tag":{"amenity":"waste_basket"}},"type":"Feature"},
	{"geometry":{"coordinates":[7.464701,51.472256],"type":"Point"},"properties":{"osm_id":"6516278516","tag":{"amenity":"recycling","recycling_type":"container"}},"type":"Feature"},
	{"geometry":{"coordinates":[7.413866,51.491997],"type":"Point"},"properties":{"osm_id":"6535212637","tag":{"amenity":"waste_basket"}},"type":"Feature"},
	{"geometry":{"coordinates":[7.429786,51.490658],"type":"Point"},"properties":{"osm_id":"6535272178","tag":{"amenity":"recycling","recycling:clothes":"yes","recycling:shoes":"yes","recycling_type":"container"}},"type":"Feature"},
	{"geometry":{"coordinates":[7.416801,51.473042],"type":"Point"},"properties":{"osm_id":"6535956091","tag":{"amenity":"recycling","recycling:clothes":"yes","recycling:glass_bottles":"yes","recycling:paper":"yes","recycling:shoes":"yes","recycling_type":"container"}},"type":"Feature"},
	{"geometry":{"coordinates":[7.413701,51.492154],"type":"Point"},"properties":{"osm_id":"6542831111","tag":{"amenity":"waste_basket"}},"type":"Feature"},
	{"geometry":{"coordinates":[7.415919,51.492668],"type":"Point"},"properties":{"osm_id":"6542831112","tag":{"amenity":"waste_basket","location":"bridge"}},"type":"Feature"},
	{"geometry":{"coordinates":[7.416038,51.492684],"type":"Point"},"properties":{"osm_id":"6542831113","tag":{"amenity":"waste_basket","location":"bridge"}},"type":"Feature"},
	{"geometry":{"coordinates":[7.412746,51.492495],"type":"Point"},"properties":{"osm_id":"6555602453","tag":{"amenity":"waste_basket"}},"type":"Feature"},
	{"geometry":{"coordinates":[7.412644,51.492483],"type":"Point"},"properties":{"osm_id":"6555602454","tag":{"amenity":"waste_basket"}},"type":"Feature"},
	{"geometry":{"coordinates":[7.430918,51.476954],"type":"Point"},"properties":{"osm_id":"6566578978","tag":{"amenity":"recycling","recycling:clothes":"yes","recycling:shoes":"yes","recycling_type":"container"}},"type":"Feature"},
	{"geometry":{"coordinates":[7.409928,51.493688],"type":"Point"},"properties":{"osm_id":"6566600384","tag":{"amenity":"waste_basket"}},"type":"Feature"},
	{"geometry":{"coordinates":[7.412709,51.494085],"type":"Point"},"properties":{"osm_id":"6566607188","tag":{"amenity":"waste_basket"}},"type":"Feature"},
	{"geometry":{"coordinates":[7.414475,51.494331],"type":"Point"},"properties":{"osm_id":"6566607190","tag":{"amenity":"waste_basket"}},"type":"Feature"},
	{"geometry":{"coordinates":[7.414929,51.49433],"type":"Point"},"properties":{"osm_id":"6566607191","tag":{"amenity":"waste_basket"}},"type":"Feature"},
	{"geometry":{"coordinates":[7.416015,51.494489],"type":"Point"},"properties":{"osm_id":"6566607193","tag":{"amenity":"waste_basket"}},"type":"Feature"},
	{"geometry":{"coordinates":[7.415762,51.494297],"type":"Point"},"properties":{"osm_id":"6566607195","tag":{"amenity":"waste_basket"}},"type":"Feature"},
	{"geometry":{"coordinates":[7.415814,51.494359],"type":"Point"},"properties":{"osm_id":"6566607196","tag":{"amenity":"waste_basket"}},"type":"Feature"},
	{"geometry":{"coordinates":[7.416059,51.493796],"type":"Point"},"properties":{"osm_id":"6566607197","tag":{"amenity":"waste_basket"}},"type":"Feature"},
	{"geometry":{"coordinates":[7.416237,51.49382],"type":"Point"},"properties":{"osm_id":"6566607201","tag":{"amenity":"waste_basket"}},"type":"Feature"},
	{"geometry":{"coordinates":[7.416279,51.493825],"type":"Point"},"properties":{"osm_id":"6566607202","tag":{"amenity":"waste_basket"}},"type":"Feature"},
	{"geometry":{"coordinates":[7.415839,51.492992],"type":"Point"},"properties":{"osm_id":"6566607204","tag":{"amenity":"waste_basket","location":"bridge"}},"type":"Feature"},
	{"geometry":{"coordinates":[7.415942,51.493006],"type":"Point"},"properties":{"osm_id":"6566607205","tag":{"amenity":"waste_basket","location":"bridge"}},"type":"Feature"},
	{"geometry":{"coordinates":[7.422716,51.471118],"type":"Point"},"properties":{"osm_id":"6566641468","tag":{"amenity":"recycling","recycling:clothes":"yes","recycling:shoes":"yes","recycling_type":"container"}},"type":"Feature"},
	{"geometry":{"coordinates":[7.408742,51.479633],"type":"Point"},"properties":{"osm_id":"6566664398","tag":{"amenity":"recycling","recycling:clothes":"yes","recycling:glass_bottles":"yes","recycling:paper":"yes","recycling:shoes":"yes","recycling_type":"container"}},"type":"Feature"},
	{"geometry":{"coordinates":[7.419769,51.486562],"type":"Point"},"properties":{"osm_id":"6566669875","tag":{"amenity":"recycling","recycling:clothes":"yes","recycling:shoes":"yes","recycling_type":"container"}},"type":"Feature"},
	{"geometry":{"coordinates":[7.407664,51.490055],"type":"Point"},"properties":{"osm_id":"6593242874","tag":{"amenity":"waste_basket"}},"type":"Feature"},
	{"geometry":{"coordinates":[7.409032,51.491445],"type":"Point"},"properties":{"osm_id":"6593242878","tag":{"amenity":"waste_basket"}},"type":"Feature"},
	{"geometry":{"coordinates":[7.41207,51.492284],"type":"Point"},"properties":{"osm_id":"6593242879","tag":{"amenity":"waste_basket"}},"type":"Feature"},
	{"geometry":{"coordinates":[7.414214,51.492578],"type":"Point"},"properties":{"osm_id":"6593242882","tag":{"amenity":"waste_basket"}},"type":"Feature"},
	{"geometry":{"coordinates":[7.414209,51.492818],"type":"Point"},"properties":{"osm_id":"6593242883","tag":{"amenity":"waste_basket"}},"type":"Feature"},
	{"geometry":{"coordinates":[7.413956,51.490628],"type":"Point"},"properties":{"osm_id":"6593266485","tag":{"amenity":"waste_basket"}},"type":"Feature"},
	{"geometry":{"coordinates":[7.415792,51.491001],"type":"Point"},"properties":{"osm_id":"6593266488","tag":{"amenity":"waste_basket"}},"type":"Feature"},
	{"geometry":{"coordinates":[7.417543,51.493303],"type":"Point"},"properties":{"osm_id":"6670875035","tag":{"amenity":"waste_basket"}},"type":"Feature"},
	{"geometry":{"coordinates":[7.417499,51.493841],"type":"Point"},"properties":{"osm_id":"6670876956","tag":{"amenity":"waste_basket"}},"type":"Feature"},
	{"geometry":{"coordinates":[7.410483,51.492209],"type":"Point"},"properties":{"osm_id":"6740403621","tag":{"amenity":"waste_basket","waste":"cigarettes"}},"type":"Feature"},
	{"geometry":{"coordinates":[7.410017,51.490192],"type":"Point"},"properties":{"osm_id":"6740403622","tag":{"amenity":"waste_basket"}},"type":"Feature"},
	{"geometry":{"coordinates":[7.415508,51.484888],"type":"Point"},"properties":{"osm_id":"6740597484","tag":{"amenity":"waste_basket"}},"type":"Feature"},
	{"geometry":{"coordinates":[7.414543,51.484357],"type":"Point"},"properties":{"osm_id":"6740782486","tag":{"amenity":"waste_basket"}},"type":"Feature"},
	{"geometry":{"coordinates":[7.40524,51.491029],"type":"Point"},"properties":{"osm_id":"6792241170","tag":{"amenity":"waste_basket"}},"type":"Feature"},
	{"geometry":{"coordinates":[7.411128,51.493869],"type":"Point"},"properties":{"osm_id":"6792241173","tag":{"amenity":"waste_basket"}},"type":"Feature"},
	{"geometry":{"coordinates":[7.41178,51.494142],"type":"Point"},"properties":{"osm_id":"6792241175","tag":{"amenity":"waste_basket"}},"type":"Feature"},
	{"geometry":{"coordinates":[7.413721,51.494127],"type":"Point"},"properties":{"osm_id":"6792241184","tag":{"amenity":"waste_basket"}},"type":"Feature"},
	{"geometry":{"coordinates":[7.416358,51.49401],"type":"Point"},"properties":{"osm_id":"6792265897","tag":{"amenity":"waste_basket"}},"type":"Feature"},
	{"geometry":{"coordinates":[7.416719,51.493832],"type":"Point"},"properties":{"osm_id":"6792265899","tag":{"amenity":"waste_basket"}},"type":"Feature"},
	{"geometry":{"coordinates":[7.416895,51.493039],"type":"Point"},"properties":{"osm_id":"6792265900","tag":{"amenity":"waste_basket"}},"type":"Feature"},
	{"geometry":{"coordinates":[7.412339,51.492265],"type":"Point"},"properties":{"osm_id":"6792265902","tag":{"amenity":"waste_basket"}},"type":"Feature"},
	{"geometry":{"coordinates":[7.40942,51.49199],"type":"Point"},"properties":{"osm_id":"6792265904","tag":{"amenity":"waste_basket"}},"type":"Feature"},
	{"geometry":{"coordinates":[7.409337,51.493935],"type":"Point"},"properties":{"osm_id":"6828162781","tag":{"amenity":"waste_basket"}},"type":"Feature"},
	{"geometry":{"coordinates":[7.413833,51.493874],"type":"Point"},"properties":{"osm_id":"6828185593","tag":{"amenity":"waste_basket"}},"type":"Feature"},
	{"geometry":{"coordinates":[7.416206,51.494],"type":"Point"},"properties":{"osm_id":"6828185602","tag":{"amenity":"waste_basket"}},"type":"Feature"},
	{"geometry":{"coordinates":[7.416257,51.494003],"type":"Point"},"properties":{"osm_id":"6828185603","tag":{"amenity":"waste_basket"}},"type":"Feature"},
	{"geometry":{"coordinates":[7.416917,51.494074],"type":"Point"},"properties":{"osm_id":"6828185609","tag":{"amenity":"waste_basket"}},"type":"Feature"},
	{"geometry":{"coordinates":[7.402059,51.491358],"type":"Point"},"properties":{"osm_id":"6831432921","tag":{"amenity":"waste_basket"}},"type":"Feature"},
	{"geometry":{"coordinates":[7.411792,51.493526],"type":"Point"},"properties":{"osm_id":"6831463385","tag":{"amenity":"waste_basket"}},"type":"Feature"},
	{"geometry":{"coordinates":[7.412412,51.494363],"type":"Point"},"properties":{"osm_id":"6831463392","tag":{"amenity":"waste_basket"}},"type":"Feature"},
	{"geometry":{"coordinates":[7.416562,51.49071],"type":"Point"},"properties":{"osm_id":"6866069000","tag":{"amenity":"waste_basket"}},"type":"Feature"},
	{"geometry":{"coordinates":[7.405902,51.490041],"type":"Point"},"properties":{"osm_id":"6866069001","tag":{"amenity":"waste_basket"}},"type":"Feature"},
	{"geometry":{"coordinates":[7.449173,51.474956],"type":"Point"},"properties":{"osm_id":"6899121275","tag":{"amenity":"recycling","recycling_type":"container"}},"type":"Feature"},
	{"geometry":{"coordinates":[7.408485,51.491604],"type":"Point"},"properties":{"osm_id":"6925742155","tag":{"amenity":"waste_basket"}},"type":"Feature"},
	{"geometry":{"coordinates":[7.415861,51.491971],"type":"Point"},"properties":{"osm_id":"6925742157","tag":{"amenity":"waste_basket"}},"type":"Feature"},
	{"geometry":{"coordinates":[7.415465,51.492501],"type":"Point"},"properties":{"osm_id":"6925742159","tag":{"amenity":"waste_basket"}},"type":"Feature"},
	{"geometry":{"coordinates":[7.415345,51.492475],"type":"Point"},"properties":{"osm_id":"6925742160","tag":{"amenity":"waste_basket"}},"type":"Feature"},
	{"geometry":{"coordinates":[7.41691,51.493799],"type":"Point"},"properties":{"osm_id":"6925742162","tag":{"amenity":"waste_basket"}},"type":"Feature"},
	{"geometry":{"coordinates":[7.418383,51.493763],"type":"Point"},"properties":{"osm_id":"6925742167","tag":{"amenity":"waste_basket"}},"type":"Feature"},
	{"geometry":{"coordinates":[7.418581,51.493636],"type":"Point"},"properties":{"osm_id":"6925742170","tag":{"amenity":"waste_basket"}},"type":"Feature"},
	{"geometry":{"coordinates":[7.418593,51.493595],"type":"Point"},"properties":{"osm_id":"6925742171","tag":{"amenity":"waste_basket"}},"type":"Feature"},
	{"geometry":{"coordinates":[7.385856,51.486268],"type":"Point"},"properties":{"osm_id":"6925804377","tag":{"amenity":"recycling","recycling_type":"container"}},"type":"Feature"},
	{"geometry":{"coordinates":[7.38326,51.487317],"type":"Point"},"properties":{"osm_id":"6925805013","tag":{"amenity":"waste_basket"}},"type":"Feature"},
	{"geometry":{"coordinates":[7.415066,51.493442],"type":"Point"},"properties":{"osm_id":"6981164738","tag":{"amenity":"waste_basket"}},"type":"Feature"},
	{"geometry":{"coordinates":[7.414134,51.493019],"type":"Point"},"properties":{"osm_id":"6981164739","tag":{"amenity":"waste_basket"}},"type":"Feature"},
	{"geometry":{"coordinates":[7.403126,51.490997],"type":"Point"},"properties":{"osm_id":"6981164755","tag":{"amenity":"waste_basket"}},"type":"Feature"},
	{"geometry":{"coordinates":[7.411039,51.49223],"type":"Point"},"properties":{"osm_id":"6981164757","tag":{"amenity":"waste_basket"}},"type":"Feature"},
	{"geometry":{"coordinates":[7.411079,51.492294],"type":"Point"},"properties":{"osm_id":"7065192608","tag":{"amenity":"waste_basket"}},"type":"Feature"},
	{"geometry":{"coordinates":[7.415155,51.484623],"type":"Point"},"properties":{"osm_id":"7065192614","tag":{"amenity":"waste_basket"}},"type":"Feature"},
	{"geometry":{"coordinates":[7.413188,51.484592],"type":"Point"},"properties":{"osm_id":"7065192615","tag":{"amenity":"waste_basket"}},"type":"Feature"},
	{"geometry":{"coordinates":[7.413508,51.484267],"type":"Point"},"properties":{"osm_id":"7065192617","tag":{"amenity":"waste_basket"}},"type":"Feature"},
	{"geometry":{"coordinates":[7.414193,51.483517],"type":"Point"},"properties":{"osm_id":"7065192618","tag":{"amenity":"waste_basket"}},"type":"Feature"},
	{"geometry":{"coordinates":[7.442786,51.486231],"type":"Point"},"properties":{"osm_id":"7131963016","tag":{"amenity":"waste_basket"}},"type":"Feature"},
	{"geometry":{"coordinates":[7.457298,51.506145],"type":"Point"},"properties":{"osm_id":"7136587292","tag":{"amenity":"waste_basket","colour":"silver","material":"steel","operator":"Fachhochschule Dortmund","waste":"mixed;cigarettes"}},"type":"Feature"},
	{"geometry":{"coordinates":[7.457238,51.506191],"type":"Point"},"properties":{"osm_id":"7136587293","tag":{"amenity":"waste_basket","colour":"silver","material":"steel","operator":"Fachhochschule Dortmund","waste":"mixed;cigarettes"}},"type":"Feature"},
	{"geometry":{"coordinates":[7.457165,51.506199],"type":"Point"},"properties":{"osm_id":"7136587300","tag":{"amenity":"waste_basket","operator":"Fachhochschule Dortmund","waste":"mixed;cigarettes"}},"type":"Feature"},
	{"geometry":{"coordinates":[7.432389,51.470477],"type":"Point"},"properties":{"osm_id":"7259648697","tag":{"amenity":"recycling","recycling_type":"container"}},"type":"Feature"},
	{"geometry":{"coordinates":[7.432467,51.470772],"type":"Point"},"properties":{"osm_id":"7259648698","tag":{"amenity":"recycling","recycling_type":"container"}},"type":"Feature"},
	{"geometry":{"coordinates":[7.44728,51.508038],"type":"Point"},"properties":{"osm_id":"7275433694","tag":{"amenity":"recycling","location":"overground","recycling:clothes":"yes","recycling:glass_bottles":"yes","recycling:paper":"yes","recycling:shoes":"yes","recycling_type":"container"}},"type":"Feature"},
	{"geometry":{"coordinates":[7.437843,51.474627],"type":"Point"},"properties":{"osm_id":"7362740581","tag":{"amenity":"recycling","recycling_type":"container"}},"type":"Feature"},
	{"geometry":{"coordinates":[7.465075,51.474479],"type":"Point"},"properties":{"osm_id":"7366362546","tag":{"amenity":"recycling","recycling_type":"container"}},"type":"Feature"},
	{"geometry":{"coordinates":[7.442407,51.474058],"type":"Point"},"properties":{"osm_id":"7380519610","tag":{"amenity":"recycling","recycling:clothes":"yes","recycling:glass_bottles":"yes","recycling:paper":"yes","recycling_type":"container"}},"type":"Feature"},
	{"geometry":{"coordinates":[7.405818,51.455913],"type":"Point"},"properties":{"osm_id":"7392085456","tag":{"amenity":"recycling","recycling_type":"container"}},"type":"Feature"},
	{"geometry":{"coordinates":[7.433073,51.482566],"type":"Point"},"properties":{"osm_id":"7467449898","tag":{"amenity":"waste_basket","covered":"yes","layer":"-1","level":"-1"}},"type":"Feature"},
	{"geometry":{"coordinates":[7.43301,51.482568],"type":"Point"},"properties":{"osm_id":"7467449899","tag":{"amenity":"waste_basket","covered":"yes","layer":"-1","level":"-1"}},"type":"Feature"},
	{"geometry":{"coordinates":[7.433032,51.482112],"type":"Point"},"properties":{"osm_id":"7467449900","tag":{"amenity":"waste_basket","covered":"yes","layer":"-1","level":"-1"}},"type":"Feature"},
	{"geometry":{"coordinates":[7.432979,51.482111],"type":"Point"},"properties":{"osm_id":"7467449901","tag":{"amenity":"waste_basket","covered":"yes","layer":"-1","level":"-1"}},"type":"Feature"},
	{"geometry":{"coordinates":[7.433019,51.482323],"type":"Point"},"properties":{"osm_id":"7467449902","tag":{"amenity":"waste_basket","covered":"yes","layer":"-1","level":"-1"}},"type":"Feature"},
	{"geometry":{"coordinates":[7.432997,51.482281],"type":"Point"},"properties":{"osm_id":"7467449903","tag":{"amenity":"waste_basket","covered":"yes","layer":"-1","level":"-1"}},"type":"Feature"},
	{"geometry":{"coordinates":[7.432972,51.482403],"type":"Point"},"properties":{"osm_id":"7467483161","tag":{"amenity":"waste_basket","covered":"yes"}},"type":"Feature"},
	{"geometry":{"coordinates":[7.424274,51.495163],"type":"Point"},"properties":{"osm_id":"7501845684","tag":{"amenity":"waste_basket"}},"type":"Feature"},
	{"geometry":{"coordinates":[7.424187,51.495085],"type":"Point"},"properties":{"osm_id":"7501871685","tag":{"amenity":"waste_basket"}},"type":"Feature"},
	{"geometry":{"coordinates":[7.454015,51.494327],"type":"Point"},"properties":{"osm_id":"7503097445","tag":{"amenity":"waste_basket"}},"type":"Feature"},
	{"geometry":{"coordinates":[7.441145,51.501165],"type":"Point"},"properties":{"osm_id":"7569155457","tag":{"amenity":"recycling","recycling_type":"container"}},"type":"Feature"},
	{"geometry":{"coordinates":[7.410876,51.460162],"type":"Point"},"properties":{"osm_id":"7570364243","tag":{"amenity":"recycling","recycling_type":"container"}},"type":"Feature"},
	{"geometry":{"coordinates":[7.438548,51.483623],"type":"Point"},"properties":{"osm_id":"7580942331","tag":{"amenity":"recycling","recycling_type":"container"}},"type":"Feature"},
	{"geometry":{"coordinates":[7.461285,51.497067],"type":"Point"},"properties":{"osm_id":"7830671629","tag":{"amenity":"waste_basket"}},"type":"Feature"},
	{"geometry":{"coordinates":[7.467786,51.495985],"type":"Point"},"properties":{"osm_id":"7830685618","tag":{"amenity":"waste_basket"}},"type":"Feature"},
	{"geometry":{"coordinates":[7.4599,51.496931],"type":"Point"},"properties":{"osm_id":"7830692882","tag":{"amenity":"waste_basket"}},"type":"Feature"},
	{"geometry":{"coordinates":[7.458848,51.503454],"type":"Point"},"properties":{"osm_id":"7830693160","tag":{"amenity":"waste_basket"}},"type":"Feature"},
	{"geometry":{"coordinates":[7.462733,51.49611],"type":"Point"},"properties":{"osm_id":"7830694532","tag":{"amenity":"waste_basket"}},"type":"Feature"},
	{"geometry":{"coordinates":[7.461391,51.496319],"type":"Point"},"properties":{"osm_id":"7830698178","tag":{"amenity":"waste_basket"}},"type":"Feature"},
	{"geometry":{"coordinates":[7.463812,51.506838],"type":"Point"},"properties":{"osm_id":"7830701147","tag":{"amenity":"waste_basket"}},"type":"Feature"},
	{"geometry":{"coordinates":[7.463715,51.496209],"type":"Point"},"properties":{"osm_id":"7830704619","tag":{"amenity":"waste_basket"}},"type":"Feature"},
	{"geometry":{"coordinates":[7.463616,51.506811],"type":"Point"},"properties":{"osm_id":"7830707195","tag":{"amenity":"waste_basket"}},"type":"Feature"},
	{"geometry":{"coordinates":[7.45888,51.500969],"type":"Point"},"properties":{"osm_id":"7830707362","tag":{"amenity":"waste_basket"}},"type":"Feature"},
	{"geometry":{"coordinates":[7.46039,51.497332],"type":"Point"},"properties":{"osm_id":"7830709550","tag":{"amenity":"waste_basket"}},"type":"Feature"},
	{"geometry":{"coordinates":[7.45891,51.502506],"type":"Point"},"properties":{"osm_id":"7830709898","tag":{"amenity":"waste_basket"}},"type":"Feature"},
	{"geometry":{"coordinates":[7.470647,51.490524],"type":"Point"},"properties":{"osm_id":"7830713281","tag":{"amenity":"waste_basket"}},"type":"Feature"},
	{"geometry":{"coordinates":[7.459508,51.496596],"type":"Point"},"properties":{"osm_id":"7830713282","tag":{"amenity":"waste_basket"}},"type":"Feature"},
	{"geometry":{"coordinates":[7.465281,51.496012],"type":"Point"},"properties":{"osm_id":"7830713863","tag":{"amenity":"waste_basket"}},"type":"Feature"},
	{"geometry":{"coordinates":[7.459336,51.497435],"type":"Point"},"properties":{"osm_id":"7830715382","tag":{"amenity":"waste_basket"}},"type":"Feature"},
	{"geometry":{"coordinates":[7.458786,51.500573],"type":"Point"},"properties":{"osm_id":"7830715684","tag":{"amenity":"waste_basket"}},"type":"Feature"},
	{"geometry":{"coordinates":[7.460049,51.506497],"type":"Point"},"properties":{"osm_id":"7830715970","tag":{"amenity":"waste_basket"}},"type":"Feature"},
	{"geometry":{"coordinates":[7.459502,51.496655],"type":"Point"},"properties":{"osm_id":"7830716422","tag":{"amenity":"waste_basket"}},"type":"Feature"},
	{"geometry":{"coordinates":[7.464449,51.496039],"type":"Point"},"properties":{"osm_id":"7830718612","tag":{"amenity":"waste_basket"}},"type":"Feature"},
	{"geometry":{"coordinates":[7.467244,51.495925],"type":"Point"},"properties":{"osm_id":"7830720073","tag":{"amenity":"waste_basket"}},"type":"Feature"},
	{"geometry":{"coordinates":[7.463806,51.496265],"type":"Point"},"properties":{"osm_id":"7830723483","tag":{"amenity":"waste_basket"}},"type":"Feature"},
	{"geometry":{"coordinates":[7.458992,51.498914],"type":"Point"},"properties":{"osm_id":"7830723491","tag":{"amenity":"waste_basket"}},"type":"Feature"},
	{"geometry":{"coordinates":[7.460554,51.496774],"type":"Point"},"properties":{"osm_id":"7830723971","tag":{"amenity":"waste_basket"}},"type":"Feature"},
	{"geometry":{"coordinates":[7.4685,51.495899],"type":"Point"},"properties":{"osm_id":"7830723972","tag":{"amenity":"waste_basket","indoor":"yes","level":"1"}},"type":"Feature"},
	{"geometry":{"coordinates":[7.458884,51.50057],"type":"Point"},"properties":{"osm_id":"7830725349","tag":{"amenity":"waste_basket"}},"type":"Feature"},
	{"geometry":{"coordinates":[7.468555,51.495894],"type":"Point"},"properties":{"osm_id":"7830725890","tag":{"amenity":"waste_basket","indoor":"yes","level":"1"}},"type":"Feature"},
	{"geometry":{"coordinates":[7.46109,51.506563],"type":"Point"},"properties":{"osm_id":"7830726185","tag":{"amenity":"waste_basket"}},"type":"Feature"},
	{"geometry":{"coordinates":[7.462447,51.496814],"type":"Point"},"properties":{"osm_id":"7830726385","tag":{"amenity":"waste_basket"}},"type":"Feature"},
	{"geometry":{"coordinates":[7.434079,51.475489],"type":"Point"},"properties":{"osm_id":"7920782550","tag":{"amenity":"waste_basket"}},"type":"Feature"},
	{"geometry":{"coordinates":[7.434558,51.471496],"type":"Point"},"properties":{"osm_id":"7934630603","tag":{"amenity":"waste_basket"}},"type":"Feature"}
]
}
