{
"type": "FeatureCollection",
"features": [
	{"geometry":{"coordinates":[7.425151,51.405352],"type":"Point"},"properties":{"osm_id":"33045770","tag":{"amenity":"recycling","recycling:glass_bottles":"yes","recycling:paper":"yes"}},"type":"Feature"},
	{"geometry":{"coordinates":[7.446292,51.406622],"type":"Point"},"properties":{"osm_id":"94115515","tag":{"amenity":"recycling","recycling:cardboard":"yes","recycling:clothes":"yes","recycling:glass_bottles":"yes","recycling:magazines":"yes","recycling:newspaper":"yes","recycling:paper":"yes"}},"type":"Feature"},
	{"geometry":{"coordinates":[7.422455,51.424939],"type":"Point"},"properties":{"osm_id":"270254279","tag":{"amenity":"recycling","recycling:batteries":"no","recycling:cans":"no","recycling:clothes":"no","recycling:glass":"yes","recycling:glass_bottles":"yes","recycling:paper":"yes","recycling:plastic":"no","recycling_type":"container"}},"type":"Feature"},
	{"geometry":{"coordinates":[7.405551,51.434507],"type":"Point"},"properties":{"osm_id":"330004843","tag":{"amenity":"recycling","location":"overground","operator":"AHE;Deutsches Rotes Kreuz","recycling:cardboard":"yes","recycling:clothes":"yes","recycling:glass_bottles":"yes","recycling:paper":"yes","recycling:shoes":"yes","recycling_type":"container","wheelchair":"yes"}},"type":"Feature"},
	{"geometry":{"coordinates":[7.422394,51.417189],"type":"Point"},"properties":{"osm_id":"339859865","tag":{"amenity":"recycling","recycling:glass_bottles":"yes","recycling:paper":"yes"}},"type":"Feature"},
	{"geometry":{"coordinates":[7.418083,51.41836],"type":"Point"},"properties":{"osm_id":"343132007","tag":{"amenity":"recycling","recycling:clothes":"yes","recycling:glass_bottles":"yes","recycling:paper":"yes"}},"type":"Feature"},
	{"geometry":{"coordinates":[7.407302,51.420317],"type":"Point"},"properties":{"osm_id":"343132015","tag":{"amenity":"recycling","recycling:clothes":"yes","recycling:glass_bottles":"yes","recycling:paper":"yes"}},"type":"Feature"},
	{"geometry":{"coordinates":[7.398685,51.413252],"type":"Point"},"properties":{"osm_id":"344322460","tag":{"amenity":"recycling","recycling:clothes":"yes","recycling:glass_bottles":"yes","recycling:paper":"yes","recycling:shoes":"yes","recycling_type":"container"}},"type":"Feature"},
	{"geometry":{"coordinates":[7.403657,51.414177],"type":"Point"},"properties":{"osm_id":"345833712","tag":{"amenity":"recycling","recycling:glass_bottles":"yes","recycling:paper":"yes"}},"type":"Feature"},
	{"geometry":{"coordinates":[7.394847,51.415529],"type":"Point"},"properties":{"osm_id":"355602164","tag":{"amenity":"recycling","recycling:clothes":"yes","recycling:glass_bottles":"yes","recycling:paper":"yes","recycling:shoes":"yes","recycling_type":"container"}},"type":"Feature"},
	{"geometry":{"coordinates":[7.427921,51.411847],"type":"Point"},"properties":{"osm_id":"363916835","tag":{"amenity":"recycling","recycling:clothes":"yes","recycling:glass_bottles":"yes","recycling:paper":"yes","recycling_type":"container"}},"type":"Feature"},
	{"geometry":{"coordinates":[7.461443,51.450145],"type":"Point"},"properties":{"osm_id":"400033240","tag":{"amenity":"recycling","recycling:glass_bottles":"yes","recycling:paper":"yes"}},"type":"Feature"},
	{"geometry":{"coordinates":[7.461532,51.450263],"type":"Point"},"properties":{"osm_id":"777943331","tag":{"amenity":"recycling","mapillary":"ZaxO3aq5joArt-jTqUgb7A","recycling_type":"container","survey:date":"2016-07-12"}},"type":"Feature"},
	{"geometry":{"coordinates":[7.437545,51.429722],"type":"Point"},"properties":{"osm_id":"1141988876","tag":{"amenity":"recycling"}},"type":"Feature"},
	{"geometry":{"coordinates":[7.415484,51.414427],"type":"Point"},"properties":{"osm_id":"1171293303","tag":{"amenity":"recycling","recycling:clothes":"yes","recycling:glass_bottles":"yes","recycling:paper":"yes"}},"type":"Feature"},
	{"geometry":{"coordinates":[7.433528,51.424292],"type":"Point"},"properties":{"osm_id":"1187596006","tag":{"amenity":"recycling","recycling:batteries":"yes","recycling:clothes":"yes","recycling:fridge_and_freezer":"yes","recycling:garden_waste":"yes","recycling:glass_bottles":"yes","recycling:green_waste":"yes","recycling:paper":"yes","recycling:scrap_metal":"yes","recycling:small_appliances":"yes","recycling:tv_monitor":"yes","recycling:waste_oil":"yes"}},"type":"Feature"},
	{"geometry":{"coordinates":[7.436981,51.401085],"type":"Point"},"properties":{"osm_id":"1522853450","tag":{"amenity":"recycling","recycling:glass_bottles":"yes","recycling:paper":"yes"}},"type":"Feature"},
	{"geometry":{"coordinates":[7.407747,51.413738],"type":"Point"},"properties":{"osm_id":"1621240405","tag":{"amenity":"recycling","recycling:books":"yes","recycling:cartons":"no","recycling:clothes":"yes","recycling:glass":"no","recycling:glass_bottles":"yes","recycling:magazines":"yes","recycling:newspaper":"yes","recycling:paper":"yes","recycling_type":"container"}},"type":"Feature"},
	{"geometry":{"coordinates":[7.414777,51.415838],"type":"Point"},"properties":{"osm_id":"1621855553","tag":{"amenity":"recycling","recycling:paper":"yes","recycling_type":"container"}},"type":"Feature"},
	{"geometry":{"coordinates":[7.432268,51.401091],"type":"Point"},"properties":{"osm_id":"1624307205","tag":{"amenity":"recycling","recycling:glass_bottles":"yes","recycling:newspaper":"yes","recycling:paper":"yes","recycling:paper_packaging":"yes","recycling_type":"container"}},"type":"Feature"},
	{"geometry":{"coordinates":[7.439422,51.420002],"type":"Point"},"properties":{"osm_id":"1624996785","tag":{"amenity":"recycling"}},"type":"Feature"},
	{"geometry":{"coordinates":[7.448454,51.420826],"type":"Point"},"properties":{"osm_id":"1626615558","tag":{"amenity":"recycling","recycling:glass_bottles":"yes","recycling:paper":"yes"}},"type":"Feature"},
	{"geometry":{"coordinates":[7.403717,51.409703],"type":"Point"},"properties":{"osm_id":"1765230850","tag":{"amenity":"waste_basket"}},"type":"Feature"},
	{"geometry":{"coordinates":[7.441824,51.40441],"type":"Point"},"properties":{"osm_id":"1831981363","tag":{"amenity":"recycling","recycling:clothes":"yes","recycling_type":"container"}},"type":"Feature"},
	{"geometry":{"coordinates":[7.438932,51.402193],"type":"Point"},"properties":{"osm_id":"1831981364","tag":{"amenity":"recycling","recycling:cardboard":"yes","recycling:cartons":"yes","recycling:glass":"yes","recycling:glass_bottles":"yes","recycling:magazines":"yes","recycling:newspaper":"yes","recycling_type":"container"}},"type":"Feature"},
	{"geometry":{"coordinates":[7.44917,51.399393],"type":"Point"},"properties":{"osm_id":"1944261667","tag":{"amenity":"waste_basket"}},"type":"Feature"},
	{"geometry":{"coordinates":[7.38721,51.44333],"type":"Point"},"properties":{"osm_id":"2161373405","tag":{"amenity":"recycling","location":"overground","operator":"AHE;Deutsches Rotes Kreuz","recycling:cardboard":"yes","recycling:clothes":"yes","recycling:glass_bottles":"yes","recycling:paper":"yes","recycling:shoes":"yes","recycling_type":"container","wheelchair":"yes"}},"type":"Feature"},
	{"geometry":{"coordinates":[7.454709,51.443971],"type":"Point"},"properties":{"osm_id":"2180318146","tag":{"amenity":"recycling","recycling:glass_bottles":"yes","recycling:paper":"yes","recycling_type":"container"}},"type":"Feature"},
	{"geometry":{"coordinates":[7.404351,51.399578],"type":"Point"},"properties":{"osm_id":"2338450480","tag":{"amenity":"waste_basket"}},"type":"Feature"},
	{"geometry":{"coordinates":[7.422499,51.399583],"type":"Point"},"properties":{"osm_id":"2338450482","tag":{"amenity":"waste_basket"}},"type":"Feature"},
	{"geometry":{"coordinates":[7.421692,51.400548],"type":"Point"},"properties":{"osm_id":"2338450488","tag":{"amenity":"waste_basket"}},"type":"Feature"},
	{"geometry":{"coordinates":[7.420615,51.400846],"type":"Point"},"properties":{"osm_id":"2338450494","tag":{"amenity":"waste_basket"}},"type":"Feature"},
	{"geometry":{"coordinates":[7.42029,51.400912],"type":"Point"},"properties":{"osm_id":"2338450496","tag":{"amenity":"waste_basket"}},"type":"Feature"},
	{"geometry":{"coordinates":[7.406958,51.401074],"type":"Point"},"properties":{"osm_id":"2338450503","tag":{"amenity":"waste_basket"}},"type":"Feature"},
	{"geometry":{"coordinates":[7.452535,51.400964],"type":"Point"},"properties":{"osm_id":"2338450504","tag":{"amenity":"waste_basket"}},"type":"Feature"},
	{"geometry":{"coordinates":[7.41934,51.401294],"type":"Point"},"properties":{"osm_id":"2338450506","tag":{"amenity":"waste_basket"}},"type":"Feature"},
	{"geometry":{"coordinates":[7.418534,51.40156],"type":"Point"},"properties":{"osm_id":"2338450512","tag":{"amenity":"waste_basket"}},"type":"Feature"},
	{"geometry":{"coordinates":[7.417035,51.401871],"type":"Point"},"properties":{"osm_id":"2338450516","tag":{"amenity":"waste_basket"}},"type":"Feature"},
	{"geometry":{"coordinates":[7.455219,51.405396],"type":"Point"},"properties":{"osm_id":"2338450526","tag":{"amenity":"waste_basket"}},"type":"Feature"},
	{"geometry":{"coordinates":[7.457361,51.408241],"type":"Point"},"properties":{"osm_id":"2338450530","tag":{"amenity":"waste_basket"}},"type":"Feature"},
	{"geometry":{"coordinates":[7.458478,51.409217],"type":"Point"},"properties":{"osm_id":"2338450533","tag":{"amenity":"waste_basket"}},"type":"Feature"},
	{"geometry":{"coordinates":[7.462571,51.412005],"type":"Point"},"properties":{"osm_id":"2338450535","tag":{"amenity":"waste_basket"}},"type":"Feature"},
	{"geometry":{"coordinates":[7.463751,51.412603],"type":"Point"},"properties":{"osm_id":"2338450537","tag":{"amenity":"waste_basket"}},"type":"Feature"},
	{"geometry":{"coordinates":[7.468601,51.414452],"type":"Point"},"properties":{"osm_id":"2338450543","tag":{"amenity":"waste_basket"}},"type":"Feature"},
	{"geometry":{"coordinates":[7.432559,51.416106],"type":"Point"},"properties":{"osm_id":"2354156592","tag":{"amenity":"waste_basket","shelter":"yes"}},"type":"Feature"},
	{"geometry":{"coordinates":[7.383104,51.44836],"type":"Point"},"properties":{"osm_id":"2369152245","tag":{"amenity":"recycling","colour":"green","location":"overground","material":"metal","operator:type":"private","recycling:clothes":"yes","recycling:shoes":"yes","recycling_type":"container"}},"type":"Feature"},
	{"geometry":{"coordinates":[7.385535,51.445932],"type":"Point"},"properties":{"osm_id":"2380520576","tag":{"amenity":"recycling","location":"overground","operator":"AHE;Deutsches Rotes Kreuz","recycling:cardboard":"yes","recycling:clothes":"yes","recycling:glass_bottles":"yes","recycling:paper":"yes","recycling:shoes":"yes","recycling_type":"container","wheelchair":"yes"}},"type":"Feature"},
	{"geometry":{"coordinates":[7.429737,51.419896],"type":"Point"},"properties":{"osm_id":"2455977006","tag":{"amenity":"waste_basket"}},"type":"Feature"},
	{"geometry":{"coordinates":[7.413857,51.429183],"type":"Point"},"properties":{"osm_id":"2459552825","tag":{"amenity":"recycling","location":"overground","recycling:clothes":"yes","recycling:shoes":"yes","recycling_type":"container"}},"type":"Feature"},
	{"geometry":{"coordinates":[7.413062,51.447987],"type":"Point"},"properties":{"osm_id":"2459926501","tag":{"amenity":"recycling","colour":"silver","location":"overground","material":"metal","operator":"AHE","recycling:cardboard":"yes","recycling:glass_bottles":"yes","recycling:paper":"yes","recycling_type":"container","wheelchair":"yes"}},"type":"Feature"},
	{"geometry":{"coordinates":[7.406518,51.413411],"type":"Point"},"properties":{"osm_id":"2466492119","tag":{"amenity":"waste_basket"}},"type":"Feature"},
	{"geometry":{"coordinates":[7.412094,51.414585],"type":"Point"},"properties":{"osm_id":"2493817500","tag":{"amenity":"waste_basket"}},"type":"Feature"},
	{"geometry":{"coordinates":[7.412257,51.414741],"type":"Point"},"properties":{"osm_id":"2493817514","tag":{"amenity":"waste_basket"}},"type":"Feature"},
	{"geometry":{"coordinates":[7.412434,51.414664],"type":"Point"},"properties":{"osm_id":"2493817517","tag":{"amenity":"waste_basket"}},"type":"Feature"},
	{"geometry":{"coordinates":[7.413028,51.414993],"type":"Point"},"properties":{"osm_id":"2493823363","tag":{"amenity":"waste_basket"}},"type":"Feature"},
	{"geometry":{"coordinates":[7.412996,51.415142],"type":"Point"},"properties":{"osm_id":"2493823364","tag":{"amenity":"waste_basket"}},"type":"Feature"},
	{"geometry":{"coordinates":[7.412957,51.415233],"type":"Point"},"properties":{"osm_id":"2493823365","tag":{"amenity":"waste_basket"}},"type":"Feature"},
	{"geometry":{"coordinates":[7.42353,51.418432],"type":"Point"},"properties":{"osm_id":"2505147301","tag":{"amenity":"waste_basket"}},"type":"Feature"},
	{"geometry":{"coordinates":[7.423427,51.418427],"type":"Point"},"properties":{"osm_id":"2505147303","tag":{"amenity":"waste_basket"}},"type":"Feature"},
	{"geometry":{"coordinates":[7.426232,51.415773],"type":"Point"},"properties":{"osm_id":"2505173142","tag":{"amenity":"waste_basket"}},"type":"Feature"},
	{"geometry":{"coordinates":[7.423745,51.41772],"type":"Point"},"properties":{"osm_id":"2505177894","tag":{"amenity":"waste_basket"}},"type":"Feature"},
	{"geometry":{"coordinates":[7.40854,51.412663],"type":"Point"},"properties":{"osm_id":"2591978359","tag":{"amenity":"waste_basket"}},"type":"Feature"},
	{"geometry":{"coordinates":[7.408087,51.426108],"type":"Point"},"properties":{"osm_id":"2702883918","tag":{"amenity":"recycling","recycling:paper":"yes","recycling_type":"container"}},"type":"Feature"},
	{"geometry":{"coordinates":[7.418181,51.414569],"type":"Point"},"properties":{"osm_id":"2725438863","tag":{"amenity":"waste_basket"}},"type":"Feature"},
	{"geometry":{"coordinates":[7.399633,51.450454],"type":"Point"},"properties":{"osm_id":"2878512877","tag":{"amenity":"waste_basket"}},"type":"Feature"},
	{"geometry":{"coordinates":[7.383511,51.447159],"type":"Point"},"properties":{"osm_id":"2878743547","tag":{"amenity":"waste_basket","operator":"Stadt Witten","operator:type":"public","operator:wikidata":"Q3764"}},"type":"Feature"},
	{"geometry":{"coordinates":[7.384853,51.447501],"type":"Point"},"properties":{"osm_id":"2878743549","tag":{"amenity":"waste_basket"}},"type":"Feature"},
	{"geometry":{"coordinates":[7.386722,51.447967],"type":"Point"},"properties":{"osm_id":"2878743552","tag":{"amenity":"waste_basket"}},"type":"Feature"},
	{"geometry":{"coordinates":[7.402348,51.451882],"type":"Point"},"properties":{"osm_id":"2880733851","tag":{"amenity":"waste_basket","colour":"silver","material":"metal","support":"pole"}},"type":"Feature"},
	{"geometry":{"coordinates":[7.404717,51.453615],"type":"Point"},"properties":{"osm_id":"2880733865","tag":{"amenity":"waste_basket"}},"type":"Feature"},
	{"geometry":{"coordinates":[7.408796,51.453973],"type":"Point"},"properties":{"osm_id":"2880802962","tag":{"amenity":"waste_basket"}},"type":"Feature"},
	{"geometry":{"coordinates":[7.395693,51.448102],"type":"Point"},"properties":{"osm_id":"2881648686","tag":{"amenity":"recycling","colour":"silver","location":"overground","material":"metal","operator":"AHE","recycling:cardboard":"yes","recycling:glass_bottles":"yes","recycling:paper":"yes","recycling_type":"container","wheelchair":"yes"}},"type":"Feature"},
	{"geometry":{"coordinates":[7.396657,51.448192],"type":"Point"},"properties":{"osm_id":"2881648690","tag":{"amenity":"recycling","colour":"red;white","location":"overground","material":"metal","operator":"Deutsches Rotes Kreuz","recycling:clothes":"yes","recycling:shoes":"yes","recycling_type":"container","wheelchair":"yes"}},"type":"Feature"},
	{"geometry":{"coordinates":[7.398373,51.448491],"type":"Point"},"properties":{"osm_id":"2881648699","tag":{"amenity":"waste_basket","colour":"silver","material":"metal","support":"pole"}},"type":"Feature"},
	{"geometry":{"coordinates":[7.404375,51.448635],"type":"Point"},"properties":{"osm_id":"2881658443","tag":{"amenity":"waste_basket","colour":"silver","material":"metal"}},"type":"Feature"},
	{"geometry":{"coordinates":[7.403493,51.450044],"type":"Point"},"properties":{"osm_id":"2881658452","tag":{"amenity":"recycling","location":"overground","operator":"AHE","recycling:cardboard":"yes","recycling:glass_bottles":"yes","recycling:paper":"yes","recycling_type":"container","wheelchair":"yes"}},"type":"Feature"},
	{"geometry":{"coordinates":[7.385334,51.445858],"type":"Point"},"properties":{"osm_id":"2883489166","tag":{"amenity":"waste_basket"}},"type":"Feature"},
	{"geometry":{"coordinates":[7.393033,51.448821],"type":"Point"},"properties":{"osm_id":"2883489179","tag":{"amenity":"waste_basket","colour":"silver","material":"metal","support":"pole"}},"type":"Feature"},
	{"geometry":{"coordinates":[7.431238,51.419036],"type":"Point"},"properties":{"osm_id":"2927471011","tag":{"amenity":"waste_basket"}},"type":"Feature"},
	{"geometry":{"coordinates":[7.431652,51.41931],"type":"Point"},"properties":{"osm_id":"2927471014","tag":{"amenity":"waste_basket"}},"type":"Feature"},
	{"geometry":{"coordinates":[7.430145,51.419218],"type":"Point"},"properties":{"osm_id":"2927530606","tag":{"amenity":"waste_basket"}},"type":"Feature"},
	{"geometry":{"coordinates":[7.430479,51.419087],"type":"Point"},"properties":{"osm_id":"2927530607","tag":{"amenity":"waste_basket"}},"type":"Feature"},
	{"geometry":{"coordinates":[7.431237,51.419207],"type":"Point"},"properties":{"osm_id":"2927530608","tag":{"amenity":"waste_basket"}},"type":"Feature"},
	{"geometry":{"coordinates":[7.431339,51.419301],"type":"Point"},"properties":{"osm_id":"2927530609","tag":{"amenity":"waste_basket"}},"type":"Feature"},
	{"geometry":{"coordinates":[7.431345,51.419419],"type":"Point"},"properties":{"osm_id":"2927530610","tag":{"amenity":"waste_basket"}},"type":"Feature"},
	{"geometry":{"coordinates":[7.43134,51.419484],"type":"Point"},"properties":{"osm_id":"2927530611","tag":{"amenity":"waste_basket"}},"type":"Feature"},
	{"geometry":{"coordinates":[7.431276,51.419936],"type":"Point"},"properties":{"osm_id":"2927530612","tag":{"amenity":"waste_basket"}},"type":"Feature"},
	{"geometry":{"coordinates":[7.431156,51.420395],"type":"Point"},"properties":{"osm_id":"2927530613","tag":{"amenity":"waste_basket"}},"type":"Feature"},
	{"geometry":{"coordinates":[7.429956,51.420426],"type":"Point"},"properties":{"osm_id":"2927530614","tag":{"amenity":"waste_basket"}},"type":"Feature"},
	{"geometry":{"coordinates":[7.430026,51.4198],"type":"Point"},"properties":{"osm_id":"2927530615","tag":{"amenity":"waste_basket"}},"type":"Feature"},
	{"geometry":{"coordinates":[7.430298,51.41909],"type":"Point"},"properties":{"osm_id":"2927569951","tag":{"amenity":"waste_basket"}},"type":"Feature"},
	{"geometry":{"coordinates":[7.432582,51.420105],"type":"Point"},"properties":{"osm_id":"2927630773","tag":{"amenity":"waste_basket"}},"type":"Feature"},
	{"geometry":{"coordinates":[7.441534,51.443466],"type":"Point"},"properties":{"osm_id":"2980955505","tag":{"amenity":"waste_basket"}},"type":"Feature"},
	{"geometry":{"coordinates":[7.385739,51.444394],"type":"Point"},"properties":{"osm_id":"3218948326","tag":{"amenity":"recycling","location":"overground","recycling:clothes":"yes","recycling:glass_bottles":"yes","recycling:shoes":"yes","recycling_type":"container"}},"type":"Feature"},
	{"geometry":{"coordinates":[7.385504,51.438297],"type":"Point"},"properties":{"osm_id":"3220597981","tag":{"amenity":"recycling","location":"overground","operator":"AHE;Deutsches Rotes Kreuz","recycling:cardboard":"yes","recycling:clothes":"yes","recycling:glass_bottles":"yes","recycling:paper":"yes","recycling:shoes":"yes","recycling_type":"container","wheelchair":"yes"}},"type":"Feature"},
	{"geometry":{"coordinates":[7.399449,51.400534],"type":"Point"},"properties":{"osm_id":"3572364593","tag":{"amenity":"waste_basket","waste":"trash"}},"type":"Feature"},
	{"geometry":{"coordinates":[7.429232,51.4008],"type":"Point"},"properties":{"osm_id":"3730549603","tag":{"amenity":"recycling","recycling:glass_bottles":"yes","recycling_type":"container"}},"type":"Feature"},
	{"geometry":{"coordinates":[7.4292,51.400809],"type":"Point"},"properties":{"osm_id":"3730549604","tag":{"amenity":"recycling","recycling:glass_bottles":"yes","recycling_type":"container"}},"type":"Feature"},
	{"geometry":{"coordinates":[7.429152,51.400816],"type":"Point"},"properties":{"osm_id":"3730549605","tag":{"amenity":"recycling","recycling:clothes":"yes","recycling_type":"container"}},"type":"Feature"},
	{"geometry":{"coordinates":[7.429157,51.400839],"type":"Point"},"properties":{"osm_id":"3730549606","tag":{"amenity":"recycling","recycling:paper":"yes","recycling_type":"container"}},"type":"Feature"},
	{"geometry":{"coordinates":[7.454248,51.403191],"type":"Point"},"properties":{"osm_id":"3732650510","tag":{"amenity":"waste_basket"}},"type":"Feature"},
	{"geometry":{"coordinates":[7.469386,51.414656],"type":"Point"},"properties":{"osm_id":"3732707865","tag":{"amenity":"waste_basket"}},"type":"Feature"},
	{"geometry":{"coordinates":[7.43109,51.399314],"type":"Point"},"properties":{"osm_id":"3739221289","tag":{"amenity":"waste_basket"}},"type":"Feature"},
	{"geometry":{"coordinates":[7.431419,51.399342],"type":"Point"},"properties":{"osm_id":"3739221292","tag":{"amenity":"waste_basket"}},"type":"Feature"},
	{"geometry":{"coordinates":[7.3981,51.410325],"type":"Point"},"properties":{"osm_id":"3889301062","tag":{"amenity":"waste_basket"}},"type":"Feature"},
	{"geometry":{"coordinates":[7.399743,51.41219],"type":"Point"},"properties":{"osm_id":"3890229737","tag":{"amenity":"waste_basket"}},"type":"Feature"},
	{"geometry":{"coordinates":[7.399696,51.410064],"type":"Point"},"properties":{"osm_id":"3890448849","tag":{"amenity":"waste_basket"}},"type":"Feature"},
	{"geometry":{"coordinates":[7.398297,51.410513],"type":"Point"},"properties":{"osm_id":"3890448868","tag":{"amenity":"waste_basket"}},"type":"Feature"},
	{"geometry":{"coordinates":[7.39906,51.410564],"type":"Point"},"properties":{"osm_id":"3890448875","tag":{"amenity":"waste_basket"}},"type":"Feature"},
	{"geometry":{"coordinates":[7.398722,51.410646],"type":"Point"},"properties":{"osm_id":"3890448883","tag":{"amenity":"waste_basket"}},"type":"Feature"},
	{"geometry":{"coordinates":[7.402457,51.410709],"type":"Point"},"properties":{"osm_id":"3890448893","tag":{"amenity":"waste_basket"}},"type":"Feature"},
	{"geometry":{"coordinates":[7.399599,51.410747],"type":"Point"},"properties":{"osm_id":"3890448897","tag":{"amenity":"waste_basket"}},"type":"Feature"},
	{"geometry":{"coordinates":[7.399057,51.410817],"type":"Point"},"properties":{"osm_id":"3890448914","tag":{"amenity":"waste_basket"}},"type":"Feature"},
	{"geometry":{"coordinates":[7.400175,51.411178],"type":"Point"},"properties":{"osm_id":"3890448947","tag":{"amenity":"waste_basket"}},"type":"Feature"},
	{"geometry":{"coordinates":[7.400355,51.411548],"type":"Point"},"properties":{"osm_id":"3890448953","tag":{"amenity":"waste_basket"}},"type":"Feature"},
	{"geometry":{"coordinates":[7.397588,51.411733],"type":"Point"},"properties":{"osm_id":"3900241808","tag":{"amenity":"waste_basket"}},"type":"Feature"},
	{"geometry":{"coordinates":[7.400614,51.411749],"type":"Point"},"properties":{"osm_id":"3901396987","tag":{"amenity":"waste_basket"}},"type":"Feature"},
	{"geometry":{"coordinates":[7.400727,51.410775],"type":"Point"},"properties":{"osm_id":"3906858309","tag":{"amenity":"waste_basket"}},"type":"Feature"},
	{"geometry":{"coordinates":[7.383979,51.413416],"type":"Point"},"properties":{"osm_id":"3930769649","tag":{"amenity":"waste_basket"}},"type":"Feature"},
	{"geometry":{"coordinates":[7.398485,51.410232],"type":"Point"},"properties":{"osm_id":"3964850932","tag":{"amenity":"recycling","recycling:glass_bottles":"yes","recycling_type":"container"}},"type":"Feature"},
	{"geometry":{"coordinates":[7.43012,51.423304],"type":"Point"},"properties":{"osm_id":"4104375582","tag":{"amenity":"recycling","recycling:cans":"no","recycling:glass":"yes","recycling:glass_bottles":"yes","recycling:paper":"yes","recycling_type":"container"}},"type":"Feature"},
	{"geometry":{"coordinates":[7.395387,51.453111],"type":"Point"},"properties":{"osm_id":"4123678392","tag":{"amenity":"waste_basket"}},"type":"Feature"},
	{"geometry":{"coordinates":[7.385947,51.442832],"type":"Point"},"properties":{"osm_id":"4150203648","tag":{"amenity":"waste_basket"}},"type":"Feature"},
	{"geometry":{"coordinates":[7.385609,51.442834],"type":"Point"},"properties":{"osm_id":"4150203649","tag":{"amenity":"waste_basket"}},"type":"Feature"},
	{"geometry":{"coordinates":[7.393314,51.448743],"type":"Point"},"properties":{"osm_id":"4150203677","tag":{"amenity":"waste_basket","colour":"silver","material":"metal"}},"type":"Feature"},
	{"geometry":{"coordinates":[7.404738,51.453324],"type":"Point"},"properties":{"osm_id":"4150207397","tag":{"amenity":"waste_basket"}},"type":"Feature"},
	{"geometry":{"coordinates":[7.402776,51.434779],"type":"Point"},"properties":{"osm_id":"4154261535","tag":{"amenity":"waste_basket"}},"type":"Feature"},
	{"geometry":{"coordinates":[7.395395,51.453177],"type":"Point"},"properties":{"osm_id":"4167969812","tag":{"amenity":"waste_basket"}},"type":"Feature"},
	{"geometry":{"coordinates":[7.395461,51.453229],"type":"Point"},"properties":{"osm_id":"4167969814","tag":{"amenity":"waste_basket"}},"type":"Feature"},
	{"geometry":{"coordinates":[7.382931,51.448364],"type":"Point"},"properties":{"osm_id":"4235378822","tag":{"amenity":"waste_basket","colour":"silver","material":"metal","support":"pole"}},"type":"Feature"},
	{"geometry":{"coordinates":[7.422607,51.399439],"type":"Point"},"properties":{"osm_id":"4296802365","tag":{"amenity":"waste_basket"}},"type":"Feature"},
	{"geometry":{"coordinates":[7.386297,51.444841],"type":"Point"},"properties":{"osm_id":"4375525578","tag":{"amenity":"waste_basket"}},"type":"Feature"},
	{"geometry":{"coordinates":[7.386285,51.444916],"type":"Point"},"properties":{"osm_id":"4375525583","tag":{"amenity":"waste_basket"}},"type":"Feature"},
	{"geometry":{"coordinates":[7.456813,51.453613],"type":"Point"},"properties":{"osm_id":"4409733428","tag":{"amenity":"recycling","operator":"EDG","recycling:clothes":"yes","recycling:glass_bottles":"yes","recycling:paper":"yes","recycling_type":"container"}},"type":"Feature"},
	{"geometry":{"coordinates":[7.393651,51.453117],"type":"Point"},"properties":{"osm_id":"4411622438","tag":{"amenity":"waste_basket","colour":"orange","material":"metal"}},"type":"Feature"},
	{"geometry":{"coordinates":[7.393747,51.453131],"type":"Point"},"properties":{"osm_id":"4411622439","tag":{"amenity":"waste_basket","colour":"orange","material":"metal"}},"type":"Feature"},
	{"geometry":{"coordinates":[7.393616,51.453222],"type":"Point"},"properties":{"osm_id":"4411622441","tag":{"amenity":"waste_basket","colour":"orange","material":"metal"}},"type":"Feature"},
	{"geometry":{"coordinates":[7.39374,51.453318],"type":"Point"},"properties":{"osm_id":"4411622444","tag":{"amenity":"waste_basket","colour":"orange","material":"metal"}},"type":"Feature"},
	{"geometry":{"coordinates":[7.393598,51.453487],"type":"Point"},"properties":{"osm_id":"4411622446","tag":{"amenity":"waste_basket","colour":"green","material":"metal","support":"pole"}},"type":"Feature"},
	{"geometry":{"coordinates":[7.408933,51.450564],"type":"Point"},"properties":{"osm_id":"4428093258","tag":{"amenity":"recycling","location":"overground","material":"metal","operator":"AHE;Deutsches Rotes Kreuz","recycling:cardboard":"yes","recycling:clothes":"yes","recycling:glass_bottles":"yes","recycling:paper":"yes","recycling:shoes":"yes","recycling_type":"container","wheelchair":"yes"}},"type":"Feature"},
	{"geometry":{"coordinates":[7.408024,51.426079],"type":"Point"},"properties":{"osm_id":"4730967018","tag":{"amenity":"recycling","recycling:glass_bottles":"yes","recycling_type":"container"}},"type":"Feature"},
	{"geometry":{"coordinates":[7.408054,51.4261],"type":"Point"},"properties":{"osm_id":"4730967019","tag":{"amenity":"recycling","recycling:paper":"yes","recycling_type":"container"}},"type":"Feature"},
	{"geometry":{"coordinates":[7.433855,51.405002],"type":"Point"},"properties":{"name":"Wertstoff-Container","osm_id":"4815344044","tag":{"amenity":"recycling","recycling_type":"container"}},"type":"Feature"},
	{"geometry":{"coordinates":[7.442068,51.407656],"type":"Point"},"properties":{"name":"Wertstoff-Container","osm_id":"4815344045","tag":{"amenity":"recycling","recycling_type":"container"}},"type":"Feature"},
	{"geometry":{"coordinates":[7.461596,51.445688],"type":"Point"},"properties":{"osm_id":"4846158244","tag":{"amenity":"recycling","recycling_type":"container"}},"type":"Feature"},
	{"geometry":{"coordinates":[7.432364,51.404616],"type":"Point"},"properties":{"osm_id":"4907502299","tag":{"amenity":"waste_basket"}},"type":"Feature"},
	{"geometry":{"coordinates":[7.432267,51.404363],"type":"Point"},"properties":{"osm_id":"4907502314","tag":{"amenity":"waste_basket"}},"type":"Feature"},
	{"geometry":{"coordinates":[7.432907,51.40504],"type":"Point"},"properties":{"osm_id":"4908095454","tag":{"amenity":"waste_basket"}},"type":"Feature"},
	{"geometry":{"coordinates":[7.432897,51.404571],"type":"Point"},"properties":{"osm_id":"4908095685","tag":{"amenity":"waste_basket"}},"type":"Feature"},
	{"geometry":{"coordinates":[7.406396,51.448597],"type":"Point"},"properties":{"osm_id":"5089777737","tag":{"amenity":"waste_basket","colour":"silver","material":"metal","operator":"Stadt Witten","operator:type":"public","operator:wikidata":"Q3764"}},"type":"Feature"},
	{"geometry":{"coordinates":[7.405943,51.448746],"type":"Point"},"properties":{"osm_id":"5089777744","tag":{"amenity":"waste_basket","colour":"green","material":"metal"}},"type":"Feature"},
	{"geometry":{"coordinates":[7.404543,51.449878],"type":"Point"},"properties":{"osm_id":"5701769849","tag":{"amenity":"waste_basket","colour":"silver","material":"metal","operator":"TuRa R\u00c3\u00bcdinghausen","operator:type":"community"}},"type":"Feature"},
	{"geometry":{"coordinates":[7.3992,51.452599],"type":"Point"},"properties":{"osm_id":"5822594068","tag":{"amenity":"recycling","recycling:glass_bottles":"yes","recycling:paper":"yes"}},"type":"Feature"},
	{"geometry":{"coordinates":[7.408223,51.4441],"type":"Point"},"properties":{"osm_id":"5951573029","tag":{"amenity":"recycling","colour":"silver","location":"overground","material":"metal","operator":"AHE","recycling:cardboard":"yes","recycling:glass_bottles":"yes","recycling:paper":"yes","recycling_type":"container","wheelchair":"yes"}},"type":"Feature"}
]
}
