{
"type": "FeatureCollection",
"features": [
	{"geometry":{"coordinates":[7.440199,51.3957],"type":"Point"},"properties":{"osm_id":"271944437","tag":{"amenity":"waste_basket"}},"type":"Feature"},
	{"geometry":{"coordinates":[7.46547,51.351709],"type":"Point"},"properties":{"osm_id":"542680954","tag":{"amenity":"recycling","recycling:clothes":"yes","recycling:glass_bottles":"yes","recycling:paper":"yes","recycling_type":"container"}},"type":"Feature"},
	{"geometry":{"coordinates":[7.464666,51.358654],"type":"Point"},"properties":{"osm_id":"543370205","tag":{"amenity":"recycling"}},"type":"Feature"},
	{"geometry":{"coordinates":[7.468359,51.356708],"type":"Point"},"properties":{"osm_id":"543370215","tag":{"amenity":"recycling","recycling:glass_bottles":"yes","recycling:paper":"yes","recycling_type":"container"}},"type":"Feature"},
	{"geometry":{"coordinates":[7.458467,51.349804],"type":"Point"},"properties":{"osm_id":"543370248","tag":{"amenity":"recycling","recycling:aluminium":"no","recycling:batteries":"no","recycling:books":"yes","recycling:clothes":"yes","recycling:glass":"yes","recycling:glass_bottles":"yes","recycling:magazines":"yes","recycling:newspaper":"yes","recycling:paper":"yes","recycling_type":"container"}},"type":"Feature"},
	{"geometry":{"coordinates":[7.427912,51.381991],"type":"Point"},"properties":{"osm_id":"580651961","tag":{"amenity":"recycling","recycling:clothes":"yes","recycling:glass_bottles":"yes","recycling:paper":"yes","recycling_type":"container"}},"type":"Feature"},
	{"geometry":{"coordinates":[7.433346,51.393612],"type":"Point"},"properties":{"osm_id":"798935924","tag":{"amenity":"recycling","recycling:glass_bottles":"yes","recycling:paper":"yes","recycling_type":"container"}},"type":"Feature"},
	{"geometry":{"coordinates":[7.384308,51.388729],"type":"Point"},"properties":{"osm_id":"831044360","tag":{"amenity":"recycling","opening_hours":"24/7","operator":"Deutsches Rotes Kreuz","recycling:clothes":"yes","recycling:shoes":"yes","recycling_type":"container"}},"type":"Feature"},
	{"geometry":{"coordinates":[7.435257,51.382281],"type":"Point"},"properties":{"osm_id":"876940302","tag":{"amenity":"recycling","recycling:paper":"yes","recycling_type":"container"}},"type":"Feature"},
	{"geometry":{"coordinates":[7.470628,51.377309],"type":"Point"},"properties":{"osm_id":"1097812107","tag":{"amenity":"recycling","recycling:glass":"yes","recycling:paper":"yes","recycling:scrap_metal":"yes","recycling_type":"centre"}},"type":"Feature"},
	{"geometry":{"coordinates":[7.467857,51.379491],"type":"Point"},"properties":{"osm_id":"1345206282","tag":{"amenity":"waste_basket"}},"type":"Feature"},
	{"geometry":{"coordinates":[7.467223,51.379587],"type":"Point"},"properties":{"osm_id":"1345206407","tag":{"amenity":"waste_basket"}},"type":"Feature"},
	{"geometry":{"coordinates":[7.407994,51.344847],"type":"Point"},"properties":{"osm_id":"1417496039","tag":{"amenity":"recycling","recycling:clothes":"yes","recycling:glass":"yes","recycling:glass_bottles":"yes","recycling:shoes":"yes","recycling_type":"container"}},"type":"Feature"},
	{"geometry":{"coordinates":[7.423308,51.345486],"type":"Point"},"properties":{"osm_id":"1425424776","tag":{"amenity":"recycling","recycling:glass_bottles":"yes","recycling:paper":"yes","recycling_type":"container"}},"type":"Feature"},
	{"geometry":{"coordinates":[7.465672,51.380964],"type":"Point"},"properties":{"osm_id":"1430257216","tag":{"amenity":"waste_basket"}},"type":"Feature"},
	{"geometry":{"coordinates":[7.466665,51.381094],"type":"Point"},"properties":{"osm_id":"1430257260","tag":{"amenity":"waste_basket"}},"type":"Feature"},
	{"geometry":{"coordinates":[7.466908,51.381217],"type":"Point"},"properties":{"osm_id":"1430257294","tag":{"amenity":"waste_basket"}},"type":"Feature"},
	{"geometry":{"coordinates":[7.466458,51.381253],"type":"Point"},"properties":{"osm_id":"1430257318","tag":{"amenity":"waste_basket"}},"type":"Feature"},
	{"geometry":{"coordinates":[7.466875,51.381375],"type":"Point"},"properties":{"osm_id":"1430257392","tag":{"amenity":"waste_basket"}},"type":"Feature"},
	{"geometry":{"coordinates":[7.466609,51.381376],"type":"Point"},"properties":{"osm_id":"1430257397","tag":{"amenity":"waste_basket"}},"type":"Feature"},
	{"geometry":{"coordinates":[7.463372,51.38395],"type":"Point"},"properties":{"osm_id":"1430324629","tag":{"amenity":"waste_basket"}},"type":"Feature"},
	{"geometry":{"coordinates":[7.466019,51.385662],"type":"Point"},"properties":{"osm_id":"1430478272","tag":{"amenity":"waste_basket"}},"type":"Feature"},
	{"geometry":{"coordinates":[7.465956,51.385702],"type":"Point"},"properties":{"osm_id":"1430478296","tag":{"amenity":"waste_basket"}},"type":"Feature"},
	{"geometry":{"coordinates":[7.466027,51.385847],"type":"Point"},"properties":{"osm_id":"1430478369","tag":{"amenity":"waste_basket"}},"type":"Feature"},
	{"geometry":{"coordinates":[7.465052,51.386372],"type":"Point"},"properties":{"osm_id":"1430478590","tag":{"amenity":"waste_basket"}},"type":"Feature"},
	{"geometry":{"coordinates":[7.465272,51.386667],"type":"Point"},"properties":{"osm_id":"1430478804","tag":{"amenity":"waste_basket"}},"type":"Feature"},
	{"geometry":{"coordinates":[7.398871,51.382781],"type":"Point"},"properties":{"osm_id":"1439792938","tag":{"amenity":"recycling","opening_hours":"Mo-Sa 07:00-19:00","operator":"AHE","phone":"+49 2335 84577-0","recycling:books":"yes","recycling:cardboard":"yes","recycling:glass_bottles":"yes","recycling:magazines":"yes","recycling:newspaper":"yes","recycling:paper":"yes","recycling:paper_packaging":"yes","recycling_type":"container","website":"https://www.ahe.de"}},"type":"Feature"},
	{"geometry":{"coordinates":[7.47053,51.395226],"type":"Point"},"properties":{"osm_id":"1449439824","tag":{"amenity":"waste_basket"}},"type":"Feature"},
	{"geometry":{"coordinates":[7.470317,51.395255],"type":"Point"},"properties":{"osm_id":"1449439830","tag":{"amenity":"waste_basket"}},"type":"Feature"},
	{"geometry":{"coordinates":[7.470417,51.39529],"type":"Point"},"properties":{"osm_id":"1449439838","tag":{"amenity":"waste_basket"}},"type":"Feature"},
	{"geometry":{"coordinates":[7.433851,51.356606],"type":"Point"},"properties":{"osm_id":"1495842364","tag":{"amenity":"recycling","recycling:glass_bottles":"yes","recycling:paper":"yes","recycling_type":"container"}},"type":"Feature"},
	{"geometry":{"coordinates":[7.425072,51.3492],"type":"Point"},"properties":{"osm_id":"1579374224","tag":{"amenity":"recycling","recycling:clothes":"yes","recycling:glass_bottles":"yes","recycling:magazines":"yes","recycling:newspaper":"yes","recycling:paper":"yes","recycling:shoes":"yes","recycling_type":"container"}},"type":"Feature"},
	{"geometry":{"coordinates":[7.439666,51.396829],"type":"Point"},"properties":{"osm_id":"1650539968","tag":{"amenity":"recycling","recycling:glass":"yes","recycling:glass_bottles":"yes","recycling:newspaper":"yes","recycling:paper":"yes","recycling_type":"container"}},"type":"Feature"},
	{"geometry":{"coordinates":[7.432518,51.396429],"type":"Point"},"properties":{"osm_id":"1670605264","tag":{"amenity":"recycling","recycling:clothes":"yes","recycling_type":"container"}},"type":"Feature"},
	{"geometry":{"coordinates":[7.467694,51.380088],"type":"Point"},"properties":{"osm_id":"1700924872","tag":{"amenity":"waste_basket"}},"type":"Feature"},
	{"geometry":{"coordinates":[7.469449,51.395381],"type":"Point"},"properties":{"osm_id":"1732009289","tag":{"amenity":"waste_basket"}},"type":"Feature"},
	{"geometry":{"coordinates":[7.467297,51.353463],"type":"Point"},"properties":{"osm_id":"1772764167","tag":{"amenity":"waste_basket"}},"type":"Feature"},
	{"geometry":{"coordinates":[7.402874,51.371048],"type":"Point"},"properties":{"osm_id":"1773419138","tag":{"amenity":"recycling","recycling:clothes":"yes","recycling:glass_bottles":"yes","recycling:paper":"yes"}},"type":"Feature"},
	{"geometry":{"coordinates":[7.469751,51.378176],"type":"Point"},"properties":{"barrier":"bollard","osm_id":"1787461519"},"type":"Feature"},
	{"geometry":{"coordinates":[7.448749,51.358932],"type":"Point"},"properties":{"osm_id":"1906495350","tag":{"amenity":"recycling","recycling:clothes":"yes","recycling:glass_bottles":"yes","recycling:paper":"yes"}},"type":"Feature"},
	{"geometry":{"coordinates":[7.422699,51.37808],"type":"Point"},"properties":{"osm_id":"1914150945","tag":{"amenity":"recycling","recycling:clothes":"yes","recycling:glass_bottles":"yes","recycling:paper":"yes","recycling_type":"container"}},"type":"Feature"},
	{"geometry":{"coordinates":[7.455929,51.380052],"type":"Point"},"properties":{"osm_id":"1927341423","tag":{"amenity":"recycling","operator":"Johanniter","recycling:clothes":"yes","recycling_type":"container"}},"type":"Feature"},
	{"geometry":{"coordinates":[7.451342,51.380736],"type":"Point"},"properties":{"osm_id":"1927341449","tag":{"amenity":"waste_basket"}},"type":"Feature"},
	{"geometry":{"coordinates":[7.450954,51.381268],"type":"Point"},"properties":{"osm_id":"1927341485","tag":{"amenity":"waste_basket"}},"type":"Feature"},
	{"geometry":{"coordinates":[7.441958,51.362425],"type":"Point"},"properties":{"osm_id":"1944257635","tag":{"amenity":"recycling","recycling:clothes":"yes","recycling:glass_bottles":"yes","recycling:paper":"yes"}},"type":"Feature"},
	{"geometry":{"coordinates":[7.46498,51.370671],"type":"Point"},"properties":{"osm_id":"1944259329","tag":{"amenity":"recycling","recycling:clothes":"yes","recycling:glass_bottles":"yes","recycling:paper":"yes","recycling_type":"container"}},"type":"Feature"},
	{"geometry":{"coordinates":[7.439496,51.394891],"type":"Point"},"properties":{"osm_id":"1944261622","tag":{"amenity":"waste_basket"}},"type":"Feature"},
	{"geometry":{"coordinates":[7.440788,51.395297],"type":"Point"},"properties":{"osm_id":"1944261627","tag":{"amenity":"waste_basket"}},"type":"Feature"},
	{"geometry":{"coordinates":[7.441245,51.395542],"type":"Point"},"properties":{"osm_id":"1944261634","tag":{"amenity":"waste_basket"}},"type":"Feature"},
	{"geometry":{"coordinates":[7.441739,51.395844],"type":"Point"},"properties":{"osm_id":"1944261637","tag":{"amenity":"waste_basket"}},"type":"Feature"},
	{"geometry":{"coordinates":[7.458353,51.345535],"type":"Point"},"properties":{"osm_id":"1952894386","tag":{"amenity":"waste_basket"}},"type":"Feature"},
	{"geometry":{"coordinates":[7.470443,51.37201],"type":"Point"},"properties":{"osm_id":"2077764907","tag":{"amenity":"waste_basket"}},"type":"Feature"},
	{"geometry":{"coordinates":[7.469652,51.373294],"type":"Point"},"properties":{"osm_id":"2078705526","tag":{"amenity":"waste_basket"}},"type":"Feature"},
	{"geometry":{"coordinates":[7.451873,51.352192],"type":"Point"},"properties":{"osm_id":"2242639724","tag":{"amenity":"recycling","recycling:clothes":"yes","recycling_type":"container"}},"type":"Feature"},
	{"geometry":{"coordinates":[7.454471,51.354651],"type":"Point"},"properties":{"osm_id":"2242639727","tag":{"amenity":"recycling","recycling:clothes":"yes","recycling_type":"container"}},"type":"Feature"},
	{"geometry":{"coordinates":[7.401317,51.387344],"type":"Point"},"properties":{"osm_id":"2338450323","tag":{"amenity":"waste_basket"}},"type":"Feature"},
	{"geometry":{"coordinates":[7.401629,51.38813],"type":"Point"},"properties":{"osm_id":"2338450331","tag":{"amenity":"waste_basket"}},"type":"Feature"},
	{"geometry":{"coordinates":[7.401598,51.388371],"type":"Point"},"properties":{"osm_id":"2338450339","tag":{"amenity":"waste_basket"}},"type":"Feature"},
	{"geometry":{"coordinates":[7.399999,51.390912],"type":"Point"},"properties":{"osm_id":"2338450356","tag":{"amenity":"waste_basket"}},"type":"Feature"},
	{"geometry":{"coordinates":[7.398133,51.393968],"type":"Point"},"properties":{"osm_id":"2338450360","tag":{"amenity":"waste_basket"}},"type":"Feature"},
	{"geometry":{"coordinates":[7.439676,51.394638],"type":"Point"},"properties":{"osm_id":"2338450370","tag":{"amenity":"waste_basket"}},"type":"Feature"},
	{"geometry":{"coordinates":[7.434952,51.3947],"type":"Point"},"properties":{"osm_id":"2338450371","tag":{"amenity":"waste_basket"}},"type":"Feature"},
	{"geometry":{"coordinates":[7.435593,51.394737],"type":"Point"},"properties":{"osm_id":"2338450372","tag":{"amenity":"waste_basket"}},"type":"Feature"},
	{"geometry":{"coordinates":[7.43408,51.395041],"type":"Point"},"properties":{"osm_id":"2338450378","tag":{"amenity":"waste_basket"}},"type":"Feature"},
	{"geometry":{"coordinates":[7.433768,51.395085],"type":"Point"},"properties":{"osm_id":"2338450380","tag":{"amenity":"waste_basket"}},"type":"Feature"},
	{"geometry":{"coordinates":[7.433059,51.395254],"type":"Point"},"properties":{"osm_id":"2338450384","tag":{"amenity":"waste_basket"}},"type":"Feature"},
	{"geometry":{"coordinates":[7.441052,51.395431],"type":"Point"},"properties":{"osm_id":"2338450385","tag":{"amenity":"waste_basket"}},"type":"Feature"},
	{"geometry":{"coordinates":[7.432203,51.395722],"type":"Point"},"properties":{"osm_id":"2338450395","tag":{"amenity":"waste_basket"}},"type":"Feature"},
	{"geometry":{"coordinates":[7.431189,51.39571],"type":"Point"},"properties":{"osm_id":"2338450405","tag":{"amenity":"waste_basket"}},"type":"Feature"},
	{"geometry":{"coordinates":[7.441495,51.39575],"type":"Point"},"properties":{"osm_id":"2338450410","tag":{"amenity":"waste_basket"}},"type":"Feature"},
	{"geometry":{"coordinates":[7.431752,51.395739],"type":"Point"},"properties":{"osm_id":"2338450413","tag":{"amenity":"waste_basket"}},"type":"Feature"},
	{"geometry":{"coordinates":[7.430318,51.395884],"type":"Point"},"properties":{"osm_id":"2338450419","tag":{"amenity":"waste_basket"}},"type":"Feature"},
	{"geometry":{"coordinates":[7.428685,51.396294],"type":"Point"},"properties":{"osm_id":"2338450423","tag":{"amenity":"waste_basket"}},"type":"Feature"},
	{"geometry":{"coordinates":[7.399458,51.396474],"type":"Point"},"properties":{"osm_id":"2338450437","tag":{"amenity":"waste_basket"}},"type":"Feature"},
	{"geometry":{"coordinates":[7.44378,51.396673],"type":"Point"},"properties":{"osm_id":"2338450447","tag":{"amenity":"waste_basket"}},"type":"Feature"},
	{"geometry":{"coordinates":[7.425872,51.397236],"type":"Point"},"properties":{"osm_id":"2338450455","tag":{"amenity":"waste_basket"}},"type":"Feature"},
	{"geometry":{"coordinates":[7.445004,51.397369],"type":"Point"},"properties":{"osm_id":"2338450459","tag":{"amenity":"waste_basket"}},"type":"Feature"},
	{"geometry":{"coordinates":[7.401773,51.397956],"type":"Point"},"properties":{"osm_id":"2338450464","tag":{"amenity":"waste_basket"}},"type":"Feature"},
	{"geometry":{"coordinates":[7.402506,51.398414],"type":"Point"},"properties":{"osm_id":"2338450468","tag":{"amenity":"waste_basket"}},"type":"Feature"},
	{"geometry":{"coordinates":[7.42286,51.399033],"type":"Point"},"properties":{"osm_id":"2338450472","tag":{"amenity":"waste_basket"}},"type":"Feature"},
	{"geometry":{"coordinates":[7.403278,51.398898],"type":"Point"},"properties":{"osm_id":"2338450473","tag":{"amenity":"waste_basket"}},"type":"Feature"},
	{"geometry":{"coordinates":[7.448417,51.39906],"type":"Point"},"properties":{"osm_id":"2338450477","tag":{"amenity":"waste_basket"}},"type":"Feature"},
	{"geometry":{"coordinates":[7.422989,51.348121],"type":"Point"},"properties":{"osm_id":"2354152514","tag":{"amenity":"waste_basket"}},"type":"Feature"},
	{"geometry":{"coordinates":[7.436807,51.349494],"type":"Point"},"properties":{"osm_id":"2354153229","tag":{"amenity":"recycling","recycling:glass_bottles":"yes","recycling:paper":"yes","recycling_type":"container"}},"type":"Feature"},
	{"geometry":{"coordinates":[7.418421,51.353398],"type":"Point"},"properties":{"osm_id":"2354153797","tag":{"amenity":"waste_basket"}},"type":"Feature"},
	{"geometry":{"coordinates":[7.392896,51.3869],"type":"Point"},"properties":{"osm_id":"2379980328","tag":{"amenity":"recycling","opening_hours":"24/7","operator":"AHE","phone":"+49 2335 84577-0","recycling:books":"yes","recycling:cardboard":"yes","recycling:magazines":"yes","recycling:newspaper":"yes","recycling:paper":"yes","recycling:paper_packaging":"yes","recycling_type":"container","website":"https://www.ahe.de/"}},"type":"Feature"},
	{"geometry":{"coordinates":[7.400134,51.388816],"type":"Point"},"properties":{"osm_id":"2379980357","tag":{"amenity":"waste_basket"}},"type":"Feature"},
	{"geometry":{"coordinates":[7.397672,51.388092],"type":"Point"},"properties":{"osm_id":"2379980364","tag":{"amenity":"recycling","opening_hours":"24/7","operator":"AHE","phone":"+49 2335 84577-0","recycling:glass_bottles":"yes","recycling_type":"container","website":"https://www.ahe.de/"}},"type":"Feature"},
	{"geometry":{"coordinates":[7.392433,51.387156],"type":"Point"},"properties":{"osm_id":"2379980369","tag":{"amenity":"waste_basket"}},"type":"Feature"},
	{"geometry":{"coordinates":[7.399994,51.389154],"type":"Point"},"properties":{"osm_id":"2379980397","tag":{"amenity":"waste_basket"}},"type":"Feature"},
	{"geometry":{"coordinates":[7.400093,51.385182],"type":"Point"},"properties":{"osm_id":"2380017258","tag":{"amenity":"waste_basket"}},"type":"Feature"},
	{"geometry":{"coordinates":[7.394744,51.394594],"type":"Point"},"properties":{"osm_id":"2380017318","tag":{"amenity":"recycling","opening_hours":"24/7","operator":"AHE","phone":"+49 2335 84577-0","recycling:books":"yes","recycling:cardboard":"yes","recycling:magazines":"yes","recycling:newspaper":"yes","recycling:paper":"yes","recycling:paper_packaging":"yes","recycling_type":"container","website":"https://www.ahe.de/"}},"type":"Feature"},
	{"geometry":{"coordinates":[7.398956,51.385368],"type":"Point"},"properties":{"osm_id":"2380017323","tag":{"amenity":"waste_basket"}},"type":"Feature"},
	{"geometry":{"coordinates":[7.394215,51.388564],"type":"Point"},"properties":{"osm_id":"2380033200","tag":{"amenity":"waste_basket"}},"type":"Feature"},
	{"geometry":{"coordinates":[7.393606,51.388729],"type":"Point"},"properties":{"osm_id":"2380033202","tag":{"amenity":"waste_basket"}},"type":"Feature"},
	{"geometry":{"coordinates":[7.384552,51.383567],"type":"Point"},"properties":{"osm_id":"2380058279","tag":{"amenity":"recycling","opening_hours":"Mo-Sa 07:00-19:00","operator":"AHE","phone":"+49 2335 84577-0","recycling:books":"yes","recycling:cardboard":"yes","recycling:magazines":"yes","recycling:newspaper":"yes","recycling:paper":"yes","recycling:paper_packaging":"yes","recycling_type":"container","website":"https://www.ahe.de/"}},"type":"Feature"},
	{"geometry":{"coordinates":[7.390791,51.389584],"type":"Point"},"properties":{"osm_id":"2380144384","tag":{"amenity":"recycling","opening_hours":"Mo-Sa 07:00-19:00","operator":"AHE","phone":"+49 2335 84577-0","recycling:books":"yes","recycling:cardboard":"yes","recycling:magazines":"yes","recycling:newspaper":"yes","recycling:paper":"yes","recycling:paper_packaging":"yes","recycling_type":"container","website":"https://www.ahe.de/"}},"type":"Feature"},
	{"geometry":{"coordinates":[7.389236,51.39334],"type":"Point"},"properties":{"osm_id":"2381175084","tag":{"amenity":"recycling","opening_hours":"Mo-Sa 07:00-19:00","operator":"AHE","phone":"+49 2335 84577-0","recycling:books":"yes","recycling:cardboard":"yes","recycling:magazines":"yes","recycling:newspaper":"yes","recycling:paper":"yes","recycling:paper_packaging":"yes","recycling_type":"container","website":"https://www.ahe.de/"}},"type":"Feature"},
	{"geometry":{"coordinates":[7.40024,51.384401],"type":"Point"},"properties":{"osm_id":"2382209128","tag":{"amenity":"waste_basket"}},"type":"Feature"},
	{"geometry":{"coordinates":[7.389437,51.384478],"type":"Point"},"properties":{"osm_id":"2382456281","tag":{"amenity":"waste_basket"}},"type":"Feature"},
	{"geometry":{"coordinates":[7.386111,51.386857],"type":"Point"},"properties":{"osm_id":"2388266742","tag":{"amenity":"waste_basket"}},"type":"Feature"},
	{"geometry":{"coordinates":[7.38622,51.386507],"type":"Point"},"properties":{"osm_id":"2388266743","tag":{"amenity":"waste_basket"}},"type":"Feature"},
	{"geometry":{"coordinates":[7.386692,51.386544],"type":"Point"},"properties":{"osm_id":"2388266748","tag":{"amenity":"waste_basket"}},"type":"Feature"},
	{"geometry":{"coordinates":[7.389508,51.387315],"type":"Point"},"properties":{"osm_id":"2389142691","tag":{"amenity":"waste_basket"}},"type":"Feature"},
	{"geometry":{"coordinates":[7.388014,51.386537],"type":"Point"},"properties":{"osm_id":"2389142699","tag":{"amenity":"waste_basket"}},"type":"Feature"},
	{"geometry":{"coordinates":[7.395296,51.387535],"type":"Point"},"properties":{"osm_id":"2389886514","tag":{"amenity":"recycling","opening_hours":"24/7","operator":"Deutsches Rotes Kreuz","recycling:clothes":"yes","recycling:shoes":"yes","recycling_type":"container"}},"type":"Feature"},
	{"geometry":{"coordinates":[7.38769,51.386388],"type":"Point"},"properties":{"osm_id":"2393051113","tag":{"amenity":"waste_basket"}},"type":"Feature"},
	{"geometry":{"coordinates":[7.388583,51.386864],"type":"Point"},"properties":{"osm_id":"2393053888","tag":{"amenity":"waste_basket"}},"type":"Feature"},
	{"geometry":{"coordinates":[7.38857,51.386585],"type":"Point"},"properties":{"osm_id":"2397038379","tag":{"amenity":"waste_basket"}},"type":"Feature"},
	{"geometry":{"coordinates":[7.396494,51.385732],"type":"Point"},"properties":{"osm_id":"2400596204","tag":{"amenity":"waste_basket"}},"type":"Feature"},
	{"geometry":{"coordinates":[7.396966,51.385056],"type":"Point"},"properties":{"osm_id":"2400596205","tag":{"amenity":"waste_basket"}},"type":"Feature"},
	{"geometry":{"coordinates":[7.39802,51.383702],"type":"Point"},"properties":{"osm_id":"2401202910","tag":{"amenity":"waste_basket"}},"type":"Feature"},
	{"geometry":{"coordinates":[7.397823,51.384017],"type":"Point"},"properties":{"osm_id":"2401202914","tag":{"amenity":"waste_basket"}},"type":"Feature"},
	{"geometry":{"coordinates":[7.397942,51.383843],"type":"Point"},"properties":{"osm_id":"2401202920","tag":{"amenity":"waste_basket"}},"type":"Feature"},
	{"geometry":{"coordinates":[7.386717,51.386457],"type":"Point"},"properties":{"osm_id":"2403229684","tag":{"amenity":"waste_basket"}},"type":"Feature"},
	{"geometry":{"coordinates":[7.386604,51.386365],"type":"Point"},"properties":{"osm_id":"2403229703","tag":{"amenity":"waste_basket"}},"type":"Feature"},
	{"geometry":{"coordinates":[7.393535,51.387874],"type":"Point"},"properties":{"osm_id":"2403925587","tag":{"amenity":"waste_basket"}},"type":"Feature"},
	{"geometry":{"coordinates":[7.387569,51.385703],"type":"Point"},"properties":{"osm_id":"2404744515","tag":{"amenity":"waste_basket"}},"type":"Feature"},
	{"geometry":{"coordinates":[7.387997,51.385829],"type":"Point"},"properties":{"osm_id":"2404744528","tag":{"amenity":"waste_basket"}},"type":"Feature"},
	{"geometry":{"coordinates":[7.391685,51.389683],"type":"Point"},"properties":{"osm_id":"2416832675","tag":{"amenity":"waste_basket"}},"type":"Feature"},
	{"geometry":{"coordinates":[7.397509,51.387959],"type":"Point"},"properties":{"osm_id":"2418251832","tag":{"amenity":"waste_basket"}},"type":"Feature"},
	{"geometry":{"coordinates":[7.395223,51.387791],"type":"Point"},"properties":{"osm_id":"2418258078","tag":{"amenity":"waste_basket"}},"type":"Feature"},
	{"geometry":{"coordinates":[7.384515,51.389296],"type":"Point"},"properties":{"osm_id":"2420968061","tag":{"amenity":"waste_basket"}},"type":"Feature"},
	{"geometry":{"coordinates":[7.396013,51.38468],"type":"Point"},"properties":{"osm_id":"2427030569","tag":{"amenity":"waste_basket"}},"type":"Feature"},
	{"geometry":{"coordinates":[7.385044,51.388925],"type":"Point"},"properties":{"osm_id":"2439223217","tag":{"amenity":"waste_basket"}},"type":"Feature"},
	{"geometry":{"coordinates":[7.38556,51.388502],"type":"Point"},"properties":{"osm_id":"2439223224","tag":{"amenity":"waste_basket"}},"type":"Feature"},
	{"geometry":{"coordinates":[7.384771,51.388398],"type":"Point"},"properties":{"osm_id":"2439223228","tag":{"amenity":"waste_basket"}},"type":"Feature"},
	{"geometry":{"coordinates":[7.386597,51.38671],"type":"Point"},"properties":{"osm_id":"2444046634","tag":{"amenity":"waste_basket"}},"type":"Feature"},
	{"geometry":{"coordinates":[7.38687,51.38672],"type":"Point"},"properties":{"osm_id":"2444046643","tag":{"amenity":"waste_basket"}},"type":"Feature"},
	{"geometry":{"coordinates":[7.393454,51.383534],"type":"Point"},"properties":{"osm_id":"2447249562","tag":{"amenity":"recycling","opening_hours":"Mo-Sa 07:00-19:00","operator":"AHE","phone":"+49 2335 84577-0","recycling:glass_bottles":"yes","recycling_type":"container","website":"https://www.ahe.de/"}},"type":"Feature"},
	{"geometry":{"coordinates":[7.431297,51.397469],"type":"Point"},"properties":{"osm_id":"2461853871","tag":{"amenity":"waste_basket"}},"type":"Feature"},
	{"geometry":{"coordinates":[7.431428,51.397544],"type":"Point"},"properties":{"osm_id":"2461853880","tag":{"amenity":"waste_basket"}},"type":"Feature"},
	{"geometry":{"coordinates":[7.431501,51.397543],"type":"Point"},"properties":{"osm_id":"2461853896","tag":{"amenity":"waste_basket"}},"type":"Feature"},
	{"geometry":{"coordinates":[7.440469,51.395507],"type":"Point"},"properties":{"osm_id":"2480037573","tag":{"amenity":"waste_basket"}},"type":"Feature"},
	{"geometry":{"coordinates":[7.441276,51.395955],"type":"Point"},"properties":{"osm_id":"2480037574","tag":{"amenity":"waste_basket"}},"type":"Feature"},
	{"geometry":{"coordinates":[7.394002,51.388652],"type":"Point"},"properties":{"osm_id":"2485157553","tag":{"amenity":"waste_basket"}},"type":"Feature"},
	{"geometry":{"coordinates":[7.389794,51.381447],"type":"Point"},"properties":{"barrier":"gate","osm_id":"2500516389"},"type":"Feature"},
	{"geometry":{"coordinates":[7.389633,51.381152],"type":"Point"},"properties":{"barrier":"gate","osm_id":"2500516393"},"type":"Feature"},
	{"geometry":{"coordinates":[7.388843,51.38107],"type":"Point"},"properties":{"osm_id":"2517477956","tag":{"amenity":"waste_basket"}},"type":"Feature"},
	{"geometry":{"coordinates":[7.385806,51.380009],"type":"Point"},"properties":{"osm_id":"2517477961","tag":{"amenity":"waste_basket"}},"type":"Feature"},
	{"geometry":{"coordinates":[7.392926,51.38684],"type":"Point"},"properties":{"osm_id":"2521922677","tag":{"amenity":"recycling","opening_hours":"24/7","operator":"Deutsches Rotes Kreuz","recycling:clothes":"yes","recycling:shoes":"yes","recycling_type":"container"}},"type":"Feature"},
	{"geometry":{"coordinates":[7.429871,51.382923],"type":"Point"},"properties":{"osm_id":"2524446993","tag":{"amenity":"waste_basket"}},"type":"Feature"},
	{"geometry":{"coordinates":[7.398829,51.38274],"type":"Point"},"properties":{"osm_id":"2524462424","tag":{"amenity":"recycling","opening_hours":"24/7","operator":"Maltheser Hilfsdienst","recycling:clothes":"yes","recycling:shoes":"yes","recycling_type":"container"}},"type":"Feature"},
	{"geometry":{"coordinates":[7.424237,51.398177],"type":"Point"},"properties":{"osm_id":"2541241388","tag":{"amenity":"waste_basket"}},"type":"Feature"},
	{"geometry":{"coordinates":[7.461003,51.362719],"type":"Point"},"properties":{"osm_id":"2577176636","tag":{"amenity":"waste_basket","level":"-1"}},"type":"Feature"},
	{"geometry":{"coordinates":[7.46011,51.362764],"type":"Point"},"properties":{"osm_id":"2577180148","tag":{"amenity":"waste_basket","level":"-1"}},"type":"Feature"},
	{"geometry":{"coordinates":[7.4608,51.362729],"type":"Point"},"properties":{"osm_id":"2577180150","tag":{"amenity":"waste_basket","level":"-1"}},"type":"Feature"},
	{"geometry":{"coordinates":[7.460126,51.362819],"type":"Point"},"properties":{"osm_id":"2577180152","tag":{"amenity":"waste_basket","level":"-1"}},"type":"Feature"},
	{"geometry":{"coordinates":[7.461096,51.362842],"type":"Point"},"properties":{"osm_id":"2577185415","tag":{"amenity":"waste_basket","level":"0"}},"type":"Feature"},
	{"geometry":{"coordinates":[7.460689,51.362791],"type":"Point"},"properties":{"osm_id":"2577186000","tag":{"amenity":"waste_basket","level":"-1"}},"type":"Feature"},
	{"geometry":{"coordinates":[7.399328,51.381711],"type":"Point"},"properties":{"osm_id":"2628694231","tag":{"amenity":"waste_basket"}},"type":"Feature"},
	{"geometry":{"coordinates":[7.39781,51.380809],"type":"Point"},"properties":{"osm_id":"2628695538","tag":{"amenity":"waste_basket"}},"type":"Feature"},
	{"geometry":{"coordinates":[7.390281,51.382994],"type":"Point"},"properties":{"osm_id":"2630801622","tag":{"amenity":"waste_basket"}},"type":"Feature"},
	{"geometry":{"coordinates":[7.456938,51.386637],"type":"Point"},"properties":{"osm_id":"2863651840","tag":{"amenity":"recycling","location":"overground","recycling:clothes":"yes","recycling:paper":"yes","recycling_type":"container"}},"type":"Feature"},
	{"geometry":{"coordinates":[7.466733,51.381899],"type":"Point"},"properties":{"osm_id":"2866274253","tag":{"amenity":"recycling","recycling:clothes":"yes","recycling:glass_bottles":"yes","recycling:paper":"yes"}},"type":"Feature"},
	{"geometry":{"coordinates":[7.398467,51.39008],"type":"Point"},"properties":{"osm_id":"3076888908","tag":{"amenity":"waste_basket"}},"type":"Feature"},
	{"geometry":{"coordinates":[7.396799,51.38875],"type":"Point"},"properties":{"osm_id":"3076916994","tag":{"amenity":"waste_basket"}},"type":"Feature"},
	{"geometry":{"coordinates":[7.39593,51.390449],"type":"Point"},"properties":{"osm_id":"3076931980","tag":{"amenity":"waste_basket"}},"type":"Feature"},
	{"geometry":{"coordinates":[7.388557,51.390995],"type":"Point"},"properties":{"osm_id":"3084552551","tag":{"amenity":"waste_basket"}},"type":"Feature"},
	{"geometry":{"coordinates":[7.387902,51.390467],"type":"Point"},"properties":{"osm_id":"3084552552","tag":{"amenity":"waste_basket"}},"type":"Feature"},
	{"geometry":{"coordinates":[7.38931,51.390797],"type":"Point"},"properties":{"osm_id":"3084552553","tag":{"amenity":"waste_basket"}},"type":"Feature"},
	{"geometry":{"coordinates":[7.389283,51.390064],"type":"Point"},"properties":{"osm_id":"3084552554","tag":{"amenity":"waste_basket"}},"type":"Feature"},
	{"geometry":{"coordinates":[7.387521,51.391473],"type":"Point"},"properties":{"osm_id":"3084552555","tag":{"amenity":"waste_basket"}},"type":"Feature"},
	{"geometry":{"coordinates":[7.386366,51.38942],"type":"Point"},"properties":{"osm_id":"3084552556","tag":{"amenity":"waste_basket"}},"type":"Feature"},
	{"geometry":{"coordinates":[7.386864,51.389565],"type":"Point"},"properties":{"osm_id":"3084552557","tag":{"amenity":"waste_basket"}},"type":"Feature"},
	{"geometry":{"coordinates":[7.386271,51.389915],"type":"Point"},"properties":{"osm_id":"3084552558","tag":{"amenity":"waste_basket"}},"type":"Feature"},
	{"geometry":{"coordinates":[7.388368,51.389979],"type":"Point"},"properties":{"osm_id":"3084552560","tag":{"amenity":"waste_basket"}},"type":"Feature"},
	{"geometry":{"coordinates":[7.387771,51.389995],"type":"Point"},"properties":{"osm_id":"3084552561","tag":{"amenity":"waste_basket"}},"type":"Feature"},
	{"geometry":{"coordinates":[7.386252,51.38999],"type":"Point"},"properties":{"osm_id":"3084552562","tag":{"amenity":"waste_basket"}},"type":"Feature"},
	{"geometry":{"coordinates":[7.387587,51.389585],"type":"Point"},"properties":{"osm_id":"3084552563","tag":{"amenity":"waste_basket"}},"type":"Feature"},
	{"geometry":{"coordinates":[7.387088,51.391459],"type":"Point"},"properties":{"osm_id":"3084552564","tag":{"amenity":"waste_basket"}},"type":"Feature"},
	{"geometry":{"coordinates":[7.388087,51.391197],"type":"Point"},"properties":{"osm_id":"3084552565","tag":{"amenity":"waste_basket"}},"type":"Feature"},
	{"geometry":{"coordinates":[7.389243,51.390631],"type":"Point"},"properties":{"osm_id":"3084552566","tag":{"amenity":"waste_basket"}},"type":"Feature"},
	{"geometry":{"coordinates":[7.387039,51.390791],"type":"Point"},"properties":{"osm_id":"3084552567","tag":{"amenity":"waste_basket"}},"type":"Feature"},
	{"geometry":{"coordinates":[7.389431,51.390641],"type":"Point"},"properties":{"osm_id":"3084552568","tag":{"amenity":"waste_basket"}},"type":"Feature"},
	{"geometry":{"coordinates":[7.388397,51.390996],"type":"Point"},"properties":{"osm_id":"3084552569","tag":{"amenity":"waste_basket"}},"type":"Feature"},
	{"geometry":{"coordinates":[7.38787,51.386325],"type":"Point"},"properties":{"osm_id":"3084665052","tag":{"amenity":"waste_basket"}},"type":"Feature"},
	{"geometry":{"coordinates":[7.400161,51.388196],"type":"Point"},"properties":{"osm_id":"3086277287","tag":{"amenity":"waste_basket"}},"type":"Feature"},
	{"geometry":{"coordinates":[7.391821,51.384757],"type":"Point"},"properties":{"osm_id":"3087877454","tag":{"amenity":"waste_basket"}},"type":"Feature"},
	{"geometry":{"coordinates":[7.393065,51.391921],"type":"Point"},"properties":{"osm_id":"3090793176","tag":{"amenity":"waste_basket"}},"type":"Feature"},
	{"geometry":{"coordinates":[7.393021,51.39174],"type":"Point"},"properties":{"osm_id":"3090793177","tag":{"amenity":"waste_basket"}},"type":"Feature"},
	{"geometry":{"coordinates":[7.396486,51.393947],"type":"Point"},"properties":{"osm_id":"3090811441","tag":{"amenity":"waste_basket"}},"type":"Feature"},
	{"geometry":{"coordinates":[7.39453,51.395511],"type":"Point"},"properties":{"osm_id":"3090811459","tag":{"amenity":"waste_basket"}},"type":"Feature"},
	{"geometry":{"coordinates":[7.394807,51.395488],"type":"Point"},"properties":{"osm_id":"3090811462","tag":{"amenity":"waste_basket"}},"type":"Feature"},
	{"geometry":{"coordinates":[7.394722,51.394847],"type":"Point"},"properties":{"osm_id":"3090840068","tag":{"amenity":"recycling","opening_hours":"Mo-Sa 07:00-19:00","operator":"AHE","phone":"+49 2335 84577-0","recycling:glass_bottles":"yes","recycling_type":"container","website":"https://www.ahe.de/"}},"type":"Feature"},
	{"geometry":{"coordinates":[7.394766,51.394842],"type":"Point"},"properties":{"osm_id":"3090840072","tag":{"amenity":"recycling","opening_hours":"Mo-Sa 07:00-19:00","operator":"AHE","phone":"+49 2335 84577-0","recycling:glass_bottles":"yes","recycling_type":"container","website":"https://www.ahe.de/"}},"type":"Feature"},
	{"geometry":{"coordinates":[7.394771,51.394856],"type":"Point"},"properties":{"osm_id":"3090840073","tag":{"amenity":"recycling","opening_hours":"Mo-Sa 07:00-19:00","operator":"AHE","phone":"+49 2335 84577-0","recycling:glass_bottles":"yes","recycling_type":"container","website":"https://www.ahe.de/"}},"type":"Feature"},
	{"geometry":{"coordinates":[7.394811,51.394952],"type":"Point"},"properties":{"osm_id":"3090840074","tag":{"amenity":"waste_basket"}},"type":"Feature"},
	{"geometry":{"coordinates":[7.394732,51.394613],"type":"Point"},"properties":{"osm_id":"3090840077","tag":{"amenity":"recycling","opening_hours":"24/7","operator":"AHE","phone":"+49 2335 84577-0","recycling:books":"yes","recycling:cardboard":"yes","recycling:magazines":"yes","recycling:newspaper":"yes","recycling:paper":"yes","recycling:paper_packaging":"yes","recycling_type":"container","website":"https://www.ahe.de/"}},"type":"Feature"},
	{"geometry":{"coordinates":[7.394449,51.394912],"type":"Point"},"properties":{"osm_id":"3090840078","tag":{"amenity":"waste_basket"}},"type":"Feature"},
	{"geometry":{"coordinates":[7.394725,51.394861],"type":"Point"},"properties":{"osm_id":"3090840079","tag":{"amenity":"recycling","opening_hours":"Mo-Sa 07:00-19:00","operator":"AHE","phone":"+49 2335 84577-0","recycling:glass_bottles":"yes","recycling_type":"container","website":"https://www.ahe.de/"}},"type":"Feature"},
	{"geometry":{"coordinates":[7.394681,51.394635],"type":"Point"},"properties":{"osm_id":"3090840080","tag":{"amenity":"waste_basket"}},"type":"Feature"},
	{"geometry":{"coordinates":[7.394372,51.394675],"type":"Point"},"properties":{"osm_id":"3090840082","tag":{"amenity":"waste_basket"}},"type":"Feature"},
	{"geometry":{"coordinates":[7.391413,51.389479],"type":"Point"},"properties":{"osm_id":"3090864164","tag":{"amenity":"waste_basket"}},"type":"Feature"},
	{"geometry":{"coordinates":[7.391201,51.389424],"type":"Point"},"properties":{"osm_id":"3090864267","tag":{"amenity":"waste_basket"}},"type":"Feature"},
	{"geometry":{"coordinates":[7.391856,51.389515],"type":"Point"},"properties":{"osm_id":"3090864269","tag":{"amenity":"waste_basket"}},"type":"Feature"},
	{"geometry":{"coordinates":[7.39251,51.390808],"type":"Point"},"properties":{"osm_id":"3090864271","tag":{"amenity":"waste_basket"}},"type":"Feature"},
	{"geometry":{"coordinates":[7.392461,51.390764],"type":"Point"},"properties":{"osm_id":"3090864272","tag":{"amenity":"waste_basket"}},"type":"Feature"},
	{"geometry":{"coordinates":[7.3938,51.388424],"type":"Point"},"properties":{"osm_id":"3090867131","tag":{"amenity":"waste_basket"}},"type":"Feature"},
	{"geometry":{"coordinates":[7.394059,51.388477],"type":"Point"},"properties":{"osm_id":"3090867134","tag":{"amenity":"waste_basket"}},"type":"Feature"},
	{"geometry":{"coordinates":[7.392994,51.388869],"type":"Point"},"properties":{"osm_id":"3090867137","tag":{"amenity":"waste_basket"}},"type":"Feature"},
	{"geometry":{"coordinates":[7.393833,51.388556],"type":"Point"},"properties":{"osm_id":"3090867141","tag":{"amenity":"waste_basket"}},"type":"Feature"},
	{"geometry":{"coordinates":[7.398904,51.388219],"type":"Point"},"properties":{"osm_id":"3097119063","tag":{"amenity":"waste_basket"}},"type":"Feature"},
	{"geometry":{"coordinates":[7.397652,51.38809],"type":"Point"},"properties":{"osm_id":"3109262850","tag":{"amenity":"recycling","opening_hours":"Mo-Sa 07:00-19:00","operator":"AHE","phone":"+49 2335 84577-0","recycling:glass_bottles":"yes","recycling_type":"container","website":"https://www.ahe.de/"}},"type":"Feature"},
	{"geometry":{"coordinates":[7.397693,51.388093],"type":"Point"},"properties":{"osm_id":"3109262851","tag":{"amenity":"recycling","opening_hours":"24/7","operator":"AHE","phone":"+49 2335 84577-0","recycling:books":"yes","recycling:cardboard":"yes","recycling:magazines":"yes","recycling:newspaper":"yes","recycling:paper":"yes","recycling:paper_packaging":"yes","recycling_type":"container","website":"https://www.ahe.de/"}},"type":"Feature"},
	{"geometry":{"coordinates":[7.398215,51.388098],"type":"Point"},"properties":{"osm_id":"3109262852","tag":{"amenity":"waste_basket"}},"type":"Feature"},
	{"geometry":{"coordinates":[7.398017,51.391358],"type":"Point"},"properties":{"osm_id":"3109351825","tag":{"amenity":"waste_basket"}},"type":"Feature"},
	{"geometry":{"coordinates":[7.397682,51.388083],"type":"Point"},"properties":{"osm_id":"3112628944","tag":{"amenity":"recycling","opening_hours":"24/7","operator":"AHE","phone":"+49 2335 84577-0","recycling:books":"yes","recycling:cardboard":"yes","recycling:magazines":"yes","recycling:newspaper":"yes","recycling:paper":"yes","recycling:paper_packaging":"yes","recycling_type":"container","website":"https://www.ahe.de/"}},"type":"Feature"},
	{"geometry":{"coordinates":[7.395607,51.387873],"type":"Point"},"properties":{"osm_id":"3112641783","tag":{"amenity":"waste_basket"}},"type":"Feature"},
	{"geometry":{"coordinates":[7.452597,51.38124],"type":"Point"},"properties":{"osm_id":"3122287027","tag":{"amenity":"waste_basket"}},"type":"Feature"},
	{"geometry":{"coordinates":[7.390791,51.389628],"type":"Point"},"properties":{"osm_id":"3129413543","tag":{"amenity":"recycling","opening_hours":"24/7","operator":"Deutsches Rotes Kreuz","recycling:clothes":"yes","recycling:shoes":"yes","recycling_type":"container"}},"type":"Feature"},
	{"geometry":{"coordinates":[7.390848,51.389582],"type":"Point"},"properties":{"osm_id":"3129413544","tag":{"amenity":"recycling","opening_hours":"Mo-Sa 07:00-19:00","operator":"AHE","phone":"+49 2335 84577-0","recycling:books":"yes","recycling:cardboard":"yes","recycling:magazines":"yes","recycling:newspaper":"yes","recycling:paper":"yes","recycling:paper_packaging":"yes","recycling_type":"container","website":"https://www.ahe.de/"}},"type":"Feature"},
	{"geometry":{"coordinates":[7.390793,51.389599],"type":"Point"},"properties":{"osm_id":"3129413545","tag":{"amenity":"recycling","opening_hours":"Mo-Sa 07:00-19:00","operator":"AHE","phone":"+49 2335 84577-0","recycling:glass_bottles":"yes","recycling_type":"container","website":"https://www.ahe.de/"}},"type":"Feature"},
	{"geometry":{"coordinates":[7.390789,51.389614],"type":"Point"},"properties":{"osm_id":"3129413547","tag":{"amenity":"recycling","opening_hours":"Mo-Sa 07:00-19:00","operator":"AHE","phone":"+49 2335 84577-0","recycling:glass_bottles":"yes","recycling_type":"container","website":"https://www.ahe.de/"}},"type":"Feature"},
	{"geometry":{"coordinates":[7.390806,51.389571],"type":"Point"},"properties":{"osm_id":"3129413549","tag":{"amenity":"recycling","opening_hours":"Mo-Sa 07:00-19:00","operator":"AHE","phone":"+49 2335 84577-0","recycling:books":"yes","recycling:cardboard":"yes","recycling:magazines":"yes","recycling:newspaper":"yes","recycling:paper":"yes","recycling:paper_packaging":"yes","recycling_type":"container","website":"https://www.ahe.de/"}},"type":"Feature"},
	{"geometry":{"coordinates":[7.390827,51.389572],"type":"Point"},"properties":{"osm_id":"3129413551","tag":{"amenity":"recycling","opening_hours":"Mo-Sa 07:00-19:00","operator":"AHE","phone":"+49 2335 84577-0","recycling:books":"yes","recycling:cardboard":"yes","recycling:magazines":"yes","recycling:newspaper":"yes","recycling:paper":"yes","recycling:paper_packaging":"yes","recycling_type":"container","website":"https://www.ahe.de/"}},"type":"Feature"},
	{"geometry":{"coordinates":[7.390766,51.389646],"type":"Point"},"properties":{"osm_id":"3129413552","tag":{"amenity":"waste_basket"}},"type":"Feature"},
	{"geometry":{"coordinates":[7.388885,51.38919],"type":"Point"},"properties":{"osm_id":"3129460052","tag":{"amenity":"waste_basket"}},"type":"Feature"},
	{"geometry":{"coordinates":[7.390065,51.388925],"type":"Point"},"properties":{"osm_id":"3129494962","tag":{"amenity":"waste_basket"}},"type":"Feature"},
	{"geometry":{"coordinates":[7.39096,51.387635],"type":"Point"},"properties":{"osm_id":"3133635326","tag":{"amenity":"waste_basket"}},"type":"Feature"},
	{"geometry":{"coordinates":[7.392862,51.386835],"type":"Point"},"properties":{"osm_id":"3146943250","tag":{"amenity":"recycling","opening_hours":"Mo-Sa 07:00-19:00","operator":"AHE","phone":"+49 2335 84577-0","recycling:glass_bottles":"yes","recycling_type":"container","website":"https://www.ahe.de/"}},"type":"Feature"},
	{"geometry":{"coordinates":[7.395807,51.386809],"type":"Point"},"properties":{"osm_id":"3146958044","tag":{"amenity":"recycling","opening_hours":"Mo-Sa 07:00-19:00","operator":"AHE","phone":"+49 2335 84577-0","recycling:glass_bottles":"yes","recycling_type":"container","website":"https://www.ahe.de/"}},"type":"Feature"},
	{"geometry":{"coordinates":[7.395818,51.386791],"type":"Point"},"properties":{"osm_id":"3146958045","tag":{"amenity":"recycling","opening_hours":"24/7","operator":"AHE","phone":"+49 2335 84577-0","recycling:books":"yes","recycling:cardboard":"yes","recycling:magazines":"yes","recycling:newspaper":"yes","recycling:paper":"yes","recycling:paper_packaging":"yes","recycling_type":"container","website":"https://www.ahe.de/"}},"type":"Feature"},
	{"geometry":{"coordinates":[7.398971,51.38281],"type":"Point"},"properties":{"osm_id":"3147668766","tag":{"amenity":"recycling","opening_hours":"Mo-Sa 07:00-19:00","operator":"AHE","phone":"+49 2335 84577-0","recycling:glass_bottles":"yes","recycling_type":"container","website":"https://www.ahe.de/"}},"type":"Feature"},
	{"geometry":{"coordinates":[7.398941,51.382808],"type":"Point"},"properties":{"osm_id":"3147668767","tag":{"amenity":"recycling","opening_hours":"Mo-Sa 07:00-19:00","operator":"AHE","phone":"+49 2335 84577-0","recycling:glass_bottles":"yes","recycling_type":"container","website":"https://www.ahe.de/"}},"type":"Feature"},
	{"geometry":{"coordinates":[7.398909,51.382786],"type":"Point"},"properties":{"osm_id":"3147668768","tag":{"amenity":"recycling","opening_hours":"Mo-Sa 07:00-19:00","operator":"AHE","phone":"+49 2335 84577-0","recycling:books":"yes","recycling:cardboard":"yes","recycling:glass_bottles":"yes","recycling:magazines":"yes","recycling:newspaper":"yes","recycling:paper":"yes","recycling:paper_packaging":"yes","recycling_type":"container","website":"https://www.ahe.de/"}},"type":"Feature"},
	{"geometry":{"coordinates":[7.398833,51.382753],"type":"Point"},"properties":{"osm_id":"3147668769","tag":{"amenity":"recycling","opening_hours":"24/7","operator":"Maltheser Hilfsdienst","recycling:clothes":"yes","recycling:shoes":"yes","recycling_type":"container"}},"type":"Feature"},
	{"geometry":{"coordinates":[7.398905,51.382808],"type":"Point"},"properties":{"osm_id":"3147668770","tag":{"amenity":"recycling","opening_hours":"Mo-Sa 07:00-19:00","operator":"AHE","phone":"+49 2335 84577-0","recycling:glass_bottles":"yes","recycling_type":"container","website":"https://www.ahe.de/"}},"type":"Feature"},
	{"geometry":{"coordinates":[7.398988,51.382783],"type":"Point"},"properties":{"osm_id":"3147668771","tag":{"amenity":"recycling","opening_hours":"Mo-Sa 07:00-19:00","operator":"AHE","phone":"+49 2335 84577-0","recycling:books":"yes","recycling:cardboard":"yes","recycling:glass_bottles":"yes","recycling:magazines":"yes","recycling:newspaper":"yes","recycling:paper":"yes","recycling:paper_packaging":"yes","recycling_type":"container","website":"https://www.ahe.de/"}},"type":"Feature"},
	{"geometry":{"coordinates":[7.398952,51.382788],"type":"Point"},"properties":{"osm_id":"3147668772","tag":{"amenity":"recycling","opening_hours":"Mo-Sa 07:00-19:00","operator":"AHE","phone":"+49 2335 84577-0","recycling:books":"yes","recycling:cardboard":"yes","recycling:glass_bottles":"yes","recycling:magazines":"yes","recycling:newspaper":"yes","recycling:paper":"yes","recycling:paper_packaging":"yes","recycling_type":"container","website":"https://www.ahe.de/"}},"type":"Feature"},
	{"geometry":{"coordinates":[7.398876,51.382807],"type":"Point"},"properties":{"osm_id":"3147668773","tag":{"amenity":"recycling","opening_hours":"Mo-Sa 07:00-19:00","operator":"AHE","phone":"+49 2335 84577-0","recycling:glass_bottles":"yes","recycling_type":"container","website":"https://www.ahe.de/"}},"type":"Feature"},
	{"geometry":{"coordinates":[7.39902,51.382766],"type":"Point"},"properties":{"osm_id":"3147668774","tag":{"amenity":"recycling","opening_hours":"Mo-Sa 07:00-19:00","operator":"AHE","phone":"+49 2335 84577-0","recycling:books":"yes","recycling:cardboard":"yes","recycling:glass_bottles":"yes","recycling:magazines":"yes","recycling:newspaper":"yes","recycling:paper":"yes","recycling:paper_packaging":"yes","recycling_type":"container","website":"https://www.ahe.de/"}},"type":"Feature"},
	{"geometry":{"coordinates":[7.399224,51.382536],"type":"Point"},"properties":{"osm_id":"3147680202","tag":{"amenity":"waste_basket"}},"type":"Feature"},
	{"geometry":{"coordinates":[7.398047,51.384136],"type":"Point"},"properties":{"osm_id":"3147704192","tag":{"amenity":"waste_basket"}},"type":"Feature"},
	{"geometry":{"coordinates":[7.398232,51.384442],"type":"Point"},"properties":{"osm_id":"3147704194","tag":{"amenity":"waste_basket"}},"type":"Feature"},
	{"geometry":{"coordinates":[7.397975,51.384314],"type":"Point"},"properties":{"osm_id":"3147704195","tag":{"amenity":"waste_basket"}},"type":"Feature"},
	{"geometry":{"coordinates":[7.398417,51.383926],"type":"Point"},"properties":{"osm_id":"3147704196","tag":{"amenity":"waste_basket"}},"type":"Feature"},
	{"geometry":{"coordinates":[7.399374,51.385447],"type":"Point"},"properties":{"osm_id":"3147721134","tag":{"amenity":"waste_basket"}},"type":"Feature"},
	{"geometry":{"coordinates":[7.399761,51.385381],"type":"Point"},"properties":{"osm_id":"3147725492","tag":{"amenity":"waste_basket"}},"type":"Feature"},
	{"geometry":{"coordinates":[7.400206,51.385181],"type":"Point"},"properties":{"osm_id":"3147741419","tag":{"amenity":"waste_basket"}},"type":"Feature"},
	{"geometry":{"coordinates":[7.400365,51.385611],"type":"Point"},"properties":{"osm_id":"3147741424","tag":{"amenity":"waste_basket"}},"type":"Feature"},
	{"geometry":{"coordinates":[7.400252,51.384998],"type":"Point"},"properties":{"osm_id":"3147742092","tag":{"amenity":"waste_basket"}},"type":"Feature"},
	{"geometry":{"coordinates":[7.400125,51.385545],"type":"Point"},"properties":{"osm_id":"3147742346","tag":{"amenity":"waste_basket"}},"type":"Feature"},
	{"geometry":{"coordinates":[7.399225,51.385516],"type":"Point"},"properties":{"osm_id":"3147744895","tag":{"amenity":"waste_basket"}},"type":"Feature"},
	{"geometry":{"coordinates":[7.398756,51.385297],"type":"Point"},"properties":{"osm_id":"3147744896","tag":{"amenity":"waste_basket"}},"type":"Feature"},
	{"geometry":{"coordinates":[7.396255,51.385738],"type":"Point"},"properties":{"osm_id":"3148896264","tag":{"amenity":"waste_basket"}},"type":"Feature"},
	{"geometry":{"coordinates":[7.395827,51.386814],"type":"Point"},"properties":{"osm_id":"3148901644","tag":{"amenity":"recycling","opening_hours":"Mo-Sa 07:00-19:00","operator":"AHE","phone":"+49 2335 84577-0","recycling:glass_bottles":"yes","recycling_type":"container","website":"https://www.ahe.de/"}},"type":"Feature"},
	{"geometry":{"coordinates":[7.395845,51.386779],"type":"Point"},"properties":{"osm_id":"3148901645","tag":{"amenity":"recycling","opening_hours":"24/7","operator":"AHE","phone":"+49 2335 84577-0","recycling:books":"yes","recycling:cardboard":"yes","recycling:magazines":"yes","recycling:newspaper":"yes","recycling:paper":"yes","recycling:paper_packaging":"yes","recycling_type":"container","website":"https://www.ahe.de/"}},"type":"Feature"},
	{"geometry":{"coordinates":[7.39963,51.391761],"type":"Point"},"properties":{"osm_id":"3177073416","tag":{"amenity":"waste_basket"}},"type":"Feature"},
	{"geometry":{"coordinates":[7.398549,51.395672],"type":"Point"},"properties":{"osm_id":"3177104461","tag":{"amenity":"waste_basket"}},"type":"Feature"},
	{"geometry":{"coordinates":[7.398354,51.395416],"type":"Point"},"properties":{"osm_id":"3177104467","tag":{"amenity":"waste_basket"}},"type":"Feature"},
	{"geometry":{"coordinates":[7.425392,51.39748],"type":"Point"},"properties":{"osm_id":"3177164337","tag":{"amenity":"waste_basket"}},"type":"Feature"},
	{"geometry":{"coordinates":[7.42614,51.39776],"type":"Point"},"properties":{"osm_id":"3177164339","tag":{"amenity":"waste_basket"}},"type":"Feature"},
	{"geometry":{"coordinates":[7.426979,51.397423],"type":"Point"},"properties":{"osm_id":"3177175352","tag":{"amenity":"waste_basket"}},"type":"Feature"},
	{"geometry":{"coordinates":[7.430587,51.397915],"type":"Point"},"properties":{"osm_id":"3177175353","tag":{"amenity":"waste_basket"}},"type":"Feature"},
	{"geometry":{"coordinates":[7.468485,51.395698],"type":"Point"},"properties":{"osm_id":"3307875935","tag":{"amenity":"recycling","location":"overground","recycling:glass_bottles":"yes","recycling_type":"container"}},"type":"Feature"},
	{"geometry":{"coordinates":[7.391222,51.380017],"type":"Point"},"properties":{"osm_id":"3341607752","tag":{"amenity":"recycling","opening_hours":"24/7","operator":"Deutsches Rotes Kreuz","recycling:clothes":"yes","recycling_type":"container"}},"type":"Feature"},
	{"geometry":{"coordinates":[7.3912,51.380023],"type":"Point"},"properties":{"osm_id":"3341607753","tag":{"amenity":"recycling","opening_hours":"24/7","operator":"Deutsches Rotes Kreuz","recycling:clothes":"yes","recycling_type":"container"}},"type":"Feature"},
	{"geometry":{"coordinates":[7.38976,51.381092],"type":"Point"},"properties":{"osm_id":"3341735955","tag":{"amenity":"recycling","opening_hours":"Mo-Sa 07:00-19:00","operator":"AHE","phone":"+49 2335 84577-0","recycling:books":"yes","recycling:cardboard":"yes","recycling:glass_bottles":"yes","recycling:magazines":"yes","recycling:newspaper":"yes","recycling:paper":"yes","recycling:paper_packaging":"yes","recycling_type":"container","website":"https://www.ahe.de/"}},"type":"Feature"},
	{"geometry":{"coordinates":[7.389802,51.381081],"type":"Point"},"properties":{"osm_id":"3341735956","tag":{"amenity":"recycling","opening_hours":"Mo-Sa 07:00-19:00","operator":"AHE","phone":"+49 2335 84577-0","recycling:books":"yes","recycling:cardboard":"yes","recycling:glass_bottles":"yes","recycling:magazines":"yes","recycling:newspaper":"yes","recycling:paper":"yes","recycling:paper_packaging":"yes","recycling_type":"container","website":"https://www.ahe.de/"}},"type":"Feature"},
	{"geometry":{"coordinates":[7.389779,51.381085],"type":"Point"},"properties":{"osm_id":"3341735958","tag":{"amenity":"recycling","opening_hours":"Mo-Sa 07:00-19:00","operator":"AHE","phone":"+49 2335 84577-0","recycling:books":"yes","recycling:cardboard":"yes","recycling:glass_bottles":"yes","recycling:magazines":"yes","recycling:newspaper":"yes","recycling:paper":"yes","recycling:paper_packaging":"yes","recycling_type":"container","website":"https://www.ahe.de/"}},"type":"Feature"},
	{"geometry":{"coordinates":[7.384512,51.383569],"type":"Point"},"properties":{"osm_id":"3341963121","tag":{"amenity":"recycling","opening_hours":"Mo-Sa 07:00-19:00","operator":"AHE","phone":"+49 2335 84577-0","recycling:glass_bottles":"yes","recycling_type":"container","website":"https://www.ahe.de/"}},"type":"Feature"},
	{"geometry":{"coordinates":[7.384508,51.383583],"type":"Point"},"properties":{"osm_id":"3341963125","tag":{"amenity":"recycling","opening_hours":"Mo-Sa 07:00-19:00","operator":"AHE","phone":"+49 2335 84577-0","recycling:glass_bottles":"yes","recycling_type":"container","website":"https://www.ahe.de/"}},"type":"Feature"},
	{"geometry":{"coordinates":[7.384567,51.383517],"type":"Point"},"properties":{"osm_id":"3341963126","tag":{"amenity":"recycling","opening_hours":"24/7","operator":"Deutsches Rotes Kreuz","recycling:clothes":"yes","recycling:shoes":"yes","recycling_type":"container"}},"type":"Feature"},
	{"geometry":{"coordinates":[7.384551,51.383582],"type":"Point"},"properties":{"osm_id":"3341963127","tag":{"amenity":"recycling","opening_hours":"Mo-Sa 07:00-19:00","operator":"AHE","phone":"+49 2335 84577-0","recycling:books":"yes","recycling:cardboard":"yes","recycling:magazines":"yes","recycling:newspaper":"yes","recycling:paper":"yes","recycling:paper_packaging":"yes","recycling_type":"container","website":"https://www.ahe.de/"}},"type":"Feature"},
	{"geometry":{"coordinates":[7.384553,51.383546],"type":"Point"},"properties":{"osm_id":"3341963128","tag":{"amenity":"recycling","opening_hours":"Mo-Sa 07:00-19:00","operator":"AHE","phone":"+49 2335 84577-0","recycling:books":"yes","recycling:cardboard":"yes","recycling:magazines":"yes","recycling:newspaper":"yes","recycling:paper":"yes","recycling:paper_packaging":"yes","recycling_type":"container","website":"https://www.ahe.de/"}},"type":"Feature"},
	{"geometry":{"coordinates":[7.384552,51.383556],"type":"Point"},"properties":{"osm_id":"3341963129","tag":{"amenity":"recycling","opening_hours":"Mo-Sa 07:00-19:00","operator":"AHE","phone":"+49 2335 84577-0","recycling:books":"yes","recycling:cardboard":"yes","recycling:magazines":"yes","recycling:newspaper":"yes","recycling:paper":"yes","recycling:paper_packaging":"yes","recycling_type":"container","website":"https://www.ahe.de/"}},"type":"Feature"},
	{"geometry":{"coordinates":[7.390914,51.383554],"type":"Point"},"properties":{"osm_id":"3371535434","tag":{"amenity":"waste_basket"}},"type":"Feature"},
	{"geometry":{"coordinates":[7.390258,51.383743],"type":"Point"},"properties":{"osm_id":"3371559541","tag":{"amenity":"waste_basket"}},"type":"Feature"},
	{"geometry":{"coordinates":[7.393361,51.380243],"type":"Point"},"properties":{"osm_id":"3371600748","tag":{"amenity":"waste_basket"}},"type":"Feature"},
	{"geometry":{"coordinates":[7.393403,51.380335],"type":"Point"},"properties":{"osm_id":"3371600758","tag":{"amenity":"waste_basket"}},"type":"Feature"},
	{"geometry":{"coordinates":[7.393978,51.38159],"type":"Point"},"properties":{"osm_id":"3371670135","tag":{"amenity":"waste_basket"}},"type":"Feature"},
	{"geometry":{"coordinates":[7.393447,51.383555],"type":"Point"},"properties":{"osm_id":"3371670140","tag":{"amenity":"recycling","opening_hours":"Mo-Sa 07:00-19:00","operator":"AHE","phone":"+49 2335 84577-0","recycling:glass_bottles":"yes","recycling_type":"container","website":"https://www.ahe.de/"}},"type":"Feature"},
	{"geometry":{"coordinates":[7.393464,51.38352],"type":"Point"},"properties":{"osm_id":"3371670141","tag":{"amenity":"recycling","opening_hours":"24/7","operator":"Deutsches Rotes Kreuz","recycling:clothes":"yes","recycling:shoes":"yes","recycling_type":"container"}},"type":"Feature"},
	{"geometry":{"coordinates":[7.393474,51.383503],"type":"Point"},"properties":{"osm_id":"3371670142","tag":{"amenity":"recycling","opening_hours":"Mo-Sa 07:00-19:00","operator":"AHE","phone":"+49 2335 84577-0","recycling:books":"yes","recycling:cardboard":"yes","recycling:magazines":"yes","recycling:newspaper":"yes","recycling:paper":"yes","recycling:paper_packaging":"yes","recycling_type":"container","website":"https://www.ahe.de/"}},"type":"Feature"},
	{"geometry":{"coordinates":[7.393542,51.383875],"type":"Point"},"properties":{"osm_id":"3371670143","tag":{"amenity":"waste_basket"}},"type":"Feature"},
	{"geometry":{"coordinates":[7.394399,51.380992],"type":"Point"},"properties":{"osm_id":"3371670144","tag":{"amenity":"waste_basket"}},"type":"Feature"},
	{"geometry":{"coordinates":[7.390362,51.388725],"type":"Point"},"properties":{"osm_id":"3395416644","tag":{"amenity":"waste_basket"}},"type":"Feature"},
	{"geometry":{"coordinates":[7.430077,51.384368],"type":"Point"},"properties":{"osm_id":"3441038428","tag":{"access":"private","amenity":"recycling","recycling_type":"container"}},"type":"Feature"},
	{"geometry":{"coordinates":[7.429986,51.384491],"type":"Point"},"properties":{"osm_id":"3441038436","tag":{"access":"private","amenity":"recycling","recycling_type":"container"}},"type":"Feature"},
	{"geometry":{"coordinates":[7.422637,51.359069],"type":"Point"},"properties":{"osm_id":"3508937202","tag":{"amenity":"recycling","recycling:clothes":"yes","recycling:glass_bottles":"yes","recycling:paper":"yes","recycling_type":"container"}},"type":"Feature"},
	{"geometry":{"coordinates":[7.388801,51.38538],"type":"Point"},"properties":{"osm_id":"3517461192","tag":{"amenity":"waste_basket"}},"type":"Feature"},
	{"geometry":{"coordinates":[7.388675,51.385658],"type":"Point"},"properties":{"osm_id":"3517461896","tag":{"amenity":"waste_basket"}},"type":"Feature"},
	{"geometry":{"coordinates":[7.396799,51.397564],"type":"Point"},"properties":{"osm_id":"3572219334","tag":{"amenity":"waste_basket","waste":"trash"}},"type":"Feature"},
	{"geometry":{"coordinates":[7.38671,51.387277],"type":"Point"},"properties":{"osm_id":"3655336925","tag":{"amenity":"waste_basket","level":"0"}},"type":"Feature"},
	{"geometry":{"coordinates":[7.387792,51.386213],"type":"Point"},"properties":{"osm_id":"3673032383","tag":{"amenity":"waste_basket"}},"type":"Feature"},
	{"geometry":{"coordinates":[7.38667,51.360044],"type":"Point"},"properties":{"osm_id":"3676080963","tag":{"amenity":"recycling","recycling_type":"container"}},"type":"Feature"},
	{"geometry":{"coordinates":[7.386724,51.360046],"type":"Point"},"properties":{"osm_id":"3676080965","tag":{"amenity":"recycling","recycling_type":"container"}},"type":"Feature"},
	{"geometry":{"coordinates":[7.386713,51.360062],"type":"Point"},"properties":{"osm_id":"3676080969","tag":{"amenity":"recycling","recycling_type":"container"}},"type":"Feature"},
	{"geometry":{"coordinates":[7.388054,51.386257],"type":"Point"},"properties":{"osm_id":"3681809120","tag":{"amenity":"waste_basket"}},"type":"Feature"},
	{"geometry":{"coordinates":[7.43244,51.396263],"type":"Point"},"properties":{"osm_id":"3731799788","tag":{"amenity":"recycling","recycling:glass_bottles":"yes","recycling_type":"container"}},"type":"Feature"},
	{"geometry":{"coordinates":[7.432447,51.396275],"type":"Point"},"properties":{"osm_id":"3731799789","tag":{"amenity":"recycling","recycling:glass_bottles":"yes","recycling_type":"container"}},"type":"Feature"},
	{"geometry":{"coordinates":[7.432453,51.39629],"type":"Point"},"properties":{"osm_id":"3731799790","tag":{"amenity":"recycling","recycling:glass_bottles":"yes","recycling_type":"container"}},"type":"Feature"},
	{"geometry":{"coordinates":[7.432458,51.396305],"type":"Point"},"properties":{"osm_id":"3731799792","tag":{"amenity":"recycling","recycling:glass_bottles":"yes","recycling_type":"container"}},"type":"Feature"},
	{"geometry":{"coordinates":[7.432468,51.396341],"type":"Point"},"properties":{"osm_id":"3731799799","tag":{"amenity":"recycling","recycling:paper":"yes","recycling_type":"container"}},"type":"Feature"},
	{"geometry":{"coordinates":[7.432485,51.396367],"type":"Point"},"properties":{"osm_id":"3731799800","tag":{"amenity":"recycling","recycling:paper":"yes","recycling_type":"container"}},"type":"Feature"},
	{"geometry":{"coordinates":[7.432491,51.396391],"type":"Point"},"properties":{"osm_id":"3731799803","tag":{"amenity":"recycling","recycling:paper":"yes","recycling_type":"container"}},"type":"Feature"},
	{"geometry":{"coordinates":[7.432496,51.396412],"type":"Point"},"properties":{"osm_id":"3731799805","tag":{"amenity":"recycling","recycling:paper":"yes","recycling_type":"container"}},"type":"Feature"},
	{"geometry":{"coordinates":[7.446354,51.398063],"type":"Point"},"properties":{"osm_id":"3732838428","tag":{"amenity":"waste_basket"}},"type":"Feature"},
	{"geometry":{"coordinates":[7.440714,51.394946],"type":"Point"},"properties":{"osm_id":"3732847278","tag":{"amenity":"waste_basket"}},"type":"Feature"},
	{"geometry":{"coordinates":[7.435851,51.394333],"type":"Point"},"properties":{"osm_id":"3732862235","tag":{"amenity":"waste_basket"}},"type":"Feature"},
	{"geometry":{"coordinates":[7.436383,51.394287],"type":"Point"},"properties":{"osm_id":"3732862236","tag":{"amenity":"waste_basket"}},"type":"Feature"},
	{"geometry":{"coordinates":[7.435591,51.394402],"type":"Point"},"properties":{"osm_id":"3732862239","tag":{"amenity":"waste_basket"}},"type":"Feature"},
	{"geometry":{"coordinates":[7.4362,51.39428],"type":"Point"},"properties":{"osm_id":"3732862240","tag":{"amenity":"waste_basket"}},"type":"Feature"},
	{"geometry":{"coordinates":[7.434484,51.395193],"type":"Point"},"properties":{"osm_id":"3739077875","tag":{"amenity":"waste_basket"}},"type":"Feature"},
	{"geometry":{"coordinates":[7.434668,51.395225],"type":"Point"},"properties":{"osm_id":"3739077878","tag":{"amenity":"waste_basket"}},"type":"Feature"},
	{"geometry":{"coordinates":[7.433721,51.395871],"type":"Point"},"properties":{"osm_id":"3739077883","tag":{"amenity":"waste_basket"}},"type":"Feature"},
	{"geometry":{"coordinates":[7.434333,51.396651],"type":"Point"},"properties":{"osm_id":"3739077888","tag":{"amenity":"waste_basket"}},"type":"Feature"},
	{"geometry":{"coordinates":[7.434469,51.396698],"type":"Point"},"properties":{"osm_id":"3739077889","tag":{"amenity":"waste_basket"}},"type":"Feature"},
	{"geometry":{"coordinates":[7.43254,51.398767],"type":"Point"},"properties":{"osm_id":"3739119842","tag":{"amenity":"waste_basket"}},"type":"Feature"},
	{"geometry":{"coordinates":[7.432531,51.398914],"type":"Point"},"properties":{"osm_id":"3739119849","tag":{"amenity":"waste_basket"}},"type":"Feature"},
	{"geometry":{"coordinates":[7.432562,51.398982],"type":"Point"},"properties":{"osm_id":"3739119852","tag":{"amenity":"waste_basket"}},"type":"Feature"},
	{"geometry":{"coordinates":[7.430756,51.398276],"type":"Point"},"properties":{"osm_id":"4025672576","tag":{"amenity":"waste_basket"}},"type":"Feature"},
	{"geometry":{"coordinates":[7.431478,51.39743],"type":"Point"},"properties":{"osm_id":"4025750753","tag":{"amenity":"waste_basket"}},"type":"Feature"},
	{"geometry":{"coordinates":[7.431071,51.397573],"type":"Point"},"properties":{"osm_id":"4025750775","tag":{"amenity":"waste_basket"}},"type":"Feature"},
	{"geometry":{"coordinates":[7.430573,51.398641],"type":"Point"},"properties":{"osm_id":"4025751901","tag":{"amenity":"waste_basket"}},"type":"Feature"},
	{"geometry":{"coordinates":[7.39288,51.386838],"type":"Point"},"properties":{"osm_id":"4030165460","tag":{"amenity":"recycling","opening_hours":"Mo-Sa 07:00-19:00","operator":"AHE","phone":"+49 2335 84577-0","recycling:glass_bottles":"yes","recycling_type":"container","website":"https://www.ahe.de/"}},"type":"Feature"},
	{"geometry":{"coordinates":[7.392835,51.386868],"type":"Point"},"properties":{"osm_id":"4030165462","tag":{"amenity":"recycling","opening_hours":"24/7","operator":"AHE","phone":"+49 2335 84577-0","recycling:books":"yes","recycling:cardboard":"yes","recycling:magazines":"yes","recycling:newspaper":"yes","recycling:paper":"yes","recycling:paper_packaging":"yes","recycling_type":"container","website":"https://www.ahe.de/"}},"type":"Feature"},
	{"geometry":{"coordinates":[7.392874,51.386883],"type":"Point"},"properties":{"osm_id":"4030165463","tag":{"amenity":"recycling","opening_hours":"24/7","operator":"AHE","phone":"+49 2335 84577-0","recycling:books":"yes","recycling:cardboard":"yes","recycling:magazines":"yes","recycling:newspaper":"yes","recycling:paper":"yes","recycling:paper_packaging":"yes","recycling_type":"container","website":"https://www.ahe.de/"}},"type":"Feature"},
	{"geometry":{"coordinates":[7.430357,51.399002],"type":"Point"},"properties":{"osm_id":"4119084408","tag":{"amenity":"waste_basket"}},"type":"Feature"},
	{"geometry":{"coordinates":[7.430366,51.399064],"type":"Point"},"properties":{"osm_id":"4119084410","tag":{"amenity":"waste_basket"}},"type":"Feature"},
	{"geometry":{"coordinates":[7.430323,51.399186],"type":"Point"},"properties":{"osm_id":"4119084414","tag":{"amenity":"waste_basket"}},"type":"Feature"},
	{"geometry":{"coordinates":[7.396906,51.345544],"type":"Point"},"properties":{"osm_id":"4123425398","tag":{"amenity":"recycling","recycling:clothes":"yes","recycling:glass_bottles":"yes","recycling:paper":"yes","recycling:shoes":"yes","recycling_type":"container"}},"type":"Feature"},
	{"geometry":{"coordinates":[7.410263,51.351509],"type":"Point"},"properties":{"osm_id":"4123425399","tag":{"amenity":"recycling","recycling:clothes":"yes","recycling:glass_bottles":"yes","recycling:paper":"yes","recycling_type":"container"}},"type":"Feature"},
	{"geometry":{"coordinates":[7.41366,51.351528],"type":"Point"},"properties":{"osm_id":"4123425400","tag":{"amenity":"recycling","recycling:glass_bottles":"yes","recycling:paper":"yes","recycling_type":"container"}},"type":"Feature"},
	{"geometry":{"coordinates":[7.452877,51.3508],"type":"Point"},"properties":{"osm_id":"4270125726","tag":{"amenity":"waste_disposal"}},"type":"Feature"},
	{"geometry":{"coordinates":[7.454968,51.35771],"type":"Point"},"properties":{"osm_id":"4284361992","tag":{"amenity":"waste_basket"}},"type":"Feature"},
	{"geometry":{"coordinates":[7.431887,51.39711],"type":"Point"},"properties":{"osm_id":"4296110942","tag":{"amenity":"waste_basket"}},"type":"Feature"},
	{"geometry":{"coordinates":[7.432506,51.397319],"type":"Point"},"properties":{"osm_id":"4296110964","tag":{"amenity":"waste_basket"}},"type":"Feature"},
	{"geometry":{"coordinates":[7.427154,51.396674],"type":"Point"},"properties":{"osm_id":"4296336372","tag":{"amenity":"waste_basket"}},"type":"Feature"},
	{"geometry":{"coordinates":[7.427061,51.396781],"type":"Point"},"properties":{"osm_id":"4296336394","tag":{"amenity":"waste_basket"}},"type":"Feature"},
	{"geometry":{"coordinates":[7.427568,51.397181],"type":"Point"},"properties":{"osm_id":"4296336424","tag":{"amenity":"waste_basket"}},"type":"Feature"},
	{"geometry":{"coordinates":[7.42361,51.398482],"type":"Point"},"properties":{"osm_id":"4296802359","tag":{"amenity":"waste_basket"}},"type":"Feature"},
	{"geometry":{"coordinates":[7.470406,51.358243],"type":"Point"},"properties":{"osm_id":"4461944495","ref":"1029","tag":{"amenity":"waste_basket","description":"HEB Unterflur-M\u00c3\u00bclleimer","operator":"Hagener Entsorgungsbetrieb GmbH","waste_basket:type":"underground"}},"type":"Feature"},
	{"geometry":{"coordinates":[7.469999,51.358428],"type":"Point"},"properties":{"osm_id":"4461944496","ref":"1030","tag":{"amenity":"waste_basket","description":"HEB Unterflur-M\u00c3\u00bclleimer","operator":"Hagener Entsorgungsbetrieb GmbH","waste_basket:type":"underground"}},"type":"Feature"},
	{"geometry":{"coordinates":[7.468844,51.358702],"type":"Point"},"properties":{"osm_id":"4461944498","ref":"1071","tag":{"amenity":"waste_basket","description":"HEB Unterflur-M\u00c3\u00bclleimer","operator":"Hagener Entsorgungsbetrieb GmbH","waste_basket:type":"underground"}},"type":"Feature"},
	{"geometry":{"coordinates":[7.469341,51.358702],"type":"Point"},"properties":{"osm_id":"4461944499","ref":"1055","tag":{"amenity":"waste_basket","description":"HEB Unterflur-M\u00c3\u00bclleimer","operator":"Hagener Entsorgungsbetrieb GmbH","waste_basket:type":"underground"}},"type":"Feature"},
	{"geometry":{"coordinates":[7.469146,51.358767],"type":"Point"},"properties":{"osm_id":"4461944501","ref":"1054","tag":{"amenity":"waste_basket","description":"HEB Unterflur-M\u00c3\u00bclleimer","operator":"Hagener Entsorgungsbetrieb GmbH","waste_basket:type":"underground"}},"type":"Feature"},
	{"geometry":{"coordinates":[7.468396,51.358807],"type":"Point"},"properties":{"osm_id":"4461944502","ref":"1070","tag":{"amenity":"waste_basket","description":"HEB Unterflur-M\u00c3\u00bclleimer","operator":"Hagener Entsorgungsbetrieb GmbH","waste_basket:type":"underground"}},"type":"Feature"},
	{"geometry":{"coordinates":[7.468992,51.358931],"type":"Point"},"properties":{"osm_id":"4461944505","ref":"1053","tag":{"amenity":"waste_basket","description":"HEB Unterflur-M\u00c3\u00bclleimer","operator":"Hagener Entsorgungsbetrieb GmbH","waste_basket:type":"underground"}},"type":"Feature"},
	{"geometry":{"coordinates":[7.468069,51.35899],"type":"Point"},"properties":{"osm_id":"4461944506","ref":"1069","tag":{"amenity":"waste_basket","description":"HEB Unterflur-M\u00c3\u00bclleimer","operator":"Hagener Entsorgungsbetrieb GmbH","waste_basket:type":"underground"}},"type":"Feature"},
	{"geometry":{"coordinates":[7.467512,51.358995],"type":"Point"},"properties":{"osm_id":"4461944507","ref":"1056","tag":{"amenity":"waste_basket","description":"HEB Unterflur-M\u00c3\u00bclleimer","operator":"Hagener Entsorgungsbetrieb GmbH","waste_basket:type":"underground"}},"type":"Feature"},
	{"geometry":{"coordinates":[7.466932,51.359099],"type":"Point"},"properties":{"osm_id":"4461944510","ref":"1058","tag":{"amenity":"waste_basket","description":"HEB Unterflur-M\u00c3\u00bclleimer","operator":"Hagener Entsorgungsbetrieb GmbH","waste_basket:type":"underground"}},"type":"Feature"},
	{"geometry":{"coordinates":[7.469362,51.359109],"type":"Point"},"properties":{"osm_id":"4461944511","ref":"1050","tag":{"amenity":"waste_basket","description":"HEB Unterflur-M\u00c3\u00bclleimer","operator":"Hagener Entsorgungsbetrieb GmbH","waste_basket:type":"underground"}},"type":"Feature"},
	{"geometry":{"coordinates":[7.467476,51.359123],"type":"Point"},"properties":{"osm_id":"4461944512","ref":"1057","tag":{"amenity":"waste_basket","description":"HEB Unterflur-M\u00c3\u00bclleimer","operator":"Hagener Entsorgungsbetrieb GmbH","waste_basket:type":"underground"}},"type":"Feature"},
	{"geometry":{"coordinates":[7.466612,51.359162],"type":"Point"},"properties":{"osm_id":"4461944513","ref":"1059","tag":{"amenity":"waste_basket","description":"HEB Unterflur-M\u00c3\u00bclleimer","operator":"Hagener Entsorgungsbetrieb GmbH","waste_basket:type":"underground"}},"type":"Feature"},
	{"geometry":{"coordinates":[7.46624,51.359215],"type":"Point"},"properties":{"osm_id":"4461944514","ref":"1061","tag":{"amenity":"waste_basket","description":"HEB Unterflur-M\u00c3\u00bclleimer","operator":"Hagener Entsorgungsbetrieb GmbH","waste_basket:type":"underground"}},"type":"Feature"},
	{"geometry":{"coordinates":[7.470463,51.35925],"type":"Point"},"properties":{"osm_id":"4461944515","ref":"1041","tag":{"amenity":"waste_basket","description":"HEB Unterflur-M\u00c3\u00bclleimer","operator":"Hagener Entsorgungsbetrieb GmbH","waste_basket:type":"underground"}},"type":"Feature"},
	{"geometry":{"coordinates":[7.466731,51.359263],"type":"Point"},"properties":{"osm_id":"4461944516","ref":"1060","tag":{"amenity":"waste_basket","description":"HEB Unterflur-M\u00c3\u00bclleimer","operator":"Hagener Entsorgungsbetrieb GmbH","waste_basket:type":"underground"}},"type":"Feature"},
	{"geometry":{"coordinates":[7.469206,51.359268],"type":"Point"},"properties":{"osm_id":"4461944517","ref":"1052","tag":{"amenity":"waste_basket","description":"HEB Unterflur-M\u00c3\u00bclleimer","operator":"Hagener Entsorgungsbetrieb GmbH","waste_basket:type":"underground"}},"type":"Feature"},
	{"geometry":{"coordinates":[7.470204,51.359337],"type":"Point"},"properties":{"osm_id":"4461944518","ref":"1042","tag":{"amenity":"waste_basket","description":"HEB Unterflur-M\u00c3\u00bclleimer","operator":"Hagener Entsorgungsbetrieb GmbH","waste_basket:type":"underground"}},"type":"Feature"},
	{"geometry":{"coordinates":[7.470607,51.359367],"type":"Point"},"properties":{"osm_id":"4461944519","ref":"1040","tag":{"amenity":"waste_basket","description":"HEB Unterflur-M\u00c3\u00bclleimer","operator":"Hagener Entsorgungsbetrieb GmbH","waste_basket:type":"underground"}},"type":"Feature"},
	{"geometry":{"coordinates":[7.469301,51.359417],"type":"Point"},"properties":{"osm_id":"4461944520","ref":"1051","tag":{"amenity":"waste_basket","description":"HEB Unterflur-M\u00c3\u00bclleimer","operator":"Hagener Entsorgungsbetrieb GmbH","waste_basket:type":"underground"}},"type":"Feature"},
	{"geometry":{"coordinates":[7.465846,51.359419],"type":"Point"},"properties":{"osm_id":"4461944521","ref":"1068","tag":{"amenity":"waste_basket","description":"HEB Unterflur-M\u00c3\u00bclleimer","operator":"Hagener Entsorgungsbetrieb GmbH","waste_basket:type":"underground"}},"type":"Feature"},
	{"geometry":{"coordinates":[7.465194,51.359421],"type":"Point"},"properties":{"osm_id":"4461944522","ref":"1067","tag":{"amenity":"waste_basket","description":"HEB Unterflur-M\u00c3\u00bclleimer","operator":"Hagener Entsorgungsbetrieb GmbH","waste_basket:type":"underground"}},"type":"Feature"},
	{"geometry":{"coordinates":[7.469543,51.359471],"type":"Point"},"properties":{"osm_id":"4461944523","ref":"3049","tag":{"amenity":"waste_basket","description":"HEB Unterflur-M\u00c3\u00bclleimer","operator":"Hagener Entsorgungsbetrieb GmbH","waste_basket:type":"underground"}},"type":"Feature"},
	{"geometry":{"coordinates":[7.461539,51.359499],"type":"Point"},"properties":{"osm_id":"4461944524","ref":"1066","tag":{"amenity":"waste_basket","description":"HEB Unterflur-M\u00c3\u00bclleimer","operator":"Hagener Entsorgungsbetrieb GmbH","waste_basket:type":"underground"}},"type":"Feature"},
	{"geometry":{"coordinates":[7.465027,51.359555],"type":"Point"},"properties":{"osm_id":"4461944525","ref":"1062","tag":{"amenity":"waste_basket","description":"HEB Unterflur-M\u00c3\u00bclleimer","operator":"Hagener Entsorgungsbetrieb GmbH","waste_basket:type":"underground"}},"type":"Feature"},
	{"geometry":{"coordinates":[7.470489,51.359639],"type":"Point"},"properties":{"osm_id":"4461944526","ref":"1039","tag":{"amenity":"waste_basket","description":"HEB Unterflur-M\u00c3\u00bclleimer","operator":"Hagener Entsorgungsbetrieb GmbH","waste_basket:type":"underground"}},"type":"Feature"},
	{"geometry":{"coordinates":[7.463932,51.359668],"type":"Point"},"properties":{"osm_id":"4461944528","ref":"1063","tag":{"amenity":"waste_basket","description":"HEB Unterflur-M\u00c3\u00bclleimer","operator":"Hagener Entsorgungsbetrieb GmbH","waste_basket:type":"underground"}},"type":"Feature"},
	{"geometry":{"coordinates":[7.462268,51.359719],"type":"Point"},"properties":{"osm_id":"4461944529","ref":"3064","tag":{"amenity":"waste_basket","description":"HEB Unterflur-M\u00c3\u00bclleimer","operator":"Hagener Entsorgungsbetrieb GmbH","waste_basket:type":"underground"}},"type":"Feature"},
	{"geometry":{"coordinates":[7.461754,51.359748],"type":"Point"},"properties":{"osm_id":"4461944530","ref":"1065","tag":{"amenity":"waste_basket","description":"HEB Unterflur-M\u00c3\u00bclleimer","operator":"Hagener Entsorgungsbetrieb GmbH","waste_basket:type":"underground"}},"type":"Feature"},
	{"geometry":{"coordinates":[7.470506,51.359952],"type":"Point"},"properties":{"osm_id":"4462154361","tag":{"amenity":"waste_basket"}},"type":"Feature"},
	{"geometry":{"coordinates":[7.470129,51.35987],"type":"Point"},"properties":{"osm_id":"4462154552","tag":{"amenity":"waste_basket"}},"type":"Feature"},
	{"geometry":{"coordinates":[7.470619,51.359907],"type":"Point"},"properties":{"osm_id":"4462154562","tag":{"amenity":"waste_basket"}},"type":"Feature"},
	{"geometry":{"coordinates":[7.389407,51.381175],"type":"Point"},"properties":{"osm_id":"4516821034","tag":{"amenity":"recycling","opening_hours":"24/7","operator":"Deutsches Rotes Kreuz","recycling:clothes":"yes","recycling:shoes":"yes","recycling_type":"container"}},"type":"Feature"},
	{"geometry":{"coordinates":[7.389151,51.393214],"type":"Point"},"properties":{"osm_id":"4516844630","tag":{"amenity":"recycling","opening_hours":"24/7","operator":"Deutsches Rotes Kreuz","recycling:clothes":"yes","recycling:shoes":"yes","recycling_type":"container"}},"type":"Feature"},
	{"geometry":{"coordinates":[7.389223,51.393299],"type":"Point"},"properties":{"osm_id":"4517127919","tag":{"amenity":"recycling","opening_hours":"Mo-Sa 07:00-19:00","operator":"AHE","phone":"+49 2335 84577-0","recycling:glass_bottles":"yes","recycling_type":"container","website":"https://www.ahe.de/"}},"type":"Feature"},
	{"geometry":{"coordinates":[7.389231,51.39332],"type":"Point"},"properties":{"osm_id":"4587622998","tag":{"amenity":"recycling","opening_hours":"Mo-Sa 07:00-19:00","operator":"AHE","phone":"+49 2335 84577-0","recycling:books":"yes","recycling:cardboard":"yes","recycling:magazines":"yes","recycling:newspaper":"yes","recycling:paper":"yes","recycling:paper_packaging":"yes","recycling_type":"container","website":"https://www.ahe.de/"}},"type":"Feature"},
	{"geometry":{"coordinates":[7.392904,51.386843],"type":"Point"},"properties":{"osm_id":"4587739808","tag":{"amenity":"recycling","opening_hours":"Mo-Sa 07:00-19:00","operator":"AHE","phone":"+49 2335 84577-0","recycling:glass_bottles":"yes","recycling_type":"container","website":"https://www.ahe.de/"}},"type":"Feature"},
	{"geometry":{"coordinates":[7.398704,51.384168],"type":"Point"},"properties":{"osm_id":"4592825744","tag":{"amenity":"waste_basket"}},"type":"Feature"},
	{"geometry":{"coordinates":[7.393626,51.383454],"type":"Point"},"properties":{"osm_id":"4592825770","tag":{"amenity":"waste_basket"}},"type":"Feature"},
	{"geometry":{"coordinates":[7.398188,51.384872],"type":"Point"},"properties":{"osm_id":"4592894778","tag":{"amenity":"waste_basket"}},"type":"Feature"},
	{"geometry":{"coordinates":[7.391066,51.38412],"type":"Point"},"properties":{"osm_id":"4594820300","tag":{"amenity":"waste_basket"}},"type":"Feature"},
	{"geometry":{"coordinates":[7.388903,51.385126],"type":"Point"},"properties":{"osm_id":"4594820317","tag":{"amenity":"waste_basket"}},"type":"Feature"},
	{"geometry":{"coordinates":[7.435315,51.382158],"type":"Point"},"properties":{"osm_id":"4596422149","tag":{"amenity":"recycling","recycling:clothes":"yes","recycling_type":"container"}},"type":"Feature"},
	{"geometry":{"coordinates":[7.435301,51.38217],"type":"Point"},"properties":{"osm_id":"4596422150","tag":{"amenity":"recycling","recycling:clothes":"yes","recycling_type":"container"}},"type":"Feature"},
	{"geometry":{"coordinates":[7.435287,51.38221],"type":"Point"},"properties":{"osm_id":"4596422151","tag":{"amenity":"recycling","recycling:glass_bottles":"yes","recycling_type":"container"}},"type":"Feature"},
	{"geometry":{"coordinates":[7.435274,51.382223],"type":"Point"},"properties":{"osm_id":"4596422152","tag":{"amenity":"recycling","recycling:glass_bottles":"yes","recycling_type":"container"}},"type":"Feature"},
	{"geometry":{"coordinates":[7.435266,51.38224],"type":"Point"},"properties":{"osm_id":"4596422153","tag":{"amenity":"recycling","recycling:glass_bottles":"yes","recycling_type":"container"}},"type":"Feature"},
	{"geometry":{"coordinates":[7.435271,51.382262],"type":"Point"},"properties":{"osm_id":"4596422154","tag":{"amenity":"recycling","recycling:paper":"yes","recycling_type":"container"}},"type":"Feature"},
	{"geometry":{"coordinates":[7.461499,51.361771],"type":"Point"},"properties":{"osm_id":"4913439647","tag":{"amenity":"waste_basket"}},"type":"Feature"},
	{"geometry":{"coordinates":[7.461742,51.361712],"type":"Point"},"properties":{"osm_id":"4913439648","tag":{"amenity":"waste_basket"}},"type":"Feature"},
	{"geometry":{"coordinates":[7.459813,51.362831],"type":"Point"},"properties":{"osm_id":"4977150353","tag":{"amenity":"waste_basket","level":"-1"}},"type":"Feature"},
	{"geometry":{"coordinates":[7.46033,51.362753],"type":"Point"},"properties":{"osm_id":"4977151010","tag":{"amenity":"waste_basket","level":"-1"}},"type":"Feature"},
	{"geometry":{"coordinates":[7.460305,51.362811],"type":"Point"},"properties":{"osm_id":"4977151621","tag":{"amenity":"waste_basket","level":"-1"}},"type":"Feature"},
	{"geometry":{"coordinates":[7.461575,51.362416],"type":"Point"},"properties":{"osm_id":"4977151921","tag":{"amenity":"waste_basket","indoor":"yes","level":"0"}},"type":"Feature"},
	{"geometry":{"coordinates":[7.461947,51.356875],"type":"Point"},"properties":{"osm_id":"4994554863","tag":{"amenity":"waste_basket"}},"type":"Feature"},
	{"geometry":{"coordinates":[7.462063,51.356784],"type":"Point"},"properties":{"osm_id":"4994554866","tag":{"amenity":"waste_basket"}},"type":"Feature"},
	{"geometry":{"coordinates":[7.454131,51.35606],"type":"Point"},"properties":{"osm_id":"5247643724","tag":{"amenity":"waste_basket"}},"type":"Feature"},
	{"geometry":{"coordinates":[7.454813,51.355968],"type":"Point"},"properties":{"osm_id":"5247643725","tag":{"amenity":"waste_basket"}},"type":"Feature"},
	{"geometry":{"coordinates":[7.45485,51.356204],"type":"Point"},"properties":{"osm_id":"5247643730","tag":{"amenity":"waste_basket"}},"type":"Feature"},
	{"geometry":{"coordinates":[7.452813,51.354897],"type":"Point"},"properties":{"osm_id":"5247643736","tag":{"amenity":"waste_basket"}},"type":"Feature"},
	{"geometry":{"coordinates":[7.453344,51.355601],"type":"Point"},"properties":{"osm_id":"5247644430","tag":{"amenity":"waste_basket"}},"type":"Feature"},
	{"geometry":{"coordinates":[7.454044,51.355425],"type":"Point"},"properties":{"osm_id":"5247666822","tag":{"amenity":"waste_basket"}},"type":"Feature"},
	{"geometry":{"coordinates":[7.462591,51.362236],"type":"Point"},"properties":{"osm_id":"5276126282","tag":{"amenity":"waste_basket","direction":"292","layer":"0","level":"0"}},"type":"Feature"},
	{"geometry":{"coordinates":[7.462607,51.362187],"type":"Point"},"properties":{"osm_id":"5276126285","tag":{"amenity":"waste_basket","direction":"112","layer":"0","level":"0"}},"type":"Feature"},
	{"geometry":{"coordinates":[7.462564,51.362152],"type":"Point"},"properties":{"osm_id":"5276126286","tag":{"amenity":"waste_basket","direction":"112","layer":"0","level":"0"}},"type":"Feature"},
	{"geometry":{"coordinates":[7.462559,51.362153],"type":"Point"},"properties":{"osm_id":"5276126287","tag":{"amenity":"waste_basket","direction":"292","layer":"0","level":"0"}},"type":"Feature"},
	{"geometry":{"coordinates":[7.462539,51.362113],"type":"Point"},"properties":{"osm_id":"5276126288","tag":{"amenity":"waste_basket","direction":"112","layer":"0","level":"0"}},"type":"Feature"},
	{"geometry":{"coordinates":[7.462534,51.362114],"type":"Point"},"properties":{"osm_id":"5276126289","tag":{"amenity":"waste_basket","direction":"292","layer":"0","level":"0"}},"type":"Feature"},
	{"geometry":{"coordinates":[7.462488,51.362078],"type":"Point"},"properties":{"osm_id":"5276126290","tag":{"amenity":"waste_basket","direction":"292","layer":"0","level":"0"}},"type":"Feature"},
	{"geometry":{"coordinates":[7.462487,51.361999],"type":"Point"},"properties":{"osm_id":"5276126291","tag":{"amenity":"waste_basket","direction":"112","layer":"0","level":"0"}},"type":"Feature"},
	{"geometry":{"coordinates":[7.462444,51.361935],"type":"Point"},"properties":{"osm_id":"5276126303","tag":{"amenity":"waste_basket","direction":"112","layer":"0","level":"0"}},"type":"Feature"},
	{"geometry":{"coordinates":[7.462292,51.361737],"type":"Point"},"properties":{"osm_id":"5276146752","tag":{"amenity":"waste_basket","direction":"292","layer":"0","level":"0"}},"type":"Feature"},
	{"geometry":{"coordinates":[7.462269,51.361699],"type":"Point"},"properties":{"osm_id":"5276146753","tag":{"amenity":"waste_basket","direction":"292","layer":"0","level":"0"}},"type":"Feature"},
	{"geometry":{"coordinates":[7.462173,51.361552],"type":"Point"},"properties":{"osm_id":"5276146754","tag":{"amenity":"waste_basket","direction":"292","layer":"0","level":"0"}},"type":"Feature"},
	{"geometry":{"coordinates":[7.462174,51.361508],"type":"Point"},"properties":{"osm_id":"5276146755","tag":{"amenity":"waste_basket","direction":"112","layer":"0","level":"0"}},"type":"Feature"},
	{"geometry":{"coordinates":[7.462178,51.361551],"type":"Point"},"properties":{"osm_id":"5276146758","tag":{"amenity":"waste_basket","direction":"112","layer":"0","level":"0"}},"type":"Feature"},
	{"geometry":{"coordinates":[7.462184,51.361593],"type":"Point"},"properties":{"osm_id":"5276146759","tag":{"amenity":"waste_basket","direction":"292","layer":"0","level":"0"}},"type":"Feature"},
	{"geometry":{"coordinates":[7.462266,51.361651],"type":"Point"},"properties":{"osm_id":"5276146760","tag":{"amenity":"waste_basket","direction":"112","layer":"0","level":"0"}},"type":"Feature"},
	{"geometry":{"coordinates":[7.462274,51.361698],"type":"Point"},"properties":{"osm_id":"5276146762","tag":{"amenity":"waste_basket","direction":"112","layer":"0","level":"0"}},"type":"Feature"},
	{"geometry":{"coordinates":[7.462297,51.361735],"type":"Point"},"properties":{"osm_id":"5276146764","tag":{"amenity":"waste_basket","direction":"112","layer":"0","level":"0"}},"type":"Feature"},
	{"geometry":{"coordinates":[7.462361,51.361801],"type":"Point"},"properties":{"osm_id":"5276146765","tag":{"amenity":"waste_basket","direction":"112","layer":"0","level":"0"}},"type":"Feature"},
	{"geometry":{"coordinates":[7.462402,51.361864],"type":"Point"},"properties":{"osm_id":"5276146766","tag":{"amenity":"waste_basket","direction":"112","layer":"0","level":"0"}},"type":"Feature"},
	{"geometry":{"coordinates":[7.384883,51.387788],"type":"Point"},"properties":{"osm_id":"5278427381","tag":{"amenity":"waste_basket"}},"type":"Feature"},
	{"geometry":{"coordinates":[7.462561,51.362451],"type":"Point"},"properties":{"osm_id":"5295910349","tag":{"amenity":"waste_basket","direction":"22","layer":"0","level":"0"}},"type":"Feature"},
	{"geometry":{"coordinates":[7.46534,51.396916],"type":"Point"},"properties":{"osm_id":"5469295540","tag":{"access":"private","amenity":"recycling"}},"type":"Feature"},
	{"geometry":{"coordinates":[7.452317,51.3513],"type":"Point"},"properties":{"osm_id":"5787435449","tag":{"amenity":"waste_disposal"}},"type":"Feature"},
	{"geometry":{"coordinates":[7.452558,51.350977],"type":"Point"},"properties":{"osm_id":"5787435450","tag":{"amenity":"waste_disposal"}},"type":"Feature"},
	{"geometry":{"coordinates":[7.453092,51.350873],"type":"Point"},"properties":{"osm_id":"5787435451","tag":{"amenity":"waste_disposal"}},"type":"Feature"},
	{"geometry":{"coordinates":[7.452828,51.351169],"type":"Point"},"properties":{"osm_id":"5787435452","tag":{"amenity":"waste_disposal"}},"type":"Feature"},
	{"geometry":{"coordinates":[7.461715,51.362605],"type":"Point"},"properties":{"osm_id":"6132082880","tag":{"amenity":"waste_basket","indoor":"yes"}},"type":"Feature"},
	{"geometry":{"coordinates":[7.461552,51.362691],"type":"Point"},"properties":{"osm_id":"6132082882","tag":{"amenity":"waste_basket","level":"0"}},"type":"Feature"},
	{"geometry":{"coordinates":[7.460407,51.362987],"type":"Point"},"properties":{"osm_id":"6132082883","tag":{"amenity":"waste_basket","waste":"trash"}},"type":"Feature"},
	{"geometry":{"coordinates":[7.460425,51.364162],"type":"Point"},"properties":{"osm_id":"6136506173","tag":{"amenity":"waste_basket","waste":"trash"}},"type":"Feature"},
	{"geometry":{"coordinates":[7.46044,51.363669],"type":"Point"},"properties":{"osm_id":"6136506176","tag":{"amenity":"waste_basket","waste":"trash"}},"type":"Feature"},
	{"geometry":{"coordinates":[7.460447,51.363329],"type":"Point"},"properties":{"osm_id":"6136506177","tag":{"amenity":"waste_basket","waste":"trash"}},"type":"Feature"},
	{"geometry":{"coordinates":[7.461714,51.362207],"type":"Point"},"properties":{"osm_id":"6590087908","tag":{"amenity":"waste_basket"}},"type":"Feature"},
	{"geometry":{"coordinates":[7.461669,51.362169],"type":"Point"},"properties":{"osm_id":"6590087909","tag":{"amenity":"waste_basket"}},"type":"Feature"},
	{"geometry":{"coordinates":[7.386609,51.385611],"type":"Point"},"properties":{"osm_id":"6952780715","tag":{"amenity":"waste_basket"}},"type":"Feature"},
	{"geometry":{"coordinates":[7.388801,51.385129],"type":"Point"},"properties":{"osm_id":"6952780718","tag":{"amenity":"waste_basket"}},"type":"Feature"},
	{"geometry":{"coordinates":[7.391169,51.383796],"type":"Point"},"properties":{"osm_id":"6952780720","tag":{"amenity":"waste_basket"}},"type":"Feature"},
	{"geometry":{"coordinates":[7.38489,51.388208],"type":"Point"},"properties":{"osm_id":"6952780724","tag":{"amenity":"waste_basket"}},"type":"Feature"},
	{"geometry":{"coordinates":[7.385177,51.387903],"type":"Point"},"properties":{"osm_id":"6952780725","tag":{"amenity":"waste_basket"}},"type":"Feature"}
]
}
