{
"type": "FeatureCollection",
"features": [
	{"geometry":{"coordinates":[7.406485,51.118856],"type":"Point"},"properties":{"osm_id":"304688896","tag":{"amenity":"recycling","recycling:glass":"yes"}},"type":"Feature"},
	{"geometry":{"coordinates":[7.40019,51.120415],"type":"Point"},"properties":{"osm_id":"304689090","tag":{"amenity":"recycling","recycling:clothes":"yes","recycling:glass":"yes"}},"type":"Feature"},
	{"geometry":{"coordinates":[7.387016,51.11514],"type":"Point"},"properties":{"osm_id":"504067638","tag":{"amenity":"recycling","recycling:clothes":"yes","recycling:glass":"yes"}},"type":"Feature"},
	{"geometry":{"coordinates":[7.385176,51.113645],"type":"Point"},"properties":{"osm_id":"529939197","tag":{"amenity":"recycling","recycling:clothes":"yes","recycling:glass":"yes"}},"type":"Feature"},
	{"geometry":{"coordinates":[7.400445,51.116592],"type":"Point"},"properties":{"osm_id":"653274661","tag":{"amenity":"recycling","recycling:glass":"yes","recycling_type":"container"}},"type":"Feature"},
	{"geometry":{"coordinates":[7.405694,51.119811],"type":"Point"},"properties":{"osm_id":"669785760","tag":{"amenity":"waste_basket"}},"type":"Feature"},
	{"geometry":{"coordinates":[7.409174,51.121597],"type":"Point"},"properties":{"osm_id":"761834738","tag":{"amenity":"recycling","recycling:glass":"yes","recycling_type":"container"}},"type":"Feature"},
	{"geometry":{"coordinates":[7.397972,51.118676],"type":"Point"},"properties":{"osm_id":"901545915","tag":{"amenity":"waste_basket"}},"type":"Feature"},
	{"geometry":{"coordinates":[7.398443,51.1185],"type":"Point"},"properties":{"osm_id":"901545923","tag":{"amenity":"waste_basket"}},"type":"Feature"},
	{"geometry":{"coordinates":[7.400567,51.117993],"type":"Point"},"properties":{"osm_id":"976535516","tag":{"amenity":"waste_basket"}},"type":"Feature"},
	{"geometry":{"coordinates":[7.39406,51.11232],"type":"Point"},"properties":{"osm_id":"1107796907","tag":{"amenity":"recycling","recycling:clothes":"yes","recycling:glass":"yes"}},"type":"Feature"},
	{"geometry":{"coordinates":[7.406451,51.118869],"type":"Point"},"properties":{"osm_id":"1123339974","tag":{"amenity":"waste_basket"}},"type":"Feature"},
	{"geometry":{"coordinates":[7.410524,51.116018],"type":"Point"},"properties":{"osm_id":"1151275042","tag":{"amenity":"waste_basket"}},"type":"Feature"},
	{"geometry":{"coordinates":[7.402453,51.118637],"type":"Point"},"properties":{"osm_id":"1170163160","tag":{"amenity":"waste_basket"}},"type":"Feature"},
	{"geometry":{"coordinates":[7.402484,51.118821],"type":"Point"},"properties":{"osm_id":"1170163206","tag":{"amenity":"recycling","recycling:clothes":"yes"}},"type":"Feature"},
	{"geometry":{"coordinates":[7.408995,51.116463],"type":"Point"},"properties":{"osm_id":"1182630678","tag":{"amenity":"recycling"}},"type":"Feature"},
	{"geometry":{"coordinates":[7.389401,51.116311],"type":"Point"},"properties":{"osm_id":"1214801389","tag":{"amenity":"recycling","recycling:clothes":"yes","recycling:glass":"yes"}},"type":"Feature"},
	{"geometry":{"coordinates":[7.395102,51.11649],"type":"Point"},"properties":{"osm_id":"1381618749","tag":{"amenity":"waste_basket"}},"type":"Feature"},
	{"geometry":{"coordinates":[7.395175,51.116497],"type":"Point"},"properties":{"osm_id":"1381618759","tag":{"amenity":"waste_basket"}},"type":"Feature"},
	{"geometry":{"coordinates":[7.394833,51.112341],"type":"Point"},"properties":{"osm_id":"1384340405","tag":{"amenity":"waste_basket"}},"type":"Feature"},
	{"geometry":{"coordinates":[7.402069,51.12004],"type":"Point"},"properties":{"osm_id":"2313330067","tag":{"amenity":"waste_basket"}},"type":"Feature"},
	{"geometry":{"coordinates":[7.398455,51.12016],"type":"Point"},"properties":{"osm_id":"2313330085","tag":{"amenity":"recycling","recycling:clothes":"yes","recycling_type":"container"}},"type":"Feature"},
	{"geometry":{"coordinates":[7.401513,51.120527],"type":"Point"},"properties":{"osm_id":"2313330104","tag":{"amenity":"waste_basket"}},"type":"Feature"},
	{"geometry":{"coordinates":[7.401793,51.12063],"type":"Point"},"properties":{"osm_id":"2313330116","tag":{"amenity":"waste_basket"}},"type":"Feature"},
	{"geometry":{"coordinates":[7.407517,51.121296],"type":"Point"},"properties":{"osm_id":"2362831084","tag":{"amenity":"waste_basket","colour":"green","material":"metal"}},"type":"Feature"},
	{"geometry":{"coordinates":[7.394766,51.116426],"type":"Point"},"properties":{"osm_id":"2362931163","tag":{"amenity":"waste_basket"}},"type":"Feature"},
	{"geometry":{"coordinates":[7.40025,51.120033],"type":"Point"},"properties":{"osm_id":"2362931196","tag":{"amenity":"waste_basket"}},"type":"Feature"},
	{"geometry":{"coordinates":[7.400635,51.120936],"type":"Point"},"properties":{"osm_id":"2362931210","tag":{"amenity":"waste_basket"}},"type":"Feature"},
	{"geometry":{"coordinates":[7.392442,51.11642],"type":"Point"},"properties":{"osm_id":"2707257749","tag":{"amenity":"recycling","location":"overground","recycling:clothes":"yes","recycling:glass":"yes","recycling_type":"container"}},"type":"Feature"},
	{"geometry":{"coordinates":[7.390819,51.120914],"type":"Point"},"properties":{"osm_id":"2737088773","tag":{"amenity":"recycling","recycling:clothes":"yes","recycling_type":"container"}},"type":"Feature"},
	{"geometry":{"coordinates":[7.383413,51.1225],"type":"Point"},"properties":{"osm_id":"2756633402","tag":{"amenity":"recycling","recycling:clothes":"yes"}},"type":"Feature"},
	{"geometry":{"coordinates":[7.396424,51.123819],"type":"Point"},"properties":{"osm_id":"2764493096","tag":{"amenity":"waste_basket"}},"type":"Feature"},
	{"geometry":{"coordinates":[7.397798,51.12417],"type":"Point"},"properties":{"osm_id":"2764501817","tag":{"amenity":"waste_basket"}},"type":"Feature"},
	{"geometry":{"coordinates":[7.405451,51.120908],"type":"Point"},"properties":{"osm_id":"2769206886","tag":{"amenity":"waste_basket"}},"type":"Feature"},
	{"geometry":{"coordinates":[7.410911,51.121496],"type":"Point"},"properties":{"osm_id":"2769241225","tag":{"amenity":"waste_basket"}},"type":"Feature"},
	{"geometry":{"coordinates":[7.410413,51.12147],"type":"Point"},"properties":{"osm_id":"2769241228","tag":{"amenity":"waste_basket"}},"type":"Feature"},
	{"geometry":{"coordinates":[7.409919,51.121451],"type":"Point"},"properties":{"osm_id":"2769241229","tag":{"amenity":"waste_basket"}},"type":"Feature"},
	{"geometry":{"coordinates":[7.404843,51.120666],"type":"Point"},"properties":{"osm_id":"2769267232","tag":{"amenity":"waste_basket"}},"type":"Feature"},
	{"geometry":{"coordinates":[7.39934,51.116572],"type":"Point"},"properties":{"osm_id":"2769392872","tag":{"amenity":"waste_basket"}},"type":"Feature"},
	{"geometry":{"coordinates":[7.396726,51.115089],"type":"Point"},"properties":{"osm_id":"2769488247","tag":{"amenity":"recycling","recycling:glass":"yes","recycling:glass_bottles":"yes","recycling_type":"container"}},"type":"Feature"},
	{"geometry":{"coordinates":[7.388433,51.115392],"type":"Point"},"properties":{"osm_id":"2773568554","tag":{"amenity":"waste_basket"}},"type":"Feature"},
	{"geometry":{"coordinates":[7.385233,51.115493],"type":"Point"},"properties":{"osm_id":"2773568609","tag":{"amenity":"waste_basket"}},"type":"Feature"},
	{"geometry":{"coordinates":[7.394115,51.112304],"type":"Point"},"properties":{"osm_id":"2784880662","tag":{"amenity":"waste_basket"}},"type":"Feature"},
	{"geometry":{"coordinates":[7.389438,51.114566],"type":"Point"},"properties":{"osm_id":"2785485596","tag":{"amenity":"recycling","mapillary":"MmiimfT2IRyCLG1Z7Q8ydA","recycling:clothes":"yes","recycling:glass":"yes","recycling_type":"container","survey:date":"2018-07-29"}},"type":"Feature"},
	{"geometry":{"coordinates":[7.385869,51.113749],"type":"Point"},"properties":{"osm_id":"2785485608","tag":{"amenity":"waste_basket"}},"type":"Feature"},
	{"geometry":{"coordinates":[7.395279,51.112231],"type":"Point"},"properties":{"osm_id":"2838145435","tag":{"amenity":"waste_basket"}},"type":"Feature"},
	{"geometry":{"coordinates":[7.404761,51.114373],"type":"Point"},"properties":{"osm_id":"2838145462","tag":{"amenity":"waste_basket"}},"type":"Feature"},
	{"geometry":{"coordinates":[7.400599,51.116074],"type":"Point"},"properties":{"osm_id":"2849924915","tag":{"amenity":"waste_basket"}},"type":"Feature"},
	{"geometry":{"coordinates":[7.403868,51.115057],"type":"Point"},"properties":{"osm_id":"2849924917","tag":{"amenity":"waste_basket"}},"type":"Feature"},
	{"geometry":{"coordinates":[7.405923,51.115344],"type":"Point"},"properties":{"osm_id":"2849924919","tag":{"amenity":"recycling","recycling:clothes":"yes","recycling:glass":"yes"}},"type":"Feature"},
	{"geometry":{"coordinates":[7.406646,51.114663],"type":"Point"},"properties":{"osm_id":"2849924922","tag":{"amenity":"waste_basket"}},"type":"Feature"},
	{"geometry":{"coordinates":[7.408075,51.113133],"type":"Point"},"properties":{"osm_id":"2849924925","tag":{"amenity":"waste_basket"}},"type":"Feature"},
	{"geometry":{"coordinates":[7.408067,51.1128],"type":"Point"},"properties":{"osm_id":"2849924928","tag":{"amenity":"waste_basket"}},"type":"Feature"},
	{"geometry":{"coordinates":[7.407726,51.123094],"type":"Point"},"properties":{"osm_id":"2850844820","tag":{"amenity":"waste_basket"}},"type":"Feature"},
	{"geometry":{"coordinates":[7.39971,51.119396],"type":"Point"},"properties":{"osm_id":"2850862022","tag":{"amenity":"recycling","recycling:clothes":"yes"}},"type":"Feature"},
	{"geometry":{"coordinates":[7.399257,51.119116],"type":"Point"},"properties":{"osm_id":"2850862023","tag":{"amenity":"waste_basket"}},"type":"Feature"},
	{"geometry":{"coordinates":[7.404398,51.123334],"type":"Point"},"properties":{"osm_id":"4087705559","tag":{"amenity":"waste_basket"}},"type":"Feature"},
	{"geometry":{"coordinates":[7.401084,51.119097],"type":"Point"},"properties":{"osm_id":"4334147752","tag":{"amenity":"waste_basket"}},"type":"Feature"},
	{"geometry":{"coordinates":[7.398338,51.120451],"type":"Point"},"properties":{"osm_id":"4334147785","tag":{"amenity":"waste_basket"}},"type":"Feature"},
	{"geometry":{"coordinates":[7.393356,51.116218],"type":"Point"},"properties":{"osm_id":"5590119598","tag":{"amenity":"waste_basket"}},"type":"Feature"},
	{"geometry":{"coordinates":[7.382846,51.108357],"type":"Point"},"properties":{"osm_id":"5590142752","tag":{"amenity":"recycling","recycling_type":"container"}},"type":"Feature"},
	{"geometry":{"coordinates":[7.403762,51.121821],"type":"Point"},"properties":{"osm_id":"5591084586","tag":{"amenity":"waste_basket"}},"type":"Feature"},
	{"geometry":{"coordinates":[7.406232,51.120351],"type":"Point"},"properties":{"osm_id":"5591152157","tag":{"amenity":"waste_basket","colour":"yellow","material":"metal"}},"type":"Feature"},
	{"geometry":{"coordinates":[7.406944,51.120025],"type":"Point"},"properties":{"osm_id":"5591152177","tag":{"amenity":"waste_basket","colour":"black","material":"metal"}},"type":"Feature"},
	{"geometry":{"coordinates":[7.40712,51.120197],"type":"Point"},"properties":{"osm_id":"5591152216","tag":{"amenity":"waste_basket","colour":"black","material":"metal"}},"type":"Feature"},
	{"geometry":{"coordinates":[7.407136,51.120145],"type":"Point"},"properties":{"osm_id":"5591152217","tag":{"amenity":"waste_basket","colour":"yellow","material":"metal"}},"type":"Feature"},
	{"geometry":{"coordinates":[7.407463,51.12061],"type":"Point"},"properties":{"osm_id":"5591152218","tag":{"amenity":"waste_basket","colour":"yellow","material":"metal"}},"type":"Feature"},
	{"geometry":{"coordinates":[7.407727,51.120516],"type":"Point"},"properties":{"osm_id":"5591152219","tag":{"amenity":"waste_basket","colour":"grey","material":"metal"}},"type":"Feature"},
	{"geometry":{"coordinates":[7.407716,51.120514],"type":"Point"},"properties":{"osm_id":"5591152220","tag":{"amenity":"waste_basket","colour":"yellow","material":"metal"}},"type":"Feature"}
]
}
