{
"type": "FeatureCollection",
"features": [
	{"geometry":{"coordinates":[7.388855,51.013784],"type":"Point"},"properties":{"osm_id":"303643571","tag":{"amenity":"recycling","recycling:clothes":"yes","recycling:glass":"yes"}},"type":"Feature"},
	{"geometry":{"coordinates":[7.420751,51.021627],"type":"Point"},"properties":{"osm_id":"337551904","tag":{"amenity":"recycling","recycling:cans":"no","recycling:clothes":"yes","recycling:glass":"yes","recycling:paper":"no"}},"type":"Feature"},
	{"geometry":{"coordinates":[7.404134,51.018246],"type":"Point"},"properties":{"osm_id":"337933843","tag":{"amenity":"recycling","recycling:glass":"yes","recycling_type":"container"}},"type":"Feature"},
	{"geometry":{"coordinates":[7.431994,51.051064],"type":"Point"},"properties":{"osm_id":"417407851","tag":{"amenity":"recycling","recycling:cans":"no","recycling:clothes":"yes","recycling:glass":"yes","recycling:glass_bottles":"yes","recycling:paper":"no","recycling:plastic":"no","recycling_type":"container"}},"type":"Feature"},
	{"geometry":{"coordinates":[7.433272,51.049378],"type":"Point"},"properties":{"osm_id":"417408074","tag":{"amenity":"recycling"}},"type":"Feature"},
	{"geometry":{"coordinates":[7.459963,51.067767],"type":"Point"},"properties":{"osm_id":"745690195","tag":{"amenity":"waste_basket"}},"type":"Feature"},
	{"geometry":{"coordinates":[7.424827,51.043349],"type":"Point"},"properties":{"osm_id":"765040627","tag":{"amenity":"recycling","description":"Recyclingcontainer f\u00c3\u00bcr Kleinelektroger\u00c3\u00a4te","recycling:glass_bottles":"yes","recycling_type":"container"}},"type":"Feature"},
	{"geometry":{"coordinates":[7.38881,51.023986],"type":"Point"},"properties":{"osm_id":"1240413048","tag":{"amenity":"recycling"}},"type":"Feature"},
	{"geometry":{"coordinates":[7.387808,51.01754],"type":"Point"},"properties":{"osm_id":"1365319367","tag":{"amenity":"waste_basket"}},"type":"Feature"},
	{"geometry":{"coordinates":[7.439611,51.05136],"type":"Point"},"properties":{"osm_id":"5062701467","tag":{"amenity":"recycling","operator":"Deutsches Rotes Kreuz","recycling:clothes":"yes","recycling_type":"container"}},"type":"Feature"},
	{"geometry":{"coordinates":[7.399029,51.029692],"type":"Point"},"properties":{"osm_id":"5932867408","tag":{"amenity":"recycling","recycling:glass":"yes","recycling_type":"container"}},"type":"Feature"}
]
}
