{
"type": "FeatureCollection",
"features": [
	{"geometry":{"coordinates":[7.462179,50.941888],"type":"Point"},"properties":{"osm_id":"264600855","tag":{"amenity":"recycling","recycling_type":"container"}},"type":"Feature"},
	{"geometry":{"coordinates":[7.411586,50.903597],"type":"Point"},"properties":{"osm_id":"2945490143","tag":{"amenity":"recycling","recycling:clothes":"yes","recycling:glass":"yes","recycling_type":"container"}},"type":"Feature"},
	{"geometry":{"coordinates":[7.407965,50.910146],"type":"Point"},"properties":{"osm_id":"3023084909","tag":{"amenity":"waste_basket"}},"type":"Feature"},
	{"geometry":{"coordinates":[7.404779,50.903821],"type":"Point"},"properties":{"osm_id":"3642442403","tag":{"amenity":"waste_basket"}},"type":"Feature"},
	{"geometry":{"coordinates":[7.404922,50.904018],"type":"Point"},"properties":{"osm_id":"3642442406","tag":{"amenity":"waste_basket"}},"type":"Feature"},
	{"geometry":{"coordinates":[7.397558,50.909623],"type":"Point"},"properties":{"osm_id":"3644872965","tag":{"amenity":"waste_basket"}},"type":"Feature"},
	{"geometry":{"coordinates":[7.464719,50.93771],"type":"Point"},"properties":{"osm_id":"4003670638","tag":{"amenity":"recycling","recycling:clothes":"no","recycling:glass":"no","recycling:glass_bottles":"yes","recycling:paper":"no","recycling:plastic":"no","recycling_type":"container"}},"type":"Feature"},
	{"geometry":{"coordinates":[7.458002,50.941293],"type":"Point"},"properties":{"osm_id":"4003670639","tag":{"amenity":"recycling","recycling:glass_bottles":"yes","recycling_type":"container"}},"type":"Feature"},
	{"geometry":{"coordinates":[7.455413,50.94314],"type":"Point"},"properties":{"osm_id":"4003671909","tag":{"amenity":"recycling","recycling:clothes":"yes","recycling_type":"container"}},"type":"Feature"},
	{"geometry":{"coordinates":[7.395887,50.904158],"type":"Point"},"properties":{"osm_id":"5181590876","tag":{"amenity":"recycling","recycling:clothes":"yes","recycling:glass_bottles":"yes","recycling_type":"container"}},"type":"Feature"},
	{"geometry":{"coordinates":[7.396654,50.903693],"type":"Point"},"properties":{"osm_id":"5181590877","tag":{"amenity":"recycling","recycling:clothes":"yes","recycling_type":"container"}},"type":"Feature"},
	{"geometry":{"coordinates":[7.401321,50.905444],"type":"Point"},"properties":{"osm_id":"5186435705","tag":{"amenity":"recycling","recycling:clothes":"yes","recycling_type":"container"}},"type":"Feature"},
	{"geometry":{"coordinates":[7.407329,50.906837],"type":"Point"},"properties":{"osm_id":"5194462671","tag":{"amenity":"recycling","recycling:clothes":"yes","recycling_type":"container"}},"type":"Feature"},
	{"geometry":{"coordinates":[7.407817,50.906144],"type":"Point"},"properties":{"osm_id":"5194462674","tag":{"amenity":"waste_basket","waste":"dog_excrement"}},"type":"Feature"},
	{"geometry":{"coordinates":[7.395515,50.903488],"type":"Point"},"properties":{"osm_id":"5194462679","tag":{"amenity":"waste_basket"}},"type":"Feature"},
	{"geometry":{"coordinates":[7.395959,50.903514],"type":"Point"},"properties":{"osm_id":"5194462680","tag":{"amenity":"waste_basket"}},"type":"Feature"},
	{"geometry":{"coordinates":[7.404521,50.916632],"type":"Point"},"properties":{"osm_id":"6497398960","tag":{"amenity":"waste_basket"}},"type":"Feature"}
]
}
