{
"type": "FeatureCollection",
"features": [
	{"geometry":{"coordinates":[7.453375,49.333543],"type":"Point"},"properties":{"osm_id":"1369740786","tag":{"amenity":"recycling"}},"type":"Feature"},
	{"geometry":{"coordinates":[7.449313,49.329993],"type":"Point"},"properties":{"osm_id":"1374762585","tag":{"amenity":"recycling"}},"type":"Feature"},
	{"geometry":{"coordinates":[7.419939,49.351975],"type":"Point"},"properties":{"name":"Gr\u00c3\u00bcnabfallstelle Bechhofen","osm_id":"3178815788","tag":{"access":"residents","amenity":"recycling","recycling:garden_waste":"yes","recycling:green_waste":"yes","recycling:wood":"yes","recycling_type":"centre"}},"type":"Feature"},
	{"geometry":{"coordinates":[7.413735,49.363114],"type":"Point"},"properties":{"osm_id":"4103026109","tag":{"amenity":"waste_basket"}},"type":"Feature"},
	{"geometry":{"coordinates":[7.432403,49.346658],"type":"Point"},"properties":{"osm_id":"7716482660","tag":{"amenity":"recycling","recycling:clothes":"yes","recycling:shoes":"yes","recycling_type":"container"}},"type":"Feature"},
	{"geometry":{"coordinates":[7.409647,49.352971],"type":"Point"},"properties":{"osm_id":"8898901821","tag":{"amenity":"recycling","recycling:clothes":"yes","recycling:glass_bottles":"yes","recycling_type":"container"}},"type":"Feature"},
	{"geometry":{"coordinates":[7.399528,49.350914],"type":"Point"},"properties":{"osm_id":"8898901822","tag":{"amenity":"recycling","opening_hours":"Mo-Sa 07:00-13:00,15:00-20:00; PH off","recycling:glass_bottles":"yes","recycling_type":"container"}},"type":"Feature"},
	{"geometry":{"coordinates":[7.399325,49.35397],"type":"Point"},"properties":{"osm_id":"8898901823","tag":{"amenity":"recycling","opening_hours":"Mo-Sa 07:00-13:00,15:00-19:00; PH off","recycling:clothes":"yes","recycling:glass_bottles":"yes","recycling_type":"container"}},"type":"Feature"},
	{"geometry":{"coordinates":[7.407073,49.353017],"type":"Point"},"properties":{"osm_id":"8998038212","tag":{"amenity":"recycling","opening_hours":"Mo-Sa 07:00-13:00,15:00-19:00; PH off","recycling:glass_bottles":"yes","recycling_type":"container"}},"type":"Feature"}
]
}
