{
"type": "FeatureCollection",
"features": [
	{"geometry":{"coordinates":[7.45583,46.946648],"type":"Point"},"properties":{"osm_id":"258897036","tag":{"amenity":"recycling","recycling_type":"container"}},"type":"Feature"},
	{"geometry":{"coordinates":[7.436593,46.95056],"type":"Point"},"properties":{"osm_id":"317396242","tag":{"amenity":"recycling","location":"overground","opening_hours":"Mo-Sa 07:00-20:00","operator":"Stadt Bern","recycling:cans":"yes","recycling:glass_bottles":"yes","recycling:small_metal":"yes","recycling_type":"container","wheelchair":"no"}},"type":"Feature"},
	{"geometry":{"coordinates":[7.418302,46.940512],"type":"Point"},"properties":{"osm_id":"362847957","tag":{"amenity":"recycling","recycling:batteries":"no","recycling:books":"no","recycling:cans":"yes","recycling:cardboard":"no","recycling:cartons":"no","recycling:clothes":"no","recycling:electrical_appliances":"no","recycling:glass":"no","recycling:glass_bottles":"yes","recycling:green_waste":"no","recycling:magazines":"no","recycling:newspaper":"no","recycling:paper":"no","recycling:paper_packaging":"no","recycling:plastic":"no","recycling:plastic_bottles":"no","recycling:plastic_packaging":"no","recycling:scrap_metal":"no","recycling:small_appliances":"no","recycling:waste":"no","recycling:wood":"no","recycling_type":"container"}},"type":"Feature"},
	{"geometry":{"coordinates":[7.452897,46.962066],"type":"Point"},"properties":{"osm_id":"503897483","tag":{"amenity":"recycling","location":"underground","recycling:aluminium":"yes","recycling:batteries":"yes","recycling:cans":"yes","recycling:cardboard":"yes","recycling:glass":"yes","recycling:glass_bottles":"yes","recycling:newspaper":"yes","recycling:paper":"yes","recycling:plastic_bottles":"yes","recycling:scrap_metal":"yes","recycling_type":"container"}},"type":"Feature"},
	{"geometry":{"coordinates":[7.465342,46.937262],"type":"Point"},"properties":{"osm_id":"516284565","tag":{"addr:city":"Bern","addr:country":"CH","addr:housenumber":"38","addr:postcode":"3006","addr:street":"Willadingweg","entrance":"yes"}},"type":"Feature"},
	{"geometry":{"coordinates":[7.453139,46.946179],"type":"Point"},"properties":{"osm_id":"558843440","tag":{"amenity":"waste_basket"}},"type":"Feature"},
	{"geometry":{"coordinates":[7.46461,46.959202],"type":"Point"},"properties":{"osm_id":"559231877","tag":{"amenity":"waste_basket"}},"type":"Feature"},
	{"geometry":{"coordinates":[7.45337,46.95555],"type":"Point"},"properties":{"osm_id":"598242964","tag":{"amenity":"recycling","location":"overground","recycling:aluminium":"yes","recycling:cans":"yes","recycling:glass_bottles":"yes","recycling_type":"container"}},"type":"Feature"},
	{"geometry":{"coordinates":[7.463159,46.965451],"type":"Point"},"properties":{"osm_id":"615039123","tag":{"amenity":"recycling","recycling_type":"container"}},"type":"Feature"},
	{"geometry":{"coordinates":[7.444765,46.953951],"type":"Point"},"properties":{"osm_id":"621950895","tag":{"amenity":"recycling","recycling:cans":"yes","recycling:glass_bottles":"yes","recycling_type":"container"}},"type":"Feature"},
	{"geometry":{"coordinates":[7.44862,46.964879],"type":"Point"},"properties":{"osm_id":"621950957","tag":{"amenity":"recycling"}},"type":"Feature"},
	{"geometry":{"coordinates":[7.469301,46.970442],"type":"Point"},"properties":{"osm_id":"622967136","tag":{"amenity":"recycling"}},"type":"Feature"},
	{"geometry":{"coordinates":[7.439468,46.936838],"type":"Point"},"properties":{"osm_id":"635722948","tag":{"amenity":"recycling","recycling:cans":"yes","recycling:cardboard":"yes","recycling:glass":"yes","recycling:glass_bottles":"yes","recycling:paper":"yes","recycling:plastic":"yes","recycling:scrap_metal":"yes","recycling_type":"container"}},"type":"Feature"},
	{"geometry":{"coordinates":[7.437458,46.939488],"type":"Point"},"properties":{"name":"Kleidersammlung","osm_id":"662435446","tag":{"amenity":"recycling","operator":"Contex","recycling_type":"container"}},"type":"Feature"},
	{"geometry":{"coordinates":[7.432861,46.935852],"type":"Point"},"properties":{"osm_id":"666998602","tag":{"amenity":"recycling"}},"type":"Feature"},
	{"geometry":{"coordinates":[7.420743,46.938087],"type":"Point"},"properties":{"osm_id":"681289630","tag":{"amenity":"recycling","recycling:clothes":"yes","recycling_type":"container"}},"type":"Feature"},
	{"geometry":{"coordinates":[7.452181,46.972741],"type":"Point"},"properties":{"osm_id":"848255591","tag":{"amenity":"recycling","location":"overground","opening_hours":"Mo-Sa 07:00-20:00","operator":"Stadt Bern","recycling:cans":"yes","recycling:glass_bottles":"yes","recycling:small_metal":"yes","recycling_type":"container","wheelchair":"no"}},"type":"Feature"},
	{"geometry":{"coordinates":[7.433379,46.926006],"type":"Point"},"properties":{"osm_id":"859277589","tag":{"amenity":"recycling","recycling:cans":"yes","recycling:glass_bottles":"yes","recycling:scrap_metal":"yes","recycling_type":"container"}},"type":"Feature"},
	{"geometry":{"coordinates":[7.435843,46.926668],"type":"Point"},"properties":{"osm_id":"923052751","tag":{"amenity":"recycling","recycling:clothes":"yes","recycling:oil":"yes","recycling_type":"container"}},"type":"Feature"},
	{"geometry":{"coordinates":[7.414534,46.923734],"type":"Point"},"properties":{"osm_id":"1022614594","tag":{"amenity":"recycling","recycling:cans":"yes","recycling:clothes":"yes","recycling:glass":"yes","recycling:glass_bottles":"yes","recycling:paper":"no","recycling_type":"container"}},"type":"Feature"},
	{"geometry":{"coordinates":[7.468736,46.933545],"type":"Point"},"properties":{"osm_id":"1219387113","tag":{"amenity":"waste_basket","brand":"Robidog","vending":"excrement_bags"}},"type":"Feature"},
	{"geometry":{"coordinates":[7.463423,46.931637],"type":"Point"},"properties":{"osm_id":"1224528480","tag":{"amenity":"waste_basket"}},"type":"Feature"},
	{"geometry":{"coordinates":[7.415389,46.922656],"type":"Point"},"properties":{"osm_id":"1289493541","tag":{"amenity":"recycling","recycling:cans":"yes","recycling:clothes":"yes","recycling:glass_bottles":"yes","recycling:scrap_metal":"yes","recycling_type":"container"}},"type":"Feature"},
	{"geometry":{"coordinates":[7.414063,46.921129],"type":"Point"},"properties":{"osm_id":"1289493648","tag":{"amenity":"waste_basket"}},"type":"Feature"},
	{"geometry":{"coordinates":[7.397559,46.949148],"type":"Point"},"properties":{"osm_id":"1721178770","tag":{"amenity":"waste_basket"}},"type":"Feature"},
	{"geometry":{"coordinates":[7.395475,46.949293],"type":"Point"},"properties":{"osm_id":"1721178776","tag":{"amenity":"waste_basket"}},"type":"Feature"},
	{"geometry":{"coordinates":[7.454895,46.959248],"type":"Point"},"properties":{"osm_id":"1739122283","tag":{"addr:city":"Bern","addr:country":"CH","addr:postcode":"3014","addr:street":"Stauffacherstrasse","amenity":"recycling","recycling:glass_bottles":"yes","recycling_type":"container"}},"type":"Feature"},
	{"geometry":{"coordinates":[7.459942,46.94797],"type":"Point"},"properties":{"osm_id":"1769205625","tag":{"amenity":"waste_basket"}},"type":"Feature"},
	{"geometry":{"coordinates":[7.460246,46.948437],"type":"Point"},"properties":{"osm_id":"1769205630","tag":{"amenity":"waste_basket"}},"type":"Feature"},
	{"geometry":{"coordinates":[7.460572,46.948903],"type":"Point"},"properties":{"osm_id":"1769224053","tag":{"amenity":"waste_basket"}},"type":"Feature"},
	{"geometry":{"coordinates":[7.460488,46.949162],"type":"Point"},"properties":{"osm_id":"1769242500","tag":{"amenity":"waste_basket"}},"type":"Feature"},
	{"geometry":{"coordinates":[7.460379,46.949482],"type":"Point"},"properties":{"osm_id":"1769242501","tag":{"amenity":"waste_basket"}},"type":"Feature"},
	{"geometry":{"coordinates":[7.42844,46.949972],"type":"Point"},"properties":{"osm_id":"1796704381","tag":{"amenity":"recycling","location":"overground","opening_hours":"Mo-Sa 07:00-20:00","operator":"Stadt Bern","recycling:cans":"yes","recycling:glass_bottles":"yes","recycling:small_metal":"yes","recycling_type":"container","wheelchair":"no"}},"type":"Feature"},
	{"geometry":{"coordinates":[7.436477,46.97037],"type":"Point"},"properties":{"name":"Sammelstelle L\u00c3\u00a4ndli","osm_id":"1802129564","tag":{"amenity":"recycling","recycling:PET":"yes","recycling:cans":"yes","recycling:glass":"yes","recycling_type":"container"}},"type":"Feature"},
	{"geometry":{"coordinates":[7.427035,46.97536],"type":"Point"},"properties":{"name":"Sammelstelle Busendstation","osm_id":"1802129565","tag":{"amenity":"recycling","recycling:batteries":"no","recycling:books":"no","recycling:cans":"yes","recycling:cardboard":"no","recycling:cartons":"no","recycling:clothes":"yes","recycling:electrical_appliances":"no","recycling:glass":"yes","recycling:glass_bottles":"yes","recycling:green_waste":"no","recycling:magazines":"no","recycling:newspaper":"no","recycling:paper":"no","recycling:paper_packaging":"no","recycling:plastic":"no","recycling:plastic_bottles":"yes","recycling:plastic_packaging":"no","recycling:scrap_metal":"no","recycling:small_appliances":"no","recycling:waste":"no","recycling:wood":"no","recycling_type":"container"}},"type":"Feature"},
	{"geometry":{"coordinates":[7.426979,46.945961],"type":"Point"},"properties":{"osm_id":"1809389619","tag":{"amenity":"recycling","location":"overground","opening_hours":"Mo-Sa 07:00-20:00","operator":"Stadt Bern","recycling:cans":"yes","recycling:clothes":"no","recycling:glass_bottles":"yes","recycling:paper":"no","recycling:small_metal":"yes","recycling_type":"container"}},"type":"Feature"},
	{"geometry":{"coordinates":[7.434139,46.974366],"type":"Point"},"properties":{"osm_id":"2087555560","tag":{"access":"private","amenity":"recycling"}},"type":"Feature"},
	{"geometry":{"coordinates":[7.434132,46.973944],"type":"Point"},"properties":{"osm_id":"2088634915","tag":{"access":"private","amenity":"recycling","recycling:waste":"yes"}},"type":"Feature"},
	{"geometry":{"coordinates":[7.43415,46.975414],"type":"Point"},"properties":{"osm_id":"2088635246","tag":{"access":"private","amenity":"waste_disposal"}},"type":"Feature"},
	{"geometry":{"coordinates":[7.435212,46.975498],"type":"Point"},"properties":{"osm_id":"2088635266","tag":{"access":"private","amenity":"waste_disposal"}},"type":"Feature"},
	{"geometry":{"coordinates":[7.441034,46.94922],"type":"Point"},"properties":{"osm_id":"2333821804","tag":{"addr:city":"Bern","addr:country":"CH","addr:postcode":"3011","addr:street":"Genfergasse","amenity":"waste_basket"}},"type":"Feature"},
	{"geometry":{"coordinates":[7.440325,46.947257],"type":"Point"},"properties":{"osm_id":"2361917425","tag":{"amenity":"waste_basket"}},"type":"Feature"},
	{"geometry":{"coordinates":[7.390176,46.939779],"type":"Point"},"properties":{"osm_id":"2368087730","tag":{"amenity":"waste_basket"}},"type":"Feature"},
	{"geometry":{"coordinates":[7.391004,46.941859],"type":"Point"},"properties":{"osm_id":"2368122784","tag":{"amenity":"waste_basket"}},"type":"Feature"},
	{"geometry":{"coordinates":[7.46571,46.947298],"type":"Point"},"properties":{"osm_id":"2372268129","tag":{"amenity":"waste_basket"}},"type":"Feature"},
	{"geometry":{"coordinates":[7.461131,46.94477],"type":"Point"},"properties":{"osm_id":"2378844503","tag":{"amenity":"waste_basket"}},"type":"Feature"},
	{"geometry":{"coordinates":[7.465782,46.947745],"type":"Point"},"properties":{"osm_id":"2378849055","tag":{"amenity":"waste_basket"}},"type":"Feature"},
	{"geometry":{"coordinates":[7.431469,46.941229],"type":"Point"},"properties":{"osm_id":"2420132661","tag":{"amenity":"recycling","recycling:batteries":"no","recycling:clothes":"no","recycling:glass_bottles":"yes","recycling:paper":"no","recycling:scrap_metal":"yes","recycling_type":"container"}},"type":"Feature"},
	{"geometry":{"coordinates":[7.430106,46.93359],"type":"Point"},"properties":{"osm_id":"2447053174","tag":{"amenity":"waste_basket"}},"type":"Feature"},
	{"geometry":{"coordinates":[7.42934,46.932818],"type":"Point"},"properties":{"osm_id":"2449874035","tag":{"amenity":"waste_basket"}},"type":"Feature"},
	{"geometry":{"coordinates":[7.453131,46.94236],"type":"Point"},"properties":{"osm_id":"2512500708","tag":{"amenity":"waste_basket","waste":"trash;cigarettes"}},"type":"Feature"},
	{"geometry":{"coordinates":[7.453201,46.942468],"type":"Point"},"properties":{"osm_id":"2512500709","tag":{"amenity":"waste_basket","waste":"trash;cigarettes"}},"type":"Feature"},
	{"geometry":{"coordinates":[7.435669,46.952939],"type":"Point"},"properties":{"osm_id":"2514442380","tag":{"amenity":"waste_basket"}},"type":"Feature"},
	{"geometry":{"coordinates":[7.447906,46.941336],"type":"Point"},"properties":{"osm_id":"2518843830","tag":{"amenity":"waste_basket"}},"type":"Feature"},
	{"geometry":{"coordinates":[7.447461,46.93691],"type":"Point"},"properties":{"osm_id":"2525455619","tag":{"amenity":"waste_basket"}},"type":"Feature"},
	{"geometry":{"coordinates":[7.436722,46.939815],"type":"Point"},"properties":{"osm_id":"2526463922","tag":{"amenity":"waste_basket"}},"type":"Feature"},
	{"geometry":{"coordinates":[7.466103,46.94198],"type":"Point"},"properties":{"osm_id":"2536216813","tag":{"amenity":"waste_basket"}},"type":"Feature"},
	{"geometry":{"coordinates":[7.449492,46.943859],"type":"Point"},"properties":{"osm_id":"2565917763","tag":{"amenity":"waste_basket"}},"type":"Feature"},
	{"geometry":{"coordinates":[7.449685,46.946096],"type":"Point"},"properties":{"osm_id":"2570850913","tag":{"amenity":"waste_basket"}},"type":"Feature"},
	{"geometry":{"coordinates":[7.449233,46.947152],"type":"Point"},"properties":{"osm_id":"2571652571","tag":{"amenity":"waste_basket"}},"type":"Feature"},
	{"geometry":{"coordinates":[7.463559,46.941302],"type":"Point"},"properties":{"osm_id":"2579809161","tag":{"addr:city":"Bern","addr:country":"CH","addr:postcode":"3006","addr:street":"Thunstrasse","amenity":"waste_basket"}},"type":"Feature"},
	{"geometry":{"coordinates":[7.385955,46.93569],"type":"Point"},"properties":{"osm_id":"2603560224","tag":{"amenity":"waste_basket"}},"type":"Feature"},
	{"geometry":{"coordinates":[7.450655,46.940364],"type":"Point"},"properties":{"osm_id":"2624019139","tag":{"amenity":"waste_basket"}},"type":"Feature"},
	{"geometry":{"coordinates":[7.44612,46.954935],"type":"Point"},"properties":{"osm_id":"2647555318","tag":{"addr:city":"Bern","addr:country":"CH","addr:postcode":"3013","amenity":"waste_basket"}},"type":"Feature"},
	{"geometry":{"coordinates":[7.417054,46.928957],"type":"Point"},"properties":{"osm_id":"2686400357","tag":{"amenity":"recycling","location":"overground","recycling:cans":"yes","recycling:glass_bottles":"yes","recycling_type":"container"}},"type":"Feature"},
	{"geometry":{"coordinates":[7.455653,46.963528],"type":"Point"},"properties":{"osm_id":"2707221542","tag":{"amenity":"waste_basket"}},"type":"Feature"},
	{"geometry":{"coordinates":[7.463257,46.940772],"type":"Point"},"properties":{"osm_id":"2713561918","tag":{"amenity":"waste_basket"}},"type":"Feature"},
	{"geometry":{"coordinates":[7.46593,46.940762],"type":"Point"},"properties":{"osm_id":"2713561920","tag":{"amenity":"waste_basket"}},"type":"Feature"},
	{"geometry":{"coordinates":[7.465052,46.941307],"type":"Point"},"properties":{"osm_id":"2718833131","tag":{"amenity":"waste_basket"}},"type":"Feature"},
	{"geometry":{"coordinates":[7.447539,46.939175],"type":"Point"},"properties":{"osm_id":"2782808205","tag":{"amenity":"waste_basket"}},"type":"Feature"},
	{"geometry":{"coordinates":[7.44736,46.939325],"type":"Point"},"properties":{"osm_id":"2782808206","tag":{"amenity":"waste_basket"}},"type":"Feature"},
	{"geometry":{"coordinates":[7.391978,46.940209],"type":"Point"},"properties":{"osm_id":"2798128441","tag":{"amenity":"recycling","recycling:aluminium":"yes","recycling:batteries":"yes","recycling:glass_bottles":"yes","recycling:paper":"yes"}},"type":"Feature"},
	{"geometry":{"coordinates":[7.412098,46.972479],"type":"Point"},"properties":{"osm_id":"2812387391","tag":{"amenity":"waste_basket"}},"type":"Feature"},
	{"geometry":{"coordinates":[7.417288,46.972885],"type":"Point"},"properties":{"osm_id":"2812387398","tag":{"amenity":"waste_basket"}},"type":"Feature"},
	{"geometry":{"coordinates":[7.410863,46.974329],"type":"Point"},"properties":{"name":"Entsorgungsstelle Thalmatt","osm_id":"2812387400","tag":{"amenity":"recycling","opening_hours":"Mo-Fr 08:00-19:00; Sa 08:00-17:00","recycling:glass":"yes","recycling_type":"container"}},"type":"Feature"},
	{"geometry":{"coordinates":[7.444781,46.94625],"type":"Point"},"properties":{"osm_id":"2894071126","tag":{"amenity":"waste_basket"}},"type":"Feature"},
	{"geometry":{"coordinates":[7.444638,46.946441],"type":"Point"},"properties":{"osm_id":"2894071128","tag":{"amenity":"waste_basket"}},"type":"Feature"},
	{"geometry":{"coordinates":[7.45059,46.928999],"type":"Point"},"properties":{"osm_id":"2915808780","tag":{"amenity":"recycling","location":"overground","recycling:cans":"yes","recycling:glass_bottles":"yes","recycling_type":"container"}},"type":"Feature"},
	{"geometry":{"coordinates":[7.456321,46.948689],"type":"Point"},"properties":{"osm_id":"2955810137","tag":{"amenity":"waste_basket"}},"type":"Feature"},
	{"geometry":{"coordinates":[7.456267,46.948565],"type":"Point"},"properties":{"osm_id":"2955814291","tag":{"amenity":"waste_basket"}},"type":"Feature"},
	{"geometry":{"coordinates":[7.456174,46.9487],"type":"Point"},"properties":{"osm_id":"2955814292","tag":{"amenity":"waste_basket"}},"type":"Feature"},
	{"geometry":{"coordinates":[7.461455,46.95207],"type":"Point"},"properties":{"osm_id":"2992824594","tag":{"amenity":"waste_basket","brand":"Robidog","vending":"excrement_bags","waste":"trash"}},"type":"Feature"},
	{"geometry":{"coordinates":[7.461292,46.952159],"type":"Point"},"properties":{"osm_id":"2992824596","tag":{"addr:city":"Bern","addr:country":"CH","addr:postcode":"3013","addr:street":"Laubeggstrasse","amenity":"waste_basket"}},"type":"Feature"},
	{"geometry":{"coordinates":[7.433729,46.954807],"type":"Point"},"properties":{"osm_id":"3009243709","tag":{"amenity":"waste_basket"}},"type":"Feature"},
	{"geometry":{"coordinates":[7.433724,46.954935],"type":"Point"},"properties":{"osm_id":"3009425519","tag":{"amenity":"waste_basket"}},"type":"Feature"},
	{"geometry":{"coordinates":[7.433769,46.955054],"type":"Point"},"properties":{"osm_id":"3009456564","tag":{"amenity":"waste_basket"}},"type":"Feature"},
	{"geometry":{"coordinates":[7.441973,46.951874],"type":"Point"},"properties":{"osm_id":"3012470474","tag":{"amenity":"waste_basket"}},"type":"Feature"},
	{"geometry":{"coordinates":[7.436486,46.950006],"type":"Point"},"properties":{"osm_id":"3015806532","tag":{"amenity":"waste_basket","waste":"trash;cigarettes"}},"type":"Feature"},
	{"geometry":{"coordinates":[7.435561,46.95077],"type":"Point"},"properties":{"osm_id":"3023876223","tag":{"amenity":"waste_basket","waste":"trash;cigarettes"}},"type":"Feature"},
	{"geometry":{"coordinates":[7.439854,46.947877],"type":"Point"},"properties":{"osm_id":"3157497219","tag":{"amenity":"waste_basket"}},"type":"Feature"},
	{"geometry":{"coordinates":[7.461244,46.944827],"type":"Point"},"properties":{"osm_id":"3217394386","tag":{"amenity":"waste_basket"}},"type":"Feature"},
	{"geometry":{"coordinates":[7.441983,46.950434],"type":"Point"},"properties":{"osm_id":"3270417080","tag":{"amenity":"waste_basket"}},"type":"Feature"},
	{"geometry":{"coordinates":[7.467195,46.955297],"type":"Point"},"properties":{"osm_id":"3299478447","tag":{"amenity":"waste_disposal"}},"type":"Feature"},
	{"geometry":{"coordinates":[7.463541,46.95568],"type":"Point"},"properties":{"osm_id":"3304829061","tag":{"amenity":"waste_basket","brand":"Robidog","vending":"excrement_bags"}},"type":"Feature"},
	{"geometry":{"coordinates":[7.450585,46.969144],"type":"Point"},"properties":{"osm_id":"3318065444","tag":{"amenity":"waste_basket","brand":"Robidog","vending":"excrement_bags","waste":"trash"}},"type":"Feature"},
	{"geometry":{"coordinates":[7.397962,46.943565],"type":"Point"},"properties":{"osm_id":"3382450102","tag":{"amenity":"recycling"}},"type":"Feature"},
	{"geometry":{"coordinates":[7.444432,46.973607],"type":"Point"},"properties":{"osm_id":"3393441956","tag":{"amenity":"recycling","location":"overground","opening_hours":"Mo-Sa 07:00-20:00","operator":"Stadt Bern","recycling:cans":"yes","recycling:glass_bottles":"yes","recycling:small_metal":"yes","recycling_type":"container","wheelchair":"no"}},"type":"Feature"},
	{"geometry":{"coordinates":[7.442221,46.948966],"type":"Point"},"properties":{"osm_id":"3450677400","tag":{"amenity":"waste_basket"}},"type":"Feature"},
	{"geometry":{"coordinates":[7.442282,46.949063],"type":"Point"},"properties":{"osm_id":"3450695594","tag":{"amenity":"waste_basket"}},"type":"Feature"},
	{"geometry":{"coordinates":[7.437555,46.946771],"type":"Point"},"properties":{"osm_id":"3450758493","tag":{"amenity":"waste_basket"}},"type":"Feature"},
	{"geometry":{"coordinates":[7.438927,46.950517],"type":"Point"},"properties":{"osm_id":"3471261297","tag":{"amenity":"waste_basket","waste":"trash"}},"type":"Feature"},
	{"geometry":{"coordinates":[7.439683,46.950302],"type":"Point"},"properties":{"osm_id":"3471322293","tag":{"amenity":"waste_basket"}},"type":"Feature"},
	{"geometry":{"coordinates":[7.390056,46.939684],"type":"Point"},"properties":{"osm_id":"3587671156","tag":{"amenity":"waste_basket"}},"type":"Feature"},
	{"geometry":{"coordinates":[7.442001,46.957526],"type":"Point"},"properties":{"osm_id":"3646449893","tag":{"amenity":"waste_basket"}},"type":"Feature"},
	{"geometry":{"coordinates":[7.441701,46.957103],"type":"Point"},"properties":{"osm_id":"3646623591","tag":{"amenity":"waste_basket"}},"type":"Feature"},
	{"geometry":{"coordinates":[7.42856,46.9419],"type":"Point"},"properties":{"osm_id":"3671314525","tag":{"amenity":"waste_basket"}},"type":"Feature"},
	{"geometry":{"coordinates":[7.417047,46.935857],"type":"Point"},"properties":{"osm_id":"3720389932","tag":{"amenity":"recycling","recycling:paper":"yes","recycling_type":"container"}},"type":"Feature"},
	{"geometry":{"coordinates":[7.434926,46.94127],"type":"Point"},"properties":{"osm_id":"3729695864","tag":{"amenity":"waste_basket"}},"type":"Feature"},
	{"geometry":{"coordinates":[7.416998,46.935784],"type":"Point"},"properties":{"osm_id":"3731759227","tag":{"amenity":"waste_basket"}},"type":"Feature"},
	{"geometry":{"coordinates":[7.431803,46.940021],"type":"Point"},"properties":{"osm_id":"3736261806","tag":{"amenity":"recycling","recycling:batteries":"yes","recycling:cans":"no","recycling:cds":"yes","recycling:clothes":"no","recycling:glass":"no","recycling:paper":"no","recycling:plastic_bottles":"yes","recycling_type":"container"}},"type":"Feature"},
	{"geometry":{"coordinates":[7.420358,46.933855],"type":"Point"},"properties":{"osm_id":"3739380925","tag":{"amenity":"waste_basket"}},"type":"Feature"},
	{"geometry":{"coordinates":[7.420741,46.933826],"type":"Point"},"properties":{"osm_id":"3739381425","tag":{"amenity":"waste_basket"}},"type":"Feature"},
	{"geometry":{"coordinates":[7.415112,46.93929],"type":"Point"},"properties":{"osm_id":"3756072929","tag":{"amenity":"waste_basket"}},"type":"Feature"},
	{"geometry":{"coordinates":[7.414366,46.940082],"type":"Point"},"properties":{"osm_id":"3756074128","tag":{"amenity":"waste_basket"}},"type":"Feature"},
	{"geometry":{"coordinates":[7.414811,46.939781],"type":"Point"},"properties":{"osm_id":"3756074129","tag":{"amenity":"waste_basket"}},"type":"Feature"},
	{"geometry":{"coordinates":[7.414477,46.937395],"type":"Point"},"properties":{"osm_id":"3756087727","tag":{"amenity":"waste_basket"}},"type":"Feature"},
	{"geometry":{"coordinates":[7.419766,46.933331],"type":"Point"},"properties":{"osm_id":"3756117427","tag":{"amenity":"waste_basket"}},"type":"Feature"},
	{"geometry":{"coordinates":[7.450853,46.934569],"type":"Point"},"properties":{"osm_id":"3757338326","tag":{"amenity":"waste_basket"}},"type":"Feature"},
	{"geometry":{"coordinates":[7.425344,46.941867],"type":"Point"},"properties":{"osm_id":"3767184157","tag":{"amenity":"waste_basket","waste":"dog_excrement"}},"type":"Feature"},
	{"geometry":{"coordinates":[7.420101,46.92845],"type":"Point"},"properties":{"osm_id":"3779201170","tag":{"amenity":"waste_basket","survey:date":"2017-10-19"}},"type":"Feature"},
	{"geometry":{"coordinates":[7.41979,46.928047],"type":"Point"},"properties":{"osm_id":"3779206965","tag":{"amenity":"waste_basket"}},"type":"Feature"},
	{"geometry":{"coordinates":[7.419457,46.927622],"type":"Point"},"properties":{"osm_id":"3779214857","tag":{"amenity":"waste_basket"}},"type":"Feature"},
	{"geometry":{"coordinates":[7.426845,46.933462],"type":"Point"},"properties":{"osm_id":"3781723858","tag":{"amenity":"waste_basket"}},"type":"Feature"},
	{"geometry":{"coordinates":[7.423989,46.938668],"type":"Point"},"properties":{"osm_id":"3875862058","tag":{"amenity":"waste_basket"}},"type":"Feature"},
	{"geometry":{"coordinates":[7.422719,46.940874],"type":"Point"},"properties":{"osm_id":"3875926757","tag":{"amenity":"waste_basket"}},"type":"Feature"},
	{"geometry":{"coordinates":[7.406951,46.928669],"type":"Point"},"properties":{"osm_id":"3967842558","tag":{"amenity":"waste_basket"}},"type":"Feature"},
	{"geometry":{"coordinates":[7.440856,46.946498],"type":"Point"},"properties":{"osm_id":"4012701589","tag":{"amenity":"waste_basket"}},"type":"Feature"},
	{"geometry":{"coordinates":[7.450592,46.957468],"type":"Point"},"properties":{"name":"Robidog","osm_id":"4034905289","tag":{"amenity":"waste_basket","operator":"Robidog AG","vending":"excrement_bags"}},"type":"Feature"},
	{"geometry":{"coordinates":[7.4078,46.925803],"type":"Point"},"properties":{"osm_id":"4052967614","tag":{"amenity":"waste_basket","vending":"excrement_bags"}},"type":"Feature"},
	{"geometry":{"coordinates":[7.413225,46.920733],"type":"Point"},"properties":{"osm_id":"4173969919","tag":{"amenity":"waste_basket"}},"type":"Feature"},
	{"geometry":{"coordinates":[7.407405,46.920724],"type":"Point"},"properties":{"osm_id":"4173969920","tag":{"amenity":"waste_basket"}},"type":"Feature"},
	{"geometry":{"coordinates":[7.408129,46.920765],"type":"Point"},"properties":{"highway":"bus_stop","name":"M\u00c3\u00b6sliweg","osm_id":"4173969921","tag":{"amenity":"waste_basket","uic_name":"K\u00c3\u00b6niz, M\u00c3\u00b6sliweg","uic_ref":"8590097"}},"type":"Feature"},
	{"geometry":{"coordinates":[7.412224,46.922529],"type":"Point"},"properties":{"osm_id":"4173969930","tag":{"amenity":"waste_basket"}},"type":"Feature"},
	{"geometry":{"coordinates":[7.385249,46.961661],"type":"Point"},"properties":{"osm_id":"4173969948","tag":{"amenity":"waste_basket"}},"type":"Feature"},
	{"geometry":{"coordinates":[7.41456,46.922795],"type":"Point"},"properties":{"osm_id":"4191270248","tag":{"amenity":"waste_basket"}},"type":"Feature"},
	{"geometry":{"coordinates":[7.413926,46.925776],"type":"Point"},"properties":{"osm_id":"4197187443","tag":{"amenity":"recycling","recycling:cans":"yes","recycling:clothes":"yes","recycling:glass":"yes","recycling:glass_bottles":"yes","recycling_type":"container"}},"type":"Feature"},
	{"geometry":{"coordinates":[7.413961,46.926172],"type":"Point"},"properties":{"osm_id":"4197187446","tag":{"amenity":"waste_basket"}},"type":"Feature"},
	{"geometry":{"coordinates":[7.392869,46.942878],"type":"Point"},"properties":{"osm_id":"4210201146","tag":{"amenity":"waste_basket"}},"type":"Feature"},
	{"geometry":{"coordinates":[7.403216,46.920281],"type":"Point"},"properties":{"osm_id":"4228499518","tag":{"amenity":"waste_basket"}},"type":"Feature"},
	{"geometry":{"coordinates":[7.419097,46.936521],"type":"Point"},"properties":{"osm_id":"4239212191","tag":{"amenity":"waste_basket"}},"type":"Feature"},
	{"geometry":{"coordinates":[7.42953,46.953562],"type":"Point"},"properties":{"osm_id":"4244236089","tag":{"amenity":"waste_basket"}},"type":"Feature"},
	{"geometry":{"coordinates":[7.430819,46.956279],"type":"Point"},"properties":{"osm_id":"4254137507","tag":{"amenity":"waste_basket"}},"type":"Feature"},
	{"geometry":{"coordinates":[7.428775,46.957439],"type":"Point"},"properties":{"osm_id":"4254177896","tag":{"amenity":"waste_basket"}},"type":"Feature"},
	{"geometry":{"coordinates":[7.432187,46.956443],"type":"Point"},"properties":{"osm_id":"4254178292","tag":{"amenity":"recycling","recycling:clothes":"yes","recycling_type":"container"}},"type":"Feature"},
	{"geometry":{"coordinates":[7.428131,46.957102],"type":"Point"},"properties":{"osm_id":"4254214089","tag":{"amenity":"waste_basket"}},"type":"Feature"},
	{"geometry":{"coordinates":[7.4312,46.957468],"type":"Point"},"properties":{"osm_id":"4267910890","tag":{"amenity":"waste_basket"}},"type":"Feature"},
	{"geometry":{"coordinates":[7.429859,46.953253],"type":"Point"},"properties":{"osm_id":"4267972589","tag":{"amenity":"waste_basket"}},"type":"Feature"},
	{"geometry":{"coordinates":[7.410623,46.922692],"type":"Point"},"properties":{"osm_id":"4269680307","tag":{"amenity":"waste_basket"}},"type":"Feature"},
	{"geometry":{"coordinates":[7.418853,46.927125],"type":"Point"},"properties":{"osm_id":"4301729691","tag":{"amenity":"waste_basket"}},"type":"Feature"},
	{"geometry":{"coordinates":[7.429145,46.952269],"type":"Point"},"properties":{"osm_id":"4311349088","tag":{"amenity":"waste_basket"}},"type":"Feature"},
	{"geometry":{"coordinates":[7.428728,46.952494],"type":"Point"},"properties":{"osm_id":"4314046394","tag":{"amenity":"waste_basket"}},"type":"Feature"},
	{"geometry":{"coordinates":[7.425985,46.948379],"type":"Point"},"properties":{"osm_id":"4367527734","tag":{"amenity":"waste_basket"}},"type":"Feature"},
	{"geometry":{"coordinates":[7.426213,46.948451],"type":"Point"},"properties":{"osm_id":"4367527740","tag":{"amenity":"recycling","recycling:plastic_bottles":"yes","recycling_type":"container"}},"type":"Feature"},
	{"geometry":{"coordinates":[7.426221,46.948456],"type":"Point"},"properties":{"osm_id":"4367527741","tag":{"amenity":"waste_basket"}},"type":"Feature"},
	{"geometry":{"coordinates":[7.429785,46.936231],"type":"Point"},"properties":{"name":"TexAid","osm_id":"4402379591","tag":{"amenity":"recycling","recycling:cans":"yes","recycling:clothes":"yes","recycling:glass_bottles":"yes","recycling_type":"container"}},"type":"Feature"},
	{"geometry":{"coordinates":[7.420256,46.92962],"type":"Point"},"properties":{"osm_id":"4437733192","tag":{"amenity":"waste_basket"}},"type":"Feature"},
	{"geometry":{"coordinates":[7.420948,46.929321],"type":"Point"},"properties":{"osm_id":"4437749391","tag":{"amenity":"waste_basket"}},"type":"Feature"},
	{"geometry":{"coordinates":[7.422836,46.920421],"type":"Point"},"properties":{"osm_id":"4535656291","tag":{"amenity":"waste_basket"}},"type":"Feature"},
	{"geometry":{"coordinates":[7.425154,46.935906],"type":"Point"},"properties":{"osm_id":"4547667600","tag":{"amenity":"waste_basket"}},"type":"Feature"},
	{"geometry":{"coordinates":[7.45137,46.946568],"type":"Point"},"properties":{"osm_id":"4551320751","tag":{"amenity":"waste_basket"}},"type":"Feature"},
	{"geometry":{"coordinates":[7.452119,46.946564],"type":"Point"},"properties":{"osm_id":"4551320752","tag":{"amenity":"waste_basket"}},"type":"Feature"},
	{"geometry":{"coordinates":[7.451991,46.946769],"type":"Point"},"properties":{"osm_id":"4551320753","tag":{"amenity":"waste_basket"}},"type":"Feature"},
	{"geometry":{"coordinates":[7.451377,46.947038],"type":"Point"},"properties":{"osm_id":"4551320754","tag":{"amenity":"waste_basket"}},"type":"Feature"},
	{"geometry":{"coordinates":[7.452242,46.947081],"type":"Point"},"properties":{"osm_id":"4551320755","tag":{"amenity":"waste_basket"}},"type":"Feature"},
	{"geometry":{"coordinates":[7.451343,46.946707],"type":"Point"},"properties":{"osm_id":"4551320757","tag":{"amenity":"waste_basket"}},"type":"Feature"},
	{"geometry":{"coordinates":[7.451517,46.946737],"type":"Point"},"properties":{"osm_id":"4551320758","tag":{"amenity":"waste_basket"}},"type":"Feature"},
	{"geometry":{"coordinates":[7.45223,46.946783],"type":"Point"},"properties":{"osm_id":"4551320759","tag":{"amenity":"waste_basket"}},"type":"Feature"},
	{"geometry":{"coordinates":[7.45178,46.947058],"type":"Point"},"properties":{"osm_id":"4551320760","tag":{"amenity":"waste_basket"}},"type":"Feature"},
	{"geometry":{"coordinates":[7.451772,46.946534],"type":"Point"},"properties":{"osm_id":"4551320764","tag":{"amenity":"waste_basket"}},"type":"Feature"},
	{"geometry":{"coordinates":[7.451766,46.946751],"type":"Point"},"properties":{"osm_id":"4551320765","tag":{"amenity":"waste_basket"}},"type":"Feature"},
	{"geometry":{"coordinates":[7.451324,46.94683],"type":"Point"},"properties":{"osm_id":"4551320766","tag":{"amenity":"waste_basket"}},"type":"Feature"},
	{"geometry":{"coordinates":[7.452008,46.947075],"type":"Point"},"properties":{"osm_id":"4551320767","tag":{"amenity":"waste_basket"}},"type":"Feature"},
	{"geometry":{"coordinates":[7.420906,46.938125],"type":"Point"},"properties":{"osm_id":"4555528390","tag":{"amenity":"waste_basket"}},"type":"Feature"},
	{"geometry":{"coordinates":[7.423108,46.953908],"type":"Point"},"properties":{"osm_id":"4655909193","tag":{"amenity":"waste_basket"}},"type":"Feature"},
	{"geometry":{"coordinates":[7.423639,46.953757],"type":"Point"},"properties":{"osm_id":"4655911690","tag":{"amenity":"waste_basket"}},"type":"Feature"},
	{"geometry":{"coordinates":[7.421698,46.946268],"type":"Point"},"properties":{"osm_id":"4699124519","tag":{"amenity":"waste_basket"}},"type":"Feature"},
	{"geometry":{"coordinates":[7.428477,46.950188],"type":"Point"},"properties":{"osm_id":"4699334489","tag":{"amenity":"waste_basket"}},"type":"Feature"},
	{"geometry":{"coordinates":[7.427563,46.936601],"type":"Point"},"properties":{"osm_id":"4713192590","tag":{"amenity":"waste_basket"}},"type":"Feature"},
	{"geometry":{"coordinates":[7.404834,46.924593],"type":"Point"},"properties":{"osm_id":"4741400427","tag":{"amenity":"waste_basket"}},"type":"Feature"},
	{"geometry":{"coordinates":[7.405983,46.924869],"type":"Point"},"properties":{"osm_id":"4741455122","tag":{"amenity":"waste_basket"}},"type":"Feature"},
	{"geometry":{"coordinates":[7.428365,46.952657],"type":"Point"},"properties":{"osm_id":"4748798823","tag":{"amenity":"waste_basket"}},"type":"Feature"},
	{"geometry":{"coordinates":[7.429786,46.955071],"type":"Point"},"properties":{"osm_id":"4748806422","tag":{"amenity":"waste_basket"}},"type":"Feature"},
	{"geometry":{"coordinates":[7.428278,46.952993],"type":"Point"},"properties":{"osm_id":"4748823421","tag":{"amenity":"waste_basket"}},"type":"Feature"},
	{"geometry":{"coordinates":[7.415012,46.938948],"type":"Point"},"properties":{"osm_id":"4759374317","tag":{"amenity":"waste_basket"}},"type":"Feature"},
	{"geometry":{"coordinates":[7.427508,46.935584],"type":"Point"},"properties":{"osm_id":"4759587321","tag":{"amenity":"waste_basket"}},"type":"Feature"},
	{"geometry":{"coordinates":[7.433477,46.954719],"type":"Point"},"properties":{"osm_id":"4767182160","tag":{"amenity":"waste_basket"}},"type":"Feature"},
	{"geometry":{"coordinates":[7.387854,46.930233],"type":"Point"},"properties":{"osm_id":"4770891626","tag":{"amenity":"waste_basket"}},"type":"Feature"},
	{"geometry":{"coordinates":[7.426084,46.932727],"type":"Point"},"properties":{"osm_id":"4784357422","tag":{"amenity":"waste_basket"}},"type":"Feature"},
	{"geometry":{"coordinates":[7.428734,46.935535],"type":"Point"},"properties":{"osm_id":"4784366824","tag":{"amenity":"waste_basket"}},"type":"Feature"},
	{"geometry":{"coordinates":[7.444116,46.936344],"type":"Point"},"properties":{"osm_id":"4786282324","tag":{"amenity":"waste_basket"}},"type":"Feature"},
	{"geometry":{"coordinates":[7.423564,46.94562],"type":"Point"},"properties":{"osm_id":"4800484121","tag":{"amenity":"waste_basket"}},"type":"Feature"},
	{"geometry":{"coordinates":[7.432048,46.938931],"type":"Point"},"properties":{"osm_id":"4811309822","tag":{"amenity":"waste_basket"}},"type":"Feature"},
	{"geometry":{"coordinates":[7.424599,46.946655],"type":"Point"},"properties":{"osm_id":"4812934723","tag":{"amenity":"waste_basket"}},"type":"Feature"},
	{"geometry":{"coordinates":[7.424169,46.946264],"type":"Point"},"properties":{"osm_id":"4813537221","tag":{"amenity":"waste_basket"}},"type":"Feature"},
	{"geometry":{"coordinates":[7.436775,46.94816],"type":"Point"},"properties":{"osm_id":"4828429423","tag":{"amenity":"waste_basket"}},"type":"Feature"},
	{"geometry":{"coordinates":[7.4496,46.934258],"type":"Point"},"properties":{"osm_id":"4839653819","tag":{"amenity":"waste_basket"}},"type":"Feature"},
	{"geometry":{"coordinates":[7.42371,46.954008],"type":"Point"},"properties":{"osm_id":"4841566621","tag":{"amenity":"waste_basket"}},"type":"Feature"},
	{"geometry":{"coordinates":[7.411009,46.941568],"type":"Point"},"properties":{"osm_id":"4847360021","tag":{"amenity":"waste_basket"}},"type":"Feature"},
	{"geometry":{"coordinates":[7.420581,46.939779],"type":"Point"},"properties":{"osm_id":"4847726823","tag":{"amenity":"waste_basket"}},"type":"Feature"},
	{"geometry":{"coordinates":[7.432993,46.953856],"type":"Point"},"properties":{"osm_id":"4849486622","tag":{"amenity":"waste_basket"}},"type":"Feature"},
	{"geometry":{"coordinates":[7.460627,46.951814],"type":"Point"},"properties":{"osm_id":"4853525624","tag":{"amenity":"waste_basket"}},"type":"Feature"},
	{"geometry":{"coordinates":[7.460989,46.951559],"type":"Point"},"properties":{"osm_id":"4853531721","tag":{"amenity":"waste_basket"}},"type":"Feature"},
	{"geometry":{"coordinates":[7.460401,46.951914],"type":"Point"},"properties":{"osm_id":"4853532021","tag":{"amenity":"waste_basket"}},"type":"Feature"},
	{"geometry":{"coordinates":[7.454763,46.955438],"type":"Point"},"properties":{"osm_id":"4913049785","tag":{"amenity":"waste_disposal"}},"type":"Feature"},
	{"geometry":{"coordinates":[7.454828,46.955569],"type":"Point"},"properties":{"osm_id":"4913051884","tag":{"amenity":"waste_basket"}},"type":"Feature"},
	{"geometry":{"coordinates":[7.447016,46.947367],"type":"Point"},"properties":{"osm_id":"4951218354","tag":{"amenity":"waste_basket"}},"type":"Feature"},
	{"geometry":{"coordinates":[7.425325,46.932167],"type":"Point"},"properties":{"osm_id":"4959861822","tag":{"amenity":"waste_basket"}},"type":"Feature"},
	{"geometry":{"coordinates":[7.430389,46.955443],"type":"Point"},"properties":{"osm_id":"4989932723","tag":{"amenity":"waste_basket"}},"type":"Feature"},
	{"geometry":{"coordinates":[7.456941,46.962188],"type":"Point"},"properties":{"osm_id":"5034106119","tag":{"amenity":"waste_basket","waste":"dog_excrement"}},"type":"Feature"},
	{"geometry":{"coordinates":[7.460796,46.960918],"type":"Point"},"properties":{"osm_id":"5034106120","tag":{"amenity":"waste_basket","vending":"excrement_bags"}},"type":"Feature"},
	{"geometry":{"coordinates":[7.457051,46.959382],"type":"Point"},"properties":{"osm_id":"5034106121","tag":{"amenity":"waste_basket","waste":"dog_excrement"}},"type":"Feature"},
	{"geometry":{"coordinates":[7.454533,46.960017],"type":"Point"},"properties":{"osm_id":"5034106122","tag":{"amenity":"waste_basket","waste":"dog_excrement"}},"type":"Feature"},
	{"geometry":{"coordinates":[7.4256,46.95346],"type":"Point"},"properties":{"osm_id":"5056851887","tag":{"amenity":"waste_basket","vending":"excrement_bags"}},"type":"Feature"},
	{"geometry":{"coordinates":[7.414535,46.936669],"type":"Point"},"properties":{"osm_id":"5060081531","tag":{"amenity":"waste_basket"}},"type":"Feature"},
	{"geometry":{"coordinates":[7.40953,46.943952],"type":"Point"},"properties":{"osm_id":"5079490063","tag":{"amenity":"recycling","recycling:cans":"yes","recycling:glass_bottles":"yes","recycling_type":"container"}},"type":"Feature"},
	{"geometry":{"coordinates":[7.420658,46.946602],"type":"Point"},"properties":{"osm_id":"5079552524","tag":{"amenity":"waste_basket"}},"type":"Feature"},
	{"geometry":{"coordinates":[7.420105,46.946711],"type":"Point"},"properties":{"osm_id":"5079552525","tag":{"amenity":"waste_basket"}},"type":"Feature"},
	{"geometry":{"coordinates":[7.419595,46.934489],"type":"Point"},"properties":{"osm_id":"5124453823","tag":{"amenity":"recycling","recycling:cans":"no","recycling:clothes":"no","recycling:glass":"no","recycling:glass_bottles":"no","recycling:paper":"yes","recycling:plastic":"no","recycling_type":"container"}},"type":"Feature"},
	{"geometry":{"coordinates":[7.458152,46.957309],"type":"Point"},"properties":{"osm_id":"5124617995","tag":{"amenity":"waste_basket"}},"type":"Feature"},
	{"geometry":{"coordinates":[7.459076,46.944714],"type":"Point"},"properties":{"osm_id":"5134459045","tag":{"amenity":"waste_basket"}},"type":"Feature"},
	{"geometry":{"coordinates":[7.46067,46.943992],"type":"Point"},"properties":{"osm_id":"5134502624","tag":{"amenity":"waste_basket"}},"type":"Feature"},
	{"geometry":{"coordinates":[7.450443,46.927722],"type":"Point"},"properties":{"osm_id":"5134609847","tag":{"amenity":"recycling","operator":"SRK","recycling:clothes":"yes","recycling_type":"container"}},"type":"Feature"},
	{"geometry":{"coordinates":[7.432291,46.94196],"type":"Point"},"properties":{"osm_id":"5148262507","tag":{"amenity":"waste_basket"}},"type":"Feature"},
	{"geometry":{"coordinates":[7.427402,46.958994],"type":"Point"},"properties":{"osm_id":"5148282217","tag":{"amenity":"recycling","operator":"Sport The Bridge","recycling:clothes":"yes","recycling_type":"container"}},"type":"Feature"},
	{"geometry":{"coordinates":[7.421764,46.946682],"type":"Point"},"properties":{"osm_id":"5199962252","tag":{"amenity":"waste_basket"}},"type":"Feature"},
	{"geometry":{"coordinates":[7.436487,46.950565],"type":"Point"},"properties":{"osm_id":"5291469401","tag":{"amenity":"waste_basket"}},"type":"Feature"},
	{"geometry":{"coordinates":[7.419458,46.939614],"type":"Point"},"properties":{"osm_id":"5350865490","tag":{"amenity":"waste_basket"}},"type":"Feature"},
	{"geometry":{"coordinates":[7.418828,46.926835],"type":"Point"},"properties":{"osm_id":"5377658143","tag":{"amenity":"waste_basket"}},"type":"Feature"},
	{"geometry":{"coordinates":[7.416945,46.928897],"type":"Point"},"properties":{"osm_id":"5414145190","tag":{"amenity":"recycling","operator":"Schweizerisches Rotes Kreuz","recycling:clothes":"yes","recycling:shoes":"yes","recycling_type":"container"}},"type":"Feature"},
	{"geometry":{"coordinates":[7.447971,46.933959],"type":"Point"},"properties":{"osm_id":"5428997417","tag":{"amenity":"waste_basket"}},"type":"Feature"},
	{"geometry":{"coordinates":[7.448352,46.933852],"type":"Point"},"properties":{"osm_id":"5428997420","tag":{"amenity":"waste_basket"}},"type":"Feature"},
	{"geometry":{"coordinates":[7.448324,46.93376],"type":"Point"},"properties":{"osm_id":"5428998621","tag":{"amenity":"waste_basket"}},"type":"Feature"},
	{"geometry":{"coordinates":[7.448161,46.933906],"type":"Point"},"properties":{"osm_id":"5428998624","tag":{"amenity":"waste_basket"}},"type":"Feature"},
	{"geometry":{"coordinates":[7.448275,46.93368],"type":"Point"},"properties":{"osm_id":"5428998625","tag":{"amenity":"waste_basket"}},"type":"Feature"},
	{"geometry":{"coordinates":[7.449975,46.934782],"type":"Point"},"properties":{"osm_id":"5429195048","tag":{"amenity":"waste_basket"}},"type":"Feature"},
	{"geometry":{"coordinates":[7.448895,46.934607],"type":"Point"},"properties":{"osm_id":"5429195051","tag":{"amenity":"waste_basket"}},"type":"Feature"},
	{"geometry":{"coordinates":[7.449608,46.934677],"type":"Point"},"properties":{"osm_id":"5429195056","tag":{"amenity":"waste_basket"}},"type":"Feature"},
	{"geometry":{"coordinates":[7.42789,46.931414],"type":"Point"},"properties":{"osm_id":"5527353553","tag":{"amenity":"waste_basket"}},"type":"Feature"},
	{"geometry":{"coordinates":[7.454662,46.946413],"type":"Point"},"properties":{"osm_id":"5528006879","tag":{"amenity":"waste_basket"}},"type":"Feature"},
	{"geometry":{"coordinates":[7.428137,46.952666],"type":"Point"},"properties":{"osm_id":"5528752053","tag":{"amenity":"waste_basket"}},"type":"Feature"},
	{"geometry":{"coordinates":[7.428072,46.952588],"type":"Point"},"properties":{"osm_id":"5528752057","tag":{"amenity":"waste_basket"}},"type":"Feature"},
	{"geometry":{"coordinates":[7.428536,46.952941],"type":"Point"},"properties":{"osm_id":"5528752061","tag":{"amenity":"waste_basket"}},"type":"Feature"},
	{"geometry":{"coordinates":[7.409024,46.949174],"type":"Point"},"properties":{"osm_id":"5542984160","tag":{"amenity":"recycling","level":"0","opening_hours":"Mo-Fr 07:30-20:00; Sa 07:30-17:00","recycling:batteries":"yes","recycling:cardboard":"yes","recycling:plastic_bags":"yes","recycling:plastic_film":"yes","recycling_type":"container"}},"type":"Feature"},
	{"geometry":{"coordinates":[7.408898,46.949115],"type":"Point"},"properties":{"osm_id":"5542984161","tag":{"amenity":"recycling","level":"0","opening_hours":"Mo-Fr 07:30-20:00; Sa 07:30-17:00","recycling:PET":"yes","recycling:plastic_bottles":"yes","recycling_type":"container"}},"type":"Feature"},
	{"geometry":{"coordinates":[7.386224,46.945909],"type":"Point"},"properties":{"osm_id":"5555223177","tag":{"amenity":"recycling","recycling:cans":"yes","recycling:glass_bottles":"yes","recycling:scrap_metal":"yes","recycling_type":"container"}},"type":"Feature"},
	{"geometry":{"coordinates":[7.438708,46.955012],"type":"Point"},"properties":{"osm_id":"5633611768","tag":{"amenity":"waste_basket"}},"type":"Feature"},
	{"geometry":{"coordinates":[7.442389,46.948947],"type":"Point"},"properties":{"osm_id":"5637262483","tag":{"amenity":"waste_basket"}},"type":"Feature"},
	{"geometry":{"coordinates":[7.468504,46.957826],"type":"Point"},"properties":{"osm_id":"5672054636","tag":{"amenity":"waste_basket"}},"type":"Feature"},
	{"geometry":{"coordinates":[7.467367,46.95683],"type":"Point"},"properties":{"osm_id":"5672054638","tag":{"amenity":"waste_basket"}},"type":"Feature"},
	{"geometry":{"coordinates":[7.465312,46.95979],"type":"Point"},"properties":{"osm_id":"5672554876","tag":{"amenity":"waste_basket"}},"type":"Feature"},
	{"geometry":{"coordinates":[7.464934,46.959919],"type":"Point"},"properties":{"osm_id":"5672554877","tag":{"amenity":"waste_basket"}},"type":"Feature"},
	{"geometry":{"coordinates":[7.466779,46.957365],"type":"Point"},"properties":{"osm_id":"5672993171","tag":{"amenity":"waste_basket","waste":"trash"}},"type":"Feature"},
	{"geometry":{"coordinates":[7.465186,46.958644],"type":"Point"},"properties":{"osm_id":"5672993172","tag":{"amenity":"waste_basket"}},"type":"Feature"},
	{"geometry":{"coordinates":[7.465802,46.958165],"type":"Point"},"properties":{"osm_id":"5672993173","tag":{"amenity":"waste_basket"}},"type":"Feature"},
	{"geometry":{"coordinates":[7.466336,46.957743],"type":"Point"},"properties":{"osm_id":"5672993174","tag":{"amenity":"waste_basket","waste":"trash"}},"type":"Feature"},
	{"geometry":{"coordinates":[7.467034,46.957144],"type":"Point"},"properties":{"osm_id":"5672993175","tag":{"amenity":"waste_basket","waste":"trash"}},"type":"Feature"},
	{"geometry":{"coordinates":[7.464913,46.959007],"type":"Point"},"properties":{"osm_id":"5672993176","tag":{"amenity":"waste_basket"}},"type":"Feature"},
	{"geometry":{"coordinates":[7.466554,46.957555],"type":"Point"},"properties":{"osm_id":"5672993178","tag":{"amenity":"waste_basket","waste":"trash"}},"type":"Feature"},
	{"geometry":{"coordinates":[7.465507,46.958415],"type":"Point"},"properties":{"osm_id":"5672993179","tag":{"amenity":"waste_basket"}},"type":"Feature"},
	{"geometry":{"coordinates":[7.434119,46.955128],"type":"Point"},"properties":{"osm_id":"5690565365","tag":{"amenity":"waste_basket"}},"type":"Feature"},
	{"geometry":{"coordinates":[7.406281,46.944114],"type":"Point"},"properties":{"osm_id":"5709579956","tag":{"amenity":"waste_basket","waste":"trash"}},"type":"Feature"},
	{"geometry":{"coordinates":[7.406043,46.944289],"type":"Point"},"properties":{"osm_id":"5709579957","tag":{"amenity":"waste_basket","waste":"trash"}},"type":"Feature"},
	{"geometry":{"coordinates":[7.448971,46.967413],"type":"Point"},"properties":{"osm_id":"5709621969","tag":{"amenity":"waste_basket","waste":"trash"}},"type":"Feature"},
	{"geometry":{"coordinates":[7.45019,46.968813],"type":"Point"},"properties":{"osm_id":"5709621971","tag":{"amenity":"waste_basket","waste":"trash"}},"type":"Feature"},
	{"geometry":{"coordinates":[7.438861,46.944343],"type":"Point"},"properties":{"osm_id":"5726635217","tag":{"amenity":"recycling","recycling:clothes":"yes","recycling_type":"container"}},"type":"Feature"},
	{"geometry":{"coordinates":[7.448384,46.949243],"type":"Point"},"properties":{"osm_id":"5739863717","tag":{"amenity":"waste_basket","waste":"trash"}},"type":"Feature"},
	{"geometry":{"coordinates":[7.447747,46.949349],"type":"Point"},"properties":{"osm_id":"5739863719","tag":{"amenity":"waste_basket","waste":"trash"}},"type":"Feature"},
	{"geometry":{"coordinates":[7.457619,46.963775],"type":"Point"},"properties":{"osm_id":"5739863720","tag":{"amenity":"waste_basket","waste":"dog_excrement"}},"type":"Feature"},
	{"geometry":{"coordinates":[7.412112,46.927059],"type":"Point"},"properties":{"osm_id":"5771853896","tag":{"amenity":"waste_basket"}},"type":"Feature"},
	{"geometry":{"coordinates":[7.419748,46.926469],"type":"Point"},"properties":{"osm_id":"5771853903","tag":{"amenity":"waste_basket"}},"type":"Feature"},
	{"geometry":{"coordinates":[7.432449,46.939232],"type":"Point"},"properties":{"osm_id":"5777201591","tag":{"amenity":"waste_basket"}},"type":"Feature"},
	{"geometry":{"coordinates":[7.422258,46.940774],"type":"Point"},"properties":{"osm_id":"5786548555","tag":{"amenity":"waste_basket"}},"type":"Feature"},
	{"geometry":{"coordinates":[7.425001,46.929849],"type":"Point"},"properties":{"osm_id":"5808577186","tag":{"amenity":"waste_basket"}},"type":"Feature"},
	{"geometry":{"coordinates":[7.390711,46.953092],"type":"Point"},"properties":{"osm_id":"5810877531","tag":{"amenity":"waste_basket","waste":"trash"}},"type":"Feature"},
	{"geometry":{"coordinates":[7.438537,46.950516],"type":"Point"},"properties":{"osm_id":"5817778239","tag":{"amenity":"waste_basket"}},"type":"Feature"},
	{"geometry":{"coordinates":[7.467844,46.933247],"type":"Point"},"properties":{"osm_id":"5827253785","tag":{"amenity":"waste_basket"}},"type":"Feature"},
	{"geometry":{"coordinates":[7.467439,46.93314],"type":"Point"},"properties":{"osm_id":"5827253788","tag":{"amenity":"waste_basket"}},"type":"Feature"},
	{"geometry":{"coordinates":[7.440204,46.956575],"type":"Point"},"properties":{"osm_id":"5836973290","tag":{"amenity":"recycling","opening_hours":"24/7","operator":"Tell-Tex","recycling:clothes":"yes","recycling:shoes":"yes","recycling_type":"container"}},"type":"Feature"},
	{"geometry":{"coordinates":[7.424633,46.954557],"type":"Point"},"properties":{"osm_id":"5863264996","tag":{"amenity":"waste_basket","brand":"Robidog","vending":"excrement_bags"}},"type":"Feature"},
	{"geometry":{"coordinates":[7.426581,46.93293],"type":"Point"},"properties":{"osm_id":"5873600372","tag":{"amenity":"waste_basket"}},"type":"Feature"},
	{"geometry":{"coordinates":[7.426801,46.933065],"type":"Point"},"properties":{"osm_id":"5873600373","tag":{"amenity":"waste_basket"}},"type":"Feature"},
	{"geometry":{"coordinates":[7.406629,46.943964],"type":"Point"},"properties":{"osm_id":"5890605786","tag":{"amenity":"waste_basket"}},"type":"Feature"},
	{"geometry":{"coordinates":[7.407757,46.943185],"type":"Point"},"properties":{"osm_id":"5891420485","tag":{"amenity":"waste_basket"}},"type":"Feature"},
	{"geometry":{"coordinates":[7.428656,46.953836],"type":"Point"},"properties":{"osm_id":"5896475941","tag":{"amenity":"recycling","opening_hours":"Mo-Fr 08:00-20:00, Sa 08:00-17:00, Su off","operator":"Coop","recycling:PET":"yes","recycling:batteries":"yes","recycling:cream_chargers":"yes","recycling:low_energy_bulbs":"yes","recycling:plastic_bottles":"yes","recycling_type":"container"}},"type":"Feature"},
	{"geometry":{"coordinates":[7.425561,46.942155],"type":"Point"},"properties":{"osm_id":"5903481079","tag":{"amenity":"waste_basket"}},"type":"Feature"},
	{"geometry":{"coordinates":[7.425232,46.942385],"type":"Point"},"properties":{"osm_id":"5903481084","tag":{"amenity":"waste_basket"}},"type":"Feature"},
	{"geometry":{"coordinates":[7.417776,46.978529],"type":"Point"},"properties":{"name":"Entsorgungsstelle Herrenschwanden","osm_id":"5939744097","tag":{"alt_name":"Sammelstelle Altes Schulhaus","amenity":"recycling","opening_hours":"Mo-Fr 08:00-19:00; Sa 08:00-17:00","operator":"Gemeinde Kirchlindach","recycling:PET":"yes","recycling:batteries":"yes","recycling:clothes":"yes","recycling:coffee_capsules":"yes","recycling:glass":"yes","recycling:metal":"yes","recycling_type":"container"}},"type":"Feature"},
	{"geometry":{"coordinates":[7.422653,46.943798],"type":"Point"},"properties":{"osm_id":"5975354961","tag":{"amenity":"waste_basket"}},"type":"Feature"},
	{"geometry":{"coordinates":[7.422723,46.943661],"type":"Point"},"properties":{"osm_id":"5975354968","tag":{"amenity":"waste_basket"}},"type":"Feature"},
	{"geometry":{"coordinates":[7.466971,46.945793],"type":"Point"},"properties":{"osm_id":"6012821959","tag":{"amenity":"waste_basket"}},"type":"Feature"},
	{"geometry":{"coordinates":[7.466233,46.945427],"type":"Point"},"properties":{"osm_id":"6012821960","tag":{"amenity":"waste_basket"}},"type":"Feature"},
	{"geometry":{"coordinates":[7.467757,46.945748],"type":"Point"},"properties":{"osm_id":"6012821965","tag":{"amenity":"waste_basket"}},"type":"Feature"},
	{"geometry":{"coordinates":[7.431088,46.952291],"type":"Point"},"properties":{"osm_id":"6058478783","tag":{"amenity":"waste_basket"}},"type":"Feature"},
	{"geometry":{"coordinates":[7.431412,46.95212],"type":"Point"},"properties":{"osm_id":"6058478784","tag":{"amenity":"waste_basket"}},"type":"Feature"},
	{"geometry":{"coordinates":[7.429475,46.954115],"type":"Point"},"properties":{"osm_id":"6058784100","tag":{"amenity":"waste_basket"}},"type":"Feature"},
	{"geometry":{"coordinates":[7.424331,46.956568],"type":"Point"},"properties":{"osm_id":"6064831616","tag":{"amenity":"waste_basket"}},"type":"Feature"},
	{"geometry":{"coordinates":[7.423513,46.956719],"type":"Point"},"properties":{"osm_id":"6064831619","tag":{"amenity":"waste_basket"}},"type":"Feature"},
	{"geometry":{"coordinates":[7.419227,46.930321],"type":"Point"},"properties":{"osm_id":"6068183479","tag":{"amenity":"waste_basket"}},"type":"Feature"},
	{"geometry":{"coordinates":[7.419257,46.930416],"type":"Point"},"properties":{"osm_id":"6068183483","tag":{"amenity":"waste_basket"}},"type":"Feature"},
	{"geometry":{"coordinates":[7.424113,46.946479],"type":"Point"},"properties":{"osm_id":"6072966900","tag":{"amenity":"waste_basket","vending":"excrement_bags","waste":"trash;cigarettes"}},"type":"Feature"},
	{"geometry":{"coordinates":[7.423823,46.946401],"type":"Point"},"properties":{"osm_id":"6072966903","tag":{"amenity":"waste_basket","waste":"trash;cigarettes"}},"type":"Feature"},
	{"geometry":{"coordinates":[7.423614,46.946268],"type":"Point"},"properties":{"osm_id":"6072966904","tag":{"amenity":"waste_basket","waste":"trash;cigarettes"}},"type":"Feature"},
	{"geometry":{"coordinates":[7.42989,46.953235],"type":"Point"},"properties":{"osm_id":"6080570690","tag":{"amenity":"waste_basket"}},"type":"Feature"},
	{"geometry":{"coordinates":[7.429934,46.953209],"type":"Point"},"properties":{"osm_id":"6080570691","tag":{"amenity":"waste_basket"}},"type":"Feature"},
	{"geometry":{"coordinates":[7.429816,46.953279],"type":"Point"},"properties":{"osm_id":"6080570693","tag":{"amenity":"waste_basket"}},"type":"Feature"},
	{"geometry":{"coordinates":[7.429786,46.953296],"type":"Point"},"properties":{"osm_id":"6080570694","tag":{"amenity":"waste_basket"}},"type":"Feature"},
	{"geometry":{"coordinates":[7.429742,46.953322],"type":"Point"},"properties":{"osm_id":"6080570695","tag":{"amenity":"waste_basket"}},"type":"Feature"},
	{"geometry":{"coordinates":[7.429716,46.953338],"type":"Point"},"properties":{"osm_id":"6080570696","tag":{"amenity":"waste_basket"}},"type":"Feature"},
	{"geometry":{"coordinates":[7.429669,46.953366],"type":"Point"},"properties":{"osm_id":"6080570697","tag":{"amenity":"waste_basket"}},"type":"Feature"},
	{"geometry":{"coordinates":[7.429562,46.953915],"type":"Point"},"properties":{"osm_id":"6080570711","tag":{"amenity":"waste_basket"}},"type":"Feature"},
	{"geometry":{"coordinates":[7.429678,46.953875],"type":"Point"},"properties":{"osm_id":"6080570712","tag":{"amenity":"waste_basket"}},"type":"Feature"},
	{"geometry":{"coordinates":[7.420234,46.952692],"type":"Point"},"properties":{"osm_id":"6083624196","tag":{"amenity":"waste_basket"}},"type":"Feature"},
	{"geometry":{"coordinates":[7.423054,46.956844],"type":"Point"},"properties":{"osm_id":"6083624198","tag":{"amenity":"waste_basket"}},"type":"Feature"},
	{"geometry":{"coordinates":[7.422237,46.957002],"type":"Point"},"properties":{"osm_id":"6083624199","tag":{"amenity":"waste_basket"}},"type":"Feature"},
	{"geometry":{"coordinates":[7.409522,46.949402],"type":"Point"},"properties":{"osm_id":"6083624201","tag":{"amenity":"waste_basket","colour":"silver","material":"metal","waste":"trash;cigarettes"}},"type":"Feature"},
	{"geometry":{"coordinates":[7.409407,46.949561],"type":"Point"},"properties":{"osm_id":"6083624203","tag":{"amenity":"waste_basket","colour":"silver","material":"metal","waste":"trash;cigarettes"}},"type":"Feature"},
	{"geometry":{"coordinates":[7.450015,46.943708],"type":"Point"},"properties":{"osm_id":"6085552080","tag":{"amenity":"waste_basket"}},"type":"Feature"},
	{"geometry":{"coordinates":[7.463374,46.963566],"type":"Point"},"properties":{"osm_id":"6086068198","tag":{"amenity":"waste_basket","vending":"excrement_bags"}},"type":"Feature"},
	{"geometry":{"coordinates":[7.460242,46.954751],"type":"Point"},"properties":{"osm_id":"6086132687","tag":{"amenity":"waste_basket","vending":"excrement_bags"}},"type":"Feature"},
	{"geometry":{"coordinates":[7.451246,46.943204],"type":"Point"},"properties":{"osm_id":"6086145714","tag":{"amenity":"waste_basket","vending":"excrement_bags"}},"type":"Feature"},
	{"geometry":{"coordinates":[7.458359,46.953683],"type":"Point"},"properties":{"osm_id":"6086171253","tag":{"amenity":"waste_basket","vending":"excrement_bags"}},"type":"Feature"},
	{"geometry":{"coordinates":[7.458647,46.95184],"type":"Point"},"properties":{"osm_id":"6086480375","tag":{"amenity":"waste_basket"}},"type":"Feature"},
	{"geometry":{"coordinates":[7.459123,46.951265],"type":"Point"},"properties":{"osm_id":"6086480380","tag":{"amenity":"waste_basket"}},"type":"Feature"},
	{"geometry":{"coordinates":[7.458986,46.951416],"type":"Point"},"properties":{"osm_id":"6086480384","tag":{"amenity":"waste_basket"}},"type":"Feature"},
	{"geometry":{"coordinates":[7.459766,46.950429],"type":"Point"},"properties":{"osm_id":"6086481691","tag":{"amenity":"waste_basket"}},"type":"Feature"},
	{"geometry":{"coordinates":[7.459573,46.950702],"type":"Point"},"properties":{"osm_id":"6086481694","tag":{"amenity":"waste_basket"}},"type":"Feature"},
	{"geometry":{"coordinates":[7.459927,46.950036],"type":"Point"},"properties":{"osm_id":"6086481697","tag":{"amenity":"waste_basket"}},"type":"Feature"},
	{"geometry":{"coordinates":[7.460023,46.949734],"type":"Point"},"properties":{"osm_id":"6086481700","tag":{"amenity":"waste_basket"}},"type":"Feature"},
	{"geometry":{"coordinates":[7.460262,46.948821],"type":"Point"},"properties":{"osm_id":"6086481707","tag":{"amenity":"waste_basket"}},"type":"Feature"},
	{"geometry":{"coordinates":[7.46022,46.949115],"type":"Point"},"properties":{"osm_id":"6086481709","tag":{"amenity":"waste_basket"}},"type":"Feature"},
	{"geometry":{"coordinates":[7.438336,46.951466],"type":"Point"},"properties":{"osm_id":"6090579023","tag":{"amenity":"waste_basket"}},"type":"Feature"},
	{"geometry":{"coordinates":[7.459478,46.949166],"type":"Point"},"properties":{"osm_id":"6090913401","tag":{"amenity":"waste_basket"}},"type":"Feature"},
	{"geometry":{"coordinates":[7.458018,46.949405],"type":"Point"},"properties":{"osm_id":"6090913409","tag":{"amenity":"waste_basket"}},"type":"Feature"},
	{"geometry":{"coordinates":[7.429827,46.958199],"type":"Point"},"properties":{"osm_id":"6093491263","tag":{"amenity":"waste_basket"}},"type":"Feature"},
	{"geometry":{"coordinates":[7.410039,46.949004],"type":"Point"},"properties":{"osm_id":"6103551019","tag":{"access":"private","amenity":"recycling","recycling:cardboard":"yes","recycling:paper":"yes","recycling_type":"container"}},"type":"Feature"},
	{"geometry":{"coordinates":[7.424,46.948615],"type":"Point"},"properties":{"osm_id":"6106091821","tag":{"amenity":"waste_basket"}},"type":"Feature"},
	{"geometry":{"coordinates":[7.452961,46.950166],"type":"Point"},"properties":{"osm_id":"6109422564","tag":{"amenity":"waste_basket"}},"type":"Feature"},
	{"geometry":{"coordinates":[7.45485,46.950439],"type":"Point"},"properties":{"osm_id":"6109422565","tag":{"amenity":"waste_basket"}},"type":"Feature"},
	{"geometry":{"coordinates":[7.448586,46.950457],"type":"Point"},"properties":{"osm_id":"6109422567","tag":{"amenity":"waste_basket"}},"type":"Feature"},
	{"geometry":{"coordinates":[7.429804,46.957007],"type":"Point"},"properties":{"osm_id":"6109759945","tag":{"amenity":"waste_basket"}},"type":"Feature"},
	{"geometry":{"coordinates":[7.443465,46.946775],"type":"Point"},"properties":{"osm_id":"6116991309","tag":{"amenity":"waste_basket"}},"type":"Feature"},
	{"geometry":{"coordinates":[7.429628,46.954153],"type":"Point"},"properties":{"osm_id":"6117065093","tag":{"amenity":"waste_basket"}},"type":"Feature"},
	{"geometry":{"coordinates":[7.43672,46.961918],"type":"Point"},"properties":{"osm_id":"6119918626","tag":{"amenity":"waste_basket","vending":"excrement_bags"}},"type":"Feature"},
	{"geometry":{"coordinates":[7.439419,46.96136],"type":"Point"},"properties":{"osm_id":"6119918627","tag":{"amenity":"waste_basket"}},"type":"Feature"},
	{"geometry":{"coordinates":[7.43927,46.961404],"type":"Point"},"properties":{"osm_id":"6119918628","tag":{"amenity":"waste_basket"}},"type":"Feature"},
	{"geometry":{"coordinates":[7.440875,46.963275],"type":"Point"},"properties":{"osm_id":"6119918636","tag":{"amenity":"waste_basket"}},"type":"Feature"},
	{"geometry":{"coordinates":[7.44194,46.965618],"type":"Point"},"properties":{"osm_id":"6119918638","tag":{"amenity":"waste_basket"}},"type":"Feature"},
	{"geometry":{"coordinates":[7.437229,46.965006],"type":"Point"},"properties":{"osm_id":"6119918643","tag":{"amenity":"waste_basket"}},"type":"Feature"},
	{"geometry":{"coordinates":[7.437345,46.965345],"type":"Point"},"properties":{"osm_id":"6119918644","tag":{"amenity":"waste_basket"}},"type":"Feature"},
	{"geometry":{"coordinates":[7.435812,46.962629],"type":"Point"},"properties":{"osm_id":"6119918651","tag":{"amenity":"waste_basket"}},"type":"Feature"},
	{"geometry":{"coordinates":[7.435316,46.962552],"type":"Point"},"properties":{"osm_id":"6119918657","tag":{"amenity":"waste_basket"}},"type":"Feature"},
	{"geometry":{"coordinates":[7.433581,46.961926],"type":"Point"},"properties":{"osm_id":"6119918659","tag":{"amenity":"waste_basket"}},"type":"Feature"},
	{"geometry":{"coordinates":[7.434289,46.960751],"type":"Point"},"properties":{"osm_id":"6119919810","tag":{"amenity":"waste_basket"}},"type":"Feature"},
	{"geometry":{"coordinates":[7.415971,46.942042],"type":"Point"},"properties":{"osm_id":"6122150757","tag":{"amenity":"waste_basket"}},"type":"Feature"},
	{"geometry":{"coordinates":[7.447892,46.947978],"type":"Point"},"properties":{"osm_id":"6122316564","tag":{"amenity":"waste_basket"}},"type":"Feature"},
	{"geometry":{"coordinates":[7.448356,46.947907],"type":"Point"},"properties":{"osm_id":"6122316566","tag":{"amenity":"waste_basket"}},"type":"Feature"},
	{"geometry":{"coordinates":[7.451005,46.964573],"type":"Point"},"properties":{"osm_id":"6123186364","tag":{"amenity":"waste_basket"}},"type":"Feature"},
	{"geometry":{"coordinates":[7.451688,46.962455],"type":"Point"},"properties":{"osm_id":"6123186367","tag":{"amenity":"waste_basket"}},"type":"Feature"},
	{"geometry":{"coordinates":[7.44694,46.958317],"type":"Point"},"properties":{"osm_id":"6123186379","tag":{"amenity":"waste_basket"}},"type":"Feature"},
	{"geometry":{"coordinates":[7.447259,46.956673],"type":"Point"},"properties":{"osm_id":"6123186380","tag":{"amenity":"waste_basket","vending":"excrement_bags"}},"type":"Feature"},
	{"geometry":{"coordinates":[7.428222,46.94793],"type":"Point"},"properties":{"osm_id":"6125593909","tag":{"amenity":"waste_basket"}},"type":"Feature"},
	{"geometry":{"coordinates":[7.427472,46.94858],"type":"Point"},"properties":{"osm_id":"6125593911","tag":{"amenity":"waste_basket"}},"type":"Feature"},
	{"geometry":{"coordinates":[7.435177,46.958216],"type":"Point"},"properties":{"osm_id":"6126870155","tag":{"amenity":"waste_basket"}},"type":"Feature"},
	{"geometry":{"coordinates":[7.457526,46.948468],"type":"Point"},"properties":{"osm_id":"6126870157","tag":{"amenity":"waste_basket"}},"type":"Feature"},
	{"geometry":{"coordinates":[7.444448,46.947379],"type":"Point"},"properties":{"osm_id":"6126908717","tag":{"amenity":"waste_basket"}},"type":"Feature"},
	{"geometry":{"coordinates":[7.408954,46.949207],"type":"Point"},"properties":{"osm_id":"6137350567","tag":{"amenity":"waste_basket"}},"type":"Feature"},
	{"geometry":{"coordinates":[7.409806,46.94919],"type":"Point"},"properties":{"osm_id":"6137350568","tag":{"amenity":"waste_basket"}},"type":"Feature"},
	{"geometry":{"coordinates":[7.450988,46.937159],"type":"Point"},"properties":{"osm_id":"6137761019","tag":{"amenity":"waste_basket"}},"type":"Feature"},
	{"geometry":{"coordinates":[7.446123,46.934624],"type":"Point"},"properties":{"osm_id":"6137761022","tag":{"amenity":"waste_basket"}},"type":"Feature"},
	{"geometry":{"coordinates":[7.445668,46.93413],"type":"Point"},"properties":{"osm_id":"6137761024","tag":{"amenity":"waste_basket"}},"type":"Feature"},
	{"geometry":{"coordinates":[7.444653,46.933936],"type":"Point"},"properties":{"osm_id":"6137761026","tag":{"amenity":"waste_basket"}},"type":"Feature"},
	{"geometry":{"coordinates":[7.453642,46.93908],"type":"Point"},"properties":{"name":"Abfall-Sammelstelle Jubil\u00c3\u00a4umsplatz","osm_id":"6137882551","tag":{"amenity":"recycling","contact:addr":"Jubil\u00c3\u00a4umsplatz 18, 3005 Bern","contact:email":"entsorgung@bern.ch","opening_hours":"Mo-Sa 07:00-20:00; Su,PH closed","recycling:aluminium":"yes","recycling:batteries":"yes","recycling:cans":"yes","recycling:glass":"yes","recycling:metal":"yes","recycling_type":"container","website":"https://www.bern.ch/themen/abfall/entsorgungsorte/sammelstellen"}},"type":"Feature"},
	{"geometry":{"coordinates":[7.453383,46.939517],"type":"Point"},"properties":{"osm_id":"6137882552","tag":{"amenity":"waste_basket","vending":"excrement_bags"}},"type":"Feature"},
	{"geometry":{"coordinates":[7.435483,46.959574],"type":"Point"},"properties":{"osm_id":"6138912033","tag":{"amenity":"waste_basket"}},"type":"Feature"},
	{"geometry":{"coordinates":[7.429192,46.96055],"type":"Point"},"properties":{"osm_id":"6139180899","tag":{"amenity":"waste_basket"}},"type":"Feature"},
	{"geometry":{"coordinates":[7.431685,46.958952],"type":"Point"},"properties":{"osm_id":"6139232791","tag":{"amenity":"waste_basket"}},"type":"Feature"},
	{"geometry":{"coordinates":[7.396705,46.939764],"type":"Point"},"properties":{"osm_id":"6147778613","tag":{"amenity":"waste_basket"}},"type":"Feature"},
	{"geometry":{"coordinates":[7.463657,46.941034],"type":"Point"},"properties":{"osm_id":"6148438850","tag":{"amenity":"recycling","operator":"Schweizerisches Rotes Kreuz Bern-Mitelland","recycling:clothes":"yes","recycling:shoes":"yes","recycling:textiles":"yes","recycling_type":"container","wheelchair":"no"}},"type":"Feature"},
	{"geometry":{"coordinates":[7.447285,46.939917],"type":"Point"},"properties":{"osm_id":"6152555189","tag":{"amenity":"waste_basket","vending":"excrement_bags"}},"type":"Feature"},
	{"geometry":{"coordinates":[7.400288,46.942215],"type":"Point"},"properties":{"osm_id":"6154201680","tag":{"amenity":"waste_basket"}},"type":"Feature"},
	{"geometry":{"coordinates":[7.400175,46.942098],"type":"Point"},"properties":{"osm_id":"6154201681","tag":{"amenity":"waste_basket"}},"type":"Feature"},
	{"geometry":{"coordinates":[7.394134,46.967679],"type":"Point"},"properties":{"osm_id":"6156944289","tag":{"amenity":"waste_basket","vending":"excrement_bags"}},"type":"Feature"},
	{"geometry":{"coordinates":[7.394218,46.968405],"type":"Point"},"properties":{"osm_id":"6156944301","tag":{"amenity":"waste_basket","vending":"excrement_bags"}},"type":"Feature"},
	{"geometry":{"coordinates":[7.38483,46.967341],"type":"Point"},"properties":{"osm_id":"6158410159","tag":{"amenity":"waste_basket","vending":"excrement_bags"}},"type":"Feature"},
	{"geometry":{"coordinates":[7.385321,46.967014],"type":"Point"},"properties":{"osm_id":"6158410160","tag":{"amenity":"waste_basket","vending":"excrement_bags"}},"type":"Feature"},
	{"geometry":{"coordinates":[7.385162,46.967012],"type":"Point"},"properties":{"osm_id":"6158410161","tag":{"amenity":"waste_basket"}},"type":"Feature"},
	{"geometry":{"coordinates":[7.410345,46.947214],"type":"Point"},"properties":{"osm_id":"6169284249","tag":{"amenity":"waste_basket"}},"type":"Feature"},
	{"geometry":{"coordinates":[7.433153,46.955814],"type":"Point"},"properties":{"osm_id":"6197719952","tag":{"amenity":"waste_basket","vending":"excrement_bags"}},"type":"Feature"},
	{"geometry":{"coordinates":[7.415362,46.924812],"type":"Point"},"properties":{"osm_id":"6216152261","tag":{"amenity":"recycling","recycling:clothes":"yes","recycling_type":"container"}},"type":"Feature"},
	{"geometry":{"coordinates":[7.411388,46.943986],"type":"Point"},"properties":{"osm_id":"6221513877","tag":{"amenity":"waste_basket"}},"type":"Feature"},
	{"geometry":{"coordinates":[7.411732,46.943882],"type":"Point"},"properties":{"osm_id":"6221513878","tag":{"amenity":"waste_basket"}},"type":"Feature"},
	{"geometry":{"coordinates":[7.410039,46.949062],"type":"Point"},"properties":{"osm_id":"6221920702","tag":{"access":"private","amenity":"waste_disposal","waste":"trash"}},"type":"Feature"},
	{"geometry":{"coordinates":[7.43535,46.955207],"type":"Point"},"properties":{"osm_id":"6224873520","tag":{"amenity":"waste_basket"}},"type":"Feature"},
	{"geometry":{"coordinates":[7.434973,46.955421],"type":"Point"},"properties":{"osm_id":"6224873522","tag":{"amenity":"waste_basket"}},"type":"Feature"},
	{"geometry":{"coordinates":[7.417419,46.951831],"type":"Point"},"properties":{"osm_id":"6235888916","tag":{"amenity":"waste_basket"}},"type":"Feature"},
	{"geometry":{"coordinates":[7.436824,46.948082],"type":"Point"},"properties":{"osm_id":"6235889118","tag":{"amenity":"waste_basket"}},"type":"Feature"},
	{"geometry":{"coordinates":[7.436841,46.948086],"type":"Point"},"properties":{"osm_id":"6235889119","tag":{"amenity":"recycling","recycling:pet":"yes","recycling_type":"container"}},"type":"Feature"},
	{"geometry":{"coordinates":[7.449303,46.943154],"type":"Point"},"properties":{"osm_id":"6268115691","tag":{"amenity":"waste_basket"}},"type":"Feature"},
	{"geometry":{"coordinates":[7.44921,46.943145],"type":"Point"},"properties":{"osm_id":"6268115693","tag":{"amenity":"waste_basket"}},"type":"Feature"},
	{"geometry":{"coordinates":[7.410958,46.924739],"type":"Point"},"properties":{"osm_id":"6278299957","tag":{"amenity":"waste_basket"}},"type":"Feature"},
	{"geometry":{"coordinates":[7.423625,46.932192],"type":"Point"},"properties":{"osm_id":"6288439682","tag":{"amenity":"waste_basket"}},"type":"Feature"},
	{"geometry":{"coordinates":[7.423798,46.93212],"type":"Point"},"properties":{"osm_id":"6288440889","tag":{"amenity":"waste_basket"}},"type":"Feature"},
	{"geometry":{"coordinates":[7.426491,46.947611],"type":"Point"},"properties":{"osm_id":"6301896963","tag":{"amenity":"waste_basket","waste":"trash;cigarettes"}},"type":"Feature"},
	{"geometry":{"coordinates":[7.426192,46.947519],"type":"Point"},"properties":{"osm_id":"6301896964","tag":{"amenity":"waste_basket","waste":"trash;cigarettes"}},"type":"Feature"},
	{"geometry":{"coordinates":[7.421792,46.945837],"type":"Point"},"properties":{"osm_id":"6301896965","tag":{"amenity":"waste_basket","waste":"trash;cigarettes"}},"type":"Feature"},
	{"geometry":{"coordinates":[7.42109,46.945382],"type":"Point"},"properties":{"osm_id":"6301896967","tag":{"amenity":"waste_basket","waste":"trash;cigarettes"}},"type":"Feature"},
	{"geometry":{"coordinates":[7.421205,46.946133],"type":"Point"},"properties":{"osm_id":"6301896968","tag":{"amenity":"waste_basket","vending":"excrement_bags","waste":"trash;cigarettes"}},"type":"Feature"},
	{"geometry":{"coordinates":[7.452952,46.942269],"type":"Point"},"properties":{"osm_id":"6306373191","tag":{"amenity":"recycling","opening_hours":"Mo-Fr 08:00-20:00; Sa 08:00-17:00","operator":"Migros","recycling:batteries":"yes","recycling:cds":"yes","recycling:cream_chargers":"yes","recycling:pet":"yes","recycling:plastic_bottles":"yes","recycling_type":"container"}},"type":"Feature"},
	{"geometry":{"coordinates":[7.447553,46.967028],"type":"Point"},"properties":{"osm_id":"6311235021","tag":{"amenity":"waste_basket","waste":"trash"}},"type":"Feature"},
	{"geometry":{"coordinates":[7.447653,46.967191],"type":"Point"},"properties":{"osm_id":"6311235025","tag":{"amenity":"waste_basket","vending":"excrement_bags","waste":"trash"}},"type":"Feature"},
	{"geometry":{"coordinates":[7.446297,46.960189],"type":"Point"},"properties":{"osm_id":"6311386808","tag":{"amenity":"waste_basket","vending":"excrement_bags","waste":"trash"}},"type":"Feature"},
	{"geometry":{"coordinates":[7.444867,46.964727],"type":"Point"},"properties":{"osm_id":"6311437916","tag":{"amenity":"waste_basket","vending":"excrement_bags"}},"type":"Feature"},
	{"geometry":{"coordinates":[7.43571,46.960945],"type":"Point"},"properties":{"osm_id":"6311490793","tag":{"amenity":"waste_basket","vending":"excrement_bags"}},"type":"Feature"},
	{"geometry":{"coordinates":[7.391905,46.925671],"type":"Point"},"properties":{"osm_id":"6314696837","tag":{"amenity":"waste_basket","vending":"excrement_bags"}},"type":"Feature"},
	{"geometry":{"coordinates":[7.39238,46.927278],"type":"Point"},"properties":{"osm_id":"6314696841","tag":{"amenity":"waste_basket","vending":"excrement_bags"}},"type":"Feature"},
	{"geometry":{"coordinates":[7.450696,46.934832],"type":"Point"},"properties":{"osm_id":"6322846233","tag":{"amenity":"waste_basket"}},"type":"Feature"},
	{"geometry":{"coordinates":[7.45142,46.934627],"type":"Point"},"properties":{"osm_id":"6322846235","tag":{"amenity":"waste_basket"}},"type":"Feature"},
	{"geometry":{"coordinates":[7.438467,46.948497],"type":"Point"},"properties":{"osm_id":"6325274320","tag":{"amenity":"waste_basket","level":"2"}},"type":"Feature"},
	{"geometry":{"coordinates":[7.438597,46.948558],"type":"Point"},"properties":{"osm_id":"6325274322","tag":{"amenity":"waste_basket","level":"2"}},"type":"Feature"},
	{"geometry":{"coordinates":[7.438777,46.94864],"type":"Point"},"properties":{"osm_id":"6325274324","tag":{"amenity":"waste_basket","level":"2"}},"type":"Feature"},
	{"geometry":{"coordinates":[7.438914,46.948704],"type":"Point"},"properties":{"osm_id":"6325274325","tag":{"amenity":"waste_basket","level":"2"}},"type":"Feature"},
	{"geometry":{"coordinates":[7.439563,46.949108],"type":"Point"},"properties":{"osm_id":"6325274329","tag":{"amenity":"waste_basket","level":"2","recycling:aluminium":"yes","recycling:paper":"yes","recycling:pet":"yes","waste":"trash"}},"type":"Feature"},
	{"geometry":{"coordinates":[7.433586,46.946913],"type":"Point"},"properties":{"osm_id":"6326274271","tag":{"amenity":"waste_basket","waste":"trash"}},"type":"Feature"},
	{"geometry":{"coordinates":[7.412466,46.941465],"type":"Point"},"properties":{"osm_id":"6327899663","tag":{"amenity":"waste_basket","waste":"trash"}},"type":"Feature"},
	{"geometry":{"coordinates":[7.412197,46.938282],"type":"Point"},"properties":{"osm_id":"6327899664","tag":{"amenity":"waste_basket","waste":"trash"}},"type":"Feature"},
	{"geometry":{"coordinates":[7.435829,46.957656],"type":"Point"},"properties":{"osm_id":"6333427750","tag":{"amenity":"waste_basket"}},"type":"Feature"},
	{"geometry":{"coordinates":[7.449041,46.944398],"type":"Point"},"properties":{"osm_id":"6334108890","tag":{"amenity":"waste_basket","waste":"trash"}},"type":"Feature"},
	{"geometry":{"coordinates":[7.448819,46.944382],"type":"Point"},"properties":{"osm_id":"6334108891","tag":{"amenity":"waste_basket","waste":"trash"}},"type":"Feature"},
	{"geometry":{"coordinates":[7.464862,46.954114],"type":"Point"},"properties":{"osm_id":"6351984687","tag":{"amenity":"waste_basket","waste":"trash"}},"type":"Feature"},
	{"geometry":{"coordinates":[7.415116,46.924644],"type":"Point"},"properties":{"osm_id":"6380390568","tag":{"amenity":"waste_basket","recycling":"aluminium;paper;PET","waste":"trash"}},"type":"Feature"},
	{"geometry":{"coordinates":[7.425627,46.941981],"type":"Point"},"properties":{"osm_id":"6383728550","tag":{"amenity":"waste_basket"}},"type":"Feature"},
	{"geometry":{"coordinates":[7.425796,46.942188],"type":"Point"},"properties":{"osm_id":"6383728553","tag":{"amenity":"waste_basket"}},"type":"Feature"},
	{"geometry":{"coordinates":[7.425731,46.941925],"type":"Point"},"properties":{"osm_id":"6383728558","tag":{"amenity":"waste_basket"}},"type":"Feature"},
	{"geometry":{"coordinates":[7.45123,46.962222],"type":"Point"},"properties":{"osm_id":"6385115169","tag":{"amenity":"recycling","recycling:clothes":"yes","recycling_type":"container"}},"type":"Feature"},
	{"geometry":{"coordinates":[7.45241,46.928409],"type":"Point"},"properties":{"osm_id":"6387562173","tag":{"amenity":"recycling","recycling:clothes":"yes"}},"type":"Feature"},
	{"geometry":{"coordinates":[7.452426,46.928505],"type":"Point"},"properties":{"osm_id":"6387565888","tag":{"amenity":"recycling","recycling:PET":"yes","recycling:batteries":"yes","recycling:cds":"yes","recycling:cream_chargers":"yes","recycling:plastic_bottles":"yes"}},"type":"Feature"},
	{"geometry":{"coordinates":[7.462109,46.952863],"type":"Point"},"properties":{"osm_id":"6411052409","tag":{"amenity":"waste_basket","vending":"excrement_bags"}},"type":"Feature"},
	{"geometry":{"coordinates":[7.421766,46.940912],"type":"Point"},"properties":{"osm_id":"6413775882","tag":{"amenity":"waste_basket"}},"type":"Feature"},
	{"geometry":{"coordinates":[7.408468,46.979456],"type":"Point"},"properties":{"osm_id":"6417686486","tag":{"amenity":"waste_basket","waste":"trash"}},"type":"Feature"},
	{"geometry":{"coordinates":[7.431046,46.946325],"type":"Point"},"properties":{"osm_id":"6420594487","tag":{"amenity":"waste_basket"}},"type":"Feature"},
	{"geometry":{"coordinates":[7.395895,46.943554],"type":"Point"},"properties":{"osm_id":"6432400355","tag":{"amenity":"recycling","recycling:clothes":"yes","recycling_type":"container"}},"type":"Feature"},
	{"geometry":{"coordinates":[7.390734,46.945806],"type":"Point"},"properties":{"osm_id":"6432400356","tag":{"amenity":"recycling","operator":"Texaid","recycling:clothes":"yes","recycling_type":"container"}},"type":"Feature"},
	{"geometry":{"coordinates":[7.426193,46.937987],"type":"Point"},"properties":{"osm_id":"6432894687","tag":{"amenity":"waste_basket"}},"type":"Feature"},
	{"geometry":{"coordinates":[7.449054,46.940212],"type":"Point"},"properties":{"osm_id":"6443274898","tag":{"amenity":"waste_basket"}},"type":"Feature"},
	{"geometry":{"coordinates":[7.434362,46.942184],"type":"Point"},"properties":{"osm_id":"6462351706","tag":{"amenity":"waste_basket"}},"type":"Feature"},
	{"geometry":{"coordinates":[7.43613,46.942504],"type":"Point"},"properties":{"osm_id":"6462351707","tag":{"amenity":"waste_basket"}},"type":"Feature"},
	{"geometry":{"coordinates":[7.434109,46.942149],"type":"Point"},"properties":{"osm_id":"6462351708","tag":{"amenity":"waste_basket"}},"type":"Feature"},
	{"geometry":{"coordinates":[7.425586,46.935606],"type":"Point"},"properties":{"osm_id":"6480335738","tag":{"amenity":"waste_basket"}},"type":"Feature"},
	{"geometry":{"coordinates":[7.425526,46.935817],"type":"Point"},"properties":{"osm_id":"6480335743","tag":{"amenity":"waste_basket"}},"type":"Feature"},
	{"geometry":{"coordinates":[7.421759,46.975349],"type":"Point"},"properties":{"name":"Entsorgungsstelle M\u00c3\u00b6\u00c3\u00b6slimatt","osm_id":"6515442704","tag":{"alt_name":"Sammelstelle Caf\u00c3\u00a9 M\u00c3\u00b6\u00c3\u00b6sli","amenity":"recycling","opening_hours":"Mo-Fr 08:00-19:00; Sa 08:00-17:00","operator":"Gemeinde Kirchlindach","recycling:glass":"yes","recycling:metal":"yes","recycling_type":"container"}},"type":"Feature"},
	{"geometry":{"coordinates":[7.417727,46.97574],"type":"Point"},"properties":{"osm_id":"6527914831","tag":{"amenity":"waste_basket","waste":"rubbish"}},"type":"Feature"},
	{"geometry":{"coordinates":[7.391797,46.951401],"type":"Point"},"properties":{"osm_id":"6528869329","tag":{"amenity":"recycling","operator":"Coop","recycling:clothes":"yes","recycling_type":"container"}},"type":"Feature"},
	{"geometry":{"coordinates":[7.39878,46.978021],"type":"Point"},"properties":{"osm_id":"6533870363","tag":{"amenity":"waste_basket","vending":"excrement_bags","waste":"rubbish"}},"type":"Feature"},
	{"geometry":{"coordinates":[7.444467,46.966448],"type":"Point"},"properties":{"osm_id":"6533936236","tag":{"amenity":"waste_basket","waste":"rubbish"}},"type":"Feature"},
	{"geometry":{"coordinates":[7.391592,46.97853],"type":"Point"},"properties":{"osm_id":"6533937837","tag":{"amenity":"waste_basket","brand":"Robidog","vending":"excrement_bags","waste":"rubbish"}},"type":"Feature"},
	{"geometry":{"coordinates":[7.452818,46.958038],"type":"Point"},"properties":{"osm_id":"6541949752","tag":{"amenity":"recycling","recycling:batteries":"yes","recycling:glass":"yes","recycling:metal":"yes","recycling_type":"container"}},"type":"Feature"},
	{"geometry":{"coordinates":[7.429467,46.978039],"type":"Point"},"properties":{"osm_id":"6542587050","tag":{"amenity":"waste_basket"}},"type":"Feature"},
	{"geometry":{"coordinates":[7.430558,46.980009],"type":"Point"},"properties":{"osm_id":"6542587247","tag":{"amenity":"waste_basket","vending":"excrement_bags"}},"type":"Feature"},
	{"geometry":{"coordinates":[7.427885,46.977787],"type":"Point"},"properties":{"osm_id":"6542595642","tag":{"amenity":"waste_basket"}},"type":"Feature"},
	{"geometry":{"coordinates":[7.440347,46.94782],"type":"Point"},"properties":{"osm_id":"6546812356","tag":{"amenity":"waste_basket","recycling:PET":"yes","recycling:aluminium":"yes","recycling:paper":"yes","waste":"rubbish"}},"type":"Feature"},
	{"geometry":{"coordinates":[7.460819,46.937291],"type":"Point"},"properties":{"osm_id":"6554815165","tag":{"amenity":"waste_basket"}},"type":"Feature"},
	{"geometry":{"coordinates":[7.460817,46.937301],"type":"Point"},"properties":{"osm_id":"6554862883","tag":{"amenity":"waste_basket"}},"type":"Feature"},
	{"geometry":{"coordinates":[7.464161,46.933722],"type":"Point"},"properties":{"osm_id":"6554865527","tag":{"amenity":"waste_basket"}},"type":"Feature"},
	{"geometry":{"coordinates":[7.459251,46.939408],"type":"Point"},"properties":{"osm_id":"6554869671","tag":{"amenity":"waste_basket"}},"type":"Feature"},
	{"geometry":{"coordinates":[7.460204,46.936029],"type":"Point"},"properties":{"osm_id":"6554870115","tag":{"amenity":"waste_basket"}},"type":"Feature"},
	{"geometry":{"coordinates":[7.459253,46.939398],"type":"Point"},"properties":{"osm_id":"6554873613","tag":{"amenity":"waste_basket"}},"type":"Feature"},
	{"geometry":{"coordinates":[7.468319,46.931339],"type":"Point"},"properties":{"osm_id":"6554879159","tag":{"amenity":"waste_basket"}},"type":"Feature"},
	{"geometry":{"coordinates":[7.458564,46.940154],"type":"Point"},"properties":{"osm_id":"6554879435","tag":{"amenity":"waste_basket","vending":"excrement_bags"}},"type":"Feature"},
	{"geometry":{"coordinates":[7.414592,46.946078],"type":"Point"},"properties":{"osm_id":"6563488575","tag":{"amenity":"waste_basket","material":"metal","operator":"Stadt Bern","vending_machine":"excrement_bags"}},"type":"Feature"},
	{"geometry":{"coordinates":[7.421052,46.944439],"type":"Point"},"properties":{"osm_id":"6563490145","tag":{"amenity":"waste_basket"}},"type":"Feature"},
	{"geometry":{"coordinates":[7.42123,46.944343],"type":"Point"},"properties":{"osm_id":"6563490146","tag":{"amenity":"waste_basket"}},"type":"Feature"},
	{"geometry":{"coordinates":[7.431211,46.975427],"type":"Point"},"properties":{"osm_id":"6565591461","tag":{"amenity":"waste_basket","vending":"excrement_bags"}},"type":"Feature"},
	{"geometry":{"coordinates":[7.430028,46.95467],"type":"Point"},"properties":{"osm_id":"6580337897","tag":{"amenity":"waste_basket"}},"type":"Feature"},
	{"geometry":{"coordinates":[7.42931,46.955106],"type":"Point"},"properties":{"osm_id":"6580337898","tag":{"amenity":"waste_basket"}},"type":"Feature"},
	{"geometry":{"coordinates":[7.418203,46.973331],"type":"Point"},"properties":{"osm_id":"6589839557","tag":{"amenity":"waste_basket","waste":"trash;cigarettes"}},"type":"Feature"},
	{"geometry":{"coordinates":[7.423065,46.95519],"type":"Point"},"properties":{"osm_id":"6619023477","tag":{"amenity":"waste_basket","brand":"Robidog","vending":"excrement_bags"}},"type":"Feature"},
	{"geometry":{"coordinates":[7.422844,46.955164],"type":"Point"},"properties":{"osm_id":"6619023479","tag":{"amenity":"waste_basket"}},"type":"Feature"},
	{"geometry":{"coordinates":[7.424956,46.977346],"type":"Point"},"properties":{"osm_id":"6653491860","tag":{"amenity":"waste_basket","vending":"excrement_bags"}},"type":"Feature"},
	{"geometry":{"coordinates":[7.422174,46.975679],"type":"Point"},"properties":{"osm_id":"6655775043","tag":{"amenity":"waste_basket"}},"type":"Feature"},
	{"geometry":{"coordinates":[7.437675,46.975412],"type":"Point"},"properties":{"osm_id":"6668063901","tag":{"amenity":"recycling","operator":"Migros","recycling:PET":"yes","recycling:cds":"yes","recycling:cream_chargers":"yes","recycling:plastic_bottles":"yes","recycling_type":"container"}},"type":"Feature"},
	{"geometry":{"coordinates":[7.452536,46.96801],"type":"Point"},"properties":{"osm_id":"6680082428","tag":{"amenity":"waste_basket"}},"type":"Feature"},
	{"geometry":{"coordinates":[7.452498,46.967971],"type":"Point"},"properties":{"osm_id":"6680082429","tag":{"amenity":"waste_basket"}},"type":"Feature"},
	{"geometry":{"coordinates":[7.408476,46.974997],"type":"Point"},"properties":{"osm_id":"6681581440","tag":{"amenity":"waste_basket"}},"type":"Feature"},
	{"geometry":{"coordinates":[7.419924,46.975683],"type":"Point"},"properties":{"osm_id":"6681672267","tag":{"amenity":"waste_basket"}},"type":"Feature"},
	{"geometry":{"coordinates":[7.393244,46.97692],"type":"Point"},"properties":{"osm_id":"6681672764","tag":{"amenity":"waste_basket","brand":"Robidog","dispensing":"excrement_bags"}},"type":"Feature"},
	{"geometry":{"coordinates":[7.408594,46.974183],"type":"Point"},"properties":{"osm_id":"6681713874","tag":{"amenity":"waste_basket"}},"type":"Feature"},
	{"geometry":{"coordinates":[7.444265,46.939461],"type":"Point"},"properties":{"osm_id":"6699815520","tag":{"amenity":"waste_basket","waste":"trash"}},"type":"Feature"},
	{"geometry":{"coordinates":[7.44203,46.940926],"type":"Point"},"properties":{"osm_id":"6716393500","tag":{"amenity":"waste_basket","waste":"trash"}},"type":"Feature"},
	{"geometry":{"coordinates":[7.442352,46.941339],"type":"Point"},"properties":{"osm_id":"6716393501","tag":{"amenity":"waste_basket","waste":"trash"}},"type":"Feature"},
	{"geometry":{"coordinates":[7.451268,46.932644],"type":"Point"},"properties":{"osm_id":"6716421156","tag":{"amenity":"waste_basket","mapillary":"5LqtQJKjSamkG5X0E_QwTQ"}},"type":"Feature"},
	{"geometry":{"coordinates":[7.451081,46.978436],"type":"Point"},"properties":{"osm_id":"6763905330","tag":{"amenity":"waste_basket"}},"type":"Feature"},
	{"geometry":{"coordinates":[7.45096,46.97977],"type":"Point"},"properties":{"osm_id":"6763905333","tag":{"amenity":"waste_basket"}},"type":"Feature"},
	{"geometry":{"coordinates":[7.45061,46.975998],"type":"Point"},"properties":{"osm_id":"6763905340","tag":{"amenity":"waste_basket"}},"type":"Feature"},
	{"geometry":{"coordinates":[7.442075,46.980067],"type":"Point"},"properties":{"osm_id":"6763905346","tag":{"amenity":"waste_basket"}},"type":"Feature"},
	{"geometry":{"coordinates":[7.448705,46.973229],"type":"Point"},"properties":{"osm_id":"6763987094","tag":{"amenity":"waste_basket"}},"type":"Feature"},
	{"geometry":{"coordinates":[7.42081,46.930978],"type":"Point"},"properties":{"osm_id":"6772356736","tag":{"amenity":"waste_basket","waste":"trash"}},"type":"Feature"},
	{"geometry":{"coordinates":[7.435451,46.968908],"type":"Point"},"properties":{"osm_id":"6797066947","tag":{"amenity":"waste_basket"}},"type":"Feature"},
	{"geometry":{"coordinates":[7.437829,46.975468],"type":"Point"},"properties":{"osm_id":"6797074334","tag":{"amenity":"recycling","operator":"Texaid","recycling:clothes":"yes","recycling_type":"container"}},"type":"Feature"},
	{"geometry":{"coordinates":[7.43754,46.975812],"type":"Point"},"properties":{"osm_id":"6797075765","tag":{"amenity":"waste_basket"}},"type":"Feature"},
	{"geometry":{"coordinates":[7.434318,46.975447],"type":"Point"},"properties":{"osm_id":"6797080053","tag":{"amenity":"waste_basket","waste":"trash;cigarettes"}},"type":"Feature"},
	{"geometry":{"coordinates":[7.437968,46.972922],"type":"Point"},"properties":{"osm_id":"6797086424","tag":{"amenity":"waste_basket","brand":"Robidog","vending":"excrement_bags"}},"type":"Feature"},
	{"geometry":{"coordinates":[7.437123,46.975815],"type":"Point"},"properties":{"osm_id":"6797089086","tag":{"amenity":"waste_basket","vending":"excrement_bags"}},"type":"Feature"},
	{"geometry":{"coordinates":[7.463978,46.965686],"type":"Point"},"properties":{"osm_id":"6799109642","tag":{"amenity":"recycling","location":"overground","opening_hours":"Mo-Sa 07:00-20:00","recycling:cans":"yes","recycling:glass_bottles":"yes","recycling_type":"container","wheelchair":"limited"}},"type":"Feature"},
	{"geometry":{"coordinates":[7.420927,46.97551],"type":"Point"},"properties":{"osm_id":"6805081243","tag":{"amenity":"waste_basket","waste":"trash;cigarettes"}},"type":"Feature"},
	{"geometry":{"coordinates":[7.418258,46.973189],"type":"Point"},"properties":{"osm_id":"6805081249","tag":{"amenity":"waste_basket"}},"type":"Feature"},
	{"geometry":{"coordinates":[7.428395,46.975092],"type":"Point"},"properties":{"osm_id":"6806454827","tag":{"amenity":"waste_basket","brand":"Robidog","vending":"excrement_bags"}},"type":"Feature"},
	{"geometry":{"coordinates":[7.423542,46.974885],"type":"Point"},"properties":{"osm_id":"6806454828","tag":{"amenity":"waste_basket","brand":"Robidog","vending":"excrement_bags"}},"type":"Feature"},
	{"geometry":{"coordinates":[7.436998,46.975746],"type":"Point"},"properties":{"osm_id":"6806454831","tag":{"amenity":"waste_basket","waste":"trash;cigarettes"}},"type":"Feature"},
	{"geometry":{"coordinates":[7.437581,46.975645],"type":"Point"},"properties":{"osm_id":"6806454832","tag":{"amenity":"waste_basket","waste":"trash;cigarettes"}},"type":"Feature"},
	{"geometry":{"coordinates":[7.440052,46.976129],"type":"Point"},"properties":{"osm_id":"6806509292","tag":{"amenity":"waste_basket","vending":"excrement_bags"}},"type":"Feature"},
	{"geometry":{"coordinates":[7.439302,46.976052],"type":"Point"},"properties":{"osm_id":"6806513997","tag":{"amenity":"waste_basket"}},"type":"Feature"},
	{"geometry":{"coordinates":[7.440703,46.980115],"type":"Point"},"properties":{"osm_id":"6806527343","tag":{"amenity":"waste_basket","vending":"excrement_bags"}},"type":"Feature"},
	{"geometry":{"coordinates":[7.425275,46.936579],"type":"Point"},"properties":{"osm_id":"6807094242","tag":{"amenity":"waste_basket","waste":"trash"}},"type":"Feature"},
	{"geometry":{"coordinates":[7.417381,46.972803],"type":"Point"},"properties":{"osm_id":"6809381753","tag":{"amenity":"waste_basket"}},"type":"Feature"},
	{"geometry":{"coordinates":[7.410841,46.974232],"type":"Point"},"properties":{"osm_id":"6809381755","tag":{"amenity":"waste_basket"}},"type":"Feature"},
	{"geometry":{"coordinates":[7.417825,46.979107],"type":"Point"},"properties":{"osm_id":"6810082733","tag":{"amenity":"waste_basket","waste":"trash;cigarettes"}},"type":"Feature"},
	{"geometry":{"coordinates":[7.418054,46.978369],"type":"Point"},"properties":{"osm_id":"6810082735","tag":{"amenity":"waste_basket","waste":"trash;cigarettes"}},"type":"Feature"},
	{"geometry":{"coordinates":[7.400429,46.979347],"type":"Point"},"properties":{"osm_id":"6810082745","tag":{"amenity":"waste_basket"}},"type":"Feature"},
	{"geometry":{"coordinates":[7.427244,46.959076],"type":"Point"},"properties":{"osm_id":"6811598356","tag":{"amenity":"waste_basket","waste":"trash;cigarettes"}},"type":"Feature"},
	{"geometry":{"coordinates":[7.427073,46.959153],"type":"Point"},"properties":{"osm_id":"6811598922","tag":{"amenity":"waste_basket","vending":"excrement_bags","waste":"trash;cigarettes"}},"type":"Feature"},
	{"geometry":{"coordinates":[7.435471,46.951102],"type":"Point"},"properties":{"osm_id":"6812387937","tag":{"amenity":"waste_basket","waste":"trash;cigarettes"}},"type":"Feature"},
	{"geometry":{"coordinates":[7.432753,46.952934],"type":"Point"},"properties":{"osm_id":"6812411687","tag":{"amenity":"waste_basket","waste":"trash;cigarettes"}},"type":"Feature"},
	{"geometry":{"coordinates":[7.432262,46.963114],"type":"Point"},"properties":{"osm_id":"6812638192","tag":{"amenity":"waste_basket","waste":"trash;cigarettes"}},"type":"Feature"},
	{"geometry":{"coordinates":[7.417022,46.938644],"type":"Point"},"properties":{"osm_id":"6813736778","tag":{"amenity":"waste_basket"}},"type":"Feature"},
	{"geometry":{"coordinates":[7.416616,46.937861],"type":"Point"},"properties":{"osm_id":"6813736779","tag":{"amenity":"waste_basket"}},"type":"Feature"},
	{"geometry":{"coordinates":[7.417822,46.939825],"type":"Point"},"properties":{"osm_id":"6813736780","tag":{"amenity":"waste_basket"}},"type":"Feature"},
	{"geometry":{"coordinates":[7.428495,46.9743],"type":"Point"},"properties":{"osm_id":"6816068457","tag":{"amenity":"waste_basket","vending":"excrement_bags"}},"type":"Feature"},
	{"geometry":{"coordinates":[7.43196,46.973491],"type":"Point"},"properties":{"osm_id":"6816068780","tag":{"amenity":"waste_basket","vending":"excrement_bags"}},"type":"Feature"},
	{"geometry":{"coordinates":[7.449097,46.93446],"type":"Point"},"properties":{"osm_id":"6819468162","tag":{"amenity":"waste_basket"}},"type":"Feature"},
	{"geometry":{"coordinates":[7.450483,46.935416],"type":"Point"},"properties":{"osm_id":"6819692793","tag":{"amenity":"waste_basket"}},"type":"Feature"},
	{"geometry":{"coordinates":[7.430149,46.944721],"type":"Point"},"properties":{"osm_id":"6828947246","tag":{"amenity":"waste_basket","material":"metal"}},"type":"Feature"},
	{"geometry":{"coordinates":[7.430535,46.944688],"type":"Point"},"properties":{"osm_id":"6828947248","tag":{"amenity":"waste_basket","material":"metal"}},"type":"Feature"},
	{"geometry":{"coordinates":[7.431162,46.944631],"type":"Point"},"properties":{"osm_id":"6828947252","tag":{"amenity":"waste_basket"}},"type":"Feature"},
	{"geometry":{"coordinates":[7.438657,46.969539],"type":"Point"},"properties":{"osm_id":"6835824892","tag":{"amenity":"waste_basket","vending":"excrement_bags"}},"type":"Feature"},
	{"geometry":{"coordinates":[7.440529,46.97894],"type":"Point"},"properties":{"osm_id":"6837211969","tag":{"amenity":"waste_basket","brand":"Robidog","vending":"excrement_bags"}},"type":"Feature"},
	{"geometry":{"coordinates":[7.439516,46.976681],"type":"Point"},"properties":{"osm_id":"6837211970","tag":{"amenity":"waste_basket","brand":"Robidog","vending":"excrement_bags"}},"type":"Feature"},
	{"geometry":{"coordinates":[7.441225,46.977445],"type":"Point"},"properties":{"osm_id":"6837211971","tag":{"amenity":"waste_basket"}},"type":"Feature"},
	{"geometry":{"coordinates":[7.419334,46.97553],"type":"Point"},"properties":{"osm_id":"6838294537","tag":{"amenity":"waste_basket"}},"type":"Feature"},
	{"geometry":{"coordinates":[7.419115,46.975134],"type":"Point"},"properties":{"osm_id":"6838294558","tag":{"amenity":"waste_basket"}},"type":"Feature"},
	{"geometry":{"coordinates":[7.439139,46.973995],"type":"Point"},"properties":{"osm_id":"6838441036","tag":{"amenity":"waste_basket"}},"type":"Feature"},
	{"geometry":{"coordinates":[7.439132,46.973995],"type":"Point"},"properties":{"osm_id":"6838441037","tag":{"amenity":"waste_basket"}},"type":"Feature"},
	{"geometry":{"coordinates":[7.44162,46.977497],"type":"Point"},"properties":{"osm_id":"6838820248","tag":{"amenity":"waste_basket","waste":"trash;cigarettes"}},"type":"Feature"},
	{"geometry":{"coordinates":[7.427274,46.975264],"type":"Point"},"properties":{"osm_id":"6838842433","tag":{"amenity":"waste_basket","waste":"trash;cigarettes"}},"type":"Feature"},
	{"geometry":{"coordinates":[7.439818,46.971278],"type":"Point"},"properties":{"osm_id":"6853950661","tag":{"amenity":"waste_basket"}},"type":"Feature"},
	{"geometry":{"coordinates":[7.439872,46.971965],"type":"Point"},"properties":{"osm_id":"6853950673","tag":{"amenity":"waste_basket"}},"type":"Feature"},
	{"geometry":{"coordinates":[7.439951,46.973525],"type":"Point"},"properties":{"osm_id":"6853950675","tag":{"amenity":"waste_basket"}},"type":"Feature"},
	{"geometry":{"coordinates":[7.440041,46.974274],"type":"Point"},"properties":{"osm_id":"6853950678","tag":{"amenity":"waste_basket"}},"type":"Feature"},
	{"geometry":{"coordinates":[7.440218,46.975045],"type":"Point"},"properties":{"osm_id":"6853950680","tag":{"amenity":"waste_basket"}},"type":"Feature"},
	{"geometry":{"coordinates":[7.440853,46.97601],"type":"Point"},"properties":{"osm_id":"6853950682","tag":{"amenity":"waste_basket","waste":"trash;cigarettes"}},"type":"Feature"},
	{"geometry":{"coordinates":[7.441588,46.975538],"type":"Point"},"properties":{"osm_id":"6854653813","tag":{"amenity":"waste_basket","waste":"trash;cigarettes"}},"type":"Feature"},
	{"geometry":{"coordinates":[7.441659,46.975334],"type":"Point"},"properties":{"osm_id":"6854653814","tag":{"amenity":"waste_basket","waste":"trash;cigarettes"}},"type":"Feature"},
	{"geometry":{"coordinates":[7.413348,46.945878],"type":"Point"},"properties":{"osm_id":"6873610299","tag":{"amenity":"waste_basket"}},"type":"Feature"},
	{"geometry":{"coordinates":[7.431708,46.944521],"type":"Point"},"properties":{"osm_id":"6873622895","tag":{"amenity":"waste_basket"}},"type":"Feature"},
	{"geometry":{"coordinates":[7.432147,46.944492],"type":"Point"},"properties":{"osm_id":"6873622896","tag":{"amenity":"waste_basket"}},"type":"Feature"},
	{"geometry":{"coordinates":[7.441149,46.978375],"type":"Point"},"properties":{"osm_id":"6879721028","tag":{"amenity":"recycling","recycling:clothes":"yes","recycling_type":"container"}},"type":"Feature"},
	{"geometry":{"coordinates":[7.424706,46.940373],"type":"Point"},"properties":{"osm_id":"6900604633","tag":{"amenity":"waste_basket"}},"type":"Feature"},
	{"geometry":{"coordinates":[7.424332,46.939945],"type":"Point"},"properties":{"osm_id":"6900604634","tag":{"amenity":"waste_basket"}},"type":"Feature"},
	{"geometry":{"coordinates":[7.424292,46.940279],"type":"Point"},"properties":{"osm_id":"6900604636","tag":{"amenity":"waste_basket"}},"type":"Feature"},
	{"geometry":{"coordinates":[7.424913,46.940081],"type":"Point"},"properties":{"osm_id":"6900604637","tag":{"amenity":"waste_basket"}},"type":"Feature"},
	{"geometry":{"coordinates":[7.424696,46.939928],"type":"Point"},"properties":{"osm_id":"6900604639","tag":{"amenity":"waste_basket"}},"type":"Feature"},
	{"geometry":{"coordinates":[7.453693,46.947046],"type":"Point"},"properties":{"osm_id":"6903821647","tag":{"amenity":"waste_basket"}},"type":"Feature"},
	{"geometry":{"coordinates":[7.452322,46.946777],"type":"Point"},"properties":{"osm_id":"6906565783","tag":{"amenity":"waste_basket"}},"type":"Feature"},
	{"geometry":{"coordinates":[7.451551,46.94652],"type":"Point"},"properties":{"osm_id":"6906565784","tag":{"amenity":"waste_basket"}},"type":"Feature"},
	{"geometry":{"coordinates":[7.452305,46.946896],"type":"Point"},"properties":{"osm_id":"6906586785","tag":{"amenity":"waste_basket"}},"type":"Feature"},
	{"geometry":{"coordinates":[7.457345,46.948955],"type":"Point"},"properties":{"osm_id":"6906849612","tag":{"amenity":"waste_basket"}},"type":"Feature"},
	{"geometry":{"coordinates":[7.456747,46.94879],"type":"Point"},"properties":{"osm_id":"6906849623","tag":{"amenity":"waste_basket"}},"type":"Feature"},
	{"geometry":{"coordinates":[7.416889,46.922463],"type":"Point"},"properties":{"osm_id":"6912684561","tag":{"amenity":"waste_basket"}},"type":"Feature"},
	{"geometry":{"coordinates":[7.435828,46.978269],"type":"Point"},"properties":{"osm_id":"6913951185","tag":{"amenity":"waste_basket","brand":"Robidog","vending":"excrement_bags"}},"type":"Feature"},
	{"geometry":{"coordinates":[7.425348,46.941852],"type":"Point"},"properties":{"osm_id":"6919765094","tag":{"amenity":"waste_basket","waste":"trash"}},"type":"Feature"},
	{"geometry":{"coordinates":[7.427295,46.976264],"type":"Point"},"properties":{"osm_id":"6920414854","tag":{"amenity":"waste_basket"}},"type":"Feature"},
	{"geometry":{"coordinates":[7.427078,46.976296],"type":"Point"},"properties":{"osm_id":"6920414863","tag":{"amenity":"waste_basket","vending":"excrement_bags"}},"type":"Feature"},
	{"geometry":{"coordinates":[7.442321,46.976666],"type":"Point"},"properties":{"osm_id":"6920425780","tag":{"amenity":"waste_basket"}},"type":"Feature"},
	{"geometry":{"coordinates":[7.457729,46.97831],"type":"Point"},"properties":{"osm_id":"6923421174","tag":{"amenity":"waste_basket"}},"type":"Feature"},
	{"geometry":{"coordinates":[7.456724,46.975722],"type":"Point"},"properties":{"osm_id":"6923429413","tag":{"amenity":"waste_basket"}},"type":"Feature"},
	{"geometry":{"coordinates":[7.427017,46.973888],"type":"Point"},"properties":{"osm_id":"6923915879","tag":{"amenity":"waste_basket"}},"type":"Feature"},
	{"geometry":{"coordinates":[7.42854,46.939319],"type":"Point"},"properties":{"osm_id":"6924481605","tag":{"amenity":"waste_basket","waste":"trash"}},"type":"Feature"},
	{"geometry":{"coordinates":[7.45833,46.97896],"type":"Point"},"properties":{"osm_id":"6925284722","tag":{"amenity":"waste_basket","vending":"excrement_bags"}},"type":"Feature"},
	{"geometry":{"coordinates":[7.442154,46.95426],"type":"Point"},"properties":{"osm_id":"6943709835","tag":{"amenity":"waste_basket"}},"type":"Feature"},
	{"geometry":{"coordinates":[7.442363,46.954005],"type":"Point"},"properties":{"osm_id":"6943709836","tag":{"amenity":"waste_basket"}},"type":"Feature"},
	{"geometry":{"coordinates":[7.442811,46.953576],"type":"Point"},"properties":{"osm_id":"6943709837","tag":{"amenity":"waste_basket"}},"type":"Feature"},
	{"geometry":{"coordinates":[7.444926,46.951951],"type":"Point"},"properties":{"osm_id":"6943709838","tag":{"amenity":"waste_basket"}},"type":"Feature"},
	{"geometry":{"coordinates":[7.446573,46.951081],"type":"Point"},"properties":{"osm_id":"6943709839","tag":{"amenity":"waste_basket"}},"type":"Feature"},
	{"geometry":{"coordinates":[7.44167,46.959504],"type":"Point"},"properties":{"osm_id":"6943764832","tag":{"amenity":"waste_basket"}},"type":"Feature"},
	{"geometry":{"coordinates":[7.439258,46.949087],"type":"Point"},"properties":{"osm_id":"6946126434","tag":{"amenity":"waste_basket","level":"2","recycling:aluminium":"yes","recycling:paper":"yes","recycling:pet":"yes","waste":"trash"}},"type":"Feature"},
	{"geometry":{"coordinates":[7.459215,46.956791],"type":"Point"},"properties":{"osm_id":"6952557746","tag":{"amenity":"waste_basket"}},"type":"Feature"},
	{"geometry":{"coordinates":[7.459424,46.957063],"type":"Point"},"properties":{"osm_id":"6952557747","tag":{"amenity":"waste_basket"}},"type":"Feature"},
	{"geometry":{"coordinates":[7.422247,46.947312],"type":"Point"},"properties":{"osm_id":"6966277567","tag":{"amenity":"waste_basket"}},"type":"Feature"},
	{"geometry":{"coordinates":[7.414543,46.943327],"type":"Point"},"properties":{"osm_id":"6969443372","tag":{"amenity":"waste_basket"}},"type":"Feature"},
	{"geometry":{"coordinates":[7.433347,46.973022],"type":"Point"},"properties":{"osm_id":"6970257389","tag":{"amenity":"waste_basket","vending":"excrement_bags"}},"type":"Feature"},
	{"geometry":{"coordinates":[7.445545,46.949952],"type":"Point"},"properties":{"osm_id":"6974915624","tag":{"amenity":"waste_basket"}},"type":"Feature"},
	{"geometry":{"coordinates":[7.416764,46.971725],"type":"Point"},"properties":{"osm_id":"6981663200","tag":{"amenity":"waste_basket"}},"type":"Feature"},
	{"geometry":{"coordinates":[7.423951,46.973008],"type":"Point"},"properties":{"osm_id":"6981663209","tag":{"amenity":"waste_basket"}},"type":"Feature"},
	{"geometry":{"coordinates":[7.422452,46.951102],"type":"Point"},"properties":{"osm_id":"6983191537","tag":{"amenity":"waste_basket","material":"metal","waste":"trash"}},"type":"Feature"},
	{"geometry":{"coordinates":[7.415348,46.945956],"type":"Point"},"properties":{"osm_id":"6983230086","tag":{"amenity":"waste_basket"}},"type":"Feature"},
	{"geometry":{"coordinates":[7.443428,46.952297],"type":"Point"},"properties":{"osm_id":"6990960184","tag":{"amenity":"waste_basket"}},"type":"Feature"},
	{"geometry":{"coordinates":[7.429996,46.961413],"type":"Point"},"properties":{"osm_id":"7003122672","tag":{"amenity":"waste_basket"}},"type":"Feature"},
	{"geometry":{"coordinates":[7.411397,46.970507],"type":"Point"},"properties":{"osm_id":"7003747251","tag":{"amenity":"waste_basket"}},"type":"Feature"},
	{"geometry":{"coordinates":[7.431082,46.942121],"type":"Point"},"properties":{"osm_id":"7004255437","tag":{"amenity":"waste_basket","colour":"silver","material":"metal","waste":"trash;cigarettes"}},"type":"Feature"},
	{"geometry":{"coordinates":[7.430896,46.941901],"type":"Point"},"properties":{"osm_id":"7004255438","tag":{"amenity":"waste_basket","colour":"silver","material":"metal","waste":"trash;cigarettes"}},"type":"Feature"},
	{"geometry":{"coordinates":[7.412017,46.973917],"type":"Point"},"properties":{"osm_id":"7012436501","tag":{"amenity":"waste_basket"}},"type":"Feature"},
	{"geometry":{"coordinates":[7.392502,46.97725],"type":"Point"},"properties":{"osm_id":"7013758938","tag":{"amenity":"waste_basket"}},"type":"Feature"},
	{"geometry":{"coordinates":[7.463442,46.968262],"type":"Point"},"properties":{"osm_id":"7013808675","tag":{"amenity":"waste_basket","wheelchair":"yes"}},"type":"Feature"},
	{"geometry":{"coordinates":[7.463626,46.967957],"type":"Point"},"properties":{"osm_id":"7013808676","tag":{"amenity":"waste_basket","wheelchair":"yes"}},"type":"Feature"},
	{"geometry":{"coordinates":[7.463215,46.96822],"type":"Point"},"properties":{"osm_id":"7013808677","tag":{"amenity":"waste_basket","wheelchair":"yes"}},"type":"Feature"},
	{"geometry":{"coordinates":[7.46369,46.967853],"type":"Point"},"properties":{"osm_id":"7013808678","tag":{"amenity":"waste_basket","wheelchair":"yes"}},"type":"Feature"},
	{"geometry":{"coordinates":[7.437425,46.960257],"type":"Point"},"properties":{"osm_id":"7016389089","tag":{"amenity":"waste_basket","brand":"Robidog","vending":"excrement_bags"}},"type":"Feature"},
	{"geometry":{"coordinates":[7.397296,46.96897],"type":"Point"},"properties":{"osm_id":"7018149127","tag":{"amenity":"waste_basket"}},"type":"Feature"},
	{"geometry":{"coordinates":[7.444936,46.972023],"type":"Point"},"properties":{"osm_id":"7024366021","tag":{"amenity":"waste_basket"}},"type":"Feature"},
	{"geometry":{"coordinates":[7.445221,46.972033],"type":"Point"},"properties":{"osm_id":"7024366022","tag":{"amenity":"waste_basket"}},"type":"Feature"},
	{"geometry":{"coordinates":[7.443678,46.972172],"type":"Point"},"properties":{"osm_id":"7029815468","tag":{"amenity":"waste_basket"}},"type":"Feature"},
	{"geometry":{"coordinates":[7.44171,46.972674],"type":"Point"},"properties":{"osm_id":"7030974420","tag":{"amenity":"waste_basket"}},"type":"Feature"},
	{"geometry":{"coordinates":[7.441807,46.97256],"type":"Point"},"properties":{"osm_id":"7030974421","tag":{"amenity":"waste_basket"}},"type":"Feature"},
	{"geometry":{"coordinates":[7.461634,46.978399],"type":"Point"},"properties":{"osm_id":"7078309322","tag":{"amenity":"recycling","operator":"Texaid","recycling:clothes":"yes","recycling_type":"container"}},"type":"Feature"},
	{"geometry":{"coordinates":[7.411427,46.950067],"type":"Point"},"properties":{"osm_id":"7107717129","tag":{"amenity":"waste_basket","colour":"silver","material":"metal","waste":"trash;dog_excrement"}},"type":"Feature"},
	{"geometry":{"coordinates":[7.422356,46.944749],"type":"Point"},"properties":{"osm_id":"7109424721","tag":{"amenity":"waste_basket","colour":"silver","material":"metal","waste":"trash;dog_excrement"}},"type":"Feature"},
	{"geometry":{"coordinates":[7.426192,46.944566],"type":"Point"},"properties":{"osm_id":"7109424726","tag":{"amenity":"waste_basket","material":"metal","waste":"trash"}},"type":"Feature"},
	{"geometry":{"coordinates":[7.455445,46.977775],"type":"Point"},"properties":{"osm_id":"7126926396","tag":{"amenity":"waste_basket","operator":"Gemeinde Ittigen","recycling:aluminium":"yes","recycling:pet":"yes","waste":"trash"}},"type":"Feature"},
	{"geometry":{"coordinates":[7.456099,46.977451],"type":"Point"},"properties":{"osm_id":"7126926397","tag":{"amenity":"waste_basket","operator":"Gemeinde Ittigen","recycling:aluminium":"yes","recycling:pet":"yes","waste":"trash"}},"type":"Feature"},
	{"geometry":{"coordinates":[7.457701,46.977157],"type":"Point"},"properties":{"osm_id":"7126926398","tag":{"amenity":"waste_basket","brand":"Robidog","vending":"excrement_bags"}},"type":"Feature"},
	{"geometry":{"coordinates":[7.457899,46.977088],"type":"Point"},"properties":{"osm_id":"7126926399","tag":{"amenity":"waste_basket","operator":"Gemeinde Ittigen","recycling:aluminium":"yes","recycling:pet":"yes","waste":"trash"}},"type":"Feature"},
	{"geometry":{"coordinates":[7.435833,46.930061],"type":"Point"},"properties":{"osm_id":"7140829026","tag":{"amenity":"waste_basket"}},"type":"Feature"},
	{"geometry":{"coordinates":[7.435732,46.930453],"type":"Point"},"properties":{"osm_id":"7140829028","tag":{"amenity":"waste_basket"}},"type":"Feature"},
	{"geometry":{"coordinates":[7.435861,46.930427],"type":"Point"},"properties":{"osm_id":"7140829029","tag":{"amenity":"waste_basket"}},"type":"Feature"},
	{"geometry":{"coordinates":[7.422972,46.920275],"type":"Point"},"properties":{"osm_id":"7150942065","tag":{"amenity":"waste_basket"}},"type":"Feature"},
	{"geometry":{"coordinates":[7.461827,46.976698],"type":"Point"},"properties":{"osm_id":"7159301370","tag":{"amenity":"waste_basket","operator":"Gemeinde Ittigen","recycling:aluminium":"yes","recycling:pet":"yes","waste":"trash"}},"type":"Feature"},
	{"geometry":{"coordinates":[7.459723,46.978409],"type":"Point"},"properties":{"osm_id":"7159307275","tag":{"amenity":"waste_basket","vending":"excrement_bags"}},"type":"Feature"},
	{"geometry":{"coordinates":[7.459694,46.976955],"type":"Point"},"properties":{"osm_id":"7159373979","tag":{"amenity":"waste_basket","operator":"Gemeinde Ittigen","recycling:aluminium":"yes","recycling:pet":"yes","waste":"trash"}},"type":"Feature"},
	{"geometry":{"coordinates":[7.466693,46.973809],"type":"Point"},"properties":{"osm_id":"7159434832","tag":{"amenity":"waste_basket"}},"type":"Feature"},
	{"geometry":{"coordinates":[7.42765,46.930069],"type":"Point"},"properties":{"osm_id":"7208707934","tag":{"amenity":"recycling","recycling:clothes":"yes","recycling:glass":"yes","recycling:glass_bottles":"yes","recycling_type":"container"}},"type":"Feature"},
	{"geometry":{"coordinates":[7.468295,46.933394],"type":"Point"},"properties":{"osm_id":"7274156807","tag":{"amenity":"waste_basket"}},"type":"Feature"},
	{"geometry":{"coordinates":[7.388464,46.968253],"type":"Point"},"properties":{"osm_id":"7399087898","tag":{"amenity":"waste_basket"}},"type":"Feature"},
	{"geometry":{"coordinates":[7.434955,46.942426],"type":"Point"},"properties":{"osm_id":"7411521804","tag":{"amenity":"waste_basket"}},"type":"Feature"},
	{"geometry":{"coordinates":[7.456451,46.954016],"type":"Point"},"properties":{"osm_id":"7417193833","tag":{"amenity":"waste_basket"}},"type":"Feature"},
	{"geometry":{"coordinates":[7.455535,46.954202],"type":"Point"},"properties":{"osm_id":"7417193836","tag":{"amenity":"waste_basket"}},"type":"Feature"},
	{"geometry":{"coordinates":[7.455952,46.954384],"type":"Point"},"properties":{"osm_id":"7417193841","tag":{"amenity":"waste_basket"}},"type":"Feature"},
	{"geometry":{"coordinates":[7.455633,46.954383],"type":"Point"},"properties":{"osm_id":"7417193849","tag":{"amenity":"waste_basket"}},"type":"Feature"},
	{"geometry":{"coordinates":[7.430116,46.934274],"type":"Point"},"properties":{"osm_id":"7438525420","tag":{"amenity":"waste_basket"}},"type":"Feature"},
	{"geometry":{"coordinates":[7.430172,46.934141],"type":"Point"},"properties":{"osm_id":"7438525424","tag":{"amenity":"waste_basket"}},"type":"Feature"},
	{"geometry":{"coordinates":[7.429849,46.934319],"type":"Point"},"properties":{"osm_id":"7438525425","tag":{"amenity":"waste_basket"}},"type":"Feature"},
	{"geometry":{"coordinates":[7.429718,46.933794],"type":"Point"},"properties":{"osm_id":"7438525433","tag":{"amenity":"waste_basket"}},"type":"Feature"},
	{"geometry":{"coordinates":[7.45542,46.93441],"type":"Point"},"properties":{"osm_id":"7445681108","tag":{"amenity":"waste_basket"}},"type":"Feature"},
	{"geometry":{"coordinates":[7.419461,46.938042],"type":"Point"},"properties":{"osm_id":"7467793565","tag":{"amenity":"waste_basket"}},"type":"Feature"},
	{"geometry":{"coordinates":[7.463213,46.931067],"type":"Point"},"properties":{"osm_id":"7572617541","tag":{"amenity":"waste_basket"}},"type":"Feature"},
	{"geometry":{"coordinates":[7.463743,46.930758],"type":"Point"},"properties":{"osm_id":"7572617543","tag":{"amenity":"waste_basket"}},"type":"Feature"},
	{"geometry":{"coordinates":[7.418378,46.944608],"type":"Point"},"properties":{"osm_id":"7588711312","tag":{"amenity":"waste_basket"}},"type":"Feature"},
	{"geometry":{"coordinates":[7.418356,46.944903],"type":"Point"},"properties":{"osm_id":"7588711330","tag":{"amenity":"waste_basket"}},"type":"Feature"},
	{"geometry":{"coordinates":[7.432237,46.948723],"type":"Point"},"properties":{"osm_id":"7597777038","tag":{"amenity":"waste_basket","colour":"silver","material":"metal","operator":"Entsorgung Stadt Bern","waste":"trash"}},"type":"Feature"},
	{"geometry":{"coordinates":[7.438827,46.950436],"type":"Point"},"properties":{"osm_id":"7780786037","tag":{"amenity":"waste_basket","waste":"trash"}},"type":"Feature"},
	{"geometry":{"coordinates":[7.438707,46.950341],"type":"Point"},"properties":{"osm_id":"7780786038","tag":{"amenity":"waste_basket","waste":"trash"}},"type":"Feature"},
	{"geometry":{"coordinates":[7.438575,46.950242],"type":"Point"},"properties":{"osm_id":"7780786039","tag":{"amenity":"waste_basket","waste":"trash"}},"type":"Feature"},
	{"geometry":{"coordinates":[7.438475,46.950184],"type":"Point"},"properties":{"osm_id":"7780786040","tag":{"amenity":"waste_basket","waste":"trash"}},"type":"Feature"},
	{"geometry":{"coordinates":[7.438324,46.950116],"type":"Point"},"properties":{"osm_id":"7780786041","tag":{"amenity":"waste_basket","waste":"trash"}},"type":"Feature"},
	{"geometry":{"coordinates":[7.438178,46.950072],"type":"Point"},"properties":{"osm_id":"7780786042","tag":{"amenity":"waste_basket","waste":"trash"}},"type":"Feature"},
	{"geometry":{"coordinates":[7.438051,46.950036],"type":"Point"},"properties":{"osm_id":"7780786043","tag":{"amenity":"waste_basket","waste":"trash"}},"type":"Feature"},
	{"geometry":{"coordinates":[7.437875,46.950003],"type":"Point"},"properties":{"osm_id":"7780786044","tag":{"amenity":"waste_basket","waste":"trash"}},"type":"Feature"},
	{"geometry":{"coordinates":[7.437711,46.949971],"type":"Point"},"properties":{"osm_id":"7780786045","tag":{"amenity":"waste_basket","waste":"trash"}},"type":"Feature"},
	{"geometry":{"coordinates":[7.437727,46.950093],"type":"Point"},"properties":{"osm_id":"7780786046","tag":{"amenity":"waste_basket","waste":"trash"}},"type":"Feature"},
	{"geometry":{"coordinates":[7.437881,46.950122],"type":"Point"},"properties":{"osm_id":"7780786047","tag":{"amenity":"waste_basket","waste":"trash"}},"type":"Feature"},
	{"geometry":{"coordinates":[7.438061,46.950157],"type":"Point"},"properties":{"osm_id":"7780786048","tag":{"amenity":"waste_basket","waste":"trash"}},"type":"Feature"},
	{"geometry":{"coordinates":[7.43879,46.950187],"type":"Point"},"properties":{"osm_id":"7780786055","tag":{"amenity":"waste_basket","waste":"trash"}},"type":"Feature"},
	{"geometry":{"coordinates":[7.420922,46.932588],"type":"Point"},"properties":{"osm_id":"7803237662","tag":{"amenity":"waste_basket"}},"type":"Feature"},
	{"geometry":{"coordinates":[7.452539,46.927983],"type":"Point"},"properties":{"osm_id":"7816917058","tag":{"amenity":"recycling"}},"type":"Feature"},
	{"geometry":{"coordinates":[7.463521,46.968718],"type":"Point"},"properties":{"osm_id":"7884340827","tag":{"amenity":"recycling","location":"underground","opening_hours":"24/7","recycling:cardboard":"yes","recycling:paper":"yes","recycling:waste":"yes","recycling_type":"container","wheelchair":"yes"}},"type":"Feature"},
	{"geometry":{"coordinates":[7.421537,46.941861],"type":"Point"},"properties":{"osm_id":"7889199153","tag":{"amenity":"waste_basket"}},"type":"Feature"},
	{"geometry":{"coordinates":[7.435167,46.94166],"type":"Point"},"properties":{"osm_id":"7895965119","tag":{"amenity":"waste_basket"}},"type":"Feature"},
	{"geometry":{"coordinates":[7.435632,46.941648],"type":"Point"},"properties":{"osm_id":"7895965120","tag":{"amenity":"waste_basket"}},"type":"Feature"},
	{"geometry":{"coordinates":[7.43498,46.941758],"type":"Point"},"properties":{"osm_id":"7895965122","tag":{"amenity":"waste_basket"}},"type":"Feature"},
	{"geometry":{"coordinates":[7.447728,46.94703],"type":"Point"},"properties":{"osm_id":"7904577884","tag":{"amenity":"waste_basket","colour":"grey","material":"steel","waste":"mixed"}},"type":"Feature"},
	{"geometry":{"coordinates":[7.448922,46.948021],"type":"Point"},"properties":{"osm_id":"7912599493","tag":{"amenity":"waste_basket","colour":"grey","material":"steel","waste":"mixed"}},"type":"Feature"},
	{"geometry":{"coordinates":[7.40611,46.944266],"type":"Point"},"properties":{"osm_id":"7926264155","tag":{"amenity":"waste_basket"}},"type":"Feature"},
	{"geometry":{"coordinates":[7.406212,46.944197],"type":"Point"},"properties":{"osm_id":"7926264156","tag":{"amenity":"waste_basket"}},"type":"Feature"},
	{"geometry":{"coordinates":[7.406614,46.943744],"type":"Point"},"properties":{"osm_id":"7926264160","tag":{"amenity":"waste_basket","material":"metal","waste":"trash"}},"type":"Feature"},
	{"geometry":{"coordinates":[7.406846,46.943757],"type":"Point"},"properties":{"osm_id":"7926264161","tag":{"amenity":"waste_basket","material":"metal","waste":"trash"}},"type":"Feature"}
]
}
