{
"type": "FeatureCollection",
"features": [
	{"geometry":{"coordinates":[7.4689,46.308411],"type":"Point"},"properties":{"osm_id":"355274330","tag":{"amenity":"recycling","recycling:glass":"yes","recycling:oil":"yes","recycling:paper":"yes"}},"type":"Feature"},
	{"geometry":{"coordinates":[7.385432,46.262031],"type":"Point"},"properties":{"osm_id":"2601027788","tag":{"amenity":"waste_basket"}},"type":"Feature"},
	{"geometry":{"coordinates":[7.385908,46.258371],"type":"Point"},"properties":{"osm_id":"2882043825","tag":{"amenity":"recycling"}},"type":"Feature"},
	{"geometry":{"coordinates":[7.397606,46.296472],"type":"Point"},"properties":{"osm_id":"5374855922","tag":{"amenity":"waste_basket"}},"type":"Feature"},
	{"geometry":{"coordinates":[7.464093,46.261103],"type":"Point"},"properties":{"osm_id":"5774821314","tag":{"amenity":"waste_disposal"}},"type":"Feature"},
	{"geometry":{"coordinates":[7.464175,46.260997],"type":"Point"},"properties":{"osm_id":"5774821315","tag":{"amenity":"waste_disposal"}},"type":"Feature"},
	{"geometry":{"coordinates":[7.464131,46.26105],"type":"Point"},"properties":{"osm_id":"5774822550","tag":{"amenity":"waste_disposal"}},"type":"Feature"},
	{"geometry":{"coordinates":[7.464223,46.260937],"type":"Point"},"properties":{"osm_id":"5774822551","tag":{"amenity":"waste_disposal"}},"type":"Feature"}
]
}
