{
"type": "FeatureCollection",
"features": [
	{"geometry":{"coordinates":[7.391315,44.96894],"type":"Point"},"properties":{"osm_id":"5446727827","tag":{"amenity":"waste_disposal"}},"type":"Feature"},
	{"geometry":{"coordinates":[7.398534,44.991876],"type":"Point"},"properties":{"osm_id":"5576207873","tag":{"amenity":"recycling","recycling:batteries":"yes","recycling:cans":"yes","recycling:cardboard":"yes","recycling:glass":"yes","recycling:green_waste":"yes","recycling:paper":"yes","recycling:scrap_metal":"no","recycling:waste":"yes","recycling_type":"centre"}},"type":"Feature"},
	{"geometry":{"coordinates":[7.456997,45.003426],"type":"Point"},"properties":{"osm_id":"5615887686","tag":{"amenity":"recycling","recycling:cans":"yes","recycling:paper":"yes","recycling:plastic":"yes","recycling:waste":"yes","recycling_type":"centre"}},"type":"Feature"},
	{"geometry":{"coordinates":[7.388469,44.978119],"type":"Point"},"properties":{"osm_id":"6273301182","tag":{"amenity":"waste_disposal"}},"type":"Feature"},
	{"geometry":{"coordinates":[7.383764,44.97949],"type":"Point"},"properties":{"osm_id":"6954189096","tag":{"addr:city":"Cumiana","addr:postcode":"10040","addr:street":"via San Giuseppe","amenity":"waste_disposal","survey:date":"2019-10-02"}},"type":"Feature"}
]
}
