{
"type": "FeatureCollection",
"features": [
	{"geometry":{"coordinates":[7.452912,43.876048],"type":"Point"},"properties":{"osm_id":"5518799863","tag":{"amenity":"recycling","opening_hours":"24/7","recycling_type":"container"}},"type":"Feature"},
	{"geometry":{"coordinates":[7.443628,43.878041],"type":"Point"},"properties":{"osm_id":"5533825707","tag":{"amenity":"recycling","opening_hours":"24/7","recycling:glass_bottles":"yes","recycling:plastic_packaging":"yes","recycling_type":"container"}},"type":"Feature"},
	{"geometry":{"coordinates":[7.449774,43.877568],"type":"Point"},"properties":{"osm_id":"5542799877","tag":{"amenity":"recycling","opening_hours":"24/7","recycling:glass_bottles":"yes","recycling:plastic_packaging":"yes","recycling_type":"container"}},"type":"Feature"},
	{"geometry":{"coordinates":[7.447253,43.878092],"type":"Point"},"properties":{"osm_id":"5542799878","tag":{"amenity":"recycling","opening_hours":"24/7","recycling:cardboard":"yes","recycling:paper":"yes","recycling_type":"container"}},"type":"Feature"}
]
}
