{
"type": "FeatureCollection",
"features": [
	{"geometry":{"coordinates":[7.395664,43.723188],"type":"Point"},"properties":{"osm_id":"3559713718","tag":{"amenity":"recycling","recycling:glass_bottles":"yes","recycling:newspaper":"yes","recycling:paper":"yes","recycling_type":"container"}},"type":"Feature"},
	{"geometry":{"coordinates":[7.412982,43.726569],"type":"Point"},"properties":{"osm_id":"3629574708","tag":{"amenity":"recycling","recycling:glass":"yes","recycling:paper":"yes","recycling_type":"container"}},"type":"Feature"},
	{"geometry":{"coordinates":[7.422307,43.72747],"type":"Point"},"properties":{"osm_id":"4056395708","tag":{"addr:country":"MC","amenity":"recycling","recycling:glass":"yes","recycling_type":"container"}},"type":"Feature"},
	{"geometry":{"coordinates":[7.418301,43.724849],"type":"Point"},"properties":{"osm_id":"4067150049","tag":{"amenity":"recycling","recycling:glass":"yes","recycling_type":"container"}},"type":"Feature"},
	{"geometry":{"coordinates":[7.418654,43.72551],"type":"Point"},"properties":{"osm_id":"4067150050","tag":{"addr:country":"MC","amenity":"recycling","description":"verre, papier et emballages","recycling:beverage_carton":"yes","recycling:glass":"yes","recycling:paper":"yes","recycling:paper_packaging":"yes","recycling:plastic_bottles":"yes","recycling:plastic_packaging":"yes","recycling_type":"container"}},"type":"Feature"},
	{"geometry":{"coordinates":[7.397096,43.720816],"type":"Point"},"properties":{"osm_id":"4154007321","tag":{"amenity":"recycling","recycling:beverage_carton":"yes","recycling:cans":"yes","recycling:glass":"yes","recycling:paper":"yes","recycling_type":"container"}},"type":"Feature"},
	{"geometry":{"coordinates":[7.432595,43.748177],"type":"Point"},"properties":{"osm_id":"4225918896","tag":{"addr:country":"MC","amenity":"recycling"}},"type":"Feature"},
	{"geometry":{"coordinates":[7.421776,43.73167],"type":"Point"},"properties":{"osm_id":"4364381795","tag":{"addr:country":"MC","amenity":"waste_basket"}},"type":"Feature"},
	{"geometry":{"coordinates":[7.421463,43.7316],"type":"Point"},"properties":{"osm_id":"4364381796","tag":{"addr:country":"MC","amenity":"waste_basket"}},"type":"Feature"},
	{"geometry":{"coordinates":[7.422261,43.731688],"type":"Point"},"properties":{"osm_id":"4364407595","tag":{"addr:country":"MC","amenity":"waste_basket"}},"type":"Feature"},
	{"geometry":{"coordinates":[7.426332,43.731054],"type":"Point"},"properties":{"osm_id":"4364412791","tag":{"addr:country":"MC","amenity":"waste_basket"}},"type":"Feature"},
	{"geometry":{"coordinates":[7.42046,43.726512],"type":"Point"},"properties":{"osm_id":"4732742710","tag":{"addr:country":"MC","amenity":"recycling","recycling:glass":"yes","recycling_type":"container"}},"type":"Feature"},
	{"geometry":{"coordinates":[7.413693,43.731923],"type":"Point"},"properties":{"osm_id":"6438155387","tag":{"amenity":"waste_basket","colour":"black","material":"metal"}},"type":"Feature"},
	{"geometry":{"coordinates":[7.41369,43.73193],"type":"Point"},"properties":{"osm_id":"6438155388","tag":{"amenity":"recycling","material":"metal","recycling:glass":"no","recycling_type":"container"}},"type":"Feature"},
	{"geometry":{"coordinates":[7.414034,43.730912],"type":"Point"},"properties":{"osm_id":"6438160228","tag":{"amenity":"waste_basket"}},"type":"Feature"},
	{"geometry":{"coordinates":[7.417332,43.737333],"type":"Point"},"properties":{"osm_id":"6438631182","tag":{"amenity":"recycling","recycling:glass":"yes","recycling_type":"container"}},"type":"Feature"},
	{"geometry":{"coordinates":[7.417859,43.737226],"type":"Point"},"properties":{"osm_id":"6438987623","tag":{"amenity":"waste_basket","vending":"excrement_bags"}},"type":"Feature"},
	{"geometry":{"coordinates":[7.417816,43.737558],"type":"Point"},"properties":{"osm_id":"6438987638","tag":{"amenity":"waste_basket","vending":"excrement_bags"}},"type":"Feature"},
	{"geometry":{"coordinates":[7.418349,43.739004],"type":"Point"},"properties":{"osm_id":"6438988314","tag":{"amenity":"recycling","recycling:clothes":"yes","recycling:shoes":"yes","recycling_type":"container"}},"type":"Feature"},
	{"geometry":{"coordinates":[7.418367,43.739002],"type":"Point"},"properties":{"osm_id":"6438988315","tag":{"amenity":"recycling","recycling:clothes":"yes","recycling:shoes":"yes","recycling_type":"container"}},"type":"Feature"},
	{"geometry":{"coordinates":[7.418385,43.739],"type":"Point"},"properties":{"osm_id":"6438988316","tag":{"amenity":"waste_basket","material":"metal"}},"type":"Feature"},
	{"geometry":{"coordinates":[7.424134,43.729719],"type":"Point"},"properties":{"osm_id":"6445220986","tag":{"amenity":"waste_basket"}},"type":"Feature"},
	{"geometry":{"coordinates":[7.424612,43.730346],"type":"Point"},"properties":{"osm_id":"6445221007","tag":{"amenity":"waste_basket"}},"type":"Feature"},
	{"geometry":{"coordinates":[7.423772,43.73011],"type":"Point"},"properties":{"osm_id":"6445221020","tag":{"amenity":"waste_basket"}},"type":"Feature"},
	{"geometry":{"coordinates":[7.423201,43.729605],"type":"Point"},"properties":{"osm_id":"6445232852","tag":{"amenity":"waste_basket"}},"type":"Feature"},
	{"geometry":{"coordinates":[7.422348,43.729832],"type":"Point"},"properties":{"osm_id":"6445480164","tag":{"amenity":"waste_basket"}},"type":"Feature"},
	{"geometry":{"coordinates":[7.421622,43.73015],"type":"Point"},"properties":{"osm_id":"6445480785","tag":{"amenity":"waste_basket"}},"type":"Feature"},
	{"geometry":{"coordinates":[7.421352,43.730244],"type":"Point"},"properties":{"osm_id":"6445480788","tag":{"amenity":"waste_basket"}},"type":"Feature"},
	{"geometry":{"coordinates":[7.421125,43.731718],"type":"Point"},"properties":{"osm_id":"6445714056","tag":{"amenity":"waste_basket"}},"type":"Feature"},
	{"geometry":{"coordinates":[7.416587,43.730557],"type":"Point"},"properties":{"osm_id":"6453141614","tag":{"amenity":"waste_basket"}},"type":"Feature"},
	{"geometry":{"coordinates":[7.416838,43.730706],"type":"Point"},"properties":{"osm_id":"6453141615","tag":{"amenity":"waste_basket"}},"type":"Feature"},
	{"geometry":{"coordinates":[7.416851,43.730706],"type":"Point"},"properties":{"osm_id":"6453141616","tag":{"amenity":"recycling","recycling_type":"container"}},"type":"Feature"},
	{"geometry":{"coordinates":[7.416768,43.730868],"type":"Point"},"properties":{"osm_id":"6453143485","tag":{"amenity":"waste_basket"}},"type":"Feature"},
	{"geometry":{"coordinates":[7.425884,43.731103],"type":"Point"},"properties":{"osm_id":"6456373630","tag":{"amenity":"waste_basket"}},"type":"Feature"},
	{"geometry":{"coordinates":[7.420203,43.730452],"type":"Point"},"properties":{"osm_id":"6456634687","tag":{"amenity":"waste_basket"}},"type":"Feature"},
	{"geometry":{"coordinates":[7.420408,43.730243],"type":"Point"},"properties":{"osm_id":"6456634689","tag":{"amenity":"waste_basket"}},"type":"Feature"},
	{"geometry":{"coordinates":[7.420415,43.730235],"type":"Point"},"properties":{"osm_id":"6456634690","tag":{"amenity":"recycling","recycling_type":"container"}},"type":"Feature"},
	{"geometry":{"coordinates":[7.420422,43.730226],"type":"Point"},"properties":{"osm_id":"6456634691","tag":{"amenity":"recycling","recycling_type":"container"}},"type":"Feature"},
	{"geometry":{"coordinates":[7.421341,43.731328],"type":"Point"},"properties":{"osm_id":"6456634693","tag":{"amenity":"waste_basket"}},"type":"Feature"},
	{"geometry":{"coordinates":[7.421399,43.731402],"type":"Point"},"properties":{"osm_id":"6456634694","tag":{"amenity":"waste_basket"}},"type":"Feature"},
	{"geometry":{"coordinates":[7.418651,43.732138],"type":"Point"},"properties":{"osm_id":"6458511955","tag":{"amenity":"waste_basket","material":"metal"}},"type":"Feature"},
	{"geometry":{"coordinates":[7.418111,43.731837],"type":"Point"},"properties":{"osm_id":"6458602915","tag":{"amenity":"recycling","location":"underground","recycling_type":"container"}},"type":"Feature"},
	{"geometry":{"coordinates":[7.416838,43.731861],"type":"Point"},"properties":{"osm_id":"6458624518","tag":{"amenity":"waste_basket"}},"type":"Feature"},
	{"geometry":{"coordinates":[7.417837,43.73285],"type":"Point"},"properties":{"osm_id":"6458703346","tag":{"amenity":"waste_basket"}},"type":"Feature"},
	{"geometry":{"coordinates":[7.415041,43.731247],"type":"Point"},"properties":{"osm_id":"6459611836","tag":{"amenity":"waste_basket"}},"type":"Feature"},
	{"geometry":{"coordinates":[7.414562,43.732788],"type":"Point"},"properties":{"osm_id":"6459866603","tag":{"amenity":"waste_basket"}},"type":"Feature"},
	{"geometry":{"coordinates":[7.415348,43.733388],"type":"Point"},"properties":{"osm_id":"6459866605","tag":{"amenity":"waste_basket"}},"type":"Feature"},
	{"geometry":{"coordinates":[7.415434,43.733306],"type":"Point"},"properties":{"osm_id":"6459866611","tag":{"amenity":"recycling","recycling:glass":"yes","recycling_type":"container"}},"type":"Feature"},
	{"geometry":{"coordinates":[7.414461,43.732982],"type":"Point"},"properties":{"osm_id":"6459866662","tag":{"amenity":"waste_basket","support":"wall_mounted"}},"type":"Feature"},
	{"geometry":{"coordinates":[7.418953,43.738209],"type":"Point"},"properties":{"osm_id":"6471920431","tag":{"amenity":"waste_basket","vending":"excrement_bags"}},"type":"Feature"},
	{"geometry":{"coordinates":[7.419864,43.737722],"type":"Point"},"properties":{"osm_id":"6471920433","tag":{"amenity":"waste_basket"}},"type":"Feature"},
	{"geometry":{"coordinates":[7.414035,43.732092],"type":"Point"},"properties":{"osm_id":"6473583395","tag":{"amenity":"waste_basket","support":"wall_mounted"}},"type":"Feature"},
	{"geometry":{"coordinates":[7.413985,43.732099],"type":"Point"},"properties":{"osm_id":"6473583429","tag":{"amenity":"waste_basket"}},"type":"Feature"},
	{"geometry":{"coordinates":[7.417466,43.731422],"type":"Point"},"properties":{"osm_id":"6474611441","tag":{"amenity":"waste_basket","material":"metal","support":"wall_mounted"}},"type":"Feature"},
	{"geometry":{"coordinates":[7.416891,43.731741],"type":"Point"},"properties":{"osm_id":"6474625166","tag":{"amenity":"waste_basket"}},"type":"Feature"},
	{"geometry":{"coordinates":[7.415601,43.728527],"type":"Point"},"properties":{"osm_id":"6482567757","tag":{"amenity":"waste_basket"}},"type":"Feature"},
	{"geometry":{"coordinates":[7.415505,43.728899],"type":"Point"},"properties":{"osm_id":"6482567759","tag":{"amenity":"waste_basket"}},"type":"Feature"},
	{"geometry":{"coordinates":[7.416646,43.729708],"type":"Point"},"properties":{"osm_id":"6482567761","tag":{"amenity":"waste_basket"}},"type":"Feature"},
	{"geometry":{"coordinates":[7.394493,43.723656],"type":"Point"},"properties":{"osm_id":"6482704967","tag":{"amenity":"waste_basket"}},"type":"Feature"},
	{"geometry":{"coordinates":[7.394008,43.723561],"type":"Point"},"properties":{"osm_id":"6482704972","tag":{"amenity":"waste_basket"}},"type":"Feature"},
	{"geometry":{"coordinates":[7.401215,43.724955],"type":"Point"},"properties":{"osm_id":"6482705818","tag":{"amenity":"waste_basket"}},"type":"Feature"},
	{"geometry":{"coordinates":[7.409068,43.730135],"type":"Point"},"properties":{"osm_id":"6482705883","tag":{"amenity":"waste_basket"}},"type":"Feature"},
	{"geometry":{"coordinates":[7.418043,43.733296],"type":"Point"},"properties":{"osm_id":"6866125458","tag":{"amenity":"recycling","recycling_type":"container"}},"type":"Feature"},
	{"geometry":{"coordinates":[7.431135,43.75559],"type":"Point"},"properties":{"name":"D\u00c3\u00a9p\u00c3\u00b4t-relais\u00c2\u00a0de\u00c2\u00a0Beausoleil","osm_id":"6960408947","tag":{"amenity":"recycling","operator":"Suez\u00c2\u00a0Rv\u00c2\u00a0Sud\u00c2\u00a0Est\u00c2\u00a0-\u00c2\u00a0Nice\u00c2\u00a006","phone":"+33 4 93 78 37 16","recycling_type":"centre","ref:FR:SINOE":"5245","start_date":"1991"}},"type":"Feature"},
	{"geometry":{"coordinates":[7.389589,43.749466],"type":"Point"},"properties":{"name":"D\u00c3\u00a9ch\u00c3\u00a8terie\u00c2\u00a0de\u00c2\u00a0la\u00c2\u00a0Turbie","osm_id":"6960930034","tag":{"amenity":"recycling","operator":"Suez\u00c2\u00a0Rv\u00c2\u00a0Sud\u00c2\u00a0Est\u00c2\u00a0-\u00c2\u00a0Nice\u00c2\u00a006","phone":"+33 4 93 35 94 30","recycling_type":"centre","ref:FR:SINOE":"57122"}},"type":"Feature"},
	{"geometry":{"coordinates":[7.459044,43.770335],"type":"Point"},"properties":{"name":"D\u00c3\u00a9ch\u00c3\u00a8terie\u00c2\u00a0de\u00c2\u00a0Roquebrune\u00c2\u00a0Cap\u00c2\u00a0Martin","osm_id":"6960930045","tag":{"amenity":"recycling","operator":"Suez\u00c2\u00a0Rv\u00c2\u00a0Sud\u00c2\u00a0Est\u00c2\u00a0-\u00c2\u00a0Nice\u00c2\u00a006","phone":"+33 4 93 28 98 67","recycling_type":"centre","ref:FR:SINOE":"57146","start_date":"2006-05-27"}},"type":"Feature"},
	{"geometry":{"coordinates":[7.406939,43.720902],"type":"Point"},"properties":{"osm_id":"7778304316","tag":{"amenity":"waste_basket"}},"type":"Feature"},
	{"geometry":{"coordinates":[7.422353,43.734919],"type":"Point"},"properties":{"osm_id":"7778336201","tag":{"amenity":"recycling"}},"type":"Feature"},
	{"geometry":{"coordinates":[7.409638,43.721542],"type":"Point"},"properties":{"osm_id":"7778351487","tag":{"amenity":"waste_basket"}},"type":"Feature"},
	{"geometry":{"coordinates":[7.429757,43.741746],"type":"Point"},"properties":{"osm_id":"7926333302","tag":{"amenity":"recycling","recycling:glass_bottles":"yes","recycling_type":"container"}},"type":"Feature"},
	{"geometry":{"coordinates":[7.429445,43.739991],"type":"Point"},"properties":{"osm_id":"7927990508","tag":{"amenity":"waste_basket"}},"type":"Feature"}
]
}
