{
"type": "FeatureCollection",
"features": [
	{"geometry":{"coordinates":[2.480277,23.098768],"type":"Point"},"properties":{"name":"\u00d8\u00b4\u00d8\u00ac\u00d8\u00b1\u00d8\u00a9 \u00d9\u0087\u00d9\u0088\u00d8\u00af\u00d9\u008a","osm_id":"7560084285","place":"locality","tag":{"addr:city":"\u00d8\u00a3\u00d8\u00a8\u00d9\u0084\u00d8\u00b3\u00d8\u00a9","addr:city:ar":"\u00d8\u00a3\u00d8\u00a8\u00d9\u0084\u00d8\u00b3\u00d8\u00a9","addr:place":"\u00d8\u00b4\u00d8\u00ac\u00d8\u00b1\u00d8\u00a9 \u00d9\u0087\u00d9\u0088\u00d8\u00af\u00d9\u008a","addr:place:ar":"\u00d8\u00b4\u00d8\u00ac\u00d8\u00b1\u00d8\u00a9 \u00d9\u0087\u00d9\u0088\u00d8\u00af\u00d9\u008a","name:ar":"\u00d8\u00b4\u00d8\u00ac\u00d8\u00b1\u00d8\u00a9 \u00d9\u0087\u00d9\u0088\u00d8\u00af\u00d9\u008a","name:en":"Ten Hawdi","natural":"tree","tourism":"camp_site"}},"type":"Feature"},
	{"geometry":{"coordinates":[2.481363,23.099592],"type":"Point"},"properties":{"osm_id":"7563527207","tag":{"natural":"tree"}},"type":"Feature"},
	{"geometry":{"coordinates":[2.48018,23.097633],"type":"Point"},"properties":{"osm_id":"7563527208","tag":{"natural":"tree"}},"type":"Feature"},
	{"geometry":{"coordinates":[2.480923,23.097756],"type":"Point"},"properties":{"osm_id":"7563527209","tag":{"natural":"tree"}},"type":"Feature"},
	{"geometry":{"coordinates":[2.480704,23.099108],"type":"Point"},"properties":{"osm_id":"7563527210","tag":{"natural":"tree"}},"type":"Feature"},
	{"geometry":{"coordinates":[2.480454,23.097489],"type":"Point"},"properties":{"osm_id":"7563527211","tag":{"natural":"tree"}},"type":"Feature"},
	{"geometry":{"coordinates":[2.480978,23.098022],"type":"Point"},"properties":{"osm_id":"7563527212","tag":{"natural":"tree"}},"type":"Feature"},
	{"geometry":{"coordinates":[2.480696,23.097065],"type":"Point"},"properties":{"osm_id":"7563527213","tag":{"natural":"tree"}},"type":"Feature"},
	{"geometry":{"coordinates":[2.481025,23.097022],"type":"Point"},"properties":{"osm_id":"7563527214","tag":{"natural":"tree"}},"type":"Feature"},
	{"geometry":{"coordinates":[2.482779,23.098891],"type":"Point"},"properties":{"osm_id":"7563527215","tag":{"natural":"tree"}},"type":"Feature"}
]
}
