{
"type": "FeatureCollection",
"features": [
	{"geometry":{"coordinates":[84.973385,56.451765],"type":"Point"},"properties":{"osm_id":"1025450025","tag":{"amenity":"waste_disposal"}},"type":"Feature"},
	{"geometry":{"coordinates":[84.972536,56.452598],"type":"Point"},"properties":{"osm_id":"1025450031","tag":{"amenity":"waste_disposal"}},"type":"Feature"},
	{"geometry":{"coordinates":[84.974519,56.452673],"type":"Point"},"properties":{"osm_id":"1025450056","tag":{"amenity":"waste_disposal"}},"type":"Feature"},
	{"geometry":{"coordinates":[84.972554,56.451413],"type":"Point"},"properties":{"osm_id":"1025450074","tag":{"amenity":"waste_disposal"}},"type":"Feature"},
	{"geometry":{"coordinates":[84.973347,56.452666],"type":"Point"},"properties":{"osm_id":"1025450079","tag":{"amenity":"waste_disposal"}},"type":"Feature"},
	{"geometry":{"coordinates":[84.975121,56.453425],"type":"Point"},"properties":{"osm_id":"1115039529","tag":{"amenity":"waste_disposal"}},"type":"Feature"},
	{"geometry":{"coordinates":[84.948727,56.460494],"type":"Point"},"properties":{"osm_id":"1245111975","tag":{"amenity":"recycling"}},"type":"Feature"},
	{"geometry":{"coordinates":[84.942747,56.458858],"type":"Point"},"properties":{"osm_id":"1245111979","tag":{"amenity":"waste_disposal"}},"type":"Feature"},
	{"geometry":{"coordinates":[84.945291,56.458854],"type":"Point"},"properties":{"osm_id":"1245111994","tag":{"amenity":"recycling","recycling_type":"container"}},"type":"Feature"},
	{"geometry":{"coordinates":[84.949588,56.456129],"type":"Point"},"properties":{"osm_id":"1434205208","tag":{"amenity":"recycling"}},"type":"Feature"},
	{"geometry":{"coordinates":[84.977827,56.44306],"type":"Point"},"properties":{"osm_id":"1513201300","tag":{"amenity":"waste_basket"}},"type":"Feature"},
	{"geometry":{"coordinates":[84.976052,56.448737],"type":"Point"},"properties":{"osm_id":"1513201345","tag":{"amenity":"waste_basket"}},"type":"Feature"},
	{"geometry":{"coordinates":[84.978706,56.450706],"type":"Point"},"properties":{"osm_id":"1575083202","tag":{"amenity":"waste_disposal"}},"type":"Feature"},
	{"geometry":{"coordinates":[84.94484,56.459392],"type":"Point"},"properties":{"osm_id":"1576946336","tag":{"amenity":"recycling","operator":"\u00d0\u00a7\u00d0\u00b8\u00d1\u0081\u00d1\u0082\u00d1\u008b\u00d0\u00b9 \u00d0\u0094\u00d0\u00b2\u00d0\u00be\u00d1\u0080","website":"http://xn----dtbfof7aocj1c7b.xn--p1ai/"}},"type":"Feature"},
	{"geometry":{"coordinates":[84.946226,56.458638],"type":"Point"},"properties":{"osm_id":"1576947688","tag":{"amenity":"recycling"}},"type":"Feature"},
	{"geometry":{"coordinates":[84.953635,56.459619],"type":"Point"},"properties":{"osm_id":"1577024326","tag":{"amenity":"recycling"}},"type":"Feature"},
	{"geometry":{"coordinates":[84.954602,56.461607],"type":"Point"},"properties":{"osm_id":"1577024327","tag":{"amenity":"recycling","recycling_type":"container"}},"type":"Feature"},
	{"geometry":{"coordinates":[84.93905,56.457235],"type":"Point"},"properties":{"osm_id":"1579343709","tag":{"amenity":"recycling"}},"type":"Feature"},
	{"geometry":{"coordinates":[84.938916,56.459234],"type":"Point"},"properties":{"osm_id":"1579343712","tag":{"amenity":"recycling"}},"type":"Feature"},
	{"geometry":{"coordinates":[84.937453,56.460248],"type":"Point"},"properties":{"osm_id":"1579343715","tag":{"amenity":"recycling"}},"type":"Feature"},
	{"geometry":{"coordinates":[84.9669,56.458486],"type":"Point"},"properties":{"osm_id":"1585870279","tag":{"amenity":"waste_disposal","recycling:batteries":"no","recycling:electrical_appliances":"no"}},"type":"Feature"},
	{"geometry":{"coordinates":[84.940434,56.458809],"type":"Point"},"properties":{"osm_id":"1638910690","tag":{"amenity":"recycling"}},"type":"Feature"},
	{"geometry":{"coordinates":[84.961419,56.459296],"type":"Point"},"properties":{"osm_id":"1657375095","tag":{"amenity":"waste_disposal","recycling:batteries":"no","recycling:electrical_appliances":"no"}},"type":"Feature"},
	{"geometry":{"coordinates":[84.95246,56.459285],"type":"Point"},"properties":{"osm_id":"1657375096","tag":{"amenity":"recycling"}},"type":"Feature"},
	{"geometry":{"coordinates":[84.974503,56.451336],"type":"Point"},"properties":{"osm_id":"1674694140","tag":{"amenity":"waste_disposal","recycling:batteries":"no","recycling:electrical_appliances":"no"}},"type":"Feature"},
	{"geometry":{"coordinates":[84.952034,56.458438],"type":"Point"},"properties":{"osm_id":"1679892408","tag":{"amenity":"recycling"}},"type":"Feature"},
	{"geometry":{"coordinates":[84.953107,56.457665],"type":"Point"},"properties":{"osm_id":"1680088362","tag":{"amenity":"waste_disposal"}},"type":"Feature"},
	{"geometry":{"coordinates":[84.937561,56.462152],"type":"Point"},"properties":{"osm_id":"1700727659","tag":{"amenity":"recycling"}},"type":"Feature"},
	{"geometry":{"coordinates":[84.943521,56.457147],"type":"Point"},"properties":{"osm_id":"1704248814","tag":{"amenity":"waste_disposal"}},"type":"Feature"},
	{"geometry":{"coordinates":[84.946593,56.45763],"type":"Point"},"properties":{"osm_id":"1704248859","tag":{"amenity":"recycling"}},"type":"Feature"},
	{"geometry":{"coordinates":[84.955385,56.457223],"type":"Point"},"properties":{"osm_id":"1706026186","tag":{"amenity":"waste_disposal"}},"type":"Feature"},
	{"geometry":{"coordinates":[84.954971,56.455975],"type":"Point"},"properties":{"osm_id":"1706047470","tag":{"amenity":"recycling"}},"type":"Feature"},
	{"geometry":{"coordinates":[84.968324,56.459689],"type":"Point"},"properties":{"osm_id":"1706068810","tag":{"amenity":"waste_disposal"}},"type":"Feature"},
	{"geometry":{"coordinates":[84.959146,56.456516],"type":"Point"},"properties":{"osm_id":"1706536418","tag":{"amenity":"recycling"}},"type":"Feature"},
	{"geometry":{"coordinates":[84.957504,56.456388],"type":"Point"},"properties":{"osm_id":"1707058119","tag":{"amenity":"recycling"}},"type":"Feature"},
	{"geometry":{"coordinates":[84.954056,56.458479],"type":"Point"},"properties":{"osm_id":"1707452135","tag":{"amenity":"waste_disposal"}},"type":"Feature"},
	{"geometry":{"coordinates":[84.952538,56.456892],"type":"Point"},"properties":{"osm_id":"1707458380","tag":{"amenity":"waste_disposal"}},"type":"Feature"},
	{"geometry":{"coordinates":[84.955474,56.458354],"type":"Point"},"properties":{"osm_id":"1709494497","tag":{"amenity":"waste_disposal"}},"type":"Feature"},
	{"geometry":{"coordinates":[84.951644,56.461998],"type":"Point"},"properties":{"osm_id":"1715879257","tag":{"amenity":"recycling"}},"type":"Feature"},
	{"geometry":{"coordinates":[84.958601,56.461445],"type":"Point"},"properties":{"osm_id":"1716525091","tag":{"amenity":"recycling"}},"type":"Feature"},
	{"geometry":{"coordinates":[84.962094,56.460776],"type":"Point"},"properties":{"osm_id":"1716562293","tag":{"amenity":"waste_basket"}},"type":"Feature"},
	{"geometry":{"coordinates":[84.97228,56.449424],"type":"Point"},"properties":{"osm_id":"1721459219","tag":{"amenity":"waste_disposal"}},"type":"Feature"},
	{"geometry":{"coordinates":[84.960823,56.462329],"type":"Point"},"properties":{"osm_id":"1749921520","tag":{"amenity":"recycling"}},"type":"Feature"},
	{"geometry":{"coordinates":[84.960914,56.462376],"type":"Point"},"properties":{"osm_id":"1749921521","tag":{"amenity":"recycling"}},"type":"Feature"},
	{"geometry":{"coordinates":[84.949317,56.462167],"type":"Point"},"properties":{"osm_id":"1758585482","tag":{"amenity":"recycling"}},"type":"Feature"},
	{"geometry":{"coordinates":[84.964772,56.456977],"type":"Point"},"properties":{"osm_id":"1767561362","tag":{"amenity":"recycling"}},"type":"Feature"},
	{"geometry":{"coordinates":[84.967253,56.455745],"type":"Point"},"properties":{"osm_id":"1767855715","tag":{"amenity":"recycling"}},"type":"Feature"},
	{"geometry":{"coordinates":[84.96493,56.456179],"type":"Point"},"properties":{"osm_id":"1767855737","tag":{"amenity":"recycling"}},"type":"Feature"},
	{"geometry":{"coordinates":[84.949554,56.458226],"type":"Point"},"properties":{"osm_id":"1782389126","tag":{"amenity":"waste_disposal"}},"type":"Feature"},
	{"geometry":{"coordinates":[84.96188,56.452703],"type":"Point"},"properties":{"osm_id":"1807874799","tag":{"amenity":"recycling","recycling_type":"container"}},"type":"Feature"},
	{"geometry":{"coordinates":[84.962474,56.453625],"type":"Point"},"properties":{"osm_id":"1807874821","tag":{"amenity":"recycling","recycling_type":"container"}},"type":"Feature"},
	{"geometry":{"coordinates":[84.975189,56.45049],"type":"Point"},"properties":{"osm_id":"1837192613","tag":{"amenity":"waste_disposal"}},"type":"Feature"},
	{"geometry":{"coordinates":[84.975824,56.450705],"type":"Point"},"properties":{"osm_id":"1839572936","tag":{"amenity":"recycling","recycling_type":"container"}},"type":"Feature"},
	{"geometry":{"coordinates":[84.987781,56.460337],"type":"Point"},"properties":{"osm_id":"1872804238","tag":{"amenity":"recycling"}},"type":"Feature"},
	{"geometry":{"coordinates":[84.985861,56.458905],"type":"Point"},"properties":{"osm_id":"1872804241","tag":{"amenity":"recycling","location":"overground","recycling:plastic":"yes","recycling_type":"container"}},"type":"Feature"},
	{"geometry":{"coordinates":[84.94514,56.456731],"type":"Point"},"properties":{"osm_id":"2112046428","tag":{"amenity":"waste_disposal"}},"type":"Feature"},
	{"geometry":{"coordinates":[84.96902,56.449221],"type":"Point"},"properties":{"osm_id":"2138423708","tag":{"amenity":"waste_disposal"}},"type":"Feature"},
	{"geometry":{"coordinates":[84.969079,56.455527],"type":"Point"},"properties":{"osm_id":"2361184827","tag":{"amenity":"waste_basket"}},"type":"Feature"},
	{"geometry":{"coordinates":[84.984551,56.458218],"type":"Point"},"properties":{"osm_id":"2374506981","tag":{"amenity":"recycling"}},"type":"Feature"},
	{"geometry":{"coordinates":[84.925726,56.4452],"type":"Point"},"properties":{"osm_id":"2803991939","tag":{"amenity":"recycling"}},"type":"Feature"},
	{"geometry":{"coordinates":[84.963681,56.460083],"type":"Point"},"properties":{"osm_id":"3354754237","tag":{"amenity":"waste_disposal"}},"type":"Feature"},
	{"geometry":{"coordinates":[84.964065,56.460143],"type":"Point"},"properties":{"osm_id":"3354754238","tag":{"amenity":"waste_disposal"}},"type":"Feature"},
	{"geometry":{"coordinates":[84.981366,56.451724],"type":"Point"},"properties":{"osm_id":"3465793896","tag":{"amenity":"waste_disposal"}},"type":"Feature"},
	{"geometry":{"coordinates":[84.983702,56.454907],"type":"Point"},"properties":{"osm_id":"3465793901","tag":{"addr:city":"\u00d0\u00a2\u00d0\u00be\u00d0\u00bc\u00d1\u0081\u00d0\u00ba","addr:housenumber":"9","addr:street":"\u00d0\u009d\u00d0\u00b5\u00d1\u0084\u00d1\u0082\u00d1\u008f\u00d0\u00bd\u00d0\u00b0\u00d1\u008f \u00d1\u0083\u00d0\u00bb\u00d0\u00b8\u00d1\u0086\u00d0\u00b0","amenity":"waste_disposal","wheelchair":"yes"}},"type":"Feature"},
	{"geometry":{"coordinates":[84.986534,56.454982],"type":"Point"},"properties":{"osm_id":"3465793902","tag":{"amenity":"waste_disposal"}},"type":"Feature"},
	{"geometry":{"coordinates":[84.985519,56.455347],"type":"Point"},"properties":{"osm_id":"3465793932","tag":{"amenity":"waste_disposal"}},"type":"Feature"},
	{"geometry":{"coordinates":[84.970457,56.454603],"type":"Point"},"properties":{"osm_id":"3531110080","tag":{"amenity":"waste_disposal"}},"type":"Feature"},
	{"geometry":{"coordinates":[84.940528,56.459739],"type":"Point"},"properties":{"osm_id":"3751328333","tag":{"amenity":"waste_basket"}},"type":"Feature"},
	{"geometry":{"coordinates":[84.983644,56.454873],"type":"Point"},"properties":{"name":"\u00d0\u009a\u00d0\u00be\u00d0\u00bd\u00d1\u0082\u00d0\u00b5\u00d0\u00b9\u00d0\u00bd\u00d0\u00b5\u00d1\u0080 \"\u00d0\u00a7\u00d0\u00b8\u00d1\u0081\u00d1\u0082\u00d1\u008b\u00d0\u00b9 \u00d0\u00bc\u00d0\u00b8\u00d1\u0080\"","osm_id":"3758605573","tag":{"addr:city":"\u00d0\u00a2\u00d0\u00be\u00d0\u00bc\u00d1\u0081\u00d0\u00ba","addr:housenumber":"9","addr:street":"\u00d0\u009d\u00d0\u00b5\u00d1\u0084\u00d1\u0082\u00d1\u008f\u00d0\u00bd\u00d0\u00b0\u00d1\u008f \u00d1\u0083\u00d0\u00bb\u00d0\u00b8\u00d1\u0086\u00d0\u00b0","amenity":"recycling","operator":"\u00d0\u009e\u00d0\u009e\u00d0\u009e \"\u00d0\u00a7\u00d0\u00b8\u00d1\u0081\u00d1\u0082\u00d1\u008b\u00d0\u00b9 \u00d0\u00bc\u00d0\u00b8\u00d1\u0080\"","recycling:cans":"yes","recycling:clothes":"no","recycling:glass":"yes","recycling:glass_bottles":"yes","recycling:paper":"no","recycling:plastic":"yes","recycling_type":"container","wheelchair":"yes"}},"type":"Feature"},
	{"geometry":{"coordinates":[84.94524,56.458853],"type":"Point"},"properties":{"osm_id":"4166008491","tag":{"amenity":"waste_disposal"}},"type":"Feature"},
	{"geometry":{"coordinates":[84.982412,56.454019],"type":"Point"},"properties":{"osm_id":"4440917933","tag":{"amenity":"waste_disposal","wheelchair":"yes"}},"type":"Feature"},
	{"geometry":{"coordinates":[84.974459,56.457185],"type":"Point"},"properties":{"osm_id":"4440968328","tag":{"amenity":"waste_disposal"}},"type":"Feature"},
	{"geometry":{"coordinates":[84.977092,56.45729],"type":"Point"},"properties":{"osm_id":"4828342482","tag":{"amenity":"waste_disposal"}},"type":"Feature"},
	{"geometry":{"coordinates":[84.979418,56.457937],"type":"Point"},"properties":{"osm_id":"4828342518","tag":{"amenity":"waste_disposal"}},"type":"Feature"},
	{"geometry":{"coordinates":[84.974519,56.452406],"type":"Point"},"properties":{"osm_id":"5613344716","tag":{"amenity":"waste_disposal"}},"type":"Feature"},
	{"geometry":{"coordinates":[84.970458,56.454642],"type":"Point"},"properties":{"osm_id":"5936226613","tag":{"amenity":"recycling","recycling:cans":"yes","recycling:glass":"yes","recycling:plastic":"yes","recycling_type":"container"}},"type":"Feature"},
	{"geometry":{"coordinates":[84.906037,56.462073],"type":"Point"},"properties":{"osm_id":"5994540806","tag":{"amenity":"waste_disposal"}},"type":"Feature"},
	{"geometry":{"coordinates":[84.979679,56.454512],"type":"Point"},"properties":{"osm_id":"6952461538","tag":{"amenity":"waste_disposal"}},"type":"Feature"},
	{"geometry":{"coordinates":[84.980206,56.459109],"type":"Point"},"properties":{"osm_id":"7458697790","tag":{"amenity":"waste_disposal"}},"type":"Feature"},
	{"geometry":{"coordinates":[84.982026,56.459899],"type":"Point"},"properties":{"osm_id":"7458697791","tag":{"amenity":"waste_disposal"}},"type":"Feature"},
	{"geometry":{"coordinates":[84.95262,56.455638],"type":"Point"},"properties":{"osm_id":"7555533442","tag":{"amenity":"waste_disposal"}},"type":"Feature"}
]
}
