{
"type": "FeatureCollection",
"features": [
	{"geometry":{"coordinates":[84.907526,53.704412],"type":"Point"},"properties":{"osm_id":"5776460210","tag":{"amenity":"waste_disposal"}},"type":"Feature"},
	{"geometry":{"coordinates":[84.913576,53.703886],"type":"Point"},"properties":{"osm_id":"5776543806","tag":{"amenity":"waste_disposal"}},"type":"Feature"},
	{"geometry":{"coordinates":[84.907277,53.702332],"type":"Point"},"properties":{"osm_id":"5776627041","tag":{"amenity":"waste_disposal"}},"type":"Feature"},
	{"geometry":{"coordinates":[84.908817,53.70139],"type":"Point"},"properties":{"osm_id":"5776627042","tag":{"amenity":"waste_disposal"}},"type":"Feature"},
	{"geometry":{"coordinates":[84.909797,53.700828],"type":"Point"},"properties":{"osm_id":"5776627043","tag":{"amenity":"waste_disposal"}},"type":"Feature"},
	{"geometry":{"coordinates":[84.922672,53.707146],"type":"Point"},"properties":{"osm_id":"5780950564","tag":{"amenity":"waste_disposal"}},"type":"Feature"},
	{"geometry":{"coordinates":[84.925177,53.708319],"type":"Point"},"properties":{"osm_id":"5780950620","tag":{"amenity":"waste_disposal"}},"type":"Feature"},
	{"geometry":{"coordinates":[84.935778,53.706644],"type":"Point"},"properties":{"osm_id":"5781360712","tag":{"amenity":"waste_disposal","waste":"trash"}},"type":"Feature"},
	{"geometry":{"coordinates":[84.928122,53.705406],"type":"Point"},"properties":{"osm_id":"5781569823","tag":{"amenity":"waste_disposal"}},"type":"Feature"},
	{"geometry":{"coordinates":[84.932346,53.712617],"type":"Point"},"properties":{"osm_id":"5781623248","tag":{"amenity":"waste_disposal"}},"type":"Feature"},
	{"geometry":{"coordinates":[84.914344,53.706837],"type":"Point"},"properties":{"osm_id":"5792649605","tag":{"amenity":"waste_disposal"}},"type":"Feature"},
	{"geometry":{"coordinates":[84.914346,53.706809],"type":"Point"},"properties":{"osm_id":"5792649607","tag":{"amenity":"waste_disposal"}},"type":"Feature"},
	{"geometry":{"coordinates":[84.91299,53.706613],"type":"Point"},"properties":{"osm_id":"5792649632","tag":{"amenity":"waste_disposal"}},"type":"Feature"},
	{"geometry":{"coordinates":[84.912942,53.706612],"type":"Point"},"properties":{"osm_id":"5792649633","tag":{"amenity":"waste_disposal"}},"type":"Feature"},
	{"geometry":{"coordinates":[84.933791,53.696768],"type":"Point"},"properties":{"osm_id":"6869328433","tag":{"addr:city":"\u0417\u0430\u0440\u0438\u043d\u0441\u043a","addr:housenumber":"4/11","addr:street":"\u041a\u043e\u043e\u043f\u0435\u0440\u0430\u0442\u0438\u0432\u043d\u0430\u044f \u0443\u043b\u0438\u0446\u0430","amenity":"recycling","opening_hours":"Mo-Fr 08:00-17:00","operator":"\u041e\u041e\u041e \"\u0412\u0442\u043e\u0440\u0447\u0435\u0440\u043c\u0435\u0442 \u041d\u041b\u041c\u041a \u0421\u0438\u0431\u0438\u0440\u044c\"","operator:type":"private","phone":"+7(903)911-10-60","recycling:scrap_metal":"yes","recycling_type":"centre","website":"http://www.uvchm.ru/"}},"type":"Feature"}
]
}
