{
"type": "FeatureCollection",
"features": [
	{"geometry":{"coordinates":[140.817462,38.29142],"type":"Point"},"properties":{"osm_id":"7845868286","tag":{"amenity":"waste_disposal"}},"type":"Feature"},
	{"geometry":{"coordinates":[140.814915,38.292816],"type":"Point"},"properties":{"osm_id":"7845868386","tag":{"amenity":"waste_disposal"}},"type":"Feature"},
	{"geometry":{"coordinates":[140.817523,38.29024],"type":"Point"},"properties":{"osm_id":"7845878292","tag":{"amenity":"waste_disposal"}},"type":"Feature"},
	{"geometry":{"coordinates":[140.818051,38.290912],"type":"Point"},"properties":{"osm_id":"7845878293","tag":{"amenity":"waste_disposal"}},"type":"Feature"},
	{"geometry":{"coordinates":[140.811966,38.275812],"type":"Point"},"properties":{"osm_id":"8067970099","tag":{"amenity":"parking_entrance"}},"type":"Feature"},
	{"geometry":{"coordinates":[140.812822,38.274589],"type":"Point"},"properties":{"osm_id":"8067970109","tag":{"amenity":"parking_entrance"}},"type":"Feature"},
	{"geometry":{"coordinates":[140.813298,38.275367],"type":"Point"},"properties":{"osm_id":"8067970115","tag":{"amenity":"parking_entrance"}},"type":"Feature"}
]
}
