{
"type": "FeatureCollection",
"features": [
	{"geometry":{"coordinates":[-79.791369,43.342598],"type":"Point"},"properties":{"osm_id":"1969361122","tag":{"amenity":"waste_basket"}},"type":"Feature"},
	{"geometry":{"coordinates":[-79.778476,43.333217],"type":"Point"},"properties":{"osm_id":"3607363393","tag":{"amenity":"waste_basket"}},"type":"Feature"},
	{"geometry":{"coordinates":[-79.764406,43.355147],"type":"Point"},"properties":{"osm_id":"3609884448","tag":{"amenity":"waste_basket"}},"type":"Feature"},
	{"geometry":{"coordinates":[-79.766039,43.354903],"type":"Point"},"properties":{"osm_id":"3609910159","tag":{"amenity":"waste_basket","colour":"black"}},"type":"Feature"},
	{"geometry":{"coordinates":[-79.765034,43.355877],"type":"Point"},"properties":{"osm_id":"3609910160","tag":{"amenity":"waste_basket","colour":"black"}},"type":"Feature"},
	{"geometry":{"coordinates":[-79.768229,43.354187],"type":"Point"},"properties":{"osm_id":"3609911237","tag":{"amenity":"waste_basket","sidewalk_orientation":"between"}},"type":"Feature"},
	{"geometry":{"coordinates":[-79.790094,43.335158],"type":"Point"},"properties":{"osm_id":"3609912237","tag":{"amenity":"waste_basket","colour":"grey"}},"type":"Feature"},
	{"geometry":{"coordinates":[-79.789739,43.334528],"type":"Point"},"properties":{"osm_id":"3609913600","tag":{"amenity":"waste_basket","colour":"grey"}},"type":"Feature"},
	{"geometry":{"coordinates":[-79.79031,43.334939],"type":"Point"},"properties":{"osm_id":"3609914179","tag":{"amenity":"recycling","recycling_type":"container"}},"type":"Feature"},
	{"geometry":{"coordinates":[-79.790319,43.334949],"type":"Point"},"properties":{"osm_id":"3609914180","tag":{"amenity":"waste_basket"}},"type":"Feature"},
	{"geometry":{"coordinates":[-79.769294,43.35282],"type":"Point"},"properties":{"osm_id":"3609917125","tag":{"amenity":"waste_basket"}},"type":"Feature"},
	{"geometry":{"coordinates":[-79.785378,43.338024],"type":"Point"},"properties":{"osm_id":"3609938609","tag":{"amenity":"waste_basket"}},"type":"Feature"},
	{"geometry":{"coordinates":[-79.757118,43.353845],"type":"Point"},"properties":{"osm_id":"3611744876","tag":{"amenity":"waste_basket","colour":"black"}},"type":"Feature"},
	{"geometry":{"coordinates":[-79.760408,43.379946],"type":"Point"},"properties":{"osm_id":"3611775098","tag":{"amenity":"recycling","recycling:cans":"yes","recycling:glass_bottles":"yes","recycling:paper":"yes","recycling:plastic_bottles":"yes","recycling:waste":"yes","recycling_type":"container","wheelchair":"yes"}},"type":"Feature"},
	{"geometry":{"coordinates":[-79.76061,43.372216],"type":"Point"},"properties":{"osm_id":"3623479246","tag":{"amenity":"waste_basket","colour":"black"}},"type":"Feature"},
	{"geometry":{"coordinates":[-79.760641,43.379512],"type":"Point"},"properties":{"osm_id":"3623486430","tag":{"amenity":"waste_basket"}},"type":"Feature"},
	{"geometry":{"coordinates":[-79.760593,43.379548],"type":"Point"},"properties":{"osm_id":"3623486433","tag":{"amenity":"waste_basket","colour":"brown"}},"type":"Feature"},
	{"geometry":{"coordinates":[-79.790139,43.334049],"type":"Point"},"properties":{"osm_id":"3641234036","tag":{"amenity":"waste_basket"}},"type":"Feature"},
	{"geometry":{"coordinates":[-79.788885,43.333675],"type":"Point"},"properties":{"osm_id":"3641237861","tag":{"amenity":"waste_basket","colour":"blk"}},"type":"Feature"},
	{"geometry":{"coordinates":[-79.78878,43.333748],"type":"Point"},"properties":{"osm_id":"3641237862","tag":{"amenity":"waste_basket","colour":"blk"}},"type":"Feature"},
	{"geometry":{"coordinates":[-79.789799,43.335442],"type":"Point"},"properties":{"osm_id":"3641242000","tag":{"amenity":"waste_basket","colour":"grey"}},"type":"Feature"},
	{"geometry":{"coordinates":[-79.78981,43.335454],"type":"Point"},"properties":{"osm_id":"3641242001","tag":{"amenity":"waste_basket","colour":"grey"}},"type":"Feature"},
	{"geometry":{"coordinates":[-79.80393,43.330027],"type":"Point"},"properties":{"osm_id":"3641604685","tag":{"amenity":"waste_basket","sidewalk_orientation":"away"}},"type":"Feature"},
	{"geometry":{"coordinates":[-79.787341,43.333855],"type":"Point"},"properties":{"osm_id":"3641691519","tag":{"amenity":"waste_basket","colour":"black"}},"type":"Feature"},
	{"geometry":{"coordinates":[-79.787249,43.333952],"type":"Point"},"properties":{"osm_id":"3641691520","tag":{"amenity":"waste_basket","colour":"black"}},"type":"Feature"},
	{"geometry":{"coordinates":[-79.786832,43.337195],"type":"Point"},"properties":{"osm_id":"3641693852","tag":{"amenity":"recycling","colour":"blue","recycling:clothes":"yes","recycling_type":"container"}},"type":"Feature"},
	{"geometry":{"coordinates":[-79.777766,43.332967],"type":"Point"},"properties":{"osm_id":"3659187731","tag":{"amenity":"waste_basket"}},"type":"Feature"},
	{"geometry":{"coordinates":[-79.777613,43.333041],"type":"Point"},"properties":{"osm_id":"3659187732","tag":{"amenity":"waste_basket"}},"type":"Feature"},
	{"geometry":{"coordinates":[-79.777945,43.333084],"type":"Point"},"properties":{"osm_id":"3659187733","tag":{"amenity":"waste_basket"}},"type":"Feature"},
	{"geometry":{"coordinates":[-79.768182,43.353837],"type":"Point"},"properties":{"osm_id":"3763231479","tag":{"amenity":"waste_basket"}},"type":"Feature"},
	{"geometry":{"coordinates":[-79.80089,43.349988],"type":"Point"},"properties":{"osm_id":"3787764852","tag":{"amenity":"waste_basket","colour":"grey","sidewalk_orientation":"between"}},"type":"Feature"},
	{"geometry":{"coordinates":[-79.79687,43.353708],"type":"Point"},"properties":{"osm_id":"3870132822","tag":{"amenity":"waste_basket"}},"type":"Feature"},
	{"geometry":{"coordinates":[-79.790695,43.358558],"type":"Point"},"properties":{"osm_id":"3870132826","tag":{"amenity":"waste_basket"}},"type":"Feature"},
	{"geometry":{"coordinates":[-79.787341,43.360432],"type":"Point"},"properties":{"osm_id":"3870132828","tag":{"amenity":"waste_basket"}},"type":"Feature"},
	{"geometry":{"coordinates":[-79.797185,43.325444],"type":"Point"},"properties":{"name":"Dolce Salon Essentials","osm_id":"7859167170","tag":{"shop":"hairdresser"}},"type":"Feature"},
	{"geometry":{"coordinates":[-79.78923,43.331474],"type":"Point"},"properties":{"osm_id":"7859174077","tag":{"amenity":"waste_basket"}},"type":"Feature"},
	{"geometry":{"coordinates":[-79.794383,43.328071],"type":"Point"},"properties":{"osm_id":"7859178663","tag":{"amenity":"waste_basket"}},"type":"Feature"},
	{"geometry":{"coordinates":[-79.79111,43.330669],"type":"Point"},"properties":{"osm_id":"7859180312","tag":{"amenity":"waste_basket"}},"type":"Feature"},
	{"geometry":{"coordinates":[-79.78813,43.333139],"type":"Point"},"properties":{"osm_id":"7859182651","tag":{"amenity":"waste_basket"}},"type":"Feature"},
	{"geometry":{"coordinates":[-79.788043,43.33323],"type":"Point"},"properties":{"osm_id":"7859182652","tag":{"amenity":"waste_basket"}},"type":"Feature"},
	{"geometry":{"coordinates":[-79.794394,43.326461],"type":"Point"},"properties":{"osm_id":"7859183670","tag":{"amenity":"waste_basket"}},"type":"Feature"},
	{"geometry":{"coordinates":[-79.795695,43.325595],"type":"Point"},"properties":{"osm_id":"7859188728","tag":{"amenity":"waste_basket"}},"type":"Feature"},
	{"geometry":{"coordinates":[-79.79579,43.325668],"type":"Point"},"properties":{"osm_id":"7859188729","tag":{"amenity":"waste_basket"}},"type":"Feature"},
	{"geometry":{"coordinates":[-79.791171,43.33054],"type":"Point"},"properties":{"osm_id":"7859197409","tag":{"amenity":"waste_basket"}},"type":"Feature"},
	{"geometry":{"coordinates":[-79.791708,43.335831],"type":"Point"},"properties":{"osm_id":"7859214535","tag":{"amenity":"waste_basket"}},"type":"Feature"}
]
}
