{
"type": "FeatureCollection",
"features": [
	{"geometry":{"coordinates":[41.443991,52.658752],"type":"Point"},"properties":{"osm_id":"4318423293","tag":{"amenity":"waste_disposal"}},"type":"Feature"},
	{"geometry":{"coordinates":[41.448444,52.653416],"type":"Point"},"properties":{"osm_id":"4461395389","tag":{"amenity":"waste_disposal"}},"type":"Feature"},
	{"geometry":{"coordinates":[41.449094,52.655157],"type":"Point"},"properties":{"osm_id":"4757948485","tag":{"amenity":"waste_disposal"}},"type":"Feature"},
	{"geometry":{"coordinates":[41.448118,52.652502],"type":"Point"},"properties":{"osm_id":"4758231763","tag":{"amenity":"waste_disposal"}},"type":"Feature"},
	{"geometry":{"coordinates":[41.448881,52.656723],"type":"Point"},"properties":{"osm_id":"4758233869","tag":{"amenity":"waste_disposal"}},"type":"Feature"},
	{"geometry":{"coordinates":[41.446088,52.644239],"type":"Point"},"properties":{"osm_id":"4758371618","tag":{"amenity":"waste_disposal"}},"type":"Feature"},
	{"geometry":{"coordinates":[41.445399,52.650134],"type":"Point"},"properties":{"osm_id":"4760386126","tag":{"amenity":"waste_disposal"}},"type":"Feature"},
	{"geometry":{"coordinates":[41.447542,52.649757],"type":"Point"},"properties":{"osm_id":"4760408521","tag":{"amenity":"waste_disposal"}},"type":"Feature"},
	{"geometry":{"coordinates":[41.451138,52.652672],"type":"Point"},"properties":{"osm_id":"4895905322","tag":{"amenity":"waste_disposal"}},"type":"Feature"},
	{"geometry":{"coordinates":[41.451544,52.65462],"type":"Point"},"properties":{"osm_id":"4895936021","tag":{"amenity":"waste_disposal"}},"type":"Feature"},
	{"geometry":{"coordinates":[41.449394,52.655042],"type":"Point"},"properties":{"osm_id":"4895936121","tag":{"amenity":"waste_disposal"}},"type":"Feature"},
	{"geometry":{"coordinates":[41.448999,52.686168],"type":"Point"},"properties":{"osm_id":"5094960766","tag":{"amenity":"waste_disposal"}},"type":"Feature"},
	{"geometry":{"coordinates":[41.455666,52.688644],"type":"Point"},"properties":{"osm_id":"5094960781","tag":{"amenity":"waste_disposal"}},"type":"Feature"},
	{"geometry":{"coordinates":[41.425971,52.684751],"type":"Point"},"properties":{"osm_id":"5146470821","tag":{"amenity":"waste_disposal"}},"type":"Feature"},
	{"geometry":{"coordinates":[41.465966,52.675205],"type":"Point"},"properties":{"osm_id":"5153631021","tag":{"amenity":"waste_disposal"}},"type":"Feature"},
	{"geometry":{"coordinates":[41.459652,52.68368],"type":"Point"},"properties":{"osm_id":"5601012871","tag":{"amenity":"waste_basket"}},"type":"Feature"},
	{"geometry":{"coordinates":[41.452027,52.689476],"type":"Point"},"properties":{"osm_id":"5601076745","tag":{"amenity":"waste_basket"}},"type":"Feature"},
	{"geometry":{"coordinates":[41.41619,52.674699],"type":"Point"},"properties":{"osm_id":"5604742621","tag":{"amenity":"waste_disposal"}},"type":"Feature"},
	{"geometry":{"coordinates":[41.452118,52.649796],"type":"Point"},"properties":{"osm_id":"5759484706","tag":{"amenity":"waste_basket"}},"type":"Feature"},
	{"geometry":{"coordinates":[41.450949,52.651924],"type":"Point"},"properties":{"osm_id":"5902683989","tag":{"amenity":"waste_disposal"}},"type":"Feature"},
	{"geometry":{"coordinates":[41.451244,52.686179],"type":"Point"},"properties":{"osm_id":"6515874159","tag":{"amenity":"waste_basket","material":"cast iron","waste":"Cigarette butt"}},"type":"Feature"},
	{"geometry":{"coordinates":[41.461305,52.675524],"type":"Point"},"properties":{"osm_id":"6746489559","tag":{"amenity":"waste_disposal"}},"type":"Feature"},
	{"geometry":{"coordinates":[41.456404,52.68189],"type":"Point"},"properties":{"osm_id":"7873424287","tag":{"amenity":"waste_basket"}},"type":"Feature"}
]
}
