{
"type": "FeatureCollection",
"features": [
	{"geometry":{"coordinates":[8.157888,52.841565],"type":"Point"},"properties":{"highway":"turning_loop","osm_id":"365233375","tag":{"genus":"Acer","genus:de":"Ahorn","leaf_cycle":"deciduous","leaf_type":"broadleaved","natural":"tree"}},"type":"Feature"},
	{"geometry":{"coordinates":[8.156077,52.840865],"type":"Point"},"properties":{"highway":"turning_loop","osm_id":"365233390","tag":{"genus":"Tilia","genus:de":"Linde","leaf_cycle":"deciduous","leaf_type":"broadleaved","natural":"tree"}},"type":"Feature"},
	{"geometry":{"coordinates":[8.150139,52.82723],"type":"Point"},"properties":{"highway":"turning_loop","osm_id":"428882472","tag":{"genus":"Tilia","leaf_cycle":"deciduous","leaf_type":"broadleaved","natural":"tree"}},"type":"Feature"},
	{"geometry":{"coordinates":[8.152148,52.8272],"type":"Point"},"properties":{"highway":"turning_loop","osm_id":"428882475","tag":{"genus":"Tilia","leaf_cycle":"deciduous","leaf_type":"broadleaved","natural":"tree"}},"type":"Feature"},
	{"geometry":{"coordinates":[8.150396,52.829538],"type":"Point"},"properties":{"highway":"turning_loop","osm_id":"2064696273","tag":{"genus":"Fagus","leaf_cycle":"deciduous","leaf_type":"broadleaved","natural":"tree"}},"type":"Feature"},
	{"geometry":{"coordinates":[8.087017,52.838918],"type":"Point"},"properties":{"osm_id":"5095697495","tag":{"genus":"Tilia","genus:de":"Linde","leaf_type":"broadleaved","natural":"tree"}},"type":"Feature"},
	{"geometry":{"coordinates":[8.162855,52.839358],"type":"Point"},"properties":{"osm_id":"5154996414","tag":{"natural":"tree"}},"type":"Feature"},
	{"geometry":{"coordinates":[8.087847,52.833027],"type":"Point"},"properties":{"osm_id":"8357417410","tag":{"denotation":"urban","leaf_cycle":"deciduous","leaf_type":"broadleaved","natural":"tree"}},"type":"Feature"},
	{"geometry":{"coordinates":[8.088297,52.832887],"type":"Point"},"properties":{"osm_id":"8357417411","tag":{"denotation":"urban","leaf_cycle":"deciduous","leaf_type":"broadleaved","natural":"tree"}},"type":"Feature"},
	{"geometry":{"coordinates":[8.088204,52.832923],"type":"Point"},"properties":{"osm_id":"8357417412","tag":{"denotation":"urban","leaf_cycle":"deciduous","leaf_type":"broadleaved","natural":"tree"}},"type":"Feature"},
	{"geometry":{"coordinates":[8.088531,52.832818],"type":"Point"},"properties":{"osm_id":"8357417413","tag":{"denotation":"urban","leaf_cycle":"deciduous","leaf_type":"broadleaved","natural":"tree"}},"type":"Feature"},
	{"geometry":{"coordinates":[8.088796,52.832736],"type":"Point"},"properties":{"osm_id":"8357417414","tag":{"denotation":"urban","leaf_cycle":"deciduous","leaf_type":"broadleaved","natural":"tree"}},"type":"Feature"},
	{"geometry":{"coordinates":[8.088963,52.832707],"type":"Point"},"properties":{"osm_id":"8357417415","tag":{"denotation":"urban","leaf_cycle":"deciduous","leaf_type":"broadleaved","natural":"tree"}},"type":"Feature"},
	{"geometry":{"coordinates":[8.089097,52.832649],"type":"Point"},"properties":{"osm_id":"8357417416","tag":{"denotation":"urban","leaf_cycle":"deciduous","leaf_type":"broadleaved","natural":"tree"}},"type":"Feature"},
	{"geometry":{"coordinates":[8.08925,52.832589],"type":"Point"},"properties":{"osm_id":"8357453917","tag":{"denotation":"urban","leaf_cycle":"deciduous","leaf_type":"broadleaved","natural":"tree"}},"type":"Feature"},
	{"geometry":{"coordinates":[8.089402,52.83256],"type":"Point"},"properties":{"osm_id":"8357453918","tag":{"denotation":"urban","leaf_cycle":"deciduous","leaf_type":"broadleaved","natural":"tree"}},"type":"Feature"},
	{"geometry":{"coordinates":[8.088512,52.833673],"type":"Point"},"properties":{"osm_id":"8357453919","tag":{"denotation":"urban","leaf_cycle":"deciduous","leaf_type":"broadleaved","natural":"tree"}},"type":"Feature"},
	{"geometry":{"coordinates":[8.08922,52.833663],"type":"Point"},"properties":{"osm_id":"8357453920","tag":{"denotation":"urban","leaf_cycle":"deciduous","leaf_type":"broadleaved","natural":"tree"}},"type":"Feature"},
	{"geometry":{"coordinates":[8.089185,52.833558],"type":"Point"},"properties":{"osm_id":"8357453921","tag":{"denotation":"urban","leaf_cycle":"deciduous","leaf_type":"broadleaved","natural":"tree"}},"type":"Feature"},
	{"geometry":{"coordinates":[8.088925,52.833936],"type":"Point"},"properties":{"osm_id":"8357453922","tag":{"denotation":"urban","leaf_cycle":"deciduous","leaf_type":"broadleaved","natural":"tree"}},"type":"Feature"},
	{"geometry":{"coordinates":[8.088783,52.833924],"type":"Point"},"properties":{"osm_id":"8357453923","tag":{"denotation":"urban","leaf_cycle":"deciduous","leaf_type":"broadleaved","natural":"tree"}},"type":"Feature"},
	{"geometry":{"coordinates":[8.08925,52.833837],"type":"Point"},"properties":{"osm_id":"8357453924","tag":{"denotation":"urban","leaf_cycle":"deciduous","leaf_type":"broadleaved","natural":"tree"}},"type":"Feature"},
	{"geometry":{"coordinates":[8.087241,52.833566],"type":"Point"},"properties":{"osm_id":"8357453925","tag":{"denotation":"urban","leaf_cycle":"deciduous","leaf_type":"broadleaved","natural":"tree"}},"type":"Feature"},
	{"geometry":{"coordinates":[8.08716,52.833782],"type":"Point"},"properties":{"osm_id":"8357453926","tag":{"denotation":"urban","leaf_cycle":"deciduous","leaf_type":"broadleaved","natural":"tree"}},"type":"Feature"},
	{"geometry":{"coordinates":[8.087632,52.833811],"type":"Point"},"properties":{"osm_id":"8357453927","tag":{"denotation":"urban","leaf_cycle":"deciduous","leaf_type":"broadleaved","natural":"tree"}},"type":"Feature"},
	{"geometry":{"coordinates":[8.087514,52.833842],"type":"Point"},"properties":{"osm_id":"8357453928","tag":{"denotation":"urban","leaf_cycle":"deciduous","leaf_type":"broadleaved","natural":"tree"}},"type":"Feature"},
	{"geometry":{"coordinates":[8.087313,52.833908],"type":"Point"},"properties":{"osm_id":"8357453929","tag":{"denotation":"urban","leaf_cycle":"deciduous","leaf_type":"broadleaved","natural":"tree"}},"type":"Feature"},
	{"geometry":{"coordinates":[8.087123,52.833892],"type":"Point"},"properties":{"osm_id":"8357453930","tag":{"denotation":"urban","leaf_cycle":"deciduous","leaf_type":"broadleaved","natural":"tree"}},"type":"Feature"},
	{"geometry":{"coordinates":[8.087007,52.833694],"type":"Point"},"properties":{"osm_id":"8357453931","tag":{"denotation":"urban","leaf_cycle":"deciduous","leaf_type":"broadleaved","natural":"tree"}},"type":"Feature"},
	{"geometry":{"coordinates":[8.086846,52.833608],"type":"Point"},"properties":{"osm_id":"8357453932","tag":{"denotation":"urban","leaf_cycle":"deciduous","leaf_type":"broadleaved","natural":"tree"}},"type":"Feature"},
	{"geometry":{"coordinates":[8.086801,52.833446],"type":"Point"},"properties":{"osm_id":"8357453933","tag":{"denotation":"urban","leaf_cycle":"deciduous","leaf_type":"broadleaved","natural":"tree"}},"type":"Feature"},
	{"geometry":{"coordinates":[8.087403,52.833475],"type":"Point"},"properties":{"osm_id":"8357453934","tag":{"denotation":"urban","leaf_cycle":"deciduous","leaf_type":"broadleaved","natural":"tree"}},"type":"Feature"},
	{"geometry":{"coordinates":[8.094751,52.82127],"type":"Point"},"properties":{"osm_id":"8357453985","tag":{"denotation":"urban","leaf_cycle":"deciduous","leaf_type":"broadleaved","natural":"tree"}},"type":"Feature"},
	{"geometry":{"coordinates":[8.094574,52.821183],"type":"Point"},"properties":{"osm_id":"8357453986","tag":{"denotation":"urban","leaf_cycle":"deciduous","leaf_type":"broadleaved","natural":"tree"}},"type":"Feature"},
	{"geometry":{"coordinates":[8.094528,52.821296],"type":"Point"},"properties":{"osm_id":"8357453987","tag":{"denotation":"urban","leaf_cycle":"deciduous","leaf_type":"broadleaved","natural":"tree"}},"type":"Feature"},
	{"geometry":{"coordinates":[8.100676,52.818165],"type":"Point"},"properties":{"osm_id":"8357476052","tag":{"denotation":"urban","leaf_cycle":"deciduous","leaf_type":"broadleaved","natural":"tree"}},"type":"Feature"},
	{"geometry":{"coordinates":[8.100695,52.818251],"type":"Point"},"properties":{"osm_id":"8357476053","tag":{"denotation":"urban","leaf_cycle":"deciduous","leaf_type":"broadleaved","natural":"tree"}},"type":"Feature"},
	{"geometry":{"coordinates":[8.100909,52.817986],"type":"Point"},"properties":{"osm_id":"8357476054","tag":{"denotation":"urban","leaf_cycle":"deciduous","leaf_type":"broadleaved","natural":"tree"}},"type":"Feature"},
	{"geometry":{"coordinates":[8.100866,52.817889],"type":"Point"},"properties":{"osm_id":"8357476055","tag":{"denotation":"urban","leaf_cycle":"deciduous","leaf_type":"broadleaved","natural":"tree"}},"type":"Feature"},
	{"geometry":{"coordinates":[8.101679,52.818528],"type":"Point"},"properties":{"osm_id":"8357476056","tag":{"denotation":"urban","leaf_cycle":"deciduous","leaf_type":"broadleaved","natural":"tree"}},"type":"Feature"},
	{"geometry":{"coordinates":[8.10184,52.8185],"type":"Point"},"properties":{"osm_id":"8357476057","tag":{"denotation":"urban","leaf_cycle":"deciduous","leaf_type":"broadleaved","natural":"tree"}},"type":"Feature"},
	{"geometry":{"coordinates":[8.15588,52.839948],"type":"Point"},"properties":{"osm_id":"9099103430","tag":{"natural":"tree"}},"type":"Feature"},
	{"geometry":{"coordinates":[8.161496,52.839303],"type":"Point"},"properties":{"osm_id":"9099103482","tag":{"genus":"Tilia","genus:de":"Linde","leaf_cycle":"deciduous","leaf_type":"broadleaved","natural":"tree"}},"type":"Feature"}
]
}
