{
"type": "FeatureCollection",
"features": [
	{"geometry":{"coordinates":[14.685337,54.00325],"type":"Point"},"properties":{"osm_id":"5757902099","tag":{"amenity":"waste_basket"}},"type":"Feature"},
	{"geometry":{"coordinates":[14.683513,54.002645],"type":"Point"},"properties":{"osm_id":"5757902860","tag":{"amenity":"waste_basket"}},"type":"Feature"},
	{"geometry":{"coordinates":[14.683534,54.002644],"type":"Point"},"properties":{"osm_id":"5757903602","tag":{"amenity":"recycling","location":"overground","recycling_type":"container"}},"type":"Feature"},
	{"geometry":{"coordinates":[14.68415,54.004411],"type":"Point"},"properties":{"osm_id":"5757903721","tag":{"amenity":"waste_basket"}},"type":"Feature"},
	{"geometry":{"coordinates":[14.684178,54.004599],"type":"Point"},"properties":{"osm_id":"5757903750","tag":{"amenity":"recycling","location":"overground","recycling_type":"container"}},"type":"Feature"},
	{"geometry":{"coordinates":[14.683668,54.005283],"type":"Point"},"properties":{"osm_id":"5757904256","tag":{"amenity":"waste_basket"}},"type":"Feature"},
	{"geometry":{"coordinates":[14.68331,54.005663],"type":"Point"},"properties":{"osm_id":"5757905054","tag":{"amenity":"waste_basket"}},"type":"Feature"},
	{"geometry":{"coordinates":[14.683066,54.005898],"type":"Point"},"properties":{"osm_id":"5757907709","tag":{"amenity":"waste_basket"}},"type":"Feature"},
	{"geometry":{"coordinates":[14.681593,54.006677],"type":"Point"},"properties":{"osm_id":"5757908005","tag":{"amenity":"waste_basket"}},"type":"Feature"},
	{"geometry":{"coordinates":[14.682059,54.006482],"type":"Point"},"properties":{"osm_id":"5757909363","tag":{"amenity":"waste_basket"}},"type":"Feature"},
	{"geometry":{"coordinates":[14.682838,54.007035],"type":"Point"},"properties":{"osm_id":"5757911025","tag":{"amenity":"waste_basket"}},"type":"Feature"},
	{"geometry":{"coordinates":[14.701873,53.998481],"type":"Point"},"properties":{"osm_id":"7685019614","tag":{"amenity":"waste_basket","waste":"trash"}},"type":"Feature"},
	{"geometry":{"coordinates":[14.702184,53.999905],"type":"Point"},"properties":{"osm_id":"7685019618","tag":{"amenity":"waste_basket","waste":"trash"}},"type":"Feature"},
	{"geometry":{"coordinates":[14.701947,53.998729],"type":"Point"},"properties":{"osm_id":"7685019620","tag":{"amenity":"waste_basket","waste":"trash"}},"type":"Feature"},
	{"geometry":{"coordinates":[14.701968,53.998635],"type":"Point"},"properties":{"osm_id":"7685019626","tag":{"amenity":"waste_basket","waste":"trash"}},"type":"Feature"},
	{"geometry":{"coordinates":[14.701833,53.99862],"type":"Point"},"properties":{"osm_id":"7685019628","tag":{"amenity":"waste_basket","waste":"trash"}},"type":"Feature"},
	{"geometry":{"coordinates":[14.691937,54.003733],"type":"Point"},"properties":{"osm_id":"7688067673","tag":{"amenity":"waste_basket","waste":"trash"}},"type":"Feature"},
	{"geometry":{"coordinates":[14.686647,54.002491],"type":"Point"},"properties":{"osm_id":"7688067674","tag":{"amenity":"waste_basket","waste":"trash"}},"type":"Feature"},
	{"geometry":{"coordinates":[14.6841,54.001885],"type":"Point"},"properties":{"osm_id":"7688067675","tag":{"amenity":"waste_basket"}},"type":"Feature"},
	{"geometry":{"coordinates":[14.6851,54.002124],"type":"Point"},"properties":{"osm_id":"7688096487","tag":{"amenity":"waste_basket"}},"type":"Feature"},
	{"geometry":{"coordinates":[14.687647,54.002723],"type":"Point"},"properties":{"osm_id":"7688096492","tag":{"amenity":"waste_basket"}},"type":"Feature"},
	{"geometry":{"coordinates":[14.688748,54.002973],"type":"Point"},"properties":{"osm_id":"7688096494","tag":{"amenity":"waste_basket","waste":"trash"}},"type":"Feature"},
	{"geometry":{"coordinates":[14.682274,54.00218],"type":"Point"},"properties":{"osm_id":"7688262734","tag":{"amenity":"waste_basket","waste":"trash"}},"type":"Feature"},
	{"geometry":{"coordinates":[14.682019,54.001916],"type":"Point"},"properties":{"osm_id":"7689303999","tag":{"amenity":"waste_basket","material":"metal","waste":"trash"}},"type":"Feature"},
	{"geometry":{"coordinates":[14.677946,54.005545],"type":"Point"},"properties":{"osm_id":"7698684088","tag":{"amenity":"waste_basket","colour":"lightgray","material":"metal","waste":"trash"}},"type":"Feature"},
	{"geometry":{"coordinates":[14.678067,54.005584],"type":"Point"},"properties":{"osm_id":"7698684089","tag":{"amenity":"waste_basket","colour":"lightgray","material":"metal","waste":"trash"}},"type":"Feature"},
	{"geometry":{"coordinates":[14.682577,54.002636],"type":"Point"},"properties":{"osm_id":"7702084884","tag":{"access":"customers","amenity":"recycling","opening_hours":"24/7","recycling:glass":"yes","recycling:glass_bottles":"yes","recycling:plastic":"yes","recycling_type":"container"}},"type":"Feature"},
	{"geometry":{"coordinates":[14.682277,54.002886],"type":"Point"},"properties":{"osm_id":"7702768821","tag":{"access":"customers","amenity":"recycling","recycling_type":"container"}},"type":"Feature"},
	{"geometry":{"coordinates":[14.682307,54.002236],"type":"Point"},"properties":{"osm_id":"7702797728","tag":{"amenity":"waste_basket","material":"metal","waste":"trash"}},"type":"Feature"},
	{"geometry":{"coordinates":[14.678507,54.004723],"type":"Point"},"properties":{"osm_id":"7704523546","tag":{"amenity":"waste_basket","colour":"black","material":"metal","waste":"trash"}},"type":"Feature"},
	{"geometry":{"coordinates":[14.67906,54.005834],"type":"Point"},"properties":{"osm_id":"7704523547","tag":{"amenity":"waste_basket","colour":"lightgray","material":"metal","waste":"trash"}},"type":"Feature"},
	{"geometry":{"coordinates":[14.681731,54.001947],"type":"Point"},"properties":{"osm_id":"7709569385","tag":{"amenity":"waste_basket","colour":"lightgray","material":"metal","waste":"trash"}},"type":"Feature"},
	{"geometry":{"coordinates":[14.681909,54.002369],"type":"Point"},"properties":{"osm_id":"7710437309","tag":{"amenity":"waste_basket","material":"metal","waste":"trash"}},"type":"Feature"},
	{"geometry":{"coordinates":[14.681526,54.001957],"type":"Point"},"properties":{"osm_id":"7711251341","tag":{"amenity":"waste_basket","colour":"lightgray","material":"metal","waste":"trash"}},"type":"Feature"},
	{"geometry":{"coordinates":[14.681298,54.002144],"type":"Point"},"properties":{"osm_id":"7711251347","tag":{"amenity":"waste_basket","colour":"lightgray","material":"metal","waste":"trash"}},"type":"Feature"},
	{"geometry":{"coordinates":[14.681542,54.001828],"type":"Point"},"properties":{"osm_id":"7711251348","tag":{"amenity":"waste_basket","colour":"lightgray","material":"metal","waste":"trash"}},"type":"Feature"},
	{"geometry":{"coordinates":[14.68121,54.002284],"type":"Point"},"properties":{"osm_id":"7711251349","tag":{"amenity":"waste_basket","colour":"lightgray","material":"metal","waste":"trash"}},"type":"Feature"}
]
}
