{
"type": "FeatureCollection",
"features": [
	{"geometry":{"coordinates":[14.681582,51.956141],"type":"Point"},"properties":{"osm_id":"1737378779","tag":{"amenity":"waste_basket"}},"type":"Feature"},
	{"geometry":{"coordinates":[14.706947,51.958091],"type":"Point"},"properties":{"osm_id":"1874524566","tag":{"amenity":"waste_basket"}},"type":"Feature"},
	{"geometry":{"coordinates":[14.707082,51.958106],"type":"Point"},"properties":{"osm_id":"1874524575","tag":{"amenity":"waste_basket"}},"type":"Feature"},
	{"geometry":{"coordinates":[14.706925,51.958309],"type":"Point"},"properties":{"osm_id":"1874524613","tag":{"amenity":"waste_basket"}},"type":"Feature"},
	{"geometry":{"coordinates":[14.706789,51.958262],"type":"Point"},"properties":{"osm_id":"1875000070","tag":{"amenity":"waste_basket"}},"type":"Feature"},
	{"geometry":{"coordinates":[14.7068,51.958318],"type":"Point"},"properties":{"osm_id":"2065507625","tag":{"amenity":"waste_basket"}},"type":"Feature"},
	{"geometry":{"coordinates":[14.706782,51.958368],"type":"Point"},"properties":{"osm_id":"2065507630","tag":{"amenity":"waste_basket"}},"type":"Feature"},
	{"geometry":{"coordinates":[14.706776,51.95839],"type":"Point"},"properties":{"osm_id":"2065507631","tag":{"amenity":"waste_basket"}},"type":"Feature"},
	{"geometry":{"coordinates":[14.706769,51.958412],"type":"Point"},"properties":{"osm_id":"2065507635","tag":{"amenity":"waste_basket"}},"type":"Feature"},
	{"geometry":{"coordinates":[14.706762,51.958434],"type":"Point"},"properties":{"osm_id":"2065507638","tag":{"amenity":"waste_basket"}},"type":"Feature"},
	{"geometry":{"coordinates":[14.706464,51.958408],"type":"Point"},"properties":{"osm_id":"2065531102","tag":{"amenity":"waste_basket"}},"type":"Feature"},
	{"geometry":{"coordinates":[14.703096,51.958344],"type":"Point"},"properties":{"osm_id":"2065572892","tag":{"amenity":"waste_basket"}},"type":"Feature"},
	{"geometry":{"coordinates":[14.69924,51.949697],"type":"Point"},"properties":{"osm_id":"2302609227","tag":{"amenity":"recycling","recycling:glass_bottles":"yes","recycling_type":"container"}},"type":"Feature"},
	{"geometry":{"coordinates":[14.703912,51.945497],"type":"Point"},"properties":{"osm_id":"2339689425","tag":{"amenity":"waste_basket"}},"type":"Feature"},
	{"geometry":{"coordinates":[14.698384,51.949624],"type":"Point"},"properties":{"osm_id":"2339689492","tag":{"amenity":"waste_basket"}},"type":"Feature"},
	{"geometry":{"coordinates":[14.707449,51.963683],"type":"Point"},"properties":{"name":"Schrotthandel Birkhold","osm_id":"2432048352","tag":{"amenity":"recycling","phone":"+49 3561 2212","recycling:scrap_metal":"yes","recycling_type":"centre"}},"type":"Feature"},
	{"geometry":{"coordinates":[14.708692,51.960916],"type":"Point"},"properties":{"name":"Ankaufstelle Altpapier","osm_id":"2432059147","tag":{"amenity":"recycling","opening_hours":"We,Fr 10:00-17:00; Sa 09:00-13:00","phone":"+49152 02497661","recycling:clothes":"yes","recycling:paper":"yes","recycling_type":"centre","website":"https://www.altpapierkauf.de/"}},"type":"Feature"},
	{"geometry":{"coordinates":[14.691896,51.951782],"type":"Point"},"properties":{"osm_id":"2447095946","tag":{"amenity":"waste_basket"}},"type":"Feature"},
	{"geometry":{"coordinates":[14.712573,51.949071],"type":"Point"},"properties":{"osm_id":"2719857018","tag":{"amenity":"waste_basket","material":"metal"}},"type":"Feature"},
	{"geometry":{"coordinates":[14.706435,51.958403],"type":"Point"},"properties":{"osm_id":"4972092269","tag":{"amenity":"waste_basket"}},"type":"Feature"}
]
}
