{
"type": "FeatureCollection",
"features": [
	{"geometry":{"coordinates":[14.678824,50.947279],"type":"Point"},"properties":{"osm_id":"271779959","tag":{"amenity":"recycling","mapillary":"BBX2VoNta2aC9mFNbbjqRA","recycling:clothes":"yes","recycling:glass":"yes","recycling_type":"container","survey:date":"2016-06-14"}},"type":"Feature"},
	{"geometry":{"coordinates":[14.715861,50.952978],"type":"Point"},"properties":{"osm_id":"279856822","tag":{"amenity":"recycling","recycling:batteries":"no","recycling:clothes":"no"}},"type":"Feature"},
	{"geometry":{"coordinates":[14.749125,50.915605],"type":"Point"},"properties":{"osm_id":"286569349","tag":{"amenity":"recycling","location":"overground","recycling:clothes":"yes","recycling:glass":"yes","recycling_type":"container"}},"type":"Feature"},
	{"geometry":{"coordinates":[14.706534,50.906837],"type":"Point"},"properties":{"osm_id":"357287985","tag":{"amenity":"recycling","recycling:glass":"yes"}},"type":"Feature"},
	{"geometry":{"coordinates":[14.714088,50.917172],"type":"Point"},"properties":{"osm_id":"360753900","tag":{"amenity":"recycling","location":"overground","recycling:glass":"yes","recycling_type":"container"}},"type":"Feature"},
	{"geometry":{"coordinates":[14.70166,50.906116],"type":"Point"},"properties":{"osm_id":"389928489","tag":{"amenity":"recycling","recycling:glass":"yes"}},"type":"Feature"},
	{"geometry":{"coordinates":[14.732649,50.951084],"type":"Point"},"properties":{"osm_id":"813212402","tag":{"amenity":"recycling"}},"type":"Feature"},
	{"geometry":{"coordinates":[14.708145,50.909447],"type":"Point"},"properties":{"osm_id":"1257127054","tag":{"amenity":"waste_basket"}},"type":"Feature"},
	{"geometry":{"coordinates":[14.686283,50.945465],"type":"Point"},"properties":{"osm_id":"1350778652","tag":{"amenity":"waste_basket"}},"type":"Feature"},
	{"geometry":{"coordinates":[14.749618,50.914804],"type":"Point"},"properties":{"osm_id":"1375766760","tag":{"amenity":"waste_basket"}},"type":"Feature"},
	{"geometry":{"coordinates":[14.716654,50.920856],"type":"Point"},"properties":{"osm_id":"2502090460","tag":{"amenity":"waste_basket"}},"type":"Feature"},
	{"geometry":{"coordinates":[14.69444,50.904088],"type":"Point"},"properties":{"osm_id":"2506499639","tag":{"amenity":"waste_basket"}},"type":"Feature"},
	{"geometry":{"coordinates":[14.741433,50.922768],"type":"Point"},"properties":{"osm_id":"2868343795","tag":{"amenity":"waste_basket"}},"type":"Feature"},
	{"geometry":{"coordinates":[14.692041,50.939224],"type":"Point"},"properties":{"osm_id":"3998006736","tag":{"amenity":"recycling"}},"type":"Feature"},
	{"geometry":{"coordinates":[14.744037,50.943243],"type":"Point"},"properties":{"osm_id":"4082000803","tag":{"amenity":"recycling","recycling:glass":"yes","recycling_type":"container"}},"type":"Feature"},
	{"geometry":{"coordinates":[14.685944,50.953732],"type":"Point"},"properties":{"osm_id":"4757610985","tag":{"amenity":"waste_basket"}},"type":"Feature"},
	{"geometry":{"coordinates":[14.685872,50.953568],"type":"Point"},"properties":{"osm_id":"4757610986","tag":{"amenity":"waste_basket"}},"type":"Feature"},
	{"geometry":{"coordinates":[14.764197,50.917149],"type":"Point"},"properties":{"osm_id":"5774162703","tag":{"amenity":"recycling","recycling:clothes":"yes","recycling:glass":"yes","recycling_type":"container"}},"type":"Feature"},
	{"geometry":{"coordinates":[14.749549,50.911494],"type":"Point"},"properties":{"osm_id":"5777780528","tag":{"amenity":"waste_basket"}},"type":"Feature"},
	{"geometry":{"coordinates":[14.749966,50.912582],"type":"Point"},"properties":{"osm_id":"5810250740","tag":{"amenity":"waste_basket"}},"type":"Feature"},
	{"geometry":{"coordinates":[14.749429,50.913039],"type":"Point"},"properties":{"osm_id":"5810250741","tag":{"amenity":"waste_basket"}},"type":"Feature"}
]
}
