{
"type": "FeatureCollection",
"features": [
	{"geometry":{"coordinates":[14.754039,50.897869],"type":"Point"},"properties":{"osm_id":"163960570","tag":{"amenity":"recycling","recycling_type":"container"}},"type":"Feature"},
	{"geometry":{"coordinates":[14.764326,50.865053],"type":"Point"},"properties":{"osm_id":"260846248","tag":{"amenity":"recycling","recycling:clothes":"yes","recycling:glass_bottles":"yes","recycling_type":"container"}},"type":"Feature"},
	{"geometry":{"coordinates":[14.764679,50.874357],"type":"Point"},"properties":{"osm_id":"268099711","tag":{"amenity":"recycling","recycling:clothes":"yes","recycling:glass_bottles":"yes","recycling_type":"container"}},"type":"Feature"},
	{"geometry":{"coordinates":[14.761318,50.866302],"type":"Point"},"properties":{"osm_id":"341178585","tag":{"amenity":"recycling","recycling:clothes":"yes","recycling:glass_bottles":"yes","recycling_type":"container"}},"type":"Feature"},
	{"geometry":{"coordinates":[14.692932,50.900322],"type":"Point"},"properties":{"osm_id":"343531580","tag":{"amenity":"recycling","recycling:clothes":"yes","recycling:glass":"yes"}},"type":"Feature"},
	{"geometry":{"coordinates":[14.678779,50.895443],"type":"Point"},"properties":{"osm_id":"354952893","tag":{"amenity":"recycling","mapillary":"TpfL6Q9CtaV3h2_ClcIR8w","recycling:glass":"yes","recycling_type":"container","survey:date":"2016-05-01"}},"type":"Feature"},
	{"geometry":{"coordinates":[14.749254,50.898395],"type":"Point"},"properties":{"osm_id":"551642902","tag":{"amenity":"recycling"}},"type":"Feature"},
	{"geometry":{"coordinates":[14.754246,50.861305],"type":"Point"},"properties":{"osm_id":"619470802","tag":{"amenity":"recycling","recycling_type":"container"}},"type":"Feature"},
	{"geometry":{"coordinates":[14.759714,50.899902],"type":"Point"},"properties":{"osm_id":"788334062","tag":{"amenity":"waste_basket","covered":"yes","tourism":"picnic_site"}},"type":"Feature"},
	{"geometry":{"coordinates":[14.756165,50.867704],"type":"Point"},"properties":{"osm_id":"923498947","tag":{"amenity":"recycling","recycling:clothes":"yes","recycling:glass":"yes"}},"type":"Feature"},
	{"geometry":{"coordinates":[14.758187,50.868641],"type":"Point"},"properties":{"osm_id":"938597651","tag":{"amenity":"waste_basket"}},"type":"Feature"},
	{"geometry":{"coordinates":[14.762112,50.869827],"type":"Point"},"properties":{"osm_id":"938597663","tag":{"amenity":"waste_basket"}},"type":"Feature"},
	{"geometry":{"coordinates":[14.760455,50.868524],"type":"Point"},"properties":{"osm_id":"938597680","tag":{"amenity":"waste_basket"}},"type":"Feature"},
	{"geometry":{"coordinates":[14.76224,50.869929],"type":"Point"},"properties":{"osm_id":"938597689","tag":{"amenity":"waste_basket"}},"type":"Feature"},
	{"geometry":{"coordinates":[14.76185,50.869382],"type":"Point"},"properties":{"osm_id":"938597750","tag":{"amenity":"waste_basket"}},"type":"Feature"},
	{"geometry":{"coordinates":[14.758359,50.868238],"type":"Point"},"properties":{"osm_id":"938597758","tag":{"amenity":"waste_basket"}},"type":"Feature"},
	{"geometry":{"coordinates":[14.762451,50.86976],"type":"Point"},"properties":{"osm_id":"938597773","tag":{"amenity":"waste_basket"}},"type":"Feature"},
	{"geometry":{"coordinates":[14.723961,50.862695],"type":"Point"},"properties":{"osm_id":"990358452","tag":{"amenity":"recycling","location":"overground","recycling:glass":"yes","recycling_type":"container"}},"type":"Feature"},
	{"geometry":{"coordinates":[14.76553,50.885434],"type":"Point"},"properties":{"osm_id":"1255828264","tag":{"amenity":"waste_basket"}},"type":"Feature"},
	{"geometry":{"coordinates":[14.746483,50.863217],"type":"Point"},"properties":{"osm_id":"1309520140","tag":{"amenity":"waste_basket"}},"type":"Feature"},
	{"geometry":{"coordinates":[14.763458,50.900992],"type":"Point"},"properties":{"osm_id":"1999140377","tag":{"amenity":"recycling","recycling:glass":"yes","recycling_type":"container"}},"type":"Feature"},
	{"geometry":{"coordinates":[14.688731,50.850079],"type":"Point"},"properties":{"osm_id":"3445363036","tag":{"amenity":"waste_basket"}},"type":"Feature"},
	{"geometry":{"coordinates":[14.688812,50.850154],"type":"Point"},"properties":{"osm_id":"3445363045","tag":{"amenity":"waste_basket"}},"type":"Feature"},
	{"geometry":{"coordinates":[14.737249,50.888153],"type":"Point"},"properties":{"osm_id":"3860621315","tag":{"amenity":"recycling","recycling:clothes":"yes","recycling:glass":"yes","recycling_type":"container"}},"type":"Feature"},
	{"geometry":{"coordinates":[14.700046,50.853316],"type":"Point"},"properties":{"osm_id":"4340353516","tag":{"amenity":"recycling","recycling:glass":"no","recycling:glass_bottles":"yes","recycling_type":"container"}},"type":"Feature"},
	{"geometry":{"coordinates":[14.745389,50.867139],"type":"Point"},"properties":{"osm_id":"5037207559","tag":{"amenity":"waste_basket"}},"type":"Feature"},
	{"geometry":{"coordinates":[14.759127,50.872875],"type":"Point"},"properties":{"osm_id":"6438421964","tag":{"amenity":"recycling","recycling_type":"container"}},"type":"Feature"},
	{"geometry":{"coordinates":[14.758115,50.872659],"type":"Point"},"properties":{"osm_id":"6438421969","tag":{"amenity":"recycling","recycling_type":"container"}},"type":"Feature"},
	{"geometry":{"coordinates":[14.760365,50.872464],"type":"Point"},"properties":{"osm_id":"6438496934","tag":{"amenity":"recycling","recycling_type":"container"}},"type":"Feature"},
	{"geometry":{"coordinates":[14.763011,50.872911],"type":"Point"},"properties":{"osm_id":"6438510751","tag":{"amenity":"recycling","recycling_type":"container"}},"type":"Feature"},
	{"geometry":{"coordinates":[14.758291,50.874028],"type":"Point"},"properties":{"osm_id":"6438522186","tag":{"amenity":"recycling","recycling_type":"container"}},"type":"Feature"},
	{"geometry":{"coordinates":[14.764901,50.872614],"type":"Point"},"properties":{"osm_id":"6438529862","tag":{"amenity":"recycling","recycling_type":"container"}},"type":"Feature"},
	{"geometry":{"coordinates":[14.765331,50.873356],"type":"Point"},"properties":{"osm_id":"6438535458","tag":{"amenity":"recycling","recycling_type":"container"}},"type":"Feature"},
	{"geometry":{"coordinates":[14.763751,50.873821],"type":"Point"},"properties":{"osm_id":"6438574667","tag":{"amenity":"recycling","recycling_type":"container"}},"type":"Feature"},
	{"geometry":{"coordinates":[14.693459,50.859465],"type":"Point"},"properties":{"osm_id":"7772161682","tag":{"amenity":"waste_basket","waste":"trash"}},"type":"Feature"}
]
}
