{
"type": "FeatureCollection",
"features": [
	{"geometry":{"coordinates":[14.696707,47.065036],"type":"Point"},"properties":{"name":"Bauhof Obdach","osm_id":"1074067601","tag":{"amenity":"recycling","recycling_type":"centre"}},"type":"Feature"},
	{"geometry":{"coordinates":[14.690901,47.080652],"type":"Point"},"properties":{"name":"Kl\u00c3\u00a4ranlage Obdach","osm_id":"1300100366","tag":{"amenity":"recycling"}},"type":"Feature"},
	{"geometry":{"coordinates":[14.693568,47.069205],"type":"Point"},"properties":{"osm_id":"6647220907","tag":{"amenity":"waste_basket","waste":"trash"}},"type":"Feature"},
	{"geometry":{"coordinates":[14.69358,47.069242],"type":"Point"},"properties":{"osm_id":"6647220908","tag":{"amenity":"waste_basket","waste":"trash"}},"type":"Feature"},
	{"geometry":{"coordinates":[14.683604,47.067375],"type":"Point"},"properties":{"osm_id":"6647220929","tag":{"amenity":"waste_basket","waste":"trash"}},"type":"Feature"},
	{"geometry":{"coordinates":[14.678805,47.067246],"type":"Point"},"properties":{"osm_id":"6647220932","tag":{"amenity":"recycling","recycling:cans":"yes","recycling:glass_bottles":"yes","recycling:paper":"yes","recycling_type":"container","wheelchair":"yes"}},"type":"Feature"},
	{"geometry":{"coordinates":[14.685879,47.041452],"type":"Point"},"properties":{"osm_id":"6742192489","tag":{"amenity":"waste_basket","waste":"trash"}},"type":"Feature"},
	{"geometry":{"coordinates":[14.696588,47.067163],"type":"Point"},"properties":{"osm_id":"6762278997","tag":{"amenity":"waste_basket","waste":"trash"}},"type":"Feature"},
	{"geometry":{"coordinates":[14.71901,47.045152],"type":"Point"},"properties":{"osm_id":"6762279069","tag":{"amenity":"waste_basket","waste":"trash"}},"type":"Feature"},
	{"geometry":{"coordinates":[14.719226,47.044309],"type":"Point"},"properties":{"osm_id":"6762279131","tag":{"amenity":"waste_basket","waste":"trash"}},"type":"Feature"},
	{"geometry":{"coordinates":[14.696628,47.072804],"type":"Point"},"properties":{"osm_id":"6871807234","tag":{"amenity":"waste_basket","waste":"trash"}},"type":"Feature"},
	{"geometry":{"coordinates":[14.696652,47.071609],"type":"Point"},"properties":{"osm_id":"6871807236","tag":{"amenity":"waste_basket","waste":"trash"}},"type":"Feature"},
	{"geometry":{"coordinates":[14.684351,47.08626],"type":"Point"},"properties":{"osm_id":"6883964322","tag":{"amenity":"waste_basket","waste":"trash"}},"type":"Feature"},
	{"geometry":{"coordinates":[14.684225,47.083997],"type":"Point"},"properties":{"osm_id":"6883964329","tag":{"amenity":"waste_basket","waste":"trash"}},"type":"Feature"},
	{"geometry":{"coordinates":[14.687069,47.081055],"type":"Point"},"properties":{"osm_id":"6883964333","tag":{"amenity":"waste_basket","waste":"trash"}},"type":"Feature"},
	{"geometry":{"coordinates":[14.684537,47.075893],"type":"Point"},"properties":{"osm_id":"6883964338","tag":{"amenity":"waste_basket","waste":"trash"}},"type":"Feature"},
	{"geometry":{"coordinates":[14.688628,47.072285],"type":"Point"},"properties":{"osm_id":"6883964351","tag":{"amenity":"waste_basket","waste":"trash"}},"type":"Feature"},
	{"geometry":{"coordinates":[14.690462,47.070265],"type":"Point"},"properties":{"osm_id":"6883964362","tag":{"amenity":"waste_basket","waste":"trash"}},"type":"Feature"},
	{"geometry":{"coordinates":[14.740156,47.064907],"type":"Point"},"properties":{"osm_id":"7506545135","tag":{"amenity":"waste_basket","waste":"trash"}},"type":"Feature"},
	{"geometry":{"coordinates":[14.724766,47.068568],"type":"Point"},"properties":{"osm_id":"7506545204","tag":{"amenity":"waste_basket","waste":"trash"}},"type":"Feature"},
	{"geometry":{"coordinates":[14.721692,47.073161],"type":"Point"},"properties":{"osm_id":"7506545218","tag":{"amenity":"waste_basket","waste":"trash"}},"type":"Feature"}
]
}
