{
"type": "FeatureCollection",
"features": [
	{"geometry":{"coordinates":[14.731871,46.703034],"type":"Point"},"properties":{"osm_id":"2858302923","tag":{"amenity":"recycling","recycling:paper":"yes","recycling_type":"container"}},"type":"Feature"},
	{"geometry":{"coordinates":[14.731862,46.703047],"type":"Point"},"properties":{"osm_id":"2858302924","tag":{"amenity":"recycling","recycling:paper":"yes","recycling_type":"container"}},"type":"Feature"},
	{"geometry":{"coordinates":[14.731853,46.70306],"type":"Point"},"properties":{"osm_id":"2858302925","tag":{"amenity":"recycling","recycling:paper":"yes","recycling_type":"container"}},"type":"Feature"},
	{"geometry":{"coordinates":[14.731844,46.703074],"type":"Point"},"properties":{"osm_id":"2858302926","tag":{"amenity":"recycling","recycling:scrap_metal":"yes","recycling_type":"container"}},"type":"Feature"},
	{"geometry":{"coordinates":[14.731835,46.703087],"type":"Point"},"properties":{"osm_id":"2858302927","tag":{"amenity":"recycling","recycling:scrap_metal":"yes","recycling_type":"container"}},"type":"Feature"},
	{"geometry":{"coordinates":[14.731826,46.7031],"type":"Point"},"properties":{"osm_id":"2858302928","tag":{"amenity":"recycling","recycling:glass_bottles":"yes","recycling_type":"container"}},"type":"Feature"},
	{"geometry":{"coordinates":[14.731817,46.703114],"type":"Point"},"properties":{"osm_id":"2858302929","tag":{"amenity":"recycling","recycling:glass":"yes","recycling_type":"container"}},"type":"Feature"},
	{"geometry":{"coordinates":[14.701385,46.692393],"type":"Point"},"properties":{"osm_id":"4357431155","tag":{"amenity":"recycling","recycling:cans":"yes","recycling:clothes":"yes","recycling:glass_bottles":"yes","recycling:paper":"yes","recycling_type":"container"}},"type":"Feature"},
	{"geometry":{"coordinates":[14.679623,46.695203],"type":"Point"},"properties":{"osm_id":"5015059322","tag":{"amenity":"waste_basket"}},"type":"Feature"},
	{"geometry":{"coordinates":[14.729176,46.705325],"type":"Point"},"properties":{"osm_id":"5813043051","tag":{"amenity":"waste_basket"}},"type":"Feature"},
	{"geometry":{"coordinates":[14.728699,46.704205],"type":"Point"},"properties":{"osm_id":"5813044659","tag":{"amenity":"waste_basket"}},"type":"Feature"},
	{"geometry":{"coordinates":[14.728135,46.70433],"type":"Point"},"properties":{"osm_id":"5813044661","tag":{"amenity":"waste_basket"}},"type":"Feature"},
	{"geometry":{"coordinates":[14.727633,46.704427],"type":"Point"},"properties":{"osm_id":"5813044662","tag":{"amenity":"waste_basket"}},"type":"Feature"},
	{"geometry":{"coordinates":[14.727739,46.704268],"type":"Point"},"properties":{"osm_id":"5813044666","tag":{"amenity":"waste_basket"}},"type":"Feature"},
	{"geometry":{"coordinates":[14.727243,46.704644],"type":"Point"},"properties":{"osm_id":"5813044720","tag":{"amenity":"waste_basket"}},"type":"Feature"},
	{"geometry":{"coordinates":[14.725485,46.705958],"type":"Point"},"properties":{"osm_id":"5813070527","tag":{"amenity":"recycling","recycling:paper":"yes","recycling:plastic":"yes","recycling_type":"container"}},"type":"Feature"},
	{"geometry":{"coordinates":[14.724935,46.701616],"type":"Point"},"properties":{"osm_id":"6169147326","tag":{"amenity":"recycling","recycling:cardboard":"yes","recycling:glass_bottles":"yes","recycling:paper":"yes","recycling_type":"container"}},"type":"Feature"}
]
}
