{
"type": "FeatureCollection",
"features": [
	{"geometry":{"coordinates":[-7.816166,52.679573],"type":"Point"},"properties":{"name":"Thurles Bottle Bank","osm_id":"1494277521","tag":{"amenity":"recycling"}},"type":"Feature"},
	{"geometry":{"coordinates":[-7.81328,52.67891],"type":"Point"},"properties":{"osm_id":"1809488701","tag":{"amenity":"waste_basket"}},"type":"Feature"},
	{"geometry":{"coordinates":[-7.810855,52.679438],"type":"Point"},"properties":{"osm_id":"1809488706","tag":{"amenity":"waste_basket"}},"type":"Feature"},
	{"geometry":{"coordinates":[-7.808334,52.679835],"type":"Point"},"properties":{"osm_id":"1809488708","tag":{"amenity":"waste_basket"}},"type":"Feature"},
	{"geometry":{"coordinates":[-7.807261,52.680155],"type":"Point"},"properties":{"osm_id":"1809488710","tag":{"amenity":"waste_basket"}},"type":"Feature"},
	{"geometry":{"coordinates":[-7.802349,52.68183],"type":"Point"},"properties":{"osm_id":"1809488712","tag":{"amenity":"waste_basket","waste":"dog_excrement"}},"type":"Feature"}
]
}
