{
"type": "FeatureCollection",
"features": [
	{"geometry":{"coordinates":[21.971619,50.06717],"type":"Point"},"properties":{"osm_id":"2331750144","tag":{"amenity":"waste_basket"}},"type":"Feature"},
	{"geometry":{"coordinates":[21.91785,50.098077],"type":"Point"},"properties":{"osm_id":"2434293213","tag":{"amenity":"recycling","recycling:glass":"yes","recycling:green_waste":"yes","recycling:plastic":"yes","recycling_type":"container"}},"type":"Feature"},
	{"geometry":{"coordinates":[21.956106,50.087687],"type":"Point"},"properties":{"osm_id":"4919059607","tag":{"amenity":"waste_basket"}},"type":"Feature"},
	{"geometry":{"coordinates":[21.94889,50.087657],"type":"Point"},"properties":{"osm_id":"4919060028","tag":{"amenity":"waste_basket"}},"type":"Feature"},
	{"geometry":{"coordinates":[21.945702,50.087758],"type":"Point"},"properties":{"osm_id":"4919060030","tag":{"amenity":"waste_basket"}},"type":"Feature"},
	{"geometry":{"coordinates":[21.939596,50.087829],"type":"Point"},"properties":{"osm_id":"4919060033","tag":{"amenity":"waste_basket"}},"type":"Feature"},
	{"geometry":{"coordinates":[21.921423,50.091855],"type":"Point"},"properties":{"osm_id":"4919060093","tag":{"amenity":"waste_basket"}},"type":"Feature"},
	{"geometry":{"coordinates":[21.921333,50.091799],"type":"Point"},"properties":{"osm_id":"4919060101","tag":{"amenity":"waste_basket"}},"type":"Feature"}
]
}
