{
"type": "FeatureCollection",
"features": [
	{"geometry":{"coordinates":[21.89422,48.933255],"type":"Point"},"properties":{"osm_id":"1699244125","tag":{"amenity":"recycling"}},"type":"Feature"},
	{"geometry":{"coordinates":[21.894124,48.933121],"type":"Point"},"properties":{"osm_id":"1699244545","tag":{"amenity":"waste_basket"}},"type":"Feature"},
	{"geometry":{"coordinates":[21.939539,48.940168],"type":"Point"},"properties":{"name":"compost","osm_id":"1699250500","tag":{"amenity":"recycling"}},"type":"Feature"},
	{"geometry":{"coordinates":[21.931642,48.94107],"type":"Point"},"properties":{"osm_id":"1699285984","tag":{"amenity":"recycling"}},"type":"Feature"},
	{"geometry":{"coordinates":[21.906516,48.936475],"type":"Point"},"properties":{"name":"compost","osm_id":"1699292075","tag":{"amenity":"recycling"}},"type":"Feature"},
	{"geometry":{"coordinates":[21.905271,48.93952],"type":"Point"},"properties":{"name":"home appliances","osm_id":"1699294475","tag":{"amenity":"recycling"}},"type":"Feature"},
	{"geometry":{"coordinates":[21.893759,48.929773],"type":"Point"},"properties":{"name":"plastic","osm_id":"1699298171","tag":{"amenity":"recycling"}},"type":"Feature"},
	{"geometry":{"coordinates":[21.888985,48.933931],"type":"Point"},"properties":{"name":"paper","osm_id":"1699300871","tag":{"amenity":"recycling"}},"type":"Feature"},
	{"geometry":{"coordinates":[21.907675,48.940836],"type":"Point"},"properties":{"osm_id":"1970430363","tag":{"amenity":"recycling","recycling:clothes":"yes","recycling_type":"container"}},"type":"Feature"},
	{"geometry":{"coordinates":[21.931642,48.944045],"type":"Point"},"properties":{"osm_id":"1970430572","tag":{"amenity":"waste_basket"}},"type":"Feature"},
	{"geometry":{"coordinates":[21.931443,48.947216],"type":"Point"},"properties":{"osm_id":"1970430647","tag":{"amenity":"waste_basket"}},"type":"Feature"},
	{"geometry":{"coordinates":[21.930879,48.951916],"type":"Point"},"properties":{"osm_id":"1970430795","tag":{"amenity":"waste_basket"}},"type":"Feature"}
]
}
