{
"type": "FeatureCollection",
"features": [
	{"geometry":{"coordinates":[21.926827,48.752372],"type":"Point"},"properties":{"osm_id":"5048577722","tag":{"amenity":"waste_basket"}},"type":"Feature"},
	{"geometry":{"coordinates":[21.926771,48.752545],"type":"Point"},"properties":{"osm_id":"5048587221","tag":{"amenity":"waste_basket"}},"type":"Feature"},
	{"geometry":{"coordinates":[21.92717,48.752515],"type":"Point"},"properties":{"osm_id":"5048691124","tag":{"amenity":"waste_basket"}},"type":"Feature"},
	{"geometry":{"coordinates":[21.93014,48.759137],"type":"Point"},"properties":{"osm_id":"5882275008","tag":{"amenity":"waste_disposal","waste":"trash"}},"type":"Feature"},
	{"geometry":{"coordinates":[21.929168,48.759816],"type":"Point"},"properties":{"osm_id":"5882275013","tag":{"amenity":"waste_disposal","waste":"trash"}},"type":"Feature"},
	{"geometry":{"coordinates":[21.927968,48.759901],"type":"Point"},"properties":{"osm_id":"5882275014","tag":{"amenity":"waste_disposal","waste":"trash"}},"type":"Feature"},
	{"geometry":{"coordinates":[21.933056,48.758151],"type":"Point"},"properties":{"osm_id":"5885350427","tag":{"amenity":"waste_disposal","waste":"trash"}},"type":"Feature"},
	{"geometry":{"coordinates":[21.93216,48.758165],"type":"Point"},"properties":{"osm_id":"5885350428","tag":{"amenity":"waste_disposal","waste":"trash"}},"type":"Feature"},
	{"geometry":{"coordinates":[21.931359,48.758979],"type":"Point"},"properties":{"osm_id":"5885350452","tag":{"amenity":"waste_disposal","waste":"trash"}},"type":"Feature"},
	{"geometry":{"coordinates":[21.930681,48.759223],"type":"Point"},"properties":{"osm_id":"5885350453","tag":{"amenity":"waste_disposal","waste":"trash"}},"type":"Feature"},
	{"geometry":{"coordinates":[21.934873,48.758187],"type":"Point"},"properties":{"osm_id":"5892928182","tag":{"amenity":"waste_disposal","waste":"trash"}},"type":"Feature"},
	{"geometry":{"coordinates":[21.933996,48.758177],"type":"Point"},"properties":{"osm_id":"5892928183","tag":{"amenity":"waste_disposal","waste":"trash"}},"type":"Feature"},
	{"geometry":{"coordinates":[21.93503,48.759762],"type":"Point"},"properties":{"osm_id":"5894026963","tag":{"amenity":"waste_disposal","waste":"trash"}},"type":"Feature"},
	{"geometry":{"coordinates":[21.934914,48.75897],"type":"Point"},"properties":{"osm_id":"5894026964","tag":{"amenity":"waste_disposal","waste":"trash"}},"type":"Feature"},
	{"geometry":{"coordinates":[21.934011,48.758975],"type":"Point"},"properties":{"osm_id":"5894026965","tag":{"amenity":"waste_disposal","waste":"trash"}},"type":"Feature"},
	{"geometry":{"coordinates":[21.933103,48.759008],"type":"Point"},"properties":{"osm_id":"5894026966","tag":{"amenity":"waste_disposal","waste":"trash"}},"type":"Feature"},
	{"geometry":{"coordinates":[21.928997,48.765374],"type":"Point"},"properties":{"name":"Zbern\u00c3\u00bd dvor","osm_id":"5894411290","tag":{"amenity":"recycling","recycling_type":"centre"}},"type":"Feature"}
]
}
