{
"type": "FeatureCollection",
"features": [
	{"geometry":{"coordinates":[-82.305655,29.659704],"type":"Point"},"properties":{"name":"Trademark Metals Recycling","osm_id":"1785448988","tag":{"amenity":"recycling","recycling:aluminium":"yes","recycling:batteries":"yes","recycling:cans":"yes","recycling:scrap_metal":"yes","recycling:sheet_metal":"yes","recycling:small_appliances":"yes","recycling_type":"centre"}},"type":"Feature"},
	{"geometry":{"coordinates":[-82.349035,29.66702],"type":"Point"},"properties":{"osm_id":"4026996944","tag":{"amenity":"waste_basket"}},"type":"Feature"},
	{"geometry":{"coordinates":[-82.351961,29.637643],"type":"Point"},"properties":{"osm_id":"4272412313","tag":{"amenity":"recycling","recycling:cans":"yes","recycling:glass":"yes","recycling:glass_bottles":"yes","recycling:plastic":"yes","recycling:plastic_bottles":"yes","recycling_type":"container"}},"type":"Feature"},
	{"geometry":{"coordinates":[-82.323415,29.687648],"type":"Point"},"properties":{"osm_id":"7064532774","tag":{"amenity":"waste_disposal"}},"type":"Feature"},
	{"geometry":{"coordinates":[-82.323391,29.687637],"type":"Point"},"properties":{"osm_id":"7064532775","tag":{"amenity":"waste_disposal"}},"type":"Feature"},
	{"geometry":{"coordinates":[-82.338185,29.687273],"type":"Point"},"properties":{"osm_id":"7064669309","tag":{"amenity":"waste_disposal"}},"type":"Feature"},
	{"geometry":{"coordinates":[-82.338578,29.673309],"type":"Point"},"properties":{"osm_id":"7064669316","tag":{"amenity":"waste_disposal"}},"type":"Feature"},
	{"geometry":{"coordinates":[-82.338537,29.673307],"type":"Point"},"properties":{"osm_id":"7064669317","tag":{"amenity":"waste_disposal"}},"type":"Feature"},
	{"geometry":{"coordinates":[-82.318441,29.653053],"type":"Point"},"properties":{"osm_id":"7068167199","tag":{"amenity":"waste_disposal"}},"type":"Feature"},
	{"geometry":{"coordinates":[-82.318421,29.653082],"type":"Point"},"properties":{"osm_id":"7068167200","tag":{"amenity":"waste_disposal"}},"type":"Feature"},
	{"geometry":{"coordinates":[-82.299317,29.672854],"type":"Point"},"properties":{"osm_id":"8019018621","tag":{"access":"private","amenity":"waste_disposal","waste":"trash;recycling"}},"type":"Feature"},
	{"geometry":{"coordinates":[-82.351312,29.644234],"type":"Point"},"properties":{"osm_id":"8063267929","tag":{"access":"no","amenity":"loading_dock"}},"type":"Feature"},
	{"geometry":{"coordinates":[-82.35336,29.64424],"type":"Point"},"properties":{"osm_id":"8063267934","tag":{"amenity":"waste_disposal"}},"type":"Feature"},
	{"geometry":{"coordinates":[-82.342881,29.651055],"type":"Point"},"properties":{"osm_id":"8282911667","tag":{"amenity":"waste_basket","waste":"trash"}},"type":"Feature"},
	{"geometry":{"coordinates":[-82.342942,29.651055],"type":"Point"},"properties":{"osm_id":"8282911668","tag":{"amenity":"waste_basket","waste":"trash"}},"type":"Feature"},
	{"geometry":{"coordinates":[-82.348147,29.638457],"type":"Point"},"properties":{"osm_id":"8602907530","tag":{"amenity":"waste_basket","waste":"trash"}},"type":"Feature"},
	{"geometry":{"coordinates":[-82.348146,29.638479],"type":"Point"},"properties":{"osm_id":"8602907531","tag":{"amenity":"recycling","recycling_type":"container"}},"type":"Feature"}
]
}
