{
"type": "FeatureCollection",
"features": [
	{"geometry":{"coordinates":[-82.34408,23.112641],"type":"Point"},"properties":{"name":"Desequip","osm_id":"4592605789","tag":{"amenity":"recycling","name:en":"Desequip","name:es":"Desequip","operator":"Empresa importadora exportadora de materiales reciclables","phone":"+5377944487","website":"http://www.desequip.co.cu"}},"type":"Feature"},
	{"geometry":{"coordinates":[-82.344424,23.11273],"type":"Point"},"properties":{"name":"Desequip","osm_id":"4625773126","tag":{"amenity":"recycling","phone":"+5377944487"}},"type":"Feature"},
	{"geometry":{"coordinates":[-82.344151,23.112155],"type":"Point"},"properties":{"name":"Desequip","osm_id":"4632323123","tag":{"amenity":"recycling","opening_hours":"Mo-Fr 08:00-16:00","phone":"+5377944487","website":"www.desequip.co.cu"}},"type":"Feature"},
	{"geometry":{"coordinates":[-82.349801,23.1404],"type":"Point"},"properties":{"osm_id":"4854008521","tag":{"amenity":"waste_basket"}},"type":"Feature"},
	{"geometry":{"coordinates":[-82.349917,23.140236],"type":"Point"},"properties":{"osm_id":"4854008621","tag":{"amenity":"waste_basket"}},"type":"Feature"},
	{"geometry":{"coordinates":[-82.349834,23.140017],"type":"Point"},"properties":{"osm_id":"4854008622","tag":{"amenity":"waste_basket"}},"type":"Feature"},
	{"geometry":{"coordinates":[-82.349457,23.140526],"type":"Point"},"properties":{"osm_id":"4854008623","tag":{"amenity":"waste_basket"}},"type":"Feature"},
	{"geometry":{"coordinates":[-82.349633,23.139939],"type":"Point"},"properties":{"osm_id":"4854008624","tag":{"amenity":"waste_basket"}},"type":"Feature"},
	{"geometry":{"coordinates":[-82.349301,23.140047],"type":"Point"},"properties":{"osm_id":"4854008625","tag":{"amenity":"waste_basket"}},"type":"Feature"},
	{"geometry":{"coordinates":[-82.349201,23.140186],"type":"Point"},"properties":{"osm_id":"4854008626","tag":{"amenity":"waste_basket"}},"type":"Feature"},
	{"geometry":{"coordinates":[-82.34931,23.140441],"type":"Point"},"properties":{"osm_id":"4854008627","tag":{"amenity":"waste_basket"}},"type":"Feature"},
	{"geometry":{"coordinates":[-82.351303,23.139223],"type":"Point"},"properties":{"osm_id":"5112808123","tag":{"amenity":"waste_disposal","operator":"Comunales"}},"type":"Feature"},
	{"geometry":{"coordinates":[-82.349073,23.130286],"type":"Point"},"properties":{"osm_id":"5112808124","tag":{"amenity":"waste_disposal","operator":"Comunales"}},"type":"Feature"},
	{"geometry":{"coordinates":[-82.348246,23.131502],"type":"Point"},"properties":{"osm_id":"5112808125","tag":{"amenity":"waste_disposal","operator":"Comunales"}},"type":"Feature"},
	{"geometry":{"coordinates":[-82.348195,23.131913],"type":"Point"},"properties":{"osm_id":"5112808126","tag":{"amenity":"waste_disposal","operator":"Comunales"}},"type":"Feature"},
	{"geometry":{"coordinates":[-82.34772,23.133056],"type":"Point"},"properties":{"osm_id":"5112808127","tag":{"amenity":"waste_disposal","operator":"Comunales"}},"type":"Feature"},
	{"geometry":{"coordinates":[-82.347649,23.133269],"type":"Point"},"properties":{"osm_id":"5112808128","tag":{"amenity":"waste_disposal","operator":"Comunales"}},"type":"Feature"},
	{"geometry":{"coordinates":[-82.349548,23.129795],"type":"Point"},"properties":{"osm_id":"5112827822","tag":{"amenity":"waste_disposal","operator":"Comunales"}},"type":"Feature"},
	{"geometry":{"coordinates":[-82.349481,23.129853],"type":"Point"},"properties":{"osm_id":"5112827823","tag":{"amenity":"waste_disposal","operator":"Comunales"}},"type":"Feature"},
	{"geometry":{"coordinates":[-82.348659,23.131246],"type":"Point"},"properties":{"osm_id":"5112827824","tag":{"amenity":"waste_disposal","operator":"Comunales"}},"type":"Feature"},
	{"geometry":{"coordinates":[-82.347689,23.133146],"type":"Point"},"properties":{"osm_id":"5112827825","tag":{"amenity":"waste_disposal","operator":"Comunales"}},"type":"Feature"},
	{"geometry":{"coordinates":[-82.352628,23.138863],"type":"Point"},"properties":{"osm_id":"5112827922","tag":{"amenity":"waste_disposal","operator":"Comunales"}},"type":"Feature"},
	{"geometry":{"coordinates":[-82.350854,23.139425],"type":"Point"},"properties":{"osm_id":"5112827923","tag":{"amenity":"waste_disposal","operator":"Comunales"}},"type":"Feature"},
	{"geometry":{"coordinates":[-82.349702,23.129643],"type":"Point"},"properties":{"osm_id":"5112827924","tag":{"amenity":"waste_disposal","operator":"Comunales"}},"type":"Feature"},
	{"geometry":{"coordinates":[-82.34919,23.130163],"type":"Point"},"properties":{"osm_id":"5112827926","tag":{"amenity":"waste_disposal","operator":"Comunales"}},"type":"Feature"},
	{"geometry":{"coordinates":[-82.348842,23.130876],"type":"Point"},"properties":{"osm_id":"5112827927","tag":{"amenity":"waste_disposal","operator":"Comunales"}},"type":"Feature"},
	{"geometry":{"coordinates":[-82.34817,23.131978],"type":"Point"},"properties":{"osm_id":"5112827928","tag":{"amenity":"waste_disposal","operator":"Comunales"}},"type":"Feature"},
	{"geometry":{"coordinates":[-82.348152,23.132042],"type":"Point"},"properties":{"osm_id":"5112827929","tag":{"amenity":"waste_disposal","operator":"Comunales"}},"type":"Feature"},
	{"geometry":{"coordinates":[-82.347827,23.132845],"type":"Point"},"properties":{"osm_id":"5112827930","tag":{"amenity":"waste_disposal","operator":"Comunales"}},"type":"Feature"},
	{"geometry":{"coordinates":[-82.347773,23.132956],"type":"Point"},"properties":{"osm_id":"5112827931","tag":{"amenity":"waste_disposal","operator":"Comunales"}},"type":"Feature"},
	{"geometry":{"coordinates":[-82.352336,23.13896],"type":"Point"},"properties":{"osm_id":"5112828221","tag":{"amenity":"waste_disposal","operator":"Comunales"}},"type":"Feature"},
	{"geometry":{"coordinates":[-82.34929,23.130063],"type":"Point"},"properties":{"osm_id":"5112828224","tag":{"amenity":"waste_disposal","operator":"Comunales"}},"type":"Feature"},
	{"geometry":{"coordinates":[-82.349561,23.137406],"type":"Point"},"properties":{"osm_id":"5112828225","tag":{"amenity":"waste_disposal","operator":"Comunales"}},"type":"Feature"},
	{"geometry":{"coordinates":[-82.351245,23.139305],"type":"Point"},"properties":{"osm_id":"5112828321","tag":{"amenity":"waste_disposal","operator":"Comunales"}},"type":"Feature"},
	{"geometry":{"coordinates":[-82.351104,23.139353],"type":"Point"},"properties":{"osm_id":"5112828621","tag":{"amenity":"waste_disposal","operator":"Comunales"}},"type":"Feature"},
	{"geometry":{"coordinates":[-82.349756,23.129588],"type":"Point"},"properties":{"osm_id":"5112828622","tag":{"amenity":"waste_disposal","operator":"Comunales"}},"type":"Feature"},
	{"geometry":{"coordinates":[-82.348094,23.132167],"type":"Point"},"properties":{"osm_id":"5112828623","tag":{"amenity":"waste_disposal","operator":"Comunales"}},"type":"Feature"},
	{"geometry":{"coordinates":[-82.349936,23.135605],"type":"Point"},"properties":{"osm_id":"5237234022","tag":{"amenity":"waste_disposal","operator":"Comunales"}},"type":"Feature"},
	{"geometry":{"coordinates":[-82.35006,23.13557],"type":"Point"},"properties":{"osm_id":"5237234023","tag":{"amenity":"waste_disposal","operator":"Comunales"}},"type":"Feature"},
	{"geometry":{"coordinates":[-82.349865,23.136446],"type":"Point"},"properties":{"osm_id":"5237244021","tag":{"amenity":"waste_disposal","operator":"Comunales"}},"type":"Feature"},
	{"geometry":{"coordinates":[-82.349746,23.136412],"type":"Point"},"properties":{"osm_id":"5237244022","tag":{"amenity":"waste_disposal","operator":"Comunales"}},"type":"Feature"},
	{"geometry":{"coordinates":[-82.349705,23.136101],"type":"Point"},"properties":{"osm_id":"5237244023","tag":{"amenity":"waste_disposal","operator":"Comunales"}},"type":"Feature"},
	{"geometry":{"coordinates":[-82.349871,23.134407],"type":"Point"},"properties":{"osm_id":"5237244024","tag":{"amenity":"waste_disposal","operator":"Comunales"}},"type":"Feature"},
	{"geometry":{"coordinates":[-82.349672,23.13585],"type":"Point"},"properties":{"osm_id":"5250290322","tag":{"amenity":"waste_disposal","operator":"Comunales"}},"type":"Feature"},
	{"geometry":{"coordinates":[-82.329671,23.12019],"type":"Point"},"properties":{"osm_id":"5907412889","tag":{"amenity":"waste_disposal"}},"type":"Feature"},
	{"geometry":{"coordinates":[-82.328837,23.119346],"type":"Point"},"properties":{"osm_id":"5907413292","tag":{"amenity":"waste_disposal"}},"type":"Feature"},
	{"geometry":{"coordinates":[-82.348448,23.135271],"type":"Point"},"properties":{"osm_id":"6164392886","tag":{"amenity":"waste_disposal"}},"type":"Feature"},
	{"geometry":{"coordinates":[-82.348845,23.133883],"type":"Point"},"properties":{"osm_id":"6166931185","tag":{"amenity":"waste_disposal"}},"type":"Feature"}
]
}
