{
"type": "FeatureCollection",
"features": [
	{"geometry":{"coordinates":[151.860112,-32.653724],"type":"Point"},"properties":{"osm_id":"3155908843","tag":{"amenity":"waste_basket","source:location":"gps"}},"type":"Feature"},
	{"geometry":{"coordinates":[151.835306,-32.669542],"type":"Point"},"properties":{"osm_id":"6791638541","tag":{"amenity":"waste_basket"}},"type":"Feature"},
	{"geometry":{"coordinates":[151.835282,-32.669594],"type":"Point"},"properties":{"osm_id":"6791638542","tag":{"amenity":"waste_basket"}},"type":"Feature"},
	{"geometry":{"coordinates":[151.835257,-32.669704],"type":"Point"},"properties":{"osm_id":"6791638543","tag":{"amenity":"waste_basket"}},"type":"Feature"},
	{"geometry":{"coordinates":[151.859741,-32.653685],"type":"Point"},"properties":{"osm_id":"7571848423","tag":{"amenity":"waste_basket"}},"type":"Feature"},
	{"geometry":{"coordinates":[151.858866,-32.654001],"type":"Point"},"properties":{"osm_id":"7571848429","tag":{"amenity":"waste_basket"}},"type":"Feature"},
	{"geometry":{"coordinates":[151.842644,-32.66221],"type":"Point"},"properties":{"osm_id":"7571848469","tag":{"amenity":"waste_basket"}},"type":"Feature"},
	{"geometry":{"coordinates":[151.84271,-32.662144],"type":"Point"},"properties":{"osm_id":"7571848470","tag":{"amenity":"waste_basket"}},"type":"Feature"},
	{"geometry":{"coordinates":[151.842501,-32.662277],"type":"Point"},"properties":{"osm_id":"7571848471","tag":{"amenity":"waste_basket"}},"type":"Feature"},
	{"geometry":{"coordinates":[151.843173,-32.66182],"type":"Point"},"properties":{"osm_id":"7571848472","tag":{"amenity":"waste_basket"}},"type":"Feature"},
	{"geometry":{"coordinates":[151.843557,-32.661276],"type":"Point"},"properties":{"osm_id":"7571848473","tag":{"amenity":"waste_basket"}},"type":"Feature"}
]
}
