{
"type": "FeatureCollection",
"features": [
	{"geometry":{"coordinates":[135.151227,34.264632],"type":"Point"},"properties":{"osm_id":"4462995701","tag":{"amenity":"waste_basket"}},"type":"Feature"},
	{"geometry":{"coordinates":[135.151489,34.267683],"type":"Point"},"properties":{"name":"\u00e3\u0082\u00b4\u00e3\u0083\u009f\u00e7\u00ae\u00b1","osm_id":"4465732159","tag":{"amenity":"waste_basket"}},"type":"Feature"},
	{"geometry":{"coordinates":[135.153468,34.266102],"type":"Point"},"properties":{"name":"\u00e3\u0082\u00b4\u00e3\u0083\u009f\u00e7\u00ae\u00b1","osm_id":"4563176934","tag":{"amenity":"waste_basket"}},"type":"Feature"},
	{"geometry":{"coordinates":[135.155144,34.266745],"type":"Point"},"properties":{"name":"\u00e3\u0082\u00b4\u00e3\u0083\u009f\u00e7\u00ae\u00b1","osm_id":"4563180482","tag":{"amenity":"waste_basket"}},"type":"Feature"},
	{"geometry":{"coordinates":[135.153102,34.2661],"type":"Point"},"properties":{"name":"\u00e3\u0082\u00b4\u00e3\u0083\u009f\u00e7\u00ae\u00b1","osm_id":"5197608503","tag":{"amenity":"waste_basket"}},"type":"Feature"},
	{"geometry":{"coordinates":[135.151112,34.268164],"type":"Point"},"properties":{"osm_id":"5293236466","tag":{"amenity":"waste_disposal"}},"type":"Feature"},
	{"geometry":{"coordinates":[135.151586,34.26555],"type":"Point"},"properties":{"osm_id":"5293264041","tag":{"amenity":"waste_disposal"}},"type":"Feature"},
	{"geometry":{"coordinates":[135.151539,34.267371],"type":"Point"},"properties":{"osm_id":"6006838633","tag":{"amenity":"waste_basket"}},"type":"Feature"},
	{"geometry":{"coordinates":[135.151257,34.268511],"type":"Point"},"properties":{"osm_id":"6006875718","tag":{"amenity":"waste_basket","description":"\u30da\u30c3\u30c8\u30dc\u30c8\u30eb\u6368\u3066\u308b\u3068\u3053"}},"type":"Feature"},
	{"geometry":{"coordinates":[135.115127,34.260682],"type":"Point"},"properties":{"osm_id":"6358004786","tag":{"amenity":"waste_disposal"}},"type":"Feature"},
	{"geometry":{"coordinates":[135.150492,34.258458],"type":"Point"},"properties":{"osm_id":"7081924601","tag":{"amenity":"waste_disposal","collection_times":"\uff5e20\u6642","waste":"trash"}},"type":"Feature"},
	{"geometry":{"coordinates":[135.15163,34.265447],"type":"Point"},"properties":{"osm_id":"7083891059","tag":{"amenity":"waste_disposal"}},"type":"Feature"}
]
}
