{
"type": "FeatureCollection",
"features": [
	{"geometry":{"coordinates":[17.905459,47.187603],"type":"Point"},"properties":{"name":"Di\u00c3\u00b3f\u00c3\u00a1k","osm_id":"3439475063","tag":{"natural":"tree","source:date":"2013-03-02","url":"http://turistautak.hu/poi.php?id=79907"}},"type":"Feature"},
	{"geometry":{"coordinates":[17.915578,47.166557],"type":"Point"},"properties":{"name":"Bakony t\u00c3\u00a9li fa","osm_id":"4770385772","tag":{"addr:city":"Veszpr\u00c3\u00a9m","addr:postcode":"8412","addr:suburb":"Gyulafir\u00c3\u00a1t\u00c3\u00b3t","denotation":"landmark","leaf_cycle":"deciduous","leaf_type":"broadleaved","natural":"tree"}},"type":"Feature"},
	{"geometry":{"coordinates":[17.921448,47.191996],"type":"Point"},"properties":{"osm_id":"4771518090","tag":{"natural":"tree"}},"type":"Feature"},
	{"geometry":{"coordinates":[17.917285,47.168098],"type":"Point"},"properties":{"osm_id":"7851668991","tag":{"denotation":"landmark","leaf_cycle":"deciduous","leaf_type":"broadleaved","natural":"tree"}},"type":"Feature"},
	{"geometry":{"coordinates":[17.9229,47.172286],"type":"Point"},"properties":{"osm_id":"7851684065","tag":{"denotation":"landmark","leaf_cycle":"deciduous","leaf_type":"broadleaved","natural":"tree"}},"type":"Feature"},
	{"geometry":{"coordinates":[17.918454,47.162018],"type":"Point"},"properties":{"name":"Bakony kiserd\u00c5\u0091 ny\u00c3\u00a1ri fa","osm_id":"7851734597","tag":{"addr:city":"Veszpr\u00c3\u00a9m","addr:postcode":"8412","addr:suburb":"Gyulafir\u00c3\u00a1t\u00c3\u00b3t","closest_town":"Gyulafir\u00c3\u00a1t\u00c3\u00b3t","denotation":"landmark","leaf_cycle":"deciduous","leaf_type":"broadleaved","natural":"tree"}},"type":"Feature"}
]
}
