{
"type": "FeatureCollection",
"features": [
	{"geometry":{"coordinates":[-99.678726,19.285673],"type":"Point"},"properties":{"osm_id":"4089219021","tag":{"amenity":"waste_disposal"}},"type":"Feature"},
	{"geometry":{"coordinates":[-99.67887,19.285575],"type":"Point"},"properties":{"osm_id":"4089219022","tag":{"amenity":"waste_disposal"}},"type":"Feature"},
	{"geometry":{"coordinates":[-99.678705,19.286062],"type":"Point"},"properties":{"osm_id":"4089219023","tag":{"amenity":"waste_disposal"}},"type":"Feature"},
	{"geometry":{"coordinates":[-99.678171,19.286168],"type":"Point"},"properties":{"name":"Basura","osm_id":"4089219024","tag":{"amenity":"waste_disposal"}},"type":"Feature"},
	{"geometry":{"coordinates":[-99.679,19.285712],"type":"Point"},"properties":{"osm_id":"4089219025","tag":{"amenity":"waste_disposal"}},"type":"Feature"},
	{"geometry":{"coordinates":[-99.679098,19.285559],"type":"Point"},"properties":{"name":"Basura","osm_id":"4089219026","tag":{"amenity":"waste_disposal"}},"type":"Feature"},
	{"geometry":{"coordinates":[-99.676985,19.267467],"type":"Point"},"properties":{"osm_id":"4251913390","tag":{"amenity":"waste_basket"}},"type":"Feature"},
	{"geometry":{"coordinates":[-99.676788,19.282645],"type":"Point"},"properties":{"osm_id":"4841864210","tag":{"amenity":"recycling","recycling_type":"centre"}},"type":"Feature"},
	{"geometry":{"coordinates":[-99.668194,19.280828],"type":"Point"},"properties":{"name":"Eco-centro N\u00c2\u00b02 Toluca Mercado Morelos","osm_id":"7341621777","tag":{"amenity":"recycling","recycling_type":"centre"}},"type":"Feature"}
]
}
