{
"type": "FeatureCollection",
"features": [
	{"geometry":{"coordinates":[83.115404,54.888013],"type":"Point"},"properties":{"osm_id":"922427661","tag":{"amenity":"recycling"}},"type":"Feature"},
	{"geometry":{"coordinates":[83.118097,54.888038],"type":"Point"},"properties":{"osm_id":"922427683","tag":{"amenity":"recycling"}},"type":"Feature"},
	{"geometry":{"coordinates":[83.119323,54.888252],"type":"Point"},"properties":{"osm_id":"922427695","tag":{"amenity":"recycling"}},"type":"Feature"},
	{"geometry":{"coordinates":[83.097409,54.895389],"type":"Point"},"properties":{"osm_id":"925540678","tag":{"amenity":"recycling"}},"type":"Feature"},
	{"geometry":{"coordinates":[83.097478,54.893747],"type":"Point"},"properties":{"osm_id":"925540703","tag":{"amenity":"recycling"}},"type":"Feature"},
	{"geometry":{"coordinates":[83.115758,54.886769],"type":"Point"},"properties":{"osm_id":"1982629205","tag":{"amenity":"recycling"}},"type":"Feature"},
	{"geometry":{"coordinates":[83.103308,54.887105],"type":"Point"},"properties":{"osm_id":"6567001828","tag":{"amenity":"recycling","operator":"\u00d0\u00a2\u00d0\u00b0\u00d0\u00b9\u00d0\u00b3\u00d0\u00b5\u00d1\u0080-\u00d0\u00a1\u00d0\u00b8\u00d0\u00b1\u00d0\u00b8\u00d1\u0080\u00d1\u008c","recycling:cans":"yes","recycling:glass":"yes","recycling:glass_bottles":"yes","recycling:plastic":"no","recycling:plastic_bottles":"yes","recycling_type":"container","website":"http://steklobutilka.ru/"}},"type":"Feature"},
	{"geometry":{"coordinates":[83.103343,54.887105],"type":"Point"},"properties":{"osm_id":"6567001829","tag":{"amenity":"waste_disposal"}},"type":"Feature"},
	{"geometry":{"coordinates":[83.085841,54.923602],"type":"Point"},"properties":{"osm_id":"7622001641","tag":{"amenity":"waste_disposal"}},"type":"Feature"},
	{"geometry":{"coordinates":[83.113374,54.902696],"type":"Point"},"properties":{"osm_id":"7869021931","tag":{"amenity":"waste_disposal"}},"type":"Feature"},
	{"geometry":{"coordinates":[83.116814,54.903947],"type":"Point"},"properties":{"osm_id":"7869021945","tag":{"amenity":"waste_disposal"}},"type":"Feature"}
]
}
