{
"type": "FeatureCollection",
"features": [
	{"geometry":{"coordinates":[83.086147,54.868305],"type":"Point"},"properties":{"osm_id":"667294750","tag":{"amenity":"waste_disposal"}},"type":"Feature"},
	{"geometry":{"coordinates":[83.086784,54.862539],"type":"Point"},"properties":{"osm_id":"1056789496","tag":{"amenity":"waste_disposal"}},"type":"Feature"},
	{"geometry":{"coordinates":[83.087989,54.863246],"type":"Point"},"properties":{"osm_id":"1056789614","tag":{"amenity":"waste_disposal"}},"type":"Feature"},
	{"geometry":{"coordinates":[83.093306,54.866598],"type":"Point"},"properties":{"osm_id":"1063803214","tag":{"amenity":"waste_disposal"}},"type":"Feature"},
	{"geometry":{"coordinates":[83.080954,54.86102],"type":"Point"},"properties":{"osm_id":"1081873578","tag":{"amenity":"waste_disposal"}},"type":"Feature"},
	{"geometry":{"coordinates":[83.083882,54.86241],"type":"Point"},"properties":{"osm_id":"1081873870","tag":{"amenity":"waste_disposal"}},"type":"Feature"},
	{"geometry":{"coordinates":[83.081057,54.863134],"type":"Point"},"properties":{"osm_id":"1083149617","tag":{"amenity":"waste_disposal"}},"type":"Feature"},
	{"geometry":{"coordinates":[83.112318,54.853862],"type":"Point"},"properties":{"osm_id":"1130739020","tag":{"amenity":"recycling"}},"type":"Feature"},
	{"geometry":{"coordinates":[83.123466,54.846491],"type":"Point"},"properties":{"osm_id":"1150901987","tag":{"amenity":"waste_disposal"}},"type":"Feature"},
	{"geometry":{"coordinates":[83.090155,54.86362],"type":"Point"},"properties":{"osm_id":"1759763005","tag":{"amenity":"waste_disposal"}},"type":"Feature"},
	{"geometry":{"coordinates":[83.089952,54.866702],"type":"Point"},"properties":{"osm_id":"1759763078","tag":{"amenity":"waste_disposal"}},"type":"Feature"},
	{"geometry":{"coordinates":[83.122946,54.848363],"type":"Point"},"properties":{"osm_id":"2478905650","tag":{"amenity":"waste_disposal"}},"type":"Feature"},
	{"geometry":{"coordinates":[83.092038,54.84753],"type":"Point"},"properties":{"osm_id":"3080443629","tag":{"amenity":"waste_disposal"}},"type":"Feature"},
	{"geometry":{"coordinates":[83.093458,54.847586],"type":"Point"},"properties":{"osm_id":"3080443630","tag":{"amenity":"waste_disposal"}},"type":"Feature"},
	{"geometry":{"coordinates":[83.123389,54.843434],"type":"Point"},"properties":{"osm_id":"3285487059","tag":{"amenity":"waste_disposal"}},"type":"Feature"},
	{"geometry":{"coordinates":[83.079266,54.870096],"type":"Point"},"properties":{"osm_id":"4148221033","tag":{"access":"private","amenity":"waste_disposal"}},"type":"Feature"},
	{"geometry":{"coordinates":[83.079185,54.870142],"type":"Point"},"properties":{"osm_id":"4148221034","tag":{"amenity":"recycling","recycling:cans":"yes","recycling:glass":"yes","recycling:plastic_bottles":"yes","recycling_type":"container"}},"type":"Feature"},
	{"geometry":{"coordinates":[83.103399,54.849784],"type":"Point"},"properties":{"osm_id":"4153563283","tag":{"amenity":"recycling","operator":"\u00d0\u00a2\u00d0\u00b0\u00d0\u00b9\u00d0\u00b3\u00d0\u00b5\u00d1\u0080-\u00d0\u00a1\u00d0\u00b8\u00d0\u00b1\u00d0\u00b8\u00d1\u0080\u00d1\u008c","recycling:cans":"yes","recycling:glass":"yes","recycling:glass_bottles":"yes","recycling:plastic":"yes","recycling_type":"container"}},"type":"Feature"},
	{"geometry":{"coordinates":[83.087968,54.839838],"type":"Point"},"properties":{"osm_id":"4308468689","tag":{"amenity":"recycling"}},"type":"Feature"},
	{"geometry":{"coordinates":[83.08274,54.870053],"type":"Point"},"properties":{"osm_id":"4359971104","tag":{"amenity":"waste_disposal"}},"type":"Feature"},
	{"geometry":{"coordinates":[83.081469,54.867401],"type":"Point"},"properties":{"osm_id":"4359972220","tag":{"amenity":"waste_disposal"}},"type":"Feature"},
	{"geometry":{"coordinates":[83.081383,54.871206],"type":"Point"},"properties":{"osm_id":"4359972800","tag":{"amenity":"waste_disposal"}},"type":"Feature"},
	{"geometry":{"coordinates":[83.105576,54.859079],"type":"Point"},"properties":{"osm_id":"5496854554","tag":{"amenity":"waste_disposal"}},"type":"Feature"},
	{"geometry":{"coordinates":[83.096624,54.844709],"type":"Point"},"properties":{"osm_id":"5606919817","tag":{"amenity":"waste_disposal"}},"type":"Feature"},
	{"geometry":{"coordinates":[83.111025,54.849274],"type":"Point"},"properties":{"osm_id":"5613612533","tag":{"amenity":"waste_disposal"}},"type":"Feature"},
	{"geometry":{"coordinates":[83.096708,54.850403],"type":"Point"},"properties":{"osm_id":"5613612534","tag":{"amenity":"waste_disposal"}},"type":"Feature"},
	{"geometry":{"coordinates":[83.092091,54.8456],"type":"Point"},"properties":{"osm_id":"5613760364","tag":{"amenity":"waste_disposal"}},"type":"Feature"},
	{"geometry":{"coordinates":[83.102132,54.841668],"type":"Point"},"properties":{"osm_id":"5635791972","tag":{"amenity":"waste_disposal"}},"type":"Feature"},
	{"geometry":{"coordinates":[83.096434,54.83806],"type":"Point"},"properties":{"osm_id":"5635792109","tag":{"amenity":"waste_disposal"}},"type":"Feature"},
	{"geometry":{"coordinates":[83.087883,54.839442],"type":"Point"},"properties":{"osm_id":"5878682134","tag":{"amenity":"waste_disposal"}},"type":"Feature"},
	{"geometry":{"coordinates":[83.100154,54.84269],"type":"Point"},"properties":{"osm_id":"6549111529","tag":{"amenity":"recycling","recycling:glass":"yes","recycling:plastic":"yes","recycling_type":"container"}},"type":"Feature"},
	{"geometry":{"coordinates":[83.100168,54.842734],"type":"Point"},"properties":{"osm_id":"6549111530","tag":{"amenity":"waste_disposal"}},"type":"Feature"},
	{"geometry":{"coordinates":[83.101427,54.842135],"type":"Point"},"properties":{"osm_id":"6549111531","tag":{"amenity":"waste_disposal"}},"type":"Feature"},
	{"geometry":{"coordinates":[83.101698,54.842112],"type":"Point"},"properties":{"osm_id":"6549111532","tag":{"amenity":"recycling","recycling:glass":"yes","recycling:plastic":"yes","recycling_type":"container"}},"type":"Feature"},
	{"geometry":{"coordinates":[83.095116,54.836398],"type":"Point"},"properties":{"osm_id":"6732198618","tag":{"amenity":"recycling","recycling:cans":"yes","recycling:cardboard":"no","recycling:clothes":"no","recycling:glass":"yes","recycling:glass_bottles":"yes","recycling:paper":"no","recycling:plastic":"yes","recycling:plastic_bottles":"yes","recycling:waste":"no","recycling_type":"container"}},"type":"Feature"},
	{"geometry":{"coordinates":[83.100229,54.843608],"type":"Point"},"properties":{"osm_id":"6944398029","tag":{"amenity":"waste_disposal"}},"type":"Feature"},
	{"geometry":{"coordinates":[83.110424,54.850188],"type":"Point"},"properties":{"osm_id":"6944398030","tag":{"amenity":"waste_disposal"}},"type":"Feature"},
	{"geometry":{"coordinates":[83.098223,54.852199],"type":"Point"},"properties":{"osm_id":"6961660524","tag":{"amenity":"waste_disposal"}},"type":"Feature"},
	{"geometry":{"coordinates":[83.101562,54.844196],"type":"Point"},"properties":{"osm_id":"7040051999","tag":{"amenity":"waste_disposal"}},"type":"Feature"},
	{"geometry":{"coordinates":[83.096378,54.862962],"type":"Point"},"properties":{"name":"\u00d0\u009f\u00d1\u0083\u00d0\u00bd\u00d0\u00ba\u00d1\u0082 \u00d0\u00bf\u00d1\u0080\u00d0\u00b8\u00d0\u00b5\u00d0\u00bc\u00d0\u00b0 \u00d0\u00bc\u00d0\u00b5\u00d1\u0082\u00d0\u00b0\u00d0\u00bb\u00d0\u00bb\u00d0\u00be\u00d0\u00bb\u00d0\u00be\u00d0\u00bc\u00d0\u00b0","osm_id":"7517839886","tag":{"amenity":"recycling"}},"type":"Feature"},
	{"geometry":{"coordinates":[83.090174,54.868285],"type":"Point"},"properties":{"osm_id":"7521540155","tag":{"amenity":"waste_disposal"}},"type":"Feature"},
	{"geometry":{"coordinates":[83.082352,54.869208],"type":"Point"},"properties":{"osm_id":"7529029324","tag":{"amenity":"waste_disposal"}},"type":"Feature"},
	{"geometry":{"coordinates":[83.079635,54.867388],"type":"Point"},"properties":{"osm_id":"7540815971","tag":{"amenity":"waste_disposal"}},"type":"Feature"},
	{"geometry":{"coordinates":[83.098796,54.869237],"type":"Point"},"properties":{"osm_id":"7540855329","tag":{"amenity":"waste_disposal"}},"type":"Feature"},
	{"geometry":{"coordinates":[83.100272,54.843623],"type":"Point"},"properties":{"osm_id":"7552042237","tag":{"amenity":"recycling","operator":"\u00d0\u00a2\u00d0\u00b0\u00d0\u00b9\u00d0\u00b3\u00d0\u00b5\u00d1\u0080-\u00d0\u00a1\u00d0\u00b8\u00d0\u00b1\u00d0\u00b8\u00d1\u0080\u00d1\u008c","recycling:cans":"yes","recycling:glass":"yes","recycling:glass_bottles":"yes","recycling:plastic":"yes","recycling:plastic_bottles":"yes","recycling_type":"container"}},"type":"Feature"},
	{"geometry":{"coordinates":[83.10162,54.844188],"type":"Point"},"properties":{"osm_id":"7552042238","tag":{"amenity":"recycling","operator":"\u00d0\u00a2\u00d0\u00b0\u00d0\u00b9\u00d0\u00b3\u00d0\u00b5\u00d1\u0080-\u00d0\u00a1\u00d0\u00b8\u00d0\u00b1\u00d0\u00b8\u00d1\u0080\u00d1\u008c","recycling:cans":"yes","recycling:glass":"yes","recycling:glass_bottles":"yes","recycling:plastic":"yes","recycling:plastic_bottles":"yes","recycling_type":"container"}},"type":"Feature"},
	{"geometry":{"coordinates":[83.088711,54.84265],"type":"Point"},"properties":{"osm_id":"7552042239","tag":{"amenity":"waste_disposal"}},"type":"Feature"},
	{"geometry":{"coordinates":[83.103434,54.849757],"type":"Point"},"properties":{"osm_id":"7559221422","tag":{"amenity":"waste_disposal"}},"type":"Feature"},
	{"geometry":{"coordinates":[83.099518,54.866542],"type":"Point"},"properties":{"osm_id":"7560030652","tag":{"amenity":"waste_disposal"}},"type":"Feature"},
	{"geometry":{"coordinates":[83.112905,54.857864],"type":"Point"},"properties":{"osm_id":"7563163220","tag":{"amenity":"recycling","operator":"\u00d0\u00a2\u00d0\u00b0\u00d0\u00b9\u00d0\u00b3\u00d0\u00b5\u00d1\u0080-\u00d0\u00a1\u00d0\u00b8\u00d0\u00b1\u00d0\u00b8\u00d1\u0080\u00d1\u008c","recycling:cans":"yes","recycling:glass":"no","recycling:glass_bottles":"yes","recycling:plastic":"no","recycling:plastic_bottles":"yes","recycling:plastic_packaging":"no","recycling_type":"container"}},"type":"Feature"},
	{"geometry":{"coordinates":[83.085257,54.868699],"type":"Point"},"properties":{"osm_id":"7565019494","tag":{"amenity":"recycling","operator":"\u00d0\u00a2\u00d0\u00b0\u00d0\u00b9\u00d0\u00b3\u00d0\u00b5\u00d1\u0080-\u00d0\u00a1\u00d0\u00b8\u00d0\u00b1\u00d0\u00b8\u00d1\u0080\u00d1\u008c","recycling:cans":"yes","recycling:glass_bottles":"yes","recycling:plastic_bottles":"yes","recycling_type":"container"}},"type":"Feature"},
	{"geometry":{"coordinates":[83.085262,54.868669],"type":"Point"},"properties":{"osm_id":"7565019495","tag":{"amenity":"waste_disposal"}},"type":"Feature"},
	{"geometry":{"coordinates":[83.097983,54.871291],"type":"Point"},"properties":{"osm_id":"7601540991","tag":{"amenity":"waste_disposal"}},"type":"Feature"},
	{"geometry":{"coordinates":[83.12375,54.868355],"type":"Point"},"properties":{"osm_id":"7725118089","tag":{"amenity":"waste_disposal"}},"type":"Feature"},
	{"geometry":{"coordinates":[83.094134,54.840133],"type":"Point"},"properties":{"osm_id":"7900035657","tag":{"amenity":"waste_basket"}},"type":"Feature"},
	{"geometry":{"coordinates":[83.097724,54.838175],"type":"Point"},"properties":{"osm_id":"7900100227","tag":{"amenity":"waste_basket","operator":"Clever Pub"}},"type":"Feature"},
	{"geometry":{"coordinates":[83.097544,54.838288],"type":"Point"},"properties":{"osm_id":"7900101895","tag":{"amenity":"waste_basket","operator":"Clever Pub"}},"type":"Feature"},
	{"geometry":{"coordinates":[83.100075,54.836306],"type":"Point"},"properties":{"osm_id":"7900113387","tag":{"amenity":"waste_basket","operator":"Clever Pub"}},"type":"Feature"},
	{"geometry":{"coordinates":[83.094039,54.840004],"type":"Point"},"properties":{"osm_id":"7900117700","tag":{"amenity":"waste_basket"}},"type":"Feature"},
	{"geometry":{"coordinates":[83.098987,54.837173],"type":"Point"},"properties":{"osm_id":"7900119074","tag":{"amenity":"waste_basket","operator":"Clever Pub"}},"type":"Feature"},
	{"geometry":{"coordinates":[83.088561,54.839679],"type":"Point"},"properties":{"osm_id":"7900124033","tag":{"amenity":"waste_basket"}},"type":"Feature"},
	{"geometry":{"coordinates":[83.100127,54.836332],"type":"Point"},"properties":{"osm_id":"7900127776","tag":{"amenity":"waste_basket","operator":"Clever Pub"}},"type":"Feature"}
]
}
