{
"type": "FeatureCollection",
"features": [
	{"geometry":{"coordinates":[13.412872,54.67184],"type":"Point"},"properties":{"osm_id":"848839437","tag":{"amenity":"recycling","recycling_type":"container"}},"type":"Feature"},
	{"geometry":{"coordinates":[13.376731,54.638287],"type":"Point"},"properties":{"name":"M\u00c3\u00bcllpresse","osm_id":"2822761427","tag":{"amenity":"waste_basket"}},"type":"Feature"},
	{"geometry":{"coordinates":[13.432383,54.673627],"type":"Point"},"properties":{"osm_id":"5940864913","tag":{"amenity":"waste_basket"}},"type":"Feature"},
	{"geometry":{"coordinates":[13.43159,54.672363],"type":"Point"},"properties":{"osm_id":"5940864914","tag":{"amenity":"waste_basket"}},"type":"Feature"},
	{"geometry":{"coordinates":[13.431249,54.671412],"type":"Point"},"properties":{"osm_id":"5940864915","tag":{"amenity":"waste_basket"}},"type":"Feature"},
	{"geometry":{"coordinates":[13.431057,54.670833],"type":"Point"},"properties":{"osm_id":"5940864916","tag":{"amenity":"waste_basket"}},"type":"Feature"},
	{"geometry":{"coordinates":[13.431129,54.669704],"type":"Point"},"properties":{"osm_id":"5940864917","tag":{"amenity":"waste_basket"}},"type":"Feature"},
	{"geometry":{"coordinates":[13.419158,54.673686],"type":"Point"},"properties":{"osm_id":"5941010148","tag":{"amenity":"waste_basket"}},"type":"Feature"},
	{"geometry":{"coordinates":[13.431113,54.669763],"type":"Point"},"properties":{"osm_id":"7716350714","tag":{"amenity":"waste_basket"}},"type":"Feature"},
	{"geometry":{"coordinates":[13.431026,54.669564],"type":"Point"},"properties":{"osm_id":"7716356326","tag":{"amenity":"waste_basket"}},"type":"Feature"},
	{"geometry":{"coordinates":[13.431827,54.672762],"type":"Point"},"properties":{"osm_id":"7716367554","tag":{"amenity":"waste_basket"}},"type":"Feature"}
]
}
