{
"type": "FeatureCollection",
"features": [
	{"geometry":{"coordinates":[13.442038,53.335865],"type":"Point"},"properties":{"osm_id":"332625256","tag":{"amenity":"recycling","recycling:glass_bottles":"yes","recycling_type":"container"}},"type":"Feature"},
	{"geometry":{"coordinates":[13.430906,53.342003],"type":"Point"},"properties":{"osm_id":"892459269","tag":{"amenity":"recycling","operator":"SDL","recycling:glass":"yes"}},"type":"Feature"},
	{"geometry":{"coordinates":[13.44025,53.33471],"type":"Point"},"properties":{"osm_id":"892459329","tag":{"amenity":"recycling","location":"overground","operator":"Deutsches Rotes Kreuz","recycling:clothes":"yes","recycling_type":"container"}},"type":"Feature"},
	{"geometry":{"coordinates":[13.439988,53.334513],"type":"Point"},"properties":{"osm_id":"892459350","tag":{"amenity":"recycling","location":"overground","operator":"SDL","recycling:glass":"yes","recycling_type":"container"}},"type":"Feature"},
	{"geometry":{"coordinates":[13.439161,53.334972],"type":"Point"},"properties":{"osm_id":"892459358","tag":{"amenity":"recycling","operator":"Recycling International","recycling:clothes":"yes"}},"type":"Feature"},
	{"geometry":{"coordinates":[13.385402,53.380464],"type":"Point"},"properties":{"osm_id":"1411238341","tag":{"amenity":"recycling","recycling:glass":"yes","recycling_type":"container"}},"type":"Feature"},
	{"geometry":{"coordinates":[13.441435,53.335199],"type":"Point"},"properties":{"osm_id":"2917943461","tag":{"amenity":"waste_basket"}},"type":"Feature"},
	{"geometry":{"coordinates":[13.442216,53.336513],"type":"Point"},"properties":{"osm_id":"2917943472","tag":{"amenity":"waste_basket"}},"type":"Feature"},
	{"geometry":{"coordinates":[13.442479,53.33679],"type":"Point"},"properties":{"osm_id":"2917943473","tag":{"amenity":"waste_basket","canoe":"yes","information":"guidepost","tourism":"information"}},"type":"Feature"},
	{"geometry":{"coordinates":[13.443119,53.340387],"type":"Point"},"properties":{"osm_id":"3839937960","tag":{"amenity":"waste_basket"}},"type":"Feature"},
	{"geometry":{"coordinates":[13.443331,53.340419],"type":"Point"},"properties":{"osm_id":"3839937965","tag":{"amenity":"waste_basket"}},"type":"Feature"},
	{"geometry":{"coordinates":[13.443147,53.340439],"type":"Point"},"properties":{"osm_id":"3839937966","tag":{"amenity":"waste_basket"}},"type":"Feature"},
	{"geometry":{"coordinates":[13.440737,53.340204],"type":"Point"},"properties":{"osm_id":"4933388397","tag":{"amenity":"waste_basket"}},"type":"Feature"},
	{"geometry":{"coordinates":[13.446592,53.351993],"type":"Point"},"properties":{"osm_id":"4933401310","tag":{"amenity":"waste_basket"}},"type":"Feature"},
	{"geometry":{"coordinates":[13.446464,53.35237],"type":"Point"},"properties":{"osm_id":"4933401532","tag":{"amenity":"waste_basket"}},"type":"Feature"},
	{"geometry":{"coordinates":[13.439562,53.334171],"type":"Point"},"properties":{"osm_id":"4933401550","tag":{"amenity":"waste_basket"}},"type":"Feature"},
	{"geometry":{"coordinates":[13.441863,53.336289],"type":"Point"},"properties":{"osm_id":"4933401554","tag":{"amenity":"waste_basket"}},"type":"Feature"},
	{"geometry":{"coordinates":[13.440236,53.336124],"type":"Point"},"properties":{"osm_id":"4933401556","tag":{"amenity":"waste_basket"}},"type":"Feature"},
	{"geometry":{"coordinates":[13.437659,53.33601],"type":"Point"},"properties":{"osm_id":"4933401557","tag":{"amenity":"waste_basket"}},"type":"Feature"},
	{"geometry":{"coordinates":[13.437473,53.33594],"type":"Point"},"properties":{"osm_id":"4933401558","tag":{"amenity":"waste_basket"}},"type":"Feature"},
	{"geometry":{"coordinates":[13.446556,53.351663],"type":"Point"},"properties":{"osm_id":"4933401763","tag":{"amenity":"waste_basket"}},"type":"Feature"},
	{"geometry":{"coordinates":[13.446513,53.352197],"type":"Point"},"properties":{"osm_id":"4933401764","tag":{"amenity":"waste_basket"}},"type":"Feature"},
	{"geometry":{"coordinates":[13.439535,53.333685],"type":"Point"},"properties":{"osm_id":"4933401782","tag":{"amenity":"waste_basket"}},"type":"Feature"},
	{"geometry":{"coordinates":[13.441277,53.331505],"type":"Point"},"properties":{"osm_id":"4933401784","tag":{"amenity":"waste_basket"}},"type":"Feature"},
	{"geometry":{"coordinates":[13.441828,53.335523],"type":"Point"},"properties":{"osm_id":"4933401785","tag":{"amenity":"waste_basket"}},"type":"Feature"},
	{"geometry":{"coordinates":[13.437562,53.335988],"type":"Point"},"properties":{"osm_id":"4933401789","tag":{"amenity":"waste_basket"}},"type":"Feature"},
	{"geometry":{"coordinates":[13.441156,53.335984],"type":"Point"},"properties":{"osm_id":"4933401831","tag":{"amenity":"waste_basket"}},"type":"Feature"},
	{"geometry":{"coordinates":[13.437046,53.335823],"type":"Point"},"properties":{"osm_id":"4933401836","tag":{"amenity":"waste_basket"}},"type":"Feature"},
	{"geometry":{"coordinates":[13.436931,53.335269],"type":"Point"},"properties":{"osm_id":"4933401837","tag":{"amenity":"waste_basket"}},"type":"Feature"},
	{"geometry":{"coordinates":[13.444749,53.343898],"type":"Point"},"properties":{"osm_id":"4933401838","tag":{"amenity":"waste_basket"}},"type":"Feature"},
	{"geometry":{"coordinates":[13.442499,53.342592],"type":"Point"},"properties":{"osm_id":"4933401839","tag":{"amenity":"waste_basket"}},"type":"Feature"},
	{"geometry":{"coordinates":[13.440099,53.341056],"type":"Point"},"properties":{"osm_id":"4933401841","tag":{"amenity":"waste_basket"}},"type":"Feature"},
	{"geometry":{"coordinates":[13.431382,53.331634],"type":"Point"},"properties":{"osm_id":"7795477252","tag":{"amenity":"waste_basket","operator":"Total-Tankstelle"}},"type":"Feature"}
]
}
