{
"type": "FeatureCollection",
"features": [
	{"geometry":{"coordinates":[13.377632,52.675175],"type":"Point"},"properties":{"highway":"bus_stop","name":"Triftweg","osm_id":"429359651","tag":{"amenity":"waste_basket","bus":"yes","public_transport":"platform","shelter":"yes"}},"type":"Feature"},
	{"geometry":{"coordinates":[13.377117,52.675833],"type":"Point"},"properties":{"highway":"bus_stop","name":"Triftweg","osm_id":"429359652","tag":{"amenity":"waste_basket","bus":"yes","public_transport":"platform","shelter":"yes"}},"type":"Feature"},
	{"geometry":{"coordinates":[13.432341,52.679957],"type":"Point"},"properties":{"osm_id":"597836078","tag":{"amenity":"waste_basket"}},"type":"Feature"},
	{"geometry":{"coordinates":[13.432048,52.68125],"type":"Point"},"properties":{"barrier":"gate","osm_id":"611070146"},"type":"Feature"},
	{"geometry":{"coordinates":[13.432349,52.680081],"type":"Point"},"properties":{"osm_id":"611104067","tag":{"amenity":"waste_basket"}},"type":"Feature"},
	{"geometry":{"coordinates":[13.432354,52.680159],"type":"Point"},"properties":{"osm_id":"611104070","tag":{"amenity":"waste_basket"}},"type":"Feature"},
	{"geometry":{"coordinates":[13.426336,52.682911],"type":"Point"},"properties":{"osm_id":"642224628","tag":{"amenity":"waste_basket"}},"type":"Feature"},
	{"geometry":{"coordinates":[13.378514,52.656943],"type":"Point"},"properties":{"osm_id":"719051939","tag":{"amenity":"recycling"}},"type":"Feature"},
	{"geometry":{"coordinates":[13.374685,52.683175],"type":"Point"},"properties":{"osm_id":"2180460728","tag":{"amenity":"recycling","recycling_type":"container"}},"type":"Feature"},
	{"geometry":{"coordinates":[13.384984,52.663819],"type":"Point"},"properties":{"osm_id":"2346907501","tag":{"amenity":"recycling","recycling_type":"container"}},"type":"Feature"},
	{"geometry":{"coordinates":[13.370999,52.647445],"type":"Point"},"properties":{"osm_id":"2360609375","tag":{"amenity":"recycling","recycling:glass":"yes","recycling_type":"container"}},"type":"Feature"},
	{"geometry":{"coordinates":[13.372589,52.684658],"type":"Point"},"properties":{"highway":"bus_stop","name":"Seering","osm_id":"2597305509","tag":{"amenity":"waste_basket","bus":"yes","public_transport":"platform","shelter":"yes"}},"type":"Feature"},
	{"geometry":{"coordinates":[13.377042,52.651963],"type":"Point"},"properties":{"osm_id":"3235777781","tag":{"access":"private","entrance":"yes"}},"type":"Feature"},
	{"geometry":{"coordinates":[13.365994,52.646356],"type":"Point"},"properties":{"barrier":"gate","osm_id":"3727122036"},"type":"Feature"},
	{"geometry":{"coordinates":[13.441221,52.665095],"type":"Point"},"properties":{"osm_id":"4841137255","tag":{"amenity":"waste_basket"}},"type":"Feature"},
	{"geometry":{"coordinates":[13.422004,52.681223],"type":"Point"},"properties":{"osm_id":"6482848249","tag":{"amenity":"recycling","recycling:clothes":"yes","recycling:glass":"yes","recycling_type":"container"}},"type":"Feature"},
	{"geometry":{"coordinates":[13.376848,52.647826],"type":"Point"},"properties":{"osm_id":"7895195585","tag":{"amenity":"waste_basket","colour":"#828184","indoor":"no","material":"steel","waste":"mixed"}},"type":"Feature"},
	{"geometry":{"coordinates":[13.387012,52.654285],"type":"Point"},"properties":{"osm_id":"8040269048","tag":{"amenity":"waste_basket","colour":"#e2811e","material":"plastic","waste":"mixed"}},"type":"Feature"},
	{"geometry":{"coordinates":[13.388141,52.654041],"type":"Point"},"properties":{"osm_id":"8040271992","tag":{"amenity":"waste_basket","colour":"#e2811e","material":"plastic","waste":"mixed"}},"type":"Feature"},
	{"geometry":{"coordinates":[13.385407,52.658268],"type":"Point"},"properties":{"osm_id":"8241544228","tag":{"amenity":"waste_basket","colour":"#04266e","material":"steel","waste":"mixed"}},"type":"Feature"},
	{"geometry":{"coordinates":[13.385825,52.658157],"type":"Point"},"properties":{"osm_id":"8241544230","tag":{"amenity":"waste_basket","colour":"#04266e","material":"steel","waste":"mixed"}},"type":"Feature"},
	{"geometry":{"coordinates":[13.385935,52.658133],"type":"Point"},"properties":{"osm_id":"8241544235","tag":{"amenity":"waste_basket","colour":"#04266e","material":"steel","waste":"mixed"}},"type":"Feature"},
	{"geometry":{"coordinates":[13.386068,52.658132],"type":"Point"},"properties":{"osm_id":"8241544237","tag":{"amenity":"waste_basket","colour":"#04266e","material":"steel","waste":"mixed"}},"type":"Feature"},
	{"geometry":{"coordinates":[13.386043,52.6581],"type":"Point"},"properties":{"osm_id":"8241544238","tag":{"amenity":"waste_basket","colour":"#04266e","material":"steel","waste":"mixed"}},"type":"Feature"},
	{"geometry":{"coordinates":[13.38621,52.658055],"type":"Point"},"properties":{"osm_id":"8241544242","tag":{"amenity":"waste_basket","colour":"#04266e","material":"steel","waste":"mixed"}},"type":"Feature"},
	{"geometry":{"coordinates":[13.386374,52.658013],"type":"Point"},"properties":{"osm_id":"8241544247","tag":{"amenity":"waste_basket","colour":"#04266e","material":"steel","waste":"mixed"}},"type":"Feature"},
	{"geometry":{"coordinates":[13.386598,52.657951],"type":"Point"},"properties":{"osm_id":"8241544252","tag":{"amenity":"waste_basket","colour":"#04266e","material":"steel","waste":"mixed"}},"type":"Feature"},
	{"geometry":{"coordinates":[13.386798,52.657898],"type":"Point"},"properties":{"osm_id":"8241544253","tag":{"amenity":"waste_basket","colour":"#04266e","material":"steel","waste":"mixed"}},"type":"Feature"},
	{"geometry":{"coordinates":[13.386925,52.657867],"type":"Point"},"properties":{"osm_id":"8241544254","tag":{"amenity":"waste_basket","colour":"#04266e","material":"steel","waste":"mixed"}},"type":"Feature"},
	{"geometry":{"coordinates":[13.387047,52.657831],"type":"Point"},"properties":{"osm_id":"8241544255","tag":{"amenity":"waste_basket","colour":"#04266e","material":"steel","waste":"mixed"}},"type":"Feature"},
	{"geometry":{"coordinates":[13.38726,52.657918],"type":"Point"},"properties":{"osm_id":"8241544256","tag":{"amenity":"waste_basket","colour":"#04266e","material":"steel","waste":"mixed"}},"type":"Feature"},
	{"geometry":{"coordinates":[13.369797,52.687975],"type":"Point"},"properties":{"osm_id":"8569111905","tag":{"amenity":"recycling","recycling:clothes":"yes","recycling_type":"container"}},"type":"Feature"},
	{"geometry":{"coordinates":[13.365975,52.691712],"type":"Point"},"properties":{"osm_id":"8569111963","tag":{"amenity":"waste_basket"}},"type":"Feature"},
	{"geometry":{"coordinates":[13.366431,52.692763],"type":"Point"},"properties":{"osm_id":"8588569019","tag":{"amenity":"waste_basket"}},"type":"Feature"},
	{"geometry":{"coordinates":[13.366503,52.693245],"type":"Point"},"properties":{"osm_id":"8588569024","tag":{"amenity":"waste_basket"}},"type":"Feature"},
	{"geometry":{"coordinates":[13.439641,52.678856],"type":"Point"},"properties":{"osm_id":"9081193831","tag":{"amenity":"waste_basket","colour":"#8c6e52","waste":"mixed"}},"type":"Feature"}
]
}
