{
"type": "FeatureCollection",
"features": [
	{"geometry":{"coordinates":[13.379477,52.595678],"type":"Point"},"properties":{"osm_id":"388414297","tag":{"amenity":"recycling","recycling:glass_bottles":"yes","recycling_type":"container"}},"type":"Feature"},
	{"geometry":{"coordinates":[13.366162,52.592495],"type":"Point"},"properties":{"osm_id":"389391824","tag":{"amenity":"recycling","location":"overground","recycling:glass_bottles":"yes","recycling_type":"container"}},"type":"Feature"},
	{"geometry":{"coordinates":[13.384164,52.59092],"type":"Point"},"properties":{"osm_id":"413579921","tag":{"amenity":"recycling","recycling:glass_bottles":"yes","recycling_type":"container"}},"type":"Feature"},
	{"geometry":{"coordinates":[13.431746,52.613827],"type":"Point"},"properties":{"osm_id":"429878219","tag":{"amenity":"recycling","recycling_type":"container"}},"type":"Feature"},
	{"geometry":{"coordinates":[13.388047,52.62083],"type":"Point"},"properties":{"osm_id":"832913693","tag":{"amenity":"recycling","recycling:glass_bottles":"yes","recycling_type":"container"}},"type":"Feature"},
	{"geometry":{"coordinates":[13.366688,52.605031],"type":"Point"},"properties":{"osm_id":"988742272","tag":{"amenity":"recycling","location":"overground","recycling:glass_bottles":"yes","recycling_type":"container"}},"type":"Feature"},
	{"geometry":{"coordinates":[13.398931,52.62221],"type":"Point"},"properties":{"osm_id":"1608594111","tag":{"amenity":"recycling","recycling:glass_bottles":"yes","recycling_type":"container"}},"type":"Feature"},
	{"geometry":{"coordinates":[13.428247,52.589745],"type":"Point"},"properties":{"osm_id":"1628927250","tag":{"amenity":"recycling","recycling:glass_bottles":"yes","recycling_type":"container"}},"type":"Feature"},
	{"geometry":{"coordinates":[13.432523,52.594591],"type":"Point"},"properties":{"osm_id":"2477745119","tag":{"amenity":"recycling","recycling:glass_bottles":"yes","recycling_type":"container"}},"type":"Feature"},
	{"geometry":{"coordinates":[13.42804,52.607856],"type":"Point"},"properties":{"osm_id":"2478939039","tag":{"amenity":"recycling","location":"overground","recycling:glass_bottles":"yes","recycling_type":"container"}},"type":"Feature"},
	{"geometry":{"coordinates":[13.420991,52.606697],"type":"Point"},"properties":{"osm_id":"2487590991","tag":{"amenity":"recycling","location":"overground","recycling:glass_bottles":"yes","recycling_type":"container"}},"type":"Feature"},
	{"geometry":{"coordinates":[13.431541,52.602685],"type":"Point"},"properties":{"osm_id":"2493513521","tag":{"amenity":"recycling","recycling:glass_bottles":"yes","recycling_type":"container"}},"type":"Feature"},
	{"geometry":{"coordinates":[13.399897,52.64048],"type":"Point"},"properties":{"osm_id":"2675474222","tag":{"amenity":"recycling","recycling:glass_bottles":"yes","recycling_type":"container"}},"type":"Feature"},
	{"geometry":{"coordinates":[13.373651,52.640135],"type":"Point"},"properties":{"osm_id":"3045668101","tag":{"amenity":"recycling"}},"type":"Feature"},
	{"geometry":{"coordinates":[13.363065,52.597134],"type":"Point"},"properties":{"osm_id":"3979742191","tag":{"amenity":"waste_basket"}},"type":"Feature"},
	{"geometry":{"coordinates":[13.431046,52.612018],"type":"Point"},"properties":{"osm_id":"3997258810","tag":{"amenity":"waste_basket"}},"type":"Feature"},
	{"geometry":{"coordinates":[13.37923,52.616447],"type":"Point"},"properties":{"osm_id":"4420524465","tag":{"amenity":"waste_basket"}},"type":"Feature"},
	{"geometry":{"coordinates":[13.365473,52.620739],"type":"Point"},"properties":{"osm_id":"4908056676","tag":{"amenity":"waste_basket","colour":"grey","material":"steel","waste":"mixed"}},"type":"Feature"},
	{"geometry":{"coordinates":[13.377059,52.635622],"type":"Point"},"properties":{"osm_id":"5215196643","tag":{"amenity":"waste_basket"}},"type":"Feature"},
	{"geometry":{"coordinates":[13.377077,52.63594],"type":"Point"},"properties":{"osm_id":"5215196646","tag":{"amenity":"waste_basket"}},"type":"Feature"},
	{"geometry":{"coordinates":[13.375912,52.636058],"type":"Point"},"properties":{"osm_id":"5215196659","tag":{"amenity":"waste_basket"}},"type":"Feature"},
	{"geometry":{"coordinates":[13.373557,52.636941],"type":"Point"},"properties":{"osm_id":"5497741698","tag":{"amenity":"waste_basket"}},"type":"Feature"},
	{"geometry":{"coordinates":[13.373883,52.636865],"type":"Point"},"properties":{"osm_id":"5497741699","tag":{"amenity":"waste_basket"}},"type":"Feature"},
	{"geometry":{"coordinates":[13.389786,52.61842],"type":"Point"},"properties":{"osm_id":"5741271125","tag":{"amenity":"waste_basket"}},"type":"Feature"},
	{"geometry":{"coordinates":[13.376529,52.641379],"type":"Point"},"properties":{"osm_id":"5745703621","tag":{"amenity":"waste_basket"}},"type":"Feature"},
	{"geometry":{"coordinates":[13.39982,52.640427],"type":"Point"},"properties":{"osm_id":"6820642720","tag":{"amenity":"recycling","recycling:clothes":"yes","recycling_type":"container"}},"type":"Feature"},
	{"geometry":{"coordinates":[13.382618,52.629886],"type":"Point"},"properties":{"osm_id":"7683572267","tag":{"amenity":"waste_basket","colour":"orange","material":"plastic","waste":"mixed"}},"type":"Feature"},
	{"geometry":{"coordinates":[13.382687,52.630202],"type":"Point"},"properties":{"osm_id":"7683572269","tag":{"amenity":"waste_basket","colour":"orange","material":"plastic","waste":"mixed"}},"type":"Feature"},
	{"geometry":{"coordinates":[13.37173,52.597404],"type":"Point"},"properties":{"osm_id":"7750173255","tag":{"amenity":"recycling","recycling:clothes":"yes","recycling_type":"container"}},"type":"Feature"}
]
}
