{
"type": "FeatureCollection",
"features": [
	{"geometry":{"coordinates":[13.405652,52.537644],"type":"Point"},"properties":{"osm_id":"305471774","tag":{"amenity":"recycling","recycling:glass_bottles":"yes","recycling_type":"container"}},"type":"Feature"},
	{"geometry":{"coordinates":[13.387759,52.567297],"type":"Point"},"properties":{"osm_id":"338497703","tag":{"amenity":"recycling","brown":"yes","green":"yes","location":"overground","operator":"Karl Meyer AG","recycling:glass_bottles":"yes","recycling_type":"container","white":"yes"}},"type":"Feature"},
	{"geometry":{"coordinates":[13.379144,52.566168],"type":"Point"},"properties":{"osm_id":"339115079","tag":{"amenity":"recycling","green":"yes","location":"overground","operator":"Karl Meyer AG","recycling:glass_bottles":"yes","recycling_type":"container","white":"yes"}},"type":"Feature"},
	{"geometry":{"coordinates":[13.376819,52.559027],"type":"Point"},"properties":{"osm_id":"339115156","tag":{"amenity":"recycling","brown":"yes","green":"yes","operator":"Karl Meyer AG","recycling:glass_bottles":"yes","recycling_type":"container","white":"yes"}},"type":"Feature"},
	{"geometry":{"coordinates":[13.391449,52.551647],"type":"Point"},"properties":{"osm_id":"339115213","tag":{"amenity":"recycling","green":"yes","operator":"Karl Meyer AG","recycling:glass_bottles":"yes","recycling_type":"container","white":"yes"}},"type":"Feature"},
	{"geometry":{"coordinates":[13.370616,52.56416],"type":"Point"},"properties":{"osm_id":"339227524","tag":{"amenity":"recycling","brown":"yes","green":"yes","recycling:glass_bottles":"yes","recycling_type":"container","white":"yes"}},"type":"Feature"},
	{"geometry":{"coordinates":[13.367002,52.563965],"type":"Point"},"properties":{"osm_id":"339228080","tag":{"amenity":"recycling","green":"yes","operator":"Karl Meyer AG","recycling:glass_bottles":"yes","recycling_type":"container","white":"yes"}},"type":"Feature"},
	{"geometry":{"coordinates":[13.360021,52.554292],"type":"Point"},"properties":{"osm_id":"339228082","tag":{"amenity":"recycling","green":"yes","recycling:glass_bottles":"yes","recycling_type":"container","white":"yes"}},"type":"Feature"},
	{"geometry":{"coordinates":[13.362854,52.544808],"type":"Point"},"properties":{"osm_id":"339369413","tag":{"amenity":"recycling","green":"yes","recycling:glass_bottles":"yes","recycling_type":"container","white":"yes"}},"type":"Feature"},
	{"geometry":{"coordinates":[13.36678,52.542247],"type":"Point"},"properties":{"osm_id":"339369504","tag":{"amenity":"recycling","brown":"yes","green":"yes","recycling:glass_bottles":"yes","recycling_type":"container","white":"yes"}},"type":"Feature"},
	{"geometry":{"coordinates":[13.36535,52.556711],"type":"Point"},"properties":{"osm_id":"343155792","ref":"B969","tag":{"amenity":"recycling","operator":"Humana","recycling:clothes":"yes"}},"type":"Feature"},
	{"geometry":{"coordinates":[13.3653,52.556708],"type":"Point"},"properties":{"osm_id":"343155793","ref":"S82","tag":{"amenity":"recycling","operator":"Humana","recycling:shoes":"yes"}},"type":"Feature"},
	{"geometry":{"coordinates":[13.360931,52.548399],"type":"Point"},"properties":{"osm_id":"343397770","tag":{"amenity":"recycling","brown":"yes","green":"yes","operator":"Karl Meyer AG","recycling:glass_bottles":"yes","recycling_type":"container","white":"yes"}},"type":"Feature"},
	{"geometry":{"coordinates":[13.446085,52.544529],"type":"Point"},"properties":{"osm_id":"344455310","tag":{"amenity":"recycling","recycling:glass_bottles":"yes","recycling_type":"container"}},"type":"Feature"},
	{"geometry":{"coordinates":[13.389765,52.562566],"type":"Point"},"properties":{"osm_id":"349896993","tag":{"amenity":"recycling","operator":"RS","recycling:clothes":"yes","recycling:shoes":"yes"}},"type":"Feature"},
	{"geometry":{"coordinates":[13.391141,52.563182],"type":"Point"},"properties":{"osm_id":"349898356","tag":{"amenity":"recycling","operator":"RS","recycling:clothes":"yes","recycling:shoes":"yes","recycling_type":"container"}},"type":"Feature"},
	{"geometry":{"coordinates":[13.391182,52.5632],"type":"Point"},"properties":{"osm_id":"349898359","tag":{"amenity":"recycling","recycling:clothes":"yes","recycling:shoes":"yes","recycling_type":"container"}},"type":"Feature"},
	{"geometry":{"coordinates":[13.391021,52.563087],"type":"Point"},"properties":{"osm_id":"349898360","tag":{"amenity":"recycling","green":"yes","recycling:glass_bottles":"yes","recycling_type":"container","white":"yes"}},"type":"Feature"},
	{"geometry":{"coordinates":[13.377351,52.553476],"type":"Point"},"properties":{"osm_id":"349901674","tag":{"amenity":"recycling","brown":"yes","green":"yes","operator":"Karl Meyer AG","recycling:glass_bottles":"yes","recycling_type":"container","white":"yes"}},"type":"Feature"},
	{"geometry":{"coordinates":[13.417869,52.543831],"type":"Point"},"properties":{"osm_id":"364316397","tag":{"amenity":"recycling","operator":"Humana","recycling:clothes":"yes","recycling:shoes":"yes","recycling_type":"container"}},"type":"Feature"},
	{"geometry":{"coordinates":[13.412696,52.562349],"type":"Point"},"properties":{"osm_id":"388415435","tag":{"amenity":"recycling","location":"overground","recycling:glass_bottles":"yes","recycling_type":"container"}},"type":"Feature"},
	{"geometry":{"coordinates":[13.38522,52.583149],"type":"Point"},"properties":{"osm_id":"390474303","tag":{"amenity":"recycling","location":"overground","recycling:glass_bottles":"yes","recycling_type":"container"}},"type":"Feature"},
	{"geometry":{"coordinates":[13.41166,52.560127],"type":"Point"},"properties":{"osm_id":"401237999","tag":{"amenity":"recycling","recycling:glass_bottles":"yes","recycling_type":"container"}},"type":"Feature"},
	{"geometry":{"coordinates":[13.43149,52.550404],"type":"Point"},"properties":{"osm_id":"401243531","tag":{"amenity":"recycling","recycling:glass_bottles":"yes","recycling_type":"container"}},"type":"Feature"},
	{"geometry":{"coordinates":[13.446175,52.558542],"type":"Point"},"properties":{"osm_id":"448818336","tag":{"amenity":"recycling","location":"overground","recycling:glass_bottles":"yes","recycling_type":"container"}},"type":"Feature"},
	{"geometry":{"coordinates":[13.375921,52.542499],"type":"Point"},"properties":{"osm_id":"531221905","tag":{"amenity":"recycling","brand":"Deutsches Rotes Kreuz","count":"2","operator":"Deutsches Rotes Kreuz","recycling:clothes":"yes","recycling_type":"container"}},"type":"Feature"},
	{"geometry":{"coordinates":[13.397546,52.585802],"type":"Point"},"properties":{"osm_id":"549220914","tag":{"amenity":"recycling","recycling:glass_bottles":"yes","recycling_type":"container"}},"type":"Feature"},
	{"geometry":{"coordinates":[13.433584,52.552817],"type":"Point"},"properties":{"osm_id":"570293246","tag":{"amenity":"recycling","recycling:clothes":"yes","recycling_type":"container"}},"type":"Feature"},
	{"geometry":{"coordinates":[13.446564,52.573018],"type":"Point"},"properties":{"osm_id":"583760365","tag":{"amenity":"recycling"}},"type":"Feature"},
	{"geometry":{"coordinates":[13.44681,52.568857],"type":"Point"},"properties":{"osm_id":"583790772","tag":{"amenity":"recycling","recycling:glass_bottles":"yes","recycling_type":"container"}},"type":"Feature"},
	{"geometry":{"coordinates":[13.434293,52.540644],"type":"Point"},"properties":{"osm_id":"599597088","tag":{"amenity":"recycling","recycling:glass_bottles":"yes","recycling_type":"container"}},"type":"Feature"},
	{"geometry":{"coordinates":[13.42068,52.542578],"type":"Point"},"properties":{"osm_id":"611144224","tag":{"amenity":"recycling","recycling:glass_bottles":"yes","recycling_type":"container"}},"type":"Feature"},
	{"geometry":{"coordinates":[13.445481,52.572384],"type":"Point"},"properties":{"osm_id":"618443483","tag":{"amenity":"recycling","recycling:paper":"yes"}},"type":"Feature"},
	{"geometry":{"coordinates":[13.402807,52.551163],"type":"Point"},"properties":{"barrier":"gate","osm_id":"625728265","tag":{"access":"customers"}},"type":"Feature"},
	{"geometry":{"coordinates":[13.403196,52.551199],"type":"Point"},"properties":{"barrier":"gate","osm_id":"625728269","tag":{"access":"customers","addr:city":"Berlin","addr:country":"DE","addr:housenumber":"76","addr:postcode":"10439","addr:street":"Behmstra\u00c3\u009fe","addr:suburb":"Prenzlauer Berg","source:addr":"Geoportal Berlin / Hauskoordinaten"}},"type":"Feature"},
	{"geometry":{"coordinates":[13.403481,52.550502],"type":"Point"},"properties":{"barrier":"gate","osm_id":"625728273","tag":{"access":"private"}},"type":"Feature"},
	{"geometry":{"coordinates":[13.391782,52.555037],"type":"Point"},"properties":{"osm_id":"631984924","tag":{"amenity":"recycling","operator":"Karl Meyer Rohstoffverwertung","recycling:glass_bottles":"yes","recycling_type":"container"}},"type":"Feature"},
	{"geometry":{"coordinates":[13.408475,52.551588],"type":"Point"},"properties":{"osm_id":"632382501","tag":{"amenity":"waste_basket"}},"type":"Feature"},
	{"geometry":{"coordinates":[13.408563,52.552071],"type":"Point"},"properties":{"osm_id":"632382503","tag":{"amenity":"waste_basket"}},"type":"Feature"},
	{"geometry":{"coordinates":[13.389988,52.553552],"type":"Point"},"properties":{"osm_id":"672774615","tag":{"amenity":"recycling","location":"overground","recycling:clothes":"yes","recycling_type":"container"}},"type":"Feature"},
	{"geometry":{"coordinates":[13.413094,52.558606],"type":"Point"},"properties":{"osm_id":"673084078","tag":{"amenity":"recycling","recycling:glass_bottles":"yes","recycling_type":"container"}},"type":"Feature"},
	{"geometry":{"coordinates":[13.426743,52.562925],"type":"Point"},"properties":{"osm_id":"675450901","tag":{"amenity":"recycling","recycling:glass_bottles":"yes","recycling_type":"container"}},"type":"Feature"},
	{"geometry":{"coordinates":[13.436337,52.565789],"type":"Point"},"properties":{"osm_id":"676171381","tag":{"amenity":"recycling","recycling:glass_bottles":"yes","recycling_type":"container"}},"type":"Feature"},
	{"geometry":{"coordinates":[13.376427,52.549334],"type":"Point"},"properties":{"osm_id":"707356121","tag":{"amenity":"recycling","recycling:glass_bottles":"yes","recycling_type":"container"}},"type":"Feature"},
	{"geometry":{"coordinates":[13.374703,52.548213],"type":"Point"},"properties":{"osm_id":"707365145","ref":"S376;B1205","tag":{"amenity":"recycling","operator":"Humana","recycling:clothes":"yes","recycling:shoes":"yes"}},"type":"Feature"},
	{"geometry":{"coordinates":[13.370661,52.548496],"type":"Point"},"properties":{"osm_id":"707456091","tag":{"amenity":"recycling","recycling:glass_bottles":"yes","recycling_type":"container"}},"type":"Feature"},
	{"geometry":{"coordinates":[13.439646,52.541112],"type":"Point"},"properties":{"osm_id":"737212481","tag":{"amenity":"recycling","recycling:glass_bottles":"yes","recycling_type":"container"}},"type":"Feature"},
	{"geometry":{"coordinates":[13.429446,52.544932],"type":"Point"},"properties":{"osm_id":"737216262","tag":{"addr:city":"Berlin","addr:postcode":"10409","addr:street":"Grellstra\u00c3\u009fe","amenity":"recycling","operator":"Karl Meyer Rohstoffverwertung GmbH","recycling:cans":"no","recycling:clothes":"no","recycling:glass_bottles":"yes","recycling:paper":"no","recycling:plastic":"no","recycling_type":"container"}},"type":"Feature"},
	{"geometry":{"coordinates":[13.432068,52.54382],"type":"Point"},"properties":{"osm_id":"737216267","tag":{"amenity":"recycling","recycling:glass_bottles":"yes","recycling_type":"container"}},"type":"Feature"},
	{"geometry":{"coordinates":[13.388644,52.552034],"type":"Point"},"properties":{"osm_id":"738241925","tag":{"amenity":"recycling","brand":"Gew. Fa. Mettex","operator":"Gew. Fa. Mettex","recycling:clothes":"yes"}},"type":"Feature"},
	{"geometry":{"coordinates":[13.401616,52.587247],"type":"Point"},"properties":{"osm_id":"747200055","tag":{"amenity":"recycling","recycling:clothes":"yes","recycling:shoes":"yes","recycling_type":"container"}},"type":"Feature"},
	{"geometry":{"coordinates":[13.398522,52.576954],"type":"Point"},"properties":{"osm_id":"747200089","tag":{"amenity":"recycling","recycling:clothes":"yes","recycling:shoes":"yes","recycling_type":"container"}},"type":"Feature"},
	{"geometry":{"coordinates":[13.421448,52.582452],"type":"Point"},"properties":{"osm_id":"766718536","tag":{"amenity":"recycling","location":"overground","recycling:glass_bottles":"yes","recycling_type":"container"}},"type":"Feature"},
	{"geometry":{"coordinates":[13.433395,52.557808],"type":"Point"},"properties":{"osm_id":"770651401","tag":{"amenity":"recycling","recycling:glass_bottles":"yes","recycling_type":"container"}},"type":"Feature"},
	{"geometry":{"coordinates":[13.396171,52.537698],"type":"Point"},"properties":{"osm_id":"793020066","tag":{"amenity":"recycling","operator":"Familienschutzwerk","recycling:clothes":"yes","recycling_type":"container"}},"type":"Feature"},
	{"geometry":{"coordinates":[13.390641,52.53655],"type":"Point"},"properties":{"osm_id":"793020070","tag":{"amenity":"recycling","operator":"Karl Meyer Rohstoffverwertung","recycling:glass_bottles":"yes","recycling_type":"container"}},"type":"Feature"},
	{"geometry":{"coordinates":[13.393507,52.537059],"type":"Point"},"properties":{"osm_id":"793020079","tag":{"amenity":"recycling","operator":"Humana","recycling:clothes":"yes","recycling_type":"container"}},"type":"Feature"},
	{"geometry":{"coordinates":[13.398795,52.539182],"type":"Point"},"properties":{"osm_id":"793735819","tag":{"amenity":"recycling","operator":"Bera Textilrecycling","recycling:clothes":"yes","recycling_type":"container"}},"type":"Feature"},
	{"geometry":{"coordinates":[13.399185,52.538655],"type":"Point"},"properties":{"osm_id":"793735858","tag":{"amenity":"recycling","operator":"RS","recycling:clothes":"yes","recycling_type":"container"}},"type":"Feature"},
	{"geometry":{"coordinates":[13.40549,52.541032],"type":"Point"},"properties":{"osm_id":"793735861","tag":{"amenity":"recycling","operator":"Humana","recycling:clothes":"yes","recycling_type":"container"}},"type":"Feature"},
	{"geometry":{"coordinates":[13.401134,52.538179],"type":"Point"},"properties":{"osm_id":"793735865","tag":{"amenity":"recycling","operator":"Familienschutzwerk","recycling:clothes":"yes","recycling_type":"container"}},"type":"Feature"},
	{"geometry":{"coordinates":[13.402278,52.539899],"type":"Point"},"properties":{"osm_id":"793735868","tag":{"amenity":"recycling","brand":"Berlin-Textilrecycling","operator":"Berlin-Textilrecycling","recycling:clothes":"yes","recycling_type":"container"}},"type":"Feature"},
	{"geometry":{"coordinates":[13.401327,52.538261],"type":"Point"},"properties":{"osm_id":"793735872","tag":{"amenity":"recycling","brand":"Gew. Fa. Mettex","count":"2","operator":"Gew. Fa. Mettex","recycling:clothes":"yes","recycling_type":"container"}},"type":"Feature"},
	{"geometry":{"coordinates":[13.432188,52.549742],"type":"Point"},"properties":{"osm_id":"830077041","tag":{"access":"private","amenity":"recycling"}},"type":"Feature"},
	{"geometry":{"coordinates":[13.360037,52.575094],"type":"Point"},"properties":{"osm_id":"831052743","tag":{"amenity":"recycling","operator":"Deutsches Rotes Kreuz","recycling:clothes":"yes"}},"type":"Feature"},
	{"geometry":{"coordinates":[13.363368,52.571453],"type":"Point"},"properties":{"osm_id":"831530013","tag":{"amenity":"recycling","mapillary":"_MCQJCOfjLzO9cHh3slO5Q","operator":"RS","recycling:clothes":"yes","recycling_type":"container","survey:date":"2020-01-18"}},"type":"Feature"},
	{"geometry":{"coordinates":[13.367704,52.574604],"type":"Point"},"properties":{"osm_id":"831530060","tag":{"amenity":"recycling","operator":"Karl Meyer Rohstoffverwertung","recycling:glass_bottles":"yes","recycling_type":"container"}},"type":"Feature"},
	{"geometry":{"coordinates":[13.367906,52.574674],"type":"Point"},"properties":{"osm_id":"831530114","tag":{"amenity":"recycling","operator":"RS","recycling:clothes":"yes","recycling_type":"container"}},"type":"Feature"},
	{"geometry":{"coordinates":[13.366229,52.574626],"type":"Point"},"properties":{"osm_id":"831530155","tag":{"amenity":"recycling","operator":"Obdachlosenhilfe Die Br\u00c3\u00bccke","recycling:clothes":"yes"}},"type":"Feature"},
	{"geometry":{"coordinates":[13.360565,52.576631],"type":"Point"},"properties":{"osm_id":"831530205","tag":{"amenity":"recycling","operator":"Humana","recycling:clothes":"yes"}},"type":"Feature"},
	{"geometry":{"coordinates":[13.366708,52.558021],"type":"Point"},"properties":{"osm_id":"832549923","tag":{"amenity":"recycling","brand":"Gew. Fa. Mettex","mapillary":"wBs8NhKTqKzRRq9H8v7Lyw","operator":"Gew. Fa. Mettex","recycling:clothes":"yes","recycling_type":"container","survey:date":"2019-10-06"}},"type":"Feature"},
	{"geometry":{"coordinates":[13.366727,52.55804],"type":"Point"},"properties":{"osm_id":"832549963","tag":{"amenity":"recycling","operator":"Karl Meyer Rohstoffverwertung","recycling:glass_bottles":"yes","recycling_type":"container"}},"type":"Feature"},
	{"geometry":{"coordinates":[13.364775,52.5602],"type":"Point"},"properties":{"osm_id":"832549964","tag":{"amenity":"recycling","brand":"Berlin-Textilrecycling","operator":"Berlin-Textilrecycling","recycling:clothes":"yes"}},"type":"Feature"},
	{"geometry":{"coordinates":[13.3672,52.552189],"type":"Point"},"properties":{"osm_id":"832835230","tag":{"amenity":"recycling","operator":"Karl Meyer Rohstoffverwertung","recycling:glass_bottles":"yes","recycling_type":"container"}},"type":"Feature"},
	{"geometry":{"coordinates":[13.365741,52.554842],"type":"Point"},"properties":{"osm_id":"832835258","tag":{"amenity":"recycling","brand":"Gew. Fa. Mettex","operator":"Gew. Fa. Mettex","recycling:clothes":"yes"}},"type":"Feature"},
	{"geometry":{"coordinates":[13.366256,52.554803],"type":"Point"},"properties":{"osm_id":"832835283","tag":{"amenity":"recycling","operator":"Familienschutzwerk","recycling:clothes":"yes"}},"type":"Feature"},
	{"geometry":{"coordinates":[13.375192,52.53774],"type":"Point"},"properties":{"osm_id":"910426654","tag":{"amenity":"recycling","recycling:glass_bottles":"yes","recycling_type":"container"}},"type":"Feature"},
	{"geometry":{"coordinates":[13.404221,52.583067],"type":"Point"},"properties":{"osm_id":"960720384","tag":{"amenity":"recycling","recycling:clothes":"yes"}},"type":"Feature"},
	{"geometry":{"coordinates":[13.410086,52.546176],"type":"Point"},"properties":{"osm_id":"963695809","tag":{"amenity":"recycling","recycling:glass_bottles":"yes","recycling_type":"container"}},"type":"Feature"},
	{"geometry":{"coordinates":[13.425165,52.556307],"type":"Point"},"properties":{"osm_id":"990239062","tag":{"amenity":"recycling","location":"overground","recycling:glass_bottles":"yes","recycling_type":"container"}},"type":"Feature"},
	{"geometry":{"coordinates":[13.420465,52.541982],"type":"Point"},"properties":{"osm_id":"1111017133","tag":{"amenity":"waste_basket"}},"type":"Feature"},
	{"geometry":{"coordinates":[13.413317,52.582857],"type":"Point"},"properties":{"osm_id":"1150981273","tag":{"amenity":"recycling","recycling:glass_bottles":"yes","recycling_type":"container"}},"type":"Feature"},
	{"geometry":{"coordinates":[13.429345,52.547643],"type":"Point"},"properties":{"osm_id":"1198768506","tag":{"amenity":"recycling","recycling:glass_bottles":"yes","recycling_type":"container"}},"type":"Feature"},
	{"geometry":{"coordinates":[13.405872,52.547299],"type":"Point"},"properties":{"osm_id":"1213221003","tag":{"amenity":"waste_basket"}},"type":"Feature"},
	{"geometry":{"coordinates":[13.407122,52.547965],"type":"Point"},"properties":{"osm_id":"1213221742","tag":{"amenity":"waste_basket"}},"type":"Feature"},
	{"geometry":{"coordinates":[13.407375,52.547941],"type":"Point"},"properties":{"osm_id":"1213221744","tag":{"amenity":"waste_basket"}},"type":"Feature"},
	{"geometry":{"coordinates":[13.407365,52.548113],"type":"Point"},"properties":{"osm_id":"1213221747","tag":{"amenity":"waste_basket"}},"type":"Feature"},
	{"geometry":{"coordinates":[13.406508,52.547988],"type":"Point"},"properties":{"osm_id":"1213226298","tag":{"amenity":"waste_basket"}},"type":"Feature"},
	{"geometry":{"coordinates":[13.407633,52.5471],"type":"Point"},"properties":{"osm_id":"1213226798","tag":{"amenity":"waste_basket"}},"type":"Feature"},
	{"geometry":{"coordinates":[13.403344,52.537197],"type":"Point"},"properties":{"osm_id":"1289968044","tag":{"amenity":"recycling","brand":"Genehmigte Sammlung Berlin","count":"2","operator":"Genehmigte Sammlung Berlin","recycling:clothes":"yes","recycling_type":"container"}},"type":"Feature"},
	{"geometry":{"coordinates":[13.393715,52.539485],"type":"Point"},"properties":{"osm_id":"1291379445","tag":{"amenity":"recycling","recycling:glass_bottles":"yes","recycling_type":"container"}},"type":"Feature"},
	{"geometry":{"coordinates":[13.389416,52.539752],"type":"Point"},"properties":{"osm_id":"1315007273","tag":{"amenity":"recycling","recycling:glass_bottles":"yes","recycling_type":"container"}},"type":"Feature"},
	{"geometry":{"coordinates":[13.432777,52.536755],"type":"Point"},"properties":{"osm_id":"1334978334","tag":{"amenity":"waste_basket"}},"type":"Feature"},
	{"geometry":{"coordinates":[13.432781,52.536995],"type":"Point"},"properties":{"osm_id":"1334978378","tag":{"amenity":"waste_basket"}},"type":"Feature"},
	{"geometry":{"coordinates":[13.43049,52.537596],"type":"Point"},"properties":{"osm_id":"1334978416","tag":{"amenity":"waste_basket"}},"type":"Feature"},
	{"geometry":{"coordinates":[13.432186,52.537614],"type":"Point"},"properties":{"osm_id":"1334978431","tag":{"amenity":"waste_basket"}},"type":"Feature"},
	{"geometry":{"coordinates":[13.43377,52.537826],"type":"Point"},"properties":{"osm_id":"1334978443","tag":{"amenity":"waste_basket"}},"type":"Feature"},
	{"geometry":{"coordinates":[13.431212,52.538199],"type":"Point"},"properties":{"osm_id":"1334978468","tag":{"amenity":"waste_basket"}},"type":"Feature"},
	{"geometry":{"coordinates":[13.432244,52.536992],"type":"Point"},"properties":{"osm_id":"1334978479","tag":{"amenity":"waste_basket"}},"type":"Feature"},
	{"geometry":{"coordinates":[13.431682,52.538481],"type":"Point"},"properties":{"osm_id":"1334978497","tag":{"amenity":"waste_basket"}},"type":"Feature"},
	{"geometry":{"coordinates":[13.433795,52.538404],"type":"Point"},"properties":{"osm_id":"1334978498","tag":{"amenity":"waste_basket"}},"type":"Feature"},
	{"geometry":{"coordinates":[13.432632,52.536869],"type":"Point"},"properties":{"osm_id":"1334978513","tag":{"amenity":"waste_basket"}},"type":"Feature"},
	{"geometry":{"coordinates":[13.433374,52.538045],"type":"Point"},"properties":{"osm_id":"1334978530","tag":{"amenity":"waste_basket"}},"type":"Feature"},
	{"geometry":{"coordinates":[13.420511,52.552255],"type":"Point"},"properties":{"osm_id":"1399581293","tag":{"amenity":"recycling","recycling:glass_bottles":"yes","recycling_type":"container"}},"type":"Feature"},
	{"geometry":{"coordinates":[13.428343,52.536944],"type":"Point"},"properties":{"osm_id":"1401087654","tag":{"amenity":"waste_basket"}},"type":"Feature"},
	{"geometry":{"coordinates":[13.427984,52.536951],"type":"Point"},"properties":{"osm_id":"1401087655","tag":{"amenity":"waste_basket"}},"type":"Feature"},
	{"geometry":{"coordinates":[13.362173,52.551852],"type":"Point"},"properties":{"osm_id":"1471202671","tag":{"amenity":"recycling","operator":"Haytex Textilrecycling","recycling:clothes":"yes"}},"type":"Feature"},
	{"geometry":{"coordinates":[13.361847,52.552103],"type":"Point"},"properties":{"osm_id":"1471202684","tag":{"amenity":"recycling","operator":"Familienschutzwerk","recycling:clothes":"yes"}},"type":"Feature"},
	{"geometry":{"coordinates":[13.361639,52.553404],"type":"Point"},"properties":{"osm_id":"1471202696","tag":{"amenity":"recycling","operator":"Haytex Textilrecycling","recycling:clothes":"yes","recycling_type":"container"}},"type":"Feature"},
	{"geometry":{"coordinates":[13.3616,52.553406],"type":"Point"},"properties":{"osm_id":"1471202697","tag":{"amenity":"recycling","operator":"Altkleiderfirma Narg\u00c3\u00bcl","recycling:clothes":"yes","recycling_type":"container"}},"type":"Feature"},
	{"geometry":{"coordinates":[13.360287,52.553539],"type":"Point"},"properties":{"osm_id":"1471202700","tag":{"amenity":"recycling","operator":"Karl Meyer Rohstoffverwertung","recycling:glass_bottles":"yes","recycling_type":"container"}},"type":"Feature"},
	{"geometry":{"coordinates":[13.361539,52.553627],"type":"Point"},"properties":{"osm_id":"1471202706","tag":{"amenity":"recycling","operator":"Humana","recycling:clothes":"yes"}},"type":"Feature"},
	{"geometry":{"coordinates":[13.378111,52.557127],"type":"Point"},"properties":{"osm_id":"1481277377","tag":{"amenity":"recycling","count":"3","recycling:glass_bottles":"yes","recycling_type":"container"}},"type":"Feature"},
	{"geometry":{"coordinates":[13.424079,52.56763],"type":"Point"},"properties":{"osm_id":"1576124803","tag":{"amenity":"recycling","recycling:glass":"no","recycling:glass_bottles":"yes","recycling_type":"container"}},"type":"Feature"},
	{"geometry":{"coordinates":[13.421877,52.538755],"type":"Point"},"properties":{"osm_id":"1584735468","tag":{"amenity":"waste_basket"}},"type":"Feature"},
	{"geometry":{"coordinates":[13.421943,52.538734],"type":"Point"},"properties":{"osm_id":"1584735488","tag":{"amenity":"waste_basket"}},"type":"Feature"},
	{"geometry":{"coordinates":[13.42191,52.538744],"type":"Point"},"properties":{"osm_id":"1584735491","tag":{"amenity":"waste_basket"}},"type":"Feature"},
	{"geometry":{"coordinates":[13.421844,52.538766],"type":"Point"},"properties":{"osm_id":"1584735494","tag":{"amenity":"waste_basket"}},"type":"Feature"},
	{"geometry":{"coordinates":[13.421728,52.538573],"type":"Point"},"properties":{"osm_id":"1584735495","tag":{"amenity":"waste_basket"}},"type":"Feature"},
	{"geometry":{"coordinates":[13.421761,52.538563],"type":"Point"},"properties":{"osm_id":"1584735502","tag":{"amenity":"waste_basket"}},"type":"Feature"},
	{"geometry":{"coordinates":[13.421662,52.538595],"type":"Point"},"properties":{"osm_id":"1584735536","tag":{"amenity":"waste_basket"}},"type":"Feature"},
	{"geometry":{"coordinates":[13.421695,52.538584],"type":"Point"},"properties":{"osm_id":"1584735538","tag":{"amenity":"waste_basket"}},"type":"Feature"},
	{"geometry":{"coordinates":[13.437388,52.57181],"type":"Point"},"properties":{"osm_id":"1623643697","tag":{"amenity":"recycling","recycling:glass_bottles":"yes","recycling_type":"container"}},"type":"Feature"},
	{"geometry":{"coordinates":[13.414901,52.546232],"type":"Point"},"properties":{"osm_id":"1769968026","tag":{"amenity":"recycling","operator":"Berlin-Textilrecycling","recycling:clothes":"yes","recycling_type":"container"}},"type":"Feature"},
	{"geometry":{"coordinates":[13.370757,52.554298],"type":"Point"},"properties":{"osm_id":"1829246505","tag":{"amenity":"recycling","recycling:clothes":"yes"}},"type":"Feature"},
	{"geometry":{"coordinates":[13.367847,52.554684],"type":"Point"},"properties":{"osm_id":"1829246507","tag":{"amenity":"recycling","brand":"Gew. Fa. Mettex","operator":"Gew. Fa. Mettex","recycling:clothes":"yes"}},"type":"Feature"},
	{"geometry":{"coordinates":[13.366431,52.554797],"type":"Point"},"properties":{"osm_id":"1829246512","tag":{"amenity":"recycling","recycling:clothes":"yes"}},"type":"Feature"},
	{"geometry":{"coordinates":[13.392905,52.564002],"type":"Point"},"properties":{"osm_id":"1845844960","tag":{"amenity":"waste_basket"}},"type":"Feature"},
	{"geometry":{"coordinates":[13.393024,52.564274],"type":"Point"},"properties":{"osm_id":"1845845440","tag":{"amenity":"waste_basket"}},"type":"Feature"},
	{"geometry":{"coordinates":[13.394152,52.561585],"type":"Point"},"properties":{"osm_id":"1846185424","tag":{"amenity":"recycling"}},"type":"Feature"},
	{"geometry":{"coordinates":[13.395455,52.560296],"type":"Point"},"properties":{"osm_id":"1846185463","tag":{"amenity":"recycling"}},"type":"Feature"},
	{"geometry":{"coordinates":[13.391401,52.557411],"type":"Point"},"properties":{"osm_id":"1847471334","tag":{"amenity":"waste_basket"}},"type":"Feature"},
	{"geometry":{"coordinates":[13.395535,52.561765],"type":"Point"},"properties":{"osm_id":"1848188160","tag":{"amenity":"recycling"}},"type":"Feature"},
	{"geometry":{"coordinates":[13.394792,52.562347],"type":"Point"},"properties":{"osm_id":"1849533930","tag":{"amenity":"waste_basket"}},"type":"Feature"},
	{"geometry":{"coordinates":[13.401157,52.536591],"type":"Point"},"properties":{"osm_id":"1936972590","tag":{"amenity":"recycling","leaf_cycle":"deciduous","leaf_type":"broadleaved","natural":"tree","recycling:clothes":"yes","recycling:shoes":"yes","recycling_type":"container"}},"type":"Feature"},
	{"geometry":{"coordinates":[13.373017,52.554029],"type":"Point"},"properties":{"osm_id":"1948771438","tag":{"amenity":"waste_basket"}},"type":"Feature"},
	{"geometry":{"coordinates":[13.378923,52.549583],"type":"Point"},"properties":{"osm_id":"2054232764","tag":{"amenity":"recycling"}},"type":"Feature"},
	{"geometry":{"coordinates":[13.402957,52.560363],"type":"Point"},"properties":{"osm_id":"2055699312","tag":{"amenity":"recycling","recycling:glass_bottles":"yes","recycling_type":"container"}},"type":"Feature"},
	{"geometry":{"coordinates":[13.436556,52.538336],"type":"Point"},"properties":{"osm_id":"2089773989","tag":{"amenity":"recycling","recycling:cans":"yes","recycling:clothes":"yes","recycling:glass_bottles":"yes","recycling:green_waste":"yes","recycling:paper":"yes","recycling:plastic":"yes","recycling:scrap_metal":"yes","recycling_type":"container"}},"type":"Feature"},
	{"geometry":{"coordinates":[13.410442,52.550728],"type":"Point"},"properties":{"osm_id":"2168549574","tag":{"amenity":"waste_basket"}},"type":"Feature"},
	{"geometry":{"coordinates":[13.363144,52.544641],"type":"Point"},"properties":{"osm_id":"2297383191","tag":{"amenity":"waste_basket"}},"type":"Feature"},
	{"geometry":{"coordinates":[13.363425,52.551306],"type":"Point"},"properties":{"osm_id":"2308657295","tag":{"amenity":"waste_basket"}},"type":"Feature"},
	{"geometry":{"coordinates":[13.383096,52.548537],"type":"Point"},"properties":{"osm_id":"2322995531","tag":{"amenity":"recycling","operator":"Karl Meyer AG","recycling:glass_bottles":"yes","recycling_type":"container"}},"type":"Feature"},
	{"geometry":{"coordinates":[13.374293,52.55098],"type":"Point"},"properties":{"osm_id":"2427887086","tag":{"amenity":"waste_basket"}},"type":"Feature"},
	{"geometry":{"coordinates":[13.375262,52.551639],"type":"Point"},"properties":{"osm_id":"2427887087","tag":{"amenity":"waste_basket"}},"type":"Feature"},
	{"geometry":{"coordinates":[13.404399,52.587846],"type":"Point"},"properties":{"osm_id":"2435119500","tag":{"amenity":"waste_basket"}},"type":"Feature"},
	{"geometry":{"coordinates":[13.391472,52.544339],"type":"Point"},"properties":{"osm_id":"2856686322","tag":{"amenity":"recycling","recycling:glass_bottles":"yes","recycling_type":"container"}},"type":"Feature"},
	{"geometry":{"coordinates":[13.391447,52.544366],"type":"Point"},"properties":{"name":"Was Du heute kannst entsorgen...","osm_id":"2856686323","tag":{"amenity":"waste_basket"}},"type":"Feature"},
	{"geometry":{"coordinates":[13.383788,52.551574],"type":"Point"},"properties":{"osm_id":"3086901782","tag":{"amenity":"waste_basket"}},"type":"Feature"},
	{"geometry":{"coordinates":[13.3846,52.552183],"type":"Point"},"properties":{"highway":"street_lamp","osm_id":"3086901784","tag":{"amenity":"waste_basket","lit_by_gaslight":"yes"}},"type":"Feature"},
	{"geometry":{"coordinates":[13.385076,52.552561],"type":"Point"},"properties":{"highway":"street_lamp","osm_id":"3087602866","tag":{"amenity":"waste_basket","lit_by_gaslight":"yes"}},"type":"Feature"},
	{"geometry":{"coordinates":[13.385699,52.553029],"type":"Point"},"properties":{"highway":"street_lamp","osm_id":"3087949911","tag":{"amenity":"waste_basket","lit_by_gaslight":"yes"}},"type":"Feature"},
	{"geometry":{"coordinates":[13.422545,52.56076],"type":"Point"},"properties":{"osm_id":"3382989535","tag":{"amenity":"recycling","recycling:glass_bottles":"yes","recycling_type":"container"}},"type":"Feature"},
	{"geometry":{"coordinates":[13.40049,52.549005],"type":"Point"},"properties":{"osm_id":"3578763593","tag":{"amenity":"recycling","recycling:clothes":"yes","recycling_type":"container"}},"type":"Feature"},
	{"geometry":{"coordinates":[13.425404,52.547758],"type":"Point"},"properties":{"osm_id":"3635597796","tag":{"amenity":"recycling","recycling:glass_bottles":"yes","recycling_type":"container"}},"type":"Feature"},
	{"geometry":{"coordinates":[13.382087,52.537851],"type":"Point"},"properties":{"osm_id":"3697399483","tag":{"amenity":"recycling","recycling:glass_bottles":"yes","recycling_type":"container"}},"type":"Feature"},
	{"geometry":{"coordinates":[13.37682,52.559074],"type":"Point"},"properties":{"osm_id":"3726584213","tag":{"amenity":"recycling","brand":"Gew. Fa. Mettex","count":"2","operator":"Gew. Fa. Mettex","recycling:clothes":"yes","recycling_type":"container"}},"type":"Feature"},
	{"geometry":{"coordinates":[13.362214,52.548149],"type":"Point"},"properties":{"osm_id":"3726640536","tag":{"amenity":"recycling","brand":"Berlin-Textilrecycling","location":"overground","operator":"Berlin-Textilrecycling","recycling:clothes":"yes","recycling_type":"container"}},"type":"Feature"},
	{"geometry":{"coordinates":[13.362196,52.548136],"type":"Point"},"properties":{"osm_id":"3726640537","tag":{"amenity":"recycling","brand":"Humana","location":"overground","operator":"Humana","recycling:clothes":"yes","recycling_type":"container"}},"type":"Feature"},
	{"geometry":{"coordinates":[13.362177,52.548124],"type":"Point"},"properties":{"osm_id":"3726640538","tag":{"amenity":"recycling","brand":"AU Textilrecycling","location":"overground","operator":"AU Textilrecycling","recycling:clothes":"yes","recycling_type":"container"}},"type":"Feature"},
	{"geometry":{"coordinates":[13.372925,52.557628],"type":"Point"},"properties":{"osm_id":"3726643262","tag":{"amenity":"recycling","brand":"Altkleiderfirma Narg\u00c3\u00bcl","operator":"Altkleiderfirma Narg\u00c3\u00bcl","recycling:clothes":"yes","recycling_type":"container"}},"type":"Feature"},
	{"geometry":{"coordinates":[13.372364,52.54867],"type":"Point"},"properties":{"osm_id":"3726668992","tag":{"amenity":"recycling","brand":"Deutsches Rotes Kreuz","operator":"Deutsches Rotes Kreuz","recycling:clothes":"yes","recycling_type":"container"}},"type":"Feature"},
	{"geometry":{"coordinates":[13.388231,52.561241],"type":"Point"},"properties":{"osm_id":"3727525734","tag":{"amenity":"recycling","brand":"Akza Textilrecycling","count":"2","mapillary":"UWPxgCC_57vngUDbYK30eQ","operator":"Akza Textilrecycling","recycling:clothes":"yes","recycling_type":"container","survey:date":"2019-11-10"}},"type":"Feature"},
	{"geometry":{"coordinates":[13.388218,52.561233],"type":"Point"},"properties":{"osm_id":"3727525735","tag":{"amenity":"recycling","brand":"Balance","mapillary":"UWPxgCC_57vngUDbYK30eQ","operator":"Balance","recycling:clothes":"yes","recycling_type":"container","survey:date":"2019-11-10"}},"type":"Feature"},
	{"geometry":{"coordinates":[13.391433,52.554847],"type":"Point"},"properties":{"osm_id":"3727528353","tag":{"amenity":"recycling","brand":"Profittex","operator":"Profittex","recycling:clothes":"yes"}},"type":"Feature"},
	{"geometry":{"coordinates":[13.389113,52.555262],"type":"Point"},"properties":{"osm_id":"3727529592","tag":{"amenity":"recycling","brand":"Haytex Textilrecycling","location":"overground","operator":"Haytex Textilrecycling","recycling:clothes":"yes","recycling_type":"container"}},"type":"Feature"},
	{"geometry":{"coordinates":[13.389075,52.555263],"type":"Point"},"properties":{"osm_id":"3727529593","tag":{"amenity":"recycling","brand":"Humana","location":"overground","operator":"Humana","recycling:clothes":"yes","recycling_type":"container"}},"type":"Feature"},
	{"geometry":{"coordinates":[13.390482,52.555672],"type":"Point"},"properties":{"osm_id":"3727529803","tag":{"amenity":"recycling","brand":"Berlin-Textilrecycling","location":"overground","operator":"Berlin-Textilrecycling","recycling:clothes":"yes","recycling_type":"container"}},"type":"Feature"},
	{"geometry":{"coordinates":[13.392571,52.555435],"type":"Point"},"properties":{"osm_id":"3727531516","tag":{"amenity":"recycling","brand":"Akza Textilrecycling","location":"overground","operator":"Akza Textilrecycling","recycling:clothes":"yes","recycling_type":"container"}},"type":"Feature"},
	{"geometry":{"coordinates":[13.392573,52.555414],"type":"Point"},"properties":{"osm_id":"3727531517","tag":{"amenity":"recycling","brand":"Altkleiderfirma Narg\u00c3\u00bcl","location":"overground","operator":"Altkleiderfirma Narg\u00c3\u00bcl","recycling:clothes":"yes","recycling_type":"container"}},"type":"Feature"},
	{"geometry":{"coordinates":[13.394068,52.556454],"type":"Point"},"properties":{"osm_id":"3727532920","tag":{"amenity":"recycling","operator":"Berlin-Textilrecycling","recycling:clothes":"yes","recycling_type":"container"}},"type":"Feature"},
	{"geometry":{"coordinates":[13.371632,52.55861],"type":"Point"},"properties":{"osm_id":"3727535137","tag":{"amenity":"recycling","brand":"Humana","count":"2","operator":"Humana","recycling:clothes":"yes"}},"type":"Feature"},
	{"geometry":{"coordinates":[13.36722,52.558236],"type":"Point"},"properties":{"osm_id":"3727555814","tag":{"amenity":"recycling","brand":"Gew. Fa. Mettex","operator":"Gew. Fa. Mettex","recycling:clothes":"yes"}},"type":"Feature"},
	{"geometry":{"coordinates":[13.383173,52.559443],"type":"Point"},"properties":{"osm_id":"3727559827","tag":{"amenity":"recycling","brand":"Berlin-Textilrecycling","operator":"Berlin-Textilrecycling","recycling:clothes":"yes"}},"type":"Feature"},
	{"geometry":{"coordinates":[13.371649,52.553822],"type":"Point"},"properties":{"osm_id":"3728681694","tag":{"amenity":"recycling","brand":"Humana","mapillary":"xejzkjrQAKaFsGX_G2XB1g","operator":"Humana","recycling:clothes":"yes","recycling_type":"container","survey:date":"2016-08-13"}},"type":"Feature"},
	{"geometry":{"coordinates":[13.371628,52.553815],"type":"Point"},"properties":{"osm_id":"3728681695","tag":{"amenity":"recycling","brand":"Berlin-Textilrecycling","location":"overground","operator":"Berlin-Textilrecycling","recycling:clothes":"yes","recycling_type":"container"}},"type":"Feature"},
	{"geometry":{"coordinates":[13.393332,52.541923],"type":"Point"},"properties":{"osm_id":"3730655380","tag":{"amenity":"recycling","brand":"Berlin-Textilrecycling","operator":"Berlin-Textilrecycling","recycling:clothes":"yes","recycling_type":"container"}},"type":"Feature"},
	{"geometry":{"coordinates":[13.391491,52.544302],"type":"Point"},"properties":{"osm_id":"3731078788","tag":{"amenity":"recycling","brand":"Genehmigte Sammlung Berlin","operator":"Genehmigte Sammlung Berlin","recycling:clothes":"yes","recycling_type":"container"}},"type":"Feature"},
	{"geometry":{"coordinates":[13.395008,52.546114],"type":"Point"},"properties":{"osm_id":"3734468245","tag":{"amenity":"recycling","brand":"Akza Textilrecycling","operator":"Akza Textilrecycling","recycling:clothes":"yes","recycling_type":"container"}},"type":"Feature"},
	{"geometry":{"coordinates":[13.394592,52.546623],"type":"Point"},"properties":{"osm_id":"3734470207","tag":{"amenity":"recycling","note:de":"Ohne Betreiberkennzeichnung","operator":"unknown","recycling:clothes":"yes","recycling_type":"container"}},"type":"Feature"},
	{"geometry":{"coordinates":[13.3907,52.550735],"type":"Point"},"properties":{"osm_id":"3735678232","tag":{"amenity":"recycling","brand":"Akza Textilrecycling","count":"2","operator":"Akza Textilrecycling","recycling:clothes":"yes","recycling_type":"container"}},"type":"Feature"},
	{"geometry":{"coordinates":[13.384204,52.555013],"type":"Point"},"properties":{"osm_id":"3735679938","tag":{"amenity":"recycling","brand":"Profittex","operator":"Profittex","recycling:clothes":"yes"}},"type":"Feature"},
	{"geometry":{"coordinates":[13.381909,52.547548],"type":"Point"},"properties":{"osm_id":"3736200361","tag":{"amenity":"recycling","brand":"\u00c3\u0096Z-KA-Textilrecycling","operator":"\u00c3\u0096Z-KA-Textilrecycling","recycling:clothes":"yes","recycling_type":"container"}},"type":"Feature"},
	{"geometry":{"coordinates":[13.380815,52.54674],"type":"Point"},"properties":{"osm_id":"3736202141","tag":{"amenity":"recycling","brand":"Berlin-Textilrecycling","operator":"Berlin-Textilrecycling","recycling:clothes":"yes","recycling_type":"container"}},"type":"Feature"},
	{"geometry":{"coordinates":[13.375483,52.540859],"type":"Point"},"properties":{"osm_id":"3737457934","tag":{"amenity":"recycling","note:de":"ohne Betreiberkennzeichnung, Aufkleber \"Schenken Sie ein L\u00c3\u00a4cheln\", siehe http://wiki.openstreetmap.org/wiki/Deutsche_Altkleider-Container_Betreiber","recycling:clothes":"yes","recycling_type":"container"}},"type":"Feature"},
	{"geometry":{"coordinates":[13.375306,52.537896],"type":"Point"},"properties":{"osm_id":"3737462561","tag":{"amenity":"recycling","brand":"Gew. Fa. Mettex","operator":"Gew. Fa. Mettex","recycling:clothes":"yes","recycling_type":"container"}},"type":"Feature"},
	{"geometry":{"coordinates":[13.376484,52.536284],"type":"Point"},"properties":{"osm_id":"3737479312","tag":{"amenity":"recycling","brand":"Berlin-Textilrecycling","operator":"Berlin-Textilrecycling","recycling:clothes":"yes","recycling_type":"container"}},"type":"Feature"},
	{"geometry":{"coordinates":[13.375789,52.538444],"type":"Point"},"properties":{"osm_id":"3737483861","tag":{"amenity":"recycling","brand":"Zentrum f\u00c3\u00bcr Ost-Europa Hilfe","count":"2","operator":"Zentrum f\u00c3\u00bcr Ost-Europa Hilfe","recycling:clothes":"yes","recycling:shoes":"yes","recycling_type":"container"}},"type":"Feature"},
	{"geometry":{"coordinates":[13.375994,52.542994],"type":"Point"},"properties":{"osm_id":"3737493940","tag":{"amenity":"recycling","brand":"TEXAID Collection","operator":"TEXAID Collection","recycling:clothes":"yes","recycling_type":"container"}},"type":"Feature"},
	{"geometry":{"coordinates":[13.377387,52.542727],"type":"Point"},"properties":{"osm_id":"3737499249","tag":{"amenity":"recycling","brand":"OKA Textil","operator":"OKA Textil","recycling:clothes":"yes","recycling_type":"container"}},"type":"Feature"},
	{"geometry":{"coordinates":[13.380245,52.540225],"type":"Point"},"properties":{"osm_id":"3737499971","tag":{"amenity":"recycling","brand":"Altkleiderfirma Narg\u00c3\u00bcl","operator":"Altkleiderfirma Narg\u00c3\u00bcl","recycling:clothes":"yes","recycling_type":"container"}},"type":"Feature"},
	{"geometry":{"coordinates":[13.380341,52.540207],"type":"Point"},"properties":{"osm_id":"3737499972","tag":{"amenity":"recycling","brand":"Humana","operator":"Humana","recycling:clothes":"yes","recycling_type":"container"}},"type":"Feature"},
	{"geometry":{"coordinates":[13.380715,52.540027],"type":"Point"},"properties":{"osm_id":"3737499973","tag":{"amenity":"recycling","brand":"Gew. Fa. Mettex","operator":"Gew. Fa. Mettex","recycling:clothes":"yes","recycling_type":"container"}},"type":"Feature"},
	{"geometry":{"coordinates":[13.381718,52.54281],"type":"Point"},"properties":{"osm_id":"3737500382","tag":{"amenity":"recycling","brand":"Altkleiderfirma Narg\u00c3\u00bcl","operator":"Altkleiderfirma Narg\u00c3\u00bcl","recycling:clothes":"yes","recycling_type":"container"}},"type":"Feature"},
	{"geometry":{"coordinates":[13.378493,52.542313],"type":"Point"},"properties":{"osm_id":"3737502291","tag":{"amenity":"recycling","brand":"Altkleiderfirma Narg\u00c3\u00bcl","operator":"Altkleiderfirma Narg\u00c3\u00bcl","recycling:clothes":"yes","recycling_type":"container"}},"type":"Feature"},
	{"geometry":{"coordinates":[13.377697,52.54231],"type":"Point"},"properties":{"osm_id":"3737502638","tag":{"amenity":"recycling","brand":"Gew. Fa. Mettex","operator":"Gew. Fa. Mettex","recycling:clothes":"yes","recycling_type":"container"}},"type":"Feature"},
	{"geometry":{"coordinates":[13.402737,52.540008],"type":"Point"},"properties":{"osm_id":"3754708090","tag":{"amenity":"recycling","brand":"Familienschutzwerk","operator":"Familienschutzwerk","recycling:clothes":"yes","recycling_type":"container"}},"type":"Feature"},
	{"geometry":{"coordinates":[13.400189,52.541474],"type":"Point"},"properties":{"osm_id":"3754710362","tag":{"amenity":"recycling","brand":"Berlin-Textilrecycling","operator":"Berlin-Textilrecycling","recycling:clothes":"yes","recycling_type":"container"}},"type":"Feature"},
	{"geometry":{"coordinates":[13.399161,52.544493],"type":"Point"},"properties":{"osm_id":"3754710857","tag":{"amenity":"recycling","brand":"Berlin-Textilrecycling","operator":"Berlin-Textilrecycling","recycling:clothes":"yes","recycling_type":"container"}},"type":"Feature"},
	{"geometry":{"coordinates":[13.39888,52.544148],"type":"Point"},"properties":{"osm_id":"3754711246","tag":{"amenity":"recycling","note:de":"ohne Betreiberkennzeichnung, Schild \"Sammelstation\", siehe http://wiki.openstreetmap.org/wiki/Deutsche_Altkleider-Container_Betreiber","operator":"unknown","recycling:clothes":"yes","recycling_type":"container"}},"type":"Feature"},
	{"geometry":{"coordinates":[13.38008,52.572993],"type":"Point"},"properties":{"osm_id":"3755538801","tag":{"amenity":"recycling","brand":"\u00c3\u0096KZA-Textilrecycling","count":"2","mapillary":"aS5U-k5b6800gipQAJkpZw","operator":"\u00c3\u0096KZA-Textilrecycling","recycling:clothes":"yes","recycling_type":"container","survey:date":"2018-11-03"}},"type":"Feature"},
	{"geometry":{"coordinates":[13.380116,52.572998],"type":"Point"},"properties":{"osm_id":"3755538802","tag":{"amenity":"recycling","brand":"OKA Textil","count":"2","mapillary":"mTHiJgLSJk69TQs6raGhmw","operator":"OKA Textil","recycling:clothes":"yes","recycling_type":"container","survey:date":"2018-11-03"}},"type":"Feature"},
	{"geometry":{"coordinates":[13.380126,52.572982],"type":"Point"},"properties":{"osm_id":"3755538803","tag":{"amenity":"recycling","brand":"Humana","mapillary":"mTHiJgLSJk69TQs6raGhmw","operator":"Humana","recycling:clothes":"yes","recycling_type":"container","survey:date":"2018-11-03"}},"type":"Feature"},
	{"geometry":{"coordinates":[13.38004,52.571605],"type":"Point"},"properties":{"osm_id":"3755540776","tag":{"amenity":"recycling","brand":"Berlin-Textilrecycling","mapillary":"eyydo-8BYCRtTLOzx-CKBw","operator":"Berlin-Textilrecycling","recycling:clothes":"yes","recycling_type":"container","survey:date":"2018-11-03"}},"type":"Feature"},
	{"geometry":{"coordinates":[13.372073,52.537667],"type":"Point"},"properties":{"osm_id":"3757265700","tag":{"amenity":"recycling","note:de":"ohne Betreiberkennzeichnung, ohne Schild, siehe http://wiki.openstreetmap.org/wiki/Deutsche_Altkleider-Container_Betreiber","recycling:clothes":"yes","recycling_type":"container"}},"type":"Feature"},
	{"geometry":{"coordinates":[13.372948,52.540077],"type":"Point"},"properties":{"osm_id":"3769059235","tag":{"amenity":"recycling","brand":"Akza Textilrecycling","operator":"Akza Textilrecycling","recycling:clothes":"yes","recycling_type":"container"}},"type":"Feature"},
	{"geometry":{"coordinates":[13.373524,52.540266],"type":"Point"},"properties":{"osm_id":"3769059236","tag":{"amenity":"recycling","brand":"Familienschutzwerk","operator":"Familienschutzwerk","recycling:clothes":"yes","recycling_type":"container"}},"type":"Feature"},
	{"geometry":{"coordinates":[13.366775,52.546398],"type":"Point"},"properties":{"osm_id":"3769069720","tag":{"amenity":"recycling","brand":"Gew. Fa. Mettex","count":"2","operator":"Gew. Fa. Mettex","recycling:clothes":"yes","recycling_type":"container"}},"type":"Feature"},
	{"geometry":{"coordinates":[13.366733,52.546437],"type":"Point"},"properties":{"osm_id":"3769069721","tag":{"amenity":"recycling","brand":"Humana","operator":"Humana","recycling:clothes":"yes","recycling_type":"container"}},"type":"Feature"},
	{"geometry":{"coordinates":[13.367242,52.552118],"type":"Point"},"properties":{"osm_id":"3769077943","tag":{"amenity":"recycling","brand":"Genehmigte Sammlung Berlin","mapillary":"0KupMWxnjZrCaqAs_itrkA","operator":"Genehmigte Sammlung Berlin","recycling:clothes":"yes","recycling_type":"container","survey:date":"2016-07-29"}},"type":"Feature"},
	{"geometry":{"coordinates":[13.360483,52.544101],"type":"Point"},"properties":{"osm_id":"3777205535","tag":{"amenity":"recycling","recycling:clothes":"yes","recycling_type":"container"}},"type":"Feature"},
	{"geometry":{"coordinates":[13.362427,52.54291],"type":"Point"},"properties":{"osm_id":"3830974061","tag":{"amenity":"recycling","brand":"Berlin-Textilrecycling","operator":"Berlin-Textilrecycling","recycling:clothes":"yes","recycling_type":"container"}},"type":"Feature"},
	{"geometry":{"coordinates":[13.359831,52.539359],"type":"Point"},"properties":{"osm_id":"3869660310","tag":{"amenity":"recycling","brand":"AU Textilrecycling","operator":"AU Textilrecycling","recycling:clothes":"yes","recycling_type":"container"}},"type":"Feature"},
	{"geometry":{"coordinates":[13.409501,52.557812],"type":"Point"},"properties":{"osm_id":"3869690287","tag":{"amenity":"recycling","brand":"Deutsches Rotes Kreuz","operator":"Deutsches Rotes Kreuz","recycling:clothes":"yes","recycling_type":"container"}},"type":"Feature"},
	{"geometry":{"coordinates":[13.402906,52.558124],"type":"Point"},"properties":{"osm_id":"3869691414","tag":{"amenity":"recycling","brand":"Deutsches Rotes Kreuz","location":"overground","operator":"Deutsches Rotes Kreuz","recycling:clothes":"yes","recycling_type":"container"}},"type":"Feature"},
	{"geometry":{"coordinates":[13.398023,52.565925],"type":"Point"},"properties":{"osm_id":"3877187453","tag":{"amenity":"recycling","brand":"Humana","count":"2","location":"overground","operator":"Humana","recycling:clothes":"yes","recycling_type":"container"}},"type":"Feature"},
	{"geometry":{"coordinates":[13.397795,52.565938],"type":"Point"},"properties":{"osm_id":"3877187454","tag":{"amenity":"recycling","brand":"Humana","count":"2","location":"overground","operator":"Humana","recycling:clothes":"yes","recycling_type":"container"}},"type":"Feature"},
	{"geometry":{"coordinates":[13.39468,52.566276],"type":"Point"},"properties":{"osm_id":"3877193433","tag":{"amenity":"recycling","operator":"Retextil","recycling:clothes":"yes","recycling_type":"container"}},"type":"Feature"},
	{"geometry":{"coordinates":[13.387407,52.559764],"type":"Point"},"properties":{"osm_id":"3877200655","tag":{"amenity":"recycling","recycling:clothes":"yes"}},"type":"Feature"},
	{"geometry":{"coordinates":[13.369549,52.560219],"type":"Point"},"properties":{"osm_id":"3885851801","tag":{"amenity":"recycling","recycling:clothes":"yes"}},"type":"Feature"},
	{"geometry":{"coordinates":[13.387153,52.552687],"type":"Point"},"properties":{"osm_id":"3889265458","tag":{"amenity":"recycling","brand":"Gew. Fa. Mettex","operator":"Gew. Fa. Mettex","recycling:clothes":"yes"}},"type":"Feature"},
	{"geometry":{"coordinates":[13.405193,52.538367],"type":"Point"},"properties":{"osm_id":"3889267771","tag":{"amenity":"recycling","recycling:clothes":"yes","recycling_type":"container"}},"type":"Feature"},
	{"geometry":{"coordinates":[13.405395,52.53791],"type":"Point"},"properties":{"osm_id":"3889268838","tag":{"amenity":"recycling","brand":"Altkleiderfirma Narg\u00c3\u00bcl","operator":"Altkleiderfirma Narg\u00c3\u00bcl","recycling:clothes":"yes","recycling_type":"container"}},"type":"Feature"},
	{"geometry":{"coordinates":[13.405383,52.537942],"type":"Point"},"properties":{"osm_id":"3889268839","tag":{"amenity":"recycling","brand":"Akza Textilrecycling","operator":"Akza Textilrecycling","recycling:clothes":"yes","recycling_type":"container"}},"type":"Feature"},
	{"geometry":{"coordinates":[13.391437,52.551618],"type":"Point"},"properties":{"osm_id":"3967791429","tag":{"amenity":"recycling","location":"overground","recycling:clothes":"yes","recycling_type":"container"}},"type":"Feature"},
	{"geometry":{"coordinates":[13.371275,52.551891],"type":"Point"},"properties":{"osm_id":"3973585682","tag":{"amenity":"recycling","brand":"OKA Textil","operator":"OKA Textil","recycling:clothes":"yes"}},"type":"Feature"},
	{"geometry":{"coordinates":[13.371088,52.551817],"type":"Point"},"properties":{"osm_id":"3973585683","tag":{"amenity":"recycling","recycling:clothes":"yes","recycling_type":"container"}},"type":"Feature"},
	{"geometry":{"coordinates":[13.375769,52.579924],"type":"Point"},"properties":{"osm_id":"3983504675","tag":{"amenity":"waste_basket","waste":"trash"}},"type":"Feature"},
	{"geometry":{"coordinates":[13.421137,52.549446],"type":"Point"},"properties":{"osm_id":"3993968057","tag":{"amenity":"recycling","operator":"Deutsches Rotes Kreuz","recycling:clothes":"yes","recycling_type":"container"}},"type":"Feature"},
	{"geometry":{"coordinates":[13.419704,52.548103],"type":"Point"},"properties":{"osm_id":"3993976758","tag":{"amenity":"recycling","operator":"Retextil Recycling International","recycling:clothes":"yes","recycling_type":"container"}},"type":"Feature"},
	{"geometry":{"coordinates":[13.418712,52.547153],"type":"Point"},"properties":{"osm_id":"3993980792","tag":{"amenity":"recycling","recycling:clothes":"yes","recycling:glass_bottles":"yes","recycling_type":"container"}},"type":"Feature"},
	{"geometry":{"coordinates":[13.376826,52.557119],"type":"Point"},"properties":{"osm_id":"3996884911","tag":{"amenity":"waste_basket"}},"type":"Feature"},
	{"geometry":{"coordinates":[13.42199,52.585469],"type":"Point"},"properties":{"osm_id":"3996884936","tag":{"amenity":"waste_basket"}},"type":"Feature"},
	{"geometry":{"coordinates":[13.396734,52.550669],"type":"Point"},"properties":{"osm_id":"4039713544","tag":{"amenity":"recycling","recycling:clothes":"yes"}},"type":"Feature"},
	{"geometry":{"coordinates":[13.394043,52.550404],"type":"Point"},"properties":{"osm_id":"4039713833","tag":{"amenity":"recycling","recycling:clothes":"yes"}},"type":"Feature"},
	{"geometry":{"coordinates":[13.388854,52.567167],"type":"Point"},"properties":{"osm_id":"4053470955","tag":{"amenity":"recycling","brand":"Humana","location":"overground","operator":"Humana","recycling:clothes":"yes","recycling_type":"container"}},"type":"Feature"},
	{"geometry":{"coordinates":[13.385,52.565702],"type":"Point"},"properties":{"osm_id":"4075089515","tag":{"amenity":"recycling","brand":"AU Textilrecycling","location":"overground","operator":"AU Textilrecycling","recycling:clothes":"yes","recycling_type":"container"}},"type":"Feature"},
	{"geometry":{"coordinates":[13.417896,52.578305],"type":"Point"},"properties":{"osm_id":"4120680713","tag":{"amenity":"waste_basket"}},"type":"Feature"},
	{"geometry":{"coordinates":[13.41837,52.578223],"type":"Point"},"properties":{"osm_id":"4120681542","tag":{"amenity":"waste_basket"}},"type":"Feature"},
	{"geometry":{"coordinates":[13.418472,52.578],"type":"Point"},"properties":{"osm_id":"4120681543","tag":{"amenity":"waste_basket"}},"type":"Feature"},
	{"geometry":{"coordinates":[13.417968,52.578174],"type":"Point"},"properties":{"osm_id":"4120681544","tag":{"amenity":"waste_basket"}},"type":"Feature"},
	{"geometry":{"coordinates":[13.41807,52.578502],"type":"Point"},"properties":{"osm_id":"4120687052","tag":{"access":"private","amenity":"waste_disposal"}},"type":"Feature"},
	{"geometry":{"coordinates":[13.407335,52.547225],"type":"Point"},"properties":{"osm_id":"4151996189","tag":{"amenity":"waste_basket"}},"type":"Feature"},
	{"geometry":{"coordinates":[13.405743,52.551105],"type":"Point"},"properties":{"osm_id":"4152012589","tag":{"amenity":"waste_basket"}},"type":"Feature"},
	{"geometry":{"coordinates":[13.405801,52.551401],"type":"Point"},"properties":{"osm_id":"4152012689","tag":{"amenity":"waste_basket"}},"type":"Feature"},
	{"geometry":{"coordinates":[13.405342,52.549895],"type":"Point"},"properties":{"osm_id":"4152012789","tag":{"amenity":"waste_basket"}},"type":"Feature"},
	{"geometry":{"coordinates":[13.40785,52.550031],"type":"Point"},"properties":{"osm_id":"4152012889","tag":{"amenity":"waste_basket"}},"type":"Feature"},
	{"geometry":{"coordinates":[13.413528,52.54975],"type":"Point"},"properties":{"osm_id":"4152669089","tag":{"amenity":"waste_basket"}},"type":"Feature"},
	{"geometry":{"coordinates":[13.413378,52.54962],"type":"Point"},"properties":{"osm_id":"4152669090","tag":{"amenity":"waste_basket"}},"type":"Feature"},
	{"geometry":{"coordinates":[13.410063,52.55005],"type":"Point"},"properties":{"osm_id":"4152669189","tag":{"amenity":"waste_basket"}},"type":"Feature"},
	{"geometry":{"coordinates":[13.437932,52.539484],"type":"Point"},"properties":{"osm_id":"4152700493","tag":{"amenity":"waste_basket"}},"type":"Feature"},
	{"geometry":{"coordinates":[13.438592,52.5407],"type":"Point"},"properties":{"osm_id":"4152700494","tag":{"amenity":"waste_basket"}},"type":"Feature"},
	{"geometry":{"coordinates":[13.438356,52.540483],"type":"Point"},"properties":{"osm_id":"4152700495","tag":{"amenity":"waste_basket"}},"type":"Feature"},
	{"geometry":{"coordinates":[13.437476,52.539018],"type":"Point"},"properties":{"osm_id":"4152700496","tag":{"amenity":"waste_basket"}},"type":"Feature"},
	{"geometry":{"coordinates":[13.437739,52.539248],"type":"Point"},"properties":{"osm_id":"4152700893","tag":{"amenity":"waste_basket"}},"type":"Feature"},
	{"geometry":{"coordinates":[13.437471,52.538738],"type":"Point"},"properties":{"osm_id":"4152700895","tag":{"amenity":"waste_basket"}},"type":"Feature"},
	{"geometry":{"coordinates":[13.438192,52.53847],"type":"Point"},"properties":{"osm_id":"4152700896","tag":{"amenity":"waste_basket"}},"type":"Feature"},
	{"geometry":{"coordinates":[13.438859,52.537737],"type":"Point"},"properties":{"osm_id":"4152700898","tag":{"amenity":"waste_basket"}},"type":"Feature"},
	{"geometry":{"coordinates":[13.43678,52.539698],"type":"Point"},"properties":{"osm_id":"4152718089","tag":{"amenity":"waste_basket"}},"type":"Feature"},
	{"geometry":{"coordinates":[13.440013,52.53721],"type":"Point"},"properties":{"osm_id":"4152718090","tag":{"amenity":"waste_basket"}},"type":"Feature"},
	{"geometry":{"coordinates":[13.441627,52.536961],"type":"Point"},"properties":{"osm_id":"4152718091","tag":{"amenity":"waste_basket"}},"type":"Feature"},
	{"geometry":{"coordinates":[13.440405,52.536349],"type":"Point"},"properties":{"osm_id":"4152718092","tag":{"amenity":"waste_basket"}},"type":"Feature"},
	{"geometry":{"coordinates":[13.440721,52.537117],"type":"Point"},"properties":{"osm_id":"4152718189","tag":{"amenity":"waste_basket"}},"type":"Feature"},
	{"geometry":{"coordinates":[13.441128,52.536721],"type":"Point"},"properties":{"osm_id":"4152718190","tag":{"amenity":"waste_basket"}},"type":"Feature"},
	{"geometry":{"coordinates":[13.439243,52.55791],"type":"Point"},"properties":{"osm_id":"4184035189","tag":{"amenity":"waste_basket"}},"type":"Feature"},
	{"geometry":{"coordinates":[13.41724,52.543348],"type":"Point"},"properties":{"osm_id":"4187343493","tag":{"amenity":"waste_basket"}},"type":"Feature"},
	{"geometry":{"coordinates":[13.417027,52.543319],"type":"Point"},"properties":{"osm_id":"4187348593","tag":{"amenity":"waste_basket"}},"type":"Feature"},
	{"geometry":{"coordinates":[13.417169,52.54345],"type":"Point"},"properties":{"osm_id":"4187372591","tag":{"amenity":"waste_basket"}},"type":"Feature"},
	{"geometry":{"coordinates":[13.438001,52.555097],"type":"Point"},"properties":{"osm_id":"4200225395","tag":{"amenity":"waste_basket"}},"type":"Feature"},
	{"geometry":{"coordinates":[13.444474,52.574613],"type":"Point"},"properties":{"osm_id":"4200225457","tag":{"amenity":"waste_basket"}},"type":"Feature"},
	{"geometry":{"coordinates":[13.444622,52.577047],"type":"Point"},"properties":{"osm_id":"4200225460","tag":{"amenity":"waste_basket"}},"type":"Feature"},
	{"geometry":{"coordinates":[13.444515,52.577462],"type":"Point"},"properties":{"osm_id":"4200225461","tag":{"amenity":"waste_basket"}},"type":"Feature"},
	{"geometry":{"coordinates":[13.389433,52.549087],"type":"Point"},"properties":{"osm_id":"4264679407","tag":{"amenity":"waste_basket","level":"-1"}},"type":"Feature"},
	{"geometry":{"coordinates":[13.37778,52.542231],"type":"Point"},"properties":{"osm_id":"4306025970","tag":{"amenity":"recycling","recycling:glass_bottles":"yes","recycling_type":"container"}},"type":"Feature"},
	{"geometry":{"coordinates":[13.388883,52.549656],"type":"Point"},"properties":{"osm_id":"4317555806","tag":{"amenity":"waste_basket","level":"0"}},"type":"Feature"},
	{"geometry":{"coordinates":[13.385387,52.539338],"type":"Point"},"properties":{"osm_id":"4318477530","tag":{"amenity":"recycling","recycling:glass_bottles":"yes","recycling_type":"container"}},"type":"Feature"},
	{"geometry":{"coordinates":[13.415653,52.544204],"type":"Point"},"properties":{"osm_id":"4328369289","tag":{"amenity":"waste_basket"}},"type":"Feature"},
	{"geometry":{"coordinates":[13.420299,52.542092],"type":"Point"},"properties":{"osm_id":"4329806496","tag":{"amenity":"waste_basket"}},"type":"Feature"},
	{"geometry":{"coordinates":[13.373527,52.56568],"type":"Point"},"properties":{"osm_id":"4372570125","tag":{"amenity":"recycling","location":"overground","operator":"Gew. Fa. Mettex","recycling:clothes":"yes","recycling_type":"container"}},"type":"Feature"},
	{"geometry":{"coordinates":[13.371542,52.569192],"type":"Point"},"properties":{"osm_id":"4372575675","tag":{"amenity":"recycling","location":"overground","operator":"Gew. Fa. Mettex","recycling:clothes":"yes","recycling_type":"container"}},"type":"Feature"},
	{"geometry":{"coordinates":[13.374619,52.547208],"type":"Point"},"properties":{"osm_id":"4422608189","tag":{"amenity":"waste_basket"}},"type":"Feature"},
	{"geometry":{"coordinates":[13.37372,52.547645],"type":"Point"},"properties":{"osm_id":"4422608289","tag":{"amenity":"waste_basket"}},"type":"Feature"},
	{"geometry":{"coordinates":[13.41222,52.542016],"type":"Point"},"properties":{"osm_id":"4428038194","tag":{"amenity":"waste_basket","level":"1"}},"type":"Feature"},
	{"geometry":{"coordinates":[13.412222,52.542039],"type":"Point"},"properties":{"osm_id":"4428052291","tag":{"amenity":"waste_basket","level":"1"}},"type":"Feature"},
	{"geometry":{"coordinates":[13.41276,52.565928],"type":"Point"},"properties":{"osm_id":"4447642391","tag":{"amenity":"waste_basket","operator":"BSR"}},"type":"Feature"},
	{"geometry":{"coordinates":[13.373451,52.540263],"type":"Point"},"properties":{"osm_id":"4622711142","tag":{"amenity":"recycling","recycling:glass_bottles":"yes","recycling_type":"container"}},"type":"Feature"},
	{"geometry":{"coordinates":[13.439312,52.557816],"type":"Point"},"properties":{"osm_id":"4731726136","tag":{"amenity":"recycling","recycling:glass_bottles":"yes","recycling_type":"container"}},"type":"Feature"},
	{"geometry":{"coordinates":[13.427977,52.554035],"type":"Point"},"properties":{"osm_id":"4777093921","tag":{"amenity":"waste_basket"}},"type":"Feature"},
	{"geometry":{"coordinates":[13.42753,52.553882],"type":"Point"},"properties":{"osm_id":"4777093922","tag":{"amenity":"waste_basket"}},"type":"Feature"},
	{"geometry":{"coordinates":[13.421455,52.55977],"type":"Point"},"properties":{"osm_id":"4777121569","tag":{"amenity":"waste_basket"}},"type":"Feature"},
	{"geometry":{"coordinates":[13.422923,52.558801],"type":"Point"},"properties":{"osm_id":"4777121570","tag":{"amenity":"waste_basket"}},"type":"Feature"},
	{"geometry":{"coordinates":[13.422323,52.561381],"type":"Point"},"properties":{"osm_id":"4777121571","tag":{"amenity":"waste_basket"}},"type":"Feature"},
	{"geometry":{"coordinates":[13.421764,52.562784],"type":"Point"},"properties":{"osm_id":"4777121572","tag":{"amenity":"waste_basket"}},"type":"Feature"},
	{"geometry":{"coordinates":[13.422615,52.558566],"type":"Point"},"properties":{"osm_id":"4777121573","tag":{"amenity":"waste_basket"}},"type":"Feature"},
	{"geometry":{"coordinates":[13.422291,52.560839],"type":"Point"},"properties":{"osm_id":"4777121574","tag":{"amenity":"waste_basket"}},"type":"Feature"},
	{"geometry":{"coordinates":[13.421757,52.561218],"type":"Point"},"properties":{"osm_id":"4777121575","tag":{"amenity":"waste_basket"}},"type":"Feature"},
	{"geometry":{"coordinates":[13.421085,52.563629],"type":"Point"},"properties":{"osm_id":"4777121576","tag":{"amenity":"waste_basket"}},"type":"Feature"},
	{"geometry":{"coordinates":[13.426485,52.555518],"type":"Point"},"properties":{"osm_id":"4777121577","tag":{"amenity":"waste_basket"}},"type":"Feature"},
	{"geometry":{"coordinates":[13.421317,52.563066],"type":"Point"},"properties":{"osm_id":"4777121578","tag":{"amenity":"waste_basket"}},"type":"Feature"},
	{"geometry":{"coordinates":[13.423231,52.55745],"type":"Point"},"properties":{"osm_id":"4777121579","tag":{"amenity":"waste_basket"}},"type":"Feature"},
	{"geometry":{"coordinates":[13.422621,52.559628],"type":"Point"},"properties":{"osm_id":"4777121580","tag":{"amenity":"waste_basket"}},"type":"Feature"},
	{"geometry":{"coordinates":[13.422357,52.560531],"type":"Point"},"properties":{"osm_id":"4777121581","tag":{"amenity":"waste_basket"}},"type":"Feature"},
	{"geometry":{"coordinates":[13.422147,52.559727],"type":"Point"},"properties":{"osm_id":"4777121582","tag":{"amenity":"waste_basket"}},"type":"Feature"},
	{"geometry":{"coordinates":[13.42207,52.561822],"type":"Point"},"properties":{"osm_id":"4777121583","tag":{"amenity":"waste_basket"}},"type":"Feature"},
	{"geometry":{"coordinates":[13.423094,52.557352],"type":"Point"},"properties":{"osm_id":"4777121585","tag":{"amenity":"waste_basket"}},"type":"Feature"},
	{"geometry":{"coordinates":[13.423053,52.558274],"type":"Point"},"properties":{"osm_id":"4777121586","tag":{"amenity":"waste_basket"}},"type":"Feature"},
	{"geometry":{"coordinates":[13.423542,52.556242],"type":"Point"},"properties":{"osm_id":"4777121587","tag":{"amenity":"waste_basket"}},"type":"Feature"},
	{"geometry":{"coordinates":[13.379456,52.542857],"type":"Point"},"properties":{"osm_id":"4810458765","tag":{"amenity":"waste_basket"}},"type":"Feature"},
	{"geometry":{"coordinates":[13.380258,52.54337],"type":"Point"},"properties":{"osm_id":"4810458766","tag":{"amenity":"waste_basket"}},"type":"Feature"},
	{"geometry":{"coordinates":[13.380903,52.543689],"type":"Point"},"properties":{"osm_id":"4810458771","tag":{"amenity":"waste_basket"}},"type":"Feature"},
	{"geometry":{"coordinates":[13.380993,52.543746],"type":"Point"},"properties":{"osm_id":"4810458772","tag":{"amenity":"waste_basket"}},"type":"Feature"},
	{"geometry":{"coordinates":[13.381095,52.543806],"type":"Point"},"properties":{"osm_id":"4810458773","tag":{"amenity":"waste_basket"}},"type":"Feature"},
	{"geometry":{"coordinates":[13.381651,52.544254],"type":"Point"},"properties":{"osm_id":"4810458774","tag":{"amenity":"waste_basket"}},"type":"Feature"},
	{"geometry":{"coordinates":[13.381763,52.544222],"type":"Point"},"properties":{"osm_id":"4810458775","tag":{"amenity":"waste_basket"}},"type":"Feature"},
	{"geometry":{"coordinates":[13.381816,52.544309],"type":"Point"},"properties":{"osm_id":"4810458776","tag":{"amenity":"waste_basket"}},"type":"Feature"},
	{"geometry":{"coordinates":[13.383971,52.545884],"type":"Point"},"properties":{"osm_id":"4810458788","tag":{"amenity":"waste_basket"}},"type":"Feature"},
	{"geometry":{"coordinates":[13.384703,52.546035],"type":"Point"},"properties":{"osm_id":"4810458789","tag":{"amenity":"waste_basket"}},"type":"Feature"},
	{"geometry":{"coordinates":[13.384998,52.546123],"type":"Point"},"properties":{"osm_id":"4810458792","tag":{"amenity":"waste_basket"}},"type":"Feature"},
	{"geometry":{"coordinates":[13.385473,52.546251],"type":"Point"},"properties":{"osm_id":"4810458794","tag":{"amenity":"waste_basket"}},"type":"Feature"},
	{"geometry":{"coordinates":[13.373267,52.543282],"type":"Point"},"properties":{"osm_id":"4811474071","tag":{"amenity":"waste_basket"}},"type":"Feature"},
	{"geometry":{"coordinates":[13.376806,52.542771],"type":"Point"},"properties":{"osm_id":"4811474080","tag":{"amenity":"waste_basket"}},"type":"Feature"},
	{"geometry":{"coordinates":[13.366158,52.536359],"type":"Point"},"properties":{"osm_id":"4811525161","tag":{"amenity":"waste_basket"}},"type":"Feature"},
	{"geometry":{"coordinates":[13.367477,52.536575],"type":"Point"},"properties":{"osm_id":"4811525170","tag":{"amenity":"waste_basket"}},"type":"Feature"},
	{"geometry":{"coordinates":[13.367064,52.53648],"type":"Point"},"properties":{"osm_id":"4811525171","tag":{"amenity":"waste_basket"}},"type":"Feature"},
	{"geometry":{"coordinates":[13.369586,52.536463],"type":"Point"},"properties":{"osm_id":"4811525177","tag":{"amenity":"waste_basket"}},"type":"Feature"},
	{"geometry":{"coordinates":[13.370668,52.53704],"type":"Point"},"properties":{"osm_id":"4811525180","tag":{"amenity":"waste_basket"}},"type":"Feature"},
	{"geometry":{"coordinates":[13.372799,52.540275],"type":"Point"},"properties":{"osm_id":"4811525195","tag":{"amenity":"waste_basket"}},"type":"Feature"},
	{"geometry":{"coordinates":[13.361808,52.537682],"type":"Point"},"properties":{"osm_id":"4811561193","tag":{"amenity":"waste_basket"}},"type":"Feature"},
	{"geometry":{"coordinates":[13.363535,52.537628],"type":"Point"},"properties":{"osm_id":"4811561194","tag":{"amenity":"waste_basket"}},"type":"Feature"},
	{"geometry":{"coordinates":[13.363924,52.537487],"type":"Point"},"properties":{"osm_id":"4811561195","tag":{"amenity":"waste_basket"}},"type":"Feature"},
	{"geometry":{"coordinates":[13.364363,52.537328],"type":"Point"},"properties":{"osm_id":"4811561196","tag":{"amenity":"waste_basket"}},"type":"Feature"},
	{"geometry":{"coordinates":[13.365518,52.536881],"type":"Point"},"properties":{"osm_id":"4811561197","tag":{"amenity":"waste_basket"}},"type":"Feature"},
	{"geometry":{"coordinates":[13.386428,52.556881],"type":"Point"},"properties":{"osm_id":"4812243867","tag":{"amenity":"waste_basket"}},"type":"Feature"},
	{"geometry":{"coordinates":[13.390867,52.565776],"type":"Point"},"properties":{"osm_id":"4817333043","tag":{"amenity":"recycling","operator":"Humana","recycling:clothes":"yes","recycling:shoes":"yes","recycling_type":"container"}},"type":"Feature"},
	{"geometry":{"coordinates":[13.391202,52.565616],"type":"Point"},"properties":{"osm_id":"4817333044","tag":{"amenity":"recycling","operator":"Deutsches Rotes Kreuz","recycling:clothes":"yes","recycling:shoes":"yes","recycling_type":"container"}},"type":"Feature"},
	{"geometry":{"coordinates":[13.391225,52.565607],"type":"Point"},"properties":{"osm_id":"4817333045","tag":{"amenity":"recycling","recycling:clothes":"yes","recycling:shoes":"yes","recycling_type":"container"}},"type":"Feature"},
	{"geometry":{"coordinates":[13.395331,52.561341],"type":"Point"},"properties":{"osm_id":"4847568235","tag":{"amenity":"recycling","recycling:clothes":"yes","recycling:shoes":"yes","recycling_type":"container"}},"type":"Feature"},
	{"geometry":{"coordinates":[13.406906,52.558854],"type":"Point"},"properties":{"osm_id":"4853308260","tag":{"amenity":"recycling","recycling:clothes":"yes","recycling:shoes":"yes","recycling_type":"container"}},"type":"Feature"},
	{"geometry":{"coordinates":[13.405898,52.559417],"type":"Point"},"properties":{"osm_id":"4853308262","tag":{"amenity":"recycling","recycling:clothes":"yes","recycling:shoes":"yes","recycling_type":"container"}},"type":"Feature"},
	{"geometry":{"coordinates":[13.403365,52.560315],"type":"Point"},"properties":{"osm_id":"4853308268","tag":{"amenity":"waste_basket"}},"type":"Feature"},
	{"geometry":{"coordinates":[13.404516,52.561378],"type":"Point"},"properties":{"osm_id":"4853308270","tag":{"amenity":"waste_basket"}},"type":"Feature"},
	{"geometry":{"coordinates":[13.442895,52.542858],"type":"Point"},"properties":{"osm_id":"4864174507","tag":{"amenity":"waste_basket"}},"type":"Feature"},
	{"geometry":{"coordinates":[13.384826,52.538251],"type":"Point"},"properties":{"osm_id":"4880475624","tag":{"amenity":"recycling","recycling:clothes":"yes","recycling:shoes":"yes","recycling_type":"container"}},"type":"Feature"},
	{"geometry":{"coordinates":[13.385042,52.538208],"type":"Point"},"properties":{"osm_id":"4880475625","tag":{"amenity":"recycling","recycling:clothes":"yes","recycling:shoes":"yes","recycling_type":"container"}},"type":"Feature"},
	{"geometry":{"coordinates":[13.385083,52.538242],"type":"Point"},"properties":{"osm_id":"4880475626","tag":{"amenity":"recycling","recycling:glass_bottles":"yes","recycling_type":"container"}},"type":"Feature"},
	{"geometry":{"coordinates":[13.427551,52.545803],"type":"Point"},"properties":{"osm_id":"4897980456","tag":{"amenity":"waste_basket"}},"type":"Feature"},
	{"geometry":{"coordinates":[13.381721,52.566633],"type":"Point"},"properties":{"osm_id":"4906512410","tag":{"amenity":"waste_basket"}},"type":"Feature"},
	{"geometry":{"coordinates":[13.402415,52.536765],"type":"Point"},"properties":{"osm_id":"5016861403","tag":{"amenity":"waste_basket"}},"type":"Feature"},
	{"geometry":{"coordinates":[13.38281,52.559687],"type":"Point"},"properties":{"osm_id":"5032732329","tag":{"amenity":"recycling","recycling:clothes":"yes","recycling_type":"container"}},"type":"Feature"},
	{"geometry":{"coordinates":[13.408335,52.55248],"type":"Point"},"properties":{"osm_id":"5243512944","tag":{"amenity":"waste_basket"}},"type":"Feature"},
	{"geometry":{"coordinates":[13.408545,52.552626],"type":"Point"},"properties":{"osm_id":"5249303971","tag":{"amenity":"waste_basket"}},"type":"Feature"},
	{"geometry":{"coordinates":[13.424089,52.569317],"type":"Point"},"properties":{"osm_id":"5271411229","tag":{"amenity":"recycling","operator":"Deutsches Rotes Kreuz","recycling:clothes":"yes","recycling_type":"container"}},"type":"Feature"},
	{"geometry":{"coordinates":[13.372252,52.552412],"type":"Point"},"properties":{"osm_id":"5272252867","tag":{"amenity":"recycling","count":"2","operator":"DRK","recycling:clothes":"yes","recycling_type":"container"}},"type":"Feature"},
	{"geometry":{"coordinates":[13.408935,52.552053],"type":"Point"},"properties":{"osm_id":"5328117933","tag":{"amenity":"waste_basket"}},"type":"Feature"},
	{"geometry":{"coordinates":[13.408893,52.551948],"type":"Point"},"properties":{"osm_id":"5328117934","tag":{"amenity":"waste_basket"}},"type":"Feature"},
	{"geometry":{"coordinates":[13.409105,52.551909],"type":"Point"},"properties":{"osm_id":"5328117935","tag":{"amenity":"waste_basket"}},"type":"Feature"},
	{"geometry":{"coordinates":[13.408357,52.550928],"type":"Point"},"properties":{"osm_id":"5335490479","tag":{"amenity":"waste_basket"}},"type":"Feature"},
	{"geometry":{"coordinates":[13.408297,52.55124],"type":"Point"},"properties":{"osm_id":"5335490480","tag":{"amenity":"waste_basket"}},"type":"Feature"},
	{"geometry":{"coordinates":[13.407327,52.551254],"type":"Point"},"properties":{"osm_id":"5335936333","tag":{"amenity":"waste_basket"}},"type":"Feature"},
	{"geometry":{"coordinates":[13.410346,52.551059],"type":"Point"},"properties":{"osm_id":"5335936334","tag":{"amenity":"waste_basket"}},"type":"Feature"},
	{"geometry":{"coordinates":[13.410033,52.550917],"type":"Point"},"properties":{"osm_id":"5335936335","tag":{"amenity":"waste_basket"}},"type":"Feature"},
	{"geometry":{"coordinates":[13.409753,52.551088],"type":"Point"},"properties":{"osm_id":"5335936339","tag":{"amenity":"waste_basket"}},"type":"Feature"},
	{"geometry":{"coordinates":[13.403884,52.551514],"type":"Point"},"properties":{"osm_id":"5335941285","tag":{"amenity":"waste_basket"}},"type":"Feature"},
	{"geometry":{"coordinates":[13.410212,52.550784],"type":"Point"},"properties":{"osm_id":"5337185825","tag":{"amenity":"waste_basket"}},"type":"Feature"},
	{"geometry":{"coordinates":[13.409331,52.552008],"type":"Point"},"properties":{"osm_id":"5337224183","tag":{"amenity":"waste_basket"}},"type":"Feature"},
	{"geometry":{"coordinates":[13.409184,52.552136],"type":"Point"},"properties":{"osm_id":"5337224184","tag":{"amenity":"waste_basket"}},"type":"Feature"},
	{"geometry":{"coordinates":[13.409048,52.552231],"type":"Point"},"properties":{"osm_id":"5337224185","tag":{"amenity":"waste_basket"}},"type":"Feature"},
	{"geometry":{"coordinates":[13.408806,52.552156],"type":"Point"},"properties":{"osm_id":"5337224186","tag":{"amenity":"waste_basket"}},"type":"Feature"},
	{"geometry":{"coordinates":[13.409272,52.551641],"type":"Point"},"properties":{"osm_id":"5337224601","tag":{"amenity":"waste_basket"}},"type":"Feature"},
	{"geometry":{"coordinates":[13.409622,52.551857],"type":"Point"},"properties":{"osm_id":"5337224602","tag":{"amenity":"waste_basket"}},"type":"Feature"},
	{"geometry":{"coordinates":[13.409292,52.551866],"type":"Point"},"properties":{"osm_id":"5337224603","tag":{"amenity":"waste_basket"}},"type":"Feature"},
	{"geometry":{"coordinates":[13.409601,52.551624],"type":"Point"},"properties":{"osm_id":"5337224604","tag":{"amenity":"waste_basket"}},"type":"Feature"},
	{"geometry":{"coordinates":[13.410128,52.551894],"type":"Point"},"properties":{"osm_id":"5337224607","tag":{"amenity":"waste_basket"}},"type":"Feature"},
	{"geometry":{"coordinates":[13.410265,52.551938],"type":"Point"},"properties":{"osm_id":"5337224612","tag":{"amenity":"waste_basket"}},"type":"Feature"},
	{"geometry":{"coordinates":[13.410044,52.551834],"type":"Point"},"properties":{"osm_id":"5337224614","tag":{"amenity":"waste_basket"}},"type":"Feature"},
	{"geometry":{"coordinates":[13.410497,52.55233],"type":"Point"},"properties":{"osm_id":"5337294213","tag":{"amenity":"waste_basket"}},"type":"Feature"},
	{"geometry":{"coordinates":[13.410848,52.552436],"type":"Point"},"properties":{"osm_id":"5337294214","tag":{"amenity":"waste_basket"}},"type":"Feature"},
	{"geometry":{"coordinates":[13.41386,52.552034],"type":"Point"},"properties":{"osm_id":"5337406384","tag":{"amenity":"waste_basket"}},"type":"Feature"},
	{"geometry":{"coordinates":[13.405793,52.55209],"type":"Point"},"properties":{"osm_id":"5337861412","tag":{"amenity":"waste_basket"}},"type":"Feature"},
	{"geometry":{"coordinates":[13.406101,52.552668],"type":"Point"},"properties":{"osm_id":"5337880427","tag":{"amenity":"waste_basket"}},"type":"Feature"},
	{"geometry":{"coordinates":[13.406046,52.553454],"type":"Point"},"properties":{"osm_id":"5337905711","tag":{"amenity":"waste_basket"}},"type":"Feature"},
	{"geometry":{"coordinates":[13.403809,52.552579],"type":"Point"},"properties":{"osm_id":"5339090706","tag":{"amenity":"waste_basket"}},"type":"Feature"},
	{"geometry":{"coordinates":[13.403305,52.552257],"type":"Point"},"properties":{"osm_id":"5339094923","tag":{"amenity":"waste_basket"}},"type":"Feature"},
	{"geometry":{"coordinates":[13.402998,52.553038],"type":"Point"},"properties":{"osm_id":"5339175760","tag":{"amenity":"waste_basket"}},"type":"Feature"},
	{"geometry":{"coordinates":[13.40044,52.551237],"type":"Point"},"properties":{"osm_id":"5339217909","tag":{"amenity":"waste_basket"}},"type":"Feature"},
	{"geometry":{"coordinates":[13.399329,52.553661],"type":"Point"},"properties":{"osm_id":"5403962822","tag":{"amenity":"recycling","recycling:clothes":"yes","recycling_type":"container"}},"type":"Feature"},
	{"geometry":{"coordinates":[13.399332,52.553652],"type":"Point"},"properties":{"osm_id":"5403962823","tag":{"amenity":"recycling","recycling:shoes":"yes","recycling_type":"container"}},"type":"Feature"},
	{"geometry":{"coordinates":[13.411397,52.557522],"type":"Point"},"properties":{"osm_id":"5420297223","tag":{"amenity":"recycling","recycling:clothes":"yes","recycling:shoes":"yes","recycling_type":"container"}},"type":"Feature"},
	{"geometry":{"coordinates":[13.407253,52.560497],"type":"Point"},"properties":{"osm_id":"5420304914","tag":{"amenity":"recycling","recycling:clothes":"yes","recycling_type":"container"}},"type":"Feature"},
	{"geometry":{"coordinates":[13.410833,52.562275],"type":"Point"},"properties":{"osm_id":"5423533322","tag":{"amenity":"waste_basket"}},"type":"Feature"},
	{"geometry":{"coordinates":[13.411679,52.562598],"type":"Point"},"properties":{"osm_id":"5423533323","tag":{"amenity":"waste_basket"}},"type":"Feature"},
	{"geometry":{"coordinates":[13.409148,52.550796],"type":"Point"},"properties":{"osm_id":"5451560613","tag":{"amenity":"recycling","recycling:clothes":"yes","recycling_type":"container"}},"type":"Feature"},
	{"geometry":{"coordinates":[13.399775,52.540457],"type":"Point"},"properties":{"osm_id":"5690894091","tag":{"amenity":"waste_basket"}},"type":"Feature"},
	{"geometry":{"coordinates":[13.400323,52.539728],"type":"Point"},"properties":{"osm_id":"5690894092","tag":{"amenity":"waste_basket"}},"type":"Feature"},
	{"geometry":{"coordinates":[13.404698,52.540089],"type":"Point"},"properties":{"osm_id":"5745858241","tag":{"amenity":"recycling","recycling:clothes":"yes","recycling_type":"container"}},"type":"Feature"},
	{"geometry":{"coordinates":[13.39983,52.581226],"type":"Point"},"properties":{"osm_id":"5869191886","tag":{"amenity":"waste_basket"}},"type":"Feature"},
	{"geometry":{"coordinates":[13.417731,52.549791],"type":"Point"},"properties":{"osm_id":"5964709369","tag":{"amenity":"waste_basket"}},"type":"Feature"},
	{"geometry":{"coordinates":[13.408606,52.553147],"type":"Point"},"properties":{"osm_id":"6071816590","tag":{"amenity":"waste_basket"}},"type":"Feature"},
	{"geometry":{"coordinates":[13.378075,52.569803],"type":"Point"},"properties":{"osm_id":"6157289438","tag":{"amenity":"recycling","recycling:clothes":"yes","recycling_type":"container"}},"type":"Feature"},
	{"geometry":{"coordinates":[13.374365,52.558661],"type":"Point"},"properties":{"osm_id":"6183509465","tag":{"amenity":"recycling","colour":"blue","operator":"Islamic Relief Kleiderkammer","recycling:clothes":"yes","recycling:shoes":"yes","recycling_type":"container"}},"type":"Feature"},
	{"geometry":{"coordinates":[13.364865,52.563175],"type":"Point"},"properties":{"osm_id":"6223129189","tag":{"amenity":"waste_basket"}},"type":"Feature"},
	{"geometry":{"coordinates":[13.365095,52.563173],"type":"Point"},"properties":{"osm_id":"6223129190","tag":{"amenity":"waste_basket"}},"type":"Feature"},
	{"geometry":{"coordinates":[13.365474,52.56325],"type":"Point"},"properties":{"osm_id":"6223129191","tag":{"amenity":"waste_basket"}},"type":"Feature"},
	{"geometry":{"coordinates":[13.365759,52.565394],"type":"Point"},"properties":{"osm_id":"6228353077","tag":{"amenity":"waste_basket"}},"type":"Feature"},
	{"geometry":{"coordinates":[13.365512,52.565387],"type":"Point"},"properties":{"osm_id":"6228368028","tag":{"amenity":"waste_basket"}},"type":"Feature"},
	{"geometry":{"coordinates":[13.363855,52.565114],"type":"Point"},"properties":{"osm_id":"6228369353","tag":{"amenity":"waste_basket"}},"type":"Feature"},
	{"geometry":{"coordinates":[13.364446,52.563981],"type":"Point"},"properties":{"osm_id":"6228372615","tag":{"amenity":"waste_basket"}},"type":"Feature"},
	{"geometry":{"coordinates":[13.420004,52.545725],"type":"Point"},"properties":{"osm_id":"6240208285","tag":{"amenity":"waste_basket"}},"type":"Feature"},
	{"geometry":{"coordinates":[13.419865,52.545827],"type":"Point"},"properties":{"osm_id":"6241543485","tag":{"amenity":"waste_basket"}},"type":"Feature"},
	{"geometry":{"coordinates":[13.425699,52.552564],"type":"Point"},"properties":{"osm_id":"6241544886","tag":{"amenity":"waste_basket"}},"type":"Feature"},
	{"geometry":{"coordinates":[13.41876,52.546909],"type":"Point"},"properties":{"osm_id":"6241552585","tag":{"amenity":"waste_basket"}},"type":"Feature"},
	{"geometry":{"coordinates":[13.425242,52.55236],"type":"Point"},"properties":{"osm_id":"6241558788","tag":{"amenity":"waste_basket"}},"type":"Feature"},
	{"geometry":{"coordinates":[13.425347,52.552602],"type":"Point"},"properties":{"osm_id":"6241574785","tag":{"amenity":"waste_basket"}},"type":"Feature"},
	{"geometry":{"coordinates":[13.423656,52.552704],"type":"Point"},"properties":{"osm_id":"6241685487","tag":{"amenity":"waste_basket"}},"type":"Feature"},
	{"geometry":{"coordinates":[13.423844,52.552684],"type":"Point"},"properties":{"osm_id":"6241685600","tag":{"amenity":"waste_basket"}},"type":"Feature"},
	{"geometry":{"coordinates":[13.409493,52.552239],"type":"Point"},"properties":{"osm_id":"6271222881","tag":{"amenity":"waste_basket"}},"type":"Feature"},
	{"geometry":{"coordinates":[13.437965,52.53967],"type":"Point"},"properties":{"osm_id":"6391812028","tag":{"amenity":"waste_basket"}},"type":"Feature"},
	{"geometry":{"coordinates":[13.436842,52.538864],"type":"Point"},"properties":{"osm_id":"6391812058","tag":{"amenity":"waste_basket"}},"type":"Feature"},
	{"geometry":{"coordinates":[13.436818,52.53878],"type":"Point"},"properties":{"osm_id":"6391812059","tag":{"amenity":"waste_basket"}},"type":"Feature"},
	{"geometry":{"coordinates":[13.3621,52.549126],"type":"Point"},"properties":{"osm_id":"6407950925","tag":{"amenity":"waste_basket","wheelchair":"yes"}},"type":"Feature"},
	{"geometry":{"coordinates":[13.427314,52.542109],"type":"Point"},"properties":{"osm_id":"6438420927","tag":{"amenity":"waste_basket"}},"type":"Feature"},
	{"geometry":{"coordinates":[13.42765,52.541989],"type":"Point"},"properties":{"osm_id":"6438420928","tag":{"amenity":"waste_basket"}},"type":"Feature"},
	{"geometry":{"coordinates":[13.439134,52.541017],"type":"Point"},"properties":{"osm_id":"6557168567","tag":{"amenity":"waste_basket","material":"plastic","operator":"Berliner Stadtreinigungsbetriebe"}},"type":"Feature"},
	{"geometry":{"coordinates":[13.441088,52.543353],"type":"Point"},"properties":{"osm_id":"6557168568","tag":{"amenity":"waste_basket","material":"plastic","operator":"Berliner Stadtreinigungsbetriebe"}},"type":"Feature"},
	{"geometry":{"coordinates":[13.439096,52.541762],"type":"Point"},"properties":{"osm_id":"6557189710","tag":{"amenity":"waste_basket","material":"plastic","operator":"Berliner Stadtreinigungsbetriebe"}},"type":"Feature"},
	{"geometry":{"coordinates":[13.384579,52.545665],"type":"Point"},"properties":{"osm_id":"6654983943","tag":{"amenity":"waste_basket"}},"type":"Feature"},
	{"geometry":{"coordinates":[13.434666,52.539576],"type":"Point"},"properties":{"osm_id":"6726732177","tag":{"amenity":"waste_basket","waste":"trash"}},"type":"Feature"},
	{"geometry":{"coordinates":[13.435064,52.539554],"type":"Point"},"properties":{"osm_id":"6726732178","tag":{"amenity":"waste_basket","waste":"trash"}},"type":"Feature"},
	{"geometry":{"coordinates":[13.433391,52.539562],"type":"Point"},"properties":{"osm_id":"6726823840","tag":{"amenity":"waste_basket","waste":"trash"}},"type":"Feature"},
	{"geometry":{"coordinates":[13.405686,52.537578],"type":"Point"},"properties":{"osm_id":"6831162202","tag":{"amenity":"recycling","recycling:clothes":"yes","recycling_type":"container"}},"type":"Feature"},
	{"geometry":{"coordinates":[13.369963,52.542776],"type":"Point"},"properties":{"osm_id":"6895858792","tag":{"amenity":"waste_basket","waste":"trash"}},"type":"Feature"},
	{"geometry":{"coordinates":[13.37082,52.542974],"type":"Point"},"properties":{"osm_id":"6895858798","tag":{"amenity":"waste_basket","waste":"trash"}},"type":"Feature"},
	{"geometry":{"coordinates":[13.407943,52.541579],"type":"Point"},"properties":{"osm_id":"7042090530","tag":{"amenity":"recycling","recycling:glass_bottles":"yes","recycling_type":"container"}},"type":"Feature"},
	{"geometry":{"coordinates":[13.437656,52.538717],"type":"Point"},"properties":{"osm_id":"7064592183","tag":{"amenity":"waste_basket"}},"type":"Feature"},
	{"geometry":{"coordinates":[13.423615,52.555139],"type":"Point"},"properties":{"osm_id":"7077597949","tag":{"amenity":"waste_basket"}},"type":"Feature"},
	{"geometry":{"coordinates":[13.422892,52.556084],"type":"Point"},"properties":{"osm_id":"7077659158","tag":{"amenity":"waste_basket"}},"type":"Feature"},
	{"geometry":{"coordinates":[13.42286,52.556087],"type":"Point"},"properties":{"osm_id":"7077669020","tag":{"amenity":"waste_basket"}},"type":"Feature"},
	{"geometry":{"coordinates":[13.364913,52.565184],"type":"Point"},"properties":{"osm_id":"7126769776","tag":{"amenity":"recycling","email":"container-service@web.de","phone":"+49 151 47418192","recycling:clothes":"yes","recycling:shoes":"yes","recycling_type":"container"}},"type":"Feature"},
	{"geometry":{"coordinates":[13.370296,52.565515],"type":"Point"},"properties":{"osm_id":"7126803315","tag":{"amenity":"recycling","recycling:clothes":"yes","recycling:shoes":"yes","recycling_type":"container"}},"type":"Feature"},
	{"geometry":{"coordinates":[13.37464,52.560766],"type":"Point"},"properties":{"osm_id":"7158145136","tag":{"amenity":"waste_basket","waste":"trash"}},"type":"Feature"},
	{"geometry":{"coordinates":[13.371762,52.56074],"type":"Point"},"properties":{"osm_id":"7158145137","tag":{"amenity":"waste_basket","waste":"trash"}},"type":"Feature"},
	{"geometry":{"coordinates":[13.373049,52.543575],"type":"Point"},"properties":{"osm_id":"7219901038","tag":{"amenity":"waste_basket","waste":"trash"}},"type":"Feature"},
	{"geometry":{"coordinates":[13.373009,52.543367],"type":"Point"},"properties":{"osm_id":"7219901039","tag":{"amenity":"waste_basket","waste":"trash"}},"type":"Feature"},
	{"geometry":{"coordinates":[13.373042,52.543229],"type":"Point"},"properties":{"osm_id":"7219901042","tag":{"amenity":"waste_basket","waste":"trash"}},"type":"Feature"},
	{"geometry":{"coordinates":[13.372959,52.543201],"type":"Point"},"properties":{"osm_id":"7219901043","tag":{"amenity":"waste_basket","waste":"trash"}},"type":"Feature"},
	{"geometry":{"coordinates":[13.373197,52.543665],"type":"Point"},"properties":{"osm_id":"7220756065","tag":{"amenity":"waste_basket","waste":"trash"}},"type":"Feature"},
	{"geometry":{"coordinates":[13.373382,52.543671],"type":"Point"},"properties":{"osm_id":"7220756066","tag":{"amenity":"waste_basket","waste":"trash"}},"type":"Feature"},
	{"geometry":{"coordinates":[13.373396,52.543439],"type":"Point"},"properties":{"osm_id":"7220756070","tag":{"amenity":"waste_basket","waste":"trash"}},"type":"Feature"},
	{"geometry":{"coordinates":[13.37122,52.54292],"type":"Point"},"properties":{"osm_id":"7220790045","tag":{"amenity":"waste_basket","waste":"trash"}},"type":"Feature"},
	{"geometry":{"coordinates":[13.371762,52.542948],"type":"Point"},"properties":{"osm_id":"7220790046","tag":{"amenity":"waste_basket","waste":"trash"}},"type":"Feature"},
	{"geometry":{"coordinates":[13.372044,52.543018],"type":"Point"},"properties":{"osm_id":"7220790047","tag":{"amenity":"waste_basket","waste":"trash"}},"type":"Feature"},
	{"geometry":{"coordinates":[13.411495,52.555316],"type":"Point"},"properties":{"osm_id":"7238438645","tag":{"access":"private","amenity":"waste_disposal"}},"type":"Feature"},
	{"geometry":{"coordinates":[13.411524,52.555314],"type":"Point"},"properties":{"osm_id":"7238438646","tag":{"access":"private","amenity":"waste_disposal"}},"type":"Feature"},
	{"geometry":{"coordinates":[13.41155,52.555313],"type":"Point"},"properties":{"osm_id":"7238438647","tag":{"access":"private","amenity":"waste_disposal"}},"type":"Feature"},
	{"geometry":{"coordinates":[13.411577,52.555311],"type":"Point"},"properties":{"osm_id":"7238438648","tag":{"access":"private","amenity":"waste_disposal"}},"type":"Feature"},
	{"geometry":{"coordinates":[13.411607,52.555309],"type":"Point"},"properties":{"osm_id":"7238438649","tag":{"access":"private","amenity":"waste_disposal"}},"type":"Feature"},
	{"geometry":{"coordinates":[13.365409,52.539642],"type":"Point"},"properties":{"osm_id":"7263276548","tag":{"amenity":"waste_basket","waste":"trash"}},"type":"Feature"},
	{"geometry":{"coordinates":[13.374815,52.538082],"type":"Point"},"properties":{"osm_id":"7299242663","tag":{"amenity":"waste_disposal","waste":"trash"}},"type":"Feature"},
	{"geometry":{"coordinates":[13.373829,52.538526],"type":"Point"},"properties":{"osm_id":"7299242673","tag":{"amenity":"waste_disposal","waste":"trash"}},"type":"Feature"},
	{"geometry":{"coordinates":[13.373732,52.538976],"type":"Point"},"properties":{"osm_id":"7299242674","tag":{"amenity":"waste_disposal","waste":"trash"}},"type":"Feature"},
	{"geometry":{"coordinates":[13.374421,52.539266],"type":"Point"},"properties":{"osm_id":"7299242680","tag":{"amenity":"waste_disposal","waste":"trash"}},"type":"Feature"},
	{"geometry":{"coordinates":[13.37442,52.539462],"type":"Point"},"properties":{"osm_id":"7299242681","tag":{"amenity":"waste_disposal","waste":"trash"}},"type":"Feature"},
	{"geometry":{"coordinates":[13.373206,52.542128],"type":"Point"},"properties":{"osm_id":"7299242684","tag":{"amenity":"recycling","recycling:glass_bottles":"yes","recycling_type":"container"}},"type":"Feature"},
	{"geometry":{"coordinates":[13.373478,52.540098],"type":"Point"},"properties":{"osm_id":"7299249885","tag":{"amenity":"waste_disposal","waste":"trash"}},"type":"Feature"},
	{"geometry":{"coordinates":[13.405232,52.546082],"type":"Point"},"properties":{"osm_id":"7308664668","tag":{"amenity":"waste_basket","waste":"trash"}},"type":"Feature"},
	{"geometry":{"coordinates":[13.405332,52.545729],"type":"Point"},"properties":{"osm_id":"7308664674","tag":{"amenity":"waste_basket","waste":"trash"}},"type":"Feature"},
	{"geometry":{"coordinates":[13.403009,52.545147],"type":"Point"},"properties":{"osm_id":"7318588890","tag":{"amenity":"waste_basket","waste":"trash"}},"type":"Feature"},
	{"geometry":{"coordinates":[13.389999,52.562908],"type":"Point"},"properties":{"osm_id":"7335715724","tag":{"amenity":"recycling","opening_hours":"24/7","operator":"Cavtex","recycling:clothes":"yes","recycling:shoes":"yes","recycling_type":"container","website":"https://cavtex.de","wheelchair":"yes"}},"type":"Feature"},
	{"geometry":{"coordinates":[13.391126,52.55269],"type":"Point"},"properties":{"osm_id":"7368977058","tag":{"amenity":"recycling","recycling:clothes":"yes","recycling_type":"container"}},"type":"Feature"},
	{"geometry":{"coordinates":[13.393583,52.556501],"type":"Point"},"properties":{"osm_id":"7369027302","tag":{"amenity":"recycling","recycling:clothes":"yes","recycling_type":"container"}},"type":"Feature"},
	{"geometry":{"coordinates":[13.389788,52.550118],"type":"Point"},"properties":{"osm_id":"7369038309","tag":{"amenity":"recycling","recycling:glass":"yes","recycling_type":"container"}},"type":"Feature"},
	{"geometry":{"coordinates":[13.379166,52.544213],"type":"Point"},"properties":{"osm_id":"7369307324","tag":{"amenity":"recycling","opening_hours":"24/7","recycling:glass":"yes","recycling:glass_bottles":"yes","recycling_type":"container","wheelchair":"yes"}},"type":"Feature"},
	{"geometry":{"coordinates":[13.374783,52.548299],"type":"Point"},"properties":{"osm_id":"7369307326","tag":{"amenity":"recycling","opening_hours":"24/7","recycling:clothes":"yes","recycling:shoes":"yes","recycling_type":"container","wheelchair":"yes"}},"type":"Feature"},
	{"geometry":{"coordinates":[13.421918,52.556154],"type":"Point"},"properties":{"osm_id":"7448832575","tag":{"amenity":"waste_basket"}},"type":"Feature"},
	{"geometry":{"coordinates":[13.392393,52.555426],"type":"Point"},"properties":{"osm_id":"7498739027","tag":{"amenity":"waste_basket","waste":"trash"}},"type":"Feature"},
	{"geometry":{"coordinates":[13.378683,52.564659],"type":"Point"},"properties":{"osm_id":"7499366502","tag":{"amenity":"recycling","opening_hours":"24/7","recycling:glass":"yes","recycling:glass:colour":"white; brown; green","recycling_type":"container","wheelchair":"yes"}},"type":"Feature"},
	{"geometry":{"coordinates":[13.424086,52.546263],"type":"Point"},"properties":{"osm_id":"7580301587","tag":{"amenity":"waste_disposal","operator":"BSR","waste":"mixed;cigarettes"}},"type":"Feature"},
	{"geometry":{"coordinates":[13.424022,52.54619],"type":"Point"},"properties":{"osm_id":"7580301588","tag":{"amenity":"waste_disposal","operator":"BSR","waste":"mixed;cigarettes"}},"type":"Feature"},
	{"geometry":{"coordinates":[13.399661,52.545543],"type":"Point"},"properties":{"osm_id":"7656590699","tag":{"amenity":"waste_basket"}},"type":"Feature"},
	{"geometry":{"coordinates":[13.403486,52.545283],"type":"Point"},"properties":{"osm_id":"7656603124","tag":{"amenity":"waste_basket"}},"type":"Feature"},
	{"geometry":{"coordinates":[13.399777,52.546288],"type":"Point"},"properties":{"osm_id":"7656604030","tag":{"amenity":"waste_basket"}},"type":"Feature"},
	{"geometry":{"coordinates":[13.401559,52.54563],"type":"Point"},"properties":{"osm_id":"7656619816","tag":{"amenity":"waste_basket"}},"type":"Feature"},
	{"geometry":{"coordinates":[13.403925,52.545398],"type":"Point"},"properties":{"osm_id":"7656629038","tag":{"amenity":"waste_basket"}},"type":"Feature"},
	{"geometry":{"coordinates":[13.400662,52.546337],"type":"Point"},"properties":{"osm_id":"7656632101","tag":{"amenity":"waste_basket"}},"type":"Feature"},
	{"geometry":{"coordinates":[13.405301,52.546227],"type":"Point"},"properties":{"osm_id":"7656634535","tag":{"amenity":"waste_basket"}},"type":"Feature"},
	{"geometry":{"coordinates":[13.402223,52.544773],"type":"Point"},"properties":{"osm_id":"7656635783","tag":{"amenity":"waste_basket"}},"type":"Feature"},
	{"geometry":{"coordinates":[13.404863,52.545557],"type":"Point"},"properties":{"osm_id":"7656643309","tag":{"amenity":"waste_basket"}},"type":"Feature"},
	{"geometry":{"coordinates":[13.404861,52.545735],"type":"Point"},"properties":{"osm_id":"7656644195","tag":{"amenity":"waste_basket"}},"type":"Feature"},
	{"geometry":{"coordinates":[13.399467,52.546],"type":"Point"},"properties":{"osm_id":"7656649870","tag":{"amenity":"waste_basket"}},"type":"Feature"},
	{"geometry":{"coordinates":[13.401785,52.544995],"type":"Point"},"properties":{"osm_id":"7656652505","tag":{"amenity":"waste_basket"}},"type":"Feature"},
	{"geometry":{"coordinates":[13.402015,52.544998],"type":"Point"},"properties":{"osm_id":"7656652712","tag":{"amenity":"waste_basket"}},"type":"Feature"},
	{"geometry":{"coordinates":[13.401737,52.54525],"type":"Point"},"properties":{"osm_id":"7656653186","tag":{"amenity":"waste_basket"}},"type":"Feature"},
	{"geometry":{"coordinates":[13.401169,52.545555],"type":"Point"},"properties":{"osm_id":"7656653293","tag":{"amenity":"waste_basket"}},"type":"Feature"},
	{"geometry":{"coordinates":[13.399763,52.54525],"type":"Point"},"properties":{"osm_id":"7656653690","tag":{"amenity":"waste_basket"}},"type":"Feature"},
	{"geometry":{"coordinates":[13.401424,52.54514],"type":"Point"},"properties":{"osm_id":"7656653994","tag":{"amenity":"waste_basket"}},"type":"Feature"},
	{"geometry":{"coordinates":[13.432861,52.536441],"type":"Point"},"properties":{"osm_id":"7788281421","tag":{"amenity":"waste_basket"}},"type":"Feature"},
	{"geometry":{"coordinates":[13.376508,52.537032],"type":"Point"},"properties":{"osm_id":"7819045775","tag":{"amenity":"waste_basket","colour":"grey","material":"metal"}},"type":"Feature"},
	{"geometry":{"coordinates":[13.377676,52.536975],"type":"Point"},"properties":{"osm_id":"7823522300","tag":{"amenity":"waste_basket","colour":"grey","material":"metal"}},"type":"Feature"},
	{"geometry":{"coordinates":[13.375895,52.537089],"type":"Point"},"properties":{"osm_id":"7823522323","tag":{"amenity":"waste_basket","colour":"grey","material":"metal"}},"type":"Feature"},
	{"geometry":{"coordinates":[13.375218,52.537755],"type":"Point"},"properties":{"osm_id":"7932008480","tag":{"amenity":"recycling","operator":"Deutsches Rotes Kreuz","recycling:clothes":"yes","recycling_type":"container"}},"type":"Feature"},
	{"geometry":{"coordinates":[13.374697,52.537469],"type":"Point"},"properties":{"osm_id":"7932008482","tag":{"amenity":"waste_basket","colour":"orange","operator":"Berliner Stadtreinigung","waste":"mixed"}},"type":"Feature"},
	{"geometry":{"coordinates":[13.373744,52.559884],"type":"Point"},"properties":{"osm_id":"7935016835","tag":{"amenity":"waste_basket","waste":"trash"}},"type":"Feature"},
	{"geometry":{"coordinates":[13.374188,52.560139],"type":"Point"},"properties":{"osm_id":"7935016836","tag":{"amenity":"waste_basket","waste":"trash"}},"type":"Feature"},
	{"geometry":{"coordinates":[13.37703,52.577665],"type":"Point"},"properties":{"osm_id":"7947799184","tag":{"amenity":"waste_basket","waste":"trash"}},"type":"Feature"},
	{"geometry":{"coordinates":[13.380305,52.572684],"type":"Point"},"properties":{"osm_id":"7947799587","tag":{"amenity":"waste_basket","waste":"trash"}},"type":"Feature"},
	{"geometry":{"coordinates":[13.380028,52.571651],"type":"Point"},"properties":{"osm_id":"7947799589","tag":{"amenity":"waste_basket","waste":"trash"}},"type":"Feature"},
	{"geometry":{"coordinates":[13.376197,52.579104],"type":"Point"},"properties":{"osm_id":"7947799592","tag":{"amenity":"waste_basket","waste":"trash"}},"type":"Feature"},
	{"geometry":{"coordinates":[13.372872,52.581744],"type":"Point"},"properties":{"osm_id":"7947799593","tag":{"amenity":"waste_basket","waste":"trash"}},"type":"Feature"},
	{"geometry":{"coordinates":[13.374483,52.580078],"type":"Point"},"properties":{"osm_id":"7947799597","tag":{"amenity":"waste_basket","waste":"trash"}},"type":"Feature"},
	{"geometry":{"coordinates":[13.379803,52.571651],"type":"Point"},"properties":{"osm_id":"7947799603","tag":{"amenity":"waste_basket","waste":"trash"}},"type":"Feature"},
	{"geometry":{"coordinates":[13.379838,52.571775],"type":"Point"},"properties":{"osm_id":"7947799604","tag":{"amenity":"waste_basket","waste":"trash"}},"type":"Feature"}
]
}
