{
"type": "FeatureCollection",
"features": [
	{"geometry":{"coordinates":[13.362413,52.476474],"type":"Point"},"properties":{"barrier":"gate","osm_id":"304514351","tag":{"access":"customers","bicycle":"yes","foot":"yes","motorcar":"yes","motorcycle":"yes"}},"type":"Feature"},
	{"geometry":{"coordinates":[13.366754,52.46143],"type":"Point"},"properties":{"osm_id":"315363226","tag":{"amenity":"recycling","location":"overground","recycling_type":"container"}},"type":"Feature"},
	{"geometry":{"coordinates":[13.437562,52.470823],"type":"Point"},"properties":{"osm_id":"392310411","tag":{"amenity":"recycling","recycling:glass_bottles":"yes","recycling_type":"container"}},"type":"Feature"},
	{"geometry":{"coordinates":[13.386561,52.443247],"type":"Point"},"properties":{"osm_id":"442394432","tag":{"amenity":"recycling","location":"overground","recycling:glass_bottles":"yes","recycling_type":"container"}},"type":"Feature"},
	{"geometry":{"coordinates":[13.436773,52.466089],"type":"Point"},"properties":{"osm_id":"446904791","tag":{"amenity":"recycling","operator":"Karl Meyer Rohstoffverwertung","recycling:glass_bottles":"yes","recycling_type":"container"}},"type":"Feature"},
	{"geometry":{"coordinates":[13.441921,52.456584],"type":"Point"},"properties":{"osm_id":"457823907","tag":{"amenity":"recycling","recycling:glass_bottles":"yes","recycling_type":"container"}},"type":"Feature"},
	{"geometry":{"coordinates":[13.437215,52.464671],"type":"Point"},"properties":{"osm_id":"457824254","tag":{"amenity":"recycling","operator":"Karl Meyer Rohstoffverwertung","recycling:glass_bottles":"yes","recycling_type":"container"}},"type":"Feature"},
	{"geometry":{"coordinates":[13.414346,52.464583],"type":"Point"},"properties":{"osm_id":"466456753","tag":{"amenity":"recycling","recycling:clothes":"yes","recycling_type":"container"}},"type":"Feature"},
	{"geometry":{"coordinates":[13.398101,52.439973],"type":"Point"},"properties":{"osm_id":"472470025","tag":{"amenity":"recycling","operator":"Humana","recycling:clothes":"yes"}},"type":"Feature"},
	{"geometry":{"coordinates":[13.430263,52.442775],"type":"Point"},"properties":{"osm_id":"472472559","tag":{"amenity":"recycling","recycling:glass_bottles":"yes","recycling_type":"container"}},"type":"Feature"},
	{"geometry":{"coordinates":[13.430532,52.442761],"type":"Point"},"properties":{"osm_id":"472472560","tag":{"amenity":"recycling","location":"overground","operator":"Humana","recycling:clothes":"yes","recycling_type":"container"}},"type":"Feature"},
	{"geometry":{"coordinates":[13.435095,52.447574],"type":"Point"},"properties":{"osm_id":"472475862","tag":{"amenity":"recycling","location":"overground","recycling:glass_bottles":"yes","recycling_type":"container"}},"type":"Feature"},
	{"geometry":{"coordinates":[13.446631,52.472502],"type":"Point"},"properties":{"osm_id":"476260483","tag":{"amenity":"recycling","operator":"Karl Meyer Rohstoffverwertung","recycling:glass_bottles":"yes","recycling_type":"container"}},"type":"Feature"},
	{"geometry":{"coordinates":[13.413352,52.45777],"type":"Point"},"properties":{"osm_id":"510603223","tag":{"amenity":"recycling","recycling:glass_bottles":"yes","recycling_type":"container"}},"type":"Feature"},
	{"geometry":{"coordinates":[13.393392,52.459895],"type":"Point"},"properties":{"osm_id":"510799080","tag":{"amenity":"recycling","recycling:glass_bottles":"yes","recycling_type":"container"}},"type":"Feature"},
	{"geometry":{"coordinates":[13.428214,52.467382],"type":"Point"},"properties":{"osm_id":"511117575","tag":{"amenity":"recycling","recycling:clothes":"yes","recycling_type":"container"}},"type":"Feature"},
	{"geometry":{"coordinates":[13.431145,52.475908],"type":"Point"},"properties":{"osm_id":"513998858","tag":{"amenity":"recycling","recycling:clothes":"yes","recycling_type":"container"}},"type":"Feature"},
	{"geometry":{"coordinates":[13.436905,52.474541],"type":"Point"},"properties":{"osm_id":"513998869","tag":{"amenity":"recycling","recycling:glass_bottles":"yes","recycling_type":"container"}},"type":"Feature"},
	{"geometry":{"coordinates":[13.366339,52.436424],"type":"Point"},"properties":{"osm_id":"572213133","tag":{"amenity":"recycling","brown":"yes","green":"yes","recycling:glass_bottles":"yes","recycling_type":"container","white":"yes"}},"type":"Feature"},
	{"geometry":{"coordinates":[13.427589,52.451276],"type":"Point"},"properties":{"barrier":"gate","osm_id":"618561224"},"type":"Feature"},
	{"geometry":{"coordinates":[13.42758,52.451477],"type":"Point"},"properties":{"barrier":"gate","osm_id":"618561235"},"type":"Feature"},
	{"geometry":{"coordinates":[13.431615,52.472289],"type":"Point"},"properties":{"osm_id":"658617877","tag":{"amenity":"recycling","colour":"green;white;brown","recycling:glass_bottles":"yes","recycling_type":"container"}},"type":"Feature"},
	{"geometry":{"coordinates":[13.439642,52.447718],"type":"Point"},"properties":{"osm_id":"861642771","tag":{"amenity":"waste_basket"}},"type":"Feature"},
	{"geometry":{"coordinates":[13.43969,52.446929],"type":"Point"},"properties":{"osm_id":"861642784","tag":{"amenity":"waste_basket"}},"type":"Feature"},
	{"geometry":{"coordinates":[13.43891,52.446181],"type":"Point"},"properties":{"osm_id":"861642820","tag":{"amenity":"waste_basket"}},"type":"Feature"},
	{"geometry":{"coordinates":[13.440658,52.445668],"type":"Point"},"properties":{"osm_id":"861642837","tag":{"amenity":"waste_basket"}},"type":"Feature"},
	{"geometry":{"coordinates":[13.439153,52.447455],"type":"Point"},"properties":{"osm_id":"861642850","tag":{"amenity":"waste_basket"}},"type":"Feature"},
	{"geometry":{"coordinates":[13.441052,52.446026],"type":"Point"},"properties":{"osm_id":"861642869","tag":{"amenity":"waste_basket"}},"type":"Feature"},
	{"geometry":{"coordinates":[13.438948,52.44781],"type":"Point"},"properties":{"osm_id":"861642870","tag":{"amenity":"waste_basket"}},"type":"Feature"},
	{"geometry":{"coordinates":[13.439353,52.446086],"type":"Point"},"properties":{"osm_id":"861642900","tag":{"amenity":"waste_basket"}},"type":"Feature"},
	{"geometry":{"coordinates":[13.439679,52.447171],"type":"Point"},"properties":{"osm_id":"861642901","tag":{"amenity":"waste_basket"}},"type":"Feature"},
	{"geometry":{"coordinates":[13.394618,52.464161],"type":"Point"},"properties":{"osm_id":"864945521","tag":{"amenity":"recycling","operator":"Deutsches Rotes Kreuz","recycling:clothes":"yes","recycling_type":"container"}},"type":"Feature"},
	{"geometry":{"coordinates":[13.38794,52.460748],"type":"Point"},"properties":{"osm_id":"1295813840","tag":{"amenity":"waste_basket"}},"type":"Feature"},
	{"geometry":{"coordinates":[13.387832,52.460419],"type":"Point"},"properties":{"osm_id":"1295813853","tag":{"amenity":"recycling","recycling:glass_bottles":"yes","recycling_type":"container"}},"type":"Feature"},
	{"geometry":{"coordinates":[13.387674,52.460489],"type":"Point"},"properties":{"osm_id":"1295813872","tag":{"amenity":"waste_basket"}},"type":"Feature"},
	{"geometry":{"coordinates":[13.387661,52.460759],"type":"Point"},"properties":{"osm_id":"1295813898","tag":{"amenity":"waste_basket"}},"type":"Feature"},
	{"geometry":{"coordinates":[13.430023,52.469528],"type":"Point"},"properties":{"osm_id":"1307115282","tag":{"amenity":"recycling","operator":"Karl Meyer Rohstoffverwertung","recycling:glass_bottles":"yes","recycling_type":"container"}},"type":"Feature"},
	{"geometry":{"coordinates":[13.381375,52.478186],"type":"Point"},"properties":{"osm_id":"1313558826","tag":{"amenity":"recycling","operator":"Altkleiderfirma Narg\u00c3\u00bcl","recycling:clothes":"yes","recycling_type":"container"}},"type":"Feature"},
	{"geometry":{"coordinates":[13.377092,52.4804],"type":"Point"},"properties":{"osm_id":"1313558847","tag":{"amenity":"recycling","operator":"Gew. Fa. Mettex","recycling:clothes":"yes","recycling_type":"container"}},"type":"Feature"},
	{"geometry":{"coordinates":[13.386674,52.431192],"type":"Point"},"properties":{"osm_id":"1419412373","tag":{"amenity":"waste_basket"}},"type":"Feature"},
	{"geometry":{"coordinates":[13.447241,52.445922],"type":"Point"},"properties":{"osm_id":"1446390548","tag":{"amenity":"waste_basket"}},"type":"Feature"},
	{"geometry":{"coordinates":[13.437987,52.446591],"type":"Point"},"properties":{"osm_id":"1484094690","tag":{"amenity":"waste_basket"}},"type":"Feature"},
	{"geometry":{"coordinates":[13.435453,52.458498],"type":"Point"},"properties":{"osm_id":"1507947405","tag":{"amenity":"waste_basket"}},"type":"Feature"},
	{"geometry":{"coordinates":[13.371255,52.473089],"type":"Point"},"properties":{"osm_id":"1757753425","tag":{"amenity":"waste_basket"}},"type":"Feature"},
	{"geometry":{"coordinates":[13.371033,52.473155],"type":"Point"},"properties":{"osm_id":"1757753434","tag":{"amenity":"waste_basket"}},"type":"Feature"},
	{"geometry":{"coordinates":[13.370838,52.473621],"type":"Point"},"properties":{"osm_id":"1757753569","tag":{"amenity":"waste_disposal","waste":"trash"}},"type":"Feature"},
	{"geometry":{"coordinates":[13.371657,52.473774],"type":"Point"},"properties":{"osm_id":"1757753586","tag":{"amenity":"waste_basket"}},"type":"Feature"},
	{"geometry":{"coordinates":[13.370658,52.473996],"type":"Point"},"properties":{"osm_id":"1757753634","tag":{"access":"private","amenity":"waste_disposal","waste":"trash"}},"type":"Feature"},
	{"geometry":{"coordinates":[13.370203,52.474175],"type":"Point"},"properties":{"osm_id":"1757753675","tag":{"access":"private","amenity":"waste_disposal","waste":"trash"}},"type":"Feature"},
	{"geometry":{"coordinates":[13.438324,52.466098],"type":"Point"},"properties":{"osm_id":"1896519265","tag":{"amenity":"waste_basket"}},"type":"Feature"},
	{"geometry":{"coordinates":[13.379482,52.462777],"type":"Point"},"properties":{"osm_id":"1941881231","tag":{"amenity":"recycling","recycling:clothes":"yes","recycling_type":"container"}},"type":"Feature"},
	{"geometry":{"coordinates":[13.444372,52.454812],"type":"Point"},"properties":{"osm_id":"2006551208","tag":{"amenity":"recycling","recycling:glass_bottles":"yes","recycling_type":"container"}},"type":"Feature"},
	{"geometry":{"coordinates":[13.398385,52.478032],"type":"Point"},"properties":{"osm_id":"2023933194","tag":{"amenity":"waste_disposal","colour":"black","operator":"BSR","waste":"trash"}},"type":"Feature"},
	{"geometry":{"coordinates":[13.420783,52.46202],"type":"Point"},"properties":{"osm_id":"2098916710","tag":{"amenity":"recycling","location":"overground","recycling:clothes":"yes","recycling_type":"container"}},"type":"Feature"},
	{"geometry":{"coordinates":[13.37721,52.467024],"type":"Point"},"properties":{"osm_id":"2164141688","tag":{"amenity":"recycling","recycling:clothes":"yes","recycling_type":"container"}},"type":"Feature"},
	{"geometry":{"coordinates":[13.378317,52.445102],"type":"Point"},"properties":{"osm_id":"2273449492","tag":{"amenity":"waste_basket"}},"type":"Feature"},
	{"geometry":{"coordinates":[13.379241,52.44525],"type":"Point"},"properties":{"highway":"street_lamp","osm_id":"2273449494","tag":{"amenity":"waste_basket","lamp_type":"electric"}},"type":"Feature"},
	{"geometry":{"coordinates":[13.386334,52.443418],"type":"Point"},"properties":{"highway":"street_lamp","osm_id":"2284936720","tag":{"amenity":"waste_basket","lamp_type":"electric"}},"type":"Feature"},
	{"geometry":{"coordinates":[13.385847,52.443898],"type":"Point"},"properties":{"osm_id":"2284936729","tag":{"amenity":"waste_basket"}},"type":"Feature"},
	{"geometry":{"coordinates":[13.385847,52.443983],"type":"Point"},"properties":{"osm_id":"2284936733","tag":{"amenity":"waste_basket"}},"type":"Feature"},
	{"geometry":{"coordinates":[13.385558,52.44547],"type":"Point"},"properties":{"osm_id":"2284936759","tag":{"amenity":"waste_basket"}},"type":"Feature"},
	{"geometry":{"coordinates":[13.38599,52.445494],"type":"Point"},"properties":{"osm_id":"2284936760","tag":{"amenity":"waste_basket"}},"type":"Feature"},
	{"geometry":{"coordinates":[13.400443,52.463283],"type":"Point"},"properties":{"osm_id":"2357179703","tag":{"amenity":"recycling","location":"overground","recycling_type":"container"}},"type":"Feature"},
	{"geometry":{"coordinates":[13.378644,52.449885],"type":"Point"},"properties":{"osm_id":"2623917355","tag":{"amenity":"recycling","location":"overground","recycling:clothes":"yes","recycling_type":"container"}},"type":"Feature"},
	{"geometry":{"coordinates":[13.37843,52.451136],"type":"Point"},"properties":{"osm_id":"2623918011","tag":{"amenity":"recycling","location":"overground","recycling:glass_bottles":"yes","recycling_type":"container"}},"type":"Feature"},
	{"geometry":{"coordinates":[13.416759,52.431112],"type":"Point"},"properties":{"osm_id":"2756088758","tag":{"amenity":"waste_basket"}},"type":"Feature"},
	{"geometry":{"coordinates":[13.433854,52.431888],"type":"Point"},"properties":{"osm_id":"2758107777","tag":{"amenity":"waste_basket"}},"type":"Feature"},
	{"geometry":{"coordinates":[13.426581,52.429722],"type":"Point"},"properties":{"osm_id":"2763863473","tag":{"amenity":"waste_basket"}},"type":"Feature"},
	{"geometry":{"coordinates":[13.377343,52.475526],"type":"Point"},"properties":{"osm_id":"2978287430","tag":{"amenity":"recycling","recycling:glass_bottles":"yes","recycling_type":"container"}},"type":"Feature"},
	{"geometry":{"coordinates":[13.38461,52.459194],"type":"Point"},"properties":{"osm_id":"3033299469","tag":{"amenity":"waste_basket","colour":"orange","material":"metal","support":"pole","waste":"trash;cigarettes"}},"type":"Feature"},
	{"geometry":{"coordinates":[13.383155,52.459399],"type":"Point"},"properties":{"osm_id":"3033299470","tag":{"amenity":"recycling","recycling:glass_bottles":"yes","recycling_type":"container"}},"type":"Feature"},
	{"geometry":{"coordinates":[13.383993,52.459453],"type":"Point"},"properties":{"osm_id":"3033299471","tag":{"amenity":"waste_basket"}},"type":"Feature"},
	{"geometry":{"coordinates":[13.381802,52.459635],"type":"Point"},"properties":{"osm_id":"3033299473","tag":{"amenity":"waste_basket","colour":"orange","material":"metal","support":"pole","waste":"trash;cigarettes"}},"type":"Feature"},
	{"geometry":{"coordinates":[13.378467,52.457351],"type":"Point"},"properties":{"osm_id":"3041779739","tag":{"amenity":"waste_basket"}},"type":"Feature"},
	{"geometry":{"coordinates":[13.375713,52.45776],"type":"Point"},"properties":{"osm_id":"3041779742","tag":{"amenity":"waste_basket"}},"type":"Feature"},
	{"geometry":{"coordinates":[13.376123,52.457776],"type":"Point"},"properties":{"osm_id":"3041779744","tag":{"amenity":"waste_basket"}},"type":"Feature"},
	{"geometry":{"coordinates":[13.38164,52.458288],"type":"Point"},"properties":{"osm_id":"3041779745","tag":{"amenity":"waste_basket"}},"type":"Feature"},
	{"geometry":{"coordinates":[13.380953,52.458423],"type":"Point"},"properties":{"osm_id":"3041779747","tag":{"amenity":"waste_basket"}},"type":"Feature"},
	{"geometry":{"coordinates":[13.378794,52.458572],"type":"Point"},"properties":{"osm_id":"3041779748","tag":{"amenity":"recycling","recycling:clothes":"yes","recycling_type":"container"}},"type":"Feature"},
	{"geometry":{"coordinates":[13.378563,52.458673],"type":"Point"},"properties":{"osm_id":"3041779749","tag":{"amenity":"waste_basket"}},"type":"Feature"},
	{"geometry":{"coordinates":[13.376306,52.458594],"type":"Point"},"properties":{"osm_id":"3041779750","tag":{"amenity":"waste_basket"}},"type":"Feature"},
	{"geometry":{"coordinates":[13.378883,52.458741],"type":"Point"},"properties":{"osm_id":"3041779751","tag":{"amenity":"waste_basket"}},"type":"Feature"},
	{"geometry":{"coordinates":[13.376021,52.458749],"type":"Point"},"properties":{"osm_id":"3041779752","tag":{"amenity":"recycling","recycling:glass_bottles":"yes","recycling_type":"container"}},"type":"Feature"},
	{"geometry":{"coordinates":[13.3765,52.458852],"type":"Point"},"properties":{"osm_id":"3041779753","tag":{"amenity":"waste_basket"}},"type":"Feature"},
	{"geometry":{"coordinates":[13.379806,52.459684],"type":"Point"},"properties":{"osm_id":"3041779756","tag":{"amenity":"waste_basket"}},"type":"Feature"},
	{"geometry":{"coordinates":[13.378873,52.459895],"type":"Point"},"properties":{"osm_id":"3041779757","tag":{"amenity":"waste_basket"}},"type":"Feature"},
	{"geometry":{"coordinates":[13.376721,52.459982],"type":"Point"},"properties":{"osm_id":"3041779758","tag":{"amenity":"waste_basket","colour":"orange","material":"metal","support":"pole","waste":"trash;cigarettes"}},"type":"Feature"},
	{"geometry":{"coordinates":[13.379009,52.460443],"type":"Point"},"properties":{"osm_id":"3041779759","tag":{"amenity":"waste_basket","colour":"orange","material":"metal","support":"pole","waste":"trash;cigarettes"}},"type":"Feature"},
	{"geometry":{"coordinates":[13.384028,52.458087],"type":"Point"},"properties":{"osm_id":"3051029068","tag":{"amenity":"waste_basket","colour":"orange","material":"metal","support":"pole","waste":"trash;cigarettes"}},"type":"Feature"},
	{"geometry":{"coordinates":[13.384378,52.458106],"type":"Point"},"properties":{"osm_id":"3051029069","tag":{"amenity":"waste_basket","colour":"orange","material":"metal","support":"pole","waste":"trash;cigarettes"}},"type":"Feature"},
	{"geometry":{"coordinates":[13.384421,52.458268],"type":"Point"},"properties":{"osm_id":"3051029070","tag":{"amenity":"waste_basket","colour":"orange","material":"metal","support":"pole","waste":"trash;cigarettes"}},"type":"Feature"},
	{"geometry":{"coordinates":[13.384089,52.458341],"type":"Point"},"properties":{"osm_id":"3051029071","tag":{"amenity":"waste_basket","colour":"orange","material":"metal","support":"pole","waste":"trash;cigarettes"}},"type":"Feature"},
	{"geometry":{"coordinates":[13.432569,52.478286],"type":"Point"},"properties":{"osm_id":"3052213480","tag":{"amenity":"waste_basket"}},"type":"Feature"},
	{"geometry":{"coordinates":[13.377182,52.45626],"type":"Point"},"properties":{"osm_id":"3110893891","tag":{"amenity":"recycling","recycling:clothes":"yes","recycling_type":"container"}},"type":"Feature"},
	{"geometry":{"coordinates":[13.435083,52.477892],"type":"Point"},"properties":{"osm_id":"3169517446","tag":{"amenity":"recycling","recycling:clothes":"yes","recycling_type":"container"}},"type":"Feature"},
	{"geometry":{"coordinates":[13.436661,52.474508],"type":"Point"},"properties":{"osm_id":"3220472979","tag":{"amenity":"waste_basket"}},"type":"Feature"},
	{"geometry":{"coordinates":[13.38504,52.471669],"type":"Point"},"properties":{"osm_id":"3225762391","tag":{"amenity":"recycling","recycling:clothes":"yes","recycling_type":"container"}},"type":"Feature"},
	{"geometry":{"coordinates":[13.385064,52.470137],"type":"Point"},"properties":{"osm_id":"3225767547","tag":{"amenity":"recycling","recycling:clothes":"yes","recycling_type":"container"}},"type":"Feature"},
	{"geometry":{"coordinates":[13.385089,52.470138],"type":"Point"},"properties":{"osm_id":"3225767548","tag":{"amenity":"recycling","recycling:shoes":"yes","recycling_type":"container"}},"type":"Feature"},
	{"geometry":{"coordinates":[13.401174,52.459354],"type":"Point"},"properties":{"osm_id":"3247235361","tag":{"amenity":"waste_basket"}},"type":"Feature"},
	{"geometry":{"coordinates":[13.365042,52.432994],"type":"Point"},"properties":{"name":"Wertstoff Ankauf Lankwitz","osm_id":"3309835874","tag":{"addr:city":"Berlin","addr:country":"DE","addr:housenumber":"65","addr:postcode":"12249","addr:street":"Haynauer Stra\u00c3\u009fe","addr:suburb":"Lankwitz","amenity":"recycling","operator":"Wertstoff Ankauf Lankwitz","recycling:cans":"yes","recycling:clothes":"yes","recycling:paper":"yes","recycling_type":"centre"}},"type":"Feature"},
	{"geometry":{"coordinates":[13.421687,52.478643],"type":"Point"},"properties":{"osm_id":"3564543706","tag":{"amenity":"recycling","recycling:glass_bottles":"yes","recycling_type":"container"}},"type":"Feature"},
	{"geometry":{"coordinates":[13.432375,52.478454],"type":"Point"},"properties":{"osm_id":"3608658751","tag":{"amenity":"waste_basket"}},"type":"Feature"},
	{"geometry":{"coordinates":[13.365208,52.474565],"type":"Point"},"properties":{"osm_id":"3844735445","tag":{"amenity":"waste_basket","level":"0"}},"type":"Feature"},
	{"geometry":{"coordinates":[13.364941,52.474625],"type":"Point"},"properties":{"osm_id":"3844735450","tag":{"amenity":"waste_basket","level":"0"}},"type":"Feature"},
	{"geometry":{"coordinates":[13.364677,52.474685],"type":"Point"},"properties":{"osm_id":"3844736957","tag":{"amenity":"waste_basket","level":"0"}},"type":"Feature"},
	{"geometry":{"coordinates":[13.366088,52.474787],"type":"Point"},"properties":{"osm_id":"3844736980","tag":{"amenity":"waste_basket","level":"0"}},"type":"Feature"},
	{"geometry":{"coordinates":[13.365387,52.474887],"type":"Point"},"properties":{"osm_id":"3844737010","tag":{"amenity":"waste_basket","level":"0"}},"type":"Feature"},
	{"geometry":{"coordinates":[13.36512,52.474946],"type":"Point"},"properties":{"osm_id":"3844737043","tag":{"amenity":"waste_basket","level":"0"}},"type":"Feature"},
	{"geometry":{"coordinates":[13.364855,52.475006],"type":"Point"},"properties":{"osm_id":"3844737172","tag":{"amenity":"waste_basket","level":"0"}},"type":"Feature"},
	{"geometry":{"coordinates":[13.365747,52.47511],"type":"Point"},"properties":{"osm_id":"3844737198","tag":{"amenity":"waste_basket","level":"1"}},"type":"Feature"},
	{"geometry":{"coordinates":[13.365635,52.47522],"type":"Point"},"properties":{"osm_id":"3844737251","tag":{"amenity":"waste_basket","level":"1"}},"type":"Feature"},
	{"geometry":{"coordinates":[13.365587,52.475237],"type":"Point"},"properties":{"osm_id":"3844737256","tag":{"amenity":"waste_basket","level":"0"}},"type":"Feature"},
	{"geometry":{"coordinates":[13.365525,52.475264],"type":"Point"},"properties":{"osm_id":"3844737267","tag":{"amenity":"waste_basket","level":"1"}},"type":"Feature"},
	{"geometry":{"coordinates":[13.36532,52.475297],"type":"Point"},"properties":{"osm_id":"3844737278","tag":{"amenity":"waste_basket","level":"0"}},"type":"Feature"},
	{"geometry":{"coordinates":[13.365566,52.475341],"type":"Point"},"properties":{"osm_id":"3844737293","tag":{"amenity":"waste_basket","level":"1"}},"type":"Feature"},
	{"geometry":{"coordinates":[13.365056,52.475356],"type":"Point"},"properties":{"osm_id":"3844737300","tag":{"amenity":"waste_basket","level":"0"}},"type":"Feature"},
	{"geometry":{"coordinates":[13.365757,52.475427],"type":"Point"},"properties":{"osm_id":"3844737338","tag":{"amenity":"waste_basket","level":"1"}},"type":"Feature"},
	{"geometry":{"coordinates":[13.365782,52.475472],"type":"Point"},"properties":{"osm_id":"3844737468","tag":{"amenity":"waste_basket","level":"1"}},"type":"Feature"},
	{"geometry":{"coordinates":[13.365367,52.47552],"type":"Point"},"properties":{"osm_id":"3844737491","tag":{"amenity":"waste_basket","level":"1"}},"type":"Feature"},
	{"geometry":{"coordinates":[13.365407,52.475596],"type":"Point"},"properties":{"osm_id":"3844737522","tag":{"amenity":"waste_basket","level":"1"}},"type":"Feature"},
	{"geometry":{"coordinates":[13.364861,52.47562],"type":"Point"},"properties":{"osm_id":"3844737536","tag":{"amenity":"waste_basket","level":"0"}},"type":"Feature"},
	{"geometry":{"coordinates":[13.365824,52.475673],"type":"Point"},"properties":{"osm_id":"3844737576","tag":{"amenity":"waste_basket","level":"0"}},"type":"Feature"},
	{"geometry":{"coordinates":[13.365557,52.475733],"type":"Point"},"properties":{"osm_id":"3844737621","tag":{"amenity":"waste_basket","level":"0"}},"type":"Feature"},
	{"geometry":{"coordinates":[13.365206,52.475748],"type":"Point"},"properties":{"osm_id":"3844737626","tag":{"amenity":"waste_basket","level":"1"}},"type":"Feature"},
	{"geometry":{"coordinates":[13.365293,52.475793],"type":"Point"},"properties":{"osm_id":"3844737646","tag":{"amenity":"waste_basket","level":"0"}},"type":"Feature"},
	{"geometry":{"coordinates":[13.365247,52.475824],"type":"Point"},"properties":{"osm_id":"3844737661","tag":{"amenity":"waste_basket","level":"1"}},"type":"Feature"},
	{"geometry":{"coordinates":[13.365935,52.475863],"type":"Point"},"properties":{"osm_id":"3844737682","tag":{"amenity":"waste_basket","level":"0"}},"type":"Feature"},
	{"geometry":{"coordinates":[13.365668,52.475923],"type":"Point"},"properties":{"osm_id":"3844737721","tag":{"amenity":"waste_basket","level":"0"}},"type":"Feature"},
	{"geometry":{"coordinates":[13.365403,52.475982],"type":"Point"},"properties":{"osm_id":"3844737750","tag":{"amenity":"waste_basket","level":"0"}},"type":"Feature"},
	{"geometry":{"coordinates":[13.365358,52.476003],"type":"Point"},"properties":{"osm_id":"3844737758","tag":{"amenity":"waste_basket","level":"1"}},"type":"Feature"},
	{"geometry":{"coordinates":[13.365119,52.476063],"type":"Point"},"properties":{"osm_id":"3844737784","tag":{"amenity":"waste_basket","level":"0"}},"type":"Feature"},
	{"geometry":{"coordinates":[13.365399,52.47608],"type":"Point"},"properties":{"osm_id":"3844737794","tag":{"amenity":"waste_basket","level":"1"}},"type":"Feature"},
	{"geometry":{"coordinates":[13.366095,52.47612],"type":"Point"},"properties":{"osm_id":"3844737811","tag":{"amenity":"waste_basket","level":"0"}},"type":"Feature"},
	{"geometry":{"coordinates":[13.365827,52.476179],"type":"Point"},"properties":{"osm_id":"3844737846","tag":{"amenity":"waste_basket","level":"0"}},"type":"Feature"},
	{"geometry":{"coordinates":[13.365563,52.476239],"type":"Point"},"properties":{"osm_id":"3844737863","tag":{"amenity":"waste_basket","level":"0"}},"type":"Feature"},
	{"geometry":{"coordinates":[13.365121,52.476432],"type":"Point"},"properties":{"osm_id":"3844737972","tag":{"amenity":"waste_basket","level":"1"}},"type":"Feature"},
	{"geometry":{"coordinates":[13.366294,52.476455],"type":"Point"},"properties":{"osm_id":"3844737987","tag":{"amenity":"waste_basket","level":"0"}},"type":"Feature"},
	{"geometry":{"coordinates":[13.365396,52.476489],"type":"Point"},"properties":{"osm_id":"3844738009","tag":{"amenity":"waste_basket","level":"0"}},"type":"Feature"},
	{"geometry":{"coordinates":[13.366023,52.476512],"type":"Point"},"properties":{"osm_id":"3844738024","tag":{"amenity":"waste_basket","level":"0"}},"type":"Feature"},
	{"geometry":{"coordinates":[13.365759,52.476569],"type":"Point"},"properties":{"osm_id":"3844738062","tag":{"amenity":"waste_basket","level":"0"}},"type":"Feature"},
	{"geometry":{"coordinates":[13.366442,52.476704],"type":"Point"},"properties":{"osm_id":"3844738113","tag":{"amenity":"waste_basket","level":"0"}},"type":"Feature"},
	{"geometry":{"coordinates":[13.366172,52.47676],"type":"Point"},"properties":{"osm_id":"3844738125","tag":{"amenity":"waste_basket","level":"0"}},"type":"Feature"},
	{"geometry":{"coordinates":[13.365907,52.476817],"type":"Point"},"properties":{"osm_id":"3844738130","tag":{"amenity":"waste_basket","level":"0"}},"type":"Feature"},
	{"geometry":{"coordinates":[13.366545,52.476876],"type":"Point"},"properties":{"osm_id":"3844738141","tag":{"amenity":"waste_basket","level":"0"}},"type":"Feature"},
	{"geometry":{"coordinates":[13.366275,52.476932],"type":"Point"},"properties":{"osm_id":"3844738149","tag":{"amenity":"waste_basket","level":"0"}},"type":"Feature"},
	{"geometry":{"coordinates":[13.36601,52.47699],"type":"Point"},"properties":{"osm_id":"3844738151","tag":{"amenity":"waste_basket","level":"0"}},"type":"Feature"},
	{"geometry":{"coordinates":[13.366798,52.477301],"type":"Point"},"properties":{"osm_id":"3844738273","tag":{"amenity":"waste_basket","level":"0"}},"type":"Feature"},
	{"geometry":{"coordinates":[13.366528,52.477358],"type":"Point"},"properties":{"osm_id":"3844738277","tag":{"amenity":"waste_basket","level":"0"}},"type":"Feature"},
	{"geometry":{"coordinates":[13.366264,52.477415],"type":"Point"},"properties":{"osm_id":"3844738281","tag":{"amenity":"waste_basket","level":"0"}},"type":"Feature"},
	{"geometry":{"coordinates":[13.441905,52.468227],"type":"Point"},"properties":{"osm_id":"3865616073","tag":{"amenity":"waste_basket","level":"-2"}},"type":"Feature"},
	{"geometry":{"coordinates":[13.441891,52.468321],"type":"Point"},"properties":{"osm_id":"3865616075","tag":{"amenity":"waste_basket","level":"-2"}},"type":"Feature"},
	{"geometry":{"coordinates":[13.441849,52.468451],"type":"Point"},"properties":{"osm_id":"3865616082","tag":{"amenity":"waste_basket","layer":"-2","level":"-2"}},"type":"Feature"},
	{"geometry":{"coordinates":[13.441826,52.468579],"type":"Point"},"properties":{"osm_id":"3865616087","tag":{"amenity":"waste_basket","layer":"-2","level":"-2"}},"type":"Feature"},
	{"geometry":{"coordinates":[13.441751,52.4689],"type":"Point"},"properties":{"osm_id":"3865616101","tag":{"amenity":"waste_basket","layer":"-2","level":"-2"}},"type":"Feature"},
	{"geometry":{"coordinates":[13.441741,52.468956],"type":"Point"},"properties":{"osm_id":"3865616103","tag":{"amenity":"waste_basket","layer":"-2","level":"-2"}},"type":"Feature"},
	{"geometry":{"coordinates":[13.441705,52.469091],"type":"Point"},"properties":{"osm_id":"3865616111","tag":{"amenity":"waste_basket","level":"-2"}},"type":"Feature"},
	{"geometry":{"coordinates":[13.436362,52.479982],"type":"Point"},"properties":{"osm_id":"3880652838","tag":{"amenity":"waste_basket"}},"type":"Feature"},
	{"geometry":{"coordinates":[13.446471,52.436993],"type":"Point"},"properties":{"osm_id":"3883500957","tag":{"amenity":"waste_basket"}},"type":"Feature"},
	{"geometry":{"coordinates":[13.381108,52.438046],"type":"Point"},"properties":{"osm_id":"3884823962","tag":{"amenity":"recycling","recycling:glass_bottles":"yes","recycling_type":"container"}},"type":"Feature"},
	{"geometry":{"coordinates":[13.384768,52.452244],"type":"Point"},"properties":{"osm_id":"3948690929","tag":{"amenity":"recycling","recycling:glass_bottles":"yes","recycling_type":"container"}},"type":"Feature"},
	{"geometry":{"coordinates":[13.366515,52.435294],"type":"Point"},"properties":{"osm_id":"3950037081","tag":{"amenity":"waste_basket"}},"type":"Feature"},
	{"geometry":{"coordinates":[13.374381,52.454817],"type":"Point"},"properties":{"osm_id":"3953205970","tag":{"amenity":"waste_basket"}},"type":"Feature"},
	{"geometry":{"coordinates":[13.374159,52.455436],"type":"Point"},"properties":{"osm_id":"3953205974","tag":{"amenity":"waste_basket"}},"type":"Feature"},
	{"geometry":{"coordinates":[13.377721,52.472366],"type":"Point"},"properties":{"osm_id":"3953206042","tag":{"amenity":"waste_basket"}},"type":"Feature"},
	{"geometry":{"coordinates":[13.373477,52.472858],"type":"Point"},"properties":{"osm_id":"3953206055","tag":{"amenity":"waste_basket"}},"type":"Feature"},
	{"geometry":{"coordinates":[13.436838,52.481161],"type":"Point"},"properties":{"osm_id":"4016221003","tag":{"amenity":"waste_basket"}},"type":"Feature"},
	{"geometry":{"coordinates":[13.429691,52.470226],"type":"Point"},"properties":{"osm_id":"4020300452","tag":{"amenity":"waste_basket"}},"type":"Feature"},
	{"geometry":{"coordinates":[13.426775,52.477753],"type":"Point"},"properties":{"osm_id":"4032629839","tag":{"amenity":"waste_basket"}},"type":"Feature"},
	{"geometry":{"coordinates":[13.39684,52.453034],"type":"Point"},"properties":{"osm_id":"4032903238","tag":{"amenity":"waste_basket"}},"type":"Feature"},
	{"geometry":{"coordinates":[13.384213,52.46081],"type":"Point"},"properties":{"osm_id":"4032903245","tag":{"amenity":"waste_basket","colour":"orange","material":"metal","support":"pole","waste":"trash;cigarettes"}},"type":"Feature"},
	{"geometry":{"coordinates":[13.374224,52.459147],"type":"Point"},"properties":{"osm_id":"4139869995","tag":{"amenity":"waste_basket"}},"type":"Feature"},
	{"geometry":{"coordinates":[13.438849,52.469571],"type":"Point"},"properties":{"osm_id":"4214984620","tag":{"amenity":"waste_basket"}},"type":"Feature"},
	{"geometry":{"coordinates":[13.439528,52.469594],"type":"Point"},"properties":{"osm_id":"4215005019","tag":{"amenity":"waste_basket"}},"type":"Feature"},
	{"geometry":{"coordinates":[13.380381,52.436097],"type":"Point"},"properties":{"osm_id":"4275170095","tag":{"amenity":"waste_basket"}},"type":"Feature"},
	{"geometry":{"coordinates":[13.444852,52.476945],"type":"Point"},"properties":{"osm_id":"4286720049","tag":{"amenity":"recycling","recycling:glass_bottles":"yes","recycling_type":"container"}},"type":"Feature"},
	{"geometry":{"coordinates":[13.386784,52.438819],"type":"Point"},"properties":{"osm_id":"4325002294","tag":{"amenity":"waste_basket"}},"type":"Feature"},
	{"geometry":{"coordinates":[13.387134,52.438795],"type":"Point"},"properties":{"osm_id":"4325035890","tag":{"amenity":"waste_basket"}},"type":"Feature"},
	{"geometry":{"coordinates":[13.385016,52.43861],"type":"Point"},"properties":{"osm_id":"4325038589","tag":{"amenity":"waste_basket"}},"type":"Feature"},
	{"geometry":{"coordinates":[13.446078,52.456922],"type":"Point"},"properties":{"osm_id":"4339981990","tag":{"amenity":"waste_basket"}},"type":"Feature"},
	{"geometry":{"coordinates":[13.427578,52.451545],"type":"Point"},"properties":{"barrier":"gate","osm_id":"4347778085"},"type":"Feature"},
	{"geometry":{"coordinates":[13.442404,52.476622],"type":"Point"},"properties":{"osm_id":"4389388039","tag":{"amenity":"waste_basket"}},"type":"Feature"},
	{"geometry":{"coordinates":[13.443341,52.476642],"type":"Point"},"properties":{"osm_id":"4389397839","tag":{"amenity":"waste_basket"}},"type":"Feature"},
	{"geometry":{"coordinates":[13.44419,52.478355],"type":"Point"},"properties":{"osm_id":"4389404804","tag":{"amenity":"waste_basket"}},"type":"Feature"},
	{"geometry":{"coordinates":[13.437206,52.475268],"type":"Point"},"properties":{"osm_id":"4421021671","tag":{"amenity":"waste_basket"}},"type":"Feature"},
	{"geometry":{"coordinates":[13.371495,52.452607],"type":"Point"},"properties":{"osm_id":"4427844091","tag":{"amenity":"recycling","recycling:glass_bottles":"yes","recycling_type":"container"}},"type":"Feature"},
	{"geometry":{"coordinates":[13.429951,52.429294],"type":"Point"},"properties":{"osm_id":"4427963615","tag":{"amenity":"waste_basket"}},"type":"Feature"},
	{"geometry":{"coordinates":[13.420181,52.429458],"type":"Point"},"properties":{"osm_id":"4427963619","tag":{"amenity":"waste_basket"}},"type":"Feature"},
	{"geometry":{"coordinates":[13.428308,52.42977],"type":"Point"},"properties":{"osm_id":"4427963623","tag":{"amenity":"waste_basket"}},"type":"Feature"},
	{"geometry":{"coordinates":[13.418833,52.430443],"type":"Point"},"properties":{"osm_id":"4427963625","tag":{"amenity":"waste_basket"}},"type":"Feature"},
	{"geometry":{"coordinates":[13.41849,52.430669],"type":"Point"},"properties":{"osm_id":"4427963629","tag":{"amenity":"waste_basket"}},"type":"Feature"},
	{"geometry":{"coordinates":[13.41694,52.431647],"type":"Point"},"properties":{"osm_id":"4427963641","tag":{"amenity":"waste_basket"}},"type":"Feature"},
	{"geometry":{"coordinates":[13.416625,52.432111],"type":"Point"},"properties":{"osm_id":"4427963650","tag":{"amenity":"waste_basket"}},"type":"Feature"},
	{"geometry":{"coordinates":[13.416297,52.43242],"type":"Point"},"properties":{"osm_id":"4427963653","tag":{"amenity":"waste_basket"}},"type":"Feature"},
	{"geometry":{"coordinates":[13.415817,52.432747],"type":"Point"},"properties":{"osm_id":"4427963712","tag":{"amenity":"waste_basket"}},"type":"Feature"},
	{"geometry":{"coordinates":[13.414504,52.432801],"type":"Point"},"properties":{"osm_id":"4427963713","tag":{"amenity":"waste_basket"}},"type":"Feature"},
	{"geometry":{"coordinates":[13.434403,52.476386],"type":"Point"},"properties":{"osm_id":"4464864729","tag":{"amenity":"recycling","recycling:clothes":"yes","recycling_type":"container"}},"type":"Feature"},
	{"geometry":{"coordinates":[13.433184,52.4778],"type":"Point"},"properties":{"osm_id":"4465338442","tag":{"access":"private","entrance":"yes"}},"type":"Feature"},
	{"geometry":{"coordinates":[13.433304,52.477905],"type":"Point"},"properties":{"osm_id":"4465338594","tag":{"amenity":"waste_basket"}},"type":"Feature"},
	{"geometry":{"coordinates":[13.433431,52.47795],"type":"Point"},"properties":{"osm_id":"4465338622","tag":{"amenity":"waste_basket"}},"type":"Feature"},
	{"geometry":{"coordinates":[13.364408,52.475819],"type":"Point"},"properties":{"osm_id":"4587020136","tag":{"amenity":"waste_basket"}},"type":"Feature"},
	{"geometry":{"coordinates":[13.364531,52.476018],"type":"Point"},"properties":{"osm_id":"4587020137","tag":{"amenity":"waste_basket"}},"type":"Feature"},
	{"geometry":{"coordinates":[13.38335,52.471202],"type":"Point"},"properties":{"osm_id":"4598145794","tag":{"amenity":"waste_basket","level":"1"}},"type":"Feature"},
	{"geometry":{"coordinates":[13.370204,52.448071],"type":"Point"},"properties":{"osm_id":"4818920387","tag":{"amenity":"recycling","recycling:glass_bottles":"yes","recycling_type":"container"}},"type":"Feature"},
	{"geometry":{"coordinates":[13.381402,52.445242],"type":"Point"},"properties":{"osm_id":"4818923401","tag":{"amenity":"recycling","recycling:glass_bottles":"yes","recycling_type":"container"}},"type":"Feature"},
	{"geometry":{"coordinates":[13.373378,52.447643],"type":"Point"},"properties":{"osm_id":"4818925198","tag":{"amenity":"recycling","recycling:clothes":"yes","recycling_type":"container"}},"type":"Feature"},
	{"geometry":{"coordinates":[13.370181,52.473081],"type":"Point"},"properties":{"osm_id":"4827083413","tag":{"amenity":"waste_basket"}},"type":"Feature"},
	{"geometry":{"coordinates":[13.370926,52.472816],"type":"Point"},"properties":{"osm_id":"4827083414","tag":{"amenity":"waste_basket"}},"type":"Feature"},
	{"geometry":{"coordinates":[13.434224,52.477139],"type":"Point"},"properties":{"osm_id":"4935910504","tag":{"access":"private","amenity":"waste_basket","colour":"gray","direction":"294","material":"metal"}},"type":"Feature"},
	{"geometry":{"coordinates":[13.432697,52.477583],"type":"Point"},"properties":{"osm_id":"4953735546","tag":{"amenity":"waste_basket"}},"type":"Feature"},
	{"geometry":{"coordinates":[13.442443,52.472279],"type":"Point"},"properties":{"osm_id":"4959116174","tag":{"amenity":"waste_basket"}},"type":"Feature"},
	{"geometry":{"coordinates":[13.442639,52.469756],"type":"Point"},"properties":{"highway":"street_lamp","osm_id":"4959116199","tag":{"amenity":"waste_basket"}},"type":"Feature"},
	{"geometry":{"coordinates":[13.441966,52.469673],"type":"Point"},"properties":{"osm_id":"4959116200","tag":{"amenity":"waste_basket"}},"type":"Feature"},
	{"geometry":{"coordinates":[13.421366,52.471649],"type":"Point"},"properties":{"osm_id":"4959451795","tag":{"amenity":"waste_basket","wheelchair":"yes"}},"type":"Feature"},
	{"geometry":{"coordinates":[13.421342,52.471722],"type":"Point"},"properties":{"osm_id":"4959451797","tag":{"amenity":"waste_basket","wheelchair":"yes"}},"type":"Feature"},
	{"geometry":{"coordinates":[13.422635,52.471844],"type":"Point"},"properties":{"osm_id":"4959456993","tag":{"amenity":"waste_basket","wheelchair":"yes"}},"type":"Feature"},
	{"geometry":{"coordinates":[13.428387,52.472407],"type":"Point"},"properties":{"osm_id":"4959495493","tag":{"amenity":"waste_basket","wheelchair":"yes"}},"type":"Feature"},
	{"geometry":{"coordinates":[13.428427,52.471941],"type":"Point"},"properties":{"osm_id":"4959495496","tag":{"amenity":"waste_basket","wheelchair":"yes"}},"type":"Feature"},
	{"geometry":{"coordinates":[13.428344,52.47251],"type":"Point"},"properties":{"osm_id":"4959495500","tag":{"amenity":"waste_basket","wheelchair":"yes"}},"type":"Feature"},
	{"geometry":{"coordinates":[13.425773,52.472149],"type":"Point"},"properties":{"osm_id":"4960021420","tag":{"amenity":"waste_basket","wheelchair":"yes"}},"type":"Feature"},
	{"geometry":{"coordinates":[13.424608,52.472064],"type":"Point"},"properties":{"osm_id":"4960068176","tag":{"amenity":"waste_basket","wheelchair":"yes"}},"type":"Feature"},
	{"geometry":{"coordinates":[13.435543,52.48045],"type":"Point"},"properties":{"osm_id":"4964681219","tag":{"amenity":"waste_basket","wheelchair":"yes"}},"type":"Feature"},
	{"geometry":{"coordinates":[13.446475,52.474317],"type":"Point"},"properties":{"osm_id":"5168830126","tag":{"amenity":"waste_basket"}},"type":"Feature"},
	{"geometry":{"coordinates":[13.44695,52.474378],"type":"Point"},"properties":{"osm_id":"5168830128","tag":{"amenity":"waste_basket"}},"type":"Feature"},
	{"geometry":{"coordinates":[13.447097,52.474095],"type":"Point"},"properties":{"osm_id":"5168830130","tag":{"amenity":"waste_basket"}},"type":"Feature"},
	{"geometry":{"coordinates":[13.446975,52.474333],"type":"Point"},"properties":{"osm_id":"5168830137","tag":{"amenity":"waste_basket"}},"type":"Feature"},
	{"geometry":{"coordinates":[13.447001,52.474675],"type":"Point"},"properties":{"osm_id":"5168830139","tag":{"amenity":"waste_basket"}},"type":"Feature"},
	{"geometry":{"coordinates":[13.446798,52.474321],"type":"Point"},"properties":{"osm_id":"5168830150","tag":{"amenity":"waste_basket"}},"type":"Feature"},
	{"geometry":{"coordinates":[13.444982,52.474146],"type":"Point"},"properties":{"osm_id":"5169702520","tag":{"amenity":"waste_basket"}},"type":"Feature"},
	{"geometry":{"coordinates":[13.422492,52.472233],"type":"Point"},"properties":{"osm_id":"5214782299","tag":{"amenity":"waste_basket","wheelchair":"yes"}},"type":"Feature"},
	{"geometry":{"coordinates":[13.385187,52.461777],"type":"Point"},"properties":{"osm_id":"5298237923","tag":{"amenity":"waste_basket","colour":"orange","material":"metal","support":"pole","waste":"trash;cigarettes"}},"type":"Feature"},
	{"geometry":{"coordinates":[13.439754,52.480861],"type":"Point"},"properties":{"osm_id":"5433785246","tag":{"amenity":"waste_basket","colour":"gray","support":"ground"}},"type":"Feature"},
	{"geometry":{"coordinates":[13.439874,52.480673],"type":"Point"},"properties":{"osm_id":"5433785270","tag":{"amenity":"waste_basket","colour":"gray","support":"ground"}},"type":"Feature"},
	{"geometry":{"coordinates":[13.440082,52.480704],"type":"Point"},"properties":{"osm_id":"5433785271","tag":{"amenity":"waste_basket","colour":"gray","support":"ground"}},"type":"Feature"},
	{"geometry":{"coordinates":[13.440549,52.480774],"type":"Point"},"properties":{"osm_id":"5433785291","tag":{"amenity":"waste_basket","colour":"black","support":"fence"}},"type":"Feature"},
	{"geometry":{"coordinates":[13.440234,52.480731],"type":"Point"},"properties":{"osm_id":"5433785294","tag":{"amenity":"waste_basket","colour":"black","support":"fence"}},"type":"Feature"},
	{"geometry":{"coordinates":[13.385344,52.468521],"type":"Point"},"properties":{"osm_id":"5440526348","tag":{"amenity":"waste_basket"}},"type":"Feature"},
	{"geometry":{"coordinates":[13.385247,52.468647],"type":"Point"},"properties":{"osm_id":"5440526362","tag":{"amenity":"waste_basket"}},"type":"Feature"},
	{"geometry":{"coordinates":[13.385178,52.469393],"type":"Point"},"properties":{"osm_id":"5440526366","tag":{"amenity":"recycling","recycling:clothes":"yes"}},"type":"Feature"},
	{"geometry":{"coordinates":[13.385377,52.46894],"type":"Point"},"properties":{"osm_id":"5440526373","tag":{"amenity":"waste_basket"}},"type":"Feature"},
	{"geometry":{"coordinates":[13.418414,52.476722],"type":"Point"},"properties":{"osm_id":"5454114712","tag":{"amenity":"waste_basket","colour":"silver;orange","operator":"BSR","support":"ground","waste":"trash"}},"type":"Feature"},
	{"geometry":{"coordinates":[13.418047,52.479965],"type":"Point"},"properties":{"osm_id":"5454114720","tag":{"amenity":"waste_basket","waste":"trash"}},"type":"Feature"},
	{"geometry":{"coordinates":[13.418388,52.476656],"type":"Point"},"properties":{"osm_id":"5454115326","tag":{"amenity":"waste_basket","colour":"silver;orange","operator":"BSR","support":"ground","waste":"trash"}},"type":"Feature"},
	{"geometry":{"coordinates":[13.416533,52.473199],"type":"Point"},"properties":{"osm_id":"5463053860","tag":{"amenity":"waste_disposal","colour":"black","operator":"BSR","waste":"trash"}},"type":"Feature"},
	{"geometry":{"coordinates":[13.405493,52.480224],"type":"Point"},"properties":{"osm_id":"5463053908","tag":{"amenity":"waste_disposal","colour":"black","operator":"BSR","waste":"trash"}},"type":"Feature"},
	{"geometry":{"coordinates":[13.393064,52.470333],"type":"Point"},"properties":{"osm_id":"5463054059","tag":{"amenity":"waste_disposal","colour":"black","operator":"BSR","waste":"trash"}},"type":"Feature"},
	{"geometry":{"coordinates":[13.416942,52.472146],"type":"Point"},"properties":{"osm_id":"5463054083","tag":{"amenity":"waste_disposal"}},"type":"Feature"},
	{"geometry":{"coordinates":[13.418038,52.477132],"type":"Point"},"properties":{"osm_id":"5463054119","tag":{"amenity":"waste_disposal","colour":"black","operator":"BSR","waste":"trash"}},"type":"Feature"},
	{"geometry":{"coordinates":[13.442567,52.474603],"type":"Point"},"properties":{"osm_id":"5470066726","tag":{"amenity":"waste_basket"}},"type":"Feature"},
	{"geometry":{"coordinates":[13.442613,52.474496],"type":"Point"},"properties":{"osm_id":"5470066727","tag":{"amenity":"waste_basket"}},"type":"Feature"},
	{"geometry":{"coordinates":[13.443374,52.474817],"type":"Point"},"properties":{"osm_id":"5470066778","tag":{"amenity":"waste_basket"}},"type":"Feature"},
	{"geometry":{"coordinates":[13.44309,52.474568],"type":"Point"},"properties":{"osm_id":"5470066796","tag":{"amenity":"waste_basket"}},"type":"Feature"},
	{"geometry":{"coordinates":[13.443176,52.474497],"type":"Point"},"properties":{"osm_id":"5470066797","tag":{"amenity":"waste_basket"}},"type":"Feature"},
	{"geometry":{"coordinates":[13.442942,52.474129],"type":"Point"},"properties":{"osm_id":"5470066804","tag":{"amenity":"waste_basket"}},"type":"Feature"},
	{"geometry":{"coordinates":[13.442885,52.474175],"type":"Point"},"properties":{"osm_id":"5470066815","tag":{"amenity":"waste_basket"}},"type":"Feature"},
	{"geometry":{"coordinates":[13.443573,52.47453],"type":"Point"},"properties":{"osm_id":"5470066934","tag":{"amenity":"waste_basket"}},"type":"Feature"},
	{"geometry":{"coordinates":[13.443569,52.47457],"type":"Point"},"properties":{"osm_id":"5470066935","tag":{"amenity":"waste_basket"}},"type":"Feature"},
	{"geometry":{"coordinates":[13.443548,52.474213],"type":"Point"},"properties":{"osm_id":"5470066936","tag":{"amenity":"waste_basket"}},"type":"Feature"},
	{"geometry":{"coordinates":[13.443748,52.474207],"type":"Point"},"properties":{"osm_id":"5470066939","tag":{"amenity":"waste_basket"}},"type":"Feature"},
	{"geometry":{"coordinates":[13.40466,52.471303],"type":"Point"},"properties":{"osm_id":"5479192409","tag":{"amenity":"waste_disposal"}},"type":"Feature"},
	{"geometry":{"coordinates":[13.39508,52.469858],"type":"Point"},"properties":{"osm_id":"5479192444","tag":{"amenity":"waste_disposal","colour":"black","operator":"BSR","waste":"trash"}},"type":"Feature"},
	{"geometry":{"coordinates":[13.391593,52.470473],"type":"Point"},"properties":{"osm_id":"5479192445","tag":{"amenity":"waste_basket","waste":"dog_excrement"}},"type":"Feature"},
	{"geometry":{"coordinates":[13.39256,52.469633],"type":"Point"},"properties":{"osm_id":"5479192465","tag":{"amenity":"waste_basket","waste":"dog_excrement"}},"type":"Feature"},
	{"geometry":{"coordinates":[13.389935,52.470355],"type":"Point"},"properties":{"osm_id":"5479192496","tag":{"amenity":"waste_basket","waste":"dog_excrement"}},"type":"Feature"},
	{"geometry":{"coordinates":[13.389154,52.470926],"type":"Point"},"properties":{"osm_id":"5479192499","tag":{"amenity":"waste_disposal","colour":"black","operator":"BSR","waste":"trash"}},"type":"Feature"},
	{"geometry":{"coordinates":[13.386794,52.471313],"type":"Point"},"properties":{"osm_id":"5479192509","tag":{"amenity":"waste_disposal","colour":"black","operator":"BSR","waste":"trash"}},"type":"Feature"},
	{"geometry":{"coordinates":[13.386418,52.475948],"type":"Point"},"properties":{"osm_id":"5479192729","tag":{"amenity":"waste_disposal"}},"type":"Feature"},
	{"geometry":{"coordinates":[13.446218,52.475677],"type":"Point"},"properties":{"osm_id":"5487330157","tag":{"amenity":"waste_basket"}},"type":"Feature"},
	{"geometry":{"coordinates":[13.446124,52.474717],"type":"Point"},"properties":{"osm_id":"5487330205","tag":{"amenity":"waste_basket"}},"type":"Feature"},
	{"geometry":{"coordinates":[13.41063,52.477707],"type":"Point"},"properties":{"osm_id":"5492274692","tag":{"amenity":"waste_disposal","colour":"black","operator":"BSR","waste":"trash"}},"type":"Feature"},
	{"geometry":{"coordinates":[13.405094,52.47981],"type":"Point"},"properties":{"osm_id":"5492274711","tag":{"amenity":"waste_disposal","colour":"red","waste":"ash"}},"type":"Feature"},
	{"geometry":{"coordinates":[13.402617,52.482391],"type":"Point"},"properties":{"osm_id":"5492275326","tag":{"amenity":"waste_disposal"}},"type":"Feature"},
	{"geometry":{"coordinates":[13.404848,52.478697],"type":"Point"},"properties":{"osm_id":"5492275603","tag":{"amenity":"waste_disposal"}},"type":"Feature"},
	{"geometry":{"coordinates":[13.416823,52.470879],"type":"Point"},"properties":{"osm_id":"5492275839","tag":{"amenity":"waste_basket","waste":"dog_excrement"}},"type":"Feature"},
	{"geometry":{"coordinates":[13.414783,52.469704],"type":"Point"},"properties":{"osm_id":"5492275840","tag":{"amenity":"waste_basket","waste":"dog_excrement"}},"type":"Feature"},
	{"geometry":{"coordinates":[13.414713,52.470941],"type":"Point"},"properties":{"osm_id":"5492275841","tag":{"amenity":"waste_basket","waste":"dog_excrement"}},"type":"Feature"},
	{"geometry":{"coordinates":[13.412817,52.475745],"type":"Point"},"properties":{"osm_id":"5492275886","tag":{"amenity":"waste_basket","waste":"dog_excrement"}},"type":"Feature"},
	{"geometry":{"coordinates":[13.415001,52.476398],"type":"Point"},"properties":{"osm_id":"5492275888","tag":{"amenity":"waste_basket","waste":"dog_excrement"}},"type":"Feature"},
	{"geometry":{"coordinates":[13.417115,52.476449],"type":"Point"},"properties":{"osm_id":"5492275889","tag":{"amenity":"waste_disposal","colour":"black","operator":"BSR","waste":"trash"}},"type":"Feature"},
	{"geometry":{"coordinates":[13.416389,52.475768],"type":"Point"},"properties":{"osm_id":"5492275890","tag":{"amenity":"waste_disposal","colour":"black","operator":"BSR","waste":"trash"}},"type":"Feature"},
	{"geometry":{"coordinates":[13.41642,52.475388],"type":"Point"},"properties":{"osm_id":"5492275891","tag":{"amenity":"waste_disposal","colour":"black","operator":"BSR","waste":"trash"}},"type":"Feature"},
	{"geometry":{"coordinates":[13.433118,52.476822],"type":"Point"},"properties":{"barrier":"gate","osm_id":"5499773444","tag":{"access":"private"}},"type":"Feature"},
	{"geometry":{"coordinates":[13.433043,52.476813],"type":"Point"},"properties":{"barrier":"gate","osm_id":"5499773445","tag":{"access":"private"}},"type":"Feature"},
	{"geometry":{"coordinates":[13.43299,52.476979],"type":"Point"},"properties":{"osm_id":"5499773470","tag":{"amenity":"waste_basket"}},"type":"Feature"},
	{"geometry":{"coordinates":[13.432856,52.476963],"type":"Point"},"properties":{"osm_id":"5499773484","tag":{"amenity":"waste_basket"}},"type":"Feature"},
	{"geometry":{"coordinates":[13.432265,52.477311],"type":"Point"},"properties":{"osm_id":"5501785304","tag":{"amenity":"waste_basket"}},"type":"Feature"},
	{"geometry":{"coordinates":[13.431921,52.477136],"type":"Point"},"properties":{"osm_id":"5501787176","tag":{"amenity":"waste_basket"}},"type":"Feature"},
	{"geometry":{"coordinates":[13.431671,52.477125],"type":"Point"},"properties":{"osm_id":"5501787198","tag":{"amenity":"waste_basket"}},"type":"Feature"},
	{"geometry":{"coordinates":[13.431707,52.477177],"type":"Point"},"properties":{"osm_id":"5501787200","tag":{"amenity":"waste_basket"}},"type":"Feature"},
	{"geometry":{"coordinates":[13.431458,52.477188],"type":"Point"},"properties":{"osm_id":"5501787230","tag":{"amenity":"waste_basket"}},"type":"Feature"},
	{"geometry":{"coordinates":[13.431271,52.477118],"type":"Point"},"properties":{"osm_id":"5501787250","tag":{"amenity":"waste_basket"}},"type":"Feature"},
	{"geometry":{"coordinates":[13.431209,52.477029],"type":"Point"},"properties":{"osm_id":"5501787284","tag":{"amenity":"waste_basket"}},"type":"Feature"},
	{"geometry":{"coordinates":[13.431185,52.477101],"type":"Point"},"properties":{"osm_id":"5501787285","tag":{"amenity":"waste_basket"}},"type":"Feature"},
	{"geometry":{"coordinates":[13.430828,52.47698],"type":"Point"},"properties":{"osm_id":"5501787302","tag":{"amenity":"waste_basket"}},"type":"Feature"},
	{"geometry":{"coordinates":[13.430805,52.477052],"type":"Point"},"properties":{"osm_id":"5501787303","tag":{"amenity":"waste_basket"}},"type":"Feature"},
	{"geometry":{"coordinates":[13.4312,52.476767],"type":"Point"},"properties":{"osm_id":"5501787573","tag":{"amenity":"waste_basket","location":"roof"}},"type":"Feature"},
	{"geometry":{"coordinates":[13.431527,52.476997],"type":"Point"},"properties":{"osm_id":"5501787638","tag":{"amenity":"waste_basket"}},"type":"Feature"},
	{"geometry":{"coordinates":[13.431692,52.477018],"type":"Point"},"properties":{"osm_id":"5501787640","tag":{"amenity":"waste_basket"}},"type":"Feature"},
	{"geometry":{"coordinates":[13.431983,52.477056],"type":"Point"},"properties":{"osm_id":"5501787645","tag":{"amenity":"waste_basket"}},"type":"Feature"},
	{"geometry":{"coordinates":[13.43232,52.477144],"type":"Point"},"properties":{"osm_id":"5501787662","tag":{"amenity":"waste_basket"}},"type":"Feature"},
	{"geometry":{"coordinates":[13.432274,52.477091],"type":"Point"},"properties":{"osm_id":"5501787678","tag":{"amenity":"waste_basket"}},"type":"Feature"},
	{"geometry":{"coordinates":[13.431346,52.477246],"type":"Point"},"properties":{"osm_id":"5501787834","tag":{"amenity":"waste_basket"}},"type":"Feature"},
	{"geometry":{"coordinates":[13.432294,52.477353],"type":"Point"},"properties":{"barrier":"gate","osm_id":"5501787864","tag":{"access":"private"}},"type":"Feature"},
	{"geometry":{"coordinates":[13.432263,52.477362],"type":"Point"},"properties":{"osm_id":"5501787866","tag":{"amenity":"waste_basket"}},"type":"Feature"},
	{"geometry":{"coordinates":[13.433479,52.476801],"type":"Point"},"properties":{"barrier":"gate","osm_id":"5502165546","tag":{"access":"private"}},"type":"Feature"},
	{"geometry":{"coordinates":[13.433466,52.476837],"type":"Point"},"properties":{"barrier":"gate","osm_id":"5502165547","tag":{"access":"private"}},"type":"Feature"},
	{"geometry":{"coordinates":[13.433593,52.476569],"type":"Point"},"properties":{"osm_id":"5502165584","tag":{"amenity":"waste_basket"}},"type":"Feature"},
	{"geometry":{"coordinates":[13.433384,52.476863],"type":"Point"},"properties":{"osm_id":"5502165610","tag":{"amenity":"waste_basket"}},"type":"Feature"},
	{"geometry":{"coordinates":[13.438398,52.456615],"type":"Point"},"properties":{"osm_id":"5517210816","tag":{"amenity":"waste_basket"}},"type":"Feature"},
	{"geometry":{"coordinates":[13.436669,52.466389],"type":"Point"},"properties":{"osm_id":"5517976678","tag":{"amenity":"waste_basket"}},"type":"Feature"},
	{"geometry":{"coordinates":[13.43505,52.476769],"type":"Point"},"properties":{"osm_id":"5518561746","tag":{"amenity":"waste_basket","waste":"trash"}},"type":"Feature"},
	{"geometry":{"coordinates":[13.43517,52.476571],"type":"Point"},"properties":{"osm_id":"5518561749","tag":{"amenity":"waste_basket"}},"type":"Feature"},
	{"geometry":{"coordinates":[13.374287,52.475208],"type":"Point"},"properties":{"osm_id":"5523297379","tag":{"amenity":"waste_basket","waste":"dog_excrement"}},"type":"Feature"},
	{"geometry":{"coordinates":[13.371139,52.473135],"type":"Point"},"properties":{"osm_id":"5525963312","tag":{"access":"private","amenity":"waste_disposal","waste":"trash"}},"type":"Feature"},
	{"geometry":{"coordinates":[13.373057,52.472617],"type":"Point"},"properties":{"osm_id":"5528980728","tag":{"amenity":"waste_basket"}},"type":"Feature"},
	{"geometry":{"coordinates":[13.373142,52.472475],"type":"Point"},"properties":{"osm_id":"5528980729","tag":{"amenity":"waste_basket"}},"type":"Feature"},
	{"geometry":{"coordinates":[13.372856,52.472377],"type":"Point"},"properties":{"barrier":"gate","osm_id":"5528980733","tag":{"access":"tenants"}},"type":"Feature"},
	{"geometry":{"coordinates":[13.37339,52.472456],"type":"Point"},"properties":{"barrier":"gate","osm_id":"5528980739","tag":{"access":"tenants"}},"type":"Feature"},
	{"geometry":{"coordinates":[13.373482,52.472554],"type":"Point"},"properties":{"osm_id":"5528980743","tag":{"amenity":"waste_basket"}},"type":"Feature"},
	{"geometry":{"coordinates":[13.373298,52.472964],"type":"Point"},"properties":{"osm_id":"5528980745","tag":{"amenity":"recycling","check_date":"2018-04-04","recycling:clothes":"yes","recycling_type":"container"}},"type":"Feature"},
	{"geometry":{"coordinates":[13.371649,52.474508],"type":"Point"},"properties":{"osm_id":"5528980751","tag":{"amenity":"recycling","recycling:glass_bottles":"yes","recycling_type":"container"}},"type":"Feature"},
	{"geometry":{"coordinates":[13.370046,52.474512],"type":"Point"},"properties":{"osm_id":"5528980762","tag":{"amenity":"recycling","check_date":"2018-04-04","operator":"Recontextil","recycling:clothes":"yes","recycling_type":"container"}},"type":"Feature"},
	{"geometry":{"coordinates":[13.371731,52.473533],"type":"Point"},"properties":{"osm_id":"5532195915","tag":{"access":"private","amenity":"waste_disposal"}},"type":"Feature"},
	{"geometry":{"coordinates":[13.421095,52.471034],"type":"Point"},"properties":{"osm_id":"5545763172","tag":{"amenity":"waste_basket"}},"type":"Feature"},
	{"geometry":{"coordinates":[13.388307,52.482471],"type":"Point"},"properties":{"osm_id":"5581097362","tag":{"amenity":"waste_basket","colour":"red","material":"metal","support":"pole","waste":"trash"}},"type":"Feature"},
	{"geometry":{"coordinates":[13.379439,52.48077],"type":"Point"},"properties":{"osm_id":"5581097367","tag":{"amenity":"recycling","opening_hours":"Mo-Sa 07:00-13:00,15:00-20:00; Su,PH off","recycling:glass_bottles":"yes","recycling_type":"container"}},"type":"Feature"},
	{"geometry":{"coordinates":[13.380017,52.481831],"type":"Point"},"properties":{"osm_id":"5581097368","tag":{"amenity":"waste_basket","colour":"orange","material":"metal","support":"pole","waste":"trash;cigarettes"}},"type":"Feature"},
	{"geometry":{"coordinates":[13.378439,52.481404],"type":"Point"},"properties":{"highway":"street_lamp","osm_id":"5581097388","tag":{"amenity":"waste_basket","lamp_flames":"1","lamp_mount":"straight_mast","waste":"trash;cigarettes"}},"type":"Feature"},
	{"geometry":{"coordinates":[13.384239,52.481588],"type":"Point"},"properties":{"osm_id":"5581097389","tag":{"amenity":"waste_basket","colour":"orange","material":"metal","support":"pole","waste":"trash;cigarettes"}},"type":"Feature"},
	{"geometry":{"coordinates":[13.381442,52.479709],"type":"Point"},"properties":{"osm_id":"5581097390","tag":{"amenity":"waste_basket","colour":"orange","material":"metal","support":"pole","waste":"trash;cigarettes"}},"type":"Feature"},
	{"geometry":{"coordinates":[13.394683,52.464212],"type":"Point"},"properties":{"osm_id":"5584924473","tag":{"amenity":"recycling","colour":"red","material":"metal","operator":"Humana Kleidersammlung GmbH","recycling:clothes":"yes","recycling_type":"container"}},"type":"Feature"},
	{"geometry":{"coordinates":[13.410494,52.464017],"type":"Point"},"properties":{"osm_id":"5584924475","tag":{"amenity":"recycling","colour":"black","material":"metal","operator":"Deutsches Rotes Kreuz","recycling:clothes":"yes","recycling_type":"container","support":"ground"}},"type":"Feature"},
	{"geometry":{"coordinates":[13.383479,52.471588],"type":"Point"},"properties":{"osm_id":"5586023160","tag":{"amenity":"recycling","email":"ariston.a.info@gmail.com","material":"metal","recycling:clothes":"yes","recycling_type":"container"}},"type":"Feature"},
	{"geometry":{"coordinates":[13.381227,52.460937],"type":"Point"},"properties":{"osm_id":"5587090706","tag":{"amenity":"waste_basket","colour":"green","material":"metal","support":"pole","waste":"trash;cigarettes"}},"type":"Feature"},
	{"geometry":{"coordinates":[13.38197,52.461115],"type":"Point"},"properties":{"osm_id":"5587090712","tag":{"amenity":"waste_basket","colour":"orange","material":"metal","support":"pole","waste":"trash;cigarettes"}},"type":"Feature"},
	{"geometry":{"coordinates":[13.379189,52.461377],"type":"Point"},"properties":{"osm_id":"5587090713","tag":{"amenity":"waste_basket","colour":"orange","material":"metal","support":"pole","waste":"trash;cigarettes"}},"type":"Feature"},
	{"geometry":{"coordinates":[13.385712,52.462709],"type":"Point"},"properties":{"osm_id":"5587090929","tag":{"amenity":"waste_basket","material":"metal","support":"ground","waste":"trash;cigarettes"}},"type":"Feature"},
	{"geometry":{"coordinates":[13.385708,52.462695],"type":"Point"},"properties":{"osm_id":"5587090937","tag":{"amenity":"waste_basket","material":"metal","support":"ground","waste":"trash;cigarettes"}},"type":"Feature"},
	{"geometry":{"coordinates":[13.385206,52.461618],"type":"Point"},"properties":{"osm_id":"5587090938","tag":{"amenity":"waste_basket","colour":"orange","material":"metal","support":"pole","waste":"trash;cigarettes"}},"type":"Feature"},
	{"geometry":{"coordinates":[13.442109,52.478065],"type":"Point"},"properties":{"osm_id":"5591767727","tag":{"amenity":"waste_basket"}},"type":"Feature"},
	{"geometry":{"coordinates":[13.443254,52.464829],"type":"Point"},"properties":{"osm_id":"5617058771","tag":{"amenity":"recycling","recycling_type":"container"}},"type":"Feature"},
	{"geometry":{"coordinates":[13.437195,52.471486],"type":"Point"},"properties":{"osm_id":"5715336355","tag":{"amenity":"waste_basket"}},"type":"Feature"},
	{"geometry":{"coordinates":[13.43827,52.471617],"type":"Point"},"properties":{"osm_id":"5715336356","tag":{"amenity":"waste_basket"}},"type":"Feature"},
	{"geometry":{"coordinates":[13.438116,52.471598],"type":"Point"},"properties":{"osm_id":"5715336357","tag":{"amenity":"waste_basket"}},"type":"Feature"},
	{"geometry":{"coordinates":[13.437962,52.47158],"type":"Point"},"properties":{"osm_id":"5715336358","tag":{"amenity":"waste_basket"}},"type":"Feature"},
	{"geometry":{"coordinates":[13.437808,52.471561],"type":"Point"},"properties":{"osm_id":"5715336359","tag":{"amenity":"waste_basket"}},"type":"Feature"},
	{"geometry":{"coordinates":[13.437653,52.471542],"type":"Point"},"properties":{"osm_id":"5715336360","tag":{"amenity":"waste_basket"}},"type":"Feature"},
	{"geometry":{"coordinates":[13.437501,52.471523],"type":"Point"},"properties":{"osm_id":"5715336361","tag":{"amenity":"waste_basket"}},"type":"Feature"},
	{"geometry":{"coordinates":[13.43735,52.471506],"type":"Point"},"properties":{"osm_id":"5715336362","tag":{"amenity":"waste_basket"}},"type":"Feature"},
	{"geometry":{"coordinates":[13.438108,52.47373],"type":"Point"},"properties":{"osm_id":"5718437942","tag":{"amenity":"waste_basket"}},"type":"Feature"},
	{"geometry":{"coordinates":[13.438182,52.47401],"type":"Point"},"properties":{"osm_id":"5719240984","tag":{"amenity":"waste_basket"}},"type":"Feature"},
	{"geometry":{"coordinates":[13.363342,52.476253],"type":"Point"},"properties":{"osm_id":"5720064624","tag":{"amenity":"waste_basket"}},"type":"Feature"},
	{"geometry":{"coordinates":[13.438257,52.47117],"type":"Point"},"properties":{"osm_id":"5720407742","tag":{"amenity":"waste_basket"}},"type":"Feature"},
	{"geometry":{"coordinates":[13.437648,52.471094],"type":"Point"},"properties":{"osm_id":"5720407746","tag":{"amenity":"waste_basket"}},"type":"Feature"},
	{"geometry":{"coordinates":[13.4381,52.47115],"type":"Point"},"properties":{"osm_id":"5720407747","tag":{"amenity":"waste_basket"}},"type":"Feature"},
	{"geometry":{"coordinates":[13.437496,52.471077],"type":"Point"},"properties":{"osm_id":"5720407752","tag":{"amenity":"waste_basket"}},"type":"Feature"},
	{"geometry":{"coordinates":[13.437947,52.471131],"type":"Point"},"properties":{"osm_id":"5720407753","tag":{"amenity":"waste_basket"}},"type":"Feature"},
	{"geometry":{"coordinates":[13.438406,52.47119],"type":"Point"},"properties":{"osm_id":"5720407754","tag":{"amenity":"waste_basket"}},"type":"Feature"},
	{"geometry":{"coordinates":[13.437339,52.471056],"type":"Point"},"properties":{"osm_id":"5720407757","tag":{"amenity":"waste_basket"}},"type":"Feature"},
	{"geometry":{"coordinates":[13.437792,52.471111],"type":"Point"},"properties":{"osm_id":"5720407758","tag":{"amenity":"waste_basket"}},"type":"Feature"},
	{"geometry":{"coordinates":[13.438661,52.471511],"type":"Point"},"properties":{"osm_id":"5757069454","tag":{"amenity":"waste_basket"}},"type":"Feature"},
	{"geometry":{"coordinates":[13.439178,52.471526],"type":"Point"},"properties":{"osm_id":"5757069462","tag":{"amenity":"waste_basket"}},"type":"Feature"},
	{"geometry":{"coordinates":[13.438555,52.471638],"type":"Point"},"properties":{"osm_id":"5757069476","tag":{"amenity":"waste_basket"}},"type":"Feature"},
	{"geometry":{"coordinates":[13.438597,52.471533],"type":"Point"},"properties":{"osm_id":"5757069505","tag":{"amenity":"waste_basket"}},"type":"Feature"},
	{"geometry":{"coordinates":[13.438665,52.471352],"type":"Point"},"properties":{"osm_id":"5757069507","tag":{"amenity":"waste_basket"}},"type":"Feature"},
	{"geometry":{"coordinates":[13.438702,52.471383],"type":"Point"},"properties":{"osm_id":"5757069512","tag":{"amenity":"waste_basket"}},"type":"Feature"},
	{"geometry":{"coordinates":[13.438695,52.471239],"type":"Point"},"properties":{"osm_id":"5757069622","tag":{"amenity":"waste_basket"}},"type":"Feature"},
	{"geometry":{"coordinates":[13.414424,52.432106],"type":"Point"},"properties":{"osm_id":"5780650523","tag":{"amenity":"waste_basket"}},"type":"Feature"},
	{"geometry":{"coordinates":[13.413919,52.432377],"type":"Point"},"properties":{"osm_id":"5780650541","tag":{"amenity":"waste_basket"}},"type":"Feature"},
	{"geometry":{"coordinates":[13.412758,52.432018],"type":"Point"},"properties":{"osm_id":"5780686212","tag":{"amenity":"waste_basket"}},"type":"Feature"},
	{"geometry":{"coordinates":[13.407946,52.432166],"type":"Point"},"properties":{"osm_id":"5784610291","tag":{"amenity":"waste_basket"}},"type":"Feature"},
	{"geometry":{"coordinates":[13.407837,52.432263],"type":"Point"},"properties":{"osm_id":"5784610295","tag":{"amenity":"waste_basket"}},"type":"Feature"},
	{"geometry":{"coordinates":[13.408139,52.432011],"type":"Point"},"properties":{"osm_id":"5784612516","tag":{"amenity":"waste_basket"}},"type":"Feature"},
	{"geometry":{"coordinates":[13.407787,52.43304],"type":"Point"},"properties":{"osm_id":"5784612910","tag":{"amenity":"waste_basket"}},"type":"Feature"},
	{"geometry":{"coordinates":[13.408199,52.433698],"type":"Point"},"properties":{"osm_id":"5784612940","tag":{"amenity":"waste_basket"}},"type":"Feature"},
	{"geometry":{"coordinates":[13.374807,52.46859],"type":"Point"},"properties":{"osm_id":"5792096602","tag":{"amenity":"recycling","recycling:batteries":"no","recycling:cans":"no","recycling:clothes":"no","recycling:glass_bottles":"yes","recycling:paper":"no","recycling:plastic":"no","recycling:plastic_bottles":"no","recycling:scrap_metal":"no","recycling:waste":"no","recycling_type":"container"}},"type":"Feature"},
	{"geometry":{"coordinates":[13.374153,52.468511],"type":"Point"},"properties":{"osm_id":"5792097021","tag":{"amenity":"recycling","recycling:batteries":"no","recycling:cans":"no","recycling:clothes":"yes","recycling:glass":"no","recycling:glass_bottles":"no","recycling:paper":"no","recycling:plastic":"no","recycling:plastic_bottles":"no","recycling:scrap_metal":"no","recycling:waste":"no","recycling_type":"container"}},"type":"Feature"},
	{"geometry":{"coordinates":[13.42911,52.476835],"type":"Point"},"properties":{"osm_id":"5812775228","tag":{"amenity":"waste_basket"}},"type":"Feature"},
	{"geometry":{"coordinates":[13.429081,52.476921],"type":"Point"},"properties":{"osm_id":"5812775229","tag":{"amenity":"waste_basket"}},"type":"Feature"},
	{"geometry":{"coordinates":[13.429208,52.476947],"type":"Point"},"properties":{"osm_id":"5812775232","tag":{"amenity":"waste_basket"}},"type":"Feature"},
	{"geometry":{"coordinates":[13.429391,52.476966],"type":"Point"},"properties":{"osm_id":"5812775239","tag":{"amenity":"waste_basket"}},"type":"Feature"},
	{"geometry":{"coordinates":[13.429507,52.476751],"type":"Point"},"properties":{"osm_id":"5812775242","tag":{"amenity":"waste_basket"}},"type":"Feature"},
	{"geometry":{"coordinates":[13.429562,52.476758],"type":"Point"},"properties":{"osm_id":"5812775243","tag":{"amenity":"waste_basket"}},"type":"Feature"},
	{"geometry":{"coordinates":[13.429136,52.476753],"type":"Point"},"properties":{"osm_id":"5812777469","tag":{"amenity":"waste_basket"}},"type":"Feature"},
	{"geometry":{"coordinates":[13.429267,52.476773],"type":"Point"},"properties":{"osm_id":"5812777471","tag":{"amenity":"waste_basket"}},"type":"Feature"},
	{"geometry":{"coordinates":[13.429374,52.476751],"type":"Point"},"properties":{"osm_id":"5812777746","tag":{"amenity":"waste_basket"}},"type":"Feature"},
	{"geometry":{"coordinates":[13.429781,52.476811],"type":"Point"},"properties":{"barrier":"gate","osm_id":"5812777993","tag":{"access":"private"}},"type":"Feature"},
	{"geometry":{"coordinates":[13.429795,52.476781],"type":"Point"},"properties":{"osm_id":"5812777998","tag":{"amenity":"waste_basket"}},"type":"Feature"},
	{"geometry":{"coordinates":[13.429942,52.476799],"type":"Point"},"properties":{"osm_id":"5812777999","tag":{"amenity":"waste_basket"}},"type":"Feature"},
	{"geometry":{"coordinates":[13.430225,52.476835],"type":"Point"},"properties":{"osm_id":"5812778015","tag":{"amenity":"waste_basket"}},"type":"Feature"},
	{"geometry":{"coordinates":[13.430743,52.476922],"type":"Point"},"properties":{"barrier":"gate","osm_id":"5812778035","tag":{"access":"private"}},"type":"Feature"},
	{"geometry":{"coordinates":[13.430428,52.476859],"type":"Point"},"properties":{"osm_id":"5812778039","tag":{"amenity":"waste_basket"}},"type":"Feature"},
	{"geometry":{"coordinates":[13.431471,52.477016],"type":"Point"},"properties":{"barrier":"gate","osm_id":"5812778043","tag":{"access":"private"}},"type":"Feature"},
	{"geometry":{"coordinates":[13.427995,52.477098],"type":"Point"},"properties":{"osm_id":"5813278049","tag":{"amenity":"waste_basket"}},"type":"Feature"},
	{"geometry":{"coordinates":[13.428649,52.477141],"type":"Point"},"properties":{"osm_id":"5813279378","tag":{"amenity":"waste_basket"}},"type":"Feature"},
	{"geometry":{"coordinates":[13.428825,52.477166],"type":"Point"},"properties":{"osm_id":"5813279474","tag":{"amenity":"waste_basket"}},"type":"Feature"},
	{"geometry":{"coordinates":[13.428899,52.477136],"type":"Point"},"properties":{"osm_id":"5813279475","tag":{"amenity":"waste_basket"}},"type":"Feature"},
	{"geometry":{"coordinates":[13.388686,52.453877],"type":"Point"},"properties":{"osm_id":"5837279806","tag":{"amenity":"waste_disposal","waste":"trash"}},"type":"Feature"},
	{"geometry":{"coordinates":[13.446292,52.472217],"type":"Point"},"properties":{"osm_id":"5856990050","tag":{"amenity":"waste_basket"}},"type":"Feature"},
	{"geometry":{"coordinates":[13.436818,52.470557],"type":"Point"},"properties":{"osm_id":"5862101031","tag":{"amenity":"waste_basket"}},"type":"Feature"},
	{"geometry":{"coordinates":[13.443777,52.479739],"type":"Point"},"properties":{"osm_id":"5863290167","tag":{"amenity":"waste_basket"}},"type":"Feature"},
	{"geometry":{"coordinates":[13.443199,52.479571],"type":"Point"},"properties":{"osm_id":"5864764519","tag":{"amenity":"waste_basket"}},"type":"Feature"},
	{"geometry":{"coordinates":[13.443111,52.479504],"type":"Point"},"properties":{"osm_id":"5864764527","tag":{"amenity":"waste_basket"}},"type":"Feature"},
	{"geometry":{"coordinates":[13.443129,52.479317],"type":"Point"},"properties":{"osm_id":"5864764530","tag":{"amenity":"waste_basket"}},"type":"Feature"},
	{"geometry":{"coordinates":[13.443078,52.479479],"type":"Point"},"properties":{"osm_id":"5864764542","tag":{"amenity":"waste_basket"}},"type":"Feature"},
	{"geometry":{"coordinates":[13.437989,52.472456],"type":"Point"},"properties":{"osm_id":"5894244944","tag":{"amenity":"waste_basket"}},"type":"Feature"},
	{"geometry":{"coordinates":[13.437475,52.472685],"type":"Point"},"properties":{"osm_id":"5894244952","tag":{"amenity":"waste_basket"}},"type":"Feature"},
	{"geometry":{"coordinates":[13.437765,52.473138],"type":"Point"},"properties":{"osm_id":"5894244955","tag":{"amenity":"waste_basket"}},"type":"Feature"},
	{"geometry":{"coordinates":[13.437845,52.472889],"type":"Point"},"properties":{"osm_id":"5894244959","tag":{"amenity":"waste_basket"}},"type":"Feature"},
	{"geometry":{"coordinates":[13.44316,52.448945],"type":"Point"},"properties":{"osm_id":"5964922272","tag":{"amenity":"waste_basket"}},"type":"Feature"},
	{"geometry":{"coordinates":[13.443074,52.44896],"type":"Point"},"properties":{"osm_id":"5964922273","tag":{"amenity":"waste_basket"}},"type":"Feature"},
	{"geometry":{"coordinates":[13.443255,52.448929],"type":"Point"},"properties":{"osm_id":"5964922274","tag":{"amenity":"waste_basket"}},"type":"Feature"},
	{"geometry":{"coordinates":[13.443058,52.448758],"type":"Point"},"properties":{"osm_id":"5964922277","tag":{"amenity":"waste_basket"}},"type":"Feature"},
	{"geometry":{"coordinates":[13.44332,52.448475],"type":"Point"},"properties":{"osm_id":"5964931488","tag":{"amenity":"waste_basket"}},"type":"Feature"},
	{"geometry":{"coordinates":[13.443253,52.448704],"type":"Point"},"properties":{"osm_id":"5964931527","tag":{"amenity":"waste_basket"}},"type":"Feature"},
	{"geometry":{"coordinates":[13.443459,52.448619],"type":"Point"},"properties":{"osm_id":"5964931528","tag":{"amenity":"waste_basket"}},"type":"Feature"},
	{"geometry":{"coordinates":[13.443156,52.448811],"type":"Point"},"properties":{"osm_id":"5964931529","tag":{"amenity":"waste_basket"}},"type":"Feature"},
	{"geometry":{"coordinates":[13.443394,52.448868],"type":"Point"},"properties":{"osm_id":"5964931531","tag":{"amenity":"waste_basket"}},"type":"Feature"},
	{"geometry":{"coordinates":[13.443647,52.448282],"type":"Point"},"properties":{"osm_id":"5964931939","tag":{"amenity":"waste_basket"}},"type":"Feature"},
	{"geometry":{"coordinates":[13.443665,52.44814],"type":"Point"},"properties":{"osm_id":"5964931969","tag":{"amenity":"waste_basket"}},"type":"Feature"},
	{"geometry":{"coordinates":[13.443472,52.448148],"type":"Point"},"properties":{"osm_id":"5964932194","tag":{"amenity":"waste_basket"}},"type":"Feature"},
	{"geometry":{"coordinates":[13.443199,52.447868],"type":"Point"},"properties":{"osm_id":"5964932244","tag":{"amenity":"waste_basket"}},"type":"Feature"},
	{"geometry":{"coordinates":[13.443226,52.447107],"type":"Point"},"properties":{"osm_id":"5967463287","tag":{"amenity":"waste_basket"}},"type":"Feature"},
	{"geometry":{"coordinates":[13.4433,52.446855],"type":"Point"},"properties":{"osm_id":"5967463299","tag":{"amenity":"waste_basket"}},"type":"Feature"},
	{"geometry":{"coordinates":[13.443863,52.446743],"type":"Point"},"properties":{"osm_id":"5967463328","tag":{"amenity":"waste_basket"}},"type":"Feature"},
	{"geometry":{"coordinates":[13.443471,52.447131],"type":"Point"},"properties":{"osm_id":"5967463360","tag":{"amenity":"waste_basket"}},"type":"Feature"},
	{"geometry":{"coordinates":[13.443691,52.447138],"type":"Point"},"properties":{"osm_id":"5967463365","tag":{"amenity":"waste_basket"}},"type":"Feature"},
	{"geometry":{"coordinates":[13.44372,52.447335],"type":"Point"},"properties":{"osm_id":"5967463366","tag":{"amenity":"waste_basket"}},"type":"Feature"},
	{"geometry":{"coordinates":[13.443754,52.447489],"type":"Point"},"properties":{"osm_id":"5967463381","tag":{"amenity":"waste_basket"}},"type":"Feature"},
	{"geometry":{"coordinates":[13.443019,52.448462],"type":"Point"},"properties":{"osm_id":"5967463678","tag":{"amenity":"waste_basket"}},"type":"Feature"},
	{"geometry":{"coordinates":[13.443222,52.448228],"type":"Point"},"properties":{"osm_id":"5967464022","tag":{"amenity":"waste_basket"}},"type":"Feature"},
	{"geometry":{"coordinates":[13.442925,52.448323],"type":"Point"},"properties":{"osm_id":"5967464050","tag":{"amenity":"waste_basket"}},"type":"Feature"},
	{"geometry":{"coordinates":[13.442155,52.448355],"type":"Point"},"properties":{"osm_id":"5967464074","tag":{"amenity":"waste_basket"}},"type":"Feature"},
	{"geometry":{"coordinates":[13.442378,52.448328],"type":"Point"},"properties":{"osm_id":"5967464274","tag":{"amenity":"waste_basket"}},"type":"Feature"},
	{"geometry":{"coordinates":[13.44259,52.44841],"type":"Point"},"properties":{"osm_id":"5967464275","tag":{"amenity":"waste_basket"}},"type":"Feature"},
	{"geometry":{"coordinates":[13.442648,52.448463],"type":"Point"},"properties":{"osm_id":"5967464360","tag":{"amenity":"waste_basket"}},"type":"Feature"},
	{"geometry":{"coordinates":[13.442856,52.448657],"type":"Point"},"properties":{"osm_id":"5967464435","tag":{"amenity":"waste_basket"}},"type":"Feature"},
	{"geometry":{"coordinates":[13.442899,52.448727],"type":"Point"},"properties":{"osm_id":"5967464450","tag":{"amenity":"waste_basket"}},"type":"Feature"},
	{"geometry":{"coordinates":[13.408936,52.47976],"type":"Point"},"properties":{"osm_id":"5969117569","tag":{"amenity":"waste_basket","waste":"trash"}},"type":"Feature"},
	{"geometry":{"coordinates":[13.408542,52.479983],"type":"Point"},"properties":{"osm_id":"5969117571","tag":{"amenity":"waste_basket","waste":"trash"}},"type":"Feature"},
	{"geometry":{"coordinates":[13.426905,52.476957],"type":"Point"},"properties":{"osm_id":"5977960094","tag":{"amenity":"waste_basket"}},"type":"Feature"},
	{"geometry":{"coordinates":[13.427245,52.476989],"type":"Point"},"properties":{"osm_id":"5977960167","tag":{"amenity":"waste_basket"}},"type":"Feature"},
	{"geometry":{"coordinates":[13.427469,52.477016],"type":"Point"},"properties":{"osm_id":"5977960168","tag":{"amenity":"waste_basket"}},"type":"Feature"},
	{"geometry":{"coordinates":[13.427194,52.477229],"type":"Point"},"properties":{"osm_id":"5978642246","tag":{"amenity":"waste_basket"}},"type":"Feature"},
	{"geometry":{"coordinates":[13.42271,52.47478],"type":"Point"},"properties":{"osm_id":"5981240838","tag":{"amenity":"recycling","recycling:glass_bottles":"yes","recycling_type":"container"}},"type":"Feature"},
	{"geometry":{"coordinates":[13.434018,52.474773],"type":"Point"},"properties":{"osm_id":"5982893316","tag":{"amenity":"waste_basket"}},"type":"Feature"},
	{"geometry":{"coordinates":[13.435117,52.472771],"type":"Point"},"properties":{"osm_id":"5982893330","tag":{"amenity":"waste_basket"}},"type":"Feature"},
	{"geometry":{"coordinates":[13.431762,52.472354],"type":"Point"},"properties":{"osm_id":"5982893332","tag":{"amenity":"waste_basket"}},"type":"Feature"},
	{"geometry":{"coordinates":[13.430676,52.472215],"type":"Point"},"properties":{"osm_id":"5982893340","tag":{"amenity":"waste_basket"}},"type":"Feature"},
	{"geometry":{"coordinates":[13.428025,52.477242],"type":"Point"},"properties":{"barrier":"gate","osm_id":"5983758322","tag":{"access":"private"}},"type":"Feature"},
	{"geometry":{"coordinates":[13.42802,52.477284],"type":"Point"},"properties":{"barrier":"gate","osm_id":"5983758325","tag":{"access":"private"}},"type":"Feature"},
	{"geometry":{"coordinates":[13.428246,52.477379],"type":"Point"},"properties":{"osm_id":"5983758418","tag":{"amenity":"waste_basket"}},"type":"Feature"},
	{"geometry":{"coordinates":[13.428292,52.477471],"type":"Point"},"properties":{"osm_id":"5983758427","tag":{"amenity":"waste_basket"}},"type":"Feature"},
	{"geometry":{"coordinates":[13.427728,52.477379],"type":"Point"},"properties":{"osm_id":"5983758479","tag":{"amenity":"waste_basket"}},"type":"Feature"},
	{"geometry":{"coordinates":[13.430415,52.477138],"type":"Point"},"properties":{"osm_id":"5984090683","tag":{"amenity":"waste_basket"}},"type":"Feature"},
	{"geometry":{"coordinates":[13.430456,52.477187],"type":"Point"},"properties":{"osm_id":"5984092792","tag":{"amenity":"waste_basket"}},"type":"Feature"},
	{"geometry":{"coordinates":[13.430137,52.477102],"type":"Point"},"properties":{"osm_id":"5984092806","tag":{"amenity":"waste_basket"}},"type":"Feature"},
	{"geometry":{"coordinates":[13.429913,52.477072],"type":"Point"},"properties":{"osm_id":"5984092811","tag":{"amenity":"waste_basket"}},"type":"Feature"},
	{"geometry":{"coordinates":[13.429684,52.477015],"type":"Point"},"properties":{"barrier":"gate","osm_id":"5984092838","tag":{"access":"private"}},"type":"Feature"},
	{"geometry":{"coordinates":[13.429729,52.47705],"type":"Point"},"properties":{"osm_id":"5984092860","tag":{"amenity":"waste_basket"}},"type":"Feature"},
	{"geometry":{"coordinates":[13.429652,52.477085],"type":"Point"},"properties":{"osm_id":"5984092881","tag":{"amenity":"waste_basket"}},"type":"Feature"},
	{"geometry":{"coordinates":[13.434071,52.477698],"type":"Point"},"properties":{"osm_id":"5985162523","tag":{"amenity":"waste_basket"}},"type":"Feature"},
	{"geometry":{"coordinates":[13.43426,52.477759],"type":"Point"},"properties":{"barrier":"gate","osm_id":"5985162548","tag":{"access":"private"}},"type":"Feature"},
	{"geometry":{"coordinates":[13.434379,52.477789],"type":"Point"},"properties":{"barrier":"gate","osm_id":"5985162559","tag":{"access":"private"}},"type":"Feature"},
	{"geometry":{"coordinates":[13.434561,52.477507],"type":"Point"},"properties":{"osm_id":"5985162580","tag":{"amenity":"waste_basket"}},"type":"Feature"},
	{"geometry":{"coordinates":[13.434665,52.477286],"type":"Point"},"properties":{"osm_id":"5985162707","tag":{"amenity":"waste_basket"}},"type":"Feature"},
	{"geometry":{"coordinates":[13.431368,52.476219],"type":"Point"},"properties":{"osm_id":"5986026446","tag":{"amenity":"waste_basket","location":"roof"}},"type":"Feature"},
	{"geometry":{"coordinates":[13.431208,52.476407],"type":"Point"},"properties":{"osm_id":"5986029103","tag":{"amenity":"waste_basket"}},"type":"Feature"},
	{"geometry":{"coordinates":[13.43126,52.476515],"type":"Point"},"properties":{"osm_id":"5986029152","tag":{"amenity":"waste_basket","location":"roof"}},"type":"Feature"},
	{"geometry":{"coordinates":[13.429933,52.477015],"type":"Point"},"properties":{"osm_id":"5986029931","tag":{"amenity":"waste_basket"}},"type":"Feature"},
	{"geometry":{"coordinates":[13.429979,52.476863],"type":"Point"},"properties":{"osm_id":"5986029942","tag":{"amenity":"waste_basket"}},"type":"Feature"},
	{"geometry":{"coordinates":[13.430207,52.476891],"type":"Point"},"properties":{"osm_id":"5986029953","tag":{"amenity":"waste_basket"}},"type":"Feature"},
	{"geometry":{"coordinates":[13.430315,52.476906],"type":"Point"},"properties":{"osm_id":"5986029954","tag":{"amenity":"waste_basket"}},"type":"Feature"},
	{"geometry":{"coordinates":[13.430432,52.477078],"type":"Point"},"properties":{"osm_id":"5986029960","tag":{"amenity":"waste_basket"}},"type":"Feature"},
	{"geometry":{"coordinates":[13.441508,52.471126],"type":"Point"},"properties":{"osm_id":"6001052325","tag":{"amenity":"recycling","recycling:glass_bottles":"yes","recycling_type":"container"}},"type":"Feature"},
	{"geometry":{"coordinates":[13.438149,52.45306],"type":"Point"},"properties":{"osm_id":"6014024402","tag":{"amenity":"recycling","recycling:clothes":"yes","recycling_type":"container"}},"type":"Feature"},
	{"geometry":{"coordinates":[13.420422,52.452336],"type":"Point"},"properties":{"osm_id":"6014024406","tag":{"amenity":"recycling","recycling:glass_bottles":"yes","recycling_type":"container"}},"type":"Feature"},
	{"geometry":{"coordinates":[13.447227,52.43985],"type":"Point"},"properties":{"osm_id":"6034392559","tag":{"amenity":"waste_basket"}},"type":"Feature"},
	{"geometry":{"coordinates":[13.446867,52.440324],"type":"Point"},"properties":{"osm_id":"6034392562","tag":{"amenity":"waste_basket"}},"type":"Feature"},
	{"geometry":{"coordinates":[13.447013,52.441338],"type":"Point"},"properties":{"osm_id":"6034412212","tag":{"amenity":"waste_basket"}},"type":"Feature"},
	{"geometry":{"coordinates":[13.362642,52.436527],"type":"Point"},"properties":{"osm_id":"6111581839","tag":{"amenity":"recycling","recycling:clothes":"yes","recycling_type":"container"}},"type":"Feature"},
	{"geometry":{"coordinates":[13.438288,52.477736],"type":"Point"},"properties":{"osm_id":"6150372732","tag":{"amenity":"waste_basket"}},"type":"Feature"},
	{"geometry":{"coordinates":[13.372092,52.455676],"type":"Point"},"properties":{"osm_id":"6210796884","tag":{"amenity":"waste_basket"}},"type":"Feature"},
	{"geometry":{"coordinates":[13.372307,52.455509],"type":"Point"},"properties":{"osm_id":"6218049868","tag":{"amenity":"waste_basket"}},"type":"Feature"},
	{"geometry":{"coordinates":[13.370701,52.454635],"type":"Point"},"properties":{"osm_id":"6218049869","tag":{"amenity":"waste_basket"}},"type":"Feature"},
	{"geometry":{"coordinates":[13.369426,52.455123],"type":"Point"},"properties":{"osm_id":"6218049870","tag":{"amenity":"waste_basket"}},"type":"Feature"},
	{"geometry":{"coordinates":[13.369001,52.455681],"type":"Point"},"properties":{"osm_id":"6218049871","tag":{"amenity":"waste_basket"}},"type":"Feature"},
	{"geometry":{"coordinates":[13.369898,52.455892],"type":"Point"},"properties":{"osm_id":"6218049872","tag":{"amenity":"waste_basket"}},"type":"Feature"},
	{"geometry":{"coordinates":[13.37089,52.455729],"type":"Point"},"properties":{"osm_id":"6218049873","tag":{"amenity":"waste_basket"}},"type":"Feature"},
	{"geometry":{"coordinates":[13.43464,52.475048],"type":"Point"},"properties":{"osm_id":"6237682912","tag":{"amenity":"waste_basket"}},"type":"Feature"},
	{"geometry":{"coordinates":[13.434414,52.475152],"type":"Point"},"properties":{"osm_id":"6237682950","tag":{"amenity":"waste_basket"}},"type":"Feature"},
	{"geometry":{"coordinates":[13.434227,52.475122],"type":"Point"},"properties":{"osm_id":"6237682953","tag":{"amenity":"waste_basket"}},"type":"Feature"},
	{"geometry":{"coordinates":[13.43437,52.475478],"type":"Point"},"properties":{"osm_id":"6237682960","tag":{"amenity":"waste_basket"}},"type":"Feature"},
	{"geometry":{"coordinates":[13.43446,52.47544],"type":"Point"},"properties":{"osm_id":"6237683299","tag":{"amenity":"waste_basket"}},"type":"Feature"},
	{"geometry":{"coordinates":[13.434505,52.475838],"type":"Point"},"properties":{"osm_id":"6237683308","tag":{"amenity":"waste_basket"}},"type":"Feature"},
	{"geometry":{"coordinates":[13.372012,52.454917],"type":"Point"},"properties":{"osm_id":"6251855127","tag":{"amenity":"waste_basket"}},"type":"Feature"},
	{"geometry":{"coordinates":[13.372922,52.463012],"type":"Point"},"properties":{"osm_id":"6266460168","tag":{"amenity":"recycling","recycling:glass_bottles":"yes","recycling_type":"container"}},"type":"Feature"},
	{"geometry":{"coordinates":[13.443681,52.474202],"type":"Point"},"properties":{"osm_id":"6268105076","tag":{"amenity":"waste_basket"}},"type":"Feature"},
	{"geometry":{"coordinates":[13.442763,52.474112],"type":"Point"},"properties":{"osm_id":"6268105286","tag":{"amenity":"waste_basket"}},"type":"Feature"},
	{"geometry":{"coordinates":[13.442202,52.480804],"type":"Point"},"properties":{"osm_id":"6291477113","tag":{"amenity":"recycling","recycling:glass_bottles":"yes","recycling_type":"container"}},"type":"Feature"},
	{"geometry":{"coordinates":[13.441238,52.472649],"type":"Point"},"properties":{"osm_id":"6312698843","tag":{"amenity":"waste_basket"}},"type":"Feature"},
	{"geometry":{"coordinates":[13.441727,52.469871],"type":"Point"},"properties":{"osm_id":"6320133505","tag":{"amenity":"waste_basket"}},"type":"Feature"},
	{"geometry":{"coordinates":[13.362141,52.471408],"type":"Point"},"properties":{"osm_id":"6327805952","tag":{"amenity":"waste_basket"}},"type":"Feature"},
	{"geometry":{"coordinates":[13.360937,52.470242],"type":"Point"},"properties":{"osm_id":"6327805955","tag":{"amenity":"waste_basket"}},"type":"Feature"},
	{"geometry":{"coordinates":[13.361266,52.470992],"type":"Point"},"properties":{"osm_id":"6327805956","tag":{"amenity":"waste_basket"}},"type":"Feature"},
	{"geometry":{"coordinates":[13.445857,52.472102],"type":"Point"},"properties":{"osm_id":"6329136176","tag":{"amenity":"waste_basket"}},"type":"Feature"},
	{"geometry":{"coordinates":[13.446032,52.47222],"type":"Point"},"properties":{"osm_id":"6329139316","tag":{"amenity":"waste_basket"}},"type":"Feature"},
	{"geometry":{"coordinates":[13.443288,52.477714],"type":"Point"},"properties":{"osm_id":"6343361692","tag":{"amenity":"waste_basket"}},"type":"Feature"},
	{"geometry":{"coordinates":[13.44357,52.481146],"type":"Point"},"properties":{"osm_id":"6343384684","tag":{"amenity":"waste_basket"}},"type":"Feature"},
	{"geometry":{"coordinates":[13.442995,52.480409],"type":"Point"},"properties":{"osm_id":"6343423036","tag":{"amenity":"waste_basket"}},"type":"Feature"},
	{"geometry":{"coordinates":[13.444184,52.481677],"type":"Point"},"properties":{"osm_id":"6344297709","tag":{"amenity":"waste_basket"}},"type":"Feature"},
	{"geometry":{"coordinates":[13.444395,52.481766],"type":"Point"},"properties":{"osm_id":"6344297710","tag":{"amenity":"waste_basket"}},"type":"Feature"},
	{"geometry":{"coordinates":[13.443208,52.482308],"type":"Point"},"properties":{"osm_id":"6344300409","tag":{"amenity":"waste_basket"}},"type":"Feature"},
	{"geometry":{"coordinates":[13.442425,52.481746],"type":"Point"},"properties":{"osm_id":"6344376663","tag":{"amenity":"waste_basket"}},"type":"Feature"},
	{"geometry":{"coordinates":[13.442533,52.481604],"type":"Point"},"properties":{"osm_id":"6344378215","tag":{"amenity":"waste_basket"}},"type":"Feature"},
	{"geometry":{"coordinates":[13.443013,52.48171],"type":"Point"},"properties":{"osm_id":"6344378406","tag":{"amenity":"waste_basket"}},"type":"Feature"},
	{"geometry":{"coordinates":[13.443064,52.481684],"type":"Point"},"properties":{"osm_id":"6344378407","tag":{"amenity":"waste_basket"}},"type":"Feature"},
	{"geometry":{"coordinates":[13.405169,52.4798],"type":"Point"},"properties":{"osm_id":"6349992890","tag":{"amenity":"waste_disposal","colour":"silver","operator":"BSR","waste":"ash"}},"type":"Feature"},
	{"geometry":{"coordinates":[13.405014,52.47982],"type":"Point"},"properties":{"osm_id":"6349992891","tag":{"amenity":"waste_disposal","colour":"black","operator":"BSR","waste":"trash"}},"type":"Feature"},
	{"geometry":{"coordinates":[13.428194,52.480059],"type":"Point"},"properties":{"osm_id":"6383418230","tag":{"amenity":"waste_basket"}},"type":"Feature"},
	{"geometry":{"coordinates":[13.446121,52.477211],"type":"Point"},"properties":{"osm_id":"6427297090","tag":{"amenity":"waste_basket"}},"type":"Feature"},
	{"geometry":{"coordinates":[13.446576,52.477037],"type":"Point"},"properties":{"osm_id":"6427297097","tag":{"amenity":"waste_basket"}},"type":"Feature"},
	{"geometry":{"coordinates":[13.446199,52.476385],"type":"Point"},"properties":{"osm_id":"6427297105","tag":{"amenity":"waste_basket"}},"type":"Feature"},
	{"geometry":{"coordinates":[13.444718,52.477002],"type":"Point"},"properties":{"osm_id":"6427297107","tag":{"amenity":"waste_basket"}},"type":"Feature"},
	{"geometry":{"coordinates":[13.407436,52.430771],"type":"Point"},"properties":{"osm_id":"6438753420","tag":{"amenity":"waste_basket"}},"type":"Feature"},
	{"geometry":{"coordinates":[13.441481,52.481225],"type":"Point"},"properties":{"osm_id":"6449298045","tag":{"amenity":"waste_basket"}},"type":"Feature"},
	{"geometry":{"coordinates":[13.43593,52.4821],"type":"Point"},"properties":{"osm_id":"6653794100","tag":{"amenity":"waste_basket","colour":"orange","operator":"BSR","support":"pole","waste":"trash"}},"type":"Feature"},
	{"geometry":{"coordinates":[13.447261,52.454148],"type":"Point"},"properties":{"osm_id":"6700828009","tag":{"amenity":"waste_basket"}},"type":"Feature"},
	{"geometry":{"coordinates":[13.420985,52.480537],"type":"Point"},"properties":{"osm_id":"6728174430","tag":{"amenity":"recycling","colour":"green;white;brown","recycling:glass_bottles":"yes","recycling_type":"container"}},"type":"Feature"},
	{"geometry":{"coordinates":[13.428877,52.482664],"type":"Point"},"properties":{"osm_id":"6743897938","tag":{"amenity":"waste_basket"}},"type":"Feature"},
	{"geometry":{"coordinates":[13.426801,52.479816],"type":"Point"},"properties":{"osm_id":"6775567329","tag":{"amenity":"waste_basket","lit":"yes"}},"type":"Feature"},
	{"geometry":{"coordinates":[13.426643,52.479797],"type":"Point"},"properties":{"osm_id":"6775567330","tag":{"amenity":"waste_basket","lit":"yes"}},"type":"Feature"},
	{"geometry":{"coordinates":[13.420095,52.471582],"type":"Point"},"properties":{"osm_id":"6779146616","tag":{"amenity":"waste_disposal","colour":"black","operator":"BSR","waste":"trash"}},"type":"Feature"},
	{"geometry":{"coordinates":[13.420102,52.471329],"type":"Point"},"properties":{"osm_id":"6779146617","tag":{"amenity":"waste_disposal","colour":"black","operator":"BSR","waste":"trash"}},"type":"Feature"},
	{"geometry":{"coordinates":[13.418883,52.473804],"type":"Point"},"properties":{"osm_id":"6779146618","tag":{"amenity":"waste_disposal","colour":"black","operator":"BSR","waste":"trash"}},"type":"Feature"},
	{"geometry":{"coordinates":[13.418277,52.476453],"type":"Point"},"properties":{"osm_id":"6779146619","tag":{"amenity":"waste_disposal","colour":"black","operator":"BSR","waste":"trash"}},"type":"Feature"},
	{"geometry":{"coordinates":[13.405651,52.480143],"type":"Point"},"properties":{"osm_id":"6779146620","tag":{"amenity":"waste_disposal","colour":"silver","operator":"BSR","waste":"ash"}},"type":"Feature"},
	{"geometry":{"coordinates":[13.405561,52.480189],"type":"Point"},"properties":{"osm_id":"6779146621","tag":{"amenity":"waste_disposal","colour":"yellow","operator":"BSR","waste":"plastics"}},"type":"Feature"},
	{"geometry":{"coordinates":[13.407195,52.482349],"type":"Point"},"properties":{"osm_id":"6779146622","tag":{"amenity":"waste_basket","colour":"silver;orange","operator":"BSR","support":"ground","waste":"trash"}},"type":"Feature"},
	{"geometry":{"coordinates":[13.422373,52.475745],"type":"Point"},"properties":{"osm_id":"6779262697","tag":{"amenity":"recycling","colour":"green;white;brown","recycling:glass_bottles":"yes","recycling_type":"container"}},"type":"Feature"},
	{"geometry":{"coordinates":[13.433666,52.479202],"type":"Point"},"properties":{"osm_id":"6779951795","tag":{"amenity":"waste_basket","colour":"orange","operator":"BSR","support":"pole","waste":"trash"}},"type":"Feature"},
	{"geometry":{"coordinates":[13.430861,52.480453],"type":"Point"},"properties":{"osm_id":"6806395688","tag":{"amenity":"waste_basket","colour":"orange","operator":"BSR","support":"railing","waste":"trash"}},"type":"Feature"},
	{"geometry":{"coordinates":[13.41837,52.47613],"type":"Point"},"properties":{"osm_id":"6813168281","tag":{"amenity":"waste_disposal","colour":"black","operator":"BSR","waste":"trash"}},"type":"Feature"},
	{"geometry":{"coordinates":[13.417923,52.473005],"type":"Point"},"properties":{"osm_id":"6813222200","tag":{"amenity":"waste_disposal","colour":"black","operator":"BSR","waste":"trash"}},"type":"Feature"},
	{"geometry":{"coordinates":[13.417934,52.47297],"type":"Point"},"properties":{"osm_id":"6813222201","tag":{"amenity":"waste_disposal","colour":"red","waste":"ash"}},"type":"Feature"},
	{"geometry":{"coordinates":[13.417946,52.472936],"type":"Point"},"properties":{"osm_id":"6813222202","tag":{"amenity":"waste_disposal","colour":"silver","operator":"BSR","waste":"ash"}},"type":"Feature"},
	{"geometry":{"coordinates":[13.403876,52.480698],"type":"Point"},"properties":{"osm_id":"6813222205","tag":{"amenity":"waste_disposal","colour":"black","operator":"BSR","waste":"trash"}},"type":"Feature"},
	{"geometry":{"coordinates":[13.403775,52.480697],"type":"Point"},"properties":{"osm_id":"6813222206","tag":{"amenity":"waste_disposal","colour":"red","waste":"ash"}},"type":"Feature"},
	{"geometry":{"coordinates":[13.403718,52.480696],"type":"Point"},"properties":{"osm_id":"6813222207","tag":{"amenity":"waste_disposal","colour":"silver","operator":"BSR","waste":"ash"}},"type":"Feature"},
	{"geometry":{"coordinates":[13.402675,52.479997],"type":"Point"},"properties":{"osm_id":"6813222208","tag":{"amenity":"waste_disposal","colour":"black","operator":"BSR","waste":"trash"}},"type":"Feature"},
	{"geometry":{"coordinates":[13.402621,52.48],"type":"Point"},"properties":{"osm_id":"6813222209","tag":{"amenity":"waste_disposal","colour":"red","waste":"ash"}},"type":"Feature"},
	{"geometry":{"coordinates":[13.402567,52.480003],"type":"Point"},"properties":{"osm_id":"6813222210","tag":{"amenity":"waste_disposal","colour":"silver","operator":"BSR","waste":"ash"}},"type":"Feature"},
	{"geometry":{"coordinates":[13.390877,52.471001],"type":"Point"},"properties":{"osm_id":"6813222240","tag":{"amenity":"waste_disposal","colour":"black","operator":"BSR","waste":"trash"}},"type":"Feature"},
	{"geometry":{"coordinates":[13.391735,52.477486],"type":"Point"},"properties":{"osm_id":"6813222242","tag":{"amenity":"waste_disposal","colour":"black","operator":"BSR","waste":"trash"}},"type":"Feature"},
	{"geometry":{"coordinates":[13.397809,52.480094],"type":"Point"},"properties":{"osm_id":"6813222243","tag":{"amenity":"waste_disposal","colour":"black","operator":"BSR","waste":"trash"}},"type":"Feature"},
	{"geometry":{"coordinates":[13.412823,52.478177],"type":"Point"},"properties":{"osm_id":"6813222244","tag":{"amenity":"waste_disposal","colour":"black","operator":"BSR","waste":"trash"}},"type":"Feature"},
	{"geometry":{"coordinates":[13.41651,52.473251],"type":"Point"},"properties":{"osm_id":"6813222245","tag":{"amenity":"waste_disposal","colour":"red","waste":"ash"}},"type":"Feature"},
	{"geometry":{"coordinates":[13.417813,52.473403],"type":"Point"},"properties":{"osm_id":"6813222246","tag":{"amenity":"waste_disposal","colour":"silver","operator":"BSR","waste":"ash"}},"type":"Feature"},
	{"geometry":{"coordinates":[13.417832,52.47334],"type":"Point"},"properties":{"osm_id":"6813222247","tag":{"amenity":"waste_disposal","colour":"red","waste":"ash"}},"type":"Feature"},
	{"geometry":{"coordinates":[13.417844,52.473297],"type":"Point"},"properties":{"osm_id":"6813222248","tag":{"amenity":"waste_disposal","colour":"black","operator":"BSR","waste":"trash"}},"type":"Feature"},
	{"geometry":{"coordinates":[13.41806,52.472409],"type":"Point"},"properties":{"osm_id":"6813222249","tag":{"amenity":"waste_disposal","colour":"silver","operator":"BSR","waste":"ash"}},"type":"Feature"},
	{"geometry":{"coordinates":[13.418067,52.472463],"type":"Point"},"properties":{"osm_id":"6813222250","tag":{"amenity":"waste_disposal","colour":"red","waste":"ash"}},"type":"Feature"},
	{"geometry":{"coordinates":[13.418065,52.472536],"type":"Point"},"properties":{"osm_id":"6813222251","tag":{"amenity":"waste_disposal","colour":"black","operator":"BSR","waste":"trash"}},"type":"Feature"},
	{"geometry":{"coordinates":[13.395166,52.469869],"type":"Point"},"properties":{"osm_id":"6813222257","tag":{"amenity":"waste_disposal","colour":"silver","operator":"BSR","waste":"ash"}},"type":"Feature"},
	{"geometry":{"coordinates":[13.395123,52.469864],"type":"Point"},"properties":{"osm_id":"6813222258","tag":{"amenity":"waste_disposal","colour":"red","waste":"ash"}},"type":"Feature"},
	{"geometry":{"coordinates":[13.394796,52.47061],"type":"Point"},"properties":{"osm_id":"6813222259","tag":{"amenity":"waste_disposal","colour":"yellow","operator":"BSR","waste":"plastics"}},"type":"Feature"},
	{"geometry":{"coordinates":[13.394977,52.470613],"type":"Point"},"properties":{"osm_id":"6813222260","tag":{"amenity":"waste_disposal","colour":"silver","operator":"BSR","waste":"ash"}},"type":"Feature"},
	{"geometry":{"coordinates":[13.394917,52.470612],"type":"Point"},"properties":{"osm_id":"6813222261","tag":{"amenity":"waste_disposal","colour":"red","waste":"ash"}},"type":"Feature"},
	{"geometry":{"coordinates":[13.394857,52.470611],"type":"Point"},"properties":{"osm_id":"6813222262","tag":{"amenity":"waste_disposal","colour":"black","operator":"BSR","waste":"trash"}},"type":"Feature"},
	{"geometry":{"coordinates":[13.393392,52.470579],"type":"Point"},"properties":{"osm_id":"6813222263","tag":{"amenity":"waste_disposal","colour":"red","waste":"ash"}},"type":"Feature"},
	{"geometry":{"coordinates":[13.393326,52.470579],"type":"Point"},"properties":{"osm_id":"6813222264","tag":{"amenity":"waste_disposal","colour":"black","operator":"BSR","waste":"trash"}},"type":"Feature"},
	{"geometry":{"coordinates":[13.393459,52.470579],"type":"Point"},"properties":{"osm_id":"6813222265","tag":{"amenity":"waste_disposal","colour":"silver","operator":"BSR","waste":"ash"}},"type":"Feature"},
	{"geometry":{"coordinates":[13.393646,52.469873],"type":"Point"},"properties":{"osm_id":"6813222266","tag":{"amenity":"waste_disposal","colour":"red","waste":"ash"}},"type":"Feature"},
	{"geometry":{"coordinates":[13.393604,52.469905],"type":"Point"},"properties":{"osm_id":"6813222267","tag":{"amenity":"waste_disposal","colour":"black","operator":"BSR","waste":"trash"}},"type":"Feature"},
	{"geometry":{"coordinates":[13.393687,52.469841],"type":"Point"},"properties":{"osm_id":"6813222268","tag":{"amenity":"waste_disposal","colour":"silver","operator":"BSR","waste":"ash"}},"type":"Feature"},
	{"geometry":{"coordinates":[13.393144,52.470268],"type":"Point"},"properties":{"osm_id":"6813222269","tag":{"amenity":"waste_disposal","colour":"silver","operator":"BSR","waste":"ash"}},"type":"Feature"},
	{"geometry":{"coordinates":[13.393104,52.4703],"type":"Point"},"properties":{"osm_id":"6813222270","tag":{"amenity":"waste_disposal","colour":"red","waste":"ash"}},"type":"Feature"},
	{"geometry":{"coordinates":[13.41675,52.472633],"type":"Point"},"properties":{"osm_id":"6813222271","tag":{"amenity":"waste_disposal","colour":"silver","operator":"BSR","waste":"ash"}},"type":"Feature"},
	{"geometry":{"coordinates":[13.416766,52.472593],"type":"Point"},"properties":{"osm_id":"6813222272","tag":{"amenity":"waste_disposal","colour":"red","waste":"ash"}},"type":"Feature"},
	{"geometry":{"coordinates":[13.416781,52.472555],"type":"Point"},"properties":{"osm_id":"6813222273","tag":{"amenity":"waste_disposal","colour":"black","operator":"BSR","waste":"trash"}},"type":"Feature"},
	{"geometry":{"coordinates":[13.405427,52.475287],"type":"Point"},"properties":{"osm_id":"6813222274","tag":{"amenity":"waste_disposal","colour":"black","operator":"BSR","waste":"trash"}},"type":"Feature"},
	{"geometry":{"coordinates":[13.390528,52.474233],"type":"Point"},"properties":{"osm_id":"6813222276","tag":{"amenity":"waste_disposal","colour":"black","operator":"BSR","waste":"trash"}},"type":"Feature"},
	{"geometry":{"coordinates":[13.399934,52.466523],"type":"Point"},"properties":{"osm_id":"6813222283","tag":{"amenity":"waste_disposal","colour":"black","operator":"BSR","waste":"trash"}},"type":"Feature"},
	{"geometry":{"coordinates":[13.416699,52.470237],"type":"Point"},"properties":{"osm_id":"6813222292","tag":{"amenity":"waste_disposal","colour":"black","operator":"BSR","waste":"trash"}},"type":"Feature"},
	{"geometry":{"coordinates":[13.418494,52.475159],"type":"Point"},"properties":{"osm_id":"6813222293","tag":{"amenity":"waste_disposal","colour":"black","operator":"BSR","waste":"trash"}},"type":"Feature"},
	{"geometry":{"coordinates":[13.417072,52.471804],"type":"Point"},"properties":{"osm_id":"6813222294","tag":{"amenity":"waste_disposal","colour":"silver","operator":"BSR","waste":"ash"}},"type":"Feature"},
	{"geometry":{"coordinates":[13.417053,52.471847],"type":"Point"},"properties":{"osm_id":"6813222295","tag":{"amenity":"waste_disposal","colour":"red","waste":"ash"}},"type":"Feature"},
	{"geometry":{"coordinates":[13.417033,52.471895],"type":"Point"},"properties":{"osm_id":"6813222296","tag":{"amenity":"waste_disposal","colour":"black","operator":"BSR","waste":"trash"}},"type":"Feature"},
	{"geometry":{"coordinates":[13.403994,52.479915],"type":"Point"},"properties":{"osm_id":"6813222297","tag":{"amenity":"waste_disposal","colour":"red","waste":"ash"}},"type":"Feature"},
	{"geometry":{"coordinates":[13.403915,52.479921],"type":"Point"},"properties":{"osm_id":"6813222298","tag":{"amenity":"waste_disposal","colour":"black","operator":"BSR","waste":"trash"}},"type":"Feature"},
	{"geometry":{"coordinates":[13.404068,52.479909],"type":"Point"},"properties":{"osm_id":"6813222299","tag":{"amenity":"waste_disposal","colour":"silver","operator":"BSR","waste":"ash"}},"type":"Feature"},
	{"geometry":{"coordinates":[13.430151,52.479411],"type":"Point"},"properties":{"osm_id":"6813733989","tag":{"amenity":"waste_basket","support":"ground","waste":"trash"}},"type":"Feature"},
	{"geometry":{"coordinates":[13.430019,52.479266],"type":"Point"},"properties":{"osm_id":"6813733990","tag":{"amenity":"waste_basket","support":"ground","waste":"trash"}},"type":"Feature"},
	{"geometry":{"coordinates":[13.4423,52.465431],"type":"Point"},"properties":{"osm_id":"6816242145","tag":{"amenity":"waste_basket","colour":"orange","operator":"BSR","support":"pole","waste":"trash"}},"type":"Feature"},
	{"geometry":{"coordinates":[13.38321,52.459395],"type":"Point"},"properties":{"osm_id":"6819208230","tag":{"amenity":"recycling","recycling:clothes":"yes","recycling_type":"container"}},"type":"Feature"},
	{"geometry":{"coordinates":[13.38032,52.463867],"type":"Point"},"properties":{"osm_id":"6828132286","tag":{"amenity":"waste_basket"}},"type":"Feature"},
	{"geometry":{"coordinates":[13.366478,52.436415],"type":"Point"},"properties":{"osm_id":"6832293229","tag":{"amenity":"recycling","recycling:clothes":"yes","recycling_type":"container"}},"type":"Feature"},
	{"geometry":{"coordinates":[13.432318,52.479976],"type":"Point"},"properties":{"osm_id":"6833361502","tag":{"amenity":"waste_basket","colour":"orange","lit":"yes","operator":"BSR","support":"pole","waste":"trash"}},"type":"Feature"},
	{"geometry":{"coordinates":[13.434014,52.480287],"type":"Point"},"properties":{"osm_id":"6833361547","tag":{"amenity":"waste_basket","colour":"orange","operator":"BSR","support":"pole","waste":"trash"}},"type":"Feature"},
	{"geometry":{"coordinates":[13.433073,52.480079],"type":"Point"},"properties":{"osm_id":"6833361548","tag":{"amenity":"waste_basket","colour":"orange","operator":"BSR","support":"pole","waste":"trash"}},"type":"Feature"},
	{"geometry":{"coordinates":[13.435073,52.481165],"type":"Point"},"properties":{"osm_id":"6835558822","tag":{"amenity":"waste_basket","colour":"silver;orange","operator":"BSR","support":"ground","waste":"trash"}},"type":"Feature"},
	{"geometry":{"coordinates":[13.376273,52.465473],"type":"Point"},"properties":{"osm_id":"6838853136","tag":{"amenity":"waste_disposal"}},"type":"Feature"},
	{"geometry":{"coordinates":[13.437789,52.479015],"type":"Point"},"properties":{"osm_id":"6865200914","tag":{"amenity":"waste_basket","colour":"silver;orange","operator":"BSR","support":"ground","waste":"trash"}},"type":"Feature"},
	{"geometry":{"coordinates":[13.437564,52.479265],"type":"Point"},"properties":{"osm_id":"6865200915","tag":{"amenity":"waste_basket","colour":"silver;orange","operator":"BSR","support":"ground","waste":"trash"}},"type":"Feature"},
	{"geometry":{"coordinates":[13.439623,52.475972],"type":"Point"},"properties":{"osm_id":"6918620884","tag":{"amenity":"waste_basket"}},"type":"Feature"},
	{"geometry":{"coordinates":[13.426458,52.465238],"type":"Point"},"properties":{"osm_id":"6981400147","tag":{"amenity":"waste_basket","support":"pole","waste":"trash"}},"type":"Feature"},
	{"geometry":{"coordinates":[13.415738,52.480533],"type":"Point"},"properties":{"osm_id":"6987664935","tag":{"amenity":"waste_basket","colour":"silver;orange","operator":"BSR","support":"ground","waste":"trash"}},"type":"Feature"},
	{"geometry":{"coordinates":[13.420025,52.480664],"type":"Point"},"properties":{"osm_id":"6989942953","tag":{"amenity":"waste_basket","support":"ground","waste":"trash"}},"type":"Feature"},
	{"geometry":{"coordinates":[13.418664,52.480453],"type":"Point"},"properties":{"osm_id":"6989942954","tag":{"amenity":"waste_basket","support":"ground","waste":"trash"}},"type":"Feature"},
	{"geometry":{"coordinates":[13.417658,52.480721],"type":"Point"},"properties":{"osm_id":"6989942956","tag":{"amenity":"waste_basket","support":"ground","waste":"trash"}},"type":"Feature"},
	{"geometry":{"coordinates":[13.416601,52.480905],"type":"Point"},"properties":{"osm_id":"6989942957","tag":{"amenity":"waste_basket","support":"ground","waste":"trash"}},"type":"Feature"},
	{"geometry":{"coordinates":[13.4408,52.473601],"type":"Point"},"properties":{"osm_id":"7004895379","tag":{"amenity":"waste_basket","colour":"silver;orange","material":"metal","operator":"BSR","support":"ground","waste":"trash;cigarettes"}},"type":"Feature"},
	{"geometry":{"coordinates":[13.384475,52.471607],"type":"Point"},"properties":{"highway":"street_lamp","osm_id":"7023014612","ref":"3","tag":{"amenity":"waste_basket","lamp_mount":"bent_mast","lamp_type":"fluorescent","light:lit":"dusk-dawn","light:mount":"1"}},"type":"Feature"},
	{"geometry":{"coordinates":[13.416064,52.481668],"type":"Point"},"properties":{"osm_id":"7036766667","tag":{"amenity":"waste_basket","colour":"grey","operator":"BSR","support":"ground","waste":"trash"}},"type":"Feature"},
	{"geometry":{"coordinates":[13.41645,52.48243],"type":"Point"},"properties":{"osm_id":"7036780168","tag":{"amenity":"waste_basket","colour":"grey","operator":"BSR","support":"ground","waste":"trash"}},"type":"Feature"},
	{"geometry":{"coordinates":[13.441687,52.478659],"type":"Point"},"properties":{"osm_id":"7041988424","tag":{"amenity":"waste_basket","colour":"orange","operator":"BSR","support":"pole","waste":"trash"}},"type":"Feature"},
	{"geometry":{"coordinates":[13.419165,52.475154],"type":"Point"},"properties":{"osm_id":"7105590687","tag":{"amenity":"waste_basket","colour":"orange","lit":"yes","operator":"BSR","support":"pole","waste":"trash"}},"type":"Feature"},
	{"geometry":{"coordinates":[13.419367,52.474407],"type":"Point"},"properties":{"osm_id":"7105590688","tag":{"amenity":"waste_basket","colour":"orange","lit":"yes","operator":"BSR","support":"pole","waste":"trash"}},"type":"Feature"},
	{"geometry":{"coordinates":[13.419651,52.473333],"type":"Point"},"properties":{"osm_id":"7105590691","tag":{"amenity":"waste_basket","colour":"orange","lit":"yes","operator":"BSR","support":"pole","waste":"trash"}},"type":"Feature"},
	{"geometry":{"coordinates":[13.419712,52.472458],"type":"Point"},"properties":{"osm_id":"7105590692","tag":{"amenity":"waste_basket","colour":"orange","operator":"BSR","support":"pole","waste":"trash"}},"type":"Feature"},
	{"geometry":{"coordinates":[13.44058,52.467373],"type":"Point"},"properties":{"osm_id":"7141432901","tag":{"amenity":"waste_basket"}},"type":"Feature"},
	{"geometry":{"coordinates":[13.438201,52.466457],"type":"Point"},"properties":{"osm_id":"7141469191","tag":{"amenity":"waste_basket"}},"type":"Feature"},
	{"geometry":{"coordinates":[13.438283,52.466198],"type":"Point"},"properties":{"osm_id":"7141469194","tag":{"amenity":"waste_basket"}},"type":"Feature"},
	{"geometry":{"coordinates":[13.420143,52.481829],"type":"Point"},"properties":{"osm_id":"7147231621","tag":{"amenity":"waste_basket","support":"ground","waste":"trash"}},"type":"Feature"},
	{"geometry":{"coordinates":[13.42098,52.480792],"type":"Point"},"properties":{"osm_id":"7147231684","tag":{"amenity":"waste_basket","colour":"orange","lit":"yes","operator":"BSR","support":"pole","waste":"trash"}},"type":"Feature"},
	{"geometry":{"coordinates":[13.439316,52.472075],"type":"Point"},"properties":{"osm_id":"7174974919","tag":{"amenity":"waste_basket","colour":"orange","operator":"BSR","support":"pole","waste":"trash"}},"type":"Feature"},
	{"geometry":{"coordinates":[13.445218,52.482392],"type":"Point"},"properties":{"osm_id":"7191522538","tag":{"amenity":"waste_basket"}},"type":"Feature"},
	{"geometry":{"coordinates":[13.371464,52.474616],"type":"Point"},"properties":{"osm_id":"7217029004","tag":{"amenity":"waste_basket"}},"type":"Feature"},
	{"geometry":{"coordinates":[13.385859,52.471876],"type":"Point"},"properties":{"osm_id":"7217029005","tag":{"amenity":"waste_basket"}},"type":"Feature"},
	{"geometry":{"coordinates":[13.378659,52.466139],"type":"Point"},"properties":{"osm_id":"7217029009","tag":{"amenity":"waste_basket"}},"type":"Feature"},
	{"geometry":{"coordinates":[13.378125,52.468698],"type":"Point"},"properties":{"osm_id":"7217029010","tag":{"amenity":"waste_basket"}},"type":"Feature"},
	{"geometry":{"coordinates":[13.385905,52.467107],"type":"Point"},"properties":{"osm_id":"7217029011","tag":{"amenity":"waste_basket"}},"type":"Feature"},
	{"geometry":{"coordinates":[13.385853,52.468498],"type":"Point"},"properties":{"osm_id":"7217029017","tag":{"amenity":"waste_basket"}},"type":"Feature"},
	{"geometry":{"coordinates":[13.371407,52.474454],"type":"Point"},"properties":{"osm_id":"7217029021","tag":{"amenity":"waste_basket"}},"type":"Feature"},
	{"geometry":{"coordinates":[13.379202,52.465774],"type":"Point"},"properties":{"osm_id":"7217029024","tag":{"amenity":"recycling","recycling:glass":"yes","recycling_type":"container"}},"type":"Feature"},
	{"geometry":{"coordinates":[13.37759,52.468704],"type":"Point"},"properties":{"osm_id":"7217029025","tag":{"amenity":"waste_basket"}},"type":"Feature"},
	{"geometry":{"coordinates":[13.385321,52.467201],"type":"Point"},"properties":{"osm_id":"7217029026","tag":{"amenity":"waste_basket"}},"type":"Feature"},
	{"geometry":{"coordinates":[13.386604,52.463002],"type":"Point"},"properties":{"osm_id":"7217029028","tag":{"amenity":"recycling","recycling:glass":"yes","recycling_type":"container"}},"type":"Feature"},
	{"geometry":{"coordinates":[13.377672,52.466059],"type":"Point"},"properties":{"osm_id":"7217029034","tag":{"amenity":"waste_basket"}},"type":"Feature"},
	{"geometry":{"coordinates":[13.370879,52.474507],"type":"Point"},"properties":{"osm_id":"7217029035","tag":{"amenity":"waste_basket"}},"type":"Feature"},
	{"geometry":{"coordinates":[13.379299,52.465932],"type":"Point"},"properties":{"osm_id":"7217029039","tag":{"amenity":"waste_basket"}},"type":"Feature"},
	{"geometry":{"coordinates":[13.37795,52.468015],"type":"Point"},"properties":{"osm_id":"7217029040","tag":{"amenity":"waste_basket"}},"type":"Feature"},
	{"geometry":{"coordinates":[13.385329,52.46702],"type":"Point"},"properties":{"osm_id":"7217029041","tag":{"amenity":"waste_basket"}},"type":"Feature"},
	{"geometry":{"coordinates":[13.371512,52.474139],"type":"Point"},"properties":{"osm_id":"7217029051","tag":{"amenity":"waste_basket"}},"type":"Feature"},
	{"geometry":{"coordinates":[13.392245,52.467062],"type":"Point"},"properties":{"osm_id":"7217029052","tag":{"amenity":"waste_basket"}},"type":"Feature"},
	{"geometry":{"coordinates":[13.379671,52.465729],"type":"Point"},"properties":{"osm_id":"7217029055","tag":{"amenity":"waste_basket"}},"type":"Feature"},
	{"geometry":{"coordinates":[13.37812,52.468023],"type":"Point"},"properties":{"osm_id":"7217029056","tag":{"amenity":"waste_basket"}},"type":"Feature"},
	{"geometry":{"coordinates":[13.385821,52.467865],"type":"Point"},"properties":{"osm_id":"7217029057","tag":{"amenity":"waste_basket"}},"type":"Feature"},
	{"geometry":{"coordinates":[13.378152,52.466998],"type":"Point"},"properties":{"osm_id":"7217029061","tag":{"amenity":"waste_basket"}},"type":"Feature"},
	{"geometry":{"coordinates":[13.385818,52.471035],"type":"Point"},"properties":{"osm_id":"7217029063","tag":{"amenity":"waste_basket"}},"type":"Feature"},
	{"geometry":{"coordinates":[13.396083,52.463028],"type":"Point"},"properties":{"osm_id":"7217029064","tag":{"amenity":"waste_basket"}},"type":"Feature"},
	{"geometry":{"coordinates":[13.378561,52.465899],"type":"Point"},"properties":{"osm_id":"7217029066","tag":{"amenity":"waste_basket"}},"type":"Feature"},
	{"geometry":{"coordinates":[13.38935,52.466998],"type":"Point"},"properties":{"osm_id":"7217029068","tag":{"amenity":"waste_basket"}},"type":"Feature"},
	{"geometry":{"coordinates":[13.37985,52.46531],"type":"Point"},"properties":{"osm_id":"7217029071","tag":{"amenity":"waste_basket"}},"type":"Feature"},
	{"geometry":{"coordinates":[13.385351,52.467523],"type":"Point"},"properties":{"osm_id":"7217029073","tag":{"amenity":"waste_basket"}},"type":"Feature"},
	{"geometry":{"coordinates":[13.389013,52.464453],"type":"Point"},"properties":{"osm_id":"7217029075","tag":{"amenity":"waste_basket"}},"type":"Feature"},
	{"geometry":{"coordinates":[13.385442,52.471038],"type":"Point"},"properties":{"osm_id":"7217029078","tag":{"amenity":"waste_basket"}},"type":"Feature"},
	{"geometry":{"coordinates":[13.378398,52.465827],"type":"Point"},"properties":{"osm_id":"7217029082","tag":{"amenity":"waste_basket"}},"type":"Feature"},
	{"geometry":{"coordinates":[13.373369,52.472795],"type":"Point"},"properties":{"osm_id":"7217029083","tag":{"amenity":"waste_basket"}},"type":"Feature"},
	{"geometry":{"coordinates":[13.385916,52.46864],"type":"Point"},"properties":{"osm_id":"7217052088","tag":{"amenity":"waste_basket"}},"type":"Feature"},
	{"geometry":{"coordinates":[13.442875,52.476802],"type":"Point"},"properties":{"osm_id":"7218199341","tag":{"amenity":"waste_basket","colour":"orange"}},"type":"Feature"},
	{"geometry":{"coordinates":[13.438966,52.473735],"type":"Point"},"properties":{"osm_id":"7223134634","tag":{"amenity":"waste_basket","colour":"pink","description":"Spritzenentsorgung im \u00c3\u00b6ffentlichen Raum","support":"pole","waste":"syringes"}},"type":"Feature"},
	{"geometry":{"coordinates":[13.440098,52.47437],"type":"Point"},"properties":{"osm_id":"7223183634","tag":{"amenity":"waste_basket"}},"type":"Feature"},
	{"geometry":{"coordinates":[13.445311,52.47675],"type":"Point"},"properties":{"osm_id":"7228052953","tag":{"amenity":"waste_basket"}},"type":"Feature"},
	{"geometry":{"coordinates":[13.44552,52.476632],"type":"Point"},"properties":{"osm_id":"7228052955","tag":{"amenity":"waste_basket"}},"type":"Feature"},
	{"geometry":{"coordinates":[13.428349,52.479913],"type":"Point"},"properties":{"osm_id":"7231004255","tag":{"amenity":"waste_basket","colour":"pink","description":"Spritzenentsorgung im \u00c3\u00b6ffentlichen Raum","material":"metal","support":"pole","waste":"syringes"}},"type":"Feature"},
	{"geometry":{"coordinates":[13.445674,52.474101],"type":"Point"},"properties":{"osm_id":"7231295958","tag":{"amenity":"waste_basket","colour":"orange","operator":"BSR","support":"pole","waste":"trash"}},"type":"Feature"},
	{"geometry":{"coordinates":[13.436871,52.476171],"type":"Point"},"properties":{"osm_id":"7234050718","tag":{"amenity":"waste_basket"}},"type":"Feature"},
	{"geometry":{"coordinates":[13.436959,52.475965],"type":"Point"},"properties":{"osm_id":"7238653683","tag":{"amenity":"waste_basket"}},"type":"Feature"},
	{"geometry":{"coordinates":[13.437119,52.475839],"type":"Point"},"properties":{"osm_id":"7238666096","tag":{"amenity":"waste_basket"}},"type":"Feature"},
	{"geometry":{"coordinates":[13.422957,52.472799],"type":"Point"},"properties":{"osm_id":"7245904997","tag":{"amenity":"waste_basket"}},"type":"Feature"},
	{"geometry":{"coordinates":[13.427369,52.474625],"type":"Point"},"properties":{"osm_id":"7245904998","tag":{"amenity":"waste_basket"}},"type":"Feature"},
	{"geometry":{"coordinates":[13.441714,52.468458],"type":"Point"},"properties":{"osm_id":"7253219527","tag":{"amenity":"waste_basket","colour":"gray","description":"Spritzenentsorgung im \u00c3\u00b6ffentlichen Raum","support":"pole","waste":"syringes"}},"type":"Feature"},
	{"geometry":{"coordinates":[13.433338,52.476242],"type":"Point"},"properties":{"osm_id":"7253639473","tag":{"amenity":"waste_basket"}},"type":"Feature"},
	{"geometry":{"coordinates":[13.417326,52.460088],"type":"Point"},"properties":{"osm_id":"7259384308","tag":{"amenity":"waste_basket"}},"type":"Feature"},
	{"geometry":{"coordinates":[13.416944,52.460164],"type":"Point"},"properties":{"osm_id":"7259384309","tag":{"amenity":"waste_basket"}},"type":"Feature"},
	{"geometry":{"coordinates":[13.426451,52.469887],"type":"Point"},"properties":{"osm_id":"7267079350","tag":{"amenity":"waste_basket"}},"type":"Feature"},
	{"geometry":{"coordinates":[13.423269,52.467564],"type":"Point"},"properties":{"osm_id":"7274512466","tag":{"amenity":"waste_basket"}},"type":"Feature"},
	{"geometry":{"coordinates":[13.422481,52.472702],"type":"Point"},"properties":{"osm_id":"7280320395","tag":{"amenity":"recycling","recycling:clothes":"yes","recycling:shoes":"yes","recycling_type":"container"}},"type":"Feature"},
	{"geometry":{"coordinates":[13.440573,52.473927],"type":"Point"},"properties":{"osm_id":"7313725911","tag":{"amenity":"waste_basket","colour":"silver;orange","material":"metal","operator":"BSR","support":"ground","waste":"trash;cigarettes"}},"type":"Feature"},
	{"geometry":{"coordinates":[13.440769,52.475386],"type":"Point"},"properties":{"osm_id":"7315569413","tag":{"amenity":"waste_basket"}},"type":"Feature"},
	{"geometry":{"coordinates":[13.444643,52.475007],"type":"Point"},"properties":{"osm_id":"7315569414","tag":{"amenity":"waste_basket"}},"type":"Feature"},
	{"geometry":{"coordinates":[13.437158,52.473331],"type":"Point"},"properties":{"osm_id":"7319278602","tag":{"amenity":"waste_basket","colour":"pink","description":"Spritzenentsorgung im \u00c3\u00b6ffentlichen Raum","support":"pole","waste":"syringes"}},"type":"Feature"},
	{"geometry":{"coordinates":[13.439879,52.479724],"type":"Point"},"properties":{"osm_id":"7363018820","tag":{"amenity":"waste_basket"}},"type":"Feature"},
	{"geometry":{"coordinates":[13.434857,52.477011],"type":"Point"},"properties":{"barrier":"gate","osm_id":"7366000803","tag":{"access":"private"}},"type":"Feature"},
	{"geometry":{"coordinates":[13.434043,52.478231],"type":"Point"},"properties":{"osm_id":"7366431517","tag":{"amenity":"waste_basket"}},"type":"Feature"},
	{"geometry":{"coordinates":[13.433915,52.478156],"type":"Point"},"properties":{"osm_id":"7366431541","tag":{"amenity":"waste_basket"}},"type":"Feature"},
	{"geometry":{"coordinates":[13.43396,52.477921],"type":"Point"},"properties":{"barrier":"gate","osm_id":"7366431557","tag":{"access":"private"}},"type":"Feature"},
	{"geometry":{"coordinates":[13.366746,52.474767],"type":"Point"},"properties":{"osm_id":"7398837229","tag":{"amenity":"waste_basket","material":"metal"}},"type":"Feature"},
	{"geometry":{"coordinates":[13.435143,52.478524],"type":"Point"},"properties":{"barrier":"gate","osm_id":"7406136986","tag":{"access":"private"}},"type":"Feature"},
	{"geometry":{"coordinates":[13.43364,52.478364],"type":"Point"},"properties":{"barrier":"gate","osm_id":"7406137026","tag":{"access":"private"}},"type":"Feature"},
	{"geometry":{"coordinates":[13.433544,52.478374],"type":"Point"},"properties":{"barrier":"gate","osm_id":"7406137028","tag":{"access":"private"}},"type":"Feature"},
	{"geometry":{"coordinates":[13.433554,52.475602],"type":"Point"},"properties":{"osm_id":"7449018301","tag":{"amenity":"waste_basket"}},"type":"Feature"},
	{"geometry":{"coordinates":[13.433689,52.475204],"type":"Point"},"properties":{"osm_id":"7449018322","tag":{"amenity":"waste_basket"}},"type":"Feature"},
	{"geometry":{"coordinates":[13.437744,52.463036],"type":"Point"},"properties":{"osm_id":"7470528583","tag":{"amenity":"waste_basket"}},"type":"Feature"},
	{"geometry":{"coordinates":[13.447155,52.449699],"type":"Point"},"properties":{"osm_id":"7507110464","tag":{"amenity":"waste_basket"}},"type":"Feature"},
	{"geometry":{"coordinates":[13.446826,52.449808],"type":"Point"},"properties":{"osm_id":"7507110465","tag":{"amenity":"waste_basket"}},"type":"Feature"},
	{"geometry":{"coordinates":[13.447006,52.449852],"type":"Point"},"properties":{"osm_id":"7507110467","tag":{"amenity":"waste_basket"}},"type":"Feature"},
	{"geometry":{"coordinates":[13.446791,52.449502],"type":"Point"},"properties":{"osm_id":"7507110469","tag":{"amenity":"waste_basket"}},"type":"Feature"},
	{"geometry":{"coordinates":[13.445116,52.475143],"type":"Point"},"properties":{"osm_id":"7553598716","tag":{"amenity":"waste_basket"}},"type":"Feature"},
	{"geometry":{"coordinates":[13.445901,52.472461],"type":"Point"},"properties":{"osm_id":"7563341918","tag":{"amenity":"waste_basket"}},"type":"Feature"},
	{"geometry":{"coordinates":[13.445424,52.473906],"type":"Point"},"properties":{"osm_id":"7563341939","tag":{"amenity":"waste_basket"}},"type":"Feature"},
	{"geometry":{"coordinates":[13.420592,52.475324],"type":"Point"},"properties":{"osm_id":"7580262193","tag":{"amenity":"waste_basket","colour":"Orange","material":"metal","operator":"BSR","waste":"cigarettes;mixed"}},"type":"Feature"},
	{"geometry":{"coordinates":[13.428342,52.479986],"type":"Point"},"properties":{"osm_id":"7593409768","tag":{"amenity":"waste_basket"}},"type":"Feature"},
	{"geometry":{"coordinates":[13.436896,52.462738],"type":"Point"},"properties":{"barrier":"gate","osm_id":"7593521650","tag":{"access":"private"}},"type":"Feature"},
	{"geometry":{"coordinates":[13.436433,52.462456],"type":"Point"},"properties":{"osm_id":"7593584928","tag":{"amenity":"waste_basket"}},"type":"Feature"},
	{"geometry":{"coordinates":[13.437346,52.462451],"type":"Point"},"properties":{"osm_id":"7593584993","tag":{"amenity":"waste_basket"}},"type":"Feature"},
	{"geometry":{"coordinates":[13.436783,52.462387],"type":"Point"},"properties":{"osm_id":"7593584996","tag":{"amenity":"waste_basket"}},"type":"Feature"},
	{"geometry":{"coordinates":[13.43683,52.462391],"type":"Point"},"properties":{"osm_id":"7593584997","tag":{"amenity":"waste_basket"}},"type":"Feature"},
	{"geometry":{"coordinates":[13.436471,52.462346],"type":"Point"},"properties":{"osm_id":"7593584999","tag":{"amenity":"waste_basket"}},"type":"Feature"},
	{"geometry":{"coordinates":[13.436272,52.462325],"type":"Point"},"properties":{"osm_id":"7593585001","tag":{"amenity":"waste_basket"}},"type":"Feature"},
	{"geometry":{"coordinates":[13.429601,52.460137],"type":"Point"},"properties":{"osm_id":"7596812499","tag":{"amenity":"recycling","colour":"green;white;brown","recycling:glass_bottles":"yes","recycling_type":"container"}},"type":"Feature"},
	{"geometry":{"coordinates":[13.366755,52.452072],"type":"Point"},"properties":{"osm_id":"7598535381","tag":{"amenity":"waste_basket"}},"type":"Feature"},
	{"geometry":{"coordinates":[13.443524,52.474044],"type":"Point"},"properties":{"osm_id":"7606220602","tag":{"amenity":"waste_basket"}},"type":"Feature"},
	{"geometry":{"coordinates":[13.438512,52.477435],"type":"Point"},"properties":{"osm_id":"7609602325","tag":{"amenity":"waste_basket","colour":"orange"}},"type":"Feature"},
	{"geometry":{"coordinates":[13.43878,52.4774],"type":"Point"},"properties":{"osm_id":"7609602337","tag":{"amenity":"waste_basket","colour":"orange"}},"type":"Feature"},
	{"geometry":{"coordinates":[13.438124,52.462031],"type":"Point"},"properties":{"osm_id":"7630085204","tag":{"amenity":"waste_basket"}},"type":"Feature"},
	{"geometry":{"coordinates":[13.438084,52.462176],"type":"Point"},"properties":{"osm_id":"7630085205","tag":{"amenity":"waste_basket"}},"type":"Feature"},
	{"geometry":{"coordinates":[13.432888,52.468138],"type":"Point"},"properties":{"osm_id":"7656499440","tag":{"amenity":"waste_basket","colour":"orange"}},"type":"Feature"},
	{"geometry":{"coordinates":[13.393011,52.464172],"type":"Point"},"properties":{"osm_id":"7689230673","tag":{"amenity":"recycling","recycling:clothes":"yes","recycling_type":"container"}},"type":"Feature"},
	{"geometry":{"coordinates":[13.425082,52.458089],"type":"Point"},"properties":{"osm_id":"7694824640","tag":{"amenity":"recycling","colour":"brown;green;white","lit":"yes","recycling:glass_bottles":"yes","recycling_type":"container"}},"type":"Feature"},
	{"geometry":{"coordinates":[13.436288,52.458422],"type":"Point"},"properties":{"osm_id":"7699630379","tag":{"amenity":"recycling","recycling:glass_bottles":"yes","recycling_type":"container"}},"type":"Feature"},
	{"geometry":{"coordinates":[13.437038,52.45673],"type":"Point"},"properties":{"osm_id":"7699643385","tag":{"amenity":"recycling","recycling:glass_bottles":"yes","recycling_type":"container"}},"type":"Feature"},
	{"geometry":{"coordinates":[13.420168,52.474917],"type":"Point"},"properties":{"osm_id":"7726367929","tag":{"amenity":"waste_basket"}},"type":"Feature"},
	{"geometry":{"coordinates":[13.429186,52.48229],"type":"Point"},"properties":{"osm_id":"7737420025","tag":{"amenity":"waste_basket"}},"type":"Feature"},
	{"geometry":{"coordinates":[13.419458,52.477152],"type":"Point"},"properties":{"osm_id":"7738012357","tag":{"amenity":"waste_basket"}},"type":"Feature"},
	{"geometry":{"coordinates":[13.419444,52.476907],"type":"Point"},"properties":{"osm_id":"7738022108","tag":{"amenity":"waste_basket"}},"type":"Feature"},
	{"geometry":{"coordinates":[13.42905,52.472239],"type":"Point"},"properties":{"osm_id":"7745114740","tag":{"amenity":"waste_basket"}},"type":"Feature"},
	{"geometry":{"coordinates":[13.429224,52.474273],"type":"Point"},"properties":{"osm_id":"7745137092","tag":{"amenity":"waste_basket"}},"type":"Feature"},
	{"geometry":{"coordinates":[13.435305,52.478429],"type":"Point"},"properties":{"osm_id":"7747251267","tag":{"amenity":"waste_basket"}},"type":"Feature"},
	{"geometry":{"coordinates":[13.435605,52.478207],"type":"Point"},"properties":{"osm_id":"7747251276","tag":{"amenity":"waste_basket"}},"type":"Feature"},
	{"geometry":{"coordinates":[13.435206,52.478283],"type":"Point"},"properties":{"osm_id":"7747335501","tag":{"amenity":"waste_basket"}},"type":"Feature"},
	{"geometry":{"coordinates":[13.436131,52.478437],"type":"Point"},"properties":{"osm_id":"7747551128","tag":{"amenity":"waste_basket"}},"type":"Feature"},
	{"geometry":{"coordinates":[13.435876,52.478129],"type":"Point"},"properties":{"osm_id":"7747551138","tag":{"amenity":"waste_basket"}},"type":"Feature"},
	{"geometry":{"coordinates":[13.435984,52.478161],"type":"Point"},"properties":{"osm_id":"7747562798","tag":{"entrance":"yes"}},"type":"Feature"},
	{"geometry":{"coordinates":[13.436178,52.478347],"type":"Point"},"properties":{"osm_id":"7747566590","tag":{"amenity":"waste_basket"}},"type":"Feature"},
	{"geometry":{"coordinates":[13.436201,52.478246],"type":"Point"},"properties":{"osm_id":"7747566595","tag":{"entrance":"yes"}},"type":"Feature"},
	{"geometry":{"coordinates":[13.436107,52.478486],"type":"Point"},"properties":{"osm_id":"7747566612","tag":{"amenity":"waste_basket"}},"type":"Feature"},
	{"geometry":{"coordinates":[13.431342,52.475183],"type":"Point"},"properties":{"osm_id":"7749830406","tag":{"amenity":"waste_basket","support":"street_furniture:street_lamp"}},"type":"Feature"},
	{"geometry":{"coordinates":[13.43444,52.476649],"type":"Point"},"properties":{"osm_id":"7752602208","tag":{"access":"private","amenity":"waste_basket"}},"type":"Feature"},
	{"geometry":{"coordinates":[13.435733,52.476798],"type":"Point"},"properties":{"osm_id":"7752689776","tag":{"access":"private","amenity":"waste_basket"}},"type":"Feature"},
	{"geometry":{"coordinates":[13.421364,52.473666],"type":"Point"},"properties":{"osm_id":"7776029898","tag":{"amenity":"waste_basket"}},"type":"Feature"},
	{"geometry":{"coordinates":[13.446181,52.476851],"type":"Point"},"properties":{"osm_id":"7783299655","tag":{"amenity":"waste_basket"}},"type":"Feature"},
	{"geometry":{"coordinates":[13.437604,52.472277],"type":"Point"},"properties":{"osm_id":"7787347242","tag":{"amenity":"waste_basket"}},"type":"Feature"},
	{"geometry":{"coordinates":[13.435773,52.470158],"type":"Point"},"properties":{"osm_id":"7791482253","tag":{"amenity":"waste_basket"}},"type":"Feature"},
	{"geometry":{"coordinates":[13.435877,52.4739],"type":"Point"},"properties":{"osm_id":"7798203306","tag":{"amenity":"waste_basket","waste":"trash"}},"type":"Feature"},
	{"geometry":{"coordinates":[13.436186,52.473139],"type":"Point"},"properties":{"osm_id":"7798203311","tag":{"amenity":"waste_basket","waste":"trash"}},"type":"Feature"},
	{"geometry":{"coordinates":[13.430972,52.478906],"type":"Point"},"properties":{"osm_id":"7800815383","tag":{"amenity":"waste_basket","waste":"trash"}},"type":"Feature"},
	{"geometry":{"coordinates":[13.439414,52.457245],"type":"Point"},"properties":{"osm_id":"7800834915","tag":{"amenity":"waste_basket","waste":"trash"}},"type":"Feature"},
	{"geometry":{"coordinates":[13.439343,52.4572],"type":"Point"},"properties":{"osm_id":"7800834926","tag":{"amenity":"waste_basket","waste":"trash"}},"type":"Feature"},
	{"geometry":{"coordinates":[13.439488,52.457337],"type":"Point"},"properties":{"osm_id":"7800834927","tag":{"amenity":"waste_basket","waste":"trash"}},"type":"Feature"},
	{"geometry":{"coordinates":[13.438925,52.458],"type":"Point"},"properties":{"osm_id":"7800834929","tag":{"amenity":"waste_basket","waste":"trash"}},"type":"Feature"},
	{"geometry":{"coordinates":[13.438508,52.457255],"type":"Point"},"properties":{"osm_id":"7800834936","tag":{"amenity":"waste_basket","waste":"trash"}},"type":"Feature"},
	{"geometry":{"coordinates":[13.437833,52.457898],"type":"Point"},"properties":{"osm_id":"7800834947","tag":{"amenity":"waste_basket","waste":"trash"}},"type":"Feature"},
	{"geometry":{"coordinates":[13.43862,52.457221],"type":"Point"},"properties":{"osm_id":"7800834957","tag":{"amenity":"waste_basket","waste":"trash"}},"type":"Feature"},
	{"geometry":{"coordinates":[13.437307,52.457097],"type":"Point"},"properties":{"osm_id":"7800834962","tag":{"amenity":"waste_basket","waste":"trash"}},"type":"Feature"},
	{"geometry":{"coordinates":[13.438113,52.457151],"type":"Point"},"properties":{"osm_id":"7800834968","tag":{"amenity":"waste_basket","waste":"trash"}},"type":"Feature"},
	{"geometry":{"coordinates":[13.439204,52.457188],"type":"Point"},"properties":{"osm_id":"7800834980","tag":{"amenity":"waste_basket","waste":"trash"}},"type":"Feature"},
	{"geometry":{"coordinates":[13.438974,52.457331],"type":"Point"},"properties":{"osm_id":"7800834983","tag":{"amenity":"waste_basket","waste":"trash"}},"type":"Feature"},
	{"geometry":{"coordinates":[13.438431,52.45776],"type":"Point"},"properties":{"osm_id":"7800859993","tag":{"amenity":"waste_basket","waste":"trash"}},"type":"Feature"},
	{"geometry":{"coordinates":[13.440075,52.458059],"type":"Point"},"properties":{"osm_id":"7800860015","tag":{"amenity":"waste_basket","waste":"trash"}},"type":"Feature"},
	{"geometry":{"coordinates":[13.431288,52.46641],"type":"Point"},"properties":{"osm_id":"7802610750","tag":{"amenity":"waste_basket","colour":"orange"}},"type":"Feature"},
	{"geometry":{"coordinates":[13.422392,52.465363],"type":"Point"},"properties":{"osm_id":"7802654695","tag":{"amenity":"waste_basket","colour":"orange"}},"type":"Feature"},
	{"geometry":{"coordinates":[13.422287,52.465349],"type":"Point"},"properties":{"osm_id":"7802654696","tag":{"amenity":"recycling","recycling:glass_bottles":"yes","recycling_type":"container"}},"type":"Feature"},
	{"geometry":{"coordinates":[13.421298,52.465245],"type":"Point"},"properties":{"osm_id":"7802654715","tag":{"amenity":"waste_basket"}},"type":"Feature"},
	{"geometry":{"coordinates":[13.421398,52.465056],"type":"Point"},"properties":{"osm_id":"7802654716","tag":{"amenity":"waste_basket"}},"type":"Feature"},
	{"geometry":{"coordinates":[13.439431,52.47107],"type":"Point"},"properties":{"osm_id":"7804573726","tag":{"amenity":"waste_basket","colour":"orange","waste":"trash"}},"type":"Feature"},
	{"geometry":{"coordinates":[13.437087,52.47094],"type":"Point"},"properties":{"osm_id":"7804573728","tag":{"amenity":"waste_basket","colour":"white","material":"wood","waste":"trash"}},"type":"Feature"},
	{"geometry":{"coordinates":[13.439214,52.471181],"type":"Point"},"properties":{"osm_id":"7804573729","tag":{"amenity":"waste_basket","waste":"trash"}},"type":"Feature"},
	{"geometry":{"coordinates":[13.436963,52.471312],"type":"Point"},"properties":{"osm_id":"7804573731","tag":{"amenity":"waste_basket","colour":"white","material":"wood","waste":"trash"}},"type":"Feature"},
	{"geometry":{"coordinates":[13.437011,52.471159],"type":"Point"},"properties":{"osm_id":"7804573736","tag":{"amenity":"waste_basket","colour":"white","material":"wood","waste":"trash"}},"type":"Feature"},
	{"geometry":{"coordinates":[13.436891,52.471532],"type":"Point"},"properties":{"osm_id":"7804573738","tag":{"amenity":"waste_basket","colour":"white","material":"wood","waste":"trash"}},"type":"Feature"},
	{"geometry":{"coordinates":[13.414628,52.46284],"type":"Point"},"properties":{"osm_id":"7806181560","tag":{"amenity":"waste_basket","waste":"trash"}},"type":"Feature"},
	{"geometry":{"coordinates":[13.417503,52.460727],"type":"Point"},"properties":{"osm_id":"7806181561","tag":{"amenity":"waste_basket","colour":"black","material":"metal","waste":"trash"}},"type":"Feature"},
	{"geometry":{"coordinates":[13.418719,52.46305],"type":"Point"},"properties":{"osm_id":"7806181572","tag":{"amenity":"waste_basket","waste":"trash"}},"type":"Feature"},
	{"geometry":{"coordinates":[13.417464,52.460792],"type":"Point"},"properties":{"osm_id":"7806181581","tag":{"amenity":"waste_basket","colour":"black","material":"metal","waste":"trash"}},"type":"Feature"},
	{"geometry":{"coordinates":[13.419798,52.463278],"type":"Point"},"properties":{"osm_id":"7806181583","tag":{"amenity":"waste_basket","waste":"trash"}},"type":"Feature"},
	{"geometry":{"coordinates":[13.417415,52.460658],"type":"Point"},"properties":{"osm_id":"7806197796","tag":{"amenity":"waste_basket","colour":"black","material":"metal","waste":"trash"}},"type":"Feature"},
	{"geometry":{"coordinates":[13.413028,52.461283],"type":"Point"},"properties":{"osm_id":"7806197811","tag":{"amenity":"waste_basket","colour":"orange","material":"plastic","waste":"trash"}},"type":"Feature"},
	{"geometry":{"coordinates":[13.418337,52.463263],"type":"Point"},"properties":{"osm_id":"7806197818","tag":{"amenity":"waste_basket","waste":"trash"}},"type":"Feature"},
	{"geometry":{"coordinates":[13.419419,52.463406],"type":"Point"},"properties":{"osm_id":"7806197853","tag":{"amenity":"waste_basket","waste":"trash"}},"type":"Feature"},
	{"geometry":{"coordinates":[13.418167,52.460927],"type":"Point"},"properties":{"osm_id":"7806197861","tag":{"amenity":"waste_basket","colour":"black","material":"metal","waste":"trash"}},"type":"Feature"},
	{"geometry":{"coordinates":[13.415594,52.460969],"type":"Point"},"properties":{"osm_id":"7806197867","tag":{"amenity":"waste_basket","colour":"orange","material":"plastic","waste":"trash"}},"type":"Feature"},
	{"geometry":{"coordinates":[13.418806,52.463328],"type":"Point"},"properties":{"osm_id":"7806197887","tag":{"amenity":"waste_basket","waste":"trash"}},"type":"Feature"},
	{"geometry":{"coordinates":[13.419158,52.463063],"type":"Point"},"properties":{"osm_id":"7806197892","tag":{"amenity":"waste_basket","waste":"trash"}},"type":"Feature"},
	{"geometry":{"coordinates":[13.415286,52.462223],"type":"Point"},"properties":{"osm_id":"7807633510","tag":{"amenity":"waste_basket"}},"type":"Feature"},
	{"geometry":{"coordinates":[13.414382,52.461934],"type":"Point"},"properties":{"osm_id":"7807633603","tag":{"amenity":"waste_basket","waste":"trash"}},"type":"Feature"},
	{"geometry":{"coordinates":[13.414573,52.461937],"type":"Point"},"properties":{"osm_id":"7807633607","tag":{"amenity":"waste_basket","waste":"trash"}},"type":"Feature"},
	{"geometry":{"coordinates":[13.444983,52.437771],"type":"Point"},"properties":{"osm_id":"7810597091","tag":{"amenity":"waste_basket","waste":"trash"}},"type":"Feature"},
	{"geometry":{"coordinates":[13.442215,52.44118],"type":"Point"},"properties":{"osm_id":"7810597094","tag":{"amenity":"waste_basket","waste":"trash"}},"type":"Feature"},
	{"geometry":{"coordinates":[13.44113,52.459364],"type":"Point"},"properties":{"osm_id":"7810597099","tag":{"amenity":"waste_basket","waste":"trash"}},"type":"Feature"},
	{"geometry":{"coordinates":[13.43909,52.443041],"type":"Point"},"properties":{"osm_id":"7810597100","tag":{"amenity":"waste_basket","waste":"trash"}},"type":"Feature"},
	{"geometry":{"coordinates":[13.444949,52.437799],"type":"Point"},"properties":{"osm_id":"7810597103","tag":{"amenity":"waste_basket","waste":"trash"}},"type":"Feature"},
	{"geometry":{"coordinates":[13.442596,52.45481],"type":"Point"},"properties":{"osm_id":"7810597105","tag":{"amenity":"waste_basket","waste":"trash"}},"type":"Feature"},
	{"geometry":{"coordinates":[13.44011,52.442433],"type":"Point"},"properties":{"osm_id":"7810597109","tag":{"amenity":"waste_basket","waste":"trash"}},"type":"Feature"},
	{"geometry":{"coordinates":[13.44331,52.440734],"type":"Point"},"properties":{"osm_id":"7810597114","tag":{"amenity":"waste_basket","waste":"trash"}},"type":"Feature"},
	{"geometry":{"coordinates":[13.44076,52.44213],"type":"Point"},"properties":{"osm_id":"7810597119","tag":{"amenity":"waste_basket","waste":"trash"}},"type":"Feature"},
	{"geometry":{"coordinates":[13.443942,52.454945],"type":"Point"},"properties":{"osm_id":"7810597124","tag":{"amenity":"waste_basket","waste":"trash"}},"type":"Feature"},
	{"geometry":{"coordinates":[13.441245,52.458984],"type":"Point"},"properties":{"osm_id":"7810597127","tag":{"amenity":"waste_basket","waste":"trash"}},"type":"Feature"},
	{"geometry":{"coordinates":[13.444656,52.439182],"type":"Point"},"properties":{"osm_id":"7810597130","tag":{"amenity":"waste_basket","waste":"trash"}},"type":"Feature"},
	{"geometry":{"coordinates":[13.444545,52.439021],"type":"Point"},"properties":{"osm_id":"7810597133","tag":{"amenity":"waste_basket","waste":"trash"}},"type":"Feature"},
	{"geometry":{"coordinates":[13.444603,52.438688],"type":"Point"},"properties":{"osm_id":"7810597134","tag":{"amenity":"waste_basket","waste":"trash"}},"type":"Feature"},
	{"geometry":{"coordinates":[13.445367,52.437582],"type":"Point"},"properties":{"osm_id":"7810597139","tag":{"amenity":"waste_basket","waste":"trash"}},"type":"Feature"},
	{"geometry":{"coordinates":[13.441201,52.459145],"type":"Point"},"properties":{"osm_id":"7810597141","tag":{"amenity":"waste_basket","waste":"trash"}},"type":"Feature"},
	{"geometry":{"coordinates":[13.441341,52.441624],"type":"Point"},"properties":{"osm_id":"7810597142","tag":{"amenity":"waste_basket","waste":"trash"}},"type":"Feature"},
	{"geometry":{"coordinates":[13.444179,52.440041],"type":"Point"},"properties":{"osm_id":"7810597145","tag":{"amenity":"waste_basket","waste":"trash"}},"type":"Feature"},
	{"geometry":{"coordinates":[13.442202,52.456643],"type":"Point"},"properties":{"osm_id":"7810597146","tag":{"amenity":"waste_basket","waste":"trash"}},"type":"Feature"},
	{"geometry":{"coordinates":[13.399804,52.455749],"type":"Point"},"properties":{"osm_id":"7810997586","tag":{"amenity":"recycling","recycling:glass_bottles":"yes","recycling_type":"container"}},"type":"Feature"},
	{"geometry":{"coordinates":[13.435182,52.457759],"type":"Point"},"properties":{"osm_id":"7812554530","tag":{"amenity":"waste_basket","waste":"trash"}},"type":"Feature"},
	{"geometry":{"coordinates":[13.428983,52.464269],"type":"Point"},"properties":{"osm_id":"7812554540","tag":{"amenity":"waste_basket","waste":"trash"}},"type":"Feature"},
	{"geometry":{"coordinates":[13.424557,52.458598],"type":"Point"},"properties":{"osm_id":"7812554552","tag":{"amenity":"recycling","recycling:clothes":"yes","recycling:shoes":"yes","recycling_type":"container"}},"type":"Feature"},
	{"geometry":{"coordinates":[13.433046,52.457433],"type":"Point"},"properties":{"osm_id":"7812554553","tag":{"amenity":"waste_basket","waste":"trash"}},"type":"Feature"},
	{"geometry":{"coordinates":[13.428645,52.464337],"type":"Point"},"properties":{"osm_id":"7812554556","tag":{"amenity":"waste_basket","waste":"trash"}},"type":"Feature"},
	{"geometry":{"coordinates":[13.429638,52.464294],"type":"Point"},"properties":{"osm_id":"7812554560","tag":{"amenity":"waste_basket","waste":"trash"}},"type":"Feature"},
	{"geometry":{"coordinates":[13.428789,52.464187],"type":"Point"},"properties":{"osm_id":"7812554565","tag":{"amenity":"waste_basket","waste":"trash"}},"type":"Feature"},
	{"geometry":{"coordinates":[13.421952,52.462309],"type":"Point"},"properties":{"osm_id":"7812554570","tag":{"amenity":"waste_basket","waste":"trash"}},"type":"Feature"},
	{"geometry":{"coordinates":[13.428289,52.456333],"type":"Point"},"properties":{"osm_id":"7813064386","tag":{"amenity":"waste_basket","waste":"trash"}},"type":"Feature"},
	{"geometry":{"coordinates":[13.420529,52.471921],"type":"Point"},"properties":{"osm_id":"7815479481","tag":{"amenity":"waste_basket","waste":"trash"}},"type":"Feature"},
	{"geometry":{"coordinates":[13.420328,52.474942],"type":"Point"},"properties":{"osm_id":"7815507191","tag":{"amenity":"waste_basket"}},"type":"Feature"},
	{"geometry":{"coordinates":[13.421555,52.471209],"type":"Point"},"properties":{"osm_id":"7815507196","tag":{"amenity":"waste_basket","waste":"trash"}},"type":"Feature"},
	{"geometry":{"coordinates":[13.424596,52.472421],"type":"Point"},"properties":{"osm_id":"7815507202","tag":{"amenity":"waste_basket","waste":"trash"}},"type":"Feature"},
	{"geometry":{"coordinates":[13.427126,52.472345],"type":"Point"},"properties":{"osm_id":"7815507212","tag":{"amenity":"waste_basket","wheelchair":"yes"}},"type":"Feature"},
	{"geometry":{"coordinates":[13.438678,52.462598],"type":"Point"},"properties":{"osm_id":"7826745410","tag":{"amenity":"waste_basket","waste":"trash"}},"type":"Feature"},
	{"geometry":{"coordinates":[13.438418,52.462557],"type":"Point"},"properties":{"osm_id":"7826745411","tag":{"amenity":"waste_basket","waste":"trash"}},"type":"Feature"},
	{"geometry":{"coordinates":[13.439059,52.462638],"type":"Point"},"properties":{"osm_id":"7826745412","tag":{"amenity":"waste_basket","waste":"trash"}},"type":"Feature"},
	{"geometry":{"coordinates":[13.440242,52.462628],"type":"Point"},"properties":{"osm_id":"7826745416","tag":{"amenity":"waste_basket","waste":"trash"}},"type":"Feature"},
	{"geometry":{"coordinates":[13.438717,52.462601],"type":"Point"},"properties":{"osm_id":"7826745418","tag":{"amenity":"waste_basket","waste":"trash"}},"type":"Feature"},
	{"geometry":{"coordinates":[13.439686,52.462711],"type":"Point"},"properties":{"osm_id":"7826745419","tag":{"amenity":"waste_basket","waste":"trash"}},"type":"Feature"},
	{"geometry":{"coordinates":[13.439464,52.462682],"type":"Point"},"properties":{"osm_id":"7826745420","tag":{"amenity":"waste_basket","waste":"trash"}},"type":"Feature"},
	{"geometry":{"coordinates":[13.442077,52.456434],"type":"Point"},"properties":{"osm_id":"7834084536","tag":{"amenity":"waste_basket","colour":"orange"}},"type":"Feature"},
	{"geometry":{"coordinates":[13.420115,52.48125],"type":"Point"},"properties":{"osm_id":"7839674042","tag":{"amenity":"waste_basket","support":"ground","waste":"trash"}},"type":"Feature"},
	{"geometry":{"coordinates":[13.440683,52.451412],"type":"Point"},"properties":{"osm_id":"7862595469","tag":{"amenity":"recycling","recycling:clothes":"yes","recycling:shoes":"yes","recycling_type":"container"}},"type":"Feature"},
	{"geometry":{"coordinates":[13.389376,52.465594],"type":"Point"},"properties":{"osm_id":"7865466134","tag":{"amenity":"waste_basket"}},"type":"Feature"},
	{"geometry":{"coordinates":[13.374413,52.475139],"type":"Point"},"properties":{"osm_id":"7884797993","tag":{"amenity":"recycling","recycling:clothes":"yes","recycling:shoes":"yes","recycling_type":"container"}},"type":"Feature"},
	{"geometry":{"coordinates":[13.432216,52.456305],"type":"Point"},"properties":{"osm_id":"7888001422","tag":{"amenity":"waste_basket","waste":"trash"}},"type":"Feature"},
	{"geometry":{"coordinates":[13.44544,52.437671],"type":"Point"},"properties":{"osm_id":"7900544905","tag":{"amenity":"waste_basket","waste":"trash"}},"type":"Feature"},
	{"geometry":{"coordinates":[13.44524,52.437711],"type":"Point"},"properties":{"osm_id":"7900544906","tag":{"amenity":"waste_basket","waste":"trash"}},"type":"Feature"},
	{"geometry":{"coordinates":[13.428932,52.479995],"type":"Point"},"properties":{"osm_id":"7919972317","tag":{"amenity":"waste_basket","waste":"trash"}},"type":"Feature"},
	{"geometry":{"coordinates":[13.428692,52.479913],"type":"Point"},"properties":{"osm_id":"7919972331","tag":{"amenity":"waste_basket","waste":"trash"}},"type":"Feature"},
	{"geometry":{"coordinates":[13.428926,52.48016],"type":"Point"},"properties":{"osm_id":"7919972332","tag":{"amenity":"waste_basket","waste":"trash"}},"type":"Feature"},
	{"geometry":{"coordinates":[13.437491,52.470138],"type":"Point"},"properties":{"osm_id":"7947615190","tag":{"amenity":"waste_basket"}},"type":"Feature"},
	{"geometry":{"coordinates":[13.437308,52.47018],"type":"Point"},"properties":{"osm_id":"7947615195","tag":{"amenity":"waste_basket"}},"type":"Feature"},
	{"geometry":{"coordinates":[13.437429,52.470283],"type":"Point"},"properties":{"osm_id":"7947615209","tag":{"amenity":"waste_basket"}},"type":"Feature"}
]
}
