{
"type": "FeatureCollection",
"features": [
	{"geometry":{"coordinates":[13.378215,52.407652],"type":"Point"},"properties":{"osm_id":"338818027","tag":{"amenity":"recycling","operator":"Karl Meyer AG","recycling:glass_bottles":"yes","recycling_type":"container"}},"type":"Feature"},
	{"geometry":{"coordinates":[13.381628,52.396972],"type":"Point"},"properties":{"osm_id":"446099267","tag":{"amenity":"recycling","recycling:glass_bottles":"yes","recycling_type":"container"}},"type":"Feature"},
	{"geometry":{"coordinates":[13.382797,52.404244],"type":"Point"},"properties":{"osm_id":"446099340","tag":{"amenity":"recycling","location":"overground","recycling:glass_bottles":"yes","recycling_type":"container"}},"type":"Feature"},
	{"geometry":{"coordinates":[13.421076,52.414403],"type":"Point"},"properties":{"osm_id":"472463190","tag":{"amenity":"recycling","location":"overground","operator":"Deutsches Rotes Kreuz","recycling:clothes":"yes","recycling_type":"container"}},"type":"Feature"},
	{"geometry":{"coordinates":[13.415174,52.422114],"type":"Point"},"properties":{"osm_id":"472466212","tag":{"amenity":"recycling","recycling:clothes":"yes"}},"type":"Feature"},
	{"geometry":{"coordinates":[13.414969,52.423257],"type":"Point"},"properties":{"osm_id":"472466213","tag":{"amenity":"recycling","location":"overground","operator":"Deutsches Rotes Kreuz","recycling:clothes":"yes","recycling_type":"container"}},"type":"Feature"},
	{"geometry":{"coordinates":[13.406673,52.427368],"type":"Point"},"properties":{"osm_id":"472470011","tag":{"amenity":"recycling","recycling:glass_bottles":"yes","recycling_type":"container"}},"type":"Feature"},
	{"geometry":{"coordinates":[13.410168,52.382422],"type":"Point"},"properties":{"osm_id":"696733150","tag":{"amenity":"recycling","location":"overground","recycling:glass_bottles":"yes","recycling_type":"container"}},"type":"Feature"},
	{"geometry":{"coordinates":[13.410573,52.413977],"type":"Point"},"properties":{"osm_id":"853852735","tag":{"amenity":"recycling"}},"type":"Feature"},
	{"geometry":{"coordinates":[13.40608,52.416109],"type":"Point"},"properties":{"osm_id":"853852739","tag":{"amenity":"recycling","recycling:glass_bottles":"yes","recycling_type":"container"}},"type":"Feature"},
	{"geometry":{"coordinates":[13.44276,52.395042],"type":"Point"},"properties":{"osm_id":"933600956","tag":{"amenity":"recycling","recycling:clothes":"yes"}},"type":"Feature"},
	{"geometry":{"coordinates":[13.42022,52.390381],"type":"Point"},"properties":{"osm_id":"937964565","tag":{"amenity":"recycling","recycling:glass_bottles":"yes","recycling_type":"container"}},"type":"Feature"},
	{"geometry":{"coordinates":[13.423726,52.395126],"type":"Point"},"properties":{"osm_id":"937964921","tag":{"amenity":"recycling","recycling:clothes":"yes"}},"type":"Feature"},
	{"geometry":{"coordinates":[13.412593,52.392625],"type":"Point"},"properties":{"osm_id":"1839824968","tag":{"amenity":"recycling","recycling:glass_bottles":"yes","recycling_type":"container"}},"type":"Feature"},
	{"geometry":{"coordinates":[13.422563,52.393214],"type":"Point"},"properties":{"osm_id":"1839847121","tag":{"amenity":"recycling","recycling:glass_bottles":"yes","recycling_type":"container"}},"type":"Feature"},
	{"geometry":{"coordinates":[13.416161,52.389012],"type":"Point"},"properties":{"osm_id":"1839848096","tag":{"amenity":"recycling","recycling:clothes":"yes","recycling_type":"container"}},"type":"Feature"},
	{"geometry":{"coordinates":[13.414869,52.389117],"type":"Point"},"properties":{"osm_id":"1839850042","tag":{"amenity":"recycling","recycling:clothes":"yes","recycling_type":"container"}},"type":"Feature"},
	{"geometry":{"coordinates":[13.410245,52.394095],"type":"Point"},"properties":{"osm_id":"2709406264","tag":{"amenity":"recycling","recycling:glass_bottles":"yes","recycling_type":"container"}},"type":"Feature"},
	{"geometry":{"coordinates":[13.41388,52.394554],"type":"Point"},"properties":{"osm_id":"2709406266","tag":{"amenity":"recycling","recycling:clothes":"yes","recycling_type":"container"}},"type":"Feature"},
	{"geometry":{"coordinates":[13.433348,52.428317],"type":"Point"},"properties":{"osm_id":"2756088692","tag":{"amenity":"waste_basket"}},"type":"Feature"},
	{"geometry":{"coordinates":[13.43119,52.428339],"type":"Point"},"properties":{"osm_id":"2763597884","tag":{"amenity":"waste_basket"}},"type":"Feature"},
	{"geometry":{"coordinates":[13.429867,52.428387],"type":"Point"},"properties":{"osm_id":"2763597885","tag":{"amenity":"waste_basket"}},"type":"Feature"},
	{"geometry":{"coordinates":[13.424847,52.428298],"type":"Point"},"properties":{"osm_id":"2763615371","tag":{"amenity":"waste_basket"}},"type":"Feature"},
	{"geometry":{"coordinates":[13.420111,52.428941],"type":"Point"},"properties":{"osm_id":"2763701872","tag":{"amenity":"waste_basket"}},"type":"Feature"},
	{"geometry":{"coordinates":[13.434818,52.416481],"type":"Point"},"properties":{"osm_id":"2865137131","tag":{"amenity":"waste_basket"}},"type":"Feature"},
	{"geometry":{"coordinates":[13.437664,52.41755],"type":"Point"},"properties":{"osm_id":"2865137133","tag":{"amenity":"recycling","brown":"yes","green":"yes","recycling:glass_bottles":"yes","recycling_type":"container","white":"yes"}},"type":"Feature"},
	{"geometry":{"coordinates":[13.43352,52.419932],"type":"Point"},"properties":{"osm_id":"2865137145","tag":{"access":"private","amenity":"waste_disposal"}},"type":"Feature"},
	{"geometry":{"coordinates":[13.434599,52.416498],"type":"Point"},"properties":{"osm_id":"2867341782","tag":{"access":"private","amenity":"waste_disposal"}},"type":"Feature"},
	{"geometry":{"coordinates":[13.421623,52.413249],"type":"Point"},"properties":{"osm_id":"2867619089","tag":{"access":"private","amenity":"waste_disposal"}},"type":"Feature"},
	{"geometry":{"coordinates":[13.421565,52.412705],"type":"Point"},"properties":{"osm_id":"2869270133","tag":{"access":"private","amenity":"waste_disposal"}},"type":"Feature"},
	{"geometry":{"coordinates":[13.436935,52.417529],"type":"Point"},"properties":{"osm_id":"2887743695","tag":{"amenity":"recycling","recycling:clothes":"yes","recycling_type":"container"}},"type":"Feature"},
	{"geometry":{"coordinates":[13.397865,52.393832],"type":"Point"},"properties":{"osm_id":"3948197275","tag":{"amenity":"waste_basket"}},"type":"Feature"},
	{"geometry":{"coordinates":[13.366502,52.417654],"type":"Point"},"properties":{"osm_id":"3949690739","tag":{"amenity":"waste_basket"}},"type":"Feature"},
	{"geometry":{"coordinates":[13.39258,52.418072],"type":"Point"},"properties":{"osm_id":"3949690744","tag":{"amenity":"recycling","recycling:glass_bottles":"yes","recycling_type":"container"}},"type":"Feature"},
	{"geometry":{"coordinates":[13.385185,52.421687],"type":"Point"},"properties":{"osm_id":"3949699469","tag":{"amenity":"recycling","recycling:glass_bottles":"yes","recycling_type":"container"}},"type":"Feature"},
	{"geometry":{"coordinates":[13.382682,52.423149],"type":"Point"},"properties":{"osm_id":"3949699474","tag":{"amenity":"waste_basket"}},"type":"Feature"},
	{"geometry":{"coordinates":[13.374349,52.426896],"type":"Point"},"properties":{"osm_id":"3949699486","tag":{"amenity":"waste_basket"}},"type":"Feature"},
	{"geometry":{"coordinates":[13.414748,52.423597],"type":"Point"},"properties":{"osm_id":"3992457573","tag":{"amenity":"waste_basket"}},"type":"Feature"},
	{"geometry":{"coordinates":[13.400129,52.425197],"type":"Point"},"properties":{"osm_id":"3992457578","tag":{"amenity":"waste_basket"}},"type":"Feature"},
	{"geometry":{"coordinates":[13.409585,52.426251],"type":"Point"},"properties":{"osm_id":"3992457580","tag":{"amenity":"waste_basket"}},"type":"Feature"},
	{"geometry":{"coordinates":[13.364554,52.427738],"type":"Point"},"properties":{"osm_id":"4032903194","tag":{"amenity":"waste_basket"}},"type":"Feature"},
	{"geometry":{"coordinates":[13.422971,52.428021],"type":"Point"},"properties":{"osm_id":"4427963582","tag":{"amenity":"waste_basket"}},"type":"Feature"},
	{"geometry":{"coordinates":[13.427993,52.428046],"type":"Point"},"properties":{"osm_id":"4427963585","tag":{"amenity":"waste_basket"}},"type":"Feature"},
	{"geometry":{"coordinates":[13.430979,52.428883],"type":"Point"},"properties":{"osm_id":"4427963608","tag":{"amenity":"waste_basket"}},"type":"Feature"},
	{"geometry":{"coordinates":[13.425041,52.428999],"type":"Point"},"properties":{"osm_id":"4427963611","tag":{"amenity":"waste_basket"}},"type":"Feature"},
	{"geometry":{"coordinates":[13.42082,52.428706],"type":"Point"},"properties":{"osm_id":"4427963705","tag":{"amenity":"waste_basket"}},"type":"Feature"},
	{"geometry":{"coordinates":[13.409755,52.390261],"type":"Point"},"properties":{"osm_id":"4485144807","tag":{"amenity":"waste_basket"}},"type":"Feature"},
	{"geometry":{"coordinates":[13.410949,52.391109],"type":"Point"},"properties":{"osm_id":"4485161714","tag":{"amenity":"waste_basket"}},"type":"Feature"},
	{"geometry":{"coordinates":[13.409815,52.391018],"type":"Point"},"properties":{"osm_id":"4485168110","tag":{"amenity":"waste_basket"}},"type":"Feature"},
	{"geometry":{"coordinates":[13.410581,52.389919],"type":"Point"},"properties":{"osm_id":"4485169397","tag":{"amenity":"waste_basket"}},"type":"Feature"},
	{"geometry":{"coordinates":[13.411178,52.390416],"type":"Point"},"properties":{"osm_id":"4485169398","tag":{"amenity":"waste_basket"}},"type":"Feature"},
	{"geometry":{"coordinates":[13.410184,52.391204],"type":"Point"},"properties":{"osm_id":"4485189491","tag":{"amenity":"waste_basket"}},"type":"Feature"},
	{"geometry":{"coordinates":[13.41067,52.391179],"type":"Point"},"properties":{"osm_id":"4485191289","tag":{"amenity":"waste_basket"}},"type":"Feature"},
	{"geometry":{"coordinates":[13.406818,52.395584],"type":"Point"},"properties":{"osm_id":"4485201491","tag":{"amenity":"waste_basket"}},"type":"Feature"},
	{"geometry":{"coordinates":[13.401335,52.386202],"type":"Point"},"properties":{"osm_id":"4769043118","tag":{"amenity":"recycling","recycling:glass_bottles":"yes","recycling_type":"container"}},"type":"Feature"},
	{"geometry":{"coordinates":[13.404489,52.377471],"type":"Point"},"properties":{"osm_id":"4908770954","tag":{"amenity":"waste_basket"}},"type":"Feature"},
	{"geometry":{"coordinates":[13.401338,52.386247],"type":"Point"},"properties":{"osm_id":"5002937065","tag":{"amenity":"waste_basket"}},"type":"Feature"},
	{"geometry":{"coordinates":[13.400384,52.383201],"type":"Point"},"properties":{"osm_id":"5002937066","tag":{"amenity":"waste_basket"}},"type":"Feature"},
	{"geometry":{"coordinates":[13.39895,52.38581],"type":"Point"},"properties":{"osm_id":"5002937067","tag":{"amenity":"waste_basket"}},"type":"Feature"},
	{"geometry":{"coordinates":[13.401515,52.384303],"type":"Point"},"properties":{"osm_id":"5002937068","tag":{"amenity":"waste_basket"}},"type":"Feature"},
	{"geometry":{"coordinates":[13.428912,52.424829],"type":"Point"},"properties":{"osm_id":"5180482254","tag":{"amenity":"recycling","operator":"Deutsches Rotes Kreuz","recycling:clothes":"yes","recycling_type":"container"}},"type":"Feature"},
	{"geometry":{"coordinates":[13.42887,52.42422],"type":"Point"},"properties":{"osm_id":"5180482255","tag":{"amenity":"recycling","operator":"Deutsches Rotes Kreuz","recycling:clothes":"yes","recycling_type":"container"}},"type":"Feature"},
	{"geometry":{"coordinates":[13.427017,52.42131],"type":"Point"},"properties":{"osm_id":"5180482257","tag":{"amenity":"recycling","operator":"Karl Meyer Rohstoffverwertung","recycling:glass_bottles":"yes","recycling_type":"container"}},"type":"Feature"},
	{"geometry":{"coordinates":[13.425899,52.420954],"type":"Point"},"properties":{"osm_id":"5180482258","tag":{"amenity":"recycling","operator":"Deutsches Rotes Kreuz","recycling:clothes":"yes","recycling_type":"container"}},"type":"Feature"},
	{"geometry":{"coordinates":[13.425986,52.420555],"type":"Point"},"properties":{"osm_id":"5180482259","tag":{"amenity":"recycling","operator":"Karl Meyer Rohstoffverwertung","recycling:glass_bottles":"yes","recycling_type":"container"}},"type":"Feature"},
	{"geometry":{"coordinates":[13.405045,52.380691],"type":"Point"},"properties":{"osm_id":"5300643313","tag":{"amenity":"waste_basket","waste":"trash"}},"type":"Feature"},
	{"geometry":{"coordinates":[13.405908,52.37998],"type":"Point"},"properties":{"osm_id":"5300764690","tag":{"amenity":"waste_basket","waste":"trash"}},"type":"Feature"},
	{"geometry":{"coordinates":[13.406427,52.386711],"type":"Point"},"properties":{"osm_id":"5418238166","tag":{"amenity":"waste_basket","waste":"trash"}},"type":"Feature"},
	{"geometry":{"coordinates":[13.434098,52.420377],"type":"Point"},"properties":{"osm_id":"5517363456","tag":{"amenity":"recycling","recycling:clothes":"yes","recycling_type":"container"}},"type":"Feature"},
	{"geometry":{"coordinates":[13.406789,52.378456],"type":"Point"},"properties":{"osm_id":"5926433347","tag":{"amenity":"waste_basket","waste":"trash"}},"type":"Feature"},
	{"geometry":{"coordinates":[13.361566,52.428494],"type":"Point"},"properties":{"osm_id":"6321741827","tag":{"amenity":"waste_basket"}},"type":"Feature"},
	{"geometry":{"coordinates":[13.362138,52.4277],"type":"Point"},"properties":{"osm_id":"6321741830","tag":{"amenity":"waste_basket"}},"type":"Feature"},
	{"geometry":{"coordinates":[13.361691,52.427814],"type":"Point"},"properties":{"osm_id":"6321741831","tag":{"amenity":"waste_basket"}},"type":"Feature"},
	{"geometry":{"coordinates":[13.362032,52.427859],"type":"Point"},"properties":{"osm_id":"6324035599","tag":{"amenity":"waste_basket"}},"type":"Feature"},
	{"geometry":{"coordinates":[13.359713,52.423152],"type":"Point"},"properties":{"osm_id":"6551000893","tag":{"amenity":"waste_basket","material":"metal"}},"type":"Feature"},
	{"geometry":{"coordinates":[13.360599,52.427247],"type":"Point"},"properties":{"osm_id":"6551000900","tag":{"amenity":"waste_basket","material":"metal"}},"type":"Feature"},
	{"geometry":{"coordinates":[13.409352,52.382198],"type":"Point"},"properties":{"osm_id":"7095349359","tag":{"amenity":"waste_basket","waste":"trash"}},"type":"Feature"},
	{"geometry":{"coordinates":[13.388866,52.382181],"type":"Point"},"properties":{"osm_id":"7540417512","tag":{"amenity":"waste_basket","waste":"trash"}},"type":"Feature"},
	{"geometry":{"coordinates":[13.393286,52.382165],"type":"Point"},"properties":{"osm_id":"7540590415","tag":{"amenity":"waste_basket","waste":"trash"}},"type":"Feature"},
	{"geometry":{"coordinates":[13.388717,52.384222],"type":"Point"},"properties":{"osm_id":"7540590416","tag":{"amenity":"waste_basket","waste":"trash"}},"type":"Feature"},
	{"geometry":{"coordinates":[13.397626,52.382169],"type":"Point"},"properties":{"osm_id":"7540590417","tag":{"amenity":"waste_basket","waste":"trash"}},"type":"Feature"},
	{"geometry":{"coordinates":[13.390305,52.382209],"type":"Point"},"properties":{"osm_id":"7540590418","tag":{"amenity":"waste_basket","waste":"trash"}},"type":"Feature"},
	{"geometry":{"coordinates":[13.394937,52.382146],"type":"Point"},"properties":{"osm_id":"7540590419","tag":{"amenity":"waste_basket","waste":"trash"}},"type":"Feature"},
	{"geometry":{"coordinates":[13.407685,52.386586],"type":"Point"},"properties":{"osm_id":"7600051115","tag":{"amenity":"waste_basket","waste":"trash"}},"type":"Feature"},
	{"geometry":{"coordinates":[13.403307,52.385976],"type":"Point"},"properties":{"osm_id":"7606325813","tag":{"amenity":"waste_basket","waste":"trash"}},"type":"Feature"},
	{"geometry":{"coordinates":[13.4032,52.385524],"type":"Point"},"properties":{"osm_id":"7606325816","tag":{"amenity":"waste_basket","waste":"trash"}},"type":"Feature"},
	{"geometry":{"coordinates":[13.40148,52.386145],"type":"Point"},"properties":{"osm_id":"7606325818","tag":{"amenity":"waste_basket","waste":"trash"}},"type":"Feature"},
	{"geometry":{"coordinates":[13.39828,52.388996],"type":"Point"},"properties":{"osm_id":"7615532389","tag":{"amenity":"waste_basket","waste":"trash"}},"type":"Feature"},
	{"geometry":{"coordinates":[13.398548,52.387371],"type":"Point"},"properties":{"osm_id":"7615532395","tag":{"amenity":"waste_basket"}},"type":"Feature"},
	{"geometry":{"coordinates":[13.401487,52.386596],"type":"Point"},"properties":{"osm_id":"7615532396","tag":{"amenity":"waste_basket","waste":"trash"}},"type":"Feature"},
	{"geometry":{"coordinates":[13.400685,52.38661],"type":"Point"},"properties":{"osm_id":"7615532400","tag":{"amenity":"waste_basket","waste":"trash"}},"type":"Feature"},
	{"geometry":{"coordinates":[13.398473,52.387762],"type":"Point"},"properties":{"osm_id":"7615532406","tag":{"amenity":"waste_basket","waste":"trash"}},"type":"Feature"},
	{"geometry":{"coordinates":[13.398384,52.388911],"type":"Point"},"properties":{"osm_id":"7615532409","tag":{"amenity":"waste_basket","waste":"trash"}},"type":"Feature"},
	{"geometry":{"coordinates":[13.401232,52.389954],"type":"Point"},"properties":{"osm_id":"7615532414","tag":{"amenity":"waste_basket","waste":"trash"}},"type":"Feature"},
	{"geometry":{"coordinates":[13.398418,52.386742],"type":"Point"},"properties":{"osm_id":"7615532419","tag":{"amenity":"waste_basket","waste":"trash"}},"type":"Feature"},
	{"geometry":{"coordinates":[13.400969,52.390097],"type":"Point"},"properties":{"osm_id":"7615532420","tag":{"amenity":"waste_basket","waste":"trash"}},"type":"Feature"},
	{"geometry":{"coordinates":[13.398403,52.388379],"type":"Point"},"properties":{"osm_id":"7615532432","tag":{"amenity":"waste_basket","waste":"trash"}},"type":"Feature"},
	{"geometry":{"coordinates":[13.401544,52.386747],"type":"Point"},"properties":{"osm_id":"7719738271","tag":{"amenity":"waste_basket","waste":"trash"}},"type":"Feature"},
	{"geometry":{"coordinates":[13.398744,52.386591],"type":"Point"},"properties":{"osm_id":"7719738272","tag":{"amenity":"waste_basket","waste":"trash"}},"type":"Feature"},
	{"geometry":{"coordinates":[13.405135,52.38542],"type":"Point"},"properties":{"osm_id":"7719738273","tag":{"amenity":"waste_basket","waste":"trash"}},"type":"Feature"},
	{"geometry":{"coordinates":[13.405152,52.386786],"type":"Point"},"properties":{"osm_id":"7719738274","tag":{"amenity":"waste_basket","waste":"trash"}},"type":"Feature"},
	{"geometry":{"coordinates":[13.398694,52.386744],"type":"Point"},"properties":{"osm_id":"7719738276","tag":{"amenity":"waste_basket","waste":"trash"}},"type":"Feature"},
	{"geometry":{"coordinates":[13.403348,52.386618],"type":"Point"},"properties":{"osm_id":"7719738278","tag":{"amenity":"waste_basket","waste":"trash"}},"type":"Feature"},
	{"geometry":{"coordinates":[13.403137,52.38675],"type":"Point"},"properties":{"osm_id":"7719738280","tag":{"amenity":"waste_basket","waste":"trash"}},"type":"Feature"},
	{"geometry":{"coordinates":[13.40317,52.38661],"type":"Point"},"properties":{"osm_id":"7719738281","tag":{"amenity":"waste_basket","waste":"trash"}},"type":"Feature"},
	{"geometry":{"coordinates":[13.400926,52.386763],"type":"Point"},"properties":{"osm_id":"7719738282","tag":{"amenity":"waste_basket","waste":"trash"}},"type":"Feature"},
	{"geometry":{"coordinates":[13.39753,52.381917],"type":"Point"},"properties":{"osm_id":"7724055886","tag":{"amenity":"waste_basket","waste":"trash"}},"type":"Feature"},
	{"geometry":{"coordinates":[13.396026,52.381182],"type":"Point"},"properties":{"osm_id":"7724055897","tag":{"amenity":"waste_basket","waste":"trash"}},"type":"Feature"},
	{"geometry":{"coordinates":[13.399607,52.379039],"type":"Point"},"properties":{"osm_id":"7741187911","tag":{"amenity":"waste_basket","waste":"trash"}},"type":"Feature"},
	{"geometry":{"coordinates":[13.397647,52.378665],"type":"Point"},"properties":{"osm_id":"7741187915","tag":{"amenity":"waste_basket","waste":"trash"}},"type":"Feature"},
	{"geometry":{"coordinates":[13.444029,52.376478],"type":"Point"},"properties":{"osm_id":"7769622762","tag":{"amenity":"recycling","location":"overground","opening_hours":"Mo-Sa 07:00-20:00","recycling:glass_bottles":"yes","recycling_type":"container"}},"type":"Feature"},
	{"geometry":{"coordinates":[13.444018,52.376472],"type":"Point"},"properties":{"osm_id":"7769635784","tag":{"amenity":"recycling","location":"overground","recycling:clothes":"yes","recycling_type":"container"}},"type":"Feature"},
	{"geometry":{"coordinates":[13.397506,52.376537],"type":"Point"},"properties":{"osm_id":"7775383293","tag":{"amenity":"waste_basket","vending":"excrement_bags","waste":"dog_excrement"}},"type":"Feature"},
	{"geometry":{"coordinates":[13.407651,52.381008],"type":"Point"},"properties":{"osm_id":"7837092604","tag":{"amenity":"waste_basket","waste":"trash"}},"type":"Feature"},
	{"geometry":{"coordinates":[13.408733,52.379779],"type":"Point"},"properties":{"osm_id":"7837092606","tag":{"amenity":"waste_basket","waste":"trash"}},"type":"Feature"}
]
}
