{
"type": "FeatureCollection",
"features": [
	{"geometry":{"coordinates":[13.364756,52.137943],"type":"Point"},"properties":{"osm_id":"2036560531","tag":{"amenity":"recycling","recycling:clothes":"yes","recycling:glass_bottles":"yes","recycling_type":"container"}},"type":"Feature"},
	{"geometry":{"coordinates":[13.3655,52.138072],"type":"Point"},"properties":{"osm_id":"2283313144","tag":{"amenity":"waste_basket"}},"type":"Feature"},
	{"geometry":{"coordinates":[13.365127,52.139558],"type":"Point"},"properties":{"osm_id":"2283313173","tag":{"amenity":"waste_basket"}},"type":"Feature"},
	{"geometry":{"coordinates":[13.363956,52.141876],"type":"Point"},"properties":{"osm_id":"6301095889","tag":{"amenity":"waste_basket"}},"type":"Feature"},
	{"geometry":{"coordinates":[13.365183,52.140898],"type":"Point"},"properties":{"osm_id":"7369366128","tag":{"amenity":"waste_basket","material":"steel","waste":"trash"}},"type":"Feature"},
	{"geometry":{"coordinates":[13.365152,52.141043],"type":"Point"},"properties":{"osm_id":"7369366132","tag":{"amenity":"waste_basket","material":"steel","waste":"trash"}},"type":"Feature"},
	{"geometry":{"coordinates":[13.376197,52.140356],"type":"Point"},"properties":{"osm_id":"7406256202","tag":{"amenity":"waste_basket"}},"type":"Feature"},
	{"geometry":{"coordinates":[13.368992,52.13566],"type":"Point"},"properties":{"osm_id":"7417322711","tag":{"amenity":"waste_basket","covered":"no","indoor":"no","material":"metal"}},"type":"Feature"},
	{"geometry":{"coordinates":[13.368911,52.135786],"type":"Point"},"properties":{"osm_id":"7417322714","tag":{"amenity":"waste_basket","covered":"no","indoor":"no","material":"metal"}},"type":"Feature"},
	{"geometry":{"coordinates":[13.365781,52.13758],"type":"Point"},"properties":{"osm_id":"7417344342","tag":{"amenity":"waste_basket","covered":"yes","indoor":"no","material":"metal"}},"type":"Feature"},
	{"geometry":{"coordinates":[13.439267,52.124266],"type":"Point"},"properties":{"osm_id":"7622618843","tag":{"amenity":"waste_basket","waste":"trash"}},"type":"Feature"},
	{"geometry":{"coordinates":[13.401155,52.155947],"type":"Point"},"properties":{"osm_id":"7751929189","tag":{"amenity":"waste_basket","covered":"no","indoor":"no","material":"concrete"}},"type":"Feature"}
]
}
