{
"type": "FeatureCollection",
"features": [
	{"geometry":{"coordinates":[13.430704,51.154462],"type":"Point"},"properties":{"osm_id":"996713254","tag":{"amenity":"recycling","recycling:clothes":"yes","recycling:glass":"yes"}},"type":"Feature"},
	{"geometry":{"coordinates":[13.375957,51.169833],"type":"Point"},"properties":{"osm_id":"4331302109","tag":{"amenity":"recycling","recycling:glass_bottles":"yes","recycling_type":"container"}},"type":"Feature"},
	{"geometry":{"coordinates":[13.392947,51.131113],"type":"Point"},"properties":{"osm_id":"5319080538","tag":{"amenity":"recycling","opening_hours":"Mo-Sa 08:00-17:00","recycling:glass_bottles":"yes","recycling_type":"container"}},"type":"Feature"},
	{"geometry":{"coordinates":[13.434342,51.166639],"type":"Point"},"properties":{"osm_id":"6293976448","tag":{"amenity":"recycling","recycling_type":"container"}},"type":"Feature"},
	{"geometry":{"coordinates":[13.407658,51.139126],"type":"Point"},"properties":{"osm_id":"9106004656","tag":{"amenity":"waste_basket"}},"type":"Feature"}
]
}
