{
"type": "FeatureCollection",
"features": [
	{"geometry":{"coordinates":[13.366215,50.808298],"type":"Point"},"properties":{"osm_id":"458325208","tag":{"amenity":"waste_basket"}},"type":"Feature"},
	{"geometry":{"coordinates":[13.36582,50.810278],"type":"Point"},"properties":{"osm_id":"460469934","tag":{"amenity":"waste_basket"}},"type":"Feature"},
	{"geometry":{"coordinates":[13.416432,50.809015],"type":"Point"},"properties":{"osm_id":"1268769761","tag":{"amenity":"waste_basket"}},"type":"Feature"},
	{"geometry":{"coordinates":[13.392344,50.81322],"type":"Point"},"properties":{"osm_id":"1268769796","tag":{"amenity":"waste_basket","tourism":"picnic_site"}},"type":"Feature"},
	{"geometry":{"coordinates":[13.365153,50.810707],"type":"Point"},"properties":{"osm_id":"1275868810","tag":{"amenity":"recycling","mapillary":"LZf2oNUdFA5FCu6mRbGZTg","recycling:clothes":"yes","recycling:glass":"yes","recycling_type":"container","survey:date":"2017-10-14"}},"type":"Feature"},
	{"geometry":{"coordinates":[13.363896,50.810162],"type":"Point"},"properties":{"osm_id":"1275870561","tag":{"amenity":"waste_basket"}},"type":"Feature"},
	{"geometry":{"coordinates":[13.4447,50.839351],"type":"Point"},"properties":{"osm_id":"1333670432","tag":{"amenity":"waste_basket"}},"type":"Feature"},
	{"geometry":{"coordinates":[13.444829,50.839371],"type":"Point"},"properties":{"osm_id":"1364178342","tag":{"amenity":"recycling","recycling_type":"container"}},"type":"Feature"},
	{"geometry":{"coordinates":[13.438723,50.823088],"type":"Point"},"properties":{"osm_id":"2585284329","tag":{"amenity":"recycling","recycling:clothes":"yes","recycling:glass":"yes","recycling_type":"container"}},"type":"Feature"},
	{"geometry":{"coordinates":[13.417518,50.839796],"type":"Point"},"properties":{"osm_id":"3809020908","tag":{"amenity":"waste_basket"}},"type":"Feature"}
]
}
