{
"type": "FeatureCollection",
"features": [
	{"geometry":{"coordinates":[13.381832,48.741473],"type":"Point"},"properties":{"name":"Recyclinghof","osm_id":"1581225678","tag":{"amenity":"recycling","operator":"ZAW Donau-Wald","recycling_type":"centre"}},"type":"Feature"},
	{"geometry":{"coordinates":[13.383851,48.694366],"type":"Point"},"properties":{"osm_id":"1638010929","tag":{"amenity":"waste_basket"}},"type":"Feature"},
	{"geometry":{"coordinates":[13.379336,48.705917],"type":"Point"},"properties":{"osm_id":"1638204326","tag":{"amenity":"waste_basket"}},"type":"Feature"},
	{"geometry":{"coordinates":[13.379069,48.721877],"type":"Point"},"properties":{"osm_id":"1638204340","tag":{"amenity":"waste_basket"}},"type":"Feature"},
	{"geometry":{"coordinates":[13.380717,48.727854],"type":"Point"},"properties":{"osm_id":"1638204355","tag":{"amenity":"waste_basket"}},"type":"Feature"},
	{"geometry":{"coordinates":[13.380444,48.727827],"type":"Point"},"properties":{"osm_id":"1638204356","tag":{"amenity":"waste_basket"}},"type":"Feature"},
	{"geometry":{"coordinates":[13.382801,48.726106],"type":"Point"},"properties":{"osm_id":"3349737102","tag":{"amenity":"recycling","recycling:cans":"yes","recycling:clothes":"no","recycling:glass":"yes","recycling:paper":"no"}},"type":"Feature"},
	{"geometry":{"coordinates":[13.37987,48.727481],"type":"Point"},"properties":{"osm_id":"3423565433","tag":{"amenity":"waste_basket"}},"type":"Feature"},
	{"geometry":{"coordinates":[13.379548,48.727861],"type":"Point"},"properties":{"osm_id":"3423703609","tag":{"amenity":"waste_basket"}},"type":"Feature"},
	{"geometry":{"coordinates":[13.379306,48.727982],"type":"Point"},"properties":{"osm_id":"3423705322","tag":{"amenity":"waste_basket"}},"type":"Feature"},
	{"geometry":{"coordinates":[13.379572,48.727519],"type":"Point"},"properties":{"osm_id":"3423729776","tag":{"amenity":"waste_basket"}},"type":"Feature"},
	{"geometry":{"coordinates":[13.379863,48.727327],"type":"Point"},"properties":{"osm_id":"3423779449","tag":{"amenity":"waste_basket"}},"type":"Feature"},
	{"geometry":{"coordinates":[13.379957,48.72846],"type":"Point"},"properties":{"osm_id":"3423971503","tag":{"amenity":"waste_basket"}},"type":"Feature"},
	{"geometry":{"coordinates":[13.383222,48.727777],"type":"Point"},"properties":{"osm_id":"3434990633","tag":{"amenity":"waste_basket"}},"type":"Feature"},
	{"geometry":{"coordinates":[13.384998,48.723874],"type":"Point"},"properties":{"osm_id":"3435417596","tag":{"amenity":"recycling","recycling:cans":"yes","recycling:clothes":"yes","recycling:glass":"yes","recycling:paper":"no"}},"type":"Feature"},
	{"geometry":{"coordinates":[13.381544,48.725959],"type":"Point"},"properties":{"osm_id":"3436887059","tag":{"amenity":"waste_basket"}},"type":"Feature"},
	{"geometry":{"coordinates":[13.382446,48.730374],"type":"Point"},"properties":{"osm_id":"3437289812","tag":{"amenity":"waste_basket"}},"type":"Feature"},
	{"geometry":{"coordinates":[13.370826,48.731063],"type":"Point"},"properties":{"osm_id":"3471398160","tag":{"amenity":"recycling","recycling:batteries":"no","recycling:cans":"yes","recycling:glass":"yes","recycling:paper":"no","recycling:scrap_metal":"no","recycling_type":"container"}},"type":"Feature"},
	{"geometry":{"coordinates":[13.382676,48.725416],"type":"Point"},"properties":{"osm_id":"3506599693","tag":{"amenity":"recycling","recycling:cans":"no","recycling:clothes":"yes","recycling:glass":"no","recycling:paper":"no"}},"type":"Feature"},
	{"geometry":{"coordinates":[13.43745,48.734244],"type":"Point"},"properties":{"osm_id":"4403834598","tag":{"access":"private","amenity":"recycling","recycling_type":"centre"}},"type":"Feature"},
	{"geometry":{"coordinates":[13.373841,48.704685],"type":"Point"},"properties":{"osm_id":"5600527615","tag":{"amenity":"waste_basket","waste":"trash"}},"type":"Feature"}
]
}
