{
"type": "FeatureCollection",
"features": [
	{"geometry":{"coordinates":[13.389576,48.582943],"type":"Point"},"properties":{"osm_id":"866711987","tag":{"amenity":"recycling","recycling:cans":"yes","recycling:glass":"yes"}},"type":"Feature"},
	{"geometry":{"coordinates":[13.379472,48.58688],"type":"Point"},"properties":{"highway":"bus_stop","name":"Ober\u00c3\u00b6der Weg","osm_id":"871152587","tag":{"amenity":"waste_basket","operator":"Stadtwerke Passau","public_transport":"platform","shelter":"no"}},"type":"Feature"},
	{"geometry":{"coordinates":[13.362751,48.579953],"type":"Point"},"properties":{"osm_id":"871152616","tag":{"amenity":"waste_basket"}},"type":"Feature"},
	{"geometry":{"coordinates":[13.444793,48.589459],"type":"Point"},"properties":{"osm_id":"872833530","tag":{"amenity":"recycling","recycling:cans":"yes","recycling:clothes":"no","recycling:glass":"yes","recycling:paper":"no"}},"type":"Feature"},
	{"geometry":{"coordinates":[13.420279,48.607344],"type":"Point"},"properties":{"osm_id":"1637703851","tag":{"amenity":"waste_basket"}},"type":"Feature"},
	{"geometry":{"coordinates":[13.390391,48.621057],"type":"Point"},"properties":{"osm_id":"1920677001","tag":{"amenity":"recycling","recycling_type":"centre"}},"type":"Feature"},
	{"geometry":{"coordinates":[13.394883,48.58374],"type":"Point"},"properties":{"osm_id":"3005071621","tag":{"amenity":"recycling","recycling:cans":"yes","recycling:glass":"yes","recycling:paper":"yes"}},"type":"Feature"},
	{"geometry":{"coordinates":[13.44698,48.606819],"type":"Point"},"properties":{"osm_id":"4375474834","tag":{"amenity":"waste_basket"}},"type":"Feature"},
	{"geometry":{"coordinates":[13.444242,48.607662],"type":"Point"},"properties":{"osm_id":"4375506196","tag":{"amenity":"waste_basket"}},"type":"Feature"},
	{"geometry":{"coordinates":[13.43765,48.579727],"type":"Point"},"properties":{"osm_id":"4895992599","tag":{"amenity":"recycling","recycling:cans":"yes","recycling:glass_bottles":"yes","recycling_type":"container"}},"type":"Feature"}
]
}
