{
"type": "FeatureCollection",
"lastupdate": "2020-08-01T00:00:00Z",
"features": [
	{"geometry":{"coordinates":[13.434227,48.455091],"type":"Point"},"properties":{"osm_id":"1187928059","tag":{"addr:city":"Sch\u00e4rding","addr:country":"AT","addr:housenumber":"8","addr:postcode":"4780","addr:street":"Linzer Stra\u00dfe","addr:suburb":"Sch\u00e4rding Vorstadt","amenity":"recycling","at_bev:addr_date":"2018-04-02"}},"type":"Feature"},
	{"geometry":{"coordinates":[13.443281,48.447044],"type":"Point"},"properties":{"osm_id":"3491095509","tag":{"amenity":"recycling","recycling:cans":"yes","recycling:clothes":"yes","recycling:glass":"yes","recycling:paper":"yes","recycling:scrap_metal":"yes"}},"type":"Feature"},
	{"geometry":{"coordinates":[13.440807,48.447145],"type":"Point"},"properties":{"osm_id":"3516749501","tag":{"amenity":"recycling","recycling:cans":"yes","recycling:clothes":"yes","recycling:glass":"yes","recycling:paper":"yes"}},"type":"Feature"},
	{"geometry":{"coordinates":[13.43811,48.448341],"type":"Point"},"properties":{"osm_id":"3600629622","tag":{"amenity":"recycling","recycling:clothes":"yes"}},"type":"Feature"},
	{"geometry":{"coordinates":[13.381786,48.454804],"type":"Point"},"properties":{"osm_id":"4527764326","tag":{"amenity":"waste_basket"}},"type":"Feature"}
]
}
