{
"type": "FeatureCollection",
"features": [
	{"geometry":{"coordinates":[13.416734,42.350686],"type":"Point"},"properties":{"osm_id":"1182490502","tag":{"amenity":"recycling","recycling:cans":"yes","recycling:glass":"yes","recycling:paper":"yes"}},"type":"Feature"},
	{"geometry":{"coordinates":[13.400015,42.350649],"type":"Point"},"properties":{"osm_id":"5780516053","tag":{"amenity":"waste_basket"}},"type":"Feature"},
	{"geometry":{"coordinates":[13.399445,42.349642],"type":"Point"},"properties":{"osm_id":"5780516054","tag":{"amenity":"waste_basket"}},"type":"Feature"},
	{"geometry":{"coordinates":[13.398778,42.348507],"type":"Point"},"properties":{"osm_id":"5780516055","tag":{"amenity":"waste_basket"}},"type":"Feature"},
	{"geometry":{"coordinates":[13.398935,42.348789],"type":"Point"},"properties":{"osm_id":"5780516056","tag":{"amenity":"waste_basket"}},"type":"Feature"},
	{"geometry":{"coordinates":[13.397533,42.349419],"type":"Point"},"properties":{"osm_id":"5780519108","tag":{"amenity":"waste_basket"}},"type":"Feature"},
	{"geometry":{"coordinates":[13.398578,42.348162],"type":"Point"},"properties":{"osm_id":"5780519109","tag":{"amenity":"waste_basket"}},"type":"Feature"},
	{"geometry":{"coordinates":[13.398353,42.349043],"type":"Point"},"properties":{"osm_id":"5780519110","tag":{"amenity":"waste_basket"}},"type":"Feature"},
	{"geometry":{"coordinates":[13.400787,42.355621],"type":"Point"},"properties":{"osm_id":"5796569091","tag":{"amenity":"waste_basket"}},"type":"Feature"},
	{"geometry":{"coordinates":[13.397506,42.355517],"type":"Point"},"properties":{"osm_id":"5796569094","tag":{"amenity":"waste_basket"}},"type":"Feature"},
	{"geometry":{"coordinates":[13.397343,42.355435],"type":"Point"},"properties":{"osm_id":"5796569096","tag":{"amenity":"waste_basket"}},"type":"Feature"},
	{"geometry":{"coordinates":[13.397343,42.355515],"type":"Point"},"properties":{"osm_id":"5796569097","tag":{"amenity":"waste_basket"}},"type":"Feature"},
	{"geometry":{"coordinates":[13.397183,42.355462],"type":"Point"},"properties":{"osm_id":"5796587458","tag":{"amenity":"waste_basket"}},"type":"Feature"},
	{"geometry":{"coordinates":[13.397057,42.355513],"type":"Point"},"properties":{"osm_id":"5796587463","tag":{"amenity":"waste_basket"}},"type":"Feature"},
	{"geometry":{"coordinates":[13.39706,42.355353],"type":"Point"},"properties":{"osm_id":"5796587464","tag":{"amenity":"waste_basket"}},"type":"Feature"},
	{"geometry":{"coordinates":[13.397573,42.345883],"type":"Point"},"properties":{"osm_id":"5819260958","tag":{"amenity":"waste_basket"}},"type":"Feature"},
	{"geometry":{"coordinates":[13.397836,42.345803],"type":"Point"},"properties":{"osm_id":"5819260959","tag":{"amenity":"waste_basket"}},"type":"Feature"},
	{"geometry":{"coordinates":[13.397955,42.345767],"type":"Point"},"properties":{"osm_id":"5819260960","tag":{"amenity":"waste_basket"}},"type":"Feature"},
	{"geometry":{"coordinates":[13.397647,42.345579],"type":"Point"},"properties":{"osm_id":"5819260961","tag":{"amenity":"waste_basket"}},"type":"Feature"},
	{"geometry":{"coordinates":[13.398189,42.345677],"type":"Point"},"properties":{"osm_id":"5819260962","tag":{"amenity":"waste_basket"}},"type":"Feature"},
	{"geometry":{"coordinates":[13.398127,42.345323],"type":"Point"},"properties":{"osm_id":"5819260964","tag":{"amenity":"waste_basket"}},"type":"Feature"},
	{"geometry":{"coordinates":[13.398044,42.345295],"type":"Point"},"properties":{"osm_id":"5819260965","tag":{"amenity":"waste_basket"}},"type":"Feature"},
	{"geometry":{"coordinates":[13.397993,42.345205],"type":"Point"},"properties":{"osm_id":"5819260966","tag":{"amenity":"waste_basket"}},"type":"Feature"},
	{"geometry":{"coordinates":[13.397888,42.345001],"type":"Point"},"properties":{"osm_id":"5819260967","tag":{"amenity":"waste_basket"}},"type":"Feature"},
	{"geometry":{"coordinates":[13.397841,42.344919],"type":"Point"},"properties":{"osm_id":"5819260968","tag":{"amenity":"waste_basket"}},"type":"Feature"},
	{"geometry":{"coordinates":[13.39809,42.345087],"type":"Point"},"properties":{"osm_id":"5819260969","tag":{"amenity":"waste_basket"}},"type":"Feature"},
	{"geometry":{"coordinates":[13.39736,42.344902],"type":"Point"},"properties":{"osm_id":"5819260970","tag":{"amenity":"waste_basket"}},"type":"Feature"},
	{"geometry":{"coordinates":[13.397593,42.344646],"type":"Point"},"properties":{"osm_id":"5819260971","tag":{"amenity":"waste_basket"}},"type":"Feature"},
	{"geometry":{"coordinates":[13.397413,42.344844],"type":"Point"},"properties":{"osm_id":"5819260972","tag":{"amenity":"waste_basket"}},"type":"Feature"},
	{"geometry":{"coordinates":[13.39733,42.344521],"type":"Point"},"properties":{"osm_id":"5819260973","tag":{"amenity":"waste_basket"}},"type":"Feature"},
	{"geometry":{"coordinates":[13.396789,42.344428],"type":"Point"},"properties":{"osm_id":"5819260974","tag":{"amenity":"waste_basket"}},"type":"Feature"},
	{"geometry":{"coordinates":[13.397048,42.344319],"type":"Point"},"properties":{"osm_id":"5819260975","tag":{"amenity":"waste_basket"}},"type":"Feature"},
	{"geometry":{"coordinates":[13.397411,42.344309],"type":"Point"},"properties":{"osm_id":"5819260976","tag":{"amenity":"waste_basket"}},"type":"Feature"},
	{"geometry":{"coordinates":[13.39746,42.344397],"type":"Point"},"properties":{"osm_id":"5819260977","tag":{"amenity":"waste_basket"}},"type":"Feature"},
	{"geometry":{"coordinates":[13.39779,42.344722],"type":"Point"},"properties":{"osm_id":"5819260978","tag":{"amenity":"waste_basket"}},"type":"Feature"},
	{"geometry":{"coordinates":[13.39682,42.344499],"type":"Point"},"properties":{"osm_id":"5825639102","tag":{"amenity":"waste_basket"}},"type":"Feature"},
	{"geometry":{"coordinates":[13.39696,42.344751],"type":"Point"},"properties":{"osm_id":"5825639103","tag":{"amenity":"waste_basket"}},"type":"Feature"},
	{"geometry":{"coordinates":[13.397502,42.345959],"type":"Point"},"properties":{"osm_id":"5836950000","tag":{"amenity":"waste_basket"}},"type":"Feature"},
	{"geometry":{"coordinates":[13.398643,42.348278],"type":"Point"},"properties":{"osm_id":"5904126911","tag":{"amenity":"waste_basket"}},"type":"Feature"},
	{"geometry":{"coordinates":[13.398986,42.351031],"type":"Point"},"properties":{"osm_id":"5904251413","tag":{"amenity":"waste_basket"}},"type":"Feature"},
	{"geometry":{"coordinates":[13.399438,42.349883],"type":"Point"},"properties":{"osm_id":"6655881395","tag":{"amenity":"waste_basket","colour":"black","material":"metal","operator":"Asm"}},"type":"Feature"},
	{"geometry":{"coordinates":[13.398782,42.348833],"type":"Point"},"properties":{"osm_id":"6655881396","tag":{"amenity":"waste_basket","colour":"black","material":"metal","operator":"Asm"}},"type":"Feature"},
	{"geometry":{"coordinates":[13.400481,42.351904],"type":"Point"},"properties":{"osm_id":"6655881397","tag":{"amenity":"waste_basket","material":"metal","operator":"Asm"}},"type":"Feature"},
	{"geometry":{"coordinates":[13.380912,42.353509],"type":"Point"},"properties":{"osm_id":"6707471796","tag":{"amenity":"recycling","recycling_type":"centre"}},"type":"Feature"},
	{"geometry":{"coordinates":[13.399848,42.350689],"type":"Point"},"properties":{"osm_id":"6723074845","tag":{"amenity":"waste_basket"}},"type":"Feature"},
	{"geometry":{"coordinates":[13.407144,42.356714],"type":"Point"},"properties":{"osm_id":"7046459548","tag":{"amenity":"recycling","recycling_type":"centre"}},"type":"Feature"},
	{"geometry":{"coordinates":[13.39277,42.352621],"type":"Point"},"properties":{"osm_id":"7205743049","tag":{"amenity":"recycling","recycling_type":"centre"}},"type":"Feature"}
]
}
