{
"type": "FeatureCollection",
"features": [
	{"geometry":{"coordinates":[13.391373,9.317437],"type":"Point"},"properties":{"name":"Bac \u00c3\u00a0 Ordures","osm_id":"6676460062","tag":{"amenity":"waste_disposal"}},"type":"Feature"},
	{"geometry":{"coordinates":[13.392272,9.317243],"type":"Point"},"properties":{"name":"Bac \u00c3\u00a0 Ordures","osm_id":"6676460063","tag":{"amenity":"waste_disposal"}},"type":"Feature"},
	{"geometry":{"coordinates":[13.392123,9.316699],"type":"Point"},"properties":{"name":"Bac \u00c3\u00a0 Ordures","osm_id":"6676460064","tag":{"amenity":"waste_disposal"}},"type":"Feature"},
	{"geometry":{"coordinates":[13.393462,9.314483],"type":"Point"},"properties":{"name":"Bac \u00c3\u00a0 Ordures","osm_id":"6676460065","tag":{"amenity":"waste_disposal"}},"type":"Feature"},
	{"geometry":{"coordinates":[13.391428,9.308147],"type":"Point"},"properties":{"name":"Bacs a Ordure","osm_id":"6676460066","tag":{"amenity":"waste_disposal"}},"type":"Feature"},
	{"geometry":{"coordinates":[13.394613,9.308745],"type":"Point"},"properties":{"name":"Bac \u00c3\u00a0 Ordures","osm_id":"6676460067","tag":{"amenity":"waste_disposal"}},"type":"Feature"},
	{"geometry":{"coordinates":[13.393617,9.307559],"type":"Point"},"properties":{"name":"Bac \u00c3\u00a0 Ordures","osm_id":"6676460068","tag":{"amenity":"waste_disposal"}},"type":"Feature"},
	{"geometry":{"coordinates":[13.395201,9.30591],"type":"Point"},"properties":{"name":"Bac \u00c3\u00a0 Ordures","osm_id":"6676460069","tag":{"amenity":"waste_disposal"}},"type":"Feature"},
	{"geometry":{"coordinates":[13.395652,9.305183],"type":"Point"},"properties":{"name":"Bac \u00c3\u00a0 Ordures","osm_id":"6676460070","tag":{"amenity":"waste_disposal"}},"type":"Feature"},
	{"geometry":{"coordinates":[13.399315,9.304345],"type":"Point"},"properties":{"name":"Bac \u00c3\u00a0 Ordures","osm_id":"6676460071","tag":{"amenity":"waste_disposal"}},"type":"Feature"},
	{"geometry":{"coordinates":[13.393893,9.302974],"type":"Point"},"properties":{"name":"Bac \u00c3\u00a0 Ordures","osm_id":"6676460072","tag":{"amenity":"waste_disposal"}},"type":"Feature"},
	{"geometry":{"coordinates":[13.395313,9.302415],"type":"Point"},"properties":{"name":"Bac \u00c3\u00a0 Ordures","osm_id":"6676460073","tag":{"amenity":"waste_disposal"}},"type":"Feature"},
	{"geometry":{"coordinates":[13.396279,9.302825],"type":"Point"},"properties":{"name":"Bac \u00c3\u00a0 Ordures","osm_id":"6676460074","tag":{"amenity":"waste_disposal"}},"type":"Feature"},
	{"geometry":{"coordinates":[13.396678,9.304114],"type":"Point"},"properties":{"name":"Bac \u00c3\u00a0 Ordures","osm_id":"6676460075","tag":{"amenity":"waste_disposal"}},"type":"Feature"},
	{"geometry":{"coordinates":[13.39789,9.305669],"type":"Point"},"properties":{"name":"Bac \u00c3\u00a0 Ordures","osm_id":"6676460076","tag":{"amenity":"waste_disposal"}},"type":"Feature"},
	{"geometry":{"coordinates":[13.399288,9.304345],"type":"Point"},"properties":{"name":"Bac \u00c3\u00a0 Ordures","osm_id":"6676460077","tag":{"amenity":"waste_disposal"}},"type":"Feature"},
	{"geometry":{"coordinates":[13.39766,9.301404],"type":"Point"},"properties":{"name":"Bac \u00c3\u00a0 Ordures","osm_id":"6676460078","tag":{"amenity":"waste_disposal"}},"type":"Feature"},
	{"geometry":{"coordinates":[13.397466,9.301334],"type":"Point"},"properties":{"name":"Bac \u00c3\u00a0 ordures","osm_id":"6676460079","tag":{"amenity":"waste_disposal"}},"type":"Feature"},
	{"geometry":{"coordinates":[13.400811,9.301691],"type":"Point"},"properties":{"name":"Bac \u00c3\u00a0 Ordures","osm_id":"6676460080","tag":{"amenity":"waste_disposal"}},"type":"Feature"},
	{"geometry":{"coordinates":[13.399166,9.29933],"type":"Point"},"properties":{"name":"Bac \u00c3\u00a0 Ordures","osm_id":"6676460081","tag":{"amenity":"waste_disposal"}},"type":"Feature"},
	{"geometry":{"coordinates":[13.400148,9.29839],"type":"Point"},"properties":{"name":"Bac \u00c3\u00a0 Ordures","osm_id":"6676460082","tag":{"amenity":"waste_disposal"}},"type":"Feature"},
	{"geometry":{"coordinates":[13.395842,9.299022],"type":"Point"},"properties":{"name":"Bac \u00c3\u00a0 Ordures","osm_id":"6676460083","tag":{"amenity":"waste_disposal"}},"type":"Feature"},
	{"geometry":{"coordinates":[13.391821,9.29987],"type":"Point"},"properties":{"name":"Bac \u00c3\u00a0 Ordures","osm_id":"6676460084","tag":{"amenity":"waste_disposal"}},"type":"Feature"},
	{"geometry":{"coordinates":[13.389787,9.297492],"type":"Point"},"properties":{"name":"Bac \u00c3\u00a0 Ordures","osm_id":"6676462285","tag":{"amenity":"waste_disposal"}},"type":"Feature"},
	{"geometry":{"coordinates":[13.388559,9.293417],"type":"Point"},"properties":{"name":"Bac \u00c3\u00a0 Ordures","osm_id":"6676462286","tag":{"amenity":"waste_disposal"}},"type":"Feature"},
	{"geometry":{"coordinates":[13.38833,9.294541],"type":"Point"},"properties":{"name":"Bac \u00c3\u00a0 Ordures","osm_id":"6676462287","tag":{"amenity":"waste_disposal"}},"type":"Feature"},
	{"geometry":{"coordinates":[13.386935,9.295297],"type":"Point"},"properties":{"name":"Bac \u00c3\u00a0 Ordures","osm_id":"6676462288","tag":{"amenity":"waste_disposal"}},"type":"Feature"},
	{"geometry":{"coordinates":[13.38597,9.295999],"type":"Point"},"properties":{"name":"Bac \u00c3\u00a0 Ordures","osm_id":"6676462289","tag":{"amenity":"waste_disposal"}},"type":"Feature"},
	{"geometry":{"coordinates":[13.379699,9.299647],"type":"Point"},"properties":{"name":"Bac \u00c3\u00a0 Ordure","osm_id":"6676462290","tag":{"amenity":"waste_disposal"}},"type":"Feature"},
	{"geometry":{"coordinates":[13.379349,9.301895],"type":"Point"},"properties":{"name":"Bac \u00c3\u00a0 ordures","osm_id":"6676462291","tag":{"amenity":"waste_disposal"}},"type":"Feature"},
	{"geometry":{"coordinates":[13.377403,9.303679],"type":"Point"},"properties":{"name":"Bac \u00c3\u00a0 ordures","osm_id":"6676462292","tag":{"amenity":"waste_disposal"}},"type":"Feature"},
	{"geometry":{"coordinates":[13.371438,9.314135],"type":"Point"},"properties":{"name":"Bac \u00c3\u00a0 ordures","osm_id":"6676462293","tag":{"amenity":"waste_disposal"}},"type":"Feature"},
	{"geometry":{"coordinates":[13.371989,9.315989],"type":"Point"},"properties":{"name":"Bac \u00c3\u00a0 ordures","osm_id":"6676462294","tag":{"amenity":"waste_disposal"}},"type":"Feature"},
	{"geometry":{"coordinates":[13.373442,9.314094],"type":"Point"},"properties":{"name":"Bac \u00c3\u00a0 ordures","osm_id":"6676462295","tag":{"amenity":"waste_disposal"}},"type":"Feature"},
	{"geometry":{"coordinates":[13.378215,9.313136],"type":"Point"},"properties":{"name":"Bac \u00c3\u00a0 Ordures","osm_id":"6676462296","tag":{"amenity":"waste_disposal"}},"type":"Feature"},
	{"geometry":{"coordinates":[13.379349,9.31323],"type":"Point"},"properties":{"name":"Bac \u00c3\u00a0 Ordures","osm_id":"6676462297","tag":{"amenity":"waste_disposal"}},"type":"Feature"},
	{"geometry":{"coordinates":[13.381707,9.318267],"type":"Point"},"properties":{"name":"Bac \u00c3\u00a0 Ordures","osm_id":"6676462298","tag":{"amenity":"waste_disposal"}},"type":"Feature"},
	{"geometry":{"coordinates":[13.38593,9.323006],"type":"Point"},"properties":{"name":"Bac \u00c3\u00a0 Ordures","osm_id":"6676462299","tag":{"amenity":"waste_disposal"}},"type":"Feature"},
	{"geometry":{"coordinates":[13.377334,9.324592],"type":"Point"},"properties":{"name":"Bac \u00c3\u00a0 Ordures","osm_id":"6676462300","tag":{"amenity":"waste_disposal"}},"type":"Feature"},
	{"geometry":{"coordinates":[13.378414,9.324976],"type":"Point"},"properties":{"name":"Bac \u00c3\u00a0 Ordures","osm_id":"6676462301","tag":{"amenity":"waste_disposal"}},"type":"Feature"},
	{"geometry":{"coordinates":[13.379601,9.325829],"type":"Point"},"properties":{"name":"Bac \u00c3\u00a0 Ordures","osm_id":"6676462302","tag":{"amenity":"waste_disposal"}},"type":"Feature"},
	{"geometry":{"coordinates":[13.379986,9.326482],"type":"Point"},"properties":{"name":"Bac \u00c3\u00a0 Ordures","osm_id":"6676462303","tag":{"amenity":"waste_disposal"}},"type":"Feature"},
	{"geometry":{"coordinates":[13.381951,9.328396],"type":"Point"},"properties":{"name":"Bacs","osm_id":"6676462304","tag":{"amenity":"waste_disposal"}},"type":"Feature"},
	{"geometry":{"coordinates":[13.383698,9.303737],"type":"Point"},"properties":{"name":"Bac \u00c3\u00a0 Ordures","osm_id":"6677005436","tag":{"amenity":"waste_disposal"}},"type":"Feature"},
	{"geometry":{"coordinates":[13.381167,9.302466],"type":"Point"},"properties":{"name":"Bac \u00c3\u00a0 Ordures","osm_id":"6677005437","tag":{"amenity":"waste_disposal"}},"type":"Feature"},
	{"geometry":{"coordinates":[13.381595,9.298153],"type":"Point"},"properties":{"name":"Bac \u00c3\u00a0 Ordures","osm_id":"6677005438","tag":{"amenity":"waste_disposal"}},"type":"Feature"},
	{"geometry":{"coordinates":[13.38397,9.29768],"type":"Point"},"properties":{"name":"Bac \u00c3\u00a0 Ordures","osm_id":"6677005439","tag":{"amenity":"waste_disposal"}},"type":"Feature"},
	{"geometry":{"coordinates":[13.38867,9.296817],"type":"Point"},"properties":{"name":"Bac \u00c3\u00a0 Ordures","osm_id":"6677005440","tag":{"amenity":"waste_disposal"}},"type":"Feature"},
	{"geometry":{"coordinates":[13.395217,9.291872],"type":"Point"},"properties":{"name":"Bac \u00c3\u00a0 Ordures","osm_id":"6677005441","tag":{"amenity":"waste_disposal"}},"type":"Feature"},
	{"geometry":{"coordinates":[13.383616,9.294014],"type":"Point"},"properties":{"name":"Bac \u00c3\u00a0 Ordures","osm_id":"6677005442","tag":{"amenity":"waste_disposal"}},"type":"Feature"},
	{"geometry":{"coordinates":[13.383037,9.292399],"type":"Point"},"properties":{"name":"Bac \u00c3\u00a0 Ordures","osm_id":"6677005443","tag":{"amenity":"waste_disposal"}},"type":"Feature"},
	{"geometry":{"coordinates":[13.386017,9.290228],"type":"Point"},"properties":{"name":"Bac \u00c3\u00a0 Ordures","osm_id":"6677005444","tag":{"amenity":"waste_disposal"}},"type":"Feature"},
	{"geometry":{"coordinates":[13.379161,9.293145],"type":"Point"},"properties":{"name":"Bac \u00c3\u00a0 Ordures","osm_id":"6677005445","tag":{"amenity":"waste_disposal"}},"type":"Feature"},
	{"geometry":{"coordinates":[13.376814,9.294114],"type":"Point"},"properties":{"name":"Bac \u00c3\u00a0 Ordures","osm_id":"6677005446","tag":{"amenity":"waste_disposal"}},"type":"Feature"},
	{"geometry":{"coordinates":[13.376417,9.294327],"type":"Point"},"properties":{"name":"Bac \u00c3\u00a0 Ordures","osm_id":"6677005447","tag":{"amenity":"waste_disposal"}},"type":"Feature"},
	{"geometry":{"coordinates":[13.371989,9.293714],"type":"Point"},"properties":{"name":"Bac \u00c3\u00a0 Ordures","osm_id":"6677005448","tag":{"amenity":"waste_disposal"}},"type":"Feature"},
	{"geometry":{"coordinates":[13.370382,9.293455],"type":"Point"},"properties":{"name":"Bac \u00c3\u00a0 Ordures","osm_id":"6677005449","tag":{"amenity":"waste_disposal"}},"type":"Feature"},
	{"geometry":{"coordinates":[13.373602,9.2923],"type":"Point"},"properties":{"name":"Bac \u00c3\u00a0 Ordures","osm_id":"6677005450","tag":{"amenity":"waste_disposal"}},"type":"Feature"},
	{"geometry":{"coordinates":[13.373907,9.292047],"type":"Point"},"properties":{"name":"Bac \u00c3\u00a0 Ordures","osm_id":"6677005451","tag":{"amenity":"waste_disposal"}},"type":"Feature"},
	{"geometry":{"coordinates":[13.375138,9.291492],"type":"Point"},"properties":{"name":"Bac \u00c3\u00a0 Ordures","osm_id":"6677005452","tag":{"amenity":"waste_disposal"}},"type":"Feature"},
	{"geometry":{"coordinates":[13.376802,9.289],"type":"Point"},"properties":{"name":"Bac \u00c3\u00a0 Ordures","osm_id":"6677005453","tag":{"amenity":"waste_disposal"}},"type":"Feature"},
	{"geometry":{"coordinates":[13.381463,9.286138],"type":"Point"},"properties":{"name":"Bac \u00c3\u00a0 Ordures","osm_id":"6677005454","tag":{"amenity":"waste_disposal"}},"type":"Feature"},
	{"geometry":{"coordinates":[13.383226,9.284513],"type":"Point"},"properties":{"name":"Bac \u00c3\u00a0 Ordures","osm_id":"6677005455","tag":{"amenity":"waste_disposal"}},"type":"Feature"},
	{"geometry":{"coordinates":[13.381854,9.284613],"type":"Point"},"properties":{"name":"Bac \u00c3\u00a0 Ordures","osm_id":"6677005456","tag":{"amenity":"waste_disposal"}},"type":"Feature"},
	{"geometry":{"coordinates":[13.381615,9.283725],"type":"Point"},"properties":{"name":"Bac \u00c3\u00a0 Ordures","osm_id":"6677005457","tag":{"amenity":"waste_disposal"}},"type":"Feature"},
	{"geometry":{"coordinates":[13.375593,9.307739],"type":"Point"},"properties":{"name":"Bac \u00c3\u00a0 Ordures","osm_id":"6683945319","tag":{"amenity":"waste_disposal"}},"type":"Feature"},
	{"geometry":{"coordinates":[13.378254,9.307084],"type":"Point"},"properties":{"name":"Bac \u00c3\u00a0 Ordures","osm_id":"6683945320","tag":{"amenity":"waste_disposal"}},"type":"Feature"},
	{"geometry":{"coordinates":[13.377637,9.325473],"type":"Point"},"properties":{"name":"Bac \u00c3\u00a0 Ordures","osm_id":"6683957660","tag":{"amenity":"waste_disposal"}},"type":"Feature"},
	{"geometry":{"coordinates":[13.3932,9.309814],"type":"Point"},"properties":{"name":"Bac \u00c3\u00a0 Ordures","osm_id":"6683957661","tag":{"amenity":"waste_disposal"}},"type":"Feature"},
	{"geometry":{"coordinates":[13.388196,9.292595],"type":"Point"},"properties":{"name":"Tas Sauvage","osm_id":"6684884937","tag":{"amenity":"waste_basket"}},"type":"Feature"},
	{"geometry":{"coordinates":[13.362078,9.317546],"type":"Point"},"properties":{"name":"Tas sauvage","osm_id":"6684884938","tag":{"amenity":"waste_basket"}},"type":"Feature"},
	{"geometry":{"coordinates":[13.361085,9.318751],"type":"Point"},"properties":{"name":"Tas sauvage","osm_id":"6684884939","tag":{"amenity":"waste_basket"}},"type":"Feature"},
	{"geometry":{"coordinates":[13.374325,9.306896],"type":"Point"},"properties":{"name":"Tas Sauvage","osm_id":"6684884944","tag":{"amenity":"waste_basket"}},"type":"Feature"},
	{"geometry":{"coordinates":[13.373221,9.305519],"type":"Point"},"properties":{"name":"Tas Sauvage","osm_id":"6684884945","tag":{"amenity":"waste_basket"}},"type":"Feature"},
	{"geometry":{"coordinates":[13.372328,9.304987],"type":"Point"},"properties":{"name":"Tas Sauvage","osm_id":"6684884946","tag":{"amenity":"waste_basket"}},"type":"Feature"},
	{"geometry":{"coordinates":[13.37312,9.304978],"type":"Point"},"properties":{"name":"Tas Sauvage","osm_id":"6684884947","tag":{"amenity":"waste_basket"}},"type":"Feature"},
	{"geometry":{"coordinates":[13.374244,9.305575],"type":"Point"},"properties":{"name":"Tas Sauvage","osm_id":"6684884948","tag":{"amenity":"waste_basket"}},"type":"Feature"},
	{"geometry":{"coordinates":[13.374771,9.304867],"type":"Point"},"properties":{"name":"Tas Sauvage","osm_id":"6684884949","tag":{"amenity":"waste_basket"}},"type":"Feature"},
	{"geometry":{"coordinates":[13.374954,9.304694],"type":"Point"},"properties":{"name":"Tas Sauvage","osm_id":"6684884950","tag":{"amenity":"waste_basket"}},"type":"Feature"},
	{"geometry":{"coordinates":[13.374714,9.302363],"type":"Point"},"properties":{"name":"Tas Sauvage","osm_id":"6684884951","tag":{"amenity":"waste_basket"}},"type":"Feature"},
	{"geometry":{"coordinates":[13.373264,9.303111],"type":"Point"},"properties":{"name":"Tas Sauvage","osm_id":"6684884952","tag":{"amenity":"waste_basket"}},"type":"Feature"},
	{"geometry":{"coordinates":[13.371946,9.303403],"type":"Point"},"properties":{"name":"Tas Sauvage","osm_id":"6684884953","tag":{"amenity":"waste_basket"}},"type":"Feature"},
	{"geometry":{"coordinates":[13.370759,9.303537],"type":"Point"},"properties":{"name":"Tas Sauvage","osm_id":"6684884954","tag":{"amenity":"waste_basket"}},"type":"Feature"},
	{"geometry":{"coordinates":[13.370707,9.303988],"type":"Point"},"properties":{"name":"Tas Sauvage","osm_id":"6684884955","tag":{"amenity":"waste_basket"}},"type":"Feature"},
	{"geometry":{"coordinates":[13.369354,9.304346],"type":"Point"},"properties":{"name":"Tas Sauvage","osm_id":"6684884956","tag":{"amenity":"waste_basket"}},"type":"Feature"},
	{"geometry":{"coordinates":[13.367242,9.304943],"type":"Point"},"properties":{"name":"Tas Sauvage","osm_id":"6684884957","tag":{"amenity":"waste_basket"}},"type":"Feature"},
	{"geometry":{"coordinates":[13.363875,9.308353],"type":"Point"},"properties":{"name":"Tas Sauvage","osm_id":"6684884958","tag":{"amenity":"waste_basket"}},"type":"Feature"},
	{"geometry":{"coordinates":[13.362594,9.308028],"type":"Point"},"properties":{"name":"Tas Sauvage","osm_id":"6684884959","tag":{"amenity":"waste_basket"}},"type":"Feature"},
	{"geometry":{"coordinates":[13.363472,9.30457],"type":"Point"},"properties":{"name":"Tas Sauvage","osm_id":"6684884961","tag":{"amenity":"waste_basket"}},"type":"Feature"},
	{"geometry":{"coordinates":[13.361392,9.303604],"type":"Point"},"properties":{"name":"Tas Sauvage","osm_id":"6684884962","tag":{"amenity":"waste_basket"}},"type":"Feature"},
	{"geometry":{"coordinates":[13.36674,9.302595],"type":"Point"},"properties":{"name":"Tas Sauvage","osm_id":"6684884963","tag":{"amenity":"waste_basket"}},"type":"Feature"},
	{"geometry":{"coordinates":[13.36847,9.301977],"type":"Point"},"properties":{"name":"Tas Sauvage","osm_id":"6684884964","tag":{"amenity":"waste_basket"}},"type":"Feature"},
	{"geometry":{"coordinates":[13.367769,9.300899],"type":"Point"},"properties":{"name":"Tas Sauvage","osm_id":"6684884965","tag":{"amenity":"waste_basket"}},"type":"Feature"},
	{"geometry":{"coordinates":[13.365473,9.300674],"type":"Point"},"properties":{"name":"Tas Sauvage","osm_id":"6684884966","tag":{"amenity":"waste_basket"}},"type":"Feature"},
	{"geometry":{"coordinates":[13.36594,9.300408],"type":"Point"},"properties":{"name":"Tas Sauvage","osm_id":"6684884967","tag":{"amenity":"waste_basket"}},"type":"Feature"},
	{"geometry":{"coordinates":[13.366271,9.299909],"type":"Point"},"properties":{"name":"Tas Sauvage","osm_id":"6684884968","tag":{"amenity":"waste_basket"}},"type":"Feature"},
	{"geometry":{"coordinates":[13.365096,9.299069],"type":"Point"},"properties":{"name":"Tas Sauvage","osm_id":"6684884969","tag":{"amenity":"waste_basket"}},"type":"Feature"},
	{"geometry":{"coordinates":[13.367007,9.295474],"type":"Point"},"properties":{"name":"Tas Sauvage","osm_id":"6684884970","tag":{"amenity":"waste_basket"}},"type":"Feature"},
	{"geometry":{"coordinates":[13.366619,9.29704],"type":"Point"},"properties":{"name":"Tas Sauvage","osm_id":"6684884971","tag":{"amenity":"waste_basket"}},"type":"Feature"},
	{"geometry":{"coordinates":[13.366601,9.29735],"type":"Point"},"properties":{"name":"Tas Sauvage","osm_id":"6684884972","tag":{"amenity":"waste_basket"}},"type":"Feature"},
	{"geometry":{"coordinates":[13.36733,9.298963],"type":"Point"},"properties":{"name":"Tas Sauvage","osm_id":"6684884973","tag":{"amenity":"waste_basket"}},"type":"Feature"},
	{"geometry":{"coordinates":[13.369173,9.299704],"type":"Point"},"properties":{"name":"Tas Sauvage","osm_id":"6684884974","tag":{"amenity":"waste_basket"}},"type":"Feature"},
	{"geometry":{"coordinates":[13.369735,9.299828],"type":"Point"},"properties":{"name":"Tas Sauvage","osm_id":"6684884975","tag":{"amenity":"waste_basket"}},"type":"Feature"},
	{"geometry":{"coordinates":[13.370877,9.29843],"type":"Point"},"properties":{"name":"Tas Sauvagr","osm_id":"6684884976","tag":{"amenity":"waste_basket"}},"type":"Feature"},
	{"geometry":{"coordinates":[13.373876,9.299207],"type":"Point"},"properties":{"name":"Tas Sauvage","osm_id":"6684884977","tag":{"amenity":"waste_basket"}},"type":"Feature"},
	{"geometry":{"coordinates":[13.373935,9.298824],"type":"Point"},"properties":{"name":"Tas Sauvage","osm_id":"6684884978","tag":{"amenity":"waste_basket"}},"type":"Feature"},
	{"geometry":{"coordinates":[13.372901,9.297887],"type":"Point"},"properties":{"name":"Tas Sauvage","osm_id":"6684884979","tag":{"amenity":"waste_basket"}},"type":"Feature"},
	{"geometry":{"coordinates":[13.375969,9.298446],"type":"Point"},"properties":{"name":"Tas Sauvage","osm_id":"6684884980","tag":{"amenity":"waste_basket"}},"type":"Feature"},
	{"geometry":{"coordinates":[13.374981,9.298174],"type":"Point"},"properties":{"name":"Tas Sauvage","osm_id":"6684884981","tag":{"amenity":"waste_basket"}},"type":"Feature"},
	{"geometry":{"coordinates":[13.375028,9.297964],"type":"Point"},"properties":{"name":"Tas Sauvage","osm_id":"6684884982","tag":{"amenity":"waste_basket"}},"type":"Feature"},
	{"geometry":{"coordinates":[13.374672,9.297096],"type":"Point"},"properties":{"name":"Tas Sauvage","osm_id":"6684884983","tag":{"amenity":"waste_basket"}},"type":"Feature"},
	{"geometry":{"coordinates":[13.375215,9.297178],"type":"Point"},"properties":{"name":"Tas Sauvage","osm_id":"6684884984","tag":{"amenity":"waste_basket"}},"type":"Feature"},
	{"geometry":{"coordinates":[13.376065,9.297114],"type":"Point"},"properties":{"name":"Tas De D\u00c3\u00a9chets","osm_id":"6684912385","tag":{"amenity":"waste_basket"}},"type":"Feature"},
	{"geometry":{"coordinates":[13.401,9.301446],"type":"Point"},"properties":{"name":"Tas Sauvage","osm_id":"6684912386","tag":{"amenity":"waste_basket"}},"type":"Feature"},
	{"geometry":{"coordinates":[13.396585,9.295922],"type":"Point"},"properties":{"name":"Tas Sauvage","osm_id":"6684912387","tag":{"amenity":"waste_basket"}},"type":"Feature"},
	{"geometry":{"coordinates":[13.395383,9.295924],"type":"Point"},"properties":{"name":"Tas Sauvage","osm_id":"6684912388","tag":{"amenity":"waste_basket"}},"type":"Feature"},
	{"geometry":{"coordinates":[13.402802,9.299414],"type":"Point"},"properties":{"osm_id":"6745916923","tag":{"amenity":"waste_disposal"}},"type":"Feature"},
	{"geometry":{"coordinates":[13.40358,9.300992],"type":"Point"},"properties":{"osm_id":"6745916924","tag":{"amenity":"waste_disposal"}},"type":"Feature"},
	{"geometry":{"coordinates":[13.404193,9.303076],"type":"Point"},"properties":{"osm_id":"6745916925","tag":{"amenity":"waste_disposal"}},"type":"Feature"},
	{"geometry":{"coordinates":[13.402774,9.307076],"type":"Point"},"properties":{"osm_id":"6745916926","tag":{"amenity":"waste_disposal"}},"type":"Feature"},
	{"geometry":{"coordinates":[13.40078,9.304999],"type":"Point"},"properties":{"osm_id":"6745916927","tag":{"amenity":"waste_disposal"}},"type":"Feature"},
	{"geometry":{"coordinates":[13.399261,9.305647],"type":"Point"},"properties":{"osm_id":"6745916928","tag":{"amenity":"waste_disposal"}},"type":"Feature"},
	{"geometry":{"coordinates":[13.396493,9.308451],"type":"Point"},"properties":{"osm_id":"6745916929","tag":{"amenity":"waste_disposal"}},"type":"Feature"},
	{"geometry":{"coordinates":[13.401705,9.309428],"type":"Point"},"properties":{"osm_id":"6745916930","tag":{"amenity":"waste_disposal"}},"type":"Feature"},
	{"geometry":{"coordinates":[13.399465,9.309707],"type":"Point"},"properties":{"osm_id":"6745916931","tag":{"amenity":"waste_disposal"}},"type":"Feature"},
	{"geometry":{"coordinates":[13.400483,9.311338],"type":"Point"},"properties":{"osm_id":"6745916932","tag":{"amenity":"waste_disposal"}},"type":"Feature"},
	{"geometry":{"coordinates":[13.404393,9.311651],"type":"Point"},"properties":{"osm_id":"6745916933","tag":{"amenity":"waste_disposal"}},"type":"Feature"},
	{"geometry":{"coordinates":[13.406121,9.313935],"type":"Point"},"properties":{"osm_id":"6745916934","tag":{"amenity":"waste_disposal"}},"type":"Feature"},
	{"geometry":{"coordinates":[13.395966,9.311521],"type":"Point"},"properties":{"osm_id":"6745916935","tag":{"amenity":"waste_disposal"}},"type":"Feature"},
	{"geometry":{"coordinates":[13.394542,9.312942],"type":"Point"},"properties":{"osm_id":"6745916936","tag":{"amenity":"waste_disposal"}},"type":"Feature"},
	{"geometry":{"coordinates":[13.401169,9.31428],"type":"Point"},"properties":{"osm_id":"6745916937","tag":{"amenity":"waste_disposal"}},"type":"Feature"},
	{"geometry":{"coordinates":[13.398934,9.318705],"type":"Point"},"properties":{"osm_id":"6745916938","tag":{"amenity":"waste_disposal"}},"type":"Feature"},
	{"geometry":{"coordinates":[13.397109,9.315825],"type":"Point"},"properties":{"osm_id":"6745916939","tag":{"amenity":"waste_disposal"}},"type":"Feature"},
	{"geometry":{"coordinates":[13.392767,9.317545],"type":"Point"},"properties":{"osm_id":"6745916940","tag":{"amenity":"waste_disposal"}},"type":"Feature"},
	{"geometry":{"coordinates":[13.3917,9.326064],"type":"Point"},"properties":{"osm_id":"6745916941","tag":{"amenity":"waste_disposal"}},"type":"Feature"},
	{"geometry":{"coordinates":[13.404139,9.319435],"type":"Point"},"properties":{"osm_id":"6745916942","tag":{"amenity":"waste_disposal"}},"type":"Feature"},
	{"geometry":{"coordinates":[13.404782,9.318296],"type":"Point"},"properties":{"osm_id":"6745916943","tag":{"amenity":"waste_disposal"}},"type":"Feature"},
	{"geometry":{"coordinates":[13.406921,9.319116],"type":"Point"},"properties":{"osm_id":"6745916944","tag":{"amenity":"waste_disposal"}},"type":"Feature"},
	{"geometry":{"coordinates":[13.400679,9.320387],"type":"Point"},"properties":{"osm_id":"6745916945","tag":{"amenity":"waste_disposal"}},"type":"Feature"},
	{"geometry":{"coordinates":[13.408591,9.31931],"type":"Point"},"properties":{"osm_id":"6745916946","tag":{"amenity":"waste_disposal"}},"type":"Feature"},
	{"geometry":{"coordinates":[13.402897,9.316528],"type":"Point"},"properties":{"osm_id":"6745916947","tag":{"amenity":"waste_disposal"}},"type":"Feature"},
	{"geometry":{"coordinates":[13.407169,9.314983],"type":"Point"},"properties":{"osm_id":"6745916948","tag":{"amenity":"waste_disposal"}},"type":"Feature"},
	{"geometry":{"coordinates":[13.409209,9.3226],"type":"Point"},"properties":{"osm_id":"6745916949","tag":{"amenity":"waste_disposal"}},"type":"Feature"},
	{"geometry":{"coordinates":[13.409946,9.320472],"type":"Point"},"properties":{"osm_id":"6745916950","tag":{"amenity":"waste_disposal"}},"type":"Feature"},
	{"geometry":{"coordinates":[13.408564,9.324511],"type":"Point"},"properties":{"osm_id":"6745916951","tag":{"amenity":"waste_disposal"}},"type":"Feature"},
	{"geometry":{"coordinates":[13.408591,9.325548],"type":"Point"},"properties":{"osm_id":"6745916952","tag":{"amenity":"waste_disposal"}},"type":"Feature"},
	{"geometry":{"coordinates":[13.408865,9.328507],"type":"Point"},"properties":{"osm_id":"6745916953","tag":{"amenity":"waste_disposal"}},"type":"Feature"},
	{"geometry":{"coordinates":[13.408306,9.331346],"type":"Point"},"properties":{"osm_id":"6745916954","tag":{"amenity":"waste_disposal"}},"type":"Feature"},
	{"geometry":{"coordinates":[13.407927,9.325906],"type":"Point"},"properties":{"osm_id":"6745916955","tag":{"amenity":"waste_disposal"}},"type":"Feature"},
	{"geometry":{"coordinates":[13.413157,9.332449],"type":"Point"},"properties":{"osm_id":"6745916956","tag":{"amenity":"waste_disposal"}},"type":"Feature"},
	{"geometry":{"coordinates":[13.414277,9.333693],"type":"Point"},"properties":{"osm_id":"6745916957","tag":{"amenity":"waste_disposal"}},"type":"Feature"},
	{"geometry":{"coordinates":[13.410135,9.336405],"type":"Point"},"properties":{"osm_id":"6745916958","tag":{"amenity":"waste_disposal"}},"type":"Feature"},
	{"geometry":{"coordinates":[13.422141,9.339525],"type":"Point"},"properties":{"osm_id":"6745916959","tag":{"amenity":"waste_disposal"}},"type":"Feature"},
	{"geometry":{"coordinates":[13.41369,9.347056],"type":"Point"},"properties":{"osm_id":"6745916960","tag":{"amenity":"waste_disposal"}},"type":"Feature"},
	{"geometry":{"coordinates":[13.395732,9.346391],"type":"Point"},"properties":{"osm_id":"6745916961","tag":{"amenity":"waste_disposal"}},"type":"Feature"},
	{"geometry":{"coordinates":[13.38966,9.334276],"type":"Point"},"properties":{"osm_id":"6745916962","tag":{"amenity":"waste_disposal"}},"type":"Feature"},
	{"geometry":{"coordinates":[13.394195,9.332003],"type":"Point"},"properties":{"osm_id":"6745916963","tag":{"amenity":"waste_disposal"}},"type":"Feature"},
	{"geometry":{"coordinates":[13.392668,9.332785],"type":"Point"},"properties":{"osm_id":"6745916964","tag":{"amenity":"waste_disposal"}},"type":"Feature"},
	{"geometry":{"coordinates":[13.39267,9.332811],"type":"Point"},"properties":{"osm_id":"6745916965","tag":{"amenity":"waste_disposal"}},"type":"Feature"},
	{"geometry":{"coordinates":[13.399329,9.333161],"type":"Point"},"properties":{"osm_id":"6745916966","tag":{"amenity":"waste_disposal"}},"type":"Feature"},
	{"geometry":{"coordinates":[13.400277,9.334151],"type":"Point"},"properties":{"osm_id":"6745916967","tag":{"amenity":"waste_disposal"}},"type":"Feature"},
	{"geometry":{"coordinates":[13.401583,9.335115],"type":"Point"},"properties":{"osm_id":"6745916968","tag":{"amenity":"waste_disposal"}},"type":"Feature"},
	{"geometry":{"coordinates":[13.397062,9.333402],"type":"Point"},"properties":{"osm_id":"6745916969","tag":{"amenity":"waste_disposal"}},"type":"Feature"},
	{"geometry":{"coordinates":[13.396211,9.335086],"type":"Point"},"properties":{"osm_id":"6745916970","tag":{"amenity":"waste_disposal"}},"type":"Feature"},
	{"geometry":{"coordinates":[13.40131,9.340856],"type":"Point"},"properties":{"osm_id":"6745916971","tag":{"amenity":"waste_disposal"}},"type":"Feature"},
	{"geometry":{"coordinates":[13.39803,9.341221],"type":"Point"},"properties":{"osm_id":"6745916972","tag":{"amenity":"waste_disposal"}},"type":"Feature"},
	{"geometry":{"coordinates":[13.40197,9.338694],"type":"Point"},"properties":{"osm_id":"6745916973","tag":{"amenity":"waste_disposal"}},"type":"Feature"},
	{"geometry":{"coordinates":[13.404095,9.347778],"type":"Point"},"properties":{"osm_id":"6745916974","tag":{"amenity":"waste_disposal"}},"type":"Feature"},
	{"geometry":{"coordinates":[13.405614,9.348152],"type":"Point"},"properties":{"osm_id":"6745916975","tag":{"amenity":"waste_disposal"}},"type":"Feature"},
	{"geometry":{"coordinates":[13.403715,9.347892],"type":"Point"},"properties":{"osm_id":"6745916976","tag":{"amenity":"waste_disposal"}},"type":"Feature"},
	{"geometry":{"coordinates":[13.413008,9.340914],"type":"Point"},"properties":{"osm_id":"6745916977","tag":{"amenity":"waste_disposal"}},"type":"Feature"},
	{"geometry":{"coordinates":[13.41989,9.346664],"type":"Point"},"properties":{"osm_id":"6745916978","tag":{"amenity":"waste_disposal"}},"type":"Feature"},
	{"geometry":{"coordinates":[13.416899,9.353209],"type":"Point"},"properties":{"osm_id":"6745916979","tag":{"amenity":"waste_disposal"}},"type":"Feature"},
	{"geometry":{"coordinates":[13.429601,9.344293],"type":"Point"},"properties":{"osm_id":"6745916980","tag":{"amenity":"waste_disposal"}},"type":"Feature"},
	{"geometry":{"coordinates":[13.432896,9.346104],"type":"Point"},"properties":{"osm_id":"6745916981","tag":{"amenity":"waste_disposal"}},"type":"Feature"},
	{"geometry":{"coordinates":[13.431831,9.345301],"type":"Point"},"properties":{"osm_id":"6745916982","tag":{"amenity":"waste_disposal"}},"type":"Feature"},
	{"geometry":{"coordinates":[13.437434,9.351157],"type":"Point"},"properties":{"osm_id":"6745916983","tag":{"amenity":"waste_disposal"}},"type":"Feature"},
	{"geometry":{"coordinates":[13.394473,9.353861],"type":"Point"},"properties":{"osm_id":"6746675598","tag":{"amenity":"waste_basket"}},"type":"Feature"},
	{"geometry":{"coordinates":[13.412971,9.3223],"type":"Point"},"properties":{"osm_id":"6746675599","tag":{"amenity":"waste_basket"}},"type":"Feature"},
	{"geometry":{"coordinates":[13.410909,9.324729],"type":"Point"},"properties":{"osm_id":"6746675600","tag":{"amenity":"waste_basket"}},"type":"Feature"},
	{"geometry":{"coordinates":[13.411865,9.324188],"type":"Point"},"properties":{"osm_id":"6746675601","tag":{"amenity":"waste_basket"}},"type":"Feature"},
	{"geometry":{"coordinates":[13.412998,9.325121],"type":"Point"},"properties":{"osm_id":"6746675602","tag":{"amenity":"waste_basket"}},"type":"Feature"},
	{"geometry":{"coordinates":[13.410493,9.32603],"type":"Point"},"properties":{"osm_id":"6746675603","tag":{"amenity":"waste_basket"}},"type":"Feature"},
	{"geometry":{"coordinates":[13.413939,9.328421],"type":"Point"},"properties":{"osm_id":"6746675604","tag":{"amenity":"waste_basket"}},"type":"Feature"},
	{"geometry":{"coordinates":[13.411653,9.3278],"type":"Point"},"properties":{"osm_id":"6746675605","tag":{"amenity":"waste_basket"}},"type":"Feature"},
	{"geometry":{"coordinates":[13.415536,9.329079],"type":"Point"},"properties":{"osm_id":"6746675606","tag":{"amenity":"waste_basket"}},"type":"Feature"},
	{"geometry":{"coordinates":[13.413295,9.32842],"type":"Point"},"properties":{"osm_id":"6746675607","tag":{"amenity":"waste_basket"}},"type":"Feature"},
	{"geometry":{"coordinates":[13.414394,9.330491],"type":"Point"},"properties":{"osm_id":"6746675608","tag":{"amenity":"waste_basket"}},"type":"Feature"},
	{"geometry":{"coordinates":[13.415855,9.330333],"type":"Point"},"properties":{"osm_id":"6746675609","tag":{"amenity":"waste_basket"}},"type":"Feature"},
	{"geometry":{"coordinates":[13.413008,9.330949],"type":"Point"},"properties":{"osm_id":"6746675610","tag":{"amenity":"waste_basket"}},"type":"Feature"},
	{"geometry":{"coordinates":[13.412695,9.333839],"type":"Point"},"properties":{"osm_id":"6746675611","tag":{"amenity":"waste_basket"}},"type":"Feature"},
	{"geometry":{"coordinates":[13.416116,9.330824],"type":"Point"},"properties":{"osm_id":"6746675612","tag":{"amenity":"waste_basket"}},"type":"Feature"},
	{"geometry":{"coordinates":[13.415007,9.332533],"type":"Point"},"properties":{"osm_id":"6746675613","tag":{"amenity":"waste_basket"}},"type":"Feature"},
	{"geometry":{"coordinates":[13.417349,9.333651],"type":"Point"},"properties":{"osm_id":"6746675614","tag":{"amenity":"waste_basket"}},"type":"Feature"},
	{"geometry":{"coordinates":[13.418032,9.333908],"type":"Point"},"properties":{"osm_id":"6746675615","tag":{"amenity":"waste_basket"}},"type":"Feature"},
	{"geometry":{"coordinates":[13.417744,9.335309],"type":"Point"},"properties":{"osm_id":"6746675616","tag":{"amenity":"waste_basket"}},"type":"Feature"},
	{"geometry":{"coordinates":[13.416958,9.332536],"type":"Point"},"properties":{"osm_id":"6746675617","tag":{"amenity":"waste_basket"}},"type":"Feature"},
	{"geometry":{"coordinates":[13.404073,9.32931],"type":"Point"},"properties":{"osm_id":"6746675618","tag":{"amenity":"waste_basket"}},"type":"Feature"},
	{"geometry":{"coordinates":[13.403983,9.330534],"type":"Point"},"properties":{"osm_id":"6746675619","tag":{"amenity":"waste_basket"}},"type":"Feature"},
	{"geometry":{"coordinates":[13.407112,9.331847],"type":"Point"},"properties":{"osm_id":"6746675620","tag":{"amenity":"waste_basket"}},"type":"Feature"},
	{"geometry":{"coordinates":[13.406547,9.331524],"type":"Point"},"properties":{"osm_id":"6746675621","tag":{"amenity":"waste_basket"}},"type":"Feature"},
	{"geometry":{"coordinates":[13.406003,9.332559],"type":"Point"},"properties":{"osm_id":"6746675622","tag":{"amenity":"waste_basket"}},"type":"Feature"},
	{"geometry":{"coordinates":[13.405825,9.333988],"type":"Point"},"properties":{"osm_id":"6746675623","tag":{"amenity":"waste_basket"}},"type":"Feature"},
	{"geometry":{"coordinates":[13.406099,9.330904],"type":"Point"},"properties":{"osm_id":"6746675624","tag":{"amenity":"waste_basket"}},"type":"Feature"},
	{"geometry":{"coordinates":[13.408564,9.333342],"type":"Point"},"properties":{"osm_id":"6746675625","tag":{"amenity":"waste_basket"}},"type":"Feature"},
	{"geometry":{"coordinates":[13.407414,9.333617],"type":"Point"},"properties":{"osm_id":"6746675626","tag":{"amenity":"waste_basket"}},"type":"Feature"},
	{"geometry":{"coordinates":[13.409113,9.335403],"type":"Point"},"properties":{"osm_id":"6746675627","tag":{"amenity":"waste_basket"}},"type":"Feature"},
	{"geometry":{"coordinates":[13.409252,9.332266],"type":"Point"},"properties":{"osm_id":"6746675628","tag":{"amenity":"waste_basket"}},"type":"Feature"},
	{"geometry":{"coordinates":[13.410595,9.334975],"type":"Point"},"properties":{"osm_id":"6746675629","tag":{"amenity":"waste_basket"}},"type":"Feature"},
	{"geometry":{"coordinates":[13.400974,9.334622],"type":"Point"},"properties":{"osm_id":"6746675630","tag":{"amenity":"waste_basket"}},"type":"Feature"},
	{"geometry":{"coordinates":[13.396031,9.334886],"type":"Point"},"properties":{"osm_id":"6746675631","tag":{"amenity":"waste_basket"}},"type":"Feature"},
	{"geometry":{"coordinates":[13.39862,9.338577],"type":"Point"},"properties":{"osm_id":"6746675632","tag":{"amenity":"waste_basket"}},"type":"Feature"},
	{"geometry":{"coordinates":[13.399989,9.339742],"type":"Point"},"properties":{"osm_id":"6746675633","tag":{"amenity":"waste_basket"}},"type":"Feature"},
	{"geometry":{"coordinates":[13.399139,9.341033],"type":"Point"},"properties":{"osm_id":"6746675634","tag":{"amenity":"waste_basket"}},"type":"Feature"},
	{"geometry":{"coordinates":[13.403751,9.336132],"type":"Point"},"properties":{"osm_id":"6746675635","tag":{"amenity":"waste_basket"}},"type":"Feature"},
	{"geometry":{"coordinates":[13.404672,9.334605],"type":"Point"},"properties":{"osm_id":"6746675636","tag":{"amenity":"waste_basket"}},"type":"Feature"},
	{"geometry":{"coordinates":[13.403432,9.337023],"type":"Point"},"properties":{"osm_id":"6746675637","tag":{"amenity":"waste_basket"}},"type":"Feature"},
	{"geometry":{"coordinates":[13.403014,9.337718],"type":"Point"},"properties":{"osm_id":"6746675638","tag":{"amenity":"waste_basket"}},"type":"Feature"},
	{"geometry":{"coordinates":[13.405043,9.335248],"type":"Point"},"properties":{"osm_id":"6746675639","tag":{"amenity":"waste_basket"}},"type":"Feature"},
	{"geometry":{"coordinates":[13.4024,9.335717],"type":"Point"},"properties":{"osm_id":"6746675640","tag":{"amenity":"waste_basket"}},"type":"Feature"},
	{"geometry":{"coordinates":[13.40575,9.33688],"type":"Point"},"properties":{"osm_id":"6746675641","tag":{"amenity":"waste_basket"}},"type":"Feature"},
	{"geometry":{"coordinates":[13.40542,9.338236],"type":"Point"},"properties":{"osm_id":"6746675642","tag":{"amenity":"waste_basket"}},"type":"Feature"},
	{"geometry":{"coordinates":[13.407298,9.33542],"type":"Point"},"properties":{"osm_id":"6746675643","tag":{"amenity":"waste_basket"}},"type":"Feature"},
	{"geometry":{"coordinates":[13.407154,9.338286],"type":"Point"},"properties":{"osm_id":"6746675644","tag":{"amenity":"waste_basket"}},"type":"Feature"},
	{"geometry":{"coordinates":[13.406113,9.335769],"type":"Point"},"properties":{"osm_id":"6746675645","tag":{"amenity":"waste_basket"}},"type":"Feature"},
	{"geometry":{"coordinates":[13.406477,9.336106],"type":"Point"},"properties":{"osm_id":"6746675646","tag":{"amenity":"waste_basket"}},"type":"Feature"},
	{"geometry":{"coordinates":[13.408419,9.33621],"type":"Point"},"properties":{"osm_id":"6746675647","tag":{"amenity":"waste_basket"}},"type":"Feature"},
	{"geometry":{"coordinates":[13.406993,9.336651],"type":"Point"},"properties":{"osm_id":"6746675648","tag":{"amenity":"waste_basket"}},"type":"Feature"},
	{"geometry":{"coordinates":[13.407588,9.337],"type":"Point"},"properties":{"osm_id":"6746675649","tag":{"amenity":"waste_basket"}},"type":"Feature"},
	{"geometry":{"coordinates":[13.394848,9.343164],"type":"Point"},"properties":{"osm_id":"6746675650","tag":{"amenity":"waste_basket"}},"type":"Feature"},
	{"geometry":{"coordinates":[13.394987,9.342543],"type":"Point"},"properties":{"osm_id":"6746675651","tag":{"amenity":"waste_basket"}},"type":"Feature"},
	{"geometry":{"coordinates":[13.394772,9.34437],"type":"Point"},"properties":{"osm_id":"6746675652","tag":{"amenity":"waste_basket"}},"type":"Feature"},
	{"geometry":{"coordinates":[13.399609,9.346825],"type":"Point"},"properties":{"osm_id":"6746675653","tag":{"amenity":"waste_basket"}},"type":"Feature"},
	{"geometry":{"coordinates":[13.402025,9.345265],"type":"Point"},"properties":{"osm_id":"6746675654","tag":{"amenity":"waste_basket"}},"type":"Feature"},
	{"geometry":{"coordinates":[13.404228,9.343465],"type":"Point"},"properties":{"osm_id":"6746675655","tag":{"amenity":"waste_basket"}},"type":"Feature"},
	{"geometry":{"coordinates":[13.406632,9.341015],"type":"Point"},"properties":{"osm_id":"6746675656","tag":{"amenity":"waste_basket"}},"type":"Feature"},
	{"geometry":{"coordinates":[13.404987,9.340533],"type":"Point"},"properties":{"osm_id":"6746675657","tag":{"amenity":"waste_basket"}},"type":"Feature"},
	{"geometry":{"coordinates":[13.405779,9.338816],"type":"Point"},"properties":{"osm_id":"6746675658","tag":{"amenity":"waste_basket"}},"type":"Feature"},
	{"geometry":{"coordinates":[13.40682,9.340914],"type":"Point"},"properties":{"osm_id":"6746675659","tag":{"amenity":"waste_basket"}},"type":"Feature"},
	{"geometry":{"coordinates":[13.408098,9.33912],"type":"Point"},"properties":{"osm_id":"6746675660","tag":{"amenity":"waste_basket"}},"type":"Feature"},
	{"geometry":{"coordinates":[13.407643,9.340189],"type":"Point"},"properties":{"osm_id":"6746675661","tag":{"amenity":"waste_basket"}},"type":"Feature"},
	{"geometry":{"coordinates":[13.404963,9.339765],"type":"Point"},"properties":{"osm_id":"6746675662","tag":{"amenity":"waste_basket"}},"type":"Feature"},
	{"geometry":{"coordinates":[13.410948,9.338456],"type":"Point"},"properties":{"osm_id":"6746675663","tag":{"amenity":"waste_basket"}},"type":"Feature"},
	{"geometry":{"coordinates":[13.409753,9.337546],"type":"Point"},"properties":{"osm_id":"6746675664","tag":{"amenity":"waste_basket"}},"type":"Feature"},
	{"geometry":{"coordinates":[13.410829,9.336659],"type":"Point"},"properties":{"osm_id":"6746675665","tag":{"amenity":"waste_basket"}},"type":"Feature"},
	{"geometry":{"coordinates":[13.412857,9.336096],"type":"Point"},"properties":{"osm_id":"6746675666","tag":{"amenity":"waste_basket"}},"type":"Feature"},
	{"geometry":{"coordinates":[13.411634,9.336443],"type":"Point"},"properties":{"osm_id":"6746675667","tag":{"amenity":"waste_basket"}},"type":"Feature"},
	{"geometry":{"coordinates":[13.415281,9.339882],"type":"Point"},"properties":{"osm_id":"6746675668","tag":{"amenity":"waste_basket"}},"type":"Feature"},
	{"geometry":{"coordinates":[13.413664,9.337387],"type":"Point"},"properties":{"osm_id":"6746675669","tag":{"amenity":"waste_basket"}},"type":"Feature"},
	{"geometry":{"coordinates":[13.409931,9.341236],"type":"Point"},"properties":{"osm_id":"6746675670","tag":{"amenity":"waste_basket"}},"type":"Feature"},
	{"geometry":{"coordinates":[13.40933,9.340039],"type":"Point"},"properties":{"osm_id":"6746675671","tag":{"amenity":"waste_basket"}},"type":"Feature"},
	{"geometry":{"coordinates":[13.410307,9.339407],"type":"Point"},"properties":{"osm_id":"6746675672","tag":{"amenity":"waste_basket"}},"type":"Feature"},
	{"geometry":{"coordinates":[13.41307,9.340423],"type":"Point"},"properties":{"osm_id":"6746675673","tag":{"amenity":"waste_basket"}},"type":"Feature"},
	{"geometry":{"coordinates":[13.411394,9.340624],"type":"Point"},"properties":{"osm_id":"6746675674","tag":{"amenity":"waste_basket"}},"type":"Feature"},
	{"geometry":{"coordinates":[13.412098,9.34105],"type":"Point"},"properties":{"osm_id":"6746675675","tag":{"amenity":"waste_basket"}},"type":"Feature"},
	{"geometry":{"coordinates":[13.416779,9.341424],"type":"Point"},"properties":{"osm_id":"6746675676","tag":{"amenity":"waste_basket"}},"type":"Feature"},
	{"geometry":{"coordinates":[13.419458,9.34236],"type":"Point"},"properties":{"osm_id":"6746675677","tag":{"amenity":"waste_basket"}},"type":"Feature"},
	{"geometry":{"coordinates":[13.419478,9.340054],"type":"Point"},"properties":{"osm_id":"6746675678","tag":{"amenity":"waste_basket"}},"type":"Feature"},
	{"geometry":{"coordinates":[13.414458,9.341731],"type":"Point"},"properties":{"osm_id":"6746675679","tag":{"amenity":"waste_basket"}},"type":"Feature"},
	{"geometry":{"coordinates":[13.414821,9.342965],"type":"Point"},"properties":{"osm_id":"6746675680","tag":{"amenity":"waste_basket"}},"type":"Feature"},
	{"geometry":{"coordinates":[13.414339,9.344409],"type":"Point"},"properties":{"osm_id":"6746675681","tag":{"amenity":"waste_basket"}},"type":"Feature"},
	{"geometry":{"coordinates":[13.413026,9.342658],"type":"Point"},"properties":{"osm_id":"6746675682","tag":{"amenity":"waste_basket"}},"type":"Feature"},
	{"geometry":{"coordinates":[13.412955,9.341871],"type":"Point"},"properties":{"osm_id":"6746675683","tag":{"amenity":"waste_basket"}},"type":"Feature"},
	{"geometry":{"coordinates":[13.415401,9.359151],"type":"Point"},"properties":{"osm_id":"6746675684","tag":{"amenity":"waste_basket"}},"type":"Feature"},
	{"geometry":{"coordinates":[13.414674,9.357198],"type":"Point"},"properties":{"osm_id":"6746676585","tag":{"amenity":"waste_basket"}},"type":"Feature"},
	{"geometry":{"coordinates":[13.413486,9.356678],"type":"Point"},"properties":{"osm_id":"6746676586","tag":{"amenity":"waste_basket"}},"type":"Feature"},
	{"geometry":{"coordinates":[13.411571,9.360241],"type":"Point"},"properties":{"osm_id":"6746676587","tag":{"amenity":"waste_basket"}},"type":"Feature"},
	{"geometry":{"coordinates":[13.421555,9.361048],"type":"Point"},"properties":{"osm_id":"6746676590","tag":{"amenity":"waste_basket"}},"type":"Feature"},
	{"geometry":{"coordinates":[13.427233,9.358757],"type":"Point"},"properties":{"osm_id":"6746676595","tag":{"amenity":"waste_basket"}},"type":"Feature"},
	{"geometry":{"coordinates":[13.429612,9.358392],"type":"Point"},"properties":{"osm_id":"6746676596","tag":{"amenity":"waste_basket"}},"type":"Feature"},
	{"geometry":{"coordinates":[13.428891,9.359102],"type":"Point"},"properties":{"osm_id":"6746676597","tag":{"amenity":"waste_basket"}},"type":"Feature"},
	{"geometry":{"coordinates":[13.425531,9.361892],"type":"Point"},"properties":{"osm_id":"6746676600","tag":{"amenity":"waste_basket"}},"type":"Feature"},
	{"geometry":{"coordinates":[13.404602,9.302257],"type":"Point"},"properties":{"osm_id":"6752894296","tag":{"amenity":"waste_basket"}},"type":"Feature"},
	{"geometry":{"coordinates":[13.401909,9.304391],"type":"Point"},"properties":{"osm_id":"6752894297","tag":{"amenity":"waste_basket"}},"type":"Feature"},
	{"geometry":{"coordinates":[13.403852,9.306422],"type":"Point"},"properties":{"osm_id":"6752894298","tag":{"amenity":"waste_basket"}},"type":"Feature"},
	{"geometry":{"coordinates":[13.405864,9.307108],"type":"Point"},"properties":{"osm_id":"6752894299","tag":{"amenity":"waste_basket"}},"type":"Feature"},
	{"geometry":{"coordinates":[13.404888,9.307484],"type":"Point"},"properties":{"osm_id":"6752894300","tag":{"amenity":"waste_basket"}},"type":"Feature"},
	{"geometry":{"coordinates":[13.407705,9.31011],"type":"Point"},"properties":{"osm_id":"6752894301","tag":{"amenity":"waste_basket"}},"type":"Feature"},
	{"geometry":{"coordinates":[13.40499,9.310226],"type":"Point"},"properties":{"osm_id":"6752894302","tag":{"amenity":"waste_basket"}},"type":"Feature"},
	{"geometry":{"coordinates":[13.400987,9.313205],"type":"Point"},"properties":{"osm_id":"6752894303","tag":{"amenity":"waste_basket"}},"type":"Feature"},
	{"geometry":{"coordinates":[13.403354,9.311851],"type":"Point"},"properties":{"osm_id":"6752894304","tag":{"amenity":"waste_basket"}},"type":"Feature"},
	{"geometry":{"coordinates":[13.400757,9.312435],"type":"Point"},"properties":{"osm_id":"6752894305","tag":{"amenity":"waste_basket"}},"type":"Feature"},
	{"geometry":{"coordinates":[13.408813,9.313664],"type":"Point"},"properties":{"osm_id":"6752894306","tag":{"amenity":"waste_basket"}},"type":"Feature"},
	{"geometry":{"coordinates":[13.411631,9.31356],"type":"Point"},"properties":{"osm_id":"6752894307","tag":{"amenity":"waste_basket"}},"type":"Feature"},
	{"geometry":{"coordinates":[13.40395,9.31752],"type":"Point"},"properties":{"osm_id":"6752894308","tag":{"amenity":"waste_basket"}},"type":"Feature"},
	{"geometry":{"coordinates":[13.404206,9.317734],"type":"Point"},"properties":{"osm_id":"6752894309","tag":{"amenity":"waste_basket"}},"type":"Feature"},
	{"geometry":{"coordinates":[13.411937,9.318551],"type":"Point"},"properties":{"osm_id":"6752894310","tag":{"amenity":"waste_basket"}},"type":"Feature"},
	{"geometry":{"coordinates":[13.411277,9.315466],"type":"Point"},"properties":{"osm_id":"6752894311","tag":{"amenity":"waste_basket"}},"type":"Feature"},
	{"geometry":{"coordinates":[13.41005,9.316856],"type":"Point"},"properties":{"osm_id":"6752894312","tag":{"amenity":"waste_basket"}},"type":"Feature"},
	{"geometry":{"coordinates":[13.407844,9.317607],"type":"Point"},"properties":{"osm_id":"6752894313","tag":{"amenity":"waste_basket"}},"type":"Feature"},
	{"geometry":{"coordinates":[13.408225,9.318913],"type":"Point"},"properties":{"osm_id":"6752894314","tag":{"amenity":"waste_basket"}},"type":"Feature"},
	{"geometry":{"coordinates":[13.408055,9.320015],"type":"Point"},"properties":{"osm_id":"6752894315","tag":{"amenity":"waste_basket"}},"type":"Feature"},
	{"geometry":{"coordinates":[13.407526,9.319716],"type":"Point"},"properties":{"osm_id":"6752894316","tag":{"amenity":"waste_basket"}},"type":"Feature"},
	{"geometry":{"coordinates":[13.409627,9.31807],"type":"Point"},"properties":{"osm_id":"6752894317","tag":{"amenity":"waste_basket"}},"type":"Feature"},
	{"geometry":{"coordinates":[13.409444,9.323869],"type":"Point"},"properties":{"osm_id":"6752894318","tag":{"amenity":"waste_basket"}},"type":"Feature"},
	{"geometry":{"coordinates":[13.410932,9.322704],"type":"Point"},"properties":{"osm_id":"6752894319","tag":{"amenity":"waste_basket"}},"type":"Feature"},
	{"geometry":{"coordinates":[13.412318,9.321625],"type":"Point"},"properties":{"osm_id":"6752894320","tag":{"amenity":"waste_basket"}},"type":"Feature"},
	{"geometry":{"coordinates":[13.412861,9.322159],"type":"Point"},"properties":{"osm_id":"6752894321","tag":{"amenity":"waste_basket"}},"type":"Feature"},
	{"geometry":{"coordinates":[13.412351,9.319981],"type":"Point"},"properties":{"osm_id":"6752894322","tag":{"amenity":"waste_basket"}},"type":"Feature"},
	{"geometry":{"coordinates":[13.394515,9.316881],"type":"Point"},"properties":{"osm_id":"6752894323","tag":{"amenity":"waste_basket"}},"type":"Feature"},
	{"geometry":{"coordinates":[13.395122,9.31666],"type":"Point"},"properties":{"osm_id":"6752894324","tag":{"amenity":"waste_basket"}},"type":"Feature"},
	{"geometry":{"coordinates":[13.396469,9.32087],"type":"Point"},"properties":{"osm_id":"6752894325","tag":{"amenity":"waste_basket"}},"type":"Feature"},
	{"geometry":{"coordinates":[13.39577,9.318233],"type":"Point"},"properties":{"osm_id":"6752894326","tag":{"amenity":"waste_basket"}},"type":"Feature"},
	{"geometry":{"coordinates":[13.393056,9.321909],"type":"Point"},"properties":{"osm_id":"6752894327","tag":{"amenity":"waste_basket"}},"type":"Feature"},
	{"geometry":{"coordinates":[13.396087,9.321943],"type":"Point"},"properties":{"osm_id":"6752894328","tag":{"amenity":"waste_basket"}},"type":"Feature"},
	{"geometry":{"coordinates":[13.393933,9.319202],"type":"Point"},"properties":{"osm_id":"6752894329","tag":{"amenity":"waste_basket"}},"type":"Feature"},
	{"geometry":{"coordinates":[13.39421,9.318648],"type":"Point"},"properties":{"osm_id":"6752894330","tag":{"amenity":"waste_basket"}},"type":"Feature"},
	{"geometry":{"coordinates":[13.393717,9.321454],"type":"Point"},"properties":{"osm_id":"6752894331","tag":{"amenity":"waste_basket"}},"type":"Feature"},
	{"geometry":{"coordinates":[13.394801,9.319768],"type":"Point"},"properties":{"osm_id":"6752894332","tag":{"amenity":"waste_basket"}},"type":"Feature"},
	{"geometry":{"coordinates":[13.394001,9.323169],"type":"Point"},"properties":{"osm_id":"6752894333","tag":{"amenity":"waste_basket"}},"type":"Feature"},
	{"geometry":{"coordinates":[13.391768,9.320355],"type":"Point"},"properties":{"osm_id":"6752894334","tag":{"amenity":"waste_basket"}},"type":"Feature"},
	{"geometry":{"coordinates":[13.398634,9.321044],"type":"Point"},"properties":{"osm_id":"6752894335","tag":{"amenity":"waste_basket"}},"type":"Feature"},
	{"geometry":{"coordinates":[13.399431,9.321719],"type":"Point"},"properties":{"osm_id":"6752894336","tag":{"amenity":"waste_basket"}},"type":"Feature"},
	{"geometry":{"coordinates":[13.394583,9.32941],"type":"Point"},"properties":{"osm_id":"6752894337","tag":{"amenity":"waste_basket"}},"type":"Feature"},
	{"geometry":{"coordinates":[13.392562,9.334311],"type":"Point"},"properties":{"osm_id":"6752894338","tag":{"amenity":"waste_basket"}},"type":"Feature"},
	{"geometry":{"coordinates":[13.393654,9.333825],"type":"Point"},"properties":{"osm_id":"6752894339","tag":{"amenity":"waste_basket"}},"type":"Feature"},
	{"geometry":{"coordinates":[13.394028,9.330443],"type":"Point"},"properties":{"osm_id":"6752894340","tag":{"amenity":"waste_basket"}},"type":"Feature"},
	{"geometry":{"coordinates":[13.392519,9.331762],"type":"Point"},"properties":{"osm_id":"6752894341","tag":{"amenity":"waste_basket"}},"type":"Feature"},
	{"geometry":{"coordinates":[13.392584,9.333445],"type":"Point"},"properties":{"osm_id":"6752894342","tag":{"amenity":"waste_basket"}},"type":"Feature"},
	{"geometry":{"coordinates":[13.395841,9.330912],"type":"Point"},"properties":{"osm_id":"6752894343","tag":{"amenity":"waste_basket"}},"type":"Feature"},
	{"geometry":{"coordinates":[13.393036,9.334448],"type":"Point"},"properties":{"osm_id":"6752894344","tag":{"amenity":"waste_basket"}},"type":"Feature"},
	{"geometry":{"coordinates":[13.39502,9.333803],"type":"Point"},"properties":{"osm_id":"6752894345","tag":{"amenity":"waste_basket"}},"type":"Feature"},
	{"geometry":{"coordinates":[13.395197,9.33136],"type":"Point"},"properties":{"osm_id":"6752894346","tag":{"amenity":"waste_basket"}},"type":"Feature"},
	{"geometry":{"coordinates":[13.392243,9.33428],"type":"Point"},"properties":{"osm_id":"6752894347","tag":{"amenity":"waste_basket"}},"type":"Feature"},
	{"geometry":{"coordinates":[13.392797,9.334371],"type":"Point"},"properties":{"osm_id":"6752894348","tag":{"amenity":"waste_basket"}},"type":"Feature"},
	{"geometry":{"coordinates":[13.416976,9.35268],"type":"Point"},"properties":{"osm_id":"6752894349","tag":{"amenity":"waste_basket"}},"type":"Feature"},
	{"geometry":{"coordinates":[13.427389,9.34144],"type":"Point"},"properties":{"osm_id":"6752894350","tag":{"amenity":"waste_basket"}},"type":"Feature"},
	{"geometry":{"coordinates":[13.42734,9.339916],"type":"Point"},"properties":{"osm_id":"6752894351","tag":{"amenity":"waste_basket"}},"type":"Feature"},
	{"geometry":{"coordinates":[13.429154,9.340751],"type":"Point"},"properties":{"osm_id":"6752894352","tag":{"amenity":"waste_basket"}},"type":"Feature"},
	{"geometry":{"coordinates":[13.422639,9.343141],"type":"Point"},"properties":{"osm_id":"6752894353","tag":{"amenity":"waste_basket"}},"type":"Feature"},
	{"geometry":{"coordinates":[13.421696,9.343574],"type":"Point"},"properties":{"osm_id":"6752894354","tag":{"amenity":"waste_basket"}},"type":"Feature"},
	{"geometry":{"coordinates":[13.41955,9.346798],"type":"Point"},"properties":{"osm_id":"6752894355","tag":{"amenity":"waste_basket"}},"type":"Feature"},
	{"geometry":{"coordinates":[13.417947,9.344413],"type":"Point"},"properties":{"osm_id":"6752894356","tag":{"amenity":"waste_basket"}},"type":"Feature"},
	{"geometry":{"coordinates":[13.415939,9.344826],"type":"Point"},"properties":{"osm_id":"6752894357","tag":{"amenity":"waste_basket"}},"type":"Feature"},
	{"geometry":{"coordinates":[13.416852,9.346305],"type":"Point"},"properties":{"osm_id":"6752894358","tag":{"amenity":"waste_basket"}},"type":"Feature"},
	{"geometry":{"coordinates":[13.417701,9.347576],"type":"Point"},"properties":{"osm_id":"6752894359","tag":{"amenity":"waste_basket"}},"type":"Feature"},
	{"geometry":{"coordinates":[13.419466,9.344828],"type":"Point"},"properties":{"osm_id":"6752894360","tag":{"amenity":"waste_basket"}},"type":"Feature"},
	{"geometry":{"coordinates":[13.417056,9.347504],"type":"Point"},"properties":{"osm_id":"6752894361","tag":{"amenity":"waste_basket"}},"type":"Feature"},
	{"geometry":{"coordinates":[13.419114,9.344457],"type":"Point"},"properties":{"osm_id":"6752894362","tag":{"amenity":"waste_basket"}},"type":"Feature"},
	{"geometry":{"coordinates":[13.420415,9.345264],"type":"Point"},"properties":{"osm_id":"6752894363","tag":{"amenity":"waste_basket"}},"type":"Feature"},
	{"geometry":{"coordinates":[13.424652,9.345905],"type":"Point"},"properties":{"osm_id":"6752894364","tag":{"amenity":"waste_basket"}},"type":"Feature"},
	{"geometry":{"coordinates":[13.42576,9.343353],"type":"Point"},"properties":{"osm_id":"6752894365","tag":{"amenity":"waste_basket"}},"type":"Feature"},
	{"geometry":{"coordinates":[13.426009,9.343693],"type":"Point"},"properties":{"osm_id":"6752894366","tag":{"amenity":"waste_basket"}},"type":"Feature"},
	{"geometry":{"coordinates":[13.423344,9.345606],"type":"Point"},"properties":{"osm_id":"6752894367","tag":{"amenity":"waste_basket"}},"type":"Feature"},
	{"geometry":{"coordinates":[13.424029,9.34641],"type":"Point"},"properties":{"osm_id":"6752894368","tag":{"amenity":"waste_basket"}},"type":"Feature"},
	{"geometry":{"coordinates":[13.426191,9.34605],"type":"Point"},"properties":{"osm_id":"6752894369","tag":{"amenity":"waste_basket"}},"type":"Feature"},
	{"geometry":{"coordinates":[13.425077,9.346712],"type":"Point"},"properties":{"osm_id":"6752894370","tag":{"amenity":"waste_basket"}},"type":"Feature"},
	{"geometry":{"coordinates":[13.42567,9.346342],"type":"Point"},"properties":{"osm_id":"6752894371","tag":{"amenity":"waste_basket"}},"type":"Feature"},
	{"geometry":{"coordinates":[13.426787,9.345704],"type":"Point"},"properties":{"osm_id":"6752894372","tag":{"amenity":"waste_basket"}},"type":"Feature"},
	{"geometry":{"coordinates":[13.426498,9.344572],"type":"Point"},"properties":{"osm_id":"6752894373","tag":{"amenity":"waste_basket"}},"type":"Feature"},
	{"geometry":{"coordinates":[13.42875,9.344018],"type":"Point"},"properties":{"osm_id":"6752894374","tag":{"amenity":"waste_basket"}},"type":"Feature"},
	{"geometry":{"coordinates":[13.424351,9.34289],"type":"Point"},"properties":{"osm_id":"6752894375","tag":{"amenity":"waste_basket"}},"type":"Feature"},
	{"geometry":{"coordinates":[13.429642,9.348138],"type":"Point"},"properties":{"osm_id":"6752894376","tag":{"amenity":"waste_basket"}},"type":"Feature"},
	{"geometry":{"coordinates":[13.431457,9.344926],"type":"Point"},"properties":{"osm_id":"6752894377","tag":{"amenity":"waste_basket"}},"type":"Feature"},
	{"geometry":{"coordinates":[13.427294,9.352476],"type":"Point"},"properties":{"osm_id":"6752894378","tag":{"amenity":"waste_basket"}},"type":"Feature"},
	{"geometry":{"coordinates":[13.427572,9.351978],"type":"Point"},"properties":{"osm_id":"6752894379","tag":{"amenity":"waste_basket"}},"type":"Feature"},
	{"geometry":{"coordinates":[13.428869,9.351173],"type":"Point"},"properties":{"osm_id":"6752894380","tag":{"amenity":"waste_basket"}},"type":"Feature"},
	{"geometry":{"coordinates":[13.430323,9.348962],"type":"Point"},"properties":{"osm_id":"6752894381","tag":{"amenity":"waste_basket"}},"type":"Feature"},
	{"geometry":{"coordinates":[13.422677,9.34965],"type":"Point"},"properties":{"osm_id":"6752894382","tag":{"amenity":"waste_basket"}},"type":"Feature"},
	{"geometry":{"coordinates":[13.424318,9.348986],"type":"Point"},"properties":{"osm_id":"6752894383","tag":{"amenity":"waste_basket"}},"type":"Feature"},
	{"geometry":{"coordinates":[13.420286,9.351031],"type":"Point"},"properties":{"osm_id":"6752894384","tag":{"amenity":"waste_basket"}},"type":"Feature"},
	{"geometry":{"coordinates":[13.423506,9.351317],"type":"Point"},"properties":{"osm_id":"6752903285","tag":{"amenity":"waste_basket"}},"type":"Feature"},
	{"geometry":{"coordinates":[13.421595,9.351958],"type":"Point"},"properties":{"osm_id":"6752903286","tag":{"amenity":"waste_basket"}},"type":"Feature"},
	{"geometry":{"coordinates":[13.426122,9.351096],"type":"Point"},"properties":{"osm_id":"6752903287","tag":{"amenity":"waste_basket"}},"type":"Feature"},
	{"geometry":{"coordinates":[13.423002,9.352193],"type":"Point"},"properties":{"osm_id":"6752903288","tag":{"amenity":"waste_basket"}},"type":"Feature"},
	{"geometry":{"coordinates":[13.424265,9.350557],"type":"Point"},"properties":{"osm_id":"6752903289","tag":{"amenity":"waste_basket"}},"type":"Feature"},
	{"geometry":{"coordinates":[13.425007,9.354201],"type":"Point"},"properties":{"osm_id":"6752903290","tag":{"amenity":"waste_basket"}},"type":"Feature"},
	{"geometry":{"coordinates":[13.424234,9.35298],"type":"Point"},"properties":{"osm_id":"6752903291","tag":{"amenity":"waste_basket"}},"type":"Feature"},
	{"geometry":{"coordinates":[13.423547,9.35389],"type":"Point"},"properties":{"osm_id":"6752903292","tag":{"amenity":"waste_basket"}},"type":"Feature"},
	{"geometry":{"coordinates":[13.424729,9.357389],"type":"Point"},"properties":{"osm_id":"6752903293","tag":{"amenity":"waste_basket"}},"type":"Feature"},
	{"geometry":{"coordinates":[13.417401,9.355515],"type":"Point"},"properties":{"osm_id":"6752903294","tag":{"amenity":"waste_basket"}},"type":"Feature"},
	{"geometry":{"coordinates":[13.416561,9.355362],"type":"Point"},"properties":{"osm_id":"6752903295","tag":{"amenity":"waste_basket"}},"type":"Feature"},
	{"geometry":{"coordinates":[13.416231,9.354894],"type":"Point"},"properties":{"osm_id":"6752903296","tag":{"amenity":"waste_basket"}},"type":"Feature"},
	{"geometry":{"coordinates":[13.417601,9.356359],"type":"Point"},"properties":{"osm_id":"6752903297","tag":{"amenity":"waste_basket"}},"type":"Feature"},
	{"geometry":{"coordinates":[13.422746,9.356563],"type":"Point"},"properties":{"osm_id":"6752903298","tag":{"amenity":"waste_basket"}},"type":"Feature"},
	{"geometry":{"coordinates":[13.418471,9.355771],"type":"Point"},"properties":{"osm_id":"6752903299","tag":{"amenity":"waste_basket"}},"type":"Feature"},
	{"geometry":{"coordinates":[13.419586,9.356362],"type":"Point"},"properties":{"osm_id":"6752903300","tag":{"amenity":"waste_basket"}},"type":"Feature"},
	{"geometry":{"coordinates":[13.421158,9.357695],"type":"Point"},"properties":{"osm_id":"6752903301","tag":{"amenity":"waste_basket"}},"type":"Feature"},
	{"geometry":{"coordinates":[13.422709,9.354659],"type":"Point"},"properties":{"osm_id":"6752903302","tag":{"amenity":"waste_basket"}},"type":"Feature"},
	{"geometry":{"coordinates":[13.4219,9.35455],"type":"Point"},"properties":{"osm_id":"6752903303","tag":{"amenity":"waste_basket"}},"type":"Feature"},
	{"geometry":{"coordinates":[13.417181,9.359527],"type":"Point"},"properties":{"osm_id":"6752903304","tag":{"amenity":"waste_basket"}},"type":"Feature"},
	{"geometry":{"coordinates":[13.418862,9.361119],"type":"Point"},"properties":{"osm_id":"6752903305","tag":{"amenity":"waste_basket"}},"type":"Feature"},
	{"geometry":{"coordinates":[13.43486,9.356041],"type":"Point"},"properties":{"osm_id":"6752903306","tag":{"amenity":"waste_basket"}},"type":"Feature"},
	{"geometry":{"coordinates":[13.442728,9.362259],"type":"Point"},"properties":{"osm_id":"6752903307","tag":{"amenity":"waste_basket"}},"type":"Feature"}
]
}
