{
"type": "FeatureCollection",
"features": [
	{"geometry":{"coordinates":[138.517182,-34.903419],"type":"Point"},"properties":{"osm_id":"957891480","tag":{"amenity":"waste_basket"}},"type":"Feature"},
	{"geometry":{"coordinates":[138.51632,-34.902684],"type":"Point"},"properties":{"osm_id":"957891505","tag":{"amenity":"waste_basket"}},"type":"Feature"},
	{"geometry":{"coordinates":[138.520079,-34.891495],"type":"Point"},"properties":{"osm_id":"1188519777","tag":{"amenity":"waste_basket"}},"type":"Feature"},
	{"geometry":{"coordinates":[138.545241,-34.935764],"type":"Point"},"properties":{"osm_id":"1520500098","tag":{"amenity":"waste_basket"}},"type":"Feature"},
	{"geometry":{"coordinates":[138.599682,-34.926894],"type":"Point"},"properties":{"osm_id":"2287514229","tag":{"amenity":"waste_basket"}},"type":"Feature"},
	{"geometry":{"coordinates":[138.571819,-34.916912],"type":"Point"},"properties":{"osm_id":"3362711637","tag":{"amenity":"waste_basket"}},"type":"Feature"},
	{"geometry":{"coordinates":[138.572359,-34.916933],"type":"Point"},"properties":{"osm_id":"3362711638","tag":{"amenity":"waste_basket"}},"type":"Feature"},
	{"geometry":{"coordinates":[138.569903,-34.91334],"type":"Point"},"properties":{"name":"Thorntons Recycling","osm_id":"3362920690","tag":{"addr:city":"Thebarton","addr:housenumber":"4","addr:postcode":"5031","addr:street":"Murray Street","amenity":"recycling","recycling:cans":"yes","recycling:glass":"yes","recycling:glass_bottles":"yes","recycling:paper":"yes","website":"http://www.thorntonsrecycling.com.au/"}},"type":"Feature"},
	{"geometry":{"coordinates":[138.570329,-34.913871],"type":"Point"},"properties":{"name":"Denron Metals","osm_id":"3362955138","tag":{"addr:city":"Thebarton","addr:housenumber":"22","addr:postcode":"5031","addr:street":"West Thebarton Road","amenity":"recycling","website":"http://www.denronmetals.com.au/"}},"type":"Feature"},
	{"geometry":{"coordinates":[138.569303,-34.912844],"type":"Point"},"properties":{"name":"Metro Waste","osm_id":"3362955170","tag":{"addr:city":"Thebarton","addr:housenumber":"19-25","addr:postcode":"5031","addr:street":"Murray Street","amenity":"recycling","recycling_type":"centre","website":"http://www.metrowaste.com.au/"}},"type":"Feature"},
	{"geometry":{"coordinates":[138.563185,-34.907871],"type":"Point"},"properties":{"osm_id":"5259094024","tag":{"amenity":"waste_basket"}},"type":"Feature"},
	{"geometry":{"coordinates":[138.578254,-34.905857],"type":"Point"},"properties":{"osm_id":"5365056142","tag":{"amenity":"waste_basket"}},"type":"Feature"},
	{"geometry":{"coordinates":[138.589508,-34.894231],"type":"Point"},"properties":{"osm_id":"6333184385","tag":{"amenity":"waste_basket"}},"type":"Feature"},
	{"geometry":{"coordinates":[138.573615,-34.890718],"type":"Point"},"properties":{"osm_id":"6344794135","tag":{"amenity":"waste_basket"}},"type":"Feature"},
	{"geometry":{"coordinates":[138.578427,-34.90923],"type":"Point"},"properties":{"osm_id":"6371370314","tag":{"amenity":"waste_basket"}},"type":"Feature"},
	{"geometry":{"coordinates":[138.578086,-34.913254],"type":"Point"},"properties":{"osm_id":"6371502947","tag":{"amenity":"waste_basket"}},"type":"Feature"},
	{"geometry":{"coordinates":[138.572874,-34.892061],"type":"Point"},"properties":{"name":"Bin","osm_id":"6467437848","tag":{"amenity":"waste_basket"}},"type":"Feature"},
	{"geometry":{"coordinates":[138.572594,-34.891667],"type":"Point"},"properties":{"name":"Bin","osm_id":"6467437849","tag":{"amenity":"waste_basket"}},"type":"Feature"},
	{"geometry":{"coordinates":[138.596096,-34.892599],"type":"Point"},"properties":{"osm_id":"7081764316","tag":{"amenity":"waste_basket"}},"type":"Feature"},
	{"geometry":{"coordinates":[138.595862,-34.892749],"type":"Point"},"properties":{"osm_id":"7081764317","tag":{"amenity":"waste_basket"}},"type":"Feature"},
	{"geometry":{"coordinates":[138.595841,-34.892749],"type":"Point"},"properties":{"osm_id":"7081764320","tag":{"amenity":"waste_basket"}},"type":"Feature"},
	{"geometry":{"coordinates":[138.595618,-34.892498],"type":"Point"},"properties":{"osm_id":"7081764323","tag":{"amenity":"waste_basket","vending":"excrement_bags"}},"type":"Feature"},
	{"geometry":{"coordinates":[138.58031,-34.918907],"type":"Point"},"properties":{"osm_id":"7097140162","tag":{"amenity":"waste_basket"}},"type":"Feature"},
	{"geometry":{"coordinates":[138.580347,-34.918618],"type":"Point"},"properties":{"osm_id":"7097140168","tag":{"amenity":"waste_basket"}},"type":"Feature"},
	{"geometry":{"coordinates":[138.580251,-34.918421],"type":"Point"},"properties":{"osm_id":"7097140170","tag":{"amenity":"waste_basket"}},"type":"Feature"},
	{"geometry":{"coordinates":[138.567162,-34.942938],"type":"Point"},"properties":{"osm_id":"7528414093","tag":{"amenity":"waste_basket"}},"type":"Feature"},
	{"geometry":{"coordinates":[138.522749,-34.916335],"type":"Point"},"properties":{"osm_id":"7531288795","tag":{"amenity":"waste_basket"}},"type":"Feature"},
	{"geometry":{"coordinates":[138.580361,-34.890273],"type":"Point"},"properties":{"osm_id":"7816569760","tag":{"amenity":"waste_basket"}},"type":"Feature"},
	{"geometry":{"coordinates":[138.580483,-34.890629],"type":"Point"},"properties":{"osm_id":"7816569768","tag":{"amenity":"waste_basket"}},"type":"Feature"},
	{"geometry":{"coordinates":[138.562488,-34.886963],"type":"Point"},"properties":{"osm_id":"7834078875","tag":{"amenity":"waste_basket"}},"type":"Feature"},
	{"geometry":{"coordinates":[138.562455,-34.887178],"type":"Point"},"properties":{"osm_id":"7834078879","tag":{"amenity":"waste_basket"}},"type":"Feature"},
	{"geometry":{"coordinates":[138.562905,-34.887257],"type":"Point"},"properties":{"osm_id":"7834137014","tag":{"amenity":"waste_basket"}},"type":"Feature"},
	{"geometry":{"coordinates":[138.572176,-34.916804],"type":"Point"},"properties":{"osm_id":"7836351620","tag":{"amenity":"waste_basket"}},"type":"Feature"}
]
}
