{
"type": "FeatureCollection",
"features": [
	{"geometry":{"coordinates":[-76.44791,44.266177],"type":"Point"},"properties":{"osm_id":"459402195","tag":{"amenity":"waste_basket"}},"type":"Feature"},
	{"geometry":{"coordinates":[-76.460883,44.253721],"type":"Point"},"properties":{"osm_id":"3652733285","tag":{"amenity":"waste_basket","colour":"black"}},"type":"Feature"},
	{"geometry":{"coordinates":[-76.456069,44.258899],"type":"Point"},"properties":{"osm_id":"3917139528","tag":{"amenity":"waste_basket","colour":"brown"}},"type":"Feature"},
	{"geometry":{"coordinates":[-76.443984,44.262345],"type":"Point"},"properties":{"osm_id":"6718996705","tag":{"amenity":"waste_basket"}},"type":"Feature"},
	{"geometry":{"coordinates":[-76.450675,44.259209],"type":"Point"},"properties":{"osm_id":"6719001621","tag":{"amenity":"waste_basket"}},"type":"Feature"},
	{"geometry":{"coordinates":[-76.444939,44.260647],"type":"Point"},"properties":{"osm_id":"6719050545","tag":{"amenity":"waste_basket"}},"type":"Feature"}
]
}
