{
"type": "FeatureCollection",
"features": [
	{"geometry":{"coordinates":[11.934273,54.140865],"type":"Point"},"properties":{"osm_id":"473148704","tag":{"amenity":"recycling","recycling:clothes":"yes","recycling:glass_bottles":"yes","recycling_type":"container"}},"type":"Feature"},
	{"geometry":{"coordinates":[11.945095,54.154589],"type":"Point"},"properties":{"osm_id":"812783649","tag":{"amenity":"recycling","recycling:clothes":"yes","recycling:glass":"yes"}},"type":"Feature"},
	{"geometry":{"coordinates":[11.952278,54.160918],"type":"Point"},"properties":{"osm_id":"860287154","tag":{"amenity":"waste_basket"}},"type":"Feature"},
	{"geometry":{"coordinates":[11.910788,54.11562],"type":"Point"},"properties":{"osm_id":"862991253","tag":{"amenity":"recycling","recycling:cans":"no","recycling:clothes":"yes","recycling:glass":"yes","recycling:glass_bottles":"yes","recycling:paper":"no","recycling:plastic":"no","recycling_type":"container"}},"type":"Feature"},
	{"geometry":{"coordinates":[11.906731,54.114849],"type":"Point"},"properties":{"osm_id":"3598576934","tag":{"amenity":"waste_basket"}},"type":"Feature"},
	{"geometry":{"coordinates":[11.905821,54.114981],"type":"Point"},"properties":{"osm_id":"3598576935","tag":{"amenity":"waste_basket"}},"type":"Feature"},
	{"geometry":{"coordinates":[11.905405,54.114037],"type":"Point"},"properties":{"osm_id":"3612785711","tag":{"amenity":"waste_basket"}},"type":"Feature"},
	{"geometry":{"coordinates":[11.903891,54.115586],"type":"Point"},"properties":{"osm_id":"3612785712","tag":{"amenity":"waste_basket"}},"type":"Feature"},
	{"geometry":{"coordinates":[11.903597,54.113274],"type":"Point"},"properties":{"osm_id":"3612785714","tag":{"amenity":"waste_basket"}},"type":"Feature"},
	{"geometry":{"coordinates":[11.904295,54.112636],"type":"Point"},"properties":{"osm_id":"3648851034","tag":{"amenity":"recycling","recycling:clothes":"yes","recycling:glass":"yes"}},"type":"Feature"},
	{"geometry":{"coordinates":[11.898856,54.113939],"type":"Point"},"properties":{"osm_id":"3737053712","tag":{"amenity":"recycling","recycling:clothes":"yes","recycling:glass":"yes","recycling_type":"container"}},"type":"Feature"},
	{"geometry":{"coordinates":[11.904946,54.111649],"type":"Point"},"properties":{"osm_id":"3840894421","tag":{"amenity":"recycling","recycling:cans":"no","recycling:clothes":"yes","recycling:glass":"no","recycling:glass_bottles":"no","recycling:paper":"no","recycling:plastic":"no","recycling_type":"container"}},"type":"Feature"},
	{"geometry":{"coordinates":[11.870009,54.147431],"type":"Point"},"properties":{"osm_id":"3842669799","tag":{"amenity":"waste_basket"}},"type":"Feature"},
	{"geometry":{"coordinates":[11.907158,54.112055],"type":"Point"},"properties":{"osm_id":"4529929576","tag":{"amenity":"waste_basket"}},"type":"Feature"},
	{"geometry":{"coordinates":[11.907691,54.113287],"type":"Point"},"properties":{"osm_id":"4529929577","tag":{"amenity":"waste_basket"}},"type":"Feature"},
	{"geometry":{"coordinates":[11.91052,54.114531],"type":"Point"},"properties":{"osm_id":"4529929578","tag":{"amenity":"waste_basket"}},"type":"Feature"},
	{"geometry":{"coordinates":[11.910604,54.114605],"type":"Point"},"properties":{"osm_id":"4529929579","tag":{"amenity":"waste_basket"}},"type":"Feature"},
	{"geometry":{"coordinates":[11.88255,54.149503],"type":"Point"},"properties":{"osm_id":"5128665709","tag":{"amenity":"waste_basket"}},"type":"Feature"},
	{"geometry":{"coordinates":[11.8814,54.149241],"type":"Point"},"properties":{"osm_id":"5128665714","tag":{"amenity":"waste_basket"}},"type":"Feature"},
	{"geometry":{"coordinates":[11.878959,54.148732],"type":"Point"},"properties":{"osm_id":"5128665720","tag":{"amenity":"waste_basket"}},"type":"Feature"},
	{"geometry":{"coordinates":[11.87694,54.14832],"type":"Point"},"properties":{"osm_id":"5128666724","tag":{"amenity":"waste_basket"}},"type":"Feature"},
	{"geometry":{"coordinates":[11.875685,54.148147],"type":"Point"},"properties":{"osm_id":"5128666727","tag":{"amenity":"waste_basket"}},"type":"Feature"},
	{"geometry":{"coordinates":[11.88189,54.149744],"type":"Point"},"properties":{"osm_id":"5128666732","tag":{"amenity":"waste_basket"}},"type":"Feature"},
	{"geometry":{"coordinates":[11.891297,54.151543],"type":"Point"},"properties":{"osm_id":"5128666778","tag":{"amenity":"waste_basket"}},"type":"Feature"},
	{"geometry":{"coordinates":[11.891288,54.151556],"type":"Point"},"properties":{"osm_id":"5128666779","tag":{"amenity":"waste_basket"}},"type":"Feature"},
	{"geometry":{"coordinates":[11.894204,54.152143],"type":"Point"},"properties":{"osm_id":"5128666787","tag":{"amenity":"waste_basket"}},"type":"Feature"},
	{"geometry":{"coordinates":[11.894194,54.152155],"type":"Point"},"properties":{"osm_id":"5128666789","tag":{"amenity":"waste_basket"}},"type":"Feature"},
	{"geometry":{"coordinates":[11.89875,54.153106],"type":"Point"},"properties":{"osm_id":"5128666791","tag":{"amenity":"waste_basket"}},"type":"Feature"},
	{"geometry":{"coordinates":[11.898739,54.153111],"type":"Point"},"properties":{"osm_id":"5128666792","tag":{"amenity":"waste_basket"}},"type":"Feature"},
	{"geometry":{"coordinates":[11.900319,54.146923],"type":"Point"},"properties":{"name":"Altglas","osm_id":"5253580545","tag":{"amenity":"recycling"}},"type":"Feature"}
]
}
