{
"type": "FeatureCollection",
"features": [
	{"geometry":{"coordinates":[11.924616,52.962902],"type":"Point"},"properties":{"osm_id":"7867209144","tag":{"amenity":"recycling","opening_hours":"Mo-Sa 08:00-20:00","operator":"Landkreis Prignitz","recycling:glass":"no","recycling:glass_bottles":"yes","recycling_type":"container","wheelchair":"no"}},"type":"Feature"},
	{"geometry":{"coordinates":[11.924573,52.962902],"type":"Point"},"properties":{"osm_id":"7899349568","tag":{"amenity":"recycling","check_date":"2020-09-12","contact:phone":"+49 800 7262454","contact:website":"www.texaid.de","opening_hours":"Mo-Sa 07:00-20:00","operator":"TEXAID Collection GmbH","recycling:clothes":"yes","recycling:shoes":"yes","recycling_type":"container","wheelchair":"no"}},"type":"Feature"},
	{"geometry":{"coordinates":[11.924546,52.962903],"type":"Point"},"properties":{"osm_id":"7899426130","tag":{"amenity":"recycling","check_date":"2020-09-12","opening_hours":"24/7","operator":"Landkreis Prignitz","recycling:cardboard":"yes","recycling:magazines":"yes","recycling:newspaper":"yes","recycling:paper":"yes","recycling:paper_packaging":"yes","recycling_type":"container","wheelchair":"no"}},"type":"Feature"}
]
}
