{
"type": "FeatureCollection",
"features": [
	{"geometry":{"coordinates":[11.952951,51.460341],"type":"Point"},"properties":{"osm_id":"443354905","tag":{"amenity":"recycling","recycling:glass":"yes","recycling:glass_bottles":"yes","recycling_type":"container"}},"type":"Feature"},
	{"geometry":{"coordinates":[11.925275,51.497781],"type":"Point"},"properties":{"osm_id":"503898015","tag":{"amenity":"recycling","recycling:glass_bottles":"yes","recycling_type":"container"}},"type":"Feature"},
	{"geometry":{"coordinates":[11.917488,51.475614],"type":"Point"},"properties":{"osm_id":"529462429","tag":{"amenity":"recycling"}},"type":"Feature"},
	{"geometry":{"coordinates":[11.917226,51.474915],"type":"Point"},"properties":{"osm_id":"544372853","tag":{"amenity":"recycling"}},"type":"Feature"},
	{"geometry":{"coordinates":[11.917141,51.47789],"type":"Point"},"properties":{"osm_id":"544372854","tag":{"amenity":"recycling","location":"overground","recycling_type":"container"}},"type":"Feature"},
	{"geometry":{"coordinates":[11.899531,51.484413],"type":"Point"},"properties":{"osm_id":"665300491","tag":{"amenity":"recycling","recycling:glass":"yes"}},"type":"Feature"},
	{"geometry":{"coordinates":[11.943774,51.483022],"type":"Point"},"properties":{"osm_id":"1015976446","tag":{"amenity":"recycling","recycling:clothes":"yes","recycling:glass":"yes","recycling_type":"container"}},"type":"Feature"},
	{"geometry":{"coordinates":[11.940781,51.484251],"type":"Point"},"properties":{"osm_id":"1019806551","tag":{"amenity":"recycling","recycling:clothes":"yes","recycling:glass":"yes"}},"type":"Feature"},
	{"geometry":{"coordinates":[11.942301,51.486288],"type":"Point"},"properties":{"osm_id":"1019806589","tag":{"amenity":"recycling","recycling:glass":"yes"}},"type":"Feature"},
	{"geometry":{"coordinates":[11.928827,51.491982],"type":"Point"},"properties":{"osm_id":"1022284152","tag":{"amenity":"recycling","location":"underground","recycling:glass":"yes","recycling_type":"container"}},"type":"Feature"},
	{"geometry":{"coordinates":[11.933809,51.499155],"type":"Point"},"properties":{"osm_id":"1121796662","tag":{"amenity":"recycling","recycling:glass":"yes"}},"type":"Feature"},
	{"geometry":{"coordinates":[11.903344,51.469414],"type":"Point"},"properties":{"name":"Wertstoffmarkt","osm_id":"1123309623","tag":{"amenity":"recycling","opening_hours":"Mo-Fr 06:00-21:00; Sa 07:00-12:00; PH off","operator":"Hallesche Wasser- und Stadtwirtschaft GmbH","recycling:batteries":"yes","recycling:clothes":"no","recycling:electrical_appliances":"yes","recycling:glass":"yes","recycling:green_waste":"yes","recycling:plastic_packaging":"yes","recycling:scrap_metal":"yes","recycling:small_appliances":"yes","recycling:waste":"yes","recycling:wood":"yes","recycling_type":"centre"}},"type":"Feature"},
	{"geometry":{"coordinates":[11.951292,51.482943],"type":"Point"},"properties":{"osm_id":"1130921274","tag":{"amenity":"recycling","recycling:glass":"yes"}},"type":"Feature"},
	{"geometry":{"coordinates":[11.906578,51.483671],"type":"Point"},"properties":{"osm_id":"1157844694","tag":{"amenity":"recycling","recycling:glass":"yes"}},"type":"Feature"},
	{"geometry":{"coordinates":[11.936121,51.494209],"type":"Point"},"properties":{"osm_id":"1271283156","tag":{"amenity":"recycling","recycling:clothes":"yes","recycling:glass":"yes"}},"type":"Feature"},
	{"geometry":{"coordinates":[11.924492,51.483482],"type":"Point"},"properties":{"osm_id":"1272989545","tag":{"amenity":"recycling","recycling:glass":"yes"}},"type":"Feature"},
	{"geometry":{"coordinates":[11.921519,51.482916],"type":"Point"},"properties":{"osm_id":"1272989547","tag":{"amenity":"recycling","recycling:glass":"yes"}},"type":"Feature"},
	{"geometry":{"coordinates":[11.942666,51.499048],"type":"Point"},"properties":{"osm_id":"1426493723","tag":{"amenity":"recycling","recycling:glass":"yes","recycling:glass_bottles":"yes","recycling_type":"container"}},"type":"Feature"},
	{"geometry":{"coordinates":[11.927746,51.506249],"type":"Point"},"properties":{"osm_id":"1445773144","tag":{"amenity":"recycling","recycling:glass":"yes"}},"type":"Feature"},
	{"geometry":{"coordinates":[11.94875,51.458851],"type":"Point"},"properties":{"osm_id":"1556195343","tag":{"amenity":"recycling","recycling:clothes":"yes","recycling:electrical_appliances":"yes","recycling:glass_bottles":"yes","recycling_type":"container"}},"type":"Feature"},
	{"geometry":{"coordinates":[11.899426,51.456597],"type":"Point"},"properties":{"osm_id":"1577015362","tag":{"amenity":"recycling","recycling:glass":"yes","recycling:glass_bottles":"yes","recycling_type":"container"}},"type":"Feature"},
	{"geometry":{"coordinates":[11.906745,51.457801],"type":"Point"},"properties":{"osm_id":"1577015375","tag":{"amenity":"recycling"}},"type":"Feature"},
	{"geometry":{"coordinates":[11.94461,51.498725],"type":"Point"},"properties":{"osm_id":"1607317843","tag":{"amenity":"recycling","recycling:glass":"yes"}},"type":"Feature"},
	{"geometry":{"coordinates":[11.913362,51.47513],"type":"Point"},"properties":{"osm_id":"1642001128","tag":{"amenity":"recycling"}},"type":"Feature"},
	{"geometry":{"coordinates":[11.918545,51.475744],"type":"Point"},"properties":{"osm_id":"1642001129","tag":{"amenity":"recycling"}},"type":"Feature"},
	{"geometry":{"coordinates":[11.912435,51.475116],"type":"Point"},"properties":{"osm_id":"1642001130","tag":{"amenity":"recycling"}},"type":"Feature"},
	{"geometry":{"coordinates":[11.914682,51.474802],"type":"Point"},"properties":{"osm_id":"1642001133","tag":{"amenity":"recycling"}},"type":"Feature"},
	{"geometry":{"coordinates":[11.914296,51.475073],"type":"Point"},"properties":{"osm_id":"1642001137","tag":{"amenity":"recycling"}},"type":"Feature"},
	{"geometry":{"coordinates":[11.919489,51.475611],"type":"Point"},"properties":{"osm_id":"1642001139","tag":{"amenity":"recycling"}},"type":"Feature"},
	{"geometry":{"coordinates":[11.917987,51.475748],"type":"Point"},"properties":{"osm_id":"1642001143","tag":{"amenity":"recycling"}},"type":"Feature"},
	{"geometry":{"coordinates":[11.912472,51.476309],"type":"Point"},"properties":{"osm_id":"1642001144","tag":{"amenity":"recycling"}},"type":"Feature"},
	{"geometry":{"coordinates":[11.928933,51.476111],"type":"Point"},"properties":{"osm_id":"1644620283","tag":{"amenity":"recycling","recycling_type":"container"}},"type":"Feature"},
	{"geometry":{"coordinates":[11.91449,51.476388],"type":"Point"},"properties":{"osm_id":"1644634995","tag":{"amenity":"recycling"}},"type":"Feature"},
	{"geometry":{"coordinates":[11.913417,51.476301],"type":"Point"},"properties":{"osm_id":"1644635024","tag":{"amenity":"recycling"}},"type":"Feature"},
	{"geometry":{"coordinates":[11.935255,51.498005],"type":"Point"},"properties":{"osm_id":"1786420851","tag":{"amenity":"recycling","recycling:glass":"yes","recycling_type":"container"}},"type":"Feature"},
	{"geometry":{"coordinates":[11.941794,51.498376],"type":"Point"},"properties":{"osm_id":"1786420855","tag":{"amenity":"recycling","recycling:glass":"yes","recycling_type":"container"}},"type":"Feature"},
	{"geometry":{"coordinates":[11.92179,51.485164],"type":"Point"},"properties":{"osm_id":"1879268632","tag":{"amenity":"recycling"}},"type":"Feature"},
	{"geometry":{"coordinates":[11.918905,51.485207],"type":"Point"},"properties":{"osm_id":"1935193054","tag":{"amenity":"recycling"}},"type":"Feature"},
	{"geometry":{"coordinates":[11.924085,51.474302],"type":"Point"},"properties":{"osm_id":"2067140039","tag":{"amenity":"recycling"}},"type":"Feature"},
	{"geometry":{"coordinates":[11.948741,51.507492],"type":"Point"},"properties":{"osm_id":"2098235316","tag":{"amenity":"recycling","recycling:glass":"yes","recycling:glass_bottles":"yes","recycling_type":"container"}},"type":"Feature"},
	{"geometry":{"coordinates":[11.944209,51.485593],"type":"Point"},"properties":{"osm_id":"2110407749","tag":{"amenity":"recycling","recycling:clothes":"yes","recycling_type":"container"}},"type":"Feature"},
	{"geometry":{"coordinates":[11.919235,51.493397],"type":"Point"},"properties":{"osm_id":"2657830198","tag":{"amenity":"recycling","recycling:glass":"yes","recycling_type":"container"}},"type":"Feature"},
	{"geometry":{"coordinates":[11.913871,51.475087],"type":"Point"},"properties":{"osm_id":"2712727979","tag":{"amenity":"recycling","recycling:glass":"yes"}},"type":"Feature"},
	{"geometry":{"coordinates":[11.950952,51.503138],"type":"Point"},"properties":{"osm_id":"2896526712","tag":{"amenity":"waste_basket"}},"type":"Feature"},
	{"geometry":{"coordinates":[11.950269,51.503042],"type":"Point"},"properties":{"osm_id":"2896526713","tag":{"amenity":"waste_basket"}},"type":"Feature"},
	{"geometry":{"coordinates":[11.949855,51.502824],"type":"Point"},"properties":{"osm_id":"2896526715","tag":{"amenity":"waste_basket"}},"type":"Feature"},
	{"geometry":{"coordinates":[11.949652,51.498714],"type":"Point"},"properties":{"osm_id":"2896526716","tag":{"amenity":"waste_basket"}},"type":"Feature"},
	{"geometry":{"coordinates":[11.951961,51.496866],"type":"Point"},"properties":{"osm_id":"2896526719","tag":{"amenity":"waste_basket"}},"type":"Feature"},
	{"geometry":{"coordinates":[11.943699,51.504993],"type":"Point"},"properties":{"osm_id":"3578326055","tag":{"amenity":"recycling","recycling:clothes":"yes","recycling:glass":"yes","recycling:glass_bottles":"yes","recycling_type":"container"}},"type":"Feature"},
	{"geometry":{"coordinates":[11.944949,51.456006],"type":"Point"},"properties":{"osm_id":"3637327055","tag":{"amenity":"recycling","recycling:glass_bottles":"yes","recycling_type":"container"}},"type":"Feature"},
	{"geometry":{"coordinates":[11.906199,51.495424],"type":"Point"},"properties":{"osm_id":"3661672117","tag":{"amenity":"recycling","recycling:clothes":"yes","recycling:glass":"yes","recycling_type":"container"}},"type":"Feature"},
	{"geometry":{"coordinates":[11.951478,51.49352],"type":"Point"},"properties":{"osm_id":"3967468530","tag":{"amenity":"waste_basket"}},"type":"Feature"},
	{"geometry":{"coordinates":[11.950673,51.493769],"type":"Point"},"properties":{"osm_id":"3967468531","tag":{"amenity":"waste_basket"}},"type":"Feature"},
	{"geometry":{"coordinates":[11.951421,51.494862],"type":"Point"},"properties":{"osm_id":"3967468537","tag":{"amenity":"waste_basket"}},"type":"Feature"},
	{"geometry":{"coordinates":[11.95166,51.495115],"type":"Point"},"properties":{"osm_id":"3967468540","tag":{"amenity":"waste_basket"}},"type":"Feature"},
	{"geometry":{"coordinates":[11.95244,51.496564],"type":"Point"},"properties":{"osm_id":"3967468544","tag":{"amenity":"waste_basket"}},"type":"Feature"},
	{"geometry":{"coordinates":[11.952114,51.496734],"type":"Point"},"properties":{"osm_id":"3967629641","tag":{"amenity":"waste_basket"}},"type":"Feature"},
	{"geometry":{"coordinates":[11.951683,51.496938],"type":"Point"},"properties":{"osm_id":"3967629649","tag":{"amenity":"waste_basket"}},"type":"Feature"},
	{"geometry":{"coordinates":[11.950902,51.497341],"type":"Point"},"properties":{"osm_id":"3967629655","tag":{"amenity":"waste_basket"}},"type":"Feature"},
	{"geometry":{"coordinates":[11.949433,51.499057],"type":"Point"},"properties":{"osm_id":"3967632970","tag":{"amenity":"waste_basket"}},"type":"Feature"},
	{"geometry":{"coordinates":[11.949113,51.499709],"type":"Point"},"properties":{"osm_id":"3967632976","tag":{"amenity":"waste_basket"}},"type":"Feature"},
	{"geometry":{"coordinates":[11.948781,51.500559],"type":"Point"},"properties":{"osm_id":"3967632983","tag":{"amenity":"waste_basket"}},"type":"Feature"},
	{"geometry":{"coordinates":[11.948735,51.501632],"type":"Point"},"properties":{"osm_id":"3967632991","tag":{"amenity":"waste_basket"}},"type":"Feature"},
	{"geometry":{"coordinates":[11.952173,51.503516],"type":"Point"},"properties":{"osm_id":"3967633022","tag":{"amenity":"waste_basket"}},"type":"Feature"},
	{"geometry":{"coordinates":[11.931431,51.50062],"type":"Point"},"properties":{"osm_id":"4072510039","tag":{"amenity":"recycling","location":"underground","recycling:glass":"yes","recycling:glass_bottles":"yes","recycling_type":"container"}},"type":"Feature"},
	{"geometry":{"coordinates":[11.896669,51.476177],"type":"Point"},"properties":{"osm_id":"4087499141","tag":{"amenity":"recycling","recycling:clothes":"yes","recycling:glass_bottles":"yes","recycling_type":"container"}},"type":"Feature"},
	{"geometry":{"coordinates":[11.896981,51.477492],"type":"Point"},"properties":{"osm_id":"4087499153","tag":{"amenity":"recycling","recycling:glass_bottles":"yes","recycling_type":"container"}},"type":"Feature"},
	{"geometry":{"coordinates":[11.910651,51.482664],"type":"Point"},"properties":{"osm_id":"4192377499","tag":{"amenity":"recycling","recycling:glass":"yes","recycling:small_appliances":"yes","recycling_type":"container"}},"type":"Feature"},
	{"geometry":{"coordinates":[11.933282,51.500672],"type":"Point"},"properties":{"osm_id":"4228258101","tag":{"amenity":"recycling","operator":"NP","recycling:batteries":"yes"}},"type":"Feature"},
	{"geometry":{"coordinates":[11.894361,51.507663],"type":"Point"},"properties":{"osm_id":"4246985428","tag":{"amenity":"recycling","recycling:clothes":"yes","recycling:glass":"yes","recycling_type":"container"}},"type":"Feature"},
	{"geometry":{"coordinates":[11.94051,51.506509],"type":"Point"},"properties":{"osm_id":"4250063218","tag":{"amenity":"recycling","operator":"Stadtwerke Halle","recycling:batteries":"no","recycling:electrical_items":"yes","recycling:glass":"yes","recycling:low_energy_bulbs":"no","recycling:mobile_phones":"yes","recycling:small_appliances":"yes","recycling_type":"container","url":"http://www.hws-halle.de"}},"type":"Feature"},
	{"geometry":{"coordinates":[11.900304,51.488722],"type":"Point"},"properties":{"osm_id":"4459351391","tag":{"amenity":"recycling","opening_hours":"24/7","operator":"Hallesche Wasser und Stadtwirtschaft GmbH","recycling:glass":"yes","recycling:glass_bottles":"yes","recycling_type":"container"}},"type":"Feature"},
	{"geometry":{"coordinates":[11.900209,51.488841],"type":"Point"},"properties":{"osm_id":"4459351392","tag":{"amenity":"waste_basket"}},"type":"Feature"},
	{"geometry":{"coordinates":[11.900896,51.494295],"type":"Point"},"properties":{"osm_id":"4459351397","tag":{"amenity":"waste_basket"}},"type":"Feature"},
	{"geometry":{"coordinates":[11.899269,51.484184],"type":"Point"},"properties":{"osm_id":"4460834450","tag":{"amenity":"waste_basket"}},"type":"Feature"},
	{"geometry":{"coordinates":[11.887951,51.502916],"type":"Point"},"properties":{"osm_id":"4465097802","tag":{"amenity":"waste_basket"}},"type":"Feature"},
	{"geometry":{"coordinates":[11.888346,51.503013],"type":"Point"},"properties":{"osm_id":"4465097804","tag":{"amenity":"waste_basket"}},"type":"Feature"},
	{"geometry":{"coordinates":[11.889883,51.50368],"type":"Point"},"properties":{"osm_id":"4465097812","tag":{"amenity":"waste_basket"}},"type":"Feature"},
	{"geometry":{"coordinates":[11.894395,51.507259],"type":"Point"},"properties":{"osm_id":"4465097824","tag":{"amenity":"waste_basket"}},"type":"Feature"},
	{"geometry":{"coordinates":[11.894025,51.507263],"type":"Point"},"properties":{"osm_id":"4465097825","tag":{"amenity":"waste_basket"}},"type":"Feature"},
	{"geometry":{"coordinates":[11.89417,51.507399],"type":"Point"},"properties":{"osm_id":"4465097828","tag":{"amenity":"waste_basket"}},"type":"Feature"},
	{"geometry":{"coordinates":[11.91318,51.477735],"type":"Point"},"properties":{"osm_id":"4469825927","tag":{"amenity":"waste_basket"}},"type":"Feature"},
	{"geometry":{"coordinates":[11.908069,51.484837],"type":"Point"},"properties":{"osm_id":"4496899093","tag":{"amenity":"waste_basket"}},"type":"Feature"},
	{"geometry":{"coordinates":[11.908652,51.485038],"type":"Point"},"properties":{"osm_id":"4496899094","tag":{"amenity":"waste_basket"}},"type":"Feature"},
	{"geometry":{"coordinates":[11.908387,51.485058],"type":"Point"},"properties":{"osm_id":"4496899095","tag":{"amenity":"waste_basket"}},"type":"Feature"},
	{"geometry":{"coordinates":[11.909105,51.48468],"type":"Point"},"properties":{"osm_id":"4496899096","tag":{"amenity":"waste_basket"}},"type":"Feature"},
	{"geometry":{"coordinates":[11.912962,51.501685],"type":"Point"},"properties":{"osm_id":"4496904891","tag":{"amenity":"waste_basket"}},"type":"Feature"},
	{"geometry":{"coordinates":[11.912486,51.501779],"type":"Point"},"properties":{"osm_id":"4496904892","tag":{"amenity":"waste_basket"}},"type":"Feature"},
	{"geometry":{"coordinates":[11.909181,51.484345],"type":"Point"},"properties":{"osm_id":"4526784545","tag":{"amenity":"waste_basket"}},"type":"Feature"},
	{"geometry":{"coordinates":[11.90438,51.489874],"type":"Point"},"properties":{"osm_id":"4530404922","tag":{"amenity":"recycling","opening_hours":"24/7","operator":"Hallesche Wasser und Stadtwirtschaft GmbH","recycling:clothes":"yes","recycling:glass":"no","recycling:glass_bottles":"yes","recycling:shoes":"yes","recycling_type":"container"}},"type":"Feature"},
	{"geometry":{"coordinates":[11.903009,51.486268],"type":"Point"},"properties":{"osm_id":"4530405636","tag":{"amenity":"waste_basket"}},"type":"Feature"},
	{"geometry":{"coordinates":[11.949399,51.455702],"type":"Point"},"properties":{"osm_id":"4568706631","tag":{"amenity":"recycling","recycling:glass":"yes","recycling:glass_bottles":"yes","recycling_type":"container"}},"type":"Feature"},
	{"geometry":{"coordinates":[11.925477,51.501774],"type":"Point"},"properties":{"osm_id":"4640162997","tag":{"amenity":"waste_basket"}},"type":"Feature"},
	{"geometry":{"coordinates":[11.907089,51.496432],"type":"Point"},"properties":{"osm_id":"4675002254","tag":{"amenity":"waste_basket"}},"type":"Feature"},
	{"geometry":{"coordinates":[11.927277,51.494445],"type":"Point"},"properties":{"osm_id":"4675024833","tag":{"amenity":"waste_basket"}},"type":"Feature"},
	{"geometry":{"coordinates":[11.926254,51.494377],"type":"Point"},"properties":{"osm_id":"4675024837","tag":{"amenity":"waste_basket"}},"type":"Feature"},
	{"geometry":{"coordinates":[11.923412,51.494659],"type":"Point"},"properties":{"osm_id":"4675024838","tag":{"amenity":"waste_basket"}},"type":"Feature"},
	{"geometry":{"coordinates":[11.922561,51.494385],"type":"Point"},"properties":{"osm_id":"4675024841","tag":{"amenity":"waste_basket"}},"type":"Feature"},
	{"geometry":{"coordinates":[11.921557,51.494767],"type":"Point"},"properties":{"osm_id":"4675024845","tag":{"amenity":"waste_basket"}},"type":"Feature"},
	{"geometry":{"coordinates":[11.921087,51.494199],"type":"Point"},"properties":{"osm_id":"4675024851","tag":{"amenity":"waste_basket"}},"type":"Feature"},
	{"geometry":{"coordinates":[11.927449,51.493353],"type":"Point"},"properties":{"osm_id":"4675024854","tag":{"amenity":"waste_basket"}},"type":"Feature"},
	{"geometry":{"coordinates":[11.928321,51.493828],"type":"Point"},"properties":{"osm_id":"4675024860","tag":{"amenity":"waste_basket"}},"type":"Feature"},
	{"geometry":{"coordinates":[11.928915,51.494176],"type":"Point"},"properties":{"osm_id":"4675024861","tag":{"amenity":"waste_basket"}},"type":"Feature"},
	{"geometry":{"coordinates":[11.910421,51.501842],"type":"Point"},"properties":{"osm_id":"4681521577","tag":{"amenity":"waste_basket"}},"type":"Feature"},
	{"geometry":{"coordinates":[11.907176,51.487171],"type":"Point"},"properties":{"osm_id":"4681527899","tag":{"amenity":"waste_basket"}},"type":"Feature"},
	{"geometry":{"coordinates":[11.907141,51.487153],"type":"Point"},"properties":{"osm_id":"4681527900","tag":{"amenity":"recycling","opening_hours":"24/7","operator":"Hallesche Wasser und Stadtwirtschaft GmbH","recycling:glass":"yes","recycling:glass_bottles":"yes","recycling_type":"container"}},"type":"Feature"},
	{"geometry":{"coordinates":[11.892042,51.495363],"type":"Point"},"properties":{"osm_id":"4701737494","tag":{"amenity":"waste_basket"}},"type":"Feature"},
	{"geometry":{"coordinates":[11.890259,51.484288],"type":"Point"},"properties":{"osm_id":"4716945196","tag":{"amenity":"waste_basket"}},"type":"Feature"},
	{"geometry":{"coordinates":[11.890585,51.483799],"type":"Point"},"properties":{"osm_id":"4716945197","tag":{"amenity":"waste_basket"}},"type":"Feature"},
	{"geometry":{"coordinates":[11.931223,51.475826],"type":"Point"},"properties":{"osm_id":"4717020540","tag":{"amenity":"recycling","opening_hours":"24/7","operator":"Hallesche Wasser- und Stadtwirtschaft GmbH","recycling:electrical_appliances":"yes","recycling:glass":"yes","recycling_type":"container","wheelchair":"yes"}},"type":"Feature"},
	{"geometry":{"coordinates":[11.931869,51.476462],"type":"Point"},"properties":{"osm_id":"4717020541","tag":{"amenity":"waste_basket"}},"type":"Feature"},
	{"geometry":{"coordinates":[11.931449,51.47723],"type":"Point"},"properties":{"osm_id":"4717020543","tag":{"amenity":"waste_basket"}},"type":"Feature"},
	{"geometry":{"coordinates":[11.93077,51.477198],"type":"Point"},"properties":{"osm_id":"4717020545","tag":{"amenity":"waste_basket"}},"type":"Feature"},
	{"geometry":{"coordinates":[11.928911,51.476691],"type":"Point"},"properties":{"osm_id":"4717020549","tag":{"amenity":"waste_basket"}},"type":"Feature"},
	{"geometry":{"coordinates":[11.928675,51.476878],"type":"Point"},"properties":{"osm_id":"4717020550","tag":{"amenity":"waste_basket"}},"type":"Feature"},
	{"geometry":{"coordinates":[11.929129,51.476018],"type":"Point"},"properties":{"osm_id":"4717020551","tag":{"amenity":"waste_basket"}},"type":"Feature"},
	{"geometry":{"coordinates":[11.928981,51.476188],"type":"Point"},"properties":{"osm_id":"4717020552","tag":{"amenity":"waste_basket"}},"type":"Feature"},
	{"geometry":{"coordinates":[11.929022,51.476319],"type":"Point"},"properties":{"osm_id":"4717020553","tag":{"amenity":"waste_basket"}},"type":"Feature"},
	{"geometry":{"coordinates":[11.928916,51.476526],"type":"Point"},"properties":{"osm_id":"4717020554","tag":{"amenity":"waste_basket"}},"type":"Feature"},
	{"geometry":{"coordinates":[11.928809,51.476682],"type":"Point"},"properties":{"osm_id":"4717020555","tag":{"amenity":"waste_basket"}},"type":"Feature"},
	{"geometry":{"coordinates":[11.939779,51.484097],"type":"Point"},"properties":{"osm_id":"4717020559","tag":{"amenity":"waste_basket"}},"type":"Feature"},
	{"geometry":{"coordinates":[11.925409,51.485498],"type":"Point"},"properties":{"osm_id":"4717020561","tag":{"amenity":"recycling","opening_hours":"24/7","operator":"Hallesche Wasser- und Stadtwirtschaft GmbH","recycling:electrical_appliances":"yes","recycling:glass":"yes","recycling_type":"container","wheelchair":"yes"}},"type":"Feature"},
	{"geometry":{"coordinates":[11.927797,51.487038],"type":"Point"},"properties":{"osm_id":"4717020562","tag":{"amenity":"waste_basket"}},"type":"Feature"},
	{"geometry":{"coordinates":[11.890187,51.484805],"type":"Point"},"properties":{"osm_id":"4717020568","tag":{"amenity":"waste_basket"}},"type":"Feature"},
	{"geometry":{"coordinates":[11.940805,51.479271],"type":"Point"},"properties":{"osm_id":"4775077819","tag":{"amenity":"waste_basket"}},"type":"Feature"},
	{"geometry":{"coordinates":[11.940854,51.479092],"type":"Point"},"properties":{"osm_id":"4775077820","tag":{"amenity":"waste_basket"}},"type":"Feature"},
	{"geometry":{"coordinates":[11.940765,51.479781],"type":"Point"},"properties":{"osm_id":"4775077921","tag":{"amenity":"waste_basket"}},"type":"Feature"},
	{"geometry":{"coordinates":[11.929166,51.487036],"type":"Point"},"properties":{"osm_id":"4777495369","tag":{"amenity":"waste_basket"}},"type":"Feature"},
	{"geometry":{"coordinates":[11.930462,51.487085],"type":"Point"},"properties":{"osm_id":"4777495372","tag":{"amenity":"waste_basket"}},"type":"Feature"},
	{"geometry":{"coordinates":[11.931314,51.487161],"type":"Point"},"properties":{"osm_id":"4777495373","tag":{"amenity":"waste_basket"}},"type":"Feature"},
	{"geometry":{"coordinates":[11.932749,51.4877],"type":"Point"},"properties":{"osm_id":"4777495374","tag":{"amenity":"waste_basket"}},"type":"Feature"},
	{"geometry":{"coordinates":[11.934512,51.489274],"type":"Point"},"properties":{"osm_id":"4777495375","tag":{"amenity":"waste_basket"}},"type":"Feature"},
	{"geometry":{"coordinates":[11.933191,51.488941],"type":"Point"},"properties":{"osm_id":"4777495376","tag":{"amenity":"waste_basket"}},"type":"Feature"},
	{"geometry":{"coordinates":[11.931936,51.488873],"type":"Point"},"properties":{"osm_id":"4777495377","tag":{"amenity":"waste_basket"}},"type":"Feature"},
	{"geometry":{"coordinates":[11.930422,51.488812],"type":"Point"},"properties":{"osm_id":"4777495378","tag":{"amenity":"waste_basket"}},"type":"Feature"},
	{"geometry":{"coordinates":[11.928367,51.488315],"type":"Point"},"properties":{"osm_id":"4777495381","tag":{"amenity":"waste_basket"}},"type":"Feature"},
	{"geometry":{"coordinates":[11.926967,51.488778],"type":"Point"},"properties":{"osm_id":"4777495384","tag":{"amenity":"waste_basket"}},"type":"Feature"},
	{"geometry":{"coordinates":[11.926017,51.488742],"type":"Point"},"properties":{"osm_id":"4777495387","tag":{"amenity":"waste_basket"}},"type":"Feature"},
	{"geometry":{"coordinates":[11.924263,51.489535],"type":"Point"},"properties":{"osm_id":"4777495390","tag":{"amenity":"waste_basket"}},"type":"Feature"},
	{"geometry":{"coordinates":[11.922948,51.489868],"type":"Point"},"properties":{"osm_id":"4777495393","tag":{"amenity":"waste_basket"}},"type":"Feature"},
	{"geometry":{"coordinates":[11.924203,51.488872],"type":"Point"},"properties":{"osm_id":"4777495395","tag":{"amenity":"waste_basket"}},"type":"Feature"},
	{"geometry":{"coordinates":[11.924922,51.487962],"type":"Point"},"properties":{"osm_id":"4777495398","tag":{"amenity":"waste_basket"}},"type":"Feature"},
	{"geometry":{"coordinates":[11.926057,51.487032],"type":"Point"},"properties":{"osm_id":"4777495401","tag":{"amenity":"waste_basket"}},"type":"Feature"},
	{"geometry":{"coordinates":[11.928062,51.487004],"type":"Point"},"properties":{"osm_id":"4777495403","tag":{"amenity":"waste_basket"}},"type":"Feature"},
	{"geometry":{"coordinates":[11.936398,51.496668],"type":"Point"},"properties":{"osm_id":"4915517031","tag":{"amenity":"waste_basket"}},"type":"Feature"},
	{"geometry":{"coordinates":[11.936022,51.496493],"type":"Point"},"properties":{"osm_id":"4915517032","tag":{"amenity":"waste_basket"}},"type":"Feature"},
	{"geometry":{"coordinates":[11.93599,51.49661],"type":"Point"},"properties":{"osm_id":"4915517033","tag":{"amenity":"waste_basket"}},"type":"Feature"},
	{"geometry":{"coordinates":[11.924796,51.496766],"type":"Point"},"properties":{"osm_id":"5207600794","tag":{"amenity":"recycling","recycling_type":"container"}},"type":"Feature"},
	{"geometry":{"coordinates":[11.925266,51.497301],"type":"Point"},"properties":{"osm_id":"5207600803","tag":{"amenity":"recycling","recycling_type":"container"}},"type":"Feature"},
	{"geometry":{"coordinates":[11.893972,51.492876],"type":"Point"},"properties":{"osm_id":"5222007540","tag":{"amenity":"waste_basket"}},"type":"Feature"},
	{"geometry":{"coordinates":[11.893695,51.492791],"type":"Point"},"properties":{"osm_id":"5222007541","tag":{"amenity":"waste_basket"}},"type":"Feature"},
	{"geometry":{"coordinates":[11.937703,51.482226],"type":"Point"},"properties":{"osm_id":"5244559964","tag":{"amenity":"recycling","recycling:glass":"yes","recycling_type":"container"}},"type":"Feature"},
	{"geometry":{"coordinates":[11.946538,51.482545],"type":"Point"},"properties":{"osm_id":"5246011391","tag":{"amenity":"waste_basket"}},"type":"Feature"},
	{"geometry":{"coordinates":[11.940765,51.480026],"type":"Point"},"properties":{"osm_id":"5260250868","tag":{"amenity":"recycling","recycling:glass":"yes","recycling_type":"container"}},"type":"Feature"},
	{"geometry":{"coordinates":[11.87552,51.49783],"type":"Point"},"properties":{"osm_id":"5390364882","tag":{"amenity":"waste_basket","waste":"trash"}},"type":"Feature"},
	{"geometry":{"coordinates":[11.901374,51.479298],"type":"Point"},"properties":{"osm_id":"5669824444","tag":{"amenity":"recycling","recycling:glass":"yes","recycling_type":"container"}},"type":"Feature"},
	{"geometry":{"coordinates":[11.938247,51.501088],"type":"Point"},"properties":{"osm_id":"6245281949","tag":{"amenity":"waste_basket"}},"type":"Feature"},
	{"geometry":{"coordinates":[11.924297,51.488812],"type":"Point"},"properties":{"osm_id":"6251705899","tag":{"amenity":"waste_basket"}},"type":"Feature"},
	{"geometry":{"coordinates":[11.917352,51.49149],"type":"Point"},"properties":{"osm_id":"6251705944","tag":{"amenity":"waste_basket"}},"type":"Feature"},
	{"geometry":{"coordinates":[11.91889,51.490811],"type":"Point"},"properties":{"osm_id":"6251705949","tag":{"amenity":"waste_basket"}},"type":"Feature"},
	{"geometry":{"coordinates":[11.919466,51.49076],"type":"Point"},"properties":{"osm_id":"6251705960","tag":{"amenity":"waste_basket"}},"type":"Feature"},
	{"geometry":{"coordinates":[11.921295,51.49043],"type":"Point"},"properties":{"osm_id":"6251706186","tag":{"amenity":"waste_basket","survey:date":"2019-01-30"}},"type":"Feature"},
	{"geometry":{"coordinates":[11.921806,51.489993],"type":"Point"},"properties":{"osm_id":"6251706208","tag":{"amenity":"waste_basket","survey:date":"2019-01-30"}},"type":"Feature"},
	{"geometry":{"coordinates":[11.921062,51.488485],"type":"Point"},"properties":{"osm_id":"6251706211","tag":{"amenity":"waste_basket","survey:date":"2019-01-30"}},"type":"Feature"},
	{"geometry":{"coordinates":[11.911594,51.504383],"type":"Point"},"properties":{"osm_id":"6310733070","tag":{"amenity":"waste_basket","waste":"trash"}},"type":"Feature"},
	{"geometry":{"coordinates":[11.925136,51.50789],"type":"Point"},"properties":{"osm_id":"6375241865","tag":{"amenity":"waste_basket","waste":"trash"}},"type":"Feature"},
	{"geometry":{"coordinates":[11.952999,51.503782],"type":"Point"},"properties":{"osm_id":"6569044911","tag":{"amenity":"waste_basket","waste":"trash"}},"type":"Feature"},
	{"geometry":{"coordinates":[11.951237,51.492264],"type":"Point"},"properties":{"osm_id":"6569044912","tag":{"amenity":"waste_basket","waste":"trash"}},"type":"Feature"},
	{"geometry":{"coordinates":[11.919677,51.487102],"type":"Point"},"properties":{"osm_id":"6585177044","tag":{"amenity":"waste_basket"}},"type":"Feature"},
	{"geometry":{"coordinates":[11.921052,51.487159],"type":"Point"},"properties":{"osm_id":"6585177045","tag":{"amenity":"waste_basket"}},"type":"Feature"},
	{"geometry":{"coordinates":[11.922616,51.487222],"type":"Point"},"properties":{"osm_id":"6585177046","tag":{"amenity":"waste_basket"}},"type":"Feature"},
	{"geometry":{"coordinates":[11.924241,51.487155],"type":"Point"},"properties":{"osm_id":"6585177047","tag":{"amenity":"waste_basket"}},"type":"Feature"},
	{"geometry":{"coordinates":[11.950415,51.489267],"type":"Point"},"properties":{"osm_id":"7007401520","tag":{"amenity":"waste_basket","waste":"trash"}},"type":"Feature"},
	{"geometry":{"coordinates":[11.94685,51.494526],"type":"Point"},"properties":{"osm_id":"7007401533","tag":{"amenity":"waste_basket","waste":"trash"}},"type":"Feature"},
	{"geometry":{"coordinates":[11.946611,51.494798],"type":"Point"},"properties":{"osm_id":"7007401538","tag":{"amenity":"waste_basket","waste":"trash"}},"type":"Feature"},
	{"geometry":{"coordinates":[11.946778,51.494929],"type":"Point"},"properties":{"osm_id":"7007401545","tag":{"amenity":"waste_basket","waste":"trash"}},"type":"Feature"},
	{"geometry":{"coordinates":[11.89459,51.483728],"type":"Point"},"properties":{"osm_id":"7105182768","tag":{"amenity":"waste_basket","waste":"trash"}},"type":"Feature"},
	{"geometry":{"coordinates":[11.874066,51.491721],"type":"Point"},"properties":{"osm_id":"7211140547","tag":{"amenity":"waste_basket","waste":"trash"}},"type":"Feature"},
	{"geometry":{"coordinates":[11.941577,51.462991],"type":"Point"},"properties":{"osm_id":"7369390288","tag":{"amenity":"waste_basket"}},"type":"Feature"},
	{"geometry":{"coordinates":[11.941055,51.457434],"type":"Point"},"properties":{"osm_id":"7369390290","tag":{"amenity":"waste_basket"}},"type":"Feature"},
	{"geometry":{"coordinates":[11.931284,51.470145],"type":"Point"},"properties":{"osm_id":"7438597286","tag":{"amenity":"waste_basket"}},"type":"Feature"},
	{"geometry":{"coordinates":[11.925653,51.470041],"type":"Point"},"properties":{"osm_id":"7451248788","tag":{"amenity":"recycling","recycling:glass_bottles":"yes","recycling_type":"container"}},"type":"Feature"},
	{"geometry":{"coordinates":[11.920416,51.501349],"type":"Point"},"properties":{"osm_id":"7643087021","tag":{"amenity":"waste_basket","waste":"trash"}},"type":"Feature"},
	{"geometry":{"coordinates":[11.898359,51.48959],"type":"Point"},"properties":{"osm_id":"7643087025","tag":{"amenity":"waste_basket","waste":"trash"}},"type":"Feature"},
	{"geometry":{"coordinates":[11.910211,51.507018],"type":"Point"},"properties":{"osm_id":"7663041803","tag":{"amenity":"waste_basket","waste":"trash"}},"type":"Feature"},
	{"geometry":{"coordinates":[11.876848,51.470934],"type":"Point"},"properties":{"osm_id":"7828412126","tag":{"amenity":"waste_basket","waste":"trash"}},"type":"Feature"},
	{"geometry":{"coordinates":[11.869074,51.501651],"type":"Point"},"properties":{"osm_id":"7885845633","tag":{"amenity":"waste_basket","waste":"trash"}},"type":"Feature"}
]
}
