{
"type": "FeatureCollection",
"features": [
	{"geometry":{"coordinates":[11.948411,51.202085],"type":"Point"},"properties":{"osm_id":"75654591","tag":{"amenity":"recycling"}},"type":"Feature"},
	{"geometry":{"coordinates":[11.909423,51.181196],"type":"Point"},"properties":{"osm_id":"1878074233","tag":{"amenity":"recycling","recycling:glass_bottles":"yes","recycling_type":"container"}},"type":"Feature"},
	{"geometry":{"coordinates":[11.909528,51.185475],"type":"Point"},"properties":{"osm_id":"4011732409","tag":{"amenity":"waste_basket","level":"0"}},"type":"Feature"},
	{"geometry":{"coordinates":[11.909643,51.1855],"type":"Point"},"properties":{"osm_id":"4011732412","tag":{"amenity":"waste_basket","level":"0"}},"type":"Feature"},
	{"geometry":{"coordinates":[11.867053,51.192534],"type":"Point"},"properties":{"osm_id":"5222037518","tag":{"amenity":"waste_basket"}},"type":"Feature"},
	{"geometry":{"coordinates":[11.871837,51.191294],"type":"Point"},"properties":{"osm_id":"5222038121","tag":{"amenity":"waste_basket"}},"type":"Feature"},
	{"geometry":{"coordinates":[11.921302,51.20768],"type":"Point"},"properties":{"osm_id":"5864244607","tag":{"amenity":"recycling"}},"type":"Feature"},
	{"geometry":{"coordinates":[11.945404,51.198048],"type":"Point"},"properties":{"osm_id":"7684388561","tag":{"amenity":"recycling","description":"Glascontainer","recycling_type":"container"}},"type":"Feature"},
	{"geometry":{"coordinates":[11.945442,51.198051],"type":"Point"},"properties":{"osm_id":"7684388563","tag":{"amenity":"recycling","description":"Altkleider-Container","recycling_type":"container"}},"type":"Feature"},
	{"geometry":{"coordinates":[11.917232,51.199509],"type":"Point"},"properties":{"osm_id":"7900611585","tag":{"amenity":"waste_basket"}},"type":"Feature"}
]
}
