{
"type": "FeatureCollection",
"features": [
	{"geometry":{"coordinates":[11.865764,50.493829],"type":"Point"},"properties":{"osm_id":"3995654739","tag":{"amenity":"recycling","recycling:clothes":"no","recycling:glass":"no","recycling:glass_bottles":"no","recycling:plastic":"no","recycling_type":"container"}},"type":"Feature"},
	{"geometry":{"coordinates":[11.866974,50.494431],"type":"Point"},"properties":{"osm_id":"4450140691","tag":{"amenity":"waste_basket"}},"type":"Feature"},
	{"geometry":{"coordinates":[11.865599,50.488306],"type":"Point"},"properties":{"osm_id":"4730170993","tag":{"amenity":"waste_basket"}},"type":"Feature"},
	{"geometry":{"coordinates":[11.946803,50.467507],"type":"Point"},"properties":{"name":"Derichebourg Umwelt GmbH","osm_id":"5624670384","tag":{"addr:city":"Weischlitz","addr:country":"DE","addr:housenumber":"20","addr:postcode":"08538","addr:street":"Gefeller Stra\u00c3\u009fe","addr:suburb":"Reuth","amenity":"recycling","email":"reuth@derichebourg.com","fax":"+49 37435 99018","opening_hours":"Mo-Fr 07:00-16:00","payment:cash":"yes","payment:credit_cards":"no","payment:cryptocurrencies":"no","payment:electronic_purses":"no","phone":"+49 37435 9900","recycling:batteries":"yes","recycling:cans":"yes","recycling:cardboard":"yes","recycling:clothes":"yes","recycling:electrical_appliances":"yes","recycling:glass":"yes","recycling:glass_bottles":"yes","recycling:green_waste":"yes","recycling:paper":"yes","recycling:plastic":"yes","recycling:plastic_bottles":"yes","recycling:plastic_packaging":"yes","recycling:scrap_metal":"yes","recycling:shoes":"yes","recycling:small_appliances":"yes","recycling:waste":"yes","recycling_type":"centre","website":"https://www.derichebourg-umwelt.de/","wheelchair":"yes"}},"type":"Feature"},
	{"geometry":{"coordinates":[11.865639,50.494732],"type":"Point"},"properties":{"osm_id":"7601933877","tag":{"amenity":"waste_basket"}},"type":"Feature"}
]
}
