{
"type": "FeatureCollection",
"features": [
	{"geometry":{"coordinates":[11.921447,50.271244],"type":"Point"},"properties":{"osm_id":"267867695","tag":{"amenity":"recycling","recycling_type":"centre"}},"type":"Feature"},
	{"geometry":{"coordinates":[11.924589,50.289291],"type":"Point"},"properties":{"osm_id":"339260200","tag":{"amenity":"recycling","recycling:cans":"yes","recycling:clothes":"yes","recycling:glass":"yes","recycling:plastic":"yes"}},"type":"Feature"},
	{"geometry":{"coordinates":[11.913341,50.285937],"type":"Point"},"properties":{"osm_id":"403866441","tag":{"amenity":"recycling","recycling:cans":"yes","recycling:clothes":"yes","recycling:glass_bottles":"yes","recycling:plastic":"yes","recycling_type":"container"}},"type":"Feature"},
	{"geometry":{"coordinates":[11.921999,50.286371],"type":"Point"},"properties":{"osm_id":"403866446","tag":{"amenity":"recycling","recycling:clothes":"yes"}},"type":"Feature"},
	{"geometry":{"coordinates":[11.896415,50.280115],"type":"Point"},"properties":{"osm_id":"619929572","tag":{"amenity":"recycling"}},"type":"Feature"},
	{"geometry":{"coordinates":[11.870278,50.242773],"type":"Point"},"properties":{"osm_id":"679824961","tag":{"amenity":"recycling","recycling:batteries":"no","recycling:cans":"no"}},"type":"Feature"},
	{"geometry":{"coordinates":[11.936481,50.264627],"type":"Point"},"properties":{"osm_id":"1048925086","tag":{"amenity":"recycling","recycling:cans":"yes","recycling:glass":"yes","recycling:paper":"yes","recycling_type":"container"}},"type":"Feature"},
	{"geometry":{"coordinates":[11.943423,50.283845],"type":"Point"},"properties":{"osm_id":"1456331128","tag":{"amenity":"recycling","recycling:clothes":"yes","recycling:glass":"yes","recycling:plastic":"yes","recycling_type":"container"}},"type":"Feature"},
	{"geometry":{"coordinates":[11.912158,50.286289],"type":"Point"},"properties":{"osm_id":"2426668160","tag":{"amenity":"waste_basket"}},"type":"Feature"},
	{"geometry":{"coordinates":[11.929356,50.261039],"type":"Point"},"properties":{"osm_id":"4217289485","tag":{"amenity":"recycling","recycling:cans":"yes","recycling:clothes":"yes","recycling:glass_bottles":"yes","recycling:plastic":"yes","recycling_type":"container"}},"type":"Feature"},
	{"geometry":{"coordinates":[11.932451,50.265744],"type":"Point"},"properties":{"osm_id":"4237178102","tag":{"amenity":"recycling","operator":"Fa. B\u00c3\u00b6hme GmbH Wertstofferfassung","phone":"+49 800 2634632","recycling:cans":"yes","recycling:clothes":"yes","recycling:glass":"yes","recycling:glass_bottles":"yes","recycling:plastic":"yes","recycling:plastic_packaging":"yes","recycling:shoes":"yes"}},"type":"Feature"},
	{"geometry":{"coordinates":[11.92584,50.268692],"type":"Point"},"properties":{"osm_id":"4247044969","tag":{"amenity":"recycling","location":"overground","recycling:cans":"yes","recycling:clothes":"yes","recycling:glass":"no","recycling:glass_bottles":"yes","recycling:plastic":"yes","recycling:plastic_packaging":"yes","recycling:shoes":"yes","recycling_type":"container"}},"type":"Feature"},
	{"geometry":{"coordinates":[11.914687,50.283691],"type":"Point"},"properties":{"osm_id":"8883431447","tag":{"amenity":"waste_basket"}},"type":"Feature"},
	{"geometry":{"coordinates":[11.909428,50.274652],"type":"Point"},"properties":{"osm_id":"8883431451","tag":{"amenity":"waste_basket"}},"type":"Feature"},
	{"geometry":{"coordinates":[11.911544,50.27386],"type":"Point"},"properties":{"osm_id":"8883431452","tag":{"amenity":"waste_basket"}},"type":"Feature"},
	{"geometry":{"coordinates":[11.909922,50.272058],"type":"Point"},"properties":{"osm_id":"8883431456","tag":{"amenity":"waste_basket"}},"type":"Feature"},
	{"geometry":{"coordinates":[11.909382,50.273938],"type":"Point"},"properties":{"osm_id":"8883431460","tag":{"amenity":"waste_basket"}},"type":"Feature"},
	{"geometry":{"coordinates":[11.912762,50.286821],"type":"Point"},"properties":{"osm_id":"8883431463","tag":{"amenity":"waste_basket"}},"type":"Feature"},
	{"geometry":{"coordinates":[11.907646,50.275081],"type":"Point"},"properties":{"osm_id":"8883431466","tag":{"amenity":"waste_basket"}},"type":"Feature"},
	{"geometry":{"coordinates":[11.913406,50.286146],"type":"Point"},"properties":{"osm_id":"8883491054","tag":{"amenity":"waste_basket"}},"type":"Feature"},
	{"geometry":{"coordinates":[11.899777,50.270658],"type":"Point"},"properties":{"osm_id":"9177795023","tag":{"amenity":"waste_basket"}},"type":"Feature"}
]
}
