{
"type": "FeatureCollection",
"features": [
	{"geometry":{"coordinates":[11.950169,49.547875],"type":"Point"},"properties":{"osm_id":"1459218312","tag":{"amenity":"recycling","recycling:green_waste":"yes","recycling_type":"container"}},"type":"Feature"},
	{"geometry":{"coordinates":[11.949845,49.540668],"type":"Point"},"properties":{"name":"Wertstoffhof Hirschau","osm_id":"1544867826","tag":{"amenity":"recycling","opening_hours":"Mar Su[-1] - Oct Su[-1] - 1 days: Th 09:00-18:00, Tu 15:00-18:00; Sa 09:00-12:00; Oct Su[-1] - Mar Su[-1] - 1 days: Tu 09:00-17:00, Th 09:00-17:00, Sa 09:00-12:00; Mo, We, Fr, Su, PH Off","recycling:cans":"yes","recycling:clothes":"yes","recycling:glass":"yes","recycling:paper":"yes","recycling:scrap_metal":"yes","recycling_type":"centre"}},"type":"Feature"},
	{"geometry":{"coordinates":[11.945404,49.548091],"type":"Point"},"properties":{"osm_id":"1621712955","tag":{"amenity":"recycling","recycling:cans":"yes","recycling:glass":"yes","recycling_type":"container"}},"type":"Feature"},
	{"geometry":{"coordinates":[11.932865,49.541048],"type":"Point"},"properties":{"osm_id":"1641038190","tag":{"amenity":"recycling","recycling:cans":"yes","recycling:glass":"yes","recycling_type":"container"}},"type":"Feature"},
	{"geometry":{"coordinates":[11.945241,49.544588],"type":"Point"},"properties":{"osm_id":"3920396881","tag":{"amenity":"waste_basket"}},"type":"Feature"},
	{"geometry":{"coordinates":[11.944038,49.544577],"type":"Point"},"properties":{"osm_id":"3920515084","tag":{"amenity":"waste_basket"}},"type":"Feature"},
	{"geometry":{"coordinates":[11.944897,49.544654],"type":"Point"},"properties":{"osm_id":"3920595413","tag":{"amenity":"waste_basket"}},"type":"Feature"},
	{"geometry":{"coordinates":[11.876319,49.537406],"type":"Point"},"properties":{"osm_id":"4373354022","tag":{"amenity":"recycling","recycling:cans":"yes","recycling:clothes":"yes","recycling:glass":"yes","recycling_type":"container"}},"type":"Feature"},
	{"geometry":{"coordinates":[11.901309,49.526659],"type":"Point"},"properties":{"osm_id":"5239632178","tag":{"amenity":"waste_basket"}},"type":"Feature"},
	{"geometry":{"coordinates":[11.887842,49.53175],"type":"Point"},"properties":{"osm_id":"5520671681","tag":{"amenity":"waste_basket","waste":"trash"}},"type":"Feature"},
	{"geometry":{"coordinates":[11.948902,49.543771],"type":"Point"},"properties":{"osm_id":"5550554695","tag":{"amenity":"waste_basket"}},"type":"Feature"},
	{"geometry":{"coordinates":[11.86974,49.551777],"type":"Point"},"properties":{"osm_id":"5751854250","tag":{"amenity":"waste_basket","waste":"trash"}},"type":"Feature"},
	{"geometry":{"coordinates":[11.894315,49.516193],"type":"Point"},"properties":{"osm_id":"5964628587","tag":{"amenity":"waste_basket","waste":"trash"}},"type":"Feature"},
	{"geometry":{"coordinates":[11.894618,49.516284],"type":"Point"},"properties":{"osm_id":"5964628588","tag":{"amenity":"waste_basket","waste":"trash"}},"type":"Feature"},
	{"geometry":{"coordinates":[11.93438,49.540523],"type":"Point"},"properties":{"osm_id":"6250287629","tag":{"amenity":"waste_basket","waste":"trash"}},"type":"Feature"},
	{"geometry":{"coordinates":[11.935042,49.54007],"type":"Point"},"properties":{"osm_id":"6250287630","tag":{"amenity":"waste_basket","waste":"trash"}},"type":"Feature"},
	{"geometry":{"coordinates":[11.947508,49.542686],"type":"Point"},"properties":{"osm_id":"6264190417","tag":{"amenity":"waste_basket","waste":"trash"}},"type":"Feature"},
	{"geometry":{"coordinates":[11.940141,49.544173],"type":"Point"},"properties":{"osm_id":"6478762326","tag":{"amenity":"waste_basket","waste":"trash"}},"type":"Feature"},
	{"geometry":{"coordinates":[11.943084,49.543796],"type":"Point"},"properties":{"osm_id":"6478762334","tag":{"amenity":"waste_basket","waste":"trash"}},"type":"Feature"},
	{"geometry":{"coordinates":[11.930283,49.540477],"type":"Point"},"properties":{"osm_id":"6478762340","tag":{"amenity":"waste_basket","waste":"trash"}},"type":"Feature"},
	{"geometry":{"coordinates":[11.947245,49.549871],"type":"Point"},"properties":{"osm_id":"6547547899","tag":{"amenity":"waste_basket","waste":"trash"}},"type":"Feature"}
]
}
