{
"type": "FeatureCollection",
"features": [
	{"geometry":{"coordinates":[11.896948,48.44919],"type":"Point"},"properties":{"osm_id":"52041421","tag":{"amenity":"recycling","check_date":"2021-08-06","mapillary":"yZFUCGhH5aHfU5YQFKA02w","recycling:glass_bottles":"yes","recycling_type":"container","survey:date":"2017-08-05"}},"type":"Feature"},
	{"geometry":{"coordinates":[11.951441,48.437496],"type":"Point"},"properties":{"osm_id":"1860392610","tag":{"amenity":"waste_basket"}},"type":"Feature"},
	{"geometry":{"coordinates":[11.92513,48.456495],"type":"Point"},"properties":{"osm_id":"4304829988","tag":{"addr:city":"Moosburg a.d. Isar","addr:country":"DE","addr:postcode":"85368","addr:street":"Stadtbadstra\u00c3\u009fe","amenity":"recycling","check_date":"2021-07-05","recycling:glass":"no","recycling:glass_bottles":"yes","recycling:paper":"yes","recycling_type":"container"}},"type":"Feature"},
	{"geometry":{"coordinates":[11.901384,48.44997],"type":"Point"},"properties":{"osm_id":"8513636119","tag":{"amenity":"waste_basket","check_date":"2021-08-06","colour":"gray","material":"metal","waste":"trash"}},"type":"Feature"},
	{"geometry":{"coordinates":[11.902691,48.44995],"type":"Point"},"properties":{"osm_id":"8513709317","tag":{"amenity":"waste_basket","check_date":"2021-08-06","waste":"trash"}},"type":"Feature"},
	{"geometry":{"coordinates":[11.896053,48.448856],"type":"Point"},"properties":{"osm_id":"8514145635","tag":{"amenity":"waste_basket","check_date":"2021-08-06","colour":"green","material":"metal","waste":"trash"}},"type":"Feature"},
	{"geometry":{"coordinates":[11.93858,48.414485],"type":"Point"},"properties":{"osm_id":"8596305420","tag":{"amenity":"recycling","opening_hours":"Mo-Sa 07:00-12:00,14:00-19:00; Su,PH off","recycling:cans":"yes","recycling:cardboard":"yes","recycling:glass_bottles":"yes","recycling:paper":"yes","recycling_type":"container","website":"https://www.landkreis-erding.de/abfallwirtschaft/rund-um-die-entsorgung/recyclinghoefe-containerplaetze/"}},"type":"Feature"},
	{"geometry":{"coordinates":[11.875511,48.426178],"type":"Point"},"properties":{"osm_id":"8718821246","tag":{"amenity":"waste_basket"}},"type":"Feature"},
	{"geometry":{"coordinates":[11.922939,48.45334],"type":"Point"},"properties":{"osm_id":"8925728022","tag":{"amenity":"waste_basket","check_date":"2021-07-16","colour":"green","material":"steel","waste":"trash"}},"type":"Feature"},
	{"geometry":{"coordinates":[11.933882,48.457838],"type":"Point"},"properties":{"osm_id":"8958186209","tag":{"amenity":"waste_basket","check_date":"2021-08-23","colour":"green","material":"metal"}},"type":"Feature"}
]
}
