{
"type": "FeatureCollection",
"features": [
	{"geometry":{"coordinates":[11.903205,48.295996],"type":"Point"},"properties":{"osm_id":"249675238","tag":{"amenity":"recycling","opening_hours":"Mo-Sa 07:00-12:00, 14:00-19:00","recycling:cans":"yes","recycling:cardboard":"yes","recycling:clothes":"yes","recycling:glass_bottles":"yes","recycling:paper":"yes","recycling_type":"container"}},"type":"Feature"},
	{"geometry":{"coordinates":[11.885066,48.307828],"type":"Point"},"properties":{"osm_id":"268066524","tag":{"amenity":"recycling","recycling:cans":"yes","recycling:cardboard":"yes","recycling:clothes":"yes","recycling:glass_bottles":"yes","recycling:paper":"yes","recycling_type":"container"}},"type":"Feature"},
	{"geometry":{"coordinates":[11.892221,48.287018],"type":"Point"},"properties":{"osm_id":"286005772","tag":{"amenity":"recycling","recycling:cans":"yes","recycling:clothes":"yes","recycling:glass":"yes","recycling:paper":"yes","recycling_type":"container"}},"type":"Feature"},
	{"geometry":{"coordinates":[11.900694,48.312255],"type":"Point"},"properties":{"osm_id":"287218943","tag":{"amenity":"recycling","recycling:cans":"yes","recycling:cardboard":"yes","recycling:glass":"yes","recycling:paper":"yes","recycling_type":"container"}},"type":"Feature"},
	{"geometry":{"coordinates":[11.923357,48.305863],"type":"Point"},"properties":{"osm_id":"1916270553","tag":{"amenity":"recycling"}},"type":"Feature"},
	{"geometry":{"coordinates":[11.927749,48.330551],"type":"Point"},"properties":{"barrier":"gate","osm_id":"2181071981"},"type":"Feature"},
	{"geometry":{"coordinates":[11.892146,48.311603],"type":"Point"},"properties":{"barrier":"gate","osm_id":"2197999920"},"type":"Feature"},
	{"geometry":{"coordinates":[11.892137,48.311817],"type":"Point"},"properties":{"barrier":"gate","osm_id":"2197999931","tag":{"access":"yes"}},"type":"Feature"},
	{"geometry":{"coordinates":[11.910152,48.309508],"type":"Point"},"properties":{"osm_id":"2219597865","tag":{"amenity":"recycling"}},"type":"Feature"},
	{"geometry":{"coordinates":[11.9088,48.31874],"type":"Point"},"properties":{"osm_id":"2351645454","tag":{"amenity":"waste_basket"}},"type":"Feature"},
	{"geometry":{"coordinates":[11.906973,48.319347],"type":"Point"},"properties":{"osm_id":"2351645457","tag":{"amenity":"waste_basket"}},"type":"Feature"},
	{"geometry":{"coordinates":[11.906212,48.319482],"type":"Point"},"properties":{"osm_id":"2351645459","tag":{"amenity":"waste_basket"}},"type":"Feature"},
	{"geometry":{"coordinates":[11.900223,48.294641],"type":"Point"},"properties":{"osm_id":"2382092931","tag":{"amenity":"recycling","recycling_type":"container"}},"type":"Feature"},
	{"geometry":{"coordinates":[11.902035,48.283976],"type":"Point"},"properties":{"osm_id":"2394269977","tag":{"amenity":"waste_basket"}},"type":"Feature"},
	{"geometry":{"coordinates":[11.891877,48.293295],"type":"Point"},"properties":{"osm_id":"2417985963","tag":{"amenity":"waste_basket"}},"type":"Feature"},
	{"geometry":{"coordinates":[11.90214,48.284562],"type":"Point"},"properties":{"osm_id":"2421115377","tag":{"amenity":"waste_basket"}},"type":"Feature"},
	{"geometry":{"coordinates":[11.902027,48.284802],"type":"Point"},"properties":{"osm_id":"2421115379","tag":{"amenity":"waste_basket"}},"type":"Feature"},
	{"geometry":{"coordinates":[11.902332,48.285261],"type":"Point"},"properties":{"osm_id":"2421115384","tag":{"amenity":"waste_basket"}},"type":"Feature"},
	{"geometry":{"coordinates":[11.90239,48.285812],"type":"Point"},"properties":{"osm_id":"2421115387","tag":{"amenity":"waste_basket"}},"type":"Feature"},
	{"geometry":{"coordinates":[11.902282,48.286354],"type":"Point"},"properties":{"osm_id":"2421115397","tag":{"amenity":"waste_basket"}},"type":"Feature"},
	{"geometry":{"coordinates":[11.902316,48.286604],"type":"Point"},"properties":{"osm_id":"2421115398","tag":{"amenity":"waste_basket"}},"type":"Feature"},
	{"geometry":{"coordinates":[11.902334,48.287328],"type":"Point"},"properties":{"osm_id":"2421115402","tag":{"amenity":"waste_basket"}},"type":"Feature"},
	{"geometry":{"coordinates":[11.90204,48.287406],"type":"Point"},"properties":{"osm_id":"2421115410","tag":{"amenity":"waste_basket"}},"type":"Feature"},
	{"geometry":{"coordinates":[11.901772,48.287802],"type":"Point"},"properties":{"osm_id":"2421115412","tag":{"amenity":"waste_basket"}},"type":"Feature"},
	{"geometry":{"coordinates":[11.900717,48.290327],"type":"Point"},"properties":{"barrier":"gate","osm_id":"2461754416"},"type":"Feature"},
	{"geometry":{"coordinates":[11.89986,48.284103],"type":"Point"},"properties":{"barrier":"entrance","osm_id":"2487608091"},"type":"Feature"},
	{"geometry":{"coordinates":[11.899693,48.284108],"type":"Point"},"properties":{"barrier":"entrance","osm_id":"2487608092"},"type":"Feature"},
	{"geometry":{"coordinates":[11.900279,48.285892],"type":"Point"},"properties":{"barrier":"entrance","osm_id":"2487608104"},"type":"Feature"},
	{"geometry":{"coordinates":[11.900113,48.285896],"type":"Point"},"properties":{"barrier":"entrance","osm_id":"2487608105"},"type":"Feature"},
	{"geometry":{"coordinates":[11.89631,48.310261],"type":"Point"},"properties":{"osm_id":"2601435720","tag":{"amenity":"waste_basket"}},"type":"Feature"},
	{"geometry":{"coordinates":[11.906904,48.307387],"type":"Point"},"properties":{"osm_id":"2661183361","tag":{"amenity":"waste_basket"}},"type":"Feature"},
	{"geometry":{"coordinates":[11.913544,48.305705],"type":"Point"},"properties":{"osm_id":"3052023815","tag":{"amenity":"recycling","recycling:clothes":"yes","recycling_type":"container"}},"type":"Feature"},
	{"geometry":{"coordinates":[11.910449,48.293701],"type":"Point"},"properties":{"osm_id":"3058486833","tag":{"amenity":"recycling","recycling:clothes":"yes","recycling_type":"container"}},"type":"Feature"},
	{"geometry":{"coordinates":[11.892441,48.296338],"type":"Point"},"properties":{"osm_id":"3097628603","tag":{"amenity":"recycling","recycling:clothes":"yes","recycling:paper":"yes","recycling_type":"container"}},"type":"Feature"},
	{"geometry":{"coordinates":[11.895312,48.297309],"type":"Point"},"properties":{"osm_id":"3106350080","tag":{"amenity":"recycling","recycling:clothes":"yes","recycling:paper":"yes","recycling_type":"container"}},"type":"Feature"},
	{"geometry":{"coordinates":[11.893595,48.298988],"type":"Point"},"properties":{"osm_id":"3106350089","tag":{"amenity":"recycling","recycling:cans":"yes","recycling:clothes":"yes","recycling:glass":"yes","recycling:paper":"yes","recycling_type":"container"}},"type":"Feature"},
	{"geometry":{"coordinates":[11.908955,48.313478],"type":"Point"},"properties":{"osm_id":"3272682866","tag":{"amenity":"waste_basket"}},"type":"Feature"},
	{"geometry":{"coordinates":[11.885749,48.308717],"type":"Point"},"properties":{"osm_id":"4717051695","tag":{"amenity":"waste_basket"}},"type":"Feature"},
	{"geometry":{"coordinates":[11.891405,48.310071],"type":"Point"},"properties":{"osm_id":"5304921184","tag":{"amenity":"waste_basket"}},"type":"Feature"},
	{"geometry":{"coordinates":[11.893196,48.303775],"type":"Point"},"properties":{"osm_id":"5368528848","tag":{"amenity":"waste_basket"}},"type":"Feature"},
	{"geometry":{"coordinates":[11.913999,48.297785],"type":"Point"},"properties":{"osm_id":"6600885416","tag":{"amenity":"waste_basket"}},"type":"Feature"},
	{"geometry":{"coordinates":[11.912383,48.297029],"type":"Point"},"properties":{"osm_id":"6600898037","tag":{"amenity":"waste_basket"}},"type":"Feature"},
	{"geometry":{"coordinates":[11.909101,48.308851],"type":"Point"},"properties":{"osm_id":"6600903398","tag":{"amenity":"waste_basket"}},"type":"Feature"},
	{"geometry":{"coordinates":[11.914493,48.299015],"type":"Point"},"properties":{"osm_id":"6600904531","tag":{"amenity":"waste_basket"}},"type":"Feature"},
	{"geometry":{"coordinates":[11.907682,48.295482],"type":"Point"},"properties":{"osm_id":"6611851409","tag":{"amenity":"waste_basket"}},"type":"Feature"},
	{"geometry":{"coordinates":[11.908705,48.300661],"type":"Point"},"properties":{"osm_id":"6611853923","tag":{"amenity":"waste_basket"}},"type":"Feature"},
	{"geometry":{"coordinates":[11.908726,48.30013],"type":"Point"},"properties":{"osm_id":"6611853924","tag":{"amenity":"waste_basket"}},"type":"Feature"},
	{"geometry":{"coordinates":[11.901849,48.293506],"type":"Point"},"properties":{"osm_id":"6611854795","tag":{"amenity":"waste_basket"}},"type":"Feature"},
	{"geometry":{"coordinates":[11.888791,48.305824],"type":"Point"},"properties":{"osm_id":"6615143489","tag":{"amenity":"waste_basket"}},"type":"Feature"},
	{"geometry":{"coordinates":[11.896725,48.299172],"type":"Point"},"properties":{"osm_id":"6615143492","tag":{"amenity":"recycling","opening_hours":"Mo-Sa 07:00-12:00, 14:00-19:00","recycling:cans":"yes","recycling:cardboard":"yes","recycling:clothes":"yes","recycling:glass_bottles":"yes","recycling:paper":"yes","recycling_type":"container"}},"type":"Feature"},
	{"geometry":{"coordinates":[11.896588,48.298505],"type":"Point"},"properties":{"osm_id":"6615143493","tag":{"amenity":"waste_basket"}},"type":"Feature"},
	{"geometry":{"coordinates":[11.904998,48.298546],"type":"Point"},"properties":{"osm_id":"6615143496","tag":{"amenity":"waste_basket"}},"type":"Feature"},
	{"geometry":{"coordinates":[11.906419,48.298735],"type":"Point"},"properties":{"osm_id":"6615143500","tag":{"amenity":"waste_basket"}},"type":"Feature"},
	{"geometry":{"coordinates":[11.905883,48.298476],"type":"Point"},"properties":{"osm_id":"6615143501","tag":{"amenity":"waste_basket"}},"type":"Feature"},
	{"geometry":{"coordinates":[11.906969,48.299461],"type":"Point"},"properties":{"osm_id":"6615143504","tag":{"amenity":"waste_basket"}},"type":"Feature"},
	{"geometry":{"coordinates":[11.908721,48.300769],"type":"Point"},"properties":{"osm_id":"6615143505","tag":{"amenity":"waste_basket"}},"type":"Feature"},
	{"geometry":{"coordinates":[11.899916,48.296247],"type":"Point"},"properties":{"osm_id":"6617829951","tag":{"amenity":"waste_basket"}},"type":"Feature"},
	{"geometry":{"coordinates":[11.905347,48.301928],"type":"Point"},"properties":{"osm_id":"6617829953","tag":{"amenity":"waste_basket"}},"type":"Feature"},
	{"geometry":{"coordinates":[11.903314,48.301422],"type":"Point"},"properties":{"osm_id":"6617829962","tag":{"amenity":"waste_basket"}},"type":"Feature"},
	{"geometry":{"coordinates":[11.903308,48.301216],"type":"Point"},"properties":{"osm_id":"6617829965","tag":{"amenity":"waste_basket"}},"type":"Feature"},
	{"geometry":{"coordinates":[11.903335,48.30095],"type":"Point"},"properties":{"osm_id":"6617829970","tag":{"amenity":"waste_basket"}},"type":"Feature"},
	{"geometry":{"coordinates":[11.903556,48.300388],"type":"Point"},"properties":{"osm_id":"6617829971","tag":{"amenity":"waste_basket"}},"type":"Feature"},
	{"geometry":{"coordinates":[11.903864,48.299429],"type":"Point"},"properties":{"osm_id":"6617829974","tag":{"amenity":"waste_basket"}},"type":"Feature"},
	{"geometry":{"coordinates":[11.904093,48.299124],"type":"Point"},"properties":{"osm_id":"6617829977","tag":{"amenity":"waste_basket"}},"type":"Feature"},
	{"geometry":{"coordinates":[11.902856,48.297973],"type":"Point"},"properties":{"osm_id":"6713004370","tag":{"amenity":"waste_basket"}},"type":"Feature"},
	{"geometry":{"coordinates":[11.90401,48.297329],"type":"Point"},"properties":{"osm_id":"6713041914","tag":{"amenity":"waste_basket"}},"type":"Feature"},
	{"geometry":{"coordinates":[11.904255,48.297209],"type":"Point"},"properties":{"osm_id":"6713041915","tag":{"amenity":"waste_basket"}},"type":"Feature"},
	{"geometry":{"coordinates":[11.904545,48.297099],"type":"Point"},"properties":{"osm_id":"6713041930","tag":{"amenity":"waste_basket"}},"type":"Feature"},
	{"geometry":{"coordinates":[11.904977,48.29766],"type":"Point"},"properties":{"osm_id":"6713041936","tag":{"amenity":"waste_basket"}},"type":"Feature"},
	{"geometry":{"coordinates":[11.903742,48.299692],"type":"Point"},"properties":{"osm_id":"6713041944","tag":{"amenity":"waste_basket"}},"type":"Feature"},
	{"geometry":{"coordinates":[11.905974,48.30051],"type":"Point"},"properties":{"osm_id":"6713041952","tag":{"amenity":"waste_basket"}},"type":"Feature"},
	{"geometry":{"coordinates":[11.907485,48.299773],"type":"Point"},"properties":{"osm_id":"6713041954","tag":{"amenity":"waste_basket"}},"type":"Feature"},
	{"geometry":{"coordinates":[11.90469,48.297879],"type":"Point"},"properties":{"osm_id":"6721882429","tag":{"amenity":"waste_basket"}},"type":"Feature"},
	{"geometry":{"coordinates":[11.9056,48.299095],"type":"Point"},"properties":{"osm_id":"6721882434","tag":{"amenity":"waste_basket"}},"type":"Feature"},
	{"geometry":{"coordinates":[11.906497,48.298376],"type":"Point"},"properties":{"osm_id":"6721882437","tag":{"amenity":"waste_basket"}},"type":"Feature"},
	{"geometry":{"coordinates":[11.903262,48.298926],"type":"Point"},"properties":{"osm_id":"6721882454","tag":{"amenity":"waste_basket"}},"type":"Feature"},
	{"geometry":{"coordinates":[11.902423,48.299225],"type":"Point"},"properties":{"osm_id":"6721882470","tag":{"amenity":"waste_basket"}},"type":"Feature"},
	{"geometry":{"coordinates":[11.90321,48.298075],"type":"Point"},"properties":{"osm_id":"6721887702","tag":{"amenity":"waste_basket"}},"type":"Feature"},
	{"geometry":{"coordinates":[11.905922,48.300696],"type":"Point"},"properties":{"osm_id":"6724668484","tag":{"amenity":"waste_basket"}},"type":"Feature"},
	{"geometry":{"coordinates":[11.902584,48.301839],"type":"Point"},"properties":{"osm_id":"6724671889","tag":{"amenity":"waste_basket"}},"type":"Feature"},
	{"geometry":{"coordinates":[11.902297,48.301663],"type":"Point"},"properties":{"osm_id":"6724671891","tag":{"amenity":"waste_basket"}},"type":"Feature"},
	{"geometry":{"coordinates":[11.905156,48.302356],"type":"Point"},"properties":{"osm_id":"6813823340","tag":{"amenity":"waste_basket"}},"type":"Feature"},
	{"geometry":{"coordinates":[11.90447,48.302272],"type":"Point"},"properties":{"osm_id":"6813823365","tag":{"amenity":"waste_basket"}},"type":"Feature"},
	{"geometry":{"coordinates":[11.904633,48.30228],"type":"Point"},"properties":{"osm_id":"6813823368","tag":{"amenity":"waste_basket"}},"type":"Feature"},
	{"geometry":{"coordinates":[11.904738,48.302352],"type":"Point"},"properties":{"osm_id":"6813823372","tag":{"amenity":"waste_basket"}},"type":"Feature"}
]
}
