{
"type": "FeatureCollection",
"features": [
	{"geometry":{"coordinates":[11.867503,48.184781],"type":"Point"},"properties":{"osm_id":"304545552","tag":{"amenity":"recycling","recycling:cardboard":"yes","recycling:clothes":"yes","recycling:magazines":"yes","recycling:newspaper":"yes","recycling:paper":"yes","recycling:paper_packaging":"yes","recycling:shoes":"yes","recycling_type":"container"}},"type":"Feature"},
	{"geometry":{"coordinates":[11.872713,48.192657],"type":"Point"},"properties":{"osm_id":"408441851","tag":{"amenity":"recycling","recycling:glass_bottles":"yes","recycling:paper":"yes","recycling_type":"container"}},"type":"Feature"},
	{"geometry":{"coordinates":[11.868432,48.191285],"type":"Point"},"properties":{"osm_id":"413911824","tag":{"amenity":"recycling","recycling:batteries":"yes","recycling:cans":"yes","recycling:clothes":"yes","recycling:glass_bottles":"yes","recycling:paper":"yes","recycling_type":"container"}},"type":"Feature"},
	{"geometry":{"coordinates":[11.920696,48.169847],"type":"Point"},"properties":{"osm_id":"1781954602","tag":{"amenity":"recycling","recycling:clothes":"yes","recycling:glass":"yes","recycling:paper":"yes","recycling:plastic":"yes","recycling_type":"container"}},"type":"Feature"},
	{"geometry":{"coordinates":[11.917314,48.172321],"type":"Point"},"properties":{"name":"Wertstoffhof","osm_id":"2036156897","tag":{"amenity":"recycling","recycling_type":"centre"}},"type":"Feature"},
	{"geometry":{"coordinates":[11.865462,48.195625],"type":"Point"},"properties":{"osm_id":"2332049206","tag":{"amenity":"recycling","recycling_type":"container"}},"type":"Feature"},
	{"geometry":{"coordinates":[11.916817,48.169159],"type":"Point"},"properties":{"osm_id":"4230719138","tag":{"amenity":"waste_basket"}},"type":"Feature"},
	{"geometry":{"coordinates":[11.875115,48.195585],"type":"Point"},"properties":{"osm_id":"4460930597","tag":{"amenity":"waste_basket","survey:date":"2016-10-23"}},"type":"Feature"},
	{"geometry":{"coordinates":[11.88315,48.208751],"type":"Point"},"properties":{"osm_id":"4460930706","tag":{"amenity":"waste_basket"}},"type":"Feature"},
	{"geometry":{"coordinates":[11.878636,48.218094],"type":"Point"},"properties":{"osm_id":"4460930761","tag":{"amenity":"waste_basket","survey:date":"2016-10-23"}},"type":"Feature"},
	{"geometry":{"coordinates":[11.944227,48.199006],"type":"Point"},"properties":{"osm_id":"5089267900","tag":{"amenity":"recycling","opening_hours":"Mo-Sa 07:00-12:00,14:00-19:00; Su,PH off","recycling:cans":"yes","recycling:cardboard":"yes","recycling:clothes":"yes","recycling:glass_bottles":"yes","recycling:paper":"yes","recycling:shoes":"yes","recycling_type":"container","website":"https://www.landkreis-erding.de/abfallwirtschaft/rund-um-die-entsorgung/recyclinghoefe-containerplaetze/"}},"type":"Feature"},
	{"geometry":{"coordinates":[11.939712,48.198928],"type":"Point"},"properties":{"osm_id":"5089268126","tag":{"amenity":"waste_basket","survey:date":"2017-09-08"}},"type":"Feature"},
	{"geometry":{"coordinates":[11.877086,48.190198],"type":"Point"},"properties":{"osm_id":"5552726908","tag":{"amenity":"waste_basket","waste":"trash"}},"type":"Feature"},
	{"geometry":{"coordinates":[11.888703,48.190144],"type":"Point"},"properties":{"osm_id":"7973734116","tag":{"amenity":"waste_basket"}},"type":"Feature"},
	{"geometry":{"coordinates":[11.877659,48.184277],"type":"Point"},"properties":{"osm_id":"7975997456","tag":{"amenity":"waste_basket"}},"type":"Feature"},
	{"geometry":{"coordinates":[11.867523,48.188559],"type":"Point"},"properties":{"osm_id":"8241325079","tag":{"amenity":"recycling","recycling:paper":"yes","recycling_type":"container"}},"type":"Feature"},
	{"geometry":{"coordinates":[11.867751,48.186199],"type":"Point"},"properties":{"osm_id":"8491978540","tag":{"amenity":"waste_disposal"}},"type":"Feature"},
	{"geometry":{"coordinates":[11.894287,48.200254],"type":"Point"},"properties":{"osm_id":"8596077559","tag":{"amenity":"recycling","opening_hours":"Mo-Sa 07:00-12:00,14:00-19:00; Su,PH off","recycling:cans":"yes","recycling:cardboard":"yes","recycling:clothes":"yes","recycling:glass_bottles":"yes","recycling:paper":"yes","recycling:shoes":"yes","recycling_type":"container","website":"https://www.landkreis-erding.de/abfallwirtschaft/rund-um-die-entsorgung/recyclinghoefe-containerplaetze/"}},"type":"Feature"},
	{"geometry":{"coordinates":[11.872389,48.215303],"type":"Point"},"properties":{"osm_id":"8603459211","tag":{"amenity":"waste_basket"}},"type":"Feature"}
]
}
