{
"type": "FeatureCollection",
"lastupdate": "2020-08-03T00:00:00Z",
"features": [
	{"geometry":{"coordinates":[11.949997,47.864299],"type":"Point"},"properties":{"osm_id":"309457516","tag":{"amenity":"recycling","recycling_type":"container"}},"type":"Feature"},
	{"geometry":{"coordinates":[11.899772,47.871603],"type":"Point"},"properties":{"osm_id":"436150415","tag":{"amenity":"recycling","mapillary":"ESiES1cI8MuTD80lV0XiQw","operator":"Markt Bruckm\u00fchl","recycling:cans":"yes","recycling:clothes":"no","recycling:glass":"yes","recycling:paper":"yes","recycling_type":"container","survey:date":"2019-02-27"}},"type":"Feature"},
	{"geometry":{"coordinates":[11.943324,47.863831],"type":"Point"},"properties":{"osm_id":"2737328301","tag":{"amenity":"recycling","recycling:cans":"no","recycling:clothes":"no","recycling:glass":"no","recycling:paper":"yes","recycling_type":"container"}},"type":"Feature"},
	{"geometry":{"coordinates":[11.912244,47.870917],"type":"Point"},"properties":{"osm_id":"4603958298","tag":{"amenity":"recycling","recycling:clothes":"yes","recycling:glass_bottles":"yes","recycling:paper":"yes","recycling_type":"container"}},"type":"Feature"},
	{"geometry":{"coordinates":[11.939268,47.87142],"type":"Point"},"properties":{"osm_id":"5651106375","tag":{"amenity":"recycling","recycling_type":"container"}},"type":"Feature"},
	{"geometry":{"coordinates":[11.91952,47.821397],"type":"Point"},"properties":{"osm_id":"6436525330","tag":{"amenity":"waste_basket"}},"type":"Feature"},
	{"geometry":{"coordinates":[11.919565,47.822832],"type":"Point"},"properties":{"osm_id":"6436525379","tag":{"amenity":"waste_basket"}},"type":"Feature"},
	{"geometry":{"coordinates":[11.898521,47.82716],"type":"Point"},"properties":{"osm_id":"6436525395","tag":{"amenity":"waste_basket"}},"type":"Feature"},
	{"geometry":{"coordinates":[11.898387,47.827242],"type":"Point"},"properties":{"osm_id":"6436525398","tag":{"amenity":"waste_basket"}},"type":"Feature"},
	{"geometry":{"coordinates":[11.866242,47.846282],"type":"Point"},"properties":{"osm_id":"6436525713","tag":{"amenity":"waste_basket"}},"type":"Feature"},
	{"geometry":{"coordinates":[11.866198,47.846408],"type":"Point"},"properties":{"osm_id":"6436525724","tag":{"amenity":"waste_basket"}},"type":"Feature"}
]
}
