{
"type": "FeatureCollection",
"features": [
	{"geometry":{"coordinates":[11.933531,46.803366],"type":"Point"},"properties":{"name":"Recyclinghof","osm_id":"1990988614","tag":{"amenity":"recycling","recycling_type":"centre"}},"type":"Feature"},
	{"geometry":{"coordinates":[11.936036,46.801889],"type":"Point"},"properties":{"osm_id":"3258391039","tag":{"amenity":"recycling","recycling:cans":"yes","recycling:glass":"yes","recycling:paper":"yes"}},"type":"Feature"},
	{"geometry":{"coordinates":[11.948785,46.803712],"type":"Point"},"properties":{"osm_id":"3265136404","tag":{"amenity":"recycling","recycling:cans":"yes","recycling:glass":"yes","recycling:paper":"yes"}},"type":"Feature"},
	{"geometry":{"coordinates":[11.938683,46.800717],"type":"Point"},"properties":{"osm_id":"3314142929","tag":{"amenity":"recycling","recycling:cans":"yes","recycling:glass":"yes","recycling:paper":"yes"}},"type":"Feature"},
	{"geometry":{"coordinates":[11.93672,46.807651],"type":"Point"},"properties":{"osm_id":"3657873005","tag":{"amenity":"recycling","recycling:cans":"yes","recycling:glass":"yes","recycling:paper":"yes"}},"type":"Feature"},
	{"geometry":{"coordinates":[11.938373,46.802711],"type":"Point"},"properties":{"osm_id":"3657873016","tag":{"amenity":"waste_basket"}},"type":"Feature"},
	{"geometry":{"coordinates":[11.938602,46.800684],"type":"Point"},"properties":{"osm_id":"3660749331","tag":{"amenity":"waste_basket"}},"type":"Feature"},
	{"geometry":{"coordinates":[11.939929,46.802936],"type":"Point"},"properties":{"osm_id":"3663251980","tag":{"amenity":"waste_basket"}},"type":"Feature"},
	{"geometry":{"coordinates":[11.942027,46.817276],"type":"Point"},"properties":{"osm_id":"3682037337","tag":{"amenity":"waste_basket"}},"type":"Feature"},
	{"geometry":{"coordinates":[11.932387,46.812704],"type":"Point"},"properties":{"osm_id":"3682037339","tag":{"amenity":"waste_basket"}},"type":"Feature"},
	{"geometry":{"coordinates":[11.947993,46.802385],"type":"Point"},"properties":{"osm_id":"3709393819","tag":{"amenity":"waste_basket"}},"type":"Feature"},
	{"geometry":{"coordinates":[11.946875,46.802852],"type":"Point"},"properties":{"osm_id":"3709393820","tag":{"amenity":"waste_basket"}},"type":"Feature"},
	{"geometry":{"coordinates":[11.947015,46.801],"type":"Point"},"properties":{"osm_id":"3713907596","tag":{"amenity":"waste_basket"}},"type":"Feature"}
]
}
