{
"type": "FeatureCollection",
"features": [
	{"geometry":{"coordinates":[11.910859,45.78316],"type":"Point"},"properties":{"name":"Ecocentro","osm_id":"2071398873","tag":{"amenity":"recycling"}},"type":"Feature"},
	{"geometry":{"coordinates":[11.912318,45.801859],"type":"Point"},"properties":{"osm_id":"5792751412","tag":{"amenity":"waste_basket","waste":"trash"}},"type":"Feature"},
	{"geometry":{"coordinates":[11.913429,45.80186],"type":"Point"},"properties":{"osm_id":"5792763146","tag":{"amenity":"waste_basket","waste":"trash"}},"type":"Feature"},
	{"geometry":{"coordinates":[11.913315,45.802506],"type":"Point"},"properties":{"osm_id":"5792767362","tag":{"amenity":"waste_basket","waste":"trash"}},"type":"Feature"},
	{"geometry":{"coordinates":[11.913357,45.802544],"type":"Point"},"properties":{"osm_id":"5792767363","tag":{"amenity":"waste_basket","waste":"trash"}},"type":"Feature"},
	{"geometry":{"coordinates":[11.913853,45.802593],"type":"Point"},"properties":{"osm_id":"5792775621","tag":{"amenity":"waste_basket","waste":"trash"}},"type":"Feature"},
	{"geometry":{"coordinates":[11.913684,45.802789],"type":"Point"},"properties":{"osm_id":"5792775690","tag":{"amenity":"waste_basket","waste":"trash"}},"type":"Feature"},
	{"geometry":{"coordinates":[11.912669,45.801942],"type":"Point"},"properties":{"osm_id":"5792798709","tag":{"amenity":"waste_basket","waste":"trash"}},"type":"Feature"}
]
}
