{
"type": "FeatureCollection",
"features": [
	{"geometry":{"coordinates":[11.914204,45.375764],"type":"Point"},"properties":{"barrier":"gate","osm_id":"1227127851"},"type":"Feature"},
	{"geometry":{"coordinates":[11.89077,45.377705],"type":"Point"},"properties":{"osm_id":"1458199512","tag":{"amenity":"recycling","recycling:paper":"yes","recycling_type":"container"}},"type":"Feature"},
	{"geometry":{"coordinates":[11.890608,45.378301],"type":"Point"},"properties":{"osm_id":"1458199514","tag":{"amenity":"recycling","recycling:paper":"yes","recycling_type":"container"}},"type":"Feature"},
	{"geometry":{"coordinates":[11.878428,45.398257],"type":"Point"},"properties":{"osm_id":"1460260783","tag":{"amenity":"recycling","recycling:aluminium":"yes","recycling:glass":"yes","recycling:green_waste":"yes","recycling:paper":"yes","recycling:plastic":"yes","recycling_type":"container"}},"type":"Feature"},
	{"geometry":{"coordinates":[11.88524,45.378377],"type":"Point"},"properties":{"osm_id":"1460287929","tag":{"amenity":"recycling","recycling:aluminium":"yes","recycling:glass":"yes","recycling:paper":"yes","recycling:plastic":"yes"}},"type":"Feature"},
	{"geometry":{"coordinates":[11.884864,45.379396],"type":"Point"},"properties":{"osm_id":"1460287930","tag":{"amenity":"recycling","recycling:aluminium":"yes","recycling:glass":"yes","recycling:green_waste":"yes","recycling:paper":"yes","recycling:plastic":"yes","recycling_type":"container"}},"type":"Feature"},
	{"geometry":{"coordinates":[11.883075,45.382362],"type":"Point"},"properties":{"osm_id":"1460287937","tag":{"amenity":"recycling","recycling:aluminium":"yes","recycling:glass":"yes","recycling:paper":"yes","recycling:plastic":"yes","recycling_type":"container"}},"type":"Feature"},
	{"geometry":{"coordinates":[11.880159,45.389116],"type":"Point"},"properties":{"osm_id":"1460316573","tag":{"amenity":"recycling","recycling:aluminium":"yes","recycling:glass":"yes","recycling:green_waste":"yes","recycling:paper":"yes","recycling:plastic":"yes","recycling_type":"container"}},"type":"Feature"},
	{"geometry":{"coordinates":[11.878598,45.392399],"type":"Point"},"properties":{"osm_id":"1460324865","tag":{"amenity":"recycling","recycling:aluminium":"yes","recycling:glass":"yes","recycling:green_waste":"yes","recycling:paper":"yes","recycling:plastic":"yes","recycling_type":"container"}},"type":"Feature"},
	{"geometry":{"coordinates":[11.877884,45.393593],"type":"Point"},"properties":{"osm_id":"1460324878","tag":{"amenity":"recycling","recycling:aluminium":"yes","recycling:glass":"yes","recycling:green_waste":"yes","recycling:paper":"yes","recycling:plastic":"yes","recycling_type":"container"}},"type":"Feature"},
	{"geometry":{"coordinates":[11.881272,45.395695],"type":"Point"},"properties":{"osm_id":"1460324881","tag":{"amenity":"recycling","recycling:aluminium":"yes","recycling:glass":"yes","recycling:green_waste":"yes","recycling:paper":"yes","recycling:plastic":"yes","recycling_type":"container"}},"type":"Feature"},
	{"geometry":{"coordinates":[11.880243,45.396507],"type":"Point"},"properties":{"osm_id":"1460324894","tag":{"amenity":"recycling","recycling:aluminium":"yes","recycling:glass":"yes","recycling:green_waste":"yes","recycling:paper":"yes","recycling:plastic":"yes","recycling_type":"container"}},"type":"Feature"},
	{"geometry":{"coordinates":[11.878603,45.397418],"type":"Point"},"properties":{"osm_id":"1460324904","tag":{"amenity":"recycling","recycling:aluminium":"yes","recycling:glass":"yes","recycling:green_waste":"yes","recycling:paper":"yes","recycling:plastic":"yes","recycling_type":"container"}},"type":"Feature"},
	{"geometry":{"coordinates":[11.906328,45.370345],"type":"Point"},"properties":{"osm_id":"1461441637","tag":{"amenity":"recycling","recycling:cans":"yes","recycling:glass":"yes","recycling:green_waste":"yes","recycling:paper":"yes","recycling_type":"container"}},"type":"Feature"},
	{"geometry":{"coordinates":[11.901861,45.378773],"type":"Point"},"properties":{"osm_id":"1461441760","tag":{"amenity":"recycling","recycling:cans":"yes","recycling:glass":"yes","recycling:green_waste":"yes","recycling:paper":"yes","recycling_type":"container"}},"type":"Feature"},
	{"geometry":{"coordinates":[11.874963,45.391799],"type":"Point"},"properties":{"osm_id":"1626688474","tag":{"amenity":"recycling","recycling:cans":"yes","recycling:glass":"yes","recycling:paper":"yes","recycling:scrap_metal":"yes"}},"type":"Feature"},
	{"geometry":{"coordinates":[11.888311,45.396003],"type":"Point"},"properties":{"osm_id":"1694211896","tag":{"amenity":"recycling","recycling:batteries":"no","recycling:books":"yes","recycling:cans":"yes","recycling:cartons":"yes","recycling:clothes":"no","recycling:electrical_appliances":"no","recycling:glass":"yes","recycling:glass_bottles":"yes","recycling:green_waste":"no","recycling:magazines":"yes","recycling:newspaper":"yes","recycling:paper":"yes","recycling:paper_packaging":"yes","recycling:plastic":"yes","recycling:plastic_bottles":"yes","recycling:plastic_packaging":"yes","recycling:scrap_metal":"no","recycling:small_appliances":"no","recycling:waste":"yes","recycling:wood":"no","recycling_type":"container"}},"type":"Feature"},
	{"geometry":{"coordinates":[11.907283,45.39189],"type":"Point"},"properties":{"osm_id":"1991660827","tag":{"amenity":"recycling","recycling:cans":"yes","recycling:glass":"yes","recycling:scrap_metal":"yes","recycling_type":"container"}},"type":"Feature"},
	{"geometry":{"coordinates":[11.907311,45.391883],"type":"Point"},"properties":{"osm_id":"1991660828","tag":{"amenity":"recycling","recycling:paper":"yes","recycling_type":"container"}},"type":"Feature"},
	{"geometry":{"coordinates":[11.899751,45.397735],"type":"Point"},"properties":{"osm_id":"2671463743","tag":{"amenity":"recycling","recycling:glass":"yes","recycling:paper":"yes","recycling_type":"container"}},"type":"Feature"},
	{"geometry":{"coordinates":[11.903208,45.393334],"type":"Point"},"properties":{"osm_id":"2677397528","tag":{"amenity":"recycling","recycling:glass":"yes","recycling:paper":"yes","recycling_type":"container"}},"type":"Feature"},
	{"geometry":{"coordinates":[11.897364,45.386032],"type":"Point"},"properties":{"osm_id":"3228472938","tag":{"amenity":"recycling","recycling:clothes":"yes"}},"type":"Feature"},
	{"geometry":{"coordinates":[11.897206,45.386107],"type":"Point"},"properties":{"osm_id":"3228472939","tag":{"amenity":"recycling","recycling:cans":"yes","recycling:glass":"yes","recycling:paper":"yes","recycling:scrap_metal":"yes","recycling_type":"container"}},"type":"Feature"},
	{"geometry":{"coordinates":[11.866805,45.38784],"type":"Point"},"properties":{"osm_id":"3969353818","tag":{"amenity":"waste_basket"}},"type":"Feature"},
	{"geometry":{"coordinates":[11.866918,45.387964],"type":"Point"},"properties":{"osm_id":"3969353819","tag":{"amenity":"waste_basket"}},"type":"Feature"},
	{"geometry":{"coordinates":[11.889854,45.394975],"type":"Point"},"properties":{"osm_id":"5301984564","tag":{"amenity":"recycling","recycling_type":"container"}},"type":"Feature"},
	{"geometry":{"coordinates":[11.894953,45.388772],"type":"Point"},"properties":{"osm_id":"5456498723","tag":{"amenity":"recycling","recycling_type":"container"}},"type":"Feature"},
	{"geometry":{"coordinates":[11.895691,45.387889],"type":"Point"},"properties":{"osm_id":"5456498725","tag":{"amenity":"recycling","recycling_type":"container"}},"type":"Feature"},
	{"geometry":{"coordinates":[11.892844,45.391164],"type":"Point"},"properties":{"osm_id":"5456585168","tag":{"amenity":"recycling","recycling_type":"container"}},"type":"Feature"},
	{"geometry":{"coordinates":[11.894022,45.389579],"type":"Point"},"properties":{"osm_id":"5457006268","tag":{"amenity":"recycling","recycling_type":"container"}},"type":"Feature"},
	{"geometry":{"coordinates":[11.893404,45.39031],"type":"Point"},"properties":{"osm_id":"5457006275","tag":{"amenity":"recycling","recycling_type":"container"}},"type":"Feature"},
	{"geometry":{"coordinates":[11.892707,45.391084],"type":"Point"},"properties":{"osm_id":"5457006286","tag":{"amenity":"recycling","recycling_type":"container"}},"type":"Feature"},
	{"geometry":{"coordinates":[11.892521,45.398032],"type":"Point"},"properties":{"osm_id":"5528443557","tag":{"amenity":"recycling","annotation":"these seven containers block completely the pedestrain part of the segregated cycle-foot-path","recycling_type":"container"}},"type":"Feature"},
	{"geometry":{"coordinates":[11.936465,45.344888],"type":"Point"},"properties":{"osm_id":"5846348735","tag":{"amenity":"recycling","recycling:clothes":"yes","recycling:cooking_oil":"yes","recycling_type":"container"}},"type":"Feature"},
	{"geometry":{"coordinates":[11.899707,45.387239],"type":"Point"},"properties":{"osm_id":"6088740610","tag":{"amenity":"recycling","recycling_type":"container"}},"type":"Feature"},
	{"geometry":{"coordinates":[11.899774,45.387231],"type":"Point"},"properties":{"osm_id":"6088740611","tag":{"amenity":"recycling","recycling_type":"container"}},"type":"Feature"},
	{"geometry":{"coordinates":[11.900626,45.387959],"type":"Point"},"properties":{"osm_id":"6088740612","tag":{"amenity":"waste_disposal"}},"type":"Feature"},
	{"geometry":{"coordinates":[11.900657,45.38799],"type":"Point"},"properties":{"osm_id":"6088740613","tag":{"amenity":"waste_disposal"}},"type":"Feature"},
	{"geometry":{"coordinates":[11.882426,45.39741],"type":"Point"},"properties":{"osm_id":"6296427603","tag":{"amenity":"waste_basket"}},"type":"Feature"},
	{"geometry":{"coordinates":[11.882799,45.397948],"type":"Point"},"properties":{"osm_id":"6296429664","tag":{"amenity":"waste_basket"}},"type":"Feature"},
	{"geometry":{"coordinates":[11.867653,45.386563],"type":"Point"},"properties":{"osm_id":"6466721821","tag":{"amenity":"waste_basket","waste":"trash"}},"type":"Feature"},
	{"geometry":{"coordinates":[11.870503,45.391837],"type":"Point"},"properties":{"osm_id":"6466751514","tag":{"amenity":"recycling","recycling:drugs":"yes","recycling_type":"container"}},"type":"Feature"},
	{"geometry":{"coordinates":[11.867072,45.386762],"type":"Point"},"properties":{"osm_id":"6470897327","tag":{"amenity":"waste_basket"}},"type":"Feature"},
	{"geometry":{"coordinates":[11.887215,45.391531],"type":"Point"},"properties":{"osm_id":"6509704478","tag":{"amenity":"waste_disposal"}},"type":"Feature"},
	{"geometry":{"coordinates":[11.887108,45.392708],"type":"Point"},"properties":{"osm_id":"6509888468","tag":{"amenity":"waste_disposal"}},"type":"Feature"},
	{"geometry":{"coordinates":[11.875012,45.393053],"type":"Point"},"properties":{"osm_id":"6548968178","tag":{"amenity":"recycling","obstacle:wheelchair":"limited","recycling:green_waste":"yes","recycling:paper":"yes","recycling:plastic":"yes","recycling:waste":"yes","recycling_type":"container"}},"type":"Feature"},
	{"geometry":{"coordinates":[11.875255,45.393117],"type":"Point"},"properties":{"osm_id":"6548968179","tag":{"amenity":"waste_basket","waste":"trash"}},"type":"Feature"},
	{"geometry":{"coordinates":[11.872859,45.392511],"type":"Point"},"properties":{"osm_id":"6549036532","tag":{"amenity":"waste_basket","maxwidth:physical":"0.7","obstacle:wheelchair":"yes","waste":"trash","wheelchair":"no"}},"type":"Feature"},
	{"geometry":{"coordinates":[11.870471,45.375246],"type":"Point"},"properties":{"osm_id":"6595225849","tag":{"amenity":"waste_basket","waste":"trash"}},"type":"Feature"},
	{"geometry":{"coordinates":[11.89402,45.395886],"type":"Point"},"properties":{"osm_id":"6606004072","tag":{"amenity":"recycling","recycling_type":"container"}},"type":"Feature"},
	{"geometry":{"coordinates":[11.910403,45.396472],"type":"Point"},"properties":{"osm_id":"6622412961","tag":{"amenity":"waste_basket","waste":"trash"}},"type":"Feature"},
	{"geometry":{"coordinates":[11.886809,45.381062],"type":"Point"},"properties":{"osm_id":"6980483022","tag":{"amenity":"recycling","recycling_type":"container"}},"type":"Feature"},
	{"geometry":{"coordinates":[11.891661,45.390795],"type":"Point"},"properties":{"osm_id":"7009191636","tag":{"amenity":"recycling","recycling_type":"container"}},"type":"Feature"},
	{"geometry":{"coordinates":[11.909577,45.395927],"type":"Point"},"properties":{"osm_id":"7047655805","tag":{"amenity":"recycling","recycling_type":"container"}},"type":"Feature"},
	{"geometry":{"coordinates":[11.870554,45.397577],"type":"Point"},"properties":{"osm_id":"7515814285","tag":{"amenity":"recycling"}},"type":"Feature"},
	{"geometry":{"coordinates":[11.86903,45.397767],"type":"Point"},"properties":{"osm_id":"7515816685","tag":{"amenity":"recycling"}},"type":"Feature"},
	{"geometry":{"coordinates":[11.869102,45.396341],"type":"Point"},"properties":{"osm_id":"7515823685","tag":{"amenity":"recycling"}},"type":"Feature"},
	{"geometry":{"coordinates":[11.870517,45.396271],"type":"Point"},"properties":{"osm_id":"7515826085","tag":{"amenity":"recycling"}},"type":"Feature"},
	{"geometry":{"coordinates":[11.872918,45.395603],"type":"Point"},"properties":{"osm_id":"7515826086","tag":{"amenity":"recycling"}},"type":"Feature"},
	{"geometry":{"coordinates":[11.871882,45.397316],"type":"Point"},"properties":{"osm_id":"7515826088","tag":{"amenity":"recycling"}},"type":"Feature"},
	{"geometry":{"coordinates":[11.874586,45.397918],"type":"Point"},"properties":{"osm_id":"7515864185","tag":{"amenity":"recycling"}},"type":"Feature"},
	{"geometry":{"coordinates":[11.87286,45.397803],"type":"Point"},"properties":{"osm_id":"7515864186","tag":{"amenity":"recycling"}},"type":"Feature"},
	{"geometry":{"coordinates":[11.87478,45.397698],"type":"Point"},"properties":{"osm_id":"7515864285","tag":{"amenity":"recycling"}},"type":"Feature"},
	{"geometry":{"coordinates":[11.874401,45.394961],"type":"Point"},"properties":{"osm_id":"7515867687","tag":{"amenity":"recycling"}},"type":"Feature"},
	{"geometry":{"coordinates":[11.873437,45.39357],"type":"Point"},"properties":{"osm_id":"7515871485","tag":{"amenity":"recycling"}},"type":"Feature"},
	{"geometry":{"coordinates":[11.872814,45.392652],"type":"Point"},"properties":{"osm_id":"7515872385","tag":{"amenity":"recycling"}},"type":"Feature"},
	{"geometry":{"coordinates":[11.873699,45.393258],"type":"Point"},"properties":{"osm_id":"7515876685","tag":{"amenity":"recycling"}},"type":"Feature"},
	{"geometry":{"coordinates":[11.882443,45.397305],"type":"Point"},"properties":{"osm_id":"7515876686","tag":{"amenity":"recycling"}},"type":"Feature"},
	{"geometry":{"coordinates":[11.883036,45.398136],"type":"Point"},"properties":{"osm_id":"7515876687","tag":{"amenity":"recycling"}},"type":"Feature"},
	{"geometry":{"coordinates":[11.867501,45.398293],"type":"Point"},"properties":{"osm_id":"7524338486","tag":{"amenity":"recycling"}},"type":"Feature"},
	{"geometry":{"coordinates":[11.867657,45.396911],"type":"Point"},"properties":{"osm_id":"7524426885","tag":{"amenity":"recycling"}},"type":"Feature"},
	{"geometry":{"coordinates":[11.867858,45.396069],"type":"Point"},"properties":{"osm_id":"7524444385","tag":{"amenity":"recycling"}},"type":"Feature"},
	{"geometry":{"coordinates":[11.868031,45.394528],"type":"Point"},"properties":{"osm_id":"7524446585","tag":{"amenity":"recycling"}},"type":"Feature"},
	{"geometry":{"coordinates":[11.865852,45.397037],"type":"Point"},"properties":{"osm_id":"7524454585","tag":{"amenity":"recycling"}},"type":"Feature"},
	{"geometry":{"coordinates":[11.866208,45.396174],"type":"Point"},"properties":{"osm_id":"7524454586","tag":{"amenity":"recycling"}},"type":"Feature"},
	{"geometry":{"coordinates":[11.867343,45.39266],"type":"Point"},"properties":{"osm_id":"7524455186","tag":{"amenity":"recycling"}},"type":"Feature"},
	{"geometry":{"coordinates":[11.868451,45.392039],"type":"Point"},"properties":{"osm_id":"7524455187","tag":{"amenity":"recycling"}},"type":"Feature"},
	{"geometry":{"coordinates":[11.868165,45.393497],"type":"Point"},"properties":{"osm_id":"7524455188","tag":{"amenity":"recycling"}},"type":"Feature"},
	{"geometry":{"coordinates":[11.866661,45.394529],"type":"Point"},"properties":{"osm_id":"7524458785","tag":{"amenity":"recycling"}},"type":"Feature"},
	{"geometry":{"coordinates":[11.869684,45.391958],"type":"Point"},"properties":{"osm_id":"7524458786","tag":{"amenity":"recycling"}},"type":"Feature"},
	{"geometry":{"coordinates":[11.869144,45.393649],"type":"Point"},"properties":{"osm_id":"7524462985","tag":{"amenity":"recycling"}},"type":"Feature"},
	{"geometry":{"coordinates":[11.870255,45.393998],"type":"Point"},"properties":{"osm_id":"7524462986","tag":{"amenity":"recycling"}},"type":"Feature"},
	{"geometry":{"coordinates":[11.870699,45.393308],"type":"Point"},"properties":{"osm_id":"7524462987","tag":{"amenity":"recycling"}},"type":"Feature"},
	{"geometry":{"coordinates":[11.86985,45.391982],"type":"Point"},"properties":{"osm_id":"7524479385","tag":{"amenity":"recycling"}},"type":"Feature"},
	{"geometry":{"coordinates":[11.870325,45.390832],"type":"Point"},"properties":{"osm_id":"7524479386","tag":{"amenity":"recycling"}},"type":"Feature"},
	{"geometry":{"coordinates":[11.871474,45.391461],"type":"Point"},"properties":{"osm_id":"7524487985","tag":{"amenity":"recycling"}},"type":"Feature"},
	{"geometry":{"coordinates":[11.871055,45.391932],"type":"Point"},"properties":{"osm_id":"7524488685","tag":{"amenity":"recycling"}},"type":"Feature"},
	{"geometry":{"coordinates":[11.871523,45.394748],"type":"Point"},"properties":{"osm_id":"7524502385","tag":{"amenity":"recycling"}},"type":"Feature"},
	{"geometry":{"coordinates":[11.869897,45.395049],"type":"Point"},"properties":{"osm_id":"7524505085","tag":{"amenity":"recycling"}},"type":"Feature"},
	{"geometry":{"coordinates":[11.875105,45.39634],"type":"Point"},"properties":{"osm_id":"7524519885","tag":{"amenity":"recycling"}},"type":"Feature"},
	{"geometry":{"coordinates":[11.869947,45.389488],"type":"Point"},"properties":{"osm_id":"7529806990","tag":{"amenity":"recycling"}},"type":"Feature"},
	{"geometry":{"coordinates":[11.876825,45.387247],"type":"Point"},"properties":{"osm_id":"7529873085","tag":{"amenity":"recycling"}},"type":"Feature"},
	{"geometry":{"coordinates":[11.8734,45.388242],"type":"Point"},"properties":{"osm_id":"7529969391","tag":{"amenity":"recycling"}},"type":"Feature"},
	{"geometry":{"coordinates":[11.879756,45.386803],"type":"Point"},"properties":{"osm_id":"7529969392","tag":{"amenity":"recycling"}},"type":"Feature"},
	{"geometry":{"coordinates":[11.87786,45.387727],"type":"Point"},"properties":{"osm_id":"7529969393","tag":{"amenity":"recycling"}},"type":"Feature"},
	{"geometry":{"coordinates":[11.881128,45.386893],"type":"Point"},"properties":{"osm_id":"7529969394","tag":{"amenity":"recycling"}},"type":"Feature"},
	{"geometry":{"coordinates":[11.882261,45.386948],"type":"Point"},"properties":{"osm_id":"7529969395","tag":{"amenity":"recycling"}},"type":"Feature"},
	{"geometry":{"coordinates":[11.891108,45.386273],"type":"Point"},"properties":{"osm_id":"7529969396","tag":{"amenity":"recycling"}},"type":"Feature"},
	{"geometry":{"coordinates":[11.886247,45.388164],"type":"Point"},"properties":{"osm_id":"7529969397","tag":{"amenity":"recycling"}},"type":"Feature"},
	{"geometry":{"coordinates":[11.871527,45.387716],"type":"Point"},"properties":{"osm_id":"7529971688","tag":{"amenity":"recycling"}},"type":"Feature"},
	{"geometry":{"coordinates":[11.870885,45.38684],"type":"Point"},"properties":{"osm_id":"7529971689","tag":{"amenity":"recycling"}},"type":"Feature"},
	{"geometry":{"coordinates":[11.871887,45.388283],"type":"Point"},"properties":{"osm_id":"7529971690","tag":{"amenity":"recycling"}},"type":"Feature"},
	{"geometry":{"coordinates":[11.876727,45.387263],"type":"Point"},"properties":{"osm_id":"7529971691","tag":{"amenity":"recycling"}},"type":"Feature"},
	{"geometry":{"coordinates":[11.877658,45.38857],"type":"Point"},"properties":{"osm_id":"7529971692","tag":{"amenity":"recycling"}},"type":"Feature"},
	{"geometry":{"coordinates":[11.877589,45.386367],"type":"Point"},"properties":{"osm_id":"7529971693","tag":{"amenity":"recycling"}},"type":"Feature"},
	{"geometry":{"coordinates":[11.880402,45.386371],"type":"Point"},"properties":{"osm_id":"7529971694","tag":{"amenity":"recycling"}},"type":"Feature"},
	{"geometry":{"coordinates":[11.887501,45.388722],"type":"Point"},"properties":{"osm_id":"7529971695","tag":{"amenity":"recycling"}},"type":"Feature"},
	{"geometry":{"coordinates":[11.884389,45.387917],"type":"Point"},"properties":{"osm_id":"7529971696","tag":{"amenity":"recycling"}},"type":"Feature"},
	{"geometry":{"coordinates":[11.870015,45.389075],"type":"Point"},"properties":{"osm_id":"7529990685","tag":{"amenity":"recycling"}},"type":"Feature"},
	{"geometry":{"coordinates":[11.877948,45.388547],"type":"Point"},"properties":{"osm_id":"7529990686","tag":{"amenity":"recycling"}},"type":"Feature"},
	{"geometry":{"coordinates":[11.871055,45.387911],"type":"Point"},"properties":{"osm_id":"7529990885","tag":{"amenity":"recycling"}},"type":"Feature"},
	{"geometry":{"coordinates":[11.87225,45.389077],"type":"Point"},"properties":{"osm_id":"7529990886","tag":{"amenity":"recycling"}},"type":"Feature"},
	{"geometry":{"coordinates":[11.878961,45.387577],"type":"Point"},"properties":{"osm_id":"7529990887","tag":{"amenity":"recycling"}},"type":"Feature"},
	{"geometry":{"coordinates":[11.880572,45.386812],"type":"Point"},"properties":{"osm_id":"7529990888","tag":{"amenity":"recycling"}},"type":"Feature"},
	{"geometry":{"coordinates":[11.881445,45.386944],"type":"Point"},"properties":{"osm_id":"7529990889","tag":{"amenity":"recycling"}},"type":"Feature"},
	{"geometry":{"coordinates":[11.884618,45.386626],"type":"Point"},"properties":{"osm_id":"7529990890","tag":{"amenity":"recycling"}},"type":"Feature"},
	{"geometry":{"coordinates":[11.887092,45.386538],"type":"Point"},"properties":{"osm_id":"7529990891","tag":{"amenity":"recycling"}},"type":"Feature"},
	{"geometry":{"coordinates":[11.889374,45.387544],"type":"Point"},"properties":{"osm_id":"7529990892","tag":{"amenity":"recycling"}},"type":"Feature"},
	{"geometry":{"coordinates":[11.877775,45.388565],"type":"Point"},"properties":{"osm_id":"7529991085","tag":{"amenity":"recycling"}},"type":"Feature"},
	{"geometry":{"coordinates":[11.876825,45.386484],"type":"Point"},"properties":{"osm_id":"7529991185","tag":{"amenity":"recycling"}},"type":"Feature"},
	{"geometry":{"coordinates":[11.880989,45.388469],"type":"Point"},"properties":{"osm_id":"7530077285","tag":{"amenity":"recycling"}},"type":"Feature"},
	{"geometry":{"coordinates":[11.880355,45.388818],"type":"Point"},"properties":{"osm_id":"7530077385","tag":{"amenity":"recycling"}},"type":"Feature"},
	{"geometry":{"coordinates":[11.879683,45.390055],"type":"Point"},"properties":{"osm_id":"7530077485","tag":{"amenity":"recycling"}},"type":"Feature"},
	{"geometry":{"coordinates":[11.879863,45.394337],"type":"Point"},"properties":{"osm_id":"7530077486","tag":{"amenity":"recycling"}},"type":"Feature"},
	{"geometry":{"coordinates":[11.878916,45.391795],"type":"Point"},"properties":{"osm_id":"7530077785","tag":{"amenity":"recycling"}},"type":"Feature"},
	{"geometry":{"coordinates":[11.877355,45.392688],"type":"Point"},"properties":{"osm_id":"7530077885","tag":{"amenity":"recycling"}},"type":"Feature"},
	{"geometry":{"coordinates":[11.889073,45.395405],"type":"Point"},"properties":{"osm_id":"7541303478","tag":{"amenity":"recycling","recycling_type":"container"}},"type":"Feature"},
	{"geometry":{"coordinates":[11.889098,45.395374],"type":"Point"},"properties":{"osm_id":"7541303479","tag":{"amenity":"recycling","recycling_type":"container"}},"type":"Feature"},
	{"geometry":{"coordinates":[11.889087,45.395389],"type":"Point"},"properties":{"osm_id":"7541303480","tag":{"amenity":"recycling","recycling_type":"container"}},"type":"Feature"},
	{"geometry":{"coordinates":[11.866645,45.392041],"type":"Point"},"properties":{"osm_id":"7552590991","tag":{"amenity":"recycling"}},"type":"Feature"},
	{"geometry":{"coordinates":[11.866334,45.392821],"type":"Point"},"properties":{"osm_id":"7552590992","tag":{"amenity":"recycling"}},"type":"Feature"},
	{"geometry":{"coordinates":[11.865875,45.393784],"type":"Point"},"properties":{"osm_id":"7552590993","tag":{"amenity":"recycling"}},"type":"Feature"},
	{"geometry":{"coordinates":[11.865307,45.387416],"type":"Point"},"properties":{"osm_id":"7552611487","tag":{"amenity":"recycling"}},"type":"Feature"},
	{"geometry":{"coordinates":[11.866833,45.388234],"type":"Point"},"properties":{"osm_id":"7552611588","tag":{"amenity":"recycling"}},"type":"Feature"},
	{"geometry":{"coordinates":[11.86697,45.390122],"type":"Point"},"properties":{"osm_id":"7552611589","tag":{"amenity":"recycling"}},"type":"Feature"},
	{"geometry":{"coordinates":[11.873094,45.389904],"type":"Point"},"properties":{"osm_id":"7575663589","tag":{"amenity":"recycling"}},"type":"Feature"},
	{"geometry":{"coordinates":[11.873149,45.391487],"type":"Point"},"properties":{"osm_id":"7575663786","tag":{"amenity":"recycling"}},"type":"Feature"},
	{"geometry":{"coordinates":[11.867632,45.386847],"type":"Point"},"properties":{"osm_id":"7575663887","tag":{"amenity":"recycling"}},"type":"Feature"},
	{"geometry":{"coordinates":[11.873391,45.390517],"type":"Point"},"properties":{"osm_id":"7575663888","tag":{"amenity":"recycling"}},"type":"Feature"},
	{"geometry":{"coordinates":[11.87382,45.390034],"type":"Point"},"properties":{"osm_id":"7575664085","tag":{"amenity":"recycling"}},"type":"Feature"},
	{"geometry":{"coordinates":[11.93057,45.374329],"type":"Point"},"properties":{"osm_id":"7688026801","tag":{"amenity":"waste_basket","waste":"trash"}},"type":"Feature"},
	{"geometry":{"coordinates":[11.924595,45.377009],"type":"Point"},"properties":{"osm_id":"7688026840","tag":{"amenity":"waste_basket","waste":"trash"}},"type":"Feature"},
	{"geometry":{"coordinates":[11.874086,45.356349],"type":"Point"},"properties":{"osm_id":"7799314644","tag":{"amenity":"waste_basket"}},"type":"Feature"},
	{"geometry":{"coordinates":[11.873958,45.356189],"type":"Point"},"properties":{"osm_id":"7799314645","tag":{"amenity":"waste_basket"}},"type":"Feature"},
	{"geometry":{"coordinates":[11.87487,45.355243],"type":"Point"},"properties":{"osm_id":"7799314648","tag":{"amenity":"waste_basket"}},"type":"Feature"},
	{"geometry":{"coordinates":[11.876845,45.397663],"type":"Point"},"properties":{"osm_id":"7865027584","tag":{"amenity":"waste_basket"}},"type":"Feature"},
	{"geometry":{"coordinates":[11.879009,45.396812],"type":"Point"},"properties":{"osm_id":"7865062937","tag":{"amenity":"waste_basket"}},"type":"Feature"},
	{"geometry":{"coordinates":[11.879801,45.396717],"type":"Point"},"properties":{"osm_id":"7865111545","tag":{"amenity":"waste_basket"}},"type":"Feature"}
]
}
