{
"type": "FeatureCollection",
"lastupdate": "2020-08-03T00:00:00Z",
"features": [
	{"geometry":{"coordinates":[11.8662,43.572778],"type":"Point"},"properties":{"osm_id":"582077949","tag":{"amenity":"recycling","recycling:clothes":"yes","recycling:diapers":"yes","recycling:glass_bottles":"yes","recycling:plastic_bottles":"yes","recycling_type":"container"}},"type":"Feature"},
	{"geometry":{"coordinates":[11.87021,43.573406],"type":"Point"},"properties":{"osm_id":"582656217","tag":{"amenity":"recycling","recycling:cans":"yes","recycling:glass_bottles":"yes","recycling:plastic_bottles":"yes","recycling_type":"container"}},"type":"Feature"},
	{"geometry":{"coordinates":[11.866882,43.575432],"type":"Point"},"properties":{"osm_id":"582656221","tag":{"amenity":"recycling","recycling:cans":"yes","recycling:glass":"yes","recycling:plastic":"yes","recycling_type":"container"}},"type":"Feature"},
	{"geometry":{"coordinates":[11.871146,43.576468],"type":"Point"},"properties":{"osm_id":"771420651","tag":{"amenity":"recycling","recycling:glass_bottles":"yes","recycling:paper":"yes","recycling:plastic_bottles":"yes","recycling_type":"container"}},"type":"Feature"},
	{"geometry":{"coordinates":[11.868945,43.576625],"type":"Point"},"properties":{"osm_id":"772087582","tag":{"amenity":"recycling","recycling:glass_bottles":"yes","recycling:paper":"yes","recycling:plastic_bottles":"yes"}},"type":"Feature"},
	{"geometry":{"coordinates":[11.866813,43.575541],"type":"Point"},"properties":{"osm_id":"4961380237","tag":{"amenity":"waste_basket"}},"type":"Feature"},
	{"geometry":{"coordinates":[11.866863,43.575432],"type":"Point"},"properties":{"osm_id":"4961446802","tag":{"amenity":"recycling","recycling:cans":"yes","recycling:glass":"yes","recycling:plastic":"yes","recycling_type":"container"}},"type":"Feature"},
	{"geometry":{"coordinates":[11.86943,43.573649],"type":"Point"},"properties":{"osm_id":"4972794583","tag":{"amenity":"recycling","opening_hours":"24/7","recycling:batteries":"yes","recycling_type":"container"}},"type":"Feature"},
	{"geometry":{"coordinates":[11.872858,43.576336],"type":"Point"},"properties":{"osm_id":"5021650501","tag":{"amenity":"recycling","recycling:cans":"yes","recycling:cartons":"yes","recycling:glass_bottles":"yes","recycling:plastic_bottles":"yes","recycling_type":"container"}},"type":"Feature"},
	{"geometry":{"coordinates":[11.870949,43.575088],"type":"Point"},"properties":{"osm_id":"5021650513","tag":{"amenity":"recycling","opening_hours":"24/7","recycling:diapers":"yes","recycling_type":"container"}},"type":"Feature"},
	{"geometry":{"coordinates":[11.873397,43.579212],"type":"Point"},"properties":{"osm_id":"5021650514","tag":{"amenity":"waste_basket"}},"type":"Feature"},
	{"geometry":{"coordinates":[11.873631,43.579004],"type":"Point"},"properties":{"osm_id":"5021650520","tag":{"amenity":"waste_basket"}},"type":"Feature"},
	{"geometry":{"coordinates":[11.871036,43.575519],"type":"Point"},"properties":{"osm_id":"5021650629","tag":{"amenity":"waste_basket","recycling_type":"container"}},"type":"Feature"},
	{"geometry":{"coordinates":[11.870948,43.575104],"type":"Point"},"properties":{"osm_id":"5021650641","tag":{"amenity":"recycling","opening_hours":"24/7","recycling:aluminium":"yes","recycling:cans":"yes","recycling:cartons":"yes","recycling:glass":"yes","recycling:plastic":"yes","recycling_type":"container"}},"type":"Feature"},
	{"geometry":{"coordinates":[11.871121,43.575505],"type":"Point"},"properties":{"osm_id":"5021650643","tag":{"amenity":"waste_basket","recycling_type":"container"}},"type":"Feature"},
	{"geometry":{"coordinates":[11.87095,43.575067],"type":"Point"},"properties":{"osm_id":"5021650655","tag":{"amenity":"recycling","opening_hours":"24/7","recycling:clothes":"yes","recycling_type":"container"}},"type":"Feature"},
	{"geometry":{"coordinates":[11.872869,43.576444],"type":"Point"},"properties":{"osm_id":"5021650656","tag":{"amenity":"waste_basket","recycling_type":"container"}},"type":"Feature"},
	{"geometry":{"coordinates":[11.872764,43.578127],"type":"Point"},"properties":{"osm_id":"5021650659","tag":{"amenity":"recycling","recycling:cardboard":"yes","recycling:green_waste":"yes","recycling:paper":"yes","recycling:waste":"yes","recycling_type":"container"}},"type":"Feature"},
	{"geometry":{"coordinates":[11.871087,43.573972],"type":"Point"},"properties":{"osm_id":"5032002584","tag":{"amenity":"recycling","recycling:diapers":"yes","recycling_type":"container"}},"type":"Feature"},
	{"geometry":{"coordinates":[11.869332,43.573354],"type":"Point"},"properties":{"osm_id":"5032002595","tag":{"amenity":"recycling","recycling:cardboard":"yes","recycling:paper":"yes","recycling_type":"container"}},"type":"Feature"},
	{"geometry":{"coordinates":[11.870686,43.574937],"type":"Point"},"properties":{"osm_id":"5032002602","tag":{"amenity":"waste_basket"}},"type":"Feature"},
	{"geometry":{"coordinates":[11.867669,43.573448],"type":"Point"},"properties":{"osm_id":"5032002616","tag":{"amenity":"waste_basket"}},"type":"Feature"},
	{"geometry":{"coordinates":[11.871097,43.573994],"type":"Point"},"properties":{"osm_id":"5032002618","tag":{"amenity":"recycling","recycling:cans":"yes","recycling:glass_bottles":"yes","recycling:plastic_bottles":"yes","recycling_type":"container"}},"type":"Feature"},
	{"geometry":{"coordinates":[11.870877,43.574955],"type":"Point"},"properties":{"osm_id":"5032002622","tag":{"amenity":"waste_basket"}},"type":"Feature"},
	{"geometry":{"coordinates":[11.869487,43.573198],"type":"Point"},"properties":{"osm_id":"5032002629","tag":{"amenity":"recycling","recycling:diapers":"yes","recycling_type":"container"}},"type":"Feature"},
	{"geometry":{"coordinates":[11.871044,43.573996],"type":"Point"},"properties":{"osm_id":"5032002630","tag":{"amenity":"waste_basket"}},"type":"Feature"},
	{"geometry":{"coordinates":[11.870692,43.575096],"type":"Point"},"properties":{"osm_id":"5032002634","tag":{"amenity":"waste_basket"}},"type":"Feature"},
	{"geometry":{"coordinates":[11.870011,43.575009],"type":"Point"},"properties":{"osm_id":"5032148786","tag":{"amenity":"waste_basket"}},"type":"Feature"},
	{"geometry":{"coordinates":[11.869683,43.57467],"type":"Point"},"properties":{"osm_id":"5032148787","tag":{"amenity":"waste_basket"}},"type":"Feature"}
]
}
