{
"type": "FeatureCollection",
"features": [
	{"geometry":{"coordinates":[153.174168,-27.436263],"type":"Point"},"properties":{"osm_id":"4186902950","tag":{"amenity":"waste_basket","item_id":"70596"}},"type":"Feature"},
	{"geometry":{"coordinates":[153.174168,-27.436281],"type":"Point"},"properties":{"osm_id":"4186902951","tag":{"amenity":"waste_basket","item_id":"70595"}},"type":"Feature"},
	{"geometry":{"coordinates":[153.186773,-27.446557],"type":"Point"},"properties":{"osm_id":"4192687558","tag":{"amenity":"waste_basket","item_id":"64597"}},"type":"Feature"},
	{"geometry":{"coordinates":[153.18649,-27.446738],"type":"Point"},"properties":{"osm_id":"4192687565","tag":{"amenity":"waste_basket","description":"2 bins","item_id":"129388"}},"type":"Feature"},
	{"geometry":{"coordinates":[153.170499,-27.445555],"type":"Point"},"properties":{"osm_id":"5575856164","tag":{"amenity":"recycling","recycling_type":"container"}},"type":"Feature"},
	{"geometry":{"coordinates":[153.170507,-27.445561],"type":"Point"},"properties":{"osm_id":"5575856165","tag":{"amenity":"waste_basket"}},"type":"Feature"},
	{"geometry":{"coordinates":[153.169971,-27.445019],"type":"Point"},"properties":{"osm_id":"5575856169","tag":{"amenity":"waste_basket"}},"type":"Feature"},
	{"geometry":{"coordinates":[153.169977,-27.445023],"type":"Point"},"properties":{"osm_id":"5575856170","tag":{"amenity":"recycling","container":"recycling","recycling_type":"container"}},"type":"Feature"},
	{"geometry":{"coordinates":[153.175613,-27.445843],"type":"Point"},"properties":{"osm_id":"5679656769","tag":{"amenity":"waste_basket","waste":"trash"}},"type":"Feature"},
	{"geometry":{"coordinates":[153.175359,-27.445445],"type":"Point"},"properties":{"osm_id":"5679656771","tag":{"amenity":"waste_basket","waste":"trash"}},"type":"Feature"},
	{"geometry":{"coordinates":[153.175171,-27.445331],"type":"Point"},"properties":{"osm_id":"5679656772","tag":{"amenity":"waste_basket","waste":"trash"}},"type":"Feature"},
	{"geometry":{"coordinates":[153.175117,-27.445168],"type":"Point"},"properties":{"osm_id":"5679656773","tag":{"amenity":"waste_basket","waste":"trash"}},"type":"Feature"},
	{"geometry":{"coordinates":[153.174252,-27.444302],"type":"Point"},"properties":{"osm_id":"5679656775","tag":{"amenity":"recycling","recycling:plastic_bottles":"no","recycling_type":"container"}},"type":"Feature"},
	{"geometry":{"coordinates":[153.174274,-27.444403],"type":"Point"},"properties":{"osm_id":"5679656776","tag":{"amenity":"waste_basket","waste":"trash"}},"type":"Feature"},
	{"geometry":{"coordinates":[153.169996,-27.445042],"type":"Point"},"properties":{"osm_id":"5798520968","tag":{"amenity":"recycling","recycling_type":"container"}},"type":"Feature"},
	{"geometry":{"coordinates":[153.169984,-27.44503],"type":"Point"},"properties":{"osm_id":"5798520970","tag":{"amenity":"waste_basket"}},"type":"Feature"},
	{"geometry":{"coordinates":[153.18465,-27.446286],"type":"Point"},"properties":{"osm_id":"6251460604","tag":{"ITEM_ID":"15,269","amenity":"waste_basket","description":"Otto - Wheelie 240","waste":"trash"}},"type":"Feature"},
	{"geometry":{"coordinates":[153.17505,-27.438871],"type":"Point"},"properties":{"osm_id":"6619019596","tag":{"amenity":"waste_basket","waste":"trash"}},"type":"Feature"},
	{"geometry":{"coordinates":[153.175293,-27.44014],"type":"Point"},"properties":{"osm_id":"6640211971","tag":{"amenity":"waste_basket","waste":"trash"}},"type":"Feature"}
]
}
