{
"type": "FeatureCollection",
"features": [
	{"geometry":{"coordinates":[0.075441,52.088459],"type":"Point"},"properties":{"osm_id":"33409769","tag":{"amenity":"recycling"}},"type":"Feature"},
	{"geometry":{"coordinates":[0.008091,52.086798],"type":"Point"},"properties":{"osm_id":"34956639","tag":{"amenity":"recycling"}},"type":"Feature"},
	{"geometry":{"coordinates":[0.018174,52.084885],"type":"Point"},"properties":{"osm_id":"34957095","tag":{"amenity":"recycling"}},"type":"Feature"},
	{"geometry":{"coordinates":[0.009101,52.090641],"type":"Point"},"properties":{"osm_id":"5041473030","tag":{"amenity":"waste_basket"}},"type":"Feature"},
	{"geometry":{"coordinates":[0.016756,52.089182],"type":"Point"},"properties":{"osm_id":"8604339051","tag":{"amenity":"waste_basket","material":"stone"}},"type":"Feature"},
	{"geometry":{"coordinates":[0.015288,52.088861],"type":"Point"},"properties":{"osm_id":"8604339052","tag":{"amenity":"waste_basket","material":"stone"}},"type":"Feature"},
	{"geometry":{"coordinates":[0.015861,52.087809],"type":"Point"},"properties":{"osm_id":"8604339053","tag":{"amenity":"waste_basket","waste":"dog_excrement"}},"type":"Feature"},
	{"geometry":{"coordinates":[0.017163,52.088912],"type":"Point"},"properties":{"osm_id":"8604339054","tag":{"amenity":"waste_basket","material":"stone"}},"type":"Feature"},
	{"geometry":{"coordinates":[0.015535,52.087777],"type":"Point"},"properties":{"osm_id":"8608825983","tag":{"amenity":"waste_basket","waste":"dog_excrement"}},"type":"Feature"}
]
}
