{
"type": "FeatureCollection",
"features": [
	{"geometry":{"coordinates":[0.00238,51.63087],"type":"Point"},"properties":{"osm_id":"455011099","tag":{"amenity":"recycling"}},"type":"Feature"},
	{"geometry":{"coordinates":[0.004537,51.627041],"type":"Point"},"properties":{"name":"Kings Road Recycling Centre","osm_id":"455178027","tag":{"amenity":"recycling","postal_code":"E4"}},"type":"Feature"},
	{"geometry":{"coordinates":[0.06406,51.62603],"type":"Point"},"properties":{"osm_id":"540940257","tag":{"amenity":"recycling"}},"type":"Feature"},
	{"geometry":{"coordinates":[0.058503,51.649024],"type":"Point"},"properties":{"osm_id":"1216035862","tag":{"amenity":"recycling"}},"type":"Feature"},
	{"geometry":{"coordinates":[0.053906,51.642002],"type":"Point"},"properties":{"osm_id":"1445838161","tag":{"amenity":"recycling"}},"type":"Feature"},
	{"geometry":{"coordinates":[0.003069,51.631391],"type":"Point"},"properties":{"osm_id":"1463052561","tag":{"amenity":"waste_basket"}},"type":"Feature"},
	{"geometry":{"coordinates":[0.006149,51.618873],"type":"Point"},"properties":{"name":"Clothes Bank Recycling","osm_id":"2928198493","tag":{"amenity":"recycling","recycling_type":"container"}},"type":"Feature"},
	{"geometry":{"coordinates":[0.006542,51.624736],"type":"Point"},"properties":{"osm_id":"2928894166","tag":{"amenity":"waste_basket"}},"type":"Feature"},
	{"geometry":{"coordinates":[0.074675,51.61871],"type":"Point"},"properties":{"osm_id":"3086183506","tag":{"amenity":"waste_basket"}},"type":"Feature"},
	{"geometry":{"coordinates":[0.074862,51.618926],"type":"Point"},"properties":{"osm_id":"3086183525","tag":{"amenity":"waste_basket"}},"type":"Feature"},
	{"geometry":{"coordinates":[0.074984,51.619076],"type":"Point"},"properties":{"osm_id":"3086185237","tag":{"amenity":"waste_basket"}},"type":"Feature"},
	{"geometry":{"coordinates":[0.075214,51.619342],"type":"Point"},"properties":{"osm_id":"3086185256","tag":{"amenity":"waste_basket"}},"type":"Feature"},
	{"geometry":{"coordinates":[0.075332,51.619494],"type":"Point"},"properties":{"osm_id":"3086185266","tag":{"amenity":"waste_basket"}},"type":"Feature"},
	{"geometry":{"coordinates":[0.06398,51.626105],"type":"Point"},"properties":{"osm_id":"3086185357","tag":{"amenity":"recycling"}},"type":"Feature"},
	{"geometry":{"coordinates":[0.060065,51.639719],"type":"Point"},"properties":{"osm_id":"6624838203","tag":{"amenity":"waste_basket"}},"type":"Feature"},
	{"geometry":{"coordinates":[0.058937,51.640652],"type":"Point"},"properties":{"osm_id":"6624838204","tag":{"amenity":"waste_basket"}},"type":"Feature"},
	{"geometry":{"coordinates":[0.061483,51.638734],"type":"Point"},"properties":{"osm_id":"6624838205","tag":{"amenity":"waste_basket"}},"type":"Feature"},
	{"geometry":{"coordinates":[0.060643,51.639288],"type":"Point"},"properties":{"osm_id":"6624838208","tag":{"amenity":"waste_basket"}},"type":"Feature"},
	{"geometry":{"coordinates":[0.059819,51.639936],"type":"Point"},"properties":{"osm_id":"6624838209","tag":{"amenity":"waste_basket"}},"type":"Feature"},
	{"geometry":{"coordinates":[0.058441,51.640958],"type":"Point"},"properties":{"osm_id":"6624838210","tag":{"amenity":"waste_basket"}},"type":"Feature"},
	{"geometry":{"coordinates":[0.061216,51.638912],"type":"Point"},"properties":{"osm_id":"6624838211","tag":{"amenity":"waste_basket"}},"type":"Feature"},
	{"geometry":{"coordinates":[0.061666,51.638803],"type":"Point"},"properties":{"osm_id":"6624838215","tag":{"amenity":"waste_basket"}},"type":"Feature"},
	{"geometry":{"coordinates":[0.061484,51.638948],"type":"Point"},"properties":{"osm_id":"6624838219","tag":{"amenity":"waste_basket"}},"type":"Feature"},
	{"geometry":{"coordinates":[0.057641,51.64195],"type":"Point"},"properties":{"osm_id":"6627277014","tag":{"amenity":"waste_basket"}},"type":"Feature"},
	{"geometry":{"coordinates":[0.028095,51.637095],"type":"Point"},"properties":{"osm_id":"7813912521","tag":{"amenity":"waste_basket"}},"type":"Feature"},
	{"geometry":{"coordinates":[0.079265,51.620255],"type":"Point"},"properties":{"osm_id":"7856042420","tag":{"amenity":"waste_basket","waste":"dog_excrement"}},"type":"Feature"}
]
}
