{
"type": "FeatureCollection",
"features": [
	{"geometry":{"coordinates":[0.043076,51.558481],"type":"Point"},"properties":{"osm_id":"252643312","tag":{"amenity":"recycling"}},"type":"Feature"},
	{"geometry":{"coordinates":[0.042985,51.562399],"type":"Point"},"properties":{"osm_id":"264134453","tag":{"amenity":"recycling"}},"type":"Feature"},
	{"geometry":{"coordinates":[0.005386,51.533662],"type":"Point"},"properties":{"osm_id":"268585973","tag":{"amenity":"recycling","location":"overground","recycling:cans":"yes","recycling:glass_bottles":"yes","recycling:paper":"yes","recycling:plastic":"no","recycling:plastic_bottles":"yes","recycling:plastic_packaging":"no","recycling_type":"container"}},"type":"Feature"},
	{"geometry":{"coordinates":[0.007502,51.536032],"type":"Point"},"properties":{"osm_id":"269138168","tag":{"amenity":"recycling"}},"type":"Feature"},
	{"geometry":{"coordinates":[0.01087,51.534449],"type":"Point"},"properties":{"osm_id":"269139914","tag":{"amenity":"recycling"}},"type":"Feature"},
	{"geometry":{"coordinates":[0.011809,51.533921],"type":"Point"},"properties":{"osm_id":"269139915","tag":{"amenity":"recycling"}},"type":"Feature"},
	{"geometry":{"coordinates":[0.00845,51.537369],"type":"Point"},"properties":{"osm_id":"269149339","tag":{"amenity":"recycling","material":"plastic","operator":"London Borough of Newham","recycling:cans":"yes","recycling:glass_bottles":"yes","recycling:paper":"yes","recycling:plastic":"yes","recycling:plastic_bottles":"yes","recycling:tin":"yes","recycling_type":"container"}},"type":"Feature"},
	{"geometry":{"coordinates":[0.00547,51.538253],"type":"Point"},"properties":{"osm_id":"269149348","tag":{"amenity":"recycling","material":"plastic","operator":"London Borough of Newham","recycling:cans":"yes","recycling:glass_bottles":"yes","recycling:paper":"yes","recycling:plastic":"yes","recycling:plastic_bottles":"yes","recycling:tin":"yes","recycling_type":"container"}},"type":"Feature"},
	{"geometry":{"coordinates":[0.033914,51.510168],"type":"Point"},"properties":{"osm_id":"282590621","tag":{"amenity":"recycling"}},"type":"Feature"},
	{"geometry":{"coordinates":[0.031768,51.515394],"type":"Point"},"properties":{"osm_id":"282594751","tag":{"amenity":"recycling"}},"type":"Feature"},
	{"geometry":{"coordinates":[0.005646,51.529229],"type":"Point"},"properties":{"osm_id":"283162499","tag":{"amenity":"recycling"}},"type":"Feature"},
	{"geometry":{"coordinates":[0.022757,51.538998],"type":"Point"},"properties":{"osm_id":"296565929","tag":{"amenity":"recycling","recycling:cans":"yes","recycling:glass_bottles":"yes","recycling:jars":"yes","recycling:paper":"yes","recycling:plastic_bottles":"yes","recycling_type":"container"}},"type":"Feature"},
	{"geometry":{"coordinates":[0.025174,51.511538],"type":"Point"},"properties":{"osm_id":"306611135","tag":{"amenity":"recycling","location":"overground","recycling_type":"container"}},"type":"Feature"},
	{"geometry":{"coordinates":[0.060421,51.544674],"type":"Point"},"properties":{"osm_id":"331354907","tag":{"amenity":"recycling"}},"type":"Feature"},
	{"geometry":{"coordinates":[0.057463,51.540713],"type":"Point"},"properties":{"osm_id":"331355844","tag":{"amenity":"recycling"}},"type":"Feature"},
	{"geometry":{"coordinates":[0.047707,51.539945],"type":"Point"},"properties":{"osm_id":"331938427","tag":{"amenity":"recycling","location":"overground","recycling_type":"container"}},"type":"Feature"},
	{"geometry":{"coordinates":[0.063542,51.539702],"type":"Point"},"properties":{"osm_id":"340127071","tag":{"amenity":"recycling"}},"type":"Feature"},
	{"geometry":{"coordinates":[0.06267,51.551996],"type":"Point"},"properties":{"osm_id":"348626868","tag":{"amenity":"recycling"}},"type":"Feature"},
	{"geometry":{"coordinates":[0.023766,51.524807],"type":"Point"},"properties":{"osm_id":"356964830","tag":{"amenity":"recycling"}},"type":"Feature"},
	{"geometry":{"coordinates":[0.027422,51.524705],"type":"Point"},"properties":{"osm_id":"356982341","tag":{"amenity":"recycling"}},"type":"Feature"},
	{"geometry":{"coordinates":[0.03119,51.522513],"type":"Point"},"properties":{"osm_id":"364554346","tag":{"amenity":"recycling","recycling_type":"container"}},"type":"Feature"},
	{"geometry":{"coordinates":[0.005192,51.523065],"type":"Point"},"properties":{"osm_id":"390344377","tag":{"amenity":"recycling"}},"type":"Feature"},
	{"geometry":{"coordinates":[0.050398,51.516338],"type":"Point"},"properties":{"osm_id":"515241740","tag":{"amenity":"recycling"}},"type":"Feature"},
	{"geometry":{"coordinates":[0.074503,51.517071],"type":"Point"},"properties":{"osm_id":"668087514","tag":{"amenity":"recycling","recycling:cans":"yes","recycling:clothes":"yes","recycling:glass_bottles":"yes","recycling:magazines":"yes","recycling:newspaper":"yes","recycling:paper":"yes","recycling:plastic_bottles":"yes"}},"type":"Feature"},
	{"geometry":{"coordinates":[0.040823,51.539917],"type":"Point"},"properties":{"name":"Aspire Clothing Bank","osm_id":"1181784877","tag":{"amenity":"recycling","recycling:clothes":"yes","recycling:shoes":"yes"}},"type":"Feature"},
	{"geometry":{"coordinates":[0.067667,51.524831],"type":"Point"},"properties":{"osm_id":"1454375344","tag":{"amenity":"recycling","recycling:cans":"yes","recycling:cardboard":"no","recycling:glass_bottles":"yes","recycling:magazines":"yes","recycling:newspaper":"yes","recycling:paper":"yes","recycling:paper_packaging":"yes","recycling:plastic_bottles":"yes","recycling_type":"container"}},"type":"Feature"},
	{"geometry":{"coordinates":[0.011059,51.543366],"type":"Point"},"properties":{"osm_id":"1503454993","tag":{"amenity":"recycling","recycling:batteries":"no","recycling:books":"no","recycling:cans":"yes","recycling:cardboard":"no","recycling:cartons":"no","recycling:clothes":"no","recycling:electrical_appliances":"no","recycling:glass_bottles":"yes","recycling:green_waste":"no","recycling:magazines":"no","recycling:newspaper":"no","recycling:paper":"no","recycling:paper_packaging":"no","recycling:plastic":"yes","recycling:plastic_bottles":"yes","recycling:plastic_packaging":"yes","recycling:scrap_metal":"no","recycling:small_appliances":"no","recycling:waste":"no","recycling:wood":"no","recycling_type":"container"}},"type":"Feature"},
	{"geometry":{"coordinates":[0.018365,51.529757],"type":"Point"},"properties":{"osm_id":"2133953949","tag":{"amenity":"waste_basket"}},"type":"Feature"},
	{"geometry":{"coordinates":[0.019336,51.533455],"type":"Point"},"properties":{"osm_id":"2484887503","tag":{"amenity":"recycling","recycling:cans":"yes","recycling:glass":"yes","recycling:paper":"yes","recycling_type":"container"}},"type":"Feature"},
	{"geometry":{"coordinates":[0.043766,51.516715],"type":"Point"},"properties":{"osm_id":"3623988944","tag":{"amenity":"waste_basket","waste":"dog"}},"type":"Feature"},
	{"geometry":{"coordinates":[0.043784,51.516792],"type":"Point"},"properties":{"osm_id":"3623988946","tag":{"amenity":"waste_basket"}},"type":"Feature"},
	{"geometry":{"coordinates":[0.042787,51.517251],"type":"Point"},"properties":{"osm_id":"3623991759","tag":{"amenity":"waste_basket"}},"type":"Feature"},
	{"geometry":{"coordinates":[0.042693,51.516738],"type":"Point"},"properties":{"osm_id":"3623991760","tag":{"amenity":"waste_basket","waste":"dog"}},"type":"Feature"},
	{"geometry":{"coordinates":[0.042355,51.518364],"type":"Point"},"properties":{"osm_id":"3624011989","tag":{"amenity":"waste_basket","waste":"dog"}},"type":"Feature"},
	{"geometry":{"coordinates":[0.042417,51.519372],"type":"Point"},"properties":{"osm_id":"3624017536","tag":{"amenity":"waste_basket"}},"type":"Feature"},
	{"geometry":{"coordinates":[0.043524,51.519614],"type":"Point"},"properties":{"osm_id":"3624021712","tag":{"amenity":"waste_basket"}},"type":"Feature"},
	{"geometry":{"coordinates":[0.042969,51.519526],"type":"Point"},"properties":{"osm_id":"3624021713","tag":{"amenity":"waste_basket"}},"type":"Feature"},
	{"geometry":{"coordinates":[0.044176,51.519752],"type":"Point"},"properties":{"osm_id":"3624022558","tag":{"amenity":"waste_basket"}},"type":"Feature"},
	{"geometry":{"coordinates":[0.044345,51.519762],"type":"Point"},"properties":{"osm_id":"3624022565","tag":{"amenity":"waste_basket","waste":"dog"}},"type":"Feature"},
	{"geometry":{"coordinates":[0.02193,51.538408],"type":"Point"},"properties":{"osm_id":"3654837163","tag":{"amenity":"waste_basket"}},"type":"Feature"},
	{"geometry":{"coordinates":[0.022386,51.538224],"type":"Point"},"properties":{"osm_id":"3654837164","tag":{"amenity":"waste_basket"}},"type":"Feature"},
	{"geometry":{"coordinates":[0.02193,51.538435],"type":"Point"},"properties":{"osm_id":"3654837166","tag":{"amenity":"waste_basket","waste":"dog"}},"type":"Feature"},
	{"geometry":{"coordinates":[0.019248,51.538875],"type":"Point"},"properties":{"osm_id":"3654837175","tag":{"amenity":"waste_basket"}},"type":"Feature"},
	{"geometry":{"coordinates":[0.019087,51.539307],"type":"Point"},"properties":{"osm_id":"3654837178","tag":{"amenity":"waste_basket"}},"type":"Feature"},
	{"geometry":{"coordinates":[0.019977,51.53742],"type":"Point"},"properties":{"osm_id":"3654837180","tag":{"amenity":"waste_basket"}},"type":"Feature"},
	{"geometry":{"coordinates":[0.020449,51.539089],"type":"Point"},"properties":{"osm_id":"3654837182","tag":{"amenity":"waste_basket"}},"type":"Feature"},
	{"geometry":{"coordinates":[0.02002,51.537621],"type":"Point"},"properties":{"osm_id":"3654837188","tag":{"amenity":"waste_basket"}},"type":"Feature"},
	{"geometry":{"coordinates":[0.021,51.538845],"type":"Point"},"properties":{"osm_id":"3654837192","tag":{"amenity":"waste_basket"}},"type":"Feature"},
	{"geometry":{"coordinates":[0.019993,51.537317],"type":"Point"},"properties":{"osm_id":"3654837193","tag":{"amenity":"waste_basket"}},"type":"Feature"},
	{"geometry":{"coordinates":[0.02075,51.537171],"type":"Point"},"properties":{"osm_id":"3654850561","tag":{"amenity":"waste_basket"}},"type":"Feature"},
	{"geometry":{"coordinates":[0.021844,51.538128],"type":"Point"},"properties":{"osm_id":"3654850562","tag":{"amenity":"waste_basket"}},"type":"Feature"},
	{"geometry":{"coordinates":[0.020707,51.537033],"type":"Point"},"properties":{"osm_id":"3654850566","tag":{"amenity":"waste_basket"}},"type":"Feature"},
	{"geometry":{"coordinates":[0.021042,51.537501],"type":"Point"},"properties":{"osm_id":"3654850567","tag":{"amenity":"waste_basket"}},"type":"Feature"},
	{"geometry":{"coordinates":[0.021954,51.537465],"type":"Point"},"properties":{"osm_id":"3654850574","tag":{"amenity":"waste_basket"}},"type":"Feature"},
	{"geometry":{"coordinates":[0.005843,51.538091],"type":"Point"},"properties":{"osm_id":"4409793350","tag":{"amenity":"waste_basket"}},"type":"Feature"},
	{"geometry":{"coordinates":[0.005578,51.538108],"type":"Point"},"properties":{"osm_id":"4409793351","tag":{"amenity":"waste_basket"}},"type":"Feature"},
	{"geometry":{"coordinates":[0.006145,51.538132],"type":"Point"},"properties":{"osm_id":"4409793355","tag":{"amenity":"waste_basket"}},"type":"Feature"},
	{"geometry":{"coordinates":[0.005106,51.538507],"type":"Point"},"properties":{"osm_id":"4409793356","tag":{"amenity":"waste_basket"}},"type":"Feature"},
	{"geometry":{"coordinates":[0.005815,51.538115],"type":"Point"},"properties":{"osm_id":"4409793360","tag":{"amenity":"waste_basket","waste":"dog_excrement"}},"type":"Feature"},
	{"geometry":{"coordinates":[0.005963,51.537884],"type":"Point"},"properties":{"osm_id":"4409793370","tag":{"amenity":"waste_basket"}},"type":"Feature"},
	{"geometry":{"coordinates":[0.006144,51.53766],"type":"Point"},"properties":{"osm_id":"4409793375","tag":{"amenity":"waste_basket"}},"type":"Feature"},
	{"geometry":{"coordinates":[0.005134,51.538706],"type":"Point"},"properties":{"osm_id":"4409796631","tag":{"amenity":"waste_basket","waste":"dog_excrement"}},"type":"Feature"},
	{"geometry":{"coordinates":[0.005145,51.538744],"type":"Point"},"properties":{"osm_id":"4409796633","tag":{"amenity":"waste_basket"}},"type":"Feature"},
	{"geometry":{"coordinates":[0.005714,51.538685],"type":"Point"},"properties":{"osm_id":"4409796635","tag":{"amenity":"waste_basket"}},"type":"Feature"},
	{"geometry":{"coordinates":[0.005755,51.538195],"type":"Point"},"properties":{"osm_id":"4409796642","tag":{"amenity":"waste_basket"}},"type":"Feature"},
	{"geometry":{"coordinates":[0.006952,51.539281],"type":"Point"},"properties":{"osm_id":"4409806502","tag":{"amenity":"waste_basket"}},"type":"Feature"},
	{"geometry":{"coordinates":[0.006585,51.538618],"type":"Point"},"properties":{"osm_id":"4409806503","tag":{"amenity":"waste_basket"}},"type":"Feature"},
	{"geometry":{"coordinates":[0.006714,51.538647],"type":"Point"},"properties":{"osm_id":"4409806507","tag":{"amenity":"waste_basket"}},"type":"Feature"},
	{"geometry":{"coordinates":[0.007085,51.538492],"type":"Point"},"properties":{"osm_id":"4409806516","tag":{"amenity":"waste_basket"}},"type":"Feature"},
	{"geometry":{"coordinates":[0.007461,51.538744],"type":"Point"},"properties":{"osm_id":"4409806522","tag":{"amenity":"waste_basket"}},"type":"Feature"},
	{"geometry":{"coordinates":[0.006942,51.538357],"type":"Point"},"properties":{"osm_id":"4409806537","tag":{"amenity":"waste_basket"}},"type":"Feature"},
	{"geometry":{"coordinates":[0.007328,51.538749],"type":"Point"},"properties":{"osm_id":"4409806543","tag":{"amenity":"waste_basket"}},"type":"Feature"},
	{"geometry":{"coordinates":[0.006582,51.538481],"type":"Point"},"properties":{"osm_id":"4409806548","tag":{"amenity":"waste_basket"}},"type":"Feature"},
	{"geometry":{"coordinates":[0.007576,51.538221],"type":"Point"},"properties":{"osm_id":"4409839261","tag":{"amenity":"waste_basket"}},"type":"Feature"},
	{"geometry":{"coordinates":[0.007178,51.539569],"type":"Point"},"properties":{"osm_id":"4409839263","tag":{"amenity":"waste_basket","waste":"dog_excrement"}},"type":"Feature"},
	{"geometry":{"coordinates":[0.007004,51.539535],"type":"Point"},"properties":{"osm_id":"4409839273","tag":{"amenity":"waste_basket"}},"type":"Feature"},
	{"geometry":{"coordinates":[0.007659,51.537809],"type":"Point"},"properties":{"osm_id":"4409853520","tag":{"amenity":"waste_basket"}},"type":"Feature"},
	{"geometry":{"coordinates":[0.00736,51.53807],"type":"Point"},"properties":{"osm_id":"4409872789","tag":{"amenity":"waste_basket","waste":"dog_excrement"}},"type":"Feature"},
	{"geometry":{"coordinates":[0.00734,51.538084],"type":"Point"},"properties":{"osm_id":"4409872791","tag":{"amenity":"waste_basket"}},"type":"Feature"},
	{"geometry":{"coordinates":[0.006684,51.537701],"type":"Point"},"properties":{"osm_id":"4409872795","tag":{"amenity":"waste_basket"}},"type":"Feature"},
	{"geometry":{"coordinates":[0.007931,51.537535],"type":"Point"},"properties":{"osm_id":"4410028847","tag":{"amenity":"waste_basket","waste":"dog_excrement"}},"type":"Feature"},
	{"geometry":{"coordinates":[0.008409,51.537489],"type":"Point"},"properties":{"osm_id":"4410088900","tag":{"amenity":"waste_basket"}},"type":"Feature"},
	{"geometry":{"coordinates":[0.009082,51.537452],"type":"Point"},"properties":{"osm_id":"4410088901","tag":{"amenity":"waste_basket"}},"type":"Feature"},
	{"geometry":{"coordinates":[0.008693,51.537802],"type":"Point"},"properties":{"osm_id":"4410088903","tag":{"amenity":"waste_basket"}},"type":"Feature"},
	{"geometry":{"coordinates":[0.00869,51.537801],"type":"Point"},"properties":{"osm_id":"4410088905","tag":{"amenity":"waste_basket"}},"type":"Feature"},
	{"geometry":{"coordinates":[0.007827,51.537612],"type":"Point"},"properties":{"osm_id":"4410088906","tag":{"amenity":"waste_basket"}},"type":"Feature"},
	{"geometry":{"coordinates":[0.009134,51.537434],"type":"Point"},"properties":{"osm_id":"4410088907","tag":{"amenity":"waste_basket","waste":"dog_excrement"}},"type":"Feature"},
	{"geometry":{"coordinates":[0.017,51.539209],"type":"Point"},"properties":{"osm_id":"4426138058","tag":{"amenity":"waste_basket"}},"type":"Feature"},
	{"geometry":{"coordinates":[0.016345,51.538995],"type":"Point"},"properties":{"osm_id":"4426138060","tag":{"amenity":"waste_basket"}},"type":"Feature"},
	{"geometry":{"coordinates":[0.018577,51.539472],"type":"Point"},"properties":{"osm_id":"4426138065","tag":{"amenity":"waste_basket","waste":"dog_excrement"}},"type":"Feature"},
	{"geometry":{"coordinates":[0.01825,51.539342],"type":"Point"},"properties":{"osm_id":"4426138076","tag":{"amenity":"waste_basket"}},"type":"Feature"},
	{"geometry":{"coordinates":[0.01615,51.538568],"type":"Point"},"properties":{"osm_id":"4426161114","tag":{"amenity":"waste_basket"}},"type":"Feature"},
	{"geometry":{"coordinates":[0.015578,51.537722],"type":"Point"},"properties":{"osm_id":"4426161115","tag":{"amenity":"waste_basket"}},"type":"Feature"},
	{"geometry":{"coordinates":[0.0145,51.537689],"type":"Point"},"properties":{"osm_id":"4426161117","tag":{"amenity":"waste_basket"}},"type":"Feature"},
	{"geometry":{"coordinates":[0.016087,51.538781],"type":"Point"},"properties":{"osm_id":"4426161123","tag":{"amenity":"waste_basket"}},"type":"Feature"},
	{"geometry":{"coordinates":[0.016077,51.538782],"type":"Point"},"properties":{"osm_id":"4426161124","tag":{"amenity":"recycling","location":"overground","recycling:cans":"yes","recycling:glass_bottles":"yes","recycling:paper":"yes","recycling:plastic":"no","recycling:plastic_bottles":"yes","recycling:plastic_packaging":"no","recycling_type":"container"}},"type":"Feature"},
	{"geometry":{"coordinates":[0.014613,51.537364],"type":"Point"},"properties":{"osm_id":"4426161130","tag":{"amenity":"waste_basket","waste":"dog_excrement"}},"type":"Feature"},
	{"geometry":{"coordinates":[0.015825,51.538109],"type":"Point"},"properties":{"osm_id":"4426161132","tag":{"amenity":"waste_basket"}},"type":"Feature"},
	{"geometry":{"coordinates":[0.015053,51.53745],"type":"Point"},"properties":{"osm_id":"4426161134","tag":{"amenity":"waste_basket"}},"type":"Feature"},
	{"geometry":{"coordinates":[0.005189,51.548677],"type":"Point"},"properties":{"osm_id":"4530054180","tag":{"amenity":"recycling","recycling:cans":"yes","recycling:clothes":"yes","recycling:glass":"yes","recycling:glass_bottles":"yes","recycling_type":"container"}},"type":"Feature"},
	{"geometry":{"coordinates":[0.008981,51.562073],"type":"Point"},"properties":{"osm_id":"4962880124","tag":{"amenity":"waste_basket"}},"type":"Feature"},
	{"geometry":{"coordinates":[0.009241,51.562654],"type":"Point"},"properties":{"osm_id":"4962880383","tag":{"amenity":"waste_basket"}},"type":"Feature"},
	{"geometry":{"coordinates":[0.006575,51.557665],"type":"Point"},"properties":{"osm_id":"4973541125","tag":{"amenity":"waste_basket"}},"type":"Feature"},
	{"geometry":{"coordinates":[0.007314,51.559171],"type":"Point"},"properties":{"osm_id":"4973924409","tag":{"amenity":"waste_basket"}},"type":"Feature"},
	{"geometry":{"coordinates":[0.007237,51.558938],"type":"Point"},"properties":{"osm_id":"4973924417","tag":{"amenity":"waste_basket"}},"type":"Feature"},
	{"geometry":{"coordinates":[0.006869,51.557863],"type":"Point"},"properties":{"osm_id":"4974161622","tag":{"amenity":"waste_basket"}},"type":"Feature"},
	{"geometry":{"coordinates":[0.008227,51.560495],"type":"Point"},"properties":{"osm_id":"4976322524","tag":{"amenity":"waste_basket"}},"type":"Feature"},
	{"geometry":{"coordinates":[0.003231,51.563186],"type":"Point"},"properties":{"osm_id":"5534997846","tag":{"amenity":"waste_basket"}},"type":"Feature"},
	{"geometry":{"coordinates":[0.003514,51.560958],"type":"Point"},"properties":{"osm_id":"5584613773","tag":{"amenity":"waste_basket"}},"type":"Feature"},
	{"geometry":{"coordinates":[0.003336,51.560915],"type":"Point"},"properties":{"osm_id":"5584613774","tag":{"amenity":"waste_basket"}},"type":"Feature"},
	{"geometry":{"coordinates":[0.003523,51.563371],"type":"Point"},"properties":{"osm_id":"5584720020","tag":{"amenity":"waste_basket"}},"type":"Feature"},
	{"geometry":{"coordinates":[0.002245,51.562286],"type":"Point"},"properties":{"osm_id":"5584720122","tag":{"amenity":"waste_basket"}},"type":"Feature"},
	{"geometry":{"coordinates":[0.000389,51.560917],"type":"Point"},"properties":{"osm_id":"5584720149","tag":{"amenity":"waste_basket"}},"type":"Feature"},
	{"geometry":{"coordinates":[0.000853,51.561253],"type":"Point"},"properties":{"osm_id":"5584720150","tag":{"amenity":"waste_basket"}},"type":"Feature"},
	{"geometry":{"coordinates":[0.019372,51.558974],"type":"Point"},"properties":{"osm_id":"5585047968","tag":{"amenity":"recycling","recycling:mixed":"yes","recycling_type":"container"}},"type":"Feature"},
	{"geometry":{"coordinates":[0.001982,51.550756],"type":"Point"},"properties":{"osm_id":"5585920967","tag":{"amenity":"waste_basket"}},"type":"Feature"},
	{"geometry":{"coordinates":[0.005255,51.549937],"type":"Point"},"properties":{"osm_id":"5801395329","tag":{"amenity":"waste_basket","waste":"trash"}},"type":"Feature"},
	{"geometry":{"coordinates":[0.011398,51.527665],"type":"Point"},"properties":{"osm_id":"5808218779","tag":{"amenity":"waste_basket"}},"type":"Feature"},
	{"geometry":{"coordinates":[0.005049,51.553739],"type":"Point"},"properties":{"osm_id":"6039222106","tag":{"amenity":"waste_basket"}},"type":"Feature"},
	{"geometry":{"coordinates":[0.005088,51.549972],"type":"Point"},"properties":{"osm_id":"6070758708","tag":{"amenity":"waste_basket"}},"type":"Feature"},
	{"geometry":{"coordinates":[0.01536,51.554859],"type":"Point"},"properties":{"osm_id":"6116222241","tag":{"amenity":"waste_basket"}},"type":"Feature"},
	{"geometry":{"coordinates":[0.010717,51.555143],"type":"Point"},"properties":{"osm_id":"6116222247","tag":{"amenity":"waste_basket"}},"type":"Feature"},
	{"geometry":{"coordinates":[0.034572,51.553633],"type":"Point"},"properties":{"osm_id":"6119885179","tag":{"amenity":"waste_basket"}},"type":"Feature"},
	{"geometry":{"coordinates":[0.001517,51.543377],"type":"Point"},"properties":{"osm_id":"6236847512","tag":{"amenity":"waste_basket"}},"type":"Feature"},
	{"geometry":{"coordinates":[0.017321,51.531103],"type":"Point"},"properties":{"osm_id":"6268416222","tag":{"amenity":"recycling","operator":"London Borough of Newham","recycling:paper":"yes","recycling_type":"container"}},"type":"Feature"},
	{"geometry":{"coordinates":[0.017299,51.531098],"type":"Point"},"properties":{"osm_id":"6268416223","tag":{"amenity":"recycling","operator":"London Borough of Newham","recycling:cans":"yes","recycling:plastic_bottles":"yes","recycling_type":"container"}},"type":"Feature"},
	{"geometry":{"coordinates":[0.017277,51.531092],"type":"Point"},"properties":{"osm_id":"6268416224","tag":{"amenity":"recycling","operator":"London Borough of Newham","recycling:glass_bottles":"yes","recycling_type":"container"}},"type":"Feature"},
	{"geometry":{"coordinates":[0.014131,51.544243],"type":"Point"},"properties":{"osm_id":"6343389472","tag":{"amenity":"waste_basket","waste":"trash"}},"type":"Feature"},
	{"geometry":{"coordinates":[0.011634,51.543529],"type":"Point"},"properties":{"osm_id":"6343767872","tag":{"amenity":"recycling","operator":"The Firefighters Charity","recycling:batteries":"no","recycling:books":"no","recycling:cardboard":"no","recycling:cartons":"no","recycling:clothes":"yes","recycling:electrical_appliances":"no","recycling:green_waste":"no","recycling:magazines":"no","recycling:newspaper":"no","recycling:paper":"no","recycling:paper_packaging":"no","recycling:scrap_metal":"no","recycling:shoes":"yes","recycling:small_appliances":"no","recycling:waste":"no","recycling:wood":"no","recycling_type":"container"}},"type":"Feature"},
	{"geometry":{"coordinates":[0.009297,51.542882],"type":"Point"},"properties":{"osm_id":"6343767874","tag":{"amenity":"waste_basket"}},"type":"Feature"},
	{"geometry":{"coordinates":[0.006046,51.544332],"type":"Point"},"properties":{"osm_id":"6343767875","tag":{"amenity":"waste_basket"}},"type":"Feature"},
	{"geometry":{"coordinates":[0.001814,51.508993],"type":"Point"},"properties":{"osm_id":"6547635088","tag":{"amenity":"waste_basket","waste":"dog_excrement"}},"type":"Feature"},
	{"geometry":{"coordinates":[0.004307,51.509771],"type":"Point"},"properties":{"osm_id":"6547635100","tag":{"amenity":"waste_basket"}},"type":"Feature"},
	{"geometry":{"coordinates":[0.004406,51.543434],"type":"Point"},"properties":{"osm_id":"6578785536","tag":{"amenity":"waste_basket"}},"type":"Feature"},
	{"geometry":{"coordinates":[0.017178,51.512052],"type":"Point"},"properties":{"osm_id":"6603466172","tag":{"amenity":"waste_basket"}},"type":"Feature"},
	{"geometry":{"coordinates":[0.01149,51.537212],"type":"Point"},"properties":{"osm_id":"6680345623","tag":{"amenity":"recycling","material":"plastic","operator":"London Borough of Newham","recycling:cans":"yes","recycling:glass_bottles":"yes","recycling:paper":"yes","recycling:plastic":"yes","recycling:plastic_bottles":"yes","recycling:tin":"yes","recycling_type":"container"}},"type":"Feature"},
	{"geometry":{"coordinates":[0.056406,51.527741],"type":"Point"},"properties":{"osm_id":"6951195425","tag":{"amenity":"waste_basket"}},"type":"Feature"},
	{"geometry":{"coordinates":[0.05639,51.527475],"type":"Point"},"properties":{"osm_id":"6951195429","tag":{"amenity":"waste_basket"}},"type":"Feature"},
	{"geometry":{"coordinates":[0.056436,51.52639],"type":"Point"},"properties":{"osm_id":"6951195442","tag":{"amenity":"waste_basket"}},"type":"Feature"},
	{"geometry":{"coordinates":[0.056487,51.526273],"type":"Point"},"properties":{"osm_id":"6951195443","tag":{"amenity":"waste_basket"}},"type":"Feature"},
	{"geometry":{"coordinates":[0.056636,51.525901],"type":"Point"},"properties":{"osm_id":"6951195469","tag":{"amenity":"waste_basket"}},"type":"Feature"},
	{"geometry":{"coordinates":[0.056859,51.525896],"type":"Point"},"properties":{"osm_id":"6951242185","tag":{"amenity":"waste_basket"}},"type":"Feature"},
	{"geometry":{"coordinates":[0.055156,51.531865],"type":"Point"},"properties":{"osm_id":"6951713155","tag":{"amenity":"waste_basket"}},"type":"Feature"},
	{"geometry":{"coordinates":[0.055413,51.531456],"type":"Point"},"properties":{"osm_id":"6951713168","tag":{"amenity":"waste_basket"}},"type":"Feature"},
	{"geometry":{"coordinates":[0.054185,51.533337],"type":"Point"},"properties":{"osm_id":"6952117505","tag":{"amenity":"waste_basket"}},"type":"Feature"},
	{"geometry":{"coordinates":[0.053327,51.532839],"type":"Point"},"properties":{"osm_id":"6952421601","tag":{"amenity":"waste_basket"}},"type":"Feature"},
	{"geometry":{"coordinates":[0.051007,51.532415],"type":"Point"},"properties":{"osm_id":"6952421623","tag":{"amenity":"waste_basket"}},"type":"Feature"},
	{"geometry":{"coordinates":[0.005432,51.552826],"type":"Point"},"properties":{"osm_id":"6967654232","tag":{"amenity":"waste_basket"}},"type":"Feature"},
	{"geometry":{"coordinates":[0.030365,51.524381],"type":"Point"},"properties":{"osm_id":"7171940544","tag":{"amenity":"waste_basket"}},"type":"Feature"},
	{"geometry":{"coordinates":[0.039143,51.523287],"type":"Point"},"properties":{"osm_id":"7171940555","tag":{"amenity":"waste_basket"}},"type":"Feature"},
	{"geometry":{"coordinates":[0.027171,51.524801],"type":"Point"},"properties":{"osm_id":"7172444015","tag":{"amenity":"waste_basket"}},"type":"Feature"},
	{"geometry":{"coordinates":[0.017921,51.527406],"type":"Point"},"properties":{"osm_id":"7172645536","tag":{"amenity":"waste_basket"}},"type":"Feature"},
	{"geometry":{"coordinates":[0.02082,51.526133],"type":"Point"},"properties":{"osm_id":"7172645550","tag":{"amenity":"waste_basket"}},"type":"Feature"},
	{"geometry":{"coordinates":[0.023717,51.525329],"type":"Point"},"properties":{"osm_id":"7172645555","tag":{"amenity":"waste_basket"}},"type":"Feature"},
	{"geometry":{"coordinates":[0.01255,51.529747],"type":"Point"},"properties":{"osm_id":"7172755785","tag":{"amenity":"waste_basket"}},"type":"Feature"},
	{"geometry":{"coordinates":[0.017459,51.527608],"type":"Point"},"properties":{"osm_id":"7172755791","tag":{"amenity":"waste_basket"}},"type":"Feature"},
	{"geometry":{"coordinates":[0.005349,51.53002],"type":"Point"},"properties":{"osm_id":"7174834830","tag":{"amenity":"waste_basket"}},"type":"Feature"},
	{"geometry":{"coordinates":[0.007179,51.530052],"type":"Point"},"properties":{"osm_id":"7174834840","tag":{"amenity":"waste_basket"}},"type":"Feature"},
	{"geometry":{"coordinates":[0.003087,51.53035],"type":"Point"},"properties":{"osm_id":"7174907493","tag":{"amenity":"waste_basket"}},"type":"Feature"},
	{"geometry":{"coordinates":[0.002449,51.530386],"type":"Point"},"properties":{"osm_id":"7175219661","tag":{"amenity":"waste_basket"}},"type":"Feature"},
	{"geometry":{"coordinates":[0.017779,51.527461],"type":"Point"},"properties":{"osm_id":"7175403743","tag":{"amenity":"waste_basket"}},"type":"Feature"},
	{"geometry":{"coordinates":[0.024246,51.525194],"type":"Point"},"properties":{"osm_id":"7175403745","tag":{"amenity":"waste_basket"}},"type":"Feature"},
	{"geometry":{"coordinates":[0.019555,51.55101],"type":"Point"},"properties":{"osm_id":"7433268115","tag":{"amenity":"waste_basket"}},"type":"Feature"},
	{"geometry":{"coordinates":[0.01706,51.531675],"type":"Point"},"properties":{"osm_id":"7474030308","tag":{"amenity":"recycling","recycling:cans":"yes","recycling:glass_bottles":"yes","recycling:paper":"yes","recycling:plastic":"yes","recycling_type":"container"}},"type":"Feature"},
	{"geometry":{"coordinates":[0.017098,51.531665],"type":"Point"},"properties":{"osm_id":"7474030309","tag":{"amenity":"recycling","recycling:clothes":"yes","recycling_type":"container"}},"type":"Feature"},
	{"geometry":{"coordinates":[0.001212,51.521212],"type":"Point"},"properties":{"osm_id":"7488100179","tag":{"amenity":"waste_basket"}},"type":"Feature"},
	{"geometry":{"coordinates":[0.007995,51.550243],"type":"Point"},"properties":{"osm_id":"7494996549","tag":{"amenity":"waste_basket"}},"type":"Feature"},
	{"geometry":{"coordinates":[0.007336,51.550129],"type":"Point"},"properties":{"osm_id":"7494996550","tag":{"amenity":"waste_basket"}},"type":"Feature"},
	{"geometry":{"coordinates":[0.002193,51.55222],"type":"Point"},"properties":{"osm_id":"7500495142","tag":{"amenity":"waste_basket"}},"type":"Feature"},
	{"geometry":{"coordinates":[0.000626,51.547821],"type":"Point"},"properties":{"osm_id":"7519184806","tag":{"amenity":"recycling","operator":"LB Newham","recycling:cans":"yes","recycling:glass_bottles":"yes","recycling:paper":"yes","recycling:plastic":"yes","recycling_type":"container"}},"type":"Feature"},
	{"geometry":{"coordinates":[0.04027,51.54845],"type":"Point"},"properties":{"osm_id":"7615765023","tag":{"amenity":"waste_basket"}},"type":"Feature"},
	{"geometry":{"coordinates":[0.036559,51.547761],"type":"Point"},"properties":{"osm_id":"7615765047","tag":{"amenity":"waste_basket"}},"type":"Feature"},
	{"geometry":{"coordinates":[0.036127,51.547691],"type":"Point"},"properties":{"osm_id":"7615765050","tag":{"amenity":"waste_basket"}},"type":"Feature"},
	{"geometry":{"coordinates":[0.006401,51.544043],"type":"Point"},"properties":{"osm_id":"7633114402","tag":{"amenity":"recycling","operator":"Christian Life Church Trust","recycling:clothes":"yes","recycling:curtains":"yes","recycling:fabric":"yes","recycling:shoes":"yes","recycling_type":"container"}},"type":"Feature"},
	{"geometry":{"coordinates":[0.004994,51.509757],"type":"Point"},"properties":{"osm_id":"7645866080","tag":{"amenity":"waste_basket"}},"type":"Feature"},
	{"geometry":{"coordinates":[0.005828,51.542287],"type":"Point"},"properties":{"osm_id":"7645965512","tag":{"amenity":"waste_basket"}},"type":"Feature"},
	{"geometry":{"coordinates":[0.001772,51.508989],"type":"Point"},"properties":{"osm_id":"7781958960","tag":{"amenity":"waste_basket"}},"type":"Feature"},
	{"geometry":{"coordinates":[0.016433,51.548496],"type":"Point"},"properties":{"osm_id":"7795487392","tag":{"amenity":"waste_basket"}},"type":"Feature"},
	{"geometry":{"coordinates":[0.012209,51.529539],"type":"Point"},"properties":{"osm_id":"7800709806","tag":{"amenity":"waste_basket"}},"type":"Feature"},
	{"geometry":{"coordinates":[0.004631,51.514267],"type":"Point"},"properties":{"osm_id":"7816343630","tag":{"amenity":"waste_basket"}},"type":"Feature"},
	{"geometry":{"coordinates":[0.005265,51.514477],"type":"Point"},"properties":{"osm_id":"7816343631","tag":{"amenity":"waste_basket"}},"type":"Feature"},
	{"geometry":{"coordinates":[0.005705,51.512769],"type":"Point"},"properties":{"osm_id":"7881092136","tag":{"amenity":"waste_basket"}},"type":"Feature"},
	{"geometry":{"coordinates":[0.0056,51.512724],"type":"Point"},"properties":{"osm_id":"7881092137","tag":{"amenity":"waste_basket"}},"type":"Feature"}
]
}
