{
"type": "FeatureCollection",
"features": [
	{"geometry":{"coordinates":[0.001338,51.406257],"type":"Point"},"properties":{"highway":"traffic_signals","osm_id":"13808175"},"type":"Feature"},
	{"geometry":{"coordinates":[0.002116,51.406248],"type":"Point"},"properties":{"highway":"traffic_signals","osm_id":"13808176"},"type":"Feature"},
	{"geometry":{"coordinates":[0.035461,51.399222],"type":"Point"},"properties":{"name":"Waldo Road Reuse & Recycling Centre","osm_id":"420364322","tag":{"amenity":"recycling"}},"type":"Feature"},
	{"geometry":{"coordinates":[0.011282,51.406888],"type":"Point"},"properties":{"osm_id":"420369793","tag":{"amenity":"recycling"}},"type":"Feature"},
	{"geometry":{"coordinates":[0.014992,51.40652],"type":"Point"},"properties":{"osm_id":"420773292","tag":{"amenity":"recycling"}},"type":"Feature"},
	{"geometry":{"coordinates":[0.057855,51.449778],"type":"Point"},"properties":{"osm_id":"649495456","tag":{"amenity":"recycling"}},"type":"Feature"},
	{"geometry":{"coordinates":[0.058198,51.449764],"type":"Point"},"properties":{"osm_id":"649501430","tag":{"amenity":"recycling"}},"type":"Feature"},
	{"geometry":{"coordinates":[0.011743,51.399929],"type":"Point"},"properties":{"osm_id":"2168764327","tag":{"amenity":"waste_basket"}},"type":"Feature"},
	{"geometry":{"coordinates":[0.012407,51.403036],"type":"Point"},"properties":{"osm_id":"2168764328","tag":{"amenity":"waste_basket"}},"type":"Feature"},
	{"geometry":{"coordinates":[0.012228,51.400026],"type":"Point"},"properties":{"osm_id":"2168764329","tag":{"amenity":"waste_basket"}},"type":"Feature"},
	{"geometry":{"coordinates":[0.013256,51.399843],"type":"Point"},"properties":{"osm_id":"2168764331","tag":{"amenity":"waste_basket"}},"type":"Feature"},
	{"geometry":{"coordinates":[0.010944,51.403988],"type":"Point"},"properties":{"osm_id":"2168764334","tag":{"amenity":"waste_basket"}},"type":"Feature"},
	{"geometry":{"coordinates":[0.013113,51.403596],"type":"Point"},"properties":{"osm_id":"2168764336","tag":{"amenity":"waste_basket"}},"type":"Feature"},
	{"geometry":{"coordinates":[0.012425,51.402751],"type":"Point"},"properties":{"osm_id":"2168764337","tag":{"amenity":"waste_basket"}},"type":"Feature"},
	{"geometry":{"coordinates":[0.011803,51.402586],"type":"Point"},"properties":{"osm_id":"2168764339","tag":{"amenity":"waste_basket"}},"type":"Feature"},
	{"geometry":{"coordinates":[0.01206,51.402324],"type":"Point"},"properties":{"osm_id":"2168764341","tag":{"amenity":"waste_basket"}},"type":"Feature"},
	{"geometry":{"coordinates":[0.01273,51.403457],"type":"Point"},"properties":{"osm_id":"2168764342","tag":{"amenity":"waste_basket"}},"type":"Feature"},
	{"geometry":{"coordinates":[0.012885,51.401673],"type":"Point"},"properties":{"osm_id":"2168764343","tag":{"amenity":"waste_basket"}},"type":"Feature"},
	{"geometry":{"coordinates":[0.012375,51.403278],"type":"Point"},"properties":{"osm_id":"2168764344","tag":{"amenity":"waste_basket"}},"type":"Feature"},
	{"geometry":{"coordinates":[0.013381,51.401279],"type":"Point"},"properties":{"osm_id":"2168764345","tag":{"amenity":"waste_basket"}},"type":"Feature"},
	{"geometry":{"coordinates":[0.074608,51.412127],"type":"Point"},"properties":{"osm_id":"4663509853","tag":{"amenity":"waste_basket"}},"type":"Feature"},
	{"geometry":{"coordinates":[0.034383,51.45284],"type":"Point"},"properties":{"osm_id":"5220304637","tag":{"amenity":"waste_basket"}},"type":"Feature"},
	{"geometry":{"coordinates":[0.034977,51.452817],"type":"Point"},"properties":{"osm_id":"5220304638","tag":{"amenity":"waste_basket"}},"type":"Feature"},
	{"geometry":{"coordinates":[0.035089,51.452743],"type":"Point"},"properties":{"osm_id":"5220304654","tag":{"amenity":"waste_basket"}},"type":"Feature"},
	{"geometry":{"coordinates":[0.03512,51.452687],"type":"Point"},"properties":{"osm_id":"5220304655","tag":{"amenity":"waste_basket"}},"type":"Feature"},
	{"geometry":{"coordinates":[0.027474,51.44218],"type":"Point"},"properties":{"osm_id":"6019392551","tag":{"amenity":"waste_basket"}},"type":"Feature"},
	{"geometry":{"coordinates":[0.027368,51.441623],"type":"Point"},"properties":{"osm_id":"6019392552","tag":{"amenity":"waste_basket"}},"type":"Feature"},
	{"geometry":{"coordinates":[0.001351,51.429985],"type":"Point"},"properties":{"osm_id":"8222245565","tag":{"amenity":"waste_basket"}},"type":"Feature"},
	{"geometry":{"coordinates":[0.004504,51.430374],"type":"Point"},"properties":{"osm_id":"8222245566","tag":{"amenity":"waste_basket"}},"type":"Feature"},
	{"geometry":{"coordinates":[0.002882,51.430136],"type":"Point"},"properties":{"osm_id":"8222245568","tag":{"amenity":"waste_basket"}},"type":"Feature"},
	{"geometry":{"coordinates":[0.001856,51.430018],"type":"Point"},"properties":{"osm_id":"8222245570","tag":{"amenity":"waste_basket"}},"type":"Feature"},
	{"geometry":{"coordinates":[0.000692,51.429786],"type":"Point"},"properties":{"osm_id":"8222245572","tag":{"amenity":"waste_basket"}},"type":"Feature"},
	{"geometry":{"coordinates":[0.004044,51.430319],"type":"Point"},"properties":{"osm_id":"8222245573","tag":{"amenity":"waste_basket"}},"type":"Feature"},
	{"geometry":{"coordinates":[4.79e-05,51.429717],"type":"Point"},"properties":{"osm_id":"8222245577","tag":{"amenity":"waste_basket"}},"type":"Feature"}
]
}
