{
"type": "FeatureCollection",
"features": [
	{"geometry":{"coordinates":[0.069861,50.860039],"type":"Point"},"properties":{"osm_id":"2145730979","tag":{"amenity":"recycling","recycling_type":"container"}},"type":"Feature"},
	{"geometry":{"coordinates":[0.020225,50.866337],"type":"Point"},"properties":{"barrier":"gate","osm_id":"7757372936"},"type":"Feature"},
	{"geometry":{"coordinates":[0.020878,50.865794],"type":"Point"},"properties":{"barrier":"gate","osm_id":"7757372938"},"type":"Feature"},
	{"geometry":{"coordinates":[0.006601,50.867609],"type":"Point"},"properties":{"osm_id":"7928328907","ref":"D163","tag":{"amenity":"waste_basket","operator":"Lewes District Council","waste":"dog_excrement"}},"type":"Feature"},
	{"geometry":{"coordinates":[0.006754,50.867801],"type":"Point"},"properties":{"osm_id":"7928328909","ref":"L286","tag":{"amenity":"waste_basket","colour":"green","material":"plastic","operator":"Lewes District Council"}},"type":"Feature"},
	{"geometry":{"coordinates":[0.016589,50.875924],"type":"Point"},"properties":{"osm_id":"8038451870","tag":{"amenity":"recycling","recycling:glass_bottles":"yes"}},"type":"Feature"},
	{"geometry":{"coordinates":[0.01164,50.870916],"type":"Point"},"properties":{"osm_id":"8202103963","tag":{"amenity":"waste_basket"}},"type":"Feature"}
]
}
