{
"type": "FeatureCollection",
"features": [
	{"geometry":{"coordinates":[0.002014,50.790838],"type":"Point"},"properties":{"osm_id":"283441025","tag":{"amenity":"recycling"}},"type":"Feature"},
	{"geometry":{"coordinates":[0.009034,50.789498],"type":"Point"},"properties":{"osm_id":"283441077","tag":{"amenity":"recycling"}},"type":"Feature"},
	{"geometry":{"coordinates":[0.074469,50.785723],"type":"Point"},"properties":{"osm_id":"5632300950","tag":{"amenity":"waste_basket","ele:msl":"47.0","ele:source":"GPS","waste":"dog_excrement"}},"type":"Feature"},
	{"geometry":{"coordinates":[0.071858,50.784612],"type":"Point"},"properties":{"osm_id":"5632300951","tag":{"amenity":"waste_basket","ele:msl":"48.0","ele:source":"GPS","waste":"dog_excrement"}},"type":"Feature"},
	{"geometry":{"coordinates":[0.005496,50.790582],"type":"Point"},"properties":{"osm_id":"6240203939","tag":{"amenity":"waste_basket","waste":"trash"}},"type":"Feature"},
	{"geometry":{"coordinates":[0.008226,50.78988],"type":"Point"},"properties":{"osm_id":"6240218078","tag":{"amenity":"waste_basket","waste":"trash"}},"type":"Feature"},
	{"geometry":{"coordinates":[0.044122,50.791095],"type":"Point"},"properties":{"osm_id":"6240290470","tag":{"amenity":"waste_basket","waste":"dog_excrement"}},"type":"Feature"}
]
}
