{
"type": "FeatureCollection",
"features": [
	{"geometry":{"coordinates":[0.084712,49.369046],"type":"Point"},"properties":{"osm_id":"600576399","tag":{"amenity":"recycling","recycling:cans":"yes","recycling:glass_bottles":"yes","recycling:paper":"yes","recycling_type":"container"}},"type":"Feature"},
	{"geometry":{"coordinates":[0.072073,49.344043],"type":"Point"},"properties":{"osm_id":"1769468784","tag":{"amenity":"recycling","recycling_type":"container"}},"type":"Feature"},
	{"geometry":{"coordinates":[0.007089,49.327633],"type":"Point"},"properties":{"osm_id":"1865984548","tag":{"amenity":"recycling","recycling_type":"container"}},"type":"Feature"},
	{"geometry":{"coordinates":[0.009486,49.327787],"type":"Point"},"properties":{"osm_id":"1865984553","tag":{"amenity":"recycling"}},"type":"Feature"},
	{"geometry":{"coordinates":[0.084308,49.359929],"type":"Point"},"properties":{"osm_id":"4767131888","tag":{"amenity":"waste_basket","level":"0"}},"type":"Feature"},
	{"geometry":{"coordinates":[0.084254,49.360062],"type":"Point"},"properties":{"osm_id":"4767131908","tag":{"amenity":"waste_basket","level":"0"}},"type":"Feature"},
	{"geometry":{"coordinates":[0.084097,49.359866],"type":"Point"},"properties":{"osm_id":"4767131910","tag":{"amenity":"waste_basket","level":"0"}},"type":"Feature"},
	{"geometry":{"coordinates":[0.050546,49.34868],"type":"Point"},"properties":{"osm_id":"5229555377","tag":{"amenity":"recycling","recycling:glass_bottles":"yes","recycling_type":"container"}},"type":"Feature"},
	{"geometry":{"coordinates":[0.087884,49.337373],"type":"Point"},"properties":{"osm_id":"7687066536","tag":{"amenity":"waste_basket"}},"type":"Feature"}
]
}
