{
"type": "FeatureCollection",
"features": [
	{"geometry":{"coordinates":[0.072773,48.048747],"type":"Point"},"properties":{"osm_id":"3814248476","tag":{"amenity":"recycling","recycling_type":"container"}},"type":"Feature"},
	{"geometry":{"coordinates":[0.031641,48.104123],"type":"Point"},"properties":{"osm_id":"3815907434","tag":{"amenity":"recycling","recycling_type":"container"}},"type":"Feature"},
	{"geometry":{"coordinates":[0.039513,48.059864],"type":"Point"},"properties":{"osm_id":"6260438793","tag":{"addr:city":"La Quinte","addr:postcode":"72550","amenity":"recycling","recycling:cans":"yes","recycling:glass_bottles":"yes","recycling:paper":"yes","recycling:plastic_bottles":"yes","recycling_type":"container"}},"type":"Feature"},
	{"geometry":{"coordinates":[0.034006,48.060858],"type":"Point"},"properties":{"osm_id":"6260438794","tag":{"addr:city":"La Quinte","addr:postcode":"72550","amenity":"recycling","recycling:cans":"yes","recycling:glass_bottles":"yes","recycling:paper":"yes","recycling:plastic_bottles":"yes","recycling_type":"container"}},"type":"Feature"},
	{"geometry":{"coordinates":[0.065688,48.052638],"type":"Point"},"properties":{"osm_id":"6260721536","tag":{"amenity":"recycling","recycling_type":"container"}},"type":"Feature"},
	{"geometry":{"coordinates":[0.062364,48.076603],"type":"Point"},"properties":{"osm_id":"6260721537","tag":{"amenity":"recycling","recycling:cans":"yes","recycling:glass_bottles":"yes","recycling:paper":"yes","recycling:plastic":"no","recycling:plastic_packaging":"yes","recycling_type":"container"}},"type":"Feature"},
	{"geometry":{"coordinates":[0.020266,48.082415],"type":"Point"},"properties":{"osm_id":"6260721543","tag":{"amenity":"recycling","recycling_type":"container"}},"type":"Feature"},
	{"geometry":{"coordinates":[0.026583,48.105923],"type":"Point"},"properties":{"osm_id":"6260721544","tag":{"amenity":"recycling","recycling_type":"container"}},"type":"Feature"}
]
}
