{
"type": "FeatureCollection",
"features": [
	{"geometry":{"coordinates":[0.07538,43.218603],"type":"Point"},"properties":{"osm_id":"3213099573","tag":{"amenity":"recycling","recycling:glass":"yes"}},"type":"Feature"},
	{"geometry":{"coordinates":[0.065046,43.222221],"type":"Point"},"properties":{"osm_id":"3213099574","tag":{"amenity":"recycling","location":"underground","recycling:clothes":"yes","recycling_type":"container"}},"type":"Feature"},
	{"geometry":{"coordinates":[0.058287,43.222944],"type":"Point"},"properties":{"osm_id":"3213123747","tag":{"amenity":"recycling","recycling:glass":"yes"}},"type":"Feature"},
	{"geometry":{"coordinates":[0.077056,43.225546],"type":"Point"},"properties":{"osm_id":"3213126898","tag":{"amenity":"recycling","recycling:glass":"yes"}},"type":"Feature"},
	{"geometry":{"coordinates":[0.084737,43.238217],"type":"Point"},"properties":{"osm_id":"3267954954","tag":{"amenity":"recycling","recycling:glass":"yes"}},"type":"Feature"},
	{"geometry":{"coordinates":[0.085093,43.239258],"type":"Point"},"properties":{"osm_id":"3267959301","tag":{"amenity":"recycling","recycling:glass":"yes"}},"type":"Feature"},
	{"geometry":{"coordinates":[0.07047,43.245582],"type":"Point"},"properties":{"osm_id":"3267990708","tag":{"amenity":"recycling","recycling:glass":"yes"}},"type":"Feature"},
	{"geometry":{"coordinates":[0.045913,43.255965],"type":"Point"},"properties":{"osm_id":"3832236356","tag":{"amenity":"recycling","recycling:glass_bottles":"yes","recycling_type":"container"}},"type":"Feature"},
	{"geometry":{"coordinates":[0.039391,43.239867],"type":"Point"},"properties":{"osm_id":"6310732250","tag":{"amenity":"waste_basket"}},"type":"Feature"},
	{"geometry":{"coordinates":[0.039748,43.240494],"type":"Point"},"properties":{"osm_id":"6310732251","tag":{"amenity":"waste_basket"}},"type":"Feature"},
	{"geometry":{"coordinates":[0.039815,43.240331],"type":"Point"},"properties":{"osm_id":"6310732252","tag":{"amenity":"waste_basket"}},"type":"Feature"},
	{"geometry":{"coordinates":[0.039918,43.240133],"type":"Point"},"properties":{"osm_id":"6310732253","tag":{"amenity":"waste_basket"}},"type":"Feature"},
	{"geometry":{"coordinates":[0.039942,43.239819],"type":"Point"},"properties":{"osm_id":"6310732254","tag":{"amenity":"waste_basket"}},"type":"Feature"},
	{"geometry":{"coordinates":[0.065763,43.221838],"type":"Point"},"properties":{"name":"r\u00c3\u00a9cup\u00c3\u00a9rateur verre","osm_id":"7797288785","tag":{"amenity":"recycling"}},"type":"Feature"},
	{"geometry":{"coordinates":[0.007955,43.234226],"type":"Point"},"properties":{"osm_id":"8948989436","tag":{"amenity":"waste_basket","material":"concrete"}},"type":"Feature"},
	{"geometry":{"coordinates":[0.050277,43.227713],"type":"Point"},"properties":{"osm_id":"8949049466","tag":{"amenity":"recycling","recycling_type":"container"}},"type":"Feature"},
	{"geometry":{"coordinates":[0.050785,43.227767],"type":"Point"},"properties":{"osm_id":"8949049467","tag":{"amenity":"recycling","recycling_type":"container"}},"type":"Feature"},
	{"geometry":{"coordinates":[0.051621,43.226637],"type":"Point"},"properties":{"osm_id":"8949049486","tag":{"amenity":"recycling","recycling_type":"container"}},"type":"Feature"},
	{"geometry":{"coordinates":[0.051348,43.228752],"type":"Point"},"properties":{"osm_id":"8949466658","tag":{"amenity":"recycling","recycling_type":"container"}},"type":"Feature"},
	{"geometry":{"coordinates":[0.05582,43.229669],"type":"Point"},"properties":{"osm_id":"8949555218","tag":{"amenity":"recycling","recycling_type":"container"}},"type":"Feature"},
	{"geometry":{"coordinates":[0.055235,43.23071],"type":"Point"},"properties":{"osm_id":"8949555219","tag":{"amenity":"recycling","recycling_type":"container"}},"type":"Feature"},
	{"geometry":{"coordinates":[0.056414,43.230402],"type":"Point"},"properties":{"osm_id":"8949555221","tag":{"amenity":"recycling","recycling_type":"container"}},"type":"Feature"},
	{"geometry":{"coordinates":[0.05163,43.232663],"type":"Point"},"properties":{"osm_id":"8949705968","tag":{"amenity":"recycling","recycling_type":"container"}},"type":"Feature"}
]
}
