{
"type": "FeatureCollection",
"features": [
	{"geometry":{"coordinates":[0.059205,40.054951],"type":"Point"},"properties":{"name":"\u00c3\u0081rea de autocaravanas","osm_id":"288123043","tag":{"amenity":"waste_disposal"}},"type":"Feature"},
	{"geometry":{"coordinates":[0.026881,40.074994],"type":"Point"},"properties":{"osm_id":"3765554615","tag":{"amenity":"waste_disposal"}},"type":"Feature"},
	{"geometry":{"coordinates":[0.072564,40.053419],"type":"Point"},"properties":{"osm_id":"5290355559","tag":{"amenity":"waste_basket","waste":"trash"}},"type":"Feature"},
	{"geometry":{"coordinates":[0.073009,40.052889],"type":"Point"},"properties":{"osm_id":"5290355588","tag":{"amenity":"waste_basket","waste":"trash"}},"type":"Feature"},
	{"geometry":{"coordinates":[0.072504,40.053078],"type":"Point"},"properties":{"osm_id":"5290355591","tag":{"amenity":"waste_basket","waste":"trash"}},"type":"Feature"},
	{"geometry":{"coordinates":[0.072334,40.053226],"type":"Point"},"properties":{"osm_id":"5290355592","tag":{"amenity":"waste_basket","waste":"trash"}},"type":"Feature"},
	{"geometry":{"coordinates":[0.071744,40.053269],"type":"Point"},"properties":{"osm_id":"5290355600","tag":{"amenity":"waste_basket","waste":"trash"}},"type":"Feature"},
	{"geometry":{"coordinates":[0.073141,40.053113],"type":"Point"},"properties":{"osm_id":"5290356228","tag":{"amenity":"waste_basket","waste":"trash"}},"type":"Feature"},
	{"geometry":{"coordinates":[0.072561,40.05243],"type":"Point"},"properties":{"osm_id":"5290356233","tag":{"amenity":"waste_basket","waste":"trash"}},"type":"Feature"},
	{"geometry":{"coordinates":[0.072069,40.053502],"type":"Point"},"properties":{"osm_id":"5290356425","tag":{"amenity":"waste_basket","waste":"trash"}},"type":"Feature"},
	{"geometry":{"coordinates":[0.072134,40.053541],"type":"Point"},"properties":{"osm_id":"5290356426","tag":{"amenity":"waste_basket","waste":"trash"}},"type":"Feature"},
	{"geometry":{"coordinates":[0.072161,40.053377],"type":"Point"},"properties":{"osm_id":"5290356427","tag":{"amenity":"waste_basket","waste":"trash"}},"type":"Feature"},
	{"geometry":{"coordinates":[0.072267,40.053441],"type":"Point"},"properties":{"osm_id":"5290356428","tag":{"amenity":"waste_basket","waste":"trash"}},"type":"Feature"},
	{"geometry":{"coordinates":[0.072718,40.053268],"type":"Point"},"properties":{"osm_id":"5290356455","tag":{"amenity":"waste_basket","waste":"trash"}},"type":"Feature"},
	{"geometry":{"coordinates":[0.072812,40.053329],"type":"Point"},"properties":{"osm_id":"5290356456","tag":{"amenity":"waste_basket","waste":"trash"}},"type":"Feature"},
	{"geometry":{"coordinates":[0.072035,40.053343],"type":"Point"},"properties":{"osm_id":"5303191337","tag":{"amenity":"waste_basket","waste":"trash"}},"type":"Feature"},
	{"geometry":{"coordinates":[0.071959,40.053341],"type":"Point"},"properties":{"osm_id":"5303191338","tag":{"amenity":"waste_basket","waste":"trash"}},"type":"Feature"},
	{"geometry":{"coordinates":[0.071812,40.053095],"type":"Point"},"properties":{"osm_id":"5303191339","tag":{"amenity":"waste_basket","waste":"trash"}},"type":"Feature"},
	{"geometry":{"coordinates":[0.072602,40.0531],"type":"Point"},"properties":{"osm_id":"5303191341","tag":{"amenity":"waste_basket","waste":"trash"}},"type":"Feature"},
	{"geometry":{"coordinates":[0.072479,40.053225],"type":"Point"},"properties":{"osm_id":"5303191343","tag":{"amenity":"waste_basket","waste":"trash"}},"type":"Feature"},
	{"geometry":{"coordinates":[0.072394,40.053174],"type":"Point"},"properties":{"osm_id":"5303191344","tag":{"amenity":"waste_basket","waste":"trash"}},"type":"Feature"},
	{"geometry":{"coordinates":[0.072354,40.05352],"type":"Point"},"properties":{"osm_id":"5303191346","tag":{"amenity":"waste_basket","waste":"trash"}},"type":"Feature"},
	{"geometry":{"coordinates":[0.072654,40.053475],"type":"Point"},"properties":{"osm_id":"5303191348","tag":{"amenity":"waste_basket","waste":"trash"}},"type":"Feature"}
]
}
