{
"type": "FeatureCollection",
"features": [
	{"geometry":{"coordinates":[0.014741,5.64491],"type":"Point"},"properties":{"name":"Coliba Collection Point","osm_id":"6286112540","tag":{"amenity":"recycling","opening_hours":"24/7","operator":"Coliba","recycling:plastic":"yes","recycling:plastic_bottles":"yes","recycling:plastic_packaging":"yes","recycling_type":"centre"}},"type":"Feature"},
	{"geometry":{"coordinates":[0.058981,5.700612],"type":"Point"},"properties":{"osm_id":"7352872386","tag":{"amenity":"waste_disposal","operator":"Zoomlion Ghana Limited","waste":"trash"}},"type":"Feature"},
	{"geometry":{"coordinates":[0.034346,5.702756],"type":"Point"},"properties":{"name":"rePATRN Limited","osm_id":"8577168410","tag":{"addr:district":"Kpone Katamanso","amenity":"recycling","contact:pobox":"P. O. Box OS 1910, Osu-Accra","description":"Plastic recovery","email":"hello@repatrn.com","opening_hours":"Mo-Sa 08:00-17:00","operator":"rePATRN Limited","operator:type":"private","phone":"+23320797341","recycling:plastic":"yes","recycling_type":"centre","website":"https://www.repatrn.com"}},"type":"Feature"}
]
}
