{
"type": "FeatureCollection",
"features": [
	{"geometry":{"coordinates":[25.850764,56.496362],"type":"Point"},"properties":{"highway":"bus_stop","name":"Kapu iela","osm_id":"2170865539","ref":"1","tag":{"amenity":"waste_basket","bench":"yes","covered":"yes","public_transport":"platform","wheelchair":"limited"}},"type":"Feature"},
	{"geometry":{"coordinates":[25.851214,56.496484],"type":"Point"},"properties":{"highway":"bus_stop","name":"A. Porma\u00c4\u00bca iela","osm_id":"3071561233","tag":{"amenity":"waste_basket","bench":"yes","covered":"yes","public_transport":"platform","wheelchair":"limited"}},"type":"Feature"},
	{"geometry":{"coordinates":[25.851749,56.496934],"type":"Point"},"properties":{"highway":"bus_stop","name":"R\u00c5\u00abdolfa Blauma\u00c5\u0086a iela","osm_id":"3153717861","tag":{"amenity":"waste_basket","bench":"yes","covered":"yes","public_transport":"platform","wheelchair":"limited"}},"type":"Feature"},
	{"geometry":{"coordinates":[25.855461,56.498615],"type":"Point"},"properties":{"highway":"bus_stop","name":"Za\u00c4\u00bc\u00c4\u0081 iela","osm_id":"3153717862","ref":"1","tag":{"amenity":"waste_basket","bench":"yes","covered":"yes","public_transport":"platform","wheelchair":"limited"}},"type":"Feature"},
	{"geometry":{"coordinates":[25.862449,56.489478],"type":"Point"},"properties":{"osm_id":"5176448058","tag":{"amenity":"waste_disposal"}},"type":"Feature"}
]
}
