{
"type": "FeatureCollection",
"features": [
	{"geometry":{"coordinates":[-69.426256,-19.313201],"type":"Point"},"properties":{"osm_id":"7028878603","tag":{"addr:city":"Cami\u00c3\u00b1a","addr:street":"Bernardo O'Higgins","amenity":"waste_basket"}},"type":"Feature"},
	{"geometry":{"coordinates":[-69.426554,-19.313142],"type":"Point"},"properties":{"osm_id":"7888441608","tag":{"amenity":"waste_basket","material":"steel"}},"type":"Feature"},
	{"geometry":{"coordinates":[-69.426583,-19.313021],"type":"Point"},"properties":{"osm_id":"7888441610","tag":{"amenity":"waste_basket"}},"type":"Feature"},
	{"geometry":{"coordinates":[-69.426746,-19.313228],"type":"Point"},"properties":{"osm_id":"7888441615","tag":{"amenity":"waste_basket"}},"type":"Feature"},
	{"geometry":{"coordinates":[-69.426838,-19.313053],"type":"Point"},"properties":{"osm_id":"7888441621","tag":{"amenity":"waste_basket"}},"type":"Feature"},
	{"geometry":{"coordinates":[-69.426855,-19.312938],"type":"Point"},"properties":{"osm_id":"7888441628","tag":{"amenity":"waste_basket"}},"type":"Feature"},
	{"geometry":{"coordinates":[-69.426787,-19.312928],"type":"Point"},"properties":{"osm_id":"7888441631","tag":{"amenity":"waste_basket"}},"type":"Feature"},
	{"geometry":{"coordinates":[-69.426871,-19.312865],"type":"Point"},"properties":{"osm_id":"7888441633","tag":{"amenity":"waste_basket"}},"type":"Feature"}
]
}
