{
"type": "FeatureCollection",
"features": [
	{"geometry":{"coordinates":[-2.76314,55.617],"type":"Point"},"properties":{"name":"Galashiels Community Recycling Centre","osm_id":"458894001","tag":{"addr:city":"Galashiels","addr:housename":"Galashiels community recycling centre","addr:postcode":"TD1 2NT","addr:street":"Langshaw Road, Easter Langlee","amenity":"recycling","owner":"Scottish Borders Council","ownership":"municipal","recycling:batteries":"yes","recycling:cans":"yes","recycling:clothes":"yes","recycling:glass":"yes","recycling:paper":"yes","recycling:scrap_metal":"yes","recycling_type":"centre","website":"https://www.scotborders.gov.uk/directory_record/193/galashiels_community_recycling_centre","wikidata":"Q106085881"}},"type":"Feature"},
	{"geometry":{"coordinates":[-2.806829,55.616284],"type":"Point"},"properties":{"osm_id":"8579149477","tag":{"amenity":"waste_basket"}},"type":"Feature"},
	{"geometry":{"coordinates":[-2.805306,55.614858],"type":"Point"},"properties":{"osm_id":"8579198362","tag":{"amenity":"waste_basket","colour":"black","material":"plastic","survey:date":"2021-07-10"}},"type":"Feature"},
	{"geometry":{"coordinates":[-2.806729,55.614947],"type":"Point"},"properties":{"osm_id":"8579202053","tag":{"amenity":"waste_basket","colour":"black"}},"type":"Feature"},
	{"geometry":{"coordinates":[-2.803451,55.614216],"type":"Point"},"properties":{"osm_id":"8579203646","tag":{"amenity":"waste_basket","colour":"black","material":"metal"}},"type":"Feature"},
	{"geometry":{"coordinates":[-2.802191,55.613547],"type":"Point"},"properties":{"osm_id":"8579204868","tag":{"amenity":"waste_basket","colour":"black","material":"metal"}},"type":"Feature"},
	{"geometry":{"coordinates":[-2.802814,55.614733],"type":"Point"},"properties":{"osm_id":"8579220176","tag":{"amenity":"waste_basket","colour":"black","material":"plastic"}},"type":"Feature"},
	{"geometry":{"coordinates":[-2.799969,55.6131],"type":"Point"},"properties":{"osm_id":"8715672917","tag":{"amenity":"waste_basket","survey:date":"2021-05-09","waste":"trash"}},"type":"Feature"},
	{"geometry":{"coordinates":[-2.807645,55.614873],"type":"Point"},"properties":{"osm_id":"8909562917","tag":{"amenity":"waste_basket","colour":"black","material":"plastic","survey:date":"2021-07-10","waste":"trash"}},"type":"Feature"},
	{"geometry":{"coordinates":[-2.807574,55.615255],"type":"Point"},"properties":{"osm_id":"8909617818","tag":{"amenity":"waste_basket","survey:date":"2021-07-10","waste":"recycling"}},"type":"Feature"},
	{"geometry":{"coordinates":[-2.806243,55.617124],"type":"Point"},"properties":{"osm_id":"8909725144","tag":{"amenity":"waste_basket","colour":"silver","material":"metal"}},"type":"Feature"},
	{"geometry":{"coordinates":[-2.809661,55.617037],"type":"Point"},"properties":{"osm_id":"9160434717","tag":{"amenity":"waste_basket","survey:date":"2021-10-09"}},"type":"Feature"}
]
}
