{
"type": "FeatureCollection",
"features": [
	{"geometry":{"coordinates":[-2.739399,54.326855],"type":"Point"},"properties":{"name":"Canal Head HWRC","osm_id":"618370947","tag":{"amenity":"recycling"}},"type":"Feature"},
	{"geometry":{"coordinates":[-2.736464,54.341238],"type":"Point"},"properties":{"osm_id":"833911653","tag":{"amenity":"recycling"}},"type":"Feature"},
	{"geometry":{"coordinates":[-2.757825,54.339519],"type":"Point"},"properties":{"osm_id":"3596567222","tag":{"amenity":"waste_basket"}},"type":"Feature"},
	{"geometry":{"coordinates":[-2.753714,54.336556],"type":"Point"},"properties":{"osm_id":"3596618413","tag":{"amenity":"waste_basket"}},"type":"Feature"},
	{"geometry":{"coordinates":[-2.739743,54.33125],"type":"Point"},"properties":{"osm_id":"3598590049","tag":{"amenity":"waste_basket"}},"type":"Feature"},
	{"geometry":{"coordinates":[-2.741373,54.330258],"type":"Point"},"properties":{"osm_id":"3598631235","tag":{"amenity":"waste_basket"}},"type":"Feature"},
	{"geometry":{"coordinates":[-2.74741,54.329236],"type":"Point"},"properties":{"osm_id":"3605158127","tag":{"amenity":"waste_basket"}},"type":"Feature"},
	{"geometry":{"coordinates":[-2.747055,54.323468],"type":"Point"},"properties":{"osm_id":"3629306265","tag":{"amenity":"waste_basket"}},"type":"Feature"},
	{"geometry":{"coordinates":[-2.747696,54.323288],"type":"Point"},"properties":{"osm_id":"3631670087","tag":{"amenity":"waste_basket"}},"type":"Feature"},
	{"geometry":{"coordinates":[-2.751812,54.322047],"type":"Point"},"properties":{"osm_id":"3631679853","tag":{"amenity":"waste_basket"}},"type":"Feature"},
	{"geometry":{"coordinates":[-2.748491,54.320578],"type":"Point"},"properties":{"osm_id":"3631683635","tag":{"amenity":"waste_basket"}},"type":"Feature"},
	{"geometry":{"coordinates":[-2.743599,54.324436],"type":"Point"},"properties":{"osm_id":"3916756638","tag":{"amenity":"waste_basket"}},"type":"Feature"},
	{"geometry":{"coordinates":[-2.757449,54.323404],"type":"Point"},"properties":{"osm_id":"4738894932","tag":{"amenity":"waste_basket"}},"type":"Feature"},
	{"geometry":{"coordinates":[-2.743199,54.316837],"type":"Point"},"properties":{"osm_id":"4753807551","tag":{"amenity":"waste_basket"}},"type":"Feature"},
	{"geometry":{"coordinates":[-2.755689,54.317035],"type":"Point"},"properties":{"osm_id":"4763873484","tag":{"amenity":"waste_basket"}},"type":"Feature"},
	{"geometry":{"coordinates":[-2.761101,54.354591],"type":"Point"},"properties":{"osm_id":"4889492766","tag":{"amenity":"waste_basket"}},"type":"Feature"},
	{"geometry":{"coordinates":[-2.7591,54.354925],"type":"Point"},"properties":{"osm_id":"4889492768","tag":{"amenity":"waste_basket"}},"type":"Feature"},
	{"geometry":{"coordinates":[-2.744903,54.319905],"type":"Point"},"properties":{"osm_id":"4930436322","tag":{"amenity":"waste_basket"}},"type":"Feature"},
	{"geometry":{"coordinates":[-2.745105,54.321721],"type":"Point"},"properties":{"osm_id":"4941871995","tag":{"amenity":"waste_basket"}},"type":"Feature"},
	{"geometry":{"coordinates":[-2.752389,54.321874],"type":"Point"},"properties":{"osm_id":"4943479781","tag":{"amenity":"waste_basket"}},"type":"Feature"},
	{"geometry":{"coordinates":[-2.745312,54.321784],"type":"Point"},"properties":{"osm_id":"4954448083","tag":{"amenity":"waste_basket"}},"type":"Feature"},
	{"geometry":{"coordinates":[-2.750659,54.32869],"type":"Point"},"properties":{"osm_id":"5105087203","tag":{"amenity":"waste_basket"}},"type":"Feature"},
	{"geometry":{"coordinates":[-2.749482,54.330116],"type":"Point"},"properties":{"osm_id":"5105087204","tag":{"amenity":"waste_basket"}},"type":"Feature"},
	{"geometry":{"coordinates":[-2.749506,54.330147],"type":"Point"},"properties":{"osm_id":"5105087205","tag":{"amenity":"waste_basket"}},"type":"Feature"},
	{"geometry":{"coordinates":[-2.744465,54.336562],"type":"Point"},"properties":{"osm_id":"5105087220","tag":{"amenity":"waste_basket"}},"type":"Feature"},
	{"geometry":{"coordinates":[-2.74671,54.334477],"type":"Point"},"properties":{"osm_id":"5105088117","tag":{"amenity":"waste_basket"}},"type":"Feature"},
	{"geometry":{"coordinates":[-2.746909,54.333563],"type":"Point"},"properties":{"osm_id":"5105088442","tag":{"amenity":"waste_basket"}},"type":"Feature"},
	{"geometry":{"coordinates":[-2.745826,54.332128],"type":"Point"},"properties":{"osm_id":"5105088451","tag":{"amenity":"waste_basket"}},"type":"Feature"},
	{"geometry":{"coordinates":[-2.745205,54.332182],"type":"Point"},"properties":{"osm_id":"5106424154","tag":{"amenity":"waste_basket"}},"type":"Feature"},
	{"geometry":{"coordinates":[-2.748492,54.335473],"type":"Point"},"properties":{"osm_id":"5119555674","tag":{"amenity":"waste_basket"}},"type":"Feature"},
	{"geometry":{"coordinates":[-2.74746,54.32442],"type":"Point"},"properties":{"osm_id":"5141928571","tag":{"amenity":"waste_basket"}},"type":"Feature"},
	{"geometry":{"coordinates":[-2.747532,54.326007],"type":"Point"},"properties":{"osm_id":"5141928574","tag":{"amenity":"waste_basket"}},"type":"Feature"},
	{"geometry":{"coordinates":[-2.747658,54.326599],"type":"Point"},"properties":{"osm_id":"5141928578","tag":{"amenity":"waste_basket"}},"type":"Feature"},
	{"geometry":{"coordinates":[-2.748723,54.333304],"type":"Point"},"properties":{"osm_id":"5201864174","tag":{"amenity":"waste_basket"}},"type":"Feature"},
	{"geometry":{"coordinates":[-2.745482,54.32966],"type":"Point"},"properties":{"osm_id":"5305121710","tag":{"amenity":"waste_basket"}},"type":"Feature"},
	{"geometry":{"coordinates":[-2.724612,54.322518],"type":"Point"},"properties":{"osm_id":"5325337562","tag":{"amenity":"waste_basket"}},"type":"Feature"},
	{"geometry":{"coordinates":[-2.733288,54.325147],"type":"Point"},"properties":{"osm_id":"5366091144","tag":{"amenity":"waste_basket"}},"type":"Feature"},
	{"geometry":{"coordinates":[-2.729044,54.327818],"type":"Point"},"properties":{"osm_id":"5366393732","tag":{"amenity":"waste_basket"}},"type":"Feature"},
	{"geometry":{"coordinates":[-2.748777,54.326746],"type":"Point"},"properties":{"osm_id":"5396206083","tag":{"amenity":"waste_basket"}},"type":"Feature"},
	{"geometry":{"coordinates":[-2.742961,54.319912],"type":"Point"},"properties":{"osm_id":"5478398638","tag":{"amenity":"waste_basket"}},"type":"Feature"},
	{"geometry":{"coordinates":[-2.735203,54.340427],"type":"Point"},"properties":{"osm_id":"5491599065","tag":{"amenity":"recycling","recycling:accessories":"yes","recycling:clothes":"yes","recycling:shoes":"yes","recycling_type":"container"}},"type":"Feature"},
	{"geometry":{"coordinates":[-2.748186,54.332615],"type":"Point"},"properties":{"osm_id":"5744025708","tag":{"amenity":"recycling","operator":"The Fire Fighters Charity","recycling:clothes":"yes","recycling:handbags":"yes","recycling:linen":"yes","recycling:shoes":"yes","recycling_type":"container"}},"type":"Feature"},
	{"geometry":{"coordinates":[-2.741111,54.339989],"type":"Point"},"properties":{"osm_id":"5932298549","tag":{"amenity":"recycling","operator":"Sainsbury's","recycling_type":"centre"}},"type":"Feature"},
	{"geometry":{"coordinates":[-2.735105,54.341121],"type":"Point"},"properties":{"osm_id":"6535353269","tag":{"amenity":"recycling","indoor":"yes","recycling:batteries":"yes","recycling_type":"container"}},"type":"Feature"}
]
}
