{
"type": "FeatureCollection",
"features": [
	{"geometry":{"coordinates":[-2.736157,54.310377],"type":"Point"},"properties":{"osm_id":"632714425","tag":{"amenity":"recycling","recycling:cardboard":"yes","recycling:glass":"yes","recycling:paper":"yes","recycling:plastic":"yes","recycling:shoes":"yes","recycling:tin_cans":"yes","recycling_type":"centre"}},"type":"Feature"},
	{"geometry":{"coordinates":[-2.73678,54.313036],"type":"Point"},"properties":{"osm_id":"3878848735","tag":{"amenity":"waste_basket"}},"type":"Feature"},
	{"geometry":{"coordinates":[-2.74201,54.316484],"type":"Point"},"properties":{"osm_id":"3908306126","tag":{"amenity":"waste_basket"}},"type":"Feature"},
	{"geometry":{"coordinates":[-2.773356,54.269297],"type":"Point"},"properties":{"osm_id":"4053758671","tag":{"amenity":"waste_basket"}},"type":"Feature"},
	{"geometry":{"coordinates":[-2.737679,54.314009],"type":"Point"},"properties":{"osm_id":"4753807555","tag":{"amenity":"waste_basket"}},"type":"Feature"},
	{"geometry":{"coordinates":[-2.732117,54.310636],"type":"Point"},"properties":{"osm_id":"4753807556","tag":{"amenity":"waste_basket"}},"type":"Feature"},
	{"geometry":{"coordinates":[-2.754364,54.316159],"type":"Point"},"properties":{"osm_id":"4763873502","tag":{"amenity":"waste_basket"}},"type":"Feature"},
	{"geometry":{"coordinates":[-2.753994,54.311802],"type":"Point"},"properties":{"osm_id":"4764531585","tag":{"amenity":"waste_basket"}},"type":"Feature"},
	{"geometry":{"coordinates":[-2.738457,54.296588],"type":"Point"},"properties":{"osm_id":"4885450473","tag":{"amenity":"waste_basket"}},"type":"Feature"},
	{"geometry":{"coordinates":[-2.739143,54.315367],"type":"Point"},"properties":{"osm_id":"4926622625","tag":{"amenity":"waste_basket"}},"type":"Feature"},
	{"geometry":{"coordinates":[-2.743441,54.315531],"type":"Point"},"properties":{"osm_id":"4931980515","tag":{"amenity":"waste_basket"}},"type":"Feature"},
	{"geometry":{"coordinates":[-2.767449,54.286147],"type":"Point"},"properties":{"osm_id":"5159347822","tag":{"amenity":"waste_basket"}},"type":"Feature"},
	{"geometry":{"coordinates":[-2.734842,54.314551],"type":"Point"},"properties":{"osm_id":"5324786947","tag":{"amenity":"waste_basket"}},"type":"Feature"},
	{"geometry":{"coordinates":[-2.728827,54.314847],"type":"Point"},"properties":{"osm_id":"5324787001","tag":{"amenity":"waste_basket"}},"type":"Feature"},
	{"geometry":{"coordinates":[-2.726999,54.294214],"type":"Point"},"properties":{"osm_id":"5331028192","tag":{"amenity":"waste_basket"}},"type":"Feature"},
	{"geometry":{"coordinates":[-2.727687,54.298563],"type":"Point"},"properties":{"osm_id":"5331028199","tag":{"amenity":"waste_basket"}},"type":"Feature"},
	{"geometry":{"coordinates":[-2.749135,54.314503],"type":"Point"},"properties":{"osm_id":"5415334290","tag":{"amenity":"waste_basket"}},"type":"Feature"}
]
}
