{
"type": "FeatureCollection",
"features": [
	{"geometry":{"coordinates":[-2.771344,54.125138],"type":"Point"},"properties":{"osm_id":"269991835","tag":{"amenity":"waste_disposal"}},"type":"Feature"},
	{"geometry":{"coordinates":[-2.757505,54.138097],"type":"Point"},"properties":{"barrier":"gate","osm_id":"1672410459"},"type":"Feature"},
	{"geometry":{"coordinates":[-2.756644,54.138928],"type":"Point"},"properties":{"barrier":"gate","osm_id":"1672410506"},"type":"Feature"},
	{"geometry":{"coordinates":[-2.766491,54.128565],"type":"Point"},"properties":{"osm_id":"3704992665","tag":{"amenity":"waste_basket"}},"type":"Feature"},
	{"geometry":{"coordinates":[-2.769944,54.129352],"type":"Point"},"properties":{"osm_id":"3706599602","tag":{"amenity":"waste_basket"}},"type":"Feature"},
	{"geometry":{"coordinates":[-2.761825,54.125331],"type":"Point"},"properties":{"osm_id":"3711749183","tag":{"amenity":"waste_basket"}},"type":"Feature"},
	{"geometry":{"coordinates":[-2.778823,54.122763],"type":"Point"},"properties":{"osm_id":"3711749189","tag":{"amenity":"waste_basket"}},"type":"Feature"},
	{"geometry":{"coordinates":[-2.727965,54.151592],"type":"Point"},"properties":{"osm_id":"6633363876","tag":{"amenity":"waste_basket"}},"type":"Feature"},
	{"geometry":{"coordinates":[-2.757371,54.138465],"type":"Point"},"properties":{"barrier":"gate","osm_id":"6924251257"},"type":"Feature"},
	{"geometry":{"coordinates":[-2.736791,54.123606],"type":"Point"},"properties":{"osm_id":"7063907784","tag":{"amenity":"waste_basket"}},"type":"Feature"},
	{"geometry":{"coordinates":[-2.729738,54.150022],"type":"Point"},"properties":{"osm_id":"7119878589","tag":{"amenity":"waste_basket"}},"type":"Feature"},
	{"geometry":{"coordinates":[-2.735307,54.153908],"type":"Point"},"properties":{"osm_id":"7149309750","tag":{"amenity":"waste_basket"}},"type":"Feature"},
	{"geometry":{"coordinates":[-2.773045,54.126033],"type":"Point"},"properties":{"osm_id":"8041991756","tag":{"amenity":"recycling","recycling:cartons":"yes","recycling:pringle_tubes":"yes","recycling:tetrapak":"yes","recycling_type":"container"}},"type":"Feature"},
	{"geometry":{"coordinates":[-2.77305,54.126027],"type":"Point"},"properties":{"osm_id":"8041991757","tag":{"amenity":"recycling","recycling:plastic_bags":"yes","recycling_type":"container"}},"type":"Feature"},
	{"geometry":{"coordinates":[-2.773081,54.126054],"type":"Point"},"properties":{"osm_id":"8041991760","tag":{"amenity":"waste_basket"}},"type":"Feature"},
	{"geometry":{"coordinates":[-2.726069,54.158071],"type":"Point"},"properties":{"osm_id":"8087658390","tag":{"amenity":"waste_basket","waste":"dog_excrement"}},"type":"Feature"},
	{"geometry":{"coordinates":[-2.78736,54.132567],"type":"Point"},"properties":{"osm_id":"8108642113","tag":{"amenity":"waste_basket","waste":"dog_excrement"}},"type":"Feature"},
	{"geometry":{"coordinates":[-2.732106,54.121466],"type":"Point"},"properties":{"osm_id":"8420347459","tag":{"amenity":"waste_basket"}},"type":"Feature"},
	{"geometry":{"coordinates":[-2.76873,54.129074],"type":"Point"},"properties":{"osm_id":"8691410880","tag":{"amenity":"waste_basket"}},"type":"Feature"},
	{"geometry":{"coordinates":[-2.769483,54.129004],"type":"Point"},"properties":{"osm_id":"8691410885","tag":{"amenity":"waste_basket"}},"type":"Feature"},
	{"geometry":{"coordinates":[-2.728775,54.121857],"type":"Point"},"properties":{"osm_id":"8844778258","tag":{"amenity":"waste_basket"}},"type":"Feature"},
	{"geometry":{"coordinates":[-2.73159,54.122974],"type":"Point"},"properties":{"osm_id":"8857555625","tag":{"amenity":"waste_basket"}},"type":"Feature"},
	{"geometry":{"coordinates":[-2.735474,54.123726],"type":"Point"},"properties":{"osm_id":"8874488247","tag":{"amenity":"waste_basket"}},"type":"Feature"}
]
}
