{
"type": "FeatureCollection",
"features": [
	{"geometry":{"coordinates":[-2.792863,53.994616],"type":"Point"},"properties":{"osm_id":"1672019111","tag":{"amenity":"recycling"}},"type":"Feature"},
	{"geometry":{"coordinates":[-2.788112,54.003554],"type":"Point"},"properties":{"osm_id":"4933985681","tag":{"entrance":"yes"}},"type":"Feature"},
	{"geometry":{"coordinates":[-2.788007,54.003578],"type":"Point"},"properties":{"osm_id":"4933985682","tag":{"entrance":"yes"}},"type":"Feature"},
	{"geometry":{"coordinates":[-2.788961,53.991468],"type":"Point"},"properties":{"osm_id":"5017117221","tag":{"amenity":"waste_basket"}},"type":"Feature"},
	{"geometry":{"coordinates":[-2.785311,53.980114],"type":"Point"},"properties":{"osm_id":"5169981252","tag":{"amenity":"waste_basket"}},"type":"Feature"},
	{"geometry":{"coordinates":[-2.763769,53.978375],"type":"Point"},"properties":{"osm_id":"5667261961","tag":{"amenity":"waste_basket"}},"type":"Feature"},
	{"geometry":{"coordinates":[-2.785487,53.994014],"type":"Point"},"properties":{"osm_id":"5944971279","tag":{"amenity":"waste_basket"}},"type":"Feature"},
	{"geometry":{"coordinates":[-2.748505,53.957717],"type":"Point"},"properties":{"osm_id":"6071557975","tag":{"amenity":"recycling","recycling_type":"container"}},"type":"Feature"},
	{"geometry":{"coordinates":[-2.784723,54.007753],"type":"Point"},"properties":{"osm_id":"6539701569","tag":{"amenity":"waste_disposal"}},"type":"Feature"},
	{"geometry":{"coordinates":[-2.792998,53.994506],"type":"Point"},"properties":{"osm_id":"6727757451","tag":{"amenity":"waste_basket"}},"type":"Feature"},
	{"geometry":{"coordinates":[-2.782461,53.990225],"type":"Point"},"properties":{"osm_id":"6819488718","tag":{"amenity":"waste_basket"}},"type":"Feature"},
	{"geometry":{"coordinates":[-2.785808,53.999554],"type":"Point"},"properties":{"osm_id":"7697535310","tag":{"amenity":"waste_basket"}},"type":"Feature"}
]
}
