{
"type": "FeatureCollection",
"features": [
	{"geometry":{"coordinates":[-2.724854,48.530908],"type":"Point"},"properties":{"osm_id":"2642221048","tag":{"amenity":"recycling","recycling:glass_bottles":"yes","recycling:paper":"yes"}},"type":"Feature"},
	{"geometry":{"coordinates":[-2.73027,48.547492],"type":"Point"},"properties":{"name":"Bo\u00c3\u00aete \u00c3\u00a0 livres","osm_id":"4276564891","tag":{"addr:city":"Pl\u00c3\u00a9rin","addr:postcode":"22190","addr:street":"Chemin des Faudours","amenity":"recycling","toilets:wheelchair":"no","website":"https://livrechangeroselier.blogspot.fr/2016/01/bienvenue-au-roselier.html","wheelchair":"no","wheelchair:description":"chemin de terre pi\u00c3\u00a9tonnier \u00c3\u00a0 50m environ d'une partie goudronn\u00c3\u00a9e"}},"type":"Feature"},
	{"geometry":{"coordinates":[-2.743168,48.518235],"type":"Point"},"properties":{"osm_id":"4542973274","tag":{"amenity":"recycling","recycling_type":"container"}},"type":"Feature"},
	{"geometry":{"coordinates":[-2.743544,48.518796],"type":"Point"},"properties":{"osm_id":"4542973275","tag":{"amenity":"recycling","recycling_type":"container"}},"type":"Feature"},
	{"geometry":{"coordinates":[-2.735952,48.517853],"type":"Point"},"properties":{"osm_id":"4987739314","tag":{"amenity":"waste_basket"}},"type":"Feature"},
	{"geometry":{"coordinates":[-2.737196,48.517793],"type":"Point"},"properties":{"osm_id":"4987739871","tag":{"amenity":"waste_basket"}},"type":"Feature"},
	{"geometry":{"coordinates":[-2.737293,48.519408],"type":"Point"},"properties":{"osm_id":"7566416689","tag":{"amenity":"waste_basket"}},"type":"Feature"},
	{"geometry":{"coordinates":[-2.739225,48.521382],"type":"Point"},"properties":{"osm_id":"7566416695","tag":{"amenity":"waste_basket"}},"type":"Feature"},
	{"geometry":{"coordinates":[-2.738105,48.518874],"type":"Point"},"properties":{"osm_id":"7566416702","tag":{"amenity":"waste_basket"}},"type":"Feature"},
	{"geometry":{"coordinates":[-2.738292,48.51901],"type":"Point"},"properties":{"osm_id":"7566416704","tag":{"amenity":"waste_basket"}},"type":"Feature"},
	{"geometry":{"coordinates":[-2.743237,48.51747],"type":"Point"},"properties":{"osm_id":"7567615114","tag":{"amenity":"waste_basket"}},"type":"Feature"},
	{"geometry":{"coordinates":[-2.743342,48.519099],"type":"Point"},"properties":{"osm_id":"7567761147","tag":{"amenity":"recycling","recycling_type":"container"}},"type":"Feature"},
	{"geometry":{"coordinates":[-2.741488,48.519036],"type":"Point"},"properties":{"osm_id":"7567761175","tag":{"amenity":"recycling","recycling_type":"container"}},"type":"Feature"},
	{"geometry":{"coordinates":[-2.776955,48.518082],"type":"Point"},"properties":{"osm_id":"7856942373","tag":{"amenity":"recycling","recycling_type":"container"}},"type":"Feature"},
	{"geometry":{"coordinates":[-2.777496,48.519419],"type":"Point"},"properties":{"osm_id":"7856977749","tag":{"amenity":"recycling","recycling_type":"container"}},"type":"Feature"},
	{"geometry":{"coordinates":[-2.776482,48.518862],"type":"Point"},"properties":{"osm_id":"7856977753","tag":{"amenity":"recycling","recycling_type":"container"}},"type":"Feature"},
	{"geometry":{"coordinates":[-2.76284,48.519952],"type":"Point"},"properties":{"osm_id":"7873869458","tag":{"amenity":"waste_basket"}},"type":"Feature"},
	{"geometry":{"coordinates":[-2.779369,48.572971],"type":"Point"},"properties":{"osm_id":"7881411688","tag":{"amenity":"recycling","recycling:cans":"yes","recycling:glass":"yes","recycling:glass_bottles":"yes","recycling:magazines":"yes","recycling:newspaper":"yes","recycling:paper":"yes","recycling:paper_packaging":"yes","recycling:plastic":"yes","recycling:plastic_bottles":"yes","recycling:plastic_packaging":"yes","recycling_type":"container"}},"type":"Feature"},
	{"geometry":{"coordinates":[-2.779352,48.572954],"type":"Point"},"properties":{"osm_id":"7881411689","tag":{"amenity":"waste_disposal","waste":"trash"}},"type":"Feature"},
	{"geometry":{"coordinates":[-2.729191,48.52122],"type":"Point"},"properties":{"osm_id":"7968675081","tag":{"amenity":"waste_basket"}},"type":"Feature"},
	{"geometry":{"coordinates":[-2.765744,48.517781],"type":"Point"},"properties":{"osm_id":"8000823751","tag":{"amenity":"waste_basket"}},"type":"Feature"}
]
}
