{
"type": "FeatureCollection",
"features": [
	{"geometry":{"coordinates":[-2.760711,48.513995],"type":"Point"},"properties":{"osm_id":"1834998944","tag":{"amenity":"waste_basket"}},"type":"Feature"},
	{"geometry":{"coordinates":[-2.760227,48.514053],"type":"Point"},"properties":{"osm_id":"1834998949","tag":{"amenity":"waste_basket"}},"type":"Feature"},
	{"geometry":{"coordinates":[-2.737388,48.513146],"type":"Point"},"properties":{"osm_id":"4283925242","tag":{"amenity":"recycling","recycling_type":"container"}},"type":"Feature"},
	{"geometry":{"coordinates":[-2.748086,48.497923],"type":"Point"},"properties":{"osm_id":"4285188570","tag":{"amenity":"recycling","recycling_type":"container"}},"type":"Feature"},
	{"geometry":{"coordinates":[-2.734051,48.510502],"type":"Point"},"properties":{"barrier":"gate","osm_id":"4291675550"},"type":"Feature"},
	{"geometry":{"coordinates":[-2.765467,48.507566],"type":"Point"},"properties":{"osm_id":"5026682597","tag":{"amenity":"waste_basket","indoor":"yes","level":"0"}},"type":"Feature"},
	{"geometry":{"coordinates":[-2.764902,48.507638],"type":"Point"},"properties":{"osm_id":"5026682603","tag":{"amenity":"waste_basket","indoor":"yes","level":"0"}},"type":"Feature"},
	{"geometry":{"coordinates":[-2.765011,48.50751],"type":"Point"},"properties":{"osm_id":"5026682605","tag":{"amenity":"waste_basket","indoor":"yes","level":"0"}},"type":"Feature"},
	{"geometry":{"coordinates":[-2.765245,48.507203],"type":"Point"},"properties":{"osm_id":"5026861802","tag":{"amenity":"waste_basket"}},"type":"Feature"},
	{"geometry":{"coordinates":[-2.765569,48.507245],"type":"Point"},"properties":{"osm_id":"5026861813","tag":{"amenity":"waste_basket"}},"type":"Feature"},
	{"geometry":{"coordinates":[-2.766577,48.507528],"type":"Point"},"properties":{"osm_id":"5026876433","tag":{"amenity":"waste_basket"}},"type":"Feature"},
	{"geometry":{"coordinates":[-2.765145,48.507327],"type":"Point"},"properties":{"osm_id":"5026876451","tag":{"amenity":"waste_basket"}},"type":"Feature"},
	{"geometry":{"coordinates":[-2.765573,48.507377],"type":"Point"},"properties":{"osm_id":"5026876466","tag":{"amenity":"waste_basket"}},"type":"Feature"},
	{"geometry":{"coordinates":[-2.764436,48.50738],"type":"Point"},"properties":{"osm_id":"5026876469","tag":{"amenity":"waste_basket"}},"type":"Feature"},
	{"geometry":{"coordinates":[-2.764891,48.507438],"type":"Point"},"properties":{"osm_id":"5026876474","tag":{"amenity":"waste_basket"}},"type":"Feature"},
	{"geometry":{"coordinates":[-2.765095,48.507463],"type":"Point"},"properties":{"osm_id":"5026876475","tag":{"amenity":"waste_basket"}},"type":"Feature"},
	{"geometry":{"coordinates":[-2.766539,48.507662],"type":"Point"},"properties":{"osm_id":"5026876482","tag":{"amenity":"waste_basket"}},"type":"Feature"},
	{"geometry":{"coordinates":[-2.763353,48.507268],"type":"Point"},"properties":{"osm_id":"5026876502","tag":{"amenity":"waste_basket"}},"type":"Feature"},
	{"geometry":{"coordinates":[-2.764042,48.507376],"type":"Point"},"properties":{"osm_id":"5026876508","tag":{"amenity":"waste_basket"}},"type":"Feature"},
	{"geometry":{"coordinates":[-2.784914,48.49441],"type":"Point"},"properties":{"osm_id":"6206142225","tag":{"amenity":"waste_basket"}},"type":"Feature"},
	{"geometry":{"coordinates":[-2.743528,48.516225],"type":"Point"},"properties":{"osm_id":"7567615108","tag":{"amenity":"waste_basket"}},"type":"Feature"},
	{"geometry":{"coordinates":[-2.747302,48.512732],"type":"Point"},"properties":{"osm_id":"7575198839","tag":{"amenity":"recycling","recycling_type":"container"}},"type":"Feature"},
	{"geometry":{"coordinates":[-2.746344,48.512861],"type":"Point"},"properties":{"osm_id":"7575198840","tag":{"amenity":"recycling","recycling_type":"container"}},"type":"Feature"},
	{"geometry":{"coordinates":[-2.749637,48.509551],"type":"Point"},"properties":{"osm_id":"7581425371","tag":{"amenity":"waste_basket"}},"type":"Feature"},
	{"geometry":{"coordinates":[-2.746116,48.504885],"type":"Point"},"properties":{"osm_id":"7728968641","tag":{"amenity":"waste_basket"}},"type":"Feature"},
	{"geometry":{"coordinates":[-2.746204,48.504772],"type":"Point"},"properties":{"osm_id":"7728968642","tag":{"amenity":"waste_basket"}},"type":"Feature"},
	{"geometry":{"coordinates":[-2.773745,48.515216],"type":"Point"},"properties":{"osm_id":"7735256522","tag":{"amenity":"waste_basket"}},"type":"Feature"},
	{"geometry":{"coordinates":[-2.773456,48.515351],"type":"Point"},"properties":{"osm_id":"7735256533","tag":{"amenity":"waste_basket"}},"type":"Feature"},
	{"geometry":{"coordinates":[-2.773511,48.515367],"type":"Point"},"properties":{"osm_id":"7735256534","tag":{"amenity":"waste_basket"}},"type":"Feature"},
	{"geometry":{"coordinates":[-2.765822,48.515144],"type":"Point"},"properties":{"osm_id":"7735268205","tag":{"amenity":"waste_basket"}},"type":"Feature"},
	{"geometry":{"coordinates":[-2.765038,48.515164],"type":"Point"},"properties":{"osm_id":"7735268240","tag":{"amenity":"waste_basket"}},"type":"Feature"},
	{"geometry":{"coordinates":[-2.746002,48.512245],"type":"Point"},"properties":{"osm_id":"7735413516","tag":{"amenity":"recycling","recycling_type":"container"}},"type":"Feature"},
	{"geometry":{"coordinates":[-2.770217,48.51495],"type":"Point"},"properties":{"osm_id":"7737126927","tag":{"amenity":"waste_basket"}},"type":"Feature"},
	{"geometry":{"coordinates":[-2.768469,48.513082],"type":"Point"},"properties":{"osm_id":"7737126943","tag":{"amenity":"waste_basket"}},"type":"Feature"},
	{"geometry":{"coordinates":[-2.767391,48.512309],"type":"Point"},"properties":{"osm_id":"7737126967","tag":{"amenity":"waste_basket"}},"type":"Feature"},
	{"geometry":{"coordinates":[-2.766592,48.512643],"type":"Point"},"properties":{"osm_id":"7737234239","tag":{"amenity":"waste_basket"}},"type":"Feature"},
	{"geometry":{"coordinates":[-2.749595,48.507884],"type":"Point"},"properties":{"osm_id":"7741598217","tag":{"amenity":"waste_basket"}},"type":"Feature"},
	{"geometry":{"coordinates":[-2.781495,48.510159],"type":"Point"},"properties":{"osm_id":"7743877146","tag":{"amenity":"waste_basket"}},"type":"Feature"},
	{"geometry":{"coordinates":[-2.775119,48.511853],"type":"Point"},"properties":{"osm_id":"7745516885","tag":{"amenity":"waste_basket"}},"type":"Feature"},
	{"geometry":{"coordinates":[-2.762114,48.511962],"type":"Point"},"properties":{"osm_id":"7752555906","tag":{"amenity":"waste_basket"}},"type":"Feature"},
	{"geometry":{"coordinates":[-2.753395,48.515387],"type":"Point"},"properties":{"osm_id":"7798554005","tag":{"amenity":"waste_basket"}},"type":"Feature"},
	{"geometry":{"coordinates":[-2.751615,48.511115],"type":"Point"},"properties":{"osm_id":"7814069241","tag":{"amenity":"waste_basket"}},"type":"Feature"},
	{"geometry":{"coordinates":[-2.778181,48.514175],"type":"Point"},"properties":{"osm_id":"7818308415","tag":{"amenity":"waste_basket"}},"type":"Feature"},
	{"geometry":{"coordinates":[-2.765079,48.508158],"type":"Point"},"properties":{"osm_id":"7835916830","tag":{"amenity":"waste_basket"}},"type":"Feature"},
	{"geometry":{"coordinates":[-2.764489,48.508222],"type":"Point"},"properties":{"osm_id":"7835916832","tag":{"amenity":"waste_basket"}},"type":"Feature"},
	{"geometry":{"coordinates":[-2.764564,48.507745],"type":"Point"},"properties":{"osm_id":"7836306675","tag":{"amenity":"waste_basket"}},"type":"Feature"},
	{"geometry":{"coordinates":[-2.783257,48.510566],"type":"Point"},"properties":{"osm_id":"7869291471","tag":{"amenity":"waste_basket"}},"type":"Feature"},
	{"geometry":{"coordinates":[-2.7617,48.512539],"type":"Point"},"properties":{"osm_id":"7887757837","tag":{"amenity":"waste_basket"}},"type":"Feature"},
	{"geometry":{"coordinates":[-2.761997,48.512553],"type":"Point"},"properties":{"osm_id":"7887757838","tag":{"amenity":"waste_basket"}},"type":"Feature"},
	{"geometry":{"coordinates":[-2.779402,48.514524],"type":"Point"},"properties":{"osm_id":"7950277872","tag":{"amenity":"waste_basket"}},"type":"Feature"},
	{"geometry":{"coordinates":[-2.77669,48.513776],"type":"Point"},"properties":{"osm_id":"7950862001","tag":{"amenity":"recycling","recycling_type":"container"}},"type":"Feature"}
]
}
