{
"type": "FeatureCollection",
"lastupdate": "2020-08-05T00:00:00Z",
"features": [
	{"geometry":{"coordinates":[-2.74107,47.625987],"type":"Point"},"properties":{"osm_id":"59734448","tag":{"amenity":"recycling","location":"overground","recycling:glass":"yes","recycling_type":"container"}},"type":"Feature"},
	{"geometry":{"coordinates":[-2.780862,47.630618],"type":"Point"},"properties":{"osm_id":"1944051296","tag":{"amenity":"waste_basket"}},"type":"Feature"},
	{"geometry":{"coordinates":[-2.778676,47.627919],"type":"Point"},"properties":{"osm_id":"1944538969","tag":{"amenity":"waste_basket"}},"type":"Feature"},
	{"geometry":{"coordinates":[-2.769655,47.630425],"type":"Point"},"properties":{"osm_id":"1944558634","tag":{"amenity":"waste_basket"}},"type":"Feature"},
	{"geometry":{"coordinates":[-2.780511,47.631454],"type":"Point"},"properties":{"osm_id":"1944558691","tag":{"amenity":"waste_basket"}},"type":"Feature"},
	{"geometry":{"coordinates":[-2.732496,47.611795],"type":"Point"},"properties":{"osm_id":"3024315994","tag":{"amenity":"recycling","level":"0","operator":"Syndicat de traitement des d\u00e9chets du Sud-Est Morbihan","recycling:cans":"no","recycling:clothes":"no","recycling:glass":"yes","recycling:glass_bottles":"yes","recycling:paper":"no","recycling:plastic":"no","recycling_type":"container","wheelchair":"no"}},"type":"Feature"},
	{"geometry":{"coordinates":[-2.732826,47.616081],"type":"Point"},"properties":{"osm_id":"3024316339","tag":{"amenity":"recycling","recycling:glass":"yes","recycling_type":"container"}},"type":"Feature"},
	{"geometry":{"coordinates":[-2.735294,47.616881],"type":"Point"},"properties":{"osm_id":"3024316342","tag":{"amenity":"recycling","level":"0","operator":"Syndicat de traitement des d\u00e9chets du Sud-Est Morbihan","recycling:cans":"no","recycling:clothes":"no","recycling:glass":"yes","recycling:glass_bottles":"yes","recycling:paper":"no","recycling:plastic":"no","recycling_type":"container","wheelchair":"no"}},"type":"Feature"},
	{"geometry":{"coordinates":[-2.757243,47.616131],"type":"Point"},"properties":{"osm_id":"3846133258","tag":{"amenity":"recycling","operator":"Syndicat de traitement des d\u00e9chets du Sud-Est Morbihan","recycling:cans":"no","recycling:clothes":"no","recycling:glass":"yes","recycling:glass_bottles":"yes","recycling:paper":"no","recycling:plastic":"no","recycling_type":"container"}},"type":"Feature"},
	{"geometry":{"coordinates":[-2.779597,47.629276],"type":"Point"},"properties":{"osm_id":"3874980249","tag":{"amenity":"waste_basket","wheelchair":"yes"}},"type":"Feature"},
	{"geometry":{"coordinates":[-2.77954,47.629327],"type":"Point"},"properties":{"osm_id":"3874980250","tag":{"amenity":"waste_basket","wheelchair":"yes"}},"type":"Feature"},
	{"geometry":{"coordinates":[-2.780059,47.629465],"type":"Point"},"properties":{"osm_id":"3874980253","tag":{"amenity":"waste_basket","wheelchair":"yes"}},"type":"Feature"},
	{"geometry":{"coordinates":[-2.804989,47.621048],"type":"Point"},"properties":{"osm_id":"3922197550","tag":{"amenity":"waste_basket"}},"type":"Feature"},
	{"geometry":{"coordinates":[-2.804969,47.621051],"type":"Point"},"properties":{"osm_id":"3922197551","tag":{"amenity":"recycling"}},"type":"Feature"},
	{"geometry":{"coordinates":[-2.794986,47.620459],"type":"Point"},"properties":{"osm_id":"3922241676","tag":{"amenity":"waste_basket"}},"type":"Feature"},
	{"geometry":{"coordinates":[-2.782394,47.625985],"type":"Point"},"properties":{"osm_id":"3922241700","tag":{"amenity":"waste_basket"}},"type":"Feature"},
	{"geometry":{"coordinates":[-2.804577,47.624818],"type":"Point"},"properties":{"osm_id":"4036994177","tag":{"amenity":"recycling","level":"0","operator":"Syndicat de traitement des d\u00e9chets du Sud-Est Morbihan","recycling:cans":"no","recycling:clothes":"no","recycling:glass":"yes","recycling:glass_bottles":"yes","recycling:paper":"no","recycling:plastic":"no","recycling_type":"container","wheelchair":"no"}},"type":"Feature"},
	{"geometry":{"coordinates":[-2.778169,47.623232],"type":"Point"},"properties":{"osm_id":"4037019664","tag":{"amenity":"recycling","level":"0","operator":"Syndicat de traitement des d\u00e9chets du Sud-Est Morbihan","recycling:cans":"no","recycling:clothes":"no","recycling:glass":"yes","recycling:glass_bottles":"yes","recycling:paper":"no","recycling:plastic":"no","recycling_type":"container","wheelchair":"no"}},"type":"Feature"},
	{"geometry":{"coordinates":[-2.734862,47.610988],"type":"Point"},"properties":{"osm_id":"4037019665","tag":{"amenity":"recycling","level":"0","operator":"Syndicat de traitement des d\u00e9chets du Sud-Est Morbihan","recycling:cans":"no","recycling:clothes":"no","recycling:glass":"yes","recycling:glass_bottles":"yes","recycling:paper":"no","recycling:plastic":"no","recycling_type":"container","wheelchair":"no"}},"type":"Feature"},
	{"geometry":{"coordinates":[-2.730326,47.617351],"type":"Point"},"properties":{"osm_id":"4037031708","tag":{"amenity":"recycling","level":"0","operator":"Syndicat de traitement des d\u00e9chets du Sud-Est Morbihan","recycling:cans":"no","recycling:clothes":"no","recycling:glass":"yes","recycling:glass_bottles":"yes","recycling:paper":"no","recycling:plastic":"no","recycling_type":"container","wheelchair":"no"}},"type":"Feature"},
	{"geometry":{"coordinates":[-2.73273,47.600475],"type":"Point"},"properties":{"osm_id":"5181900681","tag":{"amenity":"recycling","recycling:glass_bottles":"yes","recycling_type":"container"}},"type":"Feature"},
	{"geometry":{"coordinates":[-2.801466,47.622351],"type":"Point"},"properties":{"osm_id":"5608874200","tag":{"amenity":"recycling","note:fr":"bacs jaunes","recycling_type":"container"}},"type":"Feature"},
	{"geometry":{"coordinates":[-2.808075,47.592126],"type":"Point"},"properties":{"osm_id":"5826295360","tag":{"amenity":"waste_basket"}},"type":"Feature"},
	{"geometry":{"coordinates":[-2.736594,47.618791],"type":"Point"},"properties":{"osm_id":"7785010324","tag":{"amenity":"recycling","recycling_type":"container"}},"type":"Feature"}
]
}
