{
"type": "FeatureCollection",
"features": [
	{"geometry":{"coordinates":[-2.789248,47.497416],"type":"Point"},"properties":{"osm_id":"2702815859","tag":{"amenity":"recycling","recycling_type":"container"}},"type":"Feature"},
	{"geometry":{"coordinates":[-2.792537,47.489889],"type":"Point"},"properties":{"osm_id":"2702830437","tag":{"amenity":"recycling","recycling:glass":"yes","recycling_type":"container"}},"type":"Feature"},
	{"geometry":{"coordinates":[-2.786871,47.497426],"type":"Point"},"properties":{"osm_id":"2702833289","tag":{"amenity":"waste_basket"}},"type":"Feature"},
	{"geometry":{"coordinates":[-2.783743,47.498583],"type":"Point"},"properties":{"osm_id":"2702833296","tag":{"amenity":"waste_basket"}},"type":"Feature"},
	{"geometry":{"coordinates":[-2.728799,47.507234],"type":"Point"},"properties":{"osm_id":"4586047857","tag":{"amenity":"waste_basket"}},"type":"Feature"},
	{"geometry":{"coordinates":[-2.728767,47.5071],"type":"Point"},"properties":{"osm_id":"4586047858","tag":{"amenity":"waste_basket"}},"type":"Feature"},
	{"geometry":{"coordinates":[-2.727657,47.515435],"type":"Point"},"properties":{"osm_id":"5223057887","tag":{"amenity":"recycling","recycling:glass":"yes","recycling_type":"container"}},"type":"Feature"},
	{"geometry":{"coordinates":[-2.728716,47.51372],"type":"Point"},"properties":{"osm_id":"5223057890","tag":{"amenity":"waste_basket"}},"type":"Feature"},
	{"geometry":{"coordinates":[-2.728889,47.512399],"type":"Point"},"properties":{"osm_id":"5227142977","tag":{"amenity":"waste_basket"}},"type":"Feature"},
	{"geometry":{"coordinates":[-2.728232,47.514118],"type":"Point"},"properties":{"osm_id":"5254519850","tag":{"amenity":"waste_disposal"}},"type":"Feature"},
	{"geometry":{"coordinates":[-2.728221,47.514115],"type":"Point"},"properties":{"osm_id":"5254519851","tag":{"amenity":"recycling","recycling:cartons":"yes","recycling_type":"container"}},"type":"Feature"},
	{"geometry":{"coordinates":[-2.782131,47.500098],"type":"Point"},"properties":{"osm_id":"5720451947","tag":{"amenity":"recycling","recycling:glass":"yes","recycling_type":"container"}},"type":"Feature"},
	{"geometry":{"coordinates":[-2.7292,47.514537],"type":"Point"},"properties":{"osm_id":"6154042392","tag":{"amenity":"waste_basket"}},"type":"Feature"},
	{"geometry":{"coordinates":[-2.72926,47.513482],"type":"Point"},"properties":{"osm_id":"6154042399","tag":{"amenity":"waste_basket"}},"type":"Feature"},
	{"geometry":{"coordinates":[-2.791359,47.498909],"type":"Point"},"properties":{"osm_id":"7911872054","tag":{"amenity":"recycling","recycling_type":"container"}},"type":"Feature"},
	{"geometry":{"coordinates":[-2.796404,47.49],"type":"Point"},"properties":{"osm_id":"7911930923","tag":{"amenity":"recycling","recycling_type":"container"}},"type":"Feature"}
]
}
