{
"type": "FeatureCollection",
"features": [
	{"geometry":{"coordinates":[-2.784052,43.160863],"type":"Point"},"properties":{"osm_id":"6808459122","tag":{"amenity":"recycling","colour":"gray","operator":"Arratiako udalen mankomunitatea","recycling:waste":"yes","recycling_type":"container"}},"type":"Feature"},
	{"geometry":{"coordinates":[-2.784031,43.16087],"type":"Point"},"properties":{"osm_id":"6808459123","tag":{"amenity":"recycling","colour":"blue","operator":"Arratiako udalen mankomunitatea","recycling:books":"yes","recycling:newspaper":"yes","recycling:paper":"yes","recycling:paper_packaging":"yes","recycling_type":"container"}},"type":"Feature"},
	{"geometry":{"coordinates":[-2.783969,43.160895],"type":"Point"},"properties":{"osm_id":"6808459124","tag":{"amenity":"recycling","colour":"yellow","operator":"Arratiako udalen mankomunitatea","recycling:cans":"yes","recycling:plastic":"yes","recycling:plastic_bottles":"yes","recycling:plastic_packaging":"yes","recycling_type":"container"}},"type":"Feature"},
	{"geometry":{"coordinates":[-2.783992,43.160886],"type":"Point"},"properties":{"osm_id":"6808459125","tag":{"amenity":"recycling","colour":"brown","operator":"Arratiako udalen mankomunitatea","recycling:organic":"yes","recycling_type":"container"}},"type":"Feature"},
	{"geometry":{"coordinates":[-2.783778,43.160829],"type":"Point"},"properties":{"osm_id":"6808459126","tag":{"amenity":"recycling","colour":"green","operator":"Arratiako udalen mankomunitatea","recycling:glass_bottles":"yes","recycling_type":"container"}},"type":"Feature"}
]
}
