{
"type": "FeatureCollection",
"features": [
	{"geometry":{"coordinates":[20.840888,38.793531],"type":"Point"},"properties":{"osm_id":"4375767190","tag":{"natural":"tree"}},"type":"Feature"},
	{"geometry":{"coordinates":[20.840712,38.793734],"type":"Point"},"properties":{"osm_id":"4375767191","tag":{"natural":"tree"}},"type":"Feature"},
	{"geometry":{"coordinates":[20.84075,38.79366],"type":"Point"},"properties":{"osm_id":"4375810993","tag":{"natural":"tree"}},"type":"Feature"},
	{"geometry":{"coordinates":[20.840785,38.793515],"type":"Point"},"properties":{"osm_id":"4375816690","tag":{"natural":"tree"}},"type":"Feature"},
	{"geometry":{"coordinates":[20.840849,38.793703],"type":"Point"},"properties":{"osm_id":"4375838790","tag":{"natural":"tree"}},"type":"Feature"},
	{"geometry":{"coordinates":[20.840567,38.793416],"type":"Point"},"properties":{"osm_id":"4379150698","tag":{"natural":"tree"}},"type":"Feature"},
	{"geometry":{"coordinates":[20.840595,38.792995],"type":"Point"},"properties":{"osm_id":"4379150699","tag":{"natural":"tree"}},"type":"Feature"},
	{"geometry":{"coordinates":[20.838874,38.795064],"type":"Point"},"properties":{"osm_id":"4379178504","tag":{"natural":"tree"}},"type":"Feature"},
	{"geometry":{"coordinates":[20.839277,38.794582],"type":"Point"},"properties":{"osm_id":"4379178505","tag":{"natural":"tree"}},"type":"Feature"},
	{"geometry":{"coordinates":[20.839867,38.794683],"type":"Point"},"properties":{"osm_id":"4379178506","tag":{"natural":"tree"}},"type":"Feature"},
	{"geometry":{"coordinates":[20.839848,38.794464],"type":"Point"},"properties":{"osm_id":"4379178507","tag":{"natural":"tree"}},"type":"Feature"},
	{"geometry":{"coordinates":[20.840211,38.795222],"type":"Point"},"properties":{"osm_id":"4379178791","tag":{"natural":"tree"}},"type":"Feature"},
	{"geometry":{"coordinates":[20.839412,38.795173],"type":"Point"},"properties":{"osm_id":"4379178992","tag":{"natural":"tree"}},"type":"Feature"},
	{"geometry":{"coordinates":[20.839158,38.79531],"type":"Point"},"properties":{"osm_id":"4379178993","tag":{"natural":"tree"}},"type":"Feature"},
	{"geometry":{"coordinates":[20.838844,38.79516],"type":"Point"},"properties":{"osm_id":"4379178994","tag":{"natural":"tree"}},"type":"Feature"},
	{"geometry":{"coordinates":[20.839862,38.794608],"type":"Point"},"properties":{"osm_id":"4379178995","tag":{"natural":"tree"}},"type":"Feature"},
	{"geometry":{"coordinates":[20.839391,38.795094],"type":"Point"},"properties":{"osm_id":"4379179695","tag":{"natural":"tree"}},"type":"Feature"},
	{"geometry":{"coordinates":[20.839715,38.794784],"type":"Point"},"properties":{"osm_id":"4379179696","tag":{"natural":"tree"}},"type":"Feature"},
	{"geometry":{"coordinates":[20.838817,38.795634],"type":"Point"},"properties":{"osm_id":"4379179697","tag":{"natural":"tree"}},"type":"Feature"},
	{"geometry":{"coordinates":[20.840218,38.795149],"type":"Point"},"properties":{"osm_id":"4379179698","tag":{"natural":"tree"}},"type":"Feature"},
	{"geometry":{"coordinates":[20.840649,38.792756],"type":"Point"},"properties":{"osm_id":"4379186093","tag":{"natural":"tree"}},"type":"Feature"},
	{"geometry":{"coordinates":[20.839429,38.79191],"type":"Point"},"properties":{"osm_id":"4379186094","tag":{"natural":"tree"}},"type":"Feature"},
	{"geometry":{"coordinates":[20.840571,38.793334],"type":"Point"},"properties":{"osm_id":"4379186196","tag":{"natural":"tree"}},"type":"Feature"},
	{"geometry":{"coordinates":[20.840571,38.793762],"type":"Point"},"properties":{"osm_id":"4379186197","tag":{"natural":"tree"}},"type":"Feature"},
	{"geometry":{"coordinates":[20.840879,38.793249],"type":"Point"},"properties":{"osm_id":"4379186292","tag":{"natural":"tree"}},"type":"Feature"},
	{"geometry":{"coordinates":[20.839657,38.7919],"type":"Point"},"properties":{"osm_id":"4379186396","tag":{"natural":"tree"}},"type":"Feature"},
	{"geometry":{"coordinates":[20.83977,38.791931],"type":"Point"},"properties":{"osm_id":"4379186397","tag":{"natural":"tree"}},"type":"Feature"},
	{"geometry":{"coordinates":[20.839767,38.792029],"type":"Point"},"properties":{"osm_id":"4379186398","tag":{"natural":"tree"}},"type":"Feature"},
	{"geometry":{"coordinates":[20.839344,38.791958],"type":"Point"},"properties":{"osm_id":"4379186399","tag":{"natural":"tree"}},"type":"Feature"},
	{"geometry":{"coordinates":[20.839427,38.791388],"type":"Point"},"properties":{"osm_id":"4379186400","tag":{"natural":"tree"}},"type":"Feature"},
	{"geometry":{"coordinates":[20.838926,38.791533],"type":"Point"},"properties":{"osm_id":"4379186401","tag":{"natural":"tree"}},"type":"Feature"},
	{"geometry":{"coordinates":[20.840354,38.793649],"type":"Point"},"properties":{"osm_id":"4379188398","tag":{"natural":"tree"}},"type":"Feature"},
	{"geometry":{"coordinates":[20.840727,38.792766],"type":"Point"},"properties":{"osm_id":"4379188403","tag":{"natural":"tree"}},"type":"Feature"},
	{"geometry":{"coordinates":[20.840605,38.792511],"type":"Point"},"properties":{"osm_id":"4379188404","tag":{"natural":"tree"}},"type":"Feature"},
	{"geometry":{"coordinates":[20.840769,38.792498],"type":"Point"},"properties":{"osm_id":"4379188405","tag":{"natural":"tree"}},"type":"Feature"},
	{"geometry":{"coordinates":[20.841052,38.792482],"type":"Point"},"properties":{"osm_id":"4379188406","tag":{"natural":"tree"}},"type":"Feature"},
	{"geometry":{"coordinates":[20.839543,38.79188],"type":"Point"},"properties":{"osm_id":"4379188407","tag":{"natural":"tree"}},"type":"Feature"},
	{"geometry":{"coordinates":[20.840795,38.793389],"type":"Point"},"properties":{"osm_id":"4379191495","tag":{"natural":"tree"}},"type":"Feature"},
	{"geometry":{"coordinates":[20.840936,38.793347],"type":"Point"},"properties":{"osm_id":"4379191496","tag":{"natural":"tree"}},"type":"Feature"},
	{"geometry":{"coordinates":[20.840547,38.793497],"type":"Point"},"properties":{"osm_id":"4379191497","tag":{"natural":"tree"}},"type":"Feature"},
	{"geometry":{"coordinates":[20.840515,38.793058],"type":"Point"},"properties":{"osm_id":"4379191498","tag":{"natural":"tree"}},"type":"Feature"},
	{"geometry":{"coordinates":[20.840567,38.793697],"type":"Point"},"properties":{"osm_id":"4379191499","tag":{"natural":"tree"}},"type":"Feature"},
	{"geometry":{"coordinates":[20.83956,38.794813],"type":"Point"},"properties":{"osm_id":"4379205793","tag":{"natural":"tree"}},"type":"Feature"},
	{"geometry":{"coordinates":[20.839105,38.795815],"type":"Point"},"properties":{"osm_id":"4379205794","tag":{"natural":"tree"}},"type":"Feature"},
	{"geometry":{"coordinates":[20.84022,38.795031],"type":"Point"},"properties":{"osm_id":"4379205795","tag":{"natural":"tree"}},"type":"Feature"},
	{"geometry":{"coordinates":[20.839883,38.795184],"type":"Point"},"properties":{"osm_id":"4379205796","tag":{"natural":"tree"}},"type":"Feature"},
	{"geometry":{"coordinates":[20.83976,38.795488],"type":"Point"},"properties":{"osm_id":"4379205797","tag":{"natural":"tree"}},"type":"Feature"},
	{"geometry":{"coordinates":[20.839198,38.794888],"type":"Point"},"properties":{"osm_id":"4379205903","tag":{"natural":"tree"}},"type":"Feature"},
	{"geometry":{"coordinates":[20.839851,38.794753],"type":"Point"},"properties":{"osm_id":"4379205904","tag":{"natural":"tree"}},"type":"Feature"},
	{"geometry":{"coordinates":[20.839684,38.794595],"type":"Point"},"properties":{"osm_id":"4379206091","tag":{"natural":"tree"}},"type":"Feature"},
	{"geometry":{"coordinates":[20.839416,38.795559],"type":"Point"},"properties":{"osm_id":"4379206092","tag":{"natural":"tree"}},"type":"Feature"},
	{"geometry":{"coordinates":[20.840815,38.793314],"type":"Point"},"properties":{"osm_id":"4379211090","tag":{"natural":"tree"}},"type":"Feature"},
	{"geometry":{"coordinates":[20.840899,38.793447],"type":"Point"},"properties":{"osm_id":"4379211091","tag":{"natural":"tree"}},"type":"Feature"},
	{"geometry":{"coordinates":[20.839561,38.791441],"type":"Point"},"properties":{"osm_id":"4379211096","tag":{"natural":"tree"}},"type":"Feature"},
	{"geometry":{"coordinates":[20.83923,38.795419],"type":"Point"},"properties":{"osm_id":"4379217191","tag":{"natural":"tree"}},"type":"Feature"},
	{"geometry":{"coordinates":[20.841199,38.792561],"type":"Point"},"properties":{"osm_id":"4379221496","tag":{"natural":"tree"}},"type":"Feature"},
	{"geometry":{"coordinates":[20.840661,38.792829],"type":"Point"},"properties":{"osm_id":"4379221597","tag":{"natural":"tree"}},"type":"Feature"},
	{"geometry":{"coordinates":[20.840889,38.792514],"type":"Point"},"properties":{"osm_id":"4379221598","tag":{"natural":"tree"}},"type":"Feature"},
	{"geometry":{"coordinates":[20.839054,38.791755],"type":"Point"},"properties":{"osm_id":"4379221599","tag":{"natural":"tree"}},"type":"Feature"},
	{"geometry":{"coordinates":[20.841113,38.792518],"type":"Point"},"properties":{"osm_id":"4379221694","tag":{"natural":"tree"}},"type":"Feature"},
	{"geometry":{"coordinates":[20.839461,38.791831],"type":"Point"},"properties":{"osm_id":"4379221695","tag":{"natural":"tree"}},"type":"Feature"},
	{"geometry":{"coordinates":[20.839858,38.791963],"type":"Point"},"properties":{"osm_id":"4379221696","tag":{"natural":"tree"}},"type":"Feature"},
	{"geometry":{"coordinates":[20.839663,38.791984],"type":"Point"},"properties":{"osm_id":"4379221697","tag":{"natural":"tree"}},"type":"Feature"},
	{"geometry":{"coordinates":[20.839448,38.792031],"type":"Point"},"properties":{"osm_id":"4379221698","tag":{"natural":"tree"}},"type":"Feature"},
	{"geometry":{"coordinates":[20.839641,38.792047],"type":"Point"},"properties":{"osm_id":"4379221699","tag":{"natural":"tree"}},"type":"Feature"},
	{"geometry":{"coordinates":[20.838941,38.791708],"type":"Point"},"properties":{"osm_id":"4379221700","tag":{"natural":"tree"}},"type":"Feature"},
	{"geometry":{"coordinates":[20.839116,38.795449],"type":"Point"},"properties":{"osm_id":"4379224191","tag":{"natural":"tree"}},"type":"Feature"},
	{"geometry":{"coordinates":[20.83938,38.794717],"type":"Point"},"properties":{"osm_id":"4379224192","tag":{"natural":"tree"}},"type":"Feature"},
	{"geometry":{"coordinates":[20.839381,38.794594],"type":"Point"},"properties":{"osm_id":"4379224193","tag":{"natural":"tree"}},"type":"Feature"},
	{"geometry":{"coordinates":[20.83947,38.794661],"type":"Point"},"properties":{"osm_id":"4379224194","tag":{"natural":"tree"}},"type":"Feature"},
	{"geometry":{"coordinates":[20.839475,38.794815],"type":"Point"},"properties":{"osm_id":"4379224195","tag":{"natural":"tree"}},"type":"Feature"},
	{"geometry":{"coordinates":[20.839695,38.794409],"type":"Point"},"properties":{"osm_id":"4379224196","tag":{"natural":"tree"}},"type":"Feature"},
	{"geometry":{"coordinates":[20.840755,38.792837],"type":"Point"},"properties":{"osm_id":"4379228094","tag":{"natural":"tree"}},"type":"Feature"},
	{"geometry":{"coordinates":[20.839551,38.791947],"type":"Point"},"properties":{"osm_id":"4379228095","tag":{"natural":"tree"}},"type":"Feature"},
	{"geometry":{"coordinates":[20.839538,38.792023],"type":"Point"},"properties":{"osm_id":"4379228096","tag":{"natural":"tree"}},"type":"Feature"},
	{"geometry":{"coordinates":[20.839203,38.791317],"type":"Point"},"properties":{"osm_id":"4379228097","tag":{"natural":"tree"}},"type":"Feature"},
	{"geometry":{"coordinates":[20.839198,38.7955],"type":"Point"},"properties":{"osm_id":"4379234793","tag":{"natural":"tree"}},"type":"Feature"},
	{"geometry":{"coordinates":[20.839151,38.794687],"type":"Point"},"properties":{"osm_id":"4379234794","tag":{"natural":"tree"}},"type":"Feature"},
	{"geometry":{"coordinates":[20.839141,38.794596],"type":"Point"},"properties":{"osm_id":"4379234795","tag":{"natural":"tree"}},"type":"Feature"},
	{"geometry":{"coordinates":[20.839849,38.794547],"type":"Point"},"properties":{"osm_id":"4379234796","tag":{"natural":"tree"}},"type":"Feature"},
	{"geometry":{"coordinates":[20.839924,38.794394],"type":"Point"},"properties":{"osm_id":"4379234797","tag":{"natural":"tree"}},"type":"Feature"},
	{"geometry":{"coordinates":[20.838954,38.796129],"type":"Point"},"properties":{"osm_id":"4379234798","tag":{"natural":"tree"}},"type":"Feature"},
	{"geometry":{"coordinates":[20.838851,38.795334],"type":"Point"},"properties":{"osm_id":"4379234891","tag":{"natural":"tree"}},"type":"Feature"},
	{"geometry":{"coordinates":[20.838883,38.794971],"type":"Point"},"properties":{"osm_id":"4379234892","tag":{"natural":"tree"}},"type":"Feature"},
	{"geometry":{"coordinates":[20.839222,38.794992],"type":"Point"},"properties":{"osm_id":"4379234893","tag":{"natural":"tree"}},"type":"Feature"},
	{"geometry":{"coordinates":[20.839172,38.795714],"type":"Point"},"properties":{"osm_id":"4379234894","tag":{"natural":"tree"}},"type":"Feature"},
	{"geometry":{"coordinates":[20.840366,38.795067],"type":"Point"},"properties":{"osm_id":"4379234895","tag":{"natural":"tree"}},"type":"Feature"},
	{"geometry":{"coordinates":[20.839279,38.794703],"type":"Point"},"properties":{"osm_id":"4379246090","tag":{"natural":"tree"}},"type":"Feature"},
	{"geometry":{"coordinates":[20.839512,38.795201],"type":"Point"},"properties":{"osm_id":"4379246289","tag":{"natural":"tree"}},"type":"Feature"},
	{"geometry":{"coordinates":[20.83907,38.795263],"type":"Point"},"properties":{"osm_id":"4379246290","tag":{"natural":"tree"}},"type":"Feature"},
	{"geometry":{"coordinates":[20.83986,38.794844],"type":"Point"},"properties":{"osm_id":"4379246291","tag":{"natural":"tree"}},"type":"Feature"},
	{"geometry":{"coordinates":[20.839761,38.794694],"type":"Point"},"properties":{"osm_id":"4379246292","tag":{"natural":"tree"}},"type":"Feature"},
	{"geometry":{"coordinates":[20.839466,38.794566],"type":"Point"},"properties":{"osm_id":"4379246589","tag":{"natural":"tree"}},"type":"Feature"},
	{"geometry":{"coordinates":[20.838799,38.796033],"type":"Point"},"properties":{"osm_id":"4379246590","tag":{"natural":"tree"}},"type":"Feature"},
	{"geometry":{"coordinates":[20.839146,38.791716],"type":"Point"},"properties":{"osm_id":"4379249789","tag":{"natural":"tree"}},"type":"Feature"},
	{"geometry":{"coordinates":[20.880959,38.775491],"type":"Point"},"properties":{"name":"\u00ce\u00a0\u00ce\u00b5\u00cf\u008d\u00ce\u00ba\u00ce\u00bf","osm_id":"6657308786","tag":{"genus":"Pinus","leaf_type":"needleleaved","name:de":"Pinie","name:el":"\u00ce\u00a0\u00ce\u00b5\u00cf\u008d\u00ce\u00ba\u00ce\u00bf","name:en":"Pine","name:fr":"Pin","name:it":"Pino","natural":"tree"}},"type":"Feature"}
]
}
