{
"type": "FeatureCollection",
"features": [
	{"geometry":{"coordinates":[139.453656,35.791433],"type":"Point"},"properties":{"osm_id":"2125897641","tag":{"amenity":"recycling"}},"type":"Feature"},
	{"geometry":{"coordinates":[139.451391,35.792434],"type":"Point"},"properties":{"osm_id":"2126109481","tag":{"amenity":"recycling"}},"type":"Feature"},
	{"geometry":{"coordinates":[139.456175,35.803083],"type":"Point"},"properties":{"name":"\u00e3\u0083\u00aa\u00e3\u0082\u00b5\u00e3\u0082\u00a4\u00e3\u0082\u00af\u00e3\u0083\u00ab\u00e3\u0082\u00b7\u00e3\u0083\u00a7\u00e3\u0083\u0083\u00e3\u0083\u0097\u00e3\u0081\u008f\u00e3\u0082\u008b\u00e3\u0081\u008f\u00e3\u0082\u008b","osm_id":"2148630333","tag":{"amenity":"recycling","opening_hours":"10:00-19:00","phone":"+81 48-4-2929-6867","wheelchair":"limited"}},"type":"Feature"},
	{"geometry":{"coordinates":[139.44764,35.795452],"type":"Point"},"properties":{"osm_id":"2161952664","tag":{"amenity":"recycling"}},"type":"Feature"},
	{"geometry":{"coordinates":[139.435695,35.808307],"type":"Point"},"properties":{"name":"JUMBLE STORE","osm_id":"2327841935","tag":{"amenity":"recycling"}},"type":"Feature"},
	{"geometry":{"coordinates":[139.472666,35.786769],"type":"Point"},"properties":{"osm_id":"3633614005","tag":{"amenity":"waste_basket","check_date":"2021-02-06","waste":"bottle;can"}},"type":"Feature"},
	{"geometry":{"coordinates":[139.472678,35.786769],"type":"Point"},"properties":{"osm_id":"3633614006","tag":{"amenity":"waste_basket","check_date":"2021-02-06","waste":"plastic_bottle"}},"type":"Feature"},
	{"geometry":{"coordinates":[139.472689,35.786769],"type":"Point"},"properties":{"osm_id":"3633614007","tag":{"amenity":"waste_basket","check_date":"2021-02-06","waste":"trash"}},"type":"Feature"},
	{"geometry":{"coordinates":[139.4727,35.786769],"type":"Point"},"properties":{"osm_id":"3633614008","tag":{"amenity":"waste_basket","check_date":"2021-02-06","waste":"plastic"}},"type":"Feature"},
	{"geometry":{"coordinates":[139.442602,35.766222],"type":"Point"},"properties":{"osm_id":"5615581331","tag":{"amenity":"waste_basket"}},"type":"Feature"}
]
}
