{
"type": "FeatureCollection",
"features": [
	{"geometry":{"coordinates":[139.402472,35.566988],"type":"Point"},"properties":{"osm_id":"3818340969","tag":{"amenity":"waste_basket","natural":"tree"}},"type":"Feature"},
	{"geometry":{"coordinates":[139.40227,35.567176],"type":"Point"},"properties":{"osm_id":"3818340972","tag":{"amenity":"waste_basket","natural":"tree"}},"type":"Feature"},
	{"geometry":{"coordinates":[139.402329,35.567503],"type":"Point"},"properties":{"osm_id":"4841209622","tag":{"amenity":"waste_basket"}},"type":"Feature"},
	{"geometry":{"coordinates":[139.401446,35.567624],"type":"Point"},"properties":{"osm_id":"4841210123","tag":{"amenity":"waste_basket"}},"type":"Feature"},
	{"geometry":{"coordinates":[139.401424,35.567984],"type":"Point"},"properties":{"osm_id":"4841213524","tag":{"amenity":"waste_basket"}},"type":"Feature"},
	{"geometry":{"coordinates":[139.401268,35.567442],"type":"Point"},"properties":{"osm_id":"4841213525","tag":{"amenity":"waste_basket"}},"type":"Feature"},
	{"geometry":{"coordinates":[139.401369,35.567309],"type":"Point"},"properties":{"osm_id":"4841213526","tag":{"amenity":"waste_basket"}},"type":"Feature"},
	{"geometry":{"coordinates":[139.402171,35.567356],"type":"Point"},"properties":{"osm_id":"4841213527","tag":{"amenity":"waste_basket"}},"type":"Feature"},
	{"geometry":{"coordinates":[139.402306,35.567152],"type":"Point"},"properties":{"osm_id":"4841213528","tag":{"amenity":"waste_basket"}},"type":"Feature"},
	{"geometry":{"coordinates":[139.402474,35.566967],"type":"Point"},"properties":{"osm_id":"4841213529","tag":{"amenity":"waste_basket"}},"type":"Feature"},
	{"geometry":{"coordinates":[139.401287,35.567931],"type":"Point"},"properties":{"osm_id":"4841226823","tag":{"amenity":"waste_basket"}},"type":"Feature"},
	{"geometry":{"coordinates":[139.402503,35.567611],"type":"Point"},"properties":{"osm_id":"4841226824","tag":{"amenity":"waste_basket"}},"type":"Feature"},
	{"geometry":{"coordinates":[139.402336,35.567177],"type":"Point"},"properties":{"osm_id":"4841232123","tag":{"amenity":"waste_basket"}},"type":"Feature"},
	{"geometry":{"coordinates":[139.402316,35.567214],"type":"Point"},"properties":{"osm_id":"4841232125","tag":{"amenity":"waste_basket"}},"type":"Feature"},
	{"geometry":{"coordinates":[139.402263,35.567186],"type":"Point"},"properties":{"osm_id":"4841232126","tag":{"amenity":"waste_basket"}},"type":"Feature"},
	{"geometry":{"coordinates":[139.402368,35.567076],"type":"Point"},"properties":{"osm_id":"4841255923","tag":{"amenity":"waste_basket"}},"type":"Feature"},
	{"geometry":{"coordinates":[139.402397,35.567052],"type":"Point"},"properties":{"osm_id":"4841255924","tag":{"amenity":"waste_basket"}},"type":"Feature"},
	{"geometry":{"coordinates":[139.418158,35.551726],"type":"Point"},"properties":{"name":"CLE- CLE\u00ef\u00bc\u0088\u00e3\u0082\u00af\u00e3\u0083\u00ab\u00e3\u0082\u00af\u00e3\u0083\u00ab\u00ef\u00bc\u0089\u00e7\u009b\u00b8\u00e6\u00a8\u00a1\u00e5\u008e\u009f\u00e5\u00ba\u0097","osm_id":"5670412626","tag":{"amenity":"recycling"}},"type":"Feature"}
]
}
