{
"type": "FeatureCollection",
"features": [
	{"geometry":{"coordinates":[139.458129,35.462371],"type":"Point"},"properties":{"osm_id":"2224567351","tag":{"amenity":"waste_basket"}},"type":"Feature"},
	{"geometry":{"coordinates":[139.439272,35.480034],"type":"Point"},"properties":{"name":"\u00e5\u00a4\u00a7\u00e5\u0092\u008c\u00e5\u00b8\u0082\u00e8\u00b3\u0087\u00e6\u00ba\u0090\u00e9\u0081\u00b8\u00e5\u0088\u00a5\u00e6\u0089\u0080","osm_id":"3037000581","tag":{"amenity":"recycling","opening_hours":"1/4-12/28 9:00-12:00,13:00-15:30","recycling:beverage_cartons":"yes","recycling:books":"yes","recycling:cans":"yes","recycling:cardboard":"yes","recycling:cartons":"yes","recycling:clothes":"yes","recycling:glass":"yes","recycling:glass_bottles":"yes","recycling:magazines":"yes","recycling:newspaper":"yes","recycling:paper":"yes","recycling:paper_packaging":"yes","recycling:plastic_bottles":"yes","recycling:plastic_packaging":"yes","recycling_type":"centre","website":"http://www.city.yamato.lg.jp/web/shuushu/sigen-senbetujo.html"}},"type":"Feature"},
	{"geometry":{"coordinates":[139.458252,35.487567],"type":"Point"},"properties":{"osm_id":"3899413091","tag":{"amenity":"recycling","recycling:mobile_phones":"yes","recycling_type":"container"}},"type":"Feature"},
	{"geometry":{"coordinates":[139.457778,35.487492],"type":"Point"},"properties":{"osm_id":"3899413092","tag":{"amenity":"recycling","recycling:mobile_phones":"yes","recycling_type":"container"}},"type":"Feature"},
	{"geometry":{"coordinates":[139.415183,35.46593],"type":"Point"},"properties":{"osm_id":"5646734621","tag":{"amenity":"waste_basket"}},"type":"Feature"},
	{"geometry":{"coordinates":[139.405546,35.507383],"type":"Point"},"properties":{"osm_id":"5931633341","tag":{"amenity":"waste_disposal"}},"type":"Feature"},
	{"geometry":{"coordinates":[139.40686,35.507572],"type":"Point"},"properties":{"osm_id":"5931633356","tag":{"amenity":"waste_disposal"}},"type":"Feature"},
	{"geometry":{"coordinates":[139.406256,35.506275],"type":"Point"},"properties":{"osm_id":"5931633357","tag":{"amenity":"waste_disposal"}},"type":"Feature"},
	{"geometry":{"coordinates":[139.407092,35.507268],"type":"Point"},"properties":{"osm_id":"5931633358","tag":{"amenity":"waste_disposal"}},"type":"Feature"},
	{"geometry":{"coordinates":[139.405326,35.507244],"type":"Point"},"properties":{"osm_id":"5931633366","tag":{"amenity":"waste_disposal"}},"type":"Feature"},
	{"geometry":{"coordinates":[139.403019,35.508048],"type":"Point"},"properties":{"osm_id":"5931633367","tag":{"amenity":"waste_disposal"}},"type":"Feature"},
	{"geometry":{"coordinates":[139.405287,35.50772],"type":"Point"},"properties":{"osm_id":"5931837843","tag":{"amenity":"waste_disposal"}},"type":"Feature"},
	{"geometry":{"coordinates":[139.404941,35.508286],"type":"Point"},"properties":{"osm_id":"5931837844","tag":{"amenity":"waste_disposal"}},"type":"Feature"},
	{"geometry":{"coordinates":[139.405516,35.507523],"type":"Point"},"properties":{"osm_id":"5931837875","tag":{"amenity":"waste_disposal"}},"type":"Feature"},
	{"geometry":{"coordinates":[139.405788,35.509046],"type":"Point"},"properties":{"osm_id":"5936187482","tag":{"amenity":"waste_disposal"}},"type":"Feature"},
	{"geometry":{"coordinates":[139.406126,35.508591],"type":"Point"},"properties":{"osm_id":"5936187483","tag":{"amenity":"waste_disposal"}},"type":"Feature"},
	{"geometry":{"coordinates":[139.406323,35.508317],"type":"Point"},"properties":{"osm_id":"5936187588","tag":{"amenity":"waste_disposal"}},"type":"Feature"},
	{"geometry":{"coordinates":[139.406624,35.507903],"type":"Point"},"properties":{"osm_id":"5936187608","tag":{"amenity":"waste_disposal"}},"type":"Feature"},
	{"geometry":{"coordinates":[139.403961,35.507411],"type":"Point"},"properties":{"osm_id":"5936208499","tag":{"amenity":"waste_disposal"}},"type":"Feature"},
	{"geometry":{"coordinates":[139.404644,35.507677],"type":"Point"},"properties":{"osm_id":"5936208500","tag":{"amenity":"waste_disposal"}},"type":"Feature"},
	{"geometry":{"coordinates":[139.469746,35.508967],"type":"Point"},"properties":{"osm_id":"6979405268","tag":{"amenity":"waste_basket","waste":"dog_excrement"}},"type":"Feature"},
	{"geometry":{"coordinates":[139.471998,35.508297],"type":"Point"},"properties":{"osm_id":"6979405270","tag":{"amenity":"waste_basket","waste":"dog_excrement"}},"type":"Feature"},
	{"geometry":{"coordinates":[139.47189,35.510462],"type":"Point"},"properties":{"osm_id":"6979405271","tag":{"amenity":"waste_basket","waste":"dog_excrement"}},"type":"Feature"}
]
}
