{
"type": "FeatureCollection",
"lastupdate": "2020-08-06T00:00:00Z",
"features": [
	{"geometry":{"coordinates":[139.408733,35.423755],"type":"Point"},"properties":{"osm_id":"1746581746","tag":{"amenity":"recycling","name:en":"Integrated Waste-management Design","name:ja":"\u682a\u5f0f\u4f1a\u793eIWD"}},"type":"Feature"},
	{"geometry":{"coordinates":[139.412373,35.41922],"type":"Point"},"properties":{"name":"\u00e5\u0085\u00a8\u00e9\u00a1\u008d\u00e8\u00b2\u00bf\u00e6\u0098\u0093","osm_id":"1746581750","tag":{"amenity":"recycling","phone":"0467-77-6851"}},"type":"Feature"},
	{"geometry":{"coordinates":[139.415853,35.419662],"type":"Point"},"properties":{"name":"\u00e3\u0082\u00bf\u00e3\u0082\u00ba\u00e3\u0083\u009f \u00e5\u0090\u0089\u00e5\u00b2\u00a1\u00e3\u0083\u00aa\u00e3\u0082\u00b5\u00e3\u0082\u00a4\u00e3\u0082\u00af\u00e3\u0083\u00ab\u00e3\u0082\u00bb\u00e3\u0083\u00b3\u00e3\u0082\u00bf\u00e3\u0083\u00bc","osm_id":"1746694027","tag":{"amenity":"recycling"}},"type":"Feature"},
	{"geometry":{"coordinates":[139.455103,35.441296],"type":"Point"},"properties":{"osm_id":"2147408824","tag":{"amenity":"waste_basket"}},"type":"Feature"},
	{"geometry":{"coordinates":[139.402154,35.43138],"type":"Point"},"properties":{"osm_id":"3371306527","tag":{"amenity":"waste_basket"}},"type":"Feature"},
	{"geometry":{"coordinates":[139.401313,35.430671],"type":"Point"},"properties":{"osm_id":"3371306530","tag":{"amenity":"waste_basket"}},"type":"Feature"},
	{"geometry":{"coordinates":[139.399077,35.432287],"type":"Point"},"properties":{"osm_id":"3393800662","tag":{"amenity":"waste_basket"}},"type":"Feature"},
	{"geometry":{"coordinates":[139.398523,35.431763],"type":"Point"},"properties":{"osm_id":"3393800682","tag":{"amenity":"waste_basket"}},"type":"Feature"},
	{"geometry":{"coordinates":[139.466689,35.43474],"type":"Point"},"properties":{"osm_id":"3869521725","tag":{"amenity":"recycling","recycling:cans":"yes","recycling_type":"container"}},"type":"Feature"},
	{"geometry":{"coordinates":[139.4642,35.4327],"type":"Point"},"properties":{"osm_id":"4029504348","tag":{"amenity":"recycling","recycling:plastic":"yes","recycling_type":"container"}},"type":"Feature"},
	{"geometry":{"coordinates":[139.406621,35.40849],"type":"Point"},"properties":{"osm_id":"4328760290","tag":{"amenity":"recycling","fee":"no","opening_hours":"24/7","recycling:animal_waste":"no","recycling:batteries":"no","recycling:books":"yes","recycling:cans":"no","recycling:cardboard":"yes","recycling:cartons":"no","recycling:clothes":"no","recycling:electrical_appliances":"no","recycling:glass":"no","recycling:glass_bottles":"no","recycling:green_waste":"no","recycling:magazines":"yes","recycling:newspaper":"yes","recycling:paper":"yes","recycling:paper_packaging":"yes","recycling:plastic":"no","recycling:plastic_bottles":"no","recycling:plastic_packaging":"no","recycling:scrap_metal":"no","recycling:small_appliances":"no","recycling:wood":"no","recycling_type":"container"}},"type":"Feature"},
	{"geometry":{"coordinates":[139.404345,35.440974],"type":"Point"},"properties":{"osm_id":"5469326636","tag":{"access":"private","amenity":"recycling","recycling:cardboard":"yes","recycling_type":"container"}},"type":"Feature"},
	{"geometry":{"coordinates":[139.404535,35.440903],"type":"Point"},"properties":{"osm_id":"5469326637","tag":{"amenity":"recycling","recycling:plastic_bottles":"yes","recycling_type":"container"}},"type":"Feature"},
	{"geometry":{"coordinates":[139.404551,35.440904],"type":"Point"},"properties":{"osm_id":"5469326638","tag":{"amenity":"recycling","recycling:plastic_packaging":"yes","recycling_type":"container"}},"type":"Feature"},
	{"geometry":{"coordinates":[139.404563,35.441039],"type":"Point"},"properties":{"osm_id":"5469326639","tag":{"amenity":"recycling","recycling:cans":"yes","recycling_type":"container"}},"type":"Feature"},
	{"geometry":{"coordinates":[139.403283,35.444422],"type":"Point"},"properties":{"osm_id":"5537326321","tag":{"amenity":"waste_basket"}},"type":"Feature"},
	{"geometry":{"coordinates":[139.402953,35.444731],"type":"Point"},"properties":{"osm_id":"5540517787","tag":{"amenity":"waste_basket"}},"type":"Feature"},
	{"geometry":{"coordinates":[139.404002,35.449936],"type":"Point"},"properties":{"osm_id":"5577647218","tag":{"amenity":"waste_basket"}},"type":"Feature"},
	{"geometry":{"coordinates":[139.401083,35.445798],"type":"Point"},"properties":{"osm_id":"5735903313","tag":{"amenity":"waste_basket"}},"type":"Feature"},
	{"geometry":{"coordinates":[139.399653,35.438927],"type":"Point"},"properties":{"osm_id":"5808251272","tag":{"amenity":"waste_basket"}},"type":"Feature"},
	{"geometry":{"coordinates":[139.394666,35.452143],"type":"Point"},"properties":{"osm_id":"5909075533","tag":{"amenity":"waste_basket"}},"type":"Feature"},
	{"geometry":{"coordinates":[139.463497,35.430621],"type":"Point"},"properties":{"osm_id":"6679404199","tag":{"amenity":"waste_basket"}},"type":"Feature"},
	{"geometry":{"coordinates":[139.455581,35.452207],"type":"Point"},"properties":{"name":"\u00e6\u009f\u00b3\u00e6\u00a9\u008b\u00e3\u0082\u00a8\u00e3\u0082\u00b3\u00e3\u0082\u00bb\u00e3\u0083\u00b3\u00e3\u0082\u00bf\u00e3\u0083\u00bc","osm_id":"7682625261","tag":{"addr:block_number":"13","addr:city":"\u5927\u548c\u5e02","addr:housenumber":"9","addr:neighbourhood":"5","addr:province":"\u795e\u5948\u5ddd\u770c","addr:quarter":"\u67f3\u6a4b","amenity":"recycling","operator":"\u5927\u548c\u5e02\u30ea\u30b5\u30a4\u30af\u30eb\u4e8b\u696d\u5354\u540c\u7d44\u5408","recycling_type":"centre","website":"http://www.eco-yamato.or.jp/"}},"type":"Feature"}
]
}
