{
"type": "FeatureCollection",
"features": [
	{"geometry":{"coordinates":[13.351361,54.322301],"type":"Point"},"properties":{"osm_id":"2386625671","tag":{"amenity":"recycling","recycling:glass_bottles":"yes","recycling_type":"container"}},"type":"Feature"},
	{"geometry":{"coordinates":[13.292508,54.356367],"type":"Point"},"properties":{"osm_id":"5931681116","tag":{"amenity":"recycling","description:DE":"Ja, hier stehen zwei Altkleidercontainer von verschiedenen Anbietern.","recycling:clothes":"yes","recycling:shoes":"yes","recycling_type":"container"}},"type":"Feature"},
	{"geometry":{"coordinates":[13.292514,54.356336],"type":"Point"},"properties":{"osm_id":"5931681117","tag":{"amenity":"recycling","recycling:glass_bottles":"yes","recycling_type":"container"}},"type":"Feature"},
	{"geometry":{"coordinates":[13.292518,54.356309],"type":"Point"},"properties":{"osm_id":"5931681118","tag":{"amenity":"recycling","description:de":"Ja, hier stehen zwei Altkleidercontainer von verschiedenen Anbietern.","recycling:clothes":"yes","recycling:shoes":"yes","recycling_type":"container"}},"type":"Feature"},
	{"geometry":{"coordinates":[13.285021,54.352293],"type":"Point"},"properties":{"name":"Wertstoffhof Samtens","osm_id":"6789315166","tag":{"addr:city":"Samtens","addr:housenumber":"4","addr:postcode":"18573","addr:street":"Industriestra\u00c3\u009fe","amenity":"recycling","opening_hours":"Mo,Tu,We,Fr09:00-12:00,13:00-17:00; Th09:00-12:00,13:00-18:00","recycling_type":"centre"}},"type":"Feature"}
]
}
