{
"type": "FeatureCollection",
"features": [
	{"geometry":{"coordinates":[13.274326,52.681342],"type":"Point"},"properties":{"osm_id":"599169729","tag":{"amenity":"recycling","location":"overground","recycling:glass_bottles":"yes","recycling_type":"container"}},"type":"Feature"},
	{"geometry":{"coordinates":[13.287152,52.695181],"type":"Point"},"properties":{"osm_id":"601545481","tag":{"amenity":"recycling","recycling:clothes":"yes","recycling:glass":"yes"}},"type":"Feature"},
	{"geometry":{"coordinates":[13.276761,52.662201],"type":"Point"},"properties":{"osm_id":"602326214","tag":{"amenity":"waste_basket"}},"type":"Feature"},
	{"geometry":{"coordinates":[13.28316,52.665918],"type":"Point"},"properties":{"osm_id":"602326215","tag":{"amenity":"waste_basket"}},"type":"Feature"},
	{"geometry":{"coordinates":[13.28054,52.670765],"type":"Point"},"properties":{"osm_id":"602326216","tag":{"amenity":"waste_basket"}},"type":"Feature"},
	{"geometry":{"coordinates":[13.280748,52.693388],"type":"Point"},"properties":{"osm_id":"602732844","tag":{"amenity":"recycling","recycling:glass":"yes"}},"type":"Feature"},
	{"geometry":{"coordinates":[13.274238,52.662591],"type":"Point"},"properties":{"osm_id":"603714750","tag":{"amenity":"waste_basket"}},"type":"Feature"},
	{"geometry":{"coordinates":[13.274309,52.662579],"type":"Point"},"properties":{"osm_id":"603714751","tag":{"amenity":"waste_basket"}},"type":"Feature"},
	{"geometry":{"coordinates":[13.277458,52.661345],"type":"Point"},"properties":{"osm_id":"611156208","tag":{"amenity":"recycling","recycling:glass":"yes","recycling_type":"container"}},"type":"Feature"},
	{"geometry":{"coordinates":[13.272064,52.670189],"type":"Point"},"properties":{"osm_id":"690378171","tag":{"amenity":"waste_basket"}},"type":"Feature"},
	{"geometry":{"coordinates":[13.277586,52.667249],"type":"Point"},"properties":{"osm_id":"727741395","tag":{"amenity":"recycling","recycling:glass":"yes","recycling_type":"container"}},"type":"Feature"},
	{"geometry":{"coordinates":[13.28151,52.667978],"type":"Point"},"properties":{"osm_id":"745241700","tag":{"amenity":"waste_basket"}},"type":"Feature"},
	{"geometry":{"coordinates":[13.31638,52.669692],"type":"Point"},"properties":{"osm_id":"746446565","tag":{"amenity":"recycling","location":"overground","recycling:glass":"yes","recycling_type":"container"}},"type":"Feature"},
	{"geometry":{"coordinates":[13.314691,52.660901],"type":"Point"},"properties":{"osm_id":"769069930","tag":{"amenity":"recycling"}},"type":"Feature"},
	{"geometry":{"coordinates":[13.322853,52.673032],"type":"Point"},"properties":{"osm_id":"876201539","tag":{"amenity":"recycling","recycling_type":"container"}},"type":"Feature"},
	{"geometry":{"coordinates":[13.289398,52.67716],"type":"Point"},"properties":{"osm_id":"955167493","tag":{"amenity":"recycling","location":"overground","recycling:clothes":"yes","recycling:glass":"yes","recycling_type":"container"}},"type":"Feature"},
	{"geometry":{"coordinates":[13.317533,52.685013],"type":"Point"},"properties":{"osm_id":"998153063","tag":{"amenity":"recycling"}},"type":"Feature"},
	{"geometry":{"coordinates":[13.316417,52.680753],"type":"Point"},"properties":{"osm_id":"1180997301","tag":{"amenity":"recycling"}},"type":"Feature"},
	{"geometry":{"coordinates":[13.338091,52.649646],"type":"Point"},"properties":{"osm_id":"2690158042","tag":{"amenity":"recycling","recycling:clothes":"yes","recycling:glass":"yes","recycling:paper":"yes","recycling_type":"container"}},"type":"Feature"},
	{"geometry":{"coordinates":[13.282196,52.672866],"type":"Point"},"properties":{"osm_id":"3893906784","tag":{"amenity":"waste_basket"}},"type":"Feature"},
	{"geometry":{"coordinates":[13.286444,52.669588],"type":"Point"},"properties":{"osm_id":"4230515491","tag":{"amenity":"waste_basket"}},"type":"Feature"},
	{"geometry":{"coordinates":[13.288202,52.669932],"type":"Point"},"properties":{"osm_id":"4230536289","tag":{"amenity":"recycling","recycling:glass":"yes","recycling_type":"container"}},"type":"Feature"},
	{"geometry":{"coordinates":[13.324154,52.644026],"type":"Point"},"properties":{"osm_id":"4388936165","tag":{"amenity":"waste_basket"}},"type":"Feature"},
	{"geometry":{"coordinates":[13.324138,52.643998],"type":"Point"},"properties":{"osm_id":"4388936166","tag":{"amenity":"waste_basket"}},"type":"Feature"},
	{"geometry":{"coordinates":[13.32405,52.64384],"type":"Point"},"properties":{"osm_id":"4388936167","tag":{"amenity":"waste_basket"}},"type":"Feature"},
	{"geometry":{"coordinates":[13.324034,52.64381],"type":"Point"},"properties":{"osm_id":"4388936168","tag":{"amenity":"waste_basket"}},"type":"Feature"},
	{"geometry":{"coordinates":[13.324098,52.643923],"type":"Point"},"properties":{"osm_id":"4388936169","tag":{"amenity":"waste_basket"}},"type":"Feature"},
	{"geometry":{"coordinates":[13.324077,52.643887],"type":"Point"},"properties":{"osm_id":"4388936170","tag":{"amenity":"waste_basket"}},"type":"Feature"},
	{"geometry":{"coordinates":[13.32426,52.644213],"type":"Point"},"properties":{"osm_id":"4388936171","tag":{"amenity":"waste_basket"}},"type":"Feature"},
	{"geometry":{"coordinates":[13.32393,52.643794],"type":"Point"},"properties":{"osm_id":"4388936174","tag":{"amenity":"waste_basket"}},"type":"Feature"},
	{"geometry":{"coordinates":[13.323801,52.643714],"type":"Point"},"properties":{"osm_id":"4388936176","tag":{"amenity":"waste_basket"}},"type":"Feature"},
	{"geometry":{"coordinates":[13.323918,52.644062],"type":"Point"},"properties":{"osm_id":"4388941989","tag":{"amenity":"waste_basket"}},"type":"Feature"},
	{"geometry":{"coordinates":[13.335203,52.649279],"type":"Point"},"properties":{"osm_id":"4409663699","tag":{"amenity":"waste_basket","colour":"orange","material":"plastic","waste":"mixed"}},"type":"Feature"},
	{"geometry":{"coordinates":[13.326812,52.647099],"type":"Point"},"properties":{"osm_id":"4409683302","tag":{"amenity":"waste_basket","colour":"green","material":"plastic","waste":"mixed"}},"type":"Feature"},
	{"geometry":{"coordinates":[13.290088,52.655775],"type":"Point"},"properties":{"osm_id":"4435954948","tag":{"amenity":"waste_basket"}},"type":"Feature"},
	{"geometry":{"coordinates":[13.315839,52.645471],"type":"Point"},"properties":{"osm_id":"4625163791","tag":{"amenity":"waste_disposal"}},"type":"Feature"},
	{"geometry":{"coordinates":[13.284017,52.655706],"type":"Point"},"properties":{"osm_id":"4820651691","tag":{"amenity":"waste_basket"}},"type":"Feature"},
	{"geometry":{"coordinates":[13.284099,52.656424],"type":"Point"},"properties":{"osm_id":"4820651720","tag":{"amenity":"waste_basket"}},"type":"Feature"},
	{"geometry":{"coordinates":[13.283188,52.65635],"type":"Point"},"properties":{"osm_id":"4820651924","tag":{"amenity":"waste_basket"}},"type":"Feature"},
	{"geometry":{"coordinates":[13.339292,52.655433],"type":"Point"},"properties":{"osm_id":"4928785469","tag":{"amenity":"waste_basket","colour":"green","material":"plastic","waste":"mixed"}},"type":"Feature"},
	{"geometry":{"coordinates":[13.339179,52.655355],"type":"Point"},"properties":{"osm_id":"4928785470","tag":{"amenity":"waste_basket","colour":"green","material":"plastic","waste":"mixed"}},"type":"Feature"},
	{"geometry":{"coordinates":[13.32046,52.645331],"type":"Point"},"properties":{"osm_id":"4938366355","tag":{"amenity":"waste_basket"}},"type":"Feature"},
	{"geometry":{"coordinates":[13.276466,52.678538],"type":"Point"},"properties":{"osm_id":"4971159105","tag":{"amenity":"waste_basket"}},"type":"Feature"},
	{"geometry":{"coordinates":[13.276647,52.678179],"type":"Point"},"properties":{"osm_id":"4971159110","tag":{"amenity":"waste_basket"}},"type":"Feature"},
	{"geometry":{"coordinates":[13.278295,52.67708],"type":"Point"},"properties":{"osm_id":"4971159112","tag":{"amenity":"waste_basket"}},"type":"Feature"},
	{"geometry":{"coordinates":[13.315621,52.64437],"type":"Point"},"properties":{"osm_id":"5005993009","tag":{"amenity":"waste_basket"}},"type":"Feature"},
	{"geometry":{"coordinates":[13.300737,52.669005],"type":"Point"},"properties":{"osm_id":"5039492856","tag":{"amenity":"waste_basket"}},"type":"Feature"},
	{"geometry":{"coordinates":[13.321002,52.644849],"type":"Point"},"properties":{"osm_id":"5149570391","tag":{"amenity":"waste_basket"}},"type":"Feature"},
	{"geometry":{"coordinates":[13.321805,52.64352],"type":"Point"},"properties":{"osm_id":"5345722550","tag":{"amenity":"waste_basket","colour":"orange","material":"plastic","waste":"mixed"}},"type":"Feature"},
	{"geometry":{"coordinates":[13.321873,52.643483],"type":"Point"},"properties":{"osm_id":"5345722551","tag":{"amenity":"waste_basket","colour":"orange","material":"plastic","waste":"mixed"}},"type":"Feature"},
	{"geometry":{"coordinates":[13.301661,52.643168],"type":"Point"},"properties":{"osm_id":"5497743200","tag":{"amenity":"waste_basket","colour":"#df9453","material":"plastic","waste":"mixed"}},"type":"Feature"},
	{"geometry":{"coordinates":[13.301563,52.64331],"type":"Point"},"properties":{"osm_id":"5497743201","tag":{"amenity":"waste_basket"}},"type":"Feature"},
	{"geometry":{"coordinates":[13.282197,52.686589],"type":"Point"},"properties":{"osm_id":"5516893465","tag":{"amenity":"recycling","recycling:clothes":"yes","recycling:shoes":"yes","recycling_type":"container"}},"type":"Feature"},
	{"geometry":{"coordinates":[13.306883,52.665195],"type":"Point"},"properties":{"osm_id":"5718686484","tag":{"amenity":"waste_basket"}},"type":"Feature"},
	{"geometry":{"coordinates":[13.298509,52.667274],"type":"Point"},"properties":{"osm_id":"5718686485","tag":{"amenity":"waste_basket"}},"type":"Feature"},
	{"geometry":{"coordinates":[13.287033,52.668644],"type":"Point"},"properties":{"osm_id":"5967201029","tag":{"amenity":"waste_basket"}},"type":"Feature"},
	{"geometry":{"coordinates":[13.339538,52.664827],"type":"Point"},"properties":{"osm_id":"6081024762","tag":{"amenity":"waste_basket"}},"type":"Feature"},
	{"geometry":{"coordinates":[13.339847,52.664736],"type":"Point"},"properties":{"osm_id":"6081024765","tag":{"amenity":"waste_basket"}},"type":"Feature"},
	{"geometry":{"coordinates":[13.316103,52.645364],"type":"Point"},"properties":{"osm_id":"7100125868","tag":{"amenity":"waste_basket"}},"type":"Feature"},
	{"geometry":{"coordinates":[13.317404,52.644727],"type":"Point"},"properties":{"osm_id":"7100125869","tag":{"amenity":"waste_basket"}},"type":"Feature"},
	{"geometry":{"coordinates":[13.280807,52.661853],"type":"Point"},"properties":{"osm_id":"7320264655","tag":{"amenity":"waste_basket","material":"plastic"}},"type":"Feature"},
	{"geometry":{"coordinates":[13.278576,52.667207],"type":"Point"},"properties":{"osm_id":"7625443459","tag":{"amenity":"waste_basket"}},"type":"Feature"},
	{"geometry":{"coordinates":[13.278282,52.667425],"type":"Point"},"properties":{"osm_id":"7625470390","tag":{"amenity":"waste_basket"}},"type":"Feature"},
	{"geometry":{"coordinates":[13.278331,52.66752],"type":"Point"},"properties":{"osm_id":"7625470392","tag":{"amenity":"waste_basket"}},"type":"Feature"},
	{"geometry":{"coordinates":[13.32607,52.661927],"type":"Point"},"properties":{"osm_id":"7806785842","tag":{"amenity":"waste_basket","colour":"green","waste":"mixed"}},"type":"Feature"},
	{"geometry":{"coordinates":[13.336161,52.660685],"type":"Point"},"properties":{"osm_id":"7819988232","tag":{"amenity":"waste_basket","colour":"orange","material":"plastic","waste":"mixed"}},"type":"Feature"},
	{"geometry":{"coordinates":[13.280671,52.670019],"type":"Point"},"properties":{"osm_id":"7921394645","tag":{"amenity":"waste_basket","colour":"#0d0d0f","material":"steel","waste":"mixed"}},"type":"Feature"}
]
}
