{
"type": "FeatureCollection",
"lastupdate": "2020-08-06T00:00:00Z",
"features": [
	{"geometry":{"coordinates":[13.297818,52.624849],"type":"Point"},"properties":{"highway":"bus_stop","name":"Bergstra\u00c3\u009fe","osm_id":"371211006","tag":{"amenity":"waste_basket","bench":"yes","shelter":"yes","tactile_paving":"no"}},"type":"Feature"},
	{"geometry":{"coordinates":[13.294835,52.629129],"type":"Point"},"properties":{"highway":"bus_stop","name":"Im Fischgrund","osm_id":"475385165","tag":{"amenity":"waste_basket","bench":"no","shelter":"no"}},"type":"Feature"},
	{"geometry":{"coordinates":[13.349046,52.615879],"type":"Point"},"properties":{"osm_id":"1174834381","tag":{"amenity":"waste_basket"}},"type":"Feature"},
	{"geometry":{"coordinates":[13.345754,52.610745],"type":"Point"},"properties":{"osm_id":"1184265159","tag":{"amenity":"waste_basket"}},"type":"Feature"},
	{"geometry":{"coordinates":[13.351011,52.6328],"type":"Point"},"properties":{"osm_id":"1730026623","tag":{"amenity":"recycling","recycling:glass_bottles":"yes","recycling_type":"container"}},"type":"Feature"},
	{"geometry":{"coordinates":[13.320423,52.630873],"type":"Point"},"properties":{"osm_id":"1730026631","tag":{"amenity":"recycling","recycling:glass_bottles":"yes","recycling_type":"container"}},"type":"Feature"},
	{"geometry":{"coordinates":[13.276124,52.592753],"type":"Point"},"properties":{"osm_id":"1892081724","tag":{"amenity":"recycling","recycling:glass_bottles":"yes","recycling_type":"container"}},"type":"Feature"},
	{"geometry":{"coordinates":[13.292759,52.596261],"type":"Point"},"properties":{"osm_id":"2205264874","tag":{"amenity":"recycling","operator":"Familienschutzwerk","recycling:clothes":"yes","recycling:shoes":"yes","recycling_type":"container"}},"type":"Feature"},
	{"geometry":{"coordinates":[13.304523,52.6011],"type":"Point"},"properties":{"osm_id":"2205270137","tag":{"amenity":"recycling","recycling:glass_bottles":"yes","recycling_type":"container"}},"type":"Feature"},
	{"geometry":{"coordinates":[13.329138,52.609471],"type":"Point"},"properties":{"osm_id":"2596510021","tag":{"amenity":"recycling","recycling_type":"container"}},"type":"Feature"},
	{"geometry":{"coordinates":[13.283803,52.60892],"type":"Point"},"properties":{"osm_id":"3518219908","tag":{"amenity":"waste_basket"}},"type":"Feature"},
	{"geometry":{"coordinates":[13.354771,52.598461],"type":"Point"},"properties":{"highway":"street_lamp","osm_id":"3679303047","tag":{"amenity":"waste_basket"}},"type":"Feature"},
	{"geometry":{"coordinates":[13.355011,52.59848],"type":"Point"},"properties":{"highway":"street_lamp","osm_id":"3679303048","tag":{"amenity":"waste_basket"}},"type":"Feature"},
	{"geometry":{"coordinates":[13.354765,52.598535],"type":"Point"},"properties":{"highway":"street_lamp","osm_id":"3679303051","tag":{"amenity":"waste_basket"}},"type":"Feature"},
	{"geometry":{"coordinates":[13.354996,52.598551],"type":"Point"},"properties":{"highway":"street_lamp","osm_id":"3679303052","tag":{"amenity":"waste_basket"}},"type":"Feature"},
	{"geometry":{"coordinates":[13.288441,52.602004],"type":"Point"},"properties":{"osm_id":"3732247249","tag":{"amenity":"waste_basket"}},"type":"Feature"},
	{"geometry":{"coordinates":[13.293624,52.602365],"type":"Point"},"properties":{"osm_id":"3732247253","tag":{"amenity":"waste_basket"}},"type":"Feature"},
	{"geometry":{"coordinates":[13.293991,52.602759],"type":"Point"},"properties":{"osm_id":"3732247255","tag":{"amenity":"waste_basket"}},"type":"Feature"},
	{"geometry":{"coordinates":[13.291639,52.604824],"type":"Point"},"properties":{"osm_id":"3732247268","tag":{"amenity":"waste_basket"}},"type":"Feature"},
	{"geometry":{"coordinates":[13.295959,52.604857],"type":"Point"},"properties":{"osm_id":"3732247270","tag":{"amenity":"waste_basket"}},"type":"Feature"},
	{"geometry":{"coordinates":[13.29796,52.605541],"type":"Point"},"properties":{"osm_id":"3732247277","tag":{"amenity":"waste_basket"}},"type":"Feature"},
	{"geometry":{"coordinates":[13.291712,52.605748],"type":"Point"},"properties":{"osm_id":"3732247279","tag":{"amenity":"waste_basket"}},"type":"Feature"},
	{"geometry":{"coordinates":[13.299678,52.605901],"type":"Point"},"properties":{"osm_id":"3732247282","tag":{"amenity":"waste_basket"}},"type":"Feature"},
	{"geometry":{"coordinates":[13.293017,52.606464],"type":"Point"},"properties":{"osm_id":"3732247290","tag":{"amenity":"waste_basket"}},"type":"Feature"},
	{"geometry":{"coordinates":[13.295272,52.60681],"type":"Point"},"properties":{"osm_id":"3732247307","tag":{"amenity":"waste_basket"}},"type":"Feature"},
	{"geometry":{"coordinates":[13.353164,52.601352],"type":"Point"},"properties":{"osm_id":"3979742235","tag":{"amenity":"waste_basket"}},"type":"Feature"},
	{"geometry":{"coordinates":[13.352582,52.617341],"type":"Point"},"properties":{"osm_id":"3979742449","tag":{"amenity":"waste_basket"}},"type":"Feature"},
	{"geometry":{"coordinates":[13.355715,52.620267],"type":"Point"},"properties":{"osm_id":"3979742454","tag":{"amenity":"waste_basket","colour":"orange","material":"plastic","waste":"mixed"}},"type":"Feature"},
	{"geometry":{"coordinates":[13.288907,52.600598],"type":"Point"},"properties":{"osm_id":"4167513000","tag":{"amenity":"waste_basket"}},"type":"Feature"},
	{"geometry":{"coordinates":[13.338305,52.631573],"type":"Point"},"properties":{"osm_id":"4306115498","tag":{"amenity":"waste_basket"}},"type":"Feature"},
	{"geometry":{"coordinates":[13.288726,52.632467],"type":"Point"},"properties":{"osm_id":"4323251889","tag":{"amenity":"waste_basket"}},"type":"Feature"},
	{"geometry":{"coordinates":[13.31401,52.635348],"type":"Point"},"properties":{"osm_id":"4371735954","tag":{"amenity":"waste_basket","colour":"grey","material":"steel","waste":"mixed"}},"type":"Feature"},
	{"geometry":{"coordinates":[13.313447,52.635651],"type":"Point"},"properties":{"osm_id":"4371735956","tag":{"amenity":"waste_basket"}},"type":"Feature"},
	{"geometry":{"coordinates":[13.313283,52.63522],"type":"Point"},"properties":{"osm_id":"4371735958","tag":{"amenity":"waste_basket"}},"type":"Feature"},
	{"geometry":{"coordinates":[13.313376,52.634882],"type":"Point"},"properties":{"osm_id":"4371735965","tag":{"amenity":"waste_basket","colour":"grey","material":"steel","waste":"mixed"}},"type":"Feature"},
	{"geometry":{"coordinates":[13.32283,52.631137],"type":"Point"},"properties":{"osm_id":"4376469412","tag":{"amenity":"waste_basket"}},"type":"Feature"},
	{"geometry":{"coordinates":[13.317131,52.636379],"type":"Point"},"properties":{"osm_id":"4382473541","tag":{"amenity":"waste_basket"}},"type":"Feature"},
	{"geometry":{"coordinates":[13.317151,52.636433],"type":"Point"},"properties":{"osm_id":"4382473542","tag":{"amenity":"waste_basket"}},"type":"Feature"},
	{"geometry":{"coordinates":[13.317976,52.636398],"type":"Point"},"properties":{"osm_id":"4382473550","tag":{"amenity":"waste_basket"}},"type":"Feature"},
	{"geometry":{"coordinates":[13.318012,52.636144],"type":"Point"},"properties":{"osm_id":"4382473557","tag":{"amenity":"waste_basket"}},"type":"Feature"},
	{"geometry":{"coordinates":[13.318048,52.635849],"type":"Point"},"properties":{"osm_id":"4382473562","tag":{"amenity":"waste_basket"}},"type":"Feature"},
	{"geometry":{"coordinates":[13.310984,52.622256],"type":"Point"},"properties":{"osm_id":"4398643703","tag":{"amenity":"waste_basket"}},"type":"Feature"},
	{"geometry":{"coordinates":[13.310917,52.622031],"type":"Point"},"properties":{"osm_id":"4398643704","tag":{"amenity":"waste_basket"}},"type":"Feature"},
	{"geometry":{"coordinates":[13.30906,52.621797],"type":"Point"},"properties":{"osm_id":"4398643706","tag":{"amenity":"waste_basket"}},"type":"Feature"},
	{"geometry":{"coordinates":[13.309073,52.621589],"type":"Point"},"properties":{"osm_id":"4398643707","tag":{"amenity":"waste_basket"}},"type":"Feature"},
	{"geometry":{"coordinates":[13.307006,52.621071],"type":"Point"},"properties":{"osm_id":"4398643713","tag":{"amenity":"waste_basket"}},"type":"Feature"},
	{"geometry":{"coordinates":[13.311828,52.62234],"type":"Point"},"properties":{"osm_id":"4398643721","tag":{"amenity":"waste_basket"}},"type":"Feature"},
	{"geometry":{"coordinates":[13.312833,52.622858],"type":"Point"},"properties":{"osm_id":"4398643747","tag":{"amenity":"waste_basket"}},"type":"Feature"},
	{"geometry":{"coordinates":[13.319464,52.630591],"type":"Point"},"properties":{"osm_id":"4398643755","tag":{"amenity":"waste_basket","colour":"grey","material":"steel","waste":"mixed"}},"type":"Feature"},
	{"geometry":{"coordinates":[13.319364,52.630135],"type":"Point"},"properties":{"osm_id":"4404259402","tag":{"amenity":"waste_basket"}},"type":"Feature"},
	{"geometry":{"coordinates":[13.319514,52.630161],"type":"Point"},"properties":{"osm_id":"4404259404","tag":{"amenity":"waste_basket"}},"type":"Feature"},
	{"geometry":{"coordinates":[13.319579,52.630253],"type":"Point"},"properties":{"osm_id":"4404259410","tag":{"amenity":"waste_basket"}},"type":"Feature"},
	{"geometry":{"coordinates":[13.319389,52.630408],"type":"Point"},"properties":{"osm_id":"4404259413","tag":{"amenity":"waste_basket"}},"type":"Feature"},
	{"geometry":{"coordinates":[13.315717,52.63118],"type":"Point"},"properties":{"osm_id":"4404259417","tag":{"amenity":"waste_basket"}},"type":"Feature"},
	{"geometry":{"coordinates":[13.315166,52.631341],"type":"Point"},"properties":{"osm_id":"4404259422","tag":{"amenity":"waste_basket"}},"type":"Feature"},
	{"geometry":{"coordinates":[13.31523,52.630934],"type":"Point"},"properties":{"osm_id":"4404259426","tag":{"amenity":"waste_basket"}},"type":"Feature"},
	{"geometry":{"coordinates":[13.314502,52.63089],"type":"Point"},"properties":{"osm_id":"4404259433","tag":{"amenity":"waste_basket"}},"type":"Feature"},
	{"geometry":{"coordinates":[13.31434,52.631048],"type":"Point"},"properties":{"osm_id":"4404259435","tag":{"amenity":"waste_basket"}},"type":"Feature"},
	{"geometry":{"coordinates":[13.314303,52.630896],"type":"Point"},"properties":{"osm_id":"4404259437","tag":{"amenity":"waste_basket"}},"type":"Feature"},
	{"geometry":{"coordinates":[13.313202,52.630689],"type":"Point"},"properties":{"osm_id":"4405677862","tag":{"amenity":"waste_basket"}},"type":"Feature"},
	{"geometry":{"coordinates":[13.317103,52.631027],"type":"Point"},"properties":{"osm_id":"4405677876","tag":{"amenity":"waste_basket"}},"type":"Feature"},
	{"geometry":{"coordinates":[13.316726,52.631263],"type":"Point"},"properties":{"osm_id":"4405677881","tag":{"amenity":"waste_basket"}},"type":"Feature"},
	{"geometry":{"coordinates":[13.311267,52.633486],"type":"Point"},"properties":{"osm_id":"4409432808","tag":{"amenity":"waste_basket"}},"type":"Feature"},
	{"geometry":{"coordinates":[13.311009,52.633181],"type":"Point"},"properties":{"osm_id":"4409465405","tag":{"amenity":"waste_basket"}},"type":"Feature"},
	{"geometry":{"coordinates":[13.31152,52.633765],"type":"Point"},"properties":{"osm_id":"4409571991","tag":{"amenity":"waste_basket"}},"type":"Feature"},
	{"geometry":{"coordinates":[13.319289,52.630539],"type":"Point"},"properties":{"osm_id":"4410545076","tag":{"amenity":"waste_basket","colour":"grey","material":"steel","waste":"mixed"}},"type":"Feature"},
	{"geometry":{"coordinates":[13.310595,52.630396],"type":"Point"},"properties":{"osm_id":"4418911390","tag":{"amenity":"waste_basket"}},"type":"Feature"},
	{"geometry":{"coordinates":[13.310729,52.629483],"type":"Point"},"properties":{"osm_id":"4418927189","tag":{"amenity":"waste_basket"}},"type":"Feature"},
	{"geometry":{"coordinates":[13.330077,52.63089],"type":"Point"},"properties":{"osm_id":"4425697983","tag":{"amenity":"waste_basket"}},"type":"Feature"},
	{"geometry":{"coordinates":[13.330531,52.630904],"type":"Point"},"properties":{"osm_id":"4425698290","tag":{"amenity":"waste_basket"}},"type":"Feature"},
	{"geometry":{"coordinates":[13.330515,52.630786],"type":"Point"},"properties":{"osm_id":"4425698291","tag":{"amenity":"waste_basket"}},"type":"Feature"},
	{"geometry":{"coordinates":[13.317466,52.630985],"type":"Point"},"properties":{"osm_id":"4435948803","tag":{"amenity":"waste_basket"}},"type":"Feature"},
	{"geometry":{"coordinates":[13.328535,52.639162],"type":"Point"},"properties":{"osm_id":"4436010942","tag":{"amenity":"waste_basket"}},"type":"Feature"},
	{"geometry":{"coordinates":[13.332657,52.637851],"type":"Point"},"properties":{"osm_id":"4436010955","tag":{"amenity":"waste_basket"}},"type":"Feature"},
	{"geometry":{"coordinates":[13.332441,52.633173],"type":"Point"},"properties":{"osm_id":"4436010959","tag":{"amenity":"waste_basket"}},"type":"Feature"},
	{"geometry":{"coordinates":[13.325827,52.636408],"type":"Point"},"properties":{"osm_id":"4436010960","tag":{"amenity":"waste_basket"}},"type":"Feature"},
	{"geometry":{"coordinates":[13.31811,52.635316],"type":"Point"},"properties":{"osm_id":"4463120092","tag":{"amenity":"waste_basket"}},"type":"Feature"},
	{"geometry":{"coordinates":[13.339691,52.622724],"type":"Point"},"properties":{"osm_id":"4841123688","tag":{"amenity":"waste_basket","colour":"grey","material":"steel","waste":"mixed"}},"type":"Feature"},
	{"geometry":{"coordinates":[13.292161,52.601379],"type":"Point"},"properties":{"osm_id":"4875761644","tag":{"amenity":"waste_basket"}},"type":"Feature"},
	{"geometry":{"coordinates":[13.318155,52.636641],"type":"Point"},"properties":{"osm_id":"4894313976","tag":{"amenity":"waste_basket"}},"type":"Feature"},
	{"geometry":{"coordinates":[13.336649,52.634097],"type":"Point"},"properties":{"osm_id":"4908075250","tag":{"amenity":"waste_basket"}},"type":"Feature"},
	{"geometry":{"coordinates":[13.33024,52.635173],"type":"Point"},"properties":{"osm_id":"4908075251","tag":{"amenity":"waste_basket"}},"type":"Feature"},
	{"geometry":{"coordinates":[13.321547,52.634737],"type":"Point"},"properties":{"osm_id":"4908075252","tag":{"amenity":"waste_basket"}},"type":"Feature"},
	{"geometry":{"coordinates":[13.332774,52.62474],"type":"Point"},"properties":{"osm_id":"4938366358","tag":{"amenity":"waste_basket"}},"type":"Feature"},
	{"geometry":{"coordinates":[13.303061,52.620083],"type":"Point"},"properties":{"osm_id":"5005993922","tag":{"amenity":"waste_basket"}},"type":"Feature"},
	{"geometry":{"coordinates":[13.302923,52.620059],"type":"Point"},"properties":{"osm_id":"5005993923","tag":{"amenity":"waste_basket"}},"type":"Feature"},
	{"geometry":{"coordinates":[13.282486,52.600937],"type":"Point"},"properties":{"osm_id":"5005993928","tag":{"amenity":"waste_basket"}},"type":"Feature"},
	{"geometry":{"coordinates":[13.282641,52.601081],"type":"Point"},"properties":{"osm_id":"5005993929","tag":{"amenity":"waste_basket"}},"type":"Feature"},
	{"geometry":{"coordinates":[13.291526,52.605258],"type":"Point"},"properties":{"osm_id":"5005993930","tag":{"amenity":"waste_basket"}},"type":"Feature"},
	{"geometry":{"coordinates":[13.291369,52.605411],"type":"Point"},"properties":{"osm_id":"5005993931","tag":{"amenity":"waste_basket"}},"type":"Feature"},
	{"geometry":{"coordinates":[13.292217,52.607768],"type":"Point"},"properties":{"osm_id":"5005993932","tag":{"amenity":"waste_basket"}},"type":"Feature"},
	{"geometry":{"coordinates":[13.292249,52.607925],"type":"Point"},"properties":{"osm_id":"5005993933","tag":{"amenity":"waste_basket"}},"type":"Feature"},
	{"geometry":{"coordinates":[13.295692,52.610681],"type":"Point"},"properties":{"osm_id":"5005993934","tag":{"amenity":"waste_basket"}},"type":"Feature"},
	{"geometry":{"coordinates":[13.295342,52.610456],"type":"Point"},"properties":{"osm_id":"5005993935","tag":{"amenity":"waste_basket"}},"type":"Feature"},
	{"geometry":{"coordinates":[13.299609,52.614898],"type":"Point"},"properties":{"osm_id":"5005993936","tag":{"amenity":"waste_basket"}},"type":"Feature"},
	{"geometry":{"coordinates":[13.301583,52.617036],"type":"Point"},"properties":{"osm_id":"5005993937","tag":{"amenity":"waste_basket"}},"type":"Feature"},
	{"geometry":{"coordinates":[13.301633,52.616917],"type":"Point"},"properties":{"osm_id":"5005993938","tag":{"amenity":"waste_basket"}},"type":"Feature"},
	{"geometry":{"coordinates":[13.301835,52.617143],"type":"Point"},"properties":{"osm_id":"5005993939","tag":{"amenity":"waste_basket"}},"type":"Feature"},
	{"geometry":{"coordinates":[13.302856,52.618161],"type":"Point"},"properties":{"osm_id":"5005993940","tag":{"amenity":"waste_basket"}},"type":"Feature"},
	{"geometry":{"coordinates":[13.303782,52.619129],"type":"Point"},"properties":{"osm_id":"5005993941","tag":{"amenity":"waste_basket"}},"type":"Feature"},
	{"geometry":{"coordinates":[13.338445,52.631702],"type":"Point"},"properties":{"osm_id":"5005993943","tag":{"amenity":"waste_basket"}},"type":"Feature"},
	{"geometry":{"coordinates":[13.330648,52.625562],"type":"Point"},"properties":{"name":"Hunde-Toilette","osm_id":"5005993944","tag":{"amenity":"waste_basket"}},"type":"Feature"},
	{"geometry":{"coordinates":[13.337524,52.622169],"type":"Point"},"properties":{"osm_id":"5005993945","tag":{"amenity":"waste_basket","colour":"grey","material":"steel","waste":"mixed"}},"type":"Feature"},
	{"geometry":{"coordinates":[13.341091,52.622778],"type":"Point"},"properties":{"osm_id":"5005993946","tag":{"amenity":"waste_basket","colour":"grey","material":"steel","waste":"mixed"}},"type":"Feature"},
	{"geometry":{"coordinates":[13.340187,52.6343],"type":"Point"},"properties":{"osm_id":"5121788886","tag":{"amenity":"waste_basket"}},"type":"Feature"},
	{"geometry":{"coordinates":[13.297121,52.625574],"type":"Point"},"properties":{"osm_id":"5148605301","tag":{"amenity":"waste_basket"}},"type":"Feature"},
	{"geometry":{"coordinates":[13.295427,52.62545],"type":"Point"},"properties":{"osm_id":"5148605303","tag":{"amenity":"waste_basket"}},"type":"Feature"},
	{"geometry":{"coordinates":[13.293075,52.625958],"type":"Point"},"properties":{"osm_id":"5148605306","tag":{"amenity":"recycling","recycling:clothes":"yes","recycling_type":"container"}},"type":"Feature"},
	{"geometry":{"coordinates":[13.315268,52.634792],"type":"Point"},"properties":{"osm_id":"5339765033","tag":{"amenity":"waste_basket"}},"type":"Feature"},
	{"geometry":{"coordinates":[13.317767,52.631385],"type":"Point"},"properties":{"osm_id":"5495020363","tag":{"amenity":"waste_basket"}},"type":"Feature"},
	{"geometry":{"coordinates":[13.347621,52.602826],"type":"Point"},"properties":{"osm_id":"5680153678","tag":{"amenity":"waste_basket","waste":"trash"}},"type":"Feature"},
	{"geometry":{"coordinates":[13.347582,52.602801],"type":"Point"},"properties":{"osm_id":"5680153679","tag":{"amenity":"waste_basket","waste":"trash"}},"type":"Feature"},
	{"geometry":{"coordinates":[13.31069,52.631538],"type":"Point"},"properties":{"osm_id":"5718687148","tag":{"amenity":"waste_basket"}},"type":"Feature"},
	{"geometry":{"coordinates":[13.318823,52.635392],"type":"Point"},"properties":{"osm_id":"5718687154","tag":{"amenity":"waste_basket"}},"type":"Feature"},
	{"geometry":{"coordinates":[13.318824,52.635337],"type":"Point"},"properties":{"osm_id":"5718687156","tag":{"amenity":"waste_basket"}},"type":"Feature"},
	{"geometry":{"coordinates":[13.317165,52.632968],"type":"Point"},"properties":{"osm_id":"5741311047","tag":{"amenity":"waste_basket","backrest":"yes","colour":"grey","material":"steel","waste":"mixed"}},"type":"Feature"},
	{"geometry":{"coordinates":[13.318467,52.633099],"type":"Point"},"properties":{"osm_id":"5741311052","tag":{"amenity":"waste_basket","colour":"grey","material":"steel","waste":"mixed"}},"type":"Feature"},
	{"geometry":{"coordinates":[13.337682,52.627687],"type":"Point"},"properties":{"osm_id":"5741318286","tag":{"amenity":"waste_basket"}},"type":"Feature"},
	{"geometry":{"coordinates":[13.329235,52.590988],"type":"Point"},"properties":{"osm_id":"5745419093","tag":{"amenity":"waste_basket"}},"type":"Feature"},
	{"geometry":{"coordinates":[13.276123,52.592793],"type":"Point"},"properties":{"osm_id":"6019010082","tag":{"amenity":"recycling","recycling:clothes":"yes","recycling_type":"container"}},"type":"Feature"},
	{"geometry":{"coordinates":[13.285541,52.59223],"type":"Point"},"properties":{"osm_id":"6053088456","tag":{"amenity":"recycling","operator":"Deutsches Rotes Kreuz","recycling:clothes":"yes","recycling_type":"container"}},"type":"Feature"},
	{"geometry":{"coordinates":[13.285392,52.592861],"type":"Point"},"properties":{"osm_id":"6053091357","tag":{"amenity":"recycling","opening_hours":"Mo-Sa 07:00-13:00, 15:00-20:00","operator":"Karl Meyer Rohstoffverwertung GmbH","recycling:glass_bottles":"yes","recycling_type":"container"}},"type":"Feature"},
	{"geometry":{"coordinates":[13.316502,52.632425],"type":"Point"},"properties":{"osm_id":"6080790558","tag":{"amenity":"waste_basket"}},"type":"Feature"},
	{"geometry":{"coordinates":[13.316449,52.633005],"type":"Point"},"properties":{"osm_id":"6080790564","tag":{"amenity":"waste_basket","colour":"grey","material":"steel","waste":"mixed"}},"type":"Feature"},
	{"geometry":{"coordinates":[13.295484,52.624286],"type":"Point"},"properties":{"osm_id":"6080845420","tag":{"amenity":"waste_basket"}},"type":"Feature"},
	{"geometry":{"coordinates":[13.342512,52.627334],"type":"Point"},"properties":{"osm_id":"6081008649","tag":{"amenity":"waste_basket"}},"type":"Feature"},
	{"geometry":{"coordinates":[13.34115,52.627592],"type":"Point"},"properties":{"osm_id":"6081008650","tag":{"amenity":"waste_basket"}},"type":"Feature"},
	{"geometry":{"coordinates":[13.293728,52.624903],"type":"Point"},"properties":{"osm_id":"6082587749","tag":{"amenity":"waste_basket"}},"type":"Feature"},
	{"geometry":{"coordinates":[13.293182,52.624815],"type":"Point"},"properties":{"osm_id":"6082587752","tag":{"amenity":"waste_basket"}},"type":"Feature"},
	{"geometry":{"coordinates":[13.293227,52.624657],"type":"Point"},"properties":{"osm_id":"6082587754","tag":{"amenity":"waste_basket"}},"type":"Feature"},
	{"geometry":{"coordinates":[13.292878,52.62476],"type":"Point"},"properties":{"osm_id":"6082587757","tag":{"amenity":"waste_basket"}},"type":"Feature"},
	{"geometry":{"coordinates":[13.292489,52.624701],"type":"Point"},"properties":{"osm_id":"6082587759","tag":{"amenity":"waste_basket"}},"type":"Feature"},
	{"geometry":{"coordinates":[13.292943,52.624603],"type":"Point"},"properties":{"osm_id":"6082587762","tag":{"amenity":"waste_basket"}},"type":"Feature"},
	{"geometry":{"coordinates":[13.292552,52.624534],"type":"Point"},"properties":{"osm_id":"6082587764","tag":{"amenity":"waste_basket"}},"type":"Feature"},
	{"geometry":{"coordinates":[13.292739,52.625092],"type":"Point"},"properties":{"osm_id":"6082587766","tag":{"amenity":"waste_basket"}},"type":"Feature"},
	{"geometry":{"coordinates":[13.29243,52.625279],"type":"Point"},"properties":{"osm_id":"6082587768","tag":{"amenity":"waste_basket"}},"type":"Feature"},
	{"geometry":{"coordinates":[13.292532,52.625552],"type":"Point"},"properties":{"osm_id":"6082587772","tag":{"amenity":"waste_basket"}},"type":"Feature"},
	{"geometry":{"coordinates":[13.319935,52.619909],"type":"Point"},"properties":{"osm_id":"6416525146","tag":{"amenity":"waste_basket","colour":"green","material":"steel","waste":"mixed"}},"type":"Feature"},
	{"geometry":{"coordinates":[13.324783,52.622481],"type":"Point"},"properties":{"osm_id":"6416555536","tag":{"amenity":"waste_basket"}},"type":"Feature"},
	{"geometry":{"coordinates":[13.329145,52.622305],"type":"Point"},"properties":{"osm_id":"6416555709","tag":{"amenity":"waste_basket"}},"type":"Feature"},
	{"geometry":{"coordinates":[13.330338,52.62425],"type":"Point"},"properties":{"osm_id":"6416556003","tag":{"amenity":"waste_basket"}},"type":"Feature"},
	{"geometry":{"coordinates":[13.331693,52.614401],"type":"Point"},"properties":{"osm_id":"6419560907","tag":{"amenity":"waste_basket"}},"type":"Feature"},
	{"geometry":{"coordinates":[13.320906,52.614662],"type":"Point"},"properties":{"osm_id":"6419560932","tag":{"amenity":"waste_basket"}},"type":"Feature"},
	{"geometry":{"coordinates":[13.332848,52.619233],"type":"Point"},"properties":{"osm_id":"6419561342","tag":{"amenity":"waste_basket","colour":"green","material":"steel","waste":"mixed"}},"type":"Feature"},
	{"geometry":{"coordinates":[13.32144,52.62191],"type":"Point"},"properties":{"osm_id":"6419561343","tag":{"amenity":"waste_basket","colour":"grey","material":"steel","waste":"mixed"}},"type":"Feature"},
	{"geometry":{"coordinates":[13.321114,52.614374],"type":"Point"},"properties":{"osm_id":"6419561346","tag":{"amenity":"waste_basket"}},"type":"Feature"},
	{"geometry":{"coordinates":[13.323423,52.612532],"type":"Point"},"properties":{"osm_id":"6419561389","tag":{"amenity":"waste_basket","colour":"green","material":"steel","waste":"mixed"}},"type":"Feature"},
	{"geometry":{"coordinates":[13.32955,52.604959],"type":"Point"},"properties":{"osm_id":"6420436208","tag":{"amenity":"waste_basket"}},"type":"Feature"},
	{"geometry":{"coordinates":[13.329533,52.604694],"type":"Point"},"properties":{"osm_id":"6420436209","tag":{"amenity":"waste_basket"}},"type":"Feature"},
	{"geometry":{"coordinates":[13.33508,52.605537],"type":"Point"},"properties":{"osm_id":"6421684827","tag":{"amenity":"waste_basket"}},"type":"Feature"},
	{"geometry":{"coordinates":[13.334538,52.605601],"type":"Point"},"properties":{"osm_id":"6421687306","tag":{"amenity":"waste_basket"}},"type":"Feature"},
	{"geometry":{"coordinates":[13.334439,52.605509],"type":"Point"},"properties":{"osm_id":"6421687818","tag":{"amenity":"waste_basket"}},"type":"Feature"},
	{"geometry":{"coordinates":[13.33961,52.608008],"type":"Point"},"properties":{"osm_id":"6421697466","tag":{"amenity":"waste_basket"}},"type":"Feature"},
	{"geometry":{"coordinates":[13.341924,52.609202],"type":"Point"},"properties":{"osm_id":"6421706035","tag":{"amenity":"waste_basket"}},"type":"Feature"},
	{"geometry":{"coordinates":[13.343346,52.60961],"type":"Point"},"properties":{"osm_id":"6421709351","tag":{"amenity":"waste_basket"}},"type":"Feature"},
	{"geometry":{"coordinates":[13.343861,52.610495],"type":"Point"},"properties":{"osm_id":"6421726244","tag":{"amenity":"waste_basket"}},"type":"Feature"},
	{"geometry":{"coordinates":[13.342115,52.610595],"type":"Point"},"properties":{"osm_id":"6421727827","tag":{"amenity":"waste_basket"}},"type":"Feature"},
	{"geometry":{"coordinates":[13.341955,52.609878],"type":"Point"},"properties":{"osm_id":"6421731124","tag":{"amenity":"waste_basket"}},"type":"Feature"},
	{"geometry":{"coordinates":[13.341578,52.60971],"type":"Point"},"properties":{"osm_id":"6421740764","tag":{"amenity":"waste_basket"}},"type":"Feature"},
	{"geometry":{"coordinates":[13.347683,52.590001],"type":"Point"},"properties":{"osm_id":"6747267957","tag":{"amenity":"waste_basket"}},"type":"Feature"},
	{"geometry":{"coordinates":[13.349257,52.615783],"type":"Point"},"properties":{"osm_id":"7044583351","tag":{"amenity":"waste_basket","colour":"orange","mapillary":"CWthwmy5_IrFcCacx-BLfA","operator":"BSR","support":"pole","waste":"trash"}},"type":"Feature"},
	{"geometry":{"coordinates":[13.327735,52.628274],"type":"Point"},"properties":{"osm_id":"7481740697","tag":{"amenity":"waste_basket","colour":"grey","material":"steel"}},"type":"Feature"},
	{"geometry":{"coordinates":[13.319338,52.629652],"type":"Point"},"properties":{"osm_id":"7632418566","tag":{"amenity":"waste_basket","colour":"grey","material":"steel","waste":"mixed"}},"type":"Feature"},
	{"geometry":{"coordinates":[13.317442,52.616226],"type":"Point"},"properties":{"osm_id":"7681833946","tag":{"amenity":"waste_basket","colour":"green","material":"steel","waste":"mixed"}},"type":"Feature"},
	{"geometry":{"coordinates":[13.319154,52.615079],"type":"Point"},"properties":{"osm_id":"7681833961","tag":{"amenity":"waste_basket","colour":"orange","material":"plastic","waste":"mixed"}},"type":"Feature"},
	{"geometry":{"coordinates":[13.356152,52.620329],"type":"Point"},"properties":{"osm_id":"7682884810","tag":{"amenity":"waste_basket","colour":"orange","material":"plastic","waste":"mixed"}},"type":"Feature"},
	{"geometry":{"coordinates":[13.313026,52.589714],"type":"Point"},"properties":{"osm_id":"7685727178","tag":{"amenity":"waste_basket"}},"type":"Feature"},
	{"geometry":{"coordinates":[13.31116,52.590117],"type":"Point"},"properties":{"osm_id":"7685750495","tag":{"amenity":"waste_basket"}},"type":"Feature"},
	{"geometry":{"coordinates":[13.296806,52.594997],"type":"Point"},"properties":{"osm_id":"7685767722","tag":{"amenity":"waste_basket"}},"type":"Feature"},
	{"geometry":{"coordinates":[13.31775,52.639922],"type":"Point"},"properties":{"osm_id":"7690113153","tag":{"amenity":"waste_basket","colour":"black","material":"steel","vending":"excrement_bags","waste":"mixed"}},"type":"Feature"},
	{"geometry":{"coordinates":[13.314823,52.629048],"type":"Point"},"properties":{"osm_id":"7692942293","tag":{"amenity":"waste_basket","waste":"dog_excrement"}},"type":"Feature"},
	{"geometry":{"coordinates":[13.32205,52.616765],"type":"Point"},"properties":{"osm_id":"7697779189","tag":{"amenity":"waste_basket","colour":"green","material":"steel","waste":"mixed"}},"type":"Feature"},
	{"geometry":{"coordinates":[13.338895,52.631672],"type":"Point"},"properties":{"osm_id":"7700854892","tag":{"amenity":"waste_basket","colour":"grey","material":"steel","vending":"excrement_bags","waste":"mixed"}},"type":"Feature"},
	{"geometry":{"coordinates":[13.313618,52.634634],"type":"Point"},"properties":{"osm_id":"7708165677","tag":{"amenity":"waste_basket","colour":"grey","material":"steel","vending":"excrement_bags","waste":"mixed"}},"type":"Feature"},
	{"geometry":{"coordinates":[13.323122,52.630329],"type":"Point"},"properties":{"osm_id":"7708243707","tag":{"amenity":"waste_basket","colour":"green","material":"steel","waste":"mixed"}},"type":"Feature"},
	{"geometry":{"coordinates":[13.318571,52.630816],"type":"Point"},"properties":{"osm_id":"7788244911","tag":{"amenity":"waste_basket","colour":"brown","material":"wood","waste":"mixed"}},"type":"Feature"}
]
}
