{
"type": "FeatureCollection",
"features": [
	{"geometry":{"coordinates":[13.332483,52.567935],"type":"Point"},"properties":{"osm_id":"274927659","tag":{"amenity":"waste_disposal"}},"type":"Feature"},
	{"geometry":{"coordinates":[13.334909,52.569521],"type":"Point"},"properties":{"osm_id":"274927670","tag":{"amenity":"waste_disposal"}},"type":"Feature"},
	{"geometry":{"coordinates":[13.333036,52.567639],"type":"Point"},"properties":{"osm_id":"277436597","tag":{"amenity":"waste_disposal"}},"type":"Feature"},
	{"geometry":{"coordinates":[13.333896,52.567529],"type":"Point"},"properties":{"osm_id":"277437556","tag":{"amenity":"waste_disposal"}},"type":"Feature"},
	{"geometry":{"coordinates":[13.335517,52.567296],"type":"Point"},"properties":{"osm_id":"277437557","tag":{"amenity":"waste_disposal"}},"type":"Feature"},
	{"geometry":{"coordinates":[13.336141,52.567318],"type":"Point"},"properties":{"osm_id":"277437559","tag":{"amenity":"waste_disposal"}},"type":"Feature"},
	{"geometry":{"coordinates":[13.334352,52.567172],"type":"Point"},"properties":{"osm_id":"277437564","tag":{"amenity":"waste_disposal"}},"type":"Feature"},
	{"geometry":{"coordinates":[13.357438,52.545064],"type":"Point"},"properties":{"osm_id":"339810584","tag":{"amenity":"recycling","brown":"yes","green":"yes","operator":"Karl Meyer","recycling:glass_bottles":"yes","recycling_type":"container","white":"yes"}},"type":"Feature"},
	{"geometry":{"coordinates":[13.354584,52.547662],"type":"Point"},"properties":{"osm_id":"343393357","tag":{"amenity":"recycling","brown":"yes","green":"yes","recycling:glass_bottles":"yes","recycling_type":"container","white":"yes"}},"type":"Feature"},
	{"geometry":{"coordinates":[13.33226,52.561448],"type":"Point"},"properties":{"osm_id":"374184467","tag":{"amenity":"recycling","location":"overground","recycling:glass_bottles":"yes","recycling_type":"container"}},"type":"Feature"},
	{"geometry":{"coordinates":[13.345731,52.552297],"type":"Point"},"properties":{"osm_id":"434345978","tag":{"amenity":"recycling","opening_hours":"Mo-Sa 07:00-13:00, 15:00-20:00","recycling:glass_bottles":"yes","recycling_type":"container"}},"type":"Feature"},
	{"geometry":{"coordinates":[13.339379,52.557407],"type":"Point"},"properties":{"osm_id":"459786552","tag":{"amenity":"recycling","recycling:glass_bottles":"yes","recycling_type":"container"}},"type":"Feature"},
	{"geometry":{"coordinates":[13.358958,52.539727],"type":"Point"},"properties":{"osm_id":"530568687","tag":{"amenity":"recycling","brown":"yes","green":"yes","recycling:glass_bottles":"yes","recycling_type":"container","white":"yes"}},"type":"Feature"},
	{"geometry":{"coordinates":[13.35523,52.543822],"type":"Point"},"properties":{"osm_id":"530715897","tag":{"amenity":"recycling","brown":"no","green":"yes","recycling:glass_bottles":"yes","recycling_type":"container","white":"yes"}},"type":"Feature"},
	{"geometry":{"coordinates":[13.356204,52.543399],"type":"Point"},"properties":{"osm_id":"530715899","tag":{"amenity":"recycling","recycling:clothes":"yes","recycling:shoes":"yes","recycling_type":"container"}},"type":"Feature"},
	{"geometry":{"coordinates":[13.358254,52.543825],"type":"Point"},"properties":{"osm_id":"530715914","tag":{"amenity":"recycling","recycling:clothes":"yes","recycling:shoes":"yes","recycling_type":"container"}},"type":"Feature"},
	{"geometry":{"coordinates":[13.353084,52.541332],"type":"Point"},"properties":{"osm_id":"562662738","tag":{"amenity":"recycling","brown":"yes","green":"yes","recycling:glass_bottles":"yes","recycling_type":"container","white":"yes"}},"type":"Feature"},
	{"geometry":{"coordinates":[13.352616,52.544729],"type":"Point"},"properties":{"osm_id":"563960933","tag":{"amenity":"waste_basket"}},"type":"Feature"},
	{"geometry":{"coordinates":[13.354788,52.555521],"type":"Point"},"properties":{"osm_id":"687128324","tag":{"amenity":"waste_basket"}},"type":"Feature"},
	{"geometry":{"coordinates":[13.349913,52.542037],"type":"Point"},"properties":{"osm_id":"762607349","tag":{"amenity":"recycling","operator":"Familienschutzwerk","recycling:clothes":"yes","recycling_type":"container"}},"type":"Feature"},
	{"geometry":{"coordinates":[13.349944,52.542007],"type":"Point"},"properties":{"osm_id":"762607352","tag":{"amenity":"recycling","operator":"Karl Meyer Rohstoffverwertung","recycling:glass_bottles":"yes","recycling_type":"container"}},"type":"Feature"},
	{"geometry":{"coordinates":[13.354444,52.575977],"type":"Point"},"properties":{"osm_id":"831530053","tag":{"amenity":"recycling","operator":"Humana","recycling:clothes":"yes"}},"type":"Feature"},
	{"geometry":{"coordinates":[13.307427,52.574237],"type":"Point"},"properties":{"barrier":"gate","osm_id":"1079548046"},"type":"Feature"},
	{"geometry":{"coordinates":[13.307685,52.574527],"type":"Point"},"properties":{"barrier":"gate","osm_id":"1079548103"},"type":"Feature"},
	{"geometry":{"coordinates":[13.310237,52.571708],"type":"Point"},"properties":{"osm_id":"1168914557","tag":{"access":"private","amenity":"recycling"}},"type":"Feature"},
	{"geometry":{"coordinates":[13.343537,52.546702],"type":"Point"},"properties":{"osm_id":"1192976670","tag":{"amenity":"waste_basket"}},"type":"Feature"},
	{"geometry":{"coordinates":[13.355613,52.543256],"type":"Point"},"properties":{"osm_id":"1211767949","tag":{"amenity":"recycling","recycling:clothes":"yes","recycling:shoes":"yes","recycling_type":"container"}},"type":"Feature"},
	{"geometry":{"coordinates":[13.358245,52.539612],"type":"Point"},"properties":{"osm_id":"1217150849","tag":{"amenity":"recycling","recycling:clothes":"yes","recycling:shoes":"yes","recycling_type":"container"}},"type":"Feature"},
	{"geometry":{"coordinates":[13.354082,52.545436],"type":"Point"},"properties":{"osm_id":"1293267178","tag":{"amenity":"waste_basket"}},"type":"Feature"},
	{"geometry":{"coordinates":[13.354724,52.545518],"type":"Point"},"properties":{"osm_id":"1293267218","tag":{"amenity":"waste_basket"}},"type":"Feature"},
	{"geometry":{"coordinates":[13.355177,52.545722],"type":"Point"},"properties":{"osm_id":"1293267257","tag":{"amenity":"waste_basket"}},"type":"Feature"},
	{"geometry":{"coordinates":[13.351113,52.54366],"type":"Point"},"properties":{"osm_id":"1298353195","tag":{"amenity":"waste_basket"}},"type":"Feature"},
	{"geometry":{"coordinates":[13.351499,52.543476],"type":"Point"},"properties":{"osm_id":"1298412237","tag":{"amenity":"waste_basket"}},"type":"Feature"},
	{"geometry":{"coordinates":[13.35192,52.543274],"type":"Point"},"properties":{"osm_id":"1298412242","tag":{"amenity":"waste_basket"}},"type":"Feature"},
	{"geometry":{"coordinates":[13.271961,52.541938],"type":"Point"},"properties":{"osm_id":"1409737001","tag":{"amenity":"recycling","recycling:clothes":"yes"}},"type":"Feature"},
	{"geometry":{"coordinates":[13.271677,52.541798],"type":"Point"},"properties":{"osm_id":"1409737043","tag":{"amenity":"recycling","recycling:clothes":"yes"}},"type":"Feature"},
	{"geometry":{"coordinates":[13.279543,52.537572],"type":"Point"},"properties":{"osm_id":"1570571941","ref":"Heilmannring 2B gg\u00c3\u00bc. Ecke Toeplerstr.","tag":{"amenity":"recycling","recycling:glass_bottles":"yes","recycling_type":"container"}},"type":"Feature"},
	{"geometry":{"coordinates":[13.299948,52.539454],"type":"Point"},"properties":{"osm_id":"1570571950","tag":{"amenity":"recycling","operator":"Rhenus","recycling:glass_bottles":"yes","recycling_type":"container"}},"type":"Feature"},
	{"geometry":{"coordinates":[13.31138,52.539419],"type":"Point"},"properties":{"osm_id":"1570571951","ref":"Heckerdamm 178 / gg\u00c3\u00bc. Kolonie Dreilinden","tag":{"amenity":"recycling","operator":"Karl Meyer Rohstoffverwertung","recycling:glass_bottles":"yes","recycling_type":"container"}},"type":"Feature"},
	{"geometry":{"coordinates":[13.357358,52.549599],"type":"Point"},"properties":{"osm_id":"1659884038","tag":{"amenity":"recycling","operator":"Haytex Textilrecycling","recycling:clothes":"yes"}},"type":"Feature"},
	{"geometry":{"coordinates":[13.341969,52.552269],"type":"Point"},"properties":{"osm_id":"1989446445","tag":{"amenity":"waste_basket"}},"type":"Feature"},
	{"geometry":{"coordinates":[13.341576,52.552051],"type":"Point"},"properties":{"osm_id":"1989446447","tag":{"amenity":"waste_basket"}},"type":"Feature"},
	{"geometry":{"coordinates":[13.340875,52.551568],"type":"Point"},"properties":{"osm_id":"1989449966","tag":{"amenity":"waste_basket"}},"type":"Feature"},
	{"geometry":{"coordinates":[13.342549,52.549989],"type":"Point"},"properties":{"osm_id":"1989459855","tag":{"amenity":"recycling","recycling:glass_bottles":"yes","recycling_type":"container"}},"type":"Feature"},
	{"geometry":{"coordinates":[13.342254,52.550122],"type":"Point"},"properties":{"osm_id":"1989459994","tag":{"amenity":"waste_basket"}},"type":"Feature"},
	{"geometry":{"coordinates":[13.344373,52.548782],"type":"Point"},"properties":{"osm_id":"1989464044","tag":{"amenity":"waste_basket"}},"type":"Feature"},
	{"geometry":{"coordinates":[13.357599,52.574358],"type":"Point"},"properties":{"osm_id":"2021286661","tag":{"amenity":"waste_basket"}},"type":"Feature"},
	{"geometry":{"coordinates":[13.35727,52.574347],"type":"Point"},"properties":{"osm_id":"2021286662","tag":{"amenity":"recycling","recycling:clothes":"yes","recycling_type":"container"}},"type":"Feature"},
	{"geometry":{"coordinates":[13.354499,52.574899],"type":"Point"},"properties":{"osm_id":"2021286669","tag":{"amenity":"waste_basket"}},"type":"Feature"},
	{"geometry":{"coordinates":[13.353206,52.575121],"type":"Point"},"properties":{"osm_id":"2021286670","tag":{"amenity":"waste_basket"}},"type":"Feature"},
	{"geometry":{"coordinates":[13.30808,52.572729],"type":"Point"},"properties":{"highway":"street_lamp","osm_id":"2158525151","tag":{"amenity":"waste_basket"}},"type":"Feature"},
	{"geometry":{"coordinates":[13.305739,52.575224],"type":"Point"},"properties":{"highway":"street_lamp","osm_id":"2158525160","ref":"24","tag":{"amenity":"waste_basket"}},"type":"Feature"},
	{"geometry":{"coordinates":[13.307446,52.575976],"type":"Point"},"properties":{"osm_id":"2159902244","tag":{"amenity":"waste_basket"}},"type":"Feature"},
	{"geometry":{"coordinates":[13.306985,52.572512],"type":"Point"},"properties":{"osm_id":"2283844283","tag":{"amenity":"waste_basket"}},"type":"Feature"},
	{"geometry":{"coordinates":[13.306849,52.5744],"type":"Point"},"properties":{"osm_id":"2284316170","tag":{"amenity":"waste_basket"}},"type":"Feature"},
	{"geometry":{"coordinates":[13.345628,52.539811],"type":"Point"},"properties":{"osm_id":"2299789188","tag":{"amenity":"recycling","operator":"Altkleiderfirma Narg\u00c3\u00bcl","recycling:clothes":"yes","recycling_type":"container"}},"type":"Feature"},
	{"geometry":{"coordinates":[13.325491,52.589092],"type":"Point"},"properties":{"osm_id":"2423004585","tag":{"amenity":"recycling","recycling:glass_bottles":"yes","recycling_type":"container"}},"type":"Feature"},
	{"geometry":{"coordinates":[13.30834,52.572121],"type":"Point"},"properties":{"osm_id":"2458196842","tag":{"amenity":"recycling","recycling:glass_bottles":"yes","recycling_type":"container"}},"type":"Feature"},
	{"geometry":{"coordinates":[13.30809,52.572192],"type":"Point"},"properties":{"osm_id":"2458196843","tag":{"amenity":"recycling","operator":"Deutsches Rotes Kreuz","recycling:clothes":"yes","recycling_type":"container"}},"type":"Feature"},
	{"geometry":{"coordinates":[13.273767,52.573139],"type":"Point"},"properties":{"osm_id":"2462156056","tag":{"amenity":"recycling","recycling:clothes":"yes","recycling_type":"container"}},"type":"Feature"},
	{"geometry":{"coordinates":[13.356793,52.542259],"type":"Point"},"properties":{"osm_id":"2483768471","tag":{"amenity":"waste_basket"}},"type":"Feature"},
	{"geometry":{"coordinates":[13.328955,52.564944],"type":"Point"},"properties":{"osm_id":"2494363229","tag":{"amenity":"recycling","recycling:clothes":"yes"}},"type":"Feature"},
	{"geometry":{"coordinates":[13.320531,52.57607],"type":"Point"},"properties":{"osm_id":"2498840769","tag":{"amenity":"recycling","recycling:clothes":"yes","recycling_type":"container"}},"type":"Feature"},
	{"geometry":{"coordinates":[13.307861,52.577468],"type":"Point"},"properties":{"osm_id":"2498840770","tag":{"amenity":"recycling","recycling:clothes":"yes"}},"type":"Feature"},
	{"geometry":{"coordinates":[13.284702,52.576399],"type":"Point"},"properties":{"osm_id":"2510633456","tag":{"amenity":"recycling","location":"overground","recycling:clothes":"yes","recycling_type":"container"}},"type":"Feature"},
	{"geometry":{"coordinates":[13.291192,52.576471],"type":"Point"},"properties":{"osm_id":"2510633459","tag":{"amenity":"recycling","recycling:clothes":"yes"}},"type":"Feature"},
	{"geometry":{"coordinates":[13.284695,52.576417],"type":"Point"},"properties":{"osm_id":"2510633460","tag":{"amenity":"recycling","location":"overground","recycling:clothes":"yes","recycling_type":"container"}},"type":"Feature"},
	{"geometry":{"coordinates":[13.283618,52.578682],"type":"Point"},"properties":{"osm_id":"2510633650","tag":{"amenity":"recycling","recycling:glass_bottles":"yes","recycling_type":"container"}},"type":"Feature"},
	{"geometry":{"coordinates":[13.311854,52.585031],"type":"Point"},"properties":{"osm_id":"2512623620","tag":{"amenity":"recycling","opening_hours":"24/7","recycling:glass_bottles":"yes","recycling_type":"container"}},"type":"Feature"},
	{"geometry":{"coordinates":[13.301862,52.540679],"type":"Point"},"properties":{"osm_id":"2517677624","tag":{"amenity":"recycling","recycling:white_goods":"yes","recycling_type":"container"}},"type":"Feature"},
	{"geometry":{"coordinates":[13.294718,52.587152],"type":"Point"},"properties":{"osm_id":"2627200329","tag":{"amenity":"recycling","location":"overground","recycling:clothes":"yes","recycling_type":"container"}},"type":"Feature"},
	{"geometry":{"coordinates":[13.293017,52.587237],"type":"Point"},"properties":{"osm_id":"2627200330","tag":{"amenity":"recycling","location":"overground","recycling:clothes":"yes","recycling_type":"container"}},"type":"Feature"},
	{"geometry":{"coordinates":[13.282071,52.542829],"type":"Point"},"properties":{"osm_id":"2675910162","tag":{"amenity":"waste_basket"}},"type":"Feature"},
	{"geometry":{"coordinates":[13.286818,52.542837],"type":"Point"},"properties":{"osm_id":"2676120898","tag":{"amenity":"waste_basket"}},"type":"Feature"},
	{"geometry":{"coordinates":[13.354419,52.545956],"type":"Point"},"properties":{"osm_id":"2741724671","tag":{"amenity":"waste_basket"}},"type":"Feature"},
	{"geometry":{"coordinates":[13.345552,52.546741],"type":"Point"},"properties":{"osm_id":"2756822699","tag":{"amenity":"recycling","recycling:glass_bottles":"yes","recycling_type":"container"}},"type":"Feature"},
	{"geometry":{"coordinates":[13.308125,52.586677],"type":"Point"},"properties":{"osm_id":"2777983948","tag":{"amenity":"waste_basket"}},"type":"Feature"},
	{"geometry":{"coordinates":[13.310171,52.587569],"type":"Point"},"properties":{"osm_id":"2777984174","tag":{"amenity":"waste_basket"}},"type":"Feature"},
	{"geometry":{"coordinates":[13.312435,52.58858],"type":"Point"},"properties":{"osm_id":"2777984420","tag":{"amenity":"waste_basket"}},"type":"Feature"},
	{"geometry":{"coordinates":[13.313083,52.58889],"type":"Point"},"properties":{"osm_id":"2777984430","tag":{"amenity":"waste_basket"}},"type":"Feature"},
	{"geometry":{"coordinates":[13.351511,52.542627],"type":"Point"},"properties":{"name":"BSR Abfalleimer","osm_id":"2966051777","tag":{"amenity":"waste_basket"}},"type":"Feature"},
	{"geometry":{"coordinates":[13.317919,52.568922],"type":"Point"},"properties":{"osm_id":"3030284214","tag":{"amenity":"waste_basket"}},"type":"Feature"},
	{"geometry":{"coordinates":[13.293658,52.57542],"type":"Point"},"properties":{"osm_id":"3074141224","tag":{"amenity":"recycling","location":"overground","recycling:glass_bottles":"yes","recycling_type":"container"}},"type":"Feature"},
	{"geometry":{"coordinates":[13.33319,52.580638],"type":"Point"},"properties":{"osm_id":"3153540346","tag":{"amenity":"recycling","location":"overground","recycling:clothes":"yes","recycling_type":"container"}},"type":"Feature"},
	{"geometry":{"coordinates":[13.290842,52.576549],"type":"Point"},"properties":{"osm_id":"3222408283","tag":{"amenity":"waste_basket"}},"type":"Feature"},
	{"geometry":{"coordinates":[13.301791,52.571655],"type":"Point"},"properties":{"osm_id":"3225054000","tag":{"amenity":"recycling","location":"overground","recycling:clothes":"yes","recycling_type":"container"}},"type":"Feature"},
	{"geometry":{"coordinates":[13.307382,52.571992],"type":"Point"},"properties":{"osm_id":"3267271095","tag":{"amenity":"waste_basket"}},"type":"Feature"},
	{"geometry":{"coordinates":[13.331072,52.573612],"type":"Point"},"properties":{"osm_id":"3267508181","tag":{"amenity":"recycling","recycling:clothes":"yes","recycling_type":"container"}},"type":"Feature"},
	{"geometry":{"coordinates":[13.325729,52.57383],"type":"Point"},"properties":{"osm_id":"3267508209","tag":{"amenity":"recycling","recycling:clothes":"yes","recycling_type":"container"}},"type":"Feature"},
	{"geometry":{"coordinates":[13.324708,52.57592],"type":"Point"},"properties":{"osm_id":"3267508440","tag":{"amenity":"recycling","recycling:clothes":"yes","recycling_type":"container"}},"type":"Feature"},
	{"geometry":{"coordinates":[13.313769,52.584285],"type":"Point"},"properties":{"osm_id":"3280484594","tag":{"amenity":"recycling","location":"overground","opening_hours":"Mo-Sa 07:00-13:00,15:00-20:00","operator":"Karl Meyer Rohstoffverwertung GmbH","recycling:glass_bottles":"yes","recycling_type":"container"}},"type":"Feature"},
	{"geometry":{"coordinates":[13.327859,52.569626],"type":"Point"},"properties":{"osm_id":"3308240592","tag":{"amenity":"recycling","opening_hours":"Mo-Sa 07:00-13:00,15:00-20:00","operator":"Karl Meyer Rohstoffverwertung GmbH","recycling:glass_bottles":"yes","recycling_type":"container"}},"type":"Feature"},
	{"geometry":{"coordinates":[13.300872,52.579469],"type":"Point"},"properties":{"osm_id":"3327444481","tag":{"amenity":"recycling","recycling:clothes":"yes","recycling_type":"container"}},"type":"Feature"},
	{"geometry":{"coordinates":[13.300488,52.579711],"type":"Point"},"properties":{"osm_id":"3327444483","tag":{"amenity":"recycling","location":"overground","recycling:clothes":"yes","recycling_type":"container"}},"type":"Feature"},
	{"geometry":{"coordinates":[13.290173,52.582662],"type":"Point"},"properties":{"osm_id":"3327445119","tag":{"amenity":"recycling","recycling:clothes":"yes"}},"type":"Feature"},
	{"geometry":{"coordinates":[13.295246,52.582768],"type":"Point"},"properties":{"osm_id":"3327445141","tag":{"amenity":"recycling","location":"overground","recycling:glass_bottles":"yes","recycling_type":"container"}},"type":"Feature"},
	{"geometry":{"coordinates":[13.339113,52.563169],"type":"Point"},"properties":{"osm_id":"3377058044","tag":{"amenity":"recycling","recycling:clothes":"yes","recycling:glass_bottles":"yes","recycling_type":"container"}},"type":"Feature"},
	{"geometry":{"coordinates":[13.359316,52.539413],"type":"Point"},"properties":{"osm_id":"3777205510","tag":{"amenity":"recycling","brand":"OKA Textil","operator":"OKA Textil","recycling:clothes":"yes","recycling_type":"container"}},"type":"Feature"},
	{"geometry":{"coordinates":[13.356742,52.542352],"type":"Point"},"properties":{"osm_id":"3777205526","tag":{"amenity":"recycling","recycling:clothes":"yes","recycling_type":"container"}},"type":"Feature"},
	{"geometry":{"coordinates":[13.289551,52.58844],"type":"Point"},"properties":{"osm_id":"3813049360","tag":{"amenity":"waste_basket","level":"0","operator":"DB Station&Service AG"}},"type":"Feature"},
	{"geometry":{"coordinates":[13.355996,52.546039],"type":"Point"},"properties":{"osm_id":"3830975603","tag":{"amenity":"recycling","location":"overground","recycling:clothes":"yes","recycling_type":"container"}},"type":"Feature"},
	{"geometry":{"coordinates":[13.3553,52.544372],"type":"Point"},"properties":{"osm_id":"3870727020","tag":{"amenity":"waste_basket"}},"type":"Feature"},
	{"geometry":{"coordinates":[13.354975,52.544435],"type":"Point"},"properties":{"osm_id":"3870727021","tag":{"amenity":"waste_basket"}},"type":"Feature"},
	{"geometry":{"coordinates":[13.354213,52.544563],"type":"Point"},"properties":{"osm_id":"3882371878","tag":{"amenity":"waste_basket"}},"type":"Feature"},
	{"geometry":{"coordinates":[13.354648,52.544638],"type":"Point"},"properties":{"osm_id":"3882371880","tag":{"amenity":"waste_basket"}},"type":"Feature"},
	{"geometry":{"coordinates":[13.354459,52.544718],"type":"Point"},"properties":{"osm_id":"3882371883","tag":{"amenity":"waste_basket"}},"type":"Feature"},
	{"geometry":{"coordinates":[13.352972,52.544778],"type":"Point"},"properties":{"osm_id":"3882371885","tag":{"amenity":"waste_basket"}},"type":"Feature"},
	{"geometry":{"coordinates":[13.353798,52.54489],"type":"Point"},"properties":{"osm_id":"3882371893","tag":{"amenity":"waste_basket"}},"type":"Feature"},
	{"geometry":{"coordinates":[13.354315,52.544487],"type":"Point"},"properties":{"osm_id":"3886655264","tag":{"amenity":"waste_basket"}},"type":"Feature"},
	{"geometry":{"coordinates":[13.353378,52.544338],"type":"Point"},"properties":{"osm_id":"3886771636","tag":{"amenity":"waste_basket"}},"type":"Feature"},
	{"geometry":{"coordinates":[13.35328,52.544713],"type":"Point"},"properties":{"osm_id":"3892378897","tag":{"amenity":"waste_basket"}},"type":"Feature"},
	{"geometry":{"coordinates":[13.353291,52.544913],"type":"Point"},"properties":{"osm_id":"3892378914","tag":{"amenity":"waste_basket"}},"type":"Feature"},
	{"geometry":{"coordinates":[13.351668,52.543726],"type":"Point"},"properties":{"osm_id":"3893487766","tag":{"amenity":"waste_basket"}},"type":"Feature"},
	{"geometry":{"coordinates":[13.351591,52.543749],"type":"Point"},"properties":{"osm_id":"3893487770","tag":{"amenity":"waste_basket"}},"type":"Feature"},
	{"geometry":{"coordinates":[13.35179,52.543884],"type":"Point"},"properties":{"osm_id":"3893487774","tag":{"amenity":"waste_basket"}},"type":"Feature"},
	{"geometry":{"coordinates":[13.352159,52.543635],"type":"Point"},"properties":{"osm_id":"3893500806","tag":{"amenity":"waste_basket"}},"type":"Feature"},
	{"geometry":{"coordinates":[13.316237,52.567298],"type":"Point"},"properties":{"osm_id":"3973033658","tag":{"amenity":"recycling"}},"type":"Feature"},
	{"geometry":{"coordinates":[13.334469,52.556674],"type":"Point"},"properties":{"osm_id":"3977742529","tag":{"amenity":"recycling","recycling:glass_bottles":"yes","recycling_type":"container"}},"type":"Feature"},
	{"geometry":{"coordinates":[13.331195,52.57239],"type":"Point"},"properties":{"osm_id":"3982039256","tag":{"amenity":"waste_basket"}},"type":"Feature"},
	{"geometry":{"coordinates":[13.31295,52.574894],"type":"Point"},"properties":{"osm_id":"3982039367","tag":{"amenity":"waste_basket"}},"type":"Feature"},
	{"geometry":{"coordinates":[13.331825,52.575588],"type":"Point"},"properties":{"osm_id":"3982039382","tag":{"amenity":"waste_basket"}},"type":"Feature"},
	{"geometry":{"coordinates":[13.307366,52.573025],"type":"Point"},"properties":{"osm_id":"4109873495","tag":{"amenity":"waste_basket"}},"type":"Feature"},
	{"geometry":{"coordinates":[13.330782,52.572289],"type":"Point"},"properties":{"osm_id":"4143174685","tag":{"amenity":"recycling","recycling:clothes":"yes","recycling_type":"container"}},"type":"Feature"},
	{"geometry":{"coordinates":[13.330795,52.572328],"type":"Point"},"properties":{"osm_id":"4143174686","tag":{"amenity":"recycling","recycling:glass_bottles":"yes","recycling_type":"container"}},"type":"Feature"},
	{"geometry":{"coordinates":[13.292833,52.587805],"type":"Point"},"properties":{"osm_id":"4147051983","tag":{"amenity":"recycling","recycling_type":"container"}},"type":"Feature"},
	{"geometry":{"coordinates":[13.293273,52.588103],"type":"Point"},"properties":{"osm_id":"4292828365","tag":{"amenity":"waste_basket"}},"type":"Feature"},
	{"geometry":{"coordinates":[13.353718,52.542827],"type":"Point"},"properties":{"osm_id":"4304633662","tag":{"amenity":"recycling","recycling:glass_bottles":"yes","recycling_type":"container"}},"type":"Feature"},
	{"geometry":{"coordinates":[13.351656,52.548634],"type":"Point"},"properties":{"osm_id":"4315470234","tag":{"amenity":"recycling","recycling:glass_bottles":"yes","recycling_type":"container"}},"type":"Feature"},
	{"geometry":{"coordinates":[13.307989,52.573593],"type":"Point"},"properties":{"osm_id":"4376414816","tag":{"amenity":"recycling","recycling:clothes":"yes","recycling_type":"container"}},"type":"Feature"},
	{"geometry":{"coordinates":[13.307973,52.573658],"type":"Point"},"properties":{"barrier":"gate","osm_id":"4376414817"},"type":"Feature"},
	{"geometry":{"coordinates":[13.308195,52.573816],"type":"Point"},"properties":{"osm_id":"4376414818","tag":{"amenity":"waste_basket"}},"type":"Feature"},
	{"geometry":{"coordinates":[13.307587,52.57423],"type":"Point"},"properties":{"osm_id":"4376414819","tag":{"amenity":"waste_basket"}},"type":"Feature"},
	{"geometry":{"coordinates":[13.307581,52.574309],"type":"Point"},"properties":{"osm_id":"4376414821","tag":{"amenity":"waste_basket"}},"type":"Feature"},
	{"geometry":{"coordinates":[13.305669,52.575339],"type":"Point"},"properties":{"osm_id":"4376414822","tag":{"amenity":"waste_basket"}},"type":"Feature"},
	{"geometry":{"coordinates":[13.307246,52.576681],"type":"Point"},"properties":{"osm_id":"4376414824","tag":{"amenity":"waste_basket"}},"type":"Feature"},
	{"geometry":{"coordinates":[13.317648,52.580111],"type":"Point"},"properties":{"highway":"street_lamp","osm_id":"4376414831","tag":{"amenity":"waste_basket"}},"type":"Feature"},
	{"geometry":{"coordinates":[13.318088,52.580898],"type":"Point"},"properties":{"osm_id":"4376414843","tag":{"amenity":"waste_basket"}},"type":"Feature"},
	{"geometry":{"coordinates":[13.305949,52.581507],"type":"Point"},"properties":{"highway":"street_lamp","osm_id":"4376414846","tag":{"amenity":"waste_basket"}},"type":"Feature"},
	{"geometry":{"coordinates":[13.30915,52.583664],"type":"Point"},"properties":{"osm_id":"4376414851","tag":{"amenity":"waste_basket"}},"type":"Feature"},
	{"geometry":{"coordinates":[13.309659,52.584092],"type":"Point"},"properties":{"osm_id":"4376414852","tag":{"amenity":"waste_basket"}},"type":"Feature"},
	{"geometry":{"coordinates":[13.314898,52.586371],"type":"Point"},"properties":{"highway":"street_lamp","osm_id":"4376414858","tag":{"amenity":"waste_basket"}},"type":"Feature"},
	{"geometry":{"coordinates":[13.315454,52.586389],"type":"Point"},"properties":{"osm_id":"4376414859","tag":{"amenity":"waste_basket"}},"type":"Feature"},
	{"geometry":{"coordinates":[13.323275,52.586977],"type":"Point"},"properties":{"osm_id":"4376414872","tag":{"amenity":"waste_basket"}},"type":"Feature"},
	{"geometry":{"coordinates":[13.311627,52.567013],"type":"Point"},"properties":{"osm_id":"4380514653","tag":{"amenity":"waste_basket"}},"type":"Feature"},
	{"geometry":{"coordinates":[13.311648,52.567047],"type":"Point"},"properties":{"osm_id":"4380514654","tag":{"amenity":"waste_basket"}},"type":"Feature"},
	{"geometry":{"coordinates":[13.311562,52.567113],"type":"Point"},"properties":{"osm_id":"4380514656","tag":{"amenity":"waste_basket"}},"type":"Feature"},
	{"geometry":{"coordinates":[13.311523,52.56712],"type":"Point"},"properties":{"osm_id":"4380514657","tag":{"amenity":"waste_basket"}},"type":"Feature"},
	{"geometry":{"coordinates":[13.311027,52.567905],"type":"Point"},"properties":{"osm_id":"4380514664","tag":{"amenity":"waste_basket"}},"type":"Feature"},
	{"geometry":{"coordinates":[13.311599,52.571595],"type":"Point"},"properties":{"osm_id":"4380514665","tag":{"amenity":"waste_basket"}},"type":"Feature"},
	{"geometry":{"coordinates":[13.308492,52.572024],"type":"Point"},"properties":{"osm_id":"4380514667","tag":{"amenity":"waste_basket"}},"type":"Feature"},
	{"geometry":{"coordinates":[13.308736,52.572082],"type":"Point"},"properties":{"osm_id":"4380514668","tag":{"amenity":"waste_basket"}},"type":"Feature"},
	{"geometry":{"coordinates":[13.308034,52.572175],"type":"Point"},"properties":{"osm_id":"4380514669","tag":{"amenity":"waste_basket"}},"type":"Feature"},
	{"geometry":{"coordinates":[13.350111,52.545092],"type":"Point"},"properties":{"osm_id":"4394930689","tag":{"amenity":"recycling","recycling:glass_bottles":"yes","recycling_type":"container"}},"type":"Feature"},
	{"geometry":{"coordinates":[13.350771,52.5472],"type":"Point"},"properties":{"osm_id":"4413702113","tag":{"amenity":"waste_basket"}},"type":"Feature"},
	{"geometry":{"coordinates":[13.354422,52.54519],"type":"Point"},"properties":{"osm_id":"4421726705","tag":{"amenity":"waste_basket","level":"4"}},"type":"Feature"},
	{"geometry":{"coordinates":[13.354327,52.545206],"type":"Point"},"properties":{"osm_id":"4421726708","tag":{"amenity":"waste_basket","level":"4"}},"type":"Feature"},
	{"geometry":{"coordinates":[13.354438,52.545134],"type":"Point"},"properties":{"osm_id":"4422371372","tag":{"amenity":"waste_basket","level":"4"}},"type":"Feature"},
	{"geometry":{"coordinates":[13.35493,52.545384],"type":"Point"},"properties":{"osm_id":"4422377061","tag":{"amenity":"waste_basket","level":"4"}},"type":"Feature"},
	{"geometry":{"coordinates":[13.35491,52.545449],"type":"Point"},"properties":{"osm_id":"4422377069","tag":{"amenity":"waste_basket","level":"4"}},"type":"Feature"},
	{"geometry":{"coordinates":[13.355403,52.545703],"type":"Point"},"properties":{"osm_id":"4422454154","tag":{"amenity":"waste_basket","level":"4"}},"type":"Feature"},
	{"geometry":{"coordinates":[13.355297,52.545711],"type":"Point"},"properties":{"osm_id":"4422454155","tag":{"amenity":"waste_basket","level":"4"}},"type":"Feature"},
	{"geometry":{"coordinates":[13.355031,52.545576],"type":"Point"},"properties":{"osm_id":"4422627318","tag":{"amenity":"waste_basket","level":"4"}},"type":"Feature"},
	{"geometry":{"coordinates":[13.345911,52.563496],"type":"Point"},"properties":{"osm_id":"4423466272","tag":{"amenity":"waste_basket"}},"type":"Feature"},
	{"geometry":{"coordinates":[13.355425,52.545643],"type":"Point"},"properties":{"osm_id":"4424265986","tag":{"amenity":"waste_basket","level":"3"}},"type":"Feature"},
	{"geometry":{"coordinates":[13.355289,52.545707],"type":"Point"},"properties":{"osm_id":"4424266090","tag":{"amenity":"waste_basket","level":"3"}},"type":"Feature"},
	{"geometry":{"coordinates":[13.349458,52.548364],"type":"Point"},"properties":{"osm_id":"4448477388","tag":{"amenity":"recycling","recycling:cans":"no","recycling:clothes":"no","recycling:glass":"no","recycling:glass_bottles":"yes","recycling:paper":"no","recycling:plastic":"no","recycling_type":"container"}},"type":"Feature"},
	{"geometry":{"coordinates":[13.355423,52.545643],"type":"Point"},"properties":{"osm_id":"4448984710","tag":{"amenity":"waste_basket","level":"2"}},"type":"Feature"},
	{"geometry":{"coordinates":[13.354928,52.545388],"type":"Point"},"properties":{"osm_id":"4449032810","tag":{"amenity":"waste_basket","level":"2"}},"type":"Feature"},
	{"geometry":{"coordinates":[13.354432,52.545135],"type":"Point"},"properties":{"osm_id":"4449055419","tag":{"amenity":"waste_basket","level":"2"}},"type":"Feature"},
	{"geometry":{"coordinates":[13.354571,52.54513],"type":"Point"},"properties":{"osm_id":"4455845466","tag":{"amenity":"waste_basket","level":"3"}},"type":"Feature"},
	{"geometry":{"coordinates":[13.354923,52.545383],"type":"Point"},"properties":{"osm_id":"4455845481","tag":{"amenity":"waste_basket","level":"3"}},"type":"Feature"},
	{"geometry":{"coordinates":[13.337769,52.578875],"type":"Point"},"properties":{"barrier":"gate","osm_id":"4523702623"},"type":"Feature"},
	{"geometry":{"coordinates":[13.29569,52.567774],"type":"Point"},"properties":{"barrier":"gate","osm_id":"4595493464"},"type":"Feature"},
	{"geometry":{"coordinates":[13.297534,52.568437],"type":"Point"},"properties":{"barrier":"gate","osm_id":"4595493476"},"type":"Feature"},
	{"geometry":{"coordinates":[13.297952,52.568078],"type":"Point"},"properties":{"barrier":"gate","osm_id":"4595493485"},"type":"Feature"},
	{"geometry":{"coordinates":[13.357521,52.541131],"type":"Point"},"properties":{"osm_id":"4811556529","tag":{"amenity":"waste_basket"}},"type":"Feature"},
	{"geometry":{"coordinates":[13.358561,52.539926],"type":"Point"},"properties":{"osm_id":"4811556530","tag":{"amenity":"waste_basket"}},"type":"Feature"},
	{"geometry":{"coordinates":[13.358989,52.539703],"type":"Point"},"properties":{"osm_id":"4811556531","tag":{"amenity":"recycling","recycling:clothes":"yes","recycling_type":"container"}},"type":"Feature"},
	{"geometry":{"coordinates":[13.354342,52.544828],"type":"Point"},"properties":{"osm_id":"4830443477","tag":{"amenity":"waste_basket"}},"type":"Feature"},
	{"geometry":{"coordinates":[13.354873,52.540486],"type":"Point"},"properties":{"osm_id":"4878762710","tag":{"amenity":"waste_basket"}},"type":"Feature"},
	{"geometry":{"coordinates":[13.329436,52.588229],"type":"Point"},"properties":{"osm_id":"5745420433","tag":{"amenity":"waste_basket"}},"type":"Feature"},
	{"geometry":{"coordinates":[13.330929,52.588042],"type":"Point"},"properties":{"osm_id":"5750009294","tag":{"amenity":"waste_basket"}},"type":"Feature"},
	{"geometry":{"coordinates":[13.303845,52.584929],"type":"Point"},"properties":{"osm_id":"5827048725","tag":{"amenity":"waste_basket"}},"type":"Feature"},
	{"geometry":{"coordinates":[13.301609,52.585026],"type":"Point"},"properties":{"osm_id":"5827050156","tag":{"amenity":"waste_basket"}},"type":"Feature"},
	{"geometry":{"coordinates":[13.302291,52.586224],"type":"Point"},"properties":{"osm_id":"5827050237","tag":{"amenity":"waste_basket"}},"type":"Feature"},
	{"geometry":{"coordinates":[13.307378,52.576797],"type":"Point"},"properties":{"osm_id":"5986210838","tag":{"amenity":"recycling","opening_hours":"Mo-Sa 07:00-13:00, Mo-Sa 15:00-20:00; PH off","recycling:glass_bottles":"yes","recycling_type":"container","wheelchair":"yes"}},"type":"Feature"},
	{"geometry":{"coordinates":[13.307403,52.576818],"type":"Point"},"properties":{"osm_id":"5986210839","tag":{"amenity":"recycling","opening_hours":"24/7","recycling:clothes":"yes","recycling_type":"container","wheelchair":"yes"}},"type":"Feature"},
	{"geometry":{"coordinates":[13.326332,52.54702],"type":"Point"},"properties":{"osm_id":"6033705208","tag":{"amenity":"waste_basket"}},"type":"Feature"},
	{"geometry":{"coordinates":[13.323962,52.547941],"type":"Point"},"properties":{"osm_id":"6033708470","tag":{"amenity":"waste_basket"}},"type":"Feature"},
	{"geometry":{"coordinates":[13.324652,52.547866],"type":"Point"},"properties":{"osm_id":"6033708472","tag":{"amenity":"waste_basket"}},"type":"Feature"},
	{"geometry":{"coordinates":[13.324996,52.550318],"type":"Point"},"properties":{"osm_id":"6033708473","tag":{"amenity":"waste_basket"}},"type":"Feature"},
	{"geometry":{"coordinates":[13.323513,52.548756],"type":"Point"},"properties":{"osm_id":"6033708474","tag":{"amenity":"waste_basket"}},"type":"Feature"},
	{"geometry":{"coordinates":[13.325046,52.550321],"type":"Point"},"properties":{"osm_id":"6033708478","tag":{"amenity":"waste_basket"}},"type":"Feature"},
	{"geometry":{"coordinates":[13.323539,52.549537],"type":"Point"},"properties":{"osm_id":"6033708480","tag":{"amenity":"waste_basket"}},"type":"Feature"},
	{"geometry":{"coordinates":[13.326603,52.551376],"type":"Point"},"properties":{"osm_id":"6033728994","tag":{"amenity":"waste_basket"}},"type":"Feature"},
	{"geometry":{"coordinates":[13.2868,52.585603],"type":"Point"},"properties":{"osm_id":"6053135117","tag":{"amenity":"waste_basket"}},"type":"Feature"},
	{"geometry":{"coordinates":[13.286934,52.585742],"type":"Point"},"properties":{"osm_id":"6053135118","tag":{"amenity":"waste_basket"}},"type":"Feature"},
	{"geometry":{"coordinates":[13.351028,52.557669],"type":"Point"},"properties":{"osm_id":"6228307259","tag":{"amenity":"waste_basket"}},"type":"Feature"},
	{"geometry":{"coordinates":[13.350945,52.557474],"type":"Point"},"properties":{"osm_id":"6228307260","tag":{"amenity":"waste_basket"}},"type":"Feature"},
	{"geometry":{"coordinates":[13.353955,52.556093],"type":"Point"},"properties":{"osm_id":"6228307267","tag":{"amenity":"waste_basket"}},"type":"Feature"},
	{"geometry":{"coordinates":[13.356002,52.555516],"type":"Point"},"properties":{"osm_id":"6228307268","tag":{"amenity":"recycling","recycling:clothes":"yes","recycling_type":"container"}},"type":"Feature"},
	{"geometry":{"coordinates":[13.355958,52.555531],"type":"Point"},"properties":{"osm_id":"6228307269","tag":{"amenity":"recycling","recycling:clothes":"yes","recycling_type":"container"}},"type":"Feature"},
	{"geometry":{"coordinates":[13.356036,52.555493],"type":"Point"},"properties":{"osm_id":"6228307270","tag":{"amenity":"recycling","recycling:clothes":"yes","recycling_type":"container"}},"type":"Feature"},
	{"geometry":{"coordinates":[13.331129,52.554605],"type":"Point"},"properties":{"osm_id":"6245921120","tag":{"amenity":"waste_basket"}},"type":"Feature"},
	{"geometry":{"coordinates":[13.338128,52.550076],"type":"Point"},"properties":{"osm_id":"6245921124","tag":{"amenity":"waste_basket"}},"type":"Feature"},
	{"geometry":{"coordinates":[13.335031,52.549933],"type":"Point"},"properties":{"osm_id":"6245921126","tag":{"amenity":"waste_basket"}},"type":"Feature"},
	{"geometry":{"coordinates":[13.329004,52.548804],"type":"Point"},"properties":{"osm_id":"6245921127","tag":{"amenity":"waste_basket"}},"type":"Feature"},
	{"geometry":{"coordinates":[13.293118,52.582714],"type":"Point"},"properties":{"osm_id":"6304613470","tag":{"amenity":"waste_basket"}},"type":"Feature"},
	{"geometry":{"coordinates":[13.294519,52.582854],"type":"Point"},"properties":{"osm_id":"6304613479","tag":{"amenity":"waste_basket"}},"type":"Feature"},
	{"geometry":{"coordinates":[13.345835,52.560099],"type":"Point"},"properties":{"osm_id":"6307952561","tag":{"amenity":"recycling","recycling:glass_bottles":"yes","recycling_type":"container"}},"type":"Feature"},
	{"geometry":{"coordinates":[13.343492,52.56158],"type":"Point"},"properties":{"osm_id":"6307953013","tag":{"amenity":"recycling","recycling:glass_bottles":"yes","recycling_type":"container"}},"type":"Feature"},
	{"geometry":{"coordinates":[13.345827,52.554868],"type":"Point"},"properties":{"osm_id":"6309068619","tag":{"amenity":"waste_basket","colour":"orange"}},"type":"Feature"},
	{"geometry":{"coordinates":[13.346053,52.555015],"type":"Point"},"properties":{"highway":"street_lamp","osm_id":"6309068622","tag":{"amenity":"waste_basket","colour":"orange"}},"type":"Feature"},
	{"geometry":{"coordinates":[13.347742,52.556133],"type":"Point"},"properties":{"osm_id":"6309068624","tag":{"amenity":"waste_basket","colour":"orange"}},"type":"Feature"},
	{"geometry":{"coordinates":[13.346522,52.556895],"type":"Point"},"properties":{"osm_id":"6309068676","tag":{"amenity":"recycling","recycling:glass_bottles":"yes","recycling_type":"container"}},"type":"Feature"},
	{"geometry":{"coordinates":[13.346353,52.559813],"type":"Point"},"properties":{"osm_id":"6309069856","tag":{"amenity":"waste_basket"}},"type":"Feature"},
	{"geometry":{"coordinates":[13.350502,52.560633],"type":"Point"},"properties":{"osm_id":"6469425095","tag":{"amenity":"recycling","recycling_type":"container"}},"type":"Feature"},
	{"geometry":{"coordinates":[13.342841,52.547759],"type":"Point"},"properties":{"osm_id":"6532305038","tag":{"amenity":"recycling","recycling:glass_bottles":"yes","recycling_type":"container"}},"type":"Feature"},
	{"geometry":{"coordinates":[13.348476,52.544548],"type":"Point"},"properties":{"osm_id":"6697407668","tag":{"amenity":"recycling","operator":"Deutsches Rotes Kreuz","recycling:clothes":"yes","recycling:shoes":"yes","recycling_type":"container"}},"type":"Feature"},
	{"geometry":{"coordinates":[13.353042,52.541324],"type":"Point"},"properties":{"osm_id":"6829949593","tag":{"amenity":"recycling","recycling:clothes":"yes","recycling_type":"container"}},"type":"Feature"},
	{"geometry":{"coordinates":[13.355255,52.543797],"type":"Point"},"properties":{"osm_id":"6829949594","tag":{"amenity":"recycling","recycling:clothes":"yes","recycling_type":"container"}},"type":"Feature"},
	{"geometry":{"coordinates":[13.345196,52.566595],"type":"Point"},"properties":{"osm_id":"7118150705","tag":{"amenity":"recycling","opening_hours":"Mo-Sa 07:00-13:00,15:00-20:00","recycling:glass":"yes","recycling_type":"container"}},"type":"Feature"},
	{"geometry":{"coordinates":[13.342297,52.552358],"type":"Point"},"properties":{"osm_id":"7539255537","tag":{"amenity":"waste_basket"}},"type":"Feature"},
	{"geometry":{"coordinates":[13.354738,52.547784],"type":"Point"},"properties":{"osm_id":"7598335576","tag":{"amenity":"waste_basket","waste":"trash"}},"type":"Feature"},
	{"geometry":{"coordinates":[13.339921,52.557591],"type":"Point"},"properties":{"osm_id":"7605520859","tag":{"amenity":"recycling","operator":"DRK","recycling:clothes":"yes","recycling_type":"container"}},"type":"Feature"},
	{"geometry":{"coordinates":[13.345861,52.553719],"type":"Point"},"properties":{"osm_id":"7605882334","tag":{"amenity":"recycling","recycling:clothes":"yes","recycling_type":"container"}},"type":"Feature"},
	{"geometry":{"coordinates":[13.34814,52.552493],"type":"Point"},"properties":{"osm_id":"7615954964","tag":{"amenity":"waste_basket"}},"type":"Feature"},
	{"geometry":{"coordinates":[13.349305,52.557244],"type":"Point"},"properties":{"osm_id":"7615954967","tag":{"amenity":"waste_basket","waste":"trash"}},"type":"Feature"},
	{"geometry":{"coordinates":[13.345926,52.553227],"type":"Point"},"properties":{"osm_id":"7615954968","tag":{"amenity":"waste_basket","level":"0"}},"type":"Feature"},
	{"geometry":{"coordinates":[13.34495,52.554268],"type":"Point"},"properties":{"osm_id":"7615954971","tag":{"amenity":"waste_basket"}},"type":"Feature"},
	{"geometry":{"coordinates":[13.345509,52.553972],"type":"Point"},"properties":{"osm_id":"7615954972","tag":{"amenity":"waste_basket"}},"type":"Feature"},
	{"geometry":{"coordinates":[13.349237,52.551874],"type":"Point"},"properties":{"osm_id":"7615954974","tag":{"amenity":"waste_basket"}},"type":"Feature"},
	{"geometry":{"coordinates":[13.346349,52.553448],"type":"Point"},"properties":{"osm_id":"7615954981","tag":{"amenity":"waste_basket"}},"type":"Feature"},
	{"geometry":{"coordinates":[13.345989,52.553204],"type":"Point"},"properties":{"osm_id":"7615954983","tag":{"amenity":"waste_basket","level":"0"}},"type":"Feature"},
	{"geometry":{"coordinates":[13.34771,52.552669],"type":"Point"},"properties":{"osm_id":"7615989785","tag":{"amenity":"waste_basket"}},"type":"Feature"},
	{"geometry":{"coordinates":[13.342261,52.55614],"type":"Point"},"properties":{"osm_id":"7615989787","tag":{"amenity":"waste_basket"}},"type":"Feature"},
	{"geometry":{"coordinates":[13.343436,52.555119],"type":"Point"},"properties":{"osm_id":"7615989789","tag":{"amenity":"waste_basket"}},"type":"Feature"},
	{"geometry":{"coordinates":[13.343728,52.555328],"type":"Point"},"properties":{"osm_id":"7615989791","tag":{"amenity":"waste_basket"}},"type":"Feature"},
	{"geometry":{"coordinates":[13.346483,52.553413],"type":"Point"},"properties":{"osm_id":"7615989792","tag":{"amenity":"waste_basket"}},"type":"Feature"},
	{"geometry":{"coordinates":[13.344053,52.555109],"type":"Point"},"properties":{"osm_id":"7615989793","tag":{"amenity":"waste_basket"}},"type":"Feature"},
	{"geometry":{"coordinates":[13.340546,52.556778],"type":"Point"},"properties":{"osm_id":"7615989795","tag":{"amenity":"waste_basket"}},"type":"Feature"},
	{"geometry":{"coordinates":[13.349313,52.557273],"type":"Point"},"properties":{"osm_id":"7615989797","tag":{"amenity":"waste_basket","waste":"trash"}},"type":"Feature"},
	{"geometry":{"coordinates":[13.348516,52.552575],"type":"Point"},"properties":{"osm_id":"7615989798","tag":{"amenity":"waste_basket"}},"type":"Feature"},
	{"geometry":{"coordinates":[13.349271,52.557368],"type":"Point"},"properties":{"osm_id":"7615989799","tag":{"amenity":"waste_basket","waste":"trash"}},"type":"Feature"},
	{"geometry":{"coordinates":[13.342182,52.555872],"type":"Point"},"properties":{"osm_id":"7615989800","tag":{"amenity":"waste_basket"}},"type":"Feature"},
	{"geometry":{"coordinates":[13.347176,52.553359],"type":"Point"},"properties":{"osm_id":"7615989801","tag":{"amenity":"waste_basket"}},"type":"Feature"},
	{"geometry":{"coordinates":[13.348423,52.556447],"type":"Point"},"properties":{"osm_id":"7615989802","tag":{"amenity":"waste_basket","waste":"trash"}},"type":"Feature"},
	{"geometry":{"coordinates":[13.340018,52.557485],"type":"Point"},"properties":{"osm_id":"7615989803","tag":{"amenity":"waste_basket"}},"type":"Feature"},
	{"geometry":{"coordinates":[13.346741,52.55359],"type":"Point"},"properties":{"osm_id":"7615989804","tag":{"amenity":"waste_basket"}},"type":"Feature"},
	{"geometry":{"coordinates":[13.347446,52.553212],"type":"Point"},"properties":{"osm_id":"7615989809","tag":{"amenity":"waste_basket"}},"type":"Feature"},
	{"geometry":{"coordinates":[13.350306,52.557929],"type":"Point"},"properties":{"osm_id":"7615989814","tag":{"amenity":"waste_basket","waste":"trash"}},"type":"Feature"},
	{"geometry":{"coordinates":[13.345855,52.554659],"type":"Point"},"properties":{"osm_id":"7615989816","tag":{"amenity":"waste_basket"}},"type":"Feature"},
	{"geometry":{"coordinates":[13.348568,52.552265],"type":"Point"},"properties":{"osm_id":"7615989817","tag":{"amenity":"waste_basket"}},"type":"Feature"},
	{"geometry":{"coordinates":[13.34629,52.553479],"type":"Point"},"properties":{"osm_id":"7615989821","tag":{"amenity":"waste_basket"}},"type":"Feature"},
	{"geometry":{"coordinates":[13.354189,52.549101],"type":"Point"},"properties":{"osm_id":"7616345662","tag":{"amenity":"waste_basket"}},"type":"Feature"},
	{"geometry":{"coordinates":[13.354167,52.548996],"type":"Point"},"properties":{"osm_id":"7616345669","tag":{"amenity":"waste_basket"}},"type":"Feature"},
	{"geometry":{"coordinates":[13.35405,52.549062],"type":"Point"},"properties":{"osm_id":"7616345676","tag":{"amenity":"waste_basket"}},"type":"Feature"},
	{"geometry":{"coordinates":[13.354334,52.549268],"type":"Point"},"properties":{"osm_id":"7616345679","tag":{"amenity":"waste_basket"}},"type":"Feature"},
	{"geometry":{"coordinates":[13.343671,52.553517],"type":"Point"},"properties":{"osm_id":"7617579453","tag":{"amenity":"waste_basket"}},"type":"Feature"},
	{"geometry":{"coordinates":[13.332667,52.543303],"type":"Point"},"properties":{"osm_id":"7617579454","tag":{"amenity":"waste_basket"}},"type":"Feature"},
	{"geometry":{"coordinates":[13.342625,52.55273],"type":"Point"},"properties":{"osm_id":"7617579456","tag":{"amenity":"waste_basket"}},"type":"Feature"},
	{"geometry":{"coordinates":[13.334022,52.54725],"type":"Point"},"properties":{"osm_id":"7617579457","tag":{"amenity":"waste_basket"}},"type":"Feature"},
	{"geometry":{"coordinates":[13.3346,52.547609],"type":"Point"},"properties":{"osm_id":"7617579459","tag":{"amenity":"waste_basket"}},"type":"Feature"},
	{"geometry":{"coordinates":[13.330115,52.545075],"type":"Point"},"properties":{"osm_id":"7617579461","tag":{"amenity":"waste_basket"}},"type":"Feature"},
	{"geometry":{"coordinates":[13.337216,52.549873],"type":"Point"},"properties":{"osm_id":"7617579464","tag":{"amenity":"waste_basket"}},"type":"Feature"},
	{"geometry":{"coordinates":[13.327953,52.546315],"type":"Point"},"properties":{"osm_id":"7617579465","tag":{"amenity":"waste_basket"}},"type":"Feature"},
	{"geometry":{"coordinates":[13.329991,52.545006],"type":"Point"},"properties":{"osm_id":"7617579468","tag":{"amenity":"waste_basket"}},"type":"Feature"},
	{"geometry":{"coordinates":[13.332868,52.543104],"type":"Point"},"properties":{"osm_id":"7617579469","tag":{"amenity":"waste_basket"}},"type":"Feature"},
	{"geometry":{"coordinates":[13.334164,52.541417],"type":"Point"},"properties":{"osm_id":"7617579471","tag":{"amenity":"waste_basket"}},"type":"Feature"},
	{"geometry":{"coordinates":[13.332391,52.543713],"type":"Point"},"properties":{"osm_id":"7617579473","tag":{"amenity":"waste_basket"}},"type":"Feature"},
	{"geometry":{"coordinates":[13.329302,52.545432],"type":"Point"},"properties":{"osm_id":"7617579476","tag":{"amenity":"waste_basket"}},"type":"Feature"},
	{"geometry":{"coordinates":[13.326698,52.547011],"type":"Point"},"properties":{"osm_id":"7617579479","tag":{"amenity":"waste_basket"}},"type":"Feature"},
	{"geometry":{"coordinates":[13.329902,52.546738],"type":"Point"},"properties":{"osm_id":"7617579480","tag":{"amenity":"waste_basket"}},"type":"Feature"},
	{"geometry":{"coordinates":[13.331174,52.544648],"type":"Point"},"properties":{"osm_id":"7617579482","tag":{"amenity":"waste_basket"}},"type":"Feature"},
	{"geometry":{"coordinates":[13.329783,52.545016],"type":"Point"},"properties":{"osm_id":"7617579484","tag":{"amenity":"waste_basket"}},"type":"Feature"},
	{"geometry":{"coordinates":[13.335186,52.547995],"type":"Point"},"properties":{"osm_id":"7617606585","tag":{"amenity":"waste_basket"}},"type":"Feature"},
	{"geometry":{"coordinates":[13.329674,52.545076],"type":"Point"},"properties":{"osm_id":"7617606586","tag":{"amenity":"waste_basket"}},"type":"Feature"},
	{"geometry":{"coordinates":[13.337354,52.549372],"type":"Point"},"properties":{"osm_id":"7617606588","tag":{"amenity":"waste_basket"}},"type":"Feature"},
	{"geometry":{"coordinates":[13.336904,52.547856],"type":"Point"},"properties":{"osm_id":"7617606589","tag":{"amenity":"waste_basket"}},"type":"Feature"},
	{"geometry":{"coordinates":[13.337023,52.549149],"type":"Point"},"properties":{"osm_id":"7617606591","tag":{"amenity":"waste_basket"}},"type":"Feature"},
	{"geometry":{"coordinates":[13.329771,52.54538],"type":"Point"},"properties":{"osm_id":"7617606595","tag":{"amenity":"waste_basket"}},"type":"Feature"},
	{"geometry":{"coordinates":[13.343751,52.553297],"type":"Point"},"properties":{"osm_id":"7617606596","tag":{"amenity":"waste_basket"}},"type":"Feature"},
	{"geometry":{"coordinates":[13.333142,52.542776],"type":"Point"},"properties":{"osm_id":"7617606604","tag":{"amenity":"waste_basket"}},"type":"Feature"},
	{"geometry":{"coordinates":[13.334168,52.542033],"type":"Point"},"properties":{"osm_id":"7617606615","tag":{"amenity":"waste_basket"}},"type":"Feature"},
	{"geometry":{"coordinates":[13.33337,52.542573],"type":"Point"},"properties":{"osm_id":"7617606617","tag":{"amenity":"waste_basket"}},"type":"Feature"},
	{"geometry":{"coordinates":[13.333299,52.546977],"type":"Point"},"properties":{"osm_id":"7617606618","tag":{"amenity":"waste_basket"}},"type":"Feature"},
	{"geometry":{"coordinates":[13.33647,52.548792],"type":"Point"},"properties":{"osm_id":"7617606619","tag":{"amenity":"waste_basket"}},"type":"Feature"},
	{"geometry":{"coordinates":[13.340562,52.555203],"type":"Point"},"properties":{"osm_id":"7636205331","tag":{"amenity":"recycling","operator":"DRK","recycling:clothes":"yes","recycling_type":"container"}},"type":"Feature"},
	{"geometry":{"coordinates":[13.347204,52.552996],"type":"Point"},"properties":{"osm_id":"7636205334","tag":{"amenity":"waste_basket"}},"type":"Feature"},
	{"geometry":{"coordinates":[13.277825,52.588342],"type":"Point"},"properties":{"osm_id":"7838963851","tag":{"amenity":"waste_basket","colour":"orange","material":"metal","waste":"mixed"}},"type":"Feature"},
	{"geometry":{"coordinates":[13.277095,52.588233],"type":"Point"},"properties":{"osm_id":"7838963870","tag":{"amenity":"waste_basket","colour":"orange","material":"metal","waste":"mixed"}},"type":"Feature"},
	{"geometry":{"coordinates":[13.27673,52.588186],"type":"Point"},"properties":{"osm_id":"7838963878","tag":{"amenity":"waste_basket","colour":"orange","material":"metal","waste":"mixed"}},"type":"Feature"},
	{"geometry":{"coordinates":[13.27633,52.588273],"type":"Point"},"properties":{"osm_id":"7842264630","tag":{"amenity":"waste_basket","colour":"orange","material":"metal","waste":"mixed"}},"type":"Feature"}
]
}
