{
"type": "FeatureCollection",
"features": [
	{"geometry":{"coordinates":[13.296828,52.501329],"type":"Point"},"properties":{"osm_id":"26867409","ref":"Damaschkestr. 35 Ecke Joachim-Friedrich-Str.","tag":{"amenity":"recycling","operator":"Karl Meyer Rohstoffverwertung","recycling:glass_bottles":"yes","recycling_type":"container"}},"type":"Feature"},
	{"geometry":{"coordinates":[13.323928,52.51157],"type":"Point"},"properties":{"osm_id":"254695157","tag":{"amenity":"waste_basket"}},"type":"Feature"},
	{"geometry":{"coordinates":[13.320537,52.483997],"type":"Point"},"properties":{"osm_id":"254985049","tag":{"amenity":"recycling","check_date":"2017-10-18","description":"2 Container","operator":"Deutsches Rotes Kreuz","recycling:clothes":"yes","recycling_type":"container"}},"type":"Feature"},
	{"geometry":{"coordinates":[13.313762,52.483932],"type":"Point"},"properties":{"osm_id":"254986437","ref":"Barstr. Ecke Mannheimer Str.","tag":{"amenity":"recycling","operator":"Karl Meyer Rohstoffverwertung","recycling:glass_bottles":"yes","recycling_type":"container"}},"type":"Feature"},
	{"geometry":{"coordinates":[13.314532,52.530509],"type":"Point"},"properties":{"osm_id":"304367262","tag":{"amenity":"recycling","check_date":"2017-12-17","description":"2 Container","recycling:clothes":"yes","recycling_type":"container"}},"type":"Feature"},
	{"geometry":{"coordinates":[13.314746,52.525494],"type":"Point"},"properties":{"osm_id":"305943442","tag":{"amenity":"recycling","operator":"Rhenus","recycling:glass_bottles":"yes","recycling_type":"container"}},"type":"Feature"},
	{"geometry":{"coordinates":[13.303822,52.503779],"type":"Point"},"properties":{"osm_id":"306456511","tag":{"amenity":"recycling","operator":"Karl Meyer Rohstoffverwertung","recycling:glass_bottles":"yes","recycling_type":"container"}},"type":"Feature"},
	{"geometry":{"coordinates":[13.30135,52.49518],"type":"Point"},"properties":{"osm_id":"307174087","ref":"Hochmeisterplatz / Cicerostr. 49A gg\u00c3\u00bc. / Paulsbornerstr.","tag":{"amenity":"recycling","operator":"Karl Meyer Rohstoffverwertung","recycling:glass_bottles":"yes","recycling_type":"container"}},"type":"Feature"},
	{"geometry":{"coordinates":[13.325016,52.493942],"type":"Point"},"properties":{"osm_id":"309363611","ref":"Hohenzollerndamm 199 gg\u00c3\u00bc. / Hohenzollernplatz / Holsteinische Str.","tag":{"amenity":"recycling","operator":"Karl Meyer Rohstoffverwertung","recycling:glass_bottles":"yes","recycling_type":"container"}},"type":"Feature"},
	{"geometry":{"coordinates":[13.328501,52.4948],"type":"Point"},"properties":{"osm_id":"309364526","ref":"Hohenzollerndamm 208 / Wasserwerk","tag":{"amenity":"recycling","operator":"Karl Meyer Rohstoffverwertung","recycling:glass_bottles":"yes","recycling_type":"container"}},"type":"Feature"},
	{"geometry":{"coordinates":[13.295812,52.492158],"type":"Point"},"properties":{"osm_id":"309847736","ref":"Paulsborner Str. 70 gg\u00c3\u00bc. Nr. 27 Ecke Seesener Str.","tag":{"amenity":"recycling","operator":"Karl Meyer Rohstoffverwertung","recycling:glass_bottles":"yes","recycling_type":"container"}},"type":"Feature"},
	{"geometry":{"coordinates":[13.305135,52.497044],"type":"Point"},"properties":{"osm_id":"311090440","ref":"Eisenzahnstr. Ecke Paulsborner Str.","tag":{"amenity":"recycling","operator":"Rhenus","recycling:glass_bottles":"yes","recycling_type":"container"}},"type":"Feature"},
	{"geometry":{"coordinates":[13.308249,52.495375],"type":"Point"},"properties":{"osm_id":"311090625","ref":"Ballenstedter Str. 2 Ecke Brandenburgische Str.","tag":{"amenity":"recycling","operator":"Rhenus","recycling:glass_bottles":"yes","recycling_type":"container"}},"type":"Feature"},
	{"geometry":{"coordinates":[13.318137,52.52588],"type":"Point"},"properties":{"osm_id":"311255499","tag":{"amenity":"recycling","recycling:clothes":"yes","recycling:glass_bottles":"yes","recycling_type":"container"}},"type":"Feature"},
	{"geometry":{"coordinates":[13.315799,52.499374],"type":"Point"},"properties":{"osm_id":"312385354","ref":"Olivaer Platz gg\u00c3\u00bc. Nr. 12","tag":{"amenity":"recycling","operator":"Karl Meyer Rohstoffverwertung","recycling:glass_bottles":"yes","recycling_type":"container"}},"type":"Feature"},
	{"geometry":{"coordinates":[13.311941,52.497071],"type":"Point"},"properties":{"osm_id":"315788217","ref":"D\u00c3\u00bcsseldorfer Str. Ecke Konstanzer Str.","tag":{"amenity":"recycling","brown":"no","green":"yes","operator":"Karl Meyer Rohstoffverwertung","recycling:glass_bottles":"yes","recycling_type":"container","white":"yes"}},"type":"Feature"},
	{"geometry":{"coordinates":[13.331114,52.494393],"type":"Point"},"properties":{"osm_id":"315799375","ref":"Bundesallee 204 Ecke Trautenaustr.","tag":{"amenity":"recycling","operator":"Karl Meyer Rohstoffverwertung","recycling:glass_bottles":"yes","recycling_type":"container"}},"type":"Feature"},
	{"geometry":{"coordinates":[13.34529,52.48938],"type":"Point"},"properties":{"osm_id":"315808706","tag":{"amenity":"recycling","brown":"yes","green":"yes","recycling:glass_bottles":"yes","recycling_type":"container","white":"yes"}},"type":"Feature"},
	{"geometry":{"coordinates":[13.351384,52.48581],"type":"Point"},"properties":{"osm_id":"315812629","tag":{"amenity":"recycling","brown":"yes","green":"yes","operator":"Karl Meyer Rohstoffverwertung","recycling:glass_bottles":"yes","recycling_type":"container","white":"yes"}},"type":"Feature"},
	{"geometry":{"coordinates":[13.359246,52.490378],"type":"Point"},"properties":{"osm_id":"315823154","tag":{"amenity":"recycling","recycling_type":"container"}},"type":"Feature"},
	{"geometry":{"coordinates":[13.309899,52.493948],"type":"Point"},"properties":{"osm_id":"316310142","ref":"Brandenburgische Str. 16 Ecke Konstanzer Str.","tag":{"amenity":"recycling","operator":"Karl Meyer Rohstoffverwertung","recycling:glass_bottles":"yes","recycling_type":"container"}},"type":"Feature"},
	{"geometry":{"coordinates":[13.311821,52.506289],"type":"Point"},"properties":{"osm_id":"349298172","ref":"Kantstr. 126","tag":{"amenity":"recycling","operator":"Karl Meyer Rohstoffverwertung","recycling:glass_bottles":"yes","recycling_type":"container"}},"type":"Feature"},
	{"geometry":{"coordinates":[13.30621,52.504781],"type":"Point"},"properties":{"osm_id":"351940059","ref":"Gervinusstr. 3","tag":{"amenity":"recycling","operator":"Karl Meyer Rohstoffverwertung","recycling:glass_bottles":"yes","recycling_type":"container"}},"type":"Feature"},
	{"geometry":{"coordinates":[13.328431,52.530763],"type":"Point"},"properties":{"osm_id":"365609937","tag":{"amenity":"recycling","operator":"Karl Meyer Rohstoffverwertung","recycling:glass_bottles":"yes","recycling_type":"container"}},"type":"Feature"},
	{"geometry":{"coordinates":[13.340169,52.518586],"type":"Point"},"properties":{"osm_id":"365888924","tag":{"amenity":"recycling","operator":"Karl Meyer Rohstoffverwertung","recycling:glass_bottles":"yes","recycling_type":"container"}},"type":"Feature"},
	{"geometry":{"coordinates":[13.341538,52.517633],"type":"Point"},"properties":{"osm_id":"365888927","tag":{"amenity":"recycling","location":"overground","operator":"Kolping","recycling:clothes":"yes","recycling_type":"container"}},"type":"Feature"},
	{"geometry":{"coordinates":[13.339397,52.530152],"type":"Point"},"properties":{"osm_id":"371837365","tag":{"amenity":"recycling","recycling:clothes":"yes","recycling_type":"container"}},"type":"Feature"},
	{"geometry":{"coordinates":[13.313572,52.504981],"type":"Point"},"properties":{"osm_id":"374420687","ref":"Leibnizstr. 65 Ecke Niebuhrstr.","tag":{"amenity":"recycling","brown":"yes","green":"yes","operator":"Karl Meyer Rohstoffverwertung","recycling:glass_bottles":"yes","recycling_type":"container","white":"yes"}},"type":"Feature"},
	{"geometry":{"coordinates":[13.295964,52.502463],"type":"Point"},"properties":{"osm_id":"393409424","ref":"Holtzendorffstr. an der S-Bahnbr\u00c3\u00bccke Ecke Heilbronner Str. 12","tag":{"amenity":"recycling","operator":"Karl Meyer Rohstoffverwertung","recycling:glass_bottles":"yes","recycling_type":"container"}},"type":"Feature"},
	{"geometry":{"coordinates":[13.338579,52.521105],"type":"Point"},"properties":{"osm_id":"393769325","tag":{"addr:city":"Berlin","addr:country":"DE","addr:street":"Bochumer Stra\u00c3\u009fe","amenity":"recycling","location":"overground","recycling:glass_bottles":"yes","recycling_type":"container"}},"type":"Feature"},
	{"geometry":{"coordinates":[13.350719,52.520306],"type":"Point"},"properties":{"osm_id":"406369205","tag":{"amenity":"recycling","recycling:glass_bottles":"yes","recycling_type":"container"}},"type":"Feature"},
	{"geometry":{"coordinates":[13.342013,52.534305],"type":"Point"},"properties":{"osm_id":"418085756","tag":{"amenity":"recycling","recycling:glass_bottles":"yes","recycling_type":"container"}},"type":"Feature"},
	{"geometry":{"coordinates":[13.31708,52.528719],"type":"Point"},"properties":{"osm_id":"442553351","tag":{"amenity":"recycling","recycling:glass_bottles":"yes","recycling_type":"container"}},"type":"Feature"},
	{"geometry":{"coordinates":[13.310619,52.527016],"type":"Point"},"properties":{"name":"Recyclinghof Ilsenburger Stra\u00c3\u009fe","osm_id":"442877823","tag":{"addr:city":"Berlin","addr:country":"DE","addr:housenumber":"18-20","addr:postcode":"10589","addr:street":"Ilsenburger Stra\u00c3\u009fe","addr:suburb":"Charlottenburg","amenity":"recycling","description":"Berliner Stadtreinigungsbetriebe","opening_hours":"Mo-We 07:00-17:00; Th 09:30-19:30; Fr 07:00-17:00; Sa 07:00-15:30","operator":"BSR","recycling:batteries":"yes","recycling:cans":"yes","recycling:clothes":"yes","recycling:glass":"yes","recycling:glass_bottles":"yes","recycling:paper":"yes","recycling:scrap_metal":"yes","recycling_type":"centre","website":"https://www.bsr.de/8856.html"}},"type":"Feature"},
	{"geometry":{"coordinates":[13.312826,52.512181],"type":"Point"},"properties":{"osm_id":"444000784","ref":"Bismarckstr. 20 gg\u00c3\u00bc. 101 / Zauritzweg","tag":{"amenity":"recycling","operator":"Karl Meyer Rohstoffverwertung","recycling:glass_bottles":"yes","recycling_type":"container"}},"type":"Feature"},
	{"geometry":{"coordinates":[13.29743,52.513575],"type":"Point"},"properties":{"osm_id":"444000794","tag":{"amenity":"recycling","operator":"Bera Textilrecycling","recycling:clothes":"yes","recycling_type":"container"}},"type":"Feature"},
	{"geometry":{"coordinates":[13.303603,52.529105],"type":"Point"},"properties":{"osm_id":"445075288","tag":{"amenity":"recycling","check_date":"2017-12-17","description":"2 Container","operator":"Deutsches Rotes Kreuz","recycling:clothes":"yes","recycling_type":"container"}},"type":"Feature"},
	{"geometry":{"coordinates":[13.331015,52.487036],"type":"Point"},"properties":{"osm_id":"447737051","ref":"Bundesallee 42, Mittelstreifen nahe Wendeschleife","tag":{"amenity":"recycling","operator":"Karl Meyer Rohstoffverwertung","recycling:glass_bottles":"yes","recycling_type":"container"}},"type":"Feature"},
	{"geometry":{"coordinates":[13.320566,52.483288],"type":"Point"},"properties":{"osm_id":"454490704","ref":"Am Volkspark Ecke Blissestr.","tag":{"amenity":"recycling","brown":"no","green":"yes","operator":"Karl Meyer Rohstoffverwertung","recycling:glass_bottles":"yes","recycling_type":"container","white":"yes"}},"type":"Feature"},
	{"geometry":{"coordinates":[13.335987,52.499758],"type":"Point"},"properties":{"osm_id":"465499973","ref":"N\u00c3\u00bcrnberger Str. 41 Ecke Lietzenburger Str.","tag":{"amenity":"recycling","brown":"yes","green":"yes","operator":"Karl Meyer Rohstoffverwertung","recycling:glass_bottles":"yes","recycling_type":"container","white":"yes"}},"type":"Feature"},
	{"geometry":{"coordinates":[13.320535,52.498036],"type":"Point"},"properties":{"osm_id":"495534555","ref":"Ludwigkirchplatz Ecke Emser Str.","tag":{"amenity":"recycling","brown":"yes","green":"yes","operator":"Rhenus","recycling:glass_bottles":"yes","recycling_type":"container","white":"yes"}},"type":"Feature"},
	{"geometry":{"coordinates":[13.290186,52.51035],"type":"Point"},"properties":{"osm_id":"565034843","ref":"Kaiserdamm / Erwin-Barth-Platz / Witzlebenplatz","tag":{"amenity":"recycling","operator":"Karl Meyer Rohstoffverwertung","recycling:glass_bottles":"yes","recycling_type":"container"}},"type":"Feature"},
	{"geometry":{"coordinates":[13.300106,52.504742],"type":"Point"},"properties":{"osm_id":"571799792","ref":"Windscheidstr. Ecke Stuttgarte Platz 24","tag":{"amenity":"recycling","operator":"Rhenus","recycling:glass_bottles":"yes","recycling_type":"container"}},"type":"Feature"},
	{"geometry":{"coordinates":[13.338785,52.492211],"type":"Point"},"properties":{"osm_id":"622541523","tag":{"amenity":"recycling","check_date":"2017-10-19","operator":"Deutsches Kinderhilfswerk","recycling:clothes":"yes","recycling:shoes":"yes","recycling_type":"container","website":"https://www.dkhw.de/"}},"type":"Feature"},
	{"geometry":{"coordinates":[13.285967,52.486605],"type":"Point"},"properties":{"osm_id":"634882452","ref":"Warmbrunner Str. gg\u00c3\u00bc. Nr. 6 / Hubertussportplatz","tag":{"amenity":"recycling","brown":"yes","check_date":"2017-02-19","green":"yes","operator":"berlin recycling","recycling:glass_bottles":"yes","recycling_type":"container","white":"yes"}},"type":"Feature"},
	{"geometry":{"coordinates":[13.354579,52.499087],"type":"Point"},"properties":{"osm_id":"656432908","tag":{"amenity":"recycling","recycling:glass_bottles":"yes","recycling_type":"container"}},"type":"Feature"},
	{"geometry":{"coordinates":[13.331782,52.487566],"type":"Point"},"properties":{"osm_id":"659935547","ref":"Bundesallee 180 Ecke Berliner Str. vor Euro Gida","tag":{"amenity":"recycling","operator":"Karl Meyer Rohstoffverwertung","recycling:glass_bottles":"yes","recycling_type":"container"}},"type":"Feature"},
	{"geometry":{"coordinates":[13.30292,52.516748],"type":"Point"},"properties":{"osm_id":"661126963","tag":{"amenity":"recycling","check_date":"2017-05","recycling:clothes":"yes","recycling_type":"container"}},"type":"Feature"},
	{"geometry":{"coordinates":[13.29563,52.507981],"type":"Point"},"properties":{"osm_id":"665535046","ref":"Suarezstr. 14 Ecke Steifensandstr.","tag":{"amenity":"recycling","operator":"Rhenus","recycling:glass_bottles":"yes","recycling_type":"container"}},"type":"Feature"},
	{"geometry":{"coordinates":[13.301785,52.507889],"type":"Point"},"properties":{"osm_id":"665535057","ref":"Pestalozzistr. Ecke Kaiser-Friedrich-Str. ARAL-Tankstelle","tag":{"amenity":"recycling","operator":"Karl Meyer Rohstoffverwertung","recycling:glass_bottles":"yes","recycling_type":"container"}},"type":"Feature"},
	{"geometry":{"coordinates":[13.336257,52.500997],"type":"Point"},"properties":{"osm_id":"665535076","tag":{"amenity":"recycling","check_date":"2017-10-19","recycling:clothes":"yes","recycling_type":"container"}},"type":"Feature"},
	{"geometry":{"coordinates":[13.3145,52.491566],"type":"Point"},"properties":{"osm_id":"666388887","ref":"W\u00c3\u00bcrttembergische Str. 1 / Am Preu\u00c3\u009fenpark","tag":{"amenity":"recycling","operator":"Karl Meyer Rohstoffverwertung","recycling:glass_bottles":"yes","recycling_type":"container"}},"type":"Feature"},
	{"geometry":{"coordinates":[13.345321,52.487236],"type":"Point"},"properties":{"osm_id":"670658013","tag":{"amenity":"recycling","operator":"Karl Meyer Rohstoffverwertung","recycling:glass_bottles":"yes","recycling_type":"container"}},"type":"Feature"},
	{"geometry":{"coordinates":[13.344951,52.492736],"type":"Point"},"properties":{"osm_id":"670658025","tag":{"amenity":"recycling","recycling:glass_bottles":"yes","recycling_type":"container"}},"type":"Feature"},
	{"geometry":{"coordinates":[13.346407,52.496313],"type":"Point"},"properties":{"osm_id":"670658027","tag":{"amenity":"recycling","recycling:glass_bottles":"yes","recycling_type":"container"}},"type":"Feature"},
	{"geometry":{"coordinates":[13.358997,52.520899],"type":"Point"},"properties":{"osm_id":"686534293","tag":{"amenity":"recycling","recycling:glass_bottles":"yes","recycling_type":"container"}},"type":"Feature"},
	{"geometry":{"coordinates":[13.350728,52.48304],"type":"Point"},"properties":{"osm_id":"689563395","tag":{"amenity":"recycling","recycling:glass_bottles":"yes","recycling_type":"container"}},"type":"Feature"},
	{"geometry":{"coordinates":[13.35424,52.485295],"type":"Point"},"properties":{"osm_id":"689563399","tag":{"amenity":"recycling","recycling:glass_bottles":"yes","recycling_type":"container"}},"type":"Feature"},
	{"geometry":{"coordinates":[13.303364,52.494409],"type":"Point"},"properties":{"osm_id":"693892009","tag":{"amenity":"recycling","check_date":"2017-10-18","recycling:clothes":"yes","recycling_type":"container"}},"type":"Feature"},
	{"geometry":{"coordinates":[13.310416,52.504791],"type":"Point"},"properties":{"osm_id":"693892033","tag":{"amenity":"recycling","check_date":"2017-11-16","location":"overground","recycling:clothes":"yes","recycling_type":"container"}},"type":"Feature"},
	{"geometry":{"coordinates":[13.320725,52.491682],"type":"Point"},"properties":{"osm_id":"693892040","tag":{"amenity":"recycling","check_date":"2017-10-18","description":"2 Container","operator":"Newtex","recycling:clothes":"yes","recycling_type":"container"}},"type":"Feature"},
	{"geometry":{"coordinates":[13.323635,52.49522],"type":"Point"},"properties":{"osm_id":"693892052","ref":"D\u00c3\u00bcsseldorfer Str. Ecke Uhlandstr. vor Nah und gut","tag":{"amenity":"recycling","operator":"Karl Meyer Rohstoffverwertung","recycling:glass_bottles":"yes","recycling_type":"container"}},"type":"Feature"},
	{"geometry":{"coordinates":[13.331192,52.489924],"type":"Point"},"properties":{"osm_id":"704002930","ref":"Bundesallee 189 Ecke Tharandter Str.","tag":{"amenity":"recycling","operator":"Karl Meyer Rohstoffverwertung","recycling:glass_bottles":"yes","recycling_type":"container"}},"type":"Feature"},
	{"geometry":{"coordinates":[13.336077,52.494703],"type":"Point"},"properties":{"osm_id":"704913882","ref":"Nachodstr. 25","tag":{"amenity":"recycling","operator":"Karl Meyer Rohstoffverwertung","recycling:glass_bottles":"yes","recycling_type":"container"}},"type":"Feature"},
	{"geometry":{"coordinates":[13.30059,52.507663],"type":"Point"},"properties":{"osm_id":"705513418","tag":{"amenity":"recycling","operator":"Deutsches Rotes Kreuz","recycling:clothes":"yes","recycling_type":"container"}},"type":"Feature"},
	{"geometry":{"coordinates":[13.300388,52.503605],"type":"Point"},"properties":{"osm_id":"715005427","tag":{"amenity":"recycling","check_date":"2017-10","description":"2 Container","operator":"Deutsches Rotes Kreuz","recycling:clothes":"yes","recycling_type":"container"}},"type":"Feature"},
	{"geometry":{"coordinates":[13.310996,52.510516],"type":"Point"},"properties":{"osm_id":"715911573","tag":{"amenity":"recycling","check_date":"2017-10-19","operator":"Texaid","recycling:clothes":"yes","recycling_type":"container"}},"type":"Feature"},
	{"geometry":{"coordinates":[13.306661,52.510174],"type":"Point"},"properties":{"osm_id":"715911612","tag":{"amenity":"recycling","recycling:clothes":"yes","recycling_type":"container"}},"type":"Feature"},
	{"geometry":{"coordinates":[13.292962,52.507527],"type":"Point"},"properties":{"osm_id":"715911627","tag":{"amenity":"recycling","check_date":"2017-10","recycling:clothes":"yes","recycling_type":"container"}},"type":"Feature"},
	{"geometry":{"coordinates":[13.300042,52.510072],"type":"Point"},"properties":{"osm_id":"715911676","tag":{"amenity":"recycling","operator":"Karl Meyer Rohstoffverwertung","recycling:glass_bottles":"yes","recycling_type":"container"}},"type":"Feature"},
	{"geometry":{"coordinates":[13.289686,52.506539],"type":"Point"},"properties":{"osm_id":"718143699","ref":"Neue Kantstr. Ecke Kuno-Fischer-Str.","tag":{"amenity":"recycling","operator":"Karl Meyer Rohstoffverwertung","recycling:glass_bottles":"yes","recycling_type":"container"}},"type":"Feature"},
	{"geometry":{"coordinates":[13.303275,52.511127],"type":"Point"},"properties":{"osm_id":"726593851","ref":"Bismarckstr. 78 Ecke R\u00c3\u00bcckertstr.","tag":{"amenity":"recycling","operator":"Rhenus","recycling:glass_bottles":"yes","recycling_type":"container"}},"type":"Feature"},
	{"geometry":{"coordinates":[13.349328,52.491457],"type":"Point"},"properties":{"osm_id":"727851982","tag":{"amenity":"recycling","operator":"Karl Meyer Rohstoffverwertung","recycling:glass_bottles":"yes","recycling_type":"container"}},"type":"Feature"},
	{"geometry":{"coordinates":[13.358744,52.486043],"type":"Point"},"properties":{"osm_id":"727851994","tag":{"amenity":"recycling","operator":"Deutsches Rotes Kreuz","recycling:clothes":"yes","recycling_type":"container"}},"type":"Feature"},
	{"geometry":{"coordinates":[13.352107,52.488571],"type":"Point"},"properties":{"osm_id":"727852002","tag":{"amenity":"recycling","operator":"Karl Meyer Rohstoffverwertung","recycling:glass_bottles":"yes","recycling_type":"container"}},"type":"Feature"},
	{"geometry":{"coordinates":[13.35901,52.485771],"type":"Point"},"properties":{"osm_id":"727852091","tag":{"amenity":"recycling","operator":"Karl Meyer Rohstoffverwertung","recycling:glass_bottles":"yes","recycling_type":"container"}},"type":"Feature"},
	{"geometry":{"coordinates":[13.326651,52.51555],"type":"Point"},"properties":{"osm_id":"738447127","tag":{"amenity":"waste_basket","description":"TUB Au\u00c3\u009fenabfallbeh\u00c3\u00a4lter 138, Zweifachtrenner"}},"type":"Feature"},
	{"geometry":{"coordinates":[13.338886,52.532926],"type":"Point"},"properties":{"osm_id":"743382953","tag":{"amenity":"recycling","location":"overground","recycling:glass_bottles":"yes","recycling_type":"container"}},"type":"Feature"},
	{"geometry":{"coordinates":[13.33455,52.488117],"type":"Point"},"properties":{"osm_id":"750033389","tag":{"amenity":"recycling","check_date":"2017-10-18","description":"2 Container","operator":"Humana","recycling:clothes":"yes","recycling_type":"container"}},"type":"Feature"},
	{"geometry":{"coordinates":[13.323134,52.515591],"type":"Point"},"properties":{"osm_id":"768569343","ref":"Marchstr. 25 \u00e2\u0080\u0093 25 B Ecke Guerickestr.","tag":{"amenity":"recycling","operator":"Karl Meyer Rohstoffverwertung","recycling:glass_bottles":"yes","recycling_type":"container"}},"type":"Feature"},
	{"geometry":{"coordinates":[13.29873,52.48775],"type":"Point"},"properties":{"osm_id":"841811532","tag":{"amenity":"recycling","check_date":"2017-10-18","operator":"Deutsches Rotes Kreuz","recycling:clothes":"yes","recycling_type":"container"}},"type":"Feature"},
	{"geometry":{"coordinates":[13.32465,52.516954],"type":"Point"},"properties":{"osm_id":"851147440","tag":{"amenity":"waste_basket"}},"type":"Feature"},
	{"geometry":{"coordinates":[13.29698,52.511452],"type":"Point"},"properties":{"osm_id":"862818239","tag":{"amenity":"waste_basket"}},"type":"Feature"},
	{"geometry":{"coordinates":[13.325679,52.521607],"type":"Point"},"properties":{"osm_id":"865282143","ref":"Helmholtzstr. gg\u00c3\u00bc. Nr. 28","tag":{"amenity":"recycling","brown":"yes","green":"yes","operator":"Karl Meyer Rohstoffverwertung","recycling:glass_bottles":"yes","recycling_type":"container","white":"yes"}},"type":"Feature"},
	{"geometry":{"coordinates":[13.329846,52.525758],"type":"Point"},"properties":{"osm_id":"867497553","tag":{"amenity":"recycling","operator":"Deutsches Rotes Kreuz","recycling:clothes":"yes","recycling_type":"container"}},"type":"Feature"},
	{"geometry":{"coordinates":[13.28546,52.522248],"type":"Point"},"properties":{"osm_id":"918357974","tag":{"amenity":"recycling","recycling:clothes":"yes","recycling_type":"container"}},"type":"Feature"},
	{"geometry":{"coordinates":[13.287799,52.524592],"type":"Point"},"properties":{"osm_id":"918358077","tag":{"amenity":"recycling","check_date":"2017-11-27","recycling:clothes":"yes","recycling_type":"container"}},"type":"Feature"},
	{"geometry":{"coordinates":[13.290374,52.5189],"type":"Point"},"properties":{"osm_id":"918358084","ref":"Klausenerplatz 23","tag":{"amenity":"recycling","brown":"yes","green":"yes","operator":"Karl Meyer Rohstoffverwertung","recycling:glass_bottles":"yes","recycling_type":"container","white":"yes"}},"type":"Feature"},
	{"geometry":{"coordinates":[13.348014,52.485292],"type":"Point"},"properties":{"osm_id":"919808836","tag":{"amenity":"recycling","operator":"Karl Meyer Rohstoffverwertung","recycling:glass_bottles":"yes","recycling_type":"container"}},"type":"Feature"},
	{"geometry":{"coordinates":[13.355339,52.494436],"type":"Point"},"properties":{"osm_id":"923108499","tag":{"amenity":"recycling","recycling:glass_bottles":"yes","recycling_type":"container"}},"type":"Feature"},
	{"geometry":{"coordinates":[13.328906,52.527607],"type":"Point"},"properties":{"osm_id":"926945503","tag":{"amenity":"recycling","operator":"Familienschutzwerk","recycling:clothes":"yes","recycling_type":"centre"}},"type":"Feature"},
	{"geometry":{"coordinates":[13.328431,52.52993],"type":"Point"},"properties":{"osm_id":"926945643","tag":{"amenity":"recycling","location":"overground","operator":"Deutsches Rotes Kreuz","recycling:clothes":"yes","recycling_type":"container"}},"type":"Feature"},
	{"geometry":{"coordinates":[13.355787,52.48781],"type":"Point"},"properties":{"osm_id":"950770876","tag":{"amenity":"recycling","operator":"Karl Meyer Rohstoffverwertung","recycling:glass_bottles":"yes","recycling_type":"container"}},"type":"Feature"},
	{"geometry":{"coordinates":[13.279601,52.51009],"type":"Point"},"properties":{"osm_id":"960210822","tag":{"amenity":"waste_basket"}},"type":"Feature"},
	{"geometry":{"coordinates":[13.279877,52.510059],"type":"Point"},"properties":{"osm_id":"960210862","tag":{"amenity":"waste_basket"}},"type":"Feature"},
	{"geometry":{"coordinates":[13.289348,52.499866],"type":"Point"},"properties":{"osm_id":"967206095","tag":{"amenity":"recycling","check_date":"2017-11-16","operator":"Deutsches Rotes Kreuz","recycling:clothes":"yes","recycling_type":"container"}},"type":"Feature"},
	{"geometry":{"coordinates":[13.291482,52.501122],"type":"Point"},"properties":{"osm_id":"967206132","tag":{"amenity":"recycling","check_date":"2017-11-16","recycling:clothes":"yes","recycling_type":"container"}},"type":"Feature"},
	{"geometry":{"coordinates":[13.293417,52.488579],"type":"Point"},"properties":{"osm_id":"986312021","tag":{"amenity":"recycling","check_date":"2017-10-18","operator":"Humana","recycling:clothes":"yes","recycling_type":"container"}},"type":"Feature"},
	{"geometry":{"coordinates":[13.331333,52.499459],"type":"Point"},"properties":{"osm_id":"987921487","tag":{"amenity":"recycling","operator":"Deutsches Rotes Kreuz","recycling:clothes":"yes","recycling_type":"container"}},"type":"Feature"},
	{"geometry":{"coordinates":[13.3278,52.49877],"type":"Point"},"properties":{"osm_id":"987921488","tag":{"amenity":"recycling","check_date":"2017-10-19","description":"2 Container","operator":"Familienschutzwerk","recycling:clothes":"yes","recycling_type":"container"}},"type":"Feature"},
	{"geometry":{"coordinates":[13.27755,52.509999],"type":"Point"},"properties":{"osm_id":"1026507211","ref":"Soorstr. 26 Ecke Kaiserdamm Shell-Tankstelle","tag":{"amenity":"recycling","operator":"Karl Meyer Rohstoffverwertung","recycling:glass_bottles":"yes","recycling_type":"container"}},"type":"Feature"},
	{"geometry":{"coordinates":[13.281218,52.515484],"type":"Point"},"properties":{"osm_id":"1026507217","ref":"K\u00c3\u00b6nigin-Elisabeth-Str. 32 - 44 / Friedhof","tag":{"amenity":"recycling","operator":"Karl Meyer Rohstoffverwertung","recycling:glass_bottles":"yes","recycling_type":"container"}},"type":"Feature"},
	{"geometry":{"coordinates":[13.277472,52.509908],"type":"Point"},"properties":{"osm_id":"1070756036","tag":{"amenity":"waste_basket"}},"type":"Feature"},
	{"geometry":{"coordinates":[13.273207,52.509892],"type":"Point"},"properties":{"osm_id":"1076950290","tag":{"amenity":"waste_basket"}},"type":"Feature"},
	{"geometry":{"coordinates":[13.27356,52.509839],"type":"Point"},"properties":{"osm_id":"1076950293","tag":{"amenity":"waste_basket"}},"type":"Feature"},
	{"geometry":{"coordinates":[13.274657,52.50972],"type":"Point"},"properties":{"osm_id":"1076950299","tag":{"amenity":"waste_basket"}},"type":"Feature"},
	{"geometry":{"coordinates":[13.304026,52.504389],"type":"Point"},"properties":{"osm_id":"1119515783","tag":{"amenity":"recycling","operator":"Deutsches Rotes Kreuz","recycling:clothes":"yes","recycling_type":"container"}},"type":"Feature"},
	{"geometry":{"coordinates":[13.356798,52.522791],"type":"Point"},"properties":{"osm_id":"1149262924","tag":{"amenity":"recycling","brand":"Textil-Recycling Nord","location":"overground","operator":"Textil-Recycling Nord","recycling:clothes":"yes","recycling_type":"container"}},"type":"Feature"},
	{"geometry":{"coordinates":[13.35645,52.521753],"type":"Point"},"properties":{"osm_id":"1149262936","tag":{"amenity":"recycling","brand":"Textil-Recycling Nord","location":"overground","operator":"Textil-Recycling Nord","recycling:clothes":"yes","recycling_type":"container"}},"type":"Feature"},
	{"geometry":{"coordinates":[13.306815,52.516773],"type":"Point"},"properties":{"osm_id":"1194597912","ref":"Richard-Wagner-Str. 56","tag":{"amenity":"recycling","brown":"yes","green":"yes","operator":"Karl Meyer Rohstoffverwertung","recycling:glass_bottles":"yes","recycling_type":"container","white":"yes"}},"type":"Feature"},
	{"geometry":{"coordinates":[13.296807,52.516019],"type":"Point"},"properties":{"osm_id":"1194782040","ref":"Schlo\u00c3\u009fstr. 56 / Parkplatz","tag":{"amenity":"recycling","operator":"Karl Meyer Rohstoffverwertung","recycling:glass_bottles":"yes","recycling_type":"container"}},"type":"Feature"},
	{"geometry":{"coordinates":[13.296899,52.511923],"type":"Point"},"properties":{"osm_id":"1194782081","tag":{"amenity":"recycling","check_date":"2017-11-16","operator":"Deutsches Rotes Kreuz","recycling:clothes":"yes","recycling_type":"container"}},"type":"Feature"},
	{"geometry":{"coordinates":[13.297193,52.51362],"type":"Point"},"properties":{"osm_id":"1194782103","ref":"Schlo\u00c3\u009fstr. Ecke Hebbelstr.","tag":{"amenity":"recycling","operator":"Karl Meyer Rohstoffverwertung","recycling:glass_bottles":"yes","recycling_type":"container"}},"type":"Feature"},
	{"geometry":{"coordinates":[13.333664,52.521532],"type":"Point"},"properties":{"osm_id":"1198768288","tag":{"amenity":"recycling","location":"overground","recycling:clothes":"yes","recycling_type":"container"}},"type":"Feature"},
	{"geometry":{"coordinates":[13.353936,52.523779],"type":"Point"},"properties":{"osm_id":"1198768306","tag":{"amenity":"recycling","recycling:glass_bottles":"yes","recycling_type":"container"}},"type":"Feature"},
	{"geometry":{"coordinates":[13.333812,52.521087],"type":"Point"},"properties":{"osm_id":"1198768397","tag":{"amenity":"recycling","recycling:glass_bottles":"yes","recycling_type":"container"}},"type":"Feature"},
	{"geometry":{"coordinates":[13.327465,52.511741],"type":"Point"},"properties":{"osm_id":"1200182246","ref":"TUB Au\u00c3\u009fenabfallbeh\u00c3\u00a4lter 003","tag":{"amenity":"waste_basket","description:de":"Zweifachtrenner mit Ascher"}},"type":"Feature"},
	{"geometry":{"coordinates":[13.315151,52.486451],"type":"Point"},"properties":{"barrier":"lift_gate","osm_id":"1203640608","tag":{"access":"customers"}},"type":"Feature"},
	{"geometry":{"coordinates":[13.315531,52.486191],"type":"Point"},"properties":{"barrier":"lift_gate","osm_id":"1212411872","tag":{"access":"customers"}},"type":"Feature"},
	{"geometry":{"coordinates":[13.296346,52.483757],"type":"Point"},"properties":{"osm_id":"1240609775","tag":{"amenity":"recycling","description":"Fritz-Wildung-Str. Ecke Cunostr. im Parkhafen","green":"yes","operator":"Rhenus","recycling:glass_bottles":"yes","recycling_type":"container","white":"yes"}},"type":"Feature"},
	{"geometry":{"coordinates":[13.345942,52.519008],"type":"Point"},"properties":{"osm_id":"1256825681","tag":{"amenity":"recycling","operator":"Akza Textilrecycling","recycling:clothes":"yes","recycling_type":"container"}},"type":"Feature"},
	{"geometry":{"coordinates":[13.346145,52.520189],"type":"Point"},"properties":{"osm_id":"1256825703","tag":{"amenity":"recycling","location":"overground","operator":"Karl Meyer Rohstoffverwertung","recycling:glass_bottles":"yes","recycling_type":"container"}},"type":"Feature"},
	{"geometry":{"coordinates":[13.340122,52.518597],"type":"Point"},"properties":{"osm_id":"1256825711","tag":{"amenity":"recycling","location":"overground","operator":"RS","recycling:clothes":"yes","recycling_type":"container"}},"type":"Feature"},
	{"geometry":{"coordinates":[13.353977,52.483564],"type":"Point"},"properties":{"osm_id":"1259355829","tag":{"amenity":"recycling","operator":"Berlin-Textilrecycling","recycling:clothes":"yes","recycling_type":"container"}},"type":"Feature"},
	{"geometry":{"coordinates":[13.315587,52.517963],"type":"Point"},"properties":{"osm_id":"1305230435","ref":"Guerickestr. Ecke Galvanistr.","tag":{"amenity":"recycling","operator":"Karl Meyer Rohstoffverwertung","recycling:glass_bottles":"yes","recycling_type":"container"}},"type":"Feature"},
	{"geometry":{"coordinates":[13.295349,52.51325],"type":"Point"},"properties":{"osm_id":"1313503800","tag":{"amenity":"recycling","check_date":"2017-11-16","operator":"Deutsches Rotes Kreuz","recycling:clothes":"yes","recycling_type":"container"}},"type":"Feature"},
	{"geometry":{"coordinates":[13.296975,52.492091],"type":"Point"},"properties":{"osm_id":"1373665465","tag":{"amenity":"recycling","check_date":"2017-10-18","operator":"Deutsches Rotes Kreuz","recycling:clothes":"yes","recycling_type":"container"}},"type":"Feature"},
	{"geometry":{"coordinates":[13.315573,52.486261],"type":"Point"},"properties":{"osm_id":"1485772797","tag":{"amenity":"recycling","operator":"Deutsches Rotes Kreuz","recycling:clothes":"yes","recycling_type":"container"}},"type":"Feature"},
	{"geometry":{"coordinates":[13.319461,52.487249],"type":"Point"},"properties":{"osm_id":"1485772906","ref":"Brandenburgische Str. 1 - 2 Ecke Sigmaringer Str.","tag":{"amenity":"recycling","operator":"Karl Meyer Rohstoffverwertung","recycling:glass_bottles":"yes","recycling_type":"container"}},"type":"Feature"},
	{"geometry":{"coordinates":[13.301847,52.488203],"type":"Point"},"properties":{"osm_id":"1487622402","tag":{"amenity":"waste_basket"}},"type":"Feature"},
	{"geometry":{"coordinates":[13.318647,52.484749],"type":"Point"},"properties":{"osm_id":"1496353304","tag":{"amenity":"waste_basket"}},"type":"Feature"},
	{"geometry":{"coordinates":[13.321879,52.516546],"type":"Point"},"properties":{"osm_id":"1570571913","ref":"Guerickestr. 25","tag":{"amenity":"recycling","operator":"Rhenus","recycling:glass_bottles":"yes","recycling_type":"container"}},"type":"Feature"},
	{"geometry":{"coordinates":[13.27292,52.519555],"type":"Point"},"properties":{"osm_id":"1570571914","ref":"Spandauer Damm / gg\u00c3\u00bc. Kastanienallee","tag":{"amenity":"recycling","operator":"Rhenus","recycling:glass_bottles":"yes","recycling_type":"container"}},"type":"Feature"},
	{"geometry":{"coordinates":[13.314664,52.521635],"type":"Point"},"properties":{"osm_id":"1570571916","ref":"Darwinstr. gg\u00c3\u00bc. Nr. 5","tag":{"amenity":"recycling","operator":"Karl Meyer Rohstoffverwertung","recycling:glass_bottles":"yes","recycling_type":"container"}},"type":"Feature"},
	{"geometry":{"coordinates":[13.302519,52.527008],"type":"Point"},"properties":{"osm_id":"1570571929","tag":{"amenity":"recycling","opening_hours":"Mo-Sa 07:00-13:00, 15:00-20:00; PH off","operator":"Berlin Recycling","recycling:glass_bottles":"yes","recycling_type":"container"}},"type":"Feature"},
	{"geometry":{"coordinates":[13.310031,52.529283],"type":"Point"},"properties":{"osm_id":"1570571930","ref":"Gau\u00c3\u009fstr. 10 vor der Laubenkolonie","tag":{"amenity":"recycling","operator":"Rhenus","recycling:glass_bottles":"yes","recycling_type":"container"}},"type":"Feature"},
	{"geometry":{"coordinates":[13.27609,52.509449],"type":"Point"},"properties":{"osm_id":"1571568724","ref":"Kaiserdamm 77 \u00e2\u0080\u0093 79 / RBB","tag":{"amenity":"recycling","operator":"Karl Meyer Rohstoffverwertung","recycling:glass_bottles":"yes","recycling_type":"container"}},"type":"Feature"},
	{"geometry":{"coordinates":[13.28255,52.512799],"type":"Point"},"properties":{"osm_id":"1571568764","ref":"Knobelsdorffstr. 85 N\u00c3\u00a4he K\u00c3\u00b6nigin-Elisabeth-Str.","tag":{"amenity":"recycling","operator":"Rhenus","recycling:glass_bottles":"yes","recycling_type":"container"}},"type":"Feature"},
	{"geometry":{"coordinates":[13.307496,52.484268],"type":"Point"},"properties":{"osm_id":"1573066811","ref":"Rudolst\u00c3\u00a4dter Str. 42 gg\u00c3\u00bc. / Parkpatz unter Br\u00c3\u00bccke Abzweig Steglitz","tag":{"amenity":"recycling","brown":"yes","green":"yes","operator":"Karl Meyer Rohstoffverwertung","recycling:glass_bottles":"yes","recycling_type":"container","white":"yes"}},"type":"Feature"},
	{"geometry":{"coordinates":[13.292925,52.484308],"type":"Point"},"properties":{"osm_id":"1573066812","ref":"Flinsberger Platz Ecke Hohenzollerndamm","tag":{"amenity":"recycling","operator":"Karl Meyer Rohstoffverwertung","recycling:glass_bottles":"yes","recycling_type":"container"}},"type":"Feature"},
	{"geometry":{"coordinates":[13.306924,52.48818],"type":"Point"},"properties":{"osm_id":"1573066813","ref":"Berliner Str. 80 Ecke Hohenzollerndamm","tag":{"amenity":"recycling","operator":"Karl Meyer Rohstoffverwertung","recycling:glass_bottles":"yes","recycling_type":"container"}},"type":"Feature"},
	{"geometry":{"coordinates":[13.346228,52.499136],"type":"Point"},"properties":{"osm_id":"1738706643","tag":{"amenity":"recycling","brown":"yes","green":"yes","operator":"Karl Meyer Rohstoffverwertung","recycling:glass_bottles":"yes","recycling_type":"container","white":"yes"}},"type":"Feature"},
	{"geometry":{"coordinates":[13.336158,52.524546],"type":"Point"},"properties":{"osm_id":"1739766999","tag":{"amenity":"recycling","mapillary":"99LwPZP8C6bCrPm9y6y7Bg","operator":"Bera Textilrecycling","recycling:clothes":"yes","recycling_type":"container","survey:date":"2019-03-03"}},"type":"Feature"},
	{"geometry":{"coordinates":[13.336371,52.524737],"type":"Point"},"properties":{"osm_id":"1739767001","tag":{"amenity":"recycling","location":"overground","recycling:clothes":"yes","recycling_type":"container"}},"type":"Feature"},
	{"geometry":{"coordinates":[13.3375,52.525162],"type":"Point"},"properties":{"osm_id":"1739767002","tag":{"amenity":"recycling","location":"overground","recycling:clothes":"yes","recycling_type":"container"}},"type":"Feature"},
	{"geometry":{"coordinates":[13.342153,52.487571],"type":"Point"},"properties":{"osm_id":"1761402301","tag":{"amenity":"waste_basket"}},"type":"Feature"},
	{"geometry":{"coordinates":[13.306491,52.520038],"type":"Point"},"properties":{"osm_id":"1773502042","tag":{"amenity":"recycling","operator":"Deutsches Rotes Kreuz","recycling:clothes":"yes","recycling_type":"container"}},"type":"Feature"},
	{"geometry":{"coordinates":[13.300752,52.489669],"type":"Point"},"properties":{"osm_id":"1778493805","tag":{"amenity":"waste_basket"}},"type":"Feature"},
	{"geometry":{"coordinates":[13.346166,52.505646],"type":"Point"},"properties":{"osm_id":"1843866474","tag":{"amenity":"waste_basket"}},"type":"Feature"},
	{"geometry":{"coordinates":[13.301656,52.49369],"type":"Point"},"properties":{"osm_id":"1888655253","tag":{"access":"private","amenity":"waste_disposal"}},"type":"Feature"},
	{"geometry":{"coordinates":[13.32652,52.518336],"type":"Point"},"properties":{"osm_id":"1953021651","tag":{"access":"private","amenity":"waste_disposal"}},"type":"Feature"},
	{"geometry":{"coordinates":[13.315373,52.499202],"type":"Point"},"properties":{"osm_id":"2021286600","tag":{"amenity":"waste_basket"}},"type":"Feature"},
	{"geometry":{"coordinates":[13.305908,52.503537],"type":"Point"},"properties":{"osm_id":"2021286617","tag":{"amenity":"waste_basket"}},"type":"Feature"},
	{"geometry":{"coordinates":[13.307716,52.503556],"type":"Point"},"properties":{"osm_id":"2021286618","tag":{"amenity":"waste_basket"}},"type":"Feature"},
	{"geometry":{"coordinates":[13.307469,52.503716],"type":"Point"},"properties":{"osm_id":"2021286623","tag":{"amenity":"waste_basket"}},"type":"Feature"},
	{"geometry":{"coordinates":[13.315386,52.486408],"type":"Point"},"properties":{"barrier":"gate","osm_id":"2266162664","tag":{"access":"customers"}},"type":"Feature"},
	{"geometry":{"coordinates":[13.358915,52.51991],"type":"Point"},"properties":{"osm_id":"2284611497","tag":{"amenity":"waste_basket"}},"type":"Feature"},
	{"geometry":{"coordinates":[13.341587,52.534264],"type":"Point"},"properties":{"osm_id":"2299861698","tag":{"amenity":"recycling","location":"overground","recycling:clothes":"yes","recycling_type":"container"}},"type":"Feature"},
	{"geometry":{"coordinates":[13.34161,52.534267],"type":"Point"},"properties":{"osm_id":"2299861699","tag":{"amenity":"recycling","location":"overground","operator":"Humana","recycling:clothes":"yes","recycling_type":"container"}},"type":"Feature"},
	{"geometry":{"coordinates":[13.34164,52.534268],"type":"Point"},"properties":{"osm_id":"2299861700","tag":{"amenity":"recycling","location":"overground","operator":"Deutsches Kinderhilfswerk","recycling:clothes":"yes","recycling_type":"container"}},"type":"Feature"},
	{"geometry":{"coordinates":[13.289569,52.494518],"type":"Point"},"properties":{"osm_id":"2314503863","tag":{"amenity":"waste_basket"}},"type":"Feature"},
	{"geometry":{"coordinates":[13.294587,52.510961],"type":"Point"},"properties":{"osm_id":"2329971742","tag":{"amenity":"waste_basket"}},"type":"Feature"},
	{"geometry":{"coordinates":[13.347192,52.505377],"type":"Point"},"properties":{"osm_id":"2402905125","tag":{"amenity":"waste_basket"}},"type":"Feature"},
	{"geometry":{"coordinates":[13.346602,52.50466],"type":"Point"},"properties":{"osm_id":"2402905126","tag":{"amenity":"waste_basket"}},"type":"Feature"},
	{"geometry":{"coordinates":[13.313107,52.517754],"type":"Point"},"properties":{"osm_id":"2513403213","tag":{"amenity":"recycling","check_date":"2017-10-19","recycling:clothes":"yes","recycling_type":"container"}},"type":"Feature"},
	{"geometry":{"coordinates":[13.298687,52.535086],"type":"Point"},"properties":{"osm_id":"2517677619","tag":{"amenity":"recycling","recycling:white_goods":"yes","recycling_type":"container"}},"type":"Feature"},
	{"geometry":{"coordinates":[13.298708,52.535094],"type":"Point"},"properties":{"osm_id":"2517677620","tag":{"amenity":"recycling","colour":"white","recycling:glass_bottles":"yes","recycling_type":"container","white":"yes"}},"type":"Feature"},
	{"geometry":{"coordinates":[13.298731,52.535104],"type":"Point"},"properties":{"osm_id":"2517677621","tag":{"amenity":"recycling","colour":"green","green":"yes","recycling:glass_bottles":"yes","recycling_type":"container"}},"type":"Feature"},
	{"geometry":{"coordinates":[13.298754,52.535115],"type":"Point"},"properties":{"osm_id":"2517677622","tag":{"amenity":"recycling","brown":"yes","colour":"brown","recycling:glass_bottles":"yes","recycling_type":"container"}},"type":"Feature"},
	{"geometry":{"coordinates":[13.302614,52.535682],"type":"Point"},"properties":{"osm_id":"2517677623","tag":{"amenity":"recycling","recycling:white_goods":"yes","recycling_type":"container"}},"type":"Feature"},
	{"geometry":{"coordinates":[13.345897,52.503487],"type":"Point"},"properties":{"osm_id":"2680095737","tag":{"amenity":"waste_basket"}},"type":"Feature"},
	{"geometry":{"coordinates":[13.345889,52.502027],"type":"Point"},"properties":{"osm_id":"2680095758","tag":{"amenity":"waste_basket"}},"type":"Feature"},
	{"geometry":{"coordinates":[13.344347,52.501686],"type":"Point"},"properties":{"osm_id":"2680095768","tag":{"amenity":"waste_basket"}},"type":"Feature"},
	{"geometry":{"coordinates":[13.302428,52.513482],"type":"Point"},"properties":{"osm_id":"2713708731","tag":{"amenity":"recycling","recycling:glass_bottles":"yes","recycling_type":"container"}},"type":"Feature"},
	{"geometry":{"coordinates":[13.306667,52.484932],"type":"Point"},"properties":{"osm_id":"2727650013","tag":{"amenity":"recycling","check_date":"2017-10-19","recycling:clothes":"yes","recycling_type":"container"}},"type":"Feature"},
	{"geometry":{"coordinates":[13.300466,52.489552],"type":"Point"},"properties":{"osm_id":"2968209471","tag":{"amenity":"waste_basket"}},"type":"Feature"},
	{"geometry":{"coordinates":[13.291198,52.49689],"type":"Point"},"properties":{"osm_id":"2993103229","tag":{"amenity":"waste_basket"}},"type":"Feature"},
	{"geometry":{"coordinates":[13.291263,52.496854],"type":"Point"},"properties":{"osm_id":"2993103230","tag":{"amenity":"waste_basket"}},"type":"Feature"},
	{"geometry":{"coordinates":[13.285847,52.53106],"type":"Point"},"properties":{"osm_id":"2993835806","tag":{"amenity":"waste_disposal"}},"type":"Feature"},
	{"geometry":{"coordinates":[13.282967,52.501413],"type":"Point"},"properties":{"osm_id":"3013553352","tag":{"amenity":"waste_basket"}},"type":"Feature"},
	{"geometry":{"coordinates":[13.28267,52.501378],"type":"Point"},"properties":{"osm_id":"3013553353","tag":{"amenity":"waste_basket"}},"type":"Feature"},
	{"geometry":{"coordinates":[13.314313,52.490142],"type":"Point"},"properties":{"osm_id":"3013582393","tag":{"amenity":"waste_basket"}},"type":"Feature"},
	{"geometry":{"coordinates":[13.286633,52.535319],"type":"Point"},"properties":{"osm_id":"3015494645","tag":{"amenity":"waste_basket"}},"type":"Feature"},
	{"geometry":{"coordinates":[13.2864,52.535221],"type":"Point"},"properties":{"osm_id":"3015494646","tag":{"amenity":"recycling","operator":"Deutsches Rotes Kreuz","recycling:clothes":"yes","recycling_type":"container","survey:date":"2018-08-20"}},"type":"Feature"},
	{"geometry":{"coordinates":[13.282633,52.534905],"type":"Point"},"properties":{"osm_id":"3015494648","tag":{"amenity":"recycling","recycling:glass_bottles":"yes","recycling_type":"container"}},"type":"Feature"},
	{"geometry":{"coordinates":[13.290005,52.497212],"type":"Point"},"properties":{"osm_id":"3028140196","tag":{"amenity":"waste_basket"}},"type":"Feature"},
	{"geometry":{"coordinates":[13.290523,52.4974],"type":"Point"},"properties":{"osm_id":"3042484088","tag":{"amenity":"waste_basket"}},"type":"Feature"},
	{"geometry":{"coordinates":[13.304171,52.5183],"type":"Point"},"properties":{"osm_id":"3220151402","tag":{"amenity":"waste_basket"}},"type":"Feature"},
	{"geometry":{"coordinates":[13.338716,52.52589],"type":"Point"},"properties":{"osm_id":"3304161666","tag":{"amenity":"waste_basket"}},"type":"Feature"},
	{"geometry":{"coordinates":[13.337892,52.525971],"type":"Point"},"properties":{"osm_id":"3304161680","tag":{"amenity":"waste_basket"}},"type":"Feature"},
	{"geometry":{"coordinates":[13.34169,52.510007],"type":"Point"},"properties":{"osm_id":"3370675956","tag":{"amenity":"waste_basket"}},"type":"Feature"},
	{"geometry":{"coordinates":[13.304676,52.514696],"type":"Point"},"properties":{"osm_id":"3553888915","tag":{"amenity":"waste_basket"}},"type":"Feature"},
	{"geometry":{"coordinates":[13.354297,52.528273],"type":"Point"},"properties":{"osm_id":"3897711394","tag":{"amenity":"recycling","email":"ariston.a.info@gmail.com","operator":"Kleiderspende","phone":"+49 178 46 87 106","recycling:clothes":"yes","recycling_type":"container"}},"type":"Feature"},
	{"geometry":{"coordinates":[13.33559,52.513894],"type":"Point"},"properties":{"osm_id":"3935687176","tag":{"amenity":"waste_basket"}},"type":"Feature"},
	{"geometry":{"coordinates":[13.331489,52.52243],"type":"Point"},"properties":{"osm_id":"3946741185","tag":{"amenity":"waste_basket"}},"type":"Feature"},
	{"geometry":{"coordinates":[13.33184,52.523962],"type":"Point"},"properties":{"osm_id":"3946741186","tag":{"amenity":"waste_basket"}},"type":"Feature"},
	{"geometry":{"coordinates":[13.33021,52.522555],"type":"Point"},"properties":{"osm_id":"3946741288","tag":{"amenity":"waste_basket"}},"type":"Feature"},
	{"geometry":{"coordinates":[13.331687,52.52229],"type":"Point"},"properties":{"osm_id":"3946741290","tag":{"amenity":"waste_basket"}},"type":"Feature"},
	{"geometry":{"coordinates":[13.331222,52.522161],"type":"Point"},"properties":{"osm_id":"3946741291","tag":{"amenity":"waste_basket"}},"type":"Feature"},
	{"geometry":{"coordinates":[13.331221,52.52238],"type":"Point"},"properties":{"osm_id":"3946741292","tag":{"amenity":"waste_basket"}},"type":"Feature"},
	{"geometry":{"coordinates":[13.33168,52.523639],"type":"Point"},"properties":{"osm_id":"3946741293","tag":{"amenity":"waste_basket"}},"type":"Feature"},
	{"geometry":{"coordinates":[13.331322,52.523648],"type":"Point"},"properties":{"osm_id":"3946741296","tag":{"amenity":"waste_basket"}},"type":"Feature"},
	{"geometry":{"coordinates":[13.279945,52.518589],"type":"Point"},"properties":{"osm_id":"3964528026","tag":{"amenity":"waste_basket"}},"type":"Feature"},
	{"geometry":{"coordinates":[13.288962,52.535162],"type":"Point"},"properties":{"osm_id":"3964528118","tag":{"amenity":"waste_basket"}},"type":"Feature"},
	{"geometry":{"coordinates":[13.288384,52.535233],"type":"Point"},"properties":{"osm_id":"3964528119","tag":{"amenity":"waste_basket"}},"type":"Feature"},
	{"geometry":{"coordinates":[13.356833,52.486946],"type":"Point"},"properties":{"osm_id":"4024562468","tag":{"amenity":"waste_basket"}},"type":"Feature"},
	{"geometry":{"coordinates":[13.319476,52.505142],"type":"Point"},"properties":{"osm_id":"4206414386","tag":{"amenity":"waste_basket","level":"1"}},"type":"Feature"},
	{"geometry":{"coordinates":[13.318185,52.505214],"type":"Point"},"properties":{"osm_id":"4206415102","tag":{"amenity":"waste_basket","level":"1"}},"type":"Feature"},
	{"geometry":{"coordinates":[13.299103,52.523838],"type":"Point"},"properties":{"osm_id":"4320013780","tag":{"amenity":"waste_basket"}},"type":"Feature"},
	{"geometry":{"coordinates":[13.336419,52.504418],"type":"Point"},"properties":{"osm_id":"4329788963","tag":{"amenity":"waste_basket"}},"type":"Feature"},
	{"geometry":{"coordinates":[13.336057,52.504479],"type":"Point"},"properties":{"osm_id":"4329788964","tag":{"amenity":"waste_basket"}},"type":"Feature"},
	{"geometry":{"coordinates":[13.336269,52.504883],"type":"Point"},"properties":{"osm_id":"4329789138","tag":{"amenity":"waste_basket"}},"type":"Feature"},
	{"geometry":{"coordinates":[13.357226,52.52593],"type":"Point"},"properties":{"osm_id":"4431732698","tag":{"amenity":"recycling","brand":"Schalasch Interkulturelles Jugend- und Familienzentrum beim Club Dialog e.V.","operator":"Newtex","recycling:clothes":"yes","recycling_type":"container","website":"http://www.newtex.global"}},"type":"Feature"},
	{"geometry":{"coordinates":[13.359123,52.526531],"type":"Point"},"properties":{"osm_id":"4431732699","tag":{"amenity":"recycling","brand":"Familienschutzwerk","operator":"Nartex Verwaltungs GmbH","recycling:clothes":"yes","recycling_type":"container"}},"type":"Feature"},
	{"geometry":{"coordinates":[13.35754,52.526038],"type":"Point"},"properties":{"osm_id":"4431732700","tag":{"amenity":"recycling","brand":"Schalasch Interkulturelles Jugend- und Familienzentrum beim Club Dialog e.V.","operator":"Newtex","recycling:clothes":"yes","recycling_type":"container","website":"http://www.newtex.global"}},"type":"Feature"},
	{"geometry":{"coordinates":[13.356647,52.525754],"type":"Point"},"properties":{"osm_id":"4431732701","tag":{"amenity":"recycling","brand":"Der gr\u00c3\u00bcne Weg","operator":"Der gr\u00c3\u00bcne Weg","recycling:shoes":"yes","recycling_type":"container"}},"type":"Feature"},
	{"geometry":{"coordinates":[13.359195,52.526549],"type":"Point"},"properties":{"osm_id":"4431732702","tag":{"amenity":"recycling","brand":"Deutsches Rotes Kreuz","operator":"Deutsches Rotes Kreuz","recycling:clothes":"yes","recycling_type":"container","website":"http://www.drk-berlin-city.de"}},"type":"Feature"},
	{"geometry":{"coordinates":[13.359064,52.526515],"type":"Point"},"properties":{"osm_id":"4431732704","tag":{"amenity":"recycling","brand":"Familienschutzwerk","operator":"Nartex Verwaltungs GmbH","recycling:clothes":"yes","recycling_type":"container"}},"type":"Feature"},
	{"geometry":{"coordinates":[13.357597,52.526051],"type":"Point"},"properties":{"osm_id":"4431732705","tag":{"amenity":"recycling","brand":"Humana","operator":"Humana","recycling:clothes":"yes","recycling_type":"container"}},"type":"Feature"},
	{"geometry":{"coordinates":[13.342987,52.50455],"type":"Point"},"properties":{"osm_id":"4458737189","tag":{"amenity":"waste_basket"}},"type":"Feature"},
	{"geometry":{"coordinates":[13.325327,52.511622],"type":"Point"},"properties":{"osm_id":"4505764786","tag":{"amenity":"waste_basket","description":"TUB-Au\u00c3\u009fenabfallbeh\u00c3\u00a4lter 058. Zweifachtrenner mit Ascher"}},"type":"Feature"},
	{"geometry":{"coordinates":[13.328264,52.511822],"type":"Point"},"properties":{"osm_id":"4524927382","tag":{"amenity":"waste_basket","description":"TUB Au\u00c3\u009fenabfallbeh\u00c3\u00a4lter 001, Ascher"}},"type":"Feature"},
	{"geometry":{"coordinates":[13.327825,52.511793],"type":"Point"},"properties":{"osm_id":"4524927383","tag":{"amenity":"waste_basket","description":"TUB Au\u00c3\u009fenabfallbeh\u00c3\u00a4lter 002, Ascher"}},"type":"Feature"},
	{"geometry":{"coordinates":[13.3273,52.511738],"type":"Point"},"properties":{"osm_id":"4524927385","tag":{"amenity":"waste_basket","description":"TUB Au\u00c3\u009fenabfallbeh\u00c3\u00a4lter 004. Ascher"}},"type":"Feature"},
	{"geometry":{"coordinates":[13.328538,52.51215],"type":"Point"},"properties":{"osm_id":"4524927386","tag":{"amenity":"waste_basket","description":"TUB Au\u00c3\u009fenabfallbeh\u00c3\u00a4lter 005, Ascher"}},"type":"Feature"},
	{"geometry":{"coordinates":[13.328533,52.512169],"type":"Point"},"properties":{"osm_id":"4524927387","tag":{"amenity":"waste_basket","description":"TUB Au\u00c3\u009fenabfallbeh\u00c3\u00a4lter 006, Zweifachtrenner mit Ascher"}},"type":"Feature"},
	{"geometry":{"coordinates":[13.328538,52.51216],"type":"Point"},"properties":{"osm_id":"4524927388","tag":{"amenity":"waste_basket","description":"TUB Au\u00c3\u009fenabfallbeh\u00c3\u00a4lter 007, Ascher"}},"type":"Feature"},
	{"geometry":{"coordinates":[13.328233,52.512422],"type":"Point"},"properties":{"osm_id":"4524927689","ref":"TUB Au\u00c3\u009fenabfallbeh\u00c3\u00a4lter 008","tag":{"amenity":"waste_basket","description:de":"Ascher"}},"type":"Feature"},
	{"geometry":{"coordinates":[13.32806,52.512419],"type":"Point"},"properties":{"osm_id":"4524927691","ref":"TUB Au\u00c3\u009fenabfallbeh\u00c3\u00a4lter 009","tag":{"amenity":"waste_basket","description:de":"Ascher"}},"type":"Feature"},
	{"geometry":{"coordinates":[13.327254,52.512387],"type":"Point"},"properties":{"osm_id":"4524927693","ref":"TUB Au\u00c3\u009fenabfallbeh\u00c3\u00a4lter 011","tag":{"amenity":"waste_basket","description:de":"Ascher"}},"type":"Feature"},
	{"geometry":{"coordinates":[13.327184,52.512381],"type":"Point"},"properties":{"osm_id":"4524927694","ref":"TUB Au\u00c3\u009fenabfallbeh\u00c3\u00a4lter 012","tag":{"amenity":"waste_basket","description:de":"Ascher"}},"type":"Feature"},
	{"geometry":{"coordinates":[13.327185,52.512379],"type":"Point"},"properties":{"osm_id":"4524927695","tag":{"amenity":"waste_basket","description":"TUB Au\u00c3\u009fenabfallbeh\u00c3\u00a4lter 013, Zweifachtrenner mit Ascher"}},"type":"Feature"},
	{"geometry":{"coordinates":[13.329374,52.512608],"type":"Point"},"properties":{"osm_id":"4524927696","tag":{"amenity":"waste_basket","description":"TUB Au\u00c3\u009fenabfallbeh\u00c3\u00a4lter 014, Zweifachtrenner mit Ascher"}},"type":"Feature"},
	{"geometry":{"coordinates":[13.329483,52.512614],"type":"Point"},"properties":{"osm_id":"4524927697","tag":{"amenity":"waste_basket","description":"TUB Au\u00c3\u009fenabfallbeh\u00c3\u00a4lter 015, Ascher"}},"type":"Feature"},
	{"geometry":{"coordinates":[13.330099,52.512452],"type":"Point"},"properties":{"osm_id":"4524927699","tag":{"amenity":"waste_basket","description":"TUB Au\u00c3\u009fenabfallbeh\u00c3\u00a4lter 017, Ascher"}},"type":"Feature"},
	{"geometry":{"coordinates":[13.330133,52.512178],"type":"Point"},"properties":{"osm_id":"4524927700","tag":{"amenity":"waste_basket","description":"TUB Au\u00c3\u009fenabfallbeh\u00c3\u00a4lter 018, Ascher"}},"type":"Feature"},
	{"geometry":{"coordinates":[13.330437,52.512241],"type":"Point"},"properties":{"osm_id":"4524927701","tag":{"amenity":"waste_basket","description":"TUB Au\u00c3\u009fenabfallbeh\u00c3\u00a4lter 019, Ascher"}},"type":"Feature"},
	{"geometry":{"coordinates":[13.329742,52.512002],"type":"Point"},"properties":{"osm_id":"4524927702","tag":{"amenity":"waste_basket","description":"TUB Au\u00c3\u009fenabfallbeh\u00c3\u00a4lter 020, Ascher"}},"type":"Feature"},
	{"geometry":{"coordinates":[13.329551,52.511986],"type":"Point"},"properties":{"osm_id":"4524927703","tag":{"amenity":"waste_basket","description":"TUB Au\u00c3\u009fenabfallbeh\u00c3\u00a4lter 021, Zweifachtrenner mit Ascher"}},"type":"Feature"},
	{"geometry":{"coordinates":[13.32955,52.511983],"type":"Point"},"properties":{"osm_id":"4524927705","tag":{"amenity":"waste_basket","description":"TUB Au\u00c3\u009fenabfallbeh\u00c3\u00a4lter 022, Ascher"}},"type":"Feature"},
	{"geometry":{"coordinates":[13.329206,52.51197],"type":"Point"},"properties":{"osm_id":"4524927706","ref":"TUB Au\u00c3\u009fenabfallbeh\u00c3\u00a4lter 023","tag":{"amenity":"waste_basket","description:de":"Zweifachtrenner mit Ascher"}},"type":"Feature"},
	{"geometry":{"coordinates":[13.329209,52.511963],"type":"Point"},"properties":{"osm_id":"4524927707","tag":{"amenity":"waste_basket","description":"TUB Au\u00c3\u009fenabfallbeh\u00c3\u00a4lter 024, Ascher"}},"type":"Feature"},
	{"geometry":{"coordinates":[13.329113,52.511964],"type":"Point"},"properties":{"osm_id":"4524927708","tag":{"amenity":"waste_basket","description":"TUB Au\u00c3\u009fenabfallbeh\u00c3\u00a4lter 025, Ascher"}},"type":"Feature"},
	{"geometry":{"coordinates":[13.330325,52.511932],"type":"Point"},"properties":{"osm_id":"4524927709","tag":{"amenity":"waste_basket","description":"TUB Au\u00c3\u009fenabfallbeh\u00c3\u00a4lter 027, Ascher"}},"type":"Feature"},
	{"geometry":{"coordinates":[13.329765,52.510922],"type":"Point"},"properties":{"osm_id":"4524927710","tag":{"amenity":"waste_basket","description":"TUB Au\u00c3\u009fenabfallbeh\u00c3\u00a4lter 028, Zweifachtrenner mit Ascher."}},"type":"Feature"},
	{"geometry":{"coordinates":[13.328337,52.511724],"type":"Point"},"properties":{"osm_id":"4524927711","tag":{"amenity":"waste_basket","description":"TUB Au\u00c3\u009fenabfallbeh\u00c3\u00a4lter 030, Zweifachtrenner mit Ascher"}},"type":"Feature"},
	{"geometry":{"coordinates":[13.328179,52.511688],"type":"Point"},"properties":{"osm_id":"4524927712","tag":{"amenity":"waste_basket","description":"TUB Au\u00c3\u009fenabfallbeh\u00c3\u00a4lter 029, Zweifachtrenner mit Ascher"}},"type":"Feature"},
	{"geometry":{"coordinates":[13.328917,52.511594],"type":"Point"},"properties":{"osm_id":"4524927713","tag":{"amenity":"waste_basket","description":"TUB Au\u00c3\u009fenabfallbeh\u00c3\u00a4lter 031, Zweifachtrenner mit Ascher"}},"type":"Feature"},
	{"geometry":{"coordinates":[13.328602,52.511369],"type":"Point"},"properties":{"osm_id":"4524927714","ref":"TUB Au\u00c3\u009fenabfallbeh\u00c3\u00a4lter 032","tag":{"amenity":"waste_basket","description:de":"Zweifachtrenner mit Ascher"}},"type":"Feature"},
	{"geometry":{"coordinates":[13.328421,52.511151],"type":"Point"},"properties":{"osm_id":"4524927715","ref":"TUB Au\u00c3\u009fenabfallbeh\u00c3\u00a4lter 033","tag":{"amenity":"waste_basket","description:de":"Zweifachtrenner mit Ascher"}},"type":"Feature"},
	{"geometry":{"coordinates":[13.328411,52.510865],"type":"Point"},"properties":{"osm_id":"4524927717","ref":"TUB Au\u00c3\u009fenabfallbeh\u00c3\u00a4lter 034","tag":{"amenity":"waste_basket","description:de":"Ascher"}},"type":"Feature"},
	{"geometry":{"coordinates":[13.327351,52.511227],"type":"Point"},"properties":{"osm_id":"4524927718","ref":"TUB Au\u00c3\u009fenabfallbeh\u00c3\u00a4lter 040","tag":{"amenity":"waste_basket","description:de":"Zweifachchtrenner"}},"type":"Feature"},
	{"geometry":{"coordinates":[13.327708,52.510758],"type":"Point"},"properties":{"osm_id":"4524927720","ref":"TUB Au\u00c3\u009fenabfallbeh\u00c3\u00a4lter 039","tag":{"amenity":"waste_basket","description:de":"Ascher"}},"type":"Feature"},
	{"geometry":{"coordinates":[13.328921,52.510819],"type":"Point"},"properties":{"osm_id":"4524927721","ref":"TUB Au\u00c3\u009fenabfallbeh\u00c3\u00a4lter 035","tag":{"amenity":"waste_basket","description:de":"Ascher"}},"type":"Feature"},
	{"geometry":{"coordinates":[13.329597,52.510469],"type":"Point"},"properties":{"osm_id":"4524927722","tag":{"amenity":"waste_basket","description":"TUB Au\u00c3\u009fenabfallbeh\u00c3\u00a4lter 036, Ascher"}},"type":"Feature"},
	{"geometry":{"coordinates":[13.328995,52.510548],"type":"Point"},"properties":{"osm_id":"4524927723","tag":{"amenity":"waste_basket","description":"TUB Au\u00c3\u009fenabfallbeh\u00c3\u00a4lter 037, Ascher"}},"type":"Feature"},
	{"geometry":{"coordinates":[13.329452,52.511271],"type":"Point"},"properties":{"osm_id":"4524927724","ref":"TUB Au\u00c3\u009fenabfallbeh\u00c3\u00a4lter 040","tag":{"amenity":"waste_basket","description:de":"Zweifachtrenner mit Ascher"}},"type":"Feature"},
	{"geometry":{"coordinates":[13.330124,52.511839],"type":"Point"},"properties":{"osm_id":"4524927725","tag":{"amenity":"waste_basket","description":"TUB Au\u00c3\u009fenabfallbeh\u00c3\u00a4lter 026, Ascher"}},"type":"Feature"},
	{"geometry":{"coordinates":[13.325712,52.512328],"type":"Point"},"properties":{"osm_id":"4529488626","tag":{"amenity":"waste_basket","description":"TUB Au\u00c3\u009fenabfallbeh\u00c3\u00a4lter 066.Ascher"}},"type":"Feature"},
	{"geometry":{"coordinates":[13.325711,52.5123],"type":"Point"},"properties":{"osm_id":"4529488627","tag":{"amenity":"waste_basket","description":"TUB Au\u00c3\u009fenabfallbeh\u00c3\u00a4lter 067. Ascher"}},"type":"Feature"},
	{"geometry":{"coordinates":[13.32571,52.512272],"type":"Point"},"properties":{"osm_id":"4529488628","tag":{"amenity":"waste_basket","description":"TUB Au\u00c3\u009fenabfallbeh\u00c3\u00a4lter 068. Ascher"}},"type":"Feature"},
	{"geometry":{"coordinates":[13.325187,52.512362],"type":"Point"},"properties":{"osm_id":"4529488629","ref":"TUB-Au\u00c3\u009fenabfallbeh\u00c3\u00a4lter 065","tag":{"amenity":"waste_basket","description:de":"Zweifachtrenner"}},"type":"Feature"},
	{"geometry":{"coordinates":[13.324407,52.512401],"type":"Point"},"properties":{"osm_id":"4529488630","ref":"TUB-Au\u00c3\u009fenabfallbeh\u00c3\u00a4lter 072","tag":{"amenity":"waste_basket","description:de":"Zweifachtrenner mit Ascher"}},"type":"Feature"},
	{"geometry":{"coordinates":[13.324102,52.512386],"type":"Point"},"properties":{"osm_id":"4529488631","tag":{"amenity":"waste_basket","description":"TUB-Au\u00c3\u009fenabfallbeh\u00c3\u00a4lter 073. Ascher"}},"type":"Feature"},
	{"geometry":{"coordinates":[13.323537,52.512109],"type":"Point"},"properties":{"osm_id":"4529488632","tag":{"amenity":"waste_basket","description":"TUB-Au\u00c3\u009fenabfallbeh\u00c3\u00a4lter 074. Zweifachtrenner"}},"type":"Feature"},
	{"geometry":{"coordinates":[13.324015,52.511991],"type":"Point"},"properties":{"osm_id":"4529488633","tag":{"amenity":"waste_basket","description":"TUB-Au\u00c3\u009fenabfallbeh\u00c3\u00a4lter 075"}},"type":"Feature"},
	{"geometry":{"coordinates":[13.324908,52.512062],"type":"Point"},"properties":{"osm_id":"4529488634","tag":{"amenity":"waste_basket","description":"TUB-Au\u00c3\u009fenabfallbeh\u00c3\u00a4lter 063.Zweifachtrenner mit Ascher"}},"type":"Feature"},
	{"geometry":{"coordinates":[13.324843,52.512099],"type":"Point"},"properties":{"osm_id":"4529488635","tag":{"amenity":"waste_basket","description":"TUB-Au\u00c3\u009fenabfallbeh\u00c3\u00a4lter 064. Ascher"}},"type":"Feature"},
	{"geometry":{"coordinates":[13.325314,52.511768],"type":"Point"},"properties":{"osm_id":"4529488636","tag":{"amenity":"waste_basket","description":"TUB-Au\u00c3\u009fenabfallbeh\u00c3\u00a4lter 060. Ascher"}},"type":"Feature"},
	{"geometry":{"coordinates":[13.325273,52.511711],"type":"Point"},"properties":{"osm_id":"4529488637","tag":{"amenity":"waste_basket","description":"TUB-Au\u00c3\u009fenabfallbeh\u00c3\u00a4lter 059. Ascher"}},"type":"Feature"},
	{"geometry":{"coordinates":[13.325455,52.512055],"type":"Point"},"properties":{"osm_id":"4529488638","tag":{"amenity":"waste_basket","description":"TUB-Au\u00c3\u009fenabfallbeh\u00c3\u00a4lter 062.Zweifachtrenner mit Ascher"}},"type":"Feature"},
	{"geometry":{"coordinates":[13.325467,52.511971],"type":"Point"},"properties":{"osm_id":"4529488639","tag":{"amenity":"waste_basket","description":"TUB-Au\u00c3\u009fenabfallbeh\u00c3\u00a4lter 061.Ascher"}},"type":"Feature"},
	{"geometry":{"coordinates":[13.325874,52.511645],"type":"Point"},"properties":{"osm_id":"4529488640","tag":{"amenity":"waste_basket","description":"TUB-Au\u00c3\u009fenabfallbeh\u00c3\u00a4lter 052. Zweifachtrenner mit Ascher 1."}},"type":"Feature"},
	{"geometry":{"coordinates":[13.326661,52.511691],"type":"Point"},"properties":{"osm_id":"4529488642","ref":"TUB-Au\u00c3\u009fenabfallbeh\u00c3\u00a4lter 051","tag":{"amenity":"waste_basket","description:de":"Zweifachtrenner mit Ascher"}},"type":"Feature"},
	{"geometry":{"coordinates":[13.326776,52.511686],"type":"Point"},"properties":{"osm_id":"4529488643","ref":"TUB-Au\u00c3\u009fenabfallbeh\u00c3\u00a4lter 050","tag":{"amenity":"waste_basket","description:de":"Ascher"}},"type":"Feature"},
	{"geometry":{"coordinates":[13.326631,52.512352],"type":"Point"},"properties":{"osm_id":"4529488644","tag":{"amenity":"waste_basket","description":"TUB Au\u00c3\u009fenabfallbeh\u00c3\u00a4lter 069, Ascher"}},"type":"Feature"},
	{"geometry":{"coordinates":[13.32687,52.512391],"type":"Point"},"properties":{"osm_id":"4529488645","tag":{"amenity":"waste_basket","description":"TUB Au\u00c3\u009fenabfallbeh\u00c3\u00a4lter 071, Ascher"}},"type":"Feature"},
	{"geometry":{"coordinates":[13.326872,52.512353],"type":"Point"},"properties":{"osm_id":"4529488646","tag":{"amenity":"waste_basket","description":"TUB Au\u00c3\u009fenabfallbeh\u00c3\u00a4lter 070. Zweifachtrenner mit Ascher"}},"type":"Feature"},
	{"geometry":{"coordinates":[13.326891,52.511523],"type":"Point"},"properties":{"osm_id":"4529488647","tag":{"amenity":"waste_basket","description":"TUB-Au\u00c3\u009fenabfallbeh\u00c3\u00a4lter 049. Zweifachtrenner"}},"type":"Feature"},
	{"geometry":{"coordinates":[13.327241,52.511457],"type":"Point"},"properties":{"osm_id":"4529488648","ref":"TUB Au\u00c3\u009fenabfallbeh\u00c3\u00a4lter 041","tag":{"amenity":"waste_basket","description:de":"Zweifachchtrenner"}},"type":"Feature"},
	{"geometry":{"coordinates":[13.327097,52.511069],"type":"Point"},"properties":{"osm_id":"4529488649","ref":"TUB Au\u00c3\u009fenabfallbeh\u00c3\u00a4lter 042","tag":{"amenity":"waste_basket","description:de":"Zweifachtrenner"}},"type":"Feature"},
	{"geometry":{"coordinates":[13.327098,52.510977],"type":"Point"},"properties":{"osm_id":"4529488650","tag":{"amenity":"waste_basket","description":"TUB-Au\u00c3\u009fenabfallbeh\u00c3\u00a4lter 048. Zweifachtrenner"}},"type":"Feature"},
	{"geometry":{"coordinates":[13.327047,52.510864],"type":"Point"},"properties":{"osm_id":"4529488651","tag":{"amenity":"waste_basket","description":"TUB-Au\u00c3\u009fenabfallbeh\u00c3\u00a4lter 047. Zweifachtrenner mit Ascher"}},"type":"Feature"},
	{"geometry":{"coordinates":[13.326993,52.510767],"type":"Point"},"properties":{"osm_id":"4529488652","tag":{"amenity":"waste_basket","description":"TUB-Au\u00c3\u009fenabfallbeh\u00c3\u00a4lter 046. Zweifachtrenner"}},"type":"Feature"},
	{"geometry":{"coordinates":[13.326665,52.510565],"type":"Point"},"properties":{"osm_id":"4529488653","tag":{"amenity":"waste_basket","description":"TUB-Au\u00c3\u009fenabfallbeh\u00c3\u00a4lter 045. Zweifachtrenner mit Ascher"}},"type":"Feature"},
	{"geometry":{"coordinates":[13.326497,52.510411],"type":"Point"},"properties":{"osm_id":"4529488654","tag":{"amenity":"waste_basket","description":"TUB-Au\u00c3\u009fenabfallbeh\u00c3\u00a4lter 044. Zweifachtrenner mit Ascher"}},"type":"Feature"},
	{"geometry":{"coordinates":[13.326378,52.510275],"type":"Point"},"properties":{"osm_id":"4529488655","tag":{"amenity":"waste_basket","description":"TUB-Au\u00c3\u009fenabfallbeh\u00c3\u00a4lter 043. Zweifachtrenner mit Ascher"}},"type":"Feature"},
	{"geometry":{"coordinates":[13.324965,52.510157],"type":"Point"},"properties":{"osm_id":"4529488656","ref":"TUB-Au\u00c3\u009fenabfallbeh\u00c3\u00a4lter 091","tag":{"amenity":"waste_basket","description:de":"Zweifachtrenner"}},"type":"Feature"},
	{"geometry":{"coordinates":[13.324898,52.510206],"type":"Point"},"properties":{"osm_id":"4529488657","ref":"TUB-Au\u00c3\u009fenabfallbeh\u00c3\u00a4lter 092","tag":{"amenity":"waste_basket","description:de":"Ascher"}},"type":"Feature"},
	{"geometry":{"coordinates":[13.323434,52.511398],"type":"Point"},"properties":{"osm_id":"4529488658","tag":{"amenity":"waste_basket","description":"TUB-Au\u00c3\u009fenabfallbeh\u00c3\u00a4lter 083. Zweifachtrenner"}},"type":"Feature"},
	{"geometry":{"coordinates":[13.323495,52.511452],"type":"Point"},"properties":{"osm_id":"4529488659","tag":{"amenity":"waste_basket","description":"TUB-Au\u00c3\u009fenabfallbeh\u00c3\u00a4lter 084. Ascher"}},"type":"Feature"},
	{"geometry":{"coordinates":[13.323916,52.511518],"type":"Point"},"properties":{"osm_id":"4529488660","ref":"080","tag":{"amenity":"waste_basket","description:de":"TUB-Au\u00c3\u009fenabfallbeh\u00c3\u00a4lter 080"}},"type":"Feature"},
	{"geometry":{"coordinates":[13.32407,52.511695],"type":"Point"},"properties":{"osm_id":"4529488662","tag":{"amenity":"waste_basket","description":"TUB-Au\u00c3\u009fenabfallbeh\u00c3\u00a4lter 076. Ascher"}},"type":"Feature"},
	{"geometry":{"coordinates":[13.324507,52.511545],"type":"Point"},"properties":{"osm_id":"4529488663","tag":{"amenity":"waste_basket","description":"TUB-Au\u00c3\u009fenabfallbeh\u00c3\u00a4lter 077. Zweifachtrenner mit Ascher"}},"type":"Feature"},
	{"geometry":{"coordinates":[13.324711,52.51148],"type":"Point"},"properties":{"osm_id":"4529488664","tag":{"amenity":"waste_basket","description":"TUB-Au\u00c3\u009fenabfallbeh\u00c3\u00a4lter 078. Ascher"}},"type":"Feature"},
	{"geometry":{"coordinates":[13.324462,52.511203],"type":"Point"},"properties":{"osm_id":"4529488665","tag":{"amenity":"waste_basket","description":"TUB-Au\u00c3\u009fenabfallbeh\u00c3\u00a4lter 086. Ascher"}},"type":"Feature"},
	{"geometry":{"coordinates":[13.325139,52.511277],"type":"Point"},"properties":{"osm_id":"4529488666","tag":{"amenity":"waste_basket","description":"TUB-Au\u00c3\u009fenabfallbeh\u00c3\u00a4lter 057. Ascher"}},"type":"Feature"},
	{"geometry":{"coordinates":[13.325743,52.511088],"type":"Point"},"properties":{"osm_id":"4529488667","tag":{"amenity":"waste_basket","description":"TUB-Au\u00c3\u009fenabfallbeh\u00c3\u00a4lter 056. Ascher"}},"type":"Feature"},
	{"geometry":{"coordinates":[13.325669,52.511111],"type":"Point"},"properties":{"osm_id":"4529488668","tag":{"amenity":"waste_basket","description":"TUB-Au\u00c3\u009fenabfallbeh\u00c3\u00a4lter 055. Zweifachtrenner mit Ascher"}},"type":"Feature"},
	{"geometry":{"coordinates":[13.32726,52.512386],"type":"Point"},"properties":{"osm_id":"4531984997","ref":"TUB Au\u00c3\u009fenabfallbeh\u00c3\u00a4lter 010","tag":{"amenity":"waste_basket","description:de":"Zweifachtrenner mit Ascher"}},"type":"Feature"},
	{"geometry":{"coordinates":[13.327691,52.510762],"type":"Point"},"properties":{"osm_id":"4531984998","ref":"TUB Au\u00c3\u009fenabfallbeh\u00c3\u00a4lter 038","tag":{"amenity":"waste_basket","description:de":"Ascher"}},"type":"Feature"},
	{"geometry":{"coordinates":[13.327881,52.513499],"type":"Point"},"properties":{"osm_id":"4547282739","tag":{"amenity":"waste_basket","description":"TUB Au\u00c3\u009fenabfallbeh\u00c3\u00a4lter 124"}},"type":"Feature"},
	{"geometry":{"coordinates":[13.327648,52.513825],"type":"Point"},"properties":{"osm_id":"4547314915","tag":{"amenity":"waste_basket","description":"TUB Au\u00c3\u009fenabfallbeh\u00c3\u00a4lter 128, Ascher"}},"type":"Feature"},
	{"geometry":{"coordinates":[13.326676,52.514349],"type":"Point"},"properties":{"osm_id":"4547319274","tag":{"amenity":"waste_basket","description":"TUB Au\u00c3\u009fenabfallbeh\u00c3\u00a4lter 132, Ascher"}},"type":"Feature"},
	{"geometry":{"coordinates":[13.326672,52.513889],"type":"Point"},"properties":{"osm_id":"4547319400","tag":{"amenity":"waste_basket","description":"TUB Au\u00c3\u009fenabfallbeh\u00c3\u00a4lter 129, Einfachtrenner"}},"type":"Feature"},
	{"geometry":{"coordinates":[13.326578,52.514107],"type":"Point"},"properties":{"osm_id":"4547319741","tag":{"amenity":"waste_basket","description":"TUB Au\u00c3\u009fenabfallbeh\u00c3\u00a4lter 130, Zweifachtrenner"}},"type":"Feature"},
	{"geometry":{"coordinates":[13.326452,52.514751],"type":"Point"},"properties":{"osm_id":"4547324036","tag":{"amenity":"waste_basket","description":"TUB Au\u00c3\u009fenabfallbeh\u00c3\u00a4lter 134, Zweifachtrenner"}},"type":"Feature"},
	{"geometry":{"coordinates":[13.326509,52.514436],"type":"Point"},"properties":{"osm_id":"4547324181","tag":{"amenity":"waste_basket","description":"TUB Au\u00c3\u009fenabfallbeh\u00c3\u00a4lter 133, Zweifachtrenner"}},"type":"Feature"},
	{"geometry":{"coordinates":[13.326385,52.515061],"type":"Point"},"properties":{"osm_id":"4547328800","tag":{"amenity":"waste_basket","description":"TUB Au\u00c3\u009fenabfallbeh\u00c3\u00a4lter 135, Ascher"}},"type":"Feature"},
	{"geometry":{"coordinates":[13.326408,52.515155],"type":"Point"},"properties":{"osm_id":"4547328852","tag":{"amenity":"waste_basket","description":"TUB Au\u00c3\u009fenabfallbeh\u00c3\u00a4lter 136, Zweifachtrenner"}},"type":"Feature"},
	{"geometry":{"coordinates":[13.326607,52.515593],"type":"Point"},"properties":{"osm_id":"4547330718","ref":"TUB Au\u00c3\u009fenabfallbeh\u00c3\u00a4lter 137","tag":{"amenity":"waste_basket","description:de":"Einfachtrenner ohne Deckel"}},"type":"Feature"},
	{"geometry":{"coordinates":[13.326666,52.51549],"type":"Point"},"properties":{"osm_id":"4547332246","tag":{"amenity":"waste_basket","description":"TUB Au\u00c3\u009fenabfallbeh\u00c3\u00a4lter 139, Ascher"}},"type":"Feature"},
	{"geometry":{"coordinates":[13.326948,52.515341],"type":"Point"},"properties":{"osm_id":"4547332350","tag":{"amenity":"waste_basket","description":"TUB Au\u00c3\u009fenabfallbeh\u00c3\u00a4lter 141, Ascher"}},"type":"Feature"},
	{"geometry":{"coordinates":[13.326956,52.515324],"type":"Point"},"properties":{"osm_id":"4547332388","tag":{"amenity":"waste_basket","description":"TUB Au\u00c3\u009fenabfallbeh\u00c3\u00a4lter 140, Zweifachtrenner"}},"type":"Feature"},
	{"geometry":{"coordinates":[13.327323,52.514904],"type":"Point"},"properties":{"osm_id":"4547336382","ref":"TUB Au\u00c3\u009fenabfallbeh\u00c3\u00a4lter 143","tag":{"amenity":"waste_basket","description:de":"Zweifachtrenner"}},"type":"Feature"},
	{"geometry":{"coordinates":[13.327314,52.514882],"type":"Point"},"properties":{"osm_id":"4547338034","ref":"TUB Au\u00c3\u009fenabfallbeh\u00c3\u00a4lter 145","tag":{"amenity":"waste_basket","description:de":"Einfachtrenner"}},"type":"Feature"},
	{"geometry":{"coordinates":[13.327325,52.514888],"type":"Point"},"properties":{"osm_id":"4547338242","ref":"TUB Au\u00c3\u009fenabfallbeh\u00c3\u00a4lter 144","tag":{"amenity":"waste_basket","description:de":"Ascher"}},"type":"Feature"},
	{"geometry":{"coordinates":[13.327361,52.514882],"type":"Point"},"properties":{"osm_id":"4547341410","ref":"TUB Au\u00c3\u009fenabfallbeh\u00c3\u00a4lter 146","tag":{"amenity":"waste_basket","description:de":"Einfachbeh\u00c3\u00a4lter ohne Deckel"}},"type":"Feature"},
	{"geometry":{"coordinates":[13.327391,52.514837],"type":"Point"},"properties":{"osm_id":"4547341805","ref":"TUB Au\u00c3\u009fenabfallbeh\u00c3\u00a4lter 145(L\u00c3\u00b6schen)","tag":{"amenity":"waste_basket","description:de":"Einfachtrenner ohne Deckel"}},"type":"Feature"},
	{"geometry":{"coordinates":[13.327279,52.514392],"type":"Point"},"properties":{"osm_id":"4547342898","tag":{"amenity":"waste_basket","description":"TUB Au\u00c3\u009fenabfallbeh\u00c3\u00a4lter 147, Ascher"}},"type":"Feature"},
	{"geometry":{"coordinates":[13.326348,52.513388],"type":"Point"},"properties":{"osm_id":"4592970812","tag":{"amenity":"waste_basket","description":"TUB Au\u00c3\u009fenabfallbeh\u00c3\u00a4lter 095"}},"type":"Feature"},
	{"geometry":{"coordinates":[13.323993,52.513983],"type":"Point"},"properties":{"osm_id":"4592970815","tag":{"amenity":"waste_basket","description":"TUB Au\u00c3\u009fenabfallbeh\u00c3\u00a4lter 103"}},"type":"Feature"},
	{"geometry":{"coordinates":[13.324472,52.514094],"type":"Point"},"properties":{"osm_id":"4592970816","tag":{"amenity":"waste_basket","description":"TUB Au\u00c3\u009fenabfallbeh\u00c3\u00a4lter 104"}},"type":"Feature"},
	{"geometry":{"coordinates":[13.325063,52.514552],"type":"Point"},"properties":{"osm_id":"4592970817","ref":"TUB Au\u00c3\u009fenabfallbeh\u00c3\u00a4lter 111","tag":{"amenity":"waste_basket"}},"type":"Feature"},
	{"geometry":{"coordinates":[13.325196,52.514389],"type":"Point"},"properties":{"osm_id":"4592970818","tag":{"amenity":"waste_basket","description":"TUB Au\u00c3\u009fenabfallbeh\u00c3\u00a4lter 110"}},"type":"Feature"},
	{"geometry":{"coordinates":[13.324966,52.514824],"type":"Point"},"properties":{"osm_id":"4592970819","tag":{"amenity":"waste_basket","description":"TUB Au\u00c3\u009fenabfallbeh\u00c3\u00a4lter 114"}},"type":"Feature"},
	{"geometry":{"coordinates":[13.32406,52.514539],"type":"Point"},"properties":{"osm_id":"4592970820","tag":{"amenity":"waste_basket","description":"TUB Au\u00c3\u009fenabfallbeh\u00c3\u00a4lter 112"}},"type":"Feature"},
	{"geometry":{"coordinates":[13.325268,52.513913],"type":"Point"},"properties":{"osm_id":"4592970821","ref":"TUB Au\u00c3\u009fenabfallbeh\u00c3\u00a4lter 011","tag":{"amenity":"waste_basket"}},"type":"Feature"},
	{"geometry":{"coordinates":[13.323492,52.513899],"type":"Point"},"properties":{"osm_id":"4592970822","tag":{"amenity":"waste_basket","description":"TUB Au\u00c3\u009fenabfallbeh\u00c3\u00a4lter 102"}},"type":"Feature"},
	{"geometry":{"coordinates":[13.323202,52.51415],"type":"Point"},"properties":{"osm_id":"4592970823","tag":{"amenity":"waste_basket","description":"TUB Au\u00c3\u009fenabfallbeh\u00c3\u00a4lter 101"}},"type":"Feature"},
	{"geometry":{"coordinates":[13.323262,52.513584],"type":"Point"},"properties":{"osm_id":"4592970826","tag":{"amenity":"waste_basket","description":"TUB Au\u00c3\u009fenabfallbeh\u00c3\u00a4lter 98"}},"type":"Feature"},
	{"geometry":{"coordinates":[13.323637,52.515253],"type":"Point"},"properties":{"osm_id":"4592970827","tag":{"amenity":"waste_basket","description":"TUB Au\u00c3\u009fenabfallbeh\u00c3\u00a4lter 120"}},"type":"Feature"},
	{"geometry":{"coordinates":[13.323783,52.515443],"type":"Point"},"properties":{"osm_id":"4592970828","tag":{"amenity":"waste_basket","description":"TUB Au\u00c3\u009fenabfallbeh\u00c3\u00a4lter 119"}},"type":"Feature"},
	{"geometry":{"coordinates":[13.324416,52.515749],"type":"Point"},"properties":{"osm_id":"4592970829","tag":{"amenity":"waste_basket","description":"TUB Au\u00c3\u009fenabfallbeh\u00c3\u00a4lter 121"}},"type":"Feature"},
	{"geometry":{"coordinates":[13.325631,52.515826],"type":"Point"},"properties":{"osm_id":"4592970830","tag":{"amenity":"waste_basket","description":"TUB Au\u00c3\u009fenabfallbeh\u00c3\u00a4lter 123"}},"type":"Feature"},
	{"geometry":{"coordinates":[13.324808,52.515334],"type":"Point"},"properties":{"osm_id":"4592970831","tag":{"amenity":"waste_basket","description":"TUB Au\u00c3\u009fenabfallbeh\u00c3\u00a4lter 118"}},"type":"Feature"},
	{"geometry":{"coordinates":[13.32529,52.515393],"type":"Point"},"properties":{"osm_id":"4592970832","tag":{"amenity":"waste_basket","description":"TUB Au\u00c3\u009fenabfallbeh\u00c3\u00a4lter 117"}},"type":"Feature"},
	{"geometry":{"coordinates":[13.325975,52.515029],"type":"Point"},"properties":{"osm_id":"4592970834","tag":{"amenity":"waste_basket","description":"TUB Au\u00c3\u009fenabfallbeh\u00c3\u00a4lter 115"}},"type":"Feature"},
	{"geometry":{"coordinates":[13.326021,52.514527],"type":"Point"},"properties":{"osm_id":"4592970835","tag":{"amenity":"waste_basket","description":"TUB Au\u00c3\u009fenabfallbeh\u00c3\u00a4lter 108"}},"type":"Feature"},
	{"geometry":{"coordinates":[13.325715,52.514365],"type":"Point"},"properties":{"osm_id":"4592970836","tag":{"amenity":"waste_basket","description":"TUB Au\u00c3\u009fenabfallbeh\u00c3\u00a4lter 109"}},"type":"Feature"},
	{"geometry":{"coordinates":[13.326137,52.514316],"type":"Point"},"properties":{"osm_id":"4592970837","tag":{"amenity":"waste_basket","description":"TUB Au\u00c3\u009fenabfallbeh\u00c3\u00a4lter 107"}},"type":"Feature"},
	{"geometry":{"coordinates":[13.326402,52.513431],"type":"Point"},"properties":{"osm_id":"4638696985","tag":{"amenity":"waste_basket","description":"TUB Au\u00c3\u009fenabfallbeh\u00c3\u00a4lter 094"}},"type":"Feature"},
	{"geometry":{"coordinates":[13.326304,52.513377],"type":"Point"},"properties":{"osm_id":"4638711274","tag":{"amenity":"waste_basket","description":"TUB Au\u00c3\u009fenabfallbeh\u00c3\u00a4lter 096"}},"type":"Feature"},
	{"geometry":{"coordinates":[13.326405,52.513532],"type":"Point"},"properties":{"osm_id":"4638732042","tag":{"amenity":"waste_basket","description":"TUB Au\u00c3\u009fenabfallbeh\u00c3\u00a4lter 093"}},"type":"Feature"},
	{"geometry":{"coordinates":[13.324205,52.513488],"type":"Point"},"properties":{"osm_id":"4638741089","tag":{"amenity":"waste_basket","description":"TUB Au\u00c3\u009fenabfallbeh\u00c3\u00a4lter 097"}},"type":"Feature"},
	{"geometry":{"coordinates":[13.323107,52.513373],"type":"Point"},"properties":{"osm_id":"4638755946","tag":{"amenity":"waste_basket","description":"TUB Au\u00c3\u009fenabfallbeh\u00c3\u00a4lter 099"}},"type":"Feature"},
	{"geometry":{"coordinates":[13.323335,52.513428],"type":"Point"},"properties":{"osm_id":"4638757917","tag":{"amenity":"waste_basket","description":"TUB Au\u00c3\u009fenabfallbeh\u00c3\u00a4lter 100"}},"type":"Feature"},
	{"geometry":{"coordinates":[13.324759,52.514113],"type":"Point"},"properties":{"osm_id":"4638765096","tag":{"amenity":"waste_basket","description":"TUB Au\u00c3\u009fenabfallbeh\u00c3\u00a4lter 105"}},"type":"Feature"},
	{"geometry":{"coordinates":[13.325034,52.513956],"type":"Point"},"properties":{"osm_id":"4638765133","tag":{"amenity":"waste_basket","description":"TUB Au\u00c3\u009fenabfallbeh\u00c3\u00a4lter 106"}},"type":"Feature"},
	{"geometry":{"coordinates":[13.324251,52.514678],"type":"Point"},"properties":{"osm_id":"4638773692","ref":"TUB Au\u00c3\u009fenabfallbeh\u00c3\u00a4lter 113","tag":{"amenity":"waste_basket"}},"type":"Feature"},
	{"geometry":{"coordinates":[13.325706,52.51525],"type":"Point"},"properties":{"osm_id":"4638783507","tag":{"amenity":"waste_basket","description":"TUB Au\u00c3\u009fenabfallbeh\u00c3\u00a4lter 116"}},"type":"Feature"},
	{"geometry":{"coordinates":[13.325527,52.515622],"type":"Point"},"properties":{"osm_id":"4638797196","tag":{"amenity":"waste_basket","description":"TUB Au\u00c3\u009fenabfallbeh\u00c3\u00a4lter 122"}},"type":"Feature"},
	{"geometry":{"coordinates":[13.325878,52.511658],"type":"Point"},"properties":{"osm_id":"4645441956","tag":{"amenity":"waste_basket","description":"TUB-Au\u00c3\u009fenabfallbeh\u00c3\u00a4lter 053. Ascher"}},"type":"Feature"},
	{"geometry":{"coordinates":[13.326615,52.510888],"type":"Point"},"properties":{"osm_id":"4645441957","tag":{"amenity":"waste_basket","description":"TUB-Au\u00c3\u009fenabfallbeh\u00c3\u00a4lter 054. Ascher"}},"type":"Feature"},
	{"geometry":{"coordinates":[13.323976,52.511541],"type":"Point"},"properties":{"osm_id":"4645441958","tag":{"amenity":"waste_basket","description":"TUB-Au\u00c3\u009fenabfallbeh\u00c3\u00a4lter 079. Zweifachtrenner mit Ascher"}},"type":"Feature"},
	{"geometry":{"coordinates":[13.324031,52.511096],"type":"Point"},"properties":{"osm_id":"4645441959","tag":{"amenity":"waste_basket","description":"TUB-Au\u00c3\u009fenabfallbeh\u00c3\u00a4lter 081. Ascher"}},"type":"Feature"},
	{"geometry":{"coordinates":[13.323786,52.511362],"type":"Point"},"properties":{"osm_id":"4645441960","tag":{"amenity":"waste_basket","description":"TUB-Au\u00c3\u009fenabfallbeh\u00c3\u00a4lter 082. Einfachtrenner"}},"type":"Feature"},
	{"geometry":{"coordinates":[13.323608,52.511245],"type":"Point"},"properties":{"osm_id":"4645441961","tag":{"amenity":"waste_basket","description":"TUB-Au\u00c3\u009fenabfallbeh\u00c3\u00a4lter 085. Einfachtrenner"}},"type":"Feature"},
	{"geometry":{"coordinates":[13.324628,52.510879],"type":"Point"},"properties":{"osm_id":"4645441962","tag":{"amenity":"waste_basket","description":"TUB-Au\u00c3\u009fenabfallbeh\u00c3\u00a4lter 087. Ascher"}},"type":"Feature"},
	{"geometry":{"coordinates":[13.325069,52.511082],"type":"Point"},"properties":{"osm_id":"4645441963","tag":{"amenity":"waste_basket","description":"TUB-Au\u00c3\u009fenabfallbeh\u00c3\u00a4lter 088. Ascher"}},"type":"Feature"},
	{"geometry":{"coordinates":[13.325156,52.510848],"type":"Point"},"properties":{"osm_id":"4645441964","tag":{"amenity":"waste_basket","description":"TUB-Au\u00c3\u009fenabfallbeh\u00c3\u00a4lter 089. Ascher"}},"type":"Feature"},
	{"geometry":{"coordinates":[13.323933,52.511082],"type":"Point"},"properties":{"osm_id":"4645441965","tag":{"amenity":"waste_basket","description":"TUB-Au\u00c3\u009fenabfallbeh\u00c3\u00a4lter 090. Einfachtrenner"}},"type":"Feature"},
	{"geometry":{"coordinates":[13.33672,52.48956],"type":"Point"},"properties":{"osm_id":"4703334864","tag":{"amenity":"waste_basket"}},"type":"Feature"},
	{"geometry":{"coordinates":[13.338254,52.489962],"type":"Point"},"properties":{"osm_id":"4703334865","tag":{"amenity":"waste_basket"}},"type":"Feature"},
	{"geometry":{"coordinates":[13.345747,52.500299],"type":"Point"},"properties":{"osm_id":"4711970151","tag":{"amenity":"waste_basket"}},"type":"Feature"},
	{"geometry":{"coordinates":[13.342644,52.499992],"type":"Point"},"properties":{"osm_id":"4711970152","tag":{"amenity":"waste_basket"}},"type":"Feature"},
	{"geometry":{"coordinates":[13.330055,52.51004],"type":"Point"},"properties":{"osm_id":"4731185047","tag":{"amenity":"waste_basket","description":"TUB Au\u00c3\u009fenabfallbeh\u00c3\u00a4lter 149, Zweifachtrenner"}},"type":"Feature"},
	{"geometry":{"coordinates":[13.330063,52.510053],"type":"Point"},"properties":{"osm_id":"4731189822","tag":{"amenity":"waste_basket","description":"TUB Au\u00c3\u009fenabfallbeh\u00c3\u00a4lter 151, Ascher"}},"type":"Feature"},
	{"geometry":{"coordinates":[13.33007,52.510068],"type":"Point"},"properties":{"osm_id":"4731190267","tag":{"amenity":"waste_basket","description":"TUB Au\u00c3\u009fenabfallbeh\u00c3\u00a4lter 150, Ascher"}},"type":"Feature"},
	{"geometry":{"coordinates":[13.330081,52.510082],"type":"Point"},"properties":{"osm_id":"4731195360","tag":{"amenity":"waste_basket","description":"TUB Au\u00c3\u009fenabfallbeh\u00c3\u00a4lter 154, Einfachtrenner"}},"type":"Feature"},
	{"geometry":{"coordinates":[13.330089,52.510098],"type":"Point"},"properties":{"osm_id":"4731208635","tag":{"amenity":"waste_basket","description":"TUB Au\u00c3\u009fenabfallbeh\u00c3\u00a4lter 152, Zweifachtrenner"}},"type":"Feature"},
	{"geometry":{"coordinates":[13.330101,52.510113],"type":"Point"},"properties":{"osm_id":"4731213827","tag":{"amenity":"waste_basket","description":"TUB Au\u00c3\u009fenabfallbeh\u00c3\u00a4lter 153, Zweifachtrenner"}},"type":"Feature"},
	{"geometry":{"coordinates":[13.330565,52.51071],"type":"Point"},"properties":{"osm_id":"4731214853","tag":{"amenity":"waste_basket","description":"TUB Au\u00c3\u009fenabfallbeh\u00c3\u00a4lter 157, Einfachtrenner"}},"type":"Feature"},
	{"geometry":{"coordinates":[13.330506,52.510613],"type":"Point"},"properties":{"osm_id":"4731215701","tag":{"amenity":"waste_basket","description":"TUB Au\u00c3\u009fenabfallbeh\u00c3\u00a4lter 155, Ascher"}},"type":"Feature"},
	{"geometry":{"coordinates":[13.330514,52.510637],"type":"Point"},"properties":{"osm_id":"4731216606","tag":{"amenity":"waste_basket","description":"TUB Au\u00c3\u009fenabfallbeh\u00c3\u00a4lter 156, Ascher"}},"type":"Feature"},
	{"geometry":{"coordinates":[13.330598,52.51075],"type":"Point"},"properties":{"osm_id":"4731218756","tag":{"amenity":"waste_basket","description":"TUB Au\u00c3\u009fenabfallbeh\u00c3\u00a4lter 159, Einfachtrenner"}},"type":"Feature"},
	{"geometry":{"coordinates":[13.330581,52.51073],"type":"Point"},"properties":{"osm_id":"4731219421","tag":{"amenity":"waste_basket","description":"TUB Au\u00c3\u009fenabfallbeh\u00c3\u00a4lter 158, Zweifachtrenner"}},"type":"Feature"},
	{"geometry":{"coordinates":[13.330631,52.510799],"type":"Point"},"properties":{"osm_id":"4731222221","tag":{"amenity":"waste_basket","description":"TUB Au\u00c3\u009fenabfallbeh\u00c3\u00a4lter 160, Einfachtrenner"}},"type":"Feature"},
	{"geometry":{"coordinates":[13.33208,52.511423],"type":"Point"},"properties":{"osm_id":"4731232021","tag":{"amenity":"waste_basket","description":"TUB Au\u00c3\u009fenabfallbeh\u00c3\u00a4lter 163, Zweifachtrenner"}},"type":"Feature"},
	{"geometry":{"coordinates":[13.33259,52.511032],"type":"Point"},"properties":{"osm_id":"4731234138","tag":{"amenity":"waste_basket","description":"TUB Au\u00c3\u009fenabfallbeh\u00c3\u00a4lter 162, Einfachtrenner"}},"type":"Feature"},
	{"geometry":{"coordinates":[13.332823,52.511741],"type":"Point"},"properties":{"osm_id":"4731237193","tag":{"amenity":"waste_basket","description":"TUB Au\u00c3\u009fenabfallbeh\u00c3\u00a4lter 164, Zweifachertrenner"}},"type":"Feature"},
	{"geometry":{"coordinates":[13.333199,52.511519],"type":"Point"},"properties":{"osm_id":"4731238050","ref":"TUB Au\u00c3\u009fenabfallbeh\u00c3\u00a4lter 164 (L\u00c3\u00b6schen)","tag":{"amenity":"waste_basket","description:de":"Einfachtrenner"}},"type":"Feature"},
	{"geometry":{"coordinates":[13.333346,52.511615],"type":"Point"},"properties":{"osm_id":"4731238257","tag":{"amenity":"waste_basket","description":"TUB Au\u00c3\u009fenabfallbeh\u00c3\u00a4lter 165, Zweifachtrenner"}},"type":"Feature"},
	{"geometry":{"coordinates":[13.333452,52.511089],"type":"Point"},"properties":{"osm_id":"4731241046","tag":{"amenity":"waste_basket","description":"TUB Au\u00c3\u009fenabfallbeh\u00c3\u00a4lter 167, Zweifachtrenner"}},"type":"Feature"},
	{"geometry":{"coordinates":[13.333454,52.511079],"type":"Point"},"properties":{"osm_id":"4731242315","tag":{"amenity":"waste_basket","description":"TUB Au\u00c3\u009fenabfallbeh\u00c3\u00a4lter 168, Zweifachtrenner"}},"type":"Feature"},
	{"geometry":{"coordinates":[13.331468,52.510751],"type":"Point"},"properties":{"osm_id":"4731251105","tag":{"amenity":"waste_basket","description":"TUB Au\u00c3\u009fenabfallbeh\u00c3\u00a4lter 169, Einfachtrenner"}},"type":"Feature"},
	{"geometry":{"coordinates":[13.330985,52.51007],"type":"Point"},"properties":{"osm_id":"4731255606","ref":"TUB Au\u00c3\u009fenabfallbeh\u00c3\u00a4lter 172","tag":{"amenity":"waste_basket","description:de":"Einfachtrenner"}},"type":"Feature"},
	{"geometry":{"coordinates":[13.331372,52.510617],"type":"Point"},"properties":{"osm_id":"4731257760","tag":{"amenity":"waste_basket","description":"TUB Au\u00c3\u009fenabfallbeh\u00c3\u00a4lter 170, Einfachtrenner"}},"type":"Feature"},
	{"geometry":{"coordinates":[13.331248,52.510408],"type":"Point"},"properties":{"osm_id":"4731259456","tag":{"amenity":"waste_basket","description":"TUB Au\u00c3\u009fenabfallbeh\u00c3\u00a4lter 171, Zweifachtrenner"}},"type":"Feature"},
	{"geometry":{"coordinates":[13.274667,52.519451],"type":"Point"},"properties":{"osm_id":"4731726137","tag":{"amenity":"waste_disposal"}},"type":"Feature"},
	{"geometry":{"coordinates":[13.326909,52.515377],"type":"Point"},"properties":{"osm_id":"4743134252","tag":{"amenity":"waste_basket","description":"TUB Au\u00c3\u009fenabfallbeh\u00c3\u00a4lter 142, Ascher"}},"type":"Feature"},
	{"geometry":{"coordinates":[13.328211,52.514239],"type":"Point"},"properties":{"osm_id":"4743147348","tag":{"amenity":"waste_basket","description":"TUB Au\u00c3\u009fenabfallbeh\u00c3\u00a4lter 148, Ascher"}},"type":"Feature"},
	{"geometry":{"coordinates":[13.33348,52.511227],"type":"Point"},"properties":{"osm_id":"4743408906","tag":{"amenity":"waste_basket","description":"TUB Au\u00c3\u009fenabfallbeh\u00c3\u00a4lter 166, Einfachtrenner"}},"type":"Feature"},
	{"geometry":{"coordinates":[13.338045,52.488431],"type":"Point"},"properties":{"osm_id":"4793964793","tag":{"amenity":"waste_basket"}},"type":"Feature"},
	{"geometry":{"coordinates":[13.336858,52.489466],"type":"Point"},"properties":{"osm_id":"4793964794","tag":{"amenity":"waste_basket"}},"type":"Feature"},
	{"geometry":{"coordinates":[13.342314,52.516413],"type":"Point"},"properties":{"osm_id":"4807336947","tag":{"amenity":"waste_basket"}},"type":"Feature"},
	{"geometry":{"coordinates":[13.342381,52.516085],"type":"Point"},"properties":{"osm_id":"4807336949","tag":{"amenity":"waste_basket"}},"type":"Feature"},
	{"geometry":{"coordinates":[13.342263,52.516109],"type":"Point"},"properties":{"osm_id":"4807336950","tag":{"amenity":"waste_basket"}},"type":"Feature"},
	{"geometry":{"coordinates":[13.342403,52.515707],"type":"Point"},"properties":{"osm_id":"4807336953","tag":{"amenity":"waste_basket"}},"type":"Feature"},
	{"geometry":{"coordinates":[13.342323,52.515705],"type":"Point"},"properties":{"osm_id":"4807337415","tag":{"amenity":"waste_basket"}},"type":"Feature"},
	{"geometry":{"coordinates":[13.342462,52.515631],"type":"Point"},"properties":{"osm_id":"4807337416","tag":{"amenity":"waste_basket"}},"type":"Feature"},
	{"geometry":{"coordinates":[13.345205,52.515737],"type":"Point"},"properties":{"osm_id":"4807530575","tag":{"amenity":"waste_basket"}},"type":"Feature"},
	{"geometry":{"coordinates":[13.347862,52.518678],"type":"Point"},"properties":{"osm_id":"4808372256","tag":{"amenity":"waste_basket"}},"type":"Feature"},
	{"geometry":{"coordinates":[13.347857,52.518993],"type":"Point"},"properties":{"osm_id":"4808372257","tag":{"amenity":"waste_basket"}},"type":"Feature"},
	{"geometry":{"coordinates":[13.348391,52.519318],"type":"Point"},"properties":{"osm_id":"4808372258","tag":{"amenity":"waste_basket"}},"type":"Feature"},
	{"geometry":{"coordinates":[13.348447,52.519295],"type":"Point"},"properties":{"osm_id":"4808372259","tag":{"amenity":"waste_basket"}},"type":"Feature"},
	{"geometry":{"coordinates":[13.341237,52.517513],"type":"Point"},"properties":{"osm_id":"4817769382","tag":{"amenity":"recycling","recycling:clothes":"yes","recycling_type":"container"}},"type":"Feature"},
	{"geometry":{"coordinates":[13.321816,52.503597],"type":"Point"},"properties":{"osm_id":"4853758038","tag":{"amenity":"recycling","check_date":"2017-10-19","recycling:clothes":"yes","recycling_type":"container"}},"type":"Feature"},
	{"geometry":{"coordinates":[13.342505,52.516851],"type":"Point"},"properties":{"osm_id":"4904037597","tag":{"amenity":"waste_basket"}},"type":"Feature"},
	{"geometry":{"coordinates":[13.34247,52.516953],"type":"Point"},"properties":{"osm_id":"4904179885","tag":{"amenity":"waste_basket"}},"type":"Feature"},
	{"geometry":{"coordinates":[13.326233,52.510676],"type":"Point"},"properties":{"osm_id":"4926413384","tag":{"amenity":"waste_basket","description":"TUB Aussenabfallbeh\u00c3\u00a4lter, M\u00c3\u00bclleiner, einfach, Nr."}},"type":"Feature"},
	{"geometry":{"coordinates":[13.326351,52.510662],"type":"Point"},"properties":{"osm_id":"4926413473","tag":{"amenity":"waste_basket","description":"TUB Aussenabfallbeh\u00c3\u00a4lter, Ascher"}},"type":"Feature"},
	{"geometry":{"coordinates":[13.340377,52.515032],"type":"Point"},"properties":{"osm_id":"4980050140","tag":{"amenity":"waste_basket"}},"type":"Feature"},
	{"geometry":{"coordinates":[13.340961,52.515019],"type":"Point"},"properties":{"osm_id":"4980050143","tag":{"amenity":"waste_basket"}},"type":"Feature"},
	{"geometry":{"coordinates":[13.341477,52.514941],"type":"Point"},"properties":{"osm_id":"4980050144","tag":{"amenity":"waste_basket"}},"type":"Feature"},
	{"geometry":{"coordinates":[13.343222,52.514855],"type":"Point"},"properties":{"osm_id":"4980054375","tag":{"amenity":"waste_basket"}},"type":"Feature"},
	{"geometry":{"coordinates":[13.343185,52.514963],"type":"Point"},"properties":{"osm_id":"4980054376","tag":{"amenity":"waste_basket"}},"type":"Feature"},
	{"geometry":{"coordinates":[13.338597,52.513996],"type":"Point"},"properties":{"osm_id":"4980071312","tag":{"amenity":"waste_basket"}},"type":"Feature"},
	{"geometry":{"coordinates":[13.338167,52.513915],"type":"Point"},"properties":{"osm_id":"4980071313","tag":{"amenity":"waste_basket"}},"type":"Feature"},
	{"geometry":{"coordinates":[13.345329,52.515604],"type":"Point"},"properties":{"osm_id":"4982349896","tag":{"amenity":"waste_basket"}},"type":"Feature"},
	{"geometry":{"coordinates":[13.355371,52.515332],"type":"Point"},"properties":{"osm_id":"4994906397","tag":{"amenity":"waste_basket","operator":"Molok"}},"type":"Feature"},
	{"geometry":{"coordinates":[13.347954,52.519043],"type":"Point"},"properties":{"osm_id":"4998292845","tag":{"amenity":"waste_basket"}},"type":"Feature"},
	{"geometry":{"coordinates":[13.34812,52.519234],"type":"Point"},"properties":{"osm_id":"4998292849","tag":{"amenity":"waste_basket"}},"type":"Feature"},
	{"geometry":{"coordinates":[13.347801,52.519053],"type":"Point"},"properties":{"osm_id":"4998292850","tag":{"amenity":"waste_basket"}},"type":"Feature"},
	{"geometry":{"coordinates":[13.347932,52.519206],"type":"Point"},"properties":{"osm_id":"4998292853","tag":{"amenity":"waste_basket"}},"type":"Feature"},
	{"geometry":{"coordinates":[13.347731,52.518058],"type":"Point"},"properties":{"osm_id":"4998293420","tag":{"amenity":"waste_basket"}},"type":"Feature"},
	{"geometry":{"coordinates":[13.340959,52.485469],"type":"Point"},"properties":{"osm_id":"5073595622","tag":{"amenity":"waste_basket"}},"type":"Feature"},
	{"geometry":{"coordinates":[13.300576,52.521467],"type":"Point"},"properties":{"osm_id":"5098301192","tag":{"amenity":"waste_basket"}},"type":"Feature"},
	{"geometry":{"coordinates":[13.339847,52.519129],"type":"Point"},"properties":{"osm_id":"5140418372","tag":{"amenity":"waste_basket"}},"type":"Feature"},
	{"geometry":{"coordinates":[13.292605,52.492515],"type":"Point"},"properties":{"osm_id":"5176025696","tag":{"amenity":"recycling","check_date":"2017-10-18","recycling:clothes":"yes","recycling_type":"container"}},"type":"Feature"},
	{"geometry":{"coordinates":[13.293431,52.488578],"type":"Point"},"properties":{"osm_id":"5176025706","tag":{"amenity":"recycling","check_date":"2017-10-18","recycling:shoes":"yes","recycling_type":"container"}},"type":"Feature"},
	{"geometry":{"coordinates":[13.326617,52.514361],"type":"Point"},"properties":{"osm_id":"5177052242","ref":"TUB Au\u00c3\u009fenabfallbeh\u00c3\u00a4lter 131","tag":{"amenity":"waste_basket","description:de":"Zweifachtrenner"}},"type":"Feature"},
	{"geometry":{"coordinates":[13.351522,52.528363],"type":"Point"},"properties":{"osm_id":"5181969697","tag":{"amenity":"recycling","check_date":"2017-10-19","recycling:clothes":"yes","recycling_type":"container"}},"type":"Feature"},
	{"geometry":{"coordinates":[13.345773,52.533175],"type":"Point"},"properties":{"osm_id":"5181969698","tag":{"amenity":"recycling","check_date":"2017-10-19","recycling:clothes":"yes","recycling_type":"container"}},"type":"Feature"},
	{"geometry":{"coordinates":[13.326538,52.519506],"type":"Point"},"properties":{"osm_id":"5182033085","tag":{"amenity":"recycling","check_date":"2017-10-19","operator":"Deutsches Rotes Kreuz","recycling:clothes":"yes","recycling_type":"container"}},"type":"Feature"},
	{"geometry":{"coordinates":[13.326161,52.528779],"type":"Point"},"properties":{"osm_id":"5186010585","tag":{"amenity":"recycling","recycling_type":"container"}},"type":"Feature"},
	{"geometry":{"coordinates":[13.295229,52.507284],"type":"Point"},"properties":{"osm_id":"5188883000","tag":{"amenity":"recycling","recycling:glass_bottles":"yes","recycling_type":"container"}},"type":"Feature"},
	{"geometry":{"coordinates":[13.300427,52.503543],"type":"Point"},"properties":{"osm_id":"5189484231","tag":{"amenity":"recycling","check_date":"2017-10","description":"2 Container","recycling:clothes":"yes","recycling_type":"container"}},"type":"Feature"},
	{"geometry":{"coordinates":[13.332737,52.521685],"type":"Point"},"properties":{"osm_id":"5271536422","tag":{"amenity":"waste_basket"}},"type":"Feature"},
	{"geometry":{"coordinates":[13.332307,52.521852],"type":"Point"},"properties":{"osm_id":"5271536423","tag":{"amenity":"waste_basket"}},"type":"Feature"},
	{"geometry":{"coordinates":[13.335491,52.527933],"type":"Point"},"properties":{"osm_id":"5289937112","tag":{"access":"permissive","amenity":"recycling","description":"3 Container","operator":"Malteser","recycling:clothes":"yes","recycling_type":"container"}},"type":"Feature"},
	{"geometry":{"coordinates":[13.314984,52.525644],"type":"Point"},"properties":{"osm_id":"5289937722","tag":{"amenity":"recycling","operator":"Deutsches Rotes Kreuz","recycling:clothes":"yes","recycling_type":"container"}},"type":"Feature"},
	{"geometry":{"coordinates":[13.329734,52.525853],"type":"Point"},"properties":{"osm_id":"5327532045","tag":{"amenity":"recycling","operator":"Deutsches Rotes Kreuz","recycling:clothes":"yes","recycling_type":"container"}},"type":"Feature"},
	{"geometry":{"coordinates":[13.344844,52.48281],"type":"Point"},"properties":{"osm_id":"5528908174","tag":{"amenity":"waste_basket"}},"type":"Feature"},
	{"geometry":{"coordinates":[13.359127,52.512584],"type":"Point"},"properties":{"osm_id":"5585946597","tag":{"amenity":"waste_basket"}},"type":"Feature"},
	{"geometry":{"coordinates":[13.358382,52.512722],"type":"Point"},"properties":{"osm_id":"5585950329","tag":{"amenity":"waste_basket"}},"type":"Feature"},
	{"geometry":{"coordinates":[13.357671,52.51277],"type":"Point"},"properties":{"osm_id":"5585950330","tag":{"amenity":"waste_basket"}},"type":"Feature"},
	{"geometry":{"coordinates":[13.357414,52.512825],"type":"Point"},"properties":{"osm_id":"5585950331","tag":{"amenity":"waste_basket"}},"type":"Feature"},
	{"geometry":{"coordinates":[13.356836,52.513037],"type":"Point"},"properties":{"osm_id":"5585954715","tag":{"amenity":"waste_basket"}},"type":"Feature"},
	{"geometry":{"coordinates":[13.354975,52.514052],"type":"Point"},"properties":{"osm_id":"5605393131","tag":{"amenity":"waste_basket"}},"type":"Feature"},
	{"geometry":{"coordinates":[13.354599,52.514388],"type":"Point"},"properties":{"osm_id":"5605393965","tag":{"amenity":"waste_basket"}},"type":"Feature"},
	{"geometry":{"coordinates":[13.354562,52.514912],"type":"Point"},"properties":{"highway":"street_lamp","osm_id":"5605394120","tag":{"amenity":"waste_basket"}},"type":"Feature"},
	{"geometry":{"coordinates":[13.354385,52.515152],"type":"Point"},"properties":{"osm_id":"5614914249","tag":{"amenity":"waste_basket"}},"type":"Feature"},
	{"geometry":{"coordinates":[13.303243,52.517295],"type":"Point"},"properties":{"osm_id":"5643425215","tag":{"amenity":"waste_basket"}},"type":"Feature"},
	{"geometry":{"coordinates":[13.342554,52.503008],"type":"Point"},"properties":{"osm_id":"5696776127","tag":{"amenity":"waste_basket"}},"type":"Feature"},
	{"geometry":{"coordinates":[13.35854,52.486385],"type":"Point"},"properties":{"osm_id":"5720120437","tag":{"amenity":"waste_basket"}},"type":"Feature"},
	{"geometry":{"coordinates":[13.300134,52.509685],"type":"Point"},"properties":{"osm_id":"5808402599","tag":{"amenity":"waste_basket"}},"type":"Feature"},
	{"geometry":{"coordinates":[13.300531,52.508035],"type":"Point"},"properties":{"osm_id":"5829794571","tag":{"amenity":"waste_basket"}},"type":"Feature"},
	{"geometry":{"coordinates":[13.298464,52.508047],"type":"Point"},"properties":{"osm_id":"5834257631","tag":{"amenity":"waste_basket"}},"type":"Feature"},
	{"geometry":{"coordinates":[13.299054,52.508039],"type":"Point"},"properties":{"osm_id":"5834297128","tag":{"amenity":"waste_basket"}},"type":"Feature"},
	{"geometry":{"coordinates":[13.296178,52.53028],"type":"Point"},"properties":{"osm_id":"5964012576","tag":{"amenity":"waste_basket"}},"type":"Feature"},
	{"geometry":{"coordinates":[13.340278,52.525825],"type":"Point"},"properties":{"osm_id":"5983477666","tag":{"amenity":"waste_basket"}},"type":"Feature"},
	{"geometry":{"coordinates":[13.339902,52.525915],"type":"Point"},"properties":{"osm_id":"5983477668","tag":{"amenity":"waste_basket"}},"type":"Feature"},
	{"geometry":{"coordinates":[13.336017,52.52515],"type":"Point"},"properties":{"osm_id":"5983477675","tag":{"amenity":"waste_basket"}},"type":"Feature"},
	{"geometry":{"coordinates":[13.335094,52.525544],"type":"Point"},"properties":{"osm_id":"5983477676","tag":{"amenity":"waste_basket"}},"type":"Feature"},
	{"geometry":{"coordinates":[13.337716,52.525162],"type":"Point"},"properties":{"osm_id":"5983477679","tag":{"amenity":"waste_basket"}},"type":"Feature"},
	{"geometry":{"coordinates":[13.339392,52.525571],"type":"Point"},"properties":{"osm_id":"5983477681","tag":{"amenity":"waste_basket"}},"type":"Feature"},
	{"geometry":{"coordinates":[13.339754,52.525827],"type":"Point"},"properties":{"osm_id":"5983477683","tag":{"amenity":"waste_basket"}},"type":"Feature"},
	{"geometry":{"coordinates":[13.347286,52.530633],"type":"Point"},"properties":{"osm_id":"6148185647","tag":{"amenity":"recycling","operator":"Detsches Rotes Kreuz","recycling:clothes":"yes","recycling_type":"container"}},"type":"Feature"},
	{"geometry":{"coordinates":[13.303291,52.521242],"type":"Point"},"properties":{"osm_id":"6149436960","tag":{"amenity":"waste_basket"}},"type":"Feature"},
	{"geometry":{"coordinates":[13.301846,52.52143],"type":"Point"},"properties":{"osm_id":"6149436963","tag":{"amenity":"waste_basket"}},"type":"Feature"},
	{"geometry":{"coordinates":[13.300585,52.50323],"type":"Point"},"properties":{"osm_id":"6177434446","tag":{"amenity":"waste_basket"}},"type":"Feature"},
	{"geometry":{"coordinates":[13.339948,52.526182],"type":"Point"},"properties":{"osm_id":"6301751562","tag":{"amenity":"waste_basket"}},"type":"Feature"},
	{"geometry":{"coordinates":[13.358599,52.534521],"type":"Point"},"properties":{"osm_id":"6308430681","tag":{"amenity":"waste_basket","waste":"trash"}},"type":"Feature"},
	{"geometry":{"coordinates":[13.304148,52.524636],"type":"Point"},"properties":{"osm_id":"6402022550","tag":{"amenity":"recycling","opening_hours":"Mo-Sa 07:00-13:00, 15:00-20:00; PH off","operator":"Berlin Recycling","recycling:glass_bottles":"yes","recycling_type":"container"}},"type":"Feature"},
	{"geometry":{"coordinates":[13.346132,52.510499],"type":"Point"},"properties":{"osm_id":"6424260659","tag":{"amenity":"waste_basket"}},"type":"Feature"},
	{"geometry":{"coordinates":[13.287046,52.504782],"type":"Point"},"properties":{"osm_id":"6426339701","tag":{"amenity":"waste_basket","waste":"trash"}},"type":"Feature"},
	{"geometry":{"coordinates":[13.288026,52.504612],"type":"Point"},"properties":{"osm_id":"6426379604","tag":{"amenity":"waste_basket","waste":"trash"}},"type":"Feature"},
	{"geometry":{"coordinates":[13.288174,52.504399],"type":"Point"},"properties":{"osm_id":"6426379605","tag":{"amenity":"waste_basket","waste":"trash"}},"type":"Feature"},
	{"geometry":{"coordinates":[13.353884,52.494619],"type":"Point"},"properties":{"osm_id":"6439035933","tag":{"amenity":"waste_basket"}},"type":"Feature"},
	{"geometry":{"coordinates":[13.319203,52.490618],"type":"Point"},"properties":{"osm_id":"6472916796","tag":{"amenity":"waste_basket"}},"type":"Feature"},
	{"geometry":{"coordinates":[13.331776,52.487324],"type":"Point"},"properties":{"osm_id":"6475798398","tag":{"amenity":"waste_basket"}},"type":"Feature"},
	{"geometry":{"coordinates":[13.3476,52.528765],"type":"Point"},"properties":{"osm_id":"6508869768","tag":{"amenity":"waste_basket","waste":"trash"}},"type":"Feature"},
	{"geometry":{"coordinates":[13.347585,52.528792],"type":"Point"},"properties":{"osm_id":"6508869770","tag":{"amenity":"waste_basket","waste":"trash"}},"type":"Feature"},
	{"geometry":{"coordinates":[13.300032,52.495756],"type":"Point"},"properties":{"osm_id":"6514000385","tag":{"amenity":"waste_basket"}},"type":"Feature"},
	{"geometry":{"coordinates":[13.299571,52.495036],"type":"Point"},"properties":{"osm_id":"6518931385","tag":{"amenity":"waste_basket","operator":"Berliner Stadtreinigung","operator:short":"BSR"}},"type":"Feature"},
	{"geometry":{"coordinates":[13.312875,52.499182],"type":"Point"},"properties":{"osm_id":"6560549860","tag":{"amenity":"waste_basket"}},"type":"Feature"},
	{"geometry":{"coordinates":[13.320251,52.498105],"type":"Point"},"properties":{"osm_id":"6561126050","tag":{"amenity":"waste_basket"}},"type":"Feature"},
	{"geometry":{"coordinates":[13.290819,52.502829],"type":"Point"},"properties":{"osm_id":"6612543498","tag":{"amenity":"waste_basket"}},"type":"Feature"},
	{"geometry":{"coordinates":[13.299295,52.509802],"type":"Point"},"properties":{"osm_id":"6634018863","tag":{"amenity":"recycling","recycling:glass_bottles":"yes","recycling_type":"container"}},"type":"Feature"},
	{"geometry":{"coordinates":[13.320507,52.497756],"type":"Point"},"properties":{"osm_id":"6742078617","tag":{"amenity":"waste_basket"}},"type":"Feature"},
	{"geometry":{"coordinates":[13.342882,52.502464],"type":"Point"},"properties":{"osm_id":"6757671685","tag":{"amenity":"waste_basket"}},"type":"Feature"},
	{"geometry":{"coordinates":[13.343494,52.50232],"type":"Point"},"properties":{"osm_id":"6757671785","tag":{"amenity":"waste_basket"}},"type":"Feature"},
	{"geometry":{"coordinates":[13.341048,52.496223],"type":"Point"},"properties":{"osm_id":"6777643631","tag":{"amenity":"recycling","recycling_type":"container"}},"type":"Feature"},
	{"geometry":{"coordinates":[13.281548,52.510203],"type":"Point"},"properties":{"osm_id":"6795052191","tag":{"amenity":"waste_basket"}},"type":"Feature"},
	{"geometry":{"coordinates":[13.28196,52.510306],"type":"Point"},"properties":{"osm_id":"6795055013","tag":{"amenity":"waste_basket"}},"type":"Feature"},
	{"geometry":{"coordinates":[13.286284,52.506911],"type":"Point"},"properties":{"osm_id":"6802652639","tag":{"amenity":"waste_basket"}},"type":"Feature"},
	{"geometry":{"coordinates":[13.286062,52.507082],"type":"Point"},"properties":{"osm_id":"6802700009","tag":{"amenity":"waste_basket"}},"type":"Feature"},
	{"geometry":{"coordinates":[13.333266,52.50756],"type":"Point"},"properties":{"osm_id":"6866900952","tag":{"amenity":"waste_basket"}},"type":"Feature"},
	{"geometry":{"coordinates":[13.332599,52.508254],"type":"Point"},"properties":{"osm_id":"6866900953","tag":{"amenity":"waste_basket"}},"type":"Feature"},
	{"geometry":{"coordinates":[13.333743,52.507952],"type":"Point"},"properties":{"osm_id":"6866900954","tag":{"amenity":"waste_basket"}},"type":"Feature"},
	{"geometry":{"coordinates":[13.334161,52.507307],"type":"Point"},"properties":{"osm_id":"6866906333","tag":{"amenity":"waste_basket"}},"type":"Feature"},
	{"geometry":{"coordinates":[13.332761,52.506974],"type":"Point"},"properties":{"osm_id":"6866912299","tag":{"amenity":"waste_basket"}},"type":"Feature"},
	{"geometry":{"coordinates":[13.333398,52.50775],"type":"Point"},"properties":{"osm_id":"6866913506","tag":{"amenity":"waste_basket"}},"type":"Feature"},
	{"geometry":{"coordinates":[13.332703,52.506901],"type":"Point"},"properties":{"osm_id":"6866916564","tag":{"amenity":"waste_basket"}},"type":"Feature"},
	{"geometry":{"coordinates":[13.354933,52.485305],"type":"Point"},"properties":{"osm_id":"7066762918","tag":{"amenity":"waste_basket"}},"type":"Feature"},
	{"geometry":{"coordinates":[13.352835,52.484209],"type":"Point"},"properties":{"osm_id":"7066762920","tag":{"amenity":"waste_basket"}},"type":"Feature"},
	{"geometry":{"coordinates":[13.296169,52.495771],"type":"Point"},"properties":{"osm_id":"7104741451","tag":{"amenity":"recycling","recycling:glass_bottles":"yes","recycling_type":"container"}},"type":"Feature"},
	{"geometry":{"coordinates":[13.354152,52.507827],"type":"Point"},"properties":{"osm_id":"7204273085","tag":{"amenity":"waste_basket"}},"type":"Feature"},
	{"geometry":{"coordinates":[13.295502,52.493343],"type":"Point"},"properties":{"osm_id":"7241863112","tag":{"amenity":"recycling","recycling:glass_bottles":"yes","recycling_type":"container"}},"type":"Feature"},
	{"geometry":{"coordinates":[13.303634,52.529909],"type":"Point"},"properties":{"osm_id":"7246079816","tag":{"entrance":"yes"}},"type":"Feature"},
	{"geometry":{"coordinates":[13.304206,52.529986],"type":"Point"},"properties":{"osm_id":"7246079817","tag":{"entrance":"yes"}},"type":"Feature"},
	{"geometry":{"coordinates":[13.333174,52.520924],"type":"Point"},"properties":{"osm_id":"7304292331","tag":{"amenity":"recycling","opening_hours":"Mo-Sa 07:00-13:00,15:00-20:00; PH off","operator":"Karl Meyer Rohstoffverwertung","recycling:glass_bottles":"yes","recycling_type":"container"}},"type":"Feature"},
	{"geometry":{"coordinates":[13.325146,52.493871],"type":"Point"},"properties":{"osm_id":"7405834788","tag":{"amenity":"waste_basket","colour":"grey","material":"metal","waste":"trash;dog_excrement;mixed"}},"type":"Feature"},
	{"geometry":{"coordinates":[13.272832,52.533978],"type":"Point"},"properties":{"osm_id":"7609369468","tag":{"amenity":"waste_basket","waste":"trash"}},"type":"Feature"},
	{"geometry":{"coordinates":[13.272769,52.533988],"type":"Point"},"properties":{"osm_id":"7609369469","tag":{"amenity":"waste_basket","waste":"trash"}},"type":"Feature"},
	{"geometry":{"coordinates":[13.315679,52.486667],"type":"Point"},"properties":{"osm_id":"7685796310","tag":{"amenity":"recycling","recycling:glass_bottles":"yes","recycling_type":"container"}},"type":"Feature"},
	{"geometry":{"coordinates":[13.340263,52.488132],"type":"Point"},"properties":{"osm_id":"7710839670","tag":{"amenity":"waste_basket"}},"type":"Feature"},
	{"geometry":{"coordinates":[13.340155,52.488119],"type":"Point"},"properties":{"osm_id":"7710839671","tag":{"amenity":"waste_basket"}},"type":"Feature"},
	{"geometry":{"coordinates":[13.288727,52.493179],"type":"Point"},"properties":{"osm_id":"7752757117","tag":{"amenity":"recycling","recycling:clothes":"yes","recycling_type":"container"}},"type":"Feature"},
	{"geometry":{"coordinates":[13.296979,52.489709],"type":"Point"},"properties":{"osm_id":"7774087528","tag":{"amenity":"recycling","recycling:clothes":"yes","recycling_type":"container"}},"type":"Feature"},
	{"geometry":{"coordinates":[13.340847,52.484659],"type":"Point"},"properties":{"osm_id":"7819441969","tag":{"amenity":"waste_basket"}},"type":"Feature"},
	{"geometry":{"coordinates":[13.344869,52.485418],"type":"Point"},"properties":{"osm_id":"7842493725","tag":{"amenity":"waste_basket"}},"type":"Feature"},
	{"geometry":{"coordinates":[13.344249,52.485708],"type":"Point"},"properties":{"osm_id":"7842493726","tag":{"amenity":"waste_basket"}},"type":"Feature"},
	{"geometry":{"coordinates":[13.339757,52.484485],"type":"Point"},"properties":{"osm_id":"7904420227","tag":{"amenity":"waste_basket"}},"type":"Feature"},
	{"geometry":{"coordinates":[13.339612,52.484431],"type":"Point"},"properties":{"osm_id":"7904420231","tag":{"amenity":"waste_basket"}},"type":"Feature"},
	{"geometry":{"coordinates":[13.302247,52.50658],"type":"Point"},"properties":{"osm_id":"7934947485","tag":{"amenity":"waste_basket"}},"type":"Feature"}
]
}
