{
"type": "FeatureCollection",
"features": [
	{"geometry":{"coordinates":[13.298465,52.457643],"type":"Point"},"properties":{"osm_id":"273174898","tag":{"amenity":"recycling","operator":"Rhenus","recycling:glass_bottles":"yes","recycling_type":"container"}},"type":"Feature"},
	{"geometry":{"coordinates":[13.326328,52.441013],"type":"Point"},"properties":{"name":"Recyclinghof Ostpreu\u00c3\u009fendamm","osm_id":"299208120","tag":{"addr:city":"Berlin","addr:country":"DE","addr:housenumber":"1","addr:postcode":"12207","addr:street":"Ostpreu\u00c3\u009fendamm","addr:suburb":"Lichterfelde","amenity":"recycling","opening_hours":"Mo-We,Fr 07:00-17:00; Th 09:30-19:30; Sa 07:00-15:00","phone":"+49 30 75924900","recycling:batteries":"yes","recycling:glass":"yes","recycling_type":"centre","website":"https://www.bsr.de/8871.html"}},"type":"Feature"},
	{"geometry":{"coordinates":[13.292548,52.445038],"type":"Point"},"properties":{"osm_id":"315349525","tag":{"amenity":"recycling","operator":"Karl Meyer Rohstoffverwertung","recycling:glass_bottles":"yes","recycling_type":"container"}},"type":"Feature"},
	{"geometry":{"coordinates":[13.328079,52.454248],"type":"Point"},"properties":{"osm_id":"317175529","tag":{"amenity":"recycling","recycling:glass_bottles":"yes","recycling_type":"container"}},"type":"Feature"},
	{"geometry":{"coordinates":[13.352144,52.436142],"type":"Point"},"properties":{"osm_id":"342440323","tag":{"amenity":"recycling","brown":"yes","green":"yes","operator":"Berlin Recycling","recycling:glass_bottles":"yes","recycling_type":"container","white":"yes"}},"type":"Feature"},
	{"geometry":{"coordinates":[13.312175,52.442556],"type":"Point"},"properties":{"osm_id":"347422934","tag":{"amenity":"recycling","recycling:clothes":"yes","recycling:glass_bottles":"yes","recycling_type":"container"}},"type":"Feature"},
	{"geometry":{"coordinates":[13.301567,52.440237],"type":"Point"},"properties":{"osm_id":"347422937","tag":{"amenity":"recycling","recycling:glass_bottles":"yes","recycling_type":"container"}},"type":"Feature"},
	{"geometry":{"coordinates":[13.299317,52.440688],"type":"Point"},"properties":{"osm_id":"347422940","tag":{"amenity":"recycling","recycling:glass_bottles":"yes","recycling_type":"container"}},"type":"Feature"},
	{"geometry":{"coordinates":[13.295886,52.438007],"type":"Point"},"properties":{"osm_id":"351387149","tag":{"amenity":"recycling","recycling:glass_bottles":"yes","recycling_type":"container"}},"type":"Feature"},
	{"geometry":{"coordinates":[13.294408,52.449234],"type":"Point"},"properties":{"osm_id":"362178236","tag":{"amenity":"recycling","recycling:clothes":"yes","recycling_type":"container"}},"type":"Feature"},
	{"geometry":{"coordinates":[13.318226,52.482634],"type":"Point"},"properties":{"osm_id":"416310808","ref":"Aachener Str. Ecke Mecklenburgische Str.","tag":{"amenity":"recycling","brown":"no","green":"yes","operator":"Karl Meyer Rohstoffverwertung","recycling:glass_bottles":"yes","recycling_type":"container","white":"yes"}},"type":"Feature"},
	{"geometry":{"coordinates":[13.316303,52.440929],"type":"Point"},"properties":{"osm_id":"428069663","tag":{"amenity":"recycling","operator":"Karl Meyer Rohstoffverwertung","recycling:glass_bottles":"yes","recycling_type":"container"}},"type":"Feature"},
	{"geometry":{"coordinates":[13.34111,52.476089],"type":"Point"},"properties":{"osm_id":"428114305","tag":{"amenity":"recycling","recycling:glass_bottles":"yes","recycling_type":"container"}},"type":"Feature"},
	{"geometry":{"coordinates":[13.280969,52.450584],"type":"Point"},"properties":{"osm_id":"447756201","tag":{"amenity":"recycling","operator":"Deutsches Rotes Kreuz","recycling:clothes":"yes","recycling_type":"container"}},"type":"Feature"},
	{"geometry":{"coordinates":[13.284348,52.446865],"type":"Point"},"properties":{"osm_id":"447757505","tag":{"amenity":"recycling","operator":"Humana","recycling:clothes":"yes","recycling_type":"container"}},"type":"Feature"},
	{"geometry":{"coordinates":[13.358637,52.434285],"type":"Point"},"properties":{"osm_id":"458754762","tag":{"amenity":"recycling","recycling:glass_bottles":"yes","recycling_type":"container"}},"type":"Feature"},
	{"geometry":{"coordinates":[13.34954,52.44951],"type":"Point"},"properties":{"osm_id":"462694088","tag":{"amenity":"recycling","recycling:clothes":"yes","recycling_type":"container"}},"type":"Feature"},
	{"geometry":{"coordinates":[13.293384,52.43688],"type":"Point"},"properties":{"osm_id":"477352263","tag":{"amenity":"recycling","recycling:glass_bottles":"yes","recycling_type":"container"}},"type":"Feature"},
	{"geometry":{"coordinates":[13.305337,52.432424],"type":"Point"},"properties":{"osm_id":"515071499","tag":{"amenity":"recycling","recycling:glass_bottles":"yes","recycling_type":"container"}},"type":"Feature"},
	{"geometry":{"coordinates":[13.327114,52.448558],"type":"Point"},"properties":{"osm_id":"612926210","tag":{"amenity":"recycling","recycling_type":"container"}},"type":"Feature"},
	{"geometry":{"coordinates":[13.326193,52.429843],"type":"Point"},"properties":{"osm_id":"615952495","tag":{"amenity":"recycling","recycling:glass_bottles":"yes","recycling_type":"container"}},"type":"Feature"},
	{"geometry":{"coordinates":[13.32704,52.42992],"type":"Point"},"properties":{"osm_id":"615952502","tag":{"amenity":"recycling","recycling:clothes":"yes","recycling_type":"container"}},"type":"Feature"},
	{"geometry":{"coordinates":[13.287565,52.459953],"type":"Point"},"properties":{"osm_id":"634920762","tag":{"amenity":"recycling","recycling:glass_bottles":"yes","recycling_type":"container"}},"type":"Feature"},
	{"geometry":{"coordinates":[13.32812,52.477272],"type":"Point"},"properties":{"osm_id":"656450757","tag":{"amenity":"recycling","brown":"yes","green":"yes","recycling:glass_bottles":"yes","recycling_type":"container","white":"yes"}},"type":"Feature"},
	{"geometry":{"coordinates":[13.288472,52.464799],"type":"Point"},"properties":{"osm_id":"660130204","tag":{"amenity":"recycling","location":"overground","operator":"Humana","recycling:clothes":"yes","recycling_type":"container"}},"type":"Feature"},
	{"geometry":{"coordinates":[13.282246,52.478353],"type":"Point"},"properties":{"osm_id":"663078299","ref":"Karlsbader Str. 17 vor Edeka","tag":{"amenity":"recycling","operator":"Rhenus","recycling:glass_bottles":"yes","recycling_type":"container"}},"type":"Feature"},
	{"geometry":{"coordinates":[13.290429,52.470823],"type":"Point"},"properties":{"osm_id":"663611902","tag":{"amenity":"recycling","check_date":"2017-10-18","description":"2 Container","operator":"Deutsches Rotes Kreuz","recycling:clothes":"yes","recycling_type":"container"}},"type":"Feature"},
	{"geometry":{"coordinates":[13.282632,52.476624],"type":"Point"},"properties":{"osm_id":"664244043","ref":"Hohenzollerndamm 105 am Betty-Hirsch-Platz","tag":{"amenity":"recycling","operator":"Karl Meyer Rohstoffverwertung","recycling:glass_bottles":"yes","recycling_type":"container"}},"type":"Feature"},
	{"geometry":{"coordinates":[13.34653,52.482558],"type":"Point"},"properties":{"osm_id":"670658007","tag":{"amenity":"recycling","operator":"Karl Meyer Rohstoffverwertung","recycling:glass_bottles":"yes","recycling_type":"container"}},"type":"Feature"},
	{"geometry":{"coordinates":[13.291589,52.446262],"type":"Point"},"properties":{"osm_id":"678901078","tag":{"amenity":"recycling","operator":"Deutsches Rotes Kreuz","recycling:clothes":"yes","recycling_type":"container"}},"type":"Feature"},
	{"geometry":{"coordinates":[13.292592,52.458106],"type":"Point"},"properties":{"osm_id":"678901091","tag":{"amenity":"recycling","recycling:clothes":"yes","recycling_type":"container"}},"type":"Feature"},
	{"geometry":{"coordinates":[13.301543,52.456945],"type":"Point"},"properties":{"osm_id":"678901093","tag":{"amenity":"recycling","recycling:glass_bottles":"yes","recycling_type":"container"}},"type":"Feature"},
	{"geometry":{"coordinates":[13.302057,52.457085],"type":"Point"},"properties":{"osm_id":"678901094","tag":{"amenity":"recycling","operator":"Deutsches Rotes Kreuz","recycling:clothes":"yes","recycling_type":"container"}},"type":"Feature"},
	{"geometry":{"coordinates":[13.302012,52.458612],"type":"Point"},"properties":{"osm_id":"678901096","tag":{"amenity":"recycling","operator":"Humana","recycling:clothes":"yes","recycling_type":"container"}},"type":"Feature"},
	{"geometry":{"coordinates":[13.29663,52.446473],"type":"Point"},"properties":{"osm_id":"689563346","tag":{"amenity":"recycling","recycling:glass_bottles":"yes","recycling_type":"container"}},"type":"Feature"},
	{"geometry":{"coordinates":[13.338535,52.474029],"type":"Point"},"properties":{"osm_id":"689563388","tag":{"amenity":"recycling","location":"overground","recycling:glass_bottles":"yes","recycling_type":"container"}},"type":"Feature"},
	{"geometry":{"coordinates":[13.349488,52.48229],"type":"Point"},"properties":{"osm_id":"689563394","tag":{"amenity":"recycling","check_date":"2017-10-19","operator":"Deutsches Rotes Kreuz","recycling:clothes":"yes","recycling_type":"container"}},"type":"Feature"},
	{"geometry":{"coordinates":[13.317952,52.450307],"type":"Point"},"properties":{"osm_id":"691484495","tag":{"amenity":"recycling","operator":"Obdachlosenhilfe Die Br\u00c3\u00bccke","recycling:clothes":"yes","recycling_type":"container"}},"type":"Feature"},
	{"geometry":{"coordinates":[13.317398,52.450127],"type":"Point"},"properties":{"osm_id":"691484498","tag":{"amenity":"recycling","operator":"Obdachlosenhilfe Die Br\u00c3\u00bccke","recycling:clothes":"yes","recycling_type":"container"}},"type":"Feature"},
	{"geometry":{"coordinates":[13.318304,52.450426],"type":"Point"},"properties":{"osm_id":"691484504","tag":{"amenity":"recycling","operator":"Obdachlosenhilfe Die Br\u00c3\u00bccke","recycling:clothes":"yes","recycling_type":"container"}},"type":"Feature"},
	{"geometry":{"coordinates":[13.320369,52.452498],"type":"Point"},"properties":{"osm_id":"691484526","tag":{"amenity":"recycling","recycling:glass_bottles":"yes","recycling_type":"container"}},"type":"Feature"},
	{"geometry":{"coordinates":[13.323624,52.454725],"type":"Point"},"properties":{"osm_id":"691484559","tag":{"amenity":"recycling","recycling:clothes":"yes","recycling_type":"container"}},"type":"Feature"},
	{"geometry":{"coordinates":[13.324442,52.454592],"type":"Point"},"properties":{"osm_id":"691484564","tag":{"amenity":"recycling","recycling:glass_bottles":"yes","recycling_type":"container"}},"type":"Feature"},
	{"geometry":{"coordinates":[13.330406,52.458249],"type":"Point"},"properties":{"osm_id":"691484624","tag":{"amenity":"recycling","recycling:clothes":"yes","recycling_type":"container"}},"type":"Feature"},
	{"geometry":{"coordinates":[13.33266,52.459011],"type":"Point"},"properties":{"osm_id":"691484632","tag":{"amenity":"recycling","recycling:clothes":"yes","recycling_type":"container"}},"type":"Feature"},
	{"geometry":{"coordinates":[13.340689,52.475583],"type":"Point"},"properties":{"osm_id":"691484854","tag":{"amenity":"recycling","recycling:clothes":"yes","recycling_type":"container"}},"type":"Feature"},
	{"geometry":{"coordinates":[13.342268,52.477411],"type":"Point"},"properties":{"osm_id":"691484863","tag":{"amenity":"recycling","operator":"Deutsches Rotes Kreuz","recycling:clothes":"yes","recycling_type":"container"}},"type":"Feature"},
	{"geometry":{"coordinates":[13.34351,52.4713],"type":"Point"},"properties":{"osm_id":"698938901","tag":{"amenity":"recycling","recycling:glass_bottles":"yes","recycling_type":"container"}},"type":"Feature"},
	{"geometry":{"coordinates":[13.347716,52.446598],"type":"Point"},"properties":{"osm_id":"715040105","tag":{"amenity":"recycling","recycling:clothes":"yes","recycling_type":"container"}},"type":"Feature"},
	{"geometry":{"coordinates":[13.311674,52.479362],"type":"Point"},"properties":{"osm_id":"715203762","ref":"Mecklenburgische Str. 23. gg\u00c3\u00bc., zwischen Taxistand und Heidelberger Platz","tag":{"amenity":"recycling","operator":"Karl Meyer Rohstoffverwertung","recycling:glass_bottles":"yes","recycling_type":"container"}},"type":"Feature"},
	{"geometry":{"coordinates":[13.307285,52.477229],"type":"Point"},"properties":{"osm_id":"715203808","ref":"Mecklenburgische Str. 65 - 68","tag":{"amenity":"recycling","operator":"Karl Meyer Rohstoffverwertung","recycling:glass_bottles":"yes","recycling:glass_bottles:colour":"white;green;brown","recycling_type":"container"}},"type":"Feature"},
	{"geometry":{"coordinates":[13.301235,52.473967],"type":"Point"},"properties":{"osm_id":"715203816","tag":{"amenity":"recycling","brown":"yes","green":"yes","recycling:glass_bottles":"yes","recycling_type":"container","white":"yes"}},"type":"Feature"},
	{"geometry":{"coordinates":[13.29615,52.464432],"type":"Point"},"properties":{"osm_id":"715203861","tag":{"amenity":"recycling","location":"overground","recycling:clothes":"yes","recycling_type":"container"}},"type":"Feature"},
	{"geometry":{"coordinates":[13.289954,52.475741],"type":"Point"},"properties":{"osm_id":"768871965","ref":"Friedrichshaller Str. Ecke Breite Str. / Berkaer Str.","tag":{"amenity":"recycling","brown":"yes","green":"yes","operator":"Karl Meyer Rohstoffverwertung","recycling:glass_bottles":"yes","recycling_type":"container","white":"yes"}},"type":"Feature"},
	{"geometry":{"coordinates":[13.289258,52.457187],"type":"Point"},"properties":{"osm_id":"775342924","tag":{"amenity":"recycling","operator":"Deutsches Rotes Kreuz","recycling:clothes":"yes","recycling_type":"container"}},"type":"Feature"},
	{"geometry":{"coordinates":[13.289257,52.457166],"type":"Point"},"properties":{"osm_id":"775342934","tag":{"amenity":"recycling","operator":"RS","recycling:clothes":"yes","recycling_type":"container"}},"type":"Feature"},
	{"geometry":{"coordinates":[13.306118,52.459122],"type":"Point"},"properties":{"osm_id":"775342942","tag":{"amenity":"recycling","operator":"Karl Meyer Rohstoffverwertung","recycling:glass_bottles":"yes","recycling_type":"container"}},"type":"Feature"},
	{"geometry":{"coordinates":[13.295499,52.437893],"type":"Point"},"properties":{"osm_id":"812276313","tag":{"amenity":"recycling","recycling:clothes":"yes","recycling_type":"container"}},"type":"Feature"},
	{"geometry":{"coordinates":[13.303417,52.449555],"type":"Point"},"properties":{"osm_id":"823788768","tag":{"amenity":"recycling","operator":"Karl Meyer Rohstoffverwertung","recycling:glass_bottles":"yes","recycling_type":"container"}},"type":"Feature"},
	{"geometry":{"coordinates":[13.339234,52.461564],"type":"Point"},"properties":{"osm_id":"829287428","tag":{"amenity":"recycling","recycling:glass_bottles":"yes","recycling_type":"container"}},"type":"Feature"},
	{"geometry":{"coordinates":[13.345028,52.461644],"type":"Point"},"properties":{"osm_id":"829287977","tag":{"amenity":"recycling","recycling:glass_bottles":"yes","recycling_type":"container"}},"type":"Feature"},
	{"geometry":{"coordinates":[13.333152,52.482231],"type":"Point"},"properties":{"osm_id":"846642223","ref":"Prinzregentenstr. 35 Ecke Am Volkspark","tag":{"amenity":"recycling","operator":"Karl Meyer Rohstoffverwertung","recycling:glass_bottles":"yes","recycling_type":"container"}},"type":"Feature"},
	{"geometry":{"coordinates":[13.337364,52.462475],"type":"Point"},"properties":{"osm_id":"854333484","tag":{"amenity":"recycling","recycling:glass_bottles":"yes","recycling_type":"container"}},"type":"Feature"},
	{"geometry":{"coordinates":[13.278736,52.451438],"type":"Point"},"properties":{"osm_id":"886370022","tag":{"amenity":"recycling","operator":"Bera Textilrecycling","recycling:clothes":"yes","recycling_type":"container"}},"type":"Feature"},
	{"geometry":{"coordinates":[13.295466,52.464297],"type":"Point"},"properties":{"osm_id":"940815645","tag":{"amenity":"recycling","location":"overground","operator":"Humana","recycling:clothes":"yes","recycling_type":"container"}},"type":"Feature"},
	{"geometry":{"coordinates":[13.329381,52.45991],"type":"Point"},"properties":{"osm_id":"968062920","tag":{"amenity":"recycling","recycling:glass_bottles":"yes","recycling_type":"container"}},"type":"Feature"},
	{"geometry":{"coordinates":[13.329556,52.459781],"type":"Point"},"properties":{"osm_id":"968062923","tag":{"amenity":"recycling","recycling:clothes":"yes","recycling_type":"container"}},"type":"Feature"},
	{"geometry":{"coordinates":[13.329643,52.459287],"type":"Point"},"properties":{"osm_id":"968062927","tag":{"amenity":"recycling","recycling:clothes":"yes","recycling_type":"container"}},"type":"Feature"},
	{"geometry":{"coordinates":[13.274646,52.435007],"type":"Point"},"properties":{"osm_id":"998082301","tag":{"amenity":"recycling","recycling:clothes":"yes","recycling_type":"container"}},"type":"Feature"},
	{"geometry":{"coordinates":[13.303866,52.459552],"type":"Point"},"properties":{"osm_id":"1000966224","tag":{"amenity":"recycling","recycling:glass_bottles":"yes","recycling_type":"container"}},"type":"Feature"},
	{"geometry":{"coordinates":[13.314662,52.462324],"type":"Point"},"properties":{"osm_id":"1179081065","tag":{"amenity":"waste_basket"}},"type":"Feature"},
	{"geometry":{"coordinates":[13.332861,52.455916],"type":"Point"},"properties":{"osm_id":"1192969376","tag":{"amenity":"waste_basket"}},"type":"Feature"},
	{"geometry":{"coordinates":[13.31606,52.467035],"type":"Point"},"properties":{"osm_id":"1198768360","tag":{"amenity":"recycling","recycling:glass_bottles":"yes","recycling_type":"container"}},"type":"Feature"},
	{"geometry":{"coordinates":[13.333595,52.479797],"type":"Point"},"properties":{"osm_id":"1289470037","tag":{"amenity":"recycling","operator":"Karl Meyer Rohstoffverwertung","recycling:glass_bottles":"yes","recycling_type":"container"}},"type":"Feature"},
	{"geometry":{"coordinates":[13.33157,52.47858],"type":"Point"},"properties":{"osm_id":"1289470040","ref":"Wexstr. 37 Ecke Bernhardtstr.","tag":{"amenity":"recycling","operator":"Rhenus","recycling:glass_bottles":"yes","recycling_type":"container"}},"type":"Feature"},
	{"geometry":{"coordinates":[13.296942,52.455314],"type":"Point"},"properties":{"osm_id":"1315441012","tag":{"amenity":"recycling","location":"overground","recycling_type":"container"}},"type":"Feature"},
	{"geometry":{"coordinates":[13.295524,52.477144],"type":"Point"},"properties":{"osm_id":"1340487772","tag":{"amenity":"recycling","check_date":"2017-10-19","recycling:clothes":"yes","recycling_type":"container"}},"type":"Feature"},
	{"geometry":{"coordinates":[13.345666,52.471133],"type":"Point"},"properties":{"osm_id":"1356471336","tag":{"amenity":"waste_basket"}},"type":"Feature"},
	{"geometry":{"coordinates":[13.346337,52.47182],"type":"Point"},"properties":{"osm_id":"1356471514","tag":{"amenity":"waste_basket"}},"type":"Feature"},
	{"geometry":{"coordinates":[13.29395,52.478941],"type":"Point"},"properties":{"osm_id":"1387621246","tag":{"amenity":"waste_basket","operator":"BSR"}},"type":"Feature"},
	{"geometry":{"coordinates":[13.292094,52.47918],"type":"Point"},"properties":{"osm_id":"1387621249","tag":{"amenity":"waste_basket","operator":"BSR"}},"type":"Feature"},
	{"geometry":{"coordinates":[13.303573,52.475498],"type":"Point"},"properties":{"osm_id":"1387642098","tag":{"amenity":"waste_basket","operator":"BSR"}},"type":"Feature"},
	{"geometry":{"coordinates":[13.308743,52.478348],"type":"Point"},"properties":{"osm_id":"1387642099","tag":{"amenity":"waste_basket"}},"type":"Feature"},
	{"geometry":{"coordinates":[13.295441,52.478871],"type":"Point"},"properties":{"osm_id":"1387642101","tag":{"amenity":"waste_basket","operator":"BSR"}},"type":"Feature"},
	{"geometry":{"coordinates":[13.295673,52.478911],"type":"Point"},"properties":{"osm_id":"1387642102","tag":{"amenity":"waste_basket","operator":"BSR"}},"type":"Feature"},
	{"geometry":{"coordinates":[13.3098,52.478948],"type":"Point"},"properties":{"osm_id":"1387642103","tag":{"amenity":"waste_basket"}},"type":"Feature"},
	{"geometry":{"coordinates":[13.310228,52.479175],"type":"Point"},"properties":{"osm_id":"1387642104","tag":{"amenity":"waste_basket"}},"type":"Feature"},
	{"geometry":{"coordinates":[13.303964,52.480102],"type":"Point"},"properties":{"osm_id":"1387642105","tag":{"amenity":"waste_basket"}},"type":"Feature"},
	{"geometry":{"coordinates":[13.303812,52.480107],"type":"Point"},"properties":{"osm_id":"1387642106","tag":{"amenity":"waste_basket"}},"type":"Feature"},
	{"geometry":{"coordinates":[13.295997,52.48124],"type":"Point"},"properties":{"osm_id":"1387642107","tag":{"amenity":"waste_basket"}},"type":"Feature"},
	{"geometry":{"coordinates":[13.290378,52.475629],"type":"Point"},"properties":{"osm_id":"1387869524","tag":{"amenity":"waste_basket","operator":"BSR"}},"type":"Feature"},
	{"geometry":{"coordinates":[13.290218,52.475752],"type":"Point"},"properties":{"osm_id":"1387869525","tag":{"amenity":"waste_basket","operator":"BSR"}},"type":"Feature"},
	{"geometry":{"coordinates":[13.287493,52.475864],"type":"Point"},"properties":{"osm_id":"1387869529","tag":{"amenity":"waste_basket","operator":"BSR"}},"type":"Feature"},
	{"geometry":{"coordinates":[13.286384,52.476],"type":"Point"},"properties":{"osm_id":"1387869533","tag":{"amenity":"waste_basket"}},"type":"Feature"},
	{"geometry":{"coordinates":[13.290908,52.476516],"type":"Point"},"properties":{"osm_id":"1387869538","tag":{"amenity":"waste_basket","operator":"BSR"}},"type":"Feature"},
	{"geometry":{"coordinates":[13.285183,52.479278],"type":"Point"},"properties":{"osm_id":"1387869542","tag":{"amenity":"waste_basket","operator":"BSR"}},"type":"Feature"},
	{"geometry":{"coordinates":[13.285774,52.479333],"type":"Point"},"properties":{"osm_id":"1387869547","tag":{"amenity":"waste_basket","operator":"BSR"}},"type":"Feature"},
	{"geometry":{"coordinates":[13.285475,52.47931],"type":"Point"},"properties":{"osm_id":"1387869549","tag":{"amenity":"waste_basket","operator":"BSR"}},"type":"Feature"},
	{"geometry":{"coordinates":[13.286024,52.479339],"type":"Point"},"properties":{"osm_id":"1387869553","tag":{"amenity":"waste_basket","operator":"BSR"}},"type":"Feature"},
	{"geometry":{"coordinates":[13.285848,52.479033],"type":"Point"},"properties":{"osm_id":"1387989085","tag":{"amenity":"waste_basket","operator":"BSR"}},"type":"Feature"},
	{"geometry":{"coordinates":[13.32698,52.463224],"type":"Point"},"properties":{"osm_id":"1392192398","tag":{"amenity":"waste_basket","operator":"BSR"}},"type":"Feature"},
	{"geometry":{"coordinates":[13.326692,52.46328],"type":"Point"},"properties":{"osm_id":"1392192401","tag":{"amenity":"waste_basket","operator":"BSR"}},"type":"Feature"},
	{"geometry":{"coordinates":[13.310352,52.435738],"type":"Point"},"properties":{"osm_id":"1396365798","tag":{"amenity":"recycling","recycling:glass_bottles":"yes","recycling_type":"container"}},"type":"Feature"},
	{"geometry":{"coordinates":[13.30373,52.475309],"type":"Point"},"properties":{"osm_id":"1396396806","tag":{"amenity":"waste_basket","operator":"BSR"}},"type":"Feature"},
	{"geometry":{"coordinates":[13.308708,52.467921],"type":"Point"},"properties":{"osm_id":"1573066723","ref":"Dillenburger Str. 4 / Nahe Breitenbachplatz 4","tag":{"amenity":"recycling","operator":"Karl Meyer Rohstoffverwertung","recycling:glass_bottles":"yes","recycling_type":"container"}},"type":"Feature"},
	{"geometry":{"coordinates":[13.300158,52.468485],"type":"Point"},"properties":{"osm_id":"1573066724","ref":"Lentzeallee 75 Ecke Albrecht-Thaer-Weg","tag":{"amenity":"recycling","recycling:clothes":"yes","recycling_type":"container"}},"type":"Feature"},
	{"geometry":{"coordinates":[13.311519,52.468481],"type":"Point"},"properties":{"osm_id":"1573066729","ref":"Johannisberger Str. Ecke S\u00c3\u00bcdwestkorso neben Kaiser's","tag":{"amenity":"recycling","operator":"Karl Meyer Rohstoffverwertung","recycling:glass_bottles":"yes","recycling_type":"container"}},"type":"Feature"},
	{"geometry":{"coordinates":[13.278176,52.468909],"type":"Point"},"properties":{"osm_id":"1573066743","ref":"Clayallee N\u00c3\u00a4he P\u00c3\u00bccklerstr. 27","tag":{"amenity":"recycling","operator":"Rhenus","recycling:glass_bottles":"yes","recycling_type":"container"}},"type":"Feature"},
	{"geometry":{"coordinates":[13.311032,52.474551],"type":"Point"},"properties":{"osm_id":"1573066749","ref":"Johannisberger Str. 56 Ecke Homburger Str.","tag":{"amenity":"recycling","operator":"Karl Meyer Rohstoffverwertung","recycling:glass_bottles":"yes","recycling_type":"container"}},"type":"Feature"},
	{"geometry":{"coordinates":[13.278677,52.474671],"type":"Point"},"properties":{"osm_id":"1573066752","ref":"Clayallee Ecke Messelstr. / Bernadottestr.","tag":{"amenity":"recycling","operator":"Karl Meyer Rohstoffverwertung","recycling:glass_bottles":"yes","recycling_type":"container"}},"type":"Feature"},
	{"geometry":{"coordinates":[13.316904,52.475676],"type":"Point"},"properties":{"osm_id":"1573066757","tag":{"amenity":"waste_basket"}},"type":"Feature"},
	{"geometry":{"coordinates":[13.313902,52.475889],"type":"Point"},"properties":{"osm_id":"1573066775","ref":"A\u00c3\u009fmannshauser Str. gg\u00c3\u00bc. Nr. 17","tag":{"amenity":"recycling","recycling:glass_bottles":"yes","recycling_type":"container"}},"type":"Feature"},
	{"geometry":{"coordinates":[13.32035,52.47654],"type":"Point"},"properties":{"osm_id":"1573066779","ref":"Laubacher Str. 27 Ecke Fehlerstr.","tag":{"amenity":"recycling","operator":"Karl Meyer Rohstoffverwertung","recycling:glass_bottles":"yes","recycling_type":"container"}},"type":"Feature"},
	{"geometry":{"coordinates":[13.320399,52.476644],"type":"Point"},"properties":{"osm_id":"1573066789","tag":{"amenity":"recycling","recycling:clothes":"yes","recycling_type":"container"}},"type":"Feature"},
	{"geometry":{"coordinates":[13.29631,52.48119],"type":"Point"},"properties":{"osm_id":"1573066796","ref":"Forckenbeckstr. 37 Ecke Cunostr. / Sporthalle","tag":{"amenity":"recycling","brown":"yes","green":"yes","operator":"Karl Meyer Rohstoffverwertung","recycling:glass_bottles":"yes","recycling_type":"container","white":"yes"}},"type":"Feature"},
	{"geometry":{"coordinates":[13.28279,52.4814],"type":"Point"},"properties":{"osm_id":"1573066802","ref":"Berkaer Str. Ecke Karlsbader Str.","tag":{"amenity":"recycling","operator":"Karl Meyer Rohstoffverwertung","recycling:glass_bottles":"yes","recycling_type":"container"}},"type":"Feature"},
	{"geometry":{"coordinates":[13.353918,52.43057],"type":"Point"},"properties":{"osm_id":"1608593892","tag":{"amenity":"recycling","operator":"Karl Meyer Rohstoffverwertung","recycling:glass_bottles":"yes","recycling_type":"container"}},"type":"Feature"},
	{"geometry":{"coordinates":[13.282469,52.441358],"type":"Point"},"properties":{"osm_id":"1608593921","tag":{"amenity":"recycling","operator":"Rhenus","recycling:glass_bottles":"yes","recycling_type":"container"}},"type":"Feature"},
	{"geometry":{"coordinates":[13.281402,52.464607],"type":"Point"},"properties":{"osm_id":"1608593965","tag":{"amenity":"recycling","operator":"Rhenus","recycling:glass_bottles":"yes","recycling_type":"container"}},"type":"Feature"},
	{"geometry":{"coordinates":[13.277175,52.464917],"type":"Point"},"properties":{"osm_id":"1608593983","tag":{"amenity":"recycling","operator":"Rhenus","recycling:glass_bottles":"yes","recycling_type":"container"}},"type":"Feature"},
	{"geometry":{"coordinates":[13.288798,52.430207],"type":"Point"},"properties":{"osm_id":"1632210483","tag":{"amenity":"recycling","recycling:glass_bottles":"yes","recycling_type":"container"}},"type":"Feature"},
	{"geometry":{"coordinates":[13.344816,52.461187],"type":"Point"},"properties":{"osm_id":"1701431761","tag":{"amenity":"recycling","recycling:clothes":"yes","recycling_type":"container"}},"type":"Feature"},
	{"geometry":{"coordinates":[13.322039,52.471508],"type":"Point"},"properties":{"osm_id":"1778293533","tag":{"amenity":"recycling","recycling:glass_bottles":"yes","recycling_type":"container"}},"type":"Feature"},
	{"geometry":{"coordinates":[13.333987,52.461043],"type":"Point"},"properties":{"osm_id":"1802299643","tag":{"amenity":"waste_basket"}},"type":"Feature"},
	{"geometry":{"coordinates":[13.331653,52.461627],"type":"Point"},"properties":{"osm_id":"1802299644","tag":{"amenity":"waste_basket"}},"type":"Feature"},
	{"geometry":{"coordinates":[13.33325,52.462877],"type":"Point"},"properties":{"osm_id":"1802299645","tag":{"amenity":"waste_basket"}},"type":"Feature"},
	{"geometry":{"coordinates":[13.300445,52.468475],"type":"Point"},"properties":{"osm_id":"1856903151","tag":{"amenity":"recycling","recycling:glass_bottles":"yes","recycling_type":"container"}},"type":"Feature"},
	{"geometry":{"coordinates":[13.287627,52.451371],"type":"Point"},"properties":{"osm_id":"1907424724","tag":{"amenity":"waste_basket"}},"type":"Feature"},
	{"geometry":{"coordinates":[13.341746,52.479025],"type":"Point"},"properties":{"osm_id":"1962323218","tag":{"amenity":"recycling","operator":"Karl Meyer Rohstoffverwertung","recycling:glass_bottles":"yes","recycling_type":"container"}},"type":"Feature"},
	{"geometry":{"coordinates":[13.341777,52.47922],"type":"Point"},"properties":{"osm_id":"1962323223","tag":{"amenity":"recycling","check_date":"2017-10-19","recycling:clothes":"yes","recycling:shoes":"yes","recycling_type":"container"}},"type":"Feature"},
	{"geometry":{"coordinates":[13.339346,52.482358],"type":"Point"},"properties":{"osm_id":"1969213712","tag":{"amenity":"waste_basket"}},"type":"Feature"},
	{"geometry":{"coordinates":[13.334501,52.467677],"type":"Point"},"properties":{"osm_id":"2376849874","tag":{"amenity":"waste_basket"}},"type":"Feature"},
	{"geometry":{"coordinates":[13.323419,52.463421],"type":"Point"},"properties":{"osm_id":"2399895296","tag":{"amenity":"waste_basket"}},"type":"Feature"},
	{"geometry":{"coordinates":[13.323247,52.463479],"type":"Point"},"properties":{"osm_id":"2399895307","tag":{"amenity":"waste_basket"}},"type":"Feature"},
	{"geometry":{"coordinates":[13.321527,52.463519],"type":"Point"},"properties":{"osm_id":"2399895323","tag":{"amenity":"waste_basket"}},"type":"Feature"},
	{"geometry":{"coordinates":[13.321477,52.463552],"type":"Point"},"properties":{"osm_id":"2399895335","tag":{"amenity":"waste_basket"}},"type":"Feature"},
	{"geometry":{"coordinates":[13.322208,52.463782],"type":"Point"},"properties":{"osm_id":"2399895429","tag":{"amenity":"waste_basket"}},"type":"Feature"},
	{"geometry":{"coordinates":[13.321059,52.463907],"type":"Point"},"properties":{"osm_id":"2399895455","tag":{"amenity":"waste_basket"}},"type":"Feature"},
	{"geometry":{"coordinates":[13.321782,52.463933],"type":"Point"},"properties":{"osm_id":"2399895460","tag":{"amenity":"waste_basket"}},"type":"Feature"},
	{"geometry":{"coordinates":[13.321638,52.463988],"type":"Point"},"properties":{"osm_id":"2399895465","tag":{"amenity":"waste_basket"}},"type":"Feature"},
	{"geometry":{"coordinates":[13.3215,52.464035],"type":"Point"},"properties":{"osm_id":"2399895469","tag":{"amenity":"waste_basket"}},"type":"Feature"},
	{"geometry":{"coordinates":[13.321213,52.464138],"type":"Point"},"properties":{"osm_id":"2399895473","tag":{"amenity":"waste_basket"}},"type":"Feature"},
	{"geometry":{"coordinates":[13.320703,52.464183],"type":"Point"},"properties":{"osm_id":"2399895480","tag":{"amenity":"waste_basket"}},"type":"Feature"},
	{"geometry":{"coordinates":[13.320817,52.464274],"type":"Point"},"properties":{"osm_id":"2399895488","tag":{"amenity":"waste_basket"}},"type":"Feature"},
	{"geometry":{"coordinates":[13.321109,52.464604],"type":"Point"},"properties":{"osm_id":"2399895490","tag":{"amenity":"waste_basket"}},"type":"Feature"},
	{"geometry":{"coordinates":[13.321584,52.465119],"type":"Point"},"properties":{"osm_id":"2399895496","tag":{"amenity":"waste_basket"}},"type":"Feature"},
	{"geometry":{"coordinates":[13.355729,52.477381],"type":"Point"},"properties":{"osm_id":"2402934266","tag":{"amenity":"waste_basket"}},"type":"Feature"},
	{"geometry":{"coordinates":[13.320731,52.464122],"type":"Point"},"properties":{"osm_id":"2406387070","tag":{"amenity":"waste_basket"}},"type":"Feature"},
	{"geometry":{"coordinates":[13.320816,52.464208],"type":"Point"},"properties":{"osm_id":"2406387071","tag":{"amenity":"waste_basket"}},"type":"Feature"},
	{"geometry":{"coordinates":[13.322568,52.466406],"type":"Point"},"properties":{"osm_id":"2406415327","tag":{"amenity":"waste_basket"}},"type":"Feature"},
	{"geometry":{"coordinates":[13.322849,52.468006],"type":"Point"},"properties":{"osm_id":"2406415370","tag":{"amenity":"waste_basket"}},"type":"Feature"},
	{"geometry":{"coordinates":[13.299873,52.468084],"type":"Point"},"properties":{"osm_id":"2451561508","tag":{"access":"private","amenity":"recycling","location":"overground","recycling_type":"container"}},"type":"Feature"},
	{"geometry":{"coordinates":[13.29915,52.466698],"type":"Point"},"properties":{"osm_id":"2453777632","tag":{"access":"private","amenity":"recycling","location":"overground","recycling:paper":"yes","recycling_type":"container"}},"type":"Feature"},
	{"geometry":{"coordinates":[13.338955,52.456716],"type":"Point"},"properties":{"osm_id":"2485088802","tag":{"amenity":"recycling","recycling:glass_bottles":"yes","recycling_type":"container"}},"type":"Feature"},
	{"geometry":{"coordinates":[13.339058,52.455013],"type":"Point"},"properties":{"osm_id":"2485088803","tag":{"amenity":"recycling","recycling:glass_bottles":"yes","recycling_type":"container"}},"type":"Feature"},
	{"geometry":{"coordinates":[13.345526,52.469099],"type":"Point"},"properties":{"osm_id":"2638822189","tag":{"amenity":"recycling","operator":"Deutsches Rotes Kreuz","recycling:clothes":"yes","recycling_type":"container"}},"type":"Feature"},
	{"geometry":{"coordinates":[13.341678,52.469826],"type":"Point"},"properties":{"osm_id":"2651596586","tag":{"amenity":"recycling","recycling:clothes":"yes","recycling_type":"container"}},"type":"Feature"},
	{"geometry":{"coordinates":[13.334338,52.451973],"type":"Point"},"properties":{"osm_id":"2714023800","tag":{"amenity":"recycling","recycling:glass_bottles":"yes","recycling_type":"container"}},"type":"Feature"},
	{"geometry":{"coordinates":[13.31999,52.472671],"type":"Point"},"properties":{"osm_id":"2714602602","tag":{"amenity":"recycling","recycling:glass_bottles":"yes","recycling_type":"container"}},"type":"Feature"},
	{"geometry":{"coordinates":[13.330492,52.452404],"type":"Point"},"properties":{"osm_id":"2721026410","tag":{"amenity":"recycling","recycling:glass_bottles":"yes","recycling_type":"container"}},"type":"Feature"},
	{"geometry":{"coordinates":[13.348338,52.434936],"type":"Point"},"properties":{"osm_id":"2723745393","tag":{"amenity":"recycling","recycling:clothes":"yes","recycling_type":"container"}},"type":"Feature"},
	{"geometry":{"coordinates":[13.342439,52.439471],"type":"Point"},"properties":{"osm_id":"2723745394","tag":{"amenity":"recycling","recycling:glass_bottles":"yes","recycling_type":"container"}},"type":"Feature"},
	{"geometry":{"coordinates":[13.335409,52.451659],"type":"Point"},"properties":{"osm_id":"2723745396","tag":{"amenity":"recycling","brown":"yes","green":"yes","recycling:glass_bottles":"yes","recycling_type":"container","white":"yes"}},"type":"Feature"},
	{"geometry":{"coordinates":[13.35463,52.429702],"type":"Point"},"properties":{"osm_id":"2728673248","tag":{"amenity":"recycling","recycling:clothes":"yes","recycling_type":"container"}},"type":"Feature"},
	{"geometry":{"coordinates":[13.344154,52.468487],"type":"Point"},"properties":{"osm_id":"2850754101","tag":{"amenity":"recycling","recycling:clothes":"yes","recycling_type":"container"}},"type":"Feature"},
	{"geometry":{"coordinates":[13.347439,52.467348],"type":"Point"},"properties":{"osm_id":"2917755301","tag":{"amenity":"recycling","recycling:glass_bottles":"yes","recycling_type":"container"}},"type":"Feature"},
	{"geometry":{"coordinates":[13.306376,52.452145],"type":"Point"},"properties":{"osm_id":"3113309023","tag":{"amenity":"waste_basket"}},"type":"Feature"},
	{"geometry":{"coordinates":[13.3064,52.452373],"type":"Point"},"properties":{"osm_id":"3113309025","tag":{"amenity":"waste_basket"}},"type":"Feature"},
	{"geometry":{"coordinates":[13.302994,52.452567],"type":"Point"},"properties":{"osm_id":"3113309026","tag":{"amenity":"waste_basket"}},"type":"Feature"},
	{"geometry":{"coordinates":[13.306432,52.452425],"type":"Point"},"properties":{"osm_id":"3113309028","tag":{"amenity":"waste_basket"}},"type":"Feature"},
	{"geometry":{"coordinates":[13.30807,52.451951],"type":"Point"},"properties":{"osm_id":"3113309329","tag":{"amenity":"waste_basket"}},"type":"Feature"},
	{"geometry":{"coordinates":[13.30424,52.451537],"type":"Point"},"properties":{"osm_id":"3113309330","tag":{"amenity":"waste_basket"}},"type":"Feature"},
	{"geometry":{"coordinates":[13.307813,52.451915],"type":"Point"},"properties":{"osm_id":"3113309332","tag":{"amenity":"waste_basket"}},"type":"Feature"},
	{"geometry":{"coordinates":[13.309274,52.451591],"type":"Point"},"properties":{"osm_id":"3113309335","tag":{"amenity":"waste_basket"}},"type":"Feature"},
	{"geometry":{"coordinates":[13.306979,52.452178],"type":"Point"},"properties":{"osm_id":"3113309339","tag":{"amenity":"waste_basket"}},"type":"Feature"},
	{"geometry":{"coordinates":[13.303276,52.454875],"type":"Point"},"properties":{"osm_id":"3113309341","tag":{"amenity":"waste_basket"}},"type":"Feature"},
	{"geometry":{"coordinates":[13.302951,52.453659],"type":"Point"},"properties":{"osm_id":"3113309344","tag":{"amenity":"waste_basket"}},"type":"Feature"},
	{"geometry":{"coordinates":[13.333421,52.43007],"type":"Point"},"properties":{"osm_id":"3950033352","tag":{"amenity":"waste_basket"}},"type":"Feature"},
	{"geometry":{"coordinates":[13.338145,52.432075],"type":"Point"},"properties":{"osm_id":"3950037060","tag":{"amenity":"waste_basket"}},"type":"Feature"},
	{"geometry":{"coordinates":[13.321811,52.436027],"type":"Point"},"properties":{"osm_id":"3950037084","tag":{"amenity":"waste_basket"}},"type":"Feature"},
	{"geometry":{"coordinates":[13.310945,52.448193],"type":"Point"},"properties":{"osm_id":"3953989110","tag":{"amenity":"waste_basket"}},"type":"Feature"},
	{"geometry":{"coordinates":[13.303279,52.458409],"type":"Point"},"properties":{"osm_id":"3955490046","tag":{"amenity":"waste_basket"}},"type":"Feature"},
	{"geometry":{"coordinates":[13.332412,52.455264],"type":"Point"},"properties":{"osm_id":"3980479048","tag":{"amenity":"recycling","recycling:clothes":"yes","recycling_type":"container"}},"type":"Feature"},
	{"geometry":{"coordinates":[13.353107,52.449378],"type":"Point"},"properties":{"osm_id":"3989326265","tag":{"amenity":"recycling","recycling:glass_bottles":"yes","recycling_type":"container"}},"type":"Feature"},
	{"geometry":{"coordinates":[13.34987,52.480995],"type":"Point"},"properties":{"osm_id":"4000832789","tag":{"amenity":"waste_basket"}},"type":"Feature"},
	{"geometry":{"coordinates":[13.289521,52.46775],"type":"Point"},"properties":{"osm_id":"4058228947","tag":{"amenity":"waste_basket"}},"type":"Feature"},
	{"geometry":{"coordinates":[13.315534,52.430571],"type":"Point"},"properties":{"osm_id":"4138806031","tag":{"amenity":"recycling","recycling:glass_bottles":"yes","recycling_type":"container"}},"type":"Feature"},
	{"geometry":{"coordinates":[13.338829,52.453821],"type":"Point"},"properties":{"osm_id":"4260153092","tag":{"amenity":"waste_basket"}},"type":"Feature"},
	{"geometry":{"coordinates":[13.338618,52.454064],"type":"Point"},"properties":{"osm_id":"4260191190","tag":{"amenity":"waste_basket"}},"type":"Feature"},
	{"geometry":{"coordinates":[13.346891,52.449867],"type":"Point"},"properties":{"osm_id":"4333328544","tag":{"amenity":"recycling","recycling:clothes":"yes","recycling_type":"container"}},"type":"Feature"},
	{"geometry":{"coordinates":[13.321879,52.435541],"type":"Point"},"properties":{"osm_id":"4397906048","tag":{"amenity":"recycling","recycling:glass_bottles":"yes","recycling_type":"container"}},"type":"Feature"},
	{"geometry":{"coordinates":[13.328941,52.429825],"type":"Point"},"properties":{"osm_id":"4407360824","tag":{"amenity":"waste_basket","level":"1"}},"type":"Feature"},
	{"geometry":{"coordinates":[13.332416,52.455291],"type":"Point"},"properties":{"osm_id":"4639376554","tag":{"amenity":"recycling","recycling:glass_bottles":"yes","recycling_type":"container"}},"type":"Feature"},
	{"geometry":{"coordinates":[13.316489,52.480174],"type":"Point"},"properties":{"osm_id":"4639625178","tag":{"amenity":"waste_basket"}},"type":"Feature"},
	{"geometry":{"coordinates":[13.296602,52.446464],"type":"Point"},"properties":{"osm_id":"4645567545","tag":{"amenity":"recycling","recycling:clothes":"yes","recycling_type":"container"}},"type":"Feature"},
	{"geometry":{"coordinates":[13.294383,52.449191],"type":"Point"},"properties":{"osm_id":"4645567546","tag":{"amenity":"recycling","recycling:glass_bottles":"yes","recycling_type":"container"}},"type":"Feature"},
	{"geometry":{"coordinates":[13.287565,52.459925],"type":"Point"},"properties":{"osm_id":"4646126061","tag":{"amenity":"recycling","recycling:clothes":"yes","recycling_type":"container"}},"type":"Feature"},
	{"geometry":{"coordinates":[13.287413,52.450746],"type":"Point"},"properties":{"osm_id":"4712090131","tag":{"amenity":"waste_basket"}},"type":"Feature"},
	{"geometry":{"coordinates":[13.344567,52.467241],"type":"Point"},"properties":{"osm_id":"4731339124","tag":{"amenity":"waste_basket"}},"type":"Feature"},
	{"geometry":{"coordinates":[13.343006,52.463085],"type":"Point"},"properties":{"osm_id":"4731339125","tag":{"amenity":"recycling","recycling:glass_bottles":"yes","recycling_type":"container"}},"type":"Feature"},
	{"geometry":{"coordinates":[13.341713,52.469447],"type":"Point"},"properties":{"osm_id":"4731339523","tag":{"amenity":"waste_basket"}},"type":"Feature"},
	{"geometry":{"coordinates":[13.323811,52.481829],"type":"Point"},"properties":{"osm_id":"4841793873","tag":{"amenity":"waste_basket"}},"type":"Feature"},
	{"geometry":{"coordinates":[13.334623,52.464219],"type":"Point"},"properties":{"osm_id":"5165398023","tag":{"amenity":"recycling","recycling:glass_bottles":"yes","recycling_type":"container"}},"type":"Feature"},
	{"geometry":{"coordinates":[13.305029,52.476354],"type":"Point"},"properties":{"osm_id":"5176026133","tag":{"amenity":"recycling","check_date":"2017-10-18","operator":"Deutsches Rotes Kreuz","recycling:clothes":"yes","recycling_type":"container"}},"type":"Feature"},
	{"geometry":{"coordinates":[13.318443,52.479006],"type":"Point"},"properties":{"osm_id":"5176026135","tag":{"amenity":"recycling","check_date":"2017-10-18","operator":"Deutsches Rotes Kreuz","recycling:clothes":"yes","recycling_type":"container"}},"type":"Feature"},
	{"geometry":{"coordinates":[13.344792,52.478664],"type":"Point"},"properties":{"osm_id":"5250091024","tag":{"amenity":"waste_basket"}},"type":"Feature"},
	{"geometry":{"coordinates":[13.307028,52.459112],"type":"Point"},"properties":{"osm_id":"5325598267","tag":{"amenity":"recycling","recycling:clothes":"yes","recycling_type":"container"}},"type":"Feature"},
	{"geometry":{"coordinates":[13.32382,52.46039],"type":"Point"},"properties":{"osm_id":"5458347853","tag":{"amenity":"waste_basket","waste":"trash; cigarettes"}},"type":"Feature"},
	{"geometry":{"coordinates":[13.324053,52.460524],"type":"Point"},"properties":{"osm_id":"5458347872","tag":{"amenity":"waste_basket","waste":"trash;cigarettes"}},"type":"Feature"},
	{"geometry":{"coordinates":[13.348738,52.481901],"type":"Point"},"properties":{"osm_id":"5528907882","tag":{"amenity":"waste_basket"}},"type":"Feature"},
	{"geometry":{"coordinates":[13.347612,52.482034],"type":"Point"},"properties":{"osm_id":"5528907884","tag":{"amenity":"waste_basket"}},"type":"Feature"},
	{"geometry":{"coordinates":[13.342071,52.482328],"type":"Point"},"properties":{"osm_id":"5528907899","tag":{"amenity":"waste_basket"}},"type":"Feature"},
	{"geometry":{"coordinates":[13.342522,52.482489],"type":"Point"},"properties":{"osm_id":"5528907900","tag":{"amenity":"waste_basket"}},"type":"Feature"},
	{"geometry":{"coordinates":[13.343686,52.482508],"type":"Point"},"properties":{"osm_id":"5528907901","tag":{"amenity":"waste_basket"}},"type":"Feature"},
	{"geometry":{"coordinates":[13.345319,52.482537],"type":"Point"},"properties":{"osm_id":"5528908175","tag":{"amenity":"waste_basket"}},"type":"Feature"},
	{"geometry":{"coordinates":[13.346424,52.48245],"type":"Point"},"properties":{"osm_id":"5528908179","tag":{"amenity":"waste_basket"}},"type":"Feature"},
	{"geometry":{"coordinates":[13.358018,52.437647],"type":"Point"},"properties":{"osm_id":"5562918508","tag":{"amenity":"waste_basket"}},"type":"Feature"},
	{"geometry":{"coordinates":[13.294922,52.475569],"type":"Point"},"properties":{"osm_id":"5801508717","tag":{"amenity":"waste_basket"}},"type":"Feature"},
	{"geometry":{"coordinates":[13.319979,52.453207],"type":"Point"},"properties":{"osm_id":"5809482084","tag":{"amenity":"recycling","opening_hours":"24/7","recycling:clothes":"yes","recycling:shoes":"yes","recycling_type":"container"}},"type":"Feature"},
	{"geometry":{"coordinates":[13.333439,52.462784],"type":"Point"},"properties":{"osm_id":"5840382084","tag":{"amenity":"recycling","description":"Humana Altkleidersammlung","operator":"Humana","recycling:clothes":"yes","recycling_type":"container"}},"type":"Feature"},
	{"geometry":{"coordinates":[13.339659,52.460949],"type":"Point"},"properties":{"osm_id":"5840382839","tag":{"amenity":"recycling","description":"DRK Altkleidersammlung","recycling:clothes":"yes","recycling_type":"container"}},"type":"Feature"},
	{"geometry":{"coordinates":[13.308012,52.454179],"type":"Point"},"properties":{"osm_id":"5873377336","tag":{"amenity":"waste_basket"}},"type":"Feature"},
	{"geometry":{"coordinates":[13.307909,52.454006],"type":"Point"},"properties":{"osm_id":"5873377381","tag":{"amenity":"waste_basket"}},"type":"Feature"},
	{"geometry":{"coordinates":[13.308241,52.454318],"type":"Point"},"properties":{"osm_id":"5873378699","tag":{"amenity":"waste_basket"}},"type":"Feature"},
	{"geometry":{"coordinates":[13.307851,52.454599],"type":"Point"},"properties":{"osm_id":"5873378716","tag":{"amenity":"waste_basket"}},"type":"Feature"},
	{"geometry":{"coordinates":[13.307779,52.454361],"type":"Point"},"properties":{"osm_id":"5873378736","tag":{"amenity":"waste_basket"}},"type":"Feature"},
	{"geometry":{"coordinates":[13.323867,52.457606],"type":"Point"},"properties":{"osm_id":"5966352452","tag":{"amenity":"recycling","recycling:clothes":"yes","recycling_type":"container"}},"type":"Feature"},
	{"geometry":{"coordinates":[13.311996,52.442847],"type":"Point"},"properties":{"osm_id":"5983103598","tag":{"amenity":"waste_basket"}},"type":"Feature"},
	{"geometry":{"coordinates":[13.311915,52.442784],"type":"Point"},"properties":{"osm_id":"5983103599","tag":{"amenity":"waste_basket"}},"type":"Feature"},
	{"geometry":{"coordinates":[13.312152,52.442742],"type":"Point"},"properties":{"osm_id":"5983103600","tag":{"amenity":"waste_basket"}},"type":"Feature"},
	{"geometry":{"coordinates":[13.355274,52.4388],"type":"Point"},"properties":{"osm_id":"6111581832","tag":{"amenity":"recycling","recycling:clothes":"yes","recycling_type":"container"}},"type":"Feature"},
	{"geometry":{"coordinates":[13.321797,52.466937],"type":"Point"},"properties":{"osm_id":"6113999108","tag":{"amenity":"waste_basket"}},"type":"Feature"},
	{"geometry":{"coordinates":[13.321723,52.466895],"type":"Point"},"properties":{"osm_id":"6113999109","tag":{"amenity":"waste_basket"}},"type":"Feature"},
	{"geometry":{"coordinates":[13.325007,52.451248],"type":"Point"},"properties":{"osm_id":"6266142118","tag":{"amenity":"waste_basket"}},"type":"Feature"},
	{"geometry":{"coordinates":[13.320791,52.45174],"type":"Point"},"properties":{"osm_id":"6266161157","tag":{"amenity":"waste_basket"}},"type":"Feature"},
	{"geometry":{"coordinates":[13.322017,52.452697],"type":"Point"},"properties":{"osm_id":"6266162654","tag":{"amenity":"waste_basket"}},"type":"Feature"},
	{"geometry":{"coordinates":[13.3271,52.453532],"type":"Point"},"properties":{"osm_id":"6266176555","tag":{"amenity":"waste_basket"}},"type":"Feature"},
	{"geometry":{"coordinates":[13.324413,52.454705],"type":"Point"},"properties":{"osm_id":"6266176556","tag":{"amenity":"waste_basket"}},"type":"Feature"},
	{"geometry":{"coordinates":[13.324244,52.454631],"type":"Point"},"properties":{"osm_id":"6266176557","tag":{"amenity":"waste_basket"}},"type":"Feature"},
	{"geometry":{"coordinates":[13.323473,52.453851],"type":"Point"},"properties":{"osm_id":"6266176558","tag":{"amenity":"waste_basket"}},"type":"Feature"},
	{"geometry":{"coordinates":[13.347041,52.467192],"type":"Point"},"properties":{"osm_id":"6419185478","tag":{"amenity":"waste_basket"}},"type":"Feature"},
	{"geometry":{"coordinates":[13.347016,52.4674],"type":"Point"},"properties":{"osm_id":"6419185479","tag":{"amenity":"waste_basket"}},"type":"Feature"},
	{"geometry":{"coordinates":[13.345784,52.46732],"type":"Point"},"properties":{"osm_id":"6419185480","tag":{"amenity":"waste_basket"}},"type":"Feature"},
	{"geometry":{"coordinates":[13.347316,52.467305],"type":"Point"},"properties":{"osm_id":"6483794310","tag":{"amenity":"waste_basket"}},"type":"Feature"},
	{"geometry":{"coordinates":[13.289359,52.48214],"type":"Point"},"properties":{"osm_id":"6670517010","tag":{"amenity":"waste_basket","operator":"BSR","waste":"trash"}},"type":"Feature"},
	{"geometry":{"coordinates":[13.332506,52.457203],"type":"Point"},"properties":{"osm_id":"6771161922","tag":{"amenity":"recycling","recycling:glass_bottles":"yes","recycling_type":"container"}},"type":"Feature"},
	{"geometry":{"coordinates":[13.334365,52.452003],"type":"Point"},"properties":{"osm_id":"6832293218","tag":{"amenity":"recycling","recycling:clothes":"yes","recycling_type":"container"}},"type":"Feature"},
	{"geometry":{"coordinates":[13.351474,52.449294],"type":"Point"},"properties":{"osm_id":"6837136618","tag":{"amenity":"recycling","recycling_type":"container"}},"type":"Feature"},
	{"geometry":{"coordinates":[13.349948,52.449205],"type":"Point"},"properties":{"osm_id":"6837136619","tag":{"amenity":"recycling","recycling_type":"container"}},"type":"Feature"},
	{"geometry":{"coordinates":[13.34662,52.43622],"type":"Point"},"properties":{"osm_id":"6854817305","tag":{"amenity":"waste_basket"}},"type":"Feature"},
	{"geometry":{"coordinates":[13.34677,52.43639],"type":"Point"},"properties":{"osm_id":"6854817306","tag":{"amenity":"waste_basket"}},"type":"Feature"},
	{"geometry":{"coordinates":[13.34965,52.43688],"type":"Point"},"properties":{"osm_id":"6854817307","tag":{"amenity":"waste_basket"}},"type":"Feature"},
	{"geometry":{"coordinates":[13.35325,52.4377],"type":"Point"},"properties":{"osm_id":"6854817308","tag":{"amenity":"waste_basket"}},"type":"Feature"},
	{"geometry":{"coordinates":[13.329544,52.453393],"type":"Point"},"properties":{"osm_id":"7119000668","tag":{"amenity":"recycling","recycling:clothes":"yes","recycling:shoes":"yes","recycling_type":"container"}},"type":"Feature"},
	{"geometry":{"coordinates":[13.319333,52.447714],"type":"Point"},"properties":{"osm_id":"7179912385","tag":{"amenity":"waste_disposal"}},"type":"Feature"},
	{"geometry":{"coordinates":[13.350986,52.457435],"type":"Point"},"properties":{"osm_id":"7195477164","tag":{"amenity":"waste_basket"}},"type":"Feature"},
	{"geometry":{"coordinates":[13.351097,52.457502],"type":"Point"},"properties":{"osm_id":"7195477171","tag":{"amenity":"waste_basket"}},"type":"Feature"},
	{"geometry":{"coordinates":[13.353554,52.457365],"type":"Point"},"properties":{"osm_id":"7195477174","tag":{"amenity":"waste_basket"}},"type":"Feature"},
	{"geometry":{"coordinates":[13.302161,52.444738],"type":"Point"},"properties":{"osm_id":"7220960633","tag":{"amenity":"waste_basket"}},"type":"Feature"},
	{"geometry":{"coordinates":[13.307059,52.446923],"type":"Point"},"properties":{"osm_id":"7220960635","tag":{"amenity":"waste_basket"}},"type":"Feature"},
	{"geometry":{"coordinates":[13.315871,52.449796],"type":"Point"},"properties":{"osm_id":"7220960637","tag":{"amenity":"waste_basket"}},"type":"Feature"},
	{"geometry":{"coordinates":[13.301444,52.444548],"type":"Point"},"properties":{"osm_id":"7220960642","tag":{"amenity":"waste_basket"}},"type":"Feature"},
	{"geometry":{"coordinates":[13.306596,52.446823],"type":"Point"},"properties":{"osm_id":"7220960644","tag":{"amenity":"waste_basket"}},"type":"Feature"},
	{"geometry":{"coordinates":[13.320668,52.450214],"type":"Point"},"properties":{"osm_id":"7220960647","tag":{"amenity":"waste_basket"}},"type":"Feature"},
	{"geometry":{"coordinates":[13.300761,52.44413],"type":"Point"},"properties":{"osm_id":"7220960651","tag":{"amenity":"waste_basket"}},"type":"Feature"},
	{"geometry":{"coordinates":[13.306123,52.446445],"type":"Point"},"properties":{"osm_id":"7220960653","tag":{"amenity":"waste_basket"}},"type":"Feature"},
	{"geometry":{"coordinates":[13.311392,52.448361],"type":"Point"},"properties":{"osm_id":"7220960655","tag":{"amenity":"waste_basket"}},"type":"Feature"},
	{"geometry":{"coordinates":[13.327255,52.448628],"type":"Point"},"properties":{"osm_id":"7220960656","tag":{"amenity":"waste_basket"}},"type":"Feature"},
	{"geometry":{"coordinates":[13.319666,52.450935],"type":"Point"},"properties":{"osm_id":"7220960657","tag":{"amenity":"waste_basket"}},"type":"Feature"},
	{"geometry":{"coordinates":[13.327899,52.477172],"type":"Point"},"properties":{"osm_id":"7239667799","tag":{"amenity":"waste_basket"}},"type":"Feature"},
	{"geometry":{"coordinates":[13.324113,52.475464],"type":"Point"},"properties":{"osm_id":"7239667814","tag":{"amenity":"waste_basket"}},"type":"Feature"},
	{"geometry":{"coordinates":[13.320085,52.475161],"type":"Point"},"properties":{"osm_id":"7239667829","tag":{"amenity":"waste_basket"}},"type":"Feature"},
	{"geometry":{"coordinates":[13.326475,52.476653],"type":"Point"},"properties":{"osm_id":"7239667839","tag":{"amenity":"waste_basket"}},"type":"Feature"},
	{"geometry":{"coordinates":[13.339357,52.481373],"type":"Point"},"properties":{"osm_id":"7239667842","tag":{"amenity":"waste_basket"}},"type":"Feature"},
	{"geometry":{"coordinates":[13.316035,52.476374],"type":"Point"},"properties":{"osm_id":"7239667846","tag":{"amenity":"waste_basket"}},"type":"Feature"},
	{"geometry":{"coordinates":[13.332201,52.464634],"type":"Point"},"properties":{"osm_id":"7405196446","tag":{"amenity":"waste_basket","colour":"grey","material":"metal","waste":"trash"}},"type":"Feature"},
	{"geometry":{"coordinates":[13.32706,52.45347],"type":"Point"},"properties":{"osm_id":"7405367467","tag":{"amenity":"waste_basket","colour":"grey","material":"metal","waste":"trash"}},"type":"Feature"},
	{"geometry":{"coordinates":[13.327835,52.460759],"type":"Point"},"properties":{"osm_id":"7411110793","tag":{"amenity":"recycling","recycling:glass":"yes","recycling:glass_bottles":"yes","recycling_type":"container"}},"type":"Feature"},
	{"geometry":{"coordinates":[13.332908,52.461623],"type":"Point"},"properties":{"osm_id":"7426774021","tag":{"amenity":"recycling","operator":"DRK","recycling:clothes":"yes","recycling:shoes":"yes","recycling_type":"container"}},"type":"Feature"},
	{"geometry":{"coordinates":[13.335192,52.461013],"type":"Point"},"properties":{"osm_id":"7435648896","tag":{"amenity":"recycling","recycling:glass_bottles":"white","recycling_type":"container"}},"type":"Feature"},
	{"geometry":{"coordinates":[13.355427,52.456817],"type":"Point"},"properties":{"osm_id":"7534102734","tag":{"amenity":"waste_basket"}},"type":"Feature"},
	{"geometry":{"coordinates":[13.35362,52.458242],"type":"Point"},"properties":{"osm_id":"7534102738","tag":{"amenity":"waste_basket"}},"type":"Feature"},
	{"geometry":{"coordinates":[13.332989,52.476621],"type":"Point"},"properties":{"osm_id":"7546074519","tag":{"amenity":"waste_basket"}},"type":"Feature"},
	{"geometry":{"coordinates":[13.335221,52.461047],"type":"Point"},"properties":{"osm_id":"7562216697","tag":{"amenity":"recycling","recycling:glass_bottles":"brown","recycling_type":"container"}},"type":"Feature"},
	{"geometry":{"coordinates":[13.335206,52.46103],"type":"Point"},"properties":{"osm_id":"7562216698","tag":{"amenity":"recycling","recycling:glass_bottles":"green","recycling_type":"container"}},"type":"Feature"},
	{"geometry":{"coordinates":[13.327361,52.474601],"type":"Point"},"properties":{"osm_id":"7617449012","tag":{"amenity":"recycling","operator":"Deutsches Rotes Kreuz","recycling:clothes":"yes","recycling_type":"container"}},"type":"Feature"},
	{"geometry":{"coordinates":[13.326871,52.474202],"type":"Point"},"properties":{"osm_id":"7617449018","tag":{"amenity":"recycling","operator":"Deutsches Rotes Kreuz","recycling:clothes":"yes","recycling_type":"container"}},"type":"Feature"},
	{"geometry":{"coordinates":[13.330824,52.477404],"type":"Point"},"properties":{"osm_id":"7620604029","tag":{"amenity":"recycling","recycling:clothes":"yes","recycling_type":"container"}},"type":"Feature"},
	{"geometry":{"coordinates":[13.330355,52.470471],"type":"Point"},"properties":{"osm_id":"7620604032","tag":{"amenity":"recycling","recycling:clothes":"yes","recycling_type":"container"}},"type":"Feature"},
	{"geometry":{"coordinates":[13.332405,52.477401],"type":"Point"},"properties":{"osm_id":"7638273428","tag":{"amenity":"recycling","recycling:clothes":"yes","recycling_type":"container"}},"type":"Feature"},
	{"geometry":{"coordinates":[13.340006,52.481824],"type":"Point"},"properties":{"osm_id":"7648680391","tag":{"amenity":"recycling","recycling:glass_bottles":"yes","recycling_type":"container"}},"type":"Feature"},
	{"geometry":{"coordinates":[13.341702,52.466914],"type":"Point"},"properties":{"osm_id":"7680118566","tag":{"amenity":"recycling","recycling:clothes":"yes","recycling_type":"container"}},"type":"Feature"},
	{"geometry":{"coordinates":[13.341672,52.480514],"type":"Point"},"properties":{"osm_id":"7725448818","tag":{"amenity":"waste_basket","colour":"orange","operator":"BSR","waste":"trash"}},"type":"Feature"},
	{"geometry":{"coordinates":[13.340816,52.481912],"type":"Point"},"properties":{"osm_id":"7725448819","tag":{"amenity":"waste_basket","colour":"orange","operator":"BSR","waste":"trash"}},"type":"Feature"},
	{"geometry":{"coordinates":[13.346831,52.47202],"type":"Point"},"properties":{"osm_id":"7747350426","tag":{"amenity":"recycling","recycling:clothes":"yes","recycling_type":"container"}},"type":"Feature"},
	{"geometry":{"coordinates":[13.348578,52.469217],"type":"Point"},"properties":{"osm_id":"7750469636","tag":{"amenity":"waste_disposal"}},"type":"Feature"},
	{"geometry":{"coordinates":[13.348727,52.468126],"type":"Point"},"properties":{"osm_id":"7750469637","tag":{"amenity":"waste_disposal"}},"type":"Feature"},
	{"geometry":{"coordinates":[13.34631,52.467976],"type":"Point"},"properties":{"osm_id":"7750469638","tag":{"amenity":"waste_disposal"}},"type":"Feature"},
	{"geometry":{"coordinates":[13.339913,52.469959],"type":"Point"},"properties":{"osm_id":"7752567181","tag":{"amenity":"waste_disposal"}},"type":"Feature"},
	{"geometry":{"coordinates":[13.339881,52.469961],"type":"Point"},"properties":{"osm_id":"7752567182","tag":{"amenity":"waste_disposal"}},"type":"Feature"},
	{"geometry":{"coordinates":[13.339034,52.469135],"type":"Point"},"properties":{"osm_id":"7757282383","tag":{"amenity":"waste_disposal"}},"type":"Feature"},
	{"geometry":{"coordinates":[13.337716,52.46934],"type":"Point"},"properties":{"osm_id":"7787880169","tag":{"amenity":"waste_disposal"}},"type":"Feature"},
	{"geometry":{"coordinates":[13.339485,52.470587],"type":"Point"},"properties":{"osm_id":"7795262561","tag":{"amenity":"waste_disposal"}},"type":"Feature"},
	{"geometry":{"coordinates":[13.338644,52.47396],"type":"Point"},"properties":{"osm_id":"7796210423","tag":{"amenity":"waste_disposal"}},"type":"Feature"},
	{"geometry":{"coordinates":[13.328759,52.442163],"type":"Point"},"properties":{"osm_id":"7805901613","tag":{"amenity":"waste_disposal"}},"type":"Feature"},
	{"geometry":{"coordinates":[13.331764,52.442482],"type":"Point"},"properties":{"osm_id":"7807181886","tag":{"amenity":"waste_disposal"}},"type":"Feature"},
	{"geometry":{"coordinates":[13.330813,52.442244],"type":"Point"},"properties":{"osm_id":"7810998052","tag":{"amenity":"waste_disposal"}},"type":"Feature"},
	{"geometry":{"coordinates":[13.340876,52.469088],"type":"Point"},"properties":{"osm_id":"7859148816","tag":{"amenity":"recycling","recycling:clothes":"yes","recycling_type":"container"}},"type":"Feature"},
	{"geometry":{"coordinates":[13.339957,52.481949],"type":"Point"},"properties":{"osm_id":"7873264797","tag":{"amenity":"waste_basket"}},"type":"Feature"},
	{"geometry":{"coordinates":[13.339673,52.481857],"type":"Point"},"properties":{"osm_id":"7873264800","tag":{"amenity":"waste_basket"}},"type":"Feature"},
	{"geometry":{"coordinates":[13.338212,52.481319],"type":"Point"},"properties":{"osm_id":"7873264807","tag":{"amenity":"waste_basket"}},"type":"Feature"},
	{"geometry":{"coordinates":[13.340735,52.4822],"type":"Point"},"properties":{"osm_id":"7873264811","tag":{"amenity":"waste_basket"}},"type":"Feature"},
	{"geometry":{"coordinates":[13.291761,52.461443],"type":"Point"},"properties":{"osm_id":"7873264815","tag":{"amenity":"waste_basket"}},"type":"Feature"},
	{"geometry":{"coordinates":[13.291014,52.459796],"type":"Point"},"properties":{"osm_id":"7873264818","tag":{"amenity":"waste_basket"}},"type":"Feature"},
	{"geometry":{"coordinates":[13.342279,52.476419],"type":"Point"},"properties":{"osm_id":"7891032857","tag":{"amenity":"waste_disposal"}},"type":"Feature"},
	{"geometry":{"coordinates":[13.335121,52.475572],"type":"Point"},"properties":{"osm_id":"7896764980","tag":{"amenity":"waste_basket","waste":"trash"}},"type":"Feature"},
	{"geometry":{"coordinates":[13.337277,52.474627],"type":"Point"},"properties":{"osm_id":"7935604638","tag":{"access":"private","amenity":"waste_disposal"}},"type":"Feature"},
	{"geometry":{"coordinates":[13.30115,52.455386],"type":"Point"},"properties":{"osm_id":"7948883334","tag":{"amenity":"waste_basket"}},"type":"Feature"},
	{"geometry":{"coordinates":[13.30048,52.4546],"type":"Point"},"properties":{"osm_id":"7948883356","tag":{"amenity":"waste_basket"}},"type":"Feature"}
]
}
