{
"type": "FeatureCollection",
"features": [
	{"geometry":{"coordinates":[13.323207,49.688793],"type":"Point"},"properties":{"osm_id":"1447870488","tag":{"amenity":"recycling","recycling:glass":"yes","recycling:paper":"yes","recycling_type":"container"}},"type":"Feature"},
	{"geometry":{"coordinates":[13.32726,49.708829],"type":"Point"},"properties":{"osm_id":"2431470861","tag":{"amenity":"recycling","recycling_type":"container"}},"type":"Feature"},
	{"geometry":{"coordinates":[13.291893,49.685257],"type":"Point"},"properties":{"osm_id":"2707571454","tag":{"amenity":"recycling","recycling_type":"container"}},"type":"Feature"},
	{"geometry":{"coordinates":[13.33099,49.707128],"type":"Point"},"properties":{"osm_id":"2707571520","tag":{"amenity":"recycling","recycling_type":"container"}},"type":"Feature"},
	{"geometry":{"coordinates":[13.348759,49.675816],"type":"Point"},"properties":{"osm_id":"2707680754","tag":{"amenity":"recycling","recycling_type":"container"}},"type":"Feature"},
	{"geometry":{"coordinates":[13.351233,49.694643],"type":"Point"},"properties":{"osm_id":"3226633675","tag":{"amenity":"recycling","recycling_type":"container"}},"type":"Feature"},
	{"geometry":{"coordinates":[13.35378,49.696499],"type":"Point"},"properties":{"osm_id":"3226633689","tag":{"amenity":"recycling","recycling_type":"container"}},"type":"Feature"},
	{"geometry":{"coordinates":[13.349831,49.696766],"type":"Point"},"properties":{"osm_id":"3226633693","tag":{"amenity":"recycling","recycling_type":"container"}},"type":"Feature"},
	{"geometry":{"coordinates":[13.356173,49.697485],"type":"Point"},"properties":{"osm_id":"3226633706","tag":{"amenity":"recycling","recycling_type":"container"}},"type":"Feature"},
	{"geometry":{"coordinates":[13.348621,49.694171],"type":"Point"},"properties":{"osm_id":"3801078457","tag":{"amenity":"recycling","recycling:glass":"yes","recycling:organic":"yes","recycling:paper":"yes","recycling:plastic":"yes","recycling_type":"container"}},"type":"Feature"},
	{"geometry":{"coordinates":[13.352572,49.695319],"type":"Point"},"properties":{"osm_id":"3801078461","tag":{"amenity":"recycling","recycling:clothes":"yes","recycling_type":"container"}},"type":"Feature"},
	{"geometry":{"coordinates":[13.347707,49.696339],"type":"Point"},"properties":{"osm_id":"3801078485","tag":{"amenity":"recycling","recycling:glass":"yes","recycling:organic":"yes","recycling:paper":"yes","recycling:plastic":"yes","recycling_type":"container"}},"type":"Feature"},
	{"geometry":{"coordinates":[13.355767,49.713177],"type":"Point"},"properties":{"osm_id":"3801086088","tag":{"amenity":"recycling","recycling:glass":"yes","recycling:organic":"yes","recycling:paper":"yes","recycling:plastic":"yes","recycling_type":"container"}},"type":"Feature"},
	{"geometry":{"coordinates":[13.355032,49.715154],"type":"Point"},"properties":{"osm_id":"3801086089","tag":{"amenity":"recycling","recycling:glass":"yes","recycling:organic":"yes","recycling:paper":"yes","recycling:plastic":"yes","recycling_type":"container"}},"type":"Feature"},
	{"geometry":{"coordinates":[13.315665,49.707638],"type":"Point"},"properties":{"osm_id":"4424284823","tag":{"amenity":"recycling","recycling:glass_bottles":"yes","recycling:green_waste":"yes","recycling:paper":"yes","recycling:plastic":"yes","recycling_type":"container"}},"type":"Feature"},
	{"geometry":{"coordinates":[13.347844,49.698919],"type":"Point"},"properties":{"osm_id":"5932706957","tag":{"amenity":"waste_basket","waste":"trash"}},"type":"Feature"},
	{"geometry":{"coordinates":[13.347846,49.698934],"type":"Point"},"properties":{"osm_id":"5932706958","tag":{"amenity":"waste_basket","waste":"dog_excrement"}},"type":"Feature"},
	{"geometry":{"coordinates":[13.321503,49.691854],"type":"Point"},"properties":{"osm_id":"6743925624","tag":{"amenity":"recycling","operator":"\u00c4\u008cist\u00c3\u00a1 Plze\u00c5\u0088 s.r.o.","recycling:aluminium_Verpackung":"yes","recycling:aluminium_tins":"yes","recycling:aluminum_cans":"yes","recycling_type":"container"}},"type":"Feature"},
	{"geometry":{"coordinates":[13.353885,49.724009],"type":"Point"},"properties":{"osm_id":"7283075748","tag":{"amenity":"recycling","recycling:paper":"yes","recycling:plastic":"yes","recycling_type":"container"}},"type":"Feature"},
	{"geometry":{"coordinates":[13.343835,49.693737],"type":"Point"},"properties":{"osm_id":"7687990383","tag":{"amenity":"waste_basket","covered":"yes","tourism":"picnic_site"}},"type":"Feature"},
	{"geometry":{"coordinates":[13.324741,49.676275],"type":"Point"},"properties":{"osm_id":"8137579901","tag":{"amenity":"recycling","recycling:plastic":"yes","recycling_type":"container"}},"type":"Feature"},
	{"geometry":{"coordinates":[13.328872,49.677035],"type":"Point"},"properties":{"osm_id":"8143940486","tag":{"amenity":"waste_basket"}},"type":"Feature"},
	{"geometry":{"coordinates":[13.327033,49.676305],"type":"Point"},"properties":{"osm_id":"8143940487","tag":{"amenity":"waste_basket"}},"type":"Feature"},
	{"geometry":{"coordinates":[13.326771,49.676289],"type":"Point"},"properties":{"osm_id":"8143940488","tag":{"amenity":"waste_basket"}},"type":"Feature"},
	{"geometry":{"coordinates":[13.326509,49.676274],"type":"Point"},"properties":{"osm_id":"8143940489","tag":{"amenity":"waste_basket"}},"type":"Feature"},
	{"geometry":{"coordinates":[13.326248,49.676258],"type":"Point"},"properties":{"osm_id":"8143940490","tag":{"amenity":"waste_basket"}},"type":"Feature"},
	{"geometry":{"coordinates":[13.325986,49.676241],"type":"Point"},"properties":{"osm_id":"8143940491","tag":{"amenity":"waste_basket"}},"type":"Feature"},
	{"geometry":{"coordinates":[13.325214,49.676445],"type":"Point"},"properties":{"osm_id":"8143940492","tag":{"amenity":"waste_basket"}},"type":"Feature"},
	{"geometry":{"coordinates":[13.325689,49.676534],"type":"Point"},"properties":{"osm_id":"8143940493","tag":{"amenity":"waste_basket"}},"type":"Feature"},
	{"geometry":{"coordinates":[13.325558,49.67653],"type":"Point"},"properties":{"osm_id":"8143940494","tag":{"amenity":"waste_basket"}},"type":"Feature"},
	{"geometry":{"coordinates":[13.324925,49.6767],"type":"Point"},"properties":{"osm_id":"8143940495","tag":{"amenity":"waste_basket"}},"type":"Feature"},
	{"geometry":{"coordinates":[13.325037,49.676706],"type":"Point"},"properties":{"osm_id":"8143940496","tag":{"amenity":"waste_basket"}},"type":"Feature"},
	{"geometry":{"coordinates":[13.325252,49.676715],"type":"Point"},"properties":{"osm_id":"8143940497","tag":{"amenity":"waste_basket"}},"type":"Feature"},
	{"geometry":{"coordinates":[13.325822,49.676539],"type":"Point"},"properties":{"osm_id":"8146600721","tag":{"amenity":"waste_basket"}},"type":"Feature"},
	{"geometry":{"coordinates":[13.328922,49.678711],"type":"Point"},"properties":{"osm_id":"8146600820","tag":{"amenity":"waste_basket"}},"type":"Feature"},
	{"geometry":{"coordinates":[13.329183,49.678739],"type":"Point"},"properties":{"osm_id":"8146600821","tag":{"amenity":"waste_basket"}},"type":"Feature"},
	{"geometry":{"coordinates":[13.329442,49.678766],"type":"Point"},"properties":{"osm_id":"8146600822","tag":{"amenity":"waste_basket"}},"type":"Feature"},
	{"geometry":{"coordinates":[13.329703,49.678794],"type":"Point"},"properties":{"osm_id":"8146600823","tag":{"amenity":"waste_basket"}},"type":"Feature"},
	{"geometry":{"coordinates":[13.329963,49.678822],"type":"Point"},"properties":{"osm_id":"8146600824","tag":{"amenity":"waste_basket"}},"type":"Feature"},
	{"geometry":{"coordinates":[13.329948,49.678314],"type":"Point"},"properties":{"osm_id":"8146600825","tag":{"amenity":"waste_basket"}},"type":"Feature"},
	{"geometry":{"coordinates":[13.32982,49.678291],"type":"Point"},"properties":{"osm_id":"8146600826","tag":{"amenity":"waste_basket"}},"type":"Feature"},
	{"geometry":{"coordinates":[13.330316,49.678398],"type":"Point"},"properties":{"osm_id":"8146600827","tag":{"amenity":"waste_basket"}},"type":"Feature"},
	{"geometry":{"coordinates":[13.330595,49.678169],"type":"Point"},"properties":{"osm_id":"8146600828","tag":{"amenity":"waste_basket"}},"type":"Feature"},
	{"geometry":{"coordinates":[13.330697,49.678182],"type":"Point"},"properties":{"osm_id":"8146600829","tag":{"amenity":"waste_basket"}},"type":"Feature"},
	{"geometry":{"coordinates":[13.330351,49.678138],"type":"Point"},"properties":{"osm_id":"8146600830","tag":{"amenity":"waste_basket"}},"type":"Feature"}
]
}
