{
"type": "FeatureCollection",
"lastupdate": "2020-08-03T00:00:00Z",
"features": [
	{"geometry":{"coordinates":[13.341331,48.834295],"type":"Point"},"properties":{"osm_id":"401501293","tag":{"amenity":"recycling","recycling:cans":"yes","recycling:glass":"yes","recycling:paper":"yes"}},"type":"Feature"},
	{"geometry":{"coordinates":[13.357399,48.816237],"type":"Point"},"properties":{"osm_id":"1638091135","tag":{"amenity":"waste_basket"}},"type":"Feature"},
	{"geometry":{"coordinates":[13.348995,48.829692],"type":"Point"},"properties":{"osm_id":"1638091148","tag":{"amenity":"waste_basket"}},"type":"Feature"},
	{"geometry":{"coordinates":[13.349076,48.82367],"type":"Point"},"properties":{"name":"Abfalleimer","osm_id":"1671865295","tag":{"amenity":"waste_basket"}},"type":"Feature"},
	{"geometry":{"coordinates":[13.345552,48.829177],"type":"Point"},"properties":{"osm_id":"1671937272","tag":{"amenity":"waste_basket"}},"type":"Feature"},
	{"geometry":{"coordinates":[13.329063,48.849173],"type":"Point"},"properties":{"name":"Recyclinghof-Sch\u00c3\u00b6nberg","osm_id":"1697375636","tag":{"amenity":"recycling","recycling_type":"centre"}},"type":"Feature"}
]
}
