{
"type": "FeatureCollection",
"lastupdate": "2020-08-01T00:00:00Z",
"features": [
	{"geometry":{"coordinates":[13.278706,48.180423],"type":"Point"},"properties":{"name":"ASZ H\u00c3\u00b6hnhart","osm_id":"2744617526","tag":{"addr:city":"Aspach","addr:country":"AT","addr:housenumber":"5","addr:place":"Gewerbepark Aspach H\u00f6hnhart","addr:postcode":"5252","amenity":"recycling","opening_hours":"Mo 08:00-12:00; We 15:00-18:00; Fr 08:00-18:00; Sa 08:30-12:00","phone":"+43 7755 6966","recycling:batteries":"yes","recycling:cans":"yes","recycling:cardboard":"yes","recycling:clothes":"yes","recycling:electrical_appliances":"yes","recycling:glass":"yes","recycling:glass_bottles":"yes","recycling:green_waste":"yes","recycling:paper":"yes","recycling:plastic":"yes","recycling:plastic_bottles":"yes","recycling:plastic_packaging":"yes","recycling:scrap_metal":"yes","recycling:shoes":"yes","recycling:small_appliances":"yes","recycling:waste":"yes","recycling_type":"centre","website":"https://www.umweltprofis.at/bezirksabfallverband/braunau/sammeleinrichtungen.html?tx_gdbavsammeleinrichtung_pi1[id]=6"}},"type":"Feature"},
	{"geometry":{"coordinates":[13.327375,48.22132],"type":"Point"},"properties":{"osm_id":"4639337693","tag":{"amenity":"recycling","collection_times":"07:00 - 20:00","recycling:cans":"yes","recycling:glass_bottles":"yes","recycling_type":"container"}},"type":"Feature"},
	{"geometry":{"coordinates":[13.348083,48.171264],"type":"Point"},"properties":{"osm_id":"6705399599","tag":{"amenity":"waste_basket"}},"type":"Feature"}
]
}
