{
"type": "FeatureCollection",
"features": [
	{"geometry":{"coordinates":[13.349955,47.854038],"type":"Point"},"properties":{"osm_id":"660004798","tag":{"amenity":"waste_basket"}},"type":"Feature"},
	{"geometry":{"coordinates":[13.344464,47.855142],"type":"Point"},"properties":{"osm_id":"660883412","tag":{"amenity":"recycling","recycling:glass":"yes"}},"type":"Feature"},
	{"geometry":{"coordinates":[13.346168,47.855677],"type":"Point"},"properties":{"osm_id":"660883427","tag":{"amenity":"waste_basket"}},"type":"Feature"},
	{"geometry":{"coordinates":[13.32481,47.868595],"type":"Point"},"properties":{"osm_id":"676468926","tag":{"amenity":"waste_basket"}},"type":"Feature"},
	{"geometry":{"coordinates":[13.324756,47.868763],"type":"Point"},"properties":{"osm_id":"676468930","tag":{"amenity":"waste_basket"}},"type":"Feature"},
	{"geometry":{"coordinates":[13.325268,47.868884],"type":"Point"},"properties":{"osm_id":"676468951","tag":{"amenity":"waste_basket"}},"type":"Feature"},
	{"geometry":{"coordinates":[13.341954,47.857899],"type":"Point"},"properties":{"osm_id":"676749445","tag":{"amenity":"waste_basket"}},"type":"Feature"},
	{"geometry":{"coordinates":[13.342533,47.857288],"type":"Point"},"properties":{"osm_id":"676754855","tag":{"amenity":"waste_basket"}},"type":"Feature"},
	{"geometry":{"coordinates":[13.342868,47.857381],"type":"Point"},"properties":{"osm_id":"676754861","tag":{"amenity":"waste_basket"}},"type":"Feature"},
	{"geometry":{"coordinates":[13.343086,47.856946],"type":"Point"},"properties":{"osm_id":"676754862","tag":{"amenity":"waste_basket"}},"type":"Feature"},
	{"geometry":{"coordinates":[13.340226,47.847298],"type":"Point"},"properties":{"osm_id":"676771890","tag":{"amenity":"recycling","recycling:clothes":"yes","recycling_type":"container"}},"type":"Feature"},
	{"geometry":{"coordinates":[13.350007,47.858407],"type":"Point"},"properties":{"osm_id":"896378395","tag":{"surveillance":"public"}},"type":"Feature"},
	{"geometry":{"coordinates":[13.290821,47.844172],"type":"Point"},"properties":{"osm_id":"915666706","tag":{"amenity":"waste_basket"}},"type":"Feature"},
	{"geometry":{"coordinates":[13.291056,47.844182],"type":"Point"},"properties":{"osm_id":"915666708","tag":{"amenity":"waste_basket"}},"type":"Feature"},
	{"geometry":{"coordinates":[13.290355,47.84415],"type":"Point"},"properties":{"osm_id":"915666710","tag":{"amenity":"waste_basket"}},"type":"Feature"},
	{"geometry":{"coordinates":[13.290593,47.844161],"type":"Point"},"properties":{"osm_id":"915666714","tag":{"amenity":"waste_basket"}},"type":"Feature"},
	{"geometry":{"coordinates":[13.348033,47.853703],"type":"Point"},"properties":{"osm_id":"1632807583","tag":{"amenity":"waste_basket"}},"type":"Feature"},
	{"geometry":{"coordinates":[13.348224,47.853754],"type":"Point"},"properties":{"osm_id":"1632807588","tag":{"amenity":"waste_basket"}},"type":"Feature"},
	{"geometry":{"coordinates":[13.331907,47.859112],"type":"Point"},"properties":{"barrier":"gate","osm_id":"1809084708","tag":{"bicycle":"yes","foot":"yes","motorcar":"yes","motorcycle":"yes"}},"type":"Feature"},
	{"geometry":{"coordinates":[13.354662,47.838299],"type":"Point"},"properties":{"name":"Reinhalteverband Mondsee - Irrsee","osm_id":"2390428553","tag":{"amenity":"recycling"}},"type":"Feature"},
	{"geometry":{"coordinates":[13.352543,47.854295],"type":"Point"},"properties":{"osm_id":"2402323646","tag":{"amenity":"waste_basket"}},"type":"Feature"},
	{"geometry":{"coordinates":[13.351487,47.854549],"type":"Point"},"properties":{"osm_id":"2402323647","tag":{"amenity":"waste_basket"}},"type":"Feature"},
	{"geometry":{"coordinates":[13.353417,47.852545],"type":"Point"},"properties":{"osm_id":"3015108844","tag":{"amenity":"waste_basket"}},"type":"Feature"},
	{"geometry":{"coordinates":[13.354339,47.852662],"type":"Point"},"properties":{"osm_id":"3015108850","tag":{"amenity":"waste_basket"}},"type":"Feature"},
	{"geometry":{"coordinates":[13.35315,47.85221],"type":"Point"},"properties":{"osm_id":"6463014229","tag":{"amenity":"waste_basket","waste":"trash"}},"type":"Feature"},
	{"geometry":{"coordinates":[13.349781,47.855967],"type":"Point"},"properties":{"osm_id":"6463014232","tag":{"amenity":"waste_basket","waste":"trash"}},"type":"Feature"},
	{"geometry":{"coordinates":[13.352527,47.852609],"type":"Point"},"properties":{"osm_id":"6463014233","tag":{"amenity":"waste_basket","waste":"trash"}},"type":"Feature"},
	{"geometry":{"coordinates":[13.347937,47.854885],"type":"Point"},"properties":{"osm_id":"6463014234","tag":{"amenity":"waste_basket","waste":"trash"}},"type":"Feature"},
	{"geometry":{"coordinates":[13.345542,47.856175],"type":"Point"},"properties":{"osm_id":"6463014235","tag":{"amenity":"waste_basket","waste":"trash"}},"type":"Feature"},
	{"geometry":{"coordinates":[13.352295,47.852634],"type":"Point"},"properties":{"osm_id":"6463014236","tag":{"amenity":"waste_basket","waste":"trash"}},"type":"Feature"},
	{"geometry":{"coordinates":[13.348894,47.852555],"type":"Point"},"properties":{"osm_id":"6463014237","tag":{"amenity":"waste_basket","waste":"trash"}},"type":"Feature"},
	{"geometry":{"coordinates":[13.342268,47.857235],"type":"Point"},"properties":{"osm_id":"6463014242","tag":{"amenity":"waste_basket"}},"type":"Feature"},
	{"geometry":{"coordinates":[13.344061,47.856133],"type":"Point"},"properties":{"osm_id":"6463014244","tag":{"amenity":"waste_basket","waste":"trash"}},"type":"Feature"},
	{"geometry":{"coordinates":[13.34873,47.85518],"type":"Point"},"properties":{"osm_id":"6463014245","tag":{"amenity":"waste_basket","waste":"trash"}},"type":"Feature"},
	{"geometry":{"coordinates":[13.352587,47.852093],"type":"Point"},"properties":{"osm_id":"6463014247","tag":{"amenity":"waste_basket","waste":"trash"}},"type":"Feature"},
	{"geometry":{"coordinates":[13.352341,47.852202],"type":"Point"},"properties":{"osm_id":"6463014248","tag":{"amenity":"waste_basket","waste":"trash"}},"type":"Feature"},
	{"geometry":{"coordinates":[13.352756,47.852462],"type":"Point"},"properties":{"osm_id":"6463014250","tag":{"amenity":"waste_basket","waste":"trash"}},"type":"Feature"},
	{"geometry":{"coordinates":[13.350022,47.855882],"type":"Point"},"properties":{"osm_id":"6463014252","tag":{"amenity":"waste_basket","waste":"trash"}},"type":"Feature"},
	{"geometry":{"coordinates":[13.351434,47.853773],"type":"Point"},"properties":{"osm_id":"6463014254","tag":{"amenity":"waste_basket","waste":"trash"}},"type":"Feature"}
]
}
