{
"type": "FeatureCollection",
"features": [
	{"geometry":{"coordinates":[13.357353,9.315801],"type":"Point"},"properties":{"name":"Bac \u00c3\u00a0 Ordures","osm_id":"6674121119","tag":{"amenity":"waste_disposal"}},"type":"Feature"},
	{"geometry":{"coordinates":[13.354583,9.316792],"type":"Point"},"properties":{"name":"Bac \u00c3\u00a0 Ordures","osm_id":"6674121120","tag":{"amenity":"waste_disposal"}},"type":"Feature"},
	{"geometry":{"coordinates":[13.353958,9.312869],"type":"Point"},"properties":{"name":"Bac \u00c3\u00a0 Ordures","osm_id":"6674121121","tag":{"amenity":"waste_disposal"}},"type":"Feature"},
	{"geometry":{"coordinates":[13.353817,9.312872],"type":"Point"},"properties":{"name":"Bac \u00c3\u00a0 Ordures","osm_id":"6674121122","tag":{"amenity":"waste_disposal"}},"type":"Feature"},
	{"geometry":{"coordinates":[13.352693,9.313197],"type":"Point"},"properties":{"name":"Bac \u00c3\u00a0 Ordures","osm_id":"6674121123","tag":{"amenity":"waste_disposal"}},"type":"Feature"},
	{"geometry":{"coordinates":[13.352622,9.312422],"type":"Point"},"properties":{"name":"Bac \u00c3\u00a0 Ordures","osm_id":"6674121124","tag":{"amenity":"waste_disposal"}},"type":"Feature"},
	{"geometry":{"coordinates":[13.351978,9.311235],"type":"Point"},"properties":{"name":"Bac \u00c3\u00a0 Ordures","osm_id":"6674121125","tag":{"amenity":"waste_disposal"}},"type":"Feature"},
	{"geometry":{"coordinates":[13.348973,9.307752],"type":"Point"},"properties":{"name":"Bac \u00c3\u00a0 Ordures","osm_id":"6674121126","tag":{"amenity":"waste_disposal"}},"type":"Feature"},
	{"geometry":{"coordinates":[13.353175,9.303466],"type":"Point"},"properties":{"name":"Bac \u00c3\u00a0 Ordures","osm_id":"6674121127","tag":{"amenity":"waste_disposal"}},"type":"Feature"},
	{"geometry":{"coordinates":[13.356583,9.320115],"type":"Point"},"properties":{"name":"Tas Sauvage","osm_id":"6684884940","tag":{"amenity":"waste_basket"}},"type":"Feature"},
	{"geometry":{"coordinates":[13.358016,9.320009],"type":"Point"},"properties":{"name":"Tas Sauvage","osm_id":"6684884941","tag":{"amenity":"waste_basket"}},"type":"Feature"},
	{"geometry":{"coordinates":[13.355292,9.318679],"type":"Point"},"properties":{"name":"Tas Sauvage","osm_id":"6684884942","tag":{"amenity":"waste_basket"}},"type":"Feature"},
	{"geometry":{"coordinates":[13.349866,9.316955],"type":"Point"},"properties":{"name":"Tas sauvages","osm_id":"6684884943","tag":{"amenity":"waste_basket"}},"type":"Feature"},
	{"geometry":{"coordinates":[13.352256,9.305502],"type":"Point"},"properties":{"name":"Tas Sauvage","osm_id":"6684884960","tag":{"amenity":"waste_basket"}},"type":"Feature"}
]
}
