{
"type": "FeatureCollection",
"features": [
	{"geometry":{"coordinates":[15.437053,60.521699],"type":"Point"},"properties":{"osm_id":"412272441","tag":{"amenity":"recycling","recycling:glass_bottles":"yes","recycling:paper":"yes","recycling:plastic":"yes","recycling_type":"container"}},"type":"Feature"},
	{"geometry":{"coordinates":[15.418948,60.517545],"type":"Point"},"properties":{"osm_id":"414097593","tag":{"amenity":"recycling","recycling:batteries":"yes","recycling:glass_bottles":"yes","recycling:paper":"yes","recycling:plastic":"yes"}},"type":"Feature"},
	{"geometry":{"coordinates":[15.424374,60.510702],"type":"Point"},"properties":{"name":"Hundlatrin","osm_id":"874431443","tag":{"amenity":"waste_basket"}},"type":"Feature"},
	{"geometry":{"coordinates":[15.412258,60.506363],"type":"Point"},"properties":{"name":"Hundlatrin","osm_id":"955188900","tag":{"amenity":"waste_basket"}},"type":"Feature"},
	{"geometry":{"coordinates":[15.417273,60.508873],"type":"Point"},"properties":{"name":"Hundlatrin","osm_id":"955189665","tag":{"amenity":"waste_disposal"}},"type":"Feature"},
	{"geometry":{"coordinates":[15.389378,60.506453],"type":"Point"},"properties":{"osm_id":"1152355721","tag":{"amenity":"recycling","recycling_type":"container"}},"type":"Feature"},
	{"geometry":{"coordinates":[15.40991,60.521225],"type":"Point"},"properties":{"name":"Hundlatrin","osm_id":"1203635044","tag":{"amenity":"waste_basket"}},"type":"Feature"},
	{"geometry":{"coordinates":[15.437453,60.521765],"type":"Point"},"properties":{"name":"Hundlatrin","osm_id":"1211547255","tag":{"amenity":"waste_basket","dog":"yes"}},"type":"Feature"},
	{"geometry":{"coordinates":[15.444367,60.506289],"type":"Point"},"properties":{"name":"Hundlatrin","osm_id":"1565874493","tag":{"amenity":"waste_basket"}},"type":"Feature"},
	{"geometry":{"coordinates":[15.44458,60.509242],"type":"Point"},"properties":{"osm_id":"1565875179","tag":{"amenity":"waste_basket"}},"type":"Feature"},
	{"geometry":{"coordinates":[15.408345,60.500944],"type":"Point"},"properties":{"name":"Hundlatrin","osm_id":"1790464383","tag":{"amenity":"waste_basket"}},"type":"Feature"},
	{"geometry":{"coordinates":[15.439249,60.520157],"type":"Point"},"properties":{"osm_id":"1801230506","tag":{"amenity":"waste_basket"}},"type":"Feature"},
	{"geometry":{"coordinates":[15.438612,60.523117],"type":"Point"},"properties":{"osm_id":"1801230658","tag":{"amenity":"waste_basket"}},"type":"Feature"},
	{"geometry":{"coordinates":[15.44063,60.520644],"type":"Point"},"properties":{"name":"Hundlatrin","osm_id":"2432586208","tag":{"amenity":"waste_basket"}},"type":"Feature"},
	{"geometry":{"coordinates":[15.442258,60.515879],"type":"Point"},"properties":{"name":"Hundlatrin","osm_id":"2460901404","tag":{"amenity":"waste_basket","dog":"yes"}},"type":"Feature"},
	{"geometry":{"coordinates":[15.402466,60.506764],"type":"Point"},"properties":{"osm_id":"2519208972","tag":{"amenity":"waste_basket"}},"type":"Feature"},
	{"geometry":{"coordinates":[15.43807,60.505228],"type":"Point"},"properties":{"osm_id":"3120776685","tag":{"amenity":"waste_basket"}},"type":"Feature"},
	{"geometry":{"coordinates":[15.436203,60.50711],"type":"Point"},"properties":{"osm_id":"3120776686","tag":{"amenity":"waste_basket","dog":"designated"}},"type":"Feature"},
	{"geometry":{"coordinates":[15.441216,60.503007],"type":"Point"},"properties":{"osm_id":"3120776689","tag":{"amenity":"waste_basket","dog":"yes"}},"type":"Feature"},
	{"geometry":{"coordinates":[15.444564,60.500628],"type":"Point"},"properties":{"osm_id":"3120776690","tag":{"amenity":"waste_basket","dog":"designated"}},"type":"Feature"},
	{"geometry":{"coordinates":[15.439378,60.508545],"type":"Point"},"properties":{"osm_id":"3120776691","tag":{"amenity":"waste_basket"}},"type":"Feature"},
	{"geometry":{"coordinates":[15.437383,60.503148],"type":"Point"},"properties":{"osm_id":"3120776693","tag":{"amenity":"waste_basket"}},"type":"Feature"},
	{"geometry":{"coordinates":[15.400779,60.51823],"type":"Point"},"properties":{"name":"Hundlatrin","osm_id":"5615165353","ref":"242","tag":{"amenity":"waste_basket","dog":"designated"}},"type":"Feature"}
]
}
