{
"type": "FeatureCollection",
"features": [
	{"geometry":{"coordinates":[15.429605,53.168657],"type":"Point"},"properties":{"osm_id":"2438796967","tag":{"amenity":"recycling","recycling_type":"container"}},"type":"Feature"},
	{"geometry":{"coordinates":[15.429844,53.168525],"type":"Point"},"properties":{"osm_id":"2454729896","tag":{"amenity":"waste_disposal"}},"type":"Feature"},
	{"geometry":{"coordinates":[15.417303,53.17256],"type":"Point"},"properties":{"osm_id":"2549547845","tag":{"amenity":"recycling","recycling:cans":"yes","recycling_type":"container"}},"type":"Feature"},
	{"geometry":{"coordinates":[15.426572,53.163244],"type":"Point"},"properties":{"osm_id":"2581706584","tag":{"amenity":"recycling","recycling:cans":"yes","recycling:scrap_metal":"yes","recycling_type":"container"}},"type":"Feature"},
	{"geometry":{"coordinates":[15.416862,53.166203],"type":"Point"},"properties":{"osm_id":"2711024036","tag":{"amenity":"recycling","recycling:cans":"yes","recycling:glass":"yes","recycling:scrap_metal":"yes","recycling_type":"container"}},"type":"Feature"},
	{"geometry":{"coordinates":[15.414419,53.169002],"type":"Point"},"properties":{"osm_id":"2711024141","tag":{"amenity":"recycling","recycling:cans":"yes","recycling:glass":"yes","recycling:paper":"no","recycling:scrap_metal":"yes","recycling_type":"container"}},"type":"Feature"},
	{"geometry":{"coordinates":[15.417647,53.169204],"type":"Point"},"properties":{"osm_id":"2711073066","tag":{"amenity":"recycling","recycling:cans":"yes","recycling:glass":"yes","recycling:scrap_metal":"yes","recycling_type":"container"}},"type":"Feature"},
	{"geometry":{"coordinates":[15.427765,53.166148],"type":"Point"},"properties":{"osm_id":"2720563286","tag":{"amenity":"recycling","recycling:cans":"yes","recycling:glass":"yes","recycling:paper":"yes","recycling:scrap_metal":"yes","recycling_type":"container"}},"type":"Feature"},
	{"geometry":{"coordinates":[15.428743,53.169752],"type":"Point"},"properties":{"osm_id":"2849016411","tag":{"amenity":"recycling","recycling:cans":"yes","recycling:scrap_metal":"yes","recycling_type":"container"}},"type":"Feature"},
	{"geometry":{"coordinates":[15.430388,53.170259],"type":"Point"},"properties":{"osm_id":"2849016412","tag":{"amenity":"recycling","recycling:batteries":"no","recycling:cans":"yes","recycling:paper":"no","recycling:scrap_metal":"yes","recycling_type":"container"}},"type":"Feature"},
	{"geometry":{"coordinates":[15.43238,53.160313],"type":"Point"},"properties":{"osm_id":"2849319572","tag":{"amenity":"recycling","recycling:cans":"yes","recycling:scrap_metal":"yes","recycling_type":"container"}},"type":"Feature"},
	{"geometry":{"coordinates":[15.420492,53.168973],"type":"Point"},"properties":{"osm_id":"2849356925","tag":{"amenity":"waste_basket"}},"type":"Feature"},
	{"geometry":{"coordinates":[15.427798,53.16616],"type":"Point"},"properties":{"osm_id":"2849367798","tag":{"amenity":"waste_disposal"}},"type":"Feature"},
	{"geometry":{"coordinates":[15.426565,53.166828],"type":"Point"},"properties":{"osm_id":"2849372354","tag":{"amenity":"waste_basket"}},"type":"Feature"},
	{"geometry":{"coordinates":[15.417942,53.171439],"type":"Point"},"properties":{"osm_id":"2850671981","tag":{"amenity":"recycling","recycling:cans":"yes","recycling:scrap_metal":"yes","recycling_type":"container"}},"type":"Feature"},
	{"geometry":{"coordinates":[15.414932,53.165],"type":"Point"},"properties":{"osm_id":"2851312338","tag":{"amenity":"recycling","recycling:cans":"yes","recycling:scrap_metal":"yes","recycling_type":"container"}},"type":"Feature"},
	{"geometry":{"coordinates":[15.426663,53.16799],"type":"Point"},"properties":{"osm_id":"2851313132","tag":{"amenity":"recycling","recycling:cans":"yes","recycling:scrap_metal":"yes","recycling_type":"container"}},"type":"Feature"},
	{"geometry":{"coordinates":[15.42271,53.167708],"type":"Point"},"properties":{"osm_id":"2851313470","tag":{"amenity":"recycling","recycling:cans":"yes","recycling:glass":"yes","recycling:paper":"no","recycling:scrap_metal":"yes","recycling_type":"container"}},"type":"Feature"},
	{"geometry":{"coordinates":[15.423212,53.167949],"type":"Point"},"properties":{"osm_id":"2851313471","tag":{"amenity":"recycling","recycling:cans":"yes","recycling:glass":"yes","recycling:paper":"no","recycling:scrap_metal":"yes","recycling_type":"container"}},"type":"Feature"},
	{"geometry":{"coordinates":[15.423745,53.165125],"type":"Point"},"properties":{"osm_id":"2851461731","tag":{"amenity":"recycling","recycling:cans":"yes","recycling:scrap_metal":"yes","recycling_type":"container"}},"type":"Feature"},
	{"geometry":{"coordinates":[15.422695,53.167878],"type":"Point"},"properties":{"osm_id":"2851513611","tag":{"amenity":"waste_disposal"}},"type":"Feature"},
	{"geometry":{"coordinates":[15.420681,53.168623],"type":"Point"},"properties":{"osm_id":"2851514418","tag":{"amenity":"waste_disposal"}},"type":"Feature"},
	{"geometry":{"coordinates":[15.42798,53.167644],"type":"Point"},"properties":{"osm_id":"2851531080","tag":{"amenity":"recycling","recycling:cans":"yes","recycling:glass":"yes","recycling:paper":"no","recycling:scrap_metal":"yes","recycling_type":"container"}},"type":"Feature"},
	{"geometry":{"coordinates":[15.428449,53.166559],"type":"Point"},"properties":{"osm_id":"2851534274","tag":{"amenity":"recycling","recycling:cans":"yes","recycling:clothes":"no","recycling:glass":"yes","recycling:scrap_metal":"yes","recycling_type":"container"}},"type":"Feature"},
	{"geometry":{"coordinates":[15.430174,53.168511],"type":"Point"},"properties":{"osm_id":"2852239097","tag":{"amenity":"waste_basket"}},"type":"Feature"},
	{"geometry":{"coordinates":[15.4284,53.169015],"type":"Point"},"properties":{"osm_id":"2852239098","tag":{"amenity":"waste_disposal"}},"type":"Feature"},
	{"geometry":{"coordinates":[15.396342,53.16038],"type":"Point"},"properties":{"osm_id":"2852889113","tag":{"amenity":"recycling","recycling:batteries":"no","recycling:cans":"yes","recycling:glass":"yes","recycling:paper":"yes","recycling:scrap_metal":"yes","recycling_type":"container"}},"type":"Feature"},
	{"geometry":{"coordinates":[15.418813,53.166553],"type":"Point"},"properties":{"osm_id":"2853420495","tag":{"amenity":"waste_disposal"}},"type":"Feature"},
	{"geometry":{"coordinates":[15.41917,53.166715],"type":"Point"},"properties":{"osm_id":"2853500223","tag":{"amenity":"waste_basket"}},"type":"Feature"},
	{"geometry":{"coordinates":[15.415232,53.168479],"type":"Point"},"properties":{"osm_id":"2853885185","tag":{"amenity":"recycling","recycling:cans":"yes","recycling:glass":"yes","recycling:scrap_metal":"yes","recycling_type":"container"}},"type":"Feature"},
	{"geometry":{"coordinates":[15.418894,53.164474],"type":"Point"},"properties":{"osm_id":"2892214117","tag":{"amenity":"waste_basket"}},"type":"Feature"},
	{"geometry":{"coordinates":[15.418906,53.164934],"type":"Point"},"properties":{"osm_id":"2892214408","tag":{"amenity":"waste_basket"}},"type":"Feature"},
	{"geometry":{"coordinates":[15.415764,53.166982],"type":"Point"},"properties":{"osm_id":"2892366489","tag":{"amenity":"waste_basket"}},"type":"Feature"},
	{"geometry":{"coordinates":[15.420474,53.165706],"type":"Point"},"properties":{"osm_id":"2892370496","tag":{"amenity":"waste_basket"}},"type":"Feature"},
	{"geometry":{"coordinates":[15.421711,53.165989],"type":"Point"},"properties":{"osm_id":"2892370498","tag":{"amenity":"waste_basket"}},"type":"Feature"},
	{"geometry":{"coordinates":[15.421965,53.16607],"type":"Point"},"properties":{"osm_id":"2892370499","tag":{"amenity":"waste_basket"}},"type":"Feature"},
	{"geometry":{"coordinates":[15.422195,53.166139],"type":"Point"},"properties":{"osm_id":"2892370500","tag":{"amenity":"waste_basket"}},"type":"Feature"},
	{"geometry":{"coordinates":[15.422677,53.166301],"type":"Point"},"properties":{"osm_id":"2892370840","tag":{"amenity":"waste_basket"}},"type":"Feature"},
	{"geometry":{"coordinates":[15.416175,53.167193],"type":"Point"},"properties":{"osm_id":"2892370846","tag":{"amenity":"waste_basket"}},"type":"Feature"},
	{"geometry":{"coordinates":[15.420961,53.166191],"type":"Point"},"properties":{"osm_id":"2892371463","tag":{"amenity":"waste_basket"}},"type":"Feature"},
	{"geometry":{"coordinates":[15.422519,53.166244],"type":"Point"},"properties":{"osm_id":"2892371701","tag":{"amenity":"waste_basket"}},"type":"Feature"},
	{"geometry":{"coordinates":[15.421168,53.16625],"type":"Point"},"properties":{"osm_id":"2892371702","tag":{"amenity":"waste_basket"}},"type":"Feature"},
	{"geometry":{"coordinates":[15.416466,53.166894],"type":"Point"},"properties":{"osm_id":"2892371705","tag":{"amenity":"waste_basket"}},"type":"Feature"},
	{"geometry":{"coordinates":[15.41556,53.166998],"type":"Point"},"properties":{"osm_id":"2892371708","tag":{"amenity":"waste_basket"}},"type":"Feature"},
	{"geometry":{"coordinates":[15.415358,53.167017],"type":"Point"},"properties":{"osm_id":"2892371709","tag":{"amenity":"waste_basket"}},"type":"Feature"},
	{"geometry":{"coordinates":[15.42371,53.162833],"type":"Point"},"properties":{"osm_id":"2892374091","tag":{"amenity":"waste_basket"}},"type":"Feature"},
	{"geometry":{"coordinates":[15.409064,53.16306],"type":"Point"},"properties":{"osm_id":"2892374093","tag":{"amenity":"waste_basket"}},"type":"Feature"},
	{"geometry":{"coordinates":[15.426563,53.163187],"type":"Point"},"properties":{"osm_id":"2892374094","tag":{"amenity":"waste_basket"}},"type":"Feature"},
	{"geometry":{"coordinates":[15.426913,53.163191],"type":"Point"},"properties":{"osm_id":"2892374095","tag":{"amenity":"waste_basket"}},"type":"Feature"},
	{"geometry":{"coordinates":[15.416759,53.163854],"type":"Point"},"properties":{"osm_id":"2892374096","tag":{"amenity":"waste_basket"}},"type":"Feature"},
	{"geometry":{"coordinates":[15.413251,53.163936],"type":"Point"},"properties":{"osm_id":"2892374097","tag":{"amenity":"waste_basket"}},"type":"Feature"},
	{"geometry":{"coordinates":[15.417136,53.164104],"type":"Point"},"properties":{"osm_id":"2892374098","tag":{"amenity":"waste_basket"}},"type":"Feature"},
	{"geometry":{"coordinates":[15.417056,53.164205],"type":"Point"},"properties":{"osm_id":"2892374099","tag":{"amenity":"waste_basket"}},"type":"Feature"},
	{"geometry":{"coordinates":[15.418528,53.164524],"type":"Point"},"properties":{"osm_id":"2892374100","tag":{"amenity":"waste_basket"}},"type":"Feature"},
	{"geometry":{"coordinates":[15.41402,53.16516],"type":"Point"},"properties":{"osm_id":"2892375913","tag":{"amenity":"waste_basket"}},"type":"Feature"},
	{"geometry":{"coordinates":[15.417156,53.165282],"type":"Point"},"properties":{"osm_id":"2892375914","tag":{"amenity":"waste_basket"}},"type":"Feature"},
	{"geometry":{"coordinates":[15.426052,53.166401],"type":"Point"},"properties":{"osm_id":"2892375915","tag":{"amenity":"waste_basket"}},"type":"Feature"},
	{"geometry":{"coordinates":[15.414296,53.166402],"type":"Point"},"properties":{"osm_id":"2892375916","tag":{"amenity":"waste_basket"}},"type":"Feature"},
	{"geometry":{"coordinates":[15.402424,53.166418],"type":"Point"},"properties":{"osm_id":"2892375917","tag":{"amenity":"waste_basket"}},"type":"Feature"},
	{"geometry":{"coordinates":[15.414494,53.167548],"type":"Point"},"properties":{"osm_id":"2892375919","tag":{"amenity":"waste_basket"}},"type":"Feature"},
	{"geometry":{"coordinates":[15.413879,53.167558],"type":"Point"},"properties":{"osm_id":"2892375920","tag":{"amenity":"waste_basket"}},"type":"Feature"},
	{"geometry":{"coordinates":[15.429372,53.152897],"type":"Point"},"properties":{"osm_id":"2892376087","tag":{"amenity":"waste_basket"}},"type":"Feature"},
	{"geometry":{"coordinates":[15.427236,53.155466],"type":"Point"},"properties":{"osm_id":"2892376094","tag":{"amenity":"waste_basket"}},"type":"Feature"},
	{"geometry":{"coordinates":[15.455605,53.132446],"type":"Point"},"properties":{"osm_id":"2892376101","tag":{"amenity":"recycling","recycling:cans":"yes","recycling:scrap_metal":"yes","recycling_type":"container"}},"type":"Feature"},
	{"geometry":{"coordinates":[15.41688,53.164693],"type":"Point"},"properties":{"osm_id":"2892376108","tag":{"amenity":"waste_basket"}},"type":"Feature"},
	{"geometry":{"coordinates":[15.41806,53.1648],"type":"Point"},"properties":{"osm_id":"2892376109","tag":{"amenity":"waste_basket"}},"type":"Feature"},
	{"geometry":{"coordinates":[15.42026,53.164834],"type":"Point"},"properties":{"osm_id":"2892376110","tag":{"amenity":"waste_basket"}},"type":"Feature"},
	{"geometry":{"coordinates":[15.422925,53.165047],"type":"Point"},"properties":{"osm_id":"2892376112","tag":{"amenity":"waste_basket"}},"type":"Feature"},
	{"geometry":{"coordinates":[15.419038,53.165339],"type":"Point"},"properties":{"osm_id":"2892376152","tag":{"amenity":"waste_basket"}},"type":"Feature"},
	{"geometry":{"coordinates":[15.404288,53.165404],"type":"Point"},"properties":{"osm_id":"2892376153","tag":{"amenity":"waste_basket"}},"type":"Feature"},
	{"geometry":{"coordinates":[15.403593,53.165442],"type":"Point"},"properties":{"osm_id":"2892376154","tag":{"amenity":"waste_basket"}},"type":"Feature"},
	{"geometry":{"coordinates":[15.411806,53.165442],"type":"Point"},"properties":{"osm_id":"2892376155","tag":{"amenity":"waste_basket"}},"type":"Feature"},
	{"geometry":{"coordinates":[15.420671,53.16546],"type":"Point"},"properties":{"osm_id":"2892376156","tag":{"amenity":"waste_basket"}},"type":"Feature"},
	{"geometry":{"coordinates":[15.420505,53.165586],"type":"Point"},"properties":{"osm_id":"2892376157","tag":{"amenity":"waste_basket"}},"type":"Feature"},
	{"geometry":{"coordinates":[15.422225,53.165638],"type":"Point"},"properties":{"osm_id":"2892376158","tag":{"amenity":"waste_basket"}},"type":"Feature"},
	{"geometry":{"coordinates":[15.415631,53.165652],"type":"Point"},"properties":{"osm_id":"2892376160","tag":{"amenity":"waste_basket"}},"type":"Feature"},
	{"geometry":{"coordinates":[15.404235,53.165737],"type":"Point"},"properties":{"osm_id":"2892376161","tag":{"amenity":"waste_basket"}},"type":"Feature"},
	{"geometry":{"coordinates":[15.428537,53.165816],"type":"Point"},"properties":{"osm_id":"2892376162","tag":{"amenity":"waste_basket"}},"type":"Feature"},
	{"geometry":{"coordinates":[15.419612,53.16585],"type":"Point"},"properties":{"osm_id":"2892376163","tag":{"amenity":"waste_basket"}},"type":"Feature"},
	{"geometry":{"coordinates":[15.42227,53.165855],"type":"Point"},"properties":{"osm_id":"2892376164","tag":{"amenity":"waste_basket"}},"type":"Feature"},
	{"geometry":{"coordinates":[15.430354,53.157902],"type":"Point"},"properties":{"osm_id":"2892376287","tag":{"amenity":"waste_basket"}},"type":"Feature"},
	{"geometry":{"coordinates":[15.430045,53.15797],"type":"Point"},"properties":{"osm_id":"2892376291","tag":{"amenity":"waste_basket"}},"type":"Feature"},
	{"geometry":{"coordinates":[15.430207,53.158007],"type":"Point"},"properties":{"osm_id":"2892376292","tag":{"amenity":"waste_basket"}},"type":"Feature"},
	{"geometry":{"coordinates":[15.422535,53.158038],"type":"Point"},"properties":{"osm_id":"2892376293","tag":{"amenity":"waste_basket"}},"type":"Feature"},
	{"geometry":{"coordinates":[15.431459,53.158673],"type":"Point"},"properties":{"osm_id":"2892376294","tag":{"amenity":"waste_basket"}},"type":"Feature"},
	{"geometry":{"coordinates":[15.423421,53.162662],"type":"Point"},"properties":{"osm_id":"2892376296","tag":{"amenity":"waste_basket"}},"type":"Feature"},
	{"geometry":{"coordinates":[15.425429,53.157706],"type":"Point"},"properties":{"osm_id":"2892376303","tag":{"amenity":"waste_basket"}},"type":"Feature"},
	{"geometry":{"coordinates":[15.415942,53.158697],"type":"Point"},"properties":{"osm_id":"2892376404","tag":{"amenity":"waste_basket"}},"type":"Feature"},
	{"geometry":{"coordinates":[15.415942,53.158744],"type":"Point"},"properties":{"osm_id":"2892376405","tag":{"amenity":"waste_basket"}},"type":"Feature"},
	{"geometry":{"coordinates":[15.430792,53.158871],"type":"Point"},"properties":{"osm_id":"2892376406","tag":{"amenity":"waste_basket"}},"type":"Feature"},
	{"geometry":{"coordinates":[15.431464,53.16007],"type":"Point"},"properties":{"osm_id":"2892376408","tag":{"amenity":"waste_basket"}},"type":"Feature"},
	{"geometry":{"coordinates":[15.432378,53.160227],"type":"Point"},"properties":{"osm_id":"2892376409","tag":{"amenity":"waste_basket"}},"type":"Feature"},
	{"geometry":{"coordinates":[15.42648,53.160685],"type":"Point"},"properties":{"osm_id":"2892376410","tag":{"amenity":"recycling","recycling:cans":"yes","recycling:paper":"no","recycling:scrap_metal":"yes","recycling_type":"container"}},"type":"Feature"},
	{"geometry":{"coordinates":[15.425154,53.16149],"type":"Point"},"properties":{"osm_id":"2892376414","tag":{"amenity":"waste_basket"}},"type":"Feature"},
	{"geometry":{"coordinates":[15.425364,53.161563],"type":"Point"},"properties":{"osm_id":"2892376415","tag":{"amenity":"waste_basket"}},"type":"Feature"},
	{"geometry":{"coordinates":[15.429973,53.161834],"type":"Point"},"properties":{"osm_id":"2892376416","tag":{"amenity":"waste_basket"}},"type":"Feature"},
	{"geometry":{"coordinates":[15.424122,53.162225],"type":"Point"},"properties":{"osm_id":"2892376417","tag":{"amenity":"waste_basket"}},"type":"Feature"},
	{"geometry":{"coordinates":[15.412988,53.164215],"type":"Point"},"properties":{"osm_id":"2892376597","tag":{"amenity":"waste_basket"}},"type":"Feature"},
	{"geometry":{"coordinates":[15.421507,53.164227],"type":"Point"},"properties":{"osm_id":"2892376598","tag":{"amenity":"waste_basket"}},"type":"Feature"},
	{"geometry":{"coordinates":[15.424178,53.164263],"type":"Point"},"properties":{"osm_id":"2892376599","tag":{"amenity":"waste_basket"}},"type":"Feature"},
	{"geometry":{"coordinates":[15.416989,53.164281],"type":"Point"},"properties":{"osm_id":"2892376600","tag":{"amenity":"waste_basket"}},"type":"Feature"},
	{"geometry":{"coordinates":[15.417241,53.164281],"type":"Point"},"properties":{"osm_id":"2892376601","tag":{"amenity":"waste_basket"}},"type":"Feature"},
	{"geometry":{"coordinates":[15.417155,53.164386],"type":"Point"},"properties":{"osm_id":"2892376602","tag":{"amenity":"waste_basket"}},"type":"Feature"},
	{"geometry":{"coordinates":[15.416894,53.164391],"type":"Point"},"properties":{"osm_id":"2892376603","tag":{"amenity":"waste_basket"}},"type":"Feature"},
	{"geometry":{"coordinates":[15.417082,53.164458],"type":"Point"},"properties":{"osm_id":"2892376604","tag":{"amenity":"waste_basket"}},"type":"Feature"},
	{"geometry":{"coordinates":[15.418883,53.167923],"type":"Point"},"properties":{"osm_id":"2892376605","tag":{"amenity":"waste_basket"}},"type":"Feature"},
	{"geometry":{"coordinates":[15.418555,53.167982],"type":"Point"},"properties":{"osm_id":"2892376606","tag":{"amenity":"waste_basket"}},"type":"Feature"},
	{"geometry":{"coordinates":[15.41725,53.172744],"type":"Point"},"properties":{"osm_id":"2892376610","tag":{"amenity":"waste_basket"}},"type":"Feature"},
	{"geometry":{"coordinates":[15.416784,53.164515],"type":"Point"},"properties":{"osm_id":"2892376701","tag":{"amenity":"waste_basket"}},"type":"Feature"},
	{"geometry":{"coordinates":[15.423341,53.164543],"type":"Point"},"properties":{"osm_id":"2892376702","tag":{"amenity":"waste_basket"}},"type":"Feature"},
	{"geometry":{"coordinates":[15.416994,53.164568],"type":"Point"},"properties":{"osm_id":"2892376703","tag":{"amenity":"waste_basket"}},"type":"Feature"},
	{"geometry":{"coordinates":[15.412671,53.164594],"type":"Point"},"properties":{"osm_id":"2892376704","tag":{"amenity":"waste_basket"}},"type":"Feature"},
	{"geometry":{"coordinates":[15.418275,53.164651],"type":"Point"},"properties":{"osm_id":"2892376705","tag":{"amenity":"waste_basket"}},"type":"Feature"},
	{"geometry":{"coordinates":[15.416371,53.165292],"type":"Point"},"properties":{"osm_id":"2892376755","tag":{"amenity":"waste_basket"}},"type":"Feature"},
	{"geometry":{"coordinates":[15.419983,53.165305],"type":"Point"},"properties":{"osm_id":"2892376756","tag":{"amenity":"waste_basket"}},"type":"Feature"},
	{"geometry":{"coordinates":[15.408754,53.16588],"type":"Point"},"properties":{"osm_id":"2892376758","tag":{"amenity":"waste_basket"}},"type":"Feature"},
	{"geometry":{"coordinates":[15.408807,53.165901],"type":"Point"},"properties":{"osm_id":"2892376759","tag":{"amenity":"waste_basket"}},"type":"Feature"},
	{"geometry":{"coordinates":[15.404418,53.165922],"type":"Point"},"properties":{"osm_id":"2892376760","tag":{"amenity":"waste_basket"}},"type":"Feature"},
	{"geometry":{"coordinates":[15.420172,53.165999],"type":"Point"},"properties":{"osm_id":"2892376761","tag":{"amenity":"waste_basket"}},"type":"Feature"},
	{"geometry":{"coordinates":[15.414557,53.16604],"type":"Point"},"properties":{"osm_id":"2892376762","tag":{"amenity":"waste_basket"}},"type":"Feature"},
	{"geometry":{"coordinates":[15.409908,53.166053],"type":"Point"},"properties":{"osm_id":"2892376818","tag":{"amenity":"waste_basket"}},"type":"Feature"},
	{"geometry":{"coordinates":[15.414904,53.166068],"type":"Point"},"properties":{"osm_id":"2892376819","tag":{"amenity":"waste_basket"}},"type":"Feature"},
	{"geometry":{"coordinates":[15.417956,53.165094],"type":"Point"},"properties":{"osm_id":"2892377001","tag":{"amenity":"waste_basket"}},"type":"Feature"},
	{"geometry":{"coordinates":[15.412177,53.165114],"type":"Point"},"properties":{"osm_id":"2892377002","tag":{"amenity":"waste_basket"}},"type":"Feature"},
	{"geometry":{"coordinates":[15.4139,53.167224],"type":"Point"},"properties":{"osm_id":"2892377122","tag":{"amenity":"waste_basket"}},"type":"Feature"},
	{"geometry":{"coordinates":[15.414336,53.167263],"type":"Point"},"properties":{"osm_id":"2892377123","tag":{"amenity":"waste_basket"}},"type":"Feature"},
	{"geometry":{"coordinates":[15.41442,53.16727],"type":"Point"},"properties":{"osm_id":"2892377124","tag":{"amenity":"waste_basket"}},"type":"Feature"},
	{"geometry":{"coordinates":[15.41464,53.167293],"type":"Point"},"properties":{"osm_id":"2892377125","tag":{"amenity":"waste_basket"}},"type":"Feature"},
	{"geometry":{"coordinates":[15.416015,53.16738],"type":"Point"},"properties":{"osm_id":"2892377126","tag":{"amenity":"waste_basket"}},"type":"Feature"},
	{"geometry":{"coordinates":[15.413974,53.167392],"type":"Point"},"properties":{"osm_id":"2892377127","tag":{"amenity":"waste_basket"}},"type":"Feature"},
	{"geometry":{"coordinates":[15.414172,53.167456],"type":"Point"},"properties":{"osm_id":"2892377128","tag":{"amenity":"waste_basket"}},"type":"Feature"},
	{"geometry":{"coordinates":[15.41604,53.167494],"type":"Point"},"properties":{"osm_id":"2892377129","tag":{"amenity":"waste_basket"}},"type":"Feature"},
	{"geometry":{"coordinates":[15.418897,53.167812],"type":"Point"},"properties":{"osm_id":"2892377130","tag":{"amenity":"waste_basket"}},"type":"Feature"},
	{"geometry":{"coordinates":[15.418477,53.16783],"type":"Point"},"properties":{"osm_id":"2892377131","tag":{"amenity":"waste_basket"}},"type":"Feature"},
	{"geometry":{"coordinates":[15.413923,53.167905],"type":"Point"},"properties":{"osm_id":"2892377132","tag":{"amenity":"waste_basket"}},"type":"Feature"},
	{"geometry":{"coordinates":[15.418797,53.167997],"type":"Point"},"properties":{"osm_id":"2892377135","tag":{"amenity":"waste_basket"}},"type":"Feature"},
	{"geometry":{"coordinates":[15.417545,53.168033],"type":"Point"},"properties":{"osm_id":"2892377136","tag":{"amenity":"waste_basket"}},"type":"Feature"},
	{"geometry":{"coordinates":[15.418071,53.168065],"type":"Point"},"properties":{"osm_id":"2892377137","tag":{"amenity":"waste_basket"}},"type":"Feature"},
	{"geometry":{"coordinates":[15.413837,53.168118],"type":"Point"},"properties":{"osm_id":"2892377138","tag":{"amenity":"waste_basket"}},"type":"Feature"},
	{"geometry":{"coordinates":[15.418816,53.168119],"type":"Point"},"properties":{"osm_id":"2892377139","tag":{"amenity":"waste_basket"}},"type":"Feature"},
	{"geometry":{"coordinates":[15.413856,53.168185],"type":"Point"},"properties":{"osm_id":"2892377140","tag":{"amenity":"waste_basket"}},"type":"Feature"},
	{"geometry":{"coordinates":[15.413808,53.16834],"type":"Point"},"properties":{"osm_id":"2892377142","tag":{"amenity":"waste_basket"}},"type":"Feature"},
	{"geometry":{"coordinates":[15.413805,53.168465],"type":"Point"},"properties":{"osm_id":"2892377146","tag":{"amenity":"waste_basket"}},"type":"Feature"},
	{"geometry":{"coordinates":[15.419431,53.168531],"type":"Point"},"properties":{"osm_id":"2892377147","tag":{"amenity":"waste_basket"}},"type":"Feature"},
	{"geometry":{"coordinates":[15.413915,53.168539],"type":"Point"},"properties":{"osm_id":"2892377148","tag":{"amenity":"waste_basket"}},"type":"Feature"},
	{"geometry":{"coordinates":[15.413907,53.168576],"type":"Point"},"properties":{"osm_id":"2892377149","tag":{"amenity":"waste_basket"}},"type":"Feature"},
	{"geometry":{"coordinates":[15.422943,53.168746],"type":"Point"},"properties":{"osm_id":"2892377150","tag":{"amenity":"waste_basket"}},"type":"Feature"},
	{"geometry":{"coordinates":[15.414275,53.168781],"type":"Point"},"properties":{"osm_id":"2892377151","tag":{"amenity":"waste_basket"}},"type":"Feature"},
	{"geometry":{"coordinates":[15.419847,53.169124],"type":"Point"},"properties":{"osm_id":"2892377152","tag":{"amenity":"waste_basket"}},"type":"Feature"},
	{"geometry":{"coordinates":[15.418638,53.170645],"type":"Point"},"properties":{"osm_id":"2892377153","tag":{"amenity":"waste_basket"}},"type":"Feature"},
	{"geometry":{"coordinates":[15.42196,53.166069],"type":"Point"},"properties":{"osm_id":"2892377764","tag":{"amenity":"waste_basket"}},"type":"Feature"},
	{"geometry":{"coordinates":[15.410109,53.166072],"type":"Point"},"properties":{"osm_id":"2892377765","tag":{"amenity":"waste_basket"}},"type":"Feature"},
	{"geometry":{"coordinates":[15.410422,53.166094],"type":"Point"},"properties":{"osm_id":"2892377766","tag":{"amenity":"waste_basket"}},"type":"Feature"},
	{"geometry":{"coordinates":[15.404965,53.166095],"type":"Point"},"properties":{"osm_id":"2892377767","tag":{"amenity":"waste_basket"}},"type":"Feature"},
	{"geometry":{"coordinates":[15.422186,53.166137],"type":"Point"},"properties":{"osm_id":"2892377768","tag":{"amenity":"waste_basket"}},"type":"Feature"},
	{"geometry":{"coordinates":[15.405612,53.166158],"type":"Point"},"properties":{"osm_id":"2892377769","tag":{"amenity":"waste_basket"}},"type":"Feature"},
	{"geometry":{"coordinates":[15.406792,53.166348],"type":"Point"},"properties":{"osm_id":"2892377770","tag":{"amenity":"waste_basket"}},"type":"Feature"},
	{"geometry":{"coordinates":[15.406467,53.166437],"type":"Point"},"properties":{"osm_id":"2892377781","tag":{"amenity":"waste_basket"}},"type":"Feature"},
	{"geometry":{"coordinates":[15.413974,53.166479],"type":"Point"},"properties":{"osm_id":"2892378101","tag":{"amenity":"waste_basket"}},"type":"Feature"},
	{"geometry":{"coordinates":[15.407209,53.166482],"type":"Point"},"properties":{"osm_id":"2892378102","tag":{"amenity":"waste_basket"}},"type":"Feature"},
	{"geometry":{"coordinates":[15.418762,53.166514],"type":"Point"},"properties":{"osm_id":"2892378104","tag":{"amenity":"recycling","recycling_type":"container"}},"type":"Feature"},
	{"geometry":{"coordinates":[15.40776,53.166531],"type":"Point"},"properties":{"osm_id":"2892378105","tag":{"amenity":"waste_basket"}},"type":"Feature"},
	{"geometry":{"coordinates":[15.409059,53.166611],"type":"Point"},"properties":{"osm_id":"2892378286","tag":{"amenity":"waste_basket"}},"type":"Feature"},
	{"geometry":{"coordinates":[15.424266,53.166636],"type":"Point"},"properties":{"osm_id":"2892378287","tag":{"amenity":"waste_basket"}},"type":"Feature"},
	{"geometry":{"coordinates":[15.414107,53.166676],"type":"Point"},"properties":{"osm_id":"2892378288","tag":{"amenity":"waste_basket"}},"type":"Feature"},
	{"geometry":{"coordinates":[15.411668,53.166682],"type":"Point"},"properties":{"osm_id":"2892378289","tag":{"amenity":"waste_basket"}},"type":"Feature"},
	{"geometry":{"coordinates":[15.414157,53.166755],"type":"Point"},"properties":{"osm_id":"2892378290","tag":{"amenity":"waste_basket"}},"type":"Feature"},
	{"geometry":{"coordinates":[15.411227,53.166765],"type":"Point"},"properties":{"osm_id":"2892378292","tag":{"amenity":"waste_basket"}},"type":"Feature"},
	{"geometry":{"coordinates":[15.425277,53.166804],"type":"Point"},"properties":{"osm_id":"2892378293","tag":{"amenity":"waste_basket"}},"type":"Feature"},
	{"geometry":{"coordinates":[15.413388,53.166818],"type":"Point"},"properties":{"osm_id":"2892378294","tag":{"amenity":"waste_basket"}},"type":"Feature"},
	{"geometry":{"coordinates":[15.414028,53.166831],"type":"Point"},"properties":{"osm_id":"2892378295","tag":{"amenity":"waste_basket"}},"type":"Feature"},
	{"geometry":{"coordinates":[15.414044,53.166893],"type":"Point"},"properties":{"osm_id":"2892378296","tag":{"amenity":"waste_basket"}},"type":"Feature"},
	{"geometry":{"coordinates":[15.413374,53.166911],"type":"Point"},"properties":{"osm_id":"2892378297","tag":{"amenity":"waste_basket"}},"type":"Feature"},
	{"geometry":{"coordinates":[15.414388,53.167079],"type":"Point"},"properties":{"osm_id":"2892378298","tag":{"amenity":"waste_basket"}},"type":"Feature"},
	{"geometry":{"coordinates":[15.414521,53.167103],"type":"Point"},"properties":{"osm_id":"2892378299","tag":{"amenity":"waste_basket"}},"type":"Feature"},
	{"geometry":{"coordinates":[15.414622,53.167124],"type":"Point"},"properties":{"osm_id":"2892378300","tag":{"amenity":"waste_basket"}},"type":"Feature"},
	{"geometry":{"coordinates":[15.413832,53.16715],"type":"Point"},"properties":{"osm_id":"2892378601","tag":{"amenity":"waste_basket"}},"type":"Feature"},
	{"geometry":{"coordinates":[15.413875,53.167176],"type":"Point"},"properties":{"osm_id":"2892378602","tag":{"amenity":"waste_basket"}},"type":"Feature"},
	{"geometry":{"coordinates":[15.414444,53.167221],"type":"Point"},"properties":{"osm_id":"2892378603","tag":{"amenity":"waste_basket"}},"type":"Feature"},
	{"geometry":{"coordinates":[15.424322,53.167484],"type":"Point"},"properties":{"osm_id":"2892378904","tag":{"amenity":"waste_basket"}},"type":"Feature"},
	{"geometry":{"coordinates":[15.41403,53.16759],"type":"Point"},"properties":{"osm_id":"2892379009","tag":{"amenity":"waste_basket"}},"type":"Feature"},
	{"geometry":{"coordinates":[15.4351,53.167643],"type":"Point"},"properties":{"osm_id":"2892379010","tag":{"amenity":"waste_basket"}},"type":"Feature"},
	{"geometry":{"coordinates":[15.41451,53.167691],"type":"Point"},"properties":{"osm_id":"2892379011","tag":{"amenity":"waste_basket"}},"type":"Feature"},
	{"geometry":{"coordinates":[15.418535,53.16777],"type":"Point"},"properties":{"osm_id":"2892379012","tag":{"amenity":"waste_basket"}},"type":"Feature"},
	{"geometry":{"coordinates":[15.413912,53.167783],"type":"Point"},"properties":{"osm_id":"2892379013","tag":{"amenity":"waste_basket"}},"type":"Feature"},
	{"geometry":{"coordinates":[15.418569,53.168371],"type":"Point"},"properties":{"osm_id":"2892379129","tag":{"amenity":"waste_basket"}},"type":"Feature"},
	{"geometry":{"coordinates":[15.417934,53.16915],"type":"Point"},"properties":{"osm_id":"2892379630","tag":{"amenity":"recycling","recycling_type":"container"}},"type":"Feature"},
	{"geometry":{"coordinates":[15.419516,53.169184],"type":"Point"},"properties":{"osm_id":"2892379631","tag":{"amenity":"waste_basket"}},"type":"Feature"},
	{"geometry":{"coordinates":[15.419435,53.169282],"type":"Point"},"properties":{"osm_id":"2892379632","tag":{"amenity":"waste_basket"}},"type":"Feature"},
	{"geometry":{"coordinates":[15.407262,53.169945],"type":"Point"},"properties":{"osm_id":"2892379636","tag":{"amenity":"recycling","recycling:cans":"yes","recycling:glass":"yes","recycling:paper":"no","recycling:scrap_metal":"yes","recycling_type":"container"}},"type":"Feature"},
	{"geometry":{"coordinates":[15.418909,53.170203],"type":"Point"},"properties":{"osm_id":"2892379639","tag":{"amenity":"waste_basket"}},"type":"Feature"},
	{"geometry":{"coordinates":[15.418535,53.171265],"type":"Point"},"properties":{"osm_id":"2892379641","tag":{"amenity":"waste_basket"}},"type":"Feature"},
	{"geometry":{"coordinates":[15.417968,53.171628],"type":"Point"},"properties":{"osm_id":"2892379644","tag":{"amenity":"waste_basket"}},"type":"Feature"},
	{"geometry":{"coordinates":[15.417815,53.171848],"type":"Point"},"properties":{"osm_id":"2892379646","tag":{"amenity":"waste_basket"}},"type":"Feature"},
	{"geometry":{"coordinates":[15.443195,53.131339],"type":"Point"},"properties":{"osm_id":"2926084320","tag":{"amenity":"recycling","recycling:cans":"yes","recycling:glass":"yes","recycling:paper":"yes","recycling_type":"container"}},"type":"Feature"},
	{"geometry":{"coordinates":[15.441576,53.131365],"type":"Point"},"properties":{"osm_id":"2926084321","tag":{"amenity":"recycling","recycling:cans":"yes","recycling_type":"container"}},"type":"Feature"},
	{"geometry":{"coordinates":[15.421334,53.149136],"type":"Point"},"properties":{"osm_id":"2962613211","tag":{"amenity":"recycling","recycling:cans":"yes","recycling_type":"container"}},"type":"Feature"},
	{"geometry":{"coordinates":[15.407727,53.129172],"type":"Point"},"properties":{"osm_id":"2972605910","tag":{"amenity":"recycling","recycling:cans":"yes","recycling_type":"container"}},"type":"Feature"},
	{"geometry":{"coordinates":[15.418568,53.165944],"type":"Point"},"properties":{"osm_id":"3670288121","tag":{"amenity":"waste_basket"}},"type":"Feature"},
	{"geometry":{"coordinates":[15.418329,53.166162],"type":"Point"},"properties":{"osm_id":"3670288636","tag":{"amenity":"waste_basket"}},"type":"Feature"},
	{"geometry":{"coordinates":[15.418707,53.166177],"type":"Point"},"properties":{"osm_id":"3670288641","tag":{"amenity":"waste_basket"}},"type":"Feature"},
	{"geometry":{"coordinates":[15.417827,53.164895],"type":"Point"},"properties":{"osm_id":"3672123181","tag":{"amenity":"waste_basket"}},"type":"Feature"},
	{"geometry":{"coordinates":[15.443124,53.131477],"type":"Point"},"properties":{"osm_id":"3975846108","tag":{"amenity":"waste_basket"}},"type":"Feature"},
	{"geometry":{"coordinates":[15.442322,53.131847],"type":"Point"},"properties":{"osm_id":"3975846109","tag":{"amenity":"waste_basket"}},"type":"Feature"},
	{"geometry":{"coordinates":[15.418739,53.166513],"type":"Point"},"properties":{"osm_id":"7040484586","tag":{"amenity":"recycling","recycling_type":"container"}},"type":"Feature"}
]
}
