{
"type": "FeatureCollection",
"features": [
	{"geometry":{"coordinates":[15.402427,51.920339],"type":"Point"},"properties":{"osm_id":"4300778605","tag":{"amenity":"recycling","recycling:clothes":"yes"}},"type":"Feature"},
	{"geometry":{"coordinates":[15.457534,51.93217],"type":"Point"},"properties":{"osm_id":"4971134900","tag":{"amenity":"waste_basket"}},"type":"Feature"},
	{"geometry":{"coordinates":[15.457611,51.932163],"type":"Point"},"properties":{"osm_id":"4971134904","tag":{"amenity":"waste_basket"}},"type":"Feature"},
	{"geometry":{"coordinates":[15.457743,51.932188],"type":"Point"},"properties":{"osm_id":"4971134906","tag":{"amenity":"waste_basket"}},"type":"Feature"},
	{"geometry":{"coordinates":[15.457282,51.932316],"type":"Point"},"properties":{"osm_id":"4971134908","tag":{"amenity":"waste_basket"}},"type":"Feature"},
	{"geometry":{"coordinates":[15.456611,51.932744],"type":"Point"},"properties":{"osm_id":"4971135835","tag":{"amenity":"waste_basket"}},"type":"Feature"},
	{"geometry":{"coordinates":[15.466063,51.940218],"type":"Point"},"properties":{"osm_id":"4982386495","tag":{"amenity":"waste_basket"}},"type":"Feature"},
	{"geometry":{"coordinates":[15.466817,51.942138],"type":"Point"},"properties":{"osm_id":"5057787041","tag":{"amenity":"waste_basket"}},"type":"Feature"},
	{"geometry":{"coordinates":[15.465176,51.943241],"type":"Point"},"properties":{"osm_id":"5057787047","tag":{"amenity":"waste_basket"}},"type":"Feature"},
	{"geometry":{"coordinates":[15.46862,51.932558],"type":"Point"},"properties":{"osm_id":"5058599289","tag":{"amenity":"waste_basket"}},"type":"Feature"},
	{"geometry":{"coordinates":[15.455257,51.931023],"type":"Point"},"properties":{"osm_id":"5059630050","tag":{"amenity":"waste_basket"}},"type":"Feature"},
	{"geometry":{"coordinates":[15.45596,51.931146],"type":"Point"},"properties":{"osm_id":"5059630052","tag":{"amenity":"waste_basket"}},"type":"Feature"},
	{"geometry":{"coordinates":[15.456341,51.931236],"type":"Point"},"properties":{"osm_id":"5059630054","tag":{"amenity":"waste_basket"}},"type":"Feature"},
	{"geometry":{"coordinates":[15.456625,51.931305],"type":"Point"},"properties":{"osm_id":"5059630056","tag":{"amenity":"waste_basket"}},"type":"Feature"},
	{"geometry":{"coordinates":[15.457592,51.931967],"type":"Point"},"properties":{"osm_id":"5059630059","tag":{"amenity":"waste_basket"}},"type":"Feature"},
	{"geometry":{"coordinates":[15.462529,51.943567],"type":"Point"},"properties":{"osm_id":"5133302450","tag":{"amenity":"waste_basket"}},"type":"Feature"},
	{"geometry":{"coordinates":[15.462441,51.944097],"type":"Point"},"properties":{"osm_id":"5133302451","tag":{"amenity":"waste_basket"}},"type":"Feature"},
	{"geometry":{"coordinates":[15.453789,51.943432],"type":"Point"},"properties":{"osm_id":"5288178761","tag":{"amenity":"recycling","recycling:clothes":"yes","recycling_type":"container"}},"type":"Feature"},
	{"geometry":{"coordinates":[15.459413,51.915386],"type":"Point"},"properties":{"osm_id":"5290421933","tag":{"amenity":"waste_basket","image":"https://images.mapillary.com/xEraRHI5twcJrDJz58iKgg/thumb-2048.jpg","mapillary":"https://www.mapillary.com/map/im/xEraRHI5twcJrDJz58iKgg"}},"type":"Feature"},
	{"geometry":{"coordinates":[15.459305,51.915095],"type":"Point"},"properties":{"osm_id":"5290421942","tag":{"amenity":"waste_disposal","image":"https://images.mapillary.com/RkjZaL3-fdGpXEjwmiW6bw/thumb-2048.jpg","mapillary":"https://www.mapillary.com/map/im/RkjZaL3-fdGpXEjwmiW6bw"}},"type":"Feature"},
	{"geometry":{"coordinates":[15.46642,51.939782],"type":"Point"},"properties":{"osm_id":"5455170831","tag":{"amenity":"waste_basket"}},"type":"Feature"},
	{"geometry":{"coordinates":[15.466347,51.93973],"type":"Point"},"properties":{"osm_id":"5455170832","tag":{"amenity":"waste_basket"}},"type":"Feature"},
	{"geometry":{"coordinates":[15.466242,51.939783],"type":"Point"},"properties":{"osm_id":"5455170833","tag":{"amenity":"waste_basket"}},"type":"Feature"},
	{"geometry":{"coordinates":[15.466312,51.939839],"type":"Point"},"properties":{"osm_id":"5455170834","tag":{"amenity":"waste_basket"}},"type":"Feature"},
	{"geometry":{"coordinates":[15.465671,51.939816],"type":"Point"},"properties":{"osm_id":"5455170836","tag":{"amenity":"recycling","recycling:clothes":"yes","recycling_type":"container"}},"type":"Feature"},
	{"geometry":{"coordinates":[15.422822,51.909165],"type":"Point"},"properties":{"osm_id":"5536547820","tag":{"amenity":"waste_disposal"}},"type":"Feature"},
	{"geometry":{"coordinates":[15.422782,51.909167],"type":"Point"},"properties":{"osm_id":"5536547921","tag":{"amenity":"waste_basket"}},"type":"Feature"},
	{"geometry":{"coordinates":[15.423067,51.909162],"type":"Point"},"properties":{"osm_id":"5536547923","tag":{"amenity":"waste_basket"}},"type":"Feature"},
	{"geometry":{"coordinates":[15.406832,51.897883],"type":"Point"},"properties":{"osm_id":"5621204139","tag":{"amenity":"recycling","recycling:clothes":"yes","recycling_type":"container"}},"type":"Feature"},
	{"geometry":{"coordinates":[15.458612,51.926825],"type":"Point"},"properties":{"osm_id":"5622972464","tag":{"amenity":"waste_basket","image":"https://images.mapillary.com/Ang55V6IOixorL9_hPKWgQ/thumb-2048.jpg","mapillary":"https://www.mapillary.com/map/im/Ang55V6IOixorL9_hPKWgQ"}},"type":"Feature"},
	{"geometry":{"coordinates":[15.458955,51.926926],"type":"Point"},"properties":{"osm_id":"5622972467","tag":{"amenity":"waste_basket"}},"type":"Feature"},
	{"geometry":{"coordinates":[15.459124,51.926984],"type":"Point"},"properties":{"osm_id":"5622972469","tag":{"amenity":"waste_basket"}},"type":"Feature"},
	{"geometry":{"coordinates":[15.458803,51.927048],"type":"Point"},"properties":{"osm_id":"5622972471","tag":{"amenity":"waste_basket"}},"type":"Feature"},
	{"geometry":{"coordinates":[15.431235,51.92239],"type":"Point"},"properties":{"osm_id":"5625061875","tag":{"amenity":"recycling","recycling:clothes":"yes","recycling_type":"container"}},"type":"Feature"},
	{"geometry":{"coordinates":[15.432329,51.92228],"type":"Point"},"properties":{"osm_id":"5625061877","tag":{"amenity":"waste_basket"}},"type":"Feature"},
	{"geometry":{"coordinates":[15.46356,51.927578],"type":"Point"},"properties":{"osm_id":"6341129257","tag":{"amenity":"waste_basket","image":"https://images.mapillary.com/Z2SHNEdjS_6KBWsE42Y_Hg/thumb-2048.jpg","mapillary":"https://www.mapillary.com/map/im/Z2SHNEdjS_6KBWsE42Y_Hg"}},"type":"Feature"},
	{"geometry":{"coordinates":[15.463618,51.927594],"type":"Point"},"properties":{"osm_id":"6341129262","tag":{"amenity":"waste_basket","image":"https://images.mapillary.com/acUxnW8JPOYiaVNpl5JpAA/thumb-2048.jpg","mapillary":"https://www.mapillary.com/map/im/acUxnW8JPOYiaVNpl5JpAA"}},"type":"Feature"},
	{"geometry":{"coordinates":[15.459445,51.926507],"type":"Point"},"properties":{"osm_id":"6341140272","tag":{"amenity":"waste_basket","image":"https://images.mapillary.com/FOtUOnYmDUpxT_jM16zpiw/thumb-2048.jpg","mapillary":"https://www.mapillary.com/map/im/FOtUOnYmDUpxT_jM16zpiw"}},"type":"Feature"},
	{"geometry":{"coordinates":[15.459632,51.926285],"type":"Point"},"properties":{"osm_id":"6341140273","tag":{"amenity":"waste_basket"}},"type":"Feature"},
	{"geometry":{"coordinates":[15.460589,51.918503],"type":"Point"},"properties":{"osm_id":"6342094350","tag":{"amenity":"waste_basket","image":"https://images.mapillary.com/0tw2nTokcHB-CFN-v03MWQ/thumb-2048.jpg","mapillary":"https://www.mapillary.com/map/im/0tw2nTokcHB-CFN-v03MWQ"}},"type":"Feature"},
	{"geometry":{"coordinates":[15.465833,51.919921],"type":"Point"},"properties":{"osm_id":"6342185053","tag":{"amenity":"waste_basket","image":"https://images.mapillary.com/6RC_T61ZVH-_c-dhblEphg/thumb-2048.jpg","mapillary":"https://www.mapillary.com/map/im/6RC_T61ZVH-_c-dhblEphg"}},"type":"Feature"},
	{"geometry":{"coordinates":[15.462554,51.919158],"type":"Point"},"properties":{"osm_id":"6342185062","tag":{"amenity":"waste_basket","image":"https://images.mapillary.com/FSNgWR2F4IxzfPpZrZEbTA/thumb-2048.jpg","mapillary":"https://www.mapillary.com/map/im/FSNgWR2F4IxzfPpZrZEbTA"}},"type":"Feature"},
	{"geometry":{"coordinates":[15.45566,51.921597],"type":"Point"},"properties":{"osm_id":"6342185074","tag":{"amenity":"waste_basket","image":"https://images.mapillary.com/_6Bb7FxSBW0kxtVLXJDaLA/thumb-2048.jpg","mapillary":"https://www.mapillary.com/map/im/_6Bb7FxSBW0kxtVLXJDaLA"}},"type":"Feature"},
	{"geometry":{"coordinates":[15.461748,51.930025],"type":"Point"},"properties":{"osm_id":"6342546499","tag":{"amenity":"waste_basket","image":"https://images.mapillary.com/AnKofc0JRyrrsyqKH175pQ/thumb-2048.jpg","mapillary":"https://www.mapillary.com/map/im/AnKofc0JRyrrsyqKH175pQ"}},"type":"Feature"},
	{"geometry":{"coordinates":[15.453147,51.943559],"type":"Point"},"properties":{"osm_id":"7058762511","tag":{"amenity":"recycling","recycling_type":"container"}},"type":"Feature"},
	{"geometry":{"coordinates":[15.453165,51.94356],"type":"Point"},"properties":{"osm_id":"7058762512","tag":{"amenity":"recycling","recycling_type":"container"}},"type":"Feature"}
]
}
