{
"type": "FeatureCollection",
"features": [
	{"geometry":{"coordinates":[15.415449,51.029697],"type":"Point"},"properties":{"osm_id":"4419521595","tag":{"access":"private","amenity":"waste_disposal","waste":"mixed"}},"type":"Feature"},
	{"geometry":{"coordinates":[15.419531,51.032185],"type":"Point"},"properties":{"osm_id":"4421144892","tag":{"amenity":"recycling","recycling:glass":"yes","recycling:paper":"yes","recycling_type":"container"}},"type":"Feature"},
	{"geometry":{"coordinates":[15.41774,51.030118],"type":"Point"},"properties":{"osm_id":"5139158582","tag":{"access":"private","amenity":"waste_disposal","waste":"household"}},"type":"Feature"},
	{"geometry":{"coordinates":[15.415616,51.035388],"type":"Point"},"properties":{"osm_id":"5139169382","tag":{"amenity":"waste_disposal"}},"type":"Feature"},
	{"geometry":{"coordinates":[15.416387,51.029373],"type":"Point"},"properties":{"osm_id":"5620732340","tag":{"access":"private","amenity":"waste_disposal"}},"type":"Feature"},
	{"geometry":{"coordinates":[15.41805,51.033455],"type":"Point"},"properties":{"osm_id":"5620732379","tag":{"amenity":"waste_disposal"}},"type":"Feature"},
	{"geometry":{"coordinates":[15.412608,51.028488],"type":"Point"},"properties":{"osm_id":"5652005302","tag":{"access":"private","amenity":"waste_disposal"}},"type":"Feature"},
	{"geometry":{"coordinates":[15.409663,51.040678],"type":"Point"},"properties":{"osm_id":"7029884312","tag":{"amenity":"waste_disposal"}},"type":"Feature"}
]
}
