{
"type": "FeatureCollection",
"features": [
	{"geometry":{"coordinates":[15.428334,47.111704],"type":"Point"},"properties":{"osm_id":"1391510784","tag":{"amenity":"waste_basket"}},"type":"Feature"},
	{"geometry":{"coordinates":[15.394211,47.100572],"type":"Point"},"properties":{"osm_id":"1726316424","tag":{"amenity":"recycling","recycling:cans":"yes","recycling:glass":"yes","recycling_type":"container"}},"type":"Feature"},
	{"geometry":{"coordinates":[15.394224,47.100231],"type":"Point"},"properties":{"osm_id":"1726348326","tag":{"amenity":"waste_basket"}},"type":"Feature"},
	{"geometry":{"coordinates":[15.431659,47.10094],"type":"Point"},"properties":{"osm_id":"1765438950","tag":{"amenity":"recycling","recycling:cans":"yes","recycling:clothes":"yes","recycling:clothes:operator":"humana","recycling:glass":"yes","recycling:waste":"yes","recycling_type":"container"}},"type":"Feature"},
	{"geometry":{"coordinates":[15.393785,47.100159],"type":"Point"},"properties":{"osm_id":"1777742223","tag":{"amenity":"waste_basket"}},"type":"Feature"},
	{"geometry":{"coordinates":[15.420179,47.102099],"type":"Point"},"properties":{"osm_id":"1798478524","tag":{"access":"private","amenity":"recycling","recycling_type":"container"}},"type":"Feature"},
	{"geometry":{"coordinates":[15.421006,47.10221],"type":"Point"},"properties":{"osm_id":"1798478533","tag":{"access":"private","amenity":"recycling","recycling_type":"container"}},"type":"Feature"},
	{"geometry":{"coordinates":[15.42012,47.102687],"type":"Point"},"properties":{"osm_id":"1798478648","tag":{"amenity":"recycling","recycling_type":"container"}},"type":"Feature"},
	{"geometry":{"coordinates":[15.416816,47.100619],"type":"Point"},"properties":{"osm_id":"1798761626","tag":{"amenity":"waste_basket"}},"type":"Feature"},
	{"geometry":{"coordinates":[15.416901,47.100832],"type":"Point"},"properties":{"osm_id":"1798761848","tag":{"amenity":"waste_basket"}},"type":"Feature"},
	{"geometry":{"coordinates":[15.418699,47.144992],"type":"Point"},"properties":{"osm_id":"1798802516","tag":{"amenity":"waste_basket"}},"type":"Feature"},
	{"geometry":{"coordinates":[15.424893,47.107643],"type":"Point"},"properties":{"osm_id":"1802480455","tag":{"amenity":"waste_basket"}},"type":"Feature"},
	{"geometry":{"coordinates":[15.424964,47.10764],"type":"Point"},"properties":{"osm_id":"1802480466","tag":{"amenity":"waste_basket"}},"type":"Feature"},
	{"geometry":{"coordinates":[15.426056,47.105895],"type":"Point"},"properties":{"osm_id":"1802674606","tag":{"amenity":"waste_basket"}},"type":"Feature"},
	{"geometry":{"coordinates":[15.4195,47.102661],"type":"Point"},"properties":{"osm_id":"1853202720","tag":{"amenity":"recycling"}},"type":"Feature"},
	{"geometry":{"coordinates":[15.43697,47.101152],"type":"Point"},"properties":{"osm_id":"1908157433","tag":{"access":"private","amenity":"recycling","recycling_type":"container"}},"type":"Feature"},
	{"geometry":{"coordinates":[15.422072,47.102883],"type":"Point"},"properties":{"osm_id":"1997336086","tag":{"amenity":"recycling","operator":"humana","recycling:clothes":"yes","recycling_type":"container"}},"type":"Feature"},
	{"geometry":{"coordinates":[15.438876,47.102142],"type":"Point"},"properties":{"osm_id":"2116228453","tag":{"amenity":"recycling","recycling_type":"container"}},"type":"Feature"},
	{"geometry":{"coordinates":[15.42098,47.10281],"type":"Point"},"properties":{"osm_id":"2121793472","tag":{"amenity":"waste_basket"}},"type":"Feature"},
	{"geometry":{"coordinates":[15.436336,47.101678],"type":"Point"},"properties":{"osm_id":"2136753776","tag":{"amenity":"recycling","operator":"Holding Graz","recycling:clothes":"yes","recycling:glass_bottles":"yes","recycling_type":"container"}},"type":"Feature"},
	{"geometry":{"coordinates":[15.421298,47.101168],"type":"Point"},"properties":{"osm_id":"2141641060","tag":{"amenity":"recycling","recycling:cans":"yes","recycling:clothes":"yes","recycling:clothes:operator":"ASA","recycling:glass":"yes","recycling:paper":"yes"}},"type":"Feature"},
	{"geometry":{"coordinates":[15.422148,47.103128],"type":"Point"},"properties":{"osm_id":"2141641076","tag":{"amenity":"recycling","operator":"BAN","recycling:clothes":"yes","recycling_type":"container"}},"type":"Feature"},
	{"geometry":{"coordinates":[15.421005,47.10237],"type":"Point"},"properties":{"osm_id":"2241499576","tag":{"access":"private","amenity":"recycling","recycling_type":"container"}},"type":"Feature"},
	{"geometry":{"coordinates":[15.425612,47.101744],"type":"Point"},"properties":{"osm_id":"2341231934","tag":{"amenity":"recycling","covered":"yes","recycling:cans":"yes","recycling:glass_bottles":"yes","recycling_type":"container"}},"type":"Feature"},
	{"geometry":{"coordinates":[15.418727,47.104812],"type":"Point"},"properties":{"osm_id":"2385486114","tag":{"amenity":"waste_basket"}},"type":"Feature"},
	{"geometry":{"coordinates":[15.413959,47.104953],"type":"Point"},"properties":{"osm_id":"2385513109","tag":{"amenity":"waste_basket"}},"type":"Feature"},
	{"geometry":{"coordinates":[15.426543,47.104073],"type":"Point"},"properties":{"osm_id":"2385833854","tag":{"amenity":"recycling","operator":"Holding Graz","recycling:clothes":"yes","recycling_type":"container"}},"type":"Feature"},
	{"geometry":{"coordinates":[15.421274,47.100892],"type":"Point"},"properties":{"osm_id":"2388339090","tag":{"amenity":"waste_basket"}},"type":"Feature"},
	{"geometry":{"coordinates":[15.421032,47.100992],"type":"Point"},"properties":{"osm_id":"2388339091","tag":{"access":"private","amenity":"recycling"}},"type":"Feature"},
	{"geometry":{"coordinates":[15.422619,47.10059],"type":"Point"},"properties":{"osm_id":"2388348047","tag":{"access":"private","amenity":"recycling"}},"type":"Feature"},
	{"geometry":{"coordinates":[15.421362,47.101703],"type":"Point"},"properties":{"osm_id":"2388360382","tag":{"amenity":"waste_basket"}},"type":"Feature"},
	{"geometry":{"coordinates":[15.424999,47.107642],"type":"Point"},"properties":{"osm_id":"2409467353","tag":{"amenity":"waste_basket"}},"type":"Feature"},
	{"geometry":{"coordinates":[15.419065,47.101005],"type":"Point"},"properties":{"osm_id":"2448322506","tag":{"amenity":"recycling","recycling:paper":"yes","recycling_type":"container"}},"type":"Feature"},
	{"geometry":{"coordinates":[15.421039,47.104491],"type":"Point"},"properties":{"osm_id":"2448322512","tag":{"amenity":"waste_basket"}},"type":"Feature"},
	{"geometry":{"coordinates":[15.400957,47.10583],"type":"Point"},"properties":{"osm_id":"2449164198","tag":{"amenity":"waste_basket"}},"type":"Feature"},
	{"geometry":{"coordinates":[15.413815,47.110087],"type":"Point"},"properties":{"osm_id":"2449178448","tag":{"amenity":"recycling","recycling:cans":"yes","recycling:clothes":"yes","recycling:glass_bottles":"yes","recycling_type":"container"}},"type":"Feature"},
	{"geometry":{"coordinates":[15.431607,47.101678],"type":"Point"},"properties":{"osm_id":"2488761669","tag":{"amenity":"waste_basket"}},"type":"Feature"},
	{"geometry":{"coordinates":[15.431592,47.101512],"type":"Point"},"properties":{"osm_id":"2488761670","tag":{"amenity":"waste_basket"}},"type":"Feature"},
	{"geometry":{"coordinates":[15.431315,47.101172],"type":"Point"},"properties":{"osm_id":"2488761671","tag":{"amenity":"waste_basket"}},"type":"Feature"},
	{"geometry":{"coordinates":[15.43113,47.101087],"type":"Point"},"properties":{"osm_id":"2488761672","tag":{"amenity":"waste_basket"}},"type":"Feature"},
	{"geometry":{"coordinates":[15.431379,47.101415],"type":"Point"},"properties":{"osm_id":"2488761673","tag":{"amenity":"waste_basket"}},"type":"Feature"},
	{"geometry":{"coordinates":[15.431097,47.100931],"type":"Point"},"properties":{"osm_id":"2488761675","tag":{"amenity":"waste_basket"}},"type":"Feature"},
	{"geometry":{"coordinates":[15.431393,47.101807],"type":"Point"},"properties":{"osm_id":"2497226404","tag":{"amenity":"recycling","recycling:cans":"yes","recycling:glass":"yes","recycling:paper":"yes","recycling_type":"container"}},"type":"Feature"},
	{"geometry":{"coordinates":[15.431448,47.101813],"type":"Point"},"properties":{"osm_id":"2497226409","tag":{"amenity":"waste_disposal"}},"type":"Feature"},
	{"geometry":{"coordinates":[15.430009,47.101824],"type":"Point"},"properties":{"osm_id":"2497226412","tag":{"amenity":"waste_disposal"}},"type":"Feature"},
	{"geometry":{"coordinates":[15.42994,47.10184],"type":"Point"},"properties":{"osm_id":"2497226415","tag":{"amenity":"recycling"}},"type":"Feature"},
	{"geometry":{"coordinates":[15.429087,47.101884],"type":"Point"},"properties":{"osm_id":"2497226417","tag":{"amenity":"recycling"}},"type":"Feature"},
	{"geometry":{"coordinates":[15.394527,47.100404],"type":"Point"},"properties":{"osm_id":"2519851259","tag":{"amenity":"waste_basket"}},"type":"Feature"},
	{"geometry":{"coordinates":[15.394324,47.100472],"type":"Point"},"properties":{"osm_id":"2519851271","tag":{"amenity":"waste_basket"}},"type":"Feature"},
	{"geometry":{"coordinates":[15.394664,47.1005],"type":"Point"},"properties":{"osm_id":"2519851280","tag":{"amenity":"waste_basket"}},"type":"Feature"},
	{"geometry":{"coordinates":[15.394375,47.100567],"type":"Point"},"properties":{"osm_id":"2519851290","tag":{"amenity":"waste_basket"}},"type":"Feature"},
	{"geometry":{"coordinates":[15.42651,47.115502],"type":"Point"},"properties":{"osm_id":"2613748168","tag":{"amenity":"recycling","recycling:cans":"yes","recycling:clothes":"no","recycling:glass_bottles":"yes","recycling:paper":"no","recycling_type":"container"}},"type":"Feature"},
	{"geometry":{"coordinates":[15.426557,47.115531],"type":"Point"},"properties":{"osm_id":"2613748174","tag":{"amenity":"waste_basket"}},"type":"Feature"},
	{"geometry":{"coordinates":[15.420048,47.104371],"type":"Point"},"properties":{"osm_id":"2798775498","tag":{"amenity":"waste_basket"}},"type":"Feature"},
	{"geometry":{"coordinates":[15.420113,47.104434],"type":"Point"},"properties":{"osm_id":"2798779101","tag":{"amenity":"waste_basket"}},"type":"Feature"},
	{"geometry":{"coordinates":[15.419953,47.104516],"type":"Point"},"properties":{"osm_id":"2798779104","tag":{"amenity":"waste_basket"}},"type":"Feature"},
	{"geometry":{"coordinates":[15.440101,47.102968],"type":"Point"},"properties":{"osm_id":"3093078405","tag":{"amenity":"recycling","recycling:cans":"yes","recycling:glass_bottles":"yes","recycling_type":"container"}},"type":"Feature"},
	{"geometry":{"coordinates":[15.417629,47.107221],"type":"Point"},"properties":{"osm_id":"3350445794","tag":{"amenity":"recycling","recycling:cans":"yes","recycling:glass_bottles":"yes","recycling_type":"container"}},"type":"Feature"},
	{"geometry":{"coordinates":[15.4171,47.108168],"type":"Point"},"properties":{"osm_id":"3350445804","tag":{"amenity":"recycling","recycling:cans":"yes","recycling:clothes":"yes","recycling:paper":"yes","recycling_type":"container"}},"type":"Feature"},
	{"geometry":{"coordinates":[15.425514,47.131224],"type":"Point"},"properties":{"osm_id":"3414213716","tag":{"amenity":"recycling"}},"type":"Feature"},
	{"geometry":{"coordinates":[15.464772,47.123105],"type":"Point"},"properties":{"osm_id":"3464988008","tag":{"amenity":"recycling","recycling:paper":"yes","recycling_type":"container"}},"type":"Feature"},
	{"geometry":{"coordinates":[15.442132,47.107593],"type":"Point"},"properties":{"osm_id":"3878509025","tag":{"amenity":"waste_basket"}},"type":"Feature"},
	{"geometry":{"coordinates":[15.431976,47.114486],"type":"Point"},"properties":{"osm_id":"4273743872","tag":{"amenity":"recycling","recycling:cans":"yes","recycling:paper":"yes","recycling:paper:count":"2","recycling:plastic_packaging":"yes","recycling_type":"container"}},"type":"Feature"},
	{"geometry":{"coordinates":[15.43008,47.114157],"type":"Point"},"properties":{"osm_id":"6143011940","tag":{"amenity":"recycling","recycling_type":"container"}},"type":"Feature"},
	{"geometry":{"coordinates":[15.423252,47.12748],"type":"Point"},"properties":{"osm_id":"6643481305","tag":{"amenity":"recycling","recycling_type":"container"}},"type":"Feature"},
	{"geometry":{"coordinates":[15.419964,47.1166],"type":"Point"},"properties":{"osm_id":"6780042585","tag":{"amenity":"waste_basket","waste":"trash"}},"type":"Feature"},
	{"geometry":{"coordinates":[15.421322,47.116376],"type":"Point"},"properties":{"osm_id":"6780042586","tag":{"amenity":"waste_basket","waste":"trash"}},"type":"Feature"},
	{"geometry":{"coordinates":[15.420827,47.1168],"type":"Point"},"properties":{"osm_id":"6780042588","tag":{"amenity":"waste_basket","waste":"trash"}},"type":"Feature"},
	{"geometry":{"coordinates":[15.427114,47.131409],"type":"Point"},"properties":{"osm_id":"6966745989","tag":{"amenity":"waste_basket"}},"type":"Feature"},
	{"geometry":{"coordinates":[15.427114,47.131223],"type":"Point"},"properties":{"osm_id":"6966745991","tag":{"amenity":"waste_basket"}},"type":"Feature"},
	{"geometry":{"coordinates":[15.426992,47.127431],"type":"Point"},"properties":{"osm_id":"6966745992","tag":{"amenity":"waste_basket"}},"type":"Feature"},
	{"geometry":{"coordinates":[15.417873,47.117354],"type":"Point"},"properties":{"osm_id":"6969669301","tag":{"amenity":"waste_basket"}},"type":"Feature"},
	{"geometry":{"coordinates":[15.434629,47.117032],"type":"Point"},"properties":{"osm_id":"7723502015","tag":{"amenity":"recycling","recycling_type":"container"}},"type":"Feature"}
]
}
