{
"type": "FeatureCollection",
"lastupdate": "2020-08-05T00:00:00Z",
"features": [
	{"geometry":{"coordinates":[15.413702,47.010916],"type":"Point"},"properties":{"name":"Wirtschaftshof Seiersberg","osm_id":"440129681","tag":{"amenity":"recycling","operator":"Gemeinde Seiersberg","recycling_type":"centre"}},"type":"Feature"},
	{"geometry":{"coordinates":[15.454566,47.022567],"type":"Point"},"properties":{"osm_id":"834760649","tag":{"amenity":"recycling","recycling:cans":"yes"}},"type":"Feature"},
	{"geometry":{"coordinates":[15.444657,46.996677],"type":"Point"},"properties":{"osm_id":"991667711","tag":{"amenity":"waste_basket"}},"type":"Feature"},
	{"geometry":{"coordinates":[15.444629,46.996537],"type":"Point"},"properties":{"osm_id":"991667782","tag":{"amenity":"waste_basket"}},"type":"Feature"},
	{"geometry":{"coordinates":[15.444648,46.996634],"type":"Point"},"properties":{"osm_id":"991667793","tag":{"amenity":"waste_basket"}},"type":"Feature"},
	{"geometry":{"coordinates":[15.444637,46.996585],"type":"Point"},"properties":{"osm_id":"991667800","tag":{"amenity":"waste_basket"}},"type":"Feature"},
	{"geometry":{"coordinates":[15.44469,46.996726],"type":"Point"},"properties":{"osm_id":"991667816","tag":{"amenity":"waste_basket"}},"type":"Feature"},
	{"geometry":{"coordinates":[15.417548,47.034534],"type":"Point"},"properties":{"osm_id":"1756758581","tag":{"amenity":"waste_basket"}},"type":"Feature"},
	{"geometry":{"coordinates":[15.430792,47.039669],"type":"Point"},"properties":{"osm_id":"1765438586","tag":{"amenity":"recycling","recycling_type":"container"}},"type":"Feature"},
	{"geometry":{"coordinates":[15.39045,46.999143],"type":"Point"},"properties":{"osm_id":"1781425834","tag":{"amenity":"recycling","recycling:cans":"yes","recycling:glass":"yes","recycling_type":"container"}},"type":"Feature"},
	{"geometry":{"coordinates":[15.392538,47.000256],"type":"Point"},"properties":{"osm_id":"1781425835","tag":{"amenity":"recycling","recycling:cans":"yes","recycling:glass":"yes","recycling_type":"container"}},"type":"Feature"},
	{"geometry":{"coordinates":[15.423072,47.033184],"type":"Point"},"properties":{"osm_id":"2092243695","tag":{"amenity":"recycling","recycling:aluminium":"yes","recycling:batteries":"yes","recycling:cardboard":"yes","recycling:glass":"yes","recycling:low_energy_bulbs":"yes","recycling:mobile_phones":"yes","recycling:paper":"yes","recycling:plastic":"yes","recycling_type":"container"}},"type":"Feature"},
	{"geometry":{"coordinates":[15.43092,47.020253],"type":"Point"},"properties":{"osm_id":"2302155422","tag":{"amenity":"recycling","recycling:glass_bottles":"yes","recycling_type":"container"}},"type":"Feature"},
	{"geometry":{"coordinates":[15.420557,47.032614],"type":"Point"},"properties":{"osm_id":"2339468837","tag":{"amenity":"recycling","operator":"ASA","recycling:clothes":"yes","recycling:clothes:count":"4","recycling_type":"container"}},"type":"Feature"},
	{"geometry":{"coordinates":[15.427355,47.037636],"type":"Point"},"properties":{"osm_id":"2339468964","tag":{"amenity":"recycling","operator":"Holding Graz","recycling:cans":"yes","recycling:clothes":"yes","recycling:clothes:count":"2","recycling:glass_bottles":"yes","recycling_type":"container"}},"type":"Feature"},
	{"geometry":{"coordinates":[15.432439,47.026276],"type":"Point"},"properties":{"osm_id":"2348298489","tag":{"access":"private","amenity":"recycling","operator":"Holding Graz","recycling:paper":"yes","recycling:plastic_packaging":"yes","recycling:waste":"yes","recycling_type":"container"}},"type":"Feature"},
	{"geometry":{"coordinates":[15.432147,47.026576],"type":"Point"},"properties":{"osm_id":"2348298497","tag":{"amenity":"recycling","operator":"Holding Graz","recycling:cans":"yes","recycling:glass_bottles":"yes","recycling_type":"container"}},"type":"Feature"},
	{"geometry":{"coordinates":[15.407265,47.030482],"type":"Point"},"properties":{"osm_id":"2360825896","tag":{"amenity":"recycling","operator":"Holding Graz","recycling:cans":"yes","recycling:clothes":"yes","recycling:glass_bottles":"yes","recycling_type":"container"}},"type":"Feature"},
	{"geometry":{"coordinates":[15.409652,47.03561],"type":"Point"},"properties":{"osm_id":"2366152084","tag":{"amenity":"recycling","operator":"Holding Graz","recycling:cans":"yes","recycling:glass_bottles":"yes","recycling_type":"container"}},"type":"Feature"},
	{"geometry":{"coordinates":[15.411651,47.038336],"type":"Point"},"properties":{"osm_id":"2366152088","tag":{"amenity":"recycling","operator":"Holding Graz","recycling:clothes":"yes","recycling_type":"container"}},"type":"Feature"},
	{"geometry":{"coordinates":[15.434794,47.008736],"type":"Point"},"properties":{"osm_id":"2477338956","tag":{"amenity":"waste_basket"}},"type":"Feature"},
	{"geometry":{"coordinates":[15.428065,47.012266],"type":"Point"},"properties":{"osm_id":"2504374627","tag":{"amenity":"recycling","recycling:cans":"yes","recycling:glass":"yes","recycling_type":"container"}},"type":"Feature"},
	{"geometry":{"coordinates":[15.399824,47.031649],"type":"Point"},"properties":{"osm_id":"2946623545","tag":{"amenity":"recycling","operator":"Holding Graz","recycling:cans":"yes","recycling:clothes":"yes","recycling:glass_bottles":"yes","recycling_type":"container"}},"type":"Feature"},
	{"geometry":{"coordinates":[15.399954,47.037318],"type":"Point"},"properties":{"osm_id":"2980102550","tag":{"amenity":"recycling","operator":"Holding Graz","recycling:clothes":"yes","recycling:glass_bottles":"yes","recycling_type":"container"}},"type":"Feature"},
	{"geometry":{"coordinates":[15.385057,47.018567],"type":"Point"},"properties":{"osm_id":"3364178789","tag":{"amenity":"waste_basket"}},"type":"Feature"},
	{"geometry":{"coordinates":[15.411394,47.020651],"type":"Point"},"properties":{"osm_id":"3571124293","tag":{"amenity":"waste_basket"}},"type":"Feature"},
	{"geometry":{"coordinates":[15.449889,47.031752],"type":"Point"},"properties":{"osm_id":"5233350635","tag":{"amenity":"waste_basket"}},"type":"Feature"},
	{"geometry":{"coordinates":[15.467972,47.006019],"type":"Point"},"properties":{"osm_id":"5233350690","tag":{"amenity":"waste_basket"}},"type":"Feature"},
	{"geometry":{"coordinates":[15.397106,47.023787],"type":"Point"},"properties":{"osm_id":"5427452457","tag":{"amenity":"waste_basket","amenity_1":"vending_machine","fee":"no","payment:none":"yes","vending":"excrement_bags"}},"type":"Feature"},
	{"geometry":{"coordinates":[15.393627,47.031203],"type":"Point"},"properties":{"osm_id":"5427452459","tag":{"amenity":"waste_basket","amenity_1":"vending_machine","fee":"no","payment:none":"yes","vending":"excrement_bags"}},"type":"Feature"},
	{"geometry":{"coordinates":[15.39593,47.024143],"type":"Point"},"properties":{"osm_id":"5427452460","tag":{"amenity":"recycling","recycling:cans":"yes","recycling_type":"container"}},"type":"Feature"},
	{"geometry":{"coordinates":[15.390395,47.026942],"type":"Point"},"properties":{"osm_id":"5427452471","tag":{"amenity":"recycling","recycling:glass_bottles":"yes","recycling_type":"container"}},"type":"Feature"},
	{"geometry":{"coordinates":[15.385016,47.029684],"type":"Point"},"properties":{"osm_id":"5427452472","tag":{"amenity":"waste_basket","amenity_1":"vending_machine","fee":"no","payment:none":"yes","vending":"excrement_bags"}},"type":"Feature"},
	{"geometry":{"coordinates":[15.386818,47.036611],"type":"Point"},"properties":{"osm_id":"5640449546","tag":{"amenity":"recycling","recycling:cans":"yes","recycling:glass_bottles":"yes","recycling_type":"container"}},"type":"Feature"},
	{"geometry":{"coordinates":[15.43182,47.032941],"type":"Point"},"properties":{"name":"Spar","osm_id":"5713866806","tag":{"addr:city":"Graz","addr:housenumber":"1","addr:postcode":"8055","addr:street":"Brauquartier","amenity":"recycling","brand":"Spar","brand:wikidata":"Q610492","brand:wikipedia":"en:Spar (retailer)","contact:phone":"+43 316 243 713","level":"0","opening_hours":"Mo-Fr 07:15-19:30; Sa 07:15-18:00; PH closed","opening_hours:covid19":"Mo-Fr 07:40-19:00; Sa 07:40-18:00","recycling:cooking_oil":"yes","recycling_type":"station","shop":"supermarket","wheelchair":"yes"}},"type":"Feature"},
	{"geometry":{"coordinates":[15.41523,47.031541],"type":"Point"},"properties":{"osm_id":"5760746771","tag":{"amenity":"recycling","recycling:glass_bottles":"yes","recycling_type":"container"}},"type":"Feature"},
	{"geometry":{"coordinates":[15.467059,47.026905],"type":"Point"},"properties":{"osm_id":"5872321410","tag":{"amenity":"waste_basket"}},"type":"Feature"},
	{"geometry":{"coordinates":[15.467024,47.027365],"type":"Point"},"properties":{"osm_id":"5872321411","tag":{"amenity":"waste_basket"}},"type":"Feature"},
	{"geometry":{"coordinates":[15.467912,47.025182],"type":"Point"},"properties":{"osm_id":"5872321412","tag":{"amenity":"waste_basket"}},"type":"Feature"},
	{"geometry":{"coordinates":[15.468035,47.025227],"type":"Point"},"properties":{"osm_id":"5872321415","tag":{"amenity":"waste_basket"}},"type":"Feature"},
	{"geometry":{"coordinates":[15.417765,47.031636],"type":"Point"},"properties":{"osm_id":"6735843192","tag":{"amenity":"recycling","recycling:cans":"yes","recycling:glass_bottles":"yes","recycling_type":"container"}},"type":"Feature"},
	{"geometry":{"coordinates":[15.462536,47.013608],"type":"Point"},"properties":{"osm_id":"6789740626","tag":{"amenity":"waste_basket","type":"Bigbelly"}},"type":"Feature"},
	{"geometry":{"coordinates":[15.462606,47.012275],"type":"Point"},"properties":{"osm_id":"6789740627","tag":{"amenity":"waste_basket","type":"Bigbelly"}},"type":"Feature"},
	{"geometry":{"coordinates":[15.462682,47.01261],"type":"Point"},"properties":{"osm_id":"6789740628","tag":{"amenity":"waste_basket","type":"Bigbelly"}},"type":"Feature"},
	{"geometry":{"coordinates":[15.462751,47.012945],"type":"Point"},"properties":{"osm_id":"6789740629","tag":{"amenity":"waste_basket","type":"Bigbelly"}},"type":"Feature"},
	{"geometry":{"coordinates":[15.462567,47.01329],"type":"Point"},"properties":{"osm_id":"6789740630","tag":{"amenity":"waste_basket","type":"Bigbelly"}},"type":"Feature"},
	{"geometry":{"coordinates":[15.385726,47.033118],"type":"Point"},"properties":{"osm_id":"7034553568","tag":{"amenity":"waste_basket"}},"type":"Feature"},
	{"geometry":{"coordinates":[15.429888,47.013095],"type":"Point"},"properties":{"osm_id":"7279269382","tag":{"entrance":"main"}},"type":"Feature"},
	{"geometry":{"coordinates":[15.422043,47.032903],"type":"Point"},"properties":{"osm_id":"7285227091","tag":{"amenity":"waste_basket","waste":"trash"}},"type":"Feature"},
	{"geometry":{"coordinates":[15.422142,47.032861],"type":"Point"},"properties":{"osm_id":"7285227092","tag":{"amenity":"waste_basket","waste":"trash"}},"type":"Feature"},
	{"geometry":{"coordinates":[15.422075,47.033046],"type":"Point"},"properties":{"osm_id":"7285227093","tag":{"amenity":"waste_basket","waste":"trash"}},"type":"Feature"},
	{"geometry":{"coordinates":[15.421853,47.033113],"type":"Point"},"properties":{"osm_id":"7285227094","tag":{"amenity":"waste_basket","waste":"trash"}},"type":"Feature"},
	{"geometry":{"coordinates":[15.386183,47.039599],"type":"Point"},"properties":{"osm_id":"7300072984","tag":{"amenity":"waste_basket"}},"type":"Feature"},
	{"geometry":{"coordinates":[15.388187,47.039076],"type":"Point"},"properties":{"osm_id":"7300085390","tag":{"amenity":"waste_basket"}},"type":"Feature"},
	{"geometry":{"coordinates":[15.403047,47.040109],"type":"Point"},"properties":{"osm_id":"7343557961","tag":{"amenity":"recycling","recycling:glass_bottles":"yes","recycling_type":"container"}},"type":"Feature"},
	{"geometry":{"coordinates":[15.399022,47.022406],"type":"Point"},"properties":{"osm_id":"7347893596","tag":{"amenity":"waste_basket"}},"type":"Feature"},
	{"geometry":{"coordinates":[15.397019,47.022555],"type":"Point"},"properties":{"osm_id":"7347893606","tag":{"amenity":"waste_basket"}},"type":"Feature"},
	{"geometry":{"coordinates":[15.394281,47.024615],"type":"Point"},"properties":{"osm_id":"7347893643","tag":{"amenity":"waste_basket"}},"type":"Feature"},
	{"geometry":{"coordinates":[15.400156,47.022641],"type":"Point"},"properties":{"osm_id":"7347893645","tag":{"amenity":"waste_basket"}},"type":"Feature"},
	{"geometry":{"coordinates":[15.39364,47.01581],"type":"Point"},"properties":{"osm_id":"7426934899","tag":{"amenity":"waste_basket"}},"type":"Feature"},
	{"geometry":{"coordinates":[15.392362,47.016294],"type":"Point"},"properties":{"osm_id":"7426934901","tag":{"amenity":"waste_basket"}},"type":"Feature"},
	{"geometry":{"coordinates":[15.392848,47.03512],"type":"Point"},"properties":{"osm_id":"7435037267","tag":{"amenity":"waste_basket"}},"type":"Feature"},
	{"geometry":{"coordinates":[15.387257,47.039538],"type":"Point"},"properties":{"osm_id":"7435037268","tag":{"amenity":"waste_basket"}},"type":"Feature"},
	{"geometry":{"coordinates":[15.46118,47.030443],"type":"Point"},"properties":{"osm_id":"7441988563","tag":{"amenity":"recycling","recycling:aluminium":"yes","recycling:cans":"yes","recycling:glass":"yes","recycling:glass_bottles":"yes","recycling:plastic_bottles":"yes","recycling:plastic_packaging":"yes","recycling_type":"container"}},"type":"Feature"},
	{"geometry":{"coordinates":[15.392757,47.037541],"type":"Point"},"properties":{"osm_id":"7480386229","tag":{"amenity":"waste_basket","material":"steel","waste":"trash"}},"type":"Feature"},
	{"geometry":{"coordinates":[15.3942,47.037756],"type":"Point"},"properties":{"osm_id":"7480386233","tag":{"amenity":"waste_basket","material":"steel","waste":"trash"}},"type":"Feature"},
	{"geometry":{"coordinates":[15.405053,47.036771],"type":"Point"},"properties":{"osm_id":"7652924843","tag":{"amenity":"waste_basket","material":"metal","waste":"trash"}},"type":"Feature"}
]
}
