{
"type": "FeatureCollection",
"features": [
	{"geometry":{"coordinates":[15.403333,46.8605],"type":"Point"},"properties":{"osm_id":"4262878188","tag":{"amenity":"recycling","recycling:cans":"yes","recycling:glass_bottles":"yes","recycling:paper":"yes","recycling:plastic_packaging":"yes","recycling_type":"container"}},"type":"Feature"},
	{"geometry":{"coordinates":[15.407954,46.863373],"type":"Point"},"properties":{"osm_id":"4262878389","tag":{"amenity":"recycling","recycling:cans":"yes","recycling:glass_bottles":"yes","recycling_type":"container"}},"type":"Feature"},
	{"geometry":{"coordinates":[15.465585,46.897198],"type":"Point"},"properties":{"osm_id":"5676069403","tag":{"amenity":"waste_basket"}},"type":"Feature"},
	{"geometry":{"coordinates":[15.450779,46.869757],"type":"Point"},"properties":{"osm_id":"6820880839","tag":{"amenity":"waste_basket"}},"type":"Feature"},
	{"geometry":{"coordinates":[15.453576,46.913547],"type":"Point"},"properties":{"osm_id":"7643201470","tag":{"amenity":"recycling","opening_hours":"24/7","recycling:glass":"yes","recycling:scrap_metal":"yes","recycling_type":"container"}},"type":"Feature"},
	{"geometry":{"coordinates":[15.45713,46.918405],"type":"Point"},"properties":{"osm_id":"7647405862","tag":{"amenity":"waste_basket","colour":"green","material":"plastic","waste":"trash"}},"type":"Feature"},
	{"geometry":{"coordinates":[15.405341,46.894754],"type":"Point"},"properties":{"osm_id":"7813905358","tag":{"amenity":"waste_basket"}},"type":"Feature"}
]
}
