{
"type": "FeatureCollection",
"features": [
	{"geometry":{"coordinates":[23.788887,67.331969],"type":"Point"},"properties":{"osm_id":"4148935694","tag":{"amenity":"waste_basket"}},"type":"Feature"},
	{"geometry":{"coordinates":[23.782711,67.331384],"type":"Point"},"properties":{"osm_id":"4148935706","tag":{"amenity":"waste_basket"}},"type":"Feature"},
	{"geometry":{"coordinates":[23.781149,67.331268],"type":"Point"},"properties":{"osm_id":"4148935711","tag":{"amenity":"waste_basket"}},"type":"Feature"},
	{"geometry":{"coordinates":[23.780544,67.331381],"type":"Point"},"properties":{"osm_id":"4148935719","tag":{"amenity":"waste_basket"}},"type":"Feature"},
	{"geometry":{"coordinates":[23.794128,67.332622],"type":"Point"},"properties":{"osm_id":"4148979025","tag":{"amenity":"waste_basket"}},"type":"Feature"},
	{"geometry":{"coordinates":[23.794797,67.332837],"type":"Point"},"properties":{"osm_id":"4148979026","tag":{"addr:city":"Kolari","addr:street":"Koulukuja","amenity":"recycling","recycling:cans":"yes","recycling:glass":"yes","recycling:glass_bottles":"yes","recycling:paper":"yes","recycling:plastic":"no","recycling_type":"container"}},"type":"Feature"},
	{"geometry":{"coordinates":[23.793748,67.333081],"type":"Point"},"properties":{"osm_id":"4148979027","tag":{"amenity":"waste_basket"}},"type":"Feature"},
	{"geometry":{"coordinates":[23.794848,67.332805],"type":"Point"},"properties":{"osm_id":"4148979028","tag":{"amenity":"waste_basket"}},"type":"Feature"}
]
}
