{
"type": "FeatureCollection",
"features": [
	{"geometry":{"coordinates":[23.760814,61.486248],"type":"Point"},"properties":{"osm_id":"822783124","tag":{"amenity":"recycling","location":"underground","recycling_type":"container"}},"type":"Feature"},
	{"geometry":{"coordinates":[23.740236,61.497859],"type":"Point"},"properties":{"osm_id":"853742362","tag":{"amenity":"recycling","recycling:batteries":"yes","recycling:cardboard":"yes","recycling:clothes":"yes","recycling:glass":"yes","recycling:paper":"yes","recycling:scrap_metal":"yes","recycling_type":"container"}},"type":"Feature"},
	{"geometry":{"coordinates":[23.742799,61.499801],"type":"Point"},"properties":{"osm_id":"1125115414","tag":{"amenity":"recycling"}},"type":"Feature"},
	{"geometry":{"coordinates":[23.763124,61.501373],"type":"Point"},"properties":{"osm_id":"1415407151","tag":{"amenity":"waste_basket"}},"type":"Feature"},
	{"geometry":{"coordinates":[23.763008,61.501649],"type":"Point"},"properties":{"osm_id":"1415407205","tag":{"amenity":"waste_basket"}},"type":"Feature"},
	{"geometry":{"coordinates":[23.759833,61.491652],"type":"Point"},"properties":{"osm_id":"1893890977","tag":{"amenity":"waste_basket"}},"type":"Feature"},
	{"geometry":{"coordinates":[23.732998,61.492861],"type":"Point"},"properties":{"osm_id":"1915477832","tag":{"amenity":"waste_basket"}},"type":"Feature"},
	{"geometry":{"coordinates":[23.795045,61.508533],"type":"Point"},"properties":{"osm_id":"2078981245","tag":{"amenity":"recycling","recycling_type":"centre"}},"type":"Feature"},
	{"geometry":{"coordinates":[23.77025,61.50752],"type":"Point"},"properties":{"osm_id":"2460379909","tag":{"amenity":"waste_basket"}},"type":"Feature"},
	{"geometry":{"coordinates":[23.81663,61.495397],"type":"Point"},"properties":{"osm_id":"2476917978","tag":{"amenity":"waste_basket"}},"type":"Feature"},
	{"geometry":{"coordinates":[23.815698,61.495484],"type":"Point"},"properties":{"osm_id":"2476917989","tag":{"amenity":"waste_basket"}},"type":"Feature"},
	{"geometry":{"coordinates":[23.814353,61.495634],"type":"Point"},"properties":{"osm_id":"2476917994","tag":{"amenity":"waste_basket"}},"type":"Feature"},
	{"geometry":{"coordinates":[23.8108,61.495995],"type":"Point"},"properties":{"osm_id":"2476918024","tag":{"amenity":"waste_basket"}},"type":"Feature"},
	{"geometry":{"coordinates":[23.789969,61.502276],"type":"Point"},"properties":{"osm_id":"2482697600","tag":{"amenity":"waste_basket"}},"type":"Feature"},
	{"geometry":{"coordinates":[23.791627,61.502365],"type":"Point"},"properties":{"osm_id":"2503611374","tag":{"amenity":"waste_basket"}},"type":"Feature"},
	{"geometry":{"coordinates":[23.744523,61.497874],"type":"Point"},"properties":{"osm_id":"3334796824","tag":{"amenity":"recycling","location":"underground","recycling_type":"container"}},"type":"Feature"},
	{"geometry":{"coordinates":[23.744953,61.497892],"type":"Point"},"properties":{"osm_id":"3334796830","tag":{"amenity":"waste_basket"}},"type":"Feature"},
	{"geometry":{"coordinates":[23.817037,61.496707],"type":"Point"},"properties":{"osm_id":"5013034343","tag":{"amenity":"waste_basket"}},"type":"Feature"},
	{"geometry":{"coordinates":[23.791784,61.50289],"type":"Point"},"properties":{"osm_id":"5023170565","tag":{"amenity":"waste_basket"}},"type":"Feature"},
	{"geometry":{"coordinates":[23.817492,61.497776],"type":"Point"},"properties":{"osm_id":"5045471137","tag":{"amenity":"waste_basket"}},"type":"Feature"},
	{"geometry":{"coordinates":[23.755802,61.498994],"type":"Point"},"properties":{"name":"ViaDia","osm_id":"5629385621","tag":{"amenity":"recycling","name:fi":"ViaDia Pirkanmaa","website":"http://www.viadia.fi/pirkanmaa/"}},"type":"Feature"},
	{"geometry":{"coordinates":[23.794998,61.502444],"type":"Point"},"properties":{"osm_id":"5893264292","tag":{"amenity":"waste_basket"}},"type":"Feature"},
	{"geometry":{"coordinates":[23.800154,61.501742],"type":"Point"},"properties":{"osm_id":"6356476159","tag":{"amenity":"waste_basket"}},"type":"Feature"},
	{"geometry":{"coordinates":[23.782314,61.497391],"type":"Point"},"properties":{"osm_id":"6422834717","tag":{"amenity":"waste_basket","waste":"trash"}},"type":"Feature"},
	{"geometry":{"coordinates":[23.782891,61.4976],"type":"Point"},"properties":{"osm_id":"6422834722","tag":{"amenity":"waste_basket","waste":"trash"}},"type":"Feature"},
	{"geometry":{"coordinates":[23.784085,61.496421],"type":"Point"},"properties":{"osm_id":"6425453437","tag":{"amenity":"waste_basket","waste":"trash"}},"type":"Feature"},
	{"geometry":{"coordinates":[23.784797,61.497038],"type":"Point"},"properties":{"osm_id":"6425453439","tag":{"amenity":"waste_basket","waste":"trash"}},"type":"Feature"},
	{"geometry":{"coordinates":[23.790584,61.502682],"type":"Point"},"properties":{"osm_id":"6579706279","tag":{"amenity":"waste_basket"}},"type":"Feature"},
	{"geometry":{"coordinates":[23.789836,61.503191],"type":"Point"},"properties":{"osm_id":"6579720756","tag":{"amenity":"waste_basket"}},"type":"Feature"},
	{"geometry":{"coordinates":[23.791914,61.502511],"type":"Point"},"properties":{"osm_id":"6579777392","tag":{"amenity":"waste_basket"}},"type":"Feature"},
	{"geometry":{"coordinates":[23.793579,61.503293],"type":"Point"},"properties":{"osm_id":"6579779777","tag":{"amenity":"waste_basket"}},"type":"Feature"},
	{"geometry":{"coordinates":[23.790205,61.502735],"type":"Point"},"properties":{"osm_id":"6579780814","tag":{"amenity":"waste_disposal"}},"type":"Feature"},
	{"geometry":{"coordinates":[23.791293,61.503358],"type":"Point"},"properties":{"osm_id":"6579800916","tag":{"amenity":"waste_basket"}},"type":"Feature"},
	{"geometry":{"coordinates":[23.795306,61.503419],"type":"Point"},"properties":{"osm_id":"6581244774","tag":{"amenity":"waste_basket"}},"type":"Feature"},
	{"geometry":{"coordinates":[23.79581,61.503277],"type":"Point"},"properties":{"osm_id":"6581258521","tag":{"amenity":"waste_basket"}},"type":"Feature"},
	{"geometry":{"coordinates":[23.797781,61.50349],"type":"Point"},"properties":{"osm_id":"6581320835","tag":{"amenity":"waste_basket"}},"type":"Feature"},
	{"geometry":{"coordinates":[23.732195,61.496358],"type":"Point"},"properties":{"osm_id":"6598986863","tag":{"amenity":"waste_basket"}},"type":"Feature"},
	{"geometry":{"coordinates":[23.765314,61.495714],"type":"Point"},"properties":{"osm_id":"7044820164","tag":{"amenity":"waste_basket"}},"type":"Feature"},
	{"geometry":{"coordinates":[23.765329,61.49609],"type":"Point"},"properties":{"osm_id":"7044820165","tag":{"amenity":"waste_basket"}},"type":"Feature"},
	{"geometry":{"coordinates":[23.765569,61.495491],"type":"Point"},"properties":{"osm_id":"7044820166","tag":{"amenity":"waste_basket"}},"type":"Feature"},
	{"geometry":{"coordinates":[23.765355,61.496299],"type":"Point"},"properties":{"osm_id":"7044820167","tag":{"amenity":"waste_basket"}},"type":"Feature"},
	{"geometry":{"coordinates":[23.76101,61.49513],"type":"Point"},"properties":{"osm_id":"7044820169","tag":{"amenity":"waste_basket"}},"type":"Feature"},
	{"geometry":{"coordinates":[23.765178,61.495834],"type":"Point"},"properties":{"osm_id":"7044820171","tag":{"amenity":"waste_basket"}},"type":"Feature"},
	{"geometry":{"coordinates":[23.760632,61.494923],"type":"Point"},"properties":{"osm_id":"7044820172","tag":{"amenity":"waste_basket"}},"type":"Feature"},
	{"geometry":{"coordinates":[23.765172,61.496299],"type":"Point"},"properties":{"osm_id":"7044820173","tag":{"amenity":"waste_basket"}},"type":"Feature"},
	{"geometry":{"coordinates":[23.765437,61.495609],"type":"Point"},"properties":{"osm_id":"7044820176","tag":{"amenity":"waste_basket"}},"type":"Feature"},
	{"geometry":{"coordinates":[23.760801,61.495036],"type":"Point"},"properties":{"osm_id":"7044820177","tag":{"amenity":"waste_basket"}},"type":"Feature"},
	{"geometry":{"coordinates":[23.766307,61.496636],"type":"Point"},"properties":{"osm_id":"7044820179","tag":{"amenity":"waste_basket"}},"type":"Feature"},
	{"geometry":{"coordinates":[23.765095,61.495956],"type":"Point"},"properties":{"osm_id":"7044820182","tag":{"amenity":"waste_basket"}},"type":"Feature"},
	{"geometry":{"coordinates":[23.769123,61.495928],"type":"Point"},"properties":{"osm_id":"7047302785","tag":{"amenity":"waste_basket"}},"type":"Feature"},
	{"geometry":{"coordinates":[23.770543,61.495433],"type":"Point"},"properties":{"osm_id":"7047302787","tag":{"amenity":"waste_basket"}},"type":"Feature"},
	{"geometry":{"coordinates":[23.77027,61.495344],"type":"Point"},"properties":{"osm_id":"7047302788","tag":{"amenity":"waste_basket"}},"type":"Feature"},
	{"geometry":{"coordinates":[23.769033,61.495031],"type":"Point"},"properties":{"osm_id":"7047302789","tag":{"amenity":"waste_basket"}},"type":"Feature"},
	{"geometry":{"coordinates":[23.770939,61.494966],"type":"Point"},"properties":{"osm_id":"7047302790","tag":{"amenity":"waste_basket"}},"type":"Feature"},
	{"geometry":{"coordinates":[23.768215,61.494122],"type":"Point"},"properties":{"osm_id":"7047302791","tag":{"amenity":"waste_basket"}},"type":"Feature"},
	{"geometry":{"coordinates":[23.772501,61.495422],"type":"Point"},"properties":{"osm_id":"7047302792","tag":{"amenity":"waste_basket"}},"type":"Feature"},
	{"geometry":{"coordinates":[23.766486,61.493697],"type":"Point"},"properties":{"osm_id":"7047302793","tag":{"amenity":"waste_basket"}},"type":"Feature"},
	{"geometry":{"coordinates":[23.767127,61.494136],"type":"Point"},"properties":{"osm_id":"7047302795","tag":{"amenity":"waste_basket"}},"type":"Feature"},
	{"geometry":{"coordinates":[23.767339,61.493885],"type":"Point"},"properties":{"osm_id":"7047302796","tag":{"amenity":"waste_basket"}},"type":"Feature"},
	{"geometry":{"coordinates":[23.769832,61.495242],"type":"Point"},"properties":{"osm_id":"7047302797","tag":{"amenity":"waste_basket"}},"type":"Feature"},
	{"geometry":{"coordinates":[23.769783,61.49531],"type":"Point"},"properties":{"osm_id":"7047302799","tag":{"amenity":"waste_basket"}},"type":"Feature"},
	{"geometry":{"coordinates":[23.769438,61.494553],"type":"Point"},"properties":{"osm_id":"7047302802","tag":{"amenity":"waste_basket"}},"type":"Feature"},
	{"geometry":{"coordinates":[23.766997,61.493807],"type":"Point"},"properties":{"osm_id":"7047302805","tag":{"amenity":"waste_basket"}},"type":"Feature"},
	{"geometry":{"coordinates":[23.769337,61.494758],"type":"Point"},"properties":{"osm_id":"7047302806","tag":{"amenity":"waste_basket"}},"type":"Feature"},
	{"geometry":{"coordinates":[23.769093,61.494793],"type":"Point"},"properties":{"osm_id":"7047302808","tag":{"amenity":"waste_basket"}},"type":"Feature"},
	{"geometry":{"coordinates":[23.7682,61.494088],"type":"Point"},"properties":{"osm_id":"7047302809","tag":{"amenity":"waste_basket"}},"type":"Feature"},
	{"geometry":{"coordinates":[23.77085,61.495226],"type":"Point"},"properties":{"osm_id":"7047302810","tag":{"amenity":"waste_basket"}},"type":"Feature"},
	{"geometry":{"coordinates":[23.768858,61.494964],"type":"Point"},"properties":{"osm_id":"7047302813","tag":{"amenity":"waste_basket"}},"type":"Feature"},
	{"geometry":{"coordinates":[23.770874,61.495377],"type":"Point"},"properties":{"osm_id":"7047302814","tag":{"amenity":"waste_basket"}},"type":"Feature"},
	{"geometry":{"coordinates":[23.769024,61.495939],"type":"Point"},"properties":{"osm_id":"7047302815","tag":{"amenity":"waste_basket"}},"type":"Feature"},
	{"geometry":{"coordinates":[23.770558,61.494801],"type":"Point"},"properties":{"osm_id":"7047302816","tag":{"amenity":"waste_basket"}},"type":"Feature"},
	{"geometry":{"coordinates":[23.769876,61.495202],"type":"Point"},"properties":{"osm_id":"7047302817","tag":{"amenity":"recycling","recycling_type":"container"}},"type":"Feature"}
]
}
