{
"type": "FeatureCollection",
"features": [
	{"geometry":{"coordinates":[23.810459,53.701802],"type":"Point"},"properties":{"osm_id":"4932644701","tag":{"amenity":"recycling","recycling_type":"container"}},"type":"Feature"},
	{"geometry":{"coordinates":[23.810851,53.708763],"type":"Point"},"properties":{"osm_id":"4957380601","ref":"9/19","tag":{"amenity":"recycling","recycling:glass_bottles":"yes","recycling:plastic":"yes","recycling:waste":"yes","recycling_type":"container"}},"type":"Feature"},
	{"geometry":{"coordinates":[23.806769,53.708896],"type":"Point"},"properties":{"osm_id":"4957380929","tag":{"amenity":"recycling","recycling_type":"container"}},"type":"Feature"},
	{"geometry":{"coordinates":[23.807605,53.709468],"type":"Point"},"properties":{"osm_id":"4957382605","ref":"9/44","tag":{"amenity":"recycling","location":"overground","recycling:glass_bottles":"yes","recycling:paper":"yes","recycling:plastic":"yes","recycling:waste":"yes","recycling_type":"container"}},"type":"Feature"},
	{"geometry":{"coordinates":[23.803738,53.703932],"type":"Point"},"properties":{"osm_id":"5034866223","tag":{"amenity":"recycling","recycling_type":"container"}},"type":"Feature"},
	{"geometry":{"coordinates":[23.801938,53.708584],"type":"Point"},"properties":{"osm_id":"5113835154","tag":{"amenity":"recycling","recycling_type":"container"}},"type":"Feature"},
	{"geometry":{"coordinates":[23.804077,53.70879],"type":"Point"},"properties":{"osm_id":"5113835155","tag":{"amenity":"recycling","location":"overground","recycling_type":"container"}},"type":"Feature"},
	{"geometry":{"coordinates":[23.810581,53.709451],"type":"Point"},"properties":{"osm_id":"5569903345","tag":{"amenity":"waste_basket"}},"type":"Feature"},
	{"geometry":{"coordinates":[23.798298,53.702497],"type":"Point"},"properties":{"osm_id":"5630477924","tag":{"amenity":"recycling","recycling:glass":"yes"}},"type":"Feature"},
	{"geometry":{"coordinates":[23.798254,53.707177],"type":"Point"},"properties":{"osm_id":"5747801071","tag":{"amenity":"recycling","recycling_type":"container"}},"type":"Feature"},
	{"geometry":{"coordinates":[23.801032,53.700694],"type":"Point"},"properties":{"osm_id":"5747801085","tag":{"amenity":"recycling","recycling_type":"container"}},"type":"Feature"},
	{"geometry":{"coordinates":[23.798179,53.702244],"type":"Point"},"properties":{"osm_id":"5747802182","tag":{"amenity":"recycling","recycling_type":"container"}},"type":"Feature"},
	{"geometry":{"coordinates":[23.79769,53.7037],"type":"Point"},"properties":{"osm_id":"5747802197","tag":{"amenity":"recycling","recycling_type":"container"}},"type":"Feature"},
	{"geometry":{"coordinates":[23.798654,53.705653],"type":"Point"},"properties":{"osm_id":"5747802216","tag":{"amenity":"recycling","recycling_type":"container"}},"type":"Feature"},
	{"geometry":{"coordinates":[23.802727,53.70643],"type":"Point"},"properties":{"osm_id":"5747802226","tag":{"amenity":"recycling","recycling_type":"container"}},"type":"Feature"},
	{"geometry":{"coordinates":[23.803555,53.704933],"type":"Point"},"properties":{"osm_id":"5747802240","tag":{"amenity":"recycling","recycling_type":"container"}},"type":"Feature"},
	{"geometry":{"coordinates":[23.804211,53.705038],"type":"Point"},"properties":{"osm_id":"5747802241","tag":{"amenity":"recycling","recycling_type":"container"}},"type":"Feature"},
	{"geometry":{"coordinates":[23.797288,53.706752],"type":"Point"},"properties":{"osm_id":"5747802252","tag":{"amenity":"recycling","recycling_type":"container"}},"type":"Feature"},
	{"geometry":{"coordinates":[23.812058,53.699405],"type":"Point"},"properties":{"osm_id":"5749539542","tag":{"amenity":"recycling","recycling:waste":"yes","recycling_type":"container"}},"type":"Feature"},
	{"geometry":{"coordinates":[23.814379,53.708151],"type":"Point"},"properties":{"osm_id":"5771785419","ref":"9/3","tag":{"amenity":"recycling","recycling:glass_bottles":"yes","recycling:paper":"yes","recycling:plastic":"yes","recycling:waste":"yes","recycling_type":"container"}},"type":"Feature"},
	{"geometry":{"coordinates":[23.802543,53.701805],"type":"Point"},"properties":{"osm_id":"5810681030","tag":{"amenity":"recycling","recycling:plastic":"yes","recycling:waste":"yes","recycling_type":"container"}},"type":"Feature"},
	{"geometry":{"coordinates":[23.808393,53.702344],"type":"Point"},"properties":{"osm_id":"5899774700","tag":{"amenity":"recycling","recycling_type":"container"}},"type":"Feature"},
	{"geometry":{"coordinates":[23.807112,53.70596],"type":"Point"},"properties":{"osm_id":"5912709465","tag":{"amenity":"recycling","recycling_type":"container"}},"type":"Feature"},
	{"geometry":{"coordinates":[23.810038,53.706284],"type":"Point"},"properties":{"osm_id":"5912709483","tag":{"amenity":"recycling","recycling_type":"container"}},"type":"Feature"},
	{"geometry":{"coordinates":[23.81284,53.709164],"type":"Point"},"properties":{"osm_id":"5912709862","tag":{"amenity":"recycling","recycling_type":"container"}},"type":"Feature"},
	{"geometry":{"coordinates":[23.810642,53.697088],"type":"Point"},"properties":{"osm_id":"5918417191","tag":{"amenity":"recycling","recycling_type":"container"}},"type":"Feature"},
	{"geometry":{"coordinates":[23.801062,53.706662],"type":"Point"},"properties":{"osm_id":"5949279586","tag":{"amenity":"recycling","recycling_type":"container"}},"type":"Feature"},
	{"geometry":{"coordinates":[23.802302,53.707305],"type":"Point"},"properties":{"osm_id":"5950916243","tag":{"amenity":"recycling","recycling_type":"container"}},"type":"Feature"},
	{"geometry":{"coordinates":[23.81584,53.705748],"type":"Point"},"properties":{"osm_id":"5951734714","tag":{"amenity":"recycling","recycling_type":"centre"}},"type":"Feature"},
	{"geometry":{"coordinates":[23.814164,53.703886],"type":"Point"},"properties":{"osm_id":"6069150832","tag":{"amenity":"recycling","recycling_type":"container"}},"type":"Feature"},
	{"geometry":{"coordinates":[23.813915,53.700582],"type":"Point"},"properties":{"osm_id":"6139080121","tag":{"amenity":"recycling","recycling_type":"container"}},"type":"Feature"},
	{"geometry":{"coordinates":[23.815416,53.699976],"type":"Point"},"properties":{"osm_id":"6139080128","tag":{"amenity":"recycling","recycling_type":"container"}},"type":"Feature"},
	{"geometry":{"coordinates":[23.808613,53.700969],"type":"Point"},"properties":{"osm_id":"6144934533","tag":{"amenity":"recycling","recycling_type":"container"}},"type":"Feature"},
	{"geometry":{"coordinates":[23.80745,53.698984],"type":"Point"},"properties":{"osm_id":"6149700498","tag":{"amenity":"recycling","recycling_type":"container"}},"type":"Feature"},
	{"geometry":{"coordinates":[23.804134,53.697516],"type":"Point"},"properties":{"osm_id":"6238838358","tag":{"amenity":"waste_basket"}},"type":"Feature"},
	{"geometry":{"coordinates":[23.803153,53.699704],"type":"Point"},"properties":{"osm_id":"6240591899","tag":{"amenity":"recycling","recycling_type":"centre"}},"type":"Feature"},
	{"geometry":{"coordinates":[23.814713,53.706647],"type":"Point"},"properties":{"osm_id":"6319385636","tag":{"amenity":"recycling","recycling:glass":"yes","recycling:paper":"yes","recycling:waste":"yes","recycling_type":"container"}},"type":"Feature"},
	{"geometry":{"coordinates":[23.813894,53.699668],"type":"Point"},"properties":{"osm_id":"6433291532","tag":{"amenity":"recycling","recycling_type":"container"}},"type":"Feature"},
	{"geometry":{"coordinates":[23.798299,53.705465],"type":"Point"},"properties":{"osm_id":"6570773861","tag":{"amenity":"recycling","recycling_type":"container"}},"type":"Feature"},
	{"geometry":{"coordinates":[23.799472,53.702294],"type":"Point"},"properties":{"osm_id":"6581312970","tag":{"amenity":"recycling","recycling_type":"container"}},"type":"Feature"},
	{"geometry":{"coordinates":[23.803664,53.699436],"type":"Point"},"properties":{"osm_id":"6595295716","tag":{"amenity":"recycling","recycling_type":"container"}},"type":"Feature"},
	{"geometry":{"coordinates":[23.808286,53.706908],"type":"Point"},"properties":{"osm_id":"6760284829","tag":{"amenity":"recycling","recycling_type":"container"}},"type":"Feature"},
	{"geometry":{"coordinates":[23.810644,53.709341],"type":"Point"},"properties":{"osm_id":"6760293636","tag":{"amenity":"waste_basket"}},"type":"Feature"},
	{"geometry":{"coordinates":[23.799717,53.709953],"type":"Point"},"properties":{"osm_id":"6785662869","tag":{"amenity":"waste_basket","material":"metal"}},"type":"Feature"},
	{"geometry":{"coordinates":[23.799964,53.709986],"type":"Point"},"properties":{"osm_id":"6785662870","tag":{"amenity":"waste_basket","material":"metal"}},"type":"Feature"},
	{"geometry":{"coordinates":[23.800229,53.710026],"type":"Point"},"properties":{"osm_id":"6785662871","tag":{"amenity":"waste_basket","material":"metal"}},"type":"Feature"},
	{"geometry":{"coordinates":[23.7979,53.710437],"type":"Point"},"properties":{"osm_id":"6923464390","tag":{"amenity":"waste_basket"}},"type":"Feature"},
	{"geometry":{"coordinates":[23.801304,53.709814],"type":"Point"},"properties":{"osm_id":"6986834092","tag":{"amenity":"waste_basket","material":"metal"}},"type":"Feature"},
	{"geometry":{"coordinates":[23.801159,53.709798],"type":"Point"},"properties":{"osm_id":"6986834093","tag":{"amenity":"waste_basket","material":"metal"}},"type":"Feature"},
	{"geometry":{"coordinates":[23.801163,53.709724],"type":"Point"},"properties":{"osm_id":"6986834094","tag":{"amenity":"waste_basket","material":"metal"}},"type":"Feature"},
	{"geometry":{"coordinates":[23.797913,53.708531],"type":"Point"},"properties":{"osm_id":"7161999683","tag":{"amenity":"waste_basket","material":"steel"}},"type":"Feature"},
	{"geometry":{"coordinates":[23.798129,53.708563],"type":"Point"},"properties":{"osm_id":"7162005485","tag":{"amenity":"waste_basket","material":"steel"}},"type":"Feature"},
	{"geometry":{"coordinates":[23.798323,53.708592],"type":"Point"},"properties":{"osm_id":"7162005488","tag":{"amenity":"waste_basket","material":"steel"}},"type":"Feature"},
	{"geometry":{"coordinates":[23.798963,53.708655],"type":"Point"},"properties":{"osm_id":"7162005491","tag":{"amenity":"waste_basket","material":"steel"}},"type":"Feature"},
	{"geometry":{"coordinates":[23.798679,53.708622],"type":"Point"},"properties":{"osm_id":"7162005494","tag":{"amenity":"waste_basket","material":"steel"}},"type":"Feature"},
	{"geometry":{"coordinates":[23.815857,53.700731],"type":"Point"},"properties":{"osm_id":"7291548283","tag":{"amenity":"waste_basket","material":"concrete","waste":"mixed"}},"type":"Feature"},
	{"geometry":{"coordinates":[23.815839,53.700774],"type":"Point"},"properties":{"osm_id":"7291548284","tag":{"amenity":"waste_basket","material":"concrete","waste":"mixed"}},"type":"Feature"},
	{"geometry":{"coordinates":[23.815071,53.70081],"type":"Point"},"properties":{"osm_id":"7297661444","tag":{"amenity":"recycling","recycling_type":"container"}},"type":"Feature"},
	{"geometry":{"coordinates":[23.798512,53.708776],"type":"Point"},"properties":{"osm_id":"7320564636","tag":{"amenity":"recycling","recycling_type":"container"}},"type":"Feature"},
	{"geometry":{"coordinates":[23.797004,53.70857],"type":"Point"},"properties":{"osm_id":"7320564638","tag":{"amenity":"recycling","recycling_type":"container"}},"type":"Feature"},
	{"geometry":{"coordinates":[23.796828,53.708576],"type":"Point"},"properties":{"osm_id":"7320564639","tag":{"amenity":"recycling","recycling_type":"container"}},"type":"Feature"},
	{"geometry":{"coordinates":[23.777539,53.697384],"type":"Point"},"properties":{"osm_id":"7399607899","tag":{"amenity":"recycling","recycling_type":"container"}},"type":"Feature"},
	{"geometry":{"coordinates":[23.803064,53.709073],"type":"Point"},"properties":{"osm_id":"7592470363","tag":{"amenity":"recycling","recycling:batteries":"yes","recycling_type":"container"}},"type":"Feature"},
	{"geometry":{"coordinates":[23.800179,53.707673],"type":"Point"},"properties":{"osm_id":"7598089765","tag":{"amenity":"recycling","recycling_type":"container"}},"type":"Feature"},
	{"geometry":{"coordinates":[23.796737,53.709243],"type":"Point"},"properties":{"osm_id":"7602789095","tag":{"amenity":"recycling","recycling_type":"container"}},"type":"Feature"},
	{"geometry":{"coordinates":[23.806257,53.707731],"type":"Point"},"properties":{"osm_id":"7872709785","ref":"9/12","tag":{"amenity":"recycling","location":"overground","recycling:glass_bottles":"yes","recycling:paper":"yes","recycling:plastic":"yes","recycling:waste":"yes","recycling_type":"container"}},"type":"Feature"},
	{"geometry":{"coordinates":[23.809132,53.707234],"type":"Point"},"properties":{"osm_id":"7872709885","ref":"9/17","tag":{"amenity":"recycling","location":"overground","recycling:glass_bottles":"yes","recycling:paper":"yes","recycling:plastic":"yes","recycling:waste":"yes","recycling_type":"container"}},"type":"Feature"},
	{"geometry":{"coordinates":[23.810057,53.707012],"type":"Point"},"properties":{"osm_id":"7872709985","ref":"9/16","tag":{"amenity":"recycling","location":"overground","recycling:glass_bottles":"yes","recycling:paper":"yes","recycling:plastic":"yes","recycling:waste":"yes","recycling_type":"container"}},"type":"Feature"}
]
}
