{
"type": "FeatureCollection",
"lastupdate": "2020-08-04T00:00:00Z",
"features": [
	{"geometry":{"coordinates":[23.740532,38.086781],"type":"Point"},"properties":{"osm_id":"2802120155","tag":{"amenity":"recycling","recycling:clothes":"yes"}},"type":"Feature"},
	{"geometry":{"coordinates":[23.750256,38.096428],"type":"Point"},"properties":{"osm_id":"3026948748","tag":{"amenity":"recycling","operator":"\u03a3\u03ba\u03bb\u03b1\u03b2\u03b5\u03bd\u03af\u03c4\u03b7\u03c2","recycling:cooking_oil":"yes","recycling:fluorescent_tubes":"yes","recycling:low_energy_bulbs":"yes","recycling:small_appliances":"yes","recycling_type":"container"}},"type":"Feature"},
	{"geometry":{"coordinates":[23.814706,38.071915],"type":"Point"},"properties":{"osm_id":"4721275657","tag":{"amenity":"recycling","location":"overground","recycling_type":"container"}},"type":"Feature"},
	{"geometry":{"coordinates":[23.813172,38.072025],"type":"Point"},"properties":{"osm_id":"4721275664","tag":{"amenity":"recycling","location":"overground","recycling_type":"container"}},"type":"Feature"},
	{"geometry":{"coordinates":[23.812228,38.070225],"type":"Point"},"properties":{"osm_id":"4721277586","tag":{"amenity":"recycling"}},"type":"Feature"},
	{"geometry":{"coordinates":[23.796011,38.091747],"type":"Point"},"properties":{"osm_id":"4936920384","tag":{"addr:street":"\u03a1\u03cc\u03b4\u03c9\u03bd","amenity":"recycling","recycling:glass":"yes","recycling_type":"container"}},"type":"Feature"},
	{"geometry":{"coordinates":[23.732565,38.077558],"type":"Point"},"properties":{"osm_id":"6155055288","tag":{"amenity":"waste_basket"}},"type":"Feature"},
	{"geometry":{"coordinates":[23.735201,38.10574],"type":"Point"},"properties":{"osm_id":"6164809368","tag":{"amenity":"waste_basket"}},"type":"Feature"},
	{"geometry":{"coordinates":[23.735076,38.105932],"type":"Point"},"properties":{"osm_id":"6164809624","tag":{"amenity":"waste_basket"}},"type":"Feature"},
	{"geometry":{"coordinates":[23.73501,38.105646],"type":"Point"},"properties":{"osm_id":"6164809625","tag":{"amenity":"waste_basket"}},"type":"Feature"},
	{"geometry":{"coordinates":[23.732006,38.077934],"type":"Point"},"properties":{"osm_id":"6271552326","tag":{"amenity":"waste_basket"}},"type":"Feature"},
	{"geometry":{"coordinates":[23.731987,38.07805],"type":"Point"},"properties":{"osm_id":"6271555293","tag":{"amenity":"waste_basket"}},"type":"Feature"},
	{"geometry":{"coordinates":[23.793854,38.120416],"type":"Point"},"properties":{"osm_id":"6316487164","tag":{"amenity":"waste_basket"}},"type":"Feature"},
	{"geometry":{"coordinates":[23.792579,38.121009],"type":"Point"},"properties":{"osm_id":"6316487504","tag":{"amenity":"waste_basket"}},"type":"Feature"},
	{"geometry":{"coordinates":[23.793814,38.120521],"type":"Point"},"properties":{"osm_id":"6316487510","tag":{"amenity":"waste_basket"}},"type":"Feature"},
	{"geometry":{"coordinates":[23.7946,38.12023],"type":"Point"},"properties":{"osm_id":"6316491037","tag":{"amenity":"waste_basket"}},"type":"Feature"},
	{"geometry":{"coordinates":[23.79329,38.120867],"type":"Point"},"properties":{"osm_id":"6316492337","tag":{"amenity":"waste_basket"}},"type":"Feature"},
	{"geometry":{"coordinates":[23.792605,38.12142],"type":"Point"},"properties":{"osm_id":"6316492338","tag":{"amenity":"waste_basket"}},"type":"Feature"},
	{"geometry":{"coordinates":[23.792597,38.121245],"type":"Point"},"properties":{"osm_id":"6316492339","tag":{"amenity":"waste_basket"}},"type":"Feature"},
	{"geometry":{"coordinates":[23.792913,38.121225],"type":"Point"},"properties":{"osm_id":"6316492340","tag":{"amenity":"waste_basket"}},"type":"Feature"},
	{"geometry":{"coordinates":[23.792683,38.120403],"type":"Point"},"properties":{"osm_id":"6316492631","tag":{"amenity":"waste_basket"}},"type":"Feature"},
	{"geometry":{"coordinates":[23.793253,38.1213],"type":"Point"},"properties":{"osm_id":"6316492636","tag":{"amenity":"waste_basket"}},"type":"Feature"},
	{"geometry":{"coordinates":[23.792598,38.121355],"type":"Point"},"properties":{"osm_id":"6316492650","tag":{"amenity":"waste_basket"}},"type":"Feature"},
	{"geometry":{"coordinates":[23.793118,38.120705],"type":"Point"},"properties":{"osm_id":"6316492743","tag":{"amenity":"waste_basket"}},"type":"Feature"},
	{"geometry":{"coordinates":[23.793414,38.120342],"type":"Point"},"properties":{"osm_id":"6316492947","tag":{"amenity":"waste_basket"}},"type":"Feature"},
	{"geometry":{"coordinates":[23.792238,38.12066],"type":"Point"},"properties":{"osm_id":"6316493091","tag":{"amenity":"waste_basket"}},"type":"Feature"},
	{"geometry":{"coordinates":[23.793108,38.121055],"type":"Point"},"properties":{"osm_id":"6316493641","tag":{"amenity":"waste_basket"}},"type":"Feature"},
	{"geometry":{"coordinates":[23.791824,38.120929],"type":"Point"},"properties":{"osm_id":"6316521217","tag":{"amenity":"waste_basket"}},"type":"Feature"},
	{"geometry":{"coordinates":[23.792028,38.121053],"type":"Point"},"properties":{"osm_id":"6316521378","tag":{"amenity":"waste_basket"}},"type":"Feature"},
	{"geometry":{"coordinates":[23.791633,38.120518],"type":"Point"},"properties":{"osm_id":"6316521379","tag":{"amenity":"waste_basket"}},"type":"Feature"},
	{"geometry":{"coordinates":[23.79433,38.120739],"type":"Point"},"properties":{"osm_id":"6318620251","tag":{"amenity":"waste_basket"}},"type":"Feature"},
	{"geometry":{"coordinates":[23.796238,38.12061],"type":"Point"},"properties":{"osm_id":"6318620255","tag":{"amenity":"waste_basket"}},"type":"Feature"},
	{"geometry":{"coordinates":[23.795767,38.120391],"type":"Point"},"properties":{"osm_id":"6318632110","tag":{"amenity":"waste_basket"}},"type":"Feature"},
	{"geometry":{"coordinates":[23.794258,38.120817],"type":"Point"},"properties":{"osm_id":"6318632112","tag":{"amenity":"waste_basket"}},"type":"Feature"},
	{"geometry":{"coordinates":[23.793788,38.120852],"type":"Point"},"properties":{"osm_id":"6318633697","tag":{"amenity":"waste_basket"}},"type":"Feature"},
	{"geometry":{"coordinates":[23.795407,38.120614],"type":"Point"},"properties":{"osm_id":"6318633699","tag":{"amenity":"waste_basket"}},"type":"Feature"},
	{"geometry":{"coordinates":[23.795849,38.120502],"type":"Point"},"properties":{"osm_id":"6318633700","tag":{"amenity":"waste_basket"}},"type":"Feature"},
	{"geometry":{"coordinates":[23.795917,38.120567],"type":"Point"},"properties":{"osm_id":"6318633701","tag":{"amenity":"waste_basket"}},"type":"Feature"},
	{"geometry":{"coordinates":[23.794626,38.120785],"type":"Point"},"properties":{"osm_id":"6318633702","tag":{"amenity":"waste_basket"}},"type":"Feature"},
	{"geometry":{"coordinates":[23.795992,38.120567],"type":"Point"},"properties":{"osm_id":"6318635100","tag":{"amenity":"waste_basket"}},"type":"Feature"},
	{"geometry":{"coordinates":[23.794504,38.12064],"type":"Point"},"properties":{"osm_id":"6321221601","tag":{"amenity":"waste_basket"}},"type":"Feature"},
	{"geometry":{"coordinates":[23.795468,38.120103],"type":"Point"},"properties":{"osm_id":"6321221602","tag":{"amenity":"waste_basket"}},"type":"Feature"},
	{"geometry":{"coordinates":[23.796055,38.120072],"type":"Point"},"properties":{"osm_id":"6321221603","tag":{"amenity":"waste_basket"}},"type":"Feature"},
	{"geometry":{"coordinates":[23.797179,38.120005],"type":"Point"},"properties":{"osm_id":"6321221604","tag":{"amenity":"waste_basket"}},"type":"Feature"},
	{"geometry":{"coordinates":[23.796543,38.120423],"type":"Point"},"properties":{"osm_id":"6321221605","tag":{"amenity":"waste_basket"}},"type":"Feature"},
	{"geometry":{"coordinates":[23.794667,38.12054],"type":"Point"},"properties":{"osm_id":"6321221606","tag":{"amenity":"waste_basket"}},"type":"Feature"},
	{"geometry":{"coordinates":[23.795278,38.120504],"type":"Point"},"properties":{"osm_id":"6321221880","tag":{"amenity":"waste_basket"}},"type":"Feature"},
	{"geometry":{"coordinates":[23.795527,38.121143],"type":"Point"},"properties":{"osm_id":"6323408442","tag":{"amenity":"waste_basket"}},"type":"Feature"},
	{"geometry":{"coordinates":[23.79752,38.120537],"type":"Point"},"properties":{"osm_id":"6323408444","tag":{"amenity":"waste_basket"}},"type":"Feature"},
	{"geometry":{"coordinates":[23.795168,38.121168],"type":"Point"},"properties":{"osm_id":"6323409441","tag":{"amenity":"waste_basket"}},"type":"Feature"},
	{"geometry":{"coordinates":[23.797391,38.120935],"type":"Point"},"properties":{"osm_id":"6323409444","tag":{"amenity":"waste_basket"}},"type":"Feature"},
	{"geometry":{"coordinates":[23.794079,38.12119],"type":"Point"},"properties":{"osm_id":"6323409504","tag":{"amenity":"waste_basket"}},"type":"Feature"},
	{"geometry":{"coordinates":[23.795378,38.121148],"type":"Point"},"properties":{"osm_id":"6323409505","tag":{"amenity":"waste_basket"}},"type":"Feature"},
	{"geometry":{"coordinates":[23.794915,38.120988],"type":"Point"},"properties":{"osm_id":"6323409506","tag":{"amenity":"waste_basket"}},"type":"Feature"},
	{"geometry":{"coordinates":[23.796597,38.120661],"type":"Point"},"properties":{"osm_id":"6323409507","tag":{"amenity":"waste_basket"}},"type":"Feature"},
	{"geometry":{"coordinates":[23.796909,38.121013],"type":"Point"},"properties":{"osm_id":"6323409508","tag":{"amenity":"waste_basket"}},"type":"Feature"},
	{"geometry":{"coordinates":[23.785319,38.071877],"type":"Point"},"properties":{"osm_id":"6419203156","tag":{"amenity":"recycling","recycling_type":"container"}},"type":"Feature"},
	{"geometry":{"coordinates":[23.732736,38.07487],"type":"Point"},"properties":{"osm_id":"6488590021","tag":{"amenity":"waste_basket"}},"type":"Feature"},
	{"geometry":{"coordinates":[23.732604,38.07503],"type":"Point"},"properties":{"osm_id":"6488590023","tag":{"amenity":"waste_basket"}},"type":"Feature"},
	{"geometry":{"coordinates":[23.73259,38.07488],"type":"Point"},"properties":{"osm_id":"6488590091","tag":{"amenity":"waste_basket"}},"type":"Feature"},
	{"geometry":{"coordinates":[23.735932,38.080578],"type":"Point"},"properties":{"osm_id":"6491337281","tag":{"amenity":"waste_basket"}},"type":"Feature"},
	{"geometry":{"coordinates":[23.736137,38.080738],"type":"Point"},"properties":{"osm_id":"6491338674","tag":{"amenity":"waste_basket"}},"type":"Feature"},
	{"geometry":{"coordinates":[23.735709,38.080748],"type":"Point"},"properties":{"osm_id":"6491338675","tag":{"amenity":"waste_basket"}},"type":"Feature"},
	{"geometry":{"coordinates":[23.736224,38.08079],"type":"Point"},"properties":{"osm_id":"6491341720","tag":{"amenity":"waste_basket"}},"type":"Feature"},
	{"geometry":{"coordinates":[23.736046,38.080729],"type":"Point"},"properties":{"osm_id":"6491342168","tag":{"amenity":"waste_basket"}},"type":"Feature"}
]
}
