{
"type": "FeatureCollection",
"features": [
	{"geometry":{"coordinates":[23.739746,37.907798],"type":"Point"},"properties":{"osm_id":"4290173136","tag":{"amenity":"recycling","recycling:cans":"yes","recycling:glass":"yes","recycling:paper":"yes","recycling:plastic":"yes","recycling_type":"container"}},"type":"Feature"},
	{"geometry":{"coordinates":[23.739762,37.907675],"type":"Point"},"properties":{"osm_id":"4290173137","tag":{"amenity":"waste_basket"}},"type":"Feature"},
	{"geometry":{"coordinates":[23.739522,37.907607],"type":"Point"},"properties":{"osm_id":"4290173138","tag":{"amenity":"waste_basket"}},"type":"Feature"},
	{"geometry":{"coordinates":[23.739478,37.907609],"type":"Point"},"properties":{"osm_id":"4290173139","tag":{"amenity":"recycling","recycling:cans":"yes","recycling:glass":"yes","recycling:paper":"yes","recycling:plastic":"yes","recycling_type":"container"}},"type":"Feature"},
	{"geometry":{"coordinates":[23.739249,37.907099],"type":"Point"},"properties":{"osm_id":"4290173140","tag":{"amenity":"recycling","recycling:cans":"yes","recycling:glass":"yes","recycling:paper":"yes","recycling:plastic":"yes","recycling_type":"container"}},"type":"Feature"},
	{"geometry":{"coordinates":[23.740048,37.90697],"type":"Point"},"properties":{"osm_id":"4290173141","tag":{"amenity":"waste_basket"}},"type":"Feature"},
	{"geometry":{"coordinates":[23.740065,37.906946],"type":"Point"},"properties":{"osm_id":"4290173142","tag":{"amenity":"recycling","recycling:cans":"yes","recycling:glass":"yes","recycling:paper":"yes","recycling:plastic":"yes","recycling_type":"container"}},"type":"Feature"},
	{"geometry":{"coordinates":[23.741394,37.906576],"type":"Point"},"properties":{"osm_id":"4290173145","tag":{"amenity":"waste_basket"}},"type":"Feature"},
	{"geometry":{"coordinates":[23.740436,37.909113],"type":"Point"},"properties":{"osm_id":"4290173150","tag":{"amenity":"waste_basket"}},"type":"Feature"},
	{"geometry":{"coordinates":[23.737612,37.906421],"type":"Point"},"properties":{"osm_id":"4290173176","tag":{"amenity":"waste_basket"}},"type":"Feature"},
	{"geometry":{"coordinates":[23.740419,37.909087],"type":"Point"},"properties":{"osm_id":"4293468896","tag":{"amenity":"recycling"}},"type":"Feature"},
	{"geometry":{"coordinates":[23.739273,37.907133],"type":"Point"},"properties":{"osm_id":"4293468897","tag":{"amenity":"waste_basket"}},"type":"Feature"},
	{"geometry":{"coordinates":[23.741361,37.906581],"type":"Point"},"properties":{"osm_id":"4293468898","tag":{"amenity":"recycling","recycling:cans":"yes","recycling:glass":"yes","recycling:paper":"yes","recycling:plastic":"yes","recycling_type":"container"}},"type":"Feature"},
	{"geometry":{"coordinates":[23.741803,37.906527],"type":"Point"},"properties":{"osm_id":"4293468899","tag":{"amenity":"recycling","recycling:glass":"yes","recycling:paper":"yes","recycling:plastic":"yes","recycling_type":"container"}},"type":"Feature"},
	{"geometry":{"coordinates":[23.741935,37.906399],"type":"Point"},"properties":{"osm_id":"4293468907","tag":{"amenity":"waste_basket"}},"type":"Feature"},
	{"geometry":{"coordinates":[23.742429,37.906448],"type":"Point"},"properties":{"osm_id":"4293468908","tag":{"amenity":"recycling","recycling:cans":"yes","recycling:glass":"yes","recycling:paper":"yes","recycling:plastic":"yes","recycling_type":"container"}},"type":"Feature"},
	{"geometry":{"coordinates":[23.742471,37.906449],"type":"Point"},"properties":{"osm_id":"4293468909","tag":{"amenity":"waste_basket"}},"type":"Feature"},
	{"geometry":{"coordinates":[23.742442,37.906331],"type":"Point"},"properties":{"osm_id":"4293468910","tag":{"amenity":"waste_basket"}},"type":"Feature"},
	{"geometry":{"coordinates":[23.751448,37.909953],"type":"Point"},"properties":{"osm_id":"4321138744","tag":{"amenity":"recycling","location":"overground","recycling_type":"container"}},"type":"Feature"},
	{"geometry":{"coordinates":[23.751456,37.909981],"type":"Point"},"properties":{"osm_id":"4321138745","tag":{"amenity":"waste_disposal"}},"type":"Feature"},
	{"geometry":{"coordinates":[23.75197,37.909033],"type":"Point"},"properties":{"osm_id":"4321138763","tag":{"amenity":"waste_disposal"}},"type":"Feature"},
	{"geometry":{"coordinates":[23.753344,37.906964],"type":"Point"},"properties":{"osm_id":"4325101028","tag":{"amenity":"recycling"}},"type":"Feature"},
	{"geometry":{"coordinates":[23.753365,37.906925],"type":"Point"},"properties":{"osm_id":"4325101029","tag":{"amenity":"waste_disposal"}},"type":"Feature"},
	{"geometry":{"coordinates":[23.744242,37.90547],"type":"Point"},"properties":{"osm_id":"4367513266","tag":{"amenity":"waste_disposal"}},"type":"Feature"},
	{"geometry":{"coordinates":[23.744286,37.905468],"type":"Point"},"properties":{"osm_id":"4367513267","tag":{"amenity":"recycling"}},"type":"Feature"},
	{"geometry":{"coordinates":[23.761202,37.909006],"type":"Point"},"properties":{"osm_id":"4762654444","tag":{"amenity":"waste_basket","material":"wood"}},"type":"Feature"},
	{"geometry":{"coordinates":[23.736025,37.873141],"type":"Point"},"properties":{"osm_id":"4872851830","tag":{"amenity":"recycling"}},"type":"Feature"},
	{"geometry":{"coordinates":[23.762473,37.914187],"type":"Point"},"properties":{"osm_id":"4954298863","tag":{"amenity":"waste_disposal"}},"type":"Feature"},
	{"geometry":{"coordinates":[23.742837,37.864776],"type":"Point"},"properties":{"osm_id":"5097623723","tag":{"amenity":"waste_basket"}},"type":"Feature"},
	{"geometry":{"coordinates":[23.743256,37.864579],"type":"Point"},"properties":{"osm_id":"5097630221","tag":{"amenity":"waste_basket"}},"type":"Feature"},
	{"geometry":{"coordinates":[23.759201,37.910377],"type":"Point"},"properties":{"osm_id":"5381255982","tag":{"amenity":"waste_disposal"}},"type":"Feature"},
	{"geometry":{"coordinates":[23.75922,37.910369],"type":"Point"},"properties":{"osm_id":"5381255983","tag":{"amenity":"recycling","recycling_type":"container"}},"type":"Feature"},
	{"geometry":{"coordinates":[23.7478,37.891235],"type":"Point"},"properties":{"osm_id":"5824558306","tag":{"amenity":"waste_basket"}},"type":"Feature"},
	{"geometry":{"coordinates":[23.747852,37.89093],"type":"Point"},"properties":{"osm_id":"5824558629","tag":{"amenity":"waste_basket"}},"type":"Feature"},
	{"geometry":{"coordinates":[23.736422,37.873188],"type":"Point"},"properties":{"osm_id":"6615244556","tag":{"amenity":"recycling","recycling:glass_bottles":"yes","recycling_type":"container"}},"type":"Feature"},
	{"geometry":{"coordinates":[23.764809,37.870787],"type":"Point"},"properties":{"osm_id":"6906244593","tag":{"amenity":"recycling","colour":"blue","material":"plastic","recycling:glass_bottles":"yes","recycling_type":"container"}},"type":"Feature"},
	{"geometry":{"coordinates":[23.733854,37.917023],"type":"Point"},"properties":{"osm_id":"6913653820","tag":{"amenity":"waste_disposal"}},"type":"Feature"},
	{"geometry":{"coordinates":[23.762859,37.91449],"type":"Point"},"properties":{"osm_id":"7034543377","tag":{"amenity":"waste_disposal"}},"type":"Feature"},
	{"geometry":{"coordinates":[23.736452,37.920748],"type":"Point"},"properties":{"osm_id":"7110984390","tag":{"amenity":"waste_disposal"}},"type":"Feature"},
	{"geometry":{"coordinates":[23.737312,37.920667],"type":"Point"},"properties":{"osm_id":"7110984391","tag":{"amenity":"waste_disposal"}},"type":"Feature"},
	{"geometry":{"coordinates":[23.737415,37.920808],"type":"Point"},"properties":{"osm_id":"7110984392","tag":{"amenity":"waste_disposal"}},"type":"Feature"},
	{"geometry":{"coordinates":[23.737016,37.921217],"type":"Point"},"properties":{"osm_id":"7110984395","tag":{"amenity":"waste_disposal"}},"type":"Feature"},
	{"geometry":{"coordinates":[23.737383,37.920819],"type":"Point"},"properties":{"osm_id":"7118157994","tag":{"amenity":"waste_disposal"}},"type":"Feature"},
	{"geometry":{"coordinates":[23.737398,37.920814],"type":"Point"},"properties":{"osm_id":"7118157995","tag":{"amenity":"recycling","recycling_type":"container"}},"type":"Feature"},
	{"geometry":{"coordinates":[23.73643,37.920747],"type":"Point"},"properties":{"osm_id":"7118157996","tag":{"amenity":"recycling","recycling_type":"container"}},"type":"Feature"},
	{"geometry":{"coordinates":[23.738626,37.92388],"type":"Point"},"properties":{"osm_id":"7177737761","tag":{"amenity":"waste_disposal"}},"type":"Feature"},
	{"geometry":{"coordinates":[23.738616,37.923872],"type":"Point"},"properties":{"osm_id":"7177737762","tag":{"amenity":"recycling","recycling_type":"centre"}},"type":"Feature"},
	{"geometry":{"coordinates":[23.738633,37.923886],"type":"Point"},"properties":{"osm_id":"7177737763","tag":{"amenity":"recycling","recycling_type":"centre"}},"type":"Feature"},
	{"geometry":{"coordinates":[23.736912,37.9202],"type":"Point"},"properties":{"osm_id":"7177801095","tag":{"amenity":"recycling","recycling_type":"container"}},"type":"Feature"},
	{"geometry":{"coordinates":[23.736894,37.920187],"type":"Point"},"properties":{"osm_id":"7177801096","tag":{"amenity":"waste_disposal"}},"type":"Feature"},
	{"geometry":{"coordinates":[23.738094,37.906311],"type":"Point"},"properties":{"osm_id":"7858754566","tag":{"amenity":"recycling","recycling:cans":"yes","recycling:glass":"yes","recycling:paper":"yes","recycling:plastic":"yes","recycling_type":"container"}},"type":"Feature"},
	{"geometry":{"coordinates":[23.748389,37.905939],"type":"Point"},"properties":{"osm_id":"7858754567","tag":{"amenity":"recycling","recycling:glass_bottles":"yes","recycling_type":"container"}},"type":"Feature"},
	{"geometry":{"coordinates":[23.734366,37.917334],"type":"Point"},"properties":{"osm_id":"7922900110","tag":{"amenity":"recycling","recycling_type":"centre"}},"type":"Feature"},
	{"geometry":{"coordinates":[23.734346,37.917321],"type":"Point"},"properties":{"osm_id":"7922900111","tag":{"amenity":"waste_disposal"}},"type":"Feature"},
	{"geometry":{"coordinates":[23.736017,37.915157],"type":"Point"},"properties":{"osm_id":"7922900143","tag":{"amenity":"waste_disposal"}},"type":"Feature"},
	{"geometry":{"coordinates":[23.736033,37.915159],"type":"Point"},"properties":{"osm_id":"7922900144","tag":{"amenity":"recycling","recycling_type":"centre"}},"type":"Feature"}
]
}
