{
"type": "FeatureCollection",
"features": [
	{"geometry":{"coordinates":[114.171717,22.458639],"type":"Point"},"properties":{"osm_id":"1563668706","tag":{"amenity":"waste_basket"}},"type":"Feature"},
	{"geometry":{"coordinates":[114.17156,22.458417],"type":"Point"},"properties":{"osm_id":"1563668727","tag":{"amenity":"waste_basket"}},"type":"Feature"},
	{"geometry":{"coordinates":[114.171781,22.459226],"type":"Point"},"properties":{"osm_id":"2021628781","tag":{"amenity":"waste_disposal"}},"type":"Feature"},
	{"geometry":{"coordinates":[114.171563,22.458464],"type":"Point"},"properties":{"osm_id":"2021651134","tag":{"amenity":"recycling"}},"type":"Feature"},
	{"geometry":{"coordinates":[114.18025,22.496968],"type":"Point"},"properties":{"osm_id":"3546367598","tag":{"amenity":"recycling","recycling:cans":"yes","recycling:paper":"yes"}},"type":"Feature"},
	{"geometry":{"coordinates":[114.178818,22.499043],"type":"Point"},"properties":{"osm_id":"3546367600","tag":{"amenity":"recycling","recycling:cans":"yes","recycling:paper":"yes"}},"type":"Feature"},
	{"geometry":{"coordinates":[114.176413,22.502657],"type":"Point"},"properties":{"osm_id":"3546367601","tag":{"amenity":"recycling","recycling:cans":"yes","recycling:paper":"yes"}},"type":"Feature"},
	{"geometry":{"coordinates":[114.188068,22.452328],"type":"Point"},"properties":{"osm_id":"5787083047","tag":{"amenity":"waste_basket","waste":"trash"}},"type":"Feature"},
	{"geometry":{"coordinates":[114.190093,22.451873],"type":"Point"},"properties":{"osm_id":"5787083178","tag":{"amenity":"waste_basket","waste":"trash"}},"type":"Feature"},
	{"geometry":{"coordinates":[114.190904,22.451609],"type":"Point"},"properties":{"osm_id":"5787083179","tag":{"amenity":"waste_basket","waste":"trash"}},"type":"Feature"},
	{"geometry":{"coordinates":[114.191463,22.451729],"type":"Point"},"properties":{"osm_id":"5787083187","tag":{"amenity":"waste_basket","waste":"trash"}},"type":"Feature"},
	{"geometry":{"coordinates":[114.19149,22.45168],"type":"Point"},"properties":{"osm_id":"5787083188","tag":{"amenity":"waste_basket","waste":"trash"}},"type":"Feature"},
	{"geometry":{"coordinates":[114.191504,22.451504],"type":"Point"},"properties":{"osm_id":"5787083189","tag":{"amenity":"waste_basket","waste":"trash"}},"type":"Feature"},
	{"geometry":{"coordinates":[114.191546,22.451496],"type":"Point"},"properties":{"osm_id":"5787083190","tag":{"amenity":"waste_basket","waste":"trash"}},"type":"Feature"},
	{"geometry":{"coordinates":[114.193124,22.450894],"type":"Point"},"properties":{"osm_id":"5787083203","tag":{"amenity":"waste_basket","waste":"trash"}},"type":"Feature"},
	{"geometry":{"coordinates":[114.192906,22.451411],"type":"Point"},"properties":{"osm_id":"5787083238","tag":{"amenity":"waste_basket","waste":"trash"}},"type":"Feature"},
	{"geometry":{"coordinates":[114.192823,22.451379],"type":"Point"},"properties":{"osm_id":"5787083241","tag":{"amenity":"waste_basket","waste":"trash"}},"type":"Feature"},
	{"geometry":{"coordinates":[114.177281,22.449853],"type":"Point"},"properties":{"osm_id":"5787743185","tag":{"amenity":"waste_basket","colour":"orange","waste":"trash"}},"type":"Feature"},
	{"geometry":{"coordinates":[114.177997,22.453348],"type":"Point"},"properties":{"osm_id":"5787743188","tag":{"amenity":"waste_basket","waste":"trash"}},"type":"Feature"},
	{"geometry":{"coordinates":[114.178169,22.453552],"type":"Point"},"properties":{"osm_id":"5787743189","tag":{"amenity":"waste_basket","waste":"trash"}},"type":"Feature"},
	{"geometry":{"coordinates":[114.179134,22.452989],"type":"Point"},"properties":{"osm_id":"5787743190","tag":{"amenity":"waste_basket","waste":"trash"}},"type":"Feature"},
	{"geometry":{"coordinates":[114.180174,22.452114],"type":"Point"},"properties":{"osm_id":"5787743199","tag":{"amenity":"waste_basket","waste":"trash"}},"type":"Feature"},
	{"geometry":{"coordinates":[114.179908,22.452241],"type":"Point"},"properties":{"osm_id":"5787743200","tag":{"amenity":"waste_basket","waste":"trash"}},"type":"Feature"},
	{"geometry":{"coordinates":[114.178911,22.45287],"type":"Point"},"properties":{"osm_id":"5787743210","tag":{"amenity":"waste_basket","waste":"trash"}},"type":"Feature"},
	{"geometry":{"coordinates":[114.178992,22.452862],"type":"Point"},"properties":{"osm_id":"5787743211","tag":{"amenity":"waste_basket","waste":"trash"}},"type":"Feature"},
	{"geometry":{"coordinates":[114.179026,22.452795],"type":"Point"},"properties":{"osm_id":"5787743212","tag":{"amenity":"waste_basket","waste":"trash"}},"type":"Feature"},
	{"geometry":{"coordinates":[114.179263,22.452669],"type":"Point"},"properties":{"osm_id":"5787743214","tag":{"amenity":"waste_basket","waste":"trash"}},"type":"Feature"},
	{"geometry":{"coordinates":[114.178697,22.451278],"type":"Point"},"properties":{"osm_id":"5787743866","tag":{"amenity":"waste_basket","waste":"trash"}},"type":"Feature"},
	{"geometry":{"coordinates":[114.177642,22.449467],"type":"Point"},"properties":{"osm_id":"5787743913","tag":{"amenity":"waste_basket","waste":"trash"}},"type":"Feature"},
	{"geometry":{"coordinates":[114.17812,22.449482],"type":"Point"},"properties":{"osm_id":"5787743915","tag":{"amenity":"waste_basket","waste":"trash"}},"type":"Feature"},
	{"geometry":{"coordinates":[114.17895,22.449492],"type":"Point"},"properties":{"osm_id":"5787743916","tag":{"amenity":"waste_basket","waste":"trash"}},"type":"Feature"},
	{"geometry":{"coordinates":[114.180178,22.449657],"type":"Point"},"properties":{"osm_id":"5787743922","tag":{"amenity":"waste_basket","colour":"yellow","waste":"trash"}},"type":"Feature"},
	{"geometry":{"coordinates":[114.180285,22.449744],"type":"Point"},"properties":{"osm_id":"5787743923","tag":{"amenity":"waste_basket","waste":"trash"}},"type":"Feature"},
	{"geometry":{"coordinates":[114.180531,22.449974],"type":"Point"},"properties":{"osm_id":"5787743928","tag":{"amenity":"waste_basket","waste":"trash"}},"type":"Feature"},
	{"geometry":{"coordinates":[114.180432,22.449895],"type":"Point"},"properties":{"osm_id":"5787743929","tag":{"amenity":"waste_basket","waste":"trash"}},"type":"Feature"},
	{"geometry":{"coordinates":[114.180454,22.450098],"type":"Point"},"properties":{"osm_id":"5787743930","tag":{"amenity":"waste_basket","waste":"trash"}},"type":"Feature"},
	{"geometry":{"coordinates":[114.180679,22.450207],"type":"Point"},"properties":{"osm_id":"5787743931","tag":{"amenity":"waste_basket","waste":"trash"}},"type":"Feature"},
	{"geometry":{"coordinates":[114.180728,22.4509],"type":"Point"},"properties":{"osm_id":"5787743935","tag":{"amenity":"waste_basket","waste":"trash"}},"type":"Feature"},
	{"geometry":{"coordinates":[114.180844,22.450824],"type":"Point"},"properties":{"osm_id":"5787743936","tag":{"amenity":"waste_basket","waste":"trash"}},"type":"Feature"},
	{"geometry":{"coordinates":[114.180866,22.450963],"type":"Point"},"properties":{"osm_id":"5787744232","tag":{"amenity":"waste_basket","waste":"trash"}},"type":"Feature"},
	{"geometry":{"coordinates":[114.180997,22.45141],"type":"Point"},"properties":{"osm_id":"5787744233","tag":{"amenity":"waste_basket","waste":"trash"}},"type":"Feature"},
	{"geometry":{"coordinates":[114.18121,22.452029],"type":"Point"},"properties":{"osm_id":"5787744239","tag":{"amenity":"waste_basket","waste":"trash"}},"type":"Feature"},
	{"geometry":{"coordinates":[114.181353,22.45204],"type":"Point"},"properties":{"osm_id":"5787744240","tag":{"amenity":"waste_basket","waste":"trash"}},"type":"Feature"},
	{"geometry":{"coordinates":[114.18188,22.452567],"type":"Point"},"properties":{"osm_id":"5787744269","tag":{"amenity":"waste_basket","colour":"yellow","waste":"trash"}},"type":"Feature"},
	{"geometry":{"coordinates":[114.183288,22.452693],"type":"Point"},"properties":{"osm_id":"5787744277","tag":{"amenity":"waste_basket","waste":"trash"}},"type":"Feature"},
	{"geometry":{"coordinates":[114.184106,22.452691],"type":"Point"},"properties":{"osm_id":"5787744286","tag":{"amenity":"waste_basket","waste":"trash"}},"type":"Feature"},
	{"geometry":{"coordinates":[114.184921,22.452687],"type":"Point"},"properties":{"osm_id":"5787744293","tag":{"amenity":"waste_basket","waste":"trash"}},"type":"Feature"},
	{"geometry":{"coordinates":[114.186938,22.452579],"type":"Point"},"properties":{"osm_id":"5787744419","tag":{"amenity":"waste_basket","waste":"trash"}},"type":"Feature"},
	{"geometry":{"coordinates":[114.170135,22.448313],"type":"Point"},"properties":{"osm_id":"5788913023","tag":{"amenity":"waste_basket","waste":"trash"}},"type":"Feature"},
	{"geometry":{"coordinates":[114.170988,22.448232],"type":"Point"},"properties":{"osm_id":"5788913024","tag":{"amenity":"waste_basket","waste":"trash"}},"type":"Feature"},
	{"geometry":{"coordinates":[114.171686,22.450292],"type":"Point"},"properties":{"osm_id":"5788913025","tag":{"amenity":"waste_basket","waste":"trash"}},"type":"Feature"},
	{"geometry":{"coordinates":[114.171785,22.45029],"type":"Point"},"properties":{"osm_id":"5788913026","tag":{"amenity":"waste_basket","waste":"trash"}},"type":"Feature"},
	{"geometry":{"coordinates":[114.171991,22.449719],"type":"Point"},"properties":{"osm_id":"5788913038","tag":{"amenity":"waste_basket","waste":"trash"}},"type":"Feature"},
	{"geometry":{"coordinates":[114.17164,22.449567],"type":"Point"},"properties":{"osm_id":"5788913039","tag":{"amenity":"waste_basket","waste":"trash"}},"type":"Feature"},
	{"geometry":{"coordinates":[114.17161,22.448182],"type":"Point"},"properties":{"osm_id":"5788914353","tag":{"amenity":"waste_basket","colour":"orange"}},"type":"Feature"},
	{"geometry":{"coordinates":[114.171806,22.446945],"type":"Point"},"properties":{"osm_id":"5788914362","tag":{"amenity":"waste_basket","colour":"orange"}},"type":"Feature"},
	{"geometry":{"coordinates":[114.171482,22.446661],"type":"Point"},"properties":{"osm_id":"5788914384","tag":{"amenity":"waste_basket"}},"type":"Feature"},
	{"geometry":{"coordinates":[114.170957,22.446763],"type":"Point"},"properties":{"osm_id":"5788914387","tag":{"amenity":"waste_basket"}},"type":"Feature"},
	{"geometry":{"coordinates":[114.170676,22.447093],"type":"Point"},"properties":{"osm_id":"5788914390","tag":{"amenity":"waste_basket"}},"type":"Feature"},
	{"geometry":{"coordinates":[114.170148,22.447253],"type":"Point"},"properties":{"osm_id":"5788914394","tag":{"amenity":"waste_basket"}},"type":"Feature"},
	{"geometry":{"coordinates":[114.172793,22.448525],"type":"Point"},"properties":{"osm_id":"5792714292","tag":{"amenity":"waste_basket"}},"type":"Feature"},
	{"geometry":{"coordinates":[114.180393,22.459217],"type":"Point"},"properties":{"osm_id":"5808562012","tag":{"amenity":"waste_basket","waste":"trash"}},"type":"Feature"},
	{"geometry":{"coordinates":[114.195261,22.469284],"type":"Point"},"properties":{"osm_id":"6308266367","tag":{"addr:floor":"G","addr:full":"D2\u00e5\u00ba\u00a7\u00e8\u0088\u0087D3\u00e5\u00ba\u00a7\u00e4\u00b9\u008b\u00e9\u0096\u0093\u00e5\u009c\u00b0\u00e4\u00b8\u008b","amenity":"recycling","recycling_type":"container","website":"https://www.eduhk.hk/cees/view.php?secid=51063"}},"type":"Feature"},
	{"geometry":{"coordinates":[114.194499,22.469201],"type":"Point"},"properties":{"osm_id":"6308266368","tag":{"amenity":"recycling","level":"2","level:ref":"G","recycling_type":"container"}},"type":"Feature"},
	{"geometry":{"coordinates":[114.195514,22.469448],"type":"Point"},"properties":{"osm_id":"6308266369","tag":{"addr:floor":"P","addr:full":"D3-P \u00e7\u0094\u009f\u00e7\u0089\u00a9\u00e5\u00af\u00a6\u00e9\u00a9\u0097\u00e5\u00ae\u00a4\u00e9\u0096\u0080\u00e5\u008f\u00a3","amenity":"recycling","recycling_type":"container","website":"https://www.eduhk.hk/cees/view.php?secid=51063"}},"type":"Feature"},
	{"geometry":{"coordinates":[114.189772,22.451872],"type":"Point"},"properties":{"osm_id":"6309707303","tag":{"amenity":"waste_basket"}},"type":"Feature"},
	{"geometry":{"coordinates":[114.190257,22.451747],"type":"Point"},"properties":{"osm_id":"6309707305","tag":{"amenity":"waste_basket"}},"type":"Feature"},
	{"geometry":{"coordinates":[114.190257,22.451747],"type":"Point"},"properties":{"osm_id":"6309707306","tag":{"amenity":"waste_basket"}},"type":"Feature"},
	{"geometry":{"coordinates":[114.192809,22.45105],"type":"Point"},"properties":{"osm_id":"6309707310","tag":{"amenity":"waste_basket"}},"type":"Feature"},
	{"geometry":{"coordinates":[114.189282,22.452001],"type":"Point"},"properties":{"osm_id":"6309734054","tag":{"amenity":"waste_basket"}},"type":"Feature"},
	{"geometry":{"coordinates":[114.189466,22.451949],"type":"Point"},"properties":{"osm_id":"6309734055","tag":{"amenity":"waste_basket"}},"type":"Feature"},
	{"geometry":{"coordinates":[114.189466,22.451949],"type":"Point"},"properties":{"osm_id":"6309734056","tag":{"amenity":"waste_basket"}},"type":"Feature"},
	{"geometry":{"coordinates":[114.193732,22.466511],"type":"Point"},"properties":{"osm_id":"6309742339","tag":{"amenity":"recycling","recycling_type":"container"}},"type":"Feature"},
	{"geometry":{"coordinates":[114.193736,22.466506],"type":"Point"},"properties":{"osm_id":"6309742340","tag":{"amenity":"waste_basket"}},"type":"Feature"},
	{"geometry":{"coordinates":[114.193726,22.466546],"type":"Point"},"properties":{"osm_id":"6309742341","tag":{"amenity":"waste_basket"}},"type":"Feature"},
	{"geometry":{"coordinates":[114.175562,22.450552],"type":"Point"},"properties":{"osm_id":"6309776154","tag":{"amenity":"waste_basket","colour":"orange"}},"type":"Feature"},
	{"geometry":{"coordinates":[114.175753,22.450537],"type":"Point"},"properties":{"osm_id":"6309804637","tag":{"amenity":"recycling","recycling_type":"container"}},"type":"Feature"},
	{"geometry":{"coordinates":[114.175648,22.450558],"type":"Point"},"properties":{"osm_id":"6309804638","tag":{"amenity":"waste_basket"}},"type":"Feature"},
	{"geometry":{"coordinates":[114.178895,22.449848],"type":"Point"},"properties":{"osm_id":"6309804646","tag":{"amenity":"waste_basket","colour":"yellow"}},"type":"Feature"},
	{"geometry":{"coordinates":[114.179429,22.449659],"type":"Point"},"properties":{"osm_id":"6309804649","tag":{"amenity":"waste_basket","colour":"yellow"}},"type":"Feature"},
	{"geometry":{"coordinates":[114.17981,22.449838],"type":"Point"},"properties":{"osm_id":"6309804650","tag":{"amenity":"waste_basket","colour":"yellow"}},"type":"Feature"},
	{"geometry":{"coordinates":[114.179966,22.450028],"type":"Point"},"properties":{"osm_id":"6309804654","tag":{"amenity":"waste_basket"}},"type":"Feature"},
	{"geometry":{"coordinates":[114.194337,22.468935],"type":"Point"},"properties":{"osm_id":"6309847766","tag":{"addr:full":"\u00e5\u00ad\u00b8\u00e7\u00bf\u0092\u00e5\u0085\u00b1\u00e4\u00ba\u00ab\u00e5\u008d\u0080\u00e8\u00bf\u0091\u00e5\u00a4\u00aa\u00e5\u00b9\u00b3\u00e6\u00b4\u008b\u00e5\u0092\u0096\u00e5\u0095\u00a1\u00e5\u00ba\u0097","amenity":"recycling","level":"0","level:ref":"LP","recycling_type":"container"}},"type":"Feature"},
	{"geometry":{"coordinates":[114.195479,22.469335],"type":"Point"},"properties":{"osm_id":"6309847769","tag":{"amenity":"recycling","recycling_type":"container"}},"type":"Feature"},
	{"geometry":{"coordinates":[114.194994,22.468971],"type":"Point"},"properties":{"osm_id":"6309847770","tag":{"amenity":"waste_basket","level:ref":"P"}},"type":"Feature"},
	{"geometry":{"coordinates":[114.177849,22.454186],"type":"Point"},"properties":{"osm_id":"6310580444","tag":{"amenity":"waste_basket","colour":"orange"}},"type":"Feature"},
	{"geometry":{"coordinates":[114.178517,22.456319],"type":"Point"},"properties":{"osm_id":"6310596557","tag":{"amenity":"waste_basket"}},"type":"Feature"},
	{"geometry":{"coordinates":[114.18823,22.455454],"type":"Point"},"properties":{"osm_id":"6310596559","tag":{"amenity":"waste_basket"}},"type":"Feature"},
	{"geometry":{"coordinates":[114.188321,22.455698],"type":"Point"},"properties":{"osm_id":"6310596560","tag":{"amenity":"waste_basket"}},"type":"Feature"},
	{"geometry":{"coordinates":[114.190912,22.453914],"type":"Point"},"properties":{"osm_id":"6310596561","tag":{"amenity":"waste_basket"}},"type":"Feature"},
	{"geometry":{"coordinates":[114.191525,22.452952],"type":"Point"},"properties":{"osm_id":"6310596562","tag":{"amenity":"waste_basket"}},"type":"Feature"},
	{"geometry":{"coordinates":[114.19157,22.452487],"type":"Point"},"properties":{"osm_id":"6310596563","tag":{"amenity":"waste_basket"}},"type":"Feature"},
	{"geometry":{"coordinates":[114.174901,22.448538],"type":"Point"},"properties":{"osm_id":"6311910768","tag":{"amenity":"recycling","recycling_type":"container"}},"type":"Feature"},
	{"geometry":{"coordinates":[114.177225,22.446442],"type":"Point"},"properties":{"osm_id":"6313818781","tag":{"amenity":"waste_basket","waste":"dog_excrement"}},"type":"Feature"},
	{"geometry":{"coordinates":[114.177205,22.446411],"type":"Point"},"properties":{"osm_id":"6313818782","tag":{"amenity":"waste_basket","colour":"orange"}},"type":"Feature"},
	{"geometry":{"coordinates":[114.177742,22.445852],"type":"Point"},"properties":{"osm_id":"6313818783","tag":{"amenity":"waste_basket","colour":"orange"}},"type":"Feature"},
	{"geometry":{"coordinates":[114.177012,22.448068],"type":"Point"},"properties":{"osm_id":"6313822520","tag":{"amenity":"waste_basket","waste":"dog_excrement"}},"type":"Feature"},
	{"geometry":{"coordinates":[114.179693,22.451307],"type":"Point"},"properties":{"osm_id":"6313846193","tag":{"amenity":"waste_basket","colour":"yellow"}},"type":"Feature"},
	{"geometry":{"coordinates":[114.180332,22.450772],"type":"Point"},"properties":{"osm_id":"6313846197","tag":{"amenity":"waste_basket","colour":"yellow"}},"type":"Feature"},
	{"geometry":{"coordinates":[114.179242,22.45132],"type":"Point"},"properties":{"osm_id":"6313847841","tag":{"amenity":"waste_basket","colour":"irony"}},"type":"Feature"},
	{"geometry":{"coordinates":[114.178723,22.452623],"type":"Point"},"properties":{"osm_id":"6313863689","tag":{"amenity":"waste_basket","colour":"yellow"}},"type":"Feature"},
	{"geometry":{"coordinates":[114.178517,22.452261],"type":"Point"},"properties":{"osm_id":"6313871855","tag":{"amenity":"waste_basket","colour":"yellow"}},"type":"Feature"},
	{"geometry":{"coordinates":[114.177996,22.451569],"type":"Point"},"properties":{"osm_id":"6313871856","tag":{"amenity":"waste_basket","colour":"yellow"}},"type":"Feature"},
	{"geometry":{"coordinates":[114.178087,22.449893],"type":"Point"},"properties":{"osm_id":"6313882860","tag":{"amenity":"waste_basket","colour":"yellow"}},"type":"Feature"},
	{"geometry":{"coordinates":[114.178161,22.449561],"type":"Point"},"properties":{"osm_id":"6313897012","tag":{"amenity":"waste_basket","colour":"yellow"}},"type":"Feature"},
	{"geometry":{"coordinates":[114.17729,22.446469],"type":"Point"},"properties":{"osm_id":"6313909935","tag":{"amenity":"waste_basket","colour":"purple"}},"type":"Feature"},
	{"geometry":{"coordinates":[114.177139,22.446013],"type":"Point"},"properties":{"osm_id":"6313913572","tag":{"amenity":"waste_basket","colour":"orange"}},"type":"Feature"},
	{"geometry":{"coordinates":[114.174885,22.448531],"type":"Point"},"properties":{"osm_id":"6313916510","tag":{"amenity":"waste_basket","colour":"green"}},"type":"Feature"},
	{"geometry":{"coordinates":[114.175015,22.447092],"type":"Point"},"properties":{"osm_id":"6315183715","tag":{"amenity":"recycling","recycling:clothes":"yes","recycling_type":"container"}},"type":"Feature"},
	{"geometry":{"coordinates":[114.175806,22.447003],"type":"Point"},"properties":{"osm_id":"6315185941","tag":{"amenity":"recycling","colour":"green","recycling:clothes":"yes","recycling_type":"container"}},"type":"Feature"},
	{"geometry":{"coordinates":[114.177384,22.445969],"type":"Point"},"properties":{"osm_id":"6315191100","tag":{"amenity":"recycling","recycling_type":"container"}},"type":"Feature"},
	{"geometry":{"coordinates":[114.177362,22.447833],"type":"Point"},"properties":{"osm_id":"6315199772","tag":{"amenity":"waste_basket"}},"type":"Feature"},
	{"geometry":{"coordinates":[114.177331,22.446776],"type":"Point"},"properties":{"osm_id":"6315199775","tag":{"amenity":"waste_basket","colour":"purple"}},"type":"Feature"},
	{"geometry":{"coordinates":[114.177298,22.447354],"type":"Point"},"properties":{"osm_id":"6315199780","tag":{"amenity":"waste_basket","colour":"purple"}},"type":"Feature"},
	{"geometry":{"coordinates":[114.179433,22.449979],"type":"Point"},"properties":{"osm_id":"6315211234","tag":{"amenity":"waste_basket","colour":"yellow"}},"type":"Feature"},
	{"geometry":{"coordinates":[114.179388,22.450295],"type":"Point"},"properties":{"osm_id":"6315211236","tag":{"amenity":"waste_basket","colour":"yellow"}},"type":"Feature"},
	{"geometry":{"coordinates":[114.188166,22.452498],"type":"Point"},"properties":{"osm_id":"6315239380","tag":{"amenity":"waste_basket","colour":"pink"}},"type":"Feature"},
	{"geometry":{"coordinates":[114.188444,22.452786],"type":"Point"},"properties":{"osm_id":"6315242332","tag":{"amenity":"waste_basket","colour":"orange"}},"type":"Feature"},
	{"geometry":{"coordinates":[114.18835,22.453227],"type":"Point"},"properties":{"osm_id":"6315242604","tag":{"amenity":"waste_basket","colour":"orange"}},"type":"Feature"},
	{"geometry":{"coordinates":[114.188227,22.456486],"type":"Point"},"properties":{"osm_id":"6315248039","tag":{"amenity":"waste_basket","colour":"orange"}},"type":"Feature"},
	{"geometry":{"coordinates":[114.18812,22.456905],"type":"Point"},"properties":{"osm_id":"6315248144","tag":{"amenity":"waste_basket","colour":"orange"}},"type":"Feature"},
	{"geometry":{"coordinates":[114.187765,22.457686],"type":"Point"},"properties":{"osm_id":"6315254174","tag":{"amenity":"waste_basket","colour":"orange"}},"type":"Feature"},
	{"geometry":{"coordinates":[114.187998,22.457747],"type":"Point"},"properties":{"osm_id":"6315254177","tag":{"amenity":"waste_basket","colour":"orange"}},"type":"Feature"},
	{"geometry":{"coordinates":[114.188113,22.45779],"type":"Point"},"properties":{"osm_id":"6315255189","tag":{"amenity":"waste_basket","colour":"orange"}},"type":"Feature"},
	{"geometry":{"coordinates":[114.188192,22.459501],"type":"Point"},"properties":{"osm_id":"6315258012","tag":{"amenity":"waste_basket","colour":"orange"}},"type":"Feature"},
	{"geometry":{"coordinates":[114.188216,22.460817],"type":"Point"},"properties":{"osm_id":"6315259886","tag":{"amenity":"waste_basket","colour":"orange"}},"type":"Feature"},
	{"geometry":{"coordinates":[114.189934,22.46231],"type":"Point"},"properties":{"osm_id":"6315261277","tag":{"amenity":"waste_basket","colour":"grey"}},"type":"Feature"},
	{"geometry":{"coordinates":[114.19124,22.462025],"type":"Point"},"properties":{"osm_id":"6315262939","tag":{"amenity":"waste_basket","colour":"grey"}},"type":"Feature"},
	{"geometry":{"coordinates":[114.191955,22.461815],"type":"Point"},"properties":{"osm_id":"6315265066","tag":{"amenity":"waste_basket","colour":"orange"}},"type":"Feature"},
	{"geometry":{"coordinates":[114.193554,22.465685],"type":"Point"},"properties":{"osm_id":"6315266311","tag":{"amenity":"waste_basket","waste":"dog_excrement"}},"type":"Feature"},
	{"geometry":{"coordinates":[114.193377,22.465385],"type":"Point"},"properties":{"osm_id":"6315269719","tag":{"amenity":"waste_basket","colour":"orange"}},"type":"Feature"},
	{"geometry":{"coordinates":[114.193154,22.465319],"type":"Point"},"properties":{"osm_id":"6315269977","tag":{"amenity":"waste_basket","colour":"orange"}},"type":"Feature"},
	{"geometry":{"coordinates":[114.193108,22.464851],"type":"Point"},"properties":{"osm_id":"6315269978","tag":{"amenity":"waste_basket","colour":"orange"}},"type":"Feature"},
	{"geometry":{"coordinates":[114.193684,22.466139],"type":"Point"},"properties":{"osm_id":"6315270064","tag":{"amenity":"waste_basket","colour":"orange"}},"type":"Feature"},
	{"geometry":{"coordinates":[114.193785,22.466196],"type":"Point"},"properties":{"osm_id":"6315270066","tag":{"amenity":"waste_basket","colour":"orange"}},"type":"Feature"},
	{"geometry":{"coordinates":[114.193704,22.466741],"type":"Point"},"properties":{"osm_id":"6315270303","tag":{"amenity":"waste_basket","colour":"green"}},"type":"Feature"},
	{"geometry":{"coordinates":[114.193834,22.467052],"type":"Point"},"properties":{"osm_id":"6315273816","tag":{"amenity":"waste_basket","colour":"green"}},"type":"Feature"},
	{"geometry":{"coordinates":[114.193849,22.467225],"type":"Point"},"properties":{"osm_id":"6315273817","tag":{"amenity":"waste_basket","colour":"green"}},"type":"Feature"},
	{"geometry":{"coordinates":[114.181106,22.458667],"type":"Point"},"properties":{"osm_id":"6315650074","tag":{"amenity":"waste_basket","colour":"orange"}},"type":"Feature"},
	{"geometry":{"coordinates":[114.181118,22.457323],"type":"Point"},"properties":{"osm_id":"6315650075","tag":{"amenity":"waste_basket","colour":"orange"}},"type":"Feature"},
	{"geometry":{"coordinates":[114.183529,22.457068],"type":"Point"},"properties":{"osm_id":"6315650076","tag":{"amenity":"waste_basket","colour":"orange"}},"type":"Feature"},
	{"geometry":{"coordinates":[114.185773,22.456912],"type":"Point"},"properties":{"osm_id":"6315650077","tag":{"amenity":"waste_basket","colour":"orange"}},"type":"Feature"},
	{"geometry":{"coordinates":[114.180549,22.458967],"type":"Point"},"properties":{"osm_id":"6315650079","tag":{"amenity":"waste_basket","colour":"orange"}},"type":"Feature"},
	{"geometry":{"coordinates":[114.172374,22.45452],"type":"Point"},"properties":{"osm_id":"6315651947","tag":{"amenity":"waste_basket","colour":"orange"}},"type":"Feature"},
	{"geometry":{"coordinates":[114.177829,22.456822],"type":"Point"},"properties":{"osm_id":"6315651952","tag":{"amenity":"waste_basket","colour":"orange"}},"type":"Feature"},
	{"geometry":{"coordinates":[114.177807,22.457974],"type":"Point"},"properties":{"osm_id":"6315651953","tag":{"amenity":"waste_basket","colour":"orange"}},"type":"Feature"},
	{"geometry":{"coordinates":[114.173586,22.446623],"type":"Point"},"properties":{"osm_id":"6315665647","tag":{"amenity":"waste_basket","colour":"orange"}},"type":"Feature"},
	{"geometry":{"coordinates":[114.17371,22.446884],"type":"Point"},"properties":{"osm_id":"6315665653","tag":{"amenity":"waste_basket","colour":"pink"}},"type":"Feature"},
	{"geometry":{"coordinates":[114.173896,22.446926],"type":"Point"},"properties":{"osm_id":"6315665658","tag":{"amenity":"waste_basket","colour":"pink"}},"type":"Feature"},
	{"geometry":{"coordinates":[114.173736,22.447188],"type":"Point"},"properties":{"osm_id":"6315665662","tag":{"amenity":"waste_basket","colour":"pink"}},"type":"Feature"},
	{"geometry":{"coordinates":[114.173725,22.446907],"type":"Point"},"properties":{"osm_id":"6315665672","tag":{"amenity":"recycling","recycling_type":"container"}},"type":"Feature"},
	{"geometry":{"coordinates":[114.174982,22.447912],"type":"Point"},"properties":{"osm_id":"6315673468","tag":{"amenity":"waste_basket","colour":"blue"}},"type":"Feature"},
	{"geometry":{"coordinates":[114.174983,22.448535],"type":"Point"},"properties":{"osm_id":"6315676395","tag":{"amenity":"recycling","colour":"green","recycling:clothes":"yes","recycling_type":"container"}},"type":"Feature"},
	{"geometry":{"coordinates":[114.194031,22.467498],"type":"Point"},"properties":{"osm_id":"6317314889","tag":{"amenity":"recycling","recycling:cans":"yes","recycling:paper":"yes","recycling:plastic_bottles":"yes","recycling_type":"container"}},"type":"Feature"},
	{"geometry":{"coordinates":[114.194073,22.467479],"type":"Point"},"properties":{"osm_id":"6317314890","tag":{"amenity":"recycling","recycling:batteries":"yes","recycling_type":"container"}},"type":"Feature"},
	{"geometry":{"coordinates":[114.176231,22.448569],"type":"Point"},"properties":{"osm_id":"6319813789","tag":{"amenity":"waste_basket","colour":"green","covered":"yes"}},"type":"Feature"},
	{"geometry":{"coordinates":[114.177287,22.448531],"type":"Point"},"properties":{"osm_id":"6319826824","tag":{"amenity":"waste_basket","colour":"Purple"}},"type":"Feature"},
	{"geometry":{"coordinates":[114.177192,22.448664],"type":"Point"},"properties":{"osm_id":"6319826826","tag":{"amenity":"waste_basket","colour":"Purple"}},"type":"Feature"},
	{"geometry":{"coordinates":[114.178234,22.450129],"type":"Point"},"properties":{"osm_id":"6319847239","tag":{"amenity":"waste_basket","colour":"yellow"}},"type":"Feature"},
	{"geometry":{"coordinates":[114.177765,22.449938],"type":"Point"},"properties":{"osm_id":"6319847245","tag":{"amenity":"waste_basket","colour":"yellow"}},"type":"Feature"},
	{"geometry":{"coordinates":[114.179414,22.451016],"type":"Point"},"properties":{"osm_id":"6319899163","tag":{"amenity":"waste_basket","colour":"silver"}},"type":"Feature"},
	{"geometry":{"coordinates":[114.179401,22.450941],"type":"Point"},"properties":{"osm_id":"6319900426","tag":{"amenity":"waste_basket","colour":"yellow"}},"type":"Feature"},
	{"geometry":{"coordinates":[114.186746,22.453385],"type":"Point"},"properties":{"osm_id":"6319920848","tag":{"amenity":"waste_basket","colour":"yellow"}},"type":"Feature"},
	{"geometry":{"coordinates":[114.186754,22.453853],"type":"Point"},"properties":{"osm_id":"6319920851","tag":{"amenity":"waste_basket","colour":"yellow"}},"type":"Feature"},
	{"geometry":{"coordinates":[114.186741,22.453564],"type":"Point"},"properties":{"osm_id":"6319920855","tag":{"amenity":"waste_basket","colour":"yellow"}},"type":"Feature"},
	{"geometry":{"coordinates":[114.186736,22.453112],"type":"Point"},"properties":{"osm_id":"6319920862","tag":{"amenity":"waste_basket","colour":"yellow"}},"type":"Feature"},
	{"geometry":{"coordinates":[114.18675,22.453681],"type":"Point"},"properties":{"osm_id":"6319920866","tag":{"amenity":"waste_basket","colour":"yellow"}},"type":"Feature"},
	{"geometry":{"coordinates":[114.187612,22.454029],"type":"Point"},"properties":{"osm_id":"6319924044","tag":{"amenity":"waste_basket","colour":"orange"}},"type":"Feature"},
	{"geometry":{"coordinates":[114.187284,22.454082],"type":"Point"},"properties":{"osm_id":"6319924048","tag":{"amenity":"waste_basket","colour":"orange"}},"type":"Feature"},
	{"geometry":{"coordinates":[114.188188,22.457323],"type":"Point"},"properties":{"osm_id":"6319931199","tag":{"amenity":"recycling","recycling_type":"container"}},"type":"Feature"},
	{"geometry":{"coordinates":[114.173172,22.446359],"type":"Point"},"properties":{"osm_id":"6320858118","tag":{"amenity":"waste_basket","colour":"orange"}},"type":"Feature"},
	{"geometry":{"coordinates":[114.172708,22.446451],"type":"Point"},"properties":{"osm_id":"6320858119","tag":{"amenity":"waste_basket","colour":"orange"}},"type":"Feature"},
	{"geometry":{"coordinates":[114.169988,22.447296],"type":"Point"},"properties":{"osm_id":"6320858120","tag":{"amenity":"waste_basket","colour":"orange"}},"type":"Feature"},
	{"geometry":{"coordinates":[114.180483,22.449749],"type":"Point"},"properties":{"osm_id":"6324403612","tag":{"amenity":"waste_basket","colour":"yellow"}},"type":"Feature"},
	{"geometry":{"coordinates":[114.180619,22.450158],"type":"Point"},"properties":{"osm_id":"6324404849","tag":{"amenity":"waste_basket","waste":"trash"}},"type":"Feature"},
	{"geometry":{"coordinates":[114.181174,22.452527],"type":"Point"},"properties":{"osm_id":"6324408534","tag":{"amenity":"waste_basket","colour":"orange"}},"type":"Feature"},
	{"geometry":{"coordinates":[114.181295,22.454164],"type":"Point"},"properties":{"osm_id":"6324408742","tag":{"amenity":"waste_basket","colour":"orange"}},"type":"Feature"},
	{"geometry":{"coordinates":[114.181251,22.45664],"type":"Point"},"properties":{"osm_id":"6324411412","tag":{"amenity":"waste_basket","colour":"orange"}},"type":"Feature"},
	{"geometry":{"coordinates":[114.192089,22.461427],"type":"Point"},"properties":{"osm_id":"6324421355","tag":{"amenity":"waste_basket","colour":"orange"}},"type":"Feature"},
	{"geometry":{"coordinates":[114.170991,22.446197],"type":"Point"},"properties":{"osm_id":"6324763003","tag":{"amenity":"waste_basket"}},"type":"Feature"},
	{"geometry":{"coordinates":[114.171106,22.446335],"type":"Point"},"properties":{"osm_id":"6324763010","tag":{"amenity":"waste_basket"}},"type":"Feature"},
	{"geometry":{"coordinates":[114.171515,22.44734],"type":"Point"},"properties":{"osm_id":"6324776295","tag":{"amenity":"waste_basket","colour":"yellow"}},"type":"Feature"},
	{"geometry":{"coordinates":[114.171513,22.447631],"type":"Point"},"properties":{"osm_id":"6324776297","tag":{"amenity":"waste_basket","colour":"yellow"}},"type":"Feature"},
	{"geometry":{"coordinates":[114.171179,22.44696],"type":"Point"},"properties":{"osm_id":"6324776300","tag":{"amenity":"waste_basket","colour":"orange"}},"type":"Feature"},
	{"geometry":{"coordinates":[114.17152,22.447797],"type":"Point"},"properties":{"osm_id":"6324776304","tag":{"amenity":"waste_basket","colour":"yellow"}},"type":"Feature"},
	{"geometry":{"coordinates":[114.171515,22.447969],"type":"Point"},"properties":{"osm_id":"6324776310","tag":{"amenity":"waste_basket","colour":"yellow"}},"type":"Feature"},
	{"geometry":{"coordinates":[114.171518,22.447586],"type":"Point"},"properties":{"osm_id":"6324776312","tag":{"amenity":"recycling","recycling_type":"container"}},"type":"Feature"},
	{"geometry":{"coordinates":[114.171551,22.448566],"type":"Point"},"properties":{"osm_id":"6324790798","tag":{"amenity":"waste_basket","colour":"orange"}},"type":"Feature"},
	{"geometry":{"coordinates":[114.172465,22.450228],"type":"Point"},"properties":{"osm_id":"6324799891","tag":{"amenity":"waste_basket"}},"type":"Feature"},
	{"geometry":{"coordinates":[114.172488,22.450184],"type":"Point"},"properties":{"osm_id":"6324799895","tag":{"amenity":"waste_basket"}},"type":"Feature"},
	{"geometry":{"coordinates":[114.173936,22.449694],"type":"Point"},"properties":{"osm_id":"6324808997","tag":{"amenity":"waste_basket","colour":"green"}},"type":"Feature"},
	{"geometry":{"coordinates":[114.178925,22.450524],"type":"Point"},"properties":{"osm_id":"6329915965","tag":{"amenity":"waste_basket","colour":"yellow"}},"type":"Feature"},
	{"geometry":{"coordinates":[114.180689,22.450687],"type":"Point"},"properties":{"osm_id":"6330375351","tag":{"amenity":"waste_basket","colour":"yellow"}},"type":"Feature"},
	{"geometry":{"coordinates":[114.178394,22.450658],"type":"Point"},"properties":{"osm_id":"6332109695","tag":{"amenity":"waste_basket","colour":"yellow"}},"type":"Feature"},
	{"geometry":{"coordinates":[114.179029,22.451166],"type":"Point"},"properties":{"osm_id":"6332112286","tag":{"amenity":"recycling","recycling_type":"container"}},"type":"Feature"},
	{"geometry":{"coordinates":[114.17913,22.451867],"type":"Point"},"properties":{"osm_id":"6332112987","tag":{"amenity":"waste_basket","colour":"yellow"}},"type":"Feature"},
	{"geometry":{"coordinates":[114.179578,22.451991],"type":"Point"},"properties":{"osm_id":"6332114872","tag":{"amenity":"waste_basket","colour":"yellow"}},"type":"Feature"},
	{"geometry":{"coordinates":[114.180102,22.451859],"type":"Point"},"properties":{"osm_id":"6332115892","tag":{"amenity":"waste_basket","colour":"yellow"}},"type":"Feature"},
	{"geometry":{"coordinates":[114.180578,22.451742],"type":"Point"},"properties":{"osm_id":"6332117665","tag":{"amenity":"waste_basket"}},"type":"Feature"},
	{"geometry":{"coordinates":[114.181254,22.458361],"type":"Point"},"properties":{"osm_id":"6332133164","tag":{"amenity":"waste_basket","colour":"orange"}},"type":"Feature"},
	{"geometry":{"coordinates":[114.187417,22.462291],"type":"Point"},"properties":{"osm_id":"6332149084","tag":{"amenity":"waste_basket","colour":"orange"}},"type":"Feature"},
	{"geometry":{"coordinates":[114.188296,22.462003],"type":"Point"},"properties":{"osm_id":"6332149961","tag":{"amenity":"waste_basket","colour":"orange"}},"type":"Feature"},
	{"geometry":{"coordinates":[114.187398,22.462073],"type":"Point"},"properties":{"osm_id":"6332149985","tag":{"amenity":"waste_basket","colour":"orange"}},"type":"Feature"},
	{"geometry":{"coordinates":[114.180259,22.459482],"type":"Point"},"properties":{"osm_id":"6332620683","tag":{"amenity":"waste_basket","colour":"yellow"}},"type":"Feature"},
	{"geometry":{"coordinates":[114.179998,22.459403],"type":"Point"},"properties":{"name":"\u00e9\u00b3\u00b3\u00e5\u009c\u0092\u00e9\u0081\u008a\u00e6\u00a8\u0082\u00e5\u00a0\u00b4\u00e5\u009e\u0083\u00e5\u009c\u00be\u00e6\u0094\u00b6\u00e9\u009b\u0086\u00e7\u00ab\u0099","osm_id":"6332624679","tag":{"amenity":"waste_disposal","waste":"trash"}},"type":"Feature"},
	{"geometry":{"coordinates":[114.178072,22.452558],"type":"Point"},"properties":{"osm_id":"6332676782","tag":{"amenity":"waste_basket","colour":"yellow"}},"type":"Feature"},
	{"geometry":{"coordinates":[114.177599,22.452357],"type":"Point"},"properties":{"osm_id":"6332677608","tag":{"amenity":"waste_basket","colour":"orange"}},"type":"Feature"},
	{"geometry":{"coordinates":[114.178329,22.45125],"type":"Point"},"properties":{"osm_id":"6332683609","tag":{"amenity":"waste_basket","colour":"yellow"}},"type":"Feature"},
	{"geometry":{"coordinates":[114.185078,22.458628],"type":"Point"},"properties":{"osm_id":"6334556052","tag":{"amenity":"waste_basket","colour":"orange"}},"type":"Feature"},
	{"geometry":{"coordinates":[114.186577,22.458785],"type":"Point"},"properties":{"osm_id":"6334556053","tag":{"amenity":"waste_basket","colour":"orange"}},"type":"Feature"},
	{"geometry":{"coordinates":[114.186862,22.459473],"type":"Point"},"properties":{"osm_id":"6334556422","tag":{"amenity":"waste_basket","colour":"orange"}},"type":"Feature"},
	{"geometry":{"coordinates":[114.186634,22.460198],"type":"Point"},"properties":{"osm_id":"6334556423","tag":{"amenity":"waste_basket","colour":"orange"}},"type":"Feature"},
	{"geometry":{"coordinates":[114.186892,22.461388],"type":"Point"},"properties":{"osm_id":"6334556597","tag":{"amenity":"waste_basket","colour":"orange"}},"type":"Feature"},
	{"geometry":{"coordinates":[114.186854,22.460196],"type":"Point"},"properties":{"osm_id":"6334556722","tag":{"amenity":"waste_basket","colour":"orange"}},"type":"Feature"}
]
}
