{
"type": "FeatureCollection",
"features": [
	{"geometry":{"coordinates":[114.24874,22.353001],"type":"Point"},"properties":{"osm_id":"1395097317","ref":"SK-357","tag":{"amenity":"recycling","recycling_type":"container"}},"type":"Feature"},
	{"geometry":{"coordinates":[114.248799,22.353058],"type":"Point"},"properties":{"osm_id":"1395097322","ref":"SK-357","tag":{"amenity":"waste_basket"}},"type":"Feature"},
	{"geometry":{"coordinates":[114.170453,22.419172],"type":"Point"},"properties":{"osm_id":"2119490953","tag":{"amenity":"waste_basket"}},"type":"Feature"},
	{"geometry":{"coordinates":[114.208313,22.392148],"type":"Point"},"properties":{"osm_id":"6847892751","tag":{"amenity":"waste_basket"}},"type":"Feature"},
	{"geometry":{"coordinates":[114.208892,22.392601],"type":"Point"},"properties":{"osm_id":"6847892752","tag":{"amenity":"waste_basket"}},"type":"Feature"},
	{"geometry":{"coordinates":[114.208792,22.392648],"type":"Point"},"properties":{"osm_id":"6847892753","tag":{"amenity":"waste_basket"}},"type":"Feature"},
	{"geometry":{"coordinates":[114.208807,22.392377],"type":"Point"},"properties":{"name":"\u00e7\u00b6\u00a0\u00e5\u009c\u00a8\u00e6\u00b2\u0099\u00e7\u0094\u00b0 Sha Tin Community Green Station","osm_id":"7298599194","tag":{"amenity":"recycling","operator":"\u00e5\u009f\u00ba\u00e7\u009d\u00a3\u00e6\u0095\u0099\u00e5\u00ae\u00b6\u00e5\u00ba\u00ad\u00e6\u009c\u008d\u00e5\u008b\u0099\u00e4\u00b8\u00ad\u00e5\u00bf\u0083","recycling_type":"centre"}},"type":"Feature"}
]
}
