{
"type": "FeatureCollection",
"features": [
	{"geometry":{"coordinates":[114.175544,22.303499],"type":"Point"},"properties":{"osm_id":"1571055057","tag":{"amenity":"waste_basket"}},"type":"Feature"},
	{"geometry":{"coordinates":[114.213753,22.28685],"type":"Point"},"properties":{"osm_id":"2678320603","tag":{"amenity":"recycling","recycling:cans":"yes","recycling:glass":"yes","recycling:paper":"yes","recycling_type":"container"}},"type":"Feature"},
	{"geometry":{"coordinates":[114.213906,22.287876],"type":"Point"},"properties":{"osm_id":"2678320604","tag":{"amenity":"recycling","recycling:cans":"yes","recycling:paper":"yes","recycling_type":"container"}},"type":"Feature"},
	{"geometry":{"coordinates":[114.170584,22.29303],"type":"Point"},"properties":{"osm_id":"3493469232","tag":{"amenity":"waste_basket"}},"type":"Feature"},
	{"geometry":{"coordinates":[114.170688,22.293035],"type":"Point"},"properties":{"osm_id":"3493470991","tag":{"amenity":"waste_basket"}},"type":"Feature"},
	{"geometry":{"coordinates":[114.17167,22.298102],"type":"Point"},"properties":{"osm_id":"4066472135","tag":{"amenity":"recycling","recycling_type":"container"}},"type":"Feature"},
	{"geometry":{"coordinates":[114.170401,22.298397],"type":"Point"},"properties":{"osm_id":"4066472137","tag":{"amenity":"recycling","recycling_type":"container"}},"type":"Feature"},
	{"geometry":{"coordinates":[114.21827,22.286953],"type":"Point"},"properties":{"osm_id":"4273731343","tag":{"amenity":"waste_basket"}},"type":"Feature"},
	{"geometry":{"coordinates":[114.22657,22.315046],"type":"Point"},"properties":{"osm_id":"5255726165","tag":{"amenity":"waste_basket","waste":"dog_excrement"}},"type":"Feature"},
	{"geometry":{"coordinates":[114.239804,22.3164],"type":"Point"},"properties":{"osm_id":"5442237275","tag":{"amenity":"waste_basket"}},"type":"Feature"},
	{"geometry":{"coordinates":[114.230776,22.312555],"type":"Point"},"properties":{"osm_id":"5497583387","tag":{"amenity":"waste_basket"}},"type":"Feature"},
	{"geometry":{"coordinates":[114.230863,22.312598],"type":"Point"},"properties":{"osm_id":"5497583388","tag":{"amenity":"waste_basket"}},"type":"Feature"},
	{"geometry":{"coordinates":[114.229718,22.313744],"type":"Point"},"properties":{"osm_id":"5497583389","tag":{"amenity":"waste_basket"}},"type":"Feature"},
	{"geometry":{"coordinates":[114.229451,22.314402],"type":"Point"},"properties":{"osm_id":"5497583390","tag":{"amenity":"waste_basket"}},"type":"Feature"},
	{"geometry":{"coordinates":[114.230783,22.312572],"type":"Point"},"properties":{"osm_id":"5509764721","tag":{"amenity":"waste_basket"}},"type":"Feature"},
	{"geometry":{"coordinates":[114.230857,22.312606],"type":"Point"},"properties":{"osm_id":"5509764821","tag":{"amenity":"waste_basket"}},"type":"Feature"},
	{"geometry":{"coordinates":[114.217437,22.316441],"type":"Point"},"properties":{"name":"\u00e6\u00ba\u0090\u00e7\u0099\u00bc\u00e4\u00ba\u0094\u00e9\u0087\u0091\u00e7\u0092\u00b0\u00e4\u00bf\u009d\u00e5\u009b\u009e\u00e6\u0094\u00b6\u00e5\u0085\u00ac\u00e5\u008f\u00b8","osm_id":"6413408874","tag":{"amenity":"recycling","recycling_type":"centre"}},"type":"Feature"},
	{"geometry":{"coordinates":[114.19313,22.341123],"type":"Point"},"properties":{"osm_id":"6716176876","tag":{"amenity":"recycling","recycling_type":"container"}},"type":"Feature"},
	{"geometry":{"coordinates":[114.178805,22.329765],"type":"Point"},"properties":{"man_made":"waste_basket","osm_id":"7166351945","tag":{"addr:street":"\u00e7\u00aa\u00a9\u00e6\u0089\u0093\u00e8\u0080\u0081\u00e9\u0081\u0093 Waterloo Road","addr:street:carriageway_ref:kmb":"S","addr:street:direction:kmb":"S","addr:street:en":"Waterloo Road","addr:street:ref:kmb":"WA15","addr:street:wikidata":"Q7974274","addr:street:zh":"\u00e7\u00aa\u00a9\u00e6\u0089\u0093\u00e8\u0080\u0081\u00e9\u0081\u0093","amenity":"waste_basket","public_transport":"separate"}},"type":"Feature"},
	{"geometry":{"coordinates":[114.178492,22.329684],"type":"Point"},"properties":{"man_made":"waste_basket","osm_id":"7166351946","tag":{"addr:street":"\u00e7\u00aa\u00a9\u00e6\u0089\u0093\u00e8\u0080\u0081\u00e9\u0081\u0093 Waterloo Road","addr:street:carriageway_ref:kmb":"N","addr:street:direction:kmb":"N","addr:street:en":"Waterloo Road","addr:street:ref:kmb":"WA15","addr:street:wikidata":"Q7974274","addr:street:zh":"\u00e7\u00aa\u00a9\u00e6\u0089\u0093\u00e8\u0080\u0081\u00e9\u0081\u0093","amenity":"waste_basket","public_transport":"separate"}},"type":"Feature"},
	{"geometry":{"coordinates":[114.228274,22.282921],"type":"Point"},"properties":{"osm_id":"7254713577","tag":{"amenity":"waste_basket"}},"type":"Feature"},
	{"geometry":{"coordinates":[114.228861,22.282845],"type":"Point"},"properties":{"osm_id":"7254713579","tag":{"amenity":"waste_basket"}},"type":"Feature"},
	{"geometry":{"coordinates":[114.228656,22.282867],"type":"Point"},"properties":{"osm_id":"7254713582","tag":{"amenity":"waste_basket"}},"type":"Feature"},
	{"geometry":{"coordinates":[114.229182,22.282917],"type":"Point"},"properties":{"osm_id":"7254713583","tag":{"amenity":"waste_basket"}},"type":"Feature"},
	{"geometry":{"coordinates":[114.228468,22.282847],"type":"Point"},"properties":{"osm_id":"7254770685","tag":{"amenity":"waste_basket"}},"type":"Feature"},
	{"geometry":{"coordinates":[114.229055,22.282863],"type":"Point"},"properties":{"osm_id":"7254770686","tag":{"amenity":"waste_basket"}},"type":"Feature"}
]
}
