{
"type": "FeatureCollection",
"features": [
	{"geometry":{"coordinates":[-9.086002,53.257639],"type":"Point"},"properties":{"osm_id":"1314958631","tag":{"amenity":"recycling","location":"overground","recycling:glass_bottles":"yes","recycling_type":"container"}},"type":"Feature"},
	{"geometry":{"coordinates":[-9.073323,53.260251],"type":"Point"},"properties":{"osm_id":"1314972681","tag":{"amenity":"recycling","location":"overground","recycling:glass_bottles":"yes","recycling_type":"container"}},"type":"Feature"},
	{"geometry":{"coordinates":[-9.105781,53.262037],"type":"Point"},"properties":{"osm_id":"1730686811","tag":{"amenity":"recycling","recycling:clothes":"yes","recycling:glass":"yes","recycling_type":"container"}},"type":"Feature"},
	{"geometry":{"coordinates":[-9.055649,53.269941],"type":"Point"},"properties":{"osm_id":"1739075473","tag":{"amenity":"waste_basket"}},"type":"Feature"},
	{"geometry":{"coordinates":[-9.092377,53.256612],"type":"Point"},"properties":{"osm_id":"1739131333","tag":{"amenity":"recycling","location":"overground","recycling:cans":"yes","recycling:glass_bottles":"yes","recycling_type":"container"}},"type":"Feature"},
	{"geometry":{"coordinates":[-9.097242,53.270893],"type":"Point"},"properties":{"osm_id":"1739254436","tag":{"amenity":"recycling","recycling:glass_bottles":"yes","recycling_type":"container"}},"type":"Feature"},
	{"geometry":{"coordinates":[-9.078323,53.276733],"type":"Point"},"properties":{"osm_id":"1819100621","tag":{"amenity":"recycling","location":"overground","recycling:cans":"yes","recycling:glass_bottles":"yes","recycling_type":"container"}},"type":"Feature"},
	{"geometry":{"coordinates":[-9.130537,53.263103],"type":"Point"},"properties":{"osm_id":"2061335746","tag":{"amenity":"waste_basket"}},"type":"Feature"},
	{"geometry":{"coordinates":[-9.132055,53.258271],"type":"Point"},"properties":{"osm_id":"2061338150","tag":{"amenity":"waste_basket"}},"type":"Feature"},
	{"geometry":{"coordinates":[-9.129723,53.258736],"type":"Point"},"properties":{"osm_id":"2061338208","tag":{"amenity":"waste_basket"}},"type":"Feature"},
	{"geometry":{"coordinates":[-9.126353,53.251501],"type":"Point"},"properties":{"osm_id":"2066352750","tag":{"amenity":"waste_basket"}},"type":"Feature"},
	{"geometry":{"coordinates":[-9.128072,53.251404],"type":"Point"},"properties":{"osm_id":"2066352768","tag":{"amenity":"waste_basket"}},"type":"Feature"},
	{"geometry":{"coordinates":[-9.059462,53.275426],"type":"Point"},"properties":{"osm_id":"2244647610","tag":{"amenity":"waste_basket"}},"type":"Feature"},
	{"geometry":{"coordinates":[-9.060186,53.275705],"type":"Point"},"properties":{"osm_id":"2244647667","tag":{"amenity":"waste_basket"}},"type":"Feature"},
	{"geometry":{"coordinates":[-9.058485,53.275583],"type":"Point"},"properties":{"osm_id":"2244647880","tag":{"amenity":"waste_basket"}},"type":"Feature"},
	{"geometry":{"coordinates":[-9.071597,53.26123],"type":"Point"},"properties":{"osm_id":"3503349701","tag":{"amenity":"waste_basket"}},"type":"Feature"},
	{"geometry":{"coordinates":[-9.124472,53.250913],"type":"Point"},"properties":{"osm_id":"5794344031","tag":{"amenity":"waste_basket","waste":"trash"}},"type":"Feature"},
	{"geometry":{"coordinates":[-9.072762,53.260899],"type":"Point"},"properties":{"osm_id":"7952725087","tag":{"amenity":"waste_basket"}},"type":"Feature"}
]
}
