{
"type": "FeatureCollection",
"features": [
	{"geometry":{"coordinates":[-9.139794,39.410784],"type":"Point"},"properties":{"osm_id":"2803894640","tag":{"amenity":"recycling"}},"type":"Feature"},
	{"geometry":{"coordinates":[-9.12081,39.413082],"type":"Point"},"properties":{"osm_id":"2803989899","tag":{"amenity":"recycling"}},"type":"Feature"},
	{"geometry":{"coordinates":[-9.13578,39.414638],"type":"Point"},"properties":{"osm_id":"2814174135","tag":{"amenity":"recycling","recycling:cans":"yes","recycling:cartons":"yes","recycling:glass_bottles":"yes","recycling:paper":"yes","recycling:plastic":"yes","recycling:waste":"yes","recycling_type":"container"}},"type":"Feature"},
	{"geometry":{"coordinates":[-9.131544,39.4065],"type":"Point"},"properties":{"osm_id":"2816067216","tag":{"amenity":"recycling"}},"type":"Feature"},
	{"geometry":{"coordinates":[-9.129843,39.40715],"type":"Point"},"properties":{"osm_id":"2817027241","tag":{"amenity":"recycling"}},"type":"Feature"},
	{"geometry":{"coordinates":[-9.127007,39.407134],"type":"Point"},"properties":{"osm_id":"2829074930","tag":{"amenity":"recycling"}},"type":"Feature"},
	{"geometry":{"coordinates":[-9.129537,39.410981],"type":"Point"},"properties":{"osm_id":"2830268394","tag":{"amenity":"recycling","recycling:plastic":"yes","recycling_type":"container"}},"type":"Feature"},
	{"geometry":{"coordinates":[-9.121036,39.406029],"type":"Point"},"properties":{"osm_id":"2832860248","tag":{"amenity":"recycling"}},"type":"Feature"},
	{"geometry":{"coordinates":[-9.124496,39.406244],"type":"Point"},"properties":{"osm_id":"2833574756","tag":{"amenity":"recycling"}},"type":"Feature"},
	{"geometry":{"coordinates":[-9.123721,39.40797],"type":"Point"},"properties":{"osm_id":"2842139521","tag":{"amenity":"recycling"}},"type":"Feature"},
	{"geometry":{"coordinates":[-9.127739,39.410433],"type":"Point"},"properties":{"osm_id":"2845665359","tag":{"amenity":"recycling"}},"type":"Feature"},
	{"geometry":{"coordinates":[-9.138034,39.409058],"type":"Point"},"properties":{"osm_id":"2852048852","tag":{"amenity":"recycling"}},"type":"Feature"},
	{"geometry":{"coordinates":[-9.138407,39.412081],"type":"Point"},"properties":{"osm_id":"2858781123","tag":{"amenity":"recycling"}},"type":"Feature"},
	{"geometry":{"coordinates":[-9.133924,39.409546],"type":"Point"},"properties":{"osm_id":"2862826316","tag":{"amenity":"recycling"}},"type":"Feature"},
	{"geometry":{"coordinates":[-9.140571,39.410877],"type":"Point"},"properties":{"osm_id":"2862826915","tag":{"amenity":"recycling"}},"type":"Feature"},
	{"geometry":{"coordinates":[-9.133199,39.412209],"type":"Point"},"properties":{"osm_id":"2862973630","tag":{"amenity":"recycling"}},"type":"Feature"},
	{"geometry":{"coordinates":[-9.136437,39.408561],"type":"Point"},"properties":{"osm_id":"2864807252","tag":{"amenity":"recycling"}},"type":"Feature"},
	{"geometry":{"coordinates":[-9.128179,39.39842],"type":"Point"},"properties":{"osm_id":"2867778239","tag":{"amenity":"recycling"}},"type":"Feature"},
	{"geometry":{"coordinates":[-9.129659,39.396379],"type":"Point"},"properties":{"osm_id":"2867805113","tag":{"amenity":"recycling"}},"type":"Feature"},
	{"geometry":{"coordinates":[-9.127247,39.396061],"type":"Point"},"properties":{"osm_id":"2871556190","tag":{"amenity":"recycling"}},"type":"Feature"},
	{"geometry":{"coordinates":[-9.134742,39.399735],"type":"Point"},"properties":{"osm_id":"2873780746","tag":{"amenity":"recycling"}},"type":"Feature"},
	{"geometry":{"coordinates":[-9.13685,39.413953],"type":"Point"},"properties":{"osm_id":"2875171419","tag":{"amenity":"recycling"}},"type":"Feature"},
	{"geometry":{"coordinates":[-9.119931,39.424525],"type":"Point"},"properties":{"osm_id":"2876681433","tag":{"amenity":"recycling","recycling_type":"container"}},"type":"Feature"},
	{"geometry":{"coordinates":[-9.124648,39.418522],"type":"Point"},"properties":{"osm_id":"2913190699","tag":{"amenity":"recycling"}},"type":"Feature"},
	{"geometry":{"coordinates":[-9.103506,39.40236],"type":"Point"},"properties":{"osm_id":"2921244791","tag":{"amenity":"recycling"}},"type":"Feature"},
	{"geometry":{"coordinates":[-9.129196,39.422829],"type":"Point"},"properties":{"osm_id":"2974129834","tag":{"amenity":"recycling","recycling:cans":"yes","recycling:cartons":"yes","recycling:paper":"yes","recycling:plastic":"yes","recycling:waste":"yes","recycling_type":"container"}},"type":"Feature"},
	{"geometry":{"coordinates":[-9.139824,39.411604],"type":"Point"},"properties":{"osm_id":"4171895459","tag":{"amenity":"waste_disposal"}},"type":"Feature"},
	{"geometry":{"coordinates":[-9.13909,39.411215],"type":"Point"},"properties":{"osm_id":"4175699952","tag":{"amenity":"waste_disposal"}},"type":"Feature"},
	{"geometry":{"coordinates":[-9.138768,39.409913],"type":"Point"},"properties":{"osm_id":"4176067554","tag":{"amenity":"waste_disposal"}},"type":"Feature"},
	{"geometry":{"coordinates":[-9.140566,39.41086],"type":"Point"},"properties":{"osm_id":"4180626923","tag":{"amenity":"waste_disposal"}},"type":"Feature"},
	{"geometry":{"coordinates":[-9.138676,39.413686],"type":"Point"},"properties":{"osm_id":"4180676756","tag":{"amenity":"waste_disposal"}},"type":"Feature"},
	{"geometry":{"coordinates":[-9.138626,39.413797],"type":"Point"},"properties":{"osm_id":"4180687699","tag":{"addr:city":"Caldas da Rainha","addr:postcode":"2500-884","addr:street":"Rua Professor Ant\u00c3\u00b3nio Maria Rodrigues","amenity":"recycling","recycling:cans":"yes","recycling:cartons":"yes","recycling:glass_bottles":"yes","recycling:paper":"yes","recycling:plastic":"yes","recycling_type":"container"}},"type":"Feature"},
	{"geometry":{"coordinates":[-9.136704,39.413816],"type":"Point"},"properties":{"osm_id":"4215236089","tag":{"amenity":"waste_disposal"}},"type":"Feature"},
	{"geometry":{"coordinates":[-9.137982,39.414565],"type":"Point"},"properties":{"osm_id":"4217145655","tag":{"amenity":"waste_disposal"}},"type":"Feature"},
	{"geometry":{"coordinates":[-9.138097,39.414897],"type":"Point"},"properties":{"osm_id":"4217145656","tag":{"amenity":"waste_disposal"}},"type":"Feature"},
	{"geometry":{"coordinates":[-9.136705,39.413767],"type":"Point"},"properties":{"osm_id":"4217145657","tag":{"amenity":"recycling"}},"type":"Feature"},
	{"geometry":{"coordinates":[-9.131401,39.412494],"type":"Point"},"properties":{"osm_id":"4217498527","tag":{"amenity":"recycling"}},"type":"Feature"},
	{"geometry":{"coordinates":[-9.139459,39.404464],"type":"Point"},"properties":{"osm_id":"4219276032","tag":{"amenity":"recycling"}},"type":"Feature"},
	{"geometry":{"coordinates":[-9.139436,39.404457],"type":"Point"},"properties":{"osm_id":"4219276033","tag":{"amenity":"recycling"}},"type":"Feature"},
	{"geometry":{"coordinates":[-9.139411,39.404442],"type":"Point"},"properties":{"osm_id":"4219276034","tag":{"amenity":"waste_disposal"}},"type":"Feature"},
	{"geometry":{"coordinates":[-9.139497,39.403521],"type":"Point"},"properties":{"osm_id":"4219277389","tag":{"amenity":"recycling"}},"type":"Feature"},
	{"geometry":{"coordinates":[-9.139494,39.403501],"type":"Point"},"properties":{"osm_id":"4219277390","tag":{"amenity":"recycling"}},"type":"Feature"},
	{"geometry":{"coordinates":[-9.139491,39.403484],"type":"Point"},"properties":{"osm_id":"4219277391","tag":{"amenity":"waste_disposal"}},"type":"Feature"},
	{"geometry":{"coordinates":[-9.138007,39.409077],"type":"Point"},"properties":{"osm_id":"4231617536","tag":{"amenity":"recycling"}},"type":"Feature"},
	{"geometry":{"coordinates":[-9.138044,39.409079],"type":"Point"},"properties":{"osm_id":"4231617537","tag":{"amenity":"recycling"}},"type":"Feature"},
	{"geometry":{"coordinates":[-9.138006,39.409096],"type":"Point"},"properties":{"osm_id":"4231617538","tag":{"amenity":"waste_basket"}},"type":"Feature"},
	{"geometry":{"coordinates":[-9.140272,39.409015],"type":"Point"},"properties":{"osm_id":"4258381528","tag":{"amenity":"waste_basket"}},"type":"Feature"},
	{"geometry":{"coordinates":[-9.130655,39.428591],"type":"Point"},"properties":{"osm_id":"4271693335","tag":{"amenity":"recycling","recycling_type":"container"}},"type":"Feature"},
	{"geometry":{"coordinates":[-9.130647,39.428638],"type":"Point"},"properties":{"osm_id":"4271693336","tag":{"amenity":"waste_disposal"}},"type":"Feature"},
	{"geometry":{"coordinates":[-9.130384,39.432351],"type":"Point"},"properties":{"osm_id":"4273614962","tag":{"amenity":"recycling","recycling_type":"container"}},"type":"Feature"},
	{"geometry":{"coordinates":[-9.130365,39.432346],"type":"Point"},"properties":{"osm_id":"4273614963","tag":{"amenity":"recycling","recycling_type":"container"}},"type":"Feature"},
	{"geometry":{"coordinates":[-9.130345,39.432339],"type":"Point"},"properties":{"osm_id":"4273614964","tag":{"amenity":"waste_disposal"}},"type":"Feature"},
	{"geometry":{"coordinates":[-9.134023,39.41325],"type":"Point"},"properties":{"osm_id":"4275399148","tag":{"amenity":"waste_disposal"}},"type":"Feature"},
	{"geometry":{"coordinates":[-9.134029,39.414476],"type":"Point"},"properties":{"osm_id":"4275399150","tag":{"amenity":"waste_disposal"}},"type":"Feature"},
	{"geometry":{"coordinates":[-9.134013,39.414501],"type":"Point"},"properties":{"osm_id":"4275399151","tag":{"amenity":"recycling"}},"type":"Feature"},
	{"geometry":{"coordinates":[-9.133284,39.415487],"type":"Point"},"properties":{"osm_id":"4275400565","tag":{"amenity":"waste_disposal"}},"type":"Feature"},
	{"geometry":{"coordinates":[-9.131794,39.418745],"type":"Point"},"properties":{"osm_id":"4275444027","tag":{"amenity":"waste_disposal"}},"type":"Feature"},
	{"geometry":{"coordinates":[-9.137352,39.406019],"type":"Point"},"properties":{"osm_id":"4298754001","tag":{"amenity":"recycling"}},"type":"Feature"},
	{"geometry":{"coordinates":[-9.13734,39.406036],"type":"Point"},"properties":{"osm_id":"4298754002","tag":{"amenity":"recycling"}},"type":"Feature"},
	{"geometry":{"coordinates":[-9.137329,39.406052],"type":"Point"},"properties":{"osm_id":"4298754003","tag":{"amenity":"waste_disposal"}},"type":"Feature"},
	{"geometry":{"coordinates":[-9.129702,39.422625],"type":"Point"},"properties":{"osm_id":"4327036087","tag":{"amenity":"recycling","recycling:waste":"yes","recycling_type":"container"}},"type":"Feature"},
	{"geometry":{"coordinates":[-9.137486,39.408314],"type":"Point"},"properties":{"osm_id":"4422188154","tag":{"amenity":"recycling"}},"type":"Feature"},
	{"geometry":{"coordinates":[-9.137478,39.408286],"type":"Point"},"properties":{"osm_id":"4422188155","tag":{"amenity":"waste_disposal"}},"type":"Feature"},
	{"geometry":{"coordinates":[-9.140161,39.409916],"type":"Point"},"properties":{"osm_id":"4422200939","tag":{"amenity":"recycling"}},"type":"Feature"},
	{"geometry":{"coordinates":[-9.140138,39.409893],"type":"Point"},"properties":{"osm_id":"4422200940","tag":{"amenity":"waste_disposal"}},"type":"Feature"},
	{"geometry":{"coordinates":[-9.138612,39.408421],"type":"Point"},"properties":{"osm_id":"4423361531","tag":{"amenity":"waste_disposal"}},"type":"Feature"},
	{"geometry":{"coordinates":[-9.138331,39.408117],"type":"Point"},"properties":{"osm_id":"4423361533","tag":{"amenity":"waste_disposal"}},"type":"Feature"},
	{"geometry":{"coordinates":[-9.138164,39.407847],"type":"Point"},"properties":{"osm_id":"4423361536","tag":{"amenity":"waste_disposal"}},"type":"Feature"},
	{"geometry":{"coordinates":[-9.137279,39.406687],"type":"Point"},"properties":{"osm_id":"4423431661","tag":{"amenity":"recycling"}},"type":"Feature"},
	{"geometry":{"coordinates":[-9.137281,39.406707],"type":"Point"},"properties":{"osm_id":"4423431662","tag":{"amenity":"waste_disposal"}},"type":"Feature"},
	{"geometry":{"coordinates":[-9.138226,39.406663],"type":"Point"},"properties":{"osm_id":"4423431673","tag":{"amenity":"recycling"}},"type":"Feature"},
	{"geometry":{"coordinates":[-9.138252,39.406661],"type":"Point"},"properties":{"osm_id":"4423431674","tag":{"amenity":"waste_disposal"}},"type":"Feature"},
	{"geometry":{"coordinates":[-9.13924,39.406652],"type":"Point"},"properties":{"osm_id":"4423434110","tag":{"amenity":"recycling"}},"type":"Feature"},
	{"geometry":{"coordinates":[-9.139195,39.406662],"type":"Point"},"properties":{"osm_id":"4423434111","tag":{"amenity":"waste_disposal"}},"type":"Feature"},
	{"geometry":{"coordinates":[-9.135681,39.406683],"type":"Point"},"properties":{"osm_id":"4478985579","tag":{"amenity":"recycling"}},"type":"Feature"},
	{"geometry":{"coordinates":[-9.135664,39.406674],"type":"Point"},"properties":{"osm_id":"4478985580","tag":{"amenity":"recycling"}},"type":"Feature"},
	{"geometry":{"coordinates":[-9.135647,39.406666],"type":"Point"},"properties":{"osm_id":"4478985581","tag":{"amenity":"recycling"}},"type":"Feature"},
	{"geometry":{"coordinates":[-9.135627,39.406656],"type":"Point"},"properties":{"osm_id":"4478985582","tag":{"amenity":"waste_disposal"}},"type":"Feature"},
	{"geometry":{"coordinates":[-9.136457,39.408555],"type":"Point"},"properties":{"osm_id":"4479010526","tag":{"amenity":"recycling"}},"type":"Feature"},
	{"geometry":{"coordinates":[-9.136475,39.408548],"type":"Point"},"properties":{"osm_id":"4479010527","tag":{"amenity":"recycling"}},"type":"Feature"},
	{"geometry":{"coordinates":[-9.1365,39.408534],"type":"Point"},"properties":{"osm_id":"4479010528","tag":{"amenity":"waste_disposal"}},"type":"Feature"},
	{"geometry":{"coordinates":[-9.140534,39.402369],"type":"Point"},"properties":{"osm_id":"4488498856","tag":{"amenity":"recycling"}},"type":"Feature"},
	{"geometry":{"coordinates":[-9.140517,39.40237],"type":"Point"},"properties":{"osm_id":"4488498857","tag":{"amenity":"recycling"}},"type":"Feature"},
	{"geometry":{"coordinates":[-9.140501,39.402373],"type":"Point"},"properties":{"osm_id":"4488498858","tag":{"amenity":"recycling"}},"type":"Feature"},
	{"geometry":{"coordinates":[-9.13498,39.407492],"type":"Point"},"properties":{"osm_id":"4490336845","tag":{"amenity":"recycling"}},"type":"Feature"},
	{"geometry":{"coordinates":[-9.134963,39.407482],"type":"Point"},"properties":{"osm_id":"4490336846","tag":{"amenity":"recycling"}},"type":"Feature"},
	{"geometry":{"coordinates":[-9.134949,39.407471],"type":"Point"},"properties":{"osm_id":"4490336847","tag":{"addr:city":"Caldas da Rainha","addr:postcode":"2500-178","addr:street":"Rua 31 de Janeiro","amenity":"recycling"}},"type":"Feature"},
	{"geometry":{"coordinates":[-9.134936,39.407453],"type":"Point"},"properties":{"osm_id":"4490336848","tag":{"amenity":"waste_disposal"}},"type":"Feature"},
	{"geometry":{"coordinates":[-9.136975,39.412198],"type":"Point"},"properties":{"osm_id":"4586123609","tag":{"amenity":"waste_basket"}},"type":"Feature"},
	{"geometry":{"coordinates":[-9.136984,39.412193],"type":"Point"},"properties":{"osm_id":"4586123610","tag":{"amenity":"recycling","recycling_type":"container"}},"type":"Feature"},
	{"geometry":{"coordinates":[-9.136992,39.412189],"type":"Point"},"properties":{"osm_id":"4586123611","tag":{"amenity":"recycling","recycling_type":"container"}},"type":"Feature"},
	{"geometry":{"coordinates":[-9.130237,39.410798],"type":"Point"},"properties":{"osm_id":"4942471726","tag":{"amenity":"recycling","recycling:glass":"yes","recycling_type":"container"}},"type":"Feature"},
	{"geometry":{"coordinates":[-9.13008,39.410798],"type":"Point"},"properties":{"osm_id":"4942471728","tag":{"amenity":"recycling","recycling:paper":"yes","recycling_type":"container"}},"type":"Feature"},
	{"geometry":{"coordinates":[-9.128379,39.411192],"type":"Point"},"properties":{"osm_id":"4942474375","tag":{"amenity":"recycling","recycling:paper":"yes","recycling_type":"container"}},"type":"Feature"},
	{"geometry":{"coordinates":[-9.128385,39.41116],"type":"Point"},"properties":{"osm_id":"4942474376","tag":{"amenity":"recycling","recycling:plastic":"yes","recycling_type":"container"}},"type":"Feature"},
	{"geometry":{"coordinates":[-9.128387,39.411128],"type":"Point"},"properties":{"osm_id":"4942474377","tag":{"amenity":"recycling","recycling:glass":"yes","recycling_type":"container"}},"type":"Feature"},
	{"geometry":{"coordinates":[-9.132205,39.405495],"type":"Point"},"properties":{"osm_id":"5105468025","tag":{"amenity":"recycling","recycling:glass":"yes","recycling_type":"container"}},"type":"Feature"},
	{"geometry":{"coordinates":[-9.132212,39.405526],"type":"Point"},"properties":{"osm_id":"5105468026","tag":{"amenity":"recycling","recycling:paper":"yes","recycling_type":"container"}},"type":"Feature"},
	{"geometry":{"coordinates":[-9.132206,39.405512],"type":"Point"},"properties":{"osm_id":"5105468027","tag":{"amenity":"recycling","recycling:cartons":"yes","recycling_type":"container"}},"type":"Feature"},
	{"geometry":{"coordinates":[-9.132914,39.404816],"type":"Point"},"properties":{"osm_id":"5107478801","tag":{"amenity":"recycling","recycling:glass":"yes","recycling_type":"container"}},"type":"Feature"},
	{"geometry":{"coordinates":[-9.132913,39.404831],"type":"Point"},"properties":{"osm_id":"5107478802","tag":{"amenity":"recycling","recycling:paper":"yes","recycling_type":"container"}},"type":"Feature"},
	{"geometry":{"coordinates":[-9.132916,39.404805],"type":"Point"},"properties":{"osm_id":"5107478803","tag":{"amenity":"recycling","recycling_type":"container"}},"type":"Feature"},
	{"geometry":{"coordinates":[-9.133268,39.408924],"type":"Point"},"properties":{"osm_id":"5113285863","tag":{"amenity":"waste_disposal"}},"type":"Feature"},
	{"geometry":{"coordinates":[-9.133458,39.4083],"type":"Point"},"properties":{"osm_id":"5113307334","tag":{"amenity":"waste_disposal"}},"type":"Feature"},
	{"geometry":{"coordinates":[-9.133186,39.407215],"type":"Point"},"properties":{"osm_id":"5113320367","tag":{"amenity":"waste_disposal"}},"type":"Feature"},
	{"geometry":{"coordinates":[-9.138746,39.404207],"type":"Point"},"properties":{"osm_id":"5675775298","tag":{"amenity":"waste_basket"}},"type":"Feature"},
	{"geometry":{"coordinates":[-9.138765,39.404169],"type":"Point"},"properties":{"osm_id":"5675775299","tag":{"amenity":"recycling","recycling:glass":"yes","recycling_type":"container"}},"type":"Feature"},
	{"geometry":{"coordinates":[-9.138779,39.404136],"type":"Point"},"properties":{"osm_id":"5675775300","tag":{"amenity":"recycling","recycling:plastic":"yes","recycling_type":"container"}},"type":"Feature"},
	{"geometry":{"coordinates":[-9.138796,39.404098],"type":"Point"},"properties":{"osm_id":"5675775301","tag":{"amenity":"recycling","recycling:paper":"yes","recycling_type":"container"}},"type":"Feature"},
	{"geometry":{"coordinates":[-9.135491,39.403928],"type":"Point"},"properties":{"osm_id":"5684612855","tag":{"amenity":"waste_basket"}},"type":"Feature"},
	{"geometry":{"coordinates":[-9.135497,39.40391],"type":"Point"},"properties":{"osm_id":"5684612856","tag":{"amenity":"recycling","recycling:glass":"yes","recycling_type":"container"}},"type":"Feature"},
	{"geometry":{"coordinates":[-9.135503,39.403897],"type":"Point"},"properties":{"osm_id":"5684612857","tag":{"amenity":"recycling","recycling:plastic":"yes","recycling_type":"container"}},"type":"Feature"},
	{"geometry":{"coordinates":[-9.135509,39.40388],"type":"Point"},"properties":{"osm_id":"5684612858","tag":{"amenity":"recycling","recycling:scrap_metal":"yes","recycling_type":"container"}},"type":"Feature"},
	{"geometry":{"coordinates":[-9.133131,39.407171],"type":"Point"},"properties":{"osm_id":"6367860243","tag":{"amenity":"recycling","recycling:glass":"yes","recycling_type":"container"}},"type":"Feature"},
	{"geometry":{"coordinates":[-9.13314,39.40717],"type":"Point"},"properties":{"osm_id":"6367860244","tag":{"amenity":"recycling","recycling:plastic":"yes","recycling_type":"container"}},"type":"Feature"},
	{"geometry":{"coordinates":[-9.133126,39.407172],"type":"Point"},"properties":{"osm_id":"6367860245","tag":{"amenity":"recycling","recycling:paper":"yes","recycling_type":"container"}},"type":"Feature"},
	{"geometry":{"coordinates":[-9.136061,39.404777],"type":"Point"},"properties":{"osm_id":"6375922937","tag":{"amenity":"waste_basket"}},"type":"Feature"},
	{"geometry":{"coordinates":[-9.136059,39.404787],"type":"Point"},"properties":{"osm_id":"6375922938","tag":{"amenity":"recycling","recycling:glass":"yes","recycling_type":"container"}},"type":"Feature"},
	{"geometry":{"coordinates":[-9.136057,39.404796],"type":"Point"},"properties":{"osm_id":"6375922939","tag":{"amenity":"recycling","recycling:paper":"yes","recycling_type":"container"}},"type":"Feature"},
	{"geometry":{"coordinates":[-9.136055,39.404805],"type":"Point"},"properties":{"osm_id":"6375922940","tag":{"amenity":"recycling","recycling:plastic":"yes","recycling_type":"container"}},"type":"Feature"},
	{"geometry":{"coordinates":[-9.136126,39.405923],"type":"Point"},"properties":{"osm_id":"6398193733","tag":{"amenity":"recycling","recycling:glass":"yes","recycling_type":"container"}},"type":"Feature"},
	{"geometry":{"coordinates":[-9.136079,39.405921],"type":"Point"},"properties":{"osm_id":"6398193734","tag":{"amenity":"recycling","recycling:paper":"yes","recycling_type":"container"}},"type":"Feature"},
	{"geometry":{"coordinates":[-9.136044,39.40593],"type":"Point"},"properties":{"osm_id":"6398193735","tag":{"amenity":"recycling","recycling:plastic":"yes","recycling_type":"container","wheelchair":"yes"}},"type":"Feature"},
	{"geometry":{"coordinates":[-9.136013,39.405941],"type":"Point"},"properties":{"osm_id":"6398193736","tag":{"amenity":"waste_disposal"}},"type":"Feature"},
	{"geometry":{"coordinates":[-9.136698,39.406887],"type":"Point"},"properties":{"osm_id":"6406077031","tag":{"amenity":"waste_basket"}},"type":"Feature"},
	{"geometry":{"coordinates":[-9.136703,39.406846],"type":"Point"},"properties":{"osm_id":"6406077032","tag":{"amenity":"waste_basket"}},"type":"Feature"},
	{"geometry":{"coordinates":[-9.137185,39.406835],"type":"Point"},"properties":{"osm_id":"6406131197","tag":{"amenity":"waste_basket"}},"type":"Feature"},
	{"geometry":{"coordinates":[-9.137202,39.406786],"type":"Point"},"properties":{"osm_id":"6406131198","tag":{"amenity":"waste_basket"}},"type":"Feature"},
	{"geometry":{"coordinates":[-9.137342,39.40682],"type":"Point"},"properties":{"osm_id":"6406131199","tag":{"amenity":"waste_basket"}},"type":"Feature"},
	{"geometry":{"coordinates":[-9.137371,39.406776],"type":"Point"},"properties":{"osm_id":"6406131200","tag":{"amenity":"waste_basket"}},"type":"Feature"},
	{"geometry":{"coordinates":[-9.138052,39.406758],"type":"Point"},"properties":{"osm_id":"6406131201","tag":{"amenity":"waste_basket"}},"type":"Feature"},
	{"geometry":{"coordinates":[-9.138108,39.406674],"type":"Point"},"properties":{"osm_id":"6406131202","tag":{"amenity":"waste_basket"}},"type":"Feature"},
	{"geometry":{"coordinates":[-9.138585,39.406711],"type":"Point"},"properties":{"osm_id":"6406131203","tag":{"amenity":"waste_basket"}},"type":"Feature"},
	{"geometry":{"coordinates":[-9.138637,39.406696],"type":"Point"},"properties":{"osm_id":"6406131204","tag":{"amenity":"waste_basket"}},"type":"Feature"},
	{"geometry":{"coordinates":[-9.138724,39.406672],"type":"Point"},"properties":{"osm_id":"6406131205","tag":{"amenity":"waste_basket"}},"type":"Feature"},
	{"geometry":{"coordinates":[-9.138771,39.406622],"type":"Point"},"properties":{"osm_id":"6406131206","tag":{"amenity":"waste_basket"}},"type":"Feature"},
	{"geometry":{"coordinates":[-9.139495,39.406597],"type":"Point"},"properties":{"osm_id":"6406131207","tag":{"amenity":"waste_basket"}},"type":"Feature"},
	{"geometry":{"coordinates":[-9.139518,39.406536],"type":"Point"},"properties":{"osm_id":"6406131208","tag":{"amenity":"waste_basket"}},"type":"Feature"},
	{"geometry":{"coordinates":[-9.136652,39.407291],"type":"Point"},"properties":{"osm_id":"6406146189","tag":{"amenity":"waste_basket"}},"type":"Feature"},
	{"geometry":{"coordinates":[-9.136693,39.407264],"type":"Point"},"properties":{"osm_id":"6406146190","tag":{"amenity":"waste_basket"}},"type":"Feature"},
	{"geometry":{"coordinates":[-9.136523,39.407669],"type":"Point"},"properties":{"osm_id":"6406146191","tag":{"amenity":"waste_basket"}},"type":"Feature"},
	{"geometry":{"coordinates":[-9.136354,39.407709],"type":"Point"},"properties":{"osm_id":"6406146192","tag":{"amenity":"waste_basket"}},"type":"Feature"},
	{"geometry":{"coordinates":[-9.136033,39.407339],"type":"Point"},"properties":{"osm_id":"6406146195","tag":{"amenity":"waste_basket"}},"type":"Feature"},
	{"geometry":{"coordinates":[-9.135956,39.407333],"type":"Point"},"properties":{"osm_id":"6406146196","tag":{"amenity":"waste_basket"}},"type":"Feature"},
	{"geometry":{"coordinates":[-9.136428,39.406555],"type":"Point"},"properties":{"osm_id":"6406715281","tag":{"amenity":"waste_basket"}},"type":"Feature"},
	{"geometry":{"coordinates":[-9.136387,39.406576],"type":"Point"},"properties":{"osm_id":"6406715282","tag":{"amenity":"waste_basket"}},"type":"Feature"},
	{"geometry":{"coordinates":[-9.136025,39.406628],"type":"Point"},"properties":{"osm_id":"6406715283","tag":{"amenity":"waste_basket"}},"type":"Feature"},
	{"geometry":{"coordinates":[-9.135969,39.406605],"type":"Point"},"properties":{"osm_id":"6406715284","tag":{"amenity":"waste_basket"}},"type":"Feature"},
	{"geometry":{"coordinates":[-9.136348,39.40608],"type":"Point"},"properties":{"osm_id":"6406799217","tag":{"amenity":"waste_basket"}},"type":"Feature"},
	{"geometry":{"coordinates":[-9.136292,39.406046],"type":"Point"},"properties":{"osm_id":"6406799218","tag":{"amenity":"waste_basket"}},"type":"Feature"},
	{"geometry":{"coordinates":[-9.13883,39.409886],"type":"Point"},"properties":{"osm_id":"6609389170","tag":{"amenity":"recycling","operator":"Resioeste","recycling:glass":"yes","recycling_type":"container"}},"type":"Feature"},
	{"geometry":{"coordinates":[-9.138796,39.409899],"type":"Point"},"properties":{"osm_id":"6609389171","tag":{"amenity":"recycling","operator":"Resioeste","recycling:paper":"yes","recycling_type":"container"}},"type":"Feature"},
	{"geometry":{"coordinates":[-9.138814,39.40987],"type":"Point"},"properties":{"osm_id":"6609389172","tag":{"amenity":"recycling","operator":"Resioeste","recycling:plastic":"yes","recycling_type":"container"}},"type":"Feature"},
	{"geometry":{"coordinates":[-9.138718,39.409766],"type":"Point"},"properties":{"osm_id":"6609389173","tag":{"amenity":"recycling","operator":"Resioeste","recycling:plastic":"yes","recycling_type":"container"}},"type":"Feature"},
	{"geometry":{"coordinates":[-9.138707,39.409773],"type":"Point"},"properties":{"osm_id":"6609389174","tag":{"amenity":"recycling","operator":"Resioeste","recycling:glass":"yes","recycling_type":"container"}},"type":"Feature"},
	{"geometry":{"coordinates":[-9.138692,39.409784],"type":"Point"},"properties":{"osm_id":"6609389175","tag":{"amenity":"recycling","operator":"Resioeste","recycling:paper":"yes","recycling_type":"container"}},"type":"Feature"},
	{"geometry":{"coordinates":[-9.138647,39.409776],"type":"Point"},"properties":{"osm_id":"6609389176","tag":{"amenity":"waste_disposal"}},"type":"Feature"},
	{"geometry":{"coordinates":[-9.138669,39.409795],"type":"Point"},"properties":{"osm_id":"6609389177","tag":{"amenity":"recycling","recycling:clothes":"yes","recycling_type":"container"}},"type":"Feature"},
	{"geometry":{"coordinates":[-9.138878,39.413194],"type":"Point"},"properties":{"osm_id":"6665182090","tag":{"amenity":"recycling","colour":"Amarelo","material":"plastic","recycling:clothes":"yes","recycling_type":"container"}},"type":"Feature"},
	{"geometry":{"coordinates":[-9.125434,39.410713],"type":"Point"},"properties":{"osm_id":"7391316368","tag":{"amenity":"recycling","recycling_type":"container"}},"type":"Feature"},
	{"geometry":{"coordinates":[-9.12544,39.410705],"type":"Point"},"properties":{"osm_id":"7391316369","tag":{"amenity":"recycling","recycling_type":"container"}},"type":"Feature"},
	{"geometry":{"coordinates":[-9.125443,39.410701],"type":"Point"},"properties":{"osm_id":"7391316370","tag":{"amenity":"recycling","recycling_type":"container"}},"type":"Feature"},
	{"geometry":{"coordinates":[-9.140612,39.410214],"type":"Point"},"properties":{"osm_id":"7545185970","tag":{"amenity":"recycling","recycling:clothes":"yes","recycling_type":"container"}},"type":"Feature"}
]
}
