{
"type": "FeatureCollection",
"features": [
	{"geometry":{"coordinates":[-9.119467,38.900648],"type":"Point"},"properties":{"osm_id":"8250436125","tag":{"amenity":"recycling","operator":"C\u00c3\u00a1ritas Diocesana de Lisboa","operator:type":"religious","recycling:clothes":"yes","recycling_type":"container"}},"type":"Feature"},
	{"geometry":{"coordinates":[-9.118792,38.900603],"type":"Point"},"properties":{"osm_id":"8250436126","tag":{"amenity":"recycling","location":"underground","operator":"SIMAR","operator:type":"government","recycling:PET":"yes","recycling:beverage_cartons":"yes","recycling:cans":"yes","recycling:cardboard":"yes","recycling:cartons":"yes","recycling:glass":"yes","recycling:glass_bottles":"yes","recycling:magazines":"yes","recycling:newspaper":"yes","recycling:paper":"yes","recycling:paper_packaging":"yes","recycling:plastic":"yes","recycling:plastic_bags":"yes","recycling:plastic_bottles":"yes","recycling:plastic_packaging":"yes","recycling_type":"container"}},"type":"Feature"},
	{"geometry":{"coordinates":[-9.119641,38.900996],"type":"Point"},"properties":{"osm_id":"8250436129","tag":{"amenity":"recycling","operator":"SIMAR","operator:type":"government","recycling:PET":"yes","recycling:beverage_cartons":"yes","recycling:cans":"yes","recycling:cardboard":"yes","recycling:cartons":"yes","recycling:glass":"yes","recycling:glass_bottles":"yes","recycling:magazines":"yes","recycling:newspaper":"yes","recycling:paper":"yes","recycling:paper_packaging":"yes","recycling:plastic":"yes","recycling:plastic_bags":"yes","recycling:plastic_bottles":"yes","recycling:plastic_packaging":"yes","recycling_type":"container"}},"type":"Feature"},
	{"geometry":{"coordinates":[-9.118955,38.900899],"type":"Point"},"properties":{"osm_id":"8250436130","tag":{"amenity":"recycling","operator":"SIMAR","operator:type":"government","recycling:PET":"yes","recycling:beverage_cartons":"yes","recycling:cans":"yes","recycling:cardboard":"yes","recycling:cartons":"yes","recycling:glass":"yes","recycling:glass_bottles":"yes","recycling:magazines":"yes","recycling:newspaper":"yes","recycling:paper":"yes","recycling:paper_packaging":"yes","recycling:plastic":"yes","recycling:plastic_bags":"yes","recycling:plastic_bottles":"yes","recycling:plastic_packaging":"yes","recycling_type":"container"}},"type":"Feature"},
	{"geometry":{"coordinates":[-9.11894,38.900916],"type":"Point"},"properties":{"osm_id":"8250436131","tag":{"amenity":"recycling","operator":"Prio","operator:type":"private","recycling:cooking_oil":"yes","recycling:engine_oil":"no","recycling_type":"container"}},"type":"Feature"},
	{"geometry":{"coordinates":[-9.119669,38.900998],"type":"Point"},"properties":{"osm_id":"8250436132","tag":{"amenity":"waste_disposal","operator":"SIMAR","operator:type":"government","waste":"trash"}},"type":"Feature"},
	{"geometry":{"coordinates":[-9.118923,38.900895],"type":"Point"},"properties":{"osm_id":"8250436133","tag":{"amenity":"waste_disposal","operator":"SIMAR","operator:type":"government","waste":"trash"}},"type":"Feature"},
	{"geometry":{"coordinates":[-9.119339,38.902872],"type":"Point"},"properties":{"osm_id":"8252703435","tag":{"amenity":"waste_disposal","operator":"SIMAR","operator:type":"government","waste":"trash"}},"type":"Feature"},
	{"geometry":{"coordinates":[-9.120028,38.901254],"type":"Point"},"properties":{"osm_id":"8252703461","tag":{"amenity":"waste_disposal","operator":"SIMAR","operator:type":"government","waste":"trash"}},"type":"Feature"},
	{"geometry":{"coordinates":[-9.120008,38.901272],"type":"Point"},"properties":{"osm_id":"8252703462","tag":{"amenity":"recycling","operator":"SIMAR","operator:type":"government","recycling:PET":"yes","recycling:beverage_cartons":"yes","recycling:cans":"yes","recycling:cardboard":"yes","recycling:cartons":"yes","recycling:glass":"yes","recycling:glass_bottles":"yes","recycling:magazines":"yes","recycling:newspaper":"yes","recycling:paper":"yes","recycling:paper_packaging":"yes","recycling:plastic":"yes","recycling:plastic_bags":"yes","recycling:plastic_bottles":"yes","recycling:plastic_packaging":"yes","recycling_type":"container"}},"type":"Feature"},
	{"geometry":{"coordinates":[-9.118776,38.900617],"type":"Point"},"properties":{"osm_id":"8252703466","tag":{"amenity":"waste_disposal","location":"underground","operator":"SIMAR","operator:type":"government","waste":"trash"}},"type":"Feature"},
	{"geometry":{"coordinates":[-9.117705,38.90079],"type":"Point"},"properties":{"osm_id":"8255021841","tag":{"amenity":"waste_disposal","operator":"SIMAR","operator:type":"government","waste":"trash"}},"type":"Feature"},
	{"geometry":{"coordinates":[-9.117264,38.900714],"type":"Point"},"properties":{"osm_id":"8255021842","tag":{"amenity":"waste_disposal","operator":"SIMAR","operator:type":"government","waste":"trash"}},"type":"Feature"},
	{"geometry":{"coordinates":[-9.116174,38.901315],"type":"Point"},"properties":{"osm_id":"8255021872","tag":{"amenity":"waste_disposal","operator":"SIMAR","operator:type":"government","waste":"trash"}},"type":"Feature"},
	{"geometry":{"coordinates":[-9.116308,38.901314],"type":"Point"},"properties":{"osm_id":"8255021873","tag":{"amenity":"recycling","operator":"SIMAR","operator:type":"government","recycling:beverage_cartons":"yes","recycling:cardboard":"yes","recycling:cartons":"yes","recycling:magazines":"yes","recycling:newspaper":"yes","recycling:paper":"yes","recycling:paper_packaging":"yes","recycling_type":"container"}},"type":"Feature"},
	{"geometry":{"coordinates":[-9.118996,38.899093],"type":"Point"},"properties":{"osm_id":"8255025425","tag":{"amenity":"waste_disposal","operator":"SIMAR","operator:type":"government","waste":"trash"}},"type":"Feature"},
	{"geometry":{"coordinates":[-9.119185,38.898433],"type":"Point"},"properties":{"osm_id":"8255025430","tag":{"amenity":"recycling","location":"underground","operator":"SIMAR","operator:type":"government","recycling:PET":"yes","recycling:beverage_cartons":"yes","recycling:cans":"yes","recycling:cardboard":"yes","recycling:cartons":"yes","recycling:glass":"yes","recycling:glass_bottles":"yes","recycling:magazines":"yes","recycling:newspaper":"yes","recycling:paper":"yes","recycling:paper_packaging":"yes","recycling:plastic":"yes","recycling:plastic_bags":"yes","recycling:plastic_bottles":"yes","recycling:plastic_packaging":"yes","recycling_type":"container"}},"type":"Feature"},
	{"geometry":{"coordinates":[-9.118886,38.899757],"type":"Point"},"properties":{"osm_id":"8255025437","tag":{"amenity":"waste_basket","material":"metal","waste":"cigarettes"}},"type":"Feature"},
	{"geometry":{"coordinates":[-9.12501,38.903188],"type":"Point"},"properties":{"osm_id":"8255052126","tag":{"amenity":"waste_disposal","operator":"SIMAR","operator:type":"government","waste":"trash"}},"type":"Feature"},
	{"geometry":{"coordinates":[-9.126252,38.903498],"type":"Point"},"properties":{"osm_id":"8255052127","tag":{"amenity":"waste_disposal","operator":"SIMAR","operator:type":"government","waste":"trash"}},"type":"Feature"},
	{"geometry":{"coordinates":[-9.131307,38.903958],"type":"Point"},"properties":{"osm_id":"8255052128","tag":{"amenity":"waste_disposal","operator":"SIMAR","operator:type":"government","waste":"trash"}},"type":"Feature"},
	{"geometry":{"coordinates":[-9.132718,38.903399],"type":"Point"},"properties":{"osm_id":"8255052129","tag":{"amenity":"waste_disposal","operator":"SIMAR","operator:type":"government","waste":"trash"}},"type":"Feature"},
	{"geometry":{"coordinates":[-9.139843,38.908486],"type":"Point"},"properties":{"osm_id":"8255052132","tag":{"amenity":"waste_disposal","operator":"SIMAR","operator:type":"government","waste":"trash"}},"type":"Feature"},
	{"geometry":{"coordinates":[-9.120866,38.902197],"type":"Point"},"properties":{"osm_id":"8255052136","tag":{"amenity":"waste_disposal","operator":"SIMAR","operator:type":"government","waste":"trash"}},"type":"Feature"},
	{"geometry":{"coordinates":[-9.120968,38.902288],"type":"Point"},"properties":{"osm_id":"8255052137","tag":{"amenity":"recycling","operator":"SIMAR","operator:type":"government","recycling:PET":"yes","recycling:beverage_cartons":"yes","recycling:cans":"yes","recycling:cardboard":"yes","recycling:cartons":"yes","recycling:glass":"yes","recycling:glass_bottles":"yes","recycling:magazines":"yes","recycling:newspaper":"yes","recycling:paper":"yes","recycling:paper_packaging":"yes","recycling:plastic":"yes","recycling:plastic_bags":"yes","recycling:plastic_bottles":"yes","recycling:plastic_packaging":"yes","recycling_type":"container"}},"type":"Feature"},
	{"geometry":{"coordinates":[-9.110228,38.901184],"type":"Point"},"properties":{"osm_id":"8255233276","tag":{"amenity":"recycling","operator":"SIMAR","operator:type":"government","recycling:PET":"yes","recycling:beverage_cartons":"yes","recycling:cans":"yes","recycling:cardboard":"yes","recycling:cartons":"yes","recycling:glass":"yes","recycling:glass_bottles":"yes","recycling:magazines":"yes","recycling:newspaper":"yes","recycling:paper":"yes","recycling:paper_packaging":"yes","recycling:plastic":"yes","recycling:plastic_bags":"yes","recycling:plastic_bottles":"yes","recycling:plastic_packaging":"yes","recycling_type":"container"}},"type":"Feature"},
	{"geometry":{"coordinates":[-9.110181,38.901191],"type":"Point"},"properties":{"osm_id":"8255233277","tag":{"amenity":"waste_disposal","operator":"SIMAR","operator:type":"government","waste":"trash"}},"type":"Feature"},
	{"geometry":{"coordinates":[-9.111229,38.901346],"type":"Point"},"properties":{"osm_id":"8255233953","tag":{"amenity":"waste_disposal","operator":"SIMAR","operator:type":"government","waste":"trash"}},"type":"Feature"},
	{"geometry":{"coordinates":[-9.111228,38.901318],"type":"Point"},"properties":{"osm_id":"8255233954","tag":{"amenity":"recycling","operator":"SIMAR","operator:type":"government","recycling:PET":"yes","recycling:beverage_cartons":"yes","recycling:cans":"yes","recycling:cardboard":"yes","recycling:cartons":"yes","recycling:glass":"yes","recycling:glass_bottles":"yes","recycling:magazines":"yes","recycling:newspaper":"yes","recycling:paper":"yes","recycling:paper_packaging":"yes","recycling:plastic":"yes","recycling:plastic_bags":"yes","recycling:plastic_bottles":"yes","recycling:plastic_packaging":"yes","recycling_type":"container"}},"type":"Feature"},
	{"geometry":{"coordinates":[-9.110085,38.900728],"type":"Point"},"properties":{"osm_id":"8255233958","tag":{"amenity":"recycling","operator":"SIMAR","operator:type":"government","recycling:PET":"yes","recycling:beverage_cartons":"yes","recycling:cans":"yes","recycling:cardboard":"yes","recycling:cartons":"yes","recycling:glass":"yes","recycling:glass_bottles":"yes","recycling:magazines":"yes","recycling:newspaper":"yes","recycling:paper":"yes","recycling:paper_packaging":"yes","recycling:plastic":"yes","recycling:plastic_bags":"yes","recycling:plastic_bottles":"yes","recycling:plastic_packaging":"yes","recycling_type":"container"}},"type":"Feature"},
	{"geometry":{"coordinates":[-9.110039,38.900735],"type":"Point"},"properties":{"osm_id":"8255233959","tag":{"amenity":"waste_disposal","operator":"SIMAR","operator:type":"government","waste":"trash"}},"type":"Feature"},
	{"geometry":{"coordinates":[-9.112644,38.901303],"type":"Point"},"properties":{"osm_id":"8255233961","tag":{"amenity":"waste_disposal","operator":"SIMAR","operator:type":"government","waste":"trash"}},"type":"Feature"},
	{"geometry":{"coordinates":[-9.120975,38.902675],"type":"Point"},"properties":{"osm_id":"8259797324","tag":{"amenity":"waste_disposal","operator":"SIMAR","operator:type":"government","waste":"trash"}},"type":"Feature"},
	{"geometry":{"coordinates":[-9.139074,38.90333],"type":"Point"},"properties":{"osm_id":"8259797325","tag":{"amenity":"waste_disposal","operator":"SIMAR","operator:type":"government","waste":"trash"}},"type":"Feature"},
	{"geometry":{"coordinates":[-9.130032,38.910551],"type":"Point"},"properties":{"osm_id":"8264704337","tag":{"amenity":"recycling","operator":"SIMAR","operator:type":"government","recycling:PET":"yes","recycling:beverage_cartons":"yes","recycling:cans":"yes","recycling:cardboard":"yes","recycling:cartons":"yes","recycling:glass":"yes","recycling:glass_bottles":"yes","recycling:magazines":"yes","recycling:newspaper":"yes","recycling:paper":"yes","recycling:paper_packaging":"yes","recycling:plastic":"yes","recycling:plastic_bags":"yes","recycling:plastic_bottles":"yes","recycling:plastic_packaging":"yes","recycling_type":"container"}},"type":"Feature"},
	{"geometry":{"coordinates":[-9.130003,38.910529],"type":"Point"},"properties":{"osm_id":"8264704338","tag":{"amenity":"waste_disposal","operator":"SIMAR","operator:type":"government","waste":"trash"}},"type":"Feature"},
	{"geometry":{"coordinates":[-9.117169,38.901306],"type":"Point"},"properties":{"osm_id":"8268587815","tag":{"amenity":"recycling","operator":"SIMAR","operator:type":"government","recycling:PET":"yes","recycling:beverage_cartons":"yes","recycling:cans":"yes","recycling:cardboard":"yes","recycling:cartons":"yes","recycling:glass":"yes","recycling:glass_bottles":"yes","recycling:magazines":"yes","recycling:newspaper":"yes","recycling:paper":"yes","recycling:paper_packaging":"yes","recycling:plastic":"yes","recycling:plastic_bags":"yes","recycling:plastic_bottles":"yes","recycling:plastic_packaging":"yes","recycling_type":"container"}},"type":"Feature"},
	{"geometry":{"coordinates":[-9.117159,38.901327],"type":"Point"},"properties":{"osm_id":"8268587816","tag":{"amenity":"recycling","operator":"H Sarah Trading","operator:type":"private","phone":"+351 238 978 109;+351 966 520 940","recycling:clothes":"yes","recycling:shoes":"yes","recycling:textiles":"yes","recycling:toys":"yes","recycling_type":"container"}},"type":"Feature"},
	{"geometry":{"coordinates":[-9.11719,38.901305],"type":"Point"},"properties":{"osm_id":"8268625617","tag":{"amenity":"waste_disposal","operator":"SIMAR","operator:type":"government","waste":"trash"}},"type":"Feature"},
	{"geometry":{"coordinates":[-9.117474,38.901111],"type":"Point"},"properties":{"osm_id":"8268625618","tag":{"amenity":"waste_basket","operator":"Freguesia de Bucelas","operator:type":"government","waste":"cigarettes;trash"}},"type":"Feature"},
	{"geometry":{"coordinates":[-9.139964,38.920983],"type":"Point"},"properties":{"osm_id":"8362972015","tag":{"amenity":"recycling","operator":"H Sarah Trading","operator:type":"private","recycling:clothes":"yes","recycling:shoes":"yes","recycling:textiles":"yes","recycling:toys":"yes","recycling_type":"container"}},"type":"Feature"},
	{"geometry":{"coordinates":[-9.140024,38.921016],"type":"Point"},"properties":{"osm_id":"8362972016","tag":{"amenity":"recycling","operator":"SIMAR","operator:type":"government","recycling:PET":"yes","recycling:beverage_cartons":"yes","recycling:cans":"yes","recycling:cardboard":"yes","recycling:cartons":"yes","recycling:glass":"yes","recycling:glass_bottles":"yes","recycling:magazines":"yes","recycling:newspaper":"yes","recycling:paper":"yes","recycling:paper_packaging":"yes","recycling:plastic":"yes","recycling:plastic_bags":"yes","recycling:plastic_bottles":"yes","recycling:plastic_packaging":"yes","recycling_type":"container"}},"type":"Feature"},
	{"geometry":{"coordinates":[-9.139991,38.920996],"type":"Point"},"properties":{"osm_id":"8362972017","tag":{"amenity":"waste_disposal","operator":"SIMAR","operator:type":"government","waste":"trash"}},"type":"Feature"},
	{"geometry":{"coordinates":[-9.140382,38.921371],"type":"Point"},"properties":{"osm_id":"8362972018","tag":{"amenity":"waste_disposal","operator":"SIMAR","operator:type":"government","waste":"trash"}},"type":"Feature"},
	{"geometry":{"coordinates":[-9.128362,38.910239],"type":"Point"},"properties":{"osm_id":"8633675992","tag":{"amenity":"waste_disposal","operator":"SIMAR","operator:type":"government","waste":"trash"}},"type":"Feature"}
]
}
