{
"type": "FeatureCollection",
"features": [
	{"geometry":{"coordinates":[-9.121666,38.789929],"type":"Point"},"properties":{"osm_id":"1538899392","tag":{"amenity":"recycling"}},"type":"Feature"},
	{"geometry":{"coordinates":[-9.123245,38.790093],"type":"Point"},"properties":{"osm_id":"1588881172","tag":{"amenity":"recycling","mapillary":"vuuiRS7Ons258cej69nucg","recycling_type":"container","survey:date":"2017-10-24"}},"type":"Feature"},
	{"geometry":{"coordinates":[-9.124466,38.790229],"type":"Point"},"properties":{"osm_id":"1588881344","tag":{"amenity":"recycling"}},"type":"Feature"},
	{"geometry":{"coordinates":[-9.122518,38.792088],"type":"Point"},"properties":{"osm_id":"1588889200","tag":{"amenity":"recycling"}},"type":"Feature"},
	{"geometry":{"coordinates":[-9.119477,38.793175],"type":"Point"},"properties":{"osm_id":"1588889202","tag":{"amenity":"recycling"}},"type":"Feature"},
	{"geometry":{"coordinates":[-9.120668,38.793367],"type":"Point"},"properties":{"osm_id":"1588889224","tag":{"amenity":"recycling"}},"type":"Feature"},
	{"geometry":{"coordinates":[-9.121649,38.792556],"type":"Point"},"properties":{"osm_id":"1588889229","tag":{"amenity":"recycling"}},"type":"Feature"},
	{"geometry":{"coordinates":[-9.119123,38.794245],"type":"Point"},"properties":{"osm_id":"1588889236","tag":{"amenity":"recycling"}},"type":"Feature"},
	{"geometry":{"coordinates":[-9.119568,38.792251],"type":"Point"},"properties":{"osm_id":"1588889238","tag":{"amenity":"recycling"}},"type":"Feature"},
	{"geometry":{"coordinates":[-9.124483,38.791078],"type":"Point"},"properties":{"osm_id":"1588889240","tag":{"amenity":"recycling"}},"type":"Feature"},
	{"geometry":{"coordinates":[-9.12026,38.792539],"type":"Point"},"properties":{"osm_id":"1588889255","tag":{"amenity":"recycling"}},"type":"Feature"},
	{"geometry":{"coordinates":[-9.12077,38.79192],"type":"Point"},"properties":{"osm_id":"1588899244","tag":{"amenity":"recycling"}},"type":"Feature"},
	{"geometry":{"coordinates":[-9.122036,38.790541],"type":"Point"},"properties":{"osm_id":"1588924910","tag":{"amenity":"recycling"}},"type":"Feature"},
	{"geometry":{"coordinates":[-9.122878,38.789886],"type":"Point"},"properties":{"osm_id":"1588924939","tag":{"amenity":"recycling"}},"type":"Feature"},
	{"geometry":{"coordinates":[-9.126038,38.769491],"type":"Point"},"properties":{"highway":"crossing","osm_id":"1802158745","tag":{"crossing":"uncontrolled","crossing_ref":"zebra"}},"type":"Feature"},
	{"geometry":{"coordinates":[-9.099663,38.777313],"type":"Point"},"properties":{"osm_id":"1864139518","tag":{"amenity":"recycling","recycling:cans":"yes","recycling:cartons":"yes","recycling:glass":"yes","recycling:paper":"yes","recycling:plastic":"yes","recycling:waste":"yes","recycling_type":"container"}},"type":"Feature"},
	{"geometry":{"coordinates":[-9.11278,38.754188],"type":"Point"},"properties":{"osm_id":"2302738228","tag":{"amenity":"recycling"}},"type":"Feature"},
	{"geometry":{"coordinates":[-9.112893,38.75446],"type":"Point"},"properties":{"osm_id":"2302738512","tag":{"amenity":"recycling"}},"type":"Feature"},
	{"geometry":{"coordinates":[-9.113426,38.754096],"type":"Point"},"properties":{"osm_id":"2302738638","tag":{"amenity":"recycling"}},"type":"Feature"},
	{"geometry":{"coordinates":[-9.113343,38.754535],"type":"Point"},"properties":{"osm_id":"2302739023","tag":{"amenity":"recycling"}},"type":"Feature"},
	{"geometry":{"coordinates":[-9.130158,38.758781],"type":"Point"},"properties":{"osm_id":"2908943714","tag":{"amenity":"recycling","recycling:clothes":"no","recycling:glass":"yes"}},"type":"Feature"},
	{"geometry":{"coordinates":[-9.118432,38.764229],"type":"Point"},"properties":{"osm_id":"3003098333","tag":{"amenity":"recycling","recycling:clothes":"yes","recycling_type":"container"}},"type":"Feature"},
	{"geometry":{"coordinates":[-9.114455,38.763017],"type":"Point"},"properties":{"osm_id":"3003706933","tag":{"amenity":"recycling","recycling:glass":"yes","recycling_type":"container"}},"type":"Feature"},
	{"geometry":{"coordinates":[-9.114544,38.761782],"type":"Point"},"properties":{"name":"Ecoilha Subterr\u00c3\u00a2nea","osm_id":"3003706938","tag":{"addr:street":"Rua Cidade Bolama","alt_name":"Ecoponto;Ponto de Reciclagem","amenity":"recycling","description":"Spacio Shopping - Porta de entrada","location":"underground","opening_hours":"24/7","operator":"C\u00c3\u00a2mara Municipal de Lisboa","recycling:batteries":"yes","recycling:cans":"yes","recycling:clothes":"yes","recycling:glass":"yes","recycling:paper":"yes","recycling:scrap_metal":"yes","recycling_type":"container","source:pkey":"8cbad7c1-3b17-48c1-a0e0-99528fbbc859"}},"type":"Feature"},
	{"geometry":{"coordinates":[-9.117419,38.762463],"type":"Point"},"properties":{"osm_id":"3015144333","tag":{"amenity":"recycling","recycling:batteries":"yes","recycling:glass":"yes"}},"type":"Feature"},
	{"geometry":{"coordinates":[-9.10202,38.777477],"type":"Point"},"properties":{"osm_id":"3617261225","tag":{"amenity":"recycling"}},"type":"Feature"},
	{"geometry":{"coordinates":[-9.101124,38.779573],"type":"Point"},"properties":{"osm_id":"3617262216","tag":{"amenity":"recycling"}},"type":"Feature"},
	{"geometry":{"coordinates":[-9.102696,38.779619],"type":"Point"},"properties":{"osm_id":"3617263127","tag":{"amenity":"recycling"}},"type":"Feature"},
	{"geometry":{"coordinates":[-9.121534,38.791768],"type":"Point"},"properties":{"osm_id":"4466223023","tag":{"amenity":"recycling"}},"type":"Feature"},
	{"geometry":{"coordinates":[-9.122016,38.791237],"type":"Point"},"properties":{"osm_id":"4466223025","tag":{"amenity":"recycling"}},"type":"Feature"},
	{"geometry":{"coordinates":[-9.122843,38.791355],"type":"Point"},"properties":{"osm_id":"4466223026","tag":{"amenity":"waste_basket"}},"type":"Feature"},
	{"geometry":{"coordinates":[-9.122003,38.792008],"type":"Point"},"properties":{"osm_id":"4466223028","tag":{"amenity":"recycling"}},"type":"Feature"},
	{"geometry":{"coordinates":[-9.094072,38.788911],"type":"Point"},"properties":{"osm_id":"4486471389","tag":{"amenity":"recycling"}},"type":"Feature"},
	{"geometry":{"coordinates":[-9.13869,38.754569],"type":"Point"},"properties":{"name":"Ecoilha Subterr\u00c3\u00a2nea","osm_id":"5468972542","tag":{"addr:street":"Largo Frei Heitor Pinto","alt_name":"Ecoponto;Ponto de Reciclagem","amenity":"recycling","description":"Crzt Av Rio de Janeiro","location":"underground","opening_hours":"24/7","operator":"C\u00c3\u00a2mara Municipal de Lisboa","recycling_type":"container","source:pkey":"d60609cb-8537-4ac1-8cee-69bb44a14f45"}},"type":"Feature"},
	{"geometry":{"coordinates":[-9.096298,38.820623],"type":"Point"},"properties":{"osm_id":"5802511309","tag":{"amenity":"waste_basket"}},"type":"Feature"},
	{"geometry":{"coordinates":[-9.096281,38.820643],"type":"Point"},"properties":{"osm_id":"5802511310","tag":{"amenity":"waste_basket"}},"type":"Feature"},
	{"geometry":{"coordinates":[-9.097108,38.820313],"type":"Point"},"properties":{"osm_id":"5802511311","tag":{"addr:city":"S\u00c3\u00a3o Jo\u00c3\u00a3o da Talha","addr:postcode":"2695-611","addr:street":"Rua Jo\u00c3\u00a3o Nunes Resende","amenity":"waste_basket"}},"type":"Feature"},
	{"geometry":{"coordinates":[-9.123079,38.792536],"type":"Point"},"properties":{"osm_id":"7528731034","tag":{"amenity":"recycling","recycling_type":"container"}},"type":"Feature"}
]
}
