{
"type": "FeatureCollection",
"features": [
	{"geometry":{"coordinates":[-9.131988,38.711154],"type":"Point"},"properties":{"osm_id":"726754428","tag":{"amenity":"recycling","recycling:batteries":"yes","recycling:cans":"yes","recycling:clothes":"no","recycling:glass":"yes","recycling:paper":"yes"}},"type":"Feature"},
	{"geometry":{"coordinates":[-9.135549,38.711618],"type":"Point"},"properties":{"osm_id":"726784486","tag":{"amenity":"recycling","recycling:glass":"yes","recycling:paper":"yes"}},"type":"Feature"},
	{"geometry":{"coordinates":[-9.136579,38.745466],"type":"Point"},"properties":{"osm_id":"1917170288","tag":{"amenity":"recycling","image":"https://storage8.openstreetcam.org/files/photo/2018/6/20/lth/1252895_bd8d5_5b2a4b1e2fdaf.jpg","recycling_type":"container","survey:date":"2018-06-20"}},"type":"Feature"},
	{"geometry":{"coordinates":[-9.128029,38.71104],"type":"Point"},"properties":{"osm_id":"1975518999","tag":{"amenity":"recycling","recycling_type":"container"}},"type":"Feature"},
	{"geometry":{"coordinates":[-9.130733,38.72769],"type":"Point"},"properties":{"osm_id":"1983649964","tag":{"amenity":"recycling","location":"overground","recycling:glass_bottles":"yes","recycling:paper":"yes","recycling:plastic":"yes","recycling_type":"container"}},"type":"Feature"},
	{"geometry":{"coordinates":[-9.128996,38.730057],"type":"Point"},"properties":{"osm_id":"1983650221","tag":{"amenity":"recycling","recycling_type":"container"}},"type":"Feature"},
	{"geometry":{"coordinates":[-9.128023,38.729294],"type":"Point"},"properties":{"osm_id":"1983650658","tag":{"amenity":"recycling","recycling_type":"container"}},"type":"Feature"},
	{"geometry":{"coordinates":[-9.12848,38.730192],"type":"Point"},"properties":{"osm_id":"1983650661","tag":{"amenity":"recycling","recycling_type":"container"}},"type":"Feature"},
	{"geometry":{"coordinates":[-9.117298,38.718641],"type":"Point"},"properties":{"osm_id":"2445932876","tag":{"amenity":"recycling"}},"type":"Feature"},
	{"geometry":{"coordinates":[-9.123362,38.713526],"type":"Point"},"properties":{"osm_id":"2446054053","tag":{"amenity":"waste_basket"}},"type":"Feature"},
	{"geometry":{"coordinates":[-9.120094,38.717118],"type":"Point"},"properties":{"osm_id":"2446054108","tag":{"amenity":"waste_basket"}},"type":"Feature"},
	{"geometry":{"coordinates":[-9.120547,38.71667],"type":"Point"},"properties":{"osm_id":"2473541861","tag":{"amenity":"waste_basket"}},"type":"Feature"},
	{"geometry":{"coordinates":[-9.120688,38.71686],"type":"Point"},"properties":{"osm_id":"2473541879","tag":{"amenity":"recycling","location":"overground","recycling:glass":"yes","recycling:paper":"yes","recycling:plastic":"yes","recycling_type":"container"}},"type":"Feature"},
	{"geometry":{"coordinates":[-9.119412,38.71757],"type":"Point"},"properties":{"osm_id":"2473541920","tag":{"amenity":"recycling","recycling:glass":"yes"}},"type":"Feature"},
	{"geometry":{"coordinates":[-9.118039,38.719452],"type":"Point"},"properties":{"osm_id":"2473541940","tag":{"amenity":"recycling","location":"overground","recycling:glass":"yes","recycling_type":"container"}},"type":"Feature"},
	{"geometry":{"coordinates":[-9.138574,38.736653],"type":"Point"},"properties":{"osm_id":"2475211315","tag":{"amenity":"waste_basket"}},"type":"Feature"},
	{"geometry":{"coordinates":[-9.138603,38.736903],"type":"Point"},"properties":{"osm_id":"2475211327","tag":{"amenity":"waste_basket"}},"type":"Feature"},
	{"geometry":{"coordinates":[-9.127204,38.710945],"type":"Point"},"properties":{"osm_id":"2502863404","tag":{"amenity":"waste_basket"}},"type":"Feature"},
	{"geometry":{"coordinates":[-9.122409,38.725708],"type":"Point"},"properties":{"osm_id":"2528548746","tag":{"amenity":"waste_basket"}},"type":"Feature"},
	{"geometry":{"coordinates":[-9.122497,38.725864],"type":"Point"},"properties":{"osm_id":"2529503534","tag":{"amenity":"recycling"}},"type":"Feature"},
	{"geometry":{"coordinates":[-9.116311,38.724403],"type":"Point"},"properties":{"osm_id":"2622506651","tag":{"amenity":"recycling","mapillary":"YxVeQ4sNSrPldKJudGbZUQ","recycling_type":"container","survey:date":"2019-10-25"}},"type":"Feature"},
	{"geometry":{"coordinates":[-9.124492,38.718491],"type":"Point"},"properties":{"osm_id":"2899466182","tag":{"amenity":"waste_basket"}},"type":"Feature"},
	{"geometry":{"coordinates":[-9.127714,38.718869],"type":"Point"},"properties":{"osm_id":"2908623655","tag":{"amenity":"recycling","location":"overground","recycling:clothes":"no","recycling:glass":"yes","recycling:paper":"yes","recycling_type":"container"}},"type":"Feature"},
	{"geometry":{"coordinates":[-9.130605,38.716232],"type":"Point"},"properties":{"osm_id":"2908623661","tag":{"amenity":"recycling","location":"overground","recycling:cans":"no","recycling:clothes":"yes","recycling:glass":"no","recycling:paper":"no","recycling_type":"container"}},"type":"Feature"},
	{"geometry":{"coordinates":[-9.1307,38.716073],"type":"Point"},"properties":{"osm_id":"2908623662","tag":{"amenity":"recycling","recycling:clothes":"no","recycling:glass":"yes","recycling:paper":"yes"}},"type":"Feature"},
	{"geometry":{"coordinates":[-9.124142,38.714997],"type":"Point"},"properties":{"osm_id":"2908623664","tag":{"amenity":"recycling","recycling:glass":"yes","recycling:paper":"yes"}},"type":"Feature"},
	{"geometry":{"coordinates":[-9.126697,38.721103],"type":"Point"},"properties":{"osm_id":"3579501809","tag":{"amenity":"recycling","location":"overground","recycling_type":"container"}},"type":"Feature"},
	{"geometry":{"coordinates":[-9.128939,38.730984],"type":"Point"},"properties":{"osm_id":"3812373249","tag":{"amenity":"recycling","recycling:cans":"yes","recycling:clothes":"no","recycling:glass":"yes","recycling:glass_bottles":"yes","recycling:paper":"yes","recycling:plastic":"yes","recycling_type":"container"}},"type":"Feature"},
	{"geometry":{"coordinates":[-9.138823,38.716149],"type":"Point"},"properties":{"osm_id":"4300231260","tag":{"amenity":"waste_basket"}},"type":"Feature"},
	{"geometry":{"coordinates":[-9.133282,38.716224],"type":"Point"},"properties":{"osm_id":"4300231262","tag":{"amenity":"recycling","recycling_type":"container"}},"type":"Feature"},
	{"geometry":{"coordinates":[-9.133381,38.716286],"type":"Point"},"properties":{"osm_id":"4300231263","tag":{"amenity":"waste_basket"}},"type":"Feature"},
	{"geometry":{"coordinates":[-9.137415,38.716569],"type":"Point"},"properties":{"osm_id":"4300231267","tag":{"amenity":"waste_basket"}},"type":"Feature"},
	{"geometry":{"coordinates":[-9.135058,38.716637],"type":"Point"},"properties":{"osm_id":"4300231269","tag":{"amenity":"waste_basket"}},"type":"Feature"},
	{"geometry":{"coordinates":[-9.138892,38.716913],"type":"Point"},"properties":{"osm_id":"4300231272","tag":{"amenity":"waste_basket"}},"type":"Feature"},
	{"geometry":{"coordinates":[-9.135683,38.717015],"type":"Point"},"properties":{"osm_id":"4300231274","tag":{"amenity":"recycling","recycling_type":"container"}},"type":"Feature"},
	{"geometry":{"coordinates":[-9.135726,38.71703],"type":"Point"},"properties":{"osm_id":"4300231275","tag":{"amenity":"waste_basket"}},"type":"Feature"},
	{"geometry":{"coordinates":[-9.136061,38.717156],"type":"Point"},"properties":{"osm_id":"4300231277","tag":{"amenity":"waste_basket"}},"type":"Feature"},
	{"geometry":{"coordinates":[-9.129592,38.720243],"type":"Point"},"properties":{"osm_id":"4518277160","tag":{"amenity":"recycling","recycling:cans":"yes","recycling:glass_bottles":"yes","recycling:paper":"yes","recycling:plastic":"yes","recycling_type":"container"}},"type":"Feature"},
	{"geometry":{"coordinates":[-9.133794,38.726385],"type":"Point"},"properties":{"osm_id":"4703839350","tag":{"amenity":"recycling","recycling_type":"container"}},"type":"Feature"},
	{"geometry":{"coordinates":[-9.137043,38.730559],"type":"Point"},"properties":{"osm_id":"4768765165","tag":{"amenity":"waste_basket"}},"type":"Feature"},
	{"geometry":{"coordinates":[-9.136848,38.730515],"type":"Point"},"properties":{"osm_id":"4768765166","tag":{"amenity":"waste_basket"}},"type":"Feature"},
	{"geometry":{"coordinates":[-9.136823,38.731441],"type":"Point"},"properties":{"osm_id":"4768765167","tag":{"amenity":"waste_basket"}},"type":"Feature"},
	{"geometry":{"coordinates":[-9.137382,38.730723],"type":"Point"},"properties":{"osm_id":"4769444900","tag":{"amenity":"waste_basket"}},"type":"Feature"},
	{"geometry":{"coordinates":[-9.137498,38.731059],"type":"Point"},"properties":{"osm_id":"4769446766","tag":{"amenity":"waste_basket"}},"type":"Feature"},
	{"geometry":{"coordinates":[-9.137438,38.730971],"type":"Point"},"properties":{"osm_id":"4772760003","tag":{"amenity":"waste_basket"}},"type":"Feature"},
	{"geometry":{"coordinates":[-9.137543,38.73129],"type":"Point"},"properties":{"osm_id":"4772760699","tag":{"amenity":"waste_basket"}},"type":"Feature"},
	{"geometry":{"coordinates":[-9.1375,38.729382],"type":"Point"},"properties":{"osm_id":"4781652135","tag":{"amenity":"waste_basket"}},"type":"Feature"},
	{"geometry":{"coordinates":[-9.134301,38.731885],"type":"Point"},"properties":{"osm_id":"4824118714","tag":{"amenity":"waste_basket"}},"type":"Feature"},
	{"geometry":{"coordinates":[-9.134268,38.732065],"type":"Point"},"properties":{"osm_id":"4824120234","tag":{"amenity":"waste_basket"}},"type":"Feature"},
	{"geometry":{"coordinates":[-9.12879,38.722468],"type":"Point"},"properties":{"osm_id":"4895135925","tag":{"amenity":"recycling"}},"type":"Feature"},
	{"geometry":{"coordinates":[-9.138502,38.74342],"type":"Point"},"properties":{"name":"Ecoilha Subterr\u00c3\u00a2nea","osm_id":"5268179413","tag":{"addr:street":"Avenida Roma","alt_name":"Ecoponto;Ponto de Reciclagem","amenity":"recycling","description":"Forum Lisboa","location":"underground","opening_hours":"24/7","operator":"C\u00c3\u00a2mara Municipal de Lisboa","recycling_type":"container","source:pkey":"9a733302-5169-4165-91b8-618f46e1aa68"}},"type":"Feature"},
	{"geometry":{"coordinates":[-9.135651,38.724932],"type":"Point"},"properties":{"name":"Ecoilha Subterr\u00c3\u00a2nea","osm_id":"5268179414","tag":{"addr:street":"Rua Alvaro Coutinho","alt_name":"Ecoponto;Ponto de Reciclagem","amenity":"recycling","description":"Junto ao 46","location":"underground","opening_hours":"24/7","operator":"C\u00c3\u00a2mara Municipal de Lisboa","recycling:cans":"yes","recycling:glass_bottles":"yes","recycling:green_waste":"yes","recycling:paper":"yes","recycling:plastic":"yes","recycling:scrap_metal":"yes","recycling_type":"container","source:pkey":"97bc2685-f2b5-4c33-931e-a53eb84ad57b"}},"type":"Feature"},
	{"geometry":{"coordinates":[-9.127361,38.73516],"type":"Point"},"properties":{"osm_id":"5268194169","tag":{"amenity":"recycling","recycling_type":"container"}},"type":"Feature"},
	{"geometry":{"coordinates":[-9.127689,38.736483],"type":"Point"},"properties":{"osm_id":"5268194170","tag":{"amenity":"recycling","recycling_type":"container"}},"type":"Feature"},
	{"geometry":{"coordinates":[-9.123459,38.739263],"type":"Point"},"properties":{"osm_id":"5268209896","tag":{"amenity":"recycling","recycling_type":"container"}},"type":"Feature"},
	{"geometry":{"coordinates":[-9.121891,38.73897],"type":"Point"},"properties":{"osm_id":"5268212523","tag":{"amenity":"recycling","recycling_type":"container"}},"type":"Feature"},
	{"geometry":{"coordinates":[-9.128864,38.727887],"type":"Point"},"properties":{"osm_id":"5268369774","tag":{"amenity":"recycling","recycling_type":"container"}},"type":"Feature"},
	{"geometry":{"coordinates":[-9.128251,38.728197],"type":"Point"},"properties":{"osm_id":"5268369775","tag":{"amenity":"recycling","recycling_type":"container"}},"type":"Feature"},
	{"geometry":{"coordinates":[-9.126501,38.731195],"type":"Point"},"properties":{"osm_id":"5268369776","tag":{"amenity":"recycling","recycling_type":"container"}},"type":"Feature"},
	{"geometry":{"coordinates":[-9.12885,38.729205],"type":"Point"},"properties":{"osm_id":"5268369777","tag":{"amenity":"recycling","recycling_type":"container"}},"type":"Feature"},
	{"geometry":{"coordinates":[-9.127769,38.730865],"type":"Point"},"properties":{"name":"Ecoilha Subterr\u00c3\u00a2nea","osm_id":"5268369778","tag":{"addr:street":"Praca Paiva Couceiro","alt_name":"Ecoponto;Ponto de Reciclagem","amenity":"recycling","description":"Em Frente Av. General Ro\u00c3\u00a7adas","location":"underground","opening_hours":"24/7","operator":"C\u00c3\u00a2mara Municipal de Lisboa","recycling_type":"container","source:pkey":"15f77289-8ba0-4e70-ac62-db69af49c0ce"}},"type":"Feature"},
	{"geometry":{"coordinates":[-9.128974,38.735541],"type":"Point"},"properties":{"osm_id":"5268369779","tag":{"amenity":"recycling","recycling_type":"container"}},"type":"Feature"},
	{"geometry":{"coordinates":[-9.125198,38.736933],"type":"Point"},"properties":{"osm_id":"5268369780","tag":{"amenity":"recycling","recycling_type":"container"}},"type":"Feature"},
	{"geometry":{"coordinates":[-9.121046,38.73941],"type":"Point"},"properties":{"osm_id":"5268369781","tag":{"amenity":"recycling","recycling_type":"container"}},"type":"Feature"},
	{"geometry":{"coordinates":[-9.129818,38.717689],"type":"Point"},"properties":{"name":"Ecoilha Subterr\u00c3\u00a2nea","osm_id":"5468970903","tag":{"addr:street":"Largo Graca","alt_name":"Ecoponto;Ponto de Reciclagem","amenity":"recycling","description":"Frt 30","location":"underground","opening_hours":"24/7","operator":"C\u00c3\u00a2mara Municipal de Lisboa","recycling:cans":"yes","recycling:glass_bottles":"yes","recycling:green_waste":"yes","recycling:paper":"yes","recycling:plastic":"yes","recycling_type":"container","source:pkey":"311e24a2-8ebb-4802-865f-18d45183c8f1"}},"type":"Feature"},
	{"geometry":{"coordinates":[-9.130425,38.716657],"type":"Point"},"properties":{"name":"Ecoilha Subterr\u00c3\u00a2nea","osm_id":"5468970904","tag":{"addr:street":"Largo Graca","alt_name":"Ecoponto;Ponto de Reciclagem","amenity":"recycling","description":"fte Igreja","location":"underground","opening_hours":"24/7","operator":"C\u00c3\u00a2mara Municipal de Lisboa","recycling_type":"container","source:pkey":"f0f404a1-ce16-4bd6-bdba-33de488b75eb"}},"type":"Feature"},
	{"geometry":{"coordinates":[-9.133505,38.731377],"type":"Point"},"properties":{"name":"Ecoilha Subterr\u00c3\u00a2nea","osm_id":"5468970917","tag":{"addr:street":"Praca Olegario Mariano","alt_name":"Ecoponto;Ponto de Reciclagem","amenity":"recycling","location":"underground","opening_hours":"24/7","operator":"C\u00c3\u00a2mara Municipal de Lisboa","recycling_type":"container","source:pkey":"90989a42-9eca-4f68-87fa-76b66f49ad24"}},"type":"Feature"},
	{"geometry":{"coordinates":[-9.135537,38.729504],"type":"Point"},"properties":{"name":"Ecoilha Subterr\u00c3\u00a2nea","osm_id":"5468970919","tag":{"addr:street":"Rua Antonio Pedro","alt_name":"Ecoponto;Ponto de Reciclagem","amenity":"recycling","description":"Junto ao 41","location":"underground","opening_hours":"24/7","operator":"C\u00c3\u00a2mara Municipal de Lisboa","recycling:cans":"yes","recycling:glass_bottles":"yes","recycling:green_waste":"yes","recycling:paper":"yes","recycling:plastic":"yes","recycling:scrap_metal":"yes","recycling_type":"container","source:pkey":"2cb0164c-526a-4461-9f49-ea0983c4d6d3"}},"type":"Feature"},
	{"geometry":{"coordinates":[-9.135379,38.733],"type":"Point"},"properties":{"name":"Ecoilha Subterr\u00c3\u00a2nea","osm_id":"5468970920","tag":{"addr:street":"Rua Jose Falcao","alt_name":"Ecoponto;Ponto de Reciclagem","amenity":"recycling","location":"underground","opening_hours":"24/7","operator":"C\u00c3\u00a2mara Municipal de Lisboa","recycling_type":"container","source:pkey":"38d62116-97ec-42fb-8763-f9a843a64162"}},"type":"Feature"},
	{"geometry":{"coordinates":[-9.137003,38.731013],"type":"Point"},"properties":{"name":"Ecoilha Subterr\u00c3\u00a2nea","osm_id":"5468972523","tag":{"addr:street":"Rua Passos Manuel","alt_name":"Ecoponto;Ponto de Reciclagem","amenity":"recycling","location":"underground","opening_hours":"24/7","operator":"C\u00c3\u00a2mara Municipal de Lisboa","recycling_type":"container","source:pkey":"cce2dc1f-e284-41bc-b000-3f7694037963"}},"type":"Feature"},
	{"geometry":{"coordinates":[-9.140074,38.735017],"type":"Point"},"properties":{"name":"Ecoilha Subterr\u00c3\u00a2nea","osm_id":"5468972526","tag":{"addr:street":"Rua Visconde Santarem","alt_name":"Ecoponto;Ponto de Reciclagem","amenity":"recycling","description":"ft 75 cruz. Rua Rovisco Pais","location":"underground","opening_hours":"24/7","operator":"C\u00c3\u00a2mara Municipal de Lisboa","recycling_type":"container","source:pkey":"ebc0987b-6366-42fc-beea-0dda613e9cb7"}},"type":"Feature"},
	{"geometry":{"coordinates":[-9.13931,38.712967],"type":"Point"},"properties":{"name":"Ecoilha Subterr\u00c3\u00a2nea","osm_id":"5468972528","tag":{"addr:street":"Praca Dom Pedro IV","alt_name":"Ecoponto;Ponto de Reciclagem","amenity":"recycling","description":"Crzt Rua do Ouro","location":"underground","opening_hours":"24/7","operator":"C\u00c3\u00a2mara Municipal de Lisboa","recycling_type":"container","source:pkey":"433301ce-6381-4f14-8273-29201476e65b"}},"type":"Feature"},
	{"geometry":{"coordinates":[-9.13447,38.737627],"type":"Point"},"properties":{"name":"Ecoilha Subterr\u00c3\u00a2nea","osm_id":"5468972529","tag":{"addr:street":"Avenida Guerra Junqueiro","alt_name":"Ecoponto;Ponto de Reciclagem","amenity":"recycling","description":"Frente n\u00c2\u00ba 1","location":"underground","opening_hours":"24/7","operator":"C\u00c3\u00a2mara Municipal de Lisboa","recycling_type":"container","source:pkey":"280b0ef6-221b-445e-9cee-ef58ba683237"}},"type":"Feature"},
	{"geometry":{"coordinates":[-9.136791,38.739816],"type":"Point"},"properties":{"name":"Ecoilha Subterr\u00c3\u00a2nea","osm_id":"5468972530","tag":{"addr:street":"Avenida Guerra Junqueiro","alt_name":"Ecoponto;Ponto de Reciclagem","amenity":"recycling","description":"Crzt Pra\u00c3\u00a7a de Londres","location":"underground","opening_hours":"24/7","operator":"C\u00c3\u00a2mara Municipal de Lisboa","recycling_type":"container","source:pkey":"7c514e2b-0107-4985-93ee-2472f8d40171"}},"type":"Feature"},
	{"geometry":{"coordinates":[-9.128472,38.724774],"type":"Point"},"properties":{"name":"Ecoilha Subterr\u00c3\u00a2nea","osm_id":"5468972531","tag":{"addr:street":"Avenida General Rocadas","alt_name":"Ecoponto;Ponto de Reciclagem","amenity":"recycling","description":"Frente n.\u00c2\u00ba21","location":"underground","opening_hours":"24/7","operator":"C\u00c3\u00a2mara Municipal de Lisboa","recycling_type":"container","source:pkey":"1447a5f9-a482-4fd9-9011-eb5a6befbd17"}},"type":"Feature"},
	{"geometry":{"coordinates":[-9.133876,38.739814],"type":"Point"},"properties":{"name":"Ecoilha Subterr\u00c3\u00a2nea","osm_id":"5468972539","tag":{"addr:street":"Praca Joao Rio","alt_name":"Ecoponto;Ponto de Reciclagem","amenity":"recycling","description":"Ft 13","location":"underground","opening_hours":"24/7","operator":"C\u00c3\u00a2mara Municipal de Lisboa","recycling_type":"container","source:pkey":"6267ad40-4ad9-4a20-90c4-9360573082c8"}},"type":"Feature"},
	{"geometry":{"coordinates":[-9.140332,38.722121],"type":"Point"},"properties":{"name":"Ecoilha Subterr\u00c3\u00a2nea","osm_id":"5468972543","tag":{"addr:street":"Campo Martires Patria","alt_name":"Ecoponto;Ponto de Reciclagem","amenity":"recycling","description":"Ft 63","location":"underground","opening_hours":"24/7","operator":"C\u00c3\u00a2mara Municipal de Lisboa","recycling_type":"container","source:pkey":"a7e29442-227e-4271-bfdd-3bd1523a9d3f"}},"type":"Feature"},
	{"geometry":{"coordinates":[-9.137353,38.740928],"type":"Point"},"properties":{"name":"Ecoilha Subterr\u00c3\u00a2nea","osm_id":"5468972546","tag":{"addr:street":"Praca Londres","alt_name":"Ecoponto;Ponto de Reciclagem","amenity":"recycling","description":"Frente n\u00c2\u00ba 7","location":"underground","opening_hours":"24/7","operator":"C\u00c3\u00a2mara Municipal de Lisboa","recycling_type":"container","source:pkey":"f62bfcdc-bd02-4615-bce2-e3c02840be88"}},"type":"Feature"},
	{"geometry":{"coordinates":[-9.133334,38.733144],"type":"Point"},"properties":{"name":"Ecoilha Subterr\u00c3\u00a2nea","osm_id":"5468972547","tag":{"addr:street":"Rua Francisco Sanches","alt_name":"Ecoponto;Ponto de Reciclagem","amenity":"recycling","description":"Ft 180","location":"underground","opening_hours":"24/7","operator":"C\u00c3\u00a2mara Municipal de Lisboa","recycling_type":"container","source:pkey":"27348810-1a67-4817-a873-c983c3ca96a8"}},"type":"Feature"},
	{"geometry":{"coordinates":[-9.137162,38.734687],"type":"Point"},"properties":{"name":"Ecoilha Subterr\u00c3\u00a2nea","osm_id":"5468972555","tag":{"addr:street":"Largo Leao","alt_name":"Ecoponto;Ponto de Reciclagem","amenity":"recycling","description":"Ecoilha subterr\u00c3\u00a2nea no largo","location":"underground","opening_hours":"24/7","operator":"C\u00c3\u00a2mara Municipal de Lisboa","recycling_type":"container","source:pkey":"f4e364ec-2594-433c-af56-72063ec02f04"}},"type":"Feature"},
	{"geometry":{"coordinates":[-9.128237,38.727215],"type":"Point"},"properties":{"name":"Ecoilha Subterr\u00c3\u00a2nea","osm_id":"5468972556","tag":{"addr:street":"Avenida General Rocadas","alt_name":"Ecoponto;Ponto de Reciclagem","amenity":"recycling","description":"Czt com R Francisco Pedro Curado","location":"underground","opening_hours":"24/7","operator":"C\u00c3\u00a2mara Municipal de Lisboa","recycling_type":"container","source:pkey":"1e1b2194-92ac-4d36-b903-c3e6280873f6"}},"type":"Feature"},
	{"geometry":{"coordinates":[-9.132914,38.735537],"type":"Point"},"properties":{"name":"Ecoilha Subterr\u00c3\u00a2nea","osm_id":"5468972561","tag":{"addr:street":"Rua Angela Pinto","alt_name":"Ecoponto;Ponto de Reciclagem","amenity":"recycling","description":"Jto ao Mercado","location":"underground","opening_hours":"24/7","operator":"C\u00c3\u00a2mara Municipal de Lisboa","recycling_type":"container","source:pkey":"d03f9eb4-cd40-4d68-9b64-ccb2d5a9128a"}},"type":"Feature"},
	{"geometry":{"coordinates":[-9.131067,38.733055],"type":"Point"},"properties":{"name":"Ecoilha Subterr\u00c3\u00a2nea","osm_id":"5468972563","tag":{"addr:street":"Rua Carvalho Araujo","alt_name":"Ecoponto;Ponto de Reciclagem","amenity":"recycling","description":"Jt ao Lg Mendon\u00c3\u00a7a e Costa","location":"underground","opening_hours":"24/7","operator":"C\u00c3\u00a2mara Municipal de Lisboa","recycling_type":"container","source:pkey":"56a6d2ac-6742-470b-a503-9418da475382"}},"type":"Feature"},
	{"geometry":{"coordinates":[-9.13331,38.710048],"type":"Point"},"properties":{"name":"Ecoilha Subterr\u00c3\u00a2nea","osm_id":"5468972564","tag":{"addr:street":"Rua das Pedras Negras","alt_name":"Ecoponto;Ponto de Reciclagem","amenity":"recycling","description":"Ecoilha Subterr\u00c3\u00a2nea","location":"underground","opening_hours":"24/7","operator":"C\u00c3\u00a2mara Municipal de Lisboa","recycling_type":"container","source:pkey":"c1bd097c-d595-4b3e-84be-7a2f5955851c"}},"type":"Feature"},
	{"geometry":{"coordinates":[-9.130286,38.735593],"type":"Point"},"properties":{"name":"Ecoilha Subterr\u00c3\u00a2nea","osm_id":"5468972565","tag":{"addr:street":"Rua Actor Vale","alt_name":"Ecoponto;Ponto de Reciclagem","amenity":"recycling","description":"lado oposto ao 39-41, jt \u00c3\u00a0 escola","location":"underground","opening_hours":"24/7","operator":"C\u00c3\u00a2mara Municipal de Lisboa","recycling_type":"container","source:pkey":"90e7bd4d-b0f6-45ae-96a2-1b3590dbc3a7"}},"type":"Feature"},
	{"geometry":{"coordinates":[-9.136564,38.726501],"type":"Point"},"properties":{"name":"Ecoilha Subterr\u00c3\u00a2nea","osm_id":"5468972568","tag":{"addr:street":"Largo Santa Barbara","alt_name":"Ecoponto;Ponto de Reciclagem","amenity":"recycling","description":"lugares de estacionamento","location":"underground","opening_hours":"24/7","operator":"C\u00c3\u00a2mara Municipal de Lisboa","recycling_type":"container","source:pkey":"f8e0e189-93d1-4c64-bd2f-3a97e580175c"}},"type":"Feature"},
	{"geometry":{"coordinates":[-9.136515,38.73974],"type":"Point"},"properties":{"osm_id":"5604281825","tag":{"amenity":"recycling","location":"underground","mapillary":"AQEZD4sZRidahZD4zZJrRQ","recycling_type":"container","survey:date":"2019-11-11"}},"type":"Feature"},
	{"geometry":{"coordinates":[-9.132401,38.712508],"type":"Point"},"properties":{"osm_id":"5873885374","tag":{"amenity":"recycling","recycling:glass":"yes","recycling:glass_bottles":"yes","recycling_type":"container"}},"type":"Feature"},
	{"geometry":{"coordinates":[-9.132392,38.712509],"type":"Point"},"properties":{"osm_id":"5873885375","tag":{"amenity":"recycling","recycling:glass":"yes","recycling:glass_bottles":"yes","recycling_type":"container"}},"type":"Feature"},
	{"geometry":{"coordinates":[-9.138878,38.737085],"type":"Point"},"properties":{"osm_id":"6261712994","tag":{"amenity":"waste_basket"}},"type":"Feature"},
	{"geometry":{"coordinates":[-9.136849,38.729605],"type":"Point"},"properties":{"osm_id":"6298857725","tag":{"amenity":"recycling","recycling:glass_bottles":"yes","recycling_type":"container"}},"type":"Feature"},
	{"geometry":{"coordinates":[-9.136833,38.729848],"type":"Point"},"properties":{"osm_id":"6303667822","tag":{"amenity":"waste_basket","waste":"trash"}},"type":"Feature"},
	{"geometry":{"coordinates":[-9.136935,38.729681],"type":"Point"},"properties":{"osm_id":"6303667823","tag":{"amenity":"waste_basket","waste":"trash"}},"type":"Feature"},
	{"geometry":{"coordinates":[-9.136927,38.729249],"type":"Point"},"properties":{"osm_id":"6303671901","tag":{"amenity":"waste_basket","waste":"trash"}},"type":"Feature"},
	{"geometry":{"coordinates":[-9.133242,38.723236],"type":"Point"},"properties":{"osm_id":"6778424785","tag":{"amenity":"recycling"}},"type":"Feature"},
	{"geometry":{"coordinates":[-9.133425,38.718978],"type":"Point"},"properties":{"osm_id":"6778424786","tag":{"amenity":"recycling"}},"type":"Feature"},
	{"geometry":{"coordinates":[-9.138448,38.721244],"type":"Point"},"properties":{"name":"Ecoponto","osm_id":"6778424787","tag":{"amenity":"recycling","name:en":"Recycling bins"}},"type":"Feature"},
	{"geometry":{"coordinates":[-9.133317,38.722447],"type":"Point"},"properties":{"osm_id":"6778424885","tag":{"amenity":"recycling"}},"type":"Feature"},
	{"geometry":{"coordinates":[-9.13127,38.718211],"type":"Point"},"properties":{"osm_id":"6778424985","tag":{"amenity":"recycling","mapillary":"P6nnLQ3anAQpe2QZdkh2lQ","recycling:cans":"yes","recycling:glass_bottles":"yes","recycling:paper":"yes","recycling:plastic":"yes","recycling_type":"container","survey:date":"2019-11-10"}},"type":"Feature"}
]
}
