{
"type": "FeatureCollection",
"features": [
	{"geometry":{"coordinates":[-115.181362,36.133886],"type":"Point"},"properties":{"name":"Re-New Recycling","osm_id":"1700489577","tag":{"amenity":"recycling","recycling_type":"centre"}},"type":"Feature"},
	{"geometry":{"coordinates":[-115.154165,36.153021],"type":"Point"},"properties":{"name":"FANTASTIC DISCOUNT","osm_id":"1941755345","tag":{"amenity":"recycling"}},"type":"Feature"},
	{"geometry":{"coordinates":[-115.194709,36.144638],"type":"Point"},"properties":{"osm_id":"7147043400","tag":{"amenity":"waste_basket"}},"type":"Feature"},
	{"geometry":{"coordinates":[-115.193836,36.144241],"type":"Point"},"properties":{"osm_id":"7147047889","tag":{"amenity":"waste_basket"}},"type":"Feature"},
	{"geometry":{"coordinates":[-115.223891,36.116771],"type":"Point"},"properties":{"osm_id":"7221709557","tag":{"amenity":"waste_disposal"}},"type":"Feature"},
	{"geometry":{"coordinates":[-115.218633,36.115402],"type":"Point"},"properties":{"osm_id":"7221709569","tag":{"amenity":"waste_disposal"}},"type":"Feature"},
	{"geometry":{"coordinates":[-115.219598,36.115342],"type":"Point"},"properties":{"osm_id":"7221709570","tag":{"amenity":"waste_disposal"}},"type":"Feature"},
	{"geometry":{"coordinates":[-115.217594,36.115558],"type":"Point"},"properties":{"osm_id":"7221709577","tag":{"amenity":"waste_disposal"}},"type":"Feature"},
	{"geometry":{"coordinates":[-115.217594,36.11553],"type":"Point"},"properties":{"osm_id":"7221709578","tag":{"amenity":"waste_disposal"}},"type":"Feature"},
	{"geometry":{"coordinates":[-115.208758,36.115909],"type":"Point"},"properties":{"osm_id":"7221719490","tag":{"amenity":"waste_disposal"}},"type":"Feature"},
	{"geometry":{"coordinates":[-115.223396,36.126311],"type":"Point"},"properties":{"osm_id":"7222029351","tag":{"amenity":"waste_disposal"}},"type":"Feature"},
	{"geometry":{"coordinates":[-115.2243,36.125071],"type":"Point"},"properties":{"osm_id":"7222029352","tag":{"amenity":"waste_disposal"}},"type":"Feature"},
	{"geometry":{"coordinates":[-115.190099,36.146819],"type":"Point"},"properties":{"osm_id":"7227014232","tag":{"amenity":"waste_disposal"}},"type":"Feature"},
	{"geometry":{"coordinates":[-115.189174,36.14676],"type":"Point"},"properties":{"osm_id":"7227014233","tag":{"amenity":"waste_disposal"}},"type":"Feature"},
	{"geometry":{"coordinates":[-115.189187,36.147275],"type":"Point"},"properties":{"osm_id":"7227014234","tag":{"amenity":"waste_disposal"}},"type":"Feature"},
	{"geometry":{"coordinates":[-115.189156,36.147279],"type":"Point"},"properties":{"osm_id":"7227014235","tag":{"amenity":"waste_disposal"}},"type":"Feature"},
	{"geometry":{"coordinates":[-115.190065,36.147346],"type":"Point"},"properties":{"osm_id":"7227014236","tag":{"amenity":"waste_disposal"}},"type":"Feature"},
	{"geometry":{"coordinates":[-115.190092,36.147346],"type":"Point"},"properties":{"osm_id":"7227014237","tag":{"amenity":"waste_disposal"}},"type":"Feature"}
]
}
