{
"type": "FeatureCollection",
"features": [
	{"geometry":{"coordinates":[31.324031,3.688466],"type":"Point"},"properties":{"name":"Matu Primary School Rubish Pit","osm_id":"5582701966","tag":{"addr:county":"Aringa","addr:district":"Yumbe","addr:parish":"Kopionga","addr:subcounty":"Kerwa","addr:village":"Baranyakuto","amenity":"waste_disposal","fee":"no","lit":"no","operator:type":"government","source:form":"Sanitation;v3.0.2","start_date":"2010-08-01","waste":"Domestic"}},"type":"Feature"},
	{"geometry":{"coordinates":[31.32438,3.687656],"type":"Point"},"properties":{"name":"Matu Primary School Rubish Pit","osm_id":"5582701968","tag":{"addr:county":"Aringa","addr:district":"Yumbe","addr:parish":"Kopionga","addr:subcounty":"Kerwa","addr:village":"Baranyakuto","amenity":"waste_disposal","fee":"no","lit":"no","operator:type":"government","source:form":"Sanitation;v3.0.2","start_date":"2014-06-01","waste":"Domestic"}},"type":"Feature"},
	{"geometry":{"coordinates":[31.323233,3.686726],"type":"Point"},"properties":{"name":"Dolobo Market Public Rubish Pit","osm_id":"5588378932","tag":{"addr:county":"Aringa","addr:district":"Yumbe","addr:parish":"Kopionga","addr:subcounty":"Kerwa","addr:village":"Dolobo","amenity":"waste_disposal","fee":"no","lit":"no","operator:type":"government","source:form":"Sanitation;v3.0.2","start_date":"2/1/2016","waste":"Domestic"}},"type":"Feature"}
]
}
