{
"type": "FeatureCollection",
"features": [
	{"geometry":{"coordinates":[31.353493,3.530055],"type":"Point"},"properties":{"osm_id":"5219435270","tag":{"addr:settlement":"Bidibidi Refugee Settlement","amenity":"waste_disposal","date":"2017/01/24","operator":"MSF","status":"operational"}},"type":"Feature"},
	{"geometry":{"coordinates":[31.353588,3.530168],"type":"Point"},"properties":{"osm_id":"5219435271","tag":{"addr:settlement":"Bidibidi Refugee Settlement","amenity":"waste_disposal","date":"2017/01/24","operator":"MSF","operator_status":"operational"}},"type":"Feature"},
	{"geometry":{"coordinates":[31.339295,3.524773],"type":"Point"},"properties":{"osm_id":"5219435273","tag":{"addr:settlement":"Bidibidi Refugee Settlement","amenity":"waste_disposal","date":"2017/01/25","operator":"private","operator_status":"under_construction"}},"type":"Feature"},
	{"geometry":{"coordinates":[31.353402,3.530007],"type":"Point"},"properties":{"osm_id":"5219435274","tag":{"addr:settlement":"Bidibidi Refugee Settlement","amenity":"waste_disposal","date":"2017/01/24","operator":"MSF","operator_status":"operational"}},"type":"Feature"},
	{"geometry":{"coordinates":[31.363538,3.52439],"type":"Point"},"properties":{"osm_id":"5219435275","tag":{"addr:settlement":"Bidibidi Refugee Settlement","amenity":"waste_disposal","date":"2017/01/24","operator":"refugee","operator_status":"operational"}},"type":"Feature"},
	{"geometry":{"coordinates":[31.3535,3.529997],"type":"Point"},"properties":{"osm_id":"5219435276","tag":{"addr:settlement":"Bidibidi Refugee Settlement","amenity":"waste_disposal","date":"2017/01/24","operator_status":"operational"}},"type":"Feature"},
	{"geometry":{"coordinates":[31.353537,3.529967],"type":"Point"},"properties":{"osm_id":"5219435277","tag":{"addr:settlement":"Bidibidi Refugee Settlement","amenity":"waste_disposal","date":"2017/01/24","operator":"MSF","operator_status":"operational"}},"type":"Feature"},
	{"geometry":{"coordinates":[31.353337,3.530105],"type":"Point"},"properties":{"osm_id":"5219435278","tag":{"addr:settlement":"Bidibidi Refugee Settlement","amenity":"waste_disposal","date":"2017/01/24","operator":"MSF","operator_status":"operational"}},"type":"Feature"},
	{"geometry":{"coordinates":[31.353502,3.530037],"type":"Point"},"properties":{"osm_id":"5219435279","tag":{"addr:settlement":"Bidibidi Refugee Settlement","amenity":"waste_disposal","date":"2017/01/24","operator":"MSF","operator_status":"operational"}},"type":"Feature"},
	{"geometry":{"coordinates":[31.35326,3.530048],"type":"Point"},"properties":{"osm_id":"5219435281","tag":{"addr:settlement":"Bidibidi Refugee Settlement","amenity":"waste_disposal","date":"2017/01/24","operator":"MSF","status":"operational"}},"type":"Feature"},
	{"geometry":{"coordinates":[31.340005,3.54963],"type":"Point"},"properties":{"name":"Alio Scrap Shop","osm_id":"5596363718","tag":{"addr:county":"Aringa","addr:district":"Yumbe","addr:parish":"Yayari","addr:subcounty":"Kochi","addr:village":"Alaba","amenity":"recycling","recycling_type":"container","source:form":"CBI;v3.0.2","start_date":"01/05/2015"}},"type":"Feature"},
	{"geometry":{"coordinates":[31.368852,3.558411],"type":"Point"},"properties":{"name":"East Koka disposable pit","osm_id":"5619643675","tag":{"addr:county":"Aringa","addr:district":"Yumbe","addr:parish":"Yayari","addr:subcounty":"Kochi","addr:village":"Koka","amenity":"waste_disposal","fee":"no","lit":"no","operator:type":"government","source:form":"Sanitation;v3.0.2","start_date":"05/01/2015","waste":"Disposable"}},"type":"Feature"}
]
}
