{
"type": "FeatureCollection",
"features": [
	{"geometry":{"coordinates":[31.32455,3.474716],"type":"Point"},"properties":{"name":"Agonga Primary School Rubbish Pit","osm_id":"5576292493","tag":{"addr:county":"Aringa","addr:district":"Yumbe","addr:parish":"Acholi","addr:subcounty":"Apo","addr:village":"Piajo","amenity":"waste_disposal","fee":"no","lit":"no","operator:type":"government","source:form":"Sanitation;v3.0.2","start_date":"2016-11-01","waste":"Rubbish"}},"type":"Feature"},
	{"geometry":{"coordinates":[31.301961,3.483358],"type":"Point"},"properties":{"name":"Anenia Rabish Pit","osm_id":"5576292502","tag":{"addr:county":"Aringa","addr:district":"Yumbe","addr:parish":"Yeta","addr:subcounty":"Apo","addr:village":"Apinika","amenity":"waste_disposal","fee":"no","lit":"no","operator:type":"community","source:form":"Sanitation;v3.0.2","start_date":"2017-03-01","waste":"Domestic disposal"}},"type":"Feature"},
	{"geometry":{"coordinates":[31.290939,3.48192],"type":"Point"},"properties":{"name":"Acholi Primary School Rabish Pit","osm_id":"5576292503","tag":{"addr:county":"Aringa","addr:district":"Yumbe","addr:parish":"Yeta","addr:subcounty":"Apo","addr:village":"Apinika","amenity":"waste_disposal","fee":"no","lit":"no","operator:type":"community","source:form":"Sanitation;v3.0.2","start_date":"2016-04-01","waste":"Domestic waste"}},"type":"Feature"},
	{"geometry":{"coordinates":[31.29033,3.466563],"type":"Point"},"properties":{"name":"Kisimunga Primary School Rubish Pit","osm_id":"5579927577","tag":{"addr:county":"Aringa","addr:district":"Yumbe","addr:parish":"Aria","addr:subcounty":"Apo","addr:village":"Kondiba","amenity":"waste_disposal","fee":"no","lit":"no","operator:type":"government","source:form":"Sanitation;v3.0.2","start_date":"2018-02-01","waste":"Domestic"}},"type":"Feature"},
	{"geometry":{"coordinates":[31.370635,3.476821],"type":"Point"},"properties":{"name":"Mellinium Drug Shop Waste Pit","osm_id":"5882032233","tag":{"addr:block":"Cluster A","addr:district":"Yumbe","addr:settlement":"Bidibidi","addr:village":"Village 04","addr:zone":"Zone 01","amenity":"waste_disposal","fee":"no","lit":"no","monitored":"yes","monitored_by":"Mellinium Drug Shop","operator:type":"community","sanitation_communities":"no","source:version":"Sanitation;v3.0.3","start_date":"2017-09-01","waste":"Medical Waste"}},"type":"Feature"},
	{"geometry":{"coordinates":[31.337323,3.489513],"type":"Point"},"properties":{"name":"Life Care Drug Shop Rubbish Pit","osm_id":"6349414571","tag":{"addr:county":"Aringa","addr:district":"Yumbe","addr:parish":"Baringa","addr:subcounty":"Romogi","addr:village":"Barakala","amenity":"waste_disposal","lit":"no","operator:type":"community","source:form":"v4.0.4","start_date":"2017-07-01","waste":"Domestic"}},"type":"Feature"},
	{"geometry":{"coordinates":[31.336103,3.490368],"type":"Point"},"properties":{"name":"Set Future Nursery School Rubbish Pit","osm_id":"6349414573","tag":{"addr:county":"Aringa","addr:district":"Yumbe","addr:parish":"Baringa","addr:subcounty":"Romogi","addr:village":"Barakala","amenity":"waste_disposal","lit":"no","operator:type":"community","source:form":"v4.0.4","start_date":"2013-07-01","waste":"Domestic"}},"type":"Feature"},
	{"geometry":{"coordinates":[31.318565,3.495073],"type":"Point"},"properties":{"name":"East Alipi Primary School Rubbish Pit","osm_id":"6349414578","tag":{"addr:county":"Aringa","addr:district":"Yumbe","addr:parish":"Baringa","addr:subcounty":"Romogi","addr:village":"Alipi","amenity":"waste_disposal","lit":"no","operator:type":"government","source:form":"v4.0.4","start_date":"2014-05-01","waste":"Domestic"}},"type":"Feature"}
]
}
