{
"type": "FeatureCollection",
"features": [
	{"geometry":{"coordinates":[31.308478,3.369505],"type":"Point"},"properties":{"osm_id":"5219435280","tag":{"addr:settlement":"Bidibidi Refugee Settlement","amenity":"waste_disposal","date":"2017/02/20","operator":"RMF","operator_status":"operational"}},"type":"Feature"},
	{"geometry":{"coordinates":[31.351405,3.400068],"type":"Point"},"properties":{"name":"Block B Market Rubbish Pit","osm_id":"5948566710","tag":{"addr:block":"Block B","addr:district":"Yumbe","addr:settlement":"Bidibidi","addr:village":"Village 02","addr:zone":"Zone 03","amenity":"waste_disposal","fee":"no","lit":"no","operator:type":"community","source_version":"Sanitation_Facilities_Form_v4.0.0","start_date":"2016-09-01","waste":"Domestic"}},"type":"Feature"},
	{"geometry":{"coordinates":[31.352076,3.36471],"type":"Point"},"properties":{"name":"Dustbin","osm_id":"6004841451","tag":{"addr:block":"Cluster 03;Village 10","addr:district":"Yumbe","addr:settlement":"Bidibidi","addr:village":"Village 10","addr:zone":"Zone 03","amenity":"waste_basket","fee":"no","lit":"no","operator":"IOM","operator:type":"ngo","source:form":"Sanitation;v3.0.3","start_date":"2018-09-01","waste":"Dustbin"}},"type":"Feature"},
	{"geometry":{"coordinates":[31.354906,3.374086],"type":"Point"},"properties":{"name":"Rubbish Pit","osm_id":"6004841456","tag":{"addr:block":"Cluster 03;Village 10","addr:district":"Yumbe","addr:settlement":"Bidibidi","addr:village":"Village 10","addr:zone":"Zone 03","amenity":"waste_disposal","fee":"no","lit":"no","operator":"World Vision","operator:type":"ngo","source:form":"Sanitation;v3.0.3","start_date":"2018-06-01","waste":"Rubbish"}},"type":"Feature"},
	{"geometry":{"coordinates":[31.305361,3.33856],"type":"Point"},"properties":{"name":"Rubbish Pit","osm_id":"6004842905","tag":{"addr:block":"Cluster 01","addr:district":"Yumbe","addr:settlement":"Bidibidi","addr:village":"Village 07","addr:zone":"Zone 05","amenity":"waste_disposal","fee":"no","lit":"no","operator":"CRS","operator:type":"ngo","source:form":"Sanitation;v3.0.3","start_date":"2017-05-01","waste":"Rubbish"}},"type":"Feature"}
]
}
