{
"type": "FeatureCollection",
"features": [
	{"geometry":{"coordinates":[31.310438,3.287555],"type":"Point"},"properties":{"osm_id":"5219435282","tag":{"addr:settlement":"Bidibidi Refugee Settlement","amenity":"waste_disposal","date":"2017/01/19","operator":"MSF","operator_status":"operational","wall":"wood"}},"type":"Feature"},
	{"geometry":{"coordinates":[31.332295,3.309688],"type":"Point"},"properties":{"name":"Okuyo Health Center II Incinerator","osm_id":"5561538280","tag":{"addr:county":"Aringa","addr:district":"Yumbe","addr:parish":"Okuyo","addr:subcounty":"Ariwa","addr:village":"Erunga","amenity":"waste_disposal","fee":"no","lit":"no","operator":"UNHCR","operator:type":"ngo","source:form":"Sanitation;v3.0.2","start_date":"2010-05-01","waste":"medical_waste"}},"type":"Feature"},
	{"geometry":{"coordinates":[31.332213,3.30956],"type":"Point"},"properties":{"name":"Okuyo Health Center II Placenta Pit","osm_id":"5561538282","tag":{"addr:county":"Aringa","addr:district":"Yumbe","addr:parish":"Okuyo","addr:subcounty":"Ariwa","addr:village":"Erunga","amenity":"waste_disposal","fee":"no","lit":"no","operator":"UNHCR","operator:type":"ngo","source:form":"Sanitation;v3.0.2","start_date":"2010-06-01","waste":"medical_waste"}},"type":"Feature"},
	{"geometry":{"coordinates":[31.313655,3.283568],"type":"Point"},"properties":{"name":"Garbage Collion Village 10","osm_id":"5948566259","tag":{"addr:block":"Bolomoni","addr:district":"Yumbe","addr:settlement":"Bidibidi","addr:village":"Village 10","addr:zone":"Zone 04","amenity":"waste_disposal","fee":"no","lit":"no","operator":"World Vision","operator:type":"ngo","source_version":"Sanitation_Facilities_Form_v4.0.0","start_date":"2018-07-01","waste":"Rubbish"}},"type":"Feature"},
	{"geometry":{"coordinates":[31.309303,3.285426],"type":"Point"},"properties":{"name":"Village 9 Waste Bin","osm_id":"5948566260","tag":{"addr:block":"Bolomoni","addr:district":"Yumbe","addr:settlement":"Bidibidi","addr:village":"Village 09","addr:zone":"Zone 04","amenity":"waste_disposal","fee":"no","lit":"no","operator":"World Vision","operator:type":"ngo","source_version":"Sanitation_Facilities_Form_v4.0.0","start_date":"2018-07-01","waste":"Waste disposal"}},"type":"Feature"},
	{"geometry":{"coordinates":[31.369186,3.251991],"type":"Point"},"properties":{"name":"Tank 183 Rubbish Pit","osm_id":"6004841435","tag":{"addr:block":"Tank 183","addr:district":"Yumbe","addr:settlement":"Bidibidi","addr:village":"Village 14","addr:zone":"Zone 05","amenity":"waste_disposal","fee":"no","lit":"no","operator":"CRS","operator:type":"ngo","source:form":"Sanitation;v3.0.3","start_date":"2017-05-01","waste":"Domestic"}},"type":"Feature"},
	{"geometry":{"coordinates":[31.368641,3.251705],"type":"Point"},"properties":{"name":"Food Distribution Point 3 Rubbish Pit","osm_id":"6004841437","tag":{"addr:block":"Tank 171","addr:district":"Yumbe","addr:settlement":"Bidibidi","addr:village":"Village 14","addr:zone":"Zone 05","amenity":"waste_disposal","fee":"no","lit":"no","operator":"WFP","operator:type":"ngo","source:form":"Sanitation;v3.0.3","start_date":"2016-09-01","waste":"Domestic"}},"type":"Feature"},
	{"geometry":{"coordinates":[31.370811,3.25025],"type":"Point"},"properties":{"name":"Tank 183 Rubbish Pit","osm_id":"6004841440","tag":{"addr:block":"Tank 183","addr:district":"Yumbe","addr:settlement":"Bidibidi","addr:village":"Village 14","addr:zone":"Zone 05","amenity":"waste_disposal","fee":"no","lit":"no","operator":"CRS","operator:type":"ngo","source:form":"Sanitation;v3.0.3","start_date":"2017-03-01","waste":"Domestic"}},"type":"Feature"},
	{"geometry":{"coordinates":[31.299231,3.331948],"type":"Point"},"properties":{"name":"Rubbish Pit","osm_id":"6004841457","tag":{"addr:block":"Cluster 03;Village 06","addr:district":"Yumbe","addr:settlement":"Bidibidi","addr:village":"Village 06","addr:zone":"Zone 05","amenity":"waste_disposal","fee":"no","lit":"no","operator":"ARC","operator:type":"ngo","source:form":"Sanitation;v3.0.3","start_date":"2018-05-01","waste":"Rubbish"}},"type":"Feature"},
	{"geometry":{"coordinates":[31.298801,3.331435],"type":"Point"},"properties":{"name":"Rubbish Pit","osm_id":"6004841458","tag":{"addr:block":"Cluster 03;Village 06","addr:district":"Yumbe","addr:settlement":"Bidibidi","addr:village":"Village 06","addr:zone":"Zone 05","amenity":"waste_basket","fee":"no","lit":"no","operator":"WFP","operator:type":"ngo","source:form":"Sanitation;v3.0.3","start_date":"2017-03-01","waste":"Dustbin"}},"type":"Feature"},
	{"geometry":{"coordinates":[31.29871,3.331311],"type":"Point"},"properties":{"name":"Rubbish Pit","osm_id":"6004841459","tag":{"addr:block":"Cluster 03;Village 06","addr:district":"Yumbe","addr:settlement":"Bidibidi","addr:village":"Village 06","addr:zone":"Zone 05","amenity":"waste_basket","fee":"no","lit":"no","operator":"WFP","operator:type":"ngo","source:form":"Sanitation;v3.0.3","start_date":"2017-03-01","waste":"Dustbin"}},"type":"Feature"},
	{"geometry":{"coordinates":[31.298736,3.331378],"type":"Point"},"properties":{"name":"Rubbish Pit","osm_id":"6004841460","tag":{"addr:block":"Cluster 03;Village 06","addr:district":"Yumbe","addr:settlement":"Bidibidi","addr:village":"Village 06","addr:zone":"Zone 05","amenity":"waste_basket","fee":"no","lit":"no","operator":"WFP","operator:type":"ngo","source:form":"Sanitation;v3.0.3","start_date":"2017-05-01","waste":"Dustbin"}},"type":"Feature"},
	{"geometry":{"coordinates":[31.298718,3.331351],"type":"Point"},"properties":{"name":"Rubbish Pit","osm_id":"6004841461","tag":{"addr:block":"Cluster 03;Village 06","addr:district":"Yumbe","addr:settlement":"Bidibidi","addr:village":"Village 06","addr:zone":"Zone 05","amenity":"waste_basket","fee":"no","lit":"no","operator":"WFP","operator:type":"ngo","source:form":"Sanitation;v3.0.3","start_date":"2017-05-01","waste":"Dustbin"}},"type":"Feature"},
	{"geometry":{"coordinates":[31.297676,3.330521],"type":"Point"},"properties":{"name":"Rubbish Pit","osm_id":"6004841463","tag":{"addr:block":"Cluster 03;Village 06","addr:district":"Yumbe","addr:settlement":"Bidibidi","addr:village":"Village 06","addr:zone":"Zone 05","amenity":"waste_disposal","fee":"no","lit":"no","operator":"CRS","operator:type":"ngo","source:form":"Sanitation;v3.0.3","start_date":"2017-11-01","waste":"Rubbish"}},"type":"Feature"},
	{"geometry":{"coordinates":[31.297466,3.330905],"type":"Point"},"properties":{"name":"Rubbish Pit","osm_id":"6004841464","tag":{"addr:block":"Cluster 03;Village 06","addr:district":"Yumbe","addr:settlement":"Bidibidi","addr:village":"Village 06","addr:zone":"Zone 05","amenity":"waste_disposal","fee":"no","lit":"no","operator":"CRS","operator:type":"ngo","source:form":"Sanitation;v3.0.3","start_date":"2017-11-01","waste":"Rubbish"}},"type":"Feature"},
	{"geometry":{"coordinates":[31.351153,3.28578],"type":"Point"},"properties":{"name":"Ombeci Market Rubbish Pit","osm_id":"6004841467","tag":{"addr:block":"Tank 169","addr:district":"Yumbe","addr:settlement":"Bidibidi","addr:village":"Village 13","addr:zone":"Zone 05","amenity":"waste_disposal","fee":"no","lit":"no","operator":"ARC","operator:type":"ngo","source:form":"Sanitation;v3.0.3","start_date":"2018-06-01","waste":"Domestic"}},"type":"Feature"},
	{"geometry":{"coordinates":[31.371643,3.258506],"type":"Point"},"properties":{"name":"Village 17 Rubbish Pit","osm_id":"6004841468","tag":{"addr:block":"Ewanati","addr:district":"Yumbe","addr:settlement":"Bidibidi","addr:village":"Village 17","addr:zone":"Zone 05","amenity":"waste_disposal","fee":"no","lit":"no","operator":"CRS","operator:type":"ngo","source:form":"Sanitation;v3.0.3","start_date":"2018-02-01","waste":"Rubbish"}},"type":"Feature"},
	{"geometry":{"coordinates":[31.376123,3.253215],"type":"Point"},"properties":{"name":"Village 18 Rubbish Pit","osm_id":"6004841469","tag":{"addr:block":"Ayivu Village 18","addr:district":"Yumbe","addr:settlement":"Bidibidi","addr:village":"Village 18","addr:zone":"Zone 05","amenity":"waste_disposal","fee":"no","lit":"no","operator":"CRS","operator:type":"ngo","source:form":"Sanitation;v3.0.3","start_date":"2017-05-01","waste":"Rubbish"}},"type":"Feature"},
	{"geometry":{"coordinates":[31.298953,3.335488],"type":"Point"},"properties":{"name":"Waste Basket","osm_id":"6004841475","tag":{"addr:block":"Tank 189","addr:district":"Yumbe","addr:settlement":"Bidibidi","addr:village":"Village 05","addr:zone":"Zone 05","amenity":"waste_basket","fee":"no","lit":"no","operator":"IRC","operator:type":"ngo","source:form":"Sanitation;v3.0.3","start_date":"2018-06-01","waste":"Polytheistic"}},"type":"Feature"},
	{"geometry":{"coordinates":[31.298568,3.334351],"type":"Point"},"properties":{"name":"Waste Bin","osm_id":"6004841477","tag":{"addr:block":"Tank 189A","addr:district":"Yumbe","addr:settlement":"Bidibidi","addr:village":"Village 05","addr:zone":"Zone 05","amenity":"waste_disposal","fee":"no","lit":"no","operator":"IRC","operator:type":"ngo","source:form":"Sanitation;v3.0.3","start_date":"2016-11-01","waste":"Convenience"}},"type":"Feature"},
	{"geometry":{"coordinates":[31.302596,3.334466],"type":"Point"},"properties":{"name":"Village 1 Rubbish Pit","osm_id":"6004842886","tag":{"addr:block":"Tank 157","addr:district":"Yumbe","addr:settlement":"Bidibidi","addr:village":"Village 01","addr:zone":"Zone 05","amenity":"waste_disposal","fee":"no","lit":"no","operator":"CRS","operator:type":"ngo","source:form":"Sanitation;v3.0.3","start_date":"2017-01-01","waste":"Domestic"}},"type":"Feature"},
	{"geometry":{"coordinates":[31.302651,3.334368],"type":"Point"},"properties":{"name":"Village 1 Rubbish Pit","osm_id":"6004842887","tag":{"addr:block":"Tank 157","addr:district":"Yumbe","addr:settlement":"Bidibidi","addr:village":"Village 01","addr:zone":"Zone 05","amenity":"waste_disposal","fee":"no","lit":"no","operator":"CRS","operator:type":"ngo","source:form":"Sanitation;v3.0.3","start_date":"2017-05-01","waste":"Domestic"}},"type":"Feature"},
	{"geometry":{"coordinates":[31.303895,3.331756],"type":"Point"},"properties":{"name":"Bright Star Rubbish Pit","osm_id":"6004842889","tag":{"addr:block":"Tank 158","addr:district":"Yumbe","addr:settlement":"Bidibidi","addr:village":"Village 02","addr:zone":"Zone 05","amenity":"waste_disposal","fee":"no","lit":"no","operator":"World Vision","operator:type":"ngo","source:form":"Sanitation;v3.0.3","start_date":"2016-12-01","waste":"Domestic"}},"type":"Feature"},
	{"geometry":{"coordinates":[31.301233,3.33143],"type":"Point"},"properties":{"name":"Tank 159 A Rubbish Pit","osm_id":"6004842896","tag":{"addr:block":"Tank 159 A","addr:district":"Yumbe","addr:settlement":"Bidibidi","addr:village":"Village 03","addr:zone":"Zone 05","amenity":"waste_disposal","fee":"no","lit":"no","operator":"CRS","operator:type":"ngo","source:form":"Sanitation;v3.0.3","start_date":"2017-11-01","waste":"Rubbish"}},"type":"Feature"},
	{"geometry":{"coordinates":[31.303938,3.328566],"type":"Point"},"properties":{"name":"Tank 139 B","osm_id":"6004842900","tag":{"addr:block":"Tank 159 B","addr:district":"Yumbe","addr:settlement":"Bidibidi","addr:village":"Village 04","addr:zone":"Zone 05","amenity":"waste_disposal","fee":"no","lit":"no","operator":"CRS","operator:type":"ngo","source:form":"Sanitation;v3.0.3","start_date":"2017-08-01","waste":"Rubbish"}},"type":"Feature"},
	{"geometry":{"coordinates":[31.303186,3.337815],"type":"Point"},"properties":{"name":"Rubbish Pit","osm_id":"6004842902","tag":{"addr:block":"Cluster 01;Village 07","addr:district":"Yumbe","addr:settlement":"Bidibidi","addr:village":"Village 07","addr:zone":"Zone 05","amenity":"waste_basket","fee":"no","lit":"no","operator":"Peace Winds Japan","operator:type":"ngo","source:form":"Sanitation;v3.0.3","start_date":"2017-12-01","waste":"Rubbish"}},"type":"Feature"},
	{"geometry":{"coordinates":[31.302708,3.337818],"type":"Point"},"properties":{"name":"Rubbish Pit","osm_id":"6004842903","tag":{"addr:block":"Cluster 01;Village 07","addr:district":"Yumbe","addr:settlement":"Bidibidi","addr:village":"Village 07","addr:zone":"Zone 05","amenity":"waste_disposal","fee":"no","lit":"no","operator":"Peace Winds Japan","operator:type":"ngo","source:form":"Sanitation;v3.0.3","start_date":"2018-05-01","waste":"Rubbish"}},"type":"Feature"}
]
}
