{
"type": "FeatureCollection",
"features": [
	{"geometry":{"coordinates":[31.295027,3.216895],"type":"Point"},"properties":{"osm_id":"5322283908","tag":{"addr:district":"Arua","addr:point":"Point D","addr:settlement":"Imvepi","addr:zone":"Zone 02","amenity":"waste_disposal","operator":"Community","waste":"general"}},"type":"Feature"},
	{"geometry":{"coordinates":[31.294777,3.216178],"type":"Point"},"properties":{"osm_id":"5322283918","tag":{"addr:district":"Arua","addr:point":"Point D","addr:settlement":"Imvepi","addr:zone":"Zone 02","amenity":"waste_disposal","operator":"Community","waste":"all_waste"}},"type":"Feature"},
	{"geometry":{"coordinates":[31.2946,3.217362],"type":"Point"},"properties":{"osm_id":"5322284583","tag":{"addr:district":"Arua","addr:point":"Point D","addr:settlement":"Imvepi","addr:zone":"Zone 02","amenity":"waste_disposal","operator":"Community","waste":"general"}},"type":"Feature"},
	{"geometry":{"coordinates":[31.367395,3.24842],"type":"Point"},"properties":{"name":"Christ The King Rubbish Pit","osm_id":"6004841429","tag":{"addr:block":"Block 02","addr:district":"Yumbe","addr:settlement":"Bidibidi","addr:village":"Village 15","addr:zone":"Zone 05","amenity":"waste_disposal","fee":"no","lit":"no","operator":"Save The Children","operator:type":"ngo","source:form":"Sanitation;v3.0.3","start_date":"2016-11-01","waste":"Domestic"}},"type":"Feature"},
	{"geometry":{"coordinates":[31.362312,3.248988],"type":"Point"},"properties":{"name":"Village 16 Rubbish Pit","osm_id":"6004841470","tag":{"addr:block":"Ayivu Tank 174","addr:district":"Yumbe","addr:settlement":"Bidibidi","addr:village":"Village 16","addr:zone":"Zone 05","amenity":"waste_disposal","fee":"no","lit":"no","operator":"Samaritan's Purse","operator:type":"ngo","source:form":"Sanitation;v3.0.3","start_date":"2017-10-01","waste":"Rubbish"}},"type":"Feature"}
]
}
