{
"type": "FeatureCollection",
"features": [
	{"geometry":{"coordinates":[-68.212616,-16.533049],"type":"Point"},"properties":{"osm_id":"5661993339","tag":{"addr:city":"El Alto","addr:street":"Jos\u00c3\u00a9 Manuel Cort\u00c3\u00a9s","natural":"tree"}},"type":"Feature"},
	{"geometry":{"coordinates":[-68.21191,-16.532662],"type":"Point"},"properties":{"osm_id":"5661993340","tag":{"addr:city":"El Alto","addr:street":"Jos\u00c3\u00a9 Manuel Cort\u00c3\u00a9s","leaf_type":"needleleaved","natural":"tree"}},"type":"Feature"},
	{"geometry":{"coordinates":[-68.211822,-16.53261],"type":"Point"},"properties":{"osm_id":"5661993341","tag":{"addr:city":"El Alto","addr:street":"Jos\u00c3\u00a9 Manuel Cort\u00c3\u00a9s","leaf_type":"needleleaved","natural":"tree"}},"type":"Feature"},
	{"geometry":{"coordinates":[-68.211787,-16.53259],"type":"Point"},"properties":{"osm_id":"5661993342","tag":{"addr:city":"El Alto","addr:street":"Jos\u00c3\u00a9 Manuel Cort\u00c3\u00a9s","leaf_type":"needleleaved","natural":"tree"}},"type":"Feature"},
	{"geometry":{"coordinates":[-68.211263,-16.532967],"type":"Point"},"properties":{"osm_id":"5661993343","tag":{"addr:city":"El Alto","addr:street":"Ignacio Bustillos","natural":"tree"}},"type":"Feature"},
	{"geometry":{"coordinates":[-68.212623,-16.532962],"type":"Point"},"properties":{"osm_id":"5661993348","tag":{"addr:city":"El Alto","addr:street":"Jos\u00c3\u00a9 Manuel Cort\u00c3\u00a9s","leaf_type":"broadleaved","natural":"tree"}},"type":"Feature"},
	{"geometry":{"coordinates":[-68.211739,-16.532414],"type":"Point"},"properties":{"osm_id":"5661993349","tag":{"addr:city":"El Alto","addr:street":"Jos\u00c3\u00a9 Manuel Cort\u00c3\u00a9s","leaf_type":"needleleaved","natural":"tree"}},"type":"Feature"},
	{"geometry":{"coordinates":[-68.21407,-16.532864],"type":"Point"},"properties":{"osm_id":"5661993362","tag":{"addr:city":"El Alto","addr:street":"Avenida Vicente Ballivi\u00c3\u00a1n","leaf_type":"needleleaved","natural":"tree"}},"type":"Feature"},
	{"geometry":{"coordinates":[-68.211438,-16.53366],"type":"Point"},"properties":{"osm_id":"5661993367","tag":{"addr:city":"El Alto","addr:street":"Virginia Estenssoro","leaf_type":"broadleaved","natural":"tree"}},"type":"Feature"},
	{"geometry":{"coordinates":[-68.213617,-16.532786],"type":"Point"},"properties":{"osm_id":"5661993375","tag":{"addr:city":"El Alto","addr:street":"Rosendo Gutierrez","leaf_type":"needleleaved","natural":"tree"}},"type":"Feature"},
	{"geometry":{"coordinates":[-68.213607,-16.532795],"type":"Point"},"properties":{"osm_id":"5661993376","tag":{"addr:city":"El Alto","addr:street":"Rosendo Gutierrez","leaf_type":"needleleaved","natural":"tree"}},"type":"Feature"},
	{"geometry":{"coordinates":[-68.213602,-16.5328],"type":"Point"},"properties":{"osm_id":"5661993377","tag":{"addr:city":"El Alto","addr:street":"Rosendo Gutierrez","leaf_type":"needleleaved","natural":"tree"}},"type":"Feature"},
	{"geometry":{"coordinates":[-68.214232,-16.532853],"type":"Point"},"properties":{"osm_id":"5661993394","tag":{"addr:city":"El Alto","addr:street":"Avenida Vicente Ballivi\u00c3\u00a1n","leaf_type":"needleleaved","natural":"tree"}},"type":"Feature"},
	{"geometry":{"coordinates":[-68.214222,-16.532863],"type":"Point"},"properties":{"osm_id":"5661993395","tag":{"addr:city":"El Alto","addr:street":"Avenida Vicente Ballivi\u00c3\u00a1n","leaf_type":"leafless","natural":"tree"}},"type":"Feature"},
	{"geometry":{"coordinates":[-68.214277,-16.532784],"type":"Point"},"properties":{"osm_id":"5661993397","tag":{"addr:city":"El Alto","addr:street":"Avenida Julio Cesar Valdez","leaf_type":"needleleaved","natural":"tree"}},"type":"Feature"},
	{"geometry":{"coordinates":[-68.211855,-16.533461],"type":"Point"},"properties":{"osm_id":"5661993401","tag":{"addr:city":"El Alto","addr:street":"Roberto Romec\u00c3\u00adn","leaf_type":"needleleaved","natural":"tree"}},"type":"Feature"},
	{"geometry":{"coordinates":[-68.209732,-16.50802],"type":"Point"},"properties":{"osm_id":"5724528131","tag":{"natural":"tree"}},"type":"Feature"},
	{"geometry":{"coordinates":[-68.20959,-16.508169],"type":"Point"},"properties":{"osm_id":"5724528132","tag":{"natural":"tree"}},"type":"Feature"},
	{"geometry":{"coordinates":[-68.209637,-16.508327],"type":"Point"},"properties":{"osm_id":"5724528133","tag":{"natural":"tree"}},"type":"Feature"},
	{"geometry":{"coordinates":[-68.209746,-16.508377],"type":"Point"},"properties":{"osm_id":"5724528134","tag":{"natural":"tree"}},"type":"Feature"},
	{"geometry":{"coordinates":[-68.209902,-16.508238],"type":"Point"},"properties":{"osm_id":"5724528135","tag":{"natural":"tree"}},"type":"Feature"},
	{"geometry":{"coordinates":[-68.209825,-16.508069],"type":"Point"},"properties":{"osm_id":"5724528136","tag":{"natural":"tree"}},"type":"Feature"},
	{"geometry":{"coordinates":[-68.281064,-16.482466],"type":"Point"},"properties":{"osm_id":"8580544086","tag":{"natural":"tree"}},"type":"Feature"},
	{"geometry":{"coordinates":[-68.222169,-16.501888],"type":"Point"},"properties":{"osm_id":"8589863791","tag":{"natural":"tree"}},"type":"Feature"},
	{"geometry":{"coordinates":[-68.222353,-16.501841],"type":"Point"},"properties":{"osm_id":"8589863792","tag":{"natural":"tree"}},"type":"Feature"},
	{"geometry":{"coordinates":[-68.2224,-16.502014],"type":"Point"},"properties":{"osm_id":"8589863793","tag":{"natural":"tree"}},"type":"Feature"},
	{"geometry":{"coordinates":[-68.22238,-16.502086],"type":"Point"},"properties":{"osm_id":"8589863794","tag":{"natural":"tree"}},"type":"Feature"},
	{"geometry":{"coordinates":[-68.222216,-16.50206],"type":"Point"},"properties":{"osm_id":"8589863795","tag":{"natural":"tree"}},"type":"Feature"}
]
}
