{
"type": "FeatureCollection",
"features": [
	{"geometry":{"coordinates":[-85.159836,41.140931],"type":"Point"},"properties":{"name":"Recycleing Dropoff","osm_id":"5260881304","tag":{"amenity":"recycling","operator":"Servall Recyleing","recycling_type":"centre"}},"type":"Feature"},
	{"geometry":{"coordinates":[-85.144104,41.133346],"type":"Point"},"properties":{"osm_id":"5374070920","tag":{"amenity":"waste_disposal"}},"type":"Feature"},
	{"geometry":{"coordinates":[-85.145381,41.133087],"type":"Point"},"properties":{"osm_id":"5374070921","tag":{"amenity":"waste_disposal"}},"type":"Feature"},
	{"geometry":{"coordinates":[-85.143583,41.133378],"type":"Point"},"properties":{"osm_id":"5374070922","tag":{"amenity":"waste_disposal"}},"type":"Feature"},
	{"geometry":{"coordinates":[-85.144013,41.133782],"type":"Point"},"properties":{"osm_id":"5374070923","tag":{"amenity":"waste_disposal"}},"type":"Feature"},
	{"geometry":{"coordinates":[-85.143214,41.134156],"type":"Point"},"properties":{"osm_id":"5374070924","tag":{"amenity":"waste_disposal"}},"type":"Feature"},
	{"geometry":{"coordinates":[-85.142792,41.133763],"type":"Point"},"properties":{"osm_id":"5374070925","tag":{"amenity":"waste_disposal"}},"type":"Feature"},
	{"geometry":{"coordinates":[-85.141946,41.13342],"type":"Point"},"properties":{"osm_id":"5374070926","tag":{"amenity":"waste_disposal"}},"type":"Feature"},
	{"geometry":{"coordinates":[-85.142019,41.134066],"type":"Point"},"properties":{"osm_id":"5374070927","tag":{"amenity":"waste_disposal"}},"type":"Feature"},
	{"geometry":{"coordinates":[-85.142392,41.134548],"type":"Point"},"properties":{"osm_id":"5374070928","tag":{"amenity":"waste_disposal"}},"type":"Feature"},
	{"geometry":{"coordinates":[-85.141229,41.134556],"type":"Point"},"properties":{"osm_id":"5374070929","tag":{"amenity":"waste_disposal"}},"type":"Feature"},
	{"geometry":{"coordinates":[-85.140681,41.134214],"type":"Point"},"properties":{"osm_id":"5374070930","tag":{"amenity":"waste_disposal"}},"type":"Feature"},
	{"geometry":{"coordinates":[-85.140805,41.133159],"type":"Point"},"properties":{"osm_id":"5374070956","tag":{"amenity":"waste_disposal"}},"type":"Feature"}
]
}
