{
"type": "FeatureCollection",
"features": [
	{"geometry":{"coordinates":[132.890017,34.469088],"type":"Point"},"properties":{"name":"\u00e5\u0096\u00ab\u00e7\u0085\u0099\u00e3\u0082\u00b3\u00e3\u0083\u00bc\u00e3\u0083\u008a\u00e3\u0083\u00bc","osm_id":"2626556431","tag":{"amenity":"waste_basket","name:en":"Smoking Area","smoking":"yes","waste":"cigarettes"}},"type":"Feature"},
	{"geometry":{"coordinates":[132.890173,34.469226],"type":"Point"},"properties":{"name":"\u00e5\u0096\u00ab\u00e7\u0085\u0099\u00e3\u0082\u00b3\u00e3\u0083\u00bc\u00e3\u0083\u008a\u00e3\u0083\u00bc","osm_id":"2626556432","tag":{"amenity":"waste_basket","name:en":"Smoking Area","smoking":"yes","waste":"cigarettes"}},"type":"Feature"},
	{"geometry":{"coordinates":[132.889941,34.469125],"type":"Point"},"properties":{"osm_id":"2626556444","tag":{"amenity":"waste_basket","waste":"trash"}},"type":"Feature"},
	{"geometry":{"coordinates":[132.890081,34.469269],"type":"Point"},"properties":{"osm_id":"2626556445","tag":{"amenity":"waste_basket","waste":"trash"}},"type":"Feature"}
]
}
