{
"type": "FeatureCollection",
"features": [
	{"geometry":{"coordinates":[-9.421163,38.79369],"type":"Point"},"properties":{"osm_id":"2408899470","tag":{"name:en":"Mourning Cypress","name:es":"Cipr\u00c3\u00a9s Ilor\u00c3\u00b3n","name:fr":"Cypr\u00c3\u00a8s fun\u00c3\u00a9bre","natural":"tree"}},"type":"Feature"},
	{"geometry":{"coordinates":[-9.469762,38.795846],"type":"Point"},"properties":{"osm_id":"3575233693","tag":{"natural":"tree"}},"type":"Feature"},
	{"geometry":{"coordinates":[-9.469685,38.795812],"type":"Point"},"properties":{"osm_id":"3575233694","tag":{"natural":"tree"}},"type":"Feature"},
	{"geometry":{"coordinates":[-9.462804,38.792767],"type":"Point"},"properties":{"osm_id":"5044725435","tag":{"natural":"tree"}},"type":"Feature"},
	{"geometry":{"coordinates":[-9.41627,38.799429],"type":"Point"},"properties":{"osm_id":"5241391806","tag":{"natural":"tree"}},"type":"Feature"},
	{"geometry":{"coordinates":[-9.410348,38.812439],"type":"Point"},"properties":{"osm_id":"5449568856","tag":{"leaf_cycle":"semi_evergreen","leaf_type":"broadleaved","natural":"tree"}},"type":"Feature"},
	{"geometry":{"coordinates":[-9.411575,38.811678],"type":"Point"},"properties":{"osm_id":"5449568862","tag":{"leaf_cycle":"semi_evergreen","leaf_type":"broadleaved","natural":"tree"}},"type":"Feature"},
	{"geometry":{"coordinates":[-9.410034,38.808163],"type":"Point"},"properties":{"osm_id":"5449692083","tag":{"leaf_type":"needleleaved","natural":"tree"}},"type":"Feature"},
	{"geometry":{"coordinates":[-9.421769,38.793054],"type":"Point"},"properties":{"osm_id":"5782065156","tag":{"name:fr":"cypr\u00c3\u00a9s du marais mexicain","natural":"tree","source:name:fr":"map of the parc"}},"type":"Feature"},
	{"geometry":{"coordinates":[-9.40792,38.809746],"type":"Point"},"properties":{"osm_id":"6874257269","tag":{"leaf_type":"broadleaved","natural":"tree"}},"type":"Feature"},
	{"geometry":{"coordinates":[-9.408586,38.809735],"type":"Point"},"properties":{"osm_id":"6874296361","tag":{"leaf_type":"needleleaved","natural":"tree"}},"type":"Feature"},
	{"geometry":{"coordinates":[-9.408287,38.809778],"type":"Point"},"properties":{"osm_id":"6874296362","tag":{"leaf_cycle":"semi_evergreen","leaf_type":"broadleaved","natural":"tree"}},"type":"Feature"},
	{"geometry":{"coordinates":[-9.407935,38.809833],"type":"Point"},"properties":{"osm_id":"6874296363","tag":{"leaf_cycle":"semi_evergreen","leaf_type":"broadleaved","natural":"tree"}},"type":"Feature"},
	{"geometry":{"coordinates":[-9.408575,38.809663],"type":"Point"},"properties":{"osm_id":"6874311391","tag":{"leaf_type":"needleleaved","natural":"tree"}},"type":"Feature"},
	{"geometry":{"coordinates":[-9.407913,38.809516],"type":"Point"},"properties":{"osm_id":"6874333999","tag":{"leaf_type":"needleleaved","natural":"tree"}},"type":"Feature"},
	{"geometry":{"coordinates":[-9.408146,38.809494],"type":"Point"},"properties":{"osm_id":"6874334000","tag":{"leaf_type":"needleleaved","natural":"tree"}},"type":"Feature"},
	{"geometry":{"coordinates":[-9.40824,38.809549],"type":"Point"},"properties":{"osm_id":"6874334001","tag":{"leaf_type":"broadleaved","natural":"tree"}},"type":"Feature"},
	{"geometry":{"coordinates":[-9.408154,38.809617],"type":"Point"},"properties":{"osm_id":"6874334002","tag":{"leaf_type":"needleleaved","natural":"tree"}},"type":"Feature"},
	{"geometry":{"coordinates":[-9.408226,38.809677],"type":"Point"},"properties":{"osm_id":"6874334005","tag":{"leaf_type":"broadleaved","natural":"tree"}},"type":"Feature"},
	{"geometry":{"coordinates":[-9.40816,38.809663],"type":"Point"},"properties":{"osm_id":"6874334006","tag":{"leaf_type":"needleleaved","natural":"tree"}},"type":"Feature"},
	{"geometry":{"coordinates":[-9.408023,38.809575],"type":"Point"},"properties":{"osm_id":"6874334007","tag":{"leaf_type":"broadleaved","natural":"tree"}},"type":"Feature"},
	{"geometry":{"coordinates":[-9.407887,38.809598],"type":"Point"},"properties":{"osm_id":"6874334008","tag":{"leaf_type":"broadleaved","natural":"tree"}},"type":"Feature"},
	{"geometry":{"coordinates":[-9.407902,38.809678],"type":"Point"},"properties":{"osm_id":"6874334009","tag":{"leaf_type":"broadleaved","natural":"tree"}},"type":"Feature"},
	{"geometry":{"coordinates":[-9.408021,38.809508],"type":"Point"},"properties":{"osm_id":"6874334010","tag":{"leaf_type":"broadleaved","natural":"tree"}},"type":"Feature"},
	{"geometry":{"coordinates":[-9.405743,38.808862],"type":"Point"},"properties":{"osm_id":"6874334011","tag":{"leaf_type":"needleleaved","natural":"tree"}},"type":"Feature"},
	{"geometry":{"coordinates":[-9.40738,38.808889],"type":"Point"},"properties":{"osm_id":"6874334012","tag":{"leaf_type":"needleleaved","natural":"tree"}},"type":"Feature"},
	{"geometry":{"coordinates":[-9.407768,38.809346],"type":"Point"},"properties":{"osm_id":"6874334013","tag":{"leaf_type":"needleleaved","natural":"tree"}},"type":"Feature"},
	{"geometry":{"coordinates":[-9.407604,38.809322],"type":"Point"},"properties":{"osm_id":"6874334014","tag":{"leaf_type":"needleleaved","natural":"tree"}},"type":"Feature"},
	{"geometry":{"coordinates":[-9.407152,38.809178],"type":"Point"},"properties":{"osm_id":"6874334015","tag":{"leaf_type":"needleleaved","natural":"tree"}},"type":"Feature"},
	{"geometry":{"coordinates":[-9.407132,38.809077],"type":"Point"},"properties":{"osm_id":"6874334016","tag":{"leaf_type":"needleleaved","natural":"tree"}},"type":"Feature"},
	{"geometry":{"coordinates":[-9.407262,38.809042],"type":"Point"},"properties":{"osm_id":"6874334017","tag":{"leaf_type":"needleleaved","natural":"tree"}},"type":"Feature"},
	{"geometry":{"coordinates":[-9.407585,38.808861],"type":"Point"},"properties":{"osm_id":"6874334018","tag":{"leaf_type":"needleleaved","natural":"tree"}},"type":"Feature"},
	{"geometry":{"coordinates":[-9.469864,38.795593],"type":"Point"},"properties":{"osm_id":"6876073468","tag":{"natural":"tree"}},"type":"Feature"},
	{"geometry":{"coordinates":[-9.406421,38.809504],"type":"Point"},"properties":{"osm_id":"6928752909","tag":{"leaf_cycle":"semi_evergreen","leaf_type":"broadleaved","natural":"tree"}},"type":"Feature"},
	{"geometry":{"coordinates":[-9.406943,38.809291],"type":"Point"},"properties":{"osm_id":"6928752920","tag":{"leaf_type":"needleleaved","natural":"tree"}},"type":"Feature"},
	{"geometry":{"coordinates":[-9.406863,38.809352],"type":"Point"},"properties":{"osm_id":"6928752921","tag":{"leaf_cycle":"semi_evergreen","leaf_type":"broadleaved","natural":"tree"}},"type":"Feature"},
	{"geometry":{"coordinates":[-9.407845,38.809453],"type":"Point"},"properties":{"osm_id":"6928752926","tag":{"leaf_cycle":"semi_evergreen","leaf_type":"needleleaved;broadleaved","natural":"tree"}},"type":"Feature"},
	{"geometry":{"coordinates":[-9.412294,38.81131],"type":"Point"},"properties":{"osm_id":"6928752935","tag":{"leaf_type":"needleleaved","natural":"tree"}},"type":"Feature"},
	{"geometry":{"coordinates":[-9.411645,38.811549],"type":"Point"},"properties":{"osm_id":"6928752936","tag":{"leaf_type":"needleleaved","natural":"tree"}},"type":"Feature"},
	{"geometry":{"coordinates":[-9.409391,38.808057],"type":"Point"},"properties":{"osm_id":"6928752943","tag":{"leaf_cycle":"semi_evergreen","leaf_type":"needleleaved;broadleaved","natural":"tree"}},"type":"Feature"},
	{"geometry":{"coordinates":[-9.40667,38.808951],"type":"Point"},"properties":{"osm_id":"6928800438","tag":{"leaf_cycle":"semi_evergreen","leaf_type":"broadleaved","natural":"tree"}},"type":"Feature"},
	{"geometry":{"coordinates":[-9.407916,38.808671],"type":"Point"},"properties":{"osm_id":"6928800440","tag":{"leaf_cycle":"semi_evergreen","leaf_type":"broadleaved","natural":"tree"}},"type":"Feature"},
	{"geometry":{"coordinates":[-9.408539,38.808492],"type":"Point"},"properties":{"osm_id":"6928800441","tag":{"leaf_type":"needleleaved","natural":"tree"}},"type":"Feature"},
	{"geometry":{"coordinates":[-9.408566,38.808413],"type":"Point"},"properties":{"osm_id":"6928800442","tag":{"leaf_type":"needleleaved","natural":"tree"}},"type":"Feature"},
	{"geometry":{"coordinates":[-9.408866,38.807684],"type":"Point"},"properties":{"osm_id":"6928800455","tag":{"leaf_cycle":"semi_evergreen","leaf_type":"broadleaved","natural":"tree"}},"type":"Feature"},
	{"geometry":{"coordinates":[-9.409329,38.807723],"type":"Point"},"properties":{"osm_id":"6928800457","tag":{"leaf_cycle":"semi_evergreen","leaf_type":"broadleaved","natural":"tree"}},"type":"Feature"},
	{"geometry":{"coordinates":[-9.409503,38.807728],"type":"Point"},"properties":{"osm_id":"6928800458","tag":{"leaf_type":"needleleaved","natural":"tree"}},"type":"Feature"},
	{"geometry":{"coordinates":[-9.409557,38.80769],"type":"Point"},"properties":{"osm_id":"6928800459","tag":{"leaf_type":"needleleaved","natural":"tree"}},"type":"Feature"},
	{"geometry":{"coordinates":[-9.409587,38.810628],"type":"Point"},"properties":{"osm_id":"6928800466","tag":{"leaf_cycle":"semi_evergreen","leaf_type":"broadleaved","natural":"tree"}},"type":"Feature"},
	{"geometry":{"coordinates":[-9.409939,38.810543],"type":"Point"},"properties":{"osm_id":"6928800468","tag":{"leaf_cycle":"semi_evergreen","leaf_type":"broadleaved","natural":"tree"}},"type":"Feature"},
	{"geometry":{"coordinates":[-9.410157,38.810527],"type":"Point"},"properties":{"osm_id":"6928800469","tag":{"leaf_type":"needleleaved","natural":"tree"}},"type":"Feature"},
	{"geometry":{"coordinates":[-9.410376,38.810353],"type":"Point"},"properties":{"osm_id":"6928800470","tag":{"leaf_type":"needleleaved","natural":"tree"}},"type":"Feature"},
	{"geometry":{"coordinates":[-9.421356,38.79332],"type":"Point"},"properties":{"osm_id":"7103313748","tag":{"height":"50","name:en":"Norfolk Island Pine","name:es":"Araucaria de Norfolk","natural":"tree"}},"type":"Feature"}
]
}
