{
"type": "FeatureCollection",
"features": [
	{"geometry":{"coordinates":[-9.421555,38.694565],"type":"Point"},"properties":{"osm_id":"2696660241","tag":{"natural":"tree","survey:date":"2014-03-01"}},"type":"Feature"},
	{"geometry":{"coordinates":[-9.456464,38.696078],"type":"Point"},"properties":{"osm_id":"2987303981","tag":{"natural":"tree"}},"type":"Feature"},
	{"geometry":{"coordinates":[-9.420805,38.699733],"type":"Point"},"properties":{"osm_id":"3956867218","tag":{"natural":"tree","taxon":"Pittosporum tobira"}},"type":"Feature"},
	{"geometry":{"coordinates":[-9.421431,38.699818],"type":"Point"},"properties":{"osm_id":"3956873155","tag":{"natural":"tree","taxon":"Casuarina equisetifolia","wikipedia":"en:Casuarina equisetifolia"}},"type":"Feature"},
	{"geometry":{"coordinates":[-9.420873,38.699618],"type":"Point"},"properties":{"osm_id":"3956873156","tag":{"natural":"tree","taxon":"Jacaranda mimosifolia"}},"type":"Feature"},
	{"geometry":{"coordinates":[-9.422537,38.695638],"type":"Point"},"properties":{"name":"FREIXO","osm_id":"3956877747","tag":{"name:botanical":"Fraxinus angustifolia","name:en":"ASH","natural":"tree"}},"type":"Feature"},
	{"geometry":{"coordinates":[-9.422944,38.697384],"type":"Point"},"properties":{"name":"LOD\u00c3\u0083O-BASTARDO","osm_id":"3956879645","tag":{"name:botanical":"Celtis australis","name:en":"EUROPEAN HACKBERRY","natural":"tree"}},"type":"Feature"},
	{"geometry":{"coordinates":[-9.422723,38.697354],"type":"Point"},"properties":{"name":"PAINEIRA, SUMA\u00c3\u009aMA","osm_id":"3956879646","tag":{"name:botanical":"Ceiba speciosa","name:en":"SILK COTTON TREE","natural":"tree"}},"type":"Feature"},
	{"geometry":{"coordinates":[-9.421097,38.699402],"type":"Point"},"properties":{"osm_id":"3956879647","tag":{"natural":"tree","taxon":"Salix babylonica"}},"type":"Feature"},
	{"geometry":{"coordinates":[-9.422169,38.696643],"type":"Point"},"properties":{"name":"TIPUANA","osm_id":"3956884870","tag":{"name:botanical":"Tipuana tipu","name:en":"ROSEWOOD","natural":"tree"}},"type":"Feature"},
	{"geometry":{"coordinates":[-9.42289,38.6953],"type":"Point"},"properties":{"name":"FIGUEIRA DE FOLHA PEQUENA","osm_id":"3956885505","tag":{"name:botanical":"Ficus rubiginosa","name:en":"SMALL-LEAVED FIG TREE","natural":"tree"}},"type":"Feature"},
	{"geometry":{"coordinates":[-9.422904,38.695133],"type":"Point"},"properties":{"name":"CIPRESTE DO BU\u00c3\u0087ACO","osm_id":"3956886998","tag":{"name:botanical":"Cupressus lusitanica","name:en":"MEXICAN CYPRESS","natural":"tree"}},"type":"Feature"},
	{"geometry":{"coordinates":[-9.42331,38.69544],"type":"Point"},"properties":{"name":"EUCALIPTO","osm_id":"3956887236","tag":{"name:botanical":"Eucalyptus globulus","name:en":"EUCALYPTUS","natural":"tree"}},"type":"Feature"},
	{"geometry":{"coordinates":[-9.422224,38.694877],"type":"Point"},"properties":{"name":"T\u00c3\u008dLIA","osm_id":"3956888696","tag":{"name:botanical":"Tilia cordata","name:en":"LINDEN","natural":"tree"}},"type":"Feature"},
	{"geometry":{"coordinates":[-9.420505,38.694894],"type":"Point"},"properties":{"name":"Pl\u00c3\u00a1tano","osm_id":"3956895814","tag":{"leaf_cycle":"evergreen","leaf_type":"broadleaved","name:en":"Maple","natural":"tree","taxon":"Platanus \u00c3\u0097 hispanica"}},"type":"Feature"},
	{"geometry":{"coordinates":[-9.420996,38.694659],"type":"Point"},"properties":{"name":"Cedro do L\u00c3\u00adbano","osm_id":"3956896923","tag":{"leaf_cycle":"evergreen","leaf_type":"broadleaved","name:en":"Cedar of Lebanon","natural":"tree","taxon":"Cedrus libani"}},"type":"Feature"},
	{"geometry":{"coordinates":[-9.414477,38.728806],"type":"Point"},"properties":{"osm_id":"4031710828","tag":{"natural":"tree"}},"type":"Feature"},
	{"geometry":{"coordinates":[-9.414313,38.728944],"type":"Point"},"properties":{"osm_id":"4031711007","tag":{"natural":"tree"}},"type":"Feature"},
	{"geometry":{"coordinates":[-9.414343,38.72885],"type":"Point"},"properties":{"osm_id":"4031711064","tag":{"natural":"tree"}},"type":"Feature"},
	{"geometry":{"coordinates":[-9.414555,38.728894],"type":"Point"},"properties":{"osm_id":"4031711089","tag":{"natural":"tree"}},"type":"Feature"},
	{"geometry":{"coordinates":[-9.414509,38.728994],"type":"Point"},"properties":{"osm_id":"4031711313","tag":{"natural":"tree"}},"type":"Feature"},
	{"geometry":{"coordinates":[-9.412249,38.732215],"type":"Point"},"properties":{"name":"Platano","osm_id":"4638387143","tag":{"leaf_cycle":"deciduous","leaf_type":"broadleaved","natural":"tree"}},"type":"Feature"},
	{"geometry":{"coordinates":[-9.471503,38.747256],"type":"Point"},"properties":{"osm_id":"4687234651","tag":{"natural":"tree"}},"type":"Feature"},
	{"geometry":{"coordinates":[-9.4719,38.741996],"type":"Point"},"properties":{"osm_id":"4687234652","tag":{"natural":"tree"}},"type":"Feature"},
	{"geometry":{"coordinates":[-9.426029,38.690289],"type":"Point"},"properties":{"osm_id":"4690619557","tag":{"natural":"tree"}},"type":"Feature"}
]
}
