{
"type": "FeatureCollection",
"features": [
	{"geometry":{"coordinates":[9.070892,54.21446],"type":"Point"},"properties":{"osm_id":"2349064393","tag":{"amenity":"recycling","operator":"Abfallwirtschaft Dithmarschen","recycling:electrical_appliances":"yes","recycling:glass_bottles":"yes","recycling_type":"container"}},"type":"Feature"},
	{"geometry":{"coordinates":[9.070855,54.21452],"type":"Point"},"properties":{"osm_id":"3532349956","tag":{"amenity":"recycling","operator":"East-West Textilrecycling Kursun","recycling:clothes":"yes","recycling_type":"container"}},"type":"Feature"},
	{"geometry":{"coordinates":[9.13431,54.218417],"type":"Point"},"properties":{"osm_id":"4427677569","tag":{"amenity":"waste_basket"}},"type":"Feature"},
	{"geometry":{"coordinates":[9.127153,54.214672],"type":"Point"},"properties":{"osm_id":"7114004761","tag":{"amenity":"recycling","operator":"Retextil Recycling","recycling:clothes":"yes","recycling_type":"container"}},"type":"Feature"},
	{"geometry":{"coordinates":[9.064438,54.256539],"type":"Point"},"properties":{"osm_id":"9027613598","tag":{"amenity":"recycling","recycling:glass_bottles":"yes","recycling_type":"container"}},"type":"Feature"}
]
}
