{
"type": "FeatureCollection",
"features": [
	{"geometry":{"coordinates":[9.083581,54.192133],"type":"Point"},"properties":{"osm_id":"649222174","tag":{"amenity":"recycling","operator":"Abfallwirtschaft Dithmarschen","recycling:glass_bottles":"yes","recycling_type":"container"}},"type":"Feature"},
	{"geometry":{"coordinates":[9.107559,54.188753],"type":"Point"},"properties":{"osm_id":"914000154","tag":{"amenity":"waste_basket"}},"type":"Feature"},
	{"geometry":{"coordinates":[9.093899,54.183724],"type":"Point"},"properties":{"osm_id":"2349064356","tag":{"amenity":"recycling","operator":"Abfallwirtschaft Dithmarschen","recycling:glass_bottles":"yes","recycling_type":"container"}},"type":"Feature"},
	{"geometry":{"coordinates":[9.082568,54.202097],"type":"Point"},"properties":{"osm_id":"2349064374","tag":{"amenity":"recycling","operator":"Abfallwirtschaft Dithmarschen","recycling:glass_bottles":"yes","recycling_type":"container"}},"type":"Feature"},
	{"geometry":{"coordinates":[9.069816,54.189748],"type":"Point"},"properties":{"osm_id":"2349369678","tag":{"amenity":"recycling","operator":"Abfallwirtschaft Dithmarschen","recycling:glass_bottles":"yes","recycling_type":"container"}},"type":"Feature"},
	{"geometry":{"coordinates":[9.116745,54.201055],"type":"Point"},"properties":{"osm_id":"2349369685","tag":{"amenity":"recycling","operator":"Abfallwirtschaft Dithmarschen","recycling:glass_bottles":"yes","recycling_type":"container"}},"type":"Feature"},
	{"geometry":{"coordinates":[9.091914,54.19082],"type":"Point"},"properties":{"osm_id":"2857742870","tag":{"amenity":"recycling","operator":"Abfallwirtschaft Dithmarschen","recycling:glass_bottles":"yes","recycling_type":"container"}},"type":"Feature"},
	{"geometry":{"coordinates":[9.102737,54.184757],"type":"Point"},"properties":{"name":"Recyclinghof Heide","osm_id":"3145199927","tag":{"addr:city":"Heide","addr:country":"DE","addr:housenumber":"26d","addr:postcode":"25746","addr:street":"Hinrich-Schmidt-Stra\u00c3\u009fe","amenity":"recycling","recycling_type":"centre","website":"https://www.awd-online.de/recyclinghoefe/heide/"}},"type":"Feature"},
	{"geometry":{"coordinates":[9.086307,54.18803],"type":"Point"},"properties":{"osm_id":"3149237499","tag":{"amenity":"recycling","operator":"Abfallwirtschaft Dithmarschen","recycling:glass_bottles":"yes","recycling_type":"container"}},"type":"Feature"},
	{"geometry":{"coordinates":[9.105242,54.194934],"type":"Point"},"properties":{"osm_id":"3149237500","tag":{"amenity":"recycling","operator":"Abfallwirtschaft Dithmarschen","recycling:glass_bottles":"yes","recycling_type":"container"}},"type":"Feature"},
	{"geometry":{"coordinates":[9.112524,54.198304],"type":"Point"},"properties":{"osm_id":"3149237501","tag":{"amenity":"recycling","operator":"Abfallwirtschaft Dithmarschen","recycling:glass_bottles":"yes","recycling_type":"container"}},"type":"Feature"},
	{"geometry":{"coordinates":[9.122708,54.198596],"type":"Point"},"properties":{"osm_id":"3149237502","tag":{"amenity":"recycling","check_date:recycling":"2021-03-23","operator":"Abfallwirtschaft Dithmarschen","recycling:glass_bottles":"yes","recycling_type":"container"}},"type":"Feature"},
	{"geometry":{"coordinates":[9.105368,54.207435],"type":"Point"},"properties":{"osm_id":"3149237504","tag":{"amenity":"recycling","operator":"Abfallwirtschaft Dithmarschen","recycling:glass_bottles":"yes","recycling_type":"container"}},"type":"Feature"},
	{"geometry":{"coordinates":[9.092298,54.177383],"type":"Point"},"properties":{"osm_id":"3193699564","tag":{"amenity":"recycling","operator":"Retextil Recycling International","recycling:clothes":"yes","recycling_type":"container"}},"type":"Feature"},
	{"geometry":{"coordinates":[9.092356,54.17743],"type":"Point"},"properties":{"osm_id":"3193699565","tag":{"amenity":"recycling","operator":"Abfallwirtschaft Dithmarschen","recycling:glass_bottles":"yes","recycling:paper":"yes","recycling_type":"container"}},"type":"Feature"},
	{"geometry":{"coordinates":[9.093899,54.183669],"type":"Point"},"properties":{"osm_id":"3233982749","tag":{"amenity":"recycling","operator":"AHG alpha Handelskontor","recycling:clothes":"yes","recycling_type":"container"}},"type":"Feature"},
	{"geometry":{"coordinates":[9.105281,54.194828],"type":"Point"},"properties":{"osm_id":"3233982750","tag":{"amenity":"recycling","operator":"Reintextil","recycling:clothes":"yes","recycling_type":"container"}},"type":"Feature"},
	{"geometry":{"coordinates":[9.090425,54.182641],"type":"Point"},"properties":{"osm_id":"3361645417","tag":{"amenity":"recycling","operator":"Deutscher Guttempler-Orden","recycling:clothes":"yes","recycling_type":"container"}},"type":"Feature"},
	{"geometry":{"coordinates":[9.090179,54.189865],"type":"Point"},"properties":{"osm_id":"3361695413","tag":{"amenity":"recycling","operator":"Aktex Rohstoff-Recycling Nord","recycling:clothes":"yes","recycling_type":"container","website":"http://www.aktex-textilhandel.de"}},"type":"Feature"},
	{"geometry":{"coordinates":[9.092798,54.193423],"type":"Point"},"properties":{"osm_id":"3361966385","tag":{"amenity":"recycling","operator":"hoelp","recycling:clothes":"yes","recycling_type":"container","website":"https://hoelp.de"}},"type":"Feature"},
	{"geometry":{"coordinates":[9.083787,54.191756],"type":"Point"},"properties":{"osm_id":"3388752842","tag":{"amenity":"recycling","operator":"hoelp","recycling:clothes":"yes","recycling_type":"container","website":"https://hoelp.de"}},"type":"Feature"},
	{"geometry":{"coordinates":[9.098201,54.181587],"type":"Point"},"properties":{"osm_id":"3664046896","tag":{"amenity":"recycling","operator":"Abfallwirtschaft Dithmarschen","recycling:glass_bottles":"yes","recycling_type":"container"}},"type":"Feature"},
	{"geometry":{"coordinates":[9.06979,54.189719],"type":"Point"},"properties":{"osm_id":"3761370585","tag":{"amenity":"recycling","operator":"Deutsches Rotes Kreuz","recycling:clothes":"yes","recycling_type":"container"}},"type":"Feature"},
	{"geometry":{"coordinates":[9.099206,54.190664],"type":"Point"},"properties":{"osm_id":"3761370601","tag":{"amenity":"recycling","operator":"hoelp","recycling:clothes":"yes","recycling_type":"container","website":"https://www.hoelp.de/"}},"type":"Feature"},
	{"geometry":{"coordinates":[9.09184,54.190796],"type":"Point"},"properties":{"osm_id":"3761370603","tag":{"amenity":"recycling","operator":"Deutsche Gesellschaft f\u00c3\u00bcr Recycling","recycling:clothes":"yes","recycling_type":"container","website":"https://www.dgw-recycling.de/"}},"type":"Feature"},
	{"geometry":{"coordinates":[9.10802,54.196719],"type":"Point"},"properties":{"osm_id":"3761370860","tag":{"amenity":"recycling","operator":"Deutsches Rotes Kreuz","recycling:clothes":"yes","recycling_type":"container"}},"type":"Feature"},
	{"geometry":{"coordinates":[9.112521,54.198261],"type":"Point"},"properties":{"osm_id":"3761370869","tag":{"amenity":"recycling","operator":"Humana","recycling:clothes":"yes","recycling_type":"container"}},"type":"Feature"},
	{"geometry":{"coordinates":[9.112522,54.198276],"type":"Point"},"properties":{"osm_id":"3761370870","tag":{"amenity":"recycling","operator":"AHG alpha Handelskontor","recycling:clothes":"yes","recycling_type":"container"}},"type":"Feature"},
	{"geometry":{"coordinates":[9.112525,54.19829],"type":"Point"},"properties":{"osm_id":"3761370871","tag":{"amenity":"recycling","operator":"Retextil Recycling International","recycling:clothes":"yes","recycling_type":"container"}},"type":"Feature"},
	{"geometry":{"coordinates":[9.116742,54.201021],"type":"Point"},"properties":{"osm_id":"3761370880","tag":{"amenity":"recycling","operator":"Aktex Rohstoff-Recycling Nord","recycling:clothes":"yes","recycling_type":"container"}},"type":"Feature"},
	{"geometry":{"coordinates":[9.104173,54.205829],"type":"Point"},"properties":{"osm_id":"3761370895","tag":{"amenity":"recycling","operator":"Aktex Rohstoff-Recycling Nord","recycling:clothes":"yes","recycling_type":"container"}},"type":"Feature"},
	{"geometry":{"coordinates":[9.109944,54.193896],"type":"Point"},"properties":{"osm_id":"4012270289","tag":{"amenity":"recycling","operator":"Aktex Rohstoff-Recycling Nord","recycling:clothes":"yes","recycling_type":"container","website":"http://www.aktex-textilhandel.de"}},"type":"Feature"},
	{"geometry":{"coordinates":[9.101878,54.193172],"type":"Point"},"properties":{"osm_id":"4012270306","tag":{"amenity":"recycling","operator":"Humana","recycling:clothes":"yes","recycling_type":"container","website":"https://www.humana-kleidersammlung.de/"}},"type":"Feature"},
	{"geometry":{"coordinates":[9.067189,54.188291],"type":"Point"},"properties":{"osm_id":"4259835901","tag":{"amenity":"recycling","operator":"hoelp","recycling:clothes":"yes","recycling_type":"container","website":"https://www.hoelp.de/"}},"type":"Feature"},
	{"geometry":{"coordinates":[9.084161,54.194908],"type":"Point"},"properties":{"osm_id":"4259835910","tag":{"amenity":"recycling","recycling:clothes":"yes","recycling_type":"container"}},"type":"Feature"},
	{"geometry":{"coordinates":[9.107969,54.205555],"type":"Point"},"properties":{"osm_id":"4353534416","tag":{"amenity":"recycling","operator":"hoelp","recycling:clothes":"yes","recycling_type":"container","website":"https://hoelp.de"}},"type":"Feature"},
	{"geometry":{"coordinates":[9.109431,54.208664],"type":"Point"},"properties":{"osm_id":"4353534486","tag":{"amenity":"recycling","operator":"Aktex Rohstoff-Recycling Nord","recycling:clothes":"yes","recycling_type":"container","website":"http://www.aktex-textilhandel.de"}},"type":"Feature"},
	{"geometry":{"coordinates":[9.099622,54.200419],"type":"Point"},"properties":{"osm_id":"4353694508","tag":{"amenity":"recycling","operator":"Aktex Rohstoff-Recycling Nord","recycling:clothes":"yes","recycling_type":"container","website":"http://www.aktex-textilhandel.de"}},"type":"Feature"},
	{"geometry":{"coordinates":[9.101217,54.209634],"type":"Point"},"properties":{"osm_id":"4417331179","tag":{"amenity":"recycling","operator":"Aktex Rohstoff-Recycling Nord","recycling:clothes":"yes","recycling_type":"container","website":"http://www.aktex-textilhandel.de"}},"type":"Feature"},
	{"geometry":{"coordinates":[9.086781,54.198356],"type":"Point"},"properties":{"osm_id":"4538542891","tag":{"amenity":"recycling","operator":"Deutsches Rotes Kreuz","recycling:clothes":"yes","recycling_type":"container"}},"type":"Feature"},
	{"geometry":{"coordinates":[9.099533,54.185277],"type":"Point"},"properties":{"osm_id":"4590924415","tag":{"amenity":"recycling","recycling:clothes":"yes","recycling_type":"container"}},"type":"Feature"},
	{"geometry":{"coordinates":[9.110596,54.183388],"type":"Point"},"properties":{"name":"Hans U. M\u00c3\u00b6ller Verwertungs- und Entsorgungs-Zentrum","osm_id":"4608058359","tag":{"addr:city":"Heide","addr:housenumber":"11a","addr:postcode":"25746","addr:street":"Vogelweide","amenity":"recycling","recycling:scrap_metal":"yes","recycling_type":"centre","website":"https://www.moeller-recycling.de/"}},"type":"Feature"},
	{"geometry":{"coordinates":[9.124016,54.1995],"type":"Point"},"properties":{"osm_id":"4849179721","tag":{"amenity":"recycling","check_date:recycling":"2021-03-23","recycling:clothes":"yes","recycling_type":"container"}},"type":"Feature"},
	{"geometry":{"coordinates":[9.101749,54.182093],"type":"Point"},"properties":{"osm_id":"4849316101","tag":{"amenity":"recycling","operator":"hoelp","recycling:clothes":"yes","recycling_type":"container","website":"https://hoelp.de"}},"type":"Feature"},
	{"geometry":{"coordinates":[9.085734,54.18557],"type":"Point"},"properties":{"osm_id":"5116732713","tag":{"amenity":"recycling","operator":"Aktex Rohstoff-Recycling Nord","recycling:clothes":"yes","recycling_type":"container","website":"http://www.aktex-textilhandel.de"}},"type":"Feature"},
	{"geometry":{"coordinates":[9.112971,54.202094],"type":"Point"},"properties":{"osm_id":"7900350323","tag":{"amenity":"waste_disposal","waste":"trash"}},"type":"Feature"}
]
}
