{
"type": "FeatureCollection",
"features": [
	{"geometry":{"coordinates":[9.088552,54.151358],"type":"Point"},"properties":{"osm_id":"1899838380","tag":{"amenity":"recycling","operator":"Abfallwirtschaft Dithmarschen","recycling:glass_bottles":"yes","recycling_type":"container"}},"type":"Feature"},
	{"geometry":{"coordinates":[9.07151,54.145665],"type":"Point"},"properties":{"osm_id":"1910989217","tag":{"amenity":"recycling","operator":"Abfallwirtschaft Dithmarschen","recycling:electrical_appliances":"yes","recycling:glass_bottles":"yes","recycling_type":"container"}},"type":"Feature"},
	{"geometry":{"coordinates":[9.06439,54.156809],"type":"Point"},"properties":{"osm_id":"3149237498","tag":{"amenity":"recycling","operator":"Abfallwirtschaft Dithmarschen","recycling:glass_bottles":"yes","recycling_type":"container"}},"type":"Feature"},
	{"geometry":{"coordinates":[9.08851,54.151328],"type":"Point"},"properties":{"osm_id":"3193699563","tag":{"amenity":"recycling","operator":"hoelp","recycling:clothes":"yes","recycling_type":"container","website":"https://www.hoelp.de/"}},"type":"Feature"},
	{"geometry":{"coordinates":[9.071497,54.145718],"type":"Point"},"properties":{"osm_id":"3532349955","tag":{"amenity":"recycling","operator":"hoelp","recycling:clothes":"yes","recycling_type":"container","website":"https://hoelp.de/"}},"type":"Feature"},
	{"geometry":{"coordinates":[9.071495,54.145702],"type":"Point"},"properties":{"osm_id":"3761558657","tag":{"amenity":"recycling","operator":"Retextil Recycling International","recycling:clothes":"yes","recycling_type":"container"}},"type":"Feature"},
	{"geometry":{"coordinates":[9.088522,54.15134],"type":"Point"},"properties":{"osm_id":"4258041375","tag":{"amenity":"recycling","operator":"Retextil Recycling International","recycling:clothes":"yes","recycling_type":"container","website":"http://www.retextil.de"}},"type":"Feature"},
	{"geometry":{"coordinates":[9.08554,54.160596],"type":"Point"},"properties":{"osm_id":"4451363203","tag":{"amenity":"recycling","operator":"Abfallwirtschaft Dithmarschen","recycling:glass_bottles":"yes","recycling_type":"container"}},"type":"Feature"}
]
}
