{
"type": "FeatureCollection",
"features": [
	{"geometry":{"coordinates":[9.071746,54.089672],"type":"Point"},"properties":{"osm_id":"666405888","tag":{"amenity":"waste_basket"}},"type":"Feature"},
	{"geometry":{"coordinates":[9.072054,54.090534],"type":"Point"},"properties":{"osm_id":"666406019","tag":{"amenity":"waste_basket"}},"type":"Feature"},
	{"geometry":{"coordinates":[9.068948,54.087948],"type":"Point"},"properties":{"osm_id":"667269352","tag":{"amenity":"waste_basket"}},"type":"Feature"},
	{"geometry":{"coordinates":[9.074559,54.089584],"type":"Point"},"properties":{"osm_id":"667269361","tag":{"amenity":"waste_basket"}},"type":"Feature"},
	{"geometry":{"coordinates":[9.075686,54.089487],"type":"Point"},"properties":{"osm_id":"667269364","tag":{"amenity":"waste_basket"}},"type":"Feature"},
	{"geometry":{"coordinates":[9.076229,54.08942],"type":"Point"},"properties":{"osm_id":"667269367","tag":{"amenity":"waste_basket"}},"type":"Feature"},
	{"geometry":{"coordinates":[9.076821,54.089349],"type":"Point"},"properties":{"osm_id":"667269368","tag":{"amenity":"waste_basket"}},"type":"Feature"},
	{"geometry":{"coordinates":[9.077282,54.089313],"type":"Point"},"properties":{"osm_id":"667269369","tag":{"amenity":"waste_basket"}},"type":"Feature"},
	{"geometry":{"coordinates":[9.077964,54.089165],"type":"Point"},"properties":{"osm_id":"667269371","tag":{"amenity":"waste_basket"}},"type":"Feature"},
	{"geometry":{"coordinates":[9.072187,54.090248],"type":"Point"},"properties":{"osm_id":"686677030","tag":{"amenity":"waste_basket"}},"type":"Feature"},
	{"geometry":{"coordinates":[9.102717,54.086291],"type":"Point"},"properties":{"osm_id":"697864713","tag":{"amenity":"waste_basket"}},"type":"Feature"},
	{"geometry":{"coordinates":[9.06776,54.091149],"type":"Point"},"properties":{"osm_id":"701307446","tag":{"amenity":"waste_basket"}},"type":"Feature"},
	{"geometry":{"coordinates":[9.067759,54.091675],"type":"Point"},"properties":{"osm_id":"701307468","tag":{"amenity":"waste_basket","waste":"trash"}},"type":"Feature"},
	{"geometry":{"coordinates":[9.06784,54.091751],"type":"Point"},"properties":{"osm_id":"701307508","tag":{"amenity":"waste_basket","waste":"trash"}},"type":"Feature"},
	{"geometry":{"coordinates":[9.085263,54.091116],"type":"Point"},"properties":{"osm_id":"823545798","tag":{"amenity":"waste_basket"}},"type":"Feature"},
	{"geometry":{"coordinates":[9.066903,54.094103],"type":"Point"},"properties":{"osm_id":"886666621","tag":{"amenity":"waste_basket"}},"type":"Feature"},
	{"geometry":{"coordinates":[9.069461,54.094974],"type":"Point"},"properties":{"osm_id":"914025511","tag":{"amenity":"waste_basket"}},"type":"Feature"},
	{"geometry":{"coordinates":[9.069229,54.094433],"type":"Point"},"properties":{"osm_id":"914025538","tag":{"amenity":"waste_basket"}},"type":"Feature"},
	{"geometry":{"coordinates":[9.086249,54.087858],"type":"Point"},"properties":{"osm_id":"936989770","tag":{"amenity":"waste_basket"}},"type":"Feature"},
	{"geometry":{"coordinates":[9.063321,54.084375],"type":"Point"},"properties":{"osm_id":"974735494","tag":{"amenity":"recycling","check_date":"2021-04-20","operator":"Abfallwirtschaft Dithmarschen","recycling:glass_bottles":"yes","recycling_type":"container"}},"type":"Feature"},
	{"geometry":{"coordinates":[9.109032,54.072143],"type":"Point"},"properties":{"osm_id":"1376907493","tag":{"amenity":"recycling","operator":"Abfallwirtschaft Dithmarschen","recycling:glass_bottles":"yes","recycling_type":"container"}},"type":"Feature"},
	{"geometry":{"coordinates":[9.079459,54.090422],"type":"Point"},"properties":{"osm_id":"1425138327","tag":{"amenity":"recycling","check_date":"2021-04-20","operator":"Abfallwirtschaft Dithmarschen","recycling:glass_bottles":"yes","recycling_type":"container"}},"type":"Feature"},
	{"geometry":{"coordinates":[9.07118,54.090758],"type":"Point"},"properties":{"osm_id":"1426329053","tag":{"amenity":"waste_basket"}},"type":"Feature"},
	{"geometry":{"coordinates":[9.113135,54.089191],"type":"Point"},"properties":{"osm_id":"1434223352","tag":{"amenity":"recycling","check_date":"2021-07-15","operator":"Abfallwirtschaft Dithmarschen","recycling:glass_bottles":"yes","recycling_type":"container"}},"type":"Feature"},
	{"geometry":{"coordinates":[9.057431,54.104229],"type":"Point"},"properties":{"osm_id":"1471825422","tag":{"amenity":"recycling","operator":"Abfallwirtschaft Dithmarschen","recycling:glass_bottles":"yes","recycling_type":"container"}},"type":"Feature"},
	{"geometry":{"coordinates":[9.079444,54.090373],"type":"Point"},"properties":{"osm_id":"3193699159","tag":{"amenity":"recycling","check_date":"2021-04-20","operator":"East-West Textilrecycling Kursun","recycling:clothes":"yes","recycling_type":"container"}},"type":"Feature"},
	{"geometry":{"coordinates":[9.085039,54.091373],"type":"Point"},"properties":{"osm_id":"3337990930","tag":{"amenity":"recycling","check_date":"2021-05-08","operator":"hoelp","recycling:clothes":"yes","recycling_type":"container","website":"https://hoelp.de"}},"type":"Feature"},
	{"geometry":{"coordinates":[9.075574,54.096284],"type":"Point"},"properties":{"osm_id":"3337990931","tag":{"amenity":"recycling","check_date":"2021-05-01","operator":"Kolping","recycling:clothes":"yes","recycling_type":"container","website":"http://www.kolping-textilrecycling.de"}},"type":"Feature"},
	{"geometry":{"coordinates":[9.063351,54.084326],"type":"Point"},"properties":{"osm_id":"3433401945","tag":{"amenity":"recycling","check_date":"2021-04-20","operator":"hoelp","recycling:clothes":"yes","recycling_type":"container","website":"https://hoelp.de"}},"type":"Feature"},
	{"geometry":{"coordinates":[9.085881,54.091111],"type":"Point"},"properties":{"osm_id":"3604392777","tag":{"amenity":"recycling","check_date":"2021-05-08","operator":"hoelp","recycling:clothes":"yes","recycling_type":"container","website":"https://hoelp.de"}},"type":"Feature"},
	{"geometry":{"coordinates":[9.070409,54.098744],"type":"Point"},"properties":{"osm_id":"3621948226","tag":{"amenity":"recycling","check_date":"2021-05-01","operator":"hoelp","recycling:clothes":"yes","recycling_type":"container","website":"https://hoelp.de"}},"type":"Feature"},
	{"geometry":{"coordinates":[9.113173,54.089137],"type":"Point"},"properties":{"osm_id":"3726164822","tag":{"amenity":"recycling","operator":"AHG alpha Handelskontor","recycling:clothes":"yes","recycling_type":"container"}},"type":"Feature"},
	{"geometry":{"coordinates":[9.057377,54.104287],"type":"Point"},"properties":{"osm_id":"3726165136","tag":{"amenity":"recycling","operator":"Retextil Recycling International","recycling:clothes":"yes","recycling_type":"container","website":"https://www.re-textil.de"}},"type":"Feature"},
	{"geometry":{"coordinates":[9.057358,54.10431],"type":"Point"},"properties":{"osm_id":"3726165137","tag":{"amenity":"recycling","operator":"AHG alpha Handelskontor","recycling:clothes":"yes","recycling_type":"container"}},"type":"Feature"},
	{"geometry":{"coordinates":[9.088414,54.088938],"type":"Point"},"properties":{"osm_id":"5643653074","tag":{"amenity":"recycling","operator":"hoelp","recycling:clothes":"yes","recycling_type":"container","website":"https://hoelp.de"}},"type":"Feature"},
	{"geometry":{"coordinates":[9.088289,54.088915],"type":"Point"},"properties":{"osm_id":"5643653075","tag":{"amenity":"recycling","operator":"hoelp","recycling:clothes":"yes","recycling_type":"container","website":"https://hoelp.de"}},"type":"Feature"},
	{"geometry":{"coordinates":[9.073929,54.089104],"type":"Point"},"properties":{"osm_id":"5952027307","tag":{"amenity":"waste_basket"}},"type":"Feature"},
	{"geometry":{"coordinates":[9.071196,54.090358],"type":"Point"},"properties":{"osm_id":"5952027310","tag":{"amenity":"waste_basket"}},"type":"Feature"},
	{"geometry":{"coordinates":[9.07101,54.090511],"type":"Point"},"properties":{"osm_id":"5952027311","tag":{"amenity":"waste_basket"}},"type":"Feature"},
	{"geometry":{"coordinates":[9.07107,54.09012],"type":"Point"},"properties":{"osm_id":"5952027312","tag":{"amenity":"waste_basket"}},"type":"Feature"},
	{"geometry":{"coordinates":[9.069287,54.089754],"type":"Point"},"properties":{"osm_id":"6487716746","tag":{"amenity":"recycling","check_date":"2021-05-01","operator":"Deutsches Rotes Kreuz","recycling:clothes":"yes","recycling_type":"container"}},"type":"Feature"},
	{"geometry":{"coordinates":[9.07638,54.085662],"type":"Point"},"properties":{"osm_id":"8678087704","tag":{"amenity":"recycling","check_date":"2021-05-01","operator":"Humana","recycling:clothes":"yes","recycling_type":"container","website":"https://www.humana-kleidersammlung.de/"}},"type":"Feature"},
	{"geometry":{"coordinates":[9.076396,54.085702],"type":"Point"},"properties":{"osm_id":"8678087705","tag":{"amenity":"recycling","operator":"Abfallwirtschaft Dithmarschen","recycling:electrical_appliances":"no","recycling:glass_bottles":"yes","recycling:small_appliances":"yes","recycling_type":"container"}},"type":"Feature"},
	{"geometry":{"coordinates":[9.108988,54.072158],"type":"Point"},"properties":{"osm_id":"8711600979","tag":{"amenity":"recycling","check_date":"2021-05-01","operator":"Humana","recycling:clothes":"yes","recycling_type":"container","website":"https://www.humana-kleidersammlung.de/"}},"type":"Feature"}
]
}
