{
"type": "FeatureCollection",
"features": [
	{"geometry":{"coordinates":[9.111218,53.988562],"type":"Point"},"properties":{"osm_id":"895858024","tag":{"amenity":"recycling","operator":"Abfallwirtschaft Dithmarschen","recycling:glass_bottles":"yes","recycling_type":"container"}},"type":"Feature"},
	{"geometry":{"coordinates":[9.133171,53.997028],"type":"Point"},"properties":{"osm_id":"1357591039","tag":{"amenity":"recycling","operator":"Abfallwirtschaft Dithmarschen","recycling:glass_bottles":"yes","recycling_type":"container"}},"type":"Feature"},
	{"geometry":{"coordinates":[9.127635,53.956487],"type":"Point"},"properties":{"osm_id":"1722820853","tag":{"amenity":"recycling","operator":"Abfallwirtschaft Dithmarschen","recycling:glass_bottles":"yes","recycling_type":"container"}},"type":"Feature"},
	{"geometry":{"coordinates":[9.124087,53.99535],"type":"Point"},"properties":{"osm_id":"2179922355","tag":{"amenity":"recycling","operator":"Abfallwirtschaft Dithmarschen","recycling:glass_bottles":"yes","recycling_type":"container"}},"type":"Feature"},
	{"geometry":{"coordinates":[9.117466,53.989157],"type":"Point"},"properties":{"osm_id":"2271564341","tag":{"amenity":"waste_basket"}},"type":"Feature"},
	{"geometry":{"coordinates":[9.065097,53.965529],"type":"Point"},"properties":{"osm_id":"3146942610","tag":{"amenity":"recycling","operator":"Abfallwirtschaft Dithmarschen","recycling:glass_bottles":"yes","recycling_type":"container"}},"type":"Feature"},
	{"geometry":{"coordinates":[9.115166,53.984349],"type":"Point"},"properties":{"osm_id":"3149008486","tag":{"amenity":"recycling","operator":"hoelp","recycling:clothes":"yes","recycling_type":"container","website":"https://hoelp.de/"}},"type":"Feature"},
	{"geometry":{"coordinates":[9.114967,53.986848],"type":"Point"},"properties":{"osm_id":"3149008487","tag":{"amenity":"recycling","operator":"hoelp","recycling:clothes":"yes","recycling_type":"container","website":"https://hoelp.de/"}},"type":"Feature"},
	{"geometry":{"coordinates":[9.112219,53.987925],"type":"Point"},"properties":{"osm_id":"3149008490","tag":{"amenity":"recycling","operator":"Deutsches Rotes Kreuz","recycling:clothes":"yes","recycling_type":"container"}},"type":"Feature"},
	{"geometry":{"coordinates":[9.124155,53.995333],"type":"Point"},"properties":{"osm_id":"3149008491","tag":{"amenity":"recycling","operator":"Deutsches Rotes Kreuz","recycling:clothes":"yes","recycling_type":"container"}},"type":"Feature"},
	{"geometry":{"coordinates":[9.114876,53.99251],"type":"Point"},"properties":{"osm_id":"3349528159","tag":{"amenity":"recycling","operator":"Humana","recycling:clothes":"yes","recycling_type":"container","website":"https://www.humana-kleidersammlung.de/"}},"type":"Feature"},
	{"geometry":{"coordinates":[9.133146,53.997029],"type":"Point"},"properties":{"osm_id":"3630331076","tag":{"amenity":"recycling","operator":"Aktex Rohstoff-Recycling Nord","recycling:clothes":"yes","recycling_type":"container","website":"http://www.aktex-textilhandel.de"}},"type":"Feature"},
	{"geometry":{"coordinates":[9.114771,53.987046],"type":"Point"},"properties":{"osm_id":"3848587573","tag":{"amenity":"recycling","operator":"hoelp","recycling:clothes":"yes","recycling_type":"container","website":"https://hoelp.de/"}},"type":"Feature"},
	{"geometry":{"coordinates":[9.114976,53.986837],"type":"Point"},"properties":{"osm_id":"4759749285","tag":{"amenity":"recycling","operator":"Abfallwirtschaft Dithmarschen","recycling:electrical_appliances":"yes","recycling_type":"container"}},"type":"Feature"},
	{"geometry":{"coordinates":[9.117026,53.989361],"type":"Point"},"properties":{"osm_id":"4759749286","tag":{"amenity":"recycling","operator":"Deutsches Rotes Kreuz","recycling:clothes":"yes","recycling_type":"container"}},"type":"Feature"},
	{"geometry":{"coordinates":[9.119024,53.99391],"type":"Point"},"properties":{"osm_id":"7140895402","tag":{"amenity":"recycling","operator":"Wittman Recycling Service","recycling:clothes":"yes","recycling_type":"container","website":"https://www.wittmann-recycling.de/"}},"type":"Feature"}
]
}
