{
"type": "FeatureCollection",
"features": [
	{"geometry":{"coordinates":[9.093883,53.497401],"type":"Point"},"properties":{"osm_id":"450523443","tag":{"amenity":"recycling","recycling:clothes":"yes","recycling:glass_bottles":"yes","recycling_type":"container"}},"type":"Feature"},
	{"geometry":{"coordinates":[9.109585,53.500161],"type":"Point"},"properties":{"name":"Gr\u00c3\u00bcndeponie","osm_id":"496005579","tag":{"amenity":"recycling","operator":"Stadt Bremerv\u00c3\u00b6rde","recycling:green_waste":"yes","recycling:tv_monitor":"yes","recycling:wood":"yes","recycling_type":"centre"}},"type":"Feature"},
	{"geometry":{"coordinates":[9.114959,53.500942],"type":"Point"},"properties":{"name":"Recyclinghof Jacobs","osm_id":"660573582","tag":{"addr:city":"Bremerv\u00c3\u00b6rde","addr:housenumber":"10","addr:postcode":"27432","addr:street":"Hansestra\u00c3\u009fe","amenity":"recycling","operator":"Jacobs","recycling_type":"centre"}},"type":"Feature"},
	{"geometry":{"coordinates":[9.108099,53.501969],"type":"Point"},"properties":{"osm_id":"2314066853","tag":{"amenity":"recycling","recycling:clothes":"yes","recycling:glass_bottles":"yes","recycling_type":"container"}},"type":"Feature"},
	{"geometry":{"coordinates":[9.137139,53.510637],"type":"Point"},"properties":{"osm_id":"5186849047","tag":{"amenity":"recycling","recycling:clothes":"yes","recycling:glass_bottles":"yes","recycling_type":"container"}},"type":"Feature"},
	{"geometry":{"coordinates":[9.052844,53.52561],"type":"Point"},"properties":{"osm_id":"5187327155","tag":{"amenity":"recycling","recycling:clothes":"yes","recycling:glass_bottles":"yes","recycling_type":"container"}},"type":"Feature"},
	{"geometry":{"coordinates":[9.101404,53.497486],"type":"Point"},"properties":{"osm_id":"6733376540","tag":{"amenity":"recycling","recycling:glass_bottles":"yes","recycling_type":"container"}},"type":"Feature"},
	{"geometry":{"coordinates":[9.117087,53.49315],"type":"Point"},"properties":{"osm_id":"6733376541","tag":{"amenity":"recycling","recycling:clothes":"yes","recycling:glass_bottles":"yes","recycling_type":"container"}},"type":"Feature"},
	{"geometry":{"coordinates":[9.055111,53.525544],"type":"Point"},"properties":{"osm_id":"7486939125","tag":{"amenity":"waste_basket"}},"type":"Feature"}
]
}
