{
"type": "FeatureCollection",
"features": [
	{"geometry":{"coordinates":[9.073768,52.206856],"type":"Point"},"properties":{"osm_id":"1005515291","tag":{"amenity":"recycling","location":"overground","recycling:clothes":"yes","recycling:glass_bottles":"yes","recycling_type":"container"}},"type":"Feature"},
	{"geometry":{"coordinates":[9.08827,52.186094],"type":"Point"},"properties":{"osm_id":"1711042650","tag":{"amenity":"recycling","recycling:clothes":"yes","recycling:glass_bottles":"yes","recycling_type":"container"}},"type":"Feature"},
	{"geometry":{"coordinates":[9.082767,52.197747],"type":"Point"},"properties":{"osm_id":"2261612379","tag":{"amenity":"recycling","recycling:clothes":"yes","recycling_type":"container"}},"type":"Feature"},
	{"geometry":{"coordinates":[9.082646,52.197747],"type":"Point"},"properties":{"osm_id":"2261612380","tag":{"amenity":"recycling","disused":"yes","recycling:glass":"yes","recycling_type":"container"}},"type":"Feature"},
	{"geometry":{"coordinates":[9.065492,52.203306],"type":"Point"},"properties":{"osm_id":"3364599320","tag":{"amenity":"recycling","location":"overground","recycling:clothes":"yes","recycling:glass_bottles":"yes","recycling:shoes":"yes","recycling_type":"container"}},"type":"Feature"},
	{"geometry":{"coordinates":[9.069107,52.198296],"type":"Point"},"properties":{"osm_id":"3364599327","tag":{"amenity":"recycling","recycling:glass_bottles":"yes","recycling_type":"container"}},"type":"Feature"},
	{"geometry":{"coordinates":[9.083179,52.193347],"type":"Point"},"properties":{"osm_id":"4209336293","tag":{"amenity":"recycling","recycling:glass_bottles":"yes","recycling_type":"container"}},"type":"Feature"},
	{"geometry":{"coordinates":[9.083142,52.193336],"type":"Point"},"properties":{"osm_id":"4209336294","tag":{"amenity":"recycling","recycling:paper":"yes","recycling_type":"container"}},"type":"Feature"},
	{"geometry":{"coordinates":[9.08311,52.193329],"type":"Point"},"properties":{"osm_id":"4209336295","tag":{"amenity":"recycling","recycling:clothes":"yes","recycling_type":"container"}},"type":"Feature"},
	{"geometry":{"coordinates":[9.077011,52.184436],"type":"Point"},"properties":{"osm_id":"4555492652","tag":{"amenity":"waste_basket"}},"type":"Feature"},
	{"geometry":{"coordinates":[9.076905,52.184281],"type":"Point"},"properties":{"osm_id":"4555492660","tag":{"amenity":"waste_basket"}},"type":"Feature"},
	{"geometry":{"coordinates":[9.079539,52.189201],"type":"Point"},"properties":{"osm_id":"5342755470","tag":{"amenity":"waste_basket"}},"type":"Feature"},
	{"geometry":{"coordinates":[9.07941,52.1893],"type":"Point"},"properties":{"osm_id":"5342755471","tag":{"amenity":"waste_basket"}},"type":"Feature"},
	{"geometry":{"coordinates":[9.070332,52.210875],"type":"Point"},"properties":{"osm_id":"5810726539","tag":{"amenity":"waste_basket"}},"type":"Feature"},
	{"geometry":{"coordinates":[9.070567,52.210879],"type":"Point"},"properties":{"osm_id":"5810726541","tag":{"amenity":"waste_basket"}},"type":"Feature"},
	{"geometry":{"coordinates":[9.070715,52.210882],"type":"Point"},"properties":{"osm_id":"5810726543","tag":{"amenity":"waste_basket"}},"type":"Feature"},
	{"geometry":{"coordinates":[9.067874,52.210781],"type":"Point"},"properties":{"osm_id":"5810726546","tag":{"amenity":"waste_basket"}},"type":"Feature"},
	{"geometry":{"coordinates":[9.089507,52.193497],"type":"Point"},"properties":{"osm_id":"5876567672","tag":{"amenity":"waste_basket"}},"type":"Feature"},
	{"geometry":{"coordinates":[9.140217,52.202764],"type":"Point"},"properties":{"osm_id":"6345577745","tag":{"amenity":"recycling","opening_hours":"Mo-Sa 07:00-19:00","recycling:clothes":"yes","recycling:glass":"yes","recycling_type":"container","wheelchair":"limited"}},"type":"Feature"}
]
}
