{
"type": "FeatureCollection",
"features": [
	{"geometry":{"coordinates":[9.092075,51.858696],"type":"Point"},"properties":{"osm_id":"349048215","tag":{"amenity":"recycling","recycling:clothes":"yes","recycling_type":"container"}},"type":"Feature"},
	{"geometry":{"coordinates":[9.077228,51.871912],"type":"Point"},"properties":{"osm_id":"360757647","tag":{"amenity":"recycling","recycling:clothes":"yes","recycling:glass":"yes","recycling_type":"container"}},"type":"Feature"},
	{"geometry":{"coordinates":[9.08686,51.861867],"type":"Point"},"properties":{"osm_id":"416055303","tag":{"amenity":"recycling","recycling:clothes":"yes","recycling:glass":"yes","recycling_type":"container"}},"type":"Feature"},
	{"geometry":{"coordinates":[9.098293,51.873941],"type":"Point"},"properties":{"osm_id":"433064588","tag":{"amenity":"recycling","recycling:clothes":"yes","recycling:glass":"yes","recycling_type":"container"}},"type":"Feature"},
	{"geometry":{"coordinates":[9.087389,51.876919],"type":"Point"},"properties":{"osm_id":"440633924","tag":{"amenity":"recycling","operator":"Malteser","recycling:clothes":"yes","recycling_type":"container"}},"type":"Feature"},
	{"geometry":{"coordinates":[9.087854,51.867112],"type":"Point"},"properties":{"osm_id":"1762481535","tag":{"amenity":"recycling","recycling:glass_bottles":"yes","recycling_type":"container"}},"type":"Feature"},
	{"geometry":{"coordinates":[9.08787,51.867136],"type":"Point"},"properties":{"osm_id":"1762481536","tag":{"amenity":"recycling","recycling:clothes":"yes","recycling_type":"container"}},"type":"Feature"},
	{"geometry":{"coordinates":[9.091062,51.839279],"type":"Point"},"properties":{"osm_id":"1896527434","tag":{"amenity":"waste_basket"}},"type":"Feature"},
	{"geometry":{"coordinates":[9.092421,51.847628],"type":"Point"},"properties":{"osm_id":"1896527437","tag":{"amenity":"waste_basket"}},"type":"Feature"},
	{"geometry":{"coordinates":[9.095276,51.86362],"type":"Point"},"properties":{"osm_id":"4295055257","tag":{"amenity":"waste_basket"}},"type":"Feature"},
	{"geometry":{"coordinates":[9.087928,51.864008],"type":"Point"},"properties":{"osm_id":"5180627298","tag":{"amenity":"waste_basket"}},"type":"Feature"},
	{"geometry":{"coordinates":[9.130812,51.862689],"type":"Point"},"properties":{"name":"Beforth-Entsorgungs-GmbH & Co. KG","osm_id":"6159118734","tag":{"addr:housenumber":"57","addr:street":"Hagedorner Stra\u00c3\u009fe","amenity":"recycling","recycling_type":"centre","website":"https://www.beforth-entsorgung.de"}},"type":"Feature"}
]
}
