{
"type": "FeatureCollection",
"features": [
	{"geometry":{"coordinates":[9.114039,50.137776],"type":"Point"},"properties":{"osm_id":"260780624","tag":{"amenity":"recycling","recycling_type":"container"}},"type":"Feature"},
	{"geometry":{"coordinates":[9.109378,50.135796],"type":"Point"},"properties":{"osm_id":"262274540","tag":{"amenity":"recycling","recycling:glass_bottles":"yes","recycling:paper":"no","recycling_type":"container"}},"type":"Feature"},
	{"geometry":{"coordinates":[9.064886,50.135344],"type":"Point"},"properties":{"osm_id":"384936006","tag":{"amenity":"recycling","recycling:glass":"yes"}},"type":"Feature"},
	{"geometry":{"coordinates":[9.063986,50.136508],"type":"Point"},"properties":{"osm_id":"384936008","tag":{"amenity":"recycling","recycling:shoes":"yes"}},"type":"Feature"},
	{"geometry":{"coordinates":[9.058236,50.137922],"type":"Point"},"properties":{"osm_id":"431348985","tag":{"amenity":"recycling","recycling:shoes":"yes"}},"type":"Feature"},
	{"geometry":{"coordinates":[9.058246,50.140437],"type":"Point"},"properties":{"osm_id":"431348986","tag":{"amenity":"recycling","recycling:shoes":"yes","recycling_type":"container"}},"type":"Feature"},
	{"geometry":{"coordinates":[9.117539,50.138967],"type":"Point"},"properties":{"osm_id":"1691069041","tag":{"amenity":"recycling","recycling:glass_bottles":"yes","recycling_type":"container"}},"type":"Feature"},
	{"geometry":{"coordinates":[9.138596,50.15553],"type":"Point"},"properties":{"osm_id":"1726420292","tag":{"amenity":"recycling","recycling:glass":"yes","recycling:glass_bottles":"yes","recycling_type":"container"}},"type":"Feature"},
	{"geometry":{"coordinates":[9.124904,50.139991],"type":"Point"},"properties":{"osm_id":"1945981602","tag":{"amenity":"recycling","recycling:glass_bottles":"yes","recycling_type":"container"}},"type":"Feature"},
	{"geometry":{"coordinates":[9.110769,50.149199],"type":"Point"},"properties":{"osm_id":"2091947949","tag":{"amenity":"recycling","recycling:clothes":"yes","recycling_type":"container"}},"type":"Feature"},
	{"geometry":{"coordinates":[9.107792,50.154794],"type":"Point"},"properties":{"osm_id":"2783093990","tag":{"amenity":"recycling","recycling:glass_bottles":"yes","recycling_type":"container"}},"type":"Feature"},
	{"geometry":{"coordinates":[9.095053,50.164154],"type":"Point"},"properties":{"osm_id":"2981872734","tag":{"amenity":"recycling","recycling:glass_bottles":"yes","recycling_type":"container"}},"type":"Feature"},
	{"geometry":{"coordinates":[9.095864,50.162918],"type":"Point"},"properties":{"osm_id":"2981872738","tag":{"amenity":"recycling","recycling_type":"container"}},"type":"Feature"},
	{"geometry":{"coordinates":[9.094944,50.164913],"type":"Point"},"properties":{"osm_id":"2981872739","tag":{"amenity":"recycling","recycling:clothes":"yes","recycling_type":"container"}},"type":"Feature"},
	{"geometry":{"coordinates":[9.107823,50.139711],"type":"Point"},"properties":{"osm_id":"3296638778","tag":{"amenity":"recycling","recycling:glass_bottles":"yes","recycling_type":"container"}},"type":"Feature"},
	{"geometry":{"coordinates":[9.109709,50.148234],"type":"Point"},"properties":{"osm_id":"3296638779","tag":{"amenity":"recycling","recycling:clothes":"yes","recycling_type":"container"}},"type":"Feature"},
	{"geometry":{"coordinates":[9.091227,50.160516],"type":"Point"},"properties":{"osm_id":"3352646550","tag":{"amenity":"recycling","recycling:clothes":"yes","recycling_type":"container"}},"type":"Feature"},
	{"geometry":{"coordinates":[9.119034,50.157398],"type":"Point"},"properties":{"osm_id":"3644000343","tag":{"amenity":"waste_basket"}},"type":"Feature"},
	{"geometry":{"coordinates":[9.129671,50.165188],"type":"Point"},"properties":{"osm_id":"3815667749","tag":{"amenity":"recycling","recycling:glass_bottles":"yes","recycling_type":"container"}},"type":"Feature"},
	{"geometry":{"coordinates":[9.129684,50.165207],"type":"Point"},"properties":{"osm_id":"3815667750","tag":{"amenity":"recycling","recycling:clothes":"yes","recycling_type":"container"}},"type":"Feature"},
	{"geometry":{"coordinates":[9.123319,50.137058],"type":"Point"},"properties":{"osm_id":"3920629182","tag":{"amenity":"recycling","recycling:glass_bottles":"yes","recycling_type":"container"}},"type":"Feature"},
	{"geometry":{"coordinates":[9.056309,50.171765],"type":"Point"},"properties":{"osm_id":"4007656937","tag":{"amenity":"waste_basket","check_date":"2020-09-27"}},"type":"Feature"},
	{"geometry":{"coordinates":[9.119495,50.171165],"type":"Point"},"properties":{"osm_id":"4261130957","tag":{"amenity":"recycling","recycling:glass_bottles":"yes","recycling_type":"container"}},"type":"Feature"},
	{"geometry":{"coordinates":[9.119739,50.171386],"type":"Point"},"properties":{"osm_id":"4261130962","tag":{"amenity":"recycling","recycling:clothes":"yes","recycling:shoes":"yes","recycling_type":"container"}},"type":"Feature"},
	{"geometry":{"coordinates":[9.113501,50.142683],"type":"Point"},"properties":{"osm_id":"4668918893","tag":{"amenity":"recycling","recycling:glass_bottles":"yes","recycling_type":"container"}},"type":"Feature"},
	{"geometry":{"coordinates":[9.119552,50.163567],"type":"Point"},"properties":{"osm_id":"7112846961","tag":{"amenity":"waste_basket","waste":"trash"}},"type":"Feature"},
	{"geometry":{"coordinates":[9.109207,50.169359],"type":"Point"},"properties":{"osm_id":"7178817356","tag":{"amenity":"waste_basket","material":"metal","operator":"Gemeinde Hasselroth","waste":"trash"}},"type":"Feature"},
	{"geometry":{"coordinates":[9.111878,50.17686],"type":"Point"},"properties":{"osm_id":"7178817357","tag":{"amenity":"waste_basket","operator":"Gemeinde Hasselroth","waste":"dog"}},"type":"Feature"},
	{"geometry":{"coordinates":[9.109221,50.176172],"type":"Point"},"properties":{"osm_id":"7178817359","tag":{"amenity":"waste_basket","operator":"Gemeinde Hasselroth","waste":"dog"}},"type":"Feature"},
	{"geometry":{"coordinates":[9.069831,50.133054],"type":"Point"},"properties":{"osm_id":"7335825696","tag":{"amenity":"waste_basket","waste":"trash"}},"type":"Feature"},
	{"geometry":{"coordinates":[9.136589,50.140882],"type":"Point"},"properties":{"osm_id":"7465204078","tag":{"access":"yes","amenity":"waste_disposal","waste":"glass;dog_excrement"}},"type":"Feature"},
	{"geometry":{"coordinates":[9.136707,50.143772],"type":"Point"},"properties":{"osm_id":"7466026077","tag":{"access":"yes","amenity":"waste_disposal","waste":"glass"}},"type":"Feature"}
]
}
