{
"type": "FeatureCollection",
"features": [
	{"geometry":{"coordinates":[9.064173,50.014129],"type":"Point"},"properties":{"osm_id":"27313199","tag":{"amenity":"recycling"}},"type":"Feature"},
	{"geometry":{"coordinates":[9.135003,50.026766],"type":"Point"},"properties":{"osm_id":"584067797","tag":{"amenity":"recycling","recycling:clothes":"yes"}},"type":"Feature"},
	{"geometry":{"coordinates":[9.080264,50.025656],"type":"Point"},"properties":{"osm_id":"600913321","tag":{"amenity":"waste_basket"}},"type":"Feature"},
	{"geometry":{"coordinates":[9.06125,50.038846],"type":"Point"},"properties":{"osm_id":"676795071","tag":{"amenity":"waste_basket"}},"type":"Feature"},
	{"geometry":{"coordinates":[9.091924,50.038035],"type":"Point"},"properties":{"osm_id":"685542120","tag":{"amenity":"waste_basket"}},"type":"Feature"},
	{"geometry":{"coordinates":[9.067845,50.033017],"type":"Point"},"properties":{"osm_id":"685542162","tag":{"amenity":"waste_basket"}},"type":"Feature"},
	{"geometry":{"coordinates":[9.076016,50.039771],"type":"Point"},"properties":{"osm_id":"685589411","tag":{"amenity":"waste_basket"}},"type":"Feature"},
	{"geometry":{"coordinates":[9.077611,50.053749],"type":"Point"},"properties":{"osm_id":"988920907","tag":{"amenity":"waste_basket"}},"type":"Feature"},
	{"geometry":{"coordinates":[9.135449,50.027656],"type":"Point"},"properties":{"osm_id":"1296765246","tag":{"amenity":"waste_basket"}},"type":"Feature"},
	{"geometry":{"coordinates":[9.137965,50.029248],"type":"Point"},"properties":{"osm_id":"1296765524","tag":{"amenity":"waste_basket"}},"type":"Feature"},
	{"geometry":{"coordinates":[9.109367,50.038375],"type":"Point"},"properties":{"osm_id":"3323034843","tag":{"amenity":"recycling"}},"type":"Feature"},
	{"geometry":{"coordinates":[9.115637,50.021194],"type":"Point"},"properties":{"osm_id":"3445702119","tag":{"amenity":"recycling","recycling_type":"container","source:position":"gesch\u00c3\u00a4tzt mit Ortskenntnis"}},"type":"Feature"},
	{"geometry":{"coordinates":[9.068668,50.051579],"type":"Point"},"properties":{"osm_id":"3919482271","tag":{"amenity":"recycling","recycling:aluminium":"yes","recycling:clothes":"yes","recycling:clothes:operator":"Malteser","recycling:glass":"yes","recycling_type":"container"}},"type":"Feature"},
	{"geometry":{"coordinates":[9.070158,50.060772],"type":"Point"},"properties":{"osm_id":"6031966170","tag":{"amenity":"waste_basket"}},"type":"Feature"},
	{"geometry":{"coordinates":[9.111986,50.049181],"type":"Point"},"properties":{"osm_id":"6088017034","tag":{"amenity":"waste_basket"}},"type":"Feature"},
	{"geometry":{"coordinates":[9.077799,50.053513],"type":"Point"},"properties":{"osm_id":"6374563095","tag":{"amenity":"recycling","clothes":"yes","glass":"yes"}},"type":"Feature"},
	{"geometry":{"coordinates":[9.11861,50.063647],"type":"Point"},"properties":{"osm_id":"7196051849","tag":{"amenity":"waste_basket","waste":"trash"}},"type":"Feature"}
]
}
