{
"type": "FeatureCollection",
"features": [
	{"geometry":{"coordinates":[9.070234,49.996713],"type":"Point"},"properties":{"osm_id":"27313274","tag":{"amenity":"recycling","recycling:cans":"yes","recycling:glass":"yes","recycling:glass_bottles":"yes","recycling_type":"container"}},"type":"Feature"},
	{"geometry":{"coordinates":[9.076995,49.999346],"type":"Point"},"properties":{"osm_id":"27313275","tag":{"amenity":"recycling"}},"type":"Feature"},
	{"geometry":{"coordinates":[9.055337,50.005633],"type":"Point"},"properties":{"osm_id":"27446673","tag":{"amenity":"recycling"}},"type":"Feature"},
	{"geometry":{"coordinates":[9.110632,49.978482],"type":"Point"},"properties":{"osm_id":"30705555","tag":{"amenity":"recycling","recycling_type":"centre"}},"type":"Feature"},
	{"geometry":{"coordinates":[9.063465,50.003286],"type":"Point"},"properties":{"osm_id":"30705557","tag":{"amenity":"recycling","location":"overground","recycling_type":"container"}},"type":"Feature"},
	{"geometry":{"coordinates":[9.113603,49.987981],"type":"Point"},"properties":{"osm_id":"30850130","tag":{"amenity":"recycling","recycling:cans":"yes","recycling:glass_bottles":"yes","recycling_type":"container"}},"type":"Feature"},
	{"geometry":{"coordinates":[9.071529,49.981809],"type":"Point"},"properties":{"osm_id":"34976300","tag":{"amenity":"recycling"}},"type":"Feature"},
	{"geometry":{"coordinates":[9.113838,49.959335],"type":"Point"},"properties":{"osm_id":"251171129","tag":{"amenity":"recycling","recycling:cans":"yes","recycling:glass_bottles":"yes","recycling_type":"container"}},"type":"Feature"},
	{"geometry":{"coordinates":[9.119509,49.965555],"type":"Point"},"properties":{"osm_id":"251182765","tag":{"amenity":"recycling","recycling:cans":"yes","recycling:clothes":"yes","recycling:glass_bottles":"yes","recycling:small_appliances":"yes","recycling_type":"container"}},"type":"Feature"},
	{"geometry":{"coordinates":[9.125305,49.961251],"type":"Point"},"properties":{"osm_id":"251317237","tag":{"amenity":"recycling","recycling:cans":"yes","recycling:clothes":"yes","recycling:glass_bottles":"yes","recycling_type":"container"}},"type":"Feature"},
	{"geometry":{"coordinates":[9.109739,49.989936],"type":"Point"},"properties":{"osm_id":"260756007","tag":{"amenity":"recycling","recycling:cans":"yes","recycling:clothes":"yes","recycling:glass_bottles":"yes","recycling_type":"container"}},"type":"Feature"},
	{"geometry":{"coordinates":[9.072733,49.98486],"type":"Point"},"properties":{"osm_id":"266559210","tag":{"amenity":"recycling"}},"type":"Feature"},
	{"geometry":{"coordinates":[9.122537,49.962609],"type":"Point"},"properties":{"osm_id":"266897652","tag":{"amenity":"recycling","recycling:cans":"yes","recycling:clothes":"yes","recycling:glass_bottles":"yes","recycling_type":"container"}},"type":"Feature"},
	{"geometry":{"coordinates":[9.118824,49.961649],"type":"Point"},"properties":{"osm_id":"267164322","tag":{"amenity":"recycling","recycling:cans":"yes","recycling:glass_bottles":"yes","recycling_type":"container"}},"type":"Feature"},
	{"geometry":{"coordinates":[9.060306,49.971159],"type":"Point"},"properties":{"osm_id":"276882324","tag":{"amenity":"recycling"}},"type":"Feature"},
	{"geometry":{"coordinates":[9.065176,49.968194],"type":"Point"},"properties":{"osm_id":"277061358","tag":{"amenity":"recycling"}},"type":"Feature"},
	{"geometry":{"coordinates":[9.075675,49.969929],"type":"Point"},"properties":{"osm_id":"286013093","tag":{"amenity":"recycling","recycling:cans":"yes","recycling:clothes":"yes","recycling:glass":"yes"}},"type":"Feature"},
	{"geometry":{"coordinates":[9.059572,49.979863],"type":"Point"},"properties":{"osm_id":"286968829","tag":{"amenity":"recycling","recycling:clothes":"yes","recycling:glass":"yes"}},"type":"Feature"},
	{"geometry":{"coordinates":[9.089541,49.98208],"type":"Point"},"properties":{"osm_id":"316189094","tag":{"amenity":"recycling","recycling:glass":"yes"}},"type":"Feature"},
	{"geometry":{"coordinates":[9.119049,49.980795],"type":"Point"},"properties":{"osm_id":"330700724","tag":{"amenity":"recycling"}},"type":"Feature"},
	{"geometry":{"coordinates":[9.062334,49.977197],"type":"Point"},"properties":{"osm_id":"460518845","tag":{"amenity":"waste_basket"}},"type":"Feature"},
	{"geometry":{"coordinates":[9.062325,49.97728],"type":"Point"},"properties":{"osm_id":"460518847","tag":{"amenity":"waste_basket"}},"type":"Feature"},
	{"geometry":{"coordinates":[9.062424,49.977209],"type":"Point"},"properties":{"osm_id":"460518852","tag":{"amenity":"waste_basket"}},"type":"Feature"},
	{"geometry":{"coordinates":[9.070633,49.984516],"type":"Point"},"properties":{"osm_id":"480425853","tag":{"amenity":"recycling","recycling:cans":"yes","recycling:glass":"yes"}},"type":"Feature"},
	{"geometry":{"coordinates":[9.060569,49.99938],"type":"Point"},"properties":{"osm_id":"577248621","tag":{"amenity":"waste_basket"}},"type":"Feature"},
	{"geometry":{"coordinates":[9.059875,49.999988],"type":"Point"},"properties":{"osm_id":"577250552","tag":{"amenity":"recycling","recycling:cans":"yes","recycling:clothes":"yes","recycling:glass":"yes"}},"type":"Feature"},
	{"geometry":{"coordinates":[9.114742,49.973158],"type":"Point"},"properties":{"osm_id":"632664062","tag":{"amenity":"recycling","recycling:cans":"yes","recycling:glass_bottles":"yes","recycling_type":"container"}},"type":"Feature"},
	{"geometry":{"coordinates":[9.127088,49.975453],"type":"Point"},"properties":{"osm_id":"648960420","tag":{"amenity":"waste_basket"}},"type":"Feature"},
	{"geometry":{"coordinates":[9.126874,49.975894],"type":"Point"},"properties":{"osm_id":"648960426","tag":{"amenity":"waste_basket"}},"type":"Feature"},
	{"geometry":{"coordinates":[9.133062,49.976204],"type":"Point"},"properties":{"osm_id":"648960494","tag":{"amenity":"waste_basket"}},"type":"Feature"},
	{"geometry":{"coordinates":[9.134907,49.975779],"type":"Point"},"properties":{"osm_id":"648960503","tag":{"amenity":"waste_basket"}},"type":"Feature"},
	{"geometry":{"coordinates":[9.135641,49.975441],"type":"Point"},"properties":{"osm_id":"648960524","tag":{"amenity":"waste_basket"}},"type":"Feature"},
	{"geometry":{"coordinates":[9.131742,49.974478],"type":"Point"},"properties":{"osm_id":"648991031","tag":{"amenity":"recycling","recycling:cans":"yes","recycling:glass_bottles":"yes","recycling_type":"container"}},"type":"Feature"},
	{"geometry":{"coordinates":[9.133401,49.977721],"type":"Point"},"properties":{"osm_id":"656180892","tag":{"amenity":"waste_basket"}},"type":"Feature"},
	{"geometry":{"coordinates":[9.134232,49.977448],"type":"Point"},"properties":{"osm_id":"656180898","tag":{"amenity":"waste_basket"}},"type":"Feature"},
	{"geometry":{"coordinates":[9.134445,49.977407],"type":"Point"},"properties":{"osm_id":"656180900","tag":{"amenity":"waste_basket"}},"type":"Feature"},
	{"geometry":{"coordinates":[9.134654,49.977379],"type":"Point"},"properties":{"osm_id":"656180904","tag":{"amenity":"waste_basket"}},"type":"Feature"},
	{"geometry":{"coordinates":[9.13494,49.978092],"type":"Point"},"properties":{"osm_id":"656180937","tag":{"amenity":"waste_basket"}},"type":"Feature"},
	{"geometry":{"coordinates":[9.132235,49.978009],"type":"Point"},"properties":{"osm_id":"656184626","tag":{"amenity":"waste_basket"}},"type":"Feature"},
	{"geometry":{"coordinates":[9.105634,49.975635],"type":"Point"},"properties":{"osm_id":"656260559","tag":{"amenity":"waste_basket"}},"type":"Feature"},
	{"geometry":{"coordinates":[9.139549,49.976599],"type":"Point"},"properties":{"osm_id":"662049353","tag":{"amenity":"waste_basket"}},"type":"Feature"},
	{"geometry":{"coordinates":[9.136023,49.977487],"type":"Point"},"properties":{"osm_id":"662063175","tag":{"amenity":"waste_basket"}},"type":"Feature"},
	{"geometry":{"coordinates":[9.103701,49.972602],"type":"Point"},"properties":{"osm_id":"674886883","tag":{"amenity":"recycling","recycling:cans":"yes","recycling:glass_bottles":"yes","recycling_type":"container"}},"type":"Feature"},
	{"geometry":{"coordinates":[9.11369,49.974111],"type":"Point"},"properties":{"osm_id":"674886906","tag":{"amenity":"waste_basket"}},"type":"Feature"},
	{"geometry":{"coordinates":[9.124016,49.974765],"type":"Point"},"properties":{"osm_id":"674886916","tag":{"amenity":"recycling","recycling:cans":"yes","recycling:clothes":"yes","recycling:glass_bottles":"yes","recycling:small_appliances":"yes","recycling_type":"container"}},"type":"Feature"},
	{"geometry":{"coordinates":[9.138558,49.966031],"type":"Point"},"properties":{"osm_id":"685117170","tag":{"amenity":"waste_basket"}},"type":"Feature"},
	{"geometry":{"coordinates":[9.139138,49.966102],"type":"Point"},"properties":{"osm_id":"685121991","tag":{"amenity":"recycling","recycling:cans":"yes","recycling:glass_bottles":"yes","recycling_type":"container"}},"type":"Feature"},
	{"geometry":{"coordinates":[9.113583,49.99697],"type":"Point"},"properties":{"osm_id":"747156267","tag":{"amenity":"waste_basket"}},"type":"Feature"},
	{"geometry":{"coordinates":[9.062655,49.978337],"type":"Point"},"properties":{"osm_id":"796880644","tag":{"amenity":"waste_basket"}},"type":"Feature"},
	{"geometry":{"coordinates":[9.097607,49.961013],"type":"Point"},"properties":{"osm_id":"1235134630","tag":{"amenity":"waste_basket"}},"type":"Feature"},
	{"geometry":{"coordinates":[9.098597,49.963367],"type":"Point"},"properties":{"osm_id":"1235134654","tag":{"amenity":"waste_basket"}},"type":"Feature"},
	{"geometry":{"coordinates":[9.097454,49.959196],"type":"Point"},"properties":{"osm_id":"1235158067","tag":{"amenity":"waste_basket"}},"type":"Feature"},
	{"geometry":{"coordinates":[9.098955,49.956607],"type":"Point"},"properties":{"osm_id":"1235158074","tag":{"amenity":"waste_basket"}},"type":"Feature"},
	{"geometry":{"coordinates":[9.09676,49.956547],"type":"Point"},"properties":{"osm_id":"1235158107","tag":{"amenity":"waste_basket"}},"type":"Feature"},
	{"geometry":{"coordinates":[9.101937,49.964485],"type":"Point"},"properties":{"osm_id":"1235190037","tag":{"amenity":"waste_basket"}},"type":"Feature"},
	{"geometry":{"coordinates":[9.103677,49.960952],"type":"Point"},"properties":{"osm_id":"1235190045","tag":{"amenity":"waste_basket"}},"type":"Feature"},
	{"geometry":{"coordinates":[9.104288,49.959568],"type":"Point"},"properties":{"osm_id":"1235190052","tag":{"amenity":"waste_basket"}},"type":"Feature"},
	{"geometry":{"coordinates":[9.100475,49.963677],"type":"Point"},"properties":{"osm_id":"1235190085","tag":{"amenity":"waste_basket"}},"type":"Feature"},
	{"geometry":{"coordinates":[9.098774,49.954652],"type":"Point"},"properties":{"osm_id":"1380292860","tag":{"amenity":"waste_basket"}},"type":"Feature"},
	{"geometry":{"coordinates":[9.108013,49.954774],"type":"Point"},"properties":{"osm_id":"1380292879","tag":{"amenity":"waste_basket"}},"type":"Feature"},
	{"geometry":{"coordinates":[9.109446,49.955637],"type":"Point"},"properties":{"osm_id":"1380292897","tag":{"amenity":"waste_basket"}},"type":"Feature"},
	{"geometry":{"coordinates":[9.111701,49.955699],"type":"Point"},"properties":{"osm_id":"1380292899","tag":{"amenity":"waste_basket"}},"type":"Feature"},
	{"geometry":{"coordinates":[9.10984,49.955699],"type":"Point"},"properties":{"osm_id":"1380292910","tag":{"amenity":"waste_basket"}},"type":"Feature"},
	{"geometry":{"coordinates":[9.111561,49.955733],"type":"Point"},"properties":{"osm_id":"1380292912","tag":{"amenity":"waste_basket"}},"type":"Feature"},
	{"geometry":{"coordinates":[9.083268,49.963714],"type":"Point"},"properties":{"name":"Stix Stra\u00c3\u009fenbau","osm_id":"1486245676","tag":{"amenity":"recycling"}},"type":"Feature"},
	{"geometry":{"coordinates":[9.110918,49.959229],"type":"Point"},"properties":{"osm_id":"1503463166","tag":{"amenity":"waste_basket"}},"type":"Feature"},
	{"geometry":{"coordinates":[9.109092,49.956436],"type":"Point"},"properties":{"osm_id":"1827606809","tag":{"amenity":"waste_basket"}},"type":"Feature"},
	{"geometry":{"coordinates":[9.119025,49.972155],"type":"Point"},"properties":{"osm_id":"2090474856","tag":{"amenity":"recycling","recycling:cans":"yes","recycling:glass_bottles":"yes","recycling_type":"container"}},"type":"Feature"},
	{"geometry":{"coordinates":[9.132896,49.978752],"type":"Point"},"properties":{"osm_id":"2270924932","tag":{"amenity":"recycling","recycling:cans":"yes","recycling:clothes":"yes","recycling:glass_bottles":"yes","recycling_type":"container"}},"type":"Feature"},
	{"geometry":{"coordinates":[9.137052,49.987207],"type":"Point"},"properties":{"osm_id":"2596654911","tag":{"amenity":"waste_basket"}},"type":"Feature"},
	{"geometry":{"coordinates":[9.139408,49.987214],"type":"Point"},"properties":{"osm_id":"2596654914","tag":{"amenity":"waste_basket"}},"type":"Feature"},
	{"geometry":{"coordinates":[9.137885,49.987262],"type":"Point"},"properties":{"osm_id":"2596654947","tag":{"amenity":"waste_basket"}},"type":"Feature"},
	{"geometry":{"coordinates":[9.136458,49.986244],"type":"Point"},"properties":{"osm_id":"2599750182","tag":{"amenity":"waste_basket"}},"type":"Feature"},
	{"geometry":{"coordinates":[9.122238,49.986816],"type":"Point"},"properties":{"osm_id":"2599750186","tag":{"amenity":"waste_basket"}},"type":"Feature"},
	{"geometry":{"coordinates":[9.130389,49.988198],"type":"Point"},"properties":{"osm_id":"2599750244","tag":{"amenity":"waste_basket"}},"type":"Feature"},
	{"geometry":{"coordinates":[9.128235,49.988323],"type":"Point"},"properties":{"osm_id":"2599750252","tag":{"amenity":"waste_basket"}},"type":"Feature"},
	{"geometry":{"coordinates":[9.113643,49.983433],"type":"Point"},"properties":{"osm_id":"2599807068","tag":{"amenity":"recycling","recycling:cans":"yes","recycling:glass_bottles":"yes","recycling_type":"container"}},"type":"Feature"},
	{"geometry":{"coordinates":[9.120543,49.986328],"type":"Point"},"properties":{"osm_id":"2599807168","tag":{"amenity":"waste_basket"}},"type":"Feature"},
	{"geometry":{"coordinates":[9.125989,49.98423],"type":"Point"},"properties":{"highway":"street_lamp","osm_id":"2599871761","tag":{"amenity":"waste_basket"}},"type":"Feature"},
	{"geometry":{"coordinates":[9.120147,49.985063],"type":"Point"},"properties":{"osm_id":"2599871843","tag":{"amenity":"recycling","recycling:cans":"yes","recycling:glass_bottles":"yes","recycling_type":"container"}},"type":"Feature"},
	{"geometry":{"coordinates":[9.123983,49.986123],"type":"Point"},"properties":{"osm_id":"2599871919","tag":{"amenity":"waste_basket"}},"type":"Feature"},
	{"geometry":{"coordinates":[9.139877,49.9827],"type":"Point"},"properties":{"osm_id":"2599936607","tag":{"amenity":"recycling","recycling:cans":"yes","recycling:glass_bottles":"yes","recycling_type":"container"}},"type":"Feature"},
	{"geometry":{"coordinates":[9.065858,49.980976],"type":"Point"},"properties":{"osm_id":"2851816064","tag":{"amenity":"waste_basket"}},"type":"Feature"},
	{"geometry":{"coordinates":[9.1063,49.960519],"type":"Point"},"properties":{"osm_id":"3467857182","tag":{"amenity":"waste_basket"}},"type":"Feature"},
	{"geometry":{"coordinates":[9.106811,49.960798],"type":"Point"},"properties":{"osm_id":"3467857185","tag":{"amenity":"waste_basket"}},"type":"Feature"},
	{"geometry":{"coordinates":[9.115994,49.957028],"type":"Point"},"properties":{"osm_id":"3577096355","tag":{"amenity":"recycling","recycling:cans":"yes","recycling:clothes":"yes","recycling:glass_bottles":"yes","recycling:small_appliances":"yes","recycling_type":"container"}},"type":"Feature"},
	{"geometry":{"coordinates":[9.119814,49.960199],"type":"Point"},"properties":{"osm_id":"3686910355","tag":{"amenity":"recycling","recycling:cans":"yes","recycling:glass_bottles":"yes","recycling_type":"container"}},"type":"Feature"},
	{"geometry":{"coordinates":[9.118384,49.957694],"type":"Point"},"properties":{"osm_id":"3687746699","tag":{"amenity":"recycling","recycling:cans":"yes","recycling:glass_bottles":"yes","recycling_type":"container"}},"type":"Feature"},
	{"geometry":{"coordinates":[9.122744,49.964348],"type":"Point"},"properties":{"osm_id":"3701571728","tag":{"amenity":"recycling","recycling:cans":"yes","recycling:glass_bottles":"yes","recycling_type":"container"}},"type":"Feature"},
	{"geometry":{"coordinates":[9.117025,49.975847],"type":"Point"},"properties":{"osm_id":"3771702127","tag":{"amenity":"recycling","recycling:cans":"yes","recycling:clothes":"yes","recycling:glass_bottles":"yes","recycling_type":"container"}},"type":"Feature"},
	{"geometry":{"coordinates":[9.123934,49.973483],"type":"Point"},"properties":{"osm_id":"3835671994","tag":{"amenity":"recycling","recycling:cans":"yes","recycling:glass_bottles":"yes","recycling_type":"container"}},"type":"Feature"},
	{"geometry":{"coordinates":[9.061182,49.99847],"type":"Point"},"properties":{"osm_id":"3856279836","tag":{"amenity":"waste_basket","waste":"dog_excrement"}},"type":"Feature"},
	{"geometry":{"coordinates":[9.066076,49.988045],"type":"Point"},"properties":{"osm_id":"3856279837","tag":{"amenity":"waste_basket","waste":"dog_excrement"}},"type":"Feature"},
	{"geometry":{"coordinates":[9.118066,49.995281],"type":"Point"},"properties":{"osm_id":"3883361227","tag":{"amenity":"waste_disposal"}},"type":"Feature"},
	{"geometry":{"coordinates":[9.101685,49.990676],"type":"Point"},"properties":{"osm_id":"3883368877","tag":{"amenity":"waste_disposal"}},"type":"Feature"},
	{"geometry":{"coordinates":[9.115815,49.969798],"type":"Point"},"properties":{"osm_id":"3885869655","tag":{"amenity":"recycling","recycling:cans":"yes","recycling:clothes":"yes","recycling:glass_bottles":"yes","recycling:small_appliances":"yes","recycling_type":"container"}},"type":"Feature"},
	{"geometry":{"coordinates":[9.118022,49.991779],"type":"Point"},"properties":{"osm_id":"3898599486","tag":{"amenity":"recycling","recycling:cans":"yes","recycling:clothes":"yes","recycling:glass_bottles":"yes","recycling_type":"container"}},"type":"Feature"},
	{"geometry":{"coordinates":[9.11899,49.988091],"type":"Point"},"properties":{"osm_id":"3964578596","tag":{"amenity":"recycling","recycling:cans":"yes","recycling:glass_bottles":"yes","recycling:small_appliances":"yes","recycling_type":"container"}},"type":"Feature"},
	{"geometry":{"coordinates":[9.140458,49.986366],"type":"Point"},"properties":{"osm_id":"4146161134","tag":{"amenity":"waste_basket"}},"type":"Feature"},
	{"geometry":{"coordinates":[9.124686,49.986954],"type":"Point"},"properties":{"osm_id":"4206965649","tag":{"amenity":"waste_basket"}},"type":"Feature"},
	{"geometry":{"coordinates":[9.123743,49.98382],"type":"Point"},"properties":{"osm_id":"4217287804","tag":{"amenity":"recycling","recycling:cans":"yes","recycling:clothes":"yes","recycling:glass_bottles":"yes","recycling_type":"container"}},"type":"Feature"},
	{"geometry":{"coordinates":[9.131822,49.984242],"type":"Point"},"properties":{"osm_id":"4267724499","tag":{"amenity":"recycling","recycling:cans":"yes","recycling:clothes":"yes","recycling:glass_bottles":"yes","recycling:small_appliances":"yes","recycling_type":"container"}},"type":"Feature"},
	{"geometry":{"coordinates":[9.132787,49.985703],"type":"Point"},"properties":{"osm_id":"4284034753","tag":{"amenity":"recycling","recycling:cans":"yes","recycling:glass_bottles":"yes","recycling_type":"container"}},"type":"Feature"},
	{"geometry":{"coordinates":[9.135614,49.990766],"type":"Point"},"properties":{"osm_id":"4328998208","tag":{"amenity":"recycling","recycling:cans":"yes","recycling:clothes":"yes","recycling:glass_bottles":"yes","recycling_type":"container"}},"type":"Feature"},
	{"geometry":{"coordinates":[9.085919,49.991064],"type":"Point"},"properties":{"barrier":"gate","osm_id":"4404855661"},"type":"Feature"},
	{"geometry":{"coordinates":[9.118042,49.99516],"type":"Point"},"properties":{"osm_id":"4683113505","tag":{"amenity":"waste_disposal"}},"type":"Feature"},
	{"geometry":{"coordinates":[9.118509,49.995245],"type":"Point"},"properties":{"osm_id":"4683113506","tag":{"amenity":"waste_disposal"}},"type":"Feature"},
	{"geometry":{"coordinates":[9.101897,49.990902],"type":"Point"},"properties":{"osm_id":"4683139610","tag":{"amenity":"waste_disposal"}},"type":"Feature"},
	{"geometry":{"coordinates":[9.101411,49.990842],"type":"Point"},"properties":{"osm_id":"4683139611","tag":{"amenity":"waste_disposal"}},"type":"Feature"},
	{"geometry":{"coordinates":[9.061685,49.975447],"type":"Point"},"properties":{"osm_id":"5707473132","tag":{"amenity":"waste_basket","description":"Der Papierkorb ist wirklich mitten auf dem Weg, befestigt an einem Gel\u00c3\u00a4nder...."}},"type":"Feature"},
	{"geometry":{"coordinates":[9.061378,49.975891],"type":"Point"},"properties":{"osm_id":"5713580122","tag":{"amenity":"waste_basket","description":"Der Papierkorb ist wirklich mitten auf dem Gehweg, befestigt an einem Gel\u00c3\u00a4nder...."}},"type":"Feature"},
	{"geometry":{"coordinates":[9.070485,49.998887],"type":"Point"},"properties":{"osm_id":"5714532396","tag":{"amenity":"waste_basket","waste":"dog_excrement"}},"type":"Feature"},
	{"geometry":{"coordinates":[9.082257,50.00032],"type":"Point"},"properties":{"osm_id":"5714532840","tag":{"amenity":"waste_basket","waste":"dog_excrement"}},"type":"Feature"},
	{"geometry":{"coordinates":[9.076861,49.999955],"type":"Point"},"properties":{"osm_id":"5717972911","tag":{"amenity":"waste_basket","waste":"dog_excrement"}},"type":"Feature"},
	{"geometry":{"coordinates":[9.140547,49.980528],"type":"Point"},"properties":{"osm_id":"6172437286","tag":{"amenity":"waste_disposal"}},"type":"Feature"},
	{"geometry":{"coordinates":[9.058355,49.984031],"type":"Point"},"properties":{"osm_id":"7884329372","tag":{"amenity":"waste_basket","waste":"trash"}},"type":"Feature"}
]
}
