{
"type": "FeatureCollection",
"features": [
	{"geometry":{"coordinates":[9.062836,49.913051],"type":"Point"},"properties":{"osm_id":"278983035","tag":{"amenity":"recycling","colour":"white","opening_hours":"Mo-Sa 07:00-20:00","opening_hours:covid19":"same","recycling:glass_bottles":"yes","recycling_type":"container"}},"type":"Feature"},
	{"geometry":{"coordinates":[9.137337,49.911016],"type":"Point"},"properties":{"osm_id":"281927516","tag":{"amenity":"recycling","recycling:glass_bottles":"yes","recycling_type":"container"}},"type":"Feature"},
	{"geometry":{"coordinates":[9.130841,49.91892],"type":"Point"},"properties":{"osm_id":"281929315","tag":{"amenity":"recycling","location":"overground","recycling:glass_bottles":"yes","recycling_type":"container"}},"type":"Feature"},
	{"geometry":{"coordinates":[9.05829,49.905515],"type":"Point"},"properties":{"osm_id":"373392829","tag":{"amenity":"recycling"}},"type":"Feature"},
	{"geometry":{"coordinates":[9.140348,49.944189],"type":"Point"},"properties":{"osm_id":"599221484","tag":{"amenity":"waste_basket"}},"type":"Feature"},
	{"geometry":{"coordinates":[9.131021,49.937931],"type":"Point"},"properties":{"osm_id":"599226400","tag":{"amenity":"recycling","recycling:cans":"yes","recycling:glass":"yes"}},"type":"Feature"},
	{"geometry":{"coordinates":[9.135245,49.935121],"type":"Point"},"properties":{"osm_id":"599226405","tag":{"amenity":"waste_basket"}},"type":"Feature"},
	{"geometry":{"coordinates":[9.132558,49.938476],"type":"Point"},"properties":{"osm_id":"599226432","tag":{"amenity":"waste_basket"}},"type":"Feature"},
	{"geometry":{"coordinates":[9.134267,49.938613],"type":"Point"},"properties":{"osm_id":"599226441","tag":{"amenity":"waste_basket"}},"type":"Feature"},
	{"geometry":{"coordinates":[9.14029,49.930998],"type":"Point"},"properties":{"osm_id":"611672107","tag":{"amenity":"recycling","recycling:cans":"yes","recycling:clothes":"yes","recycling:electrical_appliances":"yes","recycling:glass_bottles":"yes","recycling_type":"container"}},"type":"Feature"},
	{"geometry":{"coordinates":[9.069991,49.931223],"type":"Point"},"properties":{"osm_id":"630745114","tag":{"amenity":"waste_basket"}},"type":"Feature"},
	{"geometry":{"coordinates":[9.126984,49.939478],"type":"Point"},"properties":{"osm_id":"632249658","tag":{"amenity":"recycling","recycling:cans":"yes","recycling:glass":"yes"}},"type":"Feature"},
	{"geometry":{"coordinates":[9.089685,49.949375],"type":"Point"},"properties":{"barrier":"gate","osm_id":"1352394841"},"type":"Feature"},
	{"geometry":{"coordinates":[9.132982,49.912907],"type":"Point"},"properties":{"osm_id":"2885430929","tag":{"amenity":"recycling","recycling:clothes":"yes","recycling:glass_bottles":"yes","recycling_type":"container"}},"type":"Feature"},
	{"geometry":{"coordinates":[9.136137,49.922812],"type":"Point"},"properties":{"name":"Schredderplatz","osm_id":"2885452508","tag":{"amenity":"recycling"}},"type":"Feature"},
	{"geometry":{"coordinates":[9.135375,49.905632],"type":"Point"},"properties":{"osm_id":"2885452521","tag":{"amenity":"recycling","recycling:glass_bottles":"yes","recycling_type":"container"}},"type":"Feature"},
	{"geometry":{"coordinates":[9.13946,49.914767],"type":"Point"},"properties":{"osm_id":"2885452522","tag":{"amenity":"recycling","recycling:clothes":"yes","recycling:glass_bottles":"yes","recycling_type":"container"}},"type":"Feature"},
	{"geometry":{"coordinates":[9.139458,49.9217],"type":"Point"},"properties":{"osm_id":"2885452523","tag":{"amenity":"recycling","recycling:glass":"yes","recycling:glass_bottles":"yes","recycling_type":"container"}},"type":"Feature"},
	{"geometry":{"coordinates":[9.132817,49.932787],"type":"Point"},"properties":{"osm_id":"3467948283","tag":{"amenity":"waste_basket"}},"type":"Feature"},
	{"geometry":{"coordinates":[9.132385,49.933001],"type":"Point"},"properties":{"osm_id":"3467948288","tag":{"amenity":"waste_basket"}},"type":"Feature"},
	{"geometry":{"coordinates":[9.132007,49.933167],"type":"Point"},"properties":{"osm_id":"3467948696","tag":{"amenity":"waste_basket"}},"type":"Feature"},
	{"geometry":{"coordinates":[9.131589,49.933347],"type":"Point"},"properties":{"osm_id":"3467948702","tag":{"amenity":"waste_basket"}},"type":"Feature"},
	{"geometry":{"coordinates":[9.131282,49.933475],"type":"Point"},"properties":{"osm_id":"3467948705","tag":{"amenity":"waste_basket"}},"type":"Feature"},
	{"geometry":{"coordinates":[9.130996,49.933583],"type":"Point"},"properties":{"osm_id":"3467948707","tag":{"amenity":"waste_basket"}},"type":"Feature"},
	{"geometry":{"coordinates":[9.137003,49.930517],"type":"Point"},"properties":{"osm_id":"3471321419","tag":{"amenity":"waste_basket"}},"type":"Feature"},
	{"geometry":{"coordinates":[9.134541,49.931982],"type":"Point"},"properties":{"osm_id":"3471321436","tag":{"amenity":"waste_basket"}},"type":"Feature"},
	{"geometry":{"coordinates":[9.133642,49.932421],"type":"Point"},"properties":{"osm_id":"3471321449","tag":{"amenity":"waste_basket"}},"type":"Feature"},
	{"geometry":{"coordinates":[9.133057,49.932692],"type":"Point"},"properties":{"osm_id":"3471321454","tag":{"amenity":"waste_basket"}},"type":"Feature"},
	{"geometry":{"coordinates":[9.078794,49.917723],"type":"Point"},"properties":{"osm_id":"4461182248","tag":{"amenity":"waste_basket"}},"type":"Feature"},
	{"geometry":{"coordinates":[9.076144,49.919432],"type":"Point"},"properties":{"osm_id":"4461189531","tag":{"amenity":"waste_basket","material":"metal","waste":"trash"}},"type":"Feature"},
	{"geometry":{"coordinates":[9.076277,49.919501],"type":"Point"},"properties":{"osm_id":"4461189532","tag":{"amenity":"waste_basket","waste":"dog_excrement"}},"type":"Feature"},
	{"geometry":{"coordinates":[9.076402,49.919511],"type":"Point"},"properties":{"osm_id":"4461189533","tag":{"amenity":"waste_basket","material":"metal","waste":"trash"}},"type":"Feature"},
	{"geometry":{"coordinates":[9.070842,49.917124],"type":"Point"},"properties":{"osm_id":"4461206990","tag":{"amenity":"waste_basket"}},"type":"Feature"},
	{"geometry":{"coordinates":[9.067239,49.918437],"type":"Point"},"properties":{"osm_id":"4461216570","tag":{"amenity":"waste_basket"}},"type":"Feature"},
	{"geometry":{"coordinates":[9.06285,49.913052],"type":"Point"},"properties":{"osm_id":"4461221934","tag":{"amenity":"recycling","colour":"white","opening_hours":"Mo-Sa 07:00-20:00","opening_hours:covid19":"same","recycling:glass_bottles":"yes","recycling_type":"container"}},"type":"Feature"},
	{"geometry":{"coordinates":[9.062865,49.913053],"type":"Point"},"properties":{"osm_id":"4461221935","tag":{"amenity":"recycling","colour":"brown","opening_hours":"Mo-Sa 07:00-20:00","opening_hours:covid19":"same","recycling:glass_bottles":"yes","recycling_type":"container"}},"type":"Feature"},
	{"geometry":{"coordinates":[9.062879,49.913054],"type":"Point"},"properties":{"osm_id":"4461221936","tag":{"amenity":"recycling","colour":"green","opening_hours":"Mo-Sa 07:00-20:00","opening_hours:covid19":"same","recycling:glass_bottles":"yes","recycling_type":"container"}},"type":"Feature"},
	{"geometry":{"coordinates":[9.062831,49.913097],"type":"Point"},"properties":{"osm_id":"4461221937","tag":{"amenity":"recycling","recycling:clothes":"yes","recycling_type":"container"}},"type":"Feature"},
	{"geometry":{"coordinates":[9.062879,49.913102],"type":"Point"},"properties":{"osm_id":"4461221938","tag":{"amenity":"recycling","opening_hours":"Mo-Sa 07:00-20:00","opening_hours:covid19":"same","recycling:clothes":"yes","recycling_type":"container"}},"type":"Feature"},
	{"geometry":{"coordinates":[9.062848,49.913099],"type":"Point"},"properties":{"osm_id":"4461221939","tag":{"amenity":"recycling","opening_hours":"Mo-Sa 07:00-20:00","opening_hours:covid19":"same","recycling:cans":"yes","recycling_type":"container"}},"type":"Feature"},
	{"geometry":{"coordinates":[9.062863,49.913101],"type":"Point"},"properties":{"osm_id":"4461221940","tag":{"amenity":"recycling","opening_hours":"Mo-Sa 07:00-20:00","opening_hours:covid19":"same","recycling:cans":"yes","recycling_type":"container"}},"type":"Feature"},
	{"geometry":{"coordinates":[9.066222,49.915322],"type":"Point"},"properties":{"osm_id":"4461222704","tag":{"amenity":"recycling","recycling:clothes":"yes","recycling_type":"container"}},"type":"Feature"},
	{"geometry":{"coordinates":[9.066198,49.915342],"type":"Point"},"properties":{"osm_id":"4461222705","tag":{"amenity":"recycling","recycling:clothes":"yes","recycling_type":"container"}},"type":"Feature"},
	{"geometry":{"coordinates":[9.065243,49.920285],"type":"Point"},"properties":{"osm_id":"4461229210","tag":{"amenity":"waste_basket"}},"type":"Feature"},
	{"geometry":{"coordinates":[9.066163,49.91925],"type":"Point"},"properties":{"osm_id":"4461288500","tag":{"amenity":"waste_basket"}},"type":"Feature"},
	{"geometry":{"coordinates":[9.134073,49.932207],"type":"Point"},"properties":{"osm_id":"4786663052","tag":{"amenity":"waste_basket"}},"type":"Feature"},
	{"geometry":{"coordinates":[9.057268,49.905107],"type":"Point"},"properties":{"osm_id":"5578529447","tag":{"amenity":"recycling","opening_hours":"Mo-Sa 07:00-20:00","opening_hours:covid19":"same","recycling:glass_bottles":"yes","recycling_type":"container"}},"type":"Feature"},
	{"geometry":{"coordinates":[9.057224,49.905131],"type":"Point"},"properties":{"osm_id":"5578529448","tag":{"amenity":"recycling","opening_hours":"Mo-Sa 07:00-20:00","opening_hours:covid19":"same","recycling:clothes":"yes","recycling_type":"container"}},"type":"Feature"},
	{"geometry":{"coordinates":[9.130708,49.918871],"type":"Point"},"properties":{"osm_id":"5604317406","tag":{"amenity":"waste_basket"}},"type":"Feature"},
	{"geometry":{"coordinates":[9.13991,49.902723],"type":"Point"},"properties":{"osm_id":"5873154298","tag":{"amenity":"waste_basket"}},"type":"Feature"},
	{"geometry":{"coordinates":[9.063399,49.943286],"type":"Point"},"properties":{"osm_id":"7894011096","tag":{"amenity":"recycling","recycling_type":"container"}},"type":"Feature"},
	{"geometry":{"coordinates":[9.063362,49.943314],"type":"Point"},"properties":{"osm_id":"7894011097","tag":{"amenity":"recycling","recycling_type":"container"}},"type":"Feature"},
	{"geometry":{"coordinates":[9.063333,49.943352],"type":"Point"},"properties":{"osm_id":"7894011098","tag":{"amenity":"recycling","recycling_type":"container"}},"type":"Feature"},
	{"geometry":{"coordinates":[9.063294,49.943388],"type":"Point"},"properties":{"osm_id":"7894011099","tag":{"amenity":"recycling","recycling_type":"container"}},"type":"Feature"},
	{"geometry":{"coordinates":[9.063273,49.943427],"type":"Point"},"properties":{"osm_id":"7894011100","tag":{"amenity":"recycling","recycling_type":"container"}},"type":"Feature"},
	{"geometry":{"coordinates":[9.063242,49.943477],"type":"Point"},"properties":{"osm_id":"7894011101","tag":{"amenity":"recycling","recycling_type":"container"}},"type":"Feature"},
	{"geometry":{"coordinates":[9.063192,49.943497],"type":"Point"},"properties":{"osm_id":"7894011102","tag":{"amenity":"recycling","recycling_type":"container"}},"type":"Feature"},
	{"geometry":{"coordinates":[9.063175,49.943532],"type":"Point"},"properties":{"osm_id":"7894011103","tag":{"amenity":"recycling","recycling:cardboard":"yes","recycling:paper":"yes","recycling_type":"container"}},"type":"Feature"},
	{"geometry":{"coordinates":[9.063139,49.943554],"type":"Point"},"properties":{"osm_id":"7894011104","tag":{"amenity":"recycling","recycling:cardboard":"yes","recycling:paper":"yes","recycling_type":"container"}},"type":"Feature"},
	{"geometry":{"coordinates":[9.063106,49.943591],"type":"Point"},"properties":{"osm_id":"7894011105","tag":{"amenity":"recycling","recycling_type":"container"}},"type":"Feature"},
	{"geometry":{"coordinates":[9.063333,49.943243],"type":"Point"},"properties":{"osm_id":"7894011106","tag":{"amenity":"recycling","recycling_type":"container"}},"type":"Feature"},
	{"geometry":{"coordinates":[9.063254,49.943326],"type":"Point"},"properties":{"osm_id":"7894011107","tag":{"amenity":"recycling","recycling_type":"container"}},"type":"Feature"},
	{"geometry":{"coordinates":[9.063433,49.94323],"type":"Point"},"properties":{"osm_id":"7894011108","tag":{"amenity":"recycling","recycling_type":"container"}},"type":"Feature"},
	{"geometry":{"coordinates":[9.059697,49.909321],"type":"Point"},"properties":{"osm_id":"7951376911","tag":{"amenity":"waste_basket","waste":"trash"}},"type":"Feature"}
]
}
