{
"type": "FeatureCollection",
"features": [
	{"geometry":{"coordinates":[9.13583,49.837032],"type":"Point"},"properties":{"osm_id":"307838176","tag":{"amenity":"recycling","opening_hours":"Mo-Sa 07:00-20:00","recycling:clothes":"yes","recycling:glass_bottles":"yes","recycling_type":"container"}},"type":"Feature"},
	{"geometry":{"coordinates":[9.11363,49.833242],"type":"Point"},"properties":{"osm_id":"674735108","tag":{"amenity":"recycling","recycling:clothes":"yes","recycling:glass_bottles":"yes","recycling_type":"container"}},"type":"Feature"},
	{"geometry":{"coordinates":[9.073582,49.785574],"type":"Point"},"properties":{"osm_id":"1025991178","tag":{"amenity":"recycling","recycling:batteries":"yes","recycling:clothes":"yes","recycling:glass":"yes","recycling:glass_bottles":"yes","recycling:shoes":"yes"}},"type":"Feature"},
	{"geometry":{"coordinates":[9.111842,49.832379],"type":"Point"},"properties":{"osm_id":"1079124171","tag":{"amenity":"recycling","operator":"Mission in der Einen Welt e.V.","recycling:clothes":"yes","recycling:shoes":"yes","recycling_type":"container"}},"type":"Feature"},
	{"geometry":{"coordinates":[9.106521,49.837687],"type":"Point"},"properties":{"osm_id":"1200334389","tag":{"amenity":"recycling","opening_hours":"7:00-20:00","operator":"Werner","recycling:glass_bottles":"yes","recycling_type":"container"}},"type":"Feature"},
	{"geometry":{"coordinates":[9.106559,49.837679],"type":"Point"},"properties":{"osm_id":"1200334437","tag":{"amenity":"recycling","operator":"Kolping","recycling:clothes":"yes","recycling:shoes":"yes","recycling_type":"container"}},"type":"Feature"},
	{"geometry":{"coordinates":[9.107681,49.834296],"type":"Point"},"properties":{"osm_id":"1409135256","tag":{"amenity":"recycling","opening_hours":"Mo-Sa 07:00-20:00","operator":"Werner","recycling:glass_bottles":"yes","recycling_type":"container"}},"type":"Feature"},
	{"geometry":{"coordinates":[9.107722,49.834326],"type":"Point"},"properties":{"osm_id":"1409135257","tag":{"amenity":"recycling","recycling:clothes":"yes","recycling_type":"container"}},"type":"Feature"},
	{"geometry":{"coordinates":[9.127658,49.837858],"type":"Point"},"properties":{"osm_id":"3614907948","tag":{"amenity":"recycling","recycling:glass_bottles":"yes","recycling_type":"container"}},"type":"Feature"},
	{"geometry":{"coordinates":[9.119427,49.832683],"type":"Point"},"properties":{"osm_id":"4018673856","tag":{"amenity":"recycling","recycling:glass_bottles":"yes","recycling:small_appliances":"yes","recycling_type":"container"}},"type":"Feature"},
	{"geometry":{"coordinates":[9.127185,49.835007],"type":"Point"},"properties":{"osm_id":"4216021692","tag":{"amenity":"recycling","collection_times":"Mo-Sa 07:00-20:00; Su,PH off","recycling:clothes":"yes","recycling:clothes:operator":"Bayerisches Rotes Kreuz","recycling:glass_bottles":"yes","recycling_type":"container"}},"type":"Feature"},
	{"geometry":{"coordinates":[9.12206,49.823294],"type":"Point"},"properties":{"osm_id":"4734062175","tag":{"amenity":"waste_basket"}},"type":"Feature"},
	{"geometry":{"coordinates":[9.110727,49.790509],"type":"Point"},"properties":{"osm_id":"4734062182","tag":{"amenity":"waste_basket"}},"type":"Feature"},
	{"geometry":{"coordinates":[9.130454,49.822098],"type":"Point"},"properties":{"osm_id":"5609823424","tag":{"amenity":"waste_basket"}},"type":"Feature"},
	{"geometry":{"coordinates":[9.112419,49.831867],"type":"Point"},"properties":{"osm_id":"5647122688","tag":{"amenity":"waste_basket"}},"type":"Feature"},
	{"geometry":{"coordinates":[9.110918,49.831661],"type":"Point"},"properties":{"osm_id":"5794082455","tag":{"amenity":"waste_basket"}},"type":"Feature"},
	{"geometry":{"coordinates":[9.12574,49.829458],"type":"Point"},"properties":{"osm_id":"7055453604","tag":{"amenity":"waste_basket"}},"type":"Feature"},
	{"geometry":{"coordinates":[9.137206,49.786804],"type":"Point"},"properties":{"osm_id":"7560861551","tag":{"amenity":"waste_basket"}},"type":"Feature"}
]
}
