{
"type": "FeatureCollection",
"features": [
	{"geometry":{"coordinates":[9.12583,49.321157],"type":"Point"},"properties":{"osm_id":"618610040","tag":{"amenity":"recycling","recycling:batteries":"yes","recycling:clothes":"yes","recycling:glass":"yes","recycling_type":"container"}},"type":"Feature"},
	{"geometry":{"coordinates":[9.133272,49.283857],"type":"Point"},"properties":{"osm_id":"971113645","tag":{"amenity":"recycling","recycling:clothes":"yes","recycling:glass":"yes","recycling:shoes":"yes","recycling_type":"container"}},"type":"Feature"},
	{"geometry":{"coordinates":[9.077019,49.27167],"type":"Point"},"properties":{"name":"Recyclinghof","osm_id":"1181073427","tag":{"amenity":"recycling","recycling_type":"centre"}},"type":"Feature"},
	{"geometry":{"coordinates":[9.078416,49.268532],"type":"Point"},"properties":{"osm_id":"1631383042","tag":{"amenity":"waste_basket"}},"type":"Feature"},
	{"geometry":{"coordinates":[9.084229,49.269013],"type":"Point"},"properties":{"osm_id":"1631383083","tag":{"amenity":"waste_basket"}},"type":"Feature"},
	{"geometry":{"coordinates":[9.082386,49.269493],"type":"Point"},"properties":{"osm_id":"1631383099","tag":{"amenity":"waste_basket"}},"type":"Feature"},
	{"geometry":{"coordinates":[9.086252,49.272499],"type":"Point"},"properties":{"osm_id":"1631383150","tag":{"amenity":"waste_basket"}},"type":"Feature"},
	{"geometry":{"coordinates":[9.06314,49.316858],"type":"Point"},"properties":{"osm_id":"1642284335","tag":{"amenity":"waste_basket"}},"type":"Feature"},
	{"geometry":{"coordinates":[9.066218,49.318537],"type":"Point"},"properties":{"osm_id":"1642284344","tag":{"amenity":"waste_basket"}},"type":"Feature"},
	{"geometry":{"coordinates":[9.059236,49.309917],"type":"Point"},"properties":{"osm_id":"1656139358","tag":{"amenity":"waste_basket"}},"type":"Feature"},
	{"geometry":{"coordinates":[9.12095,49.316773],"type":"Point"},"properties":{"osm_id":"1656139410","tag":{"amenity":"waste_basket"}},"type":"Feature"},
	{"geometry":{"coordinates":[9.119563,49.277852],"type":"Point"},"properties":{"osm_id":"1887608160","tag":{"amenity":"waste_basket"}},"type":"Feature"},
	{"geometry":{"coordinates":[9.113981,49.271217],"type":"Point"},"properties":{"osm_id":"1887610686","tag":{"amenity":"waste_basket"}},"type":"Feature"},
	{"geometry":{"coordinates":[9.114138,49.271278],"type":"Point"},"properties":{"osm_id":"1887610687","tag":{"amenity":"waste_basket"}},"type":"Feature"},
	{"geometry":{"coordinates":[9.114041,49.271476],"type":"Point"},"properties":{"osm_id":"1887610691","tag":{"amenity":"waste_basket"}},"type":"Feature"},
	{"geometry":{"coordinates":[9.114101,49.271512],"type":"Point"},"properties":{"osm_id":"1887610692","tag":{"amenity":"waste_basket"}},"type":"Feature"},
	{"geometry":{"coordinates":[9.114087,49.271512],"type":"Point"},"properties":{"osm_id":"1887610693","tag":{"amenity":"waste_basket"}},"type":"Feature"},
	{"geometry":{"coordinates":[9.132919,49.29671],"type":"Point"},"properties":{"osm_id":"1994411956","tag":{"amenity":"waste_basket"}},"type":"Feature"},
	{"geometry":{"coordinates":[9.134174,49.296954],"type":"Point"},"properties":{"osm_id":"1994411957","tag":{"amenity":"waste_basket"}},"type":"Feature"},
	{"geometry":{"coordinates":[9.090209,49.268162],"type":"Point"},"properties":{"osm_id":"2130372100","tag":{"amenity":"waste_basket"}},"type":"Feature"},
	{"geometry":{"coordinates":[9.089849,49.270358],"type":"Point"},"properties":{"osm_id":"2130372449","tag":{"amenity":"waste_basket"}},"type":"Feature"},
	{"geometry":{"coordinates":[9.081694,49.270205],"type":"Point"},"properties":{"osm_id":"2131092636","tag":{"amenity":"waste_basket"}},"type":"Feature"},
	{"geometry":{"coordinates":[9.081518,49.270248],"type":"Point"},"properties":{"osm_id":"2131092644","tag":{"amenity":"waste_basket"}},"type":"Feature"},
	{"geometry":{"coordinates":[9.08692,49.272053],"type":"Point"},"properties":{"osm_id":"2131092868","tag":{"amenity":"waste_basket"}},"type":"Feature"},
	{"geometry":{"coordinates":[9.085213,49.272089],"type":"Point"},"properties":{"osm_id":"2131092877","tag":{"amenity":"waste_basket"}},"type":"Feature"},
	{"geometry":{"coordinates":[9.084207,49.272116],"type":"Point"},"properties":{"osm_id":"2131092884","tag":{"amenity":"waste_basket"}},"type":"Feature"},
	{"geometry":{"coordinates":[9.086927,49.272194],"type":"Point"},"properties":{"osm_id":"2131092904","tag":{"amenity":"waste_basket"}},"type":"Feature"},
	{"geometry":{"coordinates":[9.138227,49.279833],"type":"Point"},"properties":{"osm_id":"2147877234","tag":{"amenity":"waste_basket"}},"type":"Feature"},
	{"geometry":{"coordinates":[9.083933,49.288608],"type":"Point"},"properties":{"osm_id":"2181560612","tag":{"amenity":"waste_basket"}},"type":"Feature"},
	{"geometry":{"coordinates":[9.085368,49.291608],"type":"Point"},"properties":{"osm_id":"2181560615","tag":{"amenity":"waste_basket"}},"type":"Feature"},
	{"geometry":{"coordinates":[9.10906,49.320684],"type":"Point"},"properties":{"osm_id":"3152771928","tag":{"amenity":"recycling"}},"type":"Feature"},
	{"geometry":{"coordinates":[9.133087,49.282911],"type":"Point"},"properties":{"osm_id":"3282490874","tag":{"amenity":"waste_basket"}},"type":"Feature"},
	{"geometry":{"coordinates":[9.133141,49.283035],"type":"Point"},"properties":{"osm_id":"3282490881","tag":{"amenity":"waste_basket"}},"type":"Feature"},
	{"geometry":{"coordinates":[9.081897,49.290321],"type":"Point"},"properties":{"osm_id":"3399653898","tag":{"amenity":"waste_basket"}},"type":"Feature"},
	{"geometry":{"coordinates":[9.089949,49.292922],"type":"Point"},"properties":{"osm_id":"3407460419","tag":{"amenity":"recycling","recycling:cans":"yes","recycling:clothes":"yes","recycling:glass":"yes","recycling:paper":"yes","recycling_type":"container"}},"type":"Feature"},
	{"geometry":{"coordinates":[9.06733,49.320129],"type":"Point"},"properties":{"osm_id":"3407460624","tag":{"amenity":"waste_basket"}},"type":"Feature"},
	{"geometry":{"coordinates":[9.06727,49.320886],"type":"Point"},"properties":{"osm_id":"3420354497","tag":{"amenity":"recycling","mapillary":"Sr_A77IJ5IlTUmE8Hk8JsQ","recycling:clothes":"yes","recycling:glass":"no","recycling:glass_bottles":"yes","recycling_type":"container","survey:date":"2019-12-24"}},"type":"Feature"},
	{"geometry":{"coordinates":[9.102441,49.293688],"type":"Point"},"properties":{"osm_id":"3421757843","tag":{"amenity":"waste_basket"}},"type":"Feature"},
	{"geometry":{"coordinates":[9.088106,49.301403],"type":"Point"},"properties":{"osm_id":"3421757865","tag":{"amenity":"waste_basket"}},"type":"Feature"},
	{"geometry":{"coordinates":[9.096553,49.304726],"type":"Point"},"properties":{"osm_id":"3421757877","tag":{"amenity":"waste_basket"}},"type":"Feature"},
	{"geometry":{"coordinates":[9.057987,49.316886],"type":"Point"},"properties":{"osm_id":"3454121537","tag":{"amenity":"waste_basket"}},"type":"Feature"},
	{"geometry":{"coordinates":[9.057903,49.318442],"type":"Point"},"properties":{"osm_id":"3561173835","tag":{"amenity":"waste_basket"}},"type":"Feature"},
	{"geometry":{"coordinates":[9.087572,49.288041],"type":"Point"},"properties":{"osm_id":"3610880295","tag":{"amenity":"waste_basket"}},"type":"Feature"},
	{"geometry":{"coordinates":[9.070741,49.320637],"type":"Point"},"properties":{"osm_id":"3760306423","tag":{"amenity":"waste_basket"}},"type":"Feature"},
	{"geometry":{"coordinates":[9.134459,49.318161],"type":"Point"},"properties":{"osm_id":"4212034771","tag":{"amenity":"waste_basket"}},"type":"Feature"},
	{"geometry":{"coordinates":[9.086739,49.291108],"type":"Point"},"properties":{"osm_id":"7226251362","tag":{"amenity":"waste_basket","waste":"trash"}},"type":"Feature"}
]
}
