{
"type": "FeatureCollection",
"features": [
	{"geometry":{"coordinates":[9.135206,49.104627],"type":"Point"},"properties":{"osm_id":"290497483","tag":{"amenity":"recycling","mapillary":"JhLNktHGZK9gdkoiIYnOeQ","recycling:glass":"no","recycling:glass_bottles":"yes","recycling:paper":"yes","recycling_type":"container","survey:date":"2018-10-14"}},"type":"Feature"},
	{"geometry":{"coordinates":[9.129081,49.110762],"type":"Point"},"properties":{"osm_id":"540741660","tag":{"amenity":"recycling","recycling:glass":"yes","recycling:paper":"yes","recycling_type":"container"}},"type":"Feature"},
	{"geometry":{"coordinates":[9.127149,49.145154],"type":"Point"},"properties":{"osm_id":"942776468","tag":{"amenity":"recycling","recycling_type":"container"}},"type":"Feature"},
	{"geometry":{"coordinates":[9.102337,49.101918],"type":"Point"},"properties":{"osm_id":"1222269228","tag":{"amenity":"recycling","recycling:clothes":"yes","recycling:glass":"yes","recycling:paper":"yes","recycling_type":"container"}},"type":"Feature"},
	{"geometry":{"coordinates":[9.115489,49.102178],"type":"Point"},"properties":{"osm_id":"1222414472","tag":{"amenity":"waste_basket"}},"type":"Feature"},
	{"geometry":{"coordinates":[9.062553,49.111268],"type":"Point"},"properties":{"osm_id":"1324069644","tag":{"amenity":"waste_basket"}},"type":"Feature"},
	{"geometry":{"coordinates":[9.067861,49.112399],"type":"Point"},"properties":{"osm_id":"1324069653","tag":{"amenity":"waste_basket"}},"type":"Feature"},
	{"geometry":{"coordinates":[9.117211,49.135047],"type":"Point"},"properties":{"osm_id":"1419481237","tag":{"amenity":"recycling","recycling_type":"container"}},"type":"Feature"},
	{"geometry":{"coordinates":[9.129395,49.111956],"type":"Point"},"properties":{"barrier":"gate","osm_id":"1574557391","tag":{"bicycle":"no","foot":"no"}},"type":"Feature"},
	{"geometry":{"coordinates":[9.129049,49.112026],"type":"Point"},"properties":{"barrier":"gate","osm_id":"1574557403","tag":{"bicycle":"no","foot":"no"}},"type":"Feature"},
	{"geometry":{"coordinates":[9.060735,49.142436],"type":"Point"},"properties":{"osm_id":"1656430131","tag":{"amenity":"recycling","recycling:glass":"yes","recycling_type":"container"}},"type":"Feature"},
	{"geometry":{"coordinates":[9.108367,49.128639],"type":"Point"},"properties":{"osm_id":"1773765579","tag":{"amenity":"waste_basket"}},"type":"Feature"},
	{"geometry":{"coordinates":[9.108281,49.128672],"type":"Point"},"properties":{"osm_id":"1773765580","tag":{"amenity":"waste_basket"}},"type":"Feature"},
	{"geometry":{"coordinates":[9.061463,49.138941],"type":"Point"},"properties":{"osm_id":"1864203209","tag":{"amenity":"recycling","recycling_type":"container"}},"type":"Feature"},
	{"geometry":{"coordinates":[9.080696,49.135749],"type":"Point"},"properties":{"osm_id":"2271849804","tag":{"entrance":"yes"}},"type":"Feature"},
	{"geometry":{"coordinates":[9.111933,49.12078],"type":"Point"},"properties":{"osm_id":"2301659329","tag":{"amenity":"waste_basket"}},"type":"Feature"},
	{"geometry":{"coordinates":[9.122156,49.105602],"type":"Point"},"properties":{"osm_id":"2459282812","tag":{"amenity":"recycling","opening_hours":"Mo-Sa 07:00-20:00; PH off","recycling:cans":"yes","recycling:glass":"yes","recycling:paper":"yes","recycling_type":"container"}},"type":"Feature"},
	{"geometry":{"coordinates":[9.056628,49.149128],"type":"Point"},"properties":{"osm_id":"3179321665","tag":{"amenity":"recycling","recycling:clothes":"yes","recycling:glass":"yes","recycling:paper":"yes"}},"type":"Feature"},
	{"geometry":{"coordinates":[9.056634,49.149223],"type":"Point"},"properties":{"osm_id":"3179321667","tag":{"amenity":"recycling","recycling:clothes":"yes"}},"type":"Feature"},
	{"geometry":{"coordinates":[9.102409,49.101835],"type":"Point"},"properties":{"osm_id":"3436906421","tag":{"amenity":"recycling","recycling:clothes":"yes","recycling_type":"container"}},"type":"Feature"},
	{"geometry":{"coordinates":[9.110366,49.144834],"type":"Point"},"properties":{"osm_id":"3437565249","tag":{"amenity":"recycling","recycling:clothes":"yes","recycling_type":"container"}},"type":"Feature"},
	{"geometry":{"coordinates":[9.122573,49.108664],"type":"Point"},"properties":{"osm_id":"4033357196","tag":{"amenity":"recycling","recycling_type":"container"}},"type":"Feature"},
	{"geometry":{"coordinates":[9.119522,49.106794],"type":"Point"},"properties":{"osm_id":"5645755390","tag":{"amenity":"waste_basket","waste":"trash"}},"type":"Feature"},
	{"geometry":{"coordinates":[9.11965,49.105962],"type":"Point"},"properties":{"osm_id":"5645764058","tag":{"amenity":"recycling","opening_hours":"24/7","operator":"Thomas Doll GmbH","recycling:clothes":"yes","recycling:shoes":"yes","recycling_type":"container"}},"type":"Feature"},
	{"geometry":{"coordinates":[9.130121,49.105805],"type":"Point"},"properties":{"osm_id":"6389071091","tag":{"amenity":"recycling","recycling:clothes":"yes","recycling_type":"container"}},"type":"Feature"},
	{"geometry":{"coordinates":[9.128206,49.102119],"type":"Point"},"properties":{"osm_id":"6594190674","tag":{"amenity":"recycling","recycling:glass_bottles":"yes","recycling_type":"container"}},"type":"Feature"},
	{"geometry":{"coordinates":[9.106228,49.105455],"type":"Point"},"properties":{"osm_id":"6657198154","tag":{"amenity":"recycling","recycling_type":"container"}},"type":"Feature"},
	{"geometry":{"coordinates":[9.133992,49.110946],"type":"Point"},"properties":{"osm_id":"7386258721","tag":{"amenity":"waste_basket","waste":"trash"}},"type":"Feature"},
	{"geometry":{"coordinates":[9.105497,49.106221],"type":"Point"},"properties":{"osm_id":"7388264674","tag":{"amenity":"waste_basket"}},"type":"Feature"},
	{"geometry":{"coordinates":[9.126451,49.108389],"type":"Point"},"properties":{"osm_id":"7415040593","tag":{"amenity":"waste_basket"}},"type":"Feature"},
	{"geometry":{"coordinates":[9.094718,49.101444],"type":"Point"},"properties":{"osm_id":"7489146343","tag":{"amenity":"waste_basket"}},"type":"Feature"},
	{"geometry":{"coordinates":[9.099865,49.101741],"type":"Point"},"properties":{"osm_id":"7489149393","tag":{"amenity":"waste_basket"}},"type":"Feature"},
	{"geometry":{"coordinates":[9.078707,49.1014],"type":"Point"},"properties":{"osm_id":"7489476302","tag":{"amenity":"waste_basket"}},"type":"Feature"},
	{"geometry":{"coordinates":[9.070072,49.103049],"type":"Point"},"properties":{"osm_id":"7489612830","tag":{"amenity":"waste_basket"}},"type":"Feature"},
	{"geometry":{"coordinates":[9.068909,49.097878],"type":"Point"},"properties":{"osm_id":"7489786176","tag":{"amenity":"waste_basket"}},"type":"Feature"}
]
}
