{
"type": "FeatureCollection",
"features": [
	{"geometry":{"coordinates":[9.07746,49.078568],"type":"Point"},"properties":{"osm_id":"251384349","tag":{"amenity":"recycling","recycling:glass":"yes","recycling:paper":"yes"}},"type":"Feature"},
	{"geometry":{"coordinates":[9.135002,49.065429],"type":"Point"},"properties":{"osm_id":"415999952","tag":{"amenity":"recycling","recycling:cans":"yes","recycling:clothes":"yes","recycling:glass_bottles":"yes","recycling:paper":"yes","recycling:scrap_metal":"yes","recycling_type":"container"}},"type":"Feature"},
	{"geometry":{"coordinates":[9.138149,49.065561],"type":"Point"},"properties":{"osm_id":"415999955","tag":{"amenity":"recycling","noexit":"yes","recycling:cans":"yes","recycling:clothes":"yes","recycling:glass_bottles":"yes","recycling:paper":"yes","recycling:scrap_metal":"yes","recycling_type":"container"}},"type":"Feature"},
	{"geometry":{"coordinates":[9.139955,49.069443],"type":"Point"},"properties":{"osm_id":"416008855","tag":{"amenity":"recycling","recycling:cans":"yes","recycling:clothes":"yes","recycling:glass":"yes","recycling:paper":"yes","recycling:scrap_metal":"yes"}},"type":"Feature"},
	{"geometry":{"coordinates":[9.139079,49.063202],"type":"Point"},"properties":{"osm_id":"417956267","tag":{"amenity":"recycling","mapillary":"utNU-lW92Q9eUAm1NstC_g","recycling:cans":"yes","recycling:clothes":"yes","recycling:glass":"yes","recycling:paper":"yes","recycling:scrap_metal":"yes","recycling_type":"container","survey:date":"2019-08-05"}},"type":"Feature"},
	{"geometry":{"coordinates":[9.138023,49.04052],"type":"Point"},"properties":{"osm_id":"886560839","tag":{"amenity":"waste_basket"}},"type":"Feature"},
	{"geometry":{"coordinates":[9.13804,49.038295],"type":"Point"},"properties":{"osm_id":"886560992","tag":{"amenity":"waste_basket"}},"type":"Feature"},
	{"geometry":{"coordinates":[9.069313,49.075935],"type":"Point"},"properties":{"osm_id":"1359141567","tag":{"amenity":"waste_basket"}},"type":"Feature"},
	{"geometry":{"coordinates":[9.075585,49.07603],"type":"Point"},"properties":{"osm_id":"1359432849","tag":{"amenity":"recycling","check_date:recycling":"2021-10-11","recycling:clothes":"yes","recycling:paper":"yes","recycling:shoes":"yes","recycling_type":"container"}},"type":"Feature"},
	{"geometry":{"coordinates":[9.058155,49.077485],"type":"Point"},"properties":{"osm_id":"1423218609","tag":{"amenity":"recycling","check_date:recycling":"2021-01-04","recycling:cans":"yes","recycling:clothes":"yes","recycling:glass_bottles":"yes","recycling:paper":"yes","recycling:shoes":"yes","recycling_type":"container"}},"type":"Feature"},
	{"geometry":{"coordinates":[9.072884,49.088332],"type":"Point"},"properties":{"osm_id":"1429132485","tag":{"amenity":"recycling","recycling:cans":"yes","recycling:clothes":"yes","recycling:glass":"yes","recycling:paper":"yes","recycling:scrap_metal":"no","recycling_type":"container"}},"type":"Feature"},
	{"geometry":{"coordinates":[9.072772,49.088382],"type":"Point"},"properties":{"osm_id":"1429132488","tag":{"amenity":"waste_basket"}},"type":"Feature"},
	{"geometry":{"coordinates":[9.072946,49.088475],"type":"Point"},"properties":{"osm_id":"1433357677","tag":{"amenity":"waste_basket"}},"type":"Feature"},
	{"geometry":{"coordinates":[9.08368,49.068558],"type":"Point"},"properties":{"osm_id":"1484011509","tag":{"amenity":"recycling","location":"underground","recycling:glass":"yes","recycling:paper":"yes","recycling_type":"container"}},"type":"Feature"},
	{"geometry":{"coordinates":[9.087583,49.063479],"type":"Point"},"properties":{"osm_id":"1484011510","tag":{"amenity":"recycling","recycling:clothes":"yes","recycling:glass":"yes","recycling:paper":"yes","recycling_type":"container"}},"type":"Feature"},
	{"geometry":{"coordinates":[9.098228,49.079764],"type":"Point"},"properties":{"osm_id":"1531006088","tag":{"amenity":"recycling","recycling:cans":"yes","recycling:glass":"yes","recycling:paper":"yes","recycling_type":"container"}},"type":"Feature"},
	{"geometry":{"coordinates":[9.06,49.083589],"type":"Point"},"properties":{"barrier":"gate","osm_id":"1685683789"},"type":"Feature"},
	{"geometry":{"coordinates":[9.059994,49.083659],"type":"Point"},"properties":{"barrier":"gate","osm_id":"1685683799"},"type":"Feature"},
	{"geometry":{"coordinates":[9.066596,49.08455],"type":"Point"},"properties":{"osm_id":"1727029728","tag":{"amenity":"recycling","recycling:cans":"yes","recycling:clothes":"yes","recycling:glass":"yes","recycling:paper":"yes","recycling_type":"container"}},"type":"Feature"},
	{"geometry":{"coordinates":[9.11954,49.039321],"type":"Point"},"properties":{"osm_id":"2169302703","tag":{"amenity":"waste_basket"}},"type":"Feature"},
	{"geometry":{"coordinates":[9.132934,49.042184],"type":"Point"},"properties":{"osm_id":"2829628799","tag":{"amenity":"waste_basket"}},"type":"Feature"},
	{"geometry":{"coordinates":[9.089326,49.068435],"type":"Point"},"properties":{"osm_id":"3446228276","tag":{"amenity":"recycling","recycling:cans":"yes","recycling:clothes":"yes","recycling:glass":"yes","recycling:paper":"yes","recycling_type":"container"}},"type":"Feature"},
	{"geometry":{"coordinates":[9.068833,49.077273],"type":"Point"},"properties":{"osm_id":"3909582212","tag":{"amenity":"waste_basket"}},"type":"Feature"},
	{"geometry":{"coordinates":[9.068594,49.07747],"type":"Point"},"properties":{"osm_id":"3909582218","tag":{"amenity":"waste_basket"}},"type":"Feature"},
	{"geometry":{"coordinates":[9.068263,49.077818],"type":"Point"},"properties":{"osm_id":"3909582225","tag":{"amenity":"waste_basket"}},"type":"Feature"},
	{"geometry":{"coordinates":[9.083111,49.065529],"type":"Point"},"properties":{"osm_id":"4111541714","tag":{"amenity":"waste_basket","material":"wood","seats":"4"}},"type":"Feature"},
	{"geometry":{"coordinates":[9.083078,49.065525],"type":"Point"},"properties":{"osm_id":"4111541716","tag":{"amenity":"waste_basket"}},"type":"Feature"},
	{"geometry":{"coordinates":[9.107127,49.039243],"type":"Point"},"properties":{"barrier":"gate","osm_id":"4149545544"},"type":"Feature"},
	{"geometry":{"coordinates":[9.088313,49.068144],"type":"Point"},"properties":{"osm_id":"4450538190","tag":{"amenity":"waste_basket"}},"type":"Feature"},
	{"geometry":{"coordinates":[9.084298,49.068102],"type":"Point"},"properties":{"osm_id":"4460330894","tag":{"amenity":"waste_basket"}},"type":"Feature"},
	{"geometry":{"coordinates":[9.063864,49.061509],"type":"Point"},"properties":{"osm_id":"4706645708","tag":{"amenity":"waste_basket"}},"type":"Feature"},
	{"geometry":{"coordinates":[9.070183,49.063408],"type":"Point"},"properties":{"osm_id":"4718340378","tag":{"amenity":"recycling","opening_hours":"Mo-Sa 08:00-19:00","recycling:cans":"yes","recycling:glass_bottles":"yes","recycling:paper":"yes","recycling_type":"container"}},"type":"Feature"},
	{"geometry":{"coordinates":[9.069645,49.066167],"type":"Point"},"properties":{"osm_id":"4827026409","tag":{"amenity":"recycling","opening_hours":"Mo-Sa 08:00-19:00","operator:type":"Rhenus Recycling GmbH","recycling:glass_bottles":"yes","recycling_type":"container"}},"type":"Feature"},
	{"geometry":{"coordinates":[9.069592,49.066175],"type":"Point"},"properties":{"osm_id":"4827027033","tag":{"amenity":"recycling","opening_hours":"Mo-Sa 07:00-19:00","operator":"Abfallwirtschaftsbetrieb Landkreis Heilbronn","recycling:clothes":"yes","recycling:shoes":"yes","recycling_type":"container"}},"type":"Feature"},
	{"geometry":{"coordinates":[9.079558,49.090037],"type":"Point"},"properties":{"osm_id":"5126268925","tag":{"amenity":"waste_basket"}},"type":"Feature"},
	{"geometry":{"coordinates":[9.079221,49.089445],"type":"Point"},"properties":{"osm_id":"5126268929","tag":{"amenity":"waste_basket"}},"type":"Feature"},
	{"geometry":{"coordinates":[9.079198,49.089782],"type":"Point"},"properties":{"osm_id":"5126268951","tag":{"amenity":"waste_basket"}},"type":"Feature"},
	{"geometry":{"coordinates":[9.063034,49.07497],"type":"Point"},"properties":{"osm_id":"5405528277","tag":{"amenity":"recycling","operator":"Glaeser Textil","recycling:clothes":"yes","recycling:shoes":"yes","recycling_type":"container"}},"type":"Feature"},
	{"geometry":{"coordinates":[9.066751,49.07832],"type":"Point"},"properties":{"osm_id":"5940656014","tag":{"amenity":"waste_basket","waste":"trash"}},"type":"Feature"},
	{"geometry":{"coordinates":[9.076012,49.076273],"type":"Point"},"properties":{"osm_id":"6052828846","tag":{"amenity":"waste_basket","waste":"trash"}},"type":"Feature"},
	{"geometry":{"coordinates":[9.075605,49.076043],"type":"Point"},"properties":{"osm_id":"6052828848","tag":{"amenity":"waste_basket","waste":"trash"}},"type":"Feature"},
	{"geometry":{"coordinates":[9.0757,49.076445],"type":"Point"},"properties":{"osm_id":"6052828849","tag":{"amenity":"waste_basket","operator":"Stadt Brackenheim","waste":"trash"}},"type":"Feature"},
	{"geometry":{"coordinates":[9.080903,49.075417],"type":"Point"},"properties":{"osm_id":"6052843849","tag":{"amenity":"waste_basket"}},"type":"Feature"},
	{"geometry":{"coordinates":[9.106202,49.0815],"type":"Point"},"properties":{"osm_id":"6345538361","tag":{"amenity":"recycling","recycling_type":"container"}},"type":"Feature"},
	{"geometry":{"coordinates":[9.132816,49.068656],"type":"Point"},"properties":{"osm_id":"6416221387","tag":{"amenity":"recycling","recycling:clothes":"yes","recycling:shoes":"yes","recycling_type":"container"}},"type":"Feature"},
	{"geometry":{"coordinates":[9.062676,49.075271],"type":"Point"},"properties":{"osm_id":"6763949164","tag":{"amenity":"recycling","recycling:clothes":"yes","recycling_type":"container"}},"type":"Feature"},
	{"geometry":{"coordinates":[9.067059,49.082703],"type":"Point"},"properties":{"osm_id":"6875253023","tag":{"amenity":"recycling","operator":"CityGreenPoint Deutschland GmbH","recycling:batteries":"yes","recycling:clothes":"yes","recycling:electrical_appliances":"yes","recycling:shoes":"yes","recycling_type":"container"}},"type":"Feature"},
	{"geometry":{"coordinates":[9.089146,49.053172],"type":"Point"},"properties":{"osm_id":"7496672789","tag":{"amenity":"waste_basket"}},"type":"Feature"},
	{"geometry":{"coordinates":[9.139546,49.073937],"type":"Point"},"properties":{"osm_id":"7617395717","tag":{"amenity":"recycling","recycling:cans":"yes","recycling:clothes":"yes","recycling:glass_bottles":"yes","recycling:paper":"yes","recycling:shoes":"yes","recycling_type":"container"}},"type":"Feature"}
]
}
