{
"type": "FeatureCollection",
"features": [
	{"geometry":{"coordinates":[9.065644,48.982399],"type":"Point"},"properties":{"name":"H\u00c3\u00a4ckselplatz","osm_id":"559516757","tag":{"amenity":"recycling","recycling:green_waste":"yes","recycling_type":"centre"}},"type":"Feature"},
	{"geometry":{"coordinates":[9.065839,49.021313],"type":"Point"},"properties":{"name":"H\u00c3\u00a4ckselplatz B\u00c3\u00b6nnigheim","osm_id":"600423023","tag":{"amenity":"recycling","recycling:green_waste":"yes","recycling_type":"centre"}},"type":"Feature"},
	{"geometry":{"coordinates":[9.05361,49.035756],"type":"Point"},"properties":{"osm_id":"1240875735","tag":{"amenity":"waste_basket"}},"type":"Feature"},
	{"geometry":{"coordinates":[9.056752,49.036758],"type":"Point"},"properties":{"osm_id":"1240879062","tag":{"amenity":"waste_basket"}},"type":"Feature"},
	{"geometry":{"coordinates":[9.056242,49.037526],"type":"Point"},"properties":{"osm_id":"1240879065","tag":{"amenity":"waste_basket"}},"type":"Feature"},
	{"geometry":{"coordinates":[9.055935,49.035775],"type":"Point"},"properties":{"osm_id":"1240879066","tag":{"amenity":"waste_basket"}},"type":"Feature"},
	{"geometry":{"coordinates":[9.056276,49.036005],"type":"Point"},"properties":{"osm_id":"1240879069","tag":{"amenity":"waste_basket"}},"type":"Feature"},
	{"geometry":{"coordinates":[9.10277,49.012452],"type":"Point"},"properties":{"osm_id":"1743775349","tag":{"amenity":"waste_basket","tourism":"picnic_site"}},"type":"Feature"},
	{"geometry":{"coordinates":[9.101973,49.020136],"type":"Point"},"properties":{"osm_id":"1743775414","tag":{"amenity":"waste_basket"}},"type":"Feature"},
	{"geometry":{"coordinates":[9.069923,49.015787],"type":"Point"},"properties":{"name":"H\u00c3\u00a4ckselplatz Erligheim","osm_id":"1747991824","tag":{"amenity":"recycling","recycling:green_waste":"yes","recycling_type":"centre"}},"type":"Feature"},
	{"geometry":{"coordinates":[9.104601,49.016197],"type":"Point"},"properties":{"osm_id":"1765624157","tag":{"amenity":"waste_basket","vending":"excrement_bags","waste":"dog_excrement"}},"type":"Feature"},
	{"geometry":{"coordinates":[9.136844,48.997373],"type":"Point"},"properties":{"osm_id":"3400136667","tag":{"amenity":"waste_basket"}},"type":"Feature"},
	{"geometry":{"coordinates":[9.140218,48.998177],"type":"Point"},"properties":{"osm_id":"3492906303","tag":{"amenity":"waste_basket"}},"type":"Feature"},
	{"geometry":{"coordinates":[9.131503,48.99736],"type":"Point"},"properties":{"osm_id":"3687817020","tag":{"amenity":"waste_basket"}},"type":"Feature"},
	{"geometry":{"coordinates":[9.13974,49.000812],"type":"Point"},"properties":{"osm_id":"3881866014","tag":{"amenity":"waste_basket"}},"type":"Feature"},
	{"geometry":{"coordinates":[9.140609,48.996628],"type":"Point"},"properties":{"osm_id":"3898586434","tag":{"amenity":"waste_basket"}},"type":"Feature"},
	{"geometry":{"coordinates":[9.140594,48.996585],"type":"Point"},"properties":{"osm_id":"3898586435","tag":{"amenity":"waste_basket"}},"type":"Feature"},
	{"geometry":{"coordinates":[9.101765,49.00307],"type":"Point"},"properties":{"osm_id":"3954836670","tag":{"amenity":"waste_basket"}},"type":"Feature"},
	{"geometry":{"coordinates":[9.091395,48.999453],"type":"Point"},"properties":{"osm_id":"4490228322","tag":{"amenity":"waste_basket"}},"type":"Feature"},
	{"geometry":{"coordinates":[9.092629,49.000534],"type":"Point"},"properties":{"osm_id":"4490228351","tag":{"amenity":"waste_basket"}},"type":"Feature"},
	{"geometry":{"coordinates":[9.059751,49.008396],"type":"Point"},"properties":{"osm_id":"4490605809","tag":{"amenity":"recycling","recycling:clothes":"yes","recycling:shoes":"yes","recycling_type":"container"}},"type":"Feature"},
	{"geometry":{"coordinates":[9.062682,49.006742],"type":"Point"},"properties":{"osm_id":"4490605819","tag":{"amenity":"waste_basket"}},"type":"Feature"},
	{"geometry":{"coordinates":[9.064055,49.006415],"type":"Point"},"properties":{"osm_id":"4490605821","tag":{"amenity":"waste_basket"}},"type":"Feature"},
	{"geometry":{"coordinates":[9.058996,49.009055],"type":"Point"},"properties":{"osm_id":"4490960950","tag":{"amenity":"waste_basket"}},"type":"Feature"},
	{"geometry":{"coordinates":[9.136392,48.997832],"type":"Point"},"properties":{"osm_id":"4638568432","tag":{"amenity":"waste_basket"}},"type":"Feature"},
	{"geometry":{"coordinates":[9.136499,48.997714],"type":"Point"},"properties":{"osm_id":"4638568436","tag":{"amenity":"waste_basket"}},"type":"Feature"},
	{"geometry":{"coordinates":[9.136795,48.997412],"type":"Point"},"properties":{"osm_id":"4638568438","tag":{"amenity":"waste_basket"}},"type":"Feature"},
	{"geometry":{"coordinates":[9.112424,48.998086],"type":"Point"},"properties":{"osm_id":"5106054111","tag":{"amenity":"waste_basket"}},"type":"Feature"},
	{"geometry":{"coordinates":[9.10326,49.020939],"type":"Point"},"properties":{"osm_id":"5155693514","tag":{"amenity":"waste_basket"}},"type":"Feature"},
	{"geometry":{"coordinates":[9.103402,49.020837],"type":"Point"},"properties":{"osm_id":"5155693515","tag":{"amenity":"waste_basket"}},"type":"Feature"},
	{"geometry":{"coordinates":[9.104678,49.020696],"type":"Point"},"properties":{"osm_id":"5157461757","tag":{"amenity":"recycling","recycling:green_waste":"yes","recycling_type":"container"}},"type":"Feature"},
	{"geometry":{"coordinates":[9.101109,49.020056],"type":"Point"},"properties":{"osm_id":"5159499505","tag":{"amenity":"recycling","opening_hours":"24/7","operator":"Deutsches Rotes Kreuz","recycling:clothes":"yes","recycling:shoes":"yes","recycling_type":"container"}},"type":"Feature"},
	{"geometry":{"coordinates":[9.108699,49.007967],"type":"Point"},"properties":{"osm_id":"5531434799","tag":{"amenity":"waste_basket","bin":"yes","fee":"no","vending":"excrement_bags","waste":"dog_excrement"}},"type":"Feature"},
	{"geometry":{"coordinates":[9.056755,49.03705],"type":"Point"},"properties":{"osm_id":"6775146797","tag":{"amenity":"waste_basket"}},"type":"Feature"},
	{"geometry":{"coordinates":[9.139699,49.005127],"type":"Point"},"properties":{"osm_id":"7749801239","tag":{"amenity":"waste_basket"}},"type":"Feature"}
]
}
