{
"type": "FeatureCollection",
"features": [
	{"geometry":{"coordinates":[9.107476,48.958493],"type":"Point"},"properties":{"osm_id":"369590210","tag":{"amenity":"recycling","recycling:clothes":"yes"}},"type":"Feature"},
	{"geometry":{"coordinates":[9.127894,48.962258],"type":"Point"},"properties":{"osm_id":"639001673","tag":{"amenity":"waste_basket"}},"type":"Feature"},
	{"geometry":{"coordinates":[9.126218,48.95149],"type":"Point"},"properties":{"barrier":"gate","osm_id":"1313963595"},"type":"Feature"},
	{"geometry":{"coordinates":[9.082898,48.966476],"type":"Point"},"properties":{"osm_id":"1400085392","tag":{"amenity":"waste_basket"}},"type":"Feature"},
	{"geometry":{"coordinates":[9.08266,48.966694],"type":"Point"},"properties":{"osm_id":"1400085395","tag":{"amenity":"waste_basket"}},"type":"Feature"},
	{"geometry":{"coordinates":[9.076373,48.966514],"type":"Point"},"properties":{"osm_id":"1400997442","tag":{"amenity":"waste_basket"}},"type":"Feature"},
	{"geometry":{"coordinates":[9.076305,48.973524],"type":"Point"},"properties":{"osm_id":"1553818624","tag":{"amenity":"waste_basket"}},"type":"Feature"},
	{"geometry":{"coordinates":[9.110808,48.960822],"type":"Point"},"properties":{"osm_id":"2664153291","tag":{"amenity":"waste_basket"}},"type":"Feature"},
	{"geometry":{"coordinates":[9.137473,48.948907],"type":"Point"},"properties":{"osm_id":"3340040231","tag":{"amenity":"waste_basket"}},"type":"Feature"},
	{"geometry":{"coordinates":[9.137028,48.94866],"type":"Point"},"properties":{"osm_id":"3340045438","tag":{"amenity":"waste_basket","waste":"trash;cigarettes"}},"type":"Feature"},
	{"geometry":{"coordinates":[9.079289,48.922928],"type":"Point"},"properties":{"osm_id":"3358484734","tag":{"amenity":"waste_basket"}},"type":"Feature"},
	{"geometry":{"coordinates":[9.079158,48.923578],"type":"Point"},"properties":{"osm_id":"3358496495","tag":{"amenity":"waste_basket"}},"type":"Feature"},
	{"geometry":{"coordinates":[9.055238,48.929547],"type":"Point"},"properties":{"osm_id":"3714624914","tag":{"amenity":"waste_basket"}},"type":"Feature"},
	{"geometry":{"coordinates":[9.057158,48.933718],"type":"Point"},"properties":{"osm_id":"3714640493","tag":{"amenity":"waste_basket","waste":"dog_excrement"}},"type":"Feature"},
	{"geometry":{"coordinates":[9.058175,48.93469],"type":"Point"},"properties":{"osm_id":"3714640497","tag":{"amenity":"waste_basket"}},"type":"Feature"},
	{"geometry":{"coordinates":[9.076001,48.929033],"type":"Point"},"properties":{"osm_id":"3721738813","tag":{"amenity":"waste_basket"}},"type":"Feature"},
	{"geometry":{"coordinates":[9.053721,48.941183],"type":"Point"},"properties":{"osm_id":"3721739225","tag":{"amenity":"waste_basket"}},"type":"Feature"},
	{"geometry":{"coordinates":[9.080077,48.93747],"type":"Point"},"properties":{"osm_id":"3721784303","tag":{"amenity":"waste_basket"}},"type":"Feature"},
	{"geometry":{"coordinates":[9.088604,48.947586],"type":"Point"},"properties":{"osm_id":"3721802619","tag":{"amenity":"waste_basket"}},"type":"Feature"},
	{"geometry":{"coordinates":[9.090608,48.946888],"type":"Point"},"properties":{"osm_id":"3721828222","tag":{"amenity":"waste_basket"}},"type":"Feature"},
	{"geometry":{"coordinates":[9.119082,48.9463],"type":"Point"},"properties":{"osm_id":"3722065962","tag":{"amenity":"waste_basket"}},"type":"Feature"},
	{"geometry":{"coordinates":[9.108437,48.947094],"type":"Point"},"properties":{"osm_id":"3722065972","tag":{"amenity":"waste_basket"}},"type":"Feature"},
	{"geometry":{"coordinates":[9.102785,48.9484],"type":"Point"},"properties":{"osm_id":"3722065992","tag":{"amenity":"waste_basket"}},"type":"Feature"},
	{"geometry":{"coordinates":[9.127874,48.948795],"type":"Point"},"properties":{"osm_id":"3722065996","tag":{"amenity":"waste_basket"}},"type":"Feature"},
	{"geometry":{"coordinates":[9.135149,48.949352],"type":"Point"},"properties":{"osm_id":"3722589284","tag":{"amenity":"waste_basket"}},"type":"Feature"},
	{"geometry":{"coordinates":[9.130949,48.951725],"type":"Point"},"properties":{"osm_id":"3722589285","tag":{"amenity":"waste_basket"}},"type":"Feature"},
	{"geometry":{"coordinates":[9.130965,48.953226],"type":"Point"},"properties":{"osm_id":"3722589288","tag":{"amenity":"waste_basket"}},"type":"Feature"},
	{"geometry":{"coordinates":[9.136962,48.948634],"type":"Point"},"properties":{"osm_id":"3890198494","tag":{"amenity":"waste_basket","waste":"trash;cigarettes"}},"type":"Feature"},
	{"geometry":{"coordinates":[9.053966,48.938137],"type":"Point"},"properties":{"osm_id":"3940349764","tag":{"amenity":"recycling","description:de":"Drei Container, je einer f\u00c3\u00bcr Wei\u00c3\u009f-, Braun- und Gr\u00c3\u00bcnglas","recycling:glass_bottles":"yes","recycling_type":"container"}},"type":"Feature"},
	{"geometry":{"coordinates":[9.053777,48.938209],"type":"Point"},"properties":{"osm_id":"3940349770","tag":{"amenity":"recycling","recycling:clothes":"yes","recycling_type":"container"}},"type":"Feature"},
	{"geometry":{"coordinates":[9.10201,48.948204],"type":"Point"},"properties":{"osm_id":"3990087933","tag":{"amenity":"waste_basket"}},"type":"Feature"},
	{"geometry":{"coordinates":[9.101633,48.948246],"type":"Point"},"properties":{"osm_id":"3990087935","tag":{"amenity":"waste_basket"}},"type":"Feature"},
	{"geometry":{"coordinates":[9.108077,48.941688],"type":"Point"},"properties":{"osm_id":"3991334139","tag":{"amenity":"waste_basket"}},"type":"Feature"},
	{"geometry":{"coordinates":[9.109914,48.939666],"type":"Point"},"properties":{"osm_id":"3992328958","tag":{"amenity":"waste_basket"}},"type":"Feature"},
	{"geometry":{"coordinates":[9.095428,48.929928],"type":"Point"},"properties":{"osm_id":"3993287083","tag":{"amenity":"waste_basket"}},"type":"Feature"},
	{"geometry":{"coordinates":[9.107468,48.930323],"type":"Point"},"properties":{"osm_id":"3993287091","tag":{"amenity":"waste_basket"}},"type":"Feature"},
	{"geometry":{"coordinates":[9.087078,48.935407],"type":"Point"},"properties":{"osm_id":"3993427979","tag":{"amenity":"waste_basket"}},"type":"Feature"},
	{"geometry":{"coordinates":[9.087219,48.935472],"type":"Point"},"properties":{"osm_id":"3993427983","tag":{"amenity":"waste_basket"}},"type":"Feature"},
	{"geometry":{"coordinates":[9.084453,48.937245],"type":"Point"},"properties":{"osm_id":"3993441215","tag":{"amenity":"waste_basket"}},"type":"Feature"},
	{"geometry":{"coordinates":[9.087808,48.945293],"type":"Point"},"properties":{"osm_id":"3993475227","tag":{"amenity":"waste_basket"}},"type":"Feature"},
	{"geometry":{"coordinates":[9.088391,48.945458],"type":"Point"},"properties":{"osm_id":"3993475229","tag":{"amenity":"waste_basket"}},"type":"Feature"},
	{"geometry":{"coordinates":[9.136655,48.9486],"type":"Point"},"properties":{"osm_id":"4032622337","tag":{"amenity":"waste_basket"}},"type":"Feature"},
	{"geometry":{"coordinates":[9.136338,48.948484],"type":"Point"},"properties":{"osm_id":"4038653111","tag":{"amenity":"waste_basket"}},"type":"Feature"},
	{"geometry":{"coordinates":[9.053893,48.932624],"type":"Point"},"properties":{"osm_id":"4095102007","tag":{"amenity":"waste_basket"}},"type":"Feature"},
	{"geometry":{"coordinates":[9.054271,48.932724],"type":"Point"},"properties":{"osm_id":"4095102014","tag":{"amenity":"waste_basket"}},"type":"Feature"},
	{"geometry":{"coordinates":[9.054544,48.932875],"type":"Point"},"properties":{"osm_id":"4095102015","tag":{"amenity":"waste_basket"}},"type":"Feature"},
	{"geometry":{"coordinates":[9.054154,48.933152],"type":"Point"},"properties":{"osm_id":"4095102022","tag":{"amenity":"waste_basket"}},"type":"Feature"},
	{"geometry":{"coordinates":[9.054413,48.933237],"type":"Point"},"properties":{"osm_id":"4095102037","tag":{"amenity":"waste_basket"}},"type":"Feature"},
	{"geometry":{"coordinates":[9.054235,48.933252],"type":"Point"},"properties":{"osm_id":"4095102041","tag":{"amenity":"waste_basket"}},"type":"Feature"},
	{"geometry":{"coordinates":[9.053895,48.933688],"type":"Point"},"properties":{"osm_id":"4095102065","tag":{"amenity":"waste_basket"}},"type":"Feature"},
	{"geometry":{"coordinates":[9.067104,48.937327],"type":"Point"},"properties":{"osm_id":"4109357899","tag":{"amenity":"waste_basket"}},"type":"Feature"},
	{"geometry":{"coordinates":[9.128213,48.950884],"type":"Point"},"properties":{"osm_id":"4481953987","tag":{"amenity":"waste_basket"}},"type":"Feature"},
	{"geometry":{"coordinates":[9.125692,48.951336],"type":"Point"},"properties":{"osm_id":"4481954001","tag":{"amenity":"waste_basket"}},"type":"Feature"},
	{"geometry":{"coordinates":[9.125439,48.951348],"type":"Point"},"properties":{"osm_id":"4481954005","tag":{"amenity":"waste_basket"}},"type":"Feature"},
	{"geometry":{"coordinates":[9.125189,48.951361],"type":"Point"},"properties":{"osm_id":"4481954008","tag":{"amenity":"waste_basket"}},"type":"Feature"},
	{"geometry":{"coordinates":[9.12494,48.951379],"type":"Point"},"properties":{"osm_id":"4481954013","tag":{"amenity":"waste_basket"}},"type":"Feature"},
	{"geometry":{"coordinates":[9.124688,48.951397],"type":"Point"},"properties":{"osm_id":"4481954020","tag":{"amenity":"waste_basket"}},"type":"Feature"},
	{"geometry":{"coordinates":[9.124429,48.951413],"type":"Point"},"properties":{"osm_id":"4481954026","tag":{"amenity":"waste_basket"}},"type":"Feature"},
	{"geometry":{"coordinates":[9.124185,48.951421],"type":"Point"},"properties":{"osm_id":"4481954029","tag":{"amenity":"waste_basket"}},"type":"Feature"},
	{"geometry":{"coordinates":[9.126724,48.951632],"type":"Point"},"properties":{"osm_id":"4481954039","tag":{"amenity":"waste_basket"}},"type":"Feature"},
	{"geometry":{"coordinates":[9.130981,48.952027],"type":"Point"},"properties":{"osm_id":"4482285260","tag":{"amenity":"waste_basket"}},"type":"Feature"},
	{"geometry":{"coordinates":[9.131104,48.9542],"type":"Point"},"properties":{"osm_id":"4482285272","tag":{"amenity":"waste_basket"}},"type":"Feature"},
	{"geometry":{"coordinates":[9.131514,48.956815],"type":"Point"},"properties":{"osm_id":"4482285283","tag":{"amenity":"waste_basket"}},"type":"Feature"},
	{"geometry":{"coordinates":[9.131749,48.958359],"type":"Point"},"properties":{"osm_id":"4482286799","tag":{"amenity":"waste_basket"}},"type":"Feature"},
	{"geometry":{"coordinates":[9.125639,48.958595],"type":"Point"},"properties":{"osm_id":"4482965675","tag":{"amenity":"waste_basket"}},"type":"Feature"},
	{"geometry":{"coordinates":[9.127682,48.958871],"type":"Point"},"properties":{"osm_id":"4482965681","tag":{"amenity":"waste_basket"}},"type":"Feature"},
	{"geometry":{"coordinates":[9.120413,48.958587],"type":"Point"},"properties":{"osm_id":"4484212935","tag":{"amenity":"waste_basket"}},"type":"Feature"},
	{"geometry":{"coordinates":[9.116166,48.959127],"type":"Point"},"properties":{"osm_id":"4484212953","tag":{"amenity":"waste_basket"}},"type":"Feature"},
	{"geometry":{"coordinates":[9.063545,48.961304],"type":"Point"},"properties":{"osm_id":"4485216670","tag":{"amenity":"waste_basket"}},"type":"Feature"},
	{"geometry":{"coordinates":[9.063419,48.961316],"type":"Point"},"properties":{"osm_id":"4485216672","tag":{"amenity":"waste_basket"}},"type":"Feature"},
	{"geometry":{"coordinates":[9.063583,48.961386],"type":"Point"},"properties":{"osm_id":"4485216680","tag":{"amenity":"waste_basket"}},"type":"Feature"},
	{"geometry":{"coordinates":[9.06387,48.961483],"type":"Point"},"properties":{"osm_id":"4485216686","tag":{"amenity":"waste_basket"}},"type":"Feature"},
	{"geometry":{"coordinates":[9.062777,48.961601],"type":"Point"},"properties":{"osm_id":"4485223560","tag":{"amenity":"waste_basket"}},"type":"Feature"},
	{"geometry":{"coordinates":[9.062938,48.961657],"type":"Point"},"properties":{"osm_id":"4485223561","tag":{"amenity":"waste_basket"}},"type":"Feature"},
	{"geometry":{"coordinates":[9.073166,48.971764],"type":"Point"},"properties":{"osm_id":"4485309381","tag":{"amenity":"waste_basket"}},"type":"Feature"},
	{"geometry":{"coordinates":[9.116703,48.95352],"type":"Point"},"properties":{"osm_id":"4504128567","tag":{"amenity":"waste_basket"}},"type":"Feature"},
	{"geometry":{"coordinates":[9.11944,48.953033],"type":"Point"},"properties":{"osm_id":"4504234708","tag":{"amenity":"waste_basket"}},"type":"Feature"},
	{"geometry":{"coordinates":[9.117795,48.953303],"type":"Point"},"properties":{"osm_id":"4504234719","tag":{"amenity":"waste_basket"}},"type":"Feature"},
	{"geometry":{"coordinates":[9.120012,48.952983],"type":"Point"},"properties":{"osm_id":"4504250107","tag":{"amenity":"waste_basket"}},"type":"Feature"},
	{"geometry":{"coordinates":[9.121167,48.952892],"type":"Point"},"properties":{"osm_id":"4504290406","tag":{"amenity":"waste_basket"}},"type":"Feature"},
	{"geometry":{"coordinates":[9.129807,48.938636],"type":"Point"},"properties":{"osm_id":"4622480397","tag":{"amenity":"recycling","opening_hours":"24/7","recycling:clothes":"yes","recycling:shoes":"yes","recycling_type":"container","wheelchair":"limited"}},"type":"Feature"},
	{"geometry":{"coordinates":[9.131612,48.953765],"type":"Point"},"properties":{"osm_id":"4893943014","tag":{"amenity":"waste_basket"}},"type":"Feature"},
	{"geometry":{"coordinates":[9.131158,48.95878],"type":"Point"},"properties":{"osm_id":"4893981638","tag":{"amenity":"waste_basket"}},"type":"Feature"},
	{"geometry":{"coordinates":[9.130603,48.958292],"type":"Point"},"properties":{"osm_id":"4893981654","tag":{"amenity":"waste_basket"}},"type":"Feature"},
	{"geometry":{"coordinates":[9.124266,48.959034],"type":"Point"},"properties":{"osm_id":"4894062324","tag":{"amenity":"waste_basket"}},"type":"Feature"},
	{"geometry":{"coordinates":[9.084741,48.947414],"type":"Point"},"properties":{"osm_id":"5046075422","tag":{"amenity":"waste_basket"}},"type":"Feature"},
	{"geometry":{"coordinates":[9.100917,48.946126],"type":"Point"},"properties":{"osm_id":"5238149673","tag":{"amenity":"recycling","recycling:green_waste":"yes","recycling_type":"container"}},"type":"Feature"},
	{"geometry":{"coordinates":[9.100915,48.94612],"type":"Point"},"properties":{"osm_id":"5238149674","tag":{"amenity":"waste_disposal"}},"type":"Feature"},
	{"geometry":{"coordinates":[9.132082,48.956457],"type":"Point"},"properties":{"osm_id":"5429692497","tag":{"amenity":"waste_basket"}},"type":"Feature"},
	{"geometry":{"coordinates":[9.131878,48.956765],"type":"Point"},"properties":{"osm_id":"5429692498","tag":{"amenity":"waste_basket"}},"type":"Feature"},
	{"geometry":{"coordinates":[9.131434,48.95705],"type":"Point"},"properties":{"osm_id":"5429692500","tag":{"amenity":"waste_basket"}},"type":"Feature"},
	{"geometry":{"coordinates":[9.130822,48.958325],"type":"Point"},"properties":{"osm_id":"5429692503","tag":{"amenity":"waste_basket"}},"type":"Feature"},
	{"geometry":{"coordinates":[9.131113,48.958557],"type":"Point"},"properties":{"osm_id":"5429692505","tag":{"amenity":"waste_basket"}},"type":"Feature"},
	{"geometry":{"coordinates":[9.130983,48.958418],"type":"Point"},"properties":{"osm_id":"5429692507","tag":{"amenity":"waste_basket"}},"type":"Feature"},
	{"geometry":{"coordinates":[9.131205,48.958648],"type":"Point"},"properties":{"osm_id":"5429692510","tag":{"amenity":"waste_basket"}},"type":"Feature"},
	{"geometry":{"coordinates":[9.131305,48.958651],"type":"Point"},"properties":{"osm_id":"5429692511","tag":{"amenity":"waste_basket"}},"type":"Feature"},
	{"geometry":{"coordinates":[9.131624,48.958634],"type":"Point"},"properties":{"osm_id":"5429692514","tag":{"amenity":"waste_basket"}},"type":"Feature"},
	{"geometry":{"coordinates":[9.130493,48.957736],"type":"Point"},"properties":{"osm_id":"5429692518","tag":{"amenity":"waste_basket"}},"type":"Feature"},
	{"geometry":{"coordinates":[9.130268,48.959251],"type":"Point"},"properties":{"osm_id":"5429692821","tag":{"amenity":"waste_basket"}},"type":"Feature"},
	{"geometry":{"coordinates":[9.130104,48.95905],"type":"Point"},"properties":{"osm_id":"5429692823","tag":{"amenity":"waste_basket"}},"type":"Feature"},
	{"geometry":{"coordinates":[9.130011,48.958879],"type":"Point"},"properties":{"osm_id":"5429692826","tag":{"amenity":"waste_basket"}},"type":"Feature"},
	{"geometry":{"coordinates":[9.130627,48.956542],"type":"Point"},"properties":{"osm_id":"5429692829","tag":{"amenity":"waste_basket"}},"type":"Feature"},
	{"geometry":{"coordinates":[9.130971,48.955804],"type":"Point"},"properties":{"osm_id":"5429692833","tag":{"amenity":"waste_basket"}},"type":"Feature"},
	{"geometry":{"coordinates":[9.131308,48.955868],"type":"Point"},"properties":{"osm_id":"5429692834","tag":{"amenity":"waste_basket"}},"type":"Feature"},
	{"geometry":{"coordinates":[9.131347,48.95569],"type":"Point"},"properties":{"osm_id":"5429692839","tag":{"amenity":"waste_basket"}},"type":"Feature"},
	{"geometry":{"coordinates":[9.136567,48.952258],"type":"Point"},"properties":{"osm_id":"5429751802","tag":{"amenity":"waste_basket"}},"type":"Feature"},
	{"geometry":{"coordinates":[9.136705,48.952126],"type":"Point"},"properties":{"osm_id":"5429751805","tag":{"amenity":"waste_basket"}},"type":"Feature"},
	{"geometry":{"coordinates":[9.129754,48.95087],"type":"Point"},"properties":{"osm_id":"5435586316","tag":{"amenity":"waste_basket"}},"type":"Feature"},
	{"geometry":{"coordinates":[9.131845,48.949397],"type":"Point"},"properties":{"osm_id":"5435587822","tag":{"amenity":"waste_basket"}},"type":"Feature"},
	{"geometry":{"coordinates":[9.133425,48.949095],"type":"Point"},"properties":{"osm_id":"5435587829","tag":{"amenity":"waste_basket"}},"type":"Feature"},
	{"geometry":{"coordinates":[9.133992,48.94919],"type":"Point"},"properties":{"osm_id":"5435587831","tag":{"amenity":"waste_basket"}},"type":"Feature"},
	{"geometry":{"coordinates":[9.134812,48.94916],"type":"Point"},"properties":{"osm_id":"5435587834","tag":{"amenity":"waste_basket"}},"type":"Feature"},
	{"geometry":{"coordinates":[9.137867,48.94756],"type":"Point"},"properties":{"osm_id":"5435639570","tag":{"amenity":"waste_basket","layer":"-1","waste":"trash;cigarettes"}},"type":"Feature"},
	{"geometry":{"coordinates":[9.137972,48.949047],"type":"Point"},"properties":{"osm_id":"5561341833","tag":{"amenity":"waste_basket"}},"type":"Feature"},
	{"geometry":{"coordinates":[9.080322,48.941895],"type":"Point"},"properties":{"osm_id":"5893555844","tag":{"amenity":"waste_basket"}},"type":"Feature"},
	{"geometry":{"coordinates":[9.129132,48.949053],"type":"Point"},"properties":{"osm_id":"6049402112","tag":{"amenity":"waste_basket"}},"type":"Feature"},
	{"geometry":{"coordinates":[9.121796,48.923671],"type":"Point"},"properties":{"osm_id":"6092197728","tag":{"amenity":"recycling","recycling:clothes":"yes","recycling:shoes":"yes","recycling_type":"container"}},"type":"Feature"},
	{"geometry":{"coordinates":[9.11325,48.935124],"type":"Point"},"properties":{"osm_id":"6093051848","tag":{"amenity":"waste_basket"}},"type":"Feature"},
	{"geometry":{"coordinates":[9.12552,48.959107],"type":"Point"},"properties":{"osm_id":"6098926860","tag":{"amenity":"waste_basket"}},"type":"Feature"},
	{"geometry":{"coordinates":[9.123935,48.959273],"type":"Point"},"properties":{"osm_id":"6103445455","tag":{"amenity":"waste_basket"}},"type":"Feature"},
	{"geometry":{"coordinates":[9.126144,48.961371],"type":"Point"},"properties":{"osm_id":"6176145752","tag":{"amenity":"waste_basket"}},"type":"Feature"},
	{"geometry":{"coordinates":[9.124755,48.960082],"type":"Point"},"properties":{"osm_id":"6312563542","tag":{"amenity":"waste_basket"}},"type":"Feature"},
	{"geometry":{"coordinates":[9.125061,48.960063],"type":"Point"},"properties":{"osm_id":"6312563543","tag":{"amenity":"waste_basket"}},"type":"Feature"},
	{"geometry":{"coordinates":[9.127251,48.960312],"type":"Point"},"properties":{"osm_id":"6312691530","tag":{"amenity":"waste_basket"}},"type":"Feature"},
	{"geometry":{"coordinates":[9.126986,48.959723],"type":"Point"},"properties":{"osm_id":"6312743149","tag":{"amenity":"waste_basket"}},"type":"Feature"},
	{"geometry":{"coordinates":[9.128345,48.958951],"type":"Point"},"properties":{"osm_id":"6313249660","tag":{"amenity":"waste_basket"}},"type":"Feature"},
	{"geometry":{"coordinates":[9.128516,48.958841],"type":"Point"},"properties":{"osm_id":"6313249668","tag":{"amenity":"waste_basket"}},"type":"Feature"},
	{"geometry":{"coordinates":[9.126783,48.95913],"type":"Point"},"properties":{"osm_id":"6313969879","tag":{"amenity":"waste_basket"}},"type":"Feature"},
	{"geometry":{"coordinates":[9.126922,48.958787],"type":"Point"},"properties":{"osm_id":"6313972388","tag":{"amenity":"waste_basket"}},"type":"Feature"},
	{"geometry":{"coordinates":[9.124484,48.959474],"type":"Point"},"properties":{"osm_id":"6314188468","tag":{"amenity":"waste_basket"}},"type":"Feature"},
	{"geometry":{"coordinates":[9.125039,48.959427],"type":"Point"},"properties":{"osm_id":"6314188478","tag":{"amenity":"waste_basket"}},"type":"Feature"},
	{"geometry":{"coordinates":[9.123811,48.959756],"type":"Point"},"properties":{"osm_id":"6314192188","tag":{"amenity":"waste_basket"}},"type":"Feature"},
	{"geometry":{"coordinates":[9.134785,48.969178],"type":"Point"},"properties":{"osm_id":"6612769331","tag":{"amenity":"waste_basket"}},"type":"Feature"},
	{"geometry":{"coordinates":[9.140059,48.96492],"type":"Point"},"properties":{"osm_id":"6788680767","tag":{"amenity":"waste_basket"}},"type":"Feature"},
	{"geometry":{"coordinates":[9.128523,48.959743],"type":"Point"},"properties":{"osm_id":"6808219018","tag":{"amenity":"waste_basket"}},"type":"Feature"},
	{"geometry":{"coordinates":[9.134255,48.956431],"type":"Point"},"properties":{"osm_id":"6808289160","tag":{"amenity":"waste_basket"}},"type":"Feature"},
	{"geometry":{"coordinates":[9.135447,48.956421],"type":"Point"},"properties":{"osm_id":"6808332319","tag":{"amenity":"waste_basket"}},"type":"Feature"},
	{"geometry":{"coordinates":[9.124331,48.947429],"type":"Point"},"properties":{"osm_id":"6832773903","tag":{"amenity":"waste_basket"}},"type":"Feature"},
	{"geometry":{"coordinates":[9.130473,48.959494],"type":"Point"},"properties":{"osm_id":"6870893509","tag":{"amenity":"waste_basket"}},"type":"Feature"},
	{"geometry":{"coordinates":[9.128034,48.955017],"type":"Point"},"properties":{"osm_id":"6875402166","tag":{"amenity":"waste_basket"}},"type":"Feature"},
	{"geometry":{"coordinates":[9.128351,48.954704],"type":"Point"},"properties":{"osm_id":"6875436521","tag":{"amenity":"waste_basket"}},"type":"Feature"},
	{"geometry":{"coordinates":[9.128388,48.955536],"type":"Point"},"properties":{"osm_id":"6875443835","tag":{"amenity":"waste_basket"}},"type":"Feature"},
	{"geometry":{"coordinates":[9.129584,48.956571],"type":"Point"},"properties":{"osm_id":"6875445896","tag":{"amenity":"waste_basket"}},"type":"Feature"},
	{"geometry":{"coordinates":[9.140295,48.928571],"type":"Point"},"properties":{"osm_id":"6947711365","tag":{"amenity":"waste_basket"}},"type":"Feature"},
	{"geometry":{"coordinates":[9.085732,48.945915],"type":"Point"},"properties":{"osm_id":"7297011112","tag":{"amenity":"waste_basket"}},"type":"Feature"},
	{"geometry":{"coordinates":[9.129495,48.965972],"type":"Point"},"properties":{"osm_id":"7528377853","tag":{"amenity":"waste_basket"}},"type":"Feature"},
	{"geometry":{"coordinates":[9.131699,48.96503],"type":"Point"},"properties":{"osm_id":"7531852815","tag":{"amenity":"waste_basket"}},"type":"Feature"},
	{"geometry":{"coordinates":[9.102524,48.922918],"type":"Point"},"properties":{"osm_id":"7605975895","tag":{"amenity":"waste_basket"}},"type":"Feature"}
]
}
