{
"type": "FeatureCollection",
"features": [
	{"geometry":{"coordinates":[9.106042,48.732537],"type":"Point"},"properties":{"osm_id":"255465600","tag":{"amenity":"recycling","check_date:recycling":"2020-09-23","operator":"Rhenus","recycling:glass_bottles":"yes","recycling_type":"container"}},"type":"Feature"},
	{"geometry":{"coordinates":[9.113172,48.72545],"type":"Point"},"properties":{"osm_id":"258313432","tag":{"amenity":"recycling","operator":"Rhenus","recycling:glass":"yes","recycling:glass_bottles":"yes","recycling_type":"container"}},"type":"Feature"},
	{"geometry":{"coordinates":[9.105091,48.735553],"type":"Point"},"properties":{"osm_id":"271345255","tag":{"amenity":"recycling","check_date:recycling":"2020-09-22","recycling:glass_bottles":"yes","recycling_type":"container"}},"type":"Feature"},
	{"geometry":{"coordinates":[9.109916,48.748412],"type":"Point"},"properties":{"osm_id":"282228777","tag":{"amenity":"recycling","recycling:glass_bottles":"yes","recycling_type":"container"}},"type":"Feature"},
	{"geometry":{"coordinates":[9.108021,48.731293],"type":"Point"},"properties":{"osm_id":"283476123","tag":{"amenity":"recycling","recycling:clothes":"yes","recycling:glass":"yes","recycling_type":"container"}},"type":"Feature"},
	{"geometry":{"coordinates":[9.131412,48.743983],"type":"Point"},"properties":{"osm_id":"286402828","tag":{"amenity":"recycling","location":"overground","recycling:clothes":"yes","recycling:glass_bottles":"yes","recycling_type":"container"}},"type":"Feature"},
	{"geometry":{"coordinates":[9.108342,48.735837],"type":"Point"},"properties":{"osm_id":"288921230","tag":{"amenity":"waste_disposal"}},"type":"Feature"},
	{"geometry":{"coordinates":[9.106326,48.748575],"type":"Point"},"properties":{"osm_id":"292990230","tag":{"amenity":"recycling","location":"overground","recycling:glass":"yes","recycling_type":"container"}},"type":"Feature"},
	{"geometry":{"coordinates":[9.112254,48.718286],"type":"Point"},"properties":{"osm_id":"304959447","tag":{"amenity":"recycling","location":"overground","recycling:glass":"yes","recycling_type":"container"}},"type":"Feature"},
	{"geometry":{"coordinates":[9.098583,48.727203],"type":"Point"},"properties":{"osm_id":"313152261","tag":{"amenity":"recycling","location":"overground","recycling:glass":"yes","recycling_type":"container"}},"type":"Feature"},
	{"geometry":{"coordinates":[9.122194,48.69138],"type":"Point"},"properties":{"osm_id":"321723206","tag":{"amenity":"recycling","location":"overground","recycling_type":"container"}},"type":"Feature"},
	{"geometry":{"coordinates":[9.119655,48.706147],"type":"Point"},"properties":{"osm_id":"371223214","tag":{"amenity":"recycling","recycling:batteries":"no","recycling:books":"no","recycling:cans":"no","recycling:cardboard":"no","recycling:cartons":"no","recycling:clothes":"yes","recycling:electrical_appliances":"no","recycling:glass":"no","recycling:glass_bottles":"yes","recycling:green_waste":"no","recycling:magazines":"no","recycling:newspaper":"no","recycling:paper":"no","recycling:paper_packaging":"no","recycling:plastic":"no","recycling:plastic_bottles":"no","recycling:plastic_packaging":"no","recycling:small_appliances":"no","recycling:waste":"no","recycling:wood":"no","recycling_type":"container"}},"type":"Feature"},
	{"geometry":{"coordinates":[9.096327,48.72037],"type":"Point"},"properties":{"osm_id":"402288817","tag":{"amenity":"recycling","operator":"Aktion Hoffnung Rottenburg Stuttgart e.V.; Striebel Textil GmbH","recycling:clothes":"yes","recycling_type":"container"}},"type":"Feature"},
	{"geometry":{"coordinates":[9.102746,48.744757],"type":"Point"},"properties":{"osm_id":"414023932","tag":{"amenity":"recycling","recycling:glass":"yes","recycling_type":"container"}},"type":"Feature"},
	{"geometry":{"coordinates":[9.110453,48.693859],"type":"Point"},"properties":{"osm_id":"458907219","tag":{"amenity":"recycling","location":"overground","recycling:glass":"yes","recycling:glass_bottles":"yes","recycling_type":"container"}},"type":"Feature"},
	{"geometry":{"coordinates":[9.119359,48.721143],"type":"Point"},"properties":{"osm_id":"472449089","tag":{"amenity":"recycling","location":"overground","recycling:glass":"yes","recycling_type":"container"}},"type":"Feature"},
	{"geometry":{"coordinates":[9.132725,48.692478],"type":"Point"},"properties":{"osm_id":"510803628","tag":{"amenity":"recycling","recycling:glass":"yes"}},"type":"Feature"},
	{"geometry":{"coordinates":[9.107358,48.745883],"type":"Point"},"properties":{"osm_id":"633432540","tag":{"amenity":"waste_basket"}},"type":"Feature"},
	{"geometry":{"coordinates":[9.10718,48.746134],"type":"Point"},"properties":{"osm_id":"633432558","tag":{"amenity":"waste_basket"}},"type":"Feature"},
	{"geometry":{"coordinates":[9.107571,48.746203],"type":"Point"},"properties":{"osm_id":"633432560","tag":{"amenity":"waste_basket"}},"type":"Feature"},
	{"geometry":{"coordinates":[9.107939,48.745756],"type":"Point"},"properties":{"osm_id":"633432597","tag":{"amenity":"waste_basket"}},"type":"Feature"},
	{"geometry":{"coordinates":[9.109337,48.74585],"type":"Point"},"properties":{"osm_id":"633432610","tag":{"amenity":"recycling","recycling:glass":"yes","recycling_type":"container"}},"type":"Feature"},
	{"geometry":{"coordinates":[9.10933,48.74583],"type":"Point"},"properties":{"osm_id":"633432613","tag":{"amenity":"waste_basket"}},"type":"Feature"},
	{"geometry":{"coordinates":[9.099966,48.744062],"type":"Point"},"properties":{"osm_id":"686426301","tag":{"amenity":"waste_basket"}},"type":"Feature"},
	{"geometry":{"coordinates":[9.099976,48.74423],"type":"Point"},"properties":{"osm_id":"686426303","tag":{"amenity":"waste_basket"}},"type":"Feature"},
	{"geometry":{"coordinates":[9.099995,48.744426],"type":"Point"},"properties":{"osm_id":"686426311","tag":{"amenity":"waste_basket"}},"type":"Feature"},
	{"geometry":{"coordinates":[9.129911,48.692999],"type":"Point"},"properties":{"osm_id":"714015606","tag":{"amenity":"recycling","location":"overground","recycling:glass":"yes","recycling_type":"container"}},"type":"Feature"},
	{"geometry":{"coordinates":[9.095473,48.741621],"type":"Point"},"properties":{"osm_id":"751817011","tag":{"amenity":"recycling","location":"overground","recycling:glass":"yes","recycling_type":"container"}},"type":"Feature"},
	{"geometry":{"coordinates":[9.117802,48.728114],"type":"Point"},"properties":{"osm_id":"789717847","tag":{"amenity":"recycling","recycling:glass_bottles":"yes","recycling_type":"container"}},"type":"Feature"},
	{"geometry":{"coordinates":[9.107131,48.738841],"type":"Point"},"properties":{"osm_id":"817298841","tag":{"amenity":"recycling","operator":"Rhenus","recycling:glass":"yes","recycling_type":"container"}},"type":"Feature"},
	{"geometry":{"coordinates":[9.131843,48.728197],"type":"Point"},"properties":{"osm_id":"862168839","tag":{"amenity":"recycling","operator":"Rhenus","recycling:glass":"yes","recycling:glass_bottles":"yes","recycling_type":"container"}},"type":"Feature"},
	{"geometry":{"coordinates":[9.097794,48.736248],"type":"Point"},"properties":{"osm_id":"905260233","tag":{"amenity":"waste_disposal"}},"type":"Feature"},
	{"geometry":{"coordinates":[9.107067,48.746565],"type":"Point"},"properties":{"osm_id":"964637290","tag":{"amenity":"waste_basket"}},"type":"Feature"},
	{"geometry":{"coordinates":[9.106687,48.742579],"type":"Point"},"properties":{"osm_id":"1107777578","tag":{"amenity":"recycling","recycling:glass":"yes","recycling_type":"container"}},"type":"Feature"},
	{"geometry":{"coordinates":[9.138766,48.733554],"type":"Point"},"properties":{"osm_id":"1252654845","tag":{"amenity":"waste_basket"}},"type":"Feature"},
	{"geometry":{"coordinates":[9.140459,48.73327],"type":"Point"},"properties":{"osm_id":"1252654846","tag":{"amenity":"waste_basket"}},"type":"Feature"},
	{"geometry":{"coordinates":[9.13919,48.733691],"type":"Point"},"properties":{"osm_id":"1252654848","tag":{"amenity":"waste_basket"}},"type":"Feature"},
	{"geometry":{"coordinates":[9.10233,48.746453],"type":"Point"},"properties":{"osm_id":"1311871475","tag":{"amenity":"recycling","location":"overground","recycling:glass_bottles":"yes","recycling_type":"container"}},"type":"Feature"},
	{"geometry":{"coordinates":[9.101449,48.746589],"type":"Point"},"properties":{"osm_id":"1311871477","tag":{"amenity":"recycling","location":"overground","recycling:paper":"yes","recycling_type":"container"}},"type":"Feature"},
	{"geometry":{"coordinates":[9.113133,48.718696],"type":"Point"},"properties":{"osm_id":"1464015888","tag":{"amenity":"waste_basket"}},"type":"Feature"},
	{"geometry":{"coordinates":[9.113868,48.71866],"type":"Point"},"properties":{"osm_id":"1464016853","tag":{"amenity":"waste_basket"}},"type":"Feature"},
	{"geometry":{"coordinates":[9.118807,48.730088],"type":"Point"},"properties":{"osm_id":"1553045257","tag":{"amenity":"recycling","recycling:glass_bottles":"yes","recycling_type":"container"}},"type":"Feature"},
	{"geometry":{"coordinates":[9.112529,48.728951],"type":"Point"},"properties":{"osm_id":"1680836230","tag":{"amenity":"waste_basket"}},"type":"Feature"},
	{"geometry":{"coordinates":[9.112523,48.729023],"type":"Point"},"properties":{"osm_id":"1680836232","tag":{"amenity":"waste_basket"}},"type":"Feature"},
	{"geometry":{"coordinates":[9.134867,48.745133],"type":"Point"},"properties":{"osm_id":"1682844616","tag":{"amenity":"waste_basket"}},"type":"Feature"},
	{"geometry":{"coordinates":[9.131293,48.739196],"type":"Point"},"properties":{"osm_id":"1683825881","tag":{"amenity":"recycling","image":"https://storage11.openstreetcam.org/files/photo/2019/4/2/lth/1361858_d9d20_5ca36777e2a94.jpg","recycling:glass":"yes","recycling_type":"container","survey:date":"2019-04-02"}},"type":"Feature"},
	{"geometry":{"coordinates":[9.131305,48.739231],"type":"Point"},"properties":{"osm_id":"1683825886","tag":{"amenity":"waste_basket"}},"type":"Feature"},
	{"geometry":{"coordinates":[9.130472,48.740083],"type":"Point"},"properties":{"osm_id":"1683825911","tag":{"amenity":"waste_basket"}},"type":"Feature"},
	{"geometry":{"coordinates":[9.100824,48.74477],"type":"Point"},"properties":{"osm_id":"1683938154","tag":{"access":"private","amenity":"recycling","location":"overground","recycling_type":"container"}},"type":"Feature"},
	{"geometry":{"coordinates":[9.098201,48.744321],"type":"Point"},"properties":{"osm_id":"1683938158","tag":{"access":"private","amenity":"recycling","location":"overground","recycling_type":"container"}},"type":"Feature"},
	{"geometry":{"coordinates":[9.112317,48.729739],"type":"Point"},"properties":{"osm_id":"1687782603","tag":{"amenity":"waste_basket"}},"type":"Feature"},
	{"geometry":{"coordinates":[9.13162,48.741948],"type":"Point"},"properties":{"osm_id":"1688120759","tag":{"amenity":"recycling","recycling:glass":"yes","recycling:glass_bottles":"yes","recycling_type":"container"}},"type":"Feature"},
	{"geometry":{"coordinates":[9.135894,48.733538],"type":"Point"},"properties":{"osm_id":"1715296988","tag":{"amenity":"recycling","recycling:glass":"yes","recycling_type":"container"}},"type":"Feature"},
	{"geometry":{"coordinates":[9.135886,48.73356],"type":"Point"},"properties":{"osm_id":"1715296993","tag":{"amenity":"waste_basket"}},"type":"Feature"},
	{"geometry":{"coordinates":[9.13912,48.727769],"type":"Point"},"properties":{"osm_id":"1715845195","tag":{"amenity":"waste_basket"}},"type":"Feature"},
	{"geometry":{"coordinates":[9.139358,48.728062],"type":"Point"},"properties":{"osm_id":"1716385619","tag":{"amenity":"waste_basket"}},"type":"Feature"},
	{"geometry":{"coordinates":[9.105833,48.71709],"type":"Point"},"properties":{"osm_id":"1716897685","tag":{"amenity":"recycling","operator":"Rhenus","recycling:glass":"yes","recycling:glass_bottles":"yes","recycling_type":"container"}},"type":"Feature"},
	{"geometry":{"coordinates":[9.10591,48.717135],"type":"Point"},"properties":{"osm_id":"1716897697","tag":{"amenity":"waste_basket"}},"type":"Feature"},
	{"geometry":{"coordinates":[9.102494,48.729949],"type":"Point"},"properties":{"osm_id":"1717560385","tag":{"amenity":"waste_basket"}},"type":"Feature"},
	{"geometry":{"coordinates":[9.102454,48.729953],"type":"Point"},"properties":{"osm_id":"1717560386","tag":{"amenity":"recycling","recycling:glass":"yes","recycling_type":"container"}},"type":"Feature"},
	{"geometry":{"coordinates":[9.112948,48.737232],"type":"Point"},"properties":{"osm_id":"1720785978","tag":{"amenity":"waste_basket"}},"type":"Feature"},
	{"geometry":{"coordinates":[9.111113,48.738117],"type":"Point"},"properties":{"osm_id":"1720848426","tag":{"amenity":"waste_basket"}},"type":"Feature"},
	{"geometry":{"coordinates":[9.121656,48.747815],"type":"Point"},"properties":{"osm_id":"1720924620","tag":{"amenity":"recycling","recycling:glass":"yes","recycling_type":"container"}},"type":"Feature"},
	{"geometry":{"coordinates":[9.107064,48.739033],"type":"Point"},"properties":{"osm_id":"1720988224","tag":{"amenity":"waste_basket"}},"type":"Feature"},
	{"geometry":{"coordinates":[9.11207,48.729948],"type":"Point"},"properties":{"osm_id":"1721066659","tag":{"amenity":"waste_basket"}},"type":"Feature"},
	{"geometry":{"coordinates":[9.128389,48.738389],"type":"Point"},"properties":{"osm_id":"1721161102","tag":{"amenity":"recycling","recycling:glass":"yes","recycling_type":"container"}},"type":"Feature"},
	{"geometry":{"coordinates":[9.128898,48.738785],"type":"Point"},"properties":{"osm_id":"1721161111","tag":{"amenity":"waste_basket"}},"type":"Feature"},
	{"geometry":{"coordinates":[9.138638,48.730982],"type":"Point"},"properties":{"osm_id":"1757270603","tag":{"amenity":"waste_basket"}},"type":"Feature"},
	{"geometry":{"coordinates":[9.138475,48.730625],"type":"Point"},"properties":{"osm_id":"1757270604","tag":{"amenity":"waste_basket"}},"type":"Feature"},
	{"geometry":{"coordinates":[9.111206,48.729081],"type":"Point"},"properties":{"osm_id":"2448292515","tag":{"amenity":"waste_basket"}},"type":"Feature"},
	{"geometry":{"coordinates":[9.140455,48.699415],"type":"Point"},"properties":{"osm_id":"2583505257","tag":{"amenity":"recycling","recycling:glass":"yes","recycling_type":"container"}},"type":"Feature"},
	{"geometry":{"coordinates":[9.100567,48.747259],"type":"Point"},"properties":{"osm_id":"3151615103","tag":{"amenity":"waste_basket"}},"type":"Feature"},
	{"geometry":{"coordinates":[9.107957,48.731294],"type":"Point"},"properties":{"osm_id":"3223808664","tag":{"amenity":"waste_basket"}},"type":"Feature"},
	{"geometry":{"coordinates":[9.104866,48.744135],"type":"Point"},"properties":{"osm_id":"3225821996","tag":{"amenity":"waste_basket"}},"type":"Feature"},
	{"geometry":{"coordinates":[9.138714,48.692851],"type":"Point"},"properties":{"osm_id":"3452101998","tag":{"amenity":"recycling","recycling:clothes":"yes","recycling_type":"container"}},"type":"Feature"},
	{"geometry":{"coordinates":[9.131751,48.74204],"type":"Point"},"properties":{"osm_id":"3511732339","tag":{"amenity":"waste_basket"}},"type":"Feature"},
	{"geometry":{"coordinates":[9.115037,48.731937],"type":"Point"},"properties":{"osm_id":"3515025786","tag":{"amenity":"waste_basket"}},"type":"Feature"},
	{"geometry":{"coordinates":[9.109267,48.731303],"type":"Point"},"properties":{"osm_id":"3526199035","tag":{"amenity":"waste_basket"}},"type":"Feature"},
	{"geometry":{"coordinates":[9.108377,48.735832],"type":"Point"},"properties":{"osm_id":"3526676790","tag":{"amenity":"waste_basket"}},"type":"Feature"},
	{"geometry":{"coordinates":[9.107243,48.731162],"type":"Point"},"properties":{"osm_id":"3527078962","tag":{"amenity":"waste_basket"}},"type":"Feature"},
	{"geometry":{"coordinates":[9.108985,48.731434],"type":"Point"},"properties":{"osm_id":"3527078964","tag":{"amenity":"waste_basket"}},"type":"Feature"},
	{"geometry":{"coordinates":[9.118767,48.730056],"type":"Point"},"properties":{"osm_id":"3530015221","tag":{"amenity":"waste_basket"}},"type":"Feature"},
	{"geometry":{"coordinates":[9.127822,48.705235],"type":"Point"},"properties":{"osm_id":"3543506620","tag":{"amenity":"recycling","clothes":"yes","recycling:batteries":"no","recycling:books":"no","recycling:cans":"no","recycling:cardboard":"no","recycling:cartons":"no","recycling:electrical_appliances":"no","recycling:glass":"no","recycling:glass_bottles":"yes","recycling:green_waste":"no","recycling:magazines":"no","recycling:newspaper":"no","recycling:paper":"no","recycling:paper_packaging":"no","recycling:plastic":"no","recycling:plastic_bottles":"no","recycling:plastic_packaging":"no","recycling:scrap_metal":"no","recycling:small_appliances":"no","recycling:waste":"no","recycling:wood":"no","recycling_type":"container"}},"type":"Feature"},
	{"geometry":{"coordinates":[9.1218,48.707667],"type":"Point"},"properties":{"osm_id":"3543506621","tag":{"amenity":"recycling","recycling:batteries":"no","recycling:books":"no","recycling:cans":"no","recycling:cardboard":"no","recycling:cartons":"no","recycling:electrical_appliances":"no","recycling:glass":"no","recycling:glass_bottles":"yes","recycling:green_waste":"no","recycling:magazines":"no","recycling:newspaper":"no","recycling:paper":"no","recycling:paper_packaging":"no","recycling:plastic":"no","recycling:plastic_bottles":"no","recycling:plastic_packaging":"no","recycling:scrap_metal":"no","recycling:small_appliances":"no","recycling:waste":"no","recycling:wood":"no","recycling_type":"container"}},"type":"Feature"},
	{"geometry":{"coordinates":[9.102428,48.745516],"type":"Point"},"properties":{"osm_id":"3623640557","tag":{"amenity":"waste_basket"}},"type":"Feature"},
	{"geometry":{"coordinates":[9.102774,48.745763],"type":"Point"},"properties":{"osm_id":"3623640558","tag":{"amenity":"waste_basket"}},"type":"Feature"},
	{"geometry":{"coordinates":[9.102407,48.746],"type":"Point"},"properties":{"osm_id":"3623640559","tag":{"amenity":"waste_basket"}},"type":"Feature"},
	{"geometry":{"coordinates":[9.103043,48.747672],"type":"Point"},"properties":{"osm_id":"3623640564","tag":{"amenity":"waste_basket"}},"type":"Feature"},
	{"geometry":{"coordinates":[9.10274,48.747817],"type":"Point"},"properties":{"osm_id":"3623640566","tag":{"amenity":"waste_basket"}},"type":"Feature"},
	{"geometry":{"coordinates":[9.102738,48.745204],"type":"Point"},"properties":{"osm_id":"3623648730","tag":{"amenity":"waste_basket"}},"type":"Feature"},
	{"geometry":{"coordinates":[9.118725,48.735425],"type":"Point"},"properties":{"osm_id":"3627518730","tag":{"amenity":"waste_basket"}},"type":"Feature"},
	{"geometry":{"coordinates":[9.054628,48.692951],"type":"Point"},"properties":{"osm_id":"3641491702","tag":{"amenity":"waste_basket"}},"type":"Feature"},
	{"geometry":{"coordinates":[9.109852,48.748419],"type":"Point"},"properties":{"osm_id":"3661153287","tag":{"amenity":"waste_basket"}},"type":"Feature"},
	{"geometry":{"coordinates":[9.106222,48.718193],"type":"Point"},"properties":{"osm_id":"3664041330","tag":{"amenity":"waste_basket"}},"type":"Feature"},
	{"geometry":{"coordinates":[9.106625,48.71807],"type":"Point"},"properties":{"osm_id":"3664692636","tag":{"amenity":"waste_basket"}},"type":"Feature"},
	{"geometry":{"coordinates":[9.106037,48.716651],"type":"Point"},"properties":{"osm_id":"3664989672","tag":{"amenity":"recycling","recycling:clothes":"yes","recycling_type":"container"}},"type":"Feature"},
	{"geometry":{"coordinates":[9.110358,48.724125],"type":"Point"},"properties":{"osm_id":"3665100189","tag":{"amenity":"waste_basket"}},"type":"Feature"},
	{"geometry":{"coordinates":[9.117718,48.727931],"type":"Point"},"properties":{"osm_id":"3665176798","tag":{"amenity":"recycling","recycling:clothes":"yes","recycling:shoes":"yes","recycling_type":"container"}},"type":"Feature"},
	{"geometry":{"coordinates":[9.130607,48.731936],"type":"Point"},"properties":{"osm_id":"3667608742","tag":{"amenity":"waste_basket"}},"type":"Feature"},
	{"geometry":{"coordinates":[9.136753,48.730903],"type":"Point"},"properties":{"osm_id":"3667620618","tag":{"amenity":"waste_basket"}},"type":"Feature"},
	{"geometry":{"coordinates":[9.111089,48.730933],"type":"Point"},"properties":{"osm_id":"3729401276","tag":{"amenity":"waste_basket"}},"type":"Feature"},
	{"geometry":{"coordinates":[9.111004,48.731074],"type":"Point"},"properties":{"osm_id":"3729401280","tag":{"amenity":"waste_basket"}},"type":"Feature"},
	{"geometry":{"coordinates":[9.111193,48.729971],"type":"Point"},"properties":{"osm_id":"3729450137","tag":{"amenity":"waste_basket"}},"type":"Feature"},
	{"geometry":{"coordinates":[9.11124,48.729458],"type":"Point"},"properties":{"osm_id":"3729882876","tag":{"amenity":"waste_basket"}},"type":"Feature"},
	{"geometry":{"coordinates":[9.111165,48.729914],"type":"Point"},"properties":{"osm_id":"3729882877","tag":{"amenity":"waste_basket"}},"type":"Feature"},
	{"geometry":{"coordinates":[9.110894,48.727338],"type":"Point"},"properties":{"osm_id":"3732159184","tag":{"amenity":"waste_basket"}},"type":"Feature"},
	{"geometry":{"coordinates":[9.134444,48.726359],"type":"Point"},"properties":{"osm_id":"3760440574","tag":{"access":"private","amenity":"waste_disposal"}},"type":"Feature"},
	{"geometry":{"coordinates":[9.126008,48.705929],"type":"Point"},"properties":{"osm_id":"3826208457","tag":{"amenity":"waste_basket"}},"type":"Feature"},
	{"geometry":{"coordinates":[9.120317,48.719433],"type":"Point"},"properties":{"osm_id":"3853178333","tag":{"amenity":"waste_basket"}},"type":"Feature"},
	{"geometry":{"coordinates":[9.116353,48.721711],"type":"Point"},"properties":{"osm_id":"3853178354","tag":{"amenity":"waste_basket"}},"type":"Feature"},
	{"geometry":{"coordinates":[9.113867,48.725842],"type":"Point"},"properties":{"osm_id":"3854672769","tag":{"amenity":"waste_basket"}},"type":"Feature"},
	{"geometry":{"coordinates":[9.114737,48.726319],"type":"Point"},"properties":{"osm_id":"3854672772","tag":{"amenity":"waste_basket"}},"type":"Feature"},
	{"geometry":{"coordinates":[9.117796,48.728155],"type":"Point"},"properties":{"osm_id":"3854672778","tag":{"amenity":"waste_basket"}},"type":"Feature"},
	{"geometry":{"coordinates":[9.139217,48.728678],"type":"Point"},"properties":{"osm_id":"3891034830","tag":{"amenity":"waste_basket"}},"type":"Feature"},
	{"geometry":{"coordinates":[9.139403,48.729376],"type":"Point"},"properties":{"osm_id":"3891034835","tag":{"amenity":"waste_basket"}},"type":"Feature"},
	{"geometry":{"coordinates":[9.09035,48.738861],"type":"Point"},"properties":{"osm_id":"4032011568","tag":{"amenity":"recycling","operator":"Rhenus","recycling:glass_bottles":"yes","recycling_type":"container"}},"type":"Feature"},
	{"geometry":{"coordinates":[9.090182,48.738884],"type":"Point"},"properties":{"osm_id":"4032011569","tag":{"amenity":"recycling","recycling:clothes":"yes","recycling:shoes":"yes","recycling_type":"container"}},"type":"Feature"},
	{"geometry":{"coordinates":[9.111704,48.732898],"type":"Point"},"properties":{"osm_id":"4110284099","tag":{"amenity":"waste_basket"}},"type":"Feature"},
	{"geometry":{"coordinates":[9.105132,48.735552],"type":"Point"},"properties":{"osm_id":"4410191026","tag":{"amenity":"waste_basket"}},"type":"Feature"},
	{"geometry":{"coordinates":[9.088924,48.733997],"type":"Point"},"properties":{"osm_id":"4469391804","tag":{"amenity":"waste_basket"}},"type":"Feature"},
	{"geometry":{"coordinates":[9.091449,48.734542],"type":"Point"},"properties":{"osm_id":"4469391887","tag":{"amenity":"waste_basket"}},"type":"Feature"},
	{"geometry":{"coordinates":[9.10127,48.742581],"type":"Point"},"properties":{"osm_id":"4595566635","tag":{"amenity":"waste_basket"}},"type":"Feature"},
	{"geometry":{"coordinates":[9.101155,48.74259],"type":"Point"},"properties":{"osm_id":"4602179266","tag":{"amenity":"waste_basket"}},"type":"Feature"},
	{"geometry":{"coordinates":[9.135899,48.733515],"type":"Point"},"properties":{"osm_id":"4794064627","tag":{"amenity":"recycling","recycling:clothes":"yes","recycling_type":"container"}},"type":"Feature"},
	{"geometry":{"coordinates":[9.107876,48.718368],"type":"Point"},"properties":{"osm_id":"4849793975","tag":{"amenity":"waste_basket"}},"type":"Feature"},
	{"geometry":{"coordinates":[9.122808,48.746907],"type":"Point"},"properties":{"osm_id":"5260309524","tag":{"amenity":"recycling","operator":"Neue Arbeit gGmbH","recycling:clothes":"yes","recycling:shoes":"yes","recycling_type":"container"}},"type":"Feature"},
	{"geometry":{"coordinates":[9.101528,48.738974],"type":"Point"},"properties":{"osm_id":"5264975665","tag":{"amenity":"waste_basket"}},"type":"Feature"},
	{"geometry":{"coordinates":[9.117825,48.717456],"type":"Point"},"properties":{"osm_id":"5362291185","tag":{"amenity":"recycling","recycling:glass_bottles":"yes","recycling_type":"container"}},"type":"Feature"},
	{"geometry":{"coordinates":[9.092049,48.718033],"type":"Point"},"properties":{"osm_id":"5366973284","tag":{"amenity":"recycling","recycling:glass_bottles":"yes","recycling_type":"container"}},"type":"Feature"},
	{"geometry":{"coordinates":[9.096255,48.720405],"type":"Point"},"properties":{"osm_id":"5367646213","tag":{"amenity":"waste_basket"}},"type":"Feature"},
	{"geometry":{"coordinates":[9.096299,48.720382],"type":"Point"},"properties":{"osm_id":"5367650445","tag":{"amenity":"recycling","recycling:glass_bottles":"yes","recycling_type":"container"}},"type":"Feature"},
	{"geometry":{"coordinates":[9.106088,48.71796],"type":"Point"},"properties":{"osm_id":"5367909167","tag":{"amenity":"waste_basket"}},"type":"Feature"},
	{"geometry":{"coordinates":[9.118093,48.719343],"type":"Point"},"properties":{"osm_id":"5369001957","tag":{"amenity":"waste_basket"}},"type":"Feature"},
	{"geometry":{"coordinates":[9.119346,48.721108],"type":"Point"},"properties":{"osm_id":"5369101276","tag":{"amenity":"waste_basket"}},"type":"Feature"},
	{"geometry":{"coordinates":[9.118019,48.718217],"type":"Point"},"properties":{"osm_id":"5369101294","tag":{"amenity":"waste_basket"}},"type":"Feature"},
	{"geometry":{"coordinates":[9.117995,48.718201],"type":"Point"},"properties":{"osm_id":"5369101295","tag":{"amenity":"recycling","operator":"Rhenus","recycling:glass_bottles":"yes","recycling_type":"container"}},"type":"Feature"},
	{"geometry":{"coordinates":[9.117747,48.716133],"type":"Point"},"properties":{"osm_id":"5374661063","tag":{"amenity":"recycling","recycling:clothes":"yes","recycling_type":"container"}},"type":"Feature"},
	{"geometry":{"coordinates":[9.118984,48.716365],"type":"Point"},"properties":{"osm_id":"5374803129","tag":{"amenity":"recycling","recycling:clothes":"yes","recycling_type":"container"}},"type":"Feature"},
	{"geometry":{"coordinates":[9.108449,48.7327],"type":"Point"},"properties":{"osm_id":"5422870653","tag":{"amenity":"waste_basket"}},"type":"Feature"},
	{"geometry":{"coordinates":[9.109745,48.738761],"type":"Point"},"properties":{"osm_id":"5514344672","tag":{"amenity":"waste_basket"}},"type":"Feature"},
	{"geometry":{"coordinates":[9.112367,48.737544],"type":"Point"},"properties":{"osm_id":"5516501052","tag":{"amenity":"waste_basket"}},"type":"Feature"},
	{"geometry":{"coordinates":[9.130359,48.739865],"type":"Point"},"properties":{"osm_id":"5596689449","tag":{"amenity":"waste_basket","direction":"290","waste":"trash"}},"type":"Feature"},
	{"geometry":{"coordinates":[9.114086,48.725282],"type":"Point"},"properties":{"osm_id":"5617104994","tag":{"amenity":"waste_basket","wheelchair":"yes"}},"type":"Feature"},
	{"geometry":{"coordinates":[9.105868,48.717088],"type":"Point"},"properties":{"osm_id":"5621132302","tag":{"amenity":"recycling","operator":"Stadt Stuttgart","recycling:clothes":"yes","recycling:shoes":"yes","recycling_type":"container"}},"type":"Feature"},
	{"geometry":{"coordinates":[9.113197,48.725439],"type":"Point"},"properties":{"osm_id":"5641121200","tag":{"amenity":"recycling","operator":"Stadt Stuttgart","recycling:clothes":"yes","recycling:shoes":"yes","recycling_type":"container"}},"type":"Feature"},
	{"geometry":{"coordinates":[9.126655,48.725186],"type":"Point"},"properties":{"osm_id":"5644311085","tag":{"amenity":"recycling","operator":"Rhenus","recycling:glass_bottles":"yes","recycling_type":"container"}},"type":"Feature"},
	{"geometry":{"coordinates":[9.126686,48.725184],"type":"Point"},"properties":{"osm_id":"5644311086","tag":{"amenity":"waste_basket"}},"type":"Feature"},
	{"geometry":{"coordinates":[9.107819,48.729974],"type":"Point"},"properties":{"osm_id":"5648959570","tag":{"amenity":"waste_basket"}},"type":"Feature"},
	{"geometry":{"coordinates":[9.122411,48.735993],"type":"Point"},"properties":{"osm_id":"5649427530","tag":{"amenity":"waste_basket","waste":"trash"}},"type":"Feature"},
	{"geometry":{"coordinates":[9.127871,48.72892],"type":"Point"},"properties":{"osm_id":"5651151814","tag":{"amenity":"waste_basket"}},"type":"Feature"},
	{"geometry":{"coordinates":[9.128523,48.74236],"type":"Point"},"properties":{"osm_id":"5667120008","tag":{"amenity":"recycling","recycling:clothes":"yes","recycling_type":"container"}},"type":"Feature"},
	{"geometry":{"coordinates":[9.113698,48.736622],"type":"Point"},"properties":{"osm_id":"5867828167","tag":{"amenity":"waste_basket"}},"type":"Feature"},
	{"geometry":{"coordinates":[9.090398,48.738848],"type":"Point"},"properties":{"osm_id":"5870485815","tag":{"amenity":"waste_basket"}},"type":"Feature"},
	{"geometry":{"coordinates":[9.106047,48.732563],"type":"Point"},"properties":{"osm_id":"5870992111","tag":{"amenity":"waste_basket"}},"type":"Feature"},
	{"geometry":{"coordinates":[9.112025,48.726905],"type":"Point"},"properties":{"osm_id":"5874113382","tag":{"amenity":"waste_basket"}},"type":"Feature"},
	{"geometry":{"coordinates":[9.113508,48.729903],"type":"Point"},"properties":{"osm_id":"5875350565","tag":{"amenity":"waste_basket"}},"type":"Feature"},
	{"geometry":{"coordinates":[9.131815,48.728245],"type":"Point"},"properties":{"osm_id":"5875557912","tag":{"amenity":"waste_basket"}},"type":"Feature"},
	{"geometry":{"coordinates":[9.139332,48.72771],"type":"Point"},"properties":{"osm_id":"5875695321","tag":{"amenity":"waste_basket"}},"type":"Feature"},
	{"geometry":{"coordinates":[9.117422,48.736652],"type":"Point"},"properties":{"osm_id":"5880577397","tag":{"amenity":"waste_basket"}},"type":"Feature"},
	{"geometry":{"coordinates":[9.113104,48.72642],"type":"Point"},"properties":{"osm_id":"5913368688","tag":{"amenity":"waste_basket"}},"type":"Feature"},
	{"geometry":{"coordinates":[9.113385,48.726593],"type":"Point"},"properties":{"osm_id":"5913368690","tag":{"amenity":"waste_basket"}},"type":"Feature"},
	{"geometry":{"coordinates":[9.113246,48.726506],"type":"Point"},"properties":{"osm_id":"5913368691","tag":{"amenity":"waste_basket"}},"type":"Feature"},
	{"geometry":{"coordinates":[9.105597,48.727724],"type":"Point"},"properties":{"osm_id":"6046999680","tag":{"amenity":"waste_basket"}},"type":"Feature"},
	{"geometry":{"coordinates":[9.129873,48.726889],"type":"Point"},"properties":{"osm_id":"6114108713","tag":{"amenity":"waste_basket"}},"type":"Feature"},
	{"geometry":{"coordinates":[9.140575,48.730185],"type":"Point"},"properties":{"osm_id":"6119723132","tag":{"amenity":"waste_basket"}},"type":"Feature"},
	{"geometry":{"coordinates":[9.127433,48.705274],"type":"Point"},"properties":{"osm_id":"6166795902","tag":{"amenity":"waste_basket","level":"1"}},"type":"Feature"},
	{"geometry":{"coordinates":[9.136027,48.741922],"type":"Point"},"properties":{"osm_id":"6171671031","tag":{"amenity":"waste_disposal"}},"type":"Feature"},
	{"geometry":{"coordinates":[9.119177,48.714723],"type":"Point"},"properties":{"osm_id":"6299525846","tag":{"amenity":"waste_basket"}},"type":"Feature"},
	{"geometry":{"coordinates":[9.119381,48.714953],"type":"Point"},"properties":{"osm_id":"6299525847","tag":{"amenity":"waste_basket"}},"type":"Feature"},
	{"geometry":{"coordinates":[9.119346,48.717407],"type":"Point"},"properties":{"osm_id":"6301446763","tag":{"amenity":"waste_basket"}},"type":"Feature"},
	{"geometry":{"coordinates":[9.117994,48.71818],"type":"Point"},"properties":{"osm_id":"6301482412","tag":{"amenity":"recycling","operator":"Stadt Stuttgart","recycling:clothes":"yes","recycling:shoes":"yes","recycling_type":"container"}},"type":"Feature"},
	{"geometry":{"coordinates":[9.134411,48.694137],"type":"Point"},"properties":{"osm_id":"6326677859","tag":{"amenity":"recycling","recycling:paper":"yes","recycling_type":"container"}},"type":"Feature"},
	{"geometry":{"coordinates":[9.13432,48.694156],"type":"Point"},"properties":{"osm_id":"6326677860","tag":{"amenity":"recycling","recycling:glass_bottles":"yes","recycling_type":"container"}},"type":"Feature"},
	{"geometry":{"coordinates":[9.138612,48.699371],"type":"Point"},"properties":{"osm_id":"6339445064","tag":{"amenity":"recycling","location":"overground","recycling:bottles":"yes","recycling_type":"container"}},"type":"Feature"},
	{"geometry":{"coordinates":[9.106308,48.748589],"type":"Point"},"properties":{"osm_id":"6367934538","tag":{"amenity":"waste_basket"}},"type":"Feature"},
	{"geometry":{"coordinates":[9.128499,48.693404],"type":"Point"},"properties":{"osm_id":"6507145810","tag":{"amenity":"recycling","recycling:glass":"yes","recycling_type":"container"}},"type":"Feature"},
	{"geometry":{"coordinates":[9.09037,48.738667],"type":"Point"},"properties":{"osm_id":"6586753644","tag":{"amenity":"waste_basket"}},"type":"Feature"},
	{"geometry":{"coordinates":[9.138669,48.699494],"type":"Point"},"properties":{"osm_id":"6598847068","tag":{"amenity":"waste_basket"}},"type":"Feature"},
	{"geometry":{"coordinates":[9.096342,48.738391],"type":"Point"},"properties":{"osm_id":"7511161425","tag":{"amenity":"waste_basket"}},"type":"Feature"},
	{"geometry":{"coordinates":[9.128791,48.740278],"type":"Point"},"properties":{"osm_id":"7569773866","tag":{"amenity":"waste_basket"}},"type":"Feature"},
	{"geometry":{"coordinates":[9.12064,48.735274],"type":"Point"},"properties":{"osm_id":"7569818006","tag":{"amenity":"recycling","recycling:glass_bottles":"yes","recycling_type":"container"}},"type":"Feature"},
	{"geometry":{"coordinates":[9.095823,48.743359],"type":"Point"},"properties":{"osm_id":"7711114503","tag":{"access":"private","amenity":"recycling","location":"overground","recycling_type":"container"}},"type":"Feature"},
	{"geometry":{"coordinates":[9.119387,48.72118],"type":"Point"},"properties":{"osm_id":"7713574649","tag":{"amenity":"recycling","operator":"Landeshauptstadt Stuttgart","recycling:clothes":"yes","recycling:shoes":"yes","recycling_type":"container"}},"type":"Feature"},
	{"geometry":{"coordinates":[9.10715,48.73887],"type":"Point"},"properties":{"osm_id":"7713809171","tag":{"amenity":"recycling","operator":"Landeshauptstadt Stuttgart","recycling:clothes":"yes","recycling:shoes":"yes","recycling_type":"container"}},"type":"Feature"},
	{"geometry":{"coordinates":[9.110328,48.730726],"type":"Point"},"properties":{"osm_id":"7923983423","tag":{"amenity":"waste_basket"}},"type":"Feature"},
	{"geometry":{"coordinates":[9.109741,48.731501],"type":"Point"},"properties":{"osm_id":"7935766990","tag":{"amenity":"waste_basket"}},"type":"Feature"}
]
}
