{
"type": "FeatureCollection",
"features": [
	{"geometry":{"coordinates":[9.069107,48.517234],"type":"Point"},"properties":{"osm_id":"29415707","tag":{"amenity":"recycling","location":"overground","recycling:glass_bottles":"yes","recycling_type":"container"}},"type":"Feature"},
	{"geometry":{"coordinates":[9.082254,48.531916],"type":"Point"},"properties":{"osm_id":"30933690","tag":{"amenity":"recycling","recycling:glass_bottles":"yes","recycling_type":"container"}},"type":"Feature"},
	{"geometry":{"coordinates":[9.089822,48.536455],"type":"Point"},"properties":{"osm_id":"31604581","tag":{"amenity":"recycling","recycling:glass_bottles":"yes","recycling_type":"container"}},"type":"Feature"},
	{"geometry":{"coordinates":[9.081811,48.523691],"type":"Point"},"properties":{"osm_id":"209003840","tag":{"amenity":"recycling","recycling:glass_bottles":"yes","recycling_type":"container"}},"type":"Feature"},
	{"geometry":{"coordinates":[9.118721,48.544952],"type":"Point"},"properties":{"name":"Altglascontainer","osm_id":"244008638","tag":{"amenity":"recycling","recycling_type":"container"}},"type":"Feature"},
	{"geometry":{"coordinates":[9.107519,48.554446],"type":"Point"},"properties":{"osm_id":"244209297","tag":{"amenity":"recycling","recycling:glass_bottles":"yes","recycling_type":"container"}},"type":"Feature"},
	{"geometry":{"coordinates":[9.114298,48.528133],"type":"Point"},"properties":{"osm_id":"279200910","tag":{"amenity":"recycling","recycling_type":"container"}},"type":"Feature"},
	{"geometry":{"coordinates":[9.061416,48.542279],"type":"Point"},"properties":{"osm_id":"299842409","tag":{"amenity":"recycling","recycling:glass_bottles":"yes"}},"type":"Feature"},
	{"geometry":{"coordinates":[9.060113,48.52276],"type":"Point"},"properties":{"osm_id":"310528218","tag":{"amenity":"recycling","recycling:glass_bottles":"yes","recycling_type":"container"}},"type":"Feature"},
	{"geometry":{"coordinates":[9.11981,48.516846],"type":"Point"},"properties":{"osm_id":"364725089","tag":{"amenity":"recycling","recycling:clothes":"yes","recycling:glass_bottles":"yes","recycling_type":"container"}},"type":"Feature"},
	{"geometry":{"coordinates":[9.068855,48.535684],"type":"Point"},"properties":{"osm_id":"391463539","tag":{"amenity":"recycling","recycling:glass_bottles":"yes","recycling_type":"container"}},"type":"Feature"},
	{"geometry":{"coordinates":[9.118558,48.52674],"type":"Point"},"properties":{"osm_id":"404646588","tag":{"amenity":"recycling","recycling:clothes":"yes","recycling_type":"container"}},"type":"Feature"},
	{"geometry":{"coordinates":[9.071167,48.518481],"type":"Point"},"properties":{"osm_id":"411051363","tag":{"amenity":"recycling","location":"overground","recycling_type":"container"}},"type":"Feature"},
	{"geometry":{"coordinates":[9.053878,48.530138],"type":"Point"},"properties":{"osm_id":"412502318","tag":{"amenity":"recycling","recycling:glass_bottles":"yes","recycling_type":"container"}},"type":"Feature"},
	{"geometry":{"coordinates":[9.05614,48.545973],"type":"Point"},"properties":{"osm_id":"429765529","tag":{"amenity":"recycling","recycling:glass_bottles":"yes","recycling_type":"container"}},"type":"Feature"},
	{"geometry":{"coordinates":[9.059614,48.529443],"type":"Point"},"properties":{"osm_id":"469282331","tag":{"amenity":"recycling","recycling_type":"container"}},"type":"Feature"},
	{"geometry":{"coordinates":[9.068315,48.523606],"type":"Point"},"properties":{"osm_id":"486302765","tag":{"amenity":"recycling","recycling:glass_bottles":"yes","recycling_type":"container"}},"type":"Feature"},
	{"geometry":{"coordinates":[9.053554,48.5365],"type":"Point"},"properties":{"osm_id":"612983005","tag":{"amenity":"recycling","recycling:glass_bottles":"yes","recycling_type":"container"}},"type":"Feature"},
	{"geometry":{"coordinates":[9.08601,48.52613],"type":"Point"},"properties":{"osm_id":"674391876","tag":{"amenity":"recycling","recycling:glass_bottles":"yes","recycling_type":"container"}},"type":"Feature"},
	{"geometry":{"coordinates":[9.06827,48.528725],"type":"Point"},"properties":{"osm_id":"1765965886","tag":{"amenity":"recycling","recycling:glass_bottles":"yes","recycling_type":"container","wikimedia_commons":"File:Altglascontainer am Fu\u00c3\u009f des \u00c3\u0096sterbergs in T\u00c3\u00bcbingen.jpg"}},"type":"Feature"},
	{"geometry":{"coordinates":[9.05699,48.522004],"type":"Point"},"properties":{"osm_id":"1789168773","tag":{"amenity":"waste_basket"}},"type":"Feature"},
	{"geometry":{"coordinates":[9.057368,48.522632],"type":"Point"},"properties":{"osm_id":"1789168776","tag":{"amenity":"waste_basket"}},"type":"Feature"},
	{"geometry":{"coordinates":[9.055745,48.523181],"type":"Point"},"properties":{"osm_id":"1789168784","tag":{"amenity":"waste_basket"}},"type":"Feature"},
	{"geometry":{"coordinates":[9.056261,48.523329],"type":"Point"},"properties":{"osm_id":"1789168795","tag":{"amenity":"waste_basket"}},"type":"Feature"},
	{"geometry":{"coordinates":[9.05628,48.523588],"type":"Point"},"properties":{"osm_id":"1789168813","tag":{"amenity":"waste_basket"}},"type":"Feature"},
	{"geometry":{"coordinates":[9.056696,48.523879],"type":"Point"},"properties":{"osm_id":"1789168820","tag":{"amenity":"waste_basket"}},"type":"Feature"},
	{"geometry":{"coordinates":[9.056959,48.524049],"type":"Point"},"properties":{"osm_id":"1789168822","tag":{"amenity":"waste_basket"}},"type":"Feature"},
	{"geometry":{"coordinates":[9.062129,48.560851],"type":"Point"},"properties":{"osm_id":"1888786713","tag":{"amenity":"recycling","recycling:glass":"no","recycling:glass_bottles":"yes","recycling_type":"container"}},"type":"Feature"},
	{"geometry":{"coordinates":[9.069125,48.530424],"type":"Point"},"properties":{"osm_id":"2110005509","tag":{"amenity":"recycling","recycling:clothes":"yes","recycling_type":"container"}},"type":"Feature"},
	{"geometry":{"coordinates":[9.056964,48.52425],"type":"Point"},"properties":{"osm_id":"2313312013","tag":{"amenity":"waste_basket"}},"type":"Feature"},
	{"geometry":{"coordinates":[9.057654,48.519648],"type":"Point"},"properties":{"osm_id":"2313312014","tag":{"amenity":"waste_basket"}},"type":"Feature"},
	{"geometry":{"coordinates":[9.057507,48.520983],"type":"Point"},"properties":{"osm_id":"2361568240","tag":{"amenity":"waste_basket"}},"type":"Feature"},
	{"geometry":{"coordinates":[9.057917,48.519867],"type":"Point"},"properties":{"osm_id":"2362339387","tag":{"amenity":"waste_basket"}},"type":"Feature"},
	{"geometry":{"coordinates":[9.057828,48.52025],"type":"Point"},"properties":{"osm_id":"2362410738","tag":{"amenity":"waste_basket"}},"type":"Feature"},
	{"geometry":{"coordinates":[9.057713,48.520575],"type":"Point"},"properties":{"osm_id":"2362410740","tag":{"amenity":"waste_basket"}},"type":"Feature"},
	{"geometry":{"coordinates":[9.056411,48.523474],"type":"Point"},"properties":{"osm_id":"2406896080","tag":{"amenity":"waste_basket"}},"type":"Feature"},
	{"geometry":{"coordinates":[9.056666,48.523234],"type":"Point"},"properties":{"osm_id":"2406896099","tag":{"amenity":"waste_basket"}},"type":"Feature"},
	{"geometry":{"coordinates":[9.054427,48.523303],"type":"Point"},"properties":{"osm_id":"2480633936","tag":{"amenity":"waste_basket"}},"type":"Feature"},
	{"geometry":{"coordinates":[9.057554,48.526343],"type":"Point"},"properties":{"osm_id":"2597730172","tag":{"amenity":"waste_basket"}},"type":"Feature"},
	{"geometry":{"coordinates":[9.061461,48.542275],"type":"Point"},"properties":{"osm_id":"2723663698","tag":{"amenity":"recycling","recycling:glass_bottles":"yes"}},"type":"Feature"},
	{"geometry":{"coordinates":[9.054705,48.522376],"type":"Point"},"properties":{"osm_id":"2961323934","tag":{"amenity":"waste_basket"}},"type":"Feature"},
	{"geometry":{"coordinates":[9.054734,48.520252],"type":"Point"},"properties":{"osm_id":"2992150766","tag":{"amenity":"waste_basket"}},"type":"Feature"},
	{"geometry":{"coordinates":[9.05353,48.531737],"type":"Point"},"properties":{"osm_id":"3040997609","tag":{"amenity":"waste_basket"}},"type":"Feature"},
	{"geometry":{"coordinates":[9.135343,48.516994],"type":"Point"},"properties":{"osm_id":"4140173217","tag":{"amenity":"waste_basket","waste":"dog_excrement"}},"type":"Feature"},
	{"geometry":{"coordinates":[9.109882,48.517019],"type":"Point"},"properties":{"osm_id":"4140173218","tag":{"amenity":"waste_basket","waste":"dog_excrement"}},"type":"Feature"},
	{"geometry":{"coordinates":[9.13968,48.517136],"type":"Point"},"properties":{"osm_id":"4140173219","tag":{"amenity":"waste_basket","waste":"dog_excrement"}},"type":"Feature"},
	{"geometry":{"coordinates":[9.124132,48.521745],"type":"Point"},"properties":{"osm_id":"4206848736","tag":{"amenity":"waste_basket"}},"type":"Feature"},
	{"geometry":{"coordinates":[9.107874,48.520326],"type":"Point"},"properties":{"name":"Problemstoff-Sammelstelle","osm_id":"4254201129","tag":{"amenity":"recycling","opening_hours":"Fr 14:30-15:30; PH off","operator":"Zweckverband Abfallverwertung Reutlingen/T\u00c3\u00bcbingen","recycling_type":"centre","website":"https://www.abfall-kreis-tuebingen.de/index.php?id=41","wheelchair":"limited"}},"type":"Feature"},
	{"geometry":{"coordinates":[9.056118,48.519993],"type":"Point"},"properties":{"osm_id":"4580823984","tag":{"amenity":"waste_basket"}},"type":"Feature"},
	{"geometry":{"coordinates":[9.05838,48.520245],"type":"Point"},"properties":{"osm_id":"4925272482","tag":{"amenity":"waste_basket"}},"type":"Feature"},
	{"geometry":{"coordinates":[9.056038,48.521414],"type":"Point"},"properties":{"osm_id":"5154986632","tag":{"amenity":"waste_basket"}},"type":"Feature"},
	{"geometry":{"coordinates":[9.056042,48.521021],"type":"Point"},"properties":{"osm_id":"5154986633","tag":{"amenity":"waste_basket"}},"type":"Feature"},
	{"geometry":{"coordinates":[9.057069,48.522511],"type":"Point"},"properties":{"osm_id":"5156875630","tag":{"amenity":"waste_basket"}},"type":"Feature"},
	{"geometry":{"coordinates":[9.056894,48.522624],"type":"Point"},"properties":{"osm_id":"5156875632","tag":{"amenity":"waste_basket"}},"type":"Feature"},
	{"geometry":{"coordinates":[9.057773,48.5221],"type":"Point"},"properties":{"osm_id":"5156875633","tag":{"amenity":"waste_basket"}},"type":"Feature"},
	{"geometry":{"coordinates":[9.058201,48.536823],"type":"Point"},"properties":{"osm_id":"5171260347","tag":{"amenity":"waste_basket"}},"type":"Feature"},
	{"geometry":{"coordinates":[9.058219,48.536993],"type":"Point"},"properties":{"osm_id":"5171260348","tag":{"amenity":"waste_basket"}},"type":"Feature"},
	{"geometry":{"coordinates":[9.058491,48.537041],"type":"Point"},"properties":{"osm_id":"5171260349","tag":{"amenity":"waste_basket"}},"type":"Feature"},
	{"geometry":{"coordinates":[9.060192,48.540865],"type":"Point"},"properties":{"osm_id":"5759731703","tag":{"amenity":"recycling","recycling_type":"container"}},"type":"Feature"},
	{"geometry":{"coordinates":[9.054493,48.52157],"type":"Point"},"properties":{"osm_id":"5965646710","tag":{"amenity":"waste_basket"}},"type":"Feature"},
	{"geometry":{"coordinates":[9.054381,48.521585],"type":"Point"},"properties":{"osm_id":"5965648800","tag":{"amenity":"recycling","location":"overground","recycling:clothes":"yes","recycling_type":"container"}},"type":"Feature"},
	{"geometry":{"coordinates":[9.05423,48.521549],"type":"Point"},"properties":{"osm_id":"5965648801","tag":{"amenity":"waste_basket"}},"type":"Feature"},
	{"geometry":{"coordinates":[9.053401,48.52109],"type":"Point"},"properties":{"osm_id":"5965648802","tag":{"amenity":"waste_basket"}},"type":"Feature"},
	{"geometry":{"coordinates":[9.059263,48.541376],"type":"Point"},"properties":{"osm_id":"6152672123","tag":{"amenity":"recycling","recycling:paper":"yes","recycling_type":"container"}},"type":"Feature"},
	{"geometry":{"coordinates":[9.059159,48.517835],"type":"Point"},"properties":{"osm_id":"6204216090","tag":{"amenity":"waste_basket","waste":"trash"}},"type":"Feature"},
	{"geometry":{"coordinates":[9.059901,48.517659],"type":"Point"},"properties":{"osm_id":"6204216091","tag":{"amenity":"waste_basket","waste":"trash"}},"type":"Feature"},
	{"geometry":{"coordinates":[9.055948,48.519936],"type":"Point"},"properties":{"osm_id":"6209742650","tag":{"amenity":"waste_basket"}},"type":"Feature"},
	{"geometry":{"coordinates":[9.056042,48.519968],"type":"Point"},"properties":{"osm_id":"6209742651","tag":{"amenity":"waste_basket"}},"type":"Feature"},
	{"geometry":{"coordinates":[9.058107,48.518147],"type":"Point"},"properties":{"osm_id":"6497056791","tag":{"amenity":"waste_basket"}},"type":"Feature"},
	{"geometry":{"coordinates":[9.055039,48.516965],"type":"Point"},"properties":{"osm_id":"6708321528","tag":{"amenity":"waste_basket"}},"type":"Feature"},
	{"geometry":{"coordinates":[9.054959,48.517063],"type":"Point"},"properties":{"osm_id":"6708326629","tag":{"amenity":"waste_basket"}},"type":"Feature"},
	{"geometry":{"coordinates":[9.055621,48.517616],"type":"Point"},"properties":{"osm_id":"6708336418","tag":{"amenity":"waste_basket"}},"type":"Feature"},
	{"geometry":{"coordinates":[9.055319,48.518178],"type":"Point"},"properties":{"osm_id":"6708358509","tag":{"amenity":"waste_basket"}},"type":"Feature"},
	{"geometry":{"coordinates":[9.054895,48.517256],"type":"Point"},"properties":{"osm_id":"6708375247","tag":{"amenity":"waste_basket"}},"type":"Feature"},
	{"geometry":{"coordinates":[9.055627,48.517101],"type":"Point"},"properties":{"osm_id":"6708377197","tag":{"amenity":"waste_basket"}},"type":"Feature"},
	{"geometry":{"coordinates":[9.058928,48.520318],"type":"Point"},"properties":{"osm_id":"6712447000","tag":{"amenity":"waste_basket","waste":"trash"}},"type":"Feature"},
	{"geometry":{"coordinates":[9.059208,48.541376],"type":"Point"},"properties":{"osm_id":"6713254324","tag":{"amenity":"recycling","recycling:plastic":"yes","recycling_type":"container"}},"type":"Feature"},
	{"geometry":{"coordinates":[9.059451,48.541543],"type":"Point"},"properties":{"osm_id":"6713292858","tag":{"amenity":"recycling","recycling:clothes":"yes","recycling:shoes":"yes","recycling_type":"container"}},"type":"Feature"},
	{"geometry":{"coordinates":[9.069069,48.518307],"type":"Point"},"properties":{"osm_id":"6750717050","tag":{"amenity":"waste_basket","waste":"trash"}},"type":"Feature"},
	{"geometry":{"coordinates":[9.068787,48.518277],"type":"Point"},"properties":{"osm_id":"6750717052","tag":{"amenity":"waste_basket","waste":"trash"}},"type":"Feature"},
	{"geometry":{"coordinates":[9.060595,48.520174],"type":"Point"},"properties":{"osm_id":"6750719620","tag":{"amenity":"waste_basket","waste":"trash"}},"type":"Feature"},
	{"geometry":{"coordinates":[9.057635,48.521513],"type":"Point"},"properties":{"osm_id":"6996442623","tag":{"amenity":"waste_basket","waste":"trash"}},"type":"Feature"},
	{"geometry":{"coordinates":[9.095173,48.552475],"type":"Point"},"properties":{"barrier":"gate","osm_id":"7184878500","tag":{"height":"2","material":"steel"}},"type":"Feature"},
	{"geometry":{"coordinates":[9.095527,48.552929],"type":"Point"},"properties":{"barrier":"gate","osm_id":"7191373348","tag":{"height":"2","material":"steel"}},"type":"Feature"},
	{"geometry":{"coordinates":[9.138881,48.529273],"type":"Point"},"properties":{"osm_id":"7521387712","tag":{"amenity":"waste_basket","waste":"trash"}},"type":"Feature"},
	{"geometry":{"coordinates":[9.138816,48.529126],"type":"Point"},"properties":{"osm_id":"7521387747","tag":{"amenity":"waste_basket","waste":"trash"}},"type":"Feature"},
	{"geometry":{"coordinates":[9.138833,48.529099],"type":"Point"},"properties":{"osm_id":"7521387749","tag":{"amenity":"waste_basket","waste":"trash"}},"type":"Feature"},
	{"geometry":{"coordinates":[9.059826,48.561642],"type":"Point"},"properties":{"osm_id":"7838805600","tag":{"emergency":"fire_hydrant","fire_hydrant:diameter":"100","fire_hydrant:type":"underground","water_source":"main"}},"type":"Feature"},
	{"geometry":{"coordinates":[9.053479,48.520232],"type":"Point"},"properties":{"osm_id":"7854375028","tag":{"amenity":"waste_basket","waste":"trash"}},"type":"Feature"}
]
}
