{
"type": "FeatureCollection",
"features": [
	{"geometry":{"coordinates":[9.060056,48.509063],"type":"Point"},"properties":{"osm_id":"208995828","tag":{"amenity":"recycling","recycling:glass_bottles":"yes","recycling_type":"container"}},"type":"Feature"},
	{"geometry":{"coordinates":[9.06535,48.487919],"type":"Point"},"properties":{"name":"T\u00c3\u00bcbingen-Derendingen","osm_id":"247471084","tag":{"direction":"forward","traffic_sign":"city_limit"}},"type":"Feature"},
	{"geometry":{"coordinates":[9.062227,48.516345],"type":"Point"},"properties":{"osm_id":"297190666","tag":{"amenity":"waste_basket"}},"type":"Feature"},
	{"geometry":{"coordinates":[9.062961,48.516152],"type":"Point"},"properties":{"osm_id":"297190668","tag":{"amenity":"waste_basket"}},"type":"Feature"},
	{"geometry":{"coordinates":[9.056013,48.465937],"type":"Point"},"properties":{"barrier":"gate","osm_id":"298867709"},"type":"Feature"},
	{"geometry":{"coordinates":[9.12469,48.500862],"type":"Point"},"properties":{"osm_id":"415389523","tag":{"amenity":"recycling","recycling:clothes":"yes","recycling:glass_bottles":"yes","recycling_type":"container"}},"type":"Feature"},
	{"geometry":{"coordinates":[9.09863,48.50872],"type":"Point"},"properties":{"barrier":"gate","osm_id":"558875027","tag":{"bicycle":"yes","foot":"yes","motorcar":"yes","motorcycle":"yes"}},"type":"Feature"},
	{"geometry":{"coordinates":[9.063181,48.499569],"type":"Point"},"properties":{"osm_id":"819581487","tag":{"amenity":"recycling","check_date:recycling":"2020-09-27","recycling:glass_bottles":"yes","recycling_type":"container"}},"type":"Feature"},
	{"geometry":{"coordinates":[9.080321,48.472373],"type":"Point"},"properties":{"osm_id":"819658716","tag":{"amenity":"recycling","recycling:clothes":"yes","recycling:glass_bottles":"yes","recycling:shoes":"yes","recycling_type":"container"}},"type":"Feature"},
	{"geometry":{"coordinates":[9.083136,48.515022],"type":"Point"},"properties":{"osm_id":"1210401248","tag":{"amenity":"recycling","opening_hours":"Mo-Fr 07:00-17:00","opening_hours:last_check":"2017-05-24","recycling:paper":"yes","recycling_type":"container"}},"type":"Feature"},
	{"geometry":{"coordinates":[9.099625,48.465579],"type":"Point"},"properties":{"osm_id":"1307897157","tag":{"amenity":"waste_basket","waste":"dog_excrement"}},"type":"Feature"},
	{"geometry":{"coordinates":[9.078654,48.510354],"type":"Point"},"properties":{"osm_id":"1731463840","tag":{"amenity":"waste_basket"}},"type":"Feature"},
	{"geometry":{"coordinates":[9.077214,48.51019],"type":"Point"},"properties":{"osm_id":"1734950384","tag":{"amenity":"waste_basket"}},"type":"Feature"},
	{"geometry":{"coordinates":[9.076003,48.510866],"type":"Point"},"properties":{"osm_id":"1734950418","tag":{"amenity":"waste_basket"}},"type":"Feature"},
	{"geometry":{"coordinates":[9.075894,48.510997],"type":"Point"},"properties":{"osm_id":"1734950420","tag":{"amenity":"waste_basket"}},"type":"Feature"},
	{"geometry":{"coordinates":[9.080934,48.511385],"type":"Point"},"properties":{"osm_id":"1738365574","tag":{"amenity":"recycling","check_date:recycling":"2020-11-24","recycling:glass_bottles":"yes","recycling_type":"container"}},"type":"Feature"},
	{"geometry":{"coordinates":[9.076747,48.510527],"type":"Point"},"properties":{"osm_id":"1738384623","tag":{"amenity":"waste_basket"}},"type":"Feature"},
	{"geometry":{"coordinates":[9.135699,48.495857],"type":"Point"},"properties":{"osm_id":"2027647345","tag":{"amenity":"waste_basket"}},"type":"Feature"},
	{"geometry":{"coordinates":[9.135514,48.496143],"type":"Point"},"properties":{"osm_id":"2027893809","tag":{"amenity":"waste_basket"}},"type":"Feature"},
	{"geometry":{"coordinates":[9.067956,48.514281],"type":"Point"},"properties":{"osm_id":"2110012058","tag":{"amenity":"recycling","recycling:clothes":"yes","recycling:glass_bottles":"yes","recycling_type":"container"}},"type":"Feature"},
	{"geometry":{"coordinates":[9.080217,48.473009],"type":"Point"},"properties":{"osm_id":"2478242333","tag":{"amenity":"recycling","recycling:green_waste":"yes","recycling_type":"container"}},"type":"Feature"},
	{"geometry":{"coordinates":[9.080346,48.473014],"type":"Point"},"properties":{"osm_id":"2478242334","tag":{"amenity":"recycling","recycling:green_waste":"yes","recycling_type":"container"}},"type":"Feature"},
	{"geometry":{"coordinates":[9.080204,48.473008],"type":"Point"},"properties":{"osm_id":"2478242335","tag":{"amenity":"waste_basket"}},"type":"Feature"},
	{"geometry":{"coordinates":[9.080359,48.473015],"type":"Point"},"properties":{"osm_id":"2478242336","tag":{"amenity":"waste_basket"}},"type":"Feature"},
	{"geometry":{"coordinates":[9.079698,48.47244],"type":"Point"},"properties":{"osm_id":"2478242346","tag":{"amenity":"recycling","recycling:green_waste":"yes","recycling_type":"container"}},"type":"Feature"},
	{"geometry":{"coordinates":[9.079719,48.47244],"type":"Point"},"properties":{"osm_id":"2478242347","tag":{"amenity":"waste_basket"}},"type":"Feature"},
	{"geometry":{"coordinates":[9.10493,48.460394],"type":"Point"},"properties":{"osm_id":"2859401709","tag":{"amenity":"recycling","location":"overground","recycling:clothes":"yes","recycling:glass":"yes","recycling_type":"container"}},"type":"Feature"},
	{"geometry":{"coordinates":[9.05989,48.511525],"type":"Point"},"properties":{"osm_id":"3180618617","tag":{"amenity":"waste_basket","check_date":"2020-12-15"}},"type":"Feature"},
	{"geometry":{"coordinates":[9.056765,48.511498],"type":"Point"},"properties":{"osm_id":"3367821552","tag":{"amenity":"waste_basket","check_date":"2020-12-08"}},"type":"Feature"},
	{"geometry":{"coordinates":[9.069368,48.512226],"type":"Point"},"properties":{"osm_id":"3810505773","tag":{"amenity":"recycling","check_date:recycling":"2020-10-15","recycling:glass_bottles":"yes","recycling_type":"container"}},"type":"Feature"},
	{"geometry":{"coordinates":[9.128676,48.472766],"type":"Point"},"properties":{"osm_id":"3896003114","tag":{"amenity":"recycling","recycling:clothes":"yes","recycling:glass_bottles":"yes","recycling_type":"container"}},"type":"Feature"},
	{"geometry":{"coordinates":[9.088452,48.472034],"type":"Point"},"properties":{"osm_id":"3922193507","tag":{"amenity":"waste_basket","waste":"trash"}},"type":"Feature"},
	{"geometry":{"coordinates":[9.056692,48.500488],"type":"Point"},"properties":{"osm_id":"4108535853","tag":{"amenity":"recycling","check_date:recycling":"2020-09-27","recycling:glass_bottles":"yes","recycling_type":"container"}},"type":"Feature"},
	{"geometry":{"coordinates":[9.058603,48.516376],"type":"Point"},"properties":{"osm_id":"4476188981","tag":{"amenity":"waste_basket"}},"type":"Feature"},
	{"geometry":{"coordinates":[9.054494,48.515787],"type":"Point"},"properties":{"osm_id":"4578570711","tag":{"amenity":"recycling","recycling:glass_bottles":"yes","recycling:paper":"yes","recycling_type":"container"}},"type":"Feature"},
	{"geometry":{"coordinates":[9.096221,48.497529],"type":"Point"},"properties":{"osm_id":"4773500504","tag":{"amenity":"recycling","recycling:clothes":"yes","recycling:glass_bottles":"yes","recycling:shoes":"yes","recycling_type":"container"}},"type":"Feature"},
	{"geometry":{"coordinates":[9.056664,48.507421],"type":"Point"},"properties":{"osm_id":"5181603423","tag":{"amenity":"waste_basket"}},"type":"Feature"},
	{"geometry":{"coordinates":[9.058973,48.514888],"type":"Point"},"properties":{"osm_id":"5181603424","tag":{"amenity":"waste_basket","check_date":"2020-12-08"}},"type":"Feature"},
	{"geometry":{"coordinates":[9.057591,48.512853],"type":"Point"},"properties":{"osm_id":"5181603430","tag":{"amenity":"waste_basket","check_date":"2020-12-08"}},"type":"Feature"},
	{"geometry":{"coordinates":[9.056352,48.510679],"type":"Point"},"properties":{"osm_id":"5181603443","tag":{"amenity":"waste_basket","check_date":"2020-12-08"}},"type":"Feature"},
	{"geometry":{"coordinates":[9.058511,48.51394],"type":"Point"},"properties":{"osm_id":"5181603446","tag":{"amenity":"waste_basket","check_date":"2020-12-08"}},"type":"Feature"},
	{"geometry":{"coordinates":[9.063021,48.512809],"type":"Point"},"properties":{"osm_id":"5273807755","tag":{"amenity":"waste_basket"}},"type":"Feature"},
	{"geometry":{"coordinates":[9.062847,48.512924],"type":"Point"},"properties":{"osm_id":"5273807756","tag":{"amenity":"waste_basket"}},"type":"Feature"},
	{"geometry":{"coordinates":[9.062198,48.51271],"type":"Point"},"properties":{"osm_id":"5273807757","tag":{"amenity":"waste_basket"}},"type":"Feature"},
	{"geometry":{"coordinates":[9.061655,48.512797],"type":"Point"},"properties":{"osm_id":"5273807758","tag":{"amenity":"waste_basket"}},"type":"Feature"},
	{"geometry":{"coordinates":[9.062572,48.513145],"type":"Point"},"properties":{"osm_id":"5273874080","tag":{"amenity":"waste_basket"}},"type":"Feature"},
	{"geometry":{"coordinates":[9.063276,48.49952],"type":"Point"},"properties":{"osm_id":"5283688821","tag":{"amenity":"waste_basket"}},"type":"Feature"},
	{"geometry":{"coordinates":[9.057421,48.508613],"type":"Point"},"properties":{"osm_id":"5443782644","tag":{"amenity":"waste_basket"}},"type":"Feature"},
	{"geometry":{"coordinates":[9.057677,48.508727],"type":"Point"},"properties":{"osm_id":"5443782656","tag":{"amenity":"waste_basket"}},"type":"Feature"},
	{"geometry":{"coordinates":[9.057724,48.508566],"type":"Point"},"properties":{"osm_id":"5443782693","tag":{"amenity":"waste_basket"}},"type":"Feature"},
	{"geometry":{"coordinates":[9.061274,48.513069],"type":"Point"},"properties":{"osm_id":"5799771173","tag":{"amenity":"waste_basket"}},"type":"Feature"},
	{"geometry":{"coordinates":[9.061189,48.513109],"type":"Point"},"properties":{"osm_id":"5799771174","tag":{"amenity":"waste_basket"}},"type":"Feature"},
	{"geometry":{"coordinates":[9.061242,48.512903],"type":"Point"},"properties":{"osm_id":"5799771177","tag":{"amenity":"waste_basket"}},"type":"Feature"},
	{"geometry":{"coordinates":[9.062431,48.51316],"type":"Point"},"properties":{"osm_id":"5799785172","tag":{"amenity":"waste_basket"}},"type":"Feature"},
	{"geometry":{"coordinates":[9.062188,48.513114],"type":"Point"},"properties":{"osm_id":"5799785175","tag":{"amenity":"waste_basket"}},"type":"Feature"},
	{"geometry":{"coordinates":[9.055095,48.500949],"type":"Point"},"properties":{"osm_id":"5808774936","tag":{"amenity":"recycling","operator":"illegal","recycling:cans":"no","recycling:cardboard":"no","recycling:clothes":"yes","recycling:glass_bottles":"no","recycling:paper":"no","recycling_type":"container"}},"type":"Feature"},
	{"geometry":{"coordinates":[9.05873,48.515238],"type":"Point"},"properties":{"osm_id":"5890298997","tag":{"amenity":"waste_basket"}},"type":"Feature"},
	{"geometry":{"coordinates":[9.058705,48.515192],"type":"Point"},"properties":{"osm_id":"5894714388","tag":{"amenity":"waste_basket"}},"type":"Feature"},
	{"geometry":{"coordinates":[9.058065,48.513567],"type":"Point"},"properties":{"osm_id":"5942708685","tag":{"amenity":"waste_basket","check_date":"2020-12-15"}},"type":"Feature"},
	{"geometry":{"coordinates":[9.065082,48.513543],"type":"Point"},"properties":{"osm_id":"6524207343","tag":{"amenity":"waste_basket","check_date":"2020-12-15","waste":"trash"}},"type":"Feature"},
	{"geometry":{"coordinates":[9.084983,48.471811],"type":"Point"},"properties":{"osm_id":"6796077703","tag":{"amenity":"waste_basket","colour":"black","material":"metal","operator":"Gemeinde Gomaringen"}},"type":"Feature"},
	{"geometry":{"coordinates":[9.091177,48.501414],"type":"Point"},"properties":{"osm_id":"7369346720","tag":{"amenity":"waste_basket","material":"steel","operator":"Gemeinde Kusterdingen","waste":"trash"}},"type":"Feature"},
	{"geometry":{"coordinates":[9.066051,48.5152],"type":"Point"},"properties":{"osm_id":"7476776231","tag":{"amenity":"recycling","recycling:glass_bottles":"yes","recycling_type":"container"}},"type":"Feature"},
	{"geometry":{"coordinates":[9.078845,48.472807],"type":"Point"},"properties":{"osm_id":"7600182308","tag":{"amenity":"waste_basket","waste":"trash"}},"type":"Feature"},
	{"geometry":{"coordinates":[9.099659,48.478367],"type":"Point"},"properties":{"osm_id":"7704836973","tag":{"amenity":"recycling","recycling:glass":"yes","recycling:glass_bottles":"yes","recycling_type":"container"}},"type":"Feature"},
	{"geometry":{"coordinates":[9.099098,48.478084],"type":"Point"},"properties":{"osm_id":"7704855787","tag":{"amenity":"waste_basket","waste":"trash"}},"type":"Feature"},
	{"geometry":{"coordinates":[9.099003,48.478004],"type":"Point"},"properties":{"osm_id":"7704855794","tag":{"amenity":"waste_basket","waste":"trash"}},"type":"Feature"},
	{"geometry":{"coordinates":[9.09965,48.478409],"type":"Point"},"properties":{"osm_id":"7776387132","tag":{"amenity":"recycling","operator":"Deutsches Rotes Kreuz","recycling:clothes":"yes","recycling_type":"container"}},"type":"Feature"},
	{"geometry":{"coordinates":[9.073512,48.476031],"type":"Point"},"properties":{"osm_id":"7820924116","tag":{"amenity":"waste_basket","waste":"trash"}},"type":"Feature"},
	{"geometry":{"coordinates":[9.103181,48.474999],"type":"Point"},"properties":{"osm_id":"8233841115","tag":{"amenity":"waste_basket","waste":"dog_excrement"}},"type":"Feature"}
]
}
