{
"type": "FeatureCollection",
"features": [
	{"geometry":{"coordinates":[9.102025,47.798797],"type":"Point"},"properties":{"name":"Werkstoffhof","osm_id":"1450116955","tag":{"amenity":"recycling","recycling_type":"centre"}},"type":"Feature"},
	{"geometry":{"coordinates":[9.134806,47.788204],"type":"Point"},"properties":{"osm_id":"4095746209","tag":{"amenity":"recycling","recycling:glass_bottles":"yes","recycling_type":"container"}},"type":"Feature"},
	{"geometry":{"coordinates":[9.095373,47.798703],"type":"Point"},"properties":{"osm_id":"5591602724","tag":{"amenity":"recycling","recycling:clothes":"yes","recycling:glass":"yes","recycling_type":"container"}},"type":"Feature"},
	{"geometry":{"coordinates":[9.115532,47.759373],"type":"Point"},"properties":{"name":"DLRG Rettungspunkt 9","osm_id":"7099555103","tag":{"amenity":"waste_basket","fireplace":"yes","tourism":"picnic_site"}},"type":"Feature"},
	{"geometry":{"coordinates":[9.12285,47.805874],"type":"Point"},"properties":{"osm_id":"7895880382","tag":{"amenity":"waste_basket"}},"type":"Feature"}
]
}
