{
"type": "FeatureCollection",
"features": [
	{"geometry":{"coordinates":[9.072606,47.735109],"type":"Point"},"properties":{"osm_id":"427099254","tag":{"amenity":"recycling","recycling:cans":"no","recycling:glass_bottles":"yes","recycling:paper":"yes"}},"type":"Feature"},
	{"geometry":{"coordinates":[9.073097,47.715492],"type":"Point"},"properties":{"osm_id":"448572350","tag":{"amenity":"recycling","recycling_type":"container"}},"type":"Feature"},
	{"geometry":{"coordinates":[9.08087,47.712746],"type":"Point"},"properties":{"osm_id":"448573896","tag":{"amenity":"recycling","recycling:glass_bottles":"yes","recycling_type":"container"}},"type":"Feature"},
	{"geometry":{"coordinates":[9.080938,47.747908],"type":"Point"},"properties":{"osm_id":"450185162","tag":{"amenity":"recycling"}},"type":"Feature"},
	{"geometry":{"coordinates":[9.063451,47.699849],"type":"Point"},"properties":{"osm_id":"450249443","tag":{"amenity":"recycling"}},"type":"Feature"},
	{"geometry":{"coordinates":[9.113372,47.730425],"type":"Point"},"properties":{"osm_id":"451951566","tag":{"amenity":"recycling","operator":"Stadtwerke Konstanz","recycling:glass_bottles":"yes","recycling_type":"container"}},"type":"Feature"},
	{"geometry":{"coordinates":[9.073083,47.730713],"type":"Point"},"properties":{"osm_id":"452630472","tag":{"amenity":"recycling","recycling:glass_bottles":"yes","recycling_type":"container"}},"type":"Feature"},
	{"geometry":{"coordinates":[9.065296,47.715807],"type":"Point"},"properties":{"osm_id":"452635717","tag":{"amenity":"recycling","recycling:glass_bottles":"yes","recycling_type":"container"}},"type":"Feature"},
	{"geometry":{"coordinates":[9.099187,47.707607],"type":"Point"},"properties":{"osm_id":"452637070","tag":{"amenity":"recycling","location":"overground","recycling:glass_bottles":"yes","recycling_type":"container"}},"type":"Feature"},
	{"geometry":{"coordinates":[9.067206,47.720775],"type":"Point"},"properties":{"osm_id":"479838347","tag":{"amenity":"recycling","recycling:glass_bottles":"yes","recycling_type":"container"}},"type":"Feature"},
	{"geometry":{"coordinates":[9.06496,47.719825],"type":"Point"},"properties":{"osm_id":"488442723","tag":{"amenity":"recycling","recycling:glass_bottles":"yes","recycling_type":"container"}},"type":"Feature"},
	{"geometry":{"coordinates":[9.072072,47.720521],"type":"Point"},"properties":{"osm_id":"494253610","tag":{"amenity":"recycling","recycling:glass_bottles":"yes","recycling_type":"container"}},"type":"Feature"},
	{"geometry":{"coordinates":[9.059696,47.696457],"type":"Point"},"properties":{"osm_id":"512156367","tag":{"amenity":"recycling","recycling_type":"container"}},"type":"Feature"},
	{"geometry":{"coordinates":[9.07132,47.713723],"type":"Point"},"properties":{"osm_id":"520127631","tag":{"amenity":"recycling","recycling:glass_bottles":"yes","recycling_type":"container"}},"type":"Feature"},
	{"geometry":{"coordinates":[9.07237,47.722679],"type":"Point"},"properties":{"osm_id":"663993708","tag":{"amenity":"recycling","recycling:glass_bottles":"yes","recycling_type":"container"}},"type":"Feature"},
	{"geometry":{"coordinates":[9.113135,47.74221],"type":"Point"},"properties":{"osm_id":"1157994015","tag":{"amenity":"waste_basket"}},"type":"Feature"},
	{"geometry":{"coordinates":[9.061443,47.699044],"type":"Point"},"properties":{"osm_id":"1851365582","tag":{"amenity":"waste_basket"}},"type":"Feature"},
	{"geometry":{"coordinates":[9.113397,47.730349],"type":"Point"},"properties":{"osm_id":"2589298603","tag":{"amenity":"recycling","recycling:clothes":"yes","recycling_type":"container"}},"type":"Feature"},
	{"geometry":{"coordinates":[9.117581,47.733959],"type":"Point"},"properties":{"osm_id":"2589306360","tag":{"amenity":"recycling","recycling:cans":"no","recycling:clothes":"yes","recycling:glass":"no","recycling:paper":"no","recycling_type":"container"}},"type":"Feature"},
	{"geometry":{"coordinates":[9.129281,47.747217],"type":"Point"},"properties":{"osm_id":"3033378859","tag":{"amenity":"recycling","recycling:clothes":"yes","recycling:glass_bottles":"yes","recycling_type":"container"}},"type":"Feature"},
	{"geometry":{"coordinates":[9.062339,47.697203],"type":"Point"},"properties":{"osm_id":"3775075625","tag":{"amenity":"waste_basket"}},"type":"Feature"},
	{"geometry":{"coordinates":[9.056361,47.70149],"type":"Point"},"properties":{"osm_id":"3783758396","tag":{"amenity":"waste_basket"}},"type":"Feature"},
	{"geometry":{"coordinates":[9.11394,47.697275],"type":"Point"},"properties":{"osm_id":"4444159788","tag":{"amenity":"waste_basket"}},"type":"Feature"},
	{"geometry":{"coordinates":[9.115314,47.699706],"type":"Point"},"properties":{"osm_id":"4446622858","tag":{"amenity":"recycling","recycling:clothes":"yes","recycling_type":"container"}},"type":"Feature"},
	{"geometry":{"coordinates":[9.116939,47.734263],"type":"Point"},"properties":{"osm_id":"4447127011","tag":{"amenity":"waste_basket"}},"type":"Feature"},
	{"geometry":{"coordinates":[9.134699,47.747199],"type":"Point"},"properties":{"osm_id":"4447578931","tag":{"amenity":"waste_basket"}},"type":"Feature"},
	{"geometry":{"coordinates":[9.133309,47.748489],"type":"Point"},"properties":{"osm_id":"4447617953","tag":{"amenity":"waste_basket"}},"type":"Feature"},
	{"geometry":{"coordinates":[9.063286,47.696547],"type":"Point"},"properties":{"osm_id":"4454765818","tag":{"amenity":"waste_basket"}},"type":"Feature"},
	{"geometry":{"coordinates":[9.063772,47.698643],"type":"Point"},"properties":{"osm_id":"4455053481","tag":{"amenity":"waste_basket"}},"type":"Feature"},
	{"geometry":{"coordinates":[9.062724,47.69678],"type":"Point"},"properties":{"osm_id":"4455254024","tag":{"amenity":"waste_basket"}},"type":"Feature"},
	{"geometry":{"coordinates":[9.060989,47.698125],"type":"Point"},"properties":{"osm_id":"4455254036","tag":{"amenity":"waste_basket"}},"type":"Feature"},
	{"geometry":{"coordinates":[9.063261,47.699907],"type":"Point"},"properties":{"osm_id":"4932016658","tag":{"amenity":"recycling","recycling_type":"container"}},"type":"Feature"},
	{"geometry":{"coordinates":[9.122759,47.695467],"type":"Point"},"properties":{"osm_id":"5579066368","tag":{"amenity":"waste_basket"}},"type":"Feature"},
	{"geometry":{"coordinates":[9.12292,47.695418],"type":"Point"},"properties":{"osm_id":"5579066369","tag":{"amenity":"waste_basket"}},"type":"Feature"},
	{"geometry":{"coordinates":[9.12346,47.695239],"type":"Point"},"properties":{"osm_id":"5579066373","tag":{"amenity":"waste_basket"}},"type":"Feature"},
	{"geometry":{"coordinates":[9.123826,47.695145],"type":"Point"},"properties":{"osm_id":"5579066376","tag":{"amenity":"waste_basket"}},"type":"Feature"},
	{"geometry":{"coordinates":[9.124069,47.695069],"type":"Point"},"properties":{"osm_id":"5579066377","tag":{"amenity":"waste_basket"}},"type":"Feature"},
	{"geometry":{"coordinates":[9.124314,47.694987],"type":"Point"},"properties":{"osm_id":"5579066381","tag":{"amenity":"waste_basket"}},"type":"Feature"},
	{"geometry":{"coordinates":[9.138099,47.74644],"type":"Point"},"properties":{"osm_id":"5939102944","tag":{"amenity":"waste_basket"}},"type":"Feature"},
	{"geometry":{"coordinates":[9.138117,47.746097],"type":"Point"},"properties":{"osm_id":"5939102966","tag":{"amenity":"waste_basket"}},"type":"Feature"},
	{"geometry":{"coordinates":[9.138459,47.746402],"type":"Point"},"properties":{"osm_id":"5939143871","tag":{"amenity":"waste_basket"}},"type":"Feature"},
	{"geometry":{"coordinates":[9.133268,47.746015],"type":"Point"},"properties":{"osm_id":"5949258740","tag":{"amenity":"waste_basket"}},"type":"Feature"},
	{"geometry":{"coordinates":[9.11889,47.737208],"type":"Point"},"properties":{"osm_id":"5949258747","tag":{"amenity":"recycling","recycling:glass_bottles":"yes","recycling_type":"container"}},"type":"Feature"},
	{"geometry":{"coordinates":[9.132919,47.745896],"type":"Point"},"properties":{"osm_id":"5949258756","tag":{"amenity":"waste_basket"}},"type":"Feature"},
	{"geometry":{"coordinates":[9.133175,47.745895],"type":"Point"},"properties":{"osm_id":"5990465143","tag":{"amenity":"waste_basket"}},"type":"Feature"},
	{"geometry":{"coordinates":[9.135995,47.736702],"type":"Point"},"properties":{"osm_id":"5991226266","tag":{"amenity":"waste_basket"}},"type":"Feature"},
	{"geometry":{"coordinates":[9.123239,47.734101],"type":"Point"},"properties":{"osm_id":"5991226269","tag":{"amenity":"waste_basket","fee":"no","vending":"excrement_bags"}},"type":"Feature"},
	{"geometry":{"coordinates":[9.121246,47.736532],"type":"Point"},"properties":{"osm_id":"5991226271","tag":{"amenity":"waste_basket"}},"type":"Feature"},
	{"geometry":{"coordinates":[9.133409,47.746095],"type":"Point"},"properties":{"osm_id":"6227682524","tag":{"amenity":"waste_basket"}},"type":"Feature"},
	{"geometry":{"coordinates":[9.137412,47.745819],"type":"Point"},"properties":{"osm_id":"6615200371","tag":{"amenity":"waste_basket"}},"type":"Feature"},
	{"geometry":{"coordinates":[9.115821,47.734485],"type":"Point"},"properties":{"osm_id":"6958302691","tag":{"amenity":"waste_basket","waste":"trash"}},"type":"Feature"},
	{"geometry":{"coordinates":[9.073728,47.711689],"type":"Point"},"properties":{"osm_id":"7095435184","tag":{"amenity":"waste_basket"}},"type":"Feature"},
	{"geometry":{"coordinates":[9.10032,47.708562],"type":"Point"},"properties":{"osm_id":"7354739808","tag":{"amenity":"waste_basket"}},"type":"Feature"},
	{"geometry":{"coordinates":[9.100675,47.708666],"type":"Point"},"properties":{"osm_id":"7354788040","tag":{"amenity":"waste_basket"}},"type":"Feature"},
	{"geometry":{"coordinates":[9.100493,47.708671],"type":"Point"},"properties":{"osm_id":"7354788063","tag":{"amenity":"waste_basket"}},"type":"Feature"},
	{"geometry":{"coordinates":[9.101764,47.709734],"type":"Point"},"properties":{"osm_id":"7354796246","tag":{"access":"permissive","amenity":"waste_basket"}},"type":"Feature"},
	{"geometry":{"coordinates":[9.101694,47.709745],"type":"Point"},"properties":{"osm_id":"7354796247","tag":{"access":"permissive","amenity":"waste_basket"}},"type":"Feature"},
	{"geometry":{"coordinates":[9.102125,47.712461],"type":"Point"},"properties":{"osm_id":"7354872950","tag":{"amenity":"waste_basket"}},"type":"Feature"},
	{"geometry":{"coordinates":[9.101669,47.710728],"type":"Point"},"properties":{"osm_id":"7354886685","tag":{"amenity":"waste_basket"}},"type":"Feature"},
	{"geometry":{"coordinates":[9.101771,47.710101],"type":"Point"},"properties":{"osm_id":"7354886690","tag":{"amenity":"waste_basket"}},"type":"Feature"},
	{"geometry":{"coordinates":[9.101937,47.710773],"type":"Point"},"properties":{"osm_id":"7354886693","tag":{"amenity":"waste_basket","vending":"excrement_bags","waste":"dog_excrement"}},"type":"Feature"},
	{"geometry":{"coordinates":[9.116214,47.732537],"type":"Point"},"properties":{"osm_id":"7596195843","tag":{"amenity":"waste_basket","fee":"no","vending":"excrement_bags"}},"type":"Feature"},
	{"geometry":{"coordinates":[9.065469,47.715981],"type":"Point"},"properties":{"osm_id":"7863241183","tag":{"amenity":"waste_basket"}},"type":"Feature"},
	{"geometry":{"coordinates":[9.065457,47.715935],"type":"Point"},"properties":{"osm_id":"7863241184","tag":{"amenity":"waste_basket"}},"type":"Feature"}
]
}
