{
"type": "FeatureCollection",
"features": [
	{"geometry":{"coordinates":[9.084326,47.316451],"type":"Point"},"properties":{"name":"Sch\u00c3\u00b6nenberger Recycling Toggenburg AG","osm_id":"3956290982","tag":{"amenity":"recycling"}},"type":"Feature"},
	{"geometry":{"coordinates":[9.093231,47.287033],"type":"Point"},"properties":{"name":"Tierk\u00c3\u00b6rpersammelstelle","osm_id":"4747141737","tag":{"amenity":"recycling","operator":"Gemeinde Wattwil","recycling_type":"centre"}},"type":"Feature"},
	{"geometry":{"coordinates":[9.084545,47.303355],"type":"Point"},"properties":{"osm_id":"5488881535","tag":{"amenity":"recycling","recycling:aluminium":"yes","recycling:glass":"yes","recycling:glass_bottles":"yes","recycling_type":"container"}},"type":"Feature"},
	{"geometry":{"coordinates":[9.084256,47.315427],"type":"Point"},"properties":{"osm_id":"5488999775","tag":{"amenity":"recycling","recycling:clothes":"yes","recycling_type":"container"}},"type":"Feature"},
	{"geometry":{"coordinates":[9.089903,47.305545],"type":"Point"},"properties":{"osm_id":"5488999778","tag":{"amenity":"recycling","recycling:clothes":"yes","recycling_type":"container"}},"type":"Feature"},
	{"geometry":{"coordinates":[9.091787,47.296173],"type":"Point"},"properties":{"osm_id":"5488999779","tag":{"amenity":"recycling","recycling:clothes":"yes","recycling:glass":"yes","recycling:glass_bottles":"yes","recycling_type":"container"}},"type":"Feature"},
	{"geometry":{"coordinates":[9.086201,47.30019],"type":"Point"},"properties":{"osm_id":"6074659953","tag":{"amenity":"waste_basket","waste":"trash"}},"type":"Feature"},
	{"geometry":{"coordinates":[9.086346,47.301843],"type":"Point"},"properties":{"osm_id":"6074703161","tag":{"amenity":"waste_basket","waste":"trash"}},"type":"Feature"},
	{"geometry":{"coordinates":[9.08643,47.302238],"type":"Point"},"properties":{"osm_id":"6074709563","tag":{"amenity":"waste_basket","waste":"trash"}},"type":"Feature"},
	{"geometry":{"coordinates":[9.083633,47.321591],"type":"Point"},"properties":{"osm_id":"6074779944","tag":{"amenity":"waste_basket","waste":"trash"}},"type":"Feature"},
	{"geometry":{"coordinates":[9.084487,47.315944],"type":"Point"},"properties":{"name":"Recycling Drive-In","osm_id":"7773121156","tag":{"amenity":"recycling","operator":"Sch\u00c3\u00b6nenberger Recycling","recycling_type":"centre"}},"type":"Feature"},
	{"geometry":{"coordinates":[9.13047,47.30297],"type":"Point"},"properties":{"name":"Robidog","osm_id":"8283430889","tag":{"amenity":"waste_basket","vending":"excrement_bags"}},"type":"Feature"},
	{"geometry":{"coordinates":[9.097308,47.291771],"type":"Point"},"properties":{"osm_id":"9087823925","tag":{"amenity":"waste_disposal"}},"type":"Feature"}
]
}
