{
"type": "FeatureCollection",
"features": [
	{"geometry":{"coordinates":[9.060299,47.080516],"type":"Point"},"properties":{"osm_id":"2448267622","tag":{"amenity":"waste_basket"}},"type":"Feature"},
	{"geometry":{"coordinates":[9.060912,47.096971],"type":"Point"},"properties":{"name":"Recyclinghof","osm_id":"3838157407","tag":{"amenity":"recycling","name:de":"Recyclinghof"}},"type":"Feature"},
	{"geometry":{"coordinates":[9.066119,47.040325],"type":"Point"},"properties":{"osm_id":"4345426890","tag":{"amenity":"waste_basket"}},"type":"Feature"},
	{"geometry":{"coordinates":[9.065907,47.040628],"type":"Point"},"properties":{"osm_id":"4345438189","tag":{"amenity":"waste_basket"}},"type":"Feature"},
	{"geometry":{"coordinates":[9.065995,47.040519],"type":"Point"},"properties":{"osm_id":"4345438289","tag":{"amenity":"waste_basket"}},"type":"Feature"},
	{"geometry":{"coordinates":[9.071418,47.04201],"type":"Point"},"properties":{"osm_id":"4355360989","tag":{"amenity":"waste_basket"}},"type":"Feature"},
	{"geometry":{"coordinates":[9.069036,47.044754],"type":"Point"},"properties":{"name":"Kadaversammelstelle","osm_id":"5263746122","tag":{"amenity":"recycling","recycling:animal_waste":"yes","recycling_type":"container"}},"type":"Feature"},
	{"geometry":{"coordinates":[9.058038,47.060971],"type":"Point"},"properties":{"osm_id":"5347890354","tag":{"amenity":"recycling","recycling_type":"container"}},"type":"Feature"},
	{"geometry":{"coordinates":[9.062078,47.091173],"type":"Point"},"properties":{"osm_id":"5511967635","tag":{"amenity":"recycling","recycling:clothes":"yes","recycling_type":"container"}},"type":"Feature"},
	{"geometry":{"coordinates":[9.063552,47.098211],"type":"Point"},"properties":{"osm_id":"5761897361","tag":{"amenity":"waste_basket"}},"type":"Feature"},
	{"geometry":{"coordinates":[9.054986,47.05647],"type":"Point"},"properties":{"osm_id":"5761913261","tag":{"amenity":"waste_basket"}},"type":"Feature"},
	{"geometry":{"coordinates":[9.059181,47.092395],"type":"Point"},"properties":{"osm_id":"5761913553","tag":{"amenity":"waste_basket"}},"type":"Feature"},
	{"geometry":{"coordinates":[9.05879,47.068818],"type":"Point"},"properties":{"osm_id":"6984942740","tag":{"amenity":"recycling","recycling:clothes":"yes","recycling:shoes":"yes","recycling_type":"container"}},"type":"Feature"},
	{"geometry":{"coordinates":[9.05686,47.097973],"type":"Point"},"properties":{"osm_id":"7084655260","tag":{"amenity":"waste_basket","waste":"dog_excrement"}},"type":"Feature"},
	{"geometry":{"coordinates":[9.056641,47.090896],"type":"Point"},"properties":{"name":"Kurt Landolt AG","osm_id":"7578249684","tag":{"amenity":"recycling","recycling_type":"centre"}},"type":"Feature"},
	{"geometry":{"coordinates":[9.07105,47.095407],"type":"Point"},"properties":{"osm_id":"7590106464","tag":{"amenity":"waste_basket"}},"type":"Feature"},
	{"geometry":{"coordinates":[9.070676,47.094773],"type":"Point"},"properties":{"osm_id":"7590106465","tag":{"amenity":"waste_basket","covered":"no","indoor":"no","waste":"trash"}},"type":"Feature"}
]
}
