{
"type": "FeatureCollection",
"features": [
	{"geometry":{"coordinates":[9.094984,45.952921],"type":"Point"},"properties":{"osm_id":"2052189910","tag":{"amenity":"recycling","recycling:clothes":"yes","recycling_type":"container"}},"type":"Feature"},
	{"geometry":{"coordinates":[9.072705,45.956417],"type":"Point"},"properties":{"osm_id":"2055188045","tag":{"amenity":"recycling","recycling:glass":"yes","recycling_type":"container"}},"type":"Feature"},
	{"geometry":{"coordinates":[9.069071,45.969682],"type":"Point"},"properties":{"osm_id":"2535726261","tag":{"amenity":"recycling","recycling:glass":"yes","recycling_type":"container"}},"type":"Feature"},
	{"geometry":{"coordinates":[9.073143,45.971536],"type":"Point"},"properties":{"osm_id":"2565813598","tag":{"amenity":"waste_basket"}},"type":"Feature"},
	{"geometry":{"coordinates":[9.077246,45.971564],"type":"Point"},"properties":{"osm_id":"2565813612","tag":{"amenity":"waste_basket"}},"type":"Feature"},
	{"geometry":{"coordinates":[9.094,45.964011],"type":"Point"},"properties":{"osm_id":"5659143381","tag":{"amenity":"recycling","mapillary":"5frKXnjBKOHPBAWyWjMCRA","recycling_type":"container"}},"type":"Feature"}
]
}
