{
"type": "FeatureCollection",
"features": [
	{"geometry":{"coordinates":[9.119516,45.857387],"type":"Point"},"properties":{"osm_id":"666961701","tag":{"amenity":"waste_basket"}},"type":"Feature"},
	{"geometry":{"coordinates":[9.129791,45.847837],"type":"Point"},"properties":{"osm_id":"667015517","tag":{"amenity":"waste_basket"}},"type":"Feature"},
	{"geometry":{"coordinates":[9.123025,45.848538],"type":"Point"},"properties":{"osm_id":"667121998","tag":{"amenity":"waste_disposal","waste":"trash"}},"type":"Feature"},
	{"geometry":{"coordinates":[9.12204,45.851246],"type":"Point"},"properties":{"osm_id":"667153302","tag":{"amenity":"waste_disposal","waste":"trash"}},"type":"Feature"},
	{"geometry":{"coordinates":[9.116588,45.854426],"type":"Point"},"properties":{"osm_id":"667192095","tag":{"amenity":"waste_basket"}},"type":"Feature"},
	{"geometry":{"coordinates":[9.076332,45.842793],"type":"Point"},"properties":{"osm_id":"1590117617","tag":{"amenity":"waste_basket"}},"type":"Feature"},
	{"geometry":{"coordinates":[9.101203,45.861579],"type":"Point"},"properties":{"osm_id":"1595616320","tag":{"amenity":"waste_basket"}},"type":"Feature"},
	{"geometry":{"coordinates":[9.09919,45.861468],"type":"Point"},"properties":{"osm_id":"1596629525","tag":{"amenity":"waste_basket"}},"type":"Feature"},
	{"geometry":{"coordinates":[9.099037,45.861593],"type":"Point"},"properties":{"osm_id":"1596629605","tag":{"amenity":"waste_basket"}},"type":"Feature"},
	{"geometry":{"coordinates":[9.098366,45.862492],"type":"Point"},"properties":{"osm_id":"1596630102","tag":{"amenity":"waste_basket"}},"type":"Feature"},
	{"geometry":{"coordinates":[9.097492,45.863012],"type":"Point"},"properties":{"osm_id":"1596630176","tag":{"amenity":"waste_basket"}},"type":"Feature"},
	{"geometry":{"coordinates":[9.099528,45.863953],"type":"Point"},"properties":{"osm_id":"1596845977","tag":{"amenity":"waste_basket"}},"type":"Feature"},
	{"geometry":{"coordinates":[9.098464,45.86217],"type":"Point"},"properties":{"osm_id":"1598094176","tag":{"amenity":"waste_basket"}},"type":"Feature"},
	{"geometry":{"coordinates":[9.096682,45.863148],"type":"Point"},"properties":{"osm_id":"1598094448","tag":{"amenity":"waste_basket"}},"type":"Feature"},
	{"geometry":{"coordinates":[9.097664,45.86395],"type":"Point"},"properties":{"osm_id":"1598094693","tag":{"amenity":"waste_basket"}},"type":"Feature"},
	{"geometry":{"coordinates":[9.102405,45.863947],"type":"Point"},"properties":{"osm_id":"1604168949","tag":{"amenity":"waste_basket"}},"type":"Feature"},
	{"geometry":{"coordinates":[9.073958,45.846568],"type":"Point"},"properties":{"osm_id":"1612051434","tag":{"amenity":"waste_basket"}},"type":"Feature"},
	{"geometry":{"coordinates":[9.083916,45.850354],"type":"Point"},"properties":{"osm_id":"1613549398","tag":{"amenity":"waste_basket"}},"type":"Feature"},
	{"geometry":{"coordinates":[9.083637,45.85049],"type":"Point"},"properties":{"osm_id":"1613549462","tag":{"amenity":"waste_basket"}},"type":"Feature"},
	{"geometry":{"coordinates":[9.065773,45.872929],"type":"Point"},"properties":{"osm_id":"1617213641","tag":{"amenity":"waste_basket"}},"type":"Feature"},
	{"geometry":{"coordinates":[9.067875,45.873928],"type":"Point"},"properties":{"osm_id":"1617213917","tag":{"amenity":"waste_basket"}},"type":"Feature"},
	{"geometry":{"coordinates":[9.072083,45.846018],"type":"Point"},"properties":{"osm_id":"1920138962","tag":{"amenity":"waste_basket"}},"type":"Feature"},
	{"geometry":{"coordinates":[9.101012,45.835892],"type":"Point"},"properties":{"osm_id":"2275097330","tag":{"amenity":"recycling","recycling:glass":"yes","recycling_type":"container"}},"type":"Feature"},
	{"geometry":{"coordinates":[9.1059,45.844233],"type":"Point"},"properties":{"osm_id":"2275097516","tag":{"amenity":"recycling","recycling:glass":"yes","recycling_type":"container"}},"type":"Feature"},
	{"geometry":{"coordinates":[9.115778,45.857402],"type":"Point"},"properties":{"osm_id":"2302768904","tag":{"amenity":"recycling","recycling:batteries":"yes","recycling_type":"container"}},"type":"Feature"},
	{"geometry":{"coordinates":[9.115762,45.857409],"type":"Point"},"properties":{"osm_id":"2302768914","tag":{"amenity":"waste_basket"}},"type":"Feature"},
	{"geometry":{"coordinates":[9.117831,45.857504],"type":"Point"},"properties":{"osm_id":"2302769041","tag":{"amenity":"recycling","recycling:batteries":"yes","recycling_type":"container"}},"type":"Feature"},
	{"geometry":{"coordinates":[9.116741,45.858002],"type":"Point"},"properties":{"osm_id":"2302769447","tag":{"amenity":"waste_basket"}},"type":"Feature"},
	{"geometry":{"coordinates":[9.118033,45.857304],"type":"Point"},"properties":{"osm_id":"2306663980","tag":{"amenity":"waste_basket"}},"type":"Feature"},
	{"geometry":{"coordinates":[9.127615,45.873152],"type":"Point"},"properties":{"osm_id":"2400586114","tag":{"amenity":"waste_basket"}},"type":"Feature"},
	{"geometry":{"coordinates":[9.104878,45.840969],"type":"Point"},"properties":{"osm_id":"2604876481","tag":{"amenity":"waste_basket"}},"type":"Feature"},
	{"geometry":{"coordinates":[9.098124,45.834071],"type":"Point"},"properties":{"osm_id":"2608895848","tag":{"amenity":"waste_basket","mapillary":"X6JpoTnjgR7Vst0YhvFYkg"}},"type":"Feature"},
	{"geometry":{"coordinates":[9.099767,45.834989],"type":"Point"},"properties":{"osm_id":"2608895887","tag":{"amenity":"waste_basket"}},"type":"Feature"},
	{"geometry":{"coordinates":[9.101297,45.835423],"type":"Point"},"properties":{"osm_id":"2608895916","tag":{"amenity":"recycling","mapillary":"x9mQFyDqZquXEPbMeLU7GQ","recycling:glass":"yes","recycling_type":"container"}},"type":"Feature"},
	{"geometry":{"coordinates":[9.103153,45.836776],"type":"Point"},"properties":{"osm_id":"2608895956","tag":{"amenity":"waste_basket"}},"type":"Feature"},
	{"geometry":{"coordinates":[9.119535,45.856882],"type":"Point"},"properties":{"osm_id":"2730205547","tag":{"amenity":"waste_basket"}},"type":"Feature"},
	{"geometry":{"coordinates":[9.118157,45.857022],"type":"Point"},"properties":{"osm_id":"2730205706","tag":{"amenity":"waste_basket"}},"type":"Feature"},
	{"geometry":{"coordinates":[9.116114,45.857354],"type":"Point"},"properties":{"osm_id":"2730205846","tag":{"amenity":"waste_basket"}},"type":"Feature"},
	{"geometry":{"coordinates":[9.116867,45.856959],"type":"Point"},"properties":{"osm_id":"4127140404","tag":{"amenity":"waste_basket"}},"type":"Feature"},
	{"geometry":{"coordinates":[9.117386,45.857077],"type":"Point"},"properties":{"osm_id":"4127140408","tag":{"amenity":"waste_basket"}},"type":"Feature"},
	{"geometry":{"coordinates":[9.132928,45.850065],"type":"Point"},"properties":{"osm_id":"4128952140","tag":{"amenity":"waste_disposal"}},"type":"Feature"},
	{"geometry":{"coordinates":[9.067265,45.835745],"type":"Point"},"properties":{"osm_id":"5514624524","tag":{"amenity":"waste_basket"}},"type":"Feature"},
	{"geometry":{"coordinates":[9.066711,45.834841],"type":"Point"},"properties":{"osm_id":"5514624525","tag":{"amenity":"waste_basket"}},"type":"Feature"},
	{"geometry":{"coordinates":[9.067128,45.835775],"type":"Point"},"properties":{"osm_id":"5514624623","tag":{"amenity":"waste_basket"}},"type":"Feature"},
	{"geometry":{"coordinates":[9.065773,45.833259],"type":"Point"},"properties":{"osm_id":"5514624624","tag":{"amenity":"waste_basket"}},"type":"Feature"},
	{"geometry":{"coordinates":[9.118785,45.869194],"type":"Point"},"properties":{"osm_id":"5590534622","tag":{"amenity":"waste_basket"}},"type":"Feature"},
	{"geometry":{"coordinates":[9.073178,45.84017],"type":"Point"},"properties":{"osm_id":"5590597221","tag":{"amenity":"waste_basket"}},"type":"Feature"},
	{"geometry":{"coordinates":[9.1398,45.882623],"type":"Point"},"properties":{"osm_id":"5827192587","tag":{"amenity":"waste_basket"}},"type":"Feature"},
	{"geometry":{"coordinates":[9.078487,45.838891],"type":"Point"},"properties":{"osm_id":"5964374096","tag":{"amenity":"waste_basket"}},"type":"Feature"},
	{"geometry":{"coordinates":[9.078522,45.838801],"type":"Point"},"properties":{"osm_id":"5964441189","tag":{"amenity":"waste_basket"}},"type":"Feature"},
	{"geometry":{"coordinates":[9.104759,45.839633],"type":"Point"},"properties":{"osm_id":"6340187827","tag":{"amenity":"waste_basket"}},"type":"Feature"},
	{"geometry":{"coordinates":[9.103468,45.837779],"type":"Point"},"properties":{"osm_id":"6340187830","tag":{"amenity":"waste_basket"}},"type":"Feature"},
	{"geometry":{"coordinates":[9.102509,45.836555],"type":"Point"},"properties":{"osm_id":"6340187855","tag":{"amenity":"waste_basket"}},"type":"Feature"},
	{"geometry":{"coordinates":[9.106631,45.84482],"type":"Point"},"properties":{"osm_id":"6347932436","tag":{"amenity":"waste_basket","mapillary":"K9NPFFuCja4LyiXM1J5P-g"}},"type":"Feature"},
	{"geometry":{"coordinates":[9.106502,45.844167],"type":"Point"},"properties":{"osm_id":"6347932445","tag":{"amenity":"waste_basket"}},"type":"Feature"},
	{"geometry":{"coordinates":[9.105748,45.843024],"type":"Point"},"properties":{"osm_id":"6347932476","tag":{"amenity":"waste_basket"}},"type":"Feature"},
	{"geometry":{"coordinates":[9.105362,45.84245],"type":"Point"},"properties":{"osm_id":"6347932686","tag":{"amenity":"waste_basket"}},"type":"Feature"},
	{"geometry":{"coordinates":[9.113229,45.853307],"type":"Point"},"properties":{"osm_id":"6349095817","tag":{"amenity":"waste_basket","mapillary":"73hA2hsoHaJi_mQDbPDgkg"}},"type":"Feature"},
	{"geometry":{"coordinates":[9.115638,45.855694],"type":"Point"},"properties":{"osm_id":"6349796905","tag":{"amenity":"waste_basket"}},"type":"Feature"},
	{"geometry":{"coordinates":[9.119621,45.857819],"type":"Point"},"properties":{"osm_id":"6350346674","tag":{"amenity":"waste_basket"}},"type":"Feature"},
	{"geometry":{"coordinates":[9.121719,45.858248],"type":"Point"},"properties":{"osm_id":"6350988911","tag":{"amenity":"waste_basket"}},"type":"Feature"}
]
}
