{
"type": "FeatureCollection",
"features": [
	{"geometry":{"coordinates":[9.095084,45.818754],"type":"Point"},"properties":{"osm_id":"2608895723","tag":{"amenity":"waste_basket","mapillary":"_JC9_Gh3BUovcBMZ44fjbw"}},"type":"Feature"},
	{"geometry":{"coordinates":[9.095205,45.818914],"type":"Point"},"properties":{"osm_id":"2608895737","tag":{"amenity":"waste_basket"}},"type":"Feature"},
	{"geometry":{"coordinates":[9.093478,45.824199],"type":"Point"},"properties":{"osm_id":"2608895783","tag":{"amenity":"waste_basket"}},"type":"Feature"},
	{"geometry":{"coordinates":[9.095669,45.818988],"type":"Point"},"properties":{"osm_id":"2610435730","tag":{"amenity":"waste_basket"}},"type":"Feature"},
	{"geometry":{"coordinates":[9.083355,45.812926],"type":"Point"},"properties":{"osm_id":"2918421146","tag":{"amenity":"recycling","recycling:glass":"yes","recycling_type":"container"}},"type":"Feature"},
	{"geometry":{"coordinates":[9.055123,45.82274],"type":"Point"},"properties":{"osm_id":"3148993577","tag":{"amenity":"recycling","recycling:clothes":"yes","recycling_type":"container"}},"type":"Feature"},
	{"geometry":{"coordinates":[9.086021,45.811732],"type":"Point"},"properties":{"osm_id":"3654053687","tag":{"amenity":"waste_basket"}},"type":"Feature"},
	{"geometry":{"coordinates":[9.081714,45.808146],"type":"Point"},"properties":{"osm_id":"3654070058","tag":{"amenity":"waste_basket"}},"type":"Feature"},
	{"geometry":{"coordinates":[9.086549,45.811374],"type":"Point"},"properties":{"osm_id":"3654303146","tag":{"addr:city":"Como","addr:street":"Via Dante Alighieri","amenity":"recycling","recycling:cans":"no","recycling:clothes":"yes","recycling:glass":"no","recycling:paper":"no"}},"type":"Feature"},
	{"geometry":{"coordinates":[9.08755,45.804102],"type":"Point"},"properties":{"osm_id":"3660442804","tag":{"amenity":"waste_basket"}},"type":"Feature"},
	{"geometry":{"coordinates":[9.090906,45.803388],"type":"Point"},"properties":{"osm_id":"3660474268","tag":{"amenity":"waste_basket"}},"type":"Feature"},
	{"geometry":{"coordinates":[9.090692,45.804298],"type":"Point"},"properties":{"osm_id":"3660474284","tag":{"amenity":"waste_basket"}},"type":"Feature"},
	{"geometry":{"coordinates":[9.089042,45.804443],"type":"Point"},"properties":{"osm_id":"3660474285","tag":{"amenity":"waste_basket"}},"type":"Feature"},
	{"geometry":{"coordinates":[9.089226,45.804482],"type":"Point"},"properties":{"osm_id":"3660474286","tag":{"amenity":"waste_basket"}},"type":"Feature"},
	{"geometry":{"coordinates":[9.090635,45.804642],"type":"Point"},"properties":{"osm_id":"3660474292","tag":{"amenity":"recycling","location":"overground","recycling:clothes":"yes","recycling_type":"container"}},"type":"Feature"},
	{"geometry":{"coordinates":[9.111776,45.825102],"type":"Point"},"properties":{"osm_id":"3697864875","tag":{"amenity":"waste_basket"}},"type":"Feature"},
	{"geometry":{"coordinates":[9.080318,45.810967],"type":"Point"},"properties":{"osm_id":"3758983871","tag":{"amenity":"waste_basket"}},"type":"Feature"},
	{"geometry":{"coordinates":[9.08065,45.810069],"type":"Point"},"properties":{"osm_id":"3762331525","tag":{"amenity":"waste_basket"}},"type":"Feature"},
	{"geometry":{"coordinates":[9.080202,45.81106],"type":"Point"},"properties":{"osm_id":"3762331526","tag":{"amenity":"waste_basket"}},"type":"Feature"},
	{"geometry":{"coordinates":[9.080516,45.81159],"type":"Point"},"properties":{"osm_id":"3762331527","tag":{"amenity":"waste_basket"}},"type":"Feature"},
	{"geometry":{"coordinates":[9.081177,45.8095],"type":"Point"},"properties":{"osm_id":"3762461186","tag":{"amenity":"waste_basket"}},"type":"Feature"},
	{"geometry":{"coordinates":[9.096516,45.819196],"type":"Point"},"properties":{"osm_id":"4031489197","tag":{"amenity":"waste_basket"}},"type":"Feature"},
	{"geometry":{"coordinates":[9.09377,45.801971],"type":"Point"},"properties":{"osm_id":"4078262396","tag":{"amenity":"waste_basket"}},"type":"Feature"},
	{"geometry":{"coordinates":[9.095948,45.799688],"type":"Point"},"properties":{"osm_id":"4078267396","tag":{"amenity":"waste_basket"}},"type":"Feature"},
	{"geometry":{"coordinates":[9.095432,45.79947],"type":"Point"},"properties":{"osm_id":"4078267397","tag":{"amenity":"waste_basket"}},"type":"Feature"},
	{"geometry":{"coordinates":[9.095219,45.799393],"type":"Point"},"properties":{"osm_id":"4078267398","tag":{"amenity":"waste_basket"}},"type":"Feature"},
	{"geometry":{"coordinates":[9.096283,45.799629],"type":"Point"},"properties":{"osm_id":"4078267399","tag":{"amenity":"waste_basket"}},"type":"Feature"},
	{"geometry":{"coordinates":[9.096103,45.800179],"type":"Point"},"properties":{"osm_id":"4078267400","tag":{"amenity":"waste_basket"}},"type":"Feature"},
	{"geometry":{"coordinates":[9.095968,45.800107],"type":"Point"},"properties":{"osm_id":"4078267401","tag":{"amenity":"waste_basket"}},"type":"Feature"},
	{"geometry":{"coordinates":[9.095903,45.800473],"type":"Point"},"properties":{"osm_id":"4078267402","tag":{"amenity":"waste_basket"}},"type":"Feature"},
	{"geometry":{"coordinates":[9.09575,45.800598],"type":"Point"},"properties":{"osm_id":"4078267403","tag":{"amenity":"waste_basket"}},"type":"Feature"},
	{"geometry":{"coordinates":[9.095423,45.801089],"type":"Point"},"properties":{"osm_id":"4078267404","tag":{"amenity":"waste_basket"}},"type":"Feature"},
	{"geometry":{"coordinates":[9.092463,45.801131],"type":"Point"},"properties":{"osm_id":"4078303240","tag":{"amenity":"waste_basket"}},"type":"Feature"},
	{"geometry":{"coordinates":[9.092281,45.80114],"type":"Point"},"properties":{"osm_id":"4078326077","tag":{"amenity":"waste_basket"}},"type":"Feature"},
	{"geometry":{"coordinates":[9.091665,45.801907],"type":"Point"},"properties":{"osm_id":"4078326081","tag":{"amenity":"waste_basket"}},"type":"Feature"},
	{"geometry":{"coordinates":[9.091131,45.800487],"type":"Point"},"properties":{"osm_id":"4078345660","tag":{"amenity":"waste_basket"}},"type":"Feature"},
	{"geometry":{"coordinates":[9.092014,45.799511],"type":"Point"},"properties":{"osm_id":"4078353549","tag":{"amenity":"waste_basket"}},"type":"Feature"},
	{"geometry":{"coordinates":[9.091566,45.800975],"type":"Point"},"properties":{"osm_id":"4078377027","tag":{"amenity":"waste_basket"}},"type":"Feature"},
	{"geometry":{"coordinates":[9.082294,45.811069],"type":"Point"},"properties":{"osm_id":"4589784332","tag":{"amenity":"waste_basket"}},"type":"Feature"},
	{"geometry":{"coordinates":[9.13629,45.788166],"type":"Point"},"properties":{"osm_id":"4598678308","tag":{"amenity":"recycling","recycling:glass":"yes","recycling:glass_bottles":"yes","recycling_type":"container"}},"type":"Feature"},
	{"geometry":{"coordinates":[9.100402,45.825995],"type":"Point"},"properties":{"osm_id":"4956945755","tag":{"amenity":"waste_basket"}},"type":"Feature"},
	{"geometry":{"coordinates":[9.100494,45.826141],"type":"Point"},"properties":{"osm_id":"4956954704","tag":{"amenity":"waste_basket"}},"type":"Feature"},
	{"geometry":{"coordinates":[9.10035,45.826112],"type":"Point"},"properties":{"osm_id":"4956981422","tag":{"amenity":"waste_basket"}},"type":"Feature"},
	{"geometry":{"coordinates":[9.100565,45.826105],"type":"Point"},"properties":{"osm_id":"4956981423","tag":{"amenity":"waste_basket"}},"type":"Feature"},
	{"geometry":{"coordinates":[9.10057,45.826082],"type":"Point"},"properties":{"osm_id":"4956981424","tag":{"amenity":"waste_basket"}},"type":"Feature"},
	{"geometry":{"coordinates":[9.097979,45.824385],"type":"Point"},"properties":{"osm_id":"4957011646","tag":{"amenity":"waste_basket"}},"type":"Feature"},
	{"geometry":{"coordinates":[9.095746,45.81989],"type":"Point"},"properties":{"osm_id":"4957011647","tag":{"amenity":"waste_basket"}},"type":"Feature"},
	{"geometry":{"coordinates":[9.10267,45.825589],"type":"Point"},"properties":{"osm_id":"4957019169","tag":{"amenity":"waste_basket"}},"type":"Feature"},
	{"geometry":{"coordinates":[9.099898,45.824418],"type":"Point"},"properties":{"osm_id":"4957019170","tag":{"amenity":"waste_basket"}},"type":"Feature"},
	{"geometry":{"coordinates":[9.138914,45.787286],"type":"Point"},"properties":{"osm_id":"5155420221","tag":{"amenity":"waste_basket"}},"type":"Feature"},
	{"geometry":{"coordinates":[9.074304,45.80875],"type":"Point"},"properties":{"osm_id":"5176857322","tag":{"amenity":"waste_basket"}},"type":"Feature"},
	{"geometry":{"coordinates":[9.090172,45.802213],"type":"Point"},"properties":{"osm_id":"5178128121","tag":{"amenity":"waste_basket"}},"type":"Feature"},
	{"geometry":{"coordinates":[9.073162,45.808829],"type":"Point"},"properties":{"osm_id":"5279066521","tag":{"amenity":"waste_basket"}},"type":"Feature"},
	{"geometry":{"coordinates":[9.074875,45.80985],"type":"Point"},"properties":{"osm_id":"5359277121","tag":{"amenity":"waste_basket"}},"type":"Feature"},
	{"geometry":{"coordinates":[9.069787,45.783834],"type":"Point"},"properties":{"osm_id":"5361611821","tag":{"amenity":"waste_basket"}},"type":"Feature"},
	{"geometry":{"coordinates":[9.085489,45.805875],"type":"Point"},"properties":{"osm_id":"5514537825","tag":{"amenity":"waste_basket"}},"type":"Feature"},
	{"geometry":{"coordinates":[9.085313,45.80595],"type":"Point"},"properties":{"osm_id":"5514537828","tag":{"amenity":"waste_basket"}},"type":"Feature"},
	{"geometry":{"coordinates":[9.082499,45.805188],"type":"Point"},"properties":{"osm_id":"5514537922","tag":{"amenity":"waste_basket"}},"type":"Feature"},
	{"geometry":{"coordinates":[9.08542,45.805737],"type":"Point"},"properties":{"osm_id":"5514537925","tag":{"amenity":"waste_basket"}},"type":"Feature"},
	{"geometry":{"coordinates":[9.077812,45.809897],"type":"Point"},"properties":{"osm_id":"5514545022","tag":{"amenity":"waste_basket"}},"type":"Feature"},
	{"geometry":{"coordinates":[9.078796,45.809079],"type":"Point"},"properties":{"osm_id":"5514545023","tag":{"amenity":"waste_basket"}},"type":"Feature"},
	{"geometry":{"coordinates":[9.084922,45.806206],"type":"Point"},"properties":{"osm_id":"5514581222","tag":{"amenity":"waste_basket"}},"type":"Feature"},
	{"geometry":{"coordinates":[9.085457,45.805947],"type":"Point"},"properties":{"osm_id":"5514581223","tag":{"amenity":"waste_basket"}},"type":"Feature"},
	{"geometry":{"coordinates":[9.085286,45.806014],"type":"Point"},"properties":{"osm_id":"5514594121","tag":{"amenity":"waste_basket"}},"type":"Feature"},
	{"geometry":{"coordinates":[9.076554,45.812872],"type":"Point"},"properties":{"osm_id":"5514601223","tag":{"amenity":"waste_basket"}},"type":"Feature"},
	{"geometry":{"coordinates":[9.087283,45.814101],"type":"Point"},"properties":{"osm_id":"5517087237","tag":{"amenity":"waste_basket"}},"type":"Feature"},
	{"geometry":{"coordinates":[9.070193,45.812214],"type":"Point"},"properties":{"osm_id":"5518506195","tag":{"amenity":"waste_basket"}},"type":"Feature"},
	{"geometry":{"coordinates":[9.066226,45.820208],"type":"Point"},"properties":{"osm_id":"5518516825","tag":{"amenity":"waste_basket"}},"type":"Feature"},
	{"geometry":{"coordinates":[9.095796,45.819503],"type":"Point"},"properties":{"osm_id":"5613634932","tag":{"amenity":"waste_basket"}},"type":"Feature"},
	{"geometry":{"coordinates":[9.095271,45.821653],"type":"Point"},"properties":{"osm_id":"5613755242","tag":{"amenity":"waste_basket","waste":"dog_excrement"}},"type":"Feature"},
	{"geometry":{"coordinates":[9.095285,45.821663],"type":"Point"},"properties":{"osm_id":"5613755243","tag":{"amenity":"waste_basket"}},"type":"Feature"},
	{"geometry":{"coordinates":[9.095056,45.819562],"type":"Point"},"properties":{"osm_id":"5614754979","tag":{"amenity":"waste_basket","mapillary":"mALYU2x2qcF0mboL-mTjkg"}},"type":"Feature"},
	{"geometry":{"coordinates":[9.05404,45.823414],"type":"Point"},"properties":{"osm_id":"5643948479","tag":{"amenity":"waste_basket"}},"type":"Feature"},
	{"geometry":{"coordinates":[9.060167,45.793746],"type":"Point"},"properties":{"osm_id":"5688252221","tag":{"amenity":"waste_basket"}},"type":"Feature"},
	{"geometry":{"coordinates":[9.085119,45.812513],"type":"Point"},"properties":{"osm_id":"5823813653","tag":{"amenity":"waste_basket"}},"type":"Feature"},
	{"geometry":{"coordinates":[9.084277,45.811566],"type":"Point"},"properties":{"osm_id":"5823815953","tag":{"amenity":"waste_basket"}},"type":"Feature"},
	{"geometry":{"coordinates":[9.100034,45.824469],"type":"Point"},"properties":{"osm_id":"5909528025","tag":{"amenity":"waste_basket"}},"type":"Feature"},
	{"geometry":{"coordinates":[9.064293,45.817729],"type":"Point"},"properties":{"osm_id":"6000549187","tag":{"amenity":"waste_basket"}},"type":"Feature"},
	{"geometry":{"coordinates":[9.060984,45.819475],"type":"Point"},"properties":{"osm_id":"6000579385","tag":{"amenity":"waste_basket"}},"type":"Feature"},
	{"geometry":{"coordinates":[9.062941,45.818784],"type":"Point"},"properties":{"osm_id":"6000594585","tag":{"amenity":"waste_basket"}},"type":"Feature"},
	{"geometry":{"coordinates":[9.066784,45.817849],"type":"Point"},"properties":{"osm_id":"6000594589","tag":{"amenity":"waste_basket"}},"type":"Feature"},
	{"geometry":{"coordinates":[9.06347,45.818444],"type":"Point"},"properties":{"osm_id":"6000594885","tag":{"amenity":"waste_basket"}},"type":"Feature"},
	{"geometry":{"coordinates":[9.066051,45.818234],"type":"Point"},"properties":{"osm_id":"6000594886","tag":{"amenity":"waste_basket"}},"type":"Feature"},
	{"geometry":{"coordinates":[9.067332,45.816678],"type":"Point"},"properties":{"osm_id":"6000594887","tag":{"amenity":"waste_basket"}},"type":"Feature"},
	{"geometry":{"coordinates":[9.067297,45.816318],"type":"Point"},"properties":{"osm_id":"6000594888","tag":{"amenity":"waste_basket"}},"type":"Feature"},
	{"geometry":{"coordinates":[9.067692,45.815631],"type":"Point"},"properties":{"osm_id":"6000594890","tag":{"amenity":"waste_basket"}},"type":"Feature"},
	{"geometry":{"coordinates":[9.064726,45.817494],"type":"Point"},"properties":{"osm_id":"6000620985","tag":{"amenity":"waste_basket"}},"type":"Feature"},
	{"geometry":{"coordinates":[9.068792,45.814992],"type":"Point"},"properties":{"osm_id":"6000620988","tag":{"amenity":"waste_basket"}},"type":"Feature"},
	{"geometry":{"coordinates":[9.068994,45.81478],"type":"Point"},"properties":{"osm_id":"6000620989","tag":{"amenity":"waste_basket"}},"type":"Feature"},
	{"geometry":{"coordinates":[9.069651,45.814327],"type":"Point"},"properties":{"osm_id":"6000620990","tag":{"amenity":"waste_basket"}},"type":"Feature"},
	{"geometry":{"coordinates":[9.067215,45.816074],"type":"Point"},"properties":{"osm_id":"6000649085","tag":{"amenity":"waste_basket"}},"type":"Feature"},
	{"geometry":{"coordinates":[9.068246,45.815291],"type":"Point"},"properties":{"osm_id":"6000649086","tag":{"amenity":"waste_basket"}},"type":"Feature"},
	{"geometry":{"coordinates":[9.069189,45.814616],"type":"Point"},"properties":{"osm_id":"6000661386","tag":{"amenity":"waste_basket"}},"type":"Feature"},
	{"geometry":{"coordinates":[9.071541,45.814322],"type":"Point"},"properties":{"osm_id":"6000663086","tag":{"amenity":"waste_basket"}},"type":"Feature"},
	{"geometry":{"coordinates":[9.072982,45.81459],"type":"Point"},"properties":{"osm_id":"6000663087","tag":{"amenity":"waste_basket"}},"type":"Feature"},
	{"geometry":{"coordinates":[9.074093,45.814533],"type":"Point"},"properties":{"osm_id":"6000663088","tag":{"amenity":"waste_basket"}},"type":"Feature"},
	{"geometry":{"coordinates":[9.075551,45.813844],"type":"Point"},"properties":{"osm_id":"6000663089","tag":{"amenity":"waste_basket"}},"type":"Feature"},
	{"geometry":{"coordinates":[9.077114,45.812909],"type":"Point"},"properties":{"osm_id":"6000663090","tag":{"amenity":"waste_basket"}},"type":"Feature"},
	{"geometry":{"coordinates":[9.072097,45.814483],"type":"Point"},"properties":{"osm_id":"6000674486","tag":{"amenity":"waste_basket"}},"type":"Feature"},
	{"geometry":{"coordinates":[9.073404,45.814525],"type":"Point"},"properties":{"osm_id":"6000674488","tag":{"amenity":"waste_basket"}},"type":"Feature"},
	{"geometry":{"coordinates":[9.073877,45.814561],"type":"Point"},"properties":{"osm_id":"6000674489","tag":{"amenity":"waste_basket"}},"type":"Feature"},
	{"geometry":{"coordinates":[9.074026,45.814504],"type":"Point"},"properties":{"osm_id":"6000674490","tag":{"amenity":"waste_basket"}},"type":"Feature"},
	{"geometry":{"coordinates":[9.078182,45.810874],"type":"Point"},"properties":{"osm_id":"6000687888","tag":{"amenity":"waste_basket"}},"type":"Feature"},
	{"geometry":{"coordinates":[9.072666,45.814553],"type":"Point"},"properties":{"osm_id":"6000695485","tag":{"amenity":"waste_basket"}},"type":"Feature"},
	{"geometry":{"coordinates":[9.075727,45.813437],"type":"Point"},"properties":{"osm_id":"6000712987","tag":{"amenity":"waste_basket"}},"type":"Feature"},
	{"geometry":{"coordinates":[9.078827,45.81304],"type":"Point"},"properties":{"osm_id":"6000724487","tag":{"amenity":"waste_basket"}},"type":"Feature"},
	{"geometry":{"coordinates":[9.079001,45.812932],"type":"Point"},"properties":{"osm_id":"6000724488","tag":{"amenity":"waste_basket"}},"type":"Feature"},
	{"geometry":{"coordinates":[9.079233,45.812912],"type":"Point"},"properties":{"osm_id":"6000724489","tag":{"amenity":"waste_basket"}},"type":"Feature"},
	{"geometry":{"coordinates":[9.076809,45.812889],"type":"Point"},"properties":{"osm_id":"6000724885","tag":{"amenity":"waste_basket"}},"type":"Feature"},
	{"geometry":{"coordinates":[9.077567,45.813046],"type":"Point"},"properties":{"osm_id":"6000731286","tag":{"amenity":"waste_basket"}},"type":"Feature"},
	{"geometry":{"coordinates":[9.077647,45.812944],"type":"Point"},"properties":{"osm_id":"6000731287","tag":{"amenity":"waste_basket"}},"type":"Feature"},
	{"geometry":{"coordinates":[9.089685,45.802667],"type":"Point"},"properties":{"osm_id":"6068674537","tag":{"amenity":"waste_basket"}},"type":"Feature"},
	{"geometry":{"coordinates":[9.091354,45.802816],"type":"Point"},"properties":{"osm_id":"6068712478","tag":{"amenity":"waste_basket"}},"type":"Feature"},
	{"geometry":{"coordinates":[9.091243,45.803017],"type":"Point"},"properties":{"osm_id":"6068712479","tag":{"amenity":"waste_basket"}},"type":"Feature"},
	{"geometry":{"coordinates":[9.091701,45.802373],"type":"Point"},"properties":{"osm_id":"6068748815","tag":{"amenity":"waste_basket"}},"type":"Feature"},
	{"geometry":{"coordinates":[9.090187,45.801591],"type":"Point"},"properties":{"osm_id":"6068748818","tag":{"amenity":"waste_basket"}},"type":"Feature"},
	{"geometry":{"coordinates":[9.088292,45.801769],"type":"Point"},"properties":{"osm_id":"6068805787","tag":{"amenity":"waste_basket"}},"type":"Feature"},
	{"geometry":{"coordinates":[9.088364,45.802292],"type":"Point"},"properties":{"osm_id":"6068812246","tag":{"amenity":"waste_basket"}},"type":"Feature"},
	{"geometry":{"coordinates":[9.092228,45.801077],"type":"Point"},"properties":{"osm_id":"6068836727","tag":{"amenity":"recycling","recycling:clothes":"yes","recycling_type":"container"}},"type":"Feature"},
	{"geometry":{"coordinates":[9.091217,45.801511],"type":"Point"},"properties":{"osm_id":"6078650836","tag":{"amenity":"waste_basket"}},"type":"Feature"},
	{"geometry":{"coordinates":[9.091702,45.801187],"type":"Point"},"properties":{"osm_id":"6078650850","tag":{"amenity":"waste_basket"}},"type":"Feature"},
	{"geometry":{"coordinates":[9.09135,45.801363],"type":"Point"},"properties":{"osm_id":"6078650851","tag":{"amenity":"waste_basket"}},"type":"Feature"},
	{"geometry":{"coordinates":[9.093622,45.800184],"type":"Point"},"properties":{"osm_id":"6165635426","tag":{"amenity":"waste_basket"}},"type":"Feature"},
	{"geometry":{"coordinates":[9.140132,45.791884],"type":"Point"},"properties":{"osm_id":"6176317686","tag":{"amenity":"waste_basket"}},"type":"Feature"},
	{"geometry":{"coordinates":[9.073739,45.809325],"type":"Point"},"properties":{"osm_id":"6239727636","tag":{"amenity":"waste_basket","waste":"trash"}},"type":"Feature"},
	{"geometry":{"coordinates":[9.073673,45.80941],"type":"Point"},"properties":{"osm_id":"6239727637","tag":{"amenity":"waste_basket","waste":"trash"}},"type":"Feature"},
	{"geometry":{"coordinates":[9.090647,45.821314],"type":"Point"},"properties":{"osm_id":"6336014954","tag":{"amenity":"waste_basket","mapillary":"m21DZasOinyZPh4gGo21Nw"}},"type":"Feature"},
	{"geometry":{"coordinates":[9.095119,45.818339],"type":"Point"},"properties":{"osm_id":"6337494477","tag":{"amenity":"waste_basket"}},"type":"Feature"},
	{"geometry":{"coordinates":[9.088431,45.813397],"type":"Point"},"properties":{"osm_id":"6482357178","tag":{"amenity":"waste_basket","waste":"trash"}},"type":"Feature"},
	{"geometry":{"coordinates":[9.085373,45.81241],"type":"Point"},"properties":{"osm_id":"6511695190","tag":{"amenity":"waste_basket","waste":"trash"}},"type":"Feature"},
	{"geometry":{"coordinates":[9.090241,45.813924],"type":"Point"},"properties":{"osm_id":"6568148814","tag":{"amenity":"waste_basket","waste":"trash"}},"type":"Feature"},
	{"geometry":{"coordinates":[9.089365,45.813631],"type":"Point"},"properties":{"osm_id":"6568148815","tag":{"amenity":"waste_basket","waste":"trash"}},"type":"Feature"},
	{"geometry":{"coordinates":[9.076758,45.813388],"type":"Point"},"properties":{"osm_id":"6828686885","tag":{"amenity":"waste_basket"}},"type":"Feature"},
	{"geometry":{"coordinates":[9.086153,45.813179],"type":"Point"},"properties":{"osm_id":"6860870088","tag":{"amenity":"waste_basket"}},"type":"Feature"},
	{"geometry":{"coordinates":[9.084291,45.804948],"type":"Point"},"properties":{"osm_id":"7394831269","tag":{"amenity":"waste_basket"}},"type":"Feature"},
	{"geometry":{"coordinates":[9.084452,45.805295],"type":"Point"},"properties":{"osm_id":"7394831275","tag":{"amenity":"waste_basket"}},"type":"Feature"},
	{"geometry":{"coordinates":[9.084715,45.805403],"type":"Point"},"properties":{"osm_id":"7394892685","tag":{"amenity":"waste_basket"}},"type":"Feature"},
	{"geometry":{"coordinates":[9.085011,45.805715],"type":"Point"},"properties":{"osm_id":"7394892695","tag":{"amenity":"waste_basket"}},"type":"Feature"},
	{"geometry":{"coordinates":[9.089924,45.800056],"type":"Point"},"properties":{"osm_id":"7395290422","tag":{"amenity":"recycling","location":"overground","recycling:clothes":"yes","recycling_type":"container"}},"type":"Feature"},
	{"geometry":{"coordinates":[9.079926,45.812053],"type":"Point"},"properties":{"osm_id":"7395482835","tag":{"amenity":"waste_basket"}},"type":"Feature"},
	{"geometry":{"coordinates":[9.079943,45.813259],"type":"Point"},"properties":{"osm_id":"7419706255","tag":{"amenity":"waste_basket"}},"type":"Feature"},
	{"geometry":{"coordinates":[9.07974,45.813212],"type":"Point"},"properties":{"osm_id":"7419706258","tag":{"amenity":"waste_basket"}},"type":"Feature"},
	{"geometry":{"coordinates":[9.094802,45.821135],"type":"Point"},"properties":{"osm_id":"7823738421","tag":{"amenity":"waste_basket"}},"type":"Feature"}
]
}
