{
"type": "FeatureCollection",
"features": [
	{"geometry":{"coordinates":[9.128532,45.739488],"type":"Point"},"properties":{"osm_id":"1255355757","tag":{"amenity":"waste_basket","emergency":"fire_hydrant","fire_hydrant:position":"sidewalk","fire_hydrant:type":"pillar","survey:date":"2017-10-07"}},"type":"Feature"},
	{"geometry":{"coordinates":[9.126753,45.740713],"type":"Point"},"properties":{"osm_id":"4546728137","tag":{"amenity":"recycling","recycling:glass":"yes","recycling_type":"underfloor-container"}},"type":"Feature"},
	{"geometry":{"coordinates":[9.130982,45.735987],"type":"Point"},"properties":{"osm_id":"4546799186","tag":{"amenity":"recycling","recycling:clothes":"yes","recycling_type":"container"}},"type":"Feature"},
	{"geometry":{"coordinates":[9.130955,45.735969],"type":"Point"},"properties":{"osm_id":"4546799187","tag":{"amenity":"recycling","recycling:clothes":"yes","recycling_type":"container"}},"type":"Feature"},
	{"geometry":{"coordinates":[9.129385,45.739211],"type":"Point"},"properties":{"osm_id":"4575624834","tag":{"amenity":"waste_basket"}},"type":"Feature"},
	{"geometry":{"coordinates":[9.129639,45.739698],"type":"Point"},"properties":{"osm_id":"4575624835","tag":{"amenity":"waste_basket"}},"type":"Feature"},
	{"geometry":{"coordinates":[9.128946,45.739495],"type":"Point"},"properties":{"osm_id":"4575624836","tag":{"amenity":"waste_basket"}},"type":"Feature"},
	{"geometry":{"coordinates":[9.128978,45.739594],"type":"Point"},"properties":{"osm_id":"4575624837","tag":{"amenity":"waste_basket"}},"type":"Feature"},
	{"geometry":{"coordinates":[9.128735,45.739282],"type":"Point"},"properties":{"osm_id":"4575624840","tag":{"amenity":"waste_basket"}},"type":"Feature"},
	{"geometry":{"coordinates":[9.128629,45.739781],"type":"Point"},"properties":{"osm_id":"4575624841","tag":{"amenity":"waste_basket"}},"type":"Feature"},
	{"geometry":{"coordinates":[9.128995,45.739836],"type":"Point"},"properties":{"osm_id":"4575624842","tag":{"amenity":"waste_basket"}},"type":"Feature"},
	{"geometry":{"coordinates":[9.091241,45.73867],"type":"Point"},"properties":{"osm_id":"4618445305","tag":{"amenity":"waste_basket"}},"type":"Feature"},
	{"geometry":{"coordinates":[9.082304,45.741007],"type":"Point"},"properties":{"osm_id":"4685423657","tag":{"amenity":"waste_basket"}},"type":"Feature"},
	{"geometry":{"coordinates":[9.082373,45.740877],"type":"Point"},"properties":{"osm_id":"4685423659","tag":{"amenity":"waste_basket"}},"type":"Feature"}
]
}
