{
"type": "FeatureCollection",
"features": [
	{"geometry":{"coordinates":[9.05436,45.574291],"type":"Point"},"properties":{"name":"Piattaforma Ecologica","osm_id":"1478890141","tag":{"amenity":"recycling","recycling_type":"centre"}},"type":"Feature"},
	{"geometry":{"coordinates":[9.117105,45.564367],"type":"Point"},"properties":{"name":"SENAGO","osm_id":"3350171698","tag":{"amenity":"recycling"}},"type":"Feature"},
	{"geometry":{"coordinates":[9.070496,45.530211],"type":"Point"},"properties":{"osm_id":"4783234925","tag":{"amenity":"waste_basket"}},"type":"Feature"},
	{"geometry":{"coordinates":[9.130876,45.535623],"type":"Point"},"properties":{"osm_id":"5753716799","tag":{"amenity":"waste_basket"}},"type":"Feature"},
	{"geometry":{"coordinates":[9.130599,45.537502],"type":"Point"},"properties":{"osm_id":"5753762384","tag":{"amenity":"waste_basket"}},"type":"Feature"},
	{"geometry":{"coordinates":[9.13064,45.537438],"type":"Point"},"properties":{"osm_id":"5753762385","tag":{"amenity":"waste_basket"}},"type":"Feature"},
	{"geometry":{"coordinates":[9.130872,45.537689],"type":"Point"},"properties":{"osm_id":"5753762408","tag":{"amenity":"waste_basket"}},"type":"Feature"},
	{"geometry":{"coordinates":[9.132198,45.537867],"type":"Point"},"properties":{"osm_id":"5753764335","tag":{"amenity":"waste_basket"}},"type":"Feature"},
	{"geometry":{"coordinates":[9.131664,45.537784],"type":"Point"},"properties":{"osm_id":"5753764344","tag":{"amenity":"waste_basket"}},"type":"Feature"},
	{"geometry":{"coordinates":[9.131448,45.537734],"type":"Point"},"properties":{"osm_id":"5753764345","tag":{"amenity":"waste_basket"}},"type":"Feature"},
	{"geometry":{"coordinates":[9.132833,45.533619],"type":"Point"},"properties":{"osm_id":"5753901484","tag":{"amenity":"waste_basket"}},"type":"Feature"},
	{"geometry":{"coordinates":[9.134681,45.532446],"type":"Point"},"properties":{"osm_id":"5769065678","tag":{"amenity":"recycling","recycling_type":"container"}},"type":"Feature"},
	{"geometry":{"coordinates":[9.134557,45.532495],"type":"Point"},"properties":{"osm_id":"5769065680","tag":{"amenity":"waste_basket"}},"type":"Feature"},
	{"geometry":{"coordinates":[9.132492,45.536536],"type":"Point"},"properties":{"osm_id":"5771912186","tag":{"amenity":"waste_basket"}},"type":"Feature"},
	{"geometry":{"coordinates":[9.13309,45.536012],"type":"Point"},"properties":{"osm_id":"5771912208","tag":{"amenity":"waste_basket"}},"type":"Feature"},
	{"geometry":{"coordinates":[9.135118,45.534441],"type":"Point"},"properties":{"osm_id":"5774114380","tag":{"amenity":"waste_basket"}},"type":"Feature"},
	{"geometry":{"coordinates":[9.136507,45.533794],"type":"Point"},"properties":{"osm_id":"5774114389","tag":{"amenity":"waste_basket"}},"type":"Feature"},
	{"geometry":{"coordinates":[9.137445,45.533272],"type":"Point"},"properties":{"osm_id":"5774156639","tag":{"amenity":"waste_basket"}},"type":"Feature"},
	{"geometry":{"coordinates":[9.135826,45.533993],"type":"Point"},"properties":{"osm_id":"5774156871","tag":{"amenity":"waste_basket"}},"type":"Feature"},
	{"geometry":{"coordinates":[9.135263,45.534255],"type":"Point"},"properties":{"osm_id":"5774156905","tag":{"amenity":"waste_basket"}},"type":"Feature"},
	{"geometry":{"coordinates":[9.13539,45.534376],"type":"Point"},"properties":{"osm_id":"5774156907","tag":{"amenity":"recycling","recycling_type":"container"}},"type":"Feature"},
	{"geometry":{"coordinates":[9.135026,45.534385],"type":"Point"},"properties":{"osm_id":"5774183797","tag":{"amenity":"waste_basket"}},"type":"Feature"},
	{"geometry":{"coordinates":[9.134638,45.534557],"type":"Point"},"properties":{"osm_id":"5774183799","tag":{"amenity":"waste_basket"}},"type":"Feature"},
	{"geometry":{"coordinates":[9.133849,45.535275],"type":"Point"},"properties":{"osm_id":"5774183821","tag":{"amenity":"waste_basket"}},"type":"Feature"},
	{"geometry":{"coordinates":[9.132716,45.536213],"type":"Point"},"properties":{"osm_id":"5774183956","tag":{"amenity":"waste_basket"}},"type":"Feature"},
	{"geometry":{"coordinates":[9.134524,45.533571],"type":"Point"},"properties":{"osm_id":"5774216986","tag":{"amenity":"waste_basket"}},"type":"Feature"},
	{"geometry":{"coordinates":[9.134942,45.533948],"type":"Point"},"properties":{"osm_id":"5774216987","tag":{"amenity":"waste_basket"}},"type":"Feature"},
	{"geometry":{"coordinates":[9.134508,45.53374],"type":"Point"},"properties":{"osm_id":"5774216996","tag":{"amenity":"waste_basket"}},"type":"Feature"},
	{"geometry":{"coordinates":[9.134872,45.534121],"type":"Point"},"properties":{"osm_id":"5774217003","tag":{"amenity":"waste_basket"}},"type":"Feature"},
	{"geometry":{"coordinates":[9.136132,45.539801],"type":"Point"},"properties":{"osm_id":"5774917702","tag":{"amenity":"waste_basket"}},"type":"Feature"},
	{"geometry":{"coordinates":[9.137103,45.540023],"type":"Point"},"properties":{"osm_id":"5774917741","tag":{"amenity":"waste_basket"}},"type":"Feature"},
	{"geometry":{"coordinates":[9.136652,45.539864],"type":"Point"},"properties":{"osm_id":"5774917743","tag":{"amenity":"waste_basket"}},"type":"Feature"},
	{"geometry":{"coordinates":[9.137756,45.540015],"type":"Point"},"properties":{"osm_id":"5774917866","tag":{"amenity":"waste_basket"}},"type":"Feature"},
	{"geometry":{"coordinates":[9.136265,45.539071],"type":"Point"},"properties":{"osm_id":"5774917902","tag":{"amenity":"waste_basket"}},"type":"Feature"},
	{"geometry":{"coordinates":[9.13666,45.538476],"type":"Point"},"properties":{"osm_id":"5774917906","tag":{"amenity":"waste_basket"}},"type":"Feature"},
	{"geometry":{"coordinates":[9.136745,45.538307],"type":"Point"},"properties":{"osm_id":"5774917948","tag":{"amenity":"waste_basket"}},"type":"Feature"},
	{"geometry":{"coordinates":[9.136275,45.538273],"type":"Point"},"properties":{"osm_id":"5774918053","tag":{"amenity":"waste_basket"}},"type":"Feature"},
	{"geometry":{"coordinates":[9.13779,45.538406],"type":"Point"},"properties":{"osm_id":"5774918058","tag":{"amenity":"recycling","recycling:clothes":"yes","recycling_type":"container"}},"type":"Feature"},
	{"geometry":{"coordinates":[9.137742,45.538453],"type":"Point"},"properties":{"osm_id":"5774918060","tag":{"amenity":"waste_basket"}},"type":"Feature"},
	{"geometry":{"coordinates":[9.137865,45.538336],"type":"Point"},"properties":{"osm_id":"5774918061","tag":{"amenity":"waste_basket"}},"type":"Feature"},
	{"geometry":{"coordinates":[9.140432,45.536168],"type":"Point"},"properties":{"osm_id":"5783327262","tag":{"amenity":"waste_basket"}},"type":"Feature"},
	{"geometry":{"coordinates":[9.139936,45.533178],"type":"Point"},"properties":{"osm_id":"5785270028","tag":{"amenity":"waste_basket"}},"type":"Feature"},
	{"geometry":{"coordinates":[9.133683,45.534492],"type":"Point"},"properties":{"osm_id":"5791080743","tag":{"amenity":"waste_basket"}},"type":"Feature"},
	{"geometry":{"coordinates":[9.135125,45.535974],"type":"Point"},"properties":{"osm_id":"5792368676","tag":{"amenity":"waste_basket"}},"type":"Feature"},
	{"geometry":{"coordinates":[9.134678,45.537547],"type":"Point"},"properties":{"osm_id":"5792368725","tag":{"amenity":"waste_basket"}},"type":"Feature"},
	{"geometry":{"coordinates":[9.134571,45.537985],"type":"Point"},"properties":{"osm_id":"5792368758","tag":{"amenity":"waste_basket"}},"type":"Feature"},
	{"geometry":{"coordinates":[9.13397,45.537279],"type":"Point"},"properties":{"osm_id":"5792368769","tag":{"amenity":"waste_basket"}},"type":"Feature"},
	{"geometry":{"coordinates":[9.136152,45.534905],"type":"Point"},"properties":{"osm_id":"5792592568","tag":{"amenity":"waste_basket"}},"type":"Feature"},
	{"geometry":{"coordinates":[9.135721,45.537159],"type":"Point"},"properties":{"osm_id":"5792592640","tag":{"amenity":"waste_basket"}},"type":"Feature"},
	{"geometry":{"coordinates":[9.135492,45.537646],"type":"Point"},"properties":{"osm_id":"5792592691","tag":{"amenity":"waste_basket"}},"type":"Feature"},
	{"geometry":{"coordinates":[9.131162,45.529138],"type":"Point"},"properties":{"osm_id":"5804580394","tag":{"amenity":"waste_basket"}},"type":"Feature"},
	{"geometry":{"coordinates":[9.108744,45.531319],"type":"Point"},"properties":{"osm_id":"5818862331","tag":{"amenity":"waste_basket"}},"type":"Feature"},
	{"geometry":{"coordinates":[9.118128,45.530294],"type":"Point"},"properties":{"osm_id":"5818862430","tag":{"amenity":"waste_basket"}},"type":"Feature"},
	{"geometry":{"coordinates":[9.133471,45.537218],"type":"Point"},"properties":{"osm_id":"5854825046","tag":{"amenity":"waste_basket"}},"type":"Feature"},
	{"geometry":{"coordinates":[9.133306,45.537373],"type":"Point"},"properties":{"osm_id":"5854825047","tag":{"amenity":"waste_basket"}},"type":"Feature"},
	{"geometry":{"coordinates":[9.133049,45.537326],"type":"Point"},"properties":{"osm_id":"5854825048","tag":{"amenity":"waste_basket"}},"type":"Feature"},
	{"geometry":{"coordinates":[9.133002,45.537226],"type":"Point"},"properties":{"osm_id":"5854825049","tag":{"amenity":"waste_basket"}},"type":"Feature"},
	{"geometry":{"coordinates":[9.133316,45.537244],"type":"Point"},"properties":{"osm_id":"5854825050","tag":{"amenity":"waste_basket"}},"type":"Feature"},
	{"geometry":{"coordinates":[9.133342,45.537307],"type":"Point"},"properties":{"osm_id":"5854825051","tag":{"amenity":"waste_basket"}},"type":"Feature"},
	{"geometry":{"coordinates":[9.133392,45.53738],"type":"Point"},"properties":{"osm_id":"5854825052","tag":{"amenity":"waste_basket"}},"type":"Feature"},
	{"geometry":{"coordinates":[9.093095,45.555596],"type":"Point"},"properties":{"osm_id":"5877134285","tag":{"amenity":"waste_basket"}},"type":"Feature"},
	{"geometry":{"coordinates":[9.110305,45.54468],"type":"Point"},"properties":{"osm_id":"6416994864","tag":{"amenity":"waste_basket","waste":"dog_excrement"}},"type":"Feature"},
	{"geometry":{"coordinates":[9.12566,45.529219],"type":"Point"},"properties":{"osm_id":"6585170656","tag":{"amenity":"waste_basket","waste":"trash"}},"type":"Feature"},
	{"geometry":{"coordinates":[9.074912,45.559852],"type":"Point"},"properties":{"osm_id":"7540657419","tag":{"access":"private","amenity":"waste_disposal","operator":"Condominio Vigna del Siolo","waste":"trash;recycling;plastic;glass"}},"type":"Feature"},
	{"geometry":{"coordinates":[9.140173,45.532566],"type":"Point"},"properties":{"osm_id":"7600424800","tag":{"amenity":"waste_basket","waste":"trash"}},"type":"Feature"},
	{"geometry":{"coordinates":[9.134656,45.532644],"type":"Point"},"properties":{"osm_id":"7623230495","tag":{"amenity":"waste_basket","waste":"trash"}},"type":"Feature"},
	{"geometry":{"coordinates":[9.109398,45.526856],"type":"Point"},"properties":{"osm_id":"7888376037","tag":{"amenity":"recycling","recycling:clothes":"yes","recycling_type":"container"}},"type":"Feature"},
	{"geometry":{"coordinates":[9.1351,45.531165],"type":"Point"},"properties":{"osm_id":"7900710587","tag":{"amenity":"waste_basket"}},"type":"Feature"},
	{"geometry":{"coordinates":[9.137387,45.531498],"type":"Point"},"properties":{"osm_id":"7900710684","tag":{"amenity":"waste_basket"}},"type":"Feature"},
	{"geometry":{"coordinates":[9.137327,45.531616],"type":"Point"},"properties":{"osm_id":"7900710686","tag":{"amenity":"recycling","recycling:paper":"yes","recycling:plastic":"yes","recycling_type":"container"}},"type":"Feature"},
	{"geometry":{"coordinates":[9.131876,45.533211],"type":"Point"},"properties":{"osm_id":"7904677914","tag":{"amenity":"recycling","recycling:clothes":"yes","recycling_type":"container"}},"type":"Feature"},
	{"geometry":{"coordinates":[9.131872,45.536939],"type":"Point"},"properties":{"osm_id":"7931136272","tag":{"amenity":"waste_basket"}},"type":"Feature"},
	{"geometry":{"coordinates":[9.132068,45.536905],"type":"Point"},"properties":{"osm_id":"7931136273","tag":{"amenity":"waste_basket"}},"type":"Feature"},
	{"geometry":{"coordinates":[9.133479,45.535504],"type":"Point"},"properties":{"osm_id":"7931136274","tag":{"amenity":"waste_basket"}},"type":"Feature"},
	{"geometry":{"coordinates":[9.133879,45.535356],"type":"Point"},"properties":{"osm_id":"7931136275","tag":{"amenity":"waste_basket"}},"type":"Feature"},
	{"geometry":{"coordinates":[9.134305,45.534878],"type":"Point"},"properties":{"osm_id":"7931136276","tag":{"amenity":"waste_basket"}},"type":"Feature"},
	{"geometry":{"coordinates":[9.139872,45.531772],"type":"Point"},"properties":{"osm_id":"7934044974","tag":{"amenity":"waste_basket","waste":"trash"}},"type":"Feature"},
	{"geometry":{"coordinates":[9.140604,45.531714],"type":"Point"},"properties":{"osm_id":"7934055554","tag":{"amenity":"waste_basket","waste":"trash"}},"type":"Feature"},
	{"geometry":{"coordinates":[9.139731,45.531809],"type":"Point"},"properties":{"osm_id":"7934055574","tag":{"amenity":"recycling","recycling:paper":"yes","recycling:plastic":"yes","recycling_type":"container"}},"type":"Feature"},
	{"geometry":{"coordinates":[9.139729,45.531812],"type":"Point"},"properties":{"osm_id":"7934055575","tag":{"amenity":"waste_basket","waste":"trash"}},"type":"Feature"},
	{"geometry":{"coordinates":[9.138189,45.531633],"type":"Point"},"properties":{"osm_id":"7934055607","tag":{"amenity":"waste_basket","waste":"trash"}},"type":"Feature"},
	{"geometry":{"coordinates":[9.136936,45.531069],"type":"Point"},"properties":{"osm_id":"7934055632","tag":{"amenity":"waste_basket","waste":"trash"}},"type":"Feature"},
	{"geometry":{"coordinates":[9.137429,45.532522],"type":"Point"},"properties":{"osm_id":"7934055638","tag":{"amenity":"waste_basket","waste":"trash"}},"type":"Feature"},
	{"geometry":{"coordinates":[9.137357,45.532273],"type":"Point"},"properties":{"osm_id":"7934055639","tag":{"amenity":"waste_basket","waste":"trash"}},"type":"Feature"},
	{"geometry":{"coordinates":[9.137325,45.531957],"type":"Point"},"properties":{"osm_id":"7934055640","tag":{"amenity":"waste_basket","waste":"trash"}},"type":"Feature"},
	{"geometry":{"coordinates":[9.137214,45.53131],"type":"Point"},"properties":{"osm_id":"7934055646","tag":{"amenity":"waste_basket","waste":"trash"}},"type":"Feature"},
	{"geometry":{"coordinates":[9.135652,45.531373],"type":"Point"},"properties":{"osm_id":"7934055648","tag":{"amenity":"waste_basket","waste":"trash"}},"type":"Feature"},
	{"geometry":{"coordinates":[9.135614,45.531514],"type":"Point"},"properties":{"osm_id":"7934055649","tag":{"amenity":"waste_basket","waste":"trash"}},"type":"Feature"},
	{"geometry":{"coordinates":[9.135549,45.531818],"type":"Point"},"properties":{"osm_id":"7934055650","tag":{"amenity":"waste_basket","waste":"trash"}},"type":"Feature"},
	{"geometry":{"coordinates":[9.13546,45.53229],"type":"Point"},"properties":{"osm_id":"7934055652","tag":{"amenity":"waste_basket","waste":"trash"}},"type":"Feature"},
	{"geometry":{"coordinates":[9.13543,45.532302],"type":"Point"},"properties":{"osm_id":"7934055653","tag":{"amenity":"recycling","operator":"Caritas Ambrosiana","recycling:clothes":"yes","recycling_type":"container"}},"type":"Feature"},
	{"geometry":{"coordinates":[9.131721,45.537579],"type":"Point"},"properties":{"osm_id":"7935444069","tag":{"amenity":"waste_basket","waste":"trash"}},"type":"Feature"},
	{"geometry":{"coordinates":[9.131505,45.53742],"type":"Point"},"properties":{"osm_id":"7935444070","tag":{"amenity":"waste_basket","waste":"trash"}},"type":"Feature"},
	{"geometry":{"coordinates":[9.131335,45.537378],"type":"Point"},"properties":{"osm_id":"7935444072","tag":{"amenity":"waste_basket","waste":"trash"}},"type":"Feature"},
	{"geometry":{"coordinates":[9.131353,45.537481],"type":"Point"},"properties":{"osm_id":"7935444073","tag":{"amenity":"waste_basket","waste":"trash"}},"type":"Feature"},
	{"geometry":{"coordinates":[9.13014,45.53728],"type":"Point"},"properties":{"osm_id":"7935444311","tag":{"amenity":"waste_basket","waste":"trash"}},"type":"Feature"},
	{"geometry":{"coordinates":[9.072637,45.559411],"type":"Point"},"properties":{"osm_id":"7945199186","tag":{"amenity":"waste_basket"}},"type":"Feature"}
]
}
