{
"type": "FeatureCollection",
"features": [
	{"geometry":{"coordinates":[9.131817,39.249097],"type":"Point"},"properties":{"osm_id":"2342435646","tag":{"amenity":"waste_basket"}},"type":"Feature"},
	{"geometry":{"coordinates":[9.131957,39.249263],"type":"Point"},"properties":{"osm_id":"2342435672","tag":{"amenity":"waste_basket"}},"type":"Feature"},
	{"geometry":{"coordinates":[9.061878,39.256325],"type":"Point"},"properties":{"osm_id":"2945508451","tag":{"amenity":"waste_basket"}},"type":"Feature"},
	{"geometry":{"coordinates":[9.062587,39.256771],"type":"Point"},"properties":{"osm_id":"2945508454","tag":{"amenity":"waste_basket"}},"type":"Feature"},
	{"geometry":{"coordinates":[9.135619,39.244544],"type":"Point"},"properties":{"osm_id":"3093675495","tag":{"amenity":"waste_disposal"}},"type":"Feature"},
	{"geometry":{"coordinates":[9.133423,39.247681],"type":"Point"},"properties":{"osm_id":"3093675499","tag":{"amenity":"waste_disposal"}},"type":"Feature"},
	{"geometry":{"coordinates":[9.10639,39.239183],"type":"Point"},"properties":{"osm_id":"6152156738","tag":{"amenity":"waste_basket"}},"type":"Feature"},
	{"geometry":{"coordinates":[9.106201,39.241469],"type":"Point"},"properties":{"osm_id":"6152156750","tag":{"amenity":"waste_basket"}},"type":"Feature"},
	{"geometry":{"coordinates":[9.068761,39.287033],"type":"Point"},"properties":{"name":"Eco Silam Srl","osm_id":"6620799785","tag":{"amenity":"recycling"}},"type":"Feature"}
]
}
