{
"type": "FeatureCollection",
"features": [
	{"geometry":{"coordinates":[9.113017,39.218317],"type":"Point"},"properties":{"osm_id":"2332029216","tag":{"amenity":"waste_disposal","waste":"trash"}},"type":"Feature"},
	{"geometry":{"coordinates":[9.113034,39.218345],"type":"Point"},"properties":{"osm_id":"2332029218","tag":{"amenity":"waste_disposal","waste":"trash"}},"type":"Feature"},
	{"geometry":{"coordinates":[9.112064,39.218604],"type":"Point"},"properties":{"osm_id":"2332033789","tag":{"amenity":"recycling","recycling:cans":"yes","recycling:glass":"yes","recycling_type":"container"}},"type":"Feature"},
	{"geometry":{"coordinates":[9.112067,39.218609],"type":"Point"},"properties":{"osm_id":"2332033790","tag":{"amenity":"waste_disposal","waste":"trash"}},"type":"Feature"},
	{"geometry":{"coordinates":[9.11207,39.218616],"type":"Point"},"properties":{"osm_id":"2332033791","tag":{"amenity":"waste_disposal","waste":"trash"}},"type":"Feature"},
	{"geometry":{"coordinates":[9.112069,39.218624],"type":"Point"},"properties":{"osm_id":"2332035659","tag":{"amenity":"recycling","recycling:organic":"yes","recycling_type":"container"}},"type":"Feature"},
	{"geometry":{"coordinates":[9.12047,39.208103],"type":"Point"},"properties":{"osm_id":"2691108434","tag":{"amenity":"waste_basket"}},"type":"Feature"},
	{"geometry":{"coordinates":[9.119698,39.208305],"type":"Point"},"properties":{"osm_id":"2691108447","tag":{"amenity":"waste_basket"}},"type":"Feature"},
	{"geometry":{"coordinates":[9.119794,39.208365],"type":"Point"},"properties":{"osm_id":"2691108453","tag":{"amenity":"waste_basket"}},"type":"Feature"},
	{"geometry":{"coordinates":[9.118855,39.208692],"type":"Point"},"properties":{"osm_id":"2691108467","tag":{"amenity":"waste_basket"}},"type":"Feature"},
	{"geometry":{"coordinates":[9.117521,39.209144],"type":"Point"},"properties":{"osm_id":"2691108490","tag":{"amenity":"waste_basket"}},"type":"Feature"},
	{"geometry":{"coordinates":[9.113005,39.218329],"type":"Point"},"properties":{"osm_id":"2817160340","tag":{"amenity":"waste_disposal","waste":"trash"}},"type":"Feature"},
	{"geometry":{"coordinates":[9.123896,39.205716],"type":"Point"},"properties":{"osm_id":"3120555476","tag":{"amenity":"waste_basket","seamark:small_craft_facility:category":"refuse_bin","seamark:type":"small_craft_facility"}},"type":"Feature"},
	{"geometry":{"coordinates":[9.123729,39.205852],"type":"Point"},"properties":{"osm_id":"3120555478","tag":{"amenity":"waste_basket"}},"type":"Feature"},
	{"geometry":{"coordinates":[9.123571,39.205997],"type":"Point"},"properties":{"osm_id":"3120555480","tag":{"amenity":"waste_basket"}},"type":"Feature"},
	{"geometry":{"coordinates":[9.123421,39.206143],"type":"Point"},"properties":{"osm_id":"3120555482","tag":{"amenity":"waste_basket"}},"type":"Feature"},
	{"geometry":{"coordinates":[9.123255,39.206307],"type":"Point"},"properties":{"osm_id":"3120555484","tag":{"amenity":"waste_basket"}},"type":"Feature"},
	{"geometry":{"coordinates":[9.12308,39.206472],"type":"Point"},"properties":{"osm_id":"3120555486","tag":{"amenity":"waste_basket"}},"type":"Feature"},
	{"geometry":{"coordinates":[9.122667,39.206782],"type":"Point"},"properties":{"osm_id":"3120555489","tag":{"amenity":"waste_basket"}},"type":"Feature"},
	{"geometry":{"coordinates":[9.122529,39.206874],"type":"Point"},"properties":{"osm_id":"3120555490","tag":{"amenity":"waste_basket"}},"type":"Feature"},
	{"geometry":{"coordinates":[9.122283,39.207052],"type":"Point"},"properties":{"osm_id":"3120555493","tag":{"amenity":"waste_basket"}},"type":"Feature"},
	{"geometry":{"coordinates":[9.122099,39.207166],"type":"Point"},"properties":{"osm_id":"3120555495","tag":{"amenity":"waste_basket"}},"type":"Feature"},
	{"geometry":{"coordinates":[9.1218,39.207363],"type":"Point"},"properties":{"osm_id":"3120555498","tag":{"amenity":"waste_basket"}},"type":"Feature"},
	{"geometry":{"coordinates":[9.121627,39.207461],"type":"Point"},"properties":{"osm_id":"3120555500","tag":{"amenity":"waste_basket"}},"type":"Feature"},
	{"geometry":{"coordinates":[9.121416,39.207599],"type":"Point"},"properties":{"osm_id":"3120555502","tag":{"amenity":"waste_basket"}},"type":"Feature"},
	{"geometry":{"coordinates":[9.121153,39.20777],"type":"Point"},"properties":{"osm_id":"3120555504","tag":{"amenity":"waste_basket"}},"type":"Feature"},
	{"geometry":{"coordinates":[9.120961,39.207895],"type":"Point"},"properties":{"osm_id":"3120555506","tag":{"amenity":"waste_basket"}},"type":"Feature"},
	{"geometry":{"coordinates":[9.120746,39.208004],"type":"Point"},"properties":{"osm_id":"3120555509","tag":{"amenity":"waste_basket"}},"type":"Feature"},
	{"geometry":{"coordinates":[9.120392,39.208103],"type":"Point"},"properties":{"osm_id":"3120555520","tag":{"amenity":"waste_basket"}},"type":"Feature"},
	{"geometry":{"coordinates":[9.119656,39.208413],"type":"Point"},"properties":{"osm_id":"3120556930","tag":{"amenity":"waste_basket"}},"type":"Feature"},
	{"geometry":{"coordinates":[9.115711,39.208814],"type":"Point"},"properties":{"osm_id":"4028218381","tag":{"amenity":"waste_basket"}},"type":"Feature"},
	{"geometry":{"coordinates":[9.116501,39.209002],"type":"Point"},"properties":{"osm_id":"4028218387","tag":{"amenity":"waste_basket"}},"type":"Feature"},
	{"geometry":{"coordinates":[9.113072,39.21744],"type":"Point"},"properties":{"osm_id":"4438870385","tag":{"amenity":"waste_basket"}},"type":"Feature"},
	{"geometry":{"coordinates":[9.113139,39.217526],"type":"Point"},"properties":{"osm_id":"4438870889","tag":{"amenity":"waste_basket"}},"type":"Feature"},
	{"geometry":{"coordinates":[9.101377,39.228129],"type":"Point"},"properties":{"osm_id":"4439093545","tag":{"amenity":"waste_basket"}},"type":"Feature"},
	{"geometry":{"coordinates":[9.10377,39.225794],"type":"Point"},"properties":{"osm_id":"4440523612","tag":{"amenity":"recycling"}},"type":"Feature"},
	{"geometry":{"coordinates":[9.106053,39.225839],"type":"Point"},"properties":{"osm_id":"4440523613","tag":{"amenity":"recycling"}},"type":"Feature"},
	{"geometry":{"coordinates":[9.10143,39.23031],"type":"Point"},"properties":{"osm_id":"4440523630","tag":{"amenity":"recycling"}},"type":"Feature"},
	{"geometry":{"coordinates":[9.11675,39.21812],"type":"Point"},"properties":{"osm_id":"5124620321","tag":{"amenity":"waste_basket"}},"type":"Feature"},
	{"geometry":{"coordinates":[9.112257,39.220346],"type":"Point"},"properties":{"osm_id":"6086157361","tag":{"amenity":"waste_disposal"}},"type":"Feature"},
	{"geometry":{"coordinates":[9.132792,39.218776],"type":"Point"},"properties":{"osm_id":"7353994405","tag":{"amenity":"waste_basket"}},"type":"Feature"},
	{"geometry":{"coordinates":[9.134061,39.218629],"type":"Point"},"properties":{"osm_id":"7358194458","tag":{"amenity":"waste_basket","waste":"dog_excrement"}},"type":"Feature"},
	{"geometry":{"coordinates":[9.13473,39.218383],"type":"Point"},"properties":{"osm_id":"7358194459","tag":{"amenity":"waste_basket","waste":"dog_excrement"}},"type":"Feature"}
]
}
