{
"type": "FeatureCollection",
"lastupdate": "2020-08-04T00:00:00Z",
"features": [
	{"geometry":{"coordinates":[-79.357633,43.628307],"type":"Point"},"properties":{"osm_id":"856107879","tag":{"amenity":"waste_basket"}},"type":"Feature"},
	{"geometry":{"coordinates":[-79.357625,43.628302],"type":"Point"},"properties":{"osm_id":"856107882","tag":{"amenity":"recycling","recycling_type":"container"}},"type":"Feature"},
	{"geometry":{"coordinates":[-79.344267,43.637003],"type":"Point"},"properties":{"osm_id":"3064282033","tag":{"amenity":"waste_basket","website":"http://www.waterfrontoronto.ca/explore_projects2/port_lands/cherry_beach"}},"type":"Feature"},
	{"geometry":{"coordinates":[-79.344364,43.636861],"type":"Point"},"properties":{"osm_id":"3064283833","tag":{"amenity":"recycling","recycling_type":"container","website":"http://www.waterfrontoronto.ca/explore_projects2/port_lands/cherry_beach"}},"type":"Feature"},
	{"geometry":{"coordinates":[-79.343505,43.637449],"type":"Point"},"properties":{"osm_id":"3683218250","tag":{"amenity":"waste_basket"}},"type":"Feature"},
	{"geometry":{"coordinates":[-79.34346,43.637455],"type":"Point"},"properties":{"osm_id":"3683218251","tag":{"amenity":"recycling","recycling_type":"container"}},"type":"Feature"},
	{"geometry":{"coordinates":[-79.343424,43.637464],"type":"Point"},"properties":{"osm_id":"3683218252","tag":{"amenity":"recycling","recycling_type":"container"}},"type":"Feature"},
	{"geometry":{"coordinates":[-79.341912,43.638845],"type":"Point"},"properties":{"osm_id":"3683222053","tag":{"amenity":"recycling","recycling_type":"container"}},"type":"Feature"},
	{"geometry":{"coordinates":[-79.342448,43.638857],"type":"Point"},"properties":{"osm_id":"3683222054","tag":{"amenity":"waste_basket"}},"type":"Feature"},
	{"geometry":{"coordinates":[-79.341884,43.638873],"type":"Point"},"properties":{"osm_id":"3683222055","tag":{"amenity":"waste_basket"}},"type":"Feature"},
	{"geometry":{"coordinates":[-79.342435,43.638876],"type":"Point"},"properties":{"osm_id":"3683222056","tag":{"amenity":"recycling","recycling_type":"container"}},"type":"Feature"},
	{"geometry":{"coordinates":[-79.341741,43.639145],"type":"Point"},"properties":{"osm_id":"3683222057","tag":{"amenity":"recycling","recycling_type":"container"}},"type":"Feature"},
	{"geometry":{"coordinates":[-79.341771,43.639157],"type":"Point"},"properties":{"osm_id":"3683222058","tag":{"amenity":"waste_basket"}},"type":"Feature"},
	{"geometry":{"coordinates":[-79.361943,43.627143],"type":"Point"},"properties":{"osm_id":"4405930133","tag":{"amenity":"recycling","recycling:cans":"yes","recycling:cardboard":"yes","recycling:glass":"yes","recycling:glass_bottles":"yes","recycling:paper":"yes","recycling:plastic":"yes","recycling:plastic_bottles":"yes","recycling_type":"container"}},"type":"Feature"},
	{"geometry":{"coordinates":[-79.363444,43.623578],"type":"Point"},"properties":{"osm_id":"6455763985","tag":{"amenity":"waste_basket"}},"type":"Feature"}
]
}
