{
"type": "FeatureCollection",
"features": [
	{"geometry":{"coordinates":[3.366265,50.900551],"type":"Point"},"properties":{"barrier":"gate","osm_id":"6524193159"},"type":"Feature"},
	{"geometry":{"coordinates":[3.367096,50.900455],"type":"Point"},"properties":{"barrier":"gate","osm_id":"6524193184"},"type":"Feature"},
	{"geometry":{"coordinates":[3.367137,50.900461],"type":"Point"},"properties":{"barrier":"gate","osm_id":"6524219485"},"type":"Feature"},
	{"geometry":{"coordinates":[3.423747,50.890756],"type":"Point"},"properties":{"osm_id":"6710682622","tag":{"amenity":"waste_basket"}},"type":"Feature"},
	{"geometry":{"coordinates":[3.424325,50.891395],"type":"Point"},"properties":{"osm_id":"6710960229","tag":{"amenity":"waste_basket"}},"type":"Feature"},
	{"geometry":{"coordinates":[3.363134,50.883939],"type":"Point"},"properties":{"osm_id":"6840766013","tag":{"amenity":"waste_basket"}},"type":"Feature"},
	{"geometry":{"coordinates":[3.40094,50.898995],"type":"Point"},"properties":{"osm_id":"6889295675","tag":{"amenity":"recycling","operator":"Vlaams Internationaal Centrum","recycling:clothes":"yes","recycling:curtains":"yes","recycling:shoes":"yes","recycling_type":"container"}},"type":"Feature"},
	{"geometry":{"coordinates":[3.400983,50.899012],"type":"Point"},"properties":{"osm_id":"6889318626","tag":{"amenity":"recycling","operator":"Vlaams Internationaal Centrum","recycling:clothes":"yes","recycling:curtains":"yes","recycling:shoes":"yes","recycling_type":"container"}},"type":"Feature"},
	{"geometry":{"coordinates":[3.361882,50.88102],"type":"Point"},"properties":{"osm_id":"7040550145","tag":{"amenity":"waste_basket"}},"type":"Feature"},
	{"geometry":{"coordinates":[3.36467,50.886115],"type":"Point"},"properties":{"name":"Glasbol","osm_id":"7214129498","tag":{"amenity":"recycling","colour":"green","opening_hours":"Mo-Su 08:00-20:00","operator":"IMOG","recycling:glass":"yes","recycling_type":"container","website":"https://www.imog.be/afval-inzamelen/een-glasbol-in-je-buurt/"}},"type":"Feature"}
]
}
