{
"type": "FeatureCollection",
"features": [
	{"geometry":{"coordinates":[3.393585,50.607022],"type":"Point"},"properties":{"osm_id":"2525331412","tag":{"amenity":"waste_basket"}},"type":"Feature"},
	{"geometry":{"coordinates":[3.394951,50.607721],"type":"Point"},"properties":{"osm_id":"2525331431","tag":{"amenity":"waste_basket"}},"type":"Feature"},
	{"geometry":{"coordinates":[3.395474,50.608141],"type":"Point"},"properties":{"osm_id":"2525331467","tag":{"amenity":"waste_basket"}},"type":"Feature"},
	{"geometry":{"coordinates":[3.395798,50.608345],"type":"Point"},"properties":{"osm_id":"2525331471","tag":{"amenity":"waste_basket"}},"type":"Feature"},
	{"geometry":{"coordinates":[3.395415,50.608703],"type":"Point"},"properties":{"osm_id":"2525331478","tag":{"amenity":"waste_basket"}},"type":"Feature"},
	{"geometry":{"coordinates":[3.409904,50.602022],"type":"Point"},"properties":{"barrier":"gate","osm_id":"4379241528"},"type":"Feature"},
	{"geometry":{"coordinates":[3.390794,50.611132],"type":"Point"},"properties":{"osm_id":"4508530283","tag":{"amenity":"waste_basket"}},"type":"Feature"},
	{"geometry":{"coordinates":[3.39076,50.611154],"type":"Point"},"properties":{"osm_id":"4508530284","tag":{"amenity":"waste_basket"}},"type":"Feature"},
	{"geometry":{"coordinates":[3.392985,50.612332],"type":"Point"},"properties":{"osm_id":"4508659668","tag":{"amenity":"recycling","recycling:glass_bottles":"yes","recycling_type":"container"}},"type":"Feature"},
	{"geometry":{"coordinates":[3.393601,50.612055],"type":"Point"},"properties":{"osm_id":"4508675342","tag":{"amenity":"waste_basket"}},"type":"Feature"},
	{"geometry":{"coordinates":[3.394826,50.611605],"type":"Point"},"properties":{"osm_id":"4508717171","tag":{"amenity":"waste_basket"}},"type":"Feature"},
	{"geometry":{"coordinates":[3.396124,50.611518],"type":"Point"},"properties":{"osm_id":"4508753319","tag":{"amenity":"recycling","description":"underground storage","recycling:glass_bottles":"yes","recycling_type":"container"}},"type":"Feature"},
	{"geometry":{"coordinates":[3.396696,50.611114],"type":"Point"},"properties":{"osm_id":"4508761166","tag":{"amenity":"waste_basket"}},"type":"Feature"},
	{"geometry":{"coordinates":[3.397933,50.61102],"type":"Point"},"properties":{"osm_id":"4508810758","tag":{"amenity":"waste_basket"}},"type":"Feature"},
	{"geometry":{"coordinates":[3.397862,50.61087],"type":"Point"},"properties":{"osm_id":"4508810759","tag":{"amenity":"waste_basket"}},"type":"Feature"},
	{"geometry":{"coordinates":[3.387119,50.610124],"type":"Point"},"properties":{"osm_id":"4588798089","tag":{"amenity":"recycling","location":"underground","recycling_type":"container"}},"type":"Feature"},
	{"geometry":{"coordinates":[3.392804,50.612599],"type":"Point"},"properties":{"osm_id":"4592428189","tag":{"amenity":"recycling","location":"overground","recycling_type":"container"}},"type":"Feature"},
	{"geometry":{"coordinates":[3.39046,50.624339],"type":"Point"},"properties":{"osm_id":"4950675002","tag":{"amenity":"recycling","recycling:clothes":"yes","recycling_type":"container"}},"type":"Feature"},
	{"geometry":{"coordinates":[3.399348,50.614225],"type":"Point"},"properties":{"osm_id":"4950675003","tag":{"amenity":"recycling","recycling:glass_bottles":"yes","recycling_type":"container"}},"type":"Feature"},
	{"geometry":{"coordinates":[3.38879,50.612087],"type":"Point"},"properties":{"osm_id":"5462473679","tag":{"amenity":"waste_basket"}},"type":"Feature"},
	{"geometry":{"coordinates":[3.389249,50.612218],"type":"Point"},"properties":{"osm_id":"5494130164","tag":{"amenity":"waste_basket"}},"type":"Feature"},
	{"geometry":{"coordinates":[3.342191,50.617581],"type":"Point"},"properties":{"osm_id":"5495826319","tag":{"amenity":"waste_basket"}},"type":"Feature"},
	{"geometry":{"coordinates":[3.342853,50.617879],"type":"Point"},"properties":{"osm_id":"5495840127","tag":{"amenity":"waste_basket"}},"type":"Feature"},
	{"geometry":{"coordinates":[3.416684,50.610966],"type":"Point"},"properties":{"osm_id":"5668927423","tag":{"amenity":"waste_basket"}},"type":"Feature"},
	{"geometry":{"coordinates":[3.415051,50.600512],"type":"Point"},"properties":{"osm_id":"6672600081","tag":{"amenity":"waste_basket"}},"type":"Feature"},
	{"geometry":{"coordinates":[3.414327,50.600564],"type":"Point"},"properties":{"osm_id":"6672613988","tag":{"amenity":"waste_basket"}},"type":"Feature"},
	{"geometry":{"coordinates":[3.414497,50.600609],"type":"Point"},"properties":{"osm_id":"6672613989","tag":{"amenity":"waste_basket"}},"type":"Feature"},
	{"geometry":{"coordinates":[3.414808,50.60061],"type":"Point"},"properties":{"osm_id":"6672613990","tag":{"amenity":"waste_basket"}},"type":"Feature"},
	{"geometry":{"coordinates":[3.415352,50.600647],"type":"Point"},"properties":{"osm_id":"6672613991","tag":{"amenity":"waste_basket"}},"type":"Feature"},
	{"geometry":{"coordinates":[3.415205,50.600676],"type":"Point"},"properties":{"osm_id":"6672613992","tag":{"amenity":"waste_basket"}},"type":"Feature"},
	{"geometry":{"coordinates":[3.413913,50.600461],"type":"Point"},"properties":{"osm_id":"6778949044","tag":{"amenity":"waste_basket","waste":"cigarettes"}},"type":"Feature"},
	{"geometry":{"coordinates":[3.414021,50.600452],"type":"Point"},"properties":{"osm_id":"6778949045","tag":{"amenity":"waste_basket"}},"type":"Feature"},
	{"geometry":{"coordinates":[3.412961,50.600421],"type":"Point"},"properties":{"osm_id":"6778949046","tag":{"amenity":"waste_basket"}},"type":"Feature"},
	{"geometry":{"coordinates":[3.395982,50.610338],"type":"Point"},"properties":{"highway":"crossing","osm_id":"7526921323","tag":{"crossing":"unmarked"}},"type":"Feature"},
	{"geometry":{"coordinates":[3.394892,50.607874],"type":"Point"},"properties":{"osm_id":"7555723354","tag":{"amenity":"waste_basket"}},"type":"Feature"},
	{"geometry":{"coordinates":[3.416483,50.609581],"type":"Point"},"properties":{"osm_id":"7635961680","tag":{"amenity":"waste_basket"}},"type":"Feature"},
	{"geometry":{"coordinates":[3.37874,50.622855],"type":"Point"},"properties":{"osm_id":"7643293216","tag":{"amenity":"waste_basket"}},"type":"Feature"},
	{"geometry":{"coordinates":[3.377851,50.623769],"type":"Point"},"properties":{"osm_id":"7643293218","tag":{"amenity":"waste_basket"}},"type":"Feature"},
	{"geometry":{"coordinates":[3.376738,50.624578],"type":"Point"},"properties":{"osm_id":"7643293220","tag":{"amenity":"waste_basket"}},"type":"Feature"}
]
}
