{
"type": "FeatureCollection",
"features": [
	{"geometry":{"coordinates":[3.425087,46.118727],"type":"Point"},"properties":{"osm_id":"617296108","tag":{"amenity":"recycling","location":"underground","recycling:glass":"yes","recycling_type":"container"}},"type":"Feature"},
	{"geometry":{"coordinates":[3.415386,46.130829],"type":"Point"},"properties":{"osm_id":"630964146","tag":{"amenity":"waste_basket"}},"type":"Feature"},
	{"geometry":{"coordinates":[3.415239,46.131241],"type":"Point"},"properties":{"osm_id":"630964151","tag":{"amenity":"waste_basket"}},"type":"Feature"},
	{"geometry":{"coordinates":[3.41532,46.131007],"type":"Point"},"properties":{"osm_id":"630964153","tag":{"amenity":"waste_basket"}},"type":"Feature"},
	{"geometry":{"coordinates":[3.415126,46.13156],"type":"Point"},"properties":{"osm_id":"630964175","tag":{"amenity":"waste_basket"}},"type":"Feature"},
	{"geometry":{"coordinates":[3.41545,46.130649],"type":"Point"},"properties":{"osm_id":"630964191","tag":{"amenity":"waste_basket"}},"type":"Feature"},
	{"geometry":{"coordinates":[3.414991,46.131947],"type":"Point"},"properties":{"osm_id":"630964349","tag":{"amenity":"waste_basket"}},"type":"Feature"},
	{"geometry":{"coordinates":[3.415071,46.131712],"type":"Point"},"properties":{"osm_id":"630964357","tag":{"amenity":"waste_basket"}},"type":"Feature"},
	{"geometry":{"coordinates":[3.414498,46.133358],"type":"Point"},"properties":{"osm_id":"630964406","tag":{"amenity":"waste_basket"}},"type":"Feature"},
	{"geometry":{"coordinates":[3.414665,46.132881],"type":"Point"},"properties":{"osm_id":"630964409","tag":{"amenity":"waste_basket"}},"type":"Feature"},
	{"geometry":{"coordinates":[3.414218,46.134149],"type":"Point"},"properties":{"osm_id":"630964436","tag":{"amenity":"waste_basket"}},"type":"Feature"},
	{"geometry":{"coordinates":[3.415618,46.130172],"type":"Point"},"properties":{"osm_id":"671673163","tag":{"amenity":"waste_basket"}},"type":"Feature"},
	{"geometry":{"coordinates":[3.401623,46.117235],"type":"Point"},"properties":{"osm_id":"864682051","tag":{"amenity":"recycling","opening_hours":"24/7","operator":"Vichy Communaut\u00c3\u00a9","recycling:glass":"yes","recycling_type":"container","wheelchair":"yes"}},"type":"Feature"},
	{"geometry":{"coordinates":[3.401615,46.117244],"type":"Point"},"properties":{"osm_id":"864682053","tag":{"amenity":"waste_basket","waste":"trash"}},"type":"Feature"},
	{"geometry":{"coordinates":[3.414716,46.115414],"type":"Point"},"properties":{"osm_id":"1311895464","tag":{"amenity":"recycling"}},"type":"Feature"},
	{"geometry":{"coordinates":[3.399355,46.120076],"type":"Point"},"properties":{"osm_id":"1384961477","tag":{"amenity":"waste_basket"}},"type":"Feature"},
	{"geometry":{"coordinates":[3.383876,46.086917],"type":"Point"},"properties":{"osm_id":"1403298524","tag":{"amenity":"recycling","recycling:cardboard":"yes","recycling:glass":"yes","recycling_type":"container"}},"type":"Feature"},
	{"geometry":{"coordinates":[3.423976,46.12391],"type":"Point"},"properties":{"osm_id":"1406209362","tag":{"amenity":"waste_basket"}},"type":"Feature"},
	{"geometry":{"coordinates":[3.422423,46.12418],"type":"Point"},"properties":{"osm_id":"1406209402","tag":{"amenity":"waste_basket"}},"type":"Feature"},
	{"geometry":{"coordinates":[3.422615,46.124547],"type":"Point"},"properties":{"osm_id":"1406209465","tag":{"amenity":"waste_basket"}},"type":"Feature"},
	{"geometry":{"coordinates":[3.425559,46.124628],"type":"Point"},"properties":{"osm_id":"1406209510","tag":{"amenity":"waste_basket","survey:date":"2019-12-14","waste":"trash"}},"type":"Feature"},
	{"geometry":{"coordinates":[3.423885,46.124887],"type":"Point"},"properties":{"osm_id":"1406209597","tag":{"amenity":"waste_basket"}},"type":"Feature"},
	{"geometry":{"coordinates":[3.427182,46.124903],"type":"Point"},"properties":{"osm_id":"1406209605","tag":{"amenity":"waste_basket"}},"type":"Feature"},
	{"geometry":{"coordinates":[3.426121,46.125022],"type":"Point"},"properties":{"osm_id":"1406209609","tag":{"amenity":"waste_basket"}},"type":"Feature"},
	{"geometry":{"coordinates":[3.425851,46.125036],"type":"Point"},"properties":{"osm_id":"1406209611","tag":{"amenity":"waste_basket"}},"type":"Feature"},
	{"geometry":{"coordinates":[3.427089,46.125092],"type":"Point"},"properties":{"osm_id":"1406209619","tag":{"amenity":"waste_basket"}},"type":"Feature"},
	{"geometry":{"coordinates":[3.426839,46.125114],"type":"Point"},"properties":{"osm_id":"1406209623","tag":{"amenity":"waste_basket"}},"type":"Feature"},
	{"geometry":{"coordinates":[3.424984,46.125164],"type":"Point"},"properties":{"osm_id":"1406209632","tag":{"amenity":"waste_basket"}},"type":"Feature"},
	{"geometry":{"coordinates":[3.425641,46.125193],"type":"Point"},"properties":{"osm_id":"1406209633","tag":{"amenity":"waste_basket"}},"type":"Feature"},
	{"geometry":{"coordinates":[3.423702,46.125253],"type":"Point"},"properties":{"osm_id":"1406209643","tag":{"amenity":"waste_basket","description":"Accol\u00c3\u00a9e au mur","survey:date":"2018-05-01"}},"type":"Feature"},
	{"geometry":{"coordinates":[3.422578,46.125503],"type":"Point"},"properties":{"osm_id":"1406209669","tag":{"amenity":"waste_basket","description":"Accol\u00c3\u00a9e au mur","survey:date":"2019-10-27","waste":"trash"}},"type":"Feature"},
	{"geometry":{"coordinates":[3.422706,46.125525],"type":"Point"},"properties":{"osm_id":"1406209671","tag":{"amenity":"waste_basket","waste":"trash"}},"type":"Feature"},
	{"geometry":{"coordinates":[3.422665,46.125872],"type":"Point"},"properties":{"osm_id":"1406209697","tag":{"amenity":"waste_basket","waste":"trash"}},"type":"Feature"},
	{"geometry":{"coordinates":[3.422868,46.125999],"type":"Point"},"properties":{"osm_id":"1406209716","tag":{"amenity":"waste_basket"}},"type":"Feature"},
	{"geometry":{"coordinates":[3.423279,46.126146],"type":"Point"},"properties":{"osm_id":"1406209737","tag":{"amenity":"waste_basket"}},"type":"Feature"},
	{"geometry":{"coordinates":[3.422636,46.12618],"type":"Point"},"properties":{"osm_id":"1406209750","tag":{"amenity":"waste_basket","survey:date":"2018-05-01"}},"type":"Feature"},
	{"geometry":{"coordinates":[3.424467,46.126213],"type":"Point"},"properties":{"osm_id":"1406209762","tag":{"amenity":"waste_basket","waste":"trash"}},"type":"Feature"},
	{"geometry":{"coordinates":[3.424451,46.126288],"type":"Point"},"properties":{"osm_id":"1406209775","tag":{"amenity":"waste_basket","waste":"trash"}},"type":"Feature"},
	{"geometry":{"coordinates":[3.42564,46.126364],"type":"Point"},"properties":{"osm_id":"1406209788","tag":{"amenity":"waste_basket"}},"type":"Feature"},
	{"geometry":{"coordinates":[3.425627,46.126422],"type":"Point"},"properties":{"osm_id":"1406209801","tag":{"amenity":"waste_basket"}},"type":"Feature"},
	{"geometry":{"coordinates":[3.426863,46.126504],"type":"Point"},"properties":{"osm_id":"1406209853","tag":{"amenity":"waste_basket","waste":"trash"}},"type":"Feature"},
	{"geometry":{"coordinates":[3.426616,46.126555],"type":"Point"},"properties":{"osm_id":"1406209861","tag":{"amenity":"waste_basket","waste":"trash"}},"type":"Feature"},
	{"geometry":{"coordinates":[3.426843,46.126581],"type":"Point"},"properties":{"osm_id":"1406209873","tag":{"amenity":"waste_basket","waste":"trash"}},"type":"Feature"},
	{"geometry":{"coordinates":[3.422893,46.127453],"type":"Point"},"properties":{"osm_id":"1406210185","tag":{"amenity":"waste_basket","survey:date":"2019-08-31"}},"type":"Feature"},
	{"geometry":{"coordinates":[3.423094,46.127554],"type":"Point"},"properties":{"osm_id":"1406210234","tag":{"amenity":"waste_basket","survey:date":"2019-08-31"}},"type":"Feature"},
	{"geometry":{"coordinates":[3.416103,46.12881],"type":"Point"},"properties":{"osm_id":"1406210304","tag":{"amenity":"waste_basket"}},"type":"Feature"},
	{"geometry":{"coordinates":[3.415937,46.129272],"type":"Point"},"properties":{"osm_id":"1406210341","tag":{"amenity":"waste_basket"}},"type":"Feature"},
	{"geometry":{"coordinates":[3.415864,46.129468],"type":"Point"},"properties":{"osm_id":"1406210355","tag":{"amenity":"waste_basket"}},"type":"Feature"},
	{"geometry":{"coordinates":[3.423624,46.129725],"type":"Point"},"properties":{"osm_id":"1406210378","tag":{"amenity":"recycling","location":"underground","recycling:batteries":"no","recycling:cans":"no","recycling:clothes":"no","recycling:glass":"no","recycling:glass_bottles":"yes","recycling:paper":"no","recycling:plastic":"no","recycling:plastic_bottles":"no","recycling:scrap_metal":"no","recycling:waste":"no","recycling_type":"container","survey:date":"2019-10-12"}},"type":"Feature"},
	{"geometry":{"coordinates":[3.415748,46.129795],"type":"Point"},"properties":{"osm_id":"1406210392","tag":{"amenity":"waste_basket"}},"type":"Feature"},
	{"geometry":{"coordinates":[3.415694,46.12995],"type":"Point"},"properties":{"osm_id":"1406210431","tag":{"amenity":"waste_basket"}},"type":"Feature"},
	{"geometry":{"coordinates":[3.425539,46.13016],"type":"Point"},"properties":{"osm_id":"1406210468","tag":{"amenity":"recycling","recycling:glass":"yes"}},"type":"Feature"},
	{"geometry":{"coordinates":[3.414882,46.132251],"type":"Point"},"properties":{"osm_id":"1406210750","tag":{"amenity":"waste_basket"}},"type":"Feature"},
	{"geometry":{"coordinates":[3.414585,46.133093],"type":"Point"},"properties":{"osm_id":"1406210905","tag":{"amenity":"waste_basket"}},"type":"Feature"},
	{"geometry":{"coordinates":[3.423215,46.133483],"type":"Point"},"properties":{"osm_id":"1406210943","tag":{"amenity":"waste_basket"}},"type":"Feature"},
	{"geometry":{"coordinates":[3.414325,46.13384],"type":"Point"},"properties":{"osm_id":"1406211013","tag":{"amenity":"waste_basket"}},"type":"Feature"},
	{"geometry":{"coordinates":[3.423252,46.133879],"type":"Point"},"properties":{"osm_id":"1406211029","tag":{"amenity":"waste_basket"}},"type":"Feature"},
	{"geometry":{"coordinates":[3.401441,46.116582],"type":"Point"},"properties":{"osm_id":"1732294362","tag":{"amenity":"waste_basket"}},"type":"Feature"},
	{"geometry":{"coordinates":[3.401356,46.116571],"type":"Point"},"properties":{"osm_id":"1732294363","tag":{"amenity":"waste_basket"}},"type":"Feature"},
	{"geometry":{"coordinates":[3.401383,46.116481],"type":"Point"},"properties":{"osm_id":"1732294364","tag":{"amenity":"waste_basket"}},"type":"Feature"},
	{"geometry":{"coordinates":[3.418113,46.123145],"type":"Point"},"properties":{"osm_id":"1836786938","tag":{"amenity":"recycling","recycling:glass":"yes","recycling_type":"container"}},"type":"Feature"},
	{"geometry":{"coordinates":[3.425084,46.12499],"type":"Point"},"properties":{"osm_id":"1836786993","tag":{"amenity":"waste_basket"}},"type":"Feature"},
	{"geometry":{"coordinates":[3.424889,46.124772],"type":"Point"},"properties":{"osm_id":"1973975212","tag":{"amenity":"waste_basket"}},"type":"Feature"},
	{"geometry":{"coordinates":[3.426915,46.130941],"type":"Point"},"properties":{"osm_id":"1973975755","tag":{"amenity":"recycling","opening_hours":"24/7","operator":"Vichy Communaut\u00c3\u00a9","recycling:glass":"yes","recycling:paper":"yes","recycling:plastic":"yes","recycling:plastic_bottles":"yes","recycling:plastic_packaging":"yes","recycling:waste":"yes","recycling_type":"container","survey:date":"2019-12-14","wheelchair":"yes"}},"type":"Feature"},
	{"geometry":{"coordinates":[3.411135,46.114071],"type":"Point"},"properties":{"osm_id":"2306824901","tag":{"amenity":"waste_basket"}},"type":"Feature"},
	{"geometry":{"coordinates":[3.41071,46.117669],"type":"Point"},"properties":{"osm_id":"2306825561","tag":{"amenity":"waste_basket"}},"type":"Feature"},
	{"geometry":{"coordinates":[3.40331,46.117973],"type":"Point"},"properties":{"osm_id":"2306825785","tag":{"amenity":"waste_basket","image":"https://lh6.googleusercontent.com/-bh5lEckz5xw/UNyLCYJo1QI/AAAAAAAADSI/4q1L1jWKTI4/s800/Place_de_stationnement_handicape_2712_2159.JPG"}},"type":"Feature"},
	{"geometry":{"coordinates":[3.422645,46.123833],"type":"Point"},"properties":{"osm_id":"2449862062","tag":{"amenity":"waste_basket","start_date":"2013","waste":"trash","wikimedia_commons":"File:Place Saint-Louis, Vichy - am\u00c3\u00a9nagements.jpg"}},"type":"Feature"},
	{"geometry":{"coordinates":[3.42384,46.123984],"type":"Point"},"properties":{"osm_id":"2449862083","tag":{"amenity":"recycling","opening_hours":"24/7","operator":"Vichy Communaut\u00c3\u00a9","recycling:glass":"yes","recycling:paper":"yes","recycling:waste":"yes","recycling_type":"container","survey:date":"2019-08-08","wheelchair":"yes"}},"type":"Feature"},
	{"geometry":{"coordinates":[3.422509,46.124057],"type":"Point"},"properties":{"osm_id":"2449862104","tag":{"amenity":"waste_basket","start_date":"2013","survey:date":"2019-11-26","waste":"trash"}},"type":"Feature"},
	{"geometry":{"coordinates":[3.41628,46.129675],"type":"Point"},"properties":{"osm_id":"2671599847","tag":{"amenity":"recycling","opening_hours":"24/7","operator":"Vichy Communaut\u00c3\u00a9","recycling:glass":"yes","recycling_type":"container","survey:date":"2019-11-24","wheelchair":"yes"}},"type":"Feature"},
	{"geometry":{"coordinates":[3.424106,46.125143],"type":"Point"},"properties":{"osm_id":"3068250556","tag":{"amenity":"waste_basket","description":"Accol\u00c3\u00a9e au mur","survey:date":"2019-08-23","waste":"trash"}},"type":"Feature"},
	{"geometry":{"coordinates":[3.424479,46.125127],"type":"Point"},"properties":{"osm_id":"3068263776","tag":{"amenity":"waste_basket","survey:date":"2020-08-15","waste":"trash"}},"type":"Feature"},
	{"geometry":{"coordinates":[3.421604,46.118701],"type":"Point"},"properties":{"osm_id":"3111424682","tag":{"amenity":"waste_basket"}},"type":"Feature"},
	{"geometry":{"coordinates":[3.423201,46.118685],"type":"Point"},"properties":{"osm_id":"3111424683","tag":{"amenity":"waste_basket","start_date":"2014","survey:date":"2019-11-24","waste":"trash"}},"type":"Feature"},
	{"geometry":{"coordinates":[3.421895,46.118786],"type":"Point"},"properties":{"osm_id":"3111424695","tag":{"amenity":"waste_basket","start_date":"2014","survey:date":"2019-11-23","waste":"trash"}},"type":"Feature"},
	{"geometry":{"coordinates":[3.422144,46.118877],"type":"Point"},"properties":{"osm_id":"3111424704","tag":{"amenity":"waste_basket","start_date":"2014","survey:date":"2019-11-24","waste":"trash"}},"type":"Feature"},
	{"geometry":{"coordinates":[3.420825,46.118928],"type":"Point"},"properties":{"osm_id":"3111424708","tag":{"amenity":"waste_basket","start_date":"2014","survey:date":"2019-11-23","waste":"trash"}},"type":"Feature"},
	{"geometry":{"coordinates":[3.420189,46.119136],"type":"Point"},"properties":{"osm_id":"3111425033","tag":{"amenity":"waste_basket","start_date":"2014","survey:date":"2019-11-23"}},"type":"Feature"},
	{"geometry":{"coordinates":[3.420788,46.119157],"type":"Point"},"properties":{"osm_id":"3111425036","tag":{"amenity":"waste_basket","start_date":"2014","survey:date":"2019-11-24","waste":"trash"}},"type":"Feature"},
	{"geometry":{"coordinates":[3.419999,46.119206],"type":"Point"},"properties":{"osm_id":"3111425040","tag":{"amenity":"waste_basket","start_date":"2014","survey:date":"2019-11-23"}},"type":"Feature"},
	{"geometry":{"coordinates":[3.418823,46.119733],"type":"Point"},"properties":{"osm_id":"3111425067","tag":{"amenity":"waste_basket","start_date":"2014","survey:date":"2019-11-23"}},"type":"Feature"},
	{"geometry":{"coordinates":[3.41893,46.11991],"type":"Point"},"properties":{"osm_id":"3111425080","tag":{"amenity":"waste_basket","start_date":"2014","survey:date":"2019-11-24","waste":"trash"}},"type":"Feature"},
	{"geometry":{"coordinates":[3.418205,46.120214],"type":"Point"},"properties":{"osm_id":"3111425083","tag":{"amenity":"waste_basket","start_date":"2014","survey:date":"2019-11-23","waste":"trash"}},"type":"Feature"},
	{"geometry":{"coordinates":[3.417958,46.120203],"type":"Point"},"properties":{"osm_id":"3111425085","tag":{"amenity":"waste_basket","start_date":"2014","survey:date":"2019-11-23","waste":"trash"}},"type":"Feature"},
	{"geometry":{"coordinates":[3.417116,46.120846],"type":"Point"},"properties":{"osm_id":"3111425112","tag":{"amenity":"waste_basket","start_date":"2014","survey:date":"2019-11-23","waste":"trash"}},"type":"Feature"},
	{"geometry":{"coordinates":[3.417299,46.121043],"type":"Point"},"properties":{"osm_id":"3111425118","tag":{"amenity":"waste_basket","start_date":"2014","survey:date":"2019-11-24","waste":"trash"}},"type":"Feature"},
	{"geometry":{"coordinates":[3.416516,46.121876],"type":"Point"},"properties":{"osm_id":"3111425442","tag":{"amenity":"waste_basket","start_date":"2014","survey:date":"2019-11-24","waste":"trash"}},"type":"Feature"},
	{"geometry":{"coordinates":[3.41592,46.122178],"type":"Point"},"properties":{"osm_id":"3111425453","tag":{"amenity":"waste_basket","start_date":"2014","survey:date":"2019-11-23","waste":"trash"}},"type":"Feature"},
	{"geometry":{"coordinates":[3.416188,46.122373],"type":"Point"},"properties":{"osm_id":"3111425466","tag":{"amenity":"waste_basket","start_date":"2014","survey:date":"2019-11-24","waste":"trash"}},"type":"Feature"},
	{"geometry":{"coordinates":[3.415253,46.123726],"type":"Point"},"properties":{"osm_id":"3111425493","tag":{"amenity":"waste_basket","start_date":"2014","survey:date":"2019-11-23"}},"type":"Feature"},
	{"geometry":{"coordinates":[3.415111,46.124481],"type":"Point"},"properties":{"osm_id":"3111425523","tag":{"amenity":"waste_basket","start_date":"2014","survey:date":"2019-11-23"}},"type":"Feature"},
	{"geometry":{"coordinates":[3.415418,46.124989],"type":"Point"},"properties":{"osm_id":"3111425738","tag":{"amenity":"waste_basket","start_date":"2014","survey:date":"2019-11-24","waste":"trash"}},"type":"Feature"},
	{"geometry":{"coordinates":[3.415213,46.126042],"type":"Point"},"properties":{"osm_id":"3111425762","tag":{"amenity":"waste_basket","start_date":"2014","survey:date":"2019-11-23","waste":"trash"}},"type":"Feature"},
	{"geometry":{"coordinates":[3.415456,46.126291],"type":"Point"},"properties":{"osm_id":"3111425778","tag":{"amenity":"recycling","opening_hours":"24/7","operator":"Vichy Communaut\u00c3\u00a9","recycling:glass":"yes","recycling:waste":"yes","recycling_type":"container","survey:date":"2019-11-24","wheelchair":"yes"}},"type":"Feature"},
	{"geometry":{"coordinates":[3.415435,46.126804],"type":"Point"},"properties":{"osm_id":"3111425790","tag":{"amenity":"waste_basket"}},"type":"Feature"},
	{"geometry":{"coordinates":[3.415317,46.126829],"type":"Point"},"properties":{"osm_id":"3111425791","tag":{"amenity":"waste_basket","start_date":"2014","survey:date":"2019-11-23","waste":"trash"}},"type":"Feature"},
	{"geometry":{"coordinates":[3.415601,46.127667],"type":"Point"},"properties":{"osm_id":"3111425816","tag":{"amenity":"waste_basket","start_date":"2014","waste":"trash"}},"type":"Feature"},
	{"geometry":{"coordinates":[3.41561,46.128288],"type":"Point"},"properties":{"osm_id":"3111426039","tag":{"amenity":"waste_basket","start_date":"2014","survey:date":"2019-11-23","waste":"trash"}},"type":"Feature"},
	{"geometry":{"coordinates":[3.415812,46.130539],"type":"Point"},"properties":{"osm_id":"3111426256","tag":{"amenity":"waste_basket","image":"https://lh6.googleusercontent.com/-zq3RB2R1H-8/U4TBfF6tXpI/AAAAAAAANuQ/Dn1Zs49uSIo/s800/DSCF5809.JPG"}},"type":"Feature"},
	{"geometry":{"coordinates":[3.415647,46.130984],"type":"Point"},"properties":{"osm_id":"3111426263","tag":{"amenity":"waste_basket","image":"https://lh3.googleusercontent.com/-oB6uqE-xNu8/U4TBZC7KvPI/AAAAAAAANuA/kt16_gSAzw8/s800/DSCF5808.JPG"}},"type":"Feature"},
	{"geometry":{"coordinates":[3.41542,46.131647],"type":"Point"},"properties":{"osm_id":"3111426273","tag":{"amenity":"waste_basket","image":"https://lh4.googleusercontent.com/-FBo-AytA1tI/U4TBbF9bW1I/AAAAAAAANuI/HRxBg_CHp0M/s800/DSCF5807.JPG"}},"type":"Feature"},
	{"geometry":{"coordinates":[3.415249,46.132267],"type":"Point"},"properties":{"osm_id":"3111426283","tag":{"amenity":"recycling","image":"https://lh3.googleusercontent.com/-yJE44cNio6M/U4TBYDsmsdI/AAAAAAAANt4/BdIHUKnacNY/s800/DSCF5806.JPG","opening_hours":"24/7","recycling:glass":"yes","recycling_type":"container","start_date":"2014","wheelchair":"yes"}},"type":"Feature"},
	{"geometry":{"coordinates":[3.415247,46.132328],"type":"Point"},"properties":{"osm_id":"3111426285","tag":{"amenity":"waste_basket","image":"https://lh3.googleusercontent.com/-yJE44cNio6M/U4TBYDsmsdI/AAAAAAAANt4/BdIHUKnacNY/s800/DSCF5806.JPG"}},"type":"Feature"},
	{"geometry":{"coordinates":[3.393996,46.111713],"type":"Point"},"properties":{"osm_id":"4200251831","tag":{"amenity":"waste_basket"}},"type":"Feature"},
	{"geometry":{"coordinates":[3.393591,46.112533],"type":"Point"},"properties":{"osm_id":"4200251862","tag":{"amenity":"waste_basket"}},"type":"Feature"},
	{"geometry":{"coordinates":[3.394023,46.112637],"type":"Point"},"properties":{"osm_id":"4200251864","tag":{"amenity":"waste_basket"}},"type":"Feature"},
	{"geometry":{"coordinates":[3.421795,46.121878],"type":"Point"},"properties":{"osm_id":"4290254068","tag":{"amenity":"recycling","recycling:glass":"yes","recycling_type":"container"}},"type":"Feature"},
	{"geometry":{"coordinates":[3.420356,46.122885],"type":"Point"},"properties":{"osm_id":"4290254073","tag":{"amenity":"recycling","recycling:glass":"yes","recycling_type":"container"}},"type":"Feature"},
	{"geometry":{"coordinates":[3.420132,46.119353],"type":"Point"},"properties":{"osm_id":"4327128663","tag":{"amenity":"waste_basket","start_date":"2014","survey:date":"2019-11-24","waste":"trash"}},"type":"Feature"},
	{"geometry":{"coordinates":[3.419553,46.119373],"type":"Point"},"properties":{"osm_id":"4327128664","tag":{"amenity":"waste_basket","start_date":"2014","survey:date":"2019-11-23","waste":"trash"}},"type":"Feature"},
	{"geometry":{"coordinates":[3.419244,46.119486],"type":"Point"},"properties":{"osm_id":"4327128667","tag":{"amenity":"waste_basket","start_date":"2014","survey:date":"2019-11-23","waste":"trash"}},"type":"Feature"},
	{"geometry":{"coordinates":[3.415357,46.126185],"type":"Point"},"properties":{"osm_id":"4327129739","tag":{"amenity":"waste_basket","start_date":"2014","survey:date":"2019-11-24","waste":"trash"}},"type":"Feature"},
	{"geometry":{"coordinates":[3.425478,46.117778],"type":"Point"},"properties":{"osm_id":"4327129835","tag":{"amenity":"waste_basket","start_date":"2014","survey:date":"2019-11-23","waste":"trash"}},"type":"Feature"},
	{"geometry":{"coordinates":[3.424245,46.118062],"type":"Point"},"properties":{"osm_id":"4327129838","tag":{"amenity":"waste_basket","start_date":"2014","survey:date":"2019-11-23","waste":"trash"}},"type":"Feature"},
	{"geometry":{"coordinates":[3.423761,46.118205],"type":"Point"},"properties":{"osm_id":"4327129839","tag":{"amenity":"waste_basket","waste":"trash"}},"type":"Feature"},
	{"geometry":{"coordinates":[3.42421,46.118499],"type":"Point"},"properties":{"osm_id":"4327129844","tag":{"amenity":"waste_basket","start_date":"2014","survey:date":"2019-11-24","waste":"trash"}},"type":"Feature"},
	{"geometry":{"coordinates":[3.424431,46.118499],"type":"Point"},"properties":{"osm_id":"4327129845","tag":{"amenity":"waste_basket"}},"type":"Feature"},
	{"geometry":{"coordinates":[3.423107,46.118527],"type":"Point"},"properties":{"osm_id":"4327129846","tag":{"amenity":"waste_basket","start_date":"2014","survey:date":"2019-11-23","waste":"trash"}},"type":"Feature"},
	{"geometry":{"coordinates":[3.422709,46.118585],"type":"Point"},"properties":{"osm_id":"4327129853","tag":{"amenity":"waste_basket","start_date":"2014","survey:date":"2019-11-23","waste":"trash"}},"type":"Feature"},
	{"geometry":{"coordinates":[3.424803,46.118628],"type":"Point"},"properties":{"osm_id":"4327129861","tag":{"amenity":"recycling","opening_hours":"24/7","recycling:glass":"yes","recycling:paper":"yes","recycling:waste":"yes","recycling_type":"container","wheelchair":"yes"}},"type":"Feature"},
	{"geometry":{"coordinates":[3.421393,46.118816],"type":"Point"},"properties":{"osm_id":"4327129870","tag":{"amenity":"waste_basket","start_date":"2019","survey:date":"2019-11-23","waste":"trash;cigarettes"}},"type":"Feature"},
	{"geometry":{"coordinates":[3.420551,46.119021],"type":"Point"},"properties":{"osm_id":"4327129881","tag":{"amenity":"waste_basket"}},"type":"Feature"},
	{"geometry":{"coordinates":[3.419836,46.119269],"type":"Point"},"properties":{"osm_id":"4327129888","tag":{"amenity":"waste_basket","start_date":"2014","survey:date":"2019-11-23","waste":"trash"}},"type":"Feature"},
	{"geometry":{"coordinates":[3.42331,46.12216],"type":"Point"},"properties":{"osm_id":"4327129908","tag":{"amenity":"waste_basket","survey:date":"2019-10-19","waste":"trash"}},"type":"Feature"},
	{"geometry":{"coordinates":[3.422469,46.122989],"type":"Point"},"properties":{"osm_id":"4327129923","tag":{"amenity":"waste_basket","waste":"trash"}},"type":"Feature"},
	{"geometry":{"coordinates":[3.422386,46.123141],"type":"Point"},"properties":{"osm_id":"4327129925","tag":{"amenity":"waste_basket","survey:date":"2019-10-19","waste":"trash"}},"type":"Feature"},
	{"geometry":{"coordinates":[3.415744,46.123224],"type":"Point"},"properties":{"osm_id":"4327129929","tag":{"amenity":"waste_basket","start_date":"2014","survey:date":"2019-11-24"}},"type":"Feature"},
	{"geometry":{"coordinates":[3.415589,46.123708],"type":"Point"},"properties":{"osm_id":"4327129937","tag":{"amenity":"waste_basket","start_date":"2014","survey:date":"2019-11-24","waste":"trash"}},"type":"Feature"},
	{"geometry":{"coordinates":[3.420409,46.126353],"type":"Point"},"properties":{"osm_id":"5706002602","tag":{"amenity":"waste_basket","survey:date":"2019-08-11","waste":"trash"}},"type":"Feature"},
	{"geometry":{"coordinates":[3.420468,46.125976],"type":"Point"},"properties":{"osm_id":"5706002603","tag":{"amenity":"waste_basket","waste":"trash"}},"type":"Feature"},
	{"geometry":{"coordinates":[3.420967,46.12504],"type":"Point"},"properties":{"osm_id":"5706002607","tag":{"amenity":"waste_basket","waste":"trash"}},"type":"Feature"},
	{"geometry":{"coordinates":[3.421076,46.124849],"type":"Point"},"properties":{"osm_id":"5706002609","tag":{"amenity":"waste_basket","waste":"trash"}},"type":"Feature"},
	{"geometry":{"coordinates":[3.42153,46.12418],"type":"Point"},"properties":{"osm_id":"5706002616","tag":{"amenity":"waste_basket","waste":"trash"}},"type":"Feature"},
	{"geometry":{"coordinates":[3.421648,46.124036],"type":"Point"},"properties":{"osm_id":"5706002618","tag":{"amenity":"waste_basket","waste":"trash"}},"type":"Feature"},
	{"geometry":{"coordinates":[3.35799,46.0984],"type":"Point"},"properties":{"osm_id":"5831625031","tag":{"amenity":"waste_disposal","recycling:waste":"yes"}},"type":"Feature"},
	{"geometry":{"coordinates":[3.426402,46.12864],"type":"Point"},"properties":{"osm_id":"6507787225","tag":{"amenity":"recycling","recycling:paper":"yes","recycling:plastic_bottles":"yes","recycling_type":"container"}},"type":"Feature"},
	{"geometry":{"coordinates":[3.426426,46.128612],"type":"Point"},"properties":{"osm_id":"6507787226","tag":{"amenity":"waste_disposal","location":"underground"}},"type":"Feature"},
	{"geometry":{"coordinates":[3.426446,46.128582],"type":"Point"},"properties":{"osm_id":"6507787228","tag":{"amenity":"recycling","recycling:glass_bottles":"yes","recycling_type":"container"}},"type":"Feature"},
	{"geometry":{"coordinates":[3.42491,46.124434],"type":"Point"},"properties":{"osm_id":"6780999330","tag":{"amenity":"waste_basket","survey:date":"2019-08-31","waste":"trash"}},"type":"Feature"},
	{"geometry":{"coordinates":[3.423255,46.127535],"type":"Point"},"properties":{"osm_id":"6780999347","tag":{"amenity":"waste_basket","survey:date":"2019-08-31"}},"type":"Feature"},
	{"geometry":{"coordinates":[3.423771,46.125435],"type":"Point"},"properties":{"osm_id":"6780999393","tag":{"amenity":"waste_basket","survey:date":"2019-08-23","waste":"trash"}},"type":"Feature"},
	{"geometry":{"coordinates":[3.42176,46.126341],"type":"Point"},"properties":{"osm_id":"6780999499","tag":{"amenity":"waste_basket","survey:date":"2019-08-10","waste":"trash"}},"type":"Feature"},
	{"geometry":{"coordinates":[3.420725,46.126469],"type":"Point"},"properties":{"osm_id":"6780999500","tag":{"amenity":"waste_basket","survey:date":"2019-08-10","waste":"trash"}},"type":"Feature"},
	{"geometry":{"coordinates":[3.410213,46.117047],"type":"Point"},"properties":{"osm_id":"7022290945","tag":{"amenity":"waste_basket","survey:date":"2019-11-09","waste":"trash"}},"type":"Feature"},
	{"geometry":{"coordinates":[3.410816,46.117427],"type":"Point"},"properties":{"osm_id":"7022290949","tag":{"amenity":"waste_basket","survey:date":"2019-11-09","waste":"trash"}},"type":"Feature"},
	{"geometry":{"coordinates":[3.405673,46.114091],"type":"Point"},"properties":{"osm_id":"7022290951","tag":{"amenity":"waste_basket","survey:date":"2019-11-09","waste":"trash"}},"type":"Feature"},
	{"geometry":{"coordinates":[3.406756,46.112056],"type":"Point"},"properties":{"osm_id":"7022290961","tag":{"amenity":"waste_basket","survey:date":"2019-11-09","waste":"trash"}},"type":"Feature"},
	{"geometry":{"coordinates":[3.417978,46.115527],"type":"Point"},"properties":{"osm_id":"7022290976","tag":{"amenity":"waste_basket","survey:date":"2019-10-27","waste":"trash;cigarettes"}},"type":"Feature"},
	{"geometry":{"coordinates":[3.4192,46.117277],"type":"Point"},"properties":{"osm_id":"7022290978","tag":{"amenity":"waste_basket","start_date":"2019","survey:date":"2019-10-27","waste":"dog_excrement"}},"type":"Feature"},
	{"geometry":{"coordinates":[3.424894,46.114096],"type":"Point"},"properties":{"osm_id":"7022290979","tag":{"amenity":"waste_basket","start_date":"2019","survey:date":"2019-09-28","waste":"trash;cigarettes"}},"type":"Feature"},
	{"geometry":{"coordinates":[3.426725,46.115502],"type":"Point"},"properties":{"osm_id":"7022290980","tag":{"amenity":"waste_basket","start_date":"2019","survey:date":"2019-09-28","waste":"trash;cigarettes"}},"type":"Feature"},
	{"geometry":{"coordinates":[3.425613,46.114496],"type":"Point"},"properties":{"osm_id":"7022290981","tag":{"amenity":"waste_basket","start_date":"2019","survey:date":"2019-09-28","waste":"trash;cigarettes"}},"type":"Feature"},
	{"geometry":{"coordinates":[3.42611,46.114958],"type":"Point"},"properties":{"osm_id":"7022290982","tag":{"amenity":"waste_basket","start_date":"2019","survey:date":"2019-09-28","waste":"trash;cigarettes"}},"type":"Feature"},
	{"geometry":{"coordinates":[3.426955,46.11633],"type":"Point"},"properties":{"osm_id":"7022291002","tag":{"amenity":"waste_basket","start_date":"2019","survey:date":"2019-10-27","waste":"trash;cigarettes"}},"type":"Feature"},
	{"geometry":{"coordinates":[3.422839,46.116556],"type":"Point"},"properties":{"osm_id":"7022291009","tag":{"amenity":"waste_basket","survey:date":"2019-10-12","waste":"trash;cigarettes"}},"type":"Feature"},
	{"geometry":{"coordinates":[3.42128,46.115787],"type":"Point"},"properties":{"osm_id":"7022291012","tag":{"amenity":"waste_basket","start_date":"2019","survey:date":"2019-10-12","waste":"trash;cigarettes"}},"type":"Feature"},
	{"geometry":{"coordinates":[3.418972,46.116864],"type":"Point"},"properties":{"osm_id":"7022291015","tag":{"amenity":"waste_basket","start_date":"2019","survey:date":"2019-10-12","waste":"trash;cigarettes"}},"type":"Feature"},
	{"geometry":{"coordinates":[3.419126,46.117202],"type":"Point"},"properties":{"osm_id":"7022291018","tag":{"amenity":"waste_basket","start_date":"2019","survey:date":"2019-10-12","waste":"trash;cigarettes","wikimedia_commons":"File:Arceaux v\u00c3\u00a9lo, berge Allier avec panneau de la r\u00c3\u00a9gion .jpg"}},"type":"Feature"},
	{"geometry":{"coordinates":[3.411887,46.129485],"type":"Point"},"properties":{"osm_id":"7022291180","tag":{"amenity":"waste_basket","start_date":"2019-09","survey:date":"2019-10-05","waste":"trash;cigarettes"}},"type":"Feature"},
	{"geometry":{"coordinates":[3.412183,46.129292],"type":"Point"},"properties":{"osm_id":"7022291181","tag":{"amenity":"waste_basket","start_date":"2019-09","survey:date":"2020-05-24","waste":"trash;cigarettes"}},"type":"Feature"},
	{"geometry":{"coordinates":[3.412427,46.128741],"type":"Point"},"properties":{"osm_id":"7022291185","tag":{"amenity":"waste_basket","start_date":"2019-09","survey:date":"2019-10-05","waste":"trash;cigarettes"}},"type":"Feature"},
	{"geometry":{"coordinates":[3.411586,46.12689],"type":"Point"},"properties":{"osm_id":"7022291186","tag":{"amenity":"waste_basket","start_date":"2019-09","survey:date":"2019-10-05","waste":"trash;cigarettes"}},"type":"Feature"},
	{"geometry":{"coordinates":[3.411282,46.125985],"type":"Point"},"properties":{"osm_id":"7022291191","tag":{"amenity":"waste_basket","start_date":"2019-09","survey:date":"2019-12-28","waste":"trash;cigarettes"}},"type":"Feature"},
	{"geometry":{"coordinates":[3.411715,46.12476],"type":"Point"},"properties":{"osm_id":"7022291193","tag":{"amenity":"waste_basket","start_date":"2019","survey:date":"2019-10-05","waste":"trash;cigarettes"}},"type":"Feature"},
	{"geometry":{"coordinates":[3.41188,46.133722],"type":"Point"},"properties":{"osm_id":"7022291348","tag":{"amenity":"waste_basket","start_date":"2019-09","survey:date":"2019-09-28","waste":"trash;cigarettes"}},"type":"Feature"},
	{"geometry":{"coordinates":[3.412002,46.13293],"type":"Point"},"properties":{"osm_id":"7022291350","tag":{"amenity":"waste_basket","start_date":"2019-09","survey:date":"2019-09-28","waste":"trash;cigarettes"}},"type":"Feature"},
	{"geometry":{"coordinates":[3.412164,46.13186],"type":"Point"},"properties":{"osm_id":"7022291352","tag":{"amenity":"waste_basket","start_date":"2019-09","survey:date":"2019-09-28","waste":"trash;cigarettes"}},"type":"Feature"},
	{"geometry":{"coordinates":[3.412292,46.131059],"type":"Point"},"properties":{"osm_id":"7022291354","tag":{"amenity":"waste_basket","start_date":"2019-09","survey:date":"2019-09-28","waste":"trash;cigarettes"}},"type":"Feature"},
	{"geometry":{"coordinates":[3.41218,46.130275],"type":"Point"},"properties":{"osm_id":"7022291356","tag":{"amenity":"waste_basket","start_date":"2019","survey:date":"2019-09-28","waste":"trash;cigarettes"}},"type":"Feature"},
	{"geometry":{"coordinates":[3.412186,46.127876],"type":"Point"},"properties":{"osm_id":"7022291365","tag":{"amenity":"waste_basket","start_date":"2019-09","survey:date":"2019-09-28","waste":"trash;cigarettes"}},"type":"Feature"},
	{"geometry":{"coordinates":[3.411479,46.125933],"type":"Point"},"properties":{"osm_id":"7022291370","tag":{"amenity":"waste_basket","start_date":"2019-09","survey:date":"2019-09-28","waste":"trash;cigarettes"}},"type":"Feature"},
	{"geometry":{"coordinates":[3.412082,46.124042],"type":"Point"},"properties":{"osm_id":"7022291374","tag":{"amenity":"waste_basket","start_date":"2019-09","survey:date":"2019-09-28","waste":"trash;cigarettes"}},"type":"Feature"},
	{"geometry":{"coordinates":[3.412485,46.123239],"type":"Point"},"properties":{"osm_id":"7022291376","tag":{"amenity":"waste_basket","start_date":"2019-09","survey:date":"2019-09-28","waste":"trash;cigarettes"}},"type":"Feature"},
	{"geometry":{"coordinates":[3.413313,46.121521],"type":"Point"},"properties":{"osm_id":"7022291379","tag":{"amenity":"waste_basket","start_date":"2019-09","survey:date":"2019-09-28","waste":"trash;cigarettes"}},"type":"Feature"},
	{"geometry":{"coordinates":[3.414285,46.120242],"type":"Point"},"properties":{"osm_id":"7022291382","tag":{"amenity":"waste_basket","start_date":"2019-09","survey:date":"2019-09-28","waste":"trash;cigarettes"}},"type":"Feature"},
	{"geometry":{"coordinates":[3.4155,46.118806],"type":"Point"},"properties":{"osm_id":"7022291383","tag":{"amenity":"waste_basket","start_date":"2019","survey:date":"2019-09-28","waste":"trash;cigarettes"}},"type":"Feature"},
	{"geometry":{"coordinates":[3.416477,46.118136],"type":"Point"},"properties":{"osm_id":"7022291389","tag":{"amenity":"waste_basket","start_date":"2019","survey:date":"2019-09-28","waste":"trash;cigarettes"}},"type":"Feature"},
	{"geometry":{"coordinates":[3.416989,46.117728],"type":"Point"},"properties":{"osm_id":"7022291390","tag":{"amenity":"waste_basket","start_date":"2019","survey:date":"2019-10-12","waste":"trash;cigarettes"}},"type":"Feature"},
	{"geometry":{"coordinates":[3.418537,46.117356],"type":"Point"},"properties":{"osm_id":"7022291397","tag":{"amenity":"waste_basket","start_date":"2019","survey:date":"2019-09-28","waste":"trash;cigarettes"}},"type":"Feature"},
	{"geometry":{"coordinates":[3.417811,46.117005],"type":"Point"},"properties":{"osm_id":"7022291398","tag":{"amenity":"waste_basket","start_date":"2019","survey:date":"2020-02-29","waste":"trash;cigarettes"}},"type":"Feature"},
	{"geometry":{"coordinates":[3.417627,46.117212],"type":"Point"},"properties":{"osm_id":"7022291399","tag":{"amenity":"waste_basket","start_date":"2019","survey:date":"2020-02-29","waste":"trash;cigarettes"}},"type":"Feature"},
	{"geometry":{"coordinates":[3.423262,46.116754],"type":"Point"},"properties":{"osm_id":"7022291403","tag":{"amenity":"waste_basket","start_date":"2019","survey:date":"2019-09-28","waste":"trash;cigarettes"}},"type":"Feature"},
	{"geometry":{"coordinates":[3.425429,46.116524],"type":"Point"},"properties":{"osm_id":"7022291404","tag":{"amenity":"waste_basket","start_date":"2019","survey:date":"2019-09-28","waste":"trash;cigarettes"}},"type":"Feature"},
	{"geometry":{"coordinates":[3.427469,46.116233],"type":"Point"},"properties":{"osm_id":"7022291407","tag":{"amenity":"waste_basket","start_date":"2019","survey:date":"2019-09-28","waste":"trash;cigarettes"}},"type":"Feature"},
	{"geometry":{"coordinates":[3.415453,46.124312],"type":"Point"},"properties":{"osm_id":"7024428604","tag":{"amenity":"waste_basket","start_date":"2014","survey:date":"2019-11-24","waste":"trash"}},"type":"Feature"},
	{"geometry":{"coordinates":[3.415373,46.125839],"type":"Point"},"properties":{"osm_id":"7024428605","tag":{"amenity":"waste_basket","start_date":"2014","survey:date":"2019-11-24","waste":"trash"}},"type":"Feature"},
	{"geometry":{"coordinates":[3.416031,46.128511],"type":"Point"},"properties":{"osm_id":"7024428607","tag":{"amenity":"waste_basket","survey:date":"2019-11-24","waste":"trash"}},"type":"Feature"},
	{"geometry":{"coordinates":[3.415795,46.128878],"type":"Point"},"properties":{"osm_id":"7024428666","tag":{"amenity":"waste_basket","start_date":"2014","survey:date":"2019-11-23","waste":"trash"}},"type":"Feature"},
	{"geometry":{"coordinates":[3.415958,46.128834],"type":"Point"},"properties":{"osm_id":"7024428667","tag":{"amenity":"waste_basket","survey:date":"2019-11-23","waste":"dog_excrement"}},"type":"Feature"},
	{"geometry":{"coordinates":[3.415415,46.12781],"type":"Point"},"properties":{"osm_id":"7024428673","tag":{"amenity":"waste_basket","start_date":"2014","survey:date":"2019-11-23","waste":"trash"}},"type":"Feature"},
	{"geometry":{"coordinates":[3.415097,46.125332],"type":"Point"},"properties":{"osm_id":"7024428680","tag":{"amenity":"waste_basket","start_date":"2014","survey:date":"2019-11-23","waste":"trash"}},"type":"Feature"},
	{"geometry":{"coordinates":[3.415449,46.123114],"type":"Point"},"properties":{"osm_id":"7024428692","tag":{"amenity":"waste_basket","start_date":"2014","survey:date":"2019-11-23","waste":"trash"}},"type":"Feature"},
	{"geometry":{"coordinates":[3.416224,46.121788],"type":"Point"},"properties":{"osm_id":"7024428695","tag":{"amenity":"waste_basket","start_date":"2014","survey:date":"2019-11-23","waste":"trash"}},"type":"Feature"},
	{"geometry":{"coordinates":[3.425115,46.118534],"type":"Point"},"properties":{"osm_id":"7024428712","tag":{"amenity":"waste_basket","survey:date":"2019-11-23","waste":"trash"}},"type":"Feature"},
	{"geometry":{"coordinates":[3.425752,46.118203],"type":"Point"},"properties":{"osm_id":"7024428714","tag":{"amenity":"waste_basket","survey:date":"2019-11-23","waste":"trash"}},"type":"Feature"},
	{"geometry":{"coordinates":[3.423856,46.118478],"type":"Point"},"properties":{"osm_id":"7024428718","tag":{"amenity":"waste_basket","start_date":"2014","survey:date":"2019-11-23","waste":"trash"}},"type":"Feature"},
	{"geometry":{"coordinates":[3.426457,46.118115],"type":"Point"},"properties":{"osm_id":"7024428731","tag":{"amenity":"waste_basket","survey:date":"2019-11-23","waste":"trash"}},"type":"Feature"},
	{"geometry":{"coordinates":[3.426458,46.11825],"type":"Point"},"properties":{"osm_id":"7024428732","tag":{"amenity":"waste_basket","survey:date":"2019-11-23","waste":"trash"}},"type":"Feature"},
	{"geometry":{"coordinates":[3.426333,46.117784],"type":"Point"},"properties":{"osm_id":"7024428733","tag":{"amenity":"waste_basket","survey:date":"2019-11-23","waste":"trash"}},"type":"Feature"},
	{"geometry":{"coordinates":[3.427053,46.117527],"type":"Point"},"properties":{"osm_id":"7024428734","tag":{"amenity":"waste_basket","waste":"trash"}},"type":"Feature"},
	{"geometry":{"coordinates":[3.427499,46.117434],"type":"Point"},"properties":{"osm_id":"7024428737","tag":{"amenity":"waste_basket","waste":"trash"}},"type":"Feature"},
	{"geometry":{"coordinates":[3.42243,46.124341],"type":"Point"},"properties":{"osm_id":"7024428781","tag":{"amenity":"waste_basket","survey:date":"2019-11-16","waste":"trash"}},"type":"Feature"},
	{"geometry":{"coordinates":[3.422327,46.124486],"type":"Point"},"properties":{"osm_id":"7024428783","tag":{"amenity":"waste_basket","survey:date":"2019-11-26","waste":"trash"}},"type":"Feature"},
	{"geometry":{"coordinates":[3.421463,46.124542],"type":"Point"},"properties":{"osm_id":"7024428784","tag":{"amenity":"waste_basket","survey:date":"2019-11-26","waste":"trash"}},"type":"Feature"},
	{"geometry":{"coordinates":[3.421803,46.123817],"type":"Point"},"properties":{"osm_id":"7024428786","tag":{"amenity":"waste_basket","survey:date":"2019-11-16","waste":"trash"}},"type":"Feature"},
	{"geometry":{"coordinates":[3.421695,46.122889],"type":"Point"},"properties":{"osm_id":"7024428798","tag":{"amenity":"waste_basket","survey:date":"2019-11-16","waste":"trash"}},"type":"Feature"},
	{"geometry":{"coordinates":[3.420842,46.12285],"type":"Point"},"properties":{"osm_id":"7024428799","tag":{"amenity":"waste_basket","survey:date":"2019-11-16","waste":"trash"}},"type":"Feature"},
	{"geometry":{"coordinates":[3.421274,46.122599],"type":"Point"},"properties":{"osm_id":"7024428804","tag":{"amenity":"waste_basket","survey:date":"2019-11-16","waste":"trash"}},"type":"Feature"},
	{"geometry":{"coordinates":[3.419708,46.121378],"type":"Point"},"properties":{"osm_id":"7024428910","tag":{"amenity":"waste_basket","survey:date":"2019-11-10","waste":"trash"}},"type":"Feature"},
	{"geometry":{"coordinates":[3.422379,46.121151],"type":"Point"},"properties":{"osm_id":"7024428920","tag":{"amenity":"waste_basket","survey:date":"2019-11-10","waste":"trash"}},"type":"Feature"},
	{"geometry":{"coordinates":[3.422896,46.12118],"type":"Point"},"properties":{"osm_id":"7024428924","tag":{"amenity":"waste_basket","survey:date":"2019-11-10","waste":"trash"}},"type":"Feature"},
	{"geometry":{"coordinates":[3.423133,46.121046],"type":"Point"},"properties":{"osm_id":"7024428926","tag":{"amenity":"waste_basket","survey:date":"2019-11-10","waste":"trash"}},"type":"Feature"},
	{"geometry":{"coordinates":[3.425248,46.12009],"type":"Point"},"properties":{"osm_id":"7024428933","tag":{"amenity":"waste_basket","survey:date":"2019-11-10","waste":"dog_excrement"}},"type":"Feature"},
	{"geometry":{"coordinates":[3.425595,46.120327],"type":"Point"},"properties":{"osm_id":"7024428934","tag":{"amenity":"waste_basket","survey:date":"2019-11-10","waste":"trash"}},"type":"Feature"},
	{"geometry":{"coordinates":[3.425666,46.119923],"type":"Point"},"properties":{"osm_id":"7024428945","tag":{"amenity":"recycling","operator":"Vichy Communaut\u00c3\u00a9","recycling:glass":"yes","recycling_type":"container","survey:date":"2019-11-10"}},"type":"Feature"},
	{"geometry":{"coordinates":[3.425824,46.11987],"type":"Point"},"properties":{"osm_id":"7024428946","tag":{"amenity":"waste_basket","survey:date":"2019-11-10","waste":"trash"}},"type":"Feature"},
	{"geometry":{"coordinates":[3.425616,46.120038],"type":"Point"},"properties":{"osm_id":"7024428948","tag":{"amenity":"waste_basket","survey:date":"2019-11-10","waste":"dog_excrement"}},"type":"Feature"},
	{"geometry":{"coordinates":[3.426484,46.120845],"type":"Point"},"properties":{"osm_id":"7024428952","tag":{"amenity":"waste_basket","survey:date":"2019-11-10","waste":"trash"}},"type":"Feature"},
	{"geometry":{"coordinates":[3.425766,46.120735],"type":"Point"},"properties":{"osm_id":"7024428964","tag":{"amenity":"waste_basket","survey:date":"2019-11-02","waste":"trash"}},"type":"Feature"},
	{"geometry":{"coordinates":[3.419972,46.121044],"type":"Point"},"properties":{"osm_id":"7024429325","tag":{"amenity":"recycling","recycling:glass":"yes","recycling:paper":"yes","recycling:waste":"yes","recycling_type":"container","survey:date":"2019-11-01"}},"type":"Feature"},
	{"geometry":{"coordinates":[3.422025,46.121444],"type":"Point"},"properties":{"osm_id":"7024429328","tag":{"amenity":"waste_basket","survey:date":"2019-11-01","waste":"trash"}},"type":"Feature"},
	{"geometry":{"coordinates":[3.426649,46.12485],"type":"Point"},"properties":{"osm_id":"7024429334","tag":{"amenity":"waste_basket","survey:date":"2019-11-01","waste":"trash"}},"type":"Feature"},
	{"geometry":{"coordinates":[3.425744,46.12911],"type":"Point"},"properties":{"osm_id":"7024429348","tag":{"amenity":"waste_basket","survey:date":"2019-11-01","waste":"trash"}},"type":"Feature"},
	{"geometry":{"coordinates":[3.423827,46.129892],"type":"Point"},"properties":{"osm_id":"7024429354","tag":{"amenity":"waste_basket","survey:date":"2019-11-01","waste":"trash"}},"type":"Feature"},
	{"geometry":{"coordinates":[3.419171,46.125007],"type":"Point"},"properties":{"osm_id":"7024429454","tag":{"amenity":"waste_basket","survey:date":"2019-10-27","waste":"trash"}},"type":"Feature"},
	{"geometry":{"coordinates":[3.419402,46.125532],"type":"Point"},"properties":{"osm_id":"7024429482","tag":{"amenity":"waste_basket","survey:date":"2019-10-27","waste":"trash"}},"type":"Feature"},
	{"geometry":{"coordinates":[3.422346,46.123837],"type":"Point"},"properties":{"osm_id":"7024429499","tag":{"amenity":"waste_basket","survey:date":"2019-10-19","waste":"trash"}},"type":"Feature"},
	{"geometry":{"coordinates":[3.421926,46.121736],"type":"Point"},"properties":{"osm_id":"7024429586","tag":{"amenity":"recycling","opening_hours":"24/7","operator":"Vichy Communaut\u00c3\u00a9","recycling:glass":"yes","recycling:paper":"yes","recycling:waste":"yes","recycling_type":"container","survey:date":"2019-10-26","wheelchair":"yes"}},"type":"Feature"},
	{"geometry":{"coordinates":[3.423936,46.134113],"type":"Point"},"properties":{"osm_id":"7024429587","tag":{"amenity":"recycling","opening_hours":"24/7","operator":"Vichy Communaut\u00c3\u00a9","recycling:glass":"yes","recycling_type":"container","survey:date":"2019-10-12","wheelchair":"yes"}},"type":"Feature"},
	{"geometry":{"coordinates":[3.422604,46.124709],"type":"Point"},"properties":{"osm_id":"7024429707","tag":{"amenity":"waste_basket","survey:date":"2019-10-12","waste":"trash"}},"type":"Feature"},
	{"geometry":{"coordinates":[3.422498,46.124715],"type":"Point"},"properties":{"osm_id":"7024429708","tag":{"amenity":"waste_basket","survey:date":"2019-10-12","waste":"trash"}},"type":"Feature"},
	{"geometry":{"coordinates":[3.42264,46.124954],"type":"Point"},"properties":{"osm_id":"7024429709","tag":{"amenity":"waste_basket","survey:date":"2019-10-12","waste":"trash"}},"type":"Feature"},
	{"geometry":{"coordinates":[3.422534,46.12496],"type":"Point"},"properties":{"osm_id":"7024429710","tag":{"amenity":"waste_basket","survey:date":"2019-10-12","waste":"trash"}},"type":"Feature"},
	{"geometry":{"coordinates":[3.423623,46.129883],"type":"Point"},"properties":{"osm_id":"7024429713","tag":{"amenity":"waste_basket","survey:date":"2019-10-12","waste":"trash"}},"type":"Feature"},
	{"geometry":{"coordinates":[3.423635,46.133947],"type":"Point"},"properties":{"osm_id":"7024429715","tag":{"amenity":"waste_basket","survey:date":"2019-10-12","waste":"trash"}},"type":"Feature"},
	{"geometry":{"coordinates":[3.427713,46.133928],"type":"Point"},"properties":{"osm_id":"7024429717","tag":{"amenity":"recycling","recycling:glass":"yes","recycling:paper":"yes","recycling:waste":"yes","recycling_type":"container","survey:date":"2019-10-12","wheelchair":"yes"}},"type":"Feature"},
	{"geometry":{"coordinates":[3.427557,46.124395],"type":"Point"},"properties":{"osm_id":"7024430163","tag":{"amenity":"recycling","opening_hours":"24/7","operator":"Vichy Communaut\u00c3\u00a9","recycling:glass":"yes","recycling_type":"container","survey:date":"2019-10-05","wheelchair":"yes"}},"type":"Feature"},
	{"geometry":{"coordinates":[3.426639,46.12548],"type":"Point"},"properties":{"osm_id":"7024430166","tag":{"amenity":"waste_basket","survey:date":"2019-10-05","waste":"trash"}},"type":"Feature"},
	{"geometry":{"coordinates":[3.423537,46.131441],"type":"Point"},"properties":{"osm_id":"7024430234","tag":{"amenity":"waste_basket","survey:date":"2019-09-28","waste":"trash"}},"type":"Feature"},
	{"geometry":{"coordinates":[3.423256,46.133057],"type":"Point"},"properties":{"osm_id":"7024430239","tag":{"amenity":"waste_basket","survey:date":"2019-09-28","waste":"trash"}},"type":"Feature"},
	{"geometry":{"coordinates":[3.41983,46.132683],"type":"Point"},"properties":{"osm_id":"7024430402","tag":{"amenity":"recycling","opening_hours":"24/7","recycling:glass":"yes","recycling:paper":"yes","recycling:waste":"yes","recycling_type":"container","survey:date":"2019-09-21","wheelchair":"yes"}},"type":"Feature"},
	{"geometry":{"coordinates":[3.415857,46.118496],"type":"Point"},"properties":{"osm_id":"7098070266","tag":{"amenity":"waste_basket","start_date":"2019-12","survey:date":"2019-12-28","waste":"trash;cigarettes"}},"type":"Feature"},
	{"geometry":{"coordinates":[3.419874,46.132108],"type":"Point"},"properties":{"osm_id":"7098194788","tag":{"amenity":"waste_basket","survey:date":"2019-12-14","waste":"dog_excrement"}},"type":"Feature"},
	{"geometry":{"coordinates":[3.42347,46.132168],"type":"Point"},"properties":{"osm_id":"7098194789","tag":{"amenity":"waste_basket","survey:date":"2019-12-14","waste":"trash"}},"type":"Feature"},
	{"geometry":{"coordinates":[3.42648,46.130792],"type":"Point"},"properties":{"osm_id":"7098194793","tag":{"amenity":"waste_basket","survey:date":"2019-12-14","waste":"trash"}},"type":"Feature"},
	{"geometry":{"coordinates":[3.426532,46.130914],"type":"Point"},"properties":{"osm_id":"7098194794","tag":{"amenity":"waste_basket","survey:date":"2019-12-14","waste":"trash"}},"type":"Feature"},
	{"geometry":{"coordinates":[3.426742,46.130964],"type":"Point"},"properties":{"osm_id":"7098194795","tag":{"amenity":"waste_basket","survey:date":"2019-12-14","waste":"trash"}},"type":"Feature"},
	{"geometry":{"coordinates":[3.426837,46.129776],"type":"Point"},"properties":{"osm_id":"7098194800","tag":{"amenity":"waste_basket","survey:date":"2019-12-14","waste":"dog_excrement"}},"type":"Feature"},
	{"geometry":{"coordinates":[3.424375,46.127802],"type":"Point"},"properties":{"osm_id":"7098194801","tag":{"amenity":"waste_basket","survey:date":"2019-12-14","waste":"trash"}},"type":"Feature"},
	{"geometry":{"coordinates":[3.422654,46.130341],"type":"Point"},"properties":{"osm_id":"7098194810","tag":{"amenity":"waste_basket","survey:date":"2019-12-14","waste":"trash"}},"type":"Feature"},
	{"geometry":{"coordinates":[3.421486,46.130483],"type":"Point"},"properties":{"osm_id":"7098194811","tag":{"amenity":"waste_basket","survey:date":"2019-12-14","waste":"trash"}},"type":"Feature"},
	{"geometry":{"coordinates":[3.419719,46.130286],"type":"Point"},"properties":{"osm_id":"7098194812","tag":{"amenity":"waste_basket","survey:date":"2019-12-14","waste":"trash"}},"type":"Feature"},
	{"geometry":{"coordinates":[3.418073,46.12988],"type":"Point"},"properties":{"osm_id":"7098194813","tag":{"amenity":"waste_basket","survey:date":"2019-12-14","waste":"trash"}},"type":"Feature"},
	{"geometry":{"coordinates":[3.41735,46.126282],"type":"Point"},"properties":{"osm_id":"7098194815","tag":{"amenity":"waste_basket","survey:date":"2019-12-14","waste":"trash"}},"type":"Feature"},
	{"geometry":{"coordinates":[3.420649,46.125554],"type":"Point"},"properties":{"osm_id":"7098194869","tag":{"amenity":"waste_basket","survey:date":"2019-12-08","waste":"trash"}},"type":"Feature"},
	{"geometry":{"coordinates":[3.422447,46.119491],"type":"Point"},"properties":{"osm_id":"7098194872","tag":{"amenity":"waste_basket","survey:date":"2019-12-08","waste":"trash"}},"type":"Feature"},
	{"geometry":{"coordinates":[3.427028,46.12345],"type":"Point"},"properties":{"osm_id":"7098194887","tag":{"amenity":"waste_basket","survey:date":"2019-12-07","waste":"trash"}},"type":"Feature"},
	{"geometry":{"coordinates":[3.424493,46.129075],"type":"Point"},"properties":{"osm_id":"7098194907","tag":{"amenity":"waste_basket","survey:date":"2019-12-07","waste":"trash"}},"type":"Feature"},
	{"geometry":{"coordinates":[3.421468,46.124918],"type":"Point"},"properties":{"osm_id":"7098194920","tag":{"amenity":"waste_basket","survey:date":"2019-12-07","waste":"trash"}},"type":"Feature"},
	{"geometry":{"coordinates":[3.42182,46.125041],"type":"Point"},"properties":{"osm_id":"7098194923","tag":{"amenity":"waste_basket","survey:date":"2019-12-07","waste":"trash"}},"type":"Feature"},
	{"geometry":{"coordinates":[3.422435,46.125258],"type":"Point"},"properties":{"osm_id":"7098194929","tag":{"amenity":"waste_basket","survey:date":"2019-12-07","waste":"trash"}},"type":"Feature"},
	{"geometry":{"coordinates":[3.421382,46.124734],"type":"Point"},"properties":{"osm_id":"7098194935","tag":{"amenity":"waste_basket","survey:date":"2019-12-07","waste":"trash"}},"type":"Feature"},
	{"geometry":{"coordinates":[3.423269,46.128734],"type":"Point"},"properties":{"osm_id":"7179911401","tag":{"amenity":"waste_basket","survey:date":"2020-01-25","waste":"trash"}},"type":"Feature"},
	{"geometry":{"coordinates":[3.42084,46.127672],"type":"Point"},"properties":{"osm_id":"7179911559","tag":{"amenity":"waste_basket","survey:date":"2020-01-18","waste":"trash"}},"type":"Feature"},
	{"geometry":{"coordinates":[3.420959,46.127587],"type":"Point"},"properties":{"osm_id":"7179911560","tag":{"amenity":"waste_basket","survey:date":"2020-01-18","waste":"trash"}},"type":"Feature"},
	{"geometry":{"coordinates":[3.40787,46.120344],"type":"Point"},"properties":{"osm_id":"7256128032","tag":{"amenity":"recycling","opening_hours":"24/7","recycling:cardboard":"yes","recycling:glass":"yes","recycling:paper":"yes","recycling:waste":"yes","recycling_type":"container","survey:date":"2020-02-29","wheelchair":"yes"}},"type":"Feature"},
	{"geometry":{"coordinates":[3.405582,46.12453],"type":"Point"},"properties":{"osm_id":"7256128036","tag":{"amenity":"waste_basket","survey:date":"2020-02-29","waste":"trash"}},"type":"Feature"},
	{"geometry":{"coordinates":[3.405866,46.124435],"type":"Point"},"properties":{"osm_id":"7256128037","tag":{"amenity":"waste_basket","survey:date":"2020-02-29","waste":"trash"}},"type":"Feature"},
	{"geometry":{"coordinates":[3.406438,46.124181],"type":"Point"},"properties":{"osm_id":"7256128038","tag":{"amenity":"waste_basket","survey:date":"2020-02-29","waste":"trash"}},"type":"Feature"},
	{"geometry":{"coordinates":[3.408004,46.120616],"type":"Point"},"properties":{"osm_id":"7256128064","tag":{"amenity":"waste_basket","survey:date":"2020-02-29","waste":"trash"}},"type":"Feature"},
	{"geometry":{"coordinates":[3.407331,46.120701],"type":"Point"},"properties":{"osm_id":"7256128120","tag":{"amenity":"recycling","opening_hours":"24/7","recycling:cardboard":"yes","recycling:paper":"yes","recycling:waste":"yes","recycling_type":"container","survey:date":"2020-02-29","wheelchair":"yes"}},"type":"Feature"},
	{"geometry":{"coordinates":[3.407552,46.12118],"type":"Point"},"properties":{"osm_id":"7256128121","tag":{"amenity":"recycling","opening_hours":"24/7","recycling:cardboard":"yes","recycling:paper":"yes","recycling:waste":"yes","recycling_type":"container","survey:date":"2020-02-29","wheelchair":"yes"}},"type":"Feature"},
	{"geometry":{"coordinates":[3.407685,46.1215],"type":"Point"},"properties":{"osm_id":"7256128122","tag":{"amenity":"recycling","opening_hours":"24/7","recycling:cardboard":"yes","recycling:glass":"yes","recycling:paper":"yes","recycling:waste":"yes","recycling_type":"container","survey:date":"2020-02-29","wheelchair":"yes"}},"type":"Feature"},
	{"geometry":{"coordinates":[3.41106,46.118602],"type":"Point"},"properties":{"osm_id":"7256128150","tag":{"amenity":"waste_basket","survey:date":"2020-02-29","waste":"trash"}},"type":"Feature"},
	{"geometry":{"coordinates":[3.404547,46.122285],"type":"Point"},"properties":{"osm_id":"7256128346","tag":{"amenity":"waste_basket","survey:date":"2020-02-22","waste":"trash"}},"type":"Feature"},
	{"geometry":{"coordinates":[3.402333,46.117907],"type":"Point"},"properties":{"osm_id":"7256128441","tag":{"amenity":"waste_basket","survey:date":"2020-01-19","waste":"trash"}},"type":"Feature"},
	{"geometry":{"coordinates":[3.399979,46.119447],"type":"Point"},"properties":{"osm_id":"7256128457","tag":{"amenity":"waste_basket","survey:date":"2020-01-19","waste":"trash"}},"type":"Feature"},
	{"geometry":{"coordinates":[3.399426,46.119591],"type":"Point"},"properties":{"osm_id":"7256128462","tag":{"amenity":"waste_basket","survey:date":"2020-01-19","waste":"trash"}},"type":"Feature"},
	{"geometry":{"coordinates":[3.399037,46.118815],"type":"Point"},"properties":{"osm_id":"7256128464","tag":{"amenity":"recycling","opening_hours":"24/7","recycling:cardboard":"yes","recycling:paper":"yes","recycling:waste":"yes","recycling_type":"container","survey:date":"2020-01-19","wheelchair":"yes"}},"type":"Feature"},
	{"geometry":{"coordinates":[3.399585,46.118235],"type":"Point"},"properties":{"osm_id":"7256128465","tag":{"amenity":"recycling","opening_hours":"24/7","recycling:cardboard":"yes","recycling:paper":"yes","recycling:waste":"yes","recycling_type":"container","survey:date":"2020-01-19","wheelchair":"yes"}},"type":"Feature"},
	{"geometry":{"coordinates":[3.399524,46.117106],"type":"Point"},"properties":{"osm_id":"7256128469","tag":{"amenity":"waste_basket","survey:date":"2020-01-19","waste":"trash"}},"type":"Feature"},
	{"geometry":{"coordinates":[3.402805,46.117428],"type":"Point"},"properties":{"osm_id":"7256128551","tag":{"amenity":"waste_basket","waste":"trash"}},"type":"Feature"},
	{"geometry":{"coordinates":[3.408563,46.117612],"type":"Point"},"properties":{"osm_id":"7256128552","tag":{"amenity":"waste_basket","survey:date":"2020-01-19","waste":"trash"}},"type":"Feature"},
	{"geometry":{"coordinates":[3.410087,46.117552],"type":"Point"},"properties":{"osm_id":"7256128556","tag":{"amenity":"waste_basket","survey:date":"2020-01-19","waste":"trash"}},"type":"Feature"},
	{"geometry":{"coordinates":[3.424264,46.121645],"type":"Point"},"properties":{"osm_id":"7256176281","tag":{"amenity":"waste_basket","survey:date":"2020-02-08","waste":"trash"}},"type":"Feature"},
	{"geometry":{"coordinates":[3.420889,46.121086],"type":"Point"},"properties":{"osm_id":"7256176287","tag":{"amenity":"waste_basket","survey:date":"2020-02-08","waste":"trash"}},"type":"Feature"},
	{"geometry":{"coordinates":[3.419821,46.126534],"type":"Point"},"properties":{"osm_id":"7256176291","tag":{"amenity":"waste_basket","survey:date":"2020-02-08","waste":"trash"}},"type":"Feature"},
	{"geometry":{"coordinates":[3.427337,46.12826],"type":"Point"},"properties":{"osm_id":"7256176372","tag":{"amenity":"waste_basket","survey:date":"2020-02-08","waste":"trash"}},"type":"Feature"},
	{"geometry":{"coordinates":[3.418519,46.123674],"type":"Point"},"properties":{"osm_id":"7376569131","tag":{"amenity":"waste_basket","survey:date":"2020-03-15","waste":"trash"}},"type":"Feature"},
	{"geometry":{"coordinates":[3.417439,46.123612],"type":"Point"},"properties":{"osm_id":"7376569138","tag":{"amenity":"waste_basket","survey:date":"2020-03-15","waste":"trash"}},"type":"Feature"},
	{"geometry":{"coordinates":[3.416499,46.123443],"type":"Point"},"properties":{"osm_id":"7376569143","tag":{"amenity":"waste_basket","survey:date":"2020-03-15","waste":"trash"}},"type":"Feature"},
	{"geometry":{"coordinates":[3.416568,46.12327],"type":"Point"},"properties":{"osm_id":"7376569144","tag":{"amenity":"waste_basket","survey:date":"2020-03-15","waste":"trash"}},"type":"Feature"},
	{"geometry":{"coordinates":[3.416855,46.122835],"type":"Point"},"properties":{"osm_id":"7376569151","tag":{"amenity":"waste_basket","survey:date":"2020-03-15","waste":"trash"}},"type":"Feature"},
	{"geometry":{"coordinates":[3.416858,46.122622],"type":"Point"},"properties":{"osm_id":"7376569154","tag":{"amenity":"waste_basket","survey:date":"2020-03-15","waste":"trash"}},"type":"Feature"},
	{"geometry":{"coordinates":[3.416996,46.122738],"type":"Point"},"properties":{"osm_id":"7376569158","tag":{"amenity":"waste_basket","survey:date":"2020-03-15","waste":"trash"}},"type":"Feature"},
	{"geometry":{"coordinates":[3.41729,46.122615],"type":"Point"},"properties":{"osm_id":"7376569162","tag":{"amenity":"waste_basket","survey:date":"2020-03-15","waste":"trash"}},"type":"Feature"},
	{"geometry":{"coordinates":[3.417199,46.122114],"type":"Point"},"properties":{"osm_id":"7376569170","tag":{"amenity":"waste_basket","survey:date":"2020-03-15","waste":"trash"}},"type":"Feature"},
	{"geometry":{"coordinates":[3.417243,46.121991],"type":"Point"},"properties":{"osm_id":"7376569171","tag":{"amenity":"waste_basket","survey:date":"2020-03-15","waste":"trash"}},"type":"Feature"},
	{"geometry":{"coordinates":[3.417526,46.121728],"type":"Point"},"properties":{"osm_id":"7376569180","tag":{"amenity":"waste_basket","survey:date":"2020-03-15","waste":"trash"}},"type":"Feature"},
	{"geometry":{"coordinates":[3.417661,46.121566],"type":"Point"},"properties":{"osm_id":"7376569183","tag":{"amenity":"waste_basket","survey:date":"2020-03-15","waste":"trash"}},"type":"Feature"},
	{"geometry":{"coordinates":[3.417754,46.121348],"type":"Point"},"properties":{"osm_id":"7376569184","tag":{"amenity":"waste_basket","survey:date":"2020-03-15","waste":"trash"}},"type":"Feature"},
	{"geometry":{"coordinates":[3.417855,46.121207],"type":"Point"},"properties":{"osm_id":"7376569185","tag":{"amenity":"waste_basket","survey:date":"2020-03-15","waste":"trash"}},"type":"Feature"},
	{"geometry":{"coordinates":[3.418072,46.120994],"type":"Point"},"properties":{"osm_id":"7376569188","tag":{"amenity":"waste_basket","survey:date":"2020-03-15","waste":"trash"}},"type":"Feature"},
	{"geometry":{"coordinates":[3.417916,46.120836],"type":"Point"},"properties":{"osm_id":"7376569192","tag":{"amenity":"waste_basket","survey:date":"2020-03-15","waste":"trash"}},"type":"Feature"},
	{"geometry":{"coordinates":[3.418284,46.120226],"type":"Point"},"properties":{"osm_id":"7376569193","tag":{"amenity":"waste_basket","start_date":"2020-03","survey:date":"2020-03-15","waste":"trash"}},"type":"Feature"},
	{"geometry":{"coordinates":[3.418469,46.120118],"type":"Point"},"properties":{"osm_id":"7376569194","tag":{"amenity":"waste_basket","start_date":"2020-03","survey:date":"2020-03-15","waste":"trash"}},"type":"Feature"},
	{"geometry":{"coordinates":[3.41946,46.120729],"type":"Point"},"properties":{"osm_id":"7376569195","tag":{"amenity":"waste_basket","start_date":"2020-03","survey:date":"2020-03-15","waste":"trash"}},"type":"Feature"},
	{"geometry":{"coordinates":[3.419701,46.120914],"type":"Point"},"properties":{"osm_id":"7376569196","tag":{"amenity":"waste_basket","start_date":"2020-03","survey:date":"2020-03-15","waste":"trash"}},"type":"Feature"},
	{"geometry":{"coordinates":[3.419904,46.12105],"type":"Point"},"properties":{"osm_id":"7376569197","tag":{"amenity":"waste_basket","start_date":"2020-03","survey:date":"2020-03-15","waste":"trash"}},"type":"Feature"},
	{"geometry":{"coordinates":[3.420656,46.122028],"type":"Point"},"properties":{"osm_id":"7376569198","tag":{"amenity":"waste_basket","start_date":"2020-03","survey:date":"2020-03-15","waste":"trash"}},"type":"Feature"},
	{"geometry":{"coordinates":[3.415935,46.133553],"type":"Point"},"properties":{"osm_id":"7376569235","tag":{"amenity":"recycling","opening_hours":"24/7","recycling:glass":"yes","recycling_type":"container","survey:date":"2020-03-07","wheelchair":"yes"}},"type":"Feature"},
	{"geometry":{"coordinates":[3.427729,46.122131],"type":"Point"},"properties":{"osm_id":"7376569266","tag":{"amenity":"waste_basket","survey:date":"2020-03-07","waste":"trash"}},"type":"Feature"},
	{"geometry":{"coordinates":[3.426512,46.133784],"type":"Point"},"properties":{"osm_id":"7590467980","tag":{"amenity":"waste_basket","survey:date":"2020-05-21","waste":"trash"}},"type":"Feature"},
	{"geometry":{"coordinates":[3.421889,46.13289],"type":"Point"},"properties":{"osm_id":"7590467981","tag":{"amenity":"waste_basket","survey:date":"2020-05-21","waste":"trash"}},"type":"Feature"},
	{"geometry":{"coordinates":[3.419651,46.120226],"type":"Point"},"properties":{"osm_id":"7590467984","tag":{"amenity":"waste_basket","survey:date":"2020-05-21","waste":"dog_excrement"}},"type":"Feature"},
	{"geometry":{"coordinates":[3.419766,46.120231],"type":"Point"},"properties":{"osm_id":"7590467985","tag":{"amenity":"waste_basket","survey:date":"2020-05-21","waste":"trash"}},"type":"Feature"},
	{"geometry":{"coordinates":[3.419831,46.120214],"type":"Point"},"properties":{"osm_id":"7590467986","tag":{"amenity":"waste_basket","survey:date":"2020-05-21","waste":"trash"}},"type":"Feature"},
	{"geometry":{"coordinates":[3.419823,46.119941],"type":"Point"},"properties":{"osm_id":"7590467992","tag":{"amenity":"waste_basket","survey:date":"2020-05-21","waste":"trash"}},"type":"Feature"},
	{"geometry":{"coordinates":[3.419287,46.120092],"type":"Point"},"properties":{"osm_id":"7590467993","tag":{"amenity":"waste_basket","survey:date":"2020-05-21","waste":"trash"}},"type":"Feature"},
	{"geometry":{"coordinates":[3.42015,46.119824],"type":"Point"},"properties":{"osm_id":"7590467994","tag":{"amenity":"waste_basket","survey:date":"2020-05-21","waste":"trash"}},"type":"Feature"},
	{"geometry":{"coordinates":[3.420537,46.119837],"type":"Point"},"properties":{"osm_id":"7590467995","tag":{"amenity":"waste_basket","survey:date":"2020-05-21","waste":"trash"}},"type":"Feature"},
	{"geometry":{"coordinates":[3.418526,46.12074],"type":"Point"},"properties":{"osm_id":"7590468082","tag":{"amenity":"waste_basket","survey:date":"2020-05-17","waste":"trash"}},"type":"Feature"},
	{"geometry":{"coordinates":[3.422293,46.126227],"type":"Point"},"properties":{"osm_id":"7590468084","tag":{"amenity":"waste_basket","survey:date":"2020-05-16","waste":"trash"}},"type":"Feature"},
	{"geometry":{"coordinates":[3.420735,46.121852],"type":"Point"},"properties":{"osm_id":"7590468085","tag":{"amenity":"waste_basket","start_date":"2020-03","survey:date":"2020-05-16","waste":"trash"}},"type":"Feature"},
	{"geometry":{"coordinates":[3.419233,46.12066],"type":"Point"},"properties":{"osm_id":"7590468086","tag":{"amenity":"waste_basket","survey:date":"2020-05-17","waste":"trash"}},"type":"Feature"},
	{"geometry":{"coordinates":[3.420357,46.128663],"type":"Point"},"properties":{"osm_id":"7684887640","tag":{"amenity":"waste_basket","survey:date":"2020-06-27","waste":"dog_excrement"}},"type":"Feature"},
	{"geometry":{"coordinates":[3.420362,46.128644],"type":"Point"},"properties":{"osm_id":"7684887642","tag":{"amenity":"recycling","opening_hours":"24/7","operator":"Vichy Communaut\u00c3\u00a9","recycling:glass":"yes","recycling_type":"container","survey:date":"2020-06-27","wheelchair":"yes"}},"type":"Feature"},
	{"geometry":{"coordinates":[3.423966,46.127768],"type":"Point"},"properties":{"osm_id":"7684887675","tag":{"amenity":"waste_basket","survey:date":"2020-06-20","waste":"trash"}},"type":"Feature"},
	{"geometry":{"coordinates":[3.41705,46.132105],"type":"Point"},"properties":{"osm_id":"7684887744","tag":{"amenity":"waste_basket","survey:date":"2020-06-13","waste":"trash"}},"type":"Feature"},
	{"geometry":{"coordinates":[3.418342,46.132685],"type":"Point"},"properties":{"osm_id":"7684887748","tag":{"amenity":"waste_basket","survey:date":"2020-06-13","waste":"trash"}},"type":"Feature"},
	{"geometry":{"coordinates":[3.419259,46.124589],"type":"Point"},"properties":{"osm_id":"7684887755","tag":{"amenity":"waste_basket","survey:date":"2020-06-13","waste":"trash"}},"type":"Feature"},
	{"geometry":{"coordinates":[3.41564,46.113216],"type":"Point"},"properties":{"osm_id":"7684892707","tag":{"amenity":"waste_basket","survey:date":"2020-06-06","waste":"trash"}},"type":"Feature"},
	{"geometry":{"coordinates":[3.41908,46.126314],"type":"Point"},"properties":{"osm_id":"7779369181","tag":{"amenity":"waste_basket","colour":"green","survey:date":"2020-08-01","waste":"trash"}},"type":"Feature"},
	{"geometry":{"coordinates":[3.419532,46.126311],"type":"Point"},"properties":{"osm_id":"7779371489","tag":{"amenity":"waste_basket","colour":"green","survey:date":"2020-08-01","waste":"trash"}},"type":"Feature"},
	{"geometry":{"coordinates":[3.422855,46.12526],"type":"Point"},"properties":{"osm_id":"7866627685","tag":{"amenity":"waste_basket"}},"type":"Feature"},
	{"geometry":{"coordinates":[3.416295,46.125836],"type":"Point"},"properties":{"osm_id":"7882037949","tag":{"amenity":"waste_basket","survey:date":"2020-08-25","waste":"trash"}},"type":"Feature"},
	{"geometry":{"coordinates":[3.416292,46.125747],"type":"Point"},"properties":{"osm_id":"7882037950","tag":{"amenity":"waste_basket","survey:date":"2020-08-25","waste":"trash"}},"type":"Feature"},
	{"geometry":{"coordinates":[3.416301,46.125069],"type":"Point"},"properties":{"osm_id":"7882037953","tag":{"amenity":"waste_basket","survey:date":"2020-08-25","waste":"trash"}},"type":"Feature"},
	{"geometry":{"coordinates":[3.416538,46.1247],"type":"Point"},"properties":{"osm_id":"7882037959","tag":{"amenity":"waste_basket","survey:date":"2020-08-25","waste":"trash"}},"type":"Feature"},
	{"geometry":{"coordinates":[3.416489,46.124899],"type":"Point"},"properties":{"osm_id":"7882037960","tag":{"amenity":"waste_basket","survey:date":"2020-08-25","waste":"trash"}},"type":"Feature"},
	{"geometry":{"coordinates":[3.416264,46.124869],"type":"Point"},"properties":{"osm_id":"7882037963","tag":{"amenity":"waste_basket","survey:date":"2020-08-25","waste":"trash"}},"type":"Feature"},
	{"geometry":{"coordinates":[3.416326,46.124687],"type":"Point"},"properties":{"osm_id":"7882037968","tag":{"amenity":"waste_basket","survey:date":"2020-08-25","waste":"trash"}},"type":"Feature"},
	{"geometry":{"coordinates":[3.415639,46.125841],"type":"Point"},"properties":{"osm_id":"7882037973","tag":{"amenity":"waste_basket","survey:date":"2020-08-25","waste":"trash"}},"type":"Feature"},
	{"geometry":{"coordinates":[3.421779,46.118947],"type":"Point"},"properties":{"osm_id":"7882037982","tag":{"amenity":"waste_basket","start_date":"2014","survey:date":"2020-08-08","waste":"trash"}},"type":"Feature"}
]
}
