{
"type": "FeatureCollection",
"features": [
	{"geometry":{"coordinates":[3.363104,43.31286],"type":"Point"},"properties":{"osm_id":"300737818","tag":{"amenity":"recycling"}},"type":"Feature"},
	{"geometry":{"coordinates":[3.40881,43.288682],"type":"Point"},"properties":{"osm_id":"2431040603","tag":{"amenity":"waste_basket"}},"type":"Feature"},
	{"geometry":{"coordinates":[3.40927,43.288691],"type":"Point"},"properties":{"osm_id":"2431040604","tag":{"amenity":"waste_basket"}},"type":"Feature"},
	{"geometry":{"coordinates":[3.409652,43.28873],"type":"Point"},"properties":{"osm_id":"2431040605","tag":{"amenity":"waste_basket"}},"type":"Feature"},
	{"geometry":{"coordinates":[3.410143,43.288815],"type":"Point"},"properties":{"osm_id":"2431040607","tag":{"amenity":"waste_basket"}},"type":"Feature"},
	{"geometry":{"coordinates":[3.410493,43.288864],"type":"Point"},"properties":{"osm_id":"2431040609","tag":{"amenity":"waste_basket"}},"type":"Feature"},
	{"geometry":{"coordinates":[3.410851,43.288939],"type":"Point"},"properties":{"osm_id":"2431040610","tag":{"amenity":"waste_basket"}},"type":"Feature"},
	{"geometry":{"coordinates":[3.411327,43.289035],"type":"Point"},"properties":{"osm_id":"2431040612","tag":{"amenity":"waste_basket"}},"type":"Feature"},
	{"geometry":{"coordinates":[3.411674,43.289094],"type":"Point"},"properties":{"osm_id":"2431040614","tag":{"amenity":"waste_basket"}},"type":"Feature"},
	{"geometry":{"coordinates":[3.411996,43.289158],"type":"Point"},"properties":{"osm_id":"2431040616","tag":{"amenity":"waste_basket"}},"type":"Feature"},
	{"geometry":{"coordinates":[3.412269,43.289226],"type":"Point"},"properties":{"osm_id":"2431040620","tag":{"amenity":"waste_basket"}},"type":"Feature"},
	{"geometry":{"coordinates":[3.412514,43.289343],"type":"Point"},"properties":{"osm_id":"2431040628","tag":{"amenity":"waste_basket"}},"type":"Feature"},
	{"geometry":{"coordinates":[3.41264,43.289377],"type":"Point"},"properties":{"osm_id":"2431040630","tag":{"amenity":"waste_basket"}},"type":"Feature"},
	{"geometry":{"coordinates":[3.412878,43.289396],"type":"Point"},"properties":{"osm_id":"2431040632","tag":{"amenity":"waste_basket"}},"type":"Feature"},
	{"geometry":{"coordinates":[3.413332,43.289489],"type":"Point"},"properties":{"osm_id":"2431040642","tag":{"amenity":"waste_basket"}},"type":"Feature"},
	{"geometry":{"coordinates":[3.413802,43.289537],"type":"Point"},"properties":{"osm_id":"2431040646","tag":{"amenity":"waste_basket"}},"type":"Feature"},
	{"geometry":{"coordinates":[3.414247,43.289549],"type":"Point"},"properties":{"osm_id":"2431040651","tag":{"amenity":"waste_basket"}},"type":"Feature"},
	{"geometry":{"coordinates":[3.418593,43.291369],"type":"Point"},"properties":{"osm_id":"2456150391","tag":{"amenity":"recycling"}},"type":"Feature"},
	{"geometry":{"coordinates":[3.371624,43.291809],"type":"Point"},"properties":{"osm_id":"2517622064","tag":{"amenity":"waste_disposal"}},"type":"Feature"},
	{"geometry":{"coordinates":[3.381571,43.290853],"type":"Point"},"properties":{"osm_id":"2517824344","tag":{"amenity":"recycling","recycling:glass_bottles":"yes","recycling_type":"container"}},"type":"Feature"},
	{"geometry":{"coordinates":[3.356077,43.277718],"type":"Point"},"properties":{"osm_id":"5031624923","tag":{"amenity":"recycling","recycling:glass_bottles":"yes","recycling_type":"container"}},"type":"Feature"},
	{"geometry":{"coordinates":[3.356879,43.280124],"type":"Point"},"properties":{"osm_id":"5036223821","tag":{"amenity":"waste_basket"}},"type":"Feature"},
	{"geometry":{"coordinates":[3.412566,43.289609],"type":"Point"},"properties":{"osm_id":"5206748916","tag":{"amenity":"waste_basket"}},"type":"Feature"},
	{"geometry":{"coordinates":[3.413488,43.289768],"type":"Point"},"properties":{"osm_id":"5206750231","tag":{"amenity":"waste_basket"}},"type":"Feature"},
	{"geometry":{"coordinates":[3.415059,43.289845],"type":"Point"},"properties":{"osm_id":"5206750232","tag":{"amenity":"waste_basket"}},"type":"Feature"},
	{"geometry":{"coordinates":[3.418652,43.296216],"type":"Point"},"properties":{"osm_id":"5952520526","tag":{"amenity":"waste_disposal"}},"type":"Feature"},
	{"geometry":{"coordinates":[3.418464,43.297458],"type":"Point"},"properties":{"osm_id":"5952520583","tag":{"amenity":"waste_disposal"}},"type":"Feature"},
	{"geometry":{"coordinates":[3.357818,43.279521],"type":"Point"},"properties":{"osm_id":"6545068824","tag":{"amenity":"recycling","recycling_type":"container"}},"type":"Feature"},
	{"geometry":{"coordinates":[3.357821,43.279496],"type":"Point"},"properties":{"osm_id":"6545068825","tag":{"amenity":"recycling","recycling_type":"container"}},"type":"Feature"},
	{"geometry":{"coordinates":[3.357522,43.280146],"type":"Point"},"properties":{"osm_id":"6545068828","tag":{"amenity":"waste_basket"}},"type":"Feature"},
	{"geometry":{"coordinates":[3.357451,43.282736],"type":"Point"},"properties":{"osm_id":"6545068833","tag":{"amenity":"waste_basket"}},"type":"Feature"},
	{"geometry":{"coordinates":[3.362356,43.286061],"type":"Point"},"properties":{"osm_id":"6545068844","tag":{"amenity":"recycling","material":"glass","recycling_type":"container"}},"type":"Feature"},
	{"geometry":{"coordinates":[3.362335,43.285567],"type":"Point"},"properties":{"osm_id":"6545068845","tag":{"amenity":"waste_basket"}},"type":"Feature"},
	{"geometry":{"coordinates":[3.3622,43.287469],"type":"Point"},"properties":{"osm_id":"6545068848","tag":{"amenity":"recycling","recycling_type":"container"}},"type":"Feature"},
	{"geometry":{"coordinates":[3.3622,43.287501],"type":"Point"},"properties":{"osm_id":"6545068849","tag":{"amenity":"recycling","recycling_type":"container"}},"type":"Feature"}
]
}
