{
"type": "FeatureCollection",
"features": [
	{"geometry":{"coordinates":[69.219008,33.603387],"type":"Point"},"properties":{"osm_id":"7190071048","tag":{"amenity":"waste_basket"}},"type":"Feature"},
	{"geometry":{"coordinates":[69.219052,33.603974],"type":"Point"},"properties":{"osm_id":"7190071049","tag":{"amenity":"waste_basket"}},"type":"Feature"},
	{"geometry":{"coordinates":[69.218505,33.604003],"type":"Point"},"properties":{"osm_id":"7190071050","tag":{"amenity":"waste_basket"}},"type":"Feature"},
	{"geometry":{"coordinates":[69.218819,33.603201],"type":"Point"},"properties":{"osm_id":"7190071051","tag":{"amenity":"waste_basket"}},"type":"Feature"},
	{"geometry":{"coordinates":[69.220499,33.604358],"type":"Point"},"properties":{"osm_id":"7190071052","tag":{"amenity":"waste_basket"}},"type":"Feature"},
	{"geometry":{"coordinates":[69.219107,33.605398],"type":"Point"},"properties":{"osm_id":"7190071053","tag":{"amenity":"waste_basket"}},"type":"Feature"},
	{"geometry":{"coordinates":[69.219074,33.605864],"type":"Point"},"properties":{"osm_id":"7190071054","tag":{"amenity":"waste_basket"}},"type":"Feature"},
	{"geometry":{"coordinates":[69.219106,33.60494],"type":"Point"},"properties":{"osm_id":"7190071055","tag":{"amenity":"waste_basket"}},"type":"Feature"},
	{"geometry":{"coordinates":[69.218016,33.605277],"type":"Point"},"properties":{"osm_id":"7190071056","tag":{"amenity":"waste_basket"}},"type":"Feature"},
	{"geometry":{"coordinates":[69.23297,33.597294],"type":"Point"},"properties":{"osm_id":"7190071057","tag":{"amenity":"waste_basket"}},"type":"Feature"},
	{"geometry":{"coordinates":[69.232889,33.596453],"type":"Point"},"properties":{"osm_id":"7190071058","tag":{"amenity":"waste_basket"}},"type":"Feature"},
	{"geometry":{"coordinates":[69.232872,33.597795],"type":"Point"},"properties":{"osm_id":"7190071059","tag":{"amenity":"waste_basket"}},"type":"Feature"},
	{"geometry":{"coordinates":[69.232857,33.597545],"type":"Point"},"properties":{"osm_id":"7190071060","tag":{"amenity":"waste_basket"}},"type":"Feature"},
	{"geometry":{"coordinates":[69.219536,33.602355],"type":"Point"},"properties":{"osm_id":"7190071061","tag":{"amenity":"waste_basket"}},"type":"Feature"},
	{"geometry":{"coordinates":[69.217716,33.603289],"type":"Point"},"properties":{"osm_id":"7190071062","tag":{"amenity":"waste_basket"}},"type":"Feature"},
	{"geometry":{"coordinates":[69.217812,33.604227],"type":"Point"},"properties":{"osm_id":"7190071063","tag":{"amenity":"waste_basket"}},"type":"Feature"},
	{"geometry":{"coordinates":[69.217782,33.602351],"type":"Point"},"properties":{"osm_id":"7190071064","tag":{"amenity":"waste_basket"}},"type":"Feature"},
	{"geometry":{"coordinates":[69.21768,33.602709],"type":"Point"},"properties":{"osm_id":"7190071065","tag":{"amenity":"waste_basket"}},"type":"Feature"},
	{"geometry":{"coordinates":[69.216319,33.598661],"type":"Point"},"properties":{"osm_id":"7190071066","tag":{"amenity":"waste_basket"}},"type":"Feature"},
	{"geometry":{"coordinates":[69.216729,33.597369],"type":"Point"},"properties":{"osm_id":"7190071067","tag":{"amenity":"waste_basket"}},"type":"Feature"},
	{"geometry":{"coordinates":[69.217504,33.59796],"type":"Point"},"properties":{"osm_id":"7190071068","tag":{"amenity":"waste_basket"}},"type":"Feature"},
	{"geometry":{"coordinates":[69.217598,33.598729],"type":"Point"},"properties":{"osm_id":"7190071069","tag":{"amenity":"waste_basket"}},"type":"Feature"},
	{"geometry":{"coordinates":[69.216902,33.595835],"type":"Point"},"properties":{"osm_id":"7190071070","tag":{"amenity":"waste_basket"}},"type":"Feature"},
	{"geometry":{"coordinates":[69.217285,33.593511],"type":"Point"},"properties":{"osm_id":"7190071071","tag":{"amenity":"waste_basket"}},"type":"Feature"},
	{"geometry":{"coordinates":[69.217758,33.595353],"type":"Point"},"properties":{"osm_id":"7190071072","tag":{"amenity":"waste_basket"}},"type":"Feature"},
	{"geometry":{"coordinates":[69.216117,33.594723],"type":"Point"},"properties":{"osm_id":"7190071073","tag":{"amenity":"waste_basket"}},"type":"Feature"},
	{"geometry":{"coordinates":[69.216738,33.593283],"type":"Point"},"properties":{"osm_id":"7190071074","tag":{"amenity":"waste_basket"}},"type":"Feature"},
	{"geometry":{"coordinates":[69.220328,33.598212],"type":"Point"},"properties":{"osm_id":"7190071075","tag":{"amenity":"waste_basket"}},"type":"Feature"},
	{"geometry":{"coordinates":[69.222319,33.597903],"type":"Point"},"properties":{"osm_id":"7190071076","tag":{"amenity":"waste_basket"}},"type":"Feature"},
	{"geometry":{"coordinates":[69.217911,33.606513],"type":"Point"},"properties":{"osm_id":"7190071077","tag":{"amenity":"waste_basket"}},"type":"Feature"},
	{"geometry":{"coordinates":[69.219016,33.600326],"type":"Point"},"properties":{"osm_id":"7190071078","tag":{"amenity":"waste_basket"}},"type":"Feature"},
	{"geometry":{"coordinates":[69.222156,33.596046],"type":"Point"},"properties":{"osm_id":"7190071079","tag":{"amenity":"waste_basket"}},"type":"Feature"},
	{"geometry":{"coordinates":[69.218196,33.596426],"type":"Point"},"properties":{"osm_id":"7190071080","tag":{"amenity":"waste_basket"}},"type":"Feature"},
	{"geometry":{"coordinates":[69.217629,33.596808],"type":"Point"},"properties":{"osm_id":"7190071081","tag":{"amenity":"waste_basket"}},"type":"Feature"},
	{"geometry":{"coordinates":[69.221069,33.596149],"type":"Point"},"properties":{"osm_id":"7190071082","tag":{"amenity":"waste_basket"}},"type":"Feature"},
	{"geometry":{"coordinates":[69.219778,33.596344],"type":"Point"},"properties":{"osm_id":"7190071083","tag":{"amenity":"waste_basket"}},"type":"Feature"},
	{"geometry":{"coordinates":[69.23316,33.598874],"type":"Point"},"properties":{"osm_id":"7190071084","tag":{"amenity":"waste_basket"}},"type":"Feature"},
	{"geometry":{"coordinates":[69.226377,33.60009],"type":"Point"},"properties":{"osm_id":"7190072685","tag":{"amenity":"waste_basket"}},"type":"Feature"},
	{"geometry":{"coordinates":[69.22624,33.599321],"type":"Point"},"properties":{"osm_id":"7190072686","tag":{"amenity":"waste_basket"}},"type":"Feature"},
	{"geometry":{"coordinates":[69.227276,33.600452],"type":"Point"},"properties":{"osm_id":"7190072687","tag":{"amenity":"waste_basket"}},"type":"Feature"},
	{"geometry":{"coordinates":[69.226258,33.600997],"type":"Point"},"properties":{"osm_id":"7190072688","tag":{"amenity":"waste_basket"}},"type":"Feature"},
	{"geometry":{"coordinates":[69.226055,33.59709],"type":"Point"},"properties":{"osm_id":"7190072689","tag":{"amenity":"waste_basket"}},"type":"Feature"},
	{"geometry":{"coordinates":[69.22511,33.59918],"type":"Point"},"properties":{"osm_id":"7190072690","tag":{"amenity":"waste_basket"}},"type":"Feature"},
	{"geometry":{"coordinates":[69.224974,33.59739],"type":"Point"},"properties":{"osm_id":"7190072691","tag":{"amenity":"waste_basket"}},"type":"Feature"},
	{"geometry":{"coordinates":[69.225967,33.59598],"type":"Point"},"properties":{"osm_id":"7190072692","tag":{"amenity":"waste_basket"}},"type":"Feature"},
	{"geometry":{"coordinates":[69.225163,33.599834],"type":"Point"},"properties":{"osm_id":"7190072693","tag":{"amenity":"waste_basket"}},"type":"Feature"},
	{"geometry":{"coordinates":[69.229792,33.602798],"type":"Point"},"properties":{"osm_id":"7190072694","tag":{"amenity":"waste_basket"}},"type":"Feature"},
	{"geometry":{"coordinates":[69.229853,33.604337],"type":"Point"},"properties":{"osm_id":"7190072695","tag":{"amenity":"waste_basket"}},"type":"Feature"},
	{"geometry":{"coordinates":[69.22939,33.600451],"type":"Point"},"properties":{"osm_id":"7190072696","tag":{"amenity":"waste_basket"}},"type":"Feature"},
	{"geometry":{"coordinates":[69.229463,33.602542],"type":"Point"},"properties":{"osm_id":"7190072697","tag":{"amenity":"waste_basket"}},"type":"Feature"},
	{"geometry":{"coordinates":[69.22877,33.601929],"type":"Point"},"properties":{"osm_id":"7190072698","tag":{"amenity":"waste_basket"}},"type":"Feature"},
	{"geometry":{"coordinates":[69.227717,33.600135],"type":"Point"},"properties":{"osm_id":"7190072699","tag":{"amenity":"waste_basket"}},"type":"Feature"},
	{"geometry":{"coordinates":[69.227467,33.59973],"type":"Point"},"properties":{"osm_id":"7190072700","tag":{"amenity":"waste_basket"}},"type":"Feature"},
	{"geometry":{"coordinates":[69.228383,33.60116],"type":"Point"},"properties":{"osm_id":"7190072701","tag":{"amenity":"waste_basket"}},"type":"Feature"},
	{"geometry":{"coordinates":[69.227925,33.600415],"type":"Point"},"properties":{"osm_id":"7190072702","tag":{"amenity":"waste_basket"}},"type":"Feature"},
	{"geometry":{"coordinates":[69.229547,33.59692],"type":"Point"},"properties":{"osm_id":"7190072703","tag":{"amenity":"waste_basket"}},"type":"Feature"},
	{"geometry":{"coordinates":[69.229784,33.597682],"type":"Point"},"properties":{"osm_id":"7190072704","tag":{"amenity":"waste_basket"}},"type":"Feature"},
	{"geometry":{"coordinates":[69.229371,33.599498],"type":"Point"},"properties":{"osm_id":"7190072705","tag":{"amenity":"waste_basket"}},"type":"Feature"},
	{"geometry":{"coordinates":[69.229143,33.59788],"type":"Point"},"properties":{"osm_id":"7190072706","tag":{"amenity":"waste_basket"}},"type":"Feature"},
	{"geometry":{"coordinates":[69.2299,33.598421],"type":"Point"},"properties":{"osm_id":"7190072707","tag":{"amenity":"waste_basket"}},"type":"Feature"},
	{"geometry":{"coordinates":[69.231585,33.598979],"type":"Point"},"properties":{"osm_id":"7190072708","tag":{"amenity":"waste_basket"}},"type":"Feature"},
	{"geometry":{"coordinates":[69.233038,33.598475],"type":"Point"},"properties":{"osm_id":"7190072709","tag":{"amenity":"waste_basket"}},"type":"Feature"},
	{"geometry":{"coordinates":[69.230457,33.598545],"type":"Point"},"properties":{"osm_id":"7190072710","tag":{"amenity":"waste_basket"}},"type":"Feature"},
	{"geometry":{"coordinates":[69.230907,33.598867],"type":"Point"},"properties":{"osm_id":"7190072711","tag":{"amenity":"waste_basket"}},"type":"Feature"},
	{"geometry":{"coordinates":[69.223874,33.597576],"type":"Point"},"properties":{"osm_id":"7190072712","tag":{"amenity":"waste_basket","power":"pole"}},"type":"Feature"},
	{"geometry":{"coordinates":[69.224026,33.596831],"type":"Point"},"properties":{"osm_id":"7190072713","tag":{"amenity":"waste_basket"}},"type":"Feature"},
	{"geometry":{"coordinates":[69.225452,33.596917],"type":"Point"},"properties":{"osm_id":"7190072714","tag":{"amenity":"waste_basket"}},"type":"Feature"},
	{"geometry":{"coordinates":[69.224833,33.595878],"type":"Point"},"properties":{"osm_id":"7190072715","tag":{"amenity":"waste_basket"}},"type":"Feature"},
	{"geometry":{"coordinates":[69.223039,33.600078],"type":"Point"},"properties":{"osm_id":"7190072716","tag":{"amenity":"waste_basket"}},"type":"Feature"},
	{"geometry":{"coordinates":[69.222629,33.604162],"type":"Point"},"properties":{"osm_id":"7190072717","tag":{"amenity":"waste_basket"}},"type":"Feature"},
	{"geometry":{"coordinates":[69.224236,33.605121],"type":"Point"},"properties":{"osm_id":"7190072718","tag":{"amenity":"waste_basket"}},"type":"Feature"},
	{"geometry":{"coordinates":[69.223707,33.599003],"type":"Point"},"properties":{"osm_id":"7190072719","tag":{"amenity":"waste_basket"}},"type":"Feature"},
	{"geometry":{"coordinates":[69.222295,33.59834],"type":"Point"},"properties":{"osm_id":"7190072720","tag":{"amenity":"waste_basket"}},"type":"Feature"},
	{"geometry":{"coordinates":[69.230171,33.629298],"type":"Point"},"properties":{"osm_id":"7190087335","tag":{"amenity":"waste_basket"}},"type":"Feature"},
	{"geometry":{"coordinates":[69.229969,33.617712],"type":"Point"},"properties":{"osm_id":"7190087336","tag":{"amenity":"waste_basket"}},"type":"Feature"},
	{"geometry":{"coordinates":[69.229984,33.614858],"type":"Point"},"properties":{"osm_id":"7190087337","tag":{"amenity":"waste_basket"}},"type":"Feature"},
	{"geometry":{"coordinates":[69.230291,33.622441],"type":"Point"},"properties":{"osm_id":"7190087338","tag":{"amenity":"waste_basket"}},"type":"Feature"},
	{"geometry":{"coordinates":[69.229699,33.624934],"type":"Point"},"properties":{"osm_id":"7190087339","tag":{"amenity":"waste_basket"}},"type":"Feature"},
	{"geometry":{"coordinates":[69.230054,33.628325],"type":"Point"},"properties":{"osm_id":"7190087340","tag":{"amenity":"waste_basket"}},"type":"Feature"}
]
}
