{
"type": "FeatureCollection",
"features": [
	{"geometry":{"coordinates":[-60.807292,-32.912139],"type":"Point"},"properties":{"osm_id":"2991048747","tag":{"amenity":"waste_basket","check_date":"2020-12-24"}},"type":"Feature"},
	{"geometry":{"coordinates":[-60.809298,-32.906129],"type":"Point"},"properties":{"osm_id":"3175863027","tag":{"amenity":"recycling","description":"Reciclado de pl\u00c3\u00a1sticos","recycling:plastic":"yes","recycling_type":"container"}},"type":"Feature"},
	{"geometry":{"coordinates":[-60.808332,-32.911951],"type":"Point"},"properties":{"osm_id":"3558830132","tag":{"amenity":"waste_basket","waste":"trash"}},"type":"Feature"},
	{"geometry":{"coordinates":[-60.808852,-32.906861],"type":"Point"},"properties":{"osm_id":"3577413713","tag":{"amenity":"waste_basket","check_date":"2021-02-05"}},"type":"Feature"},
	{"geometry":{"coordinates":[-60.809011,-32.906759],"type":"Point"},"properties":{"osm_id":"3578676600","tag":{"amenity":"waste_basket","check_date":"2021-02-05"}},"type":"Feature"},
	{"geometry":{"coordinates":[-60.792102,-32.89303],"type":"Point"},"properties":{"osm_id":"8401928300","tag":{"amenity":"waste_disposal"}},"type":"Feature"}
]
}
