{
"type": "FeatureCollection",
"features": [
	{"geometry":{"coordinates":[37.617637,55.741535],"type":"Point"},"properties":{"osm_id":"990244081","tag":{"amenity":"waste_disposal"}},"type":"Feature"},
	{"geometry":{"coordinates":[37.704998,55.745082],"type":"Point"},"properties":{"osm_id":"1179854785","tag":{"amenity":"recycling"}},"type":"Feature"},
	{"geometry":{"coordinates":[37.703245,55.744665],"type":"Point"},"properties":{"osm_id":"1179854802","tag":{"amenity":"waste_disposal","description":"\u00d1\u0081\u00d1\u0082\u00d1\u0080\u00d0\u00be\u00d0\u00b8\u00d1\u0082\u00d0\u00b5\u00d0\u00bb\u00d1\u008c\u00d0\u00bd\u00d1\u008b\u00d0\u00b9 \u00d0\u00ba\u00d0\u00be\u00d0\u00bd\u00d1\u0082\u00d0\u00b5\u00d0\u00b9\u00d0\u00bd\u00d0\u00b5\u00d1\u0080"}},"type":"Feature"},
	{"geometry":{"coordinates":[37.668824,55.756258],"type":"Point"},"properties":{"osm_id":"1262584849","tag":{"amenity":"waste_disposal"}},"type":"Feature"},
	{"geometry":{"coordinates":[37.704387,55.773361],"type":"Point"},"properties":{"osm_id":"1296067964","tag":{"amenity":"waste_disposal"}},"type":"Feature"},
	{"geometry":{"coordinates":[37.702299,55.747811],"type":"Point"},"properties":{"osm_id":"1412796063","tag":{"amenity":"waste_disposal"}},"type":"Feature"},
	{"geometry":{"coordinates":[37.700675,55.772038],"type":"Point"},"properties":{"osm_id":"1437413530","tag":{"amenity":"waste_disposal"}},"type":"Feature"},
	{"geometry":{"coordinates":[37.703522,55.772151],"type":"Point"},"properties":{"osm_id":"1437413537","tag":{"amenity":"waste_disposal"}},"type":"Feature"},
	{"geometry":{"coordinates":[37.637429,55.770462],"type":"Point"},"properties":{"osm_id":"1449349553","tag":{"amenity":"waste_disposal","waste":"trash"}},"type":"Feature"},
	{"geometry":{"coordinates":[37.683623,55.770363],"type":"Point"},"properties":{"osm_id":"1508429343","tag":{"amenity":"waste_disposal"}},"type":"Feature"},
	{"geometry":{"coordinates":[37.633771,55.770971],"type":"Point"},"properties":{"osm_id":"1561381506","tag":{"access":"private","amenity":"waste_disposal","waste":"trash"}},"type":"Feature"},
	{"geometry":{"coordinates":[37.63866,55.735752],"type":"Point"},"properties":{"osm_id":"1562848441","tag":{"amenity":"waste_disposal","covered":"yes","waste":"trash"}},"type":"Feature"},
	{"geometry":{"coordinates":[37.630123,55.735991],"type":"Point"},"properties":{"osm_id":"1762649545","tag":{"amenity":"waste_disposal","covered":"yes","waste":"trash"}},"type":"Feature"},
	{"geometry":{"coordinates":[37.640064,55.764952],"type":"Point"},"properties":{"osm_id":"1842973393","tag":{"amenity":"waste_disposal"}},"type":"Feature"},
	{"geometry":{"coordinates":[37.643514,55.765979],"type":"Point"},"properties":{"osm_id":"1846075043","tag":{"amenity":"waste_disposal"}},"type":"Feature"},
	{"geometry":{"coordinates":[37.649887,55.77152],"type":"Point"},"properties":{"osm_id":"1858202256","tag":{"amenity":"waste_disposal","waste":"trash"}},"type":"Feature"},
	{"geometry":{"coordinates":[37.668513,55.766567],"type":"Point"},"properties":{"osm_id":"1885291368","tag":{"amenity":"waste_disposal","waste":"trash"}},"type":"Feature"},
	{"geometry":{"coordinates":[37.668618,55.767768],"type":"Point"},"properties":{"osm_id":"1885292018","tag":{"amenity":"waste_disposal","waste":"trash"}},"type":"Feature"},
	{"geometry":{"coordinates":[37.668402,55.768004],"type":"Point"},"properties":{"osm_id":"1885292138","tag":{"amenity":"waste_disposal","waste":"trash"}},"type":"Feature"},
	{"geometry":{"coordinates":[37.666646,55.765605],"type":"Point"},"properties":{"osm_id":"1885936216","tag":{"amenity":"waste_disposal","waste":"trash"}},"type":"Feature"},
	{"geometry":{"coordinates":[37.665739,55.766675],"type":"Point"},"properties":{"osm_id":"1885936785","tag":{"amenity":"waste_disposal","waste":"trash"}},"type":"Feature"},
	{"geometry":{"coordinates":[37.669733,55.767002],"type":"Point"},"properties":{"osm_id":"1885936885","tag":{"amenity":"waste_disposal","waste":"trash"}},"type":"Feature"},
	{"geometry":{"coordinates":[37.668776,55.768167],"type":"Point"},"properties":{"osm_id":"1885937707","tag":{"amenity":"waste_disposal","waste":"trash"}},"type":"Feature"},
	{"geometry":{"coordinates":[37.669032,55.765984],"type":"Point"},"properties":{"osm_id":"1892859915","tag":{"amenity":"waste_disposal","waste":"trash"}},"type":"Feature"},
	{"geometry":{"coordinates":[37.666383,55.76515],"type":"Point"},"properties":{"osm_id":"1895331603","tag":{"amenity":"waste_disposal"}},"type":"Feature"},
	{"geometry":{"coordinates":[37.664164,55.764458],"type":"Point"},"properties":{"osm_id":"1895369403","tag":{"amenity":"waste_disposal"}},"type":"Feature"},
	{"geometry":{"coordinates":[37.679988,55.765669],"type":"Point"},"properties":{"osm_id":"1909945475","tag":{"amenity":"waste_basket"}},"type":"Feature"},
	{"geometry":{"coordinates":[37.67934,55.768921],"type":"Point"},"properties":{"osm_id":"1909945510","tag":{"amenity":"waste_basket"}},"type":"Feature"},
	{"geometry":{"coordinates":[37.631234,55.769549],"type":"Point"},"properties":{"osm_id":"2066561175","tag":{"access":"private","amenity":"waste_disposal","waste":"trash"}},"type":"Feature"},
	{"geometry":{"coordinates":[37.63016,55.769514],"type":"Point"},"properties":{"osm_id":"2140675145","tag":{"amenity":"waste_disposal","operator":"\u00d0\u009e\u00d0\u009e\u00d0\u009e \u00c2\u00ab\u00d0\u00ad\u00d0\u00ba\u00d0\u00be\u00d0\u009b\u00d0\u00b0\u00d0\u00b9\u00d0\u00bd\u00c2\u00bb","waste":"trash"}},"type":"Feature"},
	{"geometry":{"coordinates":[37.644588,55.764151],"type":"Point"},"properties":{"osm_id":"2196651661","tag":{"amenity":"waste_disposal","waste":"trash"}},"type":"Feature"},
	{"geometry":{"coordinates":[37.647877,55.770645],"type":"Point"},"properties":{"osm_id":"2305089841","tag":{"amenity":"waste_disposal","waste":"trash"}},"type":"Feature"},
	{"geometry":{"coordinates":[37.702883,55.772826],"type":"Point"},"properties":{"osm_id":"2320108738","tag":{"amenity":"waste_disposal"}},"type":"Feature"},
	{"geometry":{"coordinates":[37.644237,55.76298],"type":"Point"},"properties":{"osm_id":"2346909783","tag":{"amenity":"waste_disposal"}},"type":"Feature"},
	{"geometry":{"coordinates":[37.68404,55.738841],"type":"Point"},"properties":{"osm_id":"2407846984","tag":{"amenity":"recycling"}},"type":"Feature"},
	{"geometry":{"coordinates":[37.636783,55.758046],"type":"Point"},"properties":{"osm_id":"2509793602","tag":{"amenity":"waste_disposal"}},"type":"Feature"},
	{"geometry":{"coordinates":[37.641075,55.759268],"type":"Point"},"properties":{"osm_id":"2511951176","tag":{"amenity":"waste_disposal"}},"type":"Feature"},
	{"geometry":{"coordinates":[37.631238,55.770826],"type":"Point"},"properties":{"osm_id":"2559829811","tag":{"amenity":"waste_disposal","covered":"yes"}},"type":"Feature"},
	{"geometry":{"coordinates":[37.628861,55.745667],"type":"Point"},"properties":{"osm_id":"2582096461","tag":{"amenity":"waste_disposal"}},"type":"Feature"},
	{"geometry":{"coordinates":[37.687791,55.758924],"type":"Point"},"properties":{"osm_id":"2611301712","tag":{"amenity":"waste_disposal"}},"type":"Feature"},
	{"geometry":{"coordinates":[37.629117,55.774732],"type":"Point"},"properties":{"osm_id":"2673526479","tag":{"amenity":"waste_disposal","waste":"trash"}},"type":"Feature"},
	{"geometry":{"coordinates":[37.704611,55.771425],"type":"Point"},"properties":{"osm_id":"2674891750","tag":{"amenity":"waste_basket"}},"type":"Feature"},
	{"geometry":{"coordinates":[37.638068,55.76919],"type":"Point"},"properties":{"osm_id":"2782236113","tag":{"amenity":"waste_disposal","waste":"trash"}},"type":"Feature"},
	{"geometry":{"coordinates":[37.7015,55.733102],"type":"Point"},"properties":{"osm_id":"2821329257","tag":{"amenity":"recycling"}},"type":"Feature"},
	{"geometry":{"coordinates":[37.635784,55.769884],"type":"Point"},"properties":{"osm_id":"2859194171","tag":{"amenity":"waste_disposal","waste":"trash"}},"type":"Feature"},
	{"geometry":{"coordinates":[37.655459,55.740745],"type":"Point"},"properties":{"osm_id":"2971333625","tag":{"amenity":"waste_disposal"}},"type":"Feature"},
	{"geometry":{"coordinates":[37.655615,55.742337],"type":"Point"},"properties":{"osm_id":"3006972639","tag":{"amenity":"waste_disposal","waste":"trash"}},"type":"Feature"},
	{"geometry":{"coordinates":[37.655652,55.742436],"type":"Point"},"properties":{"osm_id":"3006972645","tag":{"amenity":"waste_disposal","waste":"trash"}},"type":"Feature"},
	{"geometry":{"coordinates":[37.657581,55.743019],"type":"Point"},"properties":{"osm_id":"3009464078","tag":{"amenity":"waste_disposal","waste":"trash"}},"type":"Feature"},
	{"geometry":{"coordinates":[37.658094,55.743087],"type":"Point"},"properties":{"osm_id":"3009464104","tag":{"amenity":"waste_disposal","waste":"trash"}},"type":"Feature"},
	{"geometry":{"coordinates":[37.65654,55.743319],"type":"Point"},"properties":{"osm_id":"3009464282","tag":{"amenity":"waste_disposal","waste":"trash"}},"type":"Feature"},
	{"geometry":{"coordinates":[37.658985,55.743418],"type":"Point"},"properties":{"osm_id":"3009464312","tag":{"amenity":"waste_disposal","waste":"trash"}},"type":"Feature"},
	{"geometry":{"coordinates":[37.658825,55.743474],"type":"Point"},"properties":{"osm_id":"3009464334","tag":{"amenity":"waste_disposal","waste":"trash"}},"type":"Feature"},
	{"geometry":{"coordinates":[37.660022,55.744264],"type":"Point"},"properties":{"osm_id":"3009464551","tag":{"amenity":"waste_disposal","waste":"trash"}},"type":"Feature"},
	{"geometry":{"coordinates":[37.622899,55.761492],"type":"Point"},"properties":{"osm_id":"3026682702","tag":{"amenity":"recycling","recycling_type":"container"}},"type":"Feature"},
	{"geometry":{"coordinates":[37.628355,55.735409],"type":"Point"},"properties":{"osm_id":"3057538921","tag":{"amenity":"waste_disposal"}},"type":"Feature"},
	{"geometry":{"coordinates":[37.63315,55.739653],"type":"Point"},"properties":{"osm_id":"3057550791","tag":{"amenity":"waste_disposal"}},"type":"Feature"},
	{"geometry":{"coordinates":[37.680386,55.773131],"type":"Point"},"properties":{"osm_id":"3076431558","tag":{"amenity":"waste_disposal"}},"type":"Feature"},
	{"geometry":{"coordinates":[37.629484,55.731514],"type":"Point"},"properties":{"osm_id":"3110550875","tag":{"amenity":"waste_disposal"}},"type":"Feature"},
	{"geometry":{"coordinates":[37.63219,55.734418],"type":"Point"},"properties":{"osm_id":"3110555002","tag":{"amenity":"waste_disposal"}},"type":"Feature"},
	{"geometry":{"coordinates":[37.63593,55.740668],"type":"Point"},"properties":{"osm_id":"3156124832","tag":{"amenity":"waste_disposal"}},"type":"Feature"},
	{"geometry":{"coordinates":[37.63316,55.7423],"type":"Point"},"properties":{"osm_id":"3156200235","tag":{"amenity":"waste_disposal","covered":"yes"}},"type":"Feature"},
	{"geometry":{"coordinates":[37.639862,55.769008],"type":"Point"},"properties":{"osm_id":"3197967220","tag":{"amenity":"waste_disposal","waste":"trash"}},"type":"Feature"},
	{"geometry":{"coordinates":[37.634268,55.771474],"type":"Point"},"properties":{"osm_id":"3197967221","tag":{"amenity":"waste_disposal","waste":"trash"}},"type":"Feature"},
	{"geometry":{"coordinates":[37.62556,55.74512],"type":"Point"},"properties":{"osm_id":"3275006295","tag":{"amenity":"recycling","recycling:cans":"yes","recycling:glass":"yes","recycling:paper":"yes","recycling:plastic_bottles":"yes","recycling_type":"container"}},"type":"Feature"},
	{"geometry":{"coordinates":[37.637813,55.735073],"type":"Point"},"properties":{"osm_id":"3319199561","tag":{"amenity":"waste_disposal"}},"type":"Feature"},
	{"geometry":{"coordinates":[37.652082,55.734308],"type":"Point"},"properties":{"osm_id":"3476625922","tag":{"amenity":"waste_disposal"}},"type":"Feature"},
	{"geometry":{"coordinates":[37.650051,55.734824],"type":"Point"},"properties":{"osm_id":"3476625954","tag":{"amenity":"waste_basket"}},"type":"Feature"},
	{"geometry":{"coordinates":[37.650199,55.734828],"type":"Point"},"properties":{"osm_id":"3476625958","tag":{"amenity":"waste_basket"}},"type":"Feature"},
	{"geometry":{"coordinates":[37.649939,55.734968],"type":"Point"},"properties":{"osm_id":"3476625973","tag":{"amenity":"waste_basket"}},"type":"Feature"},
	{"geometry":{"coordinates":[37.65008,55.735035],"type":"Point"},"properties":{"osm_id":"3476625978","tag":{"amenity":"waste_basket"}},"type":"Feature"},
	{"geometry":{"coordinates":[37.650938,55.735243],"type":"Point"},"properties":{"osm_id":"3476625992","tag":{"amenity":"waste_disposal"}},"type":"Feature"},
	{"geometry":{"coordinates":[37.6498,55.735399],"type":"Point"},"properties":{"osm_id":"3476626005","tag":{"amenity":"waste_basket"}},"type":"Feature"},
	{"geometry":{"coordinates":[37.649681,55.735611],"type":"Point"},"properties":{"osm_id":"3476626013","tag":{"amenity":"waste_basket"}},"type":"Feature"},
	{"geometry":{"coordinates":[37.649662,55.735648],"type":"Point"},"properties":{"osm_id":"3476626014","tag":{"amenity":"waste_basket"}},"type":"Feature"},
	{"geometry":{"coordinates":[37.650381,55.735999],"type":"Point"},"properties":{"osm_id":"3476626029","tag":{"amenity":"waste_disposal"}},"type":"Feature"},
	{"geometry":{"coordinates":[37.650878,55.73868],"type":"Point"},"properties":{"osm_id":"3476626133","tag":{"amenity":"waste_disposal"}},"type":"Feature"},
	{"geometry":{"coordinates":[37.661532,55.742613],"type":"Point"},"properties":{"osm_id":"3476766120","tag":{"amenity":"waste_disposal","waste":"trash"}},"type":"Feature"},
	{"geometry":{"coordinates":[37.661391,55.740856],"type":"Point"},"properties":{"osm_id":"3476803012","tag":{"amenity":"waste_disposal"}},"type":"Feature"},
	{"geometry":{"coordinates":[37.659366,55.741524],"type":"Point"},"properties":{"osm_id":"3476803253","tag":{"amenity":"waste_disposal"}},"type":"Feature"},
	{"geometry":{"coordinates":[37.663778,55.741544],"type":"Point"},"properties":{"osm_id":"3476803259","tag":{"amenity":"waste_disposal"}},"type":"Feature"},
	{"geometry":{"coordinates":[37.663169,55.74188],"type":"Point"},"properties":{"osm_id":"3476803289","tag":{"amenity":"waste_disposal"}},"type":"Feature"},
	{"geometry":{"coordinates":[37.658633,55.742126],"type":"Point"},"properties":{"osm_id":"3476845499","tag":{"amenity":"waste_disposal","waste":"trash"}},"type":"Feature"},
	{"geometry":{"coordinates":[37.659331,55.742193],"type":"Point"},"properties":{"osm_id":"3476845503","tag":{"amenity":"waste_disposal","waste":"trash"}},"type":"Feature"},
	{"geometry":{"coordinates":[37.659237,55.74221],"type":"Point"},"properties":{"osm_id":"3476845505","tag":{"amenity":"waste_disposal","waste":"trash"}},"type":"Feature"},
	{"geometry":{"coordinates":[37.65973,55.742332],"type":"Point"},"properties":{"osm_id":"3476845507","tag":{"amenity":"waste_disposal","waste":"trash"}},"type":"Feature"},
	{"geometry":{"coordinates":[37.663073,55.740622],"type":"Point"},"properties":{"osm_id":"3476937415","tag":{"amenity":"waste_basket"}},"type":"Feature"},
	{"geometry":{"coordinates":[37.663356,55.740656],"type":"Point"},"properties":{"osm_id":"3476937419","tag":{"amenity":"waste_basket"}},"type":"Feature"},
	{"geometry":{"coordinates":[37.663573,55.74079],"type":"Point"},"properties":{"osm_id":"3476937430","tag":{"amenity":"waste_basket"}},"type":"Feature"},
	{"geometry":{"coordinates":[37.663362,55.740796],"type":"Point"},"properties":{"osm_id":"3476937431","tag":{"amenity":"waste_basket"}},"type":"Feature"},
	{"geometry":{"coordinates":[37.66276,55.740821],"type":"Point"},"properties":{"osm_id":"3476937436","tag":{"amenity":"waste_basket"}},"type":"Feature"},
	{"geometry":{"coordinates":[37.663072,55.740821],"type":"Point"},"properties":{"osm_id":"3476937437","tag":{"amenity":"waste_basket"}},"type":"Feature"},
	{"geometry":{"coordinates":[37.663288,55.740947],"type":"Point"},"properties":{"osm_id":"3476937451","tag":{"amenity":"waste_basket"}},"type":"Feature"},
	{"geometry":{"coordinates":[37.663646,55.740952],"type":"Point"},"properties":{"osm_id":"3476937452","tag":{"amenity":"waste_basket"}},"type":"Feature"},
	{"geometry":{"coordinates":[37.662734,55.740955],"type":"Point"},"properties":{"osm_id":"3476937454","tag":{"amenity":"waste_basket"}},"type":"Feature"},
	{"geometry":{"coordinates":[37.662525,55.740964],"type":"Point"},"properties":{"osm_id":"3476937458","tag":{"amenity":"waste_basket"}},"type":"Feature"},
	{"geometry":{"coordinates":[37.663058,55.740967],"type":"Point"},"properties":{"osm_id":"3476937460","tag":{"amenity":"waste_basket"}},"type":"Feature"},
	{"geometry":{"coordinates":[37.663017,55.741111],"type":"Point"},"properties":{"osm_id":"3476937468","tag":{"amenity":"waste_basket"}},"type":"Feature"},
	{"geometry":{"coordinates":[37.662811,55.741111],"type":"Point"},"properties":{"osm_id":"3476937469","tag":{"amenity":"waste_basket"}},"type":"Feature"},
	{"geometry":{"coordinates":[37.66371,55.741119],"type":"Point"},"properties":{"osm_id":"3476937472","tag":{"amenity":"waste_basket"}},"type":"Feature"},
	{"geometry":{"coordinates":[37.663327,55.741122],"type":"Point"},"properties":{"osm_id":"3476937475","tag":{"amenity":"waste_basket"}},"type":"Feature"},
	{"geometry":{"coordinates":[37.662332,55.741149],"type":"Point"},"properties":{"osm_id":"3476937478","tag":{"amenity":"waste_basket"}},"type":"Feature"},
	{"geometry":{"coordinates":[37.663571,55.741179],"type":"Point"},"properties":{"osm_id":"3476937481","tag":{"amenity":"waste_basket"}},"type":"Feature"},
	{"geometry":{"coordinates":[37.663539,55.741196],"type":"Point"},"properties":{"osm_id":"3476937483","tag":{"amenity":"waste_basket"}},"type":"Feature"},
	{"geometry":{"coordinates":[37.662197,55.741226],"type":"Point"},"properties":{"osm_id":"3476937487","tag":{"amenity":"waste_basket"}},"type":"Feature"},
	{"geometry":{"coordinates":[37.662455,55.741227],"type":"Point"},"properties":{"osm_id":"3476937488","tag":{"amenity":"waste_basket"}},"type":"Feature"},
	{"geometry":{"coordinates":[37.658899,55.741242],"type":"Point"},"properties":{"osm_id":"3476937491","tag":{"amenity":"waste_disposal"}},"type":"Feature"},
	{"geometry":{"coordinates":[37.663096,55.741264],"type":"Point"},"properties":{"osm_id":"3476937895","tag":{"amenity":"waste_basket"}},"type":"Feature"},
	{"geometry":{"coordinates":[37.663378,55.741271],"type":"Point"},"properties":{"osm_id":"3476937896","tag":{"amenity":"waste_basket"}},"type":"Feature"},
	{"geometry":{"coordinates":[37.662346,55.741291],"type":"Point"},"properties":{"osm_id":"3476937900","tag":{"amenity":"waste_basket"}},"type":"Feature"},
	{"geometry":{"coordinates":[37.663344,55.741293],"type":"Point"},"properties":{"osm_id":"3476937902","tag":{"amenity":"waste_basket"}},"type":"Feature"},
	{"geometry":{"coordinates":[37.662579,55.741394],"type":"Point"},"properties":{"osm_id":"3476937906","tag":{"amenity":"waste_basket"}},"type":"Feature"},
	{"geometry":{"coordinates":[37.663654,55.741395],"type":"Point"},"properties":{"osm_id":"3476937907","tag":{"amenity":"waste_basket"}},"type":"Feature"},
	{"geometry":{"coordinates":[37.663487,55.741474],"type":"Point"},"properties":{"osm_id":"3476937912","tag":{"amenity":"waste_basket"}},"type":"Feature"},
	{"geometry":{"coordinates":[37.663675,55.741504],"type":"Point"},"properties":{"osm_id":"3476937917","tag":{"amenity":"waste_basket"}},"type":"Feature"},
	{"geometry":{"coordinates":[37.663085,55.741671],"type":"Point"},"properties":{"osm_id":"3476937922","tag":{"amenity":"waste_basket"}},"type":"Feature"},
	{"geometry":{"coordinates":[37.647696,55.74303],"type":"Point"},"properties":{"osm_id":"3477282084","tag":{"amenity":"waste_disposal"}},"type":"Feature"},
	{"geometry":{"coordinates":[37.659449,55.7417],"type":"Point"},"properties":{"osm_id":"3477295535","tag":{"amenity":"waste_basket"}},"type":"Feature"},
	{"geometry":{"coordinates":[37.660007,55.741223],"type":"Point"},"properties":{"osm_id":"3477350094","tag":{"amenity":"waste_disposal"}},"type":"Feature"},
	{"geometry":{"coordinates":[37.658672,55.735347],"type":"Point"},"properties":{"osm_id":"3478996663","tag":{"amenity":"waste_disposal"}},"type":"Feature"},
	{"geometry":{"coordinates":[37.660117,55.734609],"type":"Point"},"properties":{"osm_id":"3479011534","tag":{"amenity":"waste_disposal"}},"type":"Feature"},
	{"geometry":{"coordinates":[37.652891,55.735466],"type":"Point"},"properties":{"osm_id":"3482186196","tag":{"amenity":"waste_disposal"}},"type":"Feature"},
	{"geometry":{"coordinates":[37.642725,55.746555],"type":"Point"},"properties":{"osm_id":"3487356685","tag":{"amenity":"waste_basket"}},"type":"Feature"},
	{"geometry":{"coordinates":[37.655165,55.733318],"type":"Point"},"properties":{"osm_id":"3488951649","tag":{"amenity":"waste_disposal"}},"type":"Feature"},
	{"geometry":{"coordinates":[37.656615,55.737479],"type":"Point"},"properties":{"osm_id":"3495962084","tag":{"amenity":"waste_disposal"}},"type":"Feature"},
	{"geometry":{"coordinates":[37.649938,55.770108],"type":"Point"},"properties":{"osm_id":"3567125588","tag":{"amenity":"waste_disposal"}},"type":"Feature"},
	{"geometry":{"coordinates":[37.664342,55.745075],"type":"Point"},"properties":{"osm_id":"3669044106","tag":{"amenity":"waste_basket"}},"type":"Feature"},
	{"geometry":{"coordinates":[37.664395,55.744865],"type":"Point"},"properties":{"osm_id":"3669044111","tag":{"amenity":"waste_disposal"}},"type":"Feature"},
	{"geometry":{"coordinates":[37.704926,55.76625],"type":"Point"},"properties":{"osm_id":"3682478559","tag":{"amenity":"waste_basket"}},"type":"Feature"},
	{"geometry":{"coordinates":[37.671355,55.752637],"type":"Point"},"properties":{"name":"\u00d0\u00a1\u00d1\u0084\u00d0\u00b5\u00d1\u0080\u00d0\u00b0 \u00d0\u00ad\u00d0\u00ba\u00d0\u00be\u00d0\u00bb\u00d0\u00be\u00d0\u00b3\u00d0\u00b8\u00d0\u00b8","osm_id":"3697605323","tag":{"addr:city":"\u00d0\u009c\u00d0\u00be\u00d1\u0081\u00d0\u00ba\u00d0\u00b2\u00d0\u00b0","addr:housenumber":"10 \u00d1\u00813","addr:street":"\u00d0\u009d\u00d0\u00b8\u00d0\u00b6\u00d0\u00bd\u00d1\u008f\u00d1\u008f \u00d0\u00a1\u00d1\u008b\u00d1\u0080\u00d0\u00be\u00d0\u00bc\u00d1\u008f\u00d1\u0082\u00d0\u00bd\u00d0\u00b8\u00d1\u0087\u00d0\u00b5\u00d1\u0081\u00d0\u00ba\u00d0\u00b0\u00d1\u008f \u00d1\u0083\u00d0\u00bb\u00d0\u00b8\u00d1\u0086\u00d0\u00b0","amenity":"recycling","contact:website":"http://se8.su/","description":"\u00d0\u009a\u00d0\u00be\u00d0\u00bd\u00d1\u0082\u00d0\u00b5\u00d0\u00b9\u00d0\u00bd\u00d0\u00b5\u00d1\u0080\u00d1\u008b \u00d1\u0081\u00d0\u00b0\u00d0\u00bc\u00d0\u00be\u00d0\u00be\u00d0\u00b1\u00d1\u0081\u00d0\u00bb\u00d1\u0083\u00d0\u00b6\u00d0\u00b8\u00d0\u00b2\u00d0\u00b0\u00d0\u00bd\u00d0\u00b8\u00d1\u008f. \u00d0\u009f\u00d1\u0080\u00d0\u00b8\u00d1\u0091\u00d0\u00bc \u00d0\u00b2\u00d0\u00b5\u00d0\u00b4\u00d1\u0091\u00d1\u0082\u00d1\u0081\u00d1\u008f \u00d0\u00ba\u00d1\u0080\u00d1\u0083\u00d0\u00b3\u00d0\u00bb\u00d0\u00be\u00d1\u0081\u00d1\u0083\u00d1\u0082\u00d0\u00be\u00d1\u0087\u00d0\u00bd\u00d0\u00be, \u00d0\u00be\u00d0\u00b4\u00d0\u00bd\u00d0\u00b0\u00d0\u00ba\u00d0\u00be \u00d0\u00b2 \u00d0\u00bd\u00d0\u00be\u00d1\u0087\u00d0\u00bd\u00d0\u00be\u00d0\u00b5 \u00d0\u00b2\u00d1\u0080\u00d0\u00b5\u00d0\u00bc\u00d1\u008f \u00d0\u00b4\u00d0\u00be\u00d1\u0081\u00d1\u0082\u00d1\u0083\u00d0\u00bf \u00d0\u00bd\u00d0\u00b0 \u00d1\u0082\u00d0\u00b5\u00d1\u0080\u00d1\u0080\u00d0\u00b8\u00d1\u0082\u00d0\u00be\u00d1\u0080\u00d0\u00b8\u00d1\u008e Artplay \u00d0\u00be\u00d0\u00b3\u00d1\u0080\u00d0\u00b0\u00d0\u00bd\u00d0\u00b8\u00d1\u0087\u00d0\u00b5\u00d0\u00bd. \u00d0\u009e\u00d0\u00b1\u00d1\u008a\u00d0\u00b5\u00d0\u00bc \u00d0\u00be\u00d0\u00b3\u00d1\u0080\u00d0\u00b0\u00d0\u00bd\u00d0\u00b8\u00d1\u0087\u00d0\u00b5\u00d0\u00bd.","opening_hours":"24/7","operator":"\u00d0\u00a1\u00d1\u0084\u00d0\u00b5\u00d1\u0080\u00d0\u00b0 \u00d0\u00ad\u00d0\u00ba\u00d0\u00be\u00d0\u00bb\u00d0\u00be\u00d0\u00b3\u00d0\u00b8\u00d0\u00b8","operator:contact:email":"se@se8.su","operator:contact:facebook":"https://www.facebook.com/sferaecologii","operator:contact:instagram":"https://www.instagram.com/sfera_ecologii","operator:contact:phone":"+7\u00e2\u0080\u0089495\u00e2\u0080\u00892231615","operator:contact:twitter":"https://twitter.com/eco_sphere","operator:contact:vk":"https://vk.com/sferaecologii","operator:contact:website":"http://se8.su","operator:ref:inn":"7725388922","operator:ref:ogrn":"1177746848993","operator:ref:okpo":"19117727","phone":"+7 495 2231615","recycling:aerosol_cans":"no","recycling:aluminium":"yes","recycling:beverage_cartons":"yes","recycling:books":"yes","recycling:cans":"yes","recycling:cardboard":"yes","recycling:cartons":"yes","recycling:cds":"yes","recycling:clothes":"no","recycling:code:1":"yes","recycling:code:1:description":"\u00d0\u0091\u00d1\u0083\u00d1\u0082\u00d1\u008b\u00d0\u00bb\u00d0\u00ba\u00d0\u00b8 \u00d0\u00b8\u00d0\u00b7-\u00d0\u00bf\u00d0\u00be\u00d0\u00b4 \u00d0\u00b2\u00d0\u00be\u00d0\u00b4\u00d1\u008b \u00d0\u00b8 \u00d0\u00b4\u00d1\u0080\u00d1\u0083\u00d0\u00b3\u00d0\u00b8\u00d1\u0085 \u00d0\u00bd\u00d0\u00b0\u00d0\u00bf\u00d0\u00b8\u00d1\u0082\u00d0\u00ba\u00d0\u00be\u00d0\u00b2 (\u00d1\u0081 \u00d0\u00bf\u00d1\u0080\u00d0\u00be\u00d0\u00b1\u00d0\u00ba\u00d0\u00b0\u00d0\u00bc\u00d0\u00b8 \u00d0\u00b8 \u00d1\u008d\u00d1\u0082\u00d0\u00b8\u00d0\u00ba\u00d0\u00b5\u00d1\u0082\u00d0\u00ba\u00d0\u00b0\u00d0\u00bc\u00d0\u00b8), \u00d0\u00b1\u00d1\u0083\u00d1\u0082\u00d1\u008b\u00d0\u00bb\u00d0\u00ba\u00d0\u00b8 \u00d0\u00b8\u00d0\u00b7-\u00d0\u00bf\u00d0\u00be\u00d0\u00b4 \u00d0\u00bc\u00d0\u00b0\u00d1\u0081\u00d0\u00bb\u00d0\u00b0, \u00d0\u00b1\u00d0\u00b5\u00d0\u00bb\u00d1\u008b\u00d0\u00b5 \u00d0\u00b1\u00d1\u0083\u00d1\u0082\u00d1\u008b\u00d0\u00bb\u00d0\u00ba\u00d0\u00b8 \u00d0\u00b8\u00d0\u00b7-\u00d0\u00bf\u00d0\u00be\u00d0\u00b4 \u00d0\u00bc\u00d0\u00be\u00d0\u00bb\u00d0\u00be\u00d1\u0087\u00d0\u00bd\u00d1\u008b\u00d1\u0085 \u00d0\u00bf\u00d1\u0080\u00d0\u00be\u00d0\u00b4\u00d1\u0083\u00d0\u00ba\u00d1\u0082\u00d0\u00be\u00d0\u00b2","recycling:code:2":"yes","recycling:code:2:description":"\u00d0\u00a3\u00d0\u00bf\u00d0\u00b0\u00d0\u00ba\u00d0\u00be\u00d0\u00b2\u00d0\u00ba\u00d0\u00b8 \u00d0\u00be\u00d1\u0082 \u00d0\u00ba\u00d0\u00be\u00d1\u0081\u00d0\u00bc\u00d0\u00b5\u00d1\u0082\u00d0\u00b8\u00d1\u0087\u00d0\u00b5\u00d1\u0081\u00d0\u00ba\u00d0\u00b8\u00d1\u0085, \u00d0\u00bc\u00d0\u00be\u00d1\u008e\u00d1\u0089\u00d0\u00b8\u00d1\u0085 \u00d0\u00b8 \u00d1\u0087\u00d0\u00b8\u00d1\u0081\u00d1\u0082\u00d1\u008f\u00d1\u0089\u00d0\u00b8\u00d1\u0085 \u00d1\u0081\u00d1\u0080\u00d0\u00b5\u00d0\u00b4\u00d1\u0081\u00d1\u0082\u00d0\u00b2. \u00d0\u00ba\u00d0\u00b0\u00d0\u00bd\u00d0\u00b8\u00d1\u0081\u00d1\u0082\u00d1\u0080\u00d1\u008b, \u00d1\u0080\u00d0\u00b0\u00d0\u00b7\u00d0\u00bd\u00d0\u00be\u00d1\u0086\u00d0\u00b2\u00d0\u00b5\u00d1\u0082\u00d0\u00bd\u00d1\u008b\u00d0\u00b5 \u00d0\u00bf\u00d0\u00b0\u00d0\u00ba\u00d0\u00b5\u00d1\u0082\u00d1\u008b, \u00d0\u00ba\u00d0\u00be\u00d0\u00bd\u00d1\u0082\u00d0\u00b5\u00d0\u00b9\u00d0\u00bd\u00d0\u00b5\u00d1\u0080\u00d1\u008b \u00d0\u00b4\u00d0\u00bb\u00d1\u008f \u00d0\u00b5\u00d0\u00b4\u00d1\u008b \u00d0\u00b8 \u00d0\u00bf\u00d1\u0080\u00d0\u00be\u00d1\u0087\u00d0\u00b8\u00d0\u00b5 \u00d0\u00b8\u00d0\u00b7\u00d0\u00b4\u00d0\u00b5\u00d0\u00bb\u00d0\u00b8\u00d1\u008f \u00d1\u0081 \u00d0\u00bc\u00d0\u00b0\u00d1\u0080\u00d0\u00ba\u00d0\u00b8\u00d1\u0080\u00d0\u00be\u00d0\u00b2\u00d0\u00ba\u00d0\u00be\u00d0\u00b9 HDPE (2)","recycling:code:4":"yes","recycling:code:4:description":"\u00d0\u009f\u00d1\u0080\u00d0\u00be\u00d0\u00b7\u00d1\u0080\u00d0\u00b0\u00d1\u0087\u00d0\u00bd\u00d0\u00b0\u00d1\u008f \u00d1\u0083\u00d0\u00bf\u00d0\u00b0\u00d0\u00ba\u00d0\u00be\u00d0\u00b2\u00d0\u00be\u00d1\u0087\u00d0\u00bd\u00d0\u00b0\u00d1\u008f \u00d0\u00bf\u00d0\u00bb\u00d1\u0091\u00d0\u00bd\u00d0\u00ba\u00d0\u00b0, \u00d0\u00ba\u00d0\u00be\u00d0\u00bd\u00d1\u0082\u00d0\u00b5\u00d0\u00b9\u00d0\u00bd\u00d0\u00b5\u00d1\u0080\u00d1\u008b \u00d0\u00b4\u00d0\u00bb\u00d1\u008f \u00d0\u00b5\u00d0\u00b4\u00d1\u008b, \u00d0\u00ba\u00d0\u00b0\u00d0\u00bd\u00d0\u00b8\u00d1\u0081\u00d1\u0082\u00d1\u0080\u00d1\u008b, \u00d1\u0080\u00d0\u00b0\u00d0\u00b7\u00d0\u00bd\u00d0\u00be\u00d1\u0086\u00d0\u00b2\u00d0\u00b5\u00d1\u0082\u00d0\u00bd\u00d1\u008b\u00d0\u00b5 \u00d0\u00bf\u00d0\u00b0\u00d0\u00ba\u00d0\u00b5\u00d1\u0082\u00d1\u008b \u00d0\u00b8 \u00d0\u00bf\u00d1\u0080\u00d0\u00be\u00d1\u0087\u00d0\u00b8\u00d0\u00b5 \u00d0\u00b8\u00d0\u00b7\u00d0\u00b4\u00d0\u00b5\u00d0\u00bb\u00d0\u00b8\u00d1\u008f \u00d1\u0081 \u00d0\u00bc\u00d0\u00b0\u00d1\u0080\u00d0\u00ba\u00d0\u00b8\u00d1\u0080\u00d0\u00be\u00d0\u00b2\u00d0\u00ba\u00d0\u00be\u00d0\u00b9 LDPE (4)","recycling:code:5":"yes","recycling:code:5:description":"\u00d0\u00af\u00d1\u0089\u00d0\u00b8\u00d0\u00ba\u00d0\u00b8, \u00d1\u0082\u00d1\u0080\u00d1\u0083\u00d0\u00b1\u00d1\u008b, \u00d1\u0087\u00d0\u00b8\u00d1\u0081\u00d1\u0082\u00d0\u00b0\u00d1\u008f \u00d0\u00be\u00d0\u00b4\u00d0\u00bd\u00d0\u00be\u00d1\u0080\u00d0\u00b0\u00d0\u00b7\u00d0\u00be\u00d0\u00b2\u00d0\u00b0\u00d1\u008f \u00d0\u00bf\u00d0\u00be\u00d1\u0081\u00d1\u0083\u00d0\u00b4\u00d0\u00b0 \u00d0\u00b8\u00d0\u00b7 \u00d0\u00bf\u00d0\u00be\u00d0\u00bb\u00d0\u00b8\u00d0\u00bf\u00d1\u0080\u00d0\u00be\u00d0\u00bf\u00d0\u00b8\u00d0\u00bb\u00d0\u00b5\u00d0\u00bd\u00d0\u00b0","recycling:glass_bottles":"yes","recycling:glass_bottles:description":"\u00d0\u00a7\u00d0\u00b8\u00d1\u0081\u00d1\u0082\u00d1\u008b\u00d0\u00b5 \u00d1\u0081\u00d1\u0082\u00d0\u00b5\u00d0\u00ba\u00d0\u00bb\u00d1\u008f\u00d0\u00bd\u00d0\u00bd\u00d1\u008b\u00d0\u00b5 \u00d0\u00b1\u00d1\u0083\u00d1\u0082\u00d1\u008b\u00d0\u00bb\u00d0\u00ba\u00d0\u00b8, \u00d0\u00b1\u00d0\u00b0\u00d0\u00bd\u00d0\u00ba\u00d0\u00b8 \u00d0\u00bb\u00d1\u008e\u00d0\u00b1\u00d0\u00be\u00d0\u00b9 \u00d1\u0084\u00d0\u00be\u00d1\u0080\u00d0\u00bc\u00d1\u008b, \u00d0\u00be\u00d0\u00b1\u00d1\u008a\u00d1\u0091\u00d0\u00bc\u00d0\u00b0 \u00d0\u00b8 \u00d1\u0086\u00d0\u00b2\u00d0\u00b5\u00d1\u0082\u00d0\u00b0, \u00d0\u00b4\u00d1\u0080\u00d1\u0083\u00d0\u00b3\u00d0\u00b0\u00d1\u008f \u00d1\u0086\u00d0\u00b5\u00d0\u00bb\u00d0\u00b0\u00d1\u008f \u00d1\u0081\u00d1\u0082\u00d0\u00b5\u00d0\u00ba\u00d0\u00bb\u00d1\u008f\u00d0\u00bd\u00d0\u00bd\u00d0\u00b0\u00d1\u008f \u00d1\u0082\u00d0\u00b0\u00d1\u0080\u00d0\u00b0 \u00d0\u00bb\u00d1\u008e\u00d0\u00b1\u00d0\u00be\u00d0\u00b9 \u00d1\u0084\u00d0\u00be\u00d1\u0080\u00d0\u00bc\u00d1\u008b \u00d0\u00b8 \u00d1\u0086\u00d0\u00b2\u00d0\u00b5\u00d1\u0082\u00d0\u00b0 \u00d0\u00b2 \u00d1\u0086\u00d0\u00b5\u00d0\u00bb\u00d0\u00be\u00d0\u00bc \u00d0\u00b2\u00d0\u00b8\u00d0\u00b4\u00d0\u00b5","recycling:magazines":"yes","recycling:metal":"yes","recycling:metal:description":"\u00d0\u0096\u00d0\u00b5\u00d1\u0081\u00d1\u0082\u00d1\u008f\u00d0\u00bd\u00d1\u008b\u00d0\u00b5 (\u00d0\u00ba\u00d0\u00be\u00d0\u00bd\u00d1\u0081\u00d0\u00b5\u00d1\u0080\u00d0\u00b2\u00d0\u00bd\u00d1\u008b\u00d0\u00b5) \u00d0\u00b1\u00d0\u00b0\u00d0\u00bd\u00d0\u00ba\u00d0\u00b8 \u00d0\u00b2 \u00d1\u0087\u00d0\u00b8\u00d1\u0081\u00d1\u0082\u00d0\u00be\u00d0\u00bc \u00d0\u00b2\u00d0\u00b8\u00d0\u00b4\u00d0\u00b5, \u00d0\u00b0\u00d0\u00bb\u00d1\u008e\u00d0\u00bc\u00d0\u00b8\u00d0\u00bd\u00d0\u00b8\u00d0\u00b5\u00d0\u00b2\u00d1\u008b\u00d0\u00b5 \u00d0\u00b1\u00d0\u00b0\u00d0\u00bd\u00d0\u00ba\u00d0\u00b8 \u00d0\u00b8\u00d0\u00b7-\u00d0\u00bf\u00d0\u00be\u00d0\u00b4 \u00d0\u00bd\u00d0\u00b0\u00d0\u00bf\u00d0\u00b8\u00d1\u0082\u00d0\u00ba\u00d0\u00be\u00d0\u00b2 \u00d0\u00b2 \u00d1\u0087\u00d0\u00b8\u00d1\u0081\u00d1\u0082\u00d0\u00be\u00d0\u00bc \u00d0\u00b2\u00d0\u00b8\u00d0\u00b4\u00d0\u00b5, \u00d0\u00b4\u00d1\u0080\u00d1\u0083\u00d0\u00b3\u00d0\u00b8\u00d0\u00b5 \u00d0\u00b8\u00d0\u00b7\u00d0\u00b4\u00d0\u00b5\u00d0\u00bb\u00d0\u00b8\u00d1\u008f \u00d0\u00b8\u00d0\u00b7 \u00d0\u00bc\u00d0\u00b5\u00d1\u0082\u00d0\u00b0\u00d0\u00bb\u00d0\u00bb\u00d0\u00b0, \u00d0\u00bd\u00d0\u00b5\u00d0\u00b7\u00d0\u00b0\u00d0\u00b3\u00d1\u0080\u00d1\u008f\u00d0\u00b7\u00d0\u00bd\u00d0\u00b5\u00d0\u00bd\u00d0\u00bd\u00d0\u00b0\u00d1\u008f \u00d0\u00b0\u00d0\u00bb\u00d1\u008e\u00d0\u00bc\u00d0\u00b8\u00d0\u00bd\u00d0\u00b8\u00d0\u00b5\u00d0\u00b2\u00d0\u00b0\u00d1\u008f \u00d1\u0084\u00d0\u00be\u00d0\u00bb\u00d1\u008c\u00d0\u00b3\u00d0\u00b0","recycling:newspaper":"yes","recycling:paper":"yes","recycling:paper:description":"\u00d0\u009a\u00d0\u00b0\u00d1\u0080\u00d1\u0082\u00d0\u00be\u00d0\u00bd \u00d0\u00b8 \u00d0\u00ba\u00d0\u00b0\u00d1\u0080\u00d1\u0082\u00d0\u00be\u00d0\u00bd\u00d0\u00bd\u00d0\u00b0\u00d1\u008f \u00d1\u0083\u00d0\u00bf\u00d0\u00b0\u00d0\u00ba\u00d0\u00be\u00d0\u00b2\u00d0\u00ba\u00d0\u00b0, \u00d0\u00b1\u00d0\u00b5\u00d0\u00bb\u00d0\u00b0\u00d1\u008f \u00d0\u00b1\u00d1\u0083\u00d0\u00bc\u00d0\u00b0\u00d0\u00b3\u00d0\u00b0, \u00d0\u00b2 \u00d1\u0082.\u00d1\u0087. \u00d0\u00b1\u00d1\u0083\u00d0\u00bc\u00d0\u00b0\u00d0\u00b3\u00d0\u00b0 \u00d0\u00b8\u00d0\u00b7 \u00d1\u0088\u00d1\u0080\u00d0\u00b5\u00d0\u00b4\u00d0\u00b5\u00d1\u0080\u00d0\u00be\u00d0\u00b2, \u00d0\u00bf\u00d0\u00b5\u00d1\u0087\u00d0\u00b0\u00d1\u0082\u00d0\u00bd\u00d0\u00b0\u00d1\u008f \u00d0\u00bf\u00d1\u0080\u00d0\u00be\u00d0\u00b4\u00d1\u0083\u00d0\u00ba\u00d1\u0086\u00d0\u00b8\u00d1\u008f \u00d0\u00b1\u00d0\u00b5\u00d0\u00b7 \u00d0\u00bb\u00d0\u00b0\u00d0\u00bc\u00d0\u00b8\u00d0\u00bd\u00d0\u00b0\u00d1\u0086\u00d0\u00b8\u00d0\u00b8, \u00d1\u0081\u00d0\u00ba\u00d0\u00be\u00d0\u00b1 \u00d0\u00b8 \u00d0\u00b8\u00d0\u00bd\u00d1\u008b\u00d1\u0085 \u00d0\u00bf\u00d0\u00be\u00d1\u0081\u00d1\u0082\u00d0\u00be\u00d1\u0080\u00d0\u00be\u00d0\u00bd\u00d0\u00bd\u00d0\u00b8\u00d1\u0085 \u00d0\u00bf\u00d1\u0080\u00d0\u00b5\u00d0\u00b4\u00d0\u00bc\u00d0\u00b5\u00d1\u0082\u00d0\u00be\u00d0\u00b2","recycling:plastic":"yes","recycling:plastic:description":"\u00d0\u009a\u00d0\u00be\u00d0\u00bc\u00d0\u00bf\u00d0\u00b0\u00d0\u00ba\u00d1\u0082-\u00d0\u00b4\u00d0\u00b8\u00d1\u0081\u00d0\u00ba\u00d0\u00b8, \u00d0\u00b2\u00d1\u0081\u00d0\u00bf\u00d0\u00b5\u00d0\u00bd\u00d0\u00b5\u00d0\u00bd\u00d0\u00bd\u00d0\u00b0\u00d1\u008f \u00d0\u00bf\u00d0\u00be\u00d0\u00bb\u00d0\u00b8\u00d1\u008d\u00d1\u0082\u00d0\u00b8\u00d0\u00bb\u00d0\u00b5\u00d0\u00bd\u00d0\u00be\u00d0\u00b2\u00d0\u00b0\u00d1\u008f \u00d0\u00bf\u00d0\u00bb\u00d0\u00b5\u00d0\u00bd\u00d0\u00ba\u00d0\u00b0 \u00d0\u00be\u00d1\u0082 \u00d1\u0082\u00d0\u00b5\u00d1\u0085\u00d0\u00bd\u00d0\u00b8\u00d0\u00ba\u00d0\u00b8, \u00d1\u0083\u00d0\u00bf\u00d0\u00b0\u00d0\u00ba\u00d0\u00be\u00d0\u00b2\u00d0\u00be\u00d1\u0087\u00d0\u00bd\u00d0\u00b0\u00d1\u008f \u00d1\u0081\u00d1\u0082\u00d1\u0080\u00d0\u00b5\u00d0\u00b9\u00d1\u0087-\u00d0\u00bf\u00d0\u00bb\u00d0\u00b5\u00d0\u00bd\u00d0\u00ba\u00d0\u00b0 \u00d0\u00b8 \u00d0\u00b2\u00d0\u00be\u00d0\u00b7\u00d0\u00b4\u00d1\u0083\u00d1\u0088\u00d0\u00bd\u00d0\u00be-\u00d0\u00bf\u00d1\u0083\u00d0\u00b7\u00d1\u008b\u00d1\u0080\u00d1\u008c\u00d0\u00ba\u00d0\u00be\u00d0\u00b2\u00d0\u00b0\u00d1\u008f \u00d0\u00bf\u00d0\u00bb\u00d0\u00b5\u00d0\u00bd\u00d0\u00ba\u00d0\u00b0, \u00d0\u00b1\u00d0\u00be\u00d0\u00bb\u00d1\u008c\u00d1\u0088\u00d0\u00b8\u00d0\u00b5 \u00d0\u00bc\u00d0\u00b5\u00d1\u0088\u00d0\u00ba\u00d0\u00b8 \u00d0\u00b8\u00d0\u00b7-\u00d0\u00bf\u00d0\u00be\u00d0\u00b4 \u00d1\u0081\u00d0\u00b0\u00d1\u0085\u00d0\u00b0\u00d1\u0080\u00d0\u00b0 \u00d0\u00b8 \u00d0\u00ba\u00d0\u00b0\u00d1\u0080\u00d1\u0082\u00d0\u00be\u00d1\u0084\u00d0\u00b5\u00d0\u00bb\u00d1\u008f","recycling:plastic_bottles":"yes","recycling:plastic_packaging":"no","recycling:shoes":"no","recycling_type":"container","source:recycling:fractions":"http://se.su/people"}},"type":"Feature"},
	{"geometry":{"coordinates":[37.632373,55.742326],"type":"Point"},"properties":{"osm_id":"3722536516","tag":{"amenity":"waste_disposal"}},"type":"Feature"},
	{"geometry":{"coordinates":[37.63651,55.766251],"type":"Point"},"properties":{"osm_id":"3894721446","tag":{"amenity":"waste_basket"}},"type":"Feature"},
	{"geometry":{"coordinates":[37.705077,55.765051],"type":"Point"},"properties":{"osm_id":"3968379048","tag":{"amenity":"waste_disposal","waste":"trash"}},"type":"Feature"},
	{"geometry":{"coordinates":[37.626297,55.769699],"type":"Point"},"properties":{"osm_id":"4080475591","tag":{"amenity":"waste_disposal","covered":"yes","operator":"\u00d0\u009e\u00d0\u009e\u00d0\u009e \u00c2\u00ab\u00d0\u00ad\u00d0\u00ba\u00d0\u00be\u00d0\u009b\u00d0\u00b0\u00d0\u00b9\u00d0\u00bd\u00c2\u00bb"}},"type":"Feature"},
	{"geometry":{"coordinates":[37.626747,55.74023],"type":"Point"},"properties":{"osm_id":"4139540673","tag":{"amenity":"waste_disposal"}},"type":"Feature"},
	{"geometry":{"coordinates":[37.625435,55.738254],"type":"Point"},"properties":{"osm_id":"4141018880","tag":{"amenity":"waste_disposal"}},"type":"Feature"},
	{"geometry":{"coordinates":[37.662577,55.732955],"type":"Point"},"properties":{"osm_id":"4142825992","tag":{"amenity":"waste_disposal"}},"type":"Feature"},
	{"geometry":{"coordinates":[37.660352,55.733158],"type":"Point"},"properties":{"osm_id":"4142825995","tag":{"amenity":"waste_disposal"}},"type":"Feature"},
	{"geometry":{"coordinates":[37.619385,55.757996],"type":"Point"},"properties":{"osm_id":"4180937679","tag":{"amenity":"waste_basket"}},"type":"Feature"},
	{"geometry":{"coordinates":[37.619415,55.757944],"type":"Point"},"properties":{"osm_id":"4180950294","tag":{"amenity":"waste_basket"}},"type":"Feature"},
	{"geometry":{"coordinates":[37.619602,55.758036],"type":"Point"},"properties":{"osm_id":"4180950390","tag":{"amenity":"waste_basket"}},"type":"Feature"},
	{"geometry":{"coordinates":[37.619351,55.758055],"type":"Point"},"properties":{"osm_id":"4180950394","tag":{"amenity":"waste_basket"}},"type":"Feature"},
	{"geometry":{"coordinates":[37.62016,55.758073],"type":"Point"},"properties":{"osm_id":"4180950396","tag":{"amenity":"waste_basket"}},"type":"Feature"},
	{"geometry":{"coordinates":[37.619917,55.758099],"type":"Point"},"properties":{"osm_id":"4180950401","tag":{"amenity":"waste_basket"}},"type":"Feature"},
	{"geometry":{"coordinates":[37.619315,55.758117],"type":"Point"},"properties":{"osm_id":"4180950405","tag":{"amenity":"waste_basket"}},"type":"Feature"},
	{"geometry":{"coordinates":[37.620128,55.758128],"type":"Point"},"properties":{"osm_id":"4180950409","tag":{"amenity":"waste_basket"}},"type":"Feature"},
	{"geometry":{"coordinates":[37.619542,55.758138],"type":"Point"},"properties":{"osm_id":"4180950410","tag":{"amenity":"waste_basket"}},"type":"Feature"},
	{"geometry":{"coordinates":[37.619862,55.758202],"type":"Point"},"properties":{"osm_id":"4180950418","tag":{"amenity":"waste_basket"}},"type":"Feature"},
	{"geometry":{"coordinates":[37.620058,55.75825],"type":"Point"},"properties":{"osm_id":"4180950429","tag":{"amenity":"waste_basket"}},"type":"Feature"},
	{"geometry":{"coordinates":[37.617701,55.756573],"type":"Point"},"properties":{"osm_id":"4183570269","tag":{"amenity":"waste_basket"}},"type":"Feature"},
	{"geometry":{"coordinates":[37.617864,55.75662],"type":"Point"},"properties":{"osm_id":"4183570278","tag":{"amenity":"waste_basket"}},"type":"Feature"},
	{"geometry":{"coordinates":[37.617685,55.756636],"type":"Point"},"properties":{"osm_id":"4183570282","tag":{"amenity":"waste_basket"}},"type":"Feature"},
	{"geometry":{"coordinates":[37.617932,55.756708],"type":"Point"},"properties":{"osm_id":"4183570291","tag":{"amenity":"waste_basket"}},"type":"Feature"},
	{"geometry":{"coordinates":[37.617979,55.756737],"type":"Point"},"properties":{"osm_id":"4183570296","tag":{"amenity":"waste_basket"}},"type":"Feature"},
	{"geometry":{"coordinates":[37.617929,55.756776],"type":"Point"},"properties":{"osm_id":"4183570302","tag":{"amenity":"waste_basket"}},"type":"Feature"},
	{"geometry":{"coordinates":[37.618221,55.756795],"type":"Point"},"properties":{"osm_id":"4183570305","tag":{"amenity":"waste_basket"}},"type":"Feature"},
	{"geometry":{"coordinates":[37.618079,55.756803],"type":"Point"},"properties":{"osm_id":"4183570306","tag":{"amenity":"waste_basket"}},"type":"Feature"},
	{"geometry":{"coordinates":[37.618129,55.756902],"type":"Point"},"properties":{"osm_id":"4183570315","tag":{"amenity":"waste_basket"}},"type":"Feature"},
	{"geometry":{"coordinates":[37.632244,55.743394],"type":"Point"},"properties":{"osm_id":"4202049389","tag":{"amenity":"waste_disposal"}},"type":"Feature"},
	{"geometry":{"coordinates":[37.636158,55.759355],"type":"Point"},"properties":{"osm_id":"4224061294","tag":{"amenity":"waste_disposal"}},"type":"Feature"},
	{"geometry":{"coordinates":[37.669919,55.772849],"type":"Point"},"properties":{"osm_id":"4261811906","tag":{"amenity":"waste_basket"}},"type":"Feature"},
	{"geometry":{"coordinates":[37.669717,55.773081],"type":"Point"},"properties":{"osm_id":"4261811910","tag":{"amenity":"waste_basket"}},"type":"Feature"},
	{"geometry":{"coordinates":[37.669779,55.77318],"type":"Point"},"properties":{"osm_id":"4261811911","tag":{"amenity":"waste_basket"}},"type":"Feature"},
	{"geometry":{"coordinates":[37.700569,55.765957],"type":"Point"},"properties":{"osm_id":"4265976890","tag":{"amenity":"waste_disposal","operator":"\u00d0\u00a1\u00d1\u0082\u00d0\u00b0\u00d1\u0086\u00d0\u00b8\u00d0\u00be\u00d0\u00bd\u00d0\u00b0\u00d1\u0080 \u00d0\u00ba\u00d0\u00bb\u00d0\u00b8\u00d0\u00bd\u00d0\u00b8\u00d0\u00ba\u00d0\u00b8 \"\u00d0\u00a1\u00d0\u00b5\u00d0\u00bc\u00d0\u00b5\u00d0\u00b9\u00d0\u00bd\u00d0\u00b0\u00d1\u008f\""}},"type":"Feature"},
	{"geometry":{"coordinates":[37.682503,55.751061],"type":"Point"},"properties":{"osm_id":"4287107590","tag":{"amenity":"waste_disposal"}},"type":"Feature"},
	{"geometry":{"coordinates":[37.668192,55.753307],"type":"Point"},"properties":{"osm_id":"4292656586","tag":{"amenity":"waste_disposal"}},"type":"Feature"},
	{"geometry":{"coordinates":[37.6352,55.769064],"type":"Point"},"properties":{"osm_id":"4309692366","tag":{"amenity":"waste_disposal"}},"type":"Feature"},
	{"geometry":{"coordinates":[37.703579,55.76625],"type":"Point"},"properties":{"osm_id":"4320690693","tag":{"amenity":"waste_disposal"}},"type":"Feature"},
	{"geometry":{"coordinates":[37.641491,55.75529],"type":"Point"},"properties":{"osm_id":"4325195002","tag":{"amenity":"waste_disposal"}},"type":"Feature"},
	{"geometry":{"coordinates":[37.623313,55.755388],"type":"Point"},"properties":{"osm_id":"4333930177","tag":{"amenity":"recycling","contact:phone":"+7 495 6636560","contact:website":"http://ec-line.ru","operator":"\u00d0\u009e\u00d0\u009e\u00d0\u009e \u00c2\u00ab\u00d0\u00ad\u00d0\u00ba\u00d0\u00be\u00d0\u009b\u00d0\u00b0\u00d0\u00b9\u00d0\u00bd\u00c2\u00bb","recycling:glass":"yes","recycling:paper":"yes","recycling:plastic":"yes","recycling:scrap_metal":"yes","recycling_type":"container"}},"type":"Feature"},
	{"geometry":{"coordinates":[37.684665,55.772093],"type":"Point"},"properties":{"osm_id":"4558489532","tag":{"amenity":"waste_disposal"}},"type":"Feature"},
	{"geometry":{"coordinates":[37.693002,55.765653],"type":"Point"},"properties":{"osm_id":"4558557418","tag":{"amenity":"waste_basket"}},"type":"Feature"},
	{"geometry":{"coordinates":[37.691786,55.763034],"type":"Point"},"properties":{"osm_id":"4558574635","tag":{"amenity":"waste_basket"}},"type":"Feature"},
	{"geometry":{"coordinates":[37.69169,55.762968],"type":"Point"},"properties":{"osm_id":"4558574636","tag":{"amenity":"waste_basket"}},"type":"Feature"},
	{"geometry":{"coordinates":[37.620618,55.764775],"type":"Point"},"properties":{"osm_id":"4566906207","tag":{"amenity":"waste_disposal"}},"type":"Feature"},
	{"geometry":{"coordinates":[37.703987,55.765523],"type":"Point"},"properties":{"osm_id":"4599059641","tag":{"amenity":"waste_disposal"}},"type":"Feature"},
	{"geometry":{"coordinates":[37.681477,55.775879],"type":"Point"},"properties":{"osm_id":"4628175723","tag":{"amenity":"waste_basket"}},"type":"Feature"},
	{"geometry":{"coordinates":[37.681444,55.775909],"type":"Point"},"properties":{"osm_id":"4628175724","tag":{"amenity":"waste_basket"}},"type":"Feature"},
	{"geometry":{"coordinates":[37.682012,55.774329],"type":"Point"},"properties":{"osm_id":"4628175786","tag":{"amenity":"waste_disposal"}},"type":"Feature"},
	{"geometry":{"coordinates":[37.680132,55.775949],"type":"Point"},"properties":{"osm_id":"4628176008","tag":{"amenity":"waste_disposal"}},"type":"Feature"},
	{"geometry":{"coordinates":[37.655266,55.735743],"type":"Point"},"properties":{"osm_id":"4666450035","tag":{"amenity":"waste_disposal"}},"type":"Feature"},
	{"geometry":{"coordinates":[37.679364,55.775852],"type":"Point"},"properties":{"osm_id":"4680817630","tag":{"amenity":"waste_basket"}},"type":"Feature"},
	{"geometry":{"coordinates":[37.628385,55.744221],"type":"Point"},"properties":{"osm_id":"4712110574","tag":{"amenity":"waste_disposal"}},"type":"Feature"},
	{"geometry":{"coordinates":[37.658467,55.753463],"type":"Point"},"properties":{"osm_id":"4736659948","tag":{"amenity":"waste_disposal"}},"type":"Feature"},
	{"geometry":{"coordinates":[37.676918,55.750799],"type":"Point"},"properties":{"osm_id":"4738369785","tag":{"amenity":"waste_disposal"}},"type":"Feature"},
	{"geometry":{"coordinates":[37.656779,55.759117],"type":"Point"},"properties":{"osm_id":"4745818752","tag":{"amenity":"waste_disposal"}},"type":"Feature"},
	{"geometry":{"coordinates":[37.671544,55.734597],"type":"Point"},"properties":{"osm_id":"4837905423","tag":{"amenity":"waste_disposal"}},"type":"Feature"},
	{"geometry":{"coordinates":[37.675915,55.770349],"type":"Point"},"properties":{"osm_id":"4941285252","tag":{"amenity":"waste_basket"}},"type":"Feature"},
	{"geometry":{"coordinates":[37.67603,55.770342],"type":"Point"},"properties":{"osm_id":"4941285254","tag":{"amenity":"waste_basket"}},"type":"Feature"},
	{"geometry":{"coordinates":[37.625653,55.744882],"type":"Point"},"properties":{"osm_id":"4977179971","tag":{"amenity":"waste_disposal"}},"type":"Feature"},
	{"geometry":{"coordinates":[37.655221,55.742095],"type":"Point"},"properties":{"osm_id":"4982234792","tag":{"amenity":"waste_basket"}},"type":"Feature"},
	{"geometry":{"coordinates":[37.629563,55.741986],"type":"Point"},"properties":{"osm_id":"4983945230","tag":{"amenity":"waste_disposal"}},"type":"Feature"},
	{"geometry":{"coordinates":[37.629563,55.74197],"type":"Point"},"properties":{"osm_id":"4983945231","tag":{"amenity":"waste_disposal"}},"type":"Feature"},
	{"geometry":{"coordinates":[37.632322,55.73764],"type":"Point"},"properties":{"osm_id":"4991373896","tag":{"amenity":"waste_disposal"}},"type":"Feature"},
	{"geometry":{"coordinates":[37.629872,55.758818],"type":"Point"},"properties":{"osm_id":"4997150433","tag":{"amenity":"waste_disposal"}},"type":"Feature"},
	{"geometry":{"coordinates":[37.629783,55.758889],"type":"Point"},"properties":{"osm_id":"4997150434","tag":{"amenity":"waste_disposal"}},"type":"Feature"},
	{"geometry":{"coordinates":[37.634075,55.737369],"type":"Point"},"properties":{"osm_id":"5009572028","tag":{"amenity":"waste_disposal"}},"type":"Feature"},
	{"geometry":{"coordinates":[37.634638,55.73518],"type":"Point"},"properties":{"osm_id":"5012428460","tag":{"amenity":"waste_disposal"}},"type":"Feature"},
	{"geometry":{"coordinates":[37.631429,55.736073],"type":"Point"},"properties":{"osm_id":"5022604846","tag":{"amenity":"waste_disposal"}},"type":"Feature"},
	{"geometry":{"coordinates":[37.628877,55.7374],"type":"Point"},"properties":{"osm_id":"5024640547","tag":{"amenity":"waste_disposal"}},"type":"Feature"},
	{"geometry":{"coordinates":[37.635739,55.755458],"type":"Point"},"properties":{"osm_id":"5052540521","tag":{"amenity":"waste_basket"}},"type":"Feature"},
	{"geometry":{"coordinates":[37.635609,55.755661],"type":"Point"},"properties":{"osm_id":"5052677005","tag":{"amenity":"waste_basket"}},"type":"Feature"},
	{"geometry":{"coordinates":[37.635992,55.756387],"type":"Point"},"properties":{"osm_id":"5052677020","tag":{"amenity":"waste_basket"}},"type":"Feature"},
	{"geometry":{"coordinates":[37.636069,55.75639],"type":"Point"},"properties":{"osm_id":"5052677321","tag":{"amenity":"waste_basket"}},"type":"Feature"},
	{"geometry":{"coordinates":[37.635981,55.755749],"type":"Point"},"properties":{"osm_id":"5052677330","tag":{"amenity":"waste_basket"}},"type":"Feature"},
	{"geometry":{"coordinates":[37.635653,55.755981],"type":"Point"},"properties":{"osm_id":"5052677332","tag":{"amenity":"waste_basket"}},"type":"Feature"},
	{"geometry":{"coordinates":[37.635711,55.755931],"type":"Point"},"properties":{"osm_id":"5052677333","tag":{"amenity":"waste_basket"}},"type":"Feature"},
	{"geometry":{"coordinates":[37.635854,55.756127],"type":"Point"},"properties":{"osm_id":"5056986076","tag":{"amenity":"waste_basket"}},"type":"Feature"},
	{"geometry":{"coordinates":[37.636056,55.755808],"type":"Point"},"properties":{"osm_id":"5056986077","tag":{"amenity":"waste_basket"}},"type":"Feature"},
	{"geometry":{"coordinates":[37.635873,55.756022],"type":"Point"},"properties":{"osm_id":"5056986079","tag":{"amenity":"waste_basket"}},"type":"Feature"},
	{"geometry":{"coordinates":[37.637177,55.755328],"type":"Point"},"properties":{"osm_id":"5056987274","tag":{"amenity":"waste_basket"}},"type":"Feature"},
	{"geometry":{"coordinates":[37.637299,55.755304],"type":"Point"},"properties":{"osm_id":"5056987275","tag":{"amenity":"waste_basket"}},"type":"Feature"},
	{"geometry":{"coordinates":[37.637506,55.755235],"type":"Point"},"properties":{"osm_id":"5056987276","tag":{"amenity":"waste_basket"}},"type":"Feature"},
	{"geometry":{"coordinates":[37.637491,55.755306],"type":"Point"},"properties":{"osm_id":"5056987279","tag":{"amenity":"waste_basket"}},"type":"Feature"},
	{"geometry":{"coordinates":[37.63632,55.755923],"type":"Point"},"properties":{"osm_id":"5057364875","tag":{"amenity":"waste_basket"}},"type":"Feature"},
	{"geometry":{"coordinates":[37.637069,55.756456],"type":"Point"},"properties":{"osm_id":"5058980927","tag":{"amenity":"waste_disposal"}},"type":"Feature"},
	{"geometry":{"coordinates":[37.635684,55.756019],"type":"Point"},"properties":{"osm_id":"5058980951","tag":{"amenity":"waste_basket"}},"type":"Feature"},
	{"geometry":{"coordinates":[37.635787,55.756809],"type":"Point"},"properties":{"osm_id":"5058980959","tag":{"amenity":"waste_basket"}},"type":"Feature"},
	{"geometry":{"coordinates":[37.636005,55.756582],"type":"Point"},"properties":{"osm_id":"5058980968","tag":{"amenity":"waste_basket"}},"type":"Feature"},
	{"geometry":{"coordinates":[37.635883,55.756637],"type":"Point"},"properties":{"osm_id":"5063228279","tag":{"amenity":"waste_basket"}},"type":"Feature"},
	{"geometry":{"coordinates":[37.636628,55.756158],"type":"Point"},"properties":{"osm_id":"5063228306","tag":{"amenity":"waste_basket"}},"type":"Feature"},
	{"geometry":{"coordinates":[37.637222,55.755253],"type":"Point"},"properties":{"osm_id":"5063228340","tag":{"amenity":"waste_basket"}},"type":"Feature"},
	{"geometry":{"coordinates":[37.636871,55.754982],"type":"Point"},"properties":{"osm_id":"5063228354","tag":{"amenity":"waste_basket"}},"type":"Feature"},
	{"geometry":{"coordinates":[37.636692,55.754937],"type":"Point"},"properties":{"osm_id":"5063228362","tag":{"amenity":"waste_basket"}},"type":"Feature"},
	{"geometry":{"coordinates":[37.636733,55.754921],"type":"Point"},"properties":{"osm_id":"5063228363","tag":{"amenity":"waste_basket"}},"type":"Feature"},
	{"geometry":{"coordinates":[37.636654,55.75487],"type":"Point"},"properties":{"osm_id":"5063228364","tag":{"amenity":"waste_basket"}},"type":"Feature"},
	{"geometry":{"coordinates":[37.650331,55.737146],"type":"Point"},"properties":{"osm_id":"5095038402","tag":{"amenity":"waste_basket"}},"type":"Feature"},
	{"geometry":{"coordinates":[37.651986,55.736912],"type":"Point"},"properties":{"osm_id":"5095040261","tag":{"amenity":"waste_disposal"}},"type":"Feature"},
	{"geometry":{"coordinates":[37.652997,55.737096],"type":"Point"},"properties":{"osm_id":"5095040266","tag":{"amenity":"waste_disposal"}},"type":"Feature"},
	{"geometry":{"coordinates":[37.657649,55.733459],"type":"Point"},"properties":{"osm_id":"5106056321","tag":{"amenity":"waste_basket"}},"type":"Feature"},
	{"geometry":{"coordinates":[37.63748,55.727224],"type":"Point"},"properties":{"osm_id":"5114987227","tag":{"amenity":"waste_basket"}},"type":"Feature"},
	{"geometry":{"coordinates":[37.620229,55.769598],"type":"Point"},"properties":{"osm_id":"5134007980","tag":{"amenity":"waste_disposal"}},"type":"Feature"},
	{"geometry":{"coordinates":[37.619223,55.771124],"type":"Point"},"properties":{"osm_id":"5134008044","tag":{"amenity":"waste_disposal"}},"type":"Feature"},
	{"geometry":{"coordinates":[37.619449,55.771936],"type":"Point"},"properties":{"osm_id":"5134008166","tag":{"amenity":"waste_disposal"}},"type":"Feature"},
	{"geometry":{"coordinates":[37.641436,55.755267],"type":"Point"},"properties":{"osm_id":"5141561603","tag":{"amenity":"waste_disposal"}},"type":"Feature"},
	{"geometry":{"coordinates":[37.647274,55.756697],"type":"Point"},"properties":{"osm_id":"5141956943","tag":{"amenity":"waste_disposal"}},"type":"Feature"},
	{"geometry":{"coordinates":[37.645694,55.757052],"type":"Point"},"properties":{"osm_id":"5141957059","tag":{"amenity":"waste_disposal"}},"type":"Feature"},
	{"geometry":{"coordinates":[37.645459,55.754405],"type":"Point"},"properties":{"osm_id":"5144047199","tag":{"amenity":"waste_disposal"}},"type":"Feature"},
	{"geometry":{"coordinates":[37.640782,55.753231],"type":"Point"},"properties":{"osm_id":"5149643989","tag":{"amenity":"waste_disposal"}},"type":"Feature"},
	{"geometry":{"coordinates":[37.644146,55.735688],"type":"Point"},"properties":{"osm_id":"5160390422","tag":{"amenity":"waste_disposal"}},"type":"Feature"},
	{"geometry":{"coordinates":[37.64515,55.76843],"type":"Point"},"properties":{"osm_id":"5171061123","tag":{"amenity":"waste_basket"}},"type":"Feature"},
	{"geometry":{"coordinates":[37.645202,55.768527],"type":"Point"},"properties":{"osm_id":"5171076622","tag":{"amenity":"waste_basket"}},"type":"Feature"},
	{"geometry":{"coordinates":[37.645204,55.768446],"type":"Point"},"properties":{"osm_id":"5171076623","tag":{"amenity":"waste_basket"}},"type":"Feature"},
	{"geometry":{"coordinates":[37.628476,55.73364],"type":"Point"},"properties":{"osm_id":"5182606853","tag":{"amenity":"waste_disposal"}},"type":"Feature"},
	{"geometry":{"coordinates":[37.633827,55.733759],"type":"Point"},"properties":{"osm_id":"5182607228","tag":{"amenity":"waste_disposal"}},"type":"Feature"},
	{"geometry":{"coordinates":[37.65697,55.76886],"type":"Point"},"properties":{"osm_id":"5208658898","ref":"108768027","tag":{"amenity":"waste_disposal","collection_times":"18:30-22:30","operator":"\u00d0\u009e\u00d0\u009e\u00d0\u009e \"\u00d0\u00ad\u00d0\u00ba\u00d0\u00be\u00d0\u00bb\u00d0\u00b0\u00d0\u00b9\u00d0\u00bd\""}},"type":"Feature"},
	{"geometry":{"coordinates":[37.656924,55.77332],"type":"Point"},"properties":{"osm_id":"5209087722","tag":{"amenity":"waste_basket"}},"type":"Feature"},
	{"geometry":{"coordinates":[37.656851,55.773446],"type":"Point"},"properties":{"osm_id":"5209087921","tag":{"amenity":"waste_basket"}},"type":"Feature"},
	{"geometry":{"coordinates":[37.633219,55.738203],"type":"Point"},"properties":{"osm_id":"5222357320","tag":{"amenity":"waste_basket"}},"type":"Feature"},
	{"geometry":{"coordinates":[37.636884,55.727706],"type":"Point"},"properties":{"osm_id":"5240695935","tag":{"amenity":"waste_basket"}},"type":"Feature"},
	{"geometry":{"coordinates":[37.637043,55.728768],"type":"Point"},"properties":{"osm_id":"5240697252","tag":{"amenity":"waste_basket"}},"type":"Feature"},
	{"geometry":{"coordinates":[37.655316,55.760032],"type":"Point"},"properties":{"osm_id":"5270381598","tag":{"amenity":"waste_disposal"}},"type":"Feature"},
	{"geometry":{"coordinates":[37.655625,55.762721],"type":"Point"},"properties":{"osm_id":"5272220908","tag":{"amenity":"waste_disposal"}},"type":"Feature"},
	{"geometry":{"coordinates":[37.635606,55.757297],"type":"Point"},"properties":{"osm_id":"5284896363","tag":{"amenity":"waste_disposal"}},"type":"Feature"},
	{"geometry":{"coordinates":[37.662289,55.7482],"type":"Point"},"properties":{"osm_id":"5345122293","tag":{"amenity":"waste_disposal"}},"type":"Feature"},
	{"geometry":{"coordinates":[37.663949,55.747463],"type":"Point"},"properties":{"osm_id":"5345122337","tag":{"amenity":"waste_disposal"}},"type":"Feature"},
	{"geometry":{"coordinates":[37.663549,55.732104],"type":"Point"},"properties":{"osm_id":"5382888340","tag":{"amenity":"waste_disposal"}},"type":"Feature"},
	{"geometry":{"coordinates":[37.642722,55.767419],"type":"Point"},"properties":{"osm_id":"5408430507","tag":{"amenity":"waste_disposal"}},"type":"Feature"},
	{"geometry":{"coordinates":[37.642449,55.768247],"type":"Point"},"properties":{"osm_id":"5408431383","tag":{"amenity":"waste_disposal"}},"type":"Feature"},
	{"geometry":{"coordinates":[37.647802,55.760213],"type":"Point"},"properties":{"osm_id":"5418444390","tag":{"amenity":"waste_disposal","waste":"trash"}},"type":"Feature"},
	{"geometry":{"coordinates":[37.647094,55.760405],"type":"Point"},"properties":{"osm_id":"5418444392","tag":{"amenity":"waste_disposal","waste":"trash"}},"type":"Feature"},
	{"geometry":{"coordinates":[37.679463,55.770443],"type":"Point"},"properties":{"osm_id":"5421238419","tag":{"amenity":"waste_disposal","waste":"trash"}},"type":"Feature"},
	{"geometry":{"coordinates":[37.653108,55.756246],"type":"Point"},"properties":{"osm_id":"5443942684","tag":{"amenity":"waste_disposal"}},"type":"Feature"},
	{"geometry":{"coordinates":[37.649356,55.756249],"type":"Point"},"properties":{"osm_id":"5443944452","tag":{"amenity":"waste_disposal","waste":"trash"}},"type":"Feature"},
	{"geometry":{"coordinates":[37.64934,55.756268],"type":"Point"},"properties":{"osm_id":"5443944453","tag":{"amenity":"waste_disposal","waste":"trash"}},"type":"Feature"},
	{"geometry":{"coordinates":[37.649325,55.756285],"type":"Point"},"properties":{"osm_id":"5443944454","tag":{"amenity":"waste_disposal","waste":"trash"}},"type":"Feature"},
	{"geometry":{"coordinates":[37.650975,55.754457],"type":"Point"},"properties":{"osm_id":"5443944622","tag":{"amenity":"waste_disposal","collection_times":"17:30-21:29","operator":"\u00d0\u00ad\u00d0\u00ba\u00d0\u00be\u00d0\u00bb\u00d0\u00b0\u00d0\u00b9\u00d0\u00bd","operator:contact:phone":"+7 495 6638284","waste":"trash"}},"type":"Feature"},
	{"geometry":{"coordinates":[37.653526,55.754284],"type":"Point"},"properties":{"osm_id":"5457805783","tag":{"amenity":"waste_disposal"}},"type":"Feature"},
	{"geometry":{"coordinates":[37.652113,55.754074],"type":"Point"},"properties":{"osm_id":"5457805786","tag":{"amenity":"waste_disposal"}},"type":"Feature"},
	{"geometry":{"coordinates":[37.627492,55.767863],"type":"Point"},"properties":{"osm_id":"5515177352","tag":{"amenity":"waste_disposal"}},"type":"Feature"},
	{"geometry":{"coordinates":[37.635091,55.742939],"type":"Point"},"properties":{"osm_id":"5556912349","tag":{"amenity":"waste_disposal"}},"type":"Feature"},
	{"geometry":{"coordinates":[37.635587,55.742867],"type":"Point"},"properties":{"osm_id":"5556912352","tag":{"amenity":"waste_disposal"}},"type":"Feature"},
	{"geometry":{"coordinates":[37.645583,55.755612],"type":"Point"},"properties":{"osm_id":"5730559776","tag":{"amenity":"waste_disposal"}},"type":"Feature"},
	{"geometry":{"coordinates":[37.637237,55.754722],"type":"Point"},"properties":{"osm_id":"5730559777","tag":{"amenity":"waste_disposal"}},"type":"Feature"},
	{"geometry":{"coordinates":[37.629042,55.750155],"type":"Point"},"properties":{"osm_id":"5743269833","tag":{"amenity":"waste_basket"}},"type":"Feature"},
	{"geometry":{"coordinates":[37.628759,55.750161],"type":"Point"},"properties":{"osm_id":"5743269839","tag":{"amenity":"waste_basket"}},"type":"Feature"},
	{"geometry":{"coordinates":[37.674959,55.745174],"type":"Point"},"properties":{"osm_id":"5768501753","tag":{"amenity":"waste_disposal"}},"type":"Feature"},
	{"geometry":{"coordinates":[37.660754,55.765843],"type":"Point"},"properties":{"osm_id":"5836623329","tag":{"amenity":"recycling","description":"\u00d0\u009a\u00d0\u00be\u00d0\u00bd\u00d1\u0082\u00d0\u00b5\u00d0\u00b9\u00d0\u00bd\u00d0\u00b5\u00d1\u0080 Charity Shop","recycling:clothes":"yes","recycling_type":"container"}},"type":"Feature"},
	{"geometry":{"coordinates":[37.681097,55.773743],"type":"Point"},"properties":{"osm_id":"5864312817","tag":{"amenity":"waste_disposal"}},"type":"Feature"},
	{"geometry":{"coordinates":[37.678294,55.771973],"type":"Point"},"properties":{"osm_id":"5864314190","tag":{"amenity":"waste_disposal"}},"type":"Feature"},
	{"geometry":{"coordinates":[37.629885,55.758808],"type":"Point"},"properties":{"osm_id":"5879603633","tag":{"amenity":"waste_disposal"}},"type":"Feature"},
	{"geometry":{"coordinates":[37.632894,55.757702],"type":"Point"},"properties":{"osm_id":"5904932611","tag":{"amenity":"waste_disposal","covered":"yes"}},"type":"Feature"},
	{"geometry":{"coordinates":[37.632841,55.757696],"type":"Point"},"properties":{"osm_id":"5904932612","tag":{"amenity":"waste_disposal","covered":"yes"}},"type":"Feature"},
	{"geometry":{"coordinates":[37.655333,55.757494],"type":"Point"},"properties":{"osm_id":"5932638578","tag":{"amenity":"waste_disposal"}},"type":"Feature"},
	{"geometry":{"coordinates":[37.656002,55.756681],"type":"Point"},"properties":{"osm_id":"5932638799","tag":{"amenity":"waste_disposal"}},"type":"Feature"},
	{"geometry":{"coordinates":[37.617437,55.767761],"type":"Point"},"properties":{"osm_id":"5936303939","tag":{"amenity":"waste_basket"}},"type":"Feature"},
	{"geometry":{"coordinates":[37.617751,55.767774],"type":"Point"},"properties":{"osm_id":"5936303940","tag":{"amenity":"waste_basket"}},"type":"Feature"},
	{"geometry":{"coordinates":[37.618581,55.767588],"type":"Point"},"properties":{"osm_id":"5936303941","tag":{"amenity":"waste_basket"}},"type":"Feature"},
	{"geometry":{"coordinates":[37.618891,55.767602],"type":"Point"},"properties":{"osm_id":"5936303942","tag":{"amenity":"waste_basket"}},"type":"Feature"},
	{"geometry":{"coordinates":[37.619174,55.767499],"type":"Point"},"properties":{"osm_id":"5936303943","tag":{"amenity":"waste_basket"}},"type":"Feature"},
	{"geometry":{"coordinates":[37.619807,55.767462],"type":"Point"},"properties":{"osm_id":"5936303944","tag":{"amenity":"waste_basket"}},"type":"Feature"},
	{"geometry":{"coordinates":[37.620033,55.767372],"type":"Point"},"properties":{"osm_id":"5936303955","tag":{"amenity":"waste_basket"}},"type":"Feature"},
	{"geometry":{"coordinates":[37.623339,55.769233],"type":"Point"},"properties":{"osm_id":"5936493166","tag":{"amenity":"waste_basket"}},"type":"Feature"},
	{"geometry":{"coordinates":[37.623286,55.769178],"type":"Point"},"properties":{"osm_id":"5936493167","tag":{"amenity":"waste_basket"}},"type":"Feature"},
	{"geometry":{"coordinates":[37.622025,55.769162],"type":"Point"},"properties":{"osm_id":"5943220581","tag":{"amenity":"waste_basket"}},"type":"Feature"},
	{"geometry":{"coordinates":[37.62223,55.768539],"type":"Point"},"properties":{"osm_id":"5943220582","tag":{"amenity":"waste_basket"}},"type":"Feature"},
	{"geometry":{"coordinates":[37.622221,55.768633],"type":"Point"},"properties":{"osm_id":"5943220583","tag":{"amenity":"waste_basket"}},"type":"Feature"},
	{"geometry":{"coordinates":[37.621547,55.768021],"type":"Point"},"properties":{"osm_id":"5943221219","tag":{"amenity":"waste_basket"}},"type":"Feature"},
	{"geometry":{"coordinates":[37.622266,55.767944],"type":"Point"},"properties":{"osm_id":"5943221221","tag":{"amenity":"waste_basket"}},"type":"Feature"},
	{"geometry":{"coordinates":[37.62235,55.767819],"type":"Point"},"properties":{"osm_id":"5943221223","tag":{"amenity":"waste_basket"}},"type":"Feature"},
	{"geometry":{"coordinates":[37.622347,55.767843],"type":"Point"},"properties":{"osm_id":"5943221224","tag":{"amenity":"waste_basket"}},"type":"Feature"},
	{"geometry":{"coordinates":[37.622347,55.76778],"type":"Point"},"properties":{"osm_id":"5943221229","tag":{"amenity":"waste_basket"}},"type":"Feature"},
	{"geometry":{"coordinates":[37.622268,55.767747],"type":"Point"},"properties":{"osm_id":"5943221232","tag":{"amenity":"waste_basket"}},"type":"Feature"},
	{"geometry":{"coordinates":[37.622318,55.767755],"type":"Point"},"properties":{"osm_id":"5943221233","tag":{"amenity":"waste_basket"}},"type":"Feature"},
	{"geometry":{"coordinates":[37.622222,55.767711],"type":"Point"},"properties":{"osm_id":"5943221237","tag":{"amenity":"waste_basket"}},"type":"Feature"},
	{"geometry":{"coordinates":[37.622209,55.767658],"type":"Point"},"properties":{"osm_id":"5943221239","tag":{"amenity":"waste_basket"}},"type":"Feature"},
	{"geometry":{"coordinates":[37.622172,55.76764],"type":"Point"},"properties":{"osm_id":"5943221240","tag":{"amenity":"waste_basket"}},"type":"Feature"},
	{"geometry":{"coordinates":[37.622124,55.767635],"type":"Point"},"properties":{"osm_id":"5943221241","tag":{"amenity":"waste_basket"}},"type":"Feature"},
	{"geometry":{"coordinates":[37.621766,55.767631],"type":"Point"},"properties":{"osm_id":"5943221242","tag":{"amenity":"waste_basket"}},"type":"Feature"},
	{"geometry":{"coordinates":[37.621677,55.767654],"type":"Point"},"properties":{"osm_id":"5943221245","tag":{"amenity":"waste_basket"}},"type":"Feature"},
	{"geometry":{"coordinates":[37.621714,55.767636],"type":"Point"},"properties":{"osm_id":"5943221247","tag":{"amenity":"waste_basket"}},"type":"Feature"},
	{"geometry":{"coordinates":[37.621665,55.76769],"type":"Point"},"properties":{"osm_id":"5943221249","tag":{"amenity":"waste_basket"}},"type":"Feature"},
	{"geometry":{"coordinates":[37.62151,55.767768],"type":"Point"},"properties":{"osm_id":"5943221251","tag":{"amenity":"waste_basket"}},"type":"Feature"},
	{"geometry":{"coordinates":[37.621604,55.767724],"type":"Point"},"properties":{"osm_id":"5943221253","tag":{"amenity":"waste_basket"}},"type":"Feature"},
	{"geometry":{"coordinates":[37.621557,55.767726],"type":"Point"},"properties":{"osm_id":"5943221255","tag":{"amenity":"waste_basket"}},"type":"Feature"},
	{"geometry":{"coordinates":[37.621517,55.767742],"type":"Point"},"properties":{"osm_id":"5943221257","tag":{"amenity":"waste_basket"}},"type":"Feature"},
	{"geometry":{"coordinates":[37.621504,55.767814],"type":"Point"},"properties":{"osm_id":"5943221259","tag":{"amenity":"waste_basket"}},"type":"Feature"},
	{"geometry":{"coordinates":[37.621554,55.767882],"type":"Point"},"properties":{"osm_id":"5943221262","tag":{"amenity":"waste_basket"}},"type":"Feature"},
	{"geometry":{"coordinates":[37.622033,55.769077],"type":"Point"},"properties":{"osm_id":"5943221267","tag":{"amenity":"waste_basket"}},"type":"Feature"},
	{"geometry":{"coordinates":[37.622225,55.768586],"type":"Point"},"properties":{"osm_id":"5943221487","tag":{"amenity":"waste_basket"}},"type":"Feature"},
	{"geometry":{"coordinates":[37.621436,55.768605],"type":"Point"},"properties":{"osm_id":"5943221489","tag":{"amenity":"waste_basket"}},"type":"Feature"},
	{"geometry":{"coordinates":[37.621445,55.76851],"type":"Point"},"properties":{"osm_id":"5943221490","tag":{"amenity":"waste_basket"}},"type":"Feature"},
	{"geometry":{"coordinates":[37.621826,55.76824],"type":"Point"},"properties":{"osm_id":"5943221491","tag":{"amenity":"waste_basket"}},"type":"Feature"},
	{"geometry":{"coordinates":[37.621902,55.768426],"type":"Point"},"properties":{"osm_id":"5943221492","tag":{"amenity":"waste_basket"}},"type":"Feature"},
	{"geometry":{"coordinates":[37.621881,55.768626],"type":"Point"},"properties":{"osm_id":"5943221493","tag":{"amenity":"waste_basket"}},"type":"Feature"},
	{"geometry":{"coordinates":[37.621796,55.768519],"type":"Point"},"properties":{"osm_id":"5943221494","tag":{"amenity":"waste_basket"}},"type":"Feature"},
	{"geometry":{"coordinates":[37.621859,55.768863],"type":"Point"},"properties":{"osm_id":"5943221495","tag":{"amenity":"waste_basket"}},"type":"Feature"},
	{"geometry":{"coordinates":[37.621775,55.768725],"type":"Point"},"properties":{"osm_id":"5943221496","tag":{"amenity":"waste_basket"}},"type":"Feature"},
	{"geometry":{"coordinates":[37.621688,55.770142],"type":"Point"},"properties":{"osm_id":"5943221497","tag":{"amenity":"waste_basket"}},"type":"Feature"},
	{"geometry":{"coordinates":[37.621652,55.770004],"type":"Point"},"properties":{"osm_id":"5943221500","tag":{"amenity":"waste_basket"}},"type":"Feature"},
	{"geometry":{"coordinates":[37.621727,55.769837],"type":"Point"},"properties":{"osm_id":"5943221503","tag":{"amenity":"waste_basket"}},"type":"Feature"},
	{"geometry":{"coordinates":[37.621687,55.769681],"type":"Point"},"properties":{"osm_id":"5943221506","tag":{"amenity":"waste_basket"}},"type":"Feature"},
	{"geometry":{"coordinates":[37.621762,55.76956],"type":"Point"},"properties":{"osm_id":"5943221509","tag":{"amenity":"waste_basket"}},"type":"Feature"},
	{"geometry":{"coordinates":[37.62172,55.769384],"type":"Point"},"properties":{"osm_id":"5943221512","tag":{"amenity":"waste_basket"}},"type":"Feature"},
	{"geometry":{"coordinates":[37.622015,55.768929],"type":"Point"},"properties":{"osm_id":"5943221515","tag":{"amenity":"waste_basket"}},"type":"Feature"},
	{"geometry":{"coordinates":[37.621976,55.769319],"type":"Point"},"properties":{"osm_id":"5943221516","tag":{"amenity":"waste_basket"}},"type":"Feature"},
	{"geometry":{"coordinates":[37.621543,55.76931],"type":"Point"},"properties":{"osm_id":"5943221517","tag":{"amenity":"waste_basket"}},"type":"Feature"},
	{"geometry":{"coordinates":[37.621581,55.768913],"type":"Point"},"properties":{"osm_id":"5943221518","tag":{"amenity":"waste_basket"}},"type":"Feature"},
	{"geometry":{"coordinates":[37.621524,55.769143],"type":"Point"},"properties":{"osm_id":"5943221519","tag":{"amenity":"waste_basket"}},"type":"Feature"},
	{"geometry":{"coordinates":[37.621528,55.7691],"type":"Point"},"properties":{"osm_id":"5943221520","tag":{"amenity":"waste_basket"}},"type":"Feature"},
	{"geometry":{"coordinates":[37.621532,55.769058],"type":"Point"},"properties":{"osm_id":"5943221521","tag":{"amenity":"waste_basket"}},"type":"Feature"},
	{"geometry":{"coordinates":[37.621397,55.772787],"type":"Point"},"properties":{"osm_id":"5943221522","tag":{"amenity":"waste_basket"}},"type":"Feature"},
	{"geometry":{"coordinates":[37.621353,55.77262],"type":"Point"},"properties":{"osm_id":"5943221523","tag":{"amenity":"waste_basket"}},"type":"Feature"},
	{"geometry":{"coordinates":[37.621426,55.772486],"type":"Point"},"properties":{"osm_id":"5943221524","tag":{"amenity":"waste_basket"}},"type":"Feature"},
	{"geometry":{"coordinates":[37.621384,55.772332],"type":"Point"},"properties":{"osm_id":"5943221525","tag":{"amenity":"waste_basket"}},"type":"Feature"},
	{"geometry":{"coordinates":[37.621456,55.772176],"type":"Point"},"properties":{"osm_id":"5943221526","tag":{"amenity":"waste_basket"}},"type":"Feature"},
	{"geometry":{"coordinates":[37.621411,55.772059],"type":"Point"},"properties":{"osm_id":"5943221527","tag":{"amenity":"waste_basket"}},"type":"Feature"},
	{"geometry":{"coordinates":[37.621485,55.771946],"type":"Point"},"properties":{"osm_id":"5943221528","tag":{"amenity":"waste_basket"}},"type":"Feature"},
	{"geometry":{"coordinates":[37.621439,55.771835],"type":"Point"},"properties":{"osm_id":"5943221529","tag":{"amenity":"waste_basket"}},"type":"Feature"},
	{"geometry":{"coordinates":[37.621519,55.77167],"type":"Point"},"properties":{"osm_id":"5943221530","tag":{"amenity":"waste_basket"}},"type":"Feature"},
	{"geometry":{"coordinates":[37.621472,55.771535],"type":"Point"},"properties":{"osm_id":"5943221531","tag":{"amenity":"waste_basket"}},"type":"Feature"},
	{"geometry":{"coordinates":[37.621552,55.771398],"type":"Point"},"properties":{"osm_id":"5943221532","tag":{"amenity":"waste_basket"}},"type":"Feature"},
	{"geometry":{"coordinates":[37.621509,55.771215],"type":"Point"},"properties":{"osm_id":"5943221533","tag":{"amenity":"waste_basket"}},"type":"Feature"},
	{"geometry":{"coordinates":[37.621591,55.771032],"type":"Point"},"properties":{"osm_id":"5943221534","tag":{"amenity":"waste_basket"}},"type":"Feature"},
	{"geometry":{"coordinates":[37.621551,55.770871],"type":"Point"},"properties":{"osm_id":"5943221535","tag":{"amenity":"waste_basket"}},"type":"Feature"},
	{"geometry":{"coordinates":[37.621545,55.770705],"type":"Point"},"properties":{"osm_id":"5943221536","tag":{"amenity":"waste_basket"}},"type":"Feature"},
	{"geometry":{"coordinates":[37.621451,55.770534],"type":"Point"},"properties":{"osm_id":"5943221537","tag":{"amenity":"waste_basket"}},"type":"Feature"},
	{"geometry":{"coordinates":[37.621711,55.770441],"type":"Point"},"properties":{"osm_id":"5943221538","tag":{"amenity":"waste_basket"}},"type":"Feature"},
	{"geometry":{"coordinates":[37.621862,55.770476],"type":"Point"},"properties":{"osm_id":"5943221539","tag":{"amenity":"waste_basket"}},"type":"Feature"},
	{"geometry":{"coordinates":[37.621943,55.770556],"type":"Point"},"properties":{"osm_id":"5943221540","tag":{"amenity":"waste_basket"}},"type":"Feature"},
	{"geometry":{"coordinates":[37.621929,55.770639],"type":"Point"},"properties":{"osm_id":"5943221541","tag":{"amenity":"waste_basket"}},"type":"Feature"},
	{"geometry":{"coordinates":[37.62182,55.770711],"type":"Point"},"properties":{"osm_id":"5943221542","tag":{"amenity":"waste_basket"}},"type":"Feature"},
	{"geometry":{"coordinates":[37.621665,55.77073],"type":"Point"},"properties":{"osm_id":"5943221543","tag":{"amenity":"waste_basket"}},"type":"Feature"},
	{"geometry":{"coordinates":[37.621451,55.770634],"type":"Point"},"properties":{"osm_id":"5943221544","tag":{"amenity":"waste_basket"}},"type":"Feature"},
	{"geometry":{"coordinates":[37.621547,55.770464],"type":"Point"},"properties":{"osm_id":"5943221545","tag":{"amenity":"waste_basket"}},"type":"Feature"},
	{"geometry":{"coordinates":[37.62144,55.768558],"type":"Point"},"properties":{"osm_id":"5943222208","tag":{"amenity":"waste_basket"}},"type":"Feature"},
	{"geometry":{"coordinates":[37.62218,55.768463],"type":"Point"},"properties":{"osm_id":"5943222211","tag":{"amenity":"waste_basket"}},"type":"Feature"},
	{"geometry":{"coordinates":[37.622156,55.768705],"type":"Point"},"properties":{"osm_id":"5943222214","tag":{"amenity":"waste_basket"}},"type":"Feature"},
	{"geometry":{"coordinates":[37.621489,55.768681],"type":"Point"},"properties":{"osm_id":"5943222217","tag":{"amenity":"waste_basket"}},"type":"Feature"},
	{"geometry":{"coordinates":[37.621513,55.768442],"type":"Point"},"properties":{"osm_id":"5943222219","tag":{"amenity":"waste_basket"}},"type":"Feature"},
	{"geometry":{"coordinates":[37.653302,55.753545],"type":"Point"},"properties":{"osm_id":"5955463943","ref":"2579384","tag":{"amenity":"waste_disposal","collection_times":"07:00-11:00","covered":"yes","operator":"\u00d0\u009e\u00d0\u009e\u00d0\u009e \"\u00d0\u00ad\u00d0\u00ba\u00d0\u00be\u00d0\u00bb\u00d0\u00b0\u00d0\u00b9\u00d0\u00bd\"","operator:phone":"+7 495 6638284","operator:ref:inn":"7734690939","waste":"trash"}},"type":"Feature"},
	{"geometry":{"coordinates":[37.655901,55.754333],"type":"Point"},"properties":{"osm_id":"5955465136","tag":{"amenity":"waste_disposal"}},"type":"Feature"},
	{"geometry":{"coordinates":[37.655892,55.754308],"type":"Point"},"properties":{"osm_id":"5955465137","tag":{"amenity":"waste_disposal"}},"type":"Feature"},
	{"geometry":{"coordinates":[37.658317,55.755487],"type":"Point"},"properties":{"osm_id":"5962271232","tag":{"amenity":"waste_disposal","covered":"yes"}},"type":"Feature"},
	{"geometry":{"coordinates":[37.653749,55.765054],"type":"Point"},"properties":{"osm_id":"6001527295","tag":{"amenity":"waste_basket"}},"type":"Feature"},
	{"geometry":{"coordinates":[37.653729,55.765036],"type":"Point"},"properties":{"osm_id":"6001527296","tag":{"amenity":"waste_basket"}},"type":"Feature"},
	{"geometry":{"coordinates":[37.65366,55.765022],"type":"Point"},"properties":{"osm_id":"6001527297","tag":{"amenity":"waste_basket"}},"type":"Feature"},
	{"geometry":{"coordinates":[37.653618,55.765032],"type":"Point"},"properties":{"osm_id":"6001527298","tag":{"amenity":"waste_basket"}},"type":"Feature"},
	{"geometry":{"coordinates":[37.653588,55.765069],"type":"Point"},"properties":{"osm_id":"6001527299","tag":{"amenity":"waste_basket"}},"type":"Feature"},
	{"geometry":{"coordinates":[37.653608,55.765098],"type":"Point"},"properties":{"osm_id":"6001527300","tag":{"amenity":"waste_basket"}},"type":"Feature"},
	{"geometry":{"coordinates":[37.653703,55.76511],"type":"Point"},"properties":{"osm_id":"6001527301","tag":{"amenity":"waste_basket"}},"type":"Feature"},
	{"geometry":{"coordinates":[37.653735,55.765097],"type":"Point"},"properties":{"osm_id":"6001527302","tag":{"amenity":"waste_basket"}},"type":"Feature"},
	{"geometry":{"coordinates":[37.653388,55.765123],"type":"Point"},"properties":{"osm_id":"6001527341","tag":{"amenity":"waste_disposal"}},"type":"Feature"},
	{"geometry":{"coordinates":[37.653596,55.764614],"type":"Point"},"properties":{"osm_id":"6001527349","tag":{"amenity":"waste_disposal"}},"type":"Feature"},
	{"geometry":{"coordinates":[37.656368,55.768462],"type":"Point"},"properties":{"osm_id":"6009476890","tag":{"amenity":"waste_disposal"}},"type":"Feature"},
	{"geometry":{"coordinates":[37.656334,55.768462],"type":"Point"},"properties":{"osm_id":"6009476891","tag":{"amenity":"waste_disposal"}},"type":"Feature"},
	{"geometry":{"coordinates":[37.656296,55.76846],"type":"Point"},"properties":{"osm_id":"6009476892","tag":{"amenity":"waste_disposal"}},"type":"Feature"},
	{"geometry":{"coordinates":[37.656261,55.768459],"type":"Point"},"properties":{"osm_id":"6009476893","tag":{"amenity":"waste_disposal"}},"type":"Feature"},
	{"geometry":{"coordinates":[37.659388,55.760977],"type":"Point"},"properties":{"osm_id":"6021825655","tag":{"amenity":"waste_disposal","covered":"yes"}},"type":"Feature"},
	{"geometry":{"coordinates":[37.656448,55.757322],"type":"Point"},"properties":{"osm_id":"6025316606","tag":{"amenity":"waste_disposal"}},"type":"Feature"},
	{"geometry":{"coordinates":[37.696334,55.734557],"type":"Point"},"properties":{"osm_id":"6055793105","tag":{"amenity":"waste_disposal"}},"type":"Feature"},
	{"geometry":{"coordinates":[37.696644,55.735165],"type":"Point"},"properties":{"osm_id":"6055793109","tag":{"amenity":"waste_disposal"}},"type":"Feature"},
	{"geometry":{"coordinates":[37.642735,55.763699],"type":"Point"},"properties":{"osm_id":"6115652258","tag":{"amenity":"waste_basket"}},"type":"Feature"},
	{"geometry":{"coordinates":[37.641183,55.764022],"type":"Point"},"properties":{"osm_id":"6115652260","tag":{"amenity":"waste_basket"}},"type":"Feature"},
	{"geometry":{"coordinates":[37.640373,55.764398],"type":"Point"},"properties":{"osm_id":"6115652264","tag":{"amenity":"waste_basket"}},"type":"Feature"},
	{"geometry":{"coordinates":[37.67169,55.72741],"type":"Point"},"properties":{"osm_id":"6138343988","tag":{"amenity":"waste_disposal"}},"type":"Feature"},
	{"geometry":{"coordinates":[37.646626,55.759388],"type":"Point"},"properties":{"osm_id":"6165398915","tag":{"amenity":"waste_basket"}},"type":"Feature"},
	{"geometry":{"coordinates":[37.644486,55.758844],"type":"Point"},"properties":{"osm_id":"6167821967","tag":{"amenity":"waste_disposal","waste":"trash"}},"type":"Feature"},
	{"geometry":{"coordinates":[37.65549,55.760232],"type":"Point"},"properties":{"osm_id":"6198891064","tag":{"amenity":"waste_disposal"}},"type":"Feature"},
	{"geometry":{"coordinates":[37.639934,55.763982],"type":"Point"},"properties":{"osm_id":"6200441649","tag":{"amenity":"waste_basket"}},"type":"Feature"},
	{"geometry":{"coordinates":[37.640023,55.763959],"type":"Point"},"properties":{"osm_id":"6200441651","tag":{"amenity":"waste_basket"}},"type":"Feature"},
	{"geometry":{"coordinates":[37.630746,55.737427],"type":"Point"},"properties":{"osm_id":"6221254084","tag":{"amenity":"waste_disposal"}},"type":"Feature"},
	{"geometry":{"coordinates":[37.646205,55.759003],"type":"Point"},"properties":{"osm_id":"6262197694","tag":{"amenity":"waste_disposal","waste":"trash"}},"type":"Feature"},
	{"geometry":{"coordinates":[37.651749,55.759977],"type":"Point"},"properties":{"osm_id":"6262974983","tag":{"amenity":"waste_basket","waste":"trash"}},"type":"Feature"},
	{"geometry":{"coordinates":[37.651789,55.759895],"type":"Point"},"properties":{"osm_id":"6264600862","tag":{"amenity":"waste_basket","waste":"trash"}},"type":"Feature"},
	{"geometry":{"coordinates":[37.651777,55.759915],"type":"Point"},"properties":{"osm_id":"6264600863","tag":{"amenity":"waste_basket","waste":"trash"}},"type":"Feature"},
	{"geometry":{"coordinates":[37.64218,55.763309],"type":"Point"},"properties":{"osm_id":"6265952645","tag":{"amenity":"waste_basket"}},"type":"Feature"},
	{"geometry":{"coordinates":[37.617776,55.76744],"type":"Point"},"properties":{"osm_id":"6270330597","tag":{"amenity":"waste_basket","waste":"trash"}},"type":"Feature"},
	{"geometry":{"coordinates":[37.655355,55.752978],"type":"Point"},"properties":{"osm_id":"6276118427","ref":"2213474","tag":{"amenity":"waste_disposal","collection_times":"07:00-11:00","covered":"yes","operator":"\u00d0\u009e\u00d0\u009e\u00d0\u009e \"\u00d0\u00ad\u00d0\u00ba\u00d0\u00be\u00d0\u00bb\u00d0\u00b0\u00d0\u00b9\u00d0\u00bd\"","operator:phone":"+7 495 6638284","operator:ref:inn":"7734690939","waste":"trash"}},"type":"Feature"},
	{"geometry":{"coordinates":[37.655575,55.751968],"type":"Point"},"properties":{"osm_id":"6276626712","tag":{"amenity":"waste_basket","waste":"trash"}},"type":"Feature"},
	{"geometry":{"coordinates":[37.653645,55.75211],"type":"Point"},"properties":{"osm_id":"6276626725","tag":{"amenity":"waste_basket","waste":"trash"}},"type":"Feature"},
	{"geometry":{"coordinates":[37.664616,55.729149],"type":"Point"},"properties":{"osm_id":"6279339535","tag":{"amenity":"waste_basket"}},"type":"Feature"},
	{"geometry":{"coordinates":[37.665552,55.73044],"type":"Point"},"properties":{"osm_id":"6279339538","tag":{"amenity":"waste_basket"}},"type":"Feature"},
	{"geometry":{"coordinates":[37.665325,55.730126],"type":"Point"},"properties":{"osm_id":"6279339541","tag":{"amenity":"waste_basket"}},"type":"Feature"},
	{"geometry":{"coordinates":[37.664383,55.728825],"type":"Point"},"properties":{"osm_id":"6279339542","tag":{"amenity":"waste_basket"}},"type":"Feature"},
	{"geometry":{"coordinates":[37.665081,55.72979],"type":"Point"},"properties":{"osm_id":"6279339543","tag":{"amenity":"waste_basket"}},"type":"Feature"},
	{"geometry":{"coordinates":[37.66495,55.727745],"type":"Point"},"properties":{"osm_id":"6279401578","tag":{"amenity":"waste_basket"}},"type":"Feature"},
	{"geometry":{"coordinates":[37.664942,55.727607],"type":"Point"},"properties":{"osm_id":"6279401581","tag":{"amenity":"waste_basket"}},"type":"Feature"},
	{"geometry":{"coordinates":[37.664939,55.727421],"type":"Point"},"properties":{"osm_id":"6279410687","tag":{"amenity":"waste_basket"}},"type":"Feature"},
	{"geometry":{"coordinates":[37.636547,55.763713],"type":"Point"},"properties":{"osm_id":"6279558568","tag":{"amenity":"waste_basket","waste":"trash"}},"type":"Feature"},
	{"geometry":{"coordinates":[37.636753,55.763654],"type":"Point"},"properties":{"osm_id":"6279558569","tag":{"amenity":"waste_basket","waste":"trash"}},"type":"Feature"},
	{"geometry":{"coordinates":[37.636776,55.763673],"type":"Point"},"properties":{"osm_id":"6279558570","tag":{"amenity":"waste_basket","waste":"trash"}},"type":"Feature"},
	{"geometry":{"coordinates":[37.637131,55.764284],"type":"Point"},"properties":{"osm_id":"6279558571","tag":{"amenity":"waste_basket","waste":"trash"}},"type":"Feature"},
	{"geometry":{"coordinates":[37.637364,55.764205],"type":"Point"},"properties":{"osm_id":"6279558572","tag":{"amenity":"waste_basket","waste":"trash"}},"type":"Feature"},
	{"geometry":{"coordinates":[37.637338,55.764185],"type":"Point"},"properties":{"osm_id":"6279558573","tag":{"amenity":"waste_basket","waste":"trash"}},"type":"Feature"},
	{"geometry":{"coordinates":[37.636656,55.763683],"type":"Point"},"properties":{"osm_id":"6279558574","tag":{"amenity":"waste_basket","waste":"trash"}},"type":"Feature"},
	{"geometry":{"coordinates":[37.636606,55.7637],"type":"Point"},"properties":{"osm_id":"6279558575","tag":{"amenity":"waste_basket","waste":"trash"}},"type":"Feature"},
	{"geometry":{"coordinates":[37.654767,55.7524],"type":"Point"},"properties":{"osm_id":"6279937074","tag":{"amenity":"waste_basket","waste":"trash"}},"type":"Feature"},
	{"geometry":{"coordinates":[37.655011,55.752394],"type":"Point"},"properties":{"osm_id":"6279937075","tag":{"amenity":"waste_basket","waste":"trash"}},"type":"Feature"},
	{"geometry":{"coordinates":[37.651698,55.750147],"type":"Point"},"properties":{"osm_id":"6281964305","tag":{"amenity":"waste_basket","waste":"trash"}},"type":"Feature"},
	{"geometry":{"coordinates":[37.651761,55.750154],"type":"Point"},"properties":{"osm_id":"6281964306","tag":{"amenity":"waste_basket","waste":"trash"}},"type":"Feature"},
	{"geometry":{"coordinates":[37.651378,55.750113],"type":"Point"},"properties":{"osm_id":"6281964321","tag":{"amenity":"waste_basket","waste":"trash"}},"type":"Feature"},
	{"geometry":{"coordinates":[37.651504,55.750126],"type":"Point"},"properties":{"osm_id":"6281964322","tag":{"amenity":"waste_basket","waste":"trash"}},"type":"Feature"},
	{"geometry":{"coordinates":[37.651094,55.750081],"type":"Point"},"properties":{"osm_id":"6281964337","tag":{"amenity":"waste_basket","waste":"trash"}},"type":"Feature"},
	{"geometry":{"coordinates":[37.651157,55.750088],"type":"Point"},"properties":{"osm_id":"6281964338","tag":{"amenity":"waste_basket","waste":"trash"}},"type":"Feature"},
	{"geometry":{"coordinates":[37.650729,55.750037],"type":"Point"},"properties":{"osm_id":"6281964353","tag":{"amenity":"waste_basket","waste":"trash"}},"type":"Feature"},
	{"geometry":{"coordinates":[37.650792,55.750044],"type":"Point"},"properties":{"osm_id":"6281964354","tag":{"amenity":"waste_basket","waste":"trash"}},"type":"Feature"},
	{"geometry":{"coordinates":[37.650904,55.750058],"type":"Point"},"properties":{"osm_id":"6281964369","tag":{"amenity":"waste_basket","waste":"trash"}},"type":"Feature"},
	{"geometry":{"coordinates":[37.650967,55.750065],"type":"Point"},"properties":{"osm_id":"6281964370","tag":{"amenity":"waste_basket","waste":"trash"}},"type":"Feature"},
	{"geometry":{"coordinates":[37.645311,55.749165],"type":"Point"},"properties":{"osm_id":"6282071159","tag":{"amenity":"waste_basket","waste":"trash"}},"type":"Feature"},
	{"geometry":{"coordinates":[37.655957,55.753279],"type":"Point"},"properties":{"osm_id":"6283564120","tag":{"amenity":"waste_basket","waste":"trash"}},"type":"Feature"},
	{"geometry":{"coordinates":[37.644992,55.759694],"type":"Point"},"properties":{"osm_id":"6283593286","tag":{"amenity":"waste_basket","waste":"trash"}},"type":"Feature"},
	{"geometry":{"coordinates":[37.645083,55.759577],"type":"Point"},"properties":{"osm_id":"6283593287","tag":{"amenity":"waste_basket","waste":"trash"}},"type":"Feature"},
	{"geometry":{"coordinates":[37.644576,55.759949],"type":"Point"},"properties":{"osm_id":"6283802824","tag":{"amenity":"waste_basket","waste":"trash"}},"type":"Feature"},
	{"geometry":{"coordinates":[37.648237,55.752921],"type":"Point"},"properties":{"osm_id":"6284064067","tag":{"amenity":"waste_basket","waste":"trash"}},"type":"Feature"},
	{"geometry":{"coordinates":[37.646885,55.757694],"type":"Point"},"properties":{"osm_id":"6292732864","tag":{"amenity":"waste_basket","waste":"trash"}},"type":"Feature"},
	{"geometry":{"coordinates":[37.64781,55.767288],"type":"Point"},"properties":{"osm_id":"6293634236","tag":{"amenity":"waste_disposal"}},"type":"Feature"},
	{"geometry":{"coordinates":[37.647838,55.766127],"type":"Point"},"properties":{"osm_id":"6293658801","tag":{"amenity":"waste_disposal","covered":"yes"}},"type":"Feature"},
	{"geometry":{"coordinates":[37.619323,55.774318],"type":"Point"},"properties":{"osm_id":"6300997872","tag":{"amenity":"recycling","recycling:plastic":"yes","recycling_type":"container"}},"type":"Feature"},
	{"geometry":{"coordinates":[37.619325,55.77433],"type":"Point"},"properties":{"osm_id":"6300998206","tag":{"amenity":"recycling","recycling:glass":"yes","recycling_type":"container"}},"type":"Feature"},
	{"geometry":{"coordinates":[37.647265,55.757316],"type":"Point"},"properties":{"osm_id":"6301904425","tag":{"amenity":"waste_basket","waste":"trash"}},"type":"Feature"},
	{"geometry":{"coordinates":[37.647063,55.757516],"type":"Point"},"properties":{"osm_id":"6301904426","tag":{"amenity":"waste_basket","waste":"trash"}},"type":"Feature"},
	{"geometry":{"coordinates":[37.647378,55.757202],"type":"Point"},"properties":{"osm_id":"6301904427","tag":{"amenity":"waste_basket","waste":"trash"}},"type":"Feature"},
	{"geometry":{"coordinates":[37.647234,55.757345],"type":"Point"},"properties":{"osm_id":"6301904428","tag":{"amenity":"waste_basket","waste":"trash"}},"type":"Feature"},
	{"geometry":{"coordinates":[37.647577,55.757003],"type":"Point"},"properties":{"osm_id":"6301904433","tag":{"amenity":"waste_basket","waste":"trash"}},"type":"Feature"},
	{"geometry":{"coordinates":[37.648309,55.756164],"type":"Point"},"properties":{"osm_id":"6304184581","tag":{"amenity":"waste_basket","waste":"trash"}},"type":"Feature"},
	{"geometry":{"coordinates":[37.648189,55.756137],"type":"Point"},"properties":{"osm_id":"6304184582","tag":{"amenity":"waste_basket","waste":"trash"}},"type":"Feature"},
	{"geometry":{"coordinates":[37.64749,55.756974],"type":"Point"},"properties":{"osm_id":"6304185394","tag":{"amenity":"waste_basket","waste":"trash"}},"type":"Feature"},
	{"geometry":{"coordinates":[37.647703,55.756874],"type":"Point"},"properties":{"osm_id":"6304185413","tag":{"amenity":"waste_basket","waste":"trash"}},"type":"Feature"},
	{"geometry":{"coordinates":[37.64777,55.756656],"type":"Point"},"properties":{"osm_id":"6304185414","tag":{"amenity":"waste_basket","waste":"trash"}},"type":"Feature"},
	{"geometry":{"coordinates":[37.647821,55.756596],"type":"Point"},"properties":{"osm_id":"6304185415","tag":{"amenity":"waste_basket","waste":"trash"}},"type":"Feature"},
	{"geometry":{"coordinates":[37.647904,55.756496],"type":"Point"},"properties":{"osm_id":"6304185416","tag":{"amenity":"waste_basket","waste":"trash"}},"type":"Feature"},
	{"geometry":{"coordinates":[37.647951,55.75644],"type":"Point"},"properties":{"osm_id":"6304185417","tag":{"amenity":"waste_basket","waste":"trash"}},"type":"Feature"},
	{"geometry":{"coordinates":[37.648003,55.756378],"type":"Point"},"properties":{"osm_id":"6304185418","tag":{"amenity":"waste_basket","waste":"trash"}},"type":"Feature"},
	{"geometry":{"coordinates":[37.648027,55.756349],"type":"Point"},"properties":{"osm_id":"6304185419","tag":{"amenity":"waste_basket","waste":"trash"}},"type":"Feature"},
	{"geometry":{"coordinates":[37.648272,55.756198],"type":"Point"},"properties":{"osm_id":"6304185420","tag":{"amenity":"waste_basket","waste":"trash"}},"type":"Feature"},
	{"geometry":{"coordinates":[37.638221,55.745287],"type":"Point"},"properties":{"osm_id":"6304483553","tag":{"amenity":"waste_disposal"}},"type":"Feature"},
	{"geometry":{"coordinates":[37.638956,55.743442],"type":"Point"},"properties":{"osm_id":"6306853721","tag":{"amenity":"waste_disposal"}},"type":"Feature"},
	{"geometry":{"coordinates":[37.639587,55.743681],"type":"Point"},"properties":{"osm_id":"6306853782","tag":{"amenity":"waste_disposal"}},"type":"Feature"},
	{"geometry":{"coordinates":[37.633722,55.742667],"type":"Point"},"properties":{"osm_id":"6309938474","tag":{"amenity":"waste_disposal","waste":"trash"}},"type":"Feature"},
	{"geometry":{"coordinates":[37.631802,55.742452],"type":"Point"},"properties":{"osm_id":"6309939133","tag":{"amenity":"waste_disposal","waste":"trash"}},"type":"Feature"},
	{"geometry":{"coordinates":[37.649024,55.759641],"type":"Point"},"properties":{"osm_id":"6318825511","tag":{"amenity":"waste_disposal","waste":"trash"}},"type":"Feature"},
	{"geometry":{"coordinates":[37.65614,55.753765],"type":"Point"},"properties":{"osm_id":"6318963320","tag":{"amenity":"waste_basket","waste":"trash"}},"type":"Feature"},
	{"geometry":{"coordinates":[37.656093,55.753657],"type":"Point"},"properties":{"osm_id":"6318963321","tag":{"amenity":"waste_basket","waste":"trash"}},"type":"Feature"},
	{"geometry":{"coordinates":[37.646797,55.757854],"type":"Point"},"properties":{"osm_id":"6318963322","tag":{"amenity":"waste_basket","waste":"trash"}},"type":"Feature"},
	{"geometry":{"coordinates":[37.64627,55.757734],"type":"Point"},"properties":{"osm_id":"6322326253","tag":{"amenity":"waste_basket","waste":"trash"}},"type":"Feature"},
	{"geometry":{"coordinates":[37.647253,55.756834],"type":"Point"},"properties":{"osm_id":"6324361626","tag":{"amenity":"waste_basket","waste":"trash"}},"type":"Feature"},
	{"geometry":{"coordinates":[37.649223,55.748962],"type":"Point"},"properties":{"osm_id":"6326497878","tag":{"amenity":"waste_basket","waste":"trash"}},"type":"Feature"},
	{"geometry":{"coordinates":[37.655418,55.753215],"type":"Point"},"properties":{"osm_id":"6327396085","tag":{"amenity":"waste_basket","waste":"trash"}},"type":"Feature"},
	{"geometry":{"coordinates":[37.655434,55.753254],"type":"Point"},"properties":{"osm_id":"6327396086","tag":{"amenity":"waste_basket","waste":"trash"}},"type":"Feature"},
	{"geometry":{"coordinates":[37.647728,55.752972],"type":"Point"},"properties":{"osm_id":"6330118849","tag":{"amenity":"waste_basket","waste":"trash"}},"type":"Feature"},
	{"geometry":{"coordinates":[37.648843,55.753062],"type":"Point"},"properties":{"osm_id":"6330118850","tag":{"amenity":"waste_basket","waste":"trash"}},"type":"Feature"},
	{"geometry":{"coordinates":[37.652806,55.764026],"type":"Point"},"properties":{"osm_id":"6330408059","tag":{"amenity":"waste_disposal","waste":"trash"}},"type":"Feature"},
	{"geometry":{"coordinates":[37.648314,55.755906],"type":"Point"},"properties":{"osm_id":"6332179183","tag":{"amenity":"waste_basket","waste":"trash"}},"type":"Feature"},
	{"geometry":{"coordinates":[37.648536,55.755949],"type":"Point"},"properties":{"osm_id":"6333060757","tag":{"amenity":"waste_basket","waste":"trash"}},"type":"Feature"},
	{"geometry":{"coordinates":[37.64941,55.752851],"type":"Point"},"properties":{"osm_id":"6342899443","tag":{"amenity":"waste_basket","waste":"trash"}},"type":"Feature"},
	{"geometry":{"coordinates":[37.656155,55.754896],"type":"Point"},"properties":{"osm_id":"6343489825","tag":{"amenity":"waste_basket","waste":"trash"}},"type":"Feature"},
	{"geometry":{"coordinates":[37.626048,55.762615],"type":"Point"},"properties":{"osm_id":"6376808508","tag":{"amenity":"waste_disposal"}},"type":"Feature"},
	{"geometry":{"coordinates":[37.630684,55.761245],"type":"Point"},"properties":{"osm_id":"6379473869","tag":{"amenity":"waste_disposal"}},"type":"Feature"},
	{"geometry":{"coordinates":[37.703584,55.748337],"type":"Point"},"properties":{"osm_id":"6399930513","tag":{"amenity":"waste_basket"}},"type":"Feature"},
	{"geometry":{"coordinates":[37.62353,55.734878],"type":"Point"},"properties":{"osm_id":"6402527190","tag":{"amenity":"waste_disposal"}},"type":"Feature"},
	{"geometry":{"coordinates":[37.640678,55.744004],"type":"Point"},"properties":{"osm_id":"6420355214","tag":{"amenity":"waste_disposal"}},"type":"Feature"},
	{"geometry":{"coordinates":[37.681247,55.745296],"type":"Point"},"properties":{"osm_id":"6432064989","tag":{"amenity":"waste_basket","waste":"trash"}},"type":"Feature"},
	{"geometry":{"coordinates":[37.684721,55.7333],"type":"Point"},"properties":{"osm_id":"6432064990","tag":{"amenity":"waste_basket","waste":"trash"}},"type":"Feature"},
	{"geometry":{"coordinates":[37.669222,55.734955],"type":"Point"},"properties":{"osm_id":"6432086484","tag":{"amenity":"waste_basket"}},"type":"Feature"},
	{"geometry":{"coordinates":[37.669267,55.734975],"type":"Point"},"properties":{"osm_id":"6432086585","tag":{"amenity":"waste_basket"}},"type":"Feature"},
	{"geometry":{"coordinates":[37.633804,55.732982],"type":"Point"},"properties":{"osm_id":"6434095867","tag":{"amenity":"waste_disposal"}},"type":"Feature"},
	{"geometry":{"coordinates":[37.633405,55.766818],"type":"Point"},"properties":{"osm_id":"6437402948","tag":{"amenity":"waste_basket","waste":"trash"}},"type":"Feature"},
	{"geometry":{"coordinates":[37.633358,55.766823],"type":"Point"},"properties":{"osm_id":"6437402949","tag":{"amenity":"waste_basket","waste":"trash"}},"type":"Feature"},
	{"geometry":{"coordinates":[37.655746,55.752736],"type":"Point"},"properties":{"osm_id":"6437429020","tag":{"amenity":"waste_basket","waste":"trash"}},"type":"Feature"},
	{"geometry":{"coordinates":[37.655843,55.752961],"type":"Point"},"properties":{"osm_id":"6437429021","tag":{"amenity":"waste_basket","waste":"trash"}},"type":"Feature"},
	{"geometry":{"coordinates":[37.65593,55.753174],"type":"Point"},"properties":{"osm_id":"6437429022","tag":{"amenity":"waste_basket","waste":"trash"}},"type":"Feature"},
	{"geometry":{"coordinates":[37.656035,55.753405],"type":"Point"},"properties":{"osm_id":"6437429023","tag":{"amenity":"waste_basket","waste":"trash"}},"type":"Feature"},
	{"geometry":{"coordinates":[37.633192,55.746566],"type":"Point"},"properties":{"osm_id":"6456478668","tag":{"amenity":"waste_disposal","covered":"yes"}},"type":"Feature"},
	{"geometry":{"coordinates":[37.633158,55.746573],"type":"Point"},"properties":{"osm_id":"6456478669","tag":{"amenity":"waste_disposal","covered":"yes"}},"type":"Feature"},
	{"geometry":{"coordinates":[37.633333,55.747439],"type":"Point"},"properties":{"osm_id":"6456480405","tag":{"amenity":"waste_disposal","covered":"yes"}},"type":"Feature"},
	{"geometry":{"coordinates":[37.633318,55.74742],"type":"Point"},"properties":{"osm_id":"6456480406","tag":{"amenity":"waste_disposal","covered":"yes"}},"type":"Feature"},
	{"geometry":{"coordinates":[37.633304,55.747401],"type":"Point"},"properties":{"osm_id":"6456480407","tag":{"amenity":"waste_disposal","covered":"yes"}},"type":"Feature"},
	{"geometry":{"coordinates":[37.667218,55.752874],"type":"Point"},"properties":{"osm_id":"6468213955","tag":{"amenity":"waste_basket","colour":"red","waste":"trash"}},"type":"Feature"},
	{"geometry":{"coordinates":[37.641877,55.753903],"type":"Point"},"properties":{"osm_id":"6469829128","tag":{"amenity":"waste_disposal"}},"type":"Feature"},
	{"geometry":{"coordinates":[37.639149,55.775916],"type":"Point"},"properties":{"osm_id":"6477814316","tag":{"amenity":"waste_disposal"}},"type":"Feature"},
	{"geometry":{"coordinates":[37.681646,55.74797],"type":"Point"},"properties":{"osm_id":"6484029785","tag":{"amenity":"recycling","recycling:glass":"yes","recycling:plastic":"yes","recycling_type":"container"}},"type":"Feature"},
	{"geometry":{"coordinates":[37.637276,55.774789],"type":"Point"},"properties":{"osm_id":"6488213075","tag":{"amenity":"waste_basket","waste":"trash"}},"type":"Feature"},
	{"geometry":{"coordinates":[37.657724,55.739342],"type":"Point"},"properties":{"osm_id":"6497624912","tag":{"amenity":"waste_basket"}},"type":"Feature"},
	{"geometry":{"coordinates":[37.666929,55.753],"type":"Point"},"properties":{"osm_id":"6514362135","tag":{"amenity":"waste_basket","colour":"red","waste":"trash"}},"type":"Feature"},
	{"geometry":{"coordinates":[37.627385,55.770788],"type":"Point"},"properties":{"osm_id":"6517895207","tag":{"amenity":"waste_disposal","operator":"\u00d0\u009e\u00d0\u009e\u00d0\u009e \u00c2\u00ab\u00d0\u00ad\u00d0\u00ba\u00d0\u00be\u00d0\u009b\u00d0\u00b0\u00d0\u00b9\u00d0\u00bd\u00c2\u00bb"}},"type":"Feature"},
	{"geometry":{"coordinates":[37.640389,55.740412],"type":"Point"},"properties":{"osm_id":"6519042063","tag":{"amenity":"waste_disposal"}},"type":"Feature"},
	{"geometry":{"coordinates":[37.637928,55.742417],"type":"Point"},"properties":{"osm_id":"6519042943","tag":{"amenity":"waste_disposal"}},"type":"Feature"},
	{"geometry":{"coordinates":[37.63794,55.742405],"type":"Point"},"properties":{"osm_id":"6519042944","tag":{"amenity":"waste_disposal"}},"type":"Feature"},
	{"geometry":{"coordinates":[37.631015,55.75781],"type":"Point"},"properties":{"osm_id":"6520719511","tag":{"amenity":"waste_disposal"}},"type":"Feature"},
	{"geometry":{"coordinates":[37.627385,55.770764],"type":"Point"},"properties":{"osm_id":"6538254678","tag":{"amenity":"recycling","operator":"\u00d0\u009e\u00d0\u009e\u00d0\u009e \u00c2\u00ab\u00d0\u00ad\u00d0\u00ba\u00d0\u00be\u00d0\u009b\u00d0\u00b0\u00d0\u00b9\u00d0\u00bd\u00c2\u00bb","recycling:glass_bottles":"yes","recycling:metal":"yes","recycling:paper":"yes","recycling:plastic_bottles":"yes","recycling:tetrapak":"yes","recycling_type":"container"}},"type":"Feature"},
	{"geometry":{"coordinates":[37.684003,55.738853],"type":"Point"},"properties":{"osm_id":"6568278417","tag":{"amenity":"waste_disposal"}},"type":"Feature"},
	{"geometry":{"coordinates":[37.683418,55.74227],"type":"Point"},"properties":{"osm_id":"6568298047","tag":{"amenity":"waste_disposal"}},"type":"Feature"},
	{"geometry":{"coordinates":[37.681895,55.745241],"type":"Point"},"properties":{"osm_id":"6568298048","tag":{"amenity":"waste_disposal"}},"type":"Feature"},
	{"geometry":{"coordinates":[37.681106,55.745525],"type":"Point"},"properties":{"osm_id":"6568298049","tag":{"amenity":"waste_disposal"}},"type":"Feature"},
	{"geometry":{"coordinates":[37.684389,55.740252],"type":"Point"},"properties":{"osm_id":"6568305501","tag":{"amenity":"waste_disposal"}},"type":"Feature"},
	{"geometry":{"coordinates":[37.684405,55.740317],"type":"Point"},"properties":{"osm_id":"6568305502","tag":{"amenity":"waste_disposal"}},"type":"Feature"},
	{"geometry":{"coordinates":[37.694758,55.737877],"type":"Point"},"properties":{"osm_id":"6570047676","tag":{"amenity":"waste_disposal"}},"type":"Feature"},
	{"geometry":{"coordinates":[37.693406,55.738331],"type":"Point"},"properties":{"osm_id":"6570047677","tag":{"amenity":"waste_disposal"}},"type":"Feature"},
	{"geometry":{"coordinates":[37.692556,55.738624],"type":"Point"},"properties":{"osm_id":"6570047678","tag":{"amenity":"waste_disposal"}},"type":"Feature"},
	{"geometry":{"coordinates":[37.691662,55.738918],"type":"Point"},"properties":{"osm_id":"6570047679","tag":{"amenity":"waste_disposal"}},"type":"Feature"},
	{"geometry":{"coordinates":[37.689869,55.739662],"type":"Point"},"properties":{"osm_id":"6570047680","tag":{"amenity":"waste_disposal"}},"type":"Feature"},
	{"geometry":{"coordinates":[37.685111,55.740911],"type":"Point"},"properties":{"osm_id":"6570047681","tag":{"amenity":"waste_disposal"}},"type":"Feature"},
	{"geometry":{"coordinates":[37.645437,55.75979],"type":"Point"},"properties":{"osm_id":"6581850204","tag":{"amenity":"recycling","recycling:glass":"yes","recycling:paper":"yes","recycling:plastic":"yes","recycling_type":"container"}},"type":"Feature"},
	{"geometry":{"coordinates":[37.64549,55.75983],"type":"Point"},"properties":{"osm_id":"6581850205","tag":{"amenity":"waste_disposal","waste":"trash"}},"type":"Feature"},
	{"geometry":{"coordinates":[37.645609,55.759899],"type":"Point"},"properties":{"osm_id":"6581850206","tag":{"amenity":"waste_disposal","waste":"trash"}},"type":"Feature"},
	{"geometry":{"coordinates":[37.617871,55.736544],"type":"Point"},"properties":{"osm_id":"6615146716","tag":{"amenity":"waste_disposal"}},"type":"Feature"},
	{"geometry":{"coordinates":[37.617885,55.736518],"type":"Point"},"properties":{"osm_id":"6615146717","tag":{"amenity":"waste_disposal"}},"type":"Feature"},
	{"geometry":{"coordinates":[37.63073,55.768605],"type":"Point"},"properties":{"osm_id":"6624458500","tag":{"amenity":"waste_disposal"}},"type":"Feature"},
	{"geometry":{"coordinates":[37.645399,55.763973],"type":"Point"},"properties":{"osm_id":"6625058465","tag":{"amenity":"waste_disposal"}},"type":"Feature"},
	{"geometry":{"coordinates":[37.627921,55.774246],"type":"Point"},"properties":{"osm_id":"6636877715","tag":{"amenity":"waste_disposal"}},"type":"Feature"},
	{"geometry":{"coordinates":[37.650659,55.764677],"type":"Point"},"properties":{"osm_id":"6644719287","tag":{"amenity":"waste_disposal","covered":"yes"}},"type":"Feature"},
	{"geometry":{"coordinates":[37.647554,55.759657],"type":"Point"},"properties":{"osm_id":"6648070226","tag":{"amenity":"waste_basket"}},"type":"Feature"},
	{"geometry":{"coordinates":[37.648687,55.760843],"type":"Point"},"properties":{"osm_id":"6648070243","tag":{"amenity":"waste_disposal"}},"type":"Feature"},
	{"geometry":{"coordinates":[37.648667,55.760857],"type":"Point"},"properties":{"osm_id":"6648070244","tag":{"amenity":"waste_disposal"}},"type":"Feature"},
	{"geometry":{"coordinates":[37.632428,55.729767],"type":"Point"},"properties":{"osm_id":"6698116249","tag":{"amenity":"waste_disposal","waste":"trash"}},"type":"Feature"},
	{"geometry":{"coordinates":[37.655089,55.760603],"type":"Point"},"properties":{"osm_id":"6738963150","tag":{"amenity":"waste_disposal"}},"type":"Feature"},
	{"geometry":{"coordinates":[37.655071,55.760625],"type":"Point"},"properties":{"osm_id":"6738963151","tag":{"amenity":"waste_disposal"}},"type":"Feature"},
	{"geometry":{"coordinates":[37.690494,55.766201],"type":"Point"},"properties":{"osm_id":"6763998405","tag":{"amenity":"recycling","recycling:glass":"yes","recycling:plastic":"yes","recycling_type":"container"}},"type":"Feature"},
	{"geometry":{"coordinates":[37.623753,55.728932],"type":"Point"},"properties":{"osm_id":"6773129930","tag":{"amenity":"waste_disposal"}},"type":"Feature"},
	{"geometry":{"coordinates":[37.623742,55.728987],"type":"Point"},"properties":{"osm_id":"6773129931","tag":{"amenity":"waste_disposal"}},"type":"Feature"},
	{"geometry":{"coordinates":[37.6389,55.727655],"type":"Point"},"properties":{"osm_id":"6788148604","tag":{"amenity":"waste_disposal"}},"type":"Feature"},
	{"geometry":{"coordinates":[37.630009,55.738919],"type":"Point"},"properties":{"osm_id":"6806571121","tag":{"amenity":"waste_disposal"}},"type":"Feature"},
	{"geometry":{"coordinates":[37.637704,55.762885],"type":"Point"},"properties":{"osm_id":"6810214685","tag":{"amenity":"waste_disposal"}},"type":"Feature"},
	{"geometry":{"coordinates":[37.637673,55.762898],"type":"Point"},"properties":{"osm_id":"6810214686","tag":{"amenity":"waste_disposal"}},"type":"Feature"},
	{"geometry":{"coordinates":[37.630198,55.769513],"type":"Point"},"properties":{"osm_id":"6852765560","tag":{"amenity":"recycling","operator":"\u00d0\u009e\u00d0\u009e\u00d0\u009e \u00c2\u00ab\u00d0\u00ad\u00d0\u00ba\u00d0\u00be\u00d0\u009b\u00d0\u00b0\u00d0\u00b9\u00d0\u00bd\u00c2\u00bb","recycling:glass_bottles":"yes","recycling:metal":"yes","recycling:paper":"yes","recycling:plastic_bottles":"yes","recycling:tetrapak":"yes","recycling_type":"container"}},"type":"Feature"},
	{"geometry":{"coordinates":[37.630655,55.776132],"type":"Point"},"properties":{"osm_id":"6854671352","tag":{"amenity":"waste_disposal","waste":"trash"}},"type":"Feature"},
	{"geometry":{"coordinates":[37.626296,55.76972],"type":"Point"},"properties":{"osm_id":"6871494034","tag":{"amenity":"recycling","covered":"yes","operator":"\u00d0\u009e\u00d0\u009e\u00d0\u009e \u00c2\u00ab\u00d0\u00ad\u00d0\u00ba\u00d0\u00be\u00d0\u009b\u00d0\u00b0\u00d0\u00b9\u00d0\u00bd\u00c2\u00bb","recycling:glass_bottles":"yes","recycling:metal":"yes","recycling:paper":"yes","recycling:plastic_bottles":"yes","recycling:tetrapak":"yes","recycling_type":"container"}},"type":"Feature"},
	{"geometry":{"coordinates":[37.705004,55.775213],"type":"Point"},"properties":{"osm_id":"6908024773","tag":{"amenity":"waste_disposal"}},"type":"Feature"},
	{"geometry":{"coordinates":[37.634152,55.758011],"type":"Point"},"properties":{"osm_id":"6922143222","tag":{"amenity":"waste_disposal","covered":"yes"}},"type":"Feature"},
	{"geometry":{"coordinates":[37.63411,55.758009],"type":"Point"},"properties":{"osm_id":"6922143223","tag":{"amenity":"waste_disposal","covered":"yes"}},"type":"Feature"},
	{"geometry":{"coordinates":[37.629495,55.767464],"type":"Point"},"properties":{"osm_id":"6967245859","tag":{"amenity":"waste_disposal"}},"type":"Feature"},
	{"geometry":{"coordinates":[37.629444,55.767463],"type":"Point"},"properties":{"osm_id":"6967245860","tag":{"amenity":"waste_disposal"}},"type":"Feature"},
	{"geometry":{"coordinates":[37.631689,55.764422],"type":"Point"},"properties":{"osm_id":"6967521522","tag":{"amenity":"waste_disposal"}},"type":"Feature"},
	{"geometry":{"coordinates":[37.631647,55.764425],"type":"Point"},"properties":{"osm_id":"6967521523","tag":{"amenity":"waste_disposal"}},"type":"Feature"},
	{"geometry":{"coordinates":[37.640695,55.760159],"type":"Point"},"properties":{"osm_id":"6992646459","tag":{"amenity":"waste_disposal"}},"type":"Feature"},
	{"geometry":{"coordinates":[37.640663,55.760156],"type":"Point"},"properties":{"osm_id":"6992646460","tag":{"amenity":"waste_disposal"}},"type":"Feature"},
	{"geometry":{"coordinates":[37.627976,55.7572],"type":"Point"},"properties":{"osm_id":"7012442335","tag":{"amenity":"waste_disposal"}},"type":"Feature"},
	{"geometry":{"coordinates":[37.628016,55.75721],"type":"Point"},"properties":{"osm_id":"7012442336","tag":{"amenity":"waste_disposal"}},"type":"Feature"},
	{"geometry":{"coordinates":[37.659577,55.77122],"type":"Point"},"properties":{"osm_id":"7044485184","tag":{"amenity":"waste_disposal"}},"type":"Feature"},
	{"geometry":{"coordinates":[37.664095,55.770456],"type":"Point"},"properties":{"osm_id":"7049150274","tag":{"amenity":"waste_disposal"}},"type":"Feature"},
	{"geometry":{"coordinates":[37.669601,55.770425],"type":"Point"},"properties":{"osm_id":"7052607534","tag":{"amenity":"waste_disposal"}},"type":"Feature"},
	{"geometry":{"coordinates":[37.676935,55.772219],"type":"Point"},"properties":{"osm_id":"7052630995","tag":{"amenity":"waste_disposal"}},"type":"Feature"},
	{"geometry":{"coordinates":[37.647836,55.767294],"type":"Point"},"properties":{"osm_id":"7078461048","tag":{"amenity":"waste_disposal"}},"type":"Feature"},
	{"geometry":{"coordinates":[37.647803,55.766122],"type":"Point"},"properties":{"osm_id":"7084779711","tag":{"amenity":"waste_disposal","covered":"yes"}},"type":"Feature"},
	{"geometry":{"coordinates":[37.645144,55.764957],"type":"Point"},"properties":{"osm_id":"7095783522","tag":{"amenity":"waste_disposal"}},"type":"Feature"},
	{"geometry":{"coordinates":[37.641401,55.766489],"type":"Point"},"properties":{"osm_id":"7095783562","tag":{"amenity":"waste_disposal","covered":"yes"}},"type":"Feature"},
	{"geometry":{"coordinates":[37.641376,55.766511],"type":"Point"},"properties":{"osm_id":"7095783563","tag":{"amenity":"waste_disposal","covered":"yes"}},"type":"Feature"},
	{"geometry":{"coordinates":[37.640507,55.766041],"type":"Point"},"properties":{"osm_id":"7095783571","tag":{"amenity":"waste_disposal"}},"type":"Feature"},
	{"geometry":{"coordinates":[37.645854,55.765591],"type":"Point"},"properties":{"osm_id":"7098320073","tag":{"amenity":"waste_disposal"}},"type":"Feature"},
	{"geometry":{"coordinates":[37.645808,55.76558],"type":"Point"},"properties":{"osm_id":"7098320074","tag":{"amenity":"waste_disposal"}},"type":"Feature"},
	{"geometry":{"coordinates":[37.646499,55.763272],"type":"Point"},"properties":{"osm_id":"7131980893","tag":{"amenity":"waste_disposal"}},"type":"Feature"},
	{"geometry":{"coordinates":[37.646522,55.763259],"type":"Point"},"properties":{"osm_id":"7131980894","tag":{"amenity":"waste_disposal"}},"type":"Feature"},
	{"geometry":{"coordinates":[37.646116,55.764758],"type":"Point"},"properties":{"osm_id":"7131980936","tag":{"amenity":"waste_disposal"}},"type":"Feature"},
	{"geometry":{"coordinates":[37.646101,55.76477],"type":"Point"},"properties":{"osm_id":"7131980937","tag":{"amenity":"waste_disposal"}},"type":"Feature"},
	{"geometry":{"coordinates":[37.635009,55.767412],"type":"Point"},"properties":{"osm_id":"7147335426","tag":{"amenity":"waste_disposal","covered":"yes"}},"type":"Feature"},
	{"geometry":{"coordinates":[37.634981,55.767417],"type":"Point"},"properties":{"osm_id":"7147335427","tag":{"amenity":"waste_disposal","covered":"yes"}},"type":"Feature"},
	{"geometry":{"coordinates":[37.634953,55.767422],"type":"Point"},"properties":{"osm_id":"7147335428","tag":{"amenity":"waste_disposal","covered":"yes"}},"type":"Feature"},
	{"geometry":{"coordinates":[37.634924,55.767427],"type":"Point"},"properties":{"osm_id":"7147335429","tag":{"amenity":"waste_disposal","covered":"yes"}},"type":"Feature"},
	{"geometry":{"coordinates":[37.633776,55.767269],"type":"Point"},"properties":{"osm_id":"7147335437","tag":{"amenity":"waste_disposal","covered":"yes"}},"type":"Feature"},
	{"geometry":{"coordinates":[37.633737,55.767273],"type":"Point"},"properties":{"osm_id":"7147335438","tag":{"amenity":"waste_disposal","covered":"yes"}},"type":"Feature"},
	{"geometry":{"coordinates":[37.631845,55.768689],"type":"Point"},"properties":{"osm_id":"7201747837","tag":{"amenity":"waste_basket"}},"type":"Feature"},
	{"geometry":{"coordinates":[37.647866,55.752222],"type":"Point"},"properties":{"osm_id":"7206254103","tag":{"amenity":"waste_disposal"}},"type":"Feature"},
	{"geometry":{"coordinates":[37.630961,55.771762],"type":"Point"},"properties":{"osm_id":"7246778928","tag":{"amenity":"waste_disposal","waste":"trash"}},"type":"Feature"},
	{"geometry":{"coordinates":[37.64319,55.753069],"type":"Point"},"properties":{"osm_id":"7283016986","tag":{"amenity":"waste_basket"}},"type":"Feature"},
	{"geometry":{"coordinates":[37.643217,55.753124],"type":"Point"},"properties":{"osm_id":"7283016987","tag":{"amenity":"waste_basket"}},"type":"Feature"},
	{"geometry":{"coordinates":[37.642528,55.76153],"type":"Point"},"properties":{"osm_id":"7347797436","tag":{"amenity":"waste_disposal"}},"type":"Feature"},
	{"geometry":{"coordinates":[37.641779,55.762251],"type":"Point"},"properties":{"osm_id":"7370160419","tag":{"amenity":"waste_disposal"}},"type":"Feature"},
	{"geometry":{"coordinates":[37.641765,55.762265],"type":"Point"},"properties":{"osm_id":"7370160420","tag":{"amenity":"waste_disposal"}},"type":"Feature"},
	{"geometry":{"coordinates":[37.696779,55.758806],"type":"Point"},"properties":{"osm_id":"7593099899","tag":{"amenity":"waste_disposal"}},"type":"Feature"},
	{"geometry":{"coordinates":[37.639127,55.764968],"type":"Point"},"properties":{"osm_id":"7640415420","tag":{"amenity":"waste_basket"}},"type":"Feature"},
	{"geometry":{"coordinates":[37.64228,55.763497],"type":"Point"},"properties":{"osm_id":"7640415427","tag":{"amenity":"waste_basket"}},"type":"Feature"},
	{"geometry":{"coordinates":[37.644144,55.77423],"type":"Point"},"properties":{"osm_id":"7653301566","tag":{"amenity":"waste_disposal"}},"type":"Feature"},
	{"geometry":{"coordinates":[37.659969,55.747865],"type":"Point"},"properties":{"osm_id":"7692198147","tag":{"amenity":"waste_disposal","covered":"yes"}},"type":"Feature"},
	{"geometry":{"coordinates":[37.659981,55.747883],"type":"Point"},"properties":{"osm_id":"7692198148","tag":{"amenity":"waste_disposal","covered":"yes"}},"type":"Feature"},
	{"geometry":{"coordinates":[37.641424,55.77606],"type":"Point"},"properties":{"osm_id":"7713961177","tag":{"amenity":"waste_disposal"}},"type":"Feature"},
	{"geometry":{"coordinates":[37.642227,55.775636],"type":"Point"},"properties":{"osm_id":"7713961178","tag":{"amenity":"waste_disposal"}},"type":"Feature"},
	{"geometry":{"coordinates":[37.631275,55.770827],"type":"Point"},"properties":{"osm_id":"7717865391","tag":{"amenity":"waste_disposal","covered":"yes"}},"type":"Feature"},
	{"geometry":{"coordinates":[37.632992,55.730322],"type":"Point"},"properties":{"osm_id":"7724369820","tag":{"amenity":"recycling","description":"\u00d0\u0092 \u00d0\u00bc\u00d0\u00b0\u00d0\u00b3\u00d0\u00b0\u00d0\u00b7\u00d0\u00b8\u00d0\u00bd\u00d0\u00b5 \u00d0\u0092\u00d0\u00ba\u00d1\u0083\u00d1\u0081\u00d0\u00b2\u00d0\u00b8\u00d0\u00bb\u00d0\u00bb","recycling:accumulator":"yes","recycling:batteries":"yes","recycling_type":"container"}},"type":"Feature"},
	{"geometry":{"coordinates":[37.673348,55.744347],"type":"Point"},"properties":{"osm_id":"7730945163","tag":{"amenity":"waste_disposal"}},"type":"Feature"},
	{"geometry":{"coordinates":[37.664083,55.770434],"type":"Point"},"properties":{"osm_id":"7737395675","tag":{"amenity":"waste_disposal"}},"type":"Feature"},
	{"geometry":{"coordinates":[37.654822,55.769171],"type":"Point"},"properties":{"osm_id":"7741921317","tag":{"amenity":"waste_disposal"}},"type":"Feature"},
	{"geometry":{"coordinates":[37.654823,55.769195],"type":"Point"},"properties":{"osm_id":"7741921318","tag":{"amenity":"waste_disposal"}},"type":"Feature"},
	{"geometry":{"coordinates":[37.654942,55.768123],"type":"Point"},"properties":{"osm_id":"7741921332","tag":{"amenity":"waste_disposal","covered":"yes"}},"type":"Feature"},
	{"geometry":{"coordinates":[37.654928,55.768148],"type":"Point"},"properties":{"osm_id":"7741921334","tag":{"amenity":"waste_disposal","covered":"yes"}},"type":"Feature"},
	{"geometry":{"coordinates":[37.652373,55.76758],"type":"Point"},"properties":{"osm_id":"7741921490","tag":{"amenity":"waste_disposal"}},"type":"Feature"},
	{"geometry":{"coordinates":[37.652397,55.767565],"type":"Point"},"properties":{"osm_id":"7741921491","tag":{"amenity":"waste_disposal"}},"type":"Feature"},
	{"geometry":{"coordinates":[37.624645,55.776004],"type":"Point"},"properties":{"osm_id":"7745038926","tag":{"amenity":"waste_disposal"}},"type":"Feature"},
	{"geometry":{"coordinates":[37.621172,55.775412],"type":"Point"},"properties":{"osm_id":"7745038927","tag":{"amenity":"waste_disposal"}},"type":"Feature"},
	{"geometry":{"coordinates":[37.627103,55.772977],"type":"Point"},"properties":{"osm_id":"7752619037","tag":{"amenity":"recycling","operator":"\u00d0\u009e\u00d0\u009e\u00d0\u009e \u00c2\u00ab\u00d0\u00ad\u00d0\u00ba\u00d0\u00be\u00d0\u009b\u00d0\u00b0\u00d0\u00b9\u00d0\u00bd\u00c2\u00bb","recycling:batteries":"no","recycling:beverage_cartons":"\u00d0\u009f\u00d0\u00b0\u00d0\u00ba\u00d0\u00b5\u00d1\u0082\u00d1\u008b \u00d0\u00be\u00d1\u0082 \u00d0\u00bd\u00d0\u00b0\u00d0\u00bf\u00d0\u00b8\u00d1\u0082\u00d0\u00ba\u00d0\u00be\u00d0\u00b2 \u00d0\u00b8 \u00d0\u00bc\u00d0\u00be\u00d0\u00bb\u00d0\u00be\u00d1\u0087\u00d0\u00bd\u00d1\u008b\u00d1\u0085 \u00d0\u00bf\u00d1\u0080\u00d0\u00be\u00d0\u00b4\u00d1\u0083\u00d0\u00ba\u00d1\u0082\u00d0\u00be\u00d0\u00b2.","recycling:code:1":"yes","recycling:code:1:description":"\u00d0\u00b1\u00d1\u0083\u00d1\u0082\u00d1\u008b\u00d0\u00bb\u00d0\u00ba\u00d0\u00b8 \u00d0\u00b8\u00d0\u00b7-\u00d0\u00bf\u00d0\u00be\u00d0\u00b4 \u00d0\u00bd\u00d0\u00b0\u00d0\u00bf\u00d0\u00b8\u00d1\u0082\u00d0\u00ba\u00d0\u00be\u00d0\u00b2, \u00d0\u00bc\u00d0\u00be\u00d0\u00bb\u00d0\u00be\u00d1\u0087\u00d0\u00bd\u00d1\u008b\u00d1\u0085 \u00d0\u00bf\u00d1\u0080\u00d0\u00be\u00d0\u00b4\u00d1\u0083\u00d0\u00ba\u00d1\u0082\u00d0\u00be\u00d0\u00b2, \u00d1\u0080\u00d0\u00b0\u00d1\u0081\u00d1\u0082\u00d0\u00b8\u00d1\u0082\u00d0\u00b5\u00d0\u00bb\u00d1\u008c\u00d0\u00bd\u00d0\u00be\u00d0\u00b3\u00d0\u00be \u00d0\u00bc\u00d0\u00b0\u00d1\u0081\u00d0\u00bb\u00d0\u00b0.","recycling:code:2":"yes","recycling:code:2:description":"\u00d1\u0084\u00d0\u00bb\u00d0\u00b0\u00d0\u00ba\u00d0\u00be\u00d0\u00bd\u00d1\u008b \u00d0\u00be\u00d1\u0082 \u00d0\u00ba\u00d0\u00be\u00d1\u0081\u00d0\u00bc\u00d0\u00b5\u00d1\u0082\u00d0\u00b8\u00d0\u00ba\u00d0\u00b8 \u00d0\u00b8 \u00d0\u00b1\u00d1\u008b\u00d1\u0082\u00d0\u00be\u00d0\u00b2\u00d0\u00be\u00d0\u00b9 \u00d1\u0085\u00d0\u00b8\u00d0\u00bc\u00d0\u00b8\u00d0\u00b8, \u00d0\u00ba\u00d1\u0080\u00d1\u008b\u00d1\u0088\u00d0\u00ba\u00d0\u00b8 \u00d0\u00be\u00d1\u0082 \u00d0\u00b1\u00d1\u0083\u00d1\u0082\u00d1\u008b\u00d0\u00bb\u00d0\u00be\u00d0\u00ba.","recycling:code:3":"no","recycling:code:4":"yes","recycling:code:4:description":"\u00d0\u00bf\u00d0\u00b0\u00d0\u00ba\u00d0\u00b5\u00d1\u0082\u00d1\u008b \u00d0\u00be\u00d1\u0082 \u00d1\u0081\u00d1\u0082\u00d0\u00b8\u00d1\u0080\u00d0\u00b0\u00d0\u00bb\u00d1\u008c\u00d0\u00bd\u00d0\u00be\u00d0\u00b3\u00d0\u00be \u00d0\u00bf\u00d0\u00be\u00d1\u0080\u00d0\u00be\u00d1\u0088\u00d0\u00ba\u00d0\u00b0, \u00d1\u0081\u00d1\u0082\u00d1\u0080\u00d0\u00be\u00d0\u00b8\u00d1\u0082\u00d0\u00b5\u00d0\u00bb\u00d1\u008c\u00d0\u00bd\u00d1\u008b\u00d0\u00b5 \u00d0\u00bc\u00d1\u0083\u00d1\u0081\u00d0\u00be\u00d1\u0080\u00d0\u00bd\u00d1\u008b\u00d0\u00b5 \u00d0\u00bc\u00d0\u00b5\u00d1\u0088\u00d0\u00ba\u00d0\u00b8, \u00d0\u00bf\u00d0\u00b0\u00d0\u00ba\u00d0\u00b5\u00d1\u0082\u00d1\u008b \u00d0\u00be\u00d1\u0082 \u00d0\u00b7\u00d0\u00b0\u00d0\u00bc\u00d0\u00be\u00d1\u0080\u00d0\u00be\u00d0\u00b6\u00d0\u00b5\u00d0\u00bd\u00d0\u00bd\u00d1\u008b\u00d1\u0085 \u00d0\u00bf\u00d1\u0080\u00d0\u00be\u00d0\u00b4\u00d1\u0083\u00d0\u00ba\u00d1\u0082\u00d0\u00be\u00d0\u00b2, \u00d1\u0081\u00d1\u0082\u00d1\u0080\u00d0\u00b5\u00d1\u0082\u00d1\u0087-\u00d0\u00bf\u00d0\u00bb\u00d0\u00b5\u00d0\u00bd\u00d0\u00ba\u00d0\u00b0 (\u00d0\u00bf\u00d0\u00b8\u00d1\u0089\u00d0\u00b5\u00d0\u00b2\u00d0\u00b0\u00d1\u008f \u00d0\u00bf\u00d0\u00bb\u00d0\u00b5\u00d0\u00bd\u00d0\u00ba\u00d0\u00b0), \u00d0\u00bf\u00d0\u00b0\u00d0\u00ba\u00d0\u00b5\u00d1\u0082\u00d1\u008b.","recycling:code:5":"yes","recycling:code:5:description":"\u00d0\u00b2\u00d0\u00b5\u00d0\u00b4\u00d1\u0080\u00d0\u00b0, \u00d0\u00bf\u00d0\u00b8\u00d1\u0089\u00d0\u00b5\u00d0\u00b2\u00d1\u008b\u00d0\u00b5 \u00d0\u00ba\u00d0\u00be\u00d0\u00bd\u00d1\u0082\u00d0\u00b5\u00d0\u00b9\u00d0\u00bd\u00d0\u00b5\u00d1\u0080\u00d1\u008b, \u00d1\u008f\u00d1\u0089\u00d0\u00b8\u00d0\u00ba\u00d0\u00b8, \u00d1\u0082\u00d1\u0080\u00d1\u0083\u00d0\u00b1\u00d0\u00be\u00d1\u0087\u00d0\u00ba\u00d0\u00b8 \u00d0\u00b4\u00d0\u00bb\u00d1\u008f \u00d0\u00bd\u00d0\u00b0\u00d0\u00bf\u00d0\u00b8\u00d1\u0082\u00d0\u00ba\u00d0\u00be\u00d0\u00b2, \u00d0\u00b1\u00d0\u00b0\u00d0\u00bd\u00d0\u00be\u00d1\u0087\u00d0\u00ba\u00d0\u00b8 \u00d0\u00be\u00d1\u0082 \u00d0\u00bb\u00d0\u00b5\u00d0\u00ba\u00d0\u00b0\u00d1\u0080\u00d1\u0081\u00d1\u0082\u00d0\u00b2, \u00d1\u0088\u00d1\u0083\u00d1\u0080\u00d1\u0088\u00d0\u00b0\u00d1\u0089\u00d0\u00b0\u00d1\u008f \u00d0\u00bf\u00d0\u00bb\u00d0\u00b0\u00d1\u0081\u00d1\u0082\u00d0\u00b8\u00d0\u00ba\u00d0\u00be\u00d0\u00b2\u00d0\u00b0\u00d1\u008f \u00d1\u0083\u00d0\u00bf\u00d0\u00b0\u00d0\u00ba\u00d0\u00be\u00d0\u00b2\u00d0\u00ba\u00d0\u00b0","recycling:code:6":"yes","recycling:glass_cans":"yes","recycling:glass_cans:description":"\u00d0\u0091\u00d0\u00b0\u00d0\u00bd\u00d0\u00ba\u00d0\u00b8 \u00d0\u00b8 \u00d0\u00b1\u00d1\u0083\u00d1\u0082\u00d1\u008b\u00d0\u00bb\u00d0\u00ba\u00d0\u00b8 \u00d0\u00ba\u00d0\u00be\u00d1\u0080\u00d0\u00b8\u00d1\u0087\u00d0\u00bd\u00d0\u00b5\u00d0\u00b2\u00d1\u008b\u00d0\u00b5, \u00d0\u00b7\u00d0\u00b5\u00d0\u00bb\u00d0\u00b5\u00d0\u00bd\u00d1\u008b\u00d0\u00b5, \u00d0\u00bf\u00d1\u0080\u00d0\u00be\u00d0\u00b7\u00d1\u0080\u00d0\u00b0\u00d1\u0087\u00d0\u00bd\u00d1\u008b\u00d0\u00b5. \u00d0\u00a0\u00d0\u00b0\u00d0\u00b7\u00d0\u00b1\u00d0\u00b8\u00d1\u0082\u00d1\u008b\u00d0\u00b5 \u00d0\u00b8 \u00d1\u0086\u00d0\u00b5\u00d0\u00bb\u00d1\u008b\u00d0\u00b5","recycling:paper":"yes","recycling:paper:description":"\u00d0\u009a\u00d0\u00b0\u00d1\u0080\u00d1\u0082\u00d0\u00be\u00d0\u00bd, \u00d0\u00b1\u00d0\u00b5\u00d0\u00bb\u00d0\u00b0\u00d1\u008f \u00d0\u00b8 \u00d1\u0086\u00d0\u00b2\u00d0\u00b5\u00d1\u0082\u00d0\u00bd\u00d0\u00b0\u00d1\u008f \u00d0\u00b1\u00d1\u0083\u00d0\u00bc\u00d0\u00b0\u00d0\u00b3\u00d0\u00b0, \u00d0\u00b1\u00d1\u0083\u00d0\u00bc\u00d0\u00b0\u00d0\u00b6\u00d0\u00bd\u00d1\u008b\u00d0\u00b5 \u00d0\u00bf\u00d0\u00b0\u00d0\u00ba\u00d0\u00b5\u00d1\u0082\u00d1\u008b, \u00d0\u00ba\u00d0\u00be\u00d0\u00bd\u00d0\u00b2\u00d0\u00b5\u00d1\u0080\u00d1\u0082\u00d1\u008b, \u00d0\u00ba\u00d0\u00bd\u00d0\u00b8\u00d0\u00b3\u00d0\u00b8, \u00d0\u00b3\u00d0\u00b0\u00d0\u00b7\u00d0\u00b5\u00d1\u0082\u00d1\u008b, \u00d0\u00b6\u00d1\u0083\u00d1\u0080\u00d0\u00bd\u00d0\u00b0\u00d0\u00bb\u00d1\u008b.","recycling:plastic_bottle_caps":"yes","recycling:plastic_bottle_caps:description":"\u00d1\u0081\u00d0\u00be\u00d0\u00b1\u00d1\u0080\u00d0\u00b0\u00d0\u00bd\u00d0\u00bd\u00d1\u008b\u00d0\u00b5 \u00d0\u00b2 \u00d1\u0091\u00d0\u00bc\u00d0\u00ba\u00d0\u00be\u00d1\u0081\u00d1\u0082\u00d1\u008c, \u00d0\u00bd\u00d0\u00b0\u00d0\u00bf\u00d1\u0080\u00d0\u00b8\u00d0\u00bc\u00d0\u00b5\u00d1\u0080 \u00d0\u00b2 \u00d0\u00bf\u00d1\u008f\u00d1\u0082\u00d0\u00b8\u00d0\u00bb\u00d0\u00b8\u00d1\u0082\u00d1\u0080\u00d0\u00be\u00d0\u00b2\u00d1\u0083\u00d1\u008e \u00d0\u00ba\u00d0\u00b0\u00d0\u00bd\u00d0\u00b8\u00d1\u0081\u00d1\u0082\u00d1\u0080\u00d1\u0083. \u00d0\u0094\u00d0\u00bb\u00d1\u008f \u00d0\u00bf\u00d1\u0080\u00d0\u00be\u00d0\u00b5\u00d0\u00ba\u00d1\u0082\u00d0\u00b0 \u00c2\u00ab\u00d0\u0094\u00d0\u00be\u00d0\u00b1\u00d1\u0080\u00d1\u008b\u00d0\u00b5 \u00d0\u00ba\u00d1\u0080\u00d1\u008b\u00d1\u0088\u00d0\u00b5\u00d1\u0087\u00d0\u00ba\u00d0\u00b8\u00c2\u00bb","recycling:scrap_metal":"yes","recycling:scrap_metal:description":"\u00d0\u00b0\u00d0\u00bb\u00d1\u008e\u00d0\u00bc\u00d0\u00b8\u00d0\u00bd\u00d0\u00b8\u00d0\u00b5\u00d0\u00b2\u00d1\u008b\u00d0\u00b5 \u00d0\u00b1\u00d0\u00b0\u00d0\u00bd\u00d0\u00ba\u00d0\u00b8 \u00d0\u00b8\u00d0\u00b7-\u00d0\u00bf\u00d0\u00be\u00d0\u00b4 \u00d0\u00bd\u00d0\u00b0\u00d0\u00bf\u00d0\u00b8\u00d1\u0082\u00d0\u00ba\u00d0\u00be\u00d0\u00b2, \u00d0\u00b6\u00d0\u00b5\u00d1\u0081\u00d1\u0082\u00d1\u008f\u00d0\u00bd\u00d1\u008b\u00d0\u00b5 \u00d0\u00b1\u00d0\u00b0\u00d0\u00bd\u00d0\u00ba\u00d0\u00b8, \u00d0\u00bc\u00d0\u00b5\u00d1\u0082\u00d0\u00b0\u00d0\u00bb\u00d0\u00bb\u00d0\u00b8\u00d1\u0087\u00d0\u00b5\u00d1\u0081\u00d0\u00ba\u00d0\u00b8\u00d0\u00b5 \u00d0\u00ba\u00d1\u0080\u00d1\u008b\u00d1\u0088\u00d0\u00ba\u00d0\u00b8, \u00d0\u00b0\u00d1\u008d\u00d1\u0080\u00d0\u00be\u00d0\u00b7\u00d0\u00be\u00d0\u00bb\u00d1\u008c\u00d0\u00bd\u00d1\u008b\u00d0\u00b5 \u00d0\u00b1\u00d0\u00b0\u00d0\u00bb\u00d0\u00bb\u00d0\u00be\u00d0\u00bd\u00d1\u0087\u00d0\u00b8\u00d0\u00ba\u00d0\u00b8, \u00d0\u00b1\u00d0\u00b0\u00d0\u00bd\u00d0\u00ba\u00d0\u00b8 \u00d0\u00b8\u00d0\u00b7-\u00d0\u00bf\u00d0\u00be\u00d0\u00b4 \u00d0\u00ba\u00d1\u0080\u00d0\u00b0\u00d1\u0081\u00d0\u00ba\u00d0\u00b8, \u00d0\u00b8\u00d0\u00bd\u00d1\u0081\u00d1\u0082\u00d1\u0080\u00d1\u0083\u00d0\u00bc\u00d0\u00b5\u00d0\u00bd\u00d1\u0082\u00d1\u008b, \u00d1\u0081\u00d0\u00ba\u00d0\u00be\u00d0\u00b2\u00d0\u00be\u00d1\u0080\u00d0\u00be\u00d0\u00b4\u00d0\u00ba\u00d0\u00b8, \u00d0\u00ba\u00d0\u00b0\u00d1\u0081\u00d1\u0082\u00d1\u0080\u00d1\u008e\u00d0\u00bb\u00d0\u00b8, \u00d0\u00bc\u00d0\u00b5\u00d1\u0082\u00d0\u00b8\u00d0\u00b7\u00d1\u008b.","recycling_type":"container","website:recycling:fractions":"http://ec-line.ru/rso/;http://ec-line.ru/upload/\u00d0\u00a0\u00d0\u00a1\u00d0\u009e \u00d0\u00bf\u00d0\u00bb\u00d0\u00b0\u00d0\u00ba\u00d0\u00b0\u00d1\u0082.pdf"}},"type":"Feature"},
	{"geometry":{"coordinates":[37.627102,55.772957],"type":"Point"},"properties":{"osm_id":"7752619038","tag":{"amenity":"waste_disposal","operator":"\u00d0\u009e\u00d0\u009e\u00d0\u009e \u00c2\u00ab\u00d0\u00ad\u00d0\u00ba\u00d0\u00be\u00d0\u009b\u00d0\u00b0\u00d0\u00b9\u00d0\u00bd\u00c2\u00bb"}},"type":"Feature"},
	{"geometry":{"coordinates":[37.671948,55.743174],"type":"Point"},"properties":{"osm_id":"7752712952","tag":{"amenity":"waste_disposal"}},"type":"Feature"},
	{"geometry":{"coordinates":[37.667129,55.769239],"type":"Point"},"properties":{"osm_id":"7757502529","tag":{"amenity":"waste_disposal"}},"type":"Feature"},
	{"geometry":{"coordinates":[37.66713,55.769266],"type":"Point"},"properties":{"osm_id":"7757502530","tag":{"amenity":"waste_disposal"}},"type":"Feature"},
	{"geometry":{"coordinates":[37.67141,55.745939],"type":"Point"},"properties":{"osm_id":"7762302743","tag":{"amenity":"waste_disposal"}},"type":"Feature"},
	{"geometry":{"coordinates":[37.674841,55.743577],"type":"Point"},"properties":{"osm_id":"7770884796","tag":{"amenity":"waste_disposal"}},"type":"Feature"},
	{"geometry":{"coordinates":[37.675912,55.744635],"type":"Point"},"properties":{"osm_id":"7770925079","tag":{"amenity":"waste_disposal"}},"type":"Feature"},
	{"geometry":{"coordinates":[37.674281,55.773902],"type":"Point"},"properties":{"osm_id":"7783724818","tag":{"amenity":"recycling","recycling:clothes":"yes","recycling_type":"container"}},"type":"Feature"},
	{"geometry":{"coordinates":[37.670006,55.775078],"type":"Point"},"properties":{"osm_id":"7786027614","tag":{"amenity":"waste_disposal"}},"type":"Feature"},
	{"geometry":{"coordinates":[37.665376,55.774381],"type":"Point"},"properties":{"osm_id":"7786027638","tag":{"amenity":"waste_disposal"}},"type":"Feature"},
	{"geometry":{"coordinates":[37.644842,55.752008],"type":"Point"},"properties":{"osm_id":"7795099785","tag":{"amenity":"waste_disposal"}},"type":"Feature"},
	{"geometry":{"coordinates":[37.658871,55.764739],"type":"Point"},"properties":{"osm_id":"7823067572","tag":{"amenity":"waste_disposal"}},"type":"Feature"},
	{"geometry":{"coordinates":[37.666002,55.774545],"type":"Point"},"properties":{"osm_id":"7823993088","tag":{"amenity":"waste_disposal"}},"type":"Feature"},
	{"geometry":{"coordinates":[37.663882,55.766116],"type":"Point"},"properties":{"osm_id":"7823993133","tag":{"amenity":"waste_disposal"}},"type":"Feature"},
	{"geometry":{"coordinates":[37.664305,55.765684],"type":"Point"},"properties":{"osm_id":"7823993134","tag":{"amenity":"waste_disposal"}},"type":"Feature"},
	{"geometry":{"coordinates":[37.670521,55.744058],"type":"Point"},"properties":{"osm_id":"7837388610","tag":{"amenity":"waste_disposal"}},"type":"Feature"},
	{"geometry":{"coordinates":[37.643183,55.771302],"type":"Point"},"properties":{"osm_id":"7844583134","tag":{"amenity":"waste_disposal"}},"type":"Feature"},
	{"geometry":{"coordinates":[37.643202,55.771318],"type":"Point"},"properties":{"osm_id":"7844583135","tag":{"amenity":"waste_disposal"}},"type":"Feature"},
	{"geometry":{"coordinates":[37.632849,55.765104],"type":"Point"},"properties":{"osm_id":"7853305692","tag":{"amenity":"waste_disposal"}},"type":"Feature"},
	{"geometry":{"coordinates":[37.631424,55.765201],"type":"Point"},"properties":{"osm_id":"7853305697","tag":{"amenity":"waste_disposal"}},"type":"Feature"},
	{"geometry":{"coordinates":[37.660722,55.762355],"type":"Point"},"properties":{"osm_id":"7884512731","tag":{"amenity":"waste_disposal"}},"type":"Feature"},
	{"geometry":{"coordinates":[37.680492,55.743669],"type":"Point"},"properties":{"osm_id":"7925480474","tag":{"amenity":"waste_disposal"}},"type":"Feature"},
	{"geometry":{"coordinates":[37.620181,55.737298],"type":"Point"},"properties":{"osm_id":"7935630460","tag":{"amenity":"waste_disposal"}},"type":"Feature"},
	{"geometry":{"coordinates":[37.634672,55.735183],"type":"Point"},"properties":{"osm_id":"7935652950","tag":{"amenity":"waste_disposal"}},"type":"Feature"},
	{"geometry":{"coordinates":[37.656029,55.765804],"type":"Point"},"properties":{"osm_id":"7945397228","tag":{"amenity":"waste_disposal"}},"type":"Feature"}
]
}
