{
"type": "FeatureCollection",
"features": [
	{"geometry":{"coordinates":[37.665669,55.706059],"type":"Point"},"properties":{"osm_id":"673891390","tag":{"amenity":"waste_disposal"}},"type":"Feature"},
	{"geometry":{"coordinates":[37.653602,55.682032],"type":"Point"},"properties":{"osm_id":"811035038","tag":{"amenity":"waste_disposal"}},"type":"Feature"},
	{"geometry":{"coordinates":[37.6554,55.680565],"type":"Point"},"properties":{"osm_id":"811348869","tag":{"amenity":"waste_disposal","waste":"trash"}},"type":"Feature"},
	{"geometry":{"coordinates":[37.653309,55.721219],"type":"Point"},"properties":{"osm_id":"1000919005","tag":{"amenity":"waste_disposal"}},"type":"Feature"},
	{"geometry":{"coordinates":[37.61859,55.700382],"type":"Point"},"properties":{"osm_id":"1194048830","tag":{"amenity":"waste_disposal"}},"type":"Feature"},
	{"geometry":{"coordinates":[37.634523,55.724795],"type":"Point"},"properties":{"osm_id":"1396297788","tag":{"amenity":"recycling"}},"type":"Feature"},
	{"geometry":{"coordinates":[37.618637,55.712095],"type":"Point"},"properties":{"osm_id":"1419905300","tag":{"amenity":"waste_disposal"}},"type":"Feature"},
	{"geometry":{"coordinates":[37.638061,55.681356],"type":"Point"},"properties":{"osm_id":"1722621012","tag":{"amenity":"waste_disposal"}},"type":"Feature"},
	{"geometry":{"coordinates":[37.675487,55.716785],"type":"Point"},"properties":{"osm_id":"1740054692","tag":{"amenity":"recycling","recycling_type":"centre"}},"type":"Feature"},
	{"geometry":{"coordinates":[37.659316,55.711919],"type":"Point"},"properties":{"osm_id":"2235446206","tag":{"amenity":"waste_disposal"}},"type":"Feature"},
	{"geometry":{"coordinates":[37.658386,55.708358],"type":"Point"},"properties":{"osm_id":"2349772000","tag":{"amenity":"waste_basket"}},"type":"Feature"},
	{"geometry":{"coordinates":[37.661583,55.708455],"type":"Point"},"properties":{"osm_id":"2349772001","tag":{"amenity":"waste_basket"}},"type":"Feature"},
	{"geometry":{"coordinates":[37.663568,55.708678],"type":"Point"},"properties":{"osm_id":"2349772002","tag":{"amenity":"waste_disposal","waste":"trash"}},"type":"Feature"},
	{"geometry":{"coordinates":[37.662474,55.709023],"type":"Point"},"properties":{"osm_id":"2349772003","tag":{"amenity":"waste_basket"}},"type":"Feature"},
	{"geometry":{"coordinates":[37.65977,55.709089],"type":"Point"},"properties":{"osm_id":"2349772004","tag":{"amenity":"waste_disposal","waste":"trash"}},"type":"Feature"},
	{"geometry":{"coordinates":[37.661423,55.709434],"type":"Point"},"properties":{"osm_id":"2349772005","tag":{"amenity":"waste_basket"}},"type":"Feature"},
	{"geometry":{"coordinates":[37.663236,55.709452],"type":"Point"},"properties":{"osm_id":"2349772006","tag":{"amenity":"waste_basket"}},"type":"Feature"},
	{"geometry":{"coordinates":[37.629725,55.724755],"type":"Point"},"properties":{"osm_id":"2934135609","tag":{"amenity":"waste_disposal"}},"type":"Feature"},
	{"geometry":{"coordinates":[37.67629,55.703726],"type":"Point"},"properties":{"osm_id":"2946168661","tag":{"amenity":"waste_disposal"}},"type":"Feature"},
	{"geometry":{"coordinates":[37.631537,55.722394],"type":"Point"},"properties":{"osm_id":"2955527060","tag":{"amenity":"recycling"}},"type":"Feature"},
	{"geometry":{"coordinates":[37.626516,55.725606],"type":"Point"},"properties":{"osm_id":"2994758911","tag":{"amenity":"waste_disposal"}},"type":"Feature"},
	{"geometry":{"coordinates":[37.64489,55.717239],"type":"Point"},"properties":{"osm_id":"3037088840","tag":{"amenity":"waste_disposal"}},"type":"Feature"},
	{"geometry":{"coordinates":[37.660042,55.706258],"type":"Point"},"properties":{"osm_id":"3093712464","tag":{"amenity":"waste_disposal"}},"type":"Feature"},
	{"geometry":{"coordinates":[37.661371,55.706262],"type":"Point"},"properties":{"osm_id":"3093712475","tag":{"amenity":"waste_disposal"}},"type":"Feature"},
	{"geometry":{"coordinates":[37.648918,55.719788],"type":"Point"},"properties":{"osm_id":"3154265213","tag":{"amenity":"waste_disposal"}},"type":"Feature"},
	{"geometry":{"coordinates":[37.643225,55.711188],"type":"Point"},"properties":{"osm_id":"3159593261","tag":{"amenity":"waste_disposal"}},"type":"Feature"},
	{"geometry":{"coordinates":[37.647192,55.718182],"type":"Point"},"properties":{"osm_id":"3215824667","tag":{"amenity":"waste_disposal"}},"type":"Feature"},
	{"geometry":{"coordinates":[37.628261,55.716931],"type":"Point"},"properties":{"osm_id":"3334385080","tag":{"amenity":"recycling"}},"type":"Feature"},
	{"geometry":{"coordinates":[37.655997,55.708978],"type":"Point"},"properties":{"osm_id":"3498727861","tag":{"amenity":"recycling","description":"\u00d0\u009a\u00d0\u00be\u00d0\u00bd\u00d1\u0082\u00d0\u00b5\u00d0\u00b9\u00d0\u00bd\u00d0\u00b5\u00d1\u0080 \u00d0\u00b4\u00d0\u00bb\u00d1\u008f \u00d1\u0081\u00d1\u0082\u00d0\u00b0\u00d1\u0080\u00d1\u008b\u00d1\u0085 \u00d0\u00b1\u00d0\u00b0\u00d1\u0082\u00d0\u00b0\u00d1\u0080\u00d0\u00b5\u00d0\u00b5\u00d0\u00ba \u00d0\u00b2 pleer.ru","recycling:batteries":"yes","recycling_type":"container"}},"type":"Feature"},
	{"geometry":{"coordinates":[37.654848,55.705121],"type":"Point"},"properties":{"osm_id":"3530613624","tag":{"amenity":"waste_basket"}},"type":"Feature"},
	{"geometry":{"coordinates":[37.621569,55.722676],"type":"Point"},"properties":{"osm_id":"3616306443","tag":{"amenity":"recycling","operator":"\u00d0\u009c\u00d0\u00b5\u00d0\u00b3\u00d0\u00b0\u00d0\u00bf\u00d0\u00be\u00d0\u00bb\u00d0\u00b8\u00d1\u0081\u00d1\u0080\u00d0\u00b5\u00d1\u0081\u00d1\u0083\u00d1\u0080\u00d1\u0081","recycling:batteries":"yes","recycling_type":"container"}},"type":"Feature"},
	{"geometry":{"coordinates":[37.654561,55.705466],"type":"Point"},"properties":{"osm_id":"3683874535","tag":{"amenity":"waste_basket"}},"type":"Feature"},
	{"geometry":{"coordinates":[37.653394,55.705111],"type":"Point"},"properties":{"osm_id":"3685659740","tag":{"amenity":"waste_basket"}},"type":"Feature"},
	{"geometry":{"coordinates":[37.654236,55.705292],"type":"Point"},"properties":{"osm_id":"3685659744","tag":{"amenity":"waste_basket"}},"type":"Feature"},
	{"geometry":{"coordinates":[37.660799,55.679207],"type":"Point"},"properties":{"osm_id":"3719202098","tag":{"amenity":"recycling"}},"type":"Feature"},
	{"geometry":{"coordinates":[37.624532,55.710302],"type":"Point"},"properties":{"osm_id":"3720502579","tag":{"amenity":"waste_disposal"}},"type":"Feature"},
	{"geometry":{"coordinates":[37.65502,55.706204],"type":"Point"},"properties":{"osm_id":"3724616177","tag":{"amenity":"waste_basket"}},"type":"Feature"},
	{"geometry":{"coordinates":[37.65501,55.706126],"type":"Point"},"properties":{"osm_id":"3724616178","tag":{"amenity":"waste_basket"}},"type":"Feature"},
	{"geometry":{"coordinates":[37.653686,55.707377],"type":"Point"},"properties":{"osm_id":"3750119036","tag":{"amenity":"waste_disposal"}},"type":"Feature"},
	{"geometry":{"coordinates":[37.652632,55.704737],"type":"Point"},"properties":{"osm_id":"3757454845","tag":{"amenity":"waste_basket"}},"type":"Feature"},
	{"geometry":{"coordinates":[37.656855,55.70618],"type":"Point"},"properties":{"osm_id":"3757454876","tag":{"amenity":"waste_basket"}},"type":"Feature"},
	{"geometry":{"coordinates":[37.657082,55.706281],"type":"Point"},"properties":{"osm_id":"3757454878","tag":{"amenity":"waste_basket"}},"type":"Feature"},
	{"geometry":{"coordinates":[37.635882,55.725842],"type":"Point"},"properties":{"osm_id":"3786423141","tag":{"amenity":"waste_disposal"}},"type":"Feature"},
	{"geometry":{"coordinates":[37.655103,55.706341],"type":"Point"},"properties":{"osm_id":"3798971494","tag":{"amenity":"waste_basket"}},"type":"Feature"},
	{"geometry":{"coordinates":[37.65473,55.705395],"type":"Point"},"properties":{"osm_id":"3885130142","tag":{"amenity":"waste_basket"}},"type":"Feature"},
	{"geometry":{"coordinates":[37.663494,55.714612],"type":"Point"},"properties":{"osm_id":"3914765725","tag":{"amenity":"waste_disposal","waste":"trash"}},"type":"Feature"},
	{"geometry":{"coordinates":[37.625377,55.709695],"type":"Point"},"properties":{"osm_id":"3927503802","tag":{"amenity":"waste_disposal"}},"type":"Feature"},
	{"geometry":{"coordinates":[37.66343,55.715955],"type":"Point"},"properties":{"osm_id":"3939532843","tag":{"amenity":"waste_disposal","waste":"trash"}},"type":"Feature"},
	{"geometry":{"coordinates":[37.61799,55.720978],"type":"Point"},"properties":{"osm_id":"4116195789","tag":{"amenity":"waste_disposal"}},"type":"Feature"},
	{"geometry":{"coordinates":[37.658279,55.7069],"type":"Point"},"properties":{"osm_id":"4116973619","tag":{"amenity":"waste_basket"}},"type":"Feature"},
	{"geometry":{"coordinates":[37.658236,55.706883],"type":"Point"},"properties":{"osm_id":"4116974112","tag":{"amenity":"waste_basket"}},"type":"Feature"},
	{"geometry":{"coordinates":[37.658396,55.706862],"type":"Point"},"properties":{"osm_id":"4116974113","tag":{"amenity":"waste_basket"}},"type":"Feature"},
	{"geometry":{"coordinates":[37.652814,55.704407],"type":"Point"},"properties":{"osm_id":"4120835731","tag":{"amenity":"waste_basket"}},"type":"Feature"},
	{"geometry":{"coordinates":[37.652732,55.704451],"type":"Point"},"properties":{"osm_id":"4120835738","tag":{"amenity":"waste_basket"}},"type":"Feature"},
	{"geometry":{"coordinates":[37.629758,55.724166],"type":"Point"},"properties":{"osm_id":"4129533589","tag":{"amenity":"waste_disposal"}},"type":"Feature"},
	{"geometry":{"coordinates":[37.652441,55.704208],"type":"Point"},"properties":{"osm_id":"4178576954","tag":{"amenity":"waste_basket"}},"type":"Feature"},
	{"geometry":{"coordinates":[37.652359,55.704253],"type":"Point"},"properties":{"osm_id":"4178576955","tag":{"amenity":"waste_basket"}},"type":"Feature"},
	{"geometry":{"coordinates":[37.639059,55.709934],"type":"Point"},"properties":{"osm_id":"4258417189","tag":{"amenity":"waste_disposal"}},"type":"Feature"},
	{"geometry":{"coordinates":[37.692146,55.688188],"type":"Point"},"properties":{"osm_id":"4282070945","tag":{"amenity":"waste_disposal"}},"type":"Feature"},
	{"geometry":{"coordinates":[37.654247,55.706862],"type":"Point"},"properties":{"osm_id":"4310443370","tag":{"amenity":"waste_basket"}},"type":"Feature"},
	{"geometry":{"coordinates":[37.647783,55.682333],"type":"Point"},"properties":{"osm_id":"4312307239","tag":{"amenity":"waste_disposal"}},"type":"Feature"},
	{"geometry":{"coordinates":[37.646751,55.683363],"type":"Point"},"properties":{"osm_id":"4312307240","tag":{"amenity":"waste_disposal"}},"type":"Feature"},
	{"geometry":{"coordinates":[37.651298,55.682935],"type":"Point"},"properties":{"osm_id":"4312307241","tag":{"amenity":"waste_disposal"}},"type":"Feature"},
	{"geometry":{"coordinates":[37.618406,55.708889],"type":"Point"},"properties":{"osm_id":"4347380178","tag":{"amenity":"waste_disposal"}},"type":"Feature"},
	{"geometry":{"coordinates":[37.624041,55.718647],"type":"Point"},"properties":{"osm_id":"4351467972","tag":{"amenity":"waste_disposal"}},"type":"Feature"},
	{"geometry":{"coordinates":[37.622883,55.71822],"type":"Point"},"properties":{"osm_id":"4351566644","tag":{"amenity":"waste_basket"}},"type":"Feature"},
	{"geometry":{"coordinates":[37.622637,55.718223],"type":"Point"},"properties":{"osm_id":"4351566654","tag":{"amenity":"waste_basket"}},"type":"Feature"},
	{"geometry":{"coordinates":[37.622891,55.718707],"type":"Point"},"properties":{"osm_id":"4351566661","tag":{"amenity":"waste_basket"}},"type":"Feature"},
	{"geometry":{"coordinates":[37.622634,55.718704],"type":"Point"},"properties":{"osm_id":"4351567039","tag":{"amenity":"waste_basket"}},"type":"Feature"},
	{"geometry":{"coordinates":[37.622649,55.719136],"type":"Point"},"properties":{"osm_id":"4351571118","tag":{"amenity":"waste_basket"}},"type":"Feature"},
	{"geometry":{"coordinates":[37.621709,55.717735],"type":"Point"},"properties":{"osm_id":"4352472614","tag":{"amenity":"waste_disposal"}},"type":"Feature"},
	{"geometry":{"coordinates":[37.621483,55.713391],"type":"Point"},"properties":{"osm_id":"4352764960","tag":{"amenity":"waste_disposal"}},"type":"Feature"},
	{"geometry":{"coordinates":[37.622794,55.717858],"type":"Point"},"properties":{"osm_id":"4353943576","tag":{"amenity":"waste_basket"}},"type":"Feature"},
	{"geometry":{"coordinates":[37.622198,55.717286],"type":"Point"},"properties":{"osm_id":"4353952891","tag":{"amenity":"waste_basket"}},"type":"Feature"},
	{"geometry":{"coordinates":[37.622662,55.717761],"type":"Point"},"properties":{"osm_id":"4353953431","tag":{"amenity":"waste_basket"}},"type":"Feature"},
	{"geometry":{"coordinates":[37.622137,55.712775],"type":"Point"},"properties":{"osm_id":"4353983223","tag":{"amenity":"waste_basket"}},"type":"Feature"},
	{"geometry":{"coordinates":[37.624886,55.720117],"type":"Point"},"properties":{"osm_id":"4361583238","tag":{"amenity":"waste_disposal"}},"type":"Feature"},
	{"geometry":{"coordinates":[37.622618,55.725512],"type":"Point"},"properties":{"osm_id":"4366328637","tag":{"amenity":"waste_disposal"}},"type":"Feature"},
	{"geometry":{"coordinates":[37.619445,55.713463],"type":"Point"},"properties":{"osm_id":"4375668392","tag":{"amenity":"waste_disposal"}},"type":"Feature"},
	{"geometry":{"coordinates":[37.651569,55.680868],"type":"Point"},"properties":{"osm_id":"4405318691","tag":{"amenity":"waste_disposal"}},"type":"Feature"},
	{"geometry":{"coordinates":[37.625542,55.722787],"type":"Point"},"properties":{"osm_id":"4411941089","tag":{"amenity":"waste_disposal"}},"type":"Feature"},
	{"geometry":{"coordinates":[37.627753,55.72205],"type":"Point"},"properties":{"osm_id":"4424087793","tag":{"amenity":"waste_basket"}},"type":"Feature"},
	{"geometry":{"coordinates":[37.627644,55.685177],"type":"Point"},"properties":{"osm_id":"4531764589","tag":{"amenity":"waste_basket"}},"type":"Feature"},
	{"geometry":{"coordinates":[37.626875,55.685547],"type":"Point"},"properties":{"osm_id":"4531989789","tag":{"amenity":"waste_disposal"}},"type":"Feature"},
	{"geometry":{"coordinates":[37.621568,55.68222],"type":"Point"},"properties":{"osm_id":"4532011891","tag":{"amenity":"waste_basket"}},"type":"Feature"},
	{"geometry":{"coordinates":[37.624169,55.723724],"type":"Point"},"properties":{"osm_id":"4769450143","tag":{"amenity":"waste_disposal"}},"type":"Feature"},
	{"geometry":{"coordinates":[37.664067,55.694178],"type":"Point"},"properties":{"osm_id":"4774444445","tag":{"amenity":"waste_basket"}},"type":"Feature"},
	{"geometry":{"coordinates":[37.664011,55.694559],"type":"Point"},"properties":{"osm_id":"4774444446","tag":{"amenity":"waste_basket"}},"type":"Feature"},
	{"geometry":{"coordinates":[37.662993,55.707853],"type":"Point"},"properties":{"osm_id":"4810099724","tag":{"amenity":"waste_basket"}},"type":"Feature"},
	{"geometry":{"coordinates":[37.662011,55.706525],"type":"Point"},"properties":{"osm_id":"4810100122","tag":{"amenity":"waste_disposal"}},"type":"Feature"},
	{"geometry":{"coordinates":[37.624894,55.714277],"type":"Point"},"properties":{"osm_id":"4836445325","tag":{"amenity":"waste_basket"}},"type":"Feature"},
	{"geometry":{"coordinates":[37.668847,55.718963],"type":"Point"},"properties":{"osm_id":"4870225922","tag":{"amenity":"waste_disposal"}},"type":"Feature"},
	{"geometry":{"coordinates":[37.676116,55.713505],"type":"Point"},"properties":{"osm_id":"4872917021","tag":{"amenity":"waste_disposal"}},"type":"Feature"},
	{"geometry":{"coordinates":[37.687677,55.703996],"type":"Point"},"properties":{"osm_id":"4878727421","tag":{"amenity":"waste_disposal"}},"type":"Feature"},
	{"geometry":{"coordinates":[37.622355,55.725358],"type":"Point"},"properties":{"osm_id":"4881827070","tag":{"amenity":"waste_basket"}},"type":"Feature"},
	{"geometry":{"coordinates":[37.622208,55.724945],"type":"Point"},"properties":{"osm_id":"4881827200","tag":{"amenity":"waste_basket"}},"type":"Feature"},
	{"geometry":{"coordinates":[37.669158,55.717096],"type":"Point"},"properties":{"osm_id":"4912590614","tag":{"amenity":"waste_disposal"}},"type":"Feature"},
	{"geometry":{"coordinates":[37.66554,55.716924],"type":"Point"},"properties":{"osm_id":"4912590615","tag":{"amenity":"waste_disposal"}},"type":"Feature"},
	{"geometry":{"coordinates":[37.622025,55.722932],"type":"Point"},"properties":{"osm_id":"4946828219","tag":{"amenity":"waste_disposal"}},"type":"Feature"},
	{"geometry":{"coordinates":[37.694404,55.715597],"type":"Point"},"properties":{"osm_id":"4950154765","tag":{"amenity":"waste_disposal"}},"type":"Feature"},
	{"geometry":{"coordinates":[37.693696,55.714728],"type":"Point"},"properties":{"osm_id":"4950154766","tag":{"amenity":"waste_disposal"}},"type":"Feature"},
	{"geometry":{"coordinates":[37.681412,55.710691],"type":"Point"},"properties":{"osm_id":"4950154767","tag":{"amenity":"waste_disposal"}},"type":"Feature"},
	{"geometry":{"coordinates":[37.659668,55.713224],"type":"Point"},"properties":{"osm_id":"4972400049","tag":{"amenity":"waste_disposal"}},"type":"Feature"},
	{"geometry":{"coordinates":[37.62477,55.694844],"type":"Point"},"properties":{"osm_id":"4982643511","tag":{"amenity":"waste_disposal"}},"type":"Feature"},
	{"geometry":{"coordinates":[37.688033,55.713094],"type":"Point"},"properties":{"osm_id":"4986795563","tag":{"amenity":"waste_basket"}},"type":"Feature"},
	{"geometry":{"coordinates":[37.620668,55.714547],"type":"Point"},"properties":{"osm_id":"5076970108","tag":{"amenity":"waste_basket"}},"type":"Feature"},
	{"geometry":{"coordinates":[37.620715,55.71443],"type":"Point"},"properties":{"osm_id":"5076971414","tag":{"amenity":"waste_basket"}},"type":"Feature"},
	{"geometry":{"coordinates":[37.67519,55.679814],"type":"Point"},"properties":{"osm_id":"5092357090","tag":{"amenity":"waste_disposal"}},"type":"Feature"},
	{"geometry":{"coordinates":[37.637592,55.727007],"type":"Point"},"properties":{"osm_id":"5114987228","tag":{"amenity":"waste_basket"}},"type":"Feature"},
	{"geometry":{"coordinates":[37.625272,55.720833],"type":"Point"},"properties":{"osm_id":"5124245549","tag":{"amenity":"waste_basket"}},"type":"Feature"},
	{"geometry":{"coordinates":[37.624799,55.720466],"type":"Point"},"properties":{"osm_id":"5124257604","tag":{"amenity":"waste_basket"}},"type":"Feature"},
	{"geometry":{"coordinates":[37.624817,55.720483],"type":"Point"},"properties":{"osm_id":"5124257705","tag":{"amenity":"waste_basket"}},"type":"Feature"},
	{"geometry":{"coordinates":[37.624221,55.720971],"type":"Point"},"properties":{"osm_id":"5124263005","tag":{"amenity":"waste_basket"}},"type":"Feature"},
	{"geometry":{"coordinates":[37.624887,55.721038],"type":"Point"},"properties":{"osm_id":"5124263269","tag":{"amenity":"waste_basket"}},"type":"Feature"},
	{"geometry":{"coordinates":[37.621989,55.723024],"type":"Point"},"properties":{"osm_id":"5124278473","tag":{"amenity":"waste_basket"}},"type":"Feature"},
	{"geometry":{"coordinates":[37.625417,55.720869],"type":"Point"},"properties":{"osm_id":"5124491696","tag":{"amenity":"waste_basket"}},"type":"Feature"},
	{"geometry":{"coordinates":[37.661645,55.724322],"type":"Point"},"properties":{"osm_id":"5129216022","tag":{"amenity":"waste_disposal"}},"type":"Feature"},
	{"geometry":{"coordinates":[37.622051,55.707716],"type":"Point"},"properties":{"osm_id":"5155652449","tag":{"amenity":"waste_disposal","indoor":"no","note:ru":"\u00d0\u009c\u00d1\u0083\u00d1\u0081\u00d0\u00be\u00d1\u0080\u00d0\u00bd\u00d1\u008b\u00d0\u00b9 \u00d0\u00bf\u00d1\u0080\u00d0\u00b5\u00d1\u0081\u00d1\u0081","waste_disposal":"press","website":"http://www.pressor.ru/"}},"type":"Feature"},
	{"geometry":{"coordinates":[37.66039,55.720342],"type":"Point"},"properties":{"osm_id":"5238571612","tag":{"amenity":"waste_disposal"}},"type":"Feature"},
	{"geometry":{"coordinates":[37.623786,55.72093],"type":"Point"},"properties":{"osm_id":"5239507433","tag":{"amenity":"waste_basket"}},"type":"Feature"},
	{"geometry":{"coordinates":[37.633287,55.722256],"type":"Point"},"properties":{"osm_id":"5239507444","tag":{"amenity":"waste_basket"}},"type":"Feature"},
	{"geometry":{"coordinates":[37.633914,55.721989],"type":"Point"},"properties":{"osm_id":"5239507445","tag":{"amenity":"waste_basket"}},"type":"Feature"},
	{"geometry":{"coordinates":[37.635449,55.721961],"type":"Point"},"properties":{"osm_id":"5239514533","tag":{"amenity":"waste_basket"}},"type":"Feature"},
	{"geometry":{"coordinates":[37.62569,55.721094],"type":"Point"},"properties":{"osm_id":"5239514724","tag":{"amenity":"waste_basket"}},"type":"Feature"},
	{"geometry":{"coordinates":[37.632297,55.72204],"type":"Point"},"properties":{"osm_id":"5239514729","tag":{"amenity":"waste_basket"}},"type":"Feature"},
	{"geometry":{"coordinates":[37.630072,55.710228],"type":"Point"},"properties":{"barrier":"gate","osm_id":"5260522523","tag":{"access":"permissive"}},"type":"Feature"},
	{"geometry":{"coordinates":[37.659626,55.691564],"type":"Point"},"properties":{"osm_id":"5327151481","tag":{"amenity":"waste_disposal"}},"type":"Feature"},
	{"geometry":{"coordinates":[37.654406,55.679726],"type":"Point"},"properties":{"osm_id":"5429302890","tag":{"amenity":"waste_disposal","waste":"trash"}},"type":"Feature"},
	{"geometry":{"coordinates":[37.692353,55.714343],"type":"Point"},"properties":{"osm_id":"5475429854","tag":{"amenity":"waste_disposal"}},"type":"Feature"},
	{"geometry":{"coordinates":[37.683217,55.711912],"type":"Point"},"properties":{"osm_id":"5488212381","tag":{"amenity":"waste_basket"}},"type":"Feature"},
	{"geometry":{"coordinates":[37.683025,55.711801],"type":"Point"},"properties":{"osm_id":"5488212382","tag":{"amenity":"waste_basket"}},"type":"Feature"},
	{"geometry":{"coordinates":[37.687725,55.713191],"type":"Point"},"properties":{"osm_id":"5488212383","tag":{"amenity":"waste_basket"}},"type":"Feature"},
	{"geometry":{"coordinates":[37.691548,55.714319],"type":"Point"},"properties":{"osm_id":"5488212384","tag":{"amenity":"waste_basket"}},"type":"Feature"},
	{"geometry":{"coordinates":[37.683159,55.711501],"type":"Point"},"properties":{"osm_id":"5488212385","tag":{"amenity":"waste_basket"}},"type":"Feature"},
	{"geometry":{"coordinates":[37.621856,55.712736],"type":"Point"},"properties":{"osm_id":"5629064612","tag":{"amenity":"waste_basket"}},"type":"Feature"},
	{"geometry":{"coordinates":[37.622083,55.712739],"type":"Point"},"properties":{"osm_id":"5629065075","tag":{"amenity":"waste_basket"}},"type":"Feature"},
	{"geometry":{"coordinates":[37.62153,55.712732],"type":"Point"},"properties":{"osm_id":"5629066675","tag":{"amenity":"waste_basket"}},"type":"Feature"},
	{"geometry":{"coordinates":[37.65453,55.704766],"type":"Point"},"properties":{"osm_id":"5649131021","tag":{"amenity":"waste_disposal"}},"type":"Feature"},
	{"geometry":{"coordinates":[37.62469,55.722032],"type":"Point"},"properties":{"osm_id":"5701682071","tag":{"amenity":"recycling"}},"type":"Feature"},
	{"geometry":{"coordinates":[37.652547,55.726532],"type":"Point"},"properties":{"osm_id":"5729028472","tag":{"amenity":"waste_disposal"}},"type":"Feature"},
	{"geometry":{"coordinates":[37.623309,55.709967],"type":"Point"},"properties":{"osm_id":"5735762928","tag":{"amenity":"waste_basket"}},"type":"Feature"},
	{"geometry":{"coordinates":[37.623822,55.709742],"type":"Point"},"properties":{"osm_id":"5735762929","tag":{"amenity":"waste_basket"}},"type":"Feature"},
	{"geometry":{"coordinates":[37.62418,55.709708],"type":"Point"},"properties":{"osm_id":"5735762930","tag":{"amenity":"waste_basket"}},"type":"Feature"},
	{"geometry":{"coordinates":[37.619875,55.711118],"type":"Point"},"properties":{"osm_id":"5735762932","tag":{"amenity":"waste_basket"}},"type":"Feature"},
	{"geometry":{"coordinates":[37.61925,55.710995],"type":"Point"},"properties":{"osm_id":"5735762933","tag":{"amenity":"waste_basket"}},"type":"Feature"},
	{"geometry":{"coordinates":[37.618409,55.71178],"type":"Point"},"properties":{"osm_id":"5735762934","tag":{"amenity":"waste_basket"}},"type":"Feature"},
	{"geometry":{"coordinates":[37.623326,55.709947],"type":"Point"},"properties":{"osm_id":"5735763033","tag":{"amenity":"waste_basket"}},"type":"Feature"},
	{"geometry":{"coordinates":[37.6243,55.709844],"type":"Point"},"properties":{"osm_id":"5735763034","tag":{"amenity":"waste_basket"}},"type":"Feature"},
	{"geometry":{"coordinates":[37.624215,55.709841],"type":"Point"},"properties":{"osm_id":"5735763035","tag":{"amenity":"waste_basket"}},"type":"Feature"},
	{"geometry":{"coordinates":[37.624633,55.708826],"type":"Point"},"properties":{"osm_id":"5735763036","tag":{"amenity":"waste_basket"}},"type":"Feature"},
	{"geometry":{"coordinates":[37.624443,55.708451],"type":"Point"},"properties":{"osm_id":"5735763037","tag":{"amenity":"waste_basket"}},"type":"Feature"},
	{"geometry":{"coordinates":[37.624455,55.708507],"type":"Point"},"properties":{"osm_id":"5735763038","tag":{"amenity":"waste_basket"}},"type":"Feature"},
	{"geometry":{"coordinates":[37.619795,55.711116],"type":"Point"},"properties":{"osm_id":"5735763039","tag":{"amenity":"waste_basket"}},"type":"Feature"},
	{"geometry":{"coordinates":[37.617893,55.711165],"type":"Point"},"properties":{"osm_id":"5735763040","tag":{"amenity":"waste_basket"}},"type":"Feature"},
	{"geometry":{"coordinates":[37.618182,55.711156],"type":"Point"},"properties":{"osm_id":"5735763041","tag":{"amenity":"waste_basket"}},"type":"Feature"},
	{"geometry":{"coordinates":[37.618322,55.711782],"type":"Point"},"properties":{"osm_id":"5735763044","tag":{"amenity":"waste_basket"}},"type":"Feature"},
	{"geometry":{"coordinates":[37.618324,55.71117],"type":"Point"},"properties":{"osm_id":"5735763045","tag":{"amenity":"waste_basket"}},"type":"Feature"},
	{"geometry":{"coordinates":[37.618993,55.710988],"type":"Point"},"properties":{"osm_id":"5735763046","tag":{"amenity":"waste_basket"}},"type":"Feature"},
	{"geometry":{"coordinates":[37.619087,55.711129],"type":"Point"},"properties":{"osm_id":"5735763133","tag":{"amenity":"waste_basket"}},"type":"Feature"},
	{"geometry":{"coordinates":[37.618996,55.711012],"type":"Point"},"properties":{"osm_id":"5735763134","tag":{"amenity":"waste_basket"}},"type":"Feature"},
	{"geometry":{"coordinates":[37.619248,55.711015],"type":"Point"},"properties":{"osm_id":"5735763135","tag":{"amenity":"waste_basket"}},"type":"Feature"},
	{"geometry":{"coordinates":[37.619388,55.711047],"type":"Point"},"properties":{"osm_id":"5735763136","tag":{"amenity":"waste_basket"}},"type":"Feature"},
	{"geometry":{"coordinates":[37.62094,55.712449],"type":"Point"},"properties":{"osm_id":"5750145999","tag":{"amenity":"recycling","description":"\u00d0\u00bf\u00d1\u0080\u00d0\u00b8\u00d0\u00b5\u00d0\u00bc \u00d0\u00bd\u00d0\u00b5\u00d0\u00bd\u00d1\u0083\u00d0\u00b6\u00d0\u00bd\u00d0\u00be\u00d0\u00b9 \u00d0\u00be\u00d0\u00b4\u00d0\u00b5\u00d0\u00b6\u00d0\u00b4\u00d1\u008b","recycling:clothes":"yes","recycling_type":"container"}},"type":"Feature"},
	{"geometry":{"coordinates":[37.626768,55.720149],"type":"Point"},"properties":{"osm_id":"5775634922","tag":{"amenity":"waste_disposal","description":"\u00d0\u0091\u00d1\u008b\u00d1\u0082\u00d0\u00be\u00d0\u00b2\u00d1\u008b\u00d0\u00b5 \u00d0\u00be\u00d1\u0082\u00d1\u0085\u00d0\u00be\u00d0\u00b4\u00d1\u008b","waste":"trash"}},"type":"Feature"},
	{"geometry":{"coordinates":[37.674573,55.678687],"type":"Point"},"properties":{"osm_id":"5817602324","tag":{"amenity":"waste_disposal"}},"type":"Feature"},
	{"geometry":{"coordinates":[37.626024,55.723964],"type":"Point"},"properties":{"osm_id":"5988370063","tag":{"amenity":"waste_disposal"}},"type":"Feature"},
	{"geometry":{"coordinates":[37.633092,55.725019],"type":"Point"},"properties":{"osm_id":"6064368385","tag":{"amenity":"waste_disposal"}},"type":"Feature"},
	{"geometry":{"coordinates":[37.642042,55.71169],"type":"Point"},"properties":{"osm_id":"6138100578","tag":{"amenity":"waste_disposal"}},"type":"Feature"},
	{"geometry":{"coordinates":[37.664956,55.727093],"type":"Point"},"properties":{"osm_id":"6279401583","tag":{"amenity":"waste_basket"}},"type":"Feature"},
	{"geometry":{"coordinates":[37.66333,55.703791],"type":"Point"},"properties":{"osm_id":"6338681063","tag":{"amenity":"waste_disposal"}},"type":"Feature"},
	{"geometry":{"coordinates":[37.666125,55.679005],"type":"Point"},"properties":{"osm_id":"6394923850","tag":{"amenity":"waste_disposal"}},"type":"Feature"},
	{"geometry":{"coordinates":[37.644001,55.704403],"type":"Point"},"properties":{"osm_id":"6422632703","tag":{"amenity":"waste_disposal"}},"type":"Feature"},
	{"geometry":{"coordinates":[37.659798,55.706124],"type":"Point"},"properties":{"osm_id":"6491299187","tag":{"amenity":"waste_basket"}},"type":"Feature"},
	{"geometry":{"coordinates":[37.617549,55.706726],"type":"Point"},"properties":{"osm_id":"6494290664","tag":{"amenity":"waste_basket"}},"type":"Feature"},
	{"geometry":{"coordinates":[37.617552,55.706752],"type":"Point"},"properties":{"osm_id":"6494290665","tag":{"amenity":"waste_basket"}},"type":"Feature"},
	{"geometry":{"coordinates":[37.617384,55.706726],"type":"Point"},"properties":{"osm_id":"6494290668","tag":{"amenity":"waste_basket"}},"type":"Feature"},
	{"geometry":{"coordinates":[37.617383,55.706757],"type":"Point"},"properties":{"osm_id":"6494290669","tag":{"amenity":"waste_basket"}},"type":"Feature"},
	{"geometry":{"coordinates":[37.649467,55.679972],"type":"Point"},"properties":{"osm_id":"6506815886","tag":{"amenity":"recycling","recycling:plastic":"yes","recycling_type":"container"}},"type":"Feature"},
	{"geometry":{"coordinates":[37.671558,55.686193],"type":"Point"},"properties":{"osm_id":"6506832485","tag":{"amenity":"recycling","recycling:glass":"yes","recycling:plastic":"yes","recycling_type":"container"}},"type":"Feature"},
	{"geometry":{"coordinates":[37.672092,55.709812],"type":"Point"},"properties":{"osm_id":"6568789931","tag":{"amenity":"waste_disposal"}},"type":"Feature"},
	{"geometry":{"coordinates":[37.673639,55.70958],"type":"Point"},"properties":{"osm_id":"6568789932","tag":{"amenity":"waste_disposal"}},"type":"Feature"},
	{"geometry":{"coordinates":[37.672017,55.710046],"type":"Point"},"properties":{"osm_id":"6568789937","tag":{"amenity":"waste_disposal"}},"type":"Feature"},
	{"geometry":{"coordinates":[37.672913,55.710307],"type":"Point"},"properties":{"osm_id":"6568789948","tag":{"amenity":"waste_basket"}},"type":"Feature"},
	{"geometry":{"coordinates":[37.672516,55.710304],"type":"Point"},"properties":{"osm_id":"6568789949","tag":{"amenity":"waste_basket"}},"type":"Feature"},
	{"geometry":{"coordinates":[37.668351,55.679445],"type":"Point"},"properties":{"osm_id":"6601246782","tag":{"amenity":"waste_disposal"}},"type":"Feature"},
	{"geometry":{"coordinates":[37.670175,55.680778],"type":"Point"},"properties":{"osm_id":"6601246783","tag":{"amenity":"waste_disposal"}},"type":"Feature"},
	{"geometry":{"coordinates":[37.618051,55.706724],"type":"Point"},"properties":{"osm_id":"6673699866","tag":{"amenity":"waste_disposal","indoor":"no","note:ru":"\u00d0\u009c\u00d1\u0083\u00d1\u0081\u00d0\u00be\u00d1\u0080\u00d0\u00bd\u00d1\u008b\u00d0\u00b9 \u00d0\u00bf\u00d1\u0080\u00d0\u00b5\u00d1\u0081\u00d1\u0081","waste_disposal":"press","website":"http://www.pressor.ru/"}},"type":"Feature"},
	{"geometry":{"coordinates":[37.6175,55.709054],"type":"Point"},"properties":{"osm_id":"6673777103","tag":{"amenity":"recycling","description":"\u00d0\u00bf\u00d1\u0083\u00d0\u00bd\u00d0\u00ba\u00d1\u0082 \u00d0\u00bf\u00d1\u0080\u00d0\u00b8\u00d0\u00b5\u00d0\u00bc\u00d0\u00b0 \u00d1\u0080\u00d1\u0082\u00d1\u0083\u00d1\u0082\u00d0\u00bd\u00d0\u00be\u00d1\u0081\u00d0\u00be\u00d0\u00b4\u00d0\u00b5\u00d1\u0080\u00d0\u00b6\u00d0\u00b0\u00d1\u0089\u00d0\u00b8\u00d1\u0085 \u00d0\u00bb\u00d0\u00b0\u00d0\u00bc\u00d0\u00bf \u00d0\u00b8 \u00d1\u008d\u00d0\u00bb\u00d0\u00b5\u00d0\u00bc\u00d0\u00b5\u00d0\u00bd\u00d1\u0082\u00d0\u00be\u00d0\u00b2 \u00d0\u00bf\u00d0\u00b8\u00d1\u0082\u00d0\u00b0\u00d0\u00bd\u00d0\u00b8\u00d1\u008f","recycling:batteries":"yes","recycling:fluorescent_tubes":"yes","recycling:low_energy_bulbs":"yes","recycling_type":"centre"}},"type":"Feature"},
	{"geometry":{"coordinates":[37.622682,55.694542],"type":"Point"},"properties":{"osm_id":"6708031392","tag":{"amenity":"waste_disposal"}},"type":"Feature"},
	{"geometry":{"coordinates":[37.623221,55.726514],"type":"Point"},"properties":{"osm_id":"6773129906","tag":{"amenity":"waste_disposal"}},"type":"Feature"},
	{"geometry":{"coordinates":[37.621672,55.717723],"type":"Point"},"properties":{"osm_id":"6817135385","tag":{"amenity":"waste_disposal"}},"type":"Feature"},
	{"geometry":{"coordinates":[37.668393,55.711814],"type":"Point"},"properties":{"osm_id":"7616924495","tag":{"amenity":"waste_disposal"}},"type":"Feature"},
	{"geometry":{"coordinates":[37.618209,55.711164],"type":"Point"},"properties":{"osm_id":"7690647164","tag":{"amenity":"waste_basket"}},"type":"Feature"},
	{"geometry":{"coordinates":[37.618202,55.711784],"type":"Point"},"properties":{"osm_id":"7690880113","tag":{"amenity":"waste_basket"}},"type":"Feature"},
	{"geometry":{"coordinates":[37.618096,55.711786],"type":"Point"},"properties":{"osm_id":"7690880114","tag":{"amenity":"waste_basket","count":"2"}},"type":"Feature"}
]
}
