{
"type": "FeatureCollection",
"features": [
	{"geometry":{"coordinates":[37.674831,55.626804],"type":"Point"},"properties":{"osm_id":"853106795","tag":{"amenity":"waste_disposal"}},"type":"Feature"},
	{"geometry":{"coordinates":[37.667787,55.624995],"type":"Point"},"properties":{"osm_id":"945102198","tag":{"amenity":"waste_disposal","shelter":"yes"}},"type":"Feature"},
	{"geometry":{"coordinates":[37.665991,55.624388],"type":"Point"},"properties":{"osm_id":"999290506","tag":{"amenity":"waste_disposal"}},"type":"Feature"},
	{"geometry":{"coordinates":[37.668551,55.625854],"type":"Point"},"properties":{"osm_id":"1001431875","tag":{"amenity":"waste_disposal"}},"type":"Feature"},
	{"geometry":{"coordinates":[37.676565,55.627405],"type":"Point"},"properties":{"osm_id":"1112408106","tag":{"amenity":"waste_disposal","recycling:waste":"yes","waste":"trash"}},"type":"Feature"},
	{"geometry":{"coordinates":[37.675207,55.625469],"type":"Point"},"properties":{"osm_id":"1112408130","tag":{"amenity":"waste_disposal"}},"type":"Feature"},
	{"geometry":{"coordinates":[37.677962,55.626994],"type":"Point"},"properties":{"osm_id":"1112408143","tag":{"amenity":"waste_disposal"}},"type":"Feature"},
	{"geometry":{"coordinates":[37.67594,55.627788],"type":"Point"},"properties":{"osm_id":"1118096831","tag":{"amenity":"waste_disposal"}},"type":"Feature"},
	{"geometry":{"coordinates":[37.703626,55.609496],"type":"Point"},"properties":{"osm_id":"1135883567","tag":{"amenity":"waste_disposal"}},"type":"Feature"},
	{"geometry":{"coordinates":[37.704963,55.609683],"type":"Point"},"properties":{"osm_id":"1136159353","tag":{"amenity":"waste_disposal"}},"type":"Feature"},
	{"geometry":{"coordinates":[37.702839,55.611035],"type":"Point"},"properties":{"osm_id":"1136159399","tag":{"amenity":"waste_disposal"}},"type":"Feature"},
	{"geometry":{"coordinates":[37.703141,55.611592],"type":"Point"},"properties":{"osm_id":"1136159421","tag":{"amenity":"waste_disposal"}},"type":"Feature"},
	{"geometry":{"coordinates":[37.702532,55.613645],"type":"Point"},"properties":{"osm_id":"1136359198","tag":{"amenity":"waste_disposal"}},"type":"Feature"},
	{"geometry":{"coordinates":[37.702352,55.61595],"type":"Point"},"properties":{"osm_id":"1136359407","tag":{"amenity":"waste_disposal"}},"type":"Feature"},
	{"geometry":{"coordinates":[37.701627,55.61449],"type":"Point"},"properties":{"osm_id":"1136359533","tag":{"amenity":"waste_disposal"}},"type":"Feature"},
	{"geometry":{"coordinates":[37.70101,55.613539],"type":"Point"},"properties":{"osm_id":"1136359660","tag":{"amenity":"waste_disposal"}},"type":"Feature"},
	{"geometry":{"coordinates":[37.700468,55.616668],"type":"Point"},"properties":{"osm_id":"1136359770","tag":{"amenity":"waste_disposal","collection_times":"09:00-10:30","operator":"\u00d0\u0093\u00d0\u00a3\u00d0\u009f \"\u00d0\u00ad\u00d0\u00ba\u00d0\u00be\u00d1\u0082\u00d0\u00b5\u00d1\u0085\u00d0\u00bf\u00d1\u0080\u00d0\u00be\u00d0\u00bc\""}},"type":"Feature"},
	{"geometry":{"coordinates":[37.64761,55.626299],"type":"Point"},"properties":{"osm_id":"1144397029","tag":{"amenity":"waste_disposal"}},"type":"Feature"},
	{"geometry":{"coordinates":[37.655058,55.624555],"type":"Point"},"properties":{"osm_id":"1144397080","tag":{"amenity":"waste_disposal"}},"type":"Feature"},
	{"geometry":{"coordinates":[37.648795,55.626355],"type":"Point"},"properties":{"osm_id":"1144397217","tag":{"amenity":"waste_disposal"}},"type":"Feature"},
	{"geometry":{"coordinates":[37.650992,55.625438],"type":"Point"},"properties":{"osm_id":"1144397456","tag":{"amenity":"waste_disposal"}},"type":"Feature"},
	{"geometry":{"coordinates":[37.656093,55.623882],"type":"Point"},"properties":{"osm_id":"1144397741","tag":{"amenity":"waste_disposal"}},"type":"Feature"},
	{"geometry":{"coordinates":[37.704307,55.617327],"type":"Point"},"properties":{"osm_id":"1157950827","tag":{"amenity":"waste_disposal"}},"type":"Feature"},
	{"geometry":{"coordinates":[37.70476,55.615417],"type":"Point"},"properties":{"osm_id":"1157950863","tag":{"amenity":"waste_disposal"}},"type":"Feature"},
	{"geometry":{"coordinates":[37.703934,55.615806],"type":"Point"},"properties":{"osm_id":"1157951048","tag":{"amenity":"waste_disposal"}},"type":"Feature"},
	{"geometry":{"coordinates":[37.704774,55.616374],"type":"Point"},"properties":{"osm_id":"1157951126","tag":{"amenity":"waste_disposal"}},"type":"Feature"},
	{"geometry":{"coordinates":[37.660271,55.625564],"type":"Point"},"properties":{"osm_id":"1173209895","tag":{"amenity":"waste_disposal"}},"type":"Feature"},
	{"geometry":{"coordinates":[37.662936,55.624844],"type":"Point"},"properties":{"osm_id":"1173209928","tag":{"amenity":"waste_disposal"}},"type":"Feature"},
	{"geometry":{"coordinates":[37.66679,55.621507],"type":"Point"},"properties":{"osm_id":"1173210006","tag":{"amenity":"waste_disposal"}},"type":"Feature"},
	{"geometry":{"coordinates":[37.665949,55.62281],"type":"Point"},"properties":{"osm_id":"1173210015","tag":{"amenity":"waste_disposal"}},"type":"Feature"},
	{"geometry":{"coordinates":[37.65748,55.623776],"type":"Point"},"properties":{"osm_id":"1175521003","tag":{"amenity":"waste_disposal","waste":"trash"}},"type":"Feature"},
	{"geometry":{"coordinates":[37.663866,55.622141],"type":"Point"},"properties":{"osm_id":"1175616057","tag":{"amenity":"waste_disposal","waste":"trash"}},"type":"Feature"},
	{"geometry":{"coordinates":[37.66417,55.620046],"type":"Point"},"properties":{"osm_id":"1175616151","tag":{"amenity":"waste_disposal","waste":"trash"}},"type":"Feature"},
	{"geometry":{"coordinates":[37.660395,55.621988],"type":"Point"},"properties":{"osm_id":"1175616189","tag":{"amenity":"waste_disposal","waste":"trash"}},"type":"Feature"},
	{"geometry":{"coordinates":[37.661205,55.621249],"type":"Point"},"properties":{"osm_id":"1175616417","tag":{"amenity":"waste_disposal","waste":"trash"}},"type":"Feature"},
	{"geometry":{"coordinates":[37.660317,55.622301],"type":"Point"},"properties":{"osm_id":"1175616496","tag":{"amenity":"waste_disposal","waste":"trash"}},"type":"Feature"},
	{"geometry":{"coordinates":[37.702178,55.606483],"type":"Point"},"properties":{"osm_id":"1206225133","tag":{"amenity":"waste_disposal"}},"type":"Feature"},
	{"geometry":{"coordinates":[37.655274,55.627087],"type":"Point"},"properties":{"osm_id":"1239599474","tag":{"amenity":"waste_disposal"}},"type":"Feature"},
	{"geometry":{"coordinates":[37.65266,55.626856],"type":"Point"},"properties":{"osm_id":"1239599593","tag":{"amenity":"waste_disposal"}},"type":"Feature"},
	{"geometry":{"coordinates":[37.656123,55.627016],"type":"Point"},"properties":{"osm_id":"1239599637","tag":{"amenity":"waste_disposal"}},"type":"Feature"},
	{"geometry":{"coordinates":[37.6554,55.625775],"type":"Point"},"properties":{"osm_id":"1239622780","tag":{"amenity":"waste_disposal"}},"type":"Feature"},
	{"geometry":{"coordinates":[37.65599,55.625822],"type":"Point"},"properties":{"osm_id":"1239622783","tag":{"amenity":"waste_disposal"}},"type":"Feature"},
	{"geometry":{"coordinates":[37.686674,55.582579],"type":"Point"},"properties":{"osm_id":"1397150673","tag":{"amenity":"waste_disposal"}},"type":"Feature"},
	{"geometry":{"coordinates":[37.692345,55.582392],"type":"Point"},"properties":{"osm_id":"1397150674","tag":{"amenity":"waste_disposal"}},"type":"Feature"},
	{"geometry":{"coordinates":[37.693181,55.583937],"type":"Point"},"properties":{"osm_id":"1397150676","tag":{"amenity":"waste_disposal"}},"type":"Feature"},
	{"geometry":{"coordinates":[37.686727,55.582157],"type":"Point"},"properties":{"osm_id":"1397150677","tag":{"amenity":"waste_disposal"}},"type":"Feature"},
	{"geometry":{"coordinates":[37.659084,55.617606],"type":"Point"},"properties":{"osm_id":"1758745364","tag":{"amenity":"waste_disposal"}},"type":"Feature"},
	{"geometry":{"coordinates":[37.663084,55.618158],"type":"Point"},"properties":{"osm_id":"1758745397","tag":{"amenity":"waste_disposal"}},"type":"Feature"},
	{"geometry":{"coordinates":[37.663672,55.619892],"type":"Point"},"properties":{"osm_id":"1758745773","tag":{"amenity":"waste_disposal"}},"type":"Feature"},
	{"geometry":{"coordinates":[37.662816,55.620509],"type":"Point"},"properties":{"osm_id":"1758745883","tag":{"amenity":"waste_disposal"}},"type":"Feature"},
	{"geometry":{"coordinates":[37.660043,55.622019],"type":"Point"},"properties":{"osm_id":"1774813850","tag":{"amenity":"waste_disposal"}},"type":"Feature"},
	{"geometry":{"coordinates":[37.657703,55.625769],"type":"Point"},"properties":{"osm_id":"1774814000","tag":{"amenity":"waste_disposal"}},"type":"Feature"},
	{"geometry":{"coordinates":[37.659586,55.625855],"type":"Point"},"properties":{"osm_id":"1774814003","tag":{"amenity":"waste_disposal"}},"type":"Feature"},
	{"geometry":{"coordinates":[37.664562,55.580182],"type":"Point"},"properties":{"osm_id":"1780168651","tag":{"amenity":"waste_disposal"}},"type":"Feature"},
	{"geometry":{"coordinates":[37.64908,55.620885],"type":"Point"},"properties":{"osm_id":"1809107780","tag":{"amenity":"waste_disposal"}},"type":"Feature"},
	{"geometry":{"coordinates":[37.64759,55.621958],"type":"Point"},"properties":{"osm_id":"1809107928","tag":{"amenity":"waste_disposal"}},"type":"Feature"},
	{"geometry":{"coordinates":[37.656151,55.622049],"type":"Point"},"properties":{"osm_id":"1809107935","tag":{"amenity":"waste_disposal"}},"type":"Feature"},
	{"geometry":{"coordinates":[37.650316,55.622296],"type":"Point"},"properties":{"osm_id":"1809107967","tag":{"amenity":"waste_disposal"}},"type":"Feature"},
	{"geometry":{"coordinates":[37.652319,55.622892],"type":"Point"},"properties":{"osm_id":"1809108040","tag":{"amenity":"waste_disposal"}},"type":"Feature"},
	{"geometry":{"coordinates":[37.655314,55.623297],"type":"Point"},"properties":{"osm_id":"1809108073","tag":{"amenity":"waste_disposal"}},"type":"Feature"},
	{"geometry":{"coordinates":[37.640461,55.58634],"type":"Point"},"properties":{"osm_id":"1829835875","tag":{"amenity":"waste_disposal"}},"type":"Feature"},
	{"geometry":{"coordinates":[37.640712,55.585706],"type":"Point"},"properties":{"osm_id":"1829836036","tag":{"amenity":"waste_disposal"}},"type":"Feature"},
	{"geometry":{"coordinates":[37.643837,55.583113],"type":"Point"},"properties":{"osm_id":"1831081405","tag":{"amenity":"waste_disposal"}},"type":"Feature"},
	{"geometry":{"coordinates":[37.645426,55.584185],"type":"Point"},"properties":{"osm_id":"1831082357","tag":{"amenity":"waste_disposal"}},"type":"Feature"},
	{"geometry":{"coordinates":[37.663908,55.585513],"type":"Point"},"properties":{"osm_id":"1902524118","tag":{"amenity":"waste_disposal"}},"type":"Feature"},
	{"geometry":{"coordinates":[37.650047,55.581468],"type":"Point"},"properties":{"osm_id":"1902587205","tag":{"amenity":"waste_disposal"}},"type":"Feature"},
	{"geometry":{"coordinates":[37.646971,55.581553],"type":"Point"},"properties":{"osm_id":"1922037757","tag":{"amenity":"waste_disposal"}},"type":"Feature"},
	{"geometry":{"coordinates":[37.644053,55.580407],"type":"Point"},"properties":{"osm_id":"1922052633","tag":{"amenity":"waste_disposal"}},"type":"Feature"},
	{"geometry":{"coordinates":[37.666774,55.617466],"type":"Point"},"properties":{"osm_id":"1950512055","tag":{"amenity":"waste_disposal"}},"type":"Feature"},
	{"geometry":{"coordinates":[37.666745,55.61749],"type":"Point"},"properties":{"osm_id":"1950512057","tag":{"amenity":"waste_disposal"}},"type":"Feature"},
	{"geometry":{"coordinates":[37.655788,55.595671],"type":"Point"},"properties":{"osm_id":"1979754929","tag":{"amenity":"waste_disposal"}},"type":"Feature"},
	{"geometry":{"coordinates":[37.659129,55.596245],"type":"Point"},"properties":{"osm_id":"1979754930","tag":{"amenity":"waste_disposal"}},"type":"Feature"},
	{"geometry":{"coordinates":[37.658399,55.597001],"type":"Point"},"properties":{"osm_id":"1979754931","tag":{"amenity":"waste_disposal"}},"type":"Feature"},
	{"geometry":{"coordinates":[37.660821,55.601547],"type":"Point"},"properties":{"osm_id":"1979754937","tag":{"amenity":"waste_disposal"}},"type":"Feature"},
	{"geometry":{"coordinates":[37.699541,55.620472],"type":"Point"},"properties":{"osm_id":"2866801078","tag":{"amenity":"waste_disposal"}},"type":"Feature"},
	{"geometry":{"coordinates":[37.697447,55.619001],"type":"Point"},"properties":{"osm_id":"2866801079","tag":{"amenity":"waste_disposal"}},"type":"Feature"},
	{"geometry":{"coordinates":[37.699553,55.614794],"type":"Point"},"properties":{"osm_id":"2866801080","tag":{"amenity":"waste_disposal"}},"type":"Feature"},
	{"geometry":{"coordinates":[37.699896,55.61404],"type":"Point"},"properties":{"osm_id":"2866801081","tag":{"amenity":"waste_disposal"}},"type":"Feature"},
	{"geometry":{"coordinates":[37.700036,55.61347],"type":"Point"},"properties":{"osm_id":"2866801082","tag":{"amenity":"waste_disposal"}},"type":"Feature"},
	{"geometry":{"coordinates":[37.701726,55.621261],"type":"Point"},"properties":{"osm_id":"2866801083","ref":"3519481","tag":{"amenity":"waste_disposal","collection_times":"10:00-14:00","operator":"\u00d0\u0093\u00d0\u00a3\u00d0\u009f \"\u00d0\u00ad\u00d0\u00ba\u00d0\u00be\u00d1\u0082\u00d0\u00b5\u00d1\u0085\u00d0\u00bf\u00d1\u0080\u00d0\u00be\u00d0\u00bc\""}},"type":"Feature"},
	{"geometry":{"coordinates":[37.697825,55.617909],"type":"Point"},"properties":{"osm_id":"2866801567","tag":{"amenity":"waste_disposal"}},"type":"Feature"},
	{"geometry":{"coordinates":[37.699811,55.617116],"type":"Point"},"properties":{"osm_id":"2866801568","tag":{"amenity":"waste_disposal"}},"type":"Feature"},
	{"geometry":{"coordinates":[37.700142,55.620343],"type":"Point"},"properties":{"osm_id":"2903215144","tag":{"amenity":"waste_disposal"}},"type":"Feature"},
	{"geometry":{"coordinates":[37.702313,55.620569],"type":"Point"},"properties":{"osm_id":"2903215153","tag":{"amenity":"waste_disposal"}},"type":"Feature"},
	{"geometry":{"coordinates":[37.704969,55.622063],"type":"Point"},"properties":{"osm_id":"2911095157","ref":"1988326","tag":{"amenity":"waste_disposal","collection_times":"10:00-14:00","operator":"\u00d0\u0093\u00d0\u00a3\u00d0\u009f \"\u00d0\u00ad\u00d0\u00ba\u00d0\u00be\u00d1\u0082\u00d0\u00b5\u00d1\u0085\u00d0\u00bf\u00d1\u0080\u00d0\u00be\u00d0\u00bc\""}},"type":"Feature"},
	{"geometry":{"coordinates":[37.701054,55.610915],"type":"Point"},"properties":{"osm_id":"2922589508","tag":{"amenity":"waste_disposal"}},"type":"Feature"},
	{"geometry":{"coordinates":[37.702701,55.621678],"type":"Point"},"properties":{"osm_id":"2939693094","tag":{"amenity":"waste_disposal"}},"type":"Feature"},
	{"geometry":{"coordinates":[37.669281,55.624725],"type":"Point"},"properties":{"osm_id":"2982333334","tag":{"amenity":"waste_disposal"}},"type":"Feature"},
	{"geometry":{"coordinates":[37.670003,55.621942],"type":"Point"},"properties":{"osm_id":"2986564633","tag":{"amenity":"waste_disposal","shelter":"yes"}},"type":"Feature"},
	{"geometry":{"coordinates":[37.696401,55.620844],"type":"Point"},"properties":{"osm_id":"3042951312","tag":{"amenity":"waste_disposal","collection_times":"09:00-10:00","operator":"\u00d0\u0093\u00d0\u00a3\u00d0\u009f \"\u00d0\u00ad\u00d0\u00ba\u00d0\u00be\u00d1\u0082\u00d0\u00b5\u00d1\u0085\u00d0\u00bf\u00d1\u0080\u00d0\u00be\u00d0\u00bc\""}},"type":"Feature"},
	{"geometry":{"coordinates":[37.702504,55.618411],"type":"Point"},"properties":{"osm_id":"3226150050","ref":"1992708","tag":{"amenity":"waste_disposal","collection_times":"09:00-13:00","operator":"\u00d0\u0093\u00d0\u00a3\u00d0\u009f \"\u00d0\u00ad\u00d0\u00ba\u00d0\u00be\u00d1\u0082\u00d0\u00b5\u00d1\u0085\u00d0\u00bf\u00d1\u0080\u00d0\u00be\u00d0\u00bc\""}},"type":"Feature"},
	{"geometry":{"coordinates":[37.668003,55.61735],"type":"Point"},"properties":{"osm_id":"3249138583","tag":{"amenity":"waste_disposal"}},"type":"Feature"},
	{"geometry":{"coordinates":[37.642513,55.581398],"type":"Point"},"properties":{"osm_id":"3275522545","tag":{"amenity":"waste_disposal"}},"type":"Feature"},
	{"geometry":{"coordinates":[37.642587,55.582843],"type":"Point"},"properties":{"osm_id":"3275522546","tag":{"amenity":"waste_disposal"}},"type":"Feature"},
	{"geometry":{"coordinates":[37.641542,55.583509],"type":"Point"},"properties":{"osm_id":"3275522547","tag":{"amenity":"waste_disposal"}},"type":"Feature"},
	{"geometry":{"coordinates":[37.667366,55.624928],"type":"Point"},"properties":{"osm_id":"3312030356","tag":{"amenity":"waste_basket"}},"type":"Feature"},
	{"geometry":{"coordinates":[37.665568,55.627479],"type":"Point"},"properties":{"osm_id":"3312030612","tag":{"amenity":"waste_disposal"}},"type":"Feature"},
	{"geometry":{"coordinates":[37.696385,55.622472],"type":"Point"},"properties":{"osm_id":"3463789761","tag":{"amenity":"waste_disposal"}},"type":"Feature"},
	{"geometry":{"coordinates":[37.699282,55.623545],"type":"Point"},"properties":{"osm_id":"3463789781","ref":"1988793","tag":{"amenity":"waste_disposal","collection_times":"10:00-14:00","operator":"\u00d0\u0093\u00d0\u00a3\u00d0\u009f \"\u00d0\u00ad\u00d0\u00ba\u00d0\u00be\u00d1\u0082\u00d0\u00b5\u00d1\u0085\u00d0\u00bf\u00d1\u0080\u00d0\u00be\u00d0\u00bc\""}},"type":"Feature"},
	{"geometry":{"coordinates":[37.677334,55.617331],"type":"Point"},"properties":{"osm_id":"3487456544","tag":{"amenity":"waste_basket"}},"type":"Feature"},
	{"geometry":{"coordinates":[37.701287,55.624008],"type":"Point"},"properties":{"osm_id":"3648728738","tag":{"amenity":"waste_disposal"}},"type":"Feature"},
	{"geometry":{"coordinates":[37.698776,55.624625],"type":"Point"},"properties":{"osm_id":"3648728754","ref":"30953941","tag":{"amenity":"waste_disposal","collection_times":"10:00-14:00","operator":"\u00d0\u0093\u00d0\u00a3\u00d0\u009f \"\u00d0\u00ad\u00d0\u00ba\u00d0\u00be\u00d1\u0082\u00d0\u00b5\u00d1\u0085\u00d0\u00bf\u00d1\u0080\u00d0\u00be\u00d0\u00bc\""}},"type":"Feature"},
	{"geometry":{"coordinates":[37.644138,55.584363],"type":"Point"},"properties":{"osm_id":"3656100926","tag":{"amenity":"waste_disposal"}},"type":"Feature"},
	{"geometry":{"coordinates":[37.697712,55.611029],"type":"Point"},"properties":{"osm_id":"3673687210","tag":{"amenity":"waste_disposal","collection_times":"07:00-09:00","operator":"\u00d0\u0093\u00d0\u00a3\u00d0\u009f \"\u00d0\u00ad\u00d0\u00ba\u00d0\u00be\u00d1\u0082\u00d0\u00b5\u00d1\u0085\u00d0\u00bf\u00d1\u0080\u00d0\u00be\u00d0\u00bc\""}},"type":"Feature"},
	{"geometry":{"coordinates":[37.704477,55.612694],"type":"Point"},"properties":{"osm_id":"3677524733","tag":{"amenity":"waste_disposal"}},"type":"Feature"},
	{"geometry":{"coordinates":[37.651393,55.580042],"type":"Point"},"properties":{"osm_id":"3699128260","tag":{"amenity":"waste_disposal"}},"type":"Feature"},
	{"geometry":{"coordinates":[37.704077,55.621643],"type":"Point"},"properties":{"osm_id":"3711077711","ref":"1990196","tag":{"amenity":"waste_disposal","collection_times":"10:00-14:00","operator":"\u00d0\u0093\u00d0\u00a3\u00d0\u009f \"\u00d0\u00ad\u00d0\u00ba\u00d0\u00be\u00d1\u0082\u00d0\u00b5\u00d1\u0085\u00d0\u00bf\u00d1\u0080\u00d0\u00be\u00d0\u00bc\""}},"type":"Feature"},
	{"geometry":{"coordinates":[37.702375,55.625037],"type":"Point"},"properties":{"osm_id":"3717191596","ref":"1997175","tag":{"amenity":"waste_disposal","collection_times":"10:00-14:00","operator":"\u00d0\u0093\u00d0\u00a3\u00d0\u009f \"\u00d0\u00ad\u00d0\u00ba\u00d0\u00be\u00d1\u0082\u00d0\u00b5\u00d1\u0085\u00d0\u00bf\u00d1\u0080\u00d0\u00be\u00d0\u00bc\""}},"type":"Feature"},
	{"geometry":{"coordinates":[37.702507,55.625182],"type":"Point"},"properties":{"osm_id":"3717191601","tag":{"amenity":"waste_disposal"}},"type":"Feature"},
	{"geometry":{"coordinates":[37.700242,55.623026],"type":"Point"},"properties":{"osm_id":"3730700550","ref":"238099474","tag":{"amenity":"waste_disposal","collection_times":"07:00-11:00","operator":"\u00d0\u0093\u00d0\u00a3\u00d0\u009f \"\u00d0\u00ad\u00d0\u00ba\u00d0\u00be\u00d1\u0082\u00d0\u00b5\u00d1\u0085\u00d0\u00bf\u00d1\u0080\u00d0\u00be\u00d0\u00bc\""}},"type":"Feature"},
	{"geometry":{"coordinates":[37.676715,55.617152],"type":"Point"},"properties":{"osm_id":"3755769748","tag":{"amenity":"waste_basket"}},"type":"Feature"},
	{"geometry":{"coordinates":[37.677065,55.617164],"type":"Point"},"properties":{"osm_id":"3755769753","tag":{"amenity":"waste_basket"}},"type":"Feature"},
	{"geometry":{"coordinates":[37.676891,55.617217],"type":"Point"},"properties":{"osm_id":"3755769771","tag":{"amenity":"waste_basket"}},"type":"Feature"},
	{"geometry":{"coordinates":[37.676615,55.617252],"type":"Point"},"properties":{"osm_id":"3755769787","tag":{"amenity":"waste_basket"}},"type":"Feature"},
	{"geometry":{"coordinates":[37.67715,55.617272],"type":"Point"},"properties":{"osm_id":"3755769795","tag":{"amenity":"waste_basket"}},"type":"Feature"},
	{"geometry":{"coordinates":[37.67644,55.617364],"type":"Point"},"properties":{"osm_id":"3755769818","tag":{"amenity":"waste_basket"}},"type":"Feature"},
	{"geometry":{"coordinates":[37.676264,55.617439],"type":"Point"},"properties":{"osm_id":"3755770028","tag":{"amenity":"waste_basket"}},"type":"Feature"},
	{"geometry":{"coordinates":[37.676397,55.617521],"type":"Point"},"properties":{"osm_id":"3755770038","tag":{"amenity":"waste_basket"}},"type":"Feature"},
	{"geometry":{"coordinates":[37.676426,55.617588],"type":"Point"},"properties":{"osm_id":"3755770041","tag":{"amenity":"waste_basket"}},"type":"Feature"},
	{"geometry":{"coordinates":[37.677137,55.617695],"type":"Point"},"properties":{"osm_id":"3755770058","tag":{"amenity":"waste_basket"}},"type":"Feature"},
	{"geometry":{"coordinates":[37.676616,55.617707],"type":"Point"},"properties":{"osm_id":"3755770063","tag":{"amenity":"waste_basket"}},"type":"Feature"},
	{"geometry":{"coordinates":[37.676421,55.61771],"type":"Point"},"properties":{"osm_id":"3755770064","tag":{"amenity":"waste_basket"}},"type":"Feature"},
	{"geometry":{"coordinates":[37.676877,55.617744],"type":"Point"},"properties":{"osm_id":"3755770079","tag":{"amenity":"waste_basket"}},"type":"Feature"},
	{"geometry":{"coordinates":[37.677076,55.617793],"type":"Point"},"properties":{"osm_id":"3755770092","tag":{"amenity":"waste_basket"}},"type":"Feature"},
	{"geometry":{"coordinates":[37.676714,55.617807],"type":"Point"},"properties":{"osm_id":"3755770097","tag":{"amenity":"waste_basket"}},"type":"Feature"},
	{"geometry":{"coordinates":[37.699947,55.618194],"type":"Point"},"properties":{"osm_id":"3757229036","ref":"12024815","tag":{"amenity":"waste_disposal","collection_times":"09:00-13:00","operator":"\u00d0\u0093\u00d0\u00a3\u00d0\u009f \"\u00d0\u00ad\u00d0\u00ba\u00d0\u00be\u00d1\u0082\u00d0\u00b5\u00d1\u0085\u00d0\u00bf\u00d1\u0080\u00d0\u00be\u00d0\u00bc\""}},"type":"Feature"},
	{"geometry":{"coordinates":[37.6764,55.617262],"type":"Point"},"properties":{"osm_id":"3767170126","tag":{"amenity":"waste_basket"}},"type":"Feature"},
	{"geometry":{"coordinates":[37.682992,55.609839],"type":"Point"},"properties":{"osm_id":"3999558432","tag":{"amenity":"waste_basket"}},"type":"Feature"},
	{"geometry":{"coordinates":[37.679798,55.615818],"type":"Point"},"properties":{"osm_id":"3999558438","tag":{"amenity":"waste_basket"}},"type":"Feature"},
	{"geometry":{"coordinates":[37.679774,55.61567],"type":"Point"},"properties":{"osm_id":"3999558454","tag":{"amenity":"waste_basket"}},"type":"Feature"},
	{"geometry":{"coordinates":[37.680098,55.613423],"type":"Point"},"properties":{"osm_id":"3999558666","tag":{"amenity":"waste_basket"}},"type":"Feature"},
	{"geometry":{"coordinates":[37.680045,55.613303],"type":"Point"},"properties":{"osm_id":"3999558667","tag":{"amenity":"waste_basket"}},"type":"Feature"},
	{"geometry":{"coordinates":[37.681378,55.611906],"type":"Point"},"properties":{"osm_id":"3999558672","tag":{"amenity":"waste_basket"}},"type":"Feature"},
	{"geometry":{"coordinates":[37.680259,55.6135],"type":"Point"},"properties":{"osm_id":"3999558709","tag":{"amenity":"waste_basket"}},"type":"Feature"},
	{"geometry":{"coordinates":[37.68311,55.609775],"type":"Point"},"properties":{"osm_id":"3999558716","tag":{"amenity":"waste_basket"}},"type":"Feature"},
	{"geometry":{"coordinates":[37.679591,55.615379],"type":"Point"},"properties":{"osm_id":"3999558720","tag":{"amenity":"waste_basket"}},"type":"Feature"},
	{"geometry":{"coordinates":[37.679704,55.61551],"type":"Point"},"properties":{"osm_id":"3999558753","tag":{"amenity":"waste_basket"}},"type":"Feature"},
	{"geometry":{"coordinates":[37.682187,55.610261],"type":"Point"},"properties":{"osm_id":"4003715331","tag":{"amenity":"waste_basket"}},"type":"Feature"},
	{"geometry":{"coordinates":[37.680476,55.612912],"type":"Point"},"properties":{"osm_id":"4003715340","tag":{"amenity":"waste_basket"}},"type":"Feature"},
	{"geometry":{"coordinates":[37.682037,55.610241],"type":"Point"},"properties":{"osm_id":"4003715349","tag":{"amenity":"waste_basket"}},"type":"Feature"},
	{"geometry":{"coordinates":[37.680983,55.612785],"type":"Point"},"properties":{"osm_id":"4003715356","tag":{"amenity":"waste_basket"}},"type":"Feature"},
	{"geometry":{"coordinates":[37.681321,55.6107],"type":"Point"},"properties":{"osm_id":"4003715365","tag":{"amenity":"waste_basket"}},"type":"Feature"},
	{"geometry":{"coordinates":[37.68112,55.612602],"type":"Point"},"properties":{"osm_id":"4003715368","tag":{"amenity":"waste_basket"}},"type":"Feature"},
	{"geometry":{"coordinates":[37.680806,55.612836],"type":"Point"},"properties":{"osm_id":"4003715370","tag":{"amenity":"waste_basket"}},"type":"Feature"},
	{"geometry":{"coordinates":[37.68043,55.612933],"type":"Point"},"properties":{"osm_id":"4003715371","tag":{"amenity":"waste_basket"}},"type":"Feature"},
	{"geometry":{"coordinates":[37.682547,55.610488],"type":"Point"},"properties":{"osm_id":"4003715699","tag":{"amenity":"waste_basket"}},"type":"Feature"},
	{"geometry":{"coordinates":[37.686989,55.614186],"type":"Point"},"properties":{"osm_id":"4006112982","tag":{"amenity":"waste_basket"}},"type":"Feature"},
	{"geometry":{"coordinates":[37.686932,55.614231],"type":"Point"},"properties":{"osm_id":"4006112983","tag":{"amenity":"waste_basket"}},"type":"Feature"},
	{"geometry":{"coordinates":[37.68734,55.614892],"type":"Point"},"properties":{"osm_id":"4006112986","tag":{"amenity":"waste_basket"}},"type":"Feature"},
	{"geometry":{"coordinates":[37.681424,55.611251],"type":"Point"},"properties":{"osm_id":"4006115389","tag":{"amenity":"waste_basket"}},"type":"Feature"},
	{"geometry":{"coordinates":[37.682003,55.610491],"type":"Point"},"properties":{"osm_id":"4006115391","tag":{"amenity":"waste_basket"}},"type":"Feature"},
	{"geometry":{"coordinates":[37.685031,55.610548],"type":"Point"},"properties":{"osm_id":"4014437890","tag":{"amenity":"waste_basket"}},"type":"Feature"},
	{"geometry":{"coordinates":[37.680761,55.615516],"type":"Point"},"properties":{"osm_id":"4014437896","tag":{"amenity":"waste_basket"}},"type":"Feature"},
	{"geometry":{"coordinates":[37.690047,55.612549],"type":"Point"},"properties":{"osm_id":"4014437897","tag":{"amenity":"waste_basket"}},"type":"Feature"},
	{"geometry":{"coordinates":[37.680769,55.615213],"type":"Point"},"properties":{"osm_id":"4014437898","tag":{"amenity":"waste_basket"}},"type":"Feature"},
	{"geometry":{"coordinates":[37.681729,55.612247],"type":"Point"},"properties":{"osm_id":"4014437899","tag":{"amenity":"waste_basket"}},"type":"Feature"},
	{"geometry":{"coordinates":[37.680796,55.616234],"type":"Point"},"properties":{"osm_id":"4014437900","tag":{"amenity":"waste_basket"}},"type":"Feature"},
	{"geometry":{"coordinates":[37.680769,55.615229],"type":"Point"},"properties":{"osm_id":"4014437904","tag":{"amenity":"waste_basket"}},"type":"Feature"},
	{"geometry":{"coordinates":[37.680642,55.614867],"type":"Point"},"properties":{"osm_id":"4014437905","tag":{"amenity":"waste_basket"}},"type":"Feature"},
	{"geometry":{"coordinates":[37.681783,55.611155],"type":"Point"},"properties":{"osm_id":"4014437906","tag":{"amenity":"waste_basket"}},"type":"Feature"},
	{"geometry":{"coordinates":[37.687199,55.611738],"type":"Point"},"properties":{"osm_id":"4014437907","tag":{"amenity":"waste_basket"}},"type":"Feature"},
	{"geometry":{"coordinates":[37.680935,55.614114],"type":"Point"},"properties":{"osm_id":"4014437908","tag":{"amenity":"waste_basket"}},"type":"Feature"},
	{"geometry":{"coordinates":[37.681252,55.61649],"type":"Point"},"properties":{"osm_id":"4014437910","tag":{"amenity":"waste_basket"}},"type":"Feature"},
	{"geometry":{"coordinates":[37.684068,55.61089],"type":"Point"},"properties":{"osm_id":"4014437911","tag":{"amenity":"waste_basket"}},"type":"Feature"},
	{"geometry":{"coordinates":[37.681737,55.6117],"type":"Point"},"properties":{"osm_id":"4014437915","tag":{"amenity":"waste_basket"}},"type":"Feature"},
	{"geometry":{"coordinates":[37.683392,55.61077],"type":"Point"},"properties":{"osm_id":"4014437916","tag":{"amenity":"waste_basket"}},"type":"Feature"},
	{"geometry":{"coordinates":[37.681086,55.613802],"type":"Point"},"properties":{"osm_id":"4014437917","tag":{"amenity":"waste_basket"}},"type":"Feature"},
	{"geometry":{"coordinates":[37.680749,55.61584],"type":"Point"},"properties":{"osm_id":"4014437918","tag":{"amenity":"waste_basket"}},"type":"Feature"},
	{"geometry":{"coordinates":[37.686192,55.611548],"type":"Point"},"properties":{"osm_id":"4014437924","tag":{"amenity":"waste_basket"}},"type":"Feature"},
	{"geometry":{"coordinates":[37.680699,55.614865],"type":"Point"},"properties":{"osm_id":"4014437926","tag":{"amenity":"waste_basket"}},"type":"Feature"},
	{"geometry":{"coordinates":[37.681351,55.613126],"type":"Point"},"properties":{"osm_id":"4014443381","tag":{"amenity":"waste_basket"}},"type":"Feature"},
	{"geometry":{"coordinates":[37.681257,55.613511],"type":"Point"},"properties":{"osm_id":"4014443387","tag":{"amenity":"waste_basket"}},"type":"Feature"},
	{"geometry":{"coordinates":[37.681253,55.613534],"type":"Point"},"properties":{"osm_id":"4014443491","tag":{"amenity":"waste_basket"}},"type":"Feature"},
	{"geometry":{"coordinates":[37.681373,55.612779],"type":"Point"},"properties":{"osm_id":"4014443493","tag":{"amenity":"waste_basket"}},"type":"Feature"},
	{"geometry":{"coordinates":[37.681397,55.612679],"type":"Point"},"properties":{"osm_id":"4014443495","tag":{"amenity":"waste_basket"}},"type":"Feature"},
	{"geometry":{"coordinates":[37.687203,55.608986],"type":"Point"},"properties":{"osm_id":"4022490388","tag":{"amenity":"waste_basket"}},"type":"Feature"},
	{"geometry":{"coordinates":[37.684237,55.609277],"type":"Point"},"properties":{"osm_id":"4022491491","tag":{"amenity":"waste_basket"}},"type":"Feature"},
	{"geometry":{"coordinates":[37.687404,55.608774],"type":"Point"},"properties":{"osm_id":"4022491493","tag":{"amenity":"waste_basket"}},"type":"Feature"},
	{"geometry":{"coordinates":[37.688769,55.61039],"type":"Point"},"properties":{"osm_id":"4022491494","tag":{"amenity":"waste_basket"}},"type":"Feature"},
	{"geometry":{"coordinates":[37.689089,55.610598],"type":"Point"},"properties":{"osm_id":"4022491498","tag":{"amenity":"waste_basket"}},"type":"Feature"},
	{"geometry":{"coordinates":[37.679462,55.613767],"type":"Point"},"properties":{"osm_id":"4022491499","tag":{"amenity":"waste_basket"}},"type":"Feature"},
	{"geometry":{"coordinates":[37.688456,55.610195],"type":"Point"},"properties":{"osm_id":"4022491507","tag":{"amenity":"waste_basket"}},"type":"Feature"},
	{"geometry":{"coordinates":[37.687461,55.611115],"type":"Point"},"properties":{"osm_id":"4022491518","tag":{"amenity":"waste_basket"}},"type":"Feature"},
	{"geometry":{"coordinates":[37.68417,55.609278],"type":"Point"},"properties":{"osm_id":"4022491524","tag":{"amenity":"waste_basket"}},"type":"Feature"},
	{"geometry":{"coordinates":[37.68793,55.609057],"type":"Point"},"properties":{"osm_id":"4022491529","tag":{"amenity":"waste_basket"}},"type":"Feature"},
	{"geometry":{"coordinates":[37.688062,55.609597],"type":"Point"},"properties":{"osm_id":"4022491531","tag":{"amenity":"waste_basket"}},"type":"Feature"},
	{"geometry":{"coordinates":[37.687313,55.611175],"type":"Point"},"properties":{"osm_id":"4022491539","tag":{"amenity":"waste_basket"}},"type":"Feature"},
	{"geometry":{"coordinates":[37.686651,55.609365],"type":"Point"},"properties":{"osm_id":"4022491543","tag":{"amenity":"waste_basket"}},"type":"Feature"},
	{"geometry":{"coordinates":[37.684695,55.609341],"type":"Point"},"properties":{"osm_id":"4022491546","tag":{"amenity":"waste_basket"}},"type":"Feature"},
	{"geometry":{"coordinates":[37.685508,55.609027],"type":"Point"},"properties":{"osm_id":"4022491547","tag":{"amenity":"waste_basket"}},"type":"Feature"},
	{"geometry":{"coordinates":[37.687431,55.609336],"type":"Point"},"properties":{"osm_id":"4022491548","tag":{"amenity":"waste_basket"}},"type":"Feature"},
	{"geometry":{"coordinates":[37.685508,55.608991],"type":"Point"},"properties":{"osm_id":"4022491556","tag":{"amenity":"waste_basket"}},"type":"Feature"},
	{"geometry":{"coordinates":[37.683274,55.613703],"type":"Point"},"properties":{"osm_id":"4023138730","tag":{"amenity":"waste_basket"}},"type":"Feature"},
	{"geometry":{"coordinates":[37.683682,55.614885],"type":"Point"},"properties":{"osm_id":"4023138731","tag":{"amenity":"waste_basket"}},"type":"Feature"},
	{"geometry":{"coordinates":[37.682697,55.613522],"type":"Point"},"properties":{"osm_id":"4023138733","tag":{"amenity":"waste_basket"}},"type":"Feature"},
	{"geometry":{"coordinates":[37.684052,55.614262],"type":"Point"},"properties":{"osm_id":"4023138742","tag":{"amenity":"waste_basket"}},"type":"Feature"},
	{"geometry":{"coordinates":[37.683924,55.611707],"type":"Point"},"properties":{"osm_id":"4023138743","tag":{"amenity":"waste_basket"}},"type":"Feature"},
	{"geometry":{"coordinates":[37.683585,55.612166],"type":"Point"},"properties":{"osm_id":"4023138747","tag":{"amenity":"waste_basket"}},"type":"Feature"},
	{"geometry":{"coordinates":[37.682912,55.612694],"type":"Point"},"properties":{"osm_id":"4023138753","tag":{"amenity":"waste_basket"}},"type":"Feature"},
	{"geometry":{"coordinates":[37.684368,55.611334],"type":"Point"},"properties":{"osm_id":"4023138762","tag":{"amenity":"waste_basket"}},"type":"Feature"},
	{"geometry":{"coordinates":[37.682076,55.613603],"type":"Point"},"properties":{"osm_id":"4023138763","tag":{"amenity":"waste_basket"}},"type":"Feature"},
	{"geometry":{"coordinates":[37.683907,55.614452],"type":"Point"},"properties":{"osm_id":"4023138769","tag":{"amenity":"waste_basket"}},"type":"Feature"},
	{"geometry":{"coordinates":[37.684017,55.614318],"type":"Point"},"properties":{"osm_id":"4023138772","tag":{"amenity":"waste_basket"}},"type":"Feature"},
	{"geometry":{"coordinates":[37.681922,55.613864],"type":"Point"},"properties":{"osm_id":"4023138773","tag":{"amenity":"waste_basket"}},"type":"Feature"},
	{"geometry":{"coordinates":[37.682834,55.612835],"type":"Point"},"properties":{"osm_id":"4023138778","tag":{"amenity":"waste_basket"}},"type":"Feature"},
	{"geometry":{"coordinates":[37.683191,55.612447],"type":"Point"},"properties":{"osm_id":"4023138782","tag":{"amenity":"waste_basket"}},"type":"Feature"},
	{"geometry":{"coordinates":[37.683697,55.614805],"type":"Point"},"properties":{"osm_id":"4023138785","tag":{"amenity":"waste_basket"}},"type":"Feature"},
	{"geometry":{"coordinates":[37.683737,55.613837],"type":"Point"},"properties":{"osm_id":"4023138787","tag":{"amenity":"waste_basket"}},"type":"Feature"},
	{"geometry":{"coordinates":[37.68406,55.613953],"type":"Point"},"properties":{"osm_id":"4023138788","tag":{"amenity":"waste_basket"}},"type":"Feature"},
	{"geometry":{"coordinates":[37.68305,55.613636],"type":"Point"},"properties":{"osm_id":"4023143291","tag":{"amenity":"waste_basket"}},"type":"Feature"},
	{"geometry":{"coordinates":[37.683641,55.612116],"type":"Point"},"properties":{"osm_id":"4023143297","tag":{"amenity":"waste_basket"}},"type":"Feature"},
	{"geometry":{"coordinates":[37.683765,55.611892],"type":"Point"},"properties":{"osm_id":"4023143298","tag":{"amenity":"waste_basket"}},"type":"Feature"},
	{"geometry":{"coordinates":[37.682996,55.613616],"type":"Point"},"properties":{"osm_id":"4023143299","tag":{"amenity":"waste_basket"}},"type":"Feature"},
	{"geometry":{"coordinates":[37.682115,55.61355],"type":"Point"},"properties":{"osm_id":"4023143301","tag":{"amenity":"waste_basket"}},"type":"Feature"},
	{"geometry":{"coordinates":[37.684147,55.614096],"type":"Point"},"properties":{"osm_id":"4023143309","tag":{"amenity":"waste_basket"}},"type":"Feature"},
	{"geometry":{"coordinates":[37.683835,55.613865],"type":"Point"},"properties":{"osm_id":"4023143312","tag":{"amenity":"waste_basket"}},"type":"Feature"},
	{"geometry":{"coordinates":[37.680576,55.614351],"type":"Point"},"properties":{"osm_id":"4023174968","tag":{"amenity":"waste_basket"}},"type":"Feature"},
	{"geometry":{"coordinates":[37.680478,55.616263],"type":"Point"},"properties":{"osm_id":"4023232903","tag":{"amenity":"waste_basket"}},"type":"Feature"},
	{"geometry":{"coordinates":[37.680592,55.616304],"type":"Point"},"properties":{"osm_id":"4023232904","tag":{"amenity":"waste_basket"}},"type":"Feature"},
	{"geometry":{"coordinates":[37.68047,55.616332],"type":"Point"},"properties":{"osm_id":"4023232905","tag":{"amenity":"waste_basket"}},"type":"Feature"},
	{"geometry":{"coordinates":[37.685453,55.609834],"type":"Point"},"properties":{"osm_id":"4023927849","tag":{"amenity":"waste_basket"}},"type":"Feature"},
	{"geometry":{"coordinates":[37.686464,55.608079],"type":"Point"},"properties":{"osm_id":"4023927851","tag":{"amenity":"waste_basket"}},"type":"Feature"},
	{"geometry":{"coordinates":[37.685609,55.608628],"type":"Point"},"properties":{"osm_id":"4023927852","tag":{"amenity":"waste_basket"}},"type":"Feature"},
	{"geometry":{"coordinates":[37.685598,55.608657],"type":"Point"},"properties":{"osm_id":"4023927854","tag":{"amenity":"waste_basket"}},"type":"Feature"},
	{"geometry":{"coordinates":[37.686499,55.608217],"type":"Point"},"properties":{"osm_id":"4023927855","tag":{"amenity":"waste_basket"}},"type":"Feature"},
	{"geometry":{"coordinates":[37.685928,55.609723],"type":"Point"},"properties":{"osm_id":"4023927856","tag":{"amenity":"waste_basket"}},"type":"Feature"},
	{"geometry":{"coordinates":[37.686434,55.608229],"type":"Point"},"properties":{"osm_id":"4023927858","tag":{"amenity":"waste_basket"}},"type":"Feature"},
	{"geometry":{"coordinates":[37.688093,55.610311],"type":"Point"},"properties":{"osm_id":"4029417898","tag":{"amenity":"waste_basket"}},"type":"Feature"},
	{"geometry":{"coordinates":[37.684231,55.611108],"type":"Point"},"properties":{"osm_id":"4029417907","tag":{"amenity":"waste_basket"}},"type":"Feature"},
	{"geometry":{"coordinates":[37.685363,55.611045],"type":"Point"},"properties":{"osm_id":"4029417908","tag":{"amenity":"waste_basket"}},"type":"Feature"},
	{"geometry":{"coordinates":[37.679477,55.61859],"type":"Point"},"properties":{"osm_id":"4066986808","tag":{"amenity":"waste_basket"}},"type":"Feature"},
	{"geometry":{"coordinates":[37.679501,55.618621],"type":"Point"},"properties":{"osm_id":"4066986809","tag":{"amenity":"waste_basket"}},"type":"Feature"},
	{"geometry":{"coordinates":[37.68398,55.609305],"type":"Point"},"properties":{"osm_id":"4066986853","tag":{"amenity":"waste_basket"}},"type":"Feature"},
	{"geometry":{"coordinates":[37.697667,55.621579],"type":"Point"},"properties":{"osm_id":"4089726750","ref":"30967389","tag":{"amenity":"waste_disposal","collection_times":"07:00-11:00","operator":"\u00d0\u0093\u00d0\u00a3\u00d0\u009f \"\u00d0\u00ad\u00d0\u00ba\u00d0\u00be\u00d1\u0082\u00d0\u00b5\u00d1\u0085\u00d0\u00bf\u00d1\u0080\u00d0\u00be\u00d0\u00bc\""}},"type":"Feature"},
	{"geometry":{"coordinates":[37.698228,55.621996],"type":"Point"},"properties":{"osm_id":"4089726751","ref":"1993803","tag":{"amenity":"waste_disposal","collection_times":"07:00-11:00","operator":"\u00d0\u0093\u00d0\u00a3\u00d0\u009f \"\u00d0\u00ad\u00d0\u00ba\u00d0\u00be\u00d1\u0082\u00d0\u00b5\u00d1\u0085\u00d0\u00bf\u00d1\u0080\u00d0\u00be\u00d0\u00bc\""}},"type":"Feature"},
	{"geometry":{"coordinates":[37.699263,55.622342],"type":"Point"},"properties":{"osm_id":"4134041423","ref":"1992734","tag":{"amenity":"waste_disposal","collection_times":"10:00-14:00","operator":"\u00d0\u0093\u00d0\u00a3\u00d0\u009f \"\u00d0\u00ad\u00d0\u00ba\u00d0\u00be\u00d1\u0082\u00d0\u00b5\u00d1\u0085\u00d0\u00bf\u00d1\u0080\u00d0\u00be\u00d0\u00bc\""}},"type":"Feature"},
	{"geometry":{"coordinates":[37.704431,55.613697],"type":"Point"},"properties":{"osm_id":"4174757751","ref":"1988971","tag":{"amenity":"waste_disposal","collection_times":"07:00-11:00","operator":"\u00d0\u0093\u00d0\u00a3\u00d0\u009f \"\u00d0\u00ad\u00d0\u00ba\u00d0\u00be\u00d1\u0082\u00d0\u00b5\u00d1\u0085\u00d0\u00bf\u00d1\u0080\u00d0\u00be\u00d0\u00bc\""}},"type":"Feature"},
	{"geometry":{"coordinates":[37.678779,55.621644],"type":"Point"},"properties":{"osm_id":"4268458219","tag":{"amenity":"waste_basket"}},"type":"Feature"},
	{"geometry":{"coordinates":[37.678694,55.621645],"type":"Point"},"properties":{"osm_id":"4268458220","tag":{"amenity":"waste_basket"}},"type":"Feature"},
	{"geometry":{"coordinates":[37.656629,55.625953],"type":"Point"},"properties":{"osm_id":"4283593619","tag":{"amenity":"waste_basket"}},"type":"Feature"},
	{"geometry":{"coordinates":[37.702934,55.618867],"type":"Point"},"properties":{"osm_id":"4329560110","ref":"1988970","tag":{"amenity":"waste_disposal","collection_times":"09:00-13:00","operator":"\u00d0\u0093\u00d0\u00a3\u00d0\u009f \"\u00d0\u00ad\u00d0\u00ba\u00d0\u00be\u00d1\u0082\u00d0\u00b5\u00d1\u0085\u00d0\u00bf\u00d1\u0080\u00d0\u00be\u00d0\u00bc\""}},"type":"Feature"},
	{"geometry":{"coordinates":[37.686881,55.611919],"type":"Point"},"properties":{"osm_id":"4380621030","tag":{"amenity":"waste_basket"}},"type":"Feature"},
	{"geometry":{"coordinates":[37.686684,55.612213],"type":"Point"},"properties":{"osm_id":"4380621032","tag":{"amenity":"waste_basket"}},"type":"Feature"},
	{"geometry":{"coordinates":[37.686343,55.612484],"type":"Point"},"properties":{"osm_id":"4380621033","tag":{"amenity":"waste_basket"}},"type":"Feature"},
	{"geometry":{"coordinates":[37.688959,55.614339],"type":"Point"},"properties":{"osm_id":"4380621034","tag":{"amenity":"waste_basket"}},"type":"Feature"},
	{"geometry":{"coordinates":[37.689873,55.614595],"type":"Point"},"properties":{"osm_id":"4380621035","tag":{"amenity":"waste_basket"}},"type":"Feature"},
	{"geometry":{"coordinates":[37.684336,55.616659],"type":"Point"},"properties":{"osm_id":"4380621037","tag":{"amenity":"waste_basket"}},"type":"Feature"},
	{"geometry":{"coordinates":[37.681703,55.612354],"type":"Point"},"properties":{"osm_id":"4391617814","tag":{"amenity":"waste_basket"}},"type":"Feature"},
	{"geometry":{"coordinates":[37.681544,55.612474],"type":"Point"},"properties":{"osm_id":"4391617815","tag":{"amenity":"waste_basket"}},"type":"Feature"},
	{"geometry":{"coordinates":[37.681674,55.613338],"type":"Point"},"properties":{"osm_id":"4391617816","tag":{"amenity":"waste_basket"}},"type":"Feature"},
	{"geometry":{"coordinates":[37.689438,55.61163],"type":"Point"},"properties":{"osm_id":"4415981685","tag":{"amenity":"waste_basket"}},"type":"Feature"},
	{"geometry":{"coordinates":[37.689324,55.612213],"type":"Point"},"properties":{"osm_id":"4415981686","tag":{"amenity":"waste_basket"}},"type":"Feature"},
	{"geometry":{"coordinates":[37.689509,55.612303],"type":"Point"},"properties":{"osm_id":"4415981688","tag":{"amenity":"waste_basket"}},"type":"Feature"},
	{"geometry":{"coordinates":[37.686468,55.612583],"type":"Point"},"properties":{"osm_id":"4415981790","tag":{"amenity":"waste_basket"}},"type":"Feature"},
	{"geometry":{"coordinates":[37.686953,55.612622],"type":"Point"},"properties":{"osm_id":"4415981793","tag":{"amenity":"waste_basket"}},"type":"Feature"},
	{"geometry":{"coordinates":[37.687011,55.612637],"type":"Point"},"properties":{"osm_id":"4415981795","tag":{"amenity":"waste_basket"}},"type":"Feature"},
	{"geometry":{"coordinates":[37.6881,55.612641],"type":"Point"},"properties":{"osm_id":"4415981796","tag":{"amenity":"waste_basket"}},"type":"Feature"},
	{"geometry":{"coordinates":[37.687437,55.612659],"type":"Point"},"properties":{"osm_id":"4415981798","tag":{"amenity":"waste_basket"}},"type":"Feature"},
	{"geometry":{"coordinates":[37.681354,55.614467],"type":"Point"},"properties":{"osm_id":"4415981802","tag":{"amenity":"waste_basket"}},"type":"Feature"},
	{"geometry":{"coordinates":[37.681327,55.614523],"type":"Point"},"properties":{"osm_id":"4415981805","tag":{"amenity":"waste_basket"}},"type":"Feature"},
	{"geometry":{"coordinates":[37.681368,55.615047],"type":"Point"},"properties":{"osm_id":"4415981808","tag":{"amenity":"waste_basket"}},"type":"Feature"},
	{"geometry":{"coordinates":[37.681434,55.615086],"type":"Point"},"properties":{"osm_id":"4415981811","tag":{"amenity":"waste_basket"}},"type":"Feature"},
	{"geometry":{"coordinates":[37.667734,55.62689],"type":"Point"},"properties":{"osm_id":"4535688691","tag":{"amenity":"waste_disposal"}},"type":"Feature"},
	{"geometry":{"coordinates":[37.665762,55.580183],"type":"Point"},"properties":{"osm_id":"4602589716","tag":{"amenity":"waste_disposal"}},"type":"Feature"},
	{"geometry":{"coordinates":[37.651127,55.579439],"type":"Point"},"properties":{"osm_id":"4693345691","tag":{"amenity":"waste_disposal"}},"type":"Feature"},
	{"geometry":{"coordinates":[37.65117,55.578697],"type":"Point"},"properties":{"osm_id":"4693379393","tag":{"amenity":"waste_basket"}},"type":"Feature"},
	{"geometry":{"coordinates":[37.651107,55.578869],"type":"Point"},"properties":{"osm_id":"4693397895","tag":{"amenity":"waste_basket"}},"type":"Feature"},
	{"geometry":{"coordinates":[37.650969,55.57919],"type":"Point"},"properties":{"osm_id":"4693424589","tag":{"amenity":"waste_basket"}},"type":"Feature"},
	{"geometry":{"coordinates":[37.650486,55.587569],"type":"Point"},"properties":{"osm_id":"4701005291","tag":{"amenity":"waste_basket"}},"type":"Feature"},
	{"geometry":{"coordinates":[37.650176,55.587589],"type":"Point"},"properties":{"osm_id":"4701023091","tag":{"amenity":"waste_basket"}},"type":"Feature"},
	{"geometry":{"coordinates":[37.650789,55.587547],"type":"Point"},"properties":{"osm_id":"4701051490","tag":{"amenity":"waste_basket"}},"type":"Feature"},
	{"geometry":{"coordinates":[37.649954,55.587805],"type":"Point"},"properties":{"osm_id":"4701056789","tag":{"amenity":"waste_disposal"}},"type":"Feature"},
	{"geometry":{"coordinates":[37.651141,55.587527],"type":"Point"},"properties":{"osm_id":"4701080389","tag":{"amenity":"waste_basket"}},"type":"Feature"},
	{"geometry":{"coordinates":[37.651452,55.5875],"type":"Point"},"properties":{"osm_id":"4701080589","tag":{"amenity":"waste_basket"}},"type":"Feature"},
	{"geometry":{"coordinates":[37.651831,55.58747],"type":"Point"},"properties":{"osm_id":"4701080689","tag":{"amenity":"waste_basket"}},"type":"Feature"},
	{"geometry":{"coordinates":[37.652006,55.587455],"type":"Point"},"properties":{"osm_id":"4701085589","tag":{"amenity":"waste_basket"}},"type":"Feature"},
	{"geometry":{"coordinates":[37.657483,55.583898],"type":"Point"},"properties":{"osm_id":"4706502673","tag":{"amenity":"waste_disposal"}},"type":"Feature"},
	{"geometry":{"coordinates":[37.657146,55.581895],"type":"Point"},"properties":{"osm_id":"4706539020","tag":{"amenity":"waste_disposal"}},"type":"Feature"},
	{"geometry":{"coordinates":[37.658115,55.582743],"type":"Point"},"properties":{"osm_id":"4706543993","tag":{"amenity":"waste_disposal"}},"type":"Feature"},
	{"geometry":{"coordinates":[37.645134,55.586598],"type":"Point"},"properties":{"osm_id":"4723845094","tag":{"amenity":"waste_disposal"}},"type":"Feature"},
	{"geometry":{"coordinates":[37.651571,55.584703],"type":"Point"},"properties":{"osm_id":"4741261522","tag":{"amenity":"waste_basket"}},"type":"Feature"},
	{"geometry":{"coordinates":[37.656881,55.581163],"type":"Point"},"properties":{"osm_id":"4741261525","tag":{"amenity":"waste_basket"}},"type":"Feature"},
	{"geometry":{"coordinates":[37.65682,55.581391],"type":"Point"},"properties":{"osm_id":"4741261529","tag":{"amenity":"waste_basket"}},"type":"Feature"},
	{"geometry":{"coordinates":[37.65055,55.584481],"type":"Point"},"properties":{"osm_id":"4741267423","tag":{"amenity":"waste_basket"}},"type":"Feature"},
	{"geometry":{"coordinates":[37.64913,55.585006],"type":"Point"},"properties":{"osm_id":"4741269921","tag":{"amenity":"waste_basket"}},"type":"Feature"},
	{"geometry":{"coordinates":[37.643239,55.587766],"type":"Point"},"properties":{"osm_id":"4754232321","tag":{"amenity":"waste_disposal"}},"type":"Feature"},
	{"geometry":{"coordinates":[37.643764,55.588931],"type":"Point"},"properties":{"osm_id":"4754233323","tag":{"amenity":"waste_disposal"}},"type":"Feature"},
	{"geometry":{"coordinates":[37.644783,55.588942],"type":"Point"},"properties":{"osm_id":"4754243921","tag":{"amenity":"waste_disposal"}},"type":"Feature"},
	{"geometry":{"coordinates":[37.643112,55.591662],"type":"Point"},"properties":{"osm_id":"4754252231","tag":{"amenity":"waste_disposal"}},"type":"Feature"},
	{"geometry":{"coordinates":[37.641332,55.5893],"type":"Point"},"properties":{"osm_id":"4754252322","tag":{"amenity":"waste_basket"}},"type":"Feature"},
	{"geometry":{"coordinates":[37.639612,55.589338],"type":"Point"},"properties":{"osm_id":"4754257525","tag":{"amenity":"waste_disposal"}},"type":"Feature"},
	{"geometry":{"coordinates":[37.641272,55.590302],"type":"Point"},"properties":{"osm_id":"4754273029","tag":{"amenity":"waste_disposal"}},"type":"Feature"},
	{"geometry":{"coordinates":[37.643296,55.590914],"type":"Point"},"properties":{"osm_id":"4754288322","tag":{"amenity":"waste_disposal"}},"type":"Feature"},
	{"geometry":{"coordinates":[37.640925,55.592092],"type":"Point"},"properties":{"osm_id":"4754289723","tag":{"amenity":"waste_disposal"}},"type":"Feature"},
	{"geometry":{"coordinates":[37.641739,55.590227],"type":"Point"},"properties":{"osm_id":"4754291324","tag":{"amenity":"waste_basket"}},"type":"Feature"},
	{"geometry":{"coordinates":[37.641827,55.589993],"type":"Point"},"properties":{"osm_id":"4754291325","tag":{"amenity":"waste_basket"}},"type":"Feature"},
	{"geometry":{"coordinates":[37.641949,55.589647],"type":"Point"},"properties":{"osm_id":"4754311526","tag":{"amenity":"waste_basket"}},"type":"Feature"},
	{"geometry":{"coordinates":[37.639982,55.592098],"type":"Point"},"properties":{"osm_id":"4754330621","tag":{"amenity":"waste_basket"}},"type":"Feature"},
	{"geometry":{"coordinates":[37.645927,55.589775],"type":"Point"},"properties":{"osm_id":"4784556322","tag":{"amenity":"waste_disposal"}},"type":"Feature"},
	{"geometry":{"coordinates":[37.653411,55.59149],"type":"Point"},"properties":{"osm_id":"4784560922","tag":{"amenity":"waste_disposal"}},"type":"Feature"},
	{"geometry":{"coordinates":[37.645824,55.584556],"type":"Point"},"properties":{"osm_id":"4824788421","tag":{"amenity":"waste_disposal"}},"type":"Feature"},
	{"geometry":{"coordinates":[37.645112,55.586546],"type":"Point"},"properties":{"osm_id":"4824788521","tag":{"amenity":"waste_disposal"}},"type":"Feature"},
	{"geometry":{"coordinates":[37.646703,55.588876],"type":"Point"},"properties":{"osm_id":"4824796021","tag":{"amenity":"waste_disposal"}},"type":"Feature"},
	{"geometry":{"coordinates":[37.663564,55.597895],"type":"Point"},"properties":{"osm_id":"4868318122","tag":{"amenity":"waste_basket"}},"type":"Feature"},
	{"geometry":{"coordinates":[37.664073,55.597929],"type":"Point"},"properties":{"osm_id":"4868318123","tag":{"amenity":"waste_basket"}},"type":"Feature"},
	{"geometry":{"coordinates":[37.663134,55.597857],"type":"Point"},"properties":{"osm_id":"4868320621","tag":{"amenity":"waste_basket"}},"type":"Feature"},
	{"geometry":{"coordinates":[37.672082,55.62461],"type":"Point"},"properties":{"osm_id":"4895450920","tag":{"amenity":"waste_disposal"}},"type":"Feature"},
	{"geometry":{"coordinates":[37.656001,55.579251],"type":"Point"},"properties":{"osm_id":"5044270625","tag":{"amenity":"waste_basket"}},"type":"Feature"},
	{"geometry":{"coordinates":[37.655691,55.579215],"type":"Point"},"properties":{"osm_id":"5044283736","tag":{"amenity":"waste_basket"}},"type":"Feature"},
	{"geometry":{"coordinates":[37.655064,55.579136],"type":"Point"},"properties":{"osm_id":"5044283737","tag":{"amenity":"waste_basket"}},"type":"Feature"},
	{"geometry":{"coordinates":[37.648694,55.592107],"type":"Point"},"properties":{"osm_id":"5044392721","tag":{"amenity":"waste_disposal"}},"type":"Feature"},
	{"geometry":{"coordinates":[37.655366,55.579176],"type":"Point"},"properties":{"osm_id":"5048231561","tag":{"amenity":"waste_basket"}},"type":"Feature"},
	{"geometry":{"coordinates":[37.653725,55.601002],"type":"Point"},"properties":{"osm_id":"5101285126","tag":{"amenity":"waste_basket"}},"type":"Feature"},
	{"geometry":{"coordinates":[37.653895,55.600171],"type":"Point"},"properties":{"osm_id":"5101285127","tag":{"amenity":"waste_basket"}},"type":"Feature"},
	{"geometry":{"coordinates":[37.653648,55.600724],"type":"Point"},"properties":{"osm_id":"5101339023","tag":{"amenity":"waste_basket"}},"type":"Feature"},
	{"geometry":{"coordinates":[37.653597,55.600439],"type":"Point"},"properties":{"osm_id":"5101373123","tag":{"amenity":"waste_basket"}},"type":"Feature"},
	{"geometry":{"coordinates":[37.654578,55.598935],"type":"Point"},"properties":{"osm_id":"5104516747","tag":{"amenity":"waste_basket"}},"type":"Feature"},
	{"geometry":{"coordinates":[37.654487,55.599098],"type":"Point"},"properties":{"osm_id":"5104516749","tag":{"amenity":"waste_basket"}},"type":"Feature"},
	{"geometry":{"coordinates":[37.654404,55.599279],"type":"Point"},"properties":{"osm_id":"5104516751","tag":{"amenity":"waste_basket"}},"type":"Feature"},
	{"geometry":{"coordinates":[37.654294,55.599445],"type":"Point"},"properties":{"osm_id":"5104516753","tag":{"amenity":"waste_basket"}},"type":"Feature"},
	{"geometry":{"coordinates":[37.654179,55.599645],"type":"Point"},"properties":{"osm_id":"5104516755","tag":{"amenity":"waste_basket"}},"type":"Feature"},
	{"geometry":{"coordinates":[37.654066,55.59982],"type":"Point"},"properties":{"osm_id":"5104516757","tag":{"amenity":"waste_basket"}},"type":"Feature"},
	{"geometry":{"coordinates":[37.653988,55.6],"type":"Point"},"properties":{"osm_id":"5104516759","tag":{"amenity":"waste_basket"}},"type":"Feature"},
	{"geometry":{"coordinates":[37.65244,55.585666],"type":"Point"},"properties":{"osm_id":"5126003146","tag":{"amenity":"waste_disposal"}},"type":"Feature"},
	{"geometry":{"coordinates":[37.695744,55.615601],"type":"Point"},"properties":{"osm_id":"5284896374","tag":{"amenity":"recycling","recycling:scrap_metal":"yes","recycling_type":"centre"}},"type":"Feature"},
	{"geometry":{"coordinates":[37.670751,55.595921],"type":"Point"},"properties":{"osm_id":"5329620679","tag":{"amenity":"waste_disposal"}},"type":"Feature"},
	{"geometry":{"coordinates":[37.69541,55.61662],"type":"Point"},"properties":{"osm_id":"5507944305","tag":{"amenity":"waste_disposal"}},"type":"Feature"},
	{"geometry":{"coordinates":[37.698226,55.612775],"type":"Point"},"properties":{"osm_id":"5511870202","tag":{"amenity":"recycling","description":"\u00d0\u009a\u00d0\u00be\u00d1\u0080\u00d0\u00be\u00d0\u00b1\u00d0\u00ba\u00d0\u00b0 \u00d0\u00b2\u00d0\u00be \"\u00d0\u0092\u00d0\u00ba\u00d1\u0083\u00d1\u0081\u00d0\u0092\u00d0\u00b8\u00d0\u00bb\u00d0\u00bb\". \u00d0\u00a0\u00d0\u00b0\u00d1\u0081\u00d0\u00bf\u00d0\u00be\u00d0\u00bb\u00d0\u00be\u00d0\u00b6\u00d0\u00b5\u00d0\u00bd\u00d0\u00b0 \u00d0\u00bc\u00d0\u00b5\u00d0\u00b6\u00d0\u00b4\u00d1\u0083 \u00d0\u00b2\u00d1\u0085\u00d0\u00be\u00d0\u00b4\u00d0\u00be\u00d0\u00bc \u00d0\u00b8 \u00d0\u00ba\u00d0\u00b0\u00d1\u0081\u00d1\u0081\u00d0\u00b0\u00d0\u00bc\u00d0\u00b8.","opening_hours":"Mo-Su 09:00-22:00","recycling:batteries":"yes","recycling:cans":"no","recycling:cardboard":"no","recycling:clothes":"no","recycling:electrical_appliances":"no","recycling:glass":"no","recycling:glass_bottles":"no","recycling:green_waste":"no","recycling:paper":"no","recycling:plastic":"no","recycling:plastic_bottles":"no","recycling:plastic_packaging":"no","recycling:scrap_metal":"no","recycling:shoes":"no","recycling:small_appliances":"no","recycling:waste":"no","recycling_type":"container"}},"type":"Feature"},
	{"geometry":{"coordinates":[37.655168,55.589024],"type":"Point"},"properties":{"osm_id":"5628658537","tag":{"amenity":"waste_disposal"}},"type":"Feature"},
	{"geometry":{"coordinates":[37.654596,55.587352],"type":"Point"},"properties":{"osm_id":"5628660721","tag":{"amenity":"waste_disposal"}},"type":"Feature"},
	{"geometry":{"coordinates":[37.698118,55.621517],"type":"Point"},"properties":{"osm_id":"5640104158","tag":{"amenity":"recycling","description":"\u00d0\u009a\u00d0\u00be\u00d1\u0080\u00d0\u00be\u00d0\u00b1\u00d0\u00ba\u00d0\u00b0 \u00d0\u00b2\u00d0\u00be \"\u00d0\u0092\u00d0\u00ba\u00d1\u0083\u00d1\u0081\u00d0\u0092\u00d0\u00b8\u00d0\u00bb\u00d0\u00bb\". \u00d0\u00a0\u00d0\u00b0\u00d1\u0081\u00d0\u00bf\u00d0\u00be\u00d0\u00bb\u00d0\u00be\u00d0\u00b6\u00d0\u00b5\u00d0\u00bd\u00d0\u00b0 \u00d0\u00bc\u00d0\u00b5\u00d0\u00b6\u00d0\u00b4\u00d1\u0083 \u00d0\u00ba\u00d0\u00b0\u00d1\u0081\u00d1\u0081\u00d0\u00be\u00d0\u00b9 \u00d0\u00b8 \u00d0\u00b2\u00d1\u0085\u00d0\u00be\u00d0\u00b4\u00d0\u00be\u00d0\u00bc.","opening_hours":"Mo-Su 09:00-22:00","recycling:batteries":"yes","recycling:cans":"no","recycling:cardboard":"no","recycling:clothes":"no","recycling:electrical_appliances":"no","recycling:glass":"no","recycling:glass_bottles":"no","recycling:green_waste":"no","recycling:paper":"no","recycling:plastic":"no","recycling:plastic_bottles":"no","recycling:plastic_packaging":"no","recycling:scrap_metal":"no","recycling:shoes":"no","recycling:small_appliances":"no","recycling:waste":"no","recycling_type":"container"}},"type":"Feature"},
	{"geometry":{"coordinates":[37.70322,55.613582],"type":"Point"},"properties":{"osm_id":"5650263367","tag":{"amenity":"waste_basket"}},"type":"Feature"},
	{"geometry":{"coordinates":[37.702922,55.613532],"type":"Point"},"properties":{"osm_id":"5650263370","tag":{"amenity":"waste_basket"}},"type":"Feature"},
	{"geometry":{"coordinates":[37.702616,55.613485],"type":"Point"},"properties":{"osm_id":"5650263373","tag":{"amenity":"waste_basket"}},"type":"Feature"},
	{"geometry":{"coordinates":[37.702353,55.613445],"type":"Point"},"properties":{"osm_id":"5650263376","tag":{"amenity":"waste_basket"}},"type":"Feature"},
	{"geometry":{"coordinates":[37.701819,55.613463],"type":"Point"},"properties":{"osm_id":"5650263379","tag":{"amenity":"waste_basket"}},"type":"Feature"},
	{"geometry":{"coordinates":[37.70091,55.613314],"type":"Point"},"properties":{"osm_id":"5650263386","tag":{"amenity":"waste_basket"}},"type":"Feature"},
	{"geometry":{"coordinates":[37.699845,55.617287],"type":"Point"},"properties":{"osm_id":"5702484129","tag":{"amenity":"waste_disposal"}},"type":"Feature"},
	{"geometry":{"coordinates":[37.704928,55.609549],"type":"Point"},"properties":{"osm_id":"5907164420","tag":{"amenity":"waste_basket"}},"type":"Feature"},
	{"geometry":{"coordinates":[37.704592,55.609497],"type":"Point"},"properties":{"osm_id":"5907164421","tag":{"amenity":"waste_basket"}},"type":"Feature"},
	{"geometry":{"coordinates":[37.704261,55.609442],"type":"Point"},"properties":{"osm_id":"5907164422","tag":{"amenity":"waste_basket"}},"type":"Feature"},
	{"geometry":{"coordinates":[37.701761,55.621263],"type":"Point"},"properties":{"osm_id":"5980827599","tag":{"amenity":"recycling","recycling:plastic_bottles":"yes","recycling_type":"container"}},"type":"Feature"},
	{"geometry":{"coordinates":[37.661712,55.581842],"type":"Point"},"properties":{"osm_id":"6057200563","tag":{"amenity":"recycling"}},"type":"Feature"},
	{"geometry":{"coordinates":[37.673507,55.616256],"type":"Point"},"properties":{"osm_id":"6068053185","tag":{"amenity":"waste_basket"}},"type":"Feature"},
	{"geometry":{"coordinates":[37.695013,55.620838],"type":"Point"},"properties":{"osm_id":"6068388773","tag":{"amenity":"waste_basket"}},"type":"Feature"},
	{"geometry":{"coordinates":[37.695129,55.620834],"type":"Point"},"properties":{"osm_id":"6068388774","tag":{"amenity":"waste_basket"}},"type":"Feature"},
	{"geometry":{"coordinates":[37.696746,55.622391],"type":"Point"},"properties":{"osm_id":"6068462669","tag":{"amenity":"waste_basket"}},"type":"Feature"},
	{"geometry":{"coordinates":[37.697066,55.622443],"type":"Point"},"properties":{"osm_id":"6068462670","tag":{"amenity":"waste_basket"}},"type":"Feature"},
	{"geometry":{"coordinates":[37.696559,55.622097],"type":"Point"},"properties":{"osm_id":"6068462673","tag":{"amenity":"waste_basket"}},"type":"Feature"},
	{"geometry":{"coordinates":[37.696641,55.621925],"type":"Point"},"properties":{"osm_id":"6068462675","tag":{"amenity":"waste_basket"}},"type":"Feature"},
	{"geometry":{"coordinates":[37.696618,55.621535],"type":"Point"},"properties":{"osm_id":"6068462679","tag":{"amenity":"waste_basket"}},"type":"Feature"},
	{"geometry":{"coordinates":[37.696686,55.621398],"type":"Point"},"properties":{"osm_id":"6068462680","tag":{"amenity":"waste_basket"}},"type":"Feature"},
	{"geometry":{"coordinates":[37.697574,55.621325],"type":"Point"},"properties":{"osm_id":"6068462684","tag":{"amenity":"waste_basket"}},"type":"Feature"},
	{"geometry":{"coordinates":[37.696377,55.620239],"type":"Point"},"properties":{"osm_id":"6068462890","tag":{"amenity":"waste_basket"}},"type":"Feature"},
	{"geometry":{"coordinates":[37.696713,55.620294],"type":"Point"},"properties":{"osm_id":"6068462891","tag":{"amenity":"waste_basket"}},"type":"Feature"},
	{"geometry":{"coordinates":[37.661283,55.616325],"type":"Point"},"properties":{"osm_id":"6068491885","tag":{"amenity":"waste_basket"}},"type":"Feature"},
	{"geometry":{"coordinates":[37.681326,55.616265],"type":"Point"},"properties":{"osm_id":"6068514836","tag":{"amenity":"waste_basket"}},"type":"Feature"},
	{"geometry":{"coordinates":[37.681101,55.616412],"type":"Point"},"properties":{"osm_id":"6068514837","tag":{"amenity":"waste_basket"}},"type":"Feature"},
	{"geometry":{"coordinates":[37.678351,55.616103],"type":"Point"},"properties":{"osm_id":"6068514844","tag":{"amenity":"waste_basket"}},"type":"Feature"},
	{"geometry":{"coordinates":[37.676617,55.616011],"type":"Point"},"properties":{"osm_id":"6068514845","tag":{"amenity":"waste_basket"}},"type":"Feature"},
	{"geometry":{"coordinates":[37.676875,55.616023],"type":"Point"},"properties":{"osm_id":"6068514846","tag":{"amenity":"waste_basket"}},"type":"Feature"},
	{"geometry":{"coordinates":[37.675364,55.615967],"type":"Point"},"properties":{"osm_id":"6068514847","tag":{"amenity":"waste_basket"}},"type":"Feature"},
	{"geometry":{"coordinates":[37.674261,55.616067],"type":"Point"},"properties":{"osm_id":"6068514848","tag":{"amenity":"waste_basket"}},"type":"Feature"},
	{"geometry":{"coordinates":[37.682566,55.616409],"type":"Point"},"properties":{"osm_id":"6068930963","tag":{"amenity":"waste_basket"}},"type":"Feature"},
	{"geometry":{"coordinates":[37.680239,55.617418],"type":"Point"},"properties":{"osm_id":"6068935687","tag":{"amenity":"waste_basket"}},"type":"Feature"},
	{"geometry":{"coordinates":[37.680315,55.617403],"type":"Point"},"properties":{"osm_id":"6068935688","tag":{"amenity":"waste_basket"}},"type":"Feature"},
	{"geometry":{"coordinates":[37.6811,55.616935],"type":"Point"},"properties":{"osm_id":"6068935698","tag":{"amenity":"waste_basket"}},"type":"Feature"},
	{"geometry":{"coordinates":[37.685334,55.616155],"type":"Point"},"properties":{"osm_id":"6068948428","tag":{"amenity":"waste_basket"}},"type":"Feature"},
	{"geometry":{"coordinates":[37.685053,55.616191],"type":"Point"},"properties":{"osm_id":"6068948429","tag":{"amenity":"waste_basket"}},"type":"Feature"},
	{"geometry":{"coordinates":[37.684222,55.616708],"type":"Point"},"properties":{"osm_id":"6068948431","tag":{"amenity":"waste_basket"}},"type":"Feature"},
	{"geometry":{"coordinates":[37.683533,55.616852],"type":"Point"},"properties":{"osm_id":"6068948432","tag":{"amenity":"waste_basket"}},"type":"Feature"},
	{"geometry":{"coordinates":[37.683688,55.616838],"type":"Point"},"properties":{"osm_id":"6068948435","tag":{"amenity":"waste_basket"}},"type":"Feature"},
	{"geometry":{"coordinates":[37.693085,55.617147],"type":"Point"},"properties":{"osm_id":"6068982795","tag":{"amenity":"waste_basket"}},"type":"Feature"},
	{"geometry":{"coordinates":[37.692251,55.617367],"type":"Point"},"properties":{"osm_id":"6068982796","tag":{"amenity":"waste_basket"}},"type":"Feature"},
	{"geometry":{"coordinates":[37.692035,55.617207],"type":"Point"},"properties":{"osm_id":"6068982797","tag":{"amenity":"waste_basket"}},"type":"Feature"},
	{"geometry":{"coordinates":[37.692088,55.61723],"type":"Point"},"properties":{"osm_id":"6068982802","tag":{"amenity":"waste_basket"}},"type":"Feature"},
	{"geometry":{"coordinates":[37.691754,55.617091],"type":"Point"},"properties":{"osm_id":"6068982803","tag":{"amenity":"waste_basket"}},"type":"Feature"},
	{"geometry":{"coordinates":[37.69127,55.616964],"type":"Point"},"properties":{"osm_id":"6068982807","tag":{"amenity":"waste_basket"}},"type":"Feature"},
	{"geometry":{"coordinates":[37.69132,55.61697],"type":"Point"},"properties":{"osm_id":"6068982812","tag":{"amenity":"waste_basket"}},"type":"Feature"},
	{"geometry":{"coordinates":[37.690885,55.616925],"type":"Point"},"properties":{"osm_id":"6068982833","tag":{"amenity":"waste_basket"}},"type":"Feature"},
	{"geometry":{"coordinates":[37.690323,55.616697],"type":"Point"},"properties":{"osm_id":"6068982843","tag":{"amenity":"waste_basket"}},"type":"Feature"},
	{"geometry":{"coordinates":[37.689737,55.616849],"type":"Point"},"properties":{"osm_id":"6068982845","tag":{"amenity":"waste_basket"}},"type":"Feature"},
	{"geometry":{"coordinates":[37.689791,55.616827],"type":"Point"},"properties":{"osm_id":"6068982850","tag":{"amenity":"waste_basket"}},"type":"Feature"},
	{"geometry":{"coordinates":[37.68931,55.617034],"type":"Point"},"properties":{"osm_id":"6068982852","tag":{"amenity":"waste_basket"}},"type":"Feature"},
	{"geometry":{"coordinates":[37.689355,55.617006],"type":"Point"},"properties":{"osm_id":"6068982857","tag":{"amenity":"waste_basket"}},"type":"Feature"},
	{"geometry":{"coordinates":[37.689011,55.617212],"type":"Point"},"properties":{"osm_id":"6068982859","tag":{"amenity":"waste_basket"}},"type":"Feature"},
	{"geometry":{"coordinates":[37.689049,55.617182],"type":"Point"},"properties":{"osm_id":"6068982864","tag":{"amenity":"waste_basket"}},"type":"Feature"},
	{"geometry":{"coordinates":[37.688351,55.617757],"type":"Point"},"properties":{"osm_id":"6068982880","tag":{"amenity":"waste_basket"}},"type":"Feature"},
	{"geometry":{"coordinates":[37.688389,55.617727],"type":"Point"},"properties":{"osm_id":"6068983085","tag":{"amenity":"waste_basket"}},"type":"Feature"},
	{"geometry":{"coordinates":[37.688685,55.617456],"type":"Point"},"properties":{"osm_id":"6068983086","tag":{"amenity":"waste_basket"}},"type":"Feature"},
	{"geometry":{"coordinates":[37.688646,55.617486],"type":"Point"},"properties":{"osm_id":"6068983087","tag":{"amenity":"waste_basket"}},"type":"Feature"},
	{"geometry":{"coordinates":[37.688319,55.617185],"type":"Point"},"properties":{"osm_id":"6068983092","tag":{"amenity":"waste_basket"}},"type":"Feature"},
	{"geometry":{"coordinates":[37.688124,55.617136],"type":"Point"},"properties":{"osm_id":"6068983094","tag":{"amenity":"waste_basket"}},"type":"Feature"},
	{"geometry":{"coordinates":[37.686157,55.616568],"type":"Point"},"properties":{"osm_id":"6068983105","tag":{"amenity":"waste_basket"}},"type":"Feature"},
	{"geometry":{"coordinates":[37.695963,55.623343],"type":"Point"},"properties":{"osm_id":"6068987875","tag":{"amenity":"waste_basket"}},"type":"Feature"},
	{"geometry":{"coordinates":[37.698622,55.624805],"type":"Point"},"properties":{"osm_id":"6068993714","tag":{"amenity":"waste_basket"}},"type":"Feature"},
	{"geometry":{"coordinates":[37.703836,55.609312],"type":"Point"},"properties":{"osm_id":"6074245186","tag":{"amenity":"waste_basket"}},"type":"Feature"},
	{"geometry":{"coordinates":[37.703838,55.611587],"type":"Point"},"properties":{"osm_id":"6074567352","tag":{"amenity":"waste_basket"}},"type":"Feature"},
	{"geometry":{"coordinates":[37.702721,55.610879],"type":"Point"},"properties":{"osm_id":"6074567354","tag":{"amenity":"waste_basket"}},"type":"Feature"},
	{"geometry":{"coordinates":[37.702801,55.610697],"type":"Point"},"properties":{"osm_id":"6074567355","tag":{"amenity":"waste_basket"}},"type":"Feature"},
	{"geometry":{"coordinates":[37.702885,55.610514],"type":"Point"},"properties":{"osm_id":"6074567356","tag":{"amenity":"waste_basket"}},"type":"Feature"},
	{"geometry":{"coordinates":[37.702969,55.610329],"type":"Point"},"properties":{"osm_id":"6074567357","tag":{"amenity":"waste_basket"}},"type":"Feature"},
	{"geometry":{"coordinates":[37.703052,55.610146],"type":"Point"},"properties":{"osm_id":"6074567358","tag":{"amenity":"waste_basket"}},"type":"Feature"},
	{"geometry":{"coordinates":[37.703135,55.609959],"type":"Point"},"properties":{"osm_id":"6074567359","tag":{"amenity":"waste_basket"}},"type":"Feature"},
	{"geometry":{"coordinates":[37.703218,55.609777],"type":"Point"},"properties":{"osm_id":"6074567360","tag":{"amenity":"waste_basket"}},"type":"Feature"},
	{"geometry":{"coordinates":[37.703299,55.609595],"type":"Point"},"properties":{"osm_id":"6074567361","tag":{"amenity":"waste_basket"}},"type":"Feature"},
	{"geometry":{"coordinates":[37.705027,55.607516],"type":"Point"},"properties":{"osm_id":"6129250472","tag":{"amenity":"waste_basket"}},"type":"Feature"},
	{"geometry":{"coordinates":[37.70493,55.607692],"type":"Point"},"properties":{"osm_id":"6129250474","tag":{"amenity":"waste_basket"}},"type":"Feature"},
	{"geometry":{"coordinates":[37.669995,55.621398],"type":"Point"},"properties":{"osm_id":"6213854885","tag":{"amenity":"waste_basket"}},"type":"Feature"},
	{"geometry":{"coordinates":[37.673489,55.623733],"type":"Point"},"properties":{"osm_id":"6213872485","tag":{"amenity":"waste_disposal"}},"type":"Feature"},
	{"geometry":{"coordinates":[37.673477,55.62374],"type":"Point"},"properties":{"osm_id":"6214485326","tag":{"amenity":"recycling","recycling:plastic_bottles":"yes","recycling_type":"container"}},"type":"Feature"},
	{"geometry":{"coordinates":[37.675185,55.625476],"type":"Point"},"properties":{"osm_id":"6214521555","tag":{"amenity":"recycling","recycling:plastic_bottles":"yes","recycling_type":"container"}},"type":"Feature"},
	{"geometry":{"coordinates":[37.675992,55.627766],"type":"Point"},"properties":{"osm_id":"6214525605","tag":{"amenity":"recycling","recycling:plastic_bottles":"yes","recycling_type":"container"}},"type":"Feature"},
	{"geometry":{"coordinates":[37.676493,55.627436],"type":"Point"},"properties":{"osm_id":"6214525606","tag":{"amenity":"recycling","recycling:plastic_bottles":"yes","recycling_type":"container"}},"type":"Feature"},
	{"geometry":{"coordinates":[37.704847,55.606466],"type":"Point"},"properties":{"osm_id":"6364719686","tag":{"amenity":"waste_disposal"}},"type":"Feature"},
	{"geometry":{"coordinates":[37.699286,55.623531],"type":"Point"},"properties":{"osm_id":"6433782634","tag":{"amenity":"recycling","recycling:plastic_bottles":"yes","recycling_type":"container"}},"type":"Feature"},
	{"geometry":{"coordinates":[37.698672,55.624596],"type":"Point"},"properties":{"osm_id":"6433791988","tag":{"amenity":"recycling","recycling:plastic_bottles":"yes","recycling_type":"container"}},"type":"Feature"},
	{"geometry":{"coordinates":[37.702221,55.606218],"type":"Point"},"properties":{"osm_id":"6483802985","tag":{"amenity":"waste_basket"}},"type":"Feature"},
	{"geometry":{"coordinates":[37.700814,55.607369],"type":"Point"},"properties":{"osm_id":"6483803086","tag":{"amenity":"waste_basket"}},"type":"Feature"},
	{"geometry":{"coordinates":[37.698781,55.608667],"type":"Point"},"properties":{"osm_id":"6483803087","tag":{"amenity":"waste_basket"}},"type":"Feature"},
	{"geometry":{"coordinates":[37.697362,55.610512],"type":"Point"},"properties":{"osm_id":"6483803189","tag":{"amenity":"waste_basket"}},"type":"Feature"},
	{"geometry":{"coordinates":[37.697439,55.61038],"type":"Point"},"properties":{"osm_id":"6483808785","tag":{"amenity":"waste_basket"}},"type":"Feature"},
	{"geometry":{"coordinates":[37.69731,55.610639],"type":"Point"},"properties":{"osm_id":"6483808786","tag":{"amenity":"waste_basket"}},"type":"Feature"},
	{"geometry":{"coordinates":[37.695455,55.6125],"type":"Point"},"properties":{"osm_id":"6483838789","tag":{"amenity":"recycling","recycling:glass_bottles":"yes","recycling_type":"container"}},"type":"Feature"},
	{"geometry":{"coordinates":[37.694931,55.614649],"type":"Point"},"properties":{"osm_id":"6483838792","tag":{"amenity":"waste_basket"}},"type":"Feature"},
	{"geometry":{"coordinates":[37.694928,55.614704],"type":"Point"},"properties":{"osm_id":"6483838793","tag":{"amenity":"waste_basket"}},"type":"Feature"},
	{"geometry":{"coordinates":[37.695018,55.613147],"type":"Point"},"properties":{"osm_id":"6483838887","tag":{"amenity":"waste_basket"}},"type":"Feature"},
	{"geometry":{"coordinates":[37.694952,55.61354],"type":"Point"},"properties":{"osm_id":"6483839085","tag":{"amenity":"waste_basket"}},"type":"Feature"},
	{"geometry":{"coordinates":[37.698051,55.618171],"type":"Point"},"properties":{"osm_id":"6483866686","tag":{"amenity":"waste_basket"}},"type":"Feature"},
	{"geometry":{"coordinates":[37.695452,55.612509],"type":"Point"},"properties":{"osm_id":"6486018274","tag":{"amenity":"recycling","recycling:plastic_bottles":"yes","recycling_type":"container"}},"type":"Feature"},
	{"geometry":{"coordinates":[37.702132,55.606461],"type":"Point"},"properties":{"osm_id":"6486255683","tag":{"amenity":"recycling","recycling:plastic_bottles":"yes","recycling_type":"container"}},"type":"Feature"},
	{"geometry":{"coordinates":[37.698131,55.61023],"type":"Point"},"properties":{"osm_id":"6486306925","tag":{"amenity":"waste_basket"}},"type":"Feature"},
	{"geometry":{"coordinates":[37.698229,55.610023],"type":"Point"},"properties":{"osm_id":"6486306927","tag":{"amenity":"waste_basket"}},"type":"Feature"},
	{"geometry":{"coordinates":[37.698326,55.609815],"type":"Point"},"properties":{"osm_id":"6486306929","tag":{"amenity":"waste_basket"}},"type":"Feature"},
	{"geometry":{"coordinates":[37.697152,55.611352],"type":"Point"},"properties":{"osm_id":"6486332619","tag":{"amenity":"waste_basket"}},"type":"Feature"},
	{"geometry":{"coordinates":[37.69743,55.611088],"type":"Point"},"properties":{"osm_id":"6486332620","tag":{"amenity":"waste_basket"}},"type":"Feature"},
	{"geometry":{"coordinates":[37.69902,55.611052],"type":"Point"},"properties":{"osm_id":"6486347228","tag":{"amenity":"waste_basket"}},"type":"Feature"},
	{"geometry":{"coordinates":[37.698884,55.611331],"type":"Point"},"properties":{"osm_id":"6486347229","tag":{"amenity":"waste_basket"}},"type":"Feature"},
	{"geometry":{"coordinates":[37.698825,55.61147],"type":"Point"},"properties":{"osm_id":"6486347230","tag":{"amenity":"waste_basket"}},"type":"Feature"},
	{"geometry":{"coordinates":[37.698468,55.611747],"type":"Point"},"properties":{"osm_id":"6486347231","tag":{"amenity":"waste_basket"}},"type":"Feature"},
	{"geometry":{"coordinates":[37.698366,55.611941],"type":"Point"},"properties":{"osm_id":"6486347232","tag":{"amenity":"waste_basket"}},"type":"Feature"},
	{"geometry":{"coordinates":[37.69839,55.612296],"type":"Point"},"properties":{"osm_id":"6486347235","tag":{"amenity":"waste_basket"}},"type":"Feature"},
	{"geometry":{"coordinates":[37.698086,55.612136],"type":"Point"},"properties":{"osm_id":"6486347237","tag":{"amenity":"waste_basket"}},"type":"Feature"},
	{"geometry":{"coordinates":[37.697849,55.617912],"type":"Point"},"properties":{"osm_id":"6486373637","tag":{"amenity":"recycling","recycling:plastic_bottles":"yes","recycling_type":"container"}},"type":"Feature"},
	{"geometry":{"coordinates":[37.698884,55.619941],"type":"Point"},"properties":{"osm_id":"6486378244","tag":{"amenity":"waste_basket"}},"type":"Feature"},
	{"geometry":{"coordinates":[37.698724,55.61977],"type":"Point"},"properties":{"osm_id":"6486378245","tag":{"amenity":"waste_basket"}},"type":"Feature"},
	{"geometry":{"coordinates":[37.69857,55.619601],"type":"Point"},"properties":{"osm_id":"6486378246","tag":{"amenity":"waste_basket"}},"type":"Feature"},
	{"geometry":{"coordinates":[37.698405,55.619425],"type":"Point"},"properties":{"osm_id":"6486378247","tag":{"amenity":"waste_basket"}},"type":"Feature"},
	{"geometry":{"coordinates":[37.698245,55.619261],"type":"Point"},"properties":{"osm_id":"6486378248","tag":{"amenity":"waste_basket"}},"type":"Feature"},
	{"geometry":{"coordinates":[37.698086,55.619085],"type":"Point"},"properties":{"osm_id":"6486378249","tag":{"amenity":"waste_basket"}},"type":"Feature"},
	{"geometry":{"coordinates":[37.697655,55.621602],"type":"Point"},"properties":{"osm_id":"6486436704","tag":{"amenity":"recycling","recycling:plastic_bottles":"yes","recycling_type":"container"}},"type":"Feature"},
	{"geometry":{"coordinates":[37.698727,55.622077],"type":"Point"},"properties":{"osm_id":"6486436859","tag":{"amenity":"waste_basket"}},"type":"Feature"},
	{"geometry":{"coordinates":[37.677809,55.590075],"type":"Point"},"properties":{"osm_id":"6790880950","tag":{"amenity":"waste_basket"}},"type":"Feature"},
	{"geometry":{"coordinates":[37.677519,55.590085],"type":"Point"},"properties":{"osm_id":"6790880951","tag":{"amenity":"waste_basket"}},"type":"Feature"},
	{"geometry":{"coordinates":[37.676575,55.589992],"type":"Point"},"properties":{"osm_id":"6790880970","tag":{"amenity":"waste_basket"}},"type":"Feature"},
	{"geometry":{"coordinates":[37.676927,55.589847],"type":"Point"},"properties":{"osm_id":"6790880971","tag":{"amenity":"waste_basket"}},"type":"Feature"},
	{"geometry":{"coordinates":[37.677156,55.589909],"type":"Point"},"properties":{"osm_id":"6790880973","tag":{"amenity":"waste_basket"}},"type":"Feature"},
	{"geometry":{"coordinates":[37.675477,55.590491],"type":"Point"},"properties":{"osm_id":"6790880975","tag":{"amenity":"waste_basket"}},"type":"Feature"},
	{"geometry":{"coordinates":[37.676067,55.590114],"type":"Point"},"properties":{"osm_id":"6790880977","tag":{"amenity":"waste_basket"}},"type":"Feature"},
	{"geometry":{"coordinates":[37.679478,55.589107],"type":"Point"},"properties":{"osm_id":"6790880979","tag":{"amenity":"waste_basket"}},"type":"Feature"},
	{"geometry":{"coordinates":[37.679008,55.589463],"type":"Point"},"properties":{"osm_id":"6794635081","tag":{"amenity":"waste_basket"}},"type":"Feature"},
	{"geometry":{"coordinates":[37.678516,55.590139],"type":"Point"},"properties":{"osm_id":"6794643998","tag":{"amenity":"waste_basket"}},"type":"Feature"},
	{"geometry":{"coordinates":[37.678384,55.589616],"type":"Point"},"properties":{"osm_id":"6794644000","tag":{"amenity":"waste_basket"}},"type":"Feature"},
	{"geometry":{"coordinates":[37.67785,55.59055],"type":"Point"},"properties":{"osm_id":"6794644009","tag":{"amenity":"waste_basket"}},"type":"Feature"},
	{"geometry":{"coordinates":[37.677271,55.591191],"type":"Point"},"properties":{"osm_id":"6794644026","tag":{"amenity":"waste_basket"}},"type":"Feature"},
	{"geometry":{"coordinates":[37.677136,55.591436],"type":"Point"},"properties":{"osm_id":"6794644032","tag":{"amenity":"waste_basket"}},"type":"Feature"},
	{"geometry":{"coordinates":[37.678055,55.595645],"type":"Point"},"properties":{"osm_id":"6794644046","tag":{"amenity":"waste_basket"}},"type":"Feature"},
	{"geometry":{"coordinates":[37.67879,55.596207],"type":"Point"},"properties":{"osm_id":"6794644047","tag":{"amenity":"waste_basket"}},"type":"Feature"},
	{"geometry":{"coordinates":[37.677245,55.594493],"type":"Point"},"properties":{"osm_id":"6794644049","tag":{"amenity":"waste_basket"}},"type":"Feature"},
	{"geometry":{"coordinates":[37.681955,55.596685],"type":"Point"},"properties":{"osm_id":"6800062937","tag":{"amenity":"waste_basket"}},"type":"Feature"},
	{"geometry":{"coordinates":[37.682039,55.595986],"type":"Point"},"properties":{"osm_id":"6800062939","tag":{"amenity":"waste_basket"}},"type":"Feature"},
	{"geometry":{"coordinates":[37.68206,55.595558],"type":"Point"},"properties":{"osm_id":"6800062941","tag":{"amenity":"waste_basket"}},"type":"Feature"},
	{"geometry":{"coordinates":[37.682002,55.595398],"type":"Point"},"properties":{"osm_id":"6800062943","tag":{"amenity":"waste_basket"}},"type":"Feature"},
	{"geometry":{"coordinates":[37.682692,55.595531],"type":"Point"},"properties":{"osm_id":"6800062945","tag":{"amenity":"waste_basket"}},"type":"Feature"},
	{"geometry":{"coordinates":[37.682277,55.595313],"type":"Point"},"properties":{"osm_id":"6800062947","tag":{"amenity":"waste_basket"}},"type":"Feature"},
	{"geometry":{"coordinates":[37.682242,55.595078],"type":"Point"},"properties":{"osm_id":"6800062952","tag":{"amenity":"waste_basket"}},"type":"Feature"},
	{"geometry":{"coordinates":[37.682573,55.59479],"type":"Point"},"properties":{"osm_id":"6800062955","tag":{"amenity":"waste_basket"}},"type":"Feature"},
	{"geometry":{"coordinates":[37.682298,55.59489],"type":"Point"},"properties":{"osm_id":"6800062957","tag":{"amenity":"waste_basket"}},"type":"Feature"},
	{"geometry":{"coordinates":[37.681485,55.595096],"type":"Point"},"properties":{"osm_id":"6800062959","tag":{"amenity":"waste_basket"}},"type":"Feature"},
	{"geometry":{"coordinates":[37.680453,55.595063],"type":"Point"},"properties":{"osm_id":"6800062960","tag":{"amenity":"waste_basket"}},"type":"Feature"},
	{"geometry":{"coordinates":[37.680973,55.595066],"type":"Point"},"properties":{"osm_id":"6800062961","tag":{"amenity":"waste_basket"}},"type":"Feature"},
	{"geometry":{"coordinates":[37.680053,55.595103],"type":"Point"},"properties":{"osm_id":"6800062963","tag":{"amenity":"waste_basket"}},"type":"Feature"},
	{"geometry":{"coordinates":[37.681747,55.595057],"type":"Point"},"properties":{"osm_id":"6800062964","tag":{"amenity":"waste_basket"}},"type":"Feature"},
	{"geometry":{"coordinates":[37.681924,55.595108],"type":"Point"},"properties":{"osm_id":"6800062966","tag":{"amenity":"waste_basket"}},"type":"Feature"},
	{"geometry":{"coordinates":[37.68115,55.595711],"type":"Point"},"properties":{"osm_id":"6800062969","tag":{"amenity":"waste_basket"}},"type":"Feature"},
	{"geometry":{"coordinates":[37.681746,55.596661],"type":"Point"},"properties":{"osm_id":"6800062972","tag":{"amenity":"waste_basket"}},"type":"Feature"},
	{"geometry":{"coordinates":[37.681126,55.596193],"type":"Point"},"properties":{"osm_id":"6800062974","tag":{"amenity":"waste_basket"}},"type":"Feature"},
	{"geometry":{"coordinates":[37.680252,55.595534],"type":"Point"},"properties":{"osm_id":"6800062976","tag":{"amenity":"waste_basket"}},"type":"Feature"},
	{"geometry":{"coordinates":[37.680685,55.595866],"type":"Point"},"properties":{"osm_id":"6800062979","tag":{"amenity":"waste_basket"}},"type":"Feature"},
	{"geometry":{"coordinates":[37.679576,55.596553],"type":"Point"},"properties":{"osm_id":"6800096585","tag":{"amenity":"waste_basket"}},"type":"Feature"},
	{"geometry":{"coordinates":[37.679643,55.596336],"type":"Point"},"properties":{"osm_id":"6800096587","tag":{"amenity":"waste_basket"}},"type":"Feature"},
	{"geometry":{"coordinates":[37.67964,55.596711],"type":"Point"},"properties":{"osm_id":"6800096589","tag":{"amenity":"waste_basket"}},"type":"Feature"},
	{"geometry":{"coordinates":[37.679594,55.596107],"type":"Point"},"properties":{"osm_id":"6800096591","tag":{"amenity":"waste_basket"}},"type":"Feature"},
	{"geometry":{"coordinates":[37.679591,55.595735],"type":"Point"},"properties":{"osm_id":"6800096593","tag":{"amenity":"waste_basket"}},"type":"Feature"},
	{"geometry":{"coordinates":[37.679652,55.595571],"type":"Point"},"properties":{"osm_id":"6800096595","tag":{"amenity":"waste_basket"}},"type":"Feature"},
	{"geometry":{"coordinates":[37.679659,55.595901],"type":"Point"},"properties":{"osm_id":"6800096597","tag":{"amenity":"waste_basket"}},"type":"Feature"},
	{"geometry":{"coordinates":[37.679584,55.595307],"type":"Point"},"properties":{"osm_id":"6800096600","tag":{"amenity":"waste_basket"}},"type":"Feature"},
	{"geometry":{"coordinates":[37.67459,55.591743],"type":"Point"},"properties":{"osm_id":"6800096614","tag":{"amenity":"waste_basket"}},"type":"Feature"},
	{"geometry":{"coordinates":[37.683996,55.586246],"type":"Point"},"properties":{"osm_id":"6814322876","tag":{"amenity":"waste_basket"}},"type":"Feature"},
	{"geometry":{"coordinates":[37.674026,55.596545],"type":"Point"},"properties":{"osm_id":"6832940846","tag":{"amenity":"waste_basket"}},"type":"Feature"},
	{"geometry":{"coordinates":[37.678821,55.587858],"type":"Point"},"properties":{"osm_id":"6843869808","tag":{"amenity":"waste_basket"}},"type":"Feature"},
	{"geometry":{"coordinates":[37.678497,55.591156],"type":"Point"},"properties":{"osm_id":"6936473577","tag":{"amenity":"waste_basket"}},"type":"Feature"},
	{"geometry":{"coordinates":[37.677796,55.594763],"type":"Point"},"properties":{"osm_id":"6936623494","tag":{"amenity":"waste_basket"}},"type":"Feature"},
	{"geometry":{"coordinates":[37.677592,55.594954],"type":"Point"},"properties":{"osm_id":"6936623495","tag":{"amenity":"waste_basket"}},"type":"Feature"},
	{"geometry":{"coordinates":[37.677435,55.594655],"type":"Point"},"properties":{"osm_id":"6936623496","tag":{"amenity":"waste_basket"}},"type":"Feature"},
	{"geometry":{"coordinates":[37.677919,55.594499],"type":"Point"},"properties":{"osm_id":"6936636246","tag":{"amenity":"waste_basket"}},"type":"Feature"},
	{"geometry":{"coordinates":[37.677808,55.594448],"type":"Point"},"properties":{"osm_id":"6936636248","tag":{"amenity":"waste_basket"}},"type":"Feature"},
	{"geometry":{"coordinates":[37.677867,55.594374],"type":"Point"},"properties":{"osm_id":"6936636250","tag":{"amenity":"waste_basket"}},"type":"Feature"},
	{"geometry":{"coordinates":[37.67806,55.59429],"type":"Point"},"properties":{"osm_id":"6936636252","tag":{"amenity":"waste_basket"}},"type":"Feature"},
	{"geometry":{"coordinates":[37.678198,55.594272],"type":"Point"},"properties":{"osm_id":"6936636254","tag":{"amenity":"waste_basket"}},"type":"Feature"},
	{"geometry":{"coordinates":[37.677903,55.594268],"type":"Point"},"properties":{"osm_id":"6936636256","tag":{"amenity":"waste_basket"}},"type":"Feature"},
	{"geometry":{"coordinates":[37.677229,55.593859],"type":"Point"},"properties":{"osm_id":"6953477822","tag":{"amenity":"waste_basket"}},"type":"Feature"},
	{"geometry":{"coordinates":[37.66988,55.620917],"type":"Point"},"properties":{"osm_id":"6966080932","tag":{"amenity":"recycling","operator":"\u00d0\u0093\u00d0\u00a3\u00d0\u009f \u00d0\u00ad\u00d0\u00ba\u00d0\u00be\u00d1\u0082\u00d0\u00b5\u00d1\u0085\u00d0\u00bf\u00d1\u0080\u00d0\u00be\u00d0\u00bc","recycling:glass":"yes","recycling:plastic":"yes","recycling_type":"container"}},"type":"Feature"},
	{"geometry":{"coordinates":[37.694901,55.586327],"type":"Point"},"properties":{"osm_id":"7025803768","tag":{"amenity":"waste_basket"}},"type":"Feature"},
	{"geometry":{"coordinates":[37.693765,55.5867],"type":"Point"},"properties":{"osm_id":"7025803776","tag":{"amenity":"waste_basket","waste":"dog_excrement"}},"type":"Feature"},
	{"geometry":{"coordinates":[37.696289,55.586551],"type":"Point"},"properties":{"osm_id":"7026060796","tag":{"amenity":"waste_basket"}},"type":"Feature"},
	{"geometry":{"coordinates":[37.695559,55.586586],"type":"Point"},"properties":{"osm_id":"7026060804","tag":{"amenity":"waste_basket"}},"type":"Feature"},
	{"geometry":{"coordinates":[37.69509,55.586644],"type":"Point"},"properties":{"osm_id":"7033522602","tag":{"amenity":"waste_basket"}},"type":"Feature"},
	{"geometry":{"coordinates":[37.694223,55.586678],"type":"Point"},"properties":{"osm_id":"7033522603","tag":{"amenity":"waste_basket"}},"type":"Feature"},
	{"geometry":{"coordinates":[37.696074,55.586603],"type":"Point"},"properties":{"osm_id":"7033539838","tag":{"amenity":"waste_basket","waste":"dog_excrement"}},"type":"Feature"},
	{"geometry":{"coordinates":[37.672769,55.596155],"type":"Point"},"properties":{"osm_id":"7033539839","tag":{"amenity":"waste_basket","waste":"trash"}},"type":"Feature"},
	{"geometry":{"coordinates":[37.679213,55.585397],"type":"Point"},"properties":{"osm_id":"7072080885","tag":{"amenity":"waste_basket"}},"type":"Feature"},
	{"geometry":{"coordinates":[37.67956,55.587514],"type":"Point"},"properties":{"osm_id":"7082485320","tag":{"amenity":"waste_basket"}},"type":"Feature"},
	{"geometry":{"coordinates":[37.67922,55.596875],"type":"Point"},"properties":{"osm_id":"7162450053","tag":{"amenity":"waste_basket"}},"type":"Feature"},
	{"geometry":{"coordinates":[37.67916,55.596922],"type":"Point"},"properties":{"osm_id":"7162450055","tag":{"amenity":"waste_basket"}},"type":"Feature"},
	{"geometry":{"coordinates":[37.681715,55.593407],"type":"Point"},"properties":{"osm_id":"7265666856","tag":{"amenity":"waste_basket","material":"metal","start_date":"2019"}},"type":"Feature"},
	{"geometry":{"coordinates":[37.681843,55.593476],"type":"Point"},"properties":{"osm_id":"7265666859","tag":{"amenity":"waste_basket","material":"metal","start_date":"2019"}},"type":"Feature"},
	{"geometry":{"coordinates":[37.679614,55.593618],"type":"Point"},"properties":{"osm_id":"7328325474","tag":{"amenity":"waste_basket"}},"type":"Feature"},
	{"geometry":{"coordinates":[37.679624,55.593871],"type":"Point"},"properties":{"osm_id":"7328325475","tag":{"amenity":"waste_basket"}},"type":"Feature"},
	{"geometry":{"coordinates":[37.679649,55.594231],"type":"Point"},"properties":{"osm_id":"7328325479","tag":{"amenity":"waste_basket"}},"type":"Feature"},
	{"geometry":{"coordinates":[37.674672,55.592449],"type":"Point"},"properties":{"osm_id":"7346238280","tag":{"amenity":"waste_basket"}},"type":"Feature"},
	{"geometry":{"coordinates":[37.674369,55.592557],"type":"Point"},"properties":{"osm_id":"7346238284","tag":{"amenity":"waste_basket"}},"type":"Feature"},
	{"geometry":{"coordinates":[37.704797,55.622842],"type":"Point"},"properties":{"osm_id":"7597153428","tag":{"amenity":"waste_disposal"}},"type":"Feature"},
	{"geometry":{"coordinates":[37.679966,55.596685],"type":"Point"},"properties":{"osm_id":"7840727682","tag":{"amenity":"waste_basket"}},"type":"Feature"},
	{"geometry":{"coordinates":[37.679815,55.596727],"type":"Point"},"properties":{"osm_id":"7840727683","tag":{"amenity":"waste_basket"}},"type":"Feature"},
	{"geometry":{"coordinates":[37.682516,55.593377],"type":"Point"},"properties":{"osm_id":"7943154848","tag":{"amenity":"waste_basket","material":"metal","start_date":"2019"}},"type":"Feature"},
	{"geometry":{"coordinates":[37.681946,55.593209],"type":"Point"},"properties":{"osm_id":"7943154855","tag":{"amenity":"waste_basket","material":"metal","start_date":"2019"}},"type":"Feature"}
]
}
