{
"type": "FeatureCollection",
"features": [
	{"geometry":{"coordinates":[37.677569,55.577516],"type":"Point"},"properties":{"osm_id":"1234630533","tag":{"amenity":"waste_disposal"}},"type":"Feature"},
	{"geometry":{"coordinates":[37.693476,55.555076],"type":"Point"},"properties":{"osm_id":"1451020741","tag":{"amenity":"recycling"}},"type":"Feature"},
	{"geometry":{"coordinates":[37.666044,55.576046],"type":"Point"},"properties":{"osm_id":"1780168502","tag":{"amenity":"waste_disposal"}},"type":"Feature"},
	{"geometry":{"coordinates":[37.617809,55.572553],"type":"Point"},"properties":{"osm_id":"3812306284","tag":{"amenity":"waste_disposal","waste":"trash"}},"type":"Feature"},
	{"geometry":{"coordinates":[37.618138,55.571635],"type":"Point"},"properties":{"osm_id":"3966742132","tag":{"addr:city":"\u00d0\u0091\u00d0\u00b8\u00d1\u0082\u00d1\u0086\u00d0\u00b0","addr:street":"\u00d0\u009d\u00d0\u00b0\u00d0\u00b3\u00d0\u00be\u00d1\u0080\u00d0\u00bd\u00d0\u00b0\u00d1\u008f \u00d1\u0083\u00d0\u00bb\u00d0\u00b8\u00d1\u0086\u00d0\u00b0","amenity":"recycling","description":"\u00d0\u009f\u00d1\u0080\u00d0\u00b8\u00d1\u0091\u00d0\u00bc \u00d0\u00bf\u00d0\u00be\u00d0\u00b4\u00d0\u00b4\u00d0\u00be\u00d0\u00bd\u00d0\u00be\u00d0\u00b2 (\u00d0\u00b5\u00d0\u00b2\u00d1\u0080\u00d0\u00be\u00d0\u00bf\u00d0\u00b0\u00d0\u00bb\u00d0\u00bb\u00d0\u00b5\u00d1\u0082)","green_waste":"yes","recycling:green_waste":"yes","recycling_type":"centre"}},"type":"Feature"},
	{"geometry":{"coordinates":[37.618453,55.571431],"type":"Point"},"properties":{"osm_id":"3993939873","tag":{"amenity":"recycling","description":"\u00d0\u009f\u00d1\u0080\u00d0\u00b8\u00d0\u00b5\u00d0\u00bc \u00d0\u00bc\u00d0\u00b0\u00d0\u00ba\u00d1\u0083\u00d0\u00bb\u00d0\u00b0\u00d1\u0082\u00d1\u0083\u00d1\u0080\u00d1\u008b, \u00d0\u00bf\u00d0\u00bb\u00d0\u00b0\u00d1\u0081\u00d1\u0082\u00d0\u00b8\u00d0\u00ba\u00d0\u00b0","recycling:magazines":"yes","recycling:newspaper":"yes","recycling:paper":"yes","recycling:plastic":"yes","recycling_type":"centre"}},"type":"Feature"},
	{"geometry":{"coordinates":[37.621895,55.573289],"type":"Point"},"properties":{"osm_id":"3993971157","tag":{"amenity":"waste_disposal"}},"type":"Feature"},
	{"geometry":{"coordinates":[37.618581,55.571789],"type":"Point"},"properties":{"osm_id":"4080892064","tag":{"amenity":"waste_disposal"}},"type":"Feature"},
	{"geometry":{"coordinates":[37.618527,55.571353],"type":"Point"},"properties":{"osm_id":"4398831375","tag":{"addr:city":"\u00d0\u0091\u00d0\u00b8\u00d1\u0082\u00d1\u0086\u00d0\u00b0","addr:street":"\u00d0\u009d\u00d0\u00b0\u00d0\u00b3\u00d0\u00be\u00d1\u0080\u00d0\u00bd\u00d0\u00b0\u00d1\u008f \u00d1\u0083\u00d0\u00bb\u00d0\u00b8\u00d1\u0086\u00d0\u00b0","amenity":"recycling","description":"\u00d0\u009f\u00d1\u0080\u00d0\u00b8\u00d1\u0091\u00d0\u00bc \u00d0\u00bf\u00d0\u00be\u00d0\u00b4\u00d0\u00b4\u00d0\u00be\u00d0\u00bd\u00d0\u00be\u00d0\u00b2 (\u00d0\u00b5\u00d0\u00b2\u00d1\u0080\u00d0\u00be\u00d0\u00bf\u00d0\u00b0\u00d0\u00bb\u00d0\u00bb\u00d0\u00b5\u00d1\u0082)","recycling:green_waste":"yes"}},"type":"Feature"},
	{"geometry":{"coordinates":[37.651368,55.577979],"type":"Point"},"properties":{"osm_id":"4693377393","tag":{"amenity":"waste_basket"}},"type":"Feature"},
	{"geometry":{"coordinates":[37.65166,55.578015],"type":"Point"},"properties":{"osm_id":"4693377396","tag":{"amenity":"waste_basket"}},"type":"Feature"},
	{"geometry":{"coordinates":[37.651852,55.577491],"type":"Point"},"properties":{"osm_id":"4693377491","tag":{"amenity":"waste_disposal"}},"type":"Feature"},
	{"geometry":{"coordinates":[37.650648,55.578018],"type":"Point"},"properties":{"osm_id":"4693377594","tag":{"amenity":"waste_disposal"}},"type":"Feature"},
	{"geometry":{"coordinates":[37.651139,55.577435],"type":"Point"},"properties":{"osm_id":"4693381195","tag":{"amenity":"waste_basket"}},"type":"Feature"},
	{"geometry":{"coordinates":[37.648211,55.578124],"type":"Point"},"properties":{"osm_id":"4693387592","tag":{"amenity":"waste_disposal"}},"type":"Feature"},
	{"geometry":{"coordinates":[37.648336,55.578284],"type":"Point"},"properties":{"osm_id":"4693388195","tag":{"amenity":"waste_basket"}},"type":"Feature"},
	{"geometry":{"coordinates":[37.635832,55.534459],"type":"Point"},"properties":{"osm_id":"5162792997","tag":{"amenity":"waste_basket"}},"type":"Feature"},
	{"geometry":{"coordinates":[37.635816,55.534468],"type":"Point"},"properties":{"osm_id":"5162792998","tag":{"amenity":"waste_basket"}},"type":"Feature"},
	{"geometry":{"coordinates":[37.635761,55.534475],"type":"Point"},"properties":{"osm_id":"5162792999","tag":{"amenity":"waste_basket"}},"type":"Feature"},
	{"geometry":{"coordinates":[37.636261,55.534317],"type":"Point"},"properties":{"osm_id":"5162793000","tag":{"amenity":"waste_basket"}},"type":"Feature"},
	{"geometry":{"coordinates":[37.636206,55.534321],"type":"Point"},"properties":{"osm_id":"5162793001","tag":{"amenity":"waste_basket"}},"type":"Feature"},
	{"geometry":{"coordinates":[37.636189,55.534331],"type":"Point"},"properties":{"osm_id":"5162793002","tag":{"amenity":"waste_basket"}},"type":"Feature"},
	{"geometry":{"coordinates":[37.636816,55.534218],"type":"Point"},"properties":{"osm_id":"5162793003","tag":{"amenity":"waste_basket"}},"type":"Feature"},
	{"geometry":{"coordinates":[37.636854,55.534196],"type":"Point"},"properties":{"osm_id":"5162793004","tag":{"amenity":"waste_basket"}},"type":"Feature"},
	{"geometry":{"coordinates":[37.636903,55.534192],"type":"Point"},"properties":{"osm_id":"5162793005","tag":{"amenity":"waste_basket"}},"type":"Feature"},
	{"geometry":{"coordinates":[37.636949,55.534205],"type":"Point"},"properties":{"osm_id":"5162793006","tag":{"amenity":"waste_basket"}},"type":"Feature"},
	{"geometry":{"coordinates":[37.636974,55.534243],"type":"Point"},"properties":{"osm_id":"5162793007","tag":{"amenity":"waste_basket"}},"type":"Feature"},
	{"geometry":{"coordinates":[37.636966,55.534257],"type":"Point"},"properties":{"osm_id":"5162793008","tag":{"amenity":"waste_basket"}},"type":"Feature"},
	{"geometry":{"coordinates":[37.636868,55.534283],"type":"Point"},"properties":{"osm_id":"5162793009","tag":{"amenity":"waste_basket"}},"type":"Feature"},
	{"geometry":{"coordinates":[37.636843,55.534277],"type":"Point"},"properties":{"osm_id":"5162793010","tag":{"amenity":"waste_basket"}},"type":"Feature"},
	{"geometry":{"coordinates":[37.698268,55.556384],"type":"Point"},"properties":{"osm_id":"5690883521","tag":{"amenity":"waste_disposal"}},"type":"Feature"},
	{"geometry":{"coordinates":[37.694068,55.550864],"type":"Point"},"properties":{"osm_id":"5923998629","tag":{"amenity":"waste_disposal"}},"type":"Feature"},
	{"geometry":{"coordinates":[37.664125,55.575963],"type":"Point"},"properties":{"osm_id":"7302357487","tag":{"amenity":"waste_disposal"}},"type":"Feature"},
	{"geometry":{"coordinates":[37.663454,55.577199],"type":"Point"},"properties":{"osm_id":"7302365785","tag":{"amenity":"waste_disposal"}},"type":"Feature"}
]
}
