{
"type": "FeatureCollection",
"features": [
	{"geometry":{"coordinates":[37.636114,54.218855],"type":"Point"},"properties":{"osm_id":"4760974643","tag":{"amenity":"recycling"}},"type":"Feature"},
	{"geometry":{"coordinates":[37.690139,54.21391],"type":"Point"},"properties":{"osm_id":"5211344934","tag":{"amenity":"waste_basket"}},"type":"Feature"},
	{"geometry":{"coordinates":[37.689503,54.214331],"type":"Point"},"properties":{"osm_id":"5211344936","tag":{"amenity":"waste_basket"}},"type":"Feature"},
	{"geometry":{"coordinates":[37.648673,54.219029],"type":"Point"},"properties":{"osm_id":"5679402136","tag":{"addr:city":"\u00d0\u00a2\u00d1\u0083\u00d0\u00bb\u00d0\u00b0","addr:housenumber":"14","addr:street":"\u00d0\u0092\u00d0\u00b5\u00d0\u00bd\u00d1\u0091\u00d0\u00b2\u00d1\u0081\u00d0\u00ba\u00d0\u00be\u00d0\u00b5 \u00d1\u0088\u00d0\u00be\u00d1\u0081\u00d1\u0081\u00d0\u00b5","amenity":"recycling","description":"\u00d0\u009f\u00d1\u0080\u00d0\u00b8\u00d0\u00b5\u00d0\u00bc \u00d0\u00bb\u00d0\u00be\u00d0\u00bc\u00d0\u00b0 \u00d0\u00b8 \u00d0\u00b0\u00d0\u00ba\u00d0\u00ba\u00d1\u0083\u00d0\u00bc\u00d1\u0083\u00d0\u00bb\u00d1\u008f\u00d1\u0082\u00d0\u00be\u00d1\u0080\u00d0\u00be\u00d0\u00b2","recycling:car_batteries":"yes","recycling:scrap_metal":"yes","recycling_type":"centre"}},"type":"Feature"}
]
}
