{
"type": "FeatureCollection",
"features": [
	{"geometry":{"coordinates":[-3.022303,53.339756],"type":"Point"},"properties":{"osm_id":"84526244","tag":{"amenity":"recycling"}},"type":"Feature"},
	{"geometry":{"coordinates":[-3.024037,53.354541],"type":"Point"},"properties":{"osm_id":"550688373","tag":{"amenity":"recycling"}},"type":"Feature"},
	{"geometry":{"coordinates":[-3.000169,53.349656],"type":"Point"},"properties":{"name":"Bebington Junk","osm_id":"5543373225","tag":{"amenity":"recycling"}},"type":"Feature"},
	{"geometry":{"coordinates":[-3.019713,53.362652],"type":"Point"},"properties":{"osm_id":"7289643853","tag":{"amenity":"waste_basket"}},"type":"Feature"},
	{"geometry":{"coordinates":[-3.018139,53.357967],"type":"Point"},"properties":{"osm_id":"7317162361","tag":{"amenity":"waste_basket"}},"type":"Feature"},
	{"geometry":{"coordinates":[-3.021964,53.356459],"type":"Point"},"properties":{"osm_id":"7317162370","tag":{"amenity":"waste_basket"}},"type":"Feature"},
	{"geometry":{"coordinates":[-3.026856,53.349417],"type":"Point"},"properties":{"osm_id":"7317240162","tag":{"amenity":"waste_basket"}},"type":"Feature"},
	{"geometry":{"coordinates":[-3.028677,53.348876],"type":"Point"},"properties":{"osm_id":"7317267757","tag":{"amenity":"waste_basket"}},"type":"Feature"},
	{"geometry":{"coordinates":[-3.028969,53.348362],"type":"Point"},"properties":{"osm_id":"7317267758","tag":{"amenity":"waste_basket"}},"type":"Feature"},
	{"geometry":{"coordinates":[-3.028514,53.348374],"type":"Point"},"properties":{"osm_id":"7317267759","tag":{"amenity":"waste_basket"}},"type":"Feature"},
	{"geometry":{"coordinates":[-3.027822,53.348767],"type":"Point"},"properties":{"osm_id":"7317267761","tag":{"amenity":"waste_basket"}},"type":"Feature"},
	{"geometry":{"coordinates":[-3.027679,53.34858],"type":"Point"},"properties":{"osm_id":"7317267762","tag":{"amenity":"waste_basket"}},"type":"Feature"},
	{"geometry":{"coordinates":[-3.027111,53.349051],"type":"Point"},"properties":{"osm_id":"7317267763","tag":{"amenity":"waste_basket"}},"type":"Feature"},
	{"geometry":{"coordinates":[-3.026757,53.349051],"type":"Point"},"properties":{"osm_id":"7317267764","tag":{"amenity":"waste_basket"}},"type":"Feature"},
	{"geometry":{"coordinates":[-3.024551,53.355699],"type":"Point"},"properties":{"osm_id":"7376477319","tag":{"amenity":"waste_basket"}},"type":"Feature"},
	{"geometry":{"coordinates":[-3.032283,53.363956],"type":"Point"},"properties":{"osm_id":"7926237344","tag":{"amenity":"waste_basket"}},"type":"Feature"},
	{"geometry":{"coordinates":[-3.031494,53.358233],"type":"Point"},"properties":{"osm_id":"7948788709","tag":{"amenity":"waste_basket"}},"type":"Feature"},
	{"geometry":{"coordinates":[-3.032714,53.359637],"type":"Point"},"properties":{"osm_id":"7948788711","tag":{"amenity":"waste_basket"}},"type":"Feature"},
	{"geometry":{"coordinates":[-3.033124,53.359238],"type":"Point"},"properties":{"osm_id":"7948788712","tag":{"amenity":"waste_basket"}},"type":"Feature"}
]
}
