{
"type": "FeatureCollection",
"features": [
	{"geometry":{"coordinates":[-3.066641,50.70694],"type":"Point"},"properties":{"osm_id":"355314737","tag":{"amenity":"recycling"}},"type":"Feature"},
	{"geometry":{"coordinates":[-3.065932,50.70624],"type":"Point"},"properties":{"name":"Tesco Seaton Recyling","osm_id":"1648548162","tag":{"amenity":"recycling","recycling:cans":"yes","recycling:cardboard":"yes","recycling:cartons":"yes","recycling:glass":"yes","recycling:glass_bottles":"yes","recycling:magazines":"yes","recycling:newspaper":"yes","recycling:paper":"yes","recycling_type":"container"}},"type":"Feature"},
	{"geometry":{"coordinates":[-3.069182,50.703457],"type":"Point"},"properties":{"osm_id":"4915450186","tag":{"amenity":"waste_basket","waste":"trash"}},"type":"Feature"},
	{"geometry":{"coordinates":[-3.063669,50.703457],"type":"Point"},"properties":{"osm_id":"4915450196","tag":{"amenity":"recycling","opening_hours":"24/7","operator":"East Devon District Council","recycling:cans":"yes","recycling:glass":"no","recycling:paper":"yes","recycling:plastic":"no","recycling_type":"container"}},"type":"Feature"},
	{"geometry":{"coordinates":[-3.063681,50.703457],"type":"Point"},"properties":{"osm_id":"4915450197","tag":{"amenity":"waste_basket","waste":"trash"}},"type":"Feature"},
	{"geometry":{"coordinates":[-3.061279,50.703449],"type":"Point"},"properties":{"osm_id":"4915450220","tag":{"amenity":"waste_basket","waste":"dog_excrement"}},"type":"Feature"},
	{"geometry":{"coordinates":[-3.061339,50.703453],"type":"Point"},"properties":{"osm_id":"4915450321","tag":{"amenity":"waste_basket","waste":"trash"}},"type":"Feature"},
	{"geometry":{"coordinates":[-3.066977,50.703521],"type":"Point"},"properties":{"osm_id":"4915450357","tag":{"amenity":"recycling","opening_hours":"24/7","operator":"East Devon District Council","recycling:cans":"yes","recycling:glass":"no","recycling:paper":"yes","recycling:plastic":"no","recycling_type":"container"}},"type":"Feature"},
	{"geometry":{"coordinates":[-3.066987,50.703521],"type":"Point"},"properties":{"osm_id":"4915450358","tag":{"amenity":"waste_basket","waste":"trash"}},"type":"Feature"},
	{"geometry":{"coordinates":[-3.067413,50.71772],"type":"Point"},"properties":{"osm_id":"5434892520","tag":{"amenity":"waste_basket","waste":"dog_excrement"}},"type":"Feature"},
	{"geometry":{"coordinates":[-3.067735,50.717491],"type":"Point"},"properties":{"osm_id":"5434892721","tag":{"amenity":"waste_basket","waste":"dog_excrement"}},"type":"Feature"},
	{"geometry":{"coordinates":[-3.067497,50.717567],"type":"Point"},"properties":{"osm_id":"5434892722","tag":{"amenity":"waste_basket"}},"type":"Feature"}
]
}
