{
"type": "FeatureCollection",
"features": [
	{"geometry":{"coordinates":[-3.004512,47.903719],"type":"Point"},"properties":{"osm_id":"4371358875","tag":{"amenity":"recycling","recycling:magazines":"yes","recycling_type":"container"}},"type":"Feature"},
	{"geometry":{"coordinates":[-3.016582,47.882947],"type":"Point"},"properties":{"osm_id":"5825435194","tag":{"amenity":"recycling","location":"underground","recycling:waste":"yes"}},"type":"Feature"},
	{"geometry":{"coordinates":[-3.016736,47.882969],"type":"Point"},"properties":{"osm_id":"5825439267","tag":{"amenity":"recycling","recycling:glass_bottles":"yes"}},"type":"Feature"},
	{"geometry":{"coordinates":[-3.01135,47.896158],"type":"Point"},"properties":{"osm_id":"6484095740","tag":{"amenity":"waste_basket"}},"type":"Feature"},
	{"geometry":{"coordinates":[-3.015812,47.892069],"type":"Point"},"properties":{"osm_id":"6484470732","tag":{"amenity":"recycling","recycling:glass_bottles":"yes","recycling:paper":"yes","recycling_type":"container"}},"type":"Feature"},
	{"geometry":{"coordinates":[-2.99432,47.919102],"type":"Point"},"properties":{"osm_id":"7104763481","tag":{"amenity":"recycling","location":"underground","operator":"CCM","recycling:cans":"yes","recycling:glass_bottles":"yes","recycling:magazines":"yes","recycling:newspaper":"yes","recycling:paper":"yes","recycling:plastic_bottles":"yes","recycling:waste":"yes","recycling_type":"container"}},"type":"Feature"},
	{"geometry":{"coordinates":[-2.995395,47.902005],"type":"Point"},"properties":{"osm_id":"7523275623","tag":{"amenity":"recycling","operator":"CCM","recycling:beverage_carton":"yes","recycling:paper_packaging":"yes","recycling:plastic_bags":"yes","recycling_type":"container"}},"type":"Feature"},
	{"geometry":{"coordinates":[-2.99538,47.902059],"type":"Point"},"properties":{"osm_id":"7523275624","tag":{"amenity":"recycling","location":"underground","operator":"CCM","recycling:waste":"yes","recycling_type":"container"}},"type":"Feature"}
]
}
