{
"type": "FeatureCollection",
"features": [
	{"geometry":{"coordinates":[-2.999579,43.345572],"type":"Point"},"properties":{"osm_id":"519548821","tag":{"amenity":"recycling"}},"type":"Feature"},
	{"geometry":{"coordinates":[-3.007987,43.327745],"type":"Point"},"properties":{"osm_id":"1166948241","tag":{"amenity":"recycling","recycling:clothes":"yes"}},"type":"Feature"},
	{"geometry":{"coordinates":[-3.008113,43.327864],"type":"Point"},"properties":{"osm_id":"1166948244","tag":{"amenity":"recycling","recycling:batteries":"yes"}},"type":"Feature"},
	{"geometry":{"coordinates":[-2.990341,43.378651],"type":"Point"},"properties":{"osm_id":"2972746827","tag":{"amenity":"waste_basket"}},"type":"Feature"},
	{"geometry":{"coordinates":[-2.990684,43.378708],"type":"Point"},"properties":{"osm_id":"2972746828","tag":{"amenity":"waste_basket"}},"type":"Feature"},
	{"geometry":{"coordinates":[-2.993267,43.379972],"type":"Point"},"properties":{"osm_id":"2972746832","tag":{"amenity":"waste_basket"}},"type":"Feature"},
	{"geometry":{"coordinates":[-2.989205,43.383268],"type":"Point"},"properties":{"osm_id":"2972751035","tag":{"amenity":"waste_basket"}},"type":"Feature"},
	{"geometry":{"coordinates":[-2.988684,43.383519],"type":"Point"},"properties":{"osm_id":"2972751036","tag":{"amenity":"waste_basket"}},"type":"Feature"},
	{"geometry":{"coordinates":[-3.007088,43.331227],"type":"Point"},"properties":{"osm_id":"2993747415","tag":{"amenity":"recycling","recycling:cans":"yes","recycling:plastic":"yes","recycling:plastic_bottles":"yes","recycling_type":"container"}},"type":"Feature"},
	{"geometry":{"coordinates":[-3.007064,43.331213],"type":"Point"},"properties":{"osm_id":"2993747416","tag":{"amenity":"waste_disposal","waste":"trash"}},"type":"Feature"},
	{"geometry":{"coordinates":[-3.006069,43.330451],"type":"Point"},"properties":{"osm_id":"2993753380","tag":{"amenity":"recycling","recycling:glass_bottles":"yes","recycling_type":"container"}},"type":"Feature"},
	{"geometry":{"coordinates":[-3.006049,43.330436],"type":"Point"},"properties":{"osm_id":"2993753381","tag":{"amenity":"waste_disposal","waste":"trash"}},"type":"Feature"},
	{"geometry":{"coordinates":[-2.992138,43.374251],"type":"Point"},"properties":{"osm_id":"3197071043","tag":{"amenity":"recycling","recycling:glass_bottles":"yes","recycling:paper":"yes","recycling:plastic_packaging":"yes","recycling:waste":"yes"}},"type":"Feature"},
	{"geometry":{"coordinates":[-2.993099,43.374667],"type":"Point"},"properties":{"osm_id":"3197071044","tag":{"amenity":"recycling","recycling:glass_bottles":"yes","recycling:organic":"yes","recycling:paper":"yes","recycling:plastic_packaging":"yes","recycling:waste":"yes"}},"type":"Feature"},
	{"geometry":{"coordinates":[-2.991385,43.375429],"type":"Point"},"properties":{"osm_id":"3197071045","tag":{"amenity":"recycling","recycling:glass_bottles":"yes","recycling:plastic_packaging":"yes","recycling:waste":"yes"}},"type":"Feature"},
	{"geometry":{"coordinates":[-2.988295,43.376089],"type":"Point"},"properties":{"osm_id":"3197071047","tag":{"amenity":"recycling","recycling:glass_bottles":"yes","recycling:paper":"yes","recycling:plastic_packaging":"yes","recycling:waste":"yes"}},"type":"Feature"},
	{"geometry":{"coordinates":[-2.989842,43.376589],"type":"Point"},"properties":{"osm_id":"3197071048","tag":{"amenity":"recycling","recycling:glass_bottles":"yes","recycling:organic":"yes","recycling:paper":"yes","recycling:plastic_packaging":"yes","recycling:waste":"yes"}},"type":"Feature"},
	{"geometry":{"coordinates":[-2.991137,43.376619],"type":"Point"},"properties":{"osm_id":"3197071049","tag":{"amenity":"recycling","recycling:glass_bottles":"yes","recycling:organic":"yes","recycling:paper":"yes","recycling:plastic_packaging":"yes","recycling:waste":"yes"}},"type":"Feature"},
	{"geometry":{"coordinates":[-2.988832,43.376852],"type":"Point"},"properties":{"osm_id":"3197071050","tag":{"amenity":"recycling","recycling:glass_bottles":"yes","recycling:paper":"yes","recycling:waste":"yes"}},"type":"Feature"},
	{"geometry":{"coordinates":[-2.988704,43.377204],"type":"Point"},"properties":{"osm_id":"3197071051","tag":{"amenity":"recycling","recycling:waste":"yes"}},"type":"Feature"},
	{"geometry":{"coordinates":[-2.989112,43.377215],"type":"Point"},"properties":{"osm_id":"3197071052","tag":{"amenity":"recycling","recycling:plastic_packaging":"yes","recycling:waste":"yes"}},"type":"Feature"},
	{"geometry":{"coordinates":[-2.990678,43.377931],"type":"Point"},"properties":{"osm_id":"3197071056","tag":{"amenity":"recycling","recycling:cooking_oil":"yes","recycling:glass_bottles":"yes","recycling:organic":"yes","recycling:plastic_packaging":"yes","recycling:waste":"yes"}},"type":"Feature"},
	{"geometry":{"coordinates":[-2.988802,43.378017],"type":"Point"},"properties":{"osm_id":"3197071058","tag":{"amenity":"recycling","recycling:waste":"yes"}},"type":"Feature"},
	{"geometry":{"coordinates":[-2.99043,43.37878],"type":"Point"},"properties":{"osm_id":"3197072062","tag":{"amenity":"recycling","recycling:glass_bottles":"yes","recycling:organic":"yes","recycling:paper":"yes","recycling:plastic_packaging":"yes","recycling:waste":"yes"}},"type":"Feature"},
	{"geometry":{"coordinates":[-2.990544,43.378876],"type":"Point"},"properties":{"osm_id":"3197072065","tag":{"amenity":"recycling","recycling:waste":"yes"}},"type":"Feature"},
	{"geometry":{"coordinates":[-2.989796,43.3799],"type":"Point"},"properties":{"osm_id":"3197072076","tag":{"amenity":"recycling","recycling:plastic_packaging":"yes","recycling:waste":"yes"}},"type":"Feature"},
	{"geometry":{"coordinates":[-2.988861,43.381523],"type":"Point"},"properties":{"osm_id":"3197072093","tag":{"amenity":"recycling","recycling:waste":"yes"}},"type":"Feature"},
	{"geometry":{"coordinates":[-2.988558,43.37849],"type":"Point"},"properties":{"osm_id":"3197132190","tag":{"amenity":"recycling","recycling:waste":"yes"}},"type":"Feature"},
	{"geometry":{"coordinates":[-2.990032,43.378594],"type":"Point"},"properties":{"osm_id":"3197132191","tag":{"amenity":"recycling","recycling:waste":"yes"}},"type":"Feature"},
	{"geometry":{"coordinates":[-2.995626,43.380775],"type":"Point"},"properties":{"osm_id":"3197132192","tag":{"amenity":"recycling","recycling:waste":"yes"}},"type":"Feature"},
	{"geometry":{"coordinates":[-2.996562,43.381183],"type":"Point"},"properties":{"osm_id":"3197132193","tag":{"amenity":"recycling","recycling:glass_bottles":"yes"}},"type":"Feature"},
	{"geometry":{"coordinates":[-2.997528,43.381945],"type":"Point"},"properties":{"osm_id":"3197132194","tag":{"amenity":"recycling","recycling:glass_bottles":"yes","recycling:paper":"yes","recycling:plastic_packaging":"yes","recycling:waste":"yes"}},"type":"Feature"},
	{"geometry":{"coordinates":[-2.999887,43.382813],"type":"Point"},"properties":{"osm_id":"3197132195","tag":{"amenity":"recycling","recycling:glass_bottles":"yes","recycling:paper":"yes","recycling:plastic_packaging":"yes","recycling:waste":"yes"}},"type":"Feature"},
	{"geometry":{"coordinates":[-2.999379,43.382957],"type":"Point"},"properties":{"osm_id":"3197132196","tag":{"amenity":"recycling","recycling:organic":"yes","recycling:plastic_packaging":"yes","recycling:waste":"yes"}},"type":"Feature"},
	{"geometry":{"coordinates":[-2.998575,43.383308],"type":"Point"},"properties":{"osm_id":"3197132198","tag":{"amenity":"recycling","recycling:waste":"yes"}},"type":"Feature"},
	{"geometry":{"coordinates":[-3.007697,43.328362],"type":"Point"},"properties":{"osm_id":"3578075700","tag":{"amenity":"waste_disposal","waste":"trash"}},"type":"Feature"},
	{"geometry":{"coordinates":[-3.007719,43.328379],"type":"Point"},"properties":{"osm_id":"3578075701","tag":{"amenity":"waste_disposal","waste":"trash"}},"type":"Feature"},
	{"geometry":{"coordinates":[-3.007685,43.329647],"type":"Point"},"properties":{"osm_id":"3578097025","tag":{"amenity":"recycling","recycling:cans":"no","recycling:clothes":"no","recycling:glass_bottles":"yes","recycling:paper":"no","recycling_type":"container"}},"type":"Feature"},
	{"geometry":{"coordinates":[-3.007682,43.329636],"type":"Point"},"properties":{"osm_id":"3578097026","tag":{"amenity":"recycling","location":"overground","recycling:cans":"yes","recycling:clothes":"no","recycling:glass":"no","recycling:paper":"no","recycling_type":"container"}},"type":"Feature"},
	{"geometry":{"coordinates":[-3.007681,43.329627],"type":"Point"},"properties":{"osm_id":"3578097027","tag":{"amenity":"recycling","location":"overground","recycling:cans":"no","recycling:clothes":"no","recycling:glass":"no","recycling:paper":"yes","recycling_type":"container"}},"type":"Feature"},
	{"geometry":{"coordinates":[-3.007679,43.329616],"type":"Point"},"properties":{"osm_id":"3578097028","tag":{"amenity":"waste_disposal","waste":"trash"}},"type":"Feature"},
	{"geometry":{"coordinates":[-3.008121,43.347034],"type":"Point"},"properties":{"osm_id":"4431368332","tag":{"amenity":"recycling","recycling:glass_bottles":"yes","recycling:organic":"yes","recycling:paper":"yes","recycling_type":"container"}},"type":"Feature"},
	{"geometry":{"coordinates":[-3.008169,43.347048],"type":"Point"},"properties":{"osm_id":"4431368333","tag":{"amenity":"waste_disposal","waste":"trash"}},"type":"Feature"},
	{"geometry":{"coordinates":[-3.007705,43.347807],"type":"Point"},"properties":{"osm_id":"4446728807","tag":{"amenity":"recycling","location":"overground","recycling:cans":"yes","recycling:plastic":"yes","recycling:plastic_bags":"yes","recycling:plastic_bottles":"yes","recycling_type":"container"}},"type":"Feature"},
	{"geometry":{"coordinates":[-3.007738,43.347819],"type":"Point"},"properties":{"osm_id":"4446728808","tag":{"amenity":"waste_disposal","waste":"trash"}},"type":"Feature"},
	{"geometry":{"coordinates":[-3.008204,43.348208],"type":"Point"},"properties":{"osm_id":"4446728809","tag":{"amenity":"waste_disposal","waste":"trash"}},"type":"Feature"},
	{"geometry":{"coordinates":[-3.059232,43.333428],"type":"Point"},"properties":{"osm_id":"4976790259","tag":{"amenity":"waste_disposal"}},"type":"Feature"},
	{"geometry":{"coordinates":[-3.044833,43.329435],"type":"Point"},"properties":{"osm_id":"4976803311","tag":{"amenity":"waste_disposal"}},"type":"Feature"},
	{"geometry":{"coordinates":[-3.007765,43.346095],"type":"Point"},"properties":{"osm_id":"5261014603","tag":{"addr:place":"Martikoena, 14","addr:postcode":"48992","amenity":"waste_disposal"}},"type":"Feature"},
	{"geometry":{"coordinates":[-3.007913,43.345677],"type":"Point"},"properties":{"osm_id":"5261014604","tag":{"amenity":"waste_disposal"}},"type":"Feature"},
	{"geometry":{"coordinates":[-3.009076,43.347427],"type":"Point"},"properties":{"osm_id":"5261043422","tag":{"amenity":"waste_disposal"}},"type":"Feature"},
	{"geometry":{"coordinates":[-2.996312,43.387432],"type":"Point"},"properties":{"osm_id":"5653316622","tag":{"amenity":"waste_basket"}},"type":"Feature"},
	{"geometry":{"coordinates":[-2.999981,43.384838],"type":"Point"},"properties":{"osm_id":"5653316923","tag":{"amenity":"waste_basket"}},"type":"Feature"},
	{"geometry":{"coordinates":[-2.997417,43.386842],"type":"Point"},"properties":{"osm_id":"5653317521","tag":{"amenity":"waste_basket"}},"type":"Feature"},
	{"geometry":{"coordinates":[-2.996887,43.387127],"type":"Point"},"properties":{"osm_id":"5653317921","tag":{"amenity":"waste_basket"}},"type":"Feature"},
	{"geometry":{"coordinates":[-2.989896,43.342931],"type":"Point"},"properties":{"name":"Garbigune Leioa","osm_id":"5921112688","tag":{"amenity":"recycling","recycling_type":"centre"}},"type":"Feature"},
	{"geometry":{"coordinates":[-2.992025,43.379342],"type":"Point"},"properties":{"osm_id":"6515678564","tag":{"amenity":"waste_basket"}},"type":"Feature"},
	{"geometry":{"coordinates":[-2.98844,43.37343],"type":"Point"},"properties":{"osm_id":"7344250289","tag":{"amenity":"recycling","recycling_type":"container"}},"type":"Feature"},
	{"geometry":{"coordinates":[-2.99062,43.376451],"type":"Point"},"properties":{"osm_id":"7392961668","tag":{"amenity":"recycling","recycling_type":"container"}},"type":"Feature"}
]
}
