{
"type": "FeatureCollection",
"lastupdate": "2020-08-06T00:00:00Z",
"features": [
	{"geometry":{"coordinates":[-2.996032,37.919108],"type":"Point"},"properties":{"osm_id":"2769255565","tag":{"amenity":"waste_basket"}},"type":"Feature"},
	{"geometry":{"coordinates":[-2.995153,37.919644],"type":"Point"},"properties":{"osm_id":"2769255567","tag":{"amenity":"waste_basket"}},"type":"Feature"},
	{"geometry":{"coordinates":[-2.994491,37.920172],"type":"Point"},"properties":{"osm_id":"2769346765","tag":{"amenity":"waste_basket"}},"type":"Feature"},
	{"geometry":{"coordinates":[-2.994278,37.920242],"type":"Point"},"properties":{"osm_id":"2769346784","tag":{"amenity":"waste_basket"}},"type":"Feature"},
	{"geometry":{"coordinates":[-2.999691,37.911462],"type":"Point"},"properties":{"osm_id":"2769997005","tag":{"amenity":"recycling","recycling:organic":"yes"}},"type":"Feature"},
	{"geometry":{"coordinates":[-2.994296,37.920648],"type":"Point"},"properties":{"osm_id":"2770051250","tag":{"amenity":"recycling","recycling:cans":"yes","recycling:glass":"yes","recycling:paper":"yes","recycling_type":"aceite"}},"type":"Feature"},
	{"geometry":{"coordinates":[-2.994292,37.920658],"type":"Point"},"properties":{"osm_id":"2770051251","tag":{"amenity":"recycling","recycling:cans":"yes","recycling:glass":"yes","recycling:paper":"yes","recycling_type":"aceite"}},"type":"Feature"},
	{"geometry":{"coordinates":[-2.994286,37.920668],"type":"Point"},"properties":{"osm_id":"2770051252","tag":{"amenity":"recycling","recycling:cans":"yes","recycling:glass":"yes","recycling:paper":"yes","recycling_type":"aceite"}},"type":"Feature"},
	{"geometry":{"coordinates":[-2.99428,37.920674],"type":"Point"},"properties":{"osm_id":"2770051253","tag":{"amenity":"recycling","recycling:cans":"yes","recycling:glass":"yes","recycling:paper":"yes","recycling_type":"aceite"}},"type":"Feature"},
	{"geometry":{"coordinates":[-2.994276,37.920681],"type":"Point"},"properties":{"osm_id":"2770051256","tag":{"amenity":"recycling","recycling:cans":"yes","recycling:glass":"yes","recycling:paper":"yes","recycling_type":"aceite"}},"type":"Feature"},
	{"geometry":{"coordinates":[-3.00285,37.912757],"type":"Point"},"properties":{"osm_id":"2770089796","tag":{"amenity":"waste_basket"}},"type":"Feature"},
	{"geometry":{"coordinates":[-3.002393,37.912878],"type":"Point"},"properties":{"osm_id":"2770089811","tag":{"amenity":"waste_basket"}},"type":"Feature"},
	{"geometry":{"coordinates":[-3.002841,37.912909],"type":"Point"},"properties":{"osm_id":"2770089812","tag":{"amenity":"waste_basket"}},"type":"Feature"},
	{"geometry":{"coordinates":[-3.002418,37.912946],"type":"Point"},"properties":{"osm_id":"2770089817","tag":{"amenity":"waste_basket"}},"type":"Feature"},
	{"geometry":{"coordinates":[-3.002449,37.913042],"type":"Point"},"properties":{"osm_id":"2770089826","tag":{"amenity":"waste_basket"}},"type":"Feature"},
	{"geometry":{"coordinates":[-3.002781,37.911763],"type":"Point"},"properties":{"osm_id":"2770162557","tag":{"amenity":"waste_basket"}},"type":"Feature"},
	{"geometry":{"coordinates":[-3.002861,37.912168],"type":"Point"},"properties":{"osm_id":"2770162574","tag":{"amenity":"waste_basket"}},"type":"Feature"},
	{"geometry":{"coordinates":[-3.002673,37.910777],"type":"Point"},"properties":{"osm_id":"2770192043","tag":{"amenity":"waste_basket"}},"type":"Feature"},
	{"geometry":{"coordinates":[-3.002548,37.910861],"type":"Point"},"properties":{"osm_id":"2770192051","tag":{"amenity":"waste_basket"}},"type":"Feature"},
	{"geometry":{"coordinates":[-3.002449,37.910954],"type":"Point"},"properties":{"osm_id":"2770192092","tag":{"amenity":"waste_basket"}},"type":"Feature"},
	{"geometry":{"coordinates":[-3.002556,37.910976],"type":"Point"},"properties":{"osm_id":"2770192105","tag":{"amenity":"waste_basket"}},"type":"Feature"},
	{"geometry":{"coordinates":[-3.002659,37.911213],"type":"Point"},"properties":{"osm_id":"2770192146","tag":{"amenity":"waste_basket"}},"type":"Feature"},
	{"geometry":{"coordinates":[-3.002684,37.911402],"type":"Point"},"properties":{"osm_id":"2770192151","tag":{"amenity":"waste_basket"}},"type":"Feature"},
	{"geometry":{"coordinates":[-2.992388,37.921788],"type":"Point"},"properties":{"osm_id":"2770199163","tag":{"amenity":"recycling","recycling:cans":"yes","recycling:glass":"yes","recycling:paper":"no"}},"type":"Feature"},
	{"geometry":{"coordinates":[-2.992372,37.92179],"type":"Point"},"properties":{"osm_id":"2770199172","tag":{"amenity":"recycling","recycling:cans":"yes","recycling:glass":"yes","recycling:paper":"no"}},"type":"Feature"},
	{"geometry":{"coordinates":[-2.99979,37.90942],"type":"Point"},"properties":{"osm_id":"2770202296","tag":{"amenity":"recycling","recycling_type":"container"}},"type":"Feature"},
	{"geometry":{"coordinates":[-3.000255,37.911213],"type":"Point"},"properties":{"osm_id":"2770202627","tag":{"amenity":"recycling","recycling:organic":"yes"}},"type":"Feature"},
	{"geometry":{"coordinates":[-3.019679,37.916253],"type":"Point"},"properties":{"osm_id":"2772135430","tag":{"amenity":"recycling","recycling:cans":"yes","recycling:glass":"yes","recycling:paper":"yes","recycling_type":"container"}},"type":"Feature"},
	{"geometry":{"coordinates":[-3.020425,37.916931],"type":"Point"},"properties":{"osm_id":"2772135431","tag":{"amenity":"recycling","recycling:cans":"yes","recycling:glass":"yes","recycling:paper":"yes","recycling_type":"container"}},"type":"Feature"},
	{"geometry":{"coordinates":[-3.020631,37.91714],"type":"Point"},"properties":{"osm_id":"2772135432","tag":{"amenity":"recycling","recycling:cans":"yes","recycling:glass":"yes","recycling:paper":"yes","recycling_type":"container"}},"type":"Feature"},
	{"geometry":{"coordinates":[-3.021182,37.917395],"type":"Point"},"properties":{"osm_id":"2772135434","tag":{"amenity":"recycling","recycling:cans":"yes","recycling:glass":"yes","recycling:paper":"yes","recycling_type":"container"}},"type":"Feature"},
	{"geometry":{"coordinates":[-3.021533,37.917685],"type":"Point"},"properties":{"osm_id":"2772135438","tag":{"amenity":"waste_basket"}},"type":"Feature"},
	{"geometry":{"coordinates":[-3.022463,37.917992],"type":"Point"},"properties":{"osm_id":"2772135440","tag":{"amenity":"recycling","recycling:cans":"yes","recycling:glass":"yes","recycling:paper":"yes","recycling_type":"container"}},"type":"Feature"},
	{"geometry":{"coordinates":[-3.023171,37.91838],"type":"Point"},"properties":{"osm_id":"2772135444","tag":{"amenity":"recycling","recycling:cans":"yes","recycling:glass":"yes","recycling:paper":"yes","recycling_type":"container"}},"type":"Feature"},
	{"geometry":{"coordinates":[-3.023317,37.918704],"type":"Point"},"properties":{"osm_id":"2772135448","tag":{"amenity":"recycling","recycling:cans":"yes","recycling:glass":"yes","recycling:paper":"yes","recycling_type":"container"}},"type":"Feature"},
	{"geometry":{"coordinates":[-3.023912,37.919013],"type":"Point"},"properties":{"osm_id":"2772135452","tag":{"amenity":"recycling","recycling:cans":"yes","recycling:glass":"yes","recycling:paper":"yes","recycling_type":"container"}},"type":"Feature"},
	{"geometry":{"coordinates":[-3.023176,37.919225],"type":"Point"},"properties":{"osm_id":"2772135456","tag":{"amenity":"waste_basket"}},"type":"Feature"},
	{"geometry":{"coordinates":[-3.023311,37.919263],"type":"Point"},"properties":{"osm_id":"2772135459","tag":{"amenity":"waste_basket"}},"type":"Feature"},
	{"geometry":{"coordinates":[-3.024415,37.919402],"type":"Point"},"properties":{"osm_id":"2772135461","tag":{"amenity":"recycling","recycling:cans":"yes","recycling:glass":"yes","recycling:paper":"yes","recycling_type":"container"}},"type":"Feature"},
	{"geometry":{"coordinates":[-3.024457,37.919659],"type":"Point"},"properties":{"osm_id":"2772135465","tag":{"amenity":"recycling","recycling:cans":"yes","recycling:glass":"yes","recycling:paper":"yes","recycling_type":"container"}},"type":"Feature"},
	{"geometry":{"coordinates":[-3.024575,37.919749],"type":"Point"},"properties":{"osm_id":"2772135469","tag":{"amenity":"waste_basket"}},"type":"Feature"},
	{"geometry":{"coordinates":[-3.023949,37.92012],"type":"Point"},"properties":{"osm_id":"2772135474","tag":{"amenity":"recycling","recycling:cans":"yes","recycling:glass":"yes","recycling:paper":"yes","recycling_type":"container"}},"type":"Feature"},
	{"geometry":{"coordinates":[-3.005423,37.912341],"type":"Point"},"properties":{"osm_id":"2772138693","tag":{"amenity":"waste_basket"}},"type":"Feature"},
	{"geometry":{"coordinates":[-3.005563,37.912498],"type":"Point"},"properties":{"osm_id":"2772138695","tag":{"amenity":"waste_basket"}},"type":"Feature"},
	{"geometry":{"coordinates":[-3.004581,37.912783],"type":"Point"},"properties":{"osm_id":"2772138698","tag":{"amenity":"waste_basket"}},"type":"Feature"},
	{"geometry":{"coordinates":[-3.004679,37.912831],"type":"Point"},"properties":{"osm_id":"2772138701","tag":{"amenity":"waste_basket"}},"type":"Feature"},
	{"geometry":{"coordinates":[-3.006868,37.913049],"type":"Point"},"properties":{"osm_id":"2772138703","tag":{"amenity":"waste_basket"}},"type":"Feature"},
	{"geometry":{"coordinates":[-3.006875,37.913252],"type":"Point"},"properties":{"osm_id":"2772138710","tag":{"amenity":"waste_basket"}},"type":"Feature"},
	{"geometry":{"coordinates":[-3.006865,37.913291],"type":"Point"},"properties":{"osm_id":"2772138713","tag":{"amenity":"waste_basket"}},"type":"Feature"},
	{"geometry":{"coordinates":[-3.007191,37.913298],"type":"Point"},"properties":{"osm_id":"2772138715","tag":{"amenity":"waste_basket"}},"type":"Feature"},
	{"geometry":{"coordinates":[-3.007165,37.913345],"type":"Point"},"properties":{"osm_id":"2772138717","tag":{"amenity":"waste_basket"}},"type":"Feature"},
	{"geometry":{"coordinates":[-3.006604,37.913419],"type":"Point"},"properties":{"osm_id":"2772138718","tag":{"amenity":"waste_basket"}},"type":"Feature"},
	{"geometry":{"coordinates":[-3.007263,37.913589],"type":"Point"},"properties":{"osm_id":"2772138719","tag":{"amenity":"waste_basket"}},"type":"Feature"},
	{"geometry":{"coordinates":[-3.007511,37.913602],"type":"Point"},"properties":{"osm_id":"2772138721","tag":{"amenity":"waste_basket"}},"type":"Feature"},
	{"geometry":{"coordinates":[-3.007194,37.913653],"type":"Point"},"properties":{"osm_id":"2772138722","tag":{"amenity":"waste_basket"}},"type":"Feature"},
	{"geometry":{"coordinates":[-3.007364,37.913677],"type":"Point"},"properties":{"osm_id":"2772138723","tag":{"amenity":"waste_basket"}},"type":"Feature"},
	{"geometry":{"coordinates":[-3.007901,37.913776],"type":"Point"},"properties":{"osm_id":"2772138724","tag":{"amenity":"waste_basket"}},"type":"Feature"},
	{"geometry":{"coordinates":[-3.008235,37.914271],"type":"Point"},"properties":{"osm_id":"2772138725","tag":{"amenity":"waste_basket"}},"type":"Feature"},
	{"geometry":{"coordinates":[-3.008079,37.914937],"type":"Point"},"properties":{"osm_id":"2772138728","tag":{"amenity":"waste_basket"}},"type":"Feature"},
	{"geometry":{"coordinates":[-3.007351,37.915278],"type":"Point"},"properties":{"osm_id":"2772138729","tag":{"amenity":"waste_basket"}},"type":"Feature"},
	{"geometry":{"coordinates":[-3.007938,37.915808],"type":"Point"},"properties":{"osm_id":"2772138732","tag":{"amenity":"waste_basket"}},"type":"Feature"},
	{"geometry":{"coordinates":[-3.0009,37.912579],"type":"Point"},"properties":{"osm_id":"2772144163","tag":{"amenity":"recycling","recycling:cans":"yes","recycling:glass":"yes"}},"type":"Feature"},
	{"geometry":{"coordinates":[-2.999248,37.913676],"type":"Point"},"properties":{"osm_id":"2772144191","tag":{"amenity":"recycling","recycling:cans":"yes","recycling:glass":"yes","recycling:paper":"yes"}},"type":"Feature"},
	{"geometry":{"coordinates":[-3.000395,37.914463],"type":"Point"},"properties":{"osm_id":"2772144216","tag":{"amenity":"recycling","recycling:cans":"yes","recycling:glass":"yes","recycling:paper":"yes"}},"type":"Feature"},
	{"geometry":{"coordinates":[-2.995984,37.918738],"type":"Point"},"properties":{"osm_id":"2772151715","tag":{"amenity":"recycling","recycling:cans":"yes"}},"type":"Feature"},
	{"geometry":{"coordinates":[-3.004141,37.91335],"type":"Point"},"properties":{"osm_id":"2772165395","tag":{"amenity":"recycling","recycling:batteries":"yes","recycling:cans":"yes","recycling:clothes":"yes","recycling:glass":"yes","recycling:paper":"yes","recycling:scrap_metal":"yes","recycling_type":"container"}},"type":"Feature"},
	{"geometry":{"coordinates":[-3.004318,37.913522],"type":"Point"},"properties":{"osm_id":"2772165399","tag":{"amenity":"waste_basket","natural":"tree"}},"type":"Feature"},
	{"geometry":{"coordinates":[-3.003441,37.913736],"type":"Point"},"properties":{"osm_id":"2772165401","tag":{"amenity":"recycling","recycling:batteries":"yes","recycling:cans":"yes","recycling:clothes":"yes","recycling:glass":"yes","recycling:paper":"yes","recycling:scrap_metal":"yes","recycling_type":"container"}},"type":"Feature"},
	{"geometry":{"coordinates":[-3.004938,37.91396],"type":"Point"},"properties":{"osm_id":"2772165405","tag":{"amenity":"waste_basket","natural":"tree"}},"type":"Feature"},
	{"geometry":{"coordinates":[-3.004052,37.914161],"type":"Point"},"properties":{"osm_id":"2772165407","tag":{"amenity":"recycling","recycling:batteries":"yes","recycling:cans":"yes","recycling:clothes":"yes","recycling:glass":"yes","recycling:paper":"yes","recycling:scrap_metal":"yes","recycling_type":"container"}},"type":"Feature"},
	{"geometry":{"coordinates":[-3.00538,37.914316],"type":"Point"},"properties":{"osm_id":"2772165411","tag":{"amenity":"recycling","recycling:batteries":"yes","recycling:cans":"yes","recycling:clothes":"yes","recycling:glass":"yes","recycling:paper":"yes","recycling:scrap_metal":"yes","recycling_type":"container"}},"type":"Feature"},
	{"geometry":{"coordinates":[-3.005383,37.914508],"type":"Point"},"properties":{"osm_id":"2772165415","tag":{"amenity":"waste_basket","natural":"tree"}},"type":"Feature"},
	{"geometry":{"coordinates":[-3.00663,37.915101],"type":"Point"},"properties":{"osm_id":"2772165432","tag":{"amenity":"recycling","recycling:batteries":"yes","recycling:cans":"yes","recycling:clothes":"yes","recycling:glass":"yes","recycling:paper":"yes","recycling:scrap_metal":"yes","recycling_type":"container"}},"type":"Feature"},
	{"geometry":{"coordinates":[-3.006523,37.91569],"type":"Point"},"properties":{"osm_id":"2772165455","tag":{"amenity":"recycling","recycling:batteries":"yes","recycling:cans":"yes","recycling:clothes":"yes","recycling:glass":"yes","recycling:paper":"yes","recycling:scrap_metal":"yes","recycling_type":"container"}},"type":"Feature"},
	{"geometry":{"coordinates":[-3.006679,37.916302],"type":"Point"},"properties":{"osm_id":"2772165479","tag":{"amenity":"recycling","mapillary":"yLMg9hehcKQwcYFjO34Ykw","recycling:batteries":"yes","recycling:cans":"yes","recycling:clothes":"yes","recycling:glass":"no","recycling:glass_bottles":"yes","recycling:paper":"yes","recycling:scrap_metal":"yes","recycling_type":"container","survey:date":"2019-11-03"}},"type":"Feature"},
	{"geometry":{"coordinates":[-3.00315,37.913587],"type":"Point"},"properties":{"osm_id":"2772208398","tag":{"amenity":"waste_basket"}},"type":"Feature"},
	{"geometry":{"coordinates":[-3.003198,37.91369],"type":"Point"},"properties":{"osm_id":"2772208401","tag":{"amenity":"waste_basket"}},"type":"Feature"},
	{"geometry":{"coordinates":[-3.00326,37.913734],"type":"Point"},"properties":{"osm_id":"2772208402","tag":{"amenity":"waste_basket"}},"type":"Feature"},
	{"geometry":{"coordinates":[-3.003852,37.916603],"type":"Point"},"properties":{"osm_id":"2772208434","tag":{"amenity":"waste_basket"}},"type":"Feature"},
	{"geometry":{"coordinates":[-3.005634,37.916744],"type":"Point"},"properties":{"osm_id":"2772208444","tag":{"amenity":"waste_basket"}},"type":"Feature"},
	{"geometry":{"coordinates":[-3.00552,37.916787],"type":"Point"},"properties":{"osm_id":"2772208451","tag":{"amenity":"waste_basket"}},"type":"Feature"},
	{"geometry":{"coordinates":[-3.005415,37.916862],"type":"Point"},"properties":{"osm_id":"2772208458","tag":{"amenity":"waste_basket"}},"type":"Feature"},
	{"geometry":{"coordinates":[-3.003856,37.917417],"type":"Point"},"properties":{"osm_id":"2772208468","tag":{"amenity":"waste_basket"}},"type":"Feature"},
	{"geometry":{"coordinates":[-3.003876,37.917613],"type":"Point"},"properties":{"osm_id":"2772208478","tag":{"amenity":"waste_basket"}},"type":"Feature"},
	{"geometry":{"coordinates":[-3.002982,37.917797],"type":"Point"},"properties":{"osm_id":"2772208484","tag":{"amenity":"waste_basket"}},"type":"Feature"},
	{"geometry":{"coordinates":[-3.003,37.918027],"type":"Point"},"properties":{"osm_id":"2772208492","tag":{"amenity":"waste_basket"}},"type":"Feature"},
	{"geometry":{"coordinates":[-3.003373,37.918045],"type":"Point"},"properties":{"osm_id":"2772208494","tag":{"amenity":"waste_basket"}},"type":"Feature"},
	{"geometry":{"coordinates":[-3.002871,37.918358],"type":"Point"},"properties":{"osm_id":"2772208505","tag":{"amenity":"waste_basket"}},"type":"Feature"},
	{"geometry":{"coordinates":[-3.003694,37.918513],"type":"Point"},"properties":{"osm_id":"2772208508","tag":{"amenity":"waste_basket"}},"type":"Feature"},
	{"geometry":{"coordinates":[-3.002537,37.91862],"type":"Point"},"properties":{"osm_id":"2772208526","tag":{"amenity":"waste_basket"}},"type":"Feature"},
	{"geometry":{"coordinates":[-3.002701,37.91874],"type":"Point"},"properties":{"osm_id":"2772208534","tag":{"amenity":"waste_basket"}},"type":"Feature"},
	{"geometry":{"coordinates":[-3.003789,37.918751],"type":"Point"},"properties":{"osm_id":"2772208535","tag":{"amenity":"waste_basket"}},"type":"Feature"},
	{"geometry":{"coordinates":[-3.002535,37.918844],"type":"Point"},"properties":{"osm_id":"2772208542","tag":{"amenity":"waste_basket"}},"type":"Feature"},
	{"geometry":{"coordinates":[-3.002254,37.919003],"type":"Point"},"properties":{"osm_id":"2772208547","tag":{"amenity":"waste_basket"}},"type":"Feature"},
	{"geometry":{"coordinates":[-3.001853,37.919159],"type":"Point"},"properties":{"osm_id":"2772208554","tag":{"amenity":"waste_basket"}},"type":"Feature"},
	{"geometry":{"coordinates":[-3.001926,37.919223],"type":"Point"},"properties":{"osm_id":"2772208558","tag":{"amenity":"waste_basket"}},"type":"Feature"},
	{"geometry":{"coordinates":[-3.0012,37.919569],"type":"Point"},"properties":{"osm_id":"2772208570","tag":{"amenity":"waste_basket"}},"type":"Feature"},
	{"geometry":{"coordinates":[-3.003601,37.919642],"type":"Point"},"properties":{"osm_id":"2772208577","tag":{"amenity":"waste_basket"}},"type":"Feature"},
	{"geometry":{"coordinates":[-3.001052,37.919776],"type":"Point"},"properties":{"osm_id":"2772208589","tag":{"amenity":"waste_basket"}},"type":"Feature"},
	{"geometry":{"coordinates":[-3.00486,37.911896],"type":"Point"},"properties":{"osm_id":"2772209076","tag":{"amenity":"recycling","recycling_type":"container"}},"type":"Feature"},
	{"geometry":{"coordinates":[-3.006256,37.91198],"type":"Point"},"properties":{"osm_id":"2772209080","tag":{"amenity":"recycling","recycling_type":"container"}},"type":"Feature"},
	{"geometry":{"coordinates":[-3.005405,37.912333],"type":"Point"},"properties":{"osm_id":"2772209081","tag":{"amenity":"recycling","recycling_type":"container"}},"type":"Feature"},
	{"geometry":{"coordinates":[-3.005169,37.912557],"type":"Point"},"properties":{"osm_id":"2772209083","tag":{"amenity":"recycling","recycling_type":"container"}},"type":"Feature"},
	{"geometry":{"coordinates":[-3.004893,37.912634],"type":"Point"},"properties":{"osm_id":"2772209084","tag":{"amenity":"recycling","recycling_type":"container"}},"type":"Feature"},
	{"geometry":{"coordinates":[-3.004724,37.91281],"type":"Point"},"properties":{"osm_id":"2772209085","tag":{"amenity":"recycling","recycling_type":"container"}},"type":"Feature"},
	{"geometry":{"coordinates":[-3.005873,37.912872],"type":"Point"},"properties":{"osm_id":"2772209086","tag":{"amenity":"recycling","recycling_type":"container"}},"type":"Feature"},
	{"geometry":{"coordinates":[-3.004002,37.913185],"type":"Point"},"properties":{"osm_id":"2772209087","tag":{"amenity":"recycling","recycling_type":"container"}},"type":"Feature"},
	{"geometry":{"coordinates":[-3.007548,37.913404],"type":"Point"},"properties":{"osm_id":"2772209092","tag":{"amenity":"recycling","recycling_type":"container"}},"type":"Feature"},
	{"geometry":{"coordinates":[-3.007703,37.913859],"type":"Point"},"properties":{"osm_id":"2772209108","tag":{"amenity":"recycling","recycling_type":"container"}},"type":"Feature"},
	{"geometry":{"coordinates":[-3.00654,37.913875],"type":"Point"},"properties":{"osm_id":"2772209109","tag":{"amenity":"recycling","recycling_type":"container"}},"type":"Feature"},
	{"geometry":{"coordinates":[-3.007047,37.91445],"type":"Point"},"properties":{"osm_id":"2772209117","tag":{"amenity":"recycling","recycling_type":"container"}},"type":"Feature"},
	{"geometry":{"coordinates":[-3.007101,37.915067],"type":"Point"},"properties":{"osm_id":"2772209119","tag":{"amenity":"recycling","recycling_type":"container"}},"type":"Feature"},
	{"geometry":{"coordinates":[-3.007276,37.915959],"type":"Point"},"properties":{"osm_id":"2772209120","tag":{"amenity":"recycling","recycling_type":"container"}},"type":"Feature"},
	{"geometry":{"coordinates":[-3.005386,37.909024],"type":"Point"},"properties":{"osm_id":"2772256759","tag":{"amenity":"recycling","recycling_type":"container"}},"type":"Feature"},
	{"geometry":{"coordinates":[-2.999668,37.91147],"type":"Point"},"properties":{"osm_id":"2774842634","tag":{"amenity":"recycling","recycling:organic":"yes"}},"type":"Feature"},
	{"geometry":{"coordinates":[-3.000651,37.913845],"type":"Point"},"properties":{"osm_id":"2826178570","tag":{"amenity":"recycling","recycling:cans":"yes","recycling:glass":"yes","recycling:paper":"yes","recycling_type":"basura"}},"type":"Feature"},
	{"geometry":{"coordinates":[-3.001281,37.914218],"type":"Point"},"properties":{"osm_id":"2826178573","tag":{"amenity":"recycling","recycling_type":"basura"}},"type":"Feature"},
	{"geometry":{"coordinates":[-3.00063,37.913882],"type":"Point"},"properties":{"osm_id":"2826254887","tag":{"amenity":"waste_basket"}},"type":"Feature"},
	{"geometry":{"coordinates":[-3.001375,37.915204],"type":"Point"},"properties":{"osm_id":"2826254896","tag":{"amenity":"recycling","recycling:cans":"yes","recycling:glass":"yes","recycling:paper":"yes","recycling_type":"basura"}},"type":"Feature"},
	{"geometry":{"coordinates":[-3.001109,37.915383],"type":"Point"},"properties":{"osm_id":"2826254901","tag":{"amenity":"recycling","recycling:cans":"yes","recycling:glass":"yes","recycling:paper":"yes","recycling_type":"basura"}},"type":"Feature"},
	{"geometry":{"coordinates":[-3.001471,37.917649],"type":"Point"},"properties":{"osm_id":"2826274351","tag":{"amenity":"recycling","recycling:cans":"yes","recycling:glass":"yes","recycling:paper":"yes","recycling_type":"basura"}},"type":"Feature"},
	{"geometry":{"coordinates":[-3.001555,37.91775],"type":"Point"},"properties":{"osm_id":"2826274352","tag":{"amenity":"recycling","recycling:cans":"yes","recycling:glass":"yes","recycling:paper":"yes","recycling_type":"basura"}},"type":"Feature"},
	{"geometry":{"coordinates":[-3.001614,37.918597],"type":"Point"},"properties":{"osm_id":"2826274353","tag":{"amenity":"waste_basket"}},"type":"Feature"},
	{"geometry":{"coordinates":[-3.001416,37.918868],"type":"Point"},"properties":{"osm_id":"2826274355","tag":{"amenity":"recycling","recycling:cans":"yes","recycling:glass":"yes","recycling:paper":"yes","recycling_type":"basura"}},"type":"Feature"},
	{"geometry":{"coordinates":[-3.001938,37.91848],"type":"Point"},"properties":{"osm_id":"2826284220","tag":{"amenity":"waste_basket"}},"type":"Feature"},
	{"geometry":{"coordinates":[-3.003706,37.915374],"type":"Point"},"properties":{"osm_id":"2826311407","tag":{"amenity":"recycling","recycling:cans":"yes","recycling:glass":"yes","recycling:paper":"yes","recycling_type":"basura"}},"type":"Feature"},
	{"geometry":{"coordinates":[-3.003076,37.916505],"type":"Point"},"properties":{"osm_id":"2826311408","tag":{"amenity":"recycling","recycling:cans":"yes","recycling:glass":"yes","recycling:paper":"yes","recycling_type":"basura"}},"type":"Feature"},
	{"geometry":{"coordinates":[-3.002919,37.916588],"type":"Point"},"properties":{"osm_id":"2826311409","tag":{"amenity":"waste_basket"}},"type":"Feature"},
	{"geometry":{"coordinates":[-3.002431,37.917654],"type":"Point"},"properties":{"osm_id":"2826311411","tag":{"amenity":"recycling","recycling:cans":"yes","recycling:glass":"yes","recycling:paper":"yes","recycling_type":"basura"}},"type":"Feature"},
	{"geometry":{"coordinates":[-3.001608,37.909839],"type":"Point"},"properties":{"osm_id":"2826356291","tag":{"amenity":"waste_basket"}},"type":"Feature"},
	{"geometry":{"coordinates":[-3.003496,37.914642],"type":"Point"},"properties":{"osm_id":"2826371469","tag":{"amenity":"waste_basket"}},"type":"Feature"},
	{"geometry":{"coordinates":[-3.00358,37.914643],"type":"Point"},"properties":{"osm_id":"2826371470","tag":{"amenity":"waste_basket"}},"type":"Feature"},
	{"geometry":{"coordinates":[-3.00355,37.914832],"type":"Point"},"properties":{"osm_id":"2826371471","tag":{"amenity":"recycling","recycling:cans":"yes","recycling:glass":"yes","recycling:paper":"yes","recycling_type":"basura"}},"type":"Feature"},
	{"geometry":{"coordinates":[-3.003812,37.91536],"type":"Point"},"properties":{"osm_id":"2826371472","tag":{"amenity":"waste_basket"}},"type":"Feature"},
	{"geometry":{"coordinates":[-3.002462,37.90978],"type":"Point"},"properties":{"osm_id":"2837425794","tag":{"amenity":"recycling"}},"type":"Feature"},
	{"geometry":{"coordinates":[-3.002578,37.909881],"type":"Point"},"properties":{"osm_id":"2837428201","tag":{"amenity":"waste_basket"}},"type":"Feature"},
	{"geometry":{"coordinates":[-3.000121,37.908958],"type":"Point"},"properties":{"osm_id":"2841633884","tag":{"amenity":"waste_basket"}},"type":"Feature"},
	{"geometry":{"coordinates":[-3.000151,37.909012],"type":"Point"},"properties":{"osm_id":"2841633887","tag":{"amenity":"waste_basket"}},"type":"Feature"},
	{"geometry":{"coordinates":[-3.000198,37.909062],"type":"Point"},"properties":{"osm_id":"2841633893","tag":{"amenity":"waste_basket"}},"type":"Feature"},
	{"geometry":{"coordinates":[-3.000252,37.909106],"type":"Point"},"properties":{"osm_id":"2841633898","tag":{"amenity":"waste_basket"}},"type":"Feature"},
	{"geometry":{"coordinates":[-3.003358,37.914119],"type":"Point"},"properties":{"osm_id":"2845408006","tag":{"amenity":"waste_basket"}},"type":"Feature"}
]
}
