{
"type": "FeatureCollection",
"features": [
	{"geometry":{"coordinates":[-4.163723,57.472101],"type":"Point"},"properties":{"osm_id":"391879992","tag":{"amenity":"recycling"}},"type":"Feature"},
	{"geometry":{"coordinates":[-4.14723,57.474347],"type":"Point"},"properties":{"osm_id":"458234725","tag":{"amenity":"waste_basket","waste":"dog_excrement"}},"type":"Feature"},
	{"geometry":{"coordinates":[-4.153555,57.479377],"type":"Point"},"properties":{"osm_id":"464778320","tag":{"amenity":"waste_basket","waste":"dog_excrement"}},"type":"Feature"},
	{"geometry":{"coordinates":[-4.189498,57.469391],"type":"Point"},"properties":{"osm_id":"473495852","tag":{"amenity":"recycling"}},"type":"Feature"},
	{"geometry":{"coordinates":[-4.177921,57.484099],"type":"Point"},"properties":{"osm_id":"5003755820","tag":{"amenity":"recycling","recycling:glass_bottles":"yes","recycling_type":"container"}},"type":"Feature"},
	{"geometry":{"coordinates":[-4.213553,57.478335],"type":"Point"},"properties":{"osm_id":"6211479102","tag":{"addr:city":"Inverness","addr:street":"Cawdor Road","amenity":"waste_basket","waste":"dog_excrement"}},"type":"Feature"},
	{"geometry":{"coordinates":[-4.207086,57.4733],"type":"Point"},"properties":{"osm_id":"6211498271","tag":{"addr:city":"Inverness","addr:street":"Diriebught Road","amenity":"waste_basket"}},"type":"Feature"},
	{"geometry":{"coordinates":[-4.206673,57.476343],"type":"Point"},"properties":{"osm_id":"6211498272","tag":{"addr:city":"Inverness","addr:street":"Diriebught Road","amenity":"waste_basket","waste":"dog_excrement"}},"type":"Feature"}
]
}
